{
  "version": 0.6,
  "generator": "Overpass API 0.7.55.1011 6c2efc30",
  "osm3s": {
    "timestamp_osm_base": "2020-02-06T12:35:01Z",
    "copyright": "The data included in this document is from www.openstreetmap.org. The data is made available under ODbL."
  },
  "elements": [

{
  "type": "node",
  "id": 451727066,
  "lat": 47.3884825,
  "lon": 8.5211173,
  "tags": {
    "addr:city": "Zürich",
    "addr:country": "CH",
    "addr:housenumber": "257",
    "addr:postcode": "8005",
    "addr:street": "Heinrichstrasse",
    "amenity": "restaurant",
    "capacity": "335",
    "cuisine": "regional",
    "microbrewery": "yes",
    "name": "Steinfels",
    "opening_hours": "Mo-Th 11:00-24:00; Fr 11:00-01:00, Sa 13:00-01:00, Su 13:00-23:00",
    "operator": "Kramer Gastronomie",
    "outdoor_seating": "yes",
    "takeaway": "beer",
    "website": "https://steinfels-zuerich.ch/"
  }
},
{
  "type": "node",
  "id": 564888514,
  "lat": 47.4986288,
  "lon": 8.7261468,
  "tags": {
    "addr:city": "Winterthur",
    "addr:country": "CH",
    "addr:housenumber": "7",
    "addr:postcode": "8400",
    "addr:street": "Neumarkt",
    "amenity": "restaurant",
    "level": "0",
    "microbrewery": "yes",
    "name": "Brauhaus",
    "opening_hours": "Mo-Sa 11:00-23:30; Su 10:00-22:00",
    "outdoor_seating": "yes",
    "smoking": "outside",
    "website": "http://www.brauhaus.ch/gastro-winterthur",
    "wheelchair": "limited"
  }
},
{
  "type": "node",
  "id": 567443026,
  "lat": 47.5584600,
  "lon": 8.9006739,
  "tags": {
    "addr:city": "Frauenfeld",
    "addr:housenumber": "2",
    "addr:postcode": "8500",
    "addr:street": "Hohenzornstrasse",
    "amenity": "restaurant",
    "microbrewery": "yes",
    "name": "Brauhaus",
    "opening_hours": "Mo-Th 08:00-23:30; Fr 08:00-24:00; Sa 11:00-24:00; Su 10:00-22:00",
    "operator": "Brauhaus Sternen AG",
    "outdoor_seating": "yes",
    "website": "http://www.brauhaus.ch/"
  }
},
{
  "type": "node",
  "id": 570622891,
  "lat": 47.7108640,
  "lon": 8.6448942,
  "tags": {
    "amenity": "brewery",
    "craft": "brewery",
    "name": "Brauerei Falken"
  }
},
{
  "type": "node",
  "id": 1525041813,
  "lat": 47.3707258,
  "lon": 8.7707540,
  "tags": {
    "craft": "brewery",
    "name": "Brauerei Sudwerk AG",
    "website": "https://sudwerk.ch/"
  }
},
{
  "type": "node",
  "id": 1864187711,
  "lat": 47.4106547,
  "lon": 8.5463538,
  "tags": {
    "amenity": "pub",
    "brewery": "Green King IPA;Guinness;Heineken;Brooklyn IPA;Super Bock;Hoegarden;Blue Moon;Kilkenny",
    "microbrewery": "yes",
    "name": "Cooper's Pub",
    "opening_hours": "Mo-Th 11:00-23:59; Fr 11:00-02:00; Sa 14:00-02:00"
  }
},
{
  "type": "node",
  "id": 2457539648,
  "lat": 47.4866133,
  "lon": 8.7594559,
  "tags": {
    "amenity": "restaurant",
    "cuisine": "regional",
    "microbrewery": "yes",
    "name": "Restaurant Burehus"
  }
},
{
  "type": "node",
  "id": 2904967414,
  "lat": 47.3836636,
  "lon": 8.5326533,
  "tags": {
    "addr:city": "Zürich",
    "addr:housenumber": "109",
    "addr:postcode": "8005",
    "addr:street": "Limmatstrasse",
    "amenity": "bar",
    "description": "Craft Beer Bar",
    "microbrewery": "yes",
    "name": "Eldorado",
    "outdoor_seating": "yes",
    "phone": "+41 43 540 90 31",
    "smoking": "outside",
    "website": "http://www.eldorado-zh.ch/"
  }
},
{
  "type": "node",
  "id": 3913401400,
  "lat": 47.4971903,
  "lon": 8.7598926,
  "tags": {
    "addr:city": "Winterthur",
    "addr:housenumber": "40",
    "addr:postcode": "8404",
    "addr:street": "Industriestrasse",
    "craft": "brewery",
    "name": "Doppelleu Brauwerkstatt",
    "website": "https://www.doppelleu.ch/"
  }
},
{
  "type": "node",
  "id": 4165779821,
  "lat": 47.3272199,
  "lon": 8.8017373,
  "tags": {
    "addr:city": "Wetzikon",
    "addr:housenumber": "196",
    "addr:postcode": "8620",
    "addr:street": "Bahnhofstrasse",
    "amenity": "pub",
    "internet_access": "wlan",
    "microbrewery": "yes",
    "name": "Molly Malone",
    "opening_hours": "16:00-00:30; Fr,Sa 16:00-02:30",
    "outdoor_seating": "yes",
    "smoking": "outside",
    "website": "http://www.mollymalone.ch",
    "wheelchair": "yes"
  }
},
{
  "type": "node",
  "id": 4219654432,
  "lat": 47.4040258,
  "lon": 8.6051046,
  "tags": {
    "addr:city": "Wallisellen",
    "addr:housenumber": "3",
    "addr:postcode": "8304",
    "addr:street": "Am Wasser",
    "craft": "brewery",
    "level": "0",
    "name": "Monsterbräu",
    "website": "http://monsterbraeu.ch/"
  }
},
{
  "type": "node",
  "id": 5315437605,
  "lat": 47.6804118,
  "lon": 8.6181555,
  "tags": {
    "craft": "brewery",
    "name": "CM Brauhaus",
    "website": "http://chuebelimoser.ch/"
  }
},
{
  "type": "node",
  "id": 5502246126,
  "lat": 47.7071370,
  "lon": 8.8227476,
  "tags": {
    "craft": "brewery",
    "name": "Gässli Bräu"
  }
},
{
  "type": "node",
  "id": 5722355121,
  "lat": 47.4000753,
  "lon": 8.5321851,
  "tags": {
    "addr:city": "Zürich",
    "addr:country": "CH",
    "addr:housenumber": "10",
    "addr:postcode": "8057",
    "addr:street": "Käferholzstrasse",
    "craft": "brewery",
    "email": "info@hirnibrau.ch",
    "man_made": "works",
    "name": "Hirnibräu",
    "opening_hours": "Fr 17:00-20:00",
    "start_date": "2011",
    "website": "https://www.hirnibraeu.ch/"
  }
},
{
  "type": "node",
  "id": 5735130799,
  "lat": 47.3842657,
  "lon": 8.4965142,
  "tags": {
    "craft": "brewery",
    "name": "Turbinenbräu",
    "phone": "+41 44 440 54 14",
    "website": "http://www.turbinenbraeu.ch/",
    "wikipedia": "de:TurbinenBräu"
  }
},
{
  "type": "node",
  "id": 5981467631,
  "lat": 47.4116057,
  "lon": 8.4022383,
  "tags": {
    "addr:city": "Dietikon",
    "addr:housenumber": "21",
    "addr:postcode": "8953",
    "addr:street": "Grünaustrasse",
    "craft": "brewery",
    "name": "Brausyndikat GmbH",
    "opening_hours": "Tu 16:00-19:00",
    "product": "beer",
    "website": "https://www.brausyndikat.ch"
  }
},
{
  "type": "node",
  "id": 6227973600,
  "lat": 47.3467315,
  "lon": 8.2480328,
  "tags": {
    "amenity": "pub",
    "microbrewery": "yes",
    "name": "Wirtshaus zur Brauerei",
    "wheelchair": "yes"
  }
},
{
  "type": "node",
  "id": 6227973601,
  "lat": 47.3468260,
  "lon": 8.2480348,
  "tags": {
    "craft": "brewery",
    "name": "Brauerei Erusbacher & Paul AG",
    "website": "https://erusbacher.ch/"
  }
},
{
  "type": "node",
  "id": 6876013421,
  "lat": 47.2725987,
  "lon": 8.7205310,
  "tags": {
    "addr:city": "Oetwil am See",
    "addr:housenumber": "13",
    "addr:postcode": "8618",
    "addr:street": "Zelglistrasse",
    "craft": "brewery",
    "name": "Octopus-Bräu",
    "opening_hours": "Tu 18:30-21:30; Fr[2] 18:30-21:30",
    "website": "https://octopus-braeu.ch/"
  }
},
{
  "type": "way",
  "id": 46152205,
  "nodes": [
    588419614,
    588419613,
    588419615,
    588419612,
    588419614
  ],
  "tags": {
    "building": "yes",
    "craft": "brewery",
    "name": "Schlachthuus Braumanufaktur",
    "source": "Yahoo aerial images",
    "website": "https://www.schlachthuus.ch/"
  }
},
{
  "type": "way",
  "id": 96808744,
  "nodes": [
    1121632510,
    1121632426,
    1121632610,
    1121632328,
    1121632510
  ],
  "tags": {
    "addr:housenumber": "41",
    "addr:street": "Steinackerstrasse",
    "amenity": "restaurant",
    "building": "yes",
    "microbrewery": "yes",
    "name": "Snus Bar",
    "opening_hours": "Mo 17:00-21:00; Tu-Th 17:00-24:00; Fr 00:00-01:00,17:00-24:00; Sa 00:00-02:00,18:00-24:00; Su 00:00-02:00",
    "operator": "Snus Bar AG",
    "source": "Bing"
  }
},
{
  "type": "way",
  "id": 97234512,
  "nodes": [
    1126332235,
    3223688211,
    1126332360,
    3223688216,
    1126332259,
    1126332398,
    3223688210,
    1126332277,
    1126332219,
    1126332367,
    1126332235
  ],
  "tags": {
    "addr:city": "Zürich",
    "addr:country": "CH",
    "addr:housenumber": "91",
    "addr:postcode": "8006",
    "addr:street": "Universitätstrasse",
    "amenity": "restaurant",
    "building": "yes",
    "cuisine": "swiss",
    "diet:vegan": "yes",
    "diet:vegetarian": "yes",
    "microbrewery": "yes",
    "name": "Linde Oberstrass",
    "opening_hours": "Mo-Fr 08:00-24:00, Sa 09:00-24:00, Su 10:00-23:00",
    "reservation": "yes",
    "source": "Stadt Zürich Open Government Data;Geomatik + Vermessung;Tiefbau- und Entsorgungsdepartement",
    "website": "http://linde-oberstrass.ch",
    "wheelchair": "no"
  }
},
{
  "type": "way",
  "id": 103912084,
  "nodes": [
    1199420949,
    4127544399,
    4127544400,
    1199421058,
    1199421309,
    1199420922,
    1199421060,
    1199421283,
    1199420981,
    1199421133,
    1199420949
  ],
  "tags": {
    "addr:city": "Seengen",
    "addr:country": "CH",
    "addr:housenumber": "38",
    "addr:postcode": "5707",
    "addr:street": "Eichbergstrasse",
    "amenity": "restaurant",
    "building": "yes",
    "craft": "brewery",
    "cuisine": "regional",
    "email": "info@eichberg.com",
    "fax": "+41 62 777 23 31",
    "microbrewery": "yes",
    "name": "Hotel Restaurant Eichberg",
    "operator": "Eichberg Seengen AG",
    "phone": "+41 62 777 33 33",
    "smoking": "no",
    "website": "https://www.eichberg.com/",
    "wheelchair": "yes"
  }
},
{
  "type": "way",
  "id": 114501729,
  "nodes": [
    1296940229,
    1296940160,
    1296940297,
    1568873320,
    1296940189,
    1296940324,
    1296940229
  ],
  "tags": {
    "addr:city": "Wettingen",
    "addr:country": "CH",
    "addr:housenumber": "61",
    "addr:postcode": "5430",
    "addr:street": "Schartenstrasse",
    "amenity": "restaurant",
    "building": "yes",
    "craft": "brewery",
    "cuisine": "italian",
    "microbrewery": "yes",
    "name": "Da Luigi",
    "opening_hours": "Tu-Fr 11:00-14:00,17:30-24:00; Sa,Su 17:30-24:00",
    "phone": "+41 56 4271939",
    "website": "http://www.daluigi.ch/"
  }
},
{
  "type": "way",
  "id": 116530177,
  "nodes": [
    1316471760,
    3012640779,
    1313437362,
    1313437363,
    5159676790,
    1317583012,
    1317582993,
    3012640772,
    1316471758,
    3012640771,
    1316471767,
    1316471760
  ],
  "tags": {
    "building": "industrial",
    "craft": "brewery",
    "name": "Privatbrauerei Waldhaus",
    "website": "http://www.waldhaus-brauerei.de/"
  }
},
{
  "type": "way",
  "id": 154706531,
  "nodes": [
    1672005271,
    1672005345,
    1672005415,
    1672005272,
    1672005271
  ],
  "tags": {
    "addr:city": "Wallisellen",
    "addr:postcode": "8304",
    "addr:street": "Neugut",
    "building": "yes",
    "building:levels": "2",
    "building:roof:shape": "flat",
    "craft": "brewery",
    "email": "info@brauerei-hardwald.ch",
    "name": "Brauerei Hardwald AG",
    "opening_hours": "Sa 09:30-12:30",
    "source": "bing",
    "website": "http://www.brauerei-hardwald.ch"
  }
},
{
  "type": "way",
  "id": 178231835,
  "nodes": [
    1885990274,
    1885990271,
    1885990263,
    1885990283,
    1885990211,
    1885990202,
    1885990185,
    1885990174,
    1885990274
  ],
  "tags": {
    "addr:housename": "Brauerei Uster",
    "addr:housenumber": "16",
    "addr:postcode": "8610",
    "addr:street": "Brauereistrasse",
    "building": "brewery",
    "craft": "brewery",
    "name": "Brauerei Uster",
    "source": "http://www.braukultur.ch/"
  }
},
{
  "type": "way",
  "id": 239908613,
  "nodes": [
    4874863539,
    2476797921,
    2476797922,
    2476797923,
    2476797924,
    2476797925,
    2476797926,
    2476797927,
    4874863539
  ],
  "tags": {
    "addr:city": "Rietheim",
    "addr:country": "CH",
    "addr:housenumber": "30",
    "addr:postcode": "5323",
    "addr:street": "Hauptstrasse",
    "building": "house",
    "craft": "brewery",
    "fax": "+41 56 249 16 11",
    "name": "Kündigbräu AG",
    "operator": "René Kündig",
    "phone": "+41 56 249 16 13",
    "website": "http://www.kuendigbrau.ch"
  }
},
{
  "type": "way",
  "id": 297394274,
  "nodes": [
    1316471766,
    1316471765,
    1316471764,
    1316471763,
    1316471762,
    1316471761,
    1316471766
  ],
  "tags": {
    "building": "yes",
    "craft": "brewery",
    "name": "Privatbrauerei Waldhaus",
    "website": "http://www.waldhaus-brauerei.de/"
  }
},
{
  "type": "node",
  "id": 1199420949,
  "lat": 47.3390182,
  "lon": 8.2050430
},
{
  "type": "node",
  "id": 4127544399,
  "lat": 47.3390417,
  "lon": 8.2050926
},
{
  "type": "node",
  "id": 4127544400,
  "lat": 47.3390744,
  "lon": 8.2050564
},
{
  "type": "node",
  "id": 1199420922,
  "lat": 47.3391134,
  "lon": 8.2054689
},
{
  "type": "node",
  "id": 1199420981,
  "lat": 47.3390414,
  "lon": 8.2053476
},
{
  "type": "node",
  "id": 1199421058,
  "lat": 47.3391935,
  "lon": 8.2052932
},
{
  "type": "node",
  "id": 1199421060,
  "lat": 47.3390086,
  "lon": 8.2056181
},
{
  "type": "node",
  "id": 1199421133,
  "lat": 47.3389338,
  "lon": 8.2051364
},
{
  "type": "node",
  "id": 1199421283,
  "lat": 47.3389356,
  "lon": 8.2055051
},
{
  "type": "node",
  "id": 1199421309,
  "lat": 47.3390898,
  "lon": 8.2054284
},
{
  "type": "node",
  "id": 1296940160,
  "lat": 47.4716758,
  "lon": 8.3190602
},
{
  "type": "node",
  "id": 1296940189,
  "lat": 47.4717447,
  "lon": 8.3188428
},
{
  "type": "node",
  "id": 1296940229,
  "lat": 47.4715714,
  "lon": 8.3189616
},
{
  "type": "node",
  "id": 1296940297,
  "lat": 47.4717127,
  "lon": 8.3189747
},
{
  "type": "node",
  "id": 1296940324,
  "lat": 47.4716581,
  "lon": 8.3187610
},
{
  "type": "node",
  "id": 1568873320,
  "lat": 47.4716950,
  "lon": 8.3189579
},
{
  "type": "node",
  "id": 2476797921,
  "lat": 47.6027900,
  "lon": 8.2751749
},
{
  "type": "node",
  "id": 2476797922,
  "lat": 47.6027723,
  "lon": 8.2751495
},
{
  "type": "node",
  "id": 2476797923,
  "lat": 47.6027085,
  "lon": 8.2752475
},
{
  "type": "node",
  "id": 2476797924,
  "lat": 47.6026028,
  "lon": 8.2750962
},
{
  "type": "node",
  "id": 2476797925,
  "lat": 47.6025234,
  "lon": 8.2752182
},
{
  "type": "node",
  "id": 2476797926,
  "lat": 47.6024214,
  "lon": 8.2750722
},
{
  "type": "node",
  "id": 2476797927,
  "lat": 47.6025915,
  "lon": 8.2748109
},
{
  "type": "node",
  "id": 4874863539,
  "lat": 47.6028169,
  "lon": 8.2751335
},
{
  "type": "node",
  "id": 1313437362,
  "lat": 47.6829985,
  "lon": 8.1567706
},
{
  "type": "node",
  "id": 1313437363,
  "lat": 47.6832447,
  "lon": 8.1573297
},
{
  "type": "node",
  "id": 1316471758,
  "lat": 47.6827468,
  "lon": 8.1573587
},
{
  "type": "node",
  "id": 1316471760,
  "lat": 47.6825427,
  "lon": 8.1572134
},
{
  "type": "node",
  "id": 1316471761,
  "lat": 47.6826258,
  "lon": 8.1574618
},
{
  "type": "node",
  "id": 1316471762,
  "lat": 47.6825486,
  "lon": 8.1575243
},
{
  "type": "node",
  "id": 1316471763,
  "lat": 47.6826589,
  "lon": 8.1578248
},
{
  "type": "node",
  "id": 1316471764,
  "lat": 47.6827626,
  "lon": 8.1577408
},
{
  "type": "node",
  "id": 1316471765,
  "lat": 47.6827349,
  "lon": 8.1576651
},
{
  "type": "node",
  "id": 1316471766,
  "lat": 47.6827083,
  "lon": 8.1576867
},
{
  "type": "node",
  "id": 1316471767,
  "lat": 47.6826697,
  "lon": 8.1575017
},
{
  "type": "node",
  "id": 1317582993,
  "lat": 47.6829088,
  "lon": 8.1576561
},
{
  "type": "node",
  "id": 1317583012,
  "lat": 47.6830170,
  "lon": 8.1575510
},
{
  "type": "node",
  "id": 3012640771,
  "lat": 47.6827678,
  "lon": 8.1574063
},
{
  "type": "node",
  "id": 3012640772,
  "lat": 47.6827685,
  "lon": 8.1573376
},
{
  "type": "node",
  "id": 3012640779,
  "lat": 47.6828482,
  "lon": 8.1569166
},
{
  "type": "node",
  "id": 5159676790,
  "lat": 47.6831673,
  "lon": 8.1574049
},
{
  "type": "node",
  "id": 1126332219,
  "lat": 47.3833524,
  "lon": 8.5480603
},
{
  "type": "node",
  "id": 1126332235,
  "lat": 47.3833903,
  "lon": 8.5480795
},
{
  "type": "node",
  "id": 1126332259,
  "lat": 47.3835473,
  "lon": 8.5478461
},
{
  "type": "node",
  "id": 1126332277,
  "lat": 47.3833567,
  "lon": 8.5477981
},
{
  "type": "node",
  "id": 1126332360,
  "lat": 47.3835051,
  "lon": 8.5481080
},
{
  "type": "node",
  "id": 1126332367,
  "lat": 47.3833946,
  "lon": 8.5480603
},
{
  "type": "node",
  "id": 1126332398,
  "lat": 47.3833882,
  "lon": 8.5477920
},
{
  "type": "node",
  "id": 3223688210,
  "lat": 47.3833888,
  "lon": 8.5478076
},
{
  "type": "node",
  "id": 3223688211,
  "lat": 47.3834528,
  "lon": 8.5481077
},
{
  "type": "node",
  "id": 3223688216,
  "lat": 47.3835304,
  "lon": 8.5479511
},
{
  "type": "node",
  "id": 1672005271,
  "lat": 47.4035416,
  "lon": 8.6026770
},
{
  "type": "node",
  "id": 1672005272,
  "lat": 47.4036239,
  "lon": 8.6027932
},
{
  "type": "node",
  "id": 1672005345,
  "lat": 47.4036285,
  "lon": 8.6025426
},
{
  "type": "node",
  "id": 1672005415,
  "lat": 47.4037108,
  "lon": 8.6026587
},
{
  "type": "node",
  "id": 1885990174,
  "lat": 47.3451806,
  "lon": 8.7207916
},
{
  "type": "node",
  "id": 1885990185,
  "lat": 47.3452095,
  "lon": 8.7208126
},
{
  "type": "node",
  "id": 1885990202,
  "lat": 47.3451169,
  "lon": 8.7210890
},
{
  "type": "node",
  "id": 1885990211,
  "lat": 47.3449794,
  "lon": 8.7209887
},
{
  "type": "node",
  "id": 1885990263,
  "lat": 47.3450911,
  "lon": 8.7207494
},
{
  "type": "node",
  "id": 1885990271,
  "lat": 47.3451326,
  "lon": 8.7206253
},
{
  "type": "node",
  "id": 1885990274,
  "lat": 47.3452160,
  "lon": 8.7206861
},
{
  "type": "node",
  "id": 1885990283,
  "lat": 47.3450658,
  "lon": 8.7207309
},
{
  "type": "node",
  "id": 588419612,
  "lat": 47.4892131,
  "lon": 8.5942354
},
{
  "type": "node",
  "id": 588419613,
  "lat": 47.4892913,
  "lon": 8.5943540
},
{
  "type": "node",
  "id": 588419614,
  "lat": 47.4892773,
  "lon": 8.5942206
},
{
  "type": "node",
  "id": 588419615,
  "lat": 47.4892271,
  "lon": 8.5943688
},
{
  "type": "node",
  "id": 1121632328,
  "lat": 47.4488174,
  "lon": 8.6016174
},
{
  "type": "node",
  "id": 1121632426,
  "lat": 47.4485348,
  "lon": 8.6009585
},
{
  "type": "node",
  "id": 1121632510,
  "lat": 47.4484308,
  "lon": 8.6014316
},
{
  "type": "node",
  "id": 1121632610,
  "lat": 47.4489214,
  "lon": 8.6011443
}

  ]
}
