{
  "version": 0.6,
  "generator": "Overpass API 0.7.55.1011 6c2efc30",
  "osm3s": {
    "timestamp_osm_base": "2020-02-05T23:08:02Z",
    "copyright": "The data included in this document is from www.openstreetmap.org. The data is made available under ODbL."
  },
  "elements": [

{
  "type": "node",
  "id": 349975958,
  "lat": 52.3732125,
  "lon": 9.7345660,
  "tags": {
    "addr:city": "Hannover",
    "addr:country": "DE",
    "addr:housenumber": "13",
    "addr:postcode": "30159",
    "addr:street": "Schmiedestraße",
    "amenity": "restaurant",
    "cuisine": "regional",
    "fixme": "smoking?",
    "microbrewery": "yes",
    "name": "Brauhaus Ernst-August",
    "surveillance": "outdoor",
    "toilets:wheelchair": "yes",
    "website": "http://www.brauhaus.net/hannover",
    "wheelchair": "limited"
  }
},
{
  "type": "node",
  "id": 429835861,
  "lat": 52.3685375,
  "lon": 9.7404706,
  "tags": {
    "addr:city": "Hannover",
    "addr:housenumber": "64",
    "addr:postcode": "30159",
    "addr:street": "Osterstraße",
    "amenity": "restaurant",
    "cuisine": "german",
    "fax": "+49 511 8982260",
    "microbrewery": "yes",
    "name": "Meiers Lebenslust",
    "operator": "Mo-Su 11:30+",
    "phone": "+49 511 8982250",
    "smoking": "separated",
    "toilets:wheelchair": "yes",
    "website": "http://www.meiers-lebenslust.de/",
    "wheelchair": "yes"
  }
},
{
  "type": "node",
  "id": 1166296090,
  "lat": 52.2387075,
  "lon": 9.6717339,
  "tags": {
    "addr:city": "Springe",
    "addr:housenumber": "23A",
    "addr:postcode": "31832",
    "addr:street": "Hauptstraße",
    "amenity": "pub",
    "microbrewery": "yes",
    "name": "Bennexer Brauhaus",
    "phone": "05045 6631"
  }
},
{
  "type": "node",
  "id": 2945589233,
  "lat": 52.3750177,
  "lon": 9.7711316,
  "tags": {
    "amenity": "restaurant",
    "cuisine": "barbecue",
    "fax": "0511-814652",
    "microbrewery": "yes",
    "name": "DEINS",
    "opening_hours": "12:00-15:00, 18:00-24:00",
    "organic": "yes",
    "phone": "0511-2805444",
    "website": "https://www.deins-hannover.de/"
  }
},
{
  "type": "node",
  "id": 3708710914,
  "lat": 52.2790884,
  "lon": 9.3692388,
  "tags": {
    "addr:city": "Lauenau",
    "addr:country": "DE",
    "addr:housenumber": "10",
    "addr:postcode": "31867",
    "addr:street": "Feggendorfer Straße",
    "amenity": "restaurant",
    "cuisine": "german",
    "email": "mail@ruppbraeu.de",
    "fax": "+49  5043 1507",
    "microbrewery": "yes",
    "name": "Brauhaus Felsenkeller",
    "operator": "Thomas Rupp",
    "outdoor_seating": "yes",
    "phone": "+49 5043 2275",
    "smoking": "separated",
    "website": "https://www.ruppbraeu.de/",
    "wheelchair": "yes"
  }
},
{
  "type": "node",
  "id": 4995156368,
  "lat": 52.3257770,
  "lon": 9.7261504,
  "tags": {
    "addr:city": "Hemmingen-Westerfeld",
    "addr:housenumber": "9",
    "addr:postcode": "30966",
    "addr:street": "Rathausplatz",
    "craft": "brewery",
    "microbrewery": "yes",
    "name": "Hemminger Biermanufaktur",
    "opening_hours": "Th 9:00-13:00; Fr 16:00-19:00"
  }
},
{
  "type": "node",
  "id": 6550773227,
  "lat": 52.6084294,
  "lon": 10.0619960,
  "tags": {
    "addr:city": "Celle",
    "addr:housenumber": "101",
    "addr:postcode": "29221",
    "addr:street": "Waldweg",
    "craft": "brewery",
    "email": "info@celler-bier.de",
    "name": "Brauerei Carl Betz GmbH",
    "opening_hours": "Apr-Sep Mo-Fr 08:00-16:00; Oct-Mar Fr off",
    "operator": "Carl Betz GmbH",
    "phone": "+49 5141 85025",
    "product": "beer",
    "website": "https://celler-bier.de/",
    "wikidata": "Q900148"
  }
}

  ]
}
