{
  "version": 0.6,
  "generator": "Overpass API 0.7.55.9 ab41fea6",
  "osm3s": {
    "timestamp_osm_base": "2020-02-06T01:29:02Z",
    "copyright": "The data included in this document is from www.openstreetmap.org. The data is made available under ODbL."
  },
  "elements": [

{
  "type": "node",
  "id": 1385356375,
  "lat": 54.1846130,
  "lon": 15.5558132,
  "tags": {
    "addr:city": "Kołobrzeg",
    "addr:housenumber": "16",
    "addr:postcode": "78-100",
    "addr:street": "Towarowa",
    "amenity": "restaurant",
    "cuisine": "international",
    "email": "winogrona@wp.pl",
    "fax": "+48 94 354 73 36",
    "microbrewery": "yes",
    "name": "Winogrona",
    "opening_hours": "Mo-Su 11:00-23:00",
    "operator": "Kamo",
    "outdoor_seating": "yes",
    "phone": "+48 94 354 73 36",
    "takeaway": "yes",
    "website": "http://www.winogrona.pl/pod-winogronami/0.html",
    "wheelchair": "yes"
  }
},
{
  "type": "node",
  "id": 1385356380,
  "lat": 54.1847116,
  "lon": 15.5554835,
  "tags": {
    "amenity": "restaurant",
    "cuisine": "fish",
    "microbrewery": "yes",
    "name": "Ale ryba",
    "opening_hours": "Mo-Fr 10:00-22:00; Sa,Su 10:00-22:00",
    "outdoor_seating": "yes",
    "phone": "602 571 908",
    "takeaway": "yes",
    "wheelchair": "yes"
  }
},
{
  "type": "node",
  "id": 1713910763,
  "lat": 54.1783781,
  "lon": 15.5631288,
  "tags": {
    "amenity": "restaurant",
    "cuisine": "regional",
    "email": "office@karczmakolobrzeg.pl",
    "fax": "48 94 353 15 46",
    "internet_access": "wlan",
    "microbrewery": "yes",
    "name": "Karczma Solna",
    "opening_hours": "Mo-Su 13:00-22:00",
    "operator": "Firma B.M.G. Rydwańscy Zajazd \"TARCZA\" ZPCHR Sp.j.",
    "phone": "48 94 353 15 45",
    "smoking": "no",
    "website": "http://www.karczmakolobrzeg.pl/",
    "wheelchair": "yes"
  }
},
{
  "type": "node",
  "id": 1722837363,
  "lat": 54.1767084,
  "lon": 15.5765974,
  "tags": {
    "addr:city": "Kołobrzeg",
    "addr:housenumber": "1",
    "addr:postcode": "78-100",
    "addr:street": "Ratuszowa",
    "amenity": "restaurant",
    "cuisine": "international",
    "email": "domekkata@wp.pl",
    "microbrewery": "yes",
    "name": "Domek Kata",
    "opening_hours": "Mo-Su 10:00-23:00;Sa 10:00-22:00",
    "outdoor_seating": "yes",
    "phone": "+48 94 354 66 35",
    "takeaway": "yes",
    "website": "http://www.winogrona.pl/domek-kata/0.html",
    "wheelchair": "limited"
  }
},
{
  "type": "node",
  "id": 1905980546,
  "lat": 54.1878327,
  "lon": 15.5915823,
  "tags": {
    "amenity": "restaurant",
    "microbrewery": "yes",
    "name": "Kamienny Szaniec"
  }
},
{
  "type": "node",
  "id": 2590476189,
  "lat": 54.1810525,
  "lon": 15.5923481,
  "tags": {
    "amenity": "pub",
    "microbrewery": "yes",
    "name": "Fredro",
    "opening_hours": "Mo-Su 10:00-21:30",
    "outdoor_seating": "yes"
  }
},
{
  "type": "node",
  "id": 2985822246,
  "lat": 54.1849203,
  "lon": 15.5631313,
  "tags": {
    "amenity": "restaurant",
    "cuisine": "regional",
    "email": "restauracja_magnum@wp.pl",
    "microbrewery": "yes",
    "name": "Magnum",
    "opening_hours": "Mo-Su 12:00-23:00",
    "phone": "94 35 41 555 , 606 367 370",
    "website": "http://www.restauracjamagnum.pl",
    "wheelchair": "yes"
  }
},
{
  "type": "node",
  "id": 3101703034,
  "lat": 54.1794120,
  "lon": 15.5595317,
  "tags": {
    "amenity": "restaurant",
    "cuisine": "regional",
    "email": "biuro@restauracjasailor.pl",
    "microbrewery": "yes",
    "name": "Sailor Bar",
    "opening_hours": "Mo-Th 12:00-22:00;Fr-Sa 11:00-23:00;Su 11:00-22:00",
    "phone": "606 932 307;728 922 226",
    "website": "http://www.restauracjasailor.pl/"
  }
},
{
  "type": "node",
  "id": 3273678402,
  "lat": 54.1837843,
  "lon": 15.5908843,
  "tags": {
    "amenity": "restaurant",
    "microbrewery": "yes",
    "name": "Horyzont"
  }
},
{
  "type": "node",
  "id": 3448229009,
  "lat": 54.1770449,
  "lon": 15.5434531,
  "tags": {
    "addr:city": "Kołobrzeg",
    "addr:country": "PL",
    "addr:housenumber": "51e",
    "addr:postcode": "78-100",
    "addr:street": "Jedności Narodowej",
    "amenity": "pub",
    "microbrewery": "yes",
    "name": "Tawerna trawers",
    "opening_hours": "Mo-Su 12:00-22:00",
    "phone": "+48 94 35 173 66;+48 601 411 292",
    "website": "http://www.tawernakolobrzeg.pl/"
  }
},
{
  "type": "node",
  "id": 3532440258,
  "lat": 54.1750703,
  "lon": 15.5745608,
  "tags": {
    "addr:city": "Kołobrzeg",
    "addr:country": "PL",
    "addr:district": "kołobrzeski",
    "addr:housenumber": "15",
    "addr:postcode": "78-100",
    "addr:province": "zachodniopomorskie",
    "addr:street": "Gabriela Narutowicza",
    "addr:subdistrict": "Kołobrzeg",
    "addr:suburb": "Śródmiejskie",
    "amenity": "restaurant",
    "cuisine": "international;coffee_shop;pancake;italian;pizza;polish;italian_pizza;kebab;barbecue",
    "email": "bazylia.kolobrzeg@op.pl",
    "internet_access": "wlan",
    "internet_access:fee": "no",
    "microbrewery": "yes",
    "name": "Bazylia - Pizza & Grill",
    "opening_hours": "Mo-Su 12:00-22:00",
    "payment:coins": "no",
    "payment:notes": "no",
    "phone": "94 354 45 45",
    "smoking": "no",
    "website": "http://www.bazylia-kolobrzeg.pl/",
    "wheelchair": "no"
  }
},
{
  "type": "node",
  "id": 4281626776,
  "lat": 54.1746716,
  "lon": 15.5754286,
  "tags": {
    "amenity": "restaurant",
    "cuisine": "regional",
    "email": "zlota@onet.pl",
    "microbrewery": "yes",
    "name": "Cafe & Restaurant Złota",
    "opening_hours": "Mo-Su 12:00-20:00",
    "outdoor_seating": "yes",
    "phone": "518646512",
    "takeaway": "yes"
  }
},
{
  "type": "node",
  "id": 4281626778,
  "lat": 54.1756513,
  "lon": 15.5762576,
  "tags": {
    "addr:country": "PL",
    "addr:district": "kołobrzeski",
    "addr:housenumber": "30b",
    "addr:postcode": "78-100",
    "addr:province": "zachodniopomorskie",
    "addr:street": "Armii Krajowej",
    "addr:subdistrict": "Kołobrzeg",
    "addr:suburb": "Śródmiejskie",
    "amenity": "restaurant",
    "cuisine": "international",
    "email": "gospoda@podlabedziami.pl",
    "fax": "94 35 47 126",
    "microbrewery": "yes",
    "name": "Pod Łabędziami",
    "opening_hours": "Mo-Su 10:00-22:00",
    "outdoor_seating": "yes",
    "phone": "603 541 600;725 550 330",
    "takeaway": "yes",
    "website": "http://www.podlabedziami.pl/",
    "wheelchair": "no"
  }
},
{
  "type": "node",
  "id": 4281626780,
  "lat": 54.1776928,
  "lon": 15.5751443,
  "tags": {
    "amenity": "restaurant",
    "cuisine": "pizza",
    "microbrewery": "yes",
    "name": "Starówka",
    "opening_hours": "Mo-Su 12:00-22:00",
    "outdoor_seating": "yes",
    "phone": "94 3528000",
    "takeaway": "yes",
    "website": "http://www.starowka.kolobrzeg.pl"
  }
},
{
  "type": "node",
  "id": 4281626783,
  "lat": 54.1757864,
  "lon": 15.5754776,
  "tags": {
    "addr:city": "Kołobrzeg",
    "addr:housenumber": "3/9",
    "addr:street": "Gabriela Narutowicza",
    "amenity": "restaurant",
    "cuisine": "international",
    "email": "zakatakkolobrzeg@gmail.pl",
    "microbrewery": "yes",
    "name": "Zakątek",
    "opening_hours": "Mo-Th 12:00-21:00, Fr-Sa 12:00-22:00; Su 12:00-21:00",
    "outdoor_seating": "yes",
    "phone": "665002433",
    "takeaway": "yes",
    "website": "https://www.facebook.com/RestauracjaZakatek?fref=ts",
    "wheelchair": "no"
  }
},
{
  "type": "node",
  "id": 4672185843,
  "lat": 54.1845448,
  "lon": 15.5561310,
  "tags": {
    "addr:city": "Kołobrzeg",
    "addr:housenumber": "16b",
    "addr:postcode": "78-100",
    "addr:street": "Towarowa",
    "amenity": "restaurant",
    "cuisine": "international",
    "email": "kontakt@mesa.pl",
    "microbrewery": "yes",
    "name": "Bistro tanie danie",
    "opening_hours": "Mo off;Tu-Th 12:00-19:00; Fr-Sa 12:00-21:00,Su 12:00-21:00",
    "outdoor_seating": "yes",
    "phone": "572 351 074",
    "takeaway": "yes",
    "website": "http://www.mesa.pl/"
  }
},
{
  "type": "node",
  "id": 4672185845,
  "lat": 54.1847551,
  "lon": 15.5552778,
  "tags": {
    "amenity": "restaurant",
    "cuisine": "fish",
    "email": "mironkg@wp.pl",
    "microbrewery": "yes",
    "name": "Tawerna Wikingów",
    "opening_hours": "Mo-Fr 10:00-22:00; Sa 10:23;Su 12:00-24:00",
    "outdoor_seating": "yes",
    "phone": "501 607 391",
    "takeaway": "yes",
    "website": "http://tawerna-wikingow.pl/smazalnia-kolobrzeg/"
  }
},
{
  "type": "node",
  "id": 5480541507,
  "lat": 54.1756223,
  "lon": 15.5744004,
  "tags": {
    "amenity": "pub",
    "delivery": "yes",
    "microbrewery": "yes",
    "name": "GastroPub Vespucci",
    "opening_hours": "Mo-Su 12:00-01:00",
    "outdoor_seating": "yes",
    "phone": "94 352 07 57",
    "smoking": "outside",
    "takeaway": "yes"
  }
},
{
  "type": "node",
  "id": 5784455224,
  "lat": 54.1722837,
  "lon": 15.5357794,
  "tags": {
    "addr:city": "Kołobrzeg",
    "addr:country": "PL",
    "addr:district": "kołobrzeski",
    "addr:housenumber": "1e",
    "addr:postcode": "78-100",
    "addr:province": "zachodniopomorskie",
    "addr:street": "Muszelkowa",
    "addr:subdistrict": "Kołobrzeg",
    "amenity": "restaurant",
    "cuisine": "international",
    "delivery": "no",
    "email": "restauracjapolanki@gmail.com",
    "internet_access": "no",
    "microbrewery": "yes",
    "name": "Polanki",
    "opening_hours": "Mo-Su 12:00-23:00",
    "outdoor_seating": "yes",
    "payment:cash": "yes",
    "payment:visa": "yes",
    "payment:visa_electron": "yes",
    "phone": "+48 501 722 134;+48 666 400 241",
    "smoking": "outside",
    "takeaway": "yes",
    "website": "http://restauracjapolanki.pl/",
    "wheelchair": "yes"
  }
},
{
  "type": "way",
  "id": 263915742,
  "nodes": [
    2695964144,
    2695964150,
    2695964177,
    2695964173,
    2695964185,
    2695964163,
    2695964121,
    2695964144
  ],
  "tags": {
    "amenity": "restaurant",
    "building": "retail",
    "cuisine": "german",
    "microbrewery": "yes",
    "name": "Mola Beach"
  }
},
{
  "type": "node",
  "id": 2695964121,
  "lat": 54.1890359,
  "lon": 15.6013783
},
{
  "type": "node",
  "id": 2695964144,
  "lat": 54.1890863,
  "lon": 15.6016407
},
{
  "type": "node",
  "id": 2695964150,
  "lat": 54.1890988,
  "lon": 15.6016336
},
{
  "type": "node",
  "id": 2695964163,
  "lat": 54.1891197,
  "lon": 15.6013312
},
{
  "type": "node",
  "id": 2695964173,
  "lat": 54.1891344,
  "lon": 15.6015767
},
{
  "type": "node",
  "id": 2695964177,
  "lat": 54.1891408,
  "lon": 15.6016100
},
{
  "type": "node",
  "id": 2695964185,
  "lat": 54.1891638,
  "lon": 15.6015603
}

  ]
}
