{
  "version": 0.6,
  "generator": "Overpass API 0.7.55.9 ab41fea6",
  "osm3s": {
    "timestamp_osm_base": "2020-02-06T00:27:01Z",
    "copyright": "The data included in this document is from www.openstreetmap.org. The data is made available under ODbL."
  },
  "elements": [

{
  "type": "node",
  "id": 1348030649,
  "lat": 49.1190497,
  "lon": 16.7274486,
  "tags": {
    "amenity": "restaurant",
    "cuisine": "regional",
    "email": "info@pivovarsokolnice.cz",
    "microbrewery": "yes",
    "name": "Panský pivovar",
    "outdoor_seating": "yes",
    "payment:maestro": "yes",
    "payment:mastercard": "yes",
    "payment:visa": "yes",
    "payment:visa_debit": "yes",
    "payment:visa_electron": "yes",
    "phone": "+420 602 818 126",
    "website": "pivovarsokolnice.cz/restaurace/",
    "wheelchair": "yes"
  }
},
{
  "type": "node",
  "id": 1695240478,
  "lat": 48.8504063,
  "lon": 17.1276600,
  "tags": {
    "addr:conscriptionnumber": "264",
    "addr:country": "CZ",
    "addr:housename": "Minipivovar Kunc Hodonín",
    "addr:housenumber": "264/10",
    "addr:postcode": "69501",
    "addr:street": "Národní třída",
    "addr:streetnumber": "10",
    "amenity": "pub",
    "is_in": "Hodonín, Jihomoravský kraj, CZ",
    "microbrewery": "yes",
    "name": "Minipivovar KUNC",
    "source": "local knowledge",
    "source:addr": "mvcr:adresa",
    "source:loc": "cuzk:km",
    "website": "http://www.minipivovarkunc.cz/"
  }
},
{
  "type": "node",
  "id": 2812477065,
  "lat": 49.2139818,
  "lon": 16.8237850,
  "tags": {
    "addr:conscriptionnumber": "389",
    "addr:housenumber": "389",
    "addr:place": "Viničné Šumice",
    "addr:postcode": "66406",
    "amenity": "restaurant",
    "cuisine": "czech",
    "kids_area": "yes",
    "microbrewery": "yes",
    "name": "Restaurace Hradská",
    "opening_hours": "16:00-22:00; Fr,Sa 16:00-23:00",
    "phone": "+420603114193",
    "ref:ruian:addr": "27754952",
    "reservation": "yes",
    "start_date": "2003-11-26",
    "website": "http://www.vildenberg.cz/"
  }
},
{
  "type": "node",
  "id": 2903191124,
  "lat": 49.1496421,
  "lon": 16.8886673,
  "tags": {
    "amenity": "restaurant",
    "microbrewery": "yes",
    "name": "Slavkovský pivovar",
    "source": "survey"
  }
},
{
  "type": "node",
  "id": 2974615832,
  "lat": 48.8524616,
  "lon": 17.1249571,
  "tags": {
    "amenity": "restaurant",
    "cuisine": "burger",
    "microbrewery": "yes",
    "name": "Burgr's Fresh Burger Bistro",
    "name:cs": "Burgr's Fresh Burger Bistro",
    "name:en": "Burgr's Fresh Burger Bistro",
    "website": "http://burgrs.eu/"
  }
},
{
  "type": "node",
  "id": 3971800420,
  "lat": 49.0561221,
  "lon": 16.6500884,
  "tags": {
    "craft": "brewery",
    "name": "Pivovar Xaver",
    "website": "http://www.pivoxaver.eu/"
  }
},
{
  "type": "node",
  "id": 3979586736,
  "lat": 48.9350966,
  "lon": 16.7321449,
  "tags": {
    "craft": "brewery",
    "name": "Hradní pivovar Hustopeče"
  }
},
{
  "type": "node",
  "id": 4596332392,
  "lat": 48.8356542,
  "lon": 16.9326038,
  "tags": {
    "addr:housenumber": "485",
    "addr:postcode": "69101",
    "addr:street": "Chalúpky",
    "amenity": "restaurant",
    "email": "info@pivovar.in",
    "internet_access": "wlan",
    "microbrewery": "yes",
    "name": "Pivovar Moravský Žižkov",
    "phone": "+420607562306",
    "website": "http://www.pivovar.in"
  }
},
{
  "type": "node",
  "id": 4818360175,
  "lat": 48.8566349,
  "lon": 17.0348793,
  "tags": {
    "addr:city": "Dolní Bojanovice",
    "addr:housenumber": "1110",
    "addr:postcode": "69617",
    "addr:street": "Hodonínská",
    "craft": "brewery",
    "email": "info@pivovarmazak.cz",
    "name": "Pivovar Mazák",
    "opening_hours": "Mo-Fr 08:00-16:30",
    "phone": "+420 775 000 697",
    "product": "beer",
    "website": "https://www.pivovarmazak.cz/"
  }
},
{
  "type": "node",
  "id": 6427971444,
  "lat": 48.9178213,
  "lon": 17.1604775,
  "tags": {
    "craft": "brewery",
    "name": "Pivovar Na mlýně",
    "product": "beer"
  }
},
{
  "type": "node",
  "id": 6443915049,
  "lat": 49.1189702,
  "lon": 16.7274072,
  "tags": {
    "craft": "brewery",
    "email": "info@pivovarsokolnice.cz",
    "name": "Panský pivovar Sokolnice",
    "phone": "+420 602 818 126",
    "website": "http://pivovarsokolnice.cz/"
  }
},
{
  "type": "node",
  "id": 6616223181,
  "lat": 48.7609031,
  "lon": 16.8750418,
  "tags": {
    "craft": "brewery",
    "man_made": "works",
    "name": "Zámecký pivovar Břeclav",
    "website": "https://pivovarbreclav.cz/"
  }
},
{
  "type": "node",
  "id": 6685097005,
  "lat": 48.8074565,
  "lon": 16.6405262,
  "tags": {
    "craft": "brewery",
    "name": "Galant"
  }
},
{
  "type": "way",
  "id": 742713462,
  "nodes": [
    733152258,
    712628640,
    712628243,
    712628366,
    3799539009,
    3799539008,
    712628561,
    712628687,
    712628459,
    712628588,
    6952731425,
    6952731424,
    3480947431,
    733152265,
    733152258
  ],
  "tags": {
    "craft": "brewery",
    "email": "pivovar@hauskrecht.cz",
    "man_made": "works",
    "name": "Minipivovar Hauskrecht",
    "website": "http://www.hauskrecht.cz"
  }
},
{
  "type": "node",
  "id": 3480947431,
  "lat": 49.1874440,
  "lon": 16.6263796
},
{
  "type": "node",
  "id": 6952731424,
  "lat": 49.1874415,
  "lon": 16.6263780
},
{
  "type": "node",
  "id": 6952731425,
  "lat": 49.1874222,
  "lon": 16.6263914
},
{
  "type": "node",
  "id": 712628243,
  "lat": 49.1874421,
  "lon": 16.6284450
},
{
  "type": "node",
  "id": 712628366,
  "lat": 49.1874395,
  "lon": 16.6281267
},
{
  "type": "node",
  "id": 712628459,
  "lat": 49.1874266,
  "lon": 16.6269341
},
{
  "type": "node",
  "id": 712628561,
  "lat": 49.1874308,
  "lon": 16.6273479
},
{
  "type": "node",
  "id": 712628588,
  "lat": 49.1874234,
  "lon": 16.6266268
},
{
  "type": "node",
  "id": 712628640,
  "lat": 49.1876572,
  "lon": 16.6284405
},
{
  "type": "node",
  "id": 712628687,
  "lat": 49.1874272,
  "lon": 16.6269914
},
{
  "type": "node",
  "id": 733152258,
  "lat": 49.1876617,
  "lon": 16.6287155
},
{
  "type": "node",
  "id": 3799539008,
  "lat": 49.1874355,
  "lon": 16.6277585
},
{
  "type": "node",
  "id": 3799539009,
  "lat": 49.1874364,
  "lon": 16.6278494
},
{
  "type": "node",
  "id": 733152265,
  "lat": 49.1881871,
  "lon": 16.6285779
}

  ]
}
