{
  "version": 0.6,
  "generator": "Overpass API 0.7.55.1011 6c2efc30",
  "osm3s": {
    "timestamp_osm_base": "2020-02-06T01:36:01Z",
    "copyright": "The data included in this document is from www.openstreetmap.org. The data is made available under ODbL."
  },
  "elements": [

{
  "type": "node",
  "id": 296580404,
  "lat": 49.8070851,
  "lon": 18.2402658,
  "tags": {
    "amenity": "restaurant",
    "contact:email": "info@zamek-zabreh.cz",
    "contact:website": "http://www.zamek-zabreh.cz/",
    "cuisine": "regional",
    "microbrewery": "yes",
    "name": "Zámek Zábřeh",
    "opening_hours": "May-Sep Mo-Tu,Su 12:00-23:00, Fr,Sa 12:00-24:00; Aug-Apr Mo-Th 17:00-23:00, Fr, Sa 17:00-24:00",
    "tourism": "hotel"
  }
},
{
  "type": "node",
  "id": 2298602866,
  "lat": 50.0925550,
  "lon": 18.2196082,
  "tags": {
    "amenity": "restaurant",
    "contact:website": "http://www.facebook.com/pages/Browar-Rynek/443084285776906",
    "cuisine": "regional",
    "microbrewery": "yes",
    "name": "Browar Rynek",
    "opening_hours": "Mo-Sa 10:00-24:00; Su 12:00-24:00"
  }
},
{
  "type": "node",
  "id": 2458107644,
  "lat": 49.8400145,
  "lon": 18.2884006,
  "tags": {
    "addr:city": "Ostrava",
    "addr:housenumber": "34",
    "addr:postcode": "70200",
    "addr:street": "Přívozská",
    "amenity": "pub",
    "contact:email": "hobitclub@pivovarsky-dum.eu",
    "contact:website": "http://www.hobitclub.net/",
    "internet_access": "wlan",
    "internet_access:fee": "no",
    "microbrewery": "yes",
    "name": "Hobit Club",
    "opening_hours": "Mo-Th 14:00-02:00, Sa 16:00-02:00",
    "outdoor_seating": "yes",
    "smoking": "dedicated"
  }
},
{
  "type": "node",
  "id": 3145000467,
  "lat": 49.9408931,
  "lon": 17.9009980,
  "tags": {
    "amenity": "restaurant",
    "contact:email": "gastronomieopava@gastro-opava.cz",
    "contact:website": "http://www.nova-sladovna.cz/",
    "microbrewery": "yes",
    "name": "Nová Sladovna",
    "opening_hours": "Mo-Su 11:00-23:00"
  }
},
{
  "type": "node",
  "id": 3145066610,
  "lat": 50.0153016,
  "lon": 18.0729049,
  "tags": {
    "amenity": "restaurant",
    "contact:email": "info@ukomarku.cz",
    "contact:website": "http://www.ukomarku.cz/hlavni-strana/",
    "microbrewery": "yes",
    "name": "U Komárků",
    "opening_hours": "Mo-Fr 15:00-22:00; Sa 10:00-23:00; Su 10:00-22:00"
  }
},
{
  "type": "node",
  "id": 3147408695,
  "lat": 49.8977422,
  "lon": 18.1874108,
  "tags": {
    "amenity": "pub",
    "contact:email": "pivovaravar@volny.cz",
    "contact:website": "http://www.pivovaravar.cz/",
    "microbrewery": "yes",
    "name": "Avar",
    "opening_hours": "Mo-Th 10:00-22:00; Fr 10:00-24:00; Sa 10:00-23:00; Su 09:30-22:00",
    "wheelchair": "limited"
  }
},
{
  "type": "node",
  "id": 3158124328,
  "lat": 50.0960905,
  "lon": 18.5487781,
  "tags": {
    "addr:city": "Rybnik",
    "addr:housenumber": "14a",
    "addr:postcode": "44-200",
    "addr:street": "Tadeusza Kościuszki",
    "amenity": "restaurant",
    "capacity": "26",
    "cuisine": "burger;kebab;pizza",
    "microbrewery": "yes",
    "name": "Czarna Owca Bistro",
    "opening_hours": "10:00-22:00"
  }
},
{
  "type": "node",
  "id": 3949888214,
  "lat": 49.8544526,
  "lon": 18.5402938,
  "tags": {
    "craft": "brewery",
    "name": "Městský Karvinský pivovar"
  }
},
{
  "type": "node",
  "id": 4737908007,
  "lat": 50.0982386,
  "lon": 18.5408107,
  "tags": {
    "addr:city": "Rybnik",
    "addr:housenumber": "10",
    "addr:postcode": "44-200",
    "addr:street": "Rudzka",
    "amenity": "restaurant",
    "cuisine": "pizza;regional",
    "email": "info@karczmasekata.pl",
    "microbrewery": "yes",
    "name": "Karczma Sękata",
    "opening_hours": "Mo-Th 11:30-23:00; Fr 11:30-23:59; Sa 00:00-01:00, 11:30-23:59; Su 00:00-01:00, 13:00-23:00",
    "outdoor_seating": "yes",
    "phone": "+48324234141",
    "website": "http://www.karczmasekata.pl/"
  }
},
{
  "type": "node",
  "id": 5579948204,
  "lat": 49.8592503,
  "lon": 18.3300072,
  "tags": {
    "craft": "brewery",
    "name": "Heřmanický pivovar"
  }
},
{
  "type": "way",
  "id": 184574946,
  "nodes": [
    527374805,
    4957399554,
    4957399557,
    2113609682,
    522102890,
    2113609691,
    2113609686,
    503472752,
    1950715495,
    1950713939,
    2113609645,
    2113609646,
    2118938316,
    4963305822,
    2222992647,
    2222992645,
    2222992684,
    2222992686,
    2222992688,
    2118938337,
    2118938340,
    2118938351,
    2118938349,
    2118938360,
    2222992692,
    2222992690,
    1950713940,
    2118938363,
    2118938361,
    1950713945,
    527374802,
    527374803,
    527374805
  ],
  "tags": {
    "craft": "brewery",
    "email": "browar@browar-raciborz.pl",
    "heritage": "yes",
    "landuse": "industrial",
    "man_made": "works",
    "name": "Browar Racibórz",
    "phone": "+48324159200",
    "tourism": "attraction",
    "website": "http://www.browar-raciborz.pl/index.php?dzial=browar",
    "wikidata": "Q9180205",
    "wikipedia": "pl:Browar Zamkowy",
    "year": "1532"
  }
},
{
  "type": "way",
  "id": 385394353,
  "nodes": [
    3887420013,
    3887420008,
    3887420000,
    3887420004,
    3887419997,
    3887420010,
    3887420013
  ],
  "tags": {
    "addr:city": "Łany Wielkie",
    "addr:city:simc": "0221860",
    "addr:housenumber": "39",
    "addr:postcode": "44-153",
    "addr:street": "Wiejska",
    "addr:street:sym_ul": "24048",
    "amenity": "restaurant",
    "building": "commercial",
    "cuisine": "pizza",
    "email": "pizza.urudika@wp.pl",
    "internet_access": "wlan",
    "internet_access:fee": "no",
    "microbrewery": "yes",
    "name": "Pizza u Rudika",
    "official_name": "Pizza u Rudika — Martina Skoczowska",
    "opening_hours": "Mo-Th 12:00-22:00; Fr 12:00-23:00; Sa 12:00-23:59; Su 12:00-23:00",
    "phone": "+48322387052",
    "source:addr": "sosnicowice.e-mapa.net",
    "website": "http://pizzaurudika.pl/"
  }
},
{
  "type": "way",
  "id": 764606034,
  "nodes": [
    7143035117,
    7143035116,
    7143035115,
    7143035114,
    7143035113,
    7143035112,
    7143035117
  ],
  "tags": {
    "building": "brewery",
    "craft": "brewery",
    "email": "dystrybucja@browar-kraftwerk.pl",
    "name": "Browar Kraftwerk",
    "phone": "+48 733 057 238",
    "website": "http://www.browar-kraftwerk.pl/"
  }
},
{
  "type": "node",
  "id": 1950713939,
  "lat": 50.0958289,
  "lon": 18.2189036
},
{
  "type": "node",
  "id": 503472752,
  "lat": 50.0970516,
  "lon": 18.2196717
},
{
  "type": "node",
  "id": 522102890,
  "lat": 50.0971989,
  "lon": 18.2208125
},
{
  "type": "node",
  "id": 527374802,
  "lat": 50.0963640,
  "lon": 18.2210228
},
{
  "type": "node",
  "id": 527374803,
  "lat": 50.0964721,
  "lon": 18.2210457
},
{
  "type": "node",
  "id": 527374805,
  "lat": 50.0966276,
  "lon": 18.2210725
},
{
  "type": "node",
  "id": 1950713940,
  "lat": 50.0963833,
  "lon": 18.2205558
},
{
  "type": "node",
  "id": 1950713945,
  "lat": 50.0963010,
  "lon": 18.2210121
},
{
  "type": "node",
  "id": 1950715495,
  "lat": 50.0967018,
  "lon": 18.2195777
},
{
  "type": "node",
  "id": 2113609645,
  "lat": 50.0957601,
  "lon": 18.2191470
},
{
  "type": "node",
  "id": 2113609646,
  "lat": 50.0957571,
  "lon": 18.2193219
},
{
  "type": "node",
  "id": 2113609682,
  "lat": 50.0970558,
  "lon": 18.2210143
},
{
  "type": "node",
  "id": 2113609686,
  "lat": 50.0971037,
  "lon": 18.2198579
},
{
  "type": "node",
  "id": 2113609691,
  "lat": 50.0971505,
  "lon": 18.2201402
},
{
  "type": "node",
  "id": 2118938316,
  "lat": 50.0957488,
  "lon": 18.2200021
},
{
  "type": "node",
  "id": 2118938337,
  "lat": 50.0960539,
  "lon": 18.2198419
},
{
  "type": "node",
  "id": 2118938340,
  "lat": 50.0960491,
  "lon": 18.2198554
},
{
  "type": "node",
  "id": 2118938349,
  "lat": 50.0961642,
  "lon": 18.2199891
},
{
  "type": "node",
  "id": 2118938351,
  "lat": 50.0961793,
  "lon": 18.2199314
},
{
  "type": "node",
  "id": 2118938360,
  "lat": 50.0962607,
  "lon": 18.2202408
},
{
  "type": "node",
  "id": 2118938361,
  "lat": 50.0962750,
  "lon": 18.2208869
},
{
  "type": "node",
  "id": 2118938363,
  "lat": 50.0963390,
  "lon": 18.2208099
},
{
  "type": "node",
  "id": 2222992645,
  "lat": 50.0958461,
  "lon": 18.2198638
},
{
  "type": "node",
  "id": 2222992647,
  "lat": 50.0958490,
  "lon": 18.2200108
},
{
  "type": "node",
  "id": 2222992684,
  "lat": 50.0959749,
  "lon": 18.2198624
},
{
  "type": "node",
  "id": 2222992686,
  "lat": 50.0959992,
  "lon": 18.2198699
},
{
  "type": "node",
  "id": 2222992688,
  "lat": 50.0960048,
  "lon": 18.2198302
},
{
  "type": "node",
  "id": 2222992690,
  "lat": 50.0963258,
  "lon": 18.2204168
},
{
  "type": "node",
  "id": 2222992692,
  "lat": 50.0963285,
  "lon": 18.2204144
},
{
  "type": "node",
  "id": 4957399554,
  "lat": 50.0966557,
  "lon": 18.2210687
},
{
  "type": "node",
  "id": 4957399557,
  "lat": 50.0970103,
  "lon": 18.2210205
},
{
  "type": "node",
  "id": 4963305822,
  "lat": 50.0957504,
  "lon": 18.2200192
},
{
  "type": "node",
  "id": 7143035112,
  "lat": 50.0719513,
  "lon": 18.3562124
},
{
  "type": "node",
  "id": 7143035113,
  "lat": 50.0716997,
  "lon": 18.3564667
},
{
  "type": "node",
  "id": 7143035114,
  "lat": 50.0716470,
  "lon": 18.3563401
},
{
  "type": "node",
  "id": 7143035115,
  "lat": 50.0718070,
  "lon": 18.3561785
},
{
  "type": "node",
  "id": 7143035116,
  "lat": 50.0717684,
  "lon": 18.3560857
},
{
  "type": "node",
  "id": 7143035117,
  "lat": 50.0718600,
  "lon": 18.3559931
},
{
  "type": "node",
  "id": 3887419997,
  "lat": 50.2835426,
  "lon": 18.5427909
},
{
  "type": "node",
  "id": 3887420000,
  "lat": 50.2835469,
  "lon": 18.5426903
},
{
  "type": "node",
  "id": 3887420004,
  "lat": 50.2835714,
  "lon": 18.5427123
},
{
  "type": "node",
  "id": 3887420008,
  "lat": 50.2835939,
  "lon": 18.5425628
},
{
  "type": "node",
  "id": 3887420010,
  "lat": 50.2836439,
  "lon": 18.5428817
},
{
  "type": "node",
  "id": 3887420013,
  "lat": 50.2837202,
  "lon": 18.5426728
}

  ]
}
