{
  "version": 0.6,
  "generator": "Overpass API 0.7.55.1011 6c2efc30",
  "osm3s": {
    "timestamp_osm_base": "2020-02-05T21:47:02Z",
    "copyright": "The data included in this document is from www.openstreetmap.org. The data is made available under ODbL."
  },
  "elements": [

{
  "type": "node",
  "id": 151406549,
  "lat": 53.8000146,
  "lon": -1.5594992,
  "tags": {
    "addr:city": "Leeds",
    "addr:housenumber": "7-9",
    "addr:postcode": "LS3 1LD",
    "addr:street": "Burley Street",
    "amenity": "pub",
    "fhrs:id": "1078609",
    "food": "yes",
    "microbrewery": "yes",
    "name": "The Fox and Newt",
    "real_ale": "yes"
  }
},
{
  "type": "node",
  "id": 233186722,
  "lat": 53.4435400,
  "lon": -1.9566313,
  "tags": {
    "amenity": "pub",
    "microbrewery": "yes",
    "name": "The Globe",
    "real_ale": "yes"
  }
},
{
  "type": "node",
  "id": 357708651,
  "lat": 53.7951338,
  "lon": -1.5452228,
  "tags": {
    "addr:housenumber": "18-24",
    "addr:postcode": "LS1 5DL",
    "addr:street": "New Station Street",
    "amenity": "pub",
    "beer_garden": "no",
    "fhrs:id": "1058739",
    "microbrewery": "yes",
    "name": "The Brewery Tap",
    "operator": "Leeds Brewery",
    "website": "http://www.brewerytapleeds.co.uk/"
  }
},
{
  "type": "node",
  "id": 1256820722,
  "lat": 53.6415885,
  "lon": -1.7852133,
  "tags": {
    "addr:city": "Huddersfield",
    "addr:country": "GB",
    "addr:housenumber": "40",
    "addr:postcode": "HD1 3EB",
    "addr:street": "Chapel Hill",
    "amenity": "pub",
    "fhrs:id": "226681",
    "floor:material": "rough_wood",
    "indoor": "yes",
    "microbrewery": "yes",
    "name": "The Rat and Ratchet",
    "operator": "Ossett",
    "pinball": "yes",
    "real_ale": "6 or more from Rat, Ossett and others",
    "source:addr": "FHRS Open Data"
  }
},
{
  "type": "node",
  "id": 1515938450,
  "lat": 53.6954381,
  "lon": -1.9912668,
  "tags": {
    "FIXME": "Check actual location by survey - just guessed from address.",
    "craft": "brewery",
    "name": "Little Valley Brewery",
    "source": "address on bottle of beer & OS OpenData StreetView",
    "website": "https://littlevalleybrewery.co.uk/"
  }
},
{
  "type": "node",
  "id": 1998604230,
  "lat": 53.4014340,
  "lon": -2.1523352,
  "tags": {
    "addr:street": "Hempshaw Lane",
    "brewery": "Quantum Brewing Company",
    "craft": "brewery",
    "craft_beer": "yes",
    "microbrewery": "yes",
    "name": "Quantum Brewing Company",
    "real_ale": "yes"
  }
},
{
  "type": "node",
  "id": 3218554783,
  "lat": 53.8120701,
  "lon": -1.5422960,
  "tags": {
    "craft": "brewery",
    "name": "Ridgeside Brewery"
  }
},
{
  "type": "node",
  "id": 3278929816,
  "lat": 53.4901135,
  "lon": -2.2352420,
  "tags": {
    "addr:city": "Manchester",
    "addr:housenumber": "36",
    "addr:postcode": "M4 4JT",
    "addr:street": "Irk Street",
    "amenity": "bar",
    "craft": "brewery",
    "name": "Blackjack Brewtap",
    "operator": "Blackjack Beers Ltd"
  }
},
{
  "type": "node",
  "id": 3404524407,
  "lat": 53.6210160,
  "lon": -1.8864034,
  "tags": {
    "craft": "brewery",
    "microbrewery": "yes",
    "name": "Empire Brewing",
    "website": "http://www.empirebrewing.com/"
  }
},
{
  "type": "node",
  "id": 4212298766,
  "lat": 53.4735672,
  "lon": -2.2183620,
  "tags": {
    "amenity": "bar",
    "craft": "brewery",
    "name": "Beer Nouveau"
  }
},
{
  "type": "node",
  "id": 4212298767,
  "lat": 53.4902867,
  "lon": -2.2343821,
  "tags": {
    "craft": "brewery",
    "name": "Marble Beer"
  }
},
{
  "type": "node",
  "id": 4575975753,
  "lat": 53.4733098,
  "lon": -2.2178504,
  "tags": {
    "craft": "brewery",
    "name": "Chorlton Brewing Company"
  }
},
{
  "type": "node",
  "id": 4575975754,
  "lat": 53.4728094,
  "lon": -2.2168261,
  "tags": {
    "amenity": "bar",
    "craft": "brewery",
    "name": "Manchester Brewing Company"
  }
},
{
  "type": "node",
  "id": 4579780109,
  "lat": 53.7413965,
  "lon": -2.0133067,
  "tags": {
    "craft": "brewery"
  }
},
{
  "type": "node",
  "id": 5305215499,
  "lat": 53.6047576,
  "lon": -2.4224753,
  "tags": {
    "addr:city": "Bolton",
    "addr:postcode": "BL1 8RA",
    "addr:street": "The Pavilion",
    "craft": "brewery",
    "name": "Bank Top Brewery",
    "phone": "+44 1204 595800",
    "website": "https://www.banktopbrewery.com/"
  }
},
{
  "type": "node",
  "id": 5489732528,
  "lat": 53.3282784,
  "lon": -1.9828583,
  "tags": {
    "addr:housenumber": "20",
    "addr:postcode": "SK23 7HR",
    "addr:street": "Old Road",
    "amenity": "bar",
    "brewery": "yes",
    "craft": "brewery",
    "name": "Whaley Tap House",
    "opening_hours": "We-Fr 17:00-22:30; Sa-Su 15:30-22:30",
    "operator": "Whaley Bridge Brewery",
    "smoking": "outside"
  }
},
{
  "type": "node",
  "id": 6328418947,
  "lat": 53.4690167,
  "lon": -2.2759992,
  "tags": {
    "craft": "brewery",
    "name": "The Outstanding Brewery Co",
    "website": "http://www.outstandingbeers.co.uk/"
  }
},
{
  "type": "node",
  "id": 6431741624,
  "lat": 53.4779434,
  "lon": -2.2216576,
  "tags": {
    "addr:city": "Manchester",
    "addr:housenumber": "7-9",
    "addr:postcode": "M1 2NP",
    "addr:street": "Gidding Road",
    "craft": "brewery",
    "name": "Cloudwater Brew Co"
  }
},
{
  "type": "node",
  "id": 6583320365,
  "lat": 53.5917216,
  "lon": -1.8718493,
  "tags": {
    "craft": "brewery",
    "name": "Three Fiends",
    "source": "survey;Bing_aerial;local_knowledge"
  }
},
{
  "type": "node",
  "id": 6677234432,
  "lat": 53.6606690,
  "lon": -1.5548618,
  "tags": {
    "addr:city": "Wakefield",
    "addr:housename": "Cherry Tree Inn",
    "addr:postcode": "WF4 6LT",
    "addr:street": "Church Street",
    "addr:suburb": "Horbury",
    "craft": "brewery",
    "name": "Horbury Ales"
  }
},
{
  "type": "node",
  "id": 6774318174,
  "lat": 53.6489385,
  "lon": -1.4962328,
  "tags": {
    "addr:city": "Wakefield",
    "addr:housename": "The Star Inn",
    "addr:housenumber": "42",
    "addr:postcode": "WF2 7DY",
    "addr:street": "Standbridge Lane",
    "craft": "brewery",
    "fhrs:id": "1131819",
    "name": "Morton Collins Brewing Co"
  }
},
{
  "type": "node",
  "id": 6817624209,
  "lat": 53.7067734,
  "lon": -1.4390990,
  "tags": {
    "addr:city": "Wakefield",
    "addr:housename": "The Robin Hood",
    "addr:housenumber": "10",
    "addr:postcode": "WF6 2NJ",
    "addr:street": "Church Road",
    "craft": "brewery",
    "fhrs:id": "1178109",
    "name": "Tarn 51"
  }
},
{
  "type": "node",
  "id": 6893194131,
  "lat": 53.7336024,
  "lon": -1.6084832,
  "tags": {
    "addr:city": "Leeds",
    "addr:housename": "Vantage Point",
    "addr:postcode": "LS27 0SU",
    "addr:street": "Howley Park Road East",
    "addr:suburb": "Morley",
    "addr:unit": "1",
    "craft": "brewery",
    "fhrs:id": "1198466",
    "name": "Frisky Bear Brewing Co"
  }
},
{
  "type": "node",
  "id": 6967660086,
  "lat": 53.6578058,
  "lon": -1.8207262,
  "tags": {
    "amenity": "pub",
    "microbrewery": "yes",
    "name": "Cider Mill",
    "operator": "Udders Orchard"
  }
},
{
  "type": "node",
  "id": 7049477321,
  "lat": 53.7954705,
  "lon": -1.5681709,
  "tags": {
    "addr:city": "Leeds",
    "addr:housenumber": "7",
    "addr:place": "Armley Park",
    "addr:postcode": "LS12 2DR",
    "addr:street": "Armley Road",
    "addr:unit": "5",
    "craft": "brewery",
    "fhrs:id": "1208430",
    "name": "Wilde Child Brewing Co"
  }
},
{
  "type": "way",
  "id": 143261677,
  "nodes": [
    1567803387,
    1567803453,
    1567803443,
    1567803448,
    1567803387
  ],
  "tags": {
    "addr:housenumber": "9",
    "addr:postcode": "BB11 1TQ",
    "addr:street": "Trafalgar Street",
    "amenity": "pub",
    "brewery": "Moonstone",
    "building": "yes",
    "camra": "yes",
    "microbrewery": "yes",
    "name": "Ministry of Ale",
    "phone": "+44 1282 830909",
    "real_ale": "yes",
    "website": "www.ministryofale.co.uk"
  }
},
{
  "type": "way",
  "id": 151092758,
  "nodes": [
    1639351617,
    1639351514,
    1639351539,
    6130205637,
    1639351541,
    1639351536,
    1639351617
  ],
  "tags": {
    "addr:city": "Salford",
    "addr:housenumber": "30",
    "addr:postcode": "M50 2GL",
    "addr:street": "Kansas Avenue",
    "building": "yes",
    "contact:email": "info@thebeerstudio.co.uk",
    "contact:phone": "0161 226 1317",
    "craft": "brewery",
    "name": "The Beer Studio",
    "product": "beer",
    "website": "http://thebeerstudio.co.uk"
  }
},
{
  "type": "way",
  "id": 156833885,
  "nodes": [
    538599028,
    1690712216,
    1690712204,
    1690712199,
    538599028
  ],
  "tags": {
    "amenity": "pub",
    "building": "yes",
    "ele": "264.25",
    "microbrewery": "yes",
    "name": "The New Delight Inn",
    "note": "Also Bridestones Brewery"
  }
},
{
  "type": "way",
  "id": 180004018,
  "nodes": [
    1904446196,
    1904446182,
    1904446167,
    1904446152,
    1904446190,
    1904446180,
    1904446192,
    1904446216,
    1904446184,
    1904446145,
    1904446179,
    1904446196
  ],
  "tags": {
    "building": "brewery"
  }
},
{
  "type": "way",
  "id": 180004019,
  "nodes": [
    1904446163,
    1904446157,
    1904446188,
    1904446202,
    1904446200,
    1904446144,
    1904446155,
    1904446183,
    1904446147,
    1904446178,
    1904446148,
    1904446150,
    1904446161,
    1904446185,
    1904446177,
    1904446163
  ],
  "tags": {
    "building": "brewery"
  }
},
{
  "type": "way",
  "id": 183820950,
  "nodes": [
    1942416117,
    1942416030,
    1942416127,
    1942416160,
    1942416117
  ],
  "tags": {
    "addr:city": "Sowerby Bridge",
    "addr:country": "GB",
    "addr:housename": "Tubend",
    "addr:postcode": "HX6 2AH",
    "addr:street": "Stanley Street",
    "amenity": "pub",
    "building": "yes",
    "fhrs:id": "810330",
    "microbrewery": "yes",
    "name": "Hogs Head Brewhouse",
    "source:addr": "FHRS Open Data"
  }
},
{
  "type": "way",
  "id": 201674106,
  "nodes": [
    2116972958,
    2116973069,
    5601517328,
    2116973106,
    2116973071,
    2116973048,
    2116972968,
    2116972958
  ],
  "tags": {
    "building": "yes",
    "craft": "brewery",
    "name": "Leeds Brewery"
  }
},
{
  "type": "way",
  "id": 202840892,
  "nodes": [
    2127769515,
    2127769543,
    2127769505,
    2127769548,
    2127769513,
    2127769522,
    2127769521,
    2127769519,
    2127769552,
    2127769532,
    2127769515
  ],
  "tags": {
    "building": "yes",
    "craft": "brewery",
    "name": "Howard Town Brewery Ltd",
    "operator": "Howard Town Brewery Ltd",
    "phone": "+44 1457 869800",
    "source": "Bing",
    "website": "https://www.howardtownbrewery.co.uk/"
  }
},
{
  "type": "way",
  "id": 203450495,
  "nodes": [
    2134671618,
    2134671576,
    2134671592,
    2134671608,
    2134671618
  ],
  "tags": {
    "addr:city": "Leeds",
    "addr:housename": "The Old Flax Store, Marshalls Mill",
    "addr:postcode": "LS11 9YJ",
    "building": "brewery",
    "levels": "3",
    "name": "The Old Flax Store",
    "website": "http://www.northernmonkbrewco.com/old-flax-store/the-refectory"
  }
},
{
  "type": "way",
  "id": 207978374,
  "nodes": [
    2182450145,
    2182450146,
    2182450132,
    2182450134,
    2182450139,
    2182450145
  ],
  "tags": {
    "amenity": "pub",
    "building": "brewery",
    "microbrewery": "yes",
    "name": "Irwell Works Brewery",
    "opening_hours": "We-Su 12:00-23:00"
  }
},
{
  "type": "way",
  "id": 207982315,
  "nodes": [
    2182522891,
    2182522895,
    2182522897,
    2182522898,
    2182522896,
    2182522890,
    2645916523,
    2182522891
  ],
  "tags": {
    "craft": "brewery",
    "landuse": "industrial",
    "name": "J.W.Lees & Co."
  }
},
{
  "type": "way",
  "id": 226077181,
  "nodes": [
    2349352933,
    2349352934,
    2349352932,
    2349352935,
    2349352933
  ],
  "tags": {
    "addr:city": "Shipley",
    "addr:postcode": "BD17 7AR",
    "addr:street": "Dockfield Road",
    "addr:village": "Baildon",
    "building": "brewery",
    "craft": "brewery",
    "name": "Saltaire Brewery",
    "website": "http://saltairebrewery.co.uk"
  }
},
{
  "type": "way",
  "id": 246711260,
  "nodes": [
    2537169503,
    2537169501,
    2537169494,
    2537169502,
    2537169503
  ],
  "tags": {
    "building": "yes",
    "craft": "brewery",
    "source": "bing"
  }
},
{
  "type": "way",
  "id": 246711261,
  "nodes": [
    2537169512,
    2537169513,
    2537169497,
    2537169492,
    2537169507,
    2537169490,
    2537169512
  ],
  "tags": {
    "building": "yes",
    "craft": "brewery",
    "source": "bing"
  }
},
{
  "type": "way",
  "id": 246711262,
  "nodes": [
    2537169496,
    2537169509,
    2537169493,
    2537169511,
    2537169496
  ],
  "tags": {
    "building": "brewery",
    "craft": "brewery",
    "source": "survey"
  }
},
{
  "type": "way",
  "id": 246711263,
  "nodes": [
    2537169491,
    2537169506,
    2537169505,
    2537169508,
    2537169491
  ],
  "tags": {
    "building": "yes",
    "craft": "brewery",
    "source": "bing"
  }
},
{
  "type": "way",
  "id": 246711264,
  "nodes": [
    2537169499,
    2537169510,
    2537169498,
    2537169488,
    2537169499
  ],
  "tags": {
    "building": "yes",
    "craft": "brewery",
    "source": "bing"
  }
},
{
  "type": "way",
  "id": 295805084,
  "nodes": [
    2995670482,
    4291268817,
    2995670481,
    4291268815,
    2995670480,
    2995678116,
    2995678115,
    2995678114,
    2995678117,
    2995678118,
    2995670482
  ],
  "tags": {
    "addr:city": "Brough",
    "addr:housename": "Unit 12, Vincent Works",
    "addr:postcode": "S33 9HG",
    "building": "industrial",
    "craft": "brewery",
    "name": "Intrepid Brewing Company",
    "phone": "+44 1433 621851",
    "source": "Business Owner",
    "website": "http://www.intrepidbrew.co.uk"
  }
},
{
  "type": "way",
  "id": 300719701,
  "nodes": [
    4900126865,
    4900126866,
    5787555039,
    4900126867,
    3039893494,
    4900126865
  ],
  "tags": {
    "addr:city": "Weatherfield",
    "addr:street": "Arkwright Street",
    "building": "yes",
    "craft": "brewery",
    "name": "Newton & Ridley"
  }
},
{
  "type": "way",
  "id": 333332509,
  "nodes": [
    1700175440,
    3404524413,
    3034628956,
    3034628957,
    3404524414,
    1700175440
  ],
  "tags": {
    "amenity": "pub",
    "building": "retail",
    "building:levels": "2",
    "building:material": "stone",
    "food": "yes",
    "microbrewery": "yes",
    "name": "The Riverhead Brewery Tap",
    "outdoor_seating": "yes",
    "real_ale": "10 beers (5 of theirs)",
    "real_cider": "yes",
    "roof:levels": "1"
  }
},
{
  "type": "way",
  "id": 335209277,
  "nodes": [
    323980528,
    3423304164,
    3423304160,
    3423304158,
    3423304161,
    3423304159,
    323980528
  ],
  "tags": {
    "amenity": "pub",
    "brewery": "Nook Brewery",
    "building": "retail",
    "floor:material": "stone",
    "food": "yes",
    "microbrewery": "yes",
    "name": "The Nook",
    "outdoor_seating": "yes",
    "real_ale": "5 of theirs, lots of others"
  }
},
{
  "type": "way",
  "id": 387192367,
  "nodes": [
    3905141348,
    3905141349,
    3905141350,
    3905141351,
    3905141348
  ],
  "tags": {
    "building": "yes",
    "craft": "brewery",
    "name": "Torrside Brewing",
    "website": "http://www.torrside.co.uk/"
  }
},
{
  "type": "way",
  "id": 397275694,
  "nodes": [
    4000837756,
    4000837747,
    4000837750,
    4000840261,
    4000840262,
    4000840269,
    4000840275,
    4000840281,
    4000840266,
    4000837756
  ],
  "tags": {
    "addr:city": "Wakefield",
    "addr:housenumber": "136",
    "addr:postcode": "WF2 9SW",
    "addr:street": "Westgate",
    "building": "yes",
    "craft": "brewery",
    "fhrs:id": "313799",
    "name": "HB Clark And Co Ltd"
  }
},
{
  "type": "way",
  "id": 403402774,
  "nodes": [
    370562333,
    4057490730,
    4057490731,
    4057490732,
    4057490733,
    4057490734,
    1634698773,
    370562333
  ],
  "tags": {
    "building": "yes",
    "craft": "brewery",
    "name": "Copper Dragon"
  }
},
{
  "type": "way",
  "id": 427635112,
  "nodes": [
    4268386690,
    4268386694,
    4090196695,
    4254326841,
    4254326837,
    4268386690
  ],
  "tags": {
    "addr:city": "Leeds",
    "addr:housename": "Sheepscar House",
    "addr:housenumber": "15",
    "addr:postcode": "LS7 1AD",
    "addr:street": "Sheepscar Street South",
    "addr:unit": "11",
    "building": "industrial",
    "craft": "brewery",
    "name": "Nomadic Beers"
  }
},
{
  "type": "way",
  "id": 443374799,
  "nodes": [
    4409599081,
    4409599082,
    4409599083,
    4409599084,
    4409599081
  ],
  "tags": {
    "addr:city": "Leeds",
    "addr:housename": "Unit 24, Penraevon Industrial Estate",
    "addr:postcode": "LS7 2AP",
    "addr:street": "Jackson Road",
    "building": "yes",
    "craft": "brewery",
    "name": "Ridgeside Brewery",
    "website": "https://ridgesidebrewery.co.uk/"
  }
},
{
  "type": "way",
  "id": 444329770,
  "nodes": [
    4418135303,
    4418135304,
    4418135305,
    4418135306,
    4418135303
  ],
  "tags": {
    "addr:city": "Burnley",
    "addr:housenumber": "250",
    "addr:postcode": "BB11 5EN",
    "addr:street": "Accrington Road",
    "building": "yes",
    "craft": "brewery",
    "name": "Moorhouse Brewery",
    "website": "https://www.moorhouses.co.uk/"
  }
},
{
  "type": "way",
  "id": 578604326,
  "nodes": [
    5491637301,
    5543461928,
    5543461929,
    5543461925,
    5543461936,
    5543461935,
    5543461934,
    5543461924,
    5543461927,
    5543461931,
    5543461932,
    5543461926,
    5543461930,
    5543461933,
    5491637301
  ],
  "tags": {
    "addr:city": "Leeds",
    "addr:housename": "City Mills",
    "addr:postcode": "LS27 8QL",
    "addr:street": "Peel Street",
    "addr:suburb": "Morley",
    "addr:unit": "Ground Floor Workshop",
    "building": "industrial",
    "craft": "brewery",
    "fhrs:id": "904845"
  }
},
{
  "type": "way",
  "id": 613047712,
  "nodes": [
    5801660068,
    2117535865,
    2117536295,
    2117535638,
    5801660067,
    5801660066,
    5801660068
  ],
  "tags": {
    "craft": "brewery",
    "name": "Mallinsons",
    "source": "View from road"
  }
},
{
  "type": "way",
  "id": 710619880,
  "nodes": [
    6681080370,
    6681080371,
    6681080373,
    6681080374,
    6681080370
  ],
  "tags": {
    "addr:city": "Huddersfield",
    "addr:housename": "Small World Beers",
    "addr:housenumber": "Unit 10, Barncliffe Business Park",
    "addr:postcode": "HD8 8LU",
    "addr:street": "Brook House Lane",
    "building": "yes",
    "craft": "brewery",
    "name": "Small World Beers"
  }
},
{
  "type": "node",
  "id": 3039893494,
  "lat": 53.4700884,
  "lon": -2.3019280
},
{
  "type": "node",
  "id": 4900126865,
  "lat": 53.4700480,
  "lon": -2.3020108
},
{
  "type": "node",
  "id": 4900126866,
  "lat": 53.4703363,
  "lon": -2.3027682
},
{
  "type": "node",
  "id": 4900126867,
  "lat": 53.4701070,
  "lon": -2.3019139
},
{
  "type": "node",
  "id": 5787555039,
  "lat": 53.4702736,
  "lon": -2.3025348
},
{
  "type": "node",
  "id": 1639351514,
  "lat": 53.4774407,
  "lon": -2.2973244
},
{
  "type": "node",
  "id": 1639351536,
  "lat": 53.4779912,
  "lon": -2.2976091
},
{
  "type": "node",
  "id": 1639351539,
  "lat": 53.4775148,
  "lon": -2.2979573
},
{
  "type": "node",
  "id": 1639351541,
  "lat": 53.4775809,
  "lon": -2.2977501
},
{
  "type": "node",
  "id": 1639351617,
  "lat": 53.4779361,
  "lon": -2.2971547
},
{
  "type": "node",
  "id": 6130205637,
  "lat": 53.4776037,
  "lon": -2.2979248
},
{
  "type": "node",
  "id": 1904446144,
  "lat": 53.4933122,
  "lon": -2.2415496
},
{
  "type": "node",
  "id": 1904446148,
  "lat": 53.4935627,
  "lon": -2.2415899
},
{
  "type": "node",
  "id": 1904446150,
  "lat": 53.4935962,
  "lon": -2.2417629
},
{
  "type": "node",
  "id": 1904446155,
  "lat": 53.4934390,
  "lon": -2.2414745
},
{
  "type": "node",
  "id": 1904446161,
  "lat": 53.4935060,
  "lon": -2.2418138
},
{
  "type": "node",
  "id": 1904446177,
  "lat": 53.4933293,
  "lon": -2.2420730
},
{
  "type": "node",
  "id": 1904446178,
  "lat": 53.4936042,
  "lon": -2.2415604
},
{
  "type": "node",
  "id": 1904446183,
  "lat": 53.4934159,
  "lon": -2.2413552
},
{
  "type": "node",
  "id": 1904446185,
  "lat": 53.4935332,
  "lon": -2.2419640
},
{
  "type": "node",
  "id": 1904446200,
  "lat": 53.4932787,
  "lon": -2.2414008
},
{
  "type": "node",
  "id": 1904446202,
  "lat": 53.4932978,
  "lon": -2.2413833
},
{
  "type": "node",
  "id": 1904446145,
  "lat": 53.4935427,
  "lon": -2.2407262
},
{
  "type": "node",
  "id": 1904446147,
  "lat": 53.4935451,
  "lon": -2.2412868
},
{
  "type": "node",
  "id": 1904446152,
  "lat": 53.4933768,
  "lon": -2.2411674
},
{
  "type": "node",
  "id": 1904446157,
  "lat": 53.4932483,
  "lon": -2.2412398
},
{
  "type": "node",
  "id": 1904446163,
  "lat": 53.4931696,
  "lon": -2.2412862
},
{
  "type": "node",
  "id": 1904446167,
  "lat": 53.4933592,
  "lon": -2.2410883
},
{
  "type": "node",
  "id": 1904446179,
  "lat": 53.4931056,
  "lon": -2.2409789
},
{
  "type": "node",
  "id": 1904446180,
  "lat": 53.4935052,
  "lon": -2.2411191
},
{
  "type": "node",
  "id": 1904446182,
  "lat": 53.4933249,
  "lon": -2.2410507
},
{
  "type": "node",
  "id": 1904446184,
  "lat": 53.4936201,
  "lon": -2.2411004
},
{
  "type": "node",
  "id": 1904446188,
  "lat": 53.4932787,
  "lon": -2.2412626
},
{
  "type": "node",
  "id": 1904446190,
  "lat": 53.4935005,
  "lon": -2.2411004
},
{
  "type": "node",
  "id": 1904446192,
  "lat": 53.4935643,
  "lon": -2.2410870
},
{
  "type": "node",
  "id": 1904446196,
  "lat": 53.4931435,
  "lon": -2.2411567
},
{
  "type": "node",
  "id": 1904446216,
  "lat": 53.4935707,
  "lon": -2.2411232
},
{
  "type": "node",
  "id": 2182450132,
  "lat": 53.6469134,
  "lon": -2.3172931
},
{
  "type": "node",
  "id": 2182450134,
  "lat": 53.6469245,
  "lon": -2.3174109
},
{
  "type": "node",
  "id": 2182450139,
  "lat": 53.6469483,
  "lon": -2.3174350
},
{
  "type": "node",
  "id": 2182450145,
  "lat": 53.6470419,
  "lon": -2.3174510
},
{
  "type": "node",
  "id": 2182450146,
  "lat": 53.6470562,
  "lon": -2.3173360
},
{
  "type": "node",
  "id": 2182522890,
  "lat": 53.5415413,
  "lon": -2.1732093
},
{
  "type": "node",
  "id": 2182522891,
  "lat": 53.5417690,
  "lon": -2.1741672
},
{
  "type": "node",
  "id": 2182522895,
  "lat": 53.5421301,
  "lon": -2.1739873
},
{
  "type": "node",
  "id": 2182522896,
  "lat": 53.5425325,
  "lon": -2.1723811
},
{
  "type": "node",
  "id": 2182522897,
  "lat": 53.5427257,
  "lon": -2.1734725
},
{
  "type": "node",
  "id": 2182522898,
  "lat": 53.5427809,
  "lon": -2.1731938
},
{
  "type": "node",
  "id": 2645916523,
  "lat": 53.5416700,
  "lon": -2.1737328
},
{
  "type": "node",
  "id": 3905141348,
  "lat": 53.3604302,
  "lon": -2.0056479
},
{
  "type": "node",
  "id": 3905141351,
  "lat": 53.3603069,
  "lon": -2.0056681
},
{
  "type": "node",
  "id": 3905141349,
  "lat": 53.3604062,
  "lon": -2.0050900
},
{
  "type": "node",
  "id": 3905141350,
  "lat": 53.3602789,
  "lon": -2.0051102
},
{
  "type": "node",
  "id": 2127769505,
  "lat": 53.4519545,
  "lon": -1.9350598
},
{
  "type": "node",
  "id": 2127769513,
  "lat": 53.4516902,
  "lon": -1.9346208
},
{
  "type": "node",
  "id": 2127769515,
  "lat": 53.4515832,
  "lon": -1.9357037
},
{
  "type": "node",
  "id": 2127769519,
  "lat": 53.4515128,
  "lon": -1.9350053
},
{
  "type": "node",
  "id": 2127769521,
  "lat": 53.4516161,
  "lon": -1.9348895
},
{
  "type": "node",
  "id": 2127769522,
  "lat": 53.4515651,
  "lon": -1.9347610
},
{
  "type": "node",
  "id": 2127769532,
  "lat": 53.4515221,
  "lon": -1.9355501
},
{
  "type": "node",
  "id": 2127769543,
  "lat": 53.4520171,
  "lon": -1.9352175
},
{
  "type": "node",
  "id": 2127769548,
  "lat": 53.4518923,
  "lon": -1.9351295
},
{
  "type": "node",
  "id": 2127769552,
  "lat": 53.4516654,
  "lon": -1.9353896
},
{
  "type": "node",
  "id": 2995670480,
  "lat": 53.3386916,
  "lon": -1.7283663
},
{
  "type": "node",
  "id": 2995670481,
  "lat": 53.3387817,
  "lon": -1.7282652
},
{
  "type": "node",
  "id": 2995670482,
  "lat": 53.3388440,
  "lon": -1.7284206
},
{
  "type": "node",
  "id": 2995678114,
  "lat": 53.3387980,
  "lon": -1.7285367
},
{
  "type": "node",
  "id": 2995678115,
  "lat": 53.3387806,
  "lon": -1.7284932
},
{
  "type": "node",
  "id": 2995678116,
  "lat": 53.3387542,
  "lon": -1.7285228
},
{
  "type": "node",
  "id": 2995678117,
  "lat": 53.3388447,
  "lon": -1.7284842
},
{
  "type": "node",
  "id": 2995678118,
  "lat": 53.3388269,
  "lon": -1.7284398
},
{
  "type": "node",
  "id": 4291268815,
  "lat": 53.3387288,
  "lon": -1.7283246
},
{
  "type": "node",
  "id": 4291268817,
  "lat": 53.3388304,
  "lon": -1.7283739
},
{
  "type": "node",
  "id": 1700175440,
  "lat": 53.6014075,
  "lon": -1.9274175
},
{
  "type": "node",
  "id": 3034628956,
  "lat": 53.6012735,
  "lon": -1.9274891
},
{
  "type": "node",
  "id": 3034628957,
  "lat": 53.6013060,
  "lon": -1.9275779
},
{
  "type": "node",
  "id": 3404524413,
  "lat": 53.6013160,
  "lon": -1.9273435
},
{
  "type": "node",
  "id": 3404524414,
  "lat": 53.6013614,
  "lon": -1.9275061
},
{
  "type": "node",
  "id": 323980528,
  "lat": 53.5695229,
  "lon": -1.7862581
},
{
  "type": "node",
  "id": 3423304158,
  "lat": 53.5694421,
  "lon": -1.7861154
},
{
  "type": "node",
  "id": 3423304159,
  "lat": 53.5694475,
  "lon": -1.7861881
},
{
  "type": "node",
  "id": 3423304160,
  "lat": 53.5694594,
  "lon": -1.7860527
},
{
  "type": "node",
  "id": 3423304161,
  "lat": 53.5694624,
  "lon": -1.7861321
},
{
  "type": "node",
  "id": 3423304164,
  "lat": 53.5695594,
  "lon": -1.7861306
},
{
  "type": "node",
  "id": 6681080370,
  "lat": 53.5903925,
  "lon": -1.6864579
},
{
  "type": "node",
  "id": 6681080371,
  "lat": 53.5903521,
  "lon": -1.6867886
},
{
  "type": "node",
  "id": 6681080373,
  "lat": 53.5902201,
  "lon": -1.6867396
},
{
  "type": "node",
  "id": 6681080374,
  "lat": 53.5902632,
  "lon": -1.6864113
},
{
  "type": "node",
  "id": 2117535638,
  "lat": 53.6371118,
  "lon": -1.7896046
},
{
  "type": "node",
  "id": 2117535865,
  "lat": 53.6373853,
  "lon": -1.7897522
},
{
  "type": "node",
  "id": 2117536295,
  "lat": 53.6372231,
  "lon": -1.7895027
},
{
  "type": "node",
  "id": 5801660066,
  "lat": 53.6373217,
  "lon": -1.7899293
},
{
  "type": "node",
  "id": 5801660067,
  "lat": 53.6372465,
  "lon": -1.7898025
},
{
  "type": "node",
  "id": 5801660068,
  "lat": 53.6374362,
  "lon": -1.7898408
},
{
  "type": "node",
  "id": 4418135303,
  "lat": 53.7865092,
  "lon": -2.2700653
},
{
  "type": "node",
  "id": 4418135304,
  "lat": 53.7866407,
  "lon": -2.2692151
},
{
  "type": "node",
  "id": 4418135305,
  "lat": 53.7864617,
  "lon": -2.2691400
},
{
  "type": "node",
  "id": 4418135306,
  "lat": 53.7863254,
  "lon": -2.2699795
},
{
  "type": "node",
  "id": 1567803387,
  "lat": 53.7860122,
  "lon": -2.2479770
},
{
  "type": "node",
  "id": 1567803443,
  "lat": 53.7859932,
  "lon": -2.2477323
},
{
  "type": "node",
  "id": 1567803448,
  "lat": 53.7859320,
  "lon": -2.2478246
},
{
  "type": "node",
  "id": 1567803453,
  "lat": 53.7860734,
  "lon": -2.2478848
},
{
  "type": "node",
  "id": 538599028,
  "lat": 53.7501665,
  "lon": -2.0589768
},
{
  "type": "node",
  "id": 1690712199,
  "lat": 53.7500223,
  "lon": -2.0588832
},
{
  "type": "node",
  "id": 1690712204,
  "lat": 53.7500569,
  "lon": -2.0587305
},
{
  "type": "node",
  "id": 1690712216,
  "lat": 53.7502011,
  "lon": -2.0588241
},
{
  "type": "node",
  "id": 1942416030,
  "lat": 53.7097650,
  "lon": -1.9055737
},
{
  "type": "node",
  "id": 1942416117,
  "lat": 53.7097153,
  "lon": -1.9057777
},
{
  "type": "node",
  "id": 1942416127,
  "lat": 53.7095408,
  "lon": -1.9054178
},
{
  "type": "node",
  "id": 1942416160,
  "lat": 53.7094911,
  "lon": -1.9056218
},
{
  "type": "node",
  "id": 370562333,
  "lat": 53.8355267,
  "lon": -1.9321177
},
{
  "type": "node",
  "id": 1634698773,
  "lat": 53.8354702,
  "lon": -1.9319582
},
{
  "type": "node",
  "id": 4057490730,
  "lat": 53.8356141,
  "lon": -1.9320302
},
{
  "type": "node",
  "id": 4057490731,
  "lat": 53.8355788,
  "lon": -1.9319206
},
{
  "type": "node",
  "id": 4057490732,
  "lat": 53.8355204,
  "lon": -1.9319737
},
{
  "type": "node",
  "id": 4057490733,
  "lat": 53.8355006,
  "lon": -1.9319132
},
{
  "type": "node",
  "id": 4057490734,
  "lat": 53.8354659,
  "lon": -1.9319451
},
{
  "type": "node",
  "id": 2349352932,
  "lat": 53.8386180,
  "lon": -1.7667895
},
{
  "type": "node",
  "id": 2349352933,
  "lat": 53.8383606,
  "lon": -1.7667359
},
{
  "type": "node",
  "id": 2349352934,
  "lat": 53.8384196,
  "lon": -1.7665775
},
{
  "type": "node",
  "id": 2349352935,
  "lat": 53.8385590,
  "lon": -1.7669480
},
{
  "type": "node",
  "id": 2537169488,
  "lat": 53.4262560,
  "lon": -1.5958754
},
{
  "type": "node",
  "id": 2537169490,
  "lat": 53.4262835,
  "lon": -1.5970614
},
{
  "type": "node",
  "id": 2537169491,
  "lat": 53.4261623,
  "lon": -1.5964659
},
{
  "type": "node",
  "id": 2537169492,
  "lat": 53.4261802,
  "lon": -1.5966926
},
{
  "type": "node",
  "id": 2537169493,
  "lat": 53.4264806,
  "lon": -1.5957720
},
{
  "type": "node",
  "id": 2537169494,
  "lat": 53.4263905,
  "lon": -1.5965231
},
{
  "type": "node",
  "id": 2537169496,
  "lat": 53.4264825,
  "lon": -1.5960938
},
{
  "type": "node",
  "id": 2537169497,
  "lat": 53.4261526,
  "lon": -1.5966326
},
{
  "type": "node",
  "id": 2537169498,
  "lat": 53.4263110,
  "lon": -1.5958114
},
{
  "type": "node",
  "id": 2537169499,
  "lat": 53.4264234,
  "lon": -1.5962813
},
{
  "type": "node",
  "id": 2537169501,
  "lat": 53.4264902,
  "lon": -1.5963960
},
{
  "type": "node",
  "id": 2537169502,
  "lat": 53.4265977,
  "lon": -1.5969808
},
{
  "type": "node",
  "id": 2537169503,
  "lat": 53.4266973,
  "lon": -1.5968537
},
{
  "type": "node",
  "id": 2537169505,
  "lat": 53.4261939,
  "lon": -1.5962810
},
{
  "type": "node",
  "id": 2537169506,
  "lat": 53.4262348,
  "lon": -1.5963871
},
{
  "type": "node",
  "id": 2537169507,
  "lat": 53.4261384,
  "lon": -1.5967469
},
{
  "type": "node",
  "id": 2537169508,
  "lat": 53.4261214,
  "lon": -1.5963597
},
{
  "type": "node",
  "id": 2537169509,
  "lat": 53.4265602,
  "lon": -1.5960249
},
{
  "type": "node",
  "id": 2537169510,
  "lat": 53.4264785,
  "lon": -1.5962174
},
{
  "type": "node",
  "id": 2537169511,
  "lat": 53.4264028,
  "lon": -1.5958410
},
{
  "type": "node",
  "id": 2537169512,
  "lat": 53.4264508,
  "lon": -1.5968440
},
{
  "type": "node",
  "id": 2537169513,
  "lat": 53.4262780,
  "lon": -1.5964696
},
{
  "type": "node",
  "id": 4000837747,
  "lat": 53.6810632,
  "lon": -1.5060987
},
{
  "type": "node",
  "id": 4000837750,
  "lat": 53.6810797,
  "lon": -1.5061158
},
{
  "type": "node",
  "id": 4000837756,
  "lat": 53.6811331,
  "lon": -1.5058816
},
{
  "type": "node",
  "id": 4000840261,
  "lat": 53.6811743,
  "lon": -1.5062130
},
{
  "type": "node",
  "id": 4000840262,
  "lat": 53.6811778,
  "lon": -1.5062167
},
{
  "type": "node",
  "id": 4000840266,
  "lat": 53.6811985,
  "lon": -1.5059462
},
{
  "type": "node",
  "id": 4000840269,
  "lat": 53.6812129,
  "lon": -1.5061172
},
{
  "type": "node",
  "id": 4000840275,
  "lat": 53.6812446,
  "lon": -1.5061562
},
{
  "type": "node",
  "id": 4000840281,
  "lat": 53.6812785,
  "lon": -1.5060831
},
{
  "type": "node",
  "id": 5491637301,
  "lat": 53.7455558,
  "lon": -1.5951822
},
{
  "type": "node",
  "id": 5543461924,
  "lat": 53.7456076,
  "lon": -1.5953329
},
{
  "type": "node",
  "id": 5543461925,
  "lat": 53.7455156,
  "lon": -1.5953154
},
{
  "type": "node",
  "id": 5543461926,
  "lat": 53.7457675,
  "lon": -1.5951177
},
{
  "type": "node",
  "id": 5543461927,
  "lat": 53.7456533,
  "lon": -1.5951816
},
{
  "type": "node",
  "id": 5543461928,
  "lat": 53.7454900,
  "lon": -1.5951253
},
{
  "type": "node",
  "id": 5543461929,
  "lat": 53.7454497,
  "lon": -1.5952586
},
{
  "type": "node",
  "id": 5543461930,
  "lat": 53.7457875,
  "lon": -1.5950514
},
{
  "type": "node",
  "id": 5543461931,
  "lat": 53.7458482,
  "lon": -1.5953500
},
{
  "type": "node",
  "id": 5543461932,
  "lat": 53.7458872,
  "lon": -1.5952210
},
{
  "type": "node",
  "id": 5543461933,
  "lat": 53.7456351,
  "lon": -1.5949197
},
{
  "type": "node",
  "id": 5543461934,
  "lat": 53.7457897,
  "lon": -1.5954903
},
{
  "type": "node",
  "id": 5543461935,
  "lat": 53.7457289,
  "lon": -1.5956917
},
{
  "type": "node",
  "id": 5543461936,
  "lat": 53.7454695,
  "lon": -1.5954678
},
{
  "type": "node",
  "id": 2116972958,
  "lat": 53.7891127,
  "lon": -1.5667762
},
{
  "type": "node",
  "id": 2116972968,
  "lat": 53.7891528,
  "lon": -1.5665236
},
{
  "type": "node",
  "id": 2116973048,
  "lat": 53.7893742,
  "lon": -1.5666244
},
{
  "type": "node",
  "id": 2116973069,
  "lat": 53.7894931,
  "lon": -1.5669493
},
{
  "type": "node",
  "id": 5601517328,
  "lat": 53.7895548,
  "lon": -1.5665637
},
{
  "type": "node",
  "id": 2116973071,
  "lat": 53.7894407,
  "lon": -1.5661988
},
{
  "type": "node",
  "id": 2116973106,
  "lat": 53.7896015,
  "lon": -1.5662714
},
{
  "type": "node",
  "id": 2134671576,
  "lat": 53.7907776,
  "lon": -1.5540320
},
{
  "type": "node",
  "id": 2134671592,
  "lat": 53.7906019,
  "lon": -1.5541708
},
{
  "type": "node",
  "id": 2134671608,
  "lat": 53.7906501,
  "lon": -1.5543457
},
{
  "type": "node",
  "id": 2134671618,
  "lat": 53.7908258,
  "lon": -1.5542070
},
{
  "type": "node",
  "id": 4090196695,
  "lat": 53.8064927,
  "lon": -1.5328994
},
{
  "type": "node",
  "id": 4254326837,
  "lat": 53.8062496,
  "lon": -1.5328972
},
{
  "type": "node",
  "id": 4254326841,
  "lat": 53.8063722,
  "lon": -1.5328983
},
{
  "type": "node",
  "id": 4268386690,
  "lat": 53.8062490,
  "lon": -1.5330897
},
{
  "type": "node",
  "id": 4268386694,
  "lat": 53.8064922,
  "lon": -1.5330919
},
{
  "type": "node",
  "id": 4409599081,
  "lat": 53.8120494,
  "lon": -1.5425722
},
{
  "type": "node",
  "id": 4409599082,
  "lat": 53.8121159,
  "lon": -1.5423187
},
{
  "type": "node",
  "id": 4409599083,
  "lat": 53.8120340,
  "lon": -1.5422556
},
{
  "type": "node",
  "id": 4409599084,
  "lat": 53.8119674,
  "lon": -1.5425091
}

  ]
}
