{
  "version": 0.6,
  "generator": "Overpass API 0.7.55.9 ab41fea6",
  "osm3s": {
    "timestamp_osm_base": "2020-02-06T10:53:02Z",
    "copyright": "The data included in this document is from www.openstreetmap.org. The data is made available under ODbL."
  },
  "elements": [

{
  "type": "node",
  "id": 1365074488,
  "lat": 44.5154330,
  "lon": 7.8919974,
  "tags": {
    "amenity": "pub",
    "microbrewery": "yes",
    "name": "Birrificio Baladin",
    "website": "http://www.baladin.it/"
  }
},
{
  "type": "node",
  "id": 2214951950,
  "lat": 44.9765874,
  "lon": 7.7074804,
  "tags": {
    "addr:city": "Moncalieri",
    "addr:housename": "45Â°NORD",
    "addr:housenumber": "1",
    "addr:postcode": "10024",
    "addr:street": "Via Fortunato Postiglione",
    "amenity": "pub",
    "cuisine": "chicken",
    "description": "Brew Pub ristorante, propone Birre artigianali auto prodotte e galletto cotto alla brace ",
    "microbrewery": "yes",
    "name": "DynaMeet",
    "smoking": "outside"
  }
},
{
  "type": "node",
  "id": 3196747047,
  "lat": 44.5589310,
  "lon": 7.7093794,
  "tags": {
    "addr:city": "Fossano",
    "addr:postcode": "12045",
    "addr:street": "Via Torino 45",
    "craft": "brewery",
    "name": "Birreria Moulin",
    "note": "Birre artigianali, televisioni per partite, ottima cucina",
    "opening_hours": "Tu-Sa 19:00-02:00; Su 19:00-01:00"
  }
},
{
  "type": "node",
  "id": 3881324236,
  "lat": 44.6439155,
  "lon": 7.4908759,
  "tags": {
    "addr:city": "Saluzzo",
    "addr:housenumber": "8",
    "addr:postcode": "12037",
    "addr:street": "Piazzetta dei Mondagli",
    "amenity": "pub",
    "brewery": "yes",
    "contact:facebook": "https://www.facebook.com/birrificiodellagrandasaluzzo",
    "contact:website": "http://www.birrificiodellagranda.it",
    "microbrewery": "yes",
    "name": "Birrificio della Granda",
    "opening_hours": "Tu-Su 19:00-01:00; Fr,Sa 19:00-02:00"
  }
},
{
  "type": "node",
  "id": 5382831229,
  "lat": 44.6246745,
  "lon": 7.5528247,
  "tags": {
    "addr:city": "Lagnasco",
    "addr:housenumber": "15",
    "addr:postcode": "12030",
    "addr:street": "Via Manta",
    "contact:email": "info@birrificiodellagranda.it",
    "contact:website": "http://www.birrificiodellagranda.it",
    "craft": "brewery",
    "name": "Birrificio della Granda",
    "product": "beer"
  }
},
{
  "type": "node",
  "id": 5484420225,
  "lat": 44.4599876,
  "lon": 7.6286101,
  "tags": {
    "addr:city": "Centallo",
    "addr:street": "Frazione San Biagio",
    "amenity": "pub",
    "brewery": "yes",
    "contact:email": "info@birrificiotrunasse.it",
    "contact:website": "https://www.birrificiotrunasse.it/",
    "craft": "brewery",
    "microbrewery": "yes",
    "name": "Birrificio Trunasse",
    "opening_hours": "Tu-Fr 18:00-02:00; Sa 18:00-03:00; Su 18:00-01:00",
    "product": "beer"
  }
},
{
  "type": "node",
  "id": 6187517990,
  "lat": 44.7409933,
  "lon": 8.0336453,
  "tags": {
    "addr:city": "Guarene",
    "addr:housenumber": "27",
    "addr:postcode": "12050",
    "addr:street": "Via Alessandro Roero",
    "contact:email": "info@birrificioalba.it",
    "contact:website": "http://www.birrificioalba.it",
    "craft": "brewery",
    "name": "Birrificio Alba",
    "product": "beer"
  }
},
{
  "type": "node",
  "id": 6187746264,
  "lat": 44.6886205,
  "lon": 8.0343579,
  "tags": {
    "addr:city": "Alba",
    "addr:housenumber": "59 D",
    "addr:postcode": "12051",
    "addr:street": "Corso Langhe",
    "amenity": "restaurant",
    "brewery": "yes",
    "contact:email": "pensavopeggio2014@gmail.com",
    "cuisine": "regional;italian",
    "microbrewery": "yes",
    "name": "Boia Fauss Pensavo Peggio",
    "opening_hours": "Tu-Sa 11:00-22:30; Mo off"
  }
},
{
  "type": "way",
  "id": 382137302,
  "nodes": [
    3853367601,
    3853367594,
    3853367610,
    3853367608,
    3853367624,
    3853367629,
    3853367862,
    3853367875,
    3853367637,
    3853367642,
    3853367621,
    3853367616,
    3853367601
  ],
  "tags": {
    "addr:city": "Neive",
    "addr:housenumber": "1 A",
    "addr:postcode": "12052",
    "addr:street": "Via Moniprandi",
    "amenity": "restaurant",
    "building": "yes",
    "contact:email": "birrificio@birrificiocitabiunda.it",
    "contact:facebook": "https://www.facebook.com/citabiunda.indiependente",
    "contact:website": "http://www.birrificiocitabiunda.it",
    "microbrewery": "yes",
    "name": "Citabiunda",
    "opening_hours": "Tu-Th 19:30-01:00; Fr,Sa 19:30-02:30; Su 19:30-24:00"
  }
},
{
  "type": "way",
  "id": 384673191,
  "nodes": [
    3880303383,
    3880303240,
    3880303234,
    3880303164,
    3880303181,
    3880303230,
    3880303384,
    3880303405,
    3880303517,
    5382831229,
    3880303528,
    3880303437,
    3880303404,
    3880303396,
    3880303379,
    3880303383
  ],
  "tags": {
    "building": "brewery",
    "building:levels": "2"
  }
},
{
  "type": "way",
  "id": 384951353,
  "nodes": [
    3883043379,
    3883042164,
    3883042281,
    3883043091,
    3883043689,
    3883043379
  ],
  "tags": {
    "addr:city": "Piasco",
    "addr:housenumber": "2/A",
    "addr:postcode": "12026",
    "addr:street": "Via Costigliole",
    "building": "industrial",
    "craft": "brewery",
    "name": "birrificio KAUSS"
  }
},
{
  "type": "node",
  "id": 3883042164,
  "lat": 44.5664137,
  "lon": 7.4602533
},
{
  "type": "node",
  "id": 3883042281,
  "lat": 44.5664717,
  "lon": 7.4601072
},
{
  "type": "node",
  "id": 3883043091,
  "lat": 44.5666844,
  "lon": 7.4602803
},
{
  "type": "node",
  "id": 3883043379,
  "lat": 44.5668081,
  "lon": 7.4605735
},
{
  "type": "node",
  "id": 3883043689,
  "lat": 44.5668669,
  "lon": 7.4604285
},
{
  "type": "node",
  "id": 3880303164,
  "lat": 44.6243378,
  "lon": 7.5527717
},
{
  "type": "node",
  "id": 3880303181,
  "lat": 44.6243518,
  "lon": 7.5526219
},
{
  "type": "node",
  "id": 3880303230,
  "lat": 44.6244032,
  "lon": 7.5526230
},
{
  "type": "node",
  "id": 3880303234,
  "lat": 44.6244072,
  "lon": 7.5527854
},
{
  "type": "node",
  "id": 3880303240,
  "lat": 44.6244148,
  "lon": 7.5527051
},
{
  "type": "node",
  "id": 3880303379,
  "lat": 44.6245295,
  "lon": 7.5527647
},
{
  "type": "node",
  "id": 3880303383,
  "lat": 44.6245336,
  "lon": 7.5527237
},
{
  "type": "node",
  "id": 3880303384,
  "lat": 44.6245390,
  "lon": 7.5526462
},
{
  "type": "node",
  "id": 3880303396,
  "lat": 44.6245677,
  "lon": 7.5527682
},
{
  "type": "node",
  "id": 3880303404,
  "lat": 44.6245717,
  "lon": 7.5528645
},
{
  "type": "node",
  "id": 3880303405,
  "lat": 44.6245745,
  "lon": 7.5526513
},
{
  "type": "node",
  "id": 3880303437,
  "lat": 44.6246061,
  "lon": 7.5528638
},
{
  "type": "node",
  "id": 3880303517,
  "lat": 44.6246683,
  "lon": 7.5526647
},
{
  "type": "node",
  "id": 3880303528,
  "lat": 44.6246764,
  "lon": 7.5528730
},
{
  "type": "node",
  "id": 5382831229,
  "lat": 44.6246745,
  "lon": 7.5528247
},
{
  "type": "node",
  "id": 3853367594,
  "lat": 44.7116968,
  "lon": 8.1348962
},
{
  "type": "node",
  "id": 3853367601,
  "lat": 44.7117194,
  "lon": 8.1349806
},
{
  "type": "node",
  "id": 3853367608,
  "lat": 44.7117519,
  "lon": 8.1348276
},
{
  "type": "node",
  "id": 3853367610,
  "lat": 44.7117610,
  "lon": 8.1348617
},
{
  "type": "node",
  "id": 3853367616,
  "lat": 44.7117830,
  "lon": 8.1349463
},
{
  "type": "node",
  "id": 3853367621,
  "lat": 44.7117968,
  "lon": 8.1349982
},
{
  "type": "node",
  "id": 3853367624,
  "lat": 44.7118020,
  "lon": 8.1348007
},
{
  "type": "node",
  "id": 3853367629,
  "lat": 44.7118112,
  "lon": 8.1348350
},
{
  "type": "node",
  "id": 3853367637,
  "lat": 44.7118421,
  "lon": 8.1349192
},
{
  "type": "node",
  "id": 3853367642,
  "lat": 44.7118548,
  "lon": 8.1349670
},
{
  "type": "node",
  "id": 3853367862,
  "lat": 44.7118806,
  "lon": 8.1347976
},
{
  "type": "node",
  "id": 3853367875,
  "lat": 44.7119042,
  "lon": 8.1348858
}

  ]
}
