{
  "version": 0.6,
  "generator": "Overpass API 0.7.55.9 ab41fea6",
  "osm3s": {
    "timestamp_osm_base": "2020-02-06T01:38:02Z",
    "copyright": "The data included in this document is from www.openstreetmap.org. The data is made available under ODbL."
  },
  "elements": [

{
  "type": "node",
  "id": 655152523,
  "lat": 50.2703506,
  "lon": 19.0021469,
  "tags": {
    "addr:door": "233",
    "amenity": "restaurant",
    "contact:facebook": "https://facebook.com/Restauracja-Browar-Bierhalle-Katowice-183517601661364",
    "contact:phone": "+48 609 677 709",
    "cuisine": "regional",
    "level": "1",
    "microbrewery": "yes",
    "name": "Bierhalle",
    "opening_hours": "Mo-Th 12:00-22:00; Fr 12:00-23:00; Sa 11:00-23:00; Su 12:00-20:00; Su[-1] 11:00-21:00; PH off",
    "website": "http://bierhalle.pl/aktualnosci-kat"
  }
},
{
  "type": "node",
  "id": 2118225590,
  "lat": 50.2021768,
  "lon": 18.9766776,
  "tags": {
    "addr:city": "Katowice",
    "addr:country": "PL",
    "addr:housenumber": "153",
    "addr:postcode": "40-750",
    "addr:street": "Armii Krajowej",
    "amenity": "restaurant",
    "email": "restauracja@restauracjavillarossa.pl",
    "microbrewery": "yes",
    "name": "Villa Rossa",
    "phone": "322505283",
    "source": "bing",
    "website": "http://www.restauracjavillarossa.pl"
  }
},
{
  "type": "node",
  "id": 3158124328,
  "lat": 50.0960905,
  "lon": 18.5487781,
  "tags": {
    "addr:city": "Rybnik",
    "addr:housenumber": "14a",
    "addr:postcode": "44-200",
    "addr:street": "Tadeusza Kościuszki",
    "amenity": "restaurant",
    "capacity": "26",
    "cuisine": "burger;kebab;pizza",
    "microbrewery": "yes",
    "name": "Czarna Owca Bistro",
    "opening_hours": "10:00-22:00"
  }
},
{
  "type": "node",
  "id": 3684289908,
  "lat": 50.2561188,
  "lon": 19.0276033,
  "tags": {
    "amenity": "pub",
    "contact:phone": "+ 48 53 50 09 768",
    "cuisine": "gastropub",
    "microbrewery": "yes",
    "name": "Browariat",
    "opening_hours": "Mo-Th 16:00-23:00; Fr 16:00-24:00; Sa 00:00-02:00,17:00-24:00; Su 00:00-02:00,18:00-22:00",
    "website": "http://browariat.com/"
  }
},
{
  "type": "node",
  "id": 4023447727,
  "lat": 50.2701067,
  "lon": 19.0265386,
  "tags": {
    "amenity": "restaurant",
    "cuisine": "asian",
    "microbrewery": "yes",
    "name": "Shurma Dubai",
    "smoking": "no",
    "wheelchair": "yes"
  }
},
{
  "type": "node",
  "id": 4737908007,
  "lat": 50.0982386,
  "lon": 18.5408107,
  "tags": {
    "addr:city": "Rybnik",
    "addr:housenumber": "10",
    "addr:postcode": "44-200",
    "addr:street": "Rudzka",
    "amenity": "restaurant",
    "cuisine": "pizza;regional",
    "email": "info@karczmasekata.pl",
    "microbrewery": "yes",
    "name": "Karczma Sękata",
    "opening_hours": "Mo-Th 11:30-23:00; Fr 11:30-23:59; Sa 00:00-01:00, 11:30-23:59; Su 00:00-01:00, 13:00-23:00",
    "outdoor_seating": "yes",
    "phone": "+48324234141",
    "website": "http://www.karczmasekata.pl/"
  }
},
{
  "type": "way",
  "id": 107236896,
  "nodes": [
    1232915511,
    1232915166,
    1232915459,
    1232915111,
    1232914989,
    1232915532,
    1232915511
  ],
  "tags": {
    "addr:housenumber": "2",
    "addr:street": "Piwowarska",
    "amenity": "pub",
    "building": "yes",
    "heritage": "2",
    "heritage:operator": "nid",
    "historic": "yes",
    "image": "https://commons.wikimedia.org/wiki/File:POL_Bielsko-Bia%C5%82a_Piwowarska_2.JPG",
    "internet_access": "wlan",
    "microbrewery": "yes",
    "name": "Browar Miejski",
    "opening_hours": "Mo-Th 12:00-23:00; Fr-Sa 12:00-00:00; Su 12:00-22:00",
    "phone": "661651979",
    "ref:nid": "A/4/76",
    "website": "http://browarmiejski.pl"
  }
},
{
  "type": "way",
  "id": 206397536,
  "nodes": [
    2164079158,
    2164079185,
    2164079322,
    2164079343,
    2164079371,
    2164079306,
    2164079281,
    2164079181,
    2164079164,
    2164079152,
    2164079129,
    2164079083,
    2164079147,
    2164079158
  ],
  "tags": {
    "addr:city": "Ruda Śląska",
    "addr:housenumber": "17",
    "addr:postcode": "41-712",
    "addr:street": "Tylna",
    "amenity": "pub",
    "building": "service",
    "building:fireproof": "yes",
    "building:levels": "1",
    "building:use:pl": "Inny niemieszkalny",
    "ewmapa:warstwa": "Przyziemie budynku ognioodpornego, podpory, podcienia z rastra",
    "microbrewery": "yes",
    "name": "Browar Alternatywa",
    "phone": "+48 662032844",
    "source": "UM Ruda Śląska",
    "website": "http://www.browar-alternatywa.pl/"
  }
},
{
  "type": "node",
  "id": 1232914989,
  "lat": 49.8207428,
  "lon": 19.0416782
},
{
  "type": "node",
  "id": 1232915111,
  "lat": 49.8206454,
  "lon": 19.0417363
},
{
  "type": "node",
  "id": 1232915166,
  "lat": 49.8206313,
  "lon": 19.0415477
},
{
  "type": "node",
  "id": 1232915459,
  "lat": 49.8206217,
  "lon": 19.0415952
},
{
  "type": "node",
  "id": 1232915511,
  "lat": 49.8207346,
  "lon": 19.0414547
},
{
  "type": "node",
  "id": 1232915532,
  "lat": 49.8207965,
  "lon": 19.0416401
},
{
  "type": "node",
  "id": 2164079083,
  "lat": 50.3105390,
  "lon": 18.8828903
},
{
  "type": "node",
  "id": 2164079129,
  "lat": 50.3105620,
  "lon": 18.8828207
},
{
  "type": "node",
  "id": 2164079147,
  "lat": 50.3105989,
  "lon": 18.8829368
},
{
  "type": "node",
  "id": 2164079152,
  "lat": 50.3105027,
  "lon": 18.8827722
},
{
  "type": "node",
  "id": 2164079158,
  "lat": 50.3105847,
  "lon": 18.8829857
},
{
  "type": "node",
  "id": 2164079164,
  "lat": 50.3105819,
  "lon": 18.8825288
},
{
  "type": "node",
  "id": 2164079181,
  "lat": 50.3106416,
  "lon": 18.8825784
},
{
  "type": "node",
  "id": 2164079185,
  "lat": 50.3106262,
  "lon": 18.8830214
},
{
  "type": "node",
  "id": 2164079281,
  "lat": 50.3107137,
  "lon": 18.8826334
},
{
  "type": "node",
  "id": 2164079306,
  "lat": 50.3107274,
  "lon": 18.8825941
},
{
  "type": "node",
  "id": 2164079322,
  "lat": 50.3107359,
  "lon": 18.8826848
},
{
  "type": "node",
  "id": 2164079343,
  "lat": 50.3107526,
  "lon": 18.8826992
},
{
  "type": "node",
  "id": 2164079371,
  "lat": 50.3107739,
  "lon": 18.8826346
}

  ]
}
