{
  "version": 0.6,
  "generator": "Overpass API 0.7.55.1011 6c2efc30",
  "osm3s": {
    "timestamp_osm_base": "2020-02-06T09:55:02Z",
    "copyright": "The data included in this document is from www.openstreetmap.org. The data is made available under ODbL."
  },
  "elements": [

{
  "type": "node",
  "id": 1463041524,
  "lat": 52.2570633,
  "lon": 5.6073142,
  "tags": {
    "amenity": "restaurant",
    "microbrewery": "yes",
    "name": "Pannenkoekhuis / Partycentrum \"De Huifkar\"",
    "phone": "0341 354 125",
    "smoking": "no",
    "website": "http://www.huifkarputten.nl"
  }
},
{
  "type": "node",
  "id": 2078772345,
  "lat": 52.2968705,
  "lon": 5.6312321,
  "tags": {
    "amenity": "restaurant",
    "microbrewery": "yes",
    "name": "Burg bieren"
  }
},
{
  "type": "node",
  "id": 5642262567,
  "lat": 52.7013189,
  "lon": 5.2909232,
  "tags": {
    "addr:city": "Enkhuizen",
    "addr:housenumber": "6",
    "addr:postcode": "1601GD",
    "addr:street": "Paktuinen",
    "craft": "brewery",
    "name": "Brouwerij De Werf"
  }
}

  ]
}
