{
  "version": 0.6,
  "generator": "Overpass API 0.7.55.1011 6c2efc30",
  "osm3s": {
    "timestamp_osm_base": "2020-02-06T08:56:02Z",
    "copyright": "The data included in this document is from www.openstreetmap.org. The data is made available under ODbL."
  },
  "elements": [

{
  "type": "node",
  "id": 1306440923,
  "lat": 40.7259712,
  "lon": -3.8650911,
  "tags": {
    "amenity": "restaurant",
    "cuisine": "regional",
    "microbrewery": "yes",
    "name": "Asador D'Rolle",
    "phone": "+34 918539896"
  }
},
{
  "type": "node",
  "id": 1897058740,
  "lat": 40.3771990,
  "lon": -3.6219534,
  "tags": {
    "addr:city": "Madrid",
    "addr:housename": "Casa Guerra",
    "addr:housenumber": "24",
    "addr:postcode": "28031",
    "addr:street": "Calle del Monte Aya",
    "craft": "brewery",
    "name": "Casa Guerra"
  }
},
{
  "type": "node",
  "id": 2642152850,
  "lat": 40.4259896,
  "lon": -3.6735980,
  "tags": {
    "addr:city": "Madrid",
    "addr:housenumber": "103",
    "addr:postcode": "28006",
    "addr:street": "Calle de Hermosilla",
    "amenity": "restaurant",
    "cuisine": "japanese",
    "microbrewery": "yes",
    "name": "Howe",
    "opening_hours": "Mo-Su 12:30-23:59",
    "website": "http://www.restaurantejaponeshowe.es/"
  }
},
{
  "type": "node",
  "id": 2803215908,
  "lat": 40.4382673,
  "lon": -3.6539006,
  "tags": {
    "craft": "brewery",
    "name": "El Cortijo"
  }
},
{
  "type": "node",
  "id": 3447281063,
  "lat": 40.2701482,
  "lon": -3.8245543,
  "tags": {
    "addr:country": "ES",
    "addr:street": "Avenida de la Industria",
    "contact:website": "http://www.cervezaarchi.com",
    "craft": "brewery",
    "name": "Archi cerveza natural"
  }
},
{
  "type": "node",
  "id": 3475206472,
  "lat": 40.4627217,
  "lon": -3.7021109,
  "tags": {
    "addr:city": "Madrid",
    "addr:housenumber": "42",
    "addr:postcode": "28039",
    "addr:street": "Calle del Marqués de Viana",
    "amenity": "cafe",
    "craft": "brewery",
    "name": "Casa Morán",
    "wheelchair": "limited",
    "wheelchair:description": "Está a ras de suelo. WC no adaptado. Dispone de terraza"
  }
},
{
  "type": "node",
  "id": 3475258490,
  "lat": 40.4607701,
  "lon": -3.6993059,
  "tags": {
    "addr:city": "Madrid",
    "addr:housenumber": "3",
    "addr:postcode": "28039",
    "addr:street": "Calle del Marqués de Viana",
    "craft": "brewery",
    "name": "Rivieira II",
    "wheelchair": "no",
    "wheelchair:description": "Dispone de terraza"
  }
},
{
  "type": "node",
  "id": 3723258756,
  "lat": 40.3967981,
  "lon": -3.4893301,
  "tags": {
    "amenity": "bar",
    "craft": "brewery",
    "name": "La Sabana Café"
  }
},
{
  "type": "node",
  "id": 4159780689,
  "lat": 40.3931932,
  "lon": -3.6950098,
  "tags": {
    "craft": "brewery",
    "name": "Cervecería La Lastra"
  }
},
{
  "type": "node",
  "id": 4237579618,
  "lat": 40.3239374,
  "lon": -3.7713893,
  "tags": {
    "craft": "brewery",
    "name": "San Miguel III"
  }
},
{
  "type": "node",
  "id": 4241058151,
  "lat": 40.3286160,
  "lon": -3.7647072,
  "tags": {
    "craft": "brewery",
    "name": "Kaligulas"
  }
},
{
  "type": "node",
  "id": 4246710463,
  "lat": 40.3334914,
  "lon": -3.7555525,
  "tags": {
    "craft": "brewery",
    "name": "Hnos Blázquez"
  }
},
{
  "type": "node",
  "id": 4247494573,
  "lat": 40.3319117,
  "lon": -3.7731880,
  "tags": {
    "craft": "brewery",
    "name": "Las Tapas del Diez"
  }
},
{
  "type": "node",
  "id": 4248530969,
  "lat": 40.3338431,
  "lon": -3.7611739,
  "tags": {
    "craft": "brewery",
    "name": "Izquierdo"
  }
},
{
  "type": "node",
  "id": 4253288766,
  "lat": 40.3336275,
  "lon": -3.7614506,
  "tags": {
    "craft": "brewery",
    "name": "Monje"
  }
},
{
  "type": "node",
  "id": 4254245100,
  "lat": 40.3330686,
  "lon": -3.7542737,
  "tags": {
    "craft": "brewery",
    "name": "La Tierruca"
  }
},
{
  "type": "node",
  "id": 4269570120,
  "lat": 40.4142750,
  "lon": -3.6968598,
  "tags": {
    "craft": "brewery",
    "name": "El Barril de las Letras"
  }
},
{
  "type": "node",
  "id": 4274512228,
  "lat": 40.3243703,
  "lon": -3.7634296,
  "tags": {
    "craft": "brewery",
    "name": "Cazorla Manolo"
  }
},
{
  "type": "node",
  "id": 4290485374,
  "lat": 40.3332300,
  "lon": -3.7522245,
  "tags": {
    "craft": "brewery",
    "name": "Serrano"
  }
},
{
  "type": "node",
  "id": 5488509797,
  "lat": 40.3473547,
  "lon": -3.7074119,
  "tags": {
    "amenity": "pub",
    "changing_table": "yes",
    "delivery": "Mo-Su 12:00-22:00",
    "microbrewery": "yes",
    "name": "Bar Asturias",
    "opening_hours": "Mo-Fr 09:00-14:30,16:30-24:00;Sa 09:00-17:00;PH closed",
    "outdoor_seating": "yes",
    "takeaway": "yes",
    "toilets": "yes",
    "toilets:wheelchair": "designated",
    "wheelchair": "yes"
  }
},
{
  "type": "node",
  "id": 6090382109,
  "lat": 40.4464517,
  "lon": -3.5848738,
  "tags": {
    "craft": "brewery",
    "name": "Damm",
    "website": "https://www.damm.com/"
  }
},
{
  "type": "node",
  "id": 6117581828,
  "lat": 40.4350940,
  "lon": -3.6312576,
  "tags": {
    "addr:housenumber": "19",
    "addr:street": "Julian Camarillo",
    "craft": "brewery",
    "description": "Cervecería artesana, restaurante",
    "name": "Mad Brewing, cervecería artesana",
    "phone": "+34 914 402 395",
    "website": "http://madbrewing.beer"
  }
},
{
  "type": "node",
  "id": 6239863192,
  "lat": 40.4760380,
  "lon": -3.7124283,
  "tags": {
    "craft": "brewery",
    "name": "Cervecería Andalucía"
  }
},
{
  "type": "node",
  "id": 6255757718,
  "lat": 40.4793559,
  "lon": -3.7073301,
  "tags": {
    "craft": "brewery",
    "name": "La sureña"
  }
},
{
  "type": "node",
  "id": 6301948295,
  "lat": 40.4000929,
  "lon": -3.6961084,
  "tags": {
    "craft": "brewery",
    "name": "Hermanos Egea"
  }
},
{
  "type": "node",
  "id": 6380287216,
  "lat": 40.3467094,
  "lon": -3.5319011,
  "tags": {
    "addr:housenumber": "81",
    "addr:street": "Calle de Joaquín Sorolla",
    "craft": "brewery",
    "name": "Cervezas Villa de Madrid",
    "phone": "+34 915946302",
    "website": "http://www.cervezasvillademadrid.com/"
  }
},
{
  "type": "node",
  "id": 6408777810,
  "lat": 40.3959623,
  "lon": -3.6612408,
  "tags": {
    "addr:city": "Madrid",
    "addr:housenumber": "21",
    "addr:postcode": "28038",
    "addr:street": "Calle de Enrique Velasco",
    "craft": "brewery",
    "name": "Compañía de Cervezas Valle del Kahs",
    "product": "beer"
  }
},
{
  "type": "node",
  "id": 7176009807,
  "lat": 40.4571864,
  "lon": -3.7133790,
  "tags": {
    "addr:city": "Madrid",
    "addr:housenumber": "77",
    "addr:postcode": "28040",
    "addr:street": "Avenida del Doctor Federico Rubio y Galí",
    "craft": "brewery",
    "name": "Los Alonsos",
    "outdoor_seating": "yes"
  }
},
{
  "type": "node",
  "id": 7176033878,
  "lat": 40.4566240,
  "lon": -3.7138264,
  "tags": {
    "addr:city": "Madrid",
    "addr:housenumber": "77",
    "addr:postcode": "28040",
    "addr:street": "Avenida del Doctor Federico Rubio y Galí",
    "craft": "brewery",
    "name": "Siempre Igual",
    "opening_hours": "Mo-Fr 08:00-22:45"
  }
},
{
  "type": "way",
  "id": 444452766,
  "nodes": [
    4419312852,
    6284019577,
    4419312854,
    4419312853,
    4419312851,
    4419312852
  ],
  "tags": {
    "addr:housenumber": "13",
    "addr:postcode": "28232",
    "addr:street": "Calle de Turín",
    "building": "industrial",
    "craft": "brewery",
    "email": "tengosed@cervezaslavirgen.com",
    "name": "Cervezas La Virgen",
    "phone": "+34 910 80 4742",
    "source": "catastro",
    "website": "https://www.cervezaslavirgen.com/"
  }
},
{
  "type": "node",
  "id": 4419312851,
  "lat": 40.4994587,
  "lon": -3.8887359
},
{
  "type": "node",
  "id": 4419312852,
  "lat": 40.4994765,
  "lon": -3.8891383
},
{
  "type": "node",
  "id": 4419312853,
  "lat": 40.4997081,
  "lon": -3.8887170
},
{
  "type": "node",
  "id": 4419312854,
  "lat": 40.4997256,
  "lon": -3.8891186
},
{
  "type": "node",
  "id": 6284019577,
  "lat": 40.4996212,
  "lon": -3.8891265
}

  ]
}
