{
  "version": 0.6,
  "generator": "Overpass API 0.7.55.1011 6c2efc30",
  "osm3s": {
    "timestamp_osm_base": "2020-02-06T13:49:02Z",
    "copyright": "The data included in this document is from www.openstreetmap.org. The data is made available under ODbL."
  },
  "elements": [

{
  "type": "node",
  "id": 1421874552,
  "lat": 60.4007233,
  "lon": 24.9684807,
  "tags": {
    "amenity": "restaurant",
    "cuisine": "regional",
    "microbrewery": "yes",
    "name": "Lounasravintola"
  }
},
{
  "type": "node",
  "id": 2371493857,
  "lat": 60.1682986,
  "lon": 24.9520133,
  "tags": {
    "addr:city": "Helsinki",
    "addr:country": "FI",
    "addr:housenumber": "2",
    "addr:postcode": "00170",
    "addr:street": "Sofiankatu",
    "amenity": "restaurant",
    "microbrewery": "yes",
    "name": "Bryggeri Helsinki",
    "pub": "yes",
    "short_name": "Bryggeri",
    "summer_terrace": "yes",
    "website": "http://bryggeri.fi/"
  }
},
{
  "type": "node",
  "id": 3628779222,
  "lat": 60.1868200,
  "lon": 24.9730513,
  "tags": {
    "addr:city": "Helsinki",
    "addr:housenumber": "1",
    "addr:postcode": "00540",
    "addr:street": "Kaasutehtaankatu",
    "amenity": "pub",
    "craft": "brewery",
    "microbrewery": "yes",
    "name": "Stadin Panimo",
    "opening_hours": "Su 15:30-23:00; Mo-Tu 16:30-23:00; We-Th 16:30-00:00; Fr-Sa 15:30-01:00"
  }
},
{
  "type": "node",
  "id": 5143651443,
  "lat": 60.1696168,
  "lon": 24.9440262,
  "tags": {
    "addr:housenumber": "2",
    "addr:postcode": "00100",
    "addr:street": "Ateneuminkuja",
    "craft": "brewery",
    "name": "Pien",
    "opening_hours": "Mo-Tu 12:00-21:00; Su 12:00-21:00; We-Th 12:00-00:00; Fr-Sa 12:00-02:00",
    "shop": "alcohol",
    "website": "https://www.pien.fi"
  }
},
{
  "type": "node",
  "id": 5498516151,
  "lat": 60.1814855,
  "lon": 24.8302494,
  "tags": {
    "addr:city": "Espoo",
    "addr:housenumber": "3",
    "addr:postcode": "02150",
    "addr:street": "Lämpömiehenkuja",
    "craft": "brewery",
    "name": "Fat Lizard Brewing Company",
    "opening_hours": "Fr 14:00-18:00",
    "website": "https://fatlizard.beer/"
  }
},
{
  "type": "node",
  "id": 6583558878,
  "lat": 60.1828669,
  "lon": 24.8297054,
  "tags": {
    "addr:city": "Espoo",
    "addr:housenumber": "8",
    "addr:postcode": "02150",
    "addr:street": "Metallimiehenkuja",
    "addr:unit": "A",
    "amenity": "pub",
    "microbrewery": "yes",
    "name": "Olarin panimo",
    "opening_hours": "Th-Sa 14:00-24:00",
    "website": "https://www.olarinpanimo.fi"
  }
},
{
  "type": "node",
  "id": 6896301418,
  "lat": 60.1747056,
  "lon": 24.8031156,
  "tags": {
    "amenity": "pub",
    "level": "2",
    "microbrewery": "yes",
    "name": "Gallows Bird Tapiola"
  }
}

  ]
}
