{
  "version": 0.6,
  "generator": "Overpass API 0.7.55.9 ab41fea6",
  "osm3s": {
    "timestamp_osm_base": "2020-02-06T08:23:02Z",
    "copyright": "The data included in this document is from www.openstreetmap.org. The data is made available under ODbL."
  },
  "elements": [

{
  "type": "node",
  "id": 2485584457,
  "lat": 44.8361358,
  "lon": -0.5721210,
  "tags": {
    "addr:city": "Bordeaux",
    "addr:housenumber": "6",
    "addr:postcode": "33000",
    "addr:street": "Place de la Ferme de Richemont",
    "craft": "brewery",
    "name": "l'Amirale Bière - L’Annexe",
    "opening_hours": "18:00 - 00:00",
    "phone": "+33 983 874 600",
    "source": "Communauté Urbaine de Bordeaux - 09/2013",
    "website": "www.lamiralebiere.fr"
  }
},
{
  "type": "node",
  "id": 2567662967,
  "lat": 44.8358773,
  "lon": -0.5692951,
  "tags": {
    "amenity": "pub",
    "cuisine": "poutine",
    "diet:vegan": "yes",
    "diet:vegetarian": "yes",
    "microbrewery": "yes",
    "name": "Au Nouveau Monde",
    "opening_hours": "Tu,We 18:00-01:00; Th-Sa 18:00-02:00",
    "organic": "yes"
  }
},
{
  "type": "node",
  "id": 2821554439,
  "lat": 44.7723717,
  "lon": -0.3469762,
  "tags": {
    "craft": "brewery"
  }
},
{
  "type": "node",
  "id": 4095936257,
  "lat": 44.9188334,
  "lon": -0.2462747,
  "tags": {
    "addr:city": "Fronsac",
    "addr:housenumber": "34",
    "addr:postcode": "33126",
    "addr:street": "lieu dit Loiseau",
    "capacity": "30",
    "craft": "brewery",
    "operator": "Le Baz'Art"
  }
},
{
  "type": "node",
  "id": 4848490921,
  "lat": 44.8063764,
  "lon": -0.6301044,
  "tags": {
    "addr:city": "Pessac",
    "addr:housenumber": "11",
    "addr:postcode": "33600",
    "addr:street": "Avenue Jean Jaurès",
    "craft": "brewery",
    "name": "La treille Pessacaise",
    "outdoor_seating": "no",
    "phone": "+33 5 56 45 21 35"
  }
},
{
  "type": "node",
  "id": 5104036232,
  "lat": 44.8407035,
  "lon": -0.6474915,
  "tags": {
    "craft": "brewery",
    "name": "Le Basile"
  }
},
{
  "type": "node",
  "id": 6917905634,
  "lat": 44.8805804,
  "lon": -0.5700552,
  "tags": {
    "addr:city": "Bordeaux",
    "addr:street": "Cours de Québec",
    "amenity": "restaurant",
    "capacity": "30",
    "craft": "brewery",
    "cuisine": "pizza",
    "delivery": "yes",
    "microbrewery": "yes",
    "name": "Tutti Pizza",
    "opening_hours": "11:00-14:00,18:00-22:00",
    "operator": "Tutti Pizza",
    "payment:coins": "yes",
    "payment:mastercard": "yes",
    "payment:notes": "yes",
    "payment:visa": "yes",
    "payment:visa_debit": "yes",
    "payment:visa_electron": "yes",
    "phone": "+33556508165",
    "smoking": "no",
    "takeaway": "yes",
    "website": "http://pizzerias.tutti-pizza.com/481560-tutti-pizza-bordeaux-ginko"
  }
},
{
  "type": "node",
  "id": 6993448509,
  "lat": 44.8813422,
  "lon": -0.6286745,
  "tags": {
    "addr:city": "Bruges",
    "addr:housenumber": "493",
    "addr:postcode": "33520",
    "addr:street": "Route du Médoc",
    "craft": "brewery",
    "name": "Brasserie Le Saint Vivien"
  }
},
{
  "type": "node",
  "id": 7043793970,
  "lat": 44.8620272,
  "lon": -0.6017046,
  "tags": {
    "addr:city": "Le Bouscat",
    "addr:housenumber": "191",
    "addr:postcode": "33110",
    "addr:street": "Avenue de la Libération",
    "craft": "brewery",
    "name": "Café-Brasserie L'Espérance"
  }
}

  ]
}
