{
  "version": 0.6,
  "generator": "Overpass API 0.7.55.9 ab41fea6",
  "osm3s": {
    "timestamp_osm_base": "2020-02-06T10:40:02Z",
    "copyright": "The data included in this document is from www.openstreetmap.org. The data is made available under ODbL."
  },
  "elements": [

{
  "type": "node",
  "id": 2750987911,
  "lat": 45.8802726,
  "lon": 8.6720828,
  "tags": {
    "addr:city": "Gemonio",
    "addr:country": "IT",
    "addr:housenumber": "2",
    "addr:postcode": "21036",
    "addr:street": "Via Cavalier Ingegner Francesco Rosaspina",
    "amenity": "pub",
    "internet_access": "wlan",
    "internet_access:fee": "no",
    "microbrewery": "yes",
    "name": "A.MA.LU",
    "phone": "+39 0332 604506",
    "website": "http://www.amalusrl.com/"
  }
},
{
  "type": "node",
  "id": 2888577617,
  "lat": 45.8158247,
  "lon": 9.0661476,
  "tags": {
    "amenity": "pub",
    "craft": "brewery",
    "name": "Arnold' s"
  }
},
{
  "type": "node",
  "id": 3234282974,
  "lat": 45.8420843,
  "lon": 8.9234459,
  "tags": {
    "addr:city": "Stabio",
    "addr:housenumber": "5",
    "addr:postcode": "6855",
    "addr:street": "Via Vite",
    "brand": "Birra San Martino, Bad Attitude",
    "contact:facebook": "https://www.facebook.com/Birrificio-San-Martino-612762722225633",
    "craft": "brewery",
    "name": "Birrificio San Martino",
    "opening_hours": "Mo-Fr 08:00-17:00",
    "operator": "Birrificio San Martino",
    "product": "beer",
    "shop": "alcohol",
    "website": "http://www.birrasanmartino.ch/"
  }
},
{
  "type": "node",
  "id": 3423151695,
  "lat": 45.8443345,
  "lon": 9.0078042,
  "tags": {
    "addr:city": "Balerna",
    "addr:country": "CH",
    "addr:housenumber": "3A",
    "addr:postcode": "6828",
    "addr:street": "Via Sotto Bisio",
    "craft": "brewery",
    "name": "Birrificio Sottobisio",
    "phone": "+41 (0)916821235",
    "product": "beer",
    "shop": "alcohol",
    "website": "https://www.birrificiosottobisio.ch/"
  }
},
{
  "type": "node",
  "id": 3423161004,
  "lat": 45.8565945,
  "lon": 9.0391046,
  "tags": {
    "addr:city": "Sagno",
    "addr:country": "CH",
    "addr:postcode": "6839",
    "craft": "brewery",
    "name": "La Terra Matta",
    "website": "http://www.laterramatta.ch"
  }
},
{
  "type": "node",
  "id": 3423171714,
  "lat": 46.0147548,
  "lon": 8.9087318,
  "tags": {
    "addr:city": "Bioggio",
    "addr:country": "CH",
    "addr:postcode": "6934",
    "addr:street": "Via Cademario",
    "amenity": "restaurant",
    "cuisine": "regional",
    "microbrewery": "yes",
    "name": "Officina della Birra",
    "smoking": "outside",
    "website": "http://www.officinadellabirra.ch"
  }
},
{
  "type": "node",
  "id": 3423198371,
  "lat": 45.8462864,
  "lon": 9.0084201,
  "tags": {
    "addr:city": "Balerna",
    "addr:country": "CH",
    "addr:housenumber": "11",
    "addr:postcode": "6828",
    "addr:street": "Via Enrico Dunant",
    "contact:facebook": "https://www.facebook.com/MicrobirrificioMoMo",
    "craft": "brewery",
    "name": "Microbirrificio Artigianale MóMò",
    "website": "https://www.birra-momo.ch/"
  }
},
{
  "type": "node",
  "id": 3741012014,
  "lat": 45.9245634,
  "lon": 8.9830280,
  "tags": {
    "addr:city": "Melano",
    "addr:country": "CH",
    "addr:housenumber": "1",
    "addr:postcode": "6818",
    "addr:street": "Via Pedreta",
    "craft": "brewery",
    "name": "Birrificio No Land",
    "product": "beer",
    "website": "http://www.birrificionoland.com/"
  }
},
{
  "type": "node",
  "id": 3741023439,
  "lat": 46.0500171,
  "lon": 8.9166256,
  "tags": {
    "craft": "brewery",
    "name": "Birra dei Nani",
    "website": "http://www.birradeinani.com"
  }
},
{
  "type": "node",
  "id": 3824931972,
  "lat": 45.7764844,
  "lon": 8.9623648,
  "tags": {
    "addr:city": "Olgiate Comasco",
    "addr:country": "IT",
    "addr:housenumber": "50",
    "addr:postcode": "22077",
    "addr:street": "Via Torino",
    "contact:facebook": "https://www.facebook.com/BirrificioBIDU/",
    "craft": "brewery",
    "name": "Birrificio BI-DU",
    "website": "http://www.bi-du.it"
  }
},
{
  "type": "node",
  "id": 3824931973,
  "lat": 45.6055168,
  "lon": 8.8531198,
  "tags": {
    "craft": "brewery",
    "name": "Birrificio L'Orso Verde"
  }
},
{
  "type": "node",
  "id": 4403687192,
  "lat": 45.8000538,
  "lon": 9.2385187,
  "tags": {
    "addr:city": "Erba",
    "addr:housenumber": "9",
    "addr:postcode": "22036",
    "addr:street": "Via Milano",
    "amenity": "restaurant",
    "contact:phone": "+39 031 3334187",
    "contact:website": "http://www.doppiomalto.it",
    "cuisine": "italian",
    "email": "erba@doppiomalto.com",
    "microbrewery": "yes",
    "name": "Doppio Malto",
    "name:it": "Doppio Malto",
    "opening_hours": "Mo-Su 12:00-14:30,18:00-01:00",
    "operator": "Doppio Malto Brew Restaurant Srl",
    "ref:vatin": "IT09265890963"
  }
},
{
  "type": "node",
  "id": 4706683029,
  "lat": 45.6441062,
  "lon": 9.2036767,
  "tags": {
    "addr:city": "Seregno",
    "addr:housenumber": "3",
    "addr:postcode": "20831",
    "addr:street": "Via Milano",
    "craft": "brewery",
    "name": "Alder Beer Co.",
    "product": "beer"
  }
},
{
  "type": "node",
  "id": 5311190445,
  "lat": 45.5956006,
  "lon": 9.2946119,
  "tags": {
    "addr:housenumber": "168/A",
    "addr:street": "Via Lecco",
    "craft": "brewery",
    "name": "Alma Birrificio Monzese",
    "website": "http://www.almabirrificio.it/"
  }
},
{
  "type": "way",
  "id": 60142889,
  "nodes": [
    747149803,
    4640092911,
    4640092910,
    4640092912,
    4640092909,
    4640092908,
    747149821,
    747149837,
    747149857,
    747149869,
    747149880,
    747149891,
    747149905,
    747149803
  ],
  "tags": {
    "amenity": "pub",
    "building": "yes",
    "craft": "brewery",
    "microbrewery": "yes",
    "name": "Birrificio Italiano"
  }
},
{
  "type": "way",
  "id": 74354734,
  "nodes": [
    878878094,
    878878095,
    878878096,
    878878097,
    878878094
  ],
  "tags": {
    "addr:city": "Cogliate",
    "addr:housenumber": "35",
    "addr:postcode": "20815",
    "addr:street": "Via Alcide de Gasperi",
    "building": "yes",
    "building:levels": "1",
    "craft": "brewery",
    "name": "L'Officina della Birra",
    "note": "Produzione Birra biologica - Sede amministrativa e operativa",
    "website": "https://www.officinadellabirra.it/"
  }
},
{
  "type": "way",
  "id": 285881342,
  "nodes": [
    2895199151,
    2895199154,
    2895199157,
    2895199169,
    2895199163,
    2895199156,
    2895199153,
    2895199150,
    2895199151
  ],
  "tags": {
    "addr:city": "Varese",
    "addr:housenumber": "130",
    "addr:street": "Via Duca degli Abruzzi Luigi Amedeo di Savoia",
    "amenity": "pub",
    "building": "yes",
    "craft": "brewery",
    "microbrewery": "yes",
    "name": "Unibirra"
  }
},
{
  "type": "way",
  "id": 670991240,
  "nodes": [
    6283526344,
    6283526345,
    6283526346,
    6283526347,
    6283526344
  ],
  "tags": {
    "addr:city": "Seregno",
    "addr:housenumber": "43",
    "addr:postcode": "20831",
    "addr:street": "Via Montello",
    "building": "yes",
    "craft": "brewery",
    "name": "Railroad Brewing Company"
  }
},
{
  "type": "way",
  "id": 753507926,
  "nodes": [
    3050606343,
    3050606347,
    7080064286,
    7080064285,
    7080064287,
    7080064288,
    3050606643,
    7040351679,
    7040351680,
    3050606342,
    7040351681,
    7040351676,
    7040351677,
    7040351678,
    3050606343
  ],
  "tags": {
    "addr:city": "Como",
    "addr:housenumber": "1",
    "addr:postcode": "22100",
    "addr:street": "Via Cecilio",
    "amenity": "restaurant",
    "building": "yes",
    "contact:email": "como@wienerhaus.it",
    "contact:phone": "+39 031 506672",
    "contact:website": "http://www.wienerhaus.com/",
    "craft": "brewery",
    "microbrewery": "yes",
    "name": "Wiener Haus",
    "operator": "Red House Srl",
    "ref:vatin": "IT04611780968"
  }
},
{
  "type": "node",
  "id": 747149803,
  "lat": 45.7064550,
  "lon": 8.9832314
},
{
  "type": "node",
  "id": 747149821,
  "lat": 45.7063795,
  "lon": 8.9833531
},
{
  "type": "node",
  "id": 747149837,
  "lat": 45.7062551,
  "lon": 8.9832420
},
{
  "type": "node",
  "id": 747149857,
  "lat": 45.7061965,
  "lon": 8.9833585
},
{
  "type": "node",
  "id": 747149869,
  "lat": 45.7061313,
  "lon": 8.9833008
},
{
  "type": "node",
  "id": 747149880,
  "lat": 45.7062604,
  "lon": 8.9831290
},
{
  "type": "node",
  "id": 747149891,
  "lat": 45.7062825,
  "lon": 8.9831461
},
{
  "type": "node",
  "id": 747149905,
  "lat": 45.7063189,
  "lon": 8.9830857
},
{
  "type": "node",
  "id": 4640092908,
  "lat": 45.7064197,
  "lon": 8.9832870
},
{
  "type": "node",
  "id": 4640092909,
  "lat": 45.7064497,
  "lon": 8.9832910
},
{
  "type": "node",
  "id": 4640092910,
  "lat": 45.7066033,
  "lon": 8.9833607
},
{
  "type": "node",
  "id": 4640092911,
  "lat": 45.7064703,
  "lon": 8.9832132
},
{
  "type": "node",
  "id": 4640092912,
  "lat": 45.7065705,
  "lon": 8.9834157
},
{
  "type": "node",
  "id": 878878094,
  "lat": 45.6455400,
  "lon": 9.0886238
},
{
  "type": "node",
  "id": 878878095,
  "lat": 45.6450797,
  "lon": 9.0887005
},
{
  "type": "node",
  "id": 878878096,
  "lat": 45.6451420,
  "lon": 9.0893913
},
{
  "type": "node",
  "id": 878878097,
  "lat": 45.6455951,
  "lon": 9.0893011
},
{
  "type": "node",
  "id": 6283526344,
  "lat": 45.6500468,
  "lon": 9.2180989
},
{
  "type": "node",
  "id": 6283526345,
  "lat": 45.6501166,
  "lon": 9.2181015
},
{
  "type": "node",
  "id": 6283526346,
  "lat": 45.6501072,
  "lon": 9.2184529
},
{
  "type": "node",
  "id": 6283526347,
  "lat": 45.6500385,
  "lon": 9.2184529
},
{
  "type": "node",
  "id": 2895199150,
  "lat": 45.8145752,
  "lon": 8.7635891
},
{
  "type": "node",
  "id": 2895199151,
  "lat": 45.8146539,
  "lon": 8.7634122
},
{
  "type": "node",
  "id": 2895199153,
  "lat": 45.8146971,
  "lon": 8.7637007
},
{
  "type": "node",
  "id": 2895199154,
  "lat": 45.8147091,
  "lon": 8.7634627
},
{
  "type": "node",
  "id": 2895199156,
  "lat": 45.8147319,
  "lon": 8.7636225
},
{
  "type": "node",
  "id": 2895199157,
  "lat": 45.8147434,
  "lon": 8.7633855
},
{
  "type": "node",
  "id": 2895199163,
  "lat": 45.8147898,
  "lon": 8.7636754
},
{
  "type": "node",
  "id": 2895199169,
  "lat": 45.8148680,
  "lon": 8.7634995
},
{
  "type": "node",
  "id": 3050606342,
  "lat": 45.7834829,
  "lon": 9.0693044
},
{
  "type": "node",
  "id": 3050606343,
  "lat": 45.7837732,
  "lon": 9.0692892
},
{
  "type": "node",
  "id": 3050606347,
  "lat": 45.7837773,
  "lon": 9.0694169
},
{
  "type": "node",
  "id": 3050606643,
  "lat": 45.7835460,
  "lon": 9.0695679
},
{
  "type": "node",
  "id": 7040351676,
  "lat": 45.7835999,
  "lon": 9.0692849
},
{
  "type": "node",
  "id": 7040351677,
  "lat": 45.7836924,
  "lon": 9.0692863
},
{
  "type": "node",
  "id": 7040351678,
  "lat": 45.7836924,
  "lon": 9.0693091
},
{
  "type": "node",
  "id": 7040351679,
  "lat": 45.7834989,
  "lon": 9.0694875
},
{
  "type": "node",
  "id": 7040351680,
  "lat": 45.7835138,
  "lon": 9.0694606
},
{
  "type": "node",
  "id": 7040351681,
  "lat": 45.7835718,
  "lon": 9.0692433
},
{
  "type": "node",
  "id": 7080064285,
  "lat": 45.7837443,
  "lon": 9.0694714
},
{
  "type": "node",
  "id": 7080064286,
  "lat": 45.7837453,
  "lon": 9.0694311
},
{
  "type": "node",
  "id": 7080064287,
  "lat": 45.7836022,
  "lon": 9.0695465
},
{
  "type": "node",
  "id": 7080064288,
  "lat": 45.7835788,
  "lon": 9.0695451
}

  ]
}
