{
  "version": 0.6,
  "generator": "Overpass API 0.7.55.9 ab41fea6",
  "osm3s": {
    "timestamp_osm_base": "2020-02-05T22:37:02Z",
    "copyright": "The data included in this document is from www.openstreetmap.org. The data is made available under ODbL."
  },
  "elements": [

{
  "type": "node",
  "id": 289568127,
  "lat": 49.7237581,
  "lon": 9.2318690,
  "tags": {
    "addr:city": "Grossheubach",
    "addr:housenumber": "1",
    "addr:postcode": "63920",
    "addr:street": "Kloster Engelberg",
    "amenity": "restaurant",
    "brewery": "Kreuzberger Klosterbier",
    "cuisine": "regional",
    "drink:beer": "draught",
    "microbrewery": "yes",
    "name": "Klosterschänke",
    "opening_hours": "Tu-Su 10:00-18:00; Apr 1-Oct 3 10:00-20:00; Mo off; PH Mo 10:00-18:00; Apr 1-Oct 3 PH Mo 10:00-20:00; easter -3 days 10:00-18:00; easter -2 days off",
    "outdoor_seating": "yes",
    "phone": "+49 93 71 94894 - 20",
    "self_service": "yes",
    "smoking": "outside",
    "website": "http://franziskaner-engelberg.de/index.php?id=75",
    "wheelchair": "yes"
  }
},
{
  "type": "node",
  "id": 685183034,
  "lat": 49.6784444,
  "lon": 9.0054391,
  "tags": {
    "addr:city": "Michelstadt",
    "addr:country": "DE",
    "addr:housenumber": "1 - 3",
    "addr:postcode": "64720",
    "addr:street": "Mauerstraße",
    "amenity": "restaurant",
    "biergarten": "yes",
    "cuisine": "german",
    "diet:vegetarian": "yes",
    "fax": "+49 6061 5665",
    "microbrewery": "yes",
    "name": "Rathausbräu",
    "opening_hours": "Mo-Th 11:00-24:00, Fr,Sa 11:00-23:55",
    "operator": "Sandra Schwarz",
    "phone": "+49 6061 5666",
    "source": "visit 26.04.2019",
    "toilets:wheelchair": "no",
    "website": "http://www.rathausbraeu.de",
    "wheelchair": "limited"
  }
},
{
  "type": "node",
  "id": 961905878,
  "lat": 50.0839378,
  "lon": 9.2453043,
  "tags": {
    "addr:city": "Schöllkrippen",
    "addr:country": "DE",
    "addr:housenumber": "18",
    "addr:postcode": "63825",
    "addr:street": "Aschaffenburger Straße",
    "amenity": "restaurant",
    "biergarten": "yes",
    "cuisine": "german",
    "level": "1",
    "microbrewery": "yes",
    "name": "Brauhaus Barbarossa",
    "outdoor_seating": "yes",
    "phone": "+49 6024 5454",
    "smoking": "outside",
    "website": "http://brauhaus-barbarossa.de",
    "wheelchair": "no"
  }
},
{
  "type": "node",
  "id": 1490472416,
  "lat": 50.0413763,
  "lon": 8.9681752,
  "tags": {
    "addr:city": "Seligenstadt",
    "addr:housenumber": "55",
    "addr:postcode": "63500",
    "addr:street": "Bahnhofstraße",
    "amenity": "restaurant",
    "biergarten": "yes",
    "lastcheck": "2018-02-04",
    "microbrewery": "yes",
    "name": "Klein´s Brauhaus",
    "opening_hours": "Mo-Sa 16:00-23:00; Su 11:00-22:45",
    "website": "https://www.kleines-brauhaus-seligenstadt.de/",
    "wheelchair": "limited"
  }
},
{
  "type": "node",
  "id": 2398816516,
  "lat": 50.1332553,
  "lon": 8.7681089,
  "tags": {
    "addr:city": "Frankfurt am Main",
    "addr:housenumber": "568",
    "addr:postcode": "60386",
    "addr:street": "Hanauer Landstraße",
    "amenity": "restaurant",
    "microbrewery": "yes",
    "name": "Bier-Hannes",
    "opening_hours": "Mo-Sa 12:00-24:00",
    "phone": "+49 69 412890",
    "website": "http://www.bier-hannes.de/"
  }
},
{
  "type": "node",
  "id": 4894837021,
  "lat": 50.0412589,
  "lon": 8.9592496,
  "tags": {
    "addr:postcode": "63500",
    "craft": "brewery",
    "description": "handwerkliche Bierherstellung in kleinen Chargen, Bierverkauf und Zapfanlagenverleih",
    "drink:beer": "yes",
    "email": "kontakt@brauschlumber.de",
    "name": "Brauschlumber",
    "phone": "+49 6182 7749420",
    "shop": "beverages",
    "website": "http://brauschlumber.de/"
  }
},
{
  "type": "way",
  "id": 146055041,
  "nodes": [
    1593470737,
    1593470758,
    1593470679,
    1593470675,
    1593470737
  ],
  "tags": {
    "addr:city": "Glattbach",
    "addr:country": "DE",
    "addr:housenumber": "11a",
    "addr:postcode": "63864",
    "addr:street": "Weitzkaut",
    "building": "yes",
    "craft": "brewery",
    "name": "Brauerei Bergmann",
    "website": "https://www.biobraumeister.de/"
  }
},
{
  "type": "way",
  "id": 156288923,
  "nodes": [
    1685576497,
    1685576494,
    1685576495,
    1685576496,
    5825956778,
    1685576497
  ],
  "tags": {
    "building": "yes",
    "craft": "brewery",
    "cuisine": "german",
    "horse": "yes",
    "microbrewery": "yes",
    "name": "Hohe-Wart-Haus",
    "opening_hours:url": "www.hohewart-haus.de/offen.php",
    "outdoor_seating": "yes",
    "phone": "+49 6021 3398-0",
    "phone:mobile": "+49 172 6995996",
    "toilets:wheelchair": "yes",
    "website": "https://www.hohewart-haus.de/",
    "wheelchair": "limited"
  }
},
{
  "type": "way",
  "id": 193617845,
  "nodes": [
    2041411338,
    2041411364,
    2041411366,
    2041411351,
    2041411362,
    2041411340,
    2041411342,
    2041411335,
    2041411333,
    2041411331,
    2041411329,
    2041411327,
    2041411326,
    2041411324,
    2041411322,
    2041411320,
    2041411318,
    2042466276,
    2041411317,
    2042466275,
    2041411315,
    2041411313,
    2041411309,
    2041411311,
    2041411303,
    2042026983,
    2041411298,
    2041411307,
    2041411306,
    2041411302,
    2041411294,
    2041411288,
    2041411286,
    2041411283,
    2041411292,
    2041411290,
    2041411305,
    2041411308,
    2041411336,
    2041411338
  ],
  "tags": {
    "addr:housenumber": "9",
    "addr:postcode": "63500",
    "addr:street": "Frankfurter Straße",
    "building": "brewery"
  }
},
{
  "type": "way",
  "id": 197700387,
  "nodes": [
    2079060404,
    2079060447,
    2079060509,
    2079060603,
    2079060649,
    2079060599,
    2079060573,
    2079060544,
    2079060574,
    2079060514,
    2079060404
  ],
  "tags": {
    "addr:housenumber": "2",
    "addr:street": "Langgasse",
    "amenity": "pub",
    "building": "residential",
    "craft": "brewery",
    "microbrewery": "yes",
    "name": "Zur Brücke",
    "smoking": "no",
    "wheelchair": "no"
  }
},
{
  "type": "way",
  "id": 198126883,
  "nodes": [
    2083084433,
    2083084439,
    2083084423,
    2083084428,
    2083084422,
    2083084419,
    2083084413,
    2083084409,
    2083084433
  ],
  "tags": {
    "addr:housename": "Brauhaus Wiesen",
    "addr:housenumber": "97",
    "addr:postcode": "63831",
    "addr:street": "Hauptstraße",
    "building": "yes",
    "craft": "brewery",
    "name": "Brauhaus Wiesen"
  }
},
{
  "type": "way",
  "id": 306822473,
  "nodes": [
    3118286371,
    3118286372,
    4459659115,
    4459659117,
    3118286373,
    3118286374,
    3118286375,
    3118286376,
    3118286377,
    3118286386,
    3118286385,
    3118286384,
    3118286383,
    3118286382,
    3118286381,
    3118286378,
    3118286380,
    3118286379,
    3118286371
  ],
  "tags": {
    "craft": "brewery",
    "landuse": "industrial",
    "name": "Eder & Heylands Brauerei",
    "website": "https://www.eders.de/start/"
  }
},
{
  "type": "way",
  "id": 347817634,
  "nodes": [
    3540691662,
    5790723192,
    5790723194,
    5790723196,
    5790723193,
    3540691663,
    3540691661,
    3540691662
  ],
  "tags": {
    "addr:city": "Groß-Umstadt",
    "addr:housenumber": "28",
    "addr:postcode": "64823",
    "addr:street": "Zimmerstraße",
    "building": "yes",
    "craft": "brewery",
    "name": "Umstädter Brauhaus"
  }
},
{
  "type": "way",
  "id": 526965598,
  "nodes": [
    5123727431,
    5123727429,
    5123727424,
    5679405947,
    5123727428,
    5123727427,
    5123727426,
    5123727425,
    5123727430,
    5123727431
  ],
  "tags": {
    "addr:city": "Miltenberg",
    "addr:country": "DE",
    "addr:housenumber": "219",
    "addr:postcode": "63897",
    "addr:street": "Hauptstraße",
    "building": "yes",
    "craft": "brewery",
    "name": "Brauerei Faust",
    "operator": "Brauhaus Faust OHG",
    "phone": "+49 9371 9713-48",
    "shop": "beverages",
    "website": "http://www.brauerei-faust.de"
  }
},
{
  "type": "way",
  "id": 611675872,
  "nodes": [
    3540691667,
    5790723195,
    5790723192,
    3540691662,
    3540691661,
    3540691663,
    5790723193,
    5790723191,
    3540691666,
    3540691667
  ],
  "tags": {
    "amenity": "restaurant",
    "cuisine": "regional",
    "email": "post@umstaedter-brauhaus.de",
    "microbrewery": "yes",
    "name": "Umstädter Brauhaus",
    "opening_hours": "Mo-Sa 18:00-24:00, Su 14:30-21:00",
    "outdoor_seating": "yes",
    "phone": "+49 6078 3345",
    "website": "https://www.umstaedter-brauhaus.de/",
    "wheelchair": "no",
    "wheelchair:description": "7 Stufen am Eingang"
  }
},
{
  "type": "way",
  "id": 616183443,
  "nodes": [
    5825956781,
    2880215029,
    1685576494,
    1685576495,
    1685576496,
    5825956778,
    5825956779,
    5825956780,
    245165402,
    5825956781
  ],
  "tags": {
    "amenity": "restaurant",
    "biergarten": "yes",
    "craft": "brewery",
    "cuisine": "german",
    "horse": "yes",
    "microbrewery": "yes",
    "name": "Hohe-Wart-Haus",
    "opening_hours:url": "www.hohewart-haus.de/offen.php",
    "outdoor_seating": "yes",
    "phone": "+49 6021 3398-0",
    "phone:mobile": "+49 172 6995996",
    "website": "https://www.hohewart-haus.de/"
  }
},
{
  "type": "relation",
  "id": 2871693,
  "members": [
    {
      "type": "way",
      "ref": 216865326,
      "role": "inner"
    },
    {
      "type": "way",
      "ref": 216865325,
      "role": "outer"
    }
  ],
  "tags": {
    "building": "yes",
    "craft": "brewery",
    "microbrewery": "yes",
    "name": "Knöchelsmühle",
    "type": "multipolygon"
  }
},
{
  "type": "relation",
  "id": 7969641,
  "members": [
    {
      "type": "way",
      "ref": 59618136,
      "role": "outer"
    },
    {
      "type": "way",
      "ref": 558095817,
      "role": "outer"
    },
    {
      "type": "way",
      "ref": 558095815,
      "role": "outer"
    },
    {
      "type": "way",
      "ref": 558095816,
      "role": "outer"
    }
  ],
  "tags": {
    "addr:city": "Bad Orb",
    "addr:country": "DE",
    "addr:housenumber": "7",
    "addr:postcode": "63619",
    "addr:street": "Kurparkstraße",
    "amenity": "restaurant",
    "building": "yes",
    "craft": "brewery",
    "cuisine": "regional;german",
    "delivery": "no",
    "microbrewery": "yes",
    "name": "Kärrners Hausbrauerei",
    "outdoor_seating": "yes",
    "smoking": "no",
    "takeaway": "no",
    "type": "multipolygon",
    "wheelchair": "yes",
    "wheelchair:description": "Die Gaststätte ist für Rollstuhlfahrer nur von der Kurparkstrasse befahrbar. Toiletten sind vorhanden aber nur über Treppen erreichbar."
  }
},
{
  "type": "node",
  "id": 2079060447,
  "lat": 49.8501771,
  "lon": 8.8801246
},
{
  "type": "node",
  "id": 2079060509,
  "lat": 49.8502568,
  "lon": 8.8801151
},
{
  "type": "node",
  "id": 2079060603,
  "lat": 49.8503825,
  "lon": 8.8801063
},
{
  "type": "node",
  "id": 2079060404,
  "lat": 49.8501501,
  "lon": 8.8801522
},
{
  "type": "node",
  "id": 2079060514,
  "lat": 49.8502603,
  "lon": 8.8804127
},
{
  "type": "node",
  "id": 2079060544,
  "lat": 49.8503014,
  "lon": 8.8802205
},
{
  "type": "node",
  "id": 2079060573,
  "lat": 49.8503383,
  "lon": 8.8802014
},
{
  "type": "node",
  "id": 2079060574,
  "lat": 49.8503458,
  "lon": 8.8803257
},
{
  "type": "node",
  "id": 2079060599,
  "lat": 49.8503781,
  "lon": 8.8802691
},
{
  "type": "node",
  "id": 2079060649,
  "lat": 49.8504326,
  "lon": 8.8801868
},
{
  "type": "node",
  "id": 3540691661,
  "lat": 49.8656170,
  "lon": 8.9329369
},
{
  "type": "node",
  "id": 3540691662,
  "lat": 49.8656949,
  "lon": 8.9326901
},
{
  "type": "node",
  "id": 3540691663,
  "lat": 49.8657300,
  "lon": 8.9330228
},
{
  "type": "node",
  "id": 3540691666,
  "lat": 49.8658252,
  "lon": 8.9328854
},
{
  "type": "node",
  "id": 3540691667,
  "lat": 49.8658654,
  "lon": 8.9327580
},
{
  "type": "node",
  "id": 5790723191,
  "lat": 49.8657882,
  "lon": 8.9328573
},
{
  "type": "node",
  "id": 5790723192,
  "lat": 49.8657204,
  "lon": 8.9327095
},
{
  "type": "node",
  "id": 5790723193,
  "lat": 49.8657835,
  "lon": 8.9328537
},
{
  "type": "node",
  "id": 5790723194,
  "lat": 49.8658080,
  "lon": 8.9327761
},
{
  "type": "node",
  "id": 5790723195,
  "lat": 49.8657361,
  "lon": 8.9326597
},
{
  "type": "node",
  "id": 5790723196,
  "lat": 49.8657880,
  "lon": 8.9328390
},
{
  "type": "node",
  "id": 2261865980,
  "lat": 49.8949089,
  "lon": 9.0373895
},
{
  "type": "node",
  "id": 4442022449,
  "lat": 49.8949902,
  "lon": 9.0373951
},
{
  "type": "node",
  "id": 2261865965,
  "lat": 49.8946504,
  "lon": 9.0375259
},
{
  "type": "node",
  "id": 2261865968,
  "lat": 49.8947174,
  "lon": 9.0378462
},
{
  "type": "node",
  "id": 2261865970,
  "lat": 49.8947657,
  "lon": 9.0375487
},
{
  "type": "node",
  "id": 2261865973,
  "lat": 49.8947932,
  "lon": 9.0376896
},
{
  "type": "node",
  "id": 2261865975,
  "lat": 49.8948868,
  "lon": 9.0374917
},
{
  "type": "node",
  "id": 2261865977,
  "lat": 49.8948905,
  "lon": 9.0376567
},
{
  "type": "node",
  "id": 2261865979,
  "lat": 49.8949177,
  "lon": 9.0377453
},
{
  "type": "node",
  "id": 2261865981,
  "lat": 49.8949887,
  "lon": 9.0375163
},
{
  "type": "node",
  "id": 2261865982,
  "lat": 49.8949896,
  "lon": 9.0376007
},
{
  "type": "node",
  "id": 2261865987,
  "lat": 49.8949919,
  "lon": 9.0377247
},
{
  "type": "node",
  "id": 2261865995,
  "lat": 49.8950311,
  "lon": 9.0375167
},
{
  "type": "node",
  "id": 2261866002,
  "lat": 49.8950275,
  "lon": 9.0374481
},
{
  "type": "node",
  "id": 2261866009,
  "lat": 49.8950330,
  "lon": 9.0375989
},
{
  "type": "node",
  "id": 2261866017,
  "lat": 49.8950355,
  "lon": 9.0376465
},
{
  "type": "node",
  "id": 2261866024,
  "lat": 49.8951279,
  "lon": 9.0374352
},
{
  "type": "node",
  "id": 2261866032,
  "lat": 49.8951384,
  "lon": 9.0376334
},
{
  "type": "node",
  "id": 3118286371,
  "lat": 49.9222675,
  "lon": 9.0762481
},
{
  "type": "node",
  "id": 3118286372,
  "lat": 49.9222948,
  "lon": 9.0747142
},
{
  "type": "node",
  "id": 3118286373,
  "lat": 49.9225883,
  "lon": 9.0747956
},
{
  "type": "node",
  "id": 3118286374,
  "lat": 49.9228316,
  "lon": 9.0746654
},
{
  "type": "node",
  "id": 3118286375,
  "lat": 49.9228420,
  "lon": 9.0743983
},
{
  "type": "node",
  "id": 3118286376,
  "lat": 49.9234019,
  "lon": 9.0745091
},
{
  "type": "node",
  "id": 3118286377,
  "lat": 49.9234040,
  "lon": 9.0748022
},
{
  "type": "node",
  "id": 3118286379,
  "lat": 49.9224059,
  "lon": 9.0765282
},
{
  "type": "node",
  "id": 3118286382,
  "lat": 49.9235990,
  "lon": 9.0765087
},
{
  "type": "node",
  "id": 3118286383,
  "lat": 49.9234627,
  "lon": 9.0764435
},
{
  "type": "node",
  "id": 3118286384,
  "lat": 49.9234815,
  "lon": 9.0761081
},
{
  "type": "node",
  "id": 3118286385,
  "lat": 49.9236702,
  "lon": 9.0761407
},
{
  "type": "node",
  "id": 3118286386,
  "lat": 49.9237772,
  "lon": 9.0749031
},
{
  "type": "node",
  "id": 4459659115,
  "lat": 49.9224171,
  "lon": 9.0747472
},
{
  "type": "node",
  "id": 4459659117,
  "lat": 49.9224369,
  "lon": 9.0747874
},
{
  "type": "node",
  "id": 3118286378,
  "lat": 49.9233054,
  "lon": 9.0771275
},
{
  "type": "node",
  "id": 3118286380,
  "lat": 49.9226051,
  "lon": 9.0767725
},
{
  "type": "node",
  "id": 3118286381,
  "lat": 49.9235172,
  "lon": 9.0772610
},
{
  "type": "node",
  "id": 5123727427,
  "lat": 49.6991181,
  "lon": 9.2489363
},
{
  "type": "node",
  "id": 5123727428,
  "lat": 49.6991115,
  "lon": 9.2490430
},
{
  "type": "node",
  "id": 5679405947,
  "lat": 49.6991410,
  "lon": 9.2490472
},
{
  "type": "node",
  "id": 5123727424,
  "lat": 49.6992576,
  "lon": 9.2490746
},
{
  "type": "node",
  "id": 5123727425,
  "lat": 49.6992695,
  "lon": 9.2489759
},
{
  "type": "node",
  "id": 5123727426,
  "lat": 49.6992697,
  "lon": 9.2489617
},
{
  "type": "node",
  "id": 5123727429,
  "lat": 49.6992593,
  "lon": 9.2491749
},
{
  "type": "node",
  "id": 5123727430,
  "lat": 49.6993442,
  "lon": 9.2489809
},
{
  "type": "node",
  "id": 5123727431,
  "lat": 49.6993300,
  "lon": 9.2491768
},
{
  "type": "node",
  "id": 245165402,
  "lat": 49.9179960,
  "lon": 9.2572854
},
{
  "type": "node",
  "id": 1685576494,
  "lat": 49.9179304,
  "lon": 9.2574907
},
{
  "type": "node",
  "id": 1685576495,
  "lat": 49.9178297,
  "lon": 9.2574950
},
{
  "type": "node",
  "id": 1685576496,
  "lat": 49.9178263,
  "lon": 9.2573041
},
{
  "type": "node",
  "id": 1685576497,
  "lat": 49.9179271,
  "lon": 9.2572999
},
{
  "type": "node",
  "id": 2880215029,
  "lat": 49.9179708,
  "lon": 9.2575002
},
{
  "type": "node",
  "id": 5825956778,
  "lat": 49.9178643,
  "lon": 9.2573025
},
{
  "type": "node",
  "id": 5825956779,
  "lat": 49.9178626,
  "lon": 9.2572200
},
{
  "type": "node",
  "id": 5825956780,
  "lat": 49.9179239,
  "lon": 9.2572213
},
{
  "type": "node",
  "id": 5825956781,
  "lat": 49.9180046,
  "lon": 9.2575023
},
{
  "type": "node",
  "id": 2041411283,
  "lat": 50.0447044,
  "lon": 8.9734455
},
{
  "type": "node",
  "id": 2041411286,
  "lat": 50.0447312,
  "lon": 8.9736270
},
{
  "type": "node",
  "id": 2041411288,
  "lat": 50.0447476,
  "lon": 8.9736212
},
{
  "type": "node",
  "id": 2041411290,
  "lat": 50.0447495,
  "lon": 8.9733912
},
{
  "type": "node",
  "id": 2041411292,
  "lat": 50.0447549,
  "lon": 8.9734275
},
{
  "type": "node",
  "id": 2041411294,
  "lat": 50.0447565,
  "lon": 8.9736817
},
{
  "type": "node",
  "id": 2041411298,
  "lat": 50.0447765,
  "lon": 8.9740324
},
{
  "type": "node",
  "id": 2041411302,
  "lat": 50.0447968,
  "lon": 8.9736673
},
{
  "type": "node",
  "id": 2041411303,
  "lat": 50.0448003,
  "lon": 8.9743310
},
{
  "type": "node",
  "id": 2041411305,
  "lat": 50.0448129,
  "lon": 8.9733685
},
{
  "type": "node",
  "id": 2041411306,
  "lat": 50.0448202,
  "lon": 8.9738445
},
{
  "type": "node",
  "id": 2041411307,
  "lat": 50.0448355,
  "lon": 8.9740210
},
{
  "type": "node",
  "id": 2041411308,
  "lat": 50.0448431,
  "lon": 8.9735730
},
{
  "type": "node",
  "id": 2041411309,
  "lat": 50.0448840,
  "lon": 8.9743536
},
{
  "type": "node",
  "id": 2041411311,
  "lat": 50.0448849,
  "lon": 8.9743146
},
{
  "type": "node",
  "id": 2041411313,
  "lat": 50.0449057,
  "lon": 8.9743645
},
{
  "type": "node",
  "id": 2041411315,
  "lat": 50.0449134,
  "lon": 8.9743934
},
{
  "type": "node",
  "id": 2041411317,
  "lat": 50.0449227,
  "lon": 8.9744163
},
{
  "type": "node",
  "id": 2041411318,
  "lat": 50.0449399,
  "lon": 8.9744332
},
{
  "type": "node",
  "id": 2041411320,
  "lat": 50.0449580,
  "lon": 8.9744320
},
{
  "type": "node",
  "id": 2041411322,
  "lat": 50.0449599,
  "lon": 8.9744759
},
{
  "type": "node",
  "id": 2041411324,
  "lat": 50.0450287,
  "lon": 8.9744657
},
{
  "type": "node",
  "id": 2041411326,
  "lat": 50.0450302,
  "lon": 8.9744735
},
{
  "type": "node",
  "id": 2041411327,
  "lat": 50.0450334,
  "lon": 8.9744801
},
{
  "type": "node",
  "id": 2041411329,
  "lat": 50.0450386,
  "lon": 8.9744831
},
{
  "type": "node",
  "id": 2041411331,
  "lat": 50.0450443,
  "lon": 8.9744842
},
{
  "type": "node",
  "id": 2041411333,
  "lat": 50.0450524,
  "lon": 8.9744818
},
{
  "type": "node",
  "id": 2041411335,
  "lat": 50.0450612,
  "lon": 8.9744753
},
{
  "type": "node",
  "id": 2041411336,
  "lat": 50.0451241,
  "lon": 8.9734724
},
{
  "type": "node",
  "id": 2041411338,
  "lat": 50.0451280,
  "lon": 8.9734983
},
{
  "type": "node",
  "id": 2041411340,
  "lat": 50.0451307,
  "lon": 8.9742312
},
{
  "type": "node",
  "id": 2041411342,
  "lat": 50.0451458,
  "lon": 8.9743851
},
{
  "type": "node",
  "id": 2041411351,
  "lat": 50.0451621,
  "lon": 8.9740926
},
{
  "type": "node",
  "id": 2041411362,
  "lat": 50.0451747,
  "lon": 8.9742207
},
{
  "type": "node",
  "id": 2041411364,
  "lat": 50.0451825,
  "lon": 8.9738559
},
{
  "type": "node",
  "id": 2041411366,
  "lat": 50.0452047,
  "lon": 8.9740825
},
{
  "type": "node",
  "id": 2042026983,
  "lat": 50.0447865,
  "lon": 8.9741579
},
{
  "type": "node",
  "id": 2042466275,
  "lat": 50.0449174,
  "lon": 8.9744061
},
{
  "type": "node",
  "id": 2042466276,
  "lat": 50.0449302,
  "lon": 8.9744282
},
{
  "type": "node",
  "id": 1593470675,
  "lat": 50.0058728,
  "lon": 9.1400648
},
{
  "type": "node",
  "id": 1593470679,
  "lat": 50.0059065,
  "lon": 9.1402686
},
{
  "type": "node",
  "id": 1593470737,
  "lat": 50.0060670,
  "lon": 9.1399872
},
{
  "type": "node",
  "id": 1593470758,
  "lat": 50.0061006,
  "lon": 9.1401910
},
{
  "type": "node",
  "id": 2083084409,
  "lat": 50.1131181,
  "lon": 9.3628729
},
{
  "type": "node",
  "id": 2083084413,
  "lat": 50.1131569,
  "lon": 9.3631080
},
{
  "type": "node",
  "id": 2083084419,
  "lat": 50.1133326,
  "lon": 9.3630376
},
{
  "type": "node",
  "id": 2083084422,
  "lat": 50.1133840,
  "lon": 9.3633492
},
{
  "type": "node",
  "id": 2083084423,
  "lat": 50.1134131,
  "lon": 9.3629777
},
{
  "type": "node",
  "id": 2083084428,
  "lat": 50.1134687,
  "lon": 9.3633152
},
{
  "type": "node",
  "id": 2083084433,
  "lat": 50.1134947,
  "lon": 9.3627219
},
{
  "type": "node",
  "id": 2083084439,
  "lat": 50.1135292,
  "lon": 9.3629312
},
{
  "type": "node",
  "id": 739237664,
  "lat": 50.2235032,
  "lon": 9.3515760
},
{
  "type": "node",
  "id": 739237749,
  "lat": 50.2233907,
  "lon": 9.3514917
},
{
  "type": "node",
  "id": 739237771,
  "lat": 50.2234618,
  "lon": 9.3514425
},
{
  "type": "node",
  "id": 739521002,
  "lat": 50.2233620,
  "lon": 9.3513978
},
{
  "type": "node",
  "id": 1168844587,
  "lat": 50.2233799,
  "lon": 9.3512945
},
{
  "type": "node",
  "id": 1769434562,
  "lat": 50.2234000,
  "lon": 9.3513716
},
{
  "type": "node",
  "id": 1769434566,
  "lat": 50.2234075,
  "lon": 9.3512783
},
{
  "type": "node",
  "id": 1769434579,
  "lat": 50.2233859,
  "lon": 9.3511706
},
{
  "type": "node",
  "id": 5381707258,
  "lat": 50.2234789,
  "lon": 9.3513512
},
{
  "type": "node",
  "id": 1168844683,
  "lat": 50.2235928,
  "lon": 9.3512557
},
{
  "type": "node",
  "id": 1168845112,
  "lat": 50.2235382,
  "lon": 9.3515504
},
{
  "type": "node",
  "id": 1769434597,
  "lat": 50.2235747,
  "lon": 9.3511785
},
{
  "type": "node",
  "id": 1769434600,
  "lat": 50.2235438,
  "lon": 9.3510634
},
{
  "type": "way",
  "id": 216865326,
  "nodes": [
    2261865975,
    2261865977,
    2261865973,
    2261865970,
    2261865975
  ]
},
{
  "type": "way",
  "id": 216865325,
  "nodes": [
    2261865995,
    2261866002,
    2261866024,
    2261866032,
    2261866017,
    2261866009,
    2261865982,
    2261865987,
    2261865979,
    2261865968,
    2261865965,
    2261865980,
    4442022449,
    2261865981,
    2261865995
  ]
},
{
  "type": "way",
  "id": 558095815,
  "nodes": [
    739237771,
    739237749,
    739521002,
    1769434562,
    1168844587,
    1769434566,
    1769434579
  ]
},
{
  "type": "way",
  "id": 59618136,
  "nodes": [
    1168844683,
    5381707258
  ]
},
{
  "type": "way",
  "id": 558095816,
  "nodes": [
    1769434579,
    1769434600,
    1769434597,
    1168844683
  ]
},
{
  "type": "way",
  "id": 558095817,
  "nodes": [
    5381707258,
    1168845112,
    739237664,
    739237771
  ]
}

  ]
}
