{
  "version": 0.6,
  "generator": "Overpass API 0.7.55.1011 6c2efc30",
  "osm3s": {
    "timestamp_osm_base": "2020-02-06T12:38:03Z",
    "copyright": "The data included in this document is from www.openstreetmap.org. The data is made available under ODbL."
  },
  "elements": [

{
  "type": "node",
  "id": 2168953255,
  "lat": 49.8476934,
  "lon": 24.0155607,
  "tags": {
    "amenity": "restaurant",
    "microbrewery": "yes",
    "name": "Robert Doms",
    "opening_hours": "12:00-24:00"
  }
},
{
  "type": "node",
  "id": 2305662902,
  "lat": 49.8393059,
  "lon": 24.0361499,
  "tags": {
    "amenity": "restaurant",
    "cuisine": "regional",
    "internet_access": "yes",
    "microbrewery": "yes",
    "name": "Кумпель",
    "name:en": "Kumpel",
    "name:fr": "Koumpel",
    "name:uk": "Кумпель",
    "phone": "+38 (032) 242-17-80",
    "website": "http://www.kumpel.biz/"
  }
},
{
  "type": "node",
  "id": 2305665836,
  "lat": 49.8389839,
  "lon": 24.0374515,
  "tags": {
    "amenity": "restaurant",
    "cuisine": "regional",
    "internet_access": "yes",
    "microbrewery": "yes",
    "name": "Старгород",
    "name:en": "Stargorod",
    "name:tr": "Cumartesi akşamı rezervasyon",
    "website": "http://www.stargorod.net/"
  }
},
{
  "type": "node",
  "id": 2918921449,
  "lat": 49.8392169,
  "lon": 24.0250414,
  "tags": {
    "amenity": "pub",
    "cuisine": "local",
    "email": "rzayac@fest.lviv.ua",
    "internet_access": "wlan",
    "microbrewery": "yes",
    "name": "Зеник",
    "name:uk": "Зеник ресторан паб",
    "opening_hours": "Mo-Th 10:00-00:00; Fr-Su 10:00-02:00",
    "phone": "+380 (50) 37-86-036",
    "website": "https://www.fest.lviv.ua/uk/restaurants/zenykmytnyk"
  }
},
{
  "type": "node",
  "id": 5227885806,
  "lat": 49.8289287,
  "lon": 23.9683577,
  "tags": {
    "amenity": "bar",
    "craft": "brewery",
    "name": "Beer Set"
  }
},
{
  "type": "node",
  "id": 5758123375,
  "lat": 49.8419802,
  "lon": 23.9670977,
  "tags": {
    "amenity": "bar",
    "craft": "brewery",
    "name": "Beer Set"
  }
},
{
  "type": "node",
  "id": 5758125325,
  "lat": 49.8472690,
  "lon": 23.9651915,
  "tags": {
    "amenity": "bar",
    "craft": "brewery",
    "name": "Beer Set"
  }
}

  ]
}
