{
  "version": 0.6,
  "generator": "Overpass API 0.7.55.9 ab41fea6",
  "osm3s": {
    "timestamp_osm_base": "2020-02-06T09:51:02Z",
    "copyright": "The data included in this document is from www.openstreetmap.org. The data is made available under ODbL."
  },
  "elements": [

{
  "type": "node",
  "id": 251168507,
  "lat": 52.3720321,
  "lon": 4.8992627,
  "tags": {
    "addr:city": "Amsterdam",
    "addr:housenumber": "6-8",
    "addr:postcode": "1012 CT",
    "addr:street": "Kloveniersburgwal",
    "amenity": "pub",
    "microbrewery": "yes",
    "name": "De Bekeerde Suster",
    "outside_seating": "streetside",
    "phone": "020 423 0112",
    "website": "https://debekeerdesuster.nl/",
    "wheelchair": "no"
  }
},
{
  "type": "node",
  "id": 332059860,
  "lat": 52.3666601,
  "lon": 4.9263454,
  "tags": {
    "addr:city": "Amsterdam",
    "addr:country": "NL",
    "addr:housenumber": "7",
    "addr:postcode": "1018 AL",
    "addr:street": "Funenkade",
    "amenity": "pub",
    "craft": "brewery",
    "description": "brouwerij met proeflokaal",
    "microbrewery": "yes",
    "name": "Brouwerij 't IJ",
    "opening_hours": "Mo-Su 15:00-20:00",
    "outside_seating": "yes",
    "toilets:wheelchair": "no",
    "website": "http://www.brouwerijhetij.nl",
    "wheelchair": "limited",
    "wikidata": "Q3496897",
    "wikipedia": "nl:Brouwerij 't IJ"
  }
},
{
  "type": "node",
  "id": 2412984313,
  "lat": 52.3473367,
  "lon": 4.8538391,
  "tags": {
    "amenity": "pub",
    "craft": "brewery",
    "description": "brouwerij met proeflokaal",
    "name": "Butchers Tears",
    "opening_hours": "We-Su 16:00-21:00",
    "website": "https://butchers-tears.com/"
  }
},
{
  "type": "node",
  "id": 2817950331,
  "lat": 52.7710332,
  "lon": 5.1077439,
  "tags": {
    "addr:city": "Medemblik",
    "addr:housenumber": "4",
    "addr:postcode": "1671AG",
    "addr:street": "Gedempt Achterom",
    "craft": "brewery",
    "email": "info@stadsbrouwerijradboud.nl",
    "name": "Stadsbrouwerij Radboud",
    "website": "https://www.stadsbrouwerijradboud.nl/",
    "wheelchair": "yes"
  }
},
{
  "type": "node",
  "id": 2848746067,
  "lat": 52.3837859,
  "lon": 4.9210589,
  "tags": {
    "addr:city": "Amsterdam",
    "addr:housenumber": "85",
    "addr:postcode": "1021KP",
    "addr:street": "Gedempt Hamerkanaal",
    "amenity": "pub",
    "craft": "brewery",
    "internet_access": "wlan",
    "internet_access:fee": "no",
    "name": "Oedipus Brewing",
    "name:en": "Oedipus Brewing",
    "name:nl": "Oedipus Brewing",
    "opening_hours": "Th 17:00-22:00; Fr-Sa 14:00-23:00; Su 14:00-22:00",
    "source": "BAG",
    "source:date": "2014-05-07",
    "website": "http://oedipus.com",
    "wheelchair": "no"
  }
},
{
  "type": "node",
  "id": 2909579630,
  "lat": 52.4837457,
  "lon": 4.6619176,
  "tags": {
    "addr:city": "Beverwijk",
    "addr:housenumber": "10",
    "addr:postcode": "1947JR",
    "addr:street": "Schans",
    "craft": "brewery",
    "name": "Stadsbrouwhuis Broer & Zus",
    "source": "BAG",
    "source:date": "2014-06-10",
    "website": "http://cafebroerenzus.com/"
  }
},
{
  "type": "node",
  "id": 3855416069,
  "lat": 52.3505111,
  "lon": 4.8911488,
  "tags": {
    "addr:city": "Amsterdam",
    "addr:housenumber": "21",
    "addr:postcode": "1072 JJ",
    "addr:street": "Cornelis Troostplein",
    "alt_name": "Brouwerij Troost De Pijp",
    "amenity": "pub",
    "craft": "brewery",
    "name": "Troost",
    "name:nl": "Troost",
    "website": "https://brouwerijtroost.nl/"
  }
},
{
  "type": "node",
  "id": 4453282047,
  "lat": 52.3700660,
  "lon": 4.8937601,
  "tags": {
    "craft": "brewery",
    "name": "Bierfabriek Amsterdam",
    "website": "https://www.bierfabriek.com/amsterdam/brouwerij"
  }
},
{
  "type": "node",
  "id": 4743459489,
  "lat": 52.3936649,
  "lon": 4.8673227,
  "tags": {
    "craft": "brewery",
    "email": "reserveerhouthavens@deprael.nl",
    "name": "De Prael",
    "phone": "+31 20 408 4470",
    "website": "https://www.deprael.nl/",
    "wikidata": "Q5900483",
    "wikipedia": "nl:Brouwerij De Prael"
  }
},
{
  "type": "node",
  "id": 4815845616,
  "lat": 52.3577131,
  "lon": 4.9356476,
  "tags": {
    "craft": "brewery",
    "name": "Poesiat & Kater"
  }
},
{
  "type": "node",
  "id": 4825270506,
  "lat": 52.5951433,
  "lon": 4.7103575,
  "tags": {
    "addr:city": "Heiloo",
    "addr:housenumber": "3",
    "addr:postcode": "1851VG",
    "addr:street": "De Overtoom",
    "craft": "brewery",
    "name": "Brouwerij Vriendenbier",
    "website": "http://www.vriendenbier.nl/"
  }
},
{
  "type": "node",
  "id": 5652500887,
  "lat": 52.6102410,
  "lon": 4.7560780,
  "tags": {
    "addr:city": "Alkmaar",
    "addr:housenumber": "9",
    "addr:postcode": "1812RC",
    "addr:street": "Diamantweg",
    "craft": "brewery",
    "name": "Brouwerij De Moersleutel",
    "website": "http://brouwerijdemoersleutel.nl/"
  }
},
{
  "type": "node",
  "id": 5968489719,
  "lat": 52.3852001,
  "lon": 4.9205106,
  "tags": {
    "amenity": "pub",
    "craft": "brewery",
    "name": "Walhalla",
    "website": "http://www.walhallacraftbeer.nl/"
  }
},
{
  "type": "node",
  "id": 6344601404,
  "lat": 52.4760947,
  "lon": 4.8111585,
  "tags": {
    "amenity": "pub",
    "craft": "brewery",
    "name": "Brouwerij Hoop",
    "website": "https://www.brouwerijhoop.nl/"
  }
},
{
  "type": "node",
  "id": 6758834307,
  "lat": 52.3419243,
  "lon": 4.7925858,
  "tags": {
    "amenity": "pub",
    "craft": "brewery",
    "description": "brouwerij met proeflokaal",
    "name": "Brouwerij De 7 Deugden",
    "website": "https://de7deugden.nl/"
  }
},
{
  "type": "way",
  "id": 274981313,
  "nodes": [
    2796442843,
    2796443525,
    2796442895,
    2796442909,
    2796442866,
    2796442848,
    2796442495,
    2796442843
  ],
  "tags": {
    "addr:city": "Egmond aan den Hoef",
    "addr:housenumber": "1C",
    "addr:postcode": "1934CS",
    "addr:street": "Weg over de Bisschop",
    "building": "yes",
    "craft": "brewery",
    "name": "Brouwerij Egmond",
    "ref:bag": "373100000026029",
    "source": "BAG",
    "source:date": "2014-03-24",
    "start_date": "2013",
    "website": "http://www.sanctiadalberti.nl/"
  }
},
{
  "type": "way",
  "id": 281551925,
  "nodes": [
    2855153989,
    2855153988,
    2855153991,
    2855153994,
    2855157910,
    2855157914,
    2855157919,
    2855157931,
    2855157915,
    2855157916,
    2855157933,
    2855157938,
    2855157920,
    2855157923,
    2855153993,
    2855153992,
    2855153987,
    2855153985,
    2855153986,
    2855153983,
    2855153989
  ],
  "tags": {
    "amenity": "restaurant",
    "building": "yes",
    "microbrewery": "yes",
    "name": "Babylon",
    "ref:bag": "398100000000948",
    "source": "BAG",
    "source:date": "2014-05-07",
    "start_date": "2006",
    "website": "http://www.babylonswereld.nl/"
  }
},
{
  "type": "node",
  "id": 2796442495,
  "lat": 52.6195160,
  "lon": 4.6559440
},
{
  "type": "node",
  "id": 2796442843,
  "lat": 52.6196129,
  "lon": 4.6558681
},
{
  "type": "node",
  "id": 2796442848,
  "lat": 52.6196149,
  "lon": 4.6562784
},
{
  "type": "node",
  "id": 2796442866,
  "lat": 52.6196196,
  "lon": 4.6562944
},
{
  "type": "node",
  "id": 2796442895,
  "lat": 52.6196306,
  "lon": 4.6562636
},
{
  "type": "node",
  "id": 2796442909,
  "lat": 52.6196358,
  "lon": 4.6562815
},
{
  "type": "node",
  "id": 2796443525,
  "lat": 52.6197112,
  "lon": 4.6562001
},
{
  "type": "node",
  "id": 2855153983,
  "lat": 52.6944028,
  "lon": 4.8283741
},
{
  "type": "node",
  "id": 2855153985,
  "lat": 52.6944064,
  "lon": 4.8285722
},
{
  "type": "node",
  "id": 2855153986,
  "lat": 52.6944210,
  "lon": 4.8285685
},
{
  "type": "node",
  "id": 2855153987,
  "lat": 52.6944308,
  "lon": 4.8288317
},
{
  "type": "node",
  "id": 2855153988,
  "lat": 52.6944637,
  "lon": 4.8283360
},
{
  "type": "node",
  "id": 2855153989,
  "lat": 52.6944658,
  "lon": 4.8283580
},
{
  "type": "node",
  "id": 2855153991,
  "lat": 52.6945081,
  "lon": 4.8283246
},
{
  "type": "node",
  "id": 2855153992,
  "lat": 52.6945096,
  "lon": 4.8288116
},
{
  "type": "node",
  "id": 2855153993,
  "lat": 52.6945098,
  "lon": 4.8288138
},
{
  "type": "node",
  "id": 2855153994,
  "lat": 52.6945115,
  "lon": 4.8283598
},
{
  "type": "node",
  "id": 2855157910,
  "lat": 52.6945355,
  "lon": 4.8283536
},
{
  "type": "node",
  "id": 2855157914,
  "lat": 52.6945422,
  "lon": 4.8284240
},
{
  "type": "node",
  "id": 2855157915,
  "lat": 52.6945451,
  "lon": 4.8286432
},
{
  "type": "node",
  "id": 2855157916,
  "lat": 52.6945466,
  "lon": 4.8286588
},
{
  "type": "node",
  "id": 2855157919,
  "lat": 52.6945583,
  "lon": 4.8284200
},
{
  "type": "node",
  "id": 2855157920,
  "lat": 52.6945588,
  "lon": 4.8287744
},
{
  "type": "node",
  "id": 2855157923,
  "lat": 52.6945613,
  "lon": 4.8288007
},
{
  "type": "node",
  "id": 2855157931,
  "lat": 52.6945783,
  "lon": 4.8286347
},
{
  "type": "node",
  "id": 2855157933,
  "lat": 52.6945799,
  "lon": 4.8286503
},
{
  "type": "node",
  "id": 2855157938,
  "lat": 52.6945908,
  "lon": 4.8287662
}

  ]
}
