{
  "version": 0.6,
  "generator": "Overpass API 0.7.55.1011 6c2efc30",
  "osm3s": {
    "timestamp_osm_base": "2020-02-06T11:35:01Z",
    "copyright": "The data included in this document is from www.openstreetmap.org. The data is made available under ODbL."
  },
  "elements": [

{
  "type": "node",
  "id": 450606437,
  "lat": 48.3884062,
  "lon": 17.5759811,
  "tags": {
    "addr:city": "Trnava",
    "addr:country": "SK",
    "addr:housenumber": "17",
    "addr:postcode": "917 01",
    "addr:street": "Pri kalvárii",
    "addr:streetnumber": "17",
    "amenity": "restaurant",
    "microbrewery": "yes",
    "name": "Sessler",
    "opening_hours": "10:00-22:00",
    "website": "http://www.sessler.sk/"
  }
},
{
  "type": "node",
  "id": 1118684868,
  "lat": 48.5570925,
  "lon": 17.3483616,
  "tags": {
    "amenity": "pub",
    "microbrewery": "yes",
    "name": "Šandorfský šenk"
  }
},
{
  "type": "node",
  "id": 3758792396,
  "lat": 48.2604518,
  "lon": 17.2678966,
  "tags": {
    "craft": "brewery",
    "fixme": "set better place",
    "microbrewery": "yes",
    "name": "Jama Craft Brewery",
    "name:en": "Jama Craft Brewery Office",
    "name:sk": "Jama Craft Brewery Office",
    "website": "www.pivojama.eu"
  }
}

  ]
}
