{
  "version": 0.6,
  "generator": "Overpass API 0.7.55.9 ab41fea6",
  "osm3s": {
    "timestamp_osm_base": "2020-02-06T09:19:02Z",
    "copyright": "The data included in this document is from www.openstreetmap.org. The data is made available under ODbL."
  },
  "elements": [

{
  "type": "node",
  "id": 1539330319,
  "lat": 37.3911798,
  "lon": -6.0021645,
  "tags": {
    "craft": "brewery",
    "name": "Cervecería La Sureña"
  }
},
{
  "type": "node",
  "id": 2822317439,
  "lat": 37.3859502,
  "lon": -5.9857525,
  "tags": {
    "addr:street": "Avenida Menéndez Pelayo",
    "craft": "brewery",
    "name": "Casa Coronado"
  }
},
{
  "type": "node",
  "id": 4159856579,
  "lat": 37.3960740,
  "lon": -5.9944684,
  "tags": {
    "addr:housenumber": "4",
    "addr:postcode": "41002",
    "addr:street": "Calle Delgado",
    "amenity": "pub",
    "cuisine": "spanish;mediterranean",
    "microbrewery": "yes",
    "name": "Maquila",
    "opening_hours": "Mo-Su 13:00-16:30, 20:00-23:55",
    "phone": "+34955182320"
  }
},
{
  "type": "node",
  "id": 5078013282,
  "lat": 37.3945272,
  "lon": -5.7160215,
  "tags": {
    "craft": "brewery",
    "name": "Cervecería La Viña"
  }
},
{
  "type": "node",
  "id": 5482585828,
  "lat": 37.3877394,
  "lon": -6.0786254,
  "tags": {
    "craft": "brewery",
    "name": "Enbirra Sana"
  }
}

  ]
}
