{
  "version": 0.6,
  "generator": "Overpass API 0.7.55.1011 6c2efc30",
  "osm3s": {
    "timestamp_osm_base": "2020-02-06T12:16:03Z",
    "copyright": "The data included in this document is from www.openstreetmap.org. The data is made available under ODbL."
  },
  "elements": [

{
  "type": "node",
  "id": 451727066,
  "lat": 47.3884825,
  "lon": 8.5211173,
  "tags": {
    "addr:city": "Zürich",
    "addr:country": "CH",
    "addr:housenumber": "257",
    "addr:postcode": "8005",
    "addr:street": "Heinrichstrasse",
    "amenity": "restaurant",
    "capacity": "335",
    "cuisine": "regional",
    "microbrewery": "yes",
    "name": "Steinfels",
    "opening_hours": "Mo-Th 11:00-24:00; Fr 11:00-01:00, Sa 13:00-01:00, Su 13:00-23:00",
    "operator": "Kramer Gastronomie",
    "outdoor_seating": "yes",
    "takeaway": "beer",
    "website": "https://steinfels-zuerich.ch/"
  }
},
{
  "type": "node",
  "id": 564888514,
  "lat": 47.4986288,
  "lon": 8.7261468,
  "tags": {
    "addr:city": "Winterthur",
    "addr:country": "CH",
    "addr:housenumber": "7",
    "addr:postcode": "8400",
    "addr:street": "Neumarkt",
    "amenity": "restaurant",
    "level": "0",
    "microbrewery": "yes",
    "name": "Brauhaus",
    "opening_hours": "Mo-Sa 11:00-23:30; Su 10:00-22:00",
    "outdoor_seating": "yes",
    "smoking": "outside",
    "website": "http://www.brauhaus.ch/gastro-winterthur",
    "wheelchair": "limited"
  }
},
{
  "type": "node",
  "id": 1345858672,
  "lat": 47.0453488,
  "lon": 8.3155494,
  "tags": {
    "craft": "brewery",
    "name": "Luzerner Bier Brauerei",
    "opening_hours": "We 11:00-14:00; Fr 14:00-17:00; Sa 10:00-14:00"
  }
},
{
  "type": "node",
  "id": 1525041813,
  "lat": 47.3707258,
  "lon": 8.7707540,
  "tags": {
    "craft": "brewery",
    "name": "Brauerei Sudwerk AG",
    "website": "https://sudwerk.ch/"
  }
},
{
  "type": "node",
  "id": 1801292048,
  "lat": 47.4911717,
  "lon": 7.9965941,
  "tags": {
    "amenity": "pub",
    "brewery": "Thiersteiner Bräu",
    "email": "doris@tiersteiner.ch",
    "internet_access": "no",
    "microbrewery": "yes",
    "name": "Thiersteiner Bräu Stäuble",
    "opening_hours": "Fr 16:00-22:00",
    "operator": "Doris und Hansjörg Stäuble",
    "phone": "+41 62 871 05 70",
    "smoking": "no",
    "website": "http://www.tiersteiner.ch"
  }
},
{
  "type": "node",
  "id": 1864187711,
  "lat": 47.4106547,
  "lon": 8.5463538,
  "tags": {
    "amenity": "pub",
    "brewery": "Green King IPA;Guinness;Heineken;Brooklyn IPA;Super Bock;Hoegarden;Blue Moon;Kilkenny",
    "microbrewery": "yes",
    "name": "Cooper's Pub",
    "opening_hours": "Mo-Th 11:00-23:59; Fr 11:00-02:00; Sa 14:00-02:00"
  }
},
{
  "type": "node",
  "id": 2040721011,
  "lat": 47.1844591,
  "lon": 8.0220632,
  "tags": {
    "craft": "brewery",
    "website": "http://www.brauwiler.ch/"
  }
},
{
  "type": "node",
  "id": 2454248125,
  "lat": 47.0681132,
  "lon": 8.2674196,
  "tags": {
    "amenity": "restaurant",
    "cuisine": "regional",
    "microbrewery": "yes",
    "name": "Restaurant swiss steel",
    "opening_hours": "Mo-Fr 08:15-15:00"
  }
},
{
  "type": "node",
  "id": 2457539648,
  "lat": 47.4866133,
  "lon": 8.7594559,
  "tags": {
    "amenity": "restaurant",
    "cuisine": "regional",
    "microbrewery": "yes",
    "name": "Restaurant Burehus"
  }
},
{
  "type": "node",
  "id": 2904967414,
  "lat": 47.3836636,
  "lon": 8.5326533,
  "tags": {
    "addr:city": "Zürich",
    "addr:housenumber": "109",
    "addr:postcode": "8005",
    "addr:street": "Limmatstrasse",
    "amenity": "bar",
    "description": "Craft Beer Bar",
    "microbrewery": "yes",
    "name": "Eldorado",
    "outdoor_seating": "yes",
    "phone": "+41 43 540 90 31",
    "smoking": "outside",
    "website": "http://www.eldorado-zh.ch/"
  }
},
{
  "type": "node",
  "id": 3913401400,
  "lat": 47.4971903,
  "lon": 8.7598926,
  "tags": {
    "addr:city": "Winterthur",
    "addr:housenumber": "40",
    "addr:postcode": "8404",
    "addr:street": "Industriestrasse",
    "craft": "brewery",
    "name": "Doppelleu Brauwerkstatt",
    "website": "https://www.doppelleu.ch/"
  }
},
{
  "type": "node",
  "id": 3962600149,
  "lat": 47.0518729,
  "lon": 8.3064651,
  "tags": {
    "amenity": "restaurant",
    "cuisine": "bavarian",
    "microbrewery": "yes",
    "name": "Restaurant Rathaus Brauerei",
    "opening_hours": "Mo,We-Fr 10:00-24:00; Tu 08:00-24:00; Sa 08:00-24:00; Su,PH 10:00-23:00",
    "outdoor_seating": "yes",
    "phone": "+41 41 410 61 11",
    "source": "local_knowledge",
    "website": "https://www.rathausbrauerei.ch/"
  }
},
{
  "type": "node",
  "id": 4115822963,
  "lat": 47.1648134,
  "lon": 8.1043816,
  "tags": {
    "addr:city": "Sursee",
    "addr:housenumber": "20",
    "addr:street": "Merkurstrasse",
    "craft": "brewery",
    "name": "BrauStation"
  }
},
{
  "type": "node",
  "id": 4165779821,
  "lat": 47.3272199,
  "lon": 8.8017373,
  "tags": {
    "addr:city": "Wetzikon",
    "addr:housenumber": "196",
    "addr:postcode": "8620",
    "addr:street": "Bahnhofstrasse",
    "amenity": "pub",
    "internet_access": "wlan",
    "microbrewery": "yes",
    "name": "Molly Malone",
    "opening_hours": "16:00-00:30; Fr,Sa 16:00-02:30",
    "outdoor_seating": "yes",
    "smoking": "outside",
    "website": "http://www.mollymalone.ch",
    "wheelchair": "yes"
  }
},
{
  "type": "node",
  "id": 4219654432,
  "lat": 47.4040258,
  "lon": 8.6051046,
  "tags": {
    "addr:city": "Wallisellen",
    "addr:housenumber": "3",
    "addr:postcode": "8304",
    "addr:street": "Am Wasser",
    "craft": "brewery",
    "level": "0",
    "name": "Monsterbräu",
    "website": "http://monsterbraeu.ch/"
  }
},
{
  "type": "node",
  "id": 4764738072,
  "lat": 47.2906916,
  "lon": 7.9353183,
  "tags": {
    "addr:city": "Zofingen",
    "addr:housenumber": "11",
    "addr:postcode": "4800",
    "addr:street": "Untere Brühlstrasse",
    "craft": "brewery",
    "email": "info@degenbier.ch",
    "name": "Degenbier",
    "opening_hours": "\"Mo-Sa nach Vereinbarung\"",
    "phone": "+41 79 767 99 39",
    "website": "https://www.degenbier.ch"
  }
},
{
  "type": "node",
  "id": 4784867949,
  "lat": 47.3438469,
  "lon": 8.1140873,
  "tags": {
    "addr:city": "Gränichen",
    "addr:country": "CH",
    "addr:housenumber": "9",
    "addr:postcode": "5722",
    "addr:street": "Bläienstrasse",
    "craft": "brewery",
    "name": "Raben Brau",
    "opening_hours": "fr 17:00-19:00; sa 13:00-15:00",
    "phone": "+41 76 424 01 00",
    "phone_1": "+41 78 737 01 00",
    "website": "https://www.rabenbrau.ch/"
  }
},
{
  "type": "node",
  "id": 5556960019,
  "lat": 47.3899216,
  "lon": 8.0433263,
  "tags": {
    "addr:city": "Aarau",
    "addr:housenumber": "42",
    "addr:postcode": "5000",
    "addr:street": "Rain",
    "craft": "brewery",
    "ele": "383",
    "email": "info@stadtwaechter.ch",
    "name": "Stadtwächter",
    "opening_hours": "Sa 09:00-16:00",
    "operator": "Brauerei Aarau AG",
    "phone": "+41 62 520 62 60",
    "product": "beer",
    "website": "https://www.stadtwaechter.ch"
  }
},
{
  "type": "node",
  "id": 5722355121,
  "lat": 47.4000753,
  "lon": 8.5321851,
  "tags": {
    "addr:city": "Zürich",
    "addr:country": "CH",
    "addr:housenumber": "10",
    "addr:postcode": "8057",
    "addr:street": "Käferholzstrasse",
    "craft": "brewery",
    "email": "info@hirnibrau.ch",
    "man_made": "works",
    "name": "Hirnibräu",
    "opening_hours": "Fr 17:00-20:00",
    "start_date": "2011",
    "website": "https://www.hirnibraeu.ch/"
  }
},
{
  "type": "node",
  "id": 5735130799,
  "lat": 47.3842657,
  "lon": 8.4965142,
  "tags": {
    "craft": "brewery",
    "name": "Turbinenbräu",
    "phone": "+41 44 440 54 14",
    "website": "http://www.turbinenbraeu.ch/",
    "wikipedia": "de:TurbinenBräu"
  }
},
{
  "type": "node",
  "id": 5793711319,
  "lat": 47.2501047,
  "lon": 8.1827599,
  "tags": {
    "addr:city": "Reinach AG",
    "addr:housenumber": "70a",
    "addr:postcode": "5734",
    "addr:street": "Hauptstrasse",
    "craft": "brewery",
    "email": "info@braugarage-reinach.ch",
    "name": "BrauGarage",
    "phone": "+41 76 424 01 00",
    "product": "beer",
    "website": "https://www.braugarage-reinach.ch"
  }
},
{
  "type": "node",
  "id": 5939887781,
  "lat": 47.2484707,
  "lon": 8.7804060,
  "tags": {
    "craft": "brewery",
    "name": "Brauerei Seebueb",
    "website": "https://www.seebueb-bier.ch/"
  }
},
{
  "type": "node",
  "id": 5981467631,
  "lat": 47.4116057,
  "lon": 8.4022383,
  "tags": {
    "addr:city": "Dietikon",
    "addr:housenumber": "21",
    "addr:postcode": "8953",
    "addr:street": "Grünaustrasse",
    "craft": "brewery",
    "name": "Brausyndikat GmbH",
    "opening_hours": "Tu 16:00-19:00",
    "product": "beer",
    "website": "https://www.brausyndikat.ch"
  }
},
{
  "type": "node",
  "id": 6227973600,
  "lat": 47.3467315,
  "lon": 8.2480328,
  "tags": {
    "amenity": "pub",
    "microbrewery": "yes",
    "name": "Wirtshaus zur Brauerei",
    "wheelchair": "yes"
  }
},
{
  "type": "node",
  "id": 6227973601,
  "lat": 47.3468260,
  "lon": 8.2480348,
  "tags": {
    "craft": "brewery",
    "name": "Brauerei Erusbacher & Paul AG",
    "website": "https://erusbacher.ch/"
  }
},
{
  "type": "node",
  "id": 6522637213,
  "lat": 47.1965897,
  "lon": 8.5353127,
  "tags": {
    "addr:city": "Baar",
    "addr:housenumber": "41",
    "addr:postcode": "6340",
    "addr:street": "Langgasse",
    "craft": "brewery",
    "name": "Brauerei Baar",
    "wikidata": "Q1769855",
    "wikipedia": "de:Brauerei Baar"
  }
},
{
  "type": "node",
  "id": 6876013421,
  "lat": 47.2725987,
  "lon": 8.7205310,
  "tags": {
    "addr:city": "Oetwil am See",
    "addr:housenumber": "13",
    "addr:postcode": "8618",
    "addr:street": "Zelglistrasse",
    "craft": "brewery",
    "name": "Octopus-Bräu",
    "opening_hours": "Tu 18:30-21:30; Fr[2] 18:30-21:30",
    "website": "https://octopus-braeu.ch/"
  }
},
{
  "type": "way",
  "id": 46152205,
  "nodes": [
    588419614,
    588419613,
    588419615,
    588419612,
    588419614
  ],
  "tags": {
    "building": "yes",
    "craft": "brewery",
    "name": "Schlachthuus Braumanufaktur",
    "source": "Yahoo aerial images",
    "website": "https://www.schlachthuus.ch/"
  }
},
{
  "type": "way",
  "id": 96808744,
  "nodes": [
    1121632510,
    1121632426,
    1121632610,
    1121632328,
    1121632510
  ],
  "tags": {
    "addr:housenumber": "41",
    "addr:street": "Steinackerstrasse",
    "amenity": "restaurant",
    "building": "yes",
    "microbrewery": "yes",
    "name": "Snus Bar",
    "opening_hours": "Mo 17:00-21:00; Tu-Th 17:00-24:00; Fr 00:00-01:00,17:00-24:00; Sa 00:00-02:00,18:00-24:00; Su 00:00-02:00",
    "operator": "Snus Bar AG",
    "source": "Bing"
  }
},
{
  "type": "way",
  "id": 97234512,
  "nodes": [
    1126332235,
    3223688211,
    1126332360,
    3223688216,
    1126332259,
    1126332398,
    3223688210,
    1126332277,
    1126332219,
    1126332367,
    1126332235
  ],
  "tags": {
    "addr:city": "Zürich",
    "addr:country": "CH",
    "addr:housenumber": "91",
    "addr:postcode": "8006",
    "addr:street": "Universitätstrasse",
    "amenity": "restaurant",
    "building": "yes",
    "cuisine": "swiss",
    "diet:vegan": "yes",
    "diet:vegetarian": "yes",
    "microbrewery": "yes",
    "name": "Linde Oberstrass",
    "opening_hours": "Mo-Fr 08:00-24:00, Sa 09:00-24:00, Su 10:00-23:00",
    "reservation": "yes",
    "source": "Stadt Zürich Open Government Data;Geomatik + Vermessung;Tiefbau- und Entsorgungsdepartement",
    "website": "http://linde-oberstrass.ch",
    "wheelchair": "no"
  }
},
{
  "type": "way",
  "id": 103912084,
  "nodes": [
    1199420949,
    4127544399,
    4127544400,
    1199421058,
    1199421309,
    1199420922,
    1199421060,
    1199421283,
    1199420981,
    1199421133,
    1199420949
  ],
  "tags": {
    "addr:city": "Seengen",
    "addr:country": "CH",
    "addr:housenumber": "38",
    "addr:postcode": "5707",
    "addr:street": "Eichbergstrasse",
    "amenity": "restaurant",
    "building": "yes",
    "craft": "brewery",
    "cuisine": "regional",
    "email": "info@eichberg.com",
    "fax": "+41 62 777 23 31",
    "microbrewery": "yes",
    "name": "Hotel Restaurant Eichberg",
    "operator": "Eichberg Seengen AG",
    "phone": "+41 62 777 33 33",
    "smoking": "no",
    "website": "https://www.eichberg.com/",
    "wheelchair": "yes"
  }
},
{
  "type": "way",
  "id": 114501729,
  "nodes": [
    1296940229,
    1296940160,
    1296940297,
    1568873320,
    1296940189,
    1296940324,
    1296940229
  ],
  "tags": {
    "addr:city": "Wettingen",
    "addr:country": "CH",
    "addr:housenumber": "61",
    "addr:postcode": "5430",
    "addr:street": "Schartenstrasse",
    "amenity": "restaurant",
    "building": "yes",
    "craft": "brewery",
    "cuisine": "italian",
    "microbrewery": "yes",
    "name": "Da Luigi",
    "opening_hours": "Tu-Fr 11:00-14:00,17:30-24:00; Sa,Su 17:30-24:00",
    "phone": "+41 56 4271939",
    "website": "http://www.daluigi.ch/"
  }
},
{
  "type": "way",
  "id": 154706531,
  "nodes": [
    1672005271,
    1672005345,
    1672005415,
    1672005272,
    1672005271
  ],
  "tags": {
    "addr:city": "Wallisellen",
    "addr:postcode": "8304",
    "addr:street": "Neugut",
    "building": "yes",
    "building:levels": "2",
    "building:roof:shape": "flat",
    "craft": "brewery",
    "email": "info@brauerei-hardwald.ch",
    "name": "Brauerei Hardwald AG",
    "opening_hours": "Sa 09:30-12:30",
    "source": "bing",
    "website": "http://www.brauerei-hardwald.ch"
  }
},
{
  "type": "way",
  "id": 178231835,
  "nodes": [
    1885990274,
    1885990271,
    1885990263,
    1885990283,
    1885990211,
    1885990202,
    1885990185,
    1885990174,
    1885990274
  ],
  "tags": {
    "addr:housename": "Brauerei Uster",
    "addr:housenumber": "16",
    "addr:postcode": "8610",
    "addr:street": "Brauereistrasse",
    "building": "brewery",
    "craft": "brewery",
    "name": "Brauerei Uster",
    "source": "http://www.braukultur.ch/"
  }
},
{
  "type": "way",
  "id": 192914667,
  "nodes": [
    2034509728,
    2034509740,
    2034509768,
    2034509724,
    2034509718,
    2034509708,
    2034509704,
    2034509698,
    2034509684,
    2034509664,
    2034509706,
    2034509700,
    2034509716,
    2034509728
  ],
  "tags": {
    "addr:city": "Einsiedeln",
    "addr:country": "CH",
    "addr:housenumber": "16",
    "addr:postcode": "8840",
    "addr:street": "Spitalstrasse",
    "building": "yes",
    "craft": "brewery",
    "email": "bestellung@maisgold.ch",
    "name": "Brauerei Rosengarten",
    "phone": "+41 55 418 86 86",
    "website": "http://www.beer.ch",
    "wikidata": "Q900358",
    "wikipedia": "de:Brauerei Rosengarten"
  }
},
{
  "type": "way",
  "id": 239908613,
  "nodes": [
    4874863539,
    2476797921,
    2476797922,
    2476797923,
    2476797924,
    2476797925,
    2476797926,
    2476797927,
    4874863539
  ],
  "tags": {
    "addr:city": "Rietheim",
    "addr:country": "CH",
    "addr:housenumber": "30",
    "addr:postcode": "5323",
    "addr:street": "Hauptstrasse",
    "building": "house",
    "craft": "brewery",
    "fax": "+41 56 249 16 11",
    "name": "Kündigbräu AG",
    "operator": "René Kündig",
    "phone": "+41 56 249 16 13",
    "website": "http://www.kuendigbrau.ch"
  }
},
{
  "type": "way",
  "id": 242817318,
  "nodes": [
    2502705984,
    2502705986,
    6606505196,
    6606505197,
    2502705980,
    2502705972,
    2502705984
  ],
  "tags": {
    "amenity": "restaurant",
    "building": "yes",
    "craft": "brewery",
    "microbrewery": "yes",
    "name": "Waldrestaurant Höllgrotten",
    "opening_hours": "Tu-Su",
    "phone": "+41 41 761 66 05",
    "source": "bing",
    "website": "http://www.hoellgrotten.ch/"
  }
},
{
  "type": "node",
  "id": 1199420949,
  "lat": 47.3390182,
  "lon": 8.2050430
},
{
  "type": "node",
  "id": 4127544399,
  "lat": 47.3390417,
  "lon": 8.2050926
},
{
  "type": "node",
  "id": 4127544400,
  "lat": 47.3390744,
  "lon": 8.2050564
},
{
  "type": "node",
  "id": 1199420922,
  "lat": 47.3391134,
  "lon": 8.2054689
},
{
  "type": "node",
  "id": 1199420981,
  "lat": 47.3390414,
  "lon": 8.2053476
},
{
  "type": "node",
  "id": 1199421058,
  "lat": 47.3391935,
  "lon": 8.2052932
},
{
  "type": "node",
  "id": 1199421060,
  "lat": 47.3390086,
  "lon": 8.2056181
},
{
  "type": "node",
  "id": 1199421133,
  "lat": 47.3389338,
  "lon": 8.2051364
},
{
  "type": "node",
  "id": 1199421283,
  "lat": 47.3389356,
  "lon": 8.2055051
},
{
  "type": "node",
  "id": 1199421309,
  "lat": 47.3390898,
  "lon": 8.2054284
},
{
  "type": "node",
  "id": 1296940160,
  "lat": 47.4716758,
  "lon": 8.3190602
},
{
  "type": "node",
  "id": 1296940189,
  "lat": 47.4717447,
  "lon": 8.3188428
},
{
  "type": "node",
  "id": 1296940229,
  "lat": 47.4715714,
  "lon": 8.3189616
},
{
  "type": "node",
  "id": 1296940297,
  "lat": 47.4717127,
  "lon": 8.3189747
},
{
  "type": "node",
  "id": 1296940324,
  "lat": 47.4716581,
  "lon": 8.3187610
},
{
  "type": "node",
  "id": 1568873320,
  "lat": 47.4716950,
  "lon": 8.3189579
},
{
  "type": "node",
  "id": 2476797921,
  "lat": 47.6027900,
  "lon": 8.2751749
},
{
  "type": "node",
  "id": 2476797922,
  "lat": 47.6027723,
  "lon": 8.2751495
},
{
  "type": "node",
  "id": 2476797923,
  "lat": 47.6027085,
  "lon": 8.2752475
},
{
  "type": "node",
  "id": 2476797924,
  "lat": 47.6026028,
  "lon": 8.2750962
},
{
  "type": "node",
  "id": 2476797925,
  "lat": 47.6025234,
  "lon": 8.2752182
},
{
  "type": "node",
  "id": 2476797926,
  "lat": 47.6024214,
  "lon": 8.2750722
},
{
  "type": "node",
  "id": 2476797927,
  "lat": 47.6025915,
  "lon": 8.2748109
},
{
  "type": "node",
  "id": 4874863539,
  "lat": 47.6028169,
  "lon": 8.2751335
},
{
  "type": "node",
  "id": 2502705972,
  "lat": 47.1892097,
  "lon": 8.5593935
},
{
  "type": "node",
  "id": 2502705980,
  "lat": 47.1892488,
  "lon": 8.5594581
},
{
  "type": "node",
  "id": 2502705984,
  "lat": 47.1893227,
  "lon": 8.5592455
},
{
  "type": "node",
  "id": 2502705986,
  "lat": 47.1893905,
  "lon": 8.5593575
},
{
  "type": "node",
  "id": 6606505196,
  "lat": 47.1893285,
  "lon": 8.5594387
},
{
  "type": "node",
  "id": 6606505197,
  "lat": 47.1892998,
  "lon": 8.5593913
},
{
  "type": "node",
  "id": 2034509664,
  "lat": 47.1288584,
  "lon": 8.7419212
},
{
  "type": "node",
  "id": 2034509684,
  "lat": 47.1288934,
  "lon": 8.7418555
},
{
  "type": "node",
  "id": 2034509698,
  "lat": 47.1289573,
  "lon": 8.7419289
},
{
  "type": "node",
  "id": 2034509700,
  "lat": 47.1289679,
  "lon": 8.7420873
},
{
  "type": "node",
  "id": 2034509704,
  "lat": 47.1289766,
  "lon": 8.7418927
},
{
  "type": "node",
  "id": 2034509706,
  "lat": 47.1289812,
  "lon": 8.7420622
},
{
  "type": "node",
  "id": 2034509708,
  "lat": 47.1289901,
  "lon": 8.7419082
},
{
  "type": "node",
  "id": 2034509716,
  "lat": 47.1290417,
  "lon": 8.7421721
},
{
  "type": "node",
  "id": 2034509718,
  "lat": 47.1290505,
  "lon": 8.7417946
},
{
  "type": "node",
  "id": 2034509724,
  "lat": 47.1291285,
  "lon": 8.7418842
},
{
  "type": "node",
  "id": 2034509728,
  "lat": 47.1291808,
  "lon": 8.7423318
},
{
  "type": "node",
  "id": 2034509740,
  "lat": 47.1292511,
  "lon": 8.7424125
},
{
  "type": "node",
  "id": 2034509768,
  "lat": 47.1293790,
  "lon": 8.7421719
},
{
  "type": "node",
  "id": 1126332219,
  "lat": 47.3833524,
  "lon": 8.5480603
},
{
  "type": "node",
  "id": 1126332235,
  "lat": 47.3833903,
  "lon": 8.5480795
},
{
  "type": "node",
  "id": 1126332259,
  "lat": 47.3835473,
  "lon": 8.5478461
},
{
  "type": "node",
  "id": 1126332277,
  "lat": 47.3833567,
  "lon": 8.5477981
},
{
  "type": "node",
  "id": 1126332360,
  "lat": 47.3835051,
  "lon": 8.5481080
},
{
  "type": "node",
  "id": 1126332367,
  "lat": 47.3833946,
  "lon": 8.5480603
},
{
  "type": "node",
  "id": 1126332398,
  "lat": 47.3833882,
  "lon": 8.5477920
},
{
  "type": "node",
  "id": 3223688210,
  "lat": 47.3833888,
  "lon": 8.5478076
},
{
  "type": "node",
  "id": 3223688211,
  "lat": 47.3834528,
  "lon": 8.5481077
},
{
  "type": "node",
  "id": 3223688216,
  "lat": 47.3835304,
  "lon": 8.5479511
},
{
  "type": "node",
  "id": 1672005271,
  "lat": 47.4035416,
  "lon": 8.6026770
},
{
  "type": "node",
  "id": 1672005272,
  "lat": 47.4036239,
  "lon": 8.6027932
},
{
  "type": "node",
  "id": 1672005345,
  "lat": 47.4036285,
  "lon": 8.6025426
},
{
  "type": "node",
  "id": 1672005415,
  "lat": 47.4037108,
  "lon": 8.6026587
},
{
  "type": "node",
  "id": 1885990174,
  "lat": 47.3451806,
  "lon": 8.7207916
},
{
  "type": "node",
  "id": 1885990185,
  "lat": 47.3452095,
  "lon": 8.7208126
},
{
  "type": "node",
  "id": 1885990202,
  "lat": 47.3451169,
  "lon": 8.7210890
},
{
  "type": "node",
  "id": 1885990211,
  "lat": 47.3449794,
  "lon": 8.7209887
},
{
  "type": "node",
  "id": 1885990263,
  "lat": 47.3450911,
  "lon": 8.7207494
},
{
  "type": "node",
  "id": 1885990271,
  "lat": 47.3451326,
  "lon": 8.7206253
},
{
  "type": "node",
  "id": 1885990274,
  "lat": 47.3452160,
  "lon": 8.7206861
},
{
  "type": "node",
  "id": 1885990283,
  "lat": 47.3450658,
  "lon": 8.7207309
},
{
  "type": "node",
  "id": 588419612,
  "lat": 47.4892131,
  "lon": 8.5942354
},
{
  "type": "node",
  "id": 588419613,
  "lat": 47.4892913,
  "lon": 8.5943540
},
{
  "type": "node",
  "id": 588419614,
  "lat": 47.4892773,
  "lon": 8.5942206
},
{
  "type": "node",
  "id": 588419615,
  "lat": 47.4892271,
  "lon": 8.5943688
},
{
  "type": "node",
  "id": 1121632328,
  "lat": 47.4488174,
  "lon": 8.6016174
},
{
  "type": "node",
  "id": 1121632426,
  "lat": 47.4485348,
  "lon": 8.6009585
},
{
  "type": "node",
  "id": 1121632510,
  "lat": 47.4484308,
  "lon": 8.6014316
},
{
  "type": "node",
  "id": 1121632610,
  "lat": 47.4489214,
  "lon": 8.6011443
}

  ]
}
