{
  "version": 0.6,
  "generator": "Overpass API 0.7.55.1011 6c2efc30",
  "osm3s": {
    "timestamp_osm_base": "2020-02-05T22:04:02Z",
    "copyright": "The data included in this document is from www.openstreetmap.org. The data is made available under ODbL."
  },
  "elements": [

{
  "type": "node",
  "id": 343120423,
  "lat": 52.9581888,
  "lon": -1.1806662,
  "tags": {
    "addr:city": "Nottingham",
    "addr:postcode": "NG7 3EN",
    "craft": "brewery",
    "landuse": "industrial",
    "name": "Nottingham Brewery",
    "website": "http://www.nottinghambrewery.co.uk/index.html"
  }
},
{
  "type": "node",
  "id": 606400849,
  "lat": 52.9259126,
  "lon": -1.4928989,
  "tags": {
    "addr:city": "Derby",
    "addr:housenumber": "32-36",
    "addr:postcode": "DE22 3AD",
    "addr:street": "Ashbourne Road",
    "amenity": "pub",
    "beer_garden": "yes",
    "description:floor": "tiles",
    "food": "yes",
    "microbrewery": "yes",
    "name": "Mr Grundy's Tavern",
    "note": "Inside the hotel building, but is a proper pub open to the public rather than just a hotel bar. A microbrewery at the pub is due to open imminently (Summer 2010).",
    "real_ale": "4 Mr Grundy beers plus 3 or so others",
    "source": "local_knowledge",
    "website": "http://www.mrgrundystavern.info/"
  }
},
{
  "type": "node",
  "id": 691638482,
  "lat": 52.9675867,
  "lon": -1.4613384,
  "tags": {
    "addr:city": "Derby",
    "addr:housename": "Unit 3A Old Mill Business Park",
    "addr:locality": "Little Eaton",
    "addr:postcode": "DE21 5EJ",
    "addr:street": "Alfreton Road",
    "craft": "brewery",
    "factory": "beer",
    "name": "Black Hole Brewery",
    "old_name": "Martin Gummer Fruit and Vegetables",
    "source": "survey",
    "website": "https://www.blackholebrewery.co.uk/"
  }
},
{
  "type": "node",
  "id": 695187520,
  "lat": 52.8067095,
  "lon": -1.6252426,
  "tags": {
    "addr:city": "Burton-on-Trent",
    "addr:housenumber": "24",
    "addr:postcode": "DE14 1SY",
    "addr:street": "Bridge Street",
    "amenity": "pub",
    "fhrs:id": "388201",
    "microbrewery": "yes",
    "name": "Burton Bridge Inn",
    "operator": "Burton Bridge Brewery",
    "real_ale": "yes",
    "source": "local_knowledge",
    "website": "http://www.burtonbridgeinn.co.uk/"
  }
},
{
  "type": "node",
  "id": 716745828,
  "lat": 53.2035397,
  "lon": -1.1549544,
  "tags": {
    "addr:housenumber": "43",
    "addr:postcode": "NG20 0AB",
    "addr:street": "High Street",
    "amenity": "pub",
    "fhrs:id": "223209",
    "floor:material": "grubby carpet",
    "microbrewery": "yes",
    "name": "Black Market Venue",
    "note": "Music room (regular bands), Sport on TV.  Looks shut when it is actually open - try the door.",
    "old_name": "The Workmans",
    "old_old_name": "The Market",
    "real_ale": "3 of their own beers",
    "source": "survey",
    "source:addr": "FHRS Open Data"
  }
},
{
  "type": "node",
  "id": 1265284223,
  "lat": 53.0075501,
  "lon": -1.3448297,
  "tags": {
    "addr:housenumber": "5",
    "addr:postcode": "DE75 7NJ",
    "addr:street": "Breach Road",
    "craft": "brewery",
    "fhrs:id": "33910",
    "name": "The Marlpool Brewing Company",
    "source:addr": "FHRS open data",
    "website": "http://www.marlpoolbrewing.co.uk/"
  }
},
{
  "type": "node",
  "id": 1302299338,
  "lat": 53.0225472,
  "lon": -0.8670568,
  "tags": {
    "amenity": "pub",
    "microbrewery": "yes",
    "name": "Chequers",
    "source": "survey"
  }
},
{
  "type": "node",
  "id": 1750978855,
  "lat": 53.1180439,
  "lon": -1.3352335,
  "tags": {
    "amenity": "pub",
    "beer_garden": "yes",
    "description:floor": "Rough wood",
    "food": "yes",
    "microbrewery": "yes",
    "name": "Hilcote Country Club",
    "opening_hours": "16:00-23:00",
    "opening_hours:food": "Wed-Sun 17:00-21:00",
    "parking": "yes",
    "real_ale": "2 from Moody Fox, 1 other",
    "source": "Sign on road;Bing"
  }
},
{
  "type": "node",
  "id": 1940545342,
  "lat": 52.9742167,
  "lon": -1.3739671,
  "tags": {
    "addr:postcode": "DE7 6FP",
    "addr:street": "Belper Road",
    "craft": "brewery",
    "name": "Nutbrook Brewery",
    "note": "Apparently ceasing commercial production, not sure if still open in any form.",
    "source": "Sign on main road",
    "source:note": "Bloke in a pub (landlord of Barrel Drop, Nottingham on Saturday)",
    "website": "http://www.nutbrookbrewery.com/"
  }
},
{
  "type": "node",
  "id": 2591753055,
  "lat": 52.8125354,
  "lon": -0.9828665,
  "tags": {
    "addr:city": "Old Dalby",
    "addr:postcode": "LE14 3NQ",
    "addr:street": "Station Road",
    "amenity": "pub",
    "craft": "brewery",
    "fhrs:id": "770396",
    "name": "Belvoir Brewery",
    "phone": "+44 1664 823455",
    "website": "https://www.belvoirbrewery.co.uk/"
  }
},
{
  "type": "node",
  "id": 3413579744,
  "lat": 52.9439127,
  "lon": -1.4651758,
  "tags": {
    "addr:city": "Derby",
    "addr:housename": "Unit 4 Tomlinson Industrial Estate",
    "addr:postcode": "DE21 4ED",
    "addr:street": "Alfreton Road",
    "craft": "brewery",
    "factory": "food",
    "name": "Hartshorns Brewery",
    "website": "http://derbyshirebrewers.org/hartshorns/"
  }
},
{
  "type": "node",
  "id": 3730044242,
  "lat": 53.1775591,
  "lon": -1.0975850,
  "tags": {
    "craft": "brewery",
    "name": "Kings Clipstone Brewery"
  }
},
{
  "type": "node",
  "id": 4032165541,
  "lat": 52.9682461,
  "lon": -1.4613944,
  "tags": {
    "addr:city": "Derby",
    "addr:place": "Old Hall Mill Business Park",
    "addr:postcode": "DE21 5EJ",
    "addr:street": "Alfreton Road",
    "addr:unit": "10",
    "addr:village": "Little Eaton",
    "craft": "brewery",
    "fhrs:id": "841943",
    "name": "Shiny Brewing Company",
    "source": "survey",
    "source:addr": "FHRS open data;survey",
    "website": "http://www.shinybrewing.com/"
  }
},
{
  "type": "node",
  "id": 4590034715,
  "lat": 52.9412642,
  "lon": -1.1385610,
  "tags": {
    "addr:city": "Nottingham",
    "addr:postcode": "NG2 3HS",
    "addr:street": "Meadow Lane",
    "craft": "brewery",
    "name": "Navigation Brewery",
    "source": "survey",
    "website": "http://www.navigationbrewery.com/"
  }
},
{
  "type": "node",
  "id": 5920947697,
  "lat": 52.9181799,
  "lon": -1.4641432,
  "tags": {
    "addr:city": "Derby",
    "addr:housenumber": "1",
    "addr:postcode": "DE1 2RU",
    "addr:street": "Railway Terrace",
    "craft": "brewery",
    "fhrs:id": "565337",
    "name": "Brunswick Brewing Company"
  }
},
{
  "type": "node",
  "id": 5985181841,
  "lat": 52.9536611,
  "lon": -1.1382093,
  "tags": {
    "addr:city": "Nottingham",
    "addr:housename": "Unit 14",
    "addr:postcode": "NG1 1DT",
    "addr:street": "Avenue A",
    "amenity": "pub",
    "craft": "brewery",
    "fhrs:id": "978916",
    "name": "Neon Raptor",
    "operator": "Neon Raptor",
    "product": "beer"
  }
},
{
  "type": "node",
  "id": 6769921990,
  "lat": 53.1407146,
  "lon": -1.1928029,
  "tags": {
    "amenity": "pub",
    "microbrewery": "yes",
    "name": "Prior's Well Brewery",
    "website": "https://www.priorswellbrewery.co.uk/"
  }
},
{
  "type": "node",
  "id": 6996715149,
  "lat": 53.1392001,
  "lon": -1.5331338,
  "tags": {
    "addr:postcode": "DE4 5EX",
    "addr:street": "Lumsdale",
    "amenity": "bar",
    "craft": "brewery",
    "name": "Bentley Brook Brewery",
    "opening_hours": "Fr 17:00-20:00; Sa 11:00-17:00",
    "website": "https://www.bentleybrook.co.uk/"
  }
},
{
  "type": "node",
  "id": 7023121972,
  "lat": 52.9440462,
  "lon": -1.4736622,
  "tags": {
    "addr:city": "Derby",
    "addr:housename": "The River Shed",
    "addr:postcode": "DE22 1DZ",
    "addr:street": "Haslams Lane",
    "craft": "brewery",
    "name": "Derventio Brewery",
    "website": "http://www.derventiobrewery.co.uk/"
  }
},
{
  "type": "way",
  "id": 55070258,
  "nodes": [
    1254606389,
    1254605276,
    692847647,
    692847648,
    692847649,
    1254605860,
    718499193,
    1254606389
  ],
  "tags": {
    "addr:city": "Derby",
    "addr:housenumber": "74",
    "addr:postcode": "DE23 6UJ",
    "addr:street": "Silver Hill Road",
    "amenity": "pub",
    "building": "yes",
    "description:floor": "stone",
    "fhrs:id": "679719",
    "microbrewery": "yes",
    "name": "The Falstaff",
    "real_ale": "4 or so (usually their own brews)",
    "source": "OS_OpenData_StreetView;survey",
    "website": "https://www.falstaffbrewery.co.uk/",
    "wheelchair": "no",
    "wheelchair:description": "Steps at main entrance"
  }
},
{
  "type": "way",
  "id": 55121165,
  "nodes": [
    693196305,
    1045806010,
    693196281,
    1045806015,
    1980502227,
    1980502226,
    1980502223,
    1980502221,
    1980502219,
    1980502217,
    1980502216,
    1980502213,
    693196286,
    1045806019,
    718512171,
    1980502230,
    1980502231,
    1980502234,
    693196305
  ],
  "tags": {
    "addr:city": "Derby",
    "addr:housenumber": "1",
    "addr:postcode": "DE1 2RU",
    "addr:street": "Railway Terrace",
    "amenity": "pub",
    "building": "yes",
    "description:floor": "stone",
    "fhrs:id": "700782",
    "food": "yes",
    "microbrewery": "yes",
    "name": "The Brunswick",
    "opening_hours:food": "Mo-Sa 11:30-14:30; We-Fr 17:30-20:00; Su 12:00-15:00",
    "operator": "Brampton Brewery",
    "outdoor_seating": "yes",
    "real_ale": "4 or so Brunswick 4, or so Brampton, 4 or so or others (may vary)",
    "source:addr": "FHRS Open Data",
    "website": "https://www.brunswickderby.co.uk/",
    "wheelchair": "limited",
    "wheelchair:description": "Large step at back entrance, small step at front, steps to upstairs room"
  }
},
{
  "type": "way",
  "id": 55510252,
  "nodes": [
    697665754,
    2385269179,
    2385269170,
    697665761,
    697665769,
    697665775,
    697665782,
    697665789,
    697665802,
    697665809,
    697665816,
    697665822,
    2385268924,
    2385268916,
    2385268970,
    2385268978,
    2385268993,
    2385269004,
    697665754
  ],
  "tags": {
    "addr:postcode": "NG2 2GS",
    "addr:street": "Arkwright Street",
    "amenity": "restaurant",
    "bar": "yes",
    "building": "yes",
    "fhrs:id": "986885",
    "microbrewery": "yes",
    "name": "Brewhouse & Kitchen",
    "note": "NCC Food Hygiene and business website lists street as 'Trent Bridge'",
    "source:addr": "NCC Open Data Licensed Premises",
    "start_date": "2010-04-26",
    "website": "https://www.brewhouseandkitchen.com/venue/nottingham/"
  }
},
{
  "type": "way",
  "id": 61009139,
  "nodes": [
    763629256,
    763629056,
    763629228,
    763629001,
    5278667132,
    5278667133,
    763629256
  ],
  "tags": {
    "addr:city": "Nottingham",
    "addr:housenumber": "17",
    "addr:postcode": "NG9 8EW",
    "addr:street": "Lower Park Street",
    "addr:suburb": "Stapleford",
    "building": "terrace",
    "craft": "brewery",
    "name": "Full Mash",
    "source": "os_streetview;survey",
    "source:addr:postcode": "OS Opendata Codepoint",
    "website": "http://www.fullmash.net/"
  }
},
{
  "type": "way",
  "id": 83808507,
  "nodes": [
    975730304,
    2059790362,
    2059790364,
    975730278,
    975730331,
    975730306,
    975730304
  ],
  "tags": {
    "addr:postcode": "DE73 7HW",
    "addr:village": "Ingleby",
    "amenity": "pub",
    "building": "yes",
    "fhrs:id": "234142",
    "food": "yes",
    "microbrewery": "yes",
    "name": "The John Thompson Inn",
    "real_ale": "yes",
    "source": "Bing",
    "website": "http://www.johnthompsoninn.com/"
  }
},
{
  "type": "way",
  "id": 111597311,
  "nodes": [
    1271060970,
    1271061330,
    1271061487,
    1271061807,
    1271060970
  ],
  "tags": {
    "addr:city": "Derby",
    "addr:country": "GB",
    "addr:place": "Masons Place Business Park",
    "addr:postcode": "DE21 6AQ",
    "addr:street": "Nottingham Road",
    "building": "yes",
    "craft": "brewery",
    "name": "Derby Brewing Company",
    "operator": "Derby Brewing Company"
  }
},
{
  "type": "way",
  "id": 112521176,
  "nodes": [
    1278717320,
    1278717959,
    1278717397,
    1278717267,
    1278717332,
    1278717320
  ],
  "tags": {
    "addr:city": "Derby",
    "addr:country": "GB",
    "addr:housename": "Unit 1 John Cooper Buildings",
    "addr:postcode": "DE22 3AZ",
    "addr:street": "Payne Street",
    "building": "yes",
    "craft": "brewery",
    "name": "Dancing Duck Brewery & Shop",
    "note": "Off sales. 10-4 Monday to Friday and 10-2 Saturday",
    "phone": "+44 1332 205582",
    "website": "http://www.dancingduckbrewery.com/"
  }
},
{
  "type": "way",
  "id": 130467750,
  "nodes": [
    1437040228,
    1437040226,
    1278249484,
    1437040211,
    1437040225,
    1437040234,
    1437040250,
    1437040255,
    1437040238,
    1437040240,
    1437040241,
    1437040228
  ],
  "tags": {
    "addr:city": "Derby",
    "addr:housenumber": "246",
    "addr:postcode": "DE22 3LL",
    "addr:street": "Uttoxeter New Road",
    "amenity": "pub",
    "building": "yes",
    "fhrs:id": "687867",
    "microbrewery": "yes",
    "name": "The Rowditch Inn",
    "opening_hours": "Mo-Su 19:00-23:00; Sa-Su 12:00-14:00",
    "real_ale": "Marston's Pedigree + 2 guests (including one of theirs)",
    "real_fire": "yes",
    "source": "Bing;local_knowledge;photographic_survey"
  }
},
{
  "type": "way",
  "id": 175569136,
  "nodes": [
    49558102,
    1861421971,
    1861421969,
    1861421965,
    1861421963,
    1861421967,
    1861421958,
    1861421956,
    1861421955,
    1861421942,
    1861421957,
    49558102
  ],
  "tags": {
    "addr:housenumber": "9-10",
    "addr:postcode": "DE1 3BX",
    "addr:street": "Duke Street",
    "amenity": "pub",
    "beer_garden": "yes",
    "building": "yes",
    "fhrs:id": "504481",
    "floor:material": "lino;carpet",
    "food": "Pies and sandwiches",
    "microbrewery": "yes",
    "name": "The Furnace Inn",
    "old_fhrs:id": "831869",
    "real_ale": "4 or 5 including their own",
    "source": "Bing;local_knowledge",
    "source:addr": "FHRS Open Data",
    "twitter": "TheFurnaceInn"
  }
},
{
  "type": "way",
  "id": 231872916,
  "nodes": [
    1776663750,
    2401978907,
    1776663754,
    1776663709,
    1776663790,
    1776663730,
    1776663753,
    2401978919,
    2401978917,
    2401978925,
    2401978923,
    2401978915,
    2401978913,
    2401978909,
    1502884510,
    2401978921,
    1776663750
  ],
  "tags": {
    "addr:postcode": "NG2 1NB",
    "addr:street": "Queen's Bridge Road",
    "building": "industrial",
    "craft": "brewery",
    "name": "Castle Rock Brewery",
    "real_ale": "yes",
    "source": "local_knowledge",
    "source:postcode": "ONS",
    "website": "https://www.castlerockbrewery.co.uk/"
  }
},
{
  "type": "way",
  "id": 249135318,
  "nodes": [
    2558017543,
    2558017544,
    2558017536,
    2558017545,
    2558017533,
    2558017548,
    2558017553,
    2558017547,
    2558017546,
    304814504,
    2558017550,
    2558017549,
    2558017551,
    2558017555,
    2558017543
  ],
  "tags": {
    "addr:street": "Hockley Lane",
    "amenity": "pub",
    "building": "yes",
    "description:floor": "stone",
    "floor:material": "stone",
    "food": "Restaurant and bar food, also pies, sandwiches etc.",
    "microbrewery": "yes",
    "name": "Old Poet's Corner",
    "note:parking": "Now no longer microscopic",
    "operator": "Titanic",
    "outdoor_seating": "yes",
    "parking": "yes",
    "real_ale": "9 beers, 4 from Titanic + Everards Tiger",
    "real_fire": "yes",
    "wheelchair": "yes",
    "wheelchair:description": "Outside drinking area accessible on the flat from car park, but steps up from there.  Very small step at main entrance"
  }
},
{
  "type": "way",
  "id": 263726738,
  "nodes": [
    2693701733,
    2693701738,
    2693701739,
    739079347,
    2693701733
  ],
  "tags": {
    "amenity": "pub",
    "building": "yes",
    "floor:material": "stone",
    "food": "yes",
    "internet_access": "wlan",
    "microbrewery": "yes",
    "name": "Rykneld Turnpyke",
    "note": "Reopened after fire; microbrewery now operating again",
    "old_name": "The Egstow Family Club",
    "real_ale": "12 beers, 6 theirs",
    "wheelchair": "limited",
    "wheelchair:description": "steps up to front door (not sure how to avoid) then flat"
  }
},
{
  "type": "way",
  "id": 288352715,
  "nodes": [
    2919107829,
    1776614847,
    1776614850,
    1776614848,
    1776614849,
    2919107823,
    346997361,
    1776614823,
    1776614809,
    1776614826,
    1776614840,
    1776614799,
    1776614839,
    1776614803,
    1776614792,
    2240046649,
    1776614854,
    2919107829
  ],
  "tags": {
    "addr:housenumber": "7",
    "addr:postcode": "NG1 1LG",
    "addr:street": "Stoney Street",
    "amenity": "pub",
    "building": "pub",
    "craft": "brewery",
    "diet:vegan": "yes",
    "diet:vegetarian": "yes",
    "fhrs:id": "989948",
    "listed_status": "Grade II",
    "name": "The Angel Microbrewery",
    "old_fhrs:id": "218718",
    "old_name": "The Old Angel",
    "source": "Bing",
    "source:addr": "NCC Open Data",
    "source:listed_status": "English Heritage",
    "website": "http://angelmicrobrewery.com/",
    "wheelchair": "no",
    "wikidata": "Q26546774"
  }
},
{
  "type": "way",
  "id": 328480363,
  "nodes": [
    3353097881,
    3353097882,
    3353097883,
    3353097884,
    3353097871,
    3353097870,
    3353097881
  ],
  "tags": {
    "addr:city": "Nottingham",
    "addr:housenumber": "10",
    "addr:postcode": "NG16 2UZ",
    "addr:street": "Pentrich Road",
    "addr:suburb": "Giltbrook",
    "building": "yes",
    "craft": "brewery",
    "fhrs:id": "566370",
    "name": "Blue Monkey Brewery",
    "note": "Includes a small shop selling bottled beer, etc.",
    "shop": "beer",
    "source": "survey",
    "source:addr": "Companies House open data",
    "website": "http://www.bluemonkeybrewery.com/"
  }
},
{
  "type": "way",
  "id": 344273945,
  "nodes": [
    3510128174,
    3510128173,
    3510128171,
    3510128172,
    3510128174
  ],
  "tags": {
    "addr:street": "Private Road No. 2",
    "building": "yes",
    "craft": "brewery",
    "name": "Flipside Brewery",
    "source": "survey",
    "source:building": "Bing",
    "website": "http://www.flipsidebrewery.co.uk/"
  }
},
{
  "type": "way",
  "id": 367166354,
  "nodes": [
    3711164656,
    3711164641,
    3711164633,
    3711164642,
    3711164646,
    3711164651,
    3711164656
  ],
  "tags": {
    "addr:place": "Enterprise Park",
    "addr:postcode": "NG15 7SZ",
    "addr:street": "Wigwam Lane",
    "addr:unit": "Units E4 & E5",
    "building": "industrial",
    "craft": "brewery",
    "name": "Lincoln Green Brewing Company",
    "source:addr": "sign",
    "source:building": "Bing",
    "website": "https://www.lincolngreenbrewing.co.uk/"
  }
},
{
  "type": "way",
  "id": 400891284,
  "nodes": [
    4033900806,
    4033900794,
    4033900797,
    4033900817,
    4033900815,
    4033900811,
    4033900806
  ],
  "tags": {
    "addr:housenumber": "6",
    "addr:postcode": "DE7 6LA",
    "addr:street": "Hallam Way",
    "building": "house",
    "craft": "brewery",
    "fhrs:id": "252568",
    "name": "Nutbrook Brewery",
    "source": "survey",
    "source:building": "Bing;survey",
    "website": "http://www.nutbrookbrewery.com/"
  }
},
{
  "type": "way",
  "id": 406323627,
  "nodes": [
    4084085917,
    4084085915,
    4084085914,
    4084085916,
    4084085917
  ],
  "tags": {
    "addr:postcode": "NG10 3AT",
    "addr:street": "Tamworth Road",
    "building": "yes",
    "craft": "brewery",
    "name": "Old Sawley Brewing Co.",
    "source": "survey"
  }
},
{
  "type": "way",
  "id": 433601901,
  "nodes": [
    4322308851,
    4322308854,
    4322308857,
    4322308858,
    4322308863,
    4322308862,
    4322308864,
    4322308868,
    4322308872,
    4322308874,
    4322308876,
    4322308877,
    4322308879,
    4322308875,
    4322308873,
    4322308870,
    4322308867,
    4322308866,
    4322308851
  ],
  "tags": {
    "HE_ref": "1246246",
    "building": "brewery",
    "listed_status": "Grade II",
    "operator": "Murphy and Sons",
    "source:listed_status": "Historic England"
  }
},
{
  "type": "way",
  "id": 579408197,
  "nodes": [
    5549120547,
    5536426452,
    5536426350,
    5549120546,
    5549120547
  ],
  "tags": {
    "addr:place": "Manners Industrial Estate",
    "addr:postcode": "DE7 8EW",
    "addr:street": "Harcourt Close",
    "addr:unit": "1",
    "building": "yes",
    "craft": "brewery",
    "name": "Muirhouse Brewery",
    "source": "survey",
    "source:geometry": "Bing",
    "website": "http://muirhousebrewery.co.uk/"
  }
},
{
  "type": "way",
  "id": 763217063,
  "nodes": [
    7131830525,
    7131830526,
    7131830527,
    7131830528,
    7131830525
  ],
  "tags": {
    "addr:city": "Derby",
    "addr:postcode": "DE1 3BX",
    "addr:street": "Duke Street",
    "building": "yes",
    "craft": "brewery",
    "name": "Furnace Brewery"
  }
},
{
  "type": "node",
  "id": 975730304,
  "lat": 52.8384062,
  "lon": -1.4777241
},
{
  "type": "node",
  "id": 975730306,
  "lat": 52.8382539,
  "lon": -1.4777100
},
{
  "type": "node",
  "id": 975730331,
  "lat": 52.8382624,
  "lon": -1.4774555
},
{
  "type": "node",
  "id": 2059790362,
  "lat": 52.8384097,
  "lon": -1.4776195
},
{
  "type": "node",
  "id": 975730278,
  "lat": 52.8384443,
  "lon": -1.4774723
},
{
  "type": "node",
  "id": 2059790364,
  "lat": 52.8384392,
  "lon": -1.4776223
},
{
  "type": "node",
  "id": 692847647,
  "lat": 52.9104309,
  "lon": -1.4800728
},
{
  "type": "node",
  "id": 692847648,
  "lat": 52.9104221,
  "lon": -1.4801955
},
{
  "type": "node",
  "id": 692847649,
  "lat": 52.9105636,
  "lon": -1.4802192
},
{
  "type": "node",
  "id": 718499193,
  "lat": 52.9106142,
  "lon": -1.4800670
},
{
  "type": "node",
  "id": 1254605276,
  "lat": 52.9105529,
  "lon": -1.4800864
},
{
  "type": "node",
  "id": 1254605860,
  "lat": 52.9105828,
  "lon": -1.4802039
},
{
  "type": "node",
  "id": 1254606389,
  "lat": 52.9105538,
  "lon": -1.4800638
},
{
  "type": "node",
  "id": 1278249484,
  "lat": 52.9185912,
  "lon": -1.4981955
},
{
  "type": "node",
  "id": 1437040211,
  "lat": 52.9185579,
  "lon": -1.4982720
},
{
  "type": "node",
  "id": 1437040225,
  "lat": 52.9186149,
  "lon": -1.4983330
},
{
  "type": "node",
  "id": 1437040226,
  "lat": 52.9186155,
  "lon": -1.4981413
},
{
  "type": "node",
  "id": 1437040228,
  "lat": 52.9186220,
  "lon": -1.4981270
},
{
  "type": "node",
  "id": 1437040234,
  "lat": 52.9186343,
  "lon": -1.4982866
},
{
  "type": "node",
  "id": 1437040238,
  "lat": 52.9186609,
  "lon": -1.4982226
},
{
  "type": "node",
  "id": 1437040240,
  "lat": 52.9186700,
  "lon": -1.4982027
},
{
  "type": "node",
  "id": 1437040241,
  "lat": 52.9186746,
  "lon": -1.4981926
},
{
  "type": "node",
  "id": 1437040250,
  "lat": 52.9186935,
  "lon": -1.4983550
},
{
  "type": "node",
  "id": 1437040255,
  "lat": 52.9187191,
  "lon": -1.4982929
},
{
  "type": "node",
  "id": 1278717267,
  "lat": 52.9275026,
  "lon": -1.4975311
},
{
  "type": "node",
  "id": 1278717320,
  "lat": 52.9276328,
  "lon": -1.4975338
},
{
  "type": "node",
  "id": 1278717332,
  "lat": 52.9275287,
  "lon": -1.4976201
},
{
  "type": "node",
  "id": 1278717397,
  "lat": 52.9274609,
  "lon": -1.4973893
},
{
  "type": "node",
  "id": 1278717959,
  "lat": 52.9275638,
  "lon": -1.4973068
},
{
  "type": "node",
  "id": 49558102,
  "lat": 52.9288972,
  "lon": -1.4767074
},
{
  "type": "node",
  "id": 1861421942,
  "lat": 52.9287754,
  "lon": -1.4766449
},
{
  "type": "node",
  "id": 1861421955,
  "lat": 52.9287986,
  "lon": -1.4765205
},
{
  "type": "node",
  "id": 1861421956,
  "lat": 52.9288314,
  "lon": -1.4765373
},
{
  "type": "node",
  "id": 1861421957,
  "lat": 52.9288413,
  "lon": -1.4766787
},
{
  "type": "node",
  "id": 1861421958,
  "lat": 52.9288572,
  "lon": -1.4763994
},
{
  "type": "node",
  "id": 1861421963,
  "lat": 52.9288859,
  "lon": -1.4765378
},
{
  "type": "node",
  "id": 1861421965,
  "lat": 52.9289027,
  "lon": -1.4765464
},
{
  "type": "node",
  "id": 1861421967,
  "lat": 52.9289069,
  "lon": -1.4764249
},
{
  "type": "node",
  "id": 1861421969,
  "lat": 52.9289105,
  "lon": -1.4765045
},
{
  "type": "node",
  "id": 1861421971,
  "lat": 52.9289329,
  "lon": -1.4765159
},
{
  "type": "node",
  "id": 7131830525,
  "lat": 52.9288932,
  "lon": -1.4763856
},
{
  "type": "node",
  "id": 7131830526,
  "lat": 52.9289228,
  "lon": -1.4762276
},
{
  "type": "node",
  "id": 7131830527,
  "lat": 52.9288750,
  "lon": -1.4762029
},
{
  "type": "node",
  "id": 7131830528,
  "lat": 52.9288454,
  "lon": -1.4763609
},
{
  "type": "node",
  "id": 693196281,
  "lat": 52.9182040,
  "lon": -1.4642992
},
{
  "type": "node",
  "id": 693196286,
  "lat": 52.9181374,
  "lon": -1.4640996
},
{
  "type": "node",
  "id": 693196305,
  "lat": 52.9184263,
  "lon": -1.4641081
},
{
  "type": "node",
  "id": 718512171,
  "lat": 52.9184182,
  "lon": -1.4640716
},
{
  "type": "node",
  "id": 1045806010,
  "lat": 52.9183401,
  "lon": -1.4641788
},
{
  "type": "node",
  "id": 1045806015,
  "lat": 52.9182040,
  "lon": -1.4642662
},
{
  "type": "node",
  "id": 1045806019,
  "lat": 52.9183611,
  "lon": -1.4640764
},
{
  "type": "node",
  "id": 1980502213,
  "lat": 52.9181376,
  "lon": -1.4641959
},
{
  "type": "node",
  "id": 1980502216,
  "lat": 52.9181464,
  "lon": -1.4641921
},
{
  "type": "node",
  "id": 1980502217,
  "lat": 52.9181464,
  "lon": -1.4642063
},
{
  "type": "node",
  "id": 1980502219,
  "lat": 52.9181510,
  "lon": -1.4642158
},
{
  "type": "node",
  "id": 1980502221,
  "lat": 52.9181584,
  "lon": -1.4642162
},
{
  "type": "node",
  "id": 1980502223,
  "lat": 52.9181644,
  "lon": -1.4642072
},
{
  "type": "node",
  "id": 1980502226,
  "lat": 52.9181661,
  "lon": -1.4641949
},
{
  "type": "node",
  "id": 1980502227,
  "lat": 52.9182021,
  "lon": -1.4641940
},
{
  "type": "node",
  "id": 1980502230,
  "lat": 52.9184244,
  "lon": -1.4640744
},
{
  "type": "node",
  "id": 1980502231,
  "lat": 52.9184294,
  "lon": -1.4640858
},
{
  "type": "node",
  "id": 1980502234,
  "lat": 52.9184295,
  "lon": -1.4640961
},
{
  "type": "node",
  "id": 1271060970,
  "lat": 52.9250803,
  "lon": -1.4510200
},
{
  "type": "node",
  "id": 1271061330,
  "lat": 52.9251609,
  "lon": -1.4508400
},
{
  "type": "node",
  "id": 1271061487,
  "lat": 52.9250814,
  "lon": -1.4507428
},
{
  "type": "node",
  "id": 1271061807,
  "lat": 52.9250030,
  "lon": -1.4509313
},
{
  "type": "node",
  "id": 4084085914,
  "lat": 52.8789366,
  "lon": -1.2993282
},
{
  "type": "node",
  "id": 4084085915,
  "lat": 52.8789611,
  "lon": -1.2992406
},
{
  "type": "node",
  "id": 4084085916,
  "lat": 52.8790197,
  "lon": -1.2993921
},
{
  "type": "node",
  "id": 4084085917,
  "lat": 52.8790443,
  "lon": -1.2993045
},
{
  "type": "node",
  "id": 4033900794,
  "lat": 52.9675531,
  "lon": -1.3609412
},
{
  "type": "node",
  "id": 4033900797,
  "lat": 52.9675836,
  "lon": -1.3608140
},
{
  "type": "node",
  "id": 4033900806,
  "lat": 52.9676349,
  "lon": -1.3609963
},
{
  "type": "node",
  "id": 4033900811,
  "lat": 52.9676520,
  "lon": -1.3609265
},
{
  "type": "node",
  "id": 4033900815,
  "lat": 52.9676694,
  "lon": -1.3609383
},
{
  "type": "node",
  "id": 4033900817,
  "lat": 52.9676841,
  "lon": -1.3608831
},
{
  "type": "node",
  "id": 763629001,
  "lat": 52.9272245,
  "lon": -1.2810304
},
{
  "type": "node",
  "id": 763629056,
  "lat": 52.9271949,
  "lon": -1.2808477
},
{
  "type": "node",
  "id": 763629228,
  "lat": 52.9272556,
  "lon": -1.2809952
},
{
  "type": "node",
  "id": 763629256,
  "lat": 52.9271747,
  "lon": -1.2808707
},
{
  "type": "node",
  "id": 5278667132,
  "lat": 52.9271860,
  "lon": -1.2809367
},
{
  "type": "node",
  "id": 5278667133,
  "lat": 52.9271968,
  "lon": -1.2809244
},
{
  "type": "node",
  "id": 5536426350,
  "lat": 52.9751528,
  "lon": -1.3197370
},
{
  "type": "node",
  "id": 5536426452,
  "lat": 52.9752489,
  "lon": -1.3196051
},
{
  "type": "node",
  "id": 5549120546,
  "lat": 52.9751164,
  "lon": -1.3196639
},
{
  "type": "node",
  "id": 5549120547,
  "lat": 52.9752126,
  "lon": -1.3195320
},
{
  "type": "node",
  "id": 3353097870,
  "lat": 53.0038302,
  "lon": -1.2803873
},
{
  "type": "node",
  "id": 3353097871,
  "lat": 53.0038684,
  "lon": -1.2806047
},
{
  "type": "node",
  "id": 3353097881,
  "lat": 53.0040395,
  "lon": -1.2802949
},
{
  "type": "node",
  "id": 3353097882,
  "lat": 53.0040493,
  "lon": -1.2803504
},
{
  "type": "node",
  "id": 3353097883,
  "lat": 53.0040659,
  "lon": -1.2804454
},
{
  "type": "node",
  "id": 3353097884,
  "lat": 53.0040776,
  "lon": -1.2805117
},
{
  "type": "node",
  "id": 304814504,
  "lat": 53.1629036,
  "lon": -1.4802221
},
{
  "type": "node",
  "id": 2558017533,
  "lat": 53.1627398,
  "lon": -1.4802872
},
{
  "type": "node",
  "id": 2558017536,
  "lat": 53.1626287,
  "lon": -1.4801984
},
{
  "type": "node",
  "id": 2558017543,
  "lat": 53.1625918,
  "lon": -1.4801237
},
{
  "type": "node",
  "id": 2558017544,
  "lat": 53.1625982,
  "lon": -1.4802095
},
{
  "type": "node",
  "id": 2558017545,
  "lat": 53.1627011,
  "lon": -1.4801720
},
{
  "type": "node",
  "id": 2558017546,
  "lat": 53.1629182,
  "lon": -1.4802873
},
{
  "type": "node",
  "id": 2558017547,
  "lat": 53.1628298,
  "lon": -1.4804080
},
{
  "type": "node",
  "id": 2558017548,
  "lat": 53.1627687,
  "lon": -1.4803731
},
{
  "type": "node",
  "id": 2558017549,
  "lat": 53.1628089,
  "lon": -1.4801022
},
{
  "type": "node",
  "id": 2558017550,
  "lat": 53.1628603,
  "lon": -1.4801478
},
{
  "type": "node",
  "id": 2558017551,
  "lat": 53.1627655,
  "lon": -1.4800754
},
{
  "type": "node",
  "id": 2558017553,
  "lat": 53.1628121,
  "lon": -1.4803329
},
{
  "type": "node",
  "id": 2558017555,
  "lat": 53.1627188,
  "lon": -1.4800727
},
{
  "type": "node",
  "id": 739079347,
  "lat": 53.1706797,
  "lon": -1.4046861
},
{
  "type": "node",
  "id": 2693701733,
  "lat": 53.1706842,
  "lon": -1.4048787
},
{
  "type": "node",
  "id": 2693701738,
  "lat": 53.1706164,
  "lon": -1.4048831
},
{
  "type": "node",
  "id": 2693701739,
  "lat": 53.1706119,
  "lon": -1.4046905
},
{
  "type": "node",
  "id": 697665754,
  "lat": 52.9386745,
  "lon": -1.1373454
},
{
  "type": "node",
  "id": 697665761,
  "lat": 52.9388006,
  "lon": -1.1376129
},
{
  "type": "node",
  "id": 697665769,
  "lat": 52.9387056,
  "lon": -1.1377904
},
{
  "type": "node",
  "id": 697665775,
  "lat": 52.9386568,
  "lon": -1.1377185
},
{
  "type": "node",
  "id": 697665782,
  "lat": 52.9385611,
  "lon": -1.1378968
},
{
  "type": "node",
  "id": 697665789,
  "lat": 52.9385258,
  "lon": -1.1378525
},
{
  "type": "node",
  "id": 697665802,
  "lat": 52.9384693,
  "lon": -1.1379765
},
{
  "type": "node",
  "id": 697665809,
  "lat": 52.9383885,
  "lon": -1.1378752
},
{
  "type": "node",
  "id": 697665816,
  "lat": 52.9384192,
  "lon": -1.1378077
},
{
  "type": "node",
  "id": 697665822,
  "lat": 52.9383829,
  "lon": -1.1377728
},
{
  "type": "node",
  "id": 2385268916,
  "lat": 52.9383997,
  "lon": -1.1376883
},
{
  "type": "node",
  "id": 2385268924,
  "lat": 52.9384173,
  "lon": -1.1377198
},
{
  "type": "node",
  "id": 2385268970,
  "lat": 52.9385127,
  "lon": -1.1375143
},
{
  "type": "node",
  "id": 2385268978,
  "lat": 52.9385249,
  "lon": -1.1375361
},
{
  "type": "node",
  "id": 2385268993,
  "lat": 52.9385582,
  "lon": -1.1374848
},
{
  "type": "node",
  "id": 2385269004,
  "lat": 52.9385701,
  "lon": -1.1375061
},
{
  "type": "node",
  "id": 2385269170,
  "lat": 52.9387508,
  "lon": -1.1375316
},
{
  "type": "node",
  "id": 2385269179,
  "lat": 52.9387622,
  "lon": -1.1375132
},
{
  "type": "node",
  "id": 1502884510,
  "lat": 52.9456331,
  "lon": -1.1486355
},
{
  "type": "node",
  "id": 1776663709,
  "lat": 52.9455379,
  "lon": -1.1485464
},
{
  "type": "node",
  "id": 1776663730,
  "lat": 52.9455993,
  "lon": -1.1489809
},
{
  "type": "node",
  "id": 1776663750,
  "lat": 52.9456544,
  "lon": -1.1484371
},
{
  "type": "node",
  "id": 1776663753,
  "lat": 52.9456301,
  "lon": -1.1489734
},
{
  "type": "node",
  "id": 1776663754,
  "lat": 52.9454926,
  "lon": -1.1484123
},
{
  "type": "node",
  "id": 1776663790,
  "lat": 52.9455776,
  "lon": -1.1487811
},
{
  "type": "node",
  "id": 2401978907,
  "lat": 52.9456282,
  "lon": -1.1482980
},
{
  "type": "node",
  "id": 2401978909,
  "lat": 52.9456472,
  "lon": -1.1487561
},
{
  "type": "node",
  "id": 2401978913,
  "lat": 52.9456663,
  "lon": -1.1487541
},
{
  "type": "node",
  "id": 2401978915,
  "lat": 52.9456679,
  "lon": -1.1487719
},
{
  "type": "node",
  "id": 2401978917,
  "lat": 52.9456693,
  "lon": -1.1489133
},
{
  "type": "node",
  "id": 2401978919,
  "lat": 52.9456729,
  "lon": -1.1489606
},
{
  "type": "node",
  "id": 2401978921,
  "lat": 52.9456775,
  "lon": -1.1486277
},
{
  "type": "node",
  "id": 2401978923,
  "lat": 52.9456922,
  "lon": -1.1487680
},
{
  "type": "node",
  "id": 2401978925,
  "lat": 52.9457065,
  "lon": -1.1489038
},
{
  "type": "node",
  "id": 346997361,
  "lat": 52.9533591,
  "lon": -1.1435487
},
{
  "type": "node",
  "id": 1776614792,
  "lat": 52.9534128,
  "lon": -1.1431644
},
{
  "type": "node",
  "id": 1776614799,
  "lat": 52.9533956,
  "lon": -1.1432205
},
{
  "type": "node",
  "id": 1776614803,
  "lat": 52.9534093,
  "lon": -1.1431859
},
{
  "type": "node",
  "id": 1776614809,
  "lat": 52.9533351,
  "lon": -1.1432401
},
{
  "type": "node",
  "id": 1776614823,
  "lat": 52.9532961,
  "lon": -1.1435186
},
{
  "type": "node",
  "id": 1776614826,
  "lat": 52.9533764,
  "lon": -1.1432587
},
{
  "type": "node",
  "id": 1776614839,
  "lat": 52.9534018,
  "lon": -1.1431825
},
{
  "type": "node",
  "id": 1776614840,
  "lat": 52.9533835,
  "lon": -1.1432151
},
{
  "type": "node",
  "id": 1776614847,
  "lat": 52.9534664,
  "lon": -1.1432369
},
{
  "type": "node",
  "id": 1776614848,
  "lat": 52.9534446,
  "lon": -1.1433702
},
{
  "type": "node",
  "id": 1776614849,
  "lat": 52.9534399,
  "lon": -1.1433989
},
{
  "type": "node",
  "id": 1776614850,
  "lat": 52.9534586,
  "lon": -1.1432845
},
{
  "type": "node",
  "id": 1776614854,
  "lat": 52.9534546,
  "lon": -1.1431676
},
{
  "type": "node",
  "id": 2240046649,
  "lat": 52.9534522,
  "lon": -1.1431822
},
{
  "type": "node",
  "id": 2919107823,
  "lat": 52.9534110,
  "lon": -1.1435772
},
{
  "type": "node",
  "id": 2919107829,
  "lat": 52.9534761,
  "lon": -1.1431772
},
{
  "type": "node",
  "id": 3510128171,
  "lat": 52.9563698,
  "lon": -1.0803362
},
{
  "type": "node",
  "id": 3510128172,
  "lat": 52.9564524,
  "lon": -1.0801339
},
{
  "type": "node",
  "id": 3510128173,
  "lat": 52.9565948,
  "lon": -1.0805894
},
{
  "type": "node",
  "id": 3510128174,
  "lat": 52.9566774,
  "lon": -1.0803872
},
{
  "type": "node",
  "id": 4322308851,
  "lat": 52.9811053,
  "lon": -1.1822173
},
{
  "type": "node",
  "id": 4322308854,
  "lat": 52.9811482,
  "lon": -1.1820765
},
{
  "type": "node",
  "id": 4322308857,
  "lat": 52.9811765,
  "lon": -1.1821003
},
{
  "type": "node",
  "id": 4322308858,
  "lat": 52.9811826,
  "lon": -1.1820803
},
{
  "type": "node",
  "id": 4322308862,
  "lat": 52.9812252,
  "lon": -1.1822462
},
{
  "type": "node",
  "id": 4322308863,
  "lat": 52.9812568,
  "lon": -1.1821427
},
{
  "type": "node",
  "id": 4322308864,
  "lat": 52.9812853,
  "lon": -1.1822968
},
{
  "type": "node",
  "id": 4322308866,
  "lat": 52.9813338,
  "lon": -1.1825587
},
{
  "type": "node",
  "id": 4322308867,
  "lat": 52.9813638,
  "lon": -1.1824644
},
{
  "type": "node",
  "id": 4322308868,
  "lat": 52.9813694,
  "lon": -1.1820214
},
{
  "type": "node",
  "id": 4322308870,
  "lat": 52.9813944,
  "lon": -1.1824902
},
{
  "type": "node",
  "id": 4322308872,
  "lat": 52.9814123,
  "lon": -1.1820575
},
{
  "type": "node",
  "id": 4322308873,
  "lat": 52.9814527,
  "lon": -1.1822994
},
{
  "type": "node",
  "id": 4322308874,
  "lat": 52.9814667,
  "lon": -1.1818790
},
{
  "type": "node",
  "id": 4322308875,
  "lat": 52.9814973,
  "lon": -1.1823369
},
{
  "type": "node",
  "id": 4322308876,
  "lat": 52.9814997,
  "lon": -1.1819068
},
{
  "type": "node",
  "id": 4322308877,
  "lat": 52.9815109,
  "lon": -1.1818703
},
{
  "type": "node",
  "id": 4322308879,
  "lat": 52.9816134,
  "lon": -1.1819566
},
{
  "type": "node",
  "id": 3711164633,
  "lat": 53.0326694,
  "lon": -1.1868856
},
{
  "type": "node",
  "id": 3711164641,
  "lat": 53.0328215,
  "lon": -1.1871100
},
{
  "type": "node",
  "id": 3711164642,
  "lat": 53.0328317,
  "lon": -1.1865816
},
{
  "type": "node",
  "id": 3711164646,
  "lat": 53.0329018,
  "lon": -1.1866851
},
{
  "type": "node",
  "id": 3711164651,
  "lat": 53.0329803,
  "lon": -1.1865379
},
{
  "type": "node",
  "id": 3711164656,
  "lat": 53.0330623,
  "lon": -1.1866588
}

  ]
}
