{
  "version": 0.6,
  "generator": "Overpass API 0.7.55.1011 6c2efc30",
  "osm3s": {
    "timestamp_osm_base": "2020-02-05T22:49:02Z",
    "copyright": "The data included in this document is from www.openstreetmap.org. The data is made available under ODbL."
  },
  "elements": [

{
  "type": "node",
  "id": 31568211,
  "lat": 47.9932959,
  "lon": 7.8527433,
  "tags": {
    "addr:housenumber": "45",
    "addr:street": "Gerberau",
    "amenity": "pub",
    "beer_brand": "home_made",
    "contact:fax": "+49 761 25688",
    "contact:phone": "+49 761 243480",
    "contact:website": "http://www.feierling.de/",
    "cuisine": "regional",
    "microbrewery": "yes",
    "name": "Hausbrauerei Feierling",
    "opening_hours": "Mo-Th 11:00-00:00; Fr,Sa 11:00-01:00",
    "phone": "+49761243480",
    "toilets:wheelchair": "no",
    "website": "http://www.feierling.de/",
    "wheelchair": "yes"
  }
},
{
  "type": "node",
  "id": 248594136,
  "lat": 47.9936917,
  "lon": 7.8495277,
  "tags": {
    "addr:city": "Freiburg im Breisgau",
    "addr:country": "DE",
    "addr:housenumber": "237",
    "addr:postcode": "79098",
    "addr:street": "Kaiser-Joseph-Straße",
    "amenity": "restaurant",
    "beer_brand": "home_made",
    "contact:email": "info@mbfr.de",
    "contact:fax": "+49 761 33627",
    "contact:phone": "+49 761 387000",
    "contact:website": "http://www.mbfr.de/",
    "cuisine": "regional",
    "internet_access": "wlan",
    "internet_access:fee": "no",
    "lastcheck": "2016-08-16",
    "microbrewery": "yes",
    "name": "Martinsbräu",
    "opening_hours": "Mo-Th,Su,PH 11:00-24:00; Fr-Sa 11:00 - 02:00",
    "opening_hours:kitchen": "Mo-Th,Su,PH 11:30-22:00; Fr-Sa 11:30-23:00",
    "operator": "Martin's Bräu GmbH & Co. KG",
    "outdoor_seating": "yes",
    "toilets": "yes",
    "wheelchair": "no",
    "wheelchair:description:de": "Stufen am Eingang"
  }
},
{
  "type": "node",
  "id": 349316563,
  "lat": 48.1708640,
  "lon": 7.7687613,
  "tags": {
    "addr:city": "Kenzingen",
    "addr:housenumber": "1",
    "addr:postcode": "79341",
    "addr:street": "Schloßbergstraße",
    "addr:suburb": "Hecklingen",
    "amenity": "restaurant",
    "microbrewery": "yes",
    "name": "Dorfkrug",
    "opening_hours": "Tu-Fr 14:00-24:00; Sa 10:00-15:00; Su 14:00-22:00"
  }
},
{
  "type": "node",
  "id": 406325552,
  "lat": 48.0890595,
  "lon": 7.9586628,
  "tags": {
    "addr:city": "Waldkirch",
    "addr:housenumber": "21",
    "addr:postcode": "79183",
    "addr:street": "Goethestraße",
    "amenity": "restaurant",
    "biergarten": "yes",
    "microbrewery": "yes",
    "name": "Stadtrainsee",
    "website": "http://www.stadtrainsee.de",
    "wheelchair": "limited"
  }
},
{
  "type": "node",
  "id": 3509617923,
  "lat": 48.1484202,
  "lon": 7.7533773,
  "tags": {
    "addr:city": "Riegel am Kaiserstuhl",
    "addr:housenumber": "1",
    "addr:postcode": "79359",
    "addr:street": "Hauptstraße",
    "craft": "brewery",
    "email": "roemerbraeu@gmx.de",
    "name": "Römerbräu Riegel",
    "opening_hours": "Fr 18:00-20:00",
    "operator": "Römerbräu Riegel GbR",
    "website": "http://www.roemerbraeu.de"
  }
},
{
  "type": "node",
  "id": 4383609011,
  "lat": 48.1414891,
  "lon": 7.7080518,
  "tags": {
    "addr:city": "Endingen am Kaiserstuhl",
    "addr:housenumber": "2a",
    "addr:postcode": "79346",
    "addr:street": "Riegeler Straße",
    "craft": "brewery",
    "name": "Ostel Bräu",
    "product": "beer",
    "website": "https://www.facebook.com/Ostel-Bräu-Endingen-568751279920336/"
  }
},
{
  "type": "node",
  "id": 4553635156,
  "lat": 48.0111840,
  "lon": 7.5739484,
  "tags": {
    "contact:website": "http://www.brasseriesaintalphonse.com",
    "craft": "brewery",
    "name": "Brasserie Artisanale Saint-Alphonse",
    "opening_hours": "Th 17:00-19:00; Fr 15:00-18:00; Sa 09:00-12:00,14:00-17:00"
  }
},
{
  "type": "node",
  "id": 4555877707,
  "lat": 48.2791950,
  "lon": 7.8552905,
  "tags": {
    "amenity": "restaurant",
    "cuisine": "german",
    "microbrewery": "yes",
    "name": "Hieronymus Brauereiausschank"
  }
},
{
  "type": "node",
  "id": 6721221938,
  "lat": 48.1443533,
  "lon": 7.6914373,
  "tags": {
    "addr:city": "Endingen am Kaiserstuhl",
    "addr:housenumber": "60",
    "addr:postcode": "79346",
    "addr:street": "Königschaffhauser Straße",
    "craft": "brewery",
    "fixme": "Mehr Infos wie Homepage, Öffnungszeiten etc.",
    "name": "A. Grüner",
    "product": "beer"
  }
},
{
  "type": "way",
  "id": 56058211,
  "nodes": [
    251383484,
    1149639687,
    1149639601,
    251383543,
    1149639627,
    1149639587,
    1149639716,
    1068302493,
    703622754,
    2894404570,
    703622751,
    703622746,
    679144421,
    2894404594,
    2894404739,
    251383484
  ],
  "tags": {
    "amenity": "biergarten",
    "beer_brand": "home_made",
    "craft": "brewery",
    "cuisine": "regional",
    "microbrewery": "yes",
    "name": "Feierling Biergarten",
    "website": "https://www.feierling.de/",
    "wheelchair": "limited"
  }
},
{
  "type": "way",
  "id": 228597883,
  "nodes": [
    2372557814,
    2372557796,
    2372557797,
    2372557816,
    2372557806,
    2372557818,
    2372557849,
    2372557876,
    2372557814
  ],
  "tags": {
    "addr:city": "Waldkirch",
    "addr:housenumber": "21",
    "addr:postcode": "79183",
    "addr:street": "Goethestraße",
    "building": "yes",
    "building:levels": "5",
    "craft": "brewery",
    "microbrewery": "yes",
    "name": "Hirschenbrauerei",
    "phone": "+49 7681 4081-0",
    "source": "Datenquelle: LGL, www.lgl-bw.de",
    "website": "https://www.hirschenbrauerei.de/"
  }
},
{
  "type": "way",
  "id": 321007958,
  "nodes": [
    3277208782,
    4035244221,
    4035244222,
    4035244218,
    4035244214,
    4035244216,
    3277208775,
    3277208774,
    3277208773,
    3277208772,
    4035244213,
    4035244215,
    3277208777,
    4035244217,
    3277208776,
    4035244219,
    4035244220,
    3277208779,
    3277208780,
    3277208781,
    3277208782
  ],
  "tags": {
    "addr:city": "Lenzkirch",
    "addr:country": "DE",
    "addr:housenumber": "61",
    "addr:postcode": "79853",
    "addr:street": "Bonndorfer Straße",
    "amenity": "restaurant",
    "brewery": "various",
    "building": "commercial",
    "craft": "brewery",
    "cuisine": "german",
    "microbrewery": "yes",
    "name": "Brauerei Rogg",
    "operator": "Joachim Rogg",
    "phone": "+4976536623",
    "tourism": "hotel",
    "website": "http://www.brauerei-rogg.de"
  }
},
{
  "type": "node",
  "id": 251383484,
  "lat": 47.9936590,
  "lon": 7.8527918
},
{
  "type": "node",
  "id": 251383543,
  "lat": 47.9935369,
  "lon": 7.8530190
},
{
  "type": "node",
  "id": 679144421,
  "lat": 47.9934328,
  "lon": 7.8526333
},
{
  "type": "node",
  "id": 703622746,
  "lat": 47.9934017,
  "lon": 7.8527319
},
{
  "type": "node",
  "id": 703622751,
  "lat": 47.9933235,
  "lon": 7.8528401
},
{
  "type": "node",
  "id": 703622754,
  "lat": 47.9933984,
  "lon": 7.8530276
},
{
  "type": "node",
  "id": 1068302493,
  "lat": 47.9934362,
  "lon": 7.8529842
},
{
  "type": "node",
  "id": 1149639587,
  "lat": 47.9934921,
  "lon": 7.8529178
},
{
  "type": "node",
  "id": 1149639601,
  "lat": 47.9935823,
  "lon": 7.8529271
},
{
  "type": "node",
  "id": 1149639627,
  "lat": 47.9935115,
  "lon": 7.8529625
},
{
  "type": "node",
  "id": 1149639687,
  "lat": 47.9936075,
  "lon": 7.8529554
},
{
  "type": "node",
  "id": 1149639716,
  "lat": 47.9934616,
  "lon": 7.8529517
},
{
  "type": "node",
  "id": 2894404570,
  "lat": 47.9933244,
  "lon": 7.8528849
},
{
  "type": "node",
  "id": 2894404594,
  "lat": 47.9934616,
  "lon": 7.8526572
},
{
  "type": "node",
  "id": 2894404739,
  "lat": 47.9936082,
  "lon": 7.8527641
},
{
  "type": "node",
  "id": 2372557796,
  "lat": 48.0887372,
  "lon": 7.9590528
},
{
  "type": "node",
  "id": 2372557797,
  "lat": 48.0887470,
  "lon": 7.9590776
},
{
  "type": "node",
  "id": 2372557806,
  "lat": 48.0887756,
  "lon": 7.9593315
},
{
  "type": "node",
  "id": 2372557814,
  "lat": 48.0888267,
  "lon": 7.9589747
},
{
  "type": "node",
  "id": 2372557816,
  "lat": 48.0888279,
  "lon": 7.9592859
},
{
  "type": "node",
  "id": 2372557818,
  "lat": 48.0888339,
  "lon": 7.9594813
},
{
  "type": "node",
  "id": 2372557849,
  "lat": 48.0888896,
  "lon": 7.9594327
},
{
  "type": "node",
  "id": 2372557876,
  "lat": 48.0889758,
  "lon": 7.9593575
},
{
  "type": "node",
  "id": 3277208772,
  "lat": 47.8612130,
  "lon": 8.2239398
},
{
  "type": "node",
  "id": 3277208773,
  "lat": 47.8612458,
  "lon": 8.2237195
},
{
  "type": "node",
  "id": 3277208774,
  "lat": 47.8612740,
  "lon": 8.2237164
},
{
  "type": "node",
  "id": 3277208775,
  "lat": 47.8612945,
  "lon": 8.2235277
},
{
  "type": "node",
  "id": 3277208776,
  "lat": 47.8614470,
  "lon": 8.2240793
},
{
  "type": "node",
  "id": 3277208777,
  "lat": 47.8613872,
  "lon": 8.2239007
},
{
  "type": "node",
  "id": 3277208779,
  "lat": 47.8616476,
  "lon": 8.2240776
},
{
  "type": "node",
  "id": 3277208780,
  "lat": 47.8616246,
  "lon": 8.2237321
},
{
  "type": "node",
  "id": 3277208781,
  "lat": 47.8617046,
  "lon": 8.2237160
},
{
  "type": "node",
  "id": 3277208782,
  "lat": 47.8617036,
  "lon": 8.2236368
},
{
  "type": "node",
  "id": 4035244213,
  "lat": 47.8613250,
  "lon": 8.2239704
},
{
  "type": "node",
  "id": 4035244214,
  "lat": 47.8613343,
  "lon": 8.2235768
},
{
  "type": "node",
  "id": 4035244215,
  "lat": 47.8613349,
  "lon": 8.2238899
},
{
  "type": "node",
  "id": 4035244216,
  "lat": 47.8613383,
  "lon": 8.2235398
},
{
  "type": "node",
  "id": 4035244217,
  "lat": 47.8613682,
  "lon": 8.2240616
},
{
  "type": "node",
  "id": 4035244218,
  "lat": 47.8615104,
  "lon": 8.2236257
},
{
  "type": "node",
  "id": 4035244219,
  "lat": 47.8615392,
  "lon": 8.2240683
},
{
  "type": "node",
  "id": 4035244220,
  "lat": 47.8615410,
  "lon": 8.2240844
},
{
  "type": "node",
  "id": 4035244221,
  "lat": 47.8616174,
  "lon": 8.2236472
},
{
  "type": "node",
  "id": 4035244222,
  "lat": 47.8616192,
  "lon": 8.2236109
}

  ]
}
