{
  "version": 0.6,
  "generator": "Overpass API 0.7.55.9 ab41fea6",
  "osm3s": {
    "timestamp_osm_base": "2020-02-05T20:17:03Z",
    "copyright": "The data included in this document is from www.openstreetmap.org. The data is made available under ODbL."
  },
  "elements": [

{
  "type": "node",
  "id": 2138075203,
  "lat": 50.8362146,
  "lon": -1.0519672,
  "tags": {
    "addr:housename": "Unit G1",
    "addr:postcode": "PO6 1TQ",
    "addr:street": "Walton Road",
    "craft": "brewery",
    "name": "Irving Brewers",
    "operator": "Irving & Co. Brewers Ltd",
    "real_ale": "yes",
    "website": "http://www.irvingbrewers.co.uk"
  }
},
{
  "type": "node",
  "id": 2146900307,
  "lat": 50.9588449,
  "lon": -1.1044410,
  "tags": {
    "addr:city": "Southampton",
    "addr:country": "GB",
    "addr:postcode": "SO32 3QY",
    "addr:street": "Sheardley Lane",
    "craft": "brewery",
    "name": "Bowman Ales",
    "operator": "Bowman Ales Ltd",
    "real_ale": "yes",
    "shop": "alcohol",
    "website": "http://www.bowman-ales.com"
  }
},
{
  "type": "node",
  "id": 2255970559,
  "lat": 50.9715606,
  "lon": -1.2350835,
  "tags": {
    "addr:city": "Southampton",
    "addr:country": "GB",
    "addr:place": "Upham",
    "addr:postcode": "SO32 1FL",
    "addr:street": "Cross Lane",
    "craft": "brewery",
    "name": "Upham Brewery",
    "real_ale": "yes",
    "source:addr": "bottle",
    "website": "http://www.uphambrewery.co.uk/"
  }
},
{
  "type": "node",
  "id": 2428610537,
  "lat": 50.7979437,
  "lon": -1.1226792,
  "tags": {
    "addr:city": "Gosport",
    "addr:housename": "Unit 7 Clarence Wharf Industrial Estate",
    "addr:postcode": "PO12 1AJ",
    "addr:street": "Mumby Road",
    "craft": "brewery",
    "name": "Fallen Acorn Brewing Co",
    "old_name": "Oakleaf Brewery",
    "old_note": "The shop is in The Brewpot -  200 yards due south",
    "old_website": "http://www.oakleafbrewing.co.uk/",
    "real_ale": "yes",
    "website": "http://www.fallenacornbrewing.co/"
  }
},
{
  "type": "node",
  "id": 3208431358,
  "lat": 50.7850246,
  "lon": -1.0916012,
  "tags": {
    "addr:city": "Southsea",
    "addr:housenumber": "36",
    "addr:postcode": "PO5 3LT",
    "addr:street": "Osborne Road",
    "amenity": "pub",
    "craft": "brewery",
    "diet:vegan": "yes",
    "diet:vegetarian": "yes",
    "fhrs:id": "683007",
    "food": "yes",
    "name": "The Wave Maiden",
    "real_ale": "yes",
    "source:addr:postcode": "FHRS Open Data",
    "website": "http://www.thewavemaiden.co.uk/"
  }
},
{
  "type": "node",
  "id": 3778298202,
  "lat": 50.8470458,
  "lon": -0.9379849,
  "tags": {
    "craft": "brewery",
    "name": "The Emsworth Brewery"
  }
},
{
  "type": "node",
  "id": 4401593738,
  "lat": 51.1721954,
  "lon": -0.8659287,
  "tags": {
    "addr:city": "Alton",
    "addr:housename": "The Brewery",
    "addr:place": "Blacknest Industrial Park",
    "addr:postcode": "GU34 4PX",
    "addr:street": "Blacknest Road",
    "building": "industrial",
    "craft": "brewery",
    "fixme": "check location",
    "man_made": "works",
    "name": "Hop Art Brewery",
    "product": "beer",
    "source": "sign seen on journey",
    "website": "http://hopartbrewery.com/"
  }
},
{
  "type": "node",
  "id": 4564390091,
  "lat": 50.7976842,
  "lon": -1.0625930,
  "tags": {
    "addr:city": "Southsea",
    "addr:postcode": "PO4 8SS",
    "addr:street": "Rodney Road",
    "addr:unit": "3",
    "craft": "brewery",
    "name": "Staggeringly Good",
    "real_ale": "yes",
    "website": "http://www.staggeringlygood.com"
  }
},
{
  "type": "node",
  "id": 5506791799,
  "lat": 50.8333199,
  "lon": -1.0620743,
  "tags": {
    "addr:city": "Portsmouth",
    "addr:postcode": "PO3 5DZ",
    "addr:street": "Limberline Spur",
    "addr:unit": "28",
    "craft": "brewery",
    "name": "Urban Island",
    "website": "https://www.urbanislandbrewing.uk"
  }
},
{
  "type": "node",
  "id": 6077195094,
  "lat": 50.7782951,
  "lon": -1.0884920,
  "tags": {
    "addr:city": "Southsea",
    "addr:housename": "Southsea Castle",
    "addr:postcode": "PO5 3PA",
    "addr:street": "Clarence Esplanade",
    "addr:unit": "Casemate 7",
    "craft": "brewery",
    "fhrs:id": "816436",
    "name": "The Southsea Brewing Company",
    "website": "https://southseabrewing.co.uk"
  }
},
{
  "type": "way",
  "id": 88272970,
  "nodes": [
    1025395286,
    4979653705,
    1025395283,
    1025395315,
    1025395305,
    1025395290,
    1025395286
  ],
  "tags": {
    "addr:city": "Southampton",
    "addr:postcode": "SO14 2AR",
    "addr:street": "Bugle Street",
    "amenity": "pub",
    "brewery": "Dancing Man Brewery",
    "building": "yes",
    "cuisine": "regional",
    "food": "yes",
    "microbrewery": "yes",
    "name": "Dancing Man",
    "note": "This is the Wool House",
    "old_name": "Southampton Maritime Museum",
    "operator": "Dancing Man Brewery",
    "outdoor_seating": "yes",
    "real_ale": "yes",
    "source": "Bing",
    "wikidata": "Q7775763",
    "wikipedia": "en:The Wool House"
  }
},
{
  "type": "way",
  "id": 177945219,
  "nodes": [
    1883456006,
    1883456015,
    1883456017,
    1883456020,
    1883456023,
    1883456025,
    1883456013,
    1883456014,
    1883456016,
    1883456022,
    1883456019,
    1883456021,
    1883456006
  ],
  "tags": {
    "addr:city": "Cheriton, Alresford",
    "addr:place": "Brandy Mount",
    "addr:postcode": "SO24 0QQ",
    "alt_name": "Flowerpots Inn",
    "amenity": "pub",
    "brewery": "Flower Pots",
    "building": "yes",
    "craft": "brewery",
    "microbrewery": "yes",
    "name": "Flower Pots Inn",
    "real_ale": "yes",
    "website": "http://www.flowerpots.f2s.com/",
    "wikidata": "Q26449886"
  }
},
{
  "type": "way",
  "id": 179418377,
  "nodes": [
    1897915341,
    1897915304,
    1897915265,
    1897915296,
    1897915362,
    1897915324,
    1897915353,
    1897915289,
    1897915328,
    1897915279,
    1897915277,
    1897915341
  ],
  "tags": {
    "addr:city": "Alton",
    "addr:postcode": "GU34 5HN",
    "addr:street": "Station Approach",
    "addr:suburb": "Four Marks",
    "building": "brewery",
    "craft": "brewery",
    "fhrs:id": "75542",
    "name": "Triple fff Brewing Company",
    "website": "https://www.triplefff.com/"
  }
},
{
  "type": "way",
  "id": 279478828,
  "nodes": [
    2837027140,
    2837027147,
    2837027141,
    2837027144,
    2837027140
  ],
  "tags": {
    "addr:city": "Winchester",
    "addr:country": "GB",
    "addr:housename": "Alfred's Brewery",
    "addr:housenumber": "5B",
    "addr:place": "Winnall",
    "addr:postcode": "SO23 0LD",
    "addr:street": "Winnall Valley Road",
    "building": "industrial",
    "craft": "brewery",
    "man_made": "works",
    "name": "Alfred's Brewery",
    "product": "beer",
    "real_ale": "yes",
    "website": "http://www.alfredsbrewery.co.uk/"
  }
},
{
  "type": "way",
  "id": 318361324,
  "nodes": [
    3247632217,
    3247632216,
    3247632210,
    3247632202,
    3247632217
  ],
  "tags": {
    "addr:city": "Alresford",
    "addr:country": "GB",
    "addr:housenumber": "Unit D",
    "addr:place": "Prospect Commercial Park",
    "addr:postcode": "SO24 9QF",
    "addr:street": "Prospect Road",
    "building": "industrial",
    "craft": "brewery",
    "industrial": "brewery",
    "man_made": "works",
    "name": "Itchen Valley Brewery",
    "product": "beer",
    "real_ale": "yes",
    "website": "http://www.itchenvalley.com/"
  }
},
{
  "type": "way",
  "id": 337564280,
  "nodes": [
    3446334661,
    3446334656,
    3446334653,
    3446334655,
    3446334662,
    3446334663,
    3446334669,
    3446334661
  ],
  "tags": {
    "addr:city": "Portsmouth",
    "addr:housenumber": "26",
    "addr:postcode": "PO1 2DD",
    "addr:street": "Guildhall Walk",
    "alt_name": "Brewhouse & Kitchen",
    "amenity": "pub",
    "building": "yes",
    "local_name": "The Mucky Duck",
    "microbrewery": "yes",
    "name": "Brewhouse and Kitchen (White Swan)",
    "operator": "Brewhouse and Kitchen",
    "phone": "+44 2392 891340",
    "real_ale": "5",
    "real_cider": "yes",
    "website": "https://www.brewhouseandkitchen.com/our-pubs/the-white-swan"
  }
},
{
  "type": "way",
  "id": 486469358,
  "nodes": [
    4790825601,
    4790825600,
    4790826059,
    4790826058,
    4790819166,
    4790819163,
    4790826057,
    4790826056,
    4790826055,
    4790826054,
    4790826053,
    4790826052,
    4790826051,
    4790826050,
    4790826049,
    4790826048,
    4790826047,
    4790826046,
    4790826045,
    4790826044,
    4790826043,
    4790826042,
    4790826041,
    4790826040,
    4790826039,
    4790826038,
    4790826037,
    4790826036,
    4790826035,
    4790826034,
    4790826033,
    4790826032,
    4895033379,
    4895033382,
    4790826031,
    4790826030,
    4790826029,
    4790826028,
    4790826027,
    4790826026,
    4790826025,
    4790826024,
    4790826023,
    4790826022,
    4790826021,
    4790819220,
    4790819219,
    4790819218,
    4790819217,
    4790819216,
    4790819215,
    4790819214,
    4790819213,
    4790819212,
    4790819211,
    4790819210,
    4790819209,
    4790819208,
    4790819207,
    4790819206,
    4790819205,
    4790819204,
    4790819203,
    4790819202,
    4790819201,
    4790819200,
    4790819199,
    4790819198,
    4790819197,
    4790819196,
    4790819195,
    4790819194,
    4790825601
  ],
  "tags": {
    "building": "yes",
    "craft": "brewery",
    "roof:colour": "grey"
  }
},
{
  "type": "way",
  "id": 743426825,
  "nodes": [
    6958623930,
    6958623927,
    6958623929,
    6958623928,
    6958623930
  ],
  "tags": {
    "addr:place": "East Stratton",
    "addr:postcode": "SO21 3DZ",
    "addr:street": "Burcot Farm",
    "building": "industrial",
    "craft": "brewery",
    "man_made": "works",
    "name": "Stratton Lane Brewery and Bar",
    "product": "beer",
    "website": "https://strattonlane.com/"
  }
},
{
  "type": "way",
  "id": 751350094,
  "nodes": [
    7023921881,
    7023921880,
    7023921879,
    7023921878,
    7023921881
  ],
  "tags": {
    "addr:city": "Hardley",
    "addr:place": "The Purlieu Centre",
    "addr:postcode": "SO45 3AE",
    "addr:unit": "3",
    "building": "yes",
    "craft": "brewery",
    "name": "Vibrant Forest Brewery",
    "opening_hours": "Fr 14:00-19:00; Sa 12:00-19:00; Su 12:00-16:00",
    "website": "https://www.vibrantforest.co.uk"
  }
},
{
  "type": "node",
  "id": 7023921878,
  "lat": 50.8427767,
  "lon": -1.3949740
},
{
  "type": "node",
  "id": 7023921879,
  "lat": 50.8427056,
  "lon": -1.3948935
},
{
  "type": "node",
  "id": 7023921880,
  "lat": 50.8425345,
  "lon": -1.3952959
},
{
  "type": "node",
  "id": 7023921881,
  "lat": 50.8426107,
  "lon": -1.3953790
},
{
  "type": "node",
  "id": 1025395283,
  "lat": 50.8974185,
  "lon": -1.4060489
},
{
  "type": "node",
  "id": 1025395286,
  "lat": 50.8974641,
  "lon": -1.4062259
},
{
  "type": "node",
  "id": 1025395290,
  "lat": 50.8976671,
  "lon": -1.4061535
},
{
  "type": "node",
  "id": 1025395305,
  "lat": 50.8976409,
  "lon": -1.4059684
},
{
  "type": "node",
  "id": 1025395315,
  "lat": 50.8975056,
  "lon": -1.4060140
},
{
  "type": "node",
  "id": 4979653705,
  "lat": 50.8974380,
  "lon": -1.4061248
},
{
  "type": "node",
  "id": 2837027140,
  "lat": 51.0660844,
  "lon": -1.2990339
},
{
  "type": "node",
  "id": 2837027141,
  "lat": 51.0661340,
  "lon": -1.2992249
},
{
  "type": "node",
  "id": 2837027144,
  "lat": 51.0660496,
  "lon": -1.2991704
},
{
  "type": "node",
  "id": 2837027147,
  "lat": 51.0661710,
  "lon": -1.2990796
},
{
  "type": "node",
  "id": 3446334653,
  "lat": 50.7962198,
  "lon": -1.0932842
},
{
  "type": "node",
  "id": 3446334655,
  "lat": 50.7962862,
  "lon": -1.0934897
},
{
  "type": "node",
  "id": 3446334656,
  "lat": 50.7962873,
  "lon": -1.0932283
},
{
  "type": "node",
  "id": 3446334661,
  "lat": 50.7963543,
  "lon": -1.0931730
},
{
  "type": "node",
  "id": 3446334662,
  "lat": 50.7963566,
  "lon": -1.0934341
},
{
  "type": "node",
  "id": 3446334663,
  "lat": 50.7963619,
  "lon": -1.0934571
},
{
  "type": "node",
  "id": 3446334669,
  "lat": 50.7964226,
  "lon": -1.0934116
},
{
  "type": "node",
  "id": 1883456006,
  "lat": 51.0509980,
  "lon": -1.1721620
},
{
  "type": "node",
  "id": 1883456013,
  "lat": 51.0509121,
  "lon": -1.1718391
},
{
  "type": "node",
  "id": 1883456014,
  "lat": 51.0508947,
  "lon": -1.1718956
},
{
  "type": "node",
  "id": 1883456015,
  "lat": 51.0510193,
  "lon": -1.1720930
},
{
  "type": "node",
  "id": 1883456016,
  "lat": 51.0509482,
  "lon": -1.1719374
},
{
  "type": "node",
  "id": 1883456017,
  "lat": 51.0510356,
  "lon": -1.1721058
},
{
  "type": "node",
  "id": 1883456019,
  "lat": 51.0509374,
  "lon": -1.1720495
},
{
  "type": "node",
  "id": 1883456020,
  "lat": 51.0510887,
  "lon": -1.1719339
},
{
  "type": "node",
  "id": 1883456021,
  "lat": 51.0509212,
  "lon": -1.1721020
},
{
  "type": "node",
  "id": 1883456022,
  "lat": 51.0509182,
  "lon": -1.1720346
},
{
  "type": "node",
  "id": 1883456023,
  "lat": 51.0509961,
  "lon": -1.1718615
},
{
  "type": "node",
  "id": 1883456025,
  "lat": 51.0509853,
  "lon": -1.1718963
},
{
  "type": "node",
  "id": 3247632202,
  "lat": 51.0819426,
  "lon": -1.1711297
},
{
  "type": "node",
  "id": 3247632210,
  "lat": 51.0818045,
  "lon": -1.1710354
},
{
  "type": "node",
  "id": 3247632216,
  "lat": 51.0819409,
  "lon": -1.1707322
},
{
  "type": "node",
  "id": 3247632217,
  "lat": 51.0820407,
  "lon": -1.1708043
},
{
  "type": "node",
  "id": 6958623927,
  "lat": 51.1449063,
  "lon": -1.2159956
},
{
  "type": "node",
  "id": 6958623928,
  "lat": 51.1451288,
  "lon": -1.2161251
},
{
  "type": "node",
  "id": 6958623929,
  "lat": 51.1449896,
  "lon": -1.2158769
},
{
  "type": "node",
  "id": 6958623930,
  "lat": 51.1450455,
  "lon": -1.2162437
},
{
  "type": "node",
  "id": 1897915265,
  "lat": 51.1117254,
  "lon": -1.0461494
},
{
  "type": "node",
  "id": 1897915277,
  "lat": 51.1119609,
  "lon": -1.0452945
},
{
  "type": "node",
  "id": 1897915279,
  "lat": 51.1120367,
  "lon": -1.0453722
},
{
  "type": "node",
  "id": 1897915289,
  "lat": 51.1119778,
  "lon": -1.0458497
},
{
  "type": "node",
  "id": 1897915296,
  "lat": 51.1119188,
  "lon": -1.0463432
},
{
  "type": "node",
  "id": 1897915304,
  "lat": 51.1117033,
  "lon": -1.0462064
},
{
  "type": "node",
  "id": 1897915324,
  "lat": 51.1119845,
  "lon": -1.0460240
},
{
  "type": "node",
  "id": 1897915328,
  "lat": 51.1118936,
  "lon": -1.0457585
},
{
  "type": "node",
  "id": 1897915341,
  "lat": 51.1116372,
  "lon": -1.0461333
},
{
  "type": "node",
  "id": 1897915353,
  "lat": 51.1119357,
  "lon": -1.0459757
},
{
  "type": "node",
  "id": 1897915362,
  "lat": 51.1119795,
  "lon": -1.0461903
},
{
  "type": "node",
  "id": 4790819163,
  "lat": 51.1483951,
  "lon": -0.9720603
},
{
  "type": "node",
  "id": 4790819166,
  "lat": 51.1483593,
  "lon": -0.9725751
},
{
  "type": "node",
  "id": 4790819194,
  "lat": 51.1483622,
  "lon": -0.9729566
},
{
  "type": "node",
  "id": 4790819195,
  "lat": 51.1484531,
  "lon": -0.9729727
},
{
  "type": "node",
  "id": 4790819196,
  "lat": 51.1484548,
  "lon": -0.9729499
},
{
  "type": "node",
  "id": 4790819197,
  "lat": 51.1486609,
  "lon": -0.9729915
},
{
  "type": "node",
  "id": 4790819198,
  "lat": 51.1486744,
  "lon": -0.9728332
},
{
  "type": "node",
  "id": 4790819199,
  "lat": 51.1487375,
  "lon": -0.9728439
},
{
  "type": "node",
  "id": 4790819200,
  "lat": 51.1487332,
  "lon": -0.9729164
},
{
  "type": "node",
  "id": 4790819201,
  "lat": 51.1487820,
  "lon": -0.9729258
},
{
  "type": "node",
  "id": 4790819202,
  "lat": 51.1487703,
  "lon": -0.9731470
},
{
  "type": "node",
  "id": 4790819203,
  "lat": 51.1487534,
  "lon": -0.9731806
},
{
  "type": "node",
  "id": 4790819204,
  "lat": 51.1488510,
  "lon": -0.9733965
},
{
  "type": "node",
  "id": 4790819205,
  "lat": 51.1488594,
  "lon": -0.9733844
},
{
  "type": "node",
  "id": 4790819206,
  "lat": 51.1489469,
  "lon": -0.9735869
},
{
  "type": "node",
  "id": 4790819207,
  "lat": 51.1490344,
  "lon": -0.9735064
},
{
  "type": "node",
  "id": 4790819208,
  "lat": 51.1489848,
  "lon": -0.9733697
},
{
  "type": "node",
  "id": 4790819209,
  "lat": 51.1489957,
  "lon": -0.9733603
},
{
  "type": "node",
  "id": 4790819210,
  "lat": 51.1490117,
  "lon": -0.9733670
},
{
  "type": "node",
  "id": 4790819211,
  "lat": 51.1490260,
  "lon": -0.9733576
},
{
  "type": "node",
  "id": 4790819212,
  "lat": 51.1490369,
  "lon": -0.9733402
},
{
  "type": "node",
  "id": 4790819213,
  "lat": 51.1490420,
  "lon": -0.9733120
},
{
  "type": "node",
  "id": 4790819214,
  "lat": 51.1490420,
  "lon": -0.9732919
},
{
  "type": "node",
  "id": 4790819215,
  "lat": 51.1490386,
  "lon": -0.9732677
},
{
  "type": "node",
  "id": 4790819216,
  "lat": 51.1490252,
  "lon": -0.9732583
},
{
  "type": "node",
  "id": 4790819217,
  "lat": 51.1490092,
  "lon": -0.9732476
},
{
  "type": "node",
  "id": 4790819218,
  "lat": 51.1489940,
  "lon": -0.9732530
},
{
  "type": "node",
  "id": 4790819219,
  "lat": 51.1489873,
  "lon": -0.9732315
},
{
  "type": "node",
  "id": 4790819220,
  "lat": 51.1490008,
  "lon": -0.9732087
},
{
  "type": "node",
  "id": 4790825600,
  "lat": 51.1483635,
  "lon": -0.9727129
},
{
  "type": "node",
  "id": 4790825601,
  "lat": 51.1483770,
  "lon": -0.9727145
},
{
  "type": "node",
  "id": 4790826021,
  "lat": 51.1490008,
  "lon": -0.9731779
},
{
  "type": "node",
  "id": 4790826022,
  "lat": 51.1489932,
  "lon": -0.9731470
},
{
  "type": "node",
  "id": 4790826023,
  "lat": 51.1489781,
  "lon": -0.9731323
},
{
  "type": "node",
  "id": 4790826024,
  "lat": 51.1489595,
  "lon": -0.9731283
},
{
  "type": "node",
  "id": 4790826025,
  "lat": 51.1489402,
  "lon": -0.9731403
},
{
  "type": "node",
  "id": 4790826026,
  "lat": 51.1489335,
  "lon": -0.9731618
},
{
  "type": "node",
  "id": 4790826027,
  "lat": 51.1489343,
  "lon": -0.9731873
},
{
  "type": "node",
  "id": 4790826028,
  "lat": 51.1489242,
  "lon": -0.9732007
},
{
  "type": "node",
  "id": 4790826029,
  "lat": 51.1489183,
  "lon": -0.9731819
},
{
  "type": "node",
  "id": 4790826030,
  "lat": 51.1489267,
  "lon": -0.9730371
},
{
  "type": "node",
  "id": 4790826031,
  "lat": 51.1489427,
  "lon": -0.9730451
},
{
  "type": "node",
  "id": 4790826032,
  "lat": 51.1489705,
  "lon": -0.9726964
},
{
  "type": "node",
  "id": 4790826033,
  "lat": 51.1490319,
  "lon": -0.9727058
},
{
  "type": "node",
  "id": 4790826034,
  "lat": 51.1490445,
  "lon": -0.9725543
},
{
  "type": "node",
  "id": 4790826035,
  "lat": 51.1489587,
  "lon": -0.9725368
},
{
  "type": "node",
  "id": 4790826036,
  "lat": 51.1489612,
  "lon": -0.9725060
},
{
  "type": "node",
  "id": 4790826037,
  "lat": 51.1489040,
  "lon": -0.9724912
},
{
  "type": "node",
  "id": 4790826038,
  "lat": 51.1489284,
  "lon": -0.9722203
},
{
  "type": "node",
  "id": 4790826039,
  "lat": 51.1489654,
  "lon": -0.9722284
},
{
  "type": "node",
  "id": 4790826040,
  "lat": 51.1489730,
  "lon": -0.9721305
},
{
  "type": "node",
  "id": 4790826041,
  "lat": 51.1490142,
  "lon": -0.9721372
},
{
  "type": "node",
  "id": 4790826042,
  "lat": 51.1490752,
  "lon": -0.9713842
},
{
  "type": "node",
  "id": 4790826043,
  "lat": 51.1490491,
  "lon": -0.9713842
},
{
  "type": "node",
  "id": 4790826044,
  "lat": 51.1490702,
  "lon": -0.9711293
},
{
  "type": "node",
  "id": 4790826045,
  "lat": 51.1488212,
  "lon": -0.9710777
},
{
  "type": "node",
  "id": 4790826046,
  "lat": 51.1488266,
  "lon": -0.9709885
},
{
  "type": "node",
  "id": 4790826047,
  "lat": 51.1486979,
  "lon": -0.9709657
},
{
  "type": "node",
  "id": 4790826048,
  "lat": 51.1486945,
  "lon": -0.9710355
},
{
  "type": "node",
  "id": 4790826049,
  "lat": 51.1486037,
  "lon": -0.9710221
},
{
  "type": "node",
  "id": 4790826050,
  "lat": 51.1486016,
  "lon": -0.9710335
},
{
  "type": "node",
  "id": 4790826051,
  "lat": 51.1485595,
  "lon": -0.9710281
},
{
  "type": "node",
  "id": 4790826052,
  "lat": 51.1485578,
  "lon": -0.9710817
},
{
  "type": "node",
  "id": 4790826053,
  "lat": 51.1485961,
  "lon": -0.9710891
},
{
  "type": "node",
  "id": 4790826054,
  "lat": 51.1485944,
  "lon": -0.9711267
},
{
  "type": "node",
  "id": 4790826055,
  "lat": 51.1484796,
  "lon": -0.9711139
},
{
  "type": "node",
  "id": 4790826056,
  "lat": 51.1484733,
  "lon": -0.9711823
},
{
  "type": "node",
  "id": 4790826057,
  "lat": 51.1484581,
  "lon": -0.9711790
},
{
  "type": "node",
  "id": 4790826058,
  "lat": 51.1483509,
  "lon": -0.9726787
},
{
  "type": "node",
  "id": 4790826059,
  "lat": 51.1483643,
  "lon": -0.9726820
},
{
  "type": "node",
  "id": 4895033379,
  "lat": 51.1489694,
  "lon": -0.9727103
},
{
  "type": "node",
  "id": 4895033382,
  "lat": 51.1489514,
  "lon": -0.9729359
}

  ]
}
