{
  "version": 0.6,
  "generator": "Overpass API 0.7.55.1011 6c2efc30",
  "osm3s": {
    "timestamp_osm_base": "2020-02-06T12:48:03Z",
    "copyright": "The data included in this document is from www.openstreetmap.org. The data is made available under ODbL."
  },
  "elements": [

{
  "type": "node",
  "id": 305220416,
  "lat": 48.4291708,
  "lon": 14.0367364,
  "tags": {
    "addr:city": "Sankt Martin Im Mühlkreis",
    "addr:housenumber": "5",
    "addr:postcode": "4113",
    "addr:street": "Adsdorf",
    "amenity": "biergarten",
    "building": "brewery",
    "is_in": "Sankt Martin im Mühlkreis",
    "microbrewery": "yes",
    "name": "Brauerei Hofstetten",
    "opening_hours": "Mo-Fr 07:00-12:00,13:00-18:00; Sa 08:00-12:00",
    "website": "https://www.hofstetten.at/"
  }
},
{
  "type": "node",
  "id": 425975979,
  "lat": 48.1575380,
  "lon": 14.0242523,
  "tags": {
    "addr:city": "Wels",
    "addr:country": "AT",
    "addr:housenumber": "11",
    "addr:postcode": "4600",
    "addr:street": "Freiung",
    "amenity": "restaurant",
    "cuisine": "regional",
    "email": "office@gerstl-braeu.at",
    "fax": "+43 7242 351500 50",
    "microbrewery": "yes",
    "name": "Gerstl-Bräu",
    "opening_hours": "Mo-Sa 11:00-24:00",
    "phone": "+43 7242 351500",
    "website": "http://www.gerstl-braeu.at",
    "wheelchair": "limited"
  }
},
{
  "type": "node",
  "id": 1018933247,
  "lat": 48.1559761,
  "lon": 14.4735068,
  "tags": {
    "amenity": "restaurant",
    "email": "Seebuffet@seebuffet.at",
    "microbrewery": "yes",
    "name": "Seebuffet",
    "operator": "Manuela Krieger",
    "phone": "+43-660-1402200",
    "website": "https://www.seebuffet.at/"
  }
},
{
  "type": "node",
  "id": 1028379637,
  "lat": 48.3002390,
  "lon": 14.2869653,
  "tags": {
    "amenity": "restaurant",
    "contact:email": "office@pauls-linz.at",
    "contact:phone": "+43 732 783338",
    "contact:website": "http://www.pauls-linz.at/",
    "cuisine": "burger;german;regional",
    "microbrewery": "yes",
    "name": "paul's Küche.Bar.Greisslerei",
    "opening_hours": "Mo-Th 10:30-01:00, Fr 10:30-03:00, Sa 14:00-22:30,",
    "outdoor_seating": "yes",
    "toilets:wheelchair": "yes",
    "wheelchair": "yes"
  }
},
{
  "type": "node",
  "id": 2574754031,
  "lat": 48.2746122,
  "lon": 13.7257925,
  "tags": {
    "addr:city": "Neumarkt im Hausruckkreis",
    "addr:country": "AT",
    "addr:housenumber": "1",
    "addr:postcode": "4720",
    "addr:street": "Bräuhausgasse",
    "craft": "brewery",
    "email": "office@ritterbraeu.at",
    "name": "Ritterbräu GmbH",
    "phone": "+43 7733 7555 0",
    "website": "http://www.ritterbraeu.at"
  }
},
{
  "type": "node",
  "id": 3667294825,
  "lat": 48.3320236,
  "lon": 14.1752249,
  "tags": {
    "amenity": "pub",
    "microbrewery": "yes",
    "name": "Thor Bräu",
    "operator": "Thor-Bräu Laska GmbH",
    "outdoor_seating": "yes"
  }
},
{
  "type": "node",
  "id": 3713604843,
  "lat": 48.2352112,
  "lon": 13.8289223,
  "tags": {
    "building": "brewery",
    "craft": "brewery",
    "man_made": "works",
    "name": "Brauerei Grieskirchner"
  }
},
{
  "type": "way",
  "id": 188750292,
  "nodes": [
    1993713216,
    2443323375,
    2443323376,
    1993713234,
    1993713226,
    1993713223,
    1993713222,
    1993713192,
    1993713216
  ],
  "tags": {
    "addr:city": "Kremsmünster",
    "addr:country": "AT",
    "addr:housenumber": "1",
    "addr:place": "Sandberg",
    "addr:postcode": "4550",
    "brewery": "Sandbergbräu",
    "building": "brewery",
    "craft": "brewery",
    "email": "m.bergmair@aon.at",
    "microbrewery": "yes",
    "name": "Sandbergbräu",
    "operator": "Martin Bergmair",
    "phone": "+43 664 42 59 812",
    "source": "geoimage.at",
    "website": "http://members.aon.at/sandbergbraeu/"
  }
},
{
  "type": "way",
  "id": 230766059,
  "nodes": [
    2392173140,
    3440917726,
    2392173063,
    2392173111,
    2392173102,
    2392173070,
    2392173072,
    2392173140
  ],
  "tags": {
    "addr:city": "Traun",
    "addr:country": "AT",
    "addr:housenumber": "7",
    "addr:postcode": "4050",
    "addr:street": "Madlschenterweg",
    "amenity": "pub",
    "building": "yes",
    "foot": "yes",
    "microbrewery": "yes",
    "name": "Trauner Bier",
    "opening_hours": "Mo-Th 17:00+; Fr 14:00-24:00; Sa 17:00-24:00"
  }
},
{
  "type": "relation",
  "id": 3869655,
  "members": [
    {
      "type": "way",
      "ref": 291384219,
      "role": "outer"
    },
    {
      "type": "way",
      "ref": 291384215,
      "role": "inner"
    }
  ],
  "tags": {
    "addr:city": "Rutzenham",
    "addr:country": "AT",
    "addr:housenumber": "6",
    "addr:place": "Bergern",
    "addr:postcode": "4690",
    "amenity": "restaurant",
    "building": "yes",
    "contact:email": "office@zum-alfons.at",
    "contact:phone": "+43 7673 2442",
    "contact:website": "http://www.zum-alfons.at",
    "cuisine": "regional",
    "microbrewery": "yes",
    "name": "Zum Alfons",
    "opening_hours": "We-Su 16:00+",
    "operator": "Dorothe & Alfons Baldinger",
    "type": "multipolygon"
  }
},
{
  "type": "node",
  "id": 830342716,
  "lat": 48.0563830,
  "lon": 13.7074586
},
{
  "type": "node",
  "id": 2948517590,
  "lat": 48.0561729,
  "lon": 13.7072849
},
{
  "type": "node",
  "id": 2948517591,
  "lat": 48.0561882,
  "lon": 13.7074953
},
{
  "type": "node",
  "id": 2948517594,
  "lat": 48.0562368,
  "lon": 13.7071478
},
{
  "type": "node",
  "id": 2948517595,
  "lat": 48.0562526,
  "lon": 13.7072719
},
{
  "type": "node",
  "id": 2948517596,
  "lat": 48.0562599,
  "lon": 13.7074837
},
{
  "type": "node",
  "id": 2948517597,
  "lat": 48.0562639,
  "lon": 13.7072983
},
{
  "type": "node",
  "id": 2948517598,
  "lat": 48.0562725,
  "lon": 13.7076488
},
{
  "type": "node",
  "id": 2948517599,
  "lat": 48.0562770,
  "lon": 13.7074761
},
{
  "type": "node",
  "id": 2948517608,
  "lat": 48.0563698,
  "lon": 13.7072808
},
{
  "type": "node",
  "id": 2948517619,
  "lat": 48.0564565,
  "lon": 13.7071105
},
{
  "type": "node",
  "id": 2948517623,
  "lat": 48.0564945,
  "lon": 13.7076111
},
{
  "type": "node",
  "id": 1993713192,
  "lat": 48.0496133,
  "lon": 14.1208668
},
{
  "type": "node",
  "id": 1993713216,
  "lat": 48.0497443,
  "lon": 14.1207529
},
{
  "type": "node",
  "id": 1993713222,
  "lat": 48.0498047,
  "lon": 14.1213593
},
{
  "type": "node",
  "id": 1993713223,
  "lat": 48.0498359,
  "lon": 14.1213322
},
{
  "type": "node",
  "id": 1993713226,
  "lat": 48.0498636,
  "lon": 14.1214034
},
{
  "type": "node",
  "id": 1993713234,
  "lat": 48.0499746,
  "lon": 14.1213069
},
{
  "type": "node",
  "id": 2443323375,
  "lat": 48.0497834,
  "lon": 14.1208536
},
{
  "type": "node",
  "id": 2443323376,
  "lat": 48.0497947,
  "lon": 14.1208438
},
{
  "type": "node",
  "id": 2392173063,
  "lat": 48.2195769,
  "lon": 14.2402505
},
{
  "type": "node",
  "id": 2392173070,
  "lat": 48.2193258,
  "lon": 14.2404629
},
{
  "type": "node",
  "id": 2392173072,
  "lat": 48.2192716,
  "lon": 14.2400061
},
{
  "type": "node",
  "id": 2392173102,
  "lat": 48.2194296,
  "lon": 14.2404352
},
{
  "type": "node",
  "id": 2392173111,
  "lat": 48.2195936,
  "lon": 14.2403914
},
{
  "type": "node",
  "id": 2392173140,
  "lat": 48.2193575,
  "lon": 14.2399832
},
{
  "type": "node",
  "id": 3440917726,
  "lat": 48.2193950,
  "lon": 14.2402991
},
{
  "type": "way",
  "id": 291384215,
  "nodes": [
    2948517597,
    2948517608,
    830342716,
    2948517599,
    2948517597
  ]
},
{
  "type": "way",
  "id": 291384219,
  "nodes": [
    2948517595,
    2948517594,
    2948517619,
    2948517623,
    2948517598,
    2948517596,
    2948517591,
    2948517590,
    2948517595
  ]
}

  ]
}
