{
  "version": 0.6,
  "generator": "Overpass API 0.7.55.9 ab41fea6",
  "osm3s": {
    "timestamp_osm_base": "2020-02-06T10:26:01Z",
    "copyright": "The data included in this document is from www.openstreetmap.org. The data is made available under ODbL."
  },
  "elements": [

{
  "type": "node",
  "id": 895300963,
  "lat": 50.6097804,
  "lon": 3.1638946,
  "tags": {
    "contact:phone": "+33 3 20 41 58 48",
    "contact:website": "https://www.moulinsdascq.fr",
    "craft": "brewery",
    "name": "Brasserie Moulins d'Ascq"
  }
},
{
  "type": "node",
  "id": 1642969752,
  "lat": 50.7716826,
  "lon": 3.3892294,
  "tags": {
    "addr:housenumber": "4a",
    "addr:postcode": "8552",
    "addr:street": "Vaartstraat",
    "amenity": "brewery",
    "craft": "brewery",
    "name": "Alvinne",
    "source": "knowledge",
    "website": "http://www.alvinne.be"
  }
},
{
  "type": "node",
  "id": 4042007519,
  "lat": 50.8621368,
  "lon": 3.2980461,
  "tags": {
    "addr:city": "Bavikhove",
    "addr:housenumber": "33",
    "addr:postcode": "8531",
    "addr:street": "Rijksweg",
    "craft": "brewery",
    "name": "Brouwerij De Brabandere (Bavik)"
  }
},
{
  "type": "node",
  "id": 4442146051,
  "lat": 50.6361629,
  "lon": 3.0692959,
  "tags": {
    "addr:city": "Lille",
    "addr:housenumber": "18",
    "addr:postcode": "59000",
    "addr:street": "Place de la Gare",
    "amenity": "restaurant",
    "brand": "Les 3 Brasseurs",
    "brand:wikidata": "Q3230326",
    "brand:wikipedia": "fr:Les 3 Brasseurs",
    "contact:phone": "+33 3 20 06 46 25",
    "microbrewery": "yes",
    "name": "Les 3 Brasseurs - Lille",
    "opening_hours": "Mo-Th 11:30-23:30; Fr-Sa 11:30-00:30; Su 12:00-23:00",
    "outdoor_seating": "yes"
  }
},
{
  "type": "node",
  "id": 4688439590,
  "lat": 50.6788844,
  "lon": 3.1399777,
  "tags": {
    "contact:phone": "+33 9 67 37 28 19",
    "contact:website": "http://www.brasserie-cambier.fr",
    "craft": "brewery",
    "name": "Brasserie Cambier",
    "opening_hours": "We 16:00-19:00; Th,Fr 17:00-20:00; Sa 10:00-12:30,14:00-19:00"
  }
},
{
  "type": "node",
  "id": 4947428153,
  "lat": 50.7385267,
  "lon": 3.1369159,
  "tags": {
    "amenity": "restaurant",
    "brand": "Les 3 Brasseurs",
    "brand:wikidata": "Q3230326",
    "brand:wikipedia": "fr:Les 3 Brasseurs",
    "microbrewery": "yes",
    "name": "Les 3 brasseurs - Roncq",
    "opening_hours": "Su-Th 10:30-22:30; Fr-Sa 10:30-23:00"
  }
},
{
  "type": "node",
  "id": 5264211732,
  "lat": 51.1078218,
  "lon": 3.2257686,
  "tags": {
    "craft": "brewery",
    "name": "Brouwerij Stokhove",
    "note": "as of Dec. 2017 they are still across the street at #16",
    "website": "http://www.brouwerijstokhove.be/"
  }
},
{
  "type": "node",
  "id": 5367907722,
  "lat": 50.7430853,
  "lon": 3.1452093,
  "tags": {
    "amenity": "restaurant",
    "craft": "brewery",
    "cuisine": "coffee_shop",
    "microbrewery": "yes",
    "name": "Brasserie des Flandres"
  }
},
{
  "type": "node",
  "id": 5503430168,
  "lat": 50.6229381,
  "lon": 3.1011413,
  "tags": {
    "craft": "brewery",
    "name": "Tous Houblon",
    "operator": "Des trucs avec les gens",
    "website": "https://toushoublon.wordpress.com/"
  }
},
{
  "type": "node",
  "id": 5718530312,
  "lat": 50.8393073,
  "lon": 3.2361490,
  "tags": {
    "craft": "brewery"
  }
},
{
  "type": "node",
  "id": 5843491028,
  "lat": 50.6070854,
  "lon": 3.3919106,
  "tags": {
    "craft": "brewery"
  }
},
{
  "type": "node",
  "id": 5902188365,
  "lat": 50.7953597,
  "lon": 3.0938310,
  "tags": {
    "addr:housenumber": "263",
    "addr:street": "Hogeweg",
    "craft": "brewery",
    "name": "Brouwerij Eutropius",
    "phone": "+32 494 39 99 66"
  }
},
{
  "type": "node",
  "id": 6067309876,
  "lat": 50.6661957,
  "lon": 2.8733647,
  "tags": {
    "contact:website": "http://brasserie-langelus.fr",
    "craft": "brewery",
    "name": "Brasserie Lepers"
  }
},
{
  "type": "node",
  "id": 6196431146,
  "lat": 50.6772655,
  "lon": 3.1347050,
  "tags": {
    "addr:housenumber": "148",
    "addr:street": "Rue Émile Dellette",
    "craft": "brewery",
    "name": "Micro-brasserie Waale",
    "product": "beer",
    "website": "http://www.waale.beer/"
  }
},
{
  "type": "node",
  "id": 6240051383,
  "lat": 50.6187300,
  "lon": 3.0775103,
  "tags": {
    "craft": "brewery",
    "name": "Brasserie du Singe Savant",
    "website": "http://www.singe-savant.com"
  }
},
{
  "type": "node",
  "id": 6240522424,
  "lat": 50.6294281,
  "lon": 3.0734490,
  "tags": {
    "contact:facebook": "https://www.facebook.com/BrasserieLIL/",
    "contact:phone": "+33 7 68 62 62 21",
    "contact:website": "http://b-lil.fr/",
    "craft": "brewery",
    "name": "Brasserie LIL"
  }
},
{
  "type": "node",
  "id": 6902884287,
  "lat": 50.6834416,
  "lon": 3.0409947,
  "tags": {
    "craft": "brewery",
    "name": "Brasserie Tandem"
  }
},
{
  "type": "node",
  "id": 6924345335,
  "lat": 50.7536679,
  "lon": 3.1314861,
  "tags": {
    "contact:phone": "+33 3 20 68 18 59",
    "contact:website": "http://www.brasserie-lilloise.com",
    "craft": "brewery",
    "name": "Brasserie Lilloise"
  }
},
{
  "type": "node",
  "id": 6949765472,
  "lat": 50.6903704,
  "lon": 3.1716823,
  "tags": {
    "contact:facebook": "https://www.facebook.com/hoppyurbanbrew/",
    "contact:website": "https://hoppyurbanbrew.com/",
    "craft": "brewery",
    "name": "Brasserie HUB"
  }
},
{
  "type": "node",
  "id": 6949765473,
  "lat": 50.5246514,
  "lon": 3.1765665,
  "tags": {
    "contact:facebook": "https://www.facebook.com/LaGueuleDeBrasserie/",
    "craft": "brewery",
    "name": "Brasserie La Gueule De"
  }
},
{
  "type": "way",
  "id": 48633944,
  "nodes": [
    617635495,
    617635469,
    617635485,
    617635486,
    617635487,
    617635488,
    617635493,
    617635492,
    617635494,
    2156461379,
    617635495
  ],
  "tags": {
    "building": "yes",
    "contact:phone": "+33 9 82 22 39 40",
    "craft": "brewery",
    "description": "La Micro-Brasserie Du Vieux-Lille",
    "name": "Célestin",
    "opening_hours": "We 15:00-20:00; Th-Sa 11:00-20:00",
    "shop": "alcohol",
    "source": "cadastre-dgi-fr source : Direction Générale des Impôts - Cadastre. Mise à jour : 2010",
    "website": "https://www.celestinlille.fr/"
  }
},
{
  "type": "way",
  "id": 52032564,
  "nodes": [
    6802191326,
    663310602,
    663310603,
    6802191327,
    6802191328,
    663310586,
    663310587,
    663310575,
    663310585,
    663310583,
    663310584,
    663310581,
    663310582,
    663310578,
    663310580,
    663310577,
    6802191326
  ],
  "tags": {
    "amenity": "restaurant",
    "brand": "Les 3 Brasseurs",
    "brand:wikidata": "Q3230326",
    "brand:wikipedia": "fr:Les 3 Brasseurs",
    "building": "yes",
    "microbrewery": "yes",
    "name": "Les 3 brasseurs - Lomme",
    "opening_hours": "Mo-Th 11:30-00:00; Fr-Sa 11:30-00:30; Su 11:30-23:30",
    "source": "cadastre-dgi-fr source : Direction Générale des Impôts - Cadastre. Mise à jour : 2010",
    "wheelchair": "yes"
  }
},
{
  "type": "way",
  "id": 95274367,
  "nodes": [
    1104998316,
    1105005112,
    1105000192,
    1104993141,
    1105036143,
    1105048352,
    1105007285,
    1104992641,
    6799919691,
    1105028026,
    1105010564,
    6799919692,
    6799919693,
    1105028921,
    6799919694,
    6799919695,
    6799919696,
    6799919697,
    1105060637,
    1104992648,
    6799919698,
    6799919699,
    6799919700,
    6799919701,
    6799919702,
    6799919703,
    6799919704,
    1104990869,
    6799919705,
    6799919706,
    6799919707,
    1105051589,
    6799919711,
    6799919710,
    6799919709,
    6799919708,
    1104989876,
    1105032227,
    1105050625,
    1105025069,
    1104999770,
    1105009577,
    1104988489,
    6799919712,
    6799919713,
    1105011941,
    1104997594,
    6799919714,
    6799919715,
    1105013619,
    1104998316
  ],
  "tags": {
    "amenity": "restaurant",
    "brand": "Les 3 Brasseurs",
    "brand:wikidata": "Q3230326",
    "brand:wikipedia": "fr:Les 3 Brasseurs",
    "building": "yes",
    "microbrewery": "yes",
    "name": "Les 3 Brasseurs - Englos",
    "opening_hours": "Mo-Th 11:30-22:00; Fr-Sa 11:30-23:30; Su 12:00-14:45,19:00-21:45",
    "source": "cadastre-dgi-fr source : Direction Générale des Impôts - Cadastre. Mise à jour : 2011",
    "wheelchair": "yes"
  }
},
{
  "type": "way",
  "id": 151702477,
  "nodes": [
    1645465042,
    1645465110,
    1645465038,
    1645465054,
    1645465058,
    1645465080,
    1645465074,
    1645465037,
    1645465062,
    1645465039,
    1645465100,
    1645465060,
    1645465097,
    4598500664,
    1645465050,
    4598500665,
    4598500666,
    4598500667,
    1645465042
  ],
  "tags": {
    "addr:city": "Pipaix",
    "addr:housenumber": "28",
    "addr:postcode": "7904",
    "addr:street": "Chaussée de Mons",
    "building": "yes",
    "craft": "brewery",
    "name": "Brasserie Dubuisson",
    "phone": "+32 69 67 22 22"
  }
},
{
  "type": "way",
  "id": 151702483,
  "nodes": [
    1645465116,
    4598500606,
    1645465040,
    4598500662,
    4598500655,
    4598500661,
    1645465106,
    1645465064,
    4598500650,
    1645465068,
    1645465070,
    1645465066,
    1645465049,
    1645465116
  ],
  "tags": {
    "building": "brewery",
    "source": "SPW_aerial;Bing"
  }
},
{
  "type": "way",
  "id": 170427041,
  "nodes": [
    1815689896,
    1815689882,
    1815689886,
    1815689884,
    2829154019,
    1815678188,
    1815678176,
    1815689843,
    1815689825,
    1815689813,
    2829153777,
    4789456675,
    1815689783,
    6177051533,
    6177051534,
    6177051536,
    6177051535,
    6177051537,
    1815689785,
    5611863646,
    1815689816,
    1815689818,
    1815689849,
    5628805931,
    5628805997,
    1815689859,
    5628805996,
    5628805995,
    1815689894,
    2829154075,
    1815689896
  ],
  "tags": {
    "addr:housenumber": "133-141",
    "addr:street": "Spanjestraat",
    "craft": "brewery",
    "email": "info@rodenbach.be",
    "landuse": "industrial",
    "man_made": "works",
    "name": "Brouwerij Rodenbach",
    "operator": "Palm Breweries",
    "phone": "+32 51 27 27 00",
    "product": "beer",
    "website": "https://cheers.rodenbach.be/nl",
    "wikidata": "Q2369075",
    "wikipedia": "nl:Rodenbach (brouwerij)"
  }
},
{
  "type": "way",
  "id": 170427043,
  "nodes": [
    1815689825,
    1815689813,
    2829153777,
    4789456675,
    1815689783,
    1815689777,
    1815689779,
    1815689789,
    1815689788,
    1815689793,
    1815689792,
    1815689805,
    1815689823,
    1815689821,
    1815689819,
    1815689828,
    1815689830,
    1815689862,
    1815689861,
    1815689884,
    2829154019,
    1815678188,
    1815678176,
    1815689843,
    1815689825
  ],
  "tags": {
    "building": "brewery"
  }
},
{
  "type": "way",
  "id": 170427044,
  "nodes": [
    5628805759,
    1815689847,
    5628805995,
    1815689894,
    2829154075,
    1815689896,
    2828455983,
    1815689867,
    1815689864,
    1815689858,
    1815689860,
    5628805976,
    5628805974,
    5628805973,
    5628805975,
    1815689811,
    1815689809,
    5628805984,
    5628805981,
    5628805982,
    5628805983,
    5628805980,
    5628805979,
    5628805977,
    5628805978,
    1815689786,
    1815689787,
    1815689780,
    1815689781,
    1815689824,
    1815689829,
    6798300821,
    5628805759
  ],
  "tags": {
    "building": "brewery"
  }
},
{
  "type": "way",
  "id": 170427045,
  "nodes": [
    1815689841,
    1815689826,
    1815689827,
    1815689845,
    1815689841
  ],
  "tags": {
    "building": "brewery"
  }
},
{
  "type": "way",
  "id": 174748607,
  "nodes": [
    2733383336,
    2733383327,
    1854133015,
    1854133019,
    2733383332,
    1854133122,
    2733383343,
    2733383344,
    1854133118,
    2733383336
  ],
  "tags": {
    "addr:housenumber": "5",
    "addr:street": "Brouwtorenstraat",
    "craft": "brewery",
    "email": "info@omer.be",
    "landuse": "industrial",
    "name": "Brouwerij Omer Vander Ghinste",
    "phone": "+32 56 23 51 71",
    "website": "https://www.omervanderghinste.be/nl/de-brouwerij",
    "wikidata": "Q2164364"
  }
},
{
  "type": "way",
  "id": 174748610,
  "nodes": [
    1854133032,
    1854133034,
    1854133024,
    1854133029,
    1854133040,
    1854133043,
    1854133077,
    1854133075,
    1854133088,
    1854133086,
    1854133079,
    1854133081,
    1854133082,
    1854133084,
    1854133068,
    1854133065,
    1854133048,
    1854133045,
    1854133032
  ],
  "tags": {
    "building": "brewery"
  }
},
{
  "type": "way",
  "id": 192242296,
  "nodes": [
    2028006449,
    2028006442,
    2028006428,
    2028006425,
    2028006408,
    2028006400,
    2028006394,
    2028006393,
    2028006389,
    2028006378,
    2028006380,
    2028006374,
    2028006376,
    2028006370,
    2028006372,
    2028006365,
    2028006367,
    2028006364,
    2028006404,
    2028006402,
    2028006413,
    2028006424,
    2028006435,
    2028006429,
    2028006444,
    2028006445,
    2028006464,
    2028006466,
    2028006465,
    2028006472,
    2028006474,
    2028006483,
    2028006477,
    2028006467,
    2028006461,
    2028006459,
    2028006446,
    2028006440,
    2028006439,
    2028006443,
    2028006449
  ],
  "tags": {
    "building": "brewery",
    "man_made": "works",
    "name": "Brouwerij Roman",
    "wikidata": "Q2918775"
  }
},
{
  "type": "way",
  "id": 192242298,
  "nodes": [
    2028006470,
    2028006484,
    2028006488,
    3203411750,
    3203411749,
    3203411748,
    2028006457,
    2028006462,
    2028006485,
    2028006489,
    2028006487,
    2028006491,
    2028006481,
    2028006482,
    2028006473,
    2028006463,
    2028006460,
    2028006458,
    2028006455,
    2028006456,
    2028006454,
    2028006452,
    2028006448,
    2028006447,
    2028006438,
    2028006437,
    2028006436,
    2028006433,
    2028006431,
    2028006450,
    2028006451,
    2028006471,
    2028006470
  ],
  "tags": {
    "building": "brewery"
  }
},
{
  "type": "way",
  "id": 309778176,
  "nodes": [
    3151239662,
    3151239663,
    3151239664,
    3151239665,
    3151239662
  ],
  "tags": {
    "addr:housenumber": "1",
    "addr:street": "Houten Paard",
    "building": "commercial",
    "craft": "brewery",
    "name": "Brouwerij De Kazematten"
  }
},
{
  "type": "way",
  "id": 318796609,
  "nodes": [
    3251779481,
    3251779484,
    3251779477,
    3251779480,
    3251779478,
    3251779476,
    3251779479,
    3251779483,
    3251779486,
    3251779475,
    3251779482,
    3251779485,
    3251779481
  ],
  "tags": {
    "addr:housenumber": "1",
    "addr:postcode": "8480",
    "addr:street": "Markt",
    "building": "brewery",
    "man_made": "works",
    "name": "Brouwerij Strubbe",
    "product": "beer",
    "wikidata": "Q2732852"
  }
},
{
  "type": "way",
  "id": 532706655,
  "nodes": [
    5168952582,
    5168952583,
    5168952584,
    5168952578,
    5168952581,
    5168952585,
    5168952586,
    5168952587,
    5168952588,
    5168952589,
    5168952590,
    5168952582
  ],
  "tags": {
    "addr:city": "Ploegsteert",
    "addr:housenumber": "150",
    "addr:postcode": "7782",
    "addr:street": "Rue d'Armentières",
    "building": "brewery",
    "contact:website": "http://www.vanuxeem.com/fr/article/24949/nos-bi%C3%A8res",
    "craft": "brewery",
    "name": "Brasserie Vanuxeem",
    "product": "beer;wine"
  }
},
{
  "type": "way",
  "id": 538065349,
  "nodes": [
    5208921022,
    5208921025,
    4092748976,
    4092748975,
    4092748944,
    4092748945,
    4092748946,
    4092748947,
    4092748948,
    5208921022
  ],
  "tags": {
    "craft": "brewery",
    "landuse": "industrial",
    "name": "Brasserie des Légendes"
  }
},
{
  "type": "way",
  "id": 674585276,
  "nodes": [
    6317471926,
    6317471927,
    6317471928,
    6317471929,
    6317471930,
    6317471931,
    6317471932,
    6317471933,
    6317471934,
    6317471926
  ],
  "tags": {
    "addr:housenumber": "1A",
    "addr:street": "Rue du Petit Tourcoing",
    "building": "industrial",
    "craft": "brewery",
    "name": "De Ranke"
  }
},
{
  "type": "way",
  "id": 724877000,
  "nodes": [
    1815689784,
    1815689791,
    1815689790,
    1815689782,
    1815689784
  ],
  "tags": {
    "building": "brewery"
  }
},
{
  "type": "way",
  "id": 724877001,
  "nodes": [
    1815689784,
    6798300820,
    6798300819,
    1815689822,
    1815689820,
    1815689791,
    1815689784
  ],
  "tags": {
    "building": "brewery"
  }
},
{
  "type": "way",
  "id": 724877002,
  "nodes": [
    1815689822,
    6798300819,
    6798300820,
    1815689785,
    5611863646,
    1815689816,
    1815689818,
    1815689849,
    5628805931,
    5628805997,
    5628805998,
    5628805756,
    5628805757,
    5628805758,
    5628805759,
    6798300821,
    1815689829,
    1815689822
  ],
  "tags": {
    "building": "brewery"
  }
},
{
  "type": "way",
  "id": 729374199,
  "nodes": [
    6833134712,
    6833134738,
    6833134713,
    2898968704,
    6833134716,
    6833134714,
    6833134735,
    6833134715,
    6833113149,
    6833113148,
    6833134712
  ],
  "tags": {
    "addr:housenumber": "114",
    "addr:street": "Wijtschatestraat",
    "building": "no",
    "craft": "brewery",
    "landuse": "commercial",
    "name": "Brouwerij Bartier",
    "name:en": "Bartier Brewery"
  }
},
{
  "type": "way",
  "id": 755161472,
  "nodes": [
    7054279407,
    7054279408,
    7054279410,
    7054279415,
    7054279414,
    7054279413,
    7054279411,
    7054279412,
    7054279409,
    7054279416,
    7054279417,
    7054279407
  ],
  "tags": {
    "addr:housenumber": "5",
    "addr:street": "Brouwtorenstraat",
    "craft": "brewery",
    "email": "info@omer.be",
    "landuse": "industrial",
    "name": "Brouwerij Omer Vander Ghinste",
    "phone": "+32 56 23 51 71",
    "website": "https://www.omervanderghinste.be/nl/de-brouwerij",
    "wikidata": "Q2164364"
  }
},
{
  "type": "relation",
  "id": 8900227,
  "members": [
    {
      "type": "way",
      "ref": 641965034,
      "role": "outer"
    },
    {
      "type": "way",
      "ref": 641965033,
      "role": "inner"
    }
  ],
  "tags": {
    "alt_name": "Brasserie Ellezelloise",
    "brewery": "Quintine",
    "building": "brewery",
    "name": "Brasserie des Légendes",
    "product": "beer",
    "type": "multipolygon",
    "website": "http://www.brasseriedeslegendes.be/"
  }
},
{
  "type": "node",
  "id": 5168952578,
  "lat": 50.7145886,
  "lon": 2.8851503
},
{
  "type": "node",
  "id": 5168952581,
  "lat": 50.7148023,
  "lon": 2.8859756
},
{
  "type": "node",
  "id": 5168952582,
  "lat": 50.7140892,
  "lon": 2.8849552
},
{
  "type": "node",
  "id": 5168952583,
  "lat": 50.7145063,
  "lon": 2.8848658
},
{
  "type": "node",
  "id": 5168952584,
  "lat": 50.7145423,
  "lon": 2.8851829
},
{
  "type": "node",
  "id": 5168952585,
  "lat": 50.7147997,
  "lon": 2.8860610
},
{
  "type": "node",
  "id": 5168952586,
  "lat": 50.7148383,
  "lon": 2.8860569
},
{
  "type": "node",
  "id": 5168952587,
  "lat": 50.7149053,
  "lon": 2.8867521
},
{
  "type": "node",
  "id": 5168952588,
  "lat": 50.7145423,
  "lon": 2.8867806
},
{
  "type": "node",
  "id": 5168952589,
  "lat": 50.7145011,
  "lon": 2.8861220
},
{
  "type": "node",
  "id": 5168952590,
  "lat": 50.7141639,
  "lon": 2.8861870
},
{
  "type": "node",
  "id": 1104988489,
  "lat": 50.6286560,
  "lon": 2.9678050
},
{
  "type": "node",
  "id": 1104989876,
  "lat": 50.6287770,
  "lon": 2.9681170
},
{
  "type": "node",
  "id": 1104990869,
  "lat": 50.6287436,
  "lon": 2.9681303
},
{
  "type": "node",
  "id": 1104992641,
  "lat": 50.6286080,
  "lon": 2.9681420
},
{
  "type": "node",
  "id": 1104992648,
  "lat": 50.6287119,
  "lon": 2.9681486
},
{
  "type": "node",
  "id": 1104993141,
  "lat": 50.6285430,
  "lon": 2.9678950
},
{
  "type": "node",
  "id": 1104997594,
  "lat": 50.6286310,
  "lon": 2.9677990
},
{
  "type": "node",
  "id": 1104998316,
  "lat": 50.6285660,
  "lon": 2.9678430
},
{
  "type": "node",
  "id": 1104999770,
  "lat": 50.6287290,
  "lon": 2.9677870
},
{
  "type": "node",
  "id": 1105000192,
  "lat": 50.6285650,
  "lon": 2.9678860
},
{
  "type": "node",
  "id": 1105005112,
  "lat": 50.6285600,
  "lon": 2.9678580
},
{
  "type": "node",
  "id": 1105007285,
  "lat": 50.6285860,
  "lon": 2.9681510
},
{
  "type": "node",
  "id": 1105009577,
  "lat": 50.6287190,
  "lon": 2.9677780
},
{
  "type": "node",
  "id": 1105010564,
  "lat": 50.6286750,
  "lon": 2.9681570
},
{
  "type": "node",
  "id": 1105011941,
  "lat": 50.6286485,
  "lon": 2.9677917
},
{
  "type": "node",
  "id": 1105013619,
  "lat": 50.6286290,
  "lon": 2.9678160
},
{
  "type": "node",
  "id": 1105025069,
  "lat": 50.6287660,
  "lon": 2.9679990
},
{
  "type": "node",
  "id": 1105028026,
  "lat": 50.6286220,
  "lon": 2.9681790
},
{
  "type": "node",
  "id": 1105028921,
  "lat": 50.6286860,
  "lon": 2.9681650
},
{
  "type": "node",
  "id": 1105032227,
  "lat": 50.6287830,
  "lon": 2.9681020
},
{
  "type": "node",
  "id": 1105036143,
  "lat": 50.6285310,
  "lon": 2.9679270
},
{
  "type": "node",
  "id": 1105048352,
  "lat": 50.6285650,
  "lon": 2.9681320
},
{
  "type": "node",
  "id": 1105050625,
  "lat": 50.6287690,
  "lon": 2.9680180
},
{
  "type": "node",
  "id": 1105051589,
  "lat": 50.6287546,
  "lon": 2.9681375
},
{
  "type": "node",
  "id": 1105060637,
  "lat": 50.6287094,
  "lon": 2.9681439
},
{
  "type": "node",
  "id": 6799919691,
  "lat": 50.6286124,
  "lon": 2.9681696
},
{
  "type": "node",
  "id": 6799919692,
  "lat": 50.6286780,
  "lon": 2.9681623
},
{
  "type": "node",
  "id": 6799919693,
  "lat": 50.6286825,
  "lon": 2.9681653
},
{
  "type": "node",
  "id": 6799919694,
  "lat": 50.6286890,
  "lon": 2.9681629
},
{
  "type": "node",
  "id": 6799919695,
  "lat": 50.6286906,
  "lon": 2.9681602
},
{
  "type": "node",
  "id": 6799919696,
  "lat": 50.6286925,
  "lon": 2.9681558
},
{
  "type": "node",
  "id": 6799919697,
  "lat": 50.6286930,
  "lon": 2.9681504
},
{
  "type": "node",
  "id": 6799919698,
  "lat": 50.6287140,
  "lon": 2.9681506
},
{
  "type": "node",
  "id": 6799919699,
  "lat": 50.6287171,
  "lon": 2.9681515
},
{
  "type": "node",
  "id": 6799919700,
  "lat": 50.6287200,
  "lon": 2.9681509
},
{
  "type": "node",
  "id": 6799919701,
  "lat": 50.6287227,
  "lon": 2.9681495
},
{
  "type": "node",
  "id": 6799919702,
  "lat": 50.6287252,
  "lon": 2.9681457
},
{
  "type": "node",
  "id": 6799919703,
  "lat": 50.6287264,
  "lon": 2.9681418
},
{
  "type": "node",
  "id": 6799919704,
  "lat": 50.6287268,
  "lon": 2.9681369
},
{
  "type": "node",
  "id": 6799919705,
  "lat": 50.6287453,
  "lon": 2.9681341
},
{
  "type": "node",
  "id": 6799919706,
  "lat": 50.6287479,
  "lon": 2.9681368
},
{
  "type": "node",
  "id": 6799919707,
  "lat": 50.6287505,
  "lon": 2.9681382
},
{
  "type": "node",
  "id": 6799919708,
  "lat": 50.6287607,
  "lon": 2.9681234
},
{
  "type": "node",
  "id": 6799919709,
  "lat": 50.6287602,
  "lon": 2.9681294
},
{
  "type": "node",
  "id": 6799919710,
  "lat": 50.6287589,
  "lon": 2.9681336
},
{
  "type": "node",
  "id": 6799919711,
  "lat": 50.6287571,
  "lon": 2.9681361
},
{
  "type": "node",
  "id": 6799919712,
  "lat": 50.6286546,
  "lon": 2.9677998
},
{
  "type": "node",
  "id": 6799919713,
  "lat": 50.6286522,
  "lon": 2.9677949
},
{
  "type": "node",
  "id": 6799919714,
  "lat": 50.6286291,
  "lon": 2.9678047
},
{
  "type": "node",
  "id": 6799919715,
  "lat": 50.6286282,
  "lon": 2.9678104
},
{
  "type": "node",
  "id": 663310575,
  "lat": 50.6513993,
  "lon": 2.9860631
},
{
  "type": "node",
  "id": 663310577,
  "lat": 50.6516650,
  "lon": 2.9857998
},
{
  "type": "node",
  "id": 663310578,
  "lat": 50.6515964,
  "lon": 2.9858331
},
{
  "type": "node",
  "id": 663310580,
  "lat": 50.6516553,
  "lon": 2.9857753
},
{
  "type": "node",
  "id": 663310581,
  "lat": 50.6514926,
  "lon": 2.9858879
},
{
  "type": "node",
  "id": 663310582,
  "lat": 50.6515829,
  "lon": 2.9857993
},
{
  "type": "node",
  "id": 663310583,
  "lat": 50.6514456,
  "lon": 2.9859745
},
{
  "type": "node",
  "id": 663310584,
  "lat": 50.6515042,
  "lon": 2.9859171
},
{
  "type": "node",
  "id": 663310585,
  "lat": 50.6514579,
  "lon": 2.9860057
},
{
  "type": "node",
  "id": 663310586,
  "lat": 50.6514721,
  "lon": 2.9861959
},
{
  "type": "node",
  "id": 663310587,
  "lat": 50.6514576,
  "lon": 2.9862101
},
{
  "type": "node",
  "id": 663310602,
  "lat": 50.6517885,
  "lon": 2.9858910
},
{
  "type": "node",
  "id": 663310603,
  "lat": 50.6517708,
  "lon": 2.9859083
},
{
  "type": "node",
  "id": 6802191326,
  "lat": 50.6517279,
  "lon": 2.9857381
},
{
  "type": "node",
  "id": 6802191327,
  "lat": 50.6517923,
  "lon": 2.9859625
},
{
  "type": "node",
  "id": 6802191328,
  "lat": 50.6514951,
  "lon": 2.9862540
},
{
  "type": "node",
  "id": 617635469,
  "lat": 50.6392439,
  "lon": 3.0592666
},
{
  "type": "node",
  "id": 617635485,
  "lat": 50.6392832,
  "lon": 3.0593174
},
{
  "type": "node",
  "id": 617635486,
  "lat": 50.6393101,
  "lon": 3.0592725
},
{
  "type": "node",
  "id": 617635487,
  "lat": 50.6392740,
  "lon": 3.0592199
},
{
  "type": "node",
  "id": 617635488,
  "lat": 50.6392908,
  "lon": 3.0591934
},
{
  "type": "node",
  "id": 617635492,
  "lat": 50.6393366,
  "lon": 3.0592735
},
{
  "type": "node",
  "id": 617635493,
  "lat": 50.6393399,
  "lon": 3.0592682
},
{
  "type": "node",
  "id": 617635494,
  "lat": 50.6392245,
  "lon": 3.0594554
},
{
  "type": "node",
  "id": 617635495,
  "lat": 50.6391696,
  "lon": 3.0593828
},
{
  "type": "node",
  "id": 2156461379,
  "lat": 50.6392001,
  "lon": 3.0594232
},
{
  "type": "node",
  "id": 6317471926,
  "lat": 50.7332832,
  "lon": 3.2983012
},
{
  "type": "node",
  "id": 6317471927,
  "lat": 50.7337365,
  "lon": 3.2993150
},
{
  "type": "node",
  "id": 6317471928,
  "lat": 50.7332917,
  "lon": 3.2994250
},
{
  "type": "node",
  "id": 6317471929,
  "lat": 50.7329760,
  "lon": 3.2992426
},
{
  "type": "node",
  "id": 6317471930,
  "lat": 50.7328385,
  "lon": 3.2989369
},
{
  "type": "node",
  "id": 6317471931,
  "lat": 50.7329047,
  "lon": 3.2988671
},
{
  "type": "node",
  "id": 6317471932,
  "lat": 50.7329963,
  "lon": 3.2990790
},
{
  "type": "node",
  "id": 6317471933,
  "lat": 50.7330863,
  "lon": 3.2989905
},
{
  "type": "node",
  "id": 6317471934,
  "lat": 50.7329505,
  "lon": 3.2986740
},
{
  "type": "node",
  "id": 2898968704,
  "lat": 50.7841183,
  "lon": 2.8779694
},
{
  "type": "node",
  "id": 6833113148,
  "lat": 50.7845978,
  "lon": 2.8775069
},
{
  "type": "node",
  "id": 6833113149,
  "lat": 50.7846599,
  "lon": 2.8777883
},
{
  "type": "node",
  "id": 6833134712,
  "lat": 50.7845780,
  "lon": 2.8774459
},
{
  "type": "node",
  "id": 6833134713,
  "lat": 50.7840647,
  "lon": 2.8777413
},
{
  "type": "node",
  "id": 6833134714,
  "lat": 50.7842810,
  "lon": 2.8783955
},
{
  "type": "node",
  "id": 6833134715,
  "lat": 50.7847356,
  "lon": 2.8781342
},
{
  "type": "node",
  "id": 6833134716,
  "lat": 50.7841802,
  "lon": 2.8779370
},
{
  "type": "node",
  "id": 6833134735,
  "lat": 50.7846658,
  "lon": 2.8781746
},
{
  "type": "node",
  "id": 6833134738,
  "lat": 50.7845097,
  "lon": 2.8774831
},
{
  "type": "node",
  "id": 3151239662,
  "lat": 50.8470585,
  "lon": 2.8913914
},
{
  "type": "node",
  "id": 3151239663,
  "lat": 50.8471257,
  "lon": 2.8915970
},
{
  "type": "node",
  "id": 3151239664,
  "lat": 50.8467005,
  "lon": 2.8916069
},
{
  "type": "node",
  "id": 3151239665,
  "lat": 50.8466916,
  "lon": 2.8914184
},
{
  "type": "node",
  "id": 1815678176,
  "lat": 50.9470041,
  "lon": 3.1362314
},
{
  "type": "node",
  "id": 1815678188,
  "lat": 50.9471527,
  "lon": 3.1361267
},
{
  "type": "node",
  "id": 1815689777,
  "lat": 50.9460208,
  "lon": 3.1372940
},
{
  "type": "node",
  "id": 1815689779,
  "lat": 50.9460522,
  "lon": 3.1376452
},
{
  "type": "node",
  "id": 1815689780,
  "lat": 50.9460660,
  "lon": 3.1378244
},
{
  "type": "node",
  "id": 1815689781,
  "lat": 50.9460832,
  "lon": 3.1380149
},
{
  "type": "node",
  "id": 1815689782,
  "lat": 50.9460895,
  "lon": 3.1381035
},
{
  "type": "node",
  "id": 1815689783,
  "lat": 50.9461111,
  "lon": 3.1367220
},
{
  "type": "node",
  "id": 1815689784,
  "lat": 50.9460970,
  "lon": 3.1382301
},
{
  "type": "node",
  "id": 1815689785,
  "lat": 50.9461145,
  "lon": 3.1390743
},
{
  "type": "node",
  "id": 1815689786,
  "lat": 50.9461234,
  "lon": 3.1377548
},
{
  "type": "node",
  "id": 1815689787,
  "lat": 50.9461279,
  "lon": 3.1378107
},
{
  "type": "node",
  "id": 1815689788,
  "lat": 50.9461401,
  "lon": 3.1375468
},
{
  "type": "node",
  "id": 1815689789,
  "lat": 50.9461460,
  "lon": 3.1376254
},
{
  "type": "node",
  "id": 1815689790,
  "lat": 50.9462021,
  "lon": 3.1380902
},
{
  "type": "node",
  "id": 1815689791,
  "lat": 50.9462073,
  "lon": 3.1382103
},
{
  "type": "node",
  "id": 1815689792,
  "lat": 50.9461931,
  "lon": 3.1375897
},
{
  "type": "node",
  "id": 1815689793,
  "lat": 50.9461870,
  "lon": 3.1375381
},
{
  "type": "node",
  "id": 1815689805,
  "lat": 50.9463676,
  "lon": 3.1375430
},
{
  "type": "node",
  "id": 1815689809,
  "lat": 50.9464289,
  "lon": 3.1376860
},
{
  "type": "node",
  "id": 1815689811,
  "lat": 50.9464335,
  "lon": 3.1377406
},
{
  "type": "node",
  "id": 1815689813,
  "lat": 50.9464408,
  "lon": 3.1365761
},
{
  "type": "node",
  "id": 1815689816,
  "lat": 50.9464608,
  "lon": 3.1390612
},
{
  "type": "node",
  "id": 1815689819,
  "lat": 50.9464726,
  "lon": 3.1372215
},
{
  "type": "node",
  "id": 1815689820,
  "lat": 50.9464805,
  "lon": 3.1381640
},
{
  "type": "node",
  "id": 1815689821,
  "lat": 50.9464925,
  "lon": 3.1372199
},
{
  "type": "node",
  "id": 1815689822,
  "lat": 50.9465082,
  "lon": 3.1385315
},
{
  "type": "node",
  "id": 1815689823,
  "lat": 50.9465184,
  "lon": 3.1374978
},
{
  "type": "node",
  "id": 1815689824,
  "lat": 50.9465412,
  "lon": 3.1379167
},
{
  "type": "node",
  "id": 1815689825,
  "lat": 50.9465478,
  "lon": 3.1365269
},
{
  "type": "node",
  "id": 1815689826,
  "lat": 50.9465446,
  "lon": 3.1372711
},
{
  "type": "node",
  "id": 1815689827,
  "lat": 50.9465622,
  "lon": 3.1374707
},
{
  "type": "node",
  "id": 1815689828,
  "lat": 50.9465632,
  "lon": 3.1366479
},
{
  "type": "node",
  "id": 1815689829,
  "lat": 50.9466040,
  "lon": 3.1385154
},
{
  "type": "node",
  "id": 1815689830,
  "lat": 50.9466166,
  "lon": 3.1368975
},
{
  "type": "node",
  "id": 1815689841,
  "lat": 50.9466370,
  "lon": 3.1372508
},
{
  "type": "node",
  "id": 1815689843,
  "lat": 50.9466547,
  "lon": 3.1364781
},
{
  "type": "node",
  "id": 1815689845,
  "lat": 50.9466551,
  "lon": 3.1374508
},
{
  "type": "node",
  "id": 1815689847,
  "lat": 50.9467691,
  "lon": 3.1386747
},
{
  "type": "node",
  "id": 1815689858,
  "lat": 50.9468194,
  "lon": 3.1372602
},
{
  "type": "node",
  "id": 1815689860,
  "lat": 50.9468551,
  "lon": 3.1376388
},
{
  "type": "node",
  "id": 1815689861,
  "lat": 50.9469648,
  "lon": 3.1366744
},
{
  "type": "node",
  "id": 1815689862,
  "lat": 50.9469751,
  "lon": 3.1367137
},
{
  "type": "node",
  "id": 1815689864,
  "lat": 50.9470458,
  "lon": 3.1372073
},
{
  "type": "node",
  "id": 1815689867,
  "lat": 50.9470825,
  "lon": 3.1375867
},
{
  "type": "node",
  "id": 1815689882,
  "lat": 50.9472178,
  "lon": 3.1367635
},
{
  "type": "node",
  "id": 1815689884,
  "lat": 50.9472492,
  "lon": 3.1364770
},
{
  "type": "node",
  "id": 1815689886,
  "lat": 50.9472844,
  "lon": 3.1366082
},
{
  "type": "node",
  "id": 1815689894,
  "lat": 50.9474816,
  "lon": 3.1381857
},
{
  "type": "node",
  "id": 1815689896,
  "lat": 50.9476044,
  "lon": 3.1381009
},
{
  "type": "node",
  "id": 2828455983,
  "lat": 50.9474335,
  "lon": 3.1375108
},
{
  "type": "node",
  "id": 2829153777,
  "lat": 50.9463376,
  "lon": 3.1366237
},
{
  "type": "node",
  "id": 2829154019,
  "lat": 50.9471728,
  "lon": 3.1362009
},
{
  "type": "node",
  "id": 2829154075,
  "lat": 50.9475529,
  "lon": 3.1381364
},
{
  "type": "node",
  "id": 4789456675,
  "lat": 50.9462793,
  "lon": 3.1366552
},
{
  "type": "node",
  "id": 5611863646,
  "lat": 50.9463168,
  "lon": 3.1390667
},
{
  "type": "node",
  "id": 5628805756,
  "lat": 50.9467967,
  "lon": 3.1390912
},
{
  "type": "node",
  "id": 5628805757,
  "lat": 50.9467958,
  "lon": 3.1390016
},
{
  "type": "node",
  "id": 5628805758,
  "lat": 50.9467593,
  "lon": 3.1390028
},
{
  "type": "node",
  "id": 5628805759,
  "lat": 50.9467540,
  "lon": 3.1385043
},
{
  "type": "node",
  "id": 5628805973,
  "lat": 50.9465247,
  "lon": 3.1377283
},
{
  "type": "node",
  "id": 5628805974,
  "lat": 50.9465327,
  "lon": 3.1377271
},
{
  "type": "node",
  "id": 5628805975,
  "lat": 50.9465239,
  "lon": 3.1377207
},
{
  "type": "node",
  "id": 5628805976,
  "lat": 50.9465317,
  "lon": 3.1377103
},
{
  "type": "node",
  "id": 5628805977,
  "lat": 50.9462227,
  "lon": 3.1377438
},
{
  "type": "node",
  "id": 5628805978,
  "lat": 50.9462218,
  "lon": 3.1377336
},
{
  "type": "node",
  "id": 5628805979,
  "lat": 50.9462424,
  "lon": 3.1377396
},
{
  "type": "node",
  "id": 5628805980,
  "lat": 50.9462401,
  "lon": 3.1377086
},
{
  "type": "node",
  "id": 5628805981,
  "lat": 50.9463160,
  "lon": 3.1377610
},
{
  "type": "node",
  "id": 5628805982,
  "lat": 50.9462986,
  "lon": 3.1377652
},
{
  "type": "node",
  "id": 5628805983,
  "lat": 50.9462927,
  "lon": 3.1376977
},
{
  "type": "node",
  "id": 5628805984,
  "lat": 50.9463116,
  "lon": 3.1377115
},
{
  "type": "node",
  "id": 5628805995,
  "lat": 50.9470009,
  "lon": 3.1385186
},
{
  "type": "node",
  "id": 5628805996,
  "lat": 50.9467695,
  "lon": 3.1386782
},
{
  "type": "node",
  "id": 5628805998,
  "lat": 50.9467607,
  "lon": 3.1390914
},
{
  "type": "node",
  "id": 6177051533,
  "lat": 50.9460910,
  "lon": 3.1367315
},
{
  "type": "node",
  "id": 6177051534,
  "lat": 50.9460092,
  "lon": 3.1372494
},
{
  "type": "node",
  "id": 6177051535,
  "lat": 50.9460722,
  "lon": 3.1381102
},
{
  "type": "node",
  "id": 6177051536,
  "lat": 50.9460042,
  "lon": 3.1373062
},
{
  "type": "node",
  "id": 6177051537,
  "lat": 50.9460952,
  "lon": 3.1390734
},
{
  "type": "node",
  "id": 6798300819,
  "lat": 50.9462771,
  "lon": 3.1385805
},
{
  "type": "node",
  "id": 6798300820,
  "lat": 50.9461075,
  "lon": 3.1386439
},
{
  "type": "node",
  "id": 6798300821,
  "lat": 50.9466086,
  "lon": 3.1385440
},
{
  "type": "node",
  "id": 1815689818,
  "lat": 50.9464664,
  "lon": 3.1392209
},
{
  "type": "node",
  "id": 1815689849,
  "lat": 50.9466642,
  "lon": 3.1392035
},
{
  "type": "node",
  "id": 1815689859,
  "lat": 50.9468244,
  "lon": 3.1391896
},
{
  "type": "node",
  "id": 5628805931,
  "lat": 50.9466768,
  "lon": 3.1392024
},
{
  "type": "node",
  "id": 5628805997,
  "lat": 50.9467615,
  "lon": 3.1391950
},
{
  "type": "node",
  "id": 1854133015,
  "lat": 50.7761027,
  "lon": 3.2785794
},
{
  "type": "node",
  "id": 1854133019,
  "lat": 50.7762133,
  "lon": 3.2804316
},
{
  "type": "node",
  "id": 1854133024,
  "lat": 50.7762821,
  "lon": 3.2787079
},
{
  "type": "node",
  "id": 1854133029,
  "lat": 50.7763077,
  "lon": 3.2790778
},
{
  "type": "node",
  "id": 1854133032,
  "lat": 50.7763569,
  "lon": 3.2785530
},
{
  "type": "node",
  "id": 1854133034,
  "lat": 50.7763611,
  "lon": 3.2786998
},
{
  "type": "node",
  "id": 1854133040,
  "lat": 50.7763847,
  "lon": 3.2790632
},
{
  "type": "node",
  "id": 1854133043,
  "lat": 50.7764123,
  "lon": 3.2800462
},
{
  "type": "node",
  "id": 1854133045,
  "lat": 50.7764865,
  "lon": 3.2785318
},
{
  "type": "node",
  "id": 1854133048,
  "lat": 50.7764944,
  "lon": 3.2786171
},
{
  "type": "node",
  "id": 1854133065,
  "lat": 50.7765713,
  "lon": 3.2786592
},
{
  "type": "node",
  "id": 1854133068,
  "lat": 50.7765921,
  "lon": 3.2785715
},
{
  "type": "node",
  "id": 1854133075,
  "lat": 50.7766739,
  "lon": 3.2795563
},
{
  "type": "node",
  "id": 1854133077,
  "lat": 50.7766791,
  "lon": 3.2800348
},
{
  "type": "node",
  "id": 1854133079,
  "lat": 50.7768062,
  "lon": 3.2789837
},
{
  "type": "node",
  "id": 1854133081,
  "lat": 50.7768083,
  "lon": 3.2788166
},
{
  "type": "node",
  "id": 1854133082,
  "lat": 50.7769099,
  "lon": 3.2788815
},
{
  "type": "node",
  "id": 1854133084,
  "lat": 50.7769166,
  "lon": 3.2787837
},
{
  "type": "node",
  "id": 1854133086,
  "lat": 50.7769314,
  "lon": 3.2790112
},
{
  "type": "node",
  "id": 1854133088,
  "lat": 50.7769396,
  "lon": 3.2795368
},
{
  "type": "node",
  "id": 1854133118,
  "lat": 50.7771818,
  "lon": 3.2789003
},
{
  "type": "node",
  "id": 1854133122,
  "lat": 50.7772455,
  "lon": 3.2801943
},
{
  "type": "node",
  "id": 2733383327,
  "lat": 50.7764805,
  "lon": 3.2784790
},
{
  "type": "node",
  "id": 2733383332,
  "lat": 50.7765144,
  "lon": 3.2802540
},
{
  "type": "node",
  "id": 2733383336,
  "lat": 50.7765191,
  "lon": 3.2784689
},
{
  "type": "node",
  "id": 2733383343,
  "lat": 50.7771824,
  "lon": 3.2794397
},
{
  "type": "node",
  "id": 2733383344,
  "lat": 50.7771829,
  "lon": 3.2792289
},
{
  "type": "node",
  "id": 7054279407,
  "lat": 50.7775723,
  "lon": 3.2789787
},
{
  "type": "node",
  "id": 7054279408,
  "lat": 50.7775323,
  "lon": 3.2790091
},
{
  "type": "node",
  "id": 7054279409,
  "lat": 50.7772594,
  "lon": 3.2779081
},
{
  "type": "node",
  "id": 7054279410,
  "lat": 50.7767082,
  "lon": 3.2784189
},
{
  "type": "node",
  "id": 7054279411,
  "lat": 50.7767176,
  "lon": 3.2782354
},
{
  "type": "node",
  "id": 7054279412,
  "lat": 50.7769718,
  "lon": 3.2780716
},
{
  "type": "node",
  "id": 7054279413,
  "lat": 50.7766908,
  "lon": 3.2782685
},
{
  "type": "node",
  "id": 7054279414,
  "lat": 50.7766802,
  "lon": 3.2783144
},
{
  "type": "node",
  "id": 7054279415,
  "lat": 50.7766871,
  "lon": 3.2783711
},
{
  "type": "node",
  "id": 7054279416,
  "lat": 50.7774205,
  "lon": 3.2784304
},
{
  "type": "node",
  "id": 7054279417,
  "lat": 50.7774957,
  "lon": 3.2786922
},
{
  "type": "node",
  "id": 3251779481,
  "lat": 51.0921958,
  "lon": 3.0078577
},
{
  "type": "node",
  "id": 3251779485,
  "lat": 51.0919113,
  "lon": 3.0078546
},
{
  "type": "node",
  "id": 3251779475,
  "lat": 51.0920706,
  "lon": 3.0081591
},
{
  "type": "node",
  "id": 3251779476,
  "lat": 51.0923162,
  "lon": 3.0086494
},
{
  "type": "node",
  "id": 3251779477,
  "lat": 51.0922592,
  "lon": 3.0083147
},
{
  "type": "node",
  "id": 3251779478,
  "lat": 51.0923168,
  "lon": 3.0085151
},
{
  "type": "node",
  "id": 3251779479,
  "lat": 51.0922395,
  "lon": 3.0086485
},
{
  "type": "node",
  "id": 3251779480,
  "lat": 51.0922583,
  "lon": 3.0085145
},
{
  "type": "node",
  "id": 3251779482,
  "lat": 51.0919100,
  "lon": 3.0081573
},
{
  "type": "node",
  "id": 3251779483,
  "lat": 51.0922391,
  "lon": 3.0087415
},
{
  "type": "node",
  "id": 3251779484,
  "lat": 51.0921939,
  "lon": 3.0083140
},
{
  "type": "node",
  "id": 3251779486,
  "lat": 51.0920681,
  "lon": 3.0087397
},
{
  "type": "node",
  "id": 1645465037,
  "lat": 50.5763407,
  "lon": 3.5574685
},
{
  "type": "node",
  "id": 1645465038,
  "lat": 50.5762014,
  "lon": 3.5578145
},
{
  "type": "node",
  "id": 1645465039,
  "lat": 50.5763319,
  "lon": 3.5573195
},
{
  "type": "node",
  "id": 1645465040,
  "lat": 50.5765934,
  "lon": 3.5565211
},
{
  "type": "node",
  "id": 1645465042,
  "lat": 50.5766465,
  "lon": 3.5569554
},
{
  "type": "node",
  "id": 1645465049,
  "lat": 50.5757513,
  "lon": 3.5559780
},
{
  "type": "node",
  "id": 1645465050,
  "lat": 50.5764278,
  "lon": 3.5573208
},
{
  "type": "node",
  "id": 1645465054,
  "lat": 50.5761576,
  "lon": 3.5577464
},
{
  "type": "node",
  "id": 1645465058,
  "lat": 50.5762008,
  "lon": 3.5576773
},
{
  "type": "node",
  "id": 1645465060,
  "lat": 50.5762270,
  "lon": 3.5572324
},
{
  "type": "node",
  "id": 1645465062,
  "lat": 50.5763837,
  "lon": 3.5573998
},
{
  "type": "node",
  "id": 1645465064,
  "lat": 50.5761708,
  "lon": 3.5567998
},
{
  "type": "node",
  "id": 1645465066,
  "lat": 50.5761123,
  "lon": 3.5565382
},
{
  "type": "node",
  "id": 1645465068,
  "lat": 50.5760855,
  "lon": 3.5569361
},
{
  "type": "node",
  "id": 1645465070,
  "lat": 50.5759728,
  "lon": 3.5567613
},
{
  "type": "node",
  "id": 1645465074,
  "lat": 50.5763077,
  "lon": 3.5574174
},
{
  "type": "node",
  "id": 1645465080,
  "lat": 50.5761725,
  "lon": 3.5576335
},
{
  "type": "node",
  "id": 1645465097,
  "lat": 50.5762978,
  "lon": 3.5571192
},
{
  "type": "node",
  "id": 1645465100,
  "lat": 50.5763079,
  "lon": 3.5573578
},
{
  "type": "node",
  "id": 1645465106,
  "lat": 50.5762967,
  "lon": 3.5569952
},
{
  "type": "node",
  "id": 1645465110,
  "lat": 50.5766934,
  "lon": 3.5570282
},
{
  "type": "node",
  "id": 1645465116,
  "lat": 50.5759936,
  "lon": 3.5555907
},
{
  "type": "node",
  "id": 4598500606,
  "lat": 50.5763720,
  "lon": 3.5561777
},
{
  "type": "node",
  "id": 4598500650,
  "lat": 50.5761347,
  "lon": 3.5568576
},
{
  "type": "node",
  "id": 4598500655,
  "lat": 50.5764060,
  "lon": 3.5568206
},
{
  "type": "node",
  "id": 4598500661,
  "lat": 50.5763045,
  "lon": 3.5569827
},
{
  "type": "node",
  "id": 4598500662,
  "lat": 50.5764720,
  "lon": 3.5567150
},
{
  "type": "node",
  "id": 4598500664,
  "lat": 50.5763624,
  "lon": 3.5572194
},
{
  "type": "node",
  "id": 4598500665,
  "lat": 50.5765424,
  "lon": 3.5571376
},
{
  "type": "node",
  "id": 4598500666,
  "lat": 50.5765723,
  "lon": 3.5570898
},
{
  "type": "node",
  "id": 4598500667,
  "lat": 50.5765673,
  "lon": 3.5570820
},
{
  "type": "node",
  "id": 4092748944,
  "lat": 50.7429439,
  "lon": 3.6887188
},
{
  "type": "node",
  "id": 4092748945,
  "lat": 50.7427737,
  "lon": 3.6886940
},
{
  "type": "node",
  "id": 4092748946,
  "lat": 50.7428020,
  "lon": 3.6885886
},
{
  "type": "node",
  "id": 4092748947,
  "lat": 50.7424728,
  "lon": 3.6883391
},
{
  "type": "node",
  "id": 4092748948,
  "lat": 50.7423362,
  "lon": 3.6881922
},
{
  "type": "node",
  "id": 4092748975,
  "lat": 50.7432720,
  "lon": 3.6887456
},
{
  "type": "node",
  "id": 4092748976,
  "lat": 50.7434223,
  "lon": 3.6879275
},
{
  "type": "node",
  "id": 5208921022,
  "lat": 50.7425998,
  "lon": 3.6873176
},
{
  "type": "node",
  "id": 5208921025,
  "lat": 50.7430857,
  "lon": 3.6876955
},
{
  "type": "node",
  "id": 6044691438,
  "lat": 50.7427830,
  "lon": 3.6879419
},
{
  "type": "node",
  "id": 6044691439,
  "lat": 50.7426569,
  "lon": 3.6878460
},
{
  "type": "node",
  "id": 6044691440,
  "lat": 50.7426809,
  "lon": 3.6877691
},
{
  "type": "node",
  "id": 6044691441,
  "lat": 50.7428091,
  "lon": 3.6878625
},
{
  "type": "node",
  "id": 6044691442,
  "lat": 50.7427912,
  "lon": 3.6876027
},
{
  "type": "node",
  "id": 6044691443,
  "lat": 50.7428736,
  "lon": 3.6876687
},
{
  "type": "node",
  "id": 6044691444,
  "lat": 50.7427067,
  "lon": 3.6876976
},
{
  "type": "node",
  "id": 6044691445,
  "lat": 50.7427771,
  "lon": 3.6874750
},
{
  "type": "node",
  "id": 6044691446,
  "lat": 50.7427225,
  "lon": 3.6874373
},
{
  "type": "node",
  "id": 6044691447,
  "lat": 50.7428321,
  "lon": 3.6877980
},
{
  "type": "node",
  "id": 6044691448,
  "lat": 50.7429595,
  "lon": 3.6876054
},
{
  "type": "node",
  "id": 6044691449,
  "lat": 50.7428980,
  "lon": 3.6877974
},
{
  "type": "node",
  "id": 6044691450,
  "lat": 50.7426152,
  "lon": 3.6878109
},
{
  "type": "node",
  "id": 6044691451,
  "lat": 50.7426307,
  "lon": 3.6877563
},
{
  "type": "node",
  "id": 6044691452,
  "lat": 50.7428106,
  "lon": 3.6880568
},
{
  "type": "node",
  "id": 6044691453,
  "lat": 50.7428334,
  "lon": 3.6879857
},
{
  "type": "node",
  "id": 6044691454,
  "lat": 50.7428249,
  "lon": 3.6874976
},
{
  "type": "node",
  "id": 6044691455,
  "lat": 50.7425924,
  "lon": 3.6878821
},
{
  "type": "node",
  "id": 6044691456,
  "lat": 50.7429305,
  "lon": 3.6880634
},
{
  "type": "node",
  "id": 6044691457,
  "lat": 50.7429917,
  "lon": 3.6878724
},
{
  "type": "node",
  "id": 2028006402,
  "lat": 50.8298998,
  "lon": 3.6760526
},
{
  "type": "node",
  "id": 2028006404,
  "lat": 50.8299259,
  "lon": 3.6760811
},
{
  "type": "node",
  "id": 2028006413,
  "lat": 50.8300640,
  "lon": 3.6754948
},
{
  "type": "node",
  "id": 2028006424,
  "lat": 50.8301480,
  "lon": 3.6752053
},
{
  "type": "node",
  "id": 2028006429,
  "lat": 50.8301990,
  "lon": 3.6757421
},
{
  "type": "node",
  "id": 2028006431,
  "lat": 50.8302547,
  "lon": 3.6751576
},
{
  "type": "node",
  "id": 2028006433,
  "lat": 50.8303132,
  "lon": 3.6749321
},
{
  "type": "node",
  "id": 2028006435,
  "lat": 50.8303212,
  "lon": 3.6753147
},
{
  "type": "node",
  "id": 2028006436,
  "lat": 50.8303249,
  "lon": 3.6748985
},
{
  "type": "node",
  "id": 2028006437,
  "lat": 50.8303429,
  "lon": 3.6748800
},
{
  "type": "node",
  "id": 2028006438,
  "lat": 50.8303738,
  "lon": 3.6748850
},
{
  "type": "node",
  "id": 2028006444,
  "lat": 50.8305508,
  "lon": 3.6761376
},
{
  "type": "node",
  "id": 2028006445,
  "lat": 50.8305689,
  "lon": 3.6760921
},
{
  "type": "node",
  "id": 2028006447,
  "lat": 50.8306462,
  "lon": 3.6750681
},
{
  "type": "node",
  "id": 2028006448,
  "lat": 50.8306665,
  "lon": 3.6749955
},
{
  "type": "node",
  "id": 2028006450,
  "lat": 50.8306777,
  "lon": 3.6754740
},
{
  "type": "node",
  "id": 2028006451,
  "lat": 50.8306831,
  "lon": 3.6754572
},
{
  "type": "node",
  "id": 2028006452,
  "lat": 50.8306838,
  "lon": 3.6749848
},
{
  "type": "node",
  "id": 2028006454,
  "lat": 50.8307131,
  "lon": 3.6750039
},
{
  "type": "node",
  "id": 2028006455,
  "lat": 50.8307184,
  "lon": 3.6749610
},
{
  "type": "node",
  "id": 2028006456,
  "lat": 50.8307221,
  "lon": 3.6749836
},
{
  "type": "node",
  "id": 2028006457,
  "lat": 50.8307251,
  "lon": 3.6753163
},
{
  "type": "node",
  "id": 2028006458,
  "lat": 50.8307432,
  "lon": 3.6749396
},
{
  "type": "node",
  "id": 2028006460,
  "lat": 50.8307657,
  "lon": 3.6749265
},
{
  "type": "node",
  "id": 2028006462,
  "lat": 50.8307900,
  "lon": 3.6750807
},
{
  "type": "node",
  "id": 2028006463,
  "lat": 50.8307928,
  "lon": 3.6749289
},
{
  "type": "node",
  "id": 2028006464,
  "lat": 50.8307963,
  "lon": 3.6759592
},
{
  "type": "node",
  "id": 2028006465,
  "lat": 50.8308069,
  "lon": 3.6759289
},
{
  "type": "node",
  "id": 2028006466,
  "lat": 50.8308069,
  "lon": 3.6759592
},
{
  "type": "node",
  "id": 2028006470,
  "lat": 50.8308261,
  "lon": 3.6756209
},
{
  "type": "node",
  "id": 2028006471,
  "lat": 50.8308340,
  "lon": 3.6755665
},
{
  "type": "node",
  "id": 2028006472,
  "lat": 50.8308388,
  "lon": 3.6759424
},
{
  "type": "node",
  "id": 2028006473,
  "lat": 50.8308416,
  "lon": 3.6747635
},
{
  "type": "node",
  "id": 2028006474,
  "lat": 50.8308516,
  "lon": 3.6758179
},
{
  "type": "node",
  "id": 2028006477,
  "lat": 50.8309249,
  "lon": 3.6762099
},
{
  "type": "node",
  "id": 2028006481,
  "lat": 50.8309371,
  "lon": 3.6749229
},
{
  "type": "node",
  "id": 2028006482,
  "lat": 50.8309566,
  "lon": 3.6748515
},
{
  "type": "node",
  "id": 2028006483,
  "lat": 50.8309621,
  "lon": 3.6758414
},
{
  "type": "node",
  "id": 2028006484,
  "lat": 50.8309664,
  "lon": 3.6756663
},
{
  "type": "node",
  "id": 2028006485,
  "lat": 50.8309696,
  "lon": 3.6751935
},
{
  "type": "node",
  "id": 2028006487,
  "lat": 50.8309870,
  "lon": 3.6750760
},
{
  "type": "node",
  "id": 2028006488,
  "lat": 50.8309954,
  "lon": 3.6752526
},
{
  "type": "node",
  "id": 2028006489,
  "lat": 50.8310006,
  "lon": 3.6750867
},
{
  "type": "node",
  "id": 2028006491,
  "lat": 50.8310133,
  "lon": 3.6749772
},
{
  "type": "node",
  "id": 3203411748,
  "lat": 50.8308842,
  "lon": 3.6754404
},
{
  "type": "node",
  "id": 3203411749,
  "lat": 50.8309235,
  "lon": 3.6752401
},
{
  "type": "node",
  "id": 3203411750,
  "lat": 50.8309258,
  "lon": 3.6752068
},
{
  "type": "node",
  "id": 2028006364,
  "lat": 50.8293989,
  "lon": 3.6772677
},
{
  "type": "node",
  "id": 2028006365,
  "lat": 50.8294609,
  "lon": 3.6773909
},
{
  "type": "node",
  "id": 2028006367,
  "lat": 50.8294770,
  "lon": 3.6773546
},
{
  "type": "node",
  "id": 2028006370,
  "lat": 50.8295989,
  "lon": 3.6775700
},
{
  "type": "node",
  "id": 2028006372,
  "lat": 50.8296064,
  "lon": 3.6775530
},
{
  "type": "node",
  "id": 2028006374,
  "lat": 50.8296932,
  "lon": 3.6777791
},
{
  "type": "node",
  "id": 2028006376,
  "lat": 50.8297241,
  "lon": 3.6777094
},
{
  "type": "node",
  "id": 2028006378,
  "lat": 50.8297485,
  "lon": 3.6778947
},
{
  "type": "node",
  "id": 2028006380,
  "lat": 50.8297646,
  "lon": 3.6778585
},
{
  "type": "node",
  "id": 2028006389,
  "lat": 50.8298198,
  "lon": 3.6779740
},
{
  "type": "node",
  "id": 2028006393,
  "lat": 50.8298358,
  "lon": 3.6779378
},
{
  "type": "node",
  "id": 2028006394,
  "lat": 50.8298480,
  "lon": 3.6779513
},
{
  "type": "node",
  "id": 2028006400,
  "lat": 50.8298901,
  "lon": 3.6778565
},
{
  "type": "node",
  "id": 2028006408,
  "lat": 50.8299599,
  "lon": 3.6779343
},
{
  "type": "node",
  "id": 2028006425,
  "lat": 50.8301544,
  "lon": 3.6774966
},
{
  "type": "node",
  "id": 2028006428,
  "lat": 50.8301819,
  "lon": 3.6775273
},
{
  "type": "node",
  "id": 2028006439,
  "lat": 50.8304062,
  "lon": 3.6777143
},
{
  "type": "node",
  "id": 2028006440,
  "lat": 50.8304966,
  "lon": 3.6778035
},
{
  "type": "node",
  "id": 2028006442,
  "lat": 50.8305223,
  "lon": 3.6767608
},
{
  "type": "node",
  "id": 2028006443,
  "lat": 50.8305253,
  "lon": 3.6774232
},
{
  "type": "node",
  "id": 2028006446,
  "lat": 50.8306284,
  "lon": 3.6774821
},
{
  "type": "node",
  "id": 2028006449,
  "lat": 50.8306723,
  "lon": 3.6769277
},
{
  "type": "node",
  "id": 2028006459,
  "lat": 50.8307591,
  "lon": 3.6770429
},
{
  "type": "node",
  "id": 2028006461,
  "lat": 50.8307836,
  "lon": 3.6770631
},
{
  "type": "node",
  "id": 2028006467,
  "lat": 50.8308144,
  "lon": 3.6769369
},
{
  "type": "way",
  "id": 641965033,
  "nodes": [
    6044691441,
    6044691440,
    6044691439,
    6044691438,
    6044691441
  ]
},
{
  "type": "way",
  "id": 641965034,
  "nodes": [
    6044691457,
    6044691456,
    6044691453,
    6044691452,
    6044691455,
    6044691450,
    6044691451,
    6044691446,
    6044691445,
    6044691444,
    6044691447,
    6044691443,
    6044691442,
    6044691454,
    6044691448,
    6044691449,
    6044691457
  ]
}

  ]
}
