{
  "version": 0.6,
  "generator": "Overpass API 0.7.55.9 ab41fea6",
  "osm3s": {
    "timestamp_osm_base": "2020-02-06T08:18:02Z",
    "copyright": "The data included in this document is from www.openstreetmap.org. The data is made available under ODbL."
  },
  "elements": [

{
  "type": "node",
  "id": 306128879,
  "lat": 43.6048605,
  "lon": 1.4511040,
  "tags": {
    "addr:housenumber": "14",
    "addr:postcode": "31000",
    "addr:street": "Rue de l'Industrie",
    "amenity": "pub",
    "breakfast": "yes",
    "breakfast:brunch": "Sa,Su 12:00-15:30",
    "cuisine": "burger;brunch",
    "microbrewery": "yes",
    "name": "The Frog and Rosbif",
    "opening_hours": "Mo-We 17:30-24:00; Th,Fr 17:30-02:00; Sa 12:00-15:30,17:30-03:00; Su 12:00-15:30,17:30-24:00",
    "phone": "+33 5 61 99 28 57",
    "website": "https://www.frogpubs.com/pub-the-frog-rosbif-toulouse-toulouse-6.php"
  }
},
{
  "type": "node",
  "id": 343622288,
  "lat": 43.5409065,
  "lon": 1.5128399,
  "tags": {
    "addr:city": "Labège",
    "addr:postcode": "31670",
    "addr:street": "Rue Pierre-Gilles De Gennes",
    "amenity": "restaurant",
    "cuisine": "german",
    "microbrewery": "yes",
    "name": "Les 3 brasseurs",
    "outdoor_seating": "yes",
    "phone": "+33 5 62 88 82 22"
  }
},
{
  "type": "node",
  "id": 1787179191,
  "lat": 43.7023858,
  "lon": 1.4669319,
  "tags": {
    "amenity": "restaurant",
    "cuisine": "french",
    "microbrewery": "yes",
    "name": "L'Esquisse",
    "opening_hours": "Mo-Fr 08:30-20:00"
  }
},
{
  "type": "node",
  "id": 1856738753,
  "lat": 43.5751208,
  "lon": 1.4517193,
  "tags": {
    "addr:country": "FR",
    "addr:housenumber": "30",
    "addr:postcode": "31400",
    "addr:street": "avenue Jules Julien",
    "brewery": "Garonnette",
    "craft": "brewery",
    "name": "La Garonette",
    "website": "http://www.lagaronnette.fr/"
  }
},
{
  "type": "node",
  "id": 1976765835,
  "lat": 43.6060793,
  "lon": 1.4418200,
  "tags": {
    "amenity": "bar",
    "contact:phone": "+33 5 82 74 22 62",
    "contact:website": "http://www.lebarboteur.bar/",
    "microbrewery": "yes",
    "name": "Le Barboteur",
    "opening_hours": "Tu-Sa 17:00-24:00"
  }
},
{
  "type": "node",
  "id": 2051905786,
  "lat": 43.6048574,
  "lon": 1.4547559,
  "tags": {
    "addr:city": "Toulouse",
    "addr:housenumber": "1",
    "addr:postcode": "31000",
    "addr:street": "Rue André Mercadier",
    "amenity": "bar",
    "description": "Le vrai brewpub toulousain ! Microbrasserie, Bar culturel, ateliers de brassage",
    "email": "brasseriedubec@gmail.com",
    "level": "0",
    "microbrewery": "yes",
    "name": "Bar L'Autruche - Brasserie du Bec",
    "opening_hours": "Mo-Fr 17:00-02:00; Sa 17:00-03:00",
    "outdoor_seating": "no",
    "phone": "+33 5 81 34 37 62",
    "phone:mobile": "+33 771 689 911",
    "smoking": "outside",
    "source": "ToulouseMetropole;local knowledge",
    "source:date": "2012/10/04",
    "website": "https://www.facebook.com/brasseriedubec"
  }
},
{
  "type": "node",
  "id": 2474616470,
  "lat": 43.6013435,
  "lon": 1.4412499,
  "tags": {
    "addr:city": "Toulouse",
    "addr:housenumber": "7",
    "addr:street": "Rue Jacques Cujas",
    "amenity": "pub",
    "description": "Bar à Vin et Bière - Charcuterie - Fromage",
    "microbrewery": "yes",
    "name": "Barallel",
    "opening_hours": "Mo-Su 18:00-02:00",
    "phone": "09 82 50 43 58",
    "source": "survey",
    "website": "http://barallel.com/"
  }
},
{
  "type": "node",
  "id": 3997025553,
  "lat": 43.3930506,
  "lon": 1.1711208,
  "tags": {
    "amenity": "bar",
    "microbrewery": "yes",
    "name": "La Biérataise",
    "opening_hours": "Fr,Sa 17:00-20:00",
    "website": "www.bierataise.com"
  }
},
{
  "type": "node",
  "id": 4130601014,
  "lat": 43.6419171,
  "lon": 1.5324649,
  "tags": {
    "addr:city": "Montrabé",
    "addr:housenumber": "23bis",
    "addr:postcode": "31850",
    "addr:street": "Chemin de Borde Haute",
    "contact:website": "http://www.brasserie-du-midi.com/",
    "craft": "brewery",
    "name": "Brasserie du Midi"
  }
},
{
  "type": "node",
  "id": 4567378399,
  "lat": 43.7717398,
  "lon": 1.2932888,
  "tags": {
    "addr:housenumber": "35",
    "addr:street": "rue gambetta",
    "craft": "brewery",
    "internet_access": "yes",
    "name": "La buvette",
    "website": "http://www.pratic-info.com/"
  }
},
{
  "type": "node",
  "id": 5592180378,
  "lat": 43.6030068,
  "lon": 1.4439617,
  "tags": {
    "amenity": "pub",
    "brewery": "various",
    "craft": "brewery",
    "cuisine": "tapas",
    "drink:beer": "yes",
    "drink:gin": "served",
    "drink:whisky": "served",
    "facebook": "https://www.facebook.com/thehopscotchpub/",
    "microbrewery": "yes",
    "name": "The Hopscotch",
    "opening_hours": "Mo-Fr 16:00-02:00; Sa 16:00-03:00",
    "outdoor_seating": "yes",
    "website": "https://hopscotchpub.com"
  }
},
{
  "type": "node",
  "id": 5861254156,
  "lat": 43.6487640,
  "lon": 1.3364583,
  "tags": {
    "addr:city": "Cornebarrieu",
    "addr:housenumber": "6",
    "addr:postcode": "31700",
    "addr:street": "Avenue Émile Dewoitine",
    "amenity": "pub",
    "craft": "brewery",
    "microbrewery": "yes",
    "name": "BBT Brasseur Toulousain",
    "phone": "+33 5 61 84 89 52",
    "website": "www.facebook.com/BrasseurToulousain"
  }
},
{
  "type": "node",
  "id": 6281357826,
  "lat": 43.5132292,
  "lon": 1.1792422,
  "tags": {
    "craft": "brewery",
    "name": "Ô Comptoir"
  }
},
{
  "type": "node",
  "id": 6752697860,
  "lat": 43.3451013,
  "lon": 1.2639374,
  "tags": {
    "craft": "brewery",
    "name": "l'Eden"
  }
},
{
  "type": "way",
  "id": 64162156,
  "nodes": [
    790816718,
    790821758,
    790823257,
    6499577913,
    790822235,
    790816718
  ],
  "tags": {
    "building": "yes",
    "craft": "brewery",
    "microbrewery": "yes",
    "name": "Bière Séraphine",
    "source": "cadastre-dgi-fr source : Direction Générale des Impôts - Cadastre. Mise à jour : 2010"
  }
},
{
  "type": "way",
  "id": 64451410,
  "nodes": [
    792675927,
    792659457,
    792678286,
    792659757,
    792661233,
    792660550,
    792675927
  ],
  "tags": {
    "addr:city": "Brax",
    "addr:housenumber": "31",
    "addr:postcode": "31490",
    "addr:street": "Avenue du Château d'Eau",
    "building": "yes",
    "craft": "brewery",
    "name": "La Braxéenne",
    "opening_hours": "Fr 18:00-20:00; Sa 08:00-18:00; Su 08:00-12:00",
    "source": "http://labraxeenne.com/",
    "wall": "no",
    "website": "http://labraxeenne.com/"
  }
},
{
  "type": "node",
  "id": 792659457,
  "lat": 43.6184933,
  "lon": 1.2346398
},
{
  "type": "node",
  "id": 792659757,
  "lat": 43.6183820,
  "lon": 1.2343587
},
{
  "type": "node",
  "id": 792660550,
  "lat": 43.6183899,
  "lon": 1.2345946
},
{
  "type": "node",
  "id": 792661233,
  "lat": 43.6183852,
  "lon": 1.2344539
},
{
  "type": "node",
  "id": 792675927,
  "lat": 43.6183916,
  "lon": 1.2346463
},
{
  "type": "node",
  "id": 792678286,
  "lat": 43.6184837,
  "lon": 1.2343522
},
{
  "type": "node",
  "id": 790816718,
  "lat": 43.4493070,
  "lon": 1.6124091
},
{
  "type": "node",
  "id": 790821758,
  "lat": 43.4491779,
  "lon": 1.6122124
},
{
  "type": "node",
  "id": 790822235,
  "lat": 43.4492529,
  "lon": 1.6124768
},
{
  "type": "node",
  "id": 790823257,
  "lat": 43.4491235,
  "lon": 1.6122802
},
{
  "type": "node",
  "id": 6499577913,
  "lat": 43.4492171,
  "lon": 1.6124194
}

  ]
}
