{
  "version": 0.6,
  "generator": "Overpass API 0.7.55.1011 6c2efc30",
  "osm3s": {
    "timestamp_osm_base": "2020-02-05T23:59:02Z",
    "copyright": "The data included in this document is from www.openstreetmap.org. The data is made available under ODbL."
  },
  "elements": [

{
  "type": "node",
  "id": 296580404,
  "lat": 49.8070851,
  "lon": 18.2402658,
  "tags": {
    "amenity": "restaurant",
    "contact:email": "info@zamek-zabreh.cz",
    "contact:website": "http://www.zamek-zabreh.cz/",
    "cuisine": "regional",
    "microbrewery": "yes",
    "name": "Zámek Zábřeh",
    "opening_hours": "May-Sep Mo-Tu,Su 12:00-23:00, Fr,Sa 12:00-24:00; Aug-Apr Mo-Th 17:00-23:00, Fr, Sa 17:00-24:00",
    "tourism": "hotel"
  }
},
{
  "type": "node",
  "id": 1414770616,
  "lat": 49.7292531,
  "lon": 18.2359999,
  "tags": {
    "addr:conscriptionnumber": "22",
    "addr:country": "CZ",
    "addr:housenumber": "22",
    "addr:place": "Krmelín",
    "addr:postcode": "73924",
    "addr:street": "Brušperská",
    "amenity": "pub",
    "microbrewery": "yes",
    "name": "Minipivovar Krmelín a Hospoda u Hodže",
    "ref:ruian:addr": "14148021"
  }
},
{
  "type": "node",
  "id": 2316882197,
  "lat": 49.6748763,
  "lon": 18.4766810,
  "tags": {
    "amenity": "restaurant",
    "brewery": "Koníček",
    "contact:phone": "+420 558 651 172",
    "microbrewery": "yes",
    "name": "Hostinec a Minipivovar U Koníčka",
    "opening_hours": "Mo-Su 10:00-22:00; Fr,Sa 10:00-23:00",
    "outdoor_seating": "yes",
    "website": "https://www.pivovarkonicek.cz/"
  }
},
{
  "type": "node",
  "id": 2458107644,
  "lat": 49.8400145,
  "lon": 18.2884006,
  "tags": {
    "addr:city": "Ostrava",
    "addr:housenumber": "34",
    "addr:postcode": "70200",
    "addr:street": "Přívozská",
    "amenity": "pub",
    "contact:email": "hobitclub@pivovarsky-dum.eu",
    "contact:website": "http://www.hobitclub.net/",
    "internet_access": "wlan",
    "internet_access:fee": "no",
    "microbrewery": "yes",
    "name": "Hobit Club",
    "opening_hours": "Mo-Th 14:00-02:00, Sa 16:00-02:00",
    "outdoor_seating": "yes",
    "smoking": "dedicated"
  }
},
{
  "type": "node",
  "id": 2957914736,
  "lat": 49.5318775,
  "lon": 18.3949611,
  "tags": {
    "amenity": "pub",
    "microbrewery": "yes",
    "name": "Beskydský pivovárek",
    "smoking": "no",
    "wheelchair": "yes"
  }
},
{
  "type": "node",
  "id": 2963243559,
  "lat": 49.6341740,
  "lon": 18.2165650,
  "tags": {
    "alt_name": "Hukvaldský pivovar",
    "amenity": "pub",
    "brewery": "Hukvaldské pivo",
    "cuisine": "brewery,_pub",
    "delivery": "no",
    "email": "pivovar.hukvaldy@atlas.cz",
    "microbrewery": "yes",
    "name": "Pohostinství U Zastávky",
    "old_name": "Hospoda u Vajta",
    "opening_hours": "Mo-Th 10:00-22:00; Fr 10:00-24:00; Sa 10:00-23:00; Su 10:00-21:00",
    "outdoor_seating": "yes",
    "smoking": "separated",
    "takeaway": "no",
    "website": "http://www.pivovar-hukvaldy.cz/"
  }
},
{
  "type": "node",
  "id": 3147408695,
  "lat": 49.8977422,
  "lon": 18.1874108,
  "tags": {
    "amenity": "pub",
    "contact:email": "pivovaravar@volny.cz",
    "contact:website": "http://www.pivovaravar.cz/",
    "microbrewery": "yes",
    "name": "Avar",
    "opening_hours": "Mo-Th 10:00-22:00; Fr 10:00-24:00; Sa 10:00-23:00; Su 09:30-22:00",
    "wheelchair": "limited"
  }
},
{
  "type": "node",
  "id": 3152832757,
  "lat": 49.7727476,
  "lon": 18.3065700,
  "tags": {
    "addr:housenumber": "135/1",
    "addr:postcode": "73932",
    "addr:street": "K Sokolovně",
    "amenity": "pub",
    "brewery": "Brabčák",
    "contact:email": "hostinecvedvore@seznam.cz",
    "contact:website": "http://www.hostinecvedvore.cz/",
    "microbrewery": "yes",
    "name": "Hostinec Ve Dvoře",
    "opening_hours": "Tu-Th 14:00-22:00; Fr-Sa 12:00-23:00; Su 12:00-22:00"
  }
},
{
  "type": "node",
  "id": 3382993585,
  "lat": 49.5936295,
  "lon": 18.3594194,
  "tags": {
    "addr:city": "Frýdlant nad Ostravicí",
    "addr:housenumber": "1",
    "addr:postcode": "73911",
    "addr:street": "Náměstí",
    "craft": "brewery",
    "name": "Podhorský pivovar",
    "opening_hours": "Mo-Th 9:00-22:00;Fr 9:00-24:00;Sa 9:30 - 24:00;Su 9:30 - 22:00"
  }
},
{
  "type": "node",
  "id": 3949888214,
  "lat": 49.8544526,
  "lon": 18.5402938,
  "tags": {
    "craft": "brewery",
    "name": "Městský Karvinský pivovar"
  }
},
{
  "type": "node",
  "id": 4018151485,
  "lat": 49.6023695,
  "lon": 18.1480499,
  "tags": {
    "craft": "brewery"
  }
},
{
  "type": "node",
  "id": 4641885570,
  "lat": 49.6430224,
  "lon": 18.4806518,
  "tags": {
    "amenity": "restaurant",
    "brewery": "Kohut",
    "email": "kohutka.pivovar@gmail.com",
    "microbrewery": "yes",
    "name": "Kohutka",
    "outdoor_seating": "yes",
    "website": "https://cs-cz.facebook.com/Restaurace-A-Pivovar-Kohutka-147174862115099/"
  }
},
{
  "type": "node",
  "id": 4769471740,
  "lat": 49.6800900,
  "lon": 18.4646017,
  "tags": {
    "addr:housenumber": "10",
    "addr:place": "Vojkovice",
    "addr:postcode": "73951",
    "craft": "brewery",
    "name": "Pivovar Koníček Vojkovice",
    "phone": "+420736243059",
    "tourism": "attraction",
    "website": "https://www.pivovarkonicek.cz/"
  }
},
{
  "type": "node",
  "id": 5579948204,
  "lat": 49.8592503,
  "lon": 18.3300072,
  "tags": {
    "craft": "brewery",
    "name": "Heřmanický pivovar"
  }
},
{
  "type": "node",
  "id": 5616778127,
  "lat": 49.5598700,
  "lon": 18.1052865,
  "tags": {
    "amenity": "pub",
    "brewery": "Zenke",
    "microbrewery": "yes",
    "name": "Zenke",
    "opening_hours": "Fr-Sa 14:00-22:00; Su 14:00-20:00"
  }
},
{
  "type": "node",
  "id": 5621735306,
  "lat": 49.7629978,
  "lon": 18.2381826,
  "tags": {
    "amenity": "restaurant",
    "brewery": "Starobělský pivovar",
    "microbrewery": "yes",
    "name": "Katolický dům - Tosca",
    "opening_hours": "Mo-Su 11:00-22:00; Fr-Sa 11:00-24:00",
    "website": "http://starobelskypivovar.cz"
  }
},
{
  "type": "node",
  "id": 5651449956,
  "lat": 49.7801581,
  "lon": 18.4563621,
  "tags": {
    "amenity": "restaurant",
    "microbrewery": "yes",
    "name": "Venuše",
    "opening_hours": "Mo-Th 11:00-22:00, Fr-Sa 11:00-23:00, Su 12:00-22",
    "website": "http://www.pivovarvenuse.cz/"
  }
},
{
  "type": "node",
  "id": 6051107357,
  "lat": 49.5354612,
  "lon": 18.2949346,
  "tags": {
    "amenity": "pub",
    "microbrewery": "yes",
    "name": "Pivovarská hospůdka",
    "outdoor_seating": "yes"
  }
},
{
  "type": "node",
  "id": 6435415461,
  "lat": 49.7716581,
  "lon": 18.4344330,
  "tags": {
    "addr:city": "Havířov",
    "addr:housenumber": "1329/43",
    "addr:postcode": "73601",
    "addr:street": "Selská",
    "amenity": "restaurant",
    "cuisine": "regional",
    "email": "info@slezskypivovar.cz",
    "internet_access": "wifi",
    "microbrewery": "yes",
    "name": "U Balona (Slezský pivovar)",
    "opening_hours": "Su-Th 11:00-23:00, Fr-Sa 11:00-24:00",
    "outdoor_seating": "yes",
    "phone": "+420 596 810 914, +420 601 550 001",
    "smoking": "outside",
    "website": "http://www.slezskypivovar.cz/"
  }
},
{
  "type": "node",
  "id": 6435454086,
  "lat": 49.7736787,
  "lon": 18.4335120,
  "tags": {
    "addr:city": "Havířov",
    "addr:housenumber": "1589/8a",
    "addr:postcode": "73601",
    "addr:street": "Selská",
    "amenity": "restaurant",
    "cuisine": "regional",
    "email": "info@prvnihavirovskyminipivovar.cz",
    "internet_access": "wifi",
    "microbrewery": "yes",
    "name": "První Havířovský minipivovar",
    "opening_hours": "Mo-Th 11:00-23:00; Fr-Sa 11:00-24:00; Su 11:00-22:00",
    "outdoor_seating": "yes",
    "phone": "+420 778 098 918",
    "smoking": "outside",
    "source": "local knowledge",
    "website": "http://prvnihavirovskyminipivovar.cz"
  }
},
{
  "type": "way",
  "id": 37790997,
  "nodes": [
    443290649,
    443290648,
    443290647,
    443290646,
    443290649
  ],
  "tags": {
    "amenity": "pub",
    "building": "house",
    "building:levels": "1",
    "building:ruian:type": "7",
    "microbrewery": "yes",
    "name": "Městský pivovar",
    "opening_hours": "Mo-Th 12:00-22:00; Fr 12:00-00:00; Sa 10:00-00:00; Su 10:00-22:00",
    "ref:ruian:building": "8267995",
    "source": "cuzk:ruian",
    "source:position": "cuzk:km",
    "website": "http://www.relaxvpodhuri.cz/cs/gastronomie/mestsky-pivovar-stramberk"
  }
},
{
  "type": "way",
  "id": 38933337,
  "nodes": [
    462685712,
    3501672078,
    462685711,
    462685710,
    462685709,
    462685708,
    462685707,
    5736632473,
    5736632472,
    5736632471,
    462685705,
    462685714,
    462685713,
    462685712
  ],
  "tags": {
    "amenity": "pub",
    "brewery": "Polivar",
    "building": "civic",
    "building:levels": "1",
    "building:ruian:type": "5",
    "microbrewery": "yes",
    "name": "Minipivovar Polivar",
    "opening_hours": "mo-su 10:00-23:00",
    "outdoor_seating": "yes",
    "ref:ruian:building": "25337505",
    "smoking": "separated",
    "source": "cuzk:ruian",
    "start_date": "2003-01-01",
    "wheelchair": "yes"
  }
},
{
  "type": "way",
  "id": 138997997,
  "nodes": [
    1523711900,
    1523711907,
    2320339713,
    1523711949,
    1523711898,
    1523711900
  ],
  "tags": {
    "amenity": "restaurant",
    "brewery": "Valašský pivovar",
    "building": "yes",
    "contact:email": "info@fojtstvi.cz",
    "contact:website": "http://www.relaxvpodhuri.cz/cs/gastronomie/valassky-pivovar-v-kozlovicich",
    "microbrewery": "yes",
    "name": "Valašský pivovar",
    "opening_hours": "Su-Mo 11:00-20:00; Tu 11:00-21:00; We-Th 11:00-22:00; Fr-Sa 11:00-24:00",
    "source": "uhul:ortofoto, cuzk:km"
  }
},
{
  "type": "way",
  "id": 277389701,
  "nodes": [
    2819028280,
    2819028284,
    7127624563,
    7127624556,
    7127624562,
    7127624561,
    2819028280
  ],
  "tags": {
    "building": "warehouse",
    "building:ruian:type": "12",
    "craft": "brewery",
    "ref:ruian:building": "43006922",
    "source": "cuzk:ruian"
  }
},
{
  "type": "way",
  "id": 277389759,
  "nodes": [
    7127624563,
    2819028284,
    7127624564,
    2819028918,
    7127624560,
    7127624559,
    2819028907,
    7127624558,
    7127624557,
    7127624556,
    7127624563
  ],
  "tags": {
    "building": "civic",
    "building:ruian:type": "15",
    "craft": "brewery",
    "ref:ruian:building": "43006892",
    "source": "cuzk:ruian"
  }
},
{
  "type": "way",
  "id": 277389773,
  "nodes": [
    7127624561,
    7127624562,
    2819028238,
    2819028739,
    7127624561
  ],
  "tags": {
    "building": "warehouse",
    "building:ruian:type": "12",
    "craft": "brewery",
    "ref:ruian:building": "49536401",
    "source": "cuzk:ruian"
  }
},
{
  "type": "way",
  "id": 642878042,
  "nodes": [
    4487363882,
    4487363885,
    719190223,
    719190363,
    4487363881,
    4487363879,
    6051107358,
    679351772,
    4487363882
  ],
  "tags": {
    "craft": "brewery",
    "landuse": "industrial",
    "name": "Ogar",
    "website": "https://www.pivovarogar.cz/"
  }
},
{
  "type": "way",
  "id": 764606034,
  "nodes": [
    7143035117,
    7143035116,
    7143035115,
    7143035114,
    7143035113,
    7143035112,
    7143035117
  ],
  "tags": {
    "building": "brewery",
    "craft": "brewery",
    "email": "dystrybucja@browar-kraftwerk.pl",
    "name": "Browar Kraftwerk",
    "phone": "+48 733 057 238",
    "website": "http://www.browar-kraftwerk.pl/"
  }
},
{
  "type": "node",
  "id": 443290646,
  "lat": 49.5911381,
  "lon": 18.1168125
},
{
  "type": "node",
  "id": 443290647,
  "lat": 49.5909894,
  "lon": 18.1166595
},
{
  "type": "node",
  "id": 443290648,
  "lat": 49.5909349,
  "lon": 18.1167848
},
{
  "type": "node",
  "id": 443290649,
  "lat": 49.5910831,
  "lon": 18.1169370
},
{
  "type": "node",
  "id": 462685705,
  "lat": 49.6025567,
  "lon": 18.1479756
},
{
  "type": "node",
  "id": 462685707,
  "lat": 49.6023289,
  "lon": 18.1480358
},
{
  "type": "node",
  "id": 462685708,
  "lat": 49.6023541,
  "lon": 18.1480550
},
{
  "type": "node",
  "id": 462685709,
  "lat": 49.6023365,
  "lon": 18.1481108
},
{
  "type": "node",
  "id": 462685710,
  "lat": 49.6023668,
  "lon": 18.1481337
},
{
  "type": "node",
  "id": 462685711,
  "lat": 49.6023592,
  "lon": 18.1481568
},
{
  "type": "node",
  "id": 462685712,
  "lat": 49.6023882,
  "lon": 18.1481790
},
{
  "type": "node",
  "id": 462685713,
  "lat": 49.6023970,
  "lon": 18.1481511
},
{
  "type": "node",
  "id": 462685714,
  "lat": 49.6024812,
  "lon": 18.1482158
},
{
  "type": "node",
  "id": 3501672078,
  "lat": 49.6023737,
  "lon": 18.1481679
},
{
  "type": "node",
  "id": 5736632471,
  "lat": 49.6024330,
  "lon": 18.1478810
},
{
  "type": "node",
  "id": 5736632472,
  "lat": 49.6023944,
  "lon": 18.1480000
},
{
  "type": "node",
  "id": 5736632473,
  "lat": 49.6023505,
  "lon": 18.1479677
},
{
  "type": "node",
  "id": 679351772,
  "lat": 49.5353076,
  "lon": 18.2946390
},
{
  "type": "node",
  "id": 719190363,
  "lat": 49.5353639,
  "lon": 18.2949893
},
{
  "type": "node",
  "id": 4487363879,
  "lat": 49.5352493,
  "lon": 18.2949613
},
{
  "type": "node",
  "id": 4487363881,
  "lat": 49.5353645,
  "lon": 18.2949782
},
{
  "type": "node",
  "id": 6051107358,
  "lat": 49.5352541,
  "lon": 18.2947683
},
{
  "type": "node",
  "id": 719190223,
  "lat": 49.5354975,
  "lon": 18.2950072
},
{
  "type": "node",
  "id": 4487363882,
  "lat": 49.5354798,
  "lon": 18.2942214
},
{
  "type": "node",
  "id": 4487363885,
  "lat": 49.5361688,
  "lon": 18.2950591
},
{
  "type": "node",
  "id": 1523711898,
  "lat": 49.5925135,
  "lon": 18.2557933
},
{
  "type": "node",
  "id": 1523711900,
  "lat": 49.5925443,
  "lon": 18.2563752
},
{
  "type": "node",
  "id": 1523711907,
  "lat": 49.5926109,
  "lon": 18.2563773
},
{
  "type": "node",
  "id": 1523711949,
  "lat": 49.5925914,
  "lon": 18.2557926
},
{
  "type": "node",
  "id": 2320339713,
  "lat": 49.5925963,
  "lon": 18.2559439
},
{
  "type": "node",
  "id": 2819028238,
  "lat": 49.5315356,
  "lon": 18.3952363
},
{
  "type": "node",
  "id": 2819028280,
  "lat": 49.5318124,
  "lon": 18.3947985
},
{
  "type": "node",
  "id": 2819028284,
  "lat": 49.5318522,
  "lon": 18.3949519
},
{
  "type": "node",
  "id": 2819028739,
  "lat": 49.5314757,
  "lon": 18.3950007
},
{
  "type": "node",
  "id": 2819028907,
  "lat": 49.5319558,
  "lon": 18.3951207
},
{
  "type": "node",
  "id": 2819028918,
  "lat": 49.5319934,
  "lon": 18.3950221
},
{
  "type": "node",
  "id": 7127624556,
  "lat": 49.5317915,
  "lon": 18.3950825
},
{
  "type": "node",
  "id": 7127624557,
  "lat": 49.5318214,
  "lon": 18.3951994
},
{
  "type": "node",
  "id": 7127624558,
  "lat": 49.5319555,
  "lon": 18.3951184
},
{
  "type": "node",
  "id": 7127624559,
  "lat": 49.5320807,
  "lon": 18.3950452
},
{
  "type": "node",
  "id": 7127624560,
  "lat": 49.5320639,
  "lon": 18.3949802
},
{
  "type": "node",
  "id": 7127624561,
  "lat": 49.5316574,
  "lon": 18.3948921
},
{
  "type": "node",
  "id": 7127624562,
  "lat": 49.5317169,
  "lon": 18.3951272
},
{
  "type": "node",
  "id": 7127624563,
  "lat": 49.5318724,
  "lon": 18.3950340
},
{
  "type": "node",
  "id": 7127624564,
  "lat": 49.5319593,
  "lon": 18.3948883
},
{
  "type": "node",
  "id": 7143035112,
  "lat": 50.0719513,
  "lon": 18.3562124
},
{
  "type": "node",
  "id": 7143035113,
  "lat": 50.0716997,
  "lon": 18.3564667
},
{
  "type": "node",
  "id": 7143035114,
  "lat": 50.0716470,
  "lon": 18.3563401
},
{
  "type": "node",
  "id": 7143035115,
  "lat": 50.0718070,
  "lon": 18.3561785
},
{
  "type": "node",
  "id": 7143035116,
  "lat": 50.0717684,
  "lon": 18.3560857
},
{
  "type": "node",
  "id": 7143035117,
  "lat": 50.0718600,
  "lon": 18.3559931
}

  ]
}
