{
  "version": 0.6,
  "generator": "Overpass API 0.7.55.9 ab41fea6",
  "osm3s": {
    "timestamp_osm_base": "2020-02-14T15:29:01Z",
    "copyright": "The data included in this document is from www.openstreetmap.org. The data is made available under ODbL."
  },
  "elements": [

{
  "type": "node",
  "id": 30409825,
  "lat": 51.1602181,
  "lon": 0.9528855,
  "tags": {
    "addr:postcode": "TN25 5PF",
    "name": "Agricultural Museum",
    "operator": "Wye Rural Museum Trust",
    "tourism": "museum",
    "website": "http://www.agriculturalmuseumbrook.org.uk/"
  }
},
{
  "type": "node",
  "id": 298725312,
  "lat": 51.2746784,
  "lon": 1.3386343,
  "tags": {
    "name": "Sandwich Guildhall Museum",
    "tourism": "museum"
  }
},
{
  "type": "node",
  "id": 350200836,
  "lat": 51.3144118,
  "lon": 0.8914451,
  "tags": {
    "tourism": "museum"
  }
},
{
  "type": "node",
  "id": 401542703,
  "lat": 51.3619171,
  "lon": 1.4418655,
  "tags": {
    "name": "Broadstairs Museum, Arts and Media Centre",
    "tourism": "museum"
  }
},
{
  "type": "node",
  "id": 435798224,
  "lat": 51.2796732,
  "lon": 1.0792796,
  "tags": {
    "addr:city": "Canterbury",
    "addr:housenumber": "18",
    "addr:postcode": "CT1 2RA",
    "addr:street": "High Street",
    "email": "beaney@canterbury.gov.uk",
    "name": "The Beaney House of Art and Knowledge",
    "opening_hours": "Mo off; Tu-Sa 10:00-17:00; Su 11:00-16:00",
    "phone": "+44 1227 862162",
    "toilets:wheelchair": "yes",
    "tourism": "museum",
    "website": "https://canterburymuseums.co.uk/beaney/",
    "wheelchair": "yes"
  }
},
{
  "type": "node",
  "id": 475404382,
  "lat": 51.3582880,
  "lon": 1.4422251,
  "tags": {
    "name": "Charles Dickens Museum",
    "tourism": "museum"
  }
},
{
  "type": "node",
  "id": 600042902,
  "lat": 51.1487408,
  "lon": 0.8722109,
  "tags": {
    "name": "Ashford Borough Museum",
    "tourism": "museum"
  }
},
{
  "type": "node",
  "id": 769219208,
  "lat": 51.1489126,
  "lon": 1.3830127,
  "tags": {
    "source": "OS_OpenData_StreetView",
    "tourism": "museum"
  }
},
{
  "type": "node",
  "id": 769364884,
  "lat": 51.0826866,
  "lon": 0.7647869,
  "tags": {
    "name": "Woodchurch Museum",
    "source": "OS_OpenData_StreetView",
    "tourism": "museum"
  }
},
{
  "type": "node",
  "id": 810434322,
  "lat": 51.2219536,
  "lon": 1.4042382,
  "tags": {
    "name": "Time Ball",
    "tourism": "museum"
  }
},
{
  "type": "node",
  "id": 1119291627,
  "lat": 51.1533623,
  "lon": 0.6466404,
  "tags": {
    "source": "OS_OpenData_StreetView",
    "tourism": "museum"
  }
},
{
  "type": "node",
  "id": 2114963016,
  "lat": 51.3387800,
  "lon": 0.7434355,
  "tags": {
    "name": "Sittingbourne Heritage Museum",
    "source": "Local Knowledge",
    "tourism": "museum"
  }
},
{
  "type": "node",
  "id": 4458520549,
  "lat": 51.2470274,
  "lon": 0.6306638,
  "tags": {
    "name": "Dog collar museum",
    "tourism": "museum",
    "website": "https://www.leeds-castle.com/Attractions/The+Castle+%26amp%3B+Exhibitions?id=p3"
  }
},
{
  "type": "node",
  "id": 4720218243,
  "lat": 51.0695141,
  "lon": 1.0827418,
  "tags": {
    "name": "Hythe Town Museum",
    "tourism": "museum"
  }
},
{
  "type": "node",
  "id": 4838849525,
  "lat": 51.4172403,
  "lon": 0.7425256,
  "tags": {
    "name": "Queenborough Guildhall Museum",
    "opening_hours": "Sa 14:00-17:00",
    "tourism": "museum"
  }
},
{
  "type": "node",
  "id": 5032775044,
  "lat": 51.3357586,
  "lon": 1.4171906,
  "tags": {
    "addr:city": "Ramsgate",
    "addr:country": "GB",
    "addr:housenumber": "11",
    "addr:postcode": "CT11 8RA",
    "addr:street": "Church Hill",
    "fee": "yes",
    "museum": "computer",
    "name": "The Micro Museum",
    "toilets:wheelchair": "yes",
    "tourism": "museum",
    "website": "https://www.themicromuseum.org/",
    "wheelchair": "yes"
  }
},
{
  "type": "node",
  "id": 6600107860,
  "lat": 51.2244215,
  "lon": 1.4006924,
  "tags": {
    "addr:city": "Deal",
    "addr:housenumber": "41",
    "addr:postcode": "CT14 6AD",
    "addr:street": "Stanhope Road",
    "name": "Kent MOMI",
    "opening_hours": "Fr-Su 12:00-17:00",
    "operator": "Kent MOMI",
    "operator:type": "private",
    "tourism": "museum",
    "website": "https://www.kentmomi.org"
  }
},
{
  "type": "way",
  "id": 55291967,
  "nodes": [
    694675626,
    694675646,
    694675648,
    694675649,
    694675626
  ],
  "tags": {
    "building": "yes",
    "name": "Dover Museum",
    "name:zh": "多佛尔博物馆",
    "tourism": "museum"
  }
},
{
  "type": "way",
  "id": 55367333,
  "nodes": [
    695644019,
    695644084,
    695644085,
    695644021,
    695644016,
    695644014,
    695644019
  ],
  "tags": {
    "addr:city": "Dover",
    "addr:country": "GB",
    "addr:county": "Kent",
    "addr:postcode": "CT16 2HQ",
    "addr:street": "Willingdon Road",
    "building": "yes",
    "name": "Dover Transport Museum",
    "phone": "+44 1304 822409",
    "tourism": "museum"
  }
},
{
  "type": "way",
  "id": 69939548,
  "nodes": [
    835874489,
    835874410,
    835874324,
    835874496,
    835874489
  ],
  "tags": {
    "building": "yes",
    "tourism": "museum"
  }
},
{
  "type": "way",
  "id": 79679642,
  "nodes": [
    6185067162,
    6185067163,
    6185067164,
    6185067165,
    6185067166,
    6185067167,
    6185067161,
    6185067195,
    6185067194,
    6185067193,
    6185067192,
    6185067191,
    6185067190,
    6185067189,
    6185067188,
    6185067187,
    6185067186,
    6185067185,
    6185067184,
    6185067183,
    6185067182,
    6185067181,
    6185067180,
    6185067179,
    6185067178,
    6185067177,
    6185067176,
    6185067175,
    6185067174,
    6185067173,
    6185067172,
    6185067171,
    6185067170,
    6185067169,
    6185067159,
    929871090,
    6185067168,
    929871061,
    929871033,
    929871088,
    929871059,
    929871103,
    929871064,
    929871110,
    929871083,
    929871049,
    929871106,
    929871076,
    929871036,
    929871093,
    929871053,
    929871096,
    1612858945,
    929871100,
    929871074,
    929871034,
    6185067160,
    6185067200,
    6185067199,
    6185067198,
    6185067197,
    6185067196,
    6185067162
  ],
  "tags": {
    "addr:postcode": "CT7 0BH",
    "building": "yes",
    "name": "Powell-Cotton Museum;Quex House Museum",
    "phone": "+44 1843 842168",
    "tourism": "museum",
    "website": "http://www.quexmuseum.org/"
  }
},
{
  "type": "way",
  "id": 103965940,
  "nodes": [
    1200010988,
    1607004841,
    29031195,
    1607004842,
    1607004843,
    1607004844,
    1607004845,
    1200008906,
    1200009967,
    1200010988
  ],
  "tags": {
    "building": "yes",
    "name": "Ramsgate Maritime Museum",
    "source": "Bing",
    "tourism": "museum",
    "wikidata": "Q7290267"
  }
},
{
  "type": "way",
  "id": 123104922,
  "nodes": [
    1373882744,
    1373882746,
    1373882748,
    1373882747,
    1373882743,
    1373882745,
    1373882744
  ],
  "tags": {
    "building": "yes",
    "name": "Minster Abbey Gatehouse Museum",
    "source": "survey",
    "source:shape": "Bing",
    "tourism": "museum"
  }
},
{
  "type": "way",
  "id": 126511355,
  "nodes": [
    1402293727,
    1402293725,
    1402293752,
    1402293730,
    1402293749,
    1402293751,
    1402293744,
    1402293747,
    1402293723,
    1402293728,
    1402293729,
    1402293750,
    1402293727
  ],
  "tags": {
    "addr:city": "Romney Marsh",
    "addr:country": "GB",
    "addr:postcode": "TN29 0EE",
    "addr:street": "Ivychurch Road",
    "building": "yes",
    "name": "Brenzett Aeronautical Museum",
    "source": "local_knowledge",
    "source:shape": "Bing",
    "tourism": "museum"
  }
},
{
  "type": "way",
  "id": 150763642,
  "nodes": [
    1636447684,
    1636447689,
    1636444627,
    1636447691,
    1636447794,
    1636447782,
    1636447772,
    1636447755,
    1636447724,
    1636447784,
    1636447787,
    1636447757,
    1636447781,
    1636447754,
    1636447796,
    1636447684
  ],
  "tags": {
    "addr:city": "Canterbury",
    "addr:postcode": "CT1 2TG",
    "addr:street": "St. Margaret's Street",
    "building": "yes",
    "email": "info@canterburytales.org.uk",
    "name": "The Canterbury Tales",
    "opening_hours": "Apr-Aug 10:00-17:00; Sep-Oct 10:00-16:00; Nov-Mar Mo,Tu off; Nov-Mar We-Su 10:00-16:00",
    "phone": "+44 01227 696002",
    "source": "Bing",
    "tourism": "museum",
    "website": "https://www.canterburytales.org.uk/"
  }
},
{
  "type": "way",
  "id": 199535423,
  "nodes": [
    2095295413,
    2095295421,
    2095295424,
    2095295432,
    2095295428,
    2095295438,
    2095295434,
    2095295416,
    2095295410,
    2095295398,
    2095295413
  ],
  "tags": {
    "name": "Richborough Castle Museum",
    "tourism": "museum",
    "wikipedia": "en:Richborough Castle"
  }
},
{
  "type": "way",
  "id": 219703120,
  "nodes": [
    2288414027,
    2288414082,
    2288414063,
    2288413881,
    2288414078,
    2288413978,
    2288414027
  ],
  "tags": {
    "building": "yes",
    "tourism": "museum"
  }
},
{
  "type": "way",
  "id": 221667594,
  "nodes": [
    2307056985,
    2307056992,
    1636462236,
    1636462189,
    2307056994,
    2307056986,
    2307056985
  ],
  "tags": {
    "building": "yes",
    "name": "Marlowe's Ghost",
    "source": "Bing;photograph",
    "tourism": "museum"
  }
},
{
  "type": "way",
  "id": 221667608,
  "nodes": [
    2307056992,
    2307056985,
    27441254,
    1636462214,
    1636462253,
    1636462209,
    1636462239,
    1636462230,
    1636462185,
    1636462241,
    2307056992
  ],
  "tags": {
    "building": "yes",
    "name": "The Marlowe Kit",
    "old_name": "Canterbury Heritage Museum",
    "source": "Bing",
    "tourism": "museum",
    "wikidata": "Q6940785"
  }
},
{
  "type": "way",
  "id": 290040649,
  "nodes": [
    2935797210,
    2935797260,
    2935797249,
    2935797245,
    2935797224,
    2935797218,
    2935797235,
    2935797216,
    2935797217,
    2935797264,
    2935797205,
    2935797208,
    2935797207,
    2935797231,
    2935797234,
    2935797227,
    2935797238,
    2935797240,
    2935797206,
    2935797232,
    2935797228,
    2935797236,
    2935797265,
    2935797266,
    2935797210
  ],
  "tags": {
    "addr:postcode": "CT9 4JX",
    "addr:street": "Enterprise Road",
    "building": "industrial",
    "building:levels": "2",
    "name": "Hornby",
    "opening_hours": "Mo-Su 10:00-16:00",
    "roof:levels": "0",
    "tourism": "museum",
    "wheelchair": "limited"
  }
},
{
  "type": "way",
  "id": 391906967,
  "nodes": [
    3951680620,
    3951680613,
    3951680612,
    3951680616,
    3951680625,
    3951680622,
    3951680620
  ],
  "tags": {
    "addr:city": "Canterbury",
    "addr:country": "GB",
    "addr:postcode": "CT1 2JR",
    "addr:province": "Kent",
    "addr:street": "Butchery Lane",
    "building": "yes",
    "contact:phone": "+44 1227 785575",
    "contact:twitter": "CMuseums",
    "contact:website": "http://www.canterbury.co.uk/museums/roman-museum/",
    "fixme": "Get true extent. This is just the entrance.",
    "name": "Canterbury Roman Museum",
    "opening_hours": "Mo-Su 10:00-17:00",
    "tourism": "museum",
    "wikidata": "Q7362097"
  }
},
{
  "type": "way",
  "id": 452878720,
  "nodes": [
    4496935717,
    4496935716,
    4496935715,
    6564101788,
    4496935714,
    4496935713,
    4496935712,
    4496935711,
    4496935710,
    4496935709,
    4496935717
  ],
  "tags": {
    "addr:city": "Folkestone",
    "addr:place": "Hawkinge",
    "addr:postcode": "CT18 7AG",
    "addr:street": "Aerodrome Road",
    "contact:phone": "+44 1303 893140",
    "name": "Kent Battle of Britain Museum",
    "tourism": "museum",
    "website": "http://www.kbobm.org/",
    "wikidata": "Q6391619"
  }
},
{
  "type": "way",
  "id": 562012309,
  "nodes": [
    5418423224,
    5418423225,
    5418423226,
    5418423227,
    5418423224
  ],
  "tags": {
    "addr:city": "Margate",
    "addr:postcode": "CT9 1QE",
    "addr:street": "King Street",
    "building": "detached",
    "charge": "£2/Adult;£0/Child;£1.50/Senior",
    "email": "info@margatemuseum.org",
    "fee": "yes",
    "name": "Tudor House",
    "opening_hours": "Fr-Su 11:30-14:30, We 11:30-14:30, PH 11:30-14:30",
    "operator": "Margate Museum",
    "phone": "+44 1843 231213",
    "tourism": "museum",
    "website": "https://www.margatemuseum.org/tudor-house",
    "wheelchair": "no",
    "wikidata": "Q17546733"
  }
},
{
  "type": "way",
  "id": 608105975,
  "nodes": [
    1612858953,
    5761911282,
    5761911283,
    5761911284,
    5761911285,
    5761911286,
    5761911287,
    5761911288,
    5761911289,
    5761911290,
    1612858953
  ],
  "tags": {
    "addr:street": "Manston Road",
    "building": "yes",
    "name": "Spitfire and Hurricane Memorial Museum",
    "tourism": "museum"
  }
},
{
  "type": "way",
  "id": 646609680,
  "nodes": [
    6074810895,
    6074810896,
    6074810897,
    6074810898,
    6074810895
  ],
  "tags": {
    "building": "yes",
    "name": "The Seaside Museum",
    "tourism": "museum"
  }
},
{
  "type": "way",
  "id": 699933180,
  "nodes": [
    6572900918,
    6572900919,
    6572900920,
    6572900921,
    6572900922,
    6572900923,
    6572900924,
    6572900925,
    6572900918
  ],
  "tags": {
    "building": "yes",
    "name": "Railway Museum",
    "tourism": "museum"
  }
},
{
  "type": "relation",
  "id": 7797716,
  "members": [
    {
      "type": "way",
      "ref": 101835188,
      "role": "outer"
    },
    {
      "type": "way",
      "ref": 101835150,
      "role": "outer"
    }
  ],
  "tags": {
    "building": "yes",
    "name": "Crampton Tower Museum",
    "tourism": "museum",
    "type": "multipolygon",
    "url": "http://www.cramptontower.co.uk/"
  }
},
{
  "type": "node",
  "id": 835874324,
  "lat": 51.3452733,
  "lon": 0.7443087
},
{
  "type": "node",
  "id": 835874410,
  "lat": 51.3454474,
  "lon": 0.7443128
},
{
  "type": "node",
  "id": 835874489,
  "lat": 51.3454486,
  "lon": 0.7441800
},
{
  "type": "node",
  "id": 835874496,
  "lat": 51.3452745,
  "lon": 0.7441759
},
{
  "type": "node",
  "id": 1373882743,
  "lat": 51.4222744,
  "lon": 0.8114644
},
{
  "type": "node",
  "id": 1373882744,
  "lat": 51.4222849,
  "lon": 0.8113125
},
{
  "type": "node",
  "id": 1373882745,
  "lat": 51.4222550,
  "lon": 0.8114539
},
{
  "type": "node",
  "id": 1373882746,
  "lat": 51.4222259,
  "lon": 0.8112805
},
{
  "type": "node",
  "id": 1373882747,
  "lat": 51.4222674,
  "lon": 0.8114978
},
{
  "type": "node",
  "id": 1373882748,
  "lat": 51.4221890,
  "lon": 0.8114552
},
{
  "type": "node",
  "id": 1402293723,
  "lat": 51.0090942,
  "lon": 0.8622493
},
{
  "type": "node",
  "id": 1402293725,
  "lat": 51.0094988,
  "lon": 0.8624042
},
{
  "type": "node",
  "id": 1402293727,
  "lat": 51.0095280,
  "lon": 0.8624779
},
{
  "type": "node",
  "id": 1402293728,
  "lat": 51.0092283,
  "lon": 0.8625885
},
{
  "type": "node",
  "id": 1402293729,
  "lat": 51.0091632,
  "lon": 0.8626535
},
{
  "type": "node",
  "id": 1402293730,
  "lat": 51.0093515,
  "lon": 0.8621930
},
{
  "type": "node",
  "id": 1402293744,
  "lat": 51.0093016,
  "lon": 0.8626082
},
{
  "type": "node",
  "id": 1402293747,
  "lat": 51.0091412,
  "lon": 0.8622023
},
{
  "type": "node",
  "id": 1402293749,
  "lat": 51.0092723,
  "lon": 0.8622721
},
{
  "type": "node",
  "id": 1402293750,
  "lat": 51.0092166,
  "lon": 0.8627887
},
{
  "type": "node",
  "id": 1402293751,
  "lat": 51.0093758,
  "lon": 0.8625341
},
{
  "type": "node",
  "id": 1402293752,
  "lat": 51.0094530,
  "lon": 0.8624499
},
{
  "type": "node",
  "id": 6572900918,
  "lat": 51.0986965,
  "lon": 1.1188882
},
{
  "type": "node",
  "id": 6572900919,
  "lat": 51.0987672,
  "lon": 1.1190625
},
{
  "type": "node",
  "id": 6572900920,
  "lat": 51.0988127,
  "lon": 1.1192959
},
{
  "type": "node",
  "id": 6572900921,
  "lat": 51.0986409,
  "lon": 1.1194273
},
{
  "type": "node",
  "id": 6572900922,
  "lat": 51.0984506,
  "lon": 1.1190384
},
{
  "type": "node",
  "id": 6572900923,
  "lat": 51.0984809,
  "lon": 1.1189767
},
{
  "type": "node",
  "id": 6572900924,
  "lat": 51.0983865,
  "lon": 1.1188748
},
{
  "type": "node",
  "id": 6572900925,
  "lat": 51.0985651,
  "lon": 1.1186494
},
{
  "type": "node",
  "id": 4496935709,
  "lat": 51.1130661,
  "lon": 1.1521402
},
{
  "type": "node",
  "id": 4496935710,
  "lat": 51.1130308,
  "lon": 1.1521965
},
{
  "type": "node",
  "id": 4496935711,
  "lat": 51.1129398,
  "lon": 1.1522099
},
{
  "type": "node",
  "id": 4496935712,
  "lat": 51.1129028,
  "lon": 1.1521697
},
{
  "type": "node",
  "id": 4496935713,
  "lat": 51.1125526,
  "lon": 1.1516145
},
{
  "type": "node",
  "id": 4496935714,
  "lat": 51.1119464,
  "lon": 1.1527598
},
{
  "type": "node",
  "id": 4496935716,
  "lat": 51.1132850,
  "lon": 1.1519444
},
{
  "type": "node",
  "id": 4496935717,
  "lat": 51.1132211,
  "lon": 1.1518076
},
{
  "type": "node",
  "id": 6564101788,
  "lat": 51.1123744,
  "lon": 1.1533979
},
{
  "type": "node",
  "id": 4496935715,
  "lat": 51.1124178,
  "lon": 1.1534625
},
{
  "type": "node",
  "id": 694675626,
  "lat": 51.1247973,
  "lon": 1.3130718
},
{
  "type": "node",
  "id": 694675646,
  "lat": 51.1248200,
  "lon": 1.3133238
},
{
  "type": "node",
  "id": 694675648,
  "lat": 51.1246609,
  "lon": 1.3133595
},
{
  "type": "node",
  "id": 694675649,
  "lat": 51.1246399,
  "lon": 1.3131187
},
{
  "type": "node",
  "id": 695644014,
  "lat": 51.1502452,
  "lon": 1.2905409
},
{
  "type": "node",
  "id": 695644016,
  "lat": 51.1502469,
  "lon": 1.2908138
},
{
  "type": "node",
  "id": 695644019,
  "lat": 51.1508382,
  "lon": 1.2905499
},
{
  "type": "node",
  "id": 695644021,
  "lat": 51.1506301,
  "lon": 1.2908219
},
{
  "type": "node",
  "id": 695644084,
  "lat": 51.1508339,
  "lon": 1.2912697
},
{
  "type": "node",
  "id": 695644085,
  "lat": 51.1506339,
  "lon": 1.2912663
},
{
  "type": "node",
  "id": 27441254,
  "lat": 51.2785417,
  "lon": 1.0776004
},
{
  "type": "node",
  "id": 1636444627,
  "lat": 51.2783243,
  "lon": 1.0797557
},
{
  "type": "node",
  "id": 1636447684,
  "lat": 51.2783156,
  "lon": 1.0795888
},
{
  "type": "node",
  "id": 1636447689,
  "lat": 51.2783719,
  "lon": 1.0796508
},
{
  "type": "node",
  "id": 1636447691,
  "lat": 51.2783151,
  "lon": 1.0797463
},
{
  "type": "node",
  "id": 1636447724,
  "lat": 51.2782321,
  "lon": 1.0798201
},
{
  "type": "node",
  "id": 1636447754,
  "lat": 51.2781423,
  "lon": 1.0797437
},
{
  "type": "node",
  "id": 1636447755,
  "lat": 51.2782178,
  "lon": 1.0798630
},
{
  "type": "node",
  "id": 1636447757,
  "lat": 51.2781826,
  "lon": 1.0798013
},
{
  "type": "node",
  "id": 1636447772,
  "lat": 51.2782819,
  "lon": 1.0799117
},
{
  "type": "node",
  "id": 1636447781,
  "lat": 51.2781868,
  "lon": 1.0797705
},
{
  "type": "node",
  "id": 1636447782,
  "lat": 51.2782992,
  "lon": 1.0798762
},
{
  "type": "node",
  "id": 1636447784,
  "lat": 51.2782195,
  "lon": 1.0798282
},
{
  "type": "node",
  "id": 1636447787,
  "lat": 51.2781968,
  "lon": 1.0798228
},
{
  "type": "node",
  "id": 1636447794,
  "lat": 51.2782925,
  "lon": 1.0798630
},
{
  "type": "node",
  "id": 1636447796,
  "lat": 51.2782181,
  "lon": 1.0795150
},
{
  "type": "node",
  "id": 1636462185,
  "lat": 51.2786184,
  "lon": 1.0772351
},
{
  "type": "node",
  "id": 1636462209,
  "lat": 51.2786076,
  "lon": 1.0774023
},
{
  "type": "node",
  "id": 1636462214,
  "lat": 51.2786227,
  "lon": 1.0774612
},
{
  "type": "node",
  "id": 1636462230,
  "lat": 51.2785305,
  "lon": 1.0771067
},
{
  "type": "node",
  "id": 1636462239,
  "lat": 51.2784671,
  "lon": 1.0772220
},
{
  "type": "node",
  "id": 1636462241,
  "lat": 51.2786494,
  "lon": 1.0771935
},
{
  "type": "node",
  "id": 1636462253,
  "lat": 51.2785933,
  "lon": 1.0774291
},
{
  "type": "node",
  "id": 2307056985,
  "lat": 51.2786195,
  "lon": 1.0777014
},
{
  "type": "node",
  "id": 3951680612,
  "lat": 51.2785952,
  "lon": 1.0815138
},
{
  "type": "node",
  "id": 3951680613,
  "lat": 51.2786073,
  "lon": 1.0814902
},
{
  "type": "node",
  "id": 3951680616,
  "lat": 51.2786322,
  "lon": 1.0815649
},
{
  "type": "node",
  "id": 1636462189,
  "lat": 51.2788517,
  "lon": 1.0775323
},
{
  "type": "node",
  "id": 1636462236,
  "lat": 51.2788668,
  "lon": 1.0775042
},
{
  "type": "node",
  "id": 2307056986,
  "lat": 51.2787363,
  "lon": 1.0778490
},
{
  "type": "node",
  "id": 2307056992,
  "lat": 51.2787758,
  "lon": 1.0773947
},
{
  "type": "node",
  "id": 2307056994,
  "lat": 51.2788563,
  "lon": 1.0775372
},
{
  "type": "node",
  "id": 3951680620,
  "lat": 51.2786593,
  "lon": 1.0813883
},
{
  "type": "node",
  "id": 3951680622,
  "lat": 51.2786765,
  "lon": 1.0814129
},
{
  "type": "node",
  "id": 3951680625,
  "lat": 51.2786946,
  "lon": 1.0814388
},
{
  "type": "node",
  "id": 6074810895,
  "lat": 51.3723235,
  "lon": 1.1284684
},
{
  "type": "node",
  "id": 6074810896,
  "lat": 51.3723369,
  "lon": 1.1280926
},
{
  "type": "node",
  "id": 6074810897,
  "lat": 51.3723958,
  "lon": 1.1280967
},
{
  "type": "node",
  "id": 6074810898,
  "lat": 51.3723900,
  "lon": 1.1284783
},
{
  "type": "node",
  "id": 2095295398,
  "lat": 51.2923126,
  "lon": 1.3318667
},
{
  "type": "node",
  "id": 2095295410,
  "lat": 51.2923481,
  "lon": 1.3320006
},
{
  "type": "node",
  "id": 2095295413,
  "lat": 51.2923617,
  "lon": 1.3318377
},
{
  "type": "node",
  "id": 2095295416,
  "lat": 51.2923971,
  "lon": 1.3321100
},
{
  "type": "node",
  "id": 2095295421,
  "lat": 51.2923997,
  "lon": 1.3319669
},
{
  "type": "node",
  "id": 2095295424,
  "lat": 51.2924270,
  "lon": 1.3319360
},
{
  "type": "node",
  "id": 2095295428,
  "lat": 51.2924321,
  "lon": 1.3320394
},
{
  "type": "node",
  "id": 2095295432,
  "lat": 51.2924571,
  "lon": 1.3320044
},
{
  "type": "node",
  "id": 2095295434,
  "lat": 51.2924814,
  "lon": 1.3322242
},
{
  "type": "node",
  "id": 2095295438,
  "lat": 51.2925171,
  "lon": 1.3321598
},
{
  "type": "node",
  "id": 929871033,
  "lat": 51.3666861,
  "lon": 1.3147945
},
{
  "type": "node",
  "id": 929871034,
  "lat": 51.3668792,
  "lon": 1.3149083
},
{
  "type": "node",
  "id": 929871036,
  "lat": 51.3668861,
  "lon": 1.3141325
},
{
  "type": "node",
  "id": 929871049,
  "lat": 51.3667704,
  "lon": 1.3139657
},
{
  "type": "node",
  "id": 929871053,
  "lat": 51.3669339,
  "lon": 1.3143384
},
{
  "type": "node",
  "id": 929871059,
  "lat": 51.3665522,
  "lon": 1.3146206
},
{
  "type": "node",
  "id": 929871061,
  "lat": 51.3667466,
  "lon": 1.3148086
},
{
  "type": "node",
  "id": 929871064,
  "lat": 51.3667037,
  "lon": 1.3142362
},
{
  "type": "node",
  "id": 929871074,
  "lat": 51.3668849,
  "lon": 1.3148459
},
{
  "type": "node",
  "id": 929871076,
  "lat": 51.3668641,
  "lon": 1.3141274
},
{
  "type": "node",
  "id": 929871083,
  "lat": 51.3667601,
  "lon": 1.3140788
},
{
  "type": "node",
  "id": 929871088,
  "lat": 51.3666988,
  "lon": 1.3146549
},
{
  "type": "node",
  "id": 929871090,
  "lat": 51.3667404,
  "lon": 1.3148759
},
{
  "type": "node",
  "id": 929871093,
  "lat": 51.3668687,
  "lon": 1.3143232
},
{
  "type": "node",
  "id": 929871096,
  "lat": 51.3669233,
  "lon": 1.3144548
},
{
  "type": "node",
  "id": 929871100,
  "lat": 51.3669851,
  "lon": 1.3148693
},
{
  "type": "node",
  "id": 929871103,
  "lat": 51.3665896,
  "lon": 1.3142095
},
{
  "type": "node",
  "id": 929871106,
  "lat": 51.3668766,
  "lon": 1.3139905
},
{
  "type": "node",
  "id": 929871110,
  "lat": 51.3667189,
  "lon": 1.3140691
},
{
  "type": "node",
  "id": 1612858945,
  "lat": 51.3670208,
  "lon": 1.3144776
},
{
  "type": "node",
  "id": 6185067159,
  "lat": 51.3667405,
  "lon": 1.3148759
},
{
  "type": "node",
  "id": 6185067160,
  "lat": 51.3668043,
  "lon": 1.3148908
},
{
  "type": "node",
  "id": 6185067161,
  "lat": 51.3668322,
  "lon": 1.3151454
},
{
  "type": "node",
  "id": 6185067162,
  "lat": 51.3667797,
  "lon": 1.3151297
},
{
  "type": "node",
  "id": 6185067163,
  "lat": 51.3667841,
  "lon": 1.3151118
},
{
  "type": "node",
  "id": 6185067164,
  "lat": 51.3667968,
  "lon": 1.3150973
},
{
  "type": "node",
  "id": 6185067165,
  "lat": 51.3668123,
  "lon": 1.3150960
},
{
  "type": "node",
  "id": 6185067166,
  "lat": 51.3668258,
  "lon": 1.3151084
},
{
  "type": "node",
  "id": 6185067167,
  "lat": 51.3668330,
  "lon": 1.3151305
},
{
  "type": "node",
  "id": 6185067168,
  "lat": 51.3667453,
  "lon": 1.3148351
},
{
  "type": "node",
  "id": 6185067169,
  "lat": 51.3667349,
  "lon": 1.3149245
},
{
  "type": "node",
  "id": 6185067170,
  "lat": 51.3667251,
  "lon": 1.3149216
},
{
  "type": "node",
  "id": 6185067171,
  "lat": 51.3666747,
  "lon": 1.3153536
},
{
  "type": "node",
  "id": 6185067172,
  "lat": 51.3666666,
  "lon": 1.3153512
},
{
  "type": "node",
  "id": 6185067173,
  "lat": 51.3666527,
  "lon": 1.3154705
},
{
  "type": "node",
  "id": 6185067174,
  "lat": 51.3667032,
  "lon": 1.3154856
},
{
  "type": "node",
  "id": 6185067175,
  "lat": 51.3666912,
  "lon": 1.3155885
},
{
  "type": "node",
  "id": 6185067176,
  "lat": 51.3666543,
  "lon": 1.3155774
},
{
  "type": "node",
  "id": 6185067177,
  "lat": 51.3666448,
  "lon": 1.3156593
},
{
  "type": "node",
  "id": 6185067178,
  "lat": 51.3667691,
  "lon": 1.3156965
},
{
  "type": "node",
  "id": 6185067179,
  "lat": 51.3667484,
  "lon": 1.3158739
},
{
  "type": "node",
  "id": 6185067180,
  "lat": 51.3667789,
  "lon": 1.3158830
},
{
  "type": "node",
  "id": 6185067181,
  "lat": 51.3667935,
  "lon": 1.3157575
},
{
  "type": "node",
  "id": 6185067182,
  "lat": 51.3668444,
  "lon": 1.3157727
},
{
  "type": "node",
  "id": 6185067183,
  "lat": 51.3668501,
  "lon": 1.3157240
},
{
  "type": "node",
  "id": 6185067184,
  "lat": 51.3668670,
  "lon": 1.3157290
},
{
  "type": "node",
  "id": 6185067185,
  "lat": 51.3668755,
  "lon": 1.3156562
},
{
  "type": "node",
  "id": 6185067186,
  "lat": 51.3668152,
  "lon": 1.3156382
},
{
  "type": "node",
  "id": 6185067187,
  "lat": 51.3668218,
  "lon": 1.3155821
},
{
  "type": "node",
  "id": 6185067188,
  "lat": 51.3668314,
  "lon": 1.3155850
},
{
  "type": "node",
  "id": 6185067189,
  "lat": 51.3668367,
  "lon": 1.3155394
},
{
  "type": "node",
  "id": 6185067190,
  "lat": 51.3668227,
  "lon": 1.3155352
},
{
  "type": "node",
  "id": 6185067191,
  "lat": 51.3668245,
  "lon": 1.3155201
},
{
  "type": "node",
  "id": 6185067192,
  "lat": 51.3668085,
  "lon": 1.3155153
},
{
  "type": "node",
  "id": 6185067193,
  "lat": 51.3668220,
  "lon": 1.3153990
},
{
  "type": "node",
  "id": 6185067194,
  "lat": 51.3668091,
  "lon": 1.3153951
},
{
  "type": "node",
  "id": 6185067195,
  "lat": 51.3668380,
  "lon": 1.3151471
},
{
  "type": "node",
  "id": 6185067196,
  "lat": 51.3667712,
  "lon": 1.3151272
},
{
  "type": "node",
  "id": 6185067197,
  "lat": 51.3667824,
  "lon": 1.3150311
},
{
  "type": "node",
  "id": 6185067198,
  "lat": 51.3668044,
  "lon": 1.3150376
},
{
  "type": "node",
  "id": 6185067199,
  "lat": 51.3668122,
  "lon": 1.3149702
},
{
  "type": "node",
  "id": 6185067200,
  "lat": 51.3667957,
  "lon": 1.3149652
},
{
  "type": "node",
  "id": 1612858953,
  "lat": 51.3502472,
  "lon": 1.3495100
},
{
  "type": "node",
  "id": 2288413881,
  "lat": 51.3496022,
  "lon": 1.3477307
},
{
  "type": "node",
  "id": 2288413978,
  "lat": 51.3493350,
  "lon": 1.3480768
},
{
  "type": "node",
  "id": 2288414027,
  "lat": 51.3495129,
  "lon": 1.3484952
},
{
  "type": "node",
  "id": 2288414063,
  "lat": 51.3496455,
  "lon": 1.3476835
},
{
  "type": "node",
  "id": 2288414078,
  "lat": 51.3496182,
  "lon": 1.3477682
},
{
  "type": "node",
  "id": 2288414082,
  "lat": 51.3498393,
  "lon": 1.3481394
},
{
  "type": "node",
  "id": 5761911282,
  "lat": 51.3503159,
  "lon": 1.3497058
},
{
  "type": "node",
  "id": 5761911283,
  "lat": 51.3502485,
  "lon": 1.3497664
},
{
  "type": "node",
  "id": 5761911284,
  "lat": 51.3502642,
  "lon": 1.3498111
},
{
  "type": "node",
  "id": 5761911285,
  "lat": 51.3502850,
  "lon": 1.3497924
},
{
  "type": "node",
  "id": 5761911286,
  "lat": 51.3503516,
  "lon": 1.3499823
},
{
  "type": "node",
  "id": 5761911288,
  "lat": 51.3501429,
  "lon": 1.3499008
},
{
  "type": "node",
  "id": 5761911289,
  "lat": 51.3501860,
  "lon": 1.3498620
},
{
  "type": "node",
  "id": 5761911290,
  "lat": 51.3501068,
  "lon": 1.3496364
},
{
  "type": "node",
  "id": 5761911287,
  "lat": 51.3502147,
  "lon": 1.3501055
},
{
  "type": "node",
  "id": 29031195,
  "lat": 51.3314596,
  "lon": 1.4221778
},
{
  "type": "node",
  "id": 1200008906,
  "lat": 51.3316110,
  "lon": 1.4225267
},
{
  "type": "node",
  "id": 1200009967,
  "lat": 51.3315558,
  "lon": 1.4225881
},
{
  "type": "node",
  "id": 1200010988,
  "lat": 51.3314044,
  "lon": 1.4222392
},
{
  "type": "node",
  "id": 1607004841,
  "lat": 51.3314449,
  "lon": 1.4221941
},
{
  "type": "node",
  "id": 1607004842,
  "lat": 51.3315166,
  "lon": 1.4223069
},
{
  "type": "node",
  "id": 1607004843,
  "lat": 51.3315290,
  "lon": 1.4222946
},
{
  "type": "node",
  "id": 1607004844,
  "lat": 51.3315741,
  "lon": 1.4224019
},
{
  "type": "node",
  "id": 1607004845,
  "lat": 51.3315634,
  "lon": 1.4224142
},
{
  "type": "node",
  "id": 2935797205,
  "lat": 51.3665439,
  "lon": 1.3936615
},
{
  "type": "node",
  "id": 2935797206,
  "lat": 51.3671919,
  "lon": 1.3932213
},
{
  "type": "node",
  "id": 2935797207,
  "lat": 51.3670664,
  "lon": 1.3932968
},
{
  "type": "node",
  "id": 2935797208,
  "lat": 51.3670765,
  "lon": 1.3933397
},
{
  "type": "node",
  "id": 2935797210,
  "lat": 51.3674335,
  "lon": 1.3909775
},
{
  "type": "node",
  "id": 2935797216,
  "lat": 51.3667187,
  "lon": 1.3919169
},
{
  "type": "node",
  "id": 2935797217,
  "lat": 51.3666143,
  "lon": 1.3914729
},
{
  "type": "node",
  "id": 2935797218,
  "lat": 51.3667248,
  "lon": 1.3913441
},
{
  "type": "node",
  "id": 2935797224,
  "lat": 51.3668588,
  "lon": 1.3912744
},
{
  "type": "node",
  "id": 2935797227,
  "lat": 51.3670314,
  "lon": 1.3925944
},
{
  "type": "node",
  "id": 2935797228,
  "lat": 51.3676994,
  "lon": 1.3920683
},
{
  "type": "node",
  "id": 2935797231,
  "lat": 51.3671578,
  "lon": 1.3932418
},
{
  "type": "node",
  "id": 2935797232,
  "lat": 51.3678870,
  "lon": 1.3928032
},
{
  "type": "node",
  "id": 2935797234,
  "lat": 51.3670080,
  "lon": 1.3926027
},
{
  "type": "node",
  "id": 2935797235,
  "lat": 51.3668420,
  "lon": 1.3918537
},
{
  "type": "node",
  "id": 2935797236,
  "lat": 51.3677530,
  "lon": 1.3920415
},
{
  "type": "node",
  "id": 2935797238,
  "lat": 51.3670518,
  "lon": 1.3926895
},
{
  "type": "node",
  "id": 2935797240,
  "lat": 51.3670606,
  "lon": 1.3926827
},
{
  "type": "node",
  "id": 2935797245,
  "lat": 51.3668454,
  "lon": 1.3911993
},
{
  "type": "node",
  "id": 2935797249,
  "lat": 51.3670162,
  "lon": 1.3911081
},
{
  "type": "node",
  "id": 2935797260,
  "lat": 51.3670430,
  "lon": 1.3912207
},
{
  "type": "node",
  "id": 2935797264,
  "lat": 51.3661052,
  "lon": 1.3917894
},
{
  "type": "node",
  "id": 2935797265,
  "lat": 51.3676659,
  "lon": 1.3916874
},
{
  "type": "node",
  "id": 2935797266,
  "lat": 51.3676190,
  "lon": 1.3917196
},
{
  "type": "node",
  "id": 5418423224,
  "lat": 51.3896902,
  "lon": 1.3841732
},
{
  "type": "node",
  "id": 5418423225,
  "lat": 51.3896385,
  "lon": 1.3841145
},
{
  "type": "node",
  "id": 5418423226,
  "lat": 51.3895534,
  "lon": 1.3843216
},
{
  "type": "node",
  "id": 5418423227,
  "lat": 51.3896105,
  "lon": 1.3843838
},
{
  "type": "node",
  "id": 1175651512,
  "lat": 51.3600276,
  "lon": 1.4332156
},
{
  "type": "node",
  "id": 1175651841,
  "lat": 51.3600672,
  "lon": 1.4332716
},
{
  "type": "node",
  "id": 1175651933,
  "lat": 51.3597841,
  "lon": 1.4330899
},
{
  "type": "node",
  "id": 1175652005,
  "lat": 51.3600169,
  "lon": 1.4333018
},
{
  "type": "node",
  "id": 1175652150,
  "lat": 51.3600286,
  "lon": 1.4332142
},
{
  "type": "node",
  "id": 1175652560,
  "lat": 51.3600442,
  "lon": 1.4332150
},
{
  "type": "node",
  "id": 1175652662,
  "lat": 51.3601704,
  "lon": 1.4331927
},
{
  "type": "node",
  "id": 1175652953,
  "lat": 51.3600562,
  "lon": 1.4332247
},
{
  "type": "node",
  "id": 1175653019,
  "lat": 51.3601870,
  "lon": 1.4330856
},
{
  "type": "node",
  "id": 1175653399,
  "lat": 51.3600056,
  "lon": 1.4332584
},
{
  "type": "node",
  "id": 1175653468,
  "lat": 51.3597129,
  "lon": 1.4330615
},
{
  "type": "node",
  "id": 1175653551,
  "lat": 51.3600460,
  "lon": 1.4333106
},
{
  "type": "node",
  "id": 1175653668,
  "lat": 51.3600400,
  "lon": 1.4331407
},
{
  "type": "node",
  "id": 1175653995,
  "lat": 51.3600600,
  "lon": 1.4332958
},
{
  "type": "node",
  "id": 1175654068,
  "lat": 51.3597371,
  "lon": 1.4329061
},
{
  "type": "node",
  "id": 1175654235,
  "lat": 51.3600659,
  "lon": 1.4332471
},
{
  "type": "node",
  "id": 1175654322,
  "lat": 51.3600085,
  "lon": 1.4332848
},
{
  "type": "node",
  "id": 1175654354,
  "lat": 51.3599741,
  "lon": 1.4331154
},
{
  "type": "node",
  "id": 1175654436,
  "lat": 51.3600131,
  "lon": 1.4332306
},
{
  "type": "node",
  "id": 1175654555,
  "lat": 51.3599628,
  "lon": 1.4331880
},
{
  "type": "node",
  "id": 1175654920,
  "lat": 51.3600312,
  "lon": 1.4333122
},
{
  "type": "node",
  "id": 1175654982,
  "lat": 51.3597915,
  "lon": 1.4330426
},
{
  "type": "way",
  "id": 101835150,
  "nodes": [
    1175653019,
    1175652662,
    1175653668,
    1175652150,
    1175654555,
    1175654354,
    1175654982,
    1175651933,
    1175653468,
    1175654068,
    1175653019
  ]
},
{
  "type": "way",
  "id": 101835188,
  "nodes": [
    1175654322,
    1175653399,
    1175654436,
    1175651512,
    1175652560,
    1175652953,
    1175654235,
    1175651841,
    1175653995,
    1175653551,
    1175654920,
    1175652005,
    1175654322
  ]
}

  ]
}
