{
  "version": 0.6,
  "generator": "Overpass API 0.7.55.1011 6c2efc30",
  "osm3s": {
    "timestamp_osm_base": "2020-02-14T08:44:02Z",
    "copyright": "The data included in this document is from www.openstreetmap.org. The data is made available under ODbL."
  },
  "elements": [

{
  "type": "node",
  "id": 322663217,
  "lat": 51.6446481,
  "lon": -2.6723283,
  "tags": {
    "name": "Chepstow Museum",
    "tourism": "museum"
  }
},
{
  "type": "node",
  "id": 368610180,
  "lat": 51.3825066,
  "lon": -2.3669406,
  "tags": {
    "addr:city": "Bath",
    "addr:housenumber": "19",
    "addr:street": "New King Street",
    "name": "Herschel Museum of Astronomy",
    "operator": "Bath Preservation Trust",
    "tourism": "museum",
    "website": "https://herschelmuseum.org.uk/",
    "wheelchair": "no",
    "wikidata": "Q3369709"
  }
},
{
  "type": "node",
  "id": 369729598,
  "lat": 51.4575708,
  "lon": -2.1144033,
  "tags": {
    "addr:city": "Chippenham",
    "addr:housenumber": "10",
    "addr:postcode": "SN15 3HF",
    "addr:street": "Market Place",
    "name": "Chippenham Museum & Heritage Centre",
    "tourism": "museum"
  }
},
{
  "type": "node",
  "id": 417508210,
  "lat": 51.5613590,
  "lon": -3.0275888,
  "tags": {
    "name": "Tredegar House",
    "name:cy": "Tŷ Tredegar",
    "note": "Country Park and house tours",
    "tourism": "museum"
  }
},
{
  "type": "node",
  "id": 448353187,
  "lat": 51.3496471,
  "lon": -2.9739021,
  "tags": {
    "name": "Lambretta Museum",
    "note": "Is this still open?  There are still signposts directing pedestrians to it.",
    "tourism": "museum"
  }
},
{
  "type": "node",
  "id": 470249073,
  "lat": 51.5856720,
  "lon": -2.9937626,
  "tags": {
    "addr:city": "Newport",
    "addr:postcode": "NP20 1PA",
    "addr:street": "John Frost Square",
    "name": "City Museum and Art Gallery",
    "note": "In library building",
    "opening_hours": "Tu-Sa 09:30-17:00 Su 09:30-16:00",
    "operator": "Newport City Council",
    "operator:type": "public",
    "phone": "+44 1633 656656",
    "tourism": "museum",
    "website": "http://www.newport.gov.uk/heritage/Homepage.aspx",
    "wikidata": "Q15262183",
    "wikipedia": "en:Newport Museum"
  }
},
{
  "type": "node",
  "id": 470292585,
  "lat": 51.6101155,
  "lon": -2.9553441,
  "tags": {
    "addr:city": "Newport",
    "addr:country": "GB",
    "addr:postcode": "NP18 1AE",
    "addr:street": "High Street",
    "addr:suburb": "Caerleon",
    "alt_name": "National Roman Legion Museum",
    "name": "Roman Legionary Museum Caerleon",
    "name:ar": "متحف الفيلق الروماني",
    "name:cy": "Amgueddfa'r Lleng Rufeinig Caerlion",
    "name:de": "Römisches Legionsmuseum Caerleon",
    "name:en": "Roman Legionary Museum Caerleon",
    "name:fr": "Musée légionnaire romain Caerleon",
    "name:ru": "Музей римского легионера Карлеон",
    "note": "alt_name is from the little plaque; main name (cy & en) from the larger sign.",
    "phone": "+44 1633 423134",
    "source": "photograph",
    "tourism": "museum",
    "wikidata": "Q6978140",
    "wikipedia": "en:National Roman Legion Museum"
  }
},
{
  "type": "node",
  "id": 474832927,
  "lat": 51.2871519,
  "lon": -2.8175893,
  "tags": {
    "HE_ref": "1059142",
    "historic": "house",
    "listed_status": "Grade II*",
    "name": "King John's Hunting Lodge;King John's Hunting Lodge (Axbridge Museum)",
    "operator": "National Trust",
    "tourism": "museum",
    "website": "https://www.nationaltrust.org.uk/king-johns-hunting-lodge",
    "wikidata": "Q15238528",
    "wikimedia_commons": "Category:King John's Hunting Lodge, Axbridge"
  }
},
{
  "type": "node",
  "id": 691368104,
  "lat": 51.2953269,
  "lon": -2.8919346,
  "tags": {
    "name": "Webbington Farm",
    "source": "OS OpenData StreetView",
    "tourism": "museum"
  }
},
{
  "type": "node",
  "id": 693647171,
  "lat": 51.1884765,
  "lon": -2.5480700,
  "tags": {
    "tourism": "museum"
  }
},
{
  "type": "node",
  "id": 937201526,
  "lat": 51.6101809,
  "lon": -2.9540734,
  "tags": {
    "fee": "no",
    "historic": "archaeological_site",
    "name": "Caerleon Roman Fortress Baths",
    "name:cy": "Baddonau Caer Rufeinig Caerllion",
    "name:en": "Caerleon Roman Fortress Baths",
    "opening_hours": "Apr-Oct 09:30-17:00; Nov-Mar Mo-Sa 09:30-17:00; Nov-Mar Su 11:00-16:00; Dec 24-26 off; Jan 1 off",
    "tourism": "museum",
    "wikidata": "Q16897072"
  }
},
{
  "type": "node",
  "id": 1118711994,
  "lat": 51.3206057,
  "lon": -2.2093269,
  "tags": {
    "name": "Trowbridge Museum",
    "tourism": "museum",
    "wikidata": "Q7846682"
  }
},
{
  "type": "node",
  "id": 1179833836,
  "lat": 51.2322956,
  "lon": -2.3198315,
  "tags": {
    "name": "Frome Museum",
    "tourism": "museum",
    "wikidata": "Q5505735"
  }
},
{
  "type": "node",
  "id": 1393630622,
  "lat": 51.2820640,
  "lon": -2.7662445,
  "tags": {
    "name": "Cheddar Man and the Cannibals",
    "tourism": "museum"
  }
},
{
  "type": "node",
  "id": 1498911699,
  "lat": 51.7024764,
  "lon": -2.6716066,
  "tags": {
    "tourism": "museum"
  }
},
{
  "type": "node",
  "id": 1716233613,
  "lat": 51.4950612,
  "lon": -2.2263462,
  "tags": {
    "name": "Castle Combe Museum",
    "tourism": "museum"
  }
},
{
  "type": "node",
  "id": 2679028086,
  "lat": 51.3464314,
  "lon": -2.2501766,
  "tags": {
    "name": "Bradford on Avon Museum",
    "tourism": "museum",
    "website": "http://www.bradfordonavonmuseum.co.uk/"
  }
},
{
  "type": "node",
  "id": 2697518597,
  "lat": 51.3862376,
  "lon": -2.3628285,
  "tags": {
    "addr:housename": "Assembly Rooms",
    "addr:postcode": "BA1 2QH",
    "addr:street": "Bennett Street",
    "description": "Fashionable dress for men, women and children from the late 16th century to the present day",
    "name": "Assembly Rooms and Fashion Museum",
    "opening_hours": "10:30-17:00",
    "operator": "Bath & North East Somerset Council",
    "source": "website",
    "source:description": "en:wikipedia",
    "tourism": "museum",
    "website": "https://www.fashionmuseum.co.uk/",
    "wheelchair": "yes",
    "wikidata": "Q5436742",
    "wikipedia": "en:Fashion Museum, Bath"
  }
},
{
  "type": "node",
  "id": 2886449890,
  "lat": 51.7714984,
  "lon": -2.6128241,
  "tags": {
    "name": "Clearwell Caves",
    "tourism": "museum"
  }
},
{
  "type": "node",
  "id": 2886450020,
  "lat": 51.7804736,
  "lon": -2.6110134,
  "tags": {
    "name": "Puzzle Words",
    "tourism": "museum"
  }
},
{
  "type": "node",
  "id": 2888327044,
  "lat": 51.7356815,
  "lon": -2.5389939,
  "tags": {
    "name": "Dean Forest Railway",
    "tourism": "museum"
  }
},
{
  "type": "node",
  "id": 2888368392,
  "lat": 51.7027501,
  "lon": -2.6711534,
  "tags": {
    "name": "Tintern Old Station",
    "tourism": "museum"
  }
},
{
  "type": "node",
  "id": 3690529766,
  "lat": 51.4556535,
  "lon": -2.5947736,
  "tags": {
    "addr:city": "Bristol",
    "addr:housenumber": "27",
    "addr:postcode": "BS1 2HG",
    "addr:street": "Broad Street",
    "addr:suburb": "City Centre",
    "fee": "no",
    "name": "Palestinian Museum",
    "tourism": "museum",
    "wheelchair": "no"
  }
},
{
  "type": "node",
  "id": 3804338083,
  "lat": 51.4170550,
  "lon": -2.2548553,
  "tags": {
    "name": "Box Rock Circus",
    "tourism": "museum"
  }
},
{
  "type": "node",
  "id": 4523986945,
  "lat": 51.3834392,
  "lon": -2.3600760,
  "tags": {
    "name": "Bath Postal Museum",
    "tourism": "museum",
    "wheelchair": "yes",
    "wheelchair:description": "Stairlift to basement museum.",
    "wikidata": "Q4375431"
  }
},
{
  "type": "node",
  "id": 4997338411,
  "lat": 51.2273658,
  "lon": -2.6717054,
  "tags": {
    "name": "Paper Making Museum",
    "tourism": "museum"
  }
},
{
  "type": "node",
  "id": 4997338413,
  "lat": 51.2275583,
  "lon": -2.6716053,
  "tags": {
    "name": "Cave Diving Museum",
    "tourism": "museum"
  }
},
{
  "type": "way",
  "id": 22731472,
  "nodes": [
    243836754,
    243836755,
    243836756,
    243836757,
    6537753108,
    243836758,
    243836759,
    243836760,
    243836761,
    243836762,
    243836763,
    243836764,
    243836765,
    243836754
  ],
  "tags": {
    "addr:city": "Bristol",
    "addr:postcode": "BS16 1DD",
    "addr:street": "Blackberry Hill",
    "building": "yes",
    "name": "Glenside Hospital Museum",
    "tourism": "museum",
    "wikidata": "Q26497679"
  }
},
{
  "type": "way",
  "id": 23533441,
  "nodes": [
    254843401,
    1850590674,
    1850590673,
    254843402,
    4016719858,
    254843403,
    4016719859,
    1850590678,
    1850590676,
    254843404,
    254843401
  ],
  "tags": {
    "addr:postcode": "BS16 1SZ",
    "building": "yes",
    "name": "Frenchay Village Museum",
    "tourism": "museum"
  }
},
{
  "type": "way",
  "id": 27832246,
  "nodes": [
    305579302,
    305579303,
    305579305,
    305579306,
    305579302
  ],
  "tags": {
    "building": "yes",
    "name": "Fox Talbot Museum",
    "operator": "National Trust",
    "tourism": "museum",
    "website": "https://www.nationaltrust.org.uk/lacock-abbey-fox-talbot-museum-and-village",
    "wheelchair": "yes",
    "wikidata": "Q26273040"
  }
},
{
  "type": "way",
  "id": 36990873,
  "nodes": [
    430187625,
    430187626,
    1860690636,
    1860690627,
    1860690668,
    1860690628,
    4158461784,
    430187627,
    1860690716,
    1860690663,
    1860690589,
    1860690592,
    1860690720,
    1860690633,
    2628774548,
    1860690684,
    1860690688,
    430187625
  ],
  "tags": {
    "addr:city": "Bristol",
    "addr:postcode": "BS8 1RL",
    "addr:street": "Queens Road",
    "addr:suburb": "City Centre",
    "building": "yes",
    "email": "general.museum@bristol.gov.uk",
    "name": "Bristol City Museum & Art Gallery",
    "phone": "+44 117 922 3571",
    "tourism": "museum",
    "twitter": "bristol_museum",
    "website": "https://www.bristol.gov.uk/ccm/content/Leisure-Culture/Museums-Galleries/bristols-city-museum---art-gallery.en",
    "wheelchair": "yes",
    "wikipedia": "en:Bristol City Museum and Art Gallery"
  }
},
{
  "type": "way",
  "id": 40034967,
  "nodes": [
    1873505382,
    26428429,
    481390339,
    479090343,
    481390341,
    4171766880,
    2073737627,
    2073737624,
    1324422734,
    2073737610,
    4171766879,
    4171766881,
    460409152,
    2697592095,
    479090376,
    2697592096,
    1863269722,
    1926998257,
    1873505495,
    1873505465,
    1873505459,
    4171785610,
    1873505494,
    1873505428,
    1873505392,
    1873505516,
    1873505502,
    1926998262,
    1926998260,
    1926998265,
    1926998289,
    1926998286,
    1873505492,
    1873505357,
    1863269613,
    1873505467,
    1873505468,
    1873505382
  ],
  "tags": {
    "addr:housename": "The Holburne Museum",
    "addr:postcode": "BA2 4DB",
    "addr:street": "Great Pulteney Street",
    "description": "Art museum with about 9,000 objects",
    "fee": "free",
    "name": "Holburne Museum",
    "source:description": "website",
    "toilets:wheelchair": "yes",
    "tourism": "museum",
    "website": "https://www.holburne.org/",
    "wheelchair": "yes",
    "wikidata": "Q5878811",
    "wikipedia": "en:Holburne Museum of Art"
  }
},
{
  "type": "way",
  "id": 48937929,
  "nodes": [
    620993084,
    620993081,
    620993082,
    620993083,
    6277555553,
    6277555554,
    620993084
  ],
  "tags": {
    "addr:housename": "Great Eastern Hall",
    "addr:postcode": "BS1 6UP",
    "building": "yes",
    "name": "Maritime Heritage Museum",
    "tourism": "museum",
    "wheelchair": "yes"
  }
},
{
  "type": "way",
  "id": 74533973,
  "nodes": [
    880865385,
    3836365071,
    3836365072,
    3836365073,
    3836365074,
    3836365070,
    880871943,
    880871946,
    880871954,
    880865385
  ],
  "tags": {
    "addr:city": "Bath",
    "addr:housename": "The Old Schoolhouse",
    "addr:street": "The Paragon",
    "building": "yes",
    "name": "Museum of Bath Arcitecture",
    "opening_hours": "Tu-Fr 14:00-17:00; Sa,Su 10:30-17:00",
    "operator": "Bath Preservation Trust",
    "toilets:wheelchair": "no",
    "tourism": "museum",
    "website": "https://museumofbatharchitecture.org.uk/",
    "wheelchair": "yes",
    "wheelchair:description": "N.B. Historic building with uneven stone floor.  Toilets up a couple of steps."
  }
},
{
  "type": "way",
  "id": 79788073,
  "nodes": [
    5673692292,
    931302577,
    5666383356,
    5666383355,
    5666383354,
    5666383353,
    5666383352,
    5666383351,
    5666383350,
    5666383357,
    5666383363,
    5673692295,
    5673692294,
    5673692292
  ],
  "tags": {
    "addr:city": "Bath",
    "addr:housenumber": "16-18",
    "addr:postcode": "BA1 2HN",
    "addr:street": "Queen Square",
    "building": "commercial",
    "name": "Bath Royal Literary & Scientific Institution",
    "tourism": "museum",
    "website": "https://www.brlsi.org/",
    "wheelchair": "no"
  }
},
{
  "type": "way",
  "id": 80290576,
  "nodes": [
    937129650,
    937129651,
    937129652,
    937129653,
    937129655,
    937129656,
    937129650
  ],
  "tags": {
    "building": "yes",
    "name": "The American Museum (Claverton Manor)",
    "source": "Bing",
    "toilets:wheelchair": "yes",
    "tourism": "museum",
    "website": "http://www.americanmuseum.org/",
    "wheelchair": "yes",
    "wikidata": "Q465746"
  }
},
{
  "type": "way",
  "id": 85665451,
  "nodes": [
    993848601,
    993849073,
    993848270,
    993848537,
    993848471,
    993848692,
    993849107,
    3994877273,
    3994877275,
    3994877274,
    3994877272,
    3994877271,
    3994877267,
    993848193,
    993848601
  ],
  "tags": {
    "building": "yes",
    "name": "Wells Museum",
    "source": "OS_OpenData_StreetView",
    "tourism": "museum",
    "wikidata": "Q7981719"
  }
},
{
  "type": "way",
  "id": 97653396,
  "nodes": [
    26104493,
    1130519939,
    1130519926,
    1130519915,
    2956571095,
    1130519940,
    1130519910,
    2956571104,
    2990144170,
    2956571102,
    2956571103,
    2956571076,
    26104493
  ],
  "tags": {
    "addr:city": "Bristol",
    "addr:postcode": "BS1 5LJ",
    "addr:street": "Park Row",
    "addr:suburb": "City Centre",
    "building": "yes",
    "description": "Elizabethan house and museum",
    "historic": "house",
    "name": "The Red Lodge Museum",
    "opening_hours": "we-su 10:30-16:00",
    "phone": "+44 117 9211360",
    "start_date": "1580",
    "tourism": "museum",
    "website": "https://www.bristol.gov.uk/ccm/content/Leisure-Culture/Museums-Galleries/bristols-red-lodge.en",
    "wheelchair": "no",
    "wikidata": "Q7304549",
    "wikipedia": "en:Red Lodge Museum, Bristol"
  }
},
{
  "type": "way",
  "id": 97658208,
  "nodes": [
    843514391,
    1130661299,
    1130661294,
    1970752322,
    1130661297,
    843514391
  ],
  "tags": {
    "addr:city": "Bristol",
    "addr:housenumber": "7",
    "addr:postcode": "BS1 5RR",
    "addr:street": "Great George Street",
    "addr:suburb": "City Centre",
    "building": "yes",
    "name": "Georgian House Museum",
    "start_date": "1790",
    "tourism": "museum",
    "website": "https://www.bristol.gov.uk/ccm/content/Leisure-Culture/Museums-Galleries/bristols-georgian-house.en",
    "wheelchair": "no",
    "wikidata": "Q5548024",
    "wikipedia": "en:Georgian House, Bristol"
  }
},
{
  "type": "way",
  "id": 106253639,
  "nodes": [
    367040649,
    1223062912,
    1223063374,
    1223063284,
    1223063104,
    1223062996,
    1223063395,
    1223063352,
    1223063182,
    1223063048,
    1223062862,
    1223063394,
    367040649
  ],
  "tags": {
    "addr:housename": "The Chantry",
    "addr:postcode": "GL13 9BN",
    "addr:street": "Church Lane",
    "building": "yes",
    "name": "Jenner Museum",
    "tourism": "museum",
    "wikidata": "Q5343755"
  }
},
{
  "type": "way",
  "id": 107947405,
  "nodes": [
    5996050599,
    1239541718,
    1239541738,
    1239541674,
    1706093219,
    1706092894,
    1706092897,
    1239541709,
    1239541707,
    1239541704,
    5996050599
  ],
  "tags": {
    "addr:postcode": "BS24 8PP",
    "building": "yes",
    "name": "Helicopter Museum",
    "note": "History of Weston Airport",
    "tourism": "museum",
    "wikidata": "Q7739330",
    "wikipedia": "en:The Helicopter Museum (Weston)"
  }
},
{
  "type": "way",
  "id": 108832811,
  "nodes": [
    1247760819,
    1247760836,
    1247761018,
    1247760959,
    1247760879,
    1247760809,
    1247760993,
    1247760930,
    1247760851,
    1247760782,
    1247760963,
    1247760916,
    1247760819
  ],
  "tags": {
    "addr:housenumber": "81-83",
    "addr:street": "Stokes Croft",
    "building": "yes",
    "email": "info@gillywoo.com",
    "fee": "£1",
    "name": "Stokes Croft Museum",
    "official_name": "Stokes Croft Museum and Fake Memory Arcade",
    "opening_hours": "we-fr 11:00-15:00;sa 12:00-16:00",
    "photo": "http://bristolculture.files.wordpress.com/2012/08/gilly-woo-stokes-croft-bristol.jpg",
    "tourism": "museum",
    "website": "https://thestokescroftmuseum.wordpress.com/"
  }
},
{
  "type": "way",
  "id": 119429330,
  "nodes": [
    1342044538,
    1342044537,
    1342044529,
    1342044530,
    1342044525,
    1342044526,
    1342044527,
    1342044528,
    1342044532,
    1342044531,
    1342044533,
    1342044534,
    1342044536,
    1342044535,
    1342044538
  ],
  "tags": {
    "building": "yes",
    "name": "Thornbury and District Museum",
    "source": "survey",
    "source:outline": "Bing",
    "tourism": "museum"
  }
},
{
  "type": "way",
  "id": 120020819,
  "nodes": [
    1346735000,
    1346735008,
    1346735019,
    1346735016,
    1346735000
  ],
  "tags": {
    "addr:city": "Bath",
    "addr:postcode": "BA1 2RH",
    "addr:street": "Julian Road",
    "building": "yes",
    "fhrs:id": "204972",
    "name": "Museum of Bath at Work",
    "phone": "+44 1225 318348",
    "tourism": "museum",
    "website": "http://www.bath-at-work.org.uk",
    "wheelchair": "yes",
    "wheelchair:description": "Access available at rear of building",
    "wikidata": "Q15260368"
  }
},
{
  "type": "way",
  "id": 121115396,
  "nodes": [
    1052476722,
    3835562891,
    3835574681,
    3835574689,
    3835574682,
    3835574684,
    3835574683,
    1052476896,
    3835562895,
    1052477343,
    3835574679,
    1052477306,
    987483114,
    1052477251,
    987483118,
    1052476722
  ],
  "tags": {
    "addr:city": "Bath",
    "addr:housenumber": "1",
    "addr:postcode": "BA1 2LR",
    "addr:street": "Royal Crescent",
    "building": "yes",
    "fee": "yes",
    "fhrs:id": "771091",
    "name": "No.1 Royal Crescent Museum",
    "name:zh": "皇家新月楼1号",
    "opening_hours": "Mo-Su 10:00-17:00",
    "operator": "Bath Preservation Trust",
    "tourism": "museum",
    "website": "https://no1royalcrescent.org.uk/",
    "wheelchair": "limited",
    "wikidata": "Q21521452"
  }
},
{
  "type": "way",
  "id": 130404549,
  "nodes": [
    1436373216,
    1436373200,
    1436373199,
    1436373258,
    1436373310,
    1436373241,
    1436373195,
    1436373232,
    1436373196,
    1436373222,
    1436373216
  ],
  "tags": {
    "addr:city": "Bristol",
    "addr:housename": "Great Western Dock",
    "addr:postcode": "BS1 6TY",
    "addr:street": "Gas Ferry Road",
    "addr:suburb": "Hotwells",
    "building": "yes",
    "description": "Museum about the SS Great Britain, also on site.",
    "fee": "yes",
    "fhrs:id": "311870",
    "name": "SS Great Britain Museum",
    "tourism": "museum",
    "website": "https://www.ssgreatbritain.org/",
    "wheelchair": "yes",
    "wikidata": "Q744086"
  }
},
{
  "type": "way",
  "id": 130406832,
  "nodes": [
    1436391136,
    1436391094,
    1436391039,
    1436391048,
    1436391096,
    1436391216,
    1436391136
  ],
  "tags": {
    "addr:city": "Bristol",
    "addr:housename": "Hydraulic Engine House",
    "addr:street": "Avon Crescent",
    "building": "yes",
    "tourism": "museum",
    "wikidata": "Q17552703"
  }
},
{
  "type": "way",
  "id": 137725840,
  "nodes": [
    1510322755,
    5321004781,
    5321004780,
    1510322769,
    1510322758,
    2715770124,
    2715770013,
    2715769933,
    2715770056,
    1510322761,
    6226249535,
    1510322755
  ],
  "tags": {
    "building": "yes",
    "name": "Wiltshire and Swindon History Centre",
    "operator": "Wiltshire Council",
    "tourism": "museum"
  }
},
{
  "type": "way",
  "id": 144473712,
  "nodes": [
    1580236356,
    1580235888,
    3397563176,
    3397563177,
    3365844191,
    4309968093,
    1580236356
  ],
  "tags": {
    "addr:postcode": "BA3 3EP",
    "building": "yes",
    "fhrs:id": "203997",
    "name": "Radstock Museum",
    "tourism": "museum",
    "website": "radstockmuseum.co.uk/",
    "wikidata": "Q7281699"
  }
},
{
  "type": "way",
  "id": 162014589,
  "nodes": [
    1739600747,
    1739600760,
    1739600758,
    1739600764,
    1739600768,
    1739600770,
    1739600772,
    1739600766,
    1739600748,
    1739600762,
    1739600747
  ],
  "tags": {
    "building": "yes",
    "name": "Kingswood Heritage Museum",
    "source:outline": "Bing",
    "tourism": "museum"
  }
},
{
  "type": "way",
  "id": 166695215,
  "nodes": [
    1781465467,
    1781465469,
    1781465460,
    1781465464,
    1781465470,
    1781465466,
    1781465463,
    1781465462,
    1781465465,
    1781465468,
    1781465467
  ],
  "tags": {
    "amenity": "cafe",
    "building": "yes",
    "historic": "farm",
    "name": "Llanyrafon Manor Rural Heritage Centre",
    "tourism": "museum"
  }
},
{
  "type": "way",
  "id": 166854936,
  "nodes": [
    1782783881,
    1782783882,
    1782783877,
    1782783883,
    1782783879,
    1782783897,
    1782783887,
    1782783890,
    1782783884,
    1782783886,
    1782783889,
    1782783885,
    1782783881
  ],
  "tags": {
    "tourism": "museum"
  }
},
{
  "type": "way",
  "id": 265886158,
  "nodes": [
    2714936176,
    2714936164,
    2714936153,
    2714936141,
    2714936146,
    2714936114,
    2714936110,
    2714936113,
    2714936112,
    260975708,
    2714936138,
    2714936149,
    2714936150,
    2714936158,
    2714936167,
    2714936168,
    2714936165,
    2714936161,
    2714936173,
    2714936176
  ],
  "tags": {
    "addr:city": "Bristol",
    "addr:postcode": "BS10 7QS",
    "addr:street": "Henbury Road",
    "building": "yes",
    "name": "Blaise Castle House Museum",
    "tourism": "museum"
  }
},
{
  "type": "way",
  "id": 275356458,
  "nodes": [
    2799984816,
    2799984817,
    2799984818,
    2799984819,
    2799984820,
    4091069448,
    2799984821,
    2799984822,
    2799984823,
    2799984816
  ],
  "tags": {
    "addr:city": "Wotton-under-Edge",
    "addr:postcode": "GL12 7AD",
    "addr:street": "The Chipping",
    "building": "yes",
    "fhrs:id": "216131",
    "name": "Wotton-under-Edge Heritage Centre",
    "tourism": "museum",
    "website": "https://www.wottonheritage.com/"
  }
},
{
  "type": "way",
  "id": 275827627,
  "nodes": [
    2804948827,
    2804948818,
    2804948820,
    2804948810,
    2804948813,
    2804948834,
    2804948827
  ],
  "tags": {
    "building": "yes",
    "tourism": "museum"
  }
},
{
  "type": "way",
  "id": 277783061,
  "nodes": [
    2822431170,
    2822431167,
    2822431176,
    2822431179,
    2822431170
  ],
  "tags": {
    "addr:city": "Bristol",
    "addr:housenumber": "48",
    "addr:postcode": "BS1 5LH",
    "addr:street": "Park Row",
    "amenity": "theatre",
    "building": "yes",
    "contact:email": "info@stradlingcollection.org",
    "contact:phone": "+441173290566",
    "contact:website": "http://stradlingcollection.org",
    "long_name": "Ken Stradling Collection",
    "name": "KSC",
    "opening_hours": "We 11:00-16:00; Sa 11:00-16:00 \"During exhibitions\"",
    "tourism": "museum"
  }
},
{
  "type": "way",
  "id": 298233966,
  "nodes": [
    3021395183,
    3021395184,
    3021395185,
    3021395186,
    3021395187,
    3021395188,
    3021395189,
    3021395190,
    3021395191,
    3021395192,
    3021395193,
    3021395194,
    3021395195,
    3021395196,
    3021395183
  ],
  "tags": {
    "addr:housename": "Müller House",
    "addr:housenumber": "7",
    "addr:postcode": "BS6 6DA",
    "addr:street": "Cotham Park",
    "building": "house",
    "facebook": "https://www.facebook.com/mullersbristol/",
    "name": "Muller House",
    "phone": "+44 117 924 5001",
    "tourism": "museum",
    "twitter": "mullersbristol",
    "website": "https://www.mullers.org/museum"
  }
},
{
  "type": "way",
  "id": 338884626,
  "nodes": [
    1860690689,
    3460374457,
    1130578192,
    3460374452,
    3460374455,
    3460374456,
    1860690689
  ],
  "tags": {
    "addr:postcode": "BS8 1RL",
    "building": "yes",
    "email": "general.museum@bristol.gov.uk",
    "name": "Bristol City Museum & Art Gallery",
    "phone": "+44 117 922 3571",
    "tourism": "museum",
    "twitter": "bristol_museum",
    "website": "https://www.bristol.gov.uk/ccm/content/Leisure-Culture/Museums-Galleries/bristols-city-museum---art-gallery.en",
    "wheelchair": "yes",
    "wikipedia": "en:Bristol City Museum and Art Gallery"
  }
},
{
  "type": "way",
  "id": 365838668,
  "nodes": [
    3698428828,
    3698428827,
    3698428830,
    3698428829,
    3698428831,
    3698428832,
    3698428835,
    3698428836,
    3698428833,
    3698428834,
    3698428837,
    3698428838,
    3698428828
  ],
  "tags": {
    "addr:housename": "Clevedon Story Heritage Centre",
    "addr:housenumber": "4",
    "building": "yes",
    "name": "Clevedon Pier Shop",
    "tourism": "museum"
  }
},
{
  "type": "way",
  "id": 371698245,
  "nodes": [
    3751555065,
    3752543930,
    617179443,
    617179447,
    1354973250,
    617179450,
    3751555067,
    3751555065
  ],
  "tags": {
    "addr:city": "Bath",
    "addr:housenumber": "12",
    "addr:postcode": "BA1 2QJ",
    "addr:street": "Bennett Street",
    "building": "yes",
    "description": "Last admission to the museum is at 16:30. Closed on Mondays and Bank Holiday Mondays.",
    "name": "Museum of East Asian Art",
    "opening_hours": "Tu-Sa 10:00-17:00; Su 12:00-17:00",
    "source": "Personal knowledge & MEAA website",
    "tourism": "museum",
    "website": "https://meaa.org.uk/",
    "wheelchair": "limited",
    "wikidata": "Q3328433"
  }
},
{
  "type": "way",
  "id": 372264781,
  "nodes": [
    3758202938,
    3758202937,
    3758202951,
    3758202936,
    3758202941,
    3758202934,
    3758202939,
    3758202938
  ],
  "tags": {
    "name": "Sandford Station Railway Heritage Centre",
    "tourism": "museum",
    "website": "http://sandfordstation.co.uk/"
  }
},
{
  "type": "way",
  "id": 376749771,
  "nodes": [
    3801381215,
    3801381209,
    3801381212,
    3801381216,
    3801381215
  ],
  "tags": {
    "building": "yes",
    "name": "Garden Welcome Centre",
    "tourism": "museum"
  }
},
{
  "type": "way",
  "id": 397358060,
  "nodes": [
    4001508122,
    264677200,
    264677199,
    4001508123,
    4001508122
  ],
  "tags": {
    "addr:city": "Bristol",
    "addr:postcode": "BS1 4RN",
    "addr:street": "Princes Wharf",
    "addr:suburb": "Wapping Wharf",
    "building": "yes",
    "description": "Industrial museum",
    "fee": "free",
    "name": "M Shed",
    "old_name": "Museum about Bristol with a collection of historic ships.",
    "opening_hours": "Tu-Fr 10:00-17:00;Sa-Mo 10:00-18:00",
    "tourism": "museum",
    "website": "mshed.org",
    "wikidata": "Q6720527",
    "wikipedia": "en:M Shed"
  }
},
{
  "type": "way",
  "id": 541580046,
  "nodes": [
    5236796038,
    975777759,
    3842877265,
    3842877262,
    1892874517,
    1892874515,
    975766427,
    3842877270,
    151003900,
    5236796040,
    5236796038
  ],
  "tags": {
    "addr:city": "Bristol",
    "addr:housename": "One Millennium Square",
    "addr:postcode": "BS1 5DB",
    "addr:street": "Anchor Road",
    "building": "yes",
    "loc_name": "Harbourside",
    "museum": "science",
    "name": "We The Curious",
    "old_name": "@Bristol",
    "opening_hours": "Mo-Fr 10:00-17:00, Sa-Su 10:00-18:00",
    "phone": "+44 117 915 1000",
    "tourism": "museum",
    "twitter": "wethecurious_",
    "website": "https://www.wethecurious.org/",
    "wheelchair": "yes",
    "wikidata": "Q4812263",
    "wikipedia": "en:We The Curious"
  }
},
{
  "type": "way",
  "id": 556869803,
  "nodes": [
    5371357025,
    5371357024,
    5371357023,
    5371357022,
    5371357021,
    5371357020,
    5371357019,
    5371357025
  ],
  "tags": {
    "addr:city": "Bristol",
    "addr:postcode": "BS8 3PA",
    "addr:street": "Bridge Road",
    "addr:suburb": "Leigh Woods",
    "building": "yes",
    "information": "office",
    "name": "Clifton Suspension Bridge Visitor Centre",
    "tourism": "museum"
  }
},
{
  "type": "way",
  "id": 557083339,
  "nodes": [
    5373040469,
    5373059235,
    5373059228,
    5373059240,
    5373040470,
    5373040469
  ],
  "tags": {
    "addr:city": "Bath",
    "addr:housenumber": "40",
    "addr:postcode": "BA1 2NT",
    "addr:street": "Gay Street",
    "building": "retail",
    "fhrs:id": "204296",
    "name": "Jane Austen Centre",
    "phone": "+44 1225 443000",
    "tourism": "museum",
    "website": "https://www.janeausten.co.uk/",
    "wheelchair": "no",
    "wheelchair:description": "Big step at front. Ramp available on request. exhibition on single floor, but tea room upstairs",
    "wikidata": "Q6151132"
  }
},
{
  "type": "way",
  "id": 636269892,
  "nodes": [
    6000105346,
    6000105348,
    6000105349,
    6000105350,
    6000105351,
    6000105346
  ],
  "tags": {
    "addr:city": "Bath",
    "addr:country": "GB",
    "addr:housenumber": "54a",
    "addr:postcode": "BA2 5HZ",
    "addr:street": "Combe Road",
    "addr:suburb": "Combe Down",
    "building": "museum",
    "name": "Museum of Bath Stone",
    "opening_hours": "Su 10:00-16:00; Mo 10:00-13:00, 14:00-16:00",
    "phone": "+44 1225 837 439",
    "tourism": "museum",
    "website": "https://www.museumofbathstone.org/"
  }
},
{
  "type": "way",
  "id": 639386100,
  "nodes": [
    6024848098,
    6024848097,
    6024848096,
    6024848095,
    6024848094,
    6024848093,
    6024848092,
    6024848091,
    6024848090,
    6024848089,
    6024848088,
    6024848087,
    6024848086,
    6024848085,
    6024847884,
    6024847883,
    6024847882,
    6024847881,
    6024847880,
    6024847879,
    6024847878,
    6024847877,
    6024847876,
    6024847875,
    6024847874,
    6024847873,
    6024847872,
    6024847871,
    6024847870,
    6024847869,
    6024847868,
    6024847867,
    6024847866,
    6024847865,
    6024848098
  ],
  "tags": {
    "HE_ref": "1320936",
    "addr:postcode": "BS40 7UN",
    "building": "yes",
    "fee": "no",
    "listed_status": "Grade II*",
    "man_made": "pumping_station",
    "name": "Blagdon Pumping Station & Visitor Centre",
    "tourism": "museum",
    "wikidata": "Q26263502"
  }
},
{
  "type": "way",
  "id": 669416056,
  "nodes": [
    1436391216,
    1436391112,
    1436391152,
    1436391136,
    1436391216
  ],
  "tags": {
    "addr:city": "Bristol",
    "addr:housename": "The Pump Room",
    "addr:street": "Avon Crescent",
    "building": "yes",
    "tourism": "museum"
  }
},
{
  "type": "way",
  "id": 678478017,
  "nodes": [
    5226532116,
    5226647479,
    1025494427,
    6352912639,
    6352912638,
    6352912637,
    6352912636,
    6352912635,
    6352912634,
    6352912633,
    6352912632,
    6352912617,
    6352912631,
    6352912630,
    6352912629,
    6352912628,
    6352912627,
    6352912626,
    6352912625,
    6352912624,
    6352912623,
    6352912621,
    32031278,
    32031277,
    32031276,
    6352912619,
    6352912618,
    6276888588,
    6276888587,
    32031275,
    6352912622,
    5226532116
  ],
  "tags": {
    "addr:city": "Bristol",
    "addr:postcode": "BS34 5BZ",
    "addr:street": "Hayes Way",
    "addr:suburb": "Patchway",
    "name": "Aerospace Bristol",
    "tourism": "museum"
  }
},
{
  "type": "way",
  "id": 692084796,
  "nodes": [
    6496388757,
    6496388758,
    6496388759,
    6496388762,
    6496388761,
    6496388760,
    6496388757
  ],
  "tags": {
    "amenity": "cafe",
    "building": "yes",
    "name": "Oakham Treasures",
    "tourism": "museum"
  }
},
{
  "type": "way",
  "id": 753576329,
  "nodes": [
    7040926688,
    7040926687,
    7040926686,
    7040926685,
    7040915384,
    7040915383,
    7040915382,
    7040915381,
    7040915380,
    7040915379,
    7040915378,
    7040915377,
    7040915376,
    7040915375,
    7040926688
  ],
  "tags": {
    "building": "yes",
    "fixme": "check",
    "name": "Weston Museum",
    "tourism": "museum"
  }
},
{
  "type": "node",
  "id": 7040915381,
  "lat": 51.3489226,
  "lon": -2.9753695
},
{
  "type": "node",
  "id": 7040915382,
  "lat": 51.3489392,
  "lon": -2.9753685
},
{
  "type": "node",
  "id": 7040915383,
  "lat": 51.3489406,
  "lon": -2.9754257
},
{
  "type": "node",
  "id": 7040915384,
  "lat": 51.3489871,
  "lon": -2.9754227
},
{
  "type": "node",
  "id": 7040926685,
  "lat": 51.3489866,
  "lon": -2.9754039
},
{
  "type": "node",
  "id": 7040926686,
  "lat": 51.3490446,
  "lon": -2.9754001
},
{
  "type": "node",
  "id": 7040926687,
  "lat": 51.3490463,
  "lon": -2.9754689
},
{
  "type": "node",
  "id": 7040926688,
  "lat": 51.3491249,
  "lon": -2.9754637
},
{
  "type": "node",
  "id": 7040915375,
  "lat": 51.3491101,
  "lon": -2.9748846
},
{
  "type": "node",
  "id": 7040915376,
  "lat": 51.3489207,
  "lon": -2.9748970
},
{
  "type": "node",
  "id": 7040915377,
  "lat": 51.3489041,
  "lon": -2.9751408
},
{
  "type": "node",
  "id": 7040915378,
  "lat": 51.3489306,
  "lon": -2.9751391
},
{
  "type": "node",
  "id": 7040915379,
  "lat": 51.3489327,
  "lon": -2.9752197
},
{
  "type": "node",
  "id": 7040915380,
  "lat": 51.3489188,
  "lon": -2.9752206
},
{
  "type": "node",
  "id": 1239541674,
  "lat": 51.3393479,
  "lon": -2.9315187
},
{
  "type": "node",
  "id": 1239541704,
  "lat": 51.3392247,
  "lon": -2.9319155
},
{
  "type": "node",
  "id": 1239541707,
  "lat": 51.3389009,
  "lon": -2.9316612
},
{
  "type": "node",
  "id": 1239541709,
  "lat": 51.3392618,
  "lon": -2.9304837
},
{
  "type": "node",
  "id": 1239541718,
  "lat": 51.3392967,
  "lon": -2.9319337
},
{
  "type": "node",
  "id": 1239541738,
  "lat": 51.3394091,
  "lon": -2.9315668
},
{
  "type": "node",
  "id": 1706092894,
  "lat": 51.3393839,
  "lon": -2.9305714
},
{
  "type": "node",
  "id": 1706092897,
  "lat": 51.3393030,
  "lon": -2.9305122
},
{
  "type": "node",
  "id": 1706093219,
  "lat": 51.3395623,
  "lon": -2.9307239
},
{
  "type": "node",
  "id": 5996050599,
  "lat": 51.3392342,
  "lon": -2.9318847
},
{
  "type": "node",
  "id": 3758202934,
  "lat": 51.3319922,
  "lon": -2.8393365
},
{
  "type": "node",
  "id": 3758202936,
  "lat": 51.3321133,
  "lon": -2.8392817
},
{
  "type": "node",
  "id": 3758202937,
  "lat": 51.3320468,
  "lon": -2.8393478
},
{
  "type": "node",
  "id": 3758202938,
  "lat": 51.3320450,
  "lon": -2.8393773
},
{
  "type": "node",
  "id": 3758202939,
  "lat": 51.3319908,
  "lon": -2.8393642
},
{
  "type": "node",
  "id": 3758202941,
  "lat": 51.3320028,
  "lon": -2.8392545
},
{
  "type": "node",
  "id": 3758202951,
  "lat": 51.3321052,
  "lon": -2.8393599
},
{
  "type": "node",
  "id": 993848193,
  "lat": 51.2107311,
  "lon": -2.6446524
},
{
  "type": "node",
  "id": 993848270,
  "lat": 51.2112216,
  "lon": -2.6446194
},
{
  "type": "node",
  "id": 993848471,
  "lat": 51.2109150,
  "lon": -2.6445894
},
{
  "type": "node",
  "id": 993848537,
  "lat": 51.2111825,
  "lon": -2.6447684
},
{
  "type": "node",
  "id": 993848601,
  "lat": 51.2112632,
  "lon": -2.6449802
},
{
  "type": "node",
  "id": 993848692,
  "lat": 51.2109785,
  "lon": -2.6443481
},
{
  "type": "node",
  "id": 993849073,
  "lat": 51.2113376,
  "lon": -2.6446971
},
{
  "type": "node",
  "id": 993849107,
  "lat": 51.2108246,
  "lon": -2.6442382
},
{
  "type": "node",
  "id": 3994877267,
  "lat": 51.2107519,
  "lon": -2.6445544
},
{
  "type": "node",
  "id": 3994877271,
  "lat": 51.2107900,
  "lon": -2.6445799
},
{
  "type": "node",
  "id": 3994877272,
  "lat": 51.2107998,
  "lon": -2.6445396
},
{
  "type": "node",
  "id": 3994877273,
  "lat": 51.2108076,
  "lon": -2.6443118
},
{
  "type": "node",
  "id": 3994877274,
  "lat": 51.2108215,
  "lon": -2.6445536
},
{
  "type": "node",
  "id": 3994877275,
  "lat": 51.2108637,
  "lon": -2.6443505
},
{
  "type": "node",
  "id": 6024847865,
  "lat": 51.3371570,
  "lon": -2.7149302
},
{
  "type": "node",
  "id": 6024847866,
  "lat": 51.3371478,
  "lon": -2.7149303
},
{
  "type": "node",
  "id": 6024847867,
  "lat": 51.3371483,
  "lon": -2.7151054
},
{
  "type": "node",
  "id": 6024847868,
  "lat": 51.3369790,
  "lon": -2.7151066
},
{
  "type": "node",
  "id": 6024847869,
  "lat": 51.3369791,
  "lon": -2.7151236
},
{
  "type": "node",
  "id": 6024847870,
  "lat": 51.3369468,
  "lon": -2.7151239
},
{
  "type": "node",
  "id": 6024847871,
  "lat": 51.3369467,
  "lon": -2.7150826
},
{
  "type": "node",
  "id": 6024847872,
  "lat": 51.3368675,
  "lon": -2.7150831
},
{
  "type": "node",
  "id": 6024847873,
  "lat": 51.3368677,
  "lon": -2.7151548
},
{
  "type": "node",
  "id": 6024847874,
  "lat": 51.3368392,
  "lon": -2.7151550
},
{
  "type": "node",
  "id": 6024847875,
  "lat": 51.3368390,
  "lon": -2.7150831
},
{
  "type": "node",
  "id": 6024847876,
  "lat": 51.3367237,
  "lon": -2.7150839
},
{
  "type": "node",
  "id": 6024847877,
  "lat": 51.3367237,
  "lon": -2.7151067
},
{
  "type": "node",
  "id": 6024847878,
  "lat": 51.3365517,
  "lon": -2.7151079
},
{
  "type": "node",
  "id": 6024847879,
  "lat": 51.3365513,
  "lon": -2.7149530
},
{
  "type": "node",
  "id": 6024847880,
  "lat": 51.3365383,
  "lon": -2.7149531
},
{
  "type": "node",
  "id": 6024847881,
  "lat": 51.3365379,
  "lon": -2.7148147
},
{
  "type": "node",
  "id": 6024847882,
  "lat": 51.3366587,
  "lon": -2.7148138
},
{
  "type": "node",
  "id": 6024847883,
  "lat": 51.3366580,
  "lon": -2.7145476
},
{
  "type": "node",
  "id": 6024847884,
  "lat": 51.3367689,
  "lon": -2.7145467
},
{
  "type": "node",
  "id": 6024848085,
  "lat": 51.3367697,
  "lon": -2.7148108
},
{
  "type": "node",
  "id": 6024848086,
  "lat": 51.3368137,
  "lon": -2.7148104
},
{
  "type": "node",
  "id": 6024848087,
  "lat": 51.3368133,
  "lon": -2.7146521
},
{
  "type": "node",
  "id": 6024848088,
  "lat": 51.3368743,
  "lon": -2.7146517
},
{
  "type": "node",
  "id": 6024848089,
  "lat": 51.3368747,
  "lon": -2.7148074
},
{
  "type": "node",
  "id": 6024848090,
  "lat": 51.3369192,
  "lon": -2.7148071
},
{
  "type": "node",
  "id": 6024848091,
  "lat": 51.3369190,
  "lon": -2.7147466
},
{
  "type": "node",
  "id": 6024848092,
  "lat": 51.3369411,
  "lon": -2.7147465
},
{
  "type": "node",
  "id": 6024848093,
  "lat": 51.3369408,
  "lon": -2.7146486
},
{
  "type": "node",
  "id": 6024848094,
  "lat": 51.3369249,
  "lon": -2.7146487
},
{
  "type": "node",
  "id": 6024848095,
  "lat": 51.3369246,
  "lon": -2.7145441
},
{
  "type": "node",
  "id": 6024848096,
  "lat": 51.3370337,
  "lon": -2.7145433
},
{
  "type": "node",
  "id": 6024848097,
  "lat": 51.3370345,
  "lon": -2.7148107
},
{
  "type": "node",
  "id": 6024848098,
  "lat": 51.3371567,
  "lon": -2.7148098
},
{
  "type": "node",
  "id": 3698428827,
  "lat": 51.4407581,
  "lon": -2.8611573
},
{
  "type": "node",
  "id": 3698428828,
  "lat": 51.4407688,
  "lon": -2.8613018
},
{
  "type": "node",
  "id": 3698428829,
  "lat": 51.4407752,
  "lon": -2.8610681
},
{
  "type": "node",
  "id": 3698428830,
  "lat": 51.4407814,
  "lon": -2.8611529
},
{
  "type": "node",
  "id": 3698428831,
  "lat": 51.4408202,
  "lon": -2.8610595
},
{
  "type": "node",
  "id": 3698428832,
  "lat": 51.4408213,
  "lon": -2.8610751
},
{
  "type": "node",
  "id": 3698428833,
  "lat": 51.4408377,
  "lon": -2.8611347
},
{
  "type": "node",
  "id": 3698428834,
  "lat": 51.4408387,
  "lon": -2.8611483
},
{
  "type": "node",
  "id": 3698428835,
  "lat": 51.4408441,
  "lon": -2.8610708
},
{
  "type": "node",
  "id": 3698428836,
  "lat": 51.4408487,
  "lon": -2.8611327
},
{
  "type": "node",
  "id": 3698428837,
  "lat": 51.4408636,
  "lon": -2.8611436
},
{
  "type": "node",
  "id": 3698428838,
  "lat": 51.4408738,
  "lon": -2.8612819
},
{
  "type": "node",
  "id": 6496388757,
  "lat": 51.4657583,
  "lon": -2.7169659
},
{
  "type": "node",
  "id": 6496388758,
  "lat": 51.4657084,
  "lon": -2.7172612
},
{
  "type": "node",
  "id": 6496388759,
  "lat": 51.4657867,
  "lon": -2.7172953
},
{
  "type": "node",
  "id": 6496388760,
  "lat": 51.4656387,
  "lon": -2.7169139
},
{
  "type": "node",
  "id": 6496388761,
  "lat": 51.4656593,
  "lon": -2.7167919
},
{
  "type": "node",
  "id": 6496388762,
  "lat": 51.4658572,
  "lon": -2.7168780
},
{
  "type": "node",
  "id": 5371357019,
  "lat": 51.4539476,
  "lon": -2.6308648
},
{
  "type": "node",
  "id": 5371357020,
  "lat": 51.4540286,
  "lon": -2.6306234
},
{
  "type": "node",
  "id": 5371357021,
  "lat": 51.4539701,
  "lon": -2.6305524
},
{
  "type": "node",
  "id": 5371357022,
  "lat": 51.4539417,
  "lon": -2.6306060
},
{
  "type": "node",
  "id": 5371357023,
  "lat": 51.4539033,
  "lon": -2.6306596
},
{
  "type": "node",
  "id": 5371357024,
  "lat": 51.4538431,
  "lon": -2.6307374
},
{
  "type": "node",
  "id": 5371357025,
  "lat": 51.4539087,
  "lon": -2.6308172
},
{
  "type": "node",
  "id": 2804948810,
  "lat": 51.4948851,
  "lon": -2.6729112
},
{
  "type": "node",
  "id": 2804948813,
  "lat": 51.4949095,
  "lon": -2.6727839
},
{
  "type": "node",
  "id": 2804948818,
  "lat": 51.4949272,
  "lon": -2.6729991
},
{
  "type": "node",
  "id": 2804948820,
  "lat": 51.4949389,
  "lon": -2.6729379
},
{
  "type": "node",
  "id": 2804948827,
  "lat": 51.4950102,
  "lon": -2.6730402
},
{
  "type": "node",
  "id": 2804948834,
  "lat": 51.4950463,
  "lon": -2.6728516
},
{
  "type": "node",
  "id": 3801381209,
  "lat": 51.4771677,
  "lon": -2.6257723
},
{
  "type": "node",
  "id": 3801381212,
  "lat": 51.4771946,
  "lon": -2.6256360
},
{
  "type": "node",
  "id": 3801381215,
  "lat": 51.4772144,
  "lon": -2.6257961
},
{
  "type": "node",
  "id": 3801381216,
  "lat": 51.4772414,
  "lon": -2.6256599
},
{
  "type": "node",
  "id": 1436391039,
  "lat": 51.4468473,
  "lon": -2.6178580
},
{
  "type": "node",
  "id": 1436391048,
  "lat": 51.4469398,
  "lon": -2.6178951
},
{
  "type": "node",
  "id": 1436391094,
  "lat": 51.4467781,
  "lon": -2.6183022
},
{
  "type": "node",
  "id": 1436391096,
  "lat": 51.4468706,
  "lon": -2.6183393
},
{
  "type": "node",
  "id": 1436391112,
  "lat": 51.4468338,
  "lon": -2.6184096
},
{
  "type": "node",
  "id": 1436391136,
  "lat": 51.4467938,
  "lon": -2.6183085
},
{
  "type": "node",
  "id": 1436391152,
  "lat": 51.4467813,
  "lon": -2.6183886
},
{
  "type": "node",
  "id": 1436391216,
  "lat": 51.4468462,
  "lon": -2.6183295
},
{
  "type": "node",
  "id": 1436373195,
  "lat": 51.4490437,
  "lon": -2.6086659
},
{
  "type": "node",
  "id": 1436373241,
  "lat": 51.4489877,
  "lon": -2.6087169
},
{
  "type": "node",
  "id": 1436373258,
  "lat": 51.4489908,
  "lon": -2.6087862
},
{
  "type": "node",
  "id": 1436373310,
  "lat": 51.4490000,
  "lon": -2.6087728
},
{
  "type": "node",
  "id": 620993081,
  "lat": 51.4485974,
  "lon": -2.6066775
},
{
  "type": "node",
  "id": 620993082,
  "lat": 51.4483981,
  "lon": -2.6069591
},
{
  "type": "node",
  "id": 620993083,
  "lat": 51.4485119,
  "lon": -2.6071665
},
{
  "type": "node",
  "id": 620993084,
  "lat": 51.4487112,
  "lon": -2.6068849
},
{
  "type": "node",
  "id": 6277555553,
  "lat": 51.4485346,
  "lon": -2.6071344
},
{
  "type": "node",
  "id": 6277555554,
  "lat": 51.4486116,
  "lon": -2.6070256
},
{
  "type": "node",
  "id": 264677199,
  "lat": 51.4474624,
  "lon": -2.5990081
},
{
  "type": "node",
  "id": 264677200,
  "lat": 51.4472913,
  "lon": -2.5988567
},
{
  "type": "node",
  "id": 4001508122,
  "lat": 51.4477584,
  "lon": -2.5974988
},
{
  "type": "node",
  "id": 4001508123,
  "lat": 51.4479294,
  "lon": -2.5976503
},
{
  "type": "node",
  "id": 1436373196,
  "lat": 51.4490727,
  "lon": -2.6087151
},
{
  "type": "node",
  "id": 1436373199,
  "lat": 51.4491649,
  "lon": -2.6093217
},
{
  "type": "node",
  "id": 1436373200,
  "lat": 51.4492850,
  "lon": -2.6094326
},
{
  "type": "node",
  "id": 1436373216,
  "lat": 51.4493084,
  "lon": -2.6094031
},
{
  "type": "node",
  "id": 1436373222,
  "lat": 51.4491312,
  "lon": -2.6088533
},
{
  "type": "node",
  "id": 1436373232,
  "lat": 51.4490627,
  "lon": -2.6087218
},
{
  "type": "node",
  "id": 843514391,
  "lat": 51.4538772,
  "lon": -2.6034292
},
{
  "type": "node",
  "id": 1130661294,
  "lat": 51.4538348,
  "lon": -2.6031341
},
{
  "type": "node",
  "id": 1130661297,
  "lat": 51.4539490,
  "lon": -2.6032861
},
{
  "type": "node",
  "id": 1130661299,
  "lat": 51.4537618,
  "lon": -2.6032822
},
{
  "type": "node",
  "id": 1970752322,
  "lat": 51.4538501,
  "lon": -2.6031547
},
{
  "type": "node",
  "id": 2822431167,
  "lat": 51.4552180,
  "lon": -2.6023841
},
{
  "type": "node",
  "id": 2822431170,
  "lat": 51.4552510,
  "lon": -2.6025026
},
{
  "type": "node",
  "id": 2822431176,
  "lat": 51.4553152,
  "lon": -2.6024268
},
{
  "type": "node",
  "id": 2822431179,
  "lat": 51.4553276,
  "lon": -2.6024673
},
{
  "type": "node",
  "id": 26104493,
  "lat": 51.4555571,
  "lon": -2.5995207
},
{
  "type": "node",
  "id": 151003900,
  "lat": 51.4505902,
  "lon": -2.6010983
},
{
  "type": "node",
  "id": 975766427,
  "lat": 51.4501459,
  "lon": -2.6010108
},
{
  "type": "node",
  "id": 975777759,
  "lat": 51.4502035,
  "lon": -2.6002586
},
{
  "type": "node",
  "id": 1130519910,
  "lat": 51.4554667,
  "lon": -2.5997484
},
{
  "type": "node",
  "id": 1130519915,
  "lat": 51.4554269,
  "lon": -2.5994189
},
{
  "type": "node",
  "id": 1130519926,
  "lat": 51.4554321,
  "lon": -2.5994248
},
{
  "type": "node",
  "id": 1130519939,
  "lat": 51.4554492,
  "lon": -2.5993876
},
{
  "type": "node",
  "id": 1130519940,
  "lat": 51.4553523,
  "lon": -2.5996064
},
{
  "type": "node",
  "id": 1892874515,
  "lat": 51.4501571,
  "lon": -2.6008645
},
{
  "type": "node",
  "id": 1892874517,
  "lat": 51.4501609,
  "lon": -2.6008151
},
{
  "type": "node",
  "id": 2956571076,
  "lat": 51.4555305,
  "lon": -2.5995779
},
{
  "type": "node",
  "id": 2956571095,
  "lat": 51.4553421,
  "lon": -2.5995886
},
{
  "type": "node",
  "id": 2956571102,
  "lat": 51.4555136,
  "lon": -2.5995890
},
{
  "type": "node",
  "id": 2956571103,
  "lat": 51.4555230,
  "lon": -2.5995678
},
{
  "type": "node",
  "id": 2956571104,
  "lat": 51.4555305,
  "lon": -2.5996101
},
{
  "type": "node",
  "id": 2990144170,
  "lat": 51.4555216,
  "lon": -2.5995991
},
{
  "type": "node",
  "id": 3842877262,
  "lat": 51.4501641,
  "lon": -2.6007735
},
{
  "type": "node",
  "id": 3842877265,
  "lat": 51.4502011,
  "lon": -2.6002902
},
{
  "type": "node",
  "id": 3842877270,
  "lat": 51.4504984,
  "lon": -2.6010802
},
{
  "type": "node",
  "id": 5236796038,
  "lat": 51.4502277,
  "lon": -2.5999417
},
{
  "type": "node",
  "id": 5236796040,
  "lat": 51.4506720,
  "lon": -2.6000292
},
{
  "type": "node",
  "id": 430187625,
  "lat": 51.4562225,
  "lon": -2.6054695
},
{
  "type": "node",
  "id": 430187626,
  "lat": 51.4567586,
  "lon": -2.6051701
},
{
  "type": "node",
  "id": 430187627,
  "lat": 51.4568311,
  "lon": -2.6045954
},
{
  "type": "node",
  "id": 1130578192,
  "lat": 51.4567518,
  "lon": -2.6055346
},
{
  "type": "node",
  "id": 1860690589,
  "lat": 51.4561376,
  "lon": -2.6049834
},
{
  "type": "node",
  "id": 1860690592,
  "lat": 51.4561108,
  "lon": -2.6049977
},
{
  "type": "node",
  "id": 1860690627,
  "lat": 51.4568151,
  "lon": -2.6051162
},
{
  "type": "node",
  "id": 1860690628,
  "lat": 51.4569138,
  "lon": -2.6050125
},
{
  "type": "node",
  "id": 1860690633,
  "lat": 51.4560849,
  "lon": -2.6051479
},
{
  "type": "node",
  "id": 1860690636,
  "lat": 51.4567518,
  "lon": -2.6051438
},
{
  "type": "node",
  "id": 1860690663,
  "lat": 51.4564935,
  "lon": -2.6047846
},
{
  "type": "node",
  "id": 1860690668,
  "lat": 51.4568052,
  "lon": -2.6050715
},
{
  "type": "node",
  "id": 1860690684,
  "lat": 51.4561321,
  "lon": -2.6053865
},
{
  "type": "node",
  "id": 1860690688,
  "lat": 51.4561981,
  "lon": -2.6053516
},
{
  "type": "node",
  "id": 1860690689,
  "lat": 51.4568732,
  "lon": -2.6053668
},
{
  "type": "node",
  "id": 1860690716,
  "lat": 51.4567050,
  "lon": -2.6046677
},
{
  "type": "node",
  "id": 1860690720,
  "lat": 51.4561371,
  "lon": -2.6051236
},
{
  "type": "node",
  "id": 2628774548,
  "lat": 51.4561084,
  "lon": -2.6052667
},
{
  "type": "node",
  "id": 3460374452,
  "lat": 51.4566812,
  "lon": -2.6053265
},
{
  "type": "node",
  "id": 3460374455,
  "lat": 51.4567889,
  "lon": -2.6052785
},
{
  "type": "node",
  "id": 3460374456,
  "lat": 51.4568428,
  "lon": -2.6052302
},
{
  "type": "node",
  "id": 3460374457,
  "lat": 51.4568818,
  "lon": -2.6053957
},
{
  "type": "node",
  "id": 4158461784,
  "lat": 51.4568641,
  "lon": -2.6047548
},
{
  "type": "node",
  "id": 3021395183,
  "lat": 51.4639104,
  "lon": -2.5987802
},
{
  "type": "node",
  "id": 3021395184,
  "lat": 51.4639790,
  "lon": -2.5989885
},
{
  "type": "node",
  "id": 3021395185,
  "lat": 51.4639570,
  "lon": -2.5990071
},
{
  "type": "node",
  "id": 3021395186,
  "lat": 51.4639988,
  "lon": -2.5991338
},
{
  "type": "node",
  "id": 3021395187,
  "lat": 51.4639098,
  "lon": -2.5992093
},
{
  "type": "node",
  "id": 3021395188,
  "lat": 51.4639294,
  "lon": -2.5992689
},
{
  "type": "node",
  "id": 3021395189,
  "lat": 51.4639109,
  "lon": -2.5993085
},
{
  "type": "node",
  "id": 3021395190,
  "lat": 51.4638832,
  "lon": -2.5993164
},
{
  "type": "node",
  "id": 3021395191,
  "lat": 51.4638580,
  "lon": -2.5992887
},
{
  "type": "node",
  "id": 3021395192,
  "lat": 51.4638426,
  "lon": -2.5992521
},
{
  "type": "node",
  "id": 3021395193,
  "lat": 51.4638321,
  "lon": -2.5992066
},
{
  "type": "node",
  "id": 3021395194,
  "lat": 51.4638290,
  "lon": -2.5991641
},
{
  "type": "node",
  "id": 3021395195,
  "lat": 51.4638340,
  "lon": -2.5991256
},
{
  "type": "node",
  "id": 3021395196,
  "lat": 51.4637617,
  "lon": -2.5989065
},
{
  "type": "node",
  "id": 1247760782,
  "lat": 51.4631137,
  "lon": -2.5901516
},
{
  "type": "node",
  "id": 1247760809,
  "lat": 51.4630702,
  "lon": -2.5901648
},
{
  "type": "node",
  "id": 1247760819,
  "lat": 51.4631157,
  "lon": -2.5900202
},
{
  "type": "node",
  "id": 1247760836,
  "lat": 51.4629993,
  "lon": -2.5900418
},
{
  "type": "node",
  "id": 1247760851,
  "lat": 51.4630977,
  "lon": -2.5901443
},
{
  "type": "node",
  "id": 1247760879,
  "lat": 51.4630564,
  "lon": -2.5901505
},
{
  "type": "node",
  "id": 1247760916,
  "lat": 51.4631325,
  "lon": -2.5900802
},
{
  "type": "node",
  "id": 1247760930,
  "lat": 51.4630913,
  "lon": -2.5901453
},
{
  "type": "node",
  "id": 1247760959,
  "lat": 51.4630544,
  "lon": -2.5901179
},
{
  "type": "node",
  "id": 1247760963,
  "lat": 51.4631097,
  "lon": -2.5900863
},
{
  "type": "node",
  "id": 1247760993,
  "lat": 51.4630856,
  "lon": -2.5901628
},
{
  "type": "node",
  "id": 1247761018,
  "lat": 51.4630143,
  "lon": -2.5901205
},
{
  "type": "node",
  "id": 243836754,
  "lat": 51.4831515,
  "lon": -2.5415218
},
{
  "type": "node",
  "id": 243836755,
  "lat": 51.4831097,
  "lon": -2.5415446
},
{
  "type": "node",
  "id": 243836756,
  "lat": 51.4831523,
  "lon": -2.5417464
},
{
  "type": "node",
  "id": 243836757,
  "lat": 51.4830652,
  "lon": -2.5417939
},
{
  "type": "node",
  "id": 243836758,
  "lat": 51.4830210,
  "lon": -2.5415844
},
{
  "type": "node",
  "id": 243836759,
  "lat": 51.4829923,
  "lon": -2.5416001
},
{
  "type": "node",
  "id": 243836760,
  "lat": 51.4829560,
  "lon": -2.5414287
},
{
  "type": "node",
  "id": 243836761,
  "lat": 51.4829939,
  "lon": -2.5414080
},
{
  "type": "node",
  "id": 243836762,
  "lat": 51.4829662,
  "lon": -2.5412773
},
{
  "type": "node",
  "id": 243836763,
  "lat": 51.4830458,
  "lon": -2.5412339
},
{
  "type": "node",
  "id": 243836764,
  "lat": 51.4830856,
  "lon": -2.5414224
},
{
  "type": "node",
  "id": 243836765,
  "lat": 51.4831259,
  "lon": -2.5414004
},
{
  "type": "node",
  "id": 6537753108,
  "lat": 51.4830611,
  "lon": -2.5417744
},
{
  "type": "node",
  "id": 254843401,
  "lat": 51.4959259,
  "lon": -2.5291899
},
{
  "type": "node",
  "id": 254843402,
  "lat": 51.4959144,
  "lon": -2.5290352
},
{
  "type": "node",
  "id": 254843403,
  "lat": 51.4959764,
  "lon": -2.5290505
},
{
  "type": "node",
  "id": 254843404,
  "lat": 51.4959802,
  "lon": -2.5291879
},
{
  "type": "node",
  "id": 1850590673,
  "lat": 51.4959155,
  "lon": -2.5291138
},
{
  "type": "node",
  "id": 1850590674,
  "lat": 51.4959248,
  "lon": -2.5291134
},
{
  "type": "node",
  "id": 1850590676,
  "lat": 51.4959800,
  "lon": -2.5291724
},
{
  "type": "node",
  "id": 1850590678,
  "lat": 51.4960030,
  "lon": -2.5291716
},
{
  "type": "node",
  "id": 4016719858,
  "lat": 51.4959761,
  "lon": -2.5290329
},
{
  "type": "node",
  "id": 4016719859,
  "lat": 51.4960013,
  "lon": -2.5290496
},
{
  "type": "node",
  "id": 260975708,
  "lat": 51.5057141,
  "lon": -2.6322202
},
{
  "type": "node",
  "id": 2714936110,
  "lat": 51.5055429,
  "lon": -2.6325306
},
{
  "type": "node",
  "id": 2714936112,
  "lat": 51.5056369,
  "lon": -2.6323445
},
{
  "type": "node",
  "id": 2714936113,
  "lat": 51.5056459,
  "lon": -2.6323586
},
{
  "type": "node",
  "id": 2714936114,
  "lat": 51.5056732,
  "lon": -2.6327422
},
{
  "type": "node",
  "id": 2714936138,
  "lat": 51.5057502,
  "lon": -2.6322795
},
{
  "type": "node",
  "id": 2714936141,
  "lat": 51.5057680,
  "lon": -2.6325291
},
{
  "type": "node",
  "id": 2714936146,
  "lat": 51.5057897,
  "lon": -2.6325616
},
{
  "type": "node",
  "id": 2714936149,
  "lat": 51.5058346,
  "lon": -2.6321476
},
{
  "type": "node",
  "id": 2714936150,
  "lat": 51.5058432,
  "lon": -2.6321602
},
{
  "type": "node",
  "id": 2714936153,
  "lat": 51.5058638,
  "lon": -2.6323754
},
{
  "type": "node",
  "id": 2714936158,
  "lat": 51.5058768,
  "lon": -2.6321057
},
{
  "type": "node",
  "id": 2714936161,
  "lat": 51.5058949,
  "lon": -2.6322490
},
{
  "type": "node",
  "id": 2714936164,
  "lat": 51.5059197,
  "lon": -2.6324754
},
{
  "type": "node",
  "id": 2714936165,
  "lat": 51.5059211,
  "lon": -2.6322068
},
{
  "type": "node",
  "id": 2714936167,
  "lat": 51.5059227,
  "lon": -2.6321732
},
{
  "type": "node",
  "id": 2714936168,
  "lat": 51.5059234,
  "lon": -2.6321906
},
{
  "type": "node",
  "id": 2714936173,
  "lat": 51.5059676,
  "lon": -2.6323618
},
{
  "type": "node",
  "id": 2714936176,
  "lat": 51.5059785,
  "lon": -2.6323786
},
{
  "type": "node",
  "id": 32031275,
  "lat": 51.5227509,
  "lon": -2.5772463
},
{
  "type": "node",
  "id": 32031276,
  "lat": 51.5222192,
  "lon": -2.5784004
},
{
  "type": "node",
  "id": 32031277,
  "lat": 51.5221228,
  "lon": -2.5784431
},
{
  "type": "node",
  "id": 32031278,
  "lat": 51.5220392,
  "lon": -2.5784573
},
{
  "type": "node",
  "id": 1025494427,
  "lat": 51.5241544,
  "lon": -2.5780680
},
{
  "type": "node",
  "id": 5226532116,
  "lat": 51.5235451,
  "lon": -2.5770938
},
{
  "type": "node",
  "id": 5226647479,
  "lat": 51.5240796,
  "lon": -2.5779485
},
{
  "type": "node",
  "id": 6276888587,
  "lat": 51.5226348,
  "lon": -2.5775305
},
{
  "type": "node",
  "id": 6276888588,
  "lat": 51.5224912,
  "lon": -2.5778818
},
{
  "type": "node",
  "id": 6352912617,
  "lat": 51.5227359,
  "lon": -2.5807147
},
{
  "type": "node",
  "id": 6352912618,
  "lat": 51.5223802,
  "lon": -2.5781889
},
{
  "type": "node",
  "id": 6352912619,
  "lat": 51.5223068,
  "lon": -2.5783043
},
{
  "type": "node",
  "id": 6352912621,
  "lat": 51.5216815,
  "lon": -2.5794301
},
{
  "type": "node",
  "id": 6352912622,
  "lat": 51.5233882,
  "lon": -2.5768430
},
{
  "type": "node",
  "id": 6352912623,
  "lat": 51.5220222,
  "lon": -2.5795931
},
{
  "type": "node",
  "id": 6352912624,
  "lat": 51.5223034,
  "lon": -2.5795971
},
{
  "type": "node",
  "id": 6352912625,
  "lat": 51.5225171,
  "lon": -2.5796561
},
{
  "type": "node",
  "id": 6352912626,
  "lat": 51.5225362,
  "lon": -2.5799330
},
{
  "type": "node",
  "id": 6352912627,
  "lat": 51.5225383,
  "lon": -2.5799907
},
{
  "type": "node",
  "id": 6352912628,
  "lat": 51.5225283,
  "lon": -2.5803508
},
{
  "type": "node",
  "id": 6352912629,
  "lat": 51.5225296,
  "lon": -2.5804621
},
{
  "type": "node",
  "id": 6352912630,
  "lat": 51.5225362,
  "lon": -2.5805774
},
{
  "type": "node",
  "id": 6352912631,
  "lat": 51.5225755,
  "lon": -2.5807102
},
{
  "type": "node",
  "id": 6352912632,
  "lat": 51.5240132,
  "lon": -2.5783304
},
{
  "type": "node",
  "id": 6352912633,
  "lat": 51.5240178,
  "lon": -2.5783069
},
{
  "type": "node",
  "id": 6352912634,
  "lat": 51.5240132,
  "lon": -2.5782768
},
{
  "type": "node",
  "id": 6352912635,
  "lat": 51.5240056,
  "lon": -2.5782539
},
{
  "type": "node",
  "id": 6352912636,
  "lat": 51.5240282,
  "lon": -2.5782084
},
{
  "type": "node",
  "id": 6352912637,
  "lat": 51.5240449,
  "lon": -2.5782124
},
{
  "type": "node",
  "id": 6352912638,
  "lat": 51.5240612,
  "lon": -2.5782084
},
{
  "type": "node",
  "id": 6352912639,
  "lat": 51.5240746,
  "lon": -2.5781991
},
{
  "type": "node",
  "id": 1342044525,
  "lat": 51.6061486,
  "lon": -2.5253537
},
{
  "type": "node",
  "id": 1342044526,
  "lat": 51.6061489,
  "lon": -2.5254024
},
{
  "type": "node",
  "id": 1342044527,
  "lat": 51.6061596,
  "lon": -2.5254023
},
{
  "type": "node",
  "id": 1342044528,
  "lat": 51.6061598,
  "lon": -2.5254399
},
{
  "type": "node",
  "id": 1342044529,
  "lat": 51.6061709,
  "lon": -2.5253316
},
{
  "type": "node",
  "id": 1342044530,
  "lat": 51.6061710,
  "lon": -2.5253534
},
{
  "type": "node",
  "id": 1342044531,
  "lat": 51.6061944,
  "lon": -2.5254016
},
{
  "type": "node",
  "id": 1342044532,
  "lat": 51.6061946,
  "lon": -2.5254395
},
{
  "type": "node",
  "id": 1342044533,
  "lat": 51.6062472,
  "lon": -2.5254009
},
{
  "type": "node",
  "id": 1342044534,
  "lat": 51.6062474,
  "lon": -2.5254379
},
{
  "type": "node",
  "id": 1342044535,
  "lat": 51.6063014,
  "lon": -2.5254054
},
{
  "type": "node",
  "id": 1342044536,
  "lat": 51.6063016,
  "lon": -2.5254371
},
{
  "type": "node",
  "id": 1342044537,
  "lat": 51.6063344,
  "lon": -2.5253293
},
{
  "type": "node",
  "id": 1342044538,
  "lat": 51.6063348,
  "lon": -2.5254049
},
{
  "type": "node",
  "id": 1580235888,
  "lat": 51.2932535,
  "lon": -2.4475759
},
{
  "type": "node",
  "id": 1580236356,
  "lat": 51.2931380,
  "lon": -2.4476351
},
{
  "type": "node",
  "id": 3365844191,
  "lat": 51.2931677,
  "lon": -2.4470738
},
{
  "type": "node",
  "id": 3397563176,
  "lat": 51.2932315,
  "lon": -2.4474592
},
{
  "type": "node",
  "id": 3397563177,
  "lat": 51.2931662,
  "lon": -2.4470981
},
{
  "type": "node",
  "id": 4309968093,
  "lat": 51.2930408,
  "lon": -2.4471283
},
{
  "type": "node",
  "id": 931302577,
  "lat": 51.3831876,
  "lon": -2.3644097
},
{
  "type": "node",
  "id": 5666383350,
  "lat": 51.3832494,
  "lon": -2.3644798
},
{
  "type": "node",
  "id": 5666383351,
  "lat": 51.3833395,
  "lon": -2.3645166
},
{
  "type": "node",
  "id": 5666383352,
  "lat": 51.3833218,
  "lon": -2.3646284
},
{
  "type": "node",
  "id": 5666383353,
  "lat": 51.3831735,
  "lon": -2.3645680
},
{
  "type": "node",
  "id": 5666383354,
  "lat": 51.3831912,
  "lon": -2.3644567
},
{
  "type": "node",
  "id": 5666383355,
  "lat": 51.3832136,
  "lon": -2.3644658
},
{
  "type": "node",
  "id": 5666383356,
  "lat": 51.3832204,
  "lon": -2.3644231
},
{
  "type": "node",
  "id": 5666383357,
  "lat": 51.3832565,
  "lon": -2.3644350
},
{
  "type": "node",
  "id": 5666383363,
  "lat": 51.3833839,
  "lon": -2.3644869
},
{
  "type": "node",
  "id": 5673692292,
  "lat": 51.3832231,
  "lon": -2.3641861
},
{
  "type": "node",
  "id": 5673692294,
  "lat": 51.3833030,
  "lon": -2.3642186
},
{
  "type": "node",
  "id": 5673692295,
  "lat": 51.3834189,
  "lon": -2.3642659
},
{
  "type": "node",
  "id": 987483114,
  "lat": 51.3865672,
  "lon": -2.3673044
},
{
  "type": "node",
  "id": 987483118,
  "lat": 51.3866506,
  "lon": -2.3672856
},
{
  "type": "node",
  "id": 1052476722,
  "lat": 51.3866114,
  "lon": -2.3670221
},
{
  "type": "node",
  "id": 1052476896,
  "lat": 51.3865021,
  "lon": -2.3669477
},
{
  "type": "node",
  "id": 1052477251,
  "lat": 51.3865832,
  "lon": -2.3673102
},
{
  "type": "node",
  "id": 1052477306,
  "lat": 51.3865570,
  "lon": -2.3672967
},
{
  "type": "node",
  "id": 1052477343,
  "lat": 51.3865237,
  "lon": -2.3670691
},
{
  "type": "node",
  "id": 3835562891,
  "lat": 51.3866005,
  "lon": -2.3669384
},
{
  "type": "node",
  "id": 3835562895,
  "lat": 51.3865086,
  "lon": -2.3669874
},
{
  "type": "node",
  "id": 3835574679,
  "lat": 51.3865157,
  "lon": -2.3670733
},
{
  "type": "node",
  "id": 3835574681,
  "lat": 51.3865953,
  "lon": -2.3669072
},
{
  "type": "node",
  "id": 3835574682,
  "lat": 51.3865782,
  "lon": -2.3668074
},
{
  "type": "node",
  "id": 3835574683,
  "lat": 51.3864922,
  "lon": -2.3669529
},
{
  "type": "node",
  "id": 3835574684,
  "lat": 51.3864749,
  "lon": -2.3668526
},
{
  "type": "node",
  "id": 3835574689,
  "lat": 51.3865908,
  "lon": -2.3668808
},
{
  "type": "node",
  "id": 617179443,
  "lat": 51.3864073,
  "lon": -2.3635321
},
{
  "type": "node",
  "id": 617179447,
  "lat": 51.3863962,
  "lon": -2.3635148
},
{
  "type": "node",
  "id": 617179450,
  "lat": 51.3863580,
  "lon": -2.3634551
},
{
  "type": "node",
  "id": 880865385,
  "lat": 51.3866861,
  "lon": -2.3606868
},
{
  "type": "node",
  "id": 880871943,
  "lat": 51.3867020,
  "lon": -2.3603945
},
{
  "type": "node",
  "id": 880871946,
  "lat": 51.3866498,
  "lon": -2.3603894
},
{
  "type": "node",
  "id": 880871954,
  "lat": 51.3866302,
  "lon": -2.3606819
},
{
  "type": "node",
  "id": 1346735000,
  "lat": 51.3882347,
  "lon": -2.3626655
},
{
  "type": "node",
  "id": 1346735008,
  "lat": 51.3881208,
  "lon": -2.3622070
},
{
  "type": "node",
  "id": 1346735016,
  "lat": 51.3881337,
  "lon": -2.3627299
},
{
  "type": "node",
  "id": 1346735019,
  "lat": 51.3880198,
  "lon": -2.3622714
},
{
  "type": "node",
  "id": 1354973250,
  "lat": 51.3863818,
  "lon": -2.3634922
},
{
  "type": "node",
  "id": 3751555065,
  "lat": 51.3864882,
  "lon": -2.3634318
},
{
  "type": "node",
  "id": 3751555067,
  "lat": 51.3864287,
  "lon": -2.3633388
},
{
  "type": "node",
  "id": 3752543930,
  "lat": 51.3864175,
  "lon": -2.3635480
},
{
  "type": "node",
  "id": 3836365070,
  "lat": 51.3866906,
  "lon": -2.3605918
},
{
  "type": "node",
  "id": 3836365071,
  "lat": 51.3866868,
  "lon": -2.3606649
},
{
  "type": "node",
  "id": 3836365072,
  "lat": 51.3867247,
  "lon": -2.3606673
},
{
  "type": "node",
  "id": 3836365073,
  "lat": 51.3867274,
  "lon": -2.3606303
},
{
  "type": "node",
  "id": 3836365074,
  "lat": 51.3866902,
  "lon": -2.3606260
},
{
  "type": "node",
  "id": 5373040469,
  "lat": 51.3840890,
  "lon": -2.3632095
},
{
  "type": "node",
  "id": 5373040470,
  "lat": 51.3841116,
  "lon": -2.3630638
},
{
  "type": "node",
  "id": 5373059228,
  "lat": 51.3840539,
  "lon": -2.3630408
},
{
  "type": "node",
  "id": 5373059235,
  "lat": 51.3840313,
  "lon": -2.3631867
},
{
  "type": "node",
  "id": 5373059240,
  "lat": 51.3840893,
  "lon": -2.3630546
},
{
  "type": "node",
  "id": 6000105346,
  "lat": 51.3587935,
  "lon": -2.3499531
},
{
  "type": "node",
  "id": 6000105348,
  "lat": 51.3587785,
  "lon": -2.3497949
},
{
  "type": "node",
  "id": 6000105349,
  "lat": 51.3587031,
  "lon": -2.3498110
},
{
  "type": "node",
  "id": 6000105350,
  "lat": 51.3587165,
  "lon": -2.3498995
},
{
  "type": "node",
  "id": 6000105351,
  "lat": 51.3587718,
  "lon": -2.3499585
},
{
  "type": "node",
  "id": 26428429,
  "lat": 51.3852571,
  "lon": -2.3506446
},
{
  "type": "node",
  "id": 460409152,
  "lat": 51.3861771,
  "lon": -2.3510822
},
{
  "type": "node",
  "id": 479090343,
  "lat": 51.3855944,
  "lon": -2.3501116
},
{
  "type": "node",
  "id": 479090376,
  "lat": 51.3862097,
  "lon": -2.3514798
},
{
  "type": "node",
  "id": 481390339,
  "lat": 51.3853877,
  "lon": -2.3505279
},
{
  "type": "node",
  "id": 481390341,
  "lat": 51.3857969,
  "lon": -2.3499980
},
{
  "type": "node",
  "id": 1324422734,
  "lat": 51.3860373,
  "lon": -2.3503554
},
{
  "type": "node",
  "id": 1863269613,
  "lat": 51.3854113,
  "lon": -2.3510652
},
{
  "type": "node",
  "id": 1863269722,
  "lat": 51.3858215,
  "lon": -2.3515414
},
{
  "type": "node",
  "id": 1873505357,
  "lat": 51.3854165,
  "lon": -2.3511163
},
{
  "type": "node",
  "id": 1873505382,
  "lat": 51.3853326,
  "lon": -2.3510389
},
{
  "type": "node",
  "id": 1873505392,
  "lat": 51.3855192,
  "lon": -2.3515797
},
{
  "type": "node",
  "id": 1873505428,
  "lat": 51.3855227,
  "lon": -2.3515959
},
{
  "type": "node",
  "id": 1873505459,
  "lat": 51.3857604,
  "lon": -2.3516234
},
{
  "type": "node",
  "id": 1873505465,
  "lat": 51.3857745,
  "lon": -2.3516088
},
{
  "type": "node",
  "id": 1873505467,
  "lat": 51.3853960,
  "lon": -2.3510308
},
{
  "type": "node",
  "id": 1873505468,
  "lat": 51.3853622,
  "lon": -2.3510501
},
{
  "type": "node",
  "id": 1873505492,
  "lat": 51.3853486,
  "lon": -2.3511598
},
{
  "type": "node",
  "id": 1873505494,
  "lat": 51.3855954,
  "lon": -2.3516717
},
{
  "type": "node",
  "id": 1873505495,
  "lat": 51.3857872,
  "lon": -2.3515811
},
{
  "type": "node",
  "id": 1873505502,
  "lat": 51.3855256,
  "lon": -2.3515422
},
{
  "type": "node",
  "id": 1873505516,
  "lat": 51.3855195,
  "lon": -2.3515630
},
{
  "type": "node",
  "id": 1926998257,
  "lat": 51.3857993,
  "lon": -2.3515535
},
{
  "type": "node",
  "id": 1926998260,
  "lat": 51.3854931,
  "lon": -2.3515336
},
{
  "type": "node",
  "id": 1926998262,
  "lat": 51.3854998,
  "lon": -2.3515162
},
{
  "type": "node",
  "id": 1926998265,
  "lat": 51.3854864,
  "lon": -2.3515440
},
{
  "type": "node",
  "id": 1926998286,
  "lat": 51.3854113,
  "lon": -2.3514847
},
{
  "type": "node",
  "id": 1926998289,
  "lat": 51.3854768,
  "lon": -2.3515443
},
{
  "type": "node",
  "id": 2073737610,
  "lat": 51.3860800,
  "lon": -2.3504435
},
{
  "type": "node",
  "id": 2073737624,
  "lat": 51.3859996,
  "lon": -2.3502912
},
{
  "type": "node",
  "id": 2073737627,
  "lat": 51.3860239,
  "lon": -2.3502074
},
{
  "type": "node",
  "id": 2697592095,
  "lat": 51.3861983,
  "lon": -2.3513829
},
{
  "type": "node",
  "id": 2697592096,
  "lat": 51.3858677,
  "lon": -2.3515684
},
{
  "type": "node",
  "id": 4171766879,
  "lat": 51.3862615,
  "lon": -2.3506993
},
{
  "type": "node",
  "id": 4171766880,
  "lat": 51.3860211,
  "lon": -2.3500499
},
{
  "type": "node",
  "id": 4171766881,
  "lat": 51.3862197,
  "lon": -2.3508675
},
{
  "type": "node",
  "id": 4171785610,
  "lat": 51.3857469,
  "lon": -2.3516274
},
{
  "type": "node",
  "id": 937129650,
  "lat": 51.3749196,
  "lon": -2.3113554
},
{
  "type": "node",
  "id": 937129651,
  "lat": 51.3749439,
  "lon": -2.3110060
},
{
  "type": "node",
  "id": 937129652,
  "lat": 51.3751649,
  "lon": -2.3110274
},
{
  "type": "node",
  "id": 937129653,
  "lat": 51.3751604,
  "lon": -2.3111296
},
{
  "type": "node",
  "id": 937129655,
  "lat": 51.3753637,
  "lon": -2.3111591
},
{
  "type": "node",
  "id": 937129656,
  "lat": 51.3753572,
  "lon": -2.3113934
},
{
  "type": "node",
  "id": 1739600747,
  "lat": 51.4526937,
  "lon": -2.4795262
},
{
  "type": "node",
  "id": 1739600748,
  "lat": 51.4527183,
  "lon": -2.4793158
},
{
  "type": "node",
  "id": 1739600758,
  "lat": 51.4527292,
  "lon": -2.4796464
},
{
  "type": "node",
  "id": 1739600760,
  "lat": 51.4527470,
  "lon": -2.4796205
},
{
  "type": "node",
  "id": 1739600762,
  "lat": 51.4527725,
  "lon": -2.4794117
},
{
  "type": "node",
  "id": 1739600764,
  "lat": 51.4528131,
  "lon": -2.4797951
},
{
  "type": "node",
  "id": 1739600766,
  "lat": 51.4528287,
  "lon": -2.4791553
},
{
  "type": "node",
  "id": 1739600768,
  "lat": 51.4529281,
  "lon": -2.4796279
},
{
  "type": "node",
  "id": 1739600770,
  "lat": 51.4529625,
  "lon": -2.4796887
},
{
  "type": "node",
  "id": 1739600772,
  "lat": 51.4530544,
  "lon": -2.4795550
},
{
  "type": "node",
  "id": 305579302,
  "lat": 51.4146989,
  "lon": -2.1203810
},
{
  "type": "node",
  "id": 305579303,
  "lat": 51.4146383,
  "lon": -2.1204250
},
{
  "type": "node",
  "id": 305579305,
  "lat": 51.4145484,
  "lon": -2.1201141
},
{
  "type": "node",
  "id": 305579306,
  "lat": 51.4146090,
  "lon": -2.1200687
},
{
  "type": "node",
  "id": 1510322755,
  "lat": 51.4641641,
  "lon": -2.1092679
},
{
  "type": "node",
  "id": 1510322758,
  "lat": 51.4636262,
  "lon": -2.1085907
},
{
  "type": "node",
  "id": 1510322761,
  "lat": 51.4639026,
  "lon": -2.1093372
},
{
  "type": "node",
  "id": 1510322769,
  "lat": 51.4641261,
  "lon": -2.1084327
},
{
  "type": "node",
  "id": 2715769933,
  "lat": 51.4637328,
  "lon": -2.1091640
},
{
  "type": "node",
  "id": 2715770013,
  "lat": 51.4637018,
  "lon": -2.1088684
},
{
  "type": "node",
  "id": 2715770056,
  "lat": 51.4638794,
  "lon": -2.1091218
},
{
  "type": "node",
  "id": 2715770124,
  "lat": 51.4636604,
  "lon": -2.1088804
},
{
  "type": "node",
  "id": 5321004780,
  "lat": 51.4641840,
  "lon": -2.1090418
},
{
  "type": "node",
  "id": 5321004781,
  "lat": 51.4641471,
  "lon": -2.1090531
},
{
  "type": "node",
  "id": 6226249535,
  "lat": 51.4639780,
  "lon": -2.1093172
},
{
  "type": "node",
  "id": 1782783877,
  "lat": 51.6455152,
  "lon": -3.0080430
},
{
  "type": "node",
  "id": 1782783879,
  "lat": 51.6454841,
  "lon": -3.0079838
},
{
  "type": "node",
  "id": 1782783881,
  "lat": 51.6455563,
  "lon": -3.0080422
},
{
  "type": "node",
  "id": 1782783882,
  "lat": 51.6455195,
  "lon": -3.0080224
},
{
  "type": "node",
  "id": 1782783883,
  "lat": 51.6454762,
  "lon": -3.0080219
},
{
  "type": "node",
  "id": 1782783884,
  "lat": 51.6455057,
  "lon": -3.0078623
},
{
  "type": "node",
  "id": 1782783885,
  "lat": 51.6455788,
  "lon": -3.0079342
},
{
  "type": "node",
  "id": 1782783886,
  "lat": 51.6455499,
  "lon": -3.0078862
},
{
  "type": "node",
  "id": 1782783887,
  "lat": 51.6454520,
  "lon": -3.0078634
},
{
  "type": "node",
  "id": 1782783889,
  "lat": 51.6455438,
  "lon": -3.0079153
},
{
  "type": "node",
  "id": 1782783890,
  "lat": 51.6455001,
  "lon": -3.0078894
},
{
  "type": "node",
  "id": 1782783897,
  "lat": 51.6454327,
  "lon": -3.0079560
},
{
  "type": "node",
  "id": 1781465460,
  "lat": 51.6458360,
  "lon": -3.0084724
},
{
  "type": "node",
  "id": 1781465462,
  "lat": 51.6456821,
  "lon": -3.0083357
},
{
  "type": "node",
  "id": 1781465463,
  "lat": 51.6457065,
  "lon": -3.0082347
},
{
  "type": "node",
  "id": 1781465464,
  "lat": 51.6458935,
  "lon": -3.0082344
},
{
  "type": "node",
  "id": 1781465465,
  "lat": 51.6457357,
  "lon": -3.0083693
},
{
  "type": "node",
  "id": 1781465466,
  "lat": 51.6457688,
  "lon": -3.0082738
},
{
  "type": "node",
  "id": 1781465467,
  "lat": 51.6457444,
  "lon": -3.0085876
},
{
  "type": "node",
  "id": 1781465468,
  "lat": 51.6456910,
  "lon": -3.0085541
},
{
  "type": "node",
  "id": 1781465469,
  "lat": 51.6457806,
  "lon": -3.0084377
},
{
  "type": "node",
  "id": 1781465470,
  "lat": 51.6457935,
  "lon": -3.0081716
},
{
  "type": "node",
  "id": 367040649,
  "lat": 51.6903090,
  "lon": -2.4575443
},
{
  "type": "node",
  "id": 1223062862,
  "lat": 51.6901679,
  "lon": -2.4573722
},
{
  "type": "node",
  "id": 1223062912,
  "lat": 51.6902978,
  "lon": -2.4573882
},
{
  "type": "node",
  "id": 1223062996,
  "lat": 51.6902519,
  "lon": -2.4570691
},
{
  "type": "node",
  "id": 1223063048,
  "lat": 51.6902390,
  "lon": -2.4573589
},
{
  "type": "node",
  "id": 1223063104,
  "lat": 51.6902658,
  "lon": -2.4572618
},
{
  "type": "node",
  "id": 1223063182,
  "lat": 51.6902328,
  "lon": -2.4572731
},
{
  "type": "node",
  "id": 1223063284,
  "lat": 51.6903392,
  "lon": -2.4572480
},
{
  "type": "node",
  "id": 1223063352,
  "lat": 51.6902144,
  "lon": -2.4572766
},
{
  "type": "node",
  "id": 1223063374,
  "lat": 51.6903486,
  "lon": -2.4573787
},
{
  "type": "node",
  "id": 1223063394,
  "lat": 51.6901820,
  "lon": -2.4575680
},
{
  "type": "node",
  "id": 1223063395,
  "lat": 51.6902002,
  "lon": -2.4570788
},
{
  "type": "node",
  "id": 2799984816,
  "lat": 51.6368142,
  "lon": -2.3539722
},
{
  "type": "node",
  "id": 2799984817,
  "lat": 51.6367687,
  "lon": -2.3537938
},
{
  "type": "node",
  "id": 2799984818,
  "lat": 51.6366721,
  "lon": -2.3538595
},
{
  "type": "node",
  "id": 2799984819,
  "lat": 51.6366891,
  "lon": -2.3539242
},
{
  "type": "node",
  "id": 2799984820,
  "lat": 51.6367198,
  "lon": -2.3539032
},
{
  "type": "node",
  "id": 2799984821,
  "lat": 51.6367426,
  "lon": -2.3539900
},
{
  "type": "node",
  "id": 2799984822,
  "lat": 51.6367634,
  "lon": -2.3539758
},
{
  "type": "node",
  "id": 2799984823,
  "lat": 51.6367694,
  "lon": -2.3539986
},
{
  "type": "node",
  "id": 4091069448,
  "lat": 51.6367317,
  "lon": -2.3539485
}

  ]
}
