{
  "version": 0.6,
  "generator": "Overpass API 0.7.55.9 ab41fea6",
  "osm3s": {
    "timestamp_osm_base": "2020-02-14T11:23:02Z",
    "copyright": "The data included in this document is from www.openstreetmap.org. The data is made available under ODbL."
  },
  "elements": [

{
  "type": "node",
  "id": 316126238,
  "lat": 49.7625649,
  "lon": 15.9063365,
  "tags": {
    "email": "vysocina@npu.cz",
    "name": "Hlinecký Betlém",
    "phone": "+420469326415",
    "tourism": "museum",
    "website": "https://www.betlem-hlinsko.cz"
  }
},
{
  "type": "node",
  "id": 434488041,
  "lat": 49.8319367,
  "lon": 15.8993428,
  "tags": {
    "source": "gps",
    "tourism": "museum"
  }
},
{
  "type": "node",
  "id": 456278256,
  "lat": 49.9732354,
  "lon": 16.3961489,
  "tags": {
    "name": "Hernychova vila",
    "tourism": "museum"
  }
},
{
  "type": "node",
  "id": 823864069,
  "lat": 49.8444967,
  "lon": 15.9972233,
  "tags": {
    "addr:conscriptionnumber": "364",
    "addr:country": "CZ",
    "addr:housenumber": "364",
    "addr:place": "Skuteč",
    "addr:postcode": "53973",
    "addr:street": "Rybičkova",
    "name": "Muzeum",
    "opening_hours": "Mo-Fr 09:00-12:00,13:00-17:00",
    "phone": "+420 469 350 131",
    "ref:ruian:addr": "5455847",
    "tourism": "museum",
    "website": "www.muzeum.skutec.cz"
  }
},
{
  "type": "node",
  "id": 842112539,
  "lat": 50.0347940,
  "lon": 16.5027475,
  "tags": {
    "name": "Muzeum řemesel",
    "tourism": "museum"
  }
},
{
  "type": "node",
  "id": 1018472444,
  "lat": 50.0357440,
  "lon": 16.4999758,
  "tags": {
    "name": "Městské muzeum",
    "tourism": "museum"
  }
},
{
  "type": "node",
  "id": 1249804593,
  "lat": 49.8538339,
  "lon": 16.1465027,
  "tags": {
    "name": "První české muzeum cyklistiky",
    "tourism": "museum",
    "website": "http://www.muzeumcyklistiky.cz"
  }
},
{
  "type": "node",
  "id": 1330602693,
  "lat": 49.8239813,
  "lon": 16.2522000,
  "tags": {
    "addr:conscriptionnumber": "76",
    "addr:country": "CZ",
    "addr:housenumber": "76",
    "addr:place": "Dolní Újezd",
    "addr:postcode": "56961",
    "name": "Muzeum vesnice",
    "ref:ruian:addr": "1781391",
    "tourism": "museum"
  }
},
{
  "type": "node",
  "id": 1462356863,
  "lat": 49.8705738,
  "lon": 16.3163174,
  "tags": {
    "addr:conscriptionnumber": "75",
    "addr:country": "CZ",
    "addr:housenumber": "75",
    "addr:place": "Záhradí",
    "addr:postcode": "57001",
    "addr:street": "T. Novákové",
    "name": "Portmoneum",
    "ref:ruian:addr": "1895281",
    "tourism": "museum"
  }
},
{
  "type": "node",
  "id": 1462357783,
  "lat": 49.8724063,
  "lon": 16.3117613,
  "tags": {
    "addr:conscriptionnumber": "9",
    "addr:country": "CZ",
    "addr:housenumber": "9",
    "addr:place": "Litomyšl-Město",
    "addr:postcode": "57001",
    "addr:street": "Jiráskova",
    "name": "Regionální museum v Litomyšli",
    "ref:ruian:addr": "1901001",
    "tourism": "museum"
  }
},
{
  "type": "node",
  "id": 1583705231,
  "lat": 49.9133149,
  "lon": 16.6137840,
  "tags": {
    "name": "Městské muzeum Lanškroun",
    "tourism": "museum"
  }
},
{
  "type": "node",
  "id": 1636158372,
  "lat": 49.9529123,
  "lon": 16.1629091,
  "tags": {
    "name": "Regionální muzeum",
    "tourism": "museum"
  }
},
{
  "type": "node",
  "id": 1741907921,
  "lat": 49.9996202,
  "lon": 16.2262853,
  "tags": {
    "tourism": "museum"
  }
},
{
  "type": "node",
  "id": 1814901780,
  "lat": 50.0693335,
  "lon": 16.6770386,
  "tags": {
    "name": "Tvrz Bouda",
    "tourism": "museum"
  }
},
{
  "type": "node",
  "id": 1984185191,
  "lat": 49.9023817,
  "lon": 16.4474843,
  "tags": {
    "name": "Městské muzeum",
    "tourism": "museum"
  }
},
{
  "type": "node",
  "id": 1985529026,
  "lat": 49.8991878,
  "lon": 16.4462460,
  "tags": {
    "name": "Kulturní centrum",
    "tourism": "museum"
  }
},
{
  "type": "node",
  "id": 2064741230,
  "lat": 50.0218645,
  "lon": 16.5321814,
  "tags": {
    "tourism": "museum"
  }
},
{
  "type": "node",
  "id": 2244976338,
  "lat": 49.7542591,
  "lon": 16.4726147,
  "tags": {
    "designation": "muzeum",
    "name": "Městské muzeum a galerie",
    "name:de": "Städtisches Museum und Galerie",
    "source": "local knowledge",
    "tourism": "museum"
  }
},
{
  "type": "node",
  "id": 2244977210,
  "lat": 49.7546004,
  "lon": 16.4725880,
  "tags": {
    "designation": "museum",
    "esperanto": "yes",
    "museum": "language",
    "name": "Muzeum Esperanta",
    "name:de": "Esperanto-Museum",
    "name:eo": "Esperanto-Muzeo",
    "source": "local knowledge",
    "tourism": "museum",
    "wikidata": "Q406679",
    "wikipedia": "eo:Esperanto-Muzeo en Svitavy"
  }
},
{
  "type": "node",
  "id": 2244979724,
  "lat": 49.7547127,
  "lon": 16.4726926,
  "tags": {
    "designation": "památka",
    "name": "Ottendorferova knihovna",
    "name:de": "Ottendorfer Bibliothek",
    "source": "local knowledge",
    "tourism": "museum"
  }
},
{
  "type": "node",
  "id": 2407795348,
  "lat": 50.0709631,
  "lon": 15.9881754,
  "tags": {
    "name": "Emila Holuba",
    "tourism": "museum"
  }
},
{
  "type": "node",
  "id": 2844580970,
  "lat": 49.8726734,
  "lon": 16.3140537,
  "tags": {
    "addr:conscriptionnumber": "4",
    "addr:housenumber": "4",
    "addr:place": "Litomyšl-Město",
    "addr:postcode": "57001",
    "addr:street": "Jiráskova",
    "name": "Muzeum domečků panenek a hraček Litomyšl",
    "ref:ruian:addr": "1900951",
    "tourism": "museum"
  }
},
{
  "type": "node",
  "id": 3521939177,
  "lat": 49.7117236,
  "lon": 16.0355239,
  "tags": {
    "name": "Galerie Albert",
    "tourism": "museum"
  }
},
{
  "type": "node",
  "id": 4354517702,
  "lat": 49.7148928,
  "lon": 16.2642053,
  "tags": {
    "tourism": "museum",
    "website": "http://www.cbmpolicka.cz/"
  }
},
{
  "type": "node",
  "id": 4583887760,
  "lat": 49.8408820,
  "lon": 15.9984254,
  "tags": {
    "name": "Rodný dům V. J. Tomáška",
    "tourism": "museum"
  }
},
{
  "type": "node",
  "id": 4921983662,
  "lat": 49.8058719,
  "lon": 16.1160274,
  "tags": {
    "name": "Muzeum dýmek",
    "tourism": "museum"
  }
},
{
  "type": "node",
  "id": 5110001575,
  "lat": 49.9529216,
  "lon": 16.1616048,
  "tags": {
    "contact:website": "http://www.muzeumkarosarstvi.cz/",
    "name": "Muzeum českého karosářství",
    "opening_hours": "Mo-Fr 08:30-17:00;Sa-Su 10:00-17:00",
    "tourism": "museum"
  }
},
{
  "type": "node",
  "id": 5570642207,
  "lat": 49.8881683,
  "lon": 16.4179891,
  "tags": {
    "name": "pravěká osada Křivolík",
    "opening_hours": "24/7",
    "operator": "Bacrie zájmové sdružení",
    "source": "bing;survey",
    "tourism": "museum",
    "website": "http://www.krivolik.cz"
  }
},
{
  "type": "node",
  "id": 5633405725,
  "lat": 50.0947417,
  "lon": 16.4460411,
  "tags": {
    "description": "Prohlídka s průvodcem",
    "name": "Prokop Divis vynalezce Bleskosvodu",
    "opening_hours": "Tu-Su 10:00-20:00",
    "phone": "608427064",
    "tourism": "museum"
  }
},
{
  "type": "node",
  "id": 5756185922,
  "lat": 49.8732970,
  "lon": 16.3145032,
  "tags": {
    "tourism": "museum"
  }
},
{
  "type": "node",
  "id": 6697375286,
  "lat": 50.0957942,
  "lon": 16.4586552,
  "tags": {
    "alt_name": "Vonwillerova textilní továrna",
    "email": "muzeum@starestroje.cz",
    "name": "Muzeum starých strojů a technologií",
    "old_name": "Vonwiller;Mosilana",
    "phone": "+420737239065",
    "tourism": "museum",
    "website": "http://starestroje.cz/"
  }
},
{
  "type": "way",
  "id": 60909312,
  "nodes": [
    762403576,
    762405176,
    762411558,
    762412882,
    762403576
  ],
  "tags": {
    "building": "civic",
    "building:ruian:type": "15",
    "name": "Rodný domek Prokopa Diviše",
    "ref:ruian:building": "17980810",
    "source": "cuzk:ruian",
    "tourism": "museum"
  }
},
{
  "type": "way",
  "id": 60909964,
  "nodes": [
    762409126,
    762403738,
    762405340,
    762407025,
    762409126
  ],
  "tags": {
    "building": "civic",
    "building:levels": "1",
    "building:ruian:type": "15",
    "name": "Městské muzeum Žamberk",
    "ref:ruian:building": "17982278",
    "source": "cuzk:ruian",
    "tourism": "museum"
  }
},
{
  "type": "way",
  "id": 71947563,
  "nodes": [
    855186988,
    855181137,
    855174636,
    855168276,
    855186988
  ],
  "tags": {
    "building": "yes",
    "name": "Sýpka - muzeum Orlických hor",
    "opening_hours": "Mo-Su 09:00-17:00",
    "source": "cuzk:km",
    "tourism": "museum",
    "website": "http://www.sypka-moh.cz/"
  }
},
{
  "type": "way",
  "id": 71947966,
  "nodes": [
    855180484,
    855173986,
    855167642,
    855179557,
    855177163,
    855170404,
    855164631,
    855158899,
    855152693,
    855186552,
    855180484
  ],
  "tags": {
    "building": "transportation",
    "building:ruian:type": "17",
    "name": "Železniční muzeum Rokytnice v Orlických horách",
    "ref:ruian:building": "49265717",
    "source": "cuzk:ruian",
    "tourism": "museum"
  }
},
{
  "type": "way",
  "id": 72875188,
  "nodes": [
    4316064160,
    4316064162,
    4316064163,
    4316064161,
    864868401,
    864868332,
    864868410,
    864868340,
    864868370,
    864868406,
    864868398,
    864868436,
    4316064152,
    4316064151,
    864868353,
    864868393,
    864868369,
    864868405,
    864868334,
    864868364,
    864868342,
    864868373,
    4316064160
  ],
  "tags": {
    "addr:city": "Moravská Třebová",
    "addr:conscriptionnumber": "315",
    "addr:country": "CZ",
    "addr:housenumber": "315/18",
    "addr:place": "Předměstí",
    "addr:postcode": "57101",
    "addr:street": "Svitavská",
    "addr:streetnumber": "18",
    "building": "residential",
    "building:levels": "1",
    "building:ruian:type": "3",
    "name": "Městské muzeum Moravská Třebová",
    "opening_hours": "Tu-Fr 09:00-12:00,13:00-16:00, Sa-Mo 14:00-16:00",
    "ref:ruian:addr": "15973760",
    "ref:ruian:building": "15859053",
    "source": "cuzk:ruian",
    "tourism": "museum"
  }
},
{
  "type": "way",
  "id": 119657963,
  "nodes": [
    1343646127,
    1343644607,
    1343645311,
    1343643289,
    1343647467,
    1343647915,
    1343646127
  ],
  "tags": {
    "building": "residential",
    "building:flats": "1",
    "building:ruian:type": "3",
    "name": "Brtounova chalupa",
    "ref:ruian:building": "1779222",
    "source": "cuzk:ruian",
    "tourism": "museum"
  }
},
{
  "type": "way",
  "id": 189444142,
  "nodes": [
    2000624502,
    2000624506,
    2000624516,
    2000624507,
    2000624502
  ],
  "tags": {
    "building": "house",
    "building:flats": "1",
    "building:levels": "1",
    "building:ruian:type": "7",
    "ref:ruian:building": "5230471",
    "source": "cuzk:ruian",
    "tourism": "museum"
  }
},
{
  "type": "way",
  "id": 224009017,
  "nodes": [
    2328401182,
    2328401190,
    2328401192,
    2328401188,
    2328401187,
    2328401191,
    2328401186,
    2328401181,
    2328401182
  ],
  "tags": {
    "building": "house",
    "building:ruian:type": "7",
    "name": "Výstavní síň u sv. Jana - Síň rodáků Jimramova",
    "old_name": "Horní škola",
    "ref:ruian:building": "3545661",
    "source": "cuzk:ruian",
    "start_date": "1801",
    "tourism": "museum"
  }
},
{
  "type": "way",
  "id": 229159123,
  "nodes": [
    2377882727,
    2377882730,
    2377882725,
    2377882723,
    2377882727
  ],
  "tags": {
    "building": "yes",
    "name": "bývalé lázně",
    "source": "cuzk:km",
    "tourism": "museum"
  }
},
{
  "type": "way",
  "id": 291482703,
  "nodes": [
    2949462038,
    2949462036,
    2949462037,
    2949462045,
    2949462058,
    2949462069,
    2949462084,
    2949462092,
    2949462093,
    3322838852,
    3322839174,
    3322839098,
    3322838459,
    3322839691,
    3322839274,
    3322820327,
    3322836814,
    3735449403,
    3322839854,
    3322838453,
    3735449402,
    2949462098,
    2949462097,
    2949462096,
    2949462095,
    2949462062,
    2949462038
  ],
  "tags": {
    "email": "mladejov@mladejov.cz",
    "name": "Průmyslové muzeum Mladějov",
    "phone": "+420 604 635 779",
    "tourism": "museum",
    "website": "https://www.mladejov.cz/"
  }
},
{
  "type": "way",
  "id": 373878040,
  "nodes": [
    3773074898,
    3773074899,
    3773074900,
    3773074902,
    3773074903,
    3773074904,
    3773074905,
    3773074906,
    3773074907,
    3773074909,
    3773074898
  ],
  "tags": {
    "building": "yes",
    "name": "Muzeum Klobouků",
    "tourism": "museum"
  }
},
{
  "type": "node",
  "id": 2328401181,
  "lat": 49.6366563,
  "lon": 16.2261747
},
{
  "type": "node",
  "id": 2328401182,
  "lat": 49.6366819,
  "lon": 16.2259344
},
{
  "type": "node",
  "id": 2328401186,
  "lat": 49.6367407,
  "lon": 16.2261986
},
{
  "type": "node",
  "id": 2328401187,
  "lat": 49.6367696,
  "lon": 16.2261423
},
{
  "type": "node",
  "id": 2328401188,
  "lat": 49.6367791,
  "lon": 16.2260594
},
{
  "type": "node",
  "id": 2328401190,
  "lat": 49.6367669,
  "lon": 16.2259592
},
{
  "type": "node",
  "id": 2328401191,
  "lat": 49.6367475,
  "lon": 16.2261371
},
{
  "type": "node",
  "id": 2328401192,
  "lat": 49.6367567,
  "lon": 16.2260533
},
{
  "type": "node",
  "id": 1343643289,
  "lat": 49.6304378,
  "lon": 16.3435341
},
{
  "type": "node",
  "id": 1343644607,
  "lat": 49.6305214,
  "lon": 16.3436270
},
{
  "type": "node",
  "id": 1343645311,
  "lat": 49.6304403,
  "lon": 16.3436289
},
{
  "type": "node",
  "id": 1343646127,
  "lat": 49.6305192,
  "lon": 16.3436933
},
{
  "type": "node",
  "id": 1343647467,
  "lat": 49.6305779,
  "lon": 16.3435371
},
{
  "type": "node",
  "id": 1343647915,
  "lat": 49.6305732,
  "lon": 16.3436936
},
{
  "type": "node",
  "id": 3773074898,
  "lat": 49.8534693,
  "lon": 16.1468367
},
{
  "type": "node",
  "id": 3773074899,
  "lat": 49.8533960,
  "lon": 16.1471775
},
{
  "type": "node",
  "id": 3773074900,
  "lat": 49.8534355,
  "lon": 16.1471979
},
{
  "type": "node",
  "id": 3773074902,
  "lat": 49.8534599,
  "lon": 16.1471798
},
{
  "type": "node",
  "id": 3773074903,
  "lat": 49.8534853,
  "lon": 16.1470678
},
{
  "type": "node",
  "id": 3773074904,
  "lat": 49.8535192,
  "lon": 16.1470863
},
{
  "type": "node",
  "id": 3773074905,
  "lat": 49.8535350,
  "lon": 16.1470165
},
{
  "type": "node",
  "id": 3773074906,
  "lat": 49.8535015,
  "lon": 16.1469982
},
{
  "type": "node",
  "id": 3773074907,
  "lat": 49.8535229,
  "lon": 16.1469038
},
{
  "type": "node",
  "id": 3773074909,
  "lat": 49.8535130,
  "lon": 16.1468593
},
{
  "type": "node",
  "id": 864868334,
  "lat": 49.7581836,
  "lon": 16.6582706
},
{
  "type": "node",
  "id": 864868340,
  "lat": 49.7581877,
  "lon": 16.6586964
},
{
  "type": "node",
  "id": 864868353,
  "lat": 49.7580984,
  "lon": 16.6583633
},
{
  "type": "node",
  "id": 864868369,
  "lat": 49.7581155,
  "lon": 16.6582582
},
{
  "type": "node",
  "id": 864868370,
  "lat": 49.7581878,
  "lon": 16.6587142
},
{
  "type": "node",
  "id": 864868393,
  "lat": 49.7581184,
  "lon": 16.6583645
},
{
  "type": "node",
  "id": 864868398,
  "lat": 49.7581198,
  "lon": 16.6586092
},
{
  "type": "node",
  "id": 864868405,
  "lat": 49.7581836,
  "lon": 16.6582539
},
{
  "type": "node",
  "id": 864868406,
  "lat": 49.7581204,
  "lon": 16.6587162
},
{
  "type": "node",
  "id": 864868436,
  "lat": 49.7581007,
  "lon": 16.6586100
},
{
  "type": "node",
  "id": 4316064151,
  "lat": 49.7580962,
  "lon": 16.6584483
},
{
  "type": "node",
  "id": 4316064152,
  "lat": 49.7580997,
  "lon": 16.6585220
},
{
  "type": "node",
  "id": 864868332,
  "lat": 49.7583375,
  "lon": 16.6587099
},
{
  "type": "node",
  "id": 864868342,
  "lat": 49.7583333,
  "lon": 16.6582508
},
{
  "type": "node",
  "id": 864868364,
  "lat": 49.7583335,
  "lon": 16.6582677
},
{
  "type": "node",
  "id": 864868373,
  "lat": 49.7584025,
  "lon": 16.6582506
},
{
  "type": "node",
  "id": 864868401,
  "lat": 49.7584061,
  "lon": 16.6587082
},
{
  "type": "node",
  "id": 864868410,
  "lat": 49.7583372,
  "lon": 16.6586934
},
{
  "type": "node",
  "id": 4316064160,
  "lat": 49.7584039,
  "lon": 16.6584289
},
{
  "type": "node",
  "id": 4316064161,
  "lat": 49.7584047,
  "lon": 16.6585285
},
{
  "type": "node",
  "id": 4316064162,
  "lat": 49.7584074,
  "lon": 16.6584288
},
{
  "type": "node",
  "id": 4316064163,
  "lat": 49.7584087,
  "lon": 16.6585284
},
{
  "type": "node",
  "id": 2949462037,
  "lat": 49.8227765,
  "lon": 16.5864208
},
{
  "type": "node",
  "id": 2949462045,
  "lat": 49.8236466,
  "lon": 16.5866535
},
{
  "type": "node",
  "id": 2949462036,
  "lat": 49.8227495,
  "lon": 16.5874383
},
{
  "type": "node",
  "id": 2949462038,
  "lat": 49.8233232,
  "lon": 16.5875696
},
{
  "type": "node",
  "id": 2949462058,
  "lat": 49.8241510,
  "lon": 16.5863551
},
{
  "type": "node",
  "id": 2949462069,
  "lat": 49.8245361,
  "lon": 16.5857941
},
{
  "type": "node",
  "id": 2949462084,
  "lat": 49.8250770,
  "lon": 16.5852271
},
{
  "type": "node",
  "id": 2949462092,
  "lat": 49.8253189,
  "lon": 16.5851570
},
{
  "type": "node",
  "id": 2949462093,
  "lat": 49.8253352,
  "lon": 16.5846788
},
{
  "type": "node",
  "id": 2949462096,
  "lat": 49.8260453,
  "lon": 16.5854034
},
{
  "type": "node",
  "id": 2949462097,
  "lat": 49.8260970,
  "lon": 16.5852599
},
{
  "type": "node",
  "id": 2949462098,
  "lat": 49.8262004,
  "lon": 16.5852220
},
{
  "type": "node",
  "id": 3322820327,
  "lat": 49.8265714,
  "lon": 16.5847592
},
{
  "type": "node",
  "id": 3322836814,
  "lat": 49.8267187,
  "lon": 16.5847444
},
{
  "type": "node",
  "id": 3322838453,
  "lat": 49.8262905,
  "lon": 16.5851642
},
{
  "type": "node",
  "id": 3322838459,
  "lat": 49.8263091,
  "lon": 16.5846424
},
{
  "type": "node",
  "id": 3322838852,
  "lat": 49.8258472,
  "lon": 16.5845396
},
{
  "type": "node",
  "id": 3322839098,
  "lat": 49.8261052,
  "lon": 16.5845731
},
{
  "type": "node",
  "id": 3322839174,
  "lat": 49.8259738,
  "lon": 16.5845560
},
{
  "type": "node",
  "id": 3322839274,
  "lat": 49.8264903,
  "lon": 16.5847379
},
{
  "type": "node",
  "id": 3322839691,
  "lat": 49.8263957,
  "lon": 16.5846908
},
{
  "type": "node",
  "id": 3322839854,
  "lat": 49.8265492,
  "lon": 16.5850621
},
{
  "type": "node",
  "id": 3735449402,
  "lat": 49.8262170,
  "lon": 16.5852150
},
{
  "type": "node",
  "id": 3735449403,
  "lat": 49.8267295,
  "lon": 16.5850097
},
{
  "type": "node",
  "id": 2949462062,
  "lat": 49.8243219,
  "lon": 16.5878469
},
{
  "type": "node",
  "id": 2949462095,
  "lat": 49.8258438,
  "lon": 16.5881845
},
{
  "type": "node",
  "id": 2000624502,
  "lat": 49.9424773,
  "lon": 16.0558031
},
{
  "type": "node",
  "id": 2000624506,
  "lat": 49.9424965,
  "lon": 16.0556526
},
{
  "type": "node",
  "id": 2000624507,
  "lat": 49.9425274,
  "lon": 16.0558183
},
{
  "type": "node",
  "id": 2000624516,
  "lat": 49.9425468,
  "lon": 16.0556680
},
{
  "type": "node",
  "id": 2377882723,
  "lat": 49.9706858,
  "lon": 16.0923237
},
{
  "type": "node",
  "id": 2377882725,
  "lat": 49.9707517,
  "lon": 16.0925431
},
{
  "type": "node",
  "id": 2377882727,
  "lat": 49.9708616,
  "lon": 16.0921959
},
{
  "type": "node",
  "id": 2377882730,
  "lat": 49.9709276,
  "lon": 16.0924154
},
{
  "type": "node",
  "id": 762403576,
  "lat": 50.0946886,
  "lon": 16.4459797
},
{
  "type": "node",
  "id": 762405176,
  "lat": 50.0947928,
  "lon": 16.4459776
},
{
  "type": "node",
  "id": 762411558,
  "lat": 50.0947944,
  "lon": 16.4460822
},
{
  "type": "node",
  "id": 762412882,
  "lat": 50.0946891,
  "lon": 16.4460832
},
{
  "type": "node",
  "id": 762403738,
  "lat": 50.0869025,
  "lon": 16.4604216
},
{
  "type": "node",
  "id": 762405340,
  "lat": 50.0868601,
  "lon": 16.4606962
},
{
  "type": "node",
  "id": 762407025,
  "lat": 50.0866873,
  "lon": 16.4606321
},
{
  "type": "node",
  "id": 762409126,
  "lat": 50.0867298,
  "lon": 16.4603593
},
{
  "type": "node",
  "id": 855152693,
  "lat": 50.1601522,
  "lon": 16.4661688
},
{
  "type": "node",
  "id": 855158899,
  "lat": 50.1601388,
  "lon": 16.4661323
},
{
  "type": "node",
  "id": 855164631,
  "lat": 50.1600998,
  "lon": 16.4661670
},
{
  "type": "node",
  "id": 855167642,
  "lat": 50.1602962,
  "lon": 16.4662294
},
{
  "type": "node",
  "id": 855170404,
  "lat": 50.1601341,
  "lon": 16.4662606
},
{
  "type": "node",
  "id": 855173986,
  "lat": 50.1602646,
  "lon": 16.4661431
},
{
  "type": "node",
  "id": 855177163,
  "lat": 50.1600857,
  "lon": 16.4663036
},
{
  "type": "node",
  "id": 855179557,
  "lat": 50.1601169,
  "lon": 16.4663887
},
{
  "type": "node",
  "id": 855180484,
  "lat": 50.1602180,
  "lon": 16.4661844
},
{
  "type": "node",
  "id": 855186552,
  "lat": 50.1601975,
  "lon": 16.4661285
},
{
  "type": "node",
  "id": 855168276,
  "lat": 50.1662210,
  "lon": 16.4660740
},
{
  "type": "node",
  "id": 855174636,
  "lat": 50.1661075,
  "lon": 16.4660584
},
{
  "type": "node",
  "id": 855181137,
  "lat": 50.1660925,
  "lon": 16.4663371
},
{
  "type": "node",
  "id": 855186988,
  "lat": 50.1662050,
  "lon": 16.4663510
}

  ]
}
