{
  "version": 0.6,
  "generator": "Overpass API 0.7.55.9 ab41fea6",
  "osm3s": {
    "timestamp_osm_base": "2020-02-14T09:52:02Z",
    "copyright": "The data included in this document is from www.openstreetmap.org. The data is made available under ODbL."
  },
  "elements": [

{
  "type": "node",
  "id": 279265231,
  "lat": 52.6201018,
  "lon": -2.4529165,
  "tags": {
    "addr:city": "Coalport",
    "addr:postcode": "TF8 7HT",
    "addr:street": "Coalport High Street",
    "name": "Tar Tunnel",
    "tourism": "museum",
    "website": "http://www.ironbridge.org.uk/our-attractions/tar-tunnel/",
    "wikidata": "Q7685001",
    "wikipedia": "en:Tar Tunnel"
  }
},
{
  "type": "node",
  "id": 294941383,
  "lat": 53.1100150,
  "lon": -2.2158747,
  "tags": {
    "name": "Castle Museum",
    "tourism": "museum"
  }
},
{
  "type": "node",
  "id": 295092454,
  "lat": 53.0656494,
  "lon": -2.5208804,
  "tags": {
    "name": "Nantwich Museum",
    "opening_hours": "Tu-Sa 10:30-16:30",
    "tourism": "museum",
    "website": "nantwichmuseum.org.uk",
    "wikidata": "Q6964392",
    "wikipedia": "en:Nantwich Museum"
  }
},
{
  "type": "node",
  "id": 297773997,
  "lat": 52.9755331,
  "lon": -2.0658932,
  "tags": {
    "name": "Foxfield Steam Railway",
    "tourism": "museum"
  }
},
{
  "type": "node",
  "id": 346358691,
  "lat": 52.6835525,
  "lon": -1.8275187,
  "tags": {
    "name": "St Mary's in the Market Square",
    "tourism": "museum",
    "wikidata": "Q6543276"
  }
},
{
  "type": "node",
  "id": 436500306,
  "lat": 52.7121860,
  "lon": -1.9908559,
  "tags": {
    "name": "Museum of Cannock Chase",
    "source": "survey",
    "tourism": "museum"
  }
},
{
  "type": "node",
  "id": 453184639,
  "lat": 52.6236390,
  "lon": -2.4647145,
  "tags": {
    "addr:city": "Jackfield",
    "addr:postcode": "TF8 7LJ",
    "addr:street": "Church Road",
    "name": "Jackfield Tile Museum",
    "operator": "Ironbridge Gorge Museum Trust",
    "phone": "+44 1952 433424",
    "tourism": "museum",
    "website": "http://www.ironbridge.co.uk/our_attractions/jackfield_tile_museum/",
    "wikidata": "Q6116147",
    "wikipedia": "en:Jackfield Tile Museum"
  }
},
{
  "type": "node",
  "id": 761171045,
  "lat": 52.6298110,
  "lon": -2.4511390,
  "tags": {
    "addr:city": "Madeley",
    "addr:postcode": "TF7 5DU",
    "addr:street": "Legges Way",
    "museum": "living_history",
    "name": "Blists Hill Victorian Town",
    "phone": "+44 1952 433424",
    "tourism": "museum",
    "website": "http://www.ironbridge.org.uk/our-attractions/blists-hill-victorian-town/",
    "wikidata": "Q4926919",
    "wikipedia": "en:Blists Hill Victorian Town"
  }
},
{
  "type": "node",
  "id": 771649521,
  "lat": 52.9866900,
  "lon": -2.1316801,
  "tags": {
    "name": "Gladstone Pottery Museum",
    "tourism": "museum",
    "wikidata": "Q5566347"
  }
},
{
  "type": "node",
  "id": 1107967370,
  "lat": 52.5799991,
  "lon": -2.1541891,
  "tags": {
    "name": "Bantock House",
    "tourism": "museum",
    "wikidata": "Q4857244"
  }
},
{
  "type": "node",
  "id": 1199214375,
  "lat": 53.0707741,
  "lon": -2.0430162,
  "tags": {
    "name": "Cheddleton Flint Mill",
    "tourism": "museum",
    "wikidata": "Q5089205"
  }
},
{
  "type": "node",
  "id": 1347091812,
  "lat": 52.6301498,
  "lon": -2.4935905,
  "tags": {
    "addr:city": "Ironbridge",
    "addr:postcode": "TF8 7NJ",
    "addr:street": "The Wharfage",
    "name": "The Merrythought Teddy Bear Shop & Museum",
    "phone": "+44 1952 433044",
    "shop": "gift",
    "tourism": "museum",
    "website": "https://www.merrythought.co.uk/"
  }
},
{
  "type": "node",
  "id": 1477751196,
  "lat": 52.5833673,
  "lon": -2.0590880,
  "tags": {
    "name": "Willenhall Lock Museum",
    "tourism": "museum",
    "wikidata": "Q6665837"
  }
},
{
  "type": "node",
  "id": 1510775956,
  "lat": 52.5218932,
  "lon": -2.1661412,
  "tags": {
    "name": "Himley House Museum",
    "tourism": "museum"
  }
},
{
  "type": "node",
  "id": 1574512582,
  "lat": 53.0598062,
  "lon": -2.3713605,
  "tags": {
    "name": "Englesea Brook Museum of Methodism",
    "tourism": "museum"
  }
},
{
  "type": "node",
  "id": 2946731018,
  "lat": 52.5863011,
  "lon": -1.9787942,
  "tags": {
    "name": "The E.M. Flint Art Gallery",
    "tourism": "museum"
  }
},
{
  "type": "node",
  "id": 2979726288,
  "lat": 52.5911460,
  "lon": -2.1305593,
  "tags": {
    "name": "Wolves Museum",
    "operator": "Wolverhampton Wanderers FC",
    "source": "survey",
    "tourism": "museum"
  }
},
{
  "type": "node",
  "id": 2982291422,
  "lat": 52.6170596,
  "lon": -2.4863892,
  "tags": {
    "addr:city": "Broseley",
    "addr:postcode": "TF12 5LX",
    "addr:street": "Duke Street",
    "name": "Broseley Pipeworks",
    "phone": "+44 1952 433424",
    "tourism": "museum",
    "website": "http://www.ironbridge.org.uk/our-attractions/broseley-pipeworks/",
    "wikidata": "Q18386043",
    "wikipedia": "en:Broseley Pipeworks"
  }
},
{
  "type": "node",
  "id": 3065498637,
  "lat": 52.8859571,
  "lon": -1.7648149,
  "tags": {
    "name": "National Trust Museum of Childhood",
    "operator": "National Trust",
    "toilets:wheelchair": "yes",
    "tourism": "museum",
    "wheelchair": "limited"
  }
},
{
  "type": "node",
  "id": 4215992262,
  "lat": 52.8476732,
  "lon": -2.0104356,
  "tags": {
    "addr:city": "Stafford",
    "addr:housename": "Amerton Railway",
    "addr:postcode": "ST18 0LA",
    "addr:street": "A518",
    "information": "office",
    "name": "Amerton Railway Ticket Office",
    "operator": "Amerton Railway",
    "phone": "+44 1889 271337",
    "tourism": "museum",
    "website": "https://amertonrailway.co.uk/",
    "wheelchair": "yes"
  }
},
{
  "type": "node",
  "id": 6252277566,
  "lat": 53.1299658,
  "lon": -2.1614715,
  "tags": {
    "name": "Geological Gallery",
    "tourism": "museum"
  }
},
{
  "type": "node",
  "id": 6362254058,
  "lat": 52.6834755,
  "lon": -1.8279990,
  "tags": {
    "addr:city": "Lichfield",
    "addr:housename": "The Samuel Johnson Birthplace Museum",
    "addr:postcode": "WS13 6LG",
    "addr:street": "Breadmarket Street",
    "name": "The Samuel Johnson Birthplace Museum",
    "opening_hours": "Mo-Su 10:30-16:30",
    "operator": "Dr Johnson's Birthplace Trust (Lichfield City Council)",
    "tourism": "museum"
  }
},
{
  "type": "way",
  "id": 49990367,
  "nodes": [
    634996529,
    634996530,
    634996531,
    634996533,
    1142754073,
    1142754890,
    1142754613,
    1142754219,
    634996543,
    1142754001,
    2625840351,
    634996544,
    1142754348,
    1142755113,
    2717006189,
    1142754120,
    2717006176,
    1142754515,
    1142754754,
    1142753965,
    2507232925,
    634996545,
    634996529
  ],
  "tags": {
    "landuse": "industrial",
    "name": "Etruria Industrial Museum",
    "tourism": "museum"
  }
},
{
  "type": "way",
  "id": 57044788,
  "nodes": [
    712338205,
    712338189,
    712338217,
    6249199999,
    712338184,
    712338213,
    712338181,
    712338212,
    712338176,
    6249198970,
    712338205
  ],
  "tags": {
    "building": "museum",
    "name": "RAF Cosford Visitor Centre",
    "source": "OS_OpenData_StreetView",
    "tourism": "museum"
  }
},
{
  "type": "way",
  "id": 57044995,
  "nodes": [
    712352020,
    712352004,
    712352018,
    712351999,
    712352012,
    712352029,
    712352016,
    712352032,
    712352023,
    712352009,
    712352007,
    712352005,
    712352010,
    712352026,
    347026354,
    6249200023,
    6249200024,
    712352011,
    712352015,
    6249200025,
    6249200026,
    712352031,
    712352020
  ],
  "tags": {
    "name": "RAF Museum Cosford",
    "source": "visual survey;OS_OpenData_StreetView",
    "tourism": "museum",
    "url": "http://www.rafmuseum.org.uk/cosford/"
  }
},
{
  "type": "way",
  "id": 59663228,
  "nodes": [
    740166346,
    740166405,
    740166328,
    740166353,
    740166379,
    740166399,
    740166340,
    740166361,
    740166348,
    740166334,
    740166407,
    740166375,
    740166350,
    740166383,
    740166321,
    740166402,
    740166332,
    740166382,
    740166318,
    740166343,
    740166371,
    740166388,
    740166331,
    740166394,
    740166346
  ],
  "tags": {
    "addr:city": "Coalbrookdale",
    "addr:postcode": "TF8 7DQ",
    "addr:street": "Wellington Road",
    "building": "yes",
    "is_in": "Ironbridge, Telford, Shropshire, England, United Kingdom",
    "name": "Enginuity",
    "phone": "+44 1952 433424",
    "source": "OS_OpenData_StreetView",
    "tourism": "museum",
    "website": "http://www.ironbridge.org.uk/our-attractions/enginuity/",
    "wikipedia": "en:Enginuity"
  }
},
{
  "type": "way",
  "id": 59663229,
  "nodes": [
    278009243,
    740166400,
    740166372,
    4012876683,
    4012876682,
    740166354,
    740166319,
    740166389,
    278009243
  ],
  "tags": {
    "addr:city": "Coalbrookdale",
    "addr:postcode": "TF8 7DQ",
    "addr:street": "Wellington Road",
    "building": "yes",
    "name": "Coalbrookdale Museum of Iron",
    "phone": "+44 1952 433424",
    "source": "OS_OpenData_StreetView",
    "tourism": "museum",
    "website": "http://www.ironbridge.org.uk/our-attractions/coalbrookdale-museum-of-iron/",
    "wikidata": "Q5137850",
    "wikipedia": "en:Coalbrookdale Museum of Iron"
  }
},
{
  "type": "way",
  "id": 60220724,
  "nodes": [
    748065115,
    748065118,
    1640201427,
    748065120,
    748065125,
    748065115
  ],
  "tags": {
    "building": "yes",
    "name": "Potteries Museum and Art Gallery",
    "opening_hours": "Mo-Sa 10:00-17:00; Su 11:00-16:00",
    "operator": "City of Stoke-on-Trent",
    "tourism": "museum",
    "wikidata": "Q7235303",
    "wikipedia": "en:Potteries Museum & Art Gallery"
  }
},
{
  "type": "way",
  "id": 60473765,
  "nodes": [
    754019212,
    754019192,
    754019208,
    754019197,
    754019212
  ],
  "tags": {
    "addr:city": "Ironbridge",
    "addr:postcode": "TF8 7NH",
    "addr:street": "The Wharfage",
    "building": "yes",
    "name": "Museum Of The Gorge",
    "phone": "+44 1952 433424",
    "source": "OS_OpenData_StreetView",
    "tourism": "museum",
    "website": "http://www.ironbridge.org.uk/our-attractions/museum-of-the-gorge/",
    "wikipedia": "en:Museum of the Gorge, Ironbridge"
  }
},
{
  "type": "way",
  "id": 60784435,
  "nodes": [
    760767742,
    2580203113,
    760767770,
    760767747,
    760767892,
    2580203115,
    760767824,
    760767791,
    760767742
  ],
  "tags": {
    "addr:city": "Coalport",
    "addr:postcode": "TF8 7HT",
    "addr:street": "Coalport High Street",
    "building": "yes",
    "name": "Coalport China Museum",
    "phone": "+44 1952 433424",
    "source": "OS_OpenData_StreetView",
    "tourism": "museum",
    "website": "http://www.ironbridge.org.uk/our-attractions/coalport-china-museum/",
    "wheelchair": "yes",
    "wikidata": "Q5138023",
    "wikipedia": "en:Coalport China Museum"
  }
},
{
  "type": "way",
  "id": 61374906,
  "nodes": [
    766434658,
    766434623,
    2631295918,
    2631295917,
    766434654,
    2631295929,
    766434625,
    766434573,
    766434578,
    766434661,
    2631295928,
    2631295927,
    2631295926,
    766434635,
    766434568,
    766434646,
    766434665,
    766434610,
    766434658
  ],
  "tags": {
    "building": "museum",
    "name": "The Leather Museum",
    "tourism": "museum",
    "wikidata": "Q7963788"
  }
},
{
  "type": "way",
  "id": 71045028,
  "nodes": [
    846331568,
    1545131395,
    1545131315,
    1545131366,
    1545131314,
    846332873,
    846330995,
    1545131337,
    1545131361,
    1545131364,
    1545131399,
    846331109,
    846331713,
    846331017,
    846331568
  ],
  "tags": {
    "addr:city": "Chesterton",
    "addr:postcode": "ST5 7JS",
    "addr:street": "Loomer Road",
    "building": "yes",
    "name": "Apedale Heritage Centre",
    "source": "OS_OpenData_StreetView",
    "tourism": "museum",
    "wikidata": "Q4779287"
  }
},
{
  "type": "way",
  "id": 85581636,
  "nodes": [
    992797321,
    992797195,
    2198931103,
    992797324,
    992797250,
    992797188,
    2198931106,
    2198931060,
    992797296,
    992797274,
    992797197,
    992797318,
    992797243,
    992797321
  ],
  "tags": {
    "building": "yes",
    "name": "Wolverhampton Art Gallery",
    "source": "visual survey;OS_OpenData_StreetView",
    "tourism": "museum",
    "wikidata": "Q8030459"
  }
},
{
  "type": "way",
  "id": 86939187,
  "nodes": [
    1011401057,
    1560875062,
    1560875488,
    1560875731,
    1560875651,
    1560875332,
    1560875322,
    1560875577,
    1011401105,
    1560875600,
    1057707281,
    1560875337,
    1560875220,
    1011401123,
    1011401054,
    1560875458,
    1011401068,
    1057707021,
    1057707777,
    1560875523,
    1057707572,
    1560875518,
    1057707308,
    1560875548,
    1560875450,
    1560875614,
    1560875389,
    1011401104,
    1011401118,
    1560875136,
    1560875161,
    1560875583,
    1560875234,
    6611066239,
    1560875869,
    1011401032,
    1011401066,
    1011401099,
    1560875838,
    1057707396,
    1560875628,
    1560875086,
    1057707209,
    1057707098,
    1057707454,
    1057707759,
    1560875209,
    1560875769,
    1011401057
  ],
  "tags": {
    "name": "Crewe Heritage Centre",
    "tourism": "museum",
    "website": "http://creweheritagecentre.org"
  }
},
{
  "type": "way",
  "id": 90256656,
  "nodes": [
    1046457848,
    1046458076,
    1046457996,
    1046457802,
    1046457848
  ],
  "tags": {
    "building": "yes",
    "museum": "transport",
    "name": "Aston Manor Transport Museum",
    "source": "Observation and OS_OpenData_StreetView",
    "tourism": "museum"
  }
},
{
  "type": "way",
  "id": 118821318,
  "nodes": [
    1335742387,
    3929131089,
    3929131090,
    3929131088,
    1335742394,
    1335742385,
    1335742392,
    1335742390,
    1335742388,
    1335742389,
    1335742375,
    1335742387
  ],
  "tags": {
    "addr:city": "Wolverhampton",
    "addr:housename": "Molineux House",
    "building": "yes",
    "heritage": "2",
    "heritage:operator": "Historic England",
    "listed_status": "Grade II*",
    "name": "Wolverhampton City Archives",
    "old_name": "Molineux Hotel",
    "operator": "Wolverhampton City Council",
    "source": "Bing;knowledge",
    "tourism": "museum",
    "website": "https://www.wolverhampton.gov.uk/leisure_culture/libraries/archives"
  }
},
{
  "type": "way",
  "id": 127091724,
  "nodes": [
    1407356949,
    1407356953,
    1407356935,
    1407356934,
    1407356921,
    1407356918,
    1407356912,
    1407356933,
    1407356949
  ],
  "tags": {
    "building": "yes",
    "name": "Shire Hall",
    "operator": "Staffordshire County Council",
    "source": "Bing;survey",
    "start_date": "1798",
    "tourism": "museum",
    "website": "https://www.staffordshire.gov.uk/leisure/museumandgalleries/shirehallgalleries/home.aspx",
    "wikidata": "Q7498359",
    "wikipedia": "en:Shire Hall, Stafford"
  }
},
{
  "type": "way",
  "id": 141517169,
  "nodes": [
    2368390045,
    2368390028,
    2368390024,
    2368390017,
    2368390015,
    2368390032,
    2368390034,
    2368390051,
    2368390055,
    2368390040,
    2368390044,
    2368390038,
    2368390042,
    2368390049,
    2368390047,
    2368390057,
    2368390059,
    2368390063,
    2368390078,
    1548960916,
    1548960920,
    1548960873,
    2368390045
  ],
  "tags": {
    "addr:city": "Newcastle-under-Lyme",
    "addr:housename": "The Firs",
    "building": "yes",
    "name": "Newcastle Museum & Art Gallery",
    "operator": "Staffordshire County Council",
    "source": "Bing",
    "tourism": "museum"
  }
},
{
  "type": "way",
  "id": 145798882,
  "nodes": [
    1591389647,
    1591389642,
    1591389643,
    1591389640,
    1591389638,
    1591389641,
    1591389646,
    1591389645,
    1591389647
  ],
  "tags": {
    "building": "yes",
    "name": "Staffordshire Regiment Museum",
    "source": "visual survey; bing",
    "tourism": "museum",
    "wikidata": "Q7596707"
  }
},
{
  "type": "way",
  "id": 156363619,
  "nodes": [
    1686189424,
    1686189438,
    1686189437,
    1686189436,
    1686189454,
    1686189464,
    1686189440,
    1686189468,
    1686189476,
    1686189427,
    1686189456,
    1686189452,
    1686189460,
    1686189453,
    1686189430,
    1686189444,
    1686189446,
    1686189473,
    1686189463,
    1686189435,
    1686189469,
    1686189478,
    5277631605,
    1686189433,
    1686189432,
    540650829,
    1686189434,
    1686189441,
    1686189449,
    5277631606,
    1686189475,
    1686189424
  ],
  "tags": {
    "building": "yes",
    "heritage": "2",
    "heritage:operator": "Historic England",
    "listed_status": "Grade II",
    "name": "West Park Conservatory",
    "tourism": "museum"
  }
},
{
  "type": "way",
  "id": 185931973,
  "nodes": [
    1966220868,
    1966220870,
    1966220926,
    1966220899,
    1966220897,
    1966220932,
    1966220852,
    1966220859,
    1966220882,
    1966220864,
    1966220867,
    1966220896,
    1966220880,
    1966220843,
    1966220919,
    1966220922,
    1966220868
  ],
  "tags": {
    "addr:housename": "Ford Green Hall",
    "addr:postcode": "ST6 1NG",
    "addr:street": "Ford Green Road",
    "building": "yes",
    "fhrs:id": "1111573",
    "name": "Ford Green Hall",
    "opening_hours": "Mo-Th, Su 13:00-16:00",
    "source:addr": "FHRS Open Data",
    "tourism": "museum",
    "website": "http://fordgreenhall.org.uk",
    "wikidata": "Q5467796"
  }
},
{
  "type": "way",
  "id": 203601486,
  "nodes": [
    2136109756,
    2136109752,
    2136109748,
    2136109755,
    2136109759,
    2136109760,
    2136109761,
    2136109751,
    2136109753,
    2136109769,
    2136109766,
    2136109770,
    2136109767,
    2136109773,
    2136109771,
    2136109774,
    2136109768,
    2136109772,
    2136109765,
    2136109764,
    2136109762,
    2136109763,
    2136109758,
    2136109756
  ],
  "tags": {
    "WCC_ref": "MBL629",
    "amenity": "library",
    "building": "library",
    "heritage": "6",
    "heritage:operator": "Wolverhampton City Council",
    "listed_status": "local",
    "name": "Bliston Craft Gallery and Library",
    "tourism": "museum"
  }
},
{
  "type": "way",
  "id": 204141834,
  "nodes": [
    4823821745,
    4823821744,
    4823821743,
    2141569169,
    2141569167,
    2300710213,
    2300710214,
    2300710212,
    2300710211,
    2141569157,
    2141569159,
    4823821746,
    2141569155,
    2141569161,
    2141569165,
    4823821728,
    4823821729,
    2141569163,
    4823821745
  ],
  "tags": {
    "building": "yes",
    "heritage": "2",
    "heritage:operator": "Historic England",
    "listed_status": "Grade II*",
    "name": "Working Farm",
    "operator": "National Trust",
    "source": "Bing",
    "tourism": "museum"
  }
},
{
  "type": "way",
  "id": 204280728,
  "nodes": [
    2142946148,
    2029791593,
    2142946180,
    996186830,
    2029791594,
    2029791587,
    996186833,
    996186834,
    2029791580,
    996186835,
    2029791599,
    996186839,
    2029791606,
    996186842,
    996186847,
    2029791609,
    2141569184,
    2029791610,
    2141569185,
    2141569182,
    2142946243,
    996186814,
    996186815,
    996186816,
    4823821119,
    996186817,
    2142946135,
    996186818,
    2142946148
  ],
  "tags": {
    "building": "yes",
    "heritage": "2",
    "heritage:operator": "Historic England",
    "layer": "1",
    "listed_status": "Grade II",
    "note": "The former Staffordshire County Museum, now partially open as the servants quarters by the National Trust",
    "old:operator": "Staffordshire Museum & Archives Service",
    "old:wikidata": "Q7596694",
    "old:wikipedia": "en:Staffordshire County Museum",
    "old_name": "Staffordshire County Museum",
    "operator": "National Trust",
    "source": "survey; Bing",
    "tourism": "museum"
  }
},
{
  "type": "way",
  "id": 217786968,
  "nodes": [
    2270927068,
    2270927024,
    2270927011,
    2270927055,
    2270927068
  ],
  "tags": {
    "building": "yes",
    "name": "Ancient High House",
    "source": "Bing",
    "tourism": "museum",
    "wikidata": "Q4752857",
    "wikipedia": "en:Ancient High House"
  }
},
{
  "type": "way",
  "id": 239142391,
  "nodes": [
    2469516781,
    2469516840,
    2469516874,
    2469516878,
    2469516781
  ],
  "tags": {
    "building": "mill",
    "historic": "mill",
    "name": "Brindley Mill",
    "tourism": "museum"
  }
},
{
  "type": "way",
  "id": 255334288,
  "nodes": [
    2610304778,
    6855849442,
    2610304795,
    2610304792,
    2610304772,
    2610304786,
    2610304766,
    2610304754,
    2610304778
  ],
  "tags": {
    "landuse": "commercial",
    "name": "The Dudson Centre",
    "tourism": "museum"
  }
},
{
  "type": "way",
  "id": 266121963,
  "nodes": [
    2717006232,
    2717006237,
    2717006256,
    2717006276,
    2717006295,
    2717006310,
    2717006324,
    2717006336,
    2717006349,
    2717006361,
    2717006373,
    2717006387,
    2717006400,
    2717006412,
    2717006416,
    2717006407,
    2717006393,
    2717006380,
    2717006367,
    2717006355,
    2717006342,
    2717006330,
    2717006318,
    2717006311,
    2717006304,
    2717006282,
    2717006269,
    2717006263,
    2717006250,
    2717006244,
    2717006232
  ],
  "tags": {
    "addr:postcode": "ST6 3PE",
    "addr:street": "Port Street",
    "building": "industrial",
    "disused": "yes",
    "disused:man_made": "kiln",
    "former_product": "pottery",
    "heritage": "2",
    "heritage:operator": "he",
    "historic": "kiln",
    "kiln": "bottle_kiln",
    "listed_status": "Grade II*",
    "ref:he": "1297939",
    "tourism": "museum",
    "website": "http://www.middleportpottery.org/"
  }
},
{
  "type": "way",
  "id": 295518647,
  "nodes": [
    2992531210,
    2992531211,
    2992531206,
    2992531205,
    2992531210
  ],
  "tags": {
    "building": "yes",
    "source": "visual survey;bing",
    "tourism": "museum"
  }
},
{
  "type": "way",
  "id": 333513434,
  "nodes": [
    3406309341,
    3406309328,
    3406309407,
    3406307867,
    3406309341
  ],
  "tags": {
    "HE_ref": "1279389",
    "building": "tower",
    "denomination": "anglican",
    "historic": "ruins",
    "listed_status": "Grade II*",
    "name": "St. Chad's Church Tower",
    "note": "only the tower remains of this former anglican church",
    "religion": "christian",
    "tourism": "museum",
    "website": "http://www.wybunbury.org.uk/"
  }
},
{
  "type": "way",
  "id": 386554913,
  "nodes": [
    3898929017,
    3898929018,
    3898929019,
    3898929020,
    3898929017
  ],
  "tags": {
    "building": "yes",
    "name": "Wroxeter Roman City Museum",
    "tourism": "museum"
  }
},
{
  "type": "way",
  "id": 395135427,
  "nodes": [
    3980226235,
    3980226233,
    3980226240,
    3980226223,
    3980226381,
    4178243398,
    3980226226,
    4178263930,
    3980226171,
    3980226247,
    1844413169,
    1844412656,
    3980226249,
    3980226235
  ],
  "tags": {
    "building": "manufacture",
    "name": "Wedgwood Museum",
    "source": "OS OpenData StreetView",
    "tourism": "museum"
  }
},
{
  "type": "way",
  "id": 398544734,
  "nodes": [
    4012940747,
    4012940748,
    4012940749,
    4012940750,
    4012940747
  ],
  "tags": {
    "addr:city": "Coalbrookdale",
    "addr:postcode": "TF8 7EW",
    "addr:street": "Darby Road",
    "building": "yes",
    "name": "The Darby Houses",
    "phone": "+44 1952 433424",
    "tourism": "museum",
    "website": "http://www.ironbridge.org.uk/our-attractions/darby-houses/",
    "wikidata": "Q7368204",
    "wikipedia": "en:Darby Houses"
  }
},
{
  "type": "way",
  "id": 405379954,
  "nodes": [
    4075881487,
    4075881488,
    4075881589,
    4075881590,
    4075881591,
    4075881592,
    4075881487
  ],
  "tags": {
    "addr:city": "Wolverhampton",
    "building": "yes",
    "name": "Tettenhall Transport Heritage Museum",
    "tourism": "museum"
  }
},
{
  "type": "way",
  "id": 421860308,
  "nodes": [
    4215994166,
    4215994162,
    4215994157,
    4215994164,
    4215994165,
    4215994159,
    4215994161,
    4215994179,
    4215994177,
    4215994174,
    4215994172,
    4215994173,
    4215994175,
    4215994176,
    4215994167,
    4215994166
  ],
  "tags": {
    "addr:city": "Stafford",
    "addr:housename": "Amerton Railway",
    "addr:postcode": "ST18 0LA",
    "addr:street": "A518",
    "building": "yes",
    "building:levels": "1",
    "name": "Amerton Railway Workshop & Engine Shed",
    "operator": "Amerton Railway",
    "phone": "+44 1889271337",
    "source": "Director of Amerton Railway",
    "tourism": "museum",
    "website": "https://amertonrailway.co.uk/",
    "wheelchair": "no"
  }
},
{
  "type": "way",
  "id": 491188548,
  "nodes": [
    4833335487,
    4833335488,
    4833335489,
    4833335490,
    4833335487
  ],
  "tags": {
    "building": "yes",
    "name": "Waterhouses Signal Box",
    "operator": "Amerton Railway",
    "tourism": "museum",
    "wheelchair": "no"
  }
},
{
  "type": "way",
  "id": 576373319,
  "nodes": [
    4742463034,
    1274994278,
    1274994277,
    4742463033,
    4742463030,
    5528284348,
    5528284350,
    5528284353,
    5528284347,
    5528284351,
    5528284352,
    5528284345,
    3425368654,
    3425368797,
    3425368684,
    3425368611,
    4742463039,
    4742463040,
    4742463041,
    1274994390,
    1274994433,
    5528284349,
    5528284346,
    4742463034
  ],
  "tags": {
    "addr:postcode": "ST3 1PQ",
    "addr:street": "Uttoxeter Road",
    "name": "Gladstone Pottery Museum",
    "tourism": "museum"
  }
},
{
  "type": "way",
  "id": 612010568,
  "nodes": [
    5793860420,
    5793860421,
    5793860422,
    5793860423,
    5793860420
  ],
  "tags": {
    "addr:city": "Ironbridge",
    "addr:postcode": "TF8 7JP",
    "addr:street": "Ladywood",
    "building": "tollhouse",
    "building:levels": "2",
    "name": "The Iron Bridge Tollhouse",
    "note": "tourism information has moved from here",
    "phone": "+44 1952 433424",
    "tourism": "museum",
    "website": "http://www.ironbridge.org.uk/our-attractions/the-iron-bridge-and-tollhouse/",
    "wheelchair": "limited"
  }
},
{
  "type": "way",
  "id": 612016480,
  "nodes": [
    1252615772,
    5793895609,
    5793895610,
    5793895611,
    1252615772
  ],
  "tags": {
    "building": "yes",
    "name": "Museum of Steel Sculpture",
    "tourism": "museum"
  }
},
{
  "type": "node",
  "id": 3898929017,
  "lat": 52.6746557,
  "lon": -2.6444844
},
{
  "type": "node",
  "id": 3898929018,
  "lat": 52.6747602,
  "lon": -2.6444370
},
{
  "type": "node",
  "id": 3898929019,
  "lat": 52.6747028,
  "lon": -2.6440930
},
{
  "type": "node",
  "id": 3898929020,
  "lat": 52.6745982,
  "lon": -2.6441405
},
{
  "type": "node",
  "id": 5793860420,
  "lat": 52.6268399,
  "lon": -2.4856847
},
{
  "type": "node",
  "id": 5793860421,
  "lat": 52.6268498,
  "lon": -2.4857623
},
{
  "type": "node",
  "id": 5793860422,
  "lat": 52.6269421,
  "lon": -2.4857305
},
{
  "type": "node",
  "id": 5793860423,
  "lat": 52.6269322,
  "lon": -2.4856529
},
{
  "type": "node",
  "id": 754019192,
  "lat": 52.6296309,
  "lon": -2.4923412
},
{
  "type": "node",
  "id": 754019197,
  "lat": 52.6293618,
  "lon": -2.4921640
},
{
  "type": "node",
  "id": 754019208,
  "lat": 52.6294865,
  "lon": -2.4920144
},
{
  "type": "node",
  "id": 754019212,
  "lat": 52.6295061,
  "lon": -2.4924908
},
{
  "type": "node",
  "id": 278009243,
  "lat": 52.6397440,
  "lon": -2.4919818
},
{
  "type": "node",
  "id": 740166318,
  "lat": 52.6381073,
  "lon": -2.4926537
},
{
  "type": "node",
  "id": 740166319,
  "lat": 52.6392162,
  "lon": -2.4927111
},
{
  "type": "node",
  "id": 740166321,
  "lat": 52.6386974,
  "lon": -2.4927607
},
{
  "type": "node",
  "id": 740166328,
  "lat": 52.6379674,
  "lon": -2.4917973
},
{
  "type": "node",
  "id": 740166331,
  "lat": 52.6378589,
  "lon": -2.4921705
},
{
  "type": "node",
  "id": 740166332,
  "lat": 52.6385175,
  "lon": -2.4928855
},
{
  "type": "node",
  "id": 740166334,
  "lat": 52.6390298,
  "lon": -2.4927416
},
{
  "type": "node",
  "id": 740166340,
  "lat": 52.6380701,
  "lon": -2.4918424
},
{
  "type": "node",
  "id": 740166343,
  "lat": 52.6379140,
  "lon": -2.4925010
},
{
  "type": "node",
  "id": 740166346,
  "lat": 52.6379370,
  "lon": -2.4921504
},
{
  "type": "node",
  "id": 740166348,
  "lat": 52.6385966,
  "lon": -2.4926138
},
{
  "type": "node",
  "id": 740166350,
  "lat": 52.6387177,
  "lon": -2.4932747
},
{
  "type": "node",
  "id": 740166353,
  "lat": 52.6379212,
  "lon": -2.4917608
},
{
  "type": "node",
  "id": 740166354,
  "lat": 52.6391978,
  "lon": -2.4925593
},
{
  "type": "node",
  "id": 740166361,
  "lat": 52.6386807,
  "lon": -2.4923247
},
{
  "type": "node",
  "id": 740166371,
  "lat": 52.6379498,
  "lon": -2.4923779
},
{
  "type": "node",
  "id": 740166372,
  "lat": 52.6393508,
  "lon": -2.4924519
},
{
  "type": "node",
  "id": 740166375,
  "lat": 52.6387413,
  "lon": -2.4930576
},
{
  "type": "node",
  "id": 740166379,
  "lat": 52.6379549,
  "lon": -2.4916450
},
{
  "type": "node",
  "id": 740166382,
  "lat": 52.6381291,
  "lon": -2.4925787
},
{
  "type": "node",
  "id": 740166383,
  "lat": 52.6386439,
  "lon": -2.4932529
},
{
  "type": "node",
  "id": 740166388,
  "lat": 52.6378268,
  "lon": -2.4922808
},
{
  "type": "node",
  "id": 740166389,
  "lat": 52.6397901,
  "lon": -2.4925850
},
{
  "type": "node",
  "id": 740166394,
  "lat": 52.6379176,
  "lon": -2.4922169
},
{
  "type": "node",
  "id": 740166399,
  "lat": 52.6380952,
  "lon": -2.4917559
},
{
  "type": "node",
  "id": 740166400,
  "lat": 52.6393202,
  "lon": -2.4920698
},
{
  "type": "node",
  "id": 740166402,
  "lat": 52.6385652,
  "lon": -2.4927216
},
{
  "type": "node",
  "id": 740166405,
  "lat": 52.6378782,
  "lon": -2.4921040
},
{
  "type": "node",
  "id": 740166407,
  "lat": 52.6389875,
  "lon": -2.4931303
},
{
  "type": "node",
  "id": 4012876682,
  "lat": 52.6392743,
  "lon": -2.4925430
},
{
  "type": "node",
  "id": 4012876683,
  "lat": 52.6392658,
  "lon": -2.4924706
},
{
  "type": "node",
  "id": 4012940747,
  "lat": 52.6412289,
  "lon": -2.4937713
},
{
  "type": "node",
  "id": 4012940748,
  "lat": 52.6412387,
  "lon": -2.4939590
},
{
  "type": "node",
  "id": 4012940749,
  "lat": 52.6410922,
  "lon": -2.4939671
},
{
  "type": "node",
  "id": 4012940750,
  "lat": 52.6410873,
  "lon": -2.4937874
},
{
  "type": "node",
  "id": 1252615772,
  "lat": 52.6425884,
  "lon": -2.4843408
},
{
  "type": "node",
  "id": 5793895609,
  "lat": 52.6424941,
  "lon": -2.4846541
},
{
  "type": "node",
  "id": 5793895610,
  "lat": 52.6424154,
  "lon": -2.4845898
},
{
  "type": "node",
  "id": 5793895611,
  "lat": 52.6425096,
  "lon": -2.4842764
},
{
  "type": "node",
  "id": 760767742,
  "lat": 52.6189104,
  "lon": -2.4511167
},
{
  "type": "node",
  "id": 760767791,
  "lat": 52.6188825,
  "lon": -2.4511502
},
{
  "type": "node",
  "id": 760767824,
  "lat": 52.6188404,
  "lon": -2.4512009
},
{
  "type": "node",
  "id": 760767892,
  "lat": 52.6188294,
  "lon": -2.4513080
},
{
  "type": "node",
  "id": 2580203115,
  "lat": 52.6188675,
  "lon": -2.4512621
},
{
  "type": "node",
  "id": 760767747,
  "lat": 52.6186955,
  "lon": -2.4510061
},
{
  "type": "node",
  "id": 760767770,
  "lat": 52.6188037,
  "lon": -2.4508759
},
{
  "type": "node",
  "id": 2580203113,
  "lat": 52.6188410,
  "lon": -2.4509601
},
{
  "type": "node",
  "id": 347026354,
  "lat": 52.6428586,
  "lon": -2.3139024
},
{
  "type": "node",
  "id": 712338176,
  "lat": 52.6453663,
  "lon": -2.3160665
},
{
  "type": "node",
  "id": 712338181,
  "lat": 52.6451767,
  "lon": -2.3158015
},
{
  "type": "node",
  "id": 712338184,
  "lat": 52.6455383,
  "lon": -2.3151818
},
{
  "type": "node",
  "id": 712338189,
  "lat": 52.6455254,
  "lon": -2.3155484
},
{
  "type": "node",
  "id": 712338205,
  "lat": 52.6455959,
  "lon": -2.3158921
},
{
  "type": "node",
  "id": 712338212,
  "lat": 52.6452718,
  "lon": -2.3157290
},
{
  "type": "node",
  "id": 712338213,
  "lat": 52.6450961,
  "lon": -2.3155096
},
{
  "type": "node",
  "id": 712338217,
  "lat": 52.6455997,
  "lon": -2.3154728
},
{
  "type": "node",
  "id": 712351999,
  "lat": 52.6460950,
  "lon": -2.3181865
},
{
  "type": "node",
  "id": 712352004,
  "lat": 52.6454951,
  "lon": -2.3184458
},
{
  "type": "node",
  "id": 712352011,
  "lat": 52.6436462,
  "lon": -2.3144143
},
{
  "type": "node",
  "id": 712352012,
  "lat": 52.6461536,
  "lon": -2.3180539
},
{
  "type": "node",
  "id": 712352015,
  "lat": 52.6440897,
  "lon": -2.3152277
},
{
  "type": "node",
  "id": 712352016,
  "lat": 52.6458480,
  "lon": -2.3141637
},
{
  "type": "node",
  "id": 712352018,
  "lat": 52.6457365,
  "lon": -2.3182227
},
{
  "type": "node",
  "id": 712352020,
  "lat": 52.6444671,
  "lon": -2.3192944
},
{
  "type": "node",
  "id": 712352029,
  "lat": 52.6460489,
  "lon": -2.3160333
},
{
  "type": "node",
  "id": 712352031,
  "lat": 52.6440630,
  "lon": -2.3182748
},
{
  "type": "node",
  "id": 6249198970,
  "lat": 52.6454851,
  "lon": -2.3159802
},
{
  "type": "node",
  "id": 6249199999,
  "lat": 52.6455440,
  "lon": -2.3152031
},
{
  "type": "node",
  "id": 6249200023,
  "lat": 52.6432620,
  "lon": -2.3145425
},
{
  "type": "node",
  "id": 6249200024,
  "lat": 52.6434850,
  "lon": -2.3141858
},
{
  "type": "node",
  "id": 6249200025,
  "lat": 52.6439748,
  "lon": -2.3170263
},
{
  "type": "node",
  "id": 6249200026,
  "lat": 52.6437372,
  "lon": -2.3172596
},
{
  "type": "node",
  "id": 712352005,
  "lat": 52.6446661,
  "lon": -2.3122323
},
{
  "type": "node",
  "id": 712352007,
  "lat": 52.6448687,
  "lon": -2.3120610
},
{
  "type": "node",
  "id": 712352009,
  "lat": 52.6450634,
  "lon": -2.3127116
},
{
  "type": "node",
  "id": 712352010,
  "lat": 52.6445515,
  "lon": -2.3118914
},
{
  "type": "node",
  "id": 712352023,
  "lat": 52.6453670,
  "lon": -2.3124221
},
{
  "type": "node",
  "id": 712352026,
  "lat": 52.6435085,
  "lon": -2.3128925
},
{
  "type": "node",
  "id": 712352032,
  "lat": 52.6456106,
  "lon": -2.3122660
},
{
  "type": "node",
  "id": 4075881487,
  "lat": 52.5965401,
  "lon": -2.1624091
},
{
  "type": "node",
  "id": 4075881488,
  "lat": 52.5967174,
  "lon": -2.1622051
},
{
  "type": "node",
  "id": 4075881589,
  "lat": 52.5967465,
  "lon": -2.1622736
},
{
  "type": "node",
  "id": 4075881590,
  "lat": 52.5967096,
  "lon": -2.1623160
},
{
  "type": "node",
  "id": 4075881591,
  "lat": 52.5967443,
  "lon": -2.1623977
},
{
  "type": "node",
  "id": 4075881592,
  "lat": 52.5966038,
  "lon": -2.1625592
},
{
  "type": "node",
  "id": 1335742375,
  "lat": 52.5884231,
  "lon": -2.1306819
},
{
  "type": "node",
  "id": 1335742385,
  "lat": 52.5886195,
  "lon": -2.1305345
},
{
  "type": "node",
  "id": 1335742387,
  "lat": 52.5884999,
  "lon": -2.1308033
},
{
  "type": "node",
  "id": 1335742388,
  "lat": 52.5884830,
  "lon": -2.1305186
},
{
  "type": "node",
  "id": 1335742389,
  "lat": 52.5885014,
  "lon": -2.1305476
},
{
  "type": "node",
  "id": 1335742390,
  "lat": 52.5886506,
  "lon": -2.1302310
},
{
  "type": "node",
  "id": 1335742392,
  "lat": 52.5887265,
  "lon": -2.1303509
},
{
  "type": "node",
  "id": 1335742394,
  "lat": 52.5886396,
  "lon": -2.1305662
},
{
  "type": "node",
  "id": 3929131088,
  "lat": 52.5885664,
  "lon": -2.1306919
},
{
  "type": "node",
  "id": 3929131089,
  "lat": 52.5885868,
  "lon": -2.1309404
},
{
  "type": "node",
  "id": 3929131090,
  "lat": 52.5886524,
  "lon": -2.1308277
},
{
  "type": "node",
  "id": 992797188,
  "lat": 52.5868259,
  "lon": -2.1267659
},
{
  "type": "node",
  "id": 992797195,
  "lat": 52.5870611,
  "lon": -2.1269720
},
{
  "type": "node",
  "id": 992797197,
  "lat": 52.5866212,
  "lon": -2.1270493
},
{
  "type": "node",
  "id": 992797243,
  "lat": 52.5870084,
  "lon": -2.1272907
},
{
  "type": "node",
  "id": 992797250,
  "lat": 52.5867979,
  "lon": -2.1269635
},
{
  "type": "node",
  "id": 992797274,
  "lat": 52.5865967,
  "lon": -2.1269348
},
{
  "type": "node",
  "id": 992797296,
  "lat": 52.5866719,
  "lon": -2.1266656
},
{
  "type": "node",
  "id": 992797318,
  "lat": 52.5869783,
  "lon": -2.1272381
},
{
  "type": "node",
  "id": 992797321,
  "lat": 52.5870930,
  "lon": -2.1273216
},
{
  "type": "node",
  "id": 992797324,
  "lat": 52.5869407,
  "lon": -2.1270184
},
{
  "type": "node",
  "id": 2198931060,
  "lat": 52.5867089,
  "lon": -2.1266867
},
{
  "type": "node",
  "id": 2198931103,
  "lat": 52.5870336,
  "lon": -2.1269826
},
{
  "type": "node",
  "id": 2198931106,
  "lat": 52.5867726,
  "lon": -2.1267233
},
{
  "type": "node",
  "id": 540650829,
  "lat": 52.5911123,
  "lon": -2.1414627
},
{
  "type": "node",
  "id": 1686189424,
  "lat": 52.5911027,
  "lon": -2.1412667
},
{
  "type": "node",
  "id": 1686189427,
  "lat": 52.5912353,
  "lon": -2.1412675
},
{
  "type": "node",
  "id": 1686189430,
  "lat": 52.5912712,
  "lon": -2.1413464
},
{
  "type": "node",
  "id": 1686189432,
  "lat": 52.5911956,
  "lon": -2.1413215
},
{
  "type": "node",
  "id": 1686189433,
  "lat": 52.5912199,
  "lon": -2.1413602
},
{
  "type": "node",
  "id": 1686189434,
  "lat": 52.5910905,
  "lon": -2.1414278
},
{
  "type": "node",
  "id": 1686189435,
  "lat": 52.5912455,
  "lon": -2.1413817
},
{
  "type": "node",
  "id": 1686189436,
  "lat": 52.5911022,
  "lon": -2.1412599
},
{
  "type": "node",
  "id": 1686189437,
  "lat": 52.5910861,
  "lon": -2.1412334
},
{
  "type": "node",
  "id": 1686189438,
  "lat": 52.5910841,
  "lon": -2.1412367
},
{
  "type": "node",
  "id": 1686189440,
  "lat": 52.5912050,
  "lon": -2.1411737
},
{
  "type": "node",
  "id": 1686189441,
  "lat": 52.5910636,
  "lon": -2.1414735
},
{
  "type": "node",
  "id": 1686189444,
  "lat": 52.5912712,
  "lon": -2.1413711
},
{
  "type": "node",
  "id": 1686189446,
  "lat": 52.5912910,
  "lon": -2.1413629
},
{
  "type": "node",
  "id": 1686189449,
  "lat": 52.5910470,
  "lon": -2.1414469
},
{
  "type": "node",
  "id": 1686189452,
  "lat": 52.5912469,
  "lon": -2.1412205
},
{
  "type": "node",
  "id": 1686189453,
  "lat": 52.5914587,
  "lon": -2.1412723
},
{
  "type": "node",
  "id": 1686189454,
  "lat": 52.5911650,
  "lon": -2.1411564
},
{
  "type": "node",
  "id": 1686189456,
  "lat": 52.5912527,
  "lon": -2.1412606
},
{
  "type": "node",
  "id": 1686189460,
  "lat": 52.5914400,
  "lon": -2.1411442
},
{
  "type": "node",
  "id": 1686189463,
  "lat": 52.5912672,
  "lon": -2.1415241
},
{
  "type": "node",
  "id": 1686189464,
  "lat": 52.5911903,
  "lon": -2.1411980
},
{
  "type": "node",
  "id": 1686189468,
  "lat": 52.5912181,
  "lon": -2.1411953
},
{
  "type": "node",
  "id": 1686189469,
  "lat": 52.5912496,
  "lon": -2.1413819
},
{
  "type": "node",
  "id": 1686189473,
  "lat": 52.5913127,
  "lon": -2.1415053
},
{
  "type": "node",
  "id": 1686189475,
  "lat": 52.5910422,
  "lon": -2.1413687
},
{
  "type": "node",
  "id": 1686189476,
  "lat": 52.5912048,
  "lon": -2.1412172
},
{
  "type": "node",
  "id": 1686189478,
  "lat": 52.5912506,
  "lon": -2.1413362
},
{
  "type": "node",
  "id": 5277631605,
  "lat": 52.5912377,
  "lon": -2.1413300
},
{
  "type": "node",
  "id": 5277631606,
  "lat": 52.5910684,
  "lon": -2.1414108
},
{
  "type": "node",
  "id": 1407356912,
  "lat": 52.8070947,
  "lon": -2.1169328
},
{
  "type": "node",
  "id": 1407356933,
  "lat": 52.8072267,
  "lon": -2.1169631
},
{
  "type": "node",
  "id": 1407356949,
  "lat": 52.8073705,
  "lon": -2.1169962
},
{
  "type": "node",
  "id": 2270927011,
  "lat": 52.8061958,
  "lon": -2.1172153
},
{
  "type": "node",
  "id": 2270927024,
  "lat": 52.8062397,
  "lon": -2.1170165
},
{
  "type": "node",
  "id": 2270927055,
  "lat": 52.8063358,
  "lon": -2.1172998
},
{
  "type": "node",
  "id": 2270927068,
  "lat": 52.8063797,
  "lon": -2.1171010
},
{
  "type": "node",
  "id": 1407356918,
  "lat": 52.8071227,
  "lon": -2.1165987
},
{
  "type": "node",
  "id": 1407356921,
  "lat": 52.8071336,
  "lon": -2.1166013
},
{
  "type": "node",
  "id": 1407356934,
  "lat": 52.8072320,
  "lon": -2.1166238
},
{
  "type": "node",
  "id": 1407356935,
  "lat": 52.8072376,
  "lon": -2.1165571
},
{
  "type": "node",
  "id": 1407356953,
  "lat": 52.8074041,
  "lon": -2.1165954
},
{
  "type": "node",
  "id": 2136109748,
  "lat": 52.5679513,
  "lon": -2.0719675
},
{
  "type": "node",
  "id": 2136109751,
  "lat": 52.5679615,
  "lon": -2.0713625
},
{
  "type": "node",
  "id": 2136109752,
  "lat": 52.5680000,
  "lon": -2.0720251
},
{
  "type": "node",
  "id": 2136109753,
  "lat": 52.5680146,
  "lon": -2.0712407
},
{
  "type": "node",
  "id": 2136109755,
  "lat": 52.5680219,
  "lon": -2.0718057
},
{
  "type": "node",
  "id": 2136109756,
  "lat": 52.5680410,
  "lon": -2.0720735
},
{
  "type": "node",
  "id": 2136109758,
  "lat": 52.5680835,
  "lon": -2.0721238
},
{
  "type": "node",
  "id": 2136109759,
  "lat": 52.5681197,
  "lon": -2.0715816
},
{
  "type": "node",
  "id": 2136109760,
  "lat": 52.5681268,
  "lon": -2.0715899
},
{
  "type": "node",
  "id": 2136109761,
  "lat": 52.5681360,
  "lon": -2.0715687
},
{
  "type": "node",
  "id": 2136109762,
  "lat": 52.5681387,
  "lon": -2.0719592
},
{
  "type": "node",
  "id": 2136109763,
  "lat": 52.5681497,
  "lon": -2.0719722
},
{
  "type": "node",
  "id": 2136109764,
  "lat": 52.5681743,
  "lon": -2.0718776
},
{
  "type": "node",
  "id": 2136109765,
  "lat": 52.5681841,
  "lon": -2.0718892
},
{
  "type": "node",
  "id": 2136109766,
  "lat": 52.5682119,
  "lon": -2.0715284
},
{
  "type": "node",
  "id": 2136109767,
  "lat": 52.5682179,
  "lon": -2.0715720
},
{
  "type": "node",
  "id": 2136109768,
  "lat": 52.5682218,
  "lon": -2.0717544
},
{
  "type": "node",
  "id": 2136109769,
  "lat": 52.5682276,
  "lon": -2.0714923
},
{
  "type": "node",
  "id": 2136109770,
  "lat": 52.5682284,
  "lon": -2.0715479
},
{
  "type": "node",
  "id": 2136109771,
  "lat": 52.5682325,
  "lon": -2.0716266
},
{
  "type": "node",
  "id": 2136109772,
  "lat": 52.5682357,
  "lon": -2.0717709
},
{
  "type": "node",
  "id": 2136109773,
  "lat": 52.5682433,
  "lon": -2.0716020
},
{
  "type": "node",
  "id": 2136109774,
  "lat": 52.5682623,
  "lon": -2.0716617
},
{
  "type": "node",
  "id": 766434568,
  "lat": 52.5887560,
  "lon": -1.9832768
},
{
  "type": "node",
  "id": 766434573,
  "lat": 52.5889274,
  "lon": -1.9833187
},
{
  "type": "node",
  "id": 766434578,
  "lat": 52.5888892,
  "lon": -1.9833126
},
{
  "type": "node",
  "id": 766434610,
  "lat": 52.5887145,
  "lon": -1.9831337
},
{
  "type": "node",
  "id": 766434623,
  "lat": 52.5885728,
  "lon": -1.9834836
},
{
  "type": "node",
  "id": 766434625,
  "lat": 52.5889251,
  "lon": -1.9834035
},
{
  "type": "node",
  "id": 766434635,
  "lat": 52.5888075,
  "lon": -1.9832845
},
{
  "type": "node",
  "id": 766434646,
  "lat": 52.5887448,
  "lon": -1.9834228
},
{
  "type": "node",
  "id": 766434654,
  "lat": 52.5889215,
  "lon": -1.9835472
},
{
  "type": "node",
  "id": 766434658,
  "lat": 52.5886006,
  "lon": -1.9831030
},
{
  "type": "node",
  "id": 766434661,
  "lat": 52.5888864,
  "lon": -1.9834202
},
{
  "type": "node",
  "id": 766434665,
  "lat": 52.5887003,
  "lon": -1.9834171
},
{
  "type": "node",
  "id": 2631295917,
  "lat": 52.5886316,
  "lon": -1.9835204
},
{
  "type": "node",
  "id": 2631295918,
  "lat": 52.5886329,
  "lon": -1.9834921
},
{
  "type": "node",
  "id": 2631295926,
  "lat": 52.5887947,
  "lon": -1.9834670
},
{
  "type": "node",
  "id": 2631295927,
  "lat": 52.5888703,
  "lon": -1.9834768
},
{
  "type": "node",
  "id": 2631295928,
  "lat": 52.5888723,
  "lon": -1.9834178
},
{
  "type": "node",
  "id": 2631295929,
  "lat": 52.5889246,
  "lon": -1.9834243
},
{
  "type": "node",
  "id": 1046457802,
  "lat": 52.6122480,
  "lon": -1.9225659
},
{
  "type": "node",
  "id": 1046457848,
  "lat": 52.6121206,
  "lon": -1.9233541
},
{
  "type": "node",
  "id": 1046457996,
  "lat": 52.6119773,
  "lon": -1.9224472
},
{
  "type": "node",
  "id": 1046458076,
  "lat": 52.6118499,
  "lon": -1.9232354
},
{
  "type": "node",
  "id": 2141569155,
  "lat": 52.7942513,
  "lon": -2.0141499
},
{
  "type": "node",
  "id": 2141569157,
  "lat": 52.7942646,
  "lon": -2.0139239
},
{
  "type": "node",
  "id": 2141569159,
  "lat": 52.7942939,
  "lon": -2.0140931
},
{
  "type": "node",
  "id": 2141569161,
  "lat": 52.7943001,
  "lon": -2.0149142
},
{
  "type": "node",
  "id": 2141569163,
  "lat": 52.7943193,
  "lon": -2.0141279
},
{
  "type": "node",
  "id": 2141569165,
  "lat": 52.7944382,
  "lon": -2.0148859
},
{
  "type": "node",
  "id": 2141569167,
  "lat": 52.7944849,
  "lon": -2.0138194
},
{
  "type": "node",
  "id": 2141569169,
  "lat": 52.7945130,
  "lon": -2.0139772
},
{
  "type": "node",
  "id": 2300710211,
  "lat": 52.7943185,
  "lon": -2.0138983
},
{
  "type": "node",
  "id": 2300710212,
  "lat": 52.7943224,
  "lon": -2.0139206
},
{
  "type": "node",
  "id": 2300710213,
  "lat": 52.7944454,
  "lon": -2.0138381
},
{
  "type": "node",
  "id": 2300710214,
  "lat": 52.7944493,
  "lon": -2.0138604
},
{
  "type": "node",
  "id": 4823821728,
  "lat": 52.7944329,
  "lon": -2.0148114
},
{
  "type": "node",
  "id": 4823821729,
  "lat": 52.7943567,
  "lon": -2.0148288
},
{
  "type": "node",
  "id": 4823821743,
  "lat": 52.7944289,
  "lon": -2.0140135
},
{
  "type": "node",
  "id": 4823821744,
  "lat": 52.7944329,
  "lon": -2.0140289
},
{
  "type": "node",
  "id": 4823821745,
  "lat": 52.7943170,
  "lon": -2.0140821
},
{
  "type": "node",
  "id": 4823821746,
  "lat": 52.7942913,
  "lon": -2.0141356
},
{
  "type": "node",
  "id": 996186814,
  "lat": 52.7997667,
  "lon": -2.0132225
},
{
  "type": "node",
  "id": 996186815,
  "lat": 52.7996698,
  "lon": -2.0133057
},
{
  "type": "node",
  "id": 996186816,
  "lat": 52.7997106,
  "lon": -2.0134352
},
{
  "type": "node",
  "id": 996186817,
  "lat": 52.7993538,
  "lon": -2.0137457
},
{
  "type": "node",
  "id": 996186818,
  "lat": 52.7994636,
  "lon": -2.0141145
},
{
  "type": "node",
  "id": 996186830,
  "lat": 52.7997659,
  "lon": -2.0140412
},
{
  "type": "node",
  "id": 996186833,
  "lat": 52.7995304,
  "lon": -2.0140903
},
{
  "type": "node",
  "id": 996186834,
  "lat": 52.7994955,
  "lon": -2.0139576
},
{
  "type": "node",
  "id": 996186835,
  "lat": 52.7997436,
  "lon": -2.0137589
},
{
  "type": "node",
  "id": 996186839,
  "lat": 52.7997875,
  "lon": -2.0139520
},
{
  "type": "node",
  "id": 996186842,
  "lat": 52.7998132,
  "lon": -2.0137208
},
{
  "type": "node",
  "id": 996186847,
  "lat": 52.7998612,
  "lon": -2.0136717
},
{
  "type": "node",
  "id": 2029791580,
  "lat": 52.7995980,
  "lon": -2.0138755
},
{
  "type": "node",
  "id": 2029791587,
  "lat": 52.7996708,
  "lon": -2.0140446
},
{
  "type": "node",
  "id": 2029791593,
  "lat": 52.7996569,
  "lon": -2.0141504
},
{
  "type": "node",
  "id": 2029791594,
  "lat": 52.7997331,
  "lon": -2.0139767
},
{
  "type": "node",
  "id": 2029791599,
  "lat": 52.7997452,
  "lon": -2.0139550
},
{
  "type": "node",
  "id": 2029791606,
  "lat": 52.7997864,
  "lon": -2.0138251
},
{
  "type": "node",
  "id": 2029791609,
  "lat": 52.7998202,
  "lon": -2.0135308
},
{
  "type": "node",
  "id": 2029791610,
  "lat": 52.7998509,
  "lon": -2.0134851
},
{
  "type": "node",
  "id": 2141569182,
  "lat": 52.7998029,
  "lon": -2.0132535
},
{
  "type": "node",
  "id": 2141569184,
  "lat": 52.7998556,
  "lon": -2.0135011
},
{
  "type": "node",
  "id": 2141569185,
  "lat": 52.7998710,
  "lon": -2.0134677
},
{
  "type": "node",
  "id": 2142946135,
  "lat": 52.7994420,
  "lon": -2.0140420
},
{
  "type": "node",
  "id": 2142946148,
  "lat": 52.7994917,
  "lon": -2.0142086
},
{
  "type": "node",
  "id": 2142946180,
  "lat": 52.7996900,
  "lon": -2.0141335
},
{
  "type": "node",
  "id": 2142946243,
  "lat": 52.7997815,
  "lon": -2.0132716
},
{
  "type": "node",
  "id": 4823821119,
  "lat": 52.7996965,
  "lon": -2.0134475
},
{
  "type": "node",
  "id": 4215994157,
  "lat": 52.8478623,
  "lon": -2.0107531
},
{
  "type": "node",
  "id": 4215994159,
  "lat": 52.8478684,
  "lon": -2.0108536
},
{
  "type": "node",
  "id": 4215994161,
  "lat": 52.8478789,
  "lon": -2.0109050
},
{
  "type": "node",
  "id": 4215994162,
  "lat": 52.8478813,
  "lon": -2.0105643
},
{
  "type": "node",
  "id": 4215994164,
  "lat": 52.8478993,
  "lon": -2.0107633
},
{
  "type": "node",
  "id": 4215994165,
  "lat": 52.8479129,
  "lon": -2.0108287
},
{
  "type": "node",
  "id": 4215994166,
  "lat": 52.8479155,
  "lon": -2.0105738
},
{
  "type": "node",
  "id": 4215994167,
  "lat": 52.8479294,
  "lon": -2.0104466
},
{
  "type": "node",
  "id": 4215994172,
  "lat": 52.8480550,
  "lon": -2.0106753
},
{
  "type": "node",
  "id": 4215994173,
  "lat": 52.8480617,
  "lon": -2.0106019
},
{
  "type": "node",
  "id": 4215994174,
  "lat": 52.8480687,
  "lon": -2.0107416
},
{
  "type": "node",
  "id": 4215994175,
  "lat": 52.8480855,
  "lon": -2.0106072
},
{
  "type": "node",
  "id": 4215994176,
  "lat": 52.8480973,
  "lon": -2.0104918
},
{
  "type": "node",
  "id": 4215994177,
  "lat": 52.8481252,
  "lon": -2.0107101
},
{
  "type": "node",
  "id": 4215994179,
  "lat": 52.8481356,
  "lon": -2.0107615
},
{
  "type": "node",
  "id": 4833335487,
  "lat": 52.8481658,
  "lon": -2.0104004
},
{
  "type": "node",
  "id": 4833335488,
  "lat": 52.8481674,
  "lon": -2.0103428
},
{
  "type": "node",
  "id": 4833335489,
  "lat": 52.8481302,
  "lon": -2.0103334
},
{
  "type": "node",
  "id": 4833335490,
  "lat": 52.8481269,
  "lon": -2.0103964
},
{
  "type": "node",
  "id": 2992531205,
  "lat": 52.6564091,
  "lon": -1.8574074
},
{
  "type": "node",
  "id": 2992531206,
  "lat": 52.6564160,
  "lon": -1.8573106
},
{
  "type": "node",
  "id": 2992531210,
  "lat": 52.6564590,
  "lon": -1.8574171
},
{
  "type": "node",
  "id": 2992531211,
  "lat": 52.6564659,
  "lon": -1.8573203
},
{
  "type": "node",
  "id": 1591389638,
  "lat": 52.6594495,
  "lon": -1.7777104
},
{
  "type": "node",
  "id": 1591389640,
  "lat": 52.6595924,
  "lon": -1.7775315
},
{
  "type": "node",
  "id": 1591389641,
  "lat": 52.6596019,
  "lon": -1.7780412
},
{
  "type": "node",
  "id": 1591389642,
  "lat": 52.6596108,
  "lon": -1.7776658
},
{
  "type": "node",
  "id": 1591389643,
  "lat": 52.6596384,
  "lon": -1.7776313
},
{
  "type": "node",
  "id": 1591389645,
  "lat": 52.6596556,
  "lon": -1.7778845
},
{
  "type": "node",
  "id": 1591389646,
  "lat": 52.6596817,
  "lon": -1.7779413
},
{
  "type": "node",
  "id": 1591389647,
  "lat": 52.6596911,
  "lon": -1.7778401
},
{
  "type": "node",
  "id": 3406307867,
  "lat": 53.0453015,
  "lon": -2.4489735
},
{
  "type": "node",
  "id": 3406309328,
  "lat": 53.0452344,
  "lon": -2.4488507
},
{
  "type": "node",
  "id": 3406309341,
  "lat": 53.0452352,
  "lon": -2.4489747
},
{
  "type": "node",
  "id": 3406309407,
  "lat": 53.0453007,
  "lon": -2.4488495
},
{
  "type": "node",
  "id": 1844413169,
  "lat": 52.9547967,
  "lon": -2.1693909
},
{
  "type": "node",
  "id": 3980226171,
  "lat": 52.9549504,
  "lon": -2.1694693
},
{
  "type": "node",
  "id": 3980226223,
  "lat": 52.9550584,
  "lon": -2.1695209
},
{
  "type": "node",
  "id": 3980226226,
  "lat": 52.9549805,
  "lon": -2.1695056
},
{
  "type": "node",
  "id": 3980226233,
  "lat": 52.9551267,
  "lon": -2.1694436
},
{
  "type": "node",
  "id": 3980226235,
  "lat": 52.9555144,
  "lon": -2.1694955
},
{
  "type": "node",
  "id": 3980226240,
  "lat": 52.9550987,
  "lon": -2.1694907
},
{
  "type": "node",
  "id": 3980226247,
  "lat": 52.9549278,
  "lon": -2.1694148
},
{
  "type": "node",
  "id": 3980226381,
  "lat": 52.9550186,
  "lon": -2.1695246
},
{
  "type": "node",
  "id": 4178243398,
  "lat": 52.9549985,
  "lon": -2.1695146
},
{
  "type": "node",
  "id": 4178263930,
  "lat": 52.9549726,
  "lon": -2.1694961
},
{
  "type": "node",
  "id": 1844412656,
  "lat": 52.9548052,
  "lon": -2.1691155
},
{
  "type": "node",
  "id": 3980226249,
  "lat": 52.9555271,
  "lon": -2.1692232
},
{
  "type": "node",
  "id": 1548960873,
  "lat": 53.0168991,
  "lon": -2.2194849
},
{
  "type": "node",
  "id": 1548960916,
  "lat": 53.0169551,
  "lon": -2.2193678
},
{
  "type": "node",
  "id": 1548960920,
  "lat": 53.0169607,
  "lon": -2.2194761
},
{
  "type": "node",
  "id": 2368390015,
  "lat": 53.0167112,
  "lon": -2.2188098
},
{
  "type": "node",
  "id": 2368390017,
  "lat": 53.0167300,
  "lon": -2.2191691
},
{
  "type": "node",
  "id": 2368390024,
  "lat": 53.0167927,
  "lon": -2.2191600
},
{
  "type": "node",
  "id": 2368390028,
  "lat": 53.0168081,
  "lon": -2.2194558
},
{
  "type": "node",
  "id": 2368390032,
  "lat": 53.0168412,
  "lon": -2.2187910
},
{
  "type": "node",
  "id": 2368390034,
  "lat": 53.0168463,
  "lon": -2.2188887
},
{
  "type": "node",
  "id": 2368390038,
  "lat": 53.0168594,
  "lon": -2.2191422
},
{
  "type": "node",
  "id": 2368390040,
  "lat": 53.0168656,
  "lon": -2.2190375
},
{
  "type": "node",
  "id": 2368390042,
  "lat": 53.0168657,
  "lon": -2.2192637
},
{
  "type": "node",
  "id": 2368390044,
  "lat": 53.0168710,
  "lon": -2.2191405
},
{
  "type": "node",
  "id": 2368390045,
  "lat": 53.0168969,
  "lon": -2.2194430
},
{
  "type": "node",
  "id": 2368390047,
  "lat": 53.0169021,
  "lon": -2.2190915
},
{
  "type": "node",
  "id": 2368390049,
  "lat": 53.0169107,
  "lon": -2.2192572
},
{
  "type": "node",
  "id": 2368390051,
  "lat": 53.0169345,
  "lon": -2.2188760
},
{
  "type": "node",
  "id": 2368390055,
  "lat": 53.0169424,
  "lon": -2.2190265
},
{
  "type": "node",
  "id": 2368390057,
  "lat": 53.0169458,
  "lon": -2.2190852
},
{
  "type": "node",
  "id": 2368390059,
  "lat": 53.0169485,
  "lon": -2.2191356
},
{
  "type": "node",
  "id": 2368390063,
  "lat": 53.0169568,
  "lon": -2.2191344
},
{
  "type": "node",
  "id": 2368390078,
  "lat": 53.0169689,
  "lon": -2.2193658
},
{
  "type": "node",
  "id": 846330995,
  "lat": 53.0320450,
  "lon": -2.2656636
},
{
  "type": "node",
  "id": 846331017,
  "lat": 53.0326426,
  "lon": -2.2658783
},
{
  "type": "node",
  "id": 846331109,
  "lat": 53.0324376,
  "lon": -2.2658403
},
{
  "type": "node",
  "id": 846331568,
  "lat": 53.0326612,
  "lon": -2.2657310
},
{
  "type": "node",
  "id": 846331713,
  "lat": 53.0324438,
  "lon": -2.2657947
},
{
  "type": "node",
  "id": 846332873,
  "lat": 53.0320752,
  "lon": -2.2654871
},
{
  "type": "node",
  "id": 1545131314,
  "lat": 53.0324605,
  "lon": -2.2656428
},
{
  "type": "node",
  "id": 1545131315,
  "lat": 53.0324814,
  "lon": -2.2657196
},
{
  "type": "node",
  "id": 1545131337,
  "lat": 53.0322382,
  "lon": -2.2657505
},
{
  "type": "node",
  "id": 1545131361,
  "lat": 53.0322375,
  "lon": -2.2657773
},
{
  "type": "node",
  "id": 1545131364,
  "lat": 53.0322798,
  "lon": -2.2657962
},
{
  "type": "node",
  "id": 1545131366,
  "lat": 53.0324537,
  "lon": -2.2657088
},
{
  "type": "node",
  "id": 1545131395,
  "lat": 53.0324925,
  "lon": -2.2656598
},
{
  "type": "node",
  "id": 1545131399,
  "lat": 53.0322820,
  "lon": -2.2657703
},
{
  "type": "node",
  "id": 2717006232,
  "lat": 53.0407803,
  "lon": -2.2097493
},
{
  "type": "node",
  "id": 2717006237,
  "lat": 53.0407801,
  "lon": -2.2097345
},
{
  "type": "node",
  "id": 2717006244,
  "lat": 53.0407825,
  "lon": -2.2097637
},
{
  "type": "node",
  "id": 2717006250,
  "lat": 53.0407864,
  "lon": -2.2097769
},
{
  "type": "node",
  "id": 2717006256,
  "lat": 53.0407816,
  "lon": -2.2097200
},
{
  "type": "node",
  "id": 2717006263,
  "lat": 53.0407918,
  "lon": -2.2097886
},
{
  "type": "node",
  "id": 2717006269,
  "lat": 53.0407986,
  "lon": -2.2097981
},
{
  "type": "node",
  "id": 2717006276,
  "lat": 53.0407849,
  "lon": -2.2097063
},
{
  "type": "node",
  "id": 2717006282,
  "lat": 53.0408065,
  "lon": -2.2098051
},
{
  "type": "node",
  "id": 2717006295,
  "lat": 53.0407899,
  "lon": -2.2096941
},
{
  "type": "node",
  "id": 2717006304,
  "lat": 53.0408150,
  "lon": -2.2098092
},
{
  "type": "node",
  "id": 2717006310,
  "lat": 53.0407963,
  "lon": -2.2096838
},
{
  "type": "node",
  "id": 2717006311,
  "lat": 53.0408239,
  "lon": -2.2098102
},
{
  "type": "node",
  "id": 2717006318,
  "lat": 53.0408327,
  "lon": -2.2098082
},
{
  "type": "node",
  "id": 2717006324,
  "lat": 53.0408039,
  "lon": -2.2096760
},
{
  "type": "node",
  "id": 2717006330,
  "lat": 53.0408410,
  "lon": -2.2098031
},
{
  "type": "node",
  "id": 2717006336,
  "lat": 53.0408122,
  "lon": -2.2096710
},
{
  "type": "node",
  "id": 2717006342,
  "lat": 53.0408486,
  "lon": -2.2097953
},
{
  "type": "node",
  "id": 2717006349,
  "lat": 53.0408210,
  "lon": -2.2096689
},
{
  "type": "node",
  "id": 2717006355,
  "lat": 53.0408550,
  "lon": -2.2097851
},
{
  "type": "node",
  "id": 2717006361,
  "lat": 53.0408299,
  "lon": -2.2096700
},
{
  "type": "node",
  "id": 2717006367,
  "lat": 53.0408599,
  "lon": -2.2097728
},
{
  "type": "node",
  "id": 2717006373,
  "lat": 53.0408384,
  "lon": -2.2096741
},
{
  "type": "node",
  "id": 2717006380,
  "lat": 53.0408633,
  "lon": -2.2097591
},
{
  "type": "node",
  "id": 2717006387,
  "lat": 53.0408462,
  "lon": -2.2096810
},
{
  "type": "node",
  "id": 2717006393,
  "lat": 53.0408648,
  "lon": -2.2097446
},
{
  "type": "node",
  "id": 2717006400,
  "lat": 53.0408530,
  "lon": -2.2096905
},
{
  "type": "node",
  "id": 2717006407,
  "lat": 53.0408645,
  "lon": -2.2097298
},
{
  "type": "node",
  "id": 2717006412,
  "lat": 53.0408585,
  "lon": -2.2097022
},
{
  "type": "node",
  "id": 2717006416,
  "lat": 53.0408624,
  "lon": -2.2097155
},
{
  "type": "node",
  "id": 634996529,
  "lat": 53.0183630,
  "lon": -2.1918199
},
{
  "type": "node",
  "id": 634996530,
  "lat": 53.0182818,
  "lon": -2.1914760
},
{
  "type": "node",
  "id": 634996531,
  "lat": 53.0182263,
  "lon": -2.1912092
},
{
  "type": "node",
  "id": 634996533,
  "lat": 53.0182311,
  "lon": -2.1911933
},
{
  "type": "node",
  "id": 634996543,
  "lat": 53.0190202,
  "lon": -2.1914755
},
{
  "type": "node",
  "id": 634996544,
  "lat": 53.0189386,
  "lon": -2.1917555
},
{
  "type": "node",
  "id": 634996545,
  "lat": 53.0184173,
  "lon": -2.1921560
},
{
  "type": "node",
  "id": 1142753965,
  "lat": 53.0184069,
  "lon": -2.1922207
},
{
  "type": "node",
  "id": 1142754001,
  "lat": 53.0189924,
  "lon": -2.1915712
},
{
  "type": "node",
  "id": 1142754073,
  "lat": 53.0181014,
  "lon": -2.1909471
},
{
  "type": "node",
  "id": 1142754120,
  "lat": 53.0187476,
  "lon": -2.1921343
},
{
  "type": "node",
  "id": 1142754219,
  "lat": 53.0186694,
  "lon": -2.1908868
},
{
  "type": "node",
  "id": 1142754348,
  "lat": 53.0188886,
  "lon": -2.1918970
},
{
  "type": "node",
  "id": 1142754515,
  "lat": 53.0186694,
  "lon": -2.1921688
},
{
  "type": "node",
  "id": 1142754613,
  "lat": 53.0183656,
  "lon": -2.1906929
},
{
  "type": "node",
  "id": 1142754754,
  "lat": 53.0185932,
  "lon": -2.1921988
},
{
  "type": "node",
  "id": 1142754890,
  "lat": 53.0182391,
  "lon": -2.1909327
},
{
  "type": "node",
  "id": 1142755113,
  "lat": 53.0188195,
  "lon": -2.1920675
},
{
  "type": "node",
  "id": 2507232925,
  "lat": 53.0184037,
  "lon": -2.1921685
},
{
  "type": "node",
  "id": 2625840351,
  "lat": 53.0189643,
  "lon": -2.1916676
},
{
  "type": "node",
  "id": 2717006176,
  "lat": 53.0187167,
  "lon": -2.1921509
},
{
  "type": "node",
  "id": 2717006189,
  "lat": 53.0187884,
  "lon": -2.1921061
},
{
  "type": "node",
  "id": 1274994277,
  "lat": 52.9866668,
  "lon": -2.1322158
},
{
  "type": "node",
  "id": 1274994278,
  "lat": 52.9867521,
  "lon": -2.1321617
},
{
  "type": "node",
  "id": 1274994390,
  "lat": 52.9867889,
  "lon": -2.1312512
},
{
  "type": "node",
  "id": 1274994433,
  "lat": 52.9869094,
  "lon": -2.1315055
},
{
  "type": "node",
  "id": 3425368611,
  "lat": 52.9864918,
  "lon": -2.1306294
},
{
  "type": "node",
  "id": 3425368654,
  "lat": 52.9860784,
  "lon": -2.1310156
},
{
  "type": "node",
  "id": 3425368684,
  "lat": 52.9861511,
  "lon": -2.1310741
},
{
  "type": "node",
  "id": 3425368797,
  "lat": 52.9861156,
  "lon": -2.1310151
},
{
  "type": "node",
  "id": 4742463030,
  "lat": 52.9863625,
  "lon": -2.1321844
},
{
  "type": "node",
  "id": 4742463033,
  "lat": 52.9865708,
  "lon": -2.1321871
},
{
  "type": "node",
  "id": 4742463034,
  "lat": 52.9868856,
  "lon": -2.1320610
},
{
  "type": "node",
  "id": 4742463039,
  "lat": 52.9865724,
  "lon": -2.1307897
},
{
  "type": "node",
  "id": 4742463040,
  "lat": 52.9866014,
  "lon": -2.1308567
},
{
  "type": "node",
  "id": 4742463041,
  "lat": 52.9866531,
  "lon": -2.1309613
},
{
  "type": "node",
  "id": 5528284345,
  "lat": 52.9857490,
  "lon": -2.1315445
},
{
  "type": "node",
  "id": 5528284346,
  "lat": 52.9870714,
  "lon": -2.1318949
},
{
  "type": "node",
  "id": 5528284347,
  "lat": 52.9861058,
  "lon": -2.1321336
},
{
  "type": "node",
  "id": 5528284348,
  "lat": 52.9863641,
  "lon": -2.1322329
},
{
  "type": "node",
  "id": 5528284349,
  "lat": 52.9870714,
  "lon": -2.1318735
},
{
  "type": "node",
  "id": 5528284350,
  "lat": 52.9861413,
  "lon": -2.1322034
},
{
  "type": "node",
  "id": 5528284351,
  "lat": 52.9860977,
  "lon": -2.1319968
},
{
  "type": "node",
  "id": 5528284352,
  "lat": 52.9859685,
  "lon": -2.1319700
},
{
  "type": "node",
  "id": 5528284353,
  "lat": 52.9861187,
  "lon": -2.1321819
},
{
  "type": "node",
  "id": 748065115,
  "lat": 53.0225802,
  "lon": -2.1782733
},
{
  "type": "node",
  "id": 748065118,
  "lat": 53.0228350,
  "lon": -2.1775119
},
{
  "type": "node",
  "id": 748065120,
  "lat": 53.0232897,
  "lon": -2.1779324
},
{
  "type": "node",
  "id": 748065125,
  "lat": 53.0230350,
  "lon": -2.1786939
},
{
  "type": "node",
  "id": 1640201427,
  "lat": 53.0231320,
  "lon": -2.1777866
},
{
  "type": "node",
  "id": 2610304754,
  "lat": 53.0292616,
  "lon": -2.1802203
},
{
  "type": "node",
  "id": 2610304766,
  "lat": 53.0292906,
  "lon": -2.1801854
},
{
  "type": "node",
  "id": 2610304772,
  "lat": 53.0292378,
  "lon": -2.1790960
},
{
  "type": "node",
  "id": 2610304778,
  "lat": 53.0289358,
  "lon": -2.1801183
},
{
  "type": "node",
  "id": 2610304786,
  "lat": 53.0293438,
  "lon": -2.1792466
},
{
  "type": "node",
  "id": 2610304792,
  "lat": 53.0291503,
  "lon": -2.1792734
},
{
  "type": "node",
  "id": 2610304795,
  "lat": 53.0289471,
  "lon": -2.1790186
},
{
  "type": "node",
  "id": 6855849442,
  "lat": 53.0289374,
  "lon": -2.1799592
},
{
  "type": "node",
  "id": 1966220843,
  "lat": 53.0549357,
  "lon": -2.1694379
},
{
  "type": "node",
  "id": 1966220852,
  "lat": 53.0548708,
  "lon": -2.1693305
},
{
  "type": "node",
  "id": 1966220859,
  "lat": 53.0548552,
  "lon": -2.1693212
},
{
  "type": "node",
  "id": 1966220864,
  "lat": 53.0549717,
  "lon": -2.1692847
},
{
  "type": "node",
  "id": 1966220867,
  "lat": 53.0549552,
  "lon": -2.1693613
},
{
  "type": "node",
  "id": 1966220868,
  "lat": 53.0549096,
  "lon": -2.1696210
},
{
  "type": "node",
  "id": 1966220870,
  "lat": 53.0548364,
  "lon": -2.1695774
},
{
  "type": "node",
  "id": 1966220880,
  "lat": 53.0549196,
  "lon": -2.1694284
},
{
  "type": "node",
  "id": 1966220896,
  "lat": 53.0549365,
  "lon": -2.1693501
},
{
  "type": "node",
  "id": 1966220897,
  "lat": 53.0548499,
  "lon": -2.1693732
},
{
  "type": "node",
  "id": 1966220899,
  "lat": 53.0548192,
  "lon": -2.1695160
},
{
  "type": "node",
  "id": 1966220919,
  "lat": 53.0549102,
  "lon": -2.1695563
},
{
  "type": "node",
  "id": 1966220922,
  "lat": 53.0549220,
  "lon": -2.1695634
},
{
  "type": "node",
  "id": 1966220926,
  "lat": 53.0548462,
  "lon": -2.1695321
},
{
  "type": "node",
  "id": 1966220932,
  "lat": 53.0548603,
  "lon": -2.1693794
},
{
  "type": "node",
  "id": 1966220882,
  "lat": 53.0548754,
  "lon": -2.1692273
},
{
  "type": "node",
  "id": 1057707098,
  "lat": 53.0945211,
  "lon": -2.4393843
},
{
  "type": "node",
  "id": 1057707209,
  "lat": 53.0945451,
  "lon": -2.4390612
},
{
  "type": "node",
  "id": 1057707396,
  "lat": 53.0942795,
  "lon": -2.4386086
},
{
  "type": "node",
  "id": 1057707454,
  "lat": 53.0943760,
  "lon": -2.4394300
},
{
  "type": "node",
  "id": 1057707759,
  "lat": 53.0942444,
  "lon": -2.4393977
},
{
  "type": "node",
  "id": 1560875086,
  "lat": 53.0943596,
  "lon": -2.4387581
},
{
  "type": "node",
  "id": 1560875209,
  "lat": 53.0940636,
  "lon": -2.4384628
},
{
  "type": "node",
  "id": 1560875628,
  "lat": 53.0942952,
  "lon": -2.4386379
},
{
  "type": "node",
  "id": 1560875838,
  "lat": 53.0942305,
  "lon": -2.4383599
},
{
  "type": "node",
  "id": 1011401054,
  "lat": 53.0923842,
  "lon": -2.4347447
},
{
  "type": "node",
  "id": 1011401057,
  "lat": 53.0937504,
  "lon": -2.4373173
},
{
  "type": "node",
  "id": 1011401066,
  "lat": 53.0939508,
  "lon": -2.4368632
},
{
  "type": "node",
  "id": 1011401068,
  "lat": 53.0937203,
  "lon": -2.4354046
},
{
  "type": "node",
  "id": 1011401105,
  "lat": 53.0932204,
  "lon": -2.4359336
},
{
  "type": "node",
  "id": 1011401123,
  "lat": 53.0923705,
  "lon": -2.4348738
},
{
  "type": "node",
  "id": 1057707281,
  "lat": 53.0929426,
  "lon": -2.4354724
},
{
  "type": "node",
  "id": 1560875062,
  "lat": 53.0936273,
  "lon": -2.4370071
},
{
  "type": "node",
  "id": 1560875220,
  "lat": 53.0927498,
  "lon": -2.4352334
},
{
  "type": "node",
  "id": 1560875322,
  "lat": 53.0934818,
  "lon": -2.4365257
},
{
  "type": "node",
  "id": 1560875332,
  "lat": 53.0935650,
  "lon": -2.4367087
},
{
  "type": "node",
  "id": 1560875337,
  "lat": 53.0928467,
  "lon": -2.4353426
},
{
  "type": "node",
  "id": 1560875458,
  "lat": 53.0935540,
  "lon": -2.4353249
},
{
  "type": "node",
  "id": 1560875488,
  "lat": 53.0936040,
  "lon": -2.4369416
},
{
  "type": "node",
  "id": 1560875577,
  "lat": 53.0933562,
  "lon": -2.4362050
},
{
  "type": "node",
  "id": 1560875600,
  "lat": 53.0930512,
  "lon": -2.4356443
},
{
  "type": "node",
  "id": 1560875651,
  "lat": 53.0936483,
  "lon": -2.4368317
},
{
  "type": "node",
  "id": 1560875731,
  "lat": 53.0936677,
  "lon": -2.4368863
},
{
  "type": "node",
  "id": 1560875769,
  "lat": 53.0939081,
  "lon": -2.4378463
},
{
  "type": "node",
  "id": 1011401032,
  "lat": 53.0942943,
  "lon": -2.4360096
},
{
  "type": "node",
  "id": 1011401099,
  "lat": 53.0940655,
  "lon": -2.4375213
},
{
  "type": "node",
  "id": 1011401104,
  "lat": 53.0953952,
  "lon": -2.4365756
},
{
  "type": "node",
  "id": 1011401118,
  "lat": 53.0952909,
  "lon": -2.4364798
},
{
  "type": "node",
  "id": 1057707021,
  "lat": 53.0940309,
  "lon": -2.4355608
},
{
  "type": "node",
  "id": 1057707308,
  "lat": 53.0959005,
  "lon": -2.4366410
},
{
  "type": "node",
  "id": 1057707572,
  "lat": 53.0945937,
  "lon": -2.4358872
},
{
  "type": "node",
  "id": 1057707777,
  "lat": 53.0942956,
  "lon": -2.4357083
},
{
  "type": "node",
  "id": 1560875136,
  "lat": 53.0950259,
  "lon": -2.4362894
},
{
  "type": "node",
  "id": 1560875161,
  "lat": 53.0948369,
  "lon": -2.4361546
},
{
  "type": "node",
  "id": 1560875234,
  "lat": 53.0946716,
  "lon": -2.4360775
},
{
  "type": "node",
  "id": 1560875389,
  "lat": 53.0955062,
  "lon": -2.4365805
},
{
  "type": "node",
  "id": 1560875450,
  "lat": 53.0955999,
  "lon": -2.4366170
},
{
  "type": "node",
  "id": 1560875518,
  "lat": 53.0957472,
  "lon": -2.4365469
},
{
  "type": "node",
  "id": 1560875523,
  "lat": 53.0944397,
  "lon": -2.4357865
},
{
  "type": "node",
  "id": 1560875548,
  "lat": 53.0958748,
  "lon": -2.4367561
},
{
  "type": "node",
  "id": 1560875583,
  "lat": 53.0947328,
  "lon": -2.4360909
},
{
  "type": "node",
  "id": 1560875614,
  "lat": 53.0955456,
  "lon": -2.4365878
},
{
  "type": "node",
  "id": 1560875869,
  "lat": 53.0943642,
  "lon": -2.4359581
},
{
  "type": "node",
  "id": 6611066239,
  "lat": 53.0945298,
  "lon": -2.4360332
},
{
  "type": "node",
  "id": 2469516781,
  "lat": 53.1096003,
  "lon": -2.0354714
},
{
  "type": "node",
  "id": 2469516840,
  "lat": 53.1095825,
  "lon": -2.0353710
},
{
  "type": "node",
  "id": 2469516874,
  "lat": 53.1096636,
  "lon": -2.0353310
},
{
  "type": "node",
  "id": 2469516878,
  "lat": 53.1096815,
  "lon": -2.0354314
}

  ]
}
