{
  "version": 0.6,
  "generator": "Overpass API 0.7.55.1011 6c2efc30",
  "osm3s": {
    "timestamp_osm_base": "2020-02-14T17:03:02Z",
    "copyright": "The data included in this document is from www.openstreetmap.org. The data is made available under ODbL."
  },
  "elements": [

{
  "type": "node",
  "id": 944361548,
  "lat": 48.4630346,
  "lon": 35.0447333,
  "tags": {
    "name": "Музей українського живопису",
    "name:ru": "Музей украинской живописи",
    "name:uk": "Музей українського живопису",
    "tourism": "museum"
  }
},
{
  "type": "node",
  "id": 2149654886,
  "lat": 48.4637096,
  "lon": 35.0536012,
  "tags": {
    "name": "Пам'ять єврейського народу і Холокост в Україні",
    "name:ru": "Память еврейского народа и Холокост в Украине",
    "name:uk": "Пам'ять єврейського народу і Холокост в Україні",
    "tourism": "museum"
  }
},
{
  "type": "node",
  "id": 3445108254,
  "lat": 48.4657373,
  "lon": 35.0287058,
  "tags": {
    "addr:housenumber": "2в",
    "addr:street": "Олександра Поля проспект",
    "name": "Парк ракет",
    "name:en": "Rocket Park",
    "name:pl": "Park rakiet",
    "name:ru": "Парк ракет",
    "name:uk": "Парк ракет",
    "tourism": "museum",
    "wikidata": "Q25445435",
    "wikipedia": "uk:Парк ракет (Дніпро)"
  }
},
{
  "type": "node",
  "id": 3528411133,
  "lat": 48.4069957,
  "lon": 35.0848176,
  "tags": {
    "name": "Лоцманів",
    "name:ru": "Лоцманов",
    "name:uk": "Лоцманів",
    "official_name": "Історії лоцманів дніпровських порогів",
    "tourism": "museum"
  }
},
{
  "type": "node",
  "id": 4946700774,
  "lat": 48.4563973,
  "lon": 35.0635733,
  "tags": {
    "name": "Експозиція «Шляхами Донбасу» (Музей АТО)",
    "name:ru": "Экспозиция «Путями Донбасса» (Музей АТО)",
    "tourism": "museum"
  }
},
{
  "type": "node",
  "id": 5003717021,
  "lat": 48.4469969,
  "lon": 35.0702235,
  "tags": {
    "addr:housenumber": "44",
    "addr:street": "Мандриківська вулиця",
    "email": "Proretro@i.ua",
    "fax": "+380 56 372 55 86",
    "name": "Машини часу",
    "opening_hours": "Mo-Fr 10:00-18:00; Sa,Su 10:00-20:00",
    "phone": "+380 92 101 05 85",
    "tourism": "museum",
    "website": "http://mvr.dp.ua/"
  }
},
{
  "type": "node",
  "id": 7057240249,
  "lat": 48.4445661,
  "lon": 35.0506922,
  "tags": {
    "addr:housenumber": "26",
    "addr:street": "Гагаріна проспект",
    "name": "Аерокосмічний музей О.М.Макарова",
    "phone": "+38(056) 713-57-56;+38(056) 713-58-64",
    "tourism": "museum",
    "website": "http://www.unaec.dp.ua/"
  }
},
{
  "type": "node",
  "id": 7057240261,
  "lat": 48.4562179,
  "lon": 35.0642801,
  "tags": {
    "building:levels": "3",
    "building:part": "yes",
    "name": "Діорама «Битва за Дніпро»",
    "name:ru": "Диорама «Битва за Днепр»",
    "tourism": "museum"
  }
},
{
  "type": "node",
  "id": 7057240262,
  "lat": 48.4558471,
  "lon": 35.0638694,
  "tags": {
    "building:levels": "1",
    "building:part": "yes",
    "name": "Історичний музей ім. Яворницького",
    "name:en": "Historical museum named after Yavornytsky",
    "name:ru": "Исторический музей им. Яворницкого",
    "name:uk": "Історичний музей ім. Яворницького",
    "tourism": "museum",
    "wikidata": "Q4163238",
    "wikipedia": "uk:Дніпропетровський національний історичний музей імені Дмитра Яворницького"
  }
},
{
  "type": "way",
  "id": 41972065,
  "nodes": [
    520188542,
    3160947534,
    3160947536,
    3160947535,
    3160947533,
    520188548,
    3160947528,
    3160947527,
    3160947525,
    3160947526,
    520188550,
    3160947523,
    3160947521,
    3160947522,
    3160947524,
    520188552,
    3160947530,
    3160947529,
    3160947531,
    3160947532,
    520188542
  ],
  "tags": {
    "addr:housenumber": "39",
    "addr:street": "Свободи проспект",
    "building": "yes",
    "name": "музей истории города",
    "phone": "+380564-92-3-11-10",
    "roof:colour": "DimGray",
    "roof:material": "tar_paper",
    "roof:shape": "flat",
    "tourism": "museum",
    "website": "https://mamayfest.at.ua/"
  }
},
{
  "type": "way",
  "id": 48459187,
  "nodes": [
    615684934,
    615685027,
    615685410,
    615685033,
    3169028769,
    615685042,
    615684934
  ],
  "tags": {
    "addr:housenumber": "21",
    "addr:street": "Шевченка вулиця",
    "building": "public",
    "building:levels": "3",
    "email": "artmuseum@ua.fm",
    "name": "Художній музей",
    "name:ru": "Художественный музей",
    "name:uk": "Художній музей",
    "opening_hours": "We-Su 10:00-17:30",
    "phone": "+380562-746-26-80",
    "tourism": "museum",
    "website": "http://artmuseum.dp.ua"
  }
},
{
  "type": "way",
  "id": 90453532,
  "nodes": [
    1049457773,
    1049459110,
    1049457149,
    1049458289,
    1049457841,
    1049458587,
    1049457773
  ],
  "tags": {
    "addr:housenumber": "5",
    "building": "yes",
    "building:levels": "2",
    "name": "Дом музей Д. Яворницького",
    "name:pl": "Muzeum Dymitra Iwanowicza Jawornickiego",
    "name:ru": "Дом музей Д. Яворницкого",
    "tourism": "museum"
  }
},
{
  "type": "way",
  "id": 148746474,
  "nodes": [
    939431959,
    1618135039,
    1618135037,
    1618135036,
    939431959
  ],
  "tags": {
    "addr:housenumber": "64",
    "building": "yes",
    "building:levels": "2",
    "name": "Літературне Придніпров’я",
    "name:ru": "Музей «Литературное Приднепровье»",
    "tourism": "museum",
    "wikidata": "Q4306078",
    "wikipedia": "ru:Музей «Литературное Приднепровье»"
  }
},
{
  "type": "way",
  "id": 205901333,
  "nodes": [
    2159136055,
    2159136057,
    2159136054,
    2159136052,
    2159136055
  ],
  "tags": {
    "building": "yes",
    "name": "Історико-краєзнавчий музей імені Калнишевського",
    "name:ru": "Историко-краеведческий музей имени Калнышевского",
    "tourism": "museum"
  }
},
{
  "type": "way",
  "id": 233127495,
  "nodes": [
    2414621531,
    2414621533,
    2414621526,
    2414621522,
    2414621527,
    2414621523,
    2414621524,
    2414621529,
    2414621531
  ],
  "tags": {
    "addr:housenumber": "11",
    "building": "yes",
    "building:levels": "2",
    "historical_name": "Дом Фадеевых",
    "name": "Музейний центр К.П.Блаватської",
    "name:ru": "Музейный центр Е. П. Блаватской и её семьи",
    "tourism": "museum",
    "website": "http://museum-blavatsky.com.ua",
    "wikidata": "Q28706217",
    "wikipedia": "ru:Музейный центр Е. П. Блаватской и её семьи"
  }
},
{
  "type": "way",
  "id": 419177081,
  "nodes": [
    4193058190,
    4193058191,
    4193058192,
    4193058193,
    4193058190
  ],
  "tags": {
    "addr:housenumber": "74А",
    "addr:postcode": "51263",
    "addr:street": "Козинця вулиця",
    "building": "yes",
    "tourism": "museum"
  }
},
{
  "type": "way",
  "id": 439150378,
  "nodes": [
    4367776756,
    6049990730,
    4367776770,
    4367776771,
    4369750852,
    6049990729,
    4367776766,
    4367776760,
    4367776759,
    4367776756
  ],
  "tags": {
    "addr:housenumber": "20",
    "addr:street": "Гагаріна вулиця",
    "building": "yes",
    "name": "Садиба братів Бергманів",
    "name:en": "Homestead brothers Bergmanov",
    "official_name": "Охор. №265 Головний будинок садимби братів Бергманів",
    "operator": "Усадьба братьев Бергманов",
    "tourism": "museum"
  }
},
{
  "type": "node",
  "id": 4367776756,
  "lat": 48.2088498,
  "lon": 34.8772755
},
{
  "type": "node",
  "id": 4367776759,
  "lat": 48.2088749,
  "lon": 34.8774820
},
{
  "type": "node",
  "id": 4367776760,
  "lat": 48.2088981,
  "lon": 34.8776644
},
{
  "type": "node",
  "id": 4367776766,
  "lat": 48.2089964,
  "lon": 34.8776376
},
{
  "type": "node",
  "id": 4367776770,
  "lat": 48.2091092,
  "lon": 34.8772047
},
{
  "type": "node",
  "id": 4367776771,
  "lat": 48.2091342,
  "lon": 34.8774112
},
{
  "type": "node",
  "id": 4369750852,
  "lat": 48.2089742,
  "lon": 34.8774549
},
{
  "type": "node",
  "id": 6049990729,
  "lat": 48.2089851,
  "lon": 34.8775447
},
{
  "type": "node",
  "id": 6049990730,
  "lat": 48.2089795,
  "lon": 34.8772401
},
{
  "type": "node",
  "id": 520188548,
  "lat": 48.5195273,
  "lon": 34.6160267
},
{
  "type": "node",
  "id": 520188550,
  "lat": 48.5191554,
  "lon": 34.6159150
},
{
  "type": "node",
  "id": 520188552,
  "lat": 48.5192310,
  "lon": 34.6153416
},
{
  "type": "node",
  "id": 3160947521,
  "lat": 48.5190928,
  "lon": 34.6157107
},
{
  "type": "node",
  "id": 3160947522,
  "lat": 48.5190986,
  "lon": 34.6156670
},
{
  "type": "node",
  "id": 3160947523,
  "lat": 48.5191789,
  "lon": 34.6157366
},
{
  "type": "node",
  "id": 3160947524,
  "lat": 48.5191847,
  "lon": 34.6156928
},
{
  "type": "node",
  "id": 3160947525,
  "lat": 48.5191963,
  "lon": 34.6160125
},
{
  "type": "node",
  "id": 3160947526,
  "lat": 48.5192071,
  "lon": 34.6159305
},
{
  "type": "node",
  "id": 3160947527,
  "lat": 48.5192768,
  "lon": 34.6160367
},
{
  "type": "node",
  "id": 3160947528,
  "lat": 48.5192876,
  "lon": 34.6159547
},
{
  "type": "node",
  "id": 3160947529,
  "lat": 48.5194536,
  "lon": 34.6154439
},
{
  "type": "node",
  "id": 3160947530,
  "lat": 48.5194581,
  "lon": 34.6154099
},
{
  "type": "node",
  "id": 3160947531,
  "lat": 48.5195315,
  "lon": 34.6154673
},
{
  "type": "node",
  "id": 3160947532,
  "lat": 48.5195360,
  "lon": 34.6154333
},
{
  "type": "node",
  "id": 3160947533,
  "lat": 48.5195494,
  "lon": 34.6158592
},
{
  "type": "node",
  "id": 3160947534,
  "lat": 48.5195834,
  "lon": 34.6156007
},
{
  "type": "node",
  "id": 3160947535,
  "lat": 48.5195874,
  "lon": 34.6158707
},
{
  "type": "node",
  "id": 520188542,
  "lat": 48.5196029,
  "lon": 34.6154534
},
{
  "type": "node",
  "id": 3160947536,
  "lat": 48.5196215,
  "lon": 34.6156122
},
{
  "type": "node",
  "id": 615684934,
  "lat": 48.4569763,
  "lon": 35.0551341
},
{
  "type": "node",
  "id": 615685027,
  "lat": 48.4571914,
  "lon": 35.0547413
},
{
  "type": "node",
  "id": 615685033,
  "lat": 48.4573404,
  "lon": 35.0549268
},
{
  "type": "node",
  "id": 615685410,
  "lat": 48.4572242,
  "lon": 35.0547820
},
{
  "type": "node",
  "id": 3169028769,
  "lat": 48.4572312,
  "lon": 35.0551263
},
{
  "type": "node",
  "id": 615685042,
  "lat": 48.4571253,
  "lon": 35.0553197
},
{
  "type": "node",
  "id": 1049457149,
  "lat": 48.4603853,
  "lon": 35.0686339
},
{
  "type": "node",
  "id": 1049457841,
  "lat": 48.4604426,
  "lon": 35.0684018
},
{
  "type": "node",
  "id": 1049458289,
  "lat": 48.4604840,
  "lon": 35.0684531
},
{
  "type": "node",
  "id": 1049458587,
  "lat": 48.4604805,
  "lon": 35.0683324
},
{
  "type": "node",
  "id": 1049459110,
  "lat": 48.4604843,
  "lon": 35.0687567
},
{
  "type": "node",
  "id": 939431959,
  "lat": 48.4681802,
  "lon": 35.0400390
},
{
  "type": "node",
  "id": 1618135036,
  "lat": 48.4680636,
  "lon": 35.0402581
},
{
  "type": "node",
  "id": 1618135037,
  "lat": 48.4681916,
  "lon": 35.0404132
},
{
  "type": "node",
  "id": 1618135039,
  "lat": 48.4683083,
  "lon": 35.0401941
},
{
  "type": "node",
  "id": 2414621522,
  "lat": 48.4731792,
  "lon": 35.0364629
},
{
  "type": "node",
  "id": 2414621523,
  "lat": 48.4731892,
  "lon": 35.0362546
},
{
  "type": "node",
  "id": 2414621524,
  "lat": 48.4732186,
  "lon": 35.0361851
},
{
  "type": "node",
  "id": 2414621526,
  "lat": 48.4732339,
  "lon": 35.0365156
},
{
  "type": "node",
  "id": 2414621527,
  "lat": 48.4732448,
  "lon": 35.0363082
},
{
  "type": "node",
  "id": 2414621529,
  "lat": 48.4732656,
  "lon": 35.0362304
},
{
  "type": "node",
  "id": 2414621531,
  "lat": 48.4732811,
  "lon": 35.0361939
},
{
  "type": "node",
  "id": 2414621533,
  "lat": 48.4733443,
  "lon": 35.0362549
},
{
  "type": "node",
  "id": 1049457773,
  "lat": 48.4606208,
  "lon": 35.0685065
},
{
  "type": "node",
  "id": 4193058190,
  "lat": 48.6634272,
  "lon": 35.0535139
},
{
  "type": "node",
  "id": 4193058191,
  "lat": 48.6635832,
  "lon": 35.0536755
},
{
  "type": "node",
  "id": 4193058192,
  "lat": 48.6636567,
  "lon": 35.0535128
},
{
  "type": "node",
  "id": 4193058193,
  "lat": 48.6635007,
  "lon": 35.0533513
},
{
  "type": "node",
  "id": 2159136052,
  "lat": 48.6319462,
  "lon": 35.2600372
},
{
  "type": "node",
  "id": 2159136054,
  "lat": 48.6319487,
  "lon": 35.2602525
},
{
  "type": "node",
  "id": 2159136055,
  "lat": 48.6321196,
  "lon": 35.2600326
},
{
  "type": "node",
  "id": 2159136057,
  "lat": 48.6321220,
  "lon": 35.2602479
}

  ]
}
