{
  "version": 0.6,
  "generator": "Overpass API 0.7.55.9 ab41fea6",
  "osm3s": {
    "timestamp_osm_base": "2020-02-14T09:57:01Z",
    "copyright": "The data included in this document is from www.openstreetmap.org. The data is made available under ODbL."
  },
  "elements": [

{
  "type": "node",
  "id": 20834051,
  "lat": 52.6594502,
  "lon": -1.1250805,
  "tags": {
    "name": "Belgrave Hall Museum",
    "tourism": "museum",
    "wikidata": "Q4882681"
  }
},
{
  "type": "node",
  "id": 256506319,
  "lat": 52.7997811,
  "lon": -1.4559112,
  "tags": {
    "addr:postcode": "DE73 7JF",
    "name": "Calke Abbey",
    "operator": "National Trust",
    "tourism": "museum",
    "website": "https://www.nationaltrust.org.uk/calke-abbey"
  }
},
{
  "type": "node",
  "id": 299497023,
  "lat": 52.9229582,
  "lon": -1.4800783,
  "tags": {
    "addr:city": "Derby",
    "addr:postcode": "DE1 1BS",
    "addr:street": "The Strand",
    "fee": "no",
    "name": "Derby Museum and Art Gallery",
    "operator": "Derby Museums",
    "tourism": "museum"
  }
},
{
  "type": "node",
  "id": 300732443,
  "lat": 53.1459844,
  "lon": -1.1944258,
  "tags": {
    "name": "Mansfield Museum",
    "tourism": "museum",
    "wikidata": "Q6751664",
    "wikipedia": "en:Mansfield Museum"
  }
},
{
  "type": "node",
  "id": 308265028,
  "lat": 52.9248586,
  "lon": -1.4869187,
  "tags": {
    "name": "Derby Gaol",
    "tourism": "museum",
    "wikidata": "Q5261464",
    "wikipedia": "en:Derby Gaol"
  }
},
{
  "type": "node",
  "id": 346226619,
  "lat": 52.9480997,
  "lon": -1.2119957,
  "tags": {
    "description": "Now reopened, run by volunteers",
    "name": "Nottingham Industrial Museum",
    "source": "Yahoo",
    "tourism": "museum",
    "website": "https://www.nottinghamindustrialmuseum.co.uk/",
    "wikidata": "Q17015910",
    "wikipedia": "en:Nottingham Industrial Museum"
  }
},
{
  "type": "node",
  "id": 415792073,
  "lat": 53.1125425,
  "lon": -1.5618090,
  "tags": {
    "name": "Masson Mills Working Textile Museum",
    "toilets:wheelchair": "yes",
    "tourism": "museum",
    "website": "https://www.massonmills.co.uk/Working-Textile-Museum.html",
    "wheelchair": "yes"
  }
},
{
  "type": "node",
  "id": 475207284,
  "lat": 53.1092537,
  "lon": -1.5552505,
  "tags": {
    "name": "Cromford Mill Museum",
    "tourism": "museum"
  }
},
{
  "type": "node",
  "id": 491558613,
  "lat": 53.0818644,
  "lon": -0.9041975,
  "tags": {
    "addr:city": "Upton",
    "addr:housename": "Upton Hall",
    "addr:postcode": "NG23 5TE",
    "addr:street": "Main Street",
    "name": "Museum of Timekeeping",
    "opening_hours": "Fr 11:00-15:00",
    "operator": "British Horological Institute",
    "phone": "+44 1636 817601",
    "tourism": "museum",
    "website": "museumoftimekeeping.org.uk"
  }
},
{
  "type": "node",
  "id": 724189910,
  "lat": 53.2634337,
  "lon": -1.1932800,
  "tags": {
    "fee": "yes",
    "source": "survey",
    "tourism": "museum"
  }
},
{
  "type": "node",
  "id": 773712764,
  "lat": 52.7646417,
  "lon": -0.8808856,
  "tags": {
    "addr:postcode": "LE13 1RB",
    "addr:street": "Thorpe End",
    "name": "Melton Carnegie Museum",
    "tourism": "museum",
    "website": "http://www.leics.gov.uk/meltonmuseum",
    "wheelchair": "yes",
    "wikidata": "Q6813780"
  }
},
{
  "type": "node",
  "id": 814709194,
  "lat": 53.0765219,
  "lon": -0.8062279,
  "tags": {
    "name": "National Civil War Centre",
    "tourism": "museum"
  }
},
{
  "type": "node",
  "id": 986706944,
  "lat": 52.7325456,
  "lon": -1.1466070,
  "tags": {
    "tourism": "museum"
  }
},
{
  "type": "node",
  "id": 1007027165,
  "lat": 53.0288521,
  "lon": -1.4864559,
  "tags": {
    "addr:city": "Belper",
    "addr:postcode": "DE56 1YD",
    "addr:street": "Bridge Foot",
    "alt_name": "Derwent Valley Visitor Centre",
    "name": "Strutt's North Mill",
    "note": "Occupies a small part of the North Mill building",
    "tourism": "museum"
  }
},
{
  "type": "node",
  "id": 1265549478,
  "lat": 53.2339699,
  "lon": -1.2053226,
  "tags": {
    "source": "OS OpenData StreetView",
    "tourism": "museum"
  }
},
{
  "type": "node",
  "id": 1465522045,
  "lat": 52.7705794,
  "lon": -1.2105233,
  "tags": {
    "name": "Charnwood Museum",
    "tourism": "museum",
    "wheelchair": "yes",
    "wikidata": "Q5086581"
  }
},
{
  "type": "node",
  "id": 2211432849,
  "lat": 53.0074068,
  "lon": -0.8982388,
  "tags": {
    "name": "Flintham Museum",
    "source": "survey",
    "tourism": "museum",
    "website": "http://www.flintham-museum.org.uk/"
  }
},
{
  "type": "node",
  "id": 2295821753,
  "lat": 52.9538201,
  "lon": -1.1531134,
  "tags": {
    "addr:place": "Nottingham Central Library",
    "addr:street": "Angel Row",
    "level": "1",
    "name": "Angel Row Gallery",
    "source": "local_knowledge",
    "tourism": "museum",
    "wheelchair": "yes"
  }
},
{
  "type": "node",
  "id": 2720034154,
  "lat": 52.8911210,
  "lon": -1.1517718,
  "tags": {
    "addr:postcode": "NG11 6HE",
    "addr:street": "Chapel Street",
    "fhrs:id": "266350",
    "name": "Ruddington Framework Knitters Museum",
    "source": "survey",
    "source:addr": "Food Hygiene Open Data",
    "tourism": "museum",
    "website": "https://www.frameworkknittersmuseum.org.uk/"
  }
},
{
  "type": "node",
  "id": 2999924840,
  "lat": 52.9495991,
  "lon": -1.1547123,
  "tags": {
    "name": "The Sherwood Foresters Nottingham Collection (Closed until 2020)",
    "tourism": "museum"
  }
},
{
  "type": "node",
  "id": 3632916833,
  "lat": 53.1350225,
  "lon": -0.9859032,
  "tags": {
    "name": "Duke's Wood Oil Museum",
    "opening_hours": "Apr-Sep Su 14:00-16:30",
    "source": "survey",
    "tourism": "museum"
  }
},
{
  "type": "node",
  "id": 3669369602,
  "lat": 52.8920587,
  "lon": -1.1508094,
  "tags": {
    "name": "The Village Museum",
    "source": "survey",
    "tourism": "museum",
    "website": "http://ruddington-museum.org.uk/"
  }
},
{
  "type": "node",
  "id": 5153593006,
  "lat": 52.9250588,
  "lon": -1.4539571,
  "tags": {
    "addr:city": "Derby",
    "addr:country": "GB",
    "addr:postcode": "DE21 6AS",
    "addr:street": "Nottingham Road",
    "addr:unit": "16 Sawley Park",
    "name": "Radio Communication Museum of Great Britain",
    "note": "will open for public in Summer 2018",
    "opening_hours": "off",
    "phone": "+44 1332 224122",
    "tourism": "museum",
    "website": "http://radiocommunicationmuseum.org/",
    "wheelchair": "yes"
  }
},
{
  "type": "node",
  "id": 5827481055,
  "lat": 52.7732033,
  "lon": -1.1987972,
  "tags": {
    "addr:city": "Loughborough",
    "addr:country": "GB",
    "addr:postcode": "LE11 1AR",
    "addr:street": "Freehold Street",
    "name": "John Taylor Bellfoundry Museum",
    "opening_hours": "\"appointment only\"",
    "source": "survey",
    "source:addr": "website",
    "tourism": "museum",
    "website": "http://taylorbells.co.uk/visiting/"
  }
},
{
  "type": "node",
  "id": 6813068344,
  "lat": 52.7486605,
  "lon": -1.4703398,
  "tags": {
    "name": "Ashby de la Zouch Museum",
    "tourism": "museum"
  }
},
{
  "type": "node",
  "id": 7028450398,
  "lat": 53.2351456,
  "lon": -1.0447848,
  "tags": {
    "name": "The Queen's Royal Lancers Museum",
    "tourism": "museum",
    "website": "http://www.qrlnymuseum.co.uk/"
  }
},
{
  "type": "node",
  "id": 7161148974,
  "lat": 53.0900827,
  "lon": -1.4862817,
  "tags": {
    "museum": "transport",
    "museum_type": "national",
    "name": "Crich Tramway Village",
    "place": "locality"
  }
},
{
  "type": "way",
  "id": 4438894,
  "nodes": [
    27246800,
    1102576060,
    1102576067,
    1102575985,
    1102576053,
    27246802,
    1102575939,
    1102576047,
    1102576028,
    1102575956,
    2808353418,
    1102576014,
    1102576027,
    1102575856,
    1102576002,
    27246804,
    1809004685,
    1809004689,
    1102575892,
    1102575903,
    1102576063,
    1102575871,
    1102575961,
    1102575999,
    1102575918,
    2808353423,
    1102575937,
    27246805,
    1102575917,
    1102575935,
    1102575890,
    1102575900,
    1102576050,
    1102576023,
    2807674790,
    1102575869,
    1102576061,
    1102576018,
    1102576048,
    1102575958,
    1102575995,
    1102575882,
    27246800
  ],
  "tags": {
    "addr:postcode": "NG8 2AE",
    "building": "yes",
    "building:levels": "4",
    "is_in": "Nottingham,Nottinghamshire,United Kingdom",
    "is_in:city": "Nottingham",
    "is_in:county": "Nottinghamshire",
    "listed_status": "Grade I",
    "name": "Wollaton Hall",
    "operator": "Nottingham City Museums and Galleries",
    "osmgb:isbug": "no",
    "source:listed_status": "English Heritage",
    "tourism": "museum",
    "wikidata": "Q17528596",
    "wikipedia": "en:Wollaton Hall"
  }
},
{
  "type": "way",
  "id": 16459858,
  "nodes": [
    175257669,
    1801540209,
    2537360511,
    2537360521,
    2537360531,
    1801540191,
    1801540211,
    1801540200,
    2537360528,
    2537360532,
    1801540204,
    1801540189,
    175257673,
    2537360533,
    169851234,
    2537360535,
    2537360536,
    169851235,
    2537884919,
    952331235,
    169851236,
    2537360507,
    2537360506,
    2537884766,
    2537884764,
    2537360504,
    2537360505,
    169851237,
    175257669
  ],
  "tags": {
    "HE_ref": "1271188",
    "addr:city": "Nottingham",
    "addr:postcode": "NG1 6EL",
    "addr:street": "Lenton Road",
    "alt_name": "Nottingham Castle",
    "alt_name:en": "Nottingham Castle Museum and Gallery",
    "building": "yes",
    "castle_type": "defensive",
    "highlight": "yes",
    "historic": "castle",
    "listed_status": "Grade I",
    "name": "Nottingham Castle Museum & Art Gallery (Closed until 2020)",
    "name:de": "Nottingham Castle",
    "name:en": "Nottingham Castle Museum and Art Gallery",
    "name:fr": "Château de Nottingham",
    "name:hu": "Nottinghami vár",
    "name:is": "Kastalinn í Nottingham",
    "name:it": "Castello di Nottingham",
    "name:no": "Nottingham Castle",
    "name:pt": "Castelo de Nottingham",
    "name:sv": "Nottingham Castle",
    "name:zh": "諾丁漢城",
    "note": "\"castle\" might be a bit far stretched, maybe \"museum\" ? On the other hand, tourists are going to \"look for the castle\"... Alternative website: http://www.nottinghamcity.gov.uk/Castle",
    "source": "Bing;survey",
    "source:listed_status": "Historic England",
    "source:postcode": "NCC Open Data asset register",
    "tourism": "museum",
    "website": "https://www.nottinghamcastle.org.uk/",
    "wheelchair": "no",
    "wikidata": "Q17642916",
    "wikipedia": "en:Nottingham Castle"
  }
},
{
  "type": "way",
  "id": 23303791,
  "nodes": [
    252270912,
    1102740424,
    1102740394,
    1102740408,
    5151981987,
    1102740266,
    1102740392,
    5151981989,
    1102740421,
    1102740410,
    1102740308,
    252270913,
    252270914,
    1102740384,
    1102740335,
    1102740430,
    1102740451,
    1102740398,
    1102740272,
    1102740311,
    1102740435,
    1102740466,
    1102740415,
    1102740443,
    1102740366,
    3537219134,
    252270915,
    1102740297,
    252270912
  ],
  "tags": {
    "building": "arts_centre",
    "museum": "art_gallery",
    "name": "Djanogly Arts Gallery",
    "source:area": "Bing",
    "tourism": "museum"
  }
},
{
  "type": "way",
  "id": 23303792,
  "nodes": [
    252270916,
    1102740277,
    1102740433,
    252270917,
    1102740418,
    1102740346,
    1102740447,
    252394025,
    1102740388,
    1102740275,
    252270918,
    1102740392,
    1102740266,
    1102740302,
    252270920,
    1102740290,
    1102740444,
    252270921,
    1102740315,
    1102740260,
    1102740459,
    1102740403,
    252270916
  ],
  "tags": {
    "building": "arts_centre",
    "name": "Nottingham Museum of archaeology",
    "source:area": "Bing",
    "tourism": "museum"
  }
},
{
  "type": "way",
  "id": 23340072,
  "nodes": [
    3632438840,
    1271117771,
    252733149,
    252733150,
    1271117696,
    1271117678,
    2247707335,
    1271117728,
    1271117759,
    1271117711,
    6171965342,
    3632437788,
    252733151,
    1271035448,
    3632437971,
    1271117673,
    3632438770,
    3632438972,
    3632438889,
    3632438887,
    6171965248,
    3632438865,
    3632438802,
    3632438827,
    2247707364,
    3632438840
  ],
  "tags": {
    "FIXME": "hardstanding, builing(s) and perhaps notable exhibits",
    "addr:locality": "Castle Donington",
    "addr:postcode": "DE74 2PR",
    "addr:street": "Hill Top",
    "fhrs:id": "430236",
    "name": "East Midlands Aeropark",
    "source:addr:postcode": "OS Opendata Codepoint",
    "tourism": "museum",
    "website": "http://www.eastmidlandsaeropark.org",
    "wikipedia": "en:East Midlands Aeropark"
  }
},
{
  "type": "way",
  "id": 29421953,
  "nodes": [
    982577206,
    1430517958,
    982577238,
    1430501212,
    1430501253,
    982577192,
    982577239,
    324255693,
    982577712,
    982577699,
    982577697,
    324261701,
    982577696,
    982603285,
    982603282,
    324261703,
    324261705,
    982577206
  ],
  "tags": {
    "addr:postcode": "NG11 6NX",
    "addr:street": "Mere Way",
    "name": "Nottinghamshire Transport Heritage Centre",
    "source:addr": "FHRS Open Data",
    "tourism": "museum",
    "website": "http://www.gcrn.co.uk/",
    "wikidata": "Q5598945",
    "wikipedia": "en:Great Central Railway (Nottingham)"
  }
},
{
  "type": "way",
  "id": 54277337,
  "nodes": [
    684488378,
    3723038885,
    3723038886,
    3723038887,
    3723038888,
    3722752312,
    3723038891,
    3723038893,
    3723038896,
    3723038899,
    3722752333,
    3722752347,
    3723044926,
    3722752361,
    3722752387,
    3723044947,
    684488382,
    684488386,
    3723044962,
    3723044966,
    3723044971,
    3723044973,
    684488396,
    684488398,
    3723044997,
    3723045004,
    3723045008,
    684488402,
    3723045009,
    3723045007,
    684488403,
    3723045002,
    684488404,
    3722752478,
    3723044965,
    684488406,
    3723038889,
    3722827230,
    684488378
  ],
  "tags": {
    "HE_ref": "1001339",
    "historic": "yes",
    "listed_status": "Grade II",
    "listed_status:register": "Parks and Gardens",
    "name": "Papplewick Pumping Station",
    "operator": "Papplewick Pumping Station Trust",
    "source:listed_status": "Historic England",
    "tourism": "museum",
    "website": "http://www.papplewickpumpingstation.org.uk/",
    "wheelchair": "limited",
    "wikidata": "Q7133101"
  }
},
{
  "type": "way",
  "id": 58607093,
  "nodes": [
    726223015,
    726223018,
    726223021,
    726223024,
    726223015
  ],
  "tags": {
    "building": "yes",
    "name": "The Old Rectory Museum",
    "opening_hours": "Apr-Oct: Sa 10:00-16:00",
    "source": "Bing",
    "tourism": "museum"
  }
},
{
  "type": "way",
  "id": 80581311,
  "nodes": [
    940046277,
    940046135,
    3377921557,
    3377921558,
    940046286,
    3377921550,
    3377921551,
    3377921552,
    940046223,
    3378316074,
    415792079,
    940046149,
    940046209,
    940046230,
    940046105,
    3377921554,
    3377921555,
    3377921553,
    3377921556,
    940046277
  ],
  "tags": {
    "addr:city": "Matlock Bath",
    "addr:housename": "Grand Pavillion",
    "addr:postcode": "DE4 3NR",
    "addr:street": "South Parade",
    "building": "yes",
    "fhrs:id": "633167",
    "name": "Peak District Mining Museum",
    "source": "OS_OpenData_StreetView",
    "tourism": "museum",
    "website": "http://www.peakmines.co.uk/",
    "wikidata": "Q15265780",
    "wikipedia": "en:Peak District Mining Museum"
  }
},
{
  "type": "way",
  "id": 105957321,
  "nodes": [
    1220022633,
    1220022616,
    1220022609,
    3914951330,
    1220022582,
    1220022633
  ],
  "tags": {
    "HE_ref": "1088364",
    "addr:postcode": "DE72 2GA",
    "addr:street": "London Road",
    "building": "industrial",
    "listed_status": "Grade II",
    "name": "Shardlow Heritage Centre",
    "source:addr:postcode": "OS Opendata Codepoint",
    "source:listed_status": "Historic England",
    "tourism": "museum"
  }
},
{
  "type": "way",
  "id": 110018092,
  "nodes": [
    1257932978,
    1257932974,
    4105930481,
    1257932973,
    1257932975,
    1257933011,
    1257932981,
    1257932994,
    4105930419,
    1257933031,
    1257933007,
    1257932991,
    1257932985,
    1257932978
  ],
  "tags": {
    "building": "yes",
    "name": "Matthew Kirtley Building",
    "tourism": "museum"
  }
},
{
  "type": "way",
  "id": 110018095,
  "nodes": [
    1257933012,
    1257933023,
    1257933029,
    1257932979,
    1257933012
  ],
  "tags": {
    "building": "yes",
    "name": "Road Transport Building",
    "roof:shape": "gabled",
    "tourism": "museum"
  }
},
{
  "type": "way",
  "id": 110018098,
  "nodes": [
    1257933040,
    4106601870,
    1257932976,
    1257932997,
    4106601898,
    4106601904,
    4106601903,
    4106601894,
    1257932988,
    1257933040
  ],
  "tags": {
    "building": "yes",
    "name": "West Shed Experience",
    "roof:shape": "gabled",
    "tourism": "museum"
  }
},
{
  "type": "way",
  "id": 110666108,
  "nodes": [
    1263263707,
    1263263702,
    4779912856,
    1263263701,
    1263263721,
    1263263739,
    1263263736,
    1263263731,
    1263263750,
    1263263707
  ],
  "tags": {
    "addr:postcode": "NG1 2GB",
    "addr:street": "Weekday Cross",
    "building": "yes",
    "museum": "gallery",
    "name": "Nottingham Contemporary",
    "source": "Bing",
    "source:postcode": "NCC Open Data Food Hygiene",
    "tourism": "museum",
    "website": "https://www.nottinghamcontemporary.org/",
    "wheelchair": "yes",
    "wikidata": "Q7063622"
  }
},
{
  "type": "way",
  "id": 111553281,
  "nodes": [
    606400870,
    1270684948,
    1270685045,
    1270684939,
    1270685035,
    1270685168,
    1270685291,
    1270684896,
    1270684984,
    1270685144,
    1270685197,
    1270684886,
    1270685229,
    606400870
  ],
  "tags": {
    "building": "yes",
    "name": "Pickford's House Museum",
    "name:ba": "Пикфорд йорт-музейы",
    "operator": "Derby City Council",
    "source": "Bing;survey",
    "tourism": "museum",
    "wikidata": "Q839065",
    "wikipedia": "en:Pickford's House Museum"
  }
},
{
  "type": "way",
  "id": 116628619,
  "nodes": [
    1314354515,
    5268858395,
    1314354799,
    5268858385,
    5268858384,
    5268858382,
    5268858381,
    5268858383,
    1314354835,
    1314354472,
    4979768891,
    4979768892,
    5268858387,
    1314354400,
    1314354399,
    1314354515
  ],
  "tags": {
    "addr:housename": "Weir Cottages",
    "addr:postcode": "NG9 1LZ",
    "addr:street": "Canal Side",
    "addr:unit": "2-3",
    "building": "yes",
    "fhrs:id": "997869",
    "name": "Canalside Heritage Centre",
    "note": "Heritage Centre Opened in July 2017",
    "source": "Bing",
    "tourism": "museum",
    "website": "https://canalsideheritagecentre.org.uk/"
  }
},
{
  "type": "way",
  "id": 120162534,
  "nodes": [
    831797687,
    1347947699,
    1347947723,
    1347947525,
    1347947292,
    1347947740,
    1347947216,
    1347947705,
    1347947471,
    831797687
  ],
  "tags": {
    "HE_ref": "1205567",
    "addr:postcode": "DE7 5JA",
    "addr:street": "High Street",
    "building": "yes",
    "fee": "no",
    "listed_status": "Grade II",
    "name": "Erewash Museum",
    "operator": "Erewash Borough Council",
    "source": "Bing;survey",
    "source:addr:postcode": "OS Opendata Codepoint",
    "source:listed_status": "English Heritage",
    "tourism": "museum",
    "website": "http://www.erewashmuseum.co.uk/",
    "wikipedia": "en:Erewash Museum"
  }
},
{
  "type": "way",
  "id": 123120708,
  "nodes": [
    1373998480,
    825266623,
    825267051,
    1373998481,
    1373998482,
    3632467320,
    1373998483,
    1373998480
  ],
  "tags": {
    "HE_ref": "1254795",
    "building": "yes",
    "listed_status": "Grade II",
    "name": "The William Booth Birthplace Museum",
    "operator": "The Salvation Army",
    "source": "Bing",
    "source:listed_status": "Historic England",
    "tourism": "museum"
  }
},
{
  "type": "way",
  "id": 126794438,
  "nodes": [
    1404602695,
    1404602724,
    1404602726,
    1404602732,
    1404602740,
    1404602712,
    1404602699,
    1404602697,
    1404602695
  ],
  "tags": {
    "addr:city": "Derby",
    "addr:country": "GB",
    "addr:postcode": "DE23 8NT",
    "addr:street": "Princes Street",
    "building": "yes",
    "fee": "no",
    "name": "National Sikh Heritage Centre and Holocaust Museum",
    "source": "Bing;survey",
    "tourism": "museum",
    "website": "http://www.nationalsikhmuseum.com/"
  }
},
{
  "type": "way",
  "id": 160271400,
  "nodes": [
    2947662748,
    1723258845,
    1723258841,
    2947662752,
    2947662748
  ],
  "tags": {
    "addr:city": "Wirksworth",
    "addr:housenumber": "31",
    "addr:postcode": "DE4 4DS",
    "addr:street": "St. John Street",
    "building": "yes",
    "fhrs:id": "1105046",
    "name": "Wirksworth Heritage Centre",
    "old_name": "Spencers",
    "source": "survey;bing",
    "tourism": "museum",
    "website": "https://www.wirksworthheritage.co.uk/"
  }
},
{
  "type": "way",
  "id": 168972879,
  "nodes": [
    1801540231,
    2520918666,
    1801540215,
    3783425043,
    1801540217,
    1801540190,
    1801540226,
    1801540206,
    1801540232,
    1801540223,
    1801540207,
    2520918682,
    2520439170,
    1801540214,
    1801540231
  ],
  "tags": {
    "HE_ref": "1246758",
    "addr:postcode": "NG1 6AD",
    "addr:street": "Brewhouse Yard",
    "building": "yes",
    "listed_status": "Grade II",
    "name": "Brewhouse Yard",
    "note": "Previously tagged opening_hours=\"by appointment\" and access=groups. Removed because this is only correct on weekdays not weekends",
    "source": "local_knowledge",
    "source:listed_status": "Historic England",
    "source:postcode": "ONS",
    "tourism": "museum",
    "wheelchair": "no",
    "wikidata": "Q26539136"
  }
},
{
  "type": "way",
  "id": 209377353,
  "nodes": [
    2195990449,
    2195990456,
    2195990453,
    2195990455,
    2195990443,
    2195990447,
    2195990449
  ],
  "tags": {
    "addr:city": "Nottingham",
    "addr:housenumber": "39",
    "addr:postcode": "NG7 6BE",
    "addr:street": "Gregory Boulevard",
    "building": "yes",
    "fhrs:id": "217146",
    "museum": "gallery",
    "name": "New Art Exchange",
    "source": "Bing",
    "source:name": "survey",
    "tourism": "museum",
    "wheelchair": "yes"
  }
},
{
  "type": "way",
  "id": 210140560,
  "nodes": [
    2202607152,
    2202607019,
    2202607120,
    2202607276,
    2202607255,
    3069843293,
    2202607152
  ],
  "tags": {
    "addr:city": "Leicester",
    "addr:country": "GB",
    "addr:housename": "National Space Centre",
    "addr:postcode": "LE4 5NS",
    "addr:street": "Exploration Drive",
    "name": "National Space Centre",
    "phone": "0845 605 2001",
    "tourism": "museum",
    "website": "https://www.spacecentre.co.uk/",
    "wikidata": "Q3873189",
    "wikipedia": "en:National Space Centre"
  }
},
{
  "type": "way",
  "id": 235954783,
  "nodes": [
    2440315509,
    2437986643,
    2440315488,
    2791752462,
    2440315489,
    2440315509
  ],
  "tags": {
    "building": "dovecote",
    "historic": "dovecote",
    "listed_status": "Grade II",
    "name": "Wollaton Dovecote",
    "operator": "Wollaton Historical & Conservation Society",
    "owner": "Nottingham City Council",
    "source": "Bing",
    "source:listed_status": "English Heritage",
    "start_date_est": "1580",
    "toilets:wheelchair": "no",
    "tourism": "museum",
    "website": "http://www.ournottinghamshire.org.uk/page_id__1006_path__0p31p39p344p198p.aspx",
    "wheelchair": "limited",
    "wikidata": "Q26539894"
  }
},
{
  "type": "way",
  "id": 253384540,
  "nodes": [
    2593145871,
    2593145869,
    2593145867,
    2593145870,
    2593145871
  ],
  "tags": {
    "building": "industrial",
    "name": "Moira Furnace",
    "source": "Bing",
    "tourism": "museum",
    "wikidata": "Q6894714"
  }
},
{
  "type": "way",
  "id": 265885272,
  "nodes": [
    2714928124,
    2714928121,
    2100628878,
    2100628765,
    2100628687,
    2100628918,
    2100628660,
    2100628910,
    2100628717,
    2100628627,
    2100628857,
    2100628839,
    2100628825,
    2100628754,
    2100628667,
    2100628689,
    2100628782,
    2714943527,
    2714943526,
    2714943528,
    2714943529,
    430501008,
    2100628720,
    2100628788,
    2714928154,
    2100628811,
    2100628666,
    2099052047,
    4585691304,
    2100628630,
    2714928168,
    2714928162,
    2714928160,
    2714928146,
    2714928147,
    2714928139,
    2100628642,
    2100628632,
    2100628658,
    2100628722,
    2100628756,
    2100628849,
    2714928115,
    2100628813,
    2100628633,
    2100628823,
    2100628834,
    2714928123,
    2714928124
  ],
  "tags": {
    "HE_ref": "1254517",
    "addr:housename": "The Shire Hall",
    "addr:postcode": "NG1 1HN",
    "addr:street": "High Pavement",
    "building": "yes",
    "building:levels": "5",
    "fhrs:id": "216492",
    "listed_status": "Grade II*",
    "name": "National Justice Museum",
    "old_name": "Galleries of Justice",
    "payment:cash": "yes",
    "payment:maestro": "yes",
    "payment:mastercard": "yes",
    "payment:visa": "yes",
    "payment:visa_electron": "yes",
    "source": "survey",
    "source:addr": "NCC Open Data",
    "source:listed_status": "Historic England",
    "tourism": "museum",
    "website": "http://www.galleriesofjustice.org.uk/",
    "wheelchair": "limited",
    "wikidata": "Q5518971"
  }
},
{
  "type": "way",
  "id": 272344693,
  "nodes": [
    2772899471,
    3213576958,
    2772899470,
    3213577067,
    3213577065,
    2772899462,
    2772899464,
    2772899463,
    2772899466,
    3213565023,
    3213577066,
    2772899469,
    2772899467,
    2772899465,
    2772899468,
    2772899471
  ],
  "tags": {
    "name": "Holocaust Centre",
    "source": "View from N;Bing",
    "tourism": "museum",
    "website": "http://www.nationalholocaustcentre.net/"
  }
},
{
  "type": "way",
  "id": 274268756,
  "nodes": [
    2790327297,
    2790327298,
    2790327300,
    2790327301,
    2790327302,
    2790327304,
    2790327305,
    2790327306,
    2790327307,
    2790327309,
    2790327297
  ],
  "tags": {
    "building": "yes",
    "name": "High Peak Junction",
    "tourism": "museum"
  }
},
{
  "type": "way",
  "id": 292191855,
  "nodes": [
    2957292228,
    2957292229,
    2957292230,
    2957292442,
    2957292231,
    2957292228
  ],
  "tags": {
    "building": "yes",
    "name": "National Stone Centre",
    "tourism": "museum",
    "website": "http://www.nationalstonecentre.org.uk/",
    "wheelchair": "yes",
    "wikidata": "Q23305123"
  }
},
{
  "type": "way",
  "id": 302717390,
  "nodes": [
    3069843318,
    3069843292,
    3069843297,
    3069843301,
    3069843305,
    3069843286,
    3069843288,
    3069843290,
    3069843307,
    3069843309,
    3069843311,
    3069843313,
    3069843320,
    3069843323,
    3069843325,
    3069843328,
    3069843260,
    3069843261,
    3069843263,
    3069843267,
    3069843318
  ],
  "tags": {
    "long_name": "Abbey Pumping Station Museum of Science & Technology",
    "name": "Abbey Pumping Station",
    "tourism": "museum",
    "wikidata": "Q4664048"
  }
},
{
  "type": "way",
  "id": 311201483,
  "nodes": [
    3167828991,
    3167833093,
    3167833094,
    3167833095,
    3167828992,
    3167828991
  ],
  "tags": {
    "building": "yes",
    "name": "Making It! Discovery Centre",
    "note": "Former Mansfield Brewery",
    "tourism": "museum"
  }
},
{
  "type": "way",
  "id": 327166193,
  "nodes": [
    3338918880,
    3338918883,
    3338918885,
    430329814,
    3338918862,
    3338918840,
    3338918839,
    3340470944,
    3340470945,
    3338918856,
    3338918880
  ],
  "tags": {
    "HE_ref": "1263824",
    "addr:city": "Nottingham",
    "addr:street": "Victoria Street",
    "addr:suburb": "Eastwood",
    "building": "yes",
    "listed_status": "Grade II",
    "name": "D.H. Lawrence Birthplace Museum",
    "source": "survey",
    "source:area": "Bing",
    "source:listed_status": "English Heritage",
    "tourism": "museum"
  }
},
{
  "type": "way",
  "id": 369870588,
  "nodes": [
    3736153546,
    3736153561,
    3736153560,
    3736153562,
    3736153597,
    3736153545,
    3736153568,
    3736153584,
    3736153553,
    3736153548,
    3736153551,
    3736153557,
    3736153570,
    3736153546
  ],
  "tags": {
    "leisure": "park",
    "name": "Donington-le-Heath Manor House",
    "operator": "Leicestershire County Council",
    "source": "local_knowledge",
    "tourism": "museum"
  }
},
{
  "type": "way",
  "id": 370759029,
  "nodes": [
    2310056463,
    2310056461,
    3612851881,
    2310056468,
    2310056479,
    2310056485,
    175363904,
    2310056482,
    2310056488,
    2310056466,
    2310056484,
    2310056459,
    2310056473,
    2310056474,
    2310056465,
    2310056467,
    3612851877,
    3612851872,
    2310056483,
    2310056462,
    2310056477,
    2310056463
  ],
  "tags": {
    "addr:postcode": "NG2 4LF",
    "addr:street": "Belvoir Hill",
    "name": "Green's Windmill & Science Centre",
    "operator": "Nottingham City Council; The Green’s Windmill Trust",
    "source:addr": "NCC Open Data planning",
    "tourism": "museum",
    "website": "https://www.greensmill.org.uk/"
  }
},
{
  "type": "way",
  "id": 389814600,
  "nodes": [
    3929747381,
    3929747442,
    3929747451,
    3929747156,
    3927957454,
    3927957471,
    3929747381
  ],
  "tags": {
    "addr:city": "Heanor",
    "addr:housename": "23 Market St",
    "addr:housenumber": "23",
    "addr:postcode": "DE75 7NR",
    "addr:street": "Market Street",
    "building": "yes",
    "description": "\"Museum, Sales and Repairs\"",
    "name": "Vacuum Cleaner Museum and Repairer",
    "operator": "Mr Vacuum Cleaner",
    "source:addr:postcode": "OS Opendata Codepoint;interpolation",
    "tourism": "museum",
    "website": "http://www.mrvacuumcleaner.co.uk/"
  }
},
{
  "type": "way",
  "id": 408691265,
  "nodes": [
    1257933012,
    4105930450,
    4105930471,
    1257933023,
    1257933012
  ],
  "tags": {
    "building": "yes",
    "name": "Fork Truck Heritage Centre",
    "roof:shape": "gabled",
    "tourism": "museum"
  }
},
{
  "type": "way",
  "id": 408691272,
  "nodes": [
    4105930409,
    4105930407,
    4105930434,
    4106643567,
    4106643571,
    4105930438,
    4105930452,
    4105930451,
    4105930431,
    4105991244,
    4105991255,
    4106699431,
    4105991266,
    4105991271,
    4105991287,
    4106643846,
    4105991273,
    4106643847,
    4106699461,
    4106699457,
    4106699450,
    4106699459,
    4106643842,
    4106643837,
    4106643832,
    4106643836,
    4106643831,
    4106643829,
    4106643826,
    4106643821,
    4105930426,
    4105930420,
    4106601935,
    4105930417,
    4106601888,
    4106601861,
    4105930415,
    4106601796,
    4106601756,
    4106601736,
    4106601697,
    4106601597,
    4105930402,
    4106601574,
    4106601582,
    4105930404,
    4105930409
  ],
  "tags": {
    "landuse": "railway",
    "name": "Swanwick Junction Museum Complex",
    "tourism": "museum"
  }
},
{
  "type": "way",
  "id": 486668993,
  "nodes": [
    4792463044,
    1196637370,
    1196636641,
    1196636518,
    1270714925,
    4084108353,
    4792463044
  ],
  "tags": {
    "addr:postcode": "DE74 2DA",
    "addr:street": "High Street",
    "building": "yes",
    "name": "Kegworth Museum",
    "source": "survey",
    "source:addr:postcode": "OS Opendata Codepoint",
    "tourism": "museum",
    "website": "https://www.kegworthmuseum.org.uk/"
  }
},
{
  "type": "way",
  "id": 549965751,
  "nodes": [
    5312450662,
    5312450663,
    5312450664,
    5312450665,
    5312450666,
    5312450667,
    5312450668,
    5312450669,
    5312450670,
    5312450671,
    5312450672,
    5312450673,
    5312450674,
    5312450675,
    5312450676,
    5312450677,
    5312450678,
    5312450679,
    5312450680,
    5312450681,
    5312450662
  ],
  "tags": {
    "addr:city": "Swadlincote",
    "addr:housename": "23",
    "addr:postcode": "DE11 9DG",
    "addr:street": "West Street",
    "building": "yes",
    "email": "info@sharpespotterymuseum.org.uk",
    "name": "Sharpe's Pottery Museum",
    "opening_hours": "Mo-Sa 10:00-16:30",
    "phone": "+44 1283222600",
    "tourism": "museum",
    "website": "https://www.sharpespotterymuseum.org.uk/"
  }
},
{
  "type": "way",
  "id": 654964168,
  "nodes": [
    6137021402,
    1296653357,
    6137021403,
    6137021404,
    6184956167,
    6184956165,
    6184956166,
    6184956168,
    6137021405,
    6137021402
  ],
  "tags": {
    "HE_ref": "1100312",
    "addr:housename": "The Stone House",
    "addr:housenumber": "4",
    "addr:locality": "Castle Donington",
    "addr:postcode": "DE74 2JA",
    "addr:street": "Apiary Gate",
    "building": "yes",
    "listed_status": "Grade II",
    "name": "Castle Donington Museum",
    "source:addr": "website",
    "source:listed_status": "Historic England",
    "tourism": "museum",
    "website": "http://www.castledoningtonmuseum.org.uk/"
  }
},
{
  "type": "node",
  "id": 2593145867,
  "lat": 52.7328586,
  "lon": -1.5357895
},
{
  "type": "node",
  "id": 2593145869,
  "lat": 52.7329269,
  "lon": -1.5357032
},
{
  "type": "node",
  "id": 2593145870,
  "lat": 52.7329960,
  "lon": -1.5360857
},
{
  "type": "node",
  "id": 2593145871,
  "lat": 52.7330642,
  "lon": -1.5359993
},
{
  "type": "node",
  "id": 5312450667,
  "lat": 52.7728138,
  "lon": -1.5593090
},
{
  "type": "node",
  "id": 5312450668,
  "lat": 52.7728166,
  "lon": -1.5592902
},
{
  "type": "node",
  "id": 5312450669,
  "lat": 52.7728052,
  "lon": -1.5592835
},
{
  "type": "node",
  "id": 5312450670,
  "lat": 52.7727955,
  "lon": -1.5592661
},
{
  "type": "node",
  "id": 5312450671,
  "lat": 52.7727882,
  "lon": -1.5592473
},
{
  "type": "node",
  "id": 5312450672,
  "lat": 52.7727850,
  "lon": -1.5592326
},
{
  "type": "node",
  "id": 5312450673,
  "lat": 52.7726633,
  "lon": -1.5591709
},
{
  "type": "node",
  "id": 5312450674,
  "lat": 52.7726357,
  "lon": -1.5592782
},
{
  "type": "node",
  "id": 5312450675,
  "lat": 52.7725748,
  "lon": -1.5592460
},
{
  "type": "node",
  "id": 5312450676,
  "lat": 52.7726284,
  "lon": -1.5589778
},
{
  "type": "node",
  "id": 5312450677,
  "lat": 52.7727655,
  "lon": -1.5590515
},
{
  "type": "node",
  "id": 5312450678,
  "lat": 52.7727963,
  "lon": -1.5589107
},
{
  "type": "node",
  "id": 5312450679,
  "lat": 52.7728539,
  "lon": -1.5589483
},
{
  "type": "node",
  "id": 5312450680,
  "lat": 52.7728158,
  "lon": -1.5591360
},
{
  "type": "node",
  "id": 5312450662,
  "lat": 52.7729452,
  "lon": -1.5590649
},
{
  "type": "node",
  "id": 5312450663,
  "lat": 52.7729322,
  "lon": -1.5590193
},
{
  "type": "node",
  "id": 5312450664,
  "lat": 52.7729679,
  "lon": -1.5589845
},
{
  "type": "node",
  "id": 5312450665,
  "lat": 52.7730182,
  "lon": -1.5590220
},
{
  "type": "node",
  "id": 5312450666,
  "lat": 52.7729127,
  "lon": -1.5593761
},
{
  "type": "node",
  "id": 5312450681,
  "lat": 52.7729067,
  "lon": -1.5592004
},
{
  "type": "node",
  "id": 3736153545,
  "lat": 52.7105301,
  "lon": -1.3789372
},
{
  "type": "node",
  "id": 3736153546,
  "lat": 52.7093406,
  "lon": -1.3796855
},
{
  "type": "node",
  "id": 3736153548,
  "lat": 52.7100930,
  "lon": -1.3800530
},
{
  "type": "node",
  "id": 3736153551,
  "lat": 52.7097939,
  "lon": -1.3799253
},
{
  "type": "node",
  "id": 3736153553,
  "lat": 52.7101840,
  "lon": -1.3799779
},
{
  "type": "node",
  "id": 3736153557,
  "lat": 52.7095339,
  "lon": -1.3798143
},
{
  "type": "node",
  "id": 3736153560,
  "lat": 52.7096948,
  "lon": -1.3787762
},
{
  "type": "node",
  "id": 3736153561,
  "lat": 52.7096250,
  "lon": -1.3789318
},
{
  "type": "node",
  "id": 3736153562,
  "lat": 52.7099353,
  "lon": -1.3781942
},
{
  "type": "node",
  "id": 3736153568,
  "lat": 52.7104995,
  "lon": -1.3791055
},
{
  "type": "node",
  "id": 3736153570,
  "lat": 52.7095158,
  "lon": -1.3798022
},
{
  "type": "node",
  "id": 3736153584,
  "lat": 52.7105222,
  "lon": -1.3791645
},
{
  "type": "node",
  "id": 3736153597,
  "lat": 52.7106132,
  "lon": -1.3787487
},
{
  "type": "node",
  "id": 252733149,
  "lat": 52.8336329,
  "lon": -1.3461117
},
{
  "type": "node",
  "id": 252733150,
  "lat": 52.8337504,
  "lon": -1.3453122
},
{
  "type": "node",
  "id": 1271035448,
  "lat": 52.8324045,
  "lon": -1.3450408
},
{
  "type": "node",
  "id": 1271117673,
  "lat": 52.8323478,
  "lon": -1.3469512
},
{
  "type": "node",
  "id": 1271117678,
  "lat": 52.8329276,
  "lon": -1.3451022
},
{
  "type": "node",
  "id": 1271117696,
  "lat": 52.8334237,
  "lon": -1.3447211
},
{
  "type": "node",
  "id": 1271117711,
  "lat": 52.8328632,
  "lon": -1.3437175
},
{
  "type": "node",
  "id": 1271117728,
  "lat": 52.8328168,
  "lon": -1.3443613
},
{
  "type": "node",
  "id": 1271117759,
  "lat": 52.8328233,
  "lon": -1.3440855
},
{
  "type": "node",
  "id": 1271117771,
  "lat": 52.8329498,
  "lon": -1.3468775
},
{
  "type": "node",
  "id": 2247707335,
  "lat": 52.8327644,
  "lon": -1.3444193
},
{
  "type": "node",
  "id": 2247707364,
  "lat": 52.8329271,
  "lon": -1.3472193
},
{
  "type": "node",
  "id": 3632437971,
  "lat": 52.8323915,
  "lon": -1.3454738
},
{
  "type": "node",
  "id": 3632438770,
  "lat": 52.8323391,
  "lon": -1.3474218
},
{
  "type": "node",
  "id": 3632438802,
  "lat": 52.8328908,
  "lon": -1.3474616
},
{
  "type": "node",
  "id": 3632438827,
  "lat": 52.8329211,
  "lon": -1.3474627
},
{
  "type": "node",
  "id": 3632438840,
  "lat": 52.8329328,
  "lon": -1.3469909
},
{
  "type": "node",
  "id": 3632438865,
  "lat": 52.8325407,
  "lon": -1.3474366
},
{
  "type": "node",
  "id": 3632438887,
  "lat": 52.8324953,
  "lon": -1.3474335
},
{
  "type": "node",
  "id": 3632438889,
  "lat": 52.8324479,
  "lon": -1.3474290
},
{
  "type": "node",
  "id": 3632438972,
  "lat": 52.8323623,
  "lon": -1.3474230
},
{
  "type": "node",
  "id": 6171965248,
  "lat": 52.8325168,
  "lon": -1.3474350
},
{
  "type": "node",
  "id": 252733151,
  "lat": 52.8324324,
  "lon": -1.3429601
},
{
  "type": "node",
  "id": 3632437788,
  "lat": 52.8324695,
  "lon": -1.3430268
},
{
  "type": "node",
  "id": 6171965342,
  "lat": 52.8325059,
  "lon": -1.3430923
},
{
  "type": "node",
  "id": 1296653357,
  "lat": 52.8412538,
  "lon": -1.3387175
},
{
  "type": "node",
  "id": 6137021402,
  "lat": 52.8412728,
  "lon": -1.3387630
},
{
  "type": "node",
  "id": 6137021403,
  "lat": 52.8411788,
  "lon": -1.3385353
},
{
  "type": "node",
  "id": 6137021404,
  "lat": 52.8411269,
  "lon": -1.3385940
},
{
  "type": "node",
  "id": 6137021405,
  "lat": 52.8412199,
  "lon": -1.3388229
},
{
  "type": "node",
  "id": 6184956165,
  "lat": 52.8411241,
  "lon": -1.3386959
},
{
  "type": "node",
  "id": 6184956166,
  "lat": 52.8411449,
  "lon": -1.3387461
},
{
  "type": "node",
  "id": 6184956167,
  "lat": 52.8411547,
  "lon": -1.3386613
},
{
  "type": "node",
  "id": 6184956168,
  "lat": 52.8411744,
  "lon": -1.3387127
},
{
  "type": "node",
  "id": 1196636518,
  "lat": 52.8358596,
  "lon": -1.2833565
},
{
  "type": "node",
  "id": 1196636641,
  "lat": 52.8359136,
  "lon": -1.2833520
},
{
  "type": "node",
  "id": 1196637370,
  "lat": 52.8359179,
  "lon": -1.2834911
},
{
  "type": "node",
  "id": 1270714925,
  "lat": 52.8358616,
  "lon": -1.2834238
},
{
  "type": "node",
  "id": 4084108353,
  "lat": 52.8358665,
  "lon": -1.2835826
},
{
  "type": "node",
  "id": 4792463044,
  "lat": 52.8359206,
  "lon": -1.2835781
},
{
  "type": "node",
  "id": 2202607019,
  "lat": 52.6531555,
  "lon": -1.1325093
},
{
  "type": "node",
  "id": 2202607120,
  "lat": 52.6537423,
  "lon": -1.1312248
},
{
  "type": "node",
  "id": 2202607152,
  "lat": 52.6538041,
  "lon": -1.1333426
},
{
  "type": "node",
  "id": 2202607255,
  "lat": 52.6542844,
  "lon": -1.1321704
},
{
  "type": "node",
  "id": 2202607276,
  "lat": 52.6543317,
  "lon": -1.1319646
},
{
  "type": "node",
  "id": 3069843260,
  "lat": 52.6543959,
  "lon": -1.1303474
},
{
  "type": "node",
  "id": 3069843261,
  "lat": 52.6542267,
  "lon": -1.1306612
},
{
  "type": "node",
  "id": 3069843263,
  "lat": 52.6541323,
  "lon": -1.1307685
},
{
  "type": "node",
  "id": 3069843267,
  "lat": 52.6539908,
  "lon": -1.1309053
},
{
  "type": "node",
  "id": 3069843286,
  "lat": 52.6546449,
  "lon": -1.1317716
},
{
  "type": "node",
  "id": 3069843292,
  "lat": 52.6542674,
  "lon": -1.1316617
},
{
  "type": "node",
  "id": 3069843293,
  "lat": 52.6539982,
  "lon": -1.1328689
},
{
  "type": "node",
  "id": 3069843297,
  "lat": 52.6544089,
  "lon": -1.1318092
},
{
  "type": "node",
  "id": 3069843301,
  "lat": 52.6544376,
  "lon": -1.1318443
},
{
  "type": "node",
  "id": 3069843305,
  "lat": 52.6545041,
  "lon": -1.1318764
},
{
  "type": "node",
  "id": 3069843318,
  "lat": 52.6538085,
  "lon": -1.1311225
},
{
  "type": "node",
  "id": 3069843325,
  "lat": 52.6546237,
  "lon": -1.1300201
},
{
  "type": "node",
  "id": 3069843328,
  "lat": 52.6545228,
  "lon": -1.1300926
},
{
  "type": "node",
  "id": 3069843288,
  "lat": 52.6551248,
  "lon": -1.1315115
},
{
  "type": "node",
  "id": 3069843290,
  "lat": 52.6557195,
  "lon": -1.1312300
},
{
  "type": "node",
  "id": 3069843307,
  "lat": 52.6556646,
  "lon": -1.1309501
},
{
  "type": "node",
  "id": 3069843309,
  "lat": 52.6555088,
  "lon": -1.1302240
},
{
  "type": "node",
  "id": 3069843311,
  "lat": 52.6554022,
  "lon": -1.1298325
},
{
  "type": "node",
  "id": 3069843313,
  "lat": 52.6553575,
  "lon": -1.1296822
},
{
  "type": "node",
  "id": 3069843320,
  "lat": 52.6552290,
  "lon": -1.1296768
},
{
  "type": "node",
  "id": 3069843323,
  "lat": 52.6550256,
  "lon": -1.1297573
},
{
  "type": "node",
  "id": 726223015,
  "lat": 52.7750718,
  "lon": -1.2051659
},
{
  "type": "node",
  "id": 726223018,
  "lat": 52.7750052,
  "lon": -1.2050380
},
{
  "type": "node",
  "id": 726223021,
  "lat": 52.7749625,
  "lon": -1.2050988
},
{
  "type": "node",
  "id": 726223024,
  "lat": 52.7750290,
  "lon": -1.2052267
},
{
  "type": "node",
  "id": 1404602695,
  "lat": 52.9013750,
  "lon": -1.4719502
},
{
  "type": "node",
  "id": 1404602697,
  "lat": 52.9013833,
  "lon": -1.4719207
},
{
  "type": "node",
  "id": 1404602699,
  "lat": 52.9014071,
  "lon": -1.4718288
},
{
  "type": "node",
  "id": 1404602712,
  "lat": 52.9014787,
  "lon": -1.4715554
},
{
  "type": "node",
  "id": 1404602724,
  "lat": 52.9015174,
  "lon": -1.4720522
},
{
  "type": "node",
  "id": 1404602726,
  "lat": 52.9015244,
  "lon": -1.4720230
},
{
  "type": "node",
  "id": 1404602732,
  "lat": 52.9015506,
  "lon": -1.4719228
},
{
  "type": "node",
  "id": 1404602740,
  "lat": 52.9016199,
  "lon": -1.4716574
},
{
  "type": "node",
  "id": 606400870,
  "lat": 52.9242127,
  "lon": -1.4859102
},
{
  "type": "node",
  "id": 1270684886,
  "lat": 52.9242805,
  "lon": -1.4861042
},
{
  "type": "node",
  "id": 1270684896,
  "lat": 52.9243714,
  "lon": -1.4859057
},
{
  "type": "node",
  "id": 1270684939,
  "lat": 52.9244663,
  "lon": -1.4857289
},
{
  "type": "node",
  "id": 1270684948,
  "lat": 52.9243456,
  "lon": -1.4858057
},
{
  "type": "node",
  "id": 1270684984,
  "lat": 52.9243405,
  "lon": -1.4859294
},
{
  "type": "node",
  "id": 1270685035,
  "lat": 52.9244825,
  "lon": -1.4857935
},
{
  "type": "node",
  "id": 1270685045,
  "lat": 52.9244216,
  "lon": -1.4857542
},
{
  "type": "node",
  "id": 1270685144,
  "lat": 52.9243705,
  "lon": -1.4860342
},
{
  "type": "node",
  "id": 1270685168,
  "lat": 52.9244362,
  "lon": -1.4858325
},
{
  "type": "node",
  "id": 1270685197,
  "lat": 52.9243394,
  "lon": -1.4860584
},
{
  "type": "node",
  "id": 1270685229,
  "lat": 52.9242760,
  "lon": -1.4861077
},
{
  "type": "node",
  "id": 1270685291,
  "lat": 52.9243647,
  "lon": -1.4858775
},
{
  "type": "node",
  "id": 1220022582,
  "lat": 52.8682818,
  "lon": -1.3454309
},
{
  "type": "node",
  "id": 1220022609,
  "lat": 52.8682084,
  "lon": -1.3454474
},
{
  "type": "node",
  "id": 1220022616,
  "lat": 52.8681811,
  "lon": -1.3451168
},
{
  "type": "node",
  "id": 1220022633,
  "lat": 52.8682546,
  "lon": -1.3451003
},
{
  "type": "node",
  "id": 3914951330,
  "lat": 52.8682451,
  "lon": -1.3454392
},
{
  "type": "node",
  "id": 1257932976,
  "lat": 53.0625027,
  "lon": -1.3897547
},
{
  "type": "node",
  "id": 1257932988,
  "lat": 53.0626765,
  "lon": -1.3909561
},
{
  "type": "node",
  "id": 1257932997,
  "lat": 53.0627793,
  "lon": -1.3898147
},
{
  "type": "node",
  "id": 1257933040,
  "lat": 53.0624184,
  "lon": -1.3909013
},
{
  "type": "node",
  "id": 4105930402,
  "lat": 53.0613749,
  "lon": -1.3921606
},
{
  "type": "node",
  "id": 4105930415,
  "lat": 53.0623566,
  "lon": -1.3920359
},
{
  "type": "node",
  "id": 4105930417,
  "lat": 53.0627394,
  "lon": -1.3911588
},
{
  "type": "node",
  "id": 4105930420,
  "lat": 53.0631254,
  "lon": -1.3894194
},
{
  "type": "node",
  "id": 4105930426,
  "lat": 53.0632197,
  "lon": -1.3894637
},
{
  "type": "node",
  "id": 4106601574,
  "lat": 53.0614114,
  "lon": -1.3900476
},
{
  "type": "node",
  "id": 4106601597,
  "lat": 53.0614525,
  "lon": -1.3921508
},
{
  "type": "node",
  "id": 4106601697,
  "lat": 53.0619136,
  "lon": -1.3920922
},
{
  "type": "node",
  "id": 4106601736,
  "lat": 53.0620774,
  "lon": -1.3920714
},
{
  "type": "node",
  "id": 4106601756,
  "lat": 53.0621486,
  "lon": -1.3920623
},
{
  "type": "node",
  "id": 4106601796,
  "lat": 53.0622135,
  "lon": -1.3920541
},
{
  "type": "node",
  "id": 4106601861,
  "lat": 53.0623759,
  "lon": -1.3910717
},
{
  "type": "node",
  "id": 4106601870,
  "lat": 53.0624057,
  "lon": -1.3905473
},
{
  "type": "node",
  "id": 4106601888,
  "lat": 53.0626770,
  "lon": -1.3911439
},
{
  "type": "node",
  "id": 4106601894,
  "lat": 53.0627192,
  "lon": -1.3905178
},
{
  "type": "node",
  "id": 4106601898,
  "lat": 53.0627337,
  "lon": -1.3903193
},
{
  "type": "node",
  "id": 4106601903,
  "lat": 53.0627499,
  "lon": -1.3905245
},
{
  "type": "node",
  "id": 4106601904,
  "lat": 53.0627660,
  "lon": -1.3903287
},
{
  "type": "node",
  "id": 4106601935,
  "lat": 53.0629368,
  "lon": -1.3893698
},
{
  "type": "node",
  "id": 1257932973,
  "lat": 53.0629960,
  "lon": -1.3867072
},
{
  "type": "node",
  "id": 1257932974,
  "lat": 53.0630831,
  "lon": -1.3867886
},
{
  "type": "node",
  "id": 1257932975,
  "lat": 53.0629217,
  "lon": -1.3866348
},
{
  "type": "node",
  "id": 1257932978,
  "lat": 53.0625849,
  "lon": -1.3881505
},
{
  "type": "node",
  "id": 1257932979,
  "lat": 53.0625519,
  "lon": -1.3854531
},
{
  "type": "node",
  "id": 1257932981,
  "lat": 53.0628029,
  "lon": -1.3865212
},
{
  "type": "node",
  "id": 1257932985,
  "lat": 53.0623799,
  "lon": -1.3879538
},
{
  "type": "node",
  "id": 1257932991,
  "lat": 53.0623079,
  "lon": -1.3878805
},
{
  "type": "node",
  "id": 1257932994,
  "lat": 53.0627748,
  "lon": -1.3864876
},
{
  "type": "node",
  "id": 1257933007,
  "lat": 53.0622795,
  "lon": -1.3878416
},
{
  "type": "node",
  "id": 1257933011,
  "lat": 53.0628535,
  "lon": -1.3865627
},
{
  "type": "node",
  "id": 1257933012,
  "lat": 53.0627160,
  "lon": -1.3856320
},
{
  "type": "node",
  "id": 1257933023,
  "lat": 53.0628934,
  "lon": -1.3851843
},
{
  "type": "node",
  "id": 1257933029,
  "lat": 53.0627260,
  "lon": -1.3850148
},
{
  "type": "node",
  "id": 1257933031,
  "lat": 53.0623110,
  "lon": -1.3877660
},
{
  "type": "node",
  "id": 4105930404,
  "lat": 53.0614281,
  "lon": -1.3890761
},
{
  "type": "node",
  "id": 4105930407,
  "lat": 53.0620656,
  "lon": -1.3876116
},
{
  "type": "node",
  "id": 4105930409,
  "lat": 53.0621785,
  "lon": -1.3891029
},
{
  "type": "node",
  "id": 4105930419,
  "lat": 53.0624090,
  "lon": -1.3875134
},
{
  "type": "node",
  "id": 4105930434,
  "lat": 53.0627015,
  "lon": -1.3842200
},
{
  "type": "node",
  "id": 4105930438,
  "lat": 53.0627757,
  "lon": -1.3837318
},
{
  "type": "node",
  "id": 4105930450,
  "lat": 53.0628385,
  "lon": -1.3857515
},
{
  "type": "node",
  "id": 4105930471,
  "lat": 53.0630053,
  "lon": -1.3853156
},
{
  "type": "node",
  "id": 4105930481,
  "lat": 53.0630457,
  "lon": -1.3867537
},
{
  "type": "node",
  "id": 4105991273,
  "lat": 53.0640990,
  "lon": -1.3847396
},
{
  "type": "node",
  "id": 4106601582,
  "lat": 53.0614250,
  "lon": -1.3892552
},
{
  "type": "node",
  "id": 4106643567,
  "lat": 53.0625927,
  "lon": -1.3841757
},
{
  "type": "node",
  "id": 4106643571,
  "lat": 53.0626499,
  "lon": -1.3837050
},
{
  "type": "node",
  "id": 4106643821,
  "lat": 53.0634736,
  "lon": -1.3881165
},
{
  "type": "node",
  "id": 4106643826,
  "lat": 53.0636388,
  "lon": -1.3873628
},
{
  "type": "node",
  "id": 4106643829,
  "lat": 53.0637363,
  "lon": -1.3868787
},
{
  "type": "node",
  "id": 4106643831,
  "lat": 53.0637777,
  "lon": -1.3871588
},
{
  "type": "node",
  "id": 4106643832,
  "lat": 53.0638145,
  "lon": -1.3866722
},
{
  "type": "node",
  "id": 4106643836,
  "lat": 53.0638741,
  "lon": -1.3866914
},
{
  "type": "node",
  "id": 4106643837,
  "lat": 53.0638757,
  "lon": -1.3862779
},
{
  "type": "node",
  "id": 4106643842,
  "lat": 53.0639358,
  "lon": -1.3863926
},
{
  "type": "node",
  "id": 4106643846,
  "lat": 53.0640216,
  "lon": -1.3833020
},
{
  "type": "node",
  "id": 4106643847,
  "lat": 53.0640877,
  "lon": -1.3849408
},
{
  "type": "node",
  "id": 4106699450,
  "lat": 53.0638987,
  "lon": -1.3860995
},
{
  "type": "node",
  "id": 4106699457,
  "lat": 53.0639543,
  "lon": -1.3856368
},
{
  "type": "node",
  "id": 4106699459,
  "lat": 53.0639913,
  "lon": -1.3861233
},
{
  "type": "node",
  "id": 4106699461,
  "lat": 53.0640159,
  "lon": -1.3856749
},
{
  "type": "node",
  "id": 4105930431,
  "lat": 53.0627184,
  "lon": -1.3811636
},
{
  "type": "node",
  "id": 4105930451,
  "lat": 53.0628570,
  "lon": -1.3820031
},
{
  "type": "node",
  "id": 4105930452,
  "lat": 53.0628683,
  "lon": -1.3823384
},
{
  "type": "node",
  "id": 4105991244,
  "lat": 53.0634357,
  "lon": -1.3808390
},
{
  "type": "node",
  "id": 4105991255,
  "lat": 53.0635135,
  "lon": -1.3807619
},
{
  "type": "node",
  "id": 4105991266,
  "lat": 53.0638536,
  "lon": -1.3825255
},
{
  "type": "node",
  "id": 4105991271,
  "lat": 53.0639044,
  "lon": -1.3825194
},
{
  "type": "node",
  "id": 4105991287,
  "lat": 53.0639200,
  "lon": -1.3826690
},
{
  "type": "node",
  "id": 4106699431,
  "lat": 53.0637432,
  "lon": -1.3818268
},
{
  "type": "node",
  "id": 3927957454,
  "lat": 53.0139655,
  "lon": -1.3555495
},
{
  "type": "node",
  "id": 3927957471,
  "lat": 53.0140174,
  "lon": -1.3555213
},
{
  "type": "node",
  "id": 3929747156,
  "lat": 53.0139757,
  "lon": -1.3556014
},
{
  "type": "node",
  "id": 3929747381,
  "lat": 53.0140151,
  "lon": -1.3555094
},
{
  "type": "node",
  "id": 3929747442,
  "lat": 53.0141191,
  "lon": -1.3554523
},
{
  "type": "node",
  "id": 3929747451,
  "lat": 53.0141314,
  "lon": -1.3555170
},
{
  "type": "node",
  "id": 831797687,
  "lat": 52.9715197,
  "lon": -1.3070153
},
{
  "type": "node",
  "id": 1347947216,
  "lat": 52.9716965,
  "lon": -1.3071988
},
{
  "type": "node",
  "id": 1347947292,
  "lat": 52.9715600,
  "lon": -1.3072060
},
{
  "type": "node",
  "id": 1347947471,
  "lat": 52.9715956,
  "lon": -1.3070786
},
{
  "type": "node",
  "id": 1347947525,
  "lat": 52.9715463,
  "lon": -1.3072512
},
{
  "type": "node",
  "id": 1347947699,
  "lat": 52.9714805,
  "lon": -1.3071449
},
{
  "type": "node",
  "id": 1347947705,
  "lat": 52.9715869,
  "lon": -1.3071073
},
{
  "type": "node",
  "id": 1347947723,
  "lat": 52.9714681,
  "lon": -1.3071859
},
{
  "type": "node",
  "id": 1347947740,
  "lat": 52.9716673,
  "lon": -1.3072955
},
{
  "type": "node",
  "id": 430329814,
  "lat": 53.0186490,
  "lon": -1.3069982
},
{
  "type": "node",
  "id": 3338918839,
  "lat": 53.0184868,
  "lon": -1.3070438
},
{
  "type": "node",
  "id": 3338918840,
  "lat": 53.0184861,
  "lon": -1.3069848
},
{
  "type": "node",
  "id": 3338918856,
  "lat": 53.0185814,
  "lon": -1.3071031
},
{
  "type": "node",
  "id": 3338918862,
  "lat": 53.0186434,
  "lon": -1.3069878
},
{
  "type": "node",
  "id": 3338918880,
  "lat": 53.0186546,
  "lon": -1.3071045
},
{
  "type": "node",
  "id": 3338918883,
  "lat": 53.0186556,
  "lon": -1.3070570
},
{
  "type": "node",
  "id": 3338918885,
  "lat": 53.0186561,
  "lon": -1.3070107
},
{
  "type": "node",
  "id": 3340470944,
  "lat": 53.0185411,
  "lon": -1.3070430
},
{
  "type": "node",
  "id": 3340470945,
  "lat": 53.0185419,
  "lon": -1.3071013
},
{
  "type": "node",
  "id": 1723258841,
  "lat": 53.0813364,
  "lon": -1.5729473
},
{
  "type": "node",
  "id": 2947662752,
  "lat": 53.0813019,
  "lon": -1.5729486
},
{
  "type": "node",
  "id": 2957292228,
  "lat": 53.0936171,
  "lon": -1.5737057
},
{
  "type": "node",
  "id": 2957292229,
  "lat": 53.0934264,
  "lon": -1.5736066
},
{
  "type": "node",
  "id": 2957292230,
  "lat": 53.0934714,
  "lon": -1.5733662
},
{
  "type": "node",
  "id": 2957292231,
  "lat": 53.0936621,
  "lon": -1.5734652
},
{
  "type": "node",
  "id": 2957292442,
  "lat": 53.0936022,
  "lon": -1.5734341
},
{
  "type": "node",
  "id": 1723258845,
  "lat": 53.0813368,
  "lon": -1.5728607
},
{
  "type": "node",
  "id": 2947662748,
  "lat": 53.0813006,
  "lon": -1.5728573
},
{
  "type": "node",
  "id": 2790327297,
  "lat": 53.1002981,
  "lon": -1.5336380
},
{
  "type": "node",
  "id": 2790327309,
  "lat": 53.1002155,
  "lon": -1.5336593
},
{
  "type": "node",
  "id": 2790327298,
  "lat": 53.1002862,
  "lon": -1.5335106
},
{
  "type": "node",
  "id": 2790327300,
  "lat": 53.1003142,
  "lon": -1.5335033
},
{
  "type": "node",
  "id": 2790327301,
  "lat": 53.1002869,
  "lon": -1.5332105
},
{
  "type": "node",
  "id": 2790327302,
  "lat": 53.1002253,
  "lon": -1.5332265
},
{
  "type": "node",
  "id": 2790327304,
  "lat": 53.1002381,
  "lon": -1.5333642
},
{
  "type": "node",
  "id": 2790327305,
  "lat": 53.1002259,
  "lon": -1.5333673
},
{
  "type": "node",
  "id": 2790327306,
  "lat": 53.1001971,
  "lon": -1.5330578
},
{
  "type": "node",
  "id": 2790327307,
  "lat": 53.1001605,
  "lon": -1.5330672
},
{
  "type": "node",
  "id": 415792079,
  "lat": 53.1193148,
  "lon": -1.5626027
},
{
  "type": "node",
  "id": 940046105,
  "lat": 53.1192910,
  "lon": -1.5627864
},
{
  "type": "node",
  "id": 940046135,
  "lat": 53.1191150,
  "lon": -1.5623201
},
{
  "type": "node",
  "id": 940046149,
  "lat": 53.1193992,
  "lon": -1.5627287
},
{
  "type": "node",
  "id": 940046209,
  "lat": 53.1193477,
  "lon": -1.5628245
},
{
  "type": "node",
  "id": 940046223,
  "lat": 53.1194628,
  "lon": -1.5623273
},
{
  "type": "node",
  "id": 940046230,
  "lat": 53.1193049,
  "lon": -1.5627606
},
{
  "type": "node",
  "id": 940046277,
  "lat": 53.1190568,
  "lon": -1.5624283
},
{
  "type": "node",
  "id": 940046286,
  "lat": 53.1192312,
  "lon": -1.5623689
},
{
  "type": "node",
  "id": 3377921550,
  "lat": 53.1192814,
  "lon": -1.5622755
},
{
  "type": "node",
  "id": 3377921551,
  "lat": 53.1192008,
  "lon": -1.5621553
},
{
  "type": "node",
  "id": 3377921552,
  "lat": 53.1192662,
  "lon": -1.5620338
},
{
  "type": "node",
  "id": 3377921553,
  "lat": 53.1191136,
  "lon": -1.5625664
},
{
  "type": "node",
  "id": 3377921554,
  "lat": 53.1192354,
  "lon": -1.5627033
},
{
  "type": "node",
  "id": 3377921555,
  "lat": 53.1192220,
  "lon": -1.5627282
},
{
  "type": "node",
  "id": 3377921556,
  "lat": 53.1191295,
  "lon": -1.5625368
},
{
  "type": "node",
  "id": 3377921557,
  "lat": 53.1191350,
  "lon": -1.5623500
},
{
  "type": "node",
  "id": 3377921558,
  "lat": 53.1191722,
  "lon": -1.5622808
},
{
  "type": "node",
  "id": 3378316074,
  "lat": 53.1194086,
  "lon": -1.5624282
},
{
  "type": "node",
  "id": 1314354399,
  "lat": 52.9127638,
  "lon": -1.2047425
},
{
  "type": "node",
  "id": 1314354400,
  "lat": 52.9127424,
  "lon": -1.2047868
},
{
  "type": "node",
  "id": 1314354472,
  "lat": 52.9126330,
  "lon": -1.2045594
},
{
  "type": "node",
  "id": 1314354515,
  "lat": 52.9127784,
  "lon": -1.2047619
},
{
  "type": "node",
  "id": 1314354799,
  "lat": 52.9128099,
  "lon": -1.2046968
},
{
  "type": "node",
  "id": 1314354835,
  "lat": 52.9126617,
  "lon": -1.2045000
},
{
  "type": "node",
  "id": 4979768891,
  "lat": 52.9126860,
  "lon": -1.2046298
},
{
  "type": "node",
  "id": 4979768892,
  "lat": 52.9126618,
  "lon": -1.2046799
},
{
  "type": "node",
  "id": 5268858381,
  "lat": 52.9127356,
  "lon": -1.2045981
},
{
  "type": "node",
  "id": 5268858382,
  "lat": 52.9127448,
  "lon": -1.2046103
},
{
  "type": "node",
  "id": 5268858383,
  "lat": 52.9127130,
  "lon": -1.2045681
},
{
  "type": "node",
  "id": 5268858384,
  "lat": 52.9127708,
  "lon": -1.2046448
},
{
  "type": "node",
  "id": 5268858385,
  "lat": 52.9128025,
  "lon": -1.2046870
},
{
  "type": "node",
  "id": 5268858387,
  "lat": 52.9126999,
  "lon": -1.2047305
},
{
  "type": "node",
  "id": 5268858395,
  "lat": 52.9128002,
  "lon": -1.2047168
},
{
  "type": "node",
  "id": 2437986643,
  "lat": 52.9526688,
  "lon": -1.2228631
},
{
  "type": "node",
  "id": 2440315488,
  "lat": 52.9527109,
  "lon": -1.2229203
},
{
  "type": "node",
  "id": 2440315489,
  "lat": 52.9526485,
  "lon": -1.2230517
},
{
  "type": "node",
  "id": 2440315509,
  "lat": 52.9526045,
  "lon": -1.2229951
},
{
  "type": "node",
  "id": 2791752462,
  "lat": 52.9526680,
  "lon": -1.2230116
},
{
  "type": "node",
  "id": 27246800,
  "lat": 52.9482469,
  "lon": -1.2095649
},
{
  "type": "node",
  "id": 27246802,
  "lat": 52.9479796,
  "lon": -1.2091826
},
{
  "type": "node",
  "id": 27246804,
  "lat": 52.9476311,
  "lon": -1.2097992
},
{
  "type": "node",
  "id": 27246805,
  "lat": 52.9480012,
  "lon": -1.2101510
},
{
  "type": "node",
  "id": 1102575856,
  "lat": 52.9477853,
  "lon": -1.2096512
},
{
  "type": "node",
  "id": 1102575869,
  "lat": 52.9480988,
  "lon": -1.2097748
},
{
  "type": "node",
  "id": 1102575871,
  "lat": 52.9478359,
  "lon": -1.2099780
},
{
  "type": "node",
  "id": 1102575882,
  "lat": 52.9482857,
  "lon": -1.2096205
},
{
  "type": "node",
  "id": 1102575890,
  "lat": 52.9480518,
  "lon": -1.2099406
},
{
  "type": "node",
  "id": 1102575892,
  "lat": 52.9478036,
  "lon": -1.2099254
},
{
  "type": "node",
  "id": 1102575900,
  "lat": 52.9480206,
  "lon": -1.2098960
},
{
  "type": "node",
  "id": 1102575903,
  "lat": 52.9477795,
  "lon": -1.2099719
},
{
  "type": "node",
  "id": 1102575917,
  "lat": 52.9480459,
  "lon": -1.2100651
},
{
  "type": "node",
  "id": 1102575918,
  "lat": 52.9479142,
  "lon": -1.2102251
},
{
  "type": "node",
  "id": 1102575935,
  "lat": 52.9480122,
  "lon": -1.2100168
},
{
  "type": "node",
  "id": 1102575937,
  "lat": 52.9479719,
  "lon": -1.2101143
},
{
  "type": "node",
  "id": 1102575939,
  "lat": 52.9479312,
  "lon": -1.2092774
},
{
  "type": "node",
  "id": 1102575956,
  "lat": 52.9479691,
  "lon": -1.2093879
},
{
  "type": "node",
  "id": 1102575958,
  "lat": 52.9481976,
  "lon": -1.2096652
},
{
  "type": "node",
  "id": 1102575961,
  "lat": 52.9479158,
  "lon": -1.2100923
},
{
  "type": "node",
  "id": 1102575985,
  "lat": 52.9480035,
  "lon": -1.2092959
},
{
  "type": "node",
  "id": 1102575995,
  "lat": 52.9482353,
  "lon": -1.2097192
},
{
  "type": "node",
  "id": 1102575999,
  "lat": 52.9478771,
  "lon": -1.2101669
},
{
  "type": "node",
  "id": 1102576002,
  "lat": 52.9477496,
  "lon": -1.2095994
},
{
  "type": "node",
  "id": 1102576014,
  "lat": 52.9478496,
  "lon": -1.2096200
},
{
  "type": "node",
  "id": 1102576018,
  "lat": 52.9481383,
  "lon": -1.2096757
},
{
  "type": "node",
  "id": 1102576023,
  "lat": 52.9480738,
  "lon": -1.2098230
},
{
  "type": "node",
  "id": 1102576027,
  "lat": 52.9478220,
  "lon": -1.2095805
},
{
  "type": "node",
  "id": 1102576028,
  "lat": 52.9479341,
  "lon": -1.2093378
},
{
  "type": "node",
  "id": 1102576047,
  "lat": 52.9479513,
  "lon": -1.2093061
},
{
  "type": "node",
  "id": 1102576048,
  "lat": 52.9481691,
  "lon": -1.2097199
},
{
  "type": "node",
  "id": 1102576050,
  "lat": 52.9480650,
  "lon": -1.2098105
},
{
  "type": "node",
  "id": 1102576053,
  "lat": 52.9480271,
  "lon": -1.2092505
},
{
  "type": "node",
  "id": 1102576060,
  "lat": 52.9482350,
  "lon": -1.2095479
},
{
  "type": "node",
  "id": 1102576061,
  "lat": 52.9480919,
  "lon": -1.2097650
},
{
  "type": "node",
  "id": 1102576063,
  "lat": 52.9478137,
  "lon": -1.2100208
},
{
  "type": "node",
  "id": 1102576067,
  "lat": 52.9482114,
  "lon": -1.2095934
},
{
  "type": "node",
  "id": 1809004685,
  "lat": 52.9476777,
  "lon": -1.2098675
},
{
  "type": "node",
  "id": 1809004689,
  "lat": 52.9477151,
  "lon": -1.2097957
},
{
  "type": "node",
  "id": 2807674790,
  "lat": 52.9480867,
  "lon": -1.2097978
},
{
  "type": "node",
  "id": 2808353418,
  "lat": 52.9479093,
  "lon": -1.2095040
},
{
  "type": "node",
  "id": 2808353423,
  "lat": 52.9479316,
  "lon": -1.2101917
},
{
  "type": "node",
  "id": 252270912,
  "lat": 52.9384560,
  "lon": -1.1879299
},
{
  "type": "node",
  "id": 252270913,
  "lat": 52.9385922,
  "lon": -1.1876392
},
{
  "type": "node",
  "id": 252270914,
  "lat": 52.9382140,
  "lon": -1.1871448
},
{
  "type": "node",
  "id": 252270915,
  "lat": 52.9380736,
  "lon": -1.1874494
},
{
  "type": "node",
  "id": 252270916,
  "lat": 52.9387391,
  "lon": -1.1879627
},
{
  "type": "node",
  "id": 252270917,
  "lat": 52.9387528,
  "lon": -1.1878408
},
{
  "type": "node",
  "id": 252270918,
  "lat": 52.9386030,
  "lon": -1.1878100
},
{
  "type": "node",
  "id": 252270920,
  "lat": 52.9385602,
  "lon": -1.1879527
},
{
  "type": "node",
  "id": 252270921,
  "lat": 52.9386234,
  "lon": -1.1880892
},
{
  "type": "node",
  "id": 252394025,
  "lat": 52.9386822,
  "lon": -1.1877940
},
{
  "type": "node",
  "id": 1102740260,
  "lat": 52.9386846,
  "lon": -1.1880811
},
{
  "type": "node",
  "id": 1102740266,
  "lat": 52.9385678,
  "lon": -1.1878755
},
{
  "type": "node",
  "id": 1102740272,
  "lat": 52.9381170,
  "lon": -1.1872639
},
{
  "type": "node",
  "id": 1102740275,
  "lat": 52.9386184,
  "lon": -1.1877965
},
{
  "type": "node",
  "id": 1102740277,
  "lat": 52.9387370,
  "lon": -1.1879161
},
{
  "type": "node",
  "id": 1102740290,
  "lat": 52.9385660,
  "lon": -1.1880068
},
{
  "type": "node",
  "id": 1102740297,
  "lat": 52.9381214,
  "lon": -1.1875058
},
{
  "type": "node",
  "id": 1102740302,
  "lat": 52.9385625,
  "lon": -1.1878997
},
{
  "type": "node",
  "id": 1102740308,
  "lat": 52.9385677,
  "lon": -1.1876940
},
{
  "type": "node",
  "id": 1102740311,
  "lat": 52.9381111,
  "lon": -1.1872788
},
{
  "type": "node",
  "id": 1102740315,
  "lat": 52.9386538,
  "lon": -1.1880946
},
{
  "type": "node",
  "id": 1102740335,
  "lat": 52.9381647,
  "lon": -1.1872310
},
{
  "type": "node",
  "id": 1102740346,
  "lat": 52.9387143,
  "lon": -1.1877733
},
{
  "type": "node",
  "id": 1102740366,
  "lat": 52.9381183,
  "lon": -1.1873525
},
{
  "type": "node",
  "id": 1102740384,
  "lat": 52.9381725,
  "lon": -1.1872372
},
{
  "type": "node",
  "id": 1102740388,
  "lat": 52.9386492,
  "lon": -1.1877917
},
{
  "type": "node",
  "id": 1102740392,
  "lat": 52.9385898,
  "lon": -1.1878202
},
{
  "type": "node",
  "id": 1102740394,
  "lat": 52.9385035,
  "lon": -1.1878947
},
{
  "type": "node",
  "id": 1102740398,
  "lat": 52.9381237,
  "lon": -1.1872555
},
{
  "type": "node",
  "id": 1102740403,
  "lat": 52.9387320,
  "lon": -1.1880116
},
{
  "type": "node",
  "id": 1102740408,
  "lat": 52.9385324,
  "lon": -1.1878337
},
{
  "type": "node",
  "id": 1102740410,
  "lat": 52.9385854,
  "lon": -1.1877164
},
{
  "type": "node",
  "id": 1102740415,
  "lat": 52.9381185,
  "lon": -1.1873255
},
{
  "type": "node",
  "id": 1102740418,
  "lat": 52.9387405,
  "lon": -1.1878100
},
{
  "type": "node",
  "id": 1102740421,
  "lat": 52.9385567,
  "lon": -1.1877788
},
{
  "type": "node",
  "id": 1102740424,
  "lat": 52.9384858,
  "lon": -1.1878708
},
{
  "type": "node",
  "id": 1102740430,
  "lat": 52.9381512,
  "lon": -1.1872575
},
{
  "type": "node",
  "id": 1102740433,
  "lat": 52.9387248,
  "lon": -1.1878804
},
{
  "type": "node",
  "id": 1102740435,
  "lat": 52.9381104,
  "lon": -1.1872962
},
{
  "type": "node",
  "id": 1102740443,
  "lat": 52.9381116,
  "lon": -1.1873429
},
{
  "type": "node",
  "id": 1102740444,
  "lat": 52.9385904,
  "lon": -1.1880618
},
{
  "type": "node",
  "id": 1102740447,
  "lat": 52.9386916,
  "lon": -1.1877492
},
{
  "type": "node",
  "id": 1102740451,
  "lat": 52.9381363,
  "lon": -1.1872515
},
{
  "type": "node",
  "id": 1102740459,
  "lat": 52.9387048,
  "lon": -1.1880710
},
{
  "type": "node",
  "id": 1102740466,
  "lat": 52.9381132,
  "lon": -1.1873120
},
{
  "type": "node",
  "id": 3537219134,
  "lat": 52.9381028,
  "lon": -1.1873823
},
{
  "type": "node",
  "id": 5151981987,
  "lat": 52.9385519,
  "lon": -1.1878567
},
{
  "type": "node",
  "id": 5151981989,
  "lat": 52.9385747,
  "lon": -1.1878013
},
{
  "type": "node",
  "id": 169851234,
  "lat": 52.9495216,
  "lon": -1.1550914
},
{
  "type": "node",
  "id": 169851235,
  "lat": 52.9497054,
  "lon": -1.1546314
},
{
  "type": "node",
  "id": 169851236,
  "lat": 52.9491695,
  "lon": -1.1540415
},
{
  "type": "node",
  "id": 169851237,
  "lat": 52.9490274,
  "lon": -1.1544053
},
{
  "type": "node",
  "id": 175257669,
  "lat": 52.9491895,
  "lon": -1.1545838
},
{
  "type": "node",
  "id": 175257673,
  "lat": 52.9494426,
  "lon": -1.1550044
},
{
  "type": "node",
  "id": 952331235,
  "lat": 52.9493961,
  "lon": -1.1542909
},
{
  "type": "node",
  "id": 1801540189,
  "lat": 52.9494500,
  "lon": -1.1549858
},
{
  "type": "node",
  "id": 1801540191,
  "lat": 52.9493568,
  "lon": -1.1546134
},
{
  "type": "node",
  "id": 1801540200,
  "lat": 52.9493886,
  "lon": -1.1547770
},
{
  "type": "node",
  "id": 1801540204,
  "lat": 52.9493835,
  "lon": -1.1549126
},
{
  "type": "node",
  "id": 1801540209,
  "lat": 52.9492290,
  "lon": -1.1544846
},
{
  "type": "node",
  "id": 1801540211,
  "lat": 52.9493236,
  "lon": -1.1547055
},
{
  "type": "node",
  "id": 2537360504,
  "lat": 52.9490612,
  "lon": -1.1542594
},
{
  "type": "node",
  "id": 2537360505,
  "lat": 52.9490782,
  "lon": -1.1542781
},
{
  "type": "node",
  "id": 2537360506,
  "lat": 52.9490872,
  "lon": -1.1541945
},
{
  "type": "node",
  "id": 2537360507,
  "lat": 52.9491019,
  "lon": -1.1542107
},
{
  "type": "node",
  "id": 2537360511,
  "lat": 52.9492644,
  "lon": -1.1543877
},
{
  "type": "node",
  "id": 2537360521,
  "lat": 52.9493279,
  "lon": -1.1544517
},
{
  "type": "node",
  "id": 2537360528,
  "lat": 52.9493587,
  "lon": -1.1548518
},
{
  "type": "node",
  "id": 2537360531,
  "lat": 52.9493923,
  "lon": -1.1545165
},
{
  "type": "node",
  "id": 2537360532,
  "lat": 52.9493928,
  "lon": -1.1548893
},
{
  "type": "node",
  "id": 2537360533,
  "lat": 52.9494851,
  "lon": -1.1550512
},
{
  "type": "node",
  "id": 2537360535,
  "lat": 52.9496859,
  "lon": -1.1546801
},
{
  "type": "node",
  "id": 2537360536,
  "lat": 52.9496956,
  "lon": -1.1546559
},
{
  "type": "node",
  "id": 2537884764,
  "lat": 52.9490681,
  "lon": -1.1542422
},
{
  "type": "node",
  "id": 2537884766,
  "lat": 52.9490804,
  "lon": -1.1542111
},
{
  "type": "node",
  "id": 2537884919,
  "lat": 52.9496448,
  "lon": -1.1545646
},
{
  "type": "node",
  "id": 2195990443,
  "lat": 52.9658574,
  "lon": -1.1684053
},
{
  "type": "node",
  "id": 2195990447,
  "lat": 52.9658291,
  "lon": -1.1685614
},
{
  "type": "node",
  "id": 2195990449,
  "lat": 52.9660205,
  "lon": -1.1686571
},
{
  "type": "node",
  "id": 2195990453,
  "lat": 52.9659155,
  "lon": -1.1682438
},
{
  "type": "node",
  "id": 2195990455,
  "lat": 52.9658838,
  "lon": -1.1684185
},
{
  "type": "node",
  "id": 2195990456,
  "lat": 52.9660805,
  "lon": -1.1683263
},
{
  "type": "node",
  "id": 324261703,
  "lat": 52.8847172,
  "lon": -1.1512178
},
{
  "type": "node",
  "id": 324261705,
  "lat": 52.8849142,
  "lon": -1.1511537
},
{
  "type": "node",
  "id": 982577206,
  "lat": 52.8854199,
  "lon": -1.1500179
},
{
  "type": "node",
  "id": 982577238,
  "lat": 52.8856989,
  "lon": -1.1493114
},
{
  "type": "node",
  "id": 982603282,
  "lat": 52.8845992,
  "lon": -1.1504815
},
{
  "type": "node",
  "id": 982603285,
  "lat": 52.8845877,
  "lon": -1.1502622
},
{
  "type": "node",
  "id": 1430517958,
  "lat": 52.8855372,
  "lon": -1.1497419
},
{
  "type": "node",
  "id": 324255693,
  "lat": 52.8849369,
  "lon": -1.1450488
},
{
  "type": "node",
  "id": 324261701,
  "lat": 52.8844399,
  "lon": -1.1457840
},
{
  "type": "node",
  "id": 982577192,
  "lat": 52.8853405,
  "lon": -1.1449519
},
{
  "type": "node",
  "id": 982577239,
  "lat": 52.8849968,
  "lon": -1.1450337
},
{
  "type": "node",
  "id": 982577696,
  "lat": 52.8843389,
  "lon": -1.1458179
},
{
  "type": "node",
  "id": 982577697,
  "lat": 52.8844481,
  "lon": -1.1456681
},
{
  "type": "node",
  "id": 982577699,
  "lat": 52.8849315,
  "lon": -1.1456428
},
{
  "type": "node",
  "id": 982577712,
  "lat": 52.8848918,
  "lon": -1.1450691
},
{
  "type": "node",
  "id": 1430501212,
  "lat": 52.8853549,
  "lon": -1.1449942
},
{
  "type": "node",
  "id": 1430501253,
  "lat": 52.8853519,
  "lon": -1.1449702
},
{
  "type": "node",
  "id": 1801540190,
  "lat": 52.9492974,
  "lon": -1.1528710
},
{
  "type": "node",
  "id": 1801540206,
  "lat": 52.9493349,
  "lon": -1.1527958
},
{
  "type": "node",
  "id": 1801540207,
  "lat": 52.9492449,
  "lon": -1.1528267
},
{
  "type": "node",
  "id": 1801540214,
  "lat": 52.9491981,
  "lon": -1.1530196
},
{
  "type": "node",
  "id": 1801540215,
  "lat": 52.9491598,
  "lon": -1.1530836
},
{
  "type": "node",
  "id": 1801540217,
  "lat": 52.9492338,
  "lon": -1.1531331
},
{
  "type": "node",
  "id": 1801540223,
  "lat": 52.9492309,
  "lon": -1.1528173
},
{
  "type": "node",
  "id": 1801540226,
  "lat": 52.9493140,
  "lon": -1.1528821
},
{
  "type": "node",
  "id": 1801540231,
  "lat": 52.9491785,
  "lon": -1.1530065
},
{
  "type": "node",
  "id": 1801540232,
  "lat": 52.9492499,
  "lon": -1.1527390
},
{
  "type": "node",
  "id": 2520439170,
  "lat": 52.9492050,
  "lon": -1.1529910
},
{
  "type": "node",
  "id": 2520918666,
  "lat": 52.9491638,
  "lon": -1.1530668
},
{
  "type": "node",
  "id": 2520918682,
  "lat": 52.9492305,
  "lon": -1.1528860
},
{
  "type": "node",
  "id": 3783425043,
  "lat": 52.9491762,
  "lon": -1.1530946
},
{
  "type": "node",
  "id": 430501008,
  "lat": 52.9507624,
  "lon": -1.1438391
},
{
  "type": "node",
  "id": 1263263701,
  "lat": 52.9510602,
  "lon": -1.1456974
},
{
  "type": "node",
  "id": 1263263702,
  "lat": 52.9508050,
  "lon": -1.1459141
},
{
  "type": "node",
  "id": 1263263707,
  "lat": 52.9507985,
  "lon": -1.1461078
},
{
  "type": "node",
  "id": 1263263721,
  "lat": 52.9510602,
  "lon": -1.1455633
},
{
  "type": "node",
  "id": 1263263731,
  "lat": 52.9512897,
  "lon": -1.1461400
},
{
  "type": "node",
  "id": 1263263736,
  "lat": 52.9512842,
  "lon": -1.1459354
},
{
  "type": "node",
  "id": 1263263739,
  "lat": 52.9511330,
  "lon": -1.1455472
},
{
  "type": "node",
  "id": 1263263750,
  "lat": 52.9509358,
  "lon": -1.1461373
},
{
  "type": "node",
  "id": 2099052047,
  "lat": 52.9508526,
  "lon": -1.1444274
},
{
  "type": "node",
  "id": 2100628627,
  "lat": 52.9504971,
  "lon": -1.1440007
},
{
  "type": "node",
  "id": 2100628630,
  "lat": 52.9508872,
  "lon": -1.1444170
},
{
  "type": "node",
  "id": 2100628632,
  "lat": 52.9507099,
  "lon": -1.1444676
},
{
  "type": "node",
  "id": 2100628633,
  "lat": 52.9506299,
  "lon": -1.1446339
},
{
  "type": "node",
  "id": 2100628642,
  "lat": 52.9506937,
  "lon": -1.1444716
},
{
  "type": "node",
  "id": 2100628658,
  "lat": 52.9506824,
  "lon": -1.1442799
},
{
  "type": "node",
  "id": 2100628660,
  "lat": 52.9504569,
  "lon": -1.1441296
},
{
  "type": "node",
  "id": 2100628666,
  "lat": 52.9508372,
  "lon": -1.1443333
},
{
  "type": "node",
  "id": 2100628667,
  "lat": 52.9506328,
  "lon": -1.1439457
},
{
  "type": "node",
  "id": 2100628687,
  "lat": 52.9505471,
  "lon": -1.1442579
},
{
  "type": "node",
  "id": 2100628689,
  "lat": 52.9505714,
  "lon": -1.1439711
},
{
  "type": "node",
  "id": 2100628717,
  "lat": 52.9504837,
  "lon": -1.1440339
},
{
  "type": "node",
  "id": 2100628720,
  "lat": 52.9507928,
  "lon": -1.1440654
},
{
  "type": "node",
  "id": 2100628722,
  "lat": 52.9506234,
  "lon": -1.1443067
},
{
  "type": "node",
  "id": 2100628754,
  "lat": 52.9506373,
  "lon": -1.1439721
},
{
  "type": "node",
  "id": 2100628756,
  "lat": 52.9506202,
  "lon": -1.1444958
},
{
  "type": "node",
  "id": 2100628765,
  "lat": 52.9505481,
  "lon": -1.1446226
},
{
  "type": "node",
  "id": 2100628782,
  "lat": 52.9505561,
  "lon": -1.1438569
},
{
  "type": "node",
  "id": 2100628788,
  "lat": 52.9508049,
  "lon": -1.1440612
},
{
  "type": "node",
  "id": 2100628811,
  "lat": 52.9508468,
  "lon": -1.1443268
},
{
  "type": "node",
  "id": 2100628813,
  "lat": 52.9506452,
  "lon": -1.1446151
},
{
  "type": "node",
  "id": 2100628823,
  "lat": 52.9506024,
  "lon": -1.1446299
},
{
  "type": "node",
  "id": 2100628825,
  "lat": 52.9505413,
  "lon": -1.1440195
},
{
  "type": "node",
  "id": 2100628834,
  "lat": 52.9506013,
  "lon": -1.1447153
},
{
  "type": "node",
  "id": 2100628839,
  "lat": 52.9505407,
  "lon": -1.1440002
},
{
  "type": "node",
  "id": 2100628849,
  "lat": 52.9506428,
  "lon": -1.1444971
},
{
  "type": "node",
  "id": 2100628857,
  "lat": 52.9505206,
  "lon": -1.1439896
},
{
  "type": "node",
  "id": 2100628878,
  "lat": 52.9505065,
  "lon": -1.1446205
},
{
  "type": "node",
  "id": 2100628910,
  "lat": 52.9504966,
  "lon": -1.1441246
},
{
  "type": "node",
  "id": 2100628918,
  "lat": 52.9504617,
  "lon": -1.1442872
},
{
  "type": "node",
  "id": 2714928115,
  "lat": 52.9506434,
  "lon": -1.1445603
},
{
  "type": "node",
  "id": 2714928121,
  "lat": 52.9505087,
  "lon": -1.1448173
},
{
  "type": "node",
  "id": 2714928123,
  "lat": 52.9506297,
  "lon": -1.1447127
},
{
  "type": "node",
  "id": 2714928124,
  "lat": 52.9506313,
  "lon": -1.1447990
},
{
  "type": "node",
  "id": 2714928139,
  "lat": 52.9507069,
  "lon": -1.1445552
},
{
  "type": "node",
  "id": 2714928146,
  "lat": 52.9507719,
  "lon": -1.1444797
},
{
  "type": "node",
  "id": 2714928147,
  "lat": 52.9507788,
  "lon": -1.1445298
},
{
  "type": "node",
  "id": 2714928154,
  "lat": 52.9508259,
  "lon": -1.1441911
},
{
  "type": "node",
  "id": 2714928160,
  "lat": 52.9508548,
  "lon": -1.1444481
},
{
  "type": "node",
  "id": 2714928162,
  "lat": 52.9508617,
  "lon": -1.1444983
},
{
  "type": "node",
  "id": 2714928168,
  "lat": 52.9508971,
  "lon": -1.1444843
},
{
  "type": "node",
  "id": 2714943526,
  "lat": 52.9505853,
  "lon": -1.1437677
},
{
  "type": "node",
  "id": 2714943527,
  "lat": 52.9505853,
  "lon": -1.1438446
},
{
  "type": "node",
  "id": 2714943528,
  "lat": 52.9506700,
  "lon": -1.1437491
},
{
  "type": "node",
  "id": 2714943529,
  "lat": 52.9506787,
  "lon": -1.1438611
},
{
  "type": "node",
  "id": 4585691304,
  "lat": 52.9508678,
  "lon": -1.1444228
},
{
  "type": "node",
  "id": 4779912856,
  "lat": 52.9510055,
  "lon": -1.1457438
},
{
  "type": "node",
  "id": 175363904,
  "lat": 52.9520789,
  "lon": -1.1294421
},
{
  "type": "node",
  "id": 825266623,
  "lat": 52.9522399,
  "lon": -1.1315884
},
{
  "type": "node",
  "id": 825267051,
  "lat": 52.9522618,
  "lon": -1.1317305
},
{
  "type": "node",
  "id": 1373998480,
  "lat": 52.9521347,
  "lon": -1.1316269
},
{
  "type": "node",
  "id": 1373998481,
  "lat": 52.9522345,
  "lon": -1.1317408
},
{
  "type": "node",
  "id": 1373998482,
  "lat": 52.9522083,
  "lon": -1.1317505
},
{
  "type": "node",
  "id": 1373998483,
  "lat": 52.9521569,
  "lon": -1.1317697
},
{
  "type": "node",
  "id": 2310056459,
  "lat": 52.9520656,
  "lon": -1.1293514
},
{
  "type": "node",
  "id": 2310056461,
  "lat": 52.9521177,
  "lon": -1.1295587
},
{
  "type": "node",
  "id": 2310056462,
  "lat": 52.9523023,
  "lon": -1.1291377
},
{
  "type": "node",
  "id": 2310056463,
  "lat": 52.9521177,
  "lon": -1.1296607
},
{
  "type": "node",
  "id": 2310056465,
  "lat": 52.9521016,
  "lon": -1.1293217
},
{
  "type": "node",
  "id": 2310056466,
  "lat": 52.9520595,
  "lon": -1.1293839
},
{
  "type": "node",
  "id": 2310056467,
  "lat": 52.9521196,
  "lon": -1.1293319
},
{
  "type": "node",
  "id": 2310056468,
  "lat": 52.9521155,
  "lon": -1.1294444
},
{
  "type": "node",
  "id": 2310056473,
  "lat": 52.9520748,
  "lon": -1.1293348
},
{
  "type": "node",
  "id": 2310056474,
  "lat": 52.9520881,
  "lon": -1.1293239
},
{
  "type": "node",
  "id": 2310056477,
  "lat": 52.9523024,
  "lon": -1.1296056
},
{
  "type": "node",
  "id": 2310056479,
  "lat": 52.9521025,
  "lon": -1.1294506
},
{
  "type": "node",
  "id": 2310056482,
  "lat": 52.9520677,
  "lon": -1.1294260
},
{
  "type": "node",
  "id": 2310056483,
  "lat": 52.9521861,
  "lon": -1.1290708
},
{
  "type": "node",
  "id": 2310056484,
  "lat": 52.9520604,
  "lon": -1.1293721
},
{
  "type": "node",
  "id": 2310056485,
  "lat": 52.9520916,
  "lon": -1.1294499
},
{
  "type": "node",
  "id": 2310056488,
  "lat": 52.9520614,
  "lon": -1.1294062
},
{
  "type": "node",
  "id": 3612851872,
  "lat": 52.9521630,
  "lon": -1.1290594
},
{
  "type": "node",
  "id": 3612851877,
  "lat": 52.9521410,
  "lon": -1.1290486
},
{
  "type": "node",
  "id": 3612851881,
  "lat": 52.9521166,
  "lon": -1.1295032
},
{
  "type": "node",
  "id": 3632467320,
  "lat": 52.9521745,
  "lon": -1.1317631
},
{
  "type": "node",
  "id": 684488378,
  "lat": 53.0622187,
  "lon": -1.1304832
},
{
  "type": "node",
  "id": 684488382,
  "lat": 53.0632822,
  "lon": -1.1302210
},
{
  "type": "node",
  "id": 684488386,
  "lat": 53.0634929,
  "lon": -1.1303102
},
{
  "type": "node",
  "id": 684488396,
  "lat": 53.0636567,
  "lon": -1.1303770
},
{
  "type": "node",
  "id": 684488398,
  "lat": 53.0638807,
  "lon": -1.1305472
},
{
  "type": "node",
  "id": 684488402,
  "lat": 53.0640648,
  "lon": -1.1325724
},
{
  "type": "node",
  "id": 684488403,
  "lat": 53.0639522,
  "lon": -1.1325987
},
{
  "type": "node",
  "id": 684488404,
  "lat": 53.0639200,
  "lon": -1.1323780
},
{
  "type": "node",
  "id": 684488406,
  "lat": 53.0624008,
  "lon": -1.1327106
},
{
  "type": "node",
  "id": 3722752312,
  "lat": 53.0623409,
  "lon": -1.1304786
},
{
  "type": "node",
  "id": 3722752333,
  "lat": 53.0625447,
  "lon": -1.1302844
},
{
  "type": "node",
  "id": 3722752347,
  "lat": 53.0626663,
  "lon": -1.1302206
},
{
  "type": "node",
  "id": 3722752361,
  "lat": 53.0628645,
  "lon": -1.1301707
},
{
  "type": "node",
  "id": 3722752387,
  "lat": 53.0630777,
  "lon": -1.1301707
},
{
  "type": "node",
  "id": 3722752478,
  "lat": 53.0638636,
  "lon": -1.1323609
},
{
  "type": "node",
  "id": 3722827230,
  "lat": 53.0623041,
  "lon": -1.1316146
},
{
  "type": "node",
  "id": 3723038885,
  "lat": 53.0622934,
  "lon": -1.1304401
},
{
  "type": "node",
  "id": 3723038886,
  "lat": 53.0623027,
  "lon": -1.1304464
},
{
  "type": "node",
  "id": 3723038887,
  "lat": 53.0623132,
  "lon": -1.1304626
},
{
  "type": "node",
  "id": 3723038888,
  "lat": 53.0623227,
  "lon": -1.1304875
},
{
  "type": "node",
  "id": 3723038889,
  "lat": 53.0623289,
  "lon": -1.1318955
},
{
  "type": "node",
  "id": 3723038891,
  "lat": 53.0623610,
  "lon": -1.1304653
},
{
  "type": "node",
  "id": 3723038893,
  "lat": 53.0623621,
  "lon": -1.1304260
},
{
  "type": "node",
  "id": 3723038896,
  "lat": 53.0623710,
  "lon": -1.1303923
},
{
  "type": "node",
  "id": 3723038899,
  "lat": 53.0624011,
  "lon": -1.1303634
},
{
  "type": "node",
  "id": 3723044926,
  "lat": 53.0627771,
  "lon": -1.1301853
},
{
  "type": "node",
  "id": 3723044947,
  "lat": 53.0631269,
  "lon": -1.1301828
},
{
  "type": "node",
  "id": 3723044962,
  "lat": 53.0635218,
  "lon": -1.1303313
},
{
  "type": "node",
  "id": 3723044965,
  "lat": 53.0635424,
  "lon": -1.1324377
},
{
  "type": "node",
  "id": 3723044966,
  "lat": 53.0635510,
  "lon": -1.1303999
},
{
  "type": "node",
  "id": 3723044971,
  "lat": 53.0635950,
  "lon": -1.1303944
},
{
  "type": "node",
  "id": 3723044973,
  "lat": 53.0636259,
  "lon": -1.1303857
},
{
  "type": "node",
  "id": 3723044997,
  "lat": 53.0639050,
  "lon": -1.1308142
},
{
  "type": "node",
  "id": 3723045002,
  "lat": 53.0639403,
  "lon": -1.1325173
},
{
  "type": "node",
  "id": 3723045004,
  "lat": 53.0639573,
  "lon": -1.1313902
},
{
  "type": "node",
  "id": 3723045007,
  "lat": 53.0639879,
  "lon": -1.1325890
},
{
  "type": "node",
  "id": 3723045008,
  "lat": 53.0640071,
  "lon": -1.1319380
},
{
  "type": "node",
  "id": 3723045009,
  "lat": 53.0640251,
  "lon": -1.1325817
},
{
  "type": "node",
  "id": 3167828991,
  "lat": 53.1407674,
  "lon": -1.1928808
},
{
  "type": "node",
  "id": 3167833093,
  "lat": 53.1404038,
  "lon": -1.1927628
},
{
  "type": "node",
  "id": 3167828992,
  "lat": 53.1407674,
  "lon": -1.1927172
},
{
  "type": "node",
  "id": 3167833094,
  "lat": 53.1404392,
  "lon": -1.1925761
},
{
  "type": "node",
  "id": 3167833095,
  "lat": 53.1407609,
  "lon": -1.1926555
},
{
  "type": "node",
  "id": 2772899462,
  "lat": 53.1959243,
  "lon": -0.9548051
},
{
  "type": "node",
  "id": 2772899463,
  "lat": 53.1964171,
  "lon": -0.9541635
},
{
  "type": "node",
  "id": 2772899464,
  "lat": 53.1965147,
  "lon": -0.9543996
},
{
  "type": "node",
  "id": 2772899465,
  "lat": 53.1963903,
  "lon": -0.9528900
},
{
  "type": "node",
  "id": 2772899466,
  "lat": 53.1963400,
  "lon": -0.9538417
},
{
  "type": "node",
  "id": 2772899467,
  "lat": 53.1963304,
  "lon": -0.9532677
},
{
  "type": "node",
  "id": 2772899468,
  "lat": 53.1965124,
  "lon": -0.9522731
},
{
  "type": "node",
  "id": 2772899469,
  "lat": 53.1963336,
  "lon": -0.9536378
},
{
  "type": "node",
  "id": 2772899470,
  "lat": 53.1957260,
  "lon": -0.9523341
},
{
  "type": "node",
  "id": 2772899471,
  "lat": 53.1965150,
  "lon": -0.9520752
},
{
  "type": "node",
  "id": 3213565023,
  "lat": 53.1963378,
  "lon": -0.9537704
},
{
  "type": "node",
  "id": 3213576958,
  "lat": 53.1963838,
  "lon": -0.9521237
},
{
  "type": "node",
  "id": 3213577065,
  "lat": 53.1957896,
  "lon": -0.9531264
},
{
  "type": "node",
  "id": 3213577066,
  "lat": 53.1963360,
  "lon": -0.9537137
},
{
  "type": "node",
  "id": 3213577067,
  "lat": 53.1957414,
  "lon": -0.9525252
}

  ]
}
