{
  "version": 0.6,
  "generator": "Overpass API 0.7.55.1011 6c2efc30",
  "osm3s": {
    "timestamp_osm_base": "2020-02-14T15:35:02Z",
    "copyright": "The data included in this document is from www.openstreetmap.org. The data is made available under ODbL."
  },
  "elements": [

{
  "type": "node",
  "id": 652425125,
  "lat": 54.8331517,
  "lon": 83.1036278,
  "tags": {
    "name": "Музей истории и культуры народов Сибири и Дальнего Востока",
    "name:en": "Museum of Siberian and Far East Ethnography",
    "tourism": "museum"
  }
},
{
  "type": "node",
  "id": 670707209,
  "lat": 55.0005011,
  "lon": 83.0179329,
  "tags": {
    "name": "Музей НГПУ",
    "tourism": "museum"
  }
},
{
  "type": "node",
  "id": 670707210,
  "lat": 55.0007140,
  "lon": 83.0184438,
  "tags": {
    "name": "Краеведческий музей",
    "tourism": "museum"
  }
},
{
  "type": "node",
  "id": 706507241,
  "lat": 54.8679988,
  "lon": 83.0850007,
  "tags": {
    "name": "Музей Солнца",
    "name:en": "Sun Museum",
    "name:ru": "Музей Солнца",
    "tourism": "museum"
  }
},
{
  "type": "node",
  "id": 894170569,
  "lat": 54.7508312,
  "lon": 83.1185981,
  "tags": {
    "name": "Музей г.Бердска",
    "tourism": "museum"
  }
},
{
  "type": "node",
  "id": 1662272658,
  "lat": 54.9872669,
  "lon": 82.8648371,
  "tags": {
    "name": "Планетарий",
    "tourism": "museum"
  }
},
{
  "type": "node",
  "id": 1779770442,
  "lat": 55.0294702,
  "lon": 82.9160877,
  "tags": {
    "name": "Музей связи Сибири",
    "name:es": "correo",
    "opening_hours": "We-Fr 10:00-18:00; Sa-Su 11:00-19:00",
    "phone": "+7 383 218 88 30",
    "tourism": "museum"
  }
},
{
  "type": "node",
  "id": 2278107290,
  "lat": 55.3046239,
  "lon": 82.7512581,
  "tags": {
    "contact:email": "kolyvan.museum@mail.ru",
    "contact:ok": "https://ok.ru/kolyvanmuseum",
    "contact:phone": "+7 38352 52269",
    "contact:vk": "https://vk.com/kolyvan_museum",
    "contact:website": "http://kolyvan-museum.ru",
    "name": "Колыванский краеведческий музей",
    "opening_hours": "Sep-May Tu-Fr, Su 09:00-13:00, 14:00-18:00; Jun-Aug Mo-Fr 09:00-13:00, 14:00-18:00",
    "start_date": "1976",
    "tourism": "museum"
  }
},
{
  "type": "node",
  "id": 4038063384,
  "lat": 55.0343912,
  "lon": 82.9099232,
  "tags": {
    "name": "Филиал Краеведческого музея",
    "name:en": "Regional museum branch",
    "tourism": "museum"
  }
},
{
  "type": "node",
  "id": 4330469712,
  "lat": 55.0731618,
  "lon": 82.9494787,
  "tags": {
    "addr:city": "Новосибирск",
    "addr:housenumber": "32",
    "addr:street": "улица Богдана Хмельницкого",
    "level": "0",
    "name": "Музей Калининского района",
    "opening_hours": "9:00-18:00",
    "phone": "+7 383 2050717",
    "tourism": "museum"
  }
},
{
  "type": "node",
  "id": 5160811221,
  "lat": 55.0079294,
  "lon": 82.6655880,
  "tags": {
    "name": "Ил-86",
    "name:en": "Airplane IL-86",
    "tourism": "museum"
  }
},
{
  "type": "node",
  "id": 5291479220,
  "lat": 54.8360755,
  "lon": 83.1019351,
  "tags": {
    "addr:full": "Новосибирск, Морской пр-т, 23",
    "email": "du-art@mail.ru",
    "image": "https://all.culture.ru/uploads/6d8dd3c3d47e7ce6c0d8553bdaa1bb35.jpg",
    "name": "Выставочный зал Дома учёных",
    "name:en": "House of Scientists Exhibition Hall",
    "official_name": "Выставочный зал Дома ученых Сибирского отделения РАН",
    "opening_hours": "Tu-Su 10:00-18:00",
    "operator": "Выставочный зал Дома ученых Сибирского отделения РАН",
    "phone": "+73833307056",
    "ref:mkrf_museums": "7481",
    "tourism": "museum",
    "website": "https://www.dusoran.ru/"
  }
},
{
  "type": "node",
  "id": 5350690121,
  "lat": 54.9815349,
  "lon": 82.7618946,
  "tags": {
    "name": "Музей тракторов",
    "opening_hours": "24/7",
    "tourism": "museum"
  }
},
{
  "type": "node",
  "id": 6170786385,
  "lat": 55.0759204,
  "lon": 83.0634388,
  "tags": {
    "addr:full": "Новосибирский район, пос. Восход, ул. Военторговская, 4/16",
    "image": "https://all.culture.ru/uploads/8c641c18f0c5dc2313052026b3126a8b.jpg",
    "name": "Музей мировой погребальной культуры",
    "official_name": "Музей мировой погребальной культуры",
    "operator": "Музей мировой погребальной культуры",
    "ref:mkrf_museums": "18176",
    "tourism": "museum",
    "website": "https://musei-smerti.ru/"
  }
},
{
  "type": "node",
  "id": 6405590185,
  "lat": 55.0401292,
  "lon": 82.8954853,
  "tags": {
    "description": "Арт-проект. Экскурсии по предварительной записи",
    "name": "Музей счастья",
    "name:en": "Museum of happiness",
    "phone": "+79059349357",
    "tourism": "museum",
    "website": "https://vk.com/happymuseum"
  }
},
{
  "type": "node",
  "id": 6442056696,
  "lat": 55.0342760,
  "lon": 82.9161151,
  "tags": {
    "name": "Музей Новосибирского дома документального кино",
    "opening_hours": "Tu-Sa 09:00-18:00",
    "tourism": "museum"
  }
},
{
  "type": "node",
  "id": 6466104186,
  "lat": 55.0227371,
  "lon": 82.9254255,
  "tags": {
    "name": "Сибирская береста",
    "opening_hours": "Tu-Sa 10:00-18:30",
    "phone": "+7 383 210 18 80",
    "tourism": "museum"
  }
},
{
  "type": "node",
  "id": 6533631186,
  "lat": 55.0218183,
  "lon": 82.9219242,
  "tags": {
    "addr:postcode": "630007",
    "name": "Новосибирский государственный художественный музей",
    "opening_hours": "Sa-Su 12:00-20:00; Tu-Fr 10:00-18:00",
    "phone": "+73832235331",
    "tourism": "museum",
    "website": "https://www.nsartmuseum.ru"
  }
},
{
  "type": "node",
  "id": 6549111536,
  "lat": 54.8414531,
  "lon": 83.1047635,
  "tags": {
    "name": "Музей науки и техники",
    "phone": "+7 (383) 330–07–53; +7–952–904–62–14",
    "tourism": "museum",
    "website": "angar15.ru",
    "wheelchair": "no"
  }
},
{
  "type": "way",
  "id": 25657749,
  "nodes": [
    279699527,
    279699531,
    279699533,
    279699536,
    280797373,
    279699527
  ],
  "tags": {
    "addr:housenumber": "23",
    "addr:street": "Красный проспект",
    "building": "yes",
    "building:levels": "2",
    "name": "Областной краеведческий музей",
    "name:en": "Novosibirsk State History Museum",
    "tourism": "museum"
  }
},
{
  "type": "way",
  "id": 48175103,
  "nodes": [
    612370006,
    899065130,
    899065339,
    899065440,
    899065563,
    899065471,
    899065205,
    612370016,
    899065461,
    899065207,
    612370029,
    899115072,
    899065671,
    899065362,
    899065545,
    899065606,
    899065182,
    612370038,
    899065418,
    612370006
  ],
  "tags": {
    "addr:housenumber": "54А",
    "addr:postcode": "630055",
    "addr:street": "Разъездная улица",
    "barrier": "fence",
    "landuse": "railway",
    "name": "Музей железнодорожной техники и автомобилей",
    "name:en": "Railroad and automobiles museum",
    "opening_hours": "Tu-Su 11:00-17:00",
    "tourism": "museum",
    "website": "http://rzd-expo.ru/museums/museum_of_western_siberian_railway/zsib_open"
  }
},
{
  "type": "way",
  "id": 48759945,
  "nodes": [
    618791070,
    618791075,
    618791071,
    618791074,
    618791076,
    618791078,
    618791077,
    618791068,
    618791072,
    618791067,
    618791073,
    618791069,
    618791070
  ],
  "tags": {
    "addr:country": "RU",
    "addr:housenumber": "71А к1",
    "addr:street": "улица Солидарности",
    "building:levels": "1",
    "name": "Музей воинской славы",
    "tourism": "museum"
  }
},
{
  "type": "way",
  "id": 52078523,
  "nodes": [
    663762931,
    663762836,
    663762817,
    663762826,
    663762814,
    663762824,
    663762834,
    663762828,
    663762832,
    663762830,
    663762838,
    663762933,
    663762931
  ],
  "tags": {
    "addr:housenumber": "39",
    "addr:street": "улица Дмитрия Шамшурина",
    "building": "yes",
    "building:levels": "2",
    "name": "Музей Западно-Сибирской железной дороги",
    "tourism": "museum",
    "website": "http://zap-sib-rail.narod.ru/index-museum.html"
  }
},
{
  "type": "way",
  "id": 52078626,
  "nodes": [
    663763903,
    663763905,
    663763895,
    663763897,
    663763903
  ],
  "tags": {
    "addr:housenumber": "23",
    "addr:street": "улица Ленина",
    "building": "yes",
    "building:levels": "1",
    "name": "Городская усадьба Ново-Николаевска",
    "opening_hours": "We-Fr 10:00-18:00; Sa-Su 11:00-19:00",
    "phone": "+7 383 222 51 73",
    "roof:shape": "hipped",
    "tourism": "museum",
    "website": "http://youmuseum.ru/"
  }
},
{
  "type": "way",
  "id": 53372140,
  "nodes": [
    2503849071,
    2503849074,
    2503849075,
    2503849077,
    674930708,
    674930709,
    674930710,
    674930711,
    674930712,
    674930713,
    674930714,
    674930715,
    674930716,
    674930717,
    674930725,
    674930727,
    674930729,
    674930718,
    674930723,
    2503849071
  ],
  "tags": {
    "building": "yes",
    "name": "Музей НАПО им. В. П. Чкалова",
    "tourism": "museum"
  }
},
{
  "type": "way",
  "id": 55480705,
  "nodes": [
    697221799,
    5530242086,
    697221802,
    697221801,
    697221800,
    697221799
  ],
  "tags": {
    "addr:city": "Новосибирск",
    "addr:housenumber": "77",
    "addr:street": "Золотодолинская улица",
    "building": "house",
    "name": "Музей СО РАН",
    "name:en": "Akademgorodok Museum",
    "tourism": "museum"
  }
},
{
  "type": "way",
  "id": 136692360,
  "nodes": [
    1499552273,
    1499552270,
    3567129629,
    3567129630,
    3567129631,
    3567129628,
    1499552271,
    1499552272,
    3567129632,
    3567129635,
    3567129634,
    3567129633,
    1499552273
  ],
  "tags": {
    "building": "yes",
    "name": "Спасо-Зашиверская церковь",
    "tourism": "museum"
  }
},
{
  "type": "way",
  "id": 164581896,
  "nodes": [
    1762010377,
    1762010372,
    1762010374,
    1762010364,
    1762010361,
    1762010376,
    1762010380,
    1762010382,
    1762010378,
    1762010377
  ],
  "tags": {
    "addr:housenumber": "24",
    "addr:street": "Советская улица",
    "building": "yes",
    "building:levels": "2",
    "name": "Музей Новосибирска",
    "tourism": "museum"
  }
},
{
  "type": "way",
  "id": 165176506,
  "nodes": [
    1767387293,
    1767387338,
    1767387316,
    1767387255,
    1767387293
  ],
  "tags": {
    "addr:city": "Новосибирск",
    "addr:housenumber": "12А",
    "addr:postcode": "630056",
    "addr:street": "Новоморская улица",
    "building": "yes",
    "building:levels": "1",
    "name": "Музей Советского района",
    "tourism": "museum"
  }
},
{
  "type": "way",
  "id": 661391610,
  "nodes": [
    6191972259,
    6191972523,
    6191972260,
    6191972526,
    6191972261,
    6191972262,
    6191972259
  ],
  "tags": {
    "addr:city": "Новосибирск",
    "addr:housenumber": "38",
    "addr:street": "Коммунистическая улица",
    "building": "yes",
    "name": "Музей Н. К. Рериха",
    "tourism": "museum"
  }
},
{
  "type": "relation",
  "id": 6664787,
  "members": [
    {
      "type": "way",
      "ref": 51655448,
      "role": "outer"
    },
    {
      "type": "way",
      "ref": 449152480,
      "role": "outer"
    },
    {
      "type": "way",
      "ref": 449152479,
      "role": "outer"
    }
  ],
  "tags": {
    "barrier": "fence",
    "name": "Историко-архитектурный музей под открытым небом",
    "name:en": "Open-air Museum of History and Architecture",
    "name:ru": "Историко-архитектурный музей под открытым небом",
    "tourism": "museum",
    "type": "multipolygon"
  }
},
{
  "type": "node",
  "id": 1767387255,
  "lat": 54.8506614,
  "lon": 82.9749697
},
{
  "type": "node",
  "id": 1767387293,
  "lat": 54.8507217,
  "lon": 82.9748731
},
{
  "type": "node",
  "id": 1767387338,
  "lat": 54.8508502,
  "lon": 82.9751149
},
{
  "type": "node",
  "id": 1767387316,
  "lat": 54.8507899,
  "lon": 82.9752116
},
{
  "type": "node",
  "id": 697221799,
  "lat": 54.8261877,
  "lon": 83.1007072
},
{
  "type": "node",
  "id": 697221800,
  "lat": 54.8260396,
  "lon": 83.1005761
},
{
  "type": "node",
  "id": 697221801,
  "lat": 54.8259770,
  "lon": 83.1007892
},
{
  "type": "node",
  "id": 697221802,
  "lat": 54.8261252,
  "lon": 83.1009203
},
{
  "type": "node",
  "id": 5530242086,
  "lat": 54.8261565,
  "lon": 83.1008138
},
{
  "type": "node",
  "id": 659658549,
  "lat": 54.8488938,
  "lon": 83.1764445
},
{
  "type": "node",
  "id": 1499552270,
  "lat": 54.8494391,
  "lon": 83.1773262
},
{
  "type": "node",
  "id": 1499552271,
  "lat": 54.8493380,
  "lon": 83.1773216
},
{
  "type": "node",
  "id": 1499552272,
  "lat": 54.8493362,
  "lon": 83.1775365
},
{
  "type": "node",
  "id": 1499552273,
  "lat": 54.8494374,
  "lon": 83.1775339
},
{
  "type": "node",
  "id": 3567129628,
  "lat": 54.8493843,
  "lon": 83.1773227
},
{
  "type": "node",
  "id": 3567129629,
  "lat": 54.8493984,
  "lon": 83.1773251
},
{
  "type": "node",
  "id": 3567129630,
  "lat": 54.8493989,
  "lon": 83.1772638
},
{
  "type": "node",
  "id": 3567129631,
  "lat": 54.8493848,
  "lon": 83.1772635
},
{
  "type": "node",
  "id": 3567129632,
  "lat": 54.8493690,
  "lon": 83.1775373
},
{
  "type": "node",
  "id": 3567129633,
  "lat": 54.8494178,
  "lon": 83.1775335
},
{
  "type": "node",
  "id": 3567129634,
  "lat": 54.8494175,
  "lon": 83.1775727
},
{
  "type": "node",
  "id": 3567129635,
  "lat": 54.8493687,
  "lon": 83.1775715
},
{
  "type": "node",
  "id": 3567129730,
  "lat": 54.8489926,
  "lon": 83.1773082
},
{
  "type": "node",
  "id": 3567129731,
  "lat": 54.8490698,
  "lon": 83.1779841
},
{
  "type": "node",
  "id": 3567129745,
  "lat": 54.8489555,
  "lon": 83.1762729
},
{
  "type": "node",
  "id": 3567129746,
  "lat": 54.8495979,
  "lon": 83.1768737
},
{
  "type": "node",
  "id": 3567129747,
  "lat": 54.8493107,
  "lon": 83.1765357
},
{
  "type": "node",
  "id": 3567129748,
  "lat": 54.8491069,
  "lon": 83.1762407
},
{
  "type": "node",
  "id": 3567129749,
  "lat": 54.8490173,
  "lon": 83.1761978
},
{
  "type": "node",
  "id": 3567129750,
  "lat": 54.8502928,
  "lon": 83.1759856
},
{
  "type": "node",
  "id": 3567129751,
  "lat": 54.8501415,
  "lon": 83.1749425
},
{
  "type": "node",
  "id": 3567129752,
  "lat": 54.8496165,
  "lon": 83.1754629
},
{
  "type": "node",
  "id": 3567129753,
  "lat": 54.8497740,
  "lon": 83.1764660
},
{
  "type": "node",
  "id": 6062389145,
  "lat": 54.8503522,
  "lon": 83.1759573
},
{
  "type": "node",
  "id": 659658548,
  "lat": 54.8506562,
  "lon": 83.1758126
},
{
  "type": "node",
  "id": 3567129705,
  "lat": 54.8507608,
  "lon": 83.1765664
},
{
  "type": "node",
  "id": 3567129719,
  "lat": 54.8491038,
  "lon": 83.1808380
},
{
  "type": "node",
  "id": 3567129720,
  "lat": 54.8490266,
  "lon": 83.1815676
},
{
  "type": "node",
  "id": 3567129721,
  "lat": 54.8492366,
  "lon": 83.1823722
},
{
  "type": "node",
  "id": 3567129722,
  "lat": 54.8495825,
  "lon": 83.1832949
},
{
  "type": "node",
  "id": 3567129723,
  "lat": 54.8498450,
  "lon": 83.1836865
},
{
  "type": "node",
  "id": 3567129724,
  "lat": 54.8503114,
  "lon": 83.1834773
},
{
  "type": "node",
  "id": 3567129726,
  "lat": 54.8499716,
  "lon": 83.1836436
},
{
  "type": "node",
  "id": 3567129727,
  "lat": 54.8498821,
  "lon": 83.1836811
},
{
  "type": "node",
  "id": 3567129728,
  "lat": 54.8502064,
  "lon": 83.1834934
},
{
  "type": "node",
  "id": 3567129729,
  "lat": 54.8497802,
  "lon": 83.1836329
},
{
  "type": "node",
  "id": 3567129732,
  "lat": 54.8490358,
  "lon": 83.1785528
},
{
  "type": "node",
  "id": 3567129733,
  "lat": 54.8488320,
  "lon": 83.1790516
},
{
  "type": "node",
  "id": 3567129734,
  "lat": 54.8488042,
  "lon": 83.1796149
},
{
  "type": "node",
  "id": 3567129735,
  "lat": 54.8488567,
  "lon": 83.1800816
},
{
  "type": "node",
  "id": 659658550,
  "lat": 54.8514074,
  "lon": 83.1808080
},
{
  "type": "node",
  "id": 659658551,
  "lat": 54.8506109,
  "lon": 83.1836168
},
{
  "type": "node",
  "id": 659658552,
  "lat": 54.8511309,
  "lon": 83.1790961
},
{
  "type": "node",
  "id": 3567129716,
  "lat": 54.8518771,
  "lon": 83.1844214
},
{
  "type": "node",
  "id": 3567129717,
  "lat": 54.8512533,
  "lon": 83.1847755
},
{
  "type": "node",
  "id": 3567129718,
  "lat": 54.8510711,
  "lon": 83.1845555
},
{
  "type": "node",
  "id": 3567129725,
  "lat": 54.8504812,
  "lon": 83.1834827
},
{
  "type": "node",
  "id": 612370029,
  "lat": 54.8655062,
  "lon": 83.0766518
},
{
  "type": "node",
  "id": 612370038,
  "lat": 54.8655812,
  "lon": 83.0759737
},
{
  "type": "node",
  "id": 899065182,
  "lat": 54.8655721,
  "lon": 83.0763175
},
{
  "type": "node",
  "id": 899065207,
  "lat": 54.8674586,
  "lon": 83.0768126
},
{
  "type": "node",
  "id": 899065362,
  "lat": 54.8644718,
  "lon": 83.0766128
},
{
  "type": "node",
  "id": 899065418,
  "lat": 54.8687360,
  "lon": 83.0762558
},
{
  "type": "node",
  "id": 899065461,
  "lat": 54.8674565,
  "lon": 83.0768698
},
{
  "type": "node",
  "id": 899065545,
  "lat": 54.8644801,
  "lon": 83.0762545
},
{
  "type": "node",
  "id": 899065606,
  "lat": 54.8654449,
  "lon": 83.0763102
},
{
  "type": "node",
  "id": 899065671,
  "lat": 54.8655052,
  "lon": 83.0765844
},
{
  "type": "node",
  "id": 899115072,
  "lat": 54.8655060,
  "lon": 83.0766187
},
{
  "type": "node",
  "id": 612370006,
  "lat": 54.8702721,
  "lon": 83.0764097
},
{
  "type": "node",
  "id": 612370016,
  "lat": 54.8702415,
  "lon": 83.0770532
},
{
  "type": "node",
  "id": 899065130,
  "lat": 54.8702688,
  "lon": 83.0764797
},
{
  "type": "node",
  "id": 899065205,
  "lat": 54.8702459,
  "lon": 83.0769617
},
{
  "type": "node",
  "id": 899065339,
  "lat": 54.8702626,
  "lon": 83.0765944
},
{
  "type": "node",
  "id": 899065440,
  "lat": 54.8702599,
  "lon": 83.0766666
},
{
  "type": "node",
  "id": 899065471,
  "lat": 54.8702514,
  "lon": 83.0768451
},
{
  "type": "node",
  "id": 899065563,
  "lat": 54.8702564,
  "lon": 83.0767389
},
{
  "type": "node",
  "id": 663762814,
  "lat": 55.0331393,
  "lon": 82.8983010
},
{
  "type": "node",
  "id": 663762817,
  "lat": 55.0331551,
  "lon": 82.8985938
},
{
  "type": "node",
  "id": 663762824,
  "lat": 55.0328745,
  "lon": 82.8985835
},
{
  "type": "node",
  "id": 663762826,
  "lat": 55.0332183,
  "lon": 82.8985264
},
{
  "type": "node",
  "id": 663762828,
  "lat": 55.0330160,
  "lon": 82.8987720
},
{
  "type": "node",
  "id": 663762830,
  "lat": 55.0329525,
  "lon": 82.8991054
},
{
  "type": "node",
  "id": 663762832,
  "lat": 55.0330837,
  "lon": 82.8989654
},
{
  "type": "node",
  "id": 663762834,
  "lat": 55.0329611,
  "lon": 82.8988306
},
{
  "type": "node",
  "id": 663762836,
  "lat": 55.0332378,
  "lon": 82.8988298
},
{
  "type": "node",
  "id": 663762838,
  "lat": 55.0330430,
  "lon": 82.8993637
},
{
  "type": "node",
  "id": 663762931,
  "lat": 55.0333501,
  "lon": 82.8987100
},
{
  "type": "node",
  "id": 663762933,
  "lat": 55.0334333,
  "lon": 82.8989474
},
{
  "type": "node",
  "id": 663763895,
  "lat": 55.0298630,
  "lon": 82.9051187
},
{
  "type": "node",
  "id": 663763897,
  "lat": 55.0298262,
  "lon": 82.9050088
},
{
  "type": "node",
  "id": 663763903,
  "lat": 55.0299088,
  "lon": 82.9049245
},
{
  "type": "node",
  "id": 663763905,
  "lat": 55.0299456,
  "lon": 82.9050344
},
{
  "type": "node",
  "id": 1762010361,
  "lat": 55.0330122,
  "lon": 82.9158231
},
{
  "type": "node",
  "id": 1762010364,
  "lat": 55.0330373,
  "lon": 82.9160943
},
{
  "type": "node",
  "id": 1762010372,
  "lat": 55.0331158,
  "lon": 82.9160004
},
{
  "type": "node",
  "id": 1762010374,
  "lat": 55.0331223,
  "lon": 82.9160703
},
{
  "type": "node",
  "id": 1762010376,
  "lat": 55.0331665,
  "lon": 82.9157795
},
{
  "type": "node",
  "id": 1762010377,
  "lat": 55.0332327,
  "lon": 82.9159674
},
{
  "type": "node",
  "id": 1762010378,
  "lat": 55.0332397,
  "lon": 82.9160428
},
{
  "type": "node",
  "id": 1762010380,
  "lat": 55.0332985,
  "lon": 82.9157422
},
{
  "type": "node",
  "id": 1762010382,
  "lat": 55.0333242,
  "lon": 82.9160189
},
{
  "type": "node",
  "id": 6191972259,
  "lat": 55.0228339,
  "lon": 82.9197766
},
{
  "type": "node",
  "id": 6191972260,
  "lat": 55.0226827,
  "lon": 82.9198196
},
{
  "type": "node",
  "id": 6191972261,
  "lat": 55.0227422,
  "lon": 82.9204491
},
{
  "type": "node",
  "id": 6191972262,
  "lat": 55.0228939,
  "lon": 82.9204050
},
{
  "type": "node",
  "id": 6191972523,
  "lat": 55.0227968,
  "lon": 82.9197874
},
{
  "type": "node",
  "id": 6191972526,
  "lat": 55.0227025,
  "lon": 82.9200342
},
{
  "type": "node",
  "id": 279699527,
  "lat": 55.0292997,
  "lon": 82.9203106
},
{
  "type": "node",
  "id": 279699531,
  "lat": 55.0292671,
  "lon": 82.9199416
},
{
  "type": "node",
  "id": 279699533,
  "lat": 55.0282411,
  "lon": 82.9202176
},
{
  "type": "node",
  "id": 279699536,
  "lat": 55.0282738,
  "lon": 82.9205867
},
{
  "type": "node",
  "id": 280797373,
  "lat": 55.0292660,
  "lon": 82.9203197
},
{
  "type": "node",
  "id": 674930709,
  "lat": 55.0651358,
  "lon": 82.9882140
},
{
  "type": "node",
  "id": 674930710,
  "lat": 55.0650889,
  "lon": 82.9881662
},
{
  "type": "node",
  "id": 674930711,
  "lat": 55.0650359,
  "lon": 82.9881459
},
{
  "type": "node",
  "id": 674930712,
  "lat": 55.0649818,
  "lon": 82.9881551
},
{
  "type": "node",
  "id": 674930713,
  "lat": 55.0649320,
  "lon": 82.9881928
},
{
  "type": "node",
  "id": 674930708,
  "lat": 55.0651720,
  "lon": 82.9882846
},
{
  "type": "node",
  "id": 674930714,
  "lat": 55.0648913,
  "lon": 82.9882554
},
{
  "type": "node",
  "id": 674930715,
  "lat": 55.0648635,
  "lon": 82.9883369
},
{
  "type": "node",
  "id": 674930716,
  "lat": 55.0648512,
  "lon": 82.9884381
},
{
  "type": "node",
  "id": 674930717,
  "lat": 55.0648589,
  "lon": 82.9885407
},
{
  "type": "node",
  "id": 674930718,
  "lat": 55.0650424,
  "lon": 82.9887533
},
{
  "type": "node",
  "id": 674930723,
  "lat": 55.0650995,
  "lon": 82.9887260
},
{
  "type": "node",
  "id": 674930725,
  "lat": 55.0648859,
  "lon": 82.9886329
},
{
  "type": "node",
  "id": 674930727,
  "lat": 55.0649290,
  "lon": 82.9887039
},
{
  "type": "node",
  "id": 674930729,
  "lat": 55.0649833,
  "lon": 82.9887457
},
{
  "type": "node",
  "id": 2503849071,
  "lat": 55.0651481,
  "lon": 82.9886668
},
{
  "type": "node",
  "id": 2503849074,
  "lat": 55.0651826,
  "lon": 82.9885826
},
{
  "type": "node",
  "id": 2503849075,
  "lat": 55.0651990,
  "lon": 82.9884831
},
{
  "type": "node",
  "id": 2503849077,
  "lat": 55.0651953,
  "lon": 82.9883798
},
{
  "type": "node",
  "id": 618791067,
  "lat": 55.1588205,
  "lon": 82.9594411
},
{
  "type": "node",
  "id": 618791068,
  "lat": 55.1588407,
  "lon": 82.9593498
},
{
  "type": "node",
  "id": 618791069,
  "lat": 55.1586651,
  "lon": 82.9595457
},
{
  "type": "node",
  "id": 618791070,
  "lat": 55.1586115,
  "lon": 82.9596394
},
{
  "type": "node",
  "id": 618791071,
  "lat": 55.1588532,
  "lon": 82.9598657
},
{
  "type": "node",
  "id": 618791072,
  "lat": 55.1588045,
  "lon": 82.9594130
},
{
  "type": "node",
  "id": 618791073,
  "lat": 55.1587128,
  "lon": 82.9596293
},
{
  "type": "node",
  "id": 618791074,
  "lat": 55.1588213,
  "lon": 82.9598098
},
{
  "type": "node",
  "id": 618791075,
  "lat": 55.1587969,
  "lon": 82.9599643
},
{
  "type": "node",
  "id": 618791076,
  "lat": 55.1589267,
  "lon": 82.9596256
},
{
  "type": "node",
  "id": 618791077,
  "lat": 55.1589718,
  "lon": 82.9595796
},
{
  "type": "node",
  "id": 618791078,
  "lat": 55.1589361,
  "lon": 82.9596421
},
{
  "type": "way",
  "id": 449152480,
  "nodes": [
    3567129750,
    3567129751,
    3567129752,
    3567129753
  ]
},
{
  "type": "way",
  "id": 51655448,
  "nodes": [
    659658548,
    6062389145,
    3567129750
  ]
},
{
  "type": "way",
  "id": 449152479,
  "nodes": [
    3567129753,
    3567129746,
    3567129747,
    3567129748,
    3567129749,
    3567129745,
    659658549,
    3567129730,
    3567129731,
    3567129732,
    3567129733,
    3567129734,
    3567129735,
    3567129719,
    3567129720,
    3567129721,
    3567129722,
    3567129729,
    3567129723,
    3567129727,
    3567129726,
    3567129728,
    3567129724,
    3567129725,
    659658551,
    3567129718,
    3567129717,
    3567129716,
    659658550,
    659658552,
    3567129705,
    659658548
  ]
}

  ]
}
