{
  "version": 0.6,
  "generator": "Overpass API 0.7.55.1011 6c2efc30",
  "osm3s": {
    "timestamp_osm_base": "2020-02-14T19:18:02Z",
    "copyright": "The data included in this document is from www.openstreetmap.org. The data is made available under ODbL."
  },
  "elements": [

{
  "type": "node",
  "id": 1744041858,
  "lat": 41.6519358,
  "lon": 41.6393664,
  "tags": {
    "addr:housenumber": "9",
    "name": "მემედ აბაშიძის სახლ-მუზეუმი",
    "name:en": "Memed Abashidze House-Museum",
    "name:ka": "მემედ აბაშიძის სახლ-მუზეუმი",
    "name:ru": "Дом-музей Мемеда Абашидзе",
    "opening_hours": "Tu-Sa 10:00-17:00",
    "tourism": "museum"
  }
},
{
  "type": "node",
  "id": 4181937896,
  "lat": 41.4894200,
  "lon": 41.8586847,
  "tags": {
    "name": "ზედა ჩხუტუნეთის მაჭახლის ისტორიულ-ეთნოგრაფიული მუზეუმი",
    "tourism": "museum"
  }
},
{
  "type": "node",
  "id": 4341773490,
  "lat": 41.4981930,
  "lon": 41.8361874,
  "tags": {
    "name": "ეთნოგრაფიული მუზეუმი Ethnographic Museum Этнографический Музей",
    "tourism": "museum"
  }
},
{
  "type": "node",
  "id": 4646165289,
  "lat": 41.5637946,
  "lon": 41.6713677,
  "tags": {
    "name": "ისტორიული ხიდი XII საუკუნის",
    "name:en": "Historical Bridge of the XII Century",
    "name:ka": "ისტორიული ხიდი XII საუკუნის",
    "name:ru": "Мост Махо (XII век)",
    "tourism": "museum"
  }
},
{
  "type": "way",
  "id": 96037255,
  "nodes": [
    1112721302,
    1112721305,
    1112721304,
    4395066611,
    1112721254,
    1112721302
  ],
  "tags": {
    "addr:housenumber": "8",
    "addr:street": "ზურაბ გორგილაძის ქუჩა",
    "building": "yes",
    "name": "ხელოვნების მუზეუმი",
    "name:en": "Art Museum",
    "name:ka": "ხელოვნების მუზეუმი",
    "name:ru": "Государственный музей искусств Аджарии",
    "opening_hours": "Tu-Su 11:00-18:00",
    "tourism": "museum",
    "wikidata": "Q7603037"
  }
},
{
  "type": "way",
  "id": 159655038,
  "nodes": [
    1717711154,
    1717711148,
    1717711153,
    1717711160,
    1717711154
  ],
  "tags": {
    "addr:housenumber": "77",
    "addr:street": "ჭავჭავაძის ქუჩა",
    "building": "yes",
    "building:levels": "3",
    "name": "არქეოლოგიური მუზეუმი",
    "name:en": "Archeological museum",
    "name:ru": "Батумский археологический музей",
    "name:tr": "Arkeoloji Müzesi",
    "opening_hours": "Mo-Su 10:00-18:00",
    "tourism": "museum",
    "website": "http://www.bam.ge",
    "wikidata": "Q4873352"
  }
},
{
  "type": "way",
  "id": 175045380,
  "nodes": [
    1856953750,
    1856953568,
    1856953598,
    1856953595,
    1856953545,
    1856953566,
    1856953618,
    1856953750
  ],
  "tags": {
    "building": "yes",
    "building:levels": "1",
    "name:ru": "Архитектурно-археологически музей-заповедник Гонио-Апсарос",
    "tourism": "museum"
  }
},
{
  "type": "way",
  "id": 278000635,
  "nodes": [
    2824322107,
    2824322108,
    2824322109,
    2824322110,
    2824322111,
    2824322112,
    2824322107
  ],
  "tags": {
    "addr:housenumber": "3",
    "addr:street": "ლესელიძე (ბენზე)",
    "building": "yes",
    "building:levels": "2",
    "name:en": "Nobel Brothers Batumi Technological Museum",
    "name:ka": "თამარის დასახლება ბათუმი",
    "name:ru": "Технологический музей братьев Нобель",
    "opening_hours": "Tu-Su 10:00-18:00",
    "tourism": "museum"
  }
},
{
  "type": "way",
  "id": 322842480,
  "nodes": [
    3296380535,
    3296380536,
    3296380537,
    3296380538,
    3296380539,
    3296380540,
    3296380541,
    3296380542,
    3296380535
  ],
  "tags": {
    "addr:housenumber": "4",
    "addr:street": "ხარიტონ ახვლედიანის ქუჩა",
    "building": "yes",
    "building:levels": "2",
    "name:en": "Museum of Adjara",
    "name:ru": "Батумский краеведческий музей",
    "tourism": "museum"
  }
},
{
  "type": "way",
  "id": 405852447,
  "nodes": [
    4080074531,
    4080074532,
    4080074524,
    4080074522,
    4080074525,
    4080074519,
    4080074520,
    4080074521,
    4080074526,
    4080074527,
    4080074530,
    4080074529,
    4080074523,
    4080074528,
    4080074531
  ],
  "tags": {
    "addr:housenumber": "51",
    "addr:street": "რუსთაველის გამზირი",
    "building": "yes",
    "building:levels": "2",
    "name": "აკვარიუმი",
    "name:ru": "Батумский аквариум",
    "opening_hours": "Mo-Su 11:00-14:00, 15:00-19:00",
    "tourism": "museum"
  }
},
{
  "type": "way",
  "id": 425222322,
  "nodes": [
    2545355905,
    4245256432,
    4245256431,
    4245256430,
    2545355905
  ],
  "tags": {
    "building": "yes",
    "name": "Ethnographic Corner",
    "name:en": "Ethnographic Corner",
    "name:ru": "Этнографический уголок",
    "opening_hours": "24/7",
    "tourism": "museum"
  }
},
{
  "type": "node",
  "id": 1856953545,
  "lat": 41.5728909,
  "lon": 41.5734431
},
{
  "type": "node",
  "id": 1856953566,
  "lat": 41.5728915,
  "lon": 41.5734263
},
{
  "type": "node",
  "id": 1856953568,
  "lat": 41.5730451,
  "lon": 41.5733700
},
{
  "type": "node",
  "id": 1856953595,
  "lat": 41.5729909,
  "lon": 41.5734497
},
{
  "type": "node",
  "id": 1856953598,
  "lat": 41.5729940,
  "lon": 41.5733666
},
{
  "type": "node",
  "id": 1856953618,
  "lat": 41.5728975,
  "lon": 41.5732628
},
{
  "type": "node",
  "id": 1856953750,
  "lat": 41.5730487,
  "lon": 41.5732728
},
{
  "type": "node",
  "id": 1717711148,
  "lat": 41.6429791,
  "lon": 41.6320034
},
{
  "type": "node",
  "id": 1717711153,
  "lat": 41.6431293,
  "lon": 41.6324539
},
{
  "type": "node",
  "id": 1717711154,
  "lat": 41.6431712,
  "lon": 41.6318887
},
{
  "type": "node",
  "id": 1717711160,
  "lat": 41.6433214,
  "lon": 41.6323391
},
{
  "type": "node",
  "id": 4080074519,
  "lat": 41.6471762,
  "lon": 41.6223492
},
{
  "type": "node",
  "id": 4080074520,
  "lat": 41.6472770,
  "lon": 41.6222686
},
{
  "type": "node",
  "id": 4080074521,
  "lat": 41.6473081,
  "lon": 41.6223383
},
{
  "type": "node",
  "id": 4080074522,
  "lat": 41.6473471,
  "lon": 41.6228936
},
{
  "type": "node",
  "id": 4080074523,
  "lat": 41.6473593,
  "lon": 41.6224527
},
{
  "type": "node",
  "id": 4080074524,
  "lat": 41.6473799,
  "lon": 41.6229671
},
{
  "type": "node",
  "id": 4080074525,
  "lat": 41.6474003,
  "lon": 41.6228511
},
{
  "type": "node",
  "id": 4080074526,
  "lat": 41.6474514,
  "lon": 41.6222237
},
{
  "type": "node",
  "id": 4080074527,
  "lat": 41.6474862,
  "lon": 41.6222384
},
{
  "type": "node",
  "id": 4080074528,
  "lat": 41.6475013,
  "lon": 41.6227706
},
{
  "type": "node",
  "id": 4080074529,
  "lat": 41.6475025,
  "lon": 41.6223382
},
{
  "type": "node",
  "id": 4080074530,
  "lat": 41.6475105,
  "lon": 41.6222916
},
{
  "type": "node",
  "id": 4080074531,
  "lat": 41.6475455,
  "lon": 41.6227353
},
{
  "type": "node",
  "id": 4080074532,
  "lat": 41.6475782,
  "lon": 41.6228085
},
{
  "type": "node",
  "id": 1112721254,
  "lat": 41.6484610,
  "lon": 41.6338810
},
{
  "type": "node",
  "id": 1112721302,
  "lat": 41.6486802,
  "lon": 41.6337098
},
{
  "type": "node",
  "id": 1112721304,
  "lat": 41.6485550,
  "lon": 41.6340966
},
{
  "type": "node",
  "id": 1112721305,
  "lat": 41.6487742,
  "lon": 41.6339254
},
{
  "type": "node",
  "id": 3296380535,
  "lat": 41.6474991,
  "lon": 41.6333676
},
{
  "type": "node",
  "id": 3296380536,
  "lat": 41.6472868,
  "lon": 41.6335340
},
{
  "type": "node",
  "id": 3296380537,
  "lat": 41.6471424,
  "lon": 41.6332040
},
{
  "type": "node",
  "id": 3296380538,
  "lat": 41.6473445,
  "lon": 41.6330456
},
{
  "type": "node",
  "id": 3296380539,
  "lat": 41.6473783,
  "lon": 41.6331230
},
{
  "type": "node",
  "id": 3296380540,
  "lat": 41.6473334,
  "lon": 41.6331583
},
{
  "type": "node",
  "id": 3296380541,
  "lat": 41.6473914,
  "lon": 41.6332908
},
{
  "type": "node",
  "id": 3296380542,
  "lat": 41.6474465,
  "lon": 41.6332475
},
{
  "type": "node",
  "id": 4395066611,
  "lat": 41.6485106,
  "lon": 41.6339947
},
{
  "type": "node",
  "id": 2824322107,
  "lat": 41.6618434,
  "lon": 41.6805133
},
{
  "type": "node",
  "id": 2824322108,
  "lat": 41.6617864,
  "lon": 41.6806007
},
{
  "type": "node",
  "id": 2824322109,
  "lat": 41.6617228,
  "lon": 41.6805263
},
{
  "type": "node",
  "id": 2824322110,
  "lat": 41.6616716,
  "lon": 41.6806048
},
{
  "type": "node",
  "id": 2824322111,
  "lat": 41.6616078,
  "lon": 41.6805302
},
{
  "type": "node",
  "id": 2824322112,
  "lat": 41.6617161,
  "lon": 41.6803644
},
{
  "type": "node",
  "id": 2545355905,
  "lat": 41.6990338,
  "lon": 41.7183823
},
{
  "type": "node",
  "id": 4245256430,
  "lat": 41.6989724,
  "lon": 41.7184592
},
{
  "type": "node",
  "id": 4245256431,
  "lat": 41.6990246,
  "lon": 41.7185340
},
{
  "type": "node",
  "id": 4245256432,
  "lat": 41.6990860,
  "lon": 41.7184571
}

  ]
}
