{
  "version": 0.6,
  "generator": "Overpass API 0.7.55.9 ab41fea6",
  "osm3s": {
    "timestamp_osm_base": "2020-02-14T10:13:02Z",
    "copyright": "The data included in this document is from www.openstreetmap.org. The data is made available under ODbL."
  },
  "elements": [

{
  "type": "node",
  "id": 27147696,
  "lat": 52.0213587,
  "lon": 8.9162915,
  "tags": {
    "name": "Weserrenaissance-Museum",
    "tourism": "museum",
    "wheelchair": "limited",
    "wikidata": "Q2563882"
  }
},
{
  "type": "node",
  "id": 60602955,
  "lat": 52.3135974,
  "lon": 9.3566514,
  "tags": {
    "name": "Heimatmuseum Rodenberg",
    "tourism": "museum"
  }
},
{
  "type": "node",
  "id": 263685934,
  "lat": 52.1046477,
  "lon": 9.3584105,
  "tags": {
    "name": "Museum Hameln",
    "toilets:wheelchair": "yes",
    "tourism": "museum",
    "wheelchair": "yes",
    "wikidata": "Q15216023",
    "wikipedia": "de:Museum Hameln"
  }
},
{
  "type": "node",
  "id": 269119656,
  "lat": 52.1662544,
  "lon": 9.1047815,
  "tags": {
    "name": "Industriemuseeum Unterer Eisenhammer",
    "tourism": "museum",
    "website": "http://www.heimatverein-exten.de/index.php/museumsstandorte/industriemuseum-unterer-eisenhammer",
    "wheelchair": "no"
  }
},
{
  "type": "node",
  "id": 274245242,
  "lat": 51.9103328,
  "lon": 9.1444870,
  "tags": {
    "name": "Papiermühle Plöger",
    "opening_hours": "May-Oct: Sa 10:00-17:00;Su 10:00-12:00,15:00-17:00",
    "tourism": "museum",
    "website": "http://www.papiermuehle-ploeger.de/",
    "wheelchair": "no",
    "wikidata": "Q2050734"
  }
},
{
  "type": "node",
  "id": 299063140,
  "lat": 52.1141992,
  "lon": 9.6255136,
  "tags": {
    "name": "Besucherbergwerk",
    "tourism": "museum",
    "wikidata": "Q1652622",
    "wikipedia": "de:Hüttenstollen Osterwald"
  }
},
{
  "type": "node",
  "id": 300151939,
  "lat": 51.9862305,
  "lon": 9.8264626,
  "tags": {
    "name": "Heimatmuseum \"Alte Lateinschule\"",
    "tourism": "museum",
    "wheelchair": "no"
  }
},
{
  "type": "node",
  "id": 330807608,
  "lat": 51.9835347,
  "lon": 9.2483643,
  "tags": {
    "addr:city": "Bad Pyrmont",
    "addr:housenumber": "13",
    "addr:postcode": "31812",
    "addr:street": "Schloßstraße",
    "name": "Museum im Schloss",
    "phone": "+49 5281 606771",
    "toilets:wheelchair": "yes",
    "tourism": "museum",
    "website": "https://www.museum-pyrmont.de/",
    "wheelchair": "yes",
    "wikidata": "Q76635734"
  }
},
{
  "type": "node",
  "id": 499040266,
  "lat": 52.1206917,
  "lon": 9.0058031,
  "tags": {
    "contact:fax": "+49 5264 644100",
    "contact:phone": "+49 5264 6440",
    "contact:website": "http://www.museumsverein-kalletal.de/index_2.htm",
    "name": "Wald- und Forstmuseum",
    "opening_hours": "Sa 13:00-18:00; Su,PH 10:00-18:00; Nov 02-easter -2 days off",
    "tourism": "museum",
    "wikidata": "Q2541027"
  }
},
{
  "type": "node",
  "id": 506158476,
  "lat": 52.1211908,
  "lon": 9.7396205,
  "tags": {
    "addr:housenumber": "14",
    "addr:postcode": "31008",
    "addr:street": "Mühlenstraße",
    "name": "Heimatmuseum Elze",
    "opening_hours": "Su 15:00-17:00; Tu 10:00-12:00; \"und nach Vereinbarung\"",
    "operator": "Stadt Elze",
    "tourism": "museum",
    "wikidata": "Q76635950"
  }
},
{
  "type": "node",
  "id": 564577444,
  "lat": 52.1991262,
  "lon": 9.4636932,
  "tags": {
    "name": "Heimatmuseum",
    "tourism": "museum",
    "website": "http://www.museum-badmuender.de/museum-im-wettbergschen-adelshof.html"
  }
},
{
  "type": "node",
  "id": 620775843,
  "lat": 51.8573853,
  "lon": 9.4963566,
  "tags": {
    "addr:city": "Bevern",
    "addr:country": "DE",
    "addr:housenumber": "1",
    "addr:postcode": "37639",
    "addr:street": "Schloss",
    "historic": "castle",
    "name": "Weserrenaissance Schloß Bevern",
    "phone": "+49 5531 994010",
    "tourism": "museum",
    "wheelchair": "limited",
    "wikidata": "Q56006",
    "wikipedia": "de:Schloss Bevern"
  }
},
{
  "type": "node",
  "id": 690116811,
  "lat": 52.2703250,
  "lon": 9.1279504,
  "tags": {
    "name": "Stadtmuseum",
    "tourism": "museum"
  }
},
{
  "type": "node",
  "id": 884736808,
  "lat": 51.9185089,
  "lon": 9.6646420,
  "tags": {
    "addr:city": "Wickensen",
    "addr:housenumber": "16",
    "addr:postcode": "37632",
    "addr:street": "Wickensen",
    "name": "Motorradmuseum Gut Wickensen",
    "opening_hours": "Fr-Su,PH 11:00-18:00",
    "tourism": "museum",
    "wheelchair": "limited"
  }
},
{
  "type": "node",
  "id": 999108316,
  "lat": 52.2314660,
  "lon": 9.2798929,
  "tags": {
    "name": "Heimatmuseum Auetal",
    "tourism": "museum",
    "wikidata": "Q76635659"
  }
},
{
  "type": "node",
  "id": 1340348896,
  "lat": 51.9843308,
  "lon": 9.8116789,
  "tags": {
    "name": "Fagus-Gropius-Ausstellung",
    "opening_hours": "Mo-Fr 10:00-16:00;Sa 10:00-13:00;Su 10:00-16:00",
    "tourism": "museum",
    "website": "http://www.fagus-gropius.com/",
    "wheelchair": "limited",
    "wikidata": "Q76635636"
  }
},
{
  "type": "node",
  "id": 1571201714,
  "lat": 52.2095542,
  "lon": 9.5588161,
  "tags": {
    "name": "Fußballmuseum Springe",
    "tourism": "museum",
    "website": "http://www.sportsammlung-saloga.de/",
    "wheelchair": "no"
  }
},
{
  "type": "node",
  "id": 1711496623,
  "lat": 51.9553358,
  "lon": 9.7445661,
  "tags": {
    "name": "Erich-Mäder-Glasmuseum",
    "opening_hours": "Mar-Oct: Su 14:00-17:00",
    "tourism": "museum",
    "wheelchair": "no",
    "wikidata": "Q41918513"
  }
},
{
  "type": "node",
  "id": 1711497621,
  "lat": 51.9572066,
  "lon": 9.7394320,
  "tags": {
    "addr:street": "Kirchtalstraße",
    "name": "Glasmacherhaus",
    "tourism": "museum",
    "wheelchair": "limited",
    "wikidata": "Q76636118"
  }
},
{
  "type": "node",
  "id": 1861186151,
  "lat": 52.0859055,
  "lon": 9.7749392,
  "tags": {
    "name": "Stadtmuseum Gronau",
    "tourism": "museum"
  }
},
{
  "type": "node",
  "id": 1894170641,
  "lat": 51.9860756,
  "lon": 9.8262227,
  "tags": {
    "name": "Tiermuseum",
    "tourism": "museum"
  }
},
{
  "type": "node",
  "id": 1968612888,
  "lat": 52.2844926,
  "lon": 9.7188097,
  "tags": {
    "addr:city": "Hemmingen",
    "addr:country": "DE",
    "addr:housenumber": "22",
    "addr:postcode": "30966",
    "addr:street": "Bruchweg",
    "name": "Oldtimermuseum",
    "operator": "Bernd Filax",
    "tourism": "museum"
  }
},
{
  "type": "node",
  "id": 2017157757,
  "lat": 52.1370028,
  "lon": 8.8589860,
  "tags": {
    "addr:city": "Vlotho",
    "addr:country": "DE",
    "addr:housenumber": "3",
    "addr:postcode": "32602",
    "addr:street": "Seebruchstraße",
    "addr:suburb": "Valdorf",
    "fixme": "location and housenumber likely incorrect, Hammerschmiede should have been below the small lake down the valley NW if housenumber 2",
    "name": "Hammerschmiede Gnuse",
    "tourism": "museum",
    "wikidata": "Q1384152"
  }
},
{
  "type": "node",
  "id": 2130960873,
  "lat": 52.2073286,
  "lon": 9.5567909,
  "tags": {
    "tourism": "museum",
    "wheelchair": "limited"
  }
},
{
  "type": "node",
  "id": 2178525850,
  "lat": 52.1709260,
  "lon": 8.8633688,
  "tags": {
    "addr:city": "Vlotho",
    "addr:country": "DE",
    "addr:housenumber": "53",
    "addr:postcode": "32602",
    "addr:street": "Lange Straße",
    "name": "Heimatstube",
    "tourism": "museum"
  }
},
{
  "type": "node",
  "id": 2327958071,
  "lat": 52.1991649,
  "lon": 9.4627498,
  "tags": {
    "name": "Bürgerhaus",
    "tourism": "museum",
    "website": "http://www.museum-badmuender.de/buergerhaus-von-1752.html"
  }
},
{
  "type": "node",
  "id": 2552392777,
  "lat": 52.0051187,
  "lon": 9.7005455,
  "tags": {
    "name": "Töpfermuseum",
    "tourism": "museum"
  }
},
{
  "type": "node",
  "id": 3364423164,
  "lat": 52.1705664,
  "lon": 9.0974742,
  "tags": {
    "name": "Heimatstube Exten",
    "tourism": "museum",
    "wikidata": "Q1595677",
    "wikipedia:de": "Heimatstube Exten"
  }
},
{
  "type": "node",
  "id": 3465608701,
  "lat": 52.3442636,
  "lon": 9.6553555,
  "tags": {
    "name": "Niedersächsisches Museum für Kali- und Salzbergbau",
    "tourism": "museum",
    "wikidata": "Q50366958"
  }
},
{
  "type": "node",
  "id": 3770780516,
  "lat": 52.2993806,
  "lon": 9.4697182,
  "tags": {
    "name": "Klosterstollen Barsinghausen",
    "toilets:wheelchair": "yes",
    "tourism": "museum",
    "wheelchair": "yes"
  }
},
{
  "type": "node",
  "id": 5487170508,
  "lat": 51.8286059,
  "lon": 9.4493077,
  "tags": {
    "name": "Museum im Torhaus",
    "tourism": "museum"
  }
},
{
  "type": "node",
  "id": 5711164953,
  "lat": 51.9794294,
  "lon": 9.5183362,
  "tags": {
    "addr:city": "Bodenwerder",
    "addr:housenumber": "1",
    "addr:postcode": "37619",
    "addr:street": "Homburgstraße",
    "name": "Weseraquarium",
    "opening_hours": "Sa,Su 12:00-18:00",
    "operator": "Mobi Dick e.V.",
    "tourism": "museum",
    "wheelchair": "no"
  }
},
{
  "type": "node",
  "id": 6565956918,
  "lat": 51.9283497,
  "lon": 9.6354738,
  "tags": {
    "description": "Museum Raabe-Haus, Geburtshaus des Schriftstellers Wilhelm Raabe",
    "name": "Museum Raabe-Haus",
    "opening_hours": "May-Sep Mo-Fr 10:00-12:00, 14:00-15:00; May-Sep Su[2],Su[4] 14:00-16:00; Oct-Apr Mo-Fr 10:00-12:00; Oct-Apr Su[2],Su[4] 14:00-16:00; PH off",
    "phone": "+49 5534 3969",
    "tourism": "museum",
    "website": "https://www.muenchhausenland.de/museen/wilhelm-raabe-museum-eschershausen/sub,4_3.html",
    "wikidata": "Q76635969"
  }
},
{
  "type": "node",
  "id": 6629381485,
  "lat": 51.9890940,
  "lon": 9.7213679,
  "tags": {
    "name": "Historischer Töpferofen",
    "tourism": "museum"
  }
},
{
  "type": "way",
  "id": 25182257,
  "nodes": [
    2580283619,
    2580283614,
    2580283617,
    2580283620,
    2580283619
  ],
  "tags": {
    "building": "yes",
    "fixme:wikipedia": "wikipedia tag links to a list article, not an article about this specific object. It would be better to fix it, or to rename \"wikipedia\" to \"related:wikipedia\"",
    "height": "6 m",
    "historic": "archaeological_site",
    "image": "File:Lemgo Brake Ölmühle.jpg",
    "man_made": "watermill",
    "name": "Ölmühle mit Wasserrad",
    "note": "ehemalige Ölmühle,kann besichtigt werden, angetrieben durch hölzernes Wasserad",
    "tourism": "museum",
    "watermill:disused": "yes",
    "wheelchair": "no",
    "wikipedia": "de:Liste der Baudenkmäler in Lemgo"
  }
},
{
  "type": "way",
  "id": 37656108,
  "nodes": [
    441398732,
    441398733,
    5375160103,
    5375160105,
    5375160104,
    5375160106,
    5375160107,
    4210530256,
    4210530258,
    4210530257,
    4210530264,
    441398734,
    441398738,
    441398732
  ],
  "tags": {
    "building": "yes",
    "name": "Eulenburg",
    "tourism": "museum",
    "wheelchair": "limited"
  }
},
{
  "type": "way",
  "id": 43109110,
  "nodes": [
    540104160,
    540104183,
    540104184,
    540104162,
    540104160
  ],
  "tags": {
    "addr:city": "Bodenwerder",
    "addr:country": "DE",
    "addr:housenumber": "1",
    "addr:postcode": "37619",
    "addr:street": "Münchhausenplatz",
    "building": "yes",
    "name": "Münchhausen-Museum",
    "phone": "+49 5533 4050",
    "tourism": "museum",
    "wheelchair": "limited"
  }
},
{
  "type": "way",
  "id": 87254245,
  "nodes": [
    1014548200,
    428734867,
    428734868,
    428734869,
    1014548045,
    428734863,
    428734864,
    428734865,
    1014548200
  ],
  "tags": {
    "addr:city": "Porta Westfalica",
    "addr:housenumber": "396",
    "addr:postcode": "32457",
    "addr:street": "Rintelner Straße",
    "building": "yes",
    "name": "Besucherbergwerk Kleinenbremen",
    "tourism": "museum",
    "website": "http://www.bergwerk-kleinenbremen.de",
    "wheelchair": "limited",
    "wikidata": "Q830722",
    "wikipedia:de": "Besucherbergwerk Kleinenbremen"
  }
},
{
  "type": "way",
  "id": 124116559,
  "nodes": [
    1382265619,
    1382265635,
    1382265624,
    297074289,
    1382265576,
    1382265563,
    1382265619
  ],
  "tags": {
    "addr:city": "Springe",
    "addr:housenumber": "1A",
    "addr:postcode": "31832",
    "addr:street": "Auf dem Burghof",
    "building": "yes",
    "name": "Heimatmuseum Springe",
    "opening_hours": "We-Th 10:30-16:00; Su 10:30-16:00",
    "phone": "+49 5041 61705",
    "tourism": "museum",
    "website": "https://www.museum-springe.de/",
    "wheelchair": "no"
  }
},
{
  "type": "way",
  "id": 151346796,
  "nodes": [
    2625170096,
    2625170113,
    2625170060,
    2625169831,
    2625169834,
    2625169803,
    2625169864,
    2625169836,
    2625169896,
    2625169935,
    2625169964,
    2625170111,
    2625170170,
    2625170096
  ],
  "tags": {
    "addr:city": "Vlotho",
    "addr:country": "DE",
    "addr:housenumber": "136",
    "addr:postcode": "32602",
    "addr:street": "Lange Straße",
    "building": "yes",
    "tourism": "museum"
  }
},
{
  "type": "way",
  "id": 183524485,
  "nodes": [
    1939198022,
    1939198023,
    1939198026,
    1939198036,
    1939198031,
    1939198016,
    1939198022
  ],
  "tags": {
    "building": "yes",
    "name": "Burgmuseum",
    "opening_hours": "Tu-Su 11:00-17:00",
    "source": "Bing",
    "tourism": "museum",
    "wheelchair": "limited"
  }
},
{
  "type": "way",
  "id": 194529972,
  "nodes": [
    2050314657,
    2670609153,
    2050314658,
    2050314659,
    2050314660,
    2050314661,
    2050314657
  ],
  "tags": {
    "addr:city": "Kirchbrak",
    "addr:housenumber": "2",
    "addr:postcode": "37619",
    "addr:street": "Schmiedegarten",
    "building": "house",
    "name": "Heimatstube",
    "source": "Bing",
    "tourism": "museum",
    "wheelchair": "limited"
  }
},
{
  "type": "way",
  "id": 207559653,
  "nodes": [
    2158120129,
    2158120131,
    2158120143,
    2578966834,
    2578966860,
    2857642314,
    2857642313,
    2578966438,
    2178211929,
    2178211928,
    2178211930,
    2178211931,
    2158120151,
    2158120128,
    2158120129
  ],
  "tags": {
    "name": "Museum Hexenbürgermeisterhaus",
    "tourism": "museum",
    "wikidata": "Q1616741"
  }
},
{
  "type": "way",
  "id": 211031168,
  "nodes": [
    2210406189,
    2336250834,
    2210406209,
    2210406207,
    2210406204,
    2210406202,
    2210406187,
    2210406189
  ],
  "tags": {
    "addr:city": "Wennigsen (Deister)",
    "addr:country": "DE",
    "addr:housenumber": "6",
    "addr:postcode": "30974",
    "addr:street": "Mühlenstraße",
    "building": "yes",
    "heritage": "4",
    "heritage:operator": "nld",
    "name": "Heimatmuseum Wennigsen",
    "opening_hours": "Su 14:30-17:00",
    "operator": "Förderkreis Heimatmuseum Wennigsen e.V.",
    "ref:nld": "253019.00120",
    "source": "Bing 2012",
    "start_date": "1804",
    "tourism": "museum",
    "website": "http://www.heimatmuseum-wennigsen.de",
    "wheelchair": "no",
    "wikidata": "Q1595654",
    "wikimedia_commons": "Category:Heimatmuseum Obermühle Wennigsen",
    "wikipedia": "de:Heimatmuseum Wennigsen"
  }
},
{
  "type": "way",
  "id": 217610291,
  "nodes": [
    2269050953,
    2269050949,
    2269050947,
    2269050951,
    2269050952,
    2269050954,
    2269050950,
    2269050948,
    2269050953
  ],
  "tags": {
    "building": "yes",
    "name": "Heimatscheune Dedensen",
    "tourism": "museum"
  }
},
{
  "type": "way",
  "id": 220630326,
  "nodes": [
    1786513705,
    1786513706,
    1787630265,
    1786513684,
    1786513683,
    1786513705
  ],
  "tags": {
    "addr:city": "Gehrden",
    "addr:housenumber": "15",
    "addr:postcode": "30989",
    "addr:street": "Dammstraße",
    "building:part": "yes",
    "name": "Stadtmuseum",
    "phone": "+49 5108 7048",
    "start_date": "1697",
    "tourism": "museum",
    "wheelchair": "no",
    "wikidata": "Q51557465"
  }
},
{
  "type": "way",
  "id": 230145930,
  "nodes": [
    2386738109,
    2670356704,
    2670356709,
    2670356714,
    2670356716,
    4121523087,
    2386738119,
    2384547800,
    2384547801,
    2384547802,
    2386669187,
    2386669233,
    2386669195,
    2386669193,
    2386669197,
    4121523078,
    2386669230,
    2386669224,
    2386669205,
    2386738114,
    2386738109
  ],
  "tags": {
    "name": "Museum für Landtechnik und Landarbeit",
    "opening_hours": "Sa 14:00-17:00; Su 10:00-17:00",
    "toilets:wheelchair": "no",
    "tourism": "museum",
    "website": "https://www.museum-landtechnik.de/",
    "wheelchair": "limited",
    "wikidata": "Q57635321"
  }
},
{
  "type": "way",
  "id": 233868774,
  "nodes": [
    2421922517,
    2421922579,
    2421922570,
    2421922550,
    2421922517
  ],
  "tags": {
    "building": "yes",
    "name": "Deutsches Stuhlmuseum, Eimbeckhausen",
    "tourism": "museum"
  }
},
{
  "type": "way",
  "id": 234018006,
  "nodes": [
    5988151995,
    5988151994,
    5988151993,
    2423238537,
    2423238511,
    2423238514,
    2423238516,
    5988151992,
    5988151995
  ],
  "tags": {
    "building": "yes",
    "name": "Amts- und Fleckenmuseum",
    "tourism": "museum"
  }
},
{
  "type": "way",
  "id": 234440247,
  "nodes": [
    2426929376,
    2426929394,
    6040084757,
    6040084758,
    2426929393,
    2426929418,
    2426929376
  ],
  "tags": {
    "building": "yes",
    "name": "Altes Spritzenhaus",
    "tourism": "museum"
  }
},
{
  "type": "way",
  "id": 239627250,
  "nodes": [
    2474099771,
    2474099789,
    2474099782,
    2474099785,
    2474099787,
    2474099771
  ],
  "tags": {
    "addr:city": "Ronnenberg",
    "addr:country": "DE",
    "addr:housenumber": "13",
    "addr:postcode": "30952",
    "addr:street": "Über den Beeken",
    "building": "yes",
    "name": "Heimatmuseum Ronnenberg",
    "phone": "+49 5109 7639",
    "tourism": "museum",
    "website": "http://heimatmuseum-ronnenberg.de/",
    "wheelchair": "no",
    "wikidata": "Q60339843"
  }
},
{
  "type": "way",
  "id": 249986662,
  "nodes": [
    2565149525,
    2565149528,
    2565149521,
    2565149530,
    2565149516,
    2565149507,
    2565149509,
    2565149503,
    2565149513,
    2565149517,
    2565149512,
    2565149515,
    2565149526,
    2565149523,
    2565149518,
    2565149510,
    2565149514,
    2565149511,
    2565149520,
    2565149525
  ],
  "tags": {
    "addr:city": "Bad Münder am Deister",
    "addr:housenumber": "2",
    "addr:postcode": "31848",
    "addr:street": "Südstraße",
    "building": "commercial",
    "description": "Besuch nur auf Anfrage möglich",
    "name": "Filmwelt Center",
    "opening_hours": "off",
    "source": "bing",
    "tourism": "museum",
    "website": "https://filmwelt-center.com/"
  }
},
{
  "type": "way",
  "id": 251396003,
  "nodes": [
    2576195641,
    2576195601,
    2576195600,
    2576195593,
    2576195594,
    2576195587,
    2576195602,
    2576195651,
    2576195641
  ],
  "tags": {
    "addr:city": "Lügde",
    "addr:housenumber": "86",
    "addr:postcode": "32676",
    "addr:street": "Hintere Straße",
    "building": "civic",
    "building:levels": "2",
    "contact:website": "http://www.luegde-heimatmuseum.de/",
    "museum": "loacal",
    "name": "Heimatmuseum & Cafe",
    "tourism": "museum"
  }
},
{
  "type": "way",
  "id": 251774077,
  "nodes": [
    2579500931,
    2579500862,
    2579500858,
    2579500812,
    2579500810,
    2579500633,
    2579500644,
    2579500562,
    2579500597,
    2579500782,
    2579500772,
    2579500784,
    2579500796,
    2707228759,
    2579500873,
    2579500869,
    2579500956,
    2579500982,
    2579501118,
    2579501103,
    2579500922,
    2579500931
  ],
  "tags": {
    "addr:city": "Lemgo",
    "addr:country": "DE",
    "addr:housenumber": "36",
    "addr:postcode": "32657",
    "addr:street": "Hamelner Straße",
    "building": "house",
    "contact:phone": "+49 5261 667695",
    "contact:website": "http://junkerhaus.de",
    "name": "Museum Junkerhaus Lemgo",
    "opening_hours": "Apr 01-Oct 31 Tu-Su 10:00-17:00, Nov 01-Mar 31 Fr-Su 11:00-15:00",
    "tourism": "museum",
    "wheelchair": "limited",
    "wheelchair:description": "Obere Etagen des Junkerhauses nur per Treppe erreichbar",
    "wikidata": "Q1713629"
  }
},
{
  "type": "way",
  "id": 266012097,
  "nodes": [
    2716030892,
    2716030917,
    3428153016,
    3428152941,
    3428153029,
    2716030915,
    2716030888,
    3428152882,
    3428152886,
    3428152888,
    2716030892
  ],
  "tags": {
    "addr:city": "Steinheim",
    "addr:country": "DE",
    "addr:housenumber": "11",
    "addr:postcode": "32839",
    "addr:street": "Höxterstraße",
    "building": "yes",
    "name": "Teddy- & Puppenmuseum",
    "opening_hours": "Mi, Do, So 14:00 - 18:00 Uhr",
    "operator": "Annegret Dreßel",
    "tourism": "museum"
  }
},
{
  "type": "way",
  "id": 267295660,
  "nodes": [
    2727649155,
    2727649133,
    2727649126,
    2727649143,
    2727649150,
    2727649155
  ],
  "tags": {
    "building": "yes",
    "name": "Möbelmuseum",
    "tourism": "museum"
  }
},
{
  "type": "way",
  "id": 282752823,
  "nodes": [
    2866878542,
    2866878543,
    2866878544,
    2866878545,
    2866878542
  ],
  "tags": {
    "addr:city": "Barsinghausen",
    "addr:housenumber": "10",
    "addr:postcode": "30890",
    "addr:street": "Deisterstraße",
    "building": "yes",
    "tourism": "museum"
  }
},
{
  "type": "way",
  "id": 297707486,
  "nodes": [
    3016078115,
    3016078118,
    3016078117,
    3016078116,
    3016078115
  ],
  "tags": {
    "addr:city": "Bad Nenndorf",
    "addr:housenumber": "3",
    "addr:postcode": "31542",
    "addr:street": "Agnes-Miegel-Platz",
    "building": "yes",
    "email": "info@agnes-miegel-gesellschaft.de",
    "name": "Agnes-Miegel-Haus",
    "opening_hours": "Mi 15-17, So 10-12",
    "operator": "Agnes-Miegel-Gesellschaft e.V.",
    "phone": "+49 5723 917317",
    "tourism": "museum",
    "website": "http://www.agnes-miegel-gesellschaft.de/",
    "wikidata": "Q394429",
    "wikipedia:de": "Agnes-Miegel-Haus"
  }
},
{
  "type": "way",
  "id": 447155509,
  "nodes": [
    3643277200,
    4443377617,
    4443377618,
    4443377619,
    4443377620,
    4443377621,
    4443377622,
    4443377623,
    4443377624,
    4443377625,
    4443377626,
    4443377627,
    4443377628,
    4443377629,
    4443377630,
    4443377631,
    4443377632,
    4443377688,
    4443377633,
    4443377634,
    4443377635,
    4443377700,
    4443377636,
    4443377637,
    4443377638,
    4443377639,
    4443377640,
    4443377641,
    4443377642,
    4443377643,
    4443377644,
    4443377645,
    4443377646,
    5375334835,
    4443377647,
    4443377648,
    4443377649,
    4443377650,
    4443377651,
    3643277200
  ],
  "tags": {
    "addr:city": "Bückeburg",
    "addr:country": "DE",
    "addr:housenumber": "6",
    "addr:postcode": "31675",
    "addr:street": "Sablé-Platz",
    "building": "yes",
    "fee": "yes",
    "name": "Hubschraubermuseum",
    "opening_hours": "Mo-Su,PH 10:00-17:00",
    "phone": "+49 5722 5533",
    "toilets:wheelchair": "yes",
    "tourism": "museum",
    "website": "http://www.hubschraubermuseum.de/",
    "wheelchair": "yes",
    "wikidata": "Q1195080",
    "wikipedia": "de:Hubschraubermuseum Bückeburg"
  }
},
{
  "type": "way",
  "id": 448325375,
  "nodes": [
    4453483694,
    5375356995,
    4453483695,
    4453483696,
    4453483697,
    4453483694
  ],
  "tags": {
    "addr:city": "Bückeburg",
    "addr:housenumber": "22",
    "addr:postcode": "31675",
    "addr:street": "Lange Straße",
    "building": "yes",
    "information": "Eintritt frei",
    "name": "Schaumburg-Lippisches Landesmuseum",
    "opening_hours": "Mi-So 13:00-17:00",
    "tourism": "museum"
  }
},
{
  "type": "way",
  "id": 504584127,
  "nodes": [
    4947324733,
    4947324732,
    4947324731,
    4947324730,
    4947324733
  ],
  "tags": {
    "addr:city": "Bodenwerder",
    "addr:postcode": "37619",
    "building": "yes",
    "name": "Weseraquarium",
    "opening_hours": "SA+SO 12-18 Uhr",
    "operator": "MobiDick e.V.",
    "tourism": "museum"
  }
},
{
  "type": "way",
  "id": 509451983,
  "nodes": [
    4986780955,
    4986780959,
    4986780956,
    4986780961,
    4986780962,
    4986780957,
    4986780958,
    4986780955
  ],
  "tags": {
    "museum": "history",
    "name": "Handwerkermuseum",
    "tourism": "museum"
  }
},
{
  "type": "way",
  "id": 590967075,
  "nodes": [
    5641447494,
    5641447493,
    5641447492,
    5641447491,
    5641447494
  ],
  "tags": {
    "name": "Industriemuseeum Oberer Eisenhammer",
    "tourism": "museum",
    "website": "http://www.heimatverein-exten.de/index.php/museumsstandorte/oberer-eisenhammer",
    "wheelchair": "no"
  }
},
{
  "type": "way",
  "id": 625840817,
  "nodes": [
    5908864857,
    5908864858,
    5908864859,
    5908864860,
    5908864857
  ],
  "tags": {
    "addr:city": "Obernkirchen",
    "addr:housenumber": "5",
    "addr:postcode": "31683",
    "addr:street": "Kirchplatz",
    "building": "yes",
    "email": "info@museum-obernkirchen.de",
    "name": "Berg- und Stadtmuseum",
    "phone": "+49 5724 9716000",
    "tourism": "museum",
    "website": "http://www.museum-obernkirchen.de/",
    "wikidata": "Q76636413"
  }
},
{
  "type": "relation",
  "id": 7567566,
  "members": [
    {
      "type": "way",
      "ref": 524003000,
      "role": "outer"
    },
    {
      "type": "way",
      "ref": 525662785,
      "role": "inner"
    }
  ],
  "tags": {
    "addr:city": "Bückeburg",
    "addr:housenumber": "1",
    "addr:postcode": "31675",
    "addr:street": "Schlossplatz",
    "building": "yes",
    "historic": "castle",
    "name": "Schloss Bückeburg",
    "tourism": "museum",
    "type": "multipolygon",
    "website": "https://www.schloss-bueckeburg.de/",
    "wikidata": "Q1530171",
    "wikipedia": "de:Schloss Bückeburg"
  }
},
{
  "type": "node",
  "id": 2158120128,
  "lat": 52.0250361,
  "lon": 8.8995261
},
{
  "type": "node",
  "id": 2158120129,
  "lat": 52.0251595,
  "lon": 8.8995809
},
{
  "type": "node",
  "id": 2158120131,
  "lat": 52.0251945,
  "lon": 8.8992917
},
{
  "type": "node",
  "id": 2158120143,
  "lat": 52.0252071,
  "lon": 8.8990387
},
{
  "type": "node",
  "id": 2158120151,
  "lat": 52.0249441,
  "lon": 8.8994857
},
{
  "type": "node",
  "id": 2178211928,
  "lat": 52.0250168,
  "lon": 8.8988594
},
{
  "type": "node",
  "id": 2178211929,
  "lat": 52.0250600,
  "lon": 8.8988712
},
{
  "type": "node",
  "id": 2178211930,
  "lat": 52.0249343,
  "lon": 8.8990281
},
{
  "type": "node",
  "id": 2178211931,
  "lat": 52.0248659,
  "lon": 8.8994445
},
{
  "type": "node",
  "id": 2578966438,
  "lat": 52.0250675,
  "lon": 8.8988538
},
{
  "type": "node",
  "id": 2578966834,
  "lat": 52.0252038,
  "lon": 8.8989580
},
{
  "type": "node",
  "id": 2578966860,
  "lat": 52.0252024,
  "lon": 8.8988960
},
{
  "type": "node",
  "id": 2857642313,
  "lat": 52.0251265,
  "lon": 8.8988723
},
{
  "type": "node",
  "id": 2857642314,
  "lat": 52.0251883,
  "lon": 8.8988916
},
{
  "type": "node",
  "id": 2579500562,
  "lat": 52.0256649,
  "lon": 8.9176237
},
{
  "type": "node",
  "id": 2579500597,
  "lat": 52.0256802,
  "lon": 8.9177350
},
{
  "type": "node",
  "id": 2579500633,
  "lat": 52.0257094,
  "lon": 8.9175487
},
{
  "type": "node",
  "id": 2579500644,
  "lat": 52.0257171,
  "lon": 8.9176049
},
{
  "type": "node",
  "id": 2580283614,
  "lat": 52.0217037,
  "lon": 8.9141602
},
{
  "type": "node",
  "id": 2580283617,
  "lat": 52.0217224,
  "lon": 8.9143579
},
{
  "type": "node",
  "id": 2580283619,
  "lat": 52.0217884,
  "lon": 8.9141390
},
{
  "type": "node",
  "id": 2580283620,
  "lat": 52.0218071,
  "lon": 8.9143368
},
{
  "type": "node",
  "id": 2716030888,
  "lat": 51.8666883,
  "lon": 9.0956798
},
{
  "type": "node",
  "id": 2716030892,
  "lat": 51.8666946,
  "lon": 9.0957865
},
{
  "type": "node",
  "id": 2716030915,
  "lat": 51.8667634,
  "lon": 9.0956631
},
{
  "type": "node",
  "id": 2716030917,
  "lat": 51.8667010,
  "lon": 9.0958506
},
{
  "type": "node",
  "id": 3428152882,
  "lat": 51.8666929,
  "lon": 9.0957359
},
{
  "type": "node",
  "id": 3428152886,
  "lat": 51.8666994,
  "lon": 9.0957368
},
{
  "type": "node",
  "id": 3428152888,
  "lat": 51.8667041,
  "lon": 9.0957855
},
{
  "type": "node",
  "id": 3428152941,
  "lat": 51.8667376,
  "lon": 9.0958437
},
{
  "type": "node",
  "id": 3428153016,
  "lat": 51.8667095,
  "lon": 9.0958493
},
{
  "type": "node",
  "id": 3428153029,
  "lat": 51.8667749,
  "lon": 9.0958364
},
{
  "type": "node",
  "id": 2727649126,
  "lat": 51.8659174,
  "lon": 9.1023252
},
{
  "type": "node",
  "id": 2727649133,
  "lat": 51.8660595,
  "lon": 9.1024666
},
{
  "type": "node",
  "id": 2727649143,
  "lat": 51.8661418,
  "lon": 9.1020132
},
{
  "type": "node",
  "id": 2727649150,
  "lat": 51.8662473,
  "lon": 9.1021470
},
{
  "type": "node",
  "id": 2727649155,
  "lat": 51.8662628,
  "lon": 9.1021667
},
{
  "type": "node",
  "id": 2579500772,
  "lat": 52.0258019,
  "lon": 8.9176153
},
{
  "type": "node",
  "id": 2579500782,
  "lat": 52.0258118,
  "lon": 8.9176874
},
{
  "type": "node",
  "id": 2579500784,
  "lat": 52.0258182,
  "lon": 8.9176094
},
{
  "type": "node",
  "id": 2579500796,
  "lat": 52.0258234,
  "lon": 8.9176469
},
{
  "type": "node",
  "id": 2579500810,
  "lat": 52.0258403,
  "lon": 8.9175014
},
{
  "type": "node",
  "id": 2579500812,
  "lat": 52.0258412,
  "lon": 8.9175079
},
{
  "type": "node",
  "id": 2579500858,
  "lat": 52.0258838,
  "lon": 8.9174925
},
{
  "type": "node",
  "id": 2579500862,
  "lat": 52.0258930,
  "lon": 8.9175600
},
{
  "type": "node",
  "id": 2579500869,
  "lat": 52.0258963,
  "lon": 8.9175850
},
{
  "type": "node",
  "id": 2579500873,
  "lat": 52.0259010,
  "lon": 8.9176189
},
{
  "type": "node",
  "id": 2579500922,
  "lat": 52.0259259,
  "lon": 8.9174885
},
{
  "type": "node",
  "id": 2579500931,
  "lat": 52.0259336,
  "lon": 8.9175453
},
{
  "type": "node",
  "id": 2579500956,
  "lat": 52.0259370,
  "lon": 8.9175702
},
{
  "type": "node",
  "id": 2579500982,
  "lat": 52.0259449,
  "lon": 8.9176271
},
{
  "type": "node",
  "id": 2579501103,
  "lat": 52.0260115,
  "lon": 8.9174581
},
{
  "type": "node",
  "id": 2579501118,
  "lat": 52.0260303,
  "lon": 8.9175968
},
{
  "type": "node",
  "id": 2707228759,
  "lat": 52.0258591,
  "lon": 8.9176340
},
{
  "type": "node",
  "id": 2625169803,
  "lat": 52.1658826,
  "lon": 8.8592787
},
{
  "type": "node",
  "id": 2625169831,
  "lat": 52.1659068,
  "lon": 8.8592393
},
{
  "type": "node",
  "id": 2625169834,
  "lat": 52.1659079,
  "lon": 8.8592412
},
{
  "type": "node",
  "id": 2625169836,
  "lat": 52.1659092,
  "lon": 8.8593484
},
{
  "type": "node",
  "id": 2625169864,
  "lat": 52.1659165,
  "lon": 8.8593372
},
{
  "type": "node",
  "id": 2625169896,
  "lat": 52.1659323,
  "lon": 8.8593916
},
{
  "type": "node",
  "id": 2625169935,
  "lat": 52.1659654,
  "lon": 8.8593405
},
{
  "type": "node",
  "id": 2625169964,
  "lat": 52.1659823,
  "lon": 8.8593697
},
{
  "type": "node",
  "id": 2625170060,
  "lat": 52.1660363,
  "lon": 8.8590423
},
{
  "type": "node",
  "id": 2625170096,
  "lat": 52.1660575,
  "lon": 8.8590980
},
{
  "type": "node",
  "id": 2625170111,
  "lat": 52.1660634,
  "lon": 8.8592466
},
{
  "type": "node",
  "id": 2625170113,
  "lat": 52.1660641,
  "lon": 8.8590883
},
{
  "type": "node",
  "id": 2625170170,
  "lat": 52.1661057,
  "lon": 8.8591821
},
{
  "type": "node",
  "id": 5641447491,
  "lat": 52.1614039,
  "lon": 9.1079262
},
{
  "type": "node",
  "id": 5641447492,
  "lat": 52.1614072,
  "lon": 9.1080523
},
{
  "type": "node",
  "id": 5641447493,
  "lat": 52.1615109,
  "lon": 9.1080442
},
{
  "type": "node",
  "id": 5641447494,
  "lat": 52.1615076,
  "lon": 9.1079208
},
{
  "type": "node",
  "id": 428734863,
  "lat": 52.2298497,
  "lon": 9.0406259
},
{
  "type": "node",
  "id": 428734864,
  "lat": 52.2298935,
  "lon": 9.0408920
},
{
  "type": "node",
  "id": 428734865,
  "lat": 52.2295007,
  "lon": 9.0410678
},
{
  "type": "node",
  "id": 428734867,
  "lat": 52.2293966,
  "lon": 9.0409037
},
{
  "type": "node",
  "id": 428734868,
  "lat": 52.2293450,
  "lon": 9.0405163
},
{
  "type": "node",
  "id": 428734869,
  "lat": 52.2294612,
  "lon": 9.0404725
},
{
  "type": "node",
  "id": 1014548045,
  "lat": 52.2294998,
  "lon": 9.0407801
},
{
  "type": "node",
  "id": 1014548200,
  "lat": 52.2294690,
  "lon": 9.0408788
},
{
  "type": "node",
  "id": 441398732,
  "lat": 52.1846048,
  "lon": 9.0773435
},
{
  "type": "node",
  "id": 441398733,
  "lat": 52.1847643,
  "lon": 9.0774219
},
{
  "type": "node",
  "id": 441398734,
  "lat": 52.1847995,
  "lon": 9.0772645
},
{
  "type": "node",
  "id": 441398738,
  "lat": 52.1846307,
  "lon": 9.0771917
},
{
  "type": "node",
  "id": 4210530256,
  "lat": 52.1848740,
  "lon": 9.0773610
},
{
  "type": "node",
  "id": 4210530257,
  "lat": 52.1848575,
  "lon": 9.0772132
},
{
  "type": "node",
  "id": 4210530258,
  "lat": 52.1848805,
  "lon": 9.0772871
},
{
  "type": "node",
  "id": 4210530264,
  "lat": 52.1848176,
  "lon": 9.0772646
},
{
  "type": "node",
  "id": 5375160103,
  "lat": 52.1848028,
  "lon": 9.0773956
},
{
  "type": "node",
  "id": 5375160104,
  "lat": 52.1848203,
  "lon": 9.0774823
},
{
  "type": "node",
  "id": 5375160105,
  "lat": 52.1848042,
  "lon": 9.0774352
},
{
  "type": "node",
  "id": 5375160106,
  "lat": 52.1848464,
  "lon": 9.0774644
},
{
  "type": "node",
  "id": 5375160107,
  "lat": 52.1848531,
  "lon": 9.0774392
},
{
  "type": "node",
  "id": 1098331418,
  "lat": 52.2587347,
  "lon": 9.0436575
},
{
  "type": "node",
  "id": 1098331420,
  "lat": 52.2592413,
  "lon": 9.0433737
},
{
  "type": "node",
  "id": 1098331437,
  "lat": 52.2589128,
  "lon": 9.0435139
},
{
  "type": "node",
  "id": 1098331452,
  "lat": 52.2587423,
  "lon": 9.0433673
},
{
  "type": "node",
  "id": 1098331454,
  "lat": 52.2593221,
  "lon": 9.0435174
},
{
  "type": "node",
  "id": 1098331472,
  "lat": 52.2586448,
  "lon": 9.0434277
},
{
  "type": "node",
  "id": 1098331513,
  "lat": 52.2587159,
  "lon": 9.0436443
},
{
  "type": "node",
  "id": 1098331538,
  "lat": 52.2587378,
  "lon": 9.0436879
},
{
  "type": "node",
  "id": 1098331540,
  "lat": 52.2592655,
  "lon": 9.0433515
},
{
  "type": "node",
  "id": 1098331550,
  "lat": 52.2586661,
  "lon": 9.0433893
},
{
  "type": "node",
  "id": 1098331559,
  "lat": 52.2591997,
  "lon": 9.0432520
},
{
  "type": "node",
  "id": 1098331567,
  "lat": 52.2587569,
  "lon": 9.0437337
},
{
  "type": "node",
  "id": 1098331568,
  "lat": 52.2588353,
  "lon": 9.0436622
},
{
  "type": "node",
  "id": 1098331574,
  "lat": 52.2586551,
  "lon": 9.0436728
},
{
  "type": "node",
  "id": 1098331584,
  "lat": 52.2585506,
  "lon": 9.0432904
},
{
  "type": "node",
  "id": 1098331586,
  "lat": 52.2585626,
  "lon": 9.0439111
},
{
  "type": "node",
  "id": 1098331594,
  "lat": 52.2588230,
  "lon": 9.0432281
},
{
  "type": "node",
  "id": 1098331604,
  "lat": 52.2587020,
  "lon": 9.0436640
},
{
  "type": "node",
  "id": 5100507324,
  "lat": 52.2591024,
  "lon": 9.0437243
},
{
  "type": "node",
  "id": 5100507325,
  "lat": 52.2588644,
  "lon": 9.0439381
},
{
  "type": "node",
  "id": 5100507499,
  "lat": 52.2592733,
  "lon": 9.0435625
},
{
  "type": "node",
  "id": 1098331481,
  "lat": 52.2586406,
  "lon": 9.0441391
},
{
  "type": "node",
  "id": 3643277200,
  "lat": 52.2612745,
  "lon": 9.0461880
},
{
  "type": "node",
  "id": 4443377617,
  "lat": 52.2614423,
  "lon": 9.0462312
},
{
  "type": "node",
  "id": 4443377618,
  "lat": 52.2614299,
  "lon": 9.0463795
},
{
  "type": "node",
  "id": 4443377619,
  "lat": 52.2614840,
  "lon": 9.0463917
},
{
  "type": "node",
  "id": 4443377620,
  "lat": 52.2614604,
  "lon": 9.0466464
},
{
  "type": "node",
  "id": 4443377621,
  "lat": 52.2613878,
  "lon": 9.0466286
},
{
  "type": "node",
  "id": 4443377622,
  "lat": 52.2613721,
  "lon": 9.0467848
},
{
  "type": "node",
  "id": 4443377623,
  "lat": 52.2614011,
  "lon": 9.0467947
},
{
  "type": "node",
  "id": 4443377624,
  "lat": 52.2614084,
  "lon": 9.0467413
},
{
  "type": "node",
  "id": 4443377625,
  "lat": 52.2614713,
  "lon": 9.0467630
},
{
  "type": "node",
  "id": 4443377626,
  "lat": 52.2614665,
  "lon": 9.0468125
},
{
  "type": "node",
  "id": 4443377627,
  "lat": 52.2615125,
  "lon": 9.0468283
},
{
  "type": "node",
  "id": 4443377628,
  "lat": 52.2614725,
  "lon": 9.0472553
},
{
  "type": "node",
  "id": 4443377629,
  "lat": 52.2616238,
  "lon": 9.0472988
},
{
  "type": "node",
  "id": 4443377630,
  "lat": 52.2616141,
  "lon": 9.0474096
},
{
  "type": "node",
  "id": 4443377633,
  "lat": 52.2615754,
  "lon": 9.0476350
},
{
  "type": "node",
  "id": 4443377634,
  "lat": 52.2615815,
  "lon": 9.0475895
},
{
  "type": "node",
  "id": 4443377635,
  "lat": 52.2613527,
  "lon": 9.0475143
},
{
  "type": "node",
  "id": 4443377636,
  "lat": 52.2613382,
  "lon": 9.0476607
},
{
  "type": "node",
  "id": 4443377637,
  "lat": 52.2612293,
  "lon": 9.0476251
},
{
  "type": "node",
  "id": 4443377638,
  "lat": 52.2612366,
  "lon": 9.0475697
},
{
  "type": "node",
  "id": 4443377639,
  "lat": 52.2612099,
  "lon": 9.0475598
},
{
  "type": "node",
  "id": 4443377640,
  "lat": 52.2612220,
  "lon": 9.0474669
},
{
  "type": "node",
  "id": 4443377641,
  "lat": 52.2611983,
  "lon": 9.0474587
},
{
  "type": "node",
  "id": 4443377642,
  "lat": 52.2612281,
  "lon": 9.0472099
},
{
  "type": "node",
  "id": 4443377643,
  "lat": 52.2613213,
  "lon": 9.0472395
},
{
  "type": "node",
  "id": 4443377644,
  "lat": 52.2613455,
  "lon": 9.0469805
},
{
  "type": "node",
  "id": 4443377645,
  "lat": 52.2613128,
  "lon": 9.0469687
},
{
  "type": "node",
  "id": 4443377646,
  "lat": 52.2613467,
  "lon": 9.0466365
},
{
  "type": "node",
  "id": 4443377647,
  "lat": 52.2612983,
  "lon": 9.0466207
},
{
  "type": "node",
  "id": 4443377648,
  "lat": 52.2613022,
  "lon": 9.0465804
},
{
  "type": "node",
  "id": 4443377649,
  "lat": 52.2612520,
  "lon": 9.0465674
},
{
  "type": "node",
  "id": 4443377650,
  "lat": 52.2612668,
  "lon": 9.0464289
},
{
  "type": "node",
  "id": 4443377651,
  "lat": 52.2612523,
  "lon": 9.0464230
},
{
  "type": "node",
  "id": 4443377700,
  "lat": 52.2613406,
  "lon": 9.0476368
},
{
  "type": "node",
  "id": 4453483694,
  "lat": 52.2602409,
  "lon": 9.0476491
},
{
  "type": "node",
  "id": 4453483695,
  "lat": 52.2600425,
  "lon": 9.0476250
},
{
  "type": "node",
  "id": 4453483696,
  "lat": 52.2600513,
  "lon": 9.0474319
},
{
  "type": "node",
  "id": 4453483697,
  "lat": 52.2602496,
  "lon": 9.0474560
},
{
  "type": "node",
  "id": 5375334835,
  "lat": 52.2613306,
  "lon": 9.0466312
},
{
  "type": "node",
  "id": 5375356995,
  "lat": 52.2601677,
  "lon": 9.0476402
},
{
  "type": "node",
  "id": 4443377631,
  "lat": 52.2617523,
  "lon": 9.0474495
},
{
  "type": "node",
  "id": 4443377632,
  "lat": 52.2617252,
  "lon": 9.0476840
},
{
  "type": "node",
  "id": 4443377688,
  "lat": 52.2617047,
  "lon": 9.0476780
},
{
  "type": "node",
  "id": 5908864857,
  "lat": 52.2704481,
  "lon": 9.1277354
},
{
  "type": "node",
  "id": 5908864858,
  "lat": 52.2704246,
  "lon": 9.1280838
},
{
  "type": "node",
  "id": 5908864859,
  "lat": 52.2703030,
  "lon": 9.1280619
},
{
  "type": "node",
  "id": 5908864860,
  "lat": 52.2703265,
  "lon": 9.1277135
},
{
  "type": "node",
  "id": 2576195587,
  "lat": 51.9550054,
  "lon": 9.2447022
},
{
  "type": "node",
  "id": 2576195593,
  "lat": 51.9550227,
  "lon": 9.2446849
},
{
  "type": "node",
  "id": 2576195594,
  "lat": 51.9550237,
  "lon": 9.2446988
},
{
  "type": "node",
  "id": 2576195600,
  "lat": 51.9550312,
  "lon": 9.2446833
},
{
  "type": "node",
  "id": 2576195601,
  "lat": 51.9550322,
  "lon": 9.2446973
},
{
  "type": "node",
  "id": 2576195602,
  "lat": 51.9550337,
  "lon": 9.2451081
},
{
  "type": "node",
  "id": 2576195641,
  "lat": 51.9551000,
  "lon": 9.2446848
},
{
  "type": "node",
  "id": 2576195651,
  "lat": 51.9551305,
  "lon": 9.2450900
},
{
  "type": "node",
  "id": 540104160,
  "lat": 51.9765803,
  "lon": 9.5138774
},
{
  "type": "node",
  "id": 540104162,
  "lat": 51.9764771,
  "lon": 9.5138127
},
{
  "type": "node",
  "id": 540104183,
  "lat": 51.9765445,
  "lon": 9.5140281
},
{
  "type": "node",
  "id": 540104184,
  "lat": 51.9764412,
  "lon": 9.5139633
},
{
  "type": "node",
  "id": 4947324730,
  "lat": 51.9794087,
  "lon": 9.5182780
},
{
  "type": "node",
  "id": 4947324731,
  "lat": 51.9793951,
  "lon": 9.5183758
},
{
  "type": "node",
  "id": 4947324732,
  "lat": 51.9794510,
  "lon": 9.5183961
},
{
  "type": "node",
  "id": 4947324733,
  "lat": 51.9794645,
  "lon": 9.5182983
},
{
  "type": "node",
  "id": 2050314657,
  "lat": 51.9635316,
  "lon": 9.5730032
},
{
  "type": "node",
  "id": 2050314658,
  "lat": 51.9636036,
  "lon": 9.5728830
},
{
  "type": "node",
  "id": 2050314659,
  "lat": 51.9635476,
  "lon": 9.5727945
},
{
  "type": "node",
  "id": 2050314660,
  "lat": 51.9634755,
  "lon": 9.5729147
},
{
  "type": "node",
  "id": 2050314661,
  "lat": 51.9635010,
  "lon": 9.5729549
},
{
  "type": "node",
  "id": 2670609153,
  "lat": 51.9635752,
  "lon": 9.5729304
},
{
  "type": "node",
  "id": 2565149503,
  "lat": 52.2053357,
  "lon": 9.3909330
},
{
  "type": "node",
  "id": 2565149507,
  "lat": 52.2054104,
  "lon": 9.3912174
},
{
  "type": "node",
  "id": 2565149509,
  "lat": 52.2054527,
  "lon": 9.3911591
},
{
  "type": "node",
  "id": 2565149510,
  "lat": 52.2054858,
  "lon": 9.3904615
},
{
  "type": "node",
  "id": 2565149511,
  "lat": 52.2054912,
  "lon": 9.3903122
},
{
  "type": "node",
  "id": 2565149512,
  "lat": 52.2054926,
  "lon": 9.3910398
},
{
  "type": "node",
  "id": 2565149513,
  "lat": 52.2055038,
  "lon": 9.3907016
},
{
  "type": "node",
  "id": 2565149514,
  "lat": 52.2055341,
  "lon": 9.3903950
},
{
  "type": "node",
  "id": 2565149515,
  "lat": 52.2055391,
  "lon": 9.3911297
},
{
  "type": "node",
  "id": 2565149517,
  "lat": 52.2056013,
  "lon": 9.3908901
},
{
  "type": "node",
  "id": 2565149518,
  "lat": 52.2056433,
  "lon": 9.3907660
},
{
  "type": "node",
  "id": 2565149520,
  "lat": 52.2057038,
  "lon": 9.3900195
},
{
  "type": "node",
  "id": 2565149521,
  "lat": 52.2057912,
  "lon": 9.3900945
},
{
  "type": "node",
  "id": 2565149523,
  "lat": 52.2058330,
  "lon": 9.3905048
},
{
  "type": "node",
  "id": 2565149525,
  "lat": 52.2058651,
  "lon": 9.3897973
},
{
  "type": "node",
  "id": 2565149526,
  "lat": 52.2058995,
  "lon": 9.3906333
},
{
  "type": "node",
  "id": 2565149528,
  "lat": 52.2059242,
  "lon": 9.3899114
},
{
  "type": "node",
  "id": 2565149530,
  "lat": 52.2061052,
  "lon": 9.3907016
},
{
  "type": "node",
  "id": 4986780955,
  "lat": 52.2077074,
  "lon": 9.3911152
},
{
  "type": "node",
  "id": 4986780956,
  "lat": 52.2076257,
  "lon": 9.3909886
},
{
  "type": "node",
  "id": 4986780957,
  "lat": 52.2078146,
  "lon": 9.3906641
},
{
  "type": "node",
  "id": 4986780958,
  "lat": 52.2078963,
  "lon": 9.3907907
},
{
  "type": "node",
  "id": 4986780959,
  "lat": 52.2076665,
  "lon": 9.3910519
},
{
  "type": "node",
  "id": 4986780961,
  "lat": 52.2077281,
  "lon": 9.3908127
},
{
  "type": "node",
  "id": 4986780962,
  "lat": 52.2078064,
  "lon": 9.3906781
},
{
  "type": "node",
  "id": 2565149516,
  "lat": 52.2055436,
  "lon": 9.3914750
},
{
  "type": "node",
  "id": 2386738109,
  "lat": 52.0283880,
  "lon": 9.4564953
},
{
  "type": "node",
  "id": 2670356704,
  "lat": 52.0288271,
  "lon": 9.4561207
},
{
  "type": "node",
  "id": 2670356709,
  "lat": 52.0289911,
  "lon": 9.4566494
},
{
  "type": "node",
  "id": 2384547800,
  "lat": 52.0292728,
  "lon": 9.4572767
},
{
  "type": "node",
  "id": 2384547801,
  "lat": 52.0292068,
  "lon": 9.4573411
},
{
  "type": "node",
  "id": 2384547802,
  "lat": 52.0293174,
  "lon": 9.4576629
},
{
  "type": "node",
  "id": 2386669187,
  "lat": 52.0293596,
  "lon": 9.4577833
},
{
  "type": "node",
  "id": 2386669193,
  "lat": 52.0295444,
  "lon": 9.4579603
},
{
  "type": "node",
  "id": 2386669195,
  "lat": 52.0294966,
  "lon": 9.4577216
},
{
  "type": "node",
  "id": 2386669197,
  "lat": 52.0294371,
  "lon": 9.4580196
},
{
  "type": "node",
  "id": 2386669205,
  "lat": 52.0288649,
  "lon": 9.4573884
},
{
  "type": "node",
  "id": 2386669224,
  "lat": 52.0289925,
  "lon": 9.4576814
},
{
  "type": "node",
  "id": 2386669230,
  "lat": 52.0290927,
  "lon": 9.4579436
},
{
  "type": "node",
  "id": 2386669233,
  "lat": 52.0293975,
  "lon": 9.4577725
},
{
  "type": "node",
  "id": 2386738114,
  "lat": 52.0287771,
  "lon": 9.4572309
},
{
  "type": "node",
  "id": 2386738119,
  "lat": 52.0293018,
  "lon": 9.4572441
},
{
  "type": "node",
  "id": 2670356714,
  "lat": 52.0292824,
  "lon": 9.4569786
},
{
  "type": "node",
  "id": 2670356716,
  "lat": 52.0294684,
  "lon": 9.4571509
},
{
  "type": "node",
  "id": 4121523078,
  "lat": 52.0291948,
  "lon": 9.4581356
},
{
  "type": "node",
  "id": 4121523087,
  "lat": 52.0293995,
  "lon": 9.4571757
},
{
  "type": "node",
  "id": 1939198016,
  "lat": 52.1182290,
  "lon": 9.5479998
},
{
  "type": "node",
  "id": 1939198022,
  "lat": 52.1182976,
  "lon": 9.5478890
},
{
  "type": "node",
  "id": 1939198023,
  "lat": 52.1183050,
  "lon": 9.5479011
},
{
  "type": "node",
  "id": 1939198026,
  "lat": 52.1183326,
  "lon": 9.5479464
},
{
  "type": "node",
  "id": 1939198031,
  "lat": 52.1183868,
  "lon": 9.5482589
},
{
  "type": "node",
  "id": 1939198036,
  "lat": 52.1184554,
  "lon": 9.5481481
},
{
  "type": "node",
  "id": 297074289,
  "lat": 52.2073544,
  "lon": 9.5559560
},
{
  "type": "node",
  "id": 1382265563,
  "lat": 52.2071765,
  "lon": 9.5558672
},
{
  "type": "node",
  "id": 1382265576,
  "lat": 52.2071962,
  "lon": 9.5560116
},
{
  "type": "node",
  "id": 1382265619,
  "lat": 52.2074036,
  "lon": 9.5557842
},
{
  "type": "node",
  "id": 1382265624,
  "lat": 52.2074807,
  "lon": 9.5563506
},
{
  "type": "node",
  "id": 1382265635,
  "lat": 52.2075612,
  "lon": 9.5562871
},
{
  "type": "node",
  "id": 2423238511,
  "lat": 52.2747631,
  "lon": 9.3680761
},
{
  "type": "node",
  "id": 2423238514,
  "lat": 52.2747373,
  "lon": 9.3679140
},
{
  "type": "node",
  "id": 2423238516,
  "lat": 52.2748687,
  "lon": 9.3678582
},
{
  "type": "node",
  "id": 2423238537,
  "lat": 52.2748944,
  "lon": 9.3680203
},
{
  "type": "node",
  "id": 5988151992,
  "lat": 52.2748809,
  "lon": 9.3679352
},
{
  "type": "node",
  "id": 5988151993,
  "lat": 52.2748921,
  "lon": 9.3680058
},
{
  "type": "node",
  "id": 5988151994,
  "lat": 52.2749647,
  "lon": 9.3679491
},
{
  "type": "node",
  "id": 5988151995,
  "lat": 52.2749458,
  "lon": 9.3678845
},
{
  "type": "node",
  "id": 2421922517,
  "lat": 52.2359768,
  "lon": 9.4106404
},
{
  "type": "node",
  "id": 2421922550,
  "lat": 52.2358107,
  "lon": 9.4106660
},
{
  "type": "node",
  "id": 2421922570,
  "lat": 52.2357739,
  "lon": 9.4100307
},
{
  "type": "node",
  "id": 2421922579,
  "lat": 52.2359400,
  "lon": 9.4100051
},
{
  "type": "node",
  "id": 3016078115,
  "lat": 52.3322574,
  "lon": 9.3741661
},
{
  "type": "node",
  "id": 3016078116,
  "lat": 52.3321527,
  "lon": 9.3741580
},
{
  "type": "node",
  "id": 3016078117,
  "lat": 52.3321489,
  "lon": 9.3742887
},
{
  "type": "node",
  "id": 3016078118,
  "lat": 52.3322536,
  "lon": 9.3742967
},
{
  "type": "node",
  "id": 2866878542,
  "lat": 52.3006941,
  "lon": 9.4646922
},
{
  "type": "node",
  "id": 2866878543,
  "lat": 52.3006632,
  "lon": 9.4648661
},
{
  "type": "node",
  "id": 2866878544,
  "lat": 52.3005317,
  "lon": 9.4648035
},
{
  "type": "node",
  "id": 2866878545,
  "lat": 52.3005626,
  "lon": 9.4646296
},
{
  "type": "node",
  "id": 2210406187,
  "lat": 52.2719625,
  "lon": 9.5641525
},
{
  "type": "node",
  "id": 2210406189,
  "lat": 52.2720036,
  "lon": 9.5644027
},
{
  "type": "node",
  "id": 2210406202,
  "lat": 52.2720971,
  "lon": 9.5640935
},
{
  "type": "node",
  "id": 2210406204,
  "lat": 52.2721218,
  "lon": 9.5642438
},
{
  "type": "node",
  "id": 2210406207,
  "lat": 52.2721487,
  "lon": 9.5642319
},
{
  "type": "node",
  "id": 2210406209,
  "lat": 52.2721651,
  "lon": 9.5643318
},
{
  "type": "node",
  "id": 2336250834,
  "lat": 52.2721382,
  "lon": 9.5643437
},
{
  "type": "node",
  "id": 1786513683,
  "lat": 52.3113369,
  "lon": 9.6007572
},
{
  "type": "node",
  "id": 1786513684,
  "lat": 52.3113351,
  "lon": 9.6006511
},
{
  "type": "node",
  "id": 1786513705,
  "lat": 52.3114938,
  "lon": 9.6007498
},
{
  "type": "node",
  "id": 1786513706,
  "lat": 52.3114919,
  "lon": 9.6006437
},
{
  "type": "node",
  "id": 1787630265,
  "lat": 52.3113553,
  "lon": 9.6006502
},
{
  "type": "node",
  "id": 2269050947,
  "lat": 52.4010056,
  "lon": 9.5163232
},
{
  "type": "node",
  "id": 2269050948,
  "lat": 52.4012626,
  "lon": 9.5164385
},
{
  "type": "node",
  "id": 2269050949,
  "lat": 52.4010285,
  "lon": 9.5161140
},
{
  "type": "node",
  "id": 2269050950,
  "lat": 52.4011856,
  "lon": 9.5164171
},
{
  "type": "node",
  "id": 2269050951,
  "lat": 52.4010465,
  "lon": 9.5163312
},
{
  "type": "node",
  "id": 2269050952,
  "lat": 52.4010465,
  "lon": 9.5165217
},
{
  "type": "node",
  "id": 2269050953,
  "lat": 52.4012855,
  "lon": 9.5161810
},
{
  "type": "node",
  "id": 2269050954,
  "lat": 52.4011856,
  "lon": 9.5165217
},
{
  "type": "node",
  "id": 2474099771,
  "lat": 52.3187565,
  "lon": 9.6585437
},
{
  "type": "node",
  "id": 2474099782,
  "lat": 52.3185878,
  "lon": 9.6584868
},
{
  "type": "node",
  "id": 2474099785,
  "lat": 52.3185603,
  "lon": 9.6587050
},
{
  "type": "node",
  "id": 2474099787,
  "lat": 52.3187290,
  "lon": 9.6587620
},
{
  "type": "node",
  "id": 2474099789,
  "lat": 52.3186818,
  "lon": 9.6585185
},
{
  "type": "node",
  "id": 2426929376,
  "lat": 52.2646937,
  "lon": 9.7615831
},
{
  "type": "node",
  "id": 2426929393,
  "lat": 52.2646223,
  "lon": 9.7617849
},
{
  "type": "node",
  "id": 2426929394,
  "lat": 52.2647044,
  "lon": 9.7618052
},
{
  "type": "node",
  "id": 2426929418,
  "lat": 52.2646131,
  "lon": 9.7615935
},
{
  "type": "node",
  "id": 6040084757,
  "lat": 52.2646798,
  "lon": 9.7618084
},
{
  "type": "node",
  "id": 6040084758,
  "lat": 52.2646783,
  "lon": 9.7617777
},
{
  "type": "way",
  "id": 524003000,
  "nodes": [
    1098331454,
    1098331540,
    1098331420,
    1098331559,
    1098331437,
    1098331594,
    1098331584,
    1098331586,
    1098331481,
    5100507325,
    5100507324,
    5100507499,
    1098331454
  ]
},
{
  "type": "way",
  "id": 525662785,
  "nodes": [
    1098331568,
    1098331567,
    1098331538,
    1098331418,
    1098331513,
    1098331604,
    1098331574,
    1098331472,
    1098331550,
    1098331452,
    1098331568
  ]
}

  ]
}
