{
  "version": 0.6,
  "generator": "Overpass API 0.7.55.9 ab41fea6",
  "osm3s": {
    "timestamp_osm_base": "2020-02-14T17:27:02Z",
    "copyright": "The data included in this document is from www.openstreetmap.org. The data is made available under ODbL."
  },
  "elements": [

{
  "type": "node",
  "id": 401911168,
  "lat": 59.8176056,
  "lon": 17.7762270,
  "tags": {
    "museum": "nature",
    "name": "Linnés Hammarby",
    "tourism": "museum",
    "url": "http://www.upplandsstiftelsen.se/visa-alla-omraden/linns-hammarby__156",
    "website": "http://www.fmis.raa.se/cocoon/fornsok/search.html?tab=3&page=1&objektid=10023801560001",
    "wikidata": "Q1669062",
    "wikipedia": "sv:Linnés Hammarby"
  }
},
{
  "type": "node",
  "id": 530773183,
  "lat": 59.8532024,
  "lon": 17.6359210,
  "tags": {
    "addr:city": "Uppsala",
    "addr:housenumber": "Ingång A2",
    "addr:postcode": "752 37",
    "addr:street": "Drottning Christinas väg",
    "description": "En samlingsplats kring konflikter och möjligheter. (websida)",
    "description:en": "A gathering place around conflicts and opportunities. (Surce: website)",
    "fee": "no",
    "name": "Fredens hus",
    "name:en": "House of Peace",
    "old_name": "Krig & Fred Fredsmuseum",
    "old_url": "http://www.fredsmuseum.se/",
    "opening_hours": "We-Fr 15:00-18:00; Sa-Su 12:00-16:00",
    "phone": "+46 18 500008",
    "tourism": "museum",
    "website": "https://www.fredenshus.se",
    "wikidata": "Q10498685",
    "wikipedia": "sv:Fredens hus"
  }
},
{
  "type": "node",
  "id": 719696838,
  "lat": 59.8501782,
  "lon": 17.6262391,
  "tags": {
    "addr:city": "Uppsala",
    "addr:country": "SE",
    "addr:housenumber": "9",
    "addr:postcode": "752 36",
    "addr:street": "Villavägen",
    "description": "Ett klassiskt naturhistoriskt museum för djurälskare och dinosauriefantaster i alla åldrar. (websida)",
    "description:en": "Uppsala University's natural history collections - fossils, minerals, animals, and plants - 5 million+ specimens. (Source: website)",
    "museum": "nature",
    "name": "Evolutionsmuseet",
    "name:en": "Museum of Evolution",
    "old_name": "Zoologiska museet",
    "tourism": "museum",
    "website": "http://www.evolutionsmuseet.uu.se",
    "wikidata": "Q10492852",
    "wikipedia": "sv:Evolutionsmuseet"
  }
},
{
  "type": "node",
  "id": 719696844,
  "lat": 59.8492511,
  "lon": 17.6220804,
  "tags": {
    "addr:city": "Uppsala",
    "addr:country": "SE",
    "addr:housenumber": "22",
    "addr:postcode": "752 36",
    "addr:street": "Norbyvägen",
    "description": "Ett klassiskt naturhistoriskt museum för djurälskare och dinosauriefantaster i alla åldrar. (websida)",
    "description:en": "Uppsala University's natural history collections - fossils, minerals, animals, and plants - 5 million+ specimens. (Source: website)",
    "name": "Evolutionsmuseet Paleontologi",
    "name:en": "Museum of Evolution",
    "old_name": "Paleontologiska museet",
    "tourism": "museum",
    "website": "www.evolutionsmuseet.uu.se",
    "wikidata": "Q10492852",
    "wikipedia": "sv:Evolutionsmuseet"
  }
},
{
  "type": "node",
  "id": 1456988664,
  "lat": 59.7852365,
  "lon": 17.0772599,
  "tags": {
    "name": "Härledgården",
    "source": "local_knowledge",
    "tourism": "museum"
  }
},
{
  "type": "node",
  "id": 2422809972,
  "lat": 59.7269193,
  "lon": 17.2667773,
  "tags": {
    "name": "Kvekgården",
    "operator": "Lagunda hembygdsförening",
    "tourism": "museum",
    "wikidata": "Q10551051"
  }
},
{
  "type": "node",
  "id": 2863035474,
  "lat": 59.6414994,
  "lon": 17.9446740,
  "tags": {
    "contact:website": "http://www.arlandaflygsamlingar.se",
    "description:en": "Swedish civil aviation museum",
    "fee": "yes",
    "name": "Arlanda Flygsamlingar",
    "operator": "Arlanda Flygsamlingars Vänner",
    "source": "survey",
    "tourism": "museum"
  }
},
{
  "type": "node",
  "id": 2879571257,
  "lat": 59.6305241,
  "lon": 17.4831167,
  "tags": {
    "name": "Fridegårdsmuseet",
    "tourism": "museum",
    "website": "www.haboportalen.se/nyheter1/fridegardsmuseet"
  }
},
{
  "type": "node",
  "id": 3051542698,
  "lat": 60.1642046,
  "lon": 17.6007984,
  "tags": {
    "name": "Vendel visitor centre",
    "tourism": "museum"
  }
},
{
  "type": "node",
  "id": 3655278161,
  "lat": 59.6170013,
  "lon": 17.7213290,
  "tags": {
    "designation": "Byggnadsminne",
    "name": "Sigtuna Rådhus",
    "source": "survey",
    "tourism": "museum"
  }
},
{
  "type": "node",
  "id": 4340230194,
  "lat": 59.8505250,
  "lon": 17.6278026,
  "tags": {
    "name": "Tropiska Växthuset",
    "opening_hours": "Tu-Fr 09:00-15:00; Sa,Su 12:00-15:00",
    "tourism": "museum"
  }
},
{
  "type": "node",
  "id": 4345427633,
  "lat": 59.8485191,
  "lon": 17.5294927,
  "tags": {
    "name": "Lantbruksmuseum",
    "tourism": "museum"
  }
},
{
  "type": "node",
  "id": 4362527758,
  "lat": 59.8569636,
  "lon": 17.8574331,
  "tags": {
    "tourism": "museum"
  }
},
{
  "type": "node",
  "id": 4880794829,
  "lat": 60.0777281,
  "lon": 17.7383308,
  "tags": {
    "name": "Skyttorps Maskinmuseum",
    "tourism": "museum"
  }
},
{
  "type": "node",
  "id": 6314072786,
  "lat": 59.8575890,
  "lon": 17.6290788,
  "tags": {
    "addr:city": "Uppsala",
    "addr:country": "SE",
    "addr:housenumber": "7D",
    "addr:postcode": "75310",
    "addr:street": "Övre Slottsgatan",
    "museum": "history",
    "name": "Uppsala universitets myntkabinett",
    "tourism": "museum",
    "website": "https://www.gustavianum.uu.se/samlingar/myntkabinett/",
    "wikipedia": "sv:Uppsala universitets myntkabinett"
  }
},
{
  "type": "node",
  "id": 6314483086,
  "lat": 59.8582373,
  "lon": 17.6327102,
  "tags": {
    "addr:city": "Uppsala",
    "addr:housenumber": "2 A",
    "addr:postcode": "75310",
    "addr:street": "Domkyrkoplan",
    "name": "Uppsala domkyrkas skattkammare",
    "opening_hours": "Mo-Sa 10:00-16:00; So,PH 12:30-16:00",
    "phone": "+46 18 4303500",
    "tourism": "museum",
    "website": "https://www.svenskakyrkan.se/uppsala/skattkammaren",
    "wikipedia": "sv:Uppsala domkyrkas skattkammare"
  }
},
{
  "type": "node",
  "id": 6314492885,
  "lat": 59.8530427,
  "lon": 17.6345368,
  "tags": {
    "addr:housenumber": "Ingång E",
    "addr:street": "Uppsala slott",
    "name": "Uppsala konstmuseum",
    "name:fi": "Uppsalan taidemuseo",
    "name:sv": "Uppsala konstmuseum",
    "opening_hours": "Tu,We,Fr-Su 12:00-16:00; Th 12:00-20:00",
    "phone": "+46 18 7272482",
    "tourism": "museum",
    "website": "https://konstmuseum.uppsala.se",
    "wikipedia": "sv:Uppsala konstmuseum"
  }
},
{
  "type": "way",
  "id": 24433739,
  "nodes": [
    359896501,
    265564917,
    1066592800,
    1066592817,
    1066592642,
    265564918,
    1066592833,
    1066592860,
    1066592692,
    265564919,
    1066592711,
    1066592745,
    1066592884,
    265564920,
    1066592688,
    1066592699,
    1066592783,
    1066592798,
    1066592857,
    1066592863,
    1066592835,
    1066592640,
    1066592668,
    265564921,
    1066592648,
    265564922,
    265564923,
    265564924,
    265564925,
    265564926,
    1066592827,
    265564927,
    7195541439,
    7195541430,
    7195541438,
    7195541428,
    1066592772,
    1066592717,
    7195541426,
    265564933,
    1066592709,
    1066592816,
    265564934,
    1066592778,
    265564935,
    1066592858,
    1066592760,
    1066592755,
    1066592829,
    7195541433,
    7195541434,
    7195541431,
    7195541435,
    7195541425,
    7195541416,
    7198145737,
    265564939,
    7195541422,
    1066592784,
    1066592867,
    265564940,
    1066592854,
    265564941,
    1066592646,
    265564942,
    1066592629,
    1066592752,
    1066592696,
    1066592749,
    1066592887,
    1066592803,
    265564943,
    265564944,
    1066592880,
    265564945,
    7195541417,
    361644682,
    1066592726,
    359896501
  ],
  "tags": {
    "addr:city": "Uppsala",
    "addr:country": "SE",
    "addr:housenumber": "1",
    "addr:street": "Drottning Christinas väg",
    "building": "yes",
    "comment": "Here's hoping bings images of central Uppsala are well adjusted.",
    "description:en": "Large castle built in 1549 and extensively rebuilt after a fire in 1702. Today is the governors's residence and houses 3 museums. (Source: sv.Wikipedia)",
    "historic": "castle",
    "name": "Uppsala slott",
    "name:fi": "Uppsalan linna",
    "name:ko": "웁살라 성",
    "name:sv": "Uppsala slott",
    "roof:colour": "black",
    "roof:material": "metal",
    "source": "Bing",
    "start_date": "1500s",
    "tourism": "museum",
    "wheelchair": "limited",
    "wikidata": "Q1475894",
    "wikipedia": "sv:Uppsala slott"
  }
},
{
  "type": "way",
  "id": 25830270,
  "nodes": [
    281742972,
    281742973,
    281742974,
    281742975,
    281742976,
    281742977,
    281742978,
    281742979,
    281742980,
    281742981,
    281742972
  ],
  "tags": {
    "addr:city": "Uppsala",
    "addr:postcode": "75440",
    "addr:street": "Disavägen",
    "building": "yes",
    "building:colour": "gray",
    "building:levels": "2",
    "building:material": "wood",
    "name": "Gamla Uppsala museum",
    "name:de": "Alt-Uppsala",
    "name:en": "Old Uppsala",
    "opening_hours": "Mo-Su 11:00-17:00",
    "phone": "+46 18 239301",
    "roof:colour": "gray",
    "roof:shape": "hipped",
    "start_date": "2000",
    "tourism": "museum",
    "website": "https://www.raa.se/evenemang-och-upplevelser/upplev-kulturarvet/gamla-uppsala-museum/",
    "wikidata": "Q433032",
    "wikipedia": "sv:Gamla Uppsala museum"
  }
},
{
  "type": "way",
  "id": 27652301,
  "nodes": [
    715943197,
    715943198,
    1145347123,
    715943199,
    1145347152,
    715943200,
    715943201,
    303706085,
    1145347095,
    1145347069,
    303706082,
    1145347117,
    1145347169,
    4340416100,
    1145347080,
    1145347163,
    303706083,
    1145347178,
    1145347145,
    303706084,
    715943197
  ],
  "tags": {
    "addr:city": "Uppsala",
    "addr:country": "SE",
    "addr:housenumber": "1",
    "addr:street": "Dag Hammarskjölds väg",
    "alt_name": "Uppsala universitetsbibliotek",
    "amenity": "library",
    "building": "yes",
    "building:colour": "yellow",
    "building:levels": "4",
    "building:material": "plaster",
    "description:en": "Main building of the Uppsala University Library. (source: sv.Wikipedia)",
    "height": "26 m",
    "museum": "books",
    "name": "Carolina Rediviva",
    "operator": "Uppsala Universitet",
    "start_date": "1841",
    "tourism": "museum",
    "website": "http://www.ub.uu.se",
    "wikidata": "Q1044419",
    "wikipedia": "sv:Carolina Rediviva"
  }
},
{
  "type": "way",
  "id": 32119036,
  "nodes": [
    360477639,
    360477641,
    360477644,
    360477645,
    360477639
  ],
  "tags": {
    "addr:city": "Uppsala",
    "addr:country": "SE",
    "addr:housenumber": "3",
    "addr:street": "Akademigatan",
    "alt_name": "Museum Gustavianum",
    "building": "yes",
    "building:colour": "yellow",
    "building:levels": "3",
    "building:material": "plaster",
    "description:en": "Housed in Uppsala University's oldest building; displays the Augsburg Art Cabinet, Viking finds, the university's history, mummies and more accumulated since 1477.(Source: website)",
    "email": "museum@gustavianum.uu.se",
    "fax": "+46 18 4717572",
    "fee": "yes",
    "name": "Gustavianum",
    "opening_hours": "Tu-Su 11:00-16:00; Jun-Aug Tu-Su 10:00-16:00",
    "phone": "+46 18 4717571",
    "roof:colour": "black",
    "roof:material": "metal",
    "roof:shape": "hipped",
    "start_date": "1600s",
    "tourism": "museum",
    "website": "http://www.gustavianum.uu.se/",
    "wheelchair": "limited",
    "wikidata": "Q1506922",
    "wikipedia": "sv:Gustavianum"
  }
},
{
  "type": "way",
  "id": 32119109,
  "nodes": [
    360478099,
    360478100,
    360478101,
    360478102,
    360478103,
    360478104,
    360478105,
    360478106,
    360478107,
    360478108,
    2739316666,
    2739316663,
    2739316662,
    2739316664,
    360478110,
    360478111,
    360478099
  ],
  "tags": {
    "addr:city": "Uppsala",
    "addr:country": "SE",
    "addr:housenumber": "35",
    "addr:street": "Kyrkogårdsgatan",
    "building": "yes",
    "fee": "no",
    "name": "Biotopia",
    "opening_hours": "Tu-Fr 09:00-17:00; Sa,Su 11:00-17:00",
    "phone": "+46 18 7276370",
    "tourism": "museum",
    "website": "http://www.biotopia.nu/",
    "wikidata": "Q10429834",
    "wikipedia": "sv:Biotopia"
  }
},
{
  "type": "way",
  "id": 32244335,
  "nodes": [
    361616921,
    2449594423,
    2449594428,
    2449594406,
    2449594381,
    361616923,
    361616924,
    361616926,
    2449594421,
    2449594387,
    361616921
  ],
  "tags": {
    "addr:city": "Uppsala",
    "addr:country": "SE",
    "addr:housenumber": "10",
    "addr:street": "Sankt Eriks torg",
    "building": "yes",
    "email": "info@upplandsmuseet.se",
    "fee": "no",
    "name": "Upplandsmuseet",
    "opening_hours": "Tu-Su 12:00-17:00",
    "phone": "+46 18 169100",
    "tourism": "museum",
    "website": "https://www.upplandsmuseet.se/",
    "wheelchair": "yes",
    "wikidata": "Q7899155",
    "wikipedia": "sv:Upplandsmuseet"
  }
},
{
  "type": "way",
  "id": 67567195,
  "nodes": [
    816012812,
    816012791,
    816012761,
    816012934,
    816012739,
    816012911,
    816012883,
    816012854,
    816012864,
    816012834,
    816012812
  ],
  "tags": {
    "building": "yes",
    "name": "Sigtuna Museum",
    "source": "Yahoo",
    "tourism": "museum",
    "wikidata": "Q10667705"
  }
},
{
  "type": "way",
  "id": 85469973,
  "nodes": [
    990896128,
    990896598,
    990896140,
    990896615,
    990896919,
    1038036007,
    990896825,
    990896128
  ],
  "tags": {
    "addr:city": "Uppsala",
    "addr:country": "SE",
    "addr:housenumber": "8",
    "addr:postcode": "75643",
    "addr:street": "Eva Lagerwalls väg",
    "building": "yes",
    "name": "Medicinhistoriska museet",
    "opening_hours": "Tu,Th 13:00-17:00",
    "operator": "Uppsala universitet",
    "phone": "+46 18 6112610",
    "source": "yahoo",
    "tourism": "museum",
    "website": "https://www.medicinhistoriskamuseet.uu.se/",
    "wikidata": "Q28934713",
    "wikipedia": "sv:Medicinhistoriska museet i Uppsala"
  }
},
{
  "type": "way",
  "id": 85469999,
  "nodes": [
    990896128,
    990896863,
    1038036020,
    990896474,
    990896791,
    990896675,
    990896598,
    990896128
  ],
  "tags": {
    "addr:city": "Uppsala",
    "addr:country": "SE",
    "addr:housenumber": "10",
    "addr:street": "Eva Lagerwalls väg",
    "building": "yes",
    "name": "Psykiatrihistoriska museet",
    "source": "yahoo",
    "tourism": "museum",
    "wikidata": "Q28934716"
  }
},
{
  "type": "way",
  "id": 90770760,
  "nodes": [
    1053671849,
    1053671816,
    1053671857,
    1053671784,
    1053672015,
    1053671771,
    1053671994,
    1053671978,
    1053671917,
    1053672004,
    1053671849
  ],
  "tags": {
    "addr:city": "Uppsala",
    "addr:country": "SE",
    "addr:housenumber": "2",
    "addr:street": "Munkgatan",
    "building": "yes",
    "description": "Museum för kommunal teknik",
    "name": "Pumphuset",
    "opening_hours": "\"only at special events or after registration\"",
    "operator": "Uppsala Vatten och Avfall AB",
    "source": "Bing",
    "tourism": "museum",
    "website": "https://www.uppsalavatten.se/pumphuset",
    "wikidata": "Q10646713",
    "wikipedia": "sv:Pumphuset, Uppsala"
  }
},
{
  "type": "way",
  "id": 127177957,
  "nodes": [
    1408273905,
    1408273884,
    1408273877,
    1408273902,
    1408273910,
    1408273933,
    1408273925,
    1408273940,
    1408273912,
    1408273939,
    1408273960,
    1408273951,
    1408273954,
    1408273909,
    1408273905
  ],
  "tags": {
    "addr:city": "Uppsala",
    "addr:country": "SE",
    "addr:housenumber": "26",
    "addr:street": "Norbyvägen",
    "building": "yes",
    "building:colour": "red",
    "building:levels": "2",
    "building:material": "wood",
    "description:en": "House and art of Swedish sculptor & painter Bror Hjorth (1894–1968).",
    "museum": "art",
    "name": "Bror Hjorths Hus",
    "roof:material": "metal",
    "roof:shape": "gabled",
    "start_date": "1943",
    "tourism": "museum",
    "website": "www.brorhjorthshus.se",
    "wikidata": "Q3369210",
    "wikipedia": "sv:Bror Hjorths Hus",
    "wikipedia:en": "Bror Hjorth"
  }
},
{
  "type": "way",
  "id": 153855017,
  "nodes": [
    1664850363,
    1664850361,
    1664850368,
    1664850369,
    1664850404,
    1664850407,
    1664850374,
    1664850375,
    1664850367,
    1664850364,
    1664850360,
    1664850355,
    1664850363
  ],
  "tags": {
    "addr:city": "Bålsta",
    "addr:country": "SE",
    "addr:housenumber": "10",
    "addr:street": "Kalmarvägen",
    "building": "yes",
    "email": "info@abergsmuseum.se",
    "fax": "+46 8 4110047",
    "name": "Åbergs museum",
    "opening_hours": "Mo-Su 11:00-16:00",
    "phone": "+46 8 4110040",
    "tourism": "museum",
    "website": "http://www.abergsmuseum.se/",
    "wheelchair": "yes",
    "wikidata": "Q10726153",
    "wikipedia": "sv:Åbergs museum"
  }
},
{
  "type": "way",
  "id": 209647699,
  "nodes": [
    2198344660,
    2198344761,
    272008585,
    2198344760,
    2198344660
  ],
  "tags": {
    "addr:city": "Uppsala",
    "addr:country": "SE",
    "addr:housenumber": "27",
    "addr:street": "Svartbäcksgatan",
    "building": "yes",
    "name": "Linnémuseet",
    "opening_hours": "Tu-Su 11:00-17:00",
    "phone": "+46 18 136540",
    "tourism": "museum",
    "website": "http://www.linnaeus.se/",
    "wikipedia": "sv:Linnémuseet"
  }
},
{
  "type": "way",
  "id": 350150464,
  "nodes": [
    3559077527,
    3559077259,
    821123932,
    3559077258,
    6620122430,
    6620122431,
    6620122435,
    6620122434,
    6620122432,
    6620122433,
    3559077269,
    3559077260,
    3559077530,
    3559077246,
    3559077274,
    3559077265,
    3559077513,
    3559077257,
    3559077527
  ],
  "tags": {
    "description:en": "Open-air museum of relocated houses from the 1500s, 1600s, 1700s and 1800s that together give a picture of how an Uppland village could look like in the mid-1800s. (Source: Wikipedia:sv)",
    "fee": "no",
    "name": "Disagården",
    "opening_hours": "Jun-Aug Mo-Su 10:00-17:00",
    "operator": "Upplandsmuseet",
    "source": "unknown;Bing",
    "tourism": "museum",
    "website": "https://www.upplandsmuseet.se/",
    "wikidata": "Q10474049",
    "wikipedia": "sv:Disagården"
  }
},
{
  "type": "way",
  "id": 350153734,
  "nodes": [
    3559105553,
    3559105577,
    3559105578,
    3559105726,
    3559105553
  ],
  "tags": {
    "building": "yes",
    "name": "Sockenmuseet",
    "opening_hours": "May-Aug Sa-Su 13:00-16:00",
    "source": "Bing",
    "tourism": "museum"
  }
},
{
  "type": "way",
  "id": 484595889,
  "nodes": [
    4773460939,
    4773460938,
    4773460937,
    4773460936,
    4773460939
  ],
  "tags": {
    "alt_name": "Häggeby Skol- och Bygdemuseum",
    "building": "yes",
    "description": "Föredetta småskola är nu ett skolmuseum.",
    "name": "Häggeby skolmuseum",
    "operator": "Föreningen Häggeby Skol- och Bygdemuseum",
    "tourism": "museum",
    "website": "http://www.xn--hggeby-bua.se/"
  }
},
{
  "type": "node",
  "id": 1664850355,
  "lat": 59.5579305,
  "lon": 17.5201062
},
{
  "type": "node",
  "id": 1664850360,
  "lat": 59.5579494,
  "lon": 17.5202909
},
{
  "type": "node",
  "id": 1664850361,
  "lat": 59.5579702,
  "lon": 17.5198221
},
{
  "type": "node",
  "id": 1664850363,
  "lat": 59.5579947,
  "lon": 17.5200806
},
{
  "type": "node",
  "id": 1664850364,
  "lat": 59.5580122,
  "lon": 17.5202659
},
{
  "type": "node",
  "id": 1664850367,
  "lat": 59.5580371,
  "lon": 17.5205288
},
{
  "type": "node",
  "id": 1664850368,
  "lat": 59.5580887,
  "lon": 17.5197784
},
{
  "type": "node",
  "id": 1664850369,
  "lat": 59.5581128,
  "lon": 17.5200336
},
{
  "type": "node",
  "id": 1664850374,
  "lat": 59.5581304,
  "lon": 17.5202188
},
{
  "type": "node",
  "id": 1664850375,
  "lat": 59.5581556,
  "lon": 17.5204851
},
{
  "type": "node",
  "id": 1664850404,
  "lat": 59.5583987,
  "lon": 17.5199197
},
{
  "type": "node",
  "id": 1664850407,
  "lat": 59.5584176,
  "lon": 17.5201044
},
{
  "type": "node",
  "id": 4773460936,
  "lat": 59.6579324,
  "lon": 17.5460369
},
{
  "type": "node",
  "id": 4773460937,
  "lat": 59.6578497,
  "lon": 17.5461171
},
{
  "type": "node",
  "id": 4773460938,
  "lat": 59.6577795,
  "lon": 17.5458335
},
{
  "type": "node",
  "id": 4773460939,
  "lat": 59.6578621,
  "lon": 17.5457533
},
{
  "type": "node",
  "id": 816012739,
  "lat": 59.6151425,
  "lon": 17.7188381
},
{
  "type": "node",
  "id": 816012761,
  "lat": 59.6150198,
  "lon": 17.7187736
},
{
  "type": "node",
  "id": 816012791,
  "lat": 59.6149349,
  "lon": 17.7186889
},
{
  "type": "node",
  "id": 816012812,
  "lat": 59.6149828,
  "lon": 17.7185425
},
{
  "type": "node",
  "id": 816012834,
  "lat": 59.6150104,
  "lon": 17.7185755
},
{
  "type": "node",
  "id": 816012854,
  "lat": 59.6151940,
  "lon": 17.7186846
},
{
  "type": "node",
  "id": 816012864,
  "lat": 59.6150227,
  "lon": 17.7185210
},
{
  "type": "node",
  "id": 816012883,
  "lat": 59.6152864,
  "lon": 17.7193146
},
{
  "type": "node",
  "id": 816012911,
  "lat": 59.6152340,
  "lon": 17.7193540
},
{
  "type": "node",
  "id": 816012934,
  "lat": 59.6150322,
  "lon": 17.7187319
},
{
  "type": "node",
  "id": 990896128,
  "lat": 59.8291643,
  "lon": 17.6510402
},
{
  "type": "node",
  "id": 990896140,
  "lat": 59.8294176,
  "lon": 17.6508601
},
{
  "type": "node",
  "id": 990896474,
  "lat": 59.8293956,
  "lon": 17.6512596
},
{
  "type": "node",
  "id": 990896598,
  "lat": 59.8294245,
  "lon": 17.6509823
},
{
  "type": "node",
  "id": 990896615,
  "lat": 59.8293741,
  "lon": 17.6508698
},
{
  "type": "node",
  "id": 990896675,
  "lat": 59.8294325,
  "lon": 17.6511232
},
{
  "type": "node",
  "id": 990896791,
  "lat": 59.8293886,
  "lon": 17.6511329
},
{
  "type": "node",
  "id": 990896825,
  "lat": 59.8291492,
  "lon": 17.6507725
},
{
  "type": "node",
  "id": 990896863,
  "lat": 59.8291794,
  "lon": 17.6513078
},
{
  "type": "node",
  "id": 990896919,
  "lat": 59.8293660,
  "lon": 17.6507242
},
{
  "type": "node",
  "id": 1038036007,
  "lat": 59.8292582,
  "lon": 17.6507482
},
{
  "type": "node",
  "id": 1038036020,
  "lat": 59.8292933,
  "lon": 17.6512824
},
{
  "type": "node",
  "id": 1408273877,
  "lat": 59.8491392,
  "lon": 17.6202109
},
{
  "type": "node",
  "id": 1408273884,
  "lat": 59.8491739,
  "lon": 17.6203383
},
{
  "type": "node",
  "id": 1408273902,
  "lat": 59.8492266,
  "lon": 17.6201163
},
{
  "type": "node",
  "id": 1408273905,
  "lat": 59.8492307,
  "lon": 17.6202768
},
{
  "type": "node",
  "id": 1408273909,
  "lat": 59.8492424,
  "lon": 17.6203194
},
{
  "type": "node",
  "id": 1408273910,
  "lat": 59.8492448,
  "lon": 17.6201829
},
{
  "type": "node",
  "id": 1408273912,
  "lat": 59.8492709,
  "lon": 17.6197656
},
{
  "type": "node",
  "id": 1408273925,
  "lat": 59.8493100,
  "lon": 17.6200167
},
{
  "type": "node",
  "id": 1408273933,
  "lat": 59.8493230,
  "lon": 17.6200982
},
{
  "type": "node",
  "id": 1408273939,
  "lat": 59.8493336,
  "lon": 17.6196798
},
{
  "type": "node",
  "id": 1408273940,
  "lat": 59.8493491,
  "lon": 17.6199919
},
{
  "type": "node",
  "id": 1408273951,
  "lat": 59.8493708,
  "lon": 17.6199856
},
{
  "type": "node",
  "id": 1408273954,
  "lat": 59.8493982,
  "lon": 17.6201566
},
{
  "type": "node",
  "id": 1408273960,
  "lat": 59.8494172,
  "lon": 17.6199220
},
{
  "type": "node",
  "id": 360478099,
  "lat": 59.8598859,
  "lon": 17.6220545
},
{
  "type": "node",
  "id": 360478100,
  "lat": 59.8599481,
  "lon": 17.6219371
},
{
  "type": "node",
  "id": 360478101,
  "lat": 59.8600118,
  "lon": 17.6220711
},
{
  "type": "node",
  "id": 360478102,
  "lat": 59.8600506,
  "lon": 17.6219979
},
{
  "type": "node",
  "id": 360478103,
  "lat": 59.8602257,
  "lon": 17.6223656
},
{
  "type": "node",
  "id": 360478104,
  "lat": 59.8601933,
  "lon": 17.6224268
},
{
  "type": "node",
  "id": 360478105,
  "lat": 59.8602334,
  "lon": 17.6225110
},
{
  "type": "node",
  "id": 360478107,
  "lat": 59.8601367,
  "lon": 17.6226070
},
{
  "type": "node",
  "id": 360478110,
  "lat": 59.8598942,
  "lon": 17.6222405
},
{
  "type": "node",
  "id": 360478111,
  "lat": 59.8599365,
  "lon": 17.6221606
},
{
  "type": "node",
  "id": 2739316662,
  "lat": 59.8598741,
  "lon": 17.6226047
},
{
  "type": "node",
  "id": 2739316664,
  "lat": 59.8599760,
  "lon": 17.6224123
},
{
  "type": "node",
  "id": 2739316666,
  "lat": 59.8600417,
  "lon": 17.6225327
},
{
  "type": "node",
  "id": 360478106,
  "lat": 59.8601584,
  "lon": 17.6226526
},
{
  "type": "node",
  "id": 360478108,
  "lat": 59.8601054,
  "lon": 17.6226663
},
{
  "type": "node",
  "id": 2739316663,
  "lat": 59.8599355,
  "lon": 17.6227334
},
{
  "type": "node",
  "id": 265564917,
  "lat": 59.8529038,
  "lon": 17.6346439
},
{
  "type": "node",
  "id": 265564918,
  "lat": 59.8528435,
  "lon": 17.6346234
},
{
  "type": "node",
  "id": 265564919,
  "lat": 59.8528005,
  "lon": 17.6345277
},
{
  "type": "node",
  "id": 265564920,
  "lat": 59.8527988,
  "lon": 17.6343935
},
{
  "type": "node",
  "id": 265564921,
  "lat": 59.8529474,
  "lon": 17.6343054
},
{
  "type": "node",
  "id": 265564922,
  "lat": 59.8529708,
  "lon": 17.6343574
},
{
  "type": "node",
  "id": 265564923,
  "lat": 59.8529715,
  "lon": 17.6343653
},
{
  "type": "node",
  "id": 265564924,
  "lat": 59.8531420,
  "lon": 17.6342320
},
{
  "type": "node",
  "id": 265564925,
  "lat": 59.8532240,
  "lon": 17.6346528
},
{
  "type": "node",
  "id": 265564926,
  "lat": 59.8530824,
  "lon": 17.6347715
},
{
  "type": "node",
  "id": 265564927,
  "lat": 59.8531515,
  "lon": 17.6351075
},
{
  "type": "node",
  "id": 265564933,
  "lat": 59.8543671,
  "lon": 17.6348877
},
{
  "type": "node",
  "id": 265564934,
  "lat": 59.8544512,
  "lon": 17.6349334
},
{
  "type": "node",
  "id": 265564935,
  "lat": 59.8544725,
  "lon": 17.6350438
},
{
  "type": "node",
  "id": 303706082,
  "lat": 59.8549141,
  "lon": 17.6320800
},
{
  "type": "node",
  "id": 303706083,
  "lat": 59.8554510,
  "lon": 17.6310915
},
{
  "type": "node",
  "id": 303706084,
  "lat": 59.8550460,
  "lon": 17.6302651
},
{
  "type": "node",
  "id": 303706085,
  "lat": 59.8545326,
  "lon": 17.6312062
},
{
  "type": "node",
  "id": 359896501,
  "lat": 59.8529514,
  "lon": 17.6348780
},
{
  "type": "node",
  "id": 361644682,
  "lat": 59.8529865,
  "lon": 17.6350196
},
{
  "type": "node",
  "id": 715943197,
  "lat": 59.8548367,
  "lon": 17.6306504
},
{
  "type": "node",
  "id": 715943198,
  "lat": 59.8548094,
  "lon": 17.6306086
},
{
  "type": "node",
  "id": 715943199,
  "lat": 59.8547447,
  "lon": 17.6306354
},
{
  "type": "node",
  "id": 715943200,
  "lat": 59.8547259,
  "lon": 17.6307481
},
{
  "type": "node",
  "id": 715943201,
  "lat": 59.8547425,
  "lon": 17.6308198
},
{
  "type": "node",
  "id": 1066592640,
  "lat": 59.8529123,
  "lon": 17.6342716
},
{
  "type": "node",
  "id": 1066592642,
  "lat": 59.8528554,
  "lon": 17.6346342
},
{
  "type": "node",
  "id": 1066592648,
  "lat": 59.8529599,
  "lon": 17.6343284
},
{
  "type": "node",
  "id": 1066592668,
  "lat": 59.8529272,
  "lon": 17.6342817
},
{
  "type": "node",
  "id": 1066592688,
  "lat": 59.8528065,
  "lon": 17.6343604
},
{
  "type": "node",
  "id": 1066592692,
  "lat": 59.8528111,
  "lon": 17.6345663
},
{
  "type": "node",
  "id": 1066592699,
  "lat": 59.8528215,
  "lon": 17.6343217
},
{
  "type": "node",
  "id": 1066592709,
  "lat": 59.8543974,
  "lon": 17.6348809
},
{
  "type": "node",
  "id": 1066592711,
  "lat": 59.8527966,
  "lon": 17.6345043
},
{
  "type": "node",
  "id": 1066592717,
  "lat": 59.8543356,
  "lon": 17.6349217
},
{
  "type": "node",
  "id": 1066592726,
  "lat": 59.8529566,
  "lon": 17.6348742
},
{
  "type": "node",
  "id": 1066592745,
  "lat": 59.8527947,
  "lon": 17.6344855
},
{
  "type": "node",
  "id": 1066592755,
  "lat": 59.8544274,
  "lon": 17.6351876
},
{
  "type": "node",
  "id": 1066592760,
  "lat": 59.8544510,
  "lon": 17.6351523
},
{
  "type": "node",
  "id": 1066592772,
  "lat": 59.8543193,
  "lon": 17.6348484
},
{
  "type": "node",
  "id": 1066592778,
  "lat": 59.8544671,
  "lon": 17.6349848
},
{
  "type": "node",
  "id": 1066592783,
  "lat": 59.8528338,
  "lon": 17.6343010
},
{
  "type": "node",
  "id": 1066592798,
  "lat": 59.8528486,
  "lon": 17.6342838
},
{
  "type": "node",
  "id": 1066592800,
  "lat": 59.8528793,
  "lon": 17.6346455
},
{
  "type": "node",
  "id": 1066592816,
  "lat": 59.8544269,
  "lon": 17.6348970
},
{
  "type": "node",
  "id": 1066592817,
  "lat": 59.8528698,
  "lon": 17.6346426
},
{
  "type": "node",
  "id": 1066592827,
  "lat": 59.8531138,
  "lon": 17.6349243
},
{
  "type": "node",
  "id": 1066592829,
  "lat": 59.8543992,
  "lon": 17.6352038
},
{
  "type": "node",
  "id": 1066592833,
  "lat": 59.8528265,
  "lon": 17.6346000
},
{
  "type": "node",
  "id": 1066592835,
  "lat": 59.8528978,
  "lon": 17.6342667
},
{
  "type": "node",
  "id": 1066592857,
  "lat": 59.8528637,
  "lon": 17.6342727
},
{
  "type": "node",
  "id": 1066592858,
  "lat": 59.8544667,
  "lon": 17.6351022
},
{
  "type": "node",
  "id": 1066592860,
  "lat": 59.8528185,
  "lon": 17.6345845
},
{
  "type": "node",
  "id": 1066592863,
  "lat": 59.8528787,
  "lon": 17.6342670
},
{
  "type": "node",
  "id": 1066592884,
  "lat": 59.8527939,
  "lon": 17.6344394
},
{
  "type": "node",
  "id": 1145347069,
  "lat": 59.8547949,
  "lon": 17.6318232
},
{
  "type": "node",
  "id": 1145347080,
  "lat": 59.8552403,
  "lon": 17.6314794
},
{
  "type": "node",
  "id": 1145347095,
  "lat": 59.8548079,
  "lon": 17.6317991
},
{
  "type": "node",
  "id": 1145347117,
  "lat": 59.8549835,
  "lon": 17.6319522
},
{
  "type": "node",
  "id": 1145347123,
  "lat": 59.8547734,
  "lon": 17.6305974
},
{
  "type": "node",
  "id": 1145347145,
  "lat": 59.8553238,
  "lon": 17.6308634
},
{
  "type": "node",
  "id": 1145347152,
  "lat": 59.8547252,
  "lon": 17.6306857
},
{
  "type": "node",
  "id": 1145347163,
  "lat": 59.8554335,
  "lon": 17.6311237
},
{
  "type": "node",
  "id": 1145347169,
  "lat": 59.8551379,
  "lon": 17.6316679
},
{
  "type": "node",
  "id": 1145347178,
  "lat": 59.8553353,
  "lon": 17.6308422
},
{
  "type": "node",
  "id": 4340416100,
  "lat": 59.8551890,
  "lon": 17.6315749
},
{
  "type": "node",
  "id": 7195541417,
  "lat": 59.8530258,
  "lon": 17.6352101
},
{
  "type": "node",
  "id": 7195541425,
  "lat": 59.8543113,
  "lon": 17.6350864
},
{
  "type": "node",
  "id": 7195541426,
  "lat": 59.8543528,
  "lon": 17.6348995
},
{
  "type": "node",
  "id": 7195541428,
  "lat": 59.8534222,
  "lon": 17.6356128
},
{
  "type": "node",
  "id": 7195541430,
  "lat": 59.8533475,
  "lon": 17.6354733
},
{
  "type": "node",
  "id": 7195541431,
  "lat": 59.8543307,
  "lon": 17.6351513
},
{
  "type": "node",
  "id": 7195541433,
  "lat": 59.8543747,
  "lon": 17.6352014
},
{
  "type": "node",
  "id": 7195541434,
  "lat": 59.8543454,
  "lon": 17.6351768
},
{
  "type": "node",
  "id": 7195541435,
  "lat": 59.8543198,
  "lon": 17.6351211
},
{
  "type": "node",
  "id": 7195541438,
  "lat": 59.8533859,
  "lon": 17.6354425
},
{
  "type": "node",
  "id": 7195541439,
  "lat": 59.8532559,
  "lon": 17.6350294
},
{
  "type": "node",
  "id": 265564939,
  "lat": 59.8532648,
  "lon": 17.6359465
},
{
  "type": "node",
  "id": 265564940,
  "lat": 59.8532649,
  "lon": 17.6361122
},
{
  "type": "node",
  "id": 265564941,
  "lat": 59.8532242,
  "lon": 17.6361677
},
{
  "type": "node",
  "id": 265564942,
  "lat": 59.8531910,
  "lon": 17.6361689
},
{
  "type": "node",
  "id": 265564943,
  "lat": 59.8531370,
  "lon": 17.6359903
},
{
  "type": "node",
  "id": 265564944,
  "lat": 59.8531433,
  "lon": 17.6359595
},
{
  "type": "node",
  "id": 265564945,
  "lat": 59.8531656,
  "lon": 17.6359105
},
{
  "type": "node",
  "id": 1053671771,
  "lat": 59.8546760,
  "lon": 17.6412453
},
{
  "type": "node",
  "id": 1053671784,
  "lat": 59.8546283,
  "lon": 17.6413222
},
{
  "type": "node",
  "id": 1053671816,
  "lat": 59.8544615,
  "lon": 17.6414747
},
{
  "type": "node",
  "id": 1053671849,
  "lat": 59.8544057,
  "lon": 17.6415351
},
{
  "type": "node",
  "id": 1053671857,
  "lat": 59.8544674,
  "lon": 17.6414964
},
{
  "type": "node",
  "id": 1053671917,
  "lat": 59.8544654,
  "lon": 17.6417538
},
{
  "type": "node",
  "id": 1053671978,
  "lat": 59.8547351,
  "lon": 17.6414618
},
{
  "type": "node",
  "id": 1053671994,
  "lat": 59.8546814,
  "lon": 17.6412651
},
{
  "type": "node",
  "id": 1053672004,
  "lat": 59.8544212,
  "lon": 17.6415919
},
{
  "type": "node",
  "id": 1053672015,
  "lat": 59.8546230,
  "lon": 17.6413027
},
{
  "type": "node",
  "id": 1066592629,
  "lat": 59.8531752,
  "lon": 17.6361581
},
{
  "type": "node",
  "id": 1066592646,
  "lat": 59.8532077,
  "lon": 17.6361721
},
{
  "type": "node",
  "id": 1066592696,
  "lat": 59.8531494,
  "lon": 17.6361166
},
{
  "type": "node",
  "id": 1066592749,
  "lat": 59.8531408,
  "lon": 17.6360881
},
{
  "type": "node",
  "id": 1066592752,
  "lat": 59.8531611,
  "lon": 17.6361403
},
{
  "type": "node",
  "id": 1066592784,
  "lat": 59.8532781,
  "lon": 17.6360178
},
{
  "type": "node",
  "id": 1066592803,
  "lat": 59.8531344,
  "lon": 17.6360232
},
{
  "type": "node",
  "id": 1066592854,
  "lat": 59.8532536,
  "lon": 17.6361369
},
{
  "type": "node",
  "id": 1066592867,
  "lat": 59.8532774,
  "lon": 17.6360511
},
{
  "type": "node",
  "id": 1066592880,
  "lat": 59.8531530,
  "lon": 17.6359324
},
{
  "type": "node",
  "id": 1066592887,
  "lat": 59.8531357,
  "lon": 17.6360563
},
{
  "type": "node",
  "id": 7195541416,
  "lat": 59.8534547,
  "lon": 17.6357905
},
{
  "type": "node",
  "id": 7195541422,
  "lat": 59.8532749,
  "lon": 17.6359851
},
{
  "type": "node",
  "id": 7198145737,
  "lat": 59.8534157,
  "lon": 17.6358243
},
{
  "type": "node",
  "id": 272008585,
  "lat": 59.8615438,
  "lon": 17.6335905
},
{
  "type": "node",
  "id": 360477639,
  "lat": 59.8576540,
  "lon": 17.6316903
},
{
  "type": "node",
  "id": 360477641,
  "lat": 59.8576679,
  "lon": 17.6319031
},
{
  "type": "node",
  "id": 360477644,
  "lat": 59.8582309,
  "lon": 17.6317569
},
{
  "type": "node",
  "id": 360477645,
  "lat": 59.8582170,
  "lon": 17.6315441
},
{
  "type": "node",
  "id": 361616921,
  "lat": 59.8587418,
  "lon": 17.6350233
},
{
  "type": "node",
  "id": 361616923,
  "lat": 59.8589398,
  "lon": 17.6353447
},
{
  "type": "node",
  "id": 361616924,
  "lat": 59.8590551,
  "lon": 17.6350144
},
{
  "type": "node",
  "id": 361616926,
  "lat": 59.8587974,
  "lon": 17.6346551
},
{
  "type": "node",
  "id": 2198344660,
  "lat": 59.8617386,
  "lon": 17.6337459
},
{
  "type": "node",
  "id": 2198344760,
  "lat": 59.8616724,
  "lon": 17.6338653
},
{
  "type": "node",
  "id": 2198344761,
  "lat": 59.8616118,
  "lon": 17.6334661
},
{
  "type": "node",
  "id": 2449594381,
  "lat": 59.8589248,
  "lon": 17.6353240
},
{
  "type": "node",
  "id": 2449594387,
  "lat": 59.8587412,
  "lon": 17.6349676
},
{
  "type": "node",
  "id": 2449594406,
  "lat": 59.8589016,
  "lon": 17.6352918
},
{
  "type": "node",
  "id": 2449594421,
  "lat": 59.8587863,
  "lon": 17.6346961
},
{
  "type": "node",
  "id": 2449594423,
  "lat": 59.8587513,
  "lon": 17.6350743
},
{
  "type": "node",
  "id": 2449594428,
  "lat": 59.8587818,
  "lon": 17.6351287
},
{
  "type": "node",
  "id": 821123932,
  "lat": 59.9007792,
  "lon": 17.6290859
},
{
  "type": "node",
  "id": 3559077246,
  "lat": 59.9012282,
  "lon": 17.6286147
},
{
  "type": "node",
  "id": 3559077258,
  "lat": 59.9002950,
  "lon": 17.6291050
},
{
  "type": "node",
  "id": 3559077260,
  "lat": 59.9011232,
  "lon": 17.6283089
},
{
  "type": "node",
  "id": 3559077269,
  "lat": 59.9003071,
  "lon": 17.6282488
},
{
  "type": "node",
  "id": 3559077530,
  "lat": 59.9011824,
  "lon": 17.6283464
},
{
  "type": "node",
  "id": 6620122430,
  "lat": 59.9002069,
  "lon": 17.6286554
},
{
  "type": "node",
  "id": 6620122431,
  "lat": 59.8999128,
  "lon": 17.6286819
},
{
  "type": "node",
  "id": 6620122432,
  "lat": 59.8996577,
  "lon": 17.6270992
},
{
  "type": "node",
  "id": 6620122433,
  "lat": 59.9001110,
  "lon": 17.6272898
},
{
  "type": "node",
  "id": 6620122434,
  "lat": 59.8996491,
  "lon": 17.6280162
},
{
  "type": "node",
  "id": 6620122435,
  "lat": 59.8999255,
  "lon": 17.6280572
},
{
  "type": "node",
  "id": 281742972,
  "lat": 59.8979214,
  "lon": 17.6339035
},
{
  "type": "node",
  "id": 281742973,
  "lat": 59.8978956,
  "lon": 17.6336117
},
{
  "type": "node",
  "id": 281742974,
  "lat": 59.8978366,
  "lon": 17.6334676
},
{
  "type": "node",
  "id": 281742975,
  "lat": 59.8977664,
  "lon": 17.6333542
},
{
  "type": "node",
  "id": 281742976,
  "lat": 59.8976846,
  "lon": 17.6333198
},
{
  "type": "node",
  "id": 281742977,
  "lat": 59.8976115,
  "lon": 17.6333198
},
{
  "type": "node",
  "id": 281742978,
  "lat": 59.8976287,
  "lon": 17.6334829
},
{
  "type": "node",
  "id": 281742979,
  "lat": 59.8976588,
  "lon": 17.6336803
},
{
  "type": "node",
  "id": 281742980,
  "lat": 59.8977191,
  "lon": 17.6338520
},
{
  "type": "node",
  "id": 281742981,
  "lat": 59.8978009,
  "lon": 17.6339121
},
{
  "type": "node",
  "id": 3559077257,
  "lat": 59.9013214,
  "lon": 17.6301807
},
{
  "type": "node",
  "id": 3559077259,
  "lat": 59.9008196,
  "lon": 17.6294912
},
{
  "type": "node",
  "id": 3559077265,
  "lat": 59.9012875,
  "lon": 17.6294242
},
{
  "type": "node",
  "id": 3559077274,
  "lat": 59.9012820,
  "lon": 17.6292477
},
{
  "type": "node",
  "id": 3559077513,
  "lat": 59.9012900,
  "lon": 17.6295052
},
{
  "type": "node",
  "id": 3559077527,
  "lat": 59.9008042,
  "lon": 17.6297354
},
{
  "type": "node",
  "id": 3559105553,
  "lat": 59.8992249,
  "lon": 17.6309814
},
{
  "type": "node",
  "id": 3559105577,
  "lat": 59.8991576,
  "lon": 17.6309416
},
{
  "type": "node",
  "id": 3559105578,
  "lat": 59.8991732,
  "lon": 17.6308369
},
{
  "type": "node",
  "id": 3559105726,
  "lat": 59.8992405,
  "lon": 17.6308767
}

  ]
}
