{
  "version": 0.6,
  "generator": "Overpass API 0.7.55.9 ab41fea6",
  "osm3s": {
    "timestamp_osm_base": "2020-02-14T09:53:02Z",
    "copyright": "The data included in this document is from www.openstreetmap.org. The data is made available under ODbL."
  },
  "elements": [

{
  "type": "node",
  "id": 20629016,
  "lat": 51.2317964,
  "lon": -0.3335696,
  "tags": {
    "addr:city": "Dorking",
    "addr:housenumber": "61",
    "addr:street": "West Street",
    "name": "Dorking Museum",
    "toilets:wheelchair": "no",
    "tourism": "museum",
    "wheelchair": "yes",
    "wheelchair:description": "Step free. Internal layout ok for accessibility scooters."
  }
},
{
  "type": "node",
  "id": 30361827,
  "lat": 51.2213704,
  "lon": -0.6289191,
  "tags": {
    "addr:city": "Compton",
    "addr:postcode": "GU3 1DQ",
    "addr:street": "Down Lane",
    "name": "Watts Gallery",
    "postal_code": "GU3 1DQ",
    "toilets:wheelchair": "yes",
    "tourism": "museum",
    "website": "https://www.wattsgallery.org.uk/",
    "wheelchair": "yes",
    "wheelchair:description": "Sloping gravel path from pay point. Low door sill at entrance. 2 lifts to lower galleries. Accessible toilet on main level."
  }
},
{
  "type": "node",
  "id": 90615739,
  "lat": 50.8199494,
  "lon": -0.1420448,
  "tags": {
    "addr:city": "Brighton",
    "addr:housename": "195 - 196 Kings Road Arches",
    "addr:postcode": "BN1 1NB",
    "fee": "no",
    "fhrs:id": "668893",
    "name": "Brighton Fishing Museum",
    "tourism": "museum",
    "wikidata": "Q4967641"
  }
},
{
  "type": "node",
  "id": 343038479,
  "lat": 51.2338190,
  "lon": -0.5735364,
  "tags": {
    "addr:postcode": "GU1 3SX",
    "is_in": "Guildford",
    "name": "Guildford Museum",
    "tourism": "museum",
    "wheelchair": "no"
  }
},
{
  "type": "node",
  "id": 394860243,
  "lat": 51.1110328,
  "lon": -0.1996370,
  "tags": {
    "name": "Crawley Museum",
    "tourism": "museum"
  }
},
{
  "type": "node",
  "id": 462237384,
  "lat": 51.2205732,
  "lon": -0.4638185,
  "tags": {
    "addr:city": "Shere",
    "addr:postcode": "GU5 9HE",
    "addr:street": "Gomshall Lane",
    "name": "Shere Museum",
    "toilets:wheelchair": "yes",
    "tourism": "museum",
    "wheelchair": "yes",
    "wheelchair:description": "Dedicated Blue Badge space (FREE) in village car park 50m, partly via grass."
  }
},
{
  "type": "node",
  "id": 500321374,
  "lat": 51.0758170,
  "lon": -0.0565439,
  "tags": {
    "name": "The Priest's House",
    "tourism": "museum"
  }
},
{
  "type": "node",
  "id": 559471342,
  "lat": 50.8370975,
  "lon": -0.1530173,
  "tags": {
    "name": "Booth Museum of Natural History",
    "operator": "Brighton and Hove Council",
    "tourism": "museum",
    "website": "http://www.brighton-hove-rpml.org.uk/Museums/boothmuseum/Pages/home.aspx",
    "wikidata": "Q11854506"
  }
},
{
  "type": "node",
  "id": 743300794,
  "lat": 50.9160347,
  "lon": -0.4571933,
  "tags": {
    "ele": "51.315674",
    "name": "Storrington and District Museum",
    "tourism": "museum"
  }
},
{
  "type": "node",
  "id": 766851055,
  "lat": 51.2941182,
  "lon": -0.3288428,
  "tags": {
    "addr:housename": "Hampton Cottage",
    "addr:housenumber": "64",
    "addr:postcode": "KT22 8DP",
    "addr:street": "Church Street",
    "name": "Leatherhead Museum of Local History",
    "toilets:wheelchair": "no",
    "tourism": "museum",
    "wheelchair": "no",
    "wikidata": "Q26279733"
  }
},
{
  "type": "node",
  "id": 1110569551,
  "lat": 51.1962357,
  "lon": 0.0648112,
  "tags": {
    "source": "OS OpenData StreetView",
    "tourism": "museum"
  }
},
{
  "type": "node",
  "id": 1240514333,
  "lat": 50.8320596,
  "lon": -0.2762161,
  "tags": {
    "name": "Marlipins Museum",
    "tourism": "museum",
    "wikidata": "Q6771882"
  }
},
{
  "type": "node",
  "id": 1526933054,
  "lat": 50.8192305,
  "lon": -0.1383568,
  "tags": {
    "description": "Closed as of March 2014 due to 2014-02-14 storm damage. UK's oldest established vintage penny arcade.",
    "name": "Mechanical Memories",
    "status": "closed",
    "tourism": "museum",
    "website": "www.mechanicalmemoriesmuseum.co.uk"
  }
},
{
  "type": "node",
  "id": 1625801258,
  "lat": 50.8028811,
  "lon": 0.0530192,
  "tags": {
    "designation": "Museum",
    "name": "Newhaven Local & Maritime Museum",
    "source": "http://www.newhavenmuseum.co.uk/",
    "tourism": "museum"
  }
},
{
  "type": "node",
  "id": 2294146843,
  "lat": 50.8330607,
  "lon": -0.2909664,
  "tags": {
    "tourism": "museum"
  }
},
{
  "type": "node",
  "id": 2627582034,
  "lat": 51.2358357,
  "lon": -0.5573909,
  "tags": {
    "tourism": "museum"
  }
},
{
  "type": "node",
  "id": 2672753868,
  "lat": 51.2356496,
  "lon": -0.5674814,
  "tags": {
    "name": "Harvey Gallery",
    "tourism": "museum"
  }
},
{
  "type": "node",
  "id": 4326333914,
  "lat": 51.2820373,
  "lon": -0.0790962,
  "tags": {
    "name": "Caterham Museum",
    "opening_hours": "We, Th, Sa 09:00-17:00",
    "tourism": "museum"
  }
},
{
  "type": "node",
  "id": 4880507457,
  "lat": 51.2353872,
  "lon": -0.5736971,
  "tags": {
    "addr:city": "Guildford",
    "addr:housenumber": "72",
    "addr:street": "High Street",
    "level": "-1",
    "name": "13th Century Undercroft shop",
    "operator": "Guildford Museum",
    "tourism": "museum",
    "wheelchair": "no",
    "wheelchair:description": "Flight of narrow steps to door, more steps inside."
  }
},
{
  "type": "node",
  "id": 4946662387,
  "lat": 51.2434671,
  "lon": -0.1944091,
  "tags": {
    "addr:city": "Reigate",
    "addr:housename": "Surrey Fire HQ",
    "addr:postcode": "RH2 0EJ",
    "addr:street": "Croydon Road",
    "name": "The Fire Brigades of Surrey",
    "opening_hours": "During Surrey Fire HQ Open Days, or by Appointment",
    "operator": "The Fire Brigades of Surrey Preservation Trust",
    "tourism": "museum",
    "website": "https://www.facebook.com/surreyfiremuseum",
    "wheelchair": "yes",
    "wheelchair:description": "HQ OPEN Days only. Step-free on East side, portable ramp for access to small exhibits area. Accessible toilet facilities inside Training Centre, 200m SW"
  }
},
{
  "type": "node",
  "id": 5141915046,
  "lat": 50.9238208,
  "lon": 0.1117040,
  "tags": {
    "name": "Bentley Wildfowl and Motor Museum",
    "tourism": "museum",
    "website": "https://www.bentley.org.uk",
    "wikidata": "Q4890505",
    "wikipedia": "en:Bentley Wildfowl and Motor Museum"
  }
},
{
  "type": "node",
  "id": 5218189619,
  "lat": 50.9869165,
  "lon": -0.7379505,
  "tags": {
    "addr:city": "Midhurst",
    "addr:housename": "Knockhundred Market",
    "addr:street": "Knockhundred Row",
    "level": "0",
    "name": "Midhurst Museum Too",
    "tourism": "museum"
  }
},
{
  "type": "node",
  "id": 5218189620,
  "lat": 50.9868832,
  "lon": -0.7380863,
  "tags": {
    "addr:city": "Midhurst",
    "addr:housename": "Knockhundred Market",
    "addr:street": "Knockhundred Row",
    "level": "0",
    "name": "Midhurst Museum",
    "tourism": "museum"
  }
},
{
  "type": "node",
  "id": 6266973817,
  "lat": 51.3503373,
  "lon": -0.2524295,
  "tags": {
    "tourism": "museum"
  }
},
{
  "type": "node",
  "id": 6515038612,
  "lat": 50.9956176,
  "lon": -0.0013985,
  "tags": {
    "tourism": "museum"
  }
},
{
  "type": "node",
  "id": 6515038632,
  "lat": 50.9949675,
  "lon": -0.0005104,
  "tags": {
    "name": "SteamWorks",
    "operator": "Bluebell Railway",
    "tourism": "museum",
    "wheelchair": "yes"
  }
},
{
  "type": "node",
  "id": 6682007250,
  "lat": 51.1003616,
  "lon": 0.1084357,
  "tags": {
    "name": "Pooh Museum",
    "tourism": "museum"
  }
},
{
  "type": "way",
  "id": 23297951,
  "nodes": [
    252182106,
    4264302645,
    3326369680,
    3326369679,
    252182107,
    1096963484,
    4264302662,
    3326369681,
    3326369682,
    4264302790,
    3326369683,
    252182108,
    3326369684,
    3326369685,
    252182109,
    3326369686,
    3326369687,
    3326369688,
    3326369689,
    3326369690,
    3326369691,
    3326369692,
    3326369693,
    3350041859,
    252182110,
    3316444575,
    3316444582,
    3316444655,
    3326369677,
    252182106
  ],
  "tags": {
    "name": "Gatwick Aviation Museum",
    "tourism": "museum",
    "wikidata": "Q5527563"
  }
},
{
  "type": "way",
  "id": 61686376,
  "nodes": [
    768850580,
    6750737706,
    768850634,
    768850834,
    768850761,
    768850729,
    768850662,
    768850580
  ],
  "tags": {
    "building": "yes",
    "source": "sas",
    "tourism": "museum"
  }
},
{
  "type": "way",
  "id": 61686398,
  "nodes": [
    768850601,
    768850622,
    768850553,
    768850839,
    768850601
  ],
  "tags": {
    "building": "yes",
    "source": "sas",
    "tourism": "museum"
  }
},
{
  "type": "way",
  "id": 61686405,
  "nodes": [
    768850794,
    768850678,
    768850641,
    768850571,
    768850771,
    768850710,
    768850794
  ],
  "tags": {
    "building": "yes",
    "name": "Dapdune Wharf",
    "operator": "National Trust",
    "source": "sas",
    "tourism": "museum"
  }
},
{
  "type": "way",
  "id": 61686407,
  "nodes": [
    768850713,
    768850591,
    768850827,
    768850785,
    768850723,
    768850626,
    768850713
  ],
  "tags": {
    "building": "yes",
    "source": "sas",
    "tourism": "museum"
  }
},
{
  "type": "way",
  "id": 90975001,
  "nodes": [
    1056341266,
    1056341248,
    1056341257,
    1056341261,
    1056341238,
    1056341255,
    1056341246,
    1056341243,
    1056341266
  ],
  "tags": {
    "building": "yes",
    "name": "Worthing Museum and Art Gallery",
    "tourism": "museum",
    "wikidata": "Q8037224"
  }
},
{
  "type": "way",
  "id": 104025110,
  "nodes": [
    1200514328,
    1200514654,
    1200513054,
    1200513749,
    1200514328
  ],
  "tags": {
    "building": "yes",
    "name": "Haxted Watermill",
    "source": "survey",
    "tourism": "museum",
    "wikidata": "Q5685720"
  }
},
{
  "type": "way",
  "id": 104135315,
  "nodes": [
    1201608802,
    1201607873,
    1201607794,
    1201608307,
    1201608802
  ],
  "tags": {
    "building": "yes",
    "name": "Petworth Cottage Museum",
    "tourism": "museum",
    "wikidata": "Q7179437"
  }
},
{
  "type": "way",
  "id": 104520966,
  "nodes": [
    1205887709,
    1205887719,
    1205887740,
    1205887701,
    1205887725,
    1205887747,
    1205887714,
    1205887736,
    1205887699,
    1205887711,
    1205887733,
    1205887759,
    1205887723,
    1205887743,
    1205887706,
    1205887730,
    1205887750,
    1205887726,
    1205887731,
    1205887709
  ],
  "tags": {
    "building": "public",
    "name": "Brighton Museum & Art Gallery",
    "tourism": "museum",
    "website": "http://www.brighton-hove-rpml.org.uk/Museums/brightonmuseum/",
    "wheelchair": "yes",
    "wikidata": "Q2790574"
  }
},
{
  "type": "way",
  "id": 111607316,
  "nodes": [
    1252528751,
    1271134577,
    1271134527,
    6295534321,
    6295534310,
    6295616756,
    6295616753,
    1252528751
  ],
  "tags": {
    "addr:city": "Hove",
    "addr:postcode": "BN3 7QA",
    "addr:street": "The Droveway",
    "historic": "heritage",
    "name": "British Engineerium",
    "tourism": "museum",
    "website": "http://www.britishengineerium.org/",
    "wikidata": "Q4969933"
  }
},
{
  "type": "way",
  "id": 113556773,
  "nodes": [
    1287604208,
    4867715260,
    4867715261,
    1287604225,
    1287604215,
    4867704813,
    4867704814,
    1287604232,
    1287604234,
    4867709136,
    4867709138,
    1287604230,
    1287604217,
    1287604222,
    1287604213,
    1287604235,
    1287604209,
    1287604216,
    1287604212,
    1287604223,
    1287604208
  ],
  "tags": {
    "building": "yes",
    "historic": "house",
    "name": "Standen",
    "operator": "National Trust",
    "toilets:wheelchair": "no",
    "tourism": "museum",
    "wheelchair": "limited",
    "wikidata": "Q7598447"
  }
},
{
  "type": "way",
  "id": 137208622,
  "nodes": [
    1505117453,
    1505117514,
    4485401705,
    1505117540,
    1505117478,
    1505117557,
    4485401697,
    4485386686,
    1505117481,
    4485401698,
    4485401699,
    1505117487,
    1505117550,
    1505117544,
    1505117500,
    1505117491,
    4485401714,
    1505117494,
    1505117471,
    1505117457,
    1505117530,
    1505117520,
    1505117502,
    1505117446,
    1505117486,
    1505117554,
    1505117461,
    1505117492,
    1505117476,
    1505117484,
    1505117522,
    1505117453
  ],
  "tags": {
    "addr:city": "Haslemere",
    "addr:postcode": "GU27 2LA",
    "addr:street": "High Street",
    "fhrs:id": "574539",
    "name": "Haslemere Educational Museum",
    "tourism": "museum",
    "wikidata": "Q16841529"
  }
},
{
  "type": "way",
  "id": 178446649,
  "nodes": [
    1887967387,
    1887967416,
    1887967451,
    1887967468,
    1887967472,
    1887967485,
    1887967500,
    1887967504,
    1887967519,
    1887967518,
    3527041499,
    1887967517,
    3527041498,
    1887967516,
    1887967514,
    1887967512,
    1887967511,
    1887967510,
    1887967509,
    3527029371,
    3527029372,
    1887967508,
    6952363811,
    1887967507,
    1887967493,
    1887967486,
    3527029384,
    1887967456,
    1887967430,
    1887967410,
    1887967395,
    1887967386,
    1887967375,
    1887967362,
    1887967361,
    1887967336,
    1887967330,
    1887967319,
    1887967310,
    1887967298,
    1887967272,
    1887967258,
    1887967248,
    3528907431,
    1887967236,
    1887967212,
    3528907425,
    1887967206,
    1887967198,
    1887967182,
    1887967178,
    1887967184,
    1887967180,
    1887967179,
    1887967183,
    1887967194,
    1887967216,
    1887967247,
    486221882,
    486221898,
    1887967268,
    1887967274,
    1887967276,
    1887967280,
    1887967282,
    3527029349,
    1887967299,
    1887967315,
    1887967328,
    1887967334,
    3527041373,
    3527041383,
    1887967337,
    3527041374,
    3527041375,
    3527041384,
    1887967351,
    3527041376,
    3527041382,
    3527041381,
    3527041377,
    3527041378,
    3527041379,
    1887967377,
    1887967387
  ],
  "tags": {
    "addr:city": "Amberley, Arundel, West Sussex",
    "addr:postcode": "BN18 9LT",
    "addr:street": "Station Road",
    "alt_name": "Amberley Museum;Amberley Chalk Pits Museum",
    "name": "Amberley Museum and Heritage Centre",
    "note": "All of the buildings in this area are part of the Amberley Museum & Heritage Centre",
    "phone": "+44 1798 831370",
    "source:addr": "FHRS Open Data",
    "tourism": "museum",
    "wikidata": "Q4741361",
    "wikipedia": "en:Amberley Museum & Heritage Centre"
  }
},
{
  "type": "way",
  "id": 178538465,
  "nodes": [
    5056099983,
    1340943263,
    26358890,
    20954950,
    1726561200,
    1726561187,
    1726561184,
    1726561166,
    1726561176,
    1726561157,
    1726561144,
    1726561128,
    1726561126,
    1726561124,
    20954789,
    1679705990,
    5056099965,
    5056099983
  ],
  "tags": {
    "addr:city": "Brighton",
    "addr:postcode": "BN1 6SD",
    "addr:street": "Preston Drove",
    "name": "Preston Manor",
    "phone": "+44 3000 290900",
    "toilets:wheelchair": "no",
    "tourism": "museum",
    "wheelchair": "yes",
    "wheelchair:description": "Single dedicated Blue Badge space near accessible entrance. Phone ahead to book visit as the is no entryphone/call button at step free entrance. Preston Manor partly accessible."
  }
},
{
  "type": "way",
  "id": 223114776,
  "nodes": [
    2320506722,
    2704150717,
    1111884878,
    2320506725,
    2719410067,
    2320506722
  ],
  "tags": {
    "building": "yes",
    "name": "East Grinstead Museum",
    "opening_hours": "We-Sa 10:00-16:00, Su 01:00-16:00",
    "tourism": "museum",
    "wikidata": "Q54817992"
  }
},
{
  "type": "way",
  "id": 230516747,
  "nodes": [
    2390147876,
    2390147871,
    2390147869,
    2390147870,
    2390147876
  ],
  "tags": {
    "building": "yes",
    "name": "Steyning Museum",
    "tourism": "museum"
  }
},
{
  "type": "way",
  "id": 231141503,
  "nodes": [
    2395484600,
    2395484448,
    2395484484,
    2395484601,
    2395484600
  ],
  "tags": {
    "building": "yes",
    "name": "Wings Museum",
    "tourism": "museum",
    "website": "http://wingsmuseum.co.uk",
    "wikidata": "Q28131461"
  }
},
{
  "type": "way",
  "id": 232461283,
  "nodes": [
    2408120550,
    2408120540,
    5342848305,
    5342848306,
    2408120550
  ],
  "tags": {
    "addr:city": "Brighton",
    "addr:housenumber": "52-55",
    "addr:postcode": "BN1 4EB",
    "addr:street": "Trafalgar Street",
    "building": "yes",
    "description": "Victorian cellars beneath Brighton Station forecourt and Brighton Station, accessible at street level from Trafalgar Street.",
    "layer": "-1",
    "location": "underground",
    "name": "Brighton Toy and Model Museum",
    "phone": "+44 1273 749494â€Ž",
    "tourism": "museum",
    "website": "https://www.brightontoymuseum.co.uk/",
    "wheelchair": "yes",
    "wikidata": "Q4967734",
    "wikimedia_commons": "Category:Brighton_Toy_and_Model_Museum",
    "wikipedia": "en:Brighton Toy and Model Museum"
  }
},
{
  "type": "way",
  "id": 234465727,
  "nodes": [
    2427150746,
    2427150745,
    2427288942,
    2427288933,
    52166922,
    2427288931,
    2427288930,
    52163099,
    2427150744,
    2427150746
  ],
  "tags": {
    "historic": "archaeological_site",
    "name": "Bignor Roman Villa",
    "tourism": "museum",
    "website": "https://www.bignorromanvilla.co.uk/",
    "wikidata": "Q1339031",
    "wikipedia": "en:Bignor Roman Villa"
  }
},
{
  "type": "way",
  "id": 237087421,
  "nodes": [
    2450379978,
    2450379980,
    2450379961,
    2450379982,
    2450379981,
    2450379976,
    2450379968,
    2450379963,
    2450379984,
    2450379983,
    2450379977,
    2450379970,
    2450379965,
    2450379971,
    2450379975,
    2450379974,
    2450379967,
    2450379972,
    2450379979,
    2450379978
  ],
  "tags": {
    "building": "yes",
    "name": "Hove Museum",
    "tourism": "museum"
  }
},
{
  "type": "way",
  "id": 255871351,
  "nodes": [
    2615865671,
    2615865672,
    2842521521,
    2615865673,
    2615865674,
    2615865671
  ],
  "tags": {
    "addr:city": "Westerham",
    "building": "yes",
    "historic": "house",
    "name": "Quebec House",
    "operator": "National Trust",
    "start_date": "1630",
    "tourism": "museum",
    "website": "https://www.nationaltrust.org.uk/quebec-house/",
    "wheelchair:description": "Sloped access from Town car park (4 blue badge bays - free).",
    "wikidata": "Q7269776",
    "wikipedia": "en:Quebec House"
  }
},
{
  "type": "way",
  "id": 256736179,
  "nodes": [
    2623688088,
    4351739569,
    2623688087,
    2623688090,
    2623688089,
    2623688088
  ],
  "tags": {
    "building": "yes",
    "contact:website": "http://www.arundelmuseum.org",
    "fixme": "approx location of new(ish) museum), Improved mapping needed.",
    "name": "Arundel Museum & Heritage Centre",
    "operator": "Arundel Museum Society",
    "source": "survey",
    "tourism": "museum"
  }
},
{
  "type": "way",
  "id": 304683750,
  "nodes": [
    3092601832,
    3092601846,
    3092601847,
    3092601848,
    3092601849,
    3092601850,
    3092601851,
    3092601852,
    3092601853,
    3092601854,
    3092601855,
    3092601856,
    3092601857,
    3092601858,
    3092601832
  ],
  "tags": {
    "addr:city": "Horsham",
    "addr:housenumber": "9",
    "addr:postcode": "RH12 1HE",
    "addr:street": "Causeway",
    "building": "yes",
    "fhrs:id": "866587",
    "name": "Horsham Museum",
    "tourism": "museum",
    "wikidata": "Q17532562"
  }
},
{
  "type": "way",
  "id": 341608491,
  "nodes": [
    3487508704,
    3487508705,
    3487508706,
    3487508707,
    3487508708,
    3487508709,
    3487508710,
    3487508719,
    3487508711,
    3487508704
  ],
  "tags": {
    "building": "yes",
    "name": "Anne of Cleves' House",
    "tourism": "museum",
    "wikidata": "Q4768922",
    "wikipedia": "en:Anne of Cleves House"
  }
},
{
  "type": "way",
  "id": 360875545,
  "nodes": [
    3654258388,
    3654258389,
    3654258390,
    3654258391,
    3654258392,
    3654258393,
    3654258388
  ],
  "tags": {
    "addr:city": "Cobham",
    "addr:housename": "Cobham Mill",
    "addr:postcode": "KT11 3AL",
    "addr:street": "Mill Road",
    "building": "yes",
    "man_made": "watermill",
    "name": "Cobham Mill",
    "operator": "Cobham Mill Preservation Trust",
    "tourism": "museum",
    "website": "http://www.cobhammill.org.uk/",
    "wikidata": "Q26485633"
  }
},
{
  "type": "way",
  "id": 403694864,
  "nodes": [
    4060300380,
    4060300381,
    4060300382,
    4060300383,
    4060300376,
    4060300377,
    4060300384,
    4060300385,
    4060300494,
    4060300386,
    4060300387,
    4060300388,
    4060300489,
    4060300490,
    4060300380
  ],
  "tags": {
    "addr:city": "Godalming",
    "addr:housenumber": "109A",
    "addr:postcode": "GU7 1AQ",
    "addr:street": "High Street",
    "building": "yes",
    "fhrs:id": "177256",
    "name": "Godalming Museum",
    "tourism": "museum",
    "wikidata": "Q24039227"
  }
},
{
  "type": "way",
  "id": 445500399,
  "nodes": [
    4429197708,
    4429197709,
    4429197710,
    4429197711,
    4429197712,
    4429197713,
    4429197714,
    4429197715,
    4429197716,
    4429197708
  ],
  "tags": {
    "addr:housenumber": "169",
    "addr:street": "High Street",
    "building": "yes",
    "name": "Lewes Castle & Barbican House Museum",
    "tourism": "museum",
    "wheelchair": "no"
  }
},
{
  "type": "way",
  "id": 519390275,
  "nodes": [
    5064712934,
    5064712935,
    5064712936,
    5064712937,
    5064712938,
    5064712939,
    5064712940,
    5064712941,
    5064712942,
    5064712943,
    5064712944,
    5064712945,
    5064712946,
    5064712947,
    5064712948,
    5064712949,
    5064712934
  ],
  "tags": {
    "addr:city": "Littlehampton",
    "addr:housename": "Manor House",
    "addr:postcode": "BN17 5EW",
    "addr:street": "Church Street",
    "building": "yes",
    "name": "Littlehampton Museum",
    "opening_hours": "Mo-Fr 09:00-16:30,Sa 10:30-16:30",
    "operator": "Littlehampton Town Council",
    "tourism": "museum",
    "wikidata": "Q26278781"
  }
},
{
  "type": "way",
  "id": 596187227,
  "nodes": [
    5680194120,
    5680194119,
    5680194118,
    5680194117,
    5680194116,
    5680194115,
    5680194114,
    2104803185,
    2104803148,
    2104803198,
    2104803152,
    2104803144,
    2104803164,
    2104803167,
    523169960,
    523169972,
    523169984,
    2104803171,
    2104803175,
    2104803177,
    2104803137,
    2104803192,
    2104803136,
    2125550591,
    2125550408,
    2104803186,
    2104803202,
    2104803203,
    5060450598,
    2104803141,
    2104803142,
    523170070,
    523170076,
    523170097,
    2098126375,
    523170104,
    523170110,
    523170120,
    523170130,
    523170137,
    523170143,
    523170150,
    523170164,
    523170177,
    523170190,
    523170209,
    523170228,
    523170244,
    2104815635,
    523170261,
    2104815652,
    523170280,
    523170305,
    2098126418,
    338801194,
    2104815677,
    2098126361,
    2104815622,
    2098126379,
    2104815607,
    2101999712,
    2098126328,
    2125550650,
    147830928,
    2104815674,
    2104815645,
    2098126423,
    147830930,
    2098126427,
    147830931,
    147830932,
    2104815616,
    2104815629,
    2098126330,
    2098126378,
    147830938,
    2098126424,
    2098126426,
    2098126369,
    2104815643,
    147831701,
    2098126383,
    2098126340,
    2098126355,
    2098126370,
    2098126421,
    2098126385,
    2104815615,
    2098126393,
    2104815679,
    2098126322,
    2104815693,
    2098126357,
    147831710,
    2104815636,
    147831713,
    147831714,
    2098126351,
    2098126344,
    3847465731,
    3847465730,
    3847465729,
    3847465728,
    3847465727,
    3847465726,
    3847465725,
    3847465908,
    2102009278,
    2102009345,
    2102009331,
    3847465707,
    3847465708,
    3847465709,
    3847465710,
    3847465702,
    2102009247,
    2102009212,
    2102009322,
    2102009338,
    2102009340,
    2102009326,
    2102009205,
    2102009285,
    2102009349,
    2102009259,
    2102009264,
    2102009237,
    2102009316,
    2102009275,
    2102009314,
    2102009289,
    2102009312,
    2102009298,
    2102009350,
    2102009334,
    2102009310,
    2102009352,
    2102009253,
    2102009328,
    2102009348,
    2102009339,
    2102023625,
    5680194113,
    2102009269,
    2102009262,
    2102009337,
    2102009336,
    2102009210,
    2102009233,
    2102009229,
    2102009272,
    2102009333,
    2102009306,
    2102009227,
    2102009241,
    2102009335,
    2102009342,
    2102009353,
    2102009347,
    2102009270,
    2102009255,
    2102009343,
    2102009356,
    2102009266,
    2102009225,
    2102009294,
    2102009358,
    2102009355,
    2102009231,
    2102009261,
    2102009330,
    2102009239,
    2102009267,
    2102009293,
    2102009214,
    223219948,
    2102009249,
    2102009351,
    2102009296,
    2102009357,
    2102009274,
    2102009304,
    2102009302,
    2102009243,
    2102009245,
    2102009324,
    2102009208,
    2102009318,
    2102009271,
    2102009332,
    2102009341,
    2102009268,
    5680194112,
    5680194111,
    5680194110,
    5680194109,
    5680194108,
    5680194120
  ],
  "tags": {
    "leisure": "park",
    "name": "Painshill",
    "tourism": "museum",
    "wikidata": "Q46404"
  }
},
{
  "type": "way",
  "id": 671692452,
  "nodes": [
    6289932743,
    6289932746,
    6289932742,
    6289932744,
    6289932743
  ],
  "tags": {
    "amenity": "camera_obscura",
    "building": "water_tower",
    "historic": "yes",
    "man_made": "water_tower",
    "name": "Foredown Tower",
    "tourism": "museum",
    "wikidata": "Q5468179",
    "wikipedia": "en:Foredown Tower"
  }
},
{
  "type": "way",
  "id": 678426864,
  "nodes": [
    6352416550,
    6352416534,
    6352416538,
    6352416542,
    6352416546,
    6352416551,
    6352416550
  ],
  "tags": {
    "addr:housenumber": "103",
    "addr:street": "High Street",
    "building": "yes",
    "name": "Crawley Museum",
    "tourism": "museum",
    "website": "www.crawleymuseums.org",
    "wheelchair": "yes"
  }
},
{
  "type": "way",
  "id": 699655032,
  "nodes": [
    6570179798,
    6570179799,
    6570179800,
    6570179801,
    6570179798
  ],
  "tags": {
    "addr:city": "Ripley",
    "addr:postcode": "GU23 6AF",
    "addr:street": "High Street",
    "alt_name": "Ripley Museum",
    "building": "bank",
    "name": "Send and Ripley History Society",
    "phone": "+44 148 322 4876",
    "source": "local_knowledge",
    "tourism": "museum",
    "website": "https://sendandripleyhistorysociety.co.uk/museum/"
  }
},
{
  "type": "node",
  "id": 5064712934,
  "lat": 50.8094523,
  "lon": -0.5392949
},
{
  "type": "node",
  "id": 5064712935,
  "lat": 50.8093802,
  "lon": -0.5393207
},
{
  "type": "node",
  "id": 5064712936,
  "lat": 50.8093784,
  "lon": -0.5393082
},
{
  "type": "node",
  "id": 5064712937,
  "lat": 50.8093179,
  "lon": -0.5393297
},
{
  "type": "node",
  "id": 5064712938,
  "lat": 50.8093131,
  "lon": -0.5392959
},
{
  "type": "node",
  "id": 5064712939,
  "lat": 50.8092704,
  "lon": -0.5393110
},
{
  "type": "node",
  "id": 5064712940,
  "lat": 50.8092457,
  "lon": -0.5391359
},
{
  "type": "node",
  "id": 5064712941,
  "lat": 50.8091356,
  "lon": -0.5391748
},
{
  "type": "node",
  "id": 5064712942,
  "lat": 50.8091655,
  "lon": -0.5393876
},
{
  "type": "node",
  "id": 5064712943,
  "lat": 50.8091917,
  "lon": -0.5393784
},
{
  "type": "node",
  "id": 5064712944,
  "lat": 50.8092145,
  "lon": -0.5395407
},
{
  "type": "node",
  "id": 5064712945,
  "lat": 50.8093443,
  "lon": -0.5394950
},
{
  "type": "node",
  "id": 5064712946,
  "lat": 50.8093422,
  "lon": -0.5394802
},
{
  "type": "node",
  "id": 5064712947,
  "lat": 50.8094002,
  "lon": -0.5394598
},
{
  "type": "node",
  "id": 5064712948,
  "lat": 50.8093949,
  "lon": -0.5394439
},
{
  "type": "node",
  "id": 5064712949,
  "lat": 50.8094698,
  "lon": -0.5394171
},
{
  "type": "node",
  "id": 2623688087,
  "lat": 50.8542847,
  "lon": -0.5520451
},
{
  "type": "node",
  "id": 2623688088,
  "lat": 50.8541940,
  "lon": -0.5521410
},
{
  "type": "node",
  "id": 2623688089,
  "lat": 50.8540351,
  "lon": -0.5517633
},
{
  "type": "node",
  "id": 2623688090,
  "lat": 50.8541259,
  "lon": -0.5516675
},
{
  "type": "node",
  "id": 4351739569,
  "lat": 50.8542144,
  "lon": -0.5521194
},
{
  "type": "node",
  "id": 52163099,
  "lat": 50.9226471,
  "lon": -0.5964328
},
{
  "type": "node",
  "id": 2427150744,
  "lat": 50.9230924,
  "lon": -0.5964071
},
{
  "type": "node",
  "id": 52166922,
  "lat": 50.9227033,
  "lon": -0.5951913
},
{
  "type": "node",
  "id": 2427150745,
  "lat": 50.9236731,
  "lon": -0.5948727
},
{
  "type": "node",
  "id": 2427150746,
  "lat": 50.9238274,
  "lon": -0.5961797
},
{
  "type": "node",
  "id": 2427288930,
  "lat": 50.9226985,
  "lon": -0.5952972
},
{
  "type": "node",
  "id": 2427288931,
  "lat": 50.9227009,
  "lon": -0.5952394
},
{
  "type": "node",
  "id": 2427288933,
  "lat": 50.9230060,
  "lon": -0.5950918
},
{
  "type": "node",
  "id": 2427288942,
  "lat": 50.9233896,
  "lon": -0.5949658
},
{
  "type": "node",
  "id": 486221882,
  "lat": 50.8977386,
  "lon": -0.5399018
},
{
  "type": "node",
  "id": 486221898,
  "lat": 50.8977772,
  "lon": -0.5399374
},
{
  "type": "node",
  "id": 1887967178,
  "lat": 50.8958596,
  "lon": -0.5382877
},
{
  "type": "node",
  "id": 1887967179,
  "lat": 50.8959040,
  "lon": -0.5392087
},
{
  "type": "node",
  "id": 1887967180,
  "lat": 50.8959528,
  "lon": -0.5388150
},
{
  "type": "node",
  "id": 1887967182,
  "lat": 50.8959705,
  "lon": -0.5381752
},
{
  "type": "node",
  "id": 1887967183,
  "lat": 50.8959838,
  "lon": -0.5394548
},
{
  "type": "node",
  "id": 1887967184,
  "lat": 50.8959927,
  "lon": -0.5384002
},
{
  "type": "node",
  "id": 1887967194,
  "lat": 50.8962942,
  "lon": -0.5396095
},
{
  "type": "node",
  "id": 1887967198,
  "lat": 50.8963563,
  "lon": -0.5381822
},
{
  "type": "node",
  "id": 1887967206,
  "lat": 50.8966654,
  "lon": -0.5382036
},
{
  "type": "node",
  "id": 1887967212,
  "lat": 50.8970569,
  "lon": -0.5380838
},
{
  "type": "node",
  "id": 1887967216,
  "lat": 50.8970392,
  "lon": -0.5399259
},
{
  "type": "node",
  "id": 1887967236,
  "lat": 50.8974294,
  "lon": -0.5380416
},
{
  "type": "node",
  "id": 1887967247,
  "lat": 50.8977083,
  "lon": -0.5398738
},
{
  "type": "node",
  "id": 1887967248,
  "lat": 50.8977362,
  "lon": -0.5381154
},
{
  "type": "node",
  "id": 1887967258,
  "lat": 50.8978161,
  "lon": -0.5381374
},
{
  "type": "node",
  "id": 1887967268,
  "lat": 50.8979483,
  "lon": -0.5396657
},
{
  "type": "node",
  "id": 1887967272,
  "lat": 50.8979970,
  "lon": -0.5383158
},
{
  "type": "node",
  "id": 1887967274,
  "lat": 50.8980161,
  "lon": -0.5396390
},
{
  "type": "node",
  "id": 1887967276,
  "lat": 50.8980704,
  "lon": -0.5396177
},
{
  "type": "node",
  "id": 1887967280,
  "lat": 50.8981101,
  "lon": -0.5396021
},
{
  "type": "node",
  "id": 1887967282,
  "lat": 50.8981263,
  "lon": -0.5396056
},
{
  "type": "node",
  "id": 1887967298,
  "lat": 50.8982941,
  "lon": -0.5382174
},
{
  "type": "node",
  "id": 1887967299,
  "lat": 50.8983322,
  "lon": -0.5396128
},
{
  "type": "node",
  "id": 1887967310,
  "lat": 50.8983974,
  "lon": -0.5381533
},
{
  "type": "node",
  "id": 1887967315,
  "lat": 50.8984808,
  "lon": -0.5396359
},
{
  "type": "node",
  "id": 1887967319,
  "lat": 50.8985058,
  "lon": -0.5379124
},
{
  "type": "node",
  "id": 3527029349,
  "lat": 50.8982583,
  "lon": -0.5396097
},
{
  "type": "node",
  "id": 3528907425,
  "lat": 50.8968184,
  "lon": -0.5381595
},
{
  "type": "node",
  "id": 3528907431,
  "lat": 50.8976423,
  "lon": -0.5380878
},
{
  "type": "node",
  "id": 1887967328,
  "lat": 50.8986134,
  "lon": -0.5396667
},
{
  "type": "node",
  "id": 1887967330,
  "lat": 50.8986184,
  "lon": -0.5378799
},
{
  "type": "node",
  "id": 1887967334,
  "lat": 50.8987145,
  "lon": -0.5395722
},
{
  "type": "node",
  "id": 1887967336,
  "lat": 50.8987475,
  "lon": -0.5378553
},
{
  "type": "node",
  "id": 1887967337,
  "lat": 50.8988032,
  "lon": -0.5389816
},
{
  "type": "node",
  "id": 1887967351,
  "lat": 50.8991003,
  "lon": -0.5388621
},
{
  "type": "node",
  "id": 1887967377,
  "lat": 50.8997256,
  "lon": -0.5386301
},
{
  "type": "node",
  "id": 1887967387,
  "lat": 50.8998536,
  "lon": -0.5383924
},
{
  "type": "node",
  "id": 1887967416,
  "lat": 50.9001912,
  "lon": -0.5375785
},
{
  "type": "node",
  "id": 3527041373,
  "lat": 50.8987660,
  "lon": -0.5392292
},
{
  "type": "node",
  "id": 3527041374,
  "lat": 50.8988174,
  "lon": -0.5389536
},
{
  "type": "node",
  "id": 3527041375,
  "lat": 50.8988363,
  "lon": -0.5389353
},
{
  "type": "node",
  "id": 3527041376,
  "lat": 50.8994324,
  "lon": -0.5387941
},
{
  "type": "node",
  "id": 3527041377,
  "lat": 50.8995661,
  "lon": -0.5387407
},
{
  "type": "node",
  "id": 3527041378,
  "lat": 50.8996556,
  "lon": -0.5386682
},
{
  "type": "node",
  "id": 3527041379,
  "lat": 50.8996947,
  "lon": -0.5386407
},
{
  "type": "node",
  "id": 3527041381,
  "lat": 50.8995282,
  "lon": -0.5387646
},
{
  "type": "node",
  "id": 3527041382,
  "lat": 50.8994892,
  "lon": -0.5387807
},
{
  "type": "node",
  "id": 3527041383,
  "lat": 50.8987972,
  "lon": -0.5390179
},
{
  "type": "node",
  "id": 3527041384,
  "lat": 50.8988739,
  "lon": -0.5389192
},
{
  "type": "node",
  "id": 1887967361,
  "lat": 50.8992032,
  "lon": -0.5366811
},
{
  "type": "node",
  "id": 1887967362,
  "lat": 50.8993051,
  "lon": -0.5363511
},
{
  "type": "node",
  "id": 1887967375,
  "lat": 50.8997024,
  "lon": -0.5354770
},
{
  "type": "node",
  "id": 1887967386,
  "lat": 50.8998429,
  "lon": -0.5351654
},
{
  "type": "node",
  "id": 1887967395,
  "lat": 50.8999437,
  "lon": -0.5347371
},
{
  "type": "node",
  "id": 1887967410,
  "lat": 50.9001432,
  "lon": -0.5343364
},
{
  "type": "node",
  "id": 1887967430,
  "lat": 50.9004580,
  "lon": -0.5338723
},
{
  "type": "node",
  "id": 1887967451,
  "lat": 50.9007686,
  "lon": -0.5371337
},
{
  "type": "node",
  "id": 1887967456,
  "lat": 50.9008039,
  "lon": -0.5335419
},
{
  "type": "node",
  "id": 1887967468,
  "lat": 50.9009724,
  "lon": -0.5364687
},
{
  "type": "node",
  "id": 1887967472,
  "lat": 50.9010271,
  "lon": -0.5362903
},
{
  "type": "node",
  "id": 1887967485,
  "lat": 50.9011587,
  "lon": -0.5359135
},
{
  "type": "node",
  "id": 1887967486,
  "lat": 50.9011697,
  "lon": -0.5331868
},
{
  "type": "node",
  "id": 1887967493,
  "lat": 50.9013914,
  "lon": -0.5331446
},
{
  "type": "node",
  "id": 1887967500,
  "lat": 50.9014211,
  "lon": -0.5351620
},
{
  "type": "node",
  "id": 1887967504,
  "lat": 50.9014840,
  "lon": -0.5349820
},
{
  "type": "node",
  "id": 1887967507,
  "lat": 50.9015089,
  "lon": -0.5333872
},
{
  "type": "node",
  "id": 1887967508,
  "lat": 50.9017351,
  "lon": -0.5333099
},
{
  "type": "node",
  "id": 1887967509,
  "lat": 50.9019080,
  "lon": -0.5330638
},
{
  "type": "node",
  "id": 1887967510,
  "lat": 50.9019523,
  "lon": -0.5327685
},
{
  "type": "node",
  "id": 1887967511,
  "lat": 50.9019967,
  "lon": -0.5325857
},
{
  "type": "node",
  "id": 1887967512,
  "lat": 50.9020435,
  "lon": -0.5324845
},
{
  "type": "node",
  "id": 1887967514,
  "lat": 50.9022317,
  "lon": -0.5324099
},
{
  "type": "node",
  "id": 1887967516,
  "lat": 50.9023672,
  "lon": -0.5323580
},
{
  "type": "node",
  "id": 1887967517,
  "lat": 50.9024851,
  "lon": -0.5323773
},
{
  "type": "node",
  "id": 1887967518,
  "lat": 50.9026244,
  "lon": -0.5325724
},
{
  "type": "node",
  "id": 1887967519,
  "lat": 50.9026928,
  "lon": -0.5327193
},
{
  "type": "node",
  "id": 3527029371,
  "lat": 50.9018763,
  "lon": -0.5331089
},
{
  "type": "node",
  "id": 3527029372,
  "lat": 50.9018236,
  "lon": -0.5331839
},
{
  "type": "node",
  "id": 3527029384,
  "lat": 50.9010569,
  "lon": -0.5332963
},
{
  "type": "node",
  "id": 3527041498,
  "lat": 50.9024347,
  "lon": -0.5323573
},
{
  "type": "node",
  "id": 3527041499,
  "lat": 50.9025381,
  "lon": -0.5324332
},
{
  "type": "node",
  "id": 6952363811,
  "lat": 50.9017127,
  "lon": -0.5333176
},
{
  "type": "node",
  "id": 1505117453,
  "lat": 51.0897565,
  "lon": -0.7078674
},
{
  "type": "node",
  "id": 1505117476,
  "lat": 51.0898485,
  "lon": -0.7078039
},
{
  "type": "node",
  "id": 1505117484,
  "lat": 51.0898310,
  "lon": -0.7078203
},
{
  "type": "node",
  "id": 1505117522,
  "lat": 51.0898200,
  "lon": -0.7078166
},
{
  "type": "node",
  "id": 1505117446,
  "lat": 51.0900320,
  "lon": -0.7076334
},
{
  "type": "node",
  "id": 1505117457,
  "lat": 51.0902207,
  "lon": -0.7074093
},
{
  "type": "node",
  "id": 1505117461,
  "lat": 51.0899051,
  "lon": -0.7077477
},
{
  "type": "node",
  "id": 1505117471,
  "lat": 51.0902931,
  "lon": -0.7073490
},
{
  "type": "node",
  "id": 1505117478,
  "lat": 51.0894563,
  "lon": -0.7073909
},
{
  "type": "node",
  "id": 1505117481,
  "lat": 51.0888904,
  "lon": -0.7068412
},
{
  "type": "node",
  "id": 1505117486,
  "lat": 51.0899815,
  "lon": -0.7076763
},
{
  "type": "node",
  "id": 1505117487,
  "lat": 51.0893184,
  "lon": -0.7057925
},
{
  "type": "node",
  "id": 1505117491,
  "lat": 51.0901584,
  "lon": -0.7059999
},
{
  "type": "node",
  "id": 1505117492,
  "lat": 51.0898502,
  "lon": -0.7077867
},
{
  "type": "node",
  "id": 1505117494,
  "lat": 51.0900624,
  "lon": -0.7066034
},
{
  "type": "node",
  "id": 1505117500,
  "lat": 51.0898365,
  "lon": -0.7058551
},
{
  "type": "node",
  "id": 1505117502,
  "lat": 51.0900271,
  "lon": -0.7076151
},
{
  "type": "node",
  "id": 1505117514,
  "lat": 51.0896965,
  "lon": -0.7076712
},
{
  "type": "node",
  "id": 1505117520,
  "lat": 51.0901179,
  "lon": -0.7075422
},
{
  "type": "node",
  "id": 1505117530,
  "lat": 51.0901056,
  "lon": -0.7075031
},
{
  "type": "node",
  "id": 1505117540,
  "lat": 51.0895039,
  "lon": -0.7074067
},
{
  "type": "node",
  "id": 1505117544,
  "lat": 51.0897996,
  "lon": -0.7054662
},
{
  "type": "node",
  "id": 1505117550,
  "lat": 51.0895148,
  "lon": -0.7053669
},
{
  "type": "node",
  "id": 1505117554,
  "lat": 51.0899001,
  "lon": -0.7077316
},
{
  "type": "node",
  "id": 1505117557,
  "lat": 51.0893792,
  "lon": -0.7073920
},
{
  "type": "node",
  "id": 4485386686,
  "lat": 51.0889494,
  "lon": -0.7072006
},
{
  "type": "node",
  "id": 4485401697,
  "lat": 51.0890306,
  "lon": -0.7073354
},
{
  "type": "node",
  "id": 4485401698,
  "lat": 51.0890584,
  "lon": -0.7064295
},
{
  "type": "node",
  "id": 4485401699,
  "lat": 51.0892220,
  "lon": -0.7060286
},
{
  "type": "node",
  "id": 4485401705,
  "lat": 51.0896696,
  "lon": -0.7076342
},
{
  "type": "node",
  "id": 4485401714,
  "lat": 51.0901225,
  "lon": -0.7062254
},
{
  "type": "node",
  "id": 1201607794,
  "lat": 50.9855325,
  "lon": -0.6076785
},
{
  "type": "node",
  "id": 1201607873,
  "lat": 50.9854867,
  "lon": -0.6075559
},
{
  "type": "node",
  "id": 1201608307,
  "lat": 50.9855783,
  "lon": -0.6076353
},
{
  "type": "node",
  "id": 1201608802,
  "lat": 50.9855325,
  "lon": -0.6075127
},
{
  "type": "node",
  "id": 4060300376,
  "lat": 51.1851699,
  "lon": -0.6155776
},
{
  "type": "node",
  "id": 4060300377,
  "lat": 51.1852128,
  "lon": -0.6155934
},
{
  "type": "node",
  "id": 4060300380,
  "lat": 51.1852512,
  "lon": -0.6157458
},
{
  "type": "node",
  "id": 4060300381,
  "lat": 51.1852091,
  "lon": -0.6157029
},
{
  "type": "node",
  "id": 4060300382,
  "lat": 51.1852318,
  "lon": -0.6156533
},
{
  "type": "node",
  "id": 4060300383,
  "lat": 51.1851612,
  "lon": -0.6156292
},
{
  "type": "node",
  "id": 4060300384,
  "lat": 51.1852427,
  "lon": -0.6156050
},
{
  "type": "node",
  "id": 4060300385,
  "lat": 51.1852520,
  "lon": -0.6155715
},
{
  "type": "node",
  "id": 4060300386,
  "lat": 51.1853032,
  "lon": -0.6155934
},
{
  "type": "node",
  "id": 4060300387,
  "lat": 51.1852948,
  "lon": -0.6156403
},
{
  "type": "node",
  "id": 4060300388,
  "lat": 51.1852823,
  "lon": -0.6156801
},
{
  "type": "node",
  "id": 4060300489,
  "lat": 51.1852722,
  "lon": -0.6157069
},
{
  "type": "node",
  "id": 4060300490,
  "lat": 51.1852629,
  "lon": -0.6157284
},
{
  "type": "node",
  "id": 4060300494,
  "lat": 51.1852597,
  "lon": -0.6155747
},
{
  "type": "node",
  "id": 1056341238,
  "lat": 50.8140993,
  "lon": -0.3713815
},
{
  "type": "node",
  "id": 1056341243,
  "lat": 50.8141874,
  "lon": -0.3719949
},
{
  "type": "node",
  "id": 1056341246,
  "lat": 50.8142018,
  "lon": -0.3717945
},
{
  "type": "node",
  "id": 1056341248,
  "lat": 50.8144457,
  "lon": -0.3715040
},
{
  "type": "node",
  "id": 1056341255,
  "lat": 50.8140573,
  "lon": -0.3717418
},
{
  "type": "node",
  "id": 1056341257,
  "lat": 50.8142957,
  "lon": -0.3714409
},
{
  "type": "node",
  "id": 1056341261,
  "lat": 50.8142553,
  "lon": -0.3714325
},
{
  "type": "node",
  "id": 1056341266,
  "lat": 50.8143669,
  "lon": -0.3720336
},
{
  "type": "node",
  "id": 6289932742,
  "lat": 50.8503328,
  "lon": -0.2158796
},
{
  "type": "node",
  "id": 6289932743,
  "lat": 50.8504307,
  "lon": -0.2158127
},
{
  "type": "node",
  "id": 6289932744,
  "lat": 50.8504053,
  "lon": -0.2159218
},
{
  "type": "node",
  "id": 6289932746,
  "lat": 50.8503581,
  "lon": -0.2157705
},
{
  "type": "node",
  "id": 2390147869,
  "lat": 50.8892594,
  "lon": -0.3261081
},
{
  "type": "node",
  "id": 2390147870,
  "lat": 50.8892949,
  "lon": -0.3263119
},
{
  "type": "node",
  "id": 2390147871,
  "lat": 50.8894066,
  "lon": -0.3260437
},
{
  "type": "node",
  "id": 2390147876,
  "lat": 50.8894389,
  "lon": -0.3262395
},
{
  "type": "node",
  "id": 2450379961,
  "lat": 50.8297684,
  "lon": -0.1812573
},
{
  "type": "node",
  "id": 2450379963,
  "lat": 50.8297434,
  "lon": -0.1809922
},
{
  "type": "node",
  "id": 2450379965,
  "lat": 50.8296306,
  "lon": -0.1809925
},
{
  "type": "node",
  "id": 2450379967,
  "lat": 50.8295788,
  "lon": -0.1810183
},
{
  "type": "node",
  "id": 2450379968,
  "lat": 50.8297537,
  "lon": -0.1810506
},
{
  "type": "node",
  "id": 2450379970,
  "lat": 50.8296443,
  "lon": -0.1809864
},
{
  "type": "node",
  "id": 2450379971,
  "lat": 50.8296254,
  "lon": -0.1809634
},
{
  "type": "node",
  "id": 2450379972,
  "lat": 50.8296082,
  "lon": -0.1811836
},
{
  "type": "node",
  "id": 2450379974,
  "lat": 50.8295954,
  "lon": -0.1810109
},
{
  "type": "node",
  "id": 2450379975,
  "lat": 50.8295898,
  "lon": -0.1809793
},
{
  "type": "node",
  "id": 2450379976,
  "lat": 50.8298187,
  "lon": -0.1810217
},
{
  "type": "node",
  "id": 2450379977,
  "lat": 50.8296480,
  "lon": -0.1810070
},
{
  "type": "node",
  "id": 2450379978,
  "lat": 50.8297557,
  "lon": -0.1813299
},
{
  "type": "node",
  "id": 2450379979,
  "lat": 50.8296431,
  "lon": -0.1813801
},
{
  "type": "node",
  "id": 2450379980,
  "lat": 50.8297447,
  "lon": -0.1812679
},
{
  "type": "node",
  "id": 2450379981,
  "lat": 50.8298386,
  "lon": -0.1811336
},
{
  "type": "node",
  "id": 2450379982,
  "lat": 50.8297532,
  "lon": -0.1811716
},
{
  "type": "node",
  "id": 2450379983,
  "lat": 50.8297083,
  "lon": -0.1809802
},
{
  "type": "node",
  "id": 2450379984,
  "lat": 50.8297128,
  "lon": -0.1810058
},
{
  "type": "node",
  "id": 1252528751,
  "lat": 50.8447756,
  "lon": -0.1762481
},
{
  "type": "node",
  "id": 1271134527,
  "lat": 50.8437264,
  "lon": -0.1752021
},
{
  "type": "node",
  "id": 1271134577,
  "lat": 50.8443314,
  "lon": -0.1766554
},
{
  "type": "node",
  "id": 6295534310,
  "lat": 50.8445948,
  "lon": -0.1747409
},
{
  "type": "node",
  "id": 6295534321,
  "lat": 50.8444895,
  "lon": -0.1744559
},
{
  "type": "node",
  "id": 6295616753,
  "lat": 50.8446848,
  "lon": -0.1759793
},
{
  "type": "node",
  "id": 6295616756,
  "lat": 50.8449442,
  "lon": -0.1756868
},
{
  "type": "node",
  "id": 1205887699,
  "lat": 50.8232794,
  "lon": -0.1379712
},
{
  "type": "node",
  "id": 1205887706,
  "lat": 50.8233660,
  "lon": -0.1382320
},
{
  "type": "node",
  "id": 1205887709,
  "lat": 50.8237665,
  "lon": -0.1380800
},
{
  "type": "node",
  "id": 1205887711,
  "lat": 50.8232581,
  "lon": -0.1378969
},
{
  "type": "node",
  "id": 1205887714,
  "lat": 50.8234926,
  "lon": -0.1377295
},
{
  "type": "node",
  "id": 1205887723,
  "lat": 50.8231945,
  "lon": -0.1380036
},
{
  "type": "node",
  "id": 1205887726,
  "lat": 50.8236544,
  "lon": -0.1380922
},
{
  "type": "node",
  "id": 1205887730,
  "lat": 50.8234327,
  "lon": -0.1382175
},
{
  "type": "node",
  "id": 1205887731,
  "lat": 50.8236701,
  "lon": -0.1381437
},
{
  "type": "node",
  "id": 1205887733,
  "lat": 50.8231871,
  "lon": -0.1379365
},
{
  "type": "node",
  "id": 1205887736,
  "lat": 50.8235177,
  "lon": -0.1378211
},
{
  "type": "node",
  "id": 1205887740,
  "lat": 50.8236155,
  "lon": -0.1376523
},
{
  "type": "node",
  "id": 1205887743,
  "lat": 50.8232742,
  "lon": -0.1382910
},
{
  "type": "node",
  "id": 1205887747,
  "lat": 50.8235266,
  "lon": -0.1377114
},
{
  "type": "node",
  "id": 1205887750,
  "lat": 50.8236243,
  "lon": -0.1380985
},
{
  "type": "node",
  "id": 1205887759,
  "lat": 50.8232031,
  "lon": -0.1379984
},
{
  "type": "node",
  "id": 1205887701,
  "lat": 50.8235657,
  "lon": -0.1374429
},
{
  "type": "node",
  "id": 1205887719,
  "lat": 50.8236528,
  "lon": -0.1376242
},
{
  "type": "node",
  "id": 1205887725,
  "lat": 50.8234768,
  "lon": -0.1375032
},
{
  "type": "node",
  "id": 2408120540,
  "lat": 50.8287621,
  "lon": -0.1406531
},
{
  "type": "node",
  "id": 2408120550,
  "lat": 50.8285973,
  "lon": -0.1407258
},
{
  "type": "node",
  "id": 5342848305,
  "lat": 50.8288109,
  "lon": -0.1411778
},
{
  "type": "node",
  "id": 5342848306,
  "lat": 50.8286561,
  "lon": -0.1412117
},
{
  "type": "node",
  "id": 1679705990,
  "lat": 50.8418172,
  "lon": -0.1509048
},
{
  "type": "node",
  "id": 5056099965,
  "lat": 50.8420490,
  "lon": -0.1510089
},
{
  "type": "node",
  "id": 5056099983,
  "lat": 50.8431919,
  "lon": -0.1512440
},
{
  "type": "node",
  "id": 20954789,
  "lat": 50.8419850,
  "lon": -0.1496454
},
{
  "type": "node",
  "id": 20954950,
  "lat": 50.8433884,
  "lon": -0.1500293
},
{
  "type": "node",
  "id": 26358890,
  "lat": 50.8433443,
  "lon": -0.1502805
},
{
  "type": "node",
  "id": 1340943263,
  "lat": 50.8433307,
  "lon": -0.1503525
},
{
  "type": "node",
  "id": 1726561124,
  "lat": 50.8419538,
  "lon": -0.1496013
},
{
  "type": "node",
  "id": 1726561126,
  "lat": 50.8419488,
  "lon": -0.1495438
},
{
  "type": "node",
  "id": 1726561128,
  "lat": 50.8419646,
  "lon": -0.1494901
},
{
  "type": "node",
  "id": 1726561144,
  "lat": 50.8420060,
  "lon": -0.1494391
},
{
  "type": "node",
  "id": 1726561157,
  "lat": 50.8422442,
  "lon": -0.1495354
},
{
  "type": "node",
  "id": 1726561166,
  "lat": 50.8422609,
  "lon": -0.1495843
},
{
  "type": "node",
  "id": 1726561176,
  "lat": 50.8422669,
  "lon": -0.1495438
},
{
  "type": "node",
  "id": 1726561184,
  "lat": 50.8423027,
  "lon": -0.1495998
},
{
  "type": "node",
  "id": 1726561187,
  "lat": 50.8423101,
  "lon": -0.1495496
},
{
  "type": "node",
  "id": 1726561200,
  "lat": 50.8423362,
  "lon": -0.1495593
},
{
  "type": "node",
  "id": 3092601832,
  "lat": 51.0615321,
  "lon": -0.3288187
},
{
  "type": "node",
  "id": 3092601846,
  "lat": 51.0614838,
  "lon": -0.3287254
},
{
  "type": "node",
  "id": 3092601847,
  "lat": 51.0614771,
  "lon": -0.3287340
},
{
  "type": "node",
  "id": 3092601848,
  "lat": 51.0614300,
  "lon": -0.3286331
},
{
  "type": "node",
  "id": 3092601849,
  "lat": 51.0614632,
  "lon": -0.3285965
},
{
  "type": "node",
  "id": 3092601850,
  "lat": 51.0613998,
  "lon": -0.3284562
},
{
  "type": "node",
  "id": 3092601851,
  "lat": 51.0613036,
  "lon": -0.3285573
},
{
  "type": "node",
  "id": 3092601852,
  "lat": 51.0613830,
  "lon": -0.3287215
},
{
  "type": "node",
  "id": 3092601853,
  "lat": 51.0613939,
  "lon": -0.3287082
},
{
  "type": "node",
  "id": 3092601854,
  "lat": 51.0614205,
  "lon": -0.3287632
},
{
  "type": "node",
  "id": 3092601855,
  "lat": 51.0613654,
  "lon": -0.3288305
},
{
  "type": "node",
  "id": 3092601856,
  "lat": 51.0613900,
  "lon": -0.3288816
},
{
  "type": "node",
  "id": 3092601857,
  "lat": 51.0613724,
  "lon": -0.3289031
},
{
  "type": "node",
  "id": 3092601858,
  "lat": 51.0614079,
  "lon": -0.3289768
},
{
  "type": "node",
  "id": 252182106,
  "lat": 51.1527973,
  "lon": -0.2172364
},
{
  "type": "node",
  "id": 252182107,
  "lat": 51.1532642,
  "lon": -0.2166197
},
{
  "type": "node",
  "id": 3326369679,
  "lat": 51.1531885,
  "lon": -0.2165714
},
{
  "type": "node",
  "id": 3326369680,
  "lat": 51.1530393,
  "lon": -0.2172425
},
{
  "type": "node",
  "id": 4264302645,
  "lat": 51.1528968,
  "lon": -0.2172389
},
{
  "type": "node",
  "id": 252182108,
  "lat": 51.1533356,
  "lon": -0.2151335
},
{
  "type": "node",
  "id": 252182109,
  "lat": 51.1523759,
  "lon": -0.2139911
},
{
  "type": "node",
  "id": 252182110,
  "lat": 51.1514153,
  "lon": -0.2150385
},
{
  "type": "node",
  "id": 1096963484,
  "lat": 51.1533383,
  "lon": -0.2161127
},
{
  "type": "node",
  "id": 3316444575,
  "lat": 51.1516121,
  "lon": -0.2152880
},
{
  "type": "node",
  "id": 3316444582,
  "lat": 51.1516794,
  "lon": -0.2153818
},
{
  "type": "node",
  "id": 3316444655,
  "lat": 51.1517812,
  "lon": -0.2155240
},
{
  "type": "node",
  "id": 3326369677,
  "lat": 51.1521724,
  "lon": -0.2161583
},
{
  "type": "node",
  "id": 3326369681,
  "lat": 51.1533938,
  "lon": -0.2156889
},
{
  "type": "node",
  "id": 3326369682,
  "lat": 51.1534190,
  "lon": -0.2154261
},
{
  "type": "node",
  "id": 3326369683,
  "lat": 51.1534493,
  "lon": -0.2151713
},
{
  "type": "node",
  "id": 3326369684,
  "lat": 51.1526973,
  "lon": -0.2149755
},
{
  "type": "node",
  "id": 3326369685,
  "lat": 51.1527343,
  "lon": -0.2141520
},
{
  "type": "node",
  "id": 3326369686,
  "lat": 51.1523221,
  "lon": -0.2139884
},
{
  "type": "node",
  "id": 3326369687,
  "lat": 51.1522699,
  "lon": -0.2139992
},
{
  "type": "node",
  "id": 3326369688,
  "lat": 51.1522144,
  "lon": -0.2140367
},
{
  "type": "node",
  "id": 3326369689,
  "lat": 51.1520781,
  "lon": -0.2141869
},
{
  "type": "node",
  "id": 3326369690,
  "lat": 51.1517366,
  "lon": -0.2146241
},
{
  "type": "node",
  "id": 3326369691,
  "lat": 51.1516441,
  "lon": -0.2145275
},
{
  "type": "node",
  "id": 3326369692,
  "lat": 51.1515987,
  "lon": -0.2144846
},
{
  "type": "node",
  "id": 3326369693,
  "lat": 51.1515078,
  "lon": -0.2144203
},
{
  "type": "node",
  "id": 3350041859,
  "lat": 51.1513379,
  "lon": -0.2149621
},
{
  "type": "node",
  "id": 4264302662,
  "lat": 51.1533569,
  "lon": -0.2159707
},
{
  "type": "node",
  "id": 4264302790,
  "lat": 51.1534408,
  "lon": -0.2152425
},
{
  "type": "node",
  "id": 2395484448,
  "lat": 51.0604604,
  "lon": -0.1680854
},
{
  "type": "node",
  "id": 2395484484,
  "lat": 51.0601336,
  "lon": -0.1680708
},
{
  "type": "node",
  "id": 2395484600,
  "lat": 51.0604515,
  "lon": -0.1685899
},
{
  "type": "node",
  "id": 2395484601,
  "lat": 51.0601247,
  "lon": -0.1685753
},
{
  "type": "node",
  "id": 6352416534,
  "lat": 51.1168955,
  "lon": -0.1894148
},
{
  "type": "node",
  "id": 6352416538,
  "lat": 51.1168726,
  "lon": -0.1891757
},
{
  "type": "node",
  "id": 6352416542,
  "lat": 51.1167805,
  "lon": -0.1891982
},
{
  "type": "node",
  "id": 6352416546,
  "lat": 51.1167905,
  "lon": -0.1893019
},
{
  "type": "node",
  "id": 6352416550,
  "lat": 51.1167209,
  "lon": -0.1894574
},
{
  "type": "node",
  "id": 6352416551,
  "lat": 51.1167079,
  "lon": -0.1893220
},
{
  "type": "node",
  "id": 1287604208,
  "lat": 51.1029642,
  "lon": -0.0168662
},
{
  "type": "node",
  "id": 1287604209,
  "lat": 51.1027897,
  "lon": -0.0167766
},
{
  "type": "node",
  "id": 1287604212,
  "lat": 51.1029295,
  "lon": -0.0169881
},
{
  "type": "node",
  "id": 1287604213,
  "lat": 51.1027403,
  "lon": -0.0165233
},
{
  "type": "node",
  "id": 1287604215,
  "lat": 51.1030092,
  "lon": -0.0164516
},
{
  "type": "node",
  "id": 1287604216,
  "lat": 51.1028186,
  "lon": -0.0170214
},
{
  "type": "node",
  "id": 1287604217,
  "lat": 51.1027570,
  "lon": -0.0164721
},
{
  "type": "node",
  "id": 1287604222,
  "lat": 51.1027623,
  "lon": -0.0165167
},
{
  "type": "node",
  "id": 1287604223,
  "lat": 51.1029168,
  "lon": -0.0168804
},
{
  "type": "node",
  "id": 1287604225,
  "lat": 51.1029185,
  "lon": -0.0164788
},
{
  "type": "node",
  "id": 1287604230,
  "lat": 51.1028072,
  "lon": -0.0164570
},
{
  "type": "node",
  "id": 1287604232,
  "lat": 51.1029824,
  "lon": -0.0162234
},
{
  "type": "node",
  "id": 1287604234,
  "lat": 51.1028010,
  "lon": -0.0162778
},
{
  "type": "node",
  "id": 1287604235,
  "lat": 51.1027709,
  "lon": -0.0167823
},
{
  "type": "node",
  "id": 4867704813,
  "lat": 51.1030032,
  "lon": -0.0164007
},
{
  "type": "node",
  "id": 4867704814,
  "lat": 51.1029926,
  "lon": -0.0163093
},
{
  "type": "node",
  "id": 4867709136,
  "lat": 51.1028133,
  "lon": -0.0163820
},
{
  "type": "node",
  "id": 4867709138,
  "lat": 51.1027988,
  "lon": -0.0163864
},
{
  "type": "node",
  "id": 4867715260,
  "lat": 51.1029577,
  "lon": -0.0168113
},
{
  "type": "node",
  "id": 4867715261,
  "lat": 51.1029409,
  "lon": -0.0166686
},
{
  "type": "node",
  "id": 2320506722,
  "lat": 51.1246073,
  "lon": -0.0065859
},
{
  "type": "node",
  "id": 2320506725,
  "lat": 51.1244854,
  "lon": -0.0065631
},
{
  "type": "node",
  "id": 2719410067,
  "lat": 51.1245341,
  "lon": -0.0065722
},
{
  "type": "node",
  "id": 1111884878,
  "lat": 51.1244983,
  "lon": -0.0063873
},
{
  "type": "node",
  "id": 2704150717,
  "lat": 51.1246202,
  "lon": -0.0064100
},
{
  "type": "node",
  "id": 768850553,
  "lat": 51.2428100,
  "lon": -0.5789296
},
{
  "type": "node",
  "id": 768850571,
  "lat": 51.2431323,
  "lon": -0.5786955
},
{
  "type": "node",
  "id": 768850580,
  "lat": 51.2435056,
  "lon": -0.5789141
},
{
  "type": "node",
  "id": 768850591,
  "lat": 51.2438794,
  "lon": -0.5790918
},
{
  "type": "node",
  "id": 768850601,
  "lat": 51.2429762,
  "lon": -0.5790814
},
{
  "type": "node",
  "id": 768850622,
  "lat": 51.2429879,
  "lon": -0.5789845
},
{
  "type": "node",
  "id": 768850626,
  "lat": 51.2436480,
  "lon": -0.5790445
},
{
  "type": "node",
  "id": 768850634,
  "lat": 51.2433477,
  "lon": -0.5789214
},
{
  "type": "node",
  "id": 768850641,
  "lat": 51.2431326,
  "lon": -0.5787317
},
{
  "type": "node",
  "id": 768850662,
  "lat": 51.2434461,
  "lon": -0.5784491
},
{
  "type": "node",
  "id": 768850678,
  "lat": 51.2432558,
  "lon": -0.5787295
},
{
  "type": "node",
  "id": 768850710,
  "lat": 51.2430663,
  "lon": -0.5788341
},
{
  "type": "node",
  "id": 768850713,
  "lat": 51.2438473,
  "lon": -0.5791982
},
{
  "type": "node",
  "id": 768850723,
  "lat": 51.2436965,
  "lon": -0.5788840
},
{
  "type": "node",
  "id": 768850729,
  "lat": 51.2433767,
  "lon": -0.5784698
},
{
  "type": "node",
  "id": 768850761,
  "lat": 51.2434089,
  "lon": -0.5787585
},
{
  "type": "node",
  "id": 768850771,
  "lat": 51.2430654,
  "lon": -0.5786967
},
{
  "type": "node",
  "id": 768850785,
  "lat": 51.2437872,
  "lon": -0.5789540
},
{
  "type": "node",
  "id": 768850794,
  "lat": 51.2432565,
  "lon": -0.5788307
},
{
  "type": "node",
  "id": 768850827,
  "lat": 51.2437708,
  "lon": -0.5790081
},
{
  "type": "node",
  "id": 768850834,
  "lat": 51.2433311,
  "lon": -0.5787802
},
{
  "type": "node",
  "id": 768850839,
  "lat": 51.2427983,
  "lon": -0.5790264
},
{
  "type": "node",
  "id": 6750737706,
  "lat": 51.2434324,
  "lon": -0.5789373
},
{
  "type": "node",
  "id": 6570179798,
  "lat": 51.2989531,
  "lon": -0.4954836
},
{
  "type": "node",
  "id": 6570179799,
  "lat": 51.2989145,
  "lon": -0.4954367
},
{
  "type": "node",
  "id": 6570179800,
  "lat": 51.2989497,
  "lon": -0.4953602
},
{
  "type": "node",
  "id": 6570179801,
  "lat": 51.2989891,
  "lon": -0.4954045
},
{
  "type": "node",
  "id": 2104803148,
  "lat": 51.3255905,
  "lon": -0.4399306
},
{
  "type": "node",
  "id": 2104803152,
  "lat": 51.3261738,
  "lon": -0.4390992
},
{
  "type": "node",
  "id": 2104803185,
  "lat": 51.3254220,
  "lon": -0.4400792
},
{
  "type": "node",
  "id": 2104803198,
  "lat": 51.3260724,
  "lon": -0.4393068
},
{
  "type": "node",
  "id": 5680194108,
  "lat": 51.3283390,
  "lon": -0.4424304
},
{
  "type": "node",
  "id": 5680194109,
  "lat": 51.3278765,
  "lon": -0.4417223
},
{
  "type": "node",
  "id": 5680194110,
  "lat": 51.3284999,
  "lon": -0.4391420
},
{
  "type": "node",
  "id": 5680194114,
  "lat": 51.3252752,
  "lon": -0.4406655
},
{
  "type": "node",
  "id": 5680194115,
  "lat": 51.3251948,
  "lon": -0.4418671
},
{
  "type": "node",
  "id": 5680194116,
  "lat": 51.3258451,
  "lon": -0.4442704
},
{
  "type": "node",
  "id": 5680194117,
  "lat": 51.3263412,
  "lon": -0.4451394
},
{
  "type": "node",
  "id": 5680194118,
  "lat": 51.3269915,
  "lon": -0.4446298
},
{
  "type": "node",
  "id": 5680194119,
  "lat": 51.3276083,
  "lon": -0.4437608
},
{
  "type": "node",
  "id": 5680194120,
  "lat": 51.3281312,
  "lon": -0.4427898
},
{
  "type": "node",
  "id": 338801194,
  "lat": 51.3273260,
  "lon": -0.4337543
},
{
  "type": "node",
  "id": 523169960,
  "lat": 51.3261211,
  "lon": -0.4380847
},
{
  "type": "node",
  "id": 523169972,
  "lat": 51.3259977,
  "lon": -0.4378272
},
{
  "type": "node",
  "id": 523169984,
  "lat": 51.3259602,
  "lon": -0.4374323
},
{
  "type": "node",
  "id": 523170070,
  "lat": 51.3277301,
  "lon": -0.4370804
},
{
  "type": "node",
  "id": 523170076,
  "lat": 51.3278588,
  "lon": -0.4369002
},
{
  "type": "node",
  "id": 523170097,
  "lat": 51.3279500,
  "lon": -0.4365740
},
{
  "type": "node",
  "id": 523170104,
  "lat": 51.3279500,
  "lon": -0.4360934
},
{
  "type": "node",
  "id": 523170110,
  "lat": 51.3279017,
  "lon": -0.4354926
},
{
  "type": "node",
  "id": 523170120,
  "lat": 51.3279446,
  "lon": -0.4350634
},
{
  "type": "node",
  "id": 523170130,
  "lat": 51.3280948,
  "lon": -0.4346085
},
{
  "type": "node",
  "id": 523170137,
  "lat": 51.3282450,
  "lon": -0.4342566
},
{
  "type": "node",
  "id": 523170143,
  "lat": 51.3282396,
  "lon": -0.4340334
},
{
  "type": "node",
  "id": 523170150,
  "lat": 51.3281162,
  "lon": -0.4339219
},
{
  "type": "node",
  "id": 523170164,
  "lat": 51.3279607,
  "lon": -0.4339047
},
{
  "type": "node",
  "id": 523170177,
  "lat": 51.3277494,
  "lon": -0.4339348
},
{
  "type": "node",
  "id": 523170190,
  "lat": 51.3276044,
  "lon": -0.4341148
},
{
  "type": "node",
  "id": 523170209,
  "lat": 51.3275542,
  "lon": -0.4343576
},
{
  "type": "node",
  "id": 523170228,
  "lat": 51.3275009,
  "lon": -0.4346472
},
{
  "type": "node",
  "id": 523170244,
  "lat": 51.3273973,
  "lon": -0.4348143
},
{
  "type": "node",
  "id": 523170261,
  "lat": 51.3272045,
  "lon": -0.4348059
},
{
  "type": "node",
  "id": 523170280,
  "lat": 51.3272025,
  "lon": -0.4344852
},
{
  "type": "node",
  "id": 523170305,
  "lat": 51.3272357,
  "lon": -0.4342041
},
{
  "type": "node",
  "id": 2098126361,
  "lat": 51.3273269,
  "lon": -0.4333162
},
{
  "type": "node",
  "id": 2098126375,
  "lat": 51.3279500,
  "lon": -0.4364233
},
{
  "type": "node",
  "id": 2098126379,
  "lat": 51.3271551,
  "lon": -0.4327840
},
{
  "type": "node",
  "id": 2098126418,
  "lat": 51.3273068,
  "lon": -0.4339492
},
{
  "type": "node",
  "id": 2102009208,
  "lat": 51.3289558,
  "lon": -0.4343408
},
{
  "type": "node",
  "id": 2102009243,
  "lat": 51.3288453,
  "lon": -0.4333001
},
{
  "type": "node",
  "id": 2102009245,
  "lat": 51.3288017,
  "lon": -0.4338258
},
{
  "type": "node",
  "id": 2102009268,
  "lat": 51.3290228,
  "lon": -0.4356068
},
{
  "type": "node",
  "id": 2102009271,
  "lat": 51.3288755,
  "lon": -0.4348933
},
{
  "type": "node",
  "id": 2102009302,
  "lat": 51.3288721,
  "lon": -0.4327261
},
{
  "type": "node",
  "id": 2102009318,
  "lat": 51.3290295,
  "lon": -0.4344373
},
{
  "type": "node",
  "id": 2102009324,
  "lat": 51.3288200,
  "lon": -0.4342072
},
{
  "type": "node",
  "id": 2102009332,
  "lat": 51.3288252,
  "lon": -0.4351937
},
{
  "type": "node",
  "id": 2102009341,
  "lat": 51.3288904,
  "lon": -0.4354142
},
{
  "type": "node",
  "id": 2104803136,
  "lat": 51.3263045,
  "lon": -0.4367120
},
{
  "type": "node",
  "id": 2104803137,
  "lat": 51.3261603,
  "lon": -0.4367388
},
{
  "type": "node",
  "id": 2104803141,
  "lat": 51.3274333,
  "lon": -0.4373327
},
{
  "type": "node",
  "id": 2104803142,
  "lat": 51.3275883,
  "lon": -0.4372431
},
{
  "type": "node",
  "id": 2104803144,
  "lat": 51.3262534,
  "lon": -0.4387381
},
{
  "type": "node",
  "id": 2104803164,
  "lat": 51.3262500,
  "lon": -0.4384377
},
{
  "type": "node",
  "id": 2104803167,
  "lat": 51.3262131,
  "lon": -0.4381802
},
{
  "type": "node",
  "id": 2104803171,
  "lat": 51.3260396,
  "lon": -0.4370256
},
{
  "type": "node",
  "id": 2104803175,
  "lat": 51.3260732,
  "lon": -0.4369588
},
{
  "type": "node",
  "id": 2104803177,
  "lat": 51.3261293,
  "lon": -0.4368230
},
{
  "type": "node",
  "id": 2104803186,
  "lat": 51.3267470,
  "lon": -0.4369963
},
{
  "type": "node",
  "id": 2104803192,
  "lat": 51.3262207,
  "lon": -0.4366852
},
{
  "type": "node",
  "id": 2104803202,
  "lat": 51.3269573,
  "lon": -0.4371342
},
{
  "type": "node",
  "id": 2104803203,
  "lat": 51.3272330,
  "lon": -0.4372699
},
{
  "type": "node",
  "id": 2104815607,
  "lat": 51.3271660,
  "lon": -0.4325473
},
{
  "type": "node",
  "id": 2104815622,
  "lat": 51.3272226,
  "lon": -0.4330258
},
{
  "type": "node",
  "id": 2104815635,
  "lat": 51.3272766,
  "lon": -0.4348720
},
{
  "type": "node",
  "id": 2104815652,
  "lat": 51.3271893,
  "lon": -0.4346682
},
{
  "type": "node",
  "id": 2104815677,
  "lat": 51.3273529,
  "lon": -0.4335725
},
{
  "type": "node",
  "id": 2125550408,
  "lat": 51.3265430,
  "lon": -0.4368417
},
{
  "type": "node",
  "id": 2125550591,
  "lat": 51.3264860,
  "lon": -0.4367988
},
{
  "type": "node",
  "id": 5060450598,
  "lat": 51.3273575,
  "lon": -0.4373089
},
{
  "type": "node",
  "id": 5680194111,
  "lat": 51.3287815,
  "lon": -0.4379726
},
{
  "type": "node",
  "id": 5680194112,
  "lat": 51.3291368,
  "lon": -0.4360843
},
{
  "type": "node",
  "id": 147830928,
  "lat": 51.3275458,
  "lon": -0.4319184
},
{
  "type": "node",
  "id": 147830930,
  "lat": 51.3275184,
  "lon": -0.4313645
},
{
  "type": "node",
  "id": 147830931,
  "lat": 51.3268188,
  "lon": -0.4308048
},
{
  "type": "node",
  "id": 147830932,
  "lat": 51.3265383,
  "lon": -0.4306655
},
{
  "type": "node",
  "id": 147830938,
  "lat": 51.3268188,
  "lon": -0.4296719
},
{
  "type": "node",
  "id": 147831701,
  "lat": 51.3267569,
  "lon": -0.4276936
},
{
  "type": "node",
  "id": 223219948,
  "lat": 51.3295575,
  "lon": -0.4287237
},
{
  "type": "node",
  "id": 2098126328,
  "lat": 51.3272543,
  "lon": -0.4322045
},
{
  "type": "node",
  "id": 2098126330,
  "lat": 51.3265626,
  "lon": -0.4302478
},
{
  "type": "node",
  "id": 2098126340,
  "lat": 51.3269723,
  "lon": -0.4261437
},
{
  "type": "node",
  "id": 2098126355,
  "lat": 51.3269984,
  "lon": -0.4259997
},
{
  "type": "node",
  "id": 2098126369,
  "lat": 51.3267468,
  "lon": -0.4287952
},
{
  "type": "node",
  "id": 2098126378,
  "lat": 51.3266699,
  "lon": -0.4301298
},
{
  "type": "node",
  "id": 2098126383,
  "lat": 51.3268509,
  "lon": -0.4273038
},
{
  "type": "node",
  "id": 2098126423,
  "lat": 51.3276219,
  "lon": -0.4314816
},
{
  "type": "node",
  "id": 2098126424,
  "lat": 51.3268777,
  "lon": -0.4294818
},
{
  "type": "node",
  "id": 2098126426,
  "lat": 51.3268777,
  "lon": -0.4291277
},
{
  "type": "node",
  "id": 2098126427,
  "lat": 51.3272800,
  "lon": -0.4310482
},
{
  "type": "node",
  "id": 2101999712,
  "lat": 51.3271983,
  "lon": -0.4323398
},
{
  "type": "node",
  "id": 2102009214,
  "lat": 51.3303639,
  "lon": -0.4295276
},
{
  "type": "node",
  "id": 2102009239,
  "lat": 51.3309032,
  "lon": -0.4296901
},
{
  "type": "node",
  "id": 2102009249,
  "lat": 51.3294164,
  "lon": -0.4297558
},
{
  "type": "node",
  "id": 2102009267,
  "lat": 51.3306619,
  "lon": -0.4295667
},
{
  "type": "node",
  "id": 2102009274,
  "lat": 51.3289189,
  "lon": -0.4315784
},
{
  "type": "node",
  "id": 2102009293,
  "lat": 51.3304909,
  "lon": -0.4295238
},
{
  "type": "node",
  "id": 2102009296,
  "lat": 51.3290966,
  "lon": -0.4304304
},
{
  "type": "node",
  "id": 2102009298,
  "lat": 51.3299748,
  "lon": -0.4261657
},
{
  "type": "node",
  "id": 2102009304,
  "lat": 51.3288688,
  "lon": -0.4322435
},
{
  "type": "node",
  "id": 2102009312,
  "lat": 51.3299446,
  "lon": -0.4260798
},
{
  "type": "node",
  "id": 2102009350,
  "lat": 51.3300753,
  "lon": -0.4262729
},
{
  "type": "node",
  "id": 2102009351,
  "lat": 51.3292608,
  "lon": -0.4299315
},
{
  "type": "node",
  "id": 2102009357,
  "lat": 51.3289859,
  "lon": -0.4309936
},
{
  "type": "node",
  "id": 2104815616,
  "lat": 51.3264914,
  "lon": -0.4305091
},
{
  "type": "node",
  "id": 2104815629,
  "lat": 51.3264961,
  "lon": -0.4303283
},
{
  "type": "node",
  "id": 2104815643,
  "lat": 51.3267305,
  "lon": -0.4281933
},
{
  "type": "node",
  "id": 2104815645,
  "lat": 51.3276297,
  "lon": -0.4316088
},
{
  "type": "node",
  "id": 2104815674,
  "lat": 51.3276012,
  "lon": -0.4317464
},
{
  "type": "node",
  "id": 2125550650,
  "lat": 51.3273642,
  "lon": -0.4320996
},
{
  "type": "node",
  "id": 147831710,
  "lat": 51.3278357,
  "lon": -0.4219424
},
{
  "type": "node",
  "id": 147831713,
  "lat": 51.3285458,
  "lon": -0.4223162
},
{
  "type": "node",
  "id": 147831714,
  "lat": 51.3288246,
  "lon": -0.4222475
},
{
  "type": "node",
  "id": 2098126322,
  "lat": 51.3274208,
  "lon": -0.4223578
},
{
  "type": "node",
  "id": 2098126344,
  "lat": 51.3292912,
  "lon": -0.4211932
},
{
  "type": "node",
  "id": 2098126351,
  "lat": 51.3289023,
  "lon": -0.4221969
},
{
  "type": "node",
  "id": 2098126357,
  "lat": 51.3276177,
  "lon": -0.4219851
},
{
  "type": "node",
  "id": 2098126370,
  "lat": 51.3272531,
  "lon": -0.4250722
},
{
  "type": "node",
  "id": 2098126385,
  "lat": 51.3273604,
  "lon": -0.4234307
},
{
  "type": "node",
  "id": 2098126393,
  "lat": 51.3273180,
  "lon": -0.4227870
},
{
  "type": "node",
  "id": 2098126421,
  "lat": 51.3273604,
  "lon": -0.4241436
},
{
  "type": "node",
  "id": 2102009237,
  "lat": 51.3307825,
  "lon": -0.4246046
},
{
  "type": "node",
  "id": 2102009264,
  "lat": 51.3308529,
  "lon": -0.4246207
},
{
  "type": "node",
  "id": 2102009275,
  "lat": 51.3305781,
  "lon": -0.4246207
},
{
  "type": "node",
  "id": 2102009289,
  "lat": 51.3299781,
  "lon": -0.4259564
},
{
  "type": "node",
  "id": 2102009314,
  "lat": 51.3305412,
  "lon": -0.4247012
},
{
  "type": "node",
  "id": 2102009316,
  "lat": 51.3306920,
  "lon": -0.4246046
},
{
  "type": "node",
  "id": 2104815615,
  "lat": 51.3273729,
  "lon": -0.4230306
},
{
  "type": "node",
  "id": 2104815636,
  "lat": 51.3281426,
  "lon": -0.4221040
},
{
  "type": "node",
  "id": 2104815679,
  "lat": 51.3273901,
  "lon": -0.4226044
},
{
  "type": "node",
  "id": 2104815693,
  "lat": 51.3274982,
  "lon": -0.4221208
},
{
  "type": "node",
  "id": 3847465726,
  "lat": 51.3309486,
  "lon": -0.4208723
},
{
  "type": "node",
  "id": 3847465727,
  "lat": 51.3304975,
  "lon": -0.4205077
},
{
  "type": "node",
  "id": 3847465728,
  "lat": 51.3303117,
  "lon": -0.4203909
},
{
  "type": "node",
  "id": 3847465729,
  "lat": 51.3300087,
  "lon": -0.4203237
},
{
  "type": "node",
  "id": 3847465730,
  "lat": 51.3295465,
  "lon": -0.4202812
},
{
  "type": "node",
  "id": 3847465731,
  "lat": 51.3294338,
  "lon": -0.4203626
},
{
  "type": "node",
  "id": 2102009210,
  "lat": 51.3327567,
  "lon": -0.4285153
},
{
  "type": "node",
  "id": 2102009225,
  "lat": 51.3313959,
  "lon": -0.4314711
},
{
  "type": "node",
  "id": 2102009227,
  "lat": 51.3323746,
  "lon": -0.4300119
},
{
  "type": "node",
  "id": 2102009229,
  "lat": 51.3329746,
  "lon": -0.4287674
},
{
  "type": "node",
  "id": 2102009231,
  "lat": 51.3312451,
  "lon": -0.4304250
},
{
  "type": "node",
  "id": 2102009233,
  "lat": 51.3328925,
  "lon": -0.4286228
},
{
  "type": "node",
  "id": 2102009241,
  "lat": 51.3322037,
  "lon": -0.4300388
},
{
  "type": "node",
  "id": 2102009253,
  "lat": 51.3315786,
  "lon": -0.4269974
},
{
  "type": "node",
  "id": 2102009255,
  "lat": 51.3319691,
  "lon": -0.4318144
},
{
  "type": "node",
  "id": 2102009261,
  "lat": 51.3312317,
  "lon": -0.4301729
},
{
  "type": "node",
  "id": 2102009262,
  "lat": 51.3322975,
  "lon": -0.4278179
},
{
  "type": "node",
  "id": 2102009266,
  "lat": 51.3315166,
  "lon": -0.4316374
},
{
  "type": "node",
  "id": 2102009269,
  "lat": 51.3321802,
  "lon": -0.4270293
},
{
  "type": "node",
  "id": 2102009270,
  "lat": 51.3323646,
  "lon": -0.4318895
},
{
  "type": "node",
  "id": 2102009272,
  "lat": 51.3329813,
  "lon": -0.4288532
},
{
  "type": "node",
  "id": 2102009294,
  "lat": 51.3312970,
  "lon": -0.4313104
},
{
  "type": "node",
  "id": 2102009306,
  "lat": 51.3325154,
  "lon": -0.4301192
},
{
  "type": "node",
  "id": 2102009310,
  "lat": 51.3312518,
  "lon": -0.4270883
},
{
  "type": "node",
  "id": 2102009328,
  "lat": 51.3318300,
  "lon": -0.4270725
},
{
  "type": "node",
  "id": 2102009330,
  "lat": 51.3311110,
  "lon": -0.4299261
},
{
  "type": "node",
  "id": 2102009333,
  "lat": 51.3326260,
  "lon": -0.4300388
},
{
  "type": "node",
  "id": 2102009334,
  "lat": 51.3311848,
  "lon": -0.4270830
},
{
  "type": "node",
  "id": 2102009335,
  "lat": 51.3321065,
  "lon": -0.4300763
},
{
  "type": "node",
  "id": 2102009336,
  "lat": 51.3327131,
  "lon": -0.4283490
},
{
  "type": "node",
  "id": 2102009337,
  "lat": 51.3323411,
  "lon": -0.4279252
},
{
  "type": "node",
  "id": 2102009339,
  "lat": 51.3320361,
  "lon": -0.4269650
},
{
  "type": "node",
  "id": 2102009342,
  "lat": 51.3320931,
  "lon": -0.4301943
},
{
  "type": "node",
  "id": 2102009343,
  "lat": 51.3318786,
  "lon": -0.4317983
},
{
  "type": "node",
  "id": 2102009347,
  "lat": 51.3327416,
  "lon": -0.4308973
},
{
  "type": "node",
  "id": 2102009348,
  "lat": 51.3319138,
  "lon": -0.4270403
},
{
  "type": "node",
  "id": 2102009352,
  "lat": 51.3313523,
  "lon": -0.4270508
},
{
  "type": "node",
  "id": 2102009353,
  "lat": 51.3322037,
  "lon": -0.4303982
},
{
  "type": "node",
  "id": 2102009355,
  "lat": 51.3312082,
  "lon": -0.4307201
},
{
  "type": "node",
  "id": 2102009356,
  "lat": 51.3316875,
  "lon": -0.4317554
},
{
  "type": "node",
  "id": 2102009358,
  "lat": 51.3311948,
  "lon": -0.4311063
},
{
  "type": "node",
  "id": 2102023625,
  "lat": 51.3321046,
  "lon": -0.4269786
},
{
  "type": "node",
  "id": 5680194113,
  "lat": 51.3321149,
  "lon": -0.4270211
},
{
  "type": "node",
  "id": 2102009205,
  "lat": 51.3314127,
  "lon": -0.4251571
},
{
  "type": "node",
  "id": 2102009212,
  "lat": 51.3325556,
  "lon": -0.4244812
},
{
  "type": "node",
  "id": 2102009247,
  "lat": 51.3325355,
  "lon": -0.4242720
},
{
  "type": "node",
  "id": 2102009259,
  "lat": 51.3312417,
  "lon": -0.4253020
},
{
  "type": "node",
  "id": 2102009278,
  "lat": 51.3314026,
  "lon": -0.4224749
},
{
  "type": "node",
  "id": 2102009285,
  "lat": 51.3313658,
  "lon": -0.4253020
},
{
  "type": "node",
  "id": 2102009322,
  "lat": 51.3324216,
  "lon": -0.4247655
},
{
  "type": "node",
  "id": 2102009326,
  "lat": 51.3314361,
  "lon": -0.4250230
},
{
  "type": "node",
  "id": 2102009331,
  "lat": 51.3316138,
  "lon": -0.4230436
},
{
  "type": "node",
  "id": 2102009338,
  "lat": 51.3315669,
  "lon": -0.4248836
},
{
  "type": "node",
  "id": 2102009340,
  "lat": 51.3315065,
  "lon": -0.4249211
},
{
  "type": "node",
  "id": 2102009345,
  "lat": 51.3315501,
  "lon": -0.4228612
},
{
  "type": "node",
  "id": 2102009349,
  "lat": 51.3313088,
  "lon": -0.4253342
},
{
  "type": "node",
  "id": 3847465702,
  "lat": 51.3324900,
  "lon": -0.4240962
},
{
  "type": "node",
  "id": 3847465707,
  "lat": 51.3317669,
  "lon": -0.4235193
},
{
  "type": "node",
  "id": 3847465708,
  "lat": 51.3319284,
  "lon": -0.4235813
},
{
  "type": "node",
  "id": 3847465709,
  "lat": 51.3322092,
  "lon": -0.4239794
},
{
  "type": "node",
  "id": 3847465710,
  "lat": 51.3324359,
  "lon": -0.4240626
},
{
  "type": "node",
  "id": 3847465725,
  "lat": 51.3312161,
  "lon": -0.4212970
},
{
  "type": "node",
  "id": 3847465908,
  "lat": 51.3312362,
  "lon": -0.4217923
},
{
  "type": "node",
  "id": 3654258388,
  "lat": 51.3271625,
  "lon": -0.4070034
},
{
  "type": "node",
  "id": 3654258389,
  "lat": 51.3271910,
  "lon": -0.4069069
},
{
  "type": "node",
  "id": 3654258390,
  "lat": 51.3272832,
  "lon": -0.4069793
},
{
  "type": "node",
  "id": 3654258391,
  "lat": 51.3272731,
  "lon": -0.4070034
},
{
  "type": "node",
  "id": 3654258392,
  "lat": 51.3272212,
  "lon": -0.4069685
},
{
  "type": "node",
  "id": 3654258393,
  "lat": 51.3271994,
  "lon": -0.4070383
},
{
  "type": "node",
  "id": 3487508704,
  "lat": 50.8689481,
  "lon": 0.0042449
},
{
  "type": "node",
  "id": 3487508705,
  "lat": 50.8690150,
  "lon": 0.0042227
},
{
  "type": "node",
  "id": 3487508706,
  "lat": 50.8689902,
  "lon": 0.0040350
},
{
  "type": "node",
  "id": 3487508707,
  "lat": 50.8690779,
  "lon": 0.0040059
},
{
  "type": "node",
  "id": 3487508708,
  "lat": 50.8690724,
  "lon": 0.0039642
},
{
  "type": "node",
  "id": 3487508709,
  "lat": 50.8691184,
  "lon": 0.0039489
},
{
  "type": "node",
  "id": 3487508710,
  "lat": 50.8691053,
  "lon": 0.0038484
},
{
  "type": "node",
  "id": 3487508711,
  "lat": 50.8689043,
  "lon": 0.0039130
},
{
  "type": "node",
  "id": 3487508719,
  "lat": 50.8689521,
  "lon": 0.0038976
},
{
  "type": "node",
  "id": 4429197708,
  "lat": 50.8725990,
  "lon": 0.0085345
},
{
  "type": "node",
  "id": 4429197709,
  "lat": 50.8725515,
  "lon": 0.0085649
},
{
  "type": "node",
  "id": 4429197710,
  "lat": 50.8724963,
  "lon": 0.0083514
},
{
  "type": "node",
  "id": 4429197711,
  "lat": 50.8725656,
  "lon": 0.0083131
},
{
  "type": "node",
  "id": 4429197712,
  "lat": 50.8727536,
  "lon": 0.0083669
},
{
  "type": "node",
  "id": 4429197713,
  "lat": 50.8727456,
  "lon": 0.0084368
},
{
  "type": "node",
  "id": 4429197714,
  "lat": 50.8726785,
  "lon": 0.0084668
},
{
  "type": "node",
  "id": 4429197715,
  "lat": 50.8726199,
  "lon": 0.0084233
},
{
  "type": "node",
  "id": 4429197716,
  "lat": 50.8725793,
  "lon": 0.0084457
},
{
  "type": "node",
  "id": 1200513054,
  "lat": 51.1912324,
  "lon": 0.0287160
},
{
  "type": "node",
  "id": 1200513749,
  "lat": 51.1912416,
  "lon": 0.0285893
},
{
  "type": "node",
  "id": 1200514328,
  "lat": 51.1911283,
  "lon": 0.0285683
},
{
  "type": "node",
  "id": 1200514654,
  "lat": 51.1911191,
  "lon": 0.0286950
},
{
  "type": "node",
  "id": 2615865671,
  "lat": 51.2672566,
  "lon": 0.0758256
},
{
  "type": "node",
  "id": 2615865672,
  "lat": 51.2671044,
  "lon": 0.0758395
},
{
  "type": "node",
  "id": 2615865673,
  "lat": 51.2671131,
  "lon": 0.0760926
},
{
  "type": "node",
  "id": 2615865674,
  "lat": 51.2672640,
  "lon": 0.0760787
},
{
  "type": "node",
  "id": 2842521521,
  "lat": 51.2671085,
  "lon": 0.0759579
}

  ]
}
