{
  "version": 0.6,
  "generator": "Overpass API 0.7.55.9 ab41fea6",
  "osm3s": {
    "timestamp_osm_base": "2020-02-14T11:52:02Z",
    "copyright": "The data included in this document is from www.openstreetmap.org. The data is made available under ODbL."
  },
  "elements": [

{
  "type": "node",
  "id": 1247373210,
  "lat": 50.5932231,
  "lon": 13.4849876,
  "tags": {
    "tourism": "museum"
  }
},
{
  "type": "node",
  "id": 1754997011,
  "lat": 50.0982530,
  "lon": 13.4728157,
  "tags": {
    "name": "Vlastivědní muzeum Jesenice",
    "tourism": "museum",
    "website": "http://www.muzeumtgm.cz/cz/jesenice/OTEVIRACI-DOBA-VSTUPNE-KONTAKTY"
  }
},
{
  "type": "node",
  "id": 2545306042,
  "lat": 50.4988700,
  "lon": 13.4478590,
  "tags": {
    "addr:city": "Jirkov",
    "addr:conscriptionnumber": "47",
    "addr:country": "CZ",
    "addr:housenumber": "47",
    "addr:postcode": "43111",
    "addr:street": "Kostelní",
    "is_in": "Jirkov, Ústecký kraj, CZ",
    "name": "Galerie Jirkov",
    "ref:ruian": "26599040",
    "source:addr": "ruian",
    "tourism": "museum"
  }
},
{
  "type": "node",
  "id": 2810525963,
  "lat": 50.3226174,
  "lon": 13.5405083,
  "tags": {
    "addr:city": "Žatec",
    "addr:housenumber": "678",
    "addr:postcode": "43801",
    "addr:street": "Husova",
    "name": "Regionální muzeum K. A. Polánka v Žatci",
    "operator": "Regionální muzeum K. A. Polánka v Žatci",
    "tourism": "museum"
  }
},
{
  "type": "node",
  "id": 3371968925,
  "lat": 50.2781000,
  "lon": 13.5573100,
  "tags": {
    "name": "Muzeum předválečného opevnění",
    "tourism": "museum"
  }
},
{
  "type": "node",
  "id": 3743958271,
  "lat": 50.2118346,
  "lon": 13.6783153,
  "tags": {
    "name": "Kounovské kamenné řady",
    "tourism": "museum"
  }
},
{
  "type": "node",
  "id": 3838681559,
  "lat": 50.3845524,
  "lon": 13.1719561,
  "tags": {
    "name": "Muzeum hodin",
    "tourism": "museum"
  }
},
{
  "type": "node",
  "id": 3957267375,
  "lat": 50.0551859,
  "lon": 13.7365294,
  "tags": {
    "name": "Muzem veteránů Pavlíkov",
    "tourism": "museum",
    "website": "http://www.palivopavlikov.cz/muzeum-motocyklu/"
  }
},
{
  "type": "node",
  "id": 6742711219,
  "lat": 50.3788102,
  "lon": 13.2583736,
  "tags": {
    "name": "Městské muzeum",
    "tourism": "museum",
    "wikipedia": "cs:Městské muzeum Kadaň"
  }
},
{
  "type": "node",
  "id": 6743997078,
  "lat": 50.3842246,
  "lon": 13.1734304,
  "tags": {
    "name": "Muzeum porcelánu",
    "tourism": "museum",
    "wikidata": "Q13434666",
    "wikipedia": "cs:Muzeum porcelánu v Klášterci nad Ohří"
  }
},
{
  "type": "node",
  "id": 6936768923,
  "lat": 50.3305897,
  "lon": 13.5438500,
  "tags": {
    "name": "Retro Computer",
    "opening_hours": "Tu-Th 11:00-18:30; Fr 11:00-14:00; Sa 11:00-18:30",
    "tourism": "museum"
  }
},
{
  "type": "way",
  "id": 50164668,
  "nodes": [
    637701241,
    637701248,
    637701237,
    5011033755,
    5011033754,
    637701239,
    637701238,
    637701236,
    637701209,
    637701212,
    637701210,
    637701213,
    637701216,
    637701247,
    637701245,
    637701242,
    637701251,
    637701233,
    637701234,
    637701232,
    637701272,
    637701254,
    637701253,
    637701252,
    5011033753,
    637701240,
    637701250,
    637701241
  ],
  "tags": {
    "addr:conscriptionnumber": "1360",
    "addr:country": "CZ",
    "addr:housenumber": "1360/35",
    "addr:street": "Čsl. armády",
    "addr:streetnumber": "35",
    "building": "civic",
    "building:levels": "1",
    "building:ruian:type": "15",
    "is_in": "Most, Ústecký kraj, CZ",
    "name": "Oblastní muzeum",
    "ref:ruian:building": "5063591",
    "source": "cuzk:ruian",
    "source:addr": "mvcr:adresa",
    "tourism": "museum"
  }
},
{
  "type": "way",
  "id": 73278398,
  "nodes": [
    4610618838,
    4610618836,
    4610618835,
    4610618834,
    4610618833,
    4610618832,
    4610618831,
    4610618830,
    4610618829,
    4610618828,
    4610618827,
    4610618826,
    4610618825,
    4610618824,
    4610618823,
    4610618822,
    4610618821,
    4610618820,
    4610618819,
    4610618818,
    4610618817,
    4610618816,
    4610618815,
    869273186,
    869272876,
    869165392,
    869164429,
    869164989,
    4610618838
  ],
  "tags": {
    "building": "civic",
    "building:ruian:type": "15",
    "name": "Oblastní muzeum v Chomutově",
    "ref:ruian:building": "23122544",
    "source": "cuzk:ruian",
    "tourism": "museum"
  }
},
{
  "type": "way",
  "id": 85126345,
  "nodes": [
    987403901,
    987405340,
    987412002,
    987407185,
    987403901
  ],
  "tags": {
    "addr:conscriptionnumber": "71",
    "addr:country": "CZ",
    "addr:housenumber": "71/7",
    "addr:place": "Duchcov",
    "addr:postcode": "41901",
    "addr:street": "Masarykova",
    "addr:streetnumber": "7",
    "building": "residential",
    "building:levels": "1",
    "building:ruian:type": "3",
    "name": "Muzeum města Duchcova",
    "ref:ruian:addr": "18543359",
    "ref:ruian:building": "18404367",
    "source": "cuzk:ruian",
    "tourism": "museum"
  }
},
{
  "type": "way",
  "id": 114115998,
  "nodes": [
    1293192320,
    1293192370,
    1293192209,
    1293192199,
    1293192409,
    1293192249,
    1293192466,
    1293192168,
    1293192383,
    4623946289,
    1293192224,
    1293192439,
    1293192420,
    1293192258,
    1293192477,
    1293192320
  ],
  "tags": {
    "addr:city": "Rakovník",
    "addr:conscriptionnumber": "1",
    "addr:country": "CZ",
    "addr:housenumber": "1",
    "addr:place": "Rakovník I",
    "addr:postcode": "26901",
    "addr:street": "Žižkovo nám.",
    "building": "residential",
    "building:flats": "1",
    "building:ruian:type": "3",
    "name": "Muzeum T. G. Masaryka Rakovník",
    "operator": "Muzeum T. G. Masaryka",
    "phone": "+420 313 512 768",
    "ref:ruian:addr": "8640793",
    "ref:ruian:building": "8590087",
    "source": "cuzk:ruian",
    "source:addr": "cuzk:ruian",
    "tourism": "museum",
    "uir_adr:ADRESA_KOD": "8640793",
    "website": "http://www.muzeumtgm.cz"
  }
},
{
  "type": "way",
  "id": 118812904,
  "nodes": [
    1335596326,
    1335600721,
    1335605430,
    6286447971,
    6286447970,
    1335594164,
    1335598575,
    1335602893,
    1335608212,
    1335612587,
    6286447972,
    1335589709,
    1335596326
  ],
  "tags": {
    "addr:city": "Nové Strašecí",
    "addr:conscriptionnumber": "123",
    "addr:country": "CZ",
    "addr:housenumber": "123",
    "addr:postcode": "27101",
    "addr:street": "U Školy",
    "building": "residential",
    "building:levels": "2",
    "building:ruian:type": "3",
    "name": "Nové Strašecí",
    "name:cs": "Nové Strašecí",
    "name:de": "Neustraschitz",
    "name:ru": "Нове-Страшеци",
    "operator": "Muzeum T. G. M. Rakovník",
    "phone": "+420 313 572 563",
    "ref:ruian": "21369763",
    "ref:ruian:building": "21127247",
    "source": "cuzk:ruian",
    "source:addr": "ruian",
    "tourism": "museum",
    "website": "http://www.muzeumtgm.cz",
    "wikidata": "Q12039412",
    "wikipedia": "cs:Muzeum Nové Strašecí"
  }
},
{
  "type": "way",
  "id": 160425305,
  "nodes": [
    1724725797,
    1724725648,
    1724725655,
    242645084,
    1724725575,
    1724725596,
    1724725523,
    1724725643,
    1724725797
  ],
  "tags": {
    "building": "yes",
    "building:ruian:type": "17",
    "layer": "1",
    "name": "Železniční depozitář Národního technického muzea v Chomutově",
    "name:de": "Depot für Schienenfahrzeuge des Technischen Nationalmuseum in Chomutov",
    "name:en": "Railroad depot of National technical museum at Chomutov",
    "opening_hours": "Apr-Oct Th-Sa 09:00-17:00",
    "operator": "Národní technické muzeum",
    "ref:ruian:building": "45036926",
    "source": "cuzk:ruian",
    "tourism": "museum",
    "website": "http://muzeum-chomutov.cz/"
  }
},
{
  "type": "way",
  "id": 183899679,
  "nodes": [
    1943169719,
    1943169718,
    1943169715,
    1943169714,
    1943169710,
    1943169711,
    3208843096,
    1943169702,
    3208843094,
    3208843093,
    3208843095,
    1943169703,
    1943169708,
    3208843097,
    3208843098,
    1943169709,
    1943169716,
    1943169717,
    3208843106,
    3208843104,
    1943169719
  ],
  "tags": {
    "addr:city": "Deutschneudorf",
    "addr:country": "DE",
    "addr:housenumber": "14",
    "addr:postcode": "09548",
    "addr:street": "Deutschkatharinenberg",
    "building": "yes",
    "name": "Fortuna-Stolln",
    "operator": "Fortuna Bernstein GmbH",
    "phone": "03 73 68 1 29 42",
    "source": "bing",
    "tourism": "museum",
    "website": "http://www.fortunastollen.de/"
  }
},
{
  "type": "way",
  "id": 279043899,
  "nodes": [
    2833071023,
    2833071022,
    2833071020,
    2833071021,
    2833071023
  ],
  "tags": {
    "addr:city": "Deutschneudorf",
    "addr:country": "DE",
    "addr:housenumber": "5",
    "addr:postcode": "09548",
    "addr:street": "Alte Brandleite",
    "building": "yes",
    "name": "Heimatmuseum „Haus der erzgebirgischen Tradition“",
    "operator": "Gemeindeverwaltung Deutschneudorf",
    "phone": "+49 37368 68899",
    "tourism": "museum"
  }
},
{
  "type": "way",
  "id": 292454404,
  "nodes": [
    2960074502,
    3872876190,
    3872876185,
    3872876136,
    3872876143,
    3872876149,
    3872876155,
    3872876157,
    3872876060,
    3872876059,
    3872875910,
    3872876131,
    1414980795,
    3872876171,
    1414980825,
    3872876196,
    1414980854,
    3872876197,
    3872876198,
    3872876199,
    3872876204,
    3872876200,
    3872876201,
    3872876203,
    3872876205,
    3872876202,
    2960074502
  ],
  "tags": {
    "building": "yes",
    "building:ruian:type": "19",
    "name": "Renesanční sladovna",
    "ref:ruian:building": "9209751",
    "source": "cuzk:ruian",
    "tourism": "museum"
  }
},
{
  "type": "way",
  "id": 293695854,
  "nodes": [
    2972872514,
    5606439140,
    5606439141,
    2972872524,
    5606439139,
    2972872531,
    2972872513,
    2972872521,
    2972872518,
    2972872523,
    2972872517,
    5606439138,
    2972872516,
    2972872515,
    5606439137,
    5606439136,
    5606439135,
    2972872514
  ],
  "tags": {
    "addr:city": "Žatec",
    "addr:housenumber": "344",
    "addr:postcode": "43801",
    "addr:street": "Zeyerova",
    "building": "residential",
    "building:levels": "1",
    "building:ruian:type": "3",
    "name": "Křížova Vila",
    "operator": "Město Žatec",
    "ref:ruian:building": "9209638",
    "source": "cuzk:ruian",
    "tourism": "museum"
  }
},
{
  "type": "way",
  "id": 296657893,
  "nodes": [
    3004633710,
    3004633711,
    3004633712,
    5606439291,
    3004633713,
    3004633700,
    5606439290,
    3004633714,
    3004633715,
    3004633716,
    3004633710
  ],
  "tags": {
    "addr:city": "Žatec",
    "addr:housenumber": "1950",
    "addr:postcode": "43801",
    "addr:street": "nám. Prokopa Velkého",
    "building": "yes",
    "building:ruian:type": "19",
    "museum": "local",
    "name": "Chrám Chmele a Piva",
    "opening_hours": "Th-Su 10:00-17:00",
    "ref:ruian:building": "9222278",
    "tourism": "museum",
    "website": "https://www.chchp.cz/prohlidky-chram-chmele-a-piva-zatec/"
  }
},
{
  "type": "way",
  "id": 296657894,
  "nodes": [
    3004633723,
    3872874653,
    3004633721,
    3872874605,
    3872874641,
    3004633723
  ],
  "tags": {
    "addr:city": "Žatec",
    "addr:housenumber": "305",
    "addr:postcode": "43801",
    "addr:street": "nám. Prokopa Velkého",
    "building": "civic",
    "building:ruian:type": "5",
    "name": "Chmelařské muzeum",
    "operator": "Město Žatec",
    "ref:ruian:building": "9209255",
    "source": "cuzk:ruian",
    "tourism": "museum"
  }
},
{
  "type": "way",
  "id": 296657895,
  "nodes": [
    3872874653,
    3872874659,
    3004633731,
    3004633727,
    3004633729,
    3004633730,
    3004633721,
    3872874653
  ],
  "tags": {
    "addr:city": "Žatec",
    "addr:housenumber": "1952",
    "addr:postcode": "43801",
    "addr:street": "nám. Prokopa Velkého",
    "building": "yes",
    "building:ruian:type": "19",
    "name": "Chmelařské muzeum",
    "operator": "Město Žatec",
    "ref:ruian:building": "47774622",
    "source": "cuzk:ruian",
    "tourism": "museum"
  }
},
{
  "type": "way",
  "id": 361109398,
  "nodes": [
    3656286548,
    3656286544,
    3656286541,
    3656286538,
    3656286535,
    3656286533,
    3656286531,
    3656286525,
    3656286518,
    3656286515,
    3656286509,
    3656286510,
    3656286517,
    3656286516,
    3656291682,
    3656286519,
    3656286540,
    3656291711,
    3656291712,
    3657004109,
    3656286547,
    3656286523,
    3656286505,
    3656291652,
    3656286496,
    3656286491,
    3656286490,
    2892103026,
    282358951,
    3656286457,
    1347946607,
    3656286461,
    3656286463,
    3656286475,
    3656286484,
    3656286480,
    2187562872,
    3656286473,
    2187562873,
    2187562871,
    3656286466,
    3656286468,
    3656286467,
    3656286465,
    2187562870,
    3656286460,
    3656286455,
    3656286449,
    3656286443,
    3656286439,
    3656286436,
    3656286430,
    3656286429,
    3656286435,
    3656286438,
    3656286442,
    3656286447,
    3656286452,
    3656286454,
    3656286451,
    3656286448,
    2187562867,
    3655936585,
    3655936586,
    3655936584,
    3655936579,
    3656286432,
    3656286437,
    3656286440,
    3656286450,
    3656286456,
    3656286464,
    3654741768,
    3654741769,
    3656291661,
    3654741770,
    3654741771,
    3654741773,
    3654741774,
    3654741775,
    3654741777,
    3656286546,
    3656286557,
    3657006732,
    3656286555,
    3656286551,
    3656286549,
    3656286548
  ],
  "tags": {
    "addr:city": "Seiffen/Erzgebirge",
    "addr:country": "DE",
    "addr:housenumber": "203",
    "addr:postcode": "09548",
    "addr:street": "Hauptstraße",
    "name": "Erzgebirgisches Freilichtmuseum Seiffen",
    "phone": "+49 37362 8388",
    "tourism": "museum",
    "website": "http://www.spielzeugmuseum-seiffen.de",
    "wheelchair": "no"
  }
},
{
  "type": "way",
  "id": 375890702,
  "nodes": [
    284074856,
    284074854,
    284074864,
    1667528970,
    1720627897,
    284074863,
    3792310209,
    3792310210,
    3792310211,
    3792310212,
    3792310213,
    1720627574,
    1720627575,
    1720627579,
    3792310214,
    3792310215,
    3792310216,
    3792310217,
    2926002898,
    2926002899,
    3792310218,
    4899252278,
    3792310219,
    284074856
  ],
  "tags": {
    "name": "Železniční",
    "operator": "ČD",
    "tourism": "museum"
  }
},
{
  "type": "node",
  "id": 242645084,
  "lat": 50.4546834,
  "lon": 13.3901483
},
{
  "type": "node",
  "id": 1724725523,
  "lat": 50.4544851,
  "lon": 13.3893845
},
{
  "type": "node",
  "id": 1724725575,
  "lat": 50.4545837,
  "lon": 13.3898463
},
{
  "type": "node",
  "id": 1724725596,
  "lat": 50.4546245,
  "lon": 13.3898133
},
{
  "type": "node",
  "id": 1724725643,
  "lat": 50.4547179,
  "lon": 13.3891999
},
{
  "type": "node",
  "id": 1724725648,
  "lat": 50.4547688,
  "lon": 13.3900263
},
{
  "type": "node",
  "id": 1724725655,
  "lat": 50.4547848,
  "lon": 13.3900760
},
{
  "type": "node",
  "id": 1724725797,
  "lat": 50.4549409,
  "lon": 13.3898897
},
{
  "type": "node",
  "id": 4610618815,
  "lat": 50.4594296,
  "lon": 13.4181024
},
{
  "type": "node",
  "id": 869164429,
  "lat": 50.4597427,
  "lon": 13.4172092
},
{
  "type": "node",
  "id": 869164989,
  "lat": 50.4598707,
  "lon": 13.4168954
},
{
  "type": "node",
  "id": 869165392,
  "lat": 50.4597756,
  "lon": 13.4172397
},
{
  "type": "node",
  "id": 869272876,
  "lat": 50.4597304,
  "lon": 13.4173525
},
{
  "type": "node",
  "id": 869273186,
  "lat": 50.4595023,
  "lon": 13.4179212
},
{
  "type": "node",
  "id": 4610618816,
  "lat": 50.4594567,
  "lon": 13.4181235
},
{
  "type": "node",
  "id": 4610618817,
  "lat": 50.4594601,
  "lon": 13.4181119
},
{
  "type": "node",
  "id": 4610618818,
  "lat": 50.4595190,
  "lon": 13.4181592
},
{
  "type": "node",
  "id": 4610618819,
  "lat": 50.4595166,
  "lon": 13.4181675
},
{
  "type": "node",
  "id": 4610618820,
  "lat": 50.4595237,
  "lon": 13.4181734
},
{
  "type": "node",
  "id": 4610618821,
  "lat": 50.4595480,
  "lon": 13.4181086
},
{
  "type": "node",
  "id": 4610618822,
  "lat": 50.4595333,
  "lon": 13.4180945
},
{
  "type": "node",
  "id": 4610618823,
  "lat": 50.4596316,
  "lon": 13.4178423
},
{
  "type": "node",
  "id": 4610618824,
  "lat": 50.4596448,
  "lon": 13.4178558
},
{
  "type": "node",
  "id": 4610618825,
  "lat": 50.4596586,
  "lon": 13.4178224
},
{
  "type": "node",
  "id": 4610618826,
  "lat": 50.4596454,
  "lon": 13.4178081
},
{
  "type": "node",
  "id": 4610618827,
  "lat": 50.4597302,
  "lon": 13.4175973
},
{
  "type": "node",
  "id": 4610618828,
  "lat": 50.4597407,
  "lon": 13.4176069
},
{
  "type": "node",
  "id": 4610618829,
  "lat": 50.4597570,
  "lon": 13.4175649
},
{
  "type": "node",
  "id": 4610618830,
  "lat": 50.4597434,
  "lon": 13.4175512
},
{
  "type": "node",
  "id": 4610618831,
  "lat": 50.4597825,
  "lon": 13.4174586
},
{
  "type": "node",
  "id": 4610618832,
  "lat": 50.4597864,
  "lon": 13.4174622
},
{
  "type": "node",
  "id": 4610618833,
  "lat": 50.4597932,
  "lon": 13.4174460
},
{
  "type": "node",
  "id": 4610618834,
  "lat": 50.4597895,
  "lon": 13.4174412
},
{
  "type": "node",
  "id": 4610618835,
  "lat": 50.4598359,
  "lon": 13.4173272
},
{
  "type": "node",
  "id": 4610618836,
  "lat": 50.4598334,
  "lon": 13.4173241
},
{
  "type": "node",
  "id": 4610618838,
  "lat": 50.4599669,
  "lon": 13.4169968
},
{
  "type": "node",
  "id": 1293192168,
  "lat": 50.1034977,
  "lon": 13.7340963
},
{
  "type": "node",
  "id": 1293192199,
  "lat": 50.1035184,
  "lon": 13.7340273
},
{
  "type": "node",
  "id": 1293192209,
  "lat": 50.1035442,
  "lon": 13.7339417
},
{
  "type": "node",
  "id": 1293192224,
  "lat": 50.1034895,
  "lon": 13.7341814
},
{
  "type": "node",
  "id": 1293192249,
  "lat": 50.1035513,
  "lon": 13.7340886
},
{
  "type": "node",
  "id": 1293192258,
  "lat": 50.1033928,
  "lon": 13.7341234
},
{
  "type": "node",
  "id": 1293192320,
  "lat": 50.1035849,
  "lon": 13.7338776
},
{
  "type": "node",
  "id": 1293192370,
  "lat": 50.1035613,
  "lon": 13.7339546
},
{
  "type": "node",
  "id": 1293192383,
  "lat": 50.1035110,
  "lon": 13.7341060
},
{
  "type": "node",
  "id": 1293192409,
  "lat": 50.1035605,
  "lon": 13.7340579
},
{
  "type": "node",
  "id": 1293192420,
  "lat": 50.1034046,
  "lon": 13.7341335
},
{
  "type": "node",
  "id": 1293192439,
  "lat": 50.1034089,
  "lon": 13.7341212
},
{
  "type": "node",
  "id": 1293192466,
  "lat": 50.1035092,
  "lon": 13.7340579
},
{
  "type": "node",
  "id": 1293192477,
  "lat": 50.1034763,
  "lon": 13.7337988
},
{
  "type": "node",
  "id": 4623946289,
  "lat": 50.1035113,
  "lon": 13.7341135
},
{
  "type": "node",
  "id": 2972872513,
  "lat": 50.3249041,
  "lon": 13.5387664
},
{
  "type": "node",
  "id": 2972872514,
  "lat": 50.3246268,
  "lon": 13.5389864
},
{
  "type": "node",
  "id": 2972872515,
  "lat": 50.3246176,
  "lon": 13.5390655
},
{
  "type": "node",
  "id": 2972872516,
  "lat": 50.3247059,
  "lon": 13.5390905
},
{
  "type": "node",
  "id": 2972872517,
  "lat": 50.3247271,
  "lon": 13.5389421
},
{
  "type": "node",
  "id": 2972872518,
  "lat": 50.3248344,
  "lon": 13.5389528
},
{
  "type": "node",
  "id": 2972872521,
  "lat": 50.3249282,
  "lon": 13.5389175
},
{
  "type": "node",
  "id": 2972872523,
  "lat": 50.3248276,
  "lon": 13.5389052
},
{
  "type": "node",
  "id": 2972872524,
  "lat": 50.3247619,
  "lon": 13.5388232
},
{
  "type": "node",
  "id": 2972872531,
  "lat": 50.3248171,
  "lon": 13.5388197
},
{
  "type": "node",
  "id": 5606439135,
  "lat": 50.3246233,
  "lon": 13.5389854
},
{
  "type": "node",
  "id": 5606439136,
  "lat": 50.3246184,
  "lon": 13.5390277
},
{
  "type": "node",
  "id": 5606439137,
  "lat": 50.3246219,
  "lon": 13.5390287
},
{
  "type": "node",
  "id": 5606439138,
  "lat": 50.3247093,
  "lon": 13.5390892
},
{
  "type": "node",
  "id": 5606439139,
  "lat": 50.3248143,
  "lon": 13.5388047
},
{
  "type": "node",
  "id": 5606439140,
  "lat": 50.3246426,
  "lon": 13.5388494
},
{
  "type": "node",
  "id": 5606439141,
  "lat": 50.3246994,
  "lon": 13.5388448
},
{
  "type": "node",
  "id": 1414980795,
  "lat": 50.3263879,
  "lon": 13.5445907
},
{
  "type": "node",
  "id": 1414980825,
  "lat": 50.3264711,
  "lon": 13.5445190
},
{
  "type": "node",
  "id": 1414980854,
  "lat": 50.3265595,
  "lon": 13.5445083
},
{
  "type": "node",
  "id": 2960074502,
  "lat": 50.3265841,
  "lon": 13.5447177
},
{
  "type": "node",
  "id": 3004633700,
  "lat": 50.3244537,
  "lon": 13.5451358
},
{
  "type": "node",
  "id": 3004633710,
  "lat": 50.3246724,
  "lon": 13.5447818
},
{
  "type": "node",
  "id": 3004633711,
  "lat": 50.3247167,
  "lon": 13.5451620
},
{
  "type": "node",
  "id": 3004633712,
  "lat": 50.3246873,
  "lon": 13.5452279
},
{
  "type": "node",
  "id": 3004633713,
  "lat": 50.3244368,
  "lon": 13.5451407
},
{
  "type": "node",
  "id": 3004633714,
  "lat": 50.3244786,
  "lon": 13.5450120
},
{
  "type": "node",
  "id": 3004633715,
  "lat": 50.3245668,
  "lon": 13.5449848
},
{
  "type": "node",
  "id": 3004633716,
  "lat": 50.3245486,
  "lon": 13.5448323
},
{
  "type": "node",
  "id": 3004633721,
  "lat": 50.3247803,
  "lon": 13.5450825
},
{
  "type": "node",
  "id": 3004633723,
  "lat": 50.3248525,
  "lon": 13.5447693
},
{
  "type": "node",
  "id": 3004633727,
  "lat": 50.3249759,
  "lon": 13.5453246
},
{
  "type": "node",
  "id": 3004633729,
  "lat": 50.3248847,
  "lon": 13.5454015
},
{
  "type": "node",
  "id": 3004633730,
  "lat": 50.3248100,
  "lon": 13.5453447
},
{
  "type": "node",
  "id": 3004633731,
  "lat": 50.3249445,
  "lon": 13.5452324
},
{
  "type": "node",
  "id": 3872874605,
  "lat": 50.3247482,
  "lon": 13.5447995
},
{
  "type": "node",
  "id": 3872874641,
  "lat": 50.3248426,
  "lon": 13.5447720
},
{
  "type": "node",
  "id": 3872874653,
  "lat": 50.3248935,
  "lon": 13.5450162
},
{
  "type": "node",
  "id": 3872874659,
  "lat": 50.3249099,
  "lon": 13.5451177
},
{
  "type": "node",
  "id": 3872875910,
  "lat": 50.3262478,
  "lon": 13.5447108
},
{
  "type": "node",
  "id": 3872876059,
  "lat": 50.3263220,
  "lon": 13.5448951
},
{
  "type": "node",
  "id": 3872876060,
  "lat": 50.3263231,
  "lon": 13.5448978
},
{
  "type": "node",
  "id": 3872876131,
  "lat": 50.3263901,
  "lon": 13.5445977
},
{
  "type": "node",
  "id": 3872876136,
  "lat": 50.3263973,
  "lon": 13.5447764
},
{
  "type": "node",
  "id": 3872876143,
  "lat": 50.3264054,
  "lon": 13.5448025
},
{
  "type": "node",
  "id": 3872876149,
  "lat": 50.3264168,
  "lon": 13.5447943
},
{
  "type": "node",
  "id": 3872876155,
  "lat": 50.3264248,
  "lon": 13.5448205
},
{
  "type": "node",
  "id": 3872876157,
  "lat": 50.3264258,
  "lon": 13.5448237
},
{
  "type": "node",
  "id": 3872876171,
  "lat": 50.3264465,
  "lon": 13.5445434
},
{
  "type": "node",
  "id": 3872876185,
  "lat": 50.3265030,
  "lon": 13.5446906
},
{
  "type": "node",
  "id": 3872876190,
  "lat": 50.3265160,
  "lon": 13.5447674
},
{
  "type": "node",
  "id": 3872876196,
  "lat": 50.3265508,
  "lon": 13.5444689
},
{
  "type": "node",
  "id": 3872876197,
  "lat": 50.3265562,
  "lon": 13.5445119
},
{
  "type": "node",
  "id": 3872876198,
  "lat": 50.3265595,
  "lon": 13.5445265
},
{
  "type": "node",
  "id": 3872876199,
  "lat": 50.3265688,
  "lon": 13.5445229
},
{
  "type": "node",
  "id": 3872876200,
  "lat": 50.3265726,
  "lon": 13.5446047
},
{
  "type": "node",
  "id": 3872876201,
  "lat": 50.3265760,
  "lon": 13.5446348
},
{
  "type": "node",
  "id": 3872876202,
  "lat": 50.3265772,
  "lon": 13.5446702
},
{
  "type": "node",
  "id": 3872876203,
  "lat": 50.3265774,
  "lon": 13.5446343
},
{
  "type": "node",
  "id": 3872876204,
  "lat": 50.3265775,
  "lon": 13.5446027
},
{
  "type": "node",
  "id": 3872876205,
  "lat": 50.3265806,
  "lon": 13.5446688
},
{
  "type": "node",
  "id": 5606439290,
  "lat": 50.3244921,
  "lon": 13.5451244
},
{
  "type": "node",
  "id": 5606439291,
  "lat": 50.3244565,
  "lon": 13.5452982
},
{
  "type": "node",
  "id": 1720627574,
  "lat": 50.1448480,
  "lon": 13.7746150
},
{
  "type": "node",
  "id": 1720627575,
  "lat": 50.1448510,
  "lon": 13.7745030
},
{
  "type": "node",
  "id": 284074854,
  "lat": 50.1454810,
  "lon": 13.7712814
},
{
  "type": "node",
  "id": 284074856,
  "lat": 50.1452750,
  "lon": 13.7701000
},
{
  "type": "node",
  "id": 1720627579,
  "lat": 50.1449040,
  "lon": 13.7745060
},
{
  "type": "node",
  "id": 2926002898,
  "lat": 50.1450751,
  "lon": 13.7712979
},
{
  "type": "node",
  "id": 2926002899,
  "lat": 50.1450769,
  "lon": 13.7711754
},
{
  "type": "node",
  "id": 3792310213,
  "lat": 50.1448922,
  "lon": 13.7751411
},
{
  "type": "node",
  "id": 3792310214,
  "lat": 50.1449921,
  "lon": 13.7745093
},
{
  "type": "node",
  "id": 3792310215,
  "lat": 50.1450624,
  "lon": 13.7722336
},
{
  "type": "node",
  "id": 3792310216,
  "lat": 50.1450601,
  "lon": 13.7716886
},
{
  "type": "node",
  "id": 3792310217,
  "lat": 50.1450964,
  "lon": 13.7716603
},
{
  "type": "node",
  "id": 3792310218,
  "lat": 50.1451032,
  "lon": 13.7708427
},
{
  "type": "node",
  "id": 3792310219,
  "lat": 50.1451622,
  "lon": 13.7704428
},
{
  "type": "node",
  "id": 4899252278,
  "lat": 50.1451387,
  "lon": 13.7706023
},
{
  "type": "node",
  "id": 284074863,
  "lat": 50.1462519,
  "lon": 13.7779501
},
{
  "type": "node",
  "id": 284074864,
  "lat": 50.1465590,
  "lon": 13.7766750
},
{
  "type": "node",
  "id": 1667528970,
  "lat": 50.1465819,
  "lon": 13.7772590
},
{
  "type": "node",
  "id": 1720627897,
  "lat": 50.1464537,
  "lon": 13.7777208
},
{
  "type": "node",
  "id": 3792310209,
  "lat": 50.1459343,
  "lon": 13.7776780
},
{
  "type": "node",
  "id": 3792310210,
  "lat": 50.1456165,
  "lon": 13.7772877
},
{
  "type": "node",
  "id": 3792310211,
  "lat": 50.1452830,
  "lon": 13.7767104
},
{
  "type": "node",
  "id": 3792310212,
  "lat": 50.1450381,
  "lon": 13.7760355
},
{
  "type": "node",
  "id": 1335589709,
  "lat": 50.1527502,
  "lon": 13.9023306
},
{
  "type": "node",
  "id": 1335594164,
  "lat": 50.1526824,
  "lon": 13.9024895
},
{
  "type": "node",
  "id": 1335596326,
  "lat": 50.1527293,
  "lon": 13.9023684
},
{
  "type": "node",
  "id": 1335598575,
  "lat": 50.1526779,
  "lon": 13.9024980
},
{
  "type": "node",
  "id": 1335600721,
  "lat": 50.1527469,
  "lon": 13.9023917
},
{
  "type": "node",
  "id": 1335602893,
  "lat": 50.1526648,
  "lon": 13.9024809
},
{
  "type": "node",
  "id": 1335605430,
  "lat": 50.1527409,
  "lon": 13.9024028
},
{
  "type": "node",
  "id": 1335608212,
  "lat": 50.1526694,
  "lon": 13.9024735
},
{
  "type": "node",
  "id": 1335612587,
  "lat": 50.1526123,
  "lon": 13.9023927
},
{
  "type": "node",
  "id": 6286447970,
  "lat": 50.1527838,
  "lon": 13.9026295
},
{
  "type": "node",
  "id": 6286447971,
  "lat": 50.1528344,
  "lon": 13.9025367
},
{
  "type": "node",
  "id": 6286447972,
  "lat": 50.1526930,
  "lon": 13.9022500
},
{
  "type": "node",
  "id": 637701209,
  "lat": 50.5170659,
  "lon": 13.6386983
},
{
  "type": "node",
  "id": 637701210,
  "lat": 50.5169469,
  "lon": 13.6386699
},
{
  "type": "node",
  "id": 637701212,
  "lat": 50.5170494,
  "lon": 13.6387432
},
{
  "type": "node",
  "id": 637701213,
  "lat": 50.5170061,
  "lon": 13.6384615
},
{
  "type": "node",
  "id": 637701216,
  "lat": 50.5174519,
  "lon": 13.6387883
},
{
  "type": "node",
  "id": 637701232,
  "lat": 50.5177150,
  "lon": 13.6385806
},
{
  "type": "node",
  "id": 637701233,
  "lat": 50.5177120,
  "lon": 13.6387874
},
{
  "type": "node",
  "id": 637701234,
  "lat": 50.5176643,
  "lon": 13.6387499
},
{
  "type": "node",
  "id": 637701236,
  "lat": 50.5173092,
  "lon": 13.6388762
},
{
  "type": "node",
  "id": 637701237,
  "lat": 50.5172135,
  "lon": 13.6391695
},
{
  "type": "node",
  "id": 637701238,
  "lat": 50.5172419,
  "lon": 13.6391025
},
{
  "type": "node",
  "id": 637701239,
  "lat": 50.5172328,
  "lon": 13.6391023
},
{
  "type": "node",
  "id": 637701240,
  "lat": 50.5172872,
  "lon": 13.6391541
},
{
  "type": "node",
  "id": 637701241,
  "lat": 50.5172663,
  "lon": 13.6391790
},
{
  "type": "node",
  "id": 637701242,
  "lat": 50.5174079,
  "lon": 13.6390582
},
{
  "type": "node",
  "id": 637701245,
  "lat": 50.5174259,
  "lon": 13.6390032
},
{
  "type": "node",
  "id": 637701247,
  "lat": 50.5173955,
  "lon": 13.6389785
},
{
  "type": "node",
  "id": 637701248,
  "lat": 50.5172555,
  "lon": 13.6391997
},
{
  "type": "node",
  "id": 637701250,
  "lat": 50.5172769,
  "lon": 13.6391850
},
{
  "type": "node",
  "id": 637701251,
  "lat": 50.5175940,
  "lon": 13.6391918
},
{
  "type": "node",
  "id": 637701252,
  "lat": 50.5176794,
  "lon": 13.6394436
},
{
  "type": "node",
  "id": 637701253,
  "lat": 50.5178449,
  "lon": 13.6388952
},
{
  "type": "node",
  "id": 637701254,
  "lat": 50.5178522,
  "lon": 13.6388944
},
{
  "type": "node",
  "id": 637701272,
  "lat": 50.5179049,
  "lon": 13.6387202
},
{
  "type": "node",
  "id": 5011033753,
  "lat": 50.5173364,
  "lon": 13.6391928
},
{
  "type": "node",
  "id": 5011033754,
  "lat": 50.5172167,
  "lon": 13.6391437
},
{
  "type": "node",
  "id": 5011033755,
  "lat": 50.5172191,
  "lon": 13.6391521
},
{
  "type": "node",
  "id": 2833071020,
  "lat": 50.6040793,
  "lon": 13.4632960
},
{
  "type": "node",
  "id": 2833071021,
  "lat": 50.6041181,
  "lon": 13.4634123
},
{
  "type": "node",
  "id": 2833071022,
  "lat": 50.6042177,
  "lon": 13.4631813
},
{
  "type": "node",
  "id": 2833071023,
  "lat": 50.6042565,
  "lon": 13.4632975
},
{
  "type": "node",
  "id": 1943169702,
  "lat": 50.6114563,
  "lon": 13.4390934
},
{
  "type": "node",
  "id": 1943169703,
  "lat": 50.6114650,
  "lon": 13.4389035
},
{
  "type": "node",
  "id": 1943169708,
  "lat": 50.6114981,
  "lon": 13.4389083
},
{
  "type": "node",
  "id": 1943169709,
  "lat": 50.6116171,
  "lon": 13.4388579
},
{
  "type": "node",
  "id": 1943169710,
  "lat": 50.6115080,
  "lon": 13.4391725
},
{
  "type": "node",
  "id": 1943169711,
  "lat": 50.6115095,
  "lon": 13.4391441
},
{
  "type": "node",
  "id": 1943169714,
  "lat": 50.6116024,
  "lon": 13.4391872
},
{
  "type": "node",
  "id": 1943169715,
  "lat": 50.6116040,
  "lon": 13.4391611
},
{
  "type": "node",
  "id": 1943169716,
  "lat": 50.6116189,
  "lon": 13.4388130
},
{
  "type": "node",
  "id": 1943169717,
  "lat": 50.6116203,
  "lon": 13.4387905
},
{
  "type": "node",
  "id": 1943169718,
  "lat": 50.6116706,
  "lon": 13.4391715
},
{
  "type": "node",
  "id": 1943169719,
  "lat": 50.6116920,
  "lon": 13.4388308
},
{
  "type": "node",
  "id": 3208843093,
  "lat": 50.6114308,
  "lon": 13.4389951
},
{
  "type": "node",
  "id": 3208843094,
  "lat": 50.6114592,
  "lon": 13.4390450
},
{
  "type": "node",
  "id": 3208843095,
  "lat": 50.6114648,
  "lon": 13.4389635
},
{
  "type": "node",
  "id": 3208843096,
  "lat": 50.6114844,
  "lon": 13.4390970
},
{
  "type": "node",
  "id": 3208843097,
  "lat": 50.6115016,
  "lon": 13.4388431
},
{
  "type": "node",
  "id": 3208843098,
  "lat": 50.6115108,
  "lon": 13.4388438
},
{
  "type": "node",
  "id": 3208843104,
  "lat": 50.6116542,
  "lon": 13.4388249
},
{
  "type": "node",
  "id": 3208843106,
  "lat": 50.6116560,
  "lon": 13.4387960
},
{
  "type": "node",
  "id": 282358951,
  "lat": 50.6391759,
  "lon": 13.4793953
},
{
  "type": "node",
  "id": 1347946607,
  "lat": 50.6391046,
  "lon": 13.4791702
},
{
  "type": "node",
  "id": 2187562867,
  "lat": 50.6388114,
  "lon": 13.4764342
},
{
  "type": "node",
  "id": 2187562870,
  "lat": 50.6391897,
  "lon": 13.4775830
},
{
  "type": "node",
  "id": 2187562871,
  "lat": 50.6392050,
  "lon": 13.4782883
},
{
  "type": "node",
  "id": 2187562872,
  "lat": 50.6392588,
  "lon": 13.4787758
},
{
  "type": "node",
  "id": 2187562873,
  "lat": 50.6391917,
  "lon": 13.4784217
},
{
  "type": "node",
  "id": 2892103026,
  "lat": 50.6393520,
  "lon": 13.4792882
},
{
  "type": "node",
  "id": 3654741768,
  "lat": 50.6393105,
  "lon": 13.4761426
},
{
  "type": "node",
  "id": 3654741769,
  "lat": 50.6393388,
  "lon": 13.4760904
},
{
  "type": "node",
  "id": 3654741770,
  "lat": 50.6396428,
  "lon": 13.4755143
},
{
  "type": "node",
  "id": 3654741771,
  "lat": 50.6396711,
  "lon": 13.4754870
},
{
  "type": "node",
  "id": 3654741773,
  "lat": 50.6397184,
  "lon": 13.4755317
},
{
  "type": "node",
  "id": 3654741774,
  "lat": 50.6397593,
  "lon": 13.4756062
},
{
  "type": "node",
  "id": 3654741775,
  "lat": 50.6398239,
  "lon": 13.4757130
},
{
  "type": "node",
  "id": 3654741777,
  "lat": 50.6398853,
  "lon": 13.4757750
},
{
  "type": "node",
  "id": 3655936579,
  "lat": 50.6386414,
  "lon": 13.4761765
},
{
  "type": "node",
  "id": 3655936584,
  "lat": 50.6387239,
  "lon": 13.4762525
},
{
  "type": "node",
  "id": 3655936585,
  "lat": 50.6387436,
  "lon": 13.4763730
},
{
  "type": "node",
  "id": 3655936586,
  "lat": 50.6387448,
  "lon": 13.4762985
},
{
  "type": "node",
  "id": 3656286429,
  "lat": 50.6386185,
  "lon": 13.4776670
},
{
  "type": "node",
  "id": 3656286430,
  "lat": 50.6386323,
  "lon": 13.4778291
},
{
  "type": "node",
  "id": 3656286432,
  "lat": 50.6386608,
  "lon": 13.4761149
},
{
  "type": "node",
  "id": 3656286435,
  "lat": 50.6386728,
  "lon": 13.4774775
},
{
  "type": "node",
  "id": 3656286436,
  "lat": 50.6386822,
  "lon": 13.4778690
},
{
  "type": "node",
  "id": 3656286437,
  "lat": 50.6387005,
  "lon": 13.4760852
},
{
  "type": "node",
  "id": 3656286438,
  "lat": 50.6387462,
  "lon": 13.4773311
},
{
  "type": "node",
  "id": 3656286439,
  "lat": 50.6387560,
  "lon": 13.4778542
},
{
  "type": "node",
  "id": 3656286440,
  "lat": 50.6387887,
  "lon": 13.4761165
},
{
  "type": "node",
  "id": 3656286442,
  "lat": 50.6388067,
  "lon": 13.4771728
},
{
  "type": "node",
  "id": 3656286443,
  "lat": 50.6388154,
  "lon": 13.4777549
},
{
  "type": "node",
  "id": 3656286447,
  "lat": 50.6388791,
  "lon": 13.4769468
},
{
  "type": "node",
  "id": 3656286448,
  "lat": 50.6388843,
  "lon": 13.4765838
},
{
  "type": "node",
  "id": 3656286449,
  "lat": 50.6389037,
  "lon": 13.4776909
},
{
  "type": "node",
  "id": 3656286450,
  "lat": 50.6389364,
  "lon": 13.4761884
},
{
  "type": "node",
  "id": 3656286451,
  "lat": 50.6389438,
  "lon": 13.4767057
},
{
  "type": "node",
  "id": 3656286452,
  "lat": 50.6389674,
  "lon": 13.4768827
},
{
  "type": "node",
  "id": 3656286454,
  "lat": 50.6390046,
  "lon": 13.4768294
},
{
  "type": "node",
  "id": 3656286455,
  "lat": 50.6390131,
  "lon": 13.4776070
},
{
  "type": "node",
  "id": 3656286456,
  "lat": 50.6390256,
  "lon": 13.4762571
},
{
  "type": "node",
  "id": 3656286457,
  "lat": 50.6390458,
  "lon": 13.4793008
},
{
  "type": "node",
  "id": 3656286460,
  "lat": 50.6391335,
  "lon": 13.4775330
},
{
  "type": "node",
  "id": 3656286461,
  "lat": 50.6391363,
  "lon": 13.4790413
},
{
  "type": "node",
  "id": 3656286463,
  "lat": 50.6391756,
  "lon": 13.4790104
},
{
  "type": "node",
  "id": 3656286464,
  "lat": 50.6391782,
  "lon": 13.4763790
},
{
  "type": "node",
  "id": 3656286465,
  "lat": 50.6391826,
  "lon": 13.4777727
},
{
  "type": "node",
  "id": 3656286466,
  "lat": 50.6391882,
  "lon": 13.4781484
},
{
  "type": "node",
  "id": 3656286467,
  "lat": 50.6392036,
  "lon": 13.4778699
},
{
  "type": "node",
  "id": 3656286468,
  "lat": 50.6392064,
  "lon": 13.4780622
},
{
  "type": "node",
  "id": 3656286473,
  "lat": 50.6392190,
  "lon": 13.4785374
},
{
  "type": "node",
  "id": 3656286475,
  "lat": 50.6392499,
  "lon": 13.4789927
},
{
  "type": "node",
  "id": 3656286480,
  "lat": 50.6392863,
  "lon": 13.4788822
},
{
  "type": "node",
  "id": 3656286484,
  "lat": 50.6392989,
  "lon": 13.4789728
},
{
  "type": "node",
  "id": 3656286490,
  "lat": 50.6393721,
  "lon": 13.4792809
},
{
  "type": "node",
  "id": 3656286491,
  "lat": 50.6393913,
  "lon": 13.4792754
},
{
  "type": "node",
  "id": 3656286496,
  "lat": 50.6394514,
  "lon": 13.4792583
},
{
  "type": "node",
  "id": 3656286505,
  "lat": 50.6395391,
  "lon": 13.4792149
},
{
  "type": "node",
  "id": 3656286509,
  "lat": 50.6395945,
  "lon": 13.4781363
},
{
  "type": "node",
  "id": 3656286510,
  "lat": 50.6396001,
  "lon": 13.4782734
},
{
  "type": "node",
  "id": 3656286515,
  "lat": 50.6396295,
  "lon": 13.4779993
},
{
  "type": "node",
  "id": 3656286516,
  "lat": 50.6396389,
  "lon": 13.4784273
},
{
  "type": "node",
  "id": 3656286517,
  "lat": 50.6396436,
  "lon": 13.4784049
},
{
  "type": "node",
  "id": 3656286518,
  "lat": 50.6396499,
  "lon": 13.4779728
},
{
  "type": "node",
  "id": 3656286519,
  "lat": 50.6396689,
  "lon": 13.4785678
},
{
  "type": "node",
  "id": 3656286523,
  "lat": 50.6397916,
  "lon": 13.4791226
},
{
  "type": "node",
  "id": 3656286525,
  "lat": 50.6398047,
  "lon": 13.4778015
},
{
  "type": "node",
  "id": 3656286531,
  "lat": 50.6398671,
  "lon": 13.4776976
},
{
  "type": "node",
  "id": 3656286533,
  "lat": 50.6398987,
  "lon": 13.4776335
},
{
  "type": "node",
  "id": 3656286535,
  "lat": 50.6399225,
  "lon": 13.4775617
},
{
  "type": "node",
  "id": 3656286538,
  "lat": 50.6399365,
  "lon": 13.4773882
},
{
  "type": "node",
  "id": 3656286540,
  "lat": 50.6399504,
  "lon": 13.4788550
},
{
  "type": "node",
  "id": 3656286541,
  "lat": 50.6399519,
  "lon": 13.4773053
},
{
  "type": "node",
  "id": 3656286544,
  "lat": 50.6399926,
  "lon": 13.4771871
},
{
  "type": "node",
  "id": 3656286546,
  "lat": 50.6400500,
  "lon": 13.4761077
},
{
  "type": "node",
  "id": 3656286547,
  "lat": 50.6400733,
  "lon": 13.4790141
},
{
  "type": "node",
  "id": 3656286548,
  "lat": 50.6401314,
  "lon": 13.4768286
},
{
  "type": "node",
  "id": 3656286549,
  "lat": 50.6401837,
  "lon": 13.4767588
},
{
  "type": "node",
  "id": 3656286551,
  "lat": 50.6401974,
  "lon": 13.4767404
},
{
  "type": "node",
  "id": 3656286555,
  "lat": 50.6402783,
  "lon": 13.4766484
},
{
  "type": "node",
  "id": 3656286557,
  "lat": 50.6403550,
  "lon": 13.4765661
},
{
  "type": "node",
  "id": 3656291652,
  "lat": 50.6395276,
  "lon": 13.4792206
},
{
  "type": "node",
  "id": 3656291661,
  "lat": 50.6395604,
  "lon": 13.4756705
},
{
  "type": "node",
  "id": 3656291682,
  "lat": 50.6396567,
  "lon": 13.4785109
},
{
  "type": "node",
  "id": 3656291711,
  "lat": 50.6400006,
  "lon": 13.4789200
},
{
  "type": "node",
  "id": 3656291712,
  "lat": 50.6400150,
  "lon": 13.4789387
},
{
  "type": "node",
  "id": 3657004109,
  "lat": 50.6400406,
  "lon": 13.4789718
},
{
  "type": "node",
  "id": 3657006732,
  "lat": 50.6403431,
  "lon": 13.4765789
},
{
  "type": "node",
  "id": 987403901,
  "lat": 50.6030306,
  "lon": 13.7459414
},
{
  "type": "node",
  "id": 987405340,
  "lat": 50.6030332,
  "lon": 13.7461303
},
{
  "type": "node",
  "id": 987407185,
  "lat": 50.6029051,
  "lon": 13.7459428
},
{
  "type": "node",
  "id": 987412002,
  "lat": 50.6028955,
  "lon": 13.7461261
}

  ]
}
