{
  "version": 0.6,
  "generator": "Overpass API 0.7.55.1011 6c2efc30",
  "osm3s": {
    "timestamp_osm_base": "2020-02-14T14:07:02Z",
    "copyright": "The data included in this document is from www.openstreetmap.org. The data is made available under ODbL."
  },
  "elements": [

{
  "type": "node",
  "id": 34050666,
  "lat": 51.6877069,
  "lon": 5.3097641,
  "tags": {
    "addr:city": "'s-Hertogenbosch",
    "addr:housenumber": "8",
    "addr:postcode": "5211KZ",
    "addr:street": "Choorstraat",
    "email": "info@museumslager.com",
    "name": "Museum Slager",
    "opening_hours": "Tu-Su 13:30-16:30",
    "phone": "+31736133216",
    "source": "BAG",
    "source:date": "2014-02-11",
    "tourism": "museum",
    "website": "https://www.museumslager.com/",
    "wikidata": "Q17190029"
  }
},
{
  "type": "node",
  "id": 34050672,
  "lat": 51.5626286,
  "lon": 5.4598512,
  "tags": {
    "name": "Museum Sint-Paulusgasthuis",
    "tourism": "museum"
  }
},
{
  "type": "node",
  "id": 34050685,
  "lat": 51.6553270,
  "lon": 5.6067994,
  "tags": {
    "addr:city": "Uden",
    "addr:housenumber": "25",
    "addr:postcode": "5401PB",
    "addr:street": "Veghelsedijk",
    "name": "Museum Voor Religieuze Kunst",
    "opening_hours": "Tu-Su 11:00-17:00",
    "source": "BAG",
    "source:date": "2014-08-20",
    "tourism": "museum",
    "website": "http://museumvoorreligieuzekunst.nl/",
    "wikidata": "Q2112422"
  }
},
{
  "type": "node",
  "id": 34050707,
  "lat": 51.8915630,
  "lon": 5.4247327,
  "tags": {
    "name": "Museum Sacrum",
    "tourism": "museum"
  }
},
{
  "type": "node",
  "id": 70940079,
  "lat": 51.4781036,
  "lon": 5.6501483,
  "tags": {
    "name": "Gemeentemuseum Helmond - Boscotondohal",
    "tourism": "museum",
    "wikidata": "Q22015126",
    "wikipedia": "nl:Gemeentemuseum Helmond"
  }
},
{
  "type": "node",
  "id": 251309454,
  "lat": 51.5673038,
  "lon": 5.0745193,
  "tags": {
    "addr:housenumber": "1",
    "addr:postcode": "5041 EA",
    "addr:street": "Wilhelminapark",
    "name": "Museum De Pont",
    "opening_hours": "Tu-Su 11:00-17:00",
    "phone": "+31 13 5438300",
    "tourism": "museum",
    "website": "https://depont.nl/",
    "wikidata": "Q13866168"
  }
},
{
  "type": "node",
  "id": 251309457,
  "lat": 51.5711125,
  "lon": 5.0797475,
  "tags": {
    "name": "Textielmuseum",
    "tourism": "museum",
    "wikidata": "Q3983824"
  }
},
{
  "type": "node",
  "id": 251309459,
  "lat": 51.5598817,
  "lon": 5.0811223,
  "tags": {
    "created_by": "JOSM",
    "name": "Natuurmuseum Brabant",
    "tourism": "museum",
    "wikidata": "Q1889816"
  }
},
{
  "type": "node",
  "id": 402760695,
  "lat": 51.6432079,
  "lon": 4.8630733,
  "tags": {
    "name": "Bakkerijmuseum",
    "tourism": "museum"
  }
},
{
  "type": "node",
  "id": 402760697,
  "lat": 51.6422407,
  "lon": 4.8678116,
  "tags": {
    "name": "Speelgoedmuseum",
    "tourism": "museum",
    "wheelchair": "yes"
  }
},
{
  "type": "node",
  "id": 437993832,
  "lat": 51.8113212,
  "lon": 5.2489996,
  "tags": {
    "addr:city": "Zaltbommel",
    "addr:country": "NL",
    "addr:housenumber": "5",
    "addr:postcode": "5301BE",
    "addr:street": "Nonnenstraat",
    "name": "Stadskasteel",
    "source": "BAG",
    "source:date": "2014-03-24",
    "tourism": "museum",
    "website": "https://www.stadskasteelzaltbommel.nl/",
    "wikidata": "Q2539475",
    "wikipedia": "nl:Stadskasteel Zaltbommel"
  }
},
{
  "type": "node",
  "id": 462113649,
  "lat": 51.6080547,
  "lon": 5.3214753,
  "tags": {
    "addr:city": "Boxtel",
    "addr:housenumber": "80",
    "addr:postcode": "5283 WB",
    "addr:street": "Bosscheweg",
    "name": "Oertijdmuseum De Groene Poort",
    "phone": "+31-(0)-411-616861",
    "tourism": "museum",
    "website": "https://www.oertijdmuseum.nl/"
  }
},
{
  "type": "node",
  "id": 575002052,
  "lat": 51.6421409,
  "lon": 5.3444817,
  "tags": {
    "name": "Oudheidkundig museum",
    "tourism": "museum"
  }
},
{
  "type": "node",
  "id": 648046389,
  "lat": 51.6035926,
  "lon": 5.6719398,
  "tags": {
    "addr:city": "Boekel",
    "addr:housenumber": "22",
    "addr:postcode": "5427BG",
    "addr:street": "Sint Janplein",
    "name": "Heemkundekring Sint Achten op Boeckel",
    "source": "BAG",
    "source:date": "2014-05-07",
    "tourism": "museum",
    "website": "http://www.heemkundeboekel.nl/"
  }
},
{
  "type": "node",
  "id": 654986334,
  "lat": 51.4408309,
  "lon": 5.4699617,
  "tags": {
    "addr:city": "Eindhoven",
    "addr:housenumber": "1",
    "addr:postcode": "5611BK",
    "addr:street": "Vonderweg",
    "name": "Temporary Art Centre",
    "toilets:wheelchair": "yes",
    "tourism": "museum",
    "website": "https://www.tac.nu/",
    "wheelchair": "yes"
  }
},
{
  "type": "node",
  "id": 737191574,
  "lat": 51.6655415,
  "lon": 5.2588712,
  "tags": {
    "image": "https://d1cuyjsrcm0gby.cloudfront.net/ziIa5KY9OH7AMW001YymDA/thumb-2048.jpg",
    "name": "Nationaal Monument Kamp Vught",
    "name:en": "Concentration Camp Museum",
    "tourism": "museum",
    "wikidata": "Q153713",
    "wikipedia": "nl:Kamp Vught"
  }
},
{
  "type": "node",
  "id": 840873659,
  "lat": 51.6841221,
  "lon": 5.3029766,
  "tags": {
    "email": "erfgoed@s-hertogenbosch.nl",
    "name": "Bastionder",
    "opening_hours": "We,Fr-Su 12:00-16:00",
    "tourism": "museum"
  }
},
{
  "type": "node",
  "id": 875926170,
  "lat": 51.8302333,
  "lon": 4.9742597,
  "tags": {
    "name": "Dit is in Bethlehem",
    "tourism": "museum"
  }
},
{
  "type": "node",
  "id": 1327228223,
  "lat": 51.8818463,
  "lon": 5.0857606,
  "tags": {
    "name": "Nationaal Glasmuseum",
    "tourism": "museum"
  }
},
{
  "type": "node",
  "id": 1444150342,
  "lat": 51.8296410,
  "lon": 4.9743128,
  "tags": {
    "name": "Gorcums Museum",
    "opening_hours": "Tu-Sa 10:00-17:00; Su 13:00-17:00",
    "ref:bag": "512010000017741",
    "tourism": "museum",
    "wikidata": "Q2530116",
    "wikipedia": "nl:Gorcums Museum"
  }
},
{
  "type": "node",
  "id": 1444313115,
  "lat": 51.8655974,
  "lon": 5.1254743,
  "tags": {
    "alt_name": "GeoFort",
    "internet_access": "yes",
    "internet_access:fee": "no",
    "internet_access:type": "wlan",
    "name": "GeoExperience",
    "opening_hours": "Sa-Su 11:00-17:00; \"school holidays Mo-Su 11:00-17:00\"",
    "operator": "GeoFort",
    "phone": "+31345630480",
    "toilets": "yes",
    "tourism": "museum",
    "website": "https://www.geofort.nl/"
  }
},
{
  "type": "node",
  "id": 1642230223,
  "lat": 51.6601869,
  "lon": 5.2574636,
  "tags": {
    "addr:city": "Vught",
    "addr:housenumber": "102D-C21K",
    "addr:postcode": "5263NT",
    "addr:street": "Lunettenlaan",
    "name": "Geniemuseum Vught",
    "source": "BAG",
    "source:date": "2017-11-04",
    "tourism": "museum",
    "wikidata": "Q1969635",
    "wikipedia": "nl:Geniemuseum"
  }
},
{
  "type": "node",
  "id": 1696747400,
  "lat": 51.8322843,
  "lon": 5.5910439,
  "tags": {
    "name": "Stoomgemaal de Tuut",
    "tourism": "museum"
  }
},
{
  "type": "node",
  "id": 1793614128,
  "lat": 51.9777630,
  "lon": 5.1271421,
  "tags": {
    "name": "Motormuseum Hagestein",
    "tourism": "museum"
  }
},
{
  "type": "node",
  "id": 1805036781,
  "lat": 51.8085061,
  "lon": 5.7275988,
  "tags": {
    "addr:housenumber": "9",
    "addr:postcode": "6602 DA",
    "addr:street": "Kasteellaan",
    "historic": "castle",
    "name": "Museum Kasteel Wijchen",
    "phone": "+31246424744",
    "tourism": "museum"
  }
},
{
  "type": "node",
  "id": 2057721725,
  "lat": 51.4770701,
  "lon": 5.6529579,
  "tags": {
    "addr:city": "Helmond",
    "addr:housenumber": "1",
    "addr:postcode": "5701PP",
    "addr:street": "Kasteelplein",
    "email": "info@museumhelmond.nl",
    "name": "Museum Helmond",
    "opening_hours": "Tu-Fr 10:00-17:00; Sa,Su,PH 12:00-17:00",
    "phone": "+31 492 587716",
    "source": "BAG",
    "source:date": "2014-06-06",
    "tourism": "museum",
    "website": "https://www.museumhelmond.nl"
  }
},
{
  "type": "node",
  "id": 2588206323,
  "lat": 51.7877855,
  "lon": 5.3389488,
  "tags": {
    "addr:city": "Alem",
    "addr:housenumber": "12",
    "addr:postcode": "5335LL",
    "addr:street": "Sint Odradastraat",
    "name": "Nederlands Dakpannenmuseum",
    "source": "BAG",
    "source:date": "2014-03-24",
    "tourism": "museum",
    "website": "http://www.dakpannencollectiemombers.nl/"
  }
},
{
  "type": "node",
  "id": 2653570887,
  "lat": 51.6898834,
  "lon": 5.3572820,
  "tags": {
    "name": "Kunstlocatie Würth",
    "tourism": "museum"
  }
},
{
  "type": "node",
  "id": 2696984114,
  "lat": 51.9119331,
  "lon": 5.3367800,
  "tags": {
    "addr:city": "Buren",
    "addr:housenumber": "9",
    "addr:postcode": "4116BR",
    "addr:street": "Weeshuiswal",
    "name": "Museum der Koninklijke Marechaussee",
    "note": "Staat bij wikipedia als nog niet aangemaakt http://nl.wikipedia.org/wiki/Lijst_van_musea_in_Nederland",
    "opening_hours": "Mo-Su 12:30-16:30",
    "source": "http://www.marechausseemuseum.nl/?show=page&id=60",
    "tourism": "museum",
    "website": "https://www.marechausseemuseum.nl/",
    "wheelchair": "limited"
  }
},
{
  "type": "node",
  "id": 2713167892,
  "lat": 51.4320989,
  "lon": 5.4315164,
  "tags": {
    "addr:city": "Eindhoven",
    "addr:housenumber": "24",
    "addr:postcode": "5652BH",
    "addr:street": "Looyenbeemd",
    "name": "Philips Historische Producten",
    "source": "BAG",
    "source:date": "2014-02-11",
    "tourism": "museum"
  }
},
{
  "type": "node",
  "id": 2725832236,
  "lat": 51.5163956,
  "lon": 5.4403104,
  "tags": {
    "name": "Museum Bevrijdende Vleugels",
    "tourism": "museum"
  }
},
{
  "type": "node",
  "id": 2736148599,
  "lat": 51.6880922,
  "lon": 5.3121633,
  "tags": {
    "addr:city": "'s-Hertogenbosch",
    "addr:housenumber": "2",
    "addr:postcode": "5211ML",
    "addr:street": "Jeroen Boschplein",
    "contact:phone": "+31 73 612 68 90",
    "name": "Jheronimus Bosch Art Center",
    "source": "BAG",
    "source:date": "2014-02-11",
    "tourism": "museum",
    "website": "https://www.jheronimusbosch-artcenter.nl",
    "wikidata": "Q1847215",
    "wikipedia": "nl:Jheronimus Bosch Art Center"
  }
},
{
  "type": "node",
  "id": 2736789481,
  "lat": 51.6857426,
  "lon": 5.3041697,
  "tags": {
    "addr:city": "'s-Hertogenbosch",
    "addr:housenumber": "4",
    "addr:postcode": "5211HV",
    "addr:street": "De Mortel",
    "name": "Design Museum Den Bosch",
    "opening_hours": "Tu-Su 11:00-17:00",
    "source": "BAG",
    "source:date": "2014-02-11",
    "tourism": "museum",
    "website": "https://designmuseum.nl",
    "wheelchair": "yes",
    "wikidata": "Q7605588",
    "wikipedia": "nl:Design Museum Den Bosch"
  }
},
{
  "type": "node",
  "id": 2736792349,
  "lat": 51.6865802,
  "lon": 5.3046847,
  "tags": {
    "addr:city": "'s-Hertogenbosch",
    "addr:housenumber": "41",
    "addr:postcode": "5211HT",
    "addr:street": "Verwersstraat",
    "name": "Het Noordbrabants Museum",
    "opening_hours": "Tu-Su 11:00-17:00",
    "source": "BAG",
    "source:date": "2014-02-11",
    "toilets:wheelchair": "yes",
    "tourism": "museum",
    "website": "https://www.hetnoordbrabantsmuseum.nl/",
    "wheelchair": "yes",
    "wikidata": "Q12013217"
  }
},
{
  "type": "node",
  "id": 2754064095,
  "lat": 51.4411963,
  "lon": 5.4682857,
  "tags": {
    "addr:city": "Eindhoven",
    "addr:housenumber": "6",
    "addr:postcode": "5616RX",
    "addr:street": "Stadionplein",
    "name": "PSV Museum",
    "source": "BAG",
    "source:date": "2014-03-24",
    "tourism": "museum"
  }
},
{
  "type": "node",
  "id": 2759556931,
  "lat": 51.4344583,
  "lon": 5.4818841,
  "tags": {
    "addr:city": "Eindhoven",
    "addr:housenumber": "10",
    "addr:postcode": "5611NH",
    "addr:street": "Bilderdijklaan",
    "name": "van Abbe Museum",
    "opening_hours": "Tu-Su 11:00-17:00",
    "source": "BAG",
    "source:date": "2014-03-24",
    "tourism": "museum",
    "website": "https://vanabbemuseum.nl",
    "wikidata": "Q1782422"
  }
},
{
  "type": "node",
  "id": 2760788926,
  "lat": 51.6541260,
  "lon": 5.3223626,
  "tags": {
    "addr:city": "Sint-Michielsgestel",
    "addr:housenumber": "5B",
    "addr:street": "Haanwijk",
    "name": "Romeins Halder",
    "source": "BAG",
    "source:date": "2014-03-24",
    "tourism": "museum",
    "website": "https://www.romeinshalder.nl/"
  }
},
{
  "type": "node",
  "id": 2760789733,
  "lat": 51.6613580,
  "lon": 5.3914227,
  "tags": {
    "addr:city": "Den Dungen",
    "addr:housenumber": "70",
    "addr:postcode": "5275JD",
    "addr:street": "Spurkstraat",
    "name": "Museum 't Brabants Leven",
    "opening_hours": "Apr 01-Oct 31 Mo-Sa",
    "source": "BAG",
    "source:date": "2014-03-24",
    "tourism": "museum",
    "website": "http://www.brabantsleven.nl/",
    "wheelchair": "yes"
  }
},
{
  "type": "node",
  "id": 2770097005,
  "lat": 51.7691834,
  "lon": 5.3409871,
  "tags": {
    "addr:city": "Kerkdriel",
    "addr:housenumber": "38",
    "addr:postcode": "5331CR",
    "addr:street": "Teisterbandstraat",
    "name": "Driels Museum",
    "source": "BAG",
    "source:date": "2014-03-24",
    "tourism": "museum",
    "wikidata": "Q13574438",
    "wikipedia": "nl:Driels Museum"
  }
},
{
  "type": "node",
  "id": 2772233765,
  "lat": 51.6608179,
  "lon": 5.2584823,
  "tags": {
    "addr:city": "Vught",
    "addr:housenumber": "1B",
    "addr:postcode": "5263MC",
    "addr:street": "Atlantis",
    "image": "https://d1cuyjsrcm0gby.cloudfront.net/C_9cx4hu7_YuQxFhGm2ZkA/thumb-2048.jpg",
    "name": "Barak 1B",
    "operator": "Nationaal Monument Kamp Vught",
    "source": "BAG",
    "source:date": "2014-03-24",
    "tourism": "museum"
  }
},
{
  "type": "node",
  "id": 2790475082,
  "lat": 51.5921671,
  "lon": 5.3503540,
  "tags": {
    "addr:city": "Boxtel",
    "addr:housenumber": "14",
    "addr:postcode": "5283VK",
    "addr:street": "Koppenhoefstraat",
    "name": "Classic Park",
    "source": "BAG",
    "source:date": "2014-03-24",
    "tourism": "museum"
  }
},
{
  "type": "node",
  "id": 2805954857,
  "lat": 51.9573518,
  "lon": 5.2228917,
  "tags": {
    "addr:city": "Culemborg",
    "addr:housenumber": "29a",
    "addr:postcode": "4101BR",
    "addr:street": "Herenstraat",
    "name": "Elisabethweeshuis",
    "source": "BAG",
    "source:date": "2014-03-24",
    "tourism": "museum",
    "wikidata": "Q2636377",
    "wikipedia": "nl:Elisabeth Weeshuis"
  }
},
{
  "type": "node",
  "id": 2806043698,
  "lat": 51.9580269,
  "lon": 5.2374063,
  "tags": {
    "addr:city": "Culemborg",
    "addr:housenumber": "2",
    "addr:postcode": "4101JV",
    "addr:street": "Irenestraat",
    "contact:website": "http://www.elvismuseum.nl/contact.html",
    "name": "Elvis Presley Museum",
    "source": "BAG",
    "source:date": "2014-03-24",
    "tourism": "museum",
    "website": "http://www.elvismuseum.nl",
    "wikidata": "Q28146985",
    "wikipedia": "nl:Elvis Presley Museum (Culemborg)"
  }
},
{
  "type": "node",
  "id": 2815047906,
  "lat": 51.5956034,
  "lon": 5.6311887,
  "tags": {
    "addr:city": "Erp",
    "addr:housenumber": "7",
    "addr:postcode": "5469NK",
    "addr:street": "Hoek",
    "description": "private collection of enamel, call in advance to visit",
    "name": "Het Kleine Aadal",
    "phone": "+31622494803",
    "source": "BAG",
    "source:date": "2014-03-24",
    "tourism": "museum"
  }
},
{
  "type": "node",
  "id": 2820944394,
  "lat": 51.4864461,
  "lon": 5.1470380,
  "tags": {
    "addr:city": "Hilvarenbeek",
    "addr:housenumber": "17A",
    "addr:postcode": "5081AN",
    "addr:street": "Beerten",
    "email": "info@museumdansant.nl",
    "fax": "+31 13 505 0293",
    "name": "Museum Dansant",
    "phone": "+31 13 505 0292",
    "source": "BAG",
    "source:date": "2014-03-24",
    "tourism": "museum",
    "website": "www.museumdansant.nl"
  }
},
{
  "type": "node",
  "id": 2821194420,
  "lat": 51.4897566,
  "lon": 5.1360641,
  "tags": {
    "addr:city": "Hilvarenbeek",
    "addr:housenumber": "53",
    "addr:postcode": "5081CK",
    "addr:street": "Doelenstraat",
    "name": "Museum De Dorpsdokter",
    "phone": "+31 13 5054093",
    "source": "BAG",
    "source:date": "2014-03-24",
    "tourism": "museum",
    "website": "https://museumdedorpsdokter.nl/"
  }
},
{
  "type": "node",
  "id": 2826000214,
  "lat": 51.5022799,
  "lon": 5.3076504,
  "tags": {
    "addr:city": "Oirschot",
    "addr:housenumber": "9",
    "addr:postcode": "5688ER",
    "addr:street": "De Moriaan",
    "name": "Museum Kruysenhuis",
    "source": "BAG",
    "source:date": "2014-03-24",
    "tourism": "museum",
    "website": "http://www.kruysenhuis.nl"
  }
},
{
  "type": "node",
  "id": 2833325636,
  "lat": 51.4283545,
  "lon": 5.4166516,
  "tags": {
    "addr:city": "Veldhoven",
    "addr:housenumber": "6",
    "addr:postcode": "5502HM",
    "addr:street": "Hemelrijken",
    "heritage": "2",
    "heritage:operator": "rce",
    "name": "‘t Oude Slot",
    "source": "BAG",
    "source:date": "2014-03-24",
    "tourism": "museum",
    "website": "https://www.museumoudeslot.nl"
  }
},
{
  "type": "node",
  "id": 2853172140,
  "lat": 51.6316875,
  "lon": 4.8420025,
  "tags": {
    "addr:city": "Oosterhout",
    "addr:housenumber": "129",
    "addr:postcode": "4904SB",
    "addr:street": "Bredaseweg",
    "name": "Brabant Museum Oud Oosterhout",
    "source": "BAG",
    "source:date": "2014-05-07",
    "tourism": "museum"
  }
},
{
  "type": "node",
  "id": 2861800641,
  "lat": 51.5983207,
  "lon": 5.6847367,
  "tags": {
    "addr:city": "Boekel",
    "addr:housenumber": "22",
    "addr:postcode": "5427SL",
    "addr:street": "Mezenlaan",
    "museum": "nature",
    "name": "De Perekker",
    "source": "BAG",
    "source:date": "2014-05-07",
    "tourism": "museum"
  }
},
{
  "type": "node",
  "id": 2861802272,
  "lat": 51.5864663,
  "lon": 5.7097840,
  "tags": {
    "addr:city": "Boekel",
    "addr:housenumber": "45",
    "addr:postcode": "5427EL",
    "addr:street": "Daniël de Brouwerstraat",
    "name": "De Kluis",
    "source": "BAG",
    "source:date": "2014-05-07",
    "tourism": "museum",
    "website": "https://dekluis.weebly.com/"
  }
},
{
  "type": "node",
  "id": 2872355775,
  "lat": 51.4223008,
  "lon": 5.5637080,
  "tags": {
    "addr:city": "Geldrop",
    "addr:housenumber": "21",
    "addr:postcode": "5664HV",
    "addr:street": "Molenstraat",
    "museum": "weaving",
    "name": "Weverijmuseum",
    "source": "BAG",
    "source:date": "2014-05-20",
    "subject": "weaving",
    "tourism": "museum",
    "website": "https://www.weverijmuseum.nl/"
  }
},
{
  "type": "node",
  "id": 2899785692,
  "lat": 51.8903038,
  "lon": 5.0918765,
  "tags": {
    "name": "Hofje van Aerden",
    "tourism": "museum",
    "website": "https://hofjevanaerden.nl/",
    "wikidata": "Q2021677",
    "wikipedia": "nl:Hofje van Mevrouw Van Aerden"
  }
},
{
  "type": "node",
  "id": 2903869571,
  "lat": 51.4845763,
  "lon": 5.6534320,
  "tags": {
    "addr:city": "Helmond",
    "addr:housenumber": "167",
    "addr:postcode": "5701SM",
    "addr:street": "Oostende",
    "brand:wikidata": "Q2219498",
    "brand:wikipedia": "nl:Edah",
    "contact:website": "http://www.edahmuseum.nl/contact-2/",
    "name": "Edah Museum",
    "source": "BAG",
    "source:date": "2014-06-07",
    "tourism": "museum",
    "website": "http://www.edahmuseum.nl"
  }
},
{
  "type": "node",
  "id": 2903871558,
  "lat": 51.4797267,
  "lon": 5.6580622,
  "tags": {
    "addr:city": "Helmond",
    "addr:housenumber": "28",
    "addr:postcode": "5701NK",
    "addr:street": "Noord Koninginnewal",
    "name": "HomeComputerMuseum",
    "opening_hours": "We-Th 11:00-18:00; Fr 11:00-22:00; Sa 11:00-18:00; Su 12:00-17:00",
    "source": "BAG",
    "source:date": "2017-03-29",
    "tourism": "museum",
    "website": "https://www.homecomputer.museum/"
  }
},
{
  "type": "node",
  "id": 2928035212,
  "lat": 51.8015614,
  "lon": 5.4641133,
  "tags": {
    "addr:city": "Lithoijen",
    "addr:housenumber": "8",
    "addr:postcode": "5396PH",
    "addr:street": "Prelaat van de Bergplein",
    "name": "Remigiusmuseum",
    "source": "BAG",
    "source:date": "2014-06-22",
    "tourism": "museum"
  }
},
{
  "type": "node",
  "id": 2973289466,
  "lat": 51.8816364,
  "lon": 5.5174361,
  "tags": {
    "addr:city": "Beneden-Leeuwen",
    "addr:housenumber": "3",
    "addr:postcode": "6658EE",
    "addr:street": "Pastoor Zijlmansstraat",
    "name": "Museum Tweestromenland",
    "source": "BAG",
    "source:date": "2014-07-21",
    "tourism": "museum"
  }
},
{
  "type": "node",
  "id": 3019081645,
  "lat": 51.8864658,
  "lon": 5.4397772,
  "tags": {
    "addr:housenumber": "48",
    "addr:postcode": "4001 LJ",
    "addr:street": "Plein",
    "email": "info@museumtiel.nl",
    "name": "Flipje en Streekmuseum Tiel",
    "name:en": "Flipje en Streekmuseum",
    "name:nl": "Flipje en Streekmuseum",
    "opening_hours": "Tu-Fr 13:30-17:00; Sa-Su 13:30-16:30",
    "phone": "+31344614416",
    "tourism": "museum",
    "website": "https://www.streekmuseumtiel.nl/",
    "wikidata": "Q13636575",
    "wikipedia": "nl:Flipje & Streekmuseum"
  }
},
{
  "type": "node",
  "id": 3166218195,
  "lat": 51.6153288,
  "lon": 5.5303399,
  "tags": {
    "addr:city": "Veghel",
    "addr:housenumber": "8",
    "addr:postcode": "5462EH",
    "addr:street": "Verlengde Noordkade",
    "name": "SIEMei",
    "official_name": "Stichting Industrieel Erfgoed Meierij",
    "source": "BAG",
    "source:date": "2016-09-22",
    "tourism": "museum",
    "website": "https://siemei.nl"
  }
},
{
  "type": "node",
  "id": 3297456695,
  "lat": 51.7574062,
  "lon": 5.7386757,
  "tags": {
    "name": "Graafs Museum",
    "tourism": "museum",
    "website": "https://www.graafsmuseum.nl/"
  }
},
{
  "type": "node",
  "id": 3392917494,
  "lat": 51.6893933,
  "lon": 5.3108433,
  "tags": {
    "addr:housenumber": "27",
    "addr:postcode": "5211ND",
    "addr:street": "Zusters van Orthenpoort",
    "name": "Het Oeteldonks Gemintemuzejum",
    "opening_hours": "Tu-Su 13:11-17:11",
    "phone": "+31736130199",
    "tourism": "museum",
    "website": "https://www.carnavalsmuseum.nl/",
    "wikidata": "Q2170093",
    "wikipedia": "nl:Het Oeteldonks Gemintemuzejum"
  }
},
{
  "type": "node",
  "id": 3685789449,
  "lat": 51.5276190,
  "lon": 5.4606432,
  "tags": {
    "name": "Oorlogsmuseum Paulushoeve",
    "tourism": "museum"
  }
},
{
  "type": "node",
  "id": 3761890905,
  "lat": 51.6281231,
  "lon": 4.9149081,
  "tags": {
    "name": "IJzertijdboerderij",
    "tourism": "museum",
    "website": "https://www.ijzertijdboerderij.nl/"
  }
},
{
  "type": "node",
  "id": 3923164008,
  "lat": 51.4623130,
  "lon": 5.1391283,
  "tags": {
    "name": "Andreas Schotel Museum",
    "opening_hours": "Tu-Su 11:00-16:00",
    "tourism": "museum",
    "website": "https://www.andreasschotel.nl/",
    "wheelchair": "yes"
  }
},
{
  "type": "node",
  "id": 4219127128,
  "lat": 51.9895616,
  "lon": 5.3251755,
  "tags": {
    "name": "Het Kersenmuseum",
    "opening_hours": "Tu-Fr 10:00-16:00; Sa 10:00-15:00",
    "tourism": "museum"
  }
},
{
  "type": "node",
  "id": 4310296219,
  "lat": 51.4469429,
  "lon": 5.0428299,
  "tags": {
    "name": "Heemkundigmuseum Het Kaske",
    "tourism": "museum"
  }
},
{
  "type": "node",
  "id": 4327051894,
  "lat": 51.7643842,
  "lon": 5.7875023,
  "tags": {
    "addr:city": "Overasselt",
    "addr:housenumber": "5",
    "addr:postcode": "6611KA",
    "addr:street": "Kasteelsestraat",
    "contact:email": "museumdelagehof@gmail.com",
    "contact:phone": "+31 24 6221680",
    "contact:website": "http://museum.buurderijdelagehof.nl/",
    "name": "De Lage Hof",
    "opening_hours": "We-Su 13:00-17:00",
    "tourism": "museum"
  }
},
{
  "type": "node",
  "id": 4328354008,
  "lat": 51.4410591,
  "lon": 5.0405435,
  "tags": {
    "addr:housenumber": "49",
    "addr:street": "Vond",
    "email": "info@vondhoeve.com",
    "name": "Vondhoeve",
    "phone": "+32 14 65 23 44",
    "tourism": "museum",
    "website": "http://www.vondhoeve.com/"
  }
},
{
  "type": "node",
  "id": 4403907830,
  "lat": 51.7328248,
  "lon": 5.1388207,
  "tags": {
    "addr:city": "Heusden",
    "addr:housenumber": "14",
    "addr:postcode": "5256AN",
    "addr:street": "Putterstraat",
    "name": "Het Gouverneurshuis",
    "opening_hours": "Fr 13:00-17:00; Sa,Su 11:00-17:00; Dec 25 11:00-17:00; 11:00-17:00 \"Whit Monday\"",
    "source": "BAG",
    "source:date": "2016-09-16",
    "tourism": "museum",
    "website": "http://gouverneurshuis.nl/"
  }
},
{
  "type": "node",
  "id": 4743667258,
  "lat": 51.4373178,
  "lon": 5.4905917,
  "tags": {
    "addr:city": "Eindhoven",
    "addr:housenumber": "27",
    "addr:postcode": "5613DA",
    "addr:street": "Tongelresestraat",
    "email": "info@daf-museum.nl",
    "name": "DAF Museum",
    "opening_hours": "PH,Mo off; Tu-Su 11:00-17:00",
    "phone": "+3140 24 44 364",
    "source": "BAG",
    "source:date": "2017-03-19",
    "toilets:wheelchair": "yes",
    "tourism": "museum",
    "website": "https://www.dafmuseum.nl",
    "wheelchair": "yes",
    "wikidata": "Q4488641",
    "wikipedia": "nl:DAF Museum"
  }
},
{
  "type": "node",
  "id": 4758459319,
  "lat": 51.4393145,
  "lon": 5.4752413,
  "tags": {
    "addr:city": "Eindhoven",
    "addr:housenumber": "31",
    "addr:postcode": "5611AZ",
    "addr:street": "Emmasingel",
    "email": "info@philips-museum.nl",
    "name": "Philips Museum",
    "opening_hours": "Mo off; Tu-Su,PH 11:00-17:00",
    "phone": "+31 40 2359030",
    "source": "BAG",
    "source:date": "2017-03-27",
    "tourism": "museum",
    "website": "http://www.philips-museum.com"
  }
},
{
  "type": "node",
  "id": 4887750521,
  "lat": 51.7640986,
  "lon": 5.1212575,
  "tags": {
    "name": "kevermuseum De Wolfsburcht",
    "name:nl": "kevermuseum De Wolfsburcht",
    "tourism": "museum"
  }
},
{
  "type": "node",
  "id": 5561494345,
  "lat": 51.6583130,
  "lon": 5.2982525,
  "tags": {
    "name": "Vughts Museum",
    "tourism": "museum",
    "website": "https://www.vughtsmuseum.nl/"
  }
},
{
  "type": "node",
  "id": 5731738939,
  "lat": 51.8160198,
  "lon": 5.0033470,
  "tags": {
    "name": "Visserijmuseum Woudrichem",
    "tourism": "museum",
    "website": "http://www.visserijmuseumwoudrichem.nl"
  }
},
{
  "type": "node",
  "id": 5734872575,
  "lat": 51.8314895,
  "lon": 4.9765067,
  "tags": {
    "name": "Hendrick Hamel museum",
    "tourism": "museum",
    "website": "http://www.hendrickhamelmuseum.nl"
  }
},
{
  "type": "node",
  "id": 5781361987,
  "lat": 51.5734119,
  "lon": 5.1533646,
  "tags": {
    "name": "Monument van Riel",
    "tourism": "museum"
  }
},
{
  "type": "node",
  "id": 6007162085,
  "lat": 51.4382503,
  "lon": 5.4875994,
  "tags": {
    "name": "Erfgoedhus",
    "tourism": "museum"
  }
},
{
  "type": "node",
  "id": 6860895511,
  "lat": 51.6181195,
  "lon": 5.4325895,
  "tags": {
    "name": "Museum Jan Heestershuis",
    "tourism": "museum"
  }
},
{
  "type": "way",
  "id": 56747560,
  "nodes": [
    710226239,
    710284334,
    710287897,
    710266119,
    2780268596,
    710254020,
    710250411,
    710274278,
    710251015,
    2780268573,
    2780268568,
    710256453,
    710226239
  ],
  "tags": {
    "building": "yes",
    "name": "Historisch Museum",
    "ref:bag": "263100000012927",
    "source": "BAG",
    "source:date": "2019-02-03",
    "start_date": "1882",
    "tourism": "museum",
    "wikidata": "Q42298583"
  }
},
{
  "type": "way",
  "id": 189437892,
  "nodes": [
    2000569488,
    2000614571,
    2000569492,
    2000569487,
    2000569493,
    2000569474,
    2000569491,
    2000614566,
    2000569481,
    2000614574,
    2000569473,
    2000614577,
    2000569471,
    2000612388,
    2000612384,
    2000614568,
    2000569476,
    2000614578,
    2000569475,
    2000569480,
    2000569479,
    2000569489,
    2000569470,
    2000569486,
    2000569483,
    2000569485,
    2000569490,
    2000614569,
    2000569472,
    2000569478,
    2000569477,
    2000614573,
    2000569484,
    2000614575,
    2000569494,
    2000569482,
    2000569488
  ],
  "tags": {
    "addr:city": "Werkendam",
    "addr:housenumber": "8",
    "addr:postcode": "4251PX",
    "addr:street": "Tol",
    "building": "yes",
    "designation": "Torenfort",
    "name": "Fort Altena",
    "old_name": "Fort Altena (NHW)",
    "source": "survey 6-11-12",
    "tourism": "museum"
  }
},
{
  "type": "way",
  "id": 262756729,
  "nodes": [
    2684136924,
    2684137825,
    2684137857,
    2684137883,
    3544706938,
    2684137925,
    2684137899,
    2684138542,
    2684138196,
    2684138469,
    2684138117,
    2684137871,
    2684137822,
    1909180910,
    2684137621,
    441136393,
    2684136924
  ],
  "tags": {
    "building": "yes",
    "name": "Slot Loevestein",
    "ref:bag": "297100000000371",
    "source": "BAG",
    "source:date": "2014-02-11",
    "start_date": "1370",
    "tourism": "museum"
  }
},
{
  "type": "way",
  "id": 268904994,
  "nodes": [
    2742015090,
    2742015091,
    2742015096,
    2742015097,
    2742015103,
    2742015102,
    2742015105,
    2742015104,
    2742015101,
    2742015100,
    2742015098,
    931985255,
    931995543,
    2742015092,
    2742015090
  ],
  "tags": {
    "addr:housenumber": "12a",
    "addr:postcode": "5236BE",
    "addr:street": "Krommenhoek",
    "building": "yes",
    "man_made": "pumping_station",
    "name": "Museumgemaal Caners",
    "ref:bag": "796100000234095",
    "source": "BAG",
    "source:date": "2018-11-27",
    "start_date": "1990",
    "tourism": "museum",
    "website": "https://www.aaenmaas.nl/informatie_op_maat/burgers/burgers/excursies/museumgemaal_caners",
    "wikipedia": "nl:Museumgemaal Caners"
  }
},
{
  "type": "way",
  "id": 268905200,
  "nodes": [
    2742015036,
    2742015037,
    2742015035,
    2742015041,
    2742015015,
    2742015013,
    2742015011,
    2742015010,
    2742015036
  ],
  "tags": {
    "building": "yes",
    "man_made": "pumping_station",
    "name": "Museum Hertogsgemaal",
    "official_name": "Archeologisch en Paleontologisch Museum Hertogsgemaal",
    "ref:bag": "0796100000273854",
    "source": "BAG",
    "source:date": "2019-11-12",
    "start_date": "1940",
    "tourism": "museum",
    "website": "http://museumhertogsgemaal.nl/",
    "wikipedia": "nl:Museum Hertogsgemaal"
  }
},
{
  "type": "way",
  "id": 269127840,
  "nodes": [
    2744231339,
    2744231411,
    2744231517,
    2744231518,
    2744231404,
    2744231396,
    2744231372,
    2744231363,
    2744231352,
    2744231347,
    2744231329,
    2744231332,
    2744231319,
    2744231342,
    2744231339
  ],
  "tags": {
    "building": "industrial",
    "name": "Glasblazerij",
    "ref:bag": "545100000336787",
    "source": "BAG",
    "source:date": "2014-03-24",
    "start_date": "1994",
    "tourism": "museum"
  }
},
{
  "type": "way",
  "id": 273354676,
  "nodes": [
    2620079721,
    2782167893,
    2782167908,
    2782167890,
    2620079721
  ],
  "tags": {
    "building": "yes",
    "name": "Natuurhistorisch Museum",
    "ref:bag": "304100000000834",
    "source": "BAG",
    "source:date": "2014-03-24",
    "start_date": "1871",
    "tourism": "museum",
    "website": "http://www.dutleysheritagefoundation.nl/",
    "wheelchair": "no"
  }
},
{
  "type": "way",
  "id": 277280868,
  "nodes": [
    2818035378,
    2818035380,
    2818035376,
    2818035392,
    2818035150,
    2818036343,
    2818036301,
    2818035197,
    2818035177,
    2818035378
  ],
  "tags": {
    "building": "yes",
    "name": "Museum Buren en Oranje",
    "ref:bag": "214100000015138",
    "source": "BAG",
    "source:date": "2014-03-24",
    "start_date": "1966",
    "tourism": "museum"
  }
},
{
  "type": "way",
  "id": 277637533,
  "nodes": [
    2821196524,
    2821196526,
    2821196613,
    2821196623,
    2821196547,
    2821196550,
    2821196536,
    2821196539,
    2821196203,
    2821195992,
    2821196236,
    2821195180,
    2821195178,
    2821196524
  ],
  "tags": {
    "building": "yes",
    "craft": "brewery",
    "int_name": "Museum brewery De Roos",
    "name": "Museumbrouwerij De Roos",
    "ref:bag": "798100000004055",
    "source": "BAG",
    "source:date": "2014-03-24",
    "start_date": "1963",
    "tourism": "museum"
  }
},
{
  "type": "way",
  "id": 279667950,
  "nodes": [
    2838596284,
    2838735783,
    2838735780,
    2838735775,
    2838735770,
    2838735779,
    697280523,
    7167842218,
    2838735791,
    2838735792,
    2838735794,
    2838596248,
    2838596272,
    2838596284
  ],
  "tags": {
    "alt_name": "Wonder Depot; In de Bonte Versaemelingh",
    "building": "yes",
    "name": "Efteling Museum",
    "old_name": "In de Bonte Harlekyn",
    "ref:bag": "809100000017629",
    "source": "BAG",
    "source:date": "2014-05-01",
    "start_date": "2003",
    "tourism": "museum",
    "website": "https://www.eftepedia.nl/lemma/Efteling_Museum",
    "wikidata": "Q1938001",
    "wikipedia": "nl:Efteling Museum"
  }
},
{
  "type": "way",
  "id": 280722571,
  "nodes": [
    2847845584,
    2847845598,
    2847845562,
    2847845527,
    2847845584
  ],
  "tags": {
    "building": "yes",
    "name": "Peerke Donders Paviljoen Museum voor Naastenliefde",
    "opening_hours": "Tu-Su 13:00-17:00",
    "price": "€2,00 adults",
    "ref:bag": "855100000699185",
    "source": "BAG",
    "source:date": "2014-05-07",
    "start_date": "2009",
    "tourism": "museum",
    "website": "http://www.peerkedonders.nl/"
  }
},
{
  "type": "way",
  "id": 281132594,
  "nodes": [
    2851265098,
    2851265106,
    6452480482,
    3900378126,
    3900378127,
    2851265182,
    2851265183,
    2851265178,
    2851265175,
    2851265165,
    2851265164,
    2851263163,
    2851265156,
    2851265153,
    2851265131,
    2851265133,
    2851265098
  ],
  "tags": {
    "addr:city": "Wijk bij Duurstede",
    "addr:housenumber": "42",
    "addr:postcode": "3961AL",
    "addr:street": "Muntstraat",
    "building": "yes",
    "name": "Museum Dorestad",
    "opening_hours": "Tu-Su 13:30-17:00",
    "ref:bag": "352100000012262",
    "source": "BAG",
    "source:date": "2019-05-06",
    "start_date": "1900",
    "tourism": "museum",
    "website": "http://www.museumdorestad.nl/"
  }
},
{
  "type": "way",
  "id": 287455020,
  "nodes": [
    2910511559,
    2910512354,
    2910512893,
    2910511491,
    2910511559
  ],
  "tags": {
    "building": "house",
    "name": "Landgoed 'Het Broeck'",
    "ref:bag": "779100000001062",
    "source": "BAG",
    "source:date": "2014-06-11",
    "start_date": "1880",
    "tourism": "museum",
    "website": "http://www.landgoedhetbroeck.nl"
  }
},
{
  "type": "way",
  "id": 287460059,
  "nodes": [
    2910496752,
    2910496331,
    2910495860,
    2910495831,
    2910495563,
    2910495300,
    2910495649,
    2910495190,
    2910495915,
    2910496752
  ],
  "tags": {
    "building": "yes",
    "name": "Museum 'De Roos'",
    "ref:bag": "779100000001196",
    "source": "BAG",
    "source:date": "2014-06-10",
    "start_date": "1700",
    "tourism": "museum",
    "website": "http://www.museumderoos.nl/"
  }
},
{
  "type": "way",
  "id": 289641256,
  "nodes": [
    2931754853,
    2931754841,
    2931754778,
    2931752415,
    2931752164,
    2931752148,
    2931750761,
    2931750779,
    2931750760,
    2931750965,
    2931750939,
    2931750744,
    2931750959,
    2931753253,
    2931752468,
    2931752480,
    2931754222,
    2931754209,
    2931754720,
    2931754724,
    2931754757,
    2931754786,
    2931754853
  ],
  "tags": {
    "building": "commercial",
    "name": "Museum Jan Cunen centrum",
    "ref:bag": "828100001486175",
    "source": "BAG",
    "source:date": "2014-06-23",
    "start_date": "1850",
    "tourism": "museum"
  }
},
{
  "type": "way",
  "id": 295646027,
  "nodes": [
    2993837283,
    2993837184,
    2993837178,
    2993836928,
    2993837137,
    2993836839,
    2993836847,
    2993836851,
    2993836907,
    2993837140,
    2993837159,
    2993836924,
    2993837186,
    2993837439,
    2993837393,
    2993837378,
    2993837359,
    2993837367,
    2993837290,
    2993837292,
    2993837283
  ],
  "tags": {
    "building": "yes",
    "heritage": "8",
    "heritage:operator": "Gemeente Nuenen, Gerwen en Nederwetten",
    "name": "Vincentre",
    "opening_hours": "Tu-Su 10:00-17:00",
    "phone": "040-2839615",
    "ref:bag": "820100000003696",
    "ref:heritage": "0820/WN027",
    "source": "BAG",
    "source:date": "2014-08-03",
    "start_date": "1879",
    "tourism": "museum",
    "website": "http://www.vangoghvillagenuenen.nl/",
    "wikipedia": "nl:Vincentre"
  }
},
{
  "type": "way",
  "id": 504508983,
  "nodes": [
    4946580958,
    4946571807,
    4946571806,
    4946580959,
    4946580960,
    4946580961,
    4946580962,
    4946580963,
    4946580964,
    4948405095,
    4946571808,
    4946580965,
    4946580966,
    4946580967,
    4946580968,
    4946580969,
    4946580970,
    4743615948,
    4743615956,
    970398006,
    970371588,
    970389702,
    970407405,
    970426859,
    970429058,
    970391342,
    4743463013,
    4743463921,
    970379044,
    970376783,
    2579567503,
    970413876,
    970412030,
    970384130,
    970415051,
    970387461,
    4743463923,
    4946580971,
    3004990557,
    4946571797,
    4946571790,
    4946580972,
    4946580973,
    4946580958
  ],
  "tags": {
    "name": "Boerenbondsmuseum",
    "tourism": "museum",
    "website": "https://www.boerenbondsmuseum.nl",
    "wikipedia": "nl:Boerenbondsmuseum"
  }
},
{
  "type": "way",
  "id": 767433514,
  "nodes": [
    995805474,
    995821177,
    2497947450,
    2497947449,
    2497947448,
    2497947447,
    2497947440,
    2497947428,
    2497947415,
    2497947408,
    2497947404,
    2497947403,
    2497947405,
    2497947406,
    2497947407,
    7165396013,
    995787004,
    995800281,
    995786227,
    995818483,
    995815067,
    995820132,
    995804087,
    7165396014,
    2497938429,
    2497938446,
    7165396015,
    995799141,
    995807674,
    995810249,
    995819460,
    995791908,
    995801587,
    995803990,
    995812753,
    995783405,
    995795062,
    995797637,
    995806156,
    995776264,
    995786736,
    995790305,
    2497938600,
    2497938601,
    995815548,
    995779260,
    995792816,
    995808600,
    2497938565,
    2497938558,
    2497938549,
    995784777,
    2497938543,
    2497938540,
    995802444,
    2497938514,
    995809540,
    995791237,
    1476976259,
    2497938479,
    2497938481,
    2495066240,
    2497938465,
    2497938460,
    1476599215,
    995805474
  ],
  "tags": {
    "addr:city": "Eindhoven",
    "addr:housenumber": "161B",
    "addr:postcode": "5644TV",
    "addr:street": "Boutenslaan",
    "email": "info@prehistorischdorp.nl",
    "fee": "yes",
    "museum": "open_air",
    "name": "PreHistorisch Dorp",
    "phone": "+3140 252 22 81",
    "toilets:wheelchair": "yes",
    "tourism": "museum",
    "website": "https://www.prehistorischdorp.nl",
    "wheelchair": "yes",
    "wikidata": "Q24754774",
    "wikipedia": "nl:preHistorisch Dorp"
  }
},
{
  "type": "node",
  "id": 2821195178,
  "lat": 51.4861688,
  "lon": 5.1348071
},
{
  "type": "node",
  "id": 2821195180,
  "lat": 51.4861698,
  "lon": 5.1348223
},
{
  "type": "node",
  "id": 2821195992,
  "lat": 51.4859549,
  "lon": 5.1348645
},
{
  "type": "node",
  "id": 2821196203,
  "lat": 51.4859652,
  "lon": 5.1349985
},
{
  "type": "node",
  "id": 2821196236,
  "lat": 51.4860575,
  "lon": 5.1348451
},
{
  "type": "node",
  "id": 2821196524,
  "lat": 51.4862142,
  "lon": 5.1347985
},
{
  "type": "node",
  "id": 2821196526,
  "lat": 51.4862143,
  "lon": 5.1348001
},
{
  "type": "node",
  "id": 2821196536,
  "lat": 51.4862230,
  "lon": 5.1349111
},
{
  "type": "node",
  "id": 2821196539,
  "lat": 51.4862254,
  "lon": 5.1349453
},
{
  "type": "node",
  "id": 2821196547,
  "lat": 51.4862318,
  "lon": 5.1348841
},
{
  "type": "node",
  "id": 2821196550,
  "lat": 51.4862336,
  "lon": 5.1349092
},
{
  "type": "node",
  "id": 2821196613,
  "lat": 51.4862348,
  "lon": 5.1347963
},
{
  "type": "node",
  "id": 2821196623,
  "lat": 51.4862410,
  "lon": 5.1348824
},
{
  "type": "node",
  "id": 2847845527,
  "lat": 51.5931020,
  "lon": 5.0923432
},
{
  "type": "node",
  "id": 2847845562,
  "lat": 51.5931904,
  "lon": 5.0924766
},
{
  "type": "node",
  "id": 2847845584,
  "lat": 51.5932714,
  "lon": 5.0920543
},
{
  "type": "node",
  "id": 2847845598,
  "lat": 51.5933597,
  "lon": 5.0921879
},
{
  "type": "node",
  "id": 995786227,
  "lat": 51.4223407,
  "lon": 5.4770294
},
{
  "type": "node",
  "id": 995787004,
  "lat": 51.4221622,
  "lon": 5.4771232
},
{
  "type": "node",
  "id": 995800281,
  "lat": 51.4222418,
  "lon": 5.4770681
},
{
  "type": "node",
  "id": 995804087,
  "lat": 51.4227152,
  "lon": 5.4770515
},
{
  "type": "node",
  "id": 995815067,
  "lat": 51.4225174,
  "lon": 5.4770091
},
{
  "type": "node",
  "id": 995818483,
  "lat": 51.4224314,
  "lon": 5.4770116
},
{
  "type": "node",
  "id": 995820132,
  "lat": 51.4225921,
  "lon": 5.4770229
},
{
  "type": "node",
  "id": 2497938429,
  "lat": 51.4227707,
  "lon": 5.4772454
},
{
  "type": "node",
  "id": 2497947403,
  "lat": 51.4218053,
  "lon": 5.4755563
},
{
  "type": "node",
  "id": 2497947404,
  "lat": 51.4218290,
  "lon": 5.4755223
},
{
  "type": "node",
  "id": 2497947405,
  "lat": 51.4219129,
  "lon": 5.4761399
},
{
  "type": "node",
  "id": 2497947406,
  "lat": 51.4219720,
  "lon": 5.4762732
},
{
  "type": "node",
  "id": 2497947407,
  "lat": 51.4221417,
  "lon": 5.4771202
},
{
  "type": "node",
  "id": 2497947408,
  "lat": 51.4221815,
  "lon": 5.4757792
},
{
  "type": "node",
  "id": 2497947415,
  "lat": 51.4223429,
  "lon": 5.4758863
},
{
  "type": "node",
  "id": 2497947428,
  "lat": 51.4225468,
  "lon": 5.4759987
},
{
  "type": "node",
  "id": 2497947440,
  "lat": 51.4226886,
  "lon": 5.4760804
},
{
  "type": "node",
  "id": 2497947447,
  "lat": 51.4227824,
  "lon": 5.4761791
},
{
  "type": "node",
  "id": 2497947448,
  "lat": 51.4228133,
  "lon": 5.4762190
},
{
  "type": "node",
  "id": 7165396013,
  "lat": 51.4221466,
  "lon": 5.4771416
},
{
  "type": "node",
  "id": 7165396014,
  "lat": 51.4227678,
  "lon": 5.4770726
},
{
  "type": "node",
  "id": 995776264,
  "lat": 51.4243738,
  "lon": 5.4770627
},
{
  "type": "node",
  "id": 995779260,
  "lat": 51.4244765,
  "lon": 5.4764168
},
{
  "type": "node",
  "id": 995783405,
  "lat": 51.4241449,
  "lon": 5.4771620
},
{
  "type": "node",
  "id": 995784777,
  "lat": 51.4239440,
  "lon": 5.4768455
},
{
  "type": "node",
  "id": 995786736,
  "lat": 51.4244493,
  "lon": 5.4770733
},
{
  "type": "node",
  "id": 995790305,
  "lat": 51.4244504,
  "lon": 5.4769488
},
{
  "type": "node",
  "id": 995791237,
  "lat": 51.4234609,
  "lon": 5.4769661
},
{
  "type": "node",
  "id": 995791908,
  "lat": 51.4238422,
  "lon": 5.4774218
},
{
  "type": "node",
  "id": 995792816,
  "lat": 51.4242654,
  "lon": 5.4764998
},
{
  "type": "node",
  "id": 995795062,
  "lat": 51.4242490,
  "lon": 5.4771190
},
{
  "type": "node",
  "id": 995797637,
  "lat": 51.4243058,
  "lon": 5.4770802
},
{
  "type": "node",
  "id": 995799141,
  "lat": 51.4230480,
  "lon": 5.4771659
},
{
  "type": "node",
  "id": 995801587,
  "lat": 51.4238806,
  "lon": 5.4774168
},
{
  "type": "node",
  "id": 995802444,
  "lat": 51.4237908,
  "lon": 5.4769471
},
{
  "type": "node",
  "id": 995803990,
  "lat": 51.4239426,
  "lon": 5.4773557
},
{
  "type": "node",
  "id": 995805474,
  "lat": 51.4229726,
  "lon": 5.4763353
},
{
  "type": "node",
  "id": 995806156,
  "lat": 51.4243204,
  "lon": 5.4770762
},
{
  "type": "node",
  "id": 995807674,
  "lat": 51.4235662,
  "lon": 5.4773551
},
{
  "type": "node",
  "id": 995808600,
  "lat": 51.4241485,
  "lon": 5.4765808
},
{
  "type": "node",
  "id": 995809540,
  "lat": 51.4236121,
  "lon": 5.4770086
},
{
  "type": "node",
  "id": 995810249,
  "lat": 51.4237082,
  "lon": 5.4774065
},
{
  "type": "node",
  "id": 995812753,
  "lat": 51.4240274,
  "lon": 5.4772683
},
{
  "type": "node",
  "id": 995815548,
  "lat": 51.4244692,
  "lon": 5.4765861
},
{
  "type": "node",
  "id": 995819460,
  "lat": 51.4237893,
  "lon": 5.4774125
},
{
  "type": "node",
  "id": 995821177,
  "lat": 51.4229244,
  "lon": 5.4762976
},
{
  "type": "node",
  "id": 1476599215,
  "lat": 51.4230629,
  "lon": 5.4764193
},
{
  "type": "node",
  "id": 1476976259,
  "lat": 51.4234273,
  "lon": 5.4769424
},
{
  "type": "node",
  "id": 2495066240,
  "lat": 51.4233250,
  "lon": 5.4768193
},
{
  "type": "node",
  "id": 2497938446,
  "lat": 51.4229467,
  "lon": 5.4772764
},
{
  "type": "node",
  "id": 2497938460,
  "lat": 51.4232357,
  "lon": 5.4766771
},
{
  "type": "node",
  "id": 2497938465,
  "lat": 51.4232792,
  "lon": 5.4767434
},
{
  "type": "node",
  "id": 2497938479,
  "lat": 51.4234036,
  "lon": 5.4769254
},
{
  "type": "node",
  "id": 2497938481,
  "lat": 51.4234118,
  "lon": 5.4769013
},
{
  "type": "node",
  "id": 2497938514,
  "lat": 51.4237048,
  "lon": 5.4769908
},
{
  "type": "node",
  "id": 2497938540,
  "lat": 51.4238957,
  "lon": 5.4768738
},
{
  "type": "node",
  "id": 2497938543,
  "lat": 51.4239206,
  "lon": 5.4768666
},
{
  "type": "node",
  "id": 2497938549,
  "lat": 51.4239684,
  "lon": 5.4768246
},
{
  "type": "node",
  "id": 2497938558,
  "lat": 51.4241068,
  "lon": 5.4766699
},
{
  "type": "node",
  "id": 2497938565,
  "lat": 51.4241542,
  "lon": 5.4766299
},
{
  "type": "node",
  "id": 2497938600,
  "lat": 51.4244557,
  "lon": 5.4768795
},
{
  "type": "node",
  "id": 2497938601,
  "lat": 51.4244565,
  "lon": 5.4768442
},
{
  "type": "node",
  "id": 2497947449,
  "lat": 51.4228565,
  "lon": 5.4762745
},
{
  "type": "node",
  "id": 2497947450,
  "lat": 51.4228993,
  "lon": 5.4762798
},
{
  "type": "node",
  "id": 7165396015,
  "lat": 51.4229626,
  "lon": 5.4771383
},
{
  "type": "node",
  "id": 2993836907,
  "lat": 51.4768211,
  "lon": 5.5508195
},
{
  "type": "node",
  "id": 2993836924,
  "lat": 51.4768288,
  "lon": 5.5507972
},
{
  "type": "node",
  "id": 2993837140,
  "lat": 51.4768322,
  "lon": 5.5508297
},
{
  "type": "node",
  "id": 2993837159,
  "lat": 51.4768402,
  "lon": 5.5508072
},
{
  "type": "node",
  "id": 2993837186,
  "lat": 51.4768541,
  "lon": 5.5507265
},
{
  "type": "node",
  "id": 2993837378,
  "lat": 51.4769400,
  "lon": 5.5508988
},
{
  "type": "node",
  "id": 2993837439,
  "lat": 51.4769679,
  "lon": 5.5508302
},
{
  "type": "node",
  "id": 2993836839,
  "lat": 51.4767837,
  "lon": 5.5509211
},
{
  "type": "node",
  "id": 2993836847,
  "lat": 51.4767872,
  "lon": 5.5509108
},
{
  "type": "node",
  "id": 2993836851,
  "lat": 51.4767882,
  "lon": 5.5509117
},
{
  "type": "node",
  "id": 2993836928,
  "lat": 51.4768294,
  "lon": 5.5509715
},
{
  "type": "node",
  "id": 2993837137,
  "lat": 51.4768317,
  "lon": 5.5509648
},
{
  "type": "node",
  "id": 2993837178,
  "lat": 51.4768505,
  "lon": 5.5509907
},
{
  "type": "node",
  "id": 2993837184,
  "lat": 51.4768529,
  "lon": 5.5509841
},
{
  "type": "node",
  "id": 2993837283,
  "lat": 51.4769006,
  "lon": 5.5510279
},
{
  "type": "node",
  "id": 2993837290,
  "lat": 51.4769031,
  "lon": 5.5510177
},
{
  "type": "node",
  "id": 2993837292,
  "lat": 51.4769040,
  "lon": 5.5510184
},
{
  "type": "node",
  "id": 2993837359,
  "lat": 51.4769322,
  "lon": 5.5509215
},
{
  "type": "node",
  "id": 2993837367,
  "lat": 51.4769353,
  "lon": 5.5509242
},
{
  "type": "node",
  "id": 2993837393,
  "lat": 51.4769433,
  "lon": 5.5509017
},
{
  "type": "node",
  "id": 970384130,
  "lat": 51.5639482,
  "lon": 5.6683657
},
{
  "type": "node",
  "id": 970387461,
  "lat": 51.5644575,
  "lon": 5.6683031
},
{
  "type": "node",
  "id": 970415051,
  "lat": 51.5641414,
  "lon": 5.6680416
},
{
  "type": "node",
  "id": 3004990557,
  "lat": 51.5649169,
  "lon": 5.6688267
},
{
  "type": "node",
  "id": 4743463923,
  "lat": 51.5644200,
  "lon": 5.6684507
},
{
  "type": "node",
  "id": 4946580971,
  "lat": 51.5645509,
  "lon": 5.6683964
},
{
  "type": "node",
  "id": 970371588,
  "lat": 51.5642960,
  "lon": 5.6698117
},
{
  "type": "node",
  "id": 970376783,
  "lat": 51.5628439,
  "lon": 5.6706933
},
{
  "type": "node",
  "id": 970379044,
  "lat": 51.5628764,
  "lon": 5.6706929
},
{
  "type": "node",
  "id": 970389702,
  "lat": 51.5641093,
  "lon": 5.6703558
},
{
  "type": "node",
  "id": 970391342,
  "lat": 51.5630705,
  "lon": 5.6707227
},
{
  "type": "node",
  "id": 970398006,
  "lat": 51.5643144,
  "lon": 5.6697579
},
{
  "type": "node",
  "id": 970407405,
  "lat": 51.5640994,
  "lon": 5.6703855
},
{
  "type": "node",
  "id": 970412030,
  "lat": 51.5625916,
  "lon": 5.6703543
},
{
  "type": "node",
  "id": 970413876,
  "lat": 51.5628182,
  "lon": 5.6706452
},
{
  "type": "node",
  "id": 970426859,
  "lat": 51.5638934,
  "lon": 5.6709879
},
{
  "type": "node",
  "id": 970429058,
  "lat": 51.5632221,
  "lon": 5.6707715
},
{
  "type": "node",
  "id": 2579567503,
  "lat": 51.5628032,
  "lon": 5.6706743
},
{
  "type": "node",
  "id": 4743463013,
  "lat": 51.5630414,
  "lon": 5.6707516
},
{
  "type": "node",
  "id": 4743463921,
  "lat": 51.5629609,
  "lon": 5.6707380
},
{
  "type": "node",
  "id": 4743615948,
  "lat": 51.5645229,
  "lon": 5.6696195
},
{
  "type": "node",
  "id": 4743615956,
  "lat": 51.5644602,
  "lon": 5.6698687
},
{
  "type": "node",
  "id": 4946571790,
  "lat": 51.5652718,
  "lon": 5.6694350
},
{
  "type": "node",
  "id": 4946571797,
  "lat": 51.5652977,
  "lon": 5.6693029
},
{
  "type": "node",
  "id": 4946571806,
  "lat": 51.5655764,
  "lon": 5.6702034
},
{
  "type": "node",
  "id": 4946571807,
  "lat": 51.5656501,
  "lon": 5.6701179
},
{
  "type": "node",
  "id": 4946571808,
  "lat": 51.5651518,
  "lon": 5.6697393
},
{
  "type": "node",
  "id": 4946580958,
  "lat": 51.5657814,
  "lon": 5.6699756
},
{
  "type": "node",
  "id": 4946580959,
  "lat": 51.5653963,
  "lon": 5.6705952
},
{
  "type": "node",
  "id": 4946580960,
  "lat": 51.5650911,
  "lon": 5.6703001
},
{
  "type": "node",
  "id": 4946580961,
  "lat": 51.5650795,
  "lon": 5.6702197
},
{
  "type": "node",
  "id": 4946580962,
  "lat": 51.5651028,
  "lon": 5.6701097
},
{
  "type": "node",
  "id": 4946580963,
  "lat": 51.5651282,
  "lon": 5.6700418
},
{
  "type": "node",
  "id": 4946580964,
  "lat": 51.5651402,
  "lon": 5.6699165
},
{
  "type": "node",
  "id": 4946580965,
  "lat": 51.5651095,
  "lon": 5.6696993
},
{
  "type": "node",
  "id": 4946580966,
  "lat": 51.5650767,
  "lon": 5.6698361
},
{
  "type": "node",
  "id": 4946580967,
  "lat": 51.5648666,
  "lon": 5.6696108
},
{
  "type": "node",
  "id": 4946580968,
  "lat": 51.5646715,
  "lon": 5.6694874
},
{
  "type": "node",
  "id": 4946580969,
  "lat": 51.5646548,
  "lon": 5.6695384
},
{
  "type": "node",
  "id": 4946580970,
  "lat": 51.5645596,
  "lon": 5.6694901
},
{
  "type": "node",
  "id": 4946580972,
  "lat": 51.5653645,
  "lon": 5.6694027
},
{
  "type": "node",
  "id": 4946580973,
  "lat": 51.5655749,
  "lon": 5.6696723
},
{
  "type": "node",
  "id": 4948405095,
  "lat": 51.5651379,
  "lon": 5.6698812
},
{
  "type": "node",
  "id": 2910495190,
  "lat": 51.7007042,
  "lon": 4.8595975
},
{
  "type": "node",
  "id": 2910495300,
  "lat": 51.7006343,
  "lon": 4.8596545
},
{
  "type": "node",
  "id": 2910495563,
  "lat": 51.7006592,
  "lon": 4.8596818
},
{
  "type": "node",
  "id": 2910495649,
  "lat": 51.7006758,
  "lon": 4.8595662
},
{
  "type": "node",
  "id": 2910495831,
  "lat": 51.7007223,
  "lon": 4.8597526
},
{
  "type": "node",
  "id": 2910495860,
  "lat": 51.7007282,
  "lon": 4.8597232
},
{
  "type": "node",
  "id": 2910495915,
  "lat": 51.7007440,
  "lon": 4.8596447
},
{
  "type": "node",
  "id": 2910496331,
  "lat": 51.7008372,
  "lon": 4.8598484
},
{
  "type": "node",
  "id": 2910496752,
  "lat": 51.7008569,
  "lon": 4.8597653
},
{
  "type": "node",
  "id": 2910511491,
  "lat": 51.6860468,
  "lon": 4.9004536
},
{
  "type": "node",
  "id": 2910511559,
  "lat": 51.6859863,
  "lon": 4.9003188
},
{
  "type": "node",
  "id": 2910512354,
  "lat": 51.6861061,
  "lon": 4.9001797
},
{
  "type": "node",
  "id": 2910512893,
  "lat": 51.6861666,
  "lon": 4.9003142
},
{
  "type": "node",
  "id": 2000569470,
  "lat": 51.7987962,
  "lon": 4.9330476
},
{
  "type": "node",
  "id": 2000569471,
  "lat": 51.7988983,
  "lon": 4.9332374
},
{
  "type": "node",
  "id": 2000569472,
  "lat": 51.7988657,
  "lon": 4.9328665
},
{
  "type": "node",
  "id": 2000569473,
  "lat": 51.7989432,
  "lon": 4.9332354
},
{
  "type": "node",
  "id": 2000569474,
  "lat": 51.7990198,
  "lon": 4.9331489
},
{
  "type": "node",
  "id": 2000569475,
  "lat": 51.7988313,
  "lon": 4.9331818
},
{
  "type": "node",
  "id": 2000569476,
  "lat": 51.7988625,
  "lon": 4.9332185
},
{
  "type": "node",
  "id": 2000569477,
  "lat": 51.7989069,
  "lon": 4.9328485
},
{
  "type": "node",
  "id": 2000569478,
  "lat": 51.7988902,
  "lon": 4.9328528
},
{
  "type": "node",
  "id": 2000569479,
  "lat": 51.7988073,
  "lon": 4.9331256
},
{
  "type": "node",
  "id": 2000569480,
  "lat": 51.7988186,
  "lon": 4.9331575
},
{
  "type": "node",
  "id": 2000569481,
  "lat": 51.7989786,
  "lon": 4.9332131
},
{
  "type": "node",
  "id": 2000569482,
  "lat": 51.7990014,
  "lon": 4.9329024
},
{
  "type": "node",
  "id": 2000569483,
  "lat": 51.7988054,
  "lon": 4.9329688
},
{
  "type": "node",
  "id": 2000569484,
  "lat": 51.7989539,
  "lon": 4.9328568
},
{
  "type": "node",
  "id": 2000569485,
  "lat": 51.7988182,
  "lon": 4.9329312
},
{
  "type": "node",
  "id": 2000569486,
  "lat": 51.7987990,
  "lon": 4.9330016
},
{
  "type": "node",
  "id": 2000569487,
  "lat": 51.7990383,
  "lon": 4.9330586
},
{
  "type": "node",
  "id": 2000569488,
  "lat": 51.7990176,
  "lon": 4.9329333
},
{
  "type": "node",
  "id": 2000569489,
  "lat": 51.7987992,
  "lon": 4.9330870
},
{
  "type": "node",
  "id": 2000569490,
  "lat": 51.7988324,
  "lon": 4.9329041
},
{
  "type": "node",
  "id": 2000569491,
  "lat": 51.7990043,
  "lon": 4.9331806
},
{
  "type": "node",
  "id": 2000569492,
  "lat": 51.7990371,
  "lon": 4.9330118
},
{
  "type": "node",
  "id": 2000569493,
  "lat": 51.7990320,
  "lon": 4.9331079
},
{
  "type": "node",
  "id": 2000569494,
  "lat": 51.7989832,
  "lon": 4.9328791
},
{
  "type": "node",
  "id": 2000612384,
  "lat": 51.7988802,
  "lon": 4.9332298
},
{
  "type": "node",
  "id": 2000612388,
  "lat": 51.7988883,
  "lon": 4.9332332
},
{
  "type": "node",
  "id": 2000614566,
  "lat": 51.7989926,
  "lon": 4.9331976
},
{
  "type": "node",
  "id": 2000614568,
  "lat": 51.7988767,
  "lon": 4.9332285
},
{
  "type": "node",
  "id": 2000614569,
  "lat": 51.7988465,
  "lon": 4.9328848
},
{
  "type": "node",
  "id": 2000614571,
  "lat": 51.7990303,
  "lon": 4.9329722
},
{
  "type": "node",
  "id": 2000614573,
  "lat": 51.7989294,
  "lon": 4.9328487
},
{
  "type": "node",
  "id": 2000614574,
  "lat": 51.7989667,
  "lon": 4.9332229
},
{
  "type": "node",
  "id": 2000614575,
  "lat": 51.7989701,
  "lon": 4.9328672
},
{
  "type": "node",
  "id": 2000614577,
  "lat": 51.7989200,
  "lon": 4.9332398
},
{
  "type": "node",
  "id": 2000614578,
  "lat": 51.7988469,
  "lon": 4.9332033
},
{
  "type": "node",
  "id": 441136393,
  "lat": 51.8163509,
  "lon": 5.0214451
},
{
  "type": "node",
  "id": 1909180910,
  "lat": 51.8163353,
  "lon": 5.0215454
},
{
  "type": "node",
  "id": 2684136924,
  "lat": 51.8162492,
  "lon": 5.0213083
},
{
  "type": "node",
  "id": 2684137621,
  "lat": 51.8163141,
  "lon": 5.0215168
},
{
  "type": "node",
  "id": 2684137822,
  "lat": 51.8163618,
  "lon": 5.0215811
},
{
  "type": "node",
  "id": 2684137825,
  "lat": 51.8163639,
  "lon": 5.0210852
},
{
  "type": "node",
  "id": 2684137857,
  "lat": 51.8163876,
  "lon": 5.0211171
},
{
  "type": "node",
  "id": 2684137871,
  "lat": 51.8164004,
  "lon": 5.0215062
},
{
  "type": "node",
  "id": 2684137883,
  "lat": 51.8164114,
  "lon": 5.0210708
},
{
  "type": "node",
  "id": 2684137899,
  "lat": 51.8164225,
  "lon": 5.0211693
},
{
  "type": "node",
  "id": 2684137925,
  "lat": 51.8164479,
  "lon": 5.0211199
},
{
  "type": "node",
  "id": 2684138117,
  "lat": 51.8165026,
  "lon": 5.0216437
},
{
  "type": "node",
  "id": 2684138196,
  "lat": 51.8165316,
  "lon": 5.0215009
},
{
  "type": "node",
  "id": 2684138469,
  "lat": 51.8165578,
  "lon": 5.0215363
},
{
  "type": "node",
  "id": 2684138542,
  "lat": 51.8165877,
  "lon": 5.0213917
},
{
  "type": "node",
  "id": 3544706938,
  "lat": 51.8164350,
  "lon": 5.0211025
},
{
  "type": "node",
  "id": 697280523,
  "lat": 51.6520136,
  "lon": 5.0495098
},
{
  "type": "node",
  "id": 2838596248,
  "lat": 51.6521354,
  "lon": 5.0496578
},
{
  "type": "node",
  "id": 2838596272,
  "lat": 51.6521769,
  "lon": 5.0496394
},
{
  "type": "node",
  "id": 2838735770,
  "lat": 51.6519935,
  "lon": 5.0497225
},
{
  "type": "node",
  "id": 2838735775,
  "lat": 51.6520209,
  "lon": 5.0498774
},
{
  "type": "node",
  "id": 2838735779,
  "lat": 51.6520477,
  "lon": 5.0496970
},
{
  "type": "node",
  "id": 2838735780,
  "lat": 51.6520531,
  "lon": 5.0498628
},
{
  "type": "node",
  "id": 2838735783,
  "lat": 51.6520610,
  "lon": 5.0499075
},
{
  "type": "node",
  "id": 2838735791,
  "lat": 51.6520915,
  "lon": 5.0494742
},
{
  "type": "node",
  "id": 2838735792,
  "lat": 51.6521024,
  "lon": 5.0495176
},
{
  "type": "node",
  "id": 2838735794,
  "lat": 51.6521092,
  "lon": 5.0495153
},
{
  "type": "node",
  "id": 7167842218,
  "lat": 51.6520520,
  "lon": 5.0494922
},
{
  "type": "node",
  "id": 2838596284,
  "lat": 51.6522119,
  "lon": 5.0498386
},
{
  "type": "node",
  "id": 710226239,
  "lat": 51.7436216,
  "lon": 5.2629231
},
{
  "type": "node",
  "id": 710250411,
  "lat": 51.7437454,
  "lon": 5.2630840
},
{
  "type": "node",
  "id": 710251015,
  "lat": 51.7437070,
  "lon": 5.2630487
},
{
  "type": "node",
  "id": 710254020,
  "lat": 51.7437561,
  "lon": 5.2629580
},
{
  "type": "node",
  "id": 710256453,
  "lat": 51.7436083,
  "lon": 5.2630806
},
{
  "type": "node",
  "id": 710266119,
  "lat": 51.7437173,
  "lon": 5.2629537
},
{
  "type": "node",
  "id": 710274278,
  "lat": 51.7437048,
  "lon": 5.2630751
},
{
  "type": "node",
  "id": 710284334,
  "lat": 51.7436944,
  "lon": 5.2629391
},
{
  "type": "node",
  "id": 710287897,
  "lat": 51.7436936,
  "lon": 5.2629485
},
{
  "type": "node",
  "id": 2780268568,
  "lat": 51.7436827,
  "lon": 5.2630969
},
{
  "type": "node",
  "id": 2780268573,
  "lat": 51.7436871,
  "lon": 5.2630443
},
{
  "type": "node",
  "id": 2780268596,
  "lat": 51.7437177,
  "lon": 5.2629495
},
{
  "type": "node",
  "id": 931985255,
  "lat": 51.7518214,
  "lon": 5.3508881
},
{
  "type": "node",
  "id": 931995543,
  "lat": 51.7517034,
  "lon": 5.3508823
},
{
  "type": "node",
  "id": 2742015010,
  "lat": 51.7511941,
  "lon": 5.3506418
},
{
  "type": "node",
  "id": 2742015011,
  "lat": 51.7511945,
  "lon": 5.3506452
},
{
  "type": "node",
  "id": 2742015013,
  "lat": 51.7511974,
  "lon": 5.3506443
},
{
  "type": "node",
  "id": 2742015015,
  "lat": 51.7512171,
  "lon": 5.3508225
},
{
  "type": "node",
  "id": 2742015035,
  "lat": 51.7513041,
  "lon": 5.3506142
},
{
  "type": "node",
  "id": 2742015036,
  "lat": 51.7513066,
  "lon": 5.3506099
},
{
  "type": "node",
  "id": 2742015037,
  "lat": 51.7513070,
  "lon": 5.3506133
},
{
  "type": "node",
  "id": 2742015041,
  "lat": 51.7513235,
  "lon": 5.3507920
},
{
  "type": "node",
  "id": 2742015090,
  "lat": 51.7516987,
  "lon": 5.3508889
},
{
  "type": "node",
  "id": 2742015091,
  "lat": 51.7517026,
  "lon": 5.3507268
},
{
  "type": "node",
  "id": 2742015092,
  "lat": 51.7517032,
  "lon": 5.3508892
},
{
  "type": "node",
  "id": 2742015096,
  "lat": 51.7517987,
  "lon": 5.3507327
},
{
  "type": "node",
  "id": 2742015097,
  "lat": 51.7517996,
  "lon": 5.3507027
},
{
  "type": "node",
  "id": 2742015098,
  "lat": 51.7518213,
  "lon": 5.3508953
},
{
  "type": "node",
  "id": 2742015100,
  "lat": 51.7518258,
  "lon": 5.3508955
},
{
  "type": "node",
  "id": 2742015101,
  "lat": 51.7518281,
  "lon": 5.3507736
},
{
  "type": "node",
  "id": 2742015102,
  "lat": 51.7518288,
  "lon": 5.3507501
},
{
  "type": "node",
  "id": 2742015103,
  "lat": 51.7518302,
  "lon": 5.3507040
},
{
  "type": "node",
  "id": 2742015104,
  "lat": 51.7518394,
  "lon": 5.3507741
},
{
  "type": "node",
  "id": 2742015105,
  "lat": 51.7518401,
  "lon": 5.3507506
},
{
  "type": "node",
  "id": 2744231319,
  "lat": 51.8901088,
  "lon": 5.0952899
},
{
  "type": "node",
  "id": 2744231329,
  "lat": 51.8901221,
  "lon": 5.0953754
},
{
  "type": "node",
  "id": 2744231332,
  "lat": 51.8901303,
  "lon": 5.0953702
},
{
  "type": "node",
  "id": 2744231339,
  "lat": 51.8901495,
  "lon": 5.0952526
},
{
  "type": "node",
  "id": 2744231342,
  "lat": 51.8901517,
  "lon": 5.0952611
},
{
  "type": "node",
  "id": 2744231347,
  "lat": 51.8901642,
  "lon": 5.0955383
},
{
  "type": "node",
  "id": 2744231352,
  "lat": 51.8901722,
  "lon": 5.0956217
},
{
  "type": "node",
  "id": 2744231363,
  "lat": 51.8901808,
  "lon": 5.0956179
},
{
  "type": "node",
  "id": 2744231372,
  "lat": 51.8901897,
  "lon": 5.0957049
},
{
  "type": "node",
  "id": 2744231396,
  "lat": 51.8902343,
  "lon": 5.0956931
},
{
  "type": "node",
  "id": 2744231404,
  "lat": 51.8902461,
  "lon": 5.0958083
},
{
  "type": "node",
  "id": 2744231411,
  "lat": 51.8902567,
  "lon": 5.0951806
},
{
  "type": "node",
  "id": 2744231517,
  "lat": 51.8903315,
  "lon": 5.0954714
},
{
  "type": "node",
  "id": 2744231518,
  "lat": 51.8903626,
  "lon": 5.0957774
},
{
  "type": "node",
  "id": 2620079721,
  "lat": 51.8299169,
  "lon": 5.2622740
},
{
  "type": "node",
  "id": 2782167890,
  "lat": 51.8299579,
  "lon": 5.2624356
},
{
  "type": "node",
  "id": 2782167893,
  "lat": 51.8299597,
  "lon": 5.2622457
},
{
  "type": "node",
  "id": 2782167908,
  "lat": 51.8300007,
  "lon": 5.2624072
},
{
  "type": "node",
  "id": 2818035150,
  "lat": 51.9110884,
  "lon": 5.3337903
},
{
  "type": "node",
  "id": 2818035177,
  "lat": 51.9111217,
  "lon": 5.3340504
},
{
  "type": "node",
  "id": 2818035197,
  "lat": 51.9111406,
  "lon": 5.3340025
},
{
  "type": "node",
  "id": 2818035376,
  "lat": 51.9110237,
  "lon": 5.3339561
},
{
  "type": "node",
  "id": 2818035378,
  "lat": 51.9110246,
  "lon": 5.3339590
},
{
  "type": "node",
  "id": 2818035380,
  "lat": 51.9110255,
  "lon": 5.3339575
},
{
  "type": "node",
  "id": 2818035392,
  "lat": 51.9110426,
  "lon": 5.3339067
},
{
  "type": "node",
  "id": 2818036301,
  "lat": 51.9111442,
  "lon": 5.3340068
},
{
  "type": "node",
  "id": 2818036343,
  "lat": 51.9111873,
  "lon": 5.3338934
},
{
  "type": "node",
  "id": 2851263163,
  "lat": 51.9705785,
  "lon": 5.3450479
},
{
  "type": "node",
  "id": 2851265098,
  "lat": 51.9705147,
  "lon": 5.3449065
},
{
  "type": "node",
  "id": 2851265106,
  "lat": 51.9705199,
  "lon": 5.3449009
},
{
  "type": "node",
  "id": 2851265131,
  "lat": 51.9705398,
  "lon": 5.3449624
},
{
  "type": "node",
  "id": 2851265133,
  "lat": 51.9705403,
  "lon": 5.3449619
},
{
  "type": "node",
  "id": 2851265153,
  "lat": 51.9705523,
  "lon": 5.3449910
},
{
  "type": "node",
  "id": 2851265156,
  "lat": 51.9705527,
  "lon": 5.3449904
},
{
  "type": "node",
  "id": 2851265164,
  "lat": 51.9706442,
  "lon": 5.3449755
},
{
  "type": "node",
  "id": 2851265165,
  "lat": 51.9706451,
  "lon": 5.3449775
},
{
  "type": "node",
  "id": 2851265175,
  "lat": 51.9706518,
  "lon": 5.3449677
},
{
  "type": "node",
  "id": 2851265178,
  "lat": 51.9706527,
  "lon": 5.3449715
},
{
  "type": "node",
  "id": 2851265182,
  "lat": 51.9706558,
  "lon": 5.3449655
},
{
  "type": "node",
  "id": 2851265183,
  "lat": 51.9706572,
  "lon": 5.3449687
},
{
  "type": "node",
  "id": 3900378126,
  "lat": 51.9706131,
  "lon": 5.3447937
},
{
  "type": "node",
  "id": 3900378127,
  "lat": 51.9706790,
  "lon": 5.3449399
},
{
  "type": "node",
  "id": 6452480482,
  "lat": 51.9706120,
  "lon": 5.3447913
},
{
  "type": "node",
  "id": 2931750744,
  "lat": 51.7653037,
  "lon": 5.5264298
},
{
  "type": "node",
  "id": 2931750760,
  "lat": 51.7653136,
  "lon": 5.5264657
},
{
  "type": "node",
  "id": 2931750761,
  "lat": 51.7653145,
  "lon": 5.5264954
},
{
  "type": "node",
  "id": 2931750779,
  "lat": 51.7653222,
  "lon": 5.5264879
},
{
  "type": "node",
  "id": 2931750939,
  "lat": 51.7652728,
  "lon": 5.5264608
},
{
  "type": "node",
  "id": 2931750959,
  "lat": 51.7652824,
  "lon": 5.5263744
},
{
  "type": "node",
  "id": 2931750965,
  "lat": 51.7652855,
  "lon": 5.5264937
},
{
  "type": "node",
  "id": 2931752148,
  "lat": 51.7653500,
  "lon": 5.5265879
},
{
  "type": "node",
  "id": 2931752164,
  "lat": 51.7653561,
  "lon": 5.5265820
},
{
  "type": "node",
  "id": 2931752415,
  "lat": 51.7653807,
  "lon": 5.5266459
},
{
  "type": "node",
  "id": 2931752468,
  "lat": 51.7654461,
  "lon": 5.5262792
},
{
  "type": "node",
  "id": 2931752480,
  "lat": 51.7654504,
  "lon": 5.5262747
},
{
  "type": "node",
  "id": 2931753253,
  "lat": 51.7654266,
  "lon": 5.5262294
},
{
  "type": "node",
  "id": 2931754209,
  "lat": 51.7654711,
  "lon": 5.5263556
},
{
  "type": "node",
  "id": 2931754222,
  "lat": 51.7654788,
  "lon": 5.5263480
},
{
  "type": "node",
  "id": 2931754720,
  "lat": 51.7654975,
  "lon": 5.5264242
},
{
  "type": "node",
  "id": 2931754724,
  "lat": 51.7655002,
  "lon": 5.5264218
},
{
  "type": "node",
  "id": 2931754757,
  "lat": 51.7655226,
  "lon": 5.5264301
},
{
  "type": "node",
  "id": 2931754778,
  "lat": 51.7655308,
  "lon": 5.5264962
},
{
  "type": "node",
  "id": 2931754786,
  "lat": 51.7655351,
  "lon": 5.5264638
},
{
  "type": "node",
  "id": 2931754841,
  "lat": 51.7655403,
  "lon": 5.5264997
},
{
  "type": "node",
  "id": 2931754853,
  "lat": 51.7655452,
  "lon": 5.5264677
}

  ]
}
