{
  "version": 0.6,
  "generator": "Overpass API 0.7.55.9 ab41fea6",
  "osm3s": {
    "timestamp_osm_base": "2020-02-14T16:14:02Z",
    "copyright": "The data included in this document is from www.openstreetmap.org. The data is made available under ODbL."
  },
  "elements": [

{
  "type": "node",
  "id": 262732396,
  "lat": 41.4465363,
  "lon": -8.2912227,
  "tags": {
    "fee": "yes",
    "name": "Museu Paço dos Duques de Bragança",
    "toilets:wheelchair": "yes",
    "tourism": "museum",
    "wheelchair": "yes"
  }
},
{
  "type": "node",
  "id": 1057863531,
  "lat": 41.6311397,
  "lon": -8.3514986,
  "tags": {
    "name": "Museu de Artes Tradicionais",
    "tourism": "museum"
  }
},
{
  "type": "node",
  "id": 1184565294,
  "lat": 41.4427565,
  "lon": -8.2964935,
  "tags": {
    "name": "Sociedade Martins Sarmento",
    "operator": "Sociedade Martins Sarmento",
    "tourism": "museum"
  }
},
{
  "type": "node",
  "id": 1207604798,
  "lat": 41.5502808,
  "lon": -8.4294229,
  "tags": {
    "name": "Museu da Imagem",
    "tourism": "museum",
    "wheelchair": "yes",
    "wikidata": "Q6002176",
    "wikipedia": "pt:Museu da Imagem"
  }
},
{
  "type": "node",
  "id": 1209186603,
  "lat": 41.5291051,
  "lon": -8.6202087,
  "tags": {
    "name": "Museu Olaria",
    "tourism": "museum",
    "wheelchair": "yes",
    "wikidata": "Q10333855"
  }
},
{
  "type": "node",
  "id": 1353036631,
  "lat": 41.5729399,
  "lon": -8.2015298,
  "tags": {
    "name": "Museu do Ouro de Travassos",
    "tourism": "museum",
    "wikidata": "Q10333911",
    "wikipedia": "pt:Museu do Ouro (Póvoa de Lanhoso)"
  }
},
{
  "type": "node",
  "id": 1353923703,
  "lat": 41.5518823,
  "lon": -8.4217980,
  "tags": {
    "name": "Nogueira da Silva",
    "operator": "Universidade do Minho",
    "tourism": "museum"
  }
},
{
  "type": "node",
  "id": 1444950860,
  "lat": 41.5484476,
  "lon": -8.4256556,
  "tags": {
    "name": "Museu Pio XII",
    "tourism": "museum",
    "wikidata": "Q7199605"
  }
},
{
  "type": "node",
  "id": 1484870875,
  "lat": 41.4426659,
  "lon": -8.2923016,
  "tags": {
    "name": "Museu Alberto Sampaio",
    "tourism": "museum"
  }
},
{
  "type": "node",
  "id": 1715024260,
  "lat": 41.6871796,
  "lon": -8.4308168,
  "tags": {
    "name": "Museu Pico de Regalados",
    "tourism": "museum"
  }
},
{
  "type": "node",
  "id": 1771419695,
  "lat": 41.4387253,
  "lon": -8.3022207,
  "tags": {
    "tourism": "museum"
  }
},
{
  "type": "node",
  "id": 1930169280,
  "lat": 41.7648221,
  "lon": -8.5870424,
  "tags": {
    "name": "Museu dos Terceiros",
    "opening_hours": "Tu-Su 10:00-12:30, 14:00-18:00",
    "tourism": "museum",
    "wikidata": "Q10333959"
  }
},
{
  "type": "node",
  "id": 1930180217,
  "lat": 41.7704416,
  "lon": -8.5892418,
  "tags": {
    "name": "Museu Rural",
    "tourism": "museum"
  }
},
{
  "type": "node",
  "id": 1988400001,
  "lat": 41.3751538,
  "lon": -8.4243790,
  "tags": {
    "name": "Fundação Castro Alves",
    "tourism": "museum"
  }
},
{
  "type": "node",
  "id": 2354200277,
  "lat": 41.2780777,
  "lon": -8.3746792,
  "tags": {
    "name": "Museu Municipal Museu do Movel",
    "tourism": "museum"
  }
},
{
  "type": "node",
  "id": 2367506012,
  "lat": 41.3805381,
  "lon": -8.7581199,
  "tags": {
    "name": "Museu Municipal de Etnografia e História da Póvoa de Varzim",
    "tourism": "museum",
    "wikidata": "Q2838227"
  }
},
{
  "type": "node",
  "id": 2511568573,
  "lat": 41.4298155,
  "lon": -8.0829870,
  "tags": {
    "name": "Núcleo Museológico dos Moinhos dos Argontins",
    "tourism": "museum"
  }
},
{
  "type": "node",
  "id": 3080540473,
  "lat": 41.4537176,
  "lon": -8.1649929,
  "tags": {
    "name": "Museu do Automóvel",
    "tourism": "museum"
  }
},
{
  "type": "node",
  "id": 3206290318,
  "lat": 41.4059617,
  "lon": -8.5185500,
  "tags": {
    "addr:city": "Vila Nova de Famalicão",
    "addr:postcode": "4760-111",
    "addr:street": "Praça Dona Maria II",
    "email": "museu@fcm.org.pt",
    "local_name": "Museu da Fundação Cupertino de Miranda",
    "operator": "Fundação Cupertino de Miranda",
    "phone": "+351 252 301650",
    "tourism": "museum",
    "website": "http://www.fcm.org.pt/",
    "wheelchair": "yes"
  }
},
{
  "type": "node",
  "id": 3569407845,
  "lat": 41.4127204,
  "lon": -8.1670891,
  "tags": {
    "name": "Museu da Educação",
    "tourism": "museum"
  }
},
{
  "type": "node",
  "id": 3833981611,
  "lat": 41.6583436,
  "lon": -8.4362457,
  "tags": {
    "name": "Casa do brinquedo e da brincadeira",
    "tourism": "museum"
  }
},
{
  "type": "node",
  "id": 3998319979,
  "lat": 41.5281812,
  "lon": -8.6218456,
  "tags": {
    "name": "Museu Arqueológico Paço dos Duques",
    "tourism": "museum"
  }
},
{
  "type": "node",
  "id": 4368165769,
  "lat": 41.5454942,
  "lon": -8.4275215,
  "tags": {
    "name": "Museu de Arqueologia Dom Diogo de Sousa",
    "tourism": "museum"
  }
},
{
  "type": "node",
  "id": 5335231301,
  "lat": 41.7005603,
  "lon": -8.0907007,
  "tags": {
    "name": "Ecomuseu Vezeira e a Serra",
    "operator": "Associação Vezeira de Fafião",
    "tourism": "museum"
  }
},
{
  "type": "node",
  "id": 5543366562,
  "lat": 41.5303727,
  "lon": -8.6176892,
  "tags": {
    "addr:city": "Barcelos",
    "addr:postcode": "4750-290",
    "addr:street": "Praceta Doutor Francisco Sá Carneiro",
    "name": "Galeria Municipal de Arte de Barcelos",
    "opening_hours": "Mo-Sa 09:00-12:30, 14:00-17:30",
    "operator": "Município de Barcelos",
    "tourism": "museum"
  }
},
{
  "type": "way",
  "id": 75700236,
  "nodes": [
    893748368,
    4128739798,
    893748348,
    893748371,
    893748349,
    893748368
  ],
  "tags": {
    "alt_name": "Alfândega Régia",
    "building": "yes",
    "name": "Museu da Construção Naval",
    "opening_hours": "Tu-Su 10:00-18:00",
    "phone": "252 248 468",
    "tourism": "museum",
    "website": "https://www.cm-viladoconde.pt/pages/502"
  }
},
{
  "type": "way",
  "id": 104691209,
  "nodes": [
    1207584970,
    4368193863,
    4368183160,
    4420655280,
    4368193850,
    4368342687,
    4368193848,
    4368193846,
    1207584997,
    1207584965,
    4368193855,
    4368193858,
    3699072776,
    2320679279,
    1723960056,
    1207584976,
    4368193870,
    4368193867,
    4368380111,
    1207584970
  ],
  "tags": {
    "name": "Museu de Arqueologia Dom Diogo de Sousa",
    "tourism": "museum"
  }
},
{
  "type": "way",
  "id": 104700796,
  "nodes": [
    1207710230,
    1207710238,
    1207710237,
    1207710234,
    1207710230
  ],
  "tags": {
    "alt_name": "Solar da Ponte",
    "name": "Museu da Cultura Castreja",
    "tourism": "museum"
  }
},
{
  "type": "way",
  "id": 118469482,
  "nodes": [
    1332464463,
    1332464417,
    1332464373,
    1332464458,
    1332464431,
    1332464260,
    1332464268,
    1332464390,
    1332464343,
    1332464463
  ],
  "tags": {
    "building": "yes",
    "name": "Museu da Indústria Têxtil",
    "tourism": "museum"
  }
},
{
  "type": "way",
  "id": 135225113,
  "nodes": [
    1485206039,
    1485206029,
    1860478257,
    2793780913,
    1860478260,
    1569371092,
    1485206037,
    1485206038,
    1569371097,
    1569371094,
    1485206039
  ],
  "tags": {
    "addr:city": "Marinhas",
    "addr:postcode": "4740-457",
    "addr:street": "Rua Conde de Madimba",
    "alt_name": "CEA",
    "building": "no",
    "email": "cea@esposendeambiente.pt",
    "loc_name": "Quinta do Paiva",
    "opening_hours": "Mo-Fr 09:30-17:30",
    "operator": "Câmara Municipal de Esposende",
    "phone": "+351 253 969 380",
    "tourism": "museum",
    "website": "http://www.esposendeambiente.pt/portal/Home/centro-de-educacao-ambiental/",
    "wheelchair": "limited"
  }
},
{
  "type": "way",
  "id": 135264094,
  "nodes": [
    1485654531,
    1485654529,
    1635070862,
    1635070872,
    1635070790,
    1635070785,
    1485654532,
    1485654530,
    1485654531
  ],
  "tags": {
    "building": "yes",
    "name": "Museu",
    "source": "Bing",
    "tourism": "museum"
  }
},
{
  "type": "way",
  "id": 154778184,
  "nodes": [
    1672595324,
    1672595321,
    1672595322,
    1672595336,
    1672595324
  ],
  "tags": {
    "building": "yes",
    "name": "Centro Marítimo de Esposende",
    "tourism": "museum"
  }
},
{
  "type": "way",
  "id": 156346518,
  "nodes": [
    1686046651,
    1686046648,
    1686046647,
    5251103010,
    1686046649,
    1686046651
  ],
  "tags": {
    "building": "yes",
    "name": "Museu Arte Sacra",
    "opening_hours": "Sa 14:00-17:00",
    "tourism": "museum"
  }
},
{
  "type": "way",
  "id": 159104086,
  "nodes": [
    1712049721,
    1712049701,
    1712049697,
    1712049699,
    1712049721
  ],
  "tags": {
    "building": "yes",
    "name": "Núcleo Museológico de São Martinho de Dume",
    "tourism": "museum"
  }
},
{
  "type": "way",
  "id": 164861991,
  "nodes": [
    1764568744,
    1764568755,
    1764568745,
    1764568738,
    1764568744
  ],
  "tags": {
    "addr:city": "Santo Tirso",
    "addr:housenumber": "100",
    "addr:postcode": "4780-373",
    "addr:street": "Avenida Unisco Godiniz",
    "building": "yes",
    "email": "mmap@cm-stirso.pt",
    "name": "Museu Municipal Abade Pedrosa",
    "operator": "Câmara Municipal de Santo Tirso",
    "phone": "+351 252 830 400",
    "tourism": "museum",
    "website": "https://www.cm-stirso.pt/pages/330"
  }
},
{
  "type": "way",
  "id": 165494080,
  "nodes": [
    1770332523,
    2568270435,
    2568270381,
    1770332519,
    2568270455,
    1770332521,
    1770332525,
    1770332523
  ],
  "tags": {
    "building": "public",
    "name": "Centro para os Assuntos da Arte e Arquitectura",
    "short_name": "CAAA",
    "source": "http://www.centroaaa.org/",
    "tourism": "museum"
  }
},
{
  "type": "way",
  "id": 166656891,
  "nodes": [
    1781029079,
    1781029111,
    1781029109,
    1781029143,
    1781029079
  ],
  "tags": {
    "building": "yes",
    "name": "Museu dos Cordofones",
    "tourism": "museum",
    "wikidata": "Q7624005"
  }
},
{
  "type": "way",
  "id": 170137014,
  "nodes": [
    1812836135,
    1812836139,
    1812836137,
    1812836142,
    3806045301,
    1812836144,
    1812836132,
    2629951303,
    1812836135
  ],
  "tags": {
    "name": "Casa de Lamas Centro Cultural",
    "tourism": "museum"
  }
},
{
  "type": "way",
  "id": 170229523,
  "nodes": [
    1813847166,
    1813847164,
    1813847165,
    1813847168,
    1813847169,
    1813847166
  ],
  "tags": {
    "name": "Museu de Balasar (Antiga escola primária)",
    "tourism": "museum"
  }
},
{
  "type": "way",
  "id": 182892704,
  "nodes": [
    1932497517,
    1724199763,
    1243853235,
    3026005189,
    1243853266,
    1243853295,
    1243853305,
    1932497519,
    1932497523,
    1932497521,
    1932497517
  ],
  "tags": {
    "alt_name": "Palácio dos Biscainhos",
    "building": "yes",
    "name": "Museu dos Biscainhos",
    "tourism": "museum",
    "wikidata": "Q4917216",
    "wikipedia": "pt:Palácio dos Biscainhos",
    "wikipedia:en": "Biscainhos Museum"
  }
},
{
  "type": "way",
  "id": 190110935,
  "nodes": [
    2007175978,
    2007175726,
    2007175790,
    2007175642,
    2007175978
  ],
  "tags": {
    "building": "yes",
    "name": "Central Hidroeléctrica de Santa Rita",
    "tourism": "museum"
  }
},
{
  "type": "way",
  "id": 210203502,
  "nodes": [
    4872513201,
    5264279005,
    2203054957,
    2203054956,
    2203054952,
    2203054955,
    4872513201
  ],
  "tags": {
    "name": "Solar dos Pinheiros",
    "tourism": "museum"
  }
},
{
  "type": "way",
  "id": 219034582,
  "nodes": [
    2076025358,
    2076025357,
    2076025366,
    2282366455,
    2282366458,
    2282366460,
    2282366462,
    2282366463,
    2076025365,
    2076021397,
    2076021395,
    2076021399,
    2076025358
  ],
  "tags": {
    "building": "yes",
    "name": "Museu Nogueira da Silva",
    "tourism": "museum",
    "wikidata": "Q7047521",
    "wikipedia": "pt:Museu Nogueira da Silva"
  }
},
{
  "type": "way",
  "id": 230257991,
  "nodes": [
    2387813683,
    2387813662,
    2387813656,
    2387813651,
    2387813674,
    2387813699,
    2387813667,
    3091548914,
    3091548912,
    3091548910,
    3091548913,
    3091548908,
    3091548899,
    2387813683
  ],
  "tags": {
    "alt_name": "Museu Etnográfico de Vilarinho das Furnas",
    "building": "yes",
    "name": "Museu Etnográfico de Vilarinho da Furna",
    "tourism": "museum"
  }
},
{
  "type": "way",
  "id": 240841132,
  "nodes": [
    2485315047,
    2485315048,
    2485315049,
    2485315050,
    2485315051,
    2485315052,
    2485315047
  ],
  "tags": {
    "building": "yes",
    "email": "arqueologia@cm-esposende.pt",
    "name": "Centro Interpretativo de São Lourenço",
    "opening_hours": "Tu-Fr 14:00-17:00",
    "operator": "Câmara Municipal de Esposende",
    "phone": "+351 253 960 100",
    "tourism": "museum",
    "website": "https://www.visitesposende.com/pt/fazer/monumentos/centro-interpretativo-de-s-lourenco",
    "wheelchair": "yes"
  }
},
{
  "type": "way",
  "id": 240850389,
  "nodes": [
    2485392647,
    2485392648,
    2485392649,
    2485392650,
    2485392647
  ],
  "tags": {
    "alt_name": "Casa das Marinhas",
    "name": "Casa Museu Viana de Lima",
    "operator": "Câmara Municipal de Esposende",
    "phone": "+351 253 960 100",
    "tourism": "museum"
  }
},
{
  "type": "way",
  "id": 244084005,
  "nodes": [
    2514349537,
    2514349544,
    2514349546,
    2514349542,
    2514349537
  ],
  "tags": {
    "building": "yes",
    "tourism": "museum"
  }
},
{
  "type": "way",
  "id": 253841619,
  "nodes": [
    2597200149,
    2597208530,
    2597200151,
    2597200154,
    2597200156,
    2597200149
  ],
  "tags": {
    "building": "yes",
    "name": "Centro Ciência Viva",
    "tourism": "museum",
    "website": "http://viladoconde.cienciaviva.pt/"
  }
},
{
  "type": "way",
  "id": 253841662,
  "nodes": [
    2597200417,
    2597200418,
    4377465305,
    2597200419,
    2597200420,
    2597200421,
    4328284754,
    4328284753,
    2597200417
  ],
  "tags": {
    "building": "yes",
    "name": "Espaço Acqua (Centro Ciência Viva)",
    "tourism": "museum"
  }
},
{
  "type": "way",
  "id": 255483376,
  "nodes": [
    2611698885,
    2611698877,
    2611698878,
    2611698858,
    2611698881,
    2611698879,
    2611698870,
    2611698889,
    2611698875,
    2611698855,
    2611698872,
    2611698887,
    2611698884,
    2611698859,
    2611698883,
    2611698865,
    2611698873,
    2611698886,
    2611698891,
    2611698856,
    2611698869,
    2611698867,
    2611698885
  ],
  "tags": {
    "amenity": "public_building",
    "building": "yes",
    "name": "Museu Alberto Sampaio",
    "tourism": "museum"
  }
},
{
  "type": "way",
  "id": 265456132,
  "nodes": [
    2711206719,
    2711206721,
    2711206723,
    2711206725,
    2711206719
  ],
  "tags": {
    "addr:city": "Fafe",
    "building": "house",
    "building:material": "stone",
    "image": "https://commons.wikimedia.org/wiki/Category:Casa_da_Pedra",
    "name": "Casa do Penedo",
    "tourism": "museum",
    "wikidata": "Q9698886",
    "wikipedia": "pt:Casa do Penedo"
  }
},
{
  "type": "way",
  "id": 265589974,
  "nodes": [
    2712296871,
    2712296877,
    6163730897,
    6163730898,
    2712296871
  ],
  "tags": {
    "addr:city": "Esposende",
    "addr:postcode": "4740-288",
    "addr:street": "Rua Rodrigues Faria",
    "building": "yes",
    "building:levels": "3",
    "name": "Museu Municipal de Esposende",
    "opening_hours": "Jun-Sep Tu-Fr 8:00-12:00,14:00-18:00; Sa-Su 14:00-18:00; Oct-May Tu-fr 8:00-12:00,14:00-17:00; Sa-Su 14:00-17:00; PH off",
    "phone": "253 960 182",
    "tourism": "museum",
    "wheelchair": "yes"
  }
},
{
  "type": "way",
  "id": 286974965,
  "nodes": [
    2906413341,
    2906413342,
    2906413343,
    2906413344,
    2906413345,
    2906413346,
    2906413347,
    2906413348,
    2906413349,
    2906413350,
    2906413351,
    2906413352,
    2906413353,
    2906413354,
    2906413341
  ],
  "tags": {
    "building": "yes",
    "name": "Antiga Serração e Núcleo Museológico dos Moinhos dos Argontins",
    "tourism": "museum"
  }
},
{
  "type": "way",
  "id": 332358294,
  "nodes": [
    3394729527,
    3394729528,
    5801392743,
    5801392742,
    5801392741,
    5801392744,
    3394729529,
    3394729530,
    5801392746,
    5801392747,
    5801392748,
    5801392749,
    3394729527
  ],
  "tags": {
    "building": "yes",
    "name": "Núcleo Arqueológico da Cividade de Terroso",
    "opening_hours": "Tu-Sa 09:00-13:00,15:00-17:00;PH off",
    "operator": "Câmara Municipal da Póvoa de Varzim",
    "tourism": "museum",
    "website": "https://www.cm-pvarzim.pt/areas-de-atividade/povoa-cultural/museu-municipal/nucleo-terroso"
  }
},
{
  "type": "way",
  "id": 384435581,
  "nodes": [
    3877255913,
    3877255914,
    3877255915,
    3877255916,
    4795435035,
    3877255922,
    3877255923,
    3877255924,
    3877255927,
    3877255932,
    3877255928,
    3877255929,
    3877255925,
    3877255926,
    3877255921,
    2110699728,
    4795435030,
    3877255906,
    3877255903,
    1822195378,
    3877255905,
    3877255904,
    3877255899,
    3877255897,
    3877255895,
    3877255894,
    3877255891,
    3877255893,
    3877255896,
    3877255900,
    3877255909,
    3877255908,
    3877255913
  ],
  "tags": {
    "museum": "railway",
    "name": "Museu Ferroviário de Lousado",
    "tourism": "museum",
    "wikipedia": "pt:Museu Ferroviário de Lousado"
  }
},
{
  "type": "way",
  "id": 384435626,
  "nodes": [
    4795435034,
    4795435033,
    3877255928,
    3877255929,
    3877255925,
    3877255926,
    3877255921,
    3877255920,
    3877255919,
    4795435034
  ],
  "tags": {
    "addr:city": "Lousado",
    "building": "yes",
    "name": "Museu Ferroviário de Lousado",
    "phone": "+351 252 153 646",
    "tourism": "museum",
    "website": "https://www.fmnf.pt/"
  }
},
{
  "type": "way",
  "id": 397000314,
  "nodes": [
    3998320060,
    3998320059,
    3998320054,
    3998320053,
    3998320056,
    3998320057,
    3998320051,
    3998320049,
    3998320050,
    3998320052,
    3998320055,
    2203026270,
    2203026234,
    2203026252,
    2203026239,
    2203026251,
    2203026266,
    2203026250,
    2203026262,
    2203026245,
    2203026281,
    3998320060
  ],
  "tags": {
    "building": "yes",
    "name": "Museu Arqueologico da Citania de Sanfins",
    "tourism": "museum",
    "url": "http://www.cm-pacosdeferreira.pt/index.php/museu-arqueologico-da-citania-de-sanfins"
  }
},
{
  "type": "way",
  "id": 412522634,
  "nodes": [
    4139311495,
    4139311496,
    4139311497,
    4139311511,
    4139311498,
    4139311510,
    4139311499,
    4139311500,
    4139311501,
    4139311502,
    4139311503,
    4139311495
  ],
  "tags": {
    "building": "yes",
    "name": "Centro de Memória",
    "tourism": "museum"
  }
},
{
  "type": "way",
  "id": 436141456,
  "nodes": [
    4340210205,
    4340210206,
    4340210207,
    4340210208,
    4340210209,
    4340210210,
    4340210205
  ],
  "tags": {
    "building": "yes",
    "name": "Núcleo Museológico do Sargaço",
    "tourism": "museum"
  }
},
{
  "type": "way",
  "id": 487019204,
  "nodes": [
    3877255915,
    4795435038,
    4795435037,
    4795435039,
    3877255913,
    3877255914,
    3877255915
  ],
  "tags": {
    "museum": "railway",
    "name": "Museu Ferroviário de Lousado",
    "tourism": "museum",
    "wikipedia": "pt:Museu Ferroviário de Lousado"
  }
},
{
  "type": "way",
  "id": 525403618,
  "nodes": [
    5111270411,
    5111270413,
    5111270420,
    5111271521,
    5801636839,
    5111270419,
    5801636829,
    5111270416,
    5111270415,
    5111270418,
    5111270411
  ],
  "tags": {
    "building": "yes",
    "email": "mmap@cm-stirso.pt",
    "fee": "no",
    "name": "Centro Interpretativo do Monte Padrão",
    "opening_hours": "Tu-Fr 09:00-17:30; Sa,Su 14:00-19:00;PH off",
    "operator": "Câmara Municipal de Santo Tirso",
    "phone": "+351 252 857 303",
    "tourism": "museum",
    "website": "https://www.cm-stirso.pt/pages/346"
  }
},
{
  "type": "way",
  "id": 537753951,
  "nodes": [
    5206613465,
    5206613464,
    5206613463,
    5206613462,
    5206613475,
    5206613468,
    5206613466,
    5206613465
  ],
  "tags": {
    "building": "yes",
    "building:levels": "3",
    "name": "Soledade Malvar",
    "tourism": "museum"
  }
},
{
  "type": "way",
  "id": 543997137,
  "nodes": [
    5258613750,
    5258613748,
    5258613749,
    5258613751,
    5258613750
  ],
  "tags": {
    "building": "yes",
    "name": "Museu A Lord",
    "operator": "A Lord",
    "tourism": "museum"
  }
},
{
  "type": "way",
  "id": 617654432,
  "nodes": [
    5838555194,
    5838555195,
    5838555196,
    5838555197,
    5838555198,
    5838555199,
    5838555200,
    5838555201,
    5838555202,
    5838555203,
    5838555204,
    5838555194
  ],
  "tags": {
    "building": "yes",
    "name": "Museu da Abadia",
    "tourism": "museum"
  }
},
{
  "type": "way",
  "id": 622109470,
  "nodes": [
    5876708635,
    5876708636,
    5876708637,
    5876708638,
    5876708639,
    5876708635
  ],
  "tags": {
    "building": "yes",
    "tourism": "museum"
  }
},
{
  "type": "way",
  "id": 641270533,
  "nodes": [
    6039594413,
    6039594414,
    6039594415,
    6039594416,
    6039594417,
    6039594418,
    6039594413
  ],
  "tags": {
    "building": "yes",
    "tourism": "museum"
  }
},
{
  "type": "way",
  "id": 681481871,
  "nodes": [
    6381929331,
    6381929332,
    6381929333,
    6381929334,
    6381929335,
    6381929336,
    6381929337,
    6381929338,
    6381929339,
    6381929340,
    6381929341,
    6381929342,
    6381929343,
    6381929344,
    6381929345,
    6381929346,
    6381929331
  ],
  "tags": {
    "building": "yes",
    "name": "museu dos terceiros",
    "tourism": "museum"
  }
},
{
  "type": "way",
  "id": 681488040,
  "nodes": [
    6381990397,
    6381990398,
    6381990399,
    6381990400,
    6381990397
  ],
  "tags": {
    "building": "yes",
    "name": "Museu do Brinquedo Português",
    "tourism": "museum",
    "website": "https://www.visitepontedelima.pt/pt/turismo/museu-do-brinquedo-portugues/",
    "wikidata": "Q10333883"
  }
},
{
  "type": "way",
  "id": 733841375,
  "nodes": [
    6872915233,
    6872915234,
    6872915235,
    6872915236,
    6872915237,
    6872915233
  ],
  "tags": {
    "addr:city": "Vila Chã (São João Baptista e Santiago)",
    "addr:postcode": "4980",
    "building": "yes",
    "email": "geral@santuariosenhoradapaz.pt",
    "fee": "no",
    "name": "Museu do Quartzo",
    "opening_hours": "Tu-Su 10:00-17:00",
    "operator": "Santuário de Nossa Senhora da Paz",
    "phone": "936 507 663",
    "tourism": "museum",
    "website": "http://www.santuariosenhoradapaz.pt",
    "wikidata": "Q61000086",
    "wikipedia": "pt:Santuário de Nossa Senhora da Paz"
  }
},
{
  "type": "relation",
  "id": 2271296,
  "members": [
    {
      "type": "way",
      "ref": 170604959,
      "role": "outer"
    }
  ],
  "tags": {
    "building": "yes",
    "name": "Mosteiro de São Martinho de Tibães",
    "tourism": "museum",
    "type": "multipolygon",
    "wikidata": "Q3267185"
  }
},
{
  "type": "relation",
  "id": 7704021,
  "members": [
    {
      "type": "way",
      "ref": 118473585,
      "role": "outer"
    },
    {
      "type": "way",
      "ref": 537807561,
      "role": "inner"
    }
  ],
  "tags": {
    "addr:city": "Vila Nova de Famalicão",
    "addr:postcode": "4764-134",
    "addr:street": "Rua Direita",
    "name": "Casa da Cultura",
    "tourism": "museum",
    "type": "multipolygon"
  }
},
{
  "type": "relation",
  "id": 10489640,
  "members": [
    {
      "type": "way",
      "ref": 185628436,
      "role": "outer"
    },
    {
      "type": "way",
      "ref": 759077412,
      "role": "outer"
    }
  ],
  "tags": {
    "addr:city": "São Miguel de Seide",
    "addr:housenumber": "758",
    "addr:postcode": "4770-631",
    "addr:street": "Avenida de São Miguel",
    "alt_name": "Casa de Camilo Castelo Branco;Casa Museu de Camilo Castelo Branco;Casa de Camilo",
    "building": "yes",
    "heritage": "2",
    "heritage:operator": "dgpc",
    "heritage:ref": "IIP",
    "heritage:website": "http://patrimoniocultural.pt/pt/patrimonio/pesquisa/geral/patrimonioimovel/detail/74430",
    "heritage:website:sipa": "http://monumentos.pt/Site/APP_PagesUser/SIPA.aspx?id=1110",
    "name": "Casa-Museu de Camilo Castelo Branco",
    "opening_hours": "Tu-Fr 10:15-17:30; Sa,Su 10:30-12:30,14:30-17:30;Mo off; PH off",
    "phone": "+351 252 327 186",
    "protection_title": "Imóvel de Interesse Público",
    "ref:dgpc": "74430",
    "ref:ipa": "1110",
    "site_status": "Classificado",
    "source:ref": "https://dre.pt/pdf1sdip/1978/09/21000/18961901.pdf",
    "tourism": "museum",
    "type": "multipolygon",
    "website": "http://www.camilocastelobranco.org",
    "wikidata": "Q9698261",
    "wikipedia": "pt:Casa de Camilo Castelo Branco"
  }
},
{
  "type": "node",
  "id": 5258613748,
  "lat": 41.2350150,
  "lon": -8.4165085
},
{
  "type": "node",
  "id": 5258613749,
  "lat": 41.2352025,
  "lon": -8.4161767
},
{
  "type": "node",
  "id": 5258613750,
  "lat": 41.2351615,
  "lon": -8.4166548
},
{
  "type": "node",
  "id": 5258613751,
  "lat": 41.2353489,
  "lon": -8.4163231
},
{
  "type": "node",
  "id": 5111270411,
  "lat": 41.3132160,
  "lon": -8.4441760
},
{
  "type": "node",
  "id": 5111270413,
  "lat": 41.3131344,
  "lon": -8.4443123
},
{
  "type": "node",
  "id": 5111270415,
  "lat": 41.3131173,
  "lon": -8.4440693
},
{
  "type": "node",
  "id": 5111270416,
  "lat": 41.3133036,
  "lon": -8.4441243
},
{
  "type": "node",
  "id": 5111270418,
  "lat": 41.3131050,
  "lon": -8.4441432
},
{
  "type": "node",
  "id": 5111270419,
  "lat": 41.3132509,
  "lon": -8.4444477
},
{
  "type": "node",
  "id": 5111270420,
  "lat": 41.3130403,
  "lon": -8.4442030
},
{
  "type": "node",
  "id": 5111271521,
  "lat": 41.3129912,
  "lon": -8.4442780
},
{
  "type": "node",
  "id": 5801636829,
  "lat": 41.3132861,
  "lon": -8.4442305
},
{
  "type": "node",
  "id": 5801636839,
  "lat": 41.3132324,
  "lon": -8.4445381
},
{
  "type": "node",
  "id": 893748348,
  "lat": 41.3499776,
  "lon": -8.7438980
},
{
  "type": "node",
  "id": 893748349,
  "lat": 41.3502509,
  "lon": -8.7438110
},
{
  "type": "node",
  "id": 893748368,
  "lat": 41.3502493,
  "lon": -8.7439061
},
{
  "type": "node",
  "id": 893748371,
  "lat": 41.3499792,
  "lon": -8.7438029
},
{
  "type": "node",
  "id": 4128739798,
  "lat": 41.3502389,
  "lon": -8.7439058
},
{
  "type": "node",
  "id": 2597200149,
  "lat": 41.3544509,
  "lon": -8.7344218
},
{
  "type": "node",
  "id": 2597200151,
  "lat": 41.3546211,
  "lon": -8.7341511
},
{
  "type": "node",
  "id": 2597200154,
  "lat": 41.3543869,
  "lon": -8.7338897
},
{
  "type": "node",
  "id": 2597200156,
  "lat": 41.3542167,
  "lon": -8.7341603
},
{
  "type": "node",
  "id": 2597200417,
  "lat": 41.3540501,
  "lon": -8.7341961
},
{
  "type": "node",
  "id": 2597200418,
  "lat": 41.3541137,
  "lon": -8.7340902
},
{
  "type": "node",
  "id": 2597200419,
  "lat": 41.3540251,
  "lon": -8.7339955
},
{
  "type": "node",
  "id": 2597200420,
  "lat": 41.3539812,
  "lon": -8.7340294
},
{
  "type": "node",
  "id": 2597200421,
  "lat": 41.3539585,
  "lon": -8.7340983
},
{
  "type": "node",
  "id": 2597208530,
  "lat": 41.3544800,
  "lon": -8.7343755
},
{
  "type": "node",
  "id": 4328284753,
  "lat": 41.3540183,
  "lon": -8.7341622
},
{
  "type": "node",
  "id": 4328284754,
  "lat": 41.3539827,
  "lon": -8.7341242
},
{
  "type": "node",
  "id": 4377465305,
  "lat": 41.3540571,
  "lon": -8.7340297
},
{
  "type": "node",
  "id": 4139311495,
  "lat": 41.3572025,
  "lon": -8.7421224
},
{
  "type": "node",
  "id": 4139311496,
  "lat": 41.3574330,
  "lon": -8.7417388
},
{
  "type": "node",
  "id": 4139311497,
  "lat": 41.3574632,
  "lon": -8.7416570
},
{
  "type": "node",
  "id": 4139311498,
  "lat": 41.3573455,
  "lon": -8.7415350
},
{
  "type": "node",
  "id": 4139311499,
  "lat": 41.3571542,
  "lon": -8.7418233
},
{
  "type": "node",
  "id": 4139311500,
  "lat": 41.3570566,
  "lon": -8.7416999
},
{
  "type": "node",
  "id": 4139311501,
  "lat": 41.3569881,
  "lon": -8.7418421
},
{
  "type": "node",
  "id": 4139311502,
  "lat": 41.3571341,
  "lon": -8.7419588
},
{
  "type": "node",
  "id": 4139311503,
  "lat": 41.3570837,
  "lon": -8.7420661
},
{
  "type": "node",
  "id": 4139311510,
  "lat": 41.3572742,
  "lon": -8.7416425
},
{
  "type": "node",
  "id": 4139311511,
  "lat": 41.3573533,
  "lon": -8.7415431
},
{
  "type": "node",
  "id": 3394729527,
  "lat": 41.4124484,
  "lon": -8.7232035
},
{
  "type": "node",
  "id": 3394729528,
  "lat": 41.4124707,
  "lon": -8.7231235
},
{
  "type": "node",
  "id": 3394729529,
  "lat": 41.4122455,
  "lon": -8.7230091
},
{
  "type": "node",
  "id": 3394729530,
  "lat": 41.4122249,
  "lon": -8.7230829
},
{
  "type": "node",
  "id": 5801392741,
  "lat": 41.4124235,
  "lon": -8.7230664
},
{
  "type": "node",
  "id": 5801392742,
  "lat": 41.4124543,
  "lon": -8.7230816
},
{
  "type": "node",
  "id": 5801392743,
  "lat": 41.4124460,
  "lon": -8.7231112
},
{
  "type": "node",
  "id": 5801392744,
  "lat": 41.4124159,
  "lon": -8.7230938
},
{
  "type": "node",
  "id": 5801392746,
  "lat": 41.4123192,
  "lon": -8.7231298
},
{
  "type": "node",
  "id": 5801392747,
  "lat": 41.4123065,
  "lon": -8.7231752
},
{
  "type": "node",
  "id": 5801392748,
  "lat": 41.4123582,
  "lon": -8.7232009
},
{
  "type": "node",
  "id": 5801392749,
  "lat": 41.4123686,
  "lon": -8.7231638
},
{
  "type": "node",
  "id": 2514349537,
  "lat": 41.4233542,
  "lon": -8.6727604
},
{
  "type": "node",
  "id": 2514349542,
  "lat": 41.4233680,
  "lon": -8.6726217
},
{
  "type": "node",
  "id": 2514349544,
  "lat": 41.4235929,
  "lon": -8.6728221
},
{
  "type": "node",
  "id": 2514349546,
  "lat": 41.4234021,
  "lon": -8.6726102
},
{
  "type": "node",
  "id": 1813847164,
  "lat": 41.4058177,
  "lon": -8.6259147
},
{
  "type": "node",
  "id": 1813847165,
  "lat": 41.4058294,
  "lon": -8.6256997
},
{
  "type": "node",
  "id": 1813847166,
  "lat": 41.4058328,
  "lon": -8.6260514
},
{
  "type": "node",
  "id": 1813847168,
  "lat": 41.4060109,
  "lon": -8.6256818
},
{
  "type": "node",
  "id": 1813847169,
  "lat": 41.4060461,
  "lon": -8.6260245
},
{
  "type": "node",
  "id": 1672595321,
  "lat": 41.5322539,
  "lon": -8.7843530
},
{
  "type": "node",
  "id": 1672595322,
  "lat": 41.5323158,
  "lon": -8.7842157
},
{
  "type": "node",
  "id": 1672595324,
  "lat": 41.5324068,
  "lon": -8.7844761
},
{
  "type": "node",
  "id": 1672595336,
  "lat": 41.5324687,
  "lon": -8.7843387
},
{
  "type": "node",
  "id": 2712296871,
  "lat": 41.5308168,
  "lon": -8.7810631
},
{
  "type": "node",
  "id": 2712296877,
  "lat": 41.5305103,
  "lon": -8.7809097
},
{
  "type": "node",
  "id": 6163730897,
  "lat": 41.5305417,
  "lon": -8.7807979
},
{
  "type": "node",
  "id": 6163730898,
  "lat": 41.5308482,
  "lon": -8.7809513
},
{
  "type": "node",
  "id": 2203054952,
  "lat": 41.5286975,
  "lon": -8.6226228
},
{
  "type": "node",
  "id": 2203054955,
  "lat": 41.5287721,
  "lon": -8.6226409
},
{
  "type": "node",
  "id": 2203054956,
  "lat": 41.5286714,
  "lon": -8.6227596
},
{
  "type": "node",
  "id": 2203054957,
  "lat": 41.5285067,
  "lon": -8.6227167
},
{
  "type": "node",
  "id": 4872513201,
  "lat": 41.5287259,
  "lon": -8.6228796
},
{
  "type": "node",
  "id": 5264279005,
  "lat": 41.5284866,
  "lon": -8.6228132
},
{
  "type": "node",
  "id": 1822195378,
  "lat": 41.3508757,
  "lon": -8.5272766
},
{
  "type": "node",
  "id": 2110699728,
  "lat": 41.3511295,
  "lon": -8.5272015
},
{
  "type": "node",
  "id": 3877255891,
  "lat": 41.3505962,
  "lon": -8.5281493
},
{
  "type": "node",
  "id": 3877255893,
  "lat": 41.3506986,
  "lon": -8.5282032
},
{
  "type": "node",
  "id": 3877255894,
  "lat": 41.3507135,
  "lon": -8.5277543
},
{
  "type": "node",
  "id": 3877255895,
  "lat": 41.3507248,
  "lon": -8.5277603
},
{
  "type": "node",
  "id": 3877255896,
  "lat": 41.3507500,
  "lon": -8.5280245
},
{
  "type": "node",
  "id": 3877255897,
  "lat": 41.3507580,
  "lon": -8.5276486
},
{
  "type": "node",
  "id": 3877255899,
  "lat": 41.3507776,
  "lon": -8.5276580
},
{
  "type": "node",
  "id": 3877255900,
  "lat": 41.3507980,
  "lon": -8.5280474
},
{
  "type": "node",
  "id": 3877255903,
  "lat": 41.3508618,
  "lon": -8.5272691
},
{
  "type": "node",
  "id": 3877255904,
  "lat": 41.3508635,
  "lon": -8.5273676
},
{
  "type": "node",
  "id": 3877255905,
  "lat": 41.3508886,
  "lon": -8.5272832
},
{
  "type": "node",
  "id": 3877255906,
  "lat": 41.3509153,
  "lon": -8.5270887
},
{
  "type": "node",
  "id": 3877255908,
  "lat": 41.3509199,
  "lon": -8.5278630
},
{
  "type": "node",
  "id": 3877255909,
  "lat": 41.3509259,
  "lon": -8.5278661
},
{
  "type": "node",
  "id": 3877255913,
  "lat": 41.3509956,
  "lon": -8.5277725
},
{
  "type": "node",
  "id": 3877255914,
  "lat": 41.3510035,
  "lon": -8.5277766
},
{
  "type": "node",
  "id": 3877255915,
  "lat": 41.3510211,
  "lon": -8.5277171
},
{
  "type": "node",
  "id": 3877255916,
  "lat": 41.3510396,
  "lon": -8.5277270
},
{
  "type": "node",
  "id": 3877255919,
  "lat": 41.3511245,
  "lon": -8.5272599
},
{
  "type": "node",
  "id": 3877255920,
  "lat": 41.3511502,
  "lon": -8.5272724
},
{
  "type": "node",
  "id": 3877255921,
  "lat": 41.3511704,
  "lon": -8.5272044
},
{
  "type": "node",
  "id": 3877255922,
  "lat": 41.3512513,
  "lon": -8.5275068
},
{
  "type": "node",
  "id": 3877255923,
  "lat": 41.3512555,
  "lon": -8.5275091
},
{
  "type": "node",
  "id": 3877255924,
  "lat": 41.3512710,
  "lon": -8.5274592
},
{
  "type": "node",
  "id": 3877255925,
  "lat": 41.3512772,
  "lon": -8.5272929
},
{
  "type": "node",
  "id": 3877255926,
  "lat": 41.3512855,
  "lon": -8.5272650
},
{
  "type": "node",
  "id": 3877255927,
  "lat": 41.3512949,
  "lon": -8.5274718
},
{
  "type": "node",
  "id": 3877255928,
  "lat": 41.3513010,
  "lon": -8.5273602
},
{
  "type": "node",
  "id": 3877255929,
  "lat": 41.3513151,
  "lon": -8.5273128
},
{
  "type": "node",
  "id": 3877255932,
  "lat": 41.3513693,
  "lon": -8.5273962
},
{
  "type": "node",
  "id": 4795435030,
  "lat": 41.3510244,
  "lon": -8.5271462
},
{
  "type": "node",
  "id": 4795435033,
  "lat": 41.3512891,
  "lon": -8.5274012
},
{
  "type": "node",
  "id": 4795435034,
  "lat": 41.3511111,
  "lon": -8.5273030
},
{
  "type": "node",
  "id": 4795435035,
  "lat": 41.3511535,
  "lon": -8.5276090
},
{
  "type": "node",
  "id": 4795435037,
  "lat": 41.3510374,
  "lon": -8.5275469
},
{
  "type": "node",
  "id": 4795435038,
  "lat": 41.3510669,
  "lon": -8.5275623
},
{
  "type": "node",
  "id": 4795435039,
  "lat": 41.3509740,
  "lon": -8.5277611
},
{
  "type": "node",
  "id": 1332464260,
  "lat": 41.4010003,
  "lon": -8.5333653
},
{
  "type": "node",
  "id": 1332464268,
  "lat": 41.4010650,
  "lon": -8.5333845
},
{
  "type": "node",
  "id": 1332464343,
  "lat": 41.4010123,
  "lon": -8.5337137
},
{
  "type": "node",
  "id": 1332464373,
  "lat": 41.4005424,
  "lon": -8.5336050
},
{
  "type": "node",
  "id": 1332464390,
  "lat": 41.4010914,
  "lon": -8.5334100
},
{
  "type": "node",
  "id": 1332464417,
  "lat": 41.4003961,
  "lon": -8.5339438
},
{
  "type": "node",
  "id": 1332464431,
  "lat": 41.4009236,
  "lon": -8.5335762
},
{
  "type": "node",
  "id": 1332464458,
  "lat": 41.4006359,
  "lon": -8.5333269
},
{
  "type": "node",
  "id": 1332464463,
  "lat": 41.4008612,
  "lon": -8.5342091
},
{
  "type": "node",
  "id": 1332506438,
  "lat": 41.4088012,
  "lon": -8.5214327
},
{
  "type": "node",
  "id": 1332506618,
  "lat": 41.4089180,
  "lon": -8.5214509
},
{
  "type": "node",
  "id": 5206608396,
  "lat": 41.4088284,
  "lon": -8.5211235
},
{
  "type": "node",
  "id": 5206613462,
  "lat": 41.4083606,
  "lon": -8.5208544
},
{
  "type": "node",
  "id": 5206613463,
  "lat": 41.4083794,
  "lon": -8.5207933
},
{
  "type": "node",
  "id": 5206613464,
  "lat": 41.4083680,
  "lon": -8.5207871
},
{
  "type": "node",
  "id": 5206613465,
  "lat": 41.4083759,
  "lon": -8.5207615
},
{
  "type": "node",
  "id": 5206613466,
  "lat": 41.4083116,
  "lon": -8.5207264
},
{
  "type": "node",
  "id": 5206613468,
  "lat": 41.4082835,
  "lon": -8.5208122
},
{
  "type": "node",
  "id": 5206613475,
  "lat": 41.4083489,
  "lon": -8.5208480
},
{
  "type": "node",
  "id": 5207050216,
  "lat": 41.4088534,
  "lon": -8.5211274
},
{
  "type": "node",
  "id": 5207050217,
  "lat": 41.4088077,
  "lon": -8.5213596
},
{
  "type": "node",
  "id": 5207051587,
  "lat": 41.4088248,
  "lon": -8.5211635
},
{
  "type": "node",
  "id": 5207051589,
  "lat": 41.4088873,
  "lon": -8.5212867
},
{
  "type": "node",
  "id": 5207051590,
  "lat": 41.4088632,
  "lon": -8.5212830
},
{
  "type": "node",
  "id": 5207051591,
  "lat": 41.4088559,
  "lon": -8.5213674
},
{
  "type": "node",
  "id": 5207051592,
  "lat": 41.4088800,
  "lon": -8.5213712
},
{
  "type": "node",
  "id": 5207051593,
  "lat": 41.4089294,
  "lon": -8.5213212
},
{
  "type": "node",
  "id": 1686046647,
  "lat": 41.4101930,
  "lon": -8.5223511
},
{
  "type": "node",
  "id": 1686046648,
  "lat": 41.4102393,
  "lon": -8.5222647
},
{
  "type": "node",
  "id": 1686046649,
  "lat": 41.4103477,
  "lon": -8.5224983
},
{
  "type": "node",
  "id": 1686046651,
  "lat": 41.4103939,
  "lon": -8.5224119
},
{
  "type": "node",
  "id": 5206608397,
  "lat": 41.4089451,
  "lon": -8.5211417
},
{
  "type": "node",
  "id": 5251103010,
  "lat": 41.4102123,
  "lon": -8.5223695
},
{
  "type": "node",
  "id": 1764568738,
  "lat": 41.3447455,
  "lon": -8.4716391
},
{
  "type": "node",
  "id": 1764568744,
  "lat": 41.3446299,
  "lon": -8.4715536
},
{
  "type": "node",
  "id": 1764568745,
  "lat": 41.3444531,
  "lon": -8.4723687
},
{
  "type": "node",
  "id": 1764568755,
  "lat": 41.3443401,
  "lon": -8.4722902
},
{
  "type": "node",
  "id": 1148563291,
  "lat": 41.3969034,
  "lon": -8.4635873
},
{
  "type": "node",
  "id": 1962748456,
  "lat": 41.3968012,
  "lon": -8.4636451
},
{
  "type": "node",
  "id": 1962748458,
  "lat": 41.3968539,
  "lon": -8.4633953
},
{
  "type": "node",
  "id": 1962748459,
  "lat": 41.3968906,
  "lon": -8.4636787
},
{
  "type": "node",
  "id": 1962748462,
  "lat": 41.3969094,
  "lon": -8.4635895
},
{
  "type": "node",
  "id": 1962748463,
  "lat": 41.3969252,
  "lon": -8.4634838
},
{
  "type": "node",
  "id": 1962748464,
  "lat": 41.3969315,
  "lon": -8.4634861
},
{
  "type": "node",
  "id": 1962748466,
  "lat": 41.3969335,
  "lon": -8.4634447
},
{
  "type": "node",
  "id": 1962748467,
  "lat": 41.3969373,
  "lon": -8.4634265
},
{
  "type": "node",
  "id": 1962748469,
  "lat": 41.3969397,
  "lon": -8.4634470
},
{
  "type": "node",
  "id": 7089959132,
  "lat": 41.3968508,
  "lon": -8.4634100
},
{
  "type": "node",
  "id": 1781029079,
  "lat": 41.4884609,
  "lon": -8.4724976
},
{
  "type": "node",
  "id": 1781029109,
  "lat": 41.4883050,
  "lon": -8.4723800
},
{
  "type": "node",
  "id": 1781029111,
  "lat": 41.4883810,
  "lon": -8.4725583
},
{
  "type": "node",
  "id": 1781029143,
  "lat": 41.4883850,
  "lon": -8.4723193
},
{
  "type": "node",
  "id": 1485654529,
  "lat": 41.2781731,
  "lon": -8.3746642
},
{
  "type": "node",
  "id": 1485654530,
  "lat": 41.2778908,
  "lon": -8.3746552
},
{
  "type": "node",
  "id": 1485654531,
  "lat": 41.2781265,
  "lon": -8.3747993
},
{
  "type": "node",
  "id": 1485654532,
  "lat": 41.2779374,
  "lon": -8.3745201
},
{
  "type": "node",
  "id": 1635070785,
  "lat": 41.2780106,
  "lon": -8.3745649
},
{
  "type": "node",
  "id": 1635070790,
  "lat": 41.2780189,
  "lon": -8.3745407
},
{
  "type": "node",
  "id": 1635070862,
  "lat": 41.2781106,
  "lon": -8.3746260
},
{
  "type": "node",
  "id": 1635070872,
  "lat": 41.2781189,
  "lon": -8.3746018
},
{
  "type": "node",
  "id": 2203026234,
  "lat": 41.3206810,
  "lon": -8.3701605
},
{
  "type": "node",
  "id": 2203026239,
  "lat": 41.3206670,
  "lon": -8.3700428
},
{
  "type": "node",
  "id": 2203026245,
  "lat": 41.3209933,
  "lon": -8.3699594
},
{
  "type": "node",
  "id": 2203026250,
  "lat": 41.3209248,
  "lon": -8.3699594
},
{
  "type": "node",
  "id": 2203026251,
  "lat": 41.3207154,
  "lon": -8.3698792
},
{
  "type": "node",
  "id": 2203026252,
  "lat": 41.3206589,
  "lon": -8.3701069
},
{
  "type": "node",
  "id": 2203026262,
  "lat": 41.3209390,
  "lon": -8.3699409
},
{
  "type": "node",
  "id": 2203026266,
  "lat": 41.3208302,
  "lon": -8.3699355
},
{
  "type": "node",
  "id": 2203026270,
  "lat": 41.3208039,
  "lon": -8.3704958
},
{
  "type": "node",
  "id": 2203026281,
  "lat": 41.3210013,
  "lon": -8.3701471
},
{
  "type": "node",
  "id": 3998320049,
  "lat": 41.3207582,
  "lon": -8.3701117
},
{
  "type": "node",
  "id": 3998320050,
  "lat": 41.3208114,
  "lon": -8.3702705
},
{
  "type": "node",
  "id": 3998320051,
  "lat": 41.3208139,
  "lon": -8.3700311
},
{
  "type": "node",
  "id": 3998320052,
  "lat": 41.3208273,
  "lon": -8.3702697
},
{
  "type": "node",
  "id": 3998320053,
  "lat": 41.3208695,
  "lon": -8.3701036
},
{
  "type": "node",
  "id": 3998320054,
  "lat": 41.3208799,
  "lon": -8.3702559
},
{
  "type": "node",
  "id": 3998320055,
  "lat": 41.3208981,
  "lon": -8.3704431
},
{
  "type": "node",
  "id": 3998320056,
  "lat": 41.3209338,
  "lon": -8.3700995
},
{
  "type": "node",
  "id": 3998320057,
  "lat": 41.3209356,
  "lon": -8.3700409
},
{
  "type": "node",
  "id": 3998320059,
  "lat": 41.3210671,
  "lon": -8.3702477
},
{
  "type": "node",
  "id": 3998320060,
  "lat": 41.3210677,
  "lon": -8.3701698
},
{
  "type": "node",
  "id": 1770332519,
  "lat": 41.4386803,
  "lon": -8.2988001
},
{
  "type": "node",
  "id": 1770332521,
  "lat": 41.4384798,
  "lon": -8.2986528
},
{
  "type": "node",
  "id": 1770332523,
  "lat": 41.4390428,
  "lon": -8.2989854
},
{
  "type": "node",
  "id": 1770332525,
  "lat": 41.4385522,
  "lon": -8.2984596
},
{
  "type": "node",
  "id": 2568270381,
  "lat": 41.4387119,
  "lon": -8.2987779
},
{
  "type": "node",
  "id": 2568270435,
  "lat": 41.4389895,
  "lon": -8.2990651
},
{
  "type": "node",
  "id": 2568270455,
  "lat": 41.4385879,
  "lon": -8.2987103
},
{
  "type": "node",
  "id": 2611698855,
  "lat": 41.4431466,
  "lon": -8.2920626
},
{
  "type": "node",
  "id": 2611698856,
  "lat": 41.4428249,
  "lon": -8.2921448
},
{
  "type": "node",
  "id": 2611698858,
  "lat": 41.4426520,
  "lon": -8.2924945
},
{
  "type": "node",
  "id": 2611698859,
  "lat": 41.4431072,
  "lon": -8.2923037
},
{
  "type": "node",
  "id": 2611698865,
  "lat": 41.4430360,
  "lon": -8.2923282
},
{
  "type": "node",
  "id": 2611698867,
  "lat": 41.4428282,
  "lon": -8.2924654
},
{
  "type": "node",
  "id": 2611698869,
  "lat": 41.4427767,
  "lon": -8.2924596
},
{
  "type": "node",
  "id": 2611698870,
  "lat": 41.4426255,
  "lon": -8.2921816
},
{
  "type": "node",
  "id": 2611698872,
  "lat": 41.4431366,
  "lon": -8.2921484
},
{
  "type": "node",
  "id": 2611698873,
  "lat": 41.4430380,
  "lon": -8.2922665
},
{
  "type": "node",
  "id": 2611698875,
  "lat": 41.4427927,
  "lon": -8.2919607
},
{
  "type": "node",
  "id": 2611698877,
  "lat": 41.4427043,
  "lon": -8.2925374
},
{
  "type": "node",
  "id": 2611698878,
  "lat": 41.4427002,
  "lon": -8.2925052
},
{
  "type": "node",
  "id": 2611698879,
  "lat": 41.4425930,
  "lon": -8.2924037
},
{
  "type": "node",
  "id": 2611698881,
  "lat": 41.4425910,
  "lon": -8.2924385
},
{
  "type": "node",
  "id": 2611698883,
  "lat": 41.4431024,
  "lon": -8.2923255
},
{
  "type": "node",
  "id": 2611698884,
  "lat": 41.4431837,
  "lon": -8.2923288
},
{
  "type": "node",
  "id": 2611698885,
  "lat": 41.4428249,
  "lon": -8.2925588
},
{
  "type": "node",
  "id": 2611698886,
  "lat": 41.4430775,
  "lon": -8.2922535
},
{
  "type": "node",
  "id": 2611698887,
  "lat": 41.4432069,
  "lon": -8.2921565
},
{
  "type": "node",
  "id": 2611698889,
  "lat": 41.4427518,
  "lon": -8.2922132
},
{
  "type": "node",
  "id": 2611698891,
  "lat": 41.4430782,
  "lon": -8.2922021
},
{
  "type": "node",
  "id": 1207710230,
  "lat": 41.5203506,
  "lon": -8.3254640
},
{
  "type": "node",
  "id": 1207710234,
  "lat": 41.5204952,
  "lon": -8.3251153
},
{
  "type": "node",
  "id": 1207710237,
  "lat": 41.5205875,
  "lon": -8.3251797
},
{
  "type": "node",
  "id": 1207710238,
  "lat": 41.5204389,
  "lon": -8.3255230
},
{
  "type": "node",
  "id": 2007175642,
  "lat": 41.4707635,
  "lon": -8.1860544
},
{
  "type": "node",
  "id": 2007175726,
  "lat": 41.4709460,
  "lon": -8.1861116
},
{
  "type": "node",
  "id": 2007175790,
  "lat": 41.4707908,
  "lon": -8.1861745
},
{
  "type": "node",
  "id": 2007175978,
  "lat": 41.4709187,
  "lon": -8.1859915
},
{
  "type": "node",
  "id": 2906413341,
  "lat": 41.4298674,
  "lon": -8.0830982
},
{
  "type": "node",
  "id": 2906413342,
  "lat": 41.4298976,
  "lon": -8.0830111
},
{
  "type": "node",
  "id": 2906413343,
  "lat": 41.4299026,
  "lon": -8.0830117
},
{
  "type": "node",
  "id": 2906413344,
  "lat": 41.4299162,
  "lon": -8.0829648
},
{
  "type": "node",
  "id": 2906413345,
  "lat": 41.4298810,
  "lon": -8.0829400
},
{
  "type": "node",
  "id": 2906413346,
  "lat": 41.4298649,
  "lon": -8.0829836
},
{
  "type": "node",
  "id": 2906413347,
  "lat": 41.4297106,
  "lon": -8.0828930
},
{
  "type": "node",
  "id": 2906413348,
  "lat": 41.4296804,
  "lon": -8.0829829
},
{
  "type": "node",
  "id": 2906413349,
  "lat": 41.4297453,
  "lon": -8.0830225
},
{
  "type": "node",
  "id": 2906413350,
  "lat": 41.4297629,
  "lon": -8.0829782
},
{
  "type": "node",
  "id": 2906413351,
  "lat": 41.4298056,
  "lon": -8.0830050
},
{
  "type": "node",
  "id": 2906413352,
  "lat": 41.4297810,
  "lon": -8.0830714
},
{
  "type": "node",
  "id": 2906413353,
  "lat": 41.4298232,
  "lon": -8.0830969
},
{
  "type": "node",
  "id": 2906413354,
  "lat": 41.4298282,
  "lon": -8.0830895
},
{
  "type": "node",
  "id": 2711206719,
  "lat": 41.4881681,
  "lon": -8.0676587
},
{
  "type": "node",
  "id": 2711206721,
  "lat": 41.4881122,
  "lon": -8.0677529
},
{
  "type": "node",
  "id": 2711206723,
  "lat": 41.4881760,
  "lon": -8.0678160
},
{
  "type": "node",
  "id": 2711206725,
  "lat": 41.4882032,
  "lon": -8.0677190
},
{
  "type": "node",
  "id": 2485392647,
  "lat": 41.5619105,
  "lon": -8.7848063
},
{
  "type": "node",
  "id": 2485392648,
  "lat": 41.5619861,
  "lon": -8.7845230
},
{
  "type": "node",
  "id": 2485392649,
  "lat": 41.5615694,
  "lon": -8.7842950
},
{
  "type": "node",
  "id": 2485392650,
  "lat": 41.5614816,
  "lon": -8.7845653
},
{
  "type": "node",
  "id": 1485206029,
  "lat": 41.5621130,
  "lon": -8.7807787
},
{
  "type": "node",
  "id": 1485206037,
  "lat": 41.5610465,
  "lon": -8.7797175
},
{
  "type": "node",
  "id": 1485206038,
  "lat": 41.5612324,
  "lon": -8.7793621
},
{
  "type": "node",
  "id": 1485206039,
  "lat": 41.5622404,
  "lon": -8.7797355
},
{
  "type": "node",
  "id": 1569371092,
  "lat": 41.5612714,
  "lon": -8.7800266
},
{
  "type": "node",
  "id": 1569371094,
  "lat": 41.5620196,
  "lon": -8.7796322
},
{
  "type": "node",
  "id": 1569371097,
  "lat": 41.5615795,
  "lon": -8.7796109
},
{
  "type": "node",
  "id": 1860478257,
  "lat": 41.5614338,
  "lon": -8.7808592
},
{
  "type": "node",
  "id": 1860478260,
  "lat": 41.5611297,
  "lon": -8.7809804
},
{
  "type": "node",
  "id": 2793780913,
  "lat": 41.5613005,
  "lon": -8.7812264
},
{
  "type": "node",
  "id": 2485315047,
  "lat": 41.5571415,
  "lon": -8.7609950
},
{
  "type": "node",
  "id": 2485315048,
  "lat": 41.5570833,
  "lon": -8.7608609
},
{
  "type": "node",
  "id": 2485315049,
  "lat": 41.5570391,
  "lon": -8.7608984
},
{
  "type": "node",
  "id": 2485315050,
  "lat": 41.5570491,
  "lon": -8.7609279
},
{
  "type": "node",
  "id": 2485315051,
  "lat": 41.5569287,
  "lon": -8.7610325
},
{
  "type": "node",
  "id": 2485315052,
  "lat": 41.5569769,
  "lon": -8.7611318
},
{
  "type": "node",
  "id": 4340210205,
  "lat": 41.6239071,
  "lon": -8.7951042
},
{
  "type": "node",
  "id": 4340210210,
  "lat": 41.6240468,
  "lon": -8.7949966
},
{
  "type": "node",
  "id": 4340210206,
  "lat": 41.6237895,
  "lon": -8.7948258
},
{
  "type": "node",
  "id": 4340210207,
  "lat": 41.6238701,
  "lon": -8.7947684
},
{
  "type": "node",
  "id": 4340210208,
  "lat": 41.6239035,
  "lon": -8.7948484
},
{
  "type": "node",
  "id": 4340210209,
  "lat": 41.6239426,
  "lon": -8.7948200
},
{
  "type": "node",
  "id": 1817730512,
  "lat": 41.5556805,
  "lon": -8.4790491
},
{
  "type": "node",
  "id": 1817730513,
  "lat": 41.5550594,
  "lon": -8.4787871
},
{
  "type": "node",
  "id": 1817730514,
  "lat": 41.5556377,
  "lon": -8.4788421
},
{
  "type": "node",
  "id": 1817730515,
  "lat": 41.5556370,
  "lon": -8.4789042
},
{
  "type": "node",
  "id": 1817730516,
  "lat": 41.5551637,
  "lon": -8.4792950
},
{
  "type": "node",
  "id": 1817730517,
  "lat": 41.5549721,
  "lon": -8.4793514
},
{
  "type": "node",
  "id": 1817730526,
  "lat": 41.5556770,
  "lon": -8.4792971
},
{
  "type": "node",
  "id": 1817730528,
  "lat": 41.5550138,
  "lon": -8.4793463
},
{
  "type": "node",
  "id": 1817730541,
  "lat": 41.5556703,
  "lon": -8.4788427
},
{
  "type": "node",
  "id": 1817730543,
  "lat": 41.5549777,
  "lon": -8.4794721
},
{
  "type": "node",
  "id": 1817730544,
  "lat": 41.5556701,
  "lon": -8.4788639
},
{
  "type": "node",
  "id": 1817730545,
  "lat": 41.5550153,
  "lon": -8.4787863
},
{
  "type": "node",
  "id": 1817730547,
  "lat": 41.5555108,
  "lon": -8.4781805
},
{
  "type": "node",
  "id": 1817730552,
  "lat": 41.5555436,
  "lon": -8.4786544
},
{
  "type": "node",
  "id": 1817730568,
  "lat": 41.5557991,
  "lon": -8.4787211
},
{
  "type": "node",
  "id": 1817730570,
  "lat": 41.5554551,
  "lon": -8.4782081
},
{
  "type": "node",
  "id": 1817730571,
  "lat": 41.5558168,
  "lon": -8.4781862
},
{
  "type": "node",
  "id": 1817730573,
  "lat": 41.5555105,
  "lon": -8.4782092
},
{
  "type": "node",
  "id": 1817730574,
  "lat": 41.5556824,
  "lon": -8.4788641
},
{
  "type": "node",
  "id": 1817730575,
  "lat": 41.5557866,
  "lon": -8.4794643
},
{
  "type": "node",
  "id": 1817730576,
  "lat": 41.5555467,
  "lon": -8.4783571
},
{
  "type": "node",
  "id": 1817730581,
  "lat": 41.5556840,
  "lon": -8.4787189
},
{
  "type": "node",
  "id": 1937769587,
  "lat": 41.5550602,
  "lon": -8.4787073
},
{
  "type": "node",
  "id": 1937769592,
  "lat": 41.5551608,
  "lon": -8.4790394
},
{
  "type": "node",
  "id": 1937769593,
  "lat": 41.5551642,
  "lon": -8.4787092
},
{
  "type": "node",
  "id": 1937769612,
  "lat": 41.5554498,
  "lon": -8.4787133
},
{
  "type": "node",
  "id": 1937769613,
  "lat": 41.5554521,
  "lon": -8.4790448
},
{
  "type": "node",
  "id": 1937769614,
  "lat": 41.5554536,
  "lon": -8.4789007
},
{
  "type": "node",
  "id": 1937769616,
  "lat": 41.5554548,
  "lon": -8.4782409
},
{
  "type": "node",
  "id": 1937769618,
  "lat": 41.5555045,
  "lon": -8.4789017
},
{
  "type": "node",
  "id": 1937769620,
  "lat": 41.5555064,
  "lon": -8.4787142
},
{
  "type": "node",
  "id": 1937769625,
  "lat": 41.5557596,
  "lon": -8.4787203
},
{
  "type": "node",
  "id": 1937769627,
  "lat": 41.5557602,
  "lon": -8.4786584
},
{
  "type": "node",
  "id": 1937769628,
  "lat": 41.5557633,
  "lon": -8.4783611
},
{
  "type": "node",
  "id": 1937769631,
  "lat": 41.5558149,
  "lon": -8.4783621
},
{
  "type": "node",
  "id": 1937769632,
  "lat": 41.5558166,
  "lon": -8.4782000
},
{
  "type": "node",
  "id": 1207584970,
  "lat": 41.5464162,
  "lon": -8.4279514
},
{
  "type": "node",
  "id": 1243853235,
  "lat": 41.5511299,
  "lon": -8.4294089
},
{
  "type": "node",
  "id": 1243853266,
  "lat": 41.5513581,
  "lon": -8.4295659
},
{
  "type": "node",
  "id": 1243853295,
  "lat": 41.5513002,
  "lon": -8.4297368
},
{
  "type": "node",
  "id": 1243853305,
  "lat": 41.5513303,
  "lon": -8.4297526
},
{
  "type": "node",
  "id": 1724199763,
  "lat": 41.5510737,
  "lon": -8.4294944
},
{
  "type": "node",
  "id": 1932497517,
  "lat": 41.5509900,
  "lon": -8.4297077
},
{
  "type": "node",
  "id": 1932497519,
  "lat": 41.5512095,
  "lon": -8.4301144
},
{
  "type": "node",
  "id": 1932497521,
  "lat": 41.5512249,
  "lon": -8.4298552
},
{
  "type": "node",
  "id": 1932497523,
  "lat": 41.5511466,
  "lon": -8.4300752
},
{
  "type": "node",
  "id": 3026005189,
  "lat": 41.5512369,
  "lon": -8.4294796
},
{
  "type": "node",
  "id": 1207584965,
  "lat": 41.5455845,
  "lon": -8.4266556
},
{
  "type": "node",
  "id": 1207584997,
  "lat": 41.5453756,
  "lon": -8.4274453
},
{
  "type": "node",
  "id": 2320679279,
  "lat": 41.5458960,
  "lon": -8.4262696
},
{
  "type": "node",
  "id": 3699072776,
  "lat": 41.5458214,
  "lon": -8.4263656
},
{
  "type": "node",
  "id": 4368183160,
  "lat": 41.5459752,
  "lon": -8.4277356
},
{
  "type": "node",
  "id": 4368193846,
  "lat": 41.5454344,
  "lon": -8.4274738
},
{
  "type": "node",
  "id": 4368193848,
  "lat": 41.5454753,
  "lon": -8.4274936
},
{
  "type": "node",
  "id": 4368193850,
  "lat": 41.5455252,
  "lon": -8.4275175
},
{
  "type": "node",
  "id": 4368193855,
  "lat": 41.5456707,
  "lon": -8.4265507
},
{
  "type": "node",
  "id": 4368193858,
  "lat": 41.5456831,
  "lon": -8.4265349
},
{
  "type": "node",
  "id": 4368193863,
  "lat": 41.5460936,
  "lon": -8.4277945
},
{
  "type": "node",
  "id": 4368193867,
  "lat": 41.5465386,
  "lon": -8.4275107
},
{
  "type": "node",
  "id": 4368342687,
  "lat": 41.5454976,
  "lon": -8.4275044
},
{
  "type": "node",
  "id": 4368380111,
  "lat": 41.5465187,
  "lon": -8.4275824
},
{
  "type": "node",
  "id": 4420655280,
  "lat": 41.5455941,
  "lon": -8.4275515
},
{
  "type": "node",
  "id": 1207584976,
  "lat": 41.5467558,
  "lon": -8.4267291
},
{
  "type": "node",
  "id": 1723960056,
  "lat": 41.5465758,
  "lon": -8.4264071
},
{
  "type": "node",
  "id": 2076021395,
  "lat": 41.5528616,
  "lon": -8.4220988
},
{
  "type": "node",
  "id": 2076021397,
  "lat": 41.5528611,
  "lon": -8.4222105
},
{
  "type": "node",
  "id": 2076021399,
  "lat": 41.5518687,
  "lon": -8.4219357
},
{
  "type": "node",
  "id": 2076025357,
  "lat": 41.5522339,
  "lon": -8.4217040
},
{
  "type": "node",
  "id": 2076025358,
  "lat": 41.5518748,
  "lon": -8.4216840
},
{
  "type": "node",
  "id": 2076025366,
  "lat": 41.5522374,
  "lon": -8.4216428
},
{
  "type": "node",
  "id": 4368193870,
  "lat": 41.5467174,
  "lon": -8.4268673
},
{
  "type": "node",
  "id": 2076025365,
  "lat": 41.5532643,
  "lon": -8.4221587
},
{
  "type": "node",
  "id": 2282366455,
  "lat": 41.5531643,
  "lon": -8.4216328
},
{
  "type": "node",
  "id": 2282366458,
  "lat": 41.5531883,
  "lon": -8.4217714
},
{
  "type": "node",
  "id": 2282366460,
  "lat": 41.5531926,
  "lon": -8.4219025
},
{
  "type": "node",
  "id": 2282366462,
  "lat": 41.5532473,
  "lon": -8.4218978
},
{
  "type": "node",
  "id": 2282366463,
  "lat": 41.5532584,
  "lon": -8.4220174
},
{
  "type": "node",
  "id": 1712049697,
  "lat": 41.5670401,
  "lon": -8.4356696
},
{
  "type": "node",
  "id": 1712049699,
  "lat": 41.5670441,
  "lon": -8.4357659
},
{
  "type": "node",
  "id": 1712049701,
  "lat": 41.5673571,
  "lon": -8.4356461
},
{
  "type": "node",
  "id": 1712049721,
  "lat": 41.5673611,
  "lon": -8.4357424
},
{
  "type": "node",
  "id": 6381929331,
  "lat": 41.7646289,
  "lon": -8.5867384
},
{
  "type": "node",
  "id": 6381929332,
  "lat": 41.7647054,
  "lon": -8.5866795
},
{
  "type": "node",
  "id": 6381929333,
  "lat": 41.7646940,
  "lon": -8.5866528
},
{
  "type": "node",
  "id": 6381929334,
  "lat": 41.7647385,
  "lon": -8.5866185
},
{
  "type": "node",
  "id": 6381929335,
  "lat": 41.7648361,
  "lon": -8.5868464
},
{
  "type": "node",
  "id": 6381929336,
  "lat": 41.7648822,
  "lon": -8.5868110
},
{
  "type": "node",
  "id": 6381929337,
  "lat": 41.7649444,
  "lon": -8.5869565
},
{
  "type": "node",
  "id": 6381929338,
  "lat": 41.7650557,
  "lon": -8.5868708
},
{
  "type": "node",
  "id": 6381929339,
  "lat": 41.7650918,
  "lon": -8.5869087
},
{
  "type": "node",
  "id": 6381929340,
  "lat": 41.7652098,
  "lon": -8.5868177
},
{
  "type": "node",
  "id": 6381929341,
  "lat": 41.7652574,
  "lon": -8.5869286
},
{
  "type": "node",
  "id": 6381929342,
  "lat": 41.7652130,
  "lon": -8.5869628
},
{
  "type": "node",
  "id": 6381929343,
  "lat": 41.7652271,
  "lon": -8.5869955
},
{
  "type": "node",
  "id": 6381929344,
  "lat": 41.7650211,
  "lon": -8.5871544
},
{
  "type": "node",
  "id": 6381929345,
  "lat": 41.7649730,
  "lon": -8.5870422
},
{
  "type": "node",
  "id": 6381929346,
  "lat": 41.7648124,
  "lon": -8.5871660
},
{
  "type": "node",
  "id": 6381990397,
  "lat": 41.7697149,
  "lon": -8.5888106
},
{
  "type": "node",
  "id": 6381990398,
  "lat": 41.7698374,
  "lon": -8.5887330
},
{
  "type": "node",
  "id": 6381990399,
  "lat": 41.7698954,
  "lon": -8.5889422
},
{
  "type": "node",
  "id": 6381990400,
  "lat": 41.7697703,
  "lon": -8.5890086
},
{
  "type": "node",
  "id": 5838555194,
  "lat": 41.6750256,
  "lon": -8.2580083
},
{
  "type": "node",
  "id": 5838555195,
  "lat": 41.6749543,
  "lon": -8.2580021
},
{
  "type": "node",
  "id": 5838555196,
  "lat": 41.6749520,
  "lon": -8.2579174
},
{
  "type": "node",
  "id": 5838555197,
  "lat": 41.6748599,
  "lon": -8.2579220
},
{
  "type": "node",
  "id": 5838555198,
  "lat": 41.6748530,
  "lon": -8.2580853
},
{
  "type": "node",
  "id": 5838555199,
  "lat": 41.6748841,
  "lon": -8.2580930
},
{
  "type": "node",
  "id": 5838555200,
  "lat": 41.6748772,
  "lon": -8.2582655
},
{
  "type": "node",
  "id": 5838555201,
  "lat": 41.6747264,
  "lon": -8.2588632
},
{
  "type": "node",
  "id": 5838555202,
  "lat": 41.6748484,
  "lon": -8.2589218
},
{
  "type": "node",
  "id": 5838555203,
  "lat": 41.6749980,
  "lon": -8.2583194
},
{
  "type": "node",
  "id": 5838555204,
  "lat": 41.6750130,
  "lon": -8.2583194
},
{
  "type": "node",
  "id": 1812836132,
  "lat": 41.6327543,
  "lon": -8.1411038
},
{
  "type": "node",
  "id": 1812836135,
  "lat": 41.6326230,
  "lon": -8.1401937
},
{
  "type": "node",
  "id": 1812836137,
  "lat": 41.6323230,
  "lon": -8.1408909
},
{
  "type": "node",
  "id": 1812836139,
  "lat": 41.6323550,
  "lon": -8.1402937
},
{
  "type": "node",
  "id": 1812836142,
  "lat": 41.6322482,
  "lon": -8.1414709
},
{
  "type": "node",
  "id": 1812836144,
  "lat": 41.6326401,
  "lon": -8.1412852
},
{
  "type": "node",
  "id": 2629951303,
  "lat": 41.6327095,
  "lon": -8.1409837
},
{
  "type": "node",
  "id": 3806045301,
  "lat": 41.6325856,
  "lon": -8.1415966
},
{
  "type": "node",
  "id": 6872915233,
  "lat": 41.7976451,
  "lon": -8.3441648
},
{
  "type": "node",
  "id": 6872915234,
  "lat": 41.7975486,
  "lon": -8.3440798
},
{
  "type": "node",
  "id": 6872915235,
  "lat": 41.7975961,
  "lon": -8.3439561
},
{
  "type": "node",
  "id": 6872915236,
  "lat": 41.7976537,
  "lon": -8.3439600
},
{
  "type": "node",
  "id": 6872915237,
  "lat": 41.7976868,
  "lon": -8.3440063
},
{
  "type": "node",
  "id": 6039594413,
  "lat": 41.8164042,
  "lon": -8.3054853
},
{
  "type": "node",
  "id": 6039594414,
  "lat": 41.8164130,
  "lon": -8.3053845
},
{
  "type": "node",
  "id": 6039594415,
  "lat": 41.8162801,
  "lon": -8.3053635
},
{
  "type": "node",
  "id": 6039594416,
  "lat": 41.8162694,
  "lon": -8.3054863
},
{
  "type": "node",
  "id": 6039594417,
  "lat": 41.8163091,
  "lon": -8.3054926
},
{
  "type": "node",
  "id": 6039594418,
  "lat": 41.8163157,
  "lon": -8.3054713
},
{
  "type": "node",
  "id": 2387813651,
  "lat": 41.7504067,
  "lon": -8.1971731
},
{
  "type": "node",
  "id": 2387813656,
  "lat": 41.7502983,
  "lon": -8.1970297
},
{
  "type": "node",
  "id": 2387813662,
  "lat": 41.7503037,
  "lon": -8.1970224
},
{
  "type": "node",
  "id": 2387813667,
  "lat": 41.7505325,
  "lon": -8.1971031
},
{
  "type": "node",
  "id": 2387813674,
  "lat": 41.7504233,
  "lon": -8.1971505
},
{
  "type": "node",
  "id": 2387813683,
  "lat": 41.7503414,
  "lon": -8.1969712
},
{
  "type": "node",
  "id": 2387813699,
  "lat": 41.7504471,
  "lon": -8.1971917
},
{
  "type": "node",
  "id": 3091548899,
  "lat": 41.7502814,
  "lon": -8.1967817
},
{
  "type": "node",
  "id": 3091548908,
  "lat": 41.7503815,
  "lon": -8.1967248
},
{
  "type": "node",
  "id": 3091548910,
  "lat": 41.7503899,
  "lon": -8.1969053
},
{
  "type": "node",
  "id": 3091548912,
  "lat": 41.7504085,
  "lon": -8.1969375
},
{
  "type": "node",
  "id": 3091548913,
  "lat": 41.7504240,
  "lon": -8.1968590
},
{
  "type": "node",
  "id": 3091548914,
  "lat": 41.7504263,
  "lon": -8.1969190
},
{
  "type": "node",
  "id": 5876708635,
  "lat": 41.8197008,
  "lon": -8.2586157
},
{
  "type": "node",
  "id": 5876708636,
  "lat": 41.8196158,
  "lon": -8.2584770
},
{
  "type": "node",
  "id": 5876708637,
  "lat": 41.8195814,
  "lon": -8.2585171
},
{
  "type": "node",
  "id": 5876708638,
  "lat": 41.8195665,
  "lon": -8.2585941
},
{
  "type": "node",
  "id": 5876708639,
  "lat": 41.8196216,
  "lon": -8.2586942
},
{
  "type": "way",
  "id": 118473585,
  "nodes": [
    1332506618,
    1332506438,
    5207050217,
    5207051587,
    5206608396,
    5207050216,
    5206608397,
    5207051593,
    1332506618
  ]
},
{
  "type": "way",
  "id": 537807561,
  "nodes": [
    5207051592,
    5207051591,
    5207051590,
    5207051589,
    5207051592
  ]
},
{
  "type": "way",
  "id": 185628436,
  "nodes": [
    1962748459,
    1962748462,
    1148563291,
    1962748463,
    1962748464,
    1962748469,
    1962748466,
    1962748467,
    1962748458,
    7089959132
  ]
},
{
  "type": "way",
  "id": 759077412,
  "nodes": [
    7089959132,
    1962748456,
    1962748459
  ]
},
{
  "type": "way",
  "id": 170604959,
  "nodes": [
    1817730581,
    1817730574,
    1817730544,
    1817730541,
    1817730514,
    1817730515,
    1937769618,
    1937769614,
    1937769613,
    1817730512,
    1817730526,
    1817730516,
    1937769592,
    1937769593,
    1937769587,
    1817730513,
    1817730545,
    1817730528,
    1817730517,
    1817730543,
    1817730575,
    1817730568,
    1937769625,
    1937769627,
    1817730552,
    1817730576,
    1937769628,
    1937769631,
    1937769632,
    1817730571,
    1817730547,
    1817730573,
    1817730570,
    1937769616,
    1937769612,
    1937769620,
    1817730581
  ]
}

  ]
}
