{
  "version": 0.6,
  "generator": "Overpass API 0.7.55.9 ab41fea6",
  "osm3s": {
    "timestamp_osm_base": "2020-02-14T16:10:02Z",
    "copyright": "The data included in this document is from www.openstreetmap.org. The data is made available under ODbL."
  },
  "elements": [

{
  "type": "node",
  "id": 1623977894,
  "lat": 41.2651769,
  "lon": -8.6132174,
  "tags": {
    "name": "Museu Etnográfico da Maia",
    "tourism": "museum",
    "wheelchair": "yes"
  }
},
{
  "type": "node",
  "id": 1645567842,
  "lat": 40.9999544,
  "lon": -8.6440152,
  "tags": {
    "name": "Museu Municipal de Espinho",
    "tourism": "museum",
    "wheelchair": "yes"
  }
},
{
  "type": "node",
  "id": 1652873556,
  "lat": 41.1595866,
  "lon": -8.6249723,
  "tags": {
    "addr:city": "Porto",
    "addr:housenumber": "291",
    "addr:postcode": "4050-428",
    "addr:street": "Rua de Nossa Senhora de Fátima",
    "name": "Casa-Museu Marta Ortigão Sampaio",
    "opening_hours": "Tu-Su 10:00-17:30; PH off",
    "phone": "+351 226 066 568",
    "source": "Câmara Municipal do Porto",
    "tourism": "museum",
    "website": "http://www.cm-porto.pt/cultura/museus-e-arquivos/casa-museu-marta-ortigao-sampaio",
    "wikidata": "Q9698020",
    "wikipedia": "pt:Casa-Museu Marta Ortigão Sampaio"
  }
},
{
  "type": "node",
  "id": 1988400001,
  "lat": 41.3751538,
  "lon": -8.4243790,
  "tags": {
    "name": "Fundação Castro Alves",
    "tourism": "museum"
  }
},
{
  "type": "node",
  "id": 2095707930,
  "lat": 40.9306431,
  "lon": -8.5719512,
  "tags": {
    "name": "Visionarium",
    "remark": "seems out of work",
    "tourism": "museum"
  }
},
{
  "type": "node",
  "id": 2206214891,
  "lat": 41.1422336,
  "lon": -8.6125743,
  "tags": {
    "addr:city": "Porto",
    "addr:postcode": "4050-208",
    "addr:street": "Largo do Colégio",
    "alt_name": "Museu Diocesano de Arte Sacra; Museu de Arte Sacra e Arqueologia do Seminário Maior do Porto",
    "contact:facebook": "www.facebook.com/masa.smp.pt/",
    "fee": "yes",
    "fee:amount": "2€",
    "name": "Museu de Arte Sacra e Arqueologia",
    "opening_hours": "Tu-Sa 10:00-13:00,14:00-18:00; PH off",
    "phone": "+351 223 395 020",
    "short_name": "MASA",
    "tourism": "museum"
  }
},
{
  "type": "node",
  "id": 2208055757,
  "lat": 41.1427507,
  "lon": -8.6148998,
  "tags": {
    "name": "Palácio das Artes",
    "tourism": "museum"
  }
},
{
  "type": "node",
  "id": 2354200277,
  "lat": 41.2780777,
  "lon": -8.3746792,
  "tags": {
    "name": "Museu Municipal Museu do Movel",
    "tourism": "museum"
  }
},
{
  "type": "node",
  "id": 2367506012,
  "lat": 41.3805381,
  "lon": -8.7581199,
  "tags": {
    "name": "Museu Municipal de Etnografia e História da Póvoa de Varzim",
    "tourism": "museum",
    "wikidata": "Q2838227"
  }
},
{
  "type": "node",
  "id": 2478836067,
  "lat": 41.1412644,
  "lon": -8.6157636,
  "tags": {
    "addr:postcode": "4050-253",
    "addr:street": "Rua Ferreira Borges",
    "contact:email": "correio@cciporto.pt",
    "contact:fax": "+351 223 399090",
    "contact:phone": "+351 223 399000",
    "contact:website": "www.palaciodabolsa.com",
    "fee": "yes",
    "fee:amount": "10€;student, senior: 6.5€;<12years old: free",
    "image": "https://upload.wikimedia.org/wikipedia/commons/1/13/Palacio_da_Bolsa%2C_Porto.jpg",
    "name": "Palácio da Bolsa",
    "name:de": "Bolsapalast",
    "name:ko": "볼사 궁전",
    "name:tr": "MÜZE",
    "name:zh": "證券交易所宮",
    "opening_hours": "Nov-Mar: Mo-Su 09:00-12:30,14:00-17:30; Apr-Oct: Mo-Su 09:00-18:30; Dec 25 off; Jan 1 off",
    "tourism": "museum",
    "wheelchair": "yes",
    "wikidata": "Q1371109",
    "wikipedia": "pt:Palácio da Bolsa"
  }
},
{
  "type": "node",
  "id": 2729914235,
  "lat": 41.1468173,
  "lon": -8.6156200,
  "tags": {
    "name": "Museus da Universidade",
    "tourism": "museum",
    "wheelchair": "yes"
  }
},
{
  "type": "node",
  "id": 2892472764,
  "lat": 41.1489939,
  "lon": -8.6155473,
  "tags": {
    "addr:city": "Porto",
    "addr:housename": "Palácio dos Viscondes de Balsemão",
    "addr:housenumber": "71",
    "addr:postcode": "4050-157",
    "addr:street": "Praça de Carlos Alberto",
    "alt_name": "Gabinete de Numismática",
    "name": "Museu Municipal de Numismática",
    "opening_hours": "Tu-Su 10:00-17:30; PH off",
    "phone": "+351 223 393 480",
    "tourism": "museum",
    "website": "http://www.cm-porto.pt/cultura/museus-e-arquivos/gabinete-de-numismatica_3"
  }
},
{
  "type": "node",
  "id": 3145554676,
  "lat": 41.1606633,
  "lon": -8.5827934,
  "tags": {
    "addr:city": "Porto",
    "addr:housename": "Estádio do Dragão",
    "addr:postcode": "4350-415",
    "addr:street": "Via Futebol Clube do Porto",
    "email": "museu@fcporto.pt",
    "int_name": "FC Porto Museum",
    "museum": "sports",
    "name": "Museu Futebol Clube do Porto",
    "name:de": "FC Porto Museum",
    "name:en": "FC Porto Museum",
    "name:ko": "FC 포르투 박물관",
    "name:ru": "Музей футбольного клуба Порту",
    "note": "was 'highway:VCI Porto' ?!",
    "old_name": "Museu FC Porto by BMG",
    "opening_hours": "Mo 14:30-19:00; Tu-Su 10:00-19:00",
    "phone": "+351 225 570 418",
    "shop": "FC Porto Store",
    "source": "http://www.fcporto.pt/pt/clube/museu-fc-porto/Pages/museu-fc-porto.aspx",
    "tourism": "museum",
    "website": "http://www.museufcporto.pt",
    "wikidata": "Q15411526",
    "wikipedia": "pt:Museu do FC Porto by BMG"
  }
},
{
  "type": "node",
  "id": 3206290318,
  "lat": 41.4059617,
  "lon": -8.5185500,
  "tags": {
    "addr:city": "Vila Nova de Famalicão",
    "addr:postcode": "4760-111",
    "addr:street": "Praça Dona Maria II",
    "email": "museu@fcm.org.pt",
    "local_name": "Museu da Fundação Cupertino de Miranda",
    "operator": "Fundação Cupertino de Miranda",
    "phone": "+351 252 301650",
    "tourism": "museum",
    "website": "http://www.fcm.org.pt/",
    "wheelchair": "yes"
  }
},
{
  "type": "node",
  "id": 3396197687,
  "lat": 41.1618890,
  "lon": -8.6402780,
  "tags": {
    "name": "Casa-Museu Engenheiro António de Almeida",
    "operator": "Fundação Engenheiro António de Almeida",
    "tourism": "museum"
  }
},
{
  "type": "node",
  "id": 3444946666,
  "lat": 40.9235949,
  "lon": -8.5416227,
  "tags": {
    "addr:city": "Santa Maria da Feira",
    "addr:postcode": "4520-000",
    "addr:street": "Alameda Doutor Roberto Vaz Oliveira",
    "name": "Museu Municipal Convento de Loios",
    "tourism": "museum"
  }
},
{
  "type": "node",
  "id": 4228667597,
  "lat": 41.1596025,
  "lon": -8.6563063,
  "tags": {
    "addr:housenumber": "1052",
    "addr:street": "Rua de Serralves",
    "name": "Fundaçao de Serralves",
    "name:en": "Serralves Villa",
    "name:pt": "Casa de Serralves",
    "opening_hours": "Mo-Sa 10:00-19:00",
    "tourism": "museum",
    "wheelchair": "yes"
  }
},
{
  "type": "node",
  "id": 4364657904,
  "lat": 41.2067120,
  "lon": -8.2826941,
  "tags": {
    "name": "Museu de Penafiel",
    "tourism": "museum"
  }
},
{
  "type": "node",
  "id": 4458159321,
  "lat": 41.1644955,
  "lon": -8.6735090,
  "tags": {
    "name": "Museu do Papel Moeda",
    "tourism": "museum"
  }
},
{
  "type": "node",
  "id": 4474995994,
  "lat": 40.9060526,
  "lon": -8.4976095,
  "tags": {
    "name": "Núcleo de Arte da Oliva Creative Factory",
    "tourism": "museum"
  }
},
{
  "type": "node",
  "id": 4553102628,
  "lat": 41.1467916,
  "lon": -8.6181753,
  "tags": {
    "fee": "yes",
    "fee:amount": "1€",
    "name": "Museu do Centro Hospitalar do Porto",
    "ref:vatin": "PT508331471",
    "tourism": "museum",
    "website": "http://museu.chporto.pt/"
  }
},
{
  "type": "node",
  "id": 4567141649,
  "lat": 41.1813643,
  "lon": -8.4768669,
  "tags": {
    "name": "Museu da Lousa",
    "tourism": "museum"
  }
},
{
  "type": "node",
  "id": 4567832447,
  "lat": 41.1625476,
  "lon": -8.5097077,
  "tags": {
    "addr:housenumber": "1",
    "addr:street": "Rua de Silveirinhos",
    "name": "Museu Mineiros São Pedro da Cova",
    "tourism": "museum",
    "website": "http://www.fanzeres-saopedrodacova.pt/index.php/mm/museu-mineiro"
  }
},
{
  "type": "node",
  "id": 4586091689,
  "lat": 41.1447171,
  "lon": -8.6158920,
  "tags": {
    "addr:street": "Campo dos Mártires da Pátria",
    "name": "Centro Português de Fotografia",
    "name:en": "Portuguese Photography Centre",
    "name:pt": "Centro Português de Fotografia",
    "opening_hours": "Tu-Fr 10:00-18:00; Sa-Su 15:00-19:00",
    "tourism": "museum",
    "wikidata": "Q18484034"
  }
},
{
  "type": "node",
  "id": 4703885869,
  "lat": 41.1751341,
  "lon": -8.6454480,
  "tags": {
    "addr:city": "Porto",
    "addr:housenumber": "728",
    "addr:postcode": "4100-246",
    "addr:street": "Rua Engenheiro Ferreira Dias",
    "contact:facebook": "https://www.facebook.com/museufarmacia/",
    "contact:phone": "+351 226 167 995",
    "fee": "yes",
    "fee:amount": "6.50€",
    "name": "Museu da Farmácia",
    "opening_hours": "Mo-Fr 10:00-18:00; Sa 14:00-18:00; Dec 24 off; Dec 31 off",
    "tourism": "museum",
    "website": "https://www.museudafarmacia.pt"
  }
},
{
  "type": "node",
  "id": 4928901421,
  "lat": 41.1433892,
  "lon": -8.6208881,
  "tags": {
    "addr:housenumber": "106",
    "addr:street": "Rua de Miragaia",
    "name": "World of Discoveries",
    "tourism": "museum",
    "wikidata": "Q19708475"
  }
},
{
  "type": "node",
  "id": 5362000544,
  "lat": 41.1880621,
  "lon": -8.6309140,
  "tags": {
    "name": "Museu do Linho",
    "tourism": "museum"
  }
},
{
  "type": "node",
  "id": 5397410943,
  "lat": 41.1713531,
  "lon": -8.6765478,
  "tags": {
    "addr:city": "Porto",
    "addr:housenumber": "15443",
    "addr:place": "Parque da Cidade do Porto",
    "addr:postcode": "4100-183",
    "addr:street": "Estrada da Circunvalação",
    "fee": "yes",
    "fee:amount": "8€",
    "name": "Pavilhão da água",
    "opening_hours": "Out-May Mo-Fr 10:00-17:30; Sa 10:00-13:00,14:00-17:30; Jun-Set Mo-Fr 10:00-18:00; Sa 10:00-13:00,14:00-18:00",
    "phone": "+351 225 190 888; +351 934 440 072",
    "tourism": "museum",
    "website": "https://pavilhaodaagua.pt"
  }
},
{
  "type": "node",
  "id": 5484447304,
  "lat": 41.1785650,
  "lon": -8.6869121,
  "tags": {
    "addr:housenumber": "456",
    "addr:postcode": "4450-201",
    "addr:street": "Avenida Menéres",
    "name": "Casa do Arquitectura",
    "phone": "+351 22 240 4663",
    "tourism": "museum"
  }
},
{
  "type": "node",
  "id": 6232857634,
  "lat": 40.9118677,
  "lon": -8.6016056,
  "tags": {
    "tourism": "museum"
  }
},
{
  "type": "node",
  "id": 6303892985,
  "lat": 41.1453752,
  "lon": -8.6178261,
  "tags": {
    "FIXME": "averiguar a localização correta",
    "addr:city": "Porto",
    "addr:housename": "Palácio da Justiça",
    "addr:postcode": "4099-012",
    "addr:street": "Campo dos Mártires da Pátria",
    "contact:phone": "+351 222 092 600",
    "contact:website": "https://www.trp.pt/museu-judiciario",
    "name": "Museu Judiciário do Tribunal da Relação do Porto",
    "name:en": "Judiciary Museum of Oporto Appeal Court",
    "opening_hours": "Mo-Fr 09:00-12:30,13:30-17:00",
    "operator": "Tribunal da Relação do Porto",
    "tourism": "museum"
  }
},
{
  "type": "node",
  "id": 6385306439,
  "lat": 41.1799487,
  "lon": -8.6941016,
  "tags": {
    "name": "Centro de Monitorização e Interpretação Ambiental (CMIA)",
    "short_name": "CMIA",
    "tourism": "museum",
    "website": "http://cmia-matosinhos.net/"
  }
},
{
  "type": "node",
  "id": 6549945405,
  "lat": 41.1422789,
  "lon": -8.6105669,
  "tags": {
    "addr:city": "Porto",
    "addr:postcode": "4050-305",
    "addr:street": "Rua de Dom Hugo",
    "name": "Museu da Fundação Maria Isabel Guerra Junqueiro e Luís Mesquita de Carvalho",
    "tourism": "museum"
  }
},
{
  "type": "node",
  "id": 6644422050,
  "lat": 41.1557251,
  "lon": -8.3864160,
  "tags": {
    "description": "Small museum devoted to the old gold mines in the area. Especially good for children",
    "fixme:survey": "Name?",
    "tourism": "museum"
  }
},
{
  "type": "node",
  "id": 6661617235,
  "lat": 41.1456849,
  "lon": -8.6145271,
  "tags": {
    "alt_name": "Museu da Irmandade dos Clérigos",
    "fee": "yes",
    "fee:amount": "5€",
    "name": "Museu dos Clérigos",
    "note": "A taxa base de 5€ inclui o acesso ao museu e à torre",
    "operator": "Irmandade dos Clérigos",
    "start_date": "2018-08-29",
    "tourism": "museum"
  }
},
{
  "type": "node",
  "id": 6661619777,
  "lat": 41.1474360,
  "lon": -8.6243480,
  "tags": {
    "addr:city": "Porto",
    "addr:housenumber": "228",
    "addr:postcode": "4050-313",
    "addr:street": "Rua Jorge Viterbo Ferreira",
    "fee": "no",
    "fixme": "Confirmar se é acessível apenas a escolas ou ao público em geral; na web indica que é apenas para escolas mas no horário de abertura indica para o público em geral",
    "name": "Museu de Anatomia Professor Nuno Grande",
    "opening_hours": "Mo-Fr 09:30-12:00,14:00-15:00",
    "operator": "Instituto de Ciências Biomédicas de Abel Salazar",
    "phone": "+351 220 428 000",
    "reservation": "required",
    "tourism": "museum",
    "website": "https://sigarra.up.pt/icbas/pt/uni_geral.unidade_view?pv_unidade=140"
  }
},
{
  "type": "node",
  "id": 6669923450,
  "lat": 41.1410119,
  "lon": -8.6163577,
  "tags": {
    "alt_name": "Museu da Ordem de São Franciscano",
    "name": "Museu de São Francisco do Porto",
    "tourism": "museum"
  }
},
{
  "type": "node",
  "id": 6680293302,
  "lat": 41.1664511,
  "lon": -8.5958556,
  "tags": {
    "addr:city": "Porto",
    "addr:housenumber": "716",
    "addr:street": "Rua de Costa Cabral",
    "fee": "yes",
    "fee:amount": "2€",
    "name": "Casa-Museu Fernando de Castro",
    "operator": "Museu Nacional de Soares dos Reis",
    "phone": "+351 223 393 770",
    "reservation": "required",
    "tourism": "museum",
    "website": "http://www.museusoaresdosreis.gov.pt/pt-PT/menu_fernando_castro/ContentList.aspx",
    "wikidata": "Q19903755"
  }
},
{
  "type": "node",
  "id": 6680293304,
  "lat": 41.1476324,
  "lon": -8.6042551,
  "tags": {
    "addr:city": "Porto",
    "addr:housenumber": "39",
    "addr:postcode": "4000-041",
    "addr:street": "Rua da Alegria",
    "name": "Liga dos Combatentes - Núcleo Museológico do Porto",
    "opening_hours": "Mo-Fr 09:30-12:00,14:00-18:00",
    "phone": "+351 222 006 101",
    "tourism": "museum",
    "website": "http://www.ligacombatentes.org.pt/museus/museu_do_porto"
  }
},
{
  "type": "node",
  "id": 7012394685,
  "lat": 41.1458658,
  "lon": -8.5982785,
  "tags": {
    "name": "Galeria Lehmann + Silva",
    "name:en": "Art Gallery Lehmann + Silva",
    "tourism": "museum"
  }
},
{
  "type": "node",
  "id": 7012394686,
  "lat": 41.1558317,
  "lon": -8.6019982,
  "tags": {
    "name": "Galeria Nuno Centeno",
    "name:en": "Art Gallery Nuno Centeno",
    "tourism": "museum"
  }
},
{
  "type": "node",
  "id": 7012396885,
  "lat": 41.1449118,
  "lon": -8.5985401,
  "tags": {
    "name": "Galeria Senhora Presidenta",
    "tourism": "museum"
  }
},
{
  "type": "node",
  "id": 7012398985,
  "lat": 41.1620213,
  "lon": -8.6119599,
  "tags": {
    "name": "Galeria SALA 117",
    "tourism": "museum"
  }
},
{
  "type": "node",
  "id": 7012745985,
  "lat": 41.1468757,
  "lon": -8.6005032,
  "tags": {
    "name": "Galeria de Arquitectura",
    "tourism": "museum"
  }
},
{
  "type": "node",
  "id": 7033970401,
  "lat": 40.9192182,
  "lon": -8.6387864,
  "tags": {
    "addr:city": "Maceda",
    "addr:place": "Aérodromo de Manobra nº1",
    "addr:postcode": "3885-718",
    "addr:street": "Rua da Base Aérea",
    "name": "Museu do Ar - Pólo de Ovar",
    "opening_hours": "Mo-Fr 10:00-12:00,14:00-16:30; Sa,Su 10:00-12:00,14:00-18:00",
    "tourism": "museum",
    "website": "https://www.museudoar.pt/pagina-006.002",
    "wikidata": "Q10333877"
  }
},
{
  "type": "node",
  "id": 7036719678,
  "lat": 40.9564161,
  "lon": -8.6300786,
  "tags": {
    "addr:city": "Esmoriz",
    "addr:housenumber": "304",
    "addr:postcode": "3885-432",
    "addr:street": "Rua Abade Pinheiro",
    "contact:phone": "+351 256 752 512",
    "contact:website": "https://www.facebook.com/tanoariaramalho.esmoriz/",
    "fee": "yes",
    "fee:amount": "3.5€",
    "name": "Núcleo Museológico Tanoaria Ramalho",
    "tourism": "museum"
  }
},
{
  "type": "node",
  "id": 7036719680,
  "lat": 40.9571327,
  "lon": -8.6268801,
  "tags": {
    "addr:city": "Esmoriz",
    "addr:postcode": "3885-909",
    "addr:street": "Avenida 29 Março",
    "contact:phone": "+351 256 752 565",
    "contact:website": "http://tanoariajosafer.com/visits/",
    "fee": "yes",
    "fee:amount": "5€",
    "name": "Núcleo Museológico Tanoaria Farramenta",
    "opening_hours": "Mo-Sa 08:00-12:00,13:00-17:00; PH off; Aug off",
    "reservation": "required",
    "tourism": "museum"
  }
},
{
  "type": "node",
  "id": 7114857009,
  "lat": 41.0651457,
  "lon": -8.6532287,
  "tags": {
    "name": "Centro de educaçao ambiental das ribeiras de Gaia",
    "tourism": "museum"
  }
},
{
  "type": "way",
  "id": 75700236,
  "nodes": [
    893748368,
    4128739798,
    893748348,
    893748371,
    893748349,
    893748368
  ],
  "tags": {
    "alt_name": "Alfândega Régia",
    "building": "yes",
    "name": "Museu da Construção Naval",
    "opening_hours": "Tu-Su 10:00-18:00",
    "phone": "252 248 468",
    "tourism": "museum",
    "website": "https://www.cm-viladoconde.pt/pages/502"
  }
},
{
  "type": "way",
  "id": 118469482,
  "nodes": [
    1332464463,
    1332464417,
    1332464373,
    1332464458,
    1332464431,
    1332464260,
    1332464268,
    1332464390,
    1332464343,
    1332464463
  ],
  "tags": {
    "building": "yes",
    "name": "Museu da Indústria Têxtil",
    "tourism": "museum"
  }
},
{
  "type": "way",
  "id": 135264094,
  "nodes": [
    1485654531,
    1485654529,
    1635070862,
    1635070872,
    1635070790,
    1635070785,
    1485654532,
    1485654530,
    1485654531
  ],
  "tags": {
    "building": "yes",
    "name": "Museu",
    "source": "Bing",
    "tourism": "museum"
  }
},
{
  "type": "way",
  "id": 151700704,
  "nodes": [
    1645451345,
    1645451347,
    1645451348,
    1645451335,
    1645451334,
    1645451349,
    1645451322,
    1645451325,
    1645451345
  ],
  "tags": {
    "name": "Quinta da Caverneira",
    "tourism": "museum"
  }
},
{
  "type": "way",
  "id": 154739087,
  "nodes": [
    1672331594,
    1672331575,
    1672331591,
    1672331596,
    1672331589,
    1672331576,
    1672331594
  ],
  "tags": {
    "building": "yes",
    "name": "Museu da Chapelaria",
    "tourism": "museum"
  }
},
{
  "type": "way",
  "id": 156346518,
  "nodes": [
    1686046651,
    1686046648,
    1686046647,
    5251103010,
    1686046649,
    1686046651
  ],
  "tags": {
    "building": "yes",
    "name": "Museu Arte Sacra",
    "opening_hours": "Sa 14:00-17:00",
    "tourism": "museum"
  }
},
{
  "type": "way",
  "id": 164861991,
  "nodes": [
    1764568744,
    1764568755,
    1764568745,
    1764568738,
    1764568744
  ],
  "tags": {
    "addr:city": "Santo Tirso",
    "addr:housenumber": "100",
    "addr:postcode": "4780-373",
    "addr:street": "Avenida Unisco Godiniz",
    "building": "yes",
    "email": "mmap@cm-stirso.pt",
    "name": "Museu Municipal Abade Pedrosa",
    "operator": "Câmara Municipal de Santo Tirso",
    "phone": "+351 252 830 400",
    "tourism": "museum",
    "website": "https://www.cm-stirso.pt/pages/330"
  }
},
{
  "type": "way",
  "id": 167487344,
  "nodes": [
    1788788038,
    1788788041,
    1788788046,
    1788788052,
    1788788055,
    1788788057,
    1788788063,
    1788788061,
    1788788048,
    1788788103,
    1788788100,
    1788788110,
    1788788125,
    1788788097,
    1788788130,
    1788788190,
    1788788050,
    1788788054,
    1788788004,
    1788787996,
    1788787915,
    1788787894,
    1788787846,
    1788787883,
    1788787897,
    1788787913,
    1788787901,
    1788787927,
    1788787930,
    1788787936,
    1788787960,
    1788787955,
    1788787931,
    1788787934,
    1788787908,
    1788787890,
    1788787887,
    1788787832,
    1788787820,
    1788787841,
    1788787876,
    1788787986,
    1788787985,
    1788787992,
    1788787990,
    1788788018,
    1788788020,
    1788788022,
    1788788023,
    1788788034,
    1788788036,
    1788788033,
    1788788038
  ],
  "tags": {
    "addr:housenumber": "210",
    "addr:postcode": "4150-417",
    "addr:street": "Rua de Dom João de Castro",
    "building": "yes",
    "name": "Museu Serralves",
    "name:en": "Serralves",
    "name:pt": "Fundaçao de Serralves",
    "operator": "Fundação de Serralves",
    "source": "bing",
    "toilets:wheelchair": "yes",
    "tourism": "museum",
    "website": "www.serralves.pt",
    "wheelchair": "yes",
    "wikidata": "Q3393650",
    "wikipedia": "pt:Museu de Arte Contemporânea (Fundação de Serralves)"
  }
},
{
  "type": "way",
  "id": 167487563,
  "nodes": [
    1788786409,
    1788786394,
    1788786401,
    1788786417,
    4747717460,
    4747717468,
    4747717462,
    1788786409
  ],
  "tags": {
    "alt_name": "Galeria da Biodiversidade",
    "building": "yes",
    "name": "Casa Andresen",
    "source": "bing",
    "tourism": "museum",
    "wikidata": "Q54566012"
  }
},
{
  "type": "way",
  "id": 170229523,
  "nodes": [
    1813847166,
    1813847164,
    1813847165,
    1813847168,
    1813847169,
    1813847166
  ],
  "tags": {
    "name": "Museu de Balasar (Antiga escola primária)",
    "tourism": "museum"
  }
},
{
  "type": "way",
  "id": 198516046,
  "nodes": [
    2086445920,
    2086445924,
    2086445922,
    2086445919,
    2086445921,
    5286658909,
    2086445925,
    2086445920
  ],
  "tags": {
    "name": "Casa-Museu Teixeira Lopes",
    "tourism": "museum"
  }
},
{
  "type": "way",
  "id": 201512639,
  "nodes": [
    2115094158,
    2115094156,
    2115094178,
    2115094170,
    2115094171,
    2115094165,
    2115094161,
    2115094166,
    2115094158
  ],
  "tags": {
    "building": "yes",
    "tourism": "museum"
  }
},
{
  "type": "way",
  "id": 210461454,
  "nodes": [
    2205504394,
    2205504265,
    6549945408,
    2205504246,
    2205504305,
    2205504410,
    6571265132,
    2205918397,
    2205918394,
    6571265139,
    6571265138,
    6571265137,
    6549945415,
    2205504441,
    2205504350,
    2205504304,
    2205504310,
    6549945427,
    2468364186,
    2205504354,
    6549945423,
    2268308150,
    6549945424,
    2205504258,
    2468364184,
    2205504249,
    2205504364,
    2205504347,
    2205504362,
    2466273756,
    2205079763,
    2205079766,
    2466269903,
    2205504244,
    2205504296,
    2205504312,
    2205504394
  ],
  "tags": {
    "addr:city": "Porto",
    "addr:housenumber": "32",
    "addr:postcode": "4050-305",
    "addr:street": "Rua de Dom Hugo",
    "alt_name": "Museu Municipal Guerra Junqueiro; Casa do Doutor Domingos Barbosa; Casa do Dr. Domingos Barbosa; Museu de Guerra Junqueiro",
    "name": "Casa-Museu Guerra Junqueiro",
    "opening_hours": "Tu-Su 10:00-17:30; PH off",
    "phone": "+351 222 003 689",
    "tourism": "museum",
    "website": "http://www.cm-porto.pt/cultura/museus-e-arquivos/museus-municipais-do-porto",
    "wikidata": "Q5047775",
    "wikipedia": "pt:Casa-Museu Guerra Junqueiro"
  }
},
{
  "type": "way",
  "id": 210555967,
  "nodes": [
    2206364277,
    2206371128,
    2206364280,
    2206364284,
    2206364277
  ],
  "tags": {
    "addr:housename": "Museu Banco Borges & Irmão",
    "amenity": "public_building",
    "building": "yes",
    "heritage:website:sipa": "http://www.monumentos.gov.pt/Site/APP_PagesUser/SIPA.aspx?id=25154",
    "old_name": "Bolsa dos Comerciantes do Porto",
    "ref:ipa": "25154",
    "tourism": "museum"
  }
},
{
  "type": "way",
  "id": 210571326,
  "nodes": [
    2206516823,
    2206516925,
    2206516879,
    2206516937,
    2206516835,
    2206516823
  ],
  "tags": {
    "addr:city": "Porto",
    "addr:housenumber": "33-37",
    "addr:postcode": "4050-492",
    "addr:street": "Rua da Reboleira",
    "alt_name": "Museu do Comércio do Vinho do Porto",
    "building": "yes",
    "building:levels": "6",
    "heritage:website:sipa": "http://www.monumentos.gov.pt/Site/APP_PagesUser/SIPA.aspx?id=27680",
    "name": "Museu do Vinho do Porto",
    "old_name": "CRAT - Centro Regional de Artes Tradicionais",
    "opening_hours": "Tu-Su 10:00-17:30; PH off",
    "phone": "+351 226 057 000",
    "ref:ipa": "27680",
    "toilet": "yes",
    "tourism": "museum",
    "website": "http://www.cm-porto.pt/cultura/museus-e-arquivos/museu-do-vinho-do-porto",
    "wikidata": "Q18166688",
    "wikipedia": "pt:Museu do Vinho do Porto"
  }
},
{
  "type": "way",
  "id": 210681249,
  "nodes": [
    2207616012,
    6541145479,
    2207616018,
    2207616083,
    2207616072,
    2207616065,
    2207615967,
    4927241188,
    2207615990,
    2207616017,
    2207616015,
    2207616008,
    2207616005,
    2207616048,
    2207616035,
    2207616031,
    2207615954,
    2207615961,
    2207616001,
    2207616059,
    2207616037,
    2207616082,
    2207616036,
    2207616030,
    2207616011,
    2207616032,
    2207616061,
    2207616088,
    2207616078,
    2207616047,
    2207616084,
    2207616064,
    2207615951,
    2207616012
  ],
  "tags": {
    "alt_name": "Igreja do Convento de São Francisco",
    "amenity": "place_of_worship",
    "building": "church",
    "denomination": "roman_catholic",
    "fee": "yes",
    "heritage:website:sipa": "http://www.monumentos.gov.pt/Site/APP_PagesUser/SIPA.aspx?id=3944",
    "name": "Igreja de São Francisco",
    "name:en": "Church of São Francisco",
    "name:ko": "성 프란시스쿠 성당",
    "name:ru": "Церковь святого Франциска",
    "note": "missing amenity=place_of_worship is intentional, it is no longer a place of worship",
    "ref:ipa": "3944",
    "religion": "christian",
    "toilet": "yes",
    "toilets": "yes",
    "toilets:access": "customers",
    "tourism": "museum",
    "wheelchair": "no",
    "wikidata": "Q1549939",
    "wikipedia": "pt:Igreja de São Francisco (Porto)"
  }
},
{
  "type": "way",
  "id": 216202561,
  "nodes": [
    2255558470,
    6541145476,
    2255558479,
    2255558490,
    2255558476,
    2255558524,
    2255558545,
    2255558484,
    2255558529,
    2255558488,
    2255558471,
    2255558486,
    2255558477,
    2255558470
  ],
  "tags": {
    "building": "yes",
    "name": "Museu Arte Sacra",
    "tourism": "museum"
  }
},
{
  "type": "way",
  "id": 216272583,
  "nodes": [
    1468089491,
    2256254876,
    1468089494,
    1468089497,
    1468089503,
    2258180382,
    1468089527,
    1468089523,
    1468089513,
    1468089507,
    1468089515,
    1468089511,
    1468089491
  ],
  "tags": {
    "building": "public",
    "email": "museu@amtc.pt",
    "name": "Museu dos Transportes e Comunicações",
    "name:ru": "Музей транспорта и связи",
    "opening_hours": "Tu-Fr 10:00-13:00, 14:00-18:00; Sa-Su 15:00-19:00",
    "phone": "+351 22 340 3000",
    "tourism": "museum",
    "tourism_2": "attraction",
    "website": "https://www.amtc.pt/",
    "wheelchair": "yes",
    "wikidata": "Q10333960"
  }
},
{
  "type": "way",
  "id": 224283764,
  "nodes": [
    2331025243,
    2331025248,
    2331025228,
    2331025212,
    2331025198,
    2331025202,
    2331025243
  ],
  "tags": {
    "building": "yes",
    "name": "Arquivo Histórico Municipal",
    "source": "bing",
    "tourism": "museum"
  }
},
{
  "type": "way",
  "id": 226927076,
  "nodes": [
    2356632420,
    2207290243,
    3457190282,
    2356632417,
    2356632415,
    2356632420
  ],
  "tags": {
    "addr:city": "Porto",
    "addr:country": "PT",
    "addr:housenumber": "22",
    "addr:street": "Rua das Flores",
    "building": "yes",
    "building:colour": "white",
    "building:levels": "3",
    "building:material": "plaster",
    "email": "museu@marionetasdoporto.pt",
    "name": "Museu das Marionetas do Porto",
    "opening_hours": "11:00-13:00;14:00-18:00",
    "phone": "+351 220 108 224",
    "tourism": "museum",
    "website": "https://marionetasdoporto.pt/museu-das-marionetas-do-porto/"
  }
},
{
  "type": "way",
  "id": 239742909,
  "nodes": [
    2475153691,
    2475153688,
    2475153685,
    2475153690,
    2475153687,
    2475153686,
    2475153684,
    2475153689,
    2475153691
  ],
  "tags": {
    "addr:housenumber": "250",
    "addr:street": "Rua do Choupelo",
    "building": "yes",
    "name": "Taylor's",
    "name:en": "Taylor's Port",
    "name:ko": "테일러 포트",
    "name:pt": "Taylor Fladgate & Yeatmen",
    "opening_hours": "Mo-Fr 10:00-18:00; Sa-Su 10:00-17:00",
    "phone": "+351223742800",
    "shop": "alcohol",
    "tourism": "museum"
  }
},
{
  "type": "way",
  "id": 244084005,
  "nodes": [
    2514349537,
    2514349544,
    2514349546,
    2514349542,
    2514349537
  ],
  "tags": {
    "building": "yes",
    "tourism": "museum"
  }
},
{
  "type": "way",
  "id": 253841619,
  "nodes": [
    2597200149,
    2597208530,
    2597200151,
    2597200154,
    2597200156,
    2597200149
  ],
  "tags": {
    "building": "yes",
    "name": "Centro Ciência Viva",
    "tourism": "museum",
    "website": "http://viladoconde.cienciaviva.pt/"
  }
},
{
  "type": "way",
  "id": 253841662,
  "nodes": [
    2597200417,
    2597200418,
    4377465305,
    2597200419,
    2597200420,
    2597200421,
    4328284754,
    4328284753,
    2597200417
  ],
  "tags": {
    "building": "yes",
    "name": "Espaço Acqua (Centro Ciência Viva)",
    "tourism": "museum"
  }
},
{
  "type": "way",
  "id": 255778741,
  "nodes": [
    2614650650,
    2614650625,
    2614650597,
    2614650631,
    2614650611,
    2614650651,
    2614650605,
    2614650594,
    2614650646,
    2614650644,
    2614650656,
    2614650609,
    2614650639,
    2614650615,
    2614650650
  ],
  "tags": {
    "addr:city": "Porto",
    "addr:housename": "Quinta da Macieirinha",
    "addr:housenumber": "220",
    "addr:postcode": "4050-240",
    "addr:street": "Rua de Entre-Quintas",
    "building": "house",
    "contact:phone": "+351 226 057 000",
    "contact:website": "http://www.cm-porto.pt/cultura/museus-e-arquivos/museu-romantico-da-quinta-da-macieirinha",
    "name": "Museu do Romântico",
    "opening_hours": "Tu-Sa 10:00-17:30; PH off",
    "tourism": "museum",
    "wikidata": "Q10333620"
  }
},
{
  "type": "way",
  "id": 256158892,
  "nodes": [
    2617025467,
    2617025448,
    2617025462,
    2617025465,
    2617025461,
    2617025445,
    2618460084,
    2618460100,
    2618460066,
    2618460087,
    2617025477,
    2618460065,
    2618479670,
    2618479733,
    2617025486,
    2617025426,
    2617025470,
    2617025432,
    2617025482,
    2617025429,
    2617025463,
    2617025468,
    2617025460,
    5824175643,
    5824175639,
    5824175634,
    2619226182,
    5824175628,
    2619226162,
    2617025475,
    2617025485,
    2619237949,
    2617025480,
    2617025483,
    2617025424,
    2617025459,
    2618416521,
    2617025421,
    2617025430,
    2617025478,
    2617025487,
    2617025479,
    2617025439,
    2617025437,
    2617025464,
    2617056447,
    2617025472,
    2617025443,
    2617025481,
    2617025458,
    2617025452,
    2617025457,
    2617025456,
    2617025450,
    2617025419,
    2617025484,
    2617025433,
    2617025441,
    2617025422,
    2617025425,
    2617025435,
    2617025467
  ],
  "tags": {
    "area": "yes",
    "name": "Casa Tait",
    "owner": "Câmara Municipal do Porto",
    "tourism": "museum",
    "wikidata": "Q5047889",
    "wikipedia": "pt:Casa Tait"
  }
},
{
  "type": "way",
  "id": 258994683,
  "nodes": [
    2643005466,
    2643005467,
    2643005468,
    2643005469,
    2643005466
  ],
  "tags": {
    "building": "yes",
    "name": "Museu dos Telefones",
    "tourism": "museum"
  }
},
{
  "type": "way",
  "id": 261265893,
  "nodes": [
    2415856328,
    2668979385,
    2415878399,
    2415878344,
    2415878383,
    2415878342,
    2415860173,
    2415856301,
    2415870050,
    2415892298,
    2415856304,
    2415878345,
    2415860171,
    2415856326,
    2415856343,
    2415856328
  ],
  "tags": {
    "addr:city": "Porto",
    "addr:country": "PT",
    "addr:housename": "Palácio das Carrancas",
    "addr:postcode": "4050-342",
    "addr:street": "Rua Dom Manuel II",
    "contact:email": "divulgacao@mnsr.dgpc.pt",
    "contact:facebook": "https://www.facebook.com/MuseuNacionalSoaresReis",
    "contact:fax": "+351 222 082 851",
    "contact:phone": "+351 223 393 770",
    "contact:website": "www.museusoaresdosreis.pt",
    "heritage:since": "1934-06-12",
    "heritage:website:sipa": "http://www.monumentos.gov.pt/Site/APP_PagesUser/SIPA.aspx?id=5684",
    "name": "Museu Nacional Soares dos Reis",
    "opening_hours": "Tu 14:00-18:00; We-Su 10:00-18:00; Jan 1 off; May 1 off; Dec 1 off",
    "photography:inside": "no",
    "ref:ipa": "5684",
    "tourism": "museum",
    "wheelchair": "limited",
    "wikidata": "Q1141468",
    "wikipedia": "pt:Museu Nacional de Soares dos Reis"
  }
},
{
  "type": "way",
  "id": 266663736,
  "nodes": [
    2209437201,
    2209437242,
    2209437182,
    2209437226,
    2209437328,
    2209437196,
    2209437277,
    2209437175,
    2209437180,
    2209437185,
    2209437325,
    2209437222,
    2209437246,
    2209437189,
    2209437199,
    2209833345,
    2209437187,
    2209437209,
    2209437327,
    2209437200,
    2209437313,
    2209824637,
    2209437224,
    2209437323,
    2209437244,
    6541145473,
    2209437201
  ],
  "tags": {
    "alt_name": "Museu da Santa Casa da Misericórdia do Porto",
    "area": "yes",
    "fee": "yes",
    "name": "Museu da Misericórdia do Porto",
    "name:en": "Misericórdia do Porto Museum",
    "short_name": "MIPO",
    "tourism": "museum",
    "wikidata": "Q25419284"
  }
},
{
  "type": "way",
  "id": 327101568,
  "nodes": [
    3338179907,
    3338179908,
    3338179909,
    3338179910,
    3338179911,
    3338179907
  ],
  "tags": {
    "building": "yes",
    "name": "Museu Paroquial da Foz do Sousa",
    "tourism": "museum"
  }
},
{
  "type": "way",
  "id": 332358294,
  "nodes": [
    3394729527,
    3394729528,
    5801392743,
    5801392742,
    5801392741,
    5801392744,
    3394729529,
    3394729530,
    5801392746,
    5801392747,
    5801392748,
    5801392749,
    3394729527
  ],
  "tags": {
    "building": "yes",
    "name": "Núcleo Arqueológico da Cividade de Terroso",
    "opening_hours": "Tu-Sa 09:00-13:00,15:00-17:00;PH off",
    "operator": "Câmara Municipal da Póvoa de Varzim",
    "tourism": "museum",
    "website": "https://www.cm-pvarzim.pt/areas-de-atividade/povoa-cultural/museu-municipal/nucleo-terroso"
  }
},
{
  "type": "way",
  "id": 332479849,
  "nodes": [
    3396198601,
    1788785645,
    3396198484,
    1788785600,
    1788785470,
    3396198396,
    3396198395,
    3396198397,
    3396198400,
    3396198401,
    3396198414,
    3396198415,
    3396198441,
    3396198449,
    3396198455,
    3396198459,
    3396198601
  ],
  "tags": {
    "addr:housenumber": "51",
    "addr:postcode": "4150-127",
    "addr:street": "Alameda Basílio Teles",
    "contact:fax": "+351 225 071150",
    "contact:phone": "+351 226 158185",
    "contact:website": "www.museudocarroelectrico.pt",
    "museum": "tram",
    "name": "Museu do Carro Eléctrico",
    "operator": "Sociedade de Transportes Colectivos do Porto",
    "owner": "Sociedade de Transportes Colectivos do Porto",
    "ownership": "state",
    "source": "bing",
    "tourism": "museum",
    "wikidata": "Q908989",
    "wikipedia": "pt:Museu do Carro Eléctrico"
  }
},
{
  "type": "way",
  "id": 374778744,
  "nodes": [
    3781529669,
    3781529670,
    3781529671,
    3781529672,
    3781529673,
    3781529669
  ],
  "tags": {
    "building": "yes",
    "name": "Centro Interpretativo de Quintandona",
    "tourism": "museum"
  }
},
{
  "type": "way",
  "id": 384435581,
  "nodes": [
    3877255913,
    3877255914,
    3877255915,
    3877255916,
    4795435035,
    3877255922,
    3877255923,
    3877255924,
    3877255927,
    3877255932,
    3877255928,
    3877255929,
    3877255925,
    3877255926,
    3877255921,
    2110699728,
    4795435030,
    3877255906,
    3877255903,
    1822195378,
    3877255905,
    3877255904,
    3877255899,
    3877255897,
    3877255895,
    3877255894,
    3877255891,
    3877255893,
    3877255896,
    3877255900,
    3877255909,
    3877255908,
    3877255913
  ],
  "tags": {
    "museum": "railway",
    "name": "Museu Ferroviário de Lousado",
    "tourism": "museum",
    "wikipedia": "pt:Museu Ferroviário de Lousado"
  }
},
{
  "type": "way",
  "id": 384435626,
  "nodes": [
    4795435034,
    4795435033,
    3877255928,
    3877255929,
    3877255925,
    3877255926,
    3877255921,
    3877255920,
    3877255919,
    4795435034
  ],
  "tags": {
    "addr:city": "Lousado",
    "building": "yes",
    "name": "Museu Ferroviário de Lousado",
    "phone": "+351 252 153 646",
    "tourism": "museum",
    "website": "https://www.fmnf.pt/"
  }
},
{
  "type": "way",
  "id": 397000314,
  "nodes": [
    3998320060,
    3998320059,
    3998320054,
    3998320053,
    3998320056,
    3998320057,
    3998320051,
    3998320049,
    3998320050,
    3998320052,
    3998320055,
    2203026270,
    2203026234,
    2203026252,
    2203026239,
    2203026251,
    2203026266,
    2203026250,
    2203026262,
    2203026245,
    2203026281,
    3998320060
  ],
  "tags": {
    "building": "yes",
    "name": "Museu Arqueologico da Citania de Sanfins",
    "tourism": "museum",
    "url": "http://www.cm-pacosdeferreira.pt/index.php/museu-arqueologico-da-citania-de-sanfins"
  }
},
{
  "type": "way",
  "id": 412522634,
  "nodes": [
    4139311495,
    4139311496,
    4139311497,
    4139311511,
    4139311498,
    4139311510,
    4139311499,
    4139311500,
    4139311501,
    4139311502,
    4139311503,
    4139311495
  ],
  "tags": {
    "building": "yes",
    "name": "Centro de Memória",
    "tourism": "museum"
  }
},
{
  "type": "way",
  "id": 449722702,
  "nodes": [
    4466579755,
    4466579763,
    4466580299,
    137897927,
    4466579756,
    4466580293,
    4466579785,
    4466579757,
    4466606444,
    4466606447,
    4466606450,
    4466580289,
    4466579759,
    4466579760,
    4466579761,
    4466579762,
    4466579770,
    4466579755
  ],
  "tags": {
    "landuse": "military",
    "name": "Museu Militar do Porto",
    "tourism": "museum",
    "wikidata": "Q6940603"
  }
},
{
  "type": "way",
  "id": 461252553,
  "nodes": [
    4567831815,
    4788424898,
    4567831816,
    4567831817,
    4567831818,
    4567831819,
    4788424896,
    6774627960,
    4567831820,
    4567831821,
    6774627958,
    6774627941,
    6774627924,
    4567831822,
    4567831815
  ],
  "tags": {
    "addr:housenumber": "1",
    "addr:street": "Rua de Silveirinhos",
    "building": "yes",
    "name": "Museu Mineiro",
    "tourism": "museum",
    "website": "http://www.fanzeres-saopedrodacova.pt/index.php/mm/museu-mineiro"
  }
},
{
  "type": "way",
  "id": 487019204,
  "nodes": [
    3877255915,
    4795435038,
    4795435037,
    4795435039,
    3877255913,
    3877255914,
    3877255915
  ],
  "tags": {
    "museum": "railway",
    "name": "Museu Ferroviário de Lousado",
    "tourism": "museum",
    "wikipedia": "pt:Museu Ferroviário de Lousado"
  }
},
{
  "type": "way",
  "id": 487977825,
  "nodes": [
    4803582415,
    4806324295,
    4806324298,
    4806324300,
    4803582416,
    4803582417,
    2693754307,
    2693754302,
    4803582418,
    2693754303,
    4806324305,
    4806324303,
    4806324302,
    4803582415
  ],
  "tags": {
    "building": "yes",
    "tourism": "museum"
  }
},
{
  "type": "way",
  "id": 525403618,
  "nodes": [
    5111270411,
    5111270413,
    5111270420,
    5111271521,
    5801636839,
    5111270419,
    5801636829,
    5111270416,
    5111270415,
    5111270418,
    5111270411
  ],
  "tags": {
    "building": "yes",
    "email": "mmap@cm-stirso.pt",
    "fee": "no",
    "name": "Centro Interpretativo do Monte Padrão",
    "opening_hours": "Tu-Fr 09:00-17:30; Sa,Su 14:00-19:00;PH off",
    "operator": "Câmara Municipal de Santo Tirso",
    "phone": "+351 252 857 303",
    "tourism": "museum",
    "website": "https://www.cm-stirso.pt/pages/346"
  }
},
{
  "type": "way",
  "id": 537753951,
  "nodes": [
    5206613465,
    5206613464,
    5206613463,
    5206613462,
    5206613475,
    5206613468,
    5206613466,
    5206613465
  ],
  "tags": {
    "building": "yes",
    "building:levels": "3",
    "name": "Soledade Malvar",
    "tourism": "museum"
  }
},
{
  "type": "way",
  "id": 543997137,
  "nodes": [
    5258613750,
    5258613748,
    5258613749,
    5258613751,
    5258613750
  ],
  "tags": {
    "building": "yes",
    "name": "Museu A Lord",
    "operator": "A Lord",
    "tourism": "museum"
  }
},
{
  "type": "way",
  "id": 544594862,
  "nodes": [
    5264201941,
    5264201945,
    5264201942,
    5264201943,
    5264201946,
    5264201944,
    5264201941
  ],
  "tags": {
    "addr:city": "Porto",
    "addr:housenumber": "363",
    "addr:postcode": "4300-027",
    "addr:street": "Rua de António Carneiro",
    "name": "Casa Oficina António Carneiro",
    "opening_hours": "Tu-Su 10:00-17:30; PH off",
    "phone": "+351 225 379 668",
    "tourism": "museum",
    "website": "http://www.cm-porto.pt/cultura/museus-e-arquivos/casa-oficina-antonio-carneiro",
    "wikidata": "Q9698031"
  }
},
{
  "type": "way",
  "id": 545037301,
  "nodes": [
    5268162908,
    5268162909,
    5268162910,
    5268162911,
    5268162912,
    5268162913,
    5268162914,
    5268162915,
    5268162916,
    5268162917,
    5268162908
  ],
  "tags": {
    "building": "yes",
    "name": "Fundação Escultor José Rodrigues",
    "tourism": "museum"
  }
},
{
  "type": "way",
  "id": 549119473,
  "nodes": [
    5304501038,
    5304501039,
    5304501042,
    5304501041,
    5304501040,
    5304501037,
    5304501046,
    5304501047,
    5304501036,
    5304501045,
    5304501044,
    5304501043,
    5304501035,
    5304501038
  ],
  "tags": {
    "building": "yes",
    "name": "Centro Interpretativo do Castro de Monte Mozinho",
    "operator": "Câmara Municipal de Penafiel. Museu de Penafiel",
    "tourism": "museum",
    "website": "http://www.museudepenafiel.com/informacoes/horario.php?h=3"
  }
},
{
  "type": "way",
  "id": 577312612,
  "nodes": [
    5534776519,
    5534776520,
    5534776521,
    5534776526,
    5534776523,
    5534776522,
    5534776519
  ],
  "tags": {
    "building": "yes",
    "name": "Centro Interpretativo do Património da Afurada",
    "tourism": "museum"
  }
},
{
  "type": "way",
  "id": 584385606,
  "nodes": [
    5586151340,
    5586151341,
    5586151342,
    5586151343,
    5586151340
  ],
  "tags": {
    "addr:city": "São Mamede de Infesta e Senhora da Hora",
    "addr:street": "Rua Fradique Morujão",
    "building": "school",
    "tourism": "museum"
  }
},
{
  "type": "way",
  "id": 619230866,
  "nodes": [
    5851919219,
    5851919218,
    5851919217,
    5851919215,
    5851919212,
    5851919216,
    5851919213,
    5851919214,
    5851919219
  ],
  "tags": {
    "building": "yes",
    "tourism": "museum"
  }
},
{
  "type": "way",
  "id": 658399337,
  "nodes": [
    6165572012,
    6165572010,
    6165572011,
    6165572013,
    6165572012
  ],
  "tags": {
    "designation": "Museu Quinta de Santiago",
    "name": "Museu Santiago",
    "source": "City Tourism",
    "tourism": "museum"
  }
},
{
  "type": "way",
  "id": 686280550,
  "nodes": [
    6432503298,
    6432503302,
    6432503307,
    6432503308,
    6432503309,
    6432503306,
    6432503305,
    6432503310,
    6432503311,
    6432503304,
    6432503303,
    6432503299,
    6432503301,
    6432503300,
    6432503298
  ],
  "tags": {
    "addr:city": "Santa Maria de Lamas",
    "addr:housenumber": "90",
    "addr:postcode": "4535-368",
    "addr:street": "Rua da Salgueirinha",
    "building": "yes",
    "name": "Museu da Santa Maria de Lamas",
    "tourism": "museum"
  }
},
{
  "type": "way",
  "id": 744193634,
  "nodes": [
    6964959697,
    6964959698,
    6964959699,
    6964959700,
    6964959701,
    6964959702,
    6964959703,
    6964959704,
    6964959697
  ],
  "tags": {
    "building": "yes",
    "name": "Oficina da Regueifa e do Biscoito",
    "tourism": "museum"
  }
},
{
  "type": "way",
  "id": 747914139,
  "nodes": [
    6997377290,
    6997377289,
    6997377288,
    6997377287,
    6997377286,
    6997377285,
    6997377284,
    6997377283,
    6997377282,
    6997377281,
    3444946668,
    6997377280,
    6997377279,
    6997377290
  ],
  "tags": {
    "addr:city": "Paços de Brandão",
    "addr:housenumber": "338",
    "addr:postcode": "4535-301",
    "addr:street": "Rua de Riomaior",
    "contact:phone": "+351 256 370 850",
    "contact:website": "www.museudopapel.org",
    "fee:amount": "1.5€",
    "name": "Museu do Papel Terras de Santa Maria",
    "opening_hours": "Tu-Fr 09:30-17:00; Sa 14:30-17:30; PH off; Dec 24,26,31 off",
    "owner": "Câmara Municipal de Santa Maria da Feira",
    "photography": "no",
    "photography:inside": "no",
    "start_date": "2001-10-26",
    "tourism": "museum"
  }
},
{
  "type": "relation",
  "id": 2880925,
  "members": [
    {
      "type": "way",
      "ref": 217555340,
      "role": "inner"
    },
    {
      "type": "way",
      "ref": 210555179,
      "role": "outer"
    }
  ],
  "tags": {
    "addr:city": "Porto",
    "addr:housenumber": "10",
    "addr:postcode": "4050-029",
    "addr:street": "Rua da Alfândega",
    "alt_name": "Casa do Infante; Casa da Rua da Alfândega Velha",
    "building": "public",
    "heritage:website:sipa": "http://www.monumentos.gov.pt/Site/APP_PagesUser/SIPA.aspx?id=5451",
    "historic": "archaeological_site",
    "name": "Museu Municipal Casa do Infante",
    "opening_hours": "Tu-Su 10:00-17:30; PH off",
    "phone": "+351 222 060 400;+351 222 060 423",
    "ref:ipa": "5451",
    "tourism": "museum",
    "type": "multipolygon",
    "website": "http://www.cm-porto.pt/cultura/museus-e-arquivos/casa-do-infante",
    "wikidata": "Q5047957"
  }
},
{
  "type": "relation",
  "id": 2883918,
  "members": [
    {
      "type": "way",
      "ref": 217746638,
      "role": "inner"
    },
    {
      "type": "way",
      "ref": 217746637,
      "role": "outer"
    }
  ],
  "tags": {
    "building": "public",
    "heritage:website:sipa": "http://www.monumentos.gov.pt/Site/APP_PagesUser/SIPA.aspx?id=5460",
    "name": "Cadeia e Tribunal da Relação",
    "ref:ipa": "5460",
    "tourism": "museum",
    "type": "multipolygon",
    "wikidata": "Q9672205",
    "wikipedia": "pt:Cadeia da Relação"
  }
},
{
  "type": "relation",
  "id": 2997382,
  "members": [
    {
      "type": "way",
      "ref": 227995814,
      "role": "inner"
    },
    {
      "type": "way",
      "ref": 210311398,
      "role": "outer"
    }
  ],
  "tags": {
    "addr:housenumber": "148",
    "building": "public",
    "heritage:website:sipa": "http://www.monumentos.gov.pt/Site/APP_PagesUser/SIPA.aspx?id=17402",
    "name": "Culturgest",
    "ref:ipa": "17402",
    "tourism": "museum",
    "type": "multipolygon"
  }
},
{
  "type": "relation",
  "id": 3219925,
  "members": [
    {
      "type": "way",
      "ref": 238826849,
      "role": "outer"
    },
    {
      "type": "way",
      "ref": 238826850,
      "role": "inner"
    }
  ],
  "tags": {
    "building": "public",
    "name": "Museu da Sé",
    "opening_hours": "Apr-Oct 9:00-18:30; Nov-Mar 9:00-17:30; easter off; Dec 25 off",
    "photography": "yes",
    "photography:inside": "yes",
    "start_date": "C16",
    "tourism": "museum",
    "type": "multipolygon"
  }
},
{
  "type": "relation",
  "id": 7704021,
  "members": [
    {
      "type": "way",
      "ref": 118473585,
      "role": "outer"
    },
    {
      "type": "way",
      "ref": 537807561,
      "role": "inner"
    }
  ],
  "tags": {
    "addr:city": "Vila Nova de Famalicão",
    "addr:postcode": "4764-134",
    "addr:street": "Rua Direita",
    "name": "Casa da Cultura",
    "tourism": "museum",
    "type": "multipolygon"
  }
},
{
  "type": "relation",
  "id": 10489640,
  "members": [
    {
      "type": "way",
      "ref": 185628436,
      "role": "outer"
    },
    {
      "type": "way",
      "ref": 759077412,
      "role": "outer"
    }
  ],
  "tags": {
    "addr:city": "São Miguel de Seide",
    "addr:housenumber": "758",
    "addr:postcode": "4770-631",
    "addr:street": "Avenida de São Miguel",
    "alt_name": "Casa de Camilo Castelo Branco;Casa Museu de Camilo Castelo Branco;Casa de Camilo",
    "building": "yes",
    "heritage": "2",
    "heritage:operator": "dgpc",
    "heritage:ref": "IIP",
    "heritage:website": "http://patrimoniocultural.pt/pt/patrimonio/pesquisa/geral/patrimonioimovel/detail/74430",
    "heritage:website:sipa": "http://monumentos.pt/Site/APP_PagesUser/SIPA.aspx?id=1110",
    "name": "Casa-Museu de Camilo Castelo Branco",
    "opening_hours": "Tu-Fr 10:15-17:30; Sa,Su 10:30-12:30,14:30-17:30;Mo off; PH off",
    "phone": "+351 252 327 186",
    "protection_title": "Imóvel de Interesse Público",
    "ref:dgpc": "74430",
    "ref:ipa": "1110",
    "site_status": "Classificado",
    "source:ref": "https://dre.pt/pdf1sdip/1978/09/21000/18961901.pdf",
    "tourism": "museum",
    "type": "multipolygon",
    "website": "http://www.camilocastelobranco.org",
    "wikidata": "Q9698261",
    "wikipedia": "pt:Casa de Camilo Castelo Branco"
  }
},
{
  "type": "node",
  "id": 1672331575,
  "lat": 40.9034988,
  "lon": -8.4955887
},
{
  "type": "node",
  "id": 1672331576,
  "lat": 40.9031136,
  "lon": -8.4958167
},
{
  "type": "node",
  "id": 1672331589,
  "lat": 40.9031075,
  "lon": -8.4959964
},
{
  "type": "node",
  "id": 1672331591,
  "lat": 40.9027608,
  "lon": -8.4955860
},
{
  "type": "node",
  "id": 1672331594,
  "lat": 40.9035028,
  "lon": -8.4958006
},
{
  "type": "node",
  "id": 1672331596,
  "lat": 40.9027691,
  "lon": -8.4960066
},
{
  "type": "node",
  "id": 6997377289,
  "lat": 40.9814643,
  "lon": -8.5852267
},
{
  "type": "node",
  "id": 6997377290,
  "lat": 40.9813616,
  "lon": -8.5853494
},
{
  "type": "node",
  "id": 2115094156,
  "lat": 40.9816314,
  "lon": -8.5839486
},
{
  "type": "node",
  "id": 2115094158,
  "lat": 40.9817166,
  "lon": -8.5839756
},
{
  "type": "node",
  "id": 2115094161,
  "lat": 40.9815785,
  "lon": -8.5843743
},
{
  "type": "node",
  "id": 2115094165,
  "lat": 40.9816048,
  "lon": -8.5841731
},
{
  "type": "node",
  "id": 2115094166,
  "lat": 40.9816577,
  "lon": -8.5843965
},
{
  "type": "node",
  "id": 2115094170,
  "lat": 40.9816010,
  "lon": -8.5840398
},
{
  "type": "node",
  "id": 2115094171,
  "lat": 40.9815808,
  "lon": -8.5841659
},
{
  "type": "node",
  "id": 2115094178,
  "lat": 40.9816172,
  "lon": -8.5840425
},
{
  "type": "node",
  "id": 3444946668,
  "lat": 40.9812699,
  "lon": -8.5847600
},
{
  "type": "node",
  "id": 6997377279,
  "lat": 40.9811834,
  "lon": -8.5851449
},
{
  "type": "node",
  "id": 6997377280,
  "lat": 40.9809905,
  "lon": -8.5851154
},
{
  "type": "node",
  "id": 6997377281,
  "lat": 40.9813762,
  "lon": -8.5848901
},
{
  "type": "node",
  "id": 6997377282,
  "lat": 40.9815463,
  "lon": -8.5844971
},
{
  "type": "node",
  "id": 6997377283,
  "lat": 40.9815676,
  "lon": -8.5843121
},
{
  "type": "node",
  "id": 6997377284,
  "lat": 40.9815787,
  "lon": -8.5840465
},
{
  "type": "node",
  "id": 6997377285,
  "lat": 40.9816111,
  "lon": -8.5839137
},
{
  "type": "node",
  "id": 6997377286,
  "lat": 40.9817680,
  "lon": -8.5837126
},
{
  "type": "node",
  "id": 6997377287,
  "lat": 40.9816921,
  "lon": -8.5844167
},
{
  "type": "node",
  "id": 6997377288,
  "lat": 40.9815372,
  "lon": -8.5851130
},
{
  "type": "node",
  "id": 6432503298,
  "lat": 40.9773325,
  "lon": -8.5712865
},
{
  "type": "node",
  "id": 6432503299,
  "lat": 40.9776265,
  "lon": -8.5708530
},
{
  "type": "node",
  "id": 6432503300,
  "lat": 40.9769643,
  "lon": -8.5711524
},
{
  "type": "node",
  "id": 6432503301,
  "lat": 40.9770687,
  "lon": -8.5706498
},
{
  "type": "node",
  "id": 6432503302,
  "lat": 40.9775614,
  "lon": -8.5713678
},
{
  "type": "node",
  "id": 6432503303,
  "lat": 40.9776706,
  "lon": -8.5708686
},
{
  "type": "node",
  "id": 6432503304,
  "lat": 40.9776535,
  "lon": -8.5709531
},
{
  "type": "node",
  "id": 6432503305,
  "lat": 40.9776252,
  "lon": -8.5710673
},
{
  "type": "node",
  "id": 6432503306,
  "lat": 40.9776041,
  "lon": -8.5711721
},
{
  "type": "node",
  "id": 6432503307,
  "lat": 40.9775781,
  "lon": -8.5712854
},
{
  "type": "node",
  "id": 6432503308,
  "lat": 40.9775531,
  "lon": -8.5712765
},
{
  "type": "node",
  "id": 6432503309,
  "lat": 40.9775762,
  "lon": -8.5711622
},
{
  "type": "node",
  "id": 6432503310,
  "lat": 40.9775934,
  "lon": -8.5710560
},
{
  "type": "node",
  "id": 6432503311,
  "lat": 40.9776168,
  "lon": -8.5709401
},
{
  "type": "node",
  "id": 3338179907,
  "lat": 41.1133130,
  "lon": -8.4856558
},
{
  "type": "node",
  "id": 3338179908,
  "lat": 41.1133413,
  "lon": -8.4856129
},
{
  "type": "node",
  "id": 3338179909,
  "lat": 41.1133171,
  "lon": -8.4855539
},
{
  "type": "node",
  "id": 3338179910,
  "lat": 41.1132079,
  "lon": -8.4856129
},
{
  "type": "node",
  "id": 3338179911,
  "lat": 41.1132322,
  "lon": -8.4856719
},
{
  "type": "node",
  "id": 1788787820,
  "lat": 41.1584015,
  "lon": -8.6593635
},
{
  "type": "node",
  "id": 1788787832,
  "lat": 41.1584928,
  "lon": -8.6591849
},
{
  "type": "node",
  "id": 1788787841,
  "lat": 41.1585677,
  "lon": -8.6595133
},
{
  "type": "node",
  "id": 1788787846,
  "lat": 41.1585838,
  "lon": -8.6590008
},
{
  "type": "node",
  "id": 1788787876,
  "lat": 41.1585897,
  "lon": -8.6594702
},
{
  "type": "node",
  "id": 1788787883,
  "lat": 41.1586125,
  "lon": -8.6590271
},
{
  "type": "node",
  "id": 1788787887,
  "lat": 41.1586436,
  "lon": -8.6592485
},
{
  "type": "node",
  "id": 1788787890,
  "lat": 41.1586502,
  "lon": -8.6592208
},
{
  "type": "node",
  "id": 1788787894,
  "lat": 41.1586655,
  "lon": -8.6588442
},
{
  "type": "node",
  "id": 1788787897,
  "lat": 41.1586664,
  "lon": -8.6589237
},
{
  "type": "node",
  "id": 1788787901,
  "lat": 41.1586818,
  "lon": -8.6590849
},
{
  "type": "node",
  "id": 1788787908,
  "lat": 41.1587099,
  "lon": -8.6592765
},
{
  "type": "node",
  "id": 1788787913,
  "lat": 41.1587159,
  "lon": -8.6589428
},
{
  "type": "node",
  "id": 1788787915,
  "lat": 41.1587356,
  "lon": -8.6589087
},
{
  "type": "node",
  "id": 1788787927,
  "lat": 41.1587919,
  "lon": -8.6591313
},
{
  "type": "node",
  "id": 1788787930,
  "lat": 41.1587940,
  "lon": -8.6591622
},
{
  "type": "node",
  "id": 1788787931,
  "lat": 41.1588288,
  "lon": -8.6593129
},
{
  "type": "node",
  "id": 1788787934,
  "lat": 41.1588365,
  "lon": -8.6593299
},
{
  "type": "node",
  "id": 1788787936,
  "lat": 41.1588494,
  "lon": -8.6591556
},
{
  "type": "node",
  "id": 1788787955,
  "lat": 41.1588625,
  "lon": -8.6591723
},
{
  "type": "node",
  "id": 1788787960,
  "lat": 41.1588756,
  "lon": -8.6591666
},
{
  "type": "node",
  "id": 1788787985,
  "lat": 41.1590929,
  "lon": -8.6596552
},
{
  "type": "node",
  "id": 1788787986,
  "lat": 41.1590991,
  "lon": -8.6596295
},
{
  "type": "node",
  "id": 1788787990,
  "lat": 41.1591089,
  "lon": -8.6596739
},
{
  "type": "node",
  "id": 1788787992,
  "lat": 41.1591117,
  "lon": -8.6596608
},
{
  "type": "node",
  "id": 1788787996,
  "lat": 41.1591387,
  "lon": -8.6590789
},
{
  "type": "node",
  "id": 1788788004,
  "lat": 41.1591409,
  "lon": -8.6590677
},
{
  "type": "node",
  "id": 1788788018,
  "lat": 41.1592359,
  "lon": -8.6597045
},
{
  "type": "node",
  "id": 1788788020,
  "lat": 41.1592475,
  "lon": -8.6596557
},
{
  "type": "node",
  "id": 1788788022,
  "lat": 41.1592598,
  "lon": -8.6596045
},
{
  "type": "node",
  "id": 1788788023,
  "lat": 41.1592909,
  "lon": -8.6594745
},
{
  "type": "node",
  "id": 1788788033,
  "lat": 41.1593099,
  "lon": -8.6593952
},
{
  "type": "node",
  "id": 1788788034,
  "lat": 41.1593187,
  "lon": -8.6594616
},
{
  "type": "node",
  "id": 1788788036,
  "lat": 41.1593269,
  "lon": -8.6594272
},
{
  "type": "node",
  "id": 1788788038,
  "lat": 41.1593322,
  "lon": -8.6593017
},
{
  "type": "node",
  "id": 1788788041,
  "lat": 41.1593415,
  "lon": -8.6592685
},
{
  "type": "node",
  "id": 1788788046,
  "lat": 41.1593527,
  "lon": -8.6593064
},
{
  "type": "node",
  "id": 1788788048,
  "lat": 41.1593581,
  "lon": -8.6596170
},
{
  "type": "node",
  "id": 1788788050,
  "lat": 41.1593614,
  "lon": -8.6591760
},
{
  "type": "node",
  "id": 1788788052,
  "lat": 41.1593664,
  "lon": -8.6592997
},
{
  "type": "node",
  "id": 1788788054,
  "lat": 41.1593686,
  "lon": -8.6591497
},
{
  "type": "node",
  "id": 1788788055,
  "lat": 41.1593801,
  "lon": -8.6593198
},
{
  "type": "node",
  "id": 1788788057,
  "lat": 41.1594054,
  "lon": -8.6593299
},
{
  "type": "node",
  "id": 1788788061,
  "lat": 41.1594151,
  "lon": -8.6594703
},
{
  "type": "node",
  "id": 1788788063,
  "lat": 41.1594574,
  "lon": -8.6593083
},
{
  "type": "node",
  "id": 1788788097,
  "lat": 41.1595173,
  "lon": -8.6596826
},
{
  "type": "node",
  "id": 1788788100,
  "lat": 41.1595183,
  "lon": -8.6597409
},
{
  "type": "node",
  "id": 1788788103,
  "lat": 41.1595252,
  "lon": -8.6597229
},
{
  "type": "node",
  "id": 1788788110,
  "lat": 41.1595385,
  "lon": -8.6597502
},
{
  "type": "node",
  "id": 1788788125,
  "lat": 41.1595551,
  "lon": -8.6597080
},
{
  "type": "node",
  "id": 1788788130,
  "lat": 41.1595782,
  "lon": -8.6595269
},
{
  "type": "node",
  "id": 1788788190,
  "lat": 41.1596865,
  "lon": -8.6593112
},
{
  "type": "node",
  "id": 5534776519,
  "lat": 41.1436249,
  "lon": -8.6470689
},
{
  "type": "node",
  "id": 5534776520,
  "lat": 41.1435159,
  "lon": -8.6471494
},
{
  "type": "node",
  "id": 5534776521,
  "lat": 41.1433654,
  "lon": -8.6468114
},
{
  "type": "node",
  "id": 5534776522,
  "lat": 41.1434763,
  "lon": -8.6467259
},
{
  "type": "node",
  "id": 5534776523,
  "lat": 41.1434324,
  "lon": -8.6467600
},
{
  "type": "node",
  "id": 5534776526,
  "lat": 41.1433967,
  "lon": -8.6467876
},
{
  "type": "node",
  "id": 2086445919,
  "lat": 41.1285991,
  "lon": -8.6118672
},
{
  "type": "node",
  "id": 2086445921,
  "lat": 41.1286957,
  "lon": -8.6118376
},
{
  "type": "node",
  "id": 2086445922,
  "lat": 41.1285431,
  "lon": -8.6115643
},
{
  "type": "node",
  "id": 2086445925,
  "lat": 41.1289613,
  "lon": -8.6121435
},
{
  "type": "node",
  "id": 5286658909,
  "lat": 41.1287609,
  "lon": -8.6121605
},
{
  "type": "node",
  "id": 2086445920,
  "lat": 41.1289017,
  "lon": -8.6112897
},
{
  "type": "node",
  "id": 2086445924,
  "lat": 41.1285449,
  "lon": -8.6113567
},
{
  "type": "node",
  "id": 2693754302,
  "lat": 41.1330886,
  "lon": -8.6074467
},
{
  "type": "node",
  "id": 2693754303,
  "lat": 41.1330412,
  "lon": -8.6077145
},
{
  "type": "node",
  "id": 2693754307,
  "lat": 41.1331671,
  "lon": -8.6074703
},
{
  "type": "node",
  "id": 4803582415,
  "lat": 41.1329637,
  "lon": -8.6081564
},
{
  "type": "node",
  "id": 4803582416,
  "lat": 41.1331218,
  "lon": -8.6082445
},
{
  "type": "node",
  "id": 4803582417,
  "lat": 41.1332956,
  "lon": -8.6075050
},
{
  "type": "node",
  "id": 4803582418,
  "lat": 41.1330519,
  "lon": -8.6076535
},
{
  "type": "node",
  "id": 4806324295,
  "lat": 41.1329900,
  "lon": -8.6081710
},
{
  "type": "node",
  "id": 4806324298,
  "lat": 41.1330682,
  "lon": -8.6082146
},
{
  "type": "node",
  "id": 4806324300,
  "lat": 41.1330982,
  "lon": -8.6082313
},
{
  "type": "node",
  "id": 4806324302,
  "lat": 41.1329905,
  "lon": -8.6080034
},
{
  "type": "node",
  "id": 4806324303,
  "lat": 41.1330183,
  "lon": -8.6078451
},
{
  "type": "node",
  "id": 4806324305,
  "lat": 41.1330377,
  "lon": -8.6077346
},
{
  "type": "node",
  "id": 2206516823,
  "lat": 41.1400185,
  "lon": -8.6152289
},
{
  "type": "node",
  "id": 2206516835,
  "lat": 41.1402089,
  "lon": -8.6152567
},
{
  "type": "node",
  "id": 2206516879,
  "lat": 41.1401211,
  "lon": -8.6153586
},
{
  "type": "node",
  "id": 2206516925,
  "lat": 41.1399983,
  "lon": -8.6153563
},
{
  "type": "node",
  "id": 2206516937,
  "lat": 41.1402211,
  "lon": -8.6153707
},
{
  "type": "node",
  "id": 2475153684,
  "lat": 41.1341416,
  "lon": -8.6140530
},
{
  "type": "node",
  "id": 2475153685,
  "lat": 41.1344451,
  "lon": -8.6141843
},
{
  "type": "node",
  "id": 2475153686,
  "lat": 41.1342744,
  "lon": -8.6141058
},
{
  "type": "node",
  "id": 2475153687,
  "lat": 41.1342561,
  "lon": -8.6142443
},
{
  "type": "node",
  "id": 2475153688,
  "lat": 41.1346428,
  "lon": -8.6142910
},
{
  "type": "node",
  "id": 2475153689,
  "lat": 41.1341118,
  "lon": -8.6144328
},
{
  "type": "node",
  "id": 2475153690,
  "lat": 41.1344060,
  "lon": -8.6142912
},
{
  "type": "node",
  "id": 2475153691,
  "lat": 41.1344697,
  "lon": -8.6145943
},
{
  "type": "node",
  "id": 1468089491,
  "lat": 41.1422115,
  "lon": -8.6207439
},
{
  "type": "node",
  "id": 1468089494,
  "lat": 41.1422598,
  "lon": -8.6206964
},
{
  "type": "node",
  "id": 1468089497,
  "lat": 41.1422835,
  "lon": -8.6207392
},
{
  "type": "node",
  "id": 1468089503,
  "lat": 41.1425444,
  "lon": -8.6204525
},
{
  "type": "node",
  "id": 1468089507,
  "lat": 41.1427299,
  "lon": -8.6212813
},
{
  "type": "node",
  "id": 1468089511,
  "lat": 41.1427283,
  "lon": -8.6215648
},
{
  "type": "node",
  "id": 1468089513,
  "lat": 41.1427984,
  "lon": -8.6212050
},
{
  "type": "node",
  "id": 1468089515,
  "lat": 41.1428358,
  "lon": -8.6214450
},
{
  "type": "node",
  "id": 1468089523,
  "lat": 41.1429066,
  "lon": -8.6213675
},
{
  "type": "node",
  "id": 1468089527,
  "lat": 41.1430293,
  "lon": -8.6212214
},
{
  "type": "node",
  "id": 2255558470,
  "lat": 41.1430106,
  "lon": -8.6198071
},
{
  "type": "node",
  "id": 2255558471,
  "lat": 41.1428853,
  "lon": -8.6195777
},
{
  "type": "node",
  "id": 2255558476,
  "lat": 41.1429783,
  "lon": -8.6195348
},
{
  "type": "node",
  "id": 2255558477,
  "lat": 41.1429944,
  "lon": -8.6197467
},
{
  "type": "node",
  "id": 2255558479,
  "lat": 41.1430560,
  "lon": -8.6197816
},
{
  "type": "node",
  "id": 2255558484,
  "lat": 41.1428504,
  "lon": -8.6194866
},
{
  "type": "node",
  "id": 2255558486,
  "lat": 41.1429439,
  "lon": -8.6197709
},
{
  "type": "node",
  "id": 2255558488,
  "lat": 41.1428611,
  "lon": -8.6195911
},
{
  "type": "node",
  "id": 2255558490,
  "lat": 41.1430257,
  "lon": -8.6196823
},
{
  "type": "node",
  "id": 2255558524,
  "lat": 41.1429560,
  "lon": -8.6195241
},
{
  "type": "node",
  "id": 2255558529,
  "lat": 41.1428292,
  "lon": -8.6194893
},
{
  "type": "node",
  "id": 2255558545,
  "lat": 41.1429459,
  "lon": -8.6195335
},
{
  "type": "node",
  "id": 2256254876,
  "lat": 41.1422211,
  "lon": -8.6207345
},
{
  "type": "node",
  "id": 2258180382,
  "lat": 41.1429122,
  "lon": -8.6210356
},
{
  "type": "node",
  "id": 6541145476,
  "lat": 41.1430350,
  "lon": -8.6197934
},
{
  "type": "node",
  "id": 2205504247,
  "lat": 41.1426517,
  "lon": -8.6115116
},
{
  "type": "node",
  "id": 2205504248,
  "lat": 41.1424147,
  "lon": -8.6115114
},
{
  "type": "node",
  "id": 2205504272,
  "lat": 41.1423635,
  "lon": -8.6115092
},
{
  "type": "node",
  "id": 2205504280,
  "lat": 41.1424509,
  "lon": -8.6116130
},
{
  "type": "node",
  "id": 2205504281,
  "lat": 41.1424513,
  "lon": -8.6115990
},
{
  "type": "node",
  "id": 2205504352,
  "lat": 41.1424127,
  "lon": -8.6115974
},
{
  "type": "node",
  "id": 2205504377,
  "lat": 41.1427025,
  "lon": -8.6115137
},
{
  "type": "node",
  "id": 2205504446,
  "lat": 41.1426491,
  "lon": -8.6116214
},
{
  "type": "node",
  "id": 2206364260,
  "lat": 41.1406089,
  "lon": -8.6143528
},
{
  "type": "node",
  "id": 2206364262,
  "lat": 41.1404675,
  "lon": -8.6144735
},
{
  "type": "node",
  "id": 2206364265,
  "lat": 41.1407220,
  "lon": -8.6139397
},
{
  "type": "node",
  "id": 2206364268,
  "lat": 41.1407129,
  "lon": -8.6140014
},
{
  "type": "node",
  "id": 2206364272,
  "lat": 41.1408214,
  "lon": -8.6139441
},
{
  "type": "node",
  "id": 2206364277,
  "lat": 41.1410272,
  "lon": -8.6143927
},
{
  "type": "node",
  "id": 2206364278,
  "lat": 41.1408083,
  "lon": -8.6140286
},
{
  "type": "node",
  "id": 2206364280,
  "lat": 41.1409442,
  "lon": -8.6141972
},
{
  "type": "node",
  "id": 2206364281,
  "lat": 41.1409634,
  "lon": -8.6140765
},
{
  "type": "node",
  "id": 2206364282,
  "lat": 41.1404948,
  "lon": -8.6143193
},
{
  "type": "node",
  "id": 2206364283,
  "lat": 41.1407806,
  "lon": -8.6139545
},
{
  "type": "node",
  "id": 2206364284,
  "lat": 41.1409230,
  "lon": -8.6143340
},
{
  "type": "node",
  "id": 2206364290,
  "lat": 41.1406881,
  "lon": -8.6139924
},
{
  "type": "node",
  "id": 2206364292,
  "lat": 41.1407840,
  "lon": -8.6139334
},
{
  "type": "node",
  "id": 2206364294,
  "lat": 41.1409447,
  "lon": -8.6146260
},
{
  "type": "node",
  "id": 2206371100,
  "lat": 41.1405064,
  "lon": -8.6143227
},
{
  "type": "node",
  "id": 2206371110,
  "lat": 41.1408160,
  "lon": -8.6139786
},
{
  "type": "node",
  "id": 2206371121,
  "lat": 41.1406822,
  "lon": -8.6140153
},
{
  "type": "node",
  "id": 2206371128,
  "lat": 41.1410728,
  "lon": -8.6142727
},
{
  "type": "node",
  "id": 2207290243,
  "lat": 41.1433196,
  "lon": -8.6142026
},
{
  "type": "node",
  "id": 2207615951,
  "lat": 41.1410381,
  "lon": -8.6155908
},
{
  "type": "node",
  "id": 2207615954,
  "lat": 41.1409065,
  "lon": -8.6154515
},
{
  "type": "node",
  "id": 2207615961,
  "lat": 41.1409163,
  "lon": -8.6154362
},
{
  "type": "node",
  "id": 2207615967,
  "lat": 41.1409004,
  "lon": -8.6157167
},
{
  "type": "node",
  "id": 2207615990,
  "lat": 41.1408961,
  "lon": -8.6155964
},
{
  "type": "node",
  "id": 2207616001,
  "lat": 41.1409373,
  "lon": -8.6154351
},
{
  "type": "node",
  "id": 2207616005,
  "lat": 41.1408343,
  "lon": -8.6155187
},
{
  "type": "node",
  "id": 2207616008,
  "lat": 41.1408365,
  "lon": -8.6155924
},
{
  "type": "node",
  "id": 2207616011,
  "lat": 41.1410183,
  "lon": -8.6153993
},
{
  "type": "node",
  "id": 2207616012,
  "lat": 41.1410507,
  "lon": -8.6160148
},
{
  "type": "node",
  "id": 2207616015,
  "lat": 41.1408749,
  "lon": -8.6155897
},
{
  "type": "node",
  "id": 2207616017,
  "lat": 41.1408759,
  "lon": -8.6155978
},
{
  "type": "node",
  "id": 2207616018,
  "lat": 41.1409123,
  "lon": -8.6160242
},
{
  "type": "node",
  "id": 2207616030,
  "lat": 41.1410032,
  "lon": -8.6153886
},
{
  "type": "node",
  "id": 2207616031,
  "lat": 41.1409071,
  "lon": -8.6154761
},
{
  "type": "node",
  "id": 2207616032,
  "lat": 41.1410274,
  "lon": -8.6154167
},
{
  "type": "node",
  "id": 2207616035,
  "lat": 41.1408721,
  "lon": -8.6154777
},
{
  "type": "node",
  "id": 2207616036,
  "lat": 41.1409870,
  "lon": -8.6153812
},
{
  "type": "node",
  "id": 2207616037,
  "lat": 41.1409513,
  "lon": -8.6153998
},
{
  "type": "node",
  "id": 2207616047,
  "lat": 41.1410604,
  "lon": -8.6154608
},
{
  "type": "node",
  "id": 2207616048,
  "lat": 41.1408735,
  "lon": -8.6155168
},
{
  "type": "node",
  "id": 2207616059,
  "lat": 41.1409407,
  "lon": -8.6154170
},
{
  "type": "node",
  "id": 2207616061,
  "lat": 41.1410304,
  "lon": -8.6154310
},
{
  "type": "node",
  "id": 2207616064,
  "lat": 41.1410993,
  "lon": -8.6155872
},
{
  "type": "node",
  "id": 2207616065,
  "lat": 41.1408638,
  "lon": -8.6157185
},
{
  "type": "node",
  "id": 2207616072,
  "lat": 41.1408655,
  "lon": -8.6157623
},
{
  "type": "node",
  "id": 2207616078,
  "lat": 41.1410594,
  "lon": -8.6154427
},
{
  "type": "node",
  "id": 2207616082,
  "lat": 41.1409658,
  "lon": -8.6153872
},
{
  "type": "node",
  "id": 2207616083,
  "lat": 41.1409012,
  "lon": -8.6157600
},
{
  "type": "node",
  "id": 2207616084,
  "lat": 41.1410921,
  "lon": -8.6154597
},
{
  "type": "node",
  "id": 2207616088,
  "lat": 41.1410498,
  "lon": -8.6154305
},
{
  "type": "node",
  "id": 2209437175,
  "lat": 41.1437072,
  "lon": -8.6148434
},
{
  "type": "node",
  "id": 2209437180,
  "lat": 41.1437003,
  "lon": -8.6148549
},
{
  "type": "node",
  "id": 2209437182,
  "lat": 41.1436924,
  "lon": -8.6147642
},
{
  "type": "node",
  "id": 2209437185,
  "lat": 41.1436872,
  "lon": -8.6148666
},
{
  "type": "node",
  "id": 2209437187,
  "lat": 41.1436850,
  "lon": -8.6150167
},
{
  "type": "node",
  "id": 2209437189,
  "lat": 41.1436373,
  "lon": -8.6148574
},
{
  "type": "node",
  "id": 2209437196,
  "lat": 41.1437134,
  "lon": -8.6148095
},
{
  "type": "node",
  "id": 2209437199,
  "lat": 41.1436231,
  "lon": -8.6148811
},
{
  "type": "node",
  "id": 2209437200,
  "lat": 41.1439115,
  "lon": -8.6149724
},
{
  "type": "node",
  "id": 2209437201,
  "lat": 41.1434811,
  "lon": -8.6145227
},
{
  "type": "node",
  "id": 2209437209,
  "lat": 41.1437251,
  "lon": -8.6150839
},
{
  "type": "node",
  "id": 2209437222,
  "lat": 41.1436633,
  "lon": -8.6148709
},
{
  "type": "node",
  "id": 2209437224,
  "lat": 41.1438927,
  "lon": -8.6146166
},
{
  "type": "node",
  "id": 2209437226,
  "lat": 41.1437054,
  "lon": -8.6147793
},
{
  "type": "node",
  "id": 2209437242,
  "lat": 41.1437061,
  "lon": -8.6147409
},
{
  "type": "node",
  "id": 2209437244,
  "lat": 41.1436280,
  "lon": -8.6142608
},
{
  "type": "node",
  "id": 2209437246,
  "lat": 41.1436532,
  "lon": -8.6148674
},
{
  "type": "node",
  "id": 2209437277,
  "lat": 41.1437127,
  "lon": -8.6148246
},
{
  "type": "node",
  "id": 2209437313,
  "lat": 41.1440161,
  "lon": -8.6148391
},
{
  "type": "node",
  "id": 2209437323,
  "lat": 41.1438326,
  "lon": -8.6145163
},
{
  "type": "node",
  "id": 2209437325,
  "lat": 41.1436786,
  "lon": -8.6148703
},
{
  "type": "node",
  "id": 2209437327,
  "lat": 41.1437993,
  "lon": -8.6150448
},
{
  "type": "node",
  "id": 2209437328,
  "lat": 41.1437103,
  "lon": -8.6147912
},
{
  "type": "node",
  "id": 2209824637,
  "lat": 41.1439715,
  "lon": -8.6147554
},
{
  "type": "node",
  "id": 2209833345,
  "lat": 41.1436635,
  "lon": -8.6149808
},
{
  "type": "node",
  "id": 2211420424,
  "lat": 41.1449046,
  "lon": -8.6156653
},
{
  "type": "node",
  "id": 2211420433,
  "lat": 41.1448839,
  "lon": -8.6155305
},
{
  "type": "node",
  "id": 2213391807,
  "lat": 41.1447750,
  "lon": -8.6159017
},
{
  "type": "node",
  "id": 2213391808,
  "lat": 41.1447852,
  "lon": -8.6159108
},
{
  "type": "node",
  "id": 2213391811,
  "lat": 41.1445083,
  "lon": -8.6163926
},
{
  "type": "node",
  "id": 2213391814,
  "lat": 41.1446966,
  "lon": -8.6160763
},
{
  "type": "node",
  "id": 2213391815,
  "lat": 41.1445184,
  "lon": -8.6163912
},
{
  "type": "node",
  "id": 2213391817,
  "lat": 41.1444980,
  "lon": -8.6163789
},
{
  "type": "node",
  "id": 2213407886,
  "lat": 41.1448927,
  "lon": -8.6156870
},
{
  "type": "node",
  "id": 2213407895,
  "lat": 41.1445293,
  "lon": -8.6163712
},
{
  "type": "node",
  "id": 2268386110,
  "lat": 41.1407994,
  "lon": -8.6143357
},
{
  "type": "node",
  "id": 2268386112,
  "lat": 41.1407110,
  "lon": -8.6143925
},
{
  "type": "node",
  "id": 2268386116,
  "lat": 41.1407868,
  "lon": -8.6144140
},
{
  "type": "node",
  "id": 2268386118,
  "lat": 41.1407235,
  "lon": -8.6143142
},
{
  "type": "node",
  "id": 2270472893,
  "lat": 41.1444916,
  "lon": -8.6159129
},
{
  "type": "node",
  "id": 2270472895,
  "lat": 41.1446128,
  "lon": -8.6159692
},
{
  "type": "node",
  "id": 2270472897,
  "lat": 41.1443387,
  "lon": -8.6156764
},
{
  "type": "node",
  "id": 2270472900,
  "lat": 41.1446861,
  "lon": -8.6160680
},
{
  "type": "node",
  "id": 2270472902,
  "lat": 41.1445957,
  "lon": -8.6158579
},
{
  "type": "node",
  "id": 2270472903,
  "lat": 41.1443305,
  "lon": -8.6156887
},
{
  "type": "node",
  "id": 2270472905,
  "lat": 41.1445149,
  "lon": -8.6158793
},
{
  "type": "node",
  "id": 2270472907,
  "lat": 41.1445027,
  "lon": -8.6159853
},
{
  "type": "node",
  "id": 2270472909,
  "lat": 41.1445411,
  "lon": -8.6159933
},
{
  "type": "node",
  "id": 2353800550,
  "lat": 41.1409569,
  "lon": -8.6141174
},
{
  "type": "node",
  "id": 2356632415,
  "lat": 41.1434953,
  "lon": -8.6143432
},
{
  "type": "node",
  "id": 2356632417,
  "lat": 41.1433497,
  "lon": -8.6141593
},
{
  "type": "node",
  "id": 2356632420,
  "lat": 41.1434581,
  "lon": -8.6143997
},
{
  "type": "node",
  "id": 2468322965,
  "lat": 41.1404775,
  "lon": -8.6144171
},
{
  "type": "node",
  "id": 3457190282,
  "lat": 41.1433410,
  "lon": -8.6141718
},
{
  "type": "node",
  "id": 4927241188,
  "lat": 41.1408985,
  "lon": -8.6156633
},
{
  "type": "node",
  "id": 6304126784,
  "lat": 41.1425378,
  "lon": -8.6116167
},
{
  "type": "node",
  "id": 6541145473,
  "lat": 41.1435543,
  "lon": -8.6143922
},
{
  "type": "node",
  "id": 6541145479,
  "lat": 41.1410224,
  "lon": -8.6160167
},
{
  "type": "node",
  "id": 6541146305,
  "lat": 41.1406929,
  "lon": -8.6145455
},
{
  "type": "node",
  "id": 6571265141,
  "lat": 41.1425949,
  "lon": -8.6116191
},
{
  "type": "node",
  "id": 6571265142,
  "lat": 41.1424809,
  "lon": -8.6116143
},
{
  "type": "node",
  "id": 2205079763,
  "lat": 41.1426884,
  "lon": -8.6105784
},
{
  "type": "node",
  "id": 2205079766,
  "lat": 41.1426983,
  "lon": -8.6107701
},
{
  "type": "node",
  "id": 2205504237,
  "lat": 41.1426353,
  "lon": -8.6111639
},
{
  "type": "node",
  "id": 2205504244,
  "lat": 41.1427152,
  "lon": -8.6107926
},
{
  "type": "node",
  "id": 2205504246,
  "lat": 41.1424846,
  "lon": -8.6108826
},
{
  "type": "node",
  "id": 2205504249,
  "lat": 41.1424127,
  "lon": -8.6106449
},
{
  "type": "node",
  "id": 2205504258,
  "lat": 41.1424008,
  "lon": -8.6106684
},
{
  "type": "node",
  "id": 2205504265,
  "lat": 41.1425000,
  "lon": -8.6108891
},
{
  "type": "node",
  "id": 2205504283,
  "lat": 41.1424737,
  "lon": -8.6111570
},
{
  "type": "node",
  "id": 2205504285,
  "lat": 41.1424582,
  "lon": -8.6111564
},
{
  "type": "node",
  "id": 2205504296,
  "lat": 41.1427142,
  "lon": -8.6108272
},
{
  "type": "node",
  "id": 2205504304,
  "lat": 41.1423039,
  "lon": -8.6106935
},
{
  "type": "node",
  "id": 2205504305,
  "lat": 41.1424847,
  "lon": -8.6108928
},
{
  "type": "node",
  "id": 2205504310,
  "lat": 41.1423387,
  "lon": -8.6106776
},
{
  "type": "node",
  "id": 2205504312,
  "lat": 41.1426813,
  "lon": -8.6108429
},
{
  "type": "node",
  "id": 2205504347,
  "lat": 41.1426450,
  "lon": -8.6105521
},
{
  "type": "node",
  "id": 2205504350,
  "lat": 41.1422554,
  "lon": -8.6107198
},
{
  "type": "node",
  "id": 2205504354,
  "lat": 41.1423579,
  "lon": -8.6106862
},
{
  "type": "node",
  "id": 2205504362,
  "lat": 41.1426478,
  "lon": -8.6105862
},
{
  "type": "node",
  "id": 2205504364,
  "lat": 41.1424460,
  "lon": -8.6106312
},
{
  "type": "node",
  "id": 2205504384,
  "lat": 41.1423824,
  "lon": -8.6111211
},
{
  "type": "node",
  "id": 2205504394,
  "lat": 41.1425410,
  "lon": -8.6108968
},
{
  "type": "node",
  "id": 2205504405,
  "lat": 41.1427105,
  "lon": -8.6111837
},
{
  "type": "node",
  "id": 2205504410,
  "lat": 41.1423152,
  "lon": -8.6108873
},
{
  "type": "node",
  "id": 2205504437,
  "lat": 41.1426349,
  "lon": -8.6111805
},
{
  "type": "node",
  "id": 2205504441,
  "lat": 41.1422251,
  "lon": -8.6107406
},
{
  "type": "node",
  "id": 2205504444,
  "lat": 41.1423710,
  "lon": -8.6112004
},
{
  "type": "node",
  "id": 2205627336,
  "lat": 41.1423702,
  "lon": -8.6112324
},
{
  "type": "node",
  "id": 2205918394,
  "lat": 41.1422046,
  "lon": -8.6109987
},
{
  "type": "node",
  "id": 2205918397,
  "lat": 41.1422843,
  "lon": -8.6110337
},
{
  "type": "node",
  "id": 2268308150,
  "lat": 41.1423800,
  "lon": -8.6106770
},
{
  "type": "node",
  "id": 2466262447,
  "lat": 41.1424590,
  "lon": -8.6111243
},
{
  "type": "node",
  "id": 2466262448,
  "lat": 41.1426494,
  "lon": -8.6114283
},
{
  "type": "node",
  "id": 2466262449,
  "lat": 41.1423805,
  "lon": -8.6112008
},
{
  "type": "node",
  "id": 2466262450,
  "lat": 41.1425138,
  "lon": -8.6112416
},
{
  "type": "node",
  "id": 2466262451,
  "lat": 41.1425115,
  "lon": -8.6114253
},
{
  "type": "node",
  "id": 2466262452,
  "lat": 41.1426517,
  "lon": -8.6112446
},
{
  "type": "node",
  "id": 2466269903,
  "lat": 41.1427061,
  "lon": -8.6107827
},
{
  "type": "node",
  "id": 2466273756,
  "lat": 41.1426683,
  "lon": -8.6105819
},
{
  "type": "node",
  "id": 2468364184,
  "lat": 41.1424099,
  "lon": -8.6106579
},
{
  "type": "node",
  "id": 2468364186,
  "lat": 41.1423473,
  "lon": -8.6106858
},
{
  "type": "node",
  "id": 6549945408,
  "lat": 41.1424989,
  "lon": -8.6108829
},
{
  "type": "node",
  "id": 6549945415,
  "lat": 41.1421740,
  "lon": -8.6107842
},
{
  "type": "node",
  "id": 6549945423,
  "lat": 41.1423644,
  "lon": -8.6106836
},
{
  "type": "node",
  "id": 6549945424,
  "lat": 41.1423952,
  "lon": -8.6106708
},
{
  "type": "node",
  "id": 6549945427,
  "lat": 41.1423407,
  "lon": -8.6106795
},
{
  "type": "node",
  "id": 6571265132,
  "lat": 41.1422992,
  "lon": -8.6109632
},
{
  "type": "node",
  "id": 6571265137,
  "lat": 41.1421601,
  "lon": -8.6107961
},
{
  "type": "node",
  "id": 6571265138,
  "lat": 41.1422152,
  "lon": -8.6108736
},
{
  "type": "node",
  "id": 6571265139,
  "lat": 41.1422271,
  "lon": -8.6109286
},
{
  "type": "node",
  "id": 1788786394,
  "lat": 41.1534326,
  "lon": -8.6424750
},
{
  "type": "node",
  "id": 1788786401,
  "lat": 41.1535282,
  "lon": -8.6428109
},
{
  "type": "node",
  "id": 1788786409,
  "lat": 41.1536832,
  "lon": -8.6423493
},
{
  "type": "node",
  "id": 1788786417,
  "lat": 41.1537787,
  "lon": -8.6426852
},
{
  "type": "node",
  "id": 4747717460,
  "lat": 41.1537406,
  "lon": -8.6425512
},
{
  "type": "node",
  "id": 4747717462,
  "lat": 41.1537194,
  "lon": -8.6424765
},
{
  "type": "node",
  "id": 4747717468,
  "lat": 41.1537301,
  "lon": -8.6425157
},
{
  "type": "node",
  "id": 1788785470,
  "lat": 41.1474655,
  "lon": -8.6325503
},
{
  "type": "node",
  "id": 1788785600,
  "lat": 41.1483694,
  "lon": -8.6317999
},
{
  "type": "node",
  "id": 1788785645,
  "lat": 41.1485843,
  "lon": -8.6323095
},
{
  "type": "node",
  "id": 3396198395,
  "lat": 41.1472592,
  "lon": -8.6327571
},
{
  "type": "node",
  "id": 3396198396,
  "lat": 41.1472614,
  "lon": -8.6327255
},
{
  "type": "node",
  "id": 3396198397,
  "lat": 41.1473314,
  "lon": -8.6328966
},
{
  "type": "node",
  "id": 3396198400,
  "lat": 41.1473528,
  "lon": -8.6329380
},
{
  "type": "node",
  "id": 3396198401,
  "lat": 41.1473555,
  "lon": -8.6329432
},
{
  "type": "node",
  "id": 3396198414,
  "lat": 41.1474297,
  "lon": -8.6330865
},
{
  "type": "node",
  "id": 3396198415,
  "lat": 41.1474320,
  "lon": -8.6330910
},
{
  "type": "node",
  "id": 3396198441,
  "lat": 41.1476535,
  "lon": -8.6335190
},
{
  "type": "node",
  "id": 3396198449,
  "lat": 41.1479381,
  "lon": -8.6332366
},
{
  "type": "node",
  "id": 3396198455,
  "lat": 41.1480201,
  "lon": -8.6330689
},
{
  "type": "node",
  "id": 3396198459,
  "lat": 41.1481375,
  "lon": -8.6329778
},
{
  "type": "node",
  "id": 3396198484,
  "lat": 41.1484958,
  "lon": -8.6320997
},
{
  "type": "node",
  "id": 3396198601,
  "lat": 41.1487799,
  "lon": -8.6327674
},
{
  "type": "node",
  "id": 2614650594,
  "lat": 41.1477995,
  "lon": -8.6282104
},
{
  "type": "node",
  "id": 2614650597,
  "lat": 41.1476062,
  "lon": -8.6283632
},
{
  "type": "node",
  "id": 2614650605,
  "lat": 41.1477043,
  "lon": -8.6282857
},
{
  "type": "node",
  "id": 2614650609,
  "lat": 41.1476458,
  "lon": -8.6285455
},
{
  "type": "node",
  "id": 2614650611,
  "lat": 41.1476660,
  "lon": -8.6284061
},
{
  "type": "node",
  "id": 2614650615,
  "lat": 41.1475622,
  "lon": -8.6286617
},
{
  "type": "node",
  "id": 2614650625,
  "lat": 41.1474438,
  "lon": -8.6284919
},
{
  "type": "node",
  "id": 2614650631,
  "lat": 41.1476353,
  "lon": -8.6283402
},
{
  "type": "node",
  "id": 2614650639,
  "lat": 41.1476033,
  "lon": -8.6286297
},
{
  "type": "node",
  "id": 2614650644,
  "lat": 41.1477611,
  "lon": -8.6284411
},
{
  "type": "node",
  "id": 2614650646,
  "lat": 41.1477732,
  "lon": -8.6283660
},
{
  "type": "node",
  "id": 2614650650,
  "lat": 41.1475389,
  "lon": -8.6286798
},
{
  "type": "node",
  "id": 2614650651,
  "lat": 41.1477349,
  "lon": -8.6283525
},
{
  "type": "node",
  "id": 2614650656,
  "lat": 41.1477328,
  "lon": -8.6284813
},
{
  "type": "node",
  "id": 2617025419,
  "lat": 41.1476178,
  "lon": -8.6286636
},
{
  "type": "node",
  "id": 2617025421,
  "lat": 41.1480359,
  "lon": -8.6292108
},
{
  "type": "node",
  "id": 2617025422,
  "lat": 41.1478079,
  "lon": -8.6283022
},
{
  "type": "node",
  "id": 2617025424,
  "lat": 41.1482641,
  "lon": -8.6291357
},
{
  "type": "node",
  "id": 2617025425,
  "lat": 41.1478986,
  "lon": -8.6280469
},
{
  "type": "node",
  "id": 2617025426,
  "lat": 41.1487387,
  "lon": -8.6280013
},
{
  "type": "node",
  "id": 2617025429,
  "lat": 41.1485771,
  "lon": -8.6280871
},
{
  "type": "node",
  "id": 2617025430,
  "lat": 41.1479915,
  "lon": -8.6292457
},
{
  "type": "node",
  "id": 2617025432,
  "lat": 41.1486438,
  "lon": -8.6279986
},
{
  "type": "node",
  "id": 2617025433,
  "lat": 41.1477612,
  "lon": -8.6285000
},
{
  "type": "node",
  "id": 2617025435,
  "lat": 41.1479255,
  "lon": -8.6280276
},
{
  "type": "node",
  "id": 2617025437,
  "lat": 41.1477552,
  "lon": -8.6290740
},
{
  "type": "node",
  "id": 2617025439,
  "lat": 41.1478380,
  "lon": -8.6293100
},
{
  "type": "node",
  "id": 2617025441,
  "lat": 41.1477936,
  "lon": -8.6284249
},
{
  "type": "node",
  "id": 2617025443,
  "lat": 41.1476764,
  "lon": -8.6289801
},
{
  "type": "node",
  "id": 2617025445,
  "lat": 41.1484075,
  "lon": -8.6271644
},
{
  "type": "node",
  "id": 2617025448,
  "lat": 41.1480251,
  "lon": -8.6273154
},
{
  "type": "node",
  "id": 2617025450,
  "lat": 41.1475997,
  "lon": -8.6286985
},
{
  "type": "node",
  "id": 2617025452,
  "lat": 41.1476030,
  "lon": -8.6287987
},
{
  "type": "node",
  "id": 2617025456,
  "lat": 41.1475936,
  "lon": -8.6287280
},
{
  "type": "node",
  "id": 2617025457,
  "lat": 41.1475956,
  "lon": -8.6287602
},
{
  "type": "node",
  "id": 2617025458,
  "lat": 41.1476058,
  "lon": -8.6288161
},
{
  "type": "node",
  "id": 2617025459,
  "lat": 41.1480844,
  "lon": -8.6291840
},
{
  "type": "node",
  "id": 2617025460,
  "lat": 41.1485673,
  "lon": -8.6283027
},
{
  "type": "node",
  "id": 2617025461,
  "lat": 41.1481402,
  "lon": -8.6271733
},
{
  "type": "node",
  "id": 2617025462,
  "lat": 41.1480480,
  "lon": -8.6272610
},
{
  "type": "node",
  "id": 2617025463,
  "lat": 41.1485626,
  "lon": -8.6281477
},
{
  "type": "node",
  "id": 2617025464,
  "lat": 41.1477313,
  "lon": -8.6290556
},
{
  "type": "node",
  "id": 2617025465,
  "lat": 41.1480938,
  "lon": -8.6272108
},
{
  "type": "node",
  "id": 2617025467,
  "lat": 41.1479511,
  "lon": -8.6280093
},
{
  "type": "node",
  "id": 2617025468,
  "lat": 41.1485596,
  "lon": -8.6282330
},
{
  "type": "node",
  "id": 2617025470,
  "lat": 41.1486902,
  "lon": -8.6279905
},
{
  "type": "node",
  "id": 2617025472,
  "lat": 41.1477047,
  "lon": -8.6290284
},
{
  "type": "node",
  "id": 2617025475,
  "lat": 41.1484196,
  "lon": -8.6289587
},
{
  "type": "node",
  "id": 2617025477,
  "lat": 41.1484741,
  "lon": -8.6275694
},
{
  "type": "node",
  "id": 2617025478,
  "lat": 41.1479430,
  "lon": -8.6293047
},
{
  "type": "node",
  "id": 2617025479,
  "lat": 41.1478562,
  "lon": -8.6293315
},
{
  "type": "node",
  "id": 2617025480,
  "lat": 41.1483246,
  "lon": -8.6291008
},
{
  "type": "node",
  "id": 2617025481,
  "lat": 41.1476421,
  "lon": -8.6288970
},
{
  "type": "node",
  "id": 2617025482,
  "lat": 41.1486135,
  "lon": -8.6280254
},
{
  "type": "node",
  "id": 2617025483,
  "lat": 41.1482964,
  "lon": -8.6291223
},
{
  "type": "node",
  "id": 2617025484,
  "lat": 41.1476481,
  "lon": -8.6286234
},
{
  "type": "node",
  "id": 2617025485,
  "lat": 41.1483832,
  "lon": -8.6289399
},
{
  "type": "node",
  "id": 2617025486,
  "lat": 41.1487912,
  "lon": -8.6279047
},
{
  "type": "node",
  "id": 2617025487,
  "lat": 41.1478925,
  "lon": -8.6293315
},
{
  "type": "node",
  "id": 2617056447,
  "lat": 41.1477241,
  "lon": -8.6290429
},
{
  "type": "node",
  "id": 2618416521,
  "lat": 41.1480569,
  "lon": -8.6291992
},
{
  "type": "node",
  "id": 2618460065,
  "lat": 41.1485305,
  "lon": -8.6276291
},
{
  "type": "node",
  "id": 2618460066,
  "lat": 41.1484510,
  "lon": -8.6274288
},
{
  "type": "node",
  "id": 2618460084,
  "lat": 41.1484235,
  "lon": -8.6272622
},
{
  "type": "node",
  "id": 2618460087,
  "lat": 41.1484696,
  "lon": -8.6275419
},
{
  "type": "node",
  "id": 2618460100,
  "lat": 41.1484395,
  "lon": -8.6273594
},
{
  "type": "node",
  "id": 2618479670,
  "lat": 41.1486858,
  "lon": -8.6277959
},
{
  "type": "node",
  "id": 2618479733,
  "lat": 41.1486992,
  "lon": -8.6278103
},
{
  "type": "node",
  "id": 2619226162,
  "lat": 41.1484761,
  "lon": -8.6288233
},
{
  "type": "node",
  "id": 2619226182,
  "lat": 41.1486186,
  "lon": -8.6284820
},
{
  "type": "node",
  "id": 2619237949,
  "lat": 41.1483631,
  "lon": -8.6289950
},
{
  "type": "node",
  "id": 5824175628,
  "lat": 41.1485105,
  "lon": -8.6287410
},
{
  "type": "node",
  "id": 5824175634,
  "lat": 41.1486287,
  "lon": -8.6284578
},
{
  "type": "node",
  "id": 5824175639,
  "lat": 41.1486458,
  "lon": -8.6284169
},
{
  "type": "node",
  "id": 5824175643,
  "lat": 41.1486052,
  "lon": -8.6283702
},
{
  "type": "node",
  "id": 2415856301,
  "lat": 41.1483780,
  "lon": -8.6215393
},
{
  "type": "node",
  "id": 2415856304,
  "lat": 41.1483285,
  "lon": -8.6212161
},
{
  "type": "node",
  "id": 2415856326,
  "lat": 41.1482427,
  "lon": -8.6211343
},
{
  "type": "node",
  "id": 2415856328,
  "lat": 41.1476669,
  "lon": -8.6218167
},
{
  "type": "node",
  "id": 2415856343,
  "lat": 41.1475864,
  "lon": -8.6212745
},
{
  "type": "node",
  "id": 2415860171,
  "lat": 41.1483164,
  "lon": -8.6211195
},
{
  "type": "node",
  "id": 2415860173,
  "lat": 41.1483922,
  "lon": -8.6216412
},
{
  "type": "node",
  "id": 2415870050,
  "lat": 41.1483762,
  "lon": -8.6215272
},
{
  "type": "node",
  "id": 2415878342,
  "lat": 41.1483122,
  "lon": -8.6216588
},
{
  "type": "node",
  "id": 2415878344,
  "lat": 41.1480114,
  "lon": -8.6217324
},
{
  "type": "node",
  "id": 2415878345,
  "lat": 41.1483215,
  "lon": -8.6211602
},
{
  "type": "node",
  "id": 2415878383,
  "lat": 41.1482374,
  "lon": -8.6216771
},
{
  "type": "node",
  "id": 2415878399,
  "lat": 41.1478235,
  "lon": -8.6217784
},
{
  "type": "node",
  "id": 2415892298,
  "lat": 41.1483366,
  "lon": -8.6212700
},
{
  "type": "node",
  "id": 2668979385,
  "lat": 41.1476670,
  "lon": -8.6218167
},
{
  "type": "node",
  "id": 2203971051,
  "lat": 41.1481045,
  "lon": -8.6106823
},
{
  "type": "node",
  "id": 2203972719,
  "lat": 41.1478932,
  "lon": -8.6107621
},
{
  "type": "node",
  "id": 2203972720,
  "lat": 41.1479173,
  "lon": -8.6107521
},
{
  "type": "node",
  "id": 2203972721,
  "lat": 41.1477787,
  "lon": -8.6102699
},
{
  "type": "node",
  "id": 2203972723,
  "lat": 41.1480084,
  "lon": -8.6101871
},
{
  "type": "node",
  "id": 2203972725,
  "lat": 41.1478592,
  "lon": -8.6107229
},
{
  "type": "node",
  "id": 2203972733,
  "lat": 41.1478724,
  "lon": -8.6107517
},
{
  "type": "node",
  "id": 2203974023,
  "lat": 41.1479741,
  "lon": -8.6101992
},
{
  "type": "node",
  "id": 2343272601,
  "lat": 41.1479164,
  "lon": -8.6106433
},
{
  "type": "node",
  "id": 2343272602,
  "lat": 41.1480184,
  "lon": -8.6106219
},
{
  "type": "node",
  "id": 2343272603,
  "lat": 41.1478942,
  "lon": -8.6105307
},
{
  "type": "node",
  "id": 2343272604,
  "lat": 41.1479881,
  "lon": -8.6104730
},
{
  "type": "node",
  "id": 2343272605,
  "lat": 41.1479013,
  "lon": -8.6105038
},
{
  "type": "node",
  "id": 2343272606,
  "lat": 41.1480072,
  "lon": -8.6104879
},
{
  "type": "node",
  "id": 2343272611,
  "lat": 41.1480285,
  "lon": -8.6105964
},
{
  "type": "node",
  "id": 2343272612,
  "lat": 41.1479336,
  "lon": -8.6106540
},
{
  "type": "node",
  "id": 3978206482,
  "lat": 41.1478809,
  "lon": -8.6107584
},
{
  "type": "node",
  "id": 3978206483,
  "lat": 41.1478640,
  "lon": -8.6107392
},
{
  "type": "node",
  "id": 3978206487,
  "lat": 41.1478590,
  "lon": -8.6107061
},
{
  "type": "node",
  "id": 3996435893,
  "lat": 41.1480679,
  "lon": -8.6104951
},
{
  "type": "node",
  "id": 5268162908,
  "lat": 41.1563953,
  "lon": -8.6062700
},
{
  "type": "node",
  "id": 5268162909,
  "lat": 41.1567381,
  "lon": -8.6060891
},
{
  "type": "node",
  "id": 5268162910,
  "lat": 41.1566494,
  "lon": -8.6058329
},
{
  "type": "node",
  "id": 5268162911,
  "lat": 41.1566142,
  "lon": -8.6058492
},
{
  "type": "node",
  "id": 5268162912,
  "lat": 41.1566050,
  "lon": -8.6058086
},
{
  "type": "node",
  "id": 5268162913,
  "lat": 41.1567060,
  "lon": -8.6057476
},
{
  "type": "node",
  "id": 5268162914,
  "lat": 41.1566555,
  "lon": -8.6056256
},
{
  "type": "node",
  "id": 5268162915,
  "lat": 41.1563571,
  "lon": -8.6057659
},
{
  "type": "node",
  "id": 5268162916,
  "lat": 41.1564106,
  "lon": -8.6059468
},
{
  "type": "node",
  "id": 5268162917,
  "lat": 41.1563066,
  "lon": -8.6060037
},
{
  "type": "node",
  "id": 6165572010,
  "lat": 41.1929445,
  "lon": -8.6911781
},
{
  "type": "node",
  "id": 6165572011,
  "lat": 41.1927773,
  "lon": -8.6911125
},
{
  "type": "node",
  "id": 6165572012,
  "lat": 41.1928899,
  "lon": -8.6914079
},
{
  "type": "node",
  "id": 6165572013,
  "lat": 41.1927230,
  "lon": -8.6913433
},
{
  "type": "node",
  "id": 5586151340,
  "lat": 41.1913819,
  "lon": -8.6532730
},
{
  "type": "node",
  "id": 5586151341,
  "lat": 41.1913271,
  "lon": -8.6532036
},
{
  "type": "node",
  "id": 5586151342,
  "lat": 41.1911778,
  "lon": -8.6534119
},
{
  "type": "node",
  "id": 5586151343,
  "lat": 41.1912326,
  "lon": -8.6534812
},
{
  "type": "node",
  "id": 5851919212,
  "lat": 41.2820293,
  "lon": -8.7311081
},
{
  "type": "node",
  "id": 5851919213,
  "lat": 41.2821473,
  "lon": -8.7310593
},
{
  "type": "node",
  "id": 5851919214,
  "lat": 41.2820976,
  "lon": -8.7310387
},
{
  "type": "node",
  "id": 5851919215,
  "lat": 41.2820399,
  "lon": -8.7310632
},
{
  "type": "node",
  "id": 5851919216,
  "lat": 41.2821264,
  "lon": -8.7311484
},
{
  "type": "node",
  "id": 5851919217,
  "lat": 41.2819140,
  "lon": -8.7310110
},
{
  "type": "node",
  "id": 5851919218,
  "lat": 41.2819365,
  "lon": -8.7309146
},
{
  "type": "node",
  "id": 5851919219,
  "lat": 41.2821099,
  "lon": -8.7309865
},
{
  "type": "node",
  "id": 2643005466,
  "lat": 41.2848723,
  "lon": -8.6818705
},
{
  "type": "node",
  "id": 2643005467,
  "lat": 41.2844572,
  "lon": -8.6813985
},
{
  "type": "node",
  "id": 2643005468,
  "lat": 41.2844692,
  "lon": -8.6823024
},
{
  "type": "node",
  "id": 2643005469,
  "lat": 41.2846285,
  "lon": -8.6822353
},
{
  "type": "node",
  "id": 137897927,
  "lat": 41.1456653,
  "lon": -8.5952991
},
{
  "type": "node",
  "id": 4466579755,
  "lat": 41.1459575,
  "lon": -8.5953741
},
{
  "type": "node",
  "id": 4466579756,
  "lat": 41.1455098,
  "lon": -8.5951392
},
{
  "type": "node",
  "id": 4466579757,
  "lat": 41.1452037,
  "lon": -8.5948221
},
{
  "type": "node",
  "id": 4466579759,
  "lat": 41.1456389,
  "lon": -8.5948042
},
{
  "type": "node",
  "id": 4466579760,
  "lat": 41.1456297,
  "lon": -8.5948234
},
{
  "type": "node",
  "id": 4466579761,
  "lat": 41.1457430,
  "lon": -8.5949402
},
{
  "type": "node",
  "id": 4466579762,
  "lat": 41.1459825,
  "lon": -8.5950256
},
{
  "type": "node",
  "id": 4466579763,
  "lat": 41.1457797,
  "lon": -8.5953284
},
{
  "type": "node",
  "id": 4466579770,
  "lat": 41.1459917,
  "lon": -8.5951807
},
{
  "type": "node",
  "id": 4466579785,
  "lat": 41.1452905,
  "lon": -8.5949165
},
{
  "type": "node",
  "id": 4466580289,
  "lat": 41.1454642,
  "lon": -8.5946393
},
{
  "type": "node",
  "id": 4466580293,
  "lat": 41.1453550,
  "lon": -8.5949820
},
{
  "type": "node",
  "id": 4466580299,
  "lat": 41.1456851,
  "lon": -8.5953042
},
{
  "type": "node",
  "id": 4466606444,
  "lat": 41.1452557,
  "lon": -8.5947377
},
{
  "type": "node",
  "id": 4466606447,
  "lat": 41.1453136,
  "lon": -8.5946415
},
{
  "type": "node",
  "id": 4466606450,
  "lat": 41.1453682,
  "lon": -8.5945507
},
{
  "type": "node",
  "id": 5264201941,
  "lat": 41.1497064,
  "lon": -8.5940298
},
{
  "type": "node",
  "id": 5264201942,
  "lat": 41.1492717,
  "lon": -8.5938427
},
{
  "type": "node",
  "id": 5264201943,
  "lat": 41.1492970,
  "lon": -8.5937319
},
{
  "type": "node",
  "id": 5264201944,
  "lat": 41.1497332,
  "lon": -8.5938762
},
{
  "type": "node",
  "id": 5264201945,
  "lat": 41.1495266,
  "lon": -8.5939543
},
{
  "type": "node",
  "id": 5264201946,
  "lat": 41.1495445,
  "lon": -8.5938138
},
{
  "type": "node",
  "id": 4567831815,
  "lat": 41.1625675,
  "lon": -8.5098685
},
{
  "type": "node",
  "id": 4567831816,
  "lat": 41.1626983,
  "lon": -8.5096618
},
{
  "type": "node",
  "id": 4567831817,
  "lat": 41.1626353,
  "lon": -8.5096115
},
{
  "type": "node",
  "id": 4567831818,
  "lat": 41.1625422,
  "lon": -8.5095526
},
{
  "type": "node",
  "id": 4567831819,
  "lat": 41.1625190,
  "lon": -8.5095562
},
{
  "type": "node",
  "id": 4567831820,
  "lat": 41.1624774,
  "lon": -8.5096840
},
{
  "type": "node",
  "id": 4567831821,
  "lat": 41.1624745,
  "lon": -8.5097338
},
{
  "type": "node",
  "id": 4567831822,
  "lat": 41.1625320,
  "lon": -8.5098915
},
{
  "type": "node",
  "id": 4788424896,
  "lat": 41.1624945,
  "lon": -8.5095972
},
{
  "type": "node",
  "id": 4788424898,
  "lat": 41.1627012,
  "lon": -8.5097726
},
{
  "type": "node",
  "id": 6774627924,
  "lat": 41.1625138,
  "lon": -8.5098630
},
{
  "type": "node",
  "id": 6774627941,
  "lat": 41.1624985,
  "lon": -8.5098306
},
{
  "type": "node",
  "id": 6774627958,
  "lat": 41.1624837,
  "lon": -8.5097907
},
{
  "type": "node",
  "id": 6774627960,
  "lat": 41.1624791,
  "lon": -8.5096354
},
{
  "type": "node",
  "id": 1645451322,
  "lat": 41.2021024,
  "lon": -8.5768806
},
{
  "type": "node",
  "id": 1645451325,
  "lat": 41.2020415,
  "lon": -8.5769114
},
{
  "type": "node",
  "id": 1645451334,
  "lat": 41.2018887,
  "lon": -8.5769146
},
{
  "type": "node",
  "id": 1645451335,
  "lat": 41.2019061,
  "lon": -8.5769753
},
{
  "type": "node",
  "id": 1645451345,
  "lat": 41.2020629,
  "lon": -8.5769859
},
{
  "type": "node",
  "id": 1645451347,
  "lat": 41.2019982,
  "lon": -8.5770187
},
{
  "type": "node",
  "id": 1645451348,
  "lat": 41.2019757,
  "lon": -8.5769401
},
{
  "type": "node",
  "id": 1645451349,
  "lat": 41.2020838,
  "lon": -8.5768158
},
{
  "type": "node",
  "id": 2331025198,
  "lat": 41.1889345,
  "lon": -8.4983673
},
{
  "type": "node",
  "id": 2331025202,
  "lat": 41.1890120,
  "lon": -8.4986136
},
{
  "type": "node",
  "id": 2331025212,
  "lat": 41.1890885,
  "lon": -8.4983515
},
{
  "type": "node",
  "id": 2331025228,
  "lat": 41.1891557,
  "lon": -8.4983630
},
{
  "type": "node",
  "id": 2331025243,
  "lat": 41.1892200,
  "lon": -8.4986499
},
{
  "type": "node",
  "id": 2331025248,
  "lat": 41.1892798,
  "lon": -8.4983957
},
{
  "type": "node",
  "id": 6964959697,
  "lat": 41.1903639,
  "lon": -8.4989886
},
{
  "type": "node",
  "id": 6964959698,
  "lat": 41.1901359,
  "lon": -8.4990771
},
{
  "type": "node",
  "id": 6964959699,
  "lat": 41.1902408,
  "lon": -8.4994982
},
{
  "type": "node",
  "id": 6964959700,
  "lat": 41.1904750,
  "lon": -8.4993775
},
{
  "type": "node",
  "id": 6964959701,
  "lat": 41.1904467,
  "lon": -8.4992515
},
{
  "type": "node",
  "id": 6964959702,
  "lat": 41.1903175,
  "lon": -8.4992944
},
{
  "type": "node",
  "id": 6964959703,
  "lat": 41.1902913,
  "lon": -8.4991334
},
{
  "type": "node",
  "id": 6964959704,
  "lat": 41.1903983,
  "lon": -8.4990878
},
{
  "type": "node",
  "id": 5258613748,
  "lat": 41.2350150,
  "lon": -8.4165085
},
{
  "type": "node",
  "id": 5258613749,
  "lat": 41.2352025,
  "lon": -8.4161767
},
{
  "type": "node",
  "id": 5258613750,
  "lat": 41.2351615,
  "lon": -8.4166548
},
{
  "type": "node",
  "id": 5258613751,
  "lat": 41.2353489,
  "lon": -8.4163231
},
{
  "type": "node",
  "id": 5111270411,
  "lat": 41.3132160,
  "lon": -8.4441760
},
{
  "type": "node",
  "id": 5111270413,
  "lat": 41.3131344,
  "lon": -8.4443123
},
{
  "type": "node",
  "id": 5111270415,
  "lat": 41.3131173,
  "lon": -8.4440693
},
{
  "type": "node",
  "id": 5111270416,
  "lat": 41.3133036,
  "lon": -8.4441243
},
{
  "type": "node",
  "id": 5111270418,
  "lat": 41.3131050,
  "lon": -8.4441432
},
{
  "type": "node",
  "id": 5111270419,
  "lat": 41.3132509,
  "lon": -8.4444477
},
{
  "type": "node",
  "id": 5111270420,
  "lat": 41.3130403,
  "lon": -8.4442030
},
{
  "type": "node",
  "id": 5111271521,
  "lat": 41.3129912,
  "lon": -8.4442780
},
{
  "type": "node",
  "id": 5801636829,
  "lat": 41.3132861,
  "lon": -8.4442305
},
{
  "type": "node",
  "id": 5801636839,
  "lat": 41.3132324,
  "lon": -8.4445381
},
{
  "type": "node",
  "id": 893748348,
  "lat": 41.3499776,
  "lon": -8.7438980
},
{
  "type": "node",
  "id": 893748349,
  "lat": 41.3502509,
  "lon": -8.7438110
},
{
  "type": "node",
  "id": 893748368,
  "lat": 41.3502493,
  "lon": -8.7439061
},
{
  "type": "node",
  "id": 893748371,
  "lat": 41.3499792,
  "lon": -8.7438029
},
{
  "type": "node",
  "id": 4128739798,
  "lat": 41.3502389,
  "lon": -8.7439058
},
{
  "type": "node",
  "id": 2597200149,
  "lat": 41.3544509,
  "lon": -8.7344218
},
{
  "type": "node",
  "id": 2597200151,
  "lat": 41.3546211,
  "lon": -8.7341511
},
{
  "type": "node",
  "id": 2597200154,
  "lat": 41.3543869,
  "lon": -8.7338897
},
{
  "type": "node",
  "id": 2597200156,
  "lat": 41.3542167,
  "lon": -8.7341603
},
{
  "type": "node",
  "id": 2597200417,
  "lat": 41.3540501,
  "lon": -8.7341961
},
{
  "type": "node",
  "id": 2597200418,
  "lat": 41.3541137,
  "lon": -8.7340902
},
{
  "type": "node",
  "id": 2597200419,
  "lat": 41.3540251,
  "lon": -8.7339955
},
{
  "type": "node",
  "id": 2597200420,
  "lat": 41.3539812,
  "lon": -8.7340294
},
{
  "type": "node",
  "id": 2597200421,
  "lat": 41.3539585,
  "lon": -8.7340983
},
{
  "type": "node",
  "id": 2597208530,
  "lat": 41.3544800,
  "lon": -8.7343755
},
{
  "type": "node",
  "id": 4328284753,
  "lat": 41.3540183,
  "lon": -8.7341622
},
{
  "type": "node",
  "id": 4328284754,
  "lat": 41.3539827,
  "lon": -8.7341242
},
{
  "type": "node",
  "id": 4377465305,
  "lat": 41.3540571,
  "lon": -8.7340297
},
{
  "type": "node",
  "id": 4139311495,
  "lat": 41.3572025,
  "lon": -8.7421224
},
{
  "type": "node",
  "id": 4139311496,
  "lat": 41.3574330,
  "lon": -8.7417388
},
{
  "type": "node",
  "id": 4139311497,
  "lat": 41.3574632,
  "lon": -8.7416570
},
{
  "type": "node",
  "id": 4139311498,
  "lat": 41.3573455,
  "lon": -8.7415350
},
{
  "type": "node",
  "id": 4139311499,
  "lat": 41.3571542,
  "lon": -8.7418233
},
{
  "type": "node",
  "id": 4139311500,
  "lat": 41.3570566,
  "lon": -8.7416999
},
{
  "type": "node",
  "id": 4139311501,
  "lat": 41.3569881,
  "lon": -8.7418421
},
{
  "type": "node",
  "id": 4139311502,
  "lat": 41.3571341,
  "lon": -8.7419588
},
{
  "type": "node",
  "id": 4139311503,
  "lat": 41.3570837,
  "lon": -8.7420661
},
{
  "type": "node",
  "id": 4139311510,
  "lat": 41.3572742,
  "lon": -8.7416425
},
{
  "type": "node",
  "id": 4139311511,
  "lat": 41.3573533,
  "lon": -8.7415431
},
{
  "type": "node",
  "id": 3394729527,
  "lat": 41.4124484,
  "lon": -8.7232035
},
{
  "type": "node",
  "id": 3394729528,
  "lat": 41.4124707,
  "lon": -8.7231235
},
{
  "type": "node",
  "id": 3394729529,
  "lat": 41.4122455,
  "lon": -8.7230091
},
{
  "type": "node",
  "id": 3394729530,
  "lat": 41.4122249,
  "lon": -8.7230829
},
{
  "type": "node",
  "id": 5801392741,
  "lat": 41.4124235,
  "lon": -8.7230664
},
{
  "type": "node",
  "id": 5801392742,
  "lat": 41.4124543,
  "lon": -8.7230816
},
{
  "type": "node",
  "id": 5801392743,
  "lat": 41.4124460,
  "lon": -8.7231112
},
{
  "type": "node",
  "id": 5801392744,
  "lat": 41.4124159,
  "lon": -8.7230938
},
{
  "type": "node",
  "id": 5801392746,
  "lat": 41.4123192,
  "lon": -8.7231298
},
{
  "type": "node",
  "id": 5801392747,
  "lat": 41.4123065,
  "lon": -8.7231752
},
{
  "type": "node",
  "id": 5801392748,
  "lat": 41.4123582,
  "lon": -8.7232009
},
{
  "type": "node",
  "id": 5801392749,
  "lat": 41.4123686,
  "lon": -8.7231638
},
{
  "type": "node",
  "id": 2514349537,
  "lat": 41.4233542,
  "lon": -8.6727604
},
{
  "type": "node",
  "id": 2514349542,
  "lat": 41.4233680,
  "lon": -8.6726217
},
{
  "type": "node",
  "id": 2514349544,
  "lat": 41.4235929,
  "lon": -8.6728221
},
{
  "type": "node",
  "id": 2514349546,
  "lat": 41.4234021,
  "lon": -8.6726102
},
{
  "type": "node",
  "id": 1813847164,
  "lat": 41.4058177,
  "lon": -8.6259147
},
{
  "type": "node",
  "id": 1813847165,
  "lat": 41.4058294,
  "lon": -8.6256997
},
{
  "type": "node",
  "id": 1813847166,
  "lat": 41.4058328,
  "lon": -8.6260514
},
{
  "type": "node",
  "id": 1813847168,
  "lat": 41.4060109,
  "lon": -8.6256818
},
{
  "type": "node",
  "id": 1813847169,
  "lat": 41.4060461,
  "lon": -8.6260245
},
{
  "type": "node",
  "id": 1822195378,
  "lat": 41.3508757,
  "lon": -8.5272766
},
{
  "type": "node",
  "id": 2110699728,
  "lat": 41.3511295,
  "lon": -8.5272015
},
{
  "type": "node",
  "id": 3877255891,
  "lat": 41.3505962,
  "lon": -8.5281493
},
{
  "type": "node",
  "id": 3877255893,
  "lat": 41.3506986,
  "lon": -8.5282032
},
{
  "type": "node",
  "id": 3877255894,
  "lat": 41.3507135,
  "lon": -8.5277543
},
{
  "type": "node",
  "id": 3877255895,
  "lat": 41.3507248,
  "lon": -8.5277603
},
{
  "type": "node",
  "id": 3877255896,
  "lat": 41.3507500,
  "lon": -8.5280245
},
{
  "type": "node",
  "id": 3877255897,
  "lat": 41.3507580,
  "lon": -8.5276486
},
{
  "type": "node",
  "id": 3877255899,
  "lat": 41.3507776,
  "lon": -8.5276580
},
{
  "type": "node",
  "id": 3877255900,
  "lat": 41.3507980,
  "lon": -8.5280474
},
{
  "type": "node",
  "id": 3877255903,
  "lat": 41.3508618,
  "lon": -8.5272691
},
{
  "type": "node",
  "id": 3877255904,
  "lat": 41.3508635,
  "lon": -8.5273676
},
{
  "type": "node",
  "id": 3877255905,
  "lat": 41.3508886,
  "lon": -8.5272832
},
{
  "type": "node",
  "id": 3877255906,
  "lat": 41.3509153,
  "lon": -8.5270887
},
{
  "type": "node",
  "id": 3877255908,
  "lat": 41.3509199,
  "lon": -8.5278630
},
{
  "type": "node",
  "id": 3877255909,
  "lat": 41.3509259,
  "lon": -8.5278661
},
{
  "type": "node",
  "id": 3877255913,
  "lat": 41.3509956,
  "lon": -8.5277725
},
{
  "type": "node",
  "id": 3877255914,
  "lat": 41.3510035,
  "lon": -8.5277766
},
{
  "type": "node",
  "id": 3877255915,
  "lat": 41.3510211,
  "lon": -8.5277171
},
{
  "type": "node",
  "id": 3877255916,
  "lat": 41.3510396,
  "lon": -8.5277270
},
{
  "type": "node",
  "id": 3877255919,
  "lat": 41.3511245,
  "lon": -8.5272599
},
{
  "type": "node",
  "id": 3877255920,
  "lat": 41.3511502,
  "lon": -8.5272724
},
{
  "type": "node",
  "id": 3877255921,
  "lat": 41.3511704,
  "lon": -8.5272044
},
{
  "type": "node",
  "id": 3877255922,
  "lat": 41.3512513,
  "lon": -8.5275068
},
{
  "type": "node",
  "id": 3877255923,
  "lat": 41.3512555,
  "lon": -8.5275091
},
{
  "type": "node",
  "id": 3877255924,
  "lat": 41.3512710,
  "lon": -8.5274592
},
{
  "type": "node",
  "id": 3877255925,
  "lat": 41.3512772,
  "lon": -8.5272929
},
{
  "type": "node",
  "id": 3877255926,
  "lat": 41.3512855,
  "lon": -8.5272650
},
{
  "type": "node",
  "id": 3877255927,
  "lat": 41.3512949,
  "lon": -8.5274718
},
{
  "type": "node",
  "id": 3877255928,
  "lat": 41.3513010,
  "lon": -8.5273602
},
{
  "type": "node",
  "id": 3877255929,
  "lat": 41.3513151,
  "lon": -8.5273128
},
{
  "type": "node",
  "id": 3877255932,
  "lat": 41.3513693,
  "lon": -8.5273962
},
{
  "type": "node",
  "id": 4795435030,
  "lat": 41.3510244,
  "lon": -8.5271462
},
{
  "type": "node",
  "id": 4795435033,
  "lat": 41.3512891,
  "lon": -8.5274012
},
{
  "type": "node",
  "id": 4795435034,
  "lat": 41.3511111,
  "lon": -8.5273030
},
{
  "type": "node",
  "id": 4795435035,
  "lat": 41.3511535,
  "lon": -8.5276090
},
{
  "type": "node",
  "id": 4795435037,
  "lat": 41.3510374,
  "lon": -8.5275469
},
{
  "type": "node",
  "id": 4795435038,
  "lat": 41.3510669,
  "lon": -8.5275623
},
{
  "type": "node",
  "id": 4795435039,
  "lat": 41.3509740,
  "lon": -8.5277611
},
{
  "type": "node",
  "id": 1332464260,
  "lat": 41.4010003,
  "lon": -8.5333653
},
{
  "type": "node",
  "id": 1332464268,
  "lat": 41.4010650,
  "lon": -8.5333845
},
{
  "type": "node",
  "id": 1332464343,
  "lat": 41.4010123,
  "lon": -8.5337137
},
{
  "type": "node",
  "id": 1332464373,
  "lat": 41.4005424,
  "lon": -8.5336050
},
{
  "type": "node",
  "id": 1332464390,
  "lat": 41.4010914,
  "lon": -8.5334100
},
{
  "type": "node",
  "id": 1332464417,
  "lat": 41.4003961,
  "lon": -8.5339438
},
{
  "type": "node",
  "id": 1332464431,
  "lat": 41.4009236,
  "lon": -8.5335762
},
{
  "type": "node",
  "id": 1332464458,
  "lat": 41.4006359,
  "lon": -8.5333269
},
{
  "type": "node",
  "id": 1332464463,
  "lat": 41.4008612,
  "lon": -8.5342091
},
{
  "type": "node",
  "id": 1332506438,
  "lat": 41.4088012,
  "lon": -8.5214327
},
{
  "type": "node",
  "id": 1332506618,
  "lat": 41.4089180,
  "lon": -8.5214509
},
{
  "type": "node",
  "id": 5206608396,
  "lat": 41.4088284,
  "lon": -8.5211235
},
{
  "type": "node",
  "id": 5206613462,
  "lat": 41.4083606,
  "lon": -8.5208544
},
{
  "type": "node",
  "id": 5206613463,
  "lat": 41.4083794,
  "lon": -8.5207933
},
{
  "type": "node",
  "id": 5206613464,
  "lat": 41.4083680,
  "lon": -8.5207871
},
{
  "type": "node",
  "id": 5206613465,
  "lat": 41.4083759,
  "lon": -8.5207615
},
{
  "type": "node",
  "id": 5206613466,
  "lat": 41.4083116,
  "lon": -8.5207264
},
{
  "type": "node",
  "id": 5206613468,
  "lat": 41.4082835,
  "lon": -8.5208122
},
{
  "type": "node",
  "id": 5206613475,
  "lat": 41.4083489,
  "lon": -8.5208480
},
{
  "type": "node",
  "id": 5207050216,
  "lat": 41.4088534,
  "lon": -8.5211274
},
{
  "type": "node",
  "id": 5207050217,
  "lat": 41.4088077,
  "lon": -8.5213596
},
{
  "type": "node",
  "id": 5207051587,
  "lat": 41.4088248,
  "lon": -8.5211635
},
{
  "type": "node",
  "id": 5207051589,
  "lat": 41.4088873,
  "lon": -8.5212867
},
{
  "type": "node",
  "id": 5207051590,
  "lat": 41.4088632,
  "lon": -8.5212830
},
{
  "type": "node",
  "id": 5207051591,
  "lat": 41.4088559,
  "lon": -8.5213674
},
{
  "type": "node",
  "id": 5207051592,
  "lat": 41.4088800,
  "lon": -8.5213712
},
{
  "type": "node",
  "id": 5207051593,
  "lat": 41.4089294,
  "lon": -8.5213212
},
{
  "type": "node",
  "id": 1686046647,
  "lat": 41.4101930,
  "lon": -8.5223511
},
{
  "type": "node",
  "id": 1686046648,
  "lat": 41.4102393,
  "lon": -8.5222647
},
{
  "type": "node",
  "id": 1686046649,
  "lat": 41.4103477,
  "lon": -8.5224983
},
{
  "type": "node",
  "id": 1686046651,
  "lat": 41.4103939,
  "lon": -8.5224119
},
{
  "type": "node",
  "id": 5206608397,
  "lat": 41.4089451,
  "lon": -8.5211417
},
{
  "type": "node",
  "id": 5251103010,
  "lat": 41.4102123,
  "lon": -8.5223695
},
{
  "type": "node",
  "id": 1764568738,
  "lat": 41.3447455,
  "lon": -8.4716391
},
{
  "type": "node",
  "id": 1764568744,
  "lat": 41.3446299,
  "lon": -8.4715536
},
{
  "type": "node",
  "id": 1764568745,
  "lat": 41.3444531,
  "lon": -8.4723687
},
{
  "type": "node",
  "id": 1764568755,
  "lat": 41.3443401,
  "lon": -8.4722902
},
{
  "type": "node",
  "id": 1148563291,
  "lat": 41.3969034,
  "lon": -8.4635873
},
{
  "type": "node",
  "id": 1962748456,
  "lat": 41.3968012,
  "lon": -8.4636451
},
{
  "type": "node",
  "id": 1962748458,
  "lat": 41.3968539,
  "lon": -8.4633953
},
{
  "type": "node",
  "id": 1962748459,
  "lat": 41.3968906,
  "lon": -8.4636787
},
{
  "type": "node",
  "id": 1962748462,
  "lat": 41.3969094,
  "lon": -8.4635895
},
{
  "type": "node",
  "id": 1962748463,
  "lat": 41.3969252,
  "lon": -8.4634838
},
{
  "type": "node",
  "id": 1962748464,
  "lat": 41.3969315,
  "lon": -8.4634861
},
{
  "type": "node",
  "id": 1962748466,
  "lat": 41.3969335,
  "lon": -8.4634447
},
{
  "type": "node",
  "id": 1962748467,
  "lat": 41.3969373,
  "lon": -8.4634265
},
{
  "type": "node",
  "id": 1962748469,
  "lat": 41.3969397,
  "lon": -8.4634470
},
{
  "type": "node",
  "id": 7089959132,
  "lat": 41.3968508,
  "lon": -8.4634100
},
{
  "type": "node",
  "id": 3781529669,
  "lat": 41.1332593,
  "lon": -8.3782356
},
{
  "type": "node",
  "id": 3781529670,
  "lat": 41.1333118,
  "lon": -8.3781954
},
{
  "type": "node",
  "id": 3781529671,
  "lat": 41.1333098,
  "lon": -8.3778735
},
{
  "type": "node",
  "id": 3781529672,
  "lat": 41.1331858,
  "lon": -8.3778171
},
{
  "type": "node",
  "id": 3781529673,
  "lat": 41.1331320,
  "lon": -8.3779862
},
{
  "type": "node",
  "id": 5304501035,
  "lat": 41.1495763,
  "lon": -8.3108856
},
{
  "type": "node",
  "id": 5304501036,
  "lat": 41.1495488,
  "lon": -8.3107785
},
{
  "type": "node",
  "id": 5304501037,
  "lat": 41.1496067,
  "lon": -8.3107604
},
{
  "type": "node",
  "id": 5304501038,
  "lat": 41.1496560,
  "lon": -8.3108890
},
{
  "type": "node",
  "id": 5304501039,
  "lat": 41.1496556,
  "lon": -8.3109030
},
{
  "type": "node",
  "id": 5304501040,
  "lat": 41.1496590,
  "lon": -8.3107626
},
{
  "type": "node",
  "id": 5304501041,
  "lat": 41.1497653,
  "lon": -8.3107670
},
{
  "type": "node",
  "id": 5304501042,
  "lat": 41.1497620,
  "lon": -8.3109074
},
{
  "type": "node",
  "id": 5304501043,
  "lat": 41.1495758,
  "lon": -8.3109071
},
{
  "type": "node",
  "id": 5304501044,
  "lat": 41.1494815,
  "lon": -8.3109031
},
{
  "type": "node",
  "id": 5304501045,
  "lat": 41.1494845,
  "lon": -8.3107759
},
{
  "type": "node",
  "id": 5304501046,
  "lat": 41.1496070,
  "lon": -8.3107446
},
{
  "type": "node",
  "id": 5304501047,
  "lat": 41.1495497,
  "lon": -8.3107422
},
{
  "type": "node",
  "id": 1485654529,
  "lat": 41.2781731,
  "lon": -8.3746642
},
{
  "type": "node",
  "id": 1485654530,
  "lat": 41.2778908,
  "lon": -8.3746552
},
{
  "type": "node",
  "id": 1485654531,
  "lat": 41.2781265,
  "lon": -8.3747993
},
{
  "type": "node",
  "id": 1485654532,
  "lat": 41.2779374,
  "lon": -8.3745201
},
{
  "type": "node",
  "id": 1635070785,
  "lat": 41.2780106,
  "lon": -8.3745649
},
{
  "type": "node",
  "id": 1635070790,
  "lat": 41.2780189,
  "lon": -8.3745407
},
{
  "type": "node",
  "id": 1635070862,
  "lat": 41.2781106,
  "lon": -8.3746260
},
{
  "type": "node",
  "id": 1635070872,
  "lat": 41.2781189,
  "lon": -8.3746018
},
{
  "type": "node",
  "id": 2203026234,
  "lat": 41.3206810,
  "lon": -8.3701605
},
{
  "type": "node",
  "id": 2203026239,
  "lat": 41.3206670,
  "lon": -8.3700428
},
{
  "type": "node",
  "id": 2203026245,
  "lat": 41.3209933,
  "lon": -8.3699594
},
{
  "type": "node",
  "id": 2203026250,
  "lat": 41.3209248,
  "lon": -8.3699594
},
{
  "type": "node",
  "id": 2203026251,
  "lat": 41.3207154,
  "lon": -8.3698792
},
{
  "type": "node",
  "id": 2203026252,
  "lat": 41.3206589,
  "lon": -8.3701069
},
{
  "type": "node",
  "id": 2203026262,
  "lat": 41.3209390,
  "lon": -8.3699409
},
{
  "type": "node",
  "id": 2203026266,
  "lat": 41.3208302,
  "lon": -8.3699355
},
{
  "type": "node",
  "id": 2203026270,
  "lat": 41.3208039,
  "lon": -8.3704958
},
{
  "type": "node",
  "id": 2203026281,
  "lat": 41.3210013,
  "lon": -8.3701471
},
{
  "type": "node",
  "id": 3998320049,
  "lat": 41.3207582,
  "lon": -8.3701117
},
{
  "type": "node",
  "id": 3998320050,
  "lat": 41.3208114,
  "lon": -8.3702705
},
{
  "type": "node",
  "id": 3998320051,
  "lat": 41.3208139,
  "lon": -8.3700311
},
{
  "type": "node",
  "id": 3998320052,
  "lat": 41.3208273,
  "lon": -8.3702697
},
{
  "type": "node",
  "id": 3998320053,
  "lat": 41.3208695,
  "lon": -8.3701036
},
{
  "type": "node",
  "id": 3998320054,
  "lat": 41.3208799,
  "lon": -8.3702559
},
{
  "type": "node",
  "id": 3998320055,
  "lat": 41.3208981,
  "lon": -8.3704431
},
{
  "type": "node",
  "id": 3998320056,
  "lat": 41.3209338,
  "lon": -8.3700995
},
{
  "type": "node",
  "id": 3998320057,
  "lat": 41.3209356,
  "lon": -8.3700409
},
{
  "type": "node",
  "id": 3998320059,
  "lat": 41.3210671,
  "lon": -8.3702477
},
{
  "type": "node",
  "id": 3998320060,
  "lat": 41.3210677,
  "lon": -8.3701698
},
{
  "type": "way",
  "id": 238826849,
  "nodes": [
    2205504377,
    2205504247,
    2205504446,
    6571265141,
    6304126784,
    6571265142,
    2205504280,
    2205504281,
    2205504352,
    2205504248,
    2205504272,
    2205627336,
    2205504444,
    2466262449,
    2205504384,
    2466262447,
    2205504285,
    2205504283,
    2205504237,
    2205504437,
    2205504405,
    2205504377
  ]
},
{
  "type": "way",
  "id": 210555179,
  "nodes": [
    2206364294,
    2206364277,
    2206364284,
    2206364280,
    2353800550,
    2206364281,
    2206364278,
    2206371110,
    2206364272,
    2206364292,
    2206364283,
    2206364265,
    2206364268,
    2206364290,
    2206371121,
    2206364260,
    2206371100,
    2206364282,
    2468322965,
    2206364262,
    6541146305,
    2206364294
  ]
},
{
  "type": "way",
  "id": 217555340,
  "nodes": [
    2268386116,
    2268386110,
    2268386118,
    2268386112,
    2268386116
  ]
},
{
  "type": "way",
  "id": 217746637,
  "nodes": [
    2213391817,
    2270472903,
    2270472897,
    2211420433,
    2211420424,
    2213407886,
    2213391807,
    2213391808,
    2213391814,
    2270472900,
    2213407895,
    2213391815,
    2213391811,
    2213391817
  ]
},
{
  "type": "way",
  "id": 217746638,
  "nodes": [
    2270472895,
    2270472902,
    2270472905,
    2270472893,
    2270472907,
    2270472909,
    2270472895
  ]
},
{
  "type": "way",
  "id": 238826850,
  "nodes": [
    2466262448,
    2466262452,
    2466262450,
    2466262451,
    2466262448
  ]
},
{
  "type": "way",
  "id": 210311398,
  "nodes": [
    2203972721,
    2203974023,
    2203972723,
    3996435893,
    2203971051,
    2203972720,
    2203972719,
    3978206482,
    2203972733,
    3978206483,
    2203972725,
    3978206487,
    2203972721
  ]
},
{
  "type": "way",
  "id": 227995814,
  "nodes": [
    2343272602,
    2343272611,
    2343272606,
    2343272604,
    2343272605,
    2343272603,
    2343272601,
    2343272612,
    2343272602
  ]
},
{
  "type": "way",
  "id": 118473585,
  "nodes": [
    1332506618,
    1332506438,
    5207050217,
    5207051587,
    5206608396,
    5207050216,
    5206608397,
    5207051593,
    1332506618
  ]
},
{
  "type": "way",
  "id": 537807561,
  "nodes": [
    5207051592,
    5207051591,
    5207051590,
    5207051589,
    5207051592
  ]
},
{
  "type": "way",
  "id": 185628436,
  "nodes": [
    1962748459,
    1962748462,
    1148563291,
    1962748463,
    1962748464,
    1962748469,
    1962748466,
    1962748467,
    1962748458,
    7089959132
  ]
},
{
  "type": "way",
  "id": 759077412,
  "nodes": [
    7089959132,
    1962748456,
    1962748459
  ]
}

  ]
}
