{
  "version": 0.6,
  "generator": "Overpass API 0.7.55.1011 6c2efc30",
  "osm3s": {
    "timestamp_osm_base": "2020-02-14T13:59:01Z",
    "copyright": "The data included in this document is from www.openstreetmap.org. The data is made available under ODbL."
  },
  "elements": [

{
  "type": "node",
  "id": 250742575,
  "lat": 53.2162457,
  "lon": 6.5601396,
  "tags": {
    "fee": "MJK_free",
    "name": "Noordelijk Scheepvaartmuseum",
    "tourism": "museum",
    "wheelchair": "limited",
    "wikidata": "Q2004350"
  }
},
{
  "type": "node",
  "id": 262110803,
  "lat": 53.3741039,
  "lon": 6.1281144,
  "tags": {
    "addr:city": "Anjum",
    "addr:housenumber": "18",
    "addr:postcode": "9133MB",
    "addr:street": "Mûnebuorren",
    "description": "Korenmolen, Pelmolen",
    "dhm_id": "1183",
    "man_made": "windmill",
    "mdb_id": "41",
    "name": "Molenmuseum De Eendracht",
    "opening_hours": "Apr 01-Oct 31: Tu-Sa 10:00-17:00; Su 13:00-17:00; Nov 01-Mar 31 Sa 10:00-17:00",
    "source": "BAG,http://nl.wikipedia.org/wiki/Lijst_van_musea_in_Friesland;wikipedia",
    "source:date": "2014-03-24",
    "tourism": "museum",
    "website": "http://www.anjumermolen.nl/",
    "wikidata": "Q1849293",
    "wikipedia": "nl:De Eendracht (Anjum)"
  }
},
{
  "type": "node",
  "id": 292356400,
  "lat": 53.2563518,
  "lon": 6.4589455,
  "tags": {
    "addr:city": "Aduard",
    "addr:housenumber": "45",
    "addr:postcode": "9831RB",
    "addr:street": "Hofstraat",
    "description": "The garden contains a small medicinal herbs collection and a nice tea and/or coffee garden. There is an amazing app available for this museum named Aduard3D. The museum has some devices you can borrow.",
    "email": "info@kloostermuseumaduard.nl",
    "name": "Kloostermuseum",
    "opening_hours:url": "http://kloostermuseumaduard.nl/",
    "operator": "St. Bernardushof",
    "source": "BAG",
    "source:date": "2014-03-24",
    "tourism": "museum",
    "website": "http://kloostermuseumaduard.nl/",
    "wikidata": "Q1774931",
    "wikipedia": "nl:Abdij van Aduard"
  }
},
{
  "type": "node",
  "id": 546906365,
  "lat": 53.1482111,
  "lon": 6.3010800,
  "tags": {
    "name": "Coendersborch",
    "tourism": "museum"
  }
},
{
  "type": "node",
  "id": 602318693,
  "lat": 53.3584150,
  "lon": 6.3393250,
  "tags": {
    "name": "Schatkoamer Ollerom",
    "tourism": "museum"
  }
},
{
  "type": "node",
  "id": 857716623,
  "lat": 53.2194207,
  "lon": 6.8070285,
  "tags": {
    "name": "Kunsthal",
    "tourism": "museum"
  }
},
{
  "type": "node",
  "id": 1197653245,
  "lat": 53.1071575,
  "lon": 6.8759954,
  "tags": {
    "addr:city": "Veendam",
    "addr:housenumber": "5",
    "addr:postcode": "9641AD",
    "addr:street": "Museumplein",
    "fee": "MJK_free",
    "name": "Veenkoloniaal museum",
    "source": "BAG",
    "source:date": "2014-05-07",
    "tourism": "museum"
  }
},
{
  "type": "node",
  "id": 1315477627,
  "lat": 53.1619038,
  "lon": 6.3899398,
  "tags": {
    "addr:city": "Leek",
    "addr:housenumber": "10",
    "addr:postcode": "9351 BM",
    "addr:street": "Samuel Leviestraat",
    "name": "museum 'Het Joodse Schooltje'",
    "phone": "+31 594 513319",
    "tourism": "museum",
    "website": "https://www.museumjoodseschooltje.nl/"
  }
},
{
  "type": "node",
  "id": 1398079775,
  "lat": 53.3921427,
  "lon": 6.5622935,
  "tags": {
    "fee": "MJK_free",
    "name": "Openluchtmuseum Het Hoogeland",
    "tourism": "museum"
  }
},
{
  "type": "node",
  "id": 1445378731,
  "lat": 53.3369118,
  "lon": 6.2998141,
  "tags": {
    "fee": "MJK_free",
    "name": "Visserijmuseum Zoutkamp",
    "source": "local_knowledge",
    "tourism": "museum",
    "website": "http://www.visserijmuseum.com"
  }
},
{
  "type": "node",
  "id": 1493115246,
  "lat": 53.4000125,
  "lon": 6.4509589,
  "tags": {
    "name": "Domies Toen",
    "tourism": "museum"
  }
},
{
  "type": "node",
  "id": 1516623369,
  "lat": 53.3016562,
  "lon": 7.0357847,
  "tags": {
    "name": "Museumgemaal Kremer",
    "tourism": "museum"
  }
},
{
  "type": "node",
  "id": 1537191246,
  "lat": 53.3084237,
  "lon": 6.4405070,
  "tags": {
    "email": "info@wierdenland.nl",
    "fee": "MJK_free",
    "museum": "history",
    "name": "Museum Wierdenland",
    "opening_hours": "Tu-Su 13:00-17:00; Apr 01-Oct 31 Tu-Su 11:00-17:00; Jan 01,Dec 25,Dec 31 off",
    "phone": "+31 594 621 524",
    "subject": "history",
    "tourism": "museum",
    "website": "https://wierdenland.nl",
    "wheelchair": "yes",
    "wikipedia": "nl:Museum Wierdenland"
  }
},
{
  "type": "node",
  "id": 1610631389,
  "lat": 53.1344164,
  "lon": 6.4359060,
  "tags": {
    "addr:city": "Roden",
    "addr:housenumber": "7",
    "addr:postcode": "9301 KA",
    "addr:street": "Mensingheweg",
    "contact:email": "info@mensinge.nl",
    "contact:phone": "+31 50 5015030",
    "contact:website": "http://www.mensinge.nl/",
    "name": "Museum Havezate Mensinge",
    "tourism": "museum"
  }
},
{
  "type": "node",
  "id": 1610631396,
  "lat": 53.1352085,
  "lon": 6.4321455,
  "tags": {
    "addr:city": "Roden",
    "addr:housenumber": "31",
    "addr:postcode": "9301JK",
    "addr:street": "Brink",
    "contact:email": "info@kinderwereld.net",
    "contact:phone": "+31 50 5018851",
    "contact:website": "http://www.kinderwereld.net/",
    "name": "Museum Kinderwereld",
    "source": "BAG",
    "source:date": "2014-03-24",
    "tourism": "museum"
  }
},
{
  "type": "node",
  "id": 1710105734,
  "lat": 53.0995888,
  "lon": 6.6959923,
  "tags": {
    "name": "Museum \"De Wachter\"",
    "tourism": "museum"
  }
},
{
  "type": "node",
  "id": 1789851965,
  "lat": 53.2507044,
  "lon": 6.5644178,
  "tags": {
    "name": "Bezoekerscentrum Buitenplaats Reitdiep Groninger Landschap",
    "tourism": "museum"
  }
},
{
  "type": "node",
  "id": 1789859831,
  "lat": 53.2627632,
  "lon": 6.5304558,
  "tags": {
    "name": "Bezoekerscentrum en vakantiewoning Harssenbosch Groninger Landschap",
    "tourism": "museum"
  }
},
{
  "type": "node",
  "id": 1815036280,
  "lat": 53.2614034,
  "lon": 6.3946847,
  "tags": {
    "addr:city": "Noordhorn",
    "addr:housenumber": "48",
    "addr:postcode": "9804PL",
    "addr:street": "Langestraat",
    "contact:email": "degoudenleeuw@planet.nl",
    "contact:phone": "+31 594 503804",
    "contact:website": "http://home.kpn.nl/pilat004/",
    "name": "Kostuummuseum De Gouden Leeuw",
    "source": "BAG",
    "source:date": "2014-03-24",
    "tourism": "museum"
  }
},
{
  "type": "node",
  "id": 2686126222,
  "lat": 53.3605084,
  "lon": 6.3984234,
  "tags": {
    "fee": "MJK_free",
    "name": "Museumboerderij Verhildersum",
    "tourism": "museum"
  }
},
{
  "type": "node",
  "id": 2752215863,
  "lat": 53.2196010,
  "lon": 6.5702191,
  "tags": {
    "addr:city": "Groningen",
    "addr:housenumber": "2",
    "addr:postcode": "9712JN",
    "addr:street": "Sint Jansstraat",
    "fee": "MJK_free",
    "name": "GRID Grafisch Museum",
    "opening_hours": "Tu-Su 10:00-17:00; PH off",
    "source": "BAG",
    "source:date": "2014-03-24",
    "tourism": "museum"
  }
},
{
  "type": "node",
  "id": 2772493246,
  "lat": 53.0181357,
  "lon": 6.7368709,
  "tags": {
    "addr:city": "Eext",
    "addr:housenumber": "3",
    "addr:postcode": "9463PP",
    "addr:street": "Middenstraat",
    "name": "Dorpsmuseum De Kluis",
    "source": "BAG",
    "source:date": "2014-03-24",
    "tourism": "museum"
  }
},
{
  "type": "node",
  "id": 2776124626,
  "lat": 53.0412620,
  "lon": 6.3903434,
  "tags": {
    "contact:email": "info@gevangenismuseum.nl",
    "contact:fax": "+31 592 388979",
    "contact:phone": "+31 592 388264",
    "contact:website": "http://www.gevangenismuseum.nl/",
    "name": "Gevangenismuseum",
    "toilets:wheelchair": "yes",
    "tourism": "museum",
    "wheelchair": "limited",
    "wikidata": "Q14629603",
    "wikipedia": "nl:Gevangenismuseum"
  }
},
{
  "type": "node",
  "id": 2779939951,
  "lat": 53.1381461,
  "lon": 6.5679479,
  "tags": {
    "name": "Klompenmuseum Gebr. Wietzes",
    "tourism": "museum",
    "wikidata": "Q1345886",
    "wikipedia": "nl:Internationaal Klompenmuseum"
  }
},
{
  "type": "node",
  "id": 2780633401,
  "lat": 53.1333348,
  "lon": 6.5634529,
  "tags": {
    "name": "Museum De Buitenplaats",
    "tourism": "museum",
    "wikidata": "Q1888033"
  }
},
{
  "type": "node",
  "id": 2797409924,
  "lat": 53.2559374,
  "lon": 6.1391857,
  "tags": {
    "addr:city": "Buitenpost",
    "addr:housenumber": "29C",
    "addr:postcode": "9285NE",
    "addr:street": "Schoolstraat",
    "email": "info@ijstijdenmuseum.nl",
    "fee": "MJK_free",
    "name": "IJstijdenmuseum",
    "phone": "+31511544040",
    "source": "BAG",
    "source:date": "2014-03-24",
    "tourism": "museum",
    "website": "http://www.ijstijdenmuseum.nl/"
  }
},
{
  "type": "node",
  "id": 2798160317,
  "lat": 53.1800205,
  "lon": 6.1693633,
  "tags": {
    "addr:city": "Surhuisterveen",
    "addr:housenumber": "84",
    "addr:postcode": "9231CC",
    "addr:street": "Jan Binneslaan",
    "name": "Museumboerderij Ot en Sien",
    "opening_hours": "Tu-Fr 13:30-17:00, Sa 10:00-17:00",
    "phone": "0512 – 340995",
    "source": "BAG;http://museum-otensien.nl/museum/",
    "source:date": "2014-03-24",
    "tourism": "museum",
    "website": "https://museum-otensien.nl/",
    "wheelchair": "yes"
  }
},
{
  "type": "node",
  "id": 2826714907,
  "lat": 53.4049719,
  "lon": 6.6838322,
  "tags": {
    "addr:city": "Uithuizen",
    "addr:housenumber": "2",
    "addr:postcode": "9981CV",
    "addr:street": "Menkemaweg",
    "fee": "MJK_free",
    "name": "Menkemaborg",
    "opening_hours": "Mar-Dec Tu-Su 10:00-17:00; Jul-Aug Mo-Su 10:00-17:00; Oct-Dec Tu-Su 10:00-16:00; Jan-Feb off",
    "source": "BAG",
    "source:date": "2014-03-24",
    "tourism": "museum",
    "website": "http://www.menkemaborg.nl",
    "wikidata": "Q2665541",
    "wikimedia_commons": "File:Menkemaborg.jpg",
    "wikipedia": "nl:Menkemaborg"
  }
},
{
  "type": "node",
  "id": 2829564645,
  "lat": 53.1681928,
  "lon": 6.3949128,
  "tags": {
    "addr:city": "Leek",
    "addr:housenumber": "7",
    "addr:postcode": "9351AC",
    "addr:street": "Nienoord",
    "fee": "MJK_free",
    "name": "Rijtuigmuseum",
    "opening_hours": "Apr-Oct Tu-Su 11:00-17:00",
    "source": "BAG",
    "source:date": "2017-09-05",
    "tourism": "museum"
  }
},
{
  "type": "node",
  "id": 2831155559,
  "lat": 53.3818429,
  "lon": 6.8640860,
  "tags": {
    "addr:city": "Bierum",
    "addr:housenumber": "12",
    "addr:postcode": "9906PE",
    "addr:street": "Hereweg",
    "name": "De Bierumer School",
    "source": "BAG",
    "source:date": "2014-03-24",
    "tourism": "museum",
    "website": "http://www.bierumerschool.nl/index.html"
  }
},
{
  "type": "node",
  "id": 2831298707,
  "lat": 53.3010178,
  "lon": 7.0335219,
  "tags": {
    "addr:city": "Termunterzijl",
    "addr:housenumber": "38",
    "addr:postcode": "9948PN",
    "addr:street": "Mello Coendersbuurt",
    "description": "Visserijmuseum Termunterzijl",
    "name": "Visserijmuseum Termunterzijl",
    "source": "BAG",
    "source:date": "2014-03-24",
    "tourism": "museum"
  }
},
{
  "type": "node",
  "id": 2833102528,
  "lat": 53.1484546,
  "lon": 6.3024677,
  "tags": {
    "addr:city": "Nuis",
    "addr:housenumber": "17",
    "addr:postcode": "9364PP",
    "addr:street": "Oudeweg",
    "email": "rieuw@museagemeentemarum.nl",
    "name": "Landbouw- en streekmuseum ‘t Rieuw",
    "phone": "+31 594 641120",
    "source": "BAG",
    "source:date": "2014-03-24",
    "tourism": "museum",
    "website": "http://www.museagemeentemarum.nl/welkom-in-t-rieuw/"
  }
},
{
  "type": "node",
  "id": 2843403523,
  "lat": 53.2154609,
  "lon": 6.8095705,
  "tags": {
    "addr:city": "Slochteren",
    "addr:housenumber": "30",
    "addr:postcode": "9621AL",
    "addr:street": "Hoofdweg",
    "fee": "MJK_free",
    "name": "Fraeylemaborg",
    "source": "BAG",
    "source:date": "2014-05-07",
    "tourism": "museum"
  }
},
{
  "type": "node",
  "id": 2860016928,
  "lat": 52.9453450,
  "lon": 6.3347405,
  "tags": {
    "addr:city": "Appelscha",
    "addr:housenumber": "1",
    "addr:postcode": "8426GM",
    "addr:street": "Beatrixoord",
    "name": "Tuberculosemuseum Beatrixoord",
    "note": "site: 2 mei t/m 27 sept. 2014 zijn wij iedere vrijdag en zaterdag open van 11.00 tot 16.00 uur",
    "source": "BAG,http://nl.wikipedia.org/wiki/Lijst_van_musea_in_Friesland",
    "source:date": "2014-05-07",
    "tourism": "museum",
    "website": "http://www.stichtingbeatrixoord.nl/tuberculosemuseum/"
  }
},
{
  "type": "node",
  "id": 2860018770,
  "lat": 52.9383036,
  "lon": 6.3975390,
  "tags": {
    "addr:city": "Appelscha",
    "addr:housenumber": "46",
    "addr:postcode": "8426ES",
    "addr:street": "Drentseweg",
    "name": "Museum de heksehoeve ( Heksenmuseum )",
    "note": "in 2015 weer geopend van 2 mei t/m 30 aug en van 17 okt t/m 1 nov van woensdag t/m zondag van 12 tot 5 uur",
    "opening_hours": "May-Aug: We-Su 12:00-17:00",
    "source": "BAG,http://nl.wikipedia.org/wiki/Lijst_van_musea_in_Friesland",
    "source:date": "2014-05-07",
    "tourism": "museum",
    "website": "http://www.heksehoeve.com/"
  }
},
{
  "type": "node",
  "id": 2914905582,
  "lat": 53.1556668,
  "lon": 7.0079134,
  "tags": {
    "addr:city": "Heiligerlee",
    "addr:housenumber": "46",
    "addr:postcode": "9677PD",
    "addr:street": "Provincialeweg",
    "email": "info@klokkengieterijmuseum.nl",
    "name": "Klokkengieterijmuseum Heiligerlee",
    "phone": "+31597418199",
    "source": "BAG",
    "source:date": "2014-06-10",
    "tourism": "museum",
    "website": "https://www.klokkengieterijmuseum.nl/"
  }
},
{
  "type": "node",
  "id": 2914905584,
  "lat": 53.1551973,
  "lon": 7.0080752,
  "tags": {
    "addr:city": "Heiligerlee",
    "addr:housenumber": "55",
    "addr:postcode": "9677PB",
    "addr:street": "Provincialeweg",
    "email": "info@slagbijheiligerlee.nl",
    "name": "Slag bij Heiligerlee",
    "phone": "+31597418199",
    "source": "BAG",
    "source:date": "2014-06-10",
    "tourism": "museum",
    "website": "http://www.slagbijheiligerlee.nl"
  }
},
{
  "type": "node",
  "id": 2915904881,
  "lat": 53.1951307,
  "lon": 7.0144950,
  "tags": {
    "addr:city": "Midwolda",
    "addr:housenumber": "196",
    "addr:postcode": "9681AM",
    "addr:street": "Hoofdweg",
    "name": "Oorlogshistorie 1940-1945",
    "source": "BAG",
    "source:date": "2014-06-14",
    "tourism": "museum"
  }
},
{
  "type": "node",
  "id": 2948627526,
  "lat": 53.1043396,
  "lon": 6.0975412,
  "tags": {
    "addr:city": "Drachten",
    "addr:housenumber": "2",
    "addr:postcode": "9203DD",
    "addr:street": "Museumplein",
    "alt_name": "Museum Dr8888",
    "fee": "MJK_free",
    "name": "Museum Drachten",
    "old_name": "Museum Smallingerland",
    "opening_hours": "Tu-Su 11:00-17:00",
    "phone": "(0512) 515 647",
    "source": "BAG",
    "source:date": "2014-07-04",
    "toilets:wheelchair": "yes",
    "tourism": "museum",
    "website": "https://www.museumdrachten.nl/",
    "wheelchair": "limited",
    "wikidata": "Q3457274",
    "wikipedia": "nl:Museum Drachten"
  }
},
{
  "type": "node",
  "id": 2996262691,
  "lat": 53.1649157,
  "lon": 6.7292578,
  "tags": {
    "addr:city": "Hoogezand",
    "addr:housenumber": "13",
    "addr:postcode": "9601MA",
    "addr:street": "Produktieweg",
    "contact:phone": "0598 383 004",
    "contact:website": "https://www.nationaalbusmuseum.nl/",
    "name": "Nationaal Busmuseum",
    "source": "BAG",
    "source:date": "2014-08-03",
    "tourism": "museum",
    "wheelchair": "limited"
  }
},
{
  "type": "node",
  "id": 3509586497,
  "lat": 52.9357417,
  "lon": 6.6703140,
  "tags": {
    "alt_name": "Cuby & the Blizzards Museum",
    "name": "C+B Museum",
    "opening_hours": "Su 11:00-17:00",
    "tourism": "museum",
    "website": "https://www.cubymuseumgrolloo.nl/",
    "wikidata": "Q28151085",
    "wikipedia": "nl:C+B Museum"
  }
},
{
  "type": "node",
  "id": 3797248415,
  "lat": 53.3204827,
  "lon": 6.8576756,
  "tags": {
    "fee": "MJK_free",
    "name": "Museum Stad Appingedam",
    "tourism": "museum",
    "url": "https://www.museumstadappingedam.nl"
  }
},
{
  "type": "node",
  "id": 3979416254,
  "lat": 53.2670382,
  "lon": 6.3420766,
  "tags": {
    "addr:city": "Niezijl",
    "addr:housenumber": "39",
    "addr:postcode": "9842PC",
    "addr:street": "Hoofdstraat",
    "contact:email": "info@blikentrommelmuseum.nl",
    "contact:phone": "+31 594 212512",
    "contact:website": "http://blikentrommelmuseum.nl/",
    "name": "Blik Trommel en Oudheden Museum",
    "tourism": "museum"
  }
},
{
  "type": "node",
  "id": 4140721469,
  "lat": 52.9821808,
  "lon": 6.2173922,
  "tags": {
    "name": "Oold Ark",
    "tourism": "museum",
    "website": "http://www.museumenmolenmakkinga.nl/"
  }
},
{
  "type": "node",
  "id": 4159013906,
  "lat": 53.3332755,
  "lon": 6.5140388,
  "tags": {
    "addr:city": "Winsum",
    "addr:country": "NL",
    "addr:housenumber": "2",
    "addr:street": "Kerkpad",
    "email": "info@kinderboekcultuurbezit.nl",
    "museum": "children",
    "name": "Stichting Kinderboek Cultuurbezit",
    "phone": "+31 595 443 663",
    "tourism": "museum",
    "website": "http://www.kinderboekcultuurbezit.nl"
  }
},
{
  "type": "node",
  "id": 4307542977,
  "lat": 53.1795772,
  "lon": 6.1181101,
  "tags": {
    "name": "Openluchtmuseum De Spitkeet",
    "source": "BAG,http://www.despitkeet.nl/contact/",
    "subject": "history",
    "tourism": "museum",
    "website": "https://www.despitkeet.nl/"
  }
},
{
  "type": "node",
  "id": 4351226531,
  "lat": 53.2558852,
  "lon": 6.1390518,
  "tags": {
    "addr:city": "Buitenpost",
    "addr:housenumber": "29B",
    "addr:postcode": "9285NE",
    "addr:street": "Schoolstraat",
    "fee": "MJK_free",
    "name": "Botanische Tuin De Kruidhof",
    "source": "BAG",
    "source:date": "2014-03-24",
    "tourism": "museum",
    "website": "https://www.dekruidhof.nl/"
  }
},
{
  "type": "node",
  "id": 4352343999,
  "lat": 53.1670658,
  "lon": 6.3951462,
  "tags": {
    "fee": "MJK_free",
    "name": "Rijtuigmuseum",
    "opening_hours": "Apr-Oct Tu-Su 11:00-17:00",
    "tourism": "museum"
  }
},
{
  "type": "node",
  "id": 4352344000,
  "lat": 53.1678193,
  "lon": 6.3949267,
  "tags": {
    "fee": "MJK_free",
    "name": "Rijtuigmuseum",
    "opening_hours": "Apr-Oct Tu-Su 11:00-17:00",
    "tourism": "museum"
  }
},
{
  "type": "node",
  "id": 4352344001,
  "lat": 53.1667140,
  "lon": 6.3947922,
  "tags": {
    "fee": "MJK_free",
    "name": "Schelpengrot",
    "opening_hours": "Apr-Oct Tu-Su 11:00-17:00",
    "tourism": "museum"
  }
},
{
  "type": "node",
  "id": 4352360363,
  "lat": 53.2184196,
  "lon": 6.5631426,
  "tags": {
    "addr:city": "Groningen",
    "addr:housenumber": "7a",
    "addr:postcode": "9712EA",
    "addr:street": "Oude Kijk in 't Jatstraat",
    "fee": "no",
    "name": "Universiteitsmuseum",
    "name:en": "University Museum",
    "opening_hours": "Tu-Su 13:00-17:00; PH off",
    "operator": "Rijksuniversiteit Groningen",
    "source": "BAG",
    "source:date": "2014-03-24",
    "tourism": "museum",
    "wikidata": "Q1967608"
  }
},
{
  "type": "node",
  "id": 4397368192,
  "lat": 53.3201192,
  "lon": 6.8364965,
  "tags": {
    "addr:housenumber": "102",
    "addr:postcode": "9901 GK",
    "addr:street": "Westersingel",
    "name": "Museum Mohlmann",
    "name:nl": "Museum Mohlmann",
    "opening_hours": "Fr-Su 13:00-17:00",
    "tourism": "museum",
    "website": "https://www.museummohlmann.nl/"
  }
},
{
  "type": "node",
  "id": 4399024625,
  "lat": 53.1679379,
  "lon": 6.3942750,
  "tags": {
    "fee": "MJK_free",
    "name": "Borg Nienoord",
    "opening_hours": "Apr-Oct Tu-Su 11:00-17:00",
    "tourism": "museum"
  }
},
{
  "type": "node",
  "id": 4491498727,
  "lat": 53.2791560,
  "lon": 6.1506433,
  "tags": {
    "name": "Kollumer Museum Mr. Andreae",
    "phone": "0511 452833",
    "tourism": "museum",
    "website": "http://www.oudheidkamerkollum.nl"
  }
},
{
  "type": "node",
  "id": 4922400748,
  "lat": 53.2135806,
  "lon": 6.2675145,
  "tags": {
    "addr:city": "Grootegast",
    "addr:housenumber": "1C",
    "addr:postcode": "9861AT",
    "addr:street": "Legolaan",
    "name": "LEGIO-museum",
    "opening_hours": "Mo-Tu off; We 13:00-17:00; Th off; Fr 13:00-17:00; Sa-Su 10:00-17:00",
    "source": "BAG",
    "source:date": "2017-06-18",
    "tourism": "museum",
    "website": "http://legiomuseum.nl/"
  }
},
{
  "type": "node",
  "id": 6525359469,
  "lat": 52.9932696,
  "lon": 6.5639450,
  "tags": {
    "addr:city": "Assen",
    "addr:housenumber": "1",
    "addr:street": "Brink",
    "name": "Drents Museum",
    "tourism": "museum",
    "website": "www.drentsmuseum.nl",
    "wikidata": "Q1258370"
  }
},
{
  "type": "node",
  "id": 6996401973,
  "lat": 53.2157245,
  "lon": 6.8041802,
  "tags": {
    "name": "Politiepettenmuseum",
    "opening_hours": "\"on appointment\"",
    "phone": "06 52552414",
    "tourism": "museum"
  }
},
{
  "type": "node",
  "id": 7006179959,
  "lat": 53.2190092,
  "lon": 6.5706388,
  "tags": {
    "level": "7",
    "name": "Storyworld",
    "subject": "comics;animation;games",
    "tourism": "museum",
    "website": "https://www.storyworld.nl/"
  }
},
{
  "type": "way",
  "id": 47479894,
  "nodes": [
    2748291700,
    604297918,
    604297934,
    604297902,
    604297903,
    2748292473,
    604297908,
    604297907,
    604297904,
    604297906,
    604297905,
    2748291652,
    2748291712,
    2748291696,
    2748291700
  ],
  "tags": {
    "building": "yes",
    "name": "GR-ID",
    "ref:bag": "14100010935411",
    "source": "BAG",
    "source:date": "2014-03-24",
    "start_date": "1929",
    "tourism": "museum",
    "wikidata": "Q2882945",
    "wikipedia": "nl:GR-ID"
  }
},
{
  "type": "way",
  "id": 49053418,
  "nodes": [
    622411588,
    2798388900,
    2798388906,
    2798388897,
    2798388909,
    2798388919,
    622411569,
    2798389130,
    2798389132,
    622411594,
    622411591,
    622411585,
    2798391500,
    2798391505,
    622411588
  ],
  "tags": {
    "addr:housenumber": "2",
    "addr:street": "Kleasterwei",
    "building": "yes",
    "name": "Landbouwmuseum 'de Brink'",
    "ref:bag": "79100000357187",
    "source": "BAG",
    "source:date": "2014-03-24",
    "start_date": "1870",
    "tourism": "museum"
  }
},
{
  "type": "way",
  "id": 49053434,
  "nodes": [
    2798388193,
    2798388180,
    2798387192,
    2798387190,
    2798387125,
    2798387126,
    2798386984,
    2798386994,
    2798388193
  ],
  "tags": {
    "building": "yes",
    "castle_type": "stately",
    "historic": "castle",
    "name": "Fogelsanghstate",
    "ref:bag": "79100000364727",
    "source": "BAG",
    "source:date": "2014-03-24",
    "start_date": "1650",
    "tourism": "museum",
    "website": "http://www.fogelsangh-state.nl/index.php",
    "wikidata": "Q3464842",
    "wikipedia": "nl:Fogelsanghstate"
  }
},
{
  "type": "way",
  "id": 49818391,
  "nodes": [
    632946663,
    632946614,
    632946665,
    632946613,
    632946615,
    632946617,
    632946602,
    632946612,
    632946609,
    632946666,
    632946663
  ],
  "tags": {
    "addr:city": "Nieuwolda",
    "addr:housenumber": "19",
    "addr:postcode": "9944BP",
    "addr:street": "De Streep",
    "building": "yes",
    "name": "Gemaal De Hoogte",
    "opening_hours": "May-Sep: Su 13:00-16:00",
    "ref:bag": "1895100000014002",
    "source": "BAG",
    "source:date": "2014-06-10",
    "start_date": "1892",
    "tourism": "museum",
    "website": "http://www.museumgemaaldehoogte.nl/de%20hoogte.htm"
  }
},
{
  "type": "way",
  "id": 49820515,
  "nodes": [
    2917893389,
    2917893392,
    632985057,
    632985060,
    2917893388,
    632985062,
    2917893386,
    2917893380,
    2917893381,
    2917893379,
    632985048,
    2917893382,
    1934015968,
    1934015970,
    632985047,
    632985064,
    1934015974,
    632985056,
    632985054,
    2917893389
  ],
  "tags": {
    "building": "yes",
    "name": "Museum Stoomgemaal Winschoten",
    "ref:bag": "1895100000006308",
    "source": "BAG",
    "source:date": "2014-06-15",
    "start_date": "1878",
    "tourism": "museum",
    "website": "http://www.stoomgemaalwinschoten.nl",
    "wikipedia": "nl:Stoomgemaal Winschoten"
  }
},
{
  "type": "way",
  "id": 50984565,
  "nodes": [
    650054182,
    650054183,
    650054185,
    650053863,
    650053864,
    650053862,
    650053855,
    650053852,
    650053854,
    650054139,
    650054138,
    650054137,
    650054180,
    650054181,
    650054182
  ],
  "tags": {
    "building": "apartments",
    "name": "De Weem",
    "ref:bag": "24100000146351",
    "source": "BAG",
    "source:date": "2014-03-24",
    "start_date": "1980",
    "tourism": "museum",
    "website": "http://www.helmantel.nl",
    "wikipedia": "nl:Henk Helmantel"
  }
},
{
  "type": "way",
  "id": 51860115,
  "nodes": [
    661659765,
    661659764,
    661659759,
    661659760,
    661659765
  ],
  "tags": {
    "building": "yes",
    "castle_type": "stately",
    "historic": "castle",
    "name": "Borg Verhildersum",
    "ref:bag": "1663100000003355",
    "source": "BAG",
    "source:date": "2014-03-24",
    "start_date": "1450",
    "tourism": "museum",
    "wikipedia": "nl:Verhildersum"
  }
},
{
  "type": "way",
  "id": 51881889,
  "nodes": [
    662127600,
    662127595,
    662127596,
    5057009588,
    662127589,
    662127590,
    662127597,
    662127598,
    662127599,
    662127600
  ],
  "tags": {
    "building": "yes",
    "description": "Korenmolen, Pelmolen",
    "dhm_id": "307",
    "disused": "yes",
    "man_made": "windmill",
    "mdb_id": "386",
    "name": "De Ster",
    "ref:bag": "53100000005780",
    "source": "BAG",
    "source:date": "2014-03-24",
    "start_date": "1851",
    "tourism": "museum",
    "wikipedia": "nl:De Ster (Winsum)"
  }
},
{
  "type": "way",
  "id": 271789489,
  "nodes": [
    2767245182,
    2767243630,
    2767243652,
    2767245976,
    2767246030,
    2767245148,
    2767245166,
    2767244290,
    2767244249,
    2767243736,
    2767243763,
    2767243756,
    2767243166,
    2767243151,
    2767242690,
    2767242654,
    2767242645,
    2767242495,
    2767242506,
    2767242493,
    2767242662,
    2767242694,
    2767242723,
    2767242671,
    2767244298,
    2767244270,
    2767245142,
    2767245182
  ],
  "tags": {
    "addr:city": "Hooghalen",
    "addr:housenumber": "8",
    "addr:street": "Oosthalen",
    "building": "yes",
    "name": "Herinneringscentrum Kamp Westerbork",
    "ref:bag": "1731100000031239",
    "source": "BAG",
    "source:date": "2014-03-24",
    "start_date": "1982",
    "tourism": "museum",
    "url": "www.kampwesterbork.nl",
    "wheelchair": "yes",
    "wikidata": "Q22246632",
    "wikipedia": "nl:Herinneringscentrum Kamp Westerbork"
  }
},
{
  "type": "way",
  "id": 272027505,
  "nodes": [
    2769528840,
    2769528846,
    2769528994,
    2769529001,
    2769529012,
    2769529027,
    2769529032,
    2769529036,
    2769529040,
    2769529049,
    2769529055,
    2769529061,
    2769529059,
    2769529053,
    2769529044,
    2769529038,
    2769529035,
    2769529031,
    2769529023,
    2769529005,
    2769529003,
    2769528842,
    2769528847,
    2769528826,
    2769528829,
    2769529007,
    2769529034,
    2769528664,
    2769528650,
    2769528677,
    2769528672,
    2769528675,
    2769528706,
    2769528704,
    2769528709,
    2769528748,
    2769528739,
    2769528686,
    2769528687,
    2769528682,
    2769528680,
    2769528620,
    2769528626,
    2769528613,
    2769528612,
    2769528516,
    2769528517,
    2769528505,
    2769528503,
    2769528435,
    2769528436,
    2769528430,
    2769528429,
    2769528415,
    2769528414,
    2769528428,
    2769528427,
    2769527944,
    2769527942,
    2769528425,
    2769528424,
    2769528500,
    2769528494,
    2769528486,
    2769528485,
    2769528492,
    2769528495,
    2769528498,
    2769528501,
    2769528508,
    2769528515,
    2769528530,
    2769528585,
    2769528590,
    2769528593,
    2769528600,
    2769528606,
    2769528611,
    2769528614,
    2769528615,
    2769528840
  ],
  "tags": {
    "building": "yes",
    "name": "Drents Archief",
    "ref:bag": "106100000000722",
    "source": "BAG",
    "source:date": "2019-05-13",
    "start_date": "1900",
    "tourism": "museum",
    "wikidata": "Q1978308",
    "wikipedia": "nl:Drents Archief"
  }
},
{
  "type": "way",
  "id": 273074961,
  "nodes": [
    2779710779,
    2779710583,
    2779710576,
    2779710605,
    2779710602,
    2779710620,
    2779710597,
    2779710771,
    2779710609,
    2779710795,
    2779710601,
    2779710548,
    2779710547,
    2779710554,
    2779710876,
    2779710895,
    2779710940,
    2779710975,
    2779711075,
    2779711118,
    2779710779
  ],
  "tags": {
    "building": "yes",
    "description": "Muziekinstrumenten",
    "name": "Museum Vosbergen",
    "ref:bag": "1730100000009689",
    "source": "BAG",
    "source:date": "2014-03-24",
    "start_date": "1890",
    "tourism": "museum",
    "wikidata": "Q29564376"
  }
},
{
  "type": "way",
  "id": 275579320,
  "nodes": [
    2802125626,
    2802125631,
    2802125632,
    2802125660,
    2802125659,
    2802125627,
    2802125628,
    2802125625,
    2802125626
  ],
  "tags": {
    "building": "yes",
    "name": "Stoottroepen museum",
    "ref:bag": "106100000001287",
    "source": "BAG",
    "source:date": "2014-03-24",
    "start_date": "1896",
    "tourism": "museum"
  }
},
{
  "type": "way",
  "id": 278831776,
  "nodes": [
    2831312023,
    2831311887,
    2831311900,
    2831311865,
    2831311826,
    2831311871,
    2831311869,
    2831311893,
    2831312023
  ],
  "tags": {
    "building": "yes",
    "name": "Visserijmuseum Termunterzijl",
    "ref:bag": "10100000006222",
    "source": "BAG",
    "source:date": "2019-06-14",
    "start_date": "1910",
    "tourism": "museum"
  }
},
{
  "type": "way",
  "id": 279047538,
  "nodes": [
    2833092793,
    2833092787,
    2833092784,
    2833092767,
    2833093006,
    2833093016,
    2833093010,
    2833093014,
    2833092793
  ],
  "tags": {
    "building": "yes",
    "castle_type": "defensive",
    "historic": "castle",
    "name": "Iwema Steenhuis",
    "ref:bag": "25100000000944",
    "source": "BAG",
    "source:date": "2017-09-02",
    "start_date": "1960",
    "tourism": "museum",
    "wikipedia": "nl:Iwema-steenhuis"
  }
},
{
  "type": "way",
  "id": 502751426,
  "nodes": [
    4931298609,
    4931298608,
    4931298607,
    4931298605,
    4931298604,
    4931298603,
    4931298602,
    4931298601,
    4931298600,
    4931298599,
    4931298598,
    4931298593,
    4931298592,
    4931298613,
    6617758017,
    4931298610,
    4931298612,
    4931298611,
    6379023027,
    4931298614,
    4931298609
  ],
  "tags": {
    "addr:city": "Delfzijl",
    "addr:housenumber": "7A",
    "addr:postcode": "9933AV",
    "addr:street": "Zeebadweg",
    "building": "yes",
    "description": "Het MuzeeAquarium: een verrassende belevenis bij de Wadden! Een unieke combinatie van een natuurhistorische en een cultuurhistorische collectie met een aquarium waarin vissen en andere zeedieren van de Wadden- en Noordzee te zien zijn.",
    "email": "info@muzeeaquarium.nl",
    "level": "1",
    "name": "MuzeeAquarium",
    "note": "Reopened June 2nd 2018, Heropend 2 Juni 2018",
    "opening_hours": "Mo-Su 10:00-17:00",
    "operator": "MuzeeAquarium",
    "payment:cash": "yes",
    "payment:maestro": "yes",
    "phone": "+31 596 632 277",
    "ref:bag": "10100000015156",
    "source": "BAG",
    "source:date": "2019-04-02",
    "start_date": "1996",
    "tourism": "museum",
    "website": "https://www.muzeeaquarium.nl/",
    "wheelchair": "yes"
  }
},
{
  "type": "way",
  "id": 541322378,
  "nodes": [
    5234624689,
    5241578411,
    2050312782,
    632905396,
    5234624690,
    5234624688,
    5234624689
  ],
  "tags": {
    "addr:city": "Winschoten",
    "addr:housenumber": "63",
    "addr:postcode": "9675EN",
    "addr:street": "Nassaustraat",
    "building": "yes",
    "email": "museumwiertsema@gmail.com",
    "name": "Historische werkplaats",
    "opening_hours": "\"Op afspraak\"",
    "operator": "Stichting Historische werkplaats wijlen molenmaker Harm Wiertsema",
    "start_date": "1999",
    "tourism": "museum"
  }
},
{
  "type": "relation",
  "id": 3614207,
  "members": [
    {
      "type": "way",
      "ref": 270166935,
      "role": "outline"
    },
    {
      "type": "way",
      "ref": 625729586,
      "role": "part"
    },
    {
      "type": "way",
      "ref": 625729585,
      "role": "part"
    },
    {
      "type": "way",
      "ref": 625729584,
      "role": "part"
    },
    {
      "type": "way",
      "ref": 625729583,
      "role": "part"
    },
    {
      "type": "way",
      "ref": 625729582,
      "role": "part"
    },
    {
      "type": "way",
      "ref": 625729581,
      "role": "part"
    },
    {
      "type": "way",
      "ref": 625729579,
      "role": "part"
    },
    {
      "type": "way",
      "ref": 625729580,
      "role": "part"
    },
    {
      "type": "way",
      "ref": 270166863,
      "role": "part"
    },
    {
      "type": "way",
      "ref": 270166862,
      "role": "part"
    }
  ],
  "tags": {
    "addr:city": "Groningen",
    "addr:housenumber": "1",
    "addr:postcode": "9711ME",
    "addr:street": "Museumeiland",
    "building": "public",
    "building:architecture": "postmodern",
    "building:levels": "7",
    "fee": "MJK_free",
    "name": "Groninger Museum",
    "opening_hours": "Tu-Su 10:00-17:00",
    "ref:bag": "14100010910697",
    "roof:colour": "gray",
    "roof:shape": "flat",
    "source": "BAG",
    "source:date": "2014-03-24",
    "start_date": "1994",
    "tourism": "museum",
    "type": "building",
    "wikidata": "Q1542668",
    "wikipedia": "nl:Groninger Museum"
  }
},
{
  "type": "relation",
  "id": 6356220,
  "members": [
    {
      "type": "way",
      "ref": 272027507,
      "role": ""
    },
    {
      "type": "way",
      "ref": 272027506,
      "role": ""
    }
  ],
  "tags": {
    "name": "Drents Museum",
    "opening_hours": "Tu-Su 11:00-17:00",
    "tourism": "museum",
    "type": "site",
    "wikidata": "Q1258370",
    "wikipedia": "nl:Drents Museum"
  }
},
{
  "type": "relation",
  "id": 8736528,
  "members": [
    {
      "type": "way",
      "ref": 270166862,
      "role": "inner"
    },
    {
      "type": "way",
      "ref": 270166863,
      "role": "inner"
    },
    {
      "type": "way",
      "ref": 270166935,
      "role": "outer"
    }
  ],
  "tags": {
    "addr:city": "Groningen",
    "addr:housenumber": "1",
    "addr:postcode": "9711ME",
    "addr:street": "Museumeiland",
    "building": "public",
    "building:architecture": "postmodern",
    "building:levels": "7",
    "fee": "MJK_free",
    "name": "Groninger Museum",
    "opening_hours": "Tu-Su 10:00-17:00",
    "ref:bag": "14100010910697",
    "roof:colour": "gray",
    "roof:shape": "flat",
    "source:date": "2014-03-24",
    "start_date": "1994",
    "tourism": "museum",
    "type": "multipolygon",
    "wikidata": "Q1542668",
    "wikipedia": "nl:Groninger Museum"
  }
},
{
  "type": "node",
  "id": 622411569,
  "lat": 53.2650976,
  "lon": 6.1074498
},
{
  "type": "node",
  "id": 622411585,
  "lat": 53.2654207,
  "lon": 6.1072922
},
{
  "type": "node",
  "id": 622411588,
  "lat": 53.2654054,
  "lon": 6.1078099
},
{
  "type": "node",
  "id": 622411591,
  "lat": 53.2653339,
  "lon": 6.1072842
},
{
  "type": "node",
  "id": 622411594,
  "lat": 53.2653279,
  "lon": 6.1074567
},
{
  "type": "node",
  "id": 2798388897,
  "lat": 53.2650846,
  "lon": 6.1076864
},
{
  "type": "node",
  "id": 2798388900,
  "lat": 53.2650861,
  "lon": 6.1077793
},
{
  "type": "node",
  "id": 2798388906,
  "lat": 53.2650893,
  "lon": 6.1076869
},
{
  "type": "node",
  "id": 2798388909,
  "lat": 53.2650902,
  "lon": 6.1075264
},
{
  "type": "node",
  "id": 2798388919,
  "lat": 53.2650949,
  "lon": 6.1075270
},
{
  "type": "node",
  "id": 2798389130,
  "lat": 53.2651703,
  "lon": 6.1074569
},
{
  "type": "node",
  "id": 2798389132,
  "lat": 53.2651708,
  "lon": 6.1074416
},
{
  "type": "node",
  "id": 2798391500,
  "lat": 53.2654146,
  "lon": 6.1074650
},
{
  "type": "node",
  "id": 2798391505,
  "lat": 53.2654172,
  "lon": 6.1074652
},
{
  "type": "node",
  "id": 2798386984,
  "lat": 53.2645001,
  "lon": 6.1102150
},
{
  "type": "node",
  "id": 2798386994,
  "lat": 53.2645050,
  "lon": 6.1100080
},
{
  "type": "node",
  "id": 2798387125,
  "lat": 53.2645908,
  "lon": 6.1102798
},
{
  "type": "node",
  "id": 2798387126,
  "lat": 53.2645923,
  "lon": 6.1102212
},
{
  "type": "node",
  "id": 2798387190,
  "lat": 53.2646446,
  "lon": 6.1102834
},
{
  "type": "node",
  "id": 2798387192,
  "lat": 53.2646461,
  "lon": 6.1102248
},
{
  "type": "node",
  "id": 2798388180,
  "lat": 53.2647406,
  "lon": 6.1102312
},
{
  "type": "node",
  "id": 2798388193,
  "lat": 53.2647460,
  "lon": 6.1100248
},
{
  "type": "node",
  "id": 2767242493,
  "lat": 52.9207057,
  "lon": 6.5696663
},
{
  "type": "node",
  "id": 2767242495,
  "lat": 52.9207079,
  "lon": 6.5697264
},
{
  "type": "node",
  "id": 2767242506,
  "lat": 52.9207215,
  "lon": 6.5697140
},
{
  "type": "node",
  "id": 2767242645,
  "lat": 52.9207524,
  "lon": 6.5698607
},
{
  "type": "node",
  "id": 2767242654,
  "lat": 52.9207663,
  "lon": 6.5698550
},
{
  "type": "node",
  "id": 2767242662,
  "lat": 52.9207801,
  "lon": 6.5695991
},
{
  "type": "node",
  "id": 2767242671,
  "lat": 52.9207896,
  "lon": 6.5694492
},
{
  "type": "node",
  "id": 2767242690,
  "lat": 52.9208037,
  "lon": 6.5699682
},
{
  "type": "node",
  "id": 2767242694,
  "lat": 52.9208077,
  "lon": 6.5696827
},
{
  "type": "node",
  "id": 2767242723,
  "lat": 52.9208232,
  "lon": 6.5696762
},
{
  "type": "node",
  "id": 2767243151,
  "lat": 52.9208651,
  "lon": 6.5699435
},
{
  "type": "node",
  "id": 2767243166,
  "lat": 52.9208784,
  "lon": 6.5700331
},
{
  "type": "node",
  "id": 2767243630,
  "lat": 52.9209306,
  "lon": 6.5695492
},
{
  "type": "node",
  "id": 2767243652,
  "lat": 52.9209371,
  "lon": 6.5695934
},
{
  "type": "node",
  "id": 2767243736,
  "lat": 52.9209707,
  "lon": 6.5698086
},
{
  "type": "node",
  "id": 2767243756,
  "lat": 52.9209757,
  "lon": 6.5698728
},
{
  "type": "node",
  "id": 2767243763,
  "lat": 52.9209800,
  "lon": 6.5698710
},
{
  "type": "node",
  "id": 2767244249,
  "lat": 52.9210089,
  "lon": 6.5697930
},
{
  "type": "node",
  "id": 2767244270,
  "lat": 52.9210167,
  "lon": 6.5691904
},
{
  "type": "node",
  "id": 2767244290,
  "lat": 52.9210219,
  "lon": 6.5698803
},
{
  "type": "node",
  "id": 2767244298,
  "lat": 52.9210238,
  "lon": 6.5692368
},
{
  "type": "node",
  "id": 2767245142,
  "lat": 52.9211287,
  "lon": 6.5691452
},
{
  "type": "node",
  "id": 2767245148,
  "lat": 52.9211330,
  "lon": 6.5697224
},
{
  "type": "node",
  "id": 2767245166,
  "lat": 52.9211488,
  "lon": 6.5698290
},
{
  "type": "node",
  "id": 2767245182,
  "lat": 52.9211577,
  "lon": 6.5693421
},
{
  "type": "node",
  "id": 2767245976,
  "lat": 52.9213289,
  "lon": 6.5694360
},
{
  "type": "node",
  "id": 2767246030,
  "lat": 52.9213578,
  "lon": 6.5696319
},
{
  "type": "node",
  "id": 2802125625,
  "lat": 52.9931063,
  "lon": 6.5430172
},
{
  "type": "node",
  "id": 2802125626,
  "lat": 52.9931136,
  "lon": 6.5427847
},
{
  "type": "node",
  "id": 2802125627,
  "lat": 52.9931152,
  "lon": 6.5430593
},
{
  "type": "node",
  "id": 2802125628,
  "lat": 52.9931164,
  "lon": 6.5430181
},
{
  "type": "node",
  "id": 2802125631,
  "lat": 52.9931230,
  "lon": 6.5427863
},
{
  "type": "node",
  "id": 2802125632,
  "lat": 52.9931254,
  "lon": 6.5427442
},
{
  "type": "node",
  "id": 2802125659,
  "lat": 52.9932496,
  "lon": 6.5430722
},
{
  "type": "node",
  "id": 2802125660,
  "lat": 52.9932593,
  "lon": 6.5427541
},
{
  "type": "node",
  "id": 1135378897,
  "lat": 52.9923189,
  "lon": 6.5648063
},
{
  "type": "node",
  "id": 2769526089,
  "lat": 52.9923058,
  "lon": 6.5645443
},
{
  "type": "node",
  "id": 2769526094,
  "lat": 52.9923164,
  "lon": 6.5645360
},
{
  "type": "node",
  "id": 2769526095,
  "lat": 52.9923168,
  "lon": 6.5645426
},
{
  "type": "node",
  "id": 2769526098,
  "lat": 52.9923240,
  "lon": 6.5649093
},
{
  "type": "node",
  "id": 2769526412,
  "lat": 52.9925904,
  "lon": 6.5644983
},
{
  "type": "node",
  "id": 2769526491,
  "lat": 52.9926847,
  "lon": 6.5646179
},
{
  "type": "node",
  "id": 2769526499,
  "lat": 52.9926963,
  "lon": 6.5648535
},
{
  "type": "node",
  "id": 2769526503,
  "lat": 52.9926976,
  "lon": 6.5641175
},
{
  "type": "node",
  "id": 2769526510,
  "lat": 52.9927074,
  "lon": 6.5643086
},
{
  "type": "node",
  "id": 2769526576,
  "lat": 52.9927336,
  "lon": 6.5644364
},
{
  "type": "node",
  "id": 2769526623,
  "lat": 52.9927802,
  "lon": 6.5644298
},
{
  "type": "node",
  "id": 2769526626,
  "lat": 52.9927805,
  "lon": 6.5644364
},
{
  "type": "node",
  "id": 2769527307,
  "lat": 52.9929449,
  "lon": 6.5644068
},
{
  "type": "node",
  "id": 2769527314,
  "lat": 52.9929455,
  "lon": 6.5644143
},
{
  "type": "node",
  "id": 2769527595,
  "lat": 52.9930030,
  "lon": 6.5640748
},
{
  "type": "node",
  "id": 2769527603,
  "lat": 52.9930094,
  "lon": 6.5642018
},
{
  "type": "node",
  "id": 2769527604,
  "lat": 52.9930095,
  "lon": 6.5639052
},
{
  "type": "node",
  "id": 2769527635,
  "lat": 52.9930238,
  "lon": 6.5641945
},
{
  "type": "node",
  "id": 2769527680,
  "lat": 52.9930638,
  "lon": 6.5643114
},
{
  "type": "node",
  "id": 2769527689,
  "lat": 52.9930678,
  "lon": 6.5643896
},
{
  "type": "node",
  "id": 2769527860,
  "lat": 52.9930968,
  "lon": 6.5641854
},
{
  "type": "node",
  "id": 2769527862,
  "lat": 52.9930969,
  "lon": 6.5641896
},
{
  "type": "node",
  "id": 2769527866,
  "lat": 52.9930994,
  "lon": 6.5643064
},
{
  "type": "node",
  "id": 2769527870,
  "lat": 52.9931038,
  "lon": 6.5645063
},
{
  "type": "node",
  "id": 2769527936,
  "lat": 52.9931700,
  "lon": 6.5644862
},
{
  "type": "node",
  "id": 2769527938,
  "lat": 52.9931704,
  "lon": 6.5645020
},
{
  "type": "node",
  "id": 2769527942,
  "lat": 52.9931774,
  "lon": 6.5645796
},
{
  "type": "node",
  "id": 2769527944,
  "lat": 52.9931777,
  "lon": 6.5645895
},
{
  "type": "node",
  "id": 2769528414,
  "lat": 52.9931795,
  "lon": 6.5646583
},
{
  "type": "node",
  "id": 2769528415,
  "lat": 52.9931798,
  "lon": 6.5646685
},
{
  "type": "node",
  "id": 2769528418,
  "lat": 52.9931825,
  "lon": 6.5638823
},
{
  "type": "node",
  "id": 2769528422,
  "lat": 52.9931829,
  "lon": 6.5638915
},
{
  "type": "node",
  "id": 2769528424,
  "lat": 52.9931841,
  "lon": 6.5645458
},
{
  "type": "node",
  "id": 2769528425,
  "lat": 52.9931851,
  "lon": 6.5645789
},
{
  "type": "node",
  "id": 2769528427,
  "lat": 52.9931854,
  "lon": 6.5645889
},
{
  "type": "node",
  "id": 2769528428,
  "lat": 52.9931872,
  "lon": 6.5646577
},
{
  "type": "node",
  "id": 2769528429,
  "lat": 52.9931875,
  "lon": 6.5646678
},
{
  "type": "node",
  "id": 2769528430,
  "lat": 52.9931879,
  "lon": 6.5646804
},
{
  "type": "node",
  "id": 2769528435,
  "lat": 52.9931936,
  "lon": 6.5646673
},
{
  "type": "node",
  "id": 2769528436,
  "lat": 52.9931940,
  "lon": 6.5646799
},
{
  "type": "node",
  "id": 2769528453,
  "lat": 52.9932008,
  "lon": 6.5642762
},
{
  "type": "node",
  "id": 2769528463,
  "lat": 52.9932056,
  "lon": 6.5644832
},
{
  "type": "node",
  "id": 2769528485,
  "lat": 52.9932249,
  "lon": 6.5644914
},
{
  "type": "node",
  "id": 2769528486,
  "lat": 52.9932253,
  "lon": 6.5645015
},
{
  "type": "node",
  "id": 2769528492,
  "lat": 52.9932327,
  "lon": 6.5644906
},
{
  "type": "node",
  "id": 2769528494,
  "lat": 52.9932331,
  "lon": 6.5645007
},
{
  "type": "node",
  "id": 2769528495,
  "lat": 52.9932332,
  "lon": 6.5644826
},
{
  "type": "node",
  "id": 2769528498,
  "lat": 52.9932341,
  "lon": 6.5644766
},
{
  "type": "node",
  "id": 2769528500,
  "lat": 52.9932344,
  "lon": 6.5645412
},
{
  "type": "node",
  "id": 2769528501,
  "lat": 52.9932369,
  "lon": 6.5644667
},
{
  "type": "node",
  "id": 2769528503,
  "lat": 52.9932381,
  "lon": 6.5646636
},
{
  "type": "node",
  "id": 2769528505,
  "lat": 52.9932384,
  "lon": 6.5646764
},
{
  "type": "node",
  "id": 2769528508,
  "lat": 52.9932390,
  "lon": 6.5644619
},
{
  "type": "node",
  "id": 2769528515,
  "lat": 52.9932442,
  "lon": 6.5644526
},
{
  "type": "node",
  "id": 2769528516,
  "lat": 52.9932442,
  "lon": 6.5646631
},
{
  "type": "node",
  "id": 2769528517,
  "lat": 52.9932445,
  "lon": 6.5646759
},
{
  "type": "node",
  "id": 2769528530,
  "lat": 52.9932529,
  "lon": 6.5644460
},
{
  "type": "node",
  "id": 2769528585,
  "lat": 52.9932635,
  "lon": 6.5644427
},
{
  "type": "node",
  "id": 2769528590,
  "lat": 52.9932700,
  "lon": 6.5644446
},
{
  "type": "node",
  "id": 2769528593,
  "lat": 52.9932743,
  "lon": 6.5644489
},
{
  "type": "node",
  "id": 2769528600,
  "lat": 52.9932792,
  "lon": 6.5644523
},
{
  "type": "node",
  "id": 2769528601,
  "lat": 52.9932833,
  "lon": 6.5638670
},
{
  "type": "node",
  "id": 2769528602,
  "lat": 52.9932838,
  "lon": 6.5638767
},
{
  "type": "node",
  "id": 2769528606,
  "lat": 52.9932857,
  "lon": 6.5644658
},
{
  "type": "node",
  "id": 2769528611,
  "lat": 52.9932881,
  "lon": 6.5644742
},
{
  "type": "node",
  "id": 2769528612,
  "lat": 52.9932884,
  "lon": 6.5646595
},
{
  "type": "node",
  "id": 2769528613,
  "lat": 52.9932888,
  "lon": 6.5646722
},
{
  "type": "node",
  "id": 2769528614,
  "lat": 52.9932893,
  "lon": 6.5644804
},
{
  "type": "node",
  "id": 2769528615,
  "lat": 52.9932894,
  "lon": 6.5644877
},
{
  "type": "node",
  "id": 2769528620,
  "lat": 52.9932944,
  "lon": 6.5646590
},
{
  "type": "node",
  "id": 2769528621,
  "lat": 52.9932945,
  "lon": 6.5642619
},
{
  "type": "node",
  "id": 2769528625,
  "lat": 52.9932949,
  "lon": 6.5642673
},
{
  "type": "node",
  "id": 2769528626,
  "lat": 52.9932949,
  "lon": 6.5646717
},
{
  "type": "node",
  "id": 2769528632,
  "lat": 52.9932979,
  "lon": 6.5642668
},
{
  "type": "node",
  "id": 2769528642,
  "lat": 52.9933089,
  "lon": 6.5644485
},
{
  "type": "node",
  "id": 2769528650,
  "lat": 52.9933142,
  "lon": 6.5649044
},
{
  "type": "node",
  "id": 2769528664,
  "lat": 52.9933248,
  "lon": 6.5653180
},
{
  "type": "node",
  "id": 2769528666,
  "lat": 52.9933264,
  "lon": 6.5638604
},
{
  "type": "node",
  "id": 2769528671,
  "lat": 52.9933282,
  "lon": 6.5638941
},
{
  "type": "node",
  "id": 2769528672,
  "lat": 52.9933298,
  "lon": 6.5647626
},
{
  "type": "node",
  "id": 2769528675,
  "lat": 52.9933338,
  "lon": 6.5647551
},
{
  "type": "node",
  "id": 2769528677,
  "lat": 52.9933340,
  "lon": 6.5649030
},
{
  "type": "node",
  "id": 2769528680,
  "lat": 52.9933389,
  "lon": 6.5646553
},
{
  "type": "node",
  "id": 2769528682,
  "lat": 52.9933393,
  "lon": 6.5646681
},
{
  "type": "node",
  "id": 2769528686,
  "lat": 52.9933450,
  "lon": 6.5646548
},
{
  "type": "node",
  "id": 2769528687,
  "lat": 52.9933454,
  "lon": 6.5646676
},
{
  "type": "node",
  "id": 2769528704,
  "lat": 52.9933683,
  "lon": 6.5647214
},
{
  "type": "node",
  "id": 2769528706,
  "lat": 52.9933691,
  "lon": 6.5647525
},
{
  "type": "node",
  "id": 2769528709,
  "lat": 52.9933723,
  "lon": 6.5647142
},
{
  "type": "node",
  "id": 2769528739,
  "lat": 52.9933891,
  "lon": 6.5646512
},
{
  "type": "node",
  "id": 2769528748,
  "lat": 52.9933911,
  "lon": 6.5647128
},
{
  "type": "node",
  "id": 2769528772,
  "lat": 52.9934145,
  "lon": 6.5642475
},
{
  "type": "node",
  "id": 2769528777,
  "lat": 52.9934169,
  "lon": 6.5642373
},
{
  "type": "node",
  "id": 2769528778,
  "lat": 52.9934175,
  "lon": 6.5642469
},
{
  "type": "node",
  "id": 2769528788,
  "lat": 52.9934260,
  "lon": 6.5644294
},
{
  "type": "node",
  "id": 2769528798,
  "lat": 52.9934466,
  "lon": 6.5638715
},
{
  "type": "node",
  "id": 2769528799,
  "lat": 52.9934468,
  "lon": 6.5638764
},
{
  "type": "node",
  "id": 2769528803,
  "lat": 52.9934485,
  "lon": 6.5642350
},
{
  "type": "node",
  "id": 2769528805,
  "lat": 52.9934491,
  "lon": 6.5642435
},
{
  "type": "node",
  "id": 2769528807,
  "lat": 52.9934508,
  "lon": 6.5642517
},
{
  "type": "node",
  "id": 2769528808,
  "lat": 52.9934520,
  "lon": 6.5642555
},
{
  "type": "node",
  "id": 2769528809,
  "lat": 52.9934535,
  "lon": 6.5642590
},
{
  "type": "node",
  "id": 2769528810,
  "lat": 52.9934553,
  "lon": 6.5642622
},
{
  "type": "node",
  "id": 2769528812,
  "lat": 52.9934562,
  "lon": 6.5638538
},
{
  "type": "node",
  "id": 2769528813,
  "lat": 52.9934570,
  "lon": 6.5638699
},
{
  "type": "node",
  "id": 2769528814,
  "lat": 52.9934572,
  "lon": 6.5642651
},
{
  "type": "node",
  "id": 2769528818,
  "lat": 52.9934616,
  "lon": 6.5642698
},
{
  "type": "node",
  "id": 2769528820,
  "lat": 52.9934640,
  "lon": 6.5642715
},
{
  "type": "node",
  "id": 2769528822,
  "lat": 52.9934665,
  "lon": 6.5642727
},
{
  "type": "node",
  "id": 2769528823,
  "lat": 52.9934690,
  "lon": 6.5642735
},
{
  "type": "node",
  "id": 2769528825,
  "lat": 52.9934716,
  "lon": 6.5642738
},
{
  "type": "node",
  "id": 2769528826,
  "lat": 52.9934718,
  "lon": 6.5646985
},
{
  "type": "node",
  "id": 2769528827,
  "lat": 52.9934742,
  "lon": 6.5642736
},
{
  "type": "node",
  "id": 2769528828,
  "lat": 52.9934768,
  "lon": 6.5642729
},
{
  "type": "node",
  "id": 2769528829,
  "lat": 52.9934772,
  "lon": 6.5648929
},
{
  "type": "node",
  "id": 2769528831,
  "lat": 52.9934793,
  "lon": 6.5642718
},
{
  "type": "node",
  "id": 2769528832,
  "lat": 52.9934817,
  "lon": 6.5642702
},
{
  "type": "node",
  "id": 2769528835,
  "lat": 52.9934862,
  "lon": 6.5642657
},
{
  "type": "node",
  "id": 2769528840,
  "lat": 52.9934881,
  "lon": 6.5644711
},
{
  "type": "node",
  "id": 2769528842,
  "lat": 52.9934893,
  "lon": 6.5645597
},
{
  "type": "node",
  "id": 2769528843,
  "lat": 52.9934899,
  "lon": 6.5642597
},
{
  "type": "node",
  "id": 2769528845,
  "lat": 52.9934927,
  "lon": 6.5642525
},
{
  "type": "node",
  "id": 2769528846,
  "lat": 52.9934930,
  "lon": 6.5644638
},
{
  "type": "node",
  "id": 2769528847,
  "lat": 52.9934932,
  "lon": 6.5646965
},
{
  "type": "node",
  "id": 2769528849,
  "lat": 52.9934938,
  "lon": 6.5642485
},
{
  "type": "node",
  "id": 2769528852,
  "lat": 52.9934950,
  "lon": 6.5642402
},
{
  "type": "node",
  "id": 2769528993,
  "lat": 52.9934951,
  "lon": 6.5642315
},
{
  "type": "node",
  "id": 2769528994,
  "lat": 52.9934972,
  "lon": 6.5644600
},
{
  "type": "node",
  "id": 2769528997,
  "lat": 52.9934990,
  "lon": 6.5638475
},
{
  "type": "node",
  "id": 2769528999,
  "lat": 52.9934999,
  "lon": 6.5638636
},
{
  "type": "node",
  "id": 2769529001,
  "lat": 52.9935032,
  "lon": 6.5644575
},
{
  "type": "node",
  "id": 2769529003,
  "lat": 52.9935053,
  "lon": 6.5645582
},
{
  "type": "node",
  "id": 2769529005,
  "lat": 52.9935055,
  "lon": 6.5645325
},
{
  "type": "node",
  "id": 2769529007,
  "lat": 52.9935059,
  "lon": 6.5648909
},
{
  "type": "node",
  "id": 2769529012,
  "lat": 52.9935077,
  "lon": 6.5644574
},
{
  "type": "node",
  "id": 2769529016,
  "lat": 52.9935106,
  "lon": 6.5638621
},
{
  "type": "node",
  "id": 2769529021,
  "lat": 52.9935118,
  "lon": 6.5638803
},
{
  "type": "node",
  "id": 2769529022,
  "lat": 52.9935120,
  "lon": 6.5642303
},
{
  "type": "node",
  "id": 2769529023,
  "lat": 52.9935120,
  "lon": 6.5645310
},
{
  "type": "node",
  "id": 2769529024,
  "lat": 52.9935121,
  "lon": 6.5642364
},
{
  "type": "node",
  "id": 2769529027,
  "lat": 52.9935124,
  "lon": 6.5644589
},
{
  "type": "node",
  "id": 2769529031,
  "lat": 52.9935151,
  "lon": 6.5645291
},
{
  "type": "node",
  "id": 2769529032,
  "lat": 52.9935162,
  "lon": 6.5644615
},
{
  "type": "node",
  "id": 2769529034,
  "lat": 52.9935180,
  "lon": 6.5653044
},
{
  "type": "node",
  "id": 2769529035,
  "lat": 52.9935189,
  "lon": 6.5645255
},
{
  "type": "node",
  "id": 2769529036,
  "lat": 52.9935204,
  "lon": 6.5644662
},
{
  "type": "node",
  "id": 2769529037,
  "lat": 52.9935206,
  "lon": 6.5642361
},
{
  "type": "node",
  "id": 2769529038,
  "lat": 52.9935215,
  "lon": 6.5645220
},
{
  "type": "node",
  "id": 2769529040,
  "lat": 52.9935226,
  "lon": 6.5644697
},
{
  "type": "node",
  "id": 2769529041,
  "lat": 52.9935227,
  "lon": 6.5643256
},
{
  "type": "node",
  "id": 2769529044,
  "lat": 52.9935243,
  "lon": 6.5645164
},
{
  "type": "node",
  "id": 2769529049,
  "lat": 52.9935256,
  "lon": 6.5644766
},
{
  "type": "node",
  "id": 2769529053,
  "lat": 52.9935273,
  "lon": 6.5645066
},
{
  "type": "node",
  "id": 2769529055,
  "lat": 52.9935278,
  "lon": 6.5644861
},
{
  "type": "node",
  "id": 2769529059,
  "lat": 52.9935283,
  "lon": 6.5644996
},
{
  "type": "node",
  "id": 2769529061,
  "lat": 52.9935284,
  "lon": 6.5644928
},
{
  "type": "node",
  "id": 2769529078,
  "lat": 52.9935523,
  "lon": 6.5643736
},
{
  "type": "node",
  "id": 2769529180,
  "lat": 52.9935941,
  "lon": 6.5643725
},
{
  "type": "node",
  "id": 2769529461,
  "lat": 52.9936200,
  "lon": 6.5638791
},
{
  "type": "node",
  "id": 2769529462,
  "lat": 52.9936232,
  "lon": 6.5643221
},
{
  "type": "node",
  "id": 6855899761,
  "lat": 52.9928544,
  "lon": 6.5644265
},
{
  "type": "node",
  "id": 6893296811,
  "lat": 52.9930133,
  "lon": 6.5643972
},
{
  "type": "node",
  "id": 6932108003,
  "lat": 52.9929747,
  "lon": 6.5640788
},
{
  "type": "node",
  "id": 6932108004,
  "lat": 52.9932745,
  "lon": 6.5638781
},
{
  "type": "node",
  "id": 6932108014,
  "lat": 52.9924901,
  "lon": 6.5645108
},
{
  "type": "node",
  "id": 6932108017,
  "lat": 52.9925068,
  "lon": 6.5648819
},
{
  "type": "node",
  "id": 6932108018,
  "lat": 52.9925244,
  "lon": 6.5648793
},
{
  "type": "node",
  "id": 6932108073,
  "lat": 52.9927032,
  "lon": 6.5643154
},
{
  "type": "node",
  "id": 6932108074,
  "lat": 52.9927106,
  "lon": 6.5645217
},
{
  "type": "node",
  "id": 6932108082,
  "lat": 52.9923437,
  "lon": 6.5649063
},
{
  "type": "node",
  "id": 6932108083,
  "lat": 52.9923291,
  "lon": 6.5645342
},
{
  "type": "node",
  "id": 2833092767,
  "lat": 53.1567753,
  "lon": 6.3258208
},
{
  "type": "node",
  "id": 2833092784,
  "lat": 53.1568136,
  "lon": 6.3261999
},
{
  "type": "node",
  "id": 2833092787,
  "lat": 53.1568507,
  "lon": 6.3261896
},
{
  "type": "node",
  "id": 2833092793,
  "lat": 53.1568626,
  "lon": 6.3263078
},
{
  "type": "node",
  "id": 2833093006,
  "lat": 53.1569029,
  "lon": 6.3257852
},
{
  "type": "node",
  "id": 2833093010,
  "lat": 53.1569151,
  "lon": 6.3261674
},
{
  "type": "node",
  "id": 2833093014,
  "lat": 53.1569274,
  "lon": 6.3262897
},
{
  "type": "node",
  "id": 2833093016,
  "lat": 53.1569407,
  "lon": 6.3261603
},
{
  "type": "node",
  "id": 2779710547,
  "lat": 53.1398560,
  "lon": 6.5866831
},
{
  "type": "node",
  "id": 2779710548,
  "lat": 53.1398623,
  "lon": 6.5867419
},
{
  "type": "node",
  "id": 2779710554,
  "lat": 53.1398650,
  "lon": 6.5866608
},
{
  "type": "node",
  "id": 2779710576,
  "lat": 53.1398915,
  "lon": 6.5869857
},
{
  "type": "node",
  "id": 2779710583,
  "lat": 53.1398951,
  "lon": 6.5870194
},
{
  "type": "node",
  "id": 2779710597,
  "lat": 53.1399047,
  "lon": 6.5868793
},
{
  "type": "node",
  "id": 2779710601,
  "lat": 53.1399069,
  "lon": 6.5867288
},
{
  "type": "node",
  "id": 2779710602,
  "lat": 53.1399072,
  "lon": 6.5869617
},
{
  "type": "node",
  "id": 2779710605,
  "lat": 53.1399076,
  "lon": 6.5869653
},
{
  "type": "node",
  "id": 2779710609,
  "lat": 53.1399096,
  "lon": 6.5868396
},
{
  "type": "node",
  "id": 2779710620,
  "lat": 53.1399133,
  "lon": 6.5869599
},
{
  "type": "node",
  "id": 2779710771,
  "lat": 53.1399136,
  "lon": 6.5868767
},
{
  "type": "node",
  "id": 2779710779,
  "lat": 53.1399147,
  "lon": 6.5870331
},
{
  "type": "node",
  "id": 2779710795,
  "lat": 53.1399185,
  "lon": 6.5868370
},
{
  "type": "node",
  "id": 2779710876,
  "lat": 53.1399545,
  "lon": 6.5866343
},
{
  "type": "node",
  "id": 2779710895,
  "lat": 53.1399660,
  "lon": 6.5867422
},
{
  "type": "node",
  "id": 2779710940,
  "lat": 53.1399758,
  "lon": 6.5867393
},
{
  "type": "node",
  "id": 2779710975,
  "lat": 53.1399841,
  "lon": 6.5868171
},
{
  "type": "node",
  "id": 2779711075,
  "lat": 53.1400492,
  "lon": 6.5867980
},
{
  "type": "node",
  "id": 2779711118,
  "lat": 53.1400694,
  "lon": 6.5869875
},
{
  "type": "node",
  "id": 1099304253,
  "lat": 53.2124815,
  "lon": 6.5656894
},
{
  "type": "node",
  "id": 1099326805,
  "lat": 53.2120654,
  "lon": 6.5658097
},
{
  "type": "node",
  "id": 1099330741,
  "lat": 53.2120627,
  "lon": 6.5657432
},
{
  "type": "node",
  "id": 1099354978,
  "lat": 53.2124849,
  "lon": 6.5657737
},
{
  "type": "node",
  "id": 2752228413,
  "lat": 53.2120576,
  "lon": 6.5656170
},
{
  "type": "node",
  "id": 2752228416,
  "lat": 53.2120839,
  "lon": 6.5662661
},
{
  "type": "node",
  "id": 2752228417,
  "lat": 53.2120980,
  "lon": 6.5649838
},
{
  "type": "node",
  "id": 2752228418,
  "lat": 53.2121174,
  "lon": 6.5654637
},
{
  "type": "node",
  "id": 2752228419,
  "lat": 53.2121585,
  "lon": 6.5665842
},
{
  "type": "node",
  "id": 2752228420,
  "lat": 53.2121749,
  "lon": 6.5656041
},
{
  "type": "node",
  "id": 2752228422,
  "lat": 53.2121803,
  "lon": 6.5657376
},
{
  "type": "node",
  "id": 2752228423,
  "lat": 53.2121840,
  "lon": 6.5658092
},
{
  "type": "node",
  "id": 2752228424,
  "lat": 53.2121921,
  "lon": 6.5660183
},
{
  "type": "node",
  "id": 2752228425,
  "lat": 53.2121946,
  "lon": 6.5661991
},
{
  "type": "node",
  "id": 2752228426,
  "lat": 53.2121967,
  "lon": 6.5662516
},
{
  "type": "node",
  "id": 2752228427,
  "lat": 53.2122017,
  "lon": 6.5657350
},
{
  "type": "node",
  "id": 2752228428,
  "lat": 53.2122059,
  "lon": 6.5658067
},
{
  "type": "node",
  "id": 2752228429,
  "lat": 53.2122085,
  "lon": 6.5657265
},
{
  "type": "node",
  "id": 2752228430,
  "lat": 53.2122132,
  "lon": 6.5658137
},
{
  "type": "node",
  "id": 2752228431,
  "lat": 53.2122158,
  "lon": 6.5657189
},
{
  "type": "node",
  "id": 2752228432,
  "lat": 53.2122208,
  "lon": 6.5658198
},
{
  "type": "node",
  "id": 2752228433,
  "lat": 53.2122233,
  "lon": 6.5657120
},
{
  "type": "node",
  "id": 2752228434,
  "lat": 53.2122286,
  "lon": 6.5658250
},
{
  "type": "node",
  "id": 2752228435,
  "lat": 53.2122310,
  "lon": 6.5657060
},
{
  "type": "node",
  "id": 2752228436,
  "lat": 53.2122318,
  "lon": 6.5659640
},
{
  "type": "node",
  "id": 2752228437,
  "lat": 53.2122340,
  "lon": 6.5660131
},
{
  "type": "node",
  "id": 2752228438,
  "lat": 53.2122366,
  "lon": 6.5658293
},
{
  "type": "node",
  "id": 2752228439,
  "lat": 53.2122390,
  "lon": 6.5657009
},
{
  "type": "node",
  "id": 2752228470,
  "lat": 53.2122411,
  "lon": 6.5661935
},
{
  "type": "node",
  "id": 2752228471,
  "lat": 53.2122442,
  "lon": 6.5662627
},
{
  "type": "node",
  "id": 2752228472,
  "lat": 53.2122447,
  "lon": 6.5658326
},
{
  "type": "node",
  "id": 2752228473,
  "lat": 53.2122455,
  "lon": 6.5654494
},
{
  "type": "node",
  "id": 2752228475,
  "lat": 53.2122472,
  "lon": 6.5656968
},
{
  "type": "node",
  "id": 2752228476,
  "lat": 53.2122482,
  "lon": 6.5663927
},
{
  "type": "node",
  "id": 2752228477,
  "lat": 53.2122487,
  "lon": 6.5664185
},
{
  "type": "node",
  "id": 2752228478,
  "lat": 53.2122498,
  "lon": 6.5663684
},
{
  "type": "node",
  "id": 2752228480,
  "lat": 53.2122510,
  "lon": 6.5664342
},
{
  "type": "node",
  "id": 2752228481,
  "lat": 53.2122530,
  "lon": 6.5658350
},
{
  "type": "node",
  "id": 2752228482,
  "lat": 53.2122539,
  "lon": 6.5663529
},
{
  "type": "node",
  "id": 2752228483,
  "lat": 53.2122552,
  "lon": 6.5664498
},
{
  "type": "node",
  "id": 2752228484,
  "lat": 53.2122555,
  "lon": 6.5656936
},
{
  "type": "node",
  "id": 2752228485,
  "lat": 53.2122602,
  "lon": 6.5664628
},
{
  "type": "node",
  "id": 2752228486,
  "lat": 53.2122614,
  "lon": 6.5658363
},
{
  "type": "node",
  "id": 2752228487,
  "lat": 53.2122623,
  "lon": 6.5663296
},
{
  "type": "node",
  "id": 2752228488,
  "lat": 53.2122660,
  "lon": 6.5664743
},
{
  "type": "node",
  "id": 2752228489,
  "lat": 53.2122662,
  "lon": 6.5659589
},
{
  "type": "node",
  "id": 2752228490,
  "lat": 53.2122678,
  "lon": 6.5663195
},
{
  "type": "node",
  "id": 2752228491,
  "lat": 53.2122751,
  "lon": 6.5664877
},
{
  "type": "node",
  "id": 2752228492,
  "lat": 53.2122760,
  "lon": 6.5662598
},
{
  "type": "node",
  "id": 2752228493,
  "lat": 53.2122768,
  "lon": 6.5654458
},
{
  "type": "node",
  "id": 2752228494,
  "lat": 53.2122783,
  "lon": 6.5663046
},
{
  "type": "node",
  "id": 2752228495,
  "lat": 53.2122855,
  "lon": 6.5664987
},
{
  "type": "node",
  "id": 2752228496,
  "lat": 53.2122874,
  "lon": 6.5656898
},
{
  "type": "node",
  "id": 2752228497,
  "lat": 53.2122882,
  "lon": 6.5665680
},
{
  "type": "node",
  "id": 2752228498,
  "lat": 53.2122927,
  "lon": 6.5658324
},
{
  "type": "node",
  "id": 2752228499,
  "lat": 53.2122959,
  "lon": 6.5656911
},
{
  "type": "node",
  "id": 2752228500,
  "lat": 53.2122977,
  "lon": 6.5659547
},
{
  "type": "node",
  "id": 2752228502,
  "lat": 53.2123010,
  "lon": 6.5658290
},
{
  "type": "node",
  "id": 2752228504,
  "lat": 53.2123043,
  "lon": 6.5656933
},
{
  "type": "node",
  "id": 2752228505,
  "lat": 53.2123062,
  "lon": 6.5662568
},
{
  "type": "node",
  "id": 2752228506,
  "lat": 53.2123081,
  "lon": 6.5662994
},
{
  "type": "node",
  "id": 2752228507,
  "lat": 53.2123091,
  "lon": 6.5658247
},
{
  "type": "node",
  "id": 2752228508,
  "lat": 53.2123126,
  "lon": 6.5656966
},
{
  "type": "node",
  "id": 2752228509,
  "lat": 53.2123160,
  "lon": 6.5664983
},
{
  "type": "node",
  "id": 2752228510,
  "lat": 53.2123171,
  "lon": 6.5658196
},
{
  "type": "node",
  "id": 2752228511,
  "lat": 53.2123183,
  "lon": 6.5665657
},
{
  "type": "node",
  "id": 2752228512,
  "lat": 53.2123189,
  "lon": 6.5663087
},
{
  "type": "node",
  "id": 2752228513,
  "lat": 53.2123208,
  "lon": 6.5657008
},
{
  "type": "node",
  "id": 2752228514,
  "lat": 53.2123225,
  "lon": 6.5664907
},
{
  "type": "node",
  "id": 2752228515,
  "lat": 53.2123248,
  "lon": 6.5658136
},
{
  "type": "node",
  "id": 2752228516,
  "lat": 53.2123273,
  "lon": 6.5663198
},
{
  "type": "node",
  "id": 2752228517,
  "lat": 53.2123287,
  "lon": 6.5657059
},
{
  "type": "node",
  "id": 2752228518,
  "lat": 53.2123288,
  "lon": 6.5659520
},
{
  "type": "node",
  "id": 2752228519,
  "lat": 53.2123297,
  "lon": 6.5664795
},
{
  "type": "node",
  "id": 2752228520,
  "lat": 53.2123309,
  "lon": 6.5660006
},
{
  "type": "node",
  "id": 2752228521,
  "lat": 53.2123323,
  "lon": 6.5658068
},
{
  "type": "node",
  "id": 2752228522,
  "lat": 53.2123351,
  "lon": 6.5663337
},
{
  "type": "node",
  "id": 2752228523,
  "lat": 53.2123365,
  "lon": 6.5657120
},
{
  "type": "node",
  "id": 2752228524,
  "lat": 53.2123373,
  "lon": 6.5664635
},
{
  "type": "node",
  "id": 2752228525,
  "lat": 53.2123380,
  "lon": 6.5661816
},
{
  "type": "node",
  "id": 2752228526,
  "lat": 53.2123395,
  "lon": 6.5657992
},
{
  "type": "node",
  "id": 2752228527,
  "lat": 53.2123403,
  "lon": 6.5662516
},
{
  "type": "node",
  "id": 2752228528,
  "lat": 53.2123423,
  "lon": 6.5663519
},
{
  "type": "node",
  "id": 2752228529,
  "lat": 53.2123426,
  "lon": 6.5664469
},
{
  "type": "node",
  "id": 2752228530,
  "lat": 53.2123439,
  "lon": 6.5657190
},
{
  "type": "node",
  "id": 2752228531,
  "lat": 53.2123461,
  "lon": 6.5663664
},
{
  "type": "node",
  "id": 2752228532,
  "lat": 53.2123462,
  "lon": 6.5664297
},
{
  "type": "node",
  "id": 2752228533,
  "lat": 53.2123464,
  "lon": 6.5657908
},
{
  "type": "node",
  "id": 2752228534,
  "lat": 53.2123481,
  "lon": 6.5663811
},
{
  "type": "node",
  "id": 2752228535,
  "lat": 53.2123483,
  "lon": 6.5664127
},
{
  "type": "node",
  "id": 2752228536,
  "lat": 53.2123491,
  "lon": 6.5663955
},
{
  "type": "node",
  "id": 2752228540,
  "lat": 53.2123596,
  "lon": 6.5655836
},
{
  "type": "node",
  "id": 2752228544,
  "lat": 53.2123647,
  "lon": 6.5657167
},
{
  "type": "node",
  "id": 2752228545,
  "lat": 53.2123671,
  "lon": 6.5657883
},
{
  "type": "node",
  "id": 2752228547,
  "lat": 53.2123758,
  "lon": 6.5659951
},
{
  "type": "node",
  "id": 2752228550,
  "lat": 53.2123849,
  "lon": 6.5661754
},
{
  "type": "node",
  "id": 2752228551,
  "lat": 53.2123859,
  "lon": 6.5649508
},
{
  "type": "node",
  "id": 2752228552,
  "lat": 53.2123873,
  "lon": 6.5662280
},
{
  "type": "node",
  "id": 2752228557,
  "lat": 53.2124052,
  "lon": 6.5654308
},
{
  "type": "node",
  "id": 2752228569,
  "lat": 53.2124490,
  "lon": 6.5665495
},
{
  "type": "node",
  "id": 2752228582,
  "lat": 53.2124768,
  "lon": 6.5655700
},
{
  "type": "node",
  "id": 2752228588,
  "lat": 53.2125024,
  "lon": 6.5662139
},
{
  "type": "node",
  "id": 3986485813,
  "lat": 53.2120661,
  "lon": 6.5658264
},
{
  "type": "node",
  "id": 3986485814,
  "lat": 53.2120640,
  "lon": 6.5657752
},
{
  "type": "node",
  "id": 3986485815,
  "lat": 53.2121892,
  "lon": 6.5659422
},
{
  "type": "node",
  "id": 3986485816,
  "lat": 53.2123725,
  "lon": 6.5659155
},
{
  "type": "node",
  "id": 3986485817,
  "lat": 53.2124898,
  "lon": 6.5658959
},
{
  "type": "node",
  "id": 3986485818,
  "lat": 53.2124833,
  "lon": 6.5657326
},
{
  "type": "node",
  "id": 3986485819,
  "lat": 53.2120715,
  "lon": 6.5659605
},
{
  "type": "node",
  "id": 5907843171,
  "lat": 53.2124931,
  "lon": 6.5659798
},
{
  "type": "node",
  "id": 5907843172,
  "lat": 53.2120744,
  "lon": 6.5660313
},
{
  "type": "node",
  "id": 5907843173,
  "lat": 53.2121172,
  "lon": 6.5651607
},
{
  "type": "node",
  "id": 5907843174,
  "lat": 53.2121299,
  "lon": 6.5651043
},
{
  "type": "node",
  "id": 5907843175,
  "lat": 53.2121509,
  "lon": 6.5650552
},
{
  "type": "node",
  "id": 5907843176,
  "lat": 53.2121787,
  "lon": 6.5650169
},
{
  "type": "node",
  "id": 5907843177,
  "lat": 53.2122116,
  "lon": 6.5649920
},
{
  "type": "node",
  "id": 5907843178,
  "lat": 53.2122472,
  "lon": 6.5649821
},
{
  "type": "node",
  "id": 5907843179,
  "lat": 53.2122831,
  "lon": 6.5649879
},
{
  "type": "node",
  "id": 5907843180,
  "lat": 53.2123169,
  "lon": 6.5650090
},
{
  "type": "node",
  "id": 5907843181,
  "lat": 53.2123462,
  "lon": 6.5650440
},
{
  "type": "node",
  "id": 5907843182,
  "lat": 53.2123692,
  "lon": 6.5650906
},
{
  "type": "node",
  "id": 5907843183,
  "lat": 53.2123841,
  "lon": 6.5651454
},
{
  "type": "node",
  "id": 5907843184,
  "lat": 53.2123866,
  "lon": 6.5652648
},
{
  "type": "node",
  "id": 5907843185,
  "lat": 53.2123739,
  "lon": 6.5653213
},
{
  "type": "node",
  "id": 5907843186,
  "lat": 53.2123530,
  "lon": 6.5653703
},
{
  "type": "node",
  "id": 5907843187,
  "lat": 53.2123251,
  "lon": 6.5654086
},
{
  "type": "node",
  "id": 5907843188,
  "lat": 53.2122922,
  "lon": 6.5654336
},
{
  "type": "node",
  "id": 5907843189,
  "lat": 53.2122566,
  "lon": 6.5654435
},
{
  "type": "node",
  "id": 5907843190,
  "lat": 53.2122207,
  "lon": 6.5654377
},
{
  "type": "node",
  "id": 5907843191,
  "lat": 53.2121869,
  "lon": 6.5654165
},
{
  "type": "node",
  "id": 5907843192,
  "lat": 53.2121576,
  "lon": 6.5653815
},
{
  "type": "node",
  "id": 5907843193,
  "lat": 53.2121346,
  "lon": 6.5653350
},
{
  "type": "node",
  "id": 5907843194,
  "lat": 53.2121197,
  "lon": 6.5652801
},
{
  "type": "node",
  "id": 5907843195,
  "lat": 53.2121137,
  "lon": 6.5652207
},
{
  "type": "node",
  "id": 5907843196,
  "lat": 53.2123901,
  "lon": 6.5652048
},
{
  "type": "node",
  "id": 604297902,
  "lat": 53.2092824,
  "lon": 6.5682487
},
{
  "type": "node",
  "id": 604297903,
  "lat": 53.2093097,
  "lon": 6.5682396
},
{
  "type": "node",
  "id": 604297904,
  "lat": 53.2090751,
  "lon": 6.5683866
},
{
  "type": "node",
  "id": 604297905,
  "lat": 53.2090301,
  "lon": 6.5684408
},
{
  "type": "node",
  "id": 604297906,
  "lat": 53.2090799,
  "lon": 6.5684066
},
{
  "type": "node",
  "id": 604297907,
  "lat": 53.2091758,
  "lon": 6.5683172
},
{
  "type": "node",
  "id": 604297908,
  "lat": 53.2091876,
  "lon": 6.5683649
},
{
  "type": "node",
  "id": 604297918,
  "lat": 53.2092166,
  "lon": 6.5681012
},
{
  "type": "node",
  "id": 604297934,
  "lat": 53.2092555,
  "lon": 6.5682623
},
{
  "type": "node",
  "id": 2748291652,
  "lat": 53.2089959,
  "lon": 6.5682949
},
{
  "type": "node",
  "id": 2748291696,
  "lat": 53.2090226,
  "lon": 6.5682348
},
{
  "type": "node",
  "id": 2748291700,
  "lat": 53.2090255,
  "lon": 6.5682328
},
{
  "type": "node",
  "id": 2748291712,
  "lat": 53.2090313,
  "lon": 6.5682706
},
{
  "type": "node",
  "id": 2748292473,
  "lat": 53.2093195,
  "lon": 6.5683214
},
{
  "type": "node",
  "id": 2752228421,
  "lat": 53.2121780,
  "lon": 6.5670740
},
{
  "type": "node",
  "id": 2752228581,
  "lat": 53.2124684,
  "lon": 6.5670383
},
{
  "type": "node",
  "id": 661659759,
  "lat": 53.3625108,
  "lon": 6.3928329
},
{
  "type": "node",
  "id": 661659760,
  "lat": 53.3625973,
  "lon": 6.3928461
},
{
  "type": "node",
  "id": 661659764,
  "lat": 53.3624860,
  "lon": 6.3932771
},
{
  "type": "node",
  "id": 661659765,
  "lat": 53.3625726,
  "lon": 6.3932870
},
{
  "type": "node",
  "id": 662127589,
  "lat": 53.3313132,
  "lon": 6.5147347
},
{
  "type": "node",
  "id": 662127590,
  "lat": 53.3312940,
  "lon": 6.5146497
},
{
  "type": "node",
  "id": 662127595,
  "lat": 53.3314134,
  "lon": 6.5147398
},
{
  "type": "node",
  "id": 662127596,
  "lat": 53.3313627,
  "lon": 6.5147720
},
{
  "type": "node",
  "id": 662127597,
  "lat": 53.3313163,
  "lon": 6.5145669
},
{
  "type": "node",
  "id": 662127598,
  "lat": 53.3313670,
  "lon": 6.5145347
},
{
  "type": "node",
  "id": 662127599,
  "lat": 53.3314165,
  "lon": 6.5145719
},
{
  "type": "node",
  "id": 662127600,
  "lat": 53.3314357,
  "lon": 6.5146569
},
{
  "type": "node",
  "id": 5057009588,
  "lat": 53.3313388,
  "lon": 6.5147540
},
{
  "type": "node",
  "id": 632905396,
  "lat": 53.1480479,
  "lon": 7.0282942
},
{
  "type": "node",
  "id": 2050312782,
  "lat": 53.1480794,
  "lon": 7.0282591
},
{
  "type": "node",
  "id": 5234624688,
  "lat": 53.1480390,
  "lon": 7.0284085
},
{
  "type": "node",
  "id": 5234624689,
  "lat": 53.1481214,
  "lon": 7.0283165
},
{
  "type": "node",
  "id": 5234624690,
  "lat": 53.1480101,
  "lon": 7.0283365
},
{
  "type": "node",
  "id": 5241578411,
  "lat": 53.1480925,
  "lon": 7.0282445
},
{
  "type": "node",
  "id": 632985047,
  "lat": 53.1529782,
  "lon": 7.0689260
},
{
  "type": "node",
  "id": 632985048,
  "lat": 53.1529086,
  "lon": 7.0690631
},
{
  "type": "node",
  "id": 1934015968,
  "lat": 53.1529551,
  "lon": 7.0689682
},
{
  "type": "node",
  "id": 1934015970,
  "lat": 53.1529596,
  "lon": 7.0689731
},
{
  "type": "node",
  "id": 2917893379,
  "lat": 53.1528961,
  "lon": 7.0690958
},
{
  "type": "node",
  "id": 2917893380,
  "lat": 53.1529087,
  "lon": 7.0691165
},
{
  "type": "node",
  "id": 2917893381,
  "lat": 53.1529107,
  "lon": 7.0691114
},
{
  "type": "node",
  "id": 2917893382,
  "lat": 53.1529149,
  "lon": 7.0690697
},
{
  "type": "node",
  "id": 2917893386,
  "lat": 53.1529798,
  "lon": 7.0691920
},
{
  "type": "node",
  "id": 632985054,
  "lat": 53.1530415,
  "lon": 7.0687381
},
{
  "type": "node",
  "id": 632985056,
  "lat": 53.1530167,
  "lon": 7.0688014
},
{
  "type": "node",
  "id": 632985057,
  "lat": 53.1531483,
  "lon": 7.0689422
},
{
  "type": "node",
  "id": 632985060,
  "lat": 53.1531169,
  "lon": 7.0689080
},
{
  "type": "node",
  "id": 632985062,
  "lat": 53.1529958,
  "lon": 7.0691503
},
{
  "type": "node",
  "id": 632985064,
  "lat": 53.1529921,
  "lon": 7.0689412
},
{
  "type": "node",
  "id": 1934015974,
  "lat": 53.1530388,
  "lon": 7.0688234
},
{
  "type": "node",
  "id": 2917893388,
  "lat": 53.1530103,
  "lon": 7.0691662
},
{
  "type": "node",
  "id": 2917893389,
  "lat": 53.1530635,
  "lon": 7.0687620
},
{
  "type": "node",
  "id": 2917893392,
  "lat": 53.1531726,
  "lon": 7.0688804
},
{
  "type": "node",
  "id": 632946602,
  "lat": 53.2427891,
  "lon": 6.9781903
},
{
  "type": "node",
  "id": 632946609,
  "lat": 53.2428266,
  "lon": 6.9783202
},
{
  "type": "node",
  "id": 632946612,
  "lat": 53.2428152,
  "lon": 6.9783262
},
{
  "type": "node",
  "id": 632946613,
  "lat": 53.2427472,
  "lon": 6.9782933
},
{
  "type": "node",
  "id": 632946614,
  "lat": 53.2427936,
  "lon": 6.9783711
},
{
  "type": "node",
  "id": 632946615,
  "lat": 53.2427291,
  "lon": 6.9783030
},
{
  "type": "node",
  "id": 632946617,
  "lat": 53.2427151,
  "lon": 6.9782303
},
{
  "type": "node",
  "id": 632946663,
  "lat": 53.2428076,
  "lon": 6.9784439
},
{
  "type": "node",
  "id": 632946665,
  "lat": 53.2427651,
  "lon": 6.9783863
},
{
  "type": "node",
  "id": 632946666,
  "lat": 53.2428463,
  "lon": 6.9784233
},
{
  "type": "node",
  "id": 650053852,
  "lat": 53.3440359,
  "lon": 6.7111801
},
{
  "type": "node",
  "id": 650053854,
  "lat": 53.3440285,
  "lon": 6.7110731
},
{
  "type": "node",
  "id": 650053855,
  "lat": 53.3440705,
  "lon": 6.7111738
},
{
  "type": "node",
  "id": 650053862,
  "lat": 53.3440823,
  "lon": 6.7113566
},
{
  "type": "node",
  "id": 650053863,
  "lat": 53.3440803,
  "lon": 6.7116015
},
{
  "type": "node",
  "id": 650053864,
  "lat": 53.3440643,
  "lon": 6.7113598
},
{
  "type": "node",
  "id": 650054137,
  "lat": 53.3441899,
  "lon": 6.7112386
},
{
  "type": "node",
  "id": 650054138,
  "lat": 53.3441719,
  "lon": 6.7112419
},
{
  "type": "node",
  "id": 650054139,
  "lat": 53.3441594,
  "lon": 6.7110486
},
{
  "type": "node",
  "id": 650054180,
  "lat": 53.3441961,
  "lon": 6.7113347
},
{
  "type": "node",
  "id": 650054181,
  "lat": 53.3442228,
  "lon": 6.7113299
},
{
  "type": "node",
  "id": 650054182,
  "lat": 53.3442289,
  "lon": 6.7114252
},
{
  "type": "node",
  "id": 650054183,
  "lat": 53.3442069,
  "lon": 6.7114297
},
{
  "type": "node",
  "id": 650054185,
  "lat": 53.3442173,
  "lon": 6.7115753
},
{
  "type": "node",
  "id": 4931298592,
  "lat": 53.3358194,
  "lon": 6.9268113
},
{
  "type": "node",
  "id": 4931298593,
  "lat": 53.3357195,
  "lon": 6.9266510
},
{
  "type": "node",
  "id": 4931298598,
  "lat": 53.3356569,
  "lon": 6.9267589
},
{
  "type": "node",
  "id": 4931298599,
  "lat": 53.3355574,
  "lon": 6.9265978
},
{
  "type": "node",
  "id": 4931298600,
  "lat": 53.3353557,
  "lon": 6.9269449
},
{
  "type": "node",
  "id": 4931298601,
  "lat": 53.3353515,
  "lon": 6.9269381
},
{
  "type": "node",
  "id": 4931298602,
  "lat": 53.3352535,
  "lon": 6.9271073
},
{
  "type": "node",
  "id": 4931298610,
  "lat": 53.3357105,
  "lon": 6.9270964
},
{
  "type": "node",
  "id": 4931298612,
  "lat": 53.3356979,
  "lon": 6.9271179
},
{
  "type": "node",
  "id": 4931298613,
  "lat": 53.3356815,
  "lon": 6.9270504
},
{
  "type": "node",
  "id": 4931298614,
  "lat": 53.3356502,
  "lon": 6.9271023
},
{
  "type": "node",
  "id": 6617758017,
  "lat": 53.3357030,
  "lon": 6.9270845
},
{
  "type": "node",
  "id": 4931298603,
  "lat": 53.3353795,
  "lon": 6.9273115
},
{
  "type": "node",
  "id": 4931298604,
  "lat": 53.3353603,
  "lon": 6.9273444
},
{
  "type": "node",
  "id": 4931298605,
  "lat": 53.3353939,
  "lon": 6.9273903
},
{
  "type": "node",
  "id": 4931298607,
  "lat": 53.3354645,
  "lon": 6.9274406
},
{
  "type": "node",
  "id": 4931298608,
  "lat": 53.3355605,
  "lon": 6.9272749
},
{
  "type": "node",
  "id": 4931298609,
  "lat": 53.3355552,
  "lon": 6.9272663
},
{
  "type": "node",
  "id": 4931298611,
  "lat": 53.3357528,
  "lon": 6.9272079
},
{
  "type": "node",
  "id": 6379023027,
  "lat": 53.3357346,
  "lon": 6.9272392
},
{
  "type": "node",
  "id": 2831311826,
  "lat": 53.3008453,
  "lon": 7.0336860
},
{
  "type": "node",
  "id": 2831311865,
  "lat": 53.3009422,
  "lon": 7.0338416
},
{
  "type": "node",
  "id": 2831311869,
  "lat": 53.3009505,
  "lon": 7.0335074
},
{
  "type": "node",
  "id": 2831311871,
  "lat": 53.3009513,
  "lon": 7.0335088
},
{
  "type": "node",
  "id": 2831311887,
  "lat": 53.3009793,
  "lon": 7.0336977
},
{
  "type": "node",
  "id": 2831311893,
  "lat": 53.3009887,
  "lon": 7.0334436
},
{
  "type": "node",
  "id": 2831311900,
  "lat": 53.3010041,
  "lon": 7.0337378
},
{
  "type": "node",
  "id": 2831312023,
  "lat": 53.3010599,
  "lon": 7.0335611
},
{
  "type": "way",
  "id": 272027506,
  "nodes": [
    2769527862,
    2769527866,
    2769527680,
    2769527689,
    6893296811,
    2769527307,
    2769527314,
    6855899761,
    2769526626,
    2769526623,
    2769526576,
    6932108074,
    2769526491,
    2769526499,
    6932108018,
    6932108017,
    6932108082,
    2769526098,
    1135378897,
    2769526089,
    2769526095,
    2769526094,
    6932108083,
    6932108014,
    2769526412,
    6932108073,
    2769526510,
    2769526503,
    6932108003,
    2769527595,
    2769527603,
    2769527862
  ]
},
{
  "type": "way",
  "id": 272027507,
  "nodes": [
    2769528666,
    2769528671,
    2769528799,
    2769528798,
    2769528813,
    2769528812,
    2769528997,
    2769528999,
    2769529016,
    2769529021,
    2769529461,
    2769529462,
    2769529180,
    2769529078,
    2769529041,
    2769529037,
    2769529024,
    2769529022,
    2769528993,
    2769528852,
    2769528849,
    2769528845,
    2769528843,
    2769528835,
    2769528832,
    2769528831,
    2769528828,
    2769528827,
    2769528825,
    2769528823,
    2769528822,
    2769528820,
    2769528818,
    2769528814,
    2769528810,
    2769528809,
    2769528808,
    2769528807,
    2769528805,
    2769528803,
    2769528777,
    2769528778,
    2769528772,
    2769528788,
    2769528642,
    2769528632,
    2769528625,
    2769528621,
    2769528453,
    2769528463,
    2769527936,
    2769527938,
    2769527870,
    2769527866,
    2769527862,
    2769527860,
    2769527635,
    2769527604,
    2769528418,
    2769528422,
    6932108004,
    2769528602,
    2769528601,
    2769528666
  ]
},
{
  "type": "way",
  "id": 270166935,
  "nodes": [
    2752228525,
    2752228550,
    2752228552,
    2752228588,
    5907843171,
    3986485817,
    1099354978,
    3986485818,
    1099304253,
    2752228582,
    2752228540,
    2752228544,
    2752228530,
    2752228523,
    2752228517,
    2752228513,
    2752228508,
    2752228504,
    2752228499,
    2752228496,
    2752228493,
    2752228557,
    2752228551,
    2752228417,
    2752228418,
    2752228473,
    2752228484,
    2752228475,
    2752228439,
    2752228435,
    2752228433,
    2752228431,
    2752228429,
    2752228427,
    2752228422,
    2752228420,
    2752228413,
    1099330741,
    3986485814,
    1099326805,
    3986485813,
    3986485819,
    5907843172,
    2752228416,
    2752228426,
    2752228425,
    2752228470,
    2752228471,
    2752228492,
    2752228494,
    2752228490,
    2752228487,
    2752228482,
    2752228478,
    2752228476,
    2752228477,
    2752228480,
    2752228483,
    2752228485,
    2752228488,
    2752228491,
    2752228495,
    2752228497,
    2752228419,
    2752228421,
    2752228581,
    2752228569,
    2752228511,
    2752228509,
    2752228514,
    2752228519,
    2752228524,
    2752228529,
    2752228532,
    2752228535,
    2752228536,
    2752228534,
    2752228531,
    2752228528,
    2752228522,
    2752228516,
    2752228512,
    2752228506,
    2752228505,
    2752228527,
    2752228525
  ]
},
{
  "type": "way",
  "id": 625729581,
  "nodes": [
    2752228569,
    2752228581,
    2752228421,
    2752228419,
    2752228497,
    2752228511,
    2752228569
  ]
},
{
  "type": "way",
  "id": 270166862,
  "nodes": [
    2752228486,
    2752228481,
    2752228472,
    2752228438,
    2752228434,
    2752228432,
    2752228430,
    2752228428,
    2752228423,
    3986485815,
    2752228424,
    2752228437,
    2752228436,
    2752228489,
    2752228486
  ]
},
{
  "type": "way",
  "id": 270166863,
  "nodes": [
    2752228545,
    2752228533,
    2752228526,
    2752228521,
    2752228515,
    2752228510,
    2752228507,
    2752228502,
    2752228498,
    2752228500,
    2752228518,
    2752228520,
    2752228547,
    3986485816,
    2752228545
  ]
},
{
  "type": "way",
  "id": 625729579,
  "nodes": [
    2752228547,
    5907843171,
    2752228588,
    2752228552,
    2752228550,
    2752228525,
    2752228520,
    2752228547
  ]
},
{
  "type": "way",
  "id": 625729580,
  "nodes": [
    2752228424,
    5907843172,
    2752228416,
    2752228426,
    2752228425,
    2752228470,
    2752228437,
    2752228424
  ]
},
{
  "type": "way",
  "id": 625729582,
  "nodes": [
    2752228505,
    2752228492,
    2752228494,
    2752228490,
    2752228487,
    2752228482,
    2752228478,
    2752228476,
    2752228477,
    2752228480,
    2752228483,
    2752228485,
    2752228488,
    2752228491,
    2752228495,
    2752228497,
    2752228511,
    2752228509,
    2752228514,
    2752228519,
    2752228524,
    2752228529,
    2752228532,
    2752228535,
    2752228536,
    2752228534,
    2752228531,
    2752228528,
    2752228522,
    2752228516,
    2752228512,
    2752228506,
    2752228505
  ]
},
{
  "type": "way",
  "id": 625729583,
  "nodes": [
    1099304253,
    2752228582,
    2752228540,
    2752228544,
    2752228530,
    2752228523,
    2752228517,
    2752228513,
    2752228508,
    2752228504,
    2752228499,
    2752228496,
    2752228493,
    2752228473,
    2752228484,
    2752228475,
    2752228439,
    2752228435,
    2752228433,
    2752228431,
    2752228429,
    2752228427,
    2752228422,
    2752228420,
    2752228413,
    1099330741,
    3986485814,
    1099326805,
    3986485813,
    3986485819,
    5907843172,
    2752228416,
    2752228426,
    2752228425,
    2752228470,
    2752228437,
    2752228424,
    3986485815,
    2752228423,
    2752228428,
    2752228430,
    2752228432,
    2752228434,
    2752228438,
    2752228472,
    2752228481,
    2752228486,
    2752228489,
    2752228500,
    2752228498,
    2752228502,
    2752228507,
    2752228510,
    2752228515,
    2752228521,
    2752228526,
    2752228533,
    2752228545,
    3986485816,
    2752228547,
    2752228520,
    2752228525,
    2752228550,
    2752228552,
    2752228588,
    5907843171,
    3986485817,
    1099354978,
    3986485818,
    1099304253
  ]
},
{
  "type": "way",
  "id": 625729584,
  "nodes": [
    2752228557,
    2752228551,
    2752228417,
    2752228418,
    2752228557
  ]
},
{
  "type": "way",
  "id": 625729585,
  "nodes": [
    5907843195,
    5907843194,
    5907843193,
    5907843192,
    5907843191,
    5907843190,
    5907843189,
    5907843188,
    5907843187,
    5907843186,
    5907843185,
    5907843184,
    5907843196,
    5907843183,
    5907843182,
    5907843181,
    5907843180,
    5907843179,
    5907843178,
    5907843177,
    5907843176,
    5907843175,
    5907843174,
    5907843173,
    5907843195
  ]
},
{
  "type": "way",
  "id": 625729586,
  "nodes": [
    2752228518,
    2752228520,
    2752228525,
    2752228527,
    2752228505,
    2752228492,
    2752228471,
    2752228470,
    2752228437,
    2752228436,
    2752228489,
    2752228500,
    2752228518
  ]
}

  ]
}
