{
  "version": 0.6,
  "generator": "Overpass API 0.7.55.1011 6c2efc30",
  "osm3s": {
    "timestamp_osm_base": "2020-02-14T13:24:02Z",
    "copyright": "The data included in this document is from www.openstreetmap.org. The data is made available under ODbL."
  },
  "elements": [

{
  "type": "node",
  "id": 312682275,
  "lat": 41.3661390,
  "lon": 2.1573691,
  "tags": {
    "email": "info@fbolimpica.es",
    "name": "Museu Olímpic i de l'esport",
    "name:ru": "Олимпийско-спортивный музей имени Самаранча",
    "name:zh": "奥林匹克体育博物馆",
    "tourism": "museum",
    "wikidata": "Q3820447",
    "wikipedia": "ca:Museu Olímpic i de l'Esport Joan Antoni Samaranch"
  }
},
{
  "type": "node",
  "id": 414350061,
  "lat": 41.4147488,
  "lon": 2.0172314,
  "tags": {
    "name": "Museu Municipal de Molins de Rei",
    "tourism": "museum",
    "wikidata": "Q3816488"
  }
},
{
  "type": "node",
  "id": 420182174,
  "lat": 41.2348965,
  "lon": 1.8124622,
  "tags": {
    "fee": "yes",
    "name": "Museu Maricel de Mar",
    "tourism": "museum",
    "website": "http://museusdesitges.cat/ca/museu/maricel/museu-de-maricel",
    "wikidata": "Q4893794",
    "wikipedia": "ca:Museu de Maricel"
  }
},
{
  "type": "node",
  "id": 558809034,
  "lat": 41.5928631,
  "lon": 1.8361357,
  "tags": {
    "name": "Museu de Montserrat",
    "name:en": "Museum of Montserrat",
    "name:es": "Museo de Montserrat",
    "name:zh": "蒙瑟拉特博物館",
    "toilets:wheelchair": "yes",
    "tourism": "museum",
    "wheelchair": "yes",
    "wikidata": "Q428559",
    "wikipedia": "en:Museum of Montserrat"
  }
},
{
  "type": "node",
  "id": 673264230,
  "lat": 41.3988917,
  "lon": 2.1855755,
  "tags": {
    "addr:city": "Barcelona",
    "addr:housename": "L'Auditori",
    "addr:housenumber": "150",
    "addr:postcode": "08013",
    "addr:street": "Carrer de Lepant",
    "contact:email": "museumusica@bcn.cat",
    "contact:phone": "+34932563650",
    "fee": "yes",
    "fee:conditional": "no @ (Su[1]; Su 20:00+; Feb 18,Jun 21,Sep 23-Sep 24,Nov 22)",
    "name": "Museu de la Música",
    "name:es": "Museo de la música",
    "official_name": "Museu de la Música de Barcelona",
    "opening_hours": "Tu-We,Fr 10:00-18:00; Th 10:00-23:15; Sa,Su 10:00-19:00; Dec 24,Dec 31,Jan 5 10:00-15:00; PH,Mo off",
    "tourism": "museum",
    "website": "http://www.bcn.cat/museumusica/",
    "wheelchair": "yes",
    "wikidata": "Q5016197",
    "wikipedia": "ca:Museu de la Música de Barcelona"
  }
},
{
  "type": "node",
  "id": 1024935882,
  "lat": 41.6862185,
  "lon": 2.2871578,
  "tags": {
    "name": "Fundació Maurí",
    "tourism": "museum"
  }
},
{
  "type": "node",
  "id": 1072728133,
  "lat": 41.3844934,
  "lon": 2.1744806,
  "tags": {
    "addr:city": "Barcelona",
    "addr:housenumber": "5",
    "addr:postcode": "08002",
    "addr:street": "Carrer dels Arcs",
    "name": "Sala Güell",
    "name:ru": "Дворец Гуэля",
    "note": "Está dintre del Reial Cercle Artístic de Barcelona",
    "tourism": "museum"
  }
},
{
  "type": "node",
  "id": 1239941511,
  "lat": 41.3067429,
  "lon": 2.0042415,
  "tags": {
    "name": "Museu de Gavà",
    "tourism": "museum"
  }
},
{
  "type": "node",
  "id": 1240088190,
  "lat": 41.3060800,
  "lon": 2.0050127,
  "tags": {
    "name": "Centre d'Història de la Ciutat",
    "tourism": "museum"
  }
},
{
  "type": "node",
  "id": 1643199193,
  "lat": 41.3839210,
  "lon": 2.1776778,
  "tags": {
    "addr:city": "Barcelona",
    "addr:housenumber": "4",
    "addr:postcode": "08002",
    "addr:province": "Barcelona",
    "addr:street": "Carrer del Veguer",
    "alt_name": "Museu d'Història de Barcelona",
    "contact:phone": "+34932562122",
    "name": "Museu d'Història de la Ciutat",
    "name:de": "Historisches Museum der Stadt Barcelona",
    "name:es": "museo de historia de la ciudad",
    "name:ja": "市歴史博物館",
    "name:ru": "Исторический музей Барселоны",
    "opening_hours": "Mo-Sa 10:00-19:00; Su 10:00-20:00",
    "short_name": "MUHBA",
    "tourism": "museum",
    "website": "http://ajuntament.barcelona.cat/museuhistoria/",
    "wheelchair": "yes",
    "wikidata": "Q3571337",
    "wikipedia": "ca:Museu d'Història de Barcelona"
  }
},
{
  "type": "node",
  "id": 1654108403,
  "lat": 41.3833403,
  "lon": 2.1745300,
  "tags": {
    "addr:city": "Barcelona",
    "addr:housenumber": "10",
    "addr:postcode": "08002",
    "addr:street": "Carrer de la Palla",
    "designation": "http://www.museumoto.com",
    "name": "Museu de la Moto",
    "name:es": "Museo de la moto",
    "operator": "Areas de Bassella",
    "tourism": "museum",
    "website": "http://www.museumoto.com",
    "wikidata": "Q17043328",
    "wikipedia": "ca:Museu de la Moto de Barcelona"
  }
},
{
  "type": "node",
  "id": 1806141816,
  "lat": 41.6343086,
  "lon": 2.1614620,
  "tags": {
    "name": "Museu Thermalia",
    "tourism": "museum",
    "wheelchair": "yes"
  }
},
{
  "type": "node",
  "id": 1838085462,
  "lat": 41.4743778,
  "lon": 1.9283608,
  "tags": {
    "name": "Casa Museu L'Enrajolada",
    "tourism": "museum"
  }
},
{
  "type": "node",
  "id": 1838453838,
  "lat": 41.4743631,
  "lon": 1.9291397,
  "tags": {
    "name": "Casa Museu Santacana",
    "tourism": "museum"
  }
},
{
  "type": "node",
  "id": 1838455625,
  "lat": 41.4731749,
  "lon": 1.9325623,
  "tags": {
    "name": "Museu Municipal Vicenç Ros",
    "tourism": "museum",
    "wikidata": "Q3816570"
  }
},
{
  "type": "node",
  "id": 1934456489,
  "lat": 41.4058942,
  "lon": 2.2122872,
  "tags": {
    "addr:city": "Barcelona",
    "addr:housenumber": "1",
    "addr:postcode": "08019",
    "addr:street": "Plaça Ramon Calsina",
    "alt_name": "Torre d'aigües de MACOSA",
    "architect": "Pere Falqués i Urpí",
    "architect:wikidata": "Q517692",
    "architect:wikipedia": "ca:Pere Falqués i Urpí",
    "ele": "63",
    "fee": "yes",
    "name": "Torre de les Aigües del Besòs",
    "note": "Built in 1882 to provide drinking water to Barcelona, later abandoned and recently reopen to showcase the industrial past of Barcelona/Poblenou and to provide great views over the city. Book your ticket.",
    "operator": "Arxiu Històric Poblenou",
    "start_date": "1882",
    "tourism": "museum",
    "website": "https://www.torredelesaigues.cat/",
    "wheelchair": "limited",
    "wikidata": "Q18711243",
    "wikipedia": "ca:Torre de les Aigües del Besòs"
  }
},
{
  "type": "node",
  "id": 1962719377,
  "lat": 41.3887554,
  "lon": 2.1650758,
  "tags": {
    "addr:city": "Barcelona",
    "addr:country": "ES",
    "addr:housenumber": "250",
    "addr:postcode": "08007",
    "addr:state": "Catalonia",
    "addr:street": "Diputació",
    "charge": "3€",
    "email": "infoexposbcn@fundacionmapfre.org",
    "fee": "yes",
    "fee:conditional": "no @ (Mo 14:00-20:00; PH off)",
    "name": "Fundación MAPFRE",
    "opening_hours": "Mo 14:00-20:00, Tu-Sa 10:00-20:00, PH,Su 11:00-19:00; Dec 24,Dec 31 10:00-15:00; Jan 1,Jan 6,Dec 25 closed",
    "opening_hours:url": "https://www.fundacionmapfre.org/fundacion/en/exhibitions/catalan-sala-casa-garriga-nogues/horaris.jsp",
    "phone": "+34934012603",
    "tourism": "museum",
    "website": "https://www.fundacionmapfre.org/fundacion/en/exhibitions/casa-garriga-nogues/"
  }
},
{
  "type": "node",
  "id": 1962720907,
  "lat": 41.3888541,
  "lon": 2.1633974,
  "tags": {
    "addr:city": "Barcelona",
    "addr:country": "ES",
    "addr:housenumber": "48",
    "addr:postcode": "08008",
    "addr:state": "Catalonia",
    "addr:street": "Carrer de Balmes",
    "email": "mmbcn@mmbcn.cat",
    "name": "Museu del Modernisme Català",
    "name:es": "Museo del modernismo catalán",
    "opening_hours": "Mo-Fr 10:30-14:00,16:00-19:00; Sa 10:30-14:00",
    "tourism": "museum",
    "wikidata": "Q15735772",
    "wikipedia": "ca:Museu del Modernisme Català"
  }
},
{
  "type": "node",
  "id": 1962723905,
  "lat": 41.3916216,
  "lon": 2.1636636,
  "tags": {
    "addr:city": "Barcelona",
    "addr:country": "ES",
    "addr:housenumber": "255",
    "addr:postcode": "08009",
    "addr:state": "Catalonia",
    "addr:street": "Carrer d'Aragó",
    "name": "Fundació Antoni Tàpies",
    "tourism": "museum",
    "wikidata": "Q2447148",
    "wikipedia": "ca:Fundació Antoni Tàpies"
  }
},
{
  "type": "node",
  "id": 1962730202,
  "lat": 41.3955552,
  "lon": 2.1611924,
  "tags": {
    "addr:city": "Barcelona",
    "addr:country": "ES",
    "addr:housenumber": "98",
    "addr:postcode": "08008",
    "addr:state": "Catalonia",
    "addr:street": "Passeig de Gràcia",
    "entrance": "yes",
    "name": "Fundació Suñol",
    "tourism": "museum",
    "wikidata": "Q1171015",
    "wikipedia": "ca:Fundació Suñol"
  }
},
{
  "type": "node",
  "id": 2035469072,
  "lat": 41.3473699,
  "lon": 2.0465176,
  "tags": {
    "name": "Museu romà",
    "tourism": "museum"
  }
},
{
  "type": "node",
  "id": 2122731507,
  "lat": 41.4742611,
  "lon": 1.9799281,
  "tags": {
    "name": "Museu de la Pagesia",
    "tourism": "museum",
    "wikidata": "Q3817499"
  }
},
{
  "type": "node",
  "id": 2136227451,
  "lat": 41.3808075,
  "lon": 2.1801240,
  "tags": {
    "addr:city": "Barcelona",
    "addr:housenumber": "35",
    "addr:postcode": "08002",
    "addr:street": "Carrer Ample",
    "name": "Museu de la Marihuana",
    "name:es": "Museo de la marihuana",
    "name:ru": "Музей марихуаны",
    "tourism": "museum",
    "website": "http://hempmuseumgallery.com/",
    "wheelchair": "no",
    "wheelchair:description": "Imposible visitar el museo. Todo escaleras",
    "wikidata": "Q11682430",
    "wikipedia": "ca:Hemp Museum Gallery"
  }
},
{
  "type": "node",
  "id": 2274675822,
  "lat": 41.5484756,
  "lon": 2.2208467,
  "tags": {
    "addr:housenumber": "72",
    "addr:street": "Avinguda d'Antoni Gaudí",
    "contact:phone": "+34 665670707",
    "name": "Museu Isern",
    "name:es": "museo Isern",
    "tourism": "museum",
    "wikidata": "Q18005094",
    "wikipedia": "ca:Museu Isern de la Moto"
  }
},
{
  "type": "node",
  "id": 2275426723,
  "lat": 41.5706324,
  "lon": 1.8278503,
  "tags": {
    "name": "Molí d'Oli",
    "opening_hours": "Sa,Su,PH 12:00-14:00",
    "tourism": "museum"
  }
},
{
  "type": "node",
  "id": 2468883571,
  "lat": 41.2368378,
  "lon": 1.8078388,
  "tags": {
    "addr:city": "Sitges",
    "addr:country": "ES",
    "addr:housenumber": "1",
    "addr:postcode": "08870",
    "addr:street": "Carrer de Sant Gaudenci",
    "name": "Museu Romantic",
    "tourism": "museum",
    "wikidata": "Q3328423"
  }
},
{
  "type": "node",
  "id": 2543021391,
  "lat": 41.3834643,
  "lon": 2.1752683,
  "tags": {
    "name": "Museu del Calçat",
    "name:en": "Barcelona Shoe Museum",
    "name:es": "Museo del Calzado de Barcelona",
    "tourism": "museum",
    "wikidata": "Q6034520",
    "wikipedia": "ca:Museu del Calçat"
  }
},
{
  "type": "node",
  "id": 3326863254,
  "lat": 41.3865788,
  "lon": 2.1289757,
  "tags": {
    "addr:city": "Barcelona",
    "addr:housenumber": "211-213",
    "addr:street": "Carrer de Joan Güell",
    "name": "Roca Barcelona Gallery",
    "tourism": "museum",
    "website": "http://www.rocabarcelonagallery.com"
  }
},
{
  "type": "node",
  "id": 3647299861,
  "lat": 41.3850115,
  "lon": 2.1804656,
  "tags": {
    "addr:city": "Barcelona",
    "addr:housenumber": "5",
    "addr:postcode": "08003",
    "addr:street": "Carrer Barra de Ferro",
    "alt_name": "MEAM",
    "name": "Museu Europeu d'Art Modern",
    "name:es": "museo europeo de arte moderno",
    "short_name": "MEAM",
    "tourism": "museum",
    "wikidata": "Q11938051"
  }
},
{
  "type": "node",
  "id": 3779165120,
  "lat": 41.2352779,
  "lon": 1.8119114,
  "tags": {
    "name": "Fundació Stämpfli",
    "tourism": "museum",
    "website": "http://www.fundacio-stampfli.org/",
    "wikidata": "Q11938068",
    "wikipedia": "ca:Fundació Stämpfli"
  }
},
{
  "type": "node",
  "id": 3797211477,
  "lat": 41.3714368,
  "lon": 2.1666274,
  "tags": {
    "access": "yes",
    "historic": "yes",
    "military": "bunker",
    "name": "Refugi 307",
    "name:zh": "城市历史博物馆",
    "operator": "MUHBA",
    "reservation": "required",
    "start_date": "1937",
    "tourism": "museum",
    "website": "http://ajuntament.barcelona.cat/museuhistoria/muhba-refugi-307",
    "wikipedia": "ca:Refugi 307"
  }
},
{
  "type": "node",
  "id": 3881133261,
  "lat": 41.4083519,
  "lon": 2.2015252,
  "tags": {
    "architect": "Jordi Badia",
    "name": "MUHBA Oliva Artés",
    "tourism": "museum"
  }
},
{
  "type": "node",
  "id": 4043493603,
  "lat": 41.3573404,
  "lon": 2.0851564,
  "tags": {
    "addr:city": "Cornellà de Llobregat",
    "addr:postcode": "08940",
    "name": "Museu de Matemàtiques de Catalunya (MMACA)",
    "tourism": "museum"
  }
},
{
  "type": "node",
  "id": 4201990056,
  "lat": 41.5481370,
  "lon": 2.1077978,
  "tags": {
    "addr:city": "Sabadell",
    "addr:housenumber": "13",
    "addr:postcode": "08201",
    "addr:street": "Carrer de Sant Antoni",
    "name": "Museu d'Història de Sabadell",
    "operator": "Ajuntament de Sabadell",
    "tourism": "museum",
    "wikidata": "Q612662",
    "wikipedia": "ca:Museu d'Història de Sabadell"
  }
},
{
  "type": "node",
  "id": 4316268495,
  "lat": 41.3913876,
  "lon": 2.1653495,
  "tags": {
    "addr:housenumber": "39",
    "addr:street": "Passeig de Gràcia",
    "name": "Museu del Perfum",
    "name:en": "Museu del Perfum",
    "name:es": "museo del perfume",
    "tourism": "museum",
    "website": "http://www.museudelperfum.com/",
    "wikidata": "Q30095026"
  }
},
{
  "type": "node",
  "id": 4553142274,
  "lat": 41.4031157,
  "lon": 2.1742518,
  "tags": {
    "name": "Museu de la Sagrada Família",
    "name:ca": "Museu de la Sagrada Família",
    "name:es": "Museo de la Sagrada Família",
    "name:ko": "성가족 성당",
    "name:ru": "Храм Саграда Фамилия",
    "name:zh": "圣家族大教堂博物馆",
    "tourism": "museum"
  }
},
{
  "type": "node",
  "id": 4607818900,
  "lat": 41.3845639,
  "lon": 2.1761970,
  "tags": {
    "addr:city": "Barcelona",
    "addr:housenumber": "7",
    "addr:postcode": "08002",
    "addr:street": "Pla de la Seu",
    "fee": "yes",
    "name": "Gaudí Exhibition Center - MDB",
    "phone": "+34932687582",
    "tourism": "museum",
    "website": "https://www.gaudiexhibitioncenter.com"
  }
},
{
  "type": "node",
  "id": 4607840040,
  "lat": 41.4119730,
  "lon": 2.1542471,
  "tags": {
    "addr:city": "Barcelona",
    "addr:housenumber": "41",
    "addr:postcode": "08024",
    "addr:street": "Carrer de Larrard",
    "name": "Gaudí Experiència",
    "name:en": "Gaudi Experience",
    "phone": "+34 932 85 44 40",
    "tourism": "museum",
    "website": "https://www.gaudiexperiencia.com/"
  }
},
{
  "type": "node",
  "id": 4687272233,
  "lat": 41.2353803,
  "lon": 1.8117809,
  "tags": {
    "name": "Casa Bacardí Sitges",
    "tourism": "museum"
  }
},
{
  "type": "node",
  "id": 4719665940,
  "lat": 41.4740378,
  "lon": 2.0851504,
  "tags": {
    "name": "Museu de Sant Cugat",
    "name:es": "museo de San Cugat",
    "tourism": "museum",
    "wheelchair": "yes",
    "wikidata": "Q3817345",
    "wikipedia": "ca:Museu de Sant Cugat"
  }
},
{
  "type": "node",
  "id": 4724170213,
  "lat": 41.3531369,
  "lon": 2.1559313,
  "tags": {
    "email": "comunicacio@cbsa.cat",
    "facebook": "https://www.facebook.com/cementirisdebarcelona",
    "name": "Museu de Carrosses Fúnebres",
    "name:en": "Museum of Funeral Carriages",
    "name:es": "museo de carruajes fúnebres",
    "phone": "+34934841920",
    "tourism": "museum",
    "twitter": "https://twitter.com/cementirisBCN",
    "website": "http://www.cbsa.cat/colleccio/",
    "wikidata": "Q26805734",
    "wikipedia": "ca:Col·lecció de Carrosses Fúnebres"
  }
},
{
  "type": "node",
  "id": 4724329201,
  "lat": 41.3822430,
  "lon": 2.1725665,
  "tags": {
    "name": "Museu Eròtic de Barcelona",
    "name:en": "Erotic Museum",
    "name:es": "museo erótico de Barcelona",
    "name:ru": "Музей эротики",
    "tourism": "museum",
    "website": "http://www.erotica-museum.com/"
  }
},
{
  "type": "node",
  "id": 4724895518,
  "lat": 41.3930930,
  "lon": 2.1481907,
  "tags": {
    "name": "Museu i Centre d'Estudis de l'Esport Doctor Melcior Colet",
    "name:en": "Museum and Study Center of Sport Doctor Melcior Colet",
    "phone": "+34 934 19 22 32",
    "tourism": "museum",
    "website": "http://esport.gencat.cat/ca/secretaria_general_de_lesport/museu-i-centre-destudis-de-lesport-melcior-colet/",
    "wikidata": "Q3064861"
  }
},
{
  "type": "node",
  "id": 5001130403,
  "lat": 41.3884888,
  "lon": 2.1738805,
  "tags": {
    "addr:housenumber": "15",
    "addr:street": "Carrer de les Jonqueres",
    "amenity": "theatre",
    "contact:email": "info@elreidelamagia.cat",
    "contact:phone": "+34 933187192",
    "contact:website": "http://www.elreydelamagia.com",
    "name": "El Rei de la Màgia",
    "tourism": "museum"
  }
},
{
  "type": "node",
  "id": 5005313036,
  "lat": 41.4415407,
  "lon": 2.1906233,
  "tags": {
    "addr:city": "Barcelona",
    "addr:country": "ES",
    "addr:floor": "1",
    "addr:housename": "Casa Bloc",
    "addr:housenumber": "91",
    "addr:postcode": "08030",
    "addr:room": "11",
    "addr:street": "Passeig de Torras i Bages",
    "addr:unit": "2",
    "charge": "4€",
    "fee": "yes",
    "name": "Pis-Museu Casa Bloc",
    "opening_hours": "Sa 11:00-12:30; Aug off; week 01 Sep off",
    "operator": "Ajuntament de Barcelona",
    "phone": "+34932566800",
    "reservation": "required",
    "tourism": "museum",
    "website": "http://www.museudeldisseny.cat/ca/exposicio/pis-museu-de-la-casa-bloc-habitatge-111",
    "wheelchair": "limited",
    "wikipedia": "ca:Casa Bloc"
  }
},
{
  "type": "node",
  "id": 5009538421,
  "lat": 41.3826536,
  "lon": 2.1695548,
  "tags": {
    "addr:country": "ES",
    "addr:housenumber": "17",
    "addr:postcode": "08001",
    "addr:street": "Carrer del Pintor Fortuny",
    "email": "bestmuseumbcn@hotmail.com",
    "internet_access": "wlan",
    "name": "Museu de les il·lusions",
    "name:ca": "Museu de les il·lusions",
    "name:en": "Museum of illusions",
    "name:es": "Museo de las ilusiones",
    "opening_hours": "Mo-Su 10:00-10:00",
    "phone": "+34 618555655",
    "size": "medium",
    "tourism": "museum",
    "website": "http://bestmuseum.net",
    "wifi": "free"
  }
},
{
  "type": "node",
  "id": 5198083737,
  "lat": 41.3881207,
  "lon": 2.1836707,
  "tags": {
    "addr:city": "Barcelona",
    "addr:housename": "Passeig de Picasso",
    "addr:postcode": "08003",
    "addr:province": "Barcelona",
    "contact:phone": "+34932566002",
    "description": "Museum of zoology, part of Museum of Natural Science",
    "name": "Laboratori de Natura",
    "tourism": "museum",
    "wikidata": "Q11931058"
  }
},
{
  "type": "node",
  "id": 5337055959,
  "lat": 41.3803900,
  "lon": 2.1206365,
  "tags": {
    "addr:city": "Barcelona",
    "addr:housenumber": "12",
    "addr:postcode": "08028",
    "addr:street": "Carrer d'Arístides Maillol",
    "alt_name": "FC Barcelona Museum",
    "museum_type": "football",
    "name": "Camp Nou Experience",
    "note": "On match days the opening hours differ.",
    "opening_hours": "09:00-19:00; Dec 25,Jan 01 off",
    "phone": "+34 902 18 99 00",
    "tourism": "museum",
    "website": "https://www.fcbarcelona.com/tour/buy-tickets",
    "wikidata": "Q616238",
    "wikipedia": "en:FC Barcelona Museum"
  }
},
{
  "type": "node",
  "id": 5543192942,
  "lat": 41.6337978,
  "lon": 2.1619058,
  "tags": {
    "name": "Museu Delger",
    "tourism": "museum"
  }
},
{
  "type": "node",
  "id": 5582749321,
  "lat": 41.3763805,
  "lon": 2.1798053,
  "tags": {
    "fee": "yes",
    "fee:conditional": "no @ (Su 15:00+)",
    "name": "Pailebot Santa Eulàlia",
    "name:en": "Schooner Santa Eulalia",
    "name:ru": "Шхуна Санта Евлалия",
    "opening_hours": "Oct 31-Mar 25 PH,Tu-Su 10:00-17:30; Mar 26-Oct 30 PH,Tu-Su 10:00-20:00; Dec 25,Dec 26,Jan 5,Jan 6 off",
    "start_date": "1918",
    "tourism": "museum",
    "website": "http://mmb.cat/colleccions/embarcacions/pailebot-santa-eulalia/",
    "wikidata": "Q3472631",
    "wikipedia": "ca:Santa Eulàlia (pailebot 1919)"
  }
},
{
  "type": "node",
  "id": 5661441924,
  "lat": 41.3847951,
  "lon": 2.1810008,
  "tags": {
    "addr:housenumber": "12",
    "addr:street": "Carrer de Montcada",
    "branch": "Montcada",
    "fee": "yes",
    "fee:conditional": "no @ (Su[1]; Su 16:00-19:45; Feb 12,May 18,Sep 24)",
    "name": "Museu de Cultures del Món",
    "name:es": "Museo de las culturas del mundo",
    "official_name": "Museu Etnològic i de Cultures del Món",
    "opening_hours": "Tu-Sa 10:00-19:00; PH,Su 10:00-21:45; Dec 25,Jan 1,May 1,Jun 24 closed",
    "phone": "+34932562300",
    "tourism": "museum",
    "website": "https://www.barcelona.cat/museu-etnologic-culturesmon/",
    "wikidata": "Q11938072",
    "wikipedia": "ca:Museu de Cultures del Món"
  }
},
{
  "type": "node",
  "id": 5779057699,
  "lat": 41.5343304,
  "lon": 1.7660274,
  "tags": {
    "name": "Centre de Restauració i Interpretació Paleontològica (CRIP)",
    "tourism": "museum"
  }
},
{
  "type": "node",
  "id": 5921477485,
  "lat": 41.4130788,
  "lon": 2.1312332,
  "tags": {
    "name": "Museo",
    "name:ca": "Museu",
    "name:it": "museo della scienza",
    "tourism": "museum"
  }
},
{
  "type": "node",
  "id": 6052353503,
  "lat": 41.3822139,
  "lon": 2.1780637,
  "tags": {
    "addr:housenumber": "7",
    "addr:postcode": "08002",
    "addr:street": "Carrer de la Ciutat",
    "name": "Miba - Museo de Ideas e Inventos de Barcelona",
    "tourism": "museum"
  }
},
{
  "type": "node",
  "id": 6055403376,
  "lat": 41.3826234,
  "lon": 2.1760031,
  "tags": {
    "addr:housenumber": "2",
    "addr:postcode": "08002",
    "addr:street": "Carrer de la Fruita",
    "name": "MUHBA Domus de Sant Honorat",
    "tourism": "museum"
  }
},
{
  "type": "node",
  "id": 6055453723,
  "lat": 41.3825661,
  "lon": 2.1753677,
  "tags": {
    "addr:housenumber": "3",
    "addr:postcode": "08002",
    "addr:street": "Placeta de Manuel Ribé",
    "name": "MUHBA El Call",
    "tourism": "museum"
  }
},
{
  "type": "node",
  "id": 6064401162,
  "lat": 41.3811467,
  "lon": 2.1768433,
  "tags": {
    "addr:housenumber": "15",
    "addr:postcode": "08002",
    "addr:street": "Carrer d'Avinyó",
    "name": "MUHBA Domus Avinyó",
    "tourism": "museum"
  }
},
{
  "type": "node",
  "id": 6071376859,
  "lat": 41.6122983,
  "lon": 2.0925297,
  "tags": {
    "name": "Museu l'Antoni",
    "tourism": "museum"
  }
},
{
  "type": "node",
  "id": 6090420785,
  "lat": 41.3891731,
  "lon": 2.1634432,
  "tags": {
    "name": "Galeria Eude",
    "tourism": "museum"
  }
},
{
  "type": "node",
  "id": 6246531685,
  "lat": 41.3880220,
  "lon": 2.1832377,
  "tags": {
    "name": "Seu científica del Museu de Ciències Naturals de Barcelona",
    "name:es": "sede científica del museo de ciencias naturales de Barcelona",
    "tourism": "museum"
  }
},
{
  "type": "node",
  "id": 6357834157,
  "lat": 41.3936340,
  "lon": 2.1647275,
  "tags": {
    "addr:city": "Barcelona",
    "addr:housenumber": "284",
    "addr:postcode": "08007",
    "addr:street": "Carrer de València",
    "name": "Museu Egipci",
    "name:es": "museo egipcio",
    "operator": "Fundació Arqueològica Clos",
    "source": "Ajuntament de Barcelona - CartoBCN (@2013-11-10)",
    "tourism": "museum",
    "website": "https://www.museuegipci.com/",
    "wheelchair": "yes",
    "wikidata": "Q11694517",
    "wikipedia": "ca:Museu Egipci de Barcelona"
  }
},
{
  "type": "node",
  "id": 6467878452,
  "lat": 41.6862698,
  "lon": 2.1628605,
  "tags": {
    "description": "1er diumenge de cada mes, 11h-14h",
    "email": "info@xifreda.org",
    "fax": "+34 938662297",
    "name": "Can Xifreda",
    "tourism": "museum",
    "website": "www.xifreda.org"
  }
},
{
  "type": "node",
  "id": 6501528097,
  "lat": 41.4023698,
  "lon": 2.1882997,
  "tags": {
    "name": "Museu del Disseny de Barcelona",
    "name:en": "The Design Museum of Barcelona",
    "opening_hours": "10:20:00; Mo off",
    "tourism": "museum",
    "wikidata": "Q4889477",
    "wikipedia": "ca:Museu del Disseny de Barcelona"
  }
},
{
  "type": "node",
  "id": 6691136550,
  "lat": 41.3830241,
  "lon": 1.7939345,
  "tags": {
    "name": "Museu d'Esperanto",
    "tourism": "museum",
    "wikidata": "Q3822052",
    "wikipedia": "ca:Museu d'Esperanto de Subirats"
  }
},
{
  "type": "node",
  "id": 6702778185,
  "lat": 41.3826740,
  "lon": 2.1730264,
  "tags": {
    "name": "Carte D'Artistes",
    "tourism": "museum"
  }
},
{
  "type": "node",
  "id": 6742154244,
  "lat": 41.3806173,
  "lon": 2.1859682,
  "tags": {
    "addr:housenumber": "3",
    "addr:street": "Plaça de Pau",
    "name": "Museu d'Historia de Catalunya",
    "opening_hours": "Tu, Th-Sa 10:00-19:00, 09:00-18:00; Su 10:00-14:30; We 10:00-20:00",
    "tourism": "museum"
  }
},
{
  "type": "node",
  "id": 6968889895,
  "lat": 41.3957409,
  "lon": 2.1126860,
  "tags": {
    "name": "Reial Monestir de Santa Maria de Pedralbes",
    "operator": "Ajuntament de Barcelona",
    "tourism": "museum"
  }
},
{
  "type": "node",
  "id": 6982850087,
  "lat": 41.3869124,
  "lon": 2.1817909,
  "tags": {
    "addr:city": "Barcelona",
    "addr:housenumber": "2 2on.",
    "addr:street": "Plaça de Pons i Cierch",
    "name": "Archiu Fotogràfic de Barcelona",
    "opening_hours": "Mo-Fr 10:00-19:00",
    "operator": "Ajuntament de Barcelona",
    "tourism": "museum",
    "website": "https://ajuntament.barcelona.cat/arxiumunicipal/arxiufotografic/ca",
    "wheelchair": "yes",
    "wikipedia": "ca:Arxiu Fotogràfic de Barcelona"
  }
},
{
  "type": "node",
  "id": 7003408120,
  "lat": 41.3817824,
  "lon": 2.1732989,
  "tags": {
    "name": "Big Fun Museum",
    "tourism": "museum",
    "website": "http://bigfunmuseum.com/"
  }
},
{
  "type": "way",
  "id": 33570473,
  "nodes": [
    383464431,
    383464433,
    383464435,
    383464438,
    383464431
  ],
  "tags": {
    "alt_name": "Museu de Geologia",
    "architect": "Antoni Rovira i Trias",
    "architect:wikidata": "Q428717",
    "architect:wikipedia": "ca:Antoni Rovira i Trias",
    "building": "yes",
    "contact:email": "museuciencies@bcn.cat",
    "contact:fax": "+34933104999",
    "contact:phone": "+34932562222",
    "contact:website": "http://museuciencies.cat/visitans/em-museu-martorell",
    "description": "Museum of geology, part of Museum of Natural Science",
    "name": "Museu Martorell",
    "name:es": "museo Martorell",
    "name:wikidata": "Q17301888",
    "name:wikipedia": "ca:Francesc Martorell i Peña",
    "old_name": "Museo Martorell de Arqueología y Ciencias Naturales",
    "start_date": "1882",
    "tourism": "museum",
    "wikidata": "Q11938056",
    "wikipedia": "ca:Museu Martorell"
  }
},
{
  "type": "way",
  "id": 36930946,
  "nodes": [
    429452823,
    4058719236,
    4058719235,
    2262989737,
    1400577790,
    1400577782,
    1400577780,
    2262989727,
    3867021341,
    3867021340,
    3867021339,
    3867021342,
    3867021343,
    3867021345,
    3867021346,
    3867021344,
    218912197,
    3868361361,
    2262989723,
    3867021332,
    218912190,
    2262989719,
    3867021315,
    3867021317,
    3867021321,
    3867021322,
    3867021319,
    3867021316,
    3867021314,
    3867021318,
    3867021327,
    3867021331,
    3867021337,
    3867021338,
    2262989725,
    218912189,
    218912185,
    3867021278,
    3867021272,
    3867021269,
    3867021267,
    3867021265,
    3867021263,
    3868351852,
    3867021264,
    3867021266,
    3867021268,
    3867021271,
    3867021275,
    3867021277,
    3867021279,
    3867021280,
    3867021273,
    4058719226,
    4058719225,
    4058719227,
    4058719222,
    4058719223,
    4058719224,
    3868351851,
    218912183,
    3867021262,
    3867021156,
    218912181,
    218912178,
    3867021292,
    3867021298,
    3867021301,
    429452834,
    3867021295,
    3867021287,
    3867021281,
    3867021270,
    3867021283,
    3867021291,
    3867021290,
    3867021285,
    4058719229,
    4058719228,
    3867021286,
    3867021288,
    3867021289,
    3867021294,
    3867021296,
    3867021297,
    3867021302,
    3867021303,
    3867021304,
    3867021306,
    3867021310,
    3867021313,
    3867021320,
    3867021325,
    4058719233,
    4058719232,
    4058719234,
    3867021326,
    3867021329,
    3867021328,
    3867021323,
    3867021312,
    3867021311,
    3867021309,
    4058719230,
    4058719231,
    3867021308,
    3867021305,
    3867021307,
    3867021335,
    429452823
  ],
  "tags": {
    "addr:city": "Barcelona",
    "addr:country": "ES",
    "addr:housenumber": "1",
    "addr:place": "Museu d'Art Contemporani de Barcelona",
    "addr:postcode": "08001",
    "addr:street": "Plaça dels Àngels",
    "alt_name": "MACBA",
    "building": "yes",
    "fee": "yes",
    "fee:conditional": "no @ (Sep 24; Sa 16:00-20:00)",
    "internet_access": "wlan",
    "internet_access:fee": "customers",
    "name": "Museu d'Art Contemporani de Barcelona",
    "name:en": "Barcelona Museum of Contemporary Art",
    "name:es": "Museo de Arte Contemporáneo de Barcelona",
    "name:ko": "바르셀로나 현대미술관",
    "name:zh": "巴塞隆那當代藝術博物館",
    "official_name": "Museu d'Art Contemporani de Barcelona",
    "opening_hours": "Mo,We-Fr 11:00-20:00; Sa 10:00-20:00; Sep 24 10:00-20:00; PH,Su 10:00-15:00",
    "phone": "+34934120810",
    "source": "https://macba.cat/",
    "toilets:wheelchair": "yes",
    "tourism": "museum",
    "website": "https://www.macba.cat/",
    "wheelchair": "yes",
    "wikidata": "Q1067140",
    "wikipedia": "ca:Museu d'Art Contemporani de Barcelona"
  }
},
{
  "type": "way",
  "id": 36990744,
  "nodes": [
    430182914,
    3139885243,
    3139885238,
    3139885240,
    3139885244,
    3139885246,
    3139885249,
    3139885247,
    3139885248,
    3139885245,
    3139885250,
    3139885251,
    3139885262,
    3139885260,
    3139885259,
    3139885261,
    3139885263,
    3139885266,
    3139885264,
    3139885265,
    3139885268,
    3139885270,
    3139885269,
    3139885271,
    3139885272,
    430182915,
    3139885267,
    3139885254,
    3139885239,
    3139885237,
    3139885236,
    3139885233,
    3139885232,
    3139885230,
    3139885016,
    3139885019,
    3139885018,
    3139885013,
    3139885014,
    3139885004,
    3139885003,
    3139885001,
    3139885002,
    430182917,
    3139885006,
    3139885008,
    3139885009,
    3139885011,
    3139885010,
    3139885007,
    3139885020,
    3139885023,
    3139885021,
    3139885024,
    3139885025,
    3139885028,
    3139885027,
    3139885026,
    430182914
  ],
  "tags": {
    "addr:city": "Barcelona",
    "addr:housenumber": "4-5",
    "addr:postcode": "08019",
    "addr:street": "Plaça de Leonardo da Vinci",
    "building": "yes",
    "name": "Museu Blau",
    "opening_hours": "Mo off; Tu-Sa 10:00-19:00; Su 10:00-20:00",
    "phone": "+34 932 56 60 02",
    "subject:wikidata": "Q9046889",
    "subject:wikipedia": "es:Museo Nacional de Ciencias Naturales de Cataluña",
    "tourism": "museum",
    "website": "https://museuciencies.cat/",
    "wheelchair": "yes",
    "wikidata": "Q2842986"
  }
},
{
  "type": "way",
  "id": 40547571,
  "nodes": [
    492056656,
    492056672,
    492056671,
    492056670,
    492056669,
    492056668,
    492056667,
    1457530170,
    492056666,
    492056665,
    492056664,
    2266370609,
    492056663,
    492056662,
    492056661,
    492056660,
    1457518882,
    492056659,
    1456945782,
    492056658,
    4577970477,
    4577970478,
    492056657,
    492056656
  ],
  "tags": {
    "name": "Poble Espanyol",
    "name:ca": "Poble Espanyol",
    "name:en": "Poble Espanyol",
    "name:es": "Pueblo Español",
    "name:fr": "Poble Espanyol",
    "name:gan": "西班牙村",
    "name:ru": "Испанская деревня (Барселона)",
    "tourism": "museum",
    "website": "https://www.poble-espanyol.com/",
    "wikidata": "Q1062480",
    "wikipedia": "ca:Poble Espanyol de Barcelona"
  }
},
{
  "type": "way",
  "id": 43393830,
  "nodes": [
    1401711082,
    3865313746,
    1401711079,
    546686128,
    3103884696,
    3103884697,
    3103884698,
    3103884700,
    3103884704,
    3103884709,
    546686134,
    3865124119,
    3865124120,
    546686143,
    3103886729,
    3103886737,
    546686147,
    546686156,
    4147506931,
    3103886744,
    3103886742,
    3103886739,
    4147506932,
    3103886730,
    3103884722,
    3103884724,
    3865315589,
    3865315590,
    3103886736,
    3856838608,
    3856838610,
    546686170,
    3103886743,
    3103886741,
    3103886735,
    3103886731,
    3103884723,
    3103884719,
    3103884715,
    3103884710,
    3105365631,
    546686120,
    3105365629,
    3105365630,
    3103884703,
    3103884702,
    1401711082
  ],
  "tags": {
    "addr:city": "Barcelona",
    "addr:housename": "Drassanes Reials",
    "addr:postcode": "08001",
    "addr:street": "Avinguda de les Drassanes",
    "alt_name": "Drassanes Reials de Barcelona",
    "alt_name:ca": "Drassanes Reials de Barcelona",
    "alt_name:es": "Atarazanas Reales de Barcelona",
    "building": "yes",
    "building:part": "no",
    "name": "Museu Marítim",
    "name:es": "Museo Marítimo",
    "name:ru": "Морской музей",
    "name:zh": "海事博物館",
    "nohousenumber": "yes",
    "note": "The Pinta de Niña and the Santa María were built here",
    "opening_hours": "10:00-20:00",
    "phone": "+34 933 42 99 20",
    "tourism": "museum",
    "website": "http://www.mmb.cat/",
    "wikidata": "Q1286354",
    "wikipedia": "ca:Museu Marítim de Barcelona"
  }
},
{
  "type": "way",
  "id": 43995751,
  "nodes": [
    559426294,
    559426295,
    559426296,
    559426297,
    559426298,
    559426299,
    559426300,
    6241175849,
    6241175846,
    559426310,
    559426311,
    559426312,
    559426313,
    559426323,
    559426324,
    559426325,
    3890611434,
    3890611433,
    559426314,
    559426326,
    6241175606,
    6241175608,
    559426315,
    559426316,
    559426317,
    3890611424,
    3890611423,
    3890611420,
    3890611421,
    559426318,
    559426319,
    2239856814,
    3890611419,
    559426321,
    559426322,
    559426303,
    559426304,
    3890611408,
    3890611409,
    559426305,
    3890611403,
    3890611404,
    559426306,
    3890611397,
    3890611398,
    559426307,
    3890611394,
    3890611388,
    3890611391,
    3890611387,
    3890611386,
    3890611385,
    559426302,
    3890611392,
    3890611393,
    559426308,
    3890611390,
    3890611389,
    559426309,
    3890611395,
    3890611396,
    559426282,
    559426283,
    3890611399,
    3890611400,
    3890611402,
    3890611401,
    559426284,
    559426285,
    2239856656,
    559426288,
    3890611410,
    3890611411,
    559426289,
    559426290,
    3890611406,
    3890611407,
    559426291,
    559426292,
    3890611412,
    3890611413,
    3890611415,
    3890611414,
    559426293,
    559426301,
    3890611417,
    3890611416,
    559426294
  ],
  "tags": {
    "amenity": "public_building",
    "building": "yes",
    "museum": "art",
    "museum_type": "national",
    "name": "Museu Nacional d'Art de Catalunya",
    "name:ca": "Museu Nacional d'Art de Catalunya",
    "name:en": "National Art Museum of Catalonia",
    "name:es": "Museo Nacional de Arte de Cataluña",
    "name:he": "פלאו נסיונל",
    "name:it": "Museo nazionale d'arte della Catalogna",
    "name:ja": "カタルーニャ美術館",
    "name:ko": "카탈루냐 국립 미술관",
    "name:ru": "Национальный музей искусства Каталонии",
    "name:zh": "加泰罗尼亚国家艺术博物馆",
    "opening_hours": "Tu-Sa 10:00-18:00; Su 10:00-15:00; May-Sep Tu-Sa 10:00-20:00",
    "short_name": "MNAC",
    "tourism": "museum",
    "website": "http://www.mnac.cat",
    "wheelchair": "yes",
    "wikidata": "Q861252",
    "wikipedia": "ca:Palau Nacional (Barcelona)"
  }
},
{
  "type": "way",
  "id": 44955985,
  "nodes": [
    569987431,
    569987432,
    569987433,
    569987434,
    569987431
  ],
  "tags": {
    "building": "yes",
    "layer": "1",
    "name": "Museu de l'Extampació Tèxtil",
    "name:es": "museo de la estampación textil",
    "tourism": "museum",
    "wikipedia": "ca:Museu Municipal de l'Estampació de Premià de Mar"
  }
},
{
  "type": "way",
  "id": 58116731,
  "nodes": [
    721200555,
    721200567,
    721200576,
    1308891627,
    1308891455,
    1308891547,
    721200583,
    1308891972,
    1308891827,
    721200555
  ],
  "tags": {
    "building": "yes",
    "name": "Museu del Càntir d'Argentona",
    "tourism": "museum",
    "wikidata": "Q4896268",
    "wikipedia": "ca:Museu del Càntir d'Argentona"
  }
},
{
  "type": "way",
  "id": 69277613,
  "nodes": [
    830575890,
    830359633,
    830575723,
    830575842,
    830575890
  ],
  "tags": {
    "addr:city": "Vilassar de Mar",
    "addr:housenumber": "8",
    "addr:postcode": "08340",
    "addr:street": "Carrer de Montserrat",
    "building": "yes",
    "name": "Espai Cultural Can Bisa",
    "tourism": "museum"
  }
},
{
  "type": "way",
  "id": 70249289,
  "nodes": [
    838773338,
    838773134,
    838773642,
    838773513,
    838773338
  ],
  "tags": {
    "building": "yes",
    "name": "Museu de la Marina",
    "tourism": "museum",
    "wikidata": "Q17043709"
  }
},
{
  "type": "way",
  "id": 70249302,
  "nodes": [
    838773340,
    838773136,
    838773391,
    838773202,
    838773340
  ],
  "tags": {
    "name": "Museu de la Mina Vella",
    "name:es": "museo de la mina vieja",
    "tourism": "museum",
    "wikidata": "Q11938086"
  }
},
{
  "type": "way",
  "id": 70249346,
  "nodes": [
    838773194,
    838772972,
    838773539,
    838773375,
    838773194
  ],
  "tags": {
    "name": "Museu Escultor \"Enric Monjo\"",
    "tourism": "museum"
  }
},
{
  "type": "way",
  "id": 100770926,
  "nodes": [
    1164708708,
    1164708645,
    1164708830,
    1164708673,
    1164708746,
    1164708876,
    2148105708,
    2148105710,
    1164708774,
    1164708617,
    1164708817,
    1164708658,
    1164708847,
    1164708687,
    1164708763,
    1164708633,
    1164708708
  ],
  "tags": {
    "building": "yes",
    "name": "Museu Tèxtil",
    "tourism": "museum",
    "wikidata": "Q4893623",
    "wikipedia": "ca:Centre de Documentació i Museu Tèxtil"
  }
},
{
  "type": "way",
  "id": 118709755,
  "nodes": [
    1334524822,
    6398497259,
    1334524824,
    1334524821,
    1334524823,
    1334524820,
    4162260946,
    4162260945,
    4162260940,
    4162260942,
    4162260937,
    4162260936,
    4162260931,
    4162260932,
    4162260929,
    1334524827,
    1334524826,
    1334524825,
    1334524822
  ],
  "tags": {
    "addr:housenumber": "16-22",
    "addr:postcode": "08038",
    "addr:street": "Passeig de Santa Madrona",
    "branch": "Montjuïc",
    "building": "yes",
    "contact:email": "museuetnologic@mail.bcn.es",
    "contact:phone": "+34932563484",
    "fee": "yes",
    "name": "Museu Etnològic",
    "name:es": "Museo Etnológico",
    "name:zh": "人类学博物馆",
    "official_name": "Museu Etnològic i de Cultures del Món",
    "opening_hours": "Tu-Sa 10:00-19:00; PH,Su 10:00-20:00",
    "tourism": "museum",
    "website": "https://www.barcelona.cat/museu-etnologic-culturesmon",
    "wikidata": "Q9046827",
    "wikipedia": "ca:Museu Etnològic de Barcelona"
  }
},
{
  "type": "way",
  "id": 123624978,
  "nodes": [
    1377867102,
    5201588367,
    5201588366,
    1377867103,
    4442326490,
    4442322298,
    4442322299,
    6473977929,
    1377867102
  ],
  "tags": {
    "building": "yes",
    "name": "Fundació Foto Colectània",
    "tourism": "museum"
  }
},
{
  "type": "way",
  "id": 124189501,
  "nodes": [
    6168885656,
    6168886171,
    1382915103,
    6168885799,
    6168885816,
    6168885965,
    6168885944,
    6168886490,
    6168885953,
    6168886173,
    6168885898,
    6168886373,
    1382915139,
    1382915102,
    1382915181,
    6168886496,
    6168885804,
    1382915125,
    6168886358,
    6168886113,
    6168886270,
    6168886101,
    6168886033,
    6168886120,
    1382915093,
    6168886027,
    6168885917,
    6168885924,
    6168885618,
    1382915084,
    6168885656
  ],
  "tags": {
    "addr:city": "Barcelona",
    "addr:housenumber": "107",
    "addr:postcode": "08008",
    "addr:street": "Passeig de Gràcia",
    "castle_type": "palace",
    "historic": "castle",
    "name": "Palau Robert",
    "opening_hours": "Mo-Sa 10:00-20:00; Su,PH 10:00-14:30",
    "opening_hours:url": "http://palaurobert.gencat.cat/ca/contacte/",
    "tourism": "museum",
    "website": "http://palaurobert.gencat.cat/ca/inici/",
    "wikidata": "Q3750949",
    "wikipedia": "ca:Palau Robert"
  }
},
{
  "type": "way",
  "id": 126856512,
  "nodes": [
    1405105934,
    1405105932,
    1405105945,
    1405105946,
    4848377974,
    1405105951,
    1405105950,
    1405105953,
    1405105949,
    1405105942,
    1405105941,
    4848377973,
    1405105940,
    1405105934
  ],
  "tags": {
    "building": "yes",
    "name": "Casa del Guarda",
    "tourism": "museum",
    "website": "http://museuhistoria.bcn.cat/es/muhba-park-guell-casa-del-guarda"
  }
},
{
  "type": "way",
  "id": 126856515,
  "nodes": [
    1405105972,
    6301391651,
    6301393191,
    1405105974,
    6301394039,
    6301395363,
    6301395926,
    6301391878,
    6301393816,
    1405105970,
    6301391816,
    6301395662,
    6301394236,
    6301392238,
    1405105969,
    1405105972
  ],
  "tags": {
    "addr:housenumber": "23A",
    "addr:postcode": "08024",
    "addr:street": "Carretera del Carmel",
    "building": "public",
    "building:levels": "4",
    "name": "Casa Museu Gaudí",
    "name:es": "Casa Museo Gaudí",
    "name:zh": "高迪博物館",
    "opening_hours": "Oct-Mar 10:00-18:00; Apr-Sep 09:00-20:00; Jan 1, Jan 6, Dec 25, Dec 26 10:00-14:00",
    "tourism": "museum",
    "wikidata": "Q1968399",
    "wikipedia": "ca:Casa Museu Gaudí"
  }
},
{
  "type": "way",
  "id": 132533806,
  "nodes": [
    1457731338,
    1457731358,
    1457731287,
    1457731268,
    1457731354,
    1457731320,
    1457731305,
    2501123848,
    1457731353,
    1457731321,
    3868351846,
    1457731319,
    1457731293,
    3497473100,
    1457731303,
    1457731338
  ],
  "tags": {
    "building": "yes",
    "name": "Palau de la Virreina",
    "tourism": "museum",
    "wikidata": "Q1798216",
    "wikipedia": "ca:Palau de la Virreina"
  }
},
{
  "type": "way",
  "id": 135069811,
  "nodes": [
    452480263,
    1483794677,
    1483794654,
    6412765235,
    1483794617,
    1483794656,
    1483794612,
    1483794614,
    1483794624,
    1483794618,
    1483794592,
    1483794600,
    1483794642,
    1483794581,
    1483794644,
    1483794652,
    1483794679,
    1483794586,
    1483794625,
    1483794711,
    2555223662,
    1483794693,
    1483794658,
    1483794665,
    5276306117,
    1483794552,
    1483794667,
    1483794733,
    452480263
  ],
  "tags": {
    "addr:housenumber": "26",
    "addr:postcode": "08022",
    "addr:street": "Carrer d'Isaac Newton",
    "alt_name": "Museu de la Ciència",
    "building": "yes",
    "building:levels": "1",
    "building:levels:underground": "5",
    "fee": "yes",
    "fee:disabled": "no",
    "fee:disabled_assistant": "no",
    "museum": "science",
    "museum_type": "private",
    "name": "CosmoCaixa",
    "name:ko": "과학 박물관",
    "opening_hours": "Tu-Su 10:00-20:00; Dec 24,Dec 31,Jan 5 10:00-18:00; Dec 25,Jan 1,Jan 6 off",
    "phone": "+34932126050",
    "subject": "science",
    "tourism": "museum",
    "website": "https://cosmocaixa.es",
    "wheelchair": "yes",
    "wikidata": "Q2625747",
    "wikipedia": "ca:CosmoCaixa Barcelona"
  }
},
{
  "type": "way",
  "id": 136060835,
  "nodes": [
    1437310465,
    3109120488,
    3109120484,
    4943450097,
    3109120482,
    3109120477,
    1493106449,
    3109120441,
    3109120438,
    3109120436,
    3109120434,
    1493106451,
    3109120445,
    3109120450,
    4943450098,
    3109120453,
    3109120457,
    1493106450,
    3109120493,
    3109120496,
    3109120498,
    3109120499,
    3109120501,
    1437310465
  ],
  "tags": {
    "addr:city": "Barcelona",
    "addr:country": "ES",
    "addr:housenumber": "3",
    "addr:postcode": "08003",
    "addr:street": "Plaça Comercial",
    "building": "market",
    "building:part": "yes",
    "email": "infoelborncc@bcn.cat",
    "image": "http://elbornculturaimemoria.barcelona.cat/wp-content/uploads/2015/04/elborncc-estiu16-e1466412381409.jpg",
    "name": "El Born Centre Cultural",
    "old_name": "Mercat del Born",
    "operator": "Ajuntament de Barcelona",
    "phone": "+34 93 256 68 51",
    "source": "Catastro Spain",
    "tourism": "museum",
    "website": "http://elbornculturaimemoria.barcelona.cat",
    "wikipedia": "ca:Mercat del Born"
  }
},
{
  "type": "way",
  "id": 166566543,
  "nodes": [
    1780146666,
    6718482609,
    1780146667,
    1780146671,
    6718483105,
    6718483106,
    6718474029,
    1780146674,
    6718482610,
    1780146672,
    1780146670,
    1780146669,
    1780146675,
    1780146676,
    1780146677,
    6718448827,
    6718482078,
    6718469879,
    6718448828,
    1780146668,
    6718483100,
    6718483113,
    6718483116,
    6718483107,
    1780146666
  ],
  "tags": {
    "building": "public",
    "building:levels": "4",
    "name": "Museu de Cera",
    "name:es": "Museo de Cera",
    "tourism": "museum",
    "website": "http://www.museocerabcn.com",
    "wikidata": "Q876794",
    "wikipedia": "ca:Museu de Cera de Barcelona"
  }
},
{
  "type": "way",
  "id": 167056918,
  "nodes": [
    1400647993,
    240979740,
    2267959308,
    1784637085,
    1998961100,
    2482696173,
    1400647993
  ],
  "tags": {
    "addr:housenumber": "36",
    "addr:postcode": "08003",
    "addr:street": "Carrer del Comerç",
    "amenity": "cafe",
    "building": "yes",
    "contact:email": "museu@pastisseria.cat",
    "contact:fax": "+34 932682279",
    "contact:phone": "+34 932687878",
    "contact:website": "http://www.museuxocolata.cat/",
    "description": "Private museum about chocolate",
    "name": "Museu de la Xocolata",
    "name:es": "museo del chocolate",
    "name:ko": "초콜렛 박물관",
    "opening_hours": "Mo-Sa 10:00-19:00; Su 10:00-15:00",
    "shop": "deli",
    "tourism": "museum",
    "wikidata": "Q2890127",
    "wikipedia": "ca:Museu de la Xocolata"
  }
},
{
  "type": "way",
  "id": 171618690,
  "nodes": [
    1826238007,
    1826238013,
    1826238040,
    1826238042,
    1826238048,
    1826238045,
    1826238055,
    1826238051,
    1826238037,
    4929991410,
    1826238035,
    1826238009,
    1826238010,
    1826238004,
    1826238007
  ],
  "tags": {
    "building": "yes",
    "name": "Casa Museu Alegre de Sagrera",
    "tourism": "museum"
  }
},
{
  "type": "way",
  "id": 175710410,
  "nodes": [
    1862737431,
    1862737367,
    1862737360,
    1862737275,
    1862737264,
    1862737258,
    3979196599,
    1862737349,
    1862737350,
    1862737418,
    1862737424,
    1862737419,
    1862737421,
    1862737423,
    1862737425,
    1862737430,
    1862737431
  ],
  "tags": {
    "addr:housenumber": "40-42",
    "addr:street": "Carrer d'Anselm Clavé",
    "architect": "Bosch, Botey i Cuspinera",
    "building": "yes",
    "building:levels": "4",
    "contact:email": "museu@ajuntament.granollers.cat",
    "contact:fax": "+34 938793919",
    "contact:phone": "+34 938426840",
    "contact:website": "http://www.museugranollers.org",
    "name": "Museu de Granollers",
    "name:es": "museo de Granollers",
    "opening_hours": "Tu-Sa 17:30-20:30; Su 11:00-14:00,17:30-20:30",
    "source": "Catastro",
    "tourism": "museum",
    "wikidata": "Q3816581"
  }
},
{
  "type": "way",
  "id": 188393722,
  "nodes": [
    6031738781,
    6031738767,
    6031738776,
    6031738770,
    6031738777,
    6031738775,
    6031738779,
    6031738771,
    6031738784,
    6031738772,
    6031738769,
    6031738781
  ],
  "tags": {
    "addr:city": "Sant Adrià de Besòs",
    "addr:country": "ES",
    "addr:housename": "Can Serra",
    "addr:housenumber": "124",
    "addr:postcode": "08930",
    "addr:street": "Carretera de Mataró",
    "alt_name": "Mhic",
    "building": "public",
    "building:levels": "3",
    "name": "Museu d'Història de la Immigració de Catalunya",
    "tourism": "museum",
    "website": "http://www.mhic.net",
    "wikidata": "Q3817998",
    "wikipedia": "ca:Museu d'Història de la Immigració de Catalunya"
  }
},
{
  "type": "way",
  "id": 188938001,
  "nodes": [
    2240993651,
    1995709466,
    2240993660,
    1995709467,
    1995709469,
    2240993676,
    1995661929,
    1995661934,
    1995661932,
    1995661935,
    1995661931,
    1995661937,
    4056507741,
    240972435,
    2240993662,
    2240993658,
    1995709465,
    2240993656,
    2240993654,
    2240993651
  ],
  "tags": {
    "addr:housenumber": "15-23",
    "addr:street": "Carrer Montcada",
    "attraction": "art",
    "contact:email": "museupicasso@bcn.cat",
    "contact:fax": "+34933150102",
    "contact:phone": "+34932563000",
    "contact:website": "http://museupicasso.bcn.cat/",
    "description": "Major collection of Picasso paintings",
    "fee": "yes",
    "fee:conditional": "no @ (Su[1]; Th 18:00-21:30; May 18,Sep 24)",
    "name": "Museu Picasso",
    "name:en": "Picasso Museum",
    "name:es": "Museo Picasso",
    "opening_hours": "PH,Mo 10:00-17:00; PH,Tu-Su 09:00-19:00; PH,Th 09:00-21:30; Dec 24,Dec 31 09:00-14:00; Jan 5 09:00-17:00; Jan 1,May 1,Jun 24,Dec 25 off",
    "phone": "+34932563000",
    "tourism": "museum",
    "wheelchair": "yes",
    "wikidata": "Q1050032",
    "wikipedia": "ca:Museu Picasso de Barcelona"
  }
},
{
  "type": "way",
  "id": 192758193,
  "nodes": [
    2032917571,
    2032917603,
    2032917610,
    2032917585,
    2032917571
  ],
  "tags": {
    "name": "Museu Comarcal del Maresme",
    "name:es": "museo comarcal del Maresme",
    "tourism": "museum"
  }
},
{
  "type": "way",
  "id": 192944873,
  "nodes": [
    2034764950,
    2034765005,
    2034764991,
    2034764982,
    4738209847,
    2034764960,
    6058776920,
    6058776915,
    6058776928,
    2034764948,
    4738209848,
    2034765002,
    2034765007,
    6058783370,
    6058783368,
    6058783369,
    2034764993,
    1829944838,
    2034764970,
    2187195424,
    6058776927,
    6058776916,
    6058776929,
    2034764979,
    2034764950
  ],
  "tags": {
    "addr:city": "Barcelona",
    "addr:housenumber": "116",
    "addr:postcode": "08018",
    "addr:street": "Carrer de Roc Boronat",
    "architect": "BAAS Jordi Badia",
    "building": "industrial",
    "building:levels": "3",
    "building:levels:underground": "1",
    "building:use": "museum",
    "designation": "Museum of Contemporary Painting",
    "fee": "yes",
    "name": "Can Framis",
    "opening_hours": "Tu-Sa 11:00-18:00; Jan 5,Mar 29 Su 11:00-14:00; PH closed",
    "operator": "Fundació Vila Casas",
    "phone": "+34933208736",
    "tourism": "museum",
    "website": "https://www.fundaciovilacasas.com/ca/museu/museu-can-framis-barcelona",
    "wikidata": "Q15623912",
    "wikipedia": "ca:Museu Can Framis"
  }
},
{
  "type": "way",
  "id": 207839763,
  "nodes": [
    2180920837,
    2180920836,
    2180920835,
    5097180783,
    2180920833,
    5097180803,
    5097180792,
    5097180800,
    5097180801,
    5097180802,
    5097180795,
    2180920834,
    5097180799,
    2180920837
  ],
  "tags": {
    "addr:housenumber": "90",
    "addr:street": "Carrer del Doctor Lluís Duran",
    "building": "yes",
    "building:levels": "2",
    "contact:phone": "+34 935445099",
    "name": "Casa del Pintor Abelló",
    "name:ca": "Casa del Pintor Abelló",
    "name:es": "Casa del Pintor Abelló",
    "tourism": "museum"
  }
},
{
  "type": "way",
  "id": 207839764,
  "nodes": [
    2180920840,
    4865618124,
    4865618127,
    4865618137,
    4865618134,
    4865618135,
    4865618136,
    4865618132,
    4865617938,
    2180920838,
    2180920839,
    4865618133,
    2180920841,
    2180920840
  ],
  "tags": {
    "addr:housenumber": "122",
    "addr:street": "Carrer de Berenguer III",
    "building": "yes",
    "building:levels": "2",
    "contact:email": "museuabello@molletvalles.cat",
    "contact:phone": "+34 935445099",
    "contact:website": "www.museuabello.cat",
    "name": "Museu Abelló",
    "name:ca": "Museu Abelló",
    "name:es": "Museo Abelló",
    "tourism": "museum",
    "wikidata": "Q3820914"
  }
},
{
  "type": "way",
  "id": 217475661,
  "nodes": [
    1784739683,
    2267389836,
    2267389834,
    2267389832,
    2267389841,
    2267389846,
    2267389849,
    2267389844,
    2267389853,
    2267389860,
    2267389868,
    2267389861,
    2267389880,
    2267389888,
    2267389894,
    2267389930,
    2267389928,
    2267389931,
    2267389927,
    2267389926,
    2267389925,
    2267389912,
    2267389911,
    2267389903,
    2267389909,
    2267389882,
    2267389872,
    2267389883,
    2267389878,
    2267389885,
    2267389890,
    2267389897,
    2267389895,
    2267389899,
    2267389904,
    2267389921,
    2267389916,
    2267389886,
    2267389889,
    2267389881,
    2267389879,
    2267389862,
    2267389865,
    2267389858,
    2267389857,
    2267389851,
    2267389848,
    2267389867,
    2267389870,
    2267389877,
    2267389874,
    2267389913,
    2267389906,
    2267389901,
    2267389898,
    1784739685,
    1784739684,
    1784739679,
    1784739680,
    1784739678,
    1784739681,
    1784739682,
    1784739683
  ],
  "tags": {
    "addr:housename": "Fàbrica Casaramona",
    "addr:housenumber": "6-8",
    "addr:postcode": "08038",
    "addr:street": "Avinguda de Francesc Ferrer i Guàrdia",
    "alt_name": "Fàbrica Casaramona",
    "building": "yes",
    "dog": "guide",
    "fee": "yes",
    "fee:disabled": "no",
    "fee:disabled_assistant": "no",
    "internet_access": "wlan",
    "internet_access:fee": "no",
    "name": "CaixaForum Barcelona",
    "opening_hours": "Mo-Su 10:00-20:00; Jul-Aug We 10:00-23:00; Dec 24,Dec 31,Jan 5 10:00-18:00; Dec 25,Jan 1,Jan 6 off",
    "phone": "+34934768600",
    "tourism": "museum",
    "website": "https://caixaforum.es/barcelona",
    "wheelchair": "limited",
    "wikidata": "Q960115",
    "wikipedia": "ca:CaixaForum Barcelona"
  }
},
{
  "type": "way",
  "id": 222539995,
  "nodes": [
    2314946897,
    2314946884,
    2314946887,
    2314946882,
    2314946872,
    2314946878,
    2314946880,
    2314946888,
    2314946890,
    2314946894,
    2314946897
  ],
  "tags": {
    "addr:housename": "Societat General d'Aigües de Barcelona",
    "building": "yes",
    "name": "Museu Agbar de les Aigües",
    "name:es": "Museo Agbar de las aguas",
    "tourism": "museum",
    "website": "http://museudelesaigues.com",
    "wikidata": "Q6033097",
    "wikipedia": "ca:Museu Agbar de les Aigües"
  }
},
{
  "type": "way",
  "id": 248742203,
  "nodes": [
    2484274498,
    5250647062,
    5250647061,
    2554827400,
    2554827401,
    1483794612,
    5250647063,
    5250647064,
    5250647065,
    2484274498
  ],
  "tags": {
    "area": "yes",
    "name": "CosmoCaixa",
    "tourism": "museum",
    "wikipedia": "ca:CosmoCaixa Barcelona"
  }
},
{
  "type": "way",
  "id": 257236900,
  "nodes": [
    2628333237,
    2628333238,
    2628333239,
    2628333240,
    2628333229,
    2628333237
  ],
  "tags": {
    "building": "yes",
    "name": "Museu de Pallejà",
    "tourism": "museum"
  }
},
{
  "type": "way",
  "id": 260787137,
  "nodes": [
    2663456279,
    2663456281,
    2663456282,
    2663456283,
    2663456279
  ],
  "tags": {
    "building": "yes",
    "name": "Museu de Sant Cugat Sesgarrigues",
    "tourism": "museum"
  }
},
{
  "type": "way",
  "id": 262521719,
  "nodes": [
    2681877956,
    2681877926,
    2681878003,
    2681878019,
    2681877993,
    2681877998,
    2681877979,
    2681877983,
    2681877956
  ],
  "tags": {
    "addr:housenumber": "2",
    "addr:postcode": "08035",
    "addr:street": "Carrer de Judea",
    "alt_name": "Can Fuster; Torre Figuerola",
    "building": "yes",
    "name": "Museu Palmero",
    "phone": "+34932126551",
    "tourism": "museum",
    "website": "http://www.alfredopalmero.es"
  }
},
{
  "type": "way",
  "id": 265303170,
  "nodes": [
    2709713027,
    2709713028,
    2709713029,
    2709713030,
    2709713027
  ],
  "tags": {
    "building": "yes",
    "name": "Can Tinturé",
    "tourism": "museum",
    "wikidata": "Q3816555"
  }
},
{
  "type": "way",
  "id": 266633090,
  "nodes": [
    6067354265,
    2721657658,
    6067354435,
    6067354418,
    6067354388,
    6067354255,
    6067354440,
    6067354416,
    6067354264,
    6067354272,
    2721657666,
    6067354266,
    6067354406,
    6067354276,
    6067354403,
    6067354389,
    6067354400,
    6067354258,
    6067354260,
    6067354426,
    6067354265
  ],
  "tags": {
    "addr:city": "Barcelona",
    "addr:housenumber": "114-132",
    "addr:postcode": "08041",
    "addr:street": "Avinguda de la Mare de Déu de Montserrat",
    "building:levels": "5",
    "name": "Casa Museu Núria Pla",
    "old_name": "Antic Institut Ravetllat-Pla",
    "tourism": "museum",
    "website": "http://www.fundacion-rpa.org/",
    "wikidata": "Q11905725",
    "wikipedia": "ca:Antic Institut Ravetllat-Pla"
  }
},
{
  "type": "way",
  "id": 268213745,
  "nodes": [
    2735710186,
    2735710187,
    2735710188,
    2735710189,
    2735710190,
    2735710191,
    1089104408,
    2735710193,
    2735710194,
    2735710195,
    2749484330,
    2735710186
  ],
  "tags": {
    "building": "yes",
    "height": "7 m",
    "name": "Museu del Poblat Ibèric de Ca n'Oliver",
    "tourism": "museum"
  }
},
{
  "type": "way",
  "id": 305246059,
  "nodes": [
    3098452652,
    3098452787,
    3098452786,
    2262989758,
    2262989743,
    3098452652
  ],
  "tags": {
    "building": "yes",
    "name": "Centre de Cultura Contemporània de Barcelona",
    "tourism": "museum"
  }
},
{
  "type": "way",
  "id": 315806667,
  "nodes": [
    3219390397,
    3219390398,
    3219390401,
    3219390403,
    3219390404,
    3219390402,
    3219390399,
    3219390400,
    3219390397
  ],
  "tags": {
    "building": "yes",
    "building:levels": "3",
    "tourism": "museum"
  }
},
{
  "type": "way",
  "id": 346932571,
  "nodes": [
    3533778454,
    3533778399,
    3533778458,
    3533778457,
    3533778443,
    3533778444,
    3533778454
  ],
  "tags": {
    "name": "Molí d'en Rata",
    "tourism": "museum",
    "wikidata": "Q3816314"
  }
},
{
  "type": "way",
  "id": 358398712,
  "nodes": [
    3633227962,
    3633227963,
    3633227964,
    3633227965,
    3633227962
  ],
  "tags": {
    "building": "yes",
    "name": "La Rajoleta",
    "operator": "Ajuntament d'Esplugues",
    "tourism": "museum"
  }
},
{
  "type": "way",
  "id": 366096851,
  "nodes": [
    3700854199,
    3700854180,
    3700854181,
    3700854183,
    3700854185,
    3700854184,
    3700854182,
    3700854231,
    6497311521,
    3700854254,
    3700854255,
    3700854253,
    3700854199
  ],
  "tags": {
    "building": "yes",
    "name": "Museu del Cau Ferrat",
    "tourism": "museum",
    "website": "http://museusdesitges.cat/ca/museu/cau-ferrat/museu-del-cau-ferrat",
    "wikidata": "Q4894835",
    "wikipedia": "ca:Museu del Cau Ferrat"
  }
},
{
  "type": "way",
  "id": 369996573,
  "nodes": [
    3737278814,
    3737278817,
    3737278816,
    4406507020,
    3737278815,
    3737278814
  ],
  "tags": {
    "addr:housenumber": "23",
    "addr:street": "Carrer de l'Escola Industrial",
    "building": "yes",
    "building:levels": "3",
    "contact:email": "museu@icp.cat",
    "contact:fax": "+34 937121421",
    "contact:phone": "+34 937261769",
    "contact:website": "http://www.icp.cat",
    "name": "Institut Català de Paleontologia Miquel Cusafont",
    "opening_hours": "Tu-Su 10:00-14:00; Fr,Sa 10:00-14:00,17:00-20:00",
    "tourism": "museum"
  }
},
{
  "type": "way",
  "id": 395034877,
  "nodes": [
    1878623090,
    3979196629,
    3979196628,
    3979196626,
    3979196598,
    3979196616,
    3979196612,
    3979196607,
    3979196602,
    3979196603,
    1878622677,
    3979196600,
    1878622691,
    3979196606,
    1878622907,
    1878622989,
    1878623054,
    3979196625,
    1878623028,
    3979196627,
    1878623087,
    1878623090
  ],
  "tags": {
    "addr:housenumber": "102",
    "addr:street": "Carrer de Palaudàries",
    "contact:email": "m.granollers.cn@diba.cat",
    "contact:phone": "+34 938709651",
    "contact:website": "http://www.museugranollersciencies.org",
    "name": "Museu de Ciències Naturals de Granollers, \"La Tela\"",
    "name:es": "museo de ciencias naturales - \"LaTela\"",
    "opening_hours": "Tu-Sa 16:00-19:00; Su 11:00-14:00",
    "tourism": "museum",
    "wikidata": "Q3816595"
  }
},
{
  "type": "way",
  "id": 406655896,
  "nodes": [
    4087034835,
    4087034836,
    4087034837,
    4087034838,
    7053865222,
    4087034835
  ],
  "tags": {
    "addr:city": "Cardedeu",
    "addr:housenumber": "1",
    "addr:postcode": "08440",
    "addr:street": "Carrer Dr. Daurella",
    "building": "yes",
    "name": "Museu Arxiu Tomàs Balvey",
    "operator": "Ajuntament de Cardedeu",
    "phone": "+34 938 71 30 70",
    "tourism": "museum",
    "website": "museudecardedeu.cat",
    "wikidata": "Q3816577"
  }
},
{
  "type": "way",
  "id": 453127382,
  "nodes": [
    4499255271,
    6024634052,
    6024635499,
    4499255272,
    4499255273,
    6024634072,
    6024634050,
    6024635494,
    6024634082,
    6024634083,
    4499255274,
    6024634078,
    6024635493,
    4499255263,
    6024635490,
    6024634066,
    6024635486,
    4499255264,
    4499255265,
    6024635485,
    6024634075,
    4499255266,
    6024634073,
    6024635497,
    4499255268,
    4499255267,
    4499255270,
    4499255269,
    6024634077,
    6024635504,
    4499255271
  ],
  "tags": {
    "building": "public",
    "building:levels": "1",
    "name": "Casa de les Aigües",
    "tourism": "museum"
  }
},
{
  "type": "way",
  "id": 454488169,
  "nodes": [
    1784479349,
    2437970402,
    6053180279,
    6053180200,
    2208253461,
    1784479352,
    6053180227,
    2264354594,
    2264354598,
    2264354597,
    2264354604,
    2264354603,
    3889098325,
    6053180207,
    2264354609,
    6053180265,
    6053180254,
    6053180196,
    6053180253,
    6053180225,
    6053179072,
    6053180197,
    6053179063,
    6053179057,
    6053180239,
    6053181389,
    1784479361,
    1784479366,
    1784479359,
    6053179062,
    6053180198,
    1784479354,
    6053180199,
    3105500799,
    1784479349
  ],
  "tags": {
    "addr:city": "Barcelona",
    "addr:housenumber": "5",
    "addr:postcode": "08002",
    "addr:province": "Barcelona",
    "addr:street": "Plaça de Sant Iu",
    "contact:phone": "+34932563500",
    "contact:website": "http://www.museumares.bcn.cat/",
    "name": "Museu Frederic Marès",
    "tourism": "museum",
    "wikidata": "Q1630272",
    "wikipedia": "ca:Museu Frederic Marès"
  }
},
{
  "type": "way",
  "id": 527263399,
  "nodes": [
    5126326052,
    5126326053,
    6721336596,
    6721336677,
    6721336618,
    6721336637,
    5126326060,
    5126326055,
    5126326056,
    5126326057,
    5126326058,
    5126326052
  ],
  "tags": {
    "building": "yes",
    "name": "Museu d'Història de l'Hospitalet",
    "tourism": "museum",
    "wikidata": "Q3357262"
  }
},
{
  "type": "way",
  "id": 557836888,
  "nodes": [
    5379684714,
    5379684715,
    5379684716,
    5379684717,
    5379684714
  ],
  "tags": {
    "building": "yes",
    "name": "Museo Municipal",
    "tourism": "museum"
  }
},
{
  "type": "way",
  "id": 578020386,
  "nodes": [
    5539737074,
    5539736934,
    5539737035,
    5539736942,
    5539737061,
    5539737311,
    5539737472,
    5539737274,
    5539737249,
    5539737331,
    5539737325,
    5539737300,
    5539737078,
    5539736998,
    5539736950,
    5539737285,
    5539737063,
    5539737381,
    5539737307,
    5539737330,
    5539737316,
    5539737295,
    5539736207,
    5539737224,
    5539737289,
    5539736967,
    5539737349,
    5539737092,
    5539736925,
    5539737298,
    5539737242,
    5539737412,
    5539736979,
    5539737353,
    5539737282,
    5539737007,
    5539737294,
    5539737392,
    5539737336,
    5539737451,
    5539737465,
    5539737402,
    5539737454,
    5539736952,
    5539737446,
    5539737457,
    5539736954,
    5539737422,
    5539737317,
    5539736982,
    5539737037,
    5539737411,
    5539736947,
    5539737420,
    5539737117,
    5539737324,
    5539737308,
    5539737077,
    5539737099,
    5539736959,
    5539737407,
    5539737074
  ],
  "tags": {
    "historic": "monument",
    "name": "Museu Torre Balldovina",
    "protection_title": "Bien de Interés Cultural",
    "protection_title:category": "Monumento Torre",
    "ref:bic": "RI-51-0005685",
    "tourism": "museum",
    "wikidata": "Q3816504",
    "wikipedia": "es:Museo Torre Balldovina"
  }
},
{
  "type": "way",
  "id": 615390879,
  "nodes": [
    5819337623,
    5819337624,
    5819337625,
    5819337626,
    5819337627,
    5819337628,
    5819337629,
    5819337630,
    4273641881,
    2129394299,
    2129394268,
    5819337623
  ],
  "tags": {
    "addr:city": "Badalona",
    "addr:housenumber": "1",
    "addr:street": "plaça de l'Assemblea de Catalunya",
    "building": "yes",
    "name": "Museu de Badalona",
    "name:es": "museo de Badalona",
    "tourism": "museum",
    "wikidata": "Q3821843",
    "wikipedia": "ca:Museu de Badalona"
  }
},
{
  "type": "way",
  "id": 616593509,
  "nodes": [
    655295892,
    5829402291,
    5829402292,
    5829402293,
    655295892
  ],
  "tags": {
    "building": "yes",
    "name": "Museu l'Antiga Estació",
    "tourism": "museum"
  }
},
{
  "type": "way",
  "id": 620940671,
  "nodes": [
    5866174684,
    5866174683,
    5866174682,
    5866174681,
    5866174678,
    5866174680,
    5866175592,
    5866175593,
    5866174684
  ],
  "tags": {
    "addr:city": "Cornellà de Llobregat",
    "addr:country": "ES",
    "addr:district": "aaa",
    "addr:housename": "Masia Museu Serra",
    "addr:housenumber": "1",
    "addr:postcode": "08940",
    "addr:street": "Passeig de la Campsa",
    "building": "house",
    "contact:email": "info@masiamuseuserra.com",
    "contact:phone": "+34 933 774 341",
    "name": "Masia Museu Serra",
    "tourism": "museum"
  }
},
{
  "type": "way",
  "id": 638771097,
  "nodes": [
    6111407156,
    6111407161,
    6019834295,
    6019834296,
    6019834297,
    6019834298,
    6111407156
  ],
  "tags": {
    "building": "public",
    "building:levels": "1",
    "name": "MUHBA Casa de l'Aigua",
    "tourism": "museum"
  }
},
{
  "type": "way",
  "id": 646052650,
  "nodes": [
    6071376841,
    6071376840,
    6071376839,
    6071376838,
    6071376835,
    6071376837,
    6071376836,
    6071376841
  ],
  "tags": {
    "building": "public",
    "name": "Arxiu municipal",
    "tourism": "museum"
  }
},
{
  "type": "way",
  "id": 647512618,
  "nodes": [
    6080818152,
    6080818225,
    6080817870,
    6080818217,
    6080817862,
    6080818113,
    6080818126,
    6080818104,
    6080818097,
    6080818282,
    6080818227,
    6080818326,
    6080818201,
    6080818216,
    6080818198,
    6080818220,
    6080818200,
    6080818203,
    6080818222,
    6080818208,
    6080818219,
    6080818152
  ],
  "tags": {
    "addr:housenumber": "104",
    "building": "public",
    "building:levels": "5",
    "name": "Vil·la Joana. Museu d'Història de Barcelona (MUHBA)",
    "phone": "+34 932047805",
    "tourism": "museum",
    "wikipedia": "ca:Vil·la Joana"
  }
},
{
  "type": "way",
  "id": 665346739,
  "nodes": [
    6227547301,
    6227547562,
    6227547203,
    6227547576,
    6227547301
  ],
  "tags": {
    "addr:housenumber": "20I",
    "addr:postcode": "08030",
    "addr:street": "Carrer de Sant Adrià",
    "building": "industrial",
    "building:levels": "2",
    "name": "Sala de Calderes (MUHBA)",
    "operator": "MUHBA",
    "tourism": "museum"
  }
},
{
  "type": "way",
  "id": 681176106,
  "nodes": [
    1568860890,
    1568860501,
    1568860505,
    1568860504,
    1568861025,
    1568860895,
    6378813376,
    1568860894,
    1568860893,
    1568860896,
    1574114144,
    1568861026,
    1568861027,
    1568861050,
    1568860260,
    1568860259,
    1568860252,
    1568860249,
    1568860261,
    1568860258,
    1568860255,
    1568860461,
    1568860890
  ],
  "tags": {
    "addr:city": "Terrassa",
    "addr:housenumber": "270",
    "addr:postcode": "08221",
    "addr:street": "Rambla d'Ègara",
    "name": "Museu Nacional de la Ciència i de la Tècnica de Catalunya",
    "phone": "+34 93 736 89 66",
    "short_name": "mNACTEC",
    "tourism": "museum",
    "website": "https://mnactec.cat/",
    "wheelchair": "yes",
    "wikidata": "Q4895245",
    "wikipedia": "ca:Museu de la Ciència i de la Tècnica de Catalunya"
  }
},
{
  "type": "way",
  "id": 708825408,
  "nodes": [
    6660693682,
    1955175318,
    1955175317,
    6660693660,
    6660693657,
    6660693713,
    6660693714,
    6660693715,
    6660693716,
    6660693717,
    6660693718,
    6660693719,
    6660693720,
    6660693721,
    6660693681,
    6660693682
  ],
  "tags": {
    "addr:city": "Sabadell",
    "addr:housenumber": "13",
    "addr:postcode": "08201",
    "addr:street": "Carrer de Sant Antoni",
    "building": "yes",
    "email": "mhs@ajsabadell.cat",
    "name": "Museu d'Història de Sabadell",
    "operator": "Ajuntament de Sabadell",
    "operator:type": "public",
    "phone": "+34937278555",
    "tourism": "museum",
    "website": "http://museus.sabadell.cat/museu-historia"
  }
},
{
  "type": "way",
  "id": 719993924,
  "nodes": [
    6757735480,
    6757735481,
    6757735482,
    6757735483,
    6757735480
  ],
  "tags": {
    "addr:city": "Cerdanyola del Vallès",
    "addr:housenumber": "23 - 24",
    "addr:postcode": "08290",
    "addr:street": "Plaça de Sant Ramon",
    "building": "yes",
    "email": "patrimonicultural@cerdanyola.cat",
    "name": "Museu Ca N'Ortador",
    "opening_hours": "L-D 10:30 - 20:00 (Cerrado por reformas)",
    "phone": "+34 935 80 45 00",
    "tourism": "museum",
    "website": "https://www.cerdanyola.cat/turisme/museu-i-jardins-de-ca-nortado"
  }
},
{
  "type": "way",
  "id": 749484812,
  "nodes": [
    7008654889,
    7008654890,
    7008654891,
    7008654892,
    7008654889
  ],
  "tags": {
    "addr:city": "Cerdanyola del Vallès",
    "addr:postcode": "08290",
    "addr:street": "Passatge de l'Ajuntament",
    "building": "yes",
    "name": "Arxiu Mpal.",
    "operator": "Ajuntament de Cerdanyola del Vallès",
    "operator:type": "private",
    "tourism": "museum"
  }
},
{
  "type": "relation",
  "id": 2873579,
  "members": [
    {
      "type": "way",
      "ref": 10510730,
      "role": "outer"
    },
    {
      "type": "way",
      "ref": 685477943,
      "role": "outer"
    },
    {
      "type": "way",
      "ref": 216980034,
      "role": "inner"
    }
  ],
  "tags": {
    "addr:housenumber": "5",
    "addr:postcode": "08001",
    "addr:street": "Carrer de Montalegre",
    "alt_name": "CCCB",
    "building": "yes",
    "fee": "yes",
    "fee:conditional": "no@(Su 15:00-20:00)",
    "name": "Centre de Cultura Contemporània de Barcelona",
    "name:es": "Centro de cultura contemporánea de Barcelona",
    "official_name": "Centre de Cultura Contemporània de Barcelona",
    "opening_hours": "PH,Tu-Su 11:00-20:00; Jan 5,Jan 6,Dec 24,Dec 26,Dec 31 11:00-15:00; Jan 1,Dec 25 Su closed",
    "phone": "+34933064100",
    "short_name": "CCCB",
    "tourism": "museum",
    "type": "multipolygon",
    "website": "https://cccb.org",
    "wikidata": "Q2945260",
    "wikipedia": "ca:Centre de Cultura Contemporània de Barcelona"
  }
},
{
  "type": "relation",
  "id": 3347844,
  "members": [
    {
      "type": "way",
      "ref": 118698769,
      "role": "outer"
    },
    {
      "type": "way",
      "ref": 216954183,
      "role": "inner"
    },
    {
      "type": "way",
      "ref": 216954182,
      "role": "inner"
    }
  ],
  "tags": {
    "building": "yes",
    "name": "Fundació Joan Miró",
    "name:ca": "Fundació Joan Miró",
    "name:es": "Fundación Joan Miró",
    "name:he": "מכון ז'ואן מירו",
    "name:ru": "Фонд-музей Жоана Миро",
    "name:zh": "米罗基金会",
    "phone": "+34 934 43 94 70",
    "tourism": "museum",
    "type": "multipolygon",
    "website": "http://www.fmirobcn.org/",
    "wheelchair": "yes",
    "wikidata": "Q867072",
    "wikipedia": "ca:Fundació Joan Miró"
  }
},
{
  "type": "relation",
  "id": 6056831,
  "members": [
    {
      "type": "way",
      "ref": 585596991,
      "role": "outer"
    },
    {
      "type": "way",
      "ref": 207911160,
      "role": "outer"
    },
    {
      "type": "way",
      "ref": 585595524,
      "role": "outer"
    },
    {
      "type": "way",
      "ref": 404090476,
      "role": "outer"
    },
    {
      "type": "way",
      "ref": 585595523,
      "role": "outer"
    }
  ],
  "tags": {
    "addr:city": "Barcelona",
    "addr:housenumber": "37",
    "addr:postcode": "08018",
    "addr:street": "Plaça de les Glòries Catalanes",
    "building": "yes",
    "layer": "2",
    "name": "Disseny Hub Barcelona (DHUB)",
    "phone": "+34932566800",
    "tourism": "museum",
    "type": "multipolygon",
    "website": "www.dhub-bcn.cat",
    "wikidata": "Q4889477",
    "wikipedia": "ca:Museu del Disseny de Barcelona"
  }
},
{
  "type": "relation",
  "id": 7363116,
  "members": [
    {
      "type": "way",
      "ref": 503929431,
      "role": "outer"
    },
    {
      "type": "way",
      "ref": 643162800,
      "role": "outer"
    }
  ],
  "tags": {
    "addr:city": "Barcelona",
    "addr:housenumber": "4",
    "addr:street": "Plaça de Sant Iu",
    "building": "palace",
    "building:levels": "5",
    "building:levels:underground": "1",
    "castle_type": "palace",
    "historic": "castle",
    "name": "Palau Reial Major",
    "name:ru": "Большой Королевский дворец на Placa del Rei",
    "tourism": "museum",
    "type": "multipolygon",
    "wikidata": "Q1116546",
    "wikipedia": "ca:Palau Reial Major"
  }
},
{
  "type": "relation",
  "id": 7364286,
  "members": [
    {
      "type": "way",
      "ref": 188926008,
      "role": "outer"
    },
    {
      "type": "way",
      "ref": 504096623,
      "role": "outer"
    }
  ],
  "tags": {
    "building": "yes",
    "building:levels": "4",
    "name": "Museu Diocesà",
    "tourism": "museum",
    "type": "multipolygon",
    "website": "http://www.cultura.arqbcn.cat/museu_cat.php",
    "wikidata": "Q9046805",
    "wikipedia": "ca:Museu Diocesà de Barcelona"
  }
},
{
  "type": "relation",
  "id": 7422814,
  "members": [
    {
      "type": "way",
      "ref": 510738282,
      "role": "outer"
    },
    {
      "type": "way",
      "ref": 510738283,
      "role": "outer"
    },
    {
      "type": "way",
      "ref": 510738277,
      "role": "outer"
    },
    {
      "type": "way",
      "ref": 510738278,
      "role": "outer"
    },
    {
      "type": "way",
      "ref": 510738272,
      "role": "outer"
    },
    {
      "type": "way",
      "ref": 510738273,
      "role": "outer"
    },
    {
      "type": "way",
      "ref": 510738265,
      "role": "outer"
    },
    {
      "type": "way",
      "ref": 510738266,
      "role": "outer"
    },
    {
      "type": "way",
      "ref": 510736198,
      "role": "outer"
    },
    {
      "type": "way",
      "ref": 320533368,
      "role": "outer"
    },
    {
      "type": "way",
      "ref": 510736199,
      "role": "outer"
    },
    {
      "type": "way",
      "ref": 459464510,
      "role": "outer"
    },
    {
      "type": "way",
      "ref": 510736200,
      "role": "outer"
    },
    {
      "type": "way",
      "ref": 320533366,
      "role": "outer"
    },
    {
      "type": "way",
      "ref": 510736197,
      "role": "outer"
    },
    {
      "type": "way",
      "ref": 510738303,
      "role": "outer"
    },
    {
      "type": "way",
      "ref": 510738302,
      "role": "outer"
    },
    {
      "type": "way",
      "ref": 510738297,
      "role": "outer"
    },
    {
      "type": "way",
      "ref": 510738296,
      "role": "outer"
    },
    {
      "type": "way",
      "ref": 510738288,
      "role": "outer"
    },
    {
      "type": "way",
      "ref": 510738287,
      "role": "outer"
    },
    {
      "type": "way",
      "ref": 510738292,
      "role": "outer"
    },
    {
      "type": "way",
      "ref": 156739050,
      "role": "outer"
    }
  ],
  "tags": {
    "addr:housenumber": "167",
    "addr:postcode": "08025",
    "addr:street": "Carrer de Sant Antoni Maria Claret",
    "fee": "yes",
    "fee:conditional": "no @ (Su [1]; Feb 12; Apr 23; Sep 24)",
    "landuse": "residential",
    "name": "Sant Pau Recinte Modernista",
    "opening_hours": "PH,Su 10:00-14:30; Nov-Mar Mo-Sa 10:00-16:30; Apr-Oct Mo-Sa 10:00-18:30; Jan 1,Jan 6,Dec 25 off",
    "phone": "+34935537801",
    "tourism": "museum",
    "type": "multipolygon",
    "website": "https://santpaubarcelona.org/",
    "wikidata": "Q507282",
    "wikipedia": "ca:Hospital de la Santa Creu i Sant Pau"
  }
},
{
  "type": "relation",
  "id": 9589229,
  "members": [
    {
      "type": "way",
      "ref": 44026969,
      "role": "outer"
    },
    {
      "type": "way",
      "ref": 690054378,
      "role": "inner"
    },
    {
      "type": "way",
      "ref": 690054375,
      "role": "inner"
    }
  ],
  "tags": {
    "addr:housename": "MAC Barcelona",
    "addr:place": "Parc de Montjuïc",
    "amenity": "public_building",
    "building": "yes",
    "building:levels": "2",
    "contact:email": "infomac@gencat.cat",
    "contact:phone": "+34 934232149",
    "name": "Museu d'Arqueologia de Catalunya",
    "name:es": "museo de arqueología de Cataluña",
    "name:zh": "加泰罗尼亚考古博物馆",
    "opening_hours": "Mo off; Tu-Sa 09:30-19:00; Su 10:00-14:30; Jan 1 off; Dec 25-26 off",
    "short_name": "MAC Barcelona",
    "tourism": "museum",
    "type": "multipolygon",
    "website": "www.mac.cat/Seus/Barcelona/",
    "wikidata": "Q3366823",
    "wikipedia": "ca:Museu d'Arqueologia de Catalunya (Barcelona)"
  }
},
{
  "type": "node",
  "id": 3700854180,
  "lat": 41.2349153,
  "lon": 1.8128548
},
{
  "type": "node",
  "id": 3700854181,
  "lat": 41.2349170,
  "lon": 1.8128520
},
{
  "type": "node",
  "id": 3700854182,
  "lat": 41.2349173,
  "lon": 1.8128419
},
{
  "type": "node",
  "id": 3700854183,
  "lat": 41.2349178,
  "lon": 1.8128495
},
{
  "type": "node",
  "id": 3700854184,
  "lat": 41.2349180,
  "lon": 1.8128448
},
{
  "type": "node",
  "id": 3700854185,
  "lat": 41.2349181,
  "lon": 1.8128471
},
{
  "type": "node",
  "id": 3700854199,
  "lat": 41.2349684,
  "lon": 1.8129379
},
{
  "type": "node",
  "id": 3700854231,
  "lat": 41.2350344,
  "lon": 1.8127058
},
{
  "type": "node",
  "id": 3700854253,
  "lat": 41.2351064,
  "lon": 1.8127889
},
{
  "type": "node",
  "id": 3700854254,
  "lat": 41.2351068,
  "lon": 1.8127748
},
{
  "type": "node",
  "id": 3700854255,
  "lat": 41.2351069,
  "lon": 1.8127855
},
{
  "type": "node",
  "id": 6497311521,
  "lat": 41.2350706,
  "lon": 1.8127403
},
{
  "type": "node",
  "id": 2663456279,
  "lat": 41.3625327,
  "lon": 1.7519006
},
{
  "type": "node",
  "id": 2663456281,
  "lat": 41.3624320,
  "lon": 1.7518657
},
{
  "type": "node",
  "id": 2663456282,
  "lat": 41.3623575,
  "lon": 1.7521554
},
{
  "type": "node",
  "id": 2663456283,
  "lat": 41.3624582,
  "lon": 1.7521956
},
{
  "type": "node",
  "id": 2314946888,
  "lat": 41.3561371,
  "lon": 2.0643266
},
{
  "type": "node",
  "id": 2314946872,
  "lat": 41.3556188,
  "lon": 2.0645952
},
{
  "type": "node",
  "id": 2314946878,
  "lat": 41.3557416,
  "lon": 2.0645109
},
{
  "type": "node",
  "id": 2314946880,
  "lat": 41.3557700,
  "lon": 2.0645814
},
{
  "type": "node",
  "id": 2314946882,
  "lat": 41.3558385,
  "lon": 2.0651566
},
{
  "type": "node",
  "id": 2314946884,
  "lat": 41.3559238,
  "lon": 2.0649947
},
{
  "type": "node",
  "id": 2314946887,
  "lat": 41.3559535,
  "lon": 2.0650705
},
{
  "type": "node",
  "id": 2314946890,
  "lat": 41.3562159,
  "lon": 2.0645436
},
{
  "type": "node",
  "id": 2314946894,
  "lat": 41.3565196,
  "lon": 2.0643473
},
{
  "type": "node",
  "id": 2314946897,
  "lat": 41.3565778,
  "lon": 2.0645246
},
{
  "type": "node",
  "id": 5126326057,
  "lat": 41.3611306,
  "lon": 2.0971402
},
{
  "type": "node",
  "id": 5866174678,
  "lat": 41.3587805,
  "lon": 2.0956168
},
{
  "type": "node",
  "id": 5866174680,
  "lat": 41.3588050,
  "lon": 2.0956868
},
{
  "type": "node",
  "id": 5866174681,
  "lat": 41.3587760,
  "lon": 2.0956041
},
{
  "type": "node",
  "id": 5866174682,
  "lat": 41.3588203,
  "lon": 2.0955821
},
{
  "type": "node",
  "id": 5866174683,
  "lat": 41.3587903,
  "lon": 2.0954660
},
{
  "type": "node",
  "id": 5866174684,
  "lat": 41.3589380,
  "lon": 2.0953958
},
{
  "type": "node",
  "id": 5866175592,
  "lat": 41.3588420,
  "lon": 2.0956661
},
{
  "type": "node",
  "id": 5866175593,
  "lat": 41.3589887,
  "lon": 2.0955959
},
{
  "type": "node",
  "id": 2709713027,
  "lat": 41.3788808,
  "lon": 2.0867630
},
{
  "type": "node",
  "id": 2709713028,
  "lat": 41.3789251,
  "lon": 2.0868864
},
{
  "type": "node",
  "id": 2709713029,
  "lat": 41.3787902,
  "lon": 2.0869749
},
{
  "type": "node",
  "id": 2709713030,
  "lat": 41.3787479,
  "lon": 2.0868408
},
{
  "type": "node",
  "id": 3633227962,
  "lat": 41.3784388,
  "lon": 2.0859437
},
{
  "type": "node",
  "id": 3633227963,
  "lat": 41.3785138,
  "lon": 2.0862091
},
{
  "type": "node",
  "id": 3633227964,
  "lat": 41.3783118,
  "lon": 2.0863014
},
{
  "type": "node",
  "id": 3633227965,
  "lat": 41.3782396,
  "lon": 2.0860360
},
{
  "type": "node",
  "id": 2628333229,
  "lat": 41.4217839,
  "lon": 1.9958403
},
{
  "type": "node",
  "id": 2628333237,
  "lat": 41.4217742,
  "lon": 1.9959285
},
{
  "type": "node",
  "id": 2628333238,
  "lat": 41.4218547,
  "lon": 1.9959580
},
{
  "type": "node",
  "id": 2628333239,
  "lat": 41.4218708,
  "lon": 1.9958467
},
{
  "type": "node",
  "id": 2628333240,
  "lat": 41.4217920,
  "lon": 1.9958219
},
{
  "type": "node",
  "id": 655295892,
  "lat": 41.4868794,
  "lon": 2.0303670
},
{
  "type": "node",
  "id": 5829402291,
  "lat": 41.4867918,
  "lon": 2.0305821
},
{
  "type": "node",
  "id": 5829402292,
  "lat": 41.4866832,
  "lon": 2.0305187
},
{
  "type": "node",
  "id": 5829402293,
  "lat": 41.4867511,
  "lon": 2.0303117
},
{
  "type": "node",
  "id": 5126326052,
  "lat": 41.3609425,
  "lon": 2.0972341
},
{
  "type": "node",
  "id": 5126326053,
  "lat": 41.3610122,
  "lon": 2.0974046
},
{
  "type": "node",
  "id": 5126326055,
  "lat": 41.3611370,
  "lon": 2.0971899
},
{
  "type": "node",
  "id": 5126326056,
  "lat": 41.3611467,
  "lon": 2.0971833
},
{
  "type": "node",
  "id": 5126326058,
  "lat": 41.3610820,
  "lon": 2.0971646
},
{
  "type": "node",
  "id": 5126326060,
  "lat": 41.3611811,
  "lon": 2.0973017
},
{
  "type": "node",
  "id": 6721336596,
  "lat": 41.3611023,
  "lon": 2.0973390
},
{
  "type": "node",
  "id": 6721336618,
  "lat": 41.3611507,
  "lon": 2.0973139
},
{
  "type": "node",
  "id": 6721336637,
  "lat": 41.3611545,
  "lon": 2.0973213
},
{
  "type": "node",
  "id": 6721336677,
  "lat": 41.3611069,
  "lon": 2.0973490
},
{
  "type": "node",
  "id": 492056660,
  "lat": 41.3691518,
  "lon": 2.1486930
},
{
  "type": "node",
  "id": 492056661,
  "lat": 41.3691904,
  "lon": 2.1480349
},
{
  "type": "node",
  "id": 492056662,
  "lat": 41.3692719,
  "lon": 2.1476706
},
{
  "type": "node",
  "id": 492056663,
  "lat": 41.3692961,
  "lon": 2.1474213
},
{
  "type": "node",
  "id": 492056664,
  "lat": 41.3691588,
  "lon": 2.1465974
},
{
  "type": "node",
  "id": 492056665,
  "lat": 41.3688241,
  "lon": 2.1462300
},
{
  "type": "node",
  "id": 492056666,
  "lat": 41.3681663,
  "lon": 2.1467201
},
{
  "type": "node",
  "id": 492056667,
  "lat": 41.3683971,
  "lon": 2.1474863
},
{
  "type": "node",
  "id": 492056668,
  "lat": 41.3682684,
  "lon": 2.1478919
},
{
  "type": "node",
  "id": 492056669,
  "lat": 41.3677247,
  "lon": 2.1477841
},
{
  "type": "node",
  "id": 492056670,
  "lat": 41.3677094,
  "lon": 2.1479487
},
{
  "type": "node",
  "id": 1457518882,
  "lat": 41.3693433,
  "lon": 2.1492281
},
{
  "type": "node",
  "id": 1457530170,
  "lat": 41.3681394,
  "lon": 2.1468840
},
{
  "type": "node",
  "id": 2266370609,
  "lat": 41.3692210,
  "lon": 2.1467554
},
{
  "type": "node",
  "id": 1784739678,
  "lat": 41.3709712,
  "lon": 2.1494077
},
{
  "type": "node",
  "id": 1784739679,
  "lat": 41.3709720,
  "lon": 2.1494504
},
{
  "type": "node",
  "id": 1784739680,
  "lat": 41.3709876,
  "lon": 2.1494294
},
{
  "type": "node",
  "id": 1784739681,
  "lat": 41.3710408,
  "lon": 2.1493137
},
{
  "type": "node",
  "id": 1784739682,
  "lat": 41.3710617,
  "lon": 2.1493411
},
{
  "type": "node",
  "id": 1784739683,
  "lat": 41.3711362,
  "lon": 2.1492406
},
{
  "type": "node",
  "id": 2267389832,
  "lat": 41.3710806,
  "lon": 2.1491928
},
{
  "type": "node",
  "id": 2267389834,
  "lat": 41.3710951,
  "lon": 2.1492119
},
{
  "type": "node",
  "id": 2267389836,
  "lat": 41.3711046,
  "lon": 2.1491990
},
{
  "type": "node",
  "id": 2267389841,
  "lat": 41.3711601,
  "lon": 2.1490857
},
{
  "type": "node",
  "id": 2267389844,
  "lat": 41.3712061,
  "lon": 2.1490227
},
{
  "type": "node",
  "id": 2267389846,
  "lat": 41.3712190,
  "lon": 2.1491632
},
{
  "type": "node",
  "id": 2267389848,
  "lat": 41.3712540,
  "lon": 2.1491985
},
{
  "type": "node",
  "id": 2267389849,
  "lat": 41.3712654,
  "lon": 2.1491007
},
{
  "type": "node",
  "id": 2267389851,
  "lat": 41.3713006,
  "lon": 2.1491355
},
{
  "type": "node",
  "id": 2267389853,
  "lat": 41.3713304,
  "lon": 2.1488550
},
{
  "type": "node",
  "id": 2267389857,
  "lat": 41.3713494,
  "lon": 2.1491998
},
{
  "type": "node",
  "id": 2267389858,
  "lat": 41.3713625,
  "lon": 2.1491821
},
{
  "type": "node",
  "id": 2267389860,
  "lat": 41.3713724,
  "lon": 2.1489103
},
{
  "type": "node",
  "id": 2267389861,
  "lat": 41.3713805,
  "lon": 2.1487959
},
{
  "type": "node",
  "id": 2267389862,
  "lat": 41.3713812,
  "lon": 2.1492436
},
{
  "type": "node",
  "id": 2267389865,
  "lat": 41.3713950,
  "lon": 2.1492250
},
{
  "type": "node",
  "id": 2267389867,
  "lat": 41.3714118,
  "lon": 2.1494063
},
{
  "type": "node",
  "id": 2267389868,
  "lat": 41.3714193,
  "lon": 2.1488470
},
{
  "type": "node",
  "id": 2267389870,
  "lat": 41.3714271,
  "lon": 2.1493856
},
{
  "type": "node",
  "id": 2267389872,
  "lat": 41.3714282,
  "lon": 2.1489693
},
{
  "type": "node",
  "id": 2267389874,
  "lat": 41.3714383,
  "lon": 2.1494493
},
{
  "type": "node",
  "id": 2267389877,
  "lat": 41.3714567,
  "lon": 2.1494245
},
{
  "type": "node",
  "id": 2267389878,
  "lat": 41.3714575,
  "lon": 2.1490617
},
{
  "type": "node",
  "id": 2267389879,
  "lat": 41.3714584,
  "lon": 2.1493452
},
{
  "type": "node",
  "id": 2267389880,
  "lat": 41.3714600,
  "lon": 2.1486886
},
{
  "type": "node",
  "id": 2267389881,
  "lat": 41.3714728,
  "lon": 2.1493257
},
{
  "type": "node",
  "id": 2267389882,
  "lat": 41.3714737,
  "lon": 2.1489080
},
{
  "type": "node",
  "id": 2267389883,
  "lat": 41.3714777,
  "lon": 2.1490345
},
{
  "type": "node",
  "id": 2267389885,
  "lat": 41.3714869,
  "lon": 2.1491003
},
{
  "type": "node",
  "id": 2267389886,
  "lat": 41.3714870,
  "lon": 2.1493914
},
{
  "type": "node",
  "id": 2267389888,
  "lat": 41.3715042,
  "lon": 2.1487466
},
{
  "type": "node",
  "id": 2267389889,
  "lat": 41.3715046,
  "lon": 2.1493675
},
{
  "type": "node",
  "id": 2267389890,
  "lat": 41.3715063,
  "lon": 2.1490741
},
{
  "type": "node",
  "id": 2267389894,
  "lat": 41.3715524,
  "lon": 2.1486816
},
{
  "type": "node",
  "id": 2267389895,
  "lat": 41.3715692,
  "lon": 2.1492090
},
{
  "type": "node",
  "id": 2267389897,
  "lat": 41.3715887,
  "lon": 2.1491826
},
{
  "type": "node",
  "id": 2267389899,
  "lat": 41.3715974,
  "lon": 2.1492462
},
{
  "type": "node",
  "id": 2267389903,
  "lat": 41.3716143,
  "lon": 2.1491444
},
{
  "type": "node",
  "id": 2267389904,
  "lat": 41.3716158,
  "lon": 2.1492214
},
{
  "type": "node",
  "id": 2267389909,
  "lat": 41.3716336,
  "lon": 2.1491185
},
{
  "type": "node",
  "id": 2267389911,
  "lat": 41.3716440,
  "lon": 2.1491835
},
{
  "type": "node",
  "id": 2267389912,
  "lat": 41.3716626,
  "lon": 2.1491585
},
{
  "type": "node",
  "id": 2267389921,
  "lat": 41.3718633,
  "lon": 2.1495472
},
{
  "type": "node",
  "id": 2267389925,
  "lat": 41.3718983,
  "lon": 2.1494688
},
{
  "type": "node",
  "id": 2267389926,
  "lat": 41.3719083,
  "lon": 2.1494553
},
{
  "type": "node",
  "id": 2267389927,
  "lat": 41.3719203,
  "lon": 2.1494712
},
{
  "type": "node",
  "id": 2267389928,
  "lat": 41.3719529,
  "lon": 2.1493172
},
{
  "type": "node",
  "id": 2267389930,
  "lat": 41.3719935,
  "lon": 2.1492624
},
{
  "type": "node",
  "id": 2267389931,
  "lat": 41.3719942,
  "lon": 2.1493715
},
{
  "type": "node",
  "id": 492056656,
  "lat": 41.3689972,
  "lon": 2.1507742
},
{
  "type": "node",
  "id": 492056657,
  "lat": 41.3692310,
  "lon": 2.1504773
},
{
  "type": "node",
  "id": 492056658,
  "lat": 41.3694198,
  "lon": 2.1497747
},
{
  "type": "node",
  "id": 492056659,
  "lat": 41.3695822,
  "lon": 2.1497068
},
{
  "type": "node",
  "id": 492056671,
  "lat": 41.3686910,
  "lon": 2.1504521
},
{
  "type": "node",
  "id": 492056672,
  "lat": 41.3689307,
  "lon": 2.1506222
},
{
  "type": "node",
  "id": 559426282,
  "lat": 41.3679101,
  "lon": 2.1532627
},
{
  "type": "node",
  "id": 559426283,
  "lat": 41.3678929,
  "lon": 2.1532176
},
{
  "type": "node",
  "id": 559426284,
  "lat": 41.3680356,
  "lon": 2.1531223
},
{
  "type": "node",
  "id": 559426285,
  "lat": 41.3680515,
  "lon": 2.1531666
},
{
  "type": "node",
  "id": 559426288,
  "lat": 41.3681473,
  "lon": 2.1528986
},
{
  "type": "node",
  "id": 559426289,
  "lat": 41.3680971,
  "lon": 2.1529344
},
{
  "type": "node",
  "id": 559426290,
  "lat": 41.3680386,
  "lon": 2.1527799
},
{
  "type": "node",
  "id": 559426291,
  "lat": 41.3682026,
  "lon": 2.1526749
},
{
  "type": "node",
  "id": 559426292,
  "lat": 41.3681803,
  "lon": 2.1526170
},
{
  "type": "node",
  "id": 559426293,
  "lat": 41.3683333,
  "lon": 2.1525136
},
{
  "type": "node",
  "id": 559426294,
  "lat": 41.3685176,
  "lon": 2.1524576
},
{
  "type": "node",
  "id": 559426295,
  "lat": 41.3685777,
  "lon": 2.1526114
},
{
  "type": "node",
  "id": 559426296,
  "lat": 41.3685274,
  "lon": 2.1526466
},
{
  "type": "node",
  "id": 559426297,
  "lat": 41.3687030,
  "lon": 2.1531020
},
{
  "type": "node",
  "id": 559426298,
  "lat": 41.3687709,
  "lon": 2.1530556
},
{
  "type": "node",
  "id": 559426299,
  "lat": 41.3688140,
  "lon": 2.1531716
},
{
  "type": "node",
  "id": 559426300,
  "lat": 41.3687862,
  "lon": 2.1531881
},
{
  "type": "node",
  "id": 559426301,
  "lat": 41.3683568,
  "lon": 2.1525753
},
{
  "type": "node",
  "id": 559426302,
  "lat": 41.3676144,
  "lon": 2.1538936
},
{
  "type": "node",
  "id": 559426303,
  "lat": 41.3683350,
  "lon": 2.1543496
},
{
  "type": "node",
  "id": 559426304,
  "lat": 41.3683176,
  "lon": 2.1543034
},
{
  "type": "node",
  "id": 559426305,
  "lat": 41.3680711,
  "lon": 2.1544984
},
{
  "type": "node",
  "id": 559426306,
  "lat": 41.3679369,
  "lon": 2.1541117
},
{
  "type": "node",
  "id": 559426307,
  "lat": 41.3677543,
  "lon": 2.1542606
},
{
  "type": "node",
  "id": 559426308,
  "lat": 41.3677939,
  "lon": 2.1537945
},
{
  "type": "node",
  "id": 559426309,
  "lat": 41.3676515,
  "lon": 2.1534366
},
{
  "type": "node",
  "id": 559426310,
  "lat": 41.3688771,
  "lon": 2.1534232
},
{
  "type": "node",
  "id": 559426311,
  "lat": 41.3689023,
  "lon": 2.1534064
},
{
  "type": "node",
  "id": 559426312,
  "lat": 41.3689447,
  "lon": 2.1535183
},
{
  "type": "node",
  "id": 559426313,
  "lat": 41.3688799,
  "lon": 2.1535610
},
{
  "type": "node",
  "id": 559426314,
  "lat": 41.3689937,
  "lon": 2.1542409
},
{
  "type": "node",
  "id": 559426315,
  "lat": 41.3688722,
  "lon": 2.1544073
},
{
  "type": "node",
  "id": 559426316,
  "lat": 41.3688478,
  "lon": 2.1543425
},
{
  "type": "node",
  "id": 559426317,
  "lat": 41.3686945,
  "lon": 2.1544440
},
{
  "type": "node",
  "id": 559426318,
  "lat": 41.3686452,
  "lon": 2.1543105
},
{
  "type": "node",
  "id": 559426319,
  "lat": 41.3686867,
  "lon": 2.1542840
},
{
  "type": "node",
  "id": 559426321,
  "lat": 41.3684461,
  "lon": 2.1542191
},
{
  "type": "node",
  "id": 559426322,
  "lat": 41.3684626,
  "lon": 2.1542577
},
{
  "type": "node",
  "id": 559426323,
  "lat": 41.3690572,
  "lon": 2.1540265
},
{
  "type": "node",
  "id": 559426324,
  "lat": 41.3691094,
  "lon": 2.1539890
},
{
  "type": "node",
  "id": 559426325,
  "lat": 41.3691658,
  "lon": 2.1541402
},
{
  "type": "node",
  "id": 559426326,
  "lat": 41.3690192,
  "lon": 2.1543094
},
{
  "type": "node",
  "id": 1334524822,
  "lat": 41.3689255,
  "lon": 2.1560278
},
{
  "type": "node",
  "id": 1334524824,
  "lat": 41.3689505,
  "lon": 2.1560499
},
{
  "type": "node",
  "id": 1334524825,
  "lat": 41.3688326,
  "lon": 2.1560827
},
{
  "type": "node",
  "id": 1334524826,
  "lat": 41.3688067,
  "lon": 2.1560571
},
{
  "type": "node",
  "id": 1456945782,
  "lat": 41.3694904,
  "lon": 2.1497741
},
{
  "type": "node",
  "id": 2239856656,
  "lat": 41.3682099,
  "lon": 2.1530620
},
{
  "type": "node",
  "id": 2239856814,
  "lat": 41.3686219,
  "lon": 2.1541148
},
{
  "type": "node",
  "id": 3890611385,
  "lat": 41.3676117,
  "lon": 2.1539044
},
{
  "type": "node",
  "id": 3890611386,
  "lat": 41.3676564,
  "lon": 2.1540235
},
{
  "type": "node",
  "id": 3890611387,
  "lat": 41.3676672,
  "lon": 2.1540279
},
{
  "type": "node",
  "id": 3890611388,
  "lat": 41.3677023,
  "lon": 2.1541451
},
{
  "type": "node",
  "id": 3890611389,
  "lat": 41.3677031,
  "lon": 2.1535699
},
{
  "type": "node",
  "id": 3890611390,
  "lat": 41.3677066,
  "lon": 2.1535700
},
{
  "type": "node",
  "id": 3890611391,
  "lat": 41.3677066,
  "lon": 2.1541320
},
{
  "type": "node",
  "id": 3890611392,
  "lat": 41.3677100,
  "lon": 2.1538293
},
{
  "type": "node",
  "id": 3890611393,
  "lat": 41.3677165,
  "lon": 2.1538463
},
{
  "type": "node",
  "id": 3890611394,
  "lat": 41.3677464,
  "lon": 2.1542590
},
{
  "type": "node",
  "id": 3890611395,
  "lat": 41.3677484,
  "lon": 2.1533699
},
{
  "type": "node",
  "id": 3890611396,
  "lat": 41.3677518,
  "lon": 2.1533724
},
{
  "type": "node",
  "id": 3890611397,
  "lat": 41.3678449,
  "lon": 2.1541787
},
{
  "type": "node",
  "id": 3890611398,
  "lat": 41.3678519,
  "lon": 2.1541983
},
{
  "type": "node",
  "id": 3890611399,
  "lat": 41.3679347,
  "lon": 2.1531893
},
{
  "type": "node",
  "id": 3890611400,
  "lat": 41.3679379,
  "lon": 2.1531978
},
{
  "type": "node",
  "id": 3890611401,
  "lat": 41.3679958,
  "lon": 2.1531476
},
{
  "type": "node",
  "id": 3890611402,
  "lat": 41.3679994,
  "lon": 2.1531575
},
{
  "type": "node",
  "id": 3890611403,
  "lat": 41.3680185,
  "lon": 2.1543669
},
{
  "type": "node",
  "id": 3890611404,
  "lat": 41.3680278,
  "lon": 2.1543604
},
{
  "type": "node",
  "id": 3890611406,
  "lat": 41.3680806,
  "lon": 2.1527504
},
{
  "type": "node",
  "id": 3890611407,
  "lat": 41.3680835,
  "lon": 2.1527557
},
{
  "type": "node",
  "id": 3890611408,
  "lat": 41.3681620,
  "lon": 2.1544151
},
{
  "type": "node",
  "id": 3890611409,
  "lat": 41.3681678,
  "lon": 2.1544297
},
{
  "type": "node",
  "id": 3890611410,
  "lat": 41.3681412,
  "lon": 2.1529026
},
{
  "type": "node",
  "id": 3890611411,
  "lat": 41.3681422,
  "lon": 2.1529067
},
{
  "type": "node",
  "id": 3890611412,
  "lat": 41.3682176,
  "lon": 2.1525915
},
{
  "type": "node",
  "id": 3890611413,
  "lat": 41.3682187,
  "lon": 2.1525943
},
{
  "type": "node",
  "id": 3890611414,
  "lat": 41.3682955,
  "lon": 2.1525392
},
{
  "type": "node",
  "id": 3890611415,
  "lat": 41.3682968,
  "lon": 2.1525426
},
{
  "type": "node",
  "id": 3890611416,
  "lat": 41.3684761,
  "lon": 2.1524861
},
{
  "type": "node",
  "id": 3890611417,
  "lat": 41.3684779,
  "lon": 2.1524917
},
{
  "type": "node",
  "id": 3890611419,
  "lat": 41.3686173,
  "lon": 2.1541045
},
{
  "type": "node",
  "id": 3890611420,
  "lat": 41.3686250,
  "lon": 2.1543090
},
{
  "type": "node",
  "id": 3890611421,
  "lat": 41.3686396,
  "lon": 2.1542998
},
{
  "type": "node",
  "id": 3890611423,
  "lat": 41.3686832,
  "lon": 2.1544669
},
{
  "type": "node",
  "id": 3890611424,
  "lat": 41.3686986,
  "lon": 2.1544564
},
{
  "type": "node",
  "id": 3890611433,
  "lat": 41.3691235,
  "lon": 2.1541549
},
{
  "type": "node",
  "id": 3890611434,
  "lat": 41.3691276,
  "lon": 2.1541651
},
{
  "type": "node",
  "id": 4577970477,
  "lat": 41.3692603,
  "lon": 2.1497864
},
{
  "type": "node",
  "id": 4577970478,
  "lat": 41.3692931,
  "lon": 2.1499818
},
{
  "type": "node",
  "id": 6241175606,
  "lat": 41.3689726,
  "lon": 2.1543402
},
{
  "type": "node",
  "id": 6241175608,
  "lat": 41.3689108,
  "lon": 2.1543815
},
{
  "type": "node",
  "id": 6241175846,
  "lat": 41.3688645,
  "lon": 2.1533907
},
{
  "type": "node",
  "id": 6241175849,
  "lat": 41.3687986,
  "lon": 2.1532217
},
{
  "type": "node",
  "id": 6398497259,
  "lat": 41.3689388,
  "lon": 2.1560395
},
{
  "type": "node",
  "id": 559760627,
  "lat": 41.3695167,
  "lon": 2.1574081
},
{
  "type": "node",
  "id": 559760635,
  "lat": 41.3695270,
  "lon": 2.1579439
},
{
  "type": "node",
  "id": 559760639,
  "lat": 41.3693983,
  "lon": 2.1578089
},
{
  "type": "node",
  "id": 559760640,
  "lat": 41.3693907,
  "lon": 2.1575566
},
{
  "type": "node",
  "id": 559760643,
  "lat": 41.3695343,
  "lon": 2.1574449
},
{
  "type": "node",
  "id": 1334418566,
  "lat": 41.3686379,
  "lon": 2.1604672
},
{
  "type": "node",
  "id": 1334418568,
  "lat": 41.3685764,
  "lon": 2.1602153
},
{
  "type": "node",
  "id": 1334418569,
  "lat": 41.3688494,
  "lon": 2.1599852
},
{
  "type": "node",
  "id": 1334418571,
  "lat": 41.3684696,
  "lon": 2.1600608
},
{
  "type": "node",
  "id": 1334418572,
  "lat": 41.3684269,
  "lon": 2.1601982
},
{
  "type": "node",
  "id": 1334418574,
  "lat": 41.3683178,
  "lon": 2.1597231
},
{
  "type": "node",
  "id": 1334418575,
  "lat": 41.3686929,
  "lon": 2.1594325
},
{
  "type": "node",
  "id": 1334418577,
  "lat": 41.3686384,
  "lon": 2.1593514
},
{
  "type": "node",
  "id": 1334418579,
  "lat": 41.3689074,
  "lon": 2.1599144
},
{
  "type": "node",
  "id": 1334418580,
  "lat": 41.3682800,
  "lon": 2.1597686
},
{
  "type": "node",
  "id": 1334418581,
  "lat": 41.3686162,
  "lon": 2.1593079
},
{
  "type": "node",
  "id": 1334418583,
  "lat": 41.3683983,
  "lon": 2.1598774
},
{
  "type": "node",
  "id": 1334418584,
  "lat": 41.3687277,
  "lon": 2.1596280
},
{
  "type": "node",
  "id": 1334418585,
  "lat": 41.3685832,
  "lon": 2.1594155
},
{
  "type": "node",
  "id": 1334418586,
  "lat": 41.3682425,
  "lon": 2.1596132
},
{
  "type": "node",
  "id": 1334418587,
  "lat": 41.3687483,
  "lon": 2.1598221
},
{
  "type": "node",
  "id": 1334418588,
  "lat": 41.3685688,
  "lon": 2.1603632
},
{
  "type": "node",
  "id": 1334418589,
  "lat": 41.3685788,
  "lon": 2.1595635
},
{
  "type": "node",
  "id": 1334418590,
  "lat": 41.3684335,
  "lon": 2.1598398
},
{
  "type": "node",
  "id": 1334418591,
  "lat": 41.3685658,
  "lon": 2.1592297
},
{
  "type": "node",
  "id": 1334418592,
  "lat": 41.3688079,
  "lon": 2.1597578
},
{
  "type": "node",
  "id": 1334418594,
  "lat": 41.3684951,
  "lon": 2.1599376
},
{
  "type": "node",
  "id": 1334418595,
  "lat": 41.3684278,
  "lon": 2.1601103
},
{
  "type": "node",
  "id": 1334418596,
  "lat": 41.3684313,
  "lon": 2.1599268
},
{
  "type": "node",
  "id": 1334418597,
  "lat": 41.3684642,
  "lon": 2.1598884
},
{
  "type": "node",
  "id": 1334418598,
  "lat": 41.3685302,
  "lon": 2.1602698
},
{
  "type": "node",
  "id": 1334418599,
  "lat": 41.3688766,
  "lon": 2.1600243
},
{
  "type": "node",
  "id": 1334418602,
  "lat": 41.3684635,
  "lon": 2.1602570
},
{
  "type": "node",
  "id": 1334418603,
  "lat": 41.3683334,
  "lon": 2.1598487
},
{
  "type": "node",
  "id": 1334418605,
  "lat": 41.3687228,
  "lon": 2.1597815
},
{
  "type": "node",
  "id": 1334418607,
  "lat": 41.3687821,
  "lon": 2.1597127
},
{
  "type": "node",
  "id": 1334418608,
  "lat": 41.3690577,
  "lon": 2.1599770
},
{
  "type": "node",
  "id": 1334418609,
  "lat": 41.3686689,
  "lon": 2.1597023
},
{
  "type": "node",
  "id": 1334418611,
  "lat": 41.3686675,
  "lon": 2.1602325
},
{
  "type": "node",
  "id": 1334418612,
  "lat": 41.3689958,
  "lon": 2.1598833
},
{
  "type": "node",
  "id": 1334418613,
  "lat": 41.3685573,
  "lon": 2.1593767
},
{
  "type": "node",
  "id": 1334418614,
  "lat": 41.3683932,
  "lon": 2.1597775
},
{
  "type": "node",
  "id": 1334418615,
  "lat": 41.3685883,
  "lon": 2.1601110
},
{
  "type": "node",
  "id": 1334524820,
  "lat": 41.3687254,
  "lon": 2.1566231
},
{
  "type": "node",
  "id": 1334524821,
  "lat": 41.3689349,
  "lon": 2.1561896
},
{
  "type": "node",
  "id": 1334524823,
  "lat": 41.3689587,
  "lon": 2.1562099
},
{
  "type": "node",
  "id": 1334524827,
  "lat": 41.3685744,
  "lon": 2.1564236
},
{
  "type": "node",
  "id": 2262724071,
  "lat": 41.3684340,
  "lon": 2.1597263
},
{
  "type": "node",
  "id": 2262724075,
  "lat": 41.3685266,
  "lon": 2.1598675
},
{
  "type": "node",
  "id": 2262724076,
  "lat": 41.3685409,
  "lon": 2.1596010
},
{
  "type": "node",
  "id": 2262724081,
  "lat": 41.3685782,
  "lon": 2.1599409
},
{
  "type": "node",
  "id": 2262724084,
  "lat": 41.3686340,
  "lon": 2.1597402
},
{
  "type": "node",
  "id": 2262724087,
  "lat": 41.3686838,
  "lon": 2.1598256
},
{
  "type": "node",
  "id": 2262724092,
  "lat": 41.3687598,
  "lon": 2.1602147
},
{
  "type": "node",
  "id": 2262724101,
  "lat": 41.3688672,
  "lon": 2.1600962
},
{
  "type": "node",
  "id": 4162260907,
  "lat": 41.3683057,
  "lon": 2.1595423
},
{
  "type": "node",
  "id": 4162260908,
  "lat": 41.3683164,
  "lon": 2.1595569
},
{
  "type": "node",
  "id": 4162260909,
  "lat": 41.3683167,
  "lon": 2.1595130
},
{
  "type": "node",
  "id": 4162260910,
  "lat": 41.3683335,
  "lon": 2.1595363
},
{
  "type": "node",
  "id": 4162260915,
  "lat": 41.3684163,
  "lon": 2.1602070
},
{
  "type": "node",
  "id": 4162260919,
  "lat": 41.3684561,
  "lon": 2.1602674
},
{
  "type": "node",
  "id": 4162260921,
  "lat": 41.3684871,
  "lon": 2.1600621
},
{
  "type": "node",
  "id": 4162260923,
  "lat": 41.3685004,
  "lon": 2.1592993
},
{
  "type": "node",
  "id": 4162260924,
  "lat": 41.3685078,
  "lon": 2.1592980
},
{
  "type": "node",
  "id": 4162260925,
  "lat": 41.3685217,
  "lon": 2.1602588
},
{
  "type": "node",
  "id": 4162260928,
  "lat": 41.3685715,
  "lon": 2.1602087
},
{
  "type": "node",
  "id": 4162260929,
  "lat": 41.3685720,
  "lon": 2.1564648
},
{
  "type": "node",
  "id": 4162260930,
  "lat": 41.3685748,
  "lon": 2.1601278
},
{
  "type": "node",
  "id": 4162260931,
  "lat": 41.3685894,
  "lon": 2.1565207
},
{
  "type": "node",
  "id": 4162260932,
  "lat": 41.3685924,
  "lon": 2.1564836
},
{
  "type": "node",
  "id": 4162260933,
  "lat": 41.3685955,
  "lon": 2.1599676
},
{
  "type": "node",
  "id": 4162260934,
  "lat": 41.3686055,
  "lon": 2.1603077
},
{
  "type": "node",
  "id": 4162260935,
  "lat": 41.3686093,
  "lon": 2.1603133
},
{
  "type": "node",
  "id": 4162260936,
  "lat": 41.3686106,
  "lon": 2.1565440
},
{
  "type": "node",
  "id": 4162260937,
  "lat": 41.3686367,
  "lon": 2.1565323
},
{
  "type": "node",
  "id": 4162260939,
  "lat": 41.3686505,
  "lon": 2.1600530
},
{
  "type": "node",
  "id": 4162260940,
  "lat": 41.3686522,
  "lon": 2.1565887
},
{
  "type": "node",
  "id": 4162260942,
  "lat": 41.3686559,
  "lon": 2.1565507
},
{
  "type": "node",
  "id": 4162260943,
  "lat": 41.3686567,
  "lon": 2.1599714
},
{
  "type": "node",
  "id": 4162260945,
  "lat": 41.3686787,
  "lon": 2.1566141
},
{
  "type": "node",
  "id": 4162260946,
  "lat": 41.3687042,
  "lon": 2.1566003
},
{
  "type": "node",
  "id": 4162260949,
  "lat": 41.3687369,
  "lon": 2.1601415
},
{
  "type": "node",
  "id": 4162260952,
  "lat": 41.3687749,
  "lon": 2.1601990
},
{
  "type": "node",
  "id": 4162260953,
  "lat": 41.3688116,
  "lon": 2.1602608
},
{
  "type": "node",
  "id": 4162260954,
  "lat": 41.3688118,
  "lon": 2.1600538
},
{
  "type": "node",
  "id": 4162260956,
  "lat": 41.3688197,
  "lon": 2.1602703
},
{
  "type": "node",
  "id": 4162260957,
  "lat": 41.3688519,
  "lon": 2.1601136
},
{
  "type": "node",
  "id": 4162260959,
  "lat": 41.3688894,
  "lon": 2.1601704
},
{
  "type": "node",
  "id": 4162260961,
  "lat": 41.3688956,
  "lon": 2.1601792
},
{
  "type": "node",
  "id": 4162260962,
  "lat": 41.3689030,
  "lon": 2.1601527
},
{
  "type": "node",
  "id": 4162260963,
  "lat": 41.3689249,
  "lon": 2.1601898
},
{
  "type": "node",
  "id": 4162260964,
  "lat": 41.3689383,
  "lon": 2.1601183
},
{
  "type": "node",
  "id": 4162260966,
  "lat": 41.3689587,
  "lon": 2.1601496
},
{
  "type": "node",
  "id": 6473934892,
  "lat": 41.3694948,
  "lon": 2.1578670
},
{
  "type": "node",
  "id": 6473934903,
  "lat": 41.3694823,
  "lon": 2.1574867
},
{
  "type": "node",
  "id": 6473934910,
  "lat": 41.3695427,
  "lon": 2.1578997
},
{
  "type": "node",
  "id": 6473934913,
  "lat": 41.3694856,
  "lon": 2.1575502
},
{
  "type": "node",
  "id": 6473934934,
  "lat": 41.3695296,
  "lon": 2.1574487
},
{
  "type": "node",
  "id": 6473934938,
  "lat": 41.3694928,
  "lon": 2.1578034
},
{
  "type": "node",
  "id": 1784739684,
  "lat": 41.3714116,
  "lon": 2.1500290
},
{
  "type": "node",
  "id": 1784739685,
  "lat": 41.3715627,
  "lon": 2.1498252
},
{
  "type": "node",
  "id": 2267389898,
  "lat": 41.3715889,
  "lon": 2.1498597
},
{
  "type": "node",
  "id": 2267389901,
  "lat": 41.3716048,
  "lon": 2.1498382
},
{
  "type": "node",
  "id": 2267389906,
  "lat": 41.3716228,
  "lon": 2.1498618
},
{
  "type": "node",
  "id": 2267389913,
  "lat": 41.3716864,
  "lon": 2.1497760
},
{
  "type": "node",
  "id": 2267389916,
  "lat": 41.3717359,
  "lon": 2.1497191
},
{
  "type": "node",
  "id": 559760628,
  "lat": 41.3696665,
  "lon": 2.1572838
},
{
  "type": "node",
  "id": 559760629,
  "lat": 41.3696848,
  "lon": 2.1573233
},
{
  "type": "node",
  "id": 559760630,
  "lat": 41.3698725,
  "lon": 2.1570734
},
{
  "type": "node",
  "id": 559760632,
  "lat": 41.3697790,
  "lon": 2.1573088
},
{
  "type": "node",
  "id": 559760634,
  "lat": 41.3696896,
  "lon": 2.1580591
},
{
  "type": "node",
  "id": 559760644,
  "lat": 41.3700048,
  "lon": 2.1575333
},
{
  "type": "node",
  "id": 559760645,
  "lat": 41.3700104,
  "lon": 2.1577661
},
{
  "type": "node",
  "id": 559760647,
  "lat": 41.3699093,
  "lon": 2.1582453
},
{
  "type": "node",
  "id": 559760648,
  "lat": 41.3698014,
  "lon": 2.1580140
},
{
  "type": "node",
  "id": 2155060255,
  "lat": 41.3700078,
  "lon": 2.1576571
},
{
  "type": "node",
  "id": 6473933479,
  "lat": 41.3697752,
  "lon": 2.1573063
},
{
  "type": "node",
  "id": 6473933483,
  "lat": 41.3696882,
  "lon": 2.1573203
},
{
  "type": "node",
  "id": 6473934885,
  "lat": 41.3700338,
  "lon": 2.1571853
},
{
  "type": "node",
  "id": 6473934886,
  "lat": 41.3700261,
  "lon": 2.1572044
},
{
  "type": "node",
  "id": 6473934889,
  "lat": 41.3700088,
  "lon": 2.1576989
},
{
  "type": "node",
  "id": 6473934890,
  "lat": 41.3700527,
  "lon": 2.1572586
},
{
  "type": "node",
  "id": 6473934893,
  "lat": 41.3699217,
  "lon": 2.1574644
},
{
  "type": "node",
  "id": 6473934896,
  "lat": 41.3697346,
  "lon": 2.1572796
},
{
  "type": "node",
  "id": 6473934898,
  "lat": 41.3701511,
  "lon": 2.1580608
},
{
  "type": "node",
  "id": 6473934900,
  "lat": 41.3700151,
  "lon": 2.1577764
},
{
  "type": "node",
  "id": 6473934902,
  "lat": 41.3700680,
  "lon": 2.1581293
},
{
  "type": "node",
  "id": 6473934906,
  "lat": 41.3701262,
  "lon": 2.1572289
},
{
  "type": "node",
  "id": 6473934908,
  "lat": 41.3699678,
  "lon": 2.1574967
},
{
  "type": "node",
  "id": 6473934909,
  "lat": 41.3700637,
  "lon": 2.1572318
},
{
  "type": "node",
  "id": 6473934911,
  "lat": 41.3700066,
  "lon": 2.1576069
},
{
  "type": "node",
  "id": 6473934914,
  "lat": 41.3700441,
  "lon": 2.1580770
},
{
  "type": "node",
  "id": 6473934916,
  "lat": 41.3700629,
  "lon": 2.1581166
},
{
  "type": "node",
  "id": 6473934919,
  "lat": 41.3700777,
  "lon": 2.1580500
},
{
  "type": "node",
  "id": 6473934921,
  "lat": 41.3701265,
  "lon": 2.1580103
},
{
  "type": "node",
  "id": 6473934922,
  "lat": 41.3700749,
  "lon": 2.1580413
},
{
  "type": "node",
  "id": 6473934927,
  "lat": 41.3700619,
  "lon": 2.1572644
},
{
  "type": "node",
  "id": 6473934933,
  "lat": 41.3697066,
  "lon": 2.1580163
},
{
  "type": "node",
  "id": 6473934935,
  "lat": 41.3701111,
  "lon": 2.1580920
},
{
  "type": "node",
  "id": 6473934948,
  "lat": 41.3699352,
  "lon": 2.1578476
},
{
  "type": "node",
  "id": 6473934951,
  "lat": 41.3699773,
  "lon": 2.1578093
},
{
  "type": "node",
  "id": 6473934957,
  "lat": 41.3697585,
  "lon": 2.1580509
},
{
  "type": "node",
  "id": 6473934960,
  "lat": 41.3701235,
  "lon": 2.1580130
},
{
  "type": "node",
  "id": 6473934966,
  "lat": 41.3700392,
  "lon": 2.1571699
},
{
  "type": "node",
  "id": 6473934975,
  "lat": 41.3700077,
  "lon": 2.1575260
},
{
  "type": "node",
  "id": 6473934985,
  "lat": 41.3697959,
  "lon": 2.1580188
},
{
  "type": "node",
  "id": 6473934986,
  "lat": 41.3700858,
  "lon": 2.1580333
},
{
  "type": "node",
  "id": 6473934988,
  "lat": 41.3701123,
  "lon": 2.1580960
},
{
  "type": "node",
  "id": 546686120,
  "lat": 41.3751196,
  "lon": 2.1748450
},
{
  "type": "node",
  "id": 546686170,
  "lat": 41.3759459,
  "lon": 2.1752937
},
{
  "type": "node",
  "id": 3103884702,
  "lat": 41.3751000,
  "lon": 2.1752316
},
{
  "type": "node",
  "id": 3103884703,
  "lat": 41.3751198,
  "lon": 2.1751741
},
{
  "type": "node",
  "id": 3103884710,
  "lat": 41.3752163,
  "lon": 2.1748572
},
{
  "type": "node",
  "id": 3103884715,
  "lat": 41.3752932,
  "lon": 2.1749020
},
{
  "type": "node",
  "id": 3103884719,
  "lat": 41.3753686,
  "lon": 2.1749458
},
{
  "type": "node",
  "id": 3103884723,
  "lat": 41.3754371,
  "lon": 2.1749857
},
{
  "type": "node",
  "id": 3103886731,
  "lat": 41.3755149,
  "lon": 2.1750310
},
{
  "type": "node",
  "id": 3103886735,
  "lat": 41.3755934,
  "lon": 2.1750767
},
{
  "type": "node",
  "id": 3103886741,
  "lat": 41.3756716,
  "lon": 2.1751274
},
{
  "type": "node",
  "id": 3103886743,
  "lat": 41.3757484,
  "lon": 2.1751739
},
{
  "type": "node",
  "id": 3105365629,
  "lat": 41.3750496,
  "lon": 2.1750506
},
{
  "type": "node",
  "id": 3105365630,
  "lat": 41.3751445,
  "lon": 2.1751016
},
{
  "type": "node",
  "id": 3105365631,
  "lat": 41.3752045,
  "lon": 2.1748933
},
{
  "type": "node",
  "id": 3856838608,
  "lat": 41.3758699,
  "lon": 2.1753881
},
{
  "type": "node",
  "id": 3856838610,
  "lat": 41.3759045,
  "lon": 2.1754081
},
{
  "type": "node",
  "id": 218912181,
  "lat": 41.3827177,
  "lon": 2.1663613
},
{
  "type": "node",
  "id": 1457731268,
  "lat": 41.3821496,
  "lon": 2.1715038
},
{
  "type": "node",
  "id": 1457731287,
  "lat": 41.3821249,
  "lon": 2.1715242
},
{
  "type": "node",
  "id": 1457731293,
  "lat": 41.3825192,
  "lon": 2.1713673
},
{
  "type": "node",
  "id": 1457731303,
  "lat": 41.3824438,
  "lon": 2.1714312
},
{
  "type": "node",
  "id": 1457731305,
  "lat": 41.3823777,
  "lon": 2.1718241
},
{
  "type": "node",
  "id": 1457731319,
  "lat": 41.3825407,
  "lon": 2.1714056
},
{
  "type": "node",
  "id": 1457731320,
  "lat": 41.3822684,
  "lon": 2.1715625
},
{
  "type": "node",
  "id": 1457731321,
  "lat": 41.3825833,
  "lon": 2.1715554
},
{
  "type": "node",
  "id": 1457731338,
  "lat": 41.3823496,
  "lon": 2.1712345
},
{
  "type": "node",
  "id": 1457731353,
  "lat": 41.3826184,
  "lon": 2.1716351
},
{
  "type": "node",
  "id": 1457731354,
  "lat": 41.3822070,
  "lon": 2.1716115
},
{
  "type": "node",
  "id": 1457731358,
  "lat": 41.3820951,
  "lon": 2.1714601
},
{
  "type": "node",
  "id": 2501123848,
  "lat": 41.3825836,
  "lon": 2.1716645
},
{
  "type": "node",
  "id": 3497473100,
  "lat": 41.3824646,
  "lon": 2.1714108
},
{
  "type": "node",
  "id": 3868351846,
  "lat": 41.3826005,
  "lon": 2.1715379
},
{
  "type": "node",
  "id": 546686128,
  "lat": 41.3746774,
  "lon": 2.1765094
},
{
  "type": "node",
  "id": 546686134,
  "lat": 41.3752905,
  "lon": 2.1768682
},
{
  "type": "node",
  "id": 546686143,
  "lat": 41.3754071,
  "lon": 2.1766363
},
{
  "type": "node",
  "id": 546686147,
  "lat": 41.3757160,
  "lon": 2.1768184
},
{
  "type": "node",
  "id": 546686156,
  "lat": 41.3759482,
  "lon": 2.1761286
},
{
  "type": "node",
  "id": 1401711079,
  "lat": 41.3747031,
  "lon": 2.1764431
},
{
  "type": "node",
  "id": 1401711082,
  "lat": 41.3747560,
  "lon": 2.1762762
},
{
  "type": "node",
  "id": 3103884696,
  "lat": 41.3747605,
  "lon": 2.1765594
},
{
  "type": "node",
  "id": 3103884697,
  "lat": 41.3748345,
  "lon": 2.1766029
},
{
  "type": "node",
  "id": 3103884698,
  "lat": 41.3749081,
  "lon": 2.1766475
},
{
  "type": "node",
  "id": 3103884700,
  "lat": 41.3750574,
  "lon": 2.1767307
},
{
  "type": "node",
  "id": 3103884704,
  "lat": 41.3751315,
  "lon": 2.1767743
},
{
  "type": "node",
  "id": 3103884709,
  "lat": 41.3752057,
  "lon": 2.1768177
},
{
  "type": "node",
  "id": 3103884722,
  "lat": 41.3754357,
  "lon": 2.1761371
},
{
  "type": "node",
  "id": 3103884724,
  "lat": 41.3754544,
  "lon": 2.1760729
},
{
  "type": "node",
  "id": 3103886729,
  "lat": 41.3755108,
  "lon": 2.1766972
},
{
  "type": "node",
  "id": 3103886730,
  "lat": 41.3755509,
  "lon": 2.1762081
},
{
  "type": "node",
  "id": 3103886736,
  "lat": 41.3756207,
  "lon": 2.1761356
},
{
  "type": "node",
  "id": 3103886737,
  "lat": 41.3756123,
  "lon": 2.1767585
},
{
  "type": "node",
  "id": 3103886739,
  "lat": 41.3756524,
  "lon": 2.1762682
},
{
  "type": "node",
  "id": 3103886742,
  "lat": 41.3757428,
  "lon": 2.1759999
},
{
  "type": "node",
  "id": 3103886744,
  "lat": 41.3758438,
  "lon": 2.1760627
},
{
  "type": "node",
  "id": 3865124119,
  "lat": 41.3753124,
  "lon": 2.1767986
},
{
  "type": "node",
  "id": 3865124120,
  "lat": 41.3753473,
  "lon": 2.1768201
},
{
  "type": "node",
  "id": 3865313746,
  "lat": 41.3747415,
  "lon": 2.1764617
},
{
  "type": "node",
  "id": 3865315589,
  "lat": 41.3755712,
  "lon": 2.1761487
},
{
  "type": "node",
  "id": 3865315590,
  "lat": 41.3755837,
  "lon": 2.1761143
},
{
  "type": "node",
  "id": 4147506931,
  "lat": 41.3758698,
  "lon": 2.1760791
},
{
  "type": "node",
  "id": 4147506932,
  "lat": 41.3756249,
  "lon": 2.1762519
},
{
  "type": "node",
  "id": 1780146666,
  "lat": 41.3772760,
  "lon": 2.1773082
},
{
  "type": "node",
  "id": 1780146667,
  "lat": 41.3773424,
  "lon": 2.1773317
},
{
  "type": "node",
  "id": 1780146668,
  "lat": 41.3773562,
  "lon": 2.1775409
},
{
  "type": "node",
  "id": 1780146669,
  "lat": 41.3772891,
  "lon": 2.1771136
},
{
  "type": "node",
  "id": 1780146670,
  "lat": 41.3773089,
  "lon": 2.1771620
},
{
  "type": "node",
  "id": 1780146671,
  "lat": 41.3773591,
  "lon": 2.1773182
},
{
  "type": "node",
  "id": 1780146672,
  "lat": 41.3773756,
  "lon": 2.1771852
},
{
  "type": "node",
  "id": 1780146674,
  "lat": 41.3773908,
  "lon": 2.1772207
},
{
  "type": "node",
  "id": 1780146675,
  "lat": 41.3774194,
  "lon": 2.1770159
},
{
  "type": "node",
  "id": 1780146676,
  "lat": 41.3775017,
  "lon": 2.1771959
},
{
  "type": "node",
  "id": 1780146677,
  "lat": 41.3775643,
  "lon": 2.1773332
},
{
  "type": "node",
  "id": 6718448827,
  "lat": 41.3775957,
  "lon": 2.1774021
},
{
  "type": "node",
  "id": 6718448828,
  "lat": 41.3774286,
  "lon": 2.1774990
},
{
  "type": "node",
  "id": 6718469879,
  "lat": 41.3775209,
  "lon": 2.1774456
},
{
  "type": "node",
  "id": 6718474029,
  "lat": 41.3773828,
  "lon": 2.1772628
},
{
  "type": "node",
  "id": 6718482078,
  "lat": 41.3775550,
  "lon": 2.1774257
},
{
  "type": "node",
  "id": 6718482609,
  "lat": 41.3772944,
  "lon": 2.1773147
},
{
  "type": "node",
  "id": 6718482610,
  "lat": 41.3773820,
  "lon": 2.1772002
},
{
  "type": "node",
  "id": 6718483100,
  "lat": 41.3773075,
  "lon": 2.1774274
},
{
  "type": "node",
  "id": 6718483105,
  "lat": 41.3773740,
  "lon": 2.1773067
},
{
  "type": "node",
  "id": 6718483106,
  "lat": 41.3773751,
  "lon": 2.1773030
},
{
  "type": "node",
  "id": 6718483107,
  "lat": 41.3772382,
  "lon": 2.1773521
},
{
  "type": "node",
  "id": 6718483113,
  "lat": 41.3772959,
  "lon": 2.1774263
},
{
  "type": "node",
  "id": 6718483116,
  "lat": 41.3772897,
  "lon": 2.1774334
},
{
  "type": "node",
  "id": 6080817862,
  "lat": 41.4198390,
  "lon": 2.0999213
},
{
  "type": "node",
  "id": 6080817870,
  "lat": 41.4198961,
  "lon": 2.0997120
},
{
  "type": "node",
  "id": 6080818097,
  "lat": 41.4197447,
  "lon": 2.0999170
},
{
  "type": "node",
  "id": 6080818104,
  "lat": 41.4197424,
  "lon": 2.0999428
},
{
  "type": "node",
  "id": 6080818113,
  "lat": 41.4198082,
  "lon": 2.0999228
},
{
  "type": "node",
  "id": 6080818126,
  "lat": 41.4198056,
  "lon": 2.0999491
},
{
  "type": "node",
  "id": 6080818152,
  "lat": 41.4198118,
  "lon": 2.0996680
},
{
  "type": "node",
  "id": 6080818198,
  "lat": 41.4196394,
  "lon": 2.0998882
},
{
  "type": "node",
  "id": 6080818200,
  "lat": 41.4196299,
  "lon": 2.0998669
},
{
  "type": "node",
  "id": 6080818201,
  "lat": 41.4196546,
  "lon": 2.0999021
},
{
  "type": "node",
  "id": 6080818203,
  "lat": 41.4196275,
  "lon": 2.0998558
},
{
  "type": "node",
  "id": 6080818208,
  "lat": 41.4196254,
  "lon": 2.0998446
},
{
  "type": "node",
  "id": 6080818216,
  "lat": 41.4196468,
  "lon": 2.0998959
},
{
  "type": "node",
  "id": 6080818217,
  "lat": 41.4198770,
  "lon": 2.0999267
},
{
  "type": "node",
  "id": 6080818219,
  "lat": 41.4196332,
  "lon": 2.0996537
},
{
  "type": "node",
  "id": 6080818220,
  "lat": 41.4196342,
  "lon": 2.0998780
},
{
  "type": "node",
  "id": 6080818222,
  "lat": 41.4196274,
  "lon": 2.0998448
},
{
  "type": "node",
  "id": 6080818225,
  "lat": 41.4198993,
  "lon": 2.0996751
},
{
  "type": "node",
  "id": 6080818227,
  "lat": 41.4196750,
  "lon": 2.0999089
},
{
  "type": "node",
  "id": 6080818282,
  "lat": 41.4197083,
  "lon": 2.0999105
},
{
  "type": "node",
  "id": 6080818326,
  "lat": 41.4196707,
  "lon": 2.0999079
},
{
  "type": "node",
  "id": 452480263,
  "lat": 41.4129120,
  "lon": 2.1306932
},
{
  "type": "node",
  "id": 1483794552,
  "lat": 41.4131523,
  "lon": 2.1310643
},
{
  "type": "node",
  "id": 1483794581,
  "lat": 41.4131357,
  "lon": 2.1312536
},
{
  "type": "node",
  "id": 1483794586,
  "lat": 41.4131051,
  "lon": 2.1313554
},
{
  "type": "node",
  "id": 1483794592,
  "lat": 41.4132861,
  "lon": 2.1313559
},
{
  "type": "node",
  "id": 1483794600,
  "lat": 41.4133148,
  "lon": 2.1313188
},
{
  "type": "node",
  "id": 1483794612,
  "lat": 41.4134508,
  "lon": 2.1313371
},
{
  "type": "node",
  "id": 1483794614,
  "lat": 41.4134281,
  "lon": 2.1313665
},
{
  "type": "node",
  "id": 1483794617,
  "lat": 41.4134135,
  "lon": 2.1312264
},
{
  "type": "node",
  "id": 1483794618,
  "lat": 41.4133826,
  "lon": 2.1314888
},
{
  "type": "node",
  "id": 1483794624,
  "lat": 41.4134519,
  "lon": 2.1313993
},
{
  "type": "node",
  "id": 1483794625,
  "lat": 41.4132240,
  "lon": 2.1315196
},
{
  "type": "node",
  "id": 1483794642,
  "lat": 41.4132037,
  "lon": 2.1311658
},
{
  "type": "node",
  "id": 1483794644,
  "lat": 41.4132076,
  "lon": 2.1313528
},
{
  "type": "node",
  "id": 1483794652,
  "lat": 41.4131937,
  "lon": 2.1313708
},
{
  "type": "node",
  "id": 1483794654,
  "lat": 41.4132081,
  "lon": 2.1309283
},
{
  "type": "node",
  "id": 1483794656,
  "lat": 41.4134212,
  "lon": 2.1312962
},
{
  "type": "node",
  "id": 1483794658,
  "lat": 41.4129782,
  "lon": 2.1311650
},
{
  "type": "node",
  "id": 1483794665,
  "lat": 41.4130244,
  "lon": 2.1312288
},
{
  "type": "node",
  "id": 1483794667,
  "lat": 41.4129440,
  "lon": 2.1307764
},
{
  "type": "node",
  "id": 1483794677,
  "lat": 41.4129721,
  "lon": 2.1306160
},
{
  "type": "node",
  "id": 1483794679,
  "lat": 41.4131452,
  "lon": 2.1313038
},
{
  "type": "node",
  "id": 1483794693,
  "lat": 41.4127172,
  "lon": 2.1315007
},
{
  "type": "node",
  "id": 1483794711,
  "lat": 41.4129687,
  "lon": 2.1318481
},
{
  "type": "node",
  "id": 1483794733,
  "lat": 41.4129586,
  "lon": 2.1307576
},
{
  "type": "node",
  "id": 2484274498,
  "lat": 41.4128184,
  "lon": 2.1301594
},
{
  "type": "node",
  "id": 2554827400,
  "lat": 41.4116123,
  "lon": 2.1323082
},
{
  "type": "node",
  "id": 2554827401,
  "lat": 41.4120880,
  "lon": 2.1329701
},
{
  "type": "node",
  "id": 2555223662,
  "lat": 41.4129451,
  "lon": 2.1318155
},
{
  "type": "node",
  "id": 5250647061,
  "lat": 41.4118890,
  "lon": 2.1317567
},
{
  "type": "node",
  "id": 5250647062,
  "lat": 41.4120520,
  "lon": 2.1315005
},
{
  "type": "node",
  "id": 5250647063,
  "lat": 41.4134208,
  "lon": 2.1312162
},
{
  "type": "node",
  "id": 5250647064,
  "lat": 41.4132157,
  "lon": 2.1309306
},
{
  "type": "node",
  "id": 5250647065,
  "lat": 41.4132996,
  "lon": 2.1308179
},
{
  "type": "node",
  "id": 5276306117,
  "lat": 41.4130787,
  "lon": 2.1311590
},
{
  "type": "node",
  "id": 6412765235,
  "lat": 41.4132637,
  "lon": 2.1310090
},
{
  "type": "node",
  "id": 2681877926,
  "lat": 41.4246228,
  "lon": 2.1397503
},
{
  "type": "node",
  "id": 2681877956,
  "lat": 41.4246872,
  "lon": 2.1399927
},
{
  "type": "node",
  "id": 2681877979,
  "lat": 41.4247883,
  "lon": 2.1399158
},
{
  "type": "node",
  "id": 2681877983,
  "lat": 41.4247954,
  "lon": 2.1399430
},
{
  "type": "node",
  "id": 2681877993,
  "lat": 41.4248332,
  "lon": 2.1398322
},
{
  "type": "node",
  "id": 2681877998,
  "lat": 41.4248479,
  "lon": 2.1398881
},
{
  "type": "node",
  "id": 2681878003,
  "lat": 41.4248617,
  "lon": 2.1396391
},
{
  "type": "node",
  "id": 2681878019,
  "lat": 41.4249036,
  "lon": 2.1397994
},
{
  "type": "node",
  "id": 90466342,
  "lat": 41.3841405,
  "lon": 2.1665617
},
{
  "type": "node",
  "id": 90466347,
  "lat": 41.3840590,
  "lon": 2.1664324
},
{
  "type": "node",
  "id": 90466349,
  "lat": 41.3832876,
  "lon": 2.1665050
},
{
  "type": "node",
  "id": 90466351,
  "lat": 41.3836163,
  "lon": 2.1670794
},
{
  "type": "node",
  "id": 218912178,
  "lat": 41.3827863,
  "lon": 2.1662917
},
{
  "type": "node",
  "id": 218912183,
  "lat": 41.3829115,
  "lon": 2.1665621
},
{
  "type": "node",
  "id": 218912185,
  "lat": 41.3831601,
  "lon": 2.1672237
},
{
  "type": "node",
  "id": 218912189,
  "lat": 41.3831869,
  "lon": 2.1671970
},
{
  "type": "node",
  "id": 218912190,
  "lat": 41.3831673,
  "lon": 2.1673904
},
{
  "type": "node",
  "id": 218912197,
  "lat": 41.3832319,
  "lon": 2.1673947
},
{
  "type": "node",
  "id": 429452823,
  "lat": 41.3834816,
  "lon": 2.1670917
},
{
  "type": "node",
  "id": 429452834,
  "lat": 41.3831194,
  "lon": 2.1663073
},
{
  "type": "node",
  "id": 1400577780,
  "lat": 41.3833439,
  "lon": 2.1672858
},
{
  "type": "node",
  "id": 1400577782,
  "lat": 41.3833610,
  "lon": 2.1673177
},
{
  "type": "node",
  "id": 1400577790,
  "lat": 41.3834727,
  "lon": 2.1672086
},
{
  "type": "node",
  "id": 2262989719,
  "lat": 41.3831554,
  "lon": 2.1673692
},
{
  "type": "node",
  "id": 2262989723,
  "lat": 41.3831815,
  "lon": 2.1673990
},
{
  "type": "node",
  "id": 2262989725,
  "lat": 41.3832238,
  "lon": 2.1672583
},
{
  "type": "node",
  "id": 2262989727,
  "lat": 41.3832745,
  "lon": 2.1673545
},
{
  "type": "node",
  "id": 2262989737,
  "lat": 41.3834301,
  "lon": 2.1671339
},
{
  "type": "node",
  "id": 2262989739,
  "lat": 41.3834737,
  "lon": 2.1665394
},
{
  "type": "node",
  "id": 2262989743,
  "lat": 41.3835139,
  "lon": 2.1654560
},
{
  "type": "node",
  "id": 2262989756,
  "lat": 41.3836448,
  "lon": 2.1668458
},
{
  "type": "node",
  "id": 2262989757,
  "lat": 41.3836717,
  "lon": 2.1663433
},
{
  "type": "node",
  "id": 2262989758,
  "lat": 41.3835434,
  "lon": 2.1655651
},
{
  "type": "node",
  "id": 2262989762,
  "lat": 41.3838436,
  "lon": 2.1666558
},
{
  "type": "node",
  "id": 3098452652,
  "lat": 41.3836070,
  "lon": 2.1653153
},
{
  "type": "node",
  "id": 3098452786,
  "lat": 41.3837054,
  "lon": 2.1658413
},
{
  "type": "node",
  "id": 3098452787,
  "lat": 41.3838899,
  "lon": 2.1656406
},
{
  "type": "node",
  "id": 3458959361,
  "lat": 41.3836041,
  "lon": 2.1661940
},
{
  "type": "node",
  "id": 3458959363,
  "lat": 41.3837232,
  "lon": 2.1660745
},
{
  "type": "node",
  "id": 3458959367,
  "lat": 41.3839766,
  "lon": 2.1665165
},
{
  "type": "node",
  "id": 3867021156,
  "lat": 41.3828363,
  "lon": 2.1665771
},
{
  "type": "node",
  "id": 3867021262,
  "lat": 41.3828823,
  "lon": 2.1665104
},
{
  "type": "node",
  "id": 3867021263,
  "lat": 41.3828852,
  "lon": 2.1667905
},
{
  "type": "node",
  "id": 3867021264,
  "lat": 41.3828883,
  "lon": 2.1667635
},
{
  "type": "node",
  "id": 3867021265,
  "lat": 41.3828904,
  "lon": 2.1668018
},
{
  "type": "node",
  "id": 3867021266,
  "lat": 41.3828950,
  "lon": 2.1667548
},
{
  "type": "node",
  "id": 3867021267,
  "lat": 41.3828976,
  "lon": 2.1668105
},
{
  "type": "node",
  "id": 3867021268,
  "lat": 41.3829024,
  "lon": 2.1667478
},
{
  "type": "node",
  "id": 3867021269,
  "lat": 41.3829057,
  "lon": 2.1668154
},
{
  "type": "node",
  "id": 3867021270,
  "lat": 41.3829004,
  "lon": 2.1664756
},
{
  "type": "node",
  "id": 3867021271,
  "lat": 41.3829108,
  "lon": 2.1667451
},
{
  "type": "node",
  "id": 3867021272,
  "lat": 41.3829142,
  "lon": 2.1668156
},
{
  "type": "node",
  "id": 3867021273,
  "lat": 41.3829181,
  "lon": 2.1667199
},
{
  "type": "node",
  "id": 3867021275,
  "lat": 41.3829172,
  "lon": 2.1667467
},
{
  "type": "node",
  "id": 3867021277,
  "lat": 41.3829270,
  "lon": 2.1667521
},
{
  "type": "node",
  "id": 3867021278,
  "lat": 41.3829245,
  "lon": 2.1668112
},
{
  "type": "node",
  "id": 3867021279,
  "lat": 41.3829306,
  "lon": 2.1667597
},
{
  "type": "node",
  "id": 3867021280,
  "lat": 41.3829365,
  "lon": 2.1667540
},
{
  "type": "node",
  "id": 3867021281,
  "lat": 41.3829399,
  "lon": 2.1664166
},
{
  "type": "node",
  "id": 3867021283,
  "lat": 41.3829507,
  "lon": 2.1665657
},
{
  "type": "node",
  "id": 3867021285,
  "lat": 41.3829602,
  "lon": 2.1665237
},
{
  "type": "node",
  "id": 3867021286,
  "lat": 41.3829564,
  "lon": 2.1665093
},
{
  "type": "node",
  "id": 3867021287,
  "lat": 41.3829628,
  "lon": 2.1663861
},
{
  "type": "node",
  "id": 3867021288,
  "lat": 41.3829642,
  "lon": 2.1664744
},
{
  "type": "node",
  "id": 3867021289,
  "lat": 41.3829778,
  "lon": 2.1664474
},
{
  "type": "node",
  "id": 3867021290,
  "lat": 41.3829735,
  "lon": 2.1665216
},
{
  "type": "node",
  "id": 3867021291,
  "lat": 41.3829738,
  "lon": 2.1665430
},
{
  "type": "node",
  "id": 3867021292,
  "lat": 41.3829825,
  "lon": 2.1660982
},
{
  "type": "node",
  "id": 3867021294,
  "lat": 41.3829894,
  "lon": 2.1664298
},
{
  "type": "node",
  "id": 3867021295,
  "lat": 41.3829959,
  "lon": 2.1663610
},
{
  "type": "node",
  "id": 3867021296,
  "lat": 41.3830040,
  "lon": 2.1664173
},
{
  "type": "node",
  "id": 3867021297,
  "lat": 41.3830198,
  "lon": 2.1664069
},
{
  "type": "node",
  "id": 3867021298,
  "lat": 41.3830245,
  "lon": 2.1661711
},
{
  "type": "node",
  "id": 3867021301,
  "lat": 41.3830386,
  "lon": 2.1661572
},
{
  "type": "node",
  "id": 3867021302,
  "lat": 41.3830395,
  "lon": 2.1663984
},
{
  "type": "node",
  "id": 3867021303,
  "lat": 41.3830679,
  "lon": 2.1663950
},
{
  "type": "node",
  "id": 3867021304,
  "lat": 41.3830906,
  "lon": 2.1663996
},
{
  "type": "node",
  "id": 3867021305,
  "lat": 41.3831057,
  "lon": 2.1666492
},
{
  "type": "node",
  "id": 3867021306,
  "lat": 41.3831144,
  "lon": 2.1664147
},
{
  "type": "node",
  "id": 3867021307,
  "lat": 41.3831173,
  "lon": 2.1666722
},
{
  "type": "node",
  "id": 3867021308,
  "lat": 41.3831171,
  "lon": 2.1666383
},
{
  "type": "node",
  "id": 3867021309,
  "lat": 41.3831191,
  "lon": 2.1666553
},
{
  "type": "node",
  "id": 3867021310,
  "lat": 41.3831356,
  "lon": 2.1664390
},
{
  "type": "node",
  "id": 3867021311,
  "lat": 41.3831341,
  "lon": 2.1666402
},
{
  "type": "node",
  "id": 3867021312,
  "lat": 41.3831490,
  "lon": 2.1666167
},
{
  "type": "node",
  "id": 3867021313,
  "lat": 41.3831512,
  "lon": 2.1664688
},
{
  "type": "node",
  "id": 3867021314,
  "lat": 41.3831528,
  "lon": 2.1673057
},
{
  "type": "node",
  "id": 3867021315,
  "lat": 41.3831533,
  "lon": 2.1673605
},
{
  "type": "node",
  "id": 3867021316,
  "lat": 41.3831534,
  "lon": 2.1673154
},
{
  "type": "node",
  "id": 3867021317,
  "lat": 41.3831534,
  "lon": 2.1673494
},
{
  "type": "node",
  "id": 3867021318,
  "lat": 41.3831541,
  "lon": 2.1672950
},
{
  "type": "node",
  "id": 3867021319,
  "lat": 41.3831578,
  "lon": 2.1673232
},
{
  "type": "node",
  "id": 3867021320,
  "lat": 41.3831582,
  "lon": 2.1664954
},
{
  "type": "node",
  "id": 3867021321,
  "lat": 41.3831586,
  "lon": 2.1673395
},
{
  "type": "node",
  "id": 3867021322,
  "lat": 41.3831595,
  "lon": 2.1673305
},
{
  "type": "node",
  "id": 3867021323,
  "lat": 41.3831584,
  "lon": 2.1665965
},
{
  "type": "node",
  "id": 3867021325,
  "lat": 41.3831598,
  "lon": 2.1665202
},
{
  "type": "node",
  "id": 3867021326,
  "lat": 41.3831661,
  "lon": 2.1665450
},
{
  "type": "node",
  "id": 3867021327,
  "lat": 41.3831643,
  "lon": 2.1672805
},
{
  "type": "node",
  "id": 3867021328,
  "lat": 41.3831663,
  "lon": 2.1665740
},
{
  "type": "node",
  "id": 3867021329,
  "lat": 41.3831700,
  "lon": 2.1665445
},
{
  "type": "node",
  "id": 3867021331,
  "lat": 41.3831715,
  "lon": 2.1672769
},
{
  "type": "node",
  "id": 3867021332,
  "lat": 41.3831735,
  "lon": 2.1673955
},
{
  "type": "node",
  "id": 3867021335,
  "lat": 41.3832027,
  "lon": 2.1665909
},
{
  "type": "node",
  "id": 3867021337,
  "lat": 41.3832047,
  "lon": 2.1672773
},
{
  "type": "node",
  "id": 3867021338,
  "lat": 41.3832145,
  "lon": 2.1672724
},
{
  "type": "node",
  "id": 3867021339,
  "lat": 41.3832338,
  "lon": 2.1673074
},
{
  "type": "node",
  "id": 3867021340,
  "lat": 41.3832341,
  "lon": 2.1672982
},
{
  "type": "node",
  "id": 3867021341,
  "lat": 41.3832392,
  "lon": 2.1672925
},
{
  "type": "node",
  "id": 3867021342,
  "lat": 41.3832430,
  "lon": 2.1673290
},
{
  "type": "node",
  "id": 3867021343,
  "lat": 41.3832504,
  "lon": 2.1673405
},
{
  "type": "node",
  "id": 3867021344,
  "lat": 41.3832510,
  "lon": 2.1673650
},
{
  "type": "node",
  "id": 3867021345,
  "lat": 41.3832530,
  "lon": 2.1673472
},
{
  "type": "node",
  "id": 3867021346,
  "lat": 41.3832531,
  "lon": 2.1673587
},
{
  "type": "node",
  "id": 3868351851,
  "lat": 41.3828583,
  "lon": 2.1666114
},
{
  "type": "node",
  "id": 3868351852,
  "lat": 41.3828850,
  "lon": 2.1667744
},
{
  "type": "node",
  "id": 3868361361,
  "lat": 41.3832250,
  "lon": 2.1674000
},
{
  "type": "node",
  "id": 4058719222,
  "lat": 41.3828083,
  "lon": 2.1666539
},
{
  "type": "node",
  "id": 4058719223,
  "lat": 41.3828243,
  "lon": 2.1666396
},
{
  "type": "node",
  "id": 4058719224,
  "lat": 41.3828264,
  "lon": 2.1666433
},
{
  "type": "node",
  "id": 4058719225,
  "lat": 41.3828369,
  "lon": 2.1667585
},
{
  "type": "node",
  "id": 4058719226,
  "lat": 41.3828514,
  "lon": 2.1667825
},
{
  "type": "node",
  "id": 4058719227,
  "lat": 41.3828556,
  "lon": 2.1667383
},
{
  "type": "node",
  "id": 4058719228,
  "lat": 41.3829564,
  "lon": 2.1665304
},
{
  "type": "node",
  "id": 4058719229,
  "lat": 41.3829602,
  "lon": 2.1665305
},
{
  "type": "node",
  "id": 4058719230,
  "lat": 41.3831166,
  "lon": 2.1666494
},
{
  "type": "node",
  "id": 4058719231,
  "lat": 41.3831212,
  "lon": 2.1666443
},
{
  "type": "node",
  "id": 4058719232,
  "lat": 41.3831584,
  "lon": 2.1665584
},
{
  "type": "node",
  "id": 4058719233,
  "lat": 41.3831608,
  "lon": 2.1665414
},
{
  "type": "node",
  "id": 4058719234,
  "lat": 41.3831641,
  "lon": 2.1665596
},
{
  "type": "node",
  "id": 4058719235,
  "lat": 41.3834397,
  "lon": 2.1671255
},
{
  "type": "node",
  "id": 4058719236,
  "lat": 41.3834440,
  "lon": 2.1671309
},
{
  "type": "node",
  "id": 1377867102,
  "lat": 41.3977808,
  "lon": 2.1526652
},
{
  "type": "node",
  "id": 1377867103,
  "lat": 41.3976603,
  "lon": 2.1527069
},
{
  "type": "node",
  "id": 4442322298,
  "lat": 41.3979411,
  "lon": 2.1531429
},
{
  "type": "node",
  "id": 4442322299,
  "lat": 41.3980288,
  "lon": 2.1530620
},
{
  "type": "node",
  "id": 4442326490,
  "lat": 41.3978074,
  "lon": 2.1529362
},
{
  "type": "node",
  "id": 5201588366,
  "lat": 41.3976866,
  "lon": 2.1526856
},
{
  "type": "node",
  "id": 5201588367,
  "lat": 41.3976893,
  "lon": 2.1526506
},
{
  "type": "node",
  "id": 6473977929,
  "lat": 41.3978028,
  "lon": 2.1527037
},
{
  "type": "node",
  "id": 1382915084,
  "lat": 41.3962396,
  "lon": 2.1593586
},
{
  "type": "node",
  "id": 1382915093,
  "lat": 41.3960894,
  "lon": 2.1591477
},
{
  "type": "node",
  "id": 1382915102,
  "lat": 41.3959557,
  "lon": 2.1594391
},
{
  "type": "node",
  "id": 1382915103,
  "lat": 41.3958893,
  "lon": 2.1595514
},
{
  "type": "node",
  "id": 1382915125,
  "lat": 41.3959164,
  "lon": 2.1593730
},
{
  "type": "node",
  "id": 1382915139,
  "lat": 41.3959618,
  "lon": 2.1594414
},
{
  "type": "node",
  "id": 1382915181,
  "lat": 41.3959169,
  "lon": 2.1593834
},
{
  "type": "node",
  "id": 6168885618,
  "lat": 41.3961880,
  "lon": 2.1592896
},
{
  "type": "node",
  "id": 6168885656,
  "lat": 41.3960598,
  "lon": 2.1595798
},
{
  "type": "node",
  "id": 6168885799,
  "lat": 41.3959300,
  "lon": 2.1595006
},
{
  "type": "node",
  "id": 6168885804,
  "lat": 41.3959157,
  "lon": 2.1593745
},
{
  "type": "node",
  "id": 6168885816,
  "lat": 41.3959236,
  "lon": 2.1594915
},
{
  "type": "node",
  "id": 6168885898,
  "lat": 41.3959626,
  "lon": 2.1594600
},
{
  "type": "node",
  "id": 6168885917,
  "lat": 41.3961378,
  "lon": 2.1592217
},
{
  "type": "node",
  "id": 6168885924,
  "lat": 41.3961859,
  "lon": 2.1592921
},
{
  "type": "node",
  "id": 6168885944,
  "lat": 41.3959208,
  "lon": 2.1594815
},
{
  "type": "node",
  "id": 6168885953,
  "lat": 41.3959454,
  "lon": 2.1594473
},
{
  "type": "node",
  "id": 6168885965,
  "lat": 41.3959213,
  "lon": 2.1594871
},
{
  "type": "node",
  "id": 6168886027,
  "lat": 41.3961391,
  "lon": 2.1592190
},
{
  "type": "node",
  "id": 6168886033,
  "lat": 41.3960255,
  "lon": 2.1592231
},
{
  "type": "node",
  "id": 6168886101,
  "lat": 41.3959925,
  "lon": 2.1592651
},
{
  "type": "node",
  "id": 6168886113,
  "lat": 41.3959321,
  "lon": 2.1593441
},
{
  "type": "node",
  "id": 6168886120,
  "lat": 41.3960275,
  "lon": 2.1592252
},
{
  "type": "node",
  "id": 6168886171,
  "lat": 41.3959772,
  "lon": 2.1596815
},
{
  "type": "node",
  "id": 6168886173,
  "lat": 41.3959534,
  "lon": 2.1594475
},
{
  "type": "node",
  "id": 6168886270,
  "lat": 41.3959943,
  "lon": 2.1592679
},
{
  "type": "node",
  "id": 6168886358,
  "lat": 41.3959347,
  "lon": 2.1593510
},
{
  "type": "node",
  "id": 6168886373,
  "lat": 41.3959692,
  "lon": 2.1594517
},
{
  "type": "node",
  "id": 6168886490,
  "lat": 41.3959220,
  "lon": 2.1594755
},
{
  "type": "node",
  "id": 6168886496,
  "lat": 41.3959156,
  "lon": 2.1593795
},
{
  "type": "node",
  "id": 240972435,
  "lat": 41.3852083,
  "lon": 2.1807402
},
{
  "type": "node",
  "id": 240979740,
  "lat": 41.3868448,
  "lon": 2.1817238
},
{
  "type": "node",
  "id": 437528363,
  "lat": 41.3843282,
  "lon": 2.1773421
},
{
  "type": "node",
  "id": 437528364,
  "lat": 41.3842187,
  "lon": 2.1772079
},
{
  "type": "node",
  "id": 1400647993,
  "lat": 41.3868765,
  "lon": 2.1819035
},
{
  "type": "node",
  "id": 1784479349,
  "lat": 41.3841432,
  "lon": 2.1767640
},
{
  "type": "node",
  "id": 1784479352,
  "lat": 41.3842443,
  "lon": 2.1768913
},
{
  "type": "node",
  "id": 1784479354,
  "lat": 41.3842733,
  "lon": 2.1765872
},
{
  "type": "node",
  "id": 1784479359,
  "lat": 41.3844035,
  "lon": 2.1763863
},
{
  "type": "node",
  "id": 1784479361,
  "lat": 41.3844287,
  "lon": 2.1763516
},
{
  "type": "node",
  "id": 1784479366,
  "lat": 41.3844252,
  "lon": 2.1763530
},
{
  "type": "node",
  "id": 1784637085,
  "lat": 41.3872476,
  "lon": 2.1815841
},
{
  "type": "node",
  "id": 1995543374,
  "lat": 41.3846308,
  "lon": 2.1760322
},
{
  "type": "node",
  "id": 1995543377,
  "lat": 41.3846122,
  "lon": 2.1763239
},
{
  "type": "node",
  "id": 1995543378,
  "lat": 41.3846488,
  "lon": 2.1762290
},
{
  "type": "node",
  "id": 1995543379,
  "lat": 41.3846621,
  "lon": 2.1764822
},
{
  "type": "node",
  "id": 1995543380,
  "lat": 41.3846699,
  "lon": 2.1761422
},
{
  "type": "node",
  "id": 1995543381,
  "lat": 41.3847044,
  "lon": 2.1765210
},
{
  "type": "node",
  "id": 1995543382,
  "lat": 41.3847211,
  "lon": 2.1764141
},
{
  "type": "node",
  "id": 1995661929,
  "lat": 41.3854246,
  "lon": 2.1814076
},
{
  "type": "node",
  "id": 1995661931,
  "lat": 41.3854077,
  "lon": 2.1811440
},
{
  "type": "node",
  "id": 1995661932,
  "lat": 41.3854117,
  "lon": 2.1812730
},
{
  "type": "node",
  "id": 1995661934,
  "lat": 41.3854586,
  "lon": 2.1813552
},
{
  "type": "node",
  "id": 1995661935,
  "lat": 41.3854532,
  "lon": 2.1812146
},
{
  "type": "node",
  "id": 1995661937,
  "lat": 41.3854606,
  "lon": 2.1810683
},
{
  "type": "node",
  "id": 1995709465,
  "lat": 41.3849538,
  "lon": 2.1811341
},
{
  "type": "node",
  "id": 1995709466,
  "lat": 41.3849784,
  "lon": 2.1817328
},
{
  "type": "node",
  "id": 1995709467,
  "lat": 41.3851230,
  "lon": 2.1814865
},
{
  "type": "node",
  "id": 1995709469,
  "lat": 41.3852543,
  "lon": 2.1816616
},
{
  "type": "node",
  "id": 1998961100,
  "lat": 41.3872845,
  "lon": 2.1817634
},
{
  "type": "node",
  "id": 2208253461,
  "lat": 41.3842152,
  "lon": 2.1768594
},
{
  "type": "node",
  "id": 2240993651,
  "lat": 41.3847367,
  "lon": 2.1814830
},
{
  "type": "node",
  "id": 2240993654,
  "lat": 41.3848290,
  "lon": 2.1813347
},
{
  "type": "node",
  "id": 2240993656,
  "lat": 41.3848828,
  "lon": 2.1812481
},
{
  "type": "node",
  "id": 2240993658,
  "lat": 41.3850068,
  "lon": 2.1810520
},
{
  "type": "node",
  "id": 2240993660,
  "lat": 41.3850617,
  "lon": 2.1815839
},
{
  "type": "node",
  "id": 2240993662,
  "lat": 41.3850902,
  "lon": 2.1809230
},
{
  "type": "node",
  "id": 2240993676,
  "lat": 41.3854312,
  "lon": 2.1814402
},
{
  "type": "node",
  "id": 2264354594,
  "lat": 41.3842742,
  "lon": 2.1768500
},
{
  "type": "node",
  "id": 2264354597,
  "lat": 41.3843065,
  "lon": 2.1769434
},
{
  "type": "node",
  "id": 2264354598,
  "lat": 41.3843261,
  "lon": 2.1769142
},
{
  "type": "node",
  "id": 2264354603,
  "lat": 41.3844417,
  "lon": 2.1771472
},
{
  "type": "node",
  "id": 2264354604,
  "lat": 41.3844550,
  "lon": 2.1771285
},
{
  "type": "node",
  "id": 2264354607,
  "lat": 41.3845077,
  "lon": 2.1772261
},
{
  "type": "node",
  "id": 2264354609,
  "lat": 41.3845141,
  "lon": 2.1770820
},
{
  "type": "node",
  "id": 2267959308,
  "lat": 41.3869133,
  "lon": 2.1816906
},
{
  "type": "node",
  "id": 2437970402,
  "lat": 41.3841733,
  "lon": 2.1768041
},
{
  "type": "node",
  "id": 2482696173,
  "lat": 41.3869484,
  "lon": 2.1818788
},
{
  "type": "node",
  "id": 2529520246,
  "lat": 41.3845616,
  "lon": 2.1761121
},
{
  "type": "node",
  "id": 2529520247,
  "lat": 41.3845334,
  "lon": 2.1761498
},
{
  "type": "node",
  "id": 2529520248,
  "lat": 41.3844503,
  "lon": 2.1763172
},
{
  "type": "node",
  "id": 2544790032,
  "lat": 41.3844088,
  "lon": 2.1773796
},
{
  "type": "node",
  "id": 2544790042,
  "lat": 41.3842485,
  "lon": 2.1771647
},
{
  "type": "node",
  "id": 2544790044,
  "lat": 41.3841821,
  "lon": 2.1770815
},
{
  "type": "node",
  "id": 2544790058,
  "lat": 41.3842872,
  "lon": 2.1772916
},
{
  "type": "node",
  "id": 2544872661,
  "lat": 41.3843122,
  "lon": 2.1773229
},
{
  "type": "node",
  "id": 3105402037,
  "lat": 41.3846231,
  "lon": 2.1760369
},
{
  "type": "node",
  "id": 3105402038,
  "lat": 41.3846247,
  "lon": 2.1762373
},
{
  "type": "node",
  "id": 3105402039,
  "lat": 41.3846467,
  "lon": 2.1761601
},
{
  "type": "node",
  "id": 3105402040,
  "lat": 41.3846574,
  "lon": 2.1761941
},
{
  "type": "node",
  "id": 3105402041,
  "lat": 41.3846609,
  "lon": 2.1764865
},
{
  "type": "node",
  "id": 3105402042,
  "lat": 41.3847144,
  "lon": 2.1764772
},
{
  "type": "node",
  "id": 3105500799,
  "lat": 41.3841500,
  "lon": 2.1767478
},
{
  "type": "node",
  "id": 3105503692,
  "lat": 41.3841174,
  "lon": 2.1770008
},
{
  "type": "node",
  "id": 3105516016,
  "lat": 41.3844925,
  "lon": 2.1762300
},
{
  "type": "node",
  "id": 3889098324,
  "lat": 41.3844729,
  "lon": 2.1772800
},
{
  "type": "node",
  "id": 3889098325,
  "lat": 41.3844836,
  "lon": 2.1771972
},
{
  "type": "node",
  "id": 4056507741,
  "lat": 41.3852886,
  "lon": 2.1808417
},
{
  "type": "node",
  "id": 6045106271,
  "lat": 41.3846538,
  "lon": 2.1760897
},
{
  "type": "node",
  "id": 6053179057,
  "lat": 41.3845906,
  "lon": 2.1764772
},
{
  "type": "node",
  "id": 6053179060,
  "lat": 41.3843552,
  "lon": 2.1773077
},
{
  "type": "node",
  "id": 6053179062,
  "lat": 41.3842965,
  "lon": 2.1765516
},
{
  "type": "node",
  "id": 6053179063,
  "lat": 41.3845944,
  "lon": 2.1764696
},
{
  "type": "node",
  "id": 6053179072,
  "lat": 41.3846261,
  "lon": 2.1764941
},
{
  "type": "node",
  "id": 6053180196,
  "lat": 41.3846076,
  "lon": 2.1767448
},
{
  "type": "node",
  "id": 6053180197,
  "lat": 41.3846096,
  "lon": 2.1764814
},
{
  "type": "node",
  "id": 6053180198,
  "lat": 41.3842853,
  "lon": 2.1765687
},
{
  "type": "node",
  "id": 6053180199,
  "lat": 41.3842119,
  "lon": 2.1766671
},
{
  "type": "node",
  "id": 6053180200,
  "lat": 41.3842071,
  "lon": 2.1768486
},
{
  "type": "node",
  "id": 6053180201,
  "lat": 41.3841624,
  "lon": 2.1769358
},
{
  "type": "node",
  "id": 6053180207,
  "lat": 41.3844952,
  "lon": 2.1771798
},
{
  "type": "node",
  "id": 6053180225,
  "lat": 41.3845996,
  "lon": 2.1766803
},
{
  "type": "node",
  "id": 6053180227,
  "lat": 41.3842538,
  "lon": 2.1768785
},
{
  "type": "node",
  "id": 6053180239,
  "lat": 41.3844637,
  "lon": 2.1763834
},
{
  "type": "node",
  "id": 6053180253,
  "lat": 41.3846195,
  "lon": 2.1766870
},
{
  "type": "node",
  "id": 6053180254,
  "lat": 41.3845716,
  "lon": 2.1769186
},
{
  "type": "node",
  "id": 6053180265,
  "lat": 41.3845453,
  "lon": 2.1770916
},
{
  "type": "node",
  "id": 6053180279,
  "lat": 41.3842034,
  "lon": 2.1768437
},
{
  "type": "node",
  "id": 6053181389,
  "lat": 41.3844655,
  "lon": 2.1763789
},
{
  "type": "node",
  "id": 383464431,
  "lat": 41.3874146,
  "lon": 2.1840740
},
{
  "type": "node",
  "id": 383464433,
  "lat": 41.3869159,
  "lon": 2.1847454
},
{
  "type": "node",
  "id": 383464435,
  "lat": 41.3868484,
  "lon": 2.1846563
},
{
  "type": "node",
  "id": 383464438,
  "lat": 41.3873471,
  "lon": 2.1839849
},
{
  "type": "node",
  "id": 1437310465,
  "lat": 41.3864547,
  "lon": 2.1834624
},
{
  "type": "node",
  "id": 1493106449,
  "lat": 41.3855785,
  "lon": 2.1846326
},
{
  "type": "node",
  "id": 1493106450,
  "lat": 41.3860837,
  "lon": 2.1829689
},
{
  "type": "node",
  "id": 1493106451,
  "lat": 41.3852075,
  "lon": 2.1841392
},
{
  "type": "node",
  "id": 3109120434,
  "lat": 41.3853033,
  "lon": 2.1842666
},
{
  "type": "node",
  "id": 3109120436,
  "lat": 41.3853682,
  "lon": 2.1843529
},
{
  "type": "node",
  "id": 3109120438,
  "lat": 41.3854193,
  "lon": 2.1844208
},
{
  "type": "node",
  "id": 3109120441,
  "lat": 41.3854940,
  "lon": 2.1845201
},
{
  "type": "node",
  "id": 3109120445,
  "lat": 41.3855567,
  "lon": 2.1836728
},
{
  "type": "node",
  "id": 3109120450,
  "lat": 41.3856206,
  "lon": 2.1835875
},
{
  "type": "node",
  "id": 3109120453,
  "lat": 41.3856711,
  "lon": 2.1835199
},
{
  "type": "node",
  "id": 3109120457,
  "lat": 41.3857344,
  "lon": 2.1834354
},
{
  "type": "node",
  "id": 3109120477,
  "lat": 41.3859279,
  "lon": 2.1841660
},
{
  "type": "node",
  "id": 3109120482,
  "lat": 41.3859913,
  "lon": 2.1840812
},
{
  "type": "node",
  "id": 3109120484,
  "lat": 41.3860423,
  "lon": 2.1840132
},
{
  "type": "node",
  "id": 3109120488,
  "lat": 41.3861056,
  "lon": 2.1839286
},
{
  "type": "node",
  "id": 3109120493,
  "lat": 41.3861737,
  "lon": 2.1830886
},
{
  "type": "node",
  "id": 3109120496,
  "lat": 41.3862437,
  "lon": 2.1831817
},
{
  "type": "node",
  "id": 3109120498,
  "lat": 41.3862689,
  "lon": 2.1832153
},
{
  "type": "node",
  "id": 3109120499,
  "lat": 41.3862945,
  "lon": 2.1832494
},
{
  "type": "node",
  "id": 3109120501,
  "lat": 41.3863643,
  "lon": 2.1833421
},
{
  "type": "node",
  "id": 4943450097,
  "lat": 41.3860183,
  "lon": 2.1840453
},
{
  "type": "node",
  "id": 4943450098,
  "lat": 41.3856458,
  "lon": 2.1835538
},
{
  "type": "node",
  "id": 2181559191,
  "lat": 41.4023222,
  "lon": 2.1881938
},
{
  "type": "node",
  "id": 2181559194,
  "lat": 41.4022503,
  "lon": 2.1882824
},
{
  "type": "node",
  "id": 2181559196,
  "lat": 41.4022699,
  "lon": 2.1881213
},
{
  "type": "node",
  "id": 2572858565,
  "lat": 41.4023580,
  "lon": 2.1884277
},
{
  "type": "node",
  "id": 2572862088,
  "lat": 41.4022948,
  "lon": 2.1883412
},
{
  "type": "node",
  "id": 714746275,
  "lat": 41.4026700,
  "lon": 2.1877063
},
{
  "type": "node",
  "id": 2181559189,
  "lat": 41.4029097,
  "lon": 2.1877234
},
{
  "type": "node",
  "id": 2181559192,
  "lat": 41.4024913,
  "lon": 2.1878306
},
{
  "type": "node",
  "id": 2181559197,
  "lat": 41.4025295,
  "lon": 2.1878736
},
{
  "type": "node",
  "id": 2572858562,
  "lat": 41.4028048,
  "lon": 2.1875555
},
{
  "type": "node",
  "id": 2572858563,
  "lat": 41.4026478,
  "lon": 2.1880437
},
{
  "type": "node",
  "id": 3177985111,
  "lat": 41.4027822,
  "lon": 2.1878726
},
{
  "type": "node",
  "id": 3177985113,
  "lat": 41.4025090,
  "lon": 2.1882345
},
{
  "type": "node",
  "id": 4276099295,
  "lat": 41.4025535,
  "lon": 2.1878450
},
{
  "type": "node",
  "id": 5595864477,
  "lat": 41.4026790,
  "lon": 2.1880040
},
{
  "type": "node",
  "id": 1829944838,
  "lat": 41.4030168,
  "lon": 2.1946495
},
{
  "type": "node",
  "id": 2034764948,
  "lat": 41.4031362,
  "lon": 2.1947698
},
{
  "type": "node",
  "id": 2034764950,
  "lat": 41.4034898,
  "lon": 2.1946511
},
{
  "type": "node",
  "id": 2034764960,
  "lat": 41.4033523,
  "lon": 2.1949568
},
{
  "type": "node",
  "id": 2034764970,
  "lat": 41.4030027,
  "lon": 2.1946354
},
{
  "type": "node",
  "id": 2034764979,
  "lat": 41.4033752,
  "lon": 2.1949059
},
{
  "type": "node",
  "id": 2034764982,
  "lat": 41.4031687,
  "lon": 2.1953649
},
{
  "type": "node",
  "id": 2034764991,
  "lat": 41.4032437,
  "lon": 2.1954003
},
{
  "type": "node",
  "id": 2034764993,
  "lat": 41.4030631,
  "lon": 2.1946962
},
{
  "type": "node",
  "id": 2034765002,
  "lat": 41.4028466,
  "lon": 2.1952135
},
{
  "type": "node",
  "id": 2034765005,
  "lat": 41.4035586,
  "lon": 2.1947058
},
{
  "type": "node",
  "id": 2034765007,
  "lat": 41.4027511,
  "lon": 2.1951687
},
{
  "type": "node",
  "id": 2187195424,
  "lat": 41.4030520,
  "lon": 2.1945524
},
{
  "type": "node",
  "id": 4738209847,
  "lat": 41.4031863,
  "lon": 2.1953259
},
{
  "type": "node",
  "id": 4738209848,
  "lat": 41.4028657,
  "lon": 2.1951837
},
{
  "type": "node",
  "id": 6058776915,
  "lat": 41.4033399,
  "lon": 2.1949451
},
{
  "type": "node",
  "id": 6058776916,
  "lat": 41.4033724,
  "lon": 2.1948739
},
{
  "type": "node",
  "id": 6058776920,
  "lat": 41.4033440,
  "lon": 2.1949490
},
{
  "type": "node",
  "id": 6058776927,
  "lat": 41.4030713,
  "lon": 2.1945719
},
{
  "type": "node",
  "id": 6058776928,
  "lat": 41.4033305,
  "lon": 2.1949656
},
{
  "type": "node",
  "id": 6058776929,
  "lat": 41.4033631,
  "lon": 2.1948944
},
{
  "type": "node",
  "id": 6058783368,
  "lat": 41.4030630,
  "lon": 2.1947539
},
{
  "type": "node",
  "id": 6058783369,
  "lat": 41.4030846,
  "lon": 2.1947195
},
{
  "type": "node",
  "id": 6058783370,
  "lat": 41.4030383,
  "lon": 2.1947289
},
{
  "type": "node",
  "id": 1405105932,
  "lat": 41.4135026,
  "lon": 2.1531654
},
{
  "type": "node",
  "id": 1405105934,
  "lat": 41.4135029,
  "lon": 2.1531442
},
{
  "type": "node",
  "id": 1405105940,
  "lat": 41.4135132,
  "lon": 2.1531346
},
{
  "type": "node",
  "id": 1405105941,
  "lat": 41.4135385,
  "lon": 2.1531346
},
{
  "type": "node",
  "id": 1405105942,
  "lat": 41.4135531,
  "lon": 2.1531205
},
{
  "type": "node",
  "id": 1405105945,
  "lat": 41.4135773,
  "lon": 2.1532862
},
{
  "type": "node",
  "id": 1405105946,
  "lat": 41.4135943,
  "lon": 2.1532898
},
{
  "type": "node",
  "id": 1405105949,
  "lat": 41.4136017,
  "lon": 2.1531699
},
{
  "type": "node",
  "id": 1405105950,
  "lat": 41.4136055,
  "lon": 2.1532496
},
{
  "type": "node",
  "id": 1405105951,
  "lat": 41.4136106,
  "lon": 2.1532637
},
{
  "type": "node",
  "id": 1405105953,
  "lat": 41.4136214,
  "lon": 2.1532290
},
{
  "type": "node",
  "id": 1405105969,
  "lat": 41.4143537,
  "lon": 2.1535350
},
{
  "type": "node",
  "id": 1405105970,
  "lat": 41.4144076,
  "lon": 2.1536781
},
{
  "type": "node",
  "id": 1405105972,
  "lat": 41.4144488,
  "lon": 2.1534612
},
{
  "type": "node",
  "id": 1405105974,
  "lat": 41.4145030,
  "lon": 2.1535717
},
{
  "type": "node",
  "id": 4848377973,
  "lat": 41.4135249,
  "lon": 2.1531313
},
{
  "type": "node",
  "id": 4848377974,
  "lat": 41.4136045,
  "lon": 2.1532782
},
{
  "type": "node",
  "id": 6301391651,
  "lat": 41.4144691,
  "lon": 2.1535072
},
{
  "type": "node",
  "id": 6301391816,
  "lat": 41.4143923,
  "lon": 2.1536473
},
{
  "type": "node",
  "id": 6301391878,
  "lat": 41.4144437,
  "lon": 2.1536566
},
{
  "type": "node",
  "id": 6301392238,
  "lat": 41.4143704,
  "lon": 2.1535759
},
{
  "type": "node",
  "id": 6301393191,
  "lat": 41.4144732,
  "lon": 2.1535038
},
{
  "type": "node",
  "id": 6301393816,
  "lat": 41.4144412,
  "lon": 2.1536512
},
{
  "type": "node",
  "id": 6301394039,
  "lat": 41.4145030,
  "lon": 2.1535793
},
{
  "type": "node",
  "id": 6301394236,
  "lat": 41.4143442,
  "lon": 2.1535964
},
{
  "type": "node",
  "id": 6301395363,
  "lat": 41.4145014,
  "lon": 2.1536057
},
{
  "type": "node",
  "id": 6301395662,
  "lat": 41.4143730,
  "lon": 2.1536616
},
{
  "type": "node",
  "id": 6301395926,
  "lat": 41.4145014,
  "lon": 2.1536119
},
{
  "type": "node",
  "id": 1689716384,
  "lat": 41.4137711,
  "lon": 2.1745584
},
{
  "type": "node",
  "id": 1689716409,
  "lat": 41.4139808,
  "lon": 2.1743077
},
{
  "type": "node",
  "id": 1689716410,
  "lat": 41.4139542,
  "lon": 2.1743720
},
{
  "type": "node",
  "id": 1689716418,
  "lat": 41.4117220,
  "lon": 2.1737748
},
{
  "type": "node",
  "id": 1689716425,
  "lat": 41.4116056,
  "lon": 2.1739285
},
{
  "type": "node",
  "id": 1689716442,
  "lat": 41.4139492,
  "lon": 2.1740859
},
{
  "type": "node",
  "id": 1689716449,
  "lat": 41.4136024,
  "lon": 2.1733980
},
{
  "type": "node",
  "id": 1689716465,
  "lat": 41.4138733,
  "lon": 2.1739540
},
{
  "type": "node",
  "id": 1689716467,
  "lat": 41.4137723,
  "lon": 2.1739527
},
{
  "type": "node",
  "id": 1689716471,
  "lat": 41.4139494,
  "lon": 2.1742745
},
{
  "type": "node",
  "id": 1689716478,
  "lat": 41.4137714,
  "lon": 2.1746931
},
{
  "type": "node",
  "id": 1689716482,
  "lat": 41.4139495,
  "lon": 2.1744189
},
{
  "type": "node",
  "id": 1689716483,
  "lat": 41.4139500,
  "lon": 2.1745592
},
{
  "type": "node",
  "id": 1689716501,
  "lat": 41.4137722,
  "lon": 2.1740847
},
{
  "type": "node",
  "id": 1689716540,
  "lat": 41.4116020,
  "lon": 2.1747157
},
{
  "type": "node",
  "id": 1689716556,
  "lat": 41.4117526,
  "lon": 2.1749106
},
{
  "type": "node",
  "id": 1689716567,
  "lat": 41.4138690,
  "lon": 2.1746944
},
{
  "type": "node",
  "id": 1689716585,
  "lat": 41.4138731,
  "lon": 2.1752469
},
{
  "type": "node",
  "id": 1689716586,
  "lat": 41.4136047,
  "lon": 2.1752424
},
{
  "type": "node",
  "id": 1689716598,
  "lat": 41.4138733,
  "lon": 2.1733998
},
{
  "type": "node",
  "id": 3270683264,
  "lat": 41.4120535,
  "lon": 2.1753236
},
{
  "type": "node",
  "id": 3270683290,
  "lat": 41.4120733,
  "lon": 2.1733297
},
{
  "type": "node",
  "id": 4553128855,
  "lat": 41.4114044,
  "lon": 2.1743267
},
{
  "type": "node",
  "id": 4553128856,
  "lat": 41.4114060,
  "lon": 2.1744447
},
{
  "type": "node",
  "id": 4553128857,
  "lat": 41.4114028,
  "lon": 2.1742124
},
{
  "type": "node",
  "id": 4996807583,
  "lat": 41.4126053,
  "lon": 2.1733357
},
{
  "type": "node",
  "id": 4996807584,
  "lat": 41.4127254,
  "lon": 2.1733371
},
{
  "type": "node",
  "id": 4996807593,
  "lat": 41.4128374,
  "lon": 2.1733384
},
{
  "type": "node",
  "id": 4996807594,
  "lat": 41.4128097,
  "lon": 2.1733380
},
{
  "type": "node",
  "id": 4996807603,
  "lat": 41.4129605,
  "lon": 2.1733398
},
{
  "type": "node",
  "id": 4996807604,
  "lat": 41.4131005,
  "lon": 2.1733413
},
{
  "type": "node",
  "id": 4996807612,
  "lat": 41.4132010,
  "lon": 2.1733425
},
{
  "type": "node",
  "id": 4996807613,
  "lat": 41.4131619,
  "lon": 2.1733420
},
{
  "type": "node",
  "id": 4996807623,
  "lat": 41.4132994,
  "lon": 2.1753304
},
{
  "type": "node",
  "id": 4996807629,
  "lat": 41.4134984,
  "lon": 2.1753288
},
{
  "type": "node",
  "id": 4996807630,
  "lat": 41.4135653,
  "lon": 2.1753283
},
{
  "type": "node",
  "id": 4996807634,
  "lat": 41.4125889,
  "lon": 2.1753359
},
{
  "type": "node",
  "id": 4996807636,
  "lat": 41.4127952,
  "lon": 2.1753343
},
{
  "type": "node",
  "id": 4996807638,
  "lat": 41.4120920,
  "lon": 2.1753397
},
{
  "type": "node",
  "id": 4996807642,
  "lat": 41.4124165,
  "lon": 2.1753373
},
{
  "type": "node",
  "id": 6066217331,
  "lat": 41.4136190,
  "lon": 2.1753278
},
{
  "type": "node",
  "id": 6066217332,
  "lat": 41.4139654,
  "lon": 2.1742818
},
{
  "type": "node",
  "id": 6066217339,
  "lat": 41.4139709,
  "lon": 2.1742869
},
{
  "type": "node",
  "id": 6066217345,
  "lat": 41.4139785,
  "lon": 2.1743471
},
{
  "type": "node",
  "id": 6066217351,
  "lat": 41.4139826,
  "lon": 2.1743245
},
{
  "type": "node",
  "id": 6066217354,
  "lat": 41.4139723,
  "lon": 2.1743582
},
{
  "type": "node",
  "id": 6066217355,
  "lat": 41.4139822,
  "lon": 2.1743319
},
{
  "type": "node",
  "id": 6066217357,
  "lat": 41.4139604,
  "lon": 2.1743687
},
{
  "type": "node",
  "id": 6066217367,
  "lat": 41.4139792,
  "lon": 2.1743025
},
{
  "type": "node",
  "id": 6066217371,
  "lat": 41.4139555,
  "lon": 2.1742763
},
{
  "type": "node",
  "id": 6066217381,
  "lat": 41.4139493,
  "lon": 2.1743727
},
{
  "type": "node",
  "id": 6066217382,
  "lat": 41.4139743,
  "lon": 2.1742923
},
{
  "type": "node",
  "id": 6066217586,
  "lat": 41.4139822,
  "lon": 2.1743144
},
{
  "type": "node",
  "id": 6066217588,
  "lat": 41.4139665,
  "lon": 2.1743644
},
{
  "type": "node",
  "id": 6066217593,
  "lat": 41.4139600,
  "lon": 2.1742782
},
{
  "type": "node",
  "id": 6066284775,
  "lat": 41.4117250,
  "lon": 2.1748794
},
{
  "type": "node",
  "id": 6066284779,
  "lat": 41.4117268,
  "lon": 2.1748770
},
{
  "type": "node",
  "id": 6066284995,
  "lat": 41.4117181,
  "lon": 2.1748705
},
{
  "type": "node",
  "id": 6066285017,
  "lat": 41.4136029,
  "lon": 2.1733470
},
{
  "type": "node",
  "id": 2721657658,
  "lat": 41.4159088,
  "lon": 2.1703571
},
{
  "type": "node",
  "id": 2721657666,
  "lat": 41.4161352,
  "lon": 2.1705494
},
{
  "type": "node",
  "id": 6067354255,
  "lat": 41.4160436,
  "lon": 2.1702274
},
{
  "type": "node",
  "id": 6067354258,
  "lat": 41.4158461,
  "lon": 2.1705032
},
{
  "type": "node",
  "id": 6067354260,
  "lat": 41.4156882,
  "lon": 2.1703688
},
{
  "type": "node",
  "id": 6067354264,
  "lat": 41.4161040,
  "lon": 2.1704165
},
{
  "type": "node",
  "id": 6067354265,
  "lat": 41.4159071,
  "lon": 2.1703607
},
{
  "type": "node",
  "id": 6067354266,
  "lat": 41.4161333,
  "lon": 2.1705533
},
{
  "type": "node",
  "id": 6067354272,
  "lat": 41.4160669,
  "lon": 2.1704918
},
{
  "type": "node",
  "id": 6067354276,
  "lat": 41.4161248,
  "lon": 2.1707396
},
{
  "type": "node",
  "id": 6067354388,
  "lat": 41.4159966,
  "lon": 2.1703248
},
{
  "type": "node",
  "id": 6067354389,
  "lat": 41.4160735,
  "lon": 2.1706664
},
{
  "type": "node",
  "id": 6067354400,
  "lat": 41.4158564,
  "lon": 2.1704820
},
{
  "type": "node",
  "id": 6067354403,
  "lat": 41.4160628,
  "lon": 2.1706867
},
{
  "type": "node",
  "id": 6067354406,
  "lat": 41.4161907,
  "lon": 2.1706014
},
{
  "type": "node",
  "id": 6067354416,
  "lat": 41.4161203,
  "lon": 2.1704301
},
{
  "type": "node",
  "id": 6067354418,
  "lat": 41.4160120,
  "lon": 2.1703377
},
{
  "type": "node",
  "id": 6067354426,
  "lat": 41.4157546,
  "lon": 2.1702300
},
{
  "type": "node",
  "id": 6067354435,
  "lat": 41.4159752,
  "lon": 2.1704142
},
{
  "type": "node",
  "id": 6067354440,
  "lat": 41.4161666,
  "lon": 2.1703291
},
{
  "type": "node",
  "id": 6227547203,
  "lat": 41.4332581,
  "lon": 2.1914824
},
{
  "type": "node",
  "id": 6227547301,
  "lat": 41.4330971,
  "lon": 2.1911405
},
{
  "type": "node",
  "id": 6227547562,
  "lat": 41.4332936,
  "lon": 2.1911790
},
{
  "type": "node",
  "id": 6227547576,
  "lat": 41.4330638,
  "lon": 2.1914458
},
{
  "type": "node",
  "id": 430182914,
  "lat": 41.4113498,
  "lon": 2.2198804
},
{
  "type": "node",
  "id": 430182917,
  "lat": 41.4101847,
  "lon": 2.2213230
},
{
  "type": "node",
  "id": 3139885001,
  "lat": 41.4106270,
  "lon": 2.2214428
},
{
  "type": "node",
  "id": 3139885002,
  "lat": 41.4105974,
  "lon": 2.2214775
},
{
  "type": "node",
  "id": 3139885003,
  "lat": 41.4106526,
  "lon": 2.2214762
},
{
  "type": "node",
  "id": 3139885004,
  "lat": 41.4106369,
  "lon": 2.2214943
},
{
  "type": "node",
  "id": 3139885006,
  "lat": 41.4106902,
  "lon": 2.2206971
},
{
  "type": "node",
  "id": 3139885007,
  "lat": 41.4107026,
  "lon": 2.2206818
},
{
  "type": "node",
  "id": 3139885008,
  "lat": 41.4107026,
  "lon": 2.2207391
},
{
  "type": "node",
  "id": 3139885009,
  "lat": 41.4107110,
  "lon": 2.2207444
},
{
  "type": "node",
  "id": 3139885010,
  "lat": 41.4107369,
  "lon": 2.2206768
},
{
  "type": "node",
  "id": 3139885011,
  "lat": 41.4107490,
  "lon": 2.2207291
},
{
  "type": "node",
  "id": 3139885013,
  "lat": 41.4107936,
  "lon": 2.2215255
},
{
  "type": "node",
  "id": 3139885014,
  "lat": 41.4108113,
  "lon": 2.2215558
},
{
  "type": "node",
  "id": 3139885016,
  "lat": 41.4108203,
  "lon": 2.2215626
},
{
  "type": "node",
  "id": 3139885018,
  "lat": 41.4108200,
  "lon": 2.2214943
},
{
  "type": "node",
  "id": 3139885019,
  "lat": 41.4108444,
  "lon": 2.2215292
},
{
  "type": "node",
  "id": 3139885020,
  "lat": 41.4109135,
  "lon": 2.2204207
},
{
  "type": "node",
  "id": 3139885021,
  "lat": 41.4109459,
  "lon": 2.2203805
},
{
  "type": "node",
  "id": 3139885023,
  "lat": 41.4109510,
  "lon": 2.2204024
},
{
  "type": "node",
  "id": 3139885024,
  "lat": 41.4111249,
  "lon": 2.2201589
},
{
  "type": "node",
  "id": 3139885025,
  "lat": 41.4111360,
  "lon": 2.2201961
},
{
  "type": "node",
  "id": 3139885026,
  "lat": 41.4111444,
  "lon": 2.2201348
},
{
  "type": "node",
  "id": 3139885027,
  "lat": 41.4111580,
  "lon": 2.2201264
},
{
  "type": "node",
  "id": 3139885028,
  "lat": 41.4111719,
  "lon": 2.2201781
},
{
  "type": "node",
  "id": 3139885238,
  "lat": 41.4114305,
  "lon": 2.2203466
},
{
  "type": "node",
  "id": 3139885240,
  "lat": 41.4114428,
  "lon": 2.2203951
},
{
  "type": "node",
  "id": 3139885243,
  "lat": 41.4114571,
  "lon": 2.2203324
},
{
  "type": "node",
  "id": 3139885244,
  "lat": 41.4114693,
  "lon": 2.2203838
},
{
  "type": "node",
  "id": 3139885245,
  "lat": 41.4114948,
  "lon": 2.2205963
},
{
  "type": "node",
  "id": 3139885246,
  "lat": 41.4114971,
  "lon": 2.2205014
},
{
  "type": "node",
  "id": 3139885247,
  "lat": 41.4115080,
  "lon": 2.2205471
},
{
  "type": "node",
  "id": 3139885248,
  "lat": 41.4115171,
  "lon": 2.2205855
},
{
  "type": "node",
  "id": 3139885249,
  "lat": 41.4115178,
  "lon": 2.2205368
},
{
  "type": "node",
  "id": 3139885250,
  "lat": 41.4115212,
  "lon": 2.2206943
},
{
  "type": "node",
  "id": 3139885251,
  "lat": 41.4115415,
  "lon": 2.2206841
},
{
  "type": "node",
  "id": 3139885259,
  "lat": 41.4116419,
  "lon": 2.2212248
},
{
  "type": "node",
  "id": 3139885260,
  "lat": 41.4116493,
  "lon": 2.2212135
},
{
  "type": "node",
  "id": 3139885261,
  "lat": 41.4116538,
  "lon": 2.2212705
},
{
  "type": "node",
  "id": 3139885262,
  "lat": 41.4116650,
  "lon": 2.2212073
},
{
  "type": "node",
  "id": 3139885263,
  "lat": 41.4116775,
  "lon": 2.2212601
},
{
  "type": "node",
  "id": 3139885264,
  "lat": 41.4116886,
  "lon": 2.2213878
},
{
  "type": "node",
  "id": 3139885265,
  "lat": 41.4116992,
  "lon": 2.2214330
},
{
  "type": "node",
  "id": 3139885266,
  "lat": 41.4117061,
  "lon": 2.2213812
},
{
  "type": "node",
  "id": 3139885268,
  "lat": 41.4117169,
  "lon": 2.2214270
},
{
  "type": "node",
  "id": 430182915,
  "lat": 41.4118406,
  "lon": 2.2219506
},
{
  "type": "node",
  "id": 3139885230,
  "lat": 41.4112416,
  "lon": 2.2217236
},
{
  "type": "node",
  "id": 3139885232,
  "lat": 41.4112722,
  "lon": 2.2217073
},
{
  "type": "node",
  "id": 3139885233,
  "lat": 41.4112830,
  "lon": 2.2217393
},
{
  "type": "node",
  "id": 3139885236,
  "lat": 41.4114077,
  "lon": 2.2217865
},
{
  "type": "node",
  "id": 3139885237,
  "lat": 41.4114298,
  "lon": 2.2217778
},
{
  "type": "node",
  "id": 3139885239,
  "lat": 41.4114369,
  "lon": 2.2217976
},
{
  "type": "node",
  "id": 3139885254,
  "lat": 41.4115752,
  "lon": 2.2218500
},
{
  "type": "node",
  "id": 3139885267,
  "lat": 41.4117065,
  "lon": 2.2218998
},
{
  "type": "node",
  "id": 3139885269,
  "lat": 41.4117669,
  "lon": 2.2216874
},
{
  "type": "node",
  "id": 3139885270,
  "lat": 41.4117770,
  "lon": 2.2216813
},
{
  "type": "node",
  "id": 3139885271,
  "lat": 41.4117809,
  "lon": 2.2217321
},
{
  "type": "node",
  "id": 3139885272,
  "lat": 41.4117888,
  "lon": 2.2217315
},
{
  "type": "node",
  "id": 6031738767,
  "lat": 41.4282003,
  "lon": 2.2123908
},
{
  "type": "node",
  "id": 6031738769,
  "lat": 41.4282562,
  "lon": 2.2122823
},
{
  "type": "node",
  "id": 6031738770,
  "lat": 41.4281828,
  "lon": 2.2124306
},
{
  "type": "node",
  "id": 6031738771,
  "lat": 41.4281139,
  "lon": 2.2123673
},
{
  "type": "node",
  "id": 6031738772,
  "lat": 41.4281646,
  "lon": 2.2121984
},
{
  "type": "node",
  "id": 6031738775,
  "lat": 41.4280727,
  "lon": 2.2125056
},
{
  "type": "node",
  "id": 6031738776,
  "lat": 41.4281956,
  "lon": 2.2123999
},
{
  "type": "node",
  "id": 6031738777,
  "lat": 41.4281298,
  "lon": 2.2125580
},
{
  "type": "node",
  "id": 6031738779,
  "lat": 41.4281347,
  "lon": 2.2123864
},
{
  "type": "node",
  "id": 6031738781,
  "lat": 41.4282494,
  "lon": 2.2122955
},
{
  "type": "node",
  "id": 6031738784,
  "lat": 41.4280888,
  "lon": 2.2123444
},
{
  "type": "node",
  "id": 1089104408,
  "lat": 41.4807856,
  "lon": 2.1344832
},
{
  "type": "node",
  "id": 2735710186,
  "lat": 41.4809621,
  "lon": 2.1339109
},
{
  "type": "node",
  "id": 2735710187,
  "lat": 41.4808700,
  "lon": 2.1338475
},
{
  "type": "node",
  "id": 2735710188,
  "lat": 41.4807635,
  "lon": 2.1340004
},
{
  "type": "node",
  "id": 2735710189,
  "lat": 41.4807976,
  "lon": 2.1340406
},
{
  "type": "node",
  "id": 2735710190,
  "lat": 41.4807976,
  "lon": 2.1341023
},
{
  "type": "node",
  "id": 2735710191,
  "lat": 41.4807588,
  "lon": 2.1341917
},
{
  "type": "node",
  "id": 2735710193,
  "lat": 41.4808767,
  "lon": 2.1345163
},
{
  "type": "node",
  "id": 2735710194,
  "lat": 41.4809445,
  "lon": 2.1341613
},
{
  "type": "node",
  "id": 2735710195,
  "lat": 41.4809383,
  "lon": 2.1340943
},
{
  "type": "node",
  "id": 2749484330,
  "lat": 41.4809642,
  "lon": 2.1340338
},
{
  "type": "node",
  "id": 6019834295,
  "lat": 41.4544965,
  "lon": 2.1893239
},
{
  "type": "node",
  "id": 6019834296,
  "lat": 41.4544329,
  "lon": 2.1891486
},
{
  "type": "node",
  "id": 6019834297,
  "lat": 41.4544965,
  "lon": 2.1891089
},
{
  "type": "node",
  "id": 6019834298,
  "lat": 41.4545604,
  "lon": 2.1892832
},
{
  "type": "node",
  "id": 6111407156,
  "lat": 41.4545501,
  "lon": 2.1892907
},
{
  "type": "node",
  "id": 6111407161,
  "lat": 41.4545086,
  "lon": 2.1893177
},
{
  "type": "node",
  "id": 4499255263,
  "lat": 41.4721744,
  "lon": 2.1866560
},
{
  "type": "node",
  "id": 4499255264,
  "lat": 41.4721880,
  "lon": 2.1868023
},
{
  "type": "node",
  "id": 4499255265,
  "lat": 41.4722954,
  "lon": 2.1867997
},
{
  "type": "node",
  "id": 4499255266,
  "lat": 41.4723088,
  "lon": 2.1868872
},
{
  "type": "node",
  "id": 4499255267,
  "lat": 41.4721905,
  "lon": 2.1869022
},
{
  "type": "node",
  "id": 4499255268,
  "lat": 41.4721904,
  "lon": 2.1868858
},
{
  "type": "node",
  "id": 4499255269,
  "lat": 41.4720739,
  "lon": 2.1868877
},
{
  "type": "node",
  "id": 4499255270,
  "lat": 41.4720740,
  "lon": 2.1869032
},
{
  "type": "node",
  "id": 4499255271,
  "lat": 41.4719184,
  "lon": 2.1868927
},
{
  "type": "node",
  "id": 4499255272,
  "lat": 41.4719240,
  "lon": 2.1868056
},
{
  "type": "node",
  "id": 4499255273,
  "lat": 41.4720697,
  "lon": 2.1868044
},
{
  "type": "node",
  "id": 4499255274,
  "lat": 41.4720823,
  "lon": 2.1866562
},
{
  "type": "node",
  "id": 6024634050,
  "lat": 41.4720729,
  "lon": 2.1868005
},
{
  "type": "node",
  "id": 6024634052,
  "lat": 41.4719180,
  "lon": 2.1868010
},
{
  "type": "node",
  "id": 6024634066,
  "lat": 41.4721972,
  "lon": 2.1867117
},
{
  "type": "node",
  "id": 6024634072,
  "lat": 41.4720698,
  "lon": 2.1868005
},
{
  "type": "node",
  "id": 6024634073,
  "lat": 41.4722974,
  "lon": 2.1868877
},
{
  "type": "node",
  "id": 6024634075,
  "lat": 41.4723081,
  "lon": 2.1867952
},
{
  "type": "node",
  "id": 6024634077,
  "lat": 41.4719301,
  "lon": 2.1868889
},
{
  "type": "node",
  "id": 6024634078,
  "lat": 41.4720823,
  "lon": 2.1866533
},
{
  "type": "node",
  "id": 6024634082,
  "lat": 41.4720599,
  "lon": 2.1867180
},
{
  "type": "node",
  "id": 6024634083,
  "lat": 41.4720596,
  "lon": 2.1866565
},
{
  "type": "node",
  "id": 6024635485,
  "lat": 41.4722954,
  "lon": 2.1867951
},
{
  "type": "node",
  "id": 6024635486,
  "lat": 41.4721891,
  "lon": 2.1867118
},
{
  "type": "node",
  "id": 6024635490,
  "lat": 41.4721969,
  "lon": 2.1866557
},
{
  "type": "node",
  "id": 6024635493,
  "lat": 41.4721744,
  "lon": 2.1866524
},
{
  "type": "node",
  "id": 6024635494,
  "lat": 41.4720724,
  "lon": 2.1867180
},
{
  "type": "node",
  "id": 6024635497,
  "lat": 41.4722968,
  "lon": 2.1868831
},
{
  "type": "node",
  "id": 6024635499,
  "lat": 41.4719239,
  "lon": 2.1868009
},
{
  "type": "node",
  "id": 6024635504,
  "lat": 41.4719302,
  "lon": 2.1868926
},
{
  "type": "node",
  "id": 6757735480,
  "lat": 41.4886668,
  "lon": 2.1357952
},
{
  "type": "node",
  "id": 6757735481,
  "lat": 41.4884954,
  "lon": 2.1358816
},
{
  "type": "node",
  "id": 6757735482,
  "lat": 41.4885391,
  "lon": 2.1360684
},
{
  "type": "node",
  "id": 6757735483,
  "lat": 41.4887088,
  "lon": 2.1359540
},
{
  "type": "node",
  "id": 7008654889,
  "lat": 41.4907406,
  "lon": 2.1405644
},
{
  "type": "node",
  "id": 7008654890,
  "lat": 41.4906048,
  "lon": 2.1406123
},
{
  "type": "node",
  "id": 7008654891,
  "lat": 41.4906229,
  "lon": 2.1407195
},
{
  "type": "node",
  "id": 7008654892,
  "lat": 41.4907611,
  "lon": 2.1406807
},
{
  "type": "node",
  "id": 3533778399,
  "lat": 41.4997834,
  "lon": 2.1527075
},
{
  "type": "node",
  "id": 3533778443,
  "lat": 41.4994780,
  "lon": 2.1528899
},
{
  "type": "node",
  "id": 3533778444,
  "lat": 41.4993695,
  "lon": 2.1528040
},
{
  "type": "node",
  "id": 3533778454,
  "lat": 41.4995142,
  "lon": 2.1524768
},
{
  "type": "node",
  "id": 3533778457,
  "lat": 41.4996347,
  "lon": 2.1529703
},
{
  "type": "node",
  "id": 3533778458,
  "lat": 41.4997271,
  "lon": 2.1529757
},
{
  "type": "node",
  "id": 5539736207,
  "lat": 41.4468673,
  "lon": 2.2094835
},
{
  "type": "node",
  "id": 5539736925,
  "lat": 41.4469115,
  "lon": 2.2094783
},
{
  "type": "node",
  "id": 5539736934,
  "lat": 41.4469595,
  "lon": 2.2091352
},
{
  "type": "node",
  "id": 5539736942,
  "lat": 41.4470496,
  "lon": 2.2092730
},
{
  "type": "node",
  "id": 5539736947,
  "lat": 41.4469876,
  "lon": 2.2094294
},
{
  "type": "node",
  "id": 5539736950,
  "lat": 41.4469447,
  "lon": 2.2096083
},
{
  "type": "node",
  "id": 5539736952,
  "lat": 41.4469988,
  "lon": 2.2094867
},
{
  "type": "node",
  "id": 5539736954,
  "lat": 41.4470031,
  "lon": 2.2094639
},
{
  "type": "node",
  "id": 5539736959,
  "lat": 41.4469581,
  "lon": 2.2093280
},
{
  "type": "node",
  "id": 5539736967,
  "lat": 41.4468661,
  "lon": 2.2094512
},
{
  "type": "node",
  "id": 5539736979,
  "lat": 41.4469401,
  "lon": 2.2094719
},
{
  "type": "node",
  "id": 5539736982,
  "lat": 41.4469985,
  "lon": 2.2094436
},
{
  "type": "node",
  "id": 5539736998,
  "lat": 41.4469492,
  "lon": 2.2096118
},
{
  "type": "node",
  "id": 5539737007,
  "lat": 41.4469511,
  "lon": 2.2094993
},
{
  "type": "node",
  "id": 5539737035,
  "lat": 41.4469644,
  "lon": 2.2091426
},
{
  "type": "node",
  "id": 5539737037,
  "lat": 41.4469958,
  "lon": 2.2094389
},
{
  "type": "node",
  "id": 5539737061,
  "lat": 41.4470724,
  "lon": 2.2093158
},
{
  "type": "node",
  "id": 5539737063,
  "lat": 41.4469338,
  "lon": 2.2096000
},
{
  "type": "node",
  "id": 5539737074,
  "lat": 41.4469004,
  "lon": 2.2091886
},
{
  "type": "node",
  "id": 5539737077,
  "lat": 41.4469528,
  "lon": 2.2094328
},
{
  "type": "node",
  "id": 5539737078,
  "lat": 41.4469528,
  "lon": 2.2096130
},
{
  "type": "node",
  "id": 5539737092,
  "lat": 41.4468749,
  "lon": 2.2094200
},
{
  "type": "node",
  "id": 5539737099,
  "lat": 41.4469168,
  "lon": 2.2093737
},
{
  "type": "node",
  "id": 5539737117,
  "lat": 41.4469704,
  "lon": 2.2094236
},
{
  "type": "node",
  "id": 5539737224,
  "lat": 41.4468654,
  "lon": 2.2094740
},
{
  "type": "node",
  "id": 5539737242,
  "lat": 41.4469418,
  "lon": 2.2094515
},
{
  "type": "node",
  "id": 5539737249,
  "lat": 41.4470656,
  "lon": 2.2095039
},
{
  "type": "node",
  "id": 5539737274,
  "lat": 41.4470591,
  "lon": 2.2094824
},
{
  "type": "node",
  "id": 5539737282,
  "lat": 41.4469439,
  "lon": 2.2094874
},
{
  "type": "node",
  "id": 5539737285,
  "lat": 41.4469393,
  "lon": 2.2096048
},
{
  "type": "node",
  "id": 5539737289,
  "lat": 41.4468653,
  "lon": 2.2094596
},
{
  "type": "node",
  "id": 5539737294,
  "lat": 41.4469557,
  "lon": 2.2095028
},
{
  "type": "node",
  "id": 5539737295,
  "lat": 41.4468682,
  "lon": 2.2094907
},
{
  "type": "node",
  "id": 5539737298,
  "lat": 41.4469479,
  "lon": 2.2094381
},
{
  "type": "node",
  "id": 5539737300,
  "lat": 41.4469609,
  "lon": 2.2096129
},
{
  "type": "node",
  "id": 5539737307,
  "lat": 41.4469038,
  "lon": 2.2095633
},
{
  "type": "node",
  "id": 5539737308,
  "lat": 41.4469559,
  "lon": 2.2094294
},
{
  "type": "node",
  "id": 5539737311,
  "lat": 41.4471172,
  "lon": 2.2094218
},
{
  "type": "node",
  "id": 5539737316,
  "lat": 41.4468756,
  "lon": 2.2095145
},
{
  "type": "node",
  "id": 5539737317,
  "lat": 41.4470003,
  "lon": 2.2094484
},
{
  "type": "node",
  "id": 5539737324,
  "lat": 41.4469614,
  "lon": 2.2094261
},
{
  "type": "node",
  "id": 5539737325,
  "lat": 41.4469636,
  "lon": 2.2096117
},
{
  "type": "node",
  "id": 5539737330,
  "lat": 41.4468802,
  "lon": 2.2095241
},
{
  "type": "node",
  "id": 5539737331,
  "lat": 41.4469672,
  "lon": 2.2096092
},
{
  "type": "node",
  "id": 5539737336,
  "lat": 41.4469710,
  "lon": 2.2095086
},
{
  "type": "node",
  "id": 5539737349,
  "lat": 41.4468696,
  "lon": 2.2094296
},
{
  "type": "node",
  "id": 5539737353,
  "lat": 41.4469411,
  "lon": 2.2094802
},
{
  "type": "node",
  "id": 5539737381,
  "lat": 41.4469102,
  "lon": 2.2095728
},
{
  "type": "node",
  "id": 5539737392,
  "lat": 41.4469611,
  "lon": 2.2095063
},
{
  "type": "node",
  "id": 5539737402,
  "lat": 41.4469917,
  "lon": 2.2094988
},
{
  "type": "node",
  "id": 5539737407,
  "lat": 41.4469196,
  "lon": 2.2092291
},
{
  "type": "node",
  "id": 5539737411,
  "lat": 41.4469921,
  "lon": 2.2094341
},
{
  "type": "node",
  "id": 5539737412,
  "lat": 41.4469401,
  "lon": 2.2094647
},
{
  "type": "node",
  "id": 5539737420,
  "lat": 41.4469822,
  "lon": 2.2094271
},
{
  "type": "node",
  "id": 5539737422,
  "lat": 41.4470022,
  "lon": 2.2094556
},
{
  "type": "node",
  "id": 5539737446,
  "lat": 41.4470014,
  "lon": 2.2094795
},
{
  "type": "node",
  "id": 5539737451,
  "lat": 41.4469764,
  "lon": 2.2095085
},
{
  "type": "node",
  "id": 5539737454,
  "lat": 41.4469952,
  "lon": 2.2094939
},
{
  "type": "node",
  "id": 5539737457,
  "lat": 41.4470032,
  "lon": 2.2094723
},
{
  "type": "node",
  "id": 5539737465,
  "lat": 41.4469873,
  "lon": 2.2095037
},
{
  "type": "node",
  "id": 5539737472,
  "lat": 41.4470481,
  "lon": 2.2094526
},
{
  "type": "node",
  "id": 3219390397,
  "lat": 41.4391627,
  "lon": 2.2434221
},
{
  "type": "node",
  "id": 3219390398,
  "lat": 41.4390858,
  "lon": 2.2435836
},
{
  "type": "node",
  "id": 3219390399,
  "lat": 41.4385603,
  "lon": 2.2431408
},
{
  "type": "node",
  "id": 3219390400,
  "lat": 41.4386355,
  "lon": 2.2429786
},
{
  "type": "node",
  "id": 3219390401,
  "lat": 41.4388660,
  "lon": 2.2433968
},
{
  "type": "node",
  "id": 3219390402,
  "lat": 41.4387767,
  "lon": 2.2433224
},
{
  "type": "node",
  "id": 3219390403,
  "lat": 41.4388088,
  "lon": 2.2435152
},
{
  "type": "node",
  "id": 3219390404,
  "lat": 41.4387202,
  "lon": 2.2434407
},
{
  "type": "node",
  "id": 2129394268,
  "lat": 41.4522851,
  "lon": 2.2476902
},
{
  "type": "node",
  "id": 2129394299,
  "lat": 41.4521608,
  "lon": 2.2475198
},
{
  "type": "node",
  "id": 4273641881,
  "lat": 41.4520258,
  "lon": 2.2476908
},
{
  "type": "node",
  "id": 5819337623,
  "lat": 41.4522722,
  "lon": 2.2477054
},
{
  "type": "node",
  "id": 5819337624,
  "lat": 41.4522599,
  "lon": 2.2477218
},
{
  "type": "node",
  "id": 5819337625,
  "lat": 41.4522328,
  "lon": 2.2477509
},
{
  "type": "node",
  "id": 5819337626,
  "lat": 41.4522057,
  "lon": 2.2477708
},
{
  "type": "node",
  "id": 5819337627,
  "lat": 41.4521707,
  "lon": 2.2477778
},
{
  "type": "node",
  "id": 5819337628,
  "lat": 41.4521374,
  "lon": 2.2477813
},
{
  "type": "node",
  "id": 5819337629,
  "lat": 41.4520954,
  "lon": 2.2477626
},
{
  "type": "node",
  "id": 5819337630,
  "lat": 41.4520508,
  "lon": 2.2477218
},
{
  "type": "node",
  "id": 2180920833,
  "lat": 41.5348777,
  "lon": 2.2161312
},
{
  "type": "node",
  "id": 2180920834,
  "lat": 41.5349235,
  "lon": 2.2160225
},
{
  "type": "node",
  "id": 2180920835,
  "lat": 41.5349631,
  "lon": 2.2162464
},
{
  "type": "node",
  "id": 2180920836,
  "lat": 41.5349955,
  "lon": 2.2162044
},
{
  "type": "node",
  "id": 2180920837,
  "lat": 41.5350274,
  "lon": 2.2161631
},
{
  "type": "node",
  "id": 2180920838,
  "lat": 41.5353275,
  "lon": 2.2158901
},
{
  "type": "node",
  "id": 2180920839,
  "lat": 41.5354081,
  "lon": 2.2157858
},
{
  "type": "node",
  "id": 2180920840,
  "lat": 41.5355855,
  "lon": 2.2162492
},
{
  "type": "node",
  "id": 2180920841,
  "lat": 41.5356685,
  "lon": 2.2161421
},
{
  "type": "node",
  "id": 4865617938,
  "lat": 41.5353963,
  "lon": 2.2159847
},
{
  "type": "node",
  "id": 4865618124,
  "lat": 41.5355420,
  "lon": 2.2161875
},
{
  "type": "node",
  "id": 4865618127,
  "lat": 41.5355069,
  "lon": 2.2161377
},
{
  "type": "node",
  "id": 4865618132,
  "lat": 41.5354786,
  "lon": 2.2160979
},
{
  "type": "node",
  "id": 4865618133,
  "lat": 41.5355601,
  "lon": 2.2159937
},
{
  "type": "node",
  "id": 4865618134,
  "lat": 41.5355098,
  "lon": 2.2160944
},
{
  "type": "node",
  "id": 4865618135,
  "lat": 41.5355029,
  "lon": 2.2160855
},
{
  "type": "node",
  "id": 4865618136,
  "lat": 41.5354854,
  "lon": 2.2161072
},
{
  "type": "node",
  "id": 4865618137,
  "lat": 41.5354927,
  "lon": 2.2161176
},
{
  "type": "node",
  "id": 5097180783,
  "lat": 41.5349460,
  "lon": 2.2162233
},
{
  "type": "node",
  "id": 5097180792,
  "lat": 41.5348911,
  "lon": 2.2160622
},
{
  "type": "node",
  "id": 5097180795,
  "lat": 41.5349119,
  "lon": 2.2160375
},
{
  "type": "node",
  "id": 5097180799,
  "lat": 41.5350082,
  "lon": 2.2161371
},
{
  "type": "node",
  "id": 5097180800,
  "lat": 41.5348708,
  "lon": 2.2160336
},
{
  "type": "node",
  "id": 5097180801,
  "lat": 41.5348806,
  "lon": 2.2160215
},
{
  "type": "node",
  "id": 5097180802,
  "lat": 41.5349016,
  "lon": 2.2160508
},
{
  "type": "node",
  "id": 5097180803,
  "lat": 41.5349096,
  "lon": 2.2160882
},
{
  "type": "node",
  "id": 569987431,
  "lat": 41.4889266,
  "lon": 2.3524513
},
{
  "type": "node",
  "id": 569987432,
  "lat": 41.4886022,
  "lon": 2.3526114
},
{
  "type": "node",
  "id": 569987434,
  "lat": 41.4889632,
  "lon": 2.3526149
},
{
  "type": "node",
  "id": 569987433,
  "lat": 41.4886347,
  "lon": 2.3527716
},
{
  "type": "node",
  "id": 830359633,
  "lat": 41.5028053,
  "lon": 2.3905060
},
{
  "type": "node",
  "id": 830575723,
  "lat": 41.5026630,
  "lon": 2.3906242
},
{
  "type": "node",
  "id": 830575842,
  "lat": 41.5027303,
  "lon": 2.3907685
},
{
  "type": "node",
  "id": 830575890,
  "lat": 41.5028725,
  "lon": 2.3906503
},
{
  "type": "node",
  "id": 838772972,
  "lat": 41.5032074,
  "lon": 2.3946898
},
{
  "type": "node",
  "id": 838773194,
  "lat": 41.5031498,
  "lon": 2.3947346
},
{
  "type": "node",
  "id": 838773375,
  "lat": 41.5030375,
  "lon": 2.3944729
},
{
  "type": "node",
  "id": 838773539,
  "lat": 41.5031019,
  "lon": 2.3944300
},
{
  "type": "node",
  "id": 838773134,
  "lat": 41.5075725,
  "lon": 2.3900806
},
{
  "type": "node",
  "id": 838773136,
  "lat": 41.5117091,
  "lon": 2.3868421
},
{
  "type": "node",
  "id": 838773202,
  "lat": 41.5119686,
  "lon": 2.3859339
},
{
  "type": "node",
  "id": 838773338,
  "lat": 41.5077001,
  "lon": 2.3902863
},
{
  "type": "node",
  "id": 838773340,
  "lat": 41.5115985,
  "lon": 2.3866590
},
{
  "type": "node",
  "id": 838773391,
  "lat": 41.5120946,
  "lon": 2.3861247
},
{
  "type": "node",
  "id": 838773513,
  "lat": 41.5077676,
  "lon": 2.3902116
},
{
  "type": "node",
  "id": 838773642,
  "lat": 41.5076400,
  "lon": 2.3900059
},
{
  "type": "node",
  "id": 1568860249,
  "lat": 41.5657366,
  "lon": 2.0083496
},
{
  "type": "node",
  "id": 1568860252,
  "lat": 41.5658731,
  "lon": 2.0082986
},
{
  "type": "node",
  "id": 1568860255,
  "lat": 41.5643981,
  "lon": 2.0082262
},
{
  "type": "node",
  "id": 1568860258,
  "lat": 41.5645663,
  "lon": 2.0088841
},
{
  "type": "node",
  "id": 1568860260,
  "lat": 41.5659955,
  "lon": 2.0075020
},
{
  "type": "node",
  "id": 1568860261,
  "lat": 41.5655660,
  "lon": 2.0084327
},
{
  "type": "node",
  "id": 1568860461,
  "lat": 41.5648373,
  "lon": 2.0078864
},
{
  "type": "node",
  "id": 1568860501,
  "lat": 41.5647859,
  "lon": 2.0076435
},
{
  "type": "node",
  "id": 1568860504,
  "lat": 41.5653149,
  "lon": 2.0073499
},
{
  "type": "node",
  "id": 1568860505,
  "lat": 41.5652951,
  "lon": 2.0072955
},
{
  "type": "node",
  "id": 1568860890,
  "lat": 41.5647403,
  "lon": 2.0076818
},
{
  "type": "node",
  "id": 1568860893,
  "lat": 41.5654557,
  "lon": 2.0072660
},
{
  "type": "node",
  "id": 1568860894,
  "lat": 41.5654476,
  "lon": 2.0072284
},
{
  "type": "node",
  "id": 1568860895,
  "lat": 41.5653312,
  "lon": 2.0072874
},
{
  "type": "node",
  "id": 1568860896,
  "lat": 41.5655095,
  "lon": 2.0072373
},
{
  "type": "node",
  "id": 1568861025,
  "lat": 41.5653434,
  "lon": 2.0073365
},
{
  "type": "node",
  "id": 1568861026,
  "lat": 41.5656701,
  "lon": 2.0074116
},
{
  "type": "node",
  "id": 1568861027,
  "lat": 41.5658567,
  "lon": 2.0072587
},
{
  "type": "node",
  "id": 1568861050,
  "lat": 41.5659092,
  "lon": 2.0072365
},
{
  "type": "node",
  "id": 1574114144,
  "lat": 41.5655834,
  "lon": 2.0072000
},
{
  "type": "node",
  "id": 6378813376,
  "lat": 41.5653866,
  "lon": 2.0072593
},
{
  "type": "node",
  "id": 1826238004,
  "lat": 41.5626948,
  "lon": 2.0122031
},
{
  "type": "node",
  "id": 1826238007,
  "lat": 41.5627519,
  "lon": 2.0124920
},
{
  "type": "node",
  "id": 1826238009,
  "lat": 41.5628870,
  "lon": 2.0121013
},
{
  "type": "node",
  "id": 1826238010,
  "lat": 41.5628919,
  "lon": 2.0121322
},
{
  "type": "node",
  "id": 1826238013,
  "lat": 41.5629217,
  "lon": 2.0123957
},
{
  "type": "node",
  "id": 1826238035,
  "lat": 41.5629565,
  "lon": 2.0120592
},
{
  "type": "node",
  "id": 1826238037,
  "lat": 41.5629897,
  "lon": 2.0122474
},
{
  "type": "node",
  "id": 1826238040,
  "lat": 41.5630029,
  "lon": 2.0123625
},
{
  "type": "node",
  "id": 1826238042,
  "lat": 41.5630278,
  "lon": 2.0124665
},
{
  "type": "node",
  "id": 1826238045,
  "lat": 41.5630344,
  "lon": 2.0123182
},
{
  "type": "node",
  "id": 1826238048,
  "lat": 41.5630559,
  "lon": 2.0124532
},
{
  "type": "node",
  "id": 1826238051,
  "lat": 41.5630671,
  "lon": 2.0122226
},
{
  "type": "node",
  "id": 1826238055,
  "lat": 41.5630842,
  "lon": 2.0123046
},
{
  "type": "node",
  "id": 4929991410,
  "lat": 41.5629702,
  "lon": 2.0121368
},
{
  "type": "node",
  "id": 1164708617,
  "lat": 41.5652318,
  "lon": 2.0196253
},
{
  "type": "node",
  "id": 1164708633,
  "lat": 41.5653226,
  "lon": 2.0192877
},
{
  "type": "node",
  "id": 1164708645,
  "lat": 41.5650986,
  "lon": 2.0192374
},
{
  "type": "node",
  "id": 1164708658,
  "lat": 41.5652761,
  "lon": 2.0196734
},
{
  "type": "node",
  "id": 1164708673,
  "lat": 41.5650267,
  "lon": 2.0193100
},
{
  "type": "node",
  "id": 1164708687,
  "lat": 41.5653723,
  "lon": 2.0193567
},
{
  "type": "node",
  "id": 1164708708,
  "lat": 41.5652073,
  "lon": 2.0191769
},
{
  "type": "node",
  "id": 1164708746,
  "lat": 41.5651047,
  "lon": 2.0195383
},
{
  "type": "node",
  "id": 1164708763,
  "lat": 41.5653508,
  "lon": 2.0193687
},
{
  "type": "node",
  "id": 1164708774,
  "lat": 41.5652029,
  "lon": 2.0196269
},
{
  "type": "node",
  "id": 1164708817,
  "lat": 41.5652595,
  "lon": 2.0196118
},
{
  "type": "node",
  "id": 1164708830,
  "lat": 41.5651064,
  "lon": 2.0192621
},
{
  "type": "node",
  "id": 1164708847,
  "lat": 41.5654464,
  "lon": 2.0195793
},
{
  "type": "node",
  "id": 1164708876,
  "lat": 41.5651349,
  "lon": 2.0195822
},
{
  "type": "node",
  "id": 2148105708,
  "lat": 41.5651590,
  "lon": 2.0196080
},
{
  "type": "node",
  "id": 2148105710,
  "lat": 41.5651773,
  "lon": 2.0196198
},
{
  "type": "node",
  "id": 1568860259,
  "lat": 41.5662323,
  "lon": 2.0081913
},
{
  "type": "node",
  "id": 6071376835,
  "lat": 41.6164609,
  "lon": 2.0859605
},
{
  "type": "node",
  "id": 6071376836,
  "lat": 41.6164900,
  "lon": 2.0857803
},
{
  "type": "node",
  "id": 6071376837,
  "lat": 41.6165353,
  "lon": 2.0858440
},
{
  "type": "node",
  "id": 6071376838,
  "lat": 41.6164214,
  "lon": 2.0860198
},
{
  "type": "node",
  "id": 6071376839,
  "lat": 41.6164469,
  "lon": 2.0860537
},
{
  "type": "node",
  "id": 6071376840,
  "lat": 41.6163618,
  "lon": 2.0861811
},
{
  "type": "node",
  "id": 6071376841,
  "lat": 41.6162849,
  "lon": 2.0860862
},
{
  "type": "node",
  "id": 1955175317,
  "lat": 41.5479152,
  "lon": 2.1081395
},
{
  "type": "node",
  "id": 1955175318,
  "lat": 41.5479733,
  "lon": 2.1080706
},
{
  "type": "node",
  "id": 3737278814,
  "lat": 41.5474369,
  "lon": 2.1063300
},
{
  "type": "node",
  "id": 3737278815,
  "lat": 41.5472786,
  "lon": 2.1061515
},
{
  "type": "node",
  "id": 3737278816,
  "lat": 41.5471936,
  "lon": 2.1062860
},
{
  "type": "node",
  "id": 3737278817,
  "lat": 41.5473520,
  "lon": 2.1064645
},
{
  "type": "node",
  "id": 4406507020,
  "lat": 41.5472755,
  "lon": 2.1061563
},
{
  "type": "node",
  "id": 6660693657,
  "lat": 41.5478044,
  "lon": 2.1079859
},
{
  "type": "node",
  "id": 6660693660,
  "lat": 41.5478975,
  "lon": 2.1081462
},
{
  "type": "node",
  "id": 6660693681,
  "lat": 41.5480340,
  "lon": 2.1080874
},
{
  "type": "node",
  "id": 6660693682,
  "lat": 41.5480006,
  "lon": 2.1080396
},
{
  "type": "node",
  "id": 6660693713,
  "lat": 41.5478660,
  "lon": 2.1079271
},
{
  "type": "node",
  "id": 6660693714,
  "lat": 41.5479284,
  "lon": 2.1080302
},
{
  "type": "node",
  "id": 6660693715,
  "lat": 41.5480136,
  "lon": 2.1079276
},
{
  "type": "node",
  "id": 6660693716,
  "lat": 41.5479590,
  "lon": 2.1078386
},
{
  "type": "node",
  "id": 6660693717,
  "lat": 41.5481300,
  "lon": 2.1076806
},
{
  "type": "node",
  "id": 6660693718,
  "lat": 41.5482074,
  "lon": 2.1077967
},
{
  "type": "node",
  "id": 6660693719,
  "lat": 41.5481357,
  "lon": 2.1078783
},
{
  "type": "node",
  "id": 6660693720,
  "lat": 41.5480682,
  "lon": 2.1079570
},
{
  "type": "node",
  "id": 6660693721,
  "lat": 41.5481007,
  "lon": 2.1080091
},
{
  "type": "node",
  "id": 5379684714,
  "lat": 41.5523554,
  "lon": 2.2495766
},
{
  "type": "node",
  "id": 5379684715,
  "lat": 41.5522917,
  "lon": 2.2497467
},
{
  "type": "node",
  "id": 5379684716,
  "lat": 41.5524559,
  "lon": 2.2498542
},
{
  "type": "node",
  "id": 5379684717,
  "lat": 41.5525028,
  "lon": 2.2497154
},
{
  "type": "node",
  "id": 1878622677,
  "lat": 41.6015082,
  "lon": 2.2879361
},
{
  "type": "node",
  "id": 1878622691,
  "lat": 41.6015527,
  "lon": 2.2875881
},
{
  "type": "node",
  "id": 1878622907,
  "lat": 41.6019050,
  "lon": 2.2876654
},
{
  "type": "node",
  "id": 1878622989,
  "lat": 41.6019725,
  "lon": 2.2876794
},
{
  "type": "node",
  "id": 1878623028,
  "lat": 41.6020108,
  "lon": 2.2880464
},
{
  "type": "node",
  "id": 1878623054,
  "lat": 41.6020514,
  "lon": 2.2876965
},
{
  "type": "node",
  "id": 1878623087,
  "lat": 41.6021168,
  "lon": 2.2880726
},
{
  "type": "node",
  "id": 1878623090,
  "lat": 41.6021380,
  "lon": 2.2880784
},
{
  "type": "node",
  "id": 3979196598,
  "lat": 41.6020267,
  "lon": 2.2881719
},
{
  "type": "node",
  "id": 3979196600,
  "lat": 41.6015306,
  "lon": 2.2877609
},
{
  "type": "node",
  "id": 3979196602,
  "lat": 41.6016390,
  "lon": 2.2880876
},
{
  "type": "node",
  "id": 3979196603,
  "lat": 41.6016540,
  "lon": 2.2879689
},
{
  "type": "node",
  "id": 3979196606,
  "lat": 41.6017480,
  "lon": 2.2876309
},
{
  "type": "node",
  "id": 3979196607,
  "lat": 41.6018542,
  "lon": 2.2881344
},
{
  "type": "node",
  "id": 3979196612,
  "lat": 41.6019414,
  "lon": 2.2881533
},
{
  "type": "node",
  "id": 3979196616,
  "lat": 41.6019634,
  "lon": 2.2881581
},
{
  "type": "node",
  "id": 3979196625,
  "lat": 41.6020154,
  "lon": 2.2880071
},
{
  "type": "node",
  "id": 3979196626,
  "lat": 41.6020572,
  "lon": 2.2881785
},
{
  "type": "node",
  "id": 3979196627,
  "lat": 41.6020731,
  "lon": 2.2880618
},
{
  "type": "node",
  "id": 3979196628,
  "lat": 41.6021185,
  "lon": 2.2881908
},
{
  "type": "node",
  "id": 3979196629,
  "lat": 41.6021215,
  "lon": 2.2881716
},
{
  "type": "node",
  "id": 1862737258,
  "lat": 41.6067898,
  "lon": 2.2885282
},
{
  "type": "node",
  "id": 1862737264,
  "lat": 41.6067934,
  "lon": 2.2884956
},
{
  "type": "node",
  "id": 1862737275,
  "lat": 41.6068186,
  "lon": 2.2882889
},
{
  "type": "node",
  "id": 1862737349,
  "lat": 41.6069778,
  "lon": 2.2885672
},
{
  "type": "node",
  "id": 1862737350,
  "lat": 41.6069852,
  "lon": 2.2884264
},
{
  "type": "node",
  "id": 1862737360,
  "lat": 41.6069992,
  "lon": 2.2883223
},
{
  "type": "node",
  "id": 1862737367,
  "lat": 41.6070077,
  "lon": 2.2882412
},
{
  "type": "node",
  "id": 1862737418,
  "lat": 41.6070663,
  "lon": 2.2884201
},
{
  "type": "node",
  "id": 1862737419,
  "lat": 41.6070715,
  "lon": 2.2883498
},
{
  "type": "node",
  "id": 1862737421,
  "lat": 41.6070722,
  "lon": 2.2883430
},
{
  "type": "node",
  "id": 1862737423,
  "lat": 41.6070738,
  "lon": 2.2883430
},
{
  "type": "node",
  "id": 1862737424,
  "lat": 41.6070744,
  "lon": 2.2883500
},
{
  "type": "node",
  "id": 1862737425,
  "lat": 41.6070747,
  "lon": 2.2883370
},
{
  "type": "node",
  "id": 1862737430,
  "lat": 41.6070841,
  "lon": 2.2882601
},
{
  "type": "node",
  "id": 1862737431,
  "lat": 41.6070856,
  "lon": 2.2882576
},
{
  "type": "node",
  "id": 3979196599,
  "lat": 41.6069516,
  "lon": 2.2885618
},
{
  "type": "node",
  "id": 721200555,
  "lat": 41.5541887,
  "lon": 2.4004036
},
{
  "type": "node",
  "id": 721200567,
  "lat": 41.5541062,
  "lon": 2.4004703
},
{
  "type": "node",
  "id": 721200576,
  "lat": 41.5540152,
  "lon": 2.4003090
},
{
  "type": "node",
  "id": 721200583,
  "lat": 41.5541562,
  "lon": 2.4002293
},
{
  "type": "node",
  "id": 1308891455,
  "lat": 41.5540312,
  "lon": 2.4001972
},
{
  "type": "node",
  "id": 1308891547,
  "lat": 41.5540751,
  "lon": 2.4002778
},
{
  "type": "node",
  "id": 1308891627,
  "lat": 41.5539918,
  "lon": 2.4002329
},
{
  "type": "node",
  "id": 1308891827,
  "lat": 41.5541444,
  "lon": 2.4003188
},
{
  "type": "node",
  "id": 1308891972,
  "lat": 41.5541720,
  "lon": 2.4002625
},
{
  "type": "node",
  "id": 4087034835,
  "lat": 41.6379749,
  "lon": 2.3547600
},
{
  "type": "node",
  "id": 4087034836,
  "lat": 41.6380093,
  "lon": 2.3549303
},
{
  "type": "node",
  "id": 4087034837,
  "lat": 41.6377942,
  "lon": 2.3549541
},
{
  "type": "node",
  "id": 4087034838,
  "lat": 41.6377656,
  "lon": 2.3548346
},
{
  "type": "node",
  "id": 7053865222,
  "lat": 41.6377976,
  "lon": 2.3548232
},
{
  "type": "node",
  "id": 2032917571,
  "lat": 41.5400318,
  "lon": 2.4452519
},
{
  "type": "node",
  "id": 2032917585,
  "lat": 41.5400698,
  "lon": 2.4454215
},
{
  "type": "node",
  "id": 2032917603,
  "lat": 41.5402367,
  "lon": 2.4451594
},
{
  "type": "node",
  "id": 2032917610,
  "lat": 41.5402563,
  "lon": 2.4453508
},
{
  "type": "way",
  "id": 44026969,
  "nodes": [
    6473934885,
    6473934966,
    6473934906,
    6473934975,
    559760644,
    6473934911,
    2155060255,
    6473934889,
    559760645,
    6473934900,
    6473934960,
    6473934921,
    6473934898,
    6473934988,
    6473934935,
    6473934902,
    6473934916,
    559760647,
    559760648,
    6473934985,
    6473934957,
    6473934933,
    559760634,
    559760635,
    6473934910,
    6473934892,
    6473934938,
    559760639,
    559760640,
    6473934913,
    6473934903,
    6473934934,
    559760643,
    559760627,
    559760628,
    559760629,
    6473933483,
    6473934896,
    6473933479,
    559760632,
    559760630,
    6473934885
  ]
},
{
  "type": "way",
  "id": 118698769,
  "nodes": [
    1334418594,
    1334418597,
    1334418596,
    1334418583,
    1334418590,
    1334418614,
    1334418603,
    1334418580,
    1334418574,
    1334418586,
    4162260907,
    4162260908,
    4162260910,
    4162260909,
    4162260923,
    4162260924,
    1334418591,
    1334418581,
    1334418613,
    1334418585,
    1334418577,
    1334418575,
    1334418589,
    1334418609,
    1334418584,
    1334418607,
    1334418605,
    1334418587,
    1334418592,
    1334418579,
    1334418569,
    1334418599,
    1334418612,
    1334418608,
    4162260964,
    4162260966,
    4162260963,
    4162260962,
    4162260959,
    4162260961,
    4162260956,
    4162260953,
    1334418566,
    1334418588,
    4162260935,
    4162260934,
    1334418611,
    1334418615,
    4162260930,
    4162260928,
    1334418568,
    1334418598,
    4162260925,
    1334418602,
    4162260919,
    4162260915,
    1334418572,
    1334418595,
    1334418571,
    4162260921,
    1334418594
  ]
},
{
  "type": "way",
  "id": 216954182,
  "nodes": [
    2262724084,
    2262724075,
    2262724071,
    2262724076,
    2262724084
  ]
},
{
  "type": "way",
  "id": 216954183,
  "nodes": [
    2262724101,
    4162260957,
    4162260954,
    4162260949,
    4162260952,
    2262724092,
    4162260939,
    4162260943,
    4162260933,
    2262724081,
    2262724087,
    2262724101
  ]
},
{
  "type": "way",
  "id": 690054375,
  "nodes": [
    6473934948,
    6473934914,
    6473934919,
    6473934922,
    6473934986,
    6473934951,
    6473934948
  ]
},
{
  "type": "way",
  "id": 690054378,
  "nodes": [
    6473934908,
    6473934927,
    6473934890,
    6473934909,
    6473934886,
    6473934893,
    6473934908
  ]
},
{
  "type": "way",
  "id": 10510730,
  "nodes": [
    3458959361,
    90466349,
    90466351,
    90466342
  ]
},
{
  "type": "way",
  "id": 216980034,
  "nodes": [
    2262989762,
    2262989756,
    2262989739,
    2262989757,
    2262989762
  ]
},
{
  "type": "way",
  "id": 685477943,
  "nodes": [
    90466342,
    90466347,
    3458959367,
    3458959363,
    3458959361
  ]
},
{
  "type": "way",
  "id": 188926008,
  "nodes": [
    3105402039,
    1995543380,
    6045106271,
    1995543374,
    3105402037,
    2529520246,
    2529520247,
    3105516016,
    2529520248,
    1995543379,
    3105402041,
    1995543381,
    3105402042,
    1995543382,
    1995543377
  ]
},
{
  "type": "way",
  "id": 503929431,
  "nodes": [
    2544790032,
    3889098324,
    2264354607,
    3889098325
  ]
},
{
  "type": "way",
  "id": 504096623,
  "nodes": [
    1995543377,
    3105402038,
    1995543378,
    3105402040,
    3105402039
  ]
},
{
  "type": "way",
  "id": 643162800,
  "nodes": [
    2544790032,
    6053179060,
    437528363,
    2544872661,
    2544790058,
    437528364,
    2544790042,
    2544790044,
    3105503692,
    6053180201,
    2208253461,
    1784479352,
    6053180227,
    2264354594,
    2264354598,
    2264354597,
    2264354604,
    2264354603,
    3889098325
  ]
},
{
  "type": "way",
  "id": 585595523,
  "nodes": [
    2181559194,
    2572862088,
    2572858565
  ]
},
{
  "type": "way",
  "id": 404090476,
  "nodes": [
    4276099295,
    2181559197,
    2181559192,
    2181559196,
    2181559191,
    2181559194
  ]
},
{
  "type": "way",
  "id": 585596991,
  "nodes": [
    2572858565,
    3177985113,
    2572858563,
    5595864477
  ]
},
{
  "type": "way",
  "id": 207911160,
  "nodes": [
    5595864477,
    3177985111,
    2181559189,
    2572858562,
    714746275
  ]
},
{
  "type": "way",
  "id": 585595524,
  "nodes": [
    714746275,
    4276099295
  ]
},
{
  "type": "way",
  "id": 156739050,
  "nodes": [
    1689716586,
    1689716585,
    1689716567,
    1689716478,
    1689716384,
    1689716483,
    1689716482,
    6066217381,
    1689716410,
    6066217357,
    6066217588,
    6066217354,
    6066217345,
    6066217355,
    6066217351,
    6066217586,
    1689716409,
    6066217367,
    6066217382,
    6066217339,
    6066217332,
    6066217593,
    6066217371,
    1689716471,
    1689716442,
    1689716501,
    1689716467,
    1689716465,
    1689716598,
    1689716449
  ]
},
{
  "type": "way",
  "id": 320533366,
  "nodes": [
    1689716556,
    3270683264
  ]
},
{
  "type": "way",
  "id": 320533368,
  "nodes": [
    1689716418,
    3270683290
  ]
},
{
  "type": "way",
  "id": 459464510,
  "nodes": [
    1689716425,
    4553128857,
    4553128855,
    4553128856,
    1689716540
  ]
},
{
  "type": "way",
  "id": 510736197,
  "nodes": [
    3270683264,
    4996807638
  ]
},
{
  "type": "way",
  "id": 510736198,
  "nodes": [
    3270683290,
    4996807583
  ]
},
{
  "type": "way",
  "id": 510736199,
  "nodes": [
    1689716425,
    1689716418
  ]
},
{
  "type": "way",
  "id": 510736200,
  "nodes": [
    1689716556,
    6066284779,
    6066284775,
    6066284995,
    1689716540
  ]
},
{
  "type": "way",
  "id": 510738265,
  "nodes": [
    4996807584,
    4996807594
  ]
},
{
  "type": "way",
  "id": 510738266,
  "nodes": [
    4996807583,
    4996807584
  ]
},
{
  "type": "way",
  "id": 510738272,
  "nodes": [
    4996807593,
    4996807603
  ]
},
{
  "type": "way",
  "id": 510738273,
  "nodes": [
    4996807594,
    4996807593
  ]
},
{
  "type": "way",
  "id": 510738277,
  "nodes": [
    4996807604,
    4996807613
  ]
},
{
  "type": "way",
  "id": 510738278,
  "nodes": [
    4996807603,
    4996807604
  ]
},
{
  "type": "way",
  "id": 510738282,
  "nodes": [
    4996807612,
    6066285017,
    1689716449
  ]
},
{
  "type": "way",
  "id": 510738283,
  "nodes": [
    4996807613,
    4996807612
  ]
},
{
  "type": "way",
  "id": 510738287,
  "nodes": [
    4996807629,
    4996807630
  ]
},
{
  "type": "way",
  "id": 510738288,
  "nodes": [
    4996807623,
    4996807629
  ]
},
{
  "type": "way",
  "id": 510738292,
  "nodes": [
    4996807630,
    6066217331,
    1689716586
  ]
},
{
  "type": "way",
  "id": 510738296,
  "nodes": [
    4996807636,
    4996807623
  ]
},
{
  "type": "way",
  "id": 510738297,
  "nodes": [
    4996807634,
    4996807636
  ]
},
{
  "type": "way",
  "id": 510738302,
  "nodes": [
    4996807642,
    4996807634
  ]
},
{
  "type": "way",
  "id": 510738303,
  "nodes": [
    4996807638,
    4996807642
  ]
}

  ]
}
