{
  "version": 0.6,
  "generator": "Overpass API 0.7.55.9 ab41fea6",
  "osm3s": {
    "timestamp_osm_base": "2020-02-14T13:36:02Z",
    "copyright": "The data included in this document is from www.openstreetmap.org. The data is made available under ODbL."
  },
  "elements": [

{
  "type": "node",
  "id": 259491671,
  "lat": 43.3229005,
  "lon": -1.9921186,
  "tags": {
    "addr:city": "San Sebastián-Donostia",
    "addr:country": "ES",
    "addr:housenumber": "1",
    "addr:postcode": "20008",
    "addr:street": "Karlos Blasco de Imaz Plaza",
    "designation": "Aquarium Donostia/San Sebastián",
    "name": "Aquarium",
    "name:eu": "Donostiako Aquariuma",
    "phone": "+34 943440099",
    "tourism": "museum",
    "website": "http://aquariumss.com/inicio",
    "wheelchair": "yes"
  }
},
{
  "type": "node",
  "id": 295416106,
  "lat": 43.2785407,
  "lon": -1.9991566,
  "tags": {
    "name": "Txillida Leku",
    "tourism": "museum",
    "website": "https://www.museochillidaleku.com/home-dev/"
  }
},
{
  "type": "node",
  "id": 299248200,
  "lat": 43.3229981,
  "lon": -1.9910323,
  "tags": {
    "name": "Untzi museoa",
    "name:es": "Museo Naval",
    "name:eu": "Untzi museoa",
    "tourism": "museum",
    "wheelchair": "limited"
  }
},
{
  "type": "node",
  "id": 537141520,
  "lat": 43.3018400,
  "lon": -1.9746373,
  "tags": {
    "name": "Real 100 Museoa",
    "tourism": "museum"
  }
},
{
  "type": "node",
  "id": 540864241,
  "lat": 43.3237965,
  "lon": -1.9868966,
  "tags": {
    "name": "Museo Diocesano",
    "name:eu": "Elizbarrutiko museoa",
    "tourism": "museum"
  }
},
{
  "type": "node",
  "id": 724174625,
  "lat": 43.3623451,
  "lon": -1.7917522,
  "tags": {
    "name": "Ramery museoa",
    "tourism": "museum"
  }
},
{
  "type": "node",
  "id": 738565711,
  "lat": 43.2908343,
  "lon": -1.9849675,
  "tags": {
    "addr:city": "Donostia / San Sebastián",
    "addr:country": "ES",
    "addr:housenumber": "45",
    "addr:postcode": "20009",
    "addr:street": "Mikeletegi pasealekua",
    "b5m:id": "D_227077",
    "b5m:url": "http://b5m.gipuzkoa.net/b5map/r1/eu/mapa/lekutu/D_227077",
    "b5m:urlOrto": "http://b5m.gipuzkoa.net/url5000/index.php?id=D_227077&lengua=1&actu=0&categoria=VITO_FOTO",
    "fee": "yes",
    "name": "Eureka! Zientzia Museoa",
    "old_name": "Zientziaren Kutxaespazioa",
    "opening_hours": "Mo-Su 11:00-20:00",
    "operator": "Kutxa",
    "source": "b5m",
    "tourism": "museum"
  }
},
{
  "type": "node",
  "id": 747145829,
  "lat": 43.1856887,
  "lon": -2.2613838,
  "tags": {
    "name": "Tren Museoa",
    "tourism": "museum"
  }
},
{
  "type": "node",
  "id": 851361470,
  "lat": 43.4070195,
  "lon": -1.6279467,
  "tags": {
    "name": "Écomusée du Tissage",
    "tourism": "museum"
  }
},
{
  "type": "node",
  "id": 1841513466,
  "lat": 43.3250673,
  "lon": -1.9850804,
  "tags": {
    "name": "San Telmo Museoa",
    "name:es": "Museo de San Telmo",
    "tourism": "museum",
    "website": "https://www.santelmomuseoa.eus",
    "wheelchair": "yes"
  }
},
{
  "type": "node",
  "id": 2441859772,
  "lat": 43.2989223,
  "lon": -2.2486186,
  "tags": {
    "name": "Museo de Zuloaga",
    "tourism": "museum",
    "website": "www.espaciozuloaga.com/",
    "wheelchair": "yes"
  }
},
{
  "type": "node",
  "id": 3585688793,
  "lat": 43.2844339,
  "lon": -2.1777220,
  "tags": {
    "addr:city": "Zarautz",
    "addr:country": "ES",
    "addr:housenumber": "11",
    "addr:postcode": "20800",
    "addr:street": "San Inazio kalea;San Inazio Kalea",
    "b5m:id": "D_51949",
    "b5m:url": "http://b5m.gipuzkoa.net/b5map/r1/eu/mapa/lekutu/D_51949",
    "b5m:urlOrto": "http://b5m.gipuzkoa.net/url5000/index.php?id=D_51949&lengua=1&actu=0&categoria=VITO_FOTO",
    "description": "Bisitariei argazkigintzaren teknika eta artearen bilakaera eskaintzen die era kronologikoan. Argazki objektuen bilduma anitza du bere baitan, eta erregularki argazki ezagunen erakusketak antolatzen ditu.",
    "description:en": "Takes visitors on a chronological tour of the art and technique of photography. Houses a varied collection of photographic objects and regularly organizes exhibitions by famous photographers.",
    "description:es": "Ofrece a los visitantes en forma cronológica el desarrollo de la técnica y el arte fotográfico. Alberga una variada colección de objetos fotográficos y regularmente organiza exposiciones de reconocidos fotógrafos.",
    "description:fr": "Il présente aux visiteurs, selon un ordre chronologique, le développement de la technique et de l’art photographique. Il abrite une collection variée d’objets photographiques et il organise régulièrement des expositions de photographes connus.",
    "email": "photomuseum@photomuseum.name",
    "name": "Photomuseum",
    "opening_hours": "Tu-Su 10:00-14:00,17:00-20:00",
    "phone": "+34 943 13 09 06",
    "source": "b5m",
    "tourism": "museum",
    "website": "http://www.photomuseum.name/"
  }
},
{
  "type": "node",
  "id": 3736344038,
  "lat": 43.2684027,
  "lon": -1.5711184,
  "tags": {
    "name": "Grottes de Sare - Sarako lezeak",
    "tourism": "museum"
  }
},
{
  "type": "node",
  "id": 3971804099,
  "lat": 43.3292046,
  "lon": -1.9259399,
  "tags": {
    "name": "Albaola Itsas Kultur Faktoria",
    "tourism": "museum",
    "website": "http://www.albaola.com/fr"
  }
},
{
  "type": "node",
  "id": 4208481489,
  "lat": 43.2812761,
  "lon": -1.9470536,
  "tags": {
    "addr:housenumber": "48",
    "addr:street": "Kalea nagusia",
    "email": "info@sagardoetxea.com",
    "name": "Sagardoetxea (Museo de la Sidra)",
    "phone": "+34 943550575",
    "tourism": "museum",
    "website": "www.sagardoetxea.com"
  }
},
{
  "type": "node",
  "id": 4332292298,
  "lat": 43.3257805,
  "lon": -1.9216783,
  "tags": {
    "alt_name": "Mater museoa",
    "historic": "ship",
    "image": "https://farm8.staticflickr.com/7039/26800496290_6559125d9e_o_d.jpg",
    "name": "Mater",
    "phone": "+34 619 814 225",
    "ship:type": "fishing boat",
    "tourism": "museum",
    "website": "http://www.matermuseoa.com/index.php/museo/el-barco"
  }
},
{
  "type": "node",
  "id": 4438956427,
  "lat": 43.2863233,
  "lon": -2.1774888,
  "tags": {
    "addr:city": "Zarautz",
    "addr:housenumber": "1",
    "addr:postcode": "20800",
    "addr:street": "Elizaurre kalea",
    "email": "info@menosca.com",
    "name": "Menosca, Zarauzko Arte eta Historia Museoa",
    "name:en": "Menosca, Art and History Museum of Zarautz",
    "name:es": "Menosca, Museo de Arte e Historia",
    "name:fr": "Menosca, Musée d’Art et d’Histoire de Zarautz",
    "phone": "+34 943 83 52 81",
    "tourism": "museum",
    "website": "http://www.menosca.com/museo.php"
  }
},
{
  "type": "node",
  "id": 5082724323,
  "lat": 43.0538360,
  "lon": -2.1784214,
  "tags": {
    "addr:housenumber": "24",
    "addr:street": "Santa Maria kalea",
    "name": "D'Elikatuz",
    "name:eu": "D'Elikatuz. Elikadura eta gastronomia gunea.",
    "phone": "+34 943 88 22 90",
    "tourism": "museum",
    "website": "http://www.delikatuz.com/"
  }
},
{
  "type": "node",
  "id": 5113758074,
  "lat": 43.3399686,
  "lon": -1.7877443,
  "tags": {
    "name": "Oiasso Museoa",
    "tourism": "museum",
    "website": "http://www.irun.org/oiasso/home.aspx?tabid=1"
  }
},
{
  "type": "node",
  "id": 5231527030,
  "lat": 43.0920485,
  "lon": -2.3041275,
  "tags": {
    "name": "Centro de Interpretaciòn de La Antigua",
    "tourism": "museum",
    "website": "http://www.urolagaraia.com/turismo-urola-garaia/centro-de-interpretacion-de-la-antigua-2/"
  }
},
{
  "type": "node",
  "id": 6049682355,
  "lat": 43.2368086,
  "lon": -2.2674605,
  "tags": {
    "name": "Ekainberri",
    "tourism": "museum",
    "website": "https://www.ekainberri.eus/"
  }
},
{
  "type": "node",
  "id": 6331445470,
  "lat": 43.3066686,
  "lon": -2.3895002,
  "tags": {
    "name": "Mutrikuko Ikasgune Geologikoa",
    "tourism": "museum",
    "website": "https://www.mutriku.eus/es/turismo/que-hacer-mutriku/museo-nautilus"
  }
},
{
  "type": "node",
  "id": 7129732075,
  "lat": 43.0669106,
  "lon": -1.9196556,
  "tags": {
    "name": "Peru-Harri",
    "tourism": "museum"
  }
},
{
  "type": "way",
  "id": 42108352,
  "nodes": [
    523288326,
    4386293002,
    4386293001,
    4386293004,
    1738453690,
    1738453665,
    1738453696,
    4386293008,
    4386293007,
    1738453676,
    1738453685,
    1738453698,
    1738453705,
    1738453701,
    1738453677,
    523288328,
    523288325,
    523288330,
    523288326
  ],
  "tags": {
    "building": "yes",
    "historic": "archaeological_site",
    "name": "Ekainberri",
    "tourism": "museum"
  }
},
{
  "type": "way",
  "id": 42936325,
  "nodes": [
    537831618,
    4033486413,
    4033486412,
    537831620,
    537831622,
    537831624,
    537831618
  ],
  "tags": {
    "addr:city": "Beasain",
    "addr:country": "ES",
    "addr:housenumber": "1",
    "addr:postcode": "20200",
    "addr:street": "Igartza Plaza",
    "b5m:id": "D_7456",
    "b5m:url": "http://b5m.gipuzkoa.net/b5map/r1/eu/mapa/lekutu/D_7456",
    "b5m:urlOrto": "http://b5m.gipuzkoa.net/url5000/index.php?id=D_7456&lengua=1&actu=0&categoria=VITO_FOTO",
    "building": "yes",
    "historic": "manor",
    "image": "File:Igartza_jauregia.jpg",
    "name": "Igartza Jauregia",
    "source": "b5m",
    "tourism": "museum",
    "website": "http://www.igartza.net/"
  }
},
{
  "type": "way",
  "id": 44178858,
  "nodes": [
    561204373,
    561204374,
    4386293693,
    4386293694,
    561204376,
    561204377,
    561204373
  ],
  "tags": {
    "building": "yes",
    "name": "Algorri",
    "tourism": "museum",
    "wheelchair": "yes"
  }
},
{
  "type": "way",
  "id": 44179442,
  "nodes": [
    620156779,
    561206111,
    561206114,
    561206112,
    620156779
  ],
  "tags": {
    "addr:city": "Zumaia",
    "addr:country": "ES",
    "addr:housenumber": "37",
    "addr:postcode": "20750",
    "addr:street": "Julio Beobide Ibiltokia",
    "b5m:id": "D_54083",
    "b5m:url": "http://b5m.gipuzkoa.net/b5map/r1/eu/mapa/lekutu/D_54083",
    "b5m:urlOrto": "http://b5m.gipuzkoa.net/url5000/index.php?id=D_54083&lengua=1&actu=0&categoria=VITO_FOTO",
    "building": "yes",
    "name": "Julio Beobide museoa",
    "source": "b5m",
    "tourism": "museum",
    "wheelchair": "limited"
  }
},
{
  "type": "way",
  "id": 46349864,
  "nodes": [
    592463750,
    592463747,
    3756274233,
    3756274232,
    3756274225,
    3756274124,
    592463742,
    3756274121,
    3756274123,
    592463745,
    3756274228,
    3756274226,
    592463750
  ],
  "tags": {
    "addr:city": "Urretxu",
    "addr:country": "ES",
    "addr:housenumber": "37A",
    "addr:postcode": "20700",
    "addr:street": "Sakabanatuak",
    "b5m:id": "D_224236",
    "b5m:url": "http://b5m.gipuzkoa.net/b5map/r1/eu/mapa/lekutu/D_224236",
    "b5m:urlOrto": "http://b5m.gipuzkoa.net/url5000/index.php?id=D_224236&lengua=1&actu=0&categoria=VITO_FOTO",
    "building": "yes",
    "name": "Aikur erle museoa - museo de las abejas",
    "source": "b5m",
    "tourism": "museum"
  }
},
{
  "type": "way",
  "id": 48015541,
  "nodes": [
    610568330,
    610568329,
    610568316,
    625283178,
    610568317,
    610568234,
    610568231,
    610568232,
    610568233,
    610568319,
    610568330
  ],
  "tags": {
    "addr:city": "Tolosa",
    "addr:country": "ES",
    "addr:housenumber": "3",
    "addr:postcode": "20400",
    "addr:street": "Letxuga kalea",
    "b5m:id": "D_46056",
    "b5m:url": "http://b5m.gipuzkoa.net/b5map/r1/eu/mapa/lekutu/D_46056",
    "b5m:urlOrto": "http://b5m.gipuzkoa.net/url5000/index.php?id=D_46056&lengua=1&actu=0&categoria=VITO_FOTO",
    "building": "yes",
    "name": "Konfiteri museoa",
    "source": "b5m",
    "tourism": "museum"
  }
},
{
  "type": "way",
  "id": 48894839,
  "nodes": [
    620462957,
    4860021891,
    4860021890,
    4860021888,
    4860021887,
    4860021884,
    620462962,
    620462879,
    620462885,
    620462891,
    620462896,
    620462901,
    620462907,
    620462913,
    620462918,
    620462923,
    620462929,
    620462939,
    620462957
  ],
  "tags": {
    "building": "yes",
    "name": "Trenaren museoa",
    "source": "B5M",
    "tourism": "museum"
  }
},
{
  "type": "way",
  "id": 60738242,
  "nodes": [
    760338396,
    760338407,
    760338409,
    760338386,
    760338388,
    760338390,
    760338391,
    760338393,
    760338411,
    760338414,
    760338396
  ],
  "tags": {
    "addr:city": "Donostia / San Sebastián",
    "addr:country": "ES",
    "addr:housenumber": "46",
    "addr:postcode": "20018",
    "addr:street": "Añorga hiribidea",
    "b5m:id": "D_43619",
    "b5m:url": "http://b5m.gipuzkoa.net/b5map/r1/eu/mapa/lekutu/D_43619",
    "b5m:urlOrto": "http://b5m.gipuzkoa.net/url5000/index.php?id=D_43619&lengua=1&actu=0&categoria=VITO_FOTO",
    "building": "yes",
    "name": "Museum Cemento Rezola",
    "source": "B5M;b5m",
    "tourism": "museum",
    "website": "http://museumcementorezola.org/",
    "wikidata": "Q9047156",
    "wikipedia": "eu:Museum Cement Rezola"
  }
},
{
  "type": "way",
  "id": 71287357,
  "nodes": [
    848438353,
    848448672,
    848439915,
    848434964,
    848441376,
    848446950,
    848449915,
    848434664,
    848451682,
    848436271,
    848438327,
    848438686,
    848445540,
    848439806,
    848438353
  ],
  "tags": {
    "addr:city": "Guéthary",
    "addr:housenumber": "165",
    "addr:postcode": "64210",
    "addr:street": "Avenue du Général de Gaulle",
    "building": "yes",
    "heritage": "3",
    "heritage:operator": "mhs",
    "mhs:inscription_date": "1994-12-30",
    "name": "Musée Saraléguinéa",
    "ref:mhs": "PA00132937",
    "source": "cadastre-dgi-fr source : Direction Générale des Impôts - Cadastre. Mise à jour : 2010",
    "source:heritage": "Ministère de la Culture - 06/2019",
    "tourism": "museum",
    "wikidata": "Q22975788"
  }
},
{
  "type": "way",
  "id": 72058340,
  "nodes": [
    856545731,
    856541579,
    856536718,
    856600133,
    856586202,
    856549822,
    856591188,
    856545731
  ],
  "tags": {
    "alt_name": "Asporots",
    "building": "yes",
    "comment": "Osporrotchipy, 1598 et Azparotz, 1451",
    "name": "Maison de la Corniche basque - Azparrotz Txipi",
    "name:en": "Museum of the French Basque Region",
    "opening_hours": "Tu-Sa 10:00-12:00, 14:00-17:30",
    "source": "cadastre-dgi-fr source : Direction Générale des Impôts - Cadastre. Mise à jour : 2010",
    "tourism": "museum",
    "website": "http://www.cpie-littoral-basque.eu/"
  }
},
{
  "type": "way",
  "id": 72845105,
  "nodes": [
    864448030,
    864460116,
    864468512,
    2534916520,
    864453832,
    864448030
  ],
  "tags": {
    "building": "yes",
    "name": "Ortillopitz",
    "source": "cadastre-dgi-fr source : Direction Générale des Impôts - Cadastre. Mise à jour : 2010",
    "tourism": "museum"
  }
},
{
  "type": "way",
  "id": 93419451,
  "nodes": [
    1083184707,
    1083184680,
    1083184666,
    1083184723,
    1083184716,
    1083184642,
    1083184629,
    1083184725,
    1083184717,
    1083184647,
    1083184639,
    1083184686,
    1083184671,
    1083184706,
    1083184698,
    1083184704,
    1083184693,
    1083184707
  ],
  "tags": {
    "building": "yes",
    "name": "Museo de Balenciaga",
    "name:eu": "Balenciaga museoa",
    "tourism": "museum"
  }
},
{
  "type": "way",
  "id": 244075200,
  "nodes": [
    2514284426,
    4921011285,
    2514284425,
    2514284397,
    2514284400,
    2514284421,
    4921011284,
    2514284420,
    2514284426
  ],
  "tags": {
    "building": "yes",
    "name": "Zubietako errota",
    "name:es": "Molino de Zubieta",
    "name:eu": "Zubietako errota",
    "name:fr": "Moulin de Zubieta",
    "tourism": "museum",
    "wikidata": "Q32707175"
  }
},
{
  "type": "way",
  "id": 250613748,
  "nodes": [
    2570230127,
    2570230129,
    2570230130,
    2570230131,
    3417173427,
    2570230133,
    2570230134,
    2570230127
  ],
  "tags": {
    "addr:city": "Ormaiztegi",
    "addr:country": "ES",
    "addr:housenumber": "6",
    "addr:postcode": "20216",
    "addr:street": "Muxika Egurastokia",
    "b5m:id": "D_29822",
    "b5m:url": "http://b5m.gipuzkoa.net/b5map/r1/eu/mapa/lekutu/D_29822",
    "b5m:urlOrto": "http://b5m.gipuzkoa.net/url5000/index.php?id=D_29822&lengua=1&actu=0&categoria=VITO_FOTO",
    "building": "yes",
    "historic": "yes",
    "image": "File:Iriarte-Erdikoa_etxea.jpg",
    "name": "Zumalakarregi Museoa",
    "source": "b5m",
    "tourism": "museum"
  }
},
{
  "type": "way",
  "id": 335545749,
  "nodes": [
    3426467540,
    3426467534,
    3426467535,
    331049194,
    3426467540
  ],
  "tags": {
    "addr:city": "Ezkio-itsaso",
    "addr:country": "ES",
    "addr:housenumber": "15",
    "addr:postcode": "20709",
    "addr:street": "Ezkio Diseminado",
    "b5m:id": "D_60391",
    "b5m:url": "http://b5m.gipuzkoa.net/b5map/r1/eu/mapa/lekutu/D_60391",
    "b5m:urlOrto": "http://b5m.gipuzkoa.net/url5000/index.php?id=D_60391&lengua=1&actu=0&categoria=VITO_FOTO",
    "building": "yes",
    "historic": "building",
    "name": "Igartubeiti Baserri Museoa",
    "source": "b5m",
    "tourism": "museum"
  }
},
{
  "type": "way",
  "id": 537483603,
  "nodes": [
    5204695170,
    5204695169,
    5204695168,
    5204695167,
    5204695166,
    5204695165,
    5204695171,
    5204695164,
    5204695163,
    5204695162,
    5204695161,
    5204695160,
    5204695170
  ],
  "tags": {
    "abandoned:man_made": "kiln",
    "image": "File:Bordakoa_kisulabea.jpg",
    "kiln": "lime",
    "name": "Calera",
    "tourism": "museum"
  }
},
{
  "type": "relation",
  "id": 394054,
  "members": [
    {
      "type": "way",
      "ref": 48857457,
      "role": "inner"
    },
    {
      "type": "way",
      "ref": 27263143,
      "role": "outer"
    },
    {
      "type": "way",
      "ref": 178206472,
      "role": "inner"
    }
  ],
  "tags": {
    "building": "yes",
    "name": "San Telmo Museoa",
    "name:es": "Museo San Telmo",
    "tourism": "museum",
    "type": "multipolygon",
    "website": "https://www.santelmomuseoa.eus"
  }
},
{
  "type": "node",
  "id": 592463742,
  "lat": 43.0941748,
  "lon": -2.3286833
},
{
  "type": "node",
  "id": 592463745,
  "lat": 43.0941727,
  "lon": -2.3288392
},
{
  "type": "node",
  "id": 592463747,
  "lat": 43.0943326,
  "lon": -2.3286661
},
{
  "type": "node",
  "id": 592463750,
  "lat": 43.0942780,
  "lon": -2.3289458
},
{
  "type": "node",
  "id": 3756274121,
  "lat": 43.0941568,
  "lon": -2.3287759
},
{
  "type": "node",
  "id": 3756274123,
  "lat": 43.0941832,
  "lon": -2.3287856
},
{
  "type": "node",
  "id": 3756274124,
  "lat": 43.0941996,
  "lon": -2.3286924
},
{
  "type": "node",
  "id": 3756274225,
  "lat": 43.0942112,
  "lon": -2.3286329
},
{
  "type": "node",
  "id": 3756274226,
  "lat": 43.0942126,
  "lon": -2.3289218
},
{
  "type": "node",
  "id": 3756274228,
  "lat": 43.0942250,
  "lon": -2.3288583
},
{
  "type": "node",
  "id": 3756274232,
  "lat": 43.0942705,
  "lon": -2.3286546
},
{
  "type": "node",
  "id": 3756274233,
  "lat": 43.0942725,
  "lon": -2.3286442
},
{
  "type": "node",
  "id": 2570230127,
  "lat": 43.0431984,
  "lon": -2.2547413
},
{
  "type": "node",
  "id": 2570230129,
  "lat": 43.0430200,
  "lon": -2.2548358
},
{
  "type": "node",
  "id": 2570230130,
  "lat": 43.0429582,
  "lon": -2.2546199
},
{
  "type": "node",
  "id": 2570230131,
  "lat": 43.0430490,
  "lon": -2.2545707
},
{
  "type": "node",
  "id": 2570230133,
  "lat": 43.0431148,
  "lon": -2.2545896
},
{
  "type": "node",
  "id": 2570230134,
  "lat": 43.0431479,
  "lon": -2.2545781
},
{
  "type": "node",
  "id": 3417173427,
  "lat": 43.0430613,
  "lon": -2.2546083
},
{
  "type": "node",
  "id": 537831624,
  "lat": 43.0472618,
  "lon": -2.2092065
},
{
  "type": "node",
  "id": 537831618,
  "lat": 43.0474648,
  "lon": -2.2090948
},
{
  "type": "node",
  "id": 537831620,
  "lat": 43.0475328,
  "lon": -2.2093557
},
{
  "type": "node",
  "id": 537831622,
  "lat": 43.0473373,
  "lon": -2.2094633
},
{
  "type": "node",
  "id": 4033486412,
  "lat": 43.0475102,
  "lon": -2.2092790
},
{
  "type": "node",
  "id": 4033486413,
  "lat": 43.0475177,
  "lon": -2.2092749
},
{
  "type": "node",
  "id": 331049194,
  "lat": 43.0749414,
  "lon": -2.2853115
},
{
  "type": "node",
  "id": 3426467534,
  "lat": 43.0746911,
  "lon": -2.2854015
},
{
  "type": "node",
  "id": 3426467535,
  "lat": 43.0747973,
  "lon": -2.2851812
},
{
  "type": "node",
  "id": 3426467540,
  "lat": 43.0748352,
  "lon": -2.2855318
},
{
  "type": "node",
  "id": 620462939,
  "lat": 43.1831958,
  "lon": -2.2610141
},
{
  "type": "node",
  "id": 620462957,
  "lat": 43.1840963,
  "lon": -2.2610746
},
{
  "type": "node",
  "id": 4860021890,
  "lat": 43.1840986,
  "lon": -2.2610129
},
{
  "type": "node",
  "id": 4860021891,
  "lat": 43.1840973,
  "lon": -2.2610470
},
{
  "type": "node",
  "id": 620462879,
  "lat": 43.1834739,
  "lon": -2.2607822
},
{
  "type": "node",
  "id": 620462885,
  "lat": 43.1834788,
  "lon": -2.2606554
},
{
  "type": "node",
  "id": 620462891,
  "lat": 43.1833880,
  "lon": -2.2606512
},
{
  "type": "node",
  "id": 620462896,
  "lat": 43.1833921,
  "lon": -2.2605218
},
{
  "type": "node",
  "id": 620462901,
  "lat": 43.1832676,
  "lon": -2.2604918
},
{
  "type": "node",
  "id": 620462907,
  "lat": 43.1832129,
  "lon": -2.2605106
},
{
  "type": "node",
  "id": 620462913,
  "lat": 43.1832116,
  "lon": -2.2606231
},
{
  "type": "node",
  "id": 620462918,
  "lat": 43.1831815,
  "lon": -2.2606193
},
{
  "type": "node",
  "id": 620462923,
  "lat": 43.1831788,
  "lon": -2.2607177
},
{
  "type": "node",
  "id": 620462929,
  "lat": 43.1832060,
  "lon": -2.2607215
},
{
  "type": "node",
  "id": 620462962,
  "lat": 43.1841056,
  "lon": -2.2608214
},
{
  "type": "node",
  "id": 4860021884,
  "lat": 43.1841045,
  "lon": -2.2608514
},
{
  "type": "node",
  "id": 4860021887,
  "lat": 43.1841018,
  "lon": -2.2609246
},
{
  "type": "node",
  "id": 4860021888,
  "lat": 43.1841000,
  "lon": -2.2609734
},
{
  "type": "node",
  "id": 610568231,
  "lat": 43.1377936,
  "lon": -2.0724338
},
{
  "type": "node",
  "id": 610568232,
  "lat": 43.1377445,
  "lon": -2.0724324
},
{
  "type": "node",
  "id": 610568233,
  "lat": 43.1377646,
  "lon": -2.0725586
},
{
  "type": "node",
  "id": 610568234,
  "lat": 43.1377886,
  "lon": -2.0723721
},
{
  "type": "node",
  "id": 610568316,
  "lat": 43.1379024,
  "lon": -2.0723802
},
{
  "type": "node",
  "id": 610568317,
  "lat": 43.1378406,
  "lon": -2.0723666
},
{
  "type": "node",
  "id": 610568319,
  "lat": 43.1378266,
  "lon": -2.0725366
},
{
  "type": "node",
  "id": 610568329,
  "lat": 43.1380117,
  "lon": -2.0723652
},
{
  "type": "node",
  "id": 610568330,
  "lat": 43.1380237,
  "lon": -2.0724996
},
{
  "type": "node",
  "id": 625283178,
  "lat": 43.1378416,
  "lon": -2.0723885
},
{
  "type": "node",
  "id": 2514284397,
  "lat": 43.1260740,
  "lon": -1.7396210
},
{
  "type": "node",
  "id": 2514284400,
  "lat": 43.1260810,
  "lon": -1.7398068
},
{
  "type": "node",
  "id": 2514284420,
  "lat": 43.1261386,
  "lon": -1.7397025
},
{
  "type": "node",
  "id": 2514284421,
  "lat": 43.1261384,
  "lon": -1.7398027
},
{
  "type": "node",
  "id": 2514284425,
  "lat": 43.1261953,
  "lon": -1.7396124
},
{
  "type": "node",
  "id": 2514284426,
  "lat": 43.1262047,
  "lon": -1.7396978
},
{
  "type": "node",
  "id": 4921011284,
  "lat": 43.1261347,
  "lon": -1.7397028
},
{
  "type": "node",
  "id": 4921011285,
  "lat": 43.1261985,
  "lon": -1.7396982
},
{
  "type": "node",
  "id": 5204695160,
  "lat": 43.1365332,
  "lon": -1.6248798
},
{
  "type": "node",
  "id": 5204695161,
  "lat": 43.1365288,
  "lon": -1.6249000
},
{
  "type": "node",
  "id": 5204695162,
  "lat": 43.1365324,
  "lon": -1.6249204
},
{
  "type": "node",
  "id": 5204695163,
  "lat": 43.1365429,
  "lon": -1.6249357
},
{
  "type": "node",
  "id": 5204695164,
  "lat": 43.1365576,
  "lon": -1.6249417
},
{
  "type": "node",
  "id": 5204695165,
  "lat": 43.1365837,
  "lon": -1.6249223
},
{
  "type": "node",
  "id": 5204695166,
  "lat": 43.1365881,
  "lon": -1.6249022
},
{
  "type": "node",
  "id": 5204695167,
  "lat": 43.1365845,
  "lon": -1.6248817
},
{
  "type": "node",
  "id": 5204695168,
  "lat": 43.1365740,
  "lon": -1.6248665
},
{
  "type": "node",
  "id": 5204695169,
  "lat": 43.1365592,
  "lon": -1.6248605
},
{
  "type": "node",
  "id": 5204695170,
  "lat": 43.1365443,
  "lon": -1.6248654
},
{
  "type": "node",
  "id": 5204695171,
  "lat": 43.1365726,
  "lon": -1.6249368
},
{
  "type": "node",
  "id": 523288328,
  "lat": 43.2364797,
  "lon": -2.2676513
},
{
  "type": "node",
  "id": 1738453677,
  "lat": 43.2364917,
  "lon": -2.2677239
},
{
  "type": "node",
  "id": 1738453698,
  "lat": 43.2370089,
  "lon": -2.2675529
},
{
  "type": "node",
  "id": 1738453705,
  "lat": 43.2367685,
  "lon": -2.2677344
},
{
  "type": "node",
  "id": 523288325,
  "lat": 43.2365134,
  "lon": -2.2672946
},
{
  "type": "node",
  "id": 523288326,
  "lat": 43.2366853,
  "lon": -2.2671220
},
{
  "type": "node",
  "id": 523288330,
  "lat": 43.2366492,
  "lon": -2.2670636
},
{
  "type": "node",
  "id": 1738453665,
  "lat": 43.2369265,
  "lon": -2.2670312
},
{
  "type": "node",
  "id": 1738453676,
  "lat": 43.2369103,
  "lon": -2.2671895
},
{
  "type": "node",
  "id": 1738453685,
  "lat": 43.2369273,
  "lon": -2.2673546
},
{
  "type": "node",
  "id": 1738453690,
  "lat": 43.2368910,
  "lon": -2.2670605
},
{
  "type": "node",
  "id": 1738453696,
  "lat": 43.2369760,
  "lon": -2.2670950
},
{
  "type": "node",
  "id": 1738453701,
  "lat": 43.2366040,
  "lon": -2.2673765
},
{
  "type": "node",
  "id": 4386293001,
  "lat": 43.2367684,
  "lon": -2.2670937
},
{
  "type": "node",
  "id": 4386293002,
  "lat": 43.2367865,
  "lon": -2.2671125
},
{
  "type": "node",
  "id": 4386293004,
  "lat": 43.2368168,
  "lon": -2.2670153
},
{
  "type": "node",
  "id": 4386293007,
  "lat": 43.2369318,
  "lon": -2.2671903
},
{
  "type": "node",
  "id": 4386293008,
  "lat": 43.2369328,
  "lon": -2.2671323
},
{
  "type": "node",
  "id": 561204373,
  "lat": 43.2996725,
  "lon": -2.2553145
},
{
  "type": "node",
  "id": 561204374,
  "lat": 43.2995688,
  "lon": -2.2551232
},
{
  "type": "node",
  "id": 561204376,
  "lat": 43.2997090,
  "lon": -2.2550030
},
{
  "type": "node",
  "id": 561204377,
  "lat": 43.2998046,
  "lon": -2.2551794
},
{
  "type": "node",
  "id": 4386293693,
  "lat": 43.2996619,
  "lon": -2.2550279
},
{
  "type": "node",
  "id": 4386293694,
  "lat": 43.2996700,
  "lon": -2.2550428
},
{
  "type": "node",
  "id": 561206111,
  "lat": 43.3014642,
  "lon": -2.2509560
},
{
  "type": "node",
  "id": 561206112,
  "lat": 43.3016599,
  "lon": -2.2509069
},
{
  "type": "node",
  "id": 561206114,
  "lat": 43.3015697,
  "lon": -2.2507924
},
{
  "type": "node",
  "id": 620156779,
  "lat": 43.3015544,
  "lon": -2.2510705
},
{
  "type": "node",
  "id": 1083184629,
  "lat": 43.3014951,
  "lon": -2.2051957
},
{
  "type": "node",
  "id": 1083184639,
  "lat": 43.3010062,
  "lon": -2.2044391
},
{
  "type": "node",
  "id": 1083184642,
  "lat": 43.3016228,
  "lon": -2.2052986
},
{
  "type": "node",
  "id": 1083184647,
  "lat": 43.3009599,
  "lon": -2.2048144
},
{
  "type": "node",
  "id": 1083184666,
  "lat": 43.3018122,
  "lon": -2.2054378
},
{
  "type": "node",
  "id": 1083184671,
  "lat": 43.3013872,
  "lon": -2.2045662
},
{
  "type": "node",
  "id": 1083184680,
  "lat": 43.3018937,
  "lon": -2.2054045
},
{
  "type": "node",
  "id": 1083184686,
  "lat": 43.3013101,
  "lon": -2.2045269
},
{
  "type": "node",
  "id": 1083184693,
  "lat": 43.3018605,
  "lon": -2.2047937
},
{
  "type": "node",
  "id": 1083184698,
  "lat": 43.3016911,
  "lon": -2.2049445
},
{
  "type": "node",
  "id": 1083184704,
  "lat": 43.3018166,
  "lon": -2.2050080
},
{
  "type": "node",
  "id": 1083184706,
  "lat": 43.3014511,
  "lon": -2.2046328
},
{
  "type": "node",
  "id": 1083184707,
  "lat": 43.3020368,
  "lon": -2.2048732
},
{
  "type": "node",
  "id": 1083184716,
  "lat": 43.3017330,
  "lon": -2.2053349
},
{
  "type": "node",
  "id": 1083184717,
  "lat": 43.3012374,
  "lon": -2.2048779
},
{
  "type": "node",
  "id": 1083184723,
  "lat": 43.3017153,
  "lon": -2.2054166
},
{
  "type": "node",
  "id": 1083184725,
  "lat": 43.3014158,
  "lon": -2.2051019
},
{
  "type": "node",
  "id": 760338386,
  "lat": 43.2854446,
  "lon": -2.0002835
},
{
  "type": "node",
  "id": 760338388,
  "lat": 43.2854222,
  "lon": -2.0002726
},
{
  "type": "node",
  "id": 760338390,
  "lat": 43.2853287,
  "lon": -2.0003721
},
{
  "type": "node",
  "id": 760338391,
  "lat": 43.2853405,
  "lon": -2.0003993
},
{
  "type": "node",
  "id": 760338393,
  "lat": 43.2853274,
  "lon": -2.0004336
},
{
  "type": "node",
  "id": 760338396,
  "lat": 43.2855064,
  "lon": -2.0005367
},
{
  "type": "node",
  "id": 760338407,
  "lat": 43.2856092,
  "lon": -2.0003450
},
{
  "type": "node",
  "id": 760338409,
  "lat": 43.2854814,
  "lon": -2.0002184
},
{
  "type": "node",
  "id": 760338411,
  "lat": 43.2854472,
  "lon": -2.0005295
},
{
  "type": "node",
  "id": 760338414,
  "lat": 43.2854590,
  "lon": -2.0004915
},
{
  "type": "node",
  "id": 309274400,
  "lat": 43.3246865,
  "lon": -1.9861518
},
{
  "type": "node",
  "id": 442093919,
  "lat": 43.3243817,
  "lon": -1.9857666
},
{
  "type": "node",
  "id": 1841513485,
  "lat": 43.3245981,
  "lon": -1.9860149
},
{
  "type": "node",
  "id": 1885785861,
  "lat": 43.3246205,
  "lon": -1.9859538
},
{
  "type": "node",
  "id": 1885785865,
  "lat": 43.3246400,
  "lon": -1.9859860
},
{
  "type": "node",
  "id": 258372685,
  "lat": 43.3251846,
  "lon": -1.9849664
},
{
  "type": "node",
  "id": 258372686,
  "lat": 43.3248411,
  "lon": -1.9846397
},
{
  "type": "node",
  "id": 299244432,
  "lat": 43.3246048,
  "lon": -1.9852556
},
{
  "type": "node",
  "id": 309274402,
  "lat": 43.3251486,
  "lon": -1.9853237
},
{
  "type": "node",
  "id": 309274404,
  "lat": 43.3251960,
  "lon": -1.9853254
},
{
  "type": "node",
  "id": 309274411,
  "lat": 43.3255096,
  "lon": -1.9848068
},
{
  "type": "node",
  "id": 309274422,
  "lat": 43.3255779,
  "lon": -1.9848005
},
{
  "type": "node",
  "id": 309274423,
  "lat": 43.3256073,
  "lon": -1.9847534
},
{
  "type": "node",
  "id": 619866300,
  "lat": 43.3248835,
  "lon": -1.9852721
},
{
  "type": "node",
  "id": 619866303,
  "lat": 43.3247094,
  "lon": -1.9851214
},
{
  "type": "node",
  "id": 619866310,
  "lat": 43.3245860,
  "lon": -1.9852364
},
{
  "type": "node",
  "id": 619866313,
  "lat": 43.3248172,
  "lon": -1.9848862
},
{
  "type": "node",
  "id": 619866314,
  "lat": 43.3249912,
  "lon": -1.9850369
},
{
  "type": "node",
  "id": 1541966883,
  "lat": 43.3252980,
  "lon": -1.9846077
},
{
  "type": "node",
  "id": 1841513461,
  "lat": 43.3254605,
  "lon": -1.9846657
},
{
  "type": "node",
  "id": 1841513479,
  "lat": 43.3252817,
  "lon": -1.9848131
},
{
  "type": "node",
  "id": 1841513506,
  "lat": 43.3255152,
  "lon": -1.9845719
},
{
  "type": "node",
  "id": 1841513510,
  "lat": 43.3256693,
  "lon": -1.9846496
},
{
  "type": "node",
  "id": 1885785843,
  "lat": 43.3250127,
  "lon": -1.9851465
},
{
  "type": "node",
  "id": 1885785848,
  "lat": 43.3250908,
  "lon": -1.9852162
},
{
  "type": "node",
  "id": 1885785852,
  "lat": 43.3251610,
  "lon": -1.9850660
},
{
  "type": "node",
  "id": 1885785856,
  "lat": 43.3250679,
  "lon": -1.9853706
},
{
  "type": "node",
  "id": 1885785868,
  "lat": 43.3249561,
  "lon": -1.9853584
},
{
  "type": "node",
  "id": 1885785916,
  "lat": 43.3248995,
  "lon": -1.9854147
},
{
  "type": "node",
  "id": 1885785921,
  "lat": 43.3252039,
  "lon": -1.9851599
},
{
  "type": "node",
  "id": 1885789062,
  "lat": 43.3251107,
  "lon": -1.9852602
},
{
  "type": "node",
  "id": 1885789065,
  "lat": 43.3251346,
  "lon": -1.9852754
},
{
  "type": "node",
  "id": 856536718,
  "lat": 43.3775120,
  "lon": -1.7388997
},
{
  "type": "node",
  "id": 856541579,
  "lat": 43.3775199,
  "lon": -1.7388965
},
{
  "type": "node",
  "id": 856545731,
  "lat": 43.3775415,
  "lon": -1.7390042
},
{
  "type": "node",
  "id": 856549822,
  "lat": 43.3776421,
  "lon": -1.7387691
},
{
  "type": "node",
  "id": 856586202,
  "lat": 43.3776259,
  "lon": -1.7386846
},
{
  "type": "node",
  "id": 856591188,
  "lat": 43.3776780,
  "lon": -1.7389539
},
{
  "type": "node",
  "id": 856600133,
  "lat": 43.3774796,
  "lon": -1.7387378
},
{
  "type": "node",
  "id": 864448030,
  "lat": 43.3227447,
  "lon": -1.5881335
},
{
  "type": "node",
  "id": 864453832,
  "lat": 43.3228040,
  "lon": -1.5883608
},
{
  "type": "node",
  "id": 864460116,
  "lat": 43.3228544,
  "lon": -1.5880795
},
{
  "type": "node",
  "id": 864468512,
  "lat": 43.3229131,
  "lon": -1.5883084
},
{
  "type": "node",
  "id": 2534916520,
  "lat": 43.3228619,
  "lon": -1.5883310
},
{
  "type": "node",
  "id": 848434664,
  "lat": 43.4211416,
  "lon": -1.6089277
},
{
  "type": "node",
  "id": 848434964,
  "lat": 43.4210134,
  "lon": -1.6090452
},
{
  "type": "node",
  "id": 848436271,
  "lat": 43.4211750,
  "lon": -1.6091331
},
{
  "type": "node",
  "id": 848438327,
  "lat": 43.4211813,
  "lon": -1.6091600
},
{
  "type": "node",
  "id": 848438353,
  "lat": 43.4210374,
  "lon": -1.6091225
},
{
  "type": "node",
  "id": 848438686,
  "lat": 43.4211250,
  "lon": -1.6091849
},
{
  "type": "node",
  "id": 848439806,
  "lat": 43.4210527,
  "lon": -1.6091872
},
{
  "type": "node",
  "id": 848439915,
  "lat": 43.4210024,
  "lon": -1.6090502
},
{
  "type": "node",
  "id": 848441376,
  "lat": 43.4209753,
  "lon": -1.6088831
},
{
  "type": "node",
  "id": 848445540,
  "lat": 43.4211185,
  "lon": -1.6091580
},
{
  "type": "node",
  "id": 848446950,
  "lat": 43.4210963,
  "lon": -1.6088294
},
{
  "type": "node",
  "id": 848448672,
  "lat": 43.4210210,
  "lon": -1.6091296
},
{
  "type": "node",
  "id": 848449915,
  "lat": 43.4211214,
  "lon": -1.6089365
},
{
  "type": "node",
  "id": 848451682,
  "lat": 43.4211885,
  "lon": -1.6091269
},
{
  "type": "way",
  "id": 48857457,
  "nodes": [
    619866300,
    619866303,
    619866313,
    619866314,
    619866300
  ]
},
{
  "type": "way",
  "id": 27263143,
  "nodes": [
    1841513479,
    258372685,
    258372686,
    619866310,
    299244432,
    442093919,
    1841513485,
    309274400,
    309274402,
    309274404,
    309274411,
    309274422,
    309274423,
    1841513510,
    1841513506,
    1841513461,
    1541966883,
    1841513479
  ]
},
{
  "type": "way",
  "id": 178206472,
  "nodes": [
    1885785865,
    1885785861,
    1885785916,
    1885785843,
    1885785848,
    1885785852,
    1885785921,
    1885789065,
    1885789062,
    1885785856,
    1885785868,
    1885785865
  ]
}

  ]
}
