{
  "version": 0.6,
  "generator": "Overpass API 0.7.55.1011 6c2efc30",
  "osm3s": {
    "timestamp_osm_base": "2020-02-14T10:01:02Z",
    "copyright": "The data included in this document is from www.openstreetmap.org. The data is made available under ODbL."
  },
  "elements": [

{
  "type": "node",
  "id": 35151576,
  "lat": 48.1159284,
  "lon": 11.2062224,
  "tags": {
    "name": "Bauernhofmuseum Jexhof",
    "tourism": "museum",
    "website": "https://www.jexhof.de/",
    "wikidata": "Q811279",
    "wikipedia": "de:Bauernhofmuseum Jexhof"
  }
},
{
  "type": "node",
  "id": 60013074,
  "lat": 48.1366906,
  "lon": 11.5768793,
  "tags": {
    "addr:city": "München",
    "addr:country": "DE",
    "addr:housenumber": "15",
    "addr:postcode": "80331",
    "addr:street": "Marienplatz",
    "email": "ivan.steiger@freenet.de",
    "fax": "+49 89 2717014",
    "name": "Spielzeugmuseum",
    "name:de": "Spielzeugmuseum",
    "name:en": "Toy Museum",
    "opening_hours": "Mo-Fr 10:00-17:30",
    "operator": "Ivan Steiger",
    "phone": "+49 89 2711969",
    "tourism": "museum",
    "website": "http://www.spielzeugmuseum-muenchen.de/",
    "wheelchair": "no",
    "wikidata": "Q76628660"
  }
},
{
  "type": "node",
  "id": 249814994,
  "lat": 48.1481925,
  "lon": 11.5725186,
  "tags": {
    "addr:city": "München",
    "addr:housenumber": "41",
    "addr:postcode": "80333",
    "addr:street": "Theresienstraße",
    "contact:email": "mineralogische.staatssammlung@lrz.uni-muenchen.de",
    "contact:fax": "+49 89 2180 - 4334",
    "contact:phone": "+49 89 2180 - 4312",
    "contact:website": "http://www.mineralogische-staatssammlung.de",
    "level": "1",
    "name": "Reich der Kristalle",
    "opening_hours": "Th-Su,PH 13:00-17:00",
    "tourism": "museum",
    "wheelchair": "no",
    "wikidata": "Q1792764",
    "wikipedia": "de:Museum Reich der Kristalle"
  }
},
{
  "type": "node",
  "id": 250887769,
  "lat": 48.0610628,
  "lon": 11.6183891,
  "tags": {
    "name": "Heimatmuseum",
    "opening_hours": "Su 2./ 4. 13:30-16:30",
    "tourism": "museum",
    "website": "http://www.heimatmuseum-unterhaching.de",
    "wheelchair": "limited"
  }
},
{
  "type": "node",
  "id": 251071848,
  "lat": 48.2284985,
  "lon": 11.6722355,
  "tags": {
    "addr:city": "Ismaning",
    "addr:country": "DE",
    "addr:housenumber": "3b",
    "addr:postcode": "85737",
    "addr:street": "Schloßstraße",
    "name": "Kallmann-Museum",
    "opening_hours": "Tu-Su 14:30-17:00",
    "phone": "+49-89-9612948",
    "tourism": "museum",
    "website": "https://kallmann-museum.de/",
    "wikidata": "Q1722508"
  }
},
{
  "type": "node",
  "id": 253619308,
  "lat": 48.0459207,
  "lon": 11.6090913,
  "tags": {
    "name": "Keltenhaus",
    "tourism": "museum"
  }
},
{
  "type": "node",
  "id": 260432742,
  "lat": 48.1030126,
  "lon": 11.6022296,
  "tags": {
    "addr:city": "München",
    "addr:country": "DE",
    "addr:housenumber": "20",
    "addr:postcode": "81549",
    "addr:street": "Ständlerstraße",
    "name": "MVG-Museum",
    "opening_hours": "2019 Feb 03,2019 Feb 24,2019 Mar 09,2019 Mar 10,2019 Mar 24,2019 Apr 14,2019 Apr 21,2019 May 12,2019 May 26,2019 Jun 08,2019 Jun 09,2019 Jun 23,2019 Jul 07,2019 Jul 28 11:00-17:00; Aug off",
    "operator": "Münchner Verkehrsgesellschaft",
    "tourism": "museum",
    "wheelchair": "limited",
    "wikidata": "Q280024",
    "wikipedia": "de:MVG Museum"
  }
},
{
  "type": "node",
  "id": 261030708,
  "lat": 48.1406325,
  "lon": 11.5786154,
  "tags": {
    "addr:city": "München",
    "addr:country": "DE",
    "addr:housename": "Residenzmuseum",
    "addr:housenumber": "3",
    "addr:postcode": "80333",
    "addr:street": "Max-Joseph-Platz",
    "email": "residenzmuenchen@bsv.bayern.de",
    "name": "Residenzmuseum und Schatzkammer",
    "name:en": "Residence Museum and Treasury",
    "name:it": "Museo della Residenz e Tesoro",
    "name:zh": "慕尼黑寶物館",
    "note": "letzter Einlass ist eine Stunde früher",
    "opening_hours": "Apr 01-Oct 15: 09:00-18:00; Oct 16-Mar 31: 10:00-17:00",
    "phone": "+49 89 29067-1",
    "tourism": "museum",
    "website": "http://www.residenz-muenchen.de",
    "wheelchair": "no",
    "wikidata": "Q2145673",
    "wikipedia": "de:Residenzmuseum"
  }
},
{
  "type": "node",
  "id": 287609408,
  "lat": 48.1940365,
  "lon": 11.3708388,
  "tags": {
    "addr:city": "Gröbenzell",
    "addr:country": "DE",
    "addr:housenumber": "3",
    "addr:postcode": "82194",
    "addr:street": "Rathausstraße",
    "name": "Heimat- und Torfmuseum",
    "opening_hours": "Su 10:00-12:00",
    "toilets:wheelchair": "yes",
    "tourism": "museum",
    "website": "http://www.torfmuseum.de/",
    "wheelchair": "yes",
    "wheelchair:description": "Behinderten-WC im UG der \"Alten Schule\""
  }
},
{
  "type": "node",
  "id": 296313563,
  "lat": 48.1602752,
  "lon": 11.5038365,
  "tags": {
    "contact:email": "museum@musmn.de",
    "contact:phone": "+49 89 1795890",
    "contact:website": "http://www.mmn-muenchen.de/",
    "name": "Mensch und Natur",
    "name:de": "Museum Mensch und Natur",
    "opening_hours": "Tu-Fr 09:00-17:00; Th 09:00-20:00; Sa,Su,PH 10:00-18:00",
    "toilets:wheelchair": "yes",
    "tourism": "museum",
    "wheelchair": "yes",
    "wikidata": "Q1954475",
    "wikipedia": "de:Museum Mensch und Natur",
    "wikipedia:en": "Museum of Man and Nature"
  }
},
{
  "type": "node",
  "id": 296314458,
  "lat": 48.1565946,
  "lon": 11.5044675,
  "tags": {
    "name": "Marstallmuseum Nymphenburg",
    "tourism": "museum",
    "wheelchair": "limited",
    "wikidata": "Q1902850",
    "wikipedia": "de:Marstallmuseum Nymphenburg"
  }
},
{
  "type": "node",
  "id": 305581866,
  "lat": 48.1433855,
  "lon": 11.5911498,
  "tags": {
    "addr:city": "München",
    "addr:housenumber": "3",
    "addr:postcode": "80538",
    "addr:street": "Prinzregentenstraße",
    "email": "bay.nationalmuseum@bnm.mwn.de",
    "name": "Bayerisches Nationalmuseum",
    "name:de": "Bayerisches Nationalmuseum",
    "name:es": "Museo Nacional Bávaro",
    "name:ru": "Баварский национальный музей",
    "name:zh": "巴伐利亞博物館",
    "opening_hours": "Tu-Su 10:00-17:00; Th 10:00-20:00",
    "phone": "+49 89 21 12 40 1",
    "tourism": "museum",
    "website": "http://www.bayerisches-nationalmuseum.de",
    "wheelchair": "limited",
    "wikidata": "Q631056",
    "wikipedia": "de:Bayerisches Nationalmuseum"
  }
},
{
  "type": "node",
  "id": 307729968,
  "lat": 48.1412382,
  "lon": 11.5783094,
  "tags": {
    "addr:city": "München",
    "addr:country": "DE",
    "addr:housenumber": "1",
    "addr:postcode": "80333",
    "addr:street": "Residenzstraße",
    "email": "info@staatliche-muenzsammlung.de",
    "name": "Staatliche Münzsammlung München",
    "opening_hours": "Tu-Su 10:00-17:00",
    "phone": "+49 89 227221",
    "tourism": "museum",
    "website": "https://www.staatliche-muenzsammlung.de/",
    "wheelchair": "no",
    "wikidata": "Q28738691"
  }
},
{
  "type": "node",
  "id": 307729970,
  "lat": 48.1436723,
  "lon": 11.5805408,
  "tags": {
    "addr:city": "München",
    "addr:country": "DE",
    "addr:housenumber": "4a",
    "addr:postcode": "80539",
    "addr:street": "Galeriestraße",
    "email": "info@deutschestheatermuseum.de",
    "name": "Deutsches Theatermuseum",
    "name:zh": "慕尼黑王宮",
    "opening_hours": "Tu-Th 10:00-16:00",
    "phone": "+49 89 21069128",
    "tourism": "museum",
    "wheelchair": "limited",
    "wikidata": "Q1206066"
  }
},
{
  "type": "node",
  "id": 307734040,
  "lat": 48.1475373,
  "lon": 11.5643849,
  "tags": {
    "name": "Geologisches Museum",
    "opening_hours": "Mo-Th 08:00-16:00; Fr 08:00-14:00",
    "tourism": "museum",
    "wheelchair": "yes",
    "wikidata": "Q1503250",
    "wikipedia": "de:Geologisches Museum München"
  }
},
{
  "type": "node",
  "id": 307738674,
  "lat": 48.1383389,
  "lon": 11.5715942,
  "tags": {
    "addr:city": "München",
    "addr:country": "DE",
    "addr:housenumber": "2",
    "addr:postcode": "80331",
    "addr:street": "Neuhauser Straße",
    "name": "Deutsches Jagd- und Fischereimuseum",
    "name:ru": "Немецкий музей охоты и рыболовства",
    "opening_hours": "Mo-Su 09:30-17:00; Th 09:30-21:00",
    "phone": "+49 89 220522",
    "tourism": "museum",
    "website": "http://www.jagd-fischerei-museum.de/start/",
    "wheelchair": "no",
    "wikidata": "Q152966"
  }
},
{
  "type": "node",
  "id": 311595911,
  "lat": 48.0645001,
  "lon": 11.6648782,
  "tags": {
    "addr:city": "Ottobrunn",
    "addr:country": "DE",
    "addr:housenumber": "3",
    "addr:postcode": "85521",
    "addr:street": "Rathausstraße",
    "level": "0",
    "name": "Otto-König-von-Griechenland-Museum",
    "opening_hours": "Th 15:00-18:00; Sa 10:00-13:00; Mo,Tu,We,Fr,Su,PH off",
    "phone": "+49 89 608080",
    "source": "survey",
    "tourism": "museum",
    "wikidata": "Q77067",
    "wikipedia": "de:Otto (Griechenland)"
  }
},
{
  "type": "node",
  "id": 316078129,
  "lat": 48.1689279,
  "lon": 11.2490948,
  "tags": {
    "addr:city": "Fürstenfeldbruck",
    "addr:country": "DE",
    "addr:housenumber": "6a",
    "addr:postcode": "82256",
    "addr:street": "Fürstenfeld",
    "email": "stadtmuseum@fuerstenfeldbruck.de",
    "name": "Stadtmuseum Fürstenfeldbruck",
    "opening_hours": "Tu-Sa 13:00-17:00; Su,PH 11:00-17:00",
    "operator": "Stadt Fürstenfeldbruck",
    "phone": "+49 8141 44046",
    "tourism": "museum",
    "website": "http://www.stadtmuseumffb.de/",
    "wheelchair": "yes"
  }
},
{
  "type": "node",
  "id": 344494568,
  "lat": 48.1349538,
  "lon": 11.5816508,
  "tags": {
    "addr:city": "München",
    "addr:country": "DE",
    "addr:housenumber": "50",
    "addr:postcode": "80331",
    "addr:street": "Tal",
    "name": "Valentin-Karlstadt-Musäum",
    "note": "\"Musäum\" is not a typo",
    "opening_hours": "Mo,Tu,Th 11:01-17:29; Fr,Sa 11:01-17:59; Su 10:01-17:59; We off",
    "phone": "+49 89 223266",
    "source": "local_knowledge",
    "tourism": "museum",
    "website": "http://www.valentin-musaeum.de",
    "wheelchair": "no",
    "wikidata": "Q264209",
    "wikipedia": "de:Valentin-Karlstadt-Musäum"
  }
},
{
  "type": "node",
  "id": 350381176,
  "lat": 48.1664596,
  "lon": 11.3196598,
  "tags": {
    "name": "Pfefferminzmuseum",
    "tourism": "museum",
    "website": "http://www.minzmuseum.de",
    "wikidata": "Q2083455"
  }
},
{
  "type": "node",
  "id": 384926026,
  "lat": 48.0428072,
  "lon": 11.5195282,
  "tags": {
    "addr:city": "Grünwald",
    "addr:country": "DE",
    "addr:housenumber": "3",
    "addr:postcode": "82031",
    "addr:street": "Zeillerstraße",
    "entrance": "main",
    "name": "Burgmuseum Grünwald",
    "opening_hours": "We-Su 10:00-16:30; Dec 01-Mar 14 off",
    "tourism": "museum",
    "website": "http://www.archaeologie-bayern.de/de/zweigmuseen/gruenwald/",
    "wheelchair": "no",
    "wikidata": "Q1015139",
    "wikipedia": "de:Burgmuseum Grünwald"
  }
},
{
  "type": "node",
  "id": 391502180,
  "lat": 48.1720366,
  "lon": 11.2595235,
  "tags": {
    "name": "Feldbahnmuseum",
    "tourism": "museum",
    "website": "http://www.mec-ffb.de/"
  }
},
{
  "type": "node",
  "id": 394815173,
  "lat": 48.2592677,
  "lon": 11.4343699,
  "tags": {
    "addr:city": "Dachau",
    "addr:country": "DE",
    "addr:housenumber": "3",
    "addr:postcode": "85221",
    "addr:street": "Augsburger Straße",
    "name": "Bezirksmuseum Dachau",
    "opening_hours": "Tu-Fr 11:00-17:00; Sa,Su 13:00-17:00",
    "phone": "+49 8131 5675 0",
    "tourism": "museum",
    "website": "https://www.dachauer-galerien-museen.de/",
    "wheelchair": "limited",
    "wikidata": "Q854283",
    "wikipedia": "de:Bezirksmuseum Dachau"
  }
},
{
  "type": "node",
  "id": 443435665,
  "lat": 48.1325754,
  "lon": 11.5698500,
  "tags": {
    "fee": "no",
    "name": "Feuerwehrmuseum",
    "opening_hours": "Sa 09:00-16:00",
    "tourism": "museum",
    "wheelchair": "limited"
  }
},
{
  "type": "node",
  "id": 492859350,
  "lat": 48.0473436,
  "lon": 11.7019513,
  "tags": {
    "name": "Lebensraum Kunst",
    "tourism": "museum"
  }
},
{
  "type": "node",
  "id": 533741223,
  "lat": 48.1689864,
  "lon": 11.2482875,
  "tags": {
    "addr:city": "Fürstenfeldbruck",
    "addr:country": "DE",
    "addr:postcode": "82256",
    "addr:street": "Fürstenfeld",
    "name": "Energiemuseum",
    "operator": "Stadtwerke Fürstenfeldbruck",
    "phone": "+49 8141 401 0",
    "tourism": "museum",
    "wheelchair": "limited"
  }
},
{
  "type": "node",
  "id": 620383515,
  "lat": 48.0729731,
  "lon": 11.9707861,
  "tags": {
    "addr:city": "Ebersberg",
    "addr:country": "DE",
    "addr:housenumber": "2",
    "addr:postcode": "85560",
    "addr:street": "August-Birkmaier-Weg",
    "name": "Grabkreuzmuseum M. Bergmeister",
    "opening_hours": "Sa 09:00-12:00",
    "tourism": "museum",
    "website": "http://www.bergmeister-kunstschmiede.de/de/grabkreuzmuseum.html"
  }
},
{
  "type": "node",
  "id": 653950587,
  "lat": 48.2263596,
  "lon": 11.4679543,
  "tags": {
    "fee": "1.50 Euro",
    "name": "Heimatmuseum Karlsfeld",
    "opening_hours": "May,Jun,Jul,Sep,Oct: Sa 13:00-17:00",
    "tourism": "museum",
    "wikidata": "Q76628053"
  }
},
{
  "type": "node",
  "id": 654580309,
  "lat": 48.1456993,
  "lon": 11.5635930,
  "tags": {
    "layer": "-1",
    "name": "Kunstbau",
    "opening_hours": "Tu 10:00-20:00; We-Su 10:00-18:00",
    "tourism": "museum",
    "wheelchair": "limited",
    "wikidata": "Q76628637"
  }
},
{
  "type": "node",
  "id": 656253064,
  "lat": 48.1352868,
  "lon": 11.5802912,
  "tags": {
    "addr:city": "München",
    "addr:country": "DE",
    "addr:housenumber": "2",
    "addr:postcode": "80331",
    "addr:street": "Sterneckerstraße",
    "name": "Bier- und Oktoberfestmuseum",
    "name:ru": "Музей пива и Октоберфеста",
    "name:zh": "啤酒节博物馆",
    "opening_hours": "Tu-Sa 13:00-19:00",
    "operator": "Edith-Haberland-Wagner-Stiftung",
    "tourism": "museum",
    "website": "https://www.bier-und-oktoberfestmuseum.de/",
    "wheelchair": "no",
    "wikidata": "Q857725"
  }
},
{
  "type": "node",
  "id": 673715731,
  "lat": 48.1414610,
  "lon": 11.5582786,
  "tags": {
    "addr:city": "München",
    "addr:country": "DE",
    "addr:housenumber": "3",
    "addr:postcode": "80335",
    "addr:street": "Arnulfstraße",
    "contact:email": "info@kindermuseum-muenchen.de",
    "contact:fax": "+49 8954 04 64418",
    "contact:phone": "+49 8954 04 6440",
    "contact:website": "www.kindermuseum-muenchen.de",
    "level": "0",
    "name": "Kinder- und Jugendmuseum",
    "name:ru": "Музей для детей и юношества",
    "operator": "Pädagogische Aktion/ Kinder- und Jugendmuseum München e.V.",
    "phone": "+49 8954 04 6440",
    "source": "survey by BenE München",
    "tourism": "museum",
    "wikidata": "Q1741730"
  }
},
{
  "type": "node",
  "id": 719809011,
  "lat": 48.1706896,
  "lon": 11.5377383,
  "tags": {
    "name": "Borstei-Museum",
    "opening_hours": "Tu,Th,Sa 15:00-18:00; PH,SH off",
    "tourism": "museum",
    "website": "http://www.forum-in-der-borstei.de"
  }
},
{
  "type": "node",
  "id": 775977487,
  "lat": 48.3325890,
  "lon": 11.6164586,
  "tags": {
    "name": "Ofenladen & Museum",
    "tourism": "museum",
    "wpt_symbol": "Museum"
  }
},
{
  "type": "node",
  "id": 897055752,
  "lat": 48.2285292,
  "lon": 11.6729545,
  "tags": {
    "name": "Schlossmuseum",
    "opening_hours": "Tu-Su 14:30-17:00",
    "tourism": "museum",
    "website": "https://schlossmuseum.ismaning.de/",
    "wikidata": "Q1301400",
    "wikipedia": "de:Schlossmuseum Ismaning"
  }
},
{
  "type": "node",
  "id": 953031130,
  "lat": 48.1256149,
  "lon": 11.6058401,
  "tags": {
    "name": "Kartoffelmuseum",
    "tourism": "museum",
    "website": "http://www.kartoffelmuseum.de",
    "wheelchair": "yes",
    "wikidata": "Q832438"
  }
},
{
  "type": "node",
  "id": 1132403384,
  "lat": 48.1370351,
  "lon": 11.5775787,
  "tags": {
    "addr:city": "München",
    "addr:country": "DE",
    "addr:housenumber": "3",
    "addr:postcode": "80331",
    "addr:street": "Sparkassenstraße",
    "amenity": "arts_centre",
    "name": "Kunstarkaden",
    "opening_hours": "Tu-Sa 13:00-19:00",
    "phone": "+49 89 233 237 84",
    "toilets:wheelchair": "no",
    "tourism": "museum",
    "website": "https://www.muenchen.de/kunstarkaden",
    "website2": "http://www.muenchen.de/rathaus/Stadtverwaltung/Kulturreferat/Museen-Galerien/Kunstarkaden.html",
    "wheelchair": "limited",
    "wheelchair:description": "Zugang ebenerdig, innen Rampe mit ca. 15 % Steigung, 1 Handlauf. 2 Behindertenparkplätze im Tal 2, 1 Platz Sparkassenstraße 17. Kein barrierefreies WC."
  }
},
{
  "type": "node",
  "id": 1132414558,
  "lat": 48.1381554,
  "lon": 11.5758936,
  "tags": {
    "addr:city": "München",
    "addr:country": "DE",
    "addr:housenumber": "8",
    "addr:postcode": "80331",
    "addr:street": "Marienplatz",
    "amenity": "arts_centre",
    "name": "Rathausgalerie | Kunsthalle",
    "opening_hours": "Tu-Su 11:00-19:00",
    "phone": "+49 89 233 284 08",
    "tourism": "museum",
    "website": "https://www.muenchen.de/rathausgalerie",
    "wheelchair": "limited"
  }
},
{
  "type": "node",
  "id": 1132445659,
  "lat": 48.1354219,
  "lon": 11.5737522,
  "tags": {
    "addr:city": "München",
    "addr:country": "DE",
    "addr:housenumber": "16",
    "addr:postcode": "80331",
    "addr:street": "Rosental",
    "amenity": "arts_centre",
    "name": "Artothek & Bildersaal",
    "opening_hours": "We,Fr 14:00-18:00; Th 14:00-19:30; Sa 09:00-13:00",
    "phone": "+49 89 23269635",
    "toilets:wheelchair": "no",
    "tourism": "museum",
    "website": "https://www.muenchen.de/artothek",
    "wheelchair": "yes",
    "wheelchair:description": "Zugang ebenerdig von der Ecke Rosental / Oberanger. 2 Behindertenparkplätze am Rindermarkt 17 sowie in der Tiefgarage Oberanger. Kein barrierefreies WC"
  }
},
{
  "type": "node",
  "id": 1270683846,
  "lat": 48.1827884,
  "lon": 11.5996874,
  "tags": {
    "name": "Ausstellungshalle DomagkAteliers",
    "note": "Name rührt von der ehemalige Funkkaserne an der Domagkstraße, Gebäude 50 her",
    "source": "http://http://www.atelierhaus-domagkpark.de/ausstellungshalle.html",
    "tourism": "museum",
    "wheelchair": "limited"
  }
},
{
  "type": "node",
  "id": 1337245468,
  "lat": 48.1566526,
  "lon": 11.5046228,
  "tags": {
    "layer": "1",
    "name": "Porzellanmuseum München",
    "tourism": "museum",
    "wheelchair": "yes",
    "wikidata": "Q2105542",
    "wikipedia": "de:Porzellanmuseum München"
  }
},
{
  "type": "node",
  "id": 1913162143,
  "lat": 48.2490160,
  "lon": 11.5590862,
  "tags": {
    "addr:city": "Oberschleißheim",
    "addr:housenumber": "1",
    "addr:postcode": "85764",
    "addr:street": "Max-Emanuel-Platz",
    "name": "Ökumenische Sammlung Gertrud Weinhold",
    "opening_hours": "Apr-Sep Tu-Su 09:00-18:00; Oct-Mar Tu-Su 10:00-16:00; Jan 1,Dec 24,Dec 25,Dec 31 off \"Faschingsdienstag geschlossen \"",
    "operator": "Bayerisches Nationalmuseum",
    "phone": "+49 89 31587212",
    "toilets:wheelchair": "yes",
    "tourism": "museum",
    "website": "https://www.bayerisches-nationalmuseum.de/index.php?id=578",
    "wheelchair": "yes",
    "wheelchair:description": "Für Zugang zum Aufzug an der Kasse melden; Klingel im Durchgang zum Maximilianshof"
  }
},
{
  "type": "node",
  "id": 1976828516,
  "lat": 47.8748986,
  "lon": 11.4639691,
  "tags": {
    "name": "Heimatmuseum",
    "tourism": "museum"
  }
},
{
  "type": "node",
  "id": 2045160828,
  "lat": 48.1031579,
  "lon": 11.4191666,
  "tags": {
    "name": "Deutsches Skimuseum",
    "tourism": "museum",
    "website": "https://www.ski-online.de/",
    "wikidata": "Q76629100"
  }
},
{
  "type": "node",
  "id": 2119045253,
  "lat": 48.3051317,
  "lon": 11.9108451,
  "tags": {
    "addr:housenumber": "1",
    "addr:street": "Prielmayerstraße",
    "email": "museum@erding.de",
    "name": "Museum Erding",
    "opening_hours": "Tu-Su 13:00-17:00",
    "operator": "Stadt Erding",
    "phone": "+49 8122 408150",
    "tourism": "museum",
    "website": "http://www.museum-erding.de",
    "wheelchair": "yes",
    "wikidata": "Q33216127"
  }
},
{
  "type": "node",
  "id": 2131261751,
  "lat": 48.1810526,
  "lon": 11.9782569,
  "tags": {
    "name": "Eicher Museum",
    "opening_hours": "Sa 11:00-17:00",
    "operator": "Eicherfreunde Forstern",
    "tourism": "museum"
  }
},
{
  "type": "node",
  "id": 2266819315,
  "lat": 48.1522792,
  "lon": 11.5338044,
  "tags": {
    "addr:city": "München",
    "addr:country": "DE",
    "addr:housenumber": "1",
    "addr:postcode": "80634",
    "addr:street": "Schulstraße",
    "name": "Machwerk AtelierWerkstatt",
    "note": "Offenes Atelier; im Innenhof hinter dem blauen Tor",
    "operator": "Machwerk",
    "phone": "+49 89 55291972",
    "source": "http://www.machwerk-muenchen.de",
    "tourism": "museum",
    "website": "http://www.machwerk-muenchen.de",
    "wheelchair": "limited"
  }
},
{
  "type": "node",
  "id": 2326704331,
  "lat": 47.8808146,
  "lon": 11.9108567,
  "tags": {
    "addr:city": "Bruckmühl",
    "addr:housenumber": "30",
    "addr:postcode": "83052",
    "addr:street": "Bahnhofstraße",
    "name": "Tierkundemuseum",
    "phone": "+49 8062 4323",
    "toilets:wheelchair": "yes",
    "tourism": "museum",
    "website": "http://www.naturerlebnis-bruckmuehl.de/",
    "wheelchair": "yes",
    "wikidata": "Q76627272"
  }
},
{
  "type": "node",
  "id": 2429091743,
  "lat": 48.0998557,
  "lon": 11.5370224,
  "tags": {
    "addr:city": "München",
    "addr:country": "DE",
    "addr:housenumber": "33",
    "addr:postcode": "81379",
    "addr:street": "Boschetsrieder Straße",
    "name": "Münchner Sanitäts Museum",
    "note": "Besuch nur mit voriger Anmeldung bei mailto:volker.schneider@brk-museum.de",
    "tourism": "museum",
    "url": "http://www.rotkreuz-museum.com/",
    "website": "http://www.brk-museum.de/AG_Deutschland/Netzwerk/RKM_Munchen/rkm_munchen.html"
  }
},
{
  "type": "node",
  "id": 2449923681,
  "lat": 48.2486892,
  "lon": 11.5590735,
  "tags": {
    "addr:city": "Oberschleißheim",
    "addr:postcode": "85764",
    "name": "Sammlung zur Landeskunde Ost- und Westpreußens",
    "opening_hours": "Apr-Sep Tu-Su 09:00-18:00; Oct-Mar Tu-Su 10:00-16:00; Jan 1,Dec 24,Dec 25,Dec 31 off \"Faschingsdienstag geschlossen \"",
    "operator": "Bayerisches Nationalmuseum",
    "phone": "+49 89 31587212",
    "toilets:wheelchair": "yes",
    "tourism": "museum",
    "website": "https://www.bayerisches-nationalmuseum.de/index.php?id=579",
    "wheelchair": "yes"
  }
},
{
  "type": "node",
  "id": 2449924782,
  "lat": 48.2485633,
  "lon": 11.5758840,
  "tags": {
    "addr:city": "Oberschleißheim",
    "addr:housename": "Schloß Lustheim",
    "addr:housenumber": "1",
    "addr:postcode": "85764",
    "addr:street": "Schloß Lustheim",
    "name": "Meißener Porzellan-Sammlung Stiftung Ernst Schneider",
    "note": "Bayerisches Nationalmuseum Prinzregentenstraße 3 80538 München Schloss- und Gartenverwaltung Schleißheim Max-Emanuel-Platz 1 85764 Oberschleißheim",
    "opening_hours": "Apr-Sep Tu-Su 09:00-18:00; Oct-Mar Tu-Su 10:00-16:00; Jan 1,Dec 24,Dec 25,Dec 31 off \"Faschingsdienstag geschlossen \"",
    "operator": "Bayerisches Nationalmuseum",
    "phone": "+49 89 31 58 72 42",
    "source": "Bayerisches Nationalmuseum",
    "tourism": "museum",
    "website": "https://www.bayerisches-nationalmuseum.de/index.php?id=71",
    "wheelchair": "limited",
    "wheelchair:description:de": "Die Musumsräume im Untergeschoss sind mit einer mobilen Treppensteighilfe zugänglich.",
    "wikidata": "Q76628981"
  }
},
{
  "type": "node",
  "id": 2497837304,
  "lat": 48.1446864,
  "lon": 11.5667305,
  "tags": {
    "addr:city": "München",
    "addr:country": "DE",
    "addr:housenumber": "10",
    "addr:postcode": "80333",
    "addr:street": "Katharina-von-Bora-Straße",
    "name": "Museum für Abgüsse klassischer Bildwerke",
    "opening_hours": "Mo-Fr 10:00-20:00",
    "phone": "+49 89 28927690",
    "tourism": "museum",
    "website": "http://www.abgussmuseum.de/",
    "wikidata": "Q323280",
    "wikipedia": "de:Museum für Abgüsse Klassischer Bildwerke"
  }
},
{
  "type": "node",
  "id": 2503219196,
  "lat": 48.1304885,
  "lon": 11.5680434,
  "tags": {
    "name": "Kunstraum",
    "note": "Verein für aktuelle Kunst und Kritik",
    "opening_hours": "We-Su 14:00-19:00",
    "phone": "+49 89 543 799 00",
    "tourism": "museum",
    "website": "http://kunstraum-muenchen.de/"
  }
},
{
  "type": "node",
  "id": 2642029307,
  "lat": 47.9149167,
  "lon": 11.4188849,
  "tags": {
    "addr:city": "Wolfratshausen",
    "addr:country": "DE",
    "addr:housenumber": "10",
    "addr:postcode": "82515",
    "addr:street": "Untermarkt",
    "name": "Heimatmuseum",
    "tourism": "museum",
    "wikidata": "Q76629817"
  }
},
{
  "type": "node",
  "id": 2701938189,
  "lat": 48.1574748,
  "lon": 11.5089921,
  "tags": {
    "addr:city": "München",
    "addr:housenumber": "1",
    "addr:postcode": "80638",
    "addr:street": "Südliches Schloßrondell",
    "name": "Erwin von Kreibig Museum",
    "tourism": "museum",
    "wheelchair": "yes",
    "wikidata": "Q76628635"
  }
},
{
  "type": "node",
  "id": 2866790927,
  "lat": 48.1445389,
  "lon": 11.5663772,
  "tags": {
    "name": "Staatliche Graphische Sammlung",
    "opening_hours": "Mo 14:00-17:00; Tu-Th 10:00-13:00, 14:00-17:00; Fr 10:00-13:00",
    "tourism": "museum",
    "website": "https://www.sgsm.eu/",
    "wikidata": "Q464404",
    "wikipedia": "de:Staatliche Graphische Sammlung München"
  }
},
{
  "type": "node",
  "id": 2935303788,
  "lat": 48.2581415,
  "lon": 11.7832505,
  "tags": {
    "addr:housenumber": "74",
    "addr:street": "Eicherloher Straße",
    "name": "Krug- und Porzellan-Museum",
    "survey:date": "2014-06-26",
    "tourism": "museum"
  }
},
{
  "type": "node",
  "id": 3035125944,
  "lat": 48.1610126,
  "lon": 11.7481596,
  "tags": {
    "addr:city": "Kirchheim",
    "addr:country": "DE",
    "addr:housenumber": "11",
    "addr:postcode": "85551",
    "addr:street": "Bajuwarenstraße",
    "contact:website": "http://bajuwarenhof.de",
    "entrance": "yes",
    "name": "Bajuwarenhof Kirchheim",
    "opening_hours": "May-Sep Su 11:00-17:00",
    "operator": "Bajuwarenhof Kirchheim GbR",
    "tourism": "museum",
    "wheelchair": "limited",
    "wikidata": "Q253352"
  }
},
{
  "type": "node",
  "id": 3224611723,
  "lat": 48.1116942,
  "lon": 11.7333354,
  "tags": {
    "addr:city": "Haar",
    "addr:country": "DE",
    "addr:housenumber": "33",
    "addr:postcode": "85540",
    "addr:street": "Leibstraße",
    "contact:phone": "+49 89 456 99 19-0",
    "name": "Haus der Donauschwaben",
    "opening_hours": "Mo, Fr 09:00-11:00; We 09:00-15:00",
    "tourism": "museum"
  }
},
{
  "type": "node",
  "id": 3761553579,
  "lat": 47.9370150,
  "lon": 11.6479147,
  "tags": {
    "addr:city": "Sauerlach",
    "addr:country": "DE",
    "addr:housenumber": "22",
    "addr:postcode": "82054",
    "addr:street": "Holzkirchener Straße",
    "addr:suburb": "Arget",
    "name": "Heimatmuseum",
    "opening_hours": "Apr-Oct: Su[2] 13:00-17:00",
    "operator": "Gemeinde Sauerlach",
    "tourism": "museum",
    "website": "https://heimatmuseum-sauerlach.byseum.de/"
  }
},
{
  "type": "node",
  "id": 3782148362,
  "lat": 47.7602287,
  "lon": 11.5579448,
  "tags": {
    "addr:city": "Bad Tölz",
    "addr:housenumber": "3",
    "addr:postcode": "83646",
    "addr:street": "Kapellengasteig",
    "contact:email": "info@dasbullevontoelzmuseum.de",
    "contact:website": "http://www.dasbullevontoelzmuseum.de",
    "name": "Bulle von Tölz Museum",
    "opening_hours": "Mo-Sa 10:00-18:00; Su,PH 11:00-18:00; Dec 24,31 off",
    "phone": "+49 8041 7991377",
    "tourism": "museum"
  }
},
{
  "type": "node",
  "id": 3802095820,
  "lat": 47.7609113,
  "lon": 11.5610325,
  "tags": {
    "addr:city": "Bad Tölz",
    "addr:country": "DE",
    "addr:postcode": "83646",
    "addr:street": "Marktstraße",
    "contact:email": "stadtmuseum@bad-toelz.de",
    "contact:phone": "+49 8041 793 80 11",
    "contact:website": "http://www.bad-toelz.de/kultur/das-toelzer-stadtmuseum/toelzer-heimatwerk-im-stadtmuseum.html",
    "name": "Stadtmuseum",
    "opening_hours": "Tu-Su 10:00-17:00; Nov 01 off",
    "tourism": "museum",
    "wikidata": "Q76627151"
  }
},
{
  "type": "node",
  "id": 3825378059,
  "lat": 48.2198930,
  "lon": 11.6246073,
  "tags": {
    "addr:city": "München",
    "addr:housenumber": "25",
    "addr:postcode": "80939",
    "addr:street": "Werner-Heisenberg-Allee",
    "name": "FC Bayern Erlebniswelt",
    "note": "Geschlossen an Weihnachten, Silvester, Neujahr und an Spieltagen des TSV 1860. Gesonderte Öffnungszeiten an Spieltagen des FC Bayern.",
    "opening_hours": "10:00-18:00",
    "tourism": "museum",
    "website": "http://fcb-erlebniswelt.de/"
  }
},
{
  "type": "node",
  "id": 4027839155,
  "lat": 48.1431424,
  "lon": 11.5892237,
  "tags": {
    "entrance": "yes",
    "name": "Sammlung Bollert",
    "opening_hours": "Th-Su 10:00-17:00",
    "tourism": "museum"
  }
},
{
  "type": "node",
  "id": 4217510193,
  "lat": 48.1379753,
  "lon": 11.5781484,
  "tags": {
    "addr:city": "München",
    "addr:housenumber": "1",
    "addr:street": "Alter Hof",
    "name": "Ausstellung Münchner Kaiserburg",
    "opening_hours": "Mo-Sa 10:00-18:00",
    "tourism": "museum",
    "website": "https://www.museen-in-bayern.de/der-infopoint/muenchner-kaiserburg.html",
    "wheelchair": "yes",
    "wikidata": "Q25389131"
  }
},
{
  "type": "node",
  "id": 4425725572,
  "lat": 48.2729332,
  "lon": 11.5701206,
  "tags": {
    "contact:email": "heimatmuseum@ush.bayern.de",
    "contact:fax": "+49 89 31009168",
    "contact:phone": "+49 89 31009266",
    "contact:website": "https://www.forum-unterschleissheim.de/museen/heimatmuseum.html",
    "name": "Heimatmuseum Unterschleißheim",
    "opening_hours": "Tu 09:00-12:00; Th 16:00-19:00; Su[1] 13:00-16:00; PH off",
    "tourism": "museum",
    "wikidata": "Q76629633"
  }
},
{
  "type": "node",
  "id": 4680413846,
  "lat": 48.1653211,
  "lon": 11.9092009,
  "tags": {
    "addr:housenumber": "26",
    "addr:street": "Münchener Straße",
    "name": "Tiermuseum",
    "survey:date": "2017-02-11",
    "tourism": "museum"
  }
},
{
  "type": "node",
  "id": 4938178542,
  "lat": 48.2629784,
  "lon": 11.6731681,
  "tags": {
    "addr:city": "Garching bei München",
    "addr:housenumber": "2",
    "addr:postcode": "85748",
    "addr:street": "Boltzmannstraße",
    "information": "yes",
    "internet_access": "wlan",
    "internet_access:fee": "no",
    "internet_access:ssid": "D2-Gast",
    "internet_access_1": "terminal",
    "name": "IPP Besucherzentrum",
    "name:de": "IPP Besucherzentrum",
    "name:en": "IPP Visitor center",
    "name:it": "IPP centro visitatori",
    "opening_hours": "Mo-Fr 08:00-18:00",
    "operator": "Max-Planck Institut für Plasmaphysik",
    "tourism": "museum",
    "wheelchair": "yes"
  }
},
{
  "type": "node",
  "id": 5014380022,
  "lat": 47.9865899,
  "lon": 11.8657708,
  "tags": {
    "addr:city": "Glonn",
    "addr:country": "DE",
    "addr:housenumber": "7",
    "addr:postcode": "85625",
    "addr:street": "Klosterweg",
    "name": "Heimatmuseum",
    "tourism": "museum",
    "wheelchair": "no"
  }
},
{
  "type": "node",
  "id": 5216202260,
  "lat": 48.1642804,
  "lon": 11.5003025,
  "tags": {
    "addr:city": "München",
    "addr:housenumber": "67",
    "addr:postcode": "80638",
    "addr:street": "Menzinger Straße",
    "name": "Botanische Staatssammlung München",
    "operator": "Freistaat Bayern",
    "tourism": "museum",
    "website": "http://www.botanischestaatssammlung.de/"
  }
},
{
  "type": "node",
  "id": 5223300524,
  "lat": 48.1469883,
  "lon": 11.5682823,
  "tags": {
    "addr:city": "München",
    "addr:country": "DE",
    "addr:housenumber": "35",
    "addr:postcode": "80333",
    "addr:street": "Gabelsbergerstraße",
    "name": "Staatliches Museum Ägyptischer Kunst",
    "note": "seit Juni 2013 hier (vorher in der Residenz)",
    "opening_hours": "Tu 10:00-20:00; We-Su 10:00-18:00",
    "phone": "+49 89 28927630",
    "toilets:wheelchair": "yes",
    "tourism": "museum",
    "website": "https://smaek.de/",
    "wheelchair": "yes",
    "wheelchair:description": "Barrierefreier Zugang befindet sich auf der Rückseite der Portalwand!",
    "wikidata": "Q464872",
    "wikipedia": "de:Staatliches Museum Ägyptischer Kunst"
  }
},
{
  "type": "node",
  "id": 5385412784,
  "lat": 47.8931687,
  "lon": 11.7798865,
  "tags": {
    "name": "Orgelzentrum",
    "operator": "Dr. Sixtus Lampl",
    "phone": "+49 (0)8024 4144",
    "tourism": "museum",
    "website": "http://www.lampl-orgelzentrum.com",
    "wikidata": "Q21563314"
  }
},
{
  "type": "node",
  "id": 5582928237,
  "lat": 48.1181781,
  "lon": 11.7433908,
  "tags": {
    "contact:email": "museum@kbo.de",
    "contact:fax": "+49 89 4562-2960",
    "contact:phone": "+49 89 4562-2821",
    "contact:website": "https://iak-kmo.kbo.de/index.php?id=411",
    "name": "Psychiatriemuseum",
    "opening_hours": "Su 14:00-16:00",
    "operator": "Klinikum München-Ost",
    "tourism": "museum",
    "wheelchair": "no"
  }
},
{
  "type": "node",
  "id": 5609365983,
  "lat": 48.1917041,
  "lon": 11.6437443,
  "tags": {
    "addr:city": "Unterföhring",
    "addr:country": "DE",
    "addr:housenumber": "12",
    "addr:postcode": "85774",
    "addr:street": "Bahnhofstraße",
    "name": "Feringer Sach",
    "opening_hours": "We 16:00-19:00; Su[1] 14:00-17:00",
    "operator": "Museum und Heimatverein Unterföhring",
    "tourism": "museum",
    "website": "https://feringer-sach.byseum.de/",
    "wikidata": "Q76629627"
  }
},
{
  "type": "node",
  "id": 5653270204,
  "lat": 48.1513141,
  "lon": 11.5727309,
  "tags": {
    "addr:city": "München",
    "addr:housenumber": "56",
    "addr:postcode": "80799",
    "addr:street": "Schellingstraße",
    "name": "Kunstkammer Georg Laue",
    "opening_hours": "Tu-Fr 10:00-18:00; Sa 11:00-15:00",
    "phone": "+49 89 27818555",
    "tourism": "museum",
    "website": "https://www.kunstkammer.com/index.php/en/"
  }
},
{
  "type": "node",
  "id": 5951675866,
  "lat": 48.1367011,
  "lon": 11.5700450,
  "tags": {
    "addr:postcode": "80331",
    "name": "MUCA",
    "name:de": "Museum of Urban and Contemporary Art (MUCA)",
    "name:en": "Museum of Urban and Contemporary Art (MUCA)",
    "opening_hours": "We-Mo 10:00-20:00",
    "phone": "+49 89 215524310",
    "tourism": "museum",
    "website": "http://muca.eu",
    "wikidata": "Q29464448"
  }
},
{
  "type": "node",
  "id": 6042757554,
  "lat": 48.0457008,
  "lon": 11.9640261,
  "tags": {
    "addr:city": "Grafing bei München",
    "addr:housenumber": "10",
    "addr:postcode": "85567",
    "addr:street": "Bahnhofstraße",
    "name": "Museum der Stadt Grafing",
    "opening_hours": "Th 18:00-20:00; Su 14:00-16:00; PH off",
    "operator": "Förderverein Museum der Stadt Grafing e.V.",
    "start_date": "1965",
    "tourism": "museum",
    "wheelchair": "no"
  }
},
{
  "type": "node",
  "id": 6186388212,
  "lat": 48.1744276,
  "lon": 11.5537501,
  "tags": {
    "name": "Rockmuseum Munich",
    "opening_hours": "Mo-Su 09:00-24:00",
    "tourism": "museum",
    "website": "http://www.rockmuseum.de/",
    "wheelchair": "yes",
    "wikidata": "Q2160723"
  }
},
{
  "type": "node",
  "id": 7016954281,
  "lat": 48.1391647,
  "lon": 11.5682772,
  "tags": {
    "contact:phone": "+49 89 2199720",
    "fee": "no",
    "name": "Museum der Marianischen Männerkongregation",
    "opening_hours": "Mo-We, Fr-Su 10:00-12:00, 16:00-18:30; Th 10:00-12:00, 16:00-21:00",
    "tourism": "museum"
  }
},
{
  "type": "way",
  "id": 4647135,
  "nodes": [
    29565901,
    29565902,
    1344355526,
    29565903,
    29565904,
    29565905,
    2086439581,
    29565906,
    29565907,
    29565908,
    29565909,
    29565910,
    29565898,
    29565899,
    29565901
  ],
  "tags": {
    "addr:city": "München",
    "addr:country": "DE",
    "addr:housenumber": "27",
    "addr:postcode": "80333",
    "addr:street": "Barer Straße",
    "building": "yes",
    "contact:phone": "+49-89-23805216",
    "layer": "1",
    "name": "Alte Pinakothek",
    "name:de": "Alte Pinakothek",
    "name:ru": "Старая пинакотека",
    "name:zh": "慕尼黑舊美術館",
    "opening_hours": "We-Su 10:00-18:00; Tu 10:00-20:00",
    "source": "landsat",
    "toilets:wheelchair": "yes",
    "tourism": "museum",
    "website": "https://www.pinakothek.de/",
    "wheelchair": "yes",
    "wheelchair:description": "Der Haupteingang der Alten Pinakothek ist barrierefrei. Vier Aufzüge gewähren Zugang zu allen Räumen. Im Erdgeschoß befinden sich behindertengerechte Toiletten, an der Infothek können zudem Rollstühle ausgeliehen werden. Parkplatz an der Nordseite, hinter",
    "wikidata": "Q154568",
    "wikipedia": "de:Alte Pinakothek"
  }
},
{
  "type": "way",
  "id": 10053440,
  "nodes": [
    82609544,
    2575829495,
    975224499,
    82609545,
    2591713419,
    82609546,
    1770319192,
    82609547,
    82609544
  ],
  "tags": {
    "addr:city": "München",
    "addr:country": "DE",
    "addr:housenumber": "40",
    "addr:postcode": "80333",
    "addr:street": "Barer Straße",
    "building": "yes",
    "contact:phone": "+49-89-23805360",
    "name": "Pinakothek der Moderne",
    "name:bar": "Pinakothek vo da Modeane",
    "name:de": "Pinakothek der Moderne",
    "name:es": "Pinacoteca Moderna",
    "name:ru": "Пинакотека современности",
    "opening_hours": "Fr-We 10:00-18:00; Th 10:00-20:00",
    "source": "landsat",
    "toilets:wheelchair": "yes",
    "tourism": "museum",
    "website": "https://www.pinakothek.de/pinakothek-der-moderne/",
    "wheelchair": "yes",
    "wheelchair:description": "Die Zugänge an der Barer Str. und Gabelsbergerstr. sind barrierefrei. Zwei Aufzüge gestatten den Zugang zu allen Abteilungen. Im Untergeschoß gibt es behindertengerechte Toiletten. Rollstühle können reserviert werden.",
    "wikidata": "Q250195",
    "wikipedia": "de:Pinakothek der Moderne"
  }
},
{
  "type": "way",
  "id": 18956760,
  "nodes": [
    939087597,
    196224593,
    1896420873,
    196224588,
    196224581,
    196224597,
    939087616,
    939087587,
    1896420874,
    939087634,
    939087597
  ],
  "tags": {
    "addr:city": "München",
    "addr:country": "DE",
    "addr:housenumber": "5",
    "addr:postcode": "80538",
    "addr:street": "Praterinsel",
    "building": "yes",
    "building:levels": "2",
    "name": "Alpines Museum",
    "operator": "Deutscher Alpenverein",
    "phone": "+49 89 211224-0",
    "roof:colour": "darkgrey",
    "roof:shape": "hipped",
    "tourism": "museum",
    "website": "https://www.alpenverein.de/Kultur/Museum/",
    "wheelchair": "no",
    "wikidata": "Q520455"
  }
},
{
  "type": "way",
  "id": 24164434,
  "nodes": [
    261736372,
    261736373,
    261736374,
    261736375,
    261736372
  ],
  "tags": {
    "addr:city": "München",
    "addr:country": "DE",
    "addr:housenumber": "16",
    "addr:postcode": "80331",
    "addr:street": "Sankt-Jakobs-Platz",
    "building": "yes",
    "name": "Jüdisches Museum",
    "name:de": "Jüdisches Museum",
    "name:en": "Jewish Museum Munich",
    "name:es": "Museo Judio",
    "opening_hours": "Tu-Su 10:00-18:00",
    "phone": "+49 89 233-28189",
    "tourism": "museum",
    "website": "https://www.juedisches-museum-muenchen.de/",
    "wheelchair": "yes",
    "wheelchair:description": "Zugang ebenerdig, Lifts in alle Stockwerke, schwergängige Türen. Parkhäuser Schranne und Oberanger, 1 Platz Prälat-Zistl-Straße 20, 1 Platz Rosental 6. Barrierefreies WC im UG, Schlüssel an der Garderobe im UG. Roll- und Klappstuhlverleih.",
    "wikidata": "Q320903"
  }
},
{
  "type": "way",
  "id": 25695553,
  "nodes": [
    280147422,
    280147426,
    931716169,
    931715794,
    2473538032,
    2473538033,
    2473538034,
    931716255,
    931716030,
    931715839,
    931715932,
    931715826,
    931716195,
    280147425,
    1106583090,
    1106583069,
    280147423,
    2473538036,
    280147422
  ],
  "tags": {
    "addr:city": "München",
    "addr:country": "DE",
    "addr:housename": "Museum Fünf Kontinente",
    "addr:housenumber": "42",
    "addr:postcode": "80538",
    "addr:street": "Maximilianstraße",
    "building": "yes",
    "name": "Museum Fünf Kontinente",
    "name:ru": "Музей этнографии",
    "opening_hours": "Tu-Su 09:30-17:30",
    "phone": "+49 89 210136100",
    "tourism": "museum",
    "website": "https://www.museum-fuenf-kontinente.de/",
    "wheelchair": "yes",
    "wikidata": "Q454217",
    "wikipedia": "de:Museum Fünf Kontinente"
  }
},
{
  "type": "way",
  "id": 27959434,
  "nodes": [
    307213273,
    3745533154,
    3745533155,
    307213428,
    4625806061,
    3745533156,
    3745533157,
    307213282,
    307213288,
    307213269,
    3745533165,
    3745533166,
    307213264,
    307213278,
    3745533163,
    3745533164,
    3745533158,
    307213273
  ],
  "tags": {
    "addr:city": "München",
    "addr:country": "DE",
    "addr:housenumber": "9",
    "addr:postcode": "80538",
    "addr:street": "Prinzregentenstraße",
    "building": "yes",
    "building:levels": "3",
    "name": "Sammlung Schack",
    "name:ru": "Галерея Шака",
    "old_name": "Schack-Galerie",
    "opening_hours": "We-Su 10:00-18:00",
    "phone": "+49 89 23805 224",
    "shop": "art",
    "tourism": "museum",
    "website": "https://www.pinakothek.de/besuch/sammlung-schack",
    "wheelchair": "no",
    "wikidata": "Q523652"
  }
},
{
  "type": "way",
  "id": 28026044,
  "nodes": [
    307734027,
    307734029,
    307734032,
    307734035,
    3352357486,
    520763270,
    307734027
  ],
  "tags": {
    "architect": "Leonhard Romeis",
    "building": "yes",
    "building:levels": "3",
    "historic": "yes",
    "name": "Paläontologisches Museum",
    "note": "Enthält auch die Anthropolgische Staatsammlung",
    "old_name": "Kunstgewerbeschule",
    "opening_hours": "Mo-Th 08:00-16:00; Fr 08:00-14:00; Su[1] 10:00-16:00",
    "operator": "Ludwig-Maximilians-Universität",
    "start_date": "1899-1902",
    "tourism": "museum",
    "wheelchair": "no",
    "wikidata": "Q473832",
    "wikipedia": "de:Paläontologisches Museum München"
  }
},
{
  "type": "way",
  "id": 28026817,
  "nodes": [
    307741884,
    1625216292,
    1625216304,
    307741886,
    2591713459,
    307741889,
    307741891,
    975224390,
    2591713470,
    975224674,
    975224915,
    307741884
  ],
  "tags": {
    "addr:city": "München",
    "addr:country": "DE",
    "addr:housenumber": "35a",
    "addr:postcode": "80333",
    "addr:street": "Theresienstraße",
    "building": "yes",
    "name": "Museum Brandhorst",
    "name:de": "Museum Brandhorst",
    "name:es": "Museo Brandhorst",
    "name:ru": "Музей Брандхорста",
    "opening_hours": "Tu-Su 10:00-18:00; Th 10:00-20:00",
    "phone": "+49 89 23805-2286",
    "toilets:wheelchair": "yes",
    "tourism": "museum",
    "website": "http://www.museum-brandhorst.de",
    "wheelchair": "yes",
    "wikidata": "Q258597",
    "wikipedia": "de:Museum Brandhorst"
  }
},
{
  "type": "way",
  "id": 30217784,
  "nodes": [
    333025820,
    333025823,
    333025826,
    333025829,
    333025820
  ],
  "tags": {
    "building": "yes",
    "name": "Trockenstadel der ehemaligen Ziegelei",
    "tourism": "museum",
    "website": "http://www.nordostkultur-muenchen.de"
  }
},
{
  "type": "way",
  "id": 33220631,
  "nodes": [
    376852026,
    376852061,
    1632004936,
    376852083,
    376852037,
    4771779800,
    376852026
  ],
  "tags": {
    "building": "yes",
    "name": "Filmstadt Atelier",
    "tourism": "museum"
  }
},
{
  "type": "way",
  "id": 36787789,
  "nodes": [
    427690747,
    427690748,
    427690750,
    427690751,
    427690753,
    427690754,
    427690747
  ],
  "tags": {
    "BLfD:criteria": "Baudenkmal",
    "addr:city": "Taufkirchen",
    "addr:country": "DE",
    "addr:housenumber": "12",
    "addr:postcode": "82024",
    "addr:street": "Münchener Straße",
    "building": "yes",
    "description": "Hakenhofanlage, Wohnteil verputzt, Ende 18./Anfang 19. Jh.",
    "heritage": "4",
    "heritage:operator": "BLfD",
    "historic": "building",
    "image": "https://upload.wikimedia.org/wikipedia/commons/9/9f/Wolfschneiderhof_Taufkirchen_bei_Muenchen-1.jpg",
    "name": "Heimathaus Wolfschneiderhof",
    "old_name": "Beim Wolfschneider",
    "ref:BLfD": "D-1-84-145-4",
    "tourism": "museum",
    "website": "http://www.wolfschneiderhof.de/",
    "wikidata": "Q27831264"
  }
},
{
  "type": "way",
  "id": 43234047,
  "nodes": [
    542503757,
    542503764,
    542503762,
    2042164194,
    542503757
  ],
  "tags": {
    "addr:city": "München",
    "addr:country": "DE",
    "addr:housenumber": "4",
    "addr:postcode": "81925",
    "addr:street": "Carry-Brachvogel-Straße",
    "addr:suburb": "Oberföhring",
    "building": "yes",
    "name": "Maschinenhaus der ehemaligen Ziegelei",
    "tourism": "museum",
    "website": "http://www.nordostkultur-muenchen.de"
  }
},
{
  "type": "way",
  "id": 51728544,
  "nodes": [
    660173670,
    660173666,
    660173664,
    660173665,
    660173679,
    660173680,
    660173678,
    660173673,
    3625277000,
    660173669,
    660173672,
    660173668,
    660173671,
    660173670
  ],
  "tags": {
    "addr:city": "Ebersberg",
    "addr:country": "DE",
    "addr:housenumber": "2",
    "addr:postcode": "85560",
    "addr:street": "Ludwigshöhe",
    "building": "yes",
    "name": "Museum Wald und Umwelt",
    "opening_hours": "Mar 15-Nov 14 Sa,Su 11:00-18:00; Nov 15-Mar 14 Sa off; Nov 15-Mar 14 Su 12:00-17:00; Dec 24-25 off; Nov 01,Dec 31 off; easter off",
    "tourism": "museum",
    "website": "https://www.museumwaldundumwelt.de/",
    "wheelchair": "limited",
    "wikidata": "Q19964042"
  }
},
{
  "type": "way",
  "id": 74549529,
  "nodes": [
    881020002,
    881020055,
    881020028,
    881020031,
    881020002
  ],
  "tags": {
    "addr:city": "Germering",
    "addr:country": "DE",
    "addr:housenumber": "2",
    "addr:postcode": "82110",
    "addr:street": "Domonter Straße",
    "building": "yes",
    "building:colour": "#E56B4C",
    "building:levels": "1",
    "name": "Zeit+Raum",
    "roof:colour": "grey",
    "roof:shape": "flat",
    "tourism": "museum"
  }
},
{
  "type": "way",
  "id": 82599961,
  "nodes": [
    961353486,
    961353487,
    2481799765,
    2481799761,
    961353489,
    961353490,
    961353486
  ],
  "tags": {
    "addr:city": "Oberhaching",
    "addr:country": "DE",
    "addr:housenumber": "3",
    "addr:postcode": "82041",
    "addr:street": "Hubertusplatz",
    "addr:suburb": "Deisenhofen",
    "building": "yes",
    "name": "Heimatmuseum Wagnerhaus",
    "tourism": "museum"
  }
},
{
  "type": "way",
  "id": 83118426,
  "nodes": [
    967092188,
    967092191,
    967092172,
    967092168,
    967092188
  ],
  "tags": {
    "building": "yes",
    "description": "Von Mai-Oktober jeden 1. Sonntag im Monat um 15:00 Uhr oder nach telef. Vereinbarung (Tel. +49 8151 7720) Führung",
    "historic": "archaeological_site",
    "lastcheck": "20191027",
    "name": "Villa Rustica",
    "opening_hours": "24/7",
    "tourism": "museum",
    "wikidata": "Q2525700",
    "wikipedia": "de:Villa rustica (Leutstetten)"
  }
},
{
  "type": "way",
  "id": 85213217,
  "nodes": [
    988188543,
    988188423,
    4589764364,
    4589764365,
    4589764368,
    4589764362,
    988188280,
    988188380,
    4589764360,
    4589764366,
    4244407788,
    4244408490,
    988188436,
    988188326,
    4244407786,
    4244407787,
    4244408489,
    4244408491,
    988188623,
    4244408493,
    4244408492,
    4244408494,
    4244408495,
    988188764,
    1411523304,
    1411523311,
    1411523309,
    1411523303,
    988188543
  ],
  "tags": {
    "addr:city": "München",
    "addr:country": "DE",
    "addr:housenumber": "60",
    "addr:postcode": "81675",
    "addr:street": "Prinzregentenstraße",
    "building": "yes",
    "lit": "yes",
    "name": "Villa Stuck",
    "name:ru": "Вилла Штука",
    "opening_hours": "Tu-Su 11:00-18:00",
    "phone": "+49 89 455551-0",
    "tourism": "museum",
    "website": "https://www.villastuck.de/",
    "wheelchair": "yes",
    "wheelchair:description": "Der Zugang zur Villa Stuck ist barrierefrei und stufenlos, auch sind alle Ausstellungsräume über Aufzüge erreichbar. Rollstuhlgerechte Toiletten befinden sich im Mittelgeschoss.",
    "wikidata": "Q264573",
    "wikipedia": "de:Villa Stuck"
  }
},
{
  "type": "way",
  "id": 87284428,
  "nodes": [
    1014866038,
    3077805937,
    3077805935,
    1014866092,
    1014866051,
    1014865902,
    1014866038
  ],
  "tags": {
    "addr:housenumber": "5a",
    "addr:street": "Possenhofener Straße",
    "building": "yes",
    "levels": "2",
    "name": "Lochmannhaus",
    "tourism": "museum"
  }
},
{
  "type": "way",
  "id": 87747225,
  "nodes": [
    1836875596,
    1836875597,
    1020253093,
    1020253212,
    1020253155,
    5470733431,
    2579927897,
    2579927904,
    2579927906,
    5470733446,
    5470733445,
    5470733444,
    2579927912,
    5470733443,
    5470733442,
    5470733441,
    2153561483,
    5470733440,
    5470733439,
    5470733438,
    2579927914,
    5470733437,
    5470733436,
    5470733435,
    2579927908,
    2579927910,
    2579927899,
    1020253151,
    1020253088,
    1020253145,
    1020253140,
    5470733434,
    5470733432,
    5470733433,
    5470733423,
    5470733422,
    5470733421,
    5470733424,
    1020253196,
    1836875594,
    1836875595,
    1836875591,
    1018864350,
    1018864335,
    1836875589,
    1836875588,
    1018864341,
    1018864348,
    1018864346,
    1018864354,
    1836875590,
    1836875596
  ],
  "tags": {
    "addr:city": "Oberschleißheim",
    "addr:housenumber": "18",
    "addr:postcode": "85764",
    "addr:street": "Effnerstraße",
    "dogs": "no",
    "museum": "aviation",
    "name": "Flugwerft Schleißheim",
    "opening_hours": "Mo-Su,PH 09:00-17:00; 2018 Jan 01 off; 2018 Feb 13 off; 2018 Mar 30 off; 2018 May 01 off; 2018 Jun 27 11:00-17:00; 2018 Nov 01 off; 2018 Dec 12 09:00-12:00; 2018 Dec 24 off; 2018 Dec 25 off; 2018 Dec 31 off",
    "opening_hours:check_date": "2018-03",
    "operator": "Deutsches Museum München",
    "smoking": "no",
    "toilets:wheelchair": "yes",
    "tourism": "museum",
    "website": "http://www.deutsches-museum.de/flugwerft",
    "wheelchair": "yes",
    "wikidata": "Q1000654",
    "wikipedia": "de:Flugwerft Schleißheim (Deutsches Museum)"
  }
},
{
  "type": "way",
  "id": 89581181,
  "nodes": [
    1038356496,
    1038356492,
    1038356489,
    1038356499,
    1038356496
  ],
  "tags": {
    "addr:city": "Aying",
    "addr:country": "DE",
    "addr:housenumber": "4",
    "addr:postcode": "85653",
    "addr:street": "Münchener Straße",
    "building": "yes",
    "building:levels": "2",
    "contact:phone": "+49 8095 90650",
    "name": "Sixthof",
    "opening_hours": "Su,PH 13:00-17:00",
    "tourism": "museum",
    "wikidata": "Q19964702"
  }
},
{
  "type": "way",
  "id": 90644434,
  "nodes": [
    1052016481,
    1052016522,
    1052016397,
    1052016440,
    1052016481
  ],
  "tags": {
    "building": "yes",
    "name": "Klosterbrennerei",
    "tourism": "museum"
  }
},
{
  "type": "way",
  "id": 91010431,
  "nodes": [
    1056892640,
    2810087894,
    3569933911,
    3822453650,
    3569933912,
    1056892834,
    1056892827,
    1056892675,
    1056892741,
    1056892881,
    2836141423,
    1056892640
  ],
  "tags": {
    "building": "yes",
    "name": "Archiv des Erzbistums München und Freising",
    "roof:colour": "#C07070",
    "tourism": "museum",
    "wikidata": "Q635579"
  }
},
{
  "type": "way",
  "id": 97533375,
  "nodes": [
    1129242348,
    1129242377,
    1129242460,
    1129242266,
    1129242348
  ],
  "tags": {
    "building": "yes",
    "name": "Museum Peter Gehring",
    "opening_hours": "Su 11:00-17:00; \"Saisonanhängig und nach Vereinbarung\"",
    "phone": "+49 89 300 2359",
    "tourism": "museum",
    "website": "http://www.museum-peter-gehring.com",
    "wikidata": "Q27831271"
  }
},
{
  "type": "way",
  "id": 104405109,
  "nodes": [
    1204631098,
    1204630599,
    2092245139,
    1204632045,
    1204630796,
    1204631098
  ],
  "tags": {
    "indoor": "room",
    "level": "0",
    "name": "ix-quadrat",
    "opening_hours": "Mo,Fr 14:00-16:00; Tu 16:00-18:00",
    "tourism": "museum",
    "website": "https://www-m10.ma.tum.de/ix-quadrat/",
    "wheelchair": "yes"
  }
},
{
  "type": "way",
  "id": 111488524,
  "nodes": [
    1270094066,
    1270094083,
    1270094070,
    2990947131,
    1270094049,
    1270094069,
    1270094073,
    1270094085,
    1877206618,
    1270094074,
    1270094063,
    1270094078,
    1270094096,
    1270094052,
    1270094068,
    1270094072,
    1270094082,
    1270094045,
    1270094054,
    1270094076,
    1270094094,
    1270094051,
    1270094067,
    1270094080,
    1270094099,
    1270094053,
    1270094071,
    1270094087,
    1270094050,
    1270094066
  ],
  "tags": {
    "building": "yes",
    "name": "Buchheim Museum der Phantasie",
    "opening_hours": "Apr-Oct PH,Tu-Su 10:00-18:00; Nov-Mar PH,Tu-Su 10:00-17:00",
    "toilets:wheelchair": "yes",
    "tourism": "museum",
    "wheelchair": "yes",
    "wikipedia": "de:Museum der Phantasie"
  }
},
{
  "type": "way",
  "id": 118673950,
  "nodes": [
    1324541099,
    1334198868,
    1334198870,
    1324541095,
    1324541099
  ],
  "tags": {
    "addr:housenumber": "24",
    "addr:postcode": "81675",
    "addr:street": "Kirchenstraße",
    "building": "yes",
    "name": "Haidhausen Museum",
    "opening_hours": "Su 14:00-17:00; Mo-We 17:00-19:00",
    "phone": "+49 89 4485292",
    "tourism": "museum",
    "wheelchair": "no",
    "wikidata": "Q1569133",
    "wikipedia": "de:Haidhausen-Museum"
  }
},
{
  "type": "way",
  "id": 124052888,
  "nodes": [
    1381656945,
    1381656957,
    1381656976,
    1381656921,
    1381656901,
    1381656964,
    1381656975,
    1381656937,
    1381656859,
    1381656970,
    1381656934,
    1381656887,
    1381656945
  ],
  "tags": {
    "building": "yes",
    "historic": "building",
    "image": "http://commons.wikimedia.org/wiki/File:KZ_Dachau_Bunker_Gang.JPG",
    "name": "Bunker",
    "name:en": "Bunker",
    "name:fr": "Prison (Bunker)",
    "tourism": "museum",
    "website": "http://www.kz-gedenkstaette-dachau.de/station07.html"
  }
},
{
  "type": "way",
  "id": 124057103,
  "nodes": [
    1381684518,
    1381684524,
    1381684515,
    1381684538,
    1381684513,
    1849548339,
    1381684521,
    1381684528,
    1381684514,
    1381684500,
    1849548323,
    1381684495,
    1381684498,
    1849548328,
    1381684512,
    1381684518
  ],
  "tags": {
    "addr:city": "Dachau",
    "addr:country": "DE",
    "addr:housenumber": "75",
    "addr:postcode": "85221",
    "addr:street": "Alte Römerstraße",
    "building": "yes",
    "historic": "yes",
    "name": "Ehemaliges Wirtschaftsgebäude",
    "tourism": "museum",
    "wikidata": "Q1236532",
    "wikipedia": "de:Wirtschaftsgebäude des KZ Dachau"
  }
},
{
  "type": "way",
  "id": 150797531,
  "nodes": [
    1636729425,
    2589161556,
    1636729455,
    1636729457,
    1636729459,
    1636729462,
    1636729463,
    1636729494,
    1636729492,
    1636729499,
    1636729498,
    1636729500,
    6635333030,
    6635333029,
    6635333031,
    1636729478,
    1636729476,
    1636729473,
    1636729461,
    305609468,
    1636729438,
    1636729442,
    1636729426,
    1636729434,
    1636729425
  ],
  "tags": {
    "building": "museum",
    "email": "mail@hausderkunst.de",
    "fax": "+49 89 21127-157",
    "lit": "yes",
    "name": "Haus der Kunst",
    "name:de": "Haus der Kunst",
    "name:es": "La Casa del Arte",
    "name:he": "המשכן לאמנות במינכן",
    "name:ru": "Дом искусства",
    "name:zh": "藝術之家",
    "opening_hours": "Mo-Su 10:00-20:00; Th 10:00-22:00",
    "phone": "+49 89 21127-113",
    "start_date": "1937",
    "toilets:wheelchair": "yes",
    "tourism": "museum",
    "website": "https://hausderkunst.de/",
    "wheelchair": "yes",
    "wikidata": "Q697782",
    "wikipedia": "de:Haus der Kunst"
  }
},
{
  "type": "way",
  "id": 164115676,
  "nodes": [
    1757729102,
    1757729100,
    1757729091,
    4298992284,
    1757729094,
    1757729102
  ],
  "tags": {
    "addr:city": "Baierbrunn",
    "addr:housenumber": "5",
    "addr:street": "Burgstraße",
    "building": "office",
    "building:levels": "2",
    "contact:phone": "+49 89 74433117",
    "name": "Beim Jäger",
    "opening_hours": "Su[1] 15:00-17:00",
    "roof:shape": "gabled",
    "tourism": "museum"
  }
},
{
  "type": "way",
  "id": 178859986,
  "nodes": [
    1892176479,
    1892176447,
    1892176454,
    1892176488,
    1892176479
  ],
  "tags": {
    "addr:city": "Markt Schwaben",
    "addr:housenumber": "28",
    "addr:postcode": "85570",
    "addr:street": "Bahnhofstraße",
    "building": "public",
    "name": "Heimatmuseum",
    "tourism": "museum",
    "wheelchair": "no"
  }
},
{
  "type": "way",
  "id": 185609273,
  "nodes": [
    1962566109,
    1962566108,
    3713999571,
    1962566092,
    1962566106,
    1962566095,
    1962566107,
    1962566110,
    391506266,
    391506262,
    1962566111,
    1962566109
  ],
  "tags": {
    "building": "yes",
    "name": "Jagdpavillion",
    "tourism": "museum"
  }
},
{
  "type": "way",
  "id": 189995513,
  "nodes": [
    2006038329,
    2006038345,
    2006038336,
    2006038322,
    2006038329
  ],
  "tags": {
    "addr:city": "Wolfratshausen",
    "addr:housenumber": "1",
    "addr:postcode": "82515",
    "addr:street": "Kolpingplatz",
    "building": "yes",
    "name": "Erinnerungsort Badehaus",
    "source": "Bing",
    "tourism": "museum",
    "website": "http://www.erinnerungsort-badehaus.de/"
  }
},
{
  "type": "way",
  "id": 229714806,
  "nodes": [
    2382744177,
    2382744176,
    2382744178,
    2382744181,
    2382744183,
    2382744180,
    2382744177
  ],
  "tags": {
    "building": "yes",
    "name": "Insektenhaus",
    "tourism": "museum"
  }
},
{
  "type": "way",
  "id": 230768761,
  "nodes": [
    2392200657,
    2392200656,
    2392200654,
    2731103690,
    2731103683,
    2392200655,
    2392200657
  ],
  "tags": {
    "addr:city": "München",
    "addr:housenumber": "26",
    "addr:street": "Muttenthalerstraße",
    "building": "house",
    "building:colour": "brown",
    "building:levels": "1",
    "name": "Archiv Geiger",
    "opening_hours": "Mo 10:00-14:00; Tu 17:00-20:00",
    "phone": "+49 89 72779653",
    "roof:shape": "flat",
    "source": "survey",
    "tourism": "museum",
    "website": "http://www.archiv-geiger.de/"
  }
},
{
  "type": "way",
  "id": 234449952,
  "nodes": [
    2427015229,
    2427015197,
    2427015235,
    2427015231,
    2427015212,
    2427015217,
    2427015214,
    2427015203,
    2427015229
  ],
  "tags": {
    "addr:housenumber": "46",
    "addr:postcode": "82340",
    "addr:street": "Tutzinger Straße",
    "building": "yes",
    "contact": "089134142",
    "loc_name": "Villino, Mausloch, Tonio-Kröger-Einsamkeit",
    "name": "Thomas-Mann-Haus",
    "operator": "H. Dierk Heißerer",
    "tourism": "museum"
  }
},
{
  "type": "way",
  "id": 237426208,
  "nodes": [
    307733999,
    2255262839,
    3307987374,
    307733998,
    307734022,
    1113634821,
    1113634705,
    307734020,
    307734019,
    307734017,
    307734014,
    307734009,
    307734006,
    307734004,
    307734003,
    1113634564,
    1113635081,
    2506446022,
    4372463225,
    4463382205,
    4463382207,
    4475992612,
    307733999
  ],
  "tags": {
    "building": "yes",
    "name": "Lenbachhaus",
    "name:es": "Lenbachhaus",
    "name:ru": "Ленбаххаус",
    "opening_hours": "Tu 10:00-21:00; We-Su 10:00-18:00",
    "phone": "+49 89 233 32004",
    "toilets:wheelchair": "yes",
    "tourism": "museum",
    "website": "https://www.lenbachhaus.de/",
    "wheelchair": "yes",
    "wheelchair:description": "Zugang ebenerdig, Automatiktür, Lifts zu allen Ebenen. 2 Behindertenparkplätze Luisenstraße 33. Barrierefreies WC vorhanden. Rollstuhl- und Gehhilfenverleih.",
    "wikidata": "Q262234",
    "wikipedia": "de:Städtische Galerie im Lenbachhaus"
  }
},
{
  "type": "way",
  "id": 256432530,
  "nodes": [
    2620967261,
    2620967269,
    2620967274,
    2777376685,
    2620967266,
    2620967261
  ],
  "tags": {
    "addr:city": "Tutzing",
    "addr:country": "DE",
    "addr:housenumber": "14",
    "addr:postcode": "82327",
    "addr:street": "Graf-Vieregg-Straße",
    "building": "yes",
    "name": "Ortsmuseum Tutzing",
    "opening_hours": "We,Sa,Su,PH 13:00-17:00; Aug 15,Dec 26 off",
    "roof:colour": "red",
    "roof:shape": "gabled",
    "source": "bing_imagery",
    "tourism": "museum"
  }
},
{
  "type": "way",
  "id": 276668098,
  "nodes": [
    2513370670,
    2512507947,
    2512507946,
    2512507945,
    2512507944,
    2512507950,
    2512507951,
    2512507952,
    2364381867,
    2364381826,
    2364381822,
    2364381817,
    3083228738,
    2428055462,
    2364381807,
    2428055454,
    2364381805,
    2428055448,
    2428055441,
    2428055443,
    2428055446,
    2428055450,
    2428055452,
    2428055456,
    2428055458,
    2428055460,
    2512506438,
    2512506439,
    2512506440,
    2512506441,
    2512507943,
    2812582565,
    2812582566,
    2812582567,
    2513370670
  ],
  "tags": {
    "name": "Bauernhausmuseum",
    "note:de": "Von Ostersonntag bis Ende Oktober an allen Samstagen, Sonntagen und Feiertagen von 10 bis 17 Uhr geöffnet. Lässt sich leider nicht besser abbilden",
    "opening_hours": "easter-easter +90 days: Sa,Su,PH 10:00-17:00; May-Oct: Sa,Su,PH 10:00-17:00",
    "toilets:wheelchair": "yes",
    "tourism": "museum",
    "website": "https://www.landkreis-erding.de/kultur-bildung-sport/bauernhausmuseum/",
    "wheelchair": "limited",
    "wikidata": "Q1454532",
    "wikipedia": "de:Bauernhausmuseum des Landkreises Erding"
  }
},
{
  "type": "way",
  "id": 280336045,
  "nodes": [
    2844726275,
    4372462239,
    2844726278,
    2844726274,
    2844726277,
    2844726275
  ],
  "tags": {
    "addr:city": "München",
    "addr:country": "DE",
    "addr:housenumber": "1",
    "addr:postcode": "80333",
    "addr:street": "Max-Mannheimer-Platz",
    "building": "yes",
    "building:colour": "white",
    "building:levels": "4",
    "email": "nsdoku@muenchen.de",
    "name": "NS-Dokumentationszentrum München",
    "opening_hours": "Tu-Su 10:00-19:00",
    "phone": "+49 89 233-67000",
    "roof:colour": "#999999",
    "roof:shape": "flat",
    "start_date": "2015-05-01",
    "toilets:wheelchair": "yes",
    "tourism": "museum",
    "website": "http://www.ns-dokumentationszentrum-muenchen.de/",
    "wheelchair": "yes",
    "wikidata": "Q1961427",
    "wikipedia": "de:NS-Dokumentationszentrum (München)"
  }
},
{
  "type": "way",
  "id": 292189411,
  "nodes": [
    1602050453,
    2497243114,
    2957273966,
    2957273967,
    2497243127,
    1602050463,
    1602050453
  ],
  "tags": {
    "addr:city": "Pöcking",
    "addr:country": "DE",
    "addr:housenumber": "2",
    "addr:postcode": "82343",
    "addr:street": "Schlossberg",
    "alt_name": "Sisi-Museum",
    "building:part": "yes",
    "contact:email": "sisi-museum@web.de",
    "contact:phone": "+49 8157 925932",
    "height": "13",
    "name": "Kaiserin-Elisabeth-Museum",
    "old_name": "Sammlung Heinemann",
    "opening_hours": "May 01-Oct 15: Fr,Sa,Su,PH 12:00-18:00; Oct 16-Apr 30 off || \"Gruppentermine grundsätzlich n. V. außerhalb der Öffnungszeiten; auch außerhalb der Saison möglich\"",
    "operator": "Kaiserin Elisabeth Museum Possenhofen e.V.",
    "roof:colour": "#745A5D",
    "roof:material": "roof_tiles",
    "roof:shape": "hipped",
    "tourism": "museum",
    "website": "https://www.kaiserin-elisabeth-museum-ev.de/",
    "wikidata": "Q1721656"
  }
},
{
  "type": "way",
  "id": 297863410,
  "nodes": [
    3017656750,
    3017656751,
    3077805938,
    3077805933,
    3017656752,
    3017656753,
    3017656750
  ],
  "tags": {
    "addr:city": "Starnberg",
    "addr:housenumber": "5",
    "addr:street": "Possenhofener Straße",
    "building": "yes",
    "building:levels": "3",
    "contact:fax": "+49-8151-447757-9",
    "contact:phone": "+49-8151-447757-0",
    "name": "Museum Starnberger See",
    "opening_hours": "Tu-Su 10:00-17:00",
    "source": "bing",
    "tourism": "museum",
    "website": "http://www.museum-starnberger-see.de/museum-starnberger-see/",
    "wikidata": "Q1670280"
  }
},
{
  "type": "way",
  "id": 298266716,
  "nodes": [
    813573873,
    3051050956,
    813573902,
    36670971,
    3015231385,
    1038247022,
    1596530244,
    36670970,
    1038247072,
    1596530232,
    158725924,
    1596530221,
    1038247013,
    36670976,
    1038247093,
    1596530213,
    2896368704,
    3065847741,
    36670975,
    1038247050,
    1596530217,
    36670974,
    1596530219,
    1038247085,
    1596530228,
    36670973,
    1038247047,
    1596530241,
    1038247063,
    158725862,
    813573884,
    1596530403,
    3855181426,
    813573873
  ],
  "tags": {
    "addr:city": "München",
    "addr:housenumber": "2",
    "addr:street": "Am Olympiapark",
    "building": "commercial",
    "fax": "+49 89 1250160-09",
    "fee": "yes",
    "image": "http://upload.wikimedia.org/wikipedia/commons/5/5b/M%C3%BCnchen_-_BMW-Hauptverwaltung_mit_BMW-Museum.jpg",
    "name": "BMW Museum",
    "name:de": "BMW Museum",
    "name:es": "Museo BMW",
    "name:ru": "Музей BMW",
    "name:zh": "寶馬博物館",
    "opening_hours": "Tu-Su 10:00-18:00",
    "opening_hours:url": "http://www.bmw-welt.com/de/visitor_information/opening_times.html",
    "phone": "+49 89 1250160-01",
    "tourism": "museum",
    "website": "https://www.bmw-welt.com/de/location/museum/concept.html",
    "wheelchair": "yes",
    "wikidata": "Q703212",
    "wikipedia": "de:BMW Museum"
  }
},
{
  "type": "way",
  "id": 299516186,
  "nodes": [
    3035125953,
    3035125954,
    3035125955,
    3035125956,
    3035125957,
    3035125958,
    3520029525,
    3035125959,
    3035125953
  ],
  "tags": {
    "addr:city": "Kirchheim",
    "addr:country": "DE",
    "addr:housenumber": "11",
    "addr:postcode": "85551",
    "addr:street": "Bajuwarenstraße",
    "area": "yes",
    "name": "Bajuwarenhof Kirchheim (Archäologisches Freilichtmuseum)",
    "opening_hours": "May-Sep Su 11:00-17:00",
    "operator": "Bajuwarenhof Kirchheim GbR",
    "tourism": "museum",
    "website": "http://www.bajuwarenhof.de/",
    "wheelchair": "limited",
    "wikidata": "Q253352",
    "wikipedia": "de:Bajuwarenhof Kirchheim"
  }
},
{
  "type": "way",
  "id": 312592845,
  "nodes": [
    3184609074,
    3184609075,
    3184609076,
    3184609077,
    3184609074
  ],
  "tags": {
    "building": "yes",
    "tourism": "museum"
  }
},
{
  "type": "way",
  "id": 370226776,
  "nodes": [
    3739469702,
    3739469704,
    3739469703,
    3739469701,
    3739469702
  ],
  "tags": {
    "building": "yes",
    "name": "Architekturgalerie München",
    "opening_hours": "Mo-We 09:30-19:00; Th,Fr 09:30-19:30; Sa 09:30-18:00",
    "operator": "Architekturgalerie München e.V.",
    "tourism": "museum",
    "website": "http://www.architekturgalerie-muenchen.de"
  }
},
{
  "type": "way",
  "id": 471620092,
  "nodes": [
    266578749,
    1743503728,
    1743503714,
    266578750,
    2610157311,
    2610157312,
    266578751,
    2570701435,
    2570701431,
    266578753,
    2610157313,
    2610157314,
    2610157316,
    2610157318,
    2610157319,
    2610157321,
    2610157324,
    2454629524,
    2610157325,
    2610157326,
    2610157328,
    2610157332,
    2610157336,
    2610157338,
    2610157340,
    266578754,
    1011606064,
    90237500,
    778692655,
    1316406984,
    778692652,
    2610157344,
    1414671397,
    2610157343,
    90237491,
    90237489,
    90237487,
    90237485,
    90237482,
    1414671395,
    2610157339,
    90237480,
    90237477,
    90237475,
    325847364,
    1749954346,
    325847373,
    90237499,
    90237497,
    90237501,
    1011606065,
    266578749
  ],
  "tags": {
    "alt_name": "Deutsches Verkehrsmuseum",
    "building": "yes",
    "email": "verkehrszentrum@deutsches-museum.de",
    "fax": "+49 89 500806501",
    "name": "Deutsches Museum Verkehrszentrum",
    "opening_hours": "Mo-Su 09:00-17:00",
    "operator": "Deutsches Museum",
    "phone": "+49 89 500806762",
    "tourism": "museum",
    "website": "http://www.deutsches-museum.de/verkehrszentrum",
    "wikidata": "Q1372880",
    "wikipedia": "de:Verkehrszentrum (Deutsches Museum)"
  }
},
{
  "type": "way",
  "id": 687099547,
  "nodes": [
    6440637011,
    6440635918,
    2848237880,
    552449128,
    552449129,
    552449133,
    552448912,
    6440637011
  ],
  "tags": {
    "addr:housenumber": "665",
    "addr:street": "Dachauer Straße",
    "building": "yes",
    "name": "MTU Museum",
    "opening_hours": "4x im Jahr, siehe Homepage MTU",
    "operator": "MTU Aero Engines AG",
    "tourism": "museum"
  }
},
{
  "type": "relation",
  "id": 532621,
  "members": [
    {
      "type": "way",
      "ref": 25567731,
      "role": "outer"
    },
    {
      "type": "way",
      "ref": 144291504,
      "role": "inner"
    }
  ],
  "tags": {
    "addr:housenumber": "3",
    "addr:street": "Königsplatz",
    "building": "yes",
    "height": "23",
    "historic": "yes",
    "name": "Glyptothek",
    "name:de": "Glyptothek",
    "name:es": "Gliptoteca",
    "name:ru": "Мюнхенская глиптотека",
    "roof:colour": "grey",
    "roof:shape": "gabled",
    "tourism": "museum",
    "type": "multipolygon",
    "wheelchair": "yes",
    "wheelchair:description": "Der barrierefreie Zugang zur Glyptothek ist über eine Rampe an der Rückseite möglich. Rollstuhlfahrer müssen dort klingeln. Für Blinde und Sehbehinderte werden spezielle Führungen angeboten, bei denen die Skulpturen mit Handschuhen berührt werden können.",
    "wikidata": "Q162077",
    "wikipedia": "de:Glyptothek (München)"
  }
},
{
  "type": "relation",
  "id": 1644123,
  "members": [
    {
      "type": "way",
      "ref": 10161075,
      "role": "outer"
    },
    {
      "type": "way",
      "ref": 695667209,
      "role": "outer"
    },
    {
      "type": "way",
      "ref": 695667208,
      "role": "outer"
    },
    {
      "type": "way",
      "ref": 119747961,
      "role": "inner"
    }
  ],
  "tags": {
    "addr:city": "München",
    "addr:housenumber": "29",
    "addr:postcode": "80799",
    "addr:street": "Barer Straße",
    "building": "yes",
    "contact:phone": "+49-89-23805195",
    "name": "Neue Pinakothek",
    "name:ru": "Новая пинакотека",
    "tourism": "museum",
    "type": "multipolygon",
    "website": "https://www.pinakothek.de/neue-pinakothek/",
    "wheelchair": "yes",
    "wikidata": "Q170152",
    "wikipedia": "de:Neue Pinakothek"
  }
},
{
  "type": "relation",
  "id": 1989237,
  "members": [
    {
      "type": "way",
      "ref": 103546257,
      "role": "outer"
    },
    {
      "type": "way",
      "ref": 147284089,
      "role": "inner"
    }
  ],
  "tags": {
    "addr:city": "München",
    "addr:country": "DE",
    "addr:housenumber": "21",
    "addr:postcode": "81247",
    "addr:street": "Münchhausenstraße",
    "building": "yes",
    "contact:website": "www.zsm.mwn.de",
    "name": "Zoologische Staatssammlung München",
    "tourism": "museum",
    "type": "multipolygon",
    "wheelchair": "yes",
    "wikidata": "Q220219",
    "wikipedia": "de:Zoologische Staatssammlung München"
  }
},
{
  "type": "relation",
  "id": 2360164,
  "members": [
    {
      "type": "way",
      "ref": 176583561,
      "role": "outer"
    },
    {
      "type": "way",
      "ref": 30964777,
      "role": "inner"
    }
  ],
  "tags": {
    "addr:city": "München",
    "addr:country": "DE",
    "addr:housenumber": "1",
    "addr:postcode": "80331",
    "addr:street": "Sankt-Jakobs-Platz",
    "building": "yes",
    "name": "Münchner Stadtmuseum",
    "name:de": "Münchner Stadtmuseum",
    "name:es": "Museo de la Ciudad",
    "opening_hours": "Tu-Su 10:00-18:00",
    "phone": "+49 89 233-22370",
    "tourism": "museum",
    "type": "multipolygon",
    "website": "https://www.muenchner-stadtmuseum.de/",
    "wheelchair": "yes",
    "wheelchair:description": "Zugang ebenerdig vom Oberanger (großes Eisentor) über den Hof, rechts Rampe zur Eingangshalle. Lifts zu allen Etagen. 4 Behindertenparkplätze Sendlinger Straße 3. Barrierefreies WC im EG (Euroschloss) und UG. 1 Leihrollstuhl. Im Musikinstrumenten-Museum s",
    "wikidata": "Q452685"
  }
},
{
  "type": "relation",
  "id": 2405755,
  "members": [
    {
      "type": "way",
      "ref": 180313806,
      "role": "inner"
    },
    {
      "type": "way",
      "ref": 317902067,
      "role": "inner"
    },
    {
      "type": "way",
      "ref": 317902068,
      "role": "outer"
    }
  ],
  "tags": {
    "addr:housenumber": "1",
    "addr:street": "Königsplatz",
    "building": "yes",
    "building:levels": "2",
    "contact:website": "http://www.antike-am-koenigsplatz.mwn.de",
    "name": "Staatliche Antikensammlung",
    "name:ru": "Государственное античное собрание",
    "roof:shape": "gabled",
    "tourism": "museum",
    "type": "multipolygon",
    "wikidata": "Q707981",
    "wikipedia": "de:Staatliche Antikensammlungen"
  }
},
{
  "type": "relation",
  "id": 3658904,
  "members": [
    {
      "type": "way",
      "ref": 10496578,
      "role": ""
    },
    {
      "type": "way",
      "ref": 10496580,
      "role": ""
    },
    {
      "type": "way",
      "ref": 255322147,
      "role": ""
    },
    {
      "type": "way",
      "ref": 86957943,
      "role": ""
    },
    {
      "type": "way",
      "ref": 24513432,
      "role": ""
    },
    {
      "type": "way",
      "ref": 162463944,
      "role": ""
    },
    {
      "type": "way",
      "ref": 162463948,
      "role": ""
    },
    {
      "type": "way",
      "ref": 250665943,
      "role": ""
    }
  ],
  "tags": {
    "alt_name": "Verkehrsmuseum",
    "name": "Deutsches Museum Verkehrszentrum",
    "name:en": "Transport centre (Deutsches Museum)",
    "opening_hours": "Mo-Su 09:00-17:00",
    "tourism": "museum",
    "type": "site",
    "website": "http://www.deutsches-museum.de/verkehrszentrum",
    "wikidata": "Q1372880",
    "wikipedia": "de:Verkehrszentrum (Deutsches Museum)"
  }
},
{
  "type": "relation",
  "id": 3866522,
  "members": [
    {
      "type": "way",
      "ref": 208141434,
      "role": "outer"
    },
    {
      "type": "way",
      "ref": 496781348,
      "role": "inner"
    },
    {
      "type": "way",
      "ref": 496781353,
      "role": "inner"
    },
    {
      "type": "way",
      "ref": 496781350,
      "role": "inner"
    },
    {
      "type": "way",
      "ref": 496781357,
      "role": "inner"
    },
    {
      "type": "way",
      "ref": 496781347,
      "role": "inner"
    },
    {
      "type": "way",
      "ref": 496781358,
      "role": "inner"
    },
    {
      "type": "way",
      "ref": 208141432,
      "role": "inner"
    },
    {
      "type": "way",
      "ref": 496781351,
      "role": "inner"
    },
    {
      "type": "way",
      "ref": 496781352,
      "role": "inner"
    },
    {
      "type": "way",
      "ref": 496781355,
      "role": "inner"
    },
    {
      "type": "way",
      "ref": 28364409,
      "role": "inner"
    },
    {
      "type": "way",
      "ref": 28364408,
      "role": "inner"
    },
    {
      "type": "way",
      "ref": 156389492,
      "role": "inner"
    }
  ],
  "tags": {
    "addr:housenumber": "1",
    "addr:street": "Museumsinsel",
    "building": "yes",
    "building:levels": "4",
    "building:part": "yes",
    "fax": "+49 89 2179-324",
    "name": "Deutsches Museum",
    "name:bar": "Deitsches Museum",
    "name:de": "Deutsches Museum",
    "name:es": "Museo Alemán",
    "name:ru": "Немецкий музей",
    "note": "Öffentlicher Bereich",
    "official_name": "Deutsches Museum von Meisterwerken der Naturwissenschaft und Technik",
    "official_name:de": "Deutsches Museum von Meisterwerken der Naturwissenschaft und Technik",
    "official_name:ru": "Немецкий музей достижений естественных наук и техники",
    "opening_hours": "Mo-Su 09:00-17:00",
    "phone": "+49-89-2179-1",
    "tourism": "museum",
    "type": "multipolygon",
    "website": "http://www.deutsches-museum.de/",
    "website_1": "https://youtu.be/J1b3sJdoK-8",
    "wheelchair": "yes",
    "wikidata": "Q131617",
    "wikipedia": "de:Deutsches Museum"
  }
},
{
  "type": "relation",
  "id": 4192267,
  "members": [
    {
      "type": "way",
      "ref": 27991569,
      "role": "outer"
    },
    {
      "type": "way",
      "ref": 312592845,
      "role": "inner"
    }
  ],
  "tags": {
    "addr:city": "München",
    "addr:country": "DE",
    "addr:housenumber": "2",
    "addr:postcode": "80538",
    "addr:street": "Lerchenfeldstraße",
    "building": "yes",
    "construction": "yes",
    "name": "Archäologische Staatssammlung",
    "tourism": "museum",
    "type": "multipolygon",
    "website": "http://www.archaeologie-bayern.de/",
    "wheelchair": "yes",
    "wikidata": "Q636743"
  }
},
{
  "type": "node",
  "id": 1270094045,
  "lat": 47.8729223,
  "lon": 11.2890082
},
{
  "type": "node",
  "id": 1270094049,
  "lat": 47.8725823,
  "lon": 11.2884612
},
{
  "type": "node",
  "id": 1270094050,
  "lat": 47.8727270,
  "lon": 11.2886876
},
{
  "type": "node",
  "id": 1270094051,
  "lat": 47.8731224,
  "lon": 11.2895702
},
{
  "type": "node",
  "id": 1270094052,
  "lat": 47.8729998,
  "lon": 11.2884546
},
{
  "type": "node",
  "id": 1270094053,
  "lat": 47.8728780,
  "lon": 11.2890722
},
{
  "type": "node",
  "id": 1270094054,
  "lat": 47.8729342,
  "lon": 11.2889993
},
{
  "type": "node",
  "id": 1270094063,
  "lat": 47.8725676,
  "lon": 11.2878516
},
{
  "type": "node",
  "id": 1270094066,
  "lat": 47.8727143,
  "lon": 11.2886289
},
{
  "type": "node",
  "id": 1270094067,
  "lat": 47.8730862,
  "lon": 11.2896048
},
{
  "type": "node",
  "id": 1270094068,
  "lat": 47.8729317,
  "lon": 11.2885141
},
{
  "type": "node",
  "id": 1270094069,
  "lat": 47.8726430,
  "lon": 11.2884110
},
{
  "type": "node",
  "id": 1270094070,
  "lat": 47.8725827,
  "lon": 11.2886093
},
{
  "type": "node",
  "id": 1270094071,
  "lat": 47.8728063,
  "lon": 11.2891225
},
{
  "type": "node",
  "id": 1270094072,
  "lat": 47.8730384,
  "lon": 11.2888352
},
{
  "type": "node",
  "id": 1270094073,
  "lat": 47.8726191,
  "lon": 11.2883296
},
{
  "type": "node",
  "id": 1270094074,
  "lat": 47.8724357,
  "lon": 11.2879503
},
{
  "type": "node",
  "id": 1270094076,
  "lat": 47.8729971,
  "lon": 11.2891669
},
{
  "type": "node",
  "id": 1270094078,
  "lat": 47.8726226,
  "lon": 11.2880147
},
{
  "type": "node",
  "id": 1270094080,
  "lat": 47.8729410,
  "lon": 11.2892181
},
{
  "type": "node",
  "id": 1270094082,
  "lat": 47.8728991,
  "lon": 11.2889394
},
{
  "type": "node",
  "id": 1270094083,
  "lat": 47.8726364,
  "lon": 11.2886657
},
{
  "type": "node",
  "id": 1270094085,
  "lat": 47.8725695,
  "lon": 11.2883603
},
{
  "type": "node",
  "id": 1270094087,
  "lat": 47.8726795,
  "lon": 11.2887264
},
{
  "type": "node",
  "id": 1270094094,
  "lat": 47.8729832,
  "lon": 11.2891761
},
{
  "type": "node",
  "id": 1270094096,
  "lat": 47.8728021,
  "lon": 11.2878804
},
{
  "type": "node",
  "id": 1270094099,
  "lat": 47.8729294,
  "lon": 11.2892204
},
{
  "type": "node",
  "id": 1877206618,
  "lat": 47.8725162,
  "lon": 11.2881894
},
{
  "type": "node",
  "id": 2990947131,
  "lat": 47.8725653,
  "lon": 11.2885345
},
{
  "type": "node",
  "id": 2620967261,
  "lat": 47.9074081,
  "lon": 11.2814979
},
{
  "type": "node",
  "id": 2620967266,
  "lat": 47.9074696,
  "lon": 11.2815848
},
{
  "type": "node",
  "id": 2620967269,
  "lat": 47.9074904,
  "lon": 11.2813683
},
{
  "type": "node",
  "id": 2620967274,
  "lat": 47.9075519,
  "lon": 11.2814551
},
{
  "type": "node",
  "id": 2777376685,
  "lat": 47.9075392,
  "lon": 11.2814751
},
{
  "type": "node",
  "id": 1052016397,
  "lat": 47.9752595,
  "lon": 11.1846195
},
{
  "type": "node",
  "id": 1052016440,
  "lat": 47.9753245,
  "lon": 11.1845573
},
{
  "type": "node",
  "id": 1052016481,
  "lat": 47.9753815,
  "lon": 11.1846902
},
{
  "type": "node",
  "id": 1052016522,
  "lat": 47.9753165,
  "lon": 11.1847525
},
{
  "type": "node",
  "id": 2427015197,
  "lat": 47.9378234,
  "lon": 11.2923110
},
{
  "type": "node",
  "id": 2427015203,
  "lat": 47.9377741,
  "lon": 11.2922067
},
{
  "type": "node",
  "id": 2427015212,
  "lat": 47.9377911,
  "lon": 11.2921703
},
{
  "type": "node",
  "id": 2427015214,
  "lat": 47.9377534,
  "lon": 11.2921899
},
{
  "type": "node",
  "id": 2427015217,
  "lat": 47.9377676,
  "lon": 11.2921511
},
{
  "type": "node",
  "id": 2427015229,
  "lat": 47.9377561,
  "lon": 11.2922562
},
{
  "type": "node",
  "id": 2427015231,
  "lat": 47.9378103,
  "lon": 11.2921177
},
{
  "type": "node",
  "id": 2427015235,
  "lat": 47.9378748,
  "lon": 11.2921702
},
{
  "type": "node",
  "id": 1602050453,
  "lat": 47.9618244,
  "lon": 11.3067750
},
{
  "type": "node",
  "id": 1602050463,
  "lat": 47.9619616,
  "lon": 11.3069511
},
{
  "type": "node",
  "id": 2497243114,
  "lat": 47.9618818,
  "lon": 11.3066752
},
{
  "type": "node",
  "id": 2497243127,
  "lat": 47.9620192,
  "lon": 11.3068509
},
{
  "type": "node",
  "id": 2957273966,
  "lat": 47.9618908,
  "lon": 11.3066596
},
{
  "type": "node",
  "id": 2957273967,
  "lat": 47.9620280,
  "lon": 11.3068356
},
{
  "type": "node",
  "id": 2006038322,
  "lat": 47.8993843,
  "lon": 11.4441730
},
{
  "type": "node",
  "id": 2006038329,
  "lat": 47.8994603,
  "lon": 11.4441068
},
{
  "type": "node",
  "id": 2006038336,
  "lat": 47.8995277,
  "lon": 11.4445398
},
{
  "type": "node",
  "id": 2006038345,
  "lat": 47.8996038,
  "lon": 11.4444736
},
{
  "type": "node",
  "id": 1014865902,
  "lat": 47.9952103,
  "lon": 11.3399903
},
{
  "type": "node",
  "id": 1014866051,
  "lat": 47.9950879,
  "lon": 11.3399208
},
{
  "type": "node",
  "id": 1014866092,
  "lat": 47.9951823,
  "lon": 11.3395501
},
{
  "type": "node",
  "id": 3017656750,
  "lat": 47.9952584,
  "lon": 11.3392776
},
{
  "type": "node",
  "id": 3017656751,
  "lat": 47.9952104,
  "lon": 11.3393934
},
{
  "type": "node",
  "id": 3077805933,
  "lat": 47.9952781,
  "lon": 11.3394554
},
{
  "type": "node",
  "id": 3077805935,
  "lat": 47.9952202,
  "lon": 11.3395716
},
{
  "type": "node",
  "id": 3077805937,
  "lat": 47.9952414,
  "lon": 11.3395837
},
{
  "type": "node",
  "id": 3077805938,
  "lat": 47.9952585,
  "lon": 11.3394379
},
{
  "type": "node",
  "id": 1014866038,
  "lat": 47.9953046,
  "lon": 11.3396196
},
{
  "type": "node",
  "id": 3017656752,
  "lat": 47.9954105,
  "lon": 11.3395785
},
{
  "type": "node",
  "id": 3017656753,
  "lat": 47.9954585,
  "lon": 11.3394627
},
{
  "type": "node",
  "id": 967092168,
  "lat": 48.0185309,
  "lon": 11.3705252
},
{
  "type": "node",
  "id": 967092172,
  "lat": 48.0184782,
  "lon": 11.3706335
},
{
  "type": "node",
  "id": 967092188,
  "lat": 48.0186165,
  "lon": 11.3706184
},
{
  "type": "node",
  "id": 967092191,
  "lat": 48.0185638,
  "lon": 11.3707267
},
{
  "type": "node",
  "id": 1757729091,
  "lat": 48.0195536,
  "lon": 11.4881321
},
{
  "type": "node",
  "id": 1757729094,
  "lat": 48.0195599,
  "lon": 11.4879176
},
{
  "type": "node",
  "id": 1757729100,
  "lat": 48.0196740,
  "lon": 11.4881402
},
{
  "type": "node",
  "id": 1757729102,
  "lat": 48.0196803,
  "lon": 11.4879257
},
{
  "type": "node",
  "id": 4298992284,
  "lat": 48.0195573,
  "lon": 11.4880061
},
{
  "type": "node",
  "id": 391506262,
  "lat": 48.0253277,
  "lon": 11.5260926
},
{
  "type": "node",
  "id": 391506266,
  "lat": 48.0253190,
  "lon": 11.5261592
},
{
  "type": "node",
  "id": 1962566092,
  "lat": 48.0252124,
  "lon": 11.5260256
},
{
  "type": "node",
  "id": 1962566095,
  "lat": 48.0252205,
  "lon": 11.5261223
},
{
  "type": "node",
  "id": 1962566106,
  "lat": 48.0252290,
  "lon": 11.5260670
},
{
  "type": "node",
  "id": 1962566107,
  "lat": 48.0252407,
  "lon": 11.5261754
},
{
  "type": "node",
  "id": 1962566108,
  "lat": 48.0252535,
  "lon": 11.5259887
},
{
  "type": "node",
  "id": 1962566109,
  "lat": 48.0252701,
  "lon": 11.5260300
},
{
  "type": "node",
  "id": 1962566110,
  "lat": 48.0252865,
  "lon": 11.5261912
},
{
  "type": "node",
  "id": 1962566111,
  "lat": 48.0253026,
  "lon": 11.5260413
},
{
  "type": "node",
  "id": 2382744176,
  "lat": 48.0237341,
  "lon": 11.5228037
},
{
  "type": "node",
  "id": 2382744177,
  "lat": 48.0237506,
  "lon": 11.5228734
},
{
  "type": "node",
  "id": 2382744178,
  "lat": 48.0237667,
  "lon": 11.5227490
},
{
  "type": "node",
  "id": 2382744180,
  "lat": 48.0238009,
  "lon": 11.5228839
},
{
  "type": "node",
  "id": 2382744181,
  "lat": 48.0238136,
  "lon": 11.5227639
},
{
  "type": "node",
  "id": 2382744183,
  "lat": 48.0238296,
  "lon": 11.5228238
},
{
  "type": "node",
  "id": 3713999571,
  "lat": 48.0252342,
  "lon": 11.5260060
},
{
  "type": "node",
  "id": 961353486,
  "lat": 48.0187733,
  "lon": 11.5921036
},
{
  "type": "node",
  "id": 961353487,
  "lat": 48.0189113,
  "lon": 11.5921644
},
{
  "type": "node",
  "id": 961353489,
  "lat": 48.0188456,
  "lon": 11.5923966
},
{
  "type": "node",
  "id": 961353490,
  "lat": 48.0187259,
  "lon": 11.5923439
},
{
  "type": "node",
  "id": 2481799761,
  "lat": 48.0188731,
  "lon": 11.5922575
},
{
  "type": "node",
  "id": 2481799765,
  "lat": 48.0188914,
  "lon": 11.5922655
},
{
  "type": "node",
  "id": 881020002,
  "lat": 48.1342168,
  "lon": 11.3624162
},
{
  "type": "node",
  "id": 881020028,
  "lat": 48.1341489,
  "lon": 11.3627304
},
{
  "type": "node",
  "id": 881020031,
  "lat": 48.1340811,
  "lon": 11.3625098
},
{
  "type": "node",
  "id": 881020055,
  "lat": 48.1342846,
  "lon": 11.3626367
},
{
  "type": "node",
  "id": 2392200654,
  "lat": 48.0741491,
  "lon": 11.5086625
},
{
  "type": "node",
  "id": 2392200655,
  "lat": 48.0740524,
  "lon": 11.5083175
},
{
  "type": "node",
  "id": 2392200656,
  "lat": 48.0742162,
  "lon": 11.5086763
},
{
  "type": "node",
  "id": 2392200657,
  "lat": 48.0742453,
  "lon": 11.5083569
},
{
  "type": "node",
  "id": 2731103683,
  "lat": 48.0740409,
  "lon": 11.5084434
},
{
  "type": "node",
  "id": 2731103690,
  "lat": 48.0741667,
  "lon": 11.5084691
},
{
  "type": "node",
  "id": 1195521395,
  "lat": 48.1646009,
  "lon": 11.4814360
},
{
  "type": "node",
  "id": 1195521407,
  "lat": 48.1645934,
  "lon": 11.4817518
},
{
  "type": "node",
  "id": 1195521412,
  "lat": 48.1644883,
  "lon": 11.4815918
},
{
  "type": "node",
  "id": 1195521422,
  "lat": 48.1645510,
  "lon": 11.4817382
},
{
  "type": "node",
  "id": 1195521425,
  "lat": 48.1648915,
  "lon": 11.4806819
},
{
  "type": "node",
  "id": 1195521439,
  "lat": 48.1645745,
  "lon": 11.4817497
},
{
  "type": "node",
  "id": 1195521441,
  "lat": 48.1646942,
  "lon": 11.4815400
},
{
  "type": "node",
  "id": 1195521444,
  "lat": 48.1647179,
  "lon": 11.4818742
},
{
  "type": "node",
  "id": 1195521458,
  "lat": 48.1644913,
  "lon": 11.4815553
},
{
  "type": "node",
  "id": 1195521468,
  "lat": 48.1646257,
  "lon": 11.4814433
},
{
  "type": "node",
  "id": 1195521469,
  "lat": 48.1645903,
  "lon": 11.4818624
},
{
  "type": "node",
  "id": 1195521483,
  "lat": 48.1644911,
  "lon": 11.4816287
},
{
  "type": "node",
  "id": 1195521485,
  "lat": 48.1641685,
  "lon": 11.4810852
},
{
  "type": "node",
  "id": 1195521486,
  "lat": 48.1645526,
  "lon": 11.4814470
},
{
  "type": "node",
  "id": 1195521492,
  "lat": 48.1647772,
  "lon": 11.4806709
},
{
  "type": "node",
  "id": 1195521503,
  "lat": 48.1645135,
  "lon": 11.4814897
},
{
  "type": "node",
  "id": 1195521517,
  "lat": 48.1647676,
  "lon": 11.4810538
},
{
  "type": "node",
  "id": 1195521524,
  "lat": 48.1646675,
  "lon": 11.4814799
},
{
  "type": "node",
  "id": 1195521534,
  "lat": 48.1647005,
  "lon": 11.4816029
},
{
  "type": "node",
  "id": 1195521556,
  "lat": 48.1645000,
  "lon": 11.4815204
},
{
  "type": "node",
  "id": 1195521566,
  "lat": 48.1648395,
  "lon": 11.4816110
},
{
  "type": "node",
  "id": 1195521585,
  "lat": 48.1645130,
  "lon": 11.4816949
},
{
  "type": "node",
  "id": 1195521601,
  "lat": 48.1646999,
  "lon": 11.4815758
},
{
  "type": "node",
  "id": 1605123271,
  "lat": 48.1644994,
  "lon": 11.4816635
},
{
  "type": "node",
  "id": 1605123287,
  "lat": 48.1645299,
  "lon": 11.4817194
},
{
  "type": "node",
  "id": 1605123289,
  "lat": 48.1645316,
  "lon": 11.4814642
},
{
  "type": "node",
  "id": 1605123298,
  "lat": 48.1645760,
  "lon": 11.4814378
},
{
  "type": "node",
  "id": 1605123332,
  "lat": 48.1646478,
  "lon": 11.4814582
},
{
  "type": "node",
  "id": 1605123346,
  "lat": 48.1646833,
  "lon": 11.4815086
},
{
  "type": "node",
  "id": 1605123348,
  "lat": 48.1646905,
  "lon": 11.4811145
},
{
  "type": "node",
  "id": 1605123358,
  "lat": 48.1647458,
  "lon": 11.4810841
},
{
  "type": "node",
  "id": 1605123400,
  "lat": 48.1648724,
  "lon": 11.4815552
},
{
  "type": "node",
  "id": 1195521388,
  "lat": 48.1643662,
  "lon": 11.4819932
},
{
  "type": "node",
  "id": 1195521398,
  "lat": 48.1646817,
  "lon": 11.4820787
},
{
  "type": "node",
  "id": 1195521424,
  "lat": 48.1647110,
  "lon": 11.4821176
},
{
  "type": "node",
  "id": 1195521438,
  "lat": 48.1644115,
  "lon": 11.4822845
},
{
  "type": "node",
  "id": 1195521452,
  "lat": 48.1643881,
  "lon": 11.4819786
},
{
  "type": "node",
  "id": 1195521456,
  "lat": 48.1646591,
  "lon": 11.4821098
},
{
  "type": "node",
  "id": 1195521457,
  "lat": 48.1643661,
  "lon": 11.4822630
},
{
  "type": "node",
  "id": 1195521470,
  "lat": 48.1644377,
  "lon": 11.4819738
},
{
  "type": "node",
  "id": 1195521481,
  "lat": 48.1643318,
  "lon": 11.4822136
},
{
  "type": "node",
  "id": 1195521488,
  "lat": 48.1644991,
  "lon": 11.4820265
},
{
  "type": "node",
  "id": 1195521494,
  "lat": 48.1644604,
  "lon": 11.4819839
},
{
  "type": "node",
  "id": 1195521504,
  "lat": 48.1643211,
  "lon": 11.4821812
},
{
  "type": "node",
  "id": 1195521515,
  "lat": 48.1645238,
  "lon": 11.4821173
},
{
  "type": "node",
  "id": 1195521519,
  "lat": 48.1644818,
  "lon": 11.4820022
},
{
  "type": "node",
  "id": 1195521548,
  "lat": 48.1645240,
  "lon": 11.4821350
},
{
  "type": "node",
  "id": 1195521553,
  "lat": 48.1643156,
  "lon": 11.4821467
},
{
  "type": "node",
  "id": 1195521568,
  "lat": 48.1641091,
  "lon": 11.4834899
},
{
  "type": "node",
  "id": 1195521573,
  "lat": 48.1646366,
  "lon": 11.4821407
},
{
  "type": "node",
  "id": 1195521583,
  "lat": 48.1643211,
  "lon": 11.4820752
},
{
  "type": "node",
  "id": 1195521589,
  "lat": 48.1643879,
  "lon": 11.4832199
},
{
  "type": "node",
  "id": 1195521597,
  "lat": 48.1643315,
  "lon": 11.4820435
},
{
  "type": "node",
  "id": 1195521600,
  "lat": 48.1644150,
  "lon": 11.4823955
},
{
  "type": "node",
  "id": 1605123220,
  "lat": 48.1643154,
  "lon": 11.4821124
},
{
  "type": "node",
  "id": 1605123223,
  "lat": 48.1643466,
  "lon": 11.4820157
},
{
  "type": "node",
  "id": 1605123226,
  "lat": 48.1643469,
  "lon": 11.4822411
},
{
  "type": "node",
  "id": 1605123231,
  "lat": 48.1643881,
  "lon": 11.4822777
},
{
  "type": "node",
  "id": 1605123233,
  "lat": 48.1644124,
  "lon": 11.4819717
},
{
  "type": "node",
  "id": 1605123238,
  "lat": 48.1644258,
  "lon": 11.4822847
},
{
  "type": "node",
  "id": 1605123242,
  "lat": 48.1644347,
  "lon": 11.4823959
},
{
  "type": "node",
  "id": 1605123248,
  "lat": 48.1644487,
  "lon": 11.4822787
},
{
  "type": "node",
  "id": 1605123250,
  "lat": 48.1644666,
  "lon": 11.4823848
},
{
  "type": "node",
  "id": 1605123251,
  "lat": 48.1644719,
  "lon": 11.4822638
},
{
  "type": "node",
  "id": 1605123265,
  "lat": 48.1644916,
  "lon": 11.4822418
},
{
  "type": "node",
  "id": 1605123268,
  "lat": 48.1644956,
  "lon": 11.4823654
},
{
  "type": "node",
  "id": 1605123274,
  "lat": 48.1645075,
  "lon": 11.4822130
},
{
  "type": "node",
  "id": 1605123277,
  "lat": 48.1645125,
  "lon": 11.4820565
},
{
  "type": "node",
  "id": 1605123279,
  "lat": 48.1645181,
  "lon": 11.4821804
},
{
  "type": "node",
  "id": 1605123281,
  "lat": 48.1645211,
  "lon": 11.4820907
},
{
  "type": "node",
  "id": 1605123284,
  "lat": 48.1645213,
  "lon": 11.4823406
},
{
  "type": "node",
  "id": 1605123291,
  "lat": 48.1645445,
  "lon": 11.4823072
},
{
  "type": "node",
  "id": 1605123293,
  "lat": 48.1645578,
  "lon": 11.4822813
},
{
  "type": "node",
  "id": 1605123296,
  "lat": 48.1645673,
  "lon": 11.4822832
},
{
  "type": "node",
  "id": 1605123299,
  "lat": 48.1645832,
  "lon": 11.4822566
},
{
  "type": "node",
  "id": 1605123302,
  "lat": 48.1646003,
  "lon": 11.4822183
},
{
  "type": "node",
  "id": 1605123303,
  "lat": 48.1646129,
  "lon": 11.4821748
},
{
  "type": "node",
  "id": 1605123308,
  "lat": 48.1646197,
  "lon": 11.4821398
},
{
  "type": "node",
  "id": 1129242266,
  "lat": 48.1741843,
  "lon": 11.4899204
},
{
  "type": "node",
  "id": 1129242348,
  "lat": 48.1740472,
  "lon": 11.4899352
},
{
  "type": "node",
  "id": 1129242377,
  "lat": 48.1740410,
  "lon": 11.4898057
},
{
  "type": "node",
  "id": 1129242460,
  "lat": 48.1741781,
  "lon": 11.4897908
},
{
  "type": "node",
  "id": 552448912,
  "lat": 48.2139166,
  "lon": 11.4806614
},
{
  "type": "node",
  "id": 552449128,
  "lat": 48.2138142,
  "lon": 11.4811686
},
{
  "type": "node",
  "id": 552449129,
  "lat": 48.2138130,
  "lon": 11.4810213
},
{
  "type": "node",
  "id": 552449133,
  "lat": 48.2139302,
  "lon": 11.4810101
},
{
  "type": "node",
  "id": 2848237880,
  "lat": 48.2135683,
  "lon": 11.4811970
},
{
  "type": "node",
  "id": 6440635918,
  "lat": 48.2135655,
  "lon": 11.4811430
},
{
  "type": "node",
  "id": 6440637011,
  "lat": 48.2135432,
  "lon": 11.4807061
},
{
  "type": "node",
  "id": 376852026,
  "lat": 48.0646002,
  "lon": 11.5552542
},
{
  "type": "node",
  "id": 376852037,
  "lat": 48.0641715,
  "lon": 11.5552697
},
{
  "type": "node",
  "id": 376852061,
  "lat": 48.0646063,
  "lon": 11.5556330
},
{
  "type": "node",
  "id": 376852083,
  "lat": 48.0641776,
  "lon": 11.5556485
},
{
  "type": "node",
  "id": 1632004936,
  "lat": 48.0645843,
  "lon": 11.5556337
},
{
  "type": "node",
  "id": 4771779800,
  "lat": 48.0645617,
  "lon": 11.5552561
},
{
  "type": "node",
  "id": 427690747,
  "lat": 48.0464289,
  "lon": 11.6175915
},
{
  "type": "node",
  "id": 427690748,
  "lat": 48.0463457,
  "lon": 11.6176336
},
{
  "type": "node",
  "id": 427690750,
  "lat": 48.0463110,
  "lon": 11.6174804
},
{
  "type": "node",
  "id": 427690751,
  "lat": 48.0462498,
  "lon": 11.6175114
},
{
  "type": "node",
  "id": 427690753,
  "lat": 48.0462243,
  "lon": 11.6173990
},
{
  "type": "node",
  "id": 427690754,
  "lat": 48.0463687,
  "lon": 11.6173258
},
{
  "type": "node",
  "id": 90237477,
  "lat": 48.1329001,
  "lon": 11.5453683
},
{
  "type": "node",
  "id": 90237480,
  "lat": 48.1326506,
  "lon": 11.5453335
},
{
  "type": "node",
  "id": 90237482,
  "lat": 48.1326105,
  "lon": 11.5450661
},
{
  "type": "node",
  "id": 90237485,
  "lat": 48.1326687,
  "lon": 11.5450741
},
{
  "type": "node",
  "id": 90237487,
  "lat": 48.1327232,
  "lon": 11.5441810
},
{
  "type": "node",
  "id": 90237489,
  "lat": 48.1326619,
  "lon": 11.5441727
},
{
  "type": "node",
  "id": 90237491,
  "lat": 48.1326743,
  "lon": 11.5439693
},
{
  "type": "node",
  "id": 90237500,
  "lat": 48.1328185,
  "lon": 11.5438418
},
{
  "type": "node",
  "id": 266578749,
  "lat": 48.1328818,
  "lon": 11.5413038
},
{
  "type": "node",
  "id": 266578750,
  "lat": 48.1323523,
  "lon": 11.5412344
},
{
  "type": "node",
  "id": 266578751,
  "lat": 48.1323229,
  "lon": 11.5425329
},
{
  "type": "node",
  "id": 266578752,
  "lat": 48.1324342,
  "lon": 11.5425774
},
{
  "type": "node",
  "id": 266578753,
  "lat": 48.1324169,
  "lon": 11.5428145
},
{
  "type": "node",
  "id": 266578754,
  "lat": 48.1326717,
  "lon": 11.5428482
},
{
  "type": "node",
  "id": 266578755,
  "lat": 48.1326865,
  "lon": 11.5426108
},
{
  "type": "node",
  "id": 325847364,
  "lat": 48.1329207,
  "lon": 11.5439543
},
{
  "type": "node",
  "id": 325847373,
  "lat": 48.1329267,
  "lon": 11.5438566
},
{
  "type": "node",
  "id": 778692652,
  "lat": 48.1328647,
  "lon": 11.5439466
},
{
  "type": "node",
  "id": 778692655,
  "lat": 48.1328707,
  "lon": 11.5438489
},
{
  "type": "node",
  "id": 1011606064,
  "lat": 48.1328774,
  "lon": 11.5428754
},
{
  "type": "node",
  "id": 1011606065,
  "lat": 48.1328031,
  "lon": 11.5425930
},
{
  "type": "node",
  "id": 1316406984,
  "lat": 48.1328672,
  "lon": 11.5439055
},
{
  "type": "node",
  "id": 1414671395,
  "lat": 48.1325979,
  "lon": 11.5452727
},
{
  "type": "node",
  "id": 1414671397,
  "lat": 48.1327341,
  "lon": 11.5439288
},
{
  "type": "node",
  "id": 1743503714,
  "lat": 48.1325162,
  "lon": 11.5412559
},
{
  "type": "node",
  "id": 1743503728,
  "lat": 48.1327696,
  "lon": 11.5412891
},
{
  "type": "node",
  "id": 1749954346,
  "lat": 48.1329232,
  "lon": 11.5439139
},
{
  "type": "node",
  "id": 2454629524,
  "lat": 48.1325395,
  "lon": 11.5429532
},
{
  "type": "node",
  "id": 2570701431,
  "lat": 48.1322624,
  "lon": 11.5427940
},
{
  "type": "node",
  "id": 2570701435,
  "lat": 48.1322761,
  "lon": 11.5425279
},
{
  "type": "node",
  "id": 2610157311,
  "lat": 48.1323402,
  "lon": 11.5414947
},
{
  "type": "node",
  "id": 2610157312,
  "lat": 48.1323831,
  "lon": 11.5415001
},
{
  "type": "node",
  "id": 2610157313,
  "lat": 48.1324253,
  "lon": 11.5428468
},
{
  "type": "node",
  "id": 2610157314,
  "lat": 48.1324381,
  "lon": 11.5428723
},
{
  "type": "node",
  "id": 2610157315,
  "lat": 48.1324447,
  "lon": 11.5426830
},
{
  "type": "node",
  "id": 2610157316,
  "lat": 48.1324541,
  "lon": 11.5428979
},
{
  "type": "node",
  "id": 2610157317,
  "lat": 48.1324686,
  "lon": 11.5428213
},
{
  "type": "node",
  "id": 2610157318,
  "lat": 48.1324705,
  "lon": 11.5429182
},
{
  "type": "node",
  "id": 2610157319,
  "lat": 48.1324871,
  "lon": 11.5429321
},
{
  "type": "node",
  "id": 2610157320,
  "lat": 48.1325015,
  "lon": 11.5427727
},
{
  "type": "node",
  "id": 2610157321,
  "lat": 48.1325047,
  "lon": 11.5429436
},
{
  "type": "node",
  "id": 2610157322,
  "lat": 48.1325058,
  "lon": 11.5427259
},
{
  "type": "node",
  "id": 2610157323,
  "lat": 48.1325087,
  "lon": 11.5426949
},
{
  "type": "node",
  "id": 2610157324,
  "lat": 48.1325211,
  "lon": 11.5429493
},
{
  "type": "node",
  "id": 2610157325,
  "lat": 48.1325613,
  "lon": 11.5429525
},
{
  "type": "node",
  "id": 2610157326,
  "lat": 48.1325808,
  "lon": 11.5429500
},
{
  "type": "node",
  "id": 2610157327,
  "lat": 48.1325958,
  "lon": 11.5427926
},
{
  "type": "node",
  "id": 2610157328,
  "lat": 48.1325980,
  "lon": 11.5429430
},
{
  "type": "node",
  "id": 2610157329,
  "lat": 48.1325999,
  "lon": 11.5427399
},
{
  "type": "node",
  "id": 2610157331,
  "lat": 48.1326024,
  "lon": 11.5427081
},
{
  "type": "node",
  "id": 2610157332,
  "lat": 48.1326165,
  "lon": 11.5429326
},
{
  "type": "node",
  "id": 2610157334,
  "lat": 48.1326247,
  "lon": 11.5428420
},
{
  "type": "node",
  "id": 2610157336,
  "lat": 48.1326350,
  "lon": 11.5429156
},
{
  "type": "node",
  "id": 2610157338,
  "lat": 48.1326514,
  "lon": 11.5428926
},
{
  "type": "node",
  "id": 2610157339,
  "lat": 48.1326537,
  "lon": 11.5452798
},
{
  "type": "node",
  "id": 2610157340,
  "lat": 48.1326626,
  "lon": 11.5428720
},
{
  "type": "node",
  "id": 2610157341,
  "lat": 48.1326648,
  "lon": 11.5427144
},
{
  "type": "node",
  "id": 2610157343,
  "lat": 48.1327312,
  "lon": 11.5439771
},
{
  "type": "node",
  "id": 2610157344,
  "lat": 48.1328111,
  "lon": 11.5439393
},
{
  "type": "node",
  "id": 2610157345,
  "lat": 48.1329151,
  "lon": 11.5428804
},
{
  "type": "node",
  "id": 90237475,
  "lat": 48.1329858,
  "lon": 11.5439632
},
{
  "type": "node",
  "id": 90237497,
  "lat": 48.1331798,
  "lon": 11.5426446
},
{
  "type": "node",
  "id": 90237499,
  "lat": 48.1331044,
  "lon": 11.5438809
},
{
  "type": "node",
  "id": 90237501,
  "lat": 48.1329316,
  "lon": 11.5426106
},
{
  "type": "node",
  "id": 60070967,
  "lat": 48.1292096,
  "lon": 11.5808664
},
{
  "type": "node",
  "id": 60070968,
  "lat": 48.1289803,
  "lon": 11.5811341
},
{
  "type": "node",
  "id": 60070969,
  "lat": 48.1292860,
  "lon": 11.5816968
},
{
  "type": "node",
  "id": 60070970,
  "lat": 48.1288832,
  "lon": 11.5821638
},
{
  "type": "node",
  "id": 60070971,
  "lat": 48.1290674,
  "lon": 11.5825377
},
{
  "type": "node",
  "id": 60070972,
  "lat": 48.1289276,
  "lon": 11.5827807
},
{
  "type": "node",
  "id": 60070981,
  "lat": 48.1300607,
  "lon": 11.5845775
},
{
  "type": "node",
  "id": 60070982,
  "lat": 48.1301943,
  "lon": 11.5844220
},
{
  "type": "node",
  "id": 60070983,
  "lat": 48.1303274,
  "lon": 11.5842756
},
{
  "type": "node",
  "id": 60070984,
  "lat": 48.1305894,
  "lon": 11.5839740
},
{
  "type": "node",
  "id": 60070985,
  "lat": 48.1307510,
  "lon": 11.5842892
},
{
  "type": "node",
  "id": 60070986,
  "lat": 48.1304889,
  "lon": 11.5845907
},
{
  "type": "node",
  "id": 60070987,
  "lat": 48.1305324,
  "lon": 11.5847052
},
{
  "type": "node",
  "id": 60070988,
  "lat": 48.1306942,
  "lon": 11.5850229
},
{
  "type": "node",
  "id": 60070989,
  "lat": 48.1309579,
  "lon": 11.5847214
},
{
  "type": "node",
  "id": 60070990,
  "lat": 48.1307961,
  "lon": 11.5844037
},
{
  "type": "node",
  "id": 60070991,
  "lat": 48.1307022,
  "lon": 11.5853497
},
{
  "type": "node",
  "id": 60070992,
  "lat": 48.1311922,
  "lon": 11.5847493
},
{
  "type": "node",
  "id": 263704652,
  "lat": 48.1295511,
  "lon": 11.5839587
},
{
  "type": "node",
  "id": 596195438,
  "lat": 48.1297426,
  "lon": 11.5842453
},
{
  "type": "node",
  "id": 678592482,
  "lat": 48.1307578,
  "lon": 11.5852815
},
{
  "type": "node",
  "id": 678592483,
  "lat": 48.1308585,
  "lon": 11.5851582
},
{
  "type": "node",
  "id": 678592487,
  "lat": 48.1311014,
  "lon": 11.5848606
},
{
  "type": "node",
  "id": 1121919987,
  "lat": 48.1289749,
  "lon": 11.5827273
},
{
  "type": "node",
  "id": 1121919991,
  "lat": 48.1289514,
  "lon": 11.5826788
},
{
  "type": "node",
  "id": 1121919998,
  "lat": 48.1311444,
  "lon": 11.5846541
},
{
  "type": "node",
  "id": 1121920022,
  "lat": 48.1298353,
  "lon": 11.5819741
},
{
  "type": "node",
  "id": 1121920028,
  "lat": 48.1297438,
  "lon": 11.5818703
},
{
  "type": "node",
  "id": 1121920031,
  "lat": 48.1298099,
  "lon": 11.5820026
},
{
  "type": "node",
  "id": 1121920038,
  "lat": 48.1297692,
  "lon": 11.5818418
},
{
  "type": "node",
  "id": 1121920041,
  "lat": 48.1295563,
  "lon": 11.5814943
},
{
  "type": "node",
  "id": 1288172718,
  "lat": 48.1302099,
  "lon": 11.5832341
},
{
  "type": "node",
  "id": 1288172719,
  "lat": 48.1306076,
  "lon": 11.5835821
},
{
  "type": "node",
  "id": 1288172730,
  "lat": 48.1304600,
  "lon": 11.5837538
},
{
  "type": "node",
  "id": 1288172733,
  "lat": 48.1298766,
  "lon": 11.5843852
},
{
  "type": "node",
  "id": 1288172735,
  "lat": 48.1303539,
  "lon": 11.5830754
},
{
  "type": "node",
  "id": 1686410095,
  "lat": 48.1299982,
  "lon": 11.5834928
},
{
  "type": "node",
  "id": 1686410098,
  "lat": 48.1298819,
  "lon": 11.5835571
},
{
  "type": "node",
  "id": 1686410099,
  "lat": 48.1297747,
  "lon": 11.5839813
},
{
  "type": "node",
  "id": 1686410101,
  "lat": 48.1300152,
  "lon": 11.5833935
},
{
  "type": "node",
  "id": 1686410102,
  "lat": 48.1304912,
  "lon": 11.5838211
},
{
  "type": "node",
  "id": 1686410103,
  "lat": 48.1299777,
  "lon": 11.5835276
},
{
  "type": "node",
  "id": 1686410104,
  "lat": 48.1299472,
  "lon": 11.5835545
},
{
  "type": "node",
  "id": 1686410106,
  "lat": 48.1300144,
  "lon": 11.5834431
},
{
  "type": "node",
  "id": 1686410137,
  "lat": 48.1300090,
  "lon": 11.5833560
},
{
  "type": "node",
  "id": 1686410139,
  "lat": 48.1296432,
  "lon": 11.5837758
},
{
  "type": "node",
  "id": 1686410144,
  "lat": 48.1299150,
  "lon": 11.5835638
},
{
  "type": "node",
  "id": 1686410147,
  "lat": 48.1298572,
  "lon": 11.5835414
},
{
  "type": "node",
  "id": 1686410151,
  "lat": 48.1301737,
  "lon": 11.5831682
},
{
  "type": "node",
  "id": 1686410154,
  "lat": 48.1300754,
  "lon": 11.5843186
},
{
  "type": "node",
  "id": 1769716567,
  "lat": 48.1299517,
  "lon": 11.5841870
},
{
  "type": "node",
  "id": 2184629263,
  "lat": 48.1293073,
  "lon": 11.5827816
},
{
  "type": "node",
  "id": 2184629266,
  "lat": 48.1297010,
  "lon": 11.5833758
},
{
  "type": "node",
  "id": 2184629267,
  "lat": 48.1296371,
  "lon": 11.5832494
},
{
  "type": "node",
  "id": 2184629269,
  "lat": 48.1299108,
  "lon": 11.5831120
},
{
  "type": "node",
  "id": 2184629271,
  "lat": 48.1296543,
  "lon": 11.5823910
},
{
  "type": "node",
  "id": 2184629273,
  "lat": 48.1293673,
  "lon": 11.5827159
},
{
  "type": "node",
  "id": 2184629274,
  "lat": 48.1299796,
  "lon": 11.5830344
},
{
  "type": "node",
  "id": 2184629276,
  "lat": 48.1296423,
  "lon": 11.5834439
},
{
  "type": "node",
  "id": 2184629278,
  "lat": 48.1295853,
  "lon": 11.5824684
},
{
  "type": "node",
  "id": 2184629280,
  "lat": 48.1290548,
  "lon": 11.5830210
},
{
  "type": "node",
  "id": 2184629284,
  "lat": 48.1298628,
  "lon": 11.5821086
},
{
  "type": "node",
  "id": 2184629292,
  "lat": 48.1298551,
  "lon": 11.5830019
},
{
  "type": "node",
  "id": 3446096418,
  "lat": 48.1300146,
  "lon": 11.5833885
},
{
  "type": "node",
  "id": 3640405070,
  "lat": 48.1303629,
  "lon": 11.5839747
},
{
  "type": "node",
  "id": 4884522153,
  "lat": 48.1300166,
  "lon": 11.5829909
},
{
  "type": "node",
  "id": 4884522154,
  "lat": 48.1299761,
  "lon": 11.5829137
},
{
  "type": "node",
  "id": 4884522155,
  "lat": 48.1299542,
  "lon": 11.5829395
},
{
  "type": "node",
  "id": 4884522156,
  "lat": 48.1298944,
  "lon": 11.5828253
},
{
  "type": "node",
  "id": 4884522157,
  "lat": 48.1299157,
  "lon": 11.5828002
},
{
  "type": "node",
  "id": 4884522158,
  "lat": 48.1297947,
  "lon": 11.5825689
},
{
  "type": "node",
  "id": 4884522159,
  "lat": 48.1297769,
  "lon": 11.5825898
},
{
  "type": "node",
  "id": 4884522160,
  "lat": 48.1297140,
  "lon": 11.5824697
},
{
  "type": "node",
  "id": 4884522161,
  "lat": 48.1297294,
  "lon": 11.5824516
},
{
  "type": "node",
  "id": 4884522162,
  "lat": 48.1296812,
  "lon": 11.5823594
},
{
  "type": "node",
  "id": 4884522163,
  "lat": 48.1296055,
  "lon": 11.5834870
},
{
  "type": "node",
  "id": 4884522164,
  "lat": 48.1292638,
  "lon": 11.5828325
},
{
  "type": "node",
  "id": 261736372,
  "lat": 48.1344368,
  "lon": 11.5721492
},
{
  "type": "node",
  "id": 261736373,
  "lat": 48.1342976,
  "lon": 11.5720815
},
{
  "type": "node",
  "id": 261736374,
  "lat": 48.1342156,
  "lon": 11.5724597
},
{
  "type": "node",
  "id": 261736375,
  "lat": 48.1343547,
  "lon": 11.5725275
},
{
  "type": "node",
  "id": 344326736,
  "lat": 48.1352902,
  "lon": 11.5730429
},
{
  "type": "node",
  "id": 344326739,
  "lat": 48.1354789,
  "lon": 11.5734336
},
{
  "type": "node",
  "id": 344326741,
  "lat": 48.1353515,
  "lon": 11.5736301
},
{
  "type": "node",
  "id": 344326745,
  "lat": 48.1350218,
  "lon": 11.5734049
},
{
  "type": "node",
  "id": 344326747,
  "lat": 48.1351062,
  "lon": 11.5732626
},
{
  "type": "node",
  "id": 358489965,
  "lat": 48.1351068,
  "lon": 11.5722842
},
{
  "type": "node",
  "id": 358489967,
  "lat": 48.1348167,
  "lon": 11.5726399
},
{
  "type": "node",
  "id": 358492398,
  "lat": 48.1349060,
  "lon": 11.5732392
},
{
  "type": "node",
  "id": 358494062,
  "lat": 48.1348874,
  "lon": 11.5732920
},
{
  "type": "node",
  "id": 1692358770,
  "lat": 48.1346813,
  "lon": 11.5730288
},
{
  "type": "node",
  "id": 1692358776,
  "lat": 48.1347982,
  "lon": 11.5735370
},
{
  "type": "node",
  "id": 1692358780,
  "lat": 48.1348853,
  "lon": 11.5730235
},
{
  "type": "node",
  "id": 1692358785,
  "lat": 48.1349135,
  "lon": 11.5725019
},
{
  "type": "node",
  "id": 1692358786,
  "lat": 48.1349757,
  "lon": 11.5724208
},
{
  "type": "node",
  "id": 1692358787,
  "lat": 48.1349811,
  "lon": 11.5731549
},
{
  "type": "node",
  "id": 1692358788,
  "lat": 48.1350329,
  "lon": 11.5726559
},
{
  "type": "node",
  "id": 1692358793,
  "lat": 48.1356532,
  "lon": 11.5734563
},
{
  "type": "node",
  "id": 1870701371,
  "lat": 48.1353156,
  "lon": 11.5727138
},
{
  "type": "node",
  "id": 1970538087,
  "lat": 48.1353056,
  "lon": 11.5727245
},
{
  "type": "node",
  "id": 2487367744,
  "lat": 48.1349067,
  "lon": 11.5736212
},
{
  "type": "node",
  "id": 2487367745,
  "lat": 48.1349252,
  "lon": 11.5735692
},
{
  "type": "node",
  "id": 3902869973,
  "lat": 48.1347779,
  "lon": 11.5731763
},
{
  "type": "node",
  "id": 3902869974,
  "lat": 48.1347851,
  "lon": 11.5732052
},
{
  "type": "node",
  "id": 3902869975,
  "lat": 48.1347957,
  "lon": 11.5731329
},
{
  "type": "node",
  "id": 3902869976,
  "lat": 48.1348006,
  "lon": 11.5732156
},
{
  "type": "node",
  "id": 3902869979,
  "lat": 48.1348187,
  "lon": 11.5732108
},
{
  "type": "node",
  "id": 3902869980,
  "lat": 48.1348326,
  "lon": 11.5731805
},
{
  "type": "node",
  "id": 3902869981,
  "lat": 48.1348486,
  "lon": 11.5731797
},
{
  "type": "node",
  "id": 3902869984,
  "lat": 48.1349591,
  "lon": 11.5728179
},
{
  "type": "node",
  "id": 3902869985,
  "lat": 48.1350066,
  "lon": 11.5731183
},
{
  "type": "node",
  "id": 3902869987,
  "lat": 48.1350183,
  "lon": 11.5726902
},
{
  "type": "node",
  "id": 3902869988,
  "lat": 48.1350306,
  "lon": 11.5727055
},
{
  "type": "node",
  "id": 3902869990,
  "lat": 48.1350653,
  "lon": 11.5730146
},
{
  "type": "node",
  "id": 3902869991,
  "lat": 48.1350750,
  "lon": 11.5730327
},
{
  "type": "node",
  "id": 3902869992,
  "lat": 48.1350906,
  "lon": 11.5729820
},
{
  "type": "node",
  "id": 3902869993,
  "lat": 48.1351176,
  "lon": 11.5729471
},
{
  "type": "node",
  "id": 3902869994,
  "lat": 48.1351281,
  "lon": 11.5729676
},
{
  "type": "node",
  "id": 3902869995,
  "lat": 48.1351925,
  "lon": 11.5728808
},
{
  "type": "node",
  "id": 3927143760,
  "lat": 48.1353844,
  "lon": 11.5728652
},
{
  "type": "node",
  "id": 4031348591,
  "lat": 48.1350378,
  "lon": 11.5733779
},
{
  "type": "node",
  "id": 4031348594,
  "lat": 48.1353096,
  "lon": 11.5730831
},
{
  "type": "node",
  "id": 4031348596,
  "lat": 48.1354234,
  "lon": 11.5729510
},
{
  "type": "node",
  "id": 1644932680,
  "lat": 48.1453034,
  "lon": 11.5650144
},
{
  "type": "node",
  "id": 1907449187,
  "lat": 48.1450356,
  "lon": 11.5650247
},
{
  "type": "node",
  "id": 1907449188,
  "lat": 48.1450874,
  "lon": 11.5652066
},
{
  "type": "node",
  "id": 1907449190,
  "lat": 48.1451171,
  "lon": 11.5647308
},
{
  "type": "node",
  "id": 1907449191,
  "lat": 48.1451228,
  "lon": 11.5650790
},
{
  "type": "node",
  "id": 1907449192,
  "lat": 48.1451517,
  "lon": 11.5653946
},
{
  "type": "node",
  "id": 1907449194,
  "lat": 48.1452077,
  "lon": 11.5647873
},
{
  "type": "node",
  "id": 1907449195,
  "lat": 48.1452227,
  "lon": 11.5651413
},
{
  "type": "node",
  "id": 1907449196,
  "lat": 48.1452452,
  "lon": 11.5646522
},
{
  "type": "node",
  "id": 1907449197,
  "lat": 48.1452619,
  "lon": 11.5651658
},
{
  "type": "node",
  "id": 1907449198,
  "lat": 48.1453013,
  "lon": 11.5648457
},
{
  "type": "node",
  "id": 1907449199,
  "lat": 48.1453426,
  "lon": 11.5648715
},
{
  "type": "node",
  "id": 1907449200,
  "lat": 48.1453804,
  "lon": 11.5645595
},
{
  "type": "node",
  "id": 2069834818,
  "lat": 48.1450002,
  "lon": 11.5651523
},
{
  "type": "node",
  "id": 3242345046,
  "lat": 48.1449268,
  "lon": 11.5652549
},
{
  "type": "node",
  "id": 3242345047,
  "lat": 48.1451619,
  "lon": 11.5644227
},
{
  "type": "node",
  "id": 3242345048,
  "lat": 48.1451540,
  "lon": 11.5645957
},
{
  "type": "node",
  "id": 4372462285,
  "lat": 48.1453278,
  "lon": 11.5647499
},
{
  "type": "node",
  "id": 4372462288,
  "lat": 48.1451984,
  "lon": 11.5652280
},
{
  "type": "node",
  "id": 1056892640,
  "lat": 48.1403220,
  "lon": 11.5716701
},
{
  "type": "node",
  "id": 1056892675,
  "lat": 48.1403298,
  "lon": 11.5709458
},
{
  "type": "node",
  "id": 1056892741,
  "lat": 48.1403500,
  "lon": 11.5709565
},
{
  "type": "node",
  "id": 1056892827,
  "lat": 48.1403124,
  "lon": 11.5710192
},
{
  "type": "node",
  "id": 1056892834,
  "lat": 48.1402768,
  "lon": 11.5710002
},
{
  "type": "node",
  "id": 1056892881,
  "lat": 48.1404752,
  "lon": 11.5710241
},
{
  "type": "node",
  "id": 2810087894,
  "lat": 48.1402392,
  "lon": 11.5716260
},
{
  "type": "node",
  "id": 2836141423,
  "lat": 48.1404612,
  "lon": 11.5710831
},
{
  "type": "node",
  "id": 2844726274,
  "lat": 48.1453993,
  "lon": 11.5678873
},
{
  "type": "node",
  "id": 2844726275,
  "lat": 48.1452986,
  "lon": 11.5675162
},
{
  "type": "node",
  "id": 2844726277,
  "lat": 48.1452250,
  "lon": 11.5677765
},
{
  "type": "node",
  "id": 2844726278,
  "lat": 48.1454729,
  "lon": 11.5676270
},
{
  "type": "node",
  "id": 3569933911,
  "lat": 48.1401406,
  "lon": 11.5715735
},
{
  "type": "node",
  "id": 3569933912,
  "lat": 48.1402721,
  "lon": 11.5710199
},
{
  "type": "node",
  "id": 3822453650,
  "lat": 48.1402547,
  "lon": 11.5710931
},
{
  "type": "node",
  "id": 4372462239,
  "lat": 48.1453379,
  "lon": 11.5675412
},
{
  "type": "node",
  "id": 344326743,
  "lat": 48.1353331,
  "lon": 11.5736773
},
{
  "type": "node",
  "id": 1692358791,
  "lat": 48.1353525,
  "lon": 11.5740176
},
{
  "type": "node",
  "id": 1692358792,
  "lat": 48.1354663,
  "lon": 11.5737497
},
{
  "type": "node",
  "id": 2487367768,
  "lat": 48.1352402,
  "lon": 11.5739322
},
{
  "type": "node",
  "id": 2487367770,
  "lat": 48.1352641,
  "lon": 11.5738554
},
{
  "type": "node",
  "id": 3944674388,
  "lat": 48.1354017,
  "lon": 11.5739123
},
{
  "type": "node",
  "id": 280147422,
  "lat": 48.1374770,
  "lon": 11.5865499
},
{
  "type": "node",
  "id": 280147423,
  "lat": 48.1378316,
  "lon": 11.5846918
},
{
  "type": "node",
  "id": 280147425,
  "lat": 48.1374667,
  "lon": 11.5845683
},
{
  "type": "node",
  "id": 280147426,
  "lat": 48.1372093,
  "lon": 11.5864351
},
{
  "type": "node",
  "id": 931715794,
  "lat": 48.1373252,
  "lon": 11.5862072
},
{
  "type": "node",
  "id": 931715826,
  "lat": 48.1375945,
  "lon": 11.5848940
},
{
  "type": "node",
  "id": 931715839,
  "lat": 48.1373916,
  "lon": 11.5853945
},
{
  "type": "node",
  "id": 931715932,
  "lat": 48.1374909,
  "lon": 11.5854370
},
{
  "type": "node",
  "id": 931716030,
  "lat": 48.1373504,
  "lon": 11.5856103
},
{
  "type": "node",
  "id": 931716169,
  "lat": 48.1372582,
  "lon": 11.5861785
},
{
  "type": "node",
  "id": 931716195,
  "lat": 48.1374189,
  "lon": 11.5848188
},
{
  "type": "node",
  "id": 931716255,
  "lat": 48.1374525,
  "lon": 11.5856541
},
{
  "type": "node",
  "id": 1106583069,
  "lat": 48.1376459,
  "lon": 11.5846122
},
{
  "type": "node",
  "id": 1106583090,
  "lat": 48.1376401,
  "lon": 11.5846426
},
{
  "type": "node",
  "id": 2473538032,
  "lat": 48.1373282,
  "lon": 11.5861914
},
{
  "type": "node",
  "id": 2473538033,
  "lat": 48.1373318,
  "lon": 11.5861723
},
{
  "type": "node",
  "id": 2473538034,
  "lat": 48.1373520,
  "lon": 11.5861809
},
{
  "type": "node",
  "id": 2473538036,
  "lat": 48.1376551,
  "lon": 11.5856167
},
{
  "type": "node",
  "id": 1636729425,
  "lat": 48.1436940,
  "lon": 11.5865177
},
{
  "type": "node",
  "id": 1636729426,
  "lat": 48.1437015,
  "lon": 11.5866642
},
{
  "type": "node",
  "id": 1636729434,
  "lat": 48.1437276,
  "lon": 11.5865326
},
{
  "type": "node",
  "id": 1636729442,
  "lat": 48.1437996,
  "lon": 11.5867078
},
{
  "type": "node",
  "id": 1636729455,
  "lat": 48.1439685,
  "lon": 11.5851300
},
{
  "type": "node",
  "id": 1636729457,
  "lat": 48.1440151,
  "lon": 11.5851508
},
{
  "type": "node",
  "id": 1636729459,
  "lat": 48.1440395,
  "lon": 11.5850277
},
{
  "type": "node",
  "id": 1636729462,
  "lat": 48.1441243,
  "lon": 11.5850654
},
{
  "type": "node",
  "id": 1636729463,
  "lat": 48.1441606,
  "lon": 11.5848817
},
{
  "type": "node",
  "id": 1636729476,
  "lat": 48.1442245,
  "lon": 11.5867605
},
{
  "type": "node",
  "id": 1636729492,
  "lat": 48.1444388,
  "lon": 11.5852146
},
{
  "type": "node",
  "id": 1636729494,
  "lat": 48.1444768,
  "lon": 11.5850222
},
{
  "type": "node",
  "id": 1636729498,
  "lat": 48.1444982,
  "lon": 11.5853812
},
{
  "type": "node",
  "id": 1636729499,
  "lat": 48.1445236,
  "lon": 11.5852524
},
{
  "type": "node",
  "id": 1636729500,
  "lat": 48.1445432,
  "lon": 11.5854013
},
{
  "type": "node",
  "id": 2589161556,
  "lat": 48.1438292,
  "lon": 11.5858343
},
{
  "type": "node",
  "id": 6635333029,
  "lat": 48.1444227,
  "lon": 11.5860277
},
{
  "type": "node",
  "id": 6635333030,
  "lat": 48.1444304,
  "lon": 11.5859875
},
{
  "type": "node",
  "id": 6635333031,
  "lat": 48.1443982,
  "lon": 11.5861487
},
{
  "type": "node",
  "id": 196224581,
  "lat": 48.1354120,
  "lon": 11.5890382
},
{
  "type": "node",
  "id": 196224588,
  "lat": 48.1351844,
  "lon": 11.5888499
},
{
  "type": "node",
  "id": 196224593,
  "lat": 48.1351027,
  "lon": 11.5890716
},
{
  "type": "node",
  "id": 196224597,
  "lat": 48.1353302,
  "lon": 11.5892602
},
{
  "type": "node",
  "id": 939087587,
  "lat": 48.1352156,
  "lon": 11.5892214
},
{
  "type": "node",
  "id": 939087597,
  "lat": 48.1351794,
  "lon": 11.5891351
},
{
  "type": "node",
  "id": 939087616,
  "lat": 48.1352531,
  "lon": 11.5891965
},
{
  "type": "node",
  "id": 939087634,
  "lat": 48.1351848,
  "lon": 11.5891958
},
{
  "type": "node",
  "id": 1896420873,
  "lat": 48.1351486,
  "lon": 11.5889469
},
{
  "type": "node",
  "id": 1896420874,
  "lat": 48.1351997,
  "lon": 11.5892082
},
{
  "type": "node",
  "id": 305609468,
  "lat": 48.1440731,
  "lon": 11.5870435
},
{
  "type": "node",
  "id": 307213269,
  "lat": 48.1424382,
  "lon": 11.5933074
},
{
  "type": "node",
  "id": 307213282,
  "lat": 48.1422973,
  "lon": 11.5931667
},
{
  "type": "node",
  "id": 307213288,
  "lat": 48.1424524,
  "lon": 11.5932379
},
{
  "type": "node",
  "id": 307374036,
  "lat": 48.1443342,
  "lon": 11.5917597
},
{
  "type": "node",
  "id": 307374037,
  "lat": 48.1444188,
  "lon": 11.5913742
},
{
  "type": "node",
  "id": 307374038,
  "lat": 48.1442094,
  "lon": 11.5912705
},
{
  "type": "node",
  "id": 307374039,
  "lat": 48.1442488,
  "lon": 11.5910953
},
{
  "type": "node",
  "id": 307374040,
  "lat": 48.1441379,
  "lon": 11.5910853
},
{
  "type": "node",
  "id": 307374041,
  "lat": 48.1441200,
  "lon": 11.5910762
},
{
  "type": "node",
  "id": 307374042,
  "lat": 48.1441540,
  "lon": 11.5909249
},
{
  "type": "node",
  "id": 307374044,
  "lat": 48.1440420,
  "lon": 11.5908683
},
{
  "type": "node",
  "id": 307374045,
  "lat": 48.1440546,
  "lon": 11.5908125
},
{
  "type": "node",
  "id": 307374046,
  "lat": 48.1439517,
  "lon": 11.5907606
},
{
  "type": "node",
  "id": 307374047,
  "lat": 48.1439137,
  "lon": 11.5909294
},
{
  "type": "node",
  "id": 307374048,
  "lat": 48.1438582,
  "lon": 11.5909014
},
{
  "type": "node",
  "id": 307374049,
  "lat": 48.1438244,
  "lon": 11.5910517
},
{
  "type": "node",
  "id": 307374050,
  "lat": 48.1439326,
  "lon": 11.5911063
},
{
  "type": "node",
  "id": 307374051,
  "lat": 48.1439123,
  "lon": 11.5911963
},
{
  "type": "node",
  "id": 307374052,
  "lat": 48.1440133,
  "lon": 11.5912474
},
{
  "type": "node",
  "id": 307374053,
  "lat": 48.1439789,
  "lon": 11.5914003
},
{
  "type": "node",
  "id": 307374054,
  "lat": 48.1440116,
  "lon": 11.5914168
},
{
  "type": "node",
  "id": 307374055,
  "lat": 48.1439753,
  "lon": 11.5915783
},
{
  "type": "node",
  "id": 1407756691,
  "lat": 48.1441471,
  "lon": 11.5910440
},
{
  "type": "node",
  "id": 1636729438,
  "lat": 48.1437606,
  "lon": 11.5869046
},
{
  "type": "node",
  "id": 1636729461,
  "lat": 48.1441095,
  "lon": 11.5868596
},
{
  "type": "node",
  "id": 1636729473,
  "lat": 48.1441972,
  "lon": 11.5868986
},
{
  "type": "node",
  "id": 1636729478,
  "lat": 48.1442703,
  "lon": 11.5867809
},
{
  "type": "node",
  "id": 2836252034,
  "lat": 48.1443435,
  "lon": 11.5917186
},
{
  "type": "node",
  "id": 2836252035,
  "lat": 48.1442678,
  "lon": 11.5913000
},
{
  "type": "node",
  "id": 3184609074,
  "lat": 48.1442591,
  "lon": 11.5914849
},
{
  "type": "node",
  "id": 3184609075,
  "lat": 48.1441833,
  "lon": 11.5914489
},
{
  "type": "node",
  "id": 3184609076,
  "lat": 48.1441726,
  "lon": 11.5914996
},
{
  "type": "node",
  "id": 3184609077,
  "lat": 48.1442484,
  "lon": 11.5915356
},
{
  "type": "node",
  "id": 3745533156,
  "lat": 48.1422822,
  "lon": 11.5931931
},
{
  "type": "node",
  "id": 3745533157,
  "lat": 48.1422911,
  "lon": 11.5931972
},
{
  "type": "node",
  "id": 4625806061,
  "lat": 48.1422623,
  "lon": 11.5932908
},
{
  "type": "node",
  "id": 307213264,
  "lat": 48.1427050,
  "lon": 11.5934202
},
{
  "type": "node",
  "id": 307213273,
  "lat": 48.1424025,
  "lon": 11.5934936
},
{
  "type": "node",
  "id": 307213278,
  "lat": 48.1426626,
  "lon": 11.5936275
},
{
  "type": "node",
  "id": 307213428,
  "lat": 48.1422406,
  "lon": 11.5933967
},
{
  "type": "node",
  "id": 988188280,
  "lat": 48.1402764,
  "lon": 11.5995970
},
{
  "type": "node",
  "id": 988188326,
  "lat": 48.1403994,
  "lon": 11.5994079
},
{
  "type": "node",
  "id": 988188380,
  "lat": 48.1404088,
  "lon": 11.5996598
},
{
  "type": "node",
  "id": 988188423,
  "lat": 48.1402559,
  "lon": 11.5996938
},
{
  "type": "node",
  "id": 988188436,
  "lat": 48.1405098,
  "lon": 11.5994603
},
{
  "type": "node",
  "id": 988188543,
  "lat": 48.1405795,
  "lon": 11.5998474
},
{
  "type": "node",
  "id": 988188623,
  "lat": 48.1405124,
  "lon": 11.5992000
},
{
  "type": "node",
  "id": 988188764,
  "lat": 48.1406934,
  "lon": 11.5992840
},
{
  "type": "node",
  "id": 1411523303,
  "lat": 48.1406679,
  "lon": 11.5994291
},
{
  "type": "node",
  "id": 1411523304,
  "lat": 48.1406799,
  "lon": 11.5993478
},
{
  "type": "node",
  "id": 1411523309,
  "lat": 48.1407063,
  "lon": 11.5994473
},
{
  "type": "node",
  "id": 1411523311,
  "lat": 48.1407230,
  "lon": 11.5993682
},
{
  "type": "node",
  "id": 3745533154,
  "lat": 48.1422427,
  "lon": 11.5934202
},
{
  "type": "node",
  "id": 3745533155,
  "lat": 48.1422469,
  "lon": 11.5933997
},
{
  "type": "node",
  "id": 3745533158,
  "lat": 48.1424050,
  "lon": 11.5934813
},
{
  "type": "node",
  "id": 3745533163,
  "lat": 48.1425667,
  "lon": 11.5935834
},
{
  "type": "node",
  "id": 3745533164,
  "lat": 48.1425719,
  "lon": 11.5935579
},
{
  "type": "node",
  "id": 3745533165,
  "lat": 48.1426026,
  "lon": 11.5933829
},
{
  "type": "node",
  "id": 3745533166,
  "lat": 48.1426044,
  "lon": 11.5933740
},
{
  "type": "node",
  "id": 4244407786,
  "lat": 48.1404227,
  "lon": 11.5992977
},
{
  "type": "node",
  "id": 4244407787,
  "lat": 48.1404614,
  "lon": 11.5993161
},
{
  "type": "node",
  "id": 4244407788,
  "lat": 48.1404635,
  "lon": 11.5995077
},
{
  "type": "node",
  "id": 4244408489,
  "lat": 48.1404776,
  "lon": 11.5992393
},
{
  "type": "node",
  "id": 4244408490,
  "lat": 48.1404965,
  "lon": 11.5995233
},
{
  "type": "node",
  "id": 4244408491,
  "lat": 48.1405017,
  "lon": 11.5992507
},
{
  "type": "node",
  "id": 4244408492,
  "lat": 48.1405465,
  "lon": 11.5992325
},
{
  "type": "node",
  "id": 4244408493,
  "lat": 48.1405497,
  "lon": 11.5992177
},
{
  "type": "node",
  "id": 4244408494,
  "lat": 48.1406417,
  "lon": 11.5992776
},
{
  "type": "node",
  "id": 4244408495,
  "lat": 48.1406452,
  "lon": 11.5992611
},
{
  "type": "node",
  "id": 4589764360,
  "lat": 48.1404354,
  "lon": 11.5995340
},
{
  "type": "node",
  "id": 4589764362,
  "lat": 48.1402679,
  "lon": 11.5996371
},
{
  "type": "node",
  "id": 4589764364,
  "lat": 48.1402600,
  "lon": 11.5996744
},
{
  "type": "node",
  "id": 4589764365,
  "lat": 48.1402337,
  "lon": 11.5996619
},
{
  "type": "node",
  "id": 4589764366,
  "lat": 48.1404558,
  "lon": 11.5995437
},
{
  "type": "node",
  "id": 4589764368,
  "lat": 48.1402416,
  "lon": 11.5996246
},
{
  "type": "node",
  "id": 1324541095,
  "lat": 48.1336536,
  "lon": 11.6014736
},
{
  "type": "node",
  "id": 1324541099,
  "lat": 48.1337541,
  "lon": 11.6015454
},
{
  "type": "node",
  "id": 1334198868,
  "lat": 48.1338156,
  "lon": 11.6013520
},
{
  "type": "node",
  "id": 1334198870,
  "lat": 48.1337152,
  "lon": 11.6012803
},
{
  "type": "node",
  "id": 223893036,
  "lat": 48.1462458,
  "lon": 11.5658004
},
{
  "type": "node",
  "id": 223893047,
  "lat": 48.1468606,
  "lon": 11.5659406
},
{
  "type": "node",
  "id": 223893051,
  "lat": 48.1468218,
  "lon": 11.5660638
},
{
  "type": "node",
  "id": 223893058,
  "lat": 48.1469036,
  "lon": 11.5659679
},
{
  "type": "node",
  "id": 223893064,
  "lat": 48.1468682,
  "lon": 11.5660932
},
{
  "type": "node",
  "id": 243358940,
  "lat": 48.1468801,
  "lon": 11.5659530
},
{
  "type": "node",
  "id": 255364039,
  "lat": 48.1469569,
  "lon": 11.5655998
},
{
  "type": "node",
  "id": 255364040,
  "lat": 48.1467246,
  "lon": 11.5664078
},
{
  "type": "node",
  "id": 255364041,
  "lat": 48.1461731,
  "lon": 11.5660577
},
{
  "type": "node",
  "id": 255364044,
  "lat": 48.1462089,
  "lon": 11.5657769
},
{
  "type": "node",
  "id": 255364045,
  "lat": 48.1462945,
  "lon": 11.5654741
},
{
  "type": "node",
  "id": 255364046,
  "lat": 48.1463317,
  "lon": 11.5654977
},
{
  "type": "node",
  "id": 255364047,
  "lat": 48.1464024,
  "lon": 11.5652478
},
{
  "type": "node",
  "id": 307733998,
  "lat": 48.1470824,
  "lon": 11.5643736
},
{
  "type": "node",
  "id": 307733999,
  "lat": 48.1473119,
  "lon": 11.5635502
},
{
  "type": "node",
  "id": 307734003,
  "lat": 48.1466334,
  "lon": 11.5640114
},
{
  "type": "node",
  "id": 307734004,
  "lat": 48.1467451,
  "lon": 11.5640807
},
{
  "type": "node",
  "id": 307734006,
  "lat": 48.1468776,
  "lon": 11.5636008
},
{
  "type": "node",
  "id": 307734009,
  "lat": 48.1469189,
  "lon": 11.5636265
},
{
  "type": "node",
  "id": 307734014,
  "lat": 48.1469097,
  "lon": 11.5636668
},
{
  "type": "node",
  "id": 307734017,
  "lat": 48.1470501,
  "lon": 11.5637552
},
{
  "type": "node",
  "id": 307734019,
  "lat": 48.1470576,
  "lon": 11.5637267
},
{
  "type": "node",
  "id": 307734020,
  "lat": 48.1471381,
  "lon": 11.5637768
},
{
  "type": "node",
  "id": 307734022,
  "lat": 48.1469609,
  "lon": 11.5642980
},
{
  "type": "node",
  "id": 307734027,
  "lat": 48.1473847,
  "lon": 11.5636719
},
{
  "type": "node",
  "id": 307734029,
  "lat": 48.1474769,
  "lon": 11.5633464
},
{
  "type": "node",
  "id": 307734032,
  "lat": 48.1478367,
  "lon": 11.5635754
},
{
  "type": "node",
  "id": 307734035,
  "lat": 48.1477445,
  "lon": 11.5639009
},
{
  "type": "node",
  "id": 520763270,
  "lat": 48.1476070,
  "lon": 11.5638134
},
{
  "type": "node",
  "id": 654580316,
  "lat": 48.1468447,
  "lon": 11.5660783
},
{
  "type": "node",
  "id": 1113634564,
  "lat": 48.1467452,
  "lon": 11.5636063
},
{
  "type": "node",
  "id": 1113634705,
  "lat": 48.1471180,
  "lon": 11.5638493
},
{
  "type": "node",
  "id": 1113634821,
  "lat": 48.1470902,
  "lon": 11.5638320
},
{
  "type": "node",
  "id": 1113635081,
  "lat": 48.1467759,
  "lon": 11.5636253
},
{
  "type": "node",
  "id": 1578496064,
  "lat": 48.1463588,
  "lon": 11.5659544
},
{
  "type": "node",
  "id": 1578496065,
  "lat": 48.1463793,
  "lon": 11.5658818
},
{
  "type": "node",
  "id": 1578496071,
  "lat": 48.1463923,
  "lon": 11.5658900
},
{
  "type": "node",
  "id": 1578496074,
  "lat": 48.1464620,
  "lon": 11.5655775
},
{
  "type": "node",
  "id": 1578496076,
  "lat": 48.1464778,
  "lon": 11.5655875
},
{
  "type": "node",
  "id": 1578496079,
  "lat": 48.1464837,
  "lon": 11.5655008
},
{
  "type": "node",
  "id": 1578496082,
  "lat": 48.1466637,
  "lon": 11.5661480
},
{
  "type": "node",
  "id": 1578496085,
  "lat": 48.1467914,
  "lon": 11.5656962
},
{
  "type": "node",
  "id": 2255262839,
  "lat": 48.1472481,
  "lon": 11.5637765
},
{
  "type": "node",
  "id": 2506446022,
  "lat": 48.1467843,
  "lon": 11.5635958
},
{
  "type": "node",
  "id": 3307987374,
  "lat": 48.1472117,
  "lon": 11.5639076
},
{
  "type": "node",
  "id": 3352357486,
  "lat": 48.1476978,
  "lon": 11.5638712
},
{
  "type": "node",
  "id": 4158575449,
  "lat": 48.1462507,
  "lon": 11.5656289
},
{
  "type": "node",
  "id": 4158575456,
  "lat": 48.1464344,
  "lon": 11.5657409
},
{
  "type": "node",
  "id": 4158575461,
  "lat": 48.1467264,
  "lon": 11.5659262
},
{
  "type": "node",
  "id": 4372463225,
  "lat": 48.1467858,
  "lon": 11.5635901
},
{
  "type": "node",
  "id": 4463382205,
  "lat": 48.1465581,
  "lon": 11.5634436
},
{
  "type": "node",
  "id": 4463382207,
  "lat": 48.1466449,
  "lon": 11.5631365
},
{
  "type": "node",
  "id": 4475992612,
  "lat": 48.1466613,
  "lon": 11.5631467
},
{
  "type": "node",
  "id": 29565898,
  "lat": 48.1483271,
  "lon": 11.5688875
},
{
  "type": "node",
  "id": 29565899,
  "lat": 48.1487683,
  "lon": 11.5691596
},
{
  "type": "node",
  "id": 29565901,
  "lat": 48.1487141,
  "lon": 11.5693571
},
{
  "type": "node",
  "id": 29565902,
  "lat": 48.1486118,
  "lon": 11.5692940
},
{
  "type": "node",
  "id": 29565903,
  "lat": 48.1482023,
  "lon": 11.5707856
},
{
  "type": "node",
  "id": 29565904,
  "lat": 48.1483003,
  "lon": 11.5708460
},
{
  "type": "node",
  "id": 29565905,
  "lat": 48.1482468,
  "lon": 11.5710408
},
{
  "type": "node",
  "id": 29565906,
  "lat": 48.1478059,
  "lon": 11.5707688
},
{
  "type": "node",
  "id": 29565907,
  "lat": 48.1478599,
  "lon": 11.5705721
},
{
  "type": "node",
  "id": 29565908,
  "lat": 48.1479636,
  "lon": 11.5706361
},
{
  "type": "node",
  "id": 29565909,
  "lat": 48.1483716,
  "lon": 11.5691499
},
{
  "type": "node",
  "id": 29565910,
  "lat": 48.1482719,
  "lon": 11.5690884
},
{
  "type": "node",
  "id": 82609544,
  "lat": 48.1476889,
  "lon": 11.5715094
},
{
  "type": "node",
  "id": 82609545,
  "lat": 48.1471855,
  "lon": 11.5732954
},
{
  "type": "node",
  "id": 82609546,
  "lat": 48.1466316,
  "lon": 11.5729448
},
{
  "type": "node",
  "id": 82609547,
  "lat": 48.1471350,
  "lon": 11.5711588
},
{
  "type": "node",
  "id": 83870471,
  "lat": 48.1498622,
  "lon": 11.5703285
},
{
  "type": "node",
  "id": 83870474,
  "lat": 48.1500009,
  "lon": 11.5699360
},
{
  "type": "node",
  "id": 83870476,
  "lat": 48.1502774,
  "lon": 11.5701116
},
{
  "type": "node",
  "id": 83870480,
  "lat": 48.1502351,
  "lon": 11.5702612
},
{
  "type": "node",
  "id": 83870484,
  "lat": 48.1502850,
  "lon": 11.5702929
},
{
  "type": "node",
  "id": 83870485,
  "lat": 48.1503084,
  "lon": 11.5702102
},
{
  "type": "node",
  "id": 83870487,
  "lat": 48.1504783,
  "lon": 11.5703180
},
{
  "type": "node",
  "id": 83870489,
  "lat": 48.1503566,
  "lon": 11.5707487
},
{
  "type": "node",
  "id": 83870491,
  "lat": 48.1504404,
  "lon": 11.5709170
},
{
  "type": "node",
  "id": 83870495,
  "lat": 48.1503813,
  "lon": 11.5711263
},
{
  "type": "node",
  "id": 83870505,
  "lat": 48.1502173,
  "lon": 11.5715604
},
{
  "type": "node",
  "id": 83870509,
  "lat": 48.1503462,
  "lon": 11.5711040
},
{
  "type": "node",
  "id": 83870512,
  "lat": 48.1499143,
  "lon": 11.5717284
},
{
  "type": "node",
  "id": 83870515,
  "lat": 48.1500003,
  "lon": 11.5714227
},
{
  "type": "node",
  "id": 83870518,
  "lat": 48.1499413,
  "lon": 11.5719233
},
{
  "type": "node",
  "id": 83870523,
  "lat": 48.1499838,
  "lon": 11.5717723
},
{
  "type": "node",
  "id": 83870524,
  "lat": 48.1498076,
  "lon": 11.5720117
},
{
  "type": "node",
  "id": 83870525,
  "lat": 48.1498489,
  "lon": 11.5718649
},
{
  "type": "node",
  "id": 83870526,
  "lat": 48.1495342,
  "lon": 11.5717381
},
{
  "type": "node",
  "id": 83870527,
  "lat": 48.1495109,
  "lon": 11.5718209
},
{
  "type": "node",
  "id": 83870530,
  "lat": 48.1495693,
  "lon": 11.5712364
},
{
  "type": "node",
  "id": 83870533,
  "lat": 48.1494010,
  "lon": 11.5716539
},
{
  "type": "node",
  "id": 83870537,
  "lat": 48.1495182,
  "lon": 11.5710495
},
{
  "type": "node",
  "id": 83870539,
  "lat": 48.1494813,
  "lon": 11.5711807
},
{
  "type": "node",
  "id": 83870540,
  "lat": 48.1497069,
  "lon": 11.5708732
},
{
  "type": "node",
  "id": 83870545,
  "lat": 48.1496362,
  "lon": 11.5711241
},
{
  "type": "node",
  "id": 83870549,
  "lat": 48.1495040,
  "lon": 11.5707444
},
{
  "type": "node",
  "id": 83870552,
  "lat": 48.1496747,
  "lon": 11.5702743
},
{
  "type": "node",
  "id": 307741886,
  "lat": 48.1474154,
  "lon": 11.5735887
},
{
  "type": "node",
  "id": 975224499,
  "lat": 48.1474404,
  "lon": 11.5723911
},
{
  "type": "node",
  "id": 1344352531,
  "lat": 48.1499850,
  "lon": 11.5714769
},
{
  "type": "node",
  "id": 1344352532,
  "lat": 48.1494250,
  "lon": 11.5715684
},
{
  "type": "node",
  "id": 1344352535,
  "lat": 48.1496759,
  "lon": 11.5719253
},
{
  "type": "node",
  "id": 1344352540,
  "lat": 48.1497370,
  "lon": 11.5719671
},
{
  "type": "node",
  "id": 1344352544,
  "lat": 48.1498857,
  "lon": 11.5703434
},
{
  "type": "node",
  "id": 1344352548,
  "lat": 48.1501974,
  "lon": 11.5702708
},
{
  "type": "node",
  "id": 1344352552,
  "lat": 48.1498467,
  "lon": 11.5703835
},
{
  "type": "node",
  "id": 1344352555,
  "lat": 48.1496679,
  "lon": 11.5710115
},
{
  "type": "node",
  "id": 1344352559,
  "lat": 48.1503674,
  "lon": 11.5708707
},
{
  "type": "node",
  "id": 1344352569,
  "lat": 48.1502294,
  "lon": 11.5702963
},
{
  "type": "node",
  "id": 1344352571,
  "lat": 48.1495316,
  "lon": 11.5713703
},
{
  "type": "node",
  "id": 1344352573,
  "lat": 48.1495206,
  "lon": 11.5714093
},
{
  "type": "node",
  "id": 1344352574,
  "lat": 48.1502121,
  "lon": 11.5703577
},
{
  "type": "node",
  "id": 1344352575,
  "lat": 48.1502028,
  "lon": 11.5705898
},
{
  "type": "node",
  "id": 1344352577,
  "lat": 48.1502768,
  "lon": 11.5703262
},
{
  "type": "node",
  "id": 1344352578,
  "lat": 48.1503950,
  "lon": 11.5707731
},
{
  "type": "node",
  "id": 1344352580,
  "lat": 48.1494682,
  "lon": 11.5715957
},
{
  "type": "node",
  "id": 1344352584,
  "lat": 48.1496609,
  "lon": 11.5719786
},
{
  "type": "node",
  "id": 1344352590,
  "lat": 48.1497228,
  "lon": 11.5720176
},
{
  "type": "node",
  "id": 1344352593,
  "lat": 48.1500082,
  "lon": 11.5704669
},
{
  "type": "node",
  "id": 1344352597,
  "lat": 48.1495489,
  "lon": 11.5705855
},
{
  "type": "node",
  "id": 1344352601,
  "lat": 48.1500835,
  "lon": 11.5701989
},
{
  "type": "node",
  "id": 1344352602,
  "lat": 48.1495810,
  "lon": 11.5706059
},
{
  "type": "node",
  "id": 1344352604,
  "lat": 48.1501789,
  "lon": 11.5703367
},
{
  "type": "node",
  "id": 1344355526,
  "lat": 48.1484044,
  "lon": 11.5700497
},
{
  "type": "node",
  "id": 1770319192,
  "lat": 48.1468189,
  "lon": 11.5722803
},
{
  "type": "node",
  "id": 2086439581,
  "lat": 48.1480265,
  "lon": 11.5709049
},
{
  "type": "node",
  "id": 2575829495,
  "lat": 48.1475528,
  "lon": 11.5719922
},
{
  "type": "node",
  "id": 2591713419,
  "lat": 48.1468927,
  "lon": 11.5731101
},
{
  "type": "node",
  "id": 2591713459,
  "lat": 48.1474006,
  "lon": 11.5736447
},
{
  "type": "node",
  "id": 4213892302,
  "lat": 48.1503824,
  "lon": 11.5708177
},
{
  "type": "node",
  "id": 5274052787,
  "lat": 48.1495374,
  "lon": 11.5712162
},
{
  "type": "node",
  "id": 6532448295,
  "lat": 48.1503771,
  "lon": 11.5711236
},
{
  "type": "node",
  "id": 6532448296,
  "lat": 48.1504364,
  "lon": 11.5709145
},
{
  "type": "node",
  "id": 307741884,
  "lat": 48.1480853,
  "lon": 11.5740169
},
{
  "type": "node",
  "id": 307741889,
  "lat": 48.1473532,
  "lon": 11.5738126
},
{
  "type": "node",
  "id": 307741891,
  "lat": 48.1480085,
  "lon": 11.5742422
},
{
  "type": "node",
  "id": 975224390,
  "lat": 48.1481487,
  "lon": 11.5743603
},
{
  "type": "node",
  "id": 975224674,
  "lat": 48.1482697,
  "lon": 11.5739369
},
{
  "type": "node",
  "id": 975224915,
  "lat": 48.1481218,
  "lon": 11.5738997
},
{
  "type": "node",
  "id": 1625216292,
  "lat": 48.1478540,
  "lon": 11.5738883
},
{
  "type": "node",
  "id": 1625216304,
  "lat": 48.1478482,
  "lon": 11.5738558
},
{
  "type": "node",
  "id": 2591713470,
  "lat": 48.1482012,
  "lon": 11.5741765
},
{
  "type": "node",
  "id": 3739469701,
  "lat": 48.1475223,
  "lon": 11.5746582
},
{
  "type": "node",
  "id": 3739469702,
  "lat": 48.1475530,
  "lon": 11.5745487
},
{
  "type": "node",
  "id": 3739469703,
  "lat": 48.1475636,
  "lon": 11.5746845
},
{
  "type": "node",
  "id": 3739469704,
  "lat": 48.1475945,
  "lon": 11.5745752
},
{
  "type": "node",
  "id": 36670970,
  "lat": 48.1766356,
  "lon": 11.5588352
},
{
  "type": "node",
  "id": 36670971,
  "lat": 48.1767338,
  "lon": 11.5589341
},
{
  "type": "node",
  "id": 36670973,
  "lat": 48.1765755,
  "lon": 11.5593882
},
{
  "type": "node",
  "id": 36670974,
  "lat": 48.1764394,
  "lon": 11.5592787
},
{
  "type": "node",
  "id": 36670975,
  "lat": 48.1764003,
  "lon": 11.5591452
},
{
  "type": "node",
  "id": 36670976,
  "lat": 48.1764433,
  "lon": 11.5589356
},
{
  "type": "node",
  "id": 158725862,
  "lat": 48.1767255,
  "lon": 11.5592973
},
{
  "type": "node",
  "id": 158725924,
  "lat": 48.1765338,
  "lon": 11.5588382
},
{
  "type": "node",
  "id": 813573873,
  "lat": 48.1770956,
  "lon": 11.5587886
},
{
  "type": "node",
  "id": 813573884,
  "lat": 48.1767243,
  "lon": 11.5593506
},
{
  "type": "node",
  "id": 813573902,
  "lat": 48.1767375,
  "lon": 11.5587703
},
{
  "type": "node",
  "id": 1038247013,
  "lat": 48.1764832,
  "lon": 11.5588744
},
{
  "type": "node",
  "id": 1038247022,
  "lat": 48.1766934,
  "lon": 11.5588744
},
{
  "type": "node",
  "id": 1038247047,
  "lat": 48.1766115,
  "lon": 11.5593867
},
{
  "type": "node",
  "id": 1038247050,
  "lat": 48.1764092,
  "lon": 11.5591915
},
{
  "type": "node",
  "id": 1038247063,
  "lat": 48.1766871,
  "lon": 11.5593465
},
{
  "type": "node",
  "id": 1038247072,
  "lat": 48.1765975,
  "lon": 11.5588264
},
{
  "type": "node",
  "id": 1038247085,
  "lat": 48.1765091,
  "lon": 11.5593625
},
{
  "type": "node",
  "id": 1038247093,
  "lat": 48.1764188,
  "lon": 11.5589911
},
{
  "type": "node",
  "id": 1596530213,
  "lat": 48.1764068,
  "lon": 11.5590306
},
{
  "type": "node",
  "id": 1596530217,
  "lat": 48.1764236,
  "lon": 11.5592422
},
{
  "type": "node",
  "id": 1596530219,
  "lat": 48.1764698,
  "lon": 11.5593256
},
{
  "type": "node",
  "id": 1596530221,
  "lat": 48.1765078,
  "lon": 11.5588533
},
{
  "type": "node",
  "id": 1596530228,
  "lat": 48.1765435,
  "lon": 11.5593807
},
{
  "type": "node",
  "id": 1596530232,
  "lat": 48.1765653,
  "lon": 11.5588282
},
{
  "type": "node",
  "id": 1596530241,
  "lat": 48.1766444,
  "lon": 11.5593759
},
{
  "type": "node",
  "id": 1596530244,
  "lat": 48.1766660,
  "lon": 11.5588513
},
{
  "type": "node",
  "id": 1596530403,
  "lat": 48.1770824,
  "lon": 11.5593689
},
{
  "type": "node",
  "id": 2896368704,
  "lat": 48.1764008,
  "lon": 11.5590634
},
{
  "type": "node",
  "id": 3015231385,
  "lat": 48.1767180,
  "lon": 11.5589055
},
{
  "type": "node",
  "id": 3051050956,
  "lat": 48.1770677,
  "lon": 11.5587872
},
{
  "type": "node",
  "id": 3065847741,
  "lat": 48.1763970,
  "lon": 11.5591008
},
{
  "type": "node",
  "id": 3855181426,
  "lat": 48.1770879,
  "lon": 11.5591288
},
{
  "type": "node",
  "id": 333025820,
  "lat": 48.1690996,
  "lon": 11.6264362
},
{
  "type": "node",
  "id": 333025823,
  "lat": 48.1690285,
  "lon": 11.6268137
},
{
  "type": "node",
  "id": 333025826,
  "lat": 48.1689280,
  "lon": 11.6267711
},
{
  "type": "node",
  "id": 333025829,
  "lat": 48.1689991,
  "lon": 11.6263936
},
{
  "type": "node",
  "id": 542503757,
  "lat": 48.1697737,
  "lon": 11.6278732
},
{
  "type": "node",
  "id": 542503762,
  "lat": 48.1698417,
  "lon": 11.6280336
},
{
  "type": "node",
  "id": 542503764,
  "lat": 48.1698668,
  "lon": 11.6279192
},
{
  "type": "node",
  "id": 2042164194,
  "lat": 48.1697482,
  "lon": 11.6279875
},
{
  "type": "node",
  "id": 1018864335,
  "lat": 48.2452071,
  "lon": 11.5560138
},
{
  "type": "node",
  "id": 1018864341,
  "lat": 48.2450419,
  "lon": 11.5560887
},
{
  "type": "node",
  "id": 1018864346,
  "lat": 48.2446592,
  "lon": 11.5547184
},
{
  "type": "node",
  "id": 1018864348,
  "lat": 48.2443675,
  "lon": 11.5552425
},
{
  "type": "node",
  "id": 1018864350,
  "lat": 48.2453706,
  "lon": 11.5562189
},
{
  "type": "node",
  "id": 1018864354,
  "lat": 48.2453336,
  "lon": 11.5555646
},
{
  "type": "node",
  "id": 1020253088,
  "lat": 48.2462474,
  "lon": 11.5574935
},
{
  "type": "node",
  "id": 1020253093,
  "lat": 48.2458055,
  "lon": 11.5561762
},
{
  "type": "node",
  "id": 1020253140,
  "lat": 48.2458048,
  "lon": 11.5577142
},
{
  "type": "node",
  "id": 1020253145,
  "lat": 48.2462567,
  "lon": 11.5576559
},
{
  "type": "node",
  "id": 1020253151,
  "lat": 48.2461260,
  "lon": 11.5575092
},
{
  "type": "node",
  "id": 1020253155,
  "lat": 48.2460763,
  "lon": 11.5566407
},
{
  "type": "node",
  "id": 1020253196,
  "lat": 48.2457192,
  "lon": 11.5562200
},
{
  "type": "node",
  "id": 1020253212,
  "lat": 48.2458339,
  "lon": 11.5566720
},
{
  "type": "node",
  "id": 1836875588,
  "lat": 48.2451499,
  "lon": 11.5558948
},
{
  "type": "node",
  "id": 1836875589,
  "lat": 48.2452226,
  "lon": 11.5559860
},
{
  "type": "node",
  "id": 1836875590,
  "lat": 48.2453198,
  "lon": 11.5555894
},
{
  "type": "node",
  "id": 1836875591,
  "lat": 48.2455202,
  "lon": 11.5559502
},
{
  "type": "node",
  "id": 1836875594,
  "lat": 48.2456885,
  "lon": 11.5561815
},
{
  "type": "node",
  "id": 1836875595,
  "lat": 48.2456951,
  "lon": 11.5561697
},
{
  "type": "node",
  "id": 1836875596,
  "lat": 48.2457309,
  "lon": 11.5561053
},
{
  "type": "node",
  "id": 1836875597,
  "lat": 48.2457385,
  "lon": 11.5560922
},
{
  "type": "node",
  "id": 2153561483,
  "lat": 48.2461762,
  "lon": 11.5571457
},
{
  "type": "node",
  "id": 2579927897,
  "lat": 48.2460930,
  "lon": 11.5569323
},
{
  "type": "node",
  "id": 2579927899,
  "lat": 48.2461179,
  "lon": 11.5573680
},
{
  "type": "node",
  "id": 2579927904,
  "lat": 48.2461392,
  "lon": 11.5569263
},
{
  "type": "node",
  "id": 2579927906,
  "lat": 48.2461469,
  "lon": 11.5570617
},
{
  "type": "node",
  "id": 2579927908,
  "lat": 48.2461569,
  "lon": 11.5572360
},
{
  "type": "node",
  "id": 2579927910,
  "lat": 48.2461642,
  "lon": 11.5573620
},
{
  "type": "node",
  "id": 2579927912,
  "lat": 48.2461672,
  "lon": 11.5570993
},
{
  "type": "node",
  "id": 2579927914,
  "lat": 48.2461726,
  "lon": 11.5571938
},
{
  "type": "node",
  "id": 5470733421,
  "lat": 48.2457031,
  "lon": 11.5563252
},
{
  "type": "node",
  "id": 5470733422,
  "lat": 48.2457080,
  "lon": 11.5564100
},
{
  "type": "node",
  "id": 5470733423,
  "lat": 48.2457299,
  "lon": 11.5564072
},
{
  "type": "node",
  "id": 5470733424,
  "lat": 48.2457251,
  "lon": 11.5563224
},
{
  "type": "node",
  "id": 5470733431,
  "lat": 48.2460857,
  "lon": 11.5568059
},
{
  "type": "node",
  "id": 5470733432,
  "lat": 48.2457552,
  "lon": 11.5568486
},
{
  "type": "node",
  "id": 5470733433,
  "lat": 48.2457457,
  "lon": 11.5566834
},
{
  "type": "node",
  "id": 5470733434,
  "lat": 48.2457955,
  "lon": 11.5575519
},
{
  "type": "node",
  "id": 5470733435,
  "lat": 48.2461619,
  "lon": 11.5572264
},
{
  "type": "node",
  "id": 5470733436,
  "lat": 48.2461662,
  "lon": 11.5572161
},
{
  "type": "node",
  "id": 5470733437,
  "lat": 48.2461698,
  "lon": 11.5572052
},
{
  "type": "node",
  "id": 5470733438,
  "lat": 48.2461747,
  "lon": 11.5571820
},
{
  "type": "node",
  "id": 5470733439,
  "lat": 48.2461760,
  "lon": 11.5571700
},
{
  "type": "node",
  "id": 5470733440,
  "lat": 48.2461765,
  "lon": 11.5571579
},
{
  "type": "node",
  "id": 5470733441,
  "lat": 48.2461751,
  "lon": 11.5571337
},
{
  "type": "node",
  "id": 5470733442,
  "lat": 48.2461732,
  "lon": 11.5571218
},
{
  "type": "node",
  "id": 5470733443,
  "lat": 48.2461706,
  "lon": 11.5571103
},
{
  "type": "node",
  "id": 5470733444,
  "lat": 48.2461631,
  "lon": 11.5570888
},
{
  "type": "node",
  "id": 5470733445,
  "lat": 48.2461583,
  "lon": 11.5570790
},
{
  "type": "node",
  "id": 5470733446,
  "lat": 48.2461529,
  "lon": 11.5570699
},
{
  "type": "node",
  "id": 1038356489,
  "lat": 47.9707047,
  "lon": 11.7795785
},
{
  "type": "node",
  "id": 1038356492,
  "lat": 47.9707049,
  "lon": 11.7794464
},
{
  "type": "node",
  "id": 1038356496,
  "lat": 47.9708490,
  "lon": 11.7794470
},
{
  "type": "node",
  "id": 1038356499,
  "lat": 47.9708488,
  "lon": 11.7795790
},
{
  "type": "node",
  "id": 3035125953,
  "lat": 48.1610924,
  "lon": 11.7480612
},
{
  "type": "node",
  "id": 3035125954,
  "lat": 48.1608132,
  "lon": 11.7473866
},
{
  "type": "node",
  "id": 3035125955,
  "lat": 48.1606452,
  "lon": 11.7474143
},
{
  "type": "node",
  "id": 3035125956,
  "lat": 48.1603333,
  "lon": 11.7476684
},
{
  "type": "node",
  "id": 3035125957,
  "lat": 48.1603931,
  "lon": 11.7477901
},
{
  "type": "node",
  "id": 3035125958,
  "lat": 48.1606025,
  "lon": 11.7478221
},
{
  "type": "node",
  "id": 3035125959,
  "lat": 48.1609727,
  "lon": 11.7482085
},
{
  "type": "node",
  "id": 3520029525,
  "lat": 48.1608242,
  "lon": 11.7480289
},
{
  "type": "node",
  "id": 1892176447,
  "lat": 48.1938305,
  "lon": 11.8640121
},
{
  "type": "node",
  "id": 1892176454,
  "lat": 48.1938986,
  "lon": 11.8642006
},
{
  "type": "node",
  "id": 1892176479,
  "lat": 48.1939726,
  "lon": 11.8638967
},
{
  "type": "node",
  "id": 1892176488,
  "lat": 48.1940406,
  "lon": 11.8640853
},
{
  "type": "node",
  "id": 660173664,
  "lat": 48.0887433,
  "lon": 11.9599146
},
{
  "type": "node",
  "id": 660173665,
  "lat": 48.0887298,
  "lon": 11.9599328
},
{
  "type": "node",
  "id": 660173666,
  "lat": 48.0886863,
  "lon": 11.9598202
},
{
  "type": "node",
  "id": 660173668,
  "lat": 48.0886749,
  "lon": 11.9599992
},
{
  "type": "node",
  "id": 660173669,
  "lat": 48.0886828,
  "lon": 11.9600446
},
{
  "type": "node",
  "id": 660173670,
  "lat": 48.0885432,
  "lon": 11.9600141
},
{
  "type": "node",
  "id": 660173671,
  "lat": 48.0885975,
  "lon": 11.9601040
},
{
  "type": "node",
  "id": 660173672,
  "lat": 48.0886935,
  "lon": 11.9600300
},
{
  "type": "node",
  "id": 660173673,
  "lat": 48.0887000,
  "lon": 11.9600730
},
{
  "type": "node",
  "id": 660173678,
  "lat": 48.0887112,
  "lon": 11.9600578
},
{
  "type": "node",
  "id": 660173679,
  "lat": 48.0887814,
  "lon": 11.9600182
},
{
  "type": "node",
  "id": 660173680,
  "lat": 48.0887297,
  "lon": 11.9600883
},
{
  "type": "node",
  "id": 3625277000,
  "lat": 48.0886917,
  "lon": 11.9600593
},
{
  "type": "node",
  "id": 1381656921,
  "lat": 48.2676653,
  "lon": 11.4687983
},
{
  "type": "node",
  "id": 1381656945,
  "lat": 48.2674250,
  "lon": 11.4676275
},
{
  "type": "node",
  "id": 1381656957,
  "lat": 48.2675143,
  "lon": 11.4676056
},
{
  "type": "node",
  "id": 1381684495,
  "lat": 48.2682470,
  "lon": 11.4674386
},
{
  "type": "node",
  "id": 1381684498,
  "lat": 48.2682701,
  "lon": 11.4676501
},
{
  "type": "node",
  "id": 1381684500,
  "lat": 48.2676421,
  "lon": 11.4675880
},
{
  "type": "node",
  "id": 1381684512,
  "lat": 48.2678194,
  "lon": 11.4677615
},
{
  "type": "node",
  "id": 1381684518,
  "lat": 48.2679303,
  "lon": 11.4687744
},
{
  "type": "node",
  "id": 1381684524,
  "lat": 48.2679745,
  "lon": 11.4687636
},
{
  "type": "node",
  "id": 1849548323,
  "lat": 48.2681924,
  "lon": 11.4674521
},
{
  "type": "node",
  "id": 1849548328,
  "lat": 48.2682050,
  "lon": 11.4676662
},
{
  "type": "node",
  "id": 1381656859,
  "lat": 48.2675778,
  "lon": 11.4690331
},
{
  "type": "node",
  "id": 1381656887,
  "lat": 48.2675552,
  "lon": 11.4688253
},
{
  "type": "node",
  "id": 1381656901,
  "lat": 48.2676879,
  "lon": 11.4690061
},
{
  "type": "node",
  "id": 1381656934,
  "lat": 48.2675373,
  "lon": 11.4688297
},
{
  "type": "node",
  "id": 1381656937,
  "lat": 48.2677081,
  "lon": 11.4702131
},
{
  "type": "node",
  "id": 1381656964,
  "lat": 48.2676671,
  "lon": 11.4690112
},
{
  "type": "node",
  "id": 1381656970,
  "lat": 48.2675598,
  "lon": 11.4690375
},
{
  "type": "node",
  "id": 1381656975,
  "lat": 48.2677953,
  "lon": 11.4701920
},
{
  "type": "node",
  "id": 1381656976,
  "lat": 48.2676445,
  "lon": 11.4688034
},
{
  "type": "node",
  "id": 1381684513,
  "lat": 48.2680579,
  "lon": 11.4699415
},
{
  "type": "node",
  "id": 1381684514,
  "lat": 48.2679274,
  "lon": 11.4701945
},
{
  "type": "node",
  "id": 1381684515,
  "lat": 48.2679899,
  "lon": 11.4689051
},
{
  "type": "node",
  "id": 1381684521,
  "lat": 48.2685180,
  "lon": 11.4698279
},
{
  "type": "node",
  "id": 1381684528,
  "lat": 48.2685415,
  "lon": 11.4700428
},
{
  "type": "node",
  "id": 1381684538,
  "lat": 48.2679457,
  "lon": 11.4689160
},
{
  "type": "node",
  "id": 1849548339,
  "lat": 48.2683061,
  "lon": 11.4698802
},
{
  "type": "node",
  "id": 1204630599,
  "lat": 48.2626847,
  "lon": 11.6673050
},
{
  "type": "node",
  "id": 1204630796,
  "lat": 48.2627470,
  "lon": 11.6674690
},
{
  "type": "node",
  "id": 1204631098,
  "lat": 48.2627706,
  "lon": 11.6673405
},
{
  "type": "node",
  "id": 1204632045,
  "lat": 48.2626611,
  "lon": 11.6674335
},
{
  "type": "node",
  "id": 2092245139,
  "lat": 48.2626757,
  "lon": 11.6673540
},
{
  "type": "node",
  "id": 2364381805,
  "lat": 48.3030746,
  "lon": 11.9241140
},
{
  "type": "node",
  "id": 2428055441,
  "lat": 48.3030301,
  "lon": 11.9232626
},
{
  "type": "node",
  "id": 2428055443,
  "lat": 48.3030315,
  "lon": 11.9229479
},
{
  "type": "node",
  "id": 2428055446,
  "lat": 48.3030586,
  "lon": 11.9227145
},
{
  "type": "node",
  "id": 2428055448,
  "lat": 48.3030657,
  "lon": 11.9235538
},
{
  "type": "node",
  "id": 2428055450,
  "lat": 48.3030985,
  "lon": 11.9225432
},
{
  "type": "node",
  "id": 2428055452,
  "lat": 48.3031440,
  "lon": 11.9223570
},
{
  "type": "node",
  "id": 2428055454,
  "lat": 48.3031720,
  "lon": 11.9246246
},
{
  "type": "node",
  "id": 2428055456,
  "lat": 48.3032002,
  "lon": 11.9222634
},
{
  "type": "node",
  "id": 2428055458,
  "lat": 48.3032679,
  "lon": 11.9222863
},
{
  "type": "node",
  "id": 2364381807,
  "lat": 48.3033500,
  "lon": 11.9249835
},
{
  "type": "node",
  "id": 2364381817,
  "lat": 48.3035802,
  "lon": 11.9257878
},
{
  "type": "node",
  "id": 2364381822,
  "lat": 48.3037228,
  "lon": 11.9259239
},
{
  "type": "node",
  "id": 2364381826,
  "lat": 48.3037405,
  "lon": 11.9263305
},
{
  "type": "node",
  "id": 2364381867,
  "lat": 48.3044009,
  "lon": 11.9262385
},
{
  "type": "node",
  "id": 2428055460,
  "lat": 48.3033406,
  "lon": 11.9223462
},
{
  "type": "node",
  "id": 2428055462,
  "lat": 48.3034027,
  "lon": 11.9252776
},
{
  "type": "node",
  "id": 2512506438,
  "lat": 48.3033648,
  "lon": 11.9225989
},
{
  "type": "node",
  "id": 2512506439,
  "lat": 48.3033648,
  "lon": 11.9231099
},
{
  "type": "node",
  "id": 2512506440,
  "lat": 48.3033783,
  "lon": 11.9235871
},
{
  "type": "node",
  "id": 2512506441,
  "lat": 48.3034104,
  "lon": 11.9240525
},
{
  "type": "node",
  "id": 2512507943,
  "lat": 48.3040772,
  "lon": 11.9239305
},
{
  "type": "node",
  "id": 2512507944,
  "lat": 48.3041918,
  "lon": 11.9257515
},
{
  "type": "node",
  "id": 2512507945,
  "lat": 48.3041970,
  "lon": 11.9254375
},
{
  "type": "node",
  "id": 2512507946,
  "lat": 48.3042091,
  "lon": 11.9251418
},
{
  "type": "node",
  "id": 2512507947,
  "lat": 48.3042198,
  "lon": 11.9244868
},
{
  "type": "node",
  "id": 2512507950,
  "lat": 48.3043842,
  "lon": 11.9257357
},
{
  "type": "node",
  "id": 2512507951,
  "lat": 48.3044104,
  "lon": 11.9257751
},
{
  "type": "node",
  "id": 2512507952,
  "lat": 48.3044126,
  "lon": 11.9261116
},
{
  "type": "node",
  "id": 2513370670,
  "lat": 48.3042301,
  "lon": 11.9242992
},
{
  "type": "node",
  "id": 2812582565,
  "lat": 48.3041678,
  "lon": 11.9239734
},
{
  "type": "node",
  "id": 2812582566,
  "lat": 48.3042284,
  "lon": 11.9240573
},
{
  "type": "node",
  "id": 2812582567,
  "lat": 48.3042295,
  "lon": 11.9242138
},
{
  "type": "node",
  "id": 3083228738,
  "lat": 48.3034822,
  "lon": 11.9255061
},
{
  "type": "way",
  "id": 103546257,
  "nodes": [
    1605123308,
    1605123303,
    1605123302,
    1605123299,
    1605123296,
    1605123293,
    1605123291,
    1605123284,
    1605123268,
    1605123250,
    1605123242,
    1195521600,
    1195521589,
    1195521568,
    1195521485,
    1605123348,
    1605123358,
    1195521517,
    1195521492,
    1195521425,
    1605123400,
    1195521566,
    1195521534,
    1195521601,
    1195521441,
    1605123346,
    1195521524,
    1605123332,
    1195521468,
    1195521395,
    1605123298,
    1195521486,
    1605123289,
    1195521503,
    1195521556,
    1195521458,
    1195521412,
    1195521483,
    1605123271,
    1195521585,
    1605123287,
    1195521422,
    1195521439,
    1195521407,
    1195521469,
    1195521444,
    1195521424,
    1195521398,
    1195521456,
    1195521573,
    1605123308
  ]
},
{
  "type": "way",
  "id": 147284089,
  "nodes": [
    1195521438,
    1605123238,
    1605123248,
    1605123251,
    1605123265,
    1605123274,
    1605123279,
    1195521548,
    1195521515,
    1605123281,
    1605123277,
    1195521488,
    1195521519,
    1195521494,
    1195521470,
    1605123233,
    1195521452,
    1195521388,
    1605123223,
    1195521597,
    1195521583,
    1605123220,
    1195521553,
    1195521504,
    1195521481,
    1605123226,
    1195521457,
    1605123231,
    1195521438
  ]
},
{
  "type": "way",
  "id": 10496578,
  "nodes": [
    90237475,
    90237477,
    90237480,
    2610157339,
    1414671395,
    90237482,
    90237485,
    90237487,
    90237489,
    90237491,
    2610157343,
    1414671397,
    2610157344,
    778692652,
    325847364,
    90237475
  ]
},
{
  "type": "way",
  "id": 10496580,
  "nodes": [
    90237497,
    90237499,
    325847373,
    778692655,
    90237500,
    1011606064,
    2610157345,
    90237501,
    90237497
  ]
},
{
  "type": "way",
  "id": 86957943,
  "nodes": [
    266578754,
    1011606064,
    2610157345,
    90237501,
    1011606065,
    266578755,
    2610157341,
    2610157331,
    2610157329,
    2610157327,
    2610157334,
    266578754
  ]
},
{
  "type": "way",
  "id": 24513432,
  "nodes": [
    266578752,
    2610157315,
    2610157323,
    2610157322,
    2610157329,
    2610157331,
    2610157341,
    266578755,
    1743503728,
    1743503714,
    266578752
  ]
},
{
  "type": "way",
  "id": 162463944,
  "nodes": [
    266578752,
    266578751,
    2610157312,
    2610157311,
    266578750,
    1743503714,
    266578752
  ]
},
{
  "type": "way",
  "id": 162463948,
  "nodes": [
    1011606065,
    266578755,
    1743503728,
    266578749,
    1011606065
  ]
},
{
  "type": "way",
  "id": 250665943,
  "nodes": [
    266578751,
    2570701435,
    2570701431,
    266578753,
    2610157317,
    2610157320,
    2610157322,
    2610157323,
    2610157315,
    266578752,
    266578751
  ]
},
{
  "type": "way",
  "id": 255322147,
  "nodes": [
    2454629524,
    2610157325,
    2610157326,
    2610157328,
    2610157332,
    2610157336,
    2610157338,
    2610157340,
    266578754,
    2610157334,
    2610157327,
    2610157329,
    2610157322,
    2610157320,
    2610157317,
    266578753,
    2610157313,
    2610157314,
    2610157316,
    2610157318,
    2610157319,
    2610157321,
    2610157324,
    2454629524
  ]
},
{
  "type": "way",
  "id": 28364408,
  "nodes": [
    60070984,
    60070985,
    60070986,
    60070983,
    60070984
  ]
},
{
  "type": "way",
  "id": 28364409,
  "nodes": [
    60070988,
    60070987,
    60070990,
    60070989,
    60070988
  ]
},
{
  "type": "way",
  "id": 156389492,
  "nodes": [
    1686410102,
    3640405070,
    1686410154,
    1769716567,
    1686410099,
    1686410139,
    1686410147,
    1686410098,
    1686410144,
    1686410104,
    1686410103,
    1686410095,
    1686410106,
    1686410101,
    3446096418,
    1686410137,
    1686410151,
    1288172718,
    1288172730,
    1686410102
  ]
},
{
  "type": "way",
  "id": 208141432,
  "nodes": [
    2184629269,
    2184629292
  ]
},
{
  "type": "way",
  "id": 208141434,
  "nodes": [
    2184629280,
    60070972,
    1121919987,
    1121919991,
    60070971,
    60070970,
    60070969,
    60070968,
    60070967,
    1121920041,
    1121920028,
    1121920038,
    1121920022,
    1121920031,
    2184629284,
    1288172735,
    1288172719,
    1121919998,
    60070992,
    678592487,
    678592483,
    678592482,
    60070991,
    60070982,
    60070981,
    1288172733,
    596195438,
    263704652,
    2184629280
  ]
},
{
  "type": "way",
  "id": 496781347,
  "nodes": [
    2184629271,
    4884522162,
    4884522161,
    4884522160,
    4884522159,
    4884522158,
    4884522157,
    4884522156,
    4884522155,
    4884522154,
    4884522153,
    2184629274
  ]
},
{
  "type": "way",
  "id": 496781348,
  "nodes": [
    2184629263,
    4884522164,
    4884522163,
    2184629276
  ]
},
{
  "type": "way",
  "id": 496781350,
  "nodes": [
    2184629278,
    2184629273
  ]
},
{
  "type": "way",
  "id": 496781351,
  "nodes": [
    2184629267,
    2184629292
  ]
},
{
  "type": "way",
  "id": 496781352,
  "nodes": [
    2184629267,
    2184629266
  ]
},
{
  "type": "way",
  "id": 496781353,
  "nodes": [
    2184629263,
    2184629273
  ]
},
{
  "type": "way",
  "id": 496781355,
  "nodes": [
    2184629266,
    2184629276
  ]
},
{
  "type": "way",
  "id": 496781357,
  "nodes": [
    2184629278,
    2184629271
  ]
},
{
  "type": "way",
  "id": 496781358,
  "nodes": [
    2184629274,
    2184629269
  ]
},
{
  "type": "way",
  "id": 30964777,
  "nodes": [
    344326736,
    344326747,
    4031348591,
    344326745,
    344326743,
    344326741,
    344326739,
    4031348594,
    344326736
  ]
},
{
  "type": "way",
  "id": 176583561,
  "nodes": [
    1692358786,
    358489965,
    1970538087,
    1870701371,
    3927143760,
    4031348596,
    1692358793,
    1692358792,
    3944674388,
    1692358791,
    2487367768,
    2487367770,
    2487367745,
    2487367744,
    1692358776,
    358494062,
    358492398,
    3902869981,
    3902869980,
    3902869979,
    3902869976,
    3902869974,
    3902869973,
    3902869975,
    1692358770,
    358489967,
    1692358785,
    1692358788,
    3902869987,
    3902869988,
    3902869984,
    1692358780,
    1692358787,
    3902869985,
    3902869991,
    3902869990,
    3902869992,
    3902869993,
    3902869994,
    3902869995,
    1692358786
  ]
},
{
  "type": "way",
  "id": 180313806,
  "nodes": [
    1907449190,
    3242345048,
    1907449196,
    1907449194,
    1907449190
  ]
},
{
  "type": "way",
  "id": 317902067,
  "nodes": [
    1907449187,
    1907449191,
    1907449188,
    2069834818,
    1907449187
  ]
},
{
  "type": "way",
  "id": 317902068,
  "nodes": [
    3242345046,
    1907449192,
    4372462288,
    1907449195,
    1907449197,
    1644932680,
    1907449199,
    1907449198,
    4372462285,
    1907449200,
    3242345047,
    3242345046
  ]
},
{
  "type": "way",
  "id": 27991569,
  "nodes": [
    307374036,
    2836252034,
    307374037,
    2836252035,
    307374038,
    307374039,
    1407756691,
    307374040,
    307374041,
    307374042,
    307374044,
    307374045,
    307374046,
    307374047,
    307374048,
    307374049,
    307374050,
    307374051,
    307374052,
    307374053,
    307374054,
    307374055,
    307374036
  ]
},
{
  "type": "way",
  "id": 312592845,
  "nodes": [
    3184609074,
    3184609075,
    3184609076,
    3184609077,
    3184609074
  ]
},
{
  "type": "way",
  "id": 25567731,
  "nodes": [
    255364046,
    255364047,
    255364039,
    223893047,
    243358940,
    223893058,
    223893064,
    654580316,
    223893051,
    255364040,
    255364041,
    223893036,
    255364044,
    4158575449,
    255364045,
    255364046
  ]
},
{
  "type": "way",
  "id": 144291504,
  "nodes": [
    1578496085,
    1578496079,
    1578496074,
    1578496076,
    4158575456,
    1578496071,
    1578496065,
    1578496064,
    1578496082,
    4158575461,
    1578496085
  ]
},
{
  "type": "way",
  "id": 10161075,
  "nodes": [
    6532448296,
    83870491,
    83870495,
    6532448295
  ]
},
{
  "type": "way",
  "id": 119747961,
  "nodes": [
    1344352601,
    1344352593,
    1344352575,
    1344352577,
    1344352569,
    1344352574,
    1344352604,
    1344352548,
    1344352601
  ]
},
{
  "type": "way",
  "id": 695667208,
  "nodes": [
    83870540,
    83870549,
    1344352597,
    1344352602,
    83870552,
    1344352552,
    83870471,
    1344352544,
    83870474,
    83870476,
    83870480,
    83870484,
    83870485,
    83870487,
    83870489,
    1344352578,
    4213892302,
    1344352559,
    6532448296
  ]
},
{
  "type": "way",
  "id": 695667209,
  "nodes": [
    6532448295,
    83870509,
    83870505,
    83870515,
    1344352531,
    83870512,
    83870523,
    83870518,
    83870525,
    83870524,
    1344352540,
    1344352590,
    1344352584,
    1344352535,
    83870527,
    83870526,
    83870533,
    1344352532,
    1344352580,
    1344352573,
    1344352571,
    83870530,
    5274052787,
    83870539,
    83870537,
    83870545,
    1344352555,
    83870540
  ]
}

  ]
}
