{
  "version": 0.6,
  "generator": "Overpass API 0.7.55.1011 6c2efc30",
  "osm3s": {
    "timestamp_osm_base": "2020-02-14T09:27:02Z",
    "copyright": "The data included in this document is from www.openstreetmap.org. The data is made available under ODbL."
  },
  "elements": [

{
  "type": "node",
  "id": 33787322,
  "lat": 54.9688866,
  "lon": -1.6246039,
  "tags": {
    "description": "Historical records such as census, burials",
    "name": "Tyne & Wear Archives",
    "tourism": "museum"
  }
},
{
  "type": "node",
  "id": 305986439,
  "lat": 54.9987213,
  "lon": -1.4316546,
  "tags": {
    "addr:city": "South Shields",
    "addr:postcode": "NE33 2JA",
    "addr:street": "Ocean Road",
    "name": "South Shields Museum & Art Gallery",
    "tourism": "museum",
    "website": "https://southshieldsmuseum.org.uk/",
    "wheelchair": "limited",
    "wikidata": "Q26525853"
  }
},
{
  "type": "node",
  "id": 539365439,
  "lat": 54.9581141,
  "lon": -1.8844719,
  "tags": {
    "addr:city": "Mickley, Stocksfield, Northumberland",
    "addr:housename": "Cherryburn",
    "addr:postcode": "NE43 7DD",
    "addr:street": "Station Bank",
    "name": "Cherryburn - Thomas Bewick Museum",
    "note": "Cottage and farmhouse, the birthplace of Thomas Bewick. Thomas Bewick is perhaps Northumberlandâ€™s greatest artist: a wood engraver and naturalist who revolutionised print art in Georgian England.",
    "operator": "National Trust",
    "phone": "+44 1661 843276",
    "tourism": "museum",
    "website": "https://www.nationaltrust.org.uk/cherryburn",
    "wikidata": "Q5092532"
  }
},
{
  "type": "node",
  "id": 740610200,
  "lat": 54.9768990,
  "lon": -1.8177948,
  "tags": {
    "addr:city": "Wylam",
    "addr:postcode": "NE41 8EF",
    "addr:street": "Falcon Terrace",
    "museum": "railway",
    "name": "Railway Museum",
    "tourism": "museum"
  }
},
{
  "type": "node",
  "id": 986231767,
  "lat": 54.9285200,
  "lon": -1.3896320,
  "tags": {
    "name": "Fulwell Windmill visitor centre",
    "tourism": "museum"
  }
},
{
  "type": "node",
  "id": 4300571650,
  "lat": 54.9233648,
  "lon": -1.5571281,
  "tags": {
    "addr:city": "Springwell",
    "addr:postcode": "NE9 7QJ",
    "addr:street": "Springwell Road",
    "name": "Bowes Railway",
    "tourism": "museum",
    "website": "http://bowesrailway.uk/"
  }
},
{
  "type": "node",
  "id": 4500732920,
  "lat": 54.9749231,
  "lon": -1.5923994,
  "tags": {
    "addr:city": "Newcastle Upon Tyne",
    "addr:housenumber": "55",
    "addr:postcode": "NE1 2PQ",
    "addr:street": "Lime Street",
    "name": "Victoria Tunnel Tours",
    "phone": "+44 191 261 6596",
    "tourism": "museum",
    "website": "https://www.ouseburntrust.org.uk/visit-vt"
  }
},
{
  "type": "node",
  "id": 4526508957,
  "lat": 55.0095989,
  "lon": -1.4338154,
  "tags": {
    "addr:city": "North Shields",
    "addr:postcode": "NE30 1JA",
    "addr:street": "Fish Quay",
    "name": "Old Lowlight Heritage Centre",
    "phone": "+44 191 257 4506",
    "tourism": "museum",
    "website": "www.oldlowlight.co.uk"
  }
},
{
  "type": "node",
  "id": 5113891922,
  "lat": 54.9694305,
  "lon": -1.6143322,
  "tags": {
    "alt_name": "North of England Institute of Mining and Mechanical Engineers",
    "name": "Mining Institute",
    "source": "survey",
    "tourism": "museum",
    "wikidata": "Q7057517",
    "wikipedia": "en:North of England Institute of Mining and Mechanical Engineers"
  }
},
{
  "type": "node",
  "id": 6360604066,
  "lat": 54.9027696,
  "lon": -1.5164897,
  "tags": {
    "name": "Washington Old Hall",
    "tourism": "museum"
  }
},
{
  "type": "node",
  "id": 6581652870,
  "lat": 55.0041192,
  "lon": -1.4319694,
  "tags": {
    "name": "Arbeia Roman Fort Museum",
    "tourism": "museum"
  }
},
{
  "type": "node",
  "id": 6657906193,
  "lat": 54.9844876,
  "lon": -1.4745011,
  "tags": {
    "name": "Anglo-Saxon Farm and Village",
    "tourism": "museum"
  }
},
{
  "type": "node",
  "id": 6689661473,
  "lat": 54.7733807,
  "lon": -1.5772355,
  "tags": {
    "name": "Open Treasure",
    "operator": "Durham Cathedral",
    "tourism": "museum",
    "website": "https://www.durhamcathedral.co.uk/visit-us/open-treasure"
  }
},
{
  "type": "way",
  "id": 30977185,
  "nodes": [
    344453124,
    2594015394,
    2594015396,
    2594015406,
    6267546422,
    2594015409,
    2594015399,
    2594015404,
    2594015382,
    2594015386,
    344453125,
    2594015371,
    745795187,
    2594015368,
    2594015359,
    2594015351,
    745795351,
    2594015320,
    745795188,
    2594015301,
    745795355,
    2594015286,
    2594015282,
    2594015280,
    745795356,
    2594015285,
    2594015289,
    2594015296,
    344453126,
    6267546421,
    2594015299,
    344453127,
    2594015302,
    745795189,
    2594015311,
    2594015314,
    2594015323,
    2594015341,
    2594015345,
    2594015349,
    2594015353,
    2594015357,
    2594015361,
    2594015364,
    2594015362,
    745795190,
    745795191,
    344453124
  ],
  "tags": {
    "addr:city": "Sunderland",
    "addr:postcode": "SR1 1PP",
    "addr:street": "Burdon Road",
    "building": "yes",
    "name": "Sunderland Museum and Winter Gardens",
    "opening_hours": "Mo-Sa 10:00-17:00; Su 14:00-17:00",
    "operator": "Sunderland City Council",
    "phone": "+44 191 553 2323",
    "tourism": "museum",
    "website": "http://www.sunderland.gov.uk/index.aspx?articleid=8208",
    "wikidata": "Q7639734",
    "wikipedia": "en:Sunderland Museum and Winter Gardens"
  }
},
{
  "type": "way",
  "id": 32495798,
  "nodes": [
    365355292,
    365355307,
    365355308,
    365355309,
    365355310,
    1829193698,
    365355311,
    1829193699,
    365355320,
    365355324,
    365355330,
    365355334,
    365355292
  ],
  "tags": {
    "building": "university",
    "name": "Oriental Museum",
    "tourism": "museum",
    "wikidata": "Q5316587"
  }
},
{
  "type": "way",
  "id": 60200995,
  "nodes": [
    747737908,
    747737909,
    747737910,
    747737911,
    747737912,
    747737913,
    747737907,
    747737906,
    5353205878,
    747737914,
    747737915,
    747737908
  ],
  "tags": {
    "addr:city": "Newcastle upon Tyne",
    "addr:postcode": "NE1 4EP",
    "addr:street": "Times Square",
    "building": "yes",
    "name": "Centre for Life",
    "phone": "+44 191 243 8210",
    "source": "OS OpenData StreetView",
    "toilets:wheelchair": "yes",
    "tourism": "museum",
    "website": "https://www.life.org.uk/",
    "wheelchair": "yes",
    "wikidata": "Q5062504",
    "wikipedia": "en:Centre for Life"
  }
},
{
  "type": "way",
  "id": 62084004,
  "nodes": [
    773940988,
    773940997,
    773940955,
    5641807082,
    773940985,
    773941014,
    773940975,
    1237293654,
    1237293608,
    1237293636,
    1237293610,
    773941006,
    773940962,
    773940992,
    1237293597,
    1237293603,
    5641807058,
    1237293645,
    1237293604,
    773941009,
    5641807077,
    773940978,
    773940949,
    1237293619,
    1237293578,
    1237293572,
    1237293637,
    773940988
  ],
  "tags": {
    "addr:city": "Newcastle upon Tyne",
    "addr:housename": "The Hancock Museum",
    "addr:postcode": "NE2 4PT",
    "addr:street": "Barras Bridge",
    "building": "yes",
    "loc_name": "Hancock Museum",
    "name": "Great North Museum: Hancock",
    "opening_hours": "Mo-Fr 10:00-17:00; Sa 10:00-16:00; Su 11:00-16:00",
    "operator": "Tyne & Wear Archives & Museum",
    "phone": "+44 191 222 6765",
    "source": "OS_OpenData_StreetView",
    "tourism": "museum",
    "website": "https://www.twmuseums.org.uk/great-north-museum.html",
    "wheelchair": "yes",
    "wikidata": "Q5647057"
  }
},
{
  "type": "way",
  "id": 62215999,
  "nodes": [
    776035796,
    3372008623,
    3372008624,
    776035797,
    6499837030,
    776035798,
    776035799,
    776035796
  ],
  "tags": {
    "building": "yes",
    "name": "Ryhope Pumping Station",
    "source": "OS Open data",
    "tourism": "museum",
    "wikidata": "Q17547102"
  }
},
{
  "type": "way",
  "id": 76830500,
  "nodes": [
    905013514,
    905013515,
    905013516,
    905013517,
    4776742681,
    4776742680,
    905013514
  ],
  "tags": {
    "building": "yes",
    "name": "Motor Museum",
    "tourism": "museum"
  }
},
{
  "type": "way",
  "id": 80393715,
  "nodes": [
    938137047,
    938136950,
    3417346700,
    3417346699,
    151020617,
    151020618,
    3417346698,
    938137047
  ],
  "tags": {
    "HE_ref": "1121424",
    "addr:city": "Durham",
    "addr:housenumber": "1",
    "addr:street": "North Bailey",
    "building": "tourism",
    "listed_status": "Grade I",
    "name": "Heritage Museum",
    "old_name": "St Mary-le-Bow Church",
    "tourism": "museum",
    "wikidata": "Q5316517",
    "wikipedia": "en:Durham Museum and Heritage Centre"
  }
},
{
  "type": "way",
  "id": 93884394,
  "nodes": [
    1091383341,
    1091382790,
    1091383431,
    1091382674,
    1091383524,
    1091383926,
    1091383607,
    1091383963,
    1091383694,
    4475260715,
    4203251205,
    1091383107,
    1091384069,
    1091382742,
    1091382938,
    1091382886,
    1091383341
  ],
  "tags": {
    "addr:city": "North Shields",
    "addr:housename": "Stephenson Railway Museum",
    "addr:postcode": "NE29 8DX",
    "addr:street": "Middle Engine Lane",
    "building": "yes",
    "name": "Stephenson Railway Museum",
    "operator": "Stephens Railway Volunteers",
    "phone": "+44 191 200 7146",
    "source": "Bing",
    "tourism": "museum",
    "url": "https://stephensonrailwaymuseum.org.uk/"
  }
},
{
  "type": "way",
  "id": 127008269,
  "nodes": [
    1406545626,
    1406545619,
    1406545604,
    1406545607,
    1406545612,
    1406545613,
    1406545626
  ],
  "tags": {
    "addr:city": "Morpeth",
    "addr:province": "Northumberland",
    "building": "museum",
    "name": "Morpeth Chantry Bagpipe Museum",
    "postal_code": "NE61 1PD",
    "source": "Bing",
    "tourism": "museum",
    "wikidata": "Q6913335"
  }
},
{
  "type": "way",
  "id": 175427748,
  "nodes": [
    1860170284,
    1860170509,
    1860170510,
    1860170524,
    1860170289,
    1860170520,
    1860170276,
    1860169811,
    1860169950,
    1860169766,
    1860170163,
    1860170284
  ],
  "tags": {
    "name": "North East Aircraft Museum",
    "tourism": "museum",
    "wikidata": "Q7055178",
    "wikipedia": "en:North East Aircraft Museum"
  }
},
{
  "type": "way",
  "id": 183820365,
  "nodes": [
    1942409861,
    1942409863,
    1942409867,
    7058765202,
    7058765201,
    7061722611,
    7058765203,
    1942409861
  ],
  "tags": {
    "building": "yes",
    "name": "East Durham Heritage and Lifeboat Centre",
    "source": "local knowledge",
    "tourism": "museum"
  }
},
{
  "type": "way",
  "id": 184418753,
  "nodes": [
    1948947957,
    1948947912,
    1948947984,
    1948947968,
    1948947910,
    1948947982,
    1948947907,
    1948947951,
    1948947957
  ],
  "tags": {
    "addr:city": "Newcastle Upon Tyne",
    "addr:housename": "Discovery Museum",
    "addr:postcode": "NE1 4JA",
    "addr:street": "Blandford Square",
    "building": "yes",
    "name": "Discovery Museum",
    "opening_hours": "Mo-Fr 10:00-16:00; Sa, Su 11:00-16:00",
    "operator": "TW Museums",
    "phone": "+44 191 2326789",
    "source": "Bing",
    "tourism": "museum",
    "website": "https://discoverymuseum.org.uk/",
    "wheelchair": "yes",
    "wikidata": "Q4045311",
    "wikipedia": "en:Discovery Museum"
  }
},
{
  "type": "way",
  "id": 210057112,
  "nodes": [
    2201909721,
    2201909750,
    2201909753,
    2201909763,
    2201909771,
    2201909766,
    2201909775,
    2201909779,
    2201909782,
    2201909778,
    2201909780,
    2201909772,
    2201909773,
    2201909777,
    2201909770,
    2201909765,
    2201909759,
    2201909760,
    2201909754,
    2201909752,
    2201909747,
    2201909748,
    2201909732,
    2201909733,
    2201909725,
    2201909720,
    2201909698,
    2201909711,
    2201909695,
    2201909709,
    2201909696,
    2201909713,
    2201909699,
    2201909715,
    2201909703,
    2201909716,
    2201909710,
    2201909718,
    2201909719,
    2201909721
  ],
  "tags": {
    "alt_name": "The Cutter",
    "building": "yes",
    "name": "Northumberland Museum and Archives",
    "postal_code": "NE63 9YF",
    "source": "Bing",
    "tourism": "museum",
    "website": "http://www.experiencewoodhorn.com/",
    "wikidata": "Q8032740"
  }
},
{
  "type": "way",
  "id": 210833037,
  "nodes": [
    2208709194,
    2208709188,
    2208709190,
    2208709192,
    2208709200,
    2208709202,
    2208709196,
    2208709201,
    2208709194
  ],
  "tags": {
    "building": "yes",
    "name": "Bowes Railway",
    "tourism": "museum"
  }
},
{
  "type": "way",
  "id": 227123939,
  "nodes": [
    2358548375,
    2358548379,
    2358548395,
    2358548393,
    6504507631,
    6504507622,
    2358548368,
    2358548372,
    2358548371,
    2358548375
  ],
  "tags": {
    "addr:city": "Newbiggin by the Sea",
    "addr:country": "GB",
    "addr:postcode": "NE64 6DB",
    "addr:street": "Church Point",
    "building": "yes",
    "email": "enquiry@newbigginmaritimecentre.org",
    "name": "Newbiggin Maritime Centre",
    "phone": "+44 1670 811951",
    "tourism": "museum",
    "website": "http://www.newbigginmaritimecentre.org/"
  }
},
{
  "type": "way",
  "id": 236136498,
  "nodes": [
    2441950034,
    2441950016,
    2441950017,
    2441950015,
    2441950018,
    2441950023,
    2441950027,
    2441950024,
    2441950025,
    2441950028,
    2441950032,
    2441950036,
    2441950038,
    2441950035,
    2441950031,
    2441950029,
    2441950050,
    2441950042,
    2441950039,
    2441950034
  ],
  "tags": {
    "addr:postcode": "SR6 7NH",
    "building": "yes",
    "name": "Souter Lighthouse",
    "operator": "national trust",
    "source:postcode": "CodePoint Open",
    "tourism": "museum",
    "wikidata": "Q7565258",
    "wikipedia": "en:Souter Lighthouse"
  }
},
{
  "type": "way",
  "id": 291227659,
  "nodes": [
    2946423945,
    2946423765,
    2946423750,
    2946423962,
    2946423945
  ],
  "tags": {
    "building": "yes",
    "source": "Bing",
    "tourism": "museum"
  }
},
{
  "type": "way",
  "id": 330246489,
  "nodes": [
    3372008626,
    3372008627,
    3372008628,
    6499837016,
    3372008629,
    3372008630,
    3372008631,
    348147077,
    3372008626
  ],
  "tags": {
    "HE_ref": "1005916",
    "addr:city": "Ryhope",
    "addr:housename": "Ryhope Pumping Station",
    "addr:postcode": "SR2 0ND",
    "addr:street": "Waterworks Road",
    "area": "yes",
    "designation": "scheduled_monument",
    "name": "Ryhope Engines Museum",
    "note": "Designation applies to part of site",
    "tourism": "museum",
    "website": "http://www.ryhopeengines.org.uk/",
    "wikidata": "Q7385072"
  }
},
{
  "type": "way",
  "id": 334670455,
  "nodes": [
    3417312508,
    3417312509,
    3417312510,
    3417312511,
    3417312508
  ],
  "tags": {
    "addr:city": "Hexham",
    "addr:postcode": "NE46 1XD",
    "addr:street": "Hallgate",
    "building": "yes",
    "historic": "building",
    "name": "Hexham Old Gaol",
    "phone": "+44 1434 652364",
    "tourism": "museum",
    "website": "https://www.visitnorthumberland.com/site/attractions/museums-and-galleries/hexham-old-gaol;www.hexhamoldgaol.org.uk",
    "wikidata": "Q5749007",
    "wikipedia": "en:Hexham Old Gaol"
  }
},
{
  "type": "way",
  "id": 338800611,
  "nodes": [
    3459375805,
    3459375804,
    371622422,
    1257377602,
    1257377746,
    1257377760,
    1257378004,
    1257377431,
    1257377662,
    1257377376,
    1257377975,
    317066082,
    5084391197,
    317066081,
    1257377915,
    1257377459,
    1257377611,
    1257377527,
    1268519812,
    1268519639,
    1268519797,
    1268519601,
    1268519761,
    1268519564,
    1268519722,
    1268519879,
    1268519685,
    1268519845,
    3459375823,
    3459375825,
    3459375826,
    3459375849,
    3459375858,
    3459375859,
    3459375864,
    3459375868,
    1270139950,
    1270139968,
    3459375879,
    3459375890,
    3459375889,
    3459375887,
    3459375892,
    3459375897,
    3459375904,
    3459375924,
    3459375926,
    2588694417,
    3459375931,
    3459375940,
    3459375942,
    3459375948,
    3459375950,
    3459375952,
    3459375957,
    3459375960,
    3459375961,
    3459375963,
    3459375962,
    3459375959,
    3459375958,
    3459375954,
    3459375951,
    3459375945,
    1268519673,
    1268519552,
    3459375938,
    3459375937,
    3387873640,
    3459375941,
    3459375925,
    3459375923,
    3459375922,
    3459375920,
    3459375919,
    3459375915,
    3459375914,
    3459375909,
    3459375911,
    3459375907,
    3459375906,
    1270140178,
    1270140105,
    1270140202,
    3459375494,
    3459375493,
    1270140175,
    3459375899,
    3459375898,
    3459375896,
    3459375894,
    3459375891,
    3459375877,
    3459375875,
    3459375873,
    3459375869,
    3459375866,
    3459375862,
    3459375860,
    1270139840,
    1270139960,
    1270139675,
    1270140214,
    1270140140,
    1270140019,
    1270140238,
    1270139835,
    1270140195,
    1270140231,
    1270140224,
    1270140076,
    1270140200,
    1270139992,
    1270140162,
    1270140023,
    1270139953,
    1270139775,
    1270140106,
    1270139896,
    1270139698,
    1270139857,
    1270139954,
    1270140081,
    1270139932,
    1270140056,
    3459375805
  ],
  "tags": {
    "addr:city": "Beamish",
    "addr:postcode": "DH9 0RG",
    "area": "yes",
    "layer": "-5",
    "name": "Beamish Museum",
    "phone": "+44 191 370 4000",
    "tourism": "museum",
    "website": "http://www.beamish.org.uk",
    "wikidata": "Q252417",
    "wikipedia": "en:Beamish Museum"
  }
},
{
  "type": "way",
  "id": 341536749,
  "nodes": [
    3487019908,
    3487019909,
    3487019910,
    3487019911,
    3487019908
  ],
  "tags": {
    "addr:city": "Wylam",
    "addr:postcode": "NE41 8BP",
    "building": "yes",
    "name": "George Stephenson's Birthplace",
    "note": "Birthplace of George Stephenson",
    "operator": "National Trust",
    "phone": "+44 1207 541820",
    "source": "GPS waypoint",
    "tourism": "museum",
    "website": "https://www.nationaltrust.org.uk/george-stephensons-birthplace/",
    "wikidata": "Q5544825"
  }
},
{
  "type": "way",
  "id": 371643013,
  "nodes": [
    3752045671,
    3752045659,
    3752045662,
    3752045657,
    3752045650,
    3752045652,
    3752045673,
    3752045671
  ],
  "tags": {
    "building": "yes",
    "name": "Chesters Roman Fort Museum",
    "tourism": "museum"
  }
},
{
  "type": "way",
  "id": 437267330,
  "nodes": [
    4350858550,
    4350858551,
    6657849316,
    6657849320,
    6657849317,
    6657849318,
    6657849319,
    6657849315,
    4350858552,
    4350858553,
    6657849325,
    4350858554,
    4350858555,
    4350858550
  ],
  "tags": {
    "building": "yes",
    "fee": "yes",
    "name": "Bede Museum",
    "tourism": "museum"
  }
},
{
  "type": "way",
  "id": 448320230,
  "nodes": [
    4453434515,
    4453434516,
    4453434517,
    4453434518,
    4453434519,
    4453434520,
    4453434515
  ],
  "tags": {
    "addr:city": "Blaydon on Tyne",
    "addr:postcode": "NE21 4SP",
    "addr:street": "Summerhill",
    "building": "yes",
    "name": "Path Head Watermill",
    "phone": "+44 191 4146288",
    "tourism": "museum",
    "website": "http://gatesheadmill.co.uk/index.html",
    "wikipedia": "en:Path Head Watermill"
  }
},
{
  "type": "way",
  "id": 468078225,
  "nodes": [
    4626121230,
    4626121227,
    4626121221,
    4629607054,
    4626121220,
    4626121209,
    4626121215,
    4626121216,
    4626121217,
    4626121210,
    4626121211,
    4626121219,
    4626121212,
    4626121213,
    4626121208,
    4626121222,
    4626121228,
    4626121223,
    4626121224,
    4626121225,
    4626121226,
    4626121229,
    4626121230
  ],
  "tags": {
    "addr:city": "Wallsend",
    "addr:postcode": "NE28 6HR",
    "addr:street": "Buddle Street",
    "building": "yes",
    "name": "Segedunum",
    "opening_hours": "10:00-15:00 (winter); 10:00-17:00 (summer)",
    "phone": "+44 191 278 4217",
    "source": "Bing",
    "tourism": "museum",
    "website": "https://www.segedunumromanfort.org.uk/"
  }
},
{
  "type": "way",
  "id": 488040714,
  "nodes": [
    4804071277,
    4804071278,
    4804071279,
    4804071280,
    4804071277
  ],
  "tags": {
    "HE_ref": "1018224",
    "building": "yes",
    "designation": "scheduled_monument",
    "name": "Washington F Pit Museum",
    "operator": "Sunderland Council",
    "tourism": "museum",
    "website": "https://www.seeitdoitsunderland.co.uk/washington-f-pit",
    "wikidata": "Q17670489"
  }
},
{
  "type": "way",
  "id": 515082742,
  "nodes": [
    5031105496,
    1194202817,
    5031105490,
    5031105497,
    5031105496
  ],
  "tags": {
    "building": "yes",
    "name": "Hexham Abbey Museum",
    "tourism": "museum"
  }
},
{
  "type": "node",
  "id": 365355292,
  "lat": 54.7636423,
  "lon": -1.5813607
},
{
  "type": "node",
  "id": 365355307,
  "lat": 54.7638211,
  "lon": -1.5815979
},
{
  "type": "node",
  "id": 365355308,
  "lat": 54.7639439,
  "lon": -1.5813231
},
{
  "type": "node",
  "id": 365355309,
  "lat": 54.7639933,
  "lon": -1.5813978
},
{
  "type": "node",
  "id": 365355310,
  "lat": 54.7640210,
  "lon": -1.5813465
},
{
  "type": "node",
  "id": 365355311,
  "lat": 54.7640238,
  "lon": -1.5813015
},
{
  "type": "node",
  "id": 365355320,
  "lat": 54.7640449,
  "lon": -1.5812155
},
{
  "type": "node",
  "id": 365355324,
  "lat": 54.7639474,
  "lon": -1.5810841
},
{
  "type": "node",
  "id": 365355330,
  "lat": 54.7639107,
  "lon": -1.5811672
},
{
  "type": "node",
  "id": 365355334,
  "lat": 54.7638002,
  "lon": -1.5810284
},
{
  "type": "node",
  "id": 1829193698,
  "lat": 54.7640113,
  "lon": -1.5813452
},
{
  "type": "node",
  "id": 1829193699,
  "lat": 54.7640134,
  "lon": -1.5812898
},
{
  "type": "node",
  "id": 151020617,
  "lat": 54.7736589,
  "lon": -1.5742135
},
{
  "type": "node",
  "id": 151020618,
  "lat": 54.7735828,
  "lon": -1.5742241
},
{
  "type": "node",
  "id": 938136950,
  "lat": 54.7737114,
  "lon": -1.5747333
},
{
  "type": "node",
  "id": 938137047,
  "lat": 54.7736174,
  "lon": -1.5747508
},
{
  "type": "node",
  "id": 3417346698,
  "lat": 54.7735905,
  "lon": -1.5743943
},
{
  "type": "node",
  "id": 3417346699,
  "lat": 54.7736710,
  "lon": -1.5743832
},
{
  "type": "node",
  "id": 3417346700,
  "lat": 54.7736833,
  "lon": -1.5743795
},
{
  "type": "node",
  "id": 1270139698,
  "lat": 54.8822876,
  "lon": -1.6651956
},
{
  "type": "node",
  "id": 1270139775,
  "lat": 54.8828847,
  "lon": -1.6653611
},
{
  "type": "node",
  "id": 1270139857,
  "lat": 54.8820824,
  "lon": -1.6649876
},
{
  "type": "node",
  "id": 1270139896,
  "lat": 54.8827093,
  "lon": -1.6653431
},
{
  "type": "node",
  "id": 1270139953,
  "lat": 54.8830229,
  "lon": -1.6654212
},
{
  "type": "node",
  "id": 1270139954,
  "lat": 54.8819118,
  "lon": -1.6646479
},
{
  "type": "node",
  "id": 1270140023,
  "lat": 54.8831098,
  "lon": -1.6654374
},
{
  "type": "node",
  "id": 1270140106,
  "lat": 54.8828256,
  "lon": -1.6653522
},
{
  "type": "node",
  "id": 317066081,
  "lat": 54.8815861,
  "lon": -1.6582710
},
{
  "type": "node",
  "id": 317066082,
  "lat": 54.8816928,
  "lon": -1.6591627
},
{
  "type": "node",
  "id": 371622422,
  "lat": 54.8819730,
  "lon": -1.6613925
},
{
  "type": "node",
  "id": 1257377376,
  "lat": 54.8818538,
  "lon": -1.6595099
},
{
  "type": "node",
  "id": 1257377431,
  "lat": 54.8819629,
  "lon": -1.6598784
},
{
  "type": "node",
  "id": 1257377602,
  "lat": 54.8819274,
  "lon": -1.6607772
},
{
  "type": "node",
  "id": 1257377662,
  "lat": 54.8819050,
  "lon": -1.6596498
},
{
  "type": "node",
  "id": 1257377746,
  "lat": 54.8819278,
  "lon": -1.6604797
},
{
  "type": "node",
  "id": 1257377760,
  "lat": 54.8819612,
  "lon": -1.6602978
},
{
  "type": "node",
  "id": 1257377915,
  "lat": 54.8815811,
  "lon": -1.6582414
},
{
  "type": "node",
  "id": 1257377975,
  "lat": 54.8817158,
  "lon": -1.6592325
},
{
  "type": "node",
  "id": 1257378004,
  "lat": 54.8819923,
  "lon": -1.6600945
},
{
  "type": "node",
  "id": 1270139932,
  "lat": 54.8816008,
  "lon": -1.6635756
},
{
  "type": "node",
  "id": 1270140056,
  "lat": 54.8817376,
  "lon": -1.6635260
},
{
  "type": "node",
  "id": 1270140081,
  "lat": 54.8817148,
  "lon": -1.6638381
},
{
  "type": "node",
  "id": 3459375804,
  "lat": 54.8820467,
  "lon": -1.6613737
},
{
  "type": "node",
  "id": 3459375805,
  "lat": 54.8822082,
  "lon": -1.6626983
},
{
  "type": "node",
  "id": 5084391197,
  "lat": 54.8816262,
  "lon": -1.6586103
},
{
  "type": "node",
  "id": 1257377459,
  "lat": 54.8815806,
  "lon": -1.6580542
},
{
  "type": "node",
  "id": 1257377527,
  "lat": 54.8817461,
  "lon": -1.6578884
},
{
  "type": "node",
  "id": 1257377611,
  "lat": 54.8815758,
  "lon": -1.6578826
},
{
  "type": "node",
  "id": 1268519564,
  "lat": 54.8826854,
  "lon": -1.6572799
},
{
  "type": "node",
  "id": 1268519601,
  "lat": 54.8823717,
  "lon": -1.6576795
},
{
  "type": "node",
  "id": 1268519639,
  "lat": 54.8821564,
  "lon": -1.6577778
},
{
  "type": "node",
  "id": 1268519722,
  "lat": 54.8829499,
  "lon": -1.6571499
},
{
  "type": "node",
  "id": 1268519761,
  "lat": 54.8825139,
  "lon": -1.6574226
},
{
  "type": "node",
  "id": 1268519797,
  "lat": 54.8822494,
  "lon": -1.6578539
},
{
  "type": "node",
  "id": 1268519812,
  "lat": 54.8820593,
  "lon": -1.6578050
},
{
  "type": "node",
  "id": 1268519552,
  "lat": 54.8875721,
  "lon": -1.6658154
},
{
  "type": "node",
  "id": 1268519673,
  "lat": 54.8878985,
  "lon": -1.6662332
},
{
  "type": "node",
  "id": 1270139675,
  "lat": 54.8840603,
  "lon": -1.6651014
},
{
  "type": "node",
  "id": 1270139835,
  "lat": 54.8839141,
  "lon": -1.6658103
},
{
  "type": "node",
  "id": 1270139840,
  "lat": 54.8844350,
  "lon": -1.6648995
},
{
  "type": "node",
  "id": 1270139960,
  "lat": 54.8841111,
  "lon": -1.6650871
},
{
  "type": "node",
  "id": 1270139992,
  "lat": 54.8832724,
  "lon": -1.6655930
},
{
  "type": "node",
  "id": 1270140019,
  "lat": 54.8839370,
  "lon": -1.6655676
},
{
  "type": "node",
  "id": 1270140076,
  "lat": 54.8835412,
  "lon": -1.6658254
},
{
  "type": "node",
  "id": 1270140105,
  "lat": 54.8862207,
  "lon": -1.6647301
},
{
  "type": "node",
  "id": 1270140140,
  "lat": 54.8839587,
  "lon": -1.6652988
},
{
  "type": "node",
  "id": 1270140162,
  "lat": 54.8831551,
  "lon": -1.6654539
},
{
  "type": "node",
  "id": 1270140178,
  "lat": 54.8862567,
  "lon": -1.6646389
},
{
  "type": "node",
  "id": 1270140195,
  "lat": 54.8839086,
  "lon": -1.6658819
},
{
  "type": "node",
  "id": 1270140200,
  "lat": 54.8833516,
  "lon": -1.6656874
},
{
  "type": "node",
  "id": 1270140214,
  "lat": 54.8840274,
  "lon": -1.6651455
},
{
  "type": "node",
  "id": 1270140224,
  "lat": 54.8837644,
  "lon": -1.6658839
},
{
  "type": "node",
  "id": 1270140231,
  "lat": 54.8839176,
  "lon": -1.6659196
},
{
  "type": "node",
  "id": 1270140238,
  "lat": 54.8839261,
  "lon": -1.6656827
},
{
  "type": "node",
  "id": 3387873640,
  "lat": 54.8875152,
  "lon": -1.6650968
},
{
  "type": "node",
  "id": 3459375862,
  "lat": 54.8849444,
  "lon": -1.6651469
},
{
  "type": "node",
  "id": 3459375866,
  "lat": 54.8851228,
  "lon": -1.6648459
},
{
  "type": "node",
  "id": 3459375869,
  "lat": 54.8851866,
  "lon": -1.6647085
},
{
  "type": "node",
  "id": 3459375877,
  "lat": 54.8853606,
  "lon": -1.6646326
},
{
  "type": "node",
  "id": 3459375891,
  "lat": 54.8856790,
  "lon": -1.6649433
},
{
  "type": "node",
  "id": 3459375894,
  "lat": 54.8858382,
  "lon": -1.6647459
},
{
  "type": "node",
  "id": 3459375906,
  "lat": 54.8862468,
  "lon": -1.6646272
},
{
  "type": "node",
  "id": 3459375937,
  "lat": 54.8874332,
  "lon": -1.6655732
},
{
  "type": "node",
  "id": 3459375938,
  "lat": 54.8874599,
  "lon": -1.6656473
},
{
  "type": "node",
  "id": 3459375941,
  "lat": 54.8875604,
  "lon": -1.6648478
},
{
  "type": "node",
  "id": 3459375945,
  "lat": 54.8880964,
  "lon": -1.6665392
},
{
  "type": "node",
  "id": 3459375951,
  "lat": 54.8885467,
  "lon": -1.6654524
},
{
  "type": "node",
  "id": 3459375954,
  "lat": 54.8887405,
  "lon": -1.6647719
},
{
  "type": "node",
  "id": 1270140175,
  "lat": 54.8860200,
  "lon": -1.6644911
},
{
  "type": "node",
  "id": 1270140202,
  "lat": 54.8860707,
  "lon": -1.6645514
},
{
  "type": "node",
  "id": 3459375493,
  "lat": 54.8860310,
  "lon": -1.6645042
},
{
  "type": "node",
  "id": 3459375494,
  "lat": 54.8860435,
  "lon": -1.6645190
},
{
  "type": "node",
  "id": 3459375860,
  "lat": 54.8844620,
  "lon": -1.6644927
},
{
  "type": "node",
  "id": 3459375873,
  "lat": 54.8852966,
  "lon": -1.6645649
},
{
  "type": "node",
  "id": 3459375875,
  "lat": 54.8853297,
  "lon": -1.6645217
},
{
  "type": "node",
  "id": 3459375896,
  "lat": 54.8859376,
  "lon": -1.6645135
},
{
  "type": "node",
  "id": 3459375898,
  "lat": 54.8859652,
  "lon": -1.6645532
},
{
  "type": "node",
  "id": 3459375899,
  "lat": 54.8859856,
  "lon": -1.6645785
},
{
  "type": "node",
  "id": 3459375907,
  "lat": 54.8862560,
  "lon": -1.6646013
},
{
  "type": "node",
  "id": 3459375909,
  "lat": 54.8862793,
  "lon": -1.6645204
},
{
  "type": "node",
  "id": 3459375911,
  "lat": 54.8862836,
  "lon": -1.6645254
},
{
  "type": "node",
  "id": 3459375914,
  "lat": 54.8862912,
  "lon": -1.6644893
},
{
  "type": "node",
  "id": 3459375915,
  "lat": 54.8862948,
  "lon": -1.6644935
},
{
  "type": "node",
  "id": 3459375919,
  "lat": 54.8863286,
  "lon": -1.6644052
},
{
  "type": "node",
  "id": 3459375920,
  "lat": 54.8863365,
  "lon": -1.6644113
},
{
  "type": "node",
  "id": 3459375922,
  "lat": 54.8863587,
  "lon": -1.6644287
},
{
  "type": "node",
  "id": 3459375923,
  "lat": 54.8864225,
  "lon": -1.6643191
},
{
  "type": "node",
  "id": 3459375925,
  "lat": 54.8866597,
  "lon": -1.6640881
},
{
  "type": "node",
  "id": 3459375957,
  "lat": 54.8891110,
  "lon": -1.6582249
},
{
  "type": "node",
  "id": 3459375958,
  "lat": 54.8891414,
  "lon": -1.6632954
},
{
  "type": "node",
  "id": 3459375959,
  "lat": 54.8894207,
  "lon": -1.6621260
},
{
  "type": "node",
  "id": 3459375960,
  "lat": 54.8895176,
  "lon": -1.6590210
},
{
  "type": "node",
  "id": 1268519685,
  "lat": 54.8833216,
  "lon": -1.6571088
},
{
  "type": "node",
  "id": 1268519845,
  "lat": 54.8832732,
  "lon": -1.6564895
},
{
  "type": "node",
  "id": 1268519879,
  "lat": 54.8832289,
  "lon": -1.6572070
},
{
  "type": "node",
  "id": 1270139950,
  "lat": 54.8852215,
  "lon": -1.6538509
},
{
  "type": "node",
  "id": 1270139968,
  "lat": 54.8852644,
  "lon": -1.6539017
},
{
  "type": "node",
  "id": 2588694417,
  "lat": 54.8869100,
  "lon": -1.6554767
},
{
  "type": "node",
  "id": 3459375823,
  "lat": 54.8832589,
  "lon": -1.6558534
},
{
  "type": "node",
  "id": 3459375825,
  "lat": 54.8832777,
  "lon": -1.6534990
},
{
  "type": "node",
  "id": 3459375826,
  "lat": 54.8833169,
  "lon": -1.6523797
},
{
  "type": "node",
  "id": 3459375849,
  "lat": 54.8837254,
  "lon": -1.6527581
},
{
  "type": "node",
  "id": 3459375858,
  "lat": 54.8841607,
  "lon": -1.6531318
},
{
  "type": "node",
  "id": 3459375859,
  "lat": 54.8843488,
  "lon": -1.6533094
},
{
  "type": "node",
  "id": 3459375864,
  "lat": 54.8850582,
  "lon": -1.6540194
},
{
  "type": "node",
  "id": 3459375868,
  "lat": 54.8851684,
  "lon": -1.6537044
},
{
  "type": "node",
  "id": 3459375879,
  "lat": 54.8854097,
  "lon": -1.6540980
},
{
  "type": "node",
  "id": 3459375887,
  "lat": 54.8855602,
  "lon": -1.6546008
},
{
  "type": "node",
  "id": 3459375889,
  "lat": 54.8856310,
  "lon": -1.6543795
},
{
  "type": "node",
  "id": 3459375890,
  "lat": 54.8856386,
  "lon": -1.6543271
},
{
  "type": "node",
  "id": 3459375892,
  "lat": 54.8857678,
  "lon": -1.6547499
},
{
  "type": "node",
  "id": 3459375897,
  "lat": 54.8859407,
  "lon": -1.6548853
},
{
  "type": "node",
  "id": 3459375904,
  "lat": 54.8862115,
  "lon": -1.6552371
},
{
  "type": "node",
  "id": 3459375924,
  "lat": 54.8865221,
  "lon": -1.6554651
},
{
  "type": "node",
  "id": 3459375926,
  "lat": 54.8866912,
  "lon": -1.6555642
},
{
  "type": "node",
  "id": 3459375931,
  "lat": 54.8871011,
  "lon": -1.6561759
},
{
  "type": "node",
  "id": 3459375940,
  "lat": 54.8875016,
  "lon": -1.6563751
},
{
  "type": "node",
  "id": 3459375942,
  "lat": 54.8877164,
  "lon": -1.6564874
},
{
  "type": "node",
  "id": 3459375948,
  "lat": 54.8883871,
  "lon": -1.6570192
},
{
  "type": "node",
  "id": 3459375950,
  "lat": 54.8884365,
  "lon": -1.6571580
},
{
  "type": "node",
  "id": 3459375952,
  "lat": 54.8886797,
  "lon": -1.6574321
},
{
  "type": "node",
  "id": 3459375961,
  "lat": 54.8897246,
  "lon": -1.6597477
},
{
  "type": "node",
  "id": 3459375962,
  "lat": 54.8897265,
  "lon": -1.6610095
},
{
  "type": "node",
  "id": 3459375963,
  "lat": 54.8897778,
  "lon": -1.6602300
},
{
  "type": "node",
  "id": 2208709188,
  "lat": 54.9235922,
  "lon": -1.5579779
},
{
  "type": "node",
  "id": 2208709190,
  "lat": 54.9236625,
  "lon": -1.5580106
},
{
  "type": "node",
  "id": 2208709192,
  "lat": 54.9236740,
  "lon": -1.5579357
},
{
  "type": "node",
  "id": 2208709194,
  "lat": 54.9237043,
  "lon": -1.5572487
},
{
  "type": "node",
  "id": 2208709196,
  "lat": 54.9237222,
  "lon": -1.5575802
},
{
  "type": "node",
  "id": 2208709200,
  "lat": 54.9237271,
  "lon": -1.5579604
},
{
  "type": "node",
  "id": 2208709201,
  "lat": 54.9237685,
  "lon": -1.5572786
},
{
  "type": "node",
  "id": 2208709202,
  "lat": 54.9237813,
  "lon": -1.5576077
},
{
  "type": "node",
  "id": 4804071277,
  "lat": 54.9107745,
  "lon": -1.5301090
},
{
  "type": "node",
  "id": 4804071278,
  "lat": 54.9107965,
  "lon": -1.5303433
},
{
  "type": "node",
  "id": 4804071279,
  "lat": 54.9107058,
  "lon": -1.5303690
},
{
  "type": "node",
  "id": 4804071280,
  "lat": 54.9106839,
  "lon": -1.5301347
},
{
  "type": "node",
  "id": 1860169811,
  "lat": 54.9247401,
  "lon": -1.4687418
},
{
  "type": "node",
  "id": 1860169950,
  "lat": 54.9243849,
  "lon": -1.4684969
},
{
  "type": "node",
  "id": 1860170276,
  "lat": 54.9244587,
  "lon": -1.4700132
},
{
  "type": "node",
  "id": 1860170284,
  "lat": 54.9233991,
  "lon": -1.4706676
},
{
  "type": "node",
  "id": 1860170289,
  "lat": 54.9243429,
  "lon": -1.4710588
},
{
  "type": "node",
  "id": 1860170509,
  "lat": 54.9234295,
  "lon": -1.4708197
},
{
  "type": "node",
  "id": 1860170510,
  "lat": 54.9241286,
  "lon": -1.4714099
},
{
  "type": "node",
  "id": 1860170520,
  "lat": 54.9245733,
  "lon": -1.4700978
},
{
  "type": "node",
  "id": 1860170524,
  "lat": 54.9242404,
  "lon": -1.4709876
},
{
  "type": "node",
  "id": 1942409861,
  "lat": 54.8384268,
  "lon": -1.3271248
},
{
  "type": "node",
  "id": 1942409863,
  "lat": 54.8384691,
  "lon": -1.3273079
},
{
  "type": "node",
  "id": 1942409867,
  "lat": 54.8385210,
  "lon": -1.3272718
},
{
  "type": "node",
  "id": 7058765201,
  "lat": 54.8385825,
  "lon": -1.3271299
},
{
  "type": "node",
  "id": 7058765202,
  "lat": 54.8385013,
  "lon": -1.3271864
},
{
  "type": "node",
  "id": 7058765203,
  "lat": 54.8385599,
  "lon": -1.3270322
},
{
  "type": "node",
  "id": 7061722611,
  "lat": 54.8385660,
  "lon": -1.3270588
},
{
  "type": "node",
  "id": 348147077,
  "lat": 54.8656800,
  "lon": -1.3740486
},
{
  "type": "node",
  "id": 776035796,
  "lat": 54.8653320,
  "lon": -1.3726061
},
{
  "type": "node",
  "id": 776035797,
  "lat": 54.8654730,
  "lon": -1.3719916
},
{
  "type": "node",
  "id": 776035798,
  "lat": 54.8653739,
  "lon": -1.3719078
},
{
  "type": "node",
  "id": 776035799,
  "lat": 54.8652078,
  "lon": -1.3725010
},
{
  "type": "node",
  "id": 3372008623,
  "lat": 54.8654188,
  "lon": -1.3722963
},
{
  "type": "node",
  "id": 3372008624,
  "lat": 54.8653937,
  "lon": -1.3722750
},
{
  "type": "node",
  "id": 3372008626,
  "lat": 54.8664130,
  "lon": -1.3713807
},
{
  "type": "node",
  "id": 3372008627,
  "lat": 54.8651585,
  "lon": -1.3704288
},
{
  "type": "node",
  "id": 3372008628,
  "lat": 54.8646370,
  "lon": -1.3721968
},
{
  "type": "node",
  "id": 3372008629,
  "lat": 54.8642600,
  "lon": -1.3723938
},
{
  "type": "node",
  "id": 3372008630,
  "lat": 54.8651812,
  "lon": -1.3737481
},
{
  "type": "node",
  "id": 3372008631,
  "lat": 54.8656545,
  "lon": -1.3741520
},
{
  "type": "node",
  "id": 6499837016,
  "lat": 54.8645835,
  "lon": -1.3722248
},
{
  "type": "node",
  "id": 6499837030,
  "lat": 54.8654240,
  "lon": -1.3719499
},
{
  "type": "node",
  "id": 344453124,
  "lat": 54.9041926,
  "lon": -1.3809535
},
{
  "type": "node",
  "id": 344453125,
  "lat": 54.9042949,
  "lon": -1.3799568
},
{
  "type": "node",
  "id": 344453126,
  "lat": 54.9040321,
  "lon": -1.3800473
},
{
  "type": "node",
  "id": 344453127,
  "lat": 54.9040199,
  "lon": -1.3808856
},
{
  "type": "node",
  "id": 745795187,
  "lat": 54.9042105,
  "lon": -1.3798690
},
{
  "type": "node",
  "id": 745795188,
  "lat": 54.9040479,
  "lon": -1.3795969
},
{
  "type": "node",
  "id": 745795189,
  "lat": 54.9040402,
  "lon": -1.3809776
},
{
  "type": "node",
  "id": 745795190,
  "lat": 54.9041771,
  "lon": -1.3810093
},
{
  "type": "node",
  "id": 745795191,
  "lat": 54.9041833,
  "lon": -1.3809919
},
{
  "type": "node",
  "id": 745795351,
  "lat": 54.9041240,
  "lon": -1.3796410
},
{
  "type": "node",
  "id": 745795355,
  "lat": 54.9039745,
  "lon": -1.3796367
},
{
  "type": "node",
  "id": 745795356,
  "lat": 54.9039222,
  "lon": -1.3798745
},
{
  "type": "node",
  "id": 2594015280,
  "lat": 54.9039164,
  "lon": -1.3797982
},
{
  "type": "node",
  "id": 2594015282,
  "lat": 54.9039263,
  "lon": -1.3797379
},
{
  "type": "node",
  "id": 2594015285,
  "lat": 54.9039340,
  "lon": -1.3799433
},
{
  "type": "node",
  "id": 2594015286,
  "lat": 54.9039439,
  "lon": -1.3796764
},
{
  "type": "node",
  "id": 2594015289,
  "lat": 54.9039609,
  "lon": -1.3799987
},
{
  "type": "node",
  "id": 2594015296,
  "lat": 54.9039977,
  "lon": -1.3800319
},
{
  "type": "node",
  "id": 2594015299,
  "lat": 54.9040083,
  "lon": -1.3808854
},
{
  "type": "node",
  "id": 2594015301,
  "lat": 54.9040114,
  "lon": -1.3796081
},
{
  "type": "node",
  "id": 2594015302,
  "lat": 54.9040175,
  "lon": -1.3809703
},
{
  "type": "node",
  "id": 2594015311,
  "lat": 54.9040648,
  "lon": -1.3809986
},
{
  "type": "node",
  "id": 2594015314,
  "lat": 54.9040740,
  "lon": -1.3810182
},
{
  "type": "node",
  "id": 2594015320,
  "lat": 54.9040875,
  "lon": -1.3796063
},
{
  "type": "node",
  "id": 2594015323,
  "lat": 54.9040995,
  "lon": -1.3810379
},
{
  "type": "node",
  "id": 2594015341,
  "lat": 54.9041320,
  "lon": -1.3810428
},
{
  "type": "node",
  "id": 2594015345,
  "lat": 54.9041356,
  "lon": -1.3810687
},
{
  "type": "node",
  "id": 2594015349,
  "lat": 54.9041455,
  "lon": -1.3810834
},
{
  "type": "node",
  "id": 2594015351,
  "lat": 54.9041546,
  "lon": -1.3796949
},
{
  "type": "node",
  "id": 2594015353,
  "lat": 54.9041596,
  "lon": -1.3810810
},
{
  "type": "node",
  "id": 2594015357,
  "lat": 54.9041716,
  "lon": -1.3810773
},
{
  "type": "node",
  "id": 2594015359,
  "lat": 54.9041787,
  "lon": -1.3797490
},
{
  "type": "node",
  "id": 2594015361,
  "lat": 54.9041794,
  "lon": -1.3810588
},
{
  "type": "node",
  "id": 2594015362,
  "lat": 54.9041815,
  "lon": -1.3810207
},
{
  "type": "node",
  "id": 2594015364,
  "lat": 54.9041829,
  "lon": -1.3810404
},
{
  "type": "node",
  "id": 2594015368,
  "lat": 54.9041999,
  "lon": -1.3798142
},
{
  "type": "node",
  "id": 2594015371,
  "lat": 54.9042204,
  "lon": -1.3799532
},
{
  "type": "node",
  "id": 2594015382,
  "lat": 54.9042918,
  "lon": -1.3800639
},
{
  "type": "node",
  "id": 2594015386,
  "lat": 54.9042933,
  "lon": -1.3800121
},
{
  "type": "node",
  "id": 2594015394,
  "lat": 54.9043194,
  "lon": -1.3809653
},
{
  "type": "node",
  "id": 2594015396,
  "lat": 54.9043300,
  "lon": -1.3805853
},
{
  "type": "node",
  "id": 2594015399,
  "lat": 54.9043335,
  "lon": -1.3804181
},
{
  "type": "node",
  "id": 2594015404,
  "lat": 54.9043406,
  "lon": -1.3800651
},
{
  "type": "node",
  "id": 2594015406,
  "lat": 54.9043420,
  "lon": -1.3805865
},
{
  "type": "node",
  "id": 2594015409,
  "lat": 54.9043456,
  "lon": -1.3804193
},
{
  "type": "node",
  "id": 6267546421,
  "lat": 54.9040274,
  "lon": -1.3802114
},
{
  "type": "node",
  "id": 6267546422,
  "lat": 54.9043438,
  "lon": -1.3805040
},
{
  "type": "node",
  "id": 1860169766,
  "lat": 54.9245890,
  "lon": -1.4676367
},
{
  "type": "node",
  "id": 1860170163,
  "lat": 54.9242525,
  "lon": -1.4673971
},
{
  "type": "node",
  "id": 1194202817,
  "lat": 54.9715101,
  "lon": -2.1030193
},
{
  "type": "node",
  "id": 3417312508,
  "lat": 54.9713901,
  "lon": -2.1000515
},
{
  "type": "node",
  "id": 3417312509,
  "lat": 54.9712146,
  "lon": -2.1000462
},
{
  "type": "node",
  "id": 3417312510,
  "lat": 54.9712162,
  "lon": -2.0998477
},
{
  "type": "node",
  "id": 3417312511,
  "lat": 54.9713947,
  "lon": -2.0998557
},
{
  "type": "node",
  "id": 5031105490,
  "lat": 54.9714505,
  "lon": -2.1030190
},
{
  "type": "node",
  "id": 5031105496,
  "lat": 54.9715228,
  "lon": -2.1032302
},
{
  "type": "node",
  "id": 5031105497,
  "lat": 54.9714554,
  "lon": -2.1032411
},
{
  "type": "node",
  "id": 3752045650,
  "lat": 55.0281856,
  "lon": -2.1398765
},
{
  "type": "node",
  "id": 3752045652,
  "lat": 55.0282006,
  "lon": -2.1396795
},
{
  "type": "node",
  "id": 3752045657,
  "lat": 55.0282338,
  "lon": -2.1398877
},
{
  "type": "node",
  "id": 3752045659,
  "lat": 55.0282436,
  "lon": -2.1399739
},
{
  "type": "node",
  "id": 3752045662,
  "lat": 55.0282499,
  "lon": -2.1398914
},
{
  "type": "node",
  "id": 3752045671,
  "lat": 55.0283333,
  "lon": -2.1399948
},
{
  "type": "node",
  "id": 3752045673,
  "lat": 55.0283547,
  "lon": -2.1397154
},
{
  "type": "node",
  "id": 3487019908,
  "lat": 54.9793364,
  "lon": -1.8050340
},
{
  "type": "node",
  "id": 3487019909,
  "lat": 54.9792969,
  "lon": -1.8049835
},
{
  "type": "node",
  "id": 3487019910,
  "lat": 54.9793437,
  "lon": -1.8048722
},
{
  "type": "node",
  "id": 3487019911,
  "lat": 54.9793833,
  "lon": -1.8049226
},
{
  "type": "node",
  "id": 4453434516,
  "lat": 54.9654859,
  "lon": -1.7302751
},
{
  "type": "node",
  "id": 4453434517,
  "lat": 54.9653263,
  "lon": -1.7302650
},
{
  "type": "node",
  "id": 905013514,
  "lat": 54.9861471,
  "lon": -1.7413002
},
{
  "type": "node",
  "id": 905013515,
  "lat": 54.9860146,
  "lon": -1.7409764
},
{
  "type": "node",
  "id": 905013516,
  "lat": 54.9862698,
  "lon": -1.7406593
},
{
  "type": "node",
  "id": 905013517,
  "lat": 54.9863863,
  "lon": -1.7409440
},
{
  "type": "node",
  "id": 4776742680,
  "lat": 54.9862070,
  "lon": -1.7412257
},
{
  "type": "node",
  "id": 4776742681,
  "lat": 54.9861910,
  "lon": -1.7411866
},
{
  "type": "node",
  "id": 4453434515,
  "lat": 54.9654948,
  "lon": -1.7298490
},
{
  "type": "node",
  "id": 4453434518,
  "lat": 54.9653298,
  "lon": -1.7300970
},
{
  "type": "node",
  "id": 4453434519,
  "lat": 54.9654418,
  "lon": -1.7301041
},
{
  "type": "node",
  "id": 4453434520,
  "lat": 54.9654472,
  "lon": -1.7298460
},
{
  "type": "node",
  "id": 1406545604,
  "lat": 55.1667988,
  "lon": -1.6866552
},
{
  "type": "node",
  "id": 1406545607,
  "lat": 55.1668186,
  "lon": -1.6869883
},
{
  "type": "node",
  "id": 1406545612,
  "lat": 55.1668829,
  "lon": -1.6869766
},
{
  "type": "node",
  "id": 1406545613,
  "lat": 55.1668937,
  "lon": -1.6871565
},
{
  "type": "node",
  "id": 1406545619,
  "lat": 55.1669360,
  "lon": -1.6866302
},
{
  "type": "node",
  "id": 1406545626,
  "lat": 55.1669666,
  "lon": -1.6871432
},
{
  "type": "node",
  "id": 2946423750,
  "lat": 55.2994363,
  "lon": -1.7111225
},
{
  "type": "node",
  "id": 2946423765,
  "lat": 55.2995289,
  "lon": -1.7111580
},
{
  "type": "node",
  "id": 2946423945,
  "lat": 55.2995049,
  "lon": -1.7113517
},
{
  "type": "node",
  "id": 2946423962,
  "lat": 55.2994122,
  "lon": -1.7113162
},
{
  "type": "node",
  "id": 1948947912,
  "lat": 54.9689178,
  "lon": -1.6253377
},
{
  "type": "node",
  "id": 747737906,
  "lat": 54.9673633,
  "lon": -1.6206934
},
{
  "type": "node",
  "id": 747737907,
  "lat": 54.9667028,
  "lon": -1.6206964
},
{
  "type": "node",
  "id": 747737908,
  "lat": 54.9672560,
  "lon": -1.6214007
},
{
  "type": "node",
  "id": 747737909,
  "lat": 54.9671169,
  "lon": -1.6213121
},
{
  "type": "node",
  "id": 747737910,
  "lat": 54.9669879,
  "lon": -1.6212752
},
{
  "type": "node",
  "id": 747737911,
  "lat": 54.9668398,
  "lon": -1.6211512
},
{
  "type": "node",
  "id": 747737912,
  "lat": 54.9667765,
  "lon": -1.6210542
},
{
  "type": "node",
  "id": 747737913,
  "lat": 54.9667228,
  "lon": -1.6209151
},
{
  "type": "node",
  "id": 747737914,
  "lat": 54.9672110,
  "lon": -1.6212846
},
{
  "type": "node",
  "id": 747737915,
  "lat": 54.9672648,
  "lon": -1.6213014
},
{
  "type": "node",
  "id": 5353205878,
  "lat": 54.9673463,
  "lon": -1.6207596
},
{
  "type": "node",
  "id": 1948947907,
  "lat": 54.9694978,
  "lon": -1.6245474
},
{
  "type": "node",
  "id": 1948947910,
  "lat": 54.9694143,
  "lon": -1.6245184
},
{
  "type": "node",
  "id": 1948947951,
  "lat": 54.9695658,
  "lon": -1.6245298
},
{
  "type": "node",
  "id": 1948947957,
  "lat": 54.9696193,
  "lon": -1.6251558
},
{
  "type": "node",
  "id": 1948947968,
  "lat": 54.9693971,
  "lon": -1.6243165
},
{
  "type": "node",
  "id": 1948947982,
  "lat": 54.9694936,
  "lon": -1.6244979
},
{
  "type": "node",
  "id": 1948947984,
  "lat": 54.9688428,
  "lon": -1.6244602
},
{
  "type": "node",
  "id": 773940949,
  "lat": 54.9803891,
  "lon": -1.6127024
},
{
  "type": "node",
  "id": 773940955,
  "lat": 54.9809262,
  "lon": -1.6130775
},
{
  "type": "node",
  "id": 773940962,
  "lat": 54.9802645,
  "lon": -1.6133479
},
{
  "type": "node",
  "id": 773940975,
  "lat": 54.9806429,
  "lon": -1.6136835
},
{
  "type": "node",
  "id": 773940978,
  "lat": 54.9803687,
  "lon": -1.6128267
},
{
  "type": "node",
  "id": 773940985,
  "lat": 54.9808275,
  "lon": -1.6136803
},
{
  "type": "node",
  "id": 773940988,
  "lat": 54.9807734,
  "lon": -1.6128999
},
{
  "type": "node",
  "id": 773940992,
  "lat": 54.9801810,
  "lon": -1.6133063
},
{
  "type": "node",
  "id": 773940997,
  "lat": 54.9807593,
  "lon": -1.6129862
},
{
  "type": "node",
  "id": 773941006,
  "lat": 54.9802431,
  "lon": -1.6134790
},
{
  "type": "node",
  "id": 773941009,
  "lat": 54.9802802,
  "lon": -1.6127826
},
{
  "type": "node",
  "id": 773941014,
  "lat": 54.9806596,
  "lon": -1.6135977
},
{
  "type": "node",
  "id": 1237293572,
  "lat": 54.9806801,
  "lon": -1.6129098
},
{
  "type": "node",
  "id": 1237293578,
  "lat": 54.9804375,
  "lon": -1.6127892
},
{
  "type": "node",
  "id": 1237293597,
  "lat": 54.9802031,
  "lon": -1.6131711
},
{
  "type": "node",
  "id": 1237293603,
  "lat": 54.9802541,
  "lon": -1.6131964
},
{
  "type": "node",
  "id": 1237293604,
  "lat": 54.9802593,
  "lon": -1.6129098
},
{
  "type": "node",
  "id": 1237293608,
  "lat": 54.9805670,
  "lon": -1.6136035
},
{
  "type": "node",
  "id": 1237293610,
  "lat": 54.9803098,
  "lon": -1.6135122
},
{
  "type": "node",
  "id": 1237293619,
  "lat": 54.9804470,
  "lon": -1.6127312
},
{
  "type": "node",
  "id": 1237293636,
  "lat": 54.9803154,
  "lon": -1.6134783
},
{
  "type": "node",
  "id": 1237293637,
  "lat": 54.9806900,
  "lon": -1.6128491
},
{
  "type": "node",
  "id": 1237293645,
  "lat": 54.9802979,
  "lon": -1.6129289
},
{
  "type": "node",
  "id": 1237293654,
  "lat": 54.9805603,
  "lon": -1.6136443
},
{
  "type": "node",
  "id": 5641807058,
  "lat": 54.9802760,
  "lon": -1.6130627
},
{
  "type": "node",
  "id": 5641807077,
  "lat": 54.9802880,
  "lon": -1.6127865
},
{
  "type": "node",
  "id": 5641807082,
  "lat": 54.9808769,
  "lon": -1.6133789
},
{
  "type": "node",
  "id": 4626121227,
  "lat": 54.9879426,
  "lon": -1.5306388
},
{
  "type": "node",
  "id": 4626121208,
  "lat": 54.9883604,
  "lon": -1.5310998
},
{
  "type": "node",
  "id": 4626121209,
  "lat": 54.9882505,
  "lon": -1.5310917
},
{
  "type": "node",
  "id": 4626121210,
  "lat": 54.9882921,
  "lon": -1.5311914
},
{
  "type": "node",
  "id": 4626121211,
  "lat": 54.9883145,
  "lon": -1.5311932
},
{
  "type": "node",
  "id": 4626121212,
  "lat": 54.9883521,
  "lon": -1.5311514
},
{
  "type": "node",
  "id": 4626121213,
  "lat": 54.9883607,
  "lon": -1.5311140
},
{
  "type": "node",
  "id": 4626121215,
  "lat": 54.9882523,
  "lon": -1.5311231
},
{
  "type": "node",
  "id": 4626121216,
  "lat": 54.9882598,
  "lon": -1.5311514
},
{
  "type": "node",
  "id": 4626121217,
  "lat": 54.9882720,
  "lon": -1.5311742
},
{
  "type": "node",
  "id": 4626121219,
  "lat": 54.9883355,
  "lon": -1.5311795
},
{
  "type": "node",
  "id": 4626121220,
  "lat": 54.9881959,
  "lon": -1.5310347
},
{
  "type": "node",
  "id": 4626121221,
  "lat": 54.9882269,
  "lon": -1.5309481
},
{
  "type": "node",
  "id": 4626121222,
  "lat": 54.9883619,
  "lon": -1.5310950
},
{
  "type": "node",
  "id": 4626121223,
  "lat": 54.9885602,
  "lon": -1.5311565
},
{
  "type": "node",
  "id": 4626121224,
  "lat": 54.9885173,
  "lon": -1.5311098
},
{
  "type": "node",
  "id": 4626121225,
  "lat": 54.9885384,
  "lon": -1.5310511
},
{
  "type": "node",
  "id": 4626121226,
  "lat": 54.9882758,
  "lon": -1.5307654
},
{
  "type": "node",
  "id": 4626121228,
  "lat": 54.9885204,
  "lon": -1.5312675
},
{
  "type": "node",
  "id": 4626121229,
  "lat": 54.9883170,
  "lon": -1.5306505
},
{
  "type": "node",
  "id": 4626121230,
  "lat": 54.9880446,
  "lon": -1.5303541
},
{
  "type": "node",
  "id": 4629607054,
  "lat": 54.9882130,
  "lon": -1.5309871
},
{
  "type": "node",
  "id": 4350858550,
  "lat": 54.9823445,
  "lon": -1.4733248
},
{
  "type": "node",
  "id": 4350858551,
  "lat": 54.9826242,
  "lon": -1.4735350
},
{
  "type": "node",
  "id": 4350858552,
  "lat": 54.9824116,
  "lon": -1.4744198
},
{
  "type": "node",
  "id": 4350858553,
  "lat": 54.9822446,
  "lon": -1.4742943
},
{
  "type": "node",
  "id": 4350858554,
  "lat": 54.9823053,
  "lon": -1.4739990
},
{
  "type": "node",
  "id": 4350858555,
  "lat": 54.9821988,
  "lon": -1.4739143
},
{
  "type": "node",
  "id": 6657849315,
  "lat": 54.9825277,
  "lon": -1.4739318
},
{
  "type": "node",
  "id": 6657849316,
  "lat": 54.9825799,
  "lon": -1.4737225
},
{
  "type": "node",
  "id": 6657849317,
  "lat": 54.9825398,
  "lon": -1.4736965
},
{
  "type": "node",
  "id": 6657849318,
  "lat": 54.9824892,
  "lon": -1.4739047
},
{
  "type": "node",
  "id": 6657849319,
  "lat": 54.9825084,
  "lon": -1.4739183
},
{
  "type": "node",
  "id": 6657849320,
  "lat": 54.9825578,
  "lon": -1.4737070
},
{
  "type": "node",
  "id": 6657849325,
  "lat": 54.9822740,
  "lon": -1.4741572
},
{
  "type": "node",
  "id": 1091382674,
  "lat": 55.0165982,
  "lon": -1.4970139
},
{
  "type": "node",
  "id": 1091382742,
  "lat": 55.0167884,
  "lon": -1.4975402
},
{
  "type": "node",
  "id": 1091382790,
  "lat": 55.0166669,
  "lon": -1.4971050
},
{
  "type": "node",
  "id": 1091382886,
  "lat": 55.0166962,
  "lon": -1.4972054
},
{
  "type": "node",
  "id": 1091382938,
  "lat": 55.0166493,
  "lon": -1.4972783
},
{
  "type": "node",
  "id": 1091383107,
  "lat": 55.0162633,
  "lon": -1.4970953
},
{
  "type": "node",
  "id": 1091383341,
  "lat": 55.0166548,
  "lon": -1.4971245
},
{
  "type": "node",
  "id": 1091383431,
  "lat": 55.0166091,
  "lon": -1.4969963
},
{
  "type": "node",
  "id": 1091383524,
  "lat": 55.0165654,
  "lon": -1.4969498
},
{
  "type": "node",
  "id": 1091383607,
  "lat": 55.0164477,
  "lon": -1.4968988
},
{
  "type": "node",
  "id": 1091383694,
  "lat": 55.0163650,
  "lon": -1.4969310
},
{
  "type": "node",
  "id": 1091383926,
  "lat": 55.0165158,
  "lon": -1.4970270
},
{
  "type": "node",
  "id": 1091383963,
  "lat": 55.0163940,
  "lon": -1.4969856
},
{
  "type": "node",
  "id": 1091384069,
  "lat": 55.0166331,
  "lon": -1.4977913
},
{
  "type": "node",
  "id": 4203251205,
  "lat": 55.0163030,
  "lon": -1.4970274
},
{
  "type": "node",
  "id": 4475260715,
  "lat": 55.0163389,
  "lon": -1.4969732
},
{
  "type": "node",
  "id": 2441950015,
  "lat": 54.9702745,
  "lon": -1.3645384
},
{
  "type": "node",
  "id": 2441950016,
  "lat": 54.9703049,
  "lon": -1.3646774
},
{
  "type": "node",
  "id": 2441950017,
  "lat": 54.9703180,
  "lon": -1.3645530
},
{
  "type": "node",
  "id": 2441950018,
  "lat": 54.9703219,
  "lon": -1.3641754
},
{
  "type": "node",
  "id": 2441950023,
  "lat": 54.9704514,
  "lon": -1.3642288
},
{
  "type": "node",
  "id": 2441950024,
  "lat": 54.9704529,
  "lon": -1.3641246
},
{
  "type": "node",
  "id": 2441950025,
  "lat": 54.9704573,
  "lon": -1.3640899
},
{
  "type": "node",
  "id": 2441950027,
  "lat": 54.9704625,
  "lon": -1.3641568
},
{
  "type": "node",
  "id": 2441950028,
  "lat": 54.9704736,
  "lon": -1.3640616
},
{
  "type": "node",
  "id": 2441950029,
  "lat": 54.9704809,
  "lon": -1.3642429
},
{
  "type": "node",
  "id": 2441950031,
  "lat": 54.9704898,
  "lon": -1.3641735
},
{
  "type": "node",
  "id": 2441950032,
  "lat": 54.9704920,
  "lon": -1.3640539
},
{
  "type": "node",
  "id": 2441950034,
  "lat": 54.9705040,
  "lon": -1.3647449
},
{
  "type": "node",
  "id": 2441950035,
  "lat": 54.9705097,
  "lon": -1.3641593
},
{
  "type": "node",
  "id": 2441950036,
  "lat": 54.9705105,
  "lon": -1.3640796
},
{
  "type": "node",
  "id": 2441950038,
  "lat": 54.9705186,
  "lon": -1.3641207
},
{
  "type": "node",
  "id": 2441950039,
  "lat": 54.9705201,
  "lon": -1.3646280
},
{
  "type": "node",
  "id": 2441950042,
  "lat": 54.9705599,
  "lon": -1.3646442
},
{
  "type": "node",
  "id": 2441950050,
  "lat": 54.9706095,
  "lon": -1.3642981
},
{
  "type": "node",
  "id": 2201909695,
  "lat": 55.1894897,
  "lon": -1.5475887
},
{
  "type": "node",
  "id": 2201909696,
  "lat": 55.1894897,
  "lon": -1.5476671
},
{
  "type": "node",
  "id": 2201909698,
  "lat": 55.1895040,
  "lon": -1.5475041
},
{
  "type": "node",
  "id": 2201909699,
  "lat": 55.1895085,
  "lon": -1.5477298
},
{
  "type": "node",
  "id": 2201909703,
  "lat": 55.1895345,
  "lon": -1.5477846
},
{
  "type": "node",
  "id": 2201909709,
  "lat": 55.1895724,
  "lon": -1.5476142
},
{
  "type": "node",
  "id": 2201909710,
  "lat": 55.1895726,
  "lon": -1.5478195
},
{
  "type": "node",
  "id": 2201909711,
  "lat": 55.1895743,
  "lon": -1.5475798
},
{
  "type": "node",
  "id": 2201909713,
  "lat": 55.1895762,
  "lon": -1.5476419
},
{
  "type": "node",
  "id": 2201909715,
  "lat": 55.1895844,
  "lon": -1.5476707
},
{
  "type": "node",
  "id": 2201909716,
  "lat": 55.1895939,
  "lon": -1.5476929
},
{
  "type": "node",
  "id": 2201909718,
  "lat": 55.1896072,
  "lon": -1.5477128
},
{
  "type": "node",
  "id": 2201909719,
  "lat": 55.1896087,
  "lon": -1.5478410
},
{
  "type": "node",
  "id": 2201909720,
  "lat": 55.1896191,
  "lon": -1.5475751
},
{
  "type": "node",
  "id": 2201909721,
  "lat": 55.1896336,
  "lon": -1.5476222
},
{
  "type": "node",
  "id": 2201909732,
  "lat": 55.1897046,
  "lon": -1.5467579
},
{
  "type": "node",
  "id": 2201909747,
  "lat": 55.1898345,
  "lon": -1.5468044
},
{
  "type": "node",
  "id": 2201909748,
  "lat": 55.1898356,
  "lon": -1.5467726
},
{
  "type": "node",
  "id": 2201909750,
  "lat": 55.1898741,
  "lon": -1.5479673
},
{
  "type": "node",
  "id": 2201909752,
  "lat": 55.1899109,
  "lon": -1.5468842
},
{
  "type": "node",
  "id": 2201909753,
  "lat": 55.1899137,
  "lon": -1.5478615
},
{
  "type": "node",
  "id": 2201909754,
  "lat": 55.1899567,
  "lon": -1.5467767
},
{
  "type": "node",
  "id": 2201909759,
  "lat": 55.1900539,
  "lon": -1.5469518
},
{
  "type": "node",
  "id": 2201909760,
  "lat": 55.1900670,
  "lon": -1.5469210
},
{
  "type": "node",
  "id": 2201909763,
  "lat": 55.1900923,
  "lon": -1.5481062
},
{
  "type": "node",
  "id": 2201909765,
  "lat": 55.1900973,
  "lon": -1.5471174
},
{
  "type": "node",
  "id": 2201909766,
  "lat": 55.1901272,
  "lon": -1.5478431
},
{
  "type": "node",
  "id": 2201909770,
  "lat": 55.1901585,
  "lon": -1.5470753
},
{
  "type": "node",
  "id": 2201909771,
  "lat": 55.1901762,
  "lon": -1.5479061
},
{
  "type": "node",
  "id": 2201909772,
  "lat": 55.1901786,
  "lon": -1.5473553
},
{
  "type": "node",
  "id": 2201909773,
  "lat": 55.1901844,
  "lon": -1.5472925
},
{
  "type": "node",
  "id": 2201909775,
  "lat": 55.1901924,
  "lon": -1.5476914
},
{
  "type": "node",
  "id": 2201909777,
  "lat": 55.1902041,
  "lon": -1.5472790
},
{
  "type": "node",
  "id": 2201909778,
  "lat": 55.1902045,
  "lon": -1.5474623
},
{
  "type": "node",
  "id": 2201909779,
  "lat": 55.1902103,
  "lon": -1.5476950
},
{
  "type": "node",
  "id": 2201909780,
  "lat": 55.1902120,
  "lon": -1.5473631
},
{
  "type": "node",
  "id": 2201909782,
  "lat": 55.1902254,
  "lon": -1.5474665
},
{
  "type": "node",
  "id": 2201909725,
  "lat": 55.1896570,
  "lon": -1.5465645
},
{
  "type": "node",
  "id": 2201909733,
  "lat": 55.1897115,
  "lon": -1.5465707
},
{
  "type": "node",
  "id": 2358548368,
  "lat": 55.1850188,
  "lon": -1.5036137
},
{
  "type": "node",
  "id": 2358548371,
  "lat": 55.1851090,
  "lon": -1.5034160
},
{
  "type": "node",
  "id": 2358548372,
  "lat": 55.1851212,
  "lon": -1.5034374
},
{
  "type": "node",
  "id": 2358548375,
  "lat": 55.1852064,
  "lon": -1.5032542
},
{
  "type": "node",
  "id": 2358548379,
  "lat": 55.1853166,
  "lon": -1.5034553
},
{
  "type": "node",
  "id": 2358548393,
  "lat": 55.1854735,
  "lon": -1.5045011
},
{
  "type": "node",
  "id": 2358548395,
  "lat": 55.1854888,
  "lon": -1.5044931
},
{
  "type": "node",
  "id": 6504507622,
  "lat": 55.1851488,
  "lon": -1.5038652
},
{
  "type": "node",
  "id": 6504507631,
  "lat": 55.1852340,
  "lon": -1.5040299
}

  ]
}
