{
  "version": 0.6,
  "generator": "Overpass API 0.7.55.1011 6c2efc30",
  "osm3s": {
    "timestamp_osm_base": "2020-02-14T12:52:02Z",
    "copyright": "The data included in this document is from www.openstreetmap.org. The data is made available under ODbL."
  },
  "elements": [

{
  "type": "node",
  "id": 624532610,
  "lat": 47.4780639,
  "lon": -0.5575814,
  "tags": {
    "name": "Musée Jean-Lurçat et de la tapisserie contemporaine",
    "phone": "+33 2 41 24 18 45",
    "ref:FR:museofile": "M0751",
    "short_name": "Musée Jean-Lurçat",
    "source": "Ministère de la Culture - Muséofile - 09/2019",
    "start_date": "1967",
    "tourism": "museum",
    "website": "http://www.musees.angers.fr",
    "wikidata": "Q1423719",
    "wikipedia": "fr:Musée Jean-Lurçat et de la tapisserie contemporaine"
  }
},
{
  "type": "node",
  "id": 624533673,
  "lat": 47.4697385,
  "lon": -0.5606345,
  "tags": {
    "name": "Galerie de l'Apocalypse",
    "opening_hours": "Sep-Apr: Mo-Su 10:00-17:30; May-Aug: Mo-Su,PH 09:30-18:30",
    "tourism": "museum"
  }
},
{
  "type": "node",
  "id": 1455828346,
  "lat": 47.5411070,
  "lon": -0.1046174,
  "tags": {
    "amenity": "place_of_worship",
    "building": "chapel",
    "denomination": "roman_catholic",
    "name": "Chapelle de la Vraie Croix",
    "religion": "christian",
    "tourism": "museum"
  }
},
{
  "type": "node",
  "id": 1455968994,
  "lat": 47.5414021,
  "lon": -0.1018237,
  "tags": {
    "name": "Musée d’art et d’histoire de Baugé",
    "tourism": "museum"
  }
},
{
  "type": "node",
  "id": 1455969021,
  "lat": 47.5435586,
  "lon": -0.0995455,
  "tags": {
    "name": "Apothicairerie de l’Hôtel Dieu",
    "tourism": "museum"
  }
},
{
  "type": "node",
  "id": 1733120990,
  "lat": 47.3812468,
  "lon": -0.1085601,
  "tags": {
    "man_made": "watermill",
    "name": "L'Hydronef",
    "tourism": "museum",
    "website": "http://www.hydronef.com"
  }
},
{
  "type": "node",
  "id": 1976544251,
  "lat": 47.5952291,
  "lon": -0.1839772,
  "tags": {
    "name": "Clocher de l'Église Saint-Médard",
    "phone": "+33 2 41 90 12 07",
    "tourism": "museum",
    "website": "http://chevire.com/tourisme_et_culture.htm",
    "wikidata": "Q3583264"
  }
},
{
  "type": "node",
  "id": 2427017251,
  "lat": 47.2999784,
  "lon": -0.6335965,
  "tags": {
    "name": "Musée de la vigne et du vin d'Anjou",
    "source": "Musée de la vigne et du vin d'Anjou",
    "tourism": "museum"
  }
},
{
  "type": "node",
  "id": 2717894382,
  "lat": 47.2328084,
  "lon": -0.2960487,
  "tags": {
    "addr:housenumber": "14",
    "addr:street": "Rue du Musée",
    "name": "Musée Troglodyte",
    "tourism": "museum",
    "website": "www.troglodyte.fr"
  }
},
{
  "type": "node",
  "id": 2831561839,
  "lat": 47.4505529,
  "lon": -0.5426357,
  "tags": {
    "addr:city": "Angers",
    "addr:postcode": "49000",
    "name": "Musée François Cacheux",
    "tourism": "museum"
  }
},
{
  "type": "node",
  "id": 3161471085,
  "lat": 47.3159306,
  "lon": -0.8036322,
  "tags": {
    "name": "Musée des Métiers",
    "tourism": "museum",
    "website": "https://www.musee-metiers.fr/"
  }
},
{
  "type": "node",
  "id": 4734585323,
  "lat": 47.4573395,
  "lon": -0.5648421,
  "tags": {
    "name": "Musée du Génie",
    "tourism": "museum",
    "website": "https://www.musee-du-genie-angers.fr/",
    "wikidata": "Q3330433",
    "wikipedia": "fr:Musée du Génie"
  }
},
{
  "type": "node",
  "id": 5201578432,
  "lat": 47.4607708,
  "lon": -0.4880265,
  "tags": {
    "name": "Espace culturel Pierre Audouys",
    "tourism": "museum"
  }
},
{
  "type": "node",
  "id": 5202430967,
  "lat": 47.4684324,
  "lon": -0.4948518,
  "tags": {
    "addr:housenumber": "49",
    "addr:street": "Place Jean XXIII",
    "name": "École de Musique S.I.A.M",
    "tourism": "museum"
  }
},
{
  "type": "node",
  "id": 5429590458,
  "lat": 47.4252145,
  "lon": -0.5256304,
  "tags": {
    "addr:city": "Les Ponts-de-Cé",
    "addr:housenumber": "4",
    "addr:postcode": "49130",
    "addr:street": "Rue Charles de Gaulle",
    "description": " Situé dans le donjon du château des Ponts-de-Cé, le Musée des Coiffes rassemble plus de 400 coiffes et bonnets d'Anjou et d'autres provinces françaises. ",
    "name": "Musée des coiffes et des traditions",
    "phone": "+33 2 41 79 75 79",
    "tourism": "museum"
  }
},
{
  "type": "way",
  "id": 125991770,
  "nodes": [
    1397897462,
    1397897299,
    1397897348,
    1397896887,
    1397896774,
    1397896659,
    1397896965,
    1397896247,
    1397896484,
    1397896377,
    1397896438,
    1397896267,
    1397896453,
    1397896596,
    1397896678,
    1397896736,
    1397896935,
    1397897099,
    1397897031,
    1397897384,
    1397897677,
    1397897771,
    1397897462
  ],
  "tags": {
    "addr:city": "Trélazé",
    "addr:housenumber": "32",
    "addr:postcode": "49800",
    "addr:street": "Chemin de la Maraichère",
    "building": "yes",
    "name": "Musée de l'Ardoise",
    "phone": "+33 2 41 69 04 71",
    "source": "cadastre-dgi-fr source : Direction Générale des Impôts - Cadastre. Mise à jour : 2011",
    "tourism": "museum",
    "website": "http://www.lemuseedelardoise.fr/",
    "wikidata": "Q3330091",
    "wikipedia": "fr:Musée de l’ardoise de Trélazé"
  }
},
{
  "type": "way",
  "id": 126922667,
  "nodes": [
    1405652667,
    1405652649,
    1405651867,
    1405651450,
    1405650529,
    1405650552,
    1405650801,
    1405650972,
    1405651381,
    1405651786,
    1405651849,
    1405652641,
    1405652818,
    1405652956,
    1405653024,
    1405653496,
    1405654749,
    1405653980,
    1405653564,
    1405653216,
    1405653108,
    1405652667
  ],
  "tags": {
    "addr:city": "Angers",
    "addr:housenumber": "32",
    "addr:postcode": "49100",
    "addr:street": "Rue Lenepveu",
    "building": "yes",
    "name": "Musée Pincé",
    "source": "cadastre-dgi-fr source : Direction Générale des Impôts - Cadastre. Mise à jour : 2011",
    "tourism": "museum",
    "wikipedia": "fr:Logis Pincé"
  }
},
{
  "type": "way",
  "id": 126924126,
  "nodes": [
    1405570895,
    1405570724,
    1405571002,
    1405570666,
    1405570615,
    1405570298,
    1405569994,
    1405569972,
    1405569951,
    1405569932,
    1405569884,
    1405569857,
    1405569808,
    1405569784,
    1405569750,
    1405569723,
    1405569712,
    1405569692,
    1405569710,
    1405569708,
    1405569720,
    1405569691,
    1405569664,
    1405569649,
    1405569648,
    1405569671,
    1405569690,
    1405569965,
    1405569863,
    1405569835,
    1405569950,
    1405569931,
    1405570297,
    1405570895
  ],
  "tags": {
    "access": "yes",
    "building": "civic",
    "name": "Maison de l'environnement",
    "operator": "Mairie",
    "operator:type": "public",
    "source": "cadastre-dgi-fr source : Direction Générale des Impôts - Cadastre. Mise à jour : 2011",
    "tourism": "museum"
  }
},
{
  "type": "way",
  "id": 126960360,
  "nodes": [
    1405618550,
    1405618081,
    1405617075,
    1405616704,
    1405616658,
    1405616736,
    1405616300,
    1405616229,
    1405616179,
    1405616273,
    1405616141,
    1405616285,
    1405616299,
    1405616609,
    1405616474,
    1405616359,
    1405616288,
    1405616351,
    1405616192,
    1405616131,
    1405616074,
    1405616129,
    1405615966,
    1405615913,
    1405615833,
    1405615953,
    1405615994,
    1405616723,
    1405616703,
    1405616821,
    1405616861,
    1405616899,
    1405616852,
    1405617019,
    1405617069,
    1405617138,
    1405617088,
    1405617443,
    1405617492,
    1405617587,
    1405617532,
    1405617755,
    1405617945,
    1405617968,
    6681513731,
    6681513734,
    6681513735,
    6681513736,
    6681513737,
    6681513732,
    1405618284,
    6681513733,
    1405618363,
    1405618194,
    1405618536,
    1405618598,
    1405618632,
    1405618612,
    1405619022,
    1405619110,
    6681513730,
    1405618909,
    1405618784,
    1405618380,
    1405619485,
    1405619598,
    1405619711,
    1405619524,
    1405619473,
    6681513738,
    1405618567,
    1405618938,
    1405618550
  ],
  "tags": {
    "addr:city": "Angers",
    "addr:housenumber": "33 bis",
    "addr:postcode": "49100",
    "addr:street": "Rue Toussaint",
    "air_conditioning": "yes",
    "building": "yes",
    "description": "Restaurée en 1984, l'abbatiale Toussaint (13e siècle), couverte d'une audacieuse verrière contemporaine, accueille les oeuvres du sculpteur Pierre-Jean David, dit David d'Angers (1788-1856).",
    "email": "musees@ville.angers.fr",
    "fee": "yes",
    "internet_access": "wlan",
    "internet_access:fee": "no",
    "internet_access:ssid": "Angers Public",
    "level": "0,_1",
    "name": "Galerie David d'Angers",
    "opening_hours": "Tu-Su 10:00-18:00",
    "operator": "Commune d'Angers",
    "operator:type": "public",
    "payment:cash": "yes",
    "payment:cheque": "yes",
    "payment:credit_cards": "yes",
    "phone": "+33 2 41 05 38 90",
    "source": "cadastre-dgi-fr source : Direction Générale des Impôts - Cadastre. Mise à jour : 2011;local knowledge;aerial imagery;streetlevel imagery",
    "tourism": "museum",
    "website": "http://musees.angers.fr/les-lieux/galerie-david-d-angers/le-lieu/index.html",
    "wheelchair": "limited",
    "wikidata": "Q3094590",
    "wikipedia": "fr:Galerie David d'Angers"
  }
},
{
  "type": "way",
  "id": 126965407,
  "nodes": [
    1405615708,
    1405616155,
    1405616174,
    1405616259,
    1405615500,
    1405615106,
    1405615076,
    1405615118,
    1405614423,
    1405614383,
    1405614325,
    1405614378,
    1405614248,
    1405614385,
    1405614641,
    1405615567,
    1405615293,
    1405616433,
    1405613935,
    1405611000,
    1405610155,
    1405610108,
    1405610769,
    1405611497,
    1405612288,
    1405613754,
    1405613996,
    1405614200,
    1405615259,
    1405615144,
    1405615706,
    6681513721,
    1405616033,
    1405616382,
    1405616721,
    1405617051,
    1405616063,
    1405616149,
    1405616503,
    1405616880,
    1405617936,
    1405618213,
    1405618325,
    1405617893,
    1405618362,
    1405617938,
    1405619166,
    6681513718,
    6681513719,
    6681513720,
    1405618614,
    1405617053,
    1405616414,
    1405616454,
    1405616266,
    1405616530,
    1405616548,
    1405616387,
    1405617953,
    1405618274,
    1405618710,
    1405619071,
    1405619263,
    1405618627,
    1405617846,
    1405616780,
    1405616771,
    1405616832,
    1405616795,
    1405616735,
    1405616292,
    1405615708
  ],
  "tags": {
    "addr:city": "Angers",
    "addr:housenumber": "14",
    "addr:postcode": "49100",
    "addr:street": "Rue du Musée",
    "air_conditioning": "yes",
    "building": "yes",
    "description": "Le musée des Beaux-Arts d'Angers est un musée d'art situé à Angers, dans un ancien hôtel particulier, le logis Barrault, place Saint-Éloi à proximité de la cité historique d'Angers.",
    "email": "musees@ville.angers.fr",
    "fee": "yes",
    "internet_access": "no",
    "level": "-2,_-1,_0,_1,_2",
    "name": "Musée des Beaux-Arts",
    "opening_hours": "Tu-Su 10:00-18:00",
    "operator": "Commune d'Angers",
    "operator:type": "public",
    "payment:cash": "yes",
    "payment:cheque": "yes",
    "payment:credit_cards": "yes",
    "phone": "+33 2 41 05 38 00",
    "source": "cadastre-dgi-fr source : Direction Générale des Impôts - Cadastre. Mise à jour : 2011;local knowledge;aerial imagery;streetlevel imagery",
    "tourism": "museum",
    "website": "http://musees.angers.fr/les-lieux/musee-des-beaux-arts/le-lieu/index.html",
    "wheelchair": "yes",
    "wikidata": "Q3277885",
    "wikipedia": "fr:Musée des Beaux-Arts d'Angers"
  }
},
{
  "type": "way",
  "id": 145220928,
  "nodes": [
    1405616547,
    1405616050,
    1405615971,
    1405615877,
    1405615965,
    1405615987,
    1405615585,
    1405615830,
    1405615333,
    1405615173,
    1405615130,
    1405614620,
    1405614580,
    1405614932,
    1405615083,
    1405615059,
    1405615035,
    1405615022,
    1405615012,
    1405615021,
    1405615028,
    1405615049,
    1405615082,
    1405615096,
    1405614956,
    1405614681,
    1405614603,
    1405614369,
    1405614401,
    1405613929,
    1405613822,
    1405613721,
    1405613819,
    1405613522,
    1405613459,
    1405613352,
    1405613442,
    1405613425,
    1405613382,
    1405613317,
    1405613440,
    1405613403,
    1405613283,
    1405613016,
    1586514886,
    1586514887,
    345216596,
    1586514888,
    1405617086,
    1405617039,
    1405616767,
    1405617885,
    1405618323,
    1405618451,
    1405619464,
    1405617731,
    1405616547
  ],
  "tags": {
    "name": "Collégiale Saint-Martin",
    "tourism": "museum",
    "wikipedia": "fr:Église Saint-Martin d'Angers"
  }
},
{
  "type": "way",
  "id": 167693311,
  "nodes": [
    1790677780,
    1475207355,
    1475201367,
    1475193153,
    1475194964,
    1475194271,
    1475189600,
    1790677781,
    1790677782,
    1790677780
  ],
  "tags": {
    "name": "Musée du Granit",
    "source": "www.becon.mairie49.fr/index.php?page=article&typer=13&nb=1",
    "tourism": "museum",
    "website": "museedugranite.free.fr"
  }
},
{
  "type": "way",
  "id": 237577376,
  "nodes": [
    2454585940,
    2454586010,
    2454586029,
    2454585870,
    2454585823,
    2454585842,
    2454585757,
    2454585783,
    2454585675,
    2454585730,
    2454585683,
    2454585722,
    2454585803,
    2454585801,
    2454585851,
    2454585837,
    2454585970,
    5714543624,
    2454585858,
    2454585983,
    2454585940
  ],
  "tags": {
    "addr:city": "Montjean-sur-Loire",
    "addr:housenumber": "20",
    "addr:postcode": "49570",
    "addr:street": "Rue d'Anjou",
    "building": "yes",
    "name": "CAP LOIRE 20 rue d’Anjou 49570 Montjean-sur-Loire",
    "source": "cadastre-dgi-fr source : Direction Générale des Finances Publiques - Cadastre. Mise à jour : 2013",
    "tourism": "museum"
  }
},
{
  "type": "way",
  "id": 239690081,
  "nodes": [
    2474613519,
    2474613299,
    6676226217,
    6676226218,
    6676226219,
    2474613294,
    2474613280,
    6676226216,
    2474613279,
    2474613278,
    6676226230,
    2474613245,
    2474613304,
    2474613315,
    2474613328,
    6676798985,
    2474613332,
    2474613577,
    6676777382,
    2474613595,
    2474613600,
    6676226222,
    2474613598,
    6676226221,
    6676226220,
    6676226223,
    2474613574,
    6676226224,
    2474613548,
    6676226225,
    2474613538,
    6676226226,
    2474613531,
    2474613528,
    2474613523,
    6676226227,
    2474613519
  ],
  "tags": {
    "access": "yes",
    "addr:city": "Villevêque",
    "addr:housenumber": "44",
    "addr:postcode": "49140",
    "addr:street": "Rue du Général de Gaulle",
    "air_conditioning": "no",
    "building": "yes",
    "castle_type": "manor",
    "description": "Le château de Villevêque, est une maison forte qui fut la résidence épiscopale des évêques d'Angers. Il abrite aujourd'hui une collection d'œuvres d'arts léguée en même temps que la demeure à la ville d'Angers par le dernier propriétaire des lieux.",
    "email": "musees@ville.angers.fr",
    "fee": "yes",
    "historic": "castle",
    "historic:civilization": "medieval",
    "internet_access": "no",
    "level": "0",
    "name": "Musée-château de Villevêque",
    "opening_hours": "Tu-Su 14:00-18:00",
    "operator": "Commune d'Angers",
    "operator:type": "public",
    "payment:cash": "yes",
    "phone": "+33 2 41 76 88 07",
    "source": "cadastre-dgi-fr source : Direction Générale des Finances Publiques - Cadastre. Mise à jour : 2013",
    "tourism": "museum",
    "wheelchair": "yes",
    "wikidata": "Q2243875",
    "wikipedia": "fr:Château de Villevêque"
  }
},
{
  "type": "relation",
  "id": 8142950,
  "members": [
    {
      "type": "way",
      "ref": 126924338,
      "role": "outer"
    },
    {
      "type": "way",
      "ref": 126924336,
      "role": "outer"
    }
  ],
  "tags": {
    "addr:city": "Angers",
    "addr:housenumber": "43",
    "addr:postcode": "49000",
    "addr:street": "Rue Jules Guitton",
    "building": "public",
    "name": "Museum de Sciences naturelles",
    "operator": "Mairie d'Angers",
    "source": "cadastre-dgi-fr source : Direction Générale des Impôts - Cadastre. Mise à jour : 2011",
    "tourism": "museum",
    "type": "multipolygon",
    "wheelchair": "no",
    "wikidata": "Q3330868",
    "wikipedia": "fr:Muséum des sciences naturelles d'Angers"
  }
},
{
  "type": "node",
  "id": 2454585675,
  "lat": 47.3896980,
  "lon": -0.8640960
},
{
  "type": "node",
  "id": 2454585683,
  "lat": 47.3896990,
  "lon": -0.8639670
},
{
  "type": "node",
  "id": 2454585722,
  "lat": 47.3897150,
  "lon": -0.8638660
},
{
  "type": "node",
  "id": 2454585730,
  "lat": 47.3897170,
  "lon": -0.8639740
},
{
  "type": "node",
  "id": 2454585757,
  "lat": 47.3897330,
  "lon": -0.8643040
},
{
  "type": "node",
  "id": 2454585783,
  "lat": 47.3897630,
  "lon": -0.8641190
},
{
  "type": "node",
  "id": 2454585801,
  "lat": 47.3897770,
  "lon": -0.8639150
},
{
  "type": "node",
  "id": 2454585803,
  "lat": 47.3897810,
  "lon": -0.8638880
},
{
  "type": "node",
  "id": 2454585823,
  "lat": 47.3898000,
  "lon": -0.8645150
},
{
  "type": "node",
  "id": 2454585837,
  "lat": 47.3898120,
  "lon": -0.8640000
},
{
  "type": "node",
  "id": 2454585842,
  "lat": 47.3898170,
  "lon": -0.8645010
},
{
  "type": "node",
  "id": 2454585851,
  "lat": 47.3898230,
  "lon": -0.8639310
},
{
  "type": "node",
  "id": 2454585858,
  "lat": 47.3898250,
  "lon": -0.8642640
},
{
  "type": "node",
  "id": 2454585870,
  "lat": 47.3898300,
  "lon": -0.8645860
},
{
  "type": "node",
  "id": 2454585940,
  "lat": 47.3898500,
  "lon": -0.8643890
},
{
  "type": "node",
  "id": 2454585970,
  "lat": 47.3898630,
  "lon": -0.8640170
},
{
  "type": "node",
  "id": 2454585983,
  "lat": 47.3898700,
  "lon": -0.8643710
},
{
  "type": "node",
  "id": 2454586010,
  "lat": 47.3898840,
  "lon": -0.8644710
},
{
  "type": "node",
  "id": 2454586029,
  "lat": 47.3899040,
  "lon": -0.8645180
},
{
  "type": "node",
  "id": 5714543624,
  "lat": 47.3898300,
  "lon": -0.8642316
},
{
  "type": "node",
  "id": 1475189600,
  "lat": 47.5042610,
  "lon": -0.8034900
},
{
  "type": "node",
  "id": 1475193153,
  "lat": 47.5041640,
  "lon": -0.8034030
},
{
  "type": "node",
  "id": 1475194271,
  "lat": 47.5042440,
  "lon": -0.8034280
},
{
  "type": "node",
  "id": 1475194964,
  "lat": 47.5042280,
  "lon": -0.8033630
},
{
  "type": "node",
  "id": 1475201367,
  "lat": 47.5040800,
  "lon": -0.8034550
},
{
  "type": "node",
  "id": 1475207355,
  "lat": 47.5039760,
  "lon": -0.8035210
},
{
  "type": "node",
  "id": 1790677780,
  "lat": 47.5040382,
  "lon": -0.8037899
},
{
  "type": "node",
  "id": 1790677781,
  "lat": 47.5043011,
  "lon": -0.8036438
},
{
  "type": "node",
  "id": 1790677782,
  "lat": 47.5043106,
  "lon": -0.8036901
},
{
  "type": "node",
  "id": 1405569648,
  "lat": 47.4657100,
  "lon": -0.5878700
},
{
  "type": "node",
  "id": 1405569649,
  "lat": 47.4657100,
  "lon": -0.5878750
},
{
  "type": "node",
  "id": 1405569664,
  "lat": 47.4657110,
  "lon": -0.5878790
},
{
  "type": "node",
  "id": 1405569671,
  "lat": 47.4657120,
  "lon": -0.5878650
},
{
  "type": "node",
  "id": 1405569690,
  "lat": 47.4657130,
  "lon": -0.5878610
},
{
  "type": "node",
  "id": 1405569691,
  "lat": 47.4657130,
  "lon": -0.5878820
},
{
  "type": "node",
  "id": 1405569692,
  "lat": 47.4657130,
  "lon": -0.5879000
},
{
  "type": "node",
  "id": 1405569708,
  "lat": 47.4657140,
  "lon": -0.5878910
},
{
  "type": "node",
  "id": 1405569710,
  "lat": 47.4657140,
  "lon": -0.5878940
},
{
  "type": "node",
  "id": 1405569712,
  "lat": 47.4657140,
  "lon": -0.5879030
},
{
  "type": "node",
  "id": 1405569720,
  "lat": 47.4657150,
  "lon": -0.5878860
},
{
  "type": "node",
  "id": 1405569723,
  "lat": 47.4657160,
  "lon": -0.5879090
},
{
  "type": "node",
  "id": 1405569750,
  "lat": 47.4657180,
  "lon": -0.5879130
},
{
  "type": "node",
  "id": 1405569784,
  "lat": 47.4657210,
  "lon": -0.5879160
},
{
  "type": "node",
  "id": 1405569808,
  "lat": 47.4657240,
  "lon": -0.5879180
},
{
  "type": "node",
  "id": 1405569835,
  "lat": 47.4657260,
  "lon": -0.5877750
},
{
  "type": "node",
  "id": 1405569857,
  "lat": 47.4657270,
  "lon": -0.5879200
},
{
  "type": "node",
  "id": 1405569863,
  "lat": 47.4657280,
  "lon": -0.5877930
},
{
  "type": "node",
  "id": 1405569884,
  "lat": 47.4657310,
  "lon": -0.5879200
},
{
  "type": "node",
  "id": 1405569931,
  "lat": 47.4657360,
  "lon": -0.5877460
},
{
  "type": "node",
  "id": 1405569932,
  "lat": 47.4657360,
  "lon": -0.5879180
},
{
  "type": "node",
  "id": 1405569950,
  "lat": 47.4657390,
  "lon": -0.5877500
},
{
  "type": "node",
  "id": 1405569951,
  "lat": 47.4657390,
  "lon": -0.5879150
},
{
  "type": "node",
  "id": 1405569965,
  "lat": 47.4657410,
  "lon": -0.5878090
},
{
  "type": "node",
  "id": 1405569972,
  "lat": 47.4657420,
  "lon": -0.5879100
},
{
  "type": "node",
  "id": 1405569994,
  "lat": 47.4657460,
  "lon": -0.5878980
},
{
  "type": "node",
  "id": 1405570297,
  "lat": 47.4657980,
  "lon": -0.5876250
},
{
  "type": "node",
  "id": 1405570298,
  "lat": 47.4657980,
  "lon": -0.5879580
},
{
  "type": "node",
  "id": 1405570615,
  "lat": 47.4658420,
  "lon": -0.5878730
},
{
  "type": "node",
  "id": 1405570666,
  "lat": 47.4658510,
  "lon": -0.5878830
},
{
  "type": "node",
  "id": 1405570724,
  "lat": 47.4658610,
  "lon": -0.5877640
},
{
  "type": "node",
  "id": 1405570895,
  "lat": 47.4658840,
  "lon": -0.5877180
},
{
  "type": "node",
  "id": 1405571002,
  "lat": 47.4658930,
  "lon": -0.5877970
},
{
  "type": "node",
  "id": 345216596,
  "lat": 47.4690443,
  "lon": -0.5517668
},
{
  "type": "node",
  "id": 1405610108,
  "lat": 47.4685350,
  "lon": -0.5547550
},
{
  "type": "node",
  "id": 1405610155,
  "lat": 47.4685400,
  "lon": -0.5547610
},
{
  "type": "node",
  "id": 1405610769,
  "lat": 47.4685850,
  "lon": -0.5546750
},
{
  "type": "node",
  "id": 1405611000,
  "lat": 47.4686020,
  "lon": -0.5548400
},
{
  "type": "node",
  "id": 1405611497,
  "lat": 47.4686390,
  "lon": -0.5545880
},
{
  "type": "node",
  "id": 1405612288,
  "lat": 47.4687130,
  "lon": -0.5544690
},
{
  "type": "node",
  "id": 1405613016,
  "lat": 47.4687390,
  "lon": -0.5516140
},
{
  "type": "node",
  "id": 1405613283,
  "lat": 47.4687580,
  "lon": -0.5516420
},
{
  "type": "node",
  "id": 1405613317,
  "lat": 47.4687610,
  "lon": -0.5516960
},
{
  "type": "node",
  "id": 1405613352,
  "lat": 47.4687630,
  "lon": -0.5517390
},
{
  "type": "node",
  "id": 1405613382,
  "lat": 47.4687650,
  "lon": -0.5517010
},
{
  "type": "node",
  "id": 1405613403,
  "lat": 47.4687660,
  "lon": -0.5516740
},
{
  "type": "node",
  "id": 1405613425,
  "lat": 47.4687670,
  "lon": -0.5517030
},
{
  "type": "node",
  "id": 1405613440,
  "lat": 47.4687680,
  "lon": -0.5516780
},
{
  "type": "node",
  "id": 1405613442,
  "lat": 47.4687680,
  "lon": -0.5517310
},
{
  "type": "node",
  "id": 1405613459,
  "lat": 47.4687690,
  "lon": -0.5517530
},
{
  "type": "node",
  "id": 1405613522,
  "lat": 47.4687730,
  "lon": -0.5517470
},
{
  "type": "node",
  "id": 1405613721,
  "lat": 47.4687840,
  "lon": -0.5517920
},
{
  "type": "node",
  "id": 1405613754,
  "lat": 47.4687870,
  "lon": -0.5543500
},
{
  "type": "node",
  "id": 1405613819,
  "lat": 47.4687910,
  "lon": -0.5517800
},
{
  "type": "node",
  "id": 1405613822,
  "lat": 47.4687910,
  "lon": -0.5518030
},
{
  "type": "node",
  "id": 1405613929,
  "lat": 47.4687990,
  "lon": -0.5517920
},
{
  "type": "node",
  "id": 1405613935,
  "lat": 47.4687990,
  "lon": -0.5544990
},
{
  "type": "node",
  "id": 1405613996,
  "lat": 47.4688050,
  "lon": -0.5543230
},
{
  "type": "node",
  "id": 1405614200,
  "lat": 47.4688240,
  "lon": -0.5542910
},
{
  "type": "node",
  "id": 1405614248,
  "lat": 47.4688270,
  "lon": -0.5551020
},
{
  "type": "node",
  "id": 1405614325,
  "lat": 47.4688340,
  "lon": -0.5551270
},
{
  "type": "node",
  "id": 1405614369,
  "lat": 47.4688380,
  "lon": -0.5518650
},
{
  "type": "node",
  "id": 1405614378,
  "lat": 47.4688390,
  "lon": -0.5551170
},
{
  "type": "node",
  "id": 1405614383,
  "lat": 47.4688390,
  "lon": -0.5551330
},
{
  "type": "node",
  "id": 1405614385,
  "lat": 47.4688400,
  "lon": -0.5550790
},
{
  "type": "node",
  "id": 1405614401,
  "lat": 47.4688420,
  "lon": -0.5518590
},
{
  "type": "node",
  "id": 1405614423,
  "lat": 47.4688440,
  "lon": -0.5551230
},
{
  "type": "node",
  "id": 1405614580,
  "lat": 47.4688500,
  "lon": -0.5520450
},
{
  "type": "node",
  "id": 1405614603,
  "lat": 47.4688510,
  "lon": -0.5518880
},
{
  "type": "node",
  "id": 1405614620,
  "lat": 47.4688520,
  "lon": -0.5520490
},
{
  "type": "node",
  "id": 1405614641,
  "lat": 47.4688530,
  "lon": -0.5550960
},
{
  "type": "node",
  "id": 1405614681,
  "lat": 47.4688560,
  "lon": -0.5518810
},
{
  "type": "node",
  "id": 1405614932,
  "lat": 47.4688710,
  "lon": -0.5520150
},
{
  "type": "node",
  "id": 1405614956,
  "lat": 47.4688720,
  "lon": -0.5519060
},
{
  "type": "node",
  "id": 1405615012,
  "lat": 47.4688780,
  "lon": -0.5519600
},
{
  "type": "node",
  "id": 1405615021,
  "lat": 47.4688790,
  "lon": -0.5519530
},
{
  "type": "node",
  "id": 1405615022,
  "lat": 47.4688790,
  "lon": -0.5519710
},
{
  "type": "node",
  "id": 1405615028,
  "lat": 47.4688800,
  "lon": -0.5519480
},
{
  "type": "node",
  "id": 1405615035,
  "lat": 47.4688810,
  "lon": -0.5519760
},
{
  "type": "node",
  "id": 1405615049,
  "lat": 47.4688830,
  "lon": -0.5519420
},
{
  "type": "node",
  "id": 1405615059,
  "lat": 47.4688840,
  "lon": -0.5519820
},
{
  "type": "node",
  "id": 1405615076,
  "lat": 47.4688870,
  "lon": -0.5551930
},
{
  "type": "node",
  "id": 1405615082,
  "lat": 47.4688880,
  "lon": -0.5519380
},
{
  "type": "node",
  "id": 1405615083,
  "lat": 47.4688880,
  "lon": -0.5519870
},
{
  "type": "node",
  "id": 1405615096,
  "lat": 47.4688900,
  "lon": -0.5519360
},
{
  "type": "node",
  "id": 1405615106,
  "lat": 47.4688910,
  "lon": -0.5551990
},
{
  "type": "node",
  "id": 1405615118,
  "lat": 47.4688930,
  "lon": -0.5551840
},
{
  "type": "node",
  "id": 1405615130,
  "lat": 47.4688950,
  "lon": -0.5521300
},
{
  "type": "node",
  "id": 1405615144,
  "lat": 47.4689202,
  "lon": -0.5543656
},
{
  "type": "node",
  "id": 1405615173,
  "lat": 47.4689020,
  "lon": -0.5521440
},
{
  "type": "node",
  "id": 1405615259,
  "lat": 47.4688966,
  "lon": -0.5543961
},
{
  "type": "node",
  "id": 1405615293,
  "lat": 47.4689140,
  "lon": -0.5549350
},
{
  "type": "node",
  "id": 1405615333,
  "lat": 47.4689180,
  "lon": -0.5521220
},
{
  "type": "node",
  "id": 1405615500,
  "lat": 47.4689300,
  "lon": -0.5551310
},
{
  "type": "node",
  "id": 1405615567,
  "lat": 47.4689340,
  "lon": -0.5549560
},
{
  "type": "node",
  "id": 1405615585,
  "lat": 47.4689350,
  "lon": -0.5522120
},
{
  "type": "node",
  "id": 1405615706,
  "lat": 47.4689254,
  "lon": -0.5543588
},
{
  "type": "node",
  "id": 1405615708,
  "lat": 47.4689440,
  "lon": -0.5552970
},
{
  "type": "node",
  "id": 1405615830,
  "lat": 47.4689530,
  "lon": -0.5521860
},
{
  "type": "node",
  "id": 1405615833,
  "lat": 47.4689530,
  "lon": -0.5555630
},
{
  "type": "node",
  "id": 1405615877,
  "lat": 47.4689580,
  "lon": -0.5522990
},
{
  "type": "node",
  "id": 1405615913,
  "lat": 47.4689620,
  "lon": -0.5555870
},
{
  "type": "node",
  "id": 1405615953,
  "lat": 47.4689670,
  "lon": -0.5555510
},
{
  "type": "node",
  "id": 1405615965,
  "lat": 47.4689680,
  "lon": -0.5522860
},
{
  "type": "node",
  "id": 1405615966,
  "lat": 47.4689680,
  "lon": -0.5555800
},
{
  "type": "node",
  "id": 1405615971,
  "lat": 47.4689690,
  "lon": -0.5523160
},
{
  "type": "node",
  "id": 1405615987,
  "lat": 47.4689710,
  "lon": -0.5522780
},
{
  "type": "node",
  "id": 1405615994,
  "lat": 47.4689710,
  "lon": -0.5555580
},
{
  "type": "node",
  "id": 1405616033,
  "lat": 47.4689587,
  "lon": -0.5543114
},
{
  "type": "node",
  "id": 1405616050,
  "lat": 47.4689780,
  "lon": -0.5523310
},
{
  "type": "node",
  "id": 1405616063,
  "lat": 47.4689810,
  "lon": -0.5545340
},
{
  "type": "node",
  "id": 1405616074,
  "lat": 47.4689840,
  "lon": -0.5556390
},
{
  "type": "node",
  "id": 1405616129,
  "lat": 47.4689910,
  "lon": -0.5556340
},
{
  "type": "node",
  "id": 1405616131,
  "lat": 47.4689910,
  "lon": -0.5556560
},
{
  "type": "node",
  "id": 1405616141,
  "lat": 47.4690005,
  "lon": -0.5557890
},
{
  "type": "node",
  "id": 1405616149,
  "lat": 47.4689930,
  "lon": -0.5545480
},
{
  "type": "node",
  "id": 1405616155,
  "lat": 47.4689930,
  "lon": -0.5552090
},
{
  "type": "node",
  "id": 1405616174,
  "lat": 47.4689960,
  "lon": -0.5552120
},
{
  "type": "node",
  "id": 1405616179,
  "lat": 47.4689770,
  "lon": -0.5558513
},
{
  "type": "node",
  "id": 1405616192,
  "lat": 47.4689980,
  "lon": -0.5556510
},
{
  "type": "node",
  "id": 1405616229,
  "lat": 47.4689828,
  "lon": -0.5558686
},
{
  "type": "node",
  "id": 1405616259,
  "lat": 47.4690040,
  "lon": -0.5551990
},
{
  "type": "node",
  "id": 1405616266,
  "lat": 47.4690060,
  "lon": -0.5549870
},
{
  "type": "node",
  "id": 1405616273,
  "lat": 47.4690119,
  "lon": -0.5558154
},
{
  "type": "node",
  "id": 1405616285,
  "lat": 47.4690090,
  "lon": -0.5557808
},
{
  "type": "node",
  "id": 1405616288,
  "lat": 47.4690090,
  "lon": -0.5556980
},
{
  "type": "node",
  "id": 1405616292,
  "lat": 47.4690100,
  "lon": -0.5553800
},
{
  "type": "node",
  "id": 1405616299,
  "lat": 47.4690106,
  "lon": -0.5557846
},
{
  "type": "node",
  "id": 1405616300,
  "lat": 47.4690191,
  "lon": -0.5558310
},
{
  "type": "node",
  "id": 1405616351,
  "lat": 47.4690150,
  "lon": -0.5556910
},
{
  "type": "node",
  "id": 1405616359,
  "lat": 47.4690160,
  "lon": -0.5557150
},
{
  "type": "node",
  "id": 1405616382,
  "lat": 47.4690115,
  "lon": -0.5542385
},
{
  "type": "node",
  "id": 1405616387,
  "lat": 47.4690180,
  "lon": -0.5550700
},
{
  "type": "node",
  "id": 1405616414,
  "lat": 47.4690200,
  "lon": -0.5549310
},
{
  "type": "node",
  "id": 1405616433,
  "lat": 47.4690210,
  "lon": -0.5547540
},
{
  "type": "node",
  "id": 1405616454,
  "lat": 47.4690220,
  "lon": -0.5549590
},
{
  "type": "node",
  "id": 1405616474,
  "lat": 47.4690240,
  "lon": -0.5557100
},
{
  "type": "node",
  "id": 1405616503,
  "lat": 47.4690309,
  "lon": -0.5545927
},
{
  "type": "node",
  "id": 1405616530,
  "lat": 47.4690300,
  "lon": -0.5550130
},
{
  "type": "node",
  "id": 1405616547,
  "lat": 47.4690330,
  "lon": -0.5524260
},
{
  "type": "node",
  "id": 1405616548,
  "lat": 47.4690330,
  "lon": -0.5550400
},
{
  "type": "node",
  "id": 1405616609,
  "lat": 47.4690441,
  "lon": -0.5557534
},
{
  "type": "node",
  "id": 1405616658,
  "lat": 47.4690244,
  "lon": -0.5559739
},
{
  "type": "node",
  "id": 1405616703,
  "lat": 47.4690530,
  "lon": -0.5554720
},
{
  "type": "node",
  "id": 1405616704,
  "lat": 47.4690320,
  "lon": -0.5559894
},
{
  "type": "node",
  "id": 1405616721,
  "lat": 47.4690488,
  "lon": -0.5541938
},
{
  "type": "node",
  "id": 1405616723,
  "lat": 47.4690550,
  "lon": -0.5554790
},
{
  "type": "node",
  "id": 1405616735,
  "lat": 47.4690560,
  "lon": -0.5552930
},
{
  "type": "node",
  "id": 1405616736,
  "lat": 47.4690652,
  "lon": -0.5559307
},
{
  "type": "node",
  "id": 1405616767,
  "lat": 47.4690600,
  "lon": -0.5519180
},
{
  "type": "node",
  "id": 1405616771,
  "lat": 47.4690600,
  "lon": -0.5552820
},
{
  "type": "node",
  "id": 1405616780,
  "lat": 47.4690620,
  "lon": -0.5552780
},
{
  "type": "node",
  "id": 1405616795,
  "lat": 47.4690640,
  "lon": -0.5553010
},
{
  "type": "node",
  "id": 1405616821,
  "lat": 47.4690680,
  "lon": -0.5554580
},
{
  "type": "node",
  "id": 1405616832,
  "lat": 47.4690690,
  "lon": -0.5552910
},
{
  "type": "node",
  "id": 1405616852,
  "lat": 47.4690720,
  "lon": -0.5554870
},
{
  "type": "node",
  "id": 1405616861,
  "lat": 47.4690730,
  "lon": -0.5554690
},
{
  "type": "node",
  "id": 1405616880,
  "lat": 47.4690760,
  "lon": -0.5546470
},
{
  "type": "node",
  "id": 1405616899,
  "lat": 47.4690780,
  "lon": -0.5554810
},
{
  "type": "node",
  "id": 1405617019,
  "lat": 47.4690940,
  "lon": -0.5555390
},
{
  "type": "node",
  "id": 1405617039,
  "lat": 47.4690980,
  "lon": -0.5518630
},
{
  "type": "node",
  "id": 1405617051,
  "lat": 47.4690990,
  "lon": -0.5543100
},
{
  "type": "node",
  "id": 1405617053,
  "lat": 47.4691005,
  "lon": -0.5547917
},
{
  "type": "node",
  "id": 1405617069,
  "lat": 47.4691000,
  "lon": -0.5555330
},
{
  "type": "node",
  "id": 1405617075,
  "lat": 47.4691010,
  "lon": -0.5559170
},
{
  "type": "node",
  "id": 1405617086,
  "lat": 47.4691020,
  "lon": -0.5518580
},
{
  "type": "node",
  "id": 1405617088,
  "lat": 47.4691020,
  "lon": -0.5555570
},
{
  "type": "node",
  "id": 1405617138,
  "lat": 47.4691070,
  "lon": -0.5555520
},
{
  "type": "node",
  "id": 1405617443,
  "lat": 47.4691190,
  "lon": -0.5555980
},
{
  "type": "node",
  "id": 1405617492,
  "lat": 47.4691250,
  "lon": -0.5555920
},
{
  "type": "node",
  "id": 1405617532,
  "lat": 47.4691270,
  "lon": -0.5556170
},
{
  "type": "node",
  "id": 1405617587,
  "lat": 47.4691320,
  "lon": -0.5556100
},
{
  "type": "node",
  "id": 1405617731,
  "lat": 47.4691440,
  "lon": -0.5523250
},
{
  "type": "node",
  "id": 1405617755,
  "lat": 47.4691450,
  "lon": -0.5556610
},
{
  "type": "node",
  "id": 1405617846,
  "lat": 47.4691570,
  "lon": -0.5553720
},
{
  "type": "node",
  "id": 1405617885,
  "lat": 47.4691632,
  "lon": -0.5520915
},
{
  "type": "node",
  "id": 1405617893,
  "lat": 47.4691761,
  "lon": -0.5546946
},
{
  "type": "node",
  "id": 1405617936,
  "lat": 47.4691710,
  "lon": -0.5544710
},
{
  "type": "node",
  "id": 1405617938,
  "lat": 47.4691871,
  "lon": -0.5547974
},
{
  "type": "node",
  "id": 1405617945,
  "lat": 47.4691740,
  "lon": -0.5556330
},
{
  "type": "node",
  "id": 1405617953,
  "lat": 47.4691760,
  "lon": -0.5552500
},
{
  "type": "node",
  "id": 1405617968,
  "lat": 47.4691770,
  "lon": -0.5556130
},
{
  "type": "node",
  "id": 1405618081,
  "lat": 47.4691850,
  "lon": -0.5561070
},
{
  "type": "node",
  "id": 1405618194,
  "lat": 47.4691933,
  "lon": -0.5556326
},
{
  "type": "node",
  "id": 1405618213,
  "lat": 47.4691950,
  "lon": -0.5545250
},
{
  "type": "node",
  "id": 1405618274,
  "lat": 47.4691993,
  "lon": -0.5552745
},
{
  "type": "node",
  "id": 1405618284,
  "lat": 47.4692009,
  "lon": -0.5556116
},
{
  "type": "node",
  "id": 1405618323,
  "lat": 47.4692018,
  "lon": -0.5520331
},
{
  "type": "node",
  "id": 1405618325,
  "lat": 47.4692020,
  "lon": -0.5546340
},
{
  "type": "node",
  "id": 1405618362,
  "lat": 47.4692120,
  "lon": -0.5547510
},
{
  "type": "node",
  "id": 1405618363,
  "lat": 47.4692000,
  "lon": -0.5556263
},
{
  "type": "node",
  "id": 1405618380,
  "lat": 47.4692072,
  "lon": -0.5557989
},
{
  "type": "node",
  "id": 1405618451,
  "lat": 47.4692120,
  "lon": -0.5520170
},
{
  "type": "node",
  "id": 1405618536,
  "lat": 47.4692190,
  "lon": -0.5556980
},
{
  "type": "node",
  "id": 1405618550,
  "lat": 47.4692210,
  "lon": -0.5561890
},
{
  "type": "node",
  "id": 1405618567,
  "lat": 47.4692220,
  "lon": -0.5561240
},
{
  "type": "node",
  "id": 1405618598,
  "lat": 47.4692240,
  "lon": -0.5556950
},
{
  "type": "node",
  "id": 1405618612,
  "lat": 47.4692250,
  "lon": -0.5557130
},
{
  "type": "node",
  "id": 1405618614,
  "lat": 47.4692260,
  "lon": -0.5549730
},
{
  "type": "node",
  "id": 1405618627,
  "lat": 47.4692270,
  "lon": -0.5554400
},
{
  "type": "node",
  "id": 1405618632,
  "lat": 47.4692280,
  "lon": -0.5557080
},
{
  "type": "node",
  "id": 1405618710,
  "lat": 47.4692310,
  "lon": -0.5553080
},
{
  "type": "node",
  "id": 1405618784,
  "lat": 47.4692276,
  "lon": -0.5557803
},
{
  "type": "node",
  "id": 1405618909,
  "lat": 47.4692423,
  "lon": -0.5557729
},
{
  "type": "node",
  "id": 1405618938,
  "lat": 47.4692410,
  "lon": -0.5561660
},
{
  "type": "node",
  "id": 1405619022,
  "lat": 47.4692368,
  "lon": -0.5557352
},
{
  "type": "node",
  "id": 1405619071,
  "lat": 47.4692502,
  "lon": -0.5553267
},
{
  "type": "node",
  "id": 1405619110,
  "lat": 47.4692438,
  "lon": -0.5557354
},
{
  "type": "node",
  "id": 1405619166,
  "lat": 47.4692712,
  "lon": -0.5549164
},
{
  "type": "node",
  "id": 1405619263,
  "lat": 47.4692700,
  "lon": -0.5553460
},
{
  "type": "node",
  "id": 1405619464,
  "lat": 47.4692940,
  "lon": -0.5521540
},
{
  "type": "node",
  "id": 1405619473,
  "lat": 47.4692940,
  "lon": -0.5560480
},
{
  "type": "node",
  "id": 1405619485,
  "lat": 47.4692960,
  "lon": -0.5560190
},
{
  "type": "node",
  "id": 1405619524,
  "lat": 47.4693000,
  "lon": -0.5560610
},
{
  "type": "node",
  "id": 1405619598,
  "lat": 47.4693080,
  "lon": -0.5560090
},
{
  "type": "node",
  "id": 1405619711,
  "lat": 47.4693220,
  "lon": -0.5560400
},
{
  "type": "node",
  "id": 1586514886,
  "lat": 47.4687878,
  "lon": -0.5515147
},
{
  "type": "node",
  "id": 1586514887,
  "lat": 47.4689765,
  "lon": -0.5516573
},
{
  "type": "node",
  "id": 1586514888,
  "lat": 47.4690750,
  "lon": -0.5518163
},
{
  "type": "node",
  "id": 6681513718,
  "lat": 47.4692670,
  "lon": -0.5549297
},
{
  "type": "node",
  "id": 6681513719,
  "lat": 47.4693041,
  "lon": -0.5549811
},
{
  "type": "node",
  "id": 6681513720,
  "lat": 47.4692719,
  "lon": -0.5550329
},
{
  "type": "node",
  "id": 6681513721,
  "lat": 47.4689352,
  "lon": -0.5543448
},
{
  "type": "node",
  "id": 6681513730,
  "lat": 47.4692532,
  "lon": -0.5557579
},
{
  "type": "node",
  "id": 6681513731,
  "lat": 47.4691787,
  "lon": -0.5556045
},
{
  "type": "node",
  "id": 6681513732,
  "lat": 47.4691982,
  "lon": -0.5556043
},
{
  "type": "node",
  "id": 6681513733,
  "lat": 47.4692014,
  "lon": -0.5556185
},
{
  "type": "node",
  "id": 6681513734,
  "lat": 47.4691818,
  "lon": -0.5556007
},
{
  "type": "node",
  "id": 6681513735,
  "lat": 47.4691856,
  "lon": -0.5555990
},
{
  "type": "node",
  "id": 6681513736,
  "lat": 47.4691900,
  "lon": -0.5555993
},
{
  "type": "node",
  "id": 6681513737,
  "lat": 47.4691941,
  "lon": -0.5556009
},
{
  "type": "node",
  "id": 6681513738,
  "lat": 47.4692574,
  "lon": -0.5560867
},
{
  "type": "node",
  "id": 1405650529,
  "lat": 47.4719070,
  "lon": -0.5519540
},
{
  "type": "node",
  "id": 1405650552,
  "lat": 47.4719080,
  "lon": -0.5519500
},
{
  "type": "node",
  "id": 1405650801,
  "lat": 47.4719200,
  "lon": -0.5519330
},
{
  "type": "node",
  "id": 1405650972,
  "lat": 47.4719310,
  "lon": -0.5519480
},
{
  "type": "node",
  "id": 1405651381,
  "lat": 47.4719560,
  "lon": -0.5519060
},
{
  "type": "node",
  "id": 1405651450,
  "lat": 47.4719600,
  "lon": -0.5520230
},
{
  "type": "node",
  "id": 1405651786,
  "lat": 47.4719800,
  "lon": -0.5519380
},
{
  "type": "node",
  "id": 1405651849,
  "lat": 47.4719860,
  "lon": -0.5519300
},
{
  "type": "node",
  "id": 1405651867,
  "lat": 47.4719880,
  "lon": -0.5520570
},
{
  "type": "node",
  "id": 1405652641,
  "lat": 47.4720410,
  "lon": -0.5519990
},
{
  "type": "node",
  "id": 1405652649,
  "lat": 47.4720420,
  "lon": -0.5521240
},
{
  "type": "node",
  "id": 1405652667,
  "lat": 47.4720440,
  "lon": -0.5521270
},
{
  "type": "node",
  "id": 1405652818,
  "lat": 47.4720590,
  "lon": -0.5519700
},
{
  "type": "node",
  "id": 1405652956,
  "lat": 47.4720690,
  "lon": -0.5519660
},
{
  "type": "node",
  "id": 1405653024,
  "lat": 47.4720730,
  "lon": -0.5519720
},
{
  "type": "node",
  "id": 1405653108,
  "lat": 47.4720800,
  "lon": -0.5520700
},
{
  "type": "node",
  "id": 1405653216,
  "lat": 47.4720880,
  "lon": -0.5520800
},
{
  "type": "node",
  "id": 1405653496,
  "lat": 47.4721080,
  "lon": -0.5519170
},
{
  "type": "node",
  "id": 1405653564,
  "lat": 47.4721130,
  "lon": -0.5520380
},
{
  "type": "node",
  "id": 1405653980,
  "lat": 47.4721440,
  "lon": -0.5520780
},
{
  "type": "node",
  "id": 1405654749,
  "lat": 47.4721820,
  "lon": -0.5520160
},
{
  "type": "node",
  "id": 1405678155,
  "lat": 47.4734920,
  "lon": -0.5463960
},
{
  "type": "node",
  "id": 1405678284,
  "lat": 47.4734980,
  "lon": -0.5464360
},
{
  "type": "node",
  "id": 1405679797,
  "lat": 47.4735570,
  "lon": -0.5468030
},
{
  "type": "node",
  "id": 1405679924,
  "lat": 47.4735620,
  "lon": -0.5468000
},
{
  "type": "node",
  "id": 1405680454,
  "lat": 47.4735840,
  "lon": -0.5463980
},
{
  "type": "node",
  "id": 1405680767,
  "lat": 47.4735950,
  "lon": -0.5463340
},
{
  "type": "node",
  "id": 1405680850,
  "lat": 47.4735970,
  "lon": -0.5463490
},
{
  "type": "node",
  "id": 1405681049,
  "lat": 47.4736020,
  "lon": -0.5462310
},
{
  "type": "node",
  "id": 1405681301,
  "lat": 47.4736100,
  "lon": -0.5461330
},
{
  "type": "node",
  "id": 1405681387,
  "lat": 47.4736130,
  "lon": -0.5462870
},
{
  "type": "node",
  "id": 1405681559,
  "lat": 47.4736200,
  "lon": -0.5463230
},
{
  "type": "node",
  "id": 1405681614,
  "lat": 47.4736240,
  "lon": -0.5461280
},
{
  "type": "node",
  "id": 1405681689,
  "lat": 47.4736270,
  "lon": -0.5470240
},
{
  "type": "node",
  "id": 1405681752,
  "lat": 47.4736300,
  "lon": -0.5462190
},
{
  "type": "node",
  "id": 1405681826,
  "lat": 47.4736330,
  "lon": -0.5463770
},
{
  "type": "node",
  "id": 1405681840,
  "lat": 47.4736340,
  "lon": -0.5461740
},
{
  "type": "node",
  "id": 1405681965,
  "lat": 47.4736390,
  "lon": -0.5461940
},
{
  "type": "node",
  "id": 1405682037,
  "lat": 47.4736430,
  "lon": -0.5464250
},
{
  "type": "node",
  "id": 1405682246,
  "lat": 47.4736540,
  "lon": -0.5464810
},
{
  "type": "node",
  "id": 1405682362,
  "lat": 47.4736590,
  "lon": -0.5469210
},
{
  "type": "node",
  "id": 1405682705,
  "lat": 47.4736750,
  "lon": -0.5461260
},
{
  "type": "node",
  "id": 1405682837,
  "lat": 47.4736810,
  "lon": -0.5469870
},
{
  "type": "node",
  "id": 1405682934,
  "lat": 47.4736870,
  "lon": -0.5461760
},
{
  "type": "node",
  "id": 1405683778,
  "lat": 47.4737230,
  "lon": -0.5467130
},
{
  "type": "node",
  "id": 1405683945,
  "lat": 47.4737310,
  "lon": -0.5464480
},
{
  "type": "node",
  "id": 1405685104,
  "lat": 47.4737650,
  "lon": -0.5461850
},
{
  "type": "node",
  "id": 1405685239,
  "lat": 47.4737700,
  "lon": -0.5460530
},
{
  "type": "node",
  "id": 1405685355,
  "lat": 47.4737750,
  "lon": -0.5460810
},
{
  "type": "node",
  "id": 1405685884,
  "lat": 47.4738050,
  "lon": -0.5468360
},
{
  "type": "node",
  "id": 1405685901,
  "lat": 47.4738060,
  "lon": -0.5463750
},
{
  "type": "node",
  "id": 1405686056,
  "lat": 47.4738120,
  "lon": -0.5464140
},
{
  "type": "node",
  "id": 1405686503,
  "lat": 47.4738300,
  "lon": -0.5460210
},
{
  "type": "node",
  "id": 1405686796,
  "lat": 47.4738421,
  "lon": -0.5464035
},
{
  "type": "node",
  "id": 1405686799,
  "lat": 47.4738430,
  "lon": -0.5460290
},
{
  "type": "node",
  "id": 1405686886,
  "lat": 47.4738470,
  "lon": -0.5461500
},
{
  "type": "node",
  "id": 1405686994,
  "lat": 47.4738530,
  "lon": -0.5461800
},
{
  "type": "node",
  "id": 1405687035,
  "lat": 47.4738550,
  "lon": -0.5463990
},
{
  "type": "node",
  "id": 1405687093,
  "lat": 47.4738580,
  "lon": -0.5460940
},
{
  "type": "node",
  "id": 1405687316,
  "lat": 47.4738660,
  "lon": -0.5460960
},
{
  "type": "node",
  "id": 1405687767,
  "lat": 47.4738820,
  "lon": -0.5461670
},
{
  "type": "node",
  "id": 1405687769,
  "lat": 47.4738820,
  "lon": -0.5463080
},
{
  "type": "node",
  "id": 1405687949,
  "lat": 47.4738890,
  "lon": -0.5463420
},
{
  "type": "node",
  "id": 1405688492,
  "lat": 47.4739100,
  "lon": -0.5462950
},
{
  "type": "node",
  "id": 1405688522,
  "lat": 47.4739120,
  "lon": -0.5466090
},
{
  "type": "node",
  "id": 1405688918,
  "lat": 47.4739270,
  "lon": -0.5463720
},
{
  "type": "node",
  "id": 1405690217,
  "lat": 47.4739840,
  "lon": -0.5467330
},
{
  "type": "node",
  "id": 1405690359,
  "lat": 47.4739920,
  "lon": -0.5465650
},
{
  "type": "node",
  "id": 1405690587,
  "lat": 47.4740040,
  "lon": -0.5465590
},
{
  "type": "node",
  "id": 1405690971,
  "lat": 47.4740220,
  "lon": -0.5465440
},
{
  "type": "node",
  "id": 1405691219,
  "lat": 47.4740340,
  "lon": -0.5465320
},
{
  "type": "node",
  "id": 1405691799,
  "lat": 47.4740540,
  "lon": -0.5465840
},
{
  "type": "node",
  "id": 1405692057,
  "lat": 47.4740640,
  "lon": -0.5466090
},
{
  "type": "node",
  "id": 1405692116,
  "lat": 47.4740670,
  "lon": -0.5466230
},
{
  "type": "node",
  "id": 1405692244,
  "lat": 47.4740730,
  "lon": -0.5466430
},
{
  "type": "node",
  "id": 2855294358,
  "lat": 47.4734945,
  "lon": -0.5464129
},
{
  "type": "node",
  "id": 5501874572,
  "lat": 47.4740803,
  "lon": -0.5466876
},
{
  "type": "node",
  "id": 5501874593,
  "lat": 47.4737855,
  "lon": -0.5462800
},
{
  "type": "node",
  "id": 1397896247,
  "lat": 47.4468210,
  "lon": -0.4891820
},
{
  "type": "node",
  "id": 1397896267,
  "lat": 47.4468240,
  "lon": -0.4890990
},
{
  "type": "node",
  "id": 1397896377,
  "lat": 47.4468360,
  "lon": -0.4891330
},
{
  "type": "node",
  "id": 1397896438,
  "lat": 47.4468410,
  "lon": -0.4891270
},
{
  "type": "node",
  "id": 1397896453,
  "lat": 47.4468430,
  "lon": -0.4890740
},
{
  "type": "node",
  "id": 1397896484,
  "lat": 47.4468460,
  "lon": -0.4891490
},
{
  "type": "node",
  "id": 1397896596,
  "lat": 47.4468550,
  "lon": -0.4890940
},
{
  "type": "node",
  "id": 1397896659,
  "lat": 47.4468600,
  "lon": -0.4893210
},
{
  "type": "node",
  "id": 1397896678,
  "lat": 47.4468610,
  "lon": -0.4890860
},
{
  "type": "node",
  "id": 1397896736,
  "lat": 47.4468670,
  "lon": -0.4890720
},
{
  "type": "node",
  "id": 1397896774,
  "lat": 47.4468690,
  "lon": -0.4893360
},
{
  "type": "node",
  "id": 1397896887,
  "lat": 47.4468790,
  "lon": -0.4893220
},
{
  "type": "node",
  "id": 1397896935,
  "lat": 47.4468820,
  "lon": -0.4890530
},
{
  "type": "node",
  "id": 1397896965,
  "lat": 47.4468860,
  "lon": -0.4892860
},
{
  "type": "node",
  "id": 1397897031,
  "lat": 47.4468920,
  "lon": -0.4890880
},
{
  "type": "node",
  "id": 1397897099,
  "lat": 47.4468980,
  "lon": -0.4890780
},
{
  "type": "node",
  "id": 1397897299,
  "lat": 47.4469260,
  "lon": -0.4892350
},
{
  "type": "node",
  "id": 1397897348,
  "lat": 47.4469350,
  "lon": -0.4892490
},
{
  "type": "node",
  "id": 1397897384,
  "lat": 47.4469420,
  "lon": -0.4891680
},
{
  "type": "node",
  "id": 1397897462,
  "lat": 47.4469580,
  "lon": -0.4891920
},
{
  "type": "node",
  "id": 1397897677,
  "lat": 47.4469900,
  "lon": -0.4891020
},
{
  "type": "node",
  "id": 1397897771,
  "lat": 47.4470020,
  "lon": -0.4891220
},
{
  "type": "node",
  "id": 2474613245,
  "lat": 47.5610323,
  "lon": -0.4262280
},
{
  "type": "node",
  "id": 2474613278,
  "lat": 47.5609618,
  "lon": -0.4262248
},
{
  "type": "node",
  "id": 2474613279,
  "lat": 47.5609619,
  "lon": -0.4262718
},
{
  "type": "node",
  "id": 2474613280,
  "lat": 47.5610036,
  "lon": -0.4263662
},
{
  "type": "node",
  "id": 2474613294,
  "lat": 47.5610148,
  "lon": -0.4263675
},
{
  "type": "node",
  "id": 2474613299,
  "lat": 47.5610178,
  "lon": -0.4264934
},
{
  "type": "node",
  "id": 2474613304,
  "lat": 47.5610332,
  "lon": -0.4263036
},
{
  "type": "node",
  "id": 2474613315,
  "lat": 47.5610433,
  "lon": -0.4263036
},
{
  "type": "node",
  "id": 2474613328,
  "lat": 47.5610548,
  "lon": -0.4263128
},
{
  "type": "node",
  "id": 2474613332,
  "lat": 47.5610544,
  "lon": -0.4263526
},
{
  "type": "node",
  "id": 2474613519,
  "lat": 47.5611801,
  "lon": -0.4265012
},
{
  "type": "node",
  "id": 2474613523,
  "lat": 47.5611829,
  "lon": -0.4265115
},
{
  "type": "node",
  "id": 2474613528,
  "lat": 47.5611877,
  "lon": -0.4265212
},
{
  "type": "node",
  "id": 2474613531,
  "lat": 47.5611929,
  "lon": -0.4265276
},
{
  "type": "node",
  "id": 2474613538,
  "lat": 47.5612053,
  "lon": -0.4265329
},
{
  "type": "node",
  "id": 2474613548,
  "lat": 47.5612188,
  "lon": -0.4265306
},
{
  "type": "node",
  "id": 2474613574,
  "lat": 47.5612299,
  "lon": -0.4265209
},
{
  "type": "node",
  "id": 2474613577,
  "lat": 47.5612388,
  "lon": -0.4263567
},
{
  "type": "node",
  "id": 2474613595,
  "lat": 47.5612377,
  "lon": -0.4264665
},
{
  "type": "node",
  "id": 2474613598,
  "lat": 47.5612399,
  "lon": -0.4264936
},
{
  "type": "node",
  "id": 2474613600,
  "lat": 47.5612401,
  "lon": -0.4264788
},
{
  "type": "node",
  "id": 6676226216,
  "lat": 47.5610024,
  "lon": -0.4262745
},
{
  "type": "node",
  "id": 6676226217,
  "lat": 47.5610170,
  "lon": -0.4264421
},
{
  "type": "node",
  "id": 6676226218,
  "lat": 47.5610081,
  "lon": -0.4264133
},
{
  "type": "node",
  "id": 6676226219,
  "lat": 47.5610154,
  "lon": -0.4263927
},
{
  "type": "node",
  "id": 6676226220,
  "lat": 47.5612365,
  "lon": -0.4265088
},
{
  "type": "node",
  "id": 6676226221,
  "lat": 47.5612388,
  "lon": -0.4265009
},
{
  "type": "node",
  "id": 6676226222,
  "lat": 47.5612402,
  "lon": -0.4264859
},
{
  "type": "node",
  "id": 6676226223,
  "lat": 47.5612337,
  "lon": -0.4265155
},
{
  "type": "node",
  "id": 6676226224,
  "lat": 47.5612246,
  "lon": -0.4265266
},
{
  "type": "node",
  "id": 6676226225,
  "lat": 47.5612125,
  "lon": -0.4265322
},
{
  "type": "node",
  "id": 6676226226,
  "lat": 47.5611986,
  "lon": -0.4265309
},
{
  "type": "node",
  "id": 6676226227,
  "lat": 47.5611810,
  "lon": -0.4265064
},
{
  "type": "node",
  "id": 6676226230,
  "lat": 47.5609674,
  "lon": -0.4262248
},
{
  "type": "node",
  "id": 6676777382,
  "lat": 47.5612383,
  "lon": -0.4264107
},
{
  "type": "node",
  "id": 6676798985,
  "lat": 47.5610546,
  "lon": -0.4263307
},
{
  "type": "way",
  "id": 126924336,
  "nodes": [
    1405688918,
    1405687035,
    1405686796,
    1405686056,
    1405683945,
    1405682246,
    1405682037,
    1405681826,
    1405680454,
    1405678284,
    2855294358,
    1405678155,
    1405680850,
    1405680767,
    1405681559,
    1405681387,
    1405681049,
    1405681752,
    1405681301,
    1405681614,
    1405681840,
    1405681965,
    1405682934,
    1405682705,
    1405685355,
    1405685239,
    1405686503,
    1405686799,
    1405687093,
    1405687316,
    1405687767,
    1405686994,
    1405686886,
    1405685104,
    5501874593,
    1405685901,
    1405687949,
    1405687769,
    1405688492,
    1405688918
  ]
},
{
  "type": "way",
  "id": 126924338,
  "nodes": [
    1405690217,
    1405685884,
    1405682362,
    1405682837,
    1405681689,
    1405679797,
    1405679924,
    1405683778,
    1405688522,
    1405690359,
    1405690587,
    1405690971,
    1405691219,
    1405691799,
    1405692057,
    1405692116,
    1405692244,
    5501874572,
    1405690217
  ]
}

  ]
}
