{
  "version": 0.6,
  "generator": "Overpass API 0.7.55.9 ab41fea6",
  "osm3s": {
    "timestamp_osm_base": "2020-02-14T18:30:02Z",
    "copyright": "The data included in this document is from www.openstreetmap.org. The data is made available under ODbL."
  },
  "elements": [

{
  "type": "node",
  "id": 554083364,
  "lat": 41.1060207,
  "lon": 29.0555191,
  "tags": {
    "charge": "20 TRY",
    "fee": "yes",
    "name": "Sabancı Üniversitesi Sakıp Sabancı Müzesi",
    "name:en": "Sakıp Sabancı Museum",
    "name:tr": "Sabancı Üniversitesi Sakıp Sabancı Müzesi",
    "note": "Sakıp Sabancı Museum Collection of the Arts of the Book and Calligraphy have illuminated Korans, calligraphy, official documents from the Ottoman sultans, etc. Exhibits are from the end of the 14th century to the 20th century.",
    "opening_hours": "Tu, Th, Fr, Su 10:00-18:00;We, Sa 10:00-22:00",
    "phone": "+90 212 277 22 00",
    "toilets:wheelchair": "yes",
    "tourism": "museum",
    "website": "https://www.sakipsabancimuzesi.org/en/",
    "wheelchair": "yes",
    "wikidata": "Q3395851",
    "wikipedia": "en:Sakıp Sabancı Museum"
  }
},
{
  "type": "node",
  "id": 654205150,
  "lat": 41.0319036,
  "lon": 28.9751960,
  "tags": {
    "addr:city": "Tepebaşı- Beyoğlu - Istanbul",
    "addr:full": "Meşrutiyet Caddesi No.65Taksim Istanbul",
    "addr:housenumber": "141",
    "addr:postcode": "34443",
    "addr:street": "Meşrutiyet Caddesi",
    "name": "Pera Müzesi",
    "name:ar": "متحف بيرا",
    "name:en": "Pera Museum",
    "name:ru": "Музей пера",
    "name:tr": "Pera Müzesi",
    "note": "https://www.geziyerler.com/pera-muzesi",
    "opening_hours": "Tu-Su 10:00-19:00, Su 12:00-18:00",
    "phone": "212 334 9900",
    "tourism": "museum",
    "website": "https://www.peramuzesi.org.tr/",
    "wheelchair": "no",
    "wheelchair:description": "Tekerlekli sandalye için %100 uygundur. Engelli tuvaleti vardır."
  }
},
{
  "type": "node",
  "id": 796545922,
  "lat": 40.9848918,
  "lon": 28.8446018,
  "tags": {
    "name": "İspirtohane",
    "tourism": "museum"
  }
},
{
  "type": "node",
  "id": 1026149721,
  "lat": 41.0005858,
  "lon": 28.8514348,
  "tags": {
    "amenity": "castel",
    "name": "Siyavuşpaşa Kasrı",
    "name:ar": "قلعة سيهافوش باشا",
    "ref": "castel",
    "tourism": "museum"
  }
},
{
  "type": "node",
  "id": 1037084486,
  "lat": 40.9641579,
  "lon": 28.8262655,
  "tags": {
    "addr:city": "İstanbul",
    "addr:district": "Bakırköy",
    "addr:street": "Eski Havaalanı Caddesi",
    "email": "havacilikmuzesi@hho.edu.tr",
    "name": "Havacılık Müzesi",
    "name:en": "Turkish Air Force Museum",
    "name:ru": "Музей авиации в Стамбуле",
    "opening_hours": "Tu-Fr 09:00-16:30; Sa-Su 10:00-17:30",
    "phone": "+90 212 663 24 90",
    "tourism": "museum",
    "website": "http://www.hho.edu.tr/muze/muze.htm",
    "wikidata": "Q3394116"
  }
},
{
  "type": "node",
  "id": 1346157990,
  "lat": 41.0488755,
  "lon": 28.9882427,
  "tags": {
    "name": "Askeri Müze",
    "name:en": "Military Museum",
    "name:ru": "Военный музей в Стамбуле",
    "name:tr": "Askeri Müze",
    "opening_hours": "We-Su 9:00-17:00",
    "phone": "+90 212 233 27 20",
    "tourism": "museum",
    "website": "http://www.askerimuze.tsk.tr/INGILIZCE/military_museum.htm",
    "wikidata": "Q12808583"
  }
},
{
  "type": "node",
  "id": 1352425761,
  "lat": 41.0590050,
  "lon": 28.9490675,
  "tags": {
    "addr:city": "Sütlüce \\ Istanbul",
    "addr:postcode": "34445",
    "addr:street": "İmrahor Caddesi",
    "email": "info@miniaturk.com.tr",
    "name": "Miniatürk Açıkhava Müzesi",
    "name:en": "Miniature Park",
    "name:ru": "Миниатюрк парк миниатюр Турции",
    "name:tr": "Miniatürk Müzesi",
    "opening_hours": "Mo-Su 09:00-19:00",
    "phone": "+90 0212 222 28 82",
    "tourism": "museum",
    "website": "https://www.miniaturk.com.tr/",
    "wheelchair": "yes",
    "wheelchair:description": "Ana girişte 16 derecelik bir adet rampa vardır. Engelli tuvaleti bulunmaktadır.",
    "wikidata": "Q1085952"
  }
},
{
  "type": "node",
  "id": 1651516149,
  "lat": 41.0275772,
  "lon": 28.9744261,
  "tags": {
    "addr:housenumber": "15",
    "addr:postcode": "34420",
    "addr:street": "Şahkulu",
    "alt_name": "Galata Convent of Whirling Dervishes",
    "email": "contact@muze.gen.tr",
    "name": "Galata Mevlevihanesi Müzesi",
    "name:en": "Galata Mevlevi House Museum",
    "name:tr": "Galata Mevlevihanesi Müzesi",
    "name:zh": "加拉塔梅夫拉维博物馆",
    "phone": "+90 0 212 245 41 41",
    "tourism": "museum",
    "website": "https://muze.gen.tr/",
    "wheelchair": "limited"
  }
},
{
  "type": "node",
  "id": 1768294290,
  "lat": 41.0042694,
  "lon": 28.9774490,
  "tags": {
    "name": "Büyük Saray Mozaikleri Müzesi",
    "name:ar": "متحف بيوك ساراي ميوزاييك",
    "name:de": "Großer Palast (Mosaikenmuseum)",
    "name:en": "Great Palace Mosaic Museum",
    "name:fr": "Musée de la mosaïque du grand palais",
    "name:ru": "Музей мозаик",
    "name:zh": "大皇宫镶嵌画博物馆",
    "opening_hours": "Mo-Su 09:00-16:30",
    "tourism": "museum",
    "website": "https://muze.gen.tr/",
    "wikidata": "Q2719230",
    "wikipedia": "tr:Büyük Saray Mozaikleri Müzesi"
  }
},
{
  "type": "node",
  "id": 1770612643,
  "lat": 41.0238356,
  "lon": 28.9736169,
  "tags": {
    "addr:city": "İstanbul",
    "addr:district": "Karaköy",
    "addr:housenumber": "11",
    "addr:postcode": "34420",
    "addr:street": "Bankalar Caddesi",
    "name": "Osmanlı Bankası Müzesi",
    "name:en": "Ottoman Bank Museum",
    "phone": "+90 212 334 22 00",
    "tourism": "museum",
    "website": "http://www.obmuze.com/"
  }
},
{
  "type": "node",
  "id": 1807703751,
  "lat": 41.0046397,
  "lon": 28.9677540,
  "tags": {
    "name": "Istanbul Photography Museum",
    "name:ar": "متحف اسطنبول فوتوغرافي",
    "name:tr": "İstanbul Fotoğraf Müzesi",
    "opening_hours": "Tu-Su 10:00-18:00",
    "tourism": "museum"
  }
},
{
  "type": "node",
  "id": 2201659666,
  "lat": 41.1629996,
  "lon": 29.0481987,
  "tags": {
    "fee": "yes",
    "name": "Sadberk Hanım Müzesi",
    "name:en": "Sadberk Hanım Museum",
    "name:tr": "Sadberk Hanım Müzesi",
    "opening_hours": "Th-Tu 10:00-17:00",
    "operator": "Vehbi Koç Vakfı",
    "phone": "+90 212 242 38 13",
    "price": "7TL",
    "tourism": "museum",
    "website": "http://www.sadberkhanimmuzesi.org.tr/",
    "wikidata": "Q3300324"
  }
},
{
  "type": "node",
  "id": 2451239991,
  "lat": 40.9759566,
  "lon": 29.0706193,
  "tags": {
    "name": "İstanbul Oyuncak Müzesi",
    "tourism": "museum",
    "url": "http://www.istanbuloyuncakmuzesi.com/",
    "wikidata": "Q2743371"
  }
},
{
  "type": "node",
  "id": 2472730735,
  "lat": 41.0074523,
  "lon": 28.9739702,
  "tags": {
    "name": "Binbirdirek Sarnıcı",
    "name:ar": "متحف بنبيرديريك سارنيجي",
    "name:de": "Zisterne des Philoxenos",
    "name:el": "Κινστέρνα Φιλοξένου",
    "name:en": "Cistern of Philoxenos",
    "name:it": "Cisterna di Filosseno",
    "name:ru": "Цистерна Филоксена",
    "tourism": "museum",
    "wikidata": "Q2728644",
    "wikipedia": "en:Cistern of Philoxenos"
  }
},
{
  "type": "node",
  "id": 3135406162,
  "lat": 41.0563817,
  "lon": 28.9872594,
  "tags": {
    "addr:housenumber": "250",
    "addr:street": "Halaskargazi Caddesi",
    "fee": "no",
    "name": "Atatürk Museum, Şişli",
    "name:en": "Atatürk Museum, Şişli",
    "name:tr": "Atatürk Müzesi",
    "note": "The museum houses personal belongings of Atatürk like clothes and collections, other than historical documents, photographs and paintings of his lifetime.",
    "opening_hours": "Mo-We,Fr-Sa 09:00-16:00",
    "tourism": "museum",
    "wikidata": "Q3701681",
    "wikipedia": "en:Atatürk Museum, Şişli"
  }
},
{
  "type": "node",
  "id": 3195027800,
  "lat": 41.0362806,
  "lon": 28.9841655,
  "tags": {
    "email": "mailto:danisma.istanbul@ifturquie.org",
    "fee": "no",
    "name": "Institut français à Istanbul",
    "name:en": "French Institute in Istanbul",
    "name:tr": "Fransız Kültür Merkezi",
    "phone": "08507556800",
    "tourism": "museum",
    "website": "https://ifturquie.org/"
  }
},
{
  "type": "node",
  "id": 3254396169,
  "lat": 41.0482849,
  "lon": 29.0188194,
  "tags": {
    "name": "Yıldız Seramik Fabrikası",
    "name:tr": "Yıldız Seramik Fabrikası",
    "tourism": "museum"
  }
},
{
  "type": "node",
  "id": 3254468506,
  "lat": 41.0387821,
  "lon": 28.9771474,
  "tags": {
    "addr:housenumber": "10",
    "addr:street": "Tatlı Badem Sokak",
    "email": "contact@muze.gen.tr",
    "name": "Adam Mickiewicz Müzesi",
    "name:en": "Adam Mickiewicz Museum",
    "name:ru": "музей Адама Мицкевича",
    "name:tr": "Adam Mickiewicz Müzesi",
    "tourism": "museum",
    "website": "https://muze.gen.tr/muze-detay/adam",
    "wikidata": "Q4679495"
  }
},
{
  "type": "node",
  "id": 3279398393,
  "lat": 41.0309060,
  "lon": 28.9797878,
  "tags": {
    "fee": "yes",
    "name": "Masumiyet Müzesi",
    "name:en": "The Museum of Innocence",
    "name:ru": "Музей невинности",
    "name:tr": "Masumiyet Müzesi",
    "note": "Turkish Nobel laureate Orhan Pamuk created the muse Turkish Nobel laureate Orhan Pamuk created the museum in conjunction with his novel.um in conjunction with his novel of the same name. 1000 of every object 1950-1980.",
    "opening_hours": "Tu-Su 10:00-18:00; Th 10:00-21:00",
    "tourism": "museum",
    "website": "http://www.masumiyetmuzesi.org",
    "website:en": "http://www.masumiyetmuzesi.org/?Language=ENG",
    "website:tr": "http://www.masumiyetmuzesi.org/?Language=TUR",
    "wheelchair": "no",
    "wikidata": "Q15961492",
    "wikipedia": "en:The Museum of Innocence (museum)"
  }
},
{
  "type": "node",
  "id": 3373094254,
  "lat": 41.0056817,
  "lon": 28.9786693,
  "tags": {
    "name": "Halı Müzesi",
    "name:en": "Carpet Museum",
    "tourism": "museum"
  }
},
{
  "type": "node",
  "id": 3386270532,
  "lat": 41.0334816,
  "lon": 28.9769398,
  "tags": {
    "name": "Galatasaray Müzesi",
    "name:en": "Galatasaray Museum",
    "tourism": "museum",
    "wheelchair": "no",
    "wikidata": "Q3329724"
  }
},
{
  "type": "node",
  "id": 3400112453,
  "lat": 40.9935689,
  "lon": 28.9239308,
  "tags": {
    "name": "Yedi Kule Hisarı Müzesi",
    "tourism": "museum"
  }
},
{
  "type": "node",
  "id": 3811143694,
  "lat": 41.0295810,
  "lon": 28.9789875,
  "tags": {
    "name": "Kartonpiyer Müzesi",
    "name:de": "Stuck Museum",
    "name:en": "Stucco Museum",
    "tourism": "museum"
  }
},
{
  "type": "node",
  "id": 4031869601,
  "lat": 41.0607508,
  "lon": 28.9478460,
  "tags": {
    "name": "Panorama Zafer Müzesi",
    "name:en": "Panoramic Victory Museum",
    "tourism": "museum"
  }
},
{
  "type": "node",
  "id": 4481947389,
  "lat": 41.0281923,
  "lon": 28.9744388,
  "tags": {
    "email": "contact@muze.gen.tr",
    "name:en": "Galata Mevlevi House Museum",
    "name:zh": "加拉塔梅夫拉维博物馆",
    "tourism": "museum",
    "website": "https://muze.gen.tr/",
    "wheelchair": "limited",
    "wikidata": "Q6090478"
  }
},
{
  "type": "node",
  "id": 4516765191,
  "lat": 41.0085148,
  "lon": 28.9677376,
  "tags": {
    "name:ru": "Музей Яхья Кемаля Беятлы",
    "tourism": "museum"
  }
},
{
  "type": "node",
  "id": 4566767689,
  "lat": 41.0345900,
  "lon": 28.9797100,
  "tags": {
    "name:en": "Madame Tussauds",
    "tourism": "museum",
    "wheelchair": "limited"
  }
},
{
  "type": "node",
  "id": 4721808990,
  "lat": 41.0101095,
  "lon": 28.9699630,
  "tags": {
    "name": "Kapali Carsi",
    "name:de": "Großer Bazar",
    "name:en": "Grand Bazaar",
    "name:fa": "بازار بزرگ",
    "name:it": "Gran Bazar",
    "name:ru": "Большой базар",
    "name:tr": "Kapalı Carşı",
    "name:zh": "2-1大巴扎",
    "tourism": "museum"
  }
},
{
  "type": "node",
  "id": 4774162755,
  "lat": 41.0135357,
  "lon": 28.9792752,
  "tags": {
    "email": "contact@muze.gen.tr",
    "name:en": "Museum of The History of Science and Technology in Islam",
    "name:ru": "Музей истории исламских науки и технологии",
    "tourism": "museum",
    "website": "https://muze.gen.tr",
    "wikidata": "Q16850295"
  }
},
{
  "type": "node",
  "id": 4790738822,
  "lat": 41.0323438,
  "lon": 28.9753750,
  "tags": {
    "name:en": "Pera",
    "tourism": "museum"
  }
},
{
  "type": "node",
  "id": 4825753221,
  "lat": 41.0134693,
  "lon": 28.9789835,
  "tags": {
    "addr:postcode": "34112",
    "addr:street": "cankurtaran mahallesi",
    "name:en": "Istanbul museum of the history of science & technology in islamc",
    "opening_hours": "Mo-Su 09:00-16:00",
    "tourism": "museum"
  }
},
{
  "type": "node",
  "id": 4868553761,
  "lat": 41.0413327,
  "lon": 28.9600568,
  "tags": {
    "tourism": "museum"
  }
},
{
  "type": "node",
  "id": 4878137863,
  "lat": 40.8564975,
  "lon": 29.1250164,
  "tags": {
    "addr:street": "Aya Nikola Mevkii",
    "name": "Museum of the Princes' Islands",
    "name:tr": "Adalar Müzesi",
    "opening_hours": "Tu-Su 09:00-18:00",
    "tourism": "museum",
    "website": "http://www.adalarmuzesi.org/cms/english",
    "wikidata": "Q20474042",
    "wikipedia": "en:Museum of the Princes' Islands"
  }
},
{
  "type": "node",
  "id": 4889905032,
  "lat": 41.0238724,
  "lon": 28.9734736,
  "tags": {
    "addr:city": "Istanbul",
    "addr:district": "Karaköy",
    "addr:housenumber": "11",
    "addr:postcode": "34420",
    "addr:street": "Bankalar Caddesi",
    "name": "SALT Galata",
    "name:en": "SALT Galata",
    "name:tr": "SALT Galata",
    "opening_hours": "Tu-Sa 09:00-20:00; Su 12:00-18:00",
    "phone": "+90 212 334 22 00",
    "tourism": "museum",
    "website": "https://saltonline.org/"
  }
},
{
  "type": "node",
  "id": 4889905038,
  "lat": 41.0289283,
  "lon": 28.9747482,
  "tags": {
    "name": "Ziraat Bankasi Sanat Galerisi",
    "name:en": "Ziraat Bankasi Sanat Galerisi",
    "name:ru": "Музей крутящихся дервишей",
    "name:tr": "Ziraat Bankasi Sanat Galerisi",
    "tourism": "museum"
  }
},
{
  "type": "node",
  "id": 4889958232,
  "lat": 41.0303466,
  "lon": 28.9754498,
  "tags": {
    "addr:housenumber": "160A",
    "addr:postcode": "34433",
    "addr:street": "İstiklal Caddesi",
    "name": "Borusan Sanat",
    "name:en": "Borusan Art",
    "name:tr": "Borusan Sanat",
    "opening_hours": "Mo-Fr 09:30-18:00",
    "phone": "+902127058700",
    "tourism": "museum",
    "wheelchair": "no"
  }
},
{
  "type": "node",
  "id": 4889958233,
  "lat": 41.0343692,
  "lon": 28.9822141,
  "tags": {
    "name": "Istanbul Fotograf Galerisi",
    "name:en": "The Photographer's Gallery",
    "name:tr": "Istanbul Fotograf Galerisi",
    "tourism": "museum"
  }
},
{
  "type": "node",
  "id": 4889958234,
  "lat": 41.0332891,
  "lon": 28.9795904,
  "tags": {
    "name": "ISTANBUL'74",
    "name:en": "ISTANBUL'74",
    "name:tr": "ISTANBUL'74",
    "tourism": "museum"
  }
},
{
  "type": "node",
  "id": 4889959431,
  "lat": 41.0304385,
  "lon": 28.9757547,
  "tags": {
    "addr:housenumber": "181",
    "addr:postcode": "34433",
    "addr:street": "İstiklal Caddesi",
    "name": "ARTER",
    "name:en": "ARTER",
    "name:tr": "ARTER",
    "opening_hours": "Tu-Th 11:00-19:00; Fr-Su 12:00-20:00",
    "phone": "+902127085800",
    "tourism": "museum",
    "website": "http://www.arter.org.tr",
    "wheelchair": "limited"
  }
},
{
  "type": "node",
  "id": 4889959432,
  "lat": 41.0359742,
  "lon": 28.9831213,
  "tags": {
    "name": "AK Bank Sanat Galerisi",
    "name:en": "AK Bank Sanat Galerisi",
    "name:tr": "AK Bank Sanat Galerisi",
    "tourism": "museum",
    "wheelchair": "limited"
  }
},
{
  "type": "node",
  "id": 4889959434,
  "lat": 41.0357703,
  "lon": 28.9783705,
  "tags": {
    "name": "Dogançay Müzesi",
    "name:en": "Dogançay Müzesi",
    "name:tr": "Dogançay Müzesi",
    "tourism": "museum"
  }
},
{
  "type": "node",
  "id": 4889959435,
  "lat": 41.0326418,
  "lon": 28.9777224,
  "tags": {
    "name": "Türvak Türker Inanoglu Vakfi",
    "name:en": "Cinema Museum",
    "name:tr": "Türvak Türker Inanoglu Vakfi",
    "tourism": "museum"
  }
},
{
  "type": "node",
  "id": 4990028128,
  "lat": 41.0087318,
  "lon": 28.9809561,
  "tags": {
    "addr:city": "İstanbul",
    "addr:district": "Fatih",
    "addr:housenumber": "14",
    "addr:neighbourhood": "Cankurtaran Mahallesi",
    "addr:postcode": "34122",
    "addr:street": "Soğukçeşme Sokak",
    "email": "info@halimuzesi.com",
    "name": "Halı Müzesi",
    "name:ar": "متحف السجاد",
    "name:de": "Teppichmuseum",
    "name:en": "Carpet Museum",
    "name:es": "Museo de las alfombras",
    "name:it": "Museo del tappeto",
    "name:ru": "Музей Ковров",
    "name:tr": "Halı Müzesi",
    "phone": "+90 212 512 69 93",
    "tourism": "museum",
    "website": "http://www.halimuzesi.com"
  }
},
{
  "type": "node",
  "id": 5081442512,
  "lat": 41.0252799,
  "lon": 28.9584325,
  "tags": {
    "addr:city": "Istanbul",
    "addr:district": "Fatih",
    "addr:street": "Nalıncı Kasım Sokak",
    "name": "Rezan Has Museum",
    "name:ar": "متحف ريزان هاس",
    "name:tr": "Rezan Has Müzesi",
    "tourism": "museum",
    "wikidata": "Q7319839"
  }
},
{
  "type": "node",
  "id": 5103810789,
  "lat": 41.0196249,
  "lon": 28.9277844,
  "tags": {
    "addr:city": "Istanbul",
    "addr:district": "Fatih",
    "addr:street": "Topkapı caddesi",
    "name": "Hamidiye Kültür Ve Eğitim Vakfı Topkapı Nusret",
    "name:ar": "متحف حامدية الثقافي و التعليمي",
    "tourism": "museum"
  }
},
{
  "type": "node",
  "id": 5108828006,
  "lat": 41.0128714,
  "lon": 28.9778917,
  "tags": {
    "addr:city": "Istanbul",
    "addr:district": "Fatih",
    "addr:street": "Hüdavendigar Caddesi",
    "name": "Lions Rug and kilims Art Gallery",
    "name:ar": "متحف ليونز روغ و كيليمس أرت غالاري",
    "phone": "+90 212 512 71 23",
    "tourism": "museum"
  }
},
{
  "type": "node",
  "id": 5108828680,
  "lat": 41.0152694,
  "lon": 28.9770206,
  "tags": {
    "addr:city": "Istanbul",
    "addr:district": "Fatih",
    "addr:postcode": "34110",
    "addr:street": "Sirkeci İstasyon Caddesi",
    "name": "İstanbul Demiryolu Müzesi",
    "name:ar": "متحف السكك الحديدية اسطنبول",
    "name:en": "İstanbul Railway Museum",
    "opening_hours": "Tu-Sa 09:00-17:00",
    "phone": "(0212) 520 65 75",
    "tourism": "museum"
  }
},
{
  "type": "node",
  "id": 5108828685,
  "lat": 41.0162948,
  "lon": 28.9819365,
  "tags": {
    "addr:city": "Istanbul",
    "addr:district": "Fatih",
    "addr:street": "Kennedy Cd",
    "name": "Sepetçiler Kasrı",
    "name:ar": "قصر سباتشيلار",
    "name:en": "Sepetçiler Pavilion",
    "tourism": "museum"
  }
},
{
  "type": "node",
  "id": 5108837436,
  "lat": 41.0142713,
  "lon": 28.9756894,
  "tags": {
    "addr:city": "Istanbul",
    "addr:district": "Fatih",
    "addr:street": "Hocapaşa Hamamı Sokak",
    "name": "Hodjapasta",
    "name:ar": "متحف هودجاباستا",
    "tourism": "museum"
  }
},
{
  "type": "node",
  "id": 5108837438,
  "lat": 41.0140444,
  "lon": 28.9756133,
  "tags": {
    "addr:city": "Istanbul",
    "addr:district": "Fatih",
    "addr:street": "Hoca Paşa Sokak",
    "name": "Tasciri Spettacolo",
    "name:ar": "متحف تاسجيري سبيتاجولو",
    "tourism": "museum"
  }
},
{
  "type": "node",
  "id": 5111212308,
  "lat": 41.0161663,
  "lon": 28.9726210,
  "tags": {
    "addr:city": "Istanbul",
    "addr:district": "Fatih",
    "addr:housenumber": "02125111331",
    "addr:street": "Bankacılar Sokak",
    "email": "info@isbankmuze.com.tr",
    "name": "İş Bankası Müzesi",
    "name:ar": "اش بانكاسي ميوزيم",
    "name:en": "İşbank Museum",
    "name:tr": "Türkiye İş Bankası Müzesi",
    "opening_hours": "Mo-Su 10:00-18:00",
    "tourism": "museum",
    "website": "https://muze.isbank.com.tr/",
    "wikidata": "Q16850066"
  }
},
{
  "type": "node",
  "id": 5112732265,
  "lat": 41.0099458,
  "lon": 28.9615545,
  "tags": {
    "addr:city": "Istanbul",
    "addr:district": "Fatih",
    "addr:housenumber": "02124400000",
    "addr:street": "Ordu Caddesi",
    "email": "muzeyum@istanbul.edu.tr",
    "name": "Beyazıt Türk Hamam Kültürü Müzesi",
    "name:ar": "متحف ثقافة الحمام التركي",
    "name:en": "II.  Bayezid Turkish Bath Culture Museum",
    "name:tr": "II. Bayezid Türk Hamam Kültürü Müzesi",
    "tourism": "museum",
    "website": "https://muzeyum.istanbul.edu.tr/"
  }
},
{
  "type": "node",
  "id": 5113500244,
  "lat": 41.0074938,
  "lon": 28.9740907,
  "tags": {
    "addr:city": "Istanbul",
    "addr:district": "Fatih",
    "addr:street": "İmran öktem caddesi",
    "name": "Binbirdirek sarancı",
    "name:ar": "بين بير ديريك سارانجى",
    "tourism": "museum"
  }
},
{
  "type": "node",
  "id": 5113500256,
  "lat": 41.0062218,
  "lon": 28.9746583,
  "tags": {
    "addr:city": "Istanbul",
    "addr:district": "Fatih",
    "addr:street": "Atmeydanı Caddesi",
    "email": "contact@muze.gen.tr",
    "internet_access": "wlan",
    "name": "Türk ve İslam Eserleri Müzesi",
    "name:ar": "متحف الآثار التركية والإسلامية",
    "name:de": "Museum für türkische und islamische Kunst",
    "name:en": "Museum of Turkish and Islamic arts",
    "name:es": "Museo de arte Turco e Islámico",
    "name:fa": "موزه هنر و هنر اسلامی ترکیه",
    "name:he": "‏מוזיאון האומנות הטורקית והאסלאמית",
    "name:tr": "Türk ve İslam Eserleri Müzesi",
    "opening_hours": "Mo-Su 09:00-19:00",
    "phone": "+90 212 518 18 05",
    "tourism": "museum",
    "website": "https://muze.gen.tr/"
  }
},
{
  "type": "node",
  "id": 5113620605,
  "lat": 41.0081374,
  "lon": 28.9789188,
  "tags": {
    "addr:city": "Istanbul",
    "addr:district": "Turkey",
    "email": "contact@muze.gen.tr",
    "name": "T.C. kültür ve turizm bakanlığı ayasofya",
    "name:ar": "مديرية الثقافة والسياحة",
    "name:en": "T. C. Culture and Tourism Ministry, the Hagia Sophia Museum Directorate",
    "tourism": "museum",
    "website": "https://muze.gen.tr/"
  }
},
{
  "type": "node",
  "id": 5113620606,
  "lat": 41.0083370,
  "lon": 28.9792172,
  "tags": {
    "addr:city": "Istanbul",
    "addr:district": "Turkey",
    "addr:street": "Soğukçeşme Sokak",
    "name": "Ayasofya Müzesi",
    "name:ar": "متحف اليا صوفيا",
    "name:en": "Ayasofya Museum",
    "name:es": "Museo de Santa Sofía",
    "name:tr": "Софийский собор",
    "opening_hours": "Tu-Su 09:00-17:00",
    "toilets:wheelchair": "no",
    "tourism": "museum",
    "website": "https://muze.gen.tr/",
    "wheelchair": "limited"
  }
},
{
  "type": "node",
  "id": 5113620695,
  "lat": 41.0130407,
  "lon": 28.9789410,
  "tags": {
    "addr:city": "Istanbul",
    "addr:district": "Turkey",
    "name": "İslam bilim ve teknoloji tarihi müzesi",
    "name:ar": "متحف العلم وتلتكنولوجيا الإسلامية التاريخي",
    "tourism": "museum"
  }
},
{
  "type": "node",
  "id": 5115939964,
  "lat": 41.0100500,
  "lon": 28.9631808,
  "tags": {
    "addr:city": "Istanbul",
    "addr:district": "Fatih",
    "addr:street": "Ordu Caddesi",
    "name": "Türk Vakıf Hat Sanatları Müzesi",
    "name:ar": "متحف الخط التركي",
    "name:en": "The Museum of Turkish Calligraphic Art",
    "name:ru": "Музей турецкого каллиграфического искусства",
    "phone": "02125275851",
    "tourism": "museum",
    "website": "http://www.ibb.gov.tr/sites/ks/en-US/1-Places-To-Go/museum/Pages/museum-turkish-calligraphic-art.aspx",
    "wikidata": "Q6549659"
  }
},
{
  "type": "node",
  "id": 5209904925,
  "lat": 41.0282408,
  "lon": 29.0415462,
  "tags": {
    "name": "Abdulmecit Efendi Köşkü",
    "tourism": "museum"
  }
},
{
  "type": "node",
  "id": 5244801843,
  "lat": 41.0051858,
  "lon": 28.9743891,
  "tags": {
    "addr:city": "Istanbul",
    "addr:district": "Fatih",
    "addr:street": "Şehit Mehmet Paşa Yokuşu",
    "name": "Marmara Üniversitesi Cumhuriyet Müzesi ve Sanat Galerisi",
    "name:ar": "مرمرة يونيفيرستي موزيسي في سانات جوزال",
    "operator": "Govermental",
    "tourism": "museum"
  }
},
{
  "type": "node",
  "id": 5244801844,
  "lat": 41.0049596,
  "lon": 28.9739331,
  "tags": {
    "addr:city": "Istanbul",
    "addr:district": "Fatih",
    "addr:street": "Şehit Mehmet Paşa Yokuşu",
    "name": "İstanbul Cumhuriyet Eğitim Müzesi",
    "name:ar": "استنبول جمهوريات اييتم موزيسي",
    "operator": "Govermental",
    "tourism": "museum"
  }
},
{
  "type": "node",
  "id": 5244807623,
  "lat": 41.0085619,
  "lon": 28.9722162,
  "tags": {
    "addr:city": "Istanbul",
    "addr:district": "Fatih",
    "addr:street": "Boyacı Ahmet Sokak",
    "name": "Türkiye Gazeteciler Cemiyeti Basın Müzesi",
    "name:ar": "توركيا إازيتيجيلير جمعياتي باسن موزيسي",
    "name:en": "Press museum",
    "tourism": "museum"
  }
},
{
  "type": "node",
  "id": 5244807883,
  "lat": 41.0087410,
  "lon": 28.9676140,
  "tags": {
    "addr:city": "Istanbul",
    "addr:district": "Fatih",
    "addr:street": "Yeniçeriler Caddesi",
    "name": "Yahya Kemal Museum",
    "name:ar": "تحتى كمال ميوزيوم",
    "operator": "Govermental",
    "tourism": "museum"
  }
},
{
  "type": "node",
  "id": 5493801521,
  "lat": 41.0396552,
  "lon": 29.0027475,
  "tags": {
    "name": "Resim Müzesi",
    "name:en": "Painting Museum",
    "name:tr": "Resim Müzesi",
    "opening_hours": "Tu-Su 09:00-17:00",
    "operator": "Milli Saraylar",
    "tourism": "museum",
    "website": "http://www.millisaraylar.gov.tr/muzeler/resim_muzesi"
  }
},
{
  "type": "node",
  "id": 5506396363,
  "lat": 41.0267866,
  "lon": 28.9727283,
  "tags": {
    "addr:city": "İstanbul",
    "addr:district": "Beyoğlu",
    "addr:housenumber": "39",
    "addr:postcode": "34421",
    "addr:street": "Bereketzade Mahallesi Büyük Hendek Cadessi",
    "name": "500. Yıl Vakfı Türk Musevileri Müzesi",
    "name:en": "The Jewish Museum of Turkey",
    "opening_hours": "10:00-16:00; Fr 10:00-13:00; Su 10:00-14:00",
    "phone": "+90 212 292 63 33",
    "tourism": "museum",
    "website": "http://www.muze500.com/",
    "wheelchair": "no"
  }
},
{
  "type": "node",
  "id": 5640069827,
  "lat": 41.0299495,
  "lon": 28.9733012,
  "tags": {
    "addr:city": "Istanbul",
    "addr:district": "Beyoğlu",
    "addr:housenumber": "99",
    "addr:neighbourhood": "Asmalı Mescit Mahallesi",
    "addr:postcode": "34430",
    "addr:street": "Meşrutiyet Caddesi",
    "museum": "art",
    "name": "Istanbul Modern Sanat Müzesi",
    "name:en": "Istanbul Museum of Modern Art",
    "name:zh": "伊斯坦堡現代藝術博物館",
    "opening_hours": "Tu-We, Fr-Sa 10:00-18:00; Th 10:00-20:00; Su 11:00-18:00",
    "phone": "+902123347300",
    "tourism": "museum",
    "website": "https://www.istanbulmodern.org/",
    "wheelchair": "designated"
  }
},
{
  "type": "node",
  "id": 5645608922,
  "lat": 41.0526945,
  "lon": 29.2379176,
  "tags": {
    "addr:housenumber": "5-7",
    "addr:postcode": "34734",
    "addr:street": "145.Sokak",
    "email": "denizpireci@yahoo.com",
    "name": "Pireci Studio",
    "opening_hours": "Mo-Fr 10:00-18:00",
    "operator": "Deniz Pireci",
    "phone": "05358913639",
    "tourism": "museum",
    "website": "http://denizpireci.blogspot.com.tr"
  }
},
{
  "type": "node",
  "id": 5872511485,
  "lat": 41.0892649,
  "lon": 29.0566951,
  "tags": {
    "name": "Borusan Holding",
    "name:en": "Borusan contemporary",
    "name:fr": "Musée d'art moderne Borusan",
    "name:tr": "Perili Köşk",
    "tourism": "museum"
  }
},
{
  "type": "node",
  "id": 5973063786,
  "lat": 41.0074554,
  "lon": 28.9724506,
  "tags": {
    "addr:housenumber": "4",
    "addr:postcode": "34122",
    "addr:street": "Piyer Loti Caddesi",
    "name": "Şerefiye Sarnıcı",
    "name:de": "Theodosius-Zisterne",
    "name:en": "Theodosius Cistern",
    "tourism": "museum",
    "wikidata": "Q3150393",
    "wikipedia": "de:Theodosius-Zisterne"
  }
},
{
  "type": "node",
  "id": 6106808286,
  "lat": 41.0088558,
  "lon": 29.0420866,
  "tags": {
    "name": "contemporary art museum",
    "name:en": "Contemporary Art Museum",
    "toilets:wheelchair": "no",
    "tourism": "museum",
    "wheelchair": "limited"
  }
},
{
  "type": "node",
  "id": 6180706492,
  "lat": 41.0412100,
  "lon": 29.0041190,
  "tags": {
    "name": "Saray Kolleksiyonlari Muzesi",
    "name:en": "Palace Collections Museum",
    "name:tr": "Saray Koleksiyonları Müzesi",
    "opening_hours": "Tu-Su 09:00-17:00",
    "tourism": "museum",
    "website": "http://www.millisaraylar.gov.tr/muzeler/saray-koleksiyonlari-muzesi"
  }
},
{
  "type": "node",
  "id": 6185937305,
  "lat": 41.0238431,
  "lon": 28.9750813,
  "tags": {
    "addr:postcode": "34420",
    "addr:street": "Bankalar Caddesi",
    "name": "Sabanci Universitesi Kasa Galerisi",
    "name:en": "Sabancı University Vault Gallery",
    "name:tr": "Sabancı Üniversitesi Kasa Galerisi",
    "phone": "02122924939",
    "shop": "art",
    "tourism": "museum",
    "website": "http://kasagaleri.sabanciuniv.edu",
    "wheelchair": "no"
  }
},
{
  "type": "node",
  "id": 6564345066,
  "lat": 41.0280300,
  "lon": 28.9751179,
  "tags": {
    "name": "Galata Mevlevi House Museum",
    "opening_hours": "Tu-Su 09:00-18:00",
    "tourism": "museum"
  }
},
{
  "type": "node",
  "id": 6708886485,
  "lat": 41.0117154,
  "lon": 28.9813523,
  "tags": {
    "name:ru": "археологический музей",
    "tourism": "museum"
  }
},
{
  "type": "node",
  "id": 6783390887,
  "lat": 41.0041339,
  "lon": 28.9751882,
  "tags": {
    "name:en": "The Hippodrome Exhibition",
    "operator": "nakkas",
    "tourism": "museum"
  }
},
{
  "type": "node",
  "id": 6807300885,
  "lat": 41.0395922,
  "lon": 28.9986990,
  "tags": {
    "name": "Dolmabahçe sarayi",
    "tourism": "museum"
  }
},
{
  "type": "node",
  "id": 6929845185,
  "lat": 41.0318342,
  "lon": 28.9751204,
  "tags": {
    "addr:housenumber": "65",
    "addr:street": "Meşrutiyet Caddesi",
    "name": "Pera Muzesi",
    "name:en": "Pera Museum",
    "name:fr": "Musée Pera",
    "tourism": "museum"
  }
},
{
  "type": "node",
  "id": 7033014485,
  "lat": 41.0471791,
  "lon": 28.8987682,
  "tags": {
    "name:en": "Jurassic land",
    "tourism": "museum"
  }
},
{
  "type": "node",
  "id": 7145569885,
  "lat": 41.0105648,
  "lon": 28.9827719,
  "tags": {
    "tourism": "museum"
  }
},
{
  "type": "way",
  "id": 24533505,
  "nodes": [
    266762639,
    266762641,
    266762642,
    266762640,
    266762639
  ],
  "tags": {
    "name": "Orhan Kemal Müzesi",
    "name:en": "Orhan Kemal Museum",
    "opening_hours": "10:00-18:00; Su off",
    "phone": "+90 212 2929245",
    "tourism": "museum",
    "website": "http://www.orhankemal.org/",
    "wikidata": "Q20949672",
    "wikipedia": "en:Orhan Kemal Literature Museum"
  }
},
{
  "type": "way",
  "id": 32395058,
  "nodes": [
    364440050,
    3138595889,
    3138595888,
    3138595887,
    3138595886,
    3138595885,
    3138595884,
    3138595883,
    3138595882,
    3138595880,
    3138595881,
    364440051,
    364440053,
    3138595890,
    3138595891,
    364440050
  ],
  "tags": {
    "addr:city": "İstanbul",
    "addr:district": "Fatih",
    "addr:housenumber": "18",
    "addr:neighbourhood": "Dervişali,",
    "addr:postcode": "34087",
    "addr:street": "Kariye Cami Sk.",
    "building": "yes",
    "historic": "church",
    "name": "Kariye Müzesi",
    "name:de": "Chora-Kirche",
    "name:en": "Kariye Museum",
    "name:es": "San Salvador de Cora",
    "name:fr": "Saint-Sauveur-in-Chora",
    "name:ko": "카리예 박물관",
    "name:pl": "Kościół Chora;Kościół św. Zabawiciela",
    "name:ru": "Музей Карие ( Церковь Христа Спасителя в Полях монастыря Хора)",
    "name:zh": "柯拉教堂",
    "phone": "0212 631 92 41",
    "tourism": "museum",
    "website": "https://muze.gen.tr/muze-detay/kariye",
    "wheelchair": "yes",
    "wheelchair:description": "Özel araçla önüne kadar girilebilen Müze'nin anagirişinde 3-4 cm lik bir eşik bulunmaktadır. Tek başına tekerlekli sandalyeli görevlinin yardımıyla içeri kolayca girebilir. Yakınlarda engelli tuvaleti bulunmamaktadır.",
    "wikidata": "Q849489",
    "wikipedia": "tr:Kariye Müzesi"
  }
},
{
  "type": "way",
  "id": 61736367,
  "nodes": [
    769253430,
    769253432,
    769253433,
    769253434,
    769253435,
    769253436,
    769253437,
    769253438,
    769253439,
    769253440,
    769253441,
    769253442,
    769253443,
    769253445,
    769253446,
    769253447,
    769253448,
    769253449,
    769253450,
    769253451,
    769253430
  ],
  "tags": {
    "addr:city": "Üsküdar - Istanbul",
    "building": "yes",
    "name": "Beylerbeyi Sarayı",
    "name:en": "Beylerbeyi Palace",
    "name:ru": "Дворец Бейлербей",
    "name:tr": "Beylerbeyi Sarayı",
    "opening_hours": "Tu, We, Fr-Su 09:00-17:00",
    "phone": "0216 321 93 20",
    "source": "Yahoo",
    "tourism": "museum",
    "website": "https://www.geziyerler.com/beylerbeyi-sarayi",
    "wheelchair": "no",
    "wheelchair:description": "Refakaçili de olsa tekerlekli sandalyeli için uygun değildir.",
    "wikidata": "Q794349"
  }
},
{
  "type": "way",
  "id": 103339339,
  "nodes": [
    1193429133,
    1193429411,
    1193429613,
    1193429198,
    1193429551,
    1193429140,
    1193429619,
    1193429103,
    1193429009,
    1193429133
  ],
  "tags": {
    "building": "yes",
    "name": "Çinili Köşk",
    "name:en": "Tiled Kiosk",
    "name:ru": "Изразцовый павильон",
    "opening_hours": "Tu-Su 09:00-19:00",
    "source": "Bing",
    "start_date": "1472",
    "tourism": "museum",
    "wikidata": "Q3294735",
    "wikipedia": "tr:Çinili Köşk"
  }
},
{
  "type": "way",
  "id": 103339340,
  "nodes": [
    278366524,
    1193429006,
    3424881158,
    1193429072,
    1193429012,
    2049944448,
    2049944450,
    278366524
  ],
  "tags": {
    "building": "yes",
    "email": "info@istanbularkeoloji.gov.tr",
    "fax": "+90 212 527 43 00",
    "name": "Eski Şark Eserleri Müzesi",
    "name:ar": "متحف أثار الشرق القديمة",
    "name:en": "Museum Of Ancient Orient",
    "name:tr": "Eski Şark Eserleri Müzesi",
    "opening_hours": "Tu-Su 09:00-19:00",
    "phone": "+90 212 520 77 40",
    "source": "Bing",
    "tourism": "museum",
    "website": "http://www.istanbularkeoloji.gov.tr/"
  }
},
{
  "type": "way",
  "id": 111862615,
  "nodes": [
    1273540458,
    1273540466,
    1273540436,
    1273540380,
    1273540463,
    1273540368,
    1273540395,
    1273540468,
    1273540458
  ],
  "tags": {
    "name": "Vezir Hanı",
    "tourism": "museum"
  }
},
{
  "type": "way",
  "id": 136456159,
  "nodes": [
    1496717683,
    1496717684,
    1496717692,
    1496717693,
    1861011523,
    1861011526,
    1496717695,
    1496717694,
    1861011518,
    1861011520,
    1861011515,
    5134231237,
    1861011513,
    1496717690,
    1496717689,
    1861011511,
    1496717688,
    1861011509,
    1861011507,
    1496717687,
    1861011505,
    1496717686,
    1861011503,
    1496717685,
    1496717683
  ],
  "tags": {
    "building": "church",
    "email": "contact@muze.gen.tr",
    "name": "Fethiye Müzesi",
    "name:en": "Fethiye Museum",
    "name:zh": "3-2费特希耶博物馆",
    "old_name:en": "Pammakaristos Church",
    "tourism": "museum",
    "website": "https://muze.gen.tr/muze-detay/fethiye"
  }
},
{
  "type": "way",
  "id": 165718178,
  "nodes": [
    1772585024,
    1772585019,
    1772585017,
    1772585016,
    1772585024
  ],
  "tags": {
    "addr:city": "İstanbul",
    "addr:district": "Beyoğlu",
    "addr:neighbourhood": "Müeyyedzade Mahallesi",
    "addr:postcode": "34420",
    "addr:street": "Galip Dede Caddesi",
    "building": "yes",
    "email": "contact@muze.gen.tr",
    "name": "Galata Mevlevihanesi",
    "tourism": "museum",
    "website": "https://muze.gen.tr/"
  }
},
{
  "type": "way",
  "id": 175516451,
  "nodes": [
    2696287812,
    2696376437,
    2696287798,
    2696287776,
    2696287769,
    2696287773,
    2696287771,
    2696287774,
    2696287756,
    2696287752,
    2696287743,
    2696287728,
    2696287682,
    2696287733,
    1860923998,
    2696287665,
    2696287659,
    2696287646,
    2696287613,
    2696287622,
    2696287568,
    2696287581,
    2696287606,
    2696287641,
    2696287628,
    2696287649,
    2696287653,
    2696287673,
    2696287660,
    2696287668,
    2696287686,
    2696287796,
    2696287812
  ],
  "tags": {
    "building": "yes",
    "name": "Dolmabahçe Sarayı",
    "name:en": "Dolmabahce Palace",
    "name:es": "Palacio Dolmabahçe",
    "name:ru": "Долмабахче",
    "name:zh": "多玛巴赫切宫",
    "opening_hours": "Tu-We, Fr-Su 09:00-16:00",
    "tourism": "museum"
  }
},
{
  "type": "way",
  "id": 175523076,
  "nodes": [
    1861053745,
    2342422723,
    2342422719,
    2342422725,
    2342422727,
    2342422729,
    2342422737,
    2342422735,
    2342422739,
    2342422741,
    1861053746,
    2342422731,
    2342422733,
    2342422721,
    1861053744,
    2342422717,
    2342422709,
    2342422715,
    2342422707,
    2342422705,
    2342422701,
    2342422703,
    2342422698,
    2342422697,
    2342422693,
    2342422695,
    2342422691,
    2342422688,
    2342422685,
    2342422686,
    2342422684,
    2342422683,
    1861053743,
    2342422689,
    2342422687,
    2342422711,
    2342422713,
    1861053745
  ],
  "tags": {
    "building": "yes",
    "name": "Milli Saraylar Resim Müzesi",
    "name:en": "National Palaces Painting Museum",
    "name:es": "Museo de Pinturas Nacionales de Palacio",
    "opening_hours": "Tu-Su 09:00-17:00",
    "tourism": "museum",
    "website": "http://www.millisaraylar.gov.tr/muzeler/resim_muzesi"
  }
},
{
  "type": "way",
  "id": 180546853,
  "nodes": [
    1909688085,
    1909688093,
    1909688087,
    1909688083,
    1909688081,
    1909688085
  ],
  "tags": {
    "addr:housenumber": "1",
    "addr:street": "Alemdar Mh., Yerebatan Cd. 1/3, 34410 Fatih/İstanbul,",
    "building": "yes",
    "description": "The entrance fee is 20 TL",
    "email": "info@yerebatan.com",
    "name": "Yerebatan Sarnıcı",
    "name:de": "Cisterna Basilica",
    "name:en": "Basilica Cistern",
    "name:es": "Cisterna Basílica",
    "name:ko": "예레바탄 사라이",
    "name:ru": "Цистерна Базилика",
    "name:tr": "Yerebatan Sarnıcı اب انبار",
    "name:zh": "地下水宫",
    "opening_hours": "Mo-Su 09:00-17:30",
    "phone": "+90 212 522 12 59",
    "tourism": "museum",
    "website": "https://www.geziyerler.com/yerebatan-sarnici",
    "wheelchair": "no",
    "wikidata": "Q216511",
    "wikipedia": "tr:Yerebatan Sarnıcı",
    "wikipedia:ar": "صهريج_البازيليك",
    "wikipedia:de": "Cisterna_Basilica",
    "wikipedia:en": "Basilica_Cistern",
    "wikipedia:es": "Cisterna_Basílica",
    "wikipedia:zh": "地下水宮殿"
  }
},
{
  "type": "way",
  "id": 219002350,
  "nodes": [
    2282068057,
    2282068053,
    2282068055,
    2282068058,
    2282068057
  ],
  "tags": {
    "building": "yes",
    "name": "Buyukcekmece Caravanserai",
    "tourism": "museum"
  }
},
{
  "type": "way",
  "id": 230687140,
  "nodes": [
    2391536266,
    2391536268,
    2391536270,
    2391536272,
    2391536274,
    2391536276,
    2391536278,
    2391536280,
    2391536266
  ],
  "tags": {
    "building": "yes",
    "name": "Küçüksu Kasrı",
    "name:ru": "Кючюксу Касры (дворец маленькой воды)",
    "opening_hours": "Tu-We, Fr-Su 09:00-16:30",
    "tourism": "museum",
    "wikidata": "Q1755906"
  }
},
{
  "type": "way",
  "id": 235271667,
  "nodes": [
    2433573021,
    2433573019,
    2433573015,
    2433573017,
    2433573021
  ],
  "tags": {
    "alt_name": "Barış Manço 81300 Moda Müzesi",
    "building": "yes",
    "name": "Barış Manço Evi",
    "tourism": "museum"
  }
},
{
  "type": "way",
  "id": 260976707,
  "nodes": [
    2665723768,
    2665723769,
    2665723770,
    2665723771,
    2665723768
  ],
  "tags": {
    "building": "yes",
    "name": "Türkiye İş Bankası Müzesi",
    "operator": "Türkiye İş Bankası",
    "tourism": "museum"
  }
},
{
  "type": "way",
  "id": 263949137,
  "nodes": [
    2696287852,
    2696287841,
    2696287839,
    2696287801,
    2696287807,
    2696287783,
    2696287792,
    2696287805,
    2696287822,
    2696287818,
    2696287824,
    2696287826,
    2696287835,
    2696287830,
    2696287833,
    2696287843,
    2696287848,
    2696287859,
    2696287857,
    2696287874,
    2696287870,
    2696287889,
    2696287895,
    2696287915,
    2696287924,
    2696287950,
    2696287946,
    2696288043,
    2696288048,
    2696288063,
    2696288057,
    2696288074,
    2696288076,
    2696288079,
    2696288078,
    2696288073,
    2696288070,
    2696288072,
    2696288069,
    2696288066,
    2696288067,
    2696288054,
    2696288051,
    2696288040,
    2696288045,
    2696288007,
    2696288004,
    2696287965,
    2696287975,
    2696287939,
    2696287935,
    2696287922,
    2696287926,
    2696287881,
    2696287879,
    2696287868,
    2696287861,
    2696287865,
    2696287854,
    2696287850,
    2696287846,
    2696287852
  ],
  "tags": {
    "building": "yes",
    "name": "Dolmabahçe Sarayı",
    "name:ru": "Дворец Долмабахче",
    "operator": "Palacio Dolmabahçe",
    "tourism": "museum",
    "website": "https://www.geziyerler.com/dolmabahce-sarayi"
  }
},
{
  "type": "way",
  "id": 263949162,
  "nodes": [
    2696287730,
    2696287713,
    2696287737,
    2696287698,
    2696287721,
    2696287717,
    2696287707,
    2696287696,
    2696287689,
    2696287681,
    2696287678,
    2696287684,
    2696287687,
    2696287692,
    2696287694,
    2696287703,
    2696287711,
    2696287723,
    2696287726,
    2696287739,
    2696287748,
    2696287765,
    2696287777,
    2696287790,
    2696287801,
    2696287839,
    2696287837,
    2696287814,
    2696287803,
    1860924010,
    1860924004,
    2696287816,
    2696287794,
    2696287809,
    2696287796,
    2696287686,
    2696287730
  ],
  "tags": {
    "building": "yes",
    "name:ko": "돌마바흐체궁전",
    "tourism": "museum"
  }
},
{
  "type": "way",
  "id": 311681431,
  "nodes": [
    3174025199,
    3174025200,
    3174025201,
    3174025202,
    3174025203,
    3174025204,
    3174025205,
    3174025206,
    3174025208,
    3174025207,
    3174025199
  ],
  "tags": {
    "addr:street": "Divanyolu Caddesi",
    "building": "yes",
    "name": "Sağlık Müzesi",
    "tourism": "museum"
  }
},
{
  "type": "way",
  "id": 319020883,
  "nodes": [
    3254386824,
    3254386822,
    3254386823,
    3254386821,
    3254386816,
    3254386814,
    3254386806,
    3254386808,
    3254386805,
    3254386804,
    3254386803,
    3254386807,
    3254386810,
    3254386811,
    3254386809,
    3254386812,
    3254386815,
    3254386813,
    3254386817,
    3254386818,
    3254386820,
    3254386819,
    3254386825,
    3254386826,
    3254386828,
    3254386827,
    3254386829,
    3254386831,
    3254386832,
    3254386830,
    3254386824
  ],
  "tags": {
    "building": "yes",
    "name": "İstanbul Arkeoloji Müzesi",
    "name:en": "Istanbul Archaeological Museum",
    "name:es": "Museo arqueológico de Estambul",
    "name:ru": "Археологический музей",
    "opening_hours": "Tu-Su 09:00-19:00",
    "start_date": "1891",
    "tourism": "museum",
    "website": "https://muze.gen.tr/"
  }
},
{
  "type": "way",
  "id": 326370631,
  "nodes": [
    3318894294,
    3318894272,
    3318894270,
    3318894271,
    3318894282,
    3331476236,
    3331476235,
    3331476234,
    3331476233,
    3331476232,
    3331476231,
    3331476230,
    3331476229,
    3331476228,
    3318894283,
    3318894284,
    3318894280,
    3318894279,
    3318894278,
    3318894277,
    3318894276,
    3318894275,
    3318894274,
    3318894273,
    3318894296,
    3318894295,
    3318894294
  ],
  "tags": {
    "name": "Saray Tiyatrosu ve Sahne Sanatları Müzesi",
    "tourism": "museum"
  }
},
{
  "type": "way",
  "id": 327560146,
  "nodes": [
    3329716566,
    3329716561,
    3329716562,
    3329716568,
    3329716556,
    3329716577,
    3329716558,
    3329716555,
    3329716573,
    3329716559,
    3329716574,
    3329716560,
    3321551766,
    3321551767,
    3329716564,
    3329716572,
    3329716563,
    3329716557,
    3329716569,
    3329716570,
    3329716554,
    3329716567,
    3329716565,
    3329716575,
    3329716571,
    3329716576,
    3321551768,
    3321551763,
    3329697463,
    3329697460,
    3329697468,
    3329697466,
    3329697472,
    3329662260,
    3329731621,
    3329731622,
    3329662261,
    3329730932,
    3329727159,
    3329727157,
    3329727156,
    3329727158,
    3329730931,
    3329697462,
    3329727160,
    3329697465,
    3321551761,
    3329697469,
    3329697470,
    3329697471,
    3329697464,
    3321551762,
    3321551765,
    3329716566
  ],
  "tags": {
    "building": "yes",
    "name": "Şale Kasrı",
    "roof:material": "roof_tiles",
    "roof:shape": "hipped",
    "tourism": "museum"
  }
},
{
  "type": "way",
  "id": 329089871,
  "nodes": [
    3359149906,
    3359149907,
    6505991197,
    3359149905,
    3359149906
  ],
  "tags": {
    "building": "yes",
    "name": "Aziz Mahmud Hudayi Vakfi Gazanfer Ağa Medresesi Egitim ve Kultur Merkezi",
    "tourism": "museum"
  }
},
{
  "type": "way",
  "id": 329094469,
  "nodes": [
    3359193656,
    3359193663,
    3359193655,
    3359193657,
    3359193652,
    3359193654,
    3359193662,
    3359193661,
    3359193664,
    3359193658,
    3359193653,
    3359193649,
    3359193656
  ],
  "tags": {
    "building": "yes",
    "name": "Amcazade Külliyesi",
    "tourism": "museum"
  }
},
{
  "type": "way",
  "id": 330346411,
  "nodes": [
    3373093193,
    3373093194,
    3373092092,
    3373092091,
    3373093193
  ],
  "tags": {
    "tourism": "museum"
  }
},
{
  "type": "way",
  "id": 335374188,
  "nodes": [
    278366525,
    1193429103,
    1193429619,
    1193429140,
    1193429551,
    1193429198,
    1193429613,
    1193429411,
    278366524,
    2049944450,
    278366522,
    1193429012,
    1193429072,
    3254386812,
    3254386809,
    3424881153,
    31678655,
    1199393856,
    1199394356,
    278366526,
    278366525
  ],
  "tags": {
    "fax": "+90 212 527 4300",
    "name": "İstanbul Arkeoloji Müzeleri",
    "name:ko": "이스탄불 고고학 박물관",
    "name:ru": "Стамбульский археологический музей",
    "name:tr": "İstanbul Arkeoloji Müzeleri",
    "opening_hours": "Tu-Su 09:00-19:00",
    "phone": "+90 212 520 7740",
    "tourism": "museum",
    "website": "https://muze.gen.tr/",
    "wikipedia": "tr:İstanbul Arkeoloji Müzeleri"
  }
},
{
  "type": "way",
  "id": 349521414,
  "nodes": [
    3329831257,
    3329831258,
    3329831259,
    3329845041,
    3329831254,
    3329831255,
    3329831256,
    3329831257
  ],
  "tags": {
    "building": "yes",
    "name": "Edebiyat Müzesi",
    "tourism": "museum"
  }
},
{
  "type": "way",
  "id": 401282988,
  "nodes": [
    4037142018,
    4037142019,
    4037142020,
    4037142021,
    4037142022,
    4037142023,
    4037142024,
    4037142025,
    4037142026,
    4037142027,
    4037142028,
    4037142029,
    4037142018
  ],
  "tags": {
    "building": "yes",
    "tourism": "museum"
  }
},
{
  "type": "way",
  "id": 442974477,
  "nodes": [
    4406237400,
    4406237398,
    4406237393,
    4406237394,
    4406237400
  ],
  "tags": {
    "building": "university",
    "source": "bing",
    "tourism": "museum"
  }
},
{
  "type": "way",
  "id": 459849112,
  "nodes": [
    4555807484,
    4555807485,
    4555807486,
    4555807487,
    4555807484
  ],
  "tags": {
    "building": "yes",
    "name": "Fikret Otyam Müzesi",
    "tourism": "museum"
  }
},
{
  "type": "way",
  "id": 498861869,
  "nodes": [
    4902052021,
    4902051884,
    4902051778,
    4902051718,
    4902051881,
    4902051880,
    4902051690,
    4902051772,
    4902051943,
    4902051771,
    4902051665,
    4902051855,
    4902051770,
    4902051664,
    4902051854,
    4902051769,
    4902051780,
    4902051882,
    4902051719,
    4902051779,
    4902051883,
    4902051720,
    4902052021
  ],
  "tags": {
    "addr:housenumber": "02123274345",
    "building": "yes",
    "name": "Deniz Müzesi",
    "name:en": "Naval Museum",
    "name:ru": "Морской музей Стамбула",
    "opening_hours": "Tu-Fr 09:00-17:00; Sa-Su 09:00-18:00",
    "tourism": "museum",
    "website": "https://denizmuzesi.dzkk.tsk.tr/tr",
    "wikidata": "Q11787082"
  }
},
{
  "type": "way",
  "id": 520424129,
  "nodes": [
    5072458511,
    5072458512,
    5072458513,
    5072458514,
    5072458496,
    5072458497,
    5072458498,
    5072458499,
    5072458504,
    5072458505,
    5072458506,
    5072458507,
    5072458508,
    5072458509,
    5072458510,
    5072458500,
    5072458501,
    5072458502,
    5072458503,
    5072458511
  ],
  "tags": {
    "building": "yes",
    "name": "Panorama 1453 Tarih Müzesi",
    "name:en": "Panorama 1453 History Museum",
    "name:ru": "Музей панорама 1453",
    "tourism": "museum"
  }
},
{
  "type": "way",
  "id": 573564519,
  "nodes": [
    5508192030,
    2451239991,
    5508192031,
    5508192032,
    5508192030
  ],
  "tags": {
    "building": "yes",
    "tourism": "museum"
  }
},
{
  "type": "way",
  "id": 666415808,
  "nodes": [
    6239257673,
    6239257674,
    6239257675,
    6239257676,
    6239257677,
    6239257678,
    6239257679,
    6239257680,
    6239257681,
    6239257682,
    6239257683,
    6239257684,
    6239258885,
    6239258886,
    6239258887,
    6239258888,
    6239258889,
    6239258890,
    6239258891,
    6239258892,
    6239258893,
    6239258894,
    6239258895,
    6239258896,
    6239258897,
    6239258898,
    6239258899,
    6239258900,
    6239257673
  ],
  "tags": {
    "building": "yes",
    "historic": "building",
    "name": "Hababam Sınıfı Müzesi",
    "name:en": "Hababam School Museum",
    "tourism": "museum"
  }
},
{
  "type": "way",
  "id": 729921210,
  "nodes": [
    6837661055,
    6837661056,
    6837661057,
    6837661058,
    6837661059,
    6837661060,
    6837661061,
    6837661062,
    6837661063,
    6837661064,
    6837661065,
    6837661066,
    6837661067,
    6837661068,
    6837661069,
    6837661070,
    6837661071,
    6837661072,
    6837661073,
    6837661074,
    6837661075,
    6837661076,
    6837661077,
    6837661078,
    6837661079,
    6837661080,
    6837661081,
    6837661082,
    6837661083,
    6837661084,
    6837685585,
    6837685586,
    6837685587,
    6837685588,
    6837685589,
    6837685590,
    6837685591,
    6837685592,
    6837685593,
    6837685594,
    6837685595,
    6837685596,
    6837685597,
    6837685598,
    6837685599,
    6837685600,
    6837685601,
    6837685602,
    6837685603,
    6837685604,
    6837685605,
    6837685606,
    6837685607,
    6837661055
  ],
  "tags": {
    "building": "yes",
    "name": "Bilim Üsküdar",
    "tourism": "museum"
  }
},
{
  "type": "way",
  "id": 738177370,
  "nodes": [
    6911898848,
    6911898849,
    6911898850,
    6911898851,
    6911898848
  ],
  "tags": {
    "building": "yes",
    "name:en": "Heritage Museum",
    "tourism": "museum"
  }
},
{
  "type": "way",
  "id": 746788646,
  "nodes": [
    6988378738,
    6988378739,
    6988378740,
    6988378741,
    6988378738
  ],
  "tags": {
    "building": "yes",
    "name": "Aşiyan Müzesi",
    "tourism": "museum"
  }
},
{
  "type": "relation",
  "id": 1555271,
  "members": [
    {
      "type": "way",
      "ref": 109862851,
      "role": ""
    },
    {
      "type": "way",
      "ref": 109738930,
      "role": ""
    },
    {
      "type": "way",
      "ref": 109738924,
      "role": ""
    },
    {
      "type": "way",
      "ref": 109738926,
      "role": ""
    },
    {
      "type": "way",
      "ref": 109836395,
      "role": ""
    },
    {
      "type": "way",
      "ref": 109836394,
      "role": ""
    },
    {
      "type": "way",
      "ref": 109864688,
      "role": ""
    }
  ],
  "tags": {
    "int_name": "Hagia Sophia",
    "name": "Ayasofya",
    "name:hr": "Aja Sofija",
    "tourism": "museum",
    "type": "site",
    "website": "https://www.geziyerler.com/ayasofya-muzesi",
    "wikidata": "Q12506",
    "wikipedia": "tr:Ayasofya"
  }
},
{
  "type": "relation",
  "id": 2344347,
  "members": [
    {
      "type": "node",
      "ref": 1909688087,
      "role": "entrance"
    },
    {
      "type": "way",
      "ref": 180546853,
      "role": "perimeter"
    }
  ],
  "tags": {
    "name": "Yerebatan Sarnıcı",
    "name:en": "Basilica Cistern",
    "name:fr": "Citerne Basilique",
    "name:ru": "Цистерна Базилика",
    "name:tr": "Yerebatan Sarayı",
    "tourism": "museum",
    "type": "site",
    "wheelchair": "limited",
    "wikidata": "Q216511",
    "wikipedia": "en:Basilica Cistern"
  }
},
{
  "type": "relation",
  "id": 4297527,
  "members": [
    {
      "type": "way",
      "ref": 227308608,
      "role": "outer"
    },
    {
      "type": "way",
      "ref": 318342527,
      "role": "outer"
    },
    {
      "type": "way",
      "ref": 318342524,
      "role": "outer"
    },
    {
      "type": "way",
      "ref": 321514704,
      "role": "outer"
    },
    {
      "type": "way",
      "ref": 321514699,
      "role": "outer"
    },
    {
      "type": "way",
      "ref": 170654364,
      "role": "outer"
    },
    {
      "type": "way",
      "ref": 321514700,
      "role": "outer"
    },
    {
      "type": "way",
      "ref": 321514703,
      "role": "outer"
    },
    {
      "type": "way",
      "ref": 318342525,
      "role": "outer"
    },
    {
      "type": "way",
      "ref": 318342522,
      "role": "outer"
    }
  ],
  "tags": {
    "fax": "+90 212 369 66 06",
    "name": "Rahmi M. Koç Müzesi",
    "phone": "+90 212 369 66 00",
    "tourism": "museum",
    "type": "multipolygon",
    "website": "http://www.rmk-museum.org.tr/default.aspx",
    "website:en": "http://www.rmk-museum.org.tr/en/index.htm",
    "website:tr": "http://www.rmk-museum.org.tr/default.aspx",
    "wheelchair": "yes",
    "wheelchair:description": "Tekerlekli sandalye için %100 uygunluk gösteren Müze'de, kapı geçişleri, rampalar, asansörler, engelli tuvaletleri gibi her türlü olanaklar bulunmaktadır.",
    "wheelchair:description:tr": "Tekerlekli sandalye için %100 uygunluk gösteren Müze'de, kapı geçişleri, rampalar, asansörler, engelli tuvaletleri gibi her türlü olanaklar bulunmaktadır.",
    "wikidata": "Q3404565",
    "wikipedia": "tr:Rahmi M. Koç Müzesi"
  }
},
{
  "type": "relation",
  "id": 4742207,
  "members": [
    {
      "type": "way",
      "ref": 335351349,
      "role": "outer"
    },
    {
      "type": "way",
      "ref": 335351351,
      "role": "inner"
    },
    {
      "type": "way",
      "ref": 335351350,
      "role": "inner"
    }
  ],
  "tags": {
    "building": "yes",
    "name": "Marmara Üniversitesi Cumhuriyet Müzesi",
    "tourism": "museum",
    "type": "multipolygon"
  }
},
{
  "type": "relation",
  "id": 4742554,
  "members": [
    {
      "type": "way",
      "ref": 335364923,
      "role": "inner"
    },
    {
      "type": "way",
      "ref": 32396325,
      "role": "outer"
    }
  ],
  "tags": {
    "addr:city": "İstanbul",
    "building": "church",
    "disused:amenity": "place_of_worship",
    "historic": "yes",
    "name": "Aya İrini Kilisesi",
    "name:ar": "ايا ايريني",
    "name:bg": "Света Ирина",
    "name:de": "Hagia Irene",
    "name:el": "Ναός της Αγίας Ειρήνης",
    "name:en": "Hagia Irene",
    "name:es": "Iglesia de Santa Irene",
    "name:fr": "Sainte-Irène",
    "name:ru": "Церковь Св. Ирины в Стамбуле",
    "name:tr": "Aya İrini Kilisesi",
    "start_date": "740",
    "tourism": "museum",
    "type": "multipolygon",
    "website": "https://muze.gen.tr/",
    "wikidata": "Q736676",
    "wikipedia": "tr:Aya İrini"
  }
},
{
  "type": "relation",
  "id": 6554433,
  "members": [
    {
      "type": "way",
      "ref": 440558676,
      "role": "outer"
    },
    {
      "type": "way",
      "ref": 440558677,
      "role": "inner"
    }
  ],
  "tags": {
    "addr:city": "İstanbul",
    "addr:district": "Beşiktaş",
    "addr:housenumber": "No:1",
    "addr:neighbourhood": "Vişnezade Mah",
    "addr:street": "Dolmabahçe Caddesi",
    "building": "roof",
    "capacity": "50000",
    "email": "info@bjk.com.tr",
    "height": "34",
    "leisure": "stadium",
    "name": "Vodafone Park",
    "phone": "+902129481903",
    "sport": "association_football",
    "tourism": "museum",
    "type": "multipolygon",
    "website": "https://bjk.com.tr/",
    "wheelchair": "yes"
  }
},
{
  "type": "relation",
  "id": 7318154,
  "members": [
    {
      "type": "way",
      "ref": 498879780,
      "role": "outer"
    },
    {
      "type": "way",
      "ref": 498879782,
      "role": "inner"
    }
  ],
  "tags": {
    "alt_name": "Rumeli Hisar;Rumelihisarı;Rumelihisarıı",
    "building": "yes",
    "castle_type": "museum",
    "historic:civilization": "ottoman",
    "museum": "history",
    "name": "Rumeli Hisarı",
    "name:en": "Rumeli Fortress",
    "name:ru": "Крепость Румелихисар",
    "source": "bing",
    "tourism": "museum",
    "type": "multipolygon",
    "website": "https://muze.gen.tr/muze-detay/rumeli",
    "wikidata": "Q90801",
    "wikipedia": "tr:Rumeli Hisarı"
  }
},
{
  "type": "relation",
  "id": 8120955,
  "members": [
    {
      "type": "way",
      "ref": 264996197,
      "role": "outer"
    },
    {
      "type": "way",
      "ref": 570435285,
      "role": "outer"
    },
    {
      "type": "way",
      "ref": 570435286,
      "role": "inner"
    }
  ],
  "tags": {
    "building": "yes",
    "name": "Türk ve İslam Eserleri Müzesi (İbrahim Paşa Sarayı)",
    "name:en": "Turk and Islamic Art Museum",
    "name:es": "Museo de arte turco e islámico",
    "name:ru": "Музей турецкого и исламского искусства",
    "name:zh": "1-12艺术博物馆",
    "tourism": "museum",
    "type": "multipolygon",
    "website": "https://muze.gen.tr/",
    "wheelchair": "limited"
  }
},
{
  "type": "node",
  "id": 2282068053,
  "lat": 41.0216284,
  "lon": 28.5760010
},
{
  "type": "node",
  "id": 2282068055,
  "lat": 41.0217675,
  "lon": 28.5761975
},
{
  "type": "node",
  "id": 2282068057,
  "lat": 41.0219779,
  "lon": 28.5755538
},
{
  "type": "node",
  "id": 2282068058,
  "lat": 41.0221459,
  "lon": 28.5757603
},
{
  "type": "node",
  "id": 5072458496,
  "lat": 41.0182918,
  "lon": 28.9202690
},
{
  "type": "node",
  "id": 5072458497,
  "lat": 41.0183272,
  "lon": 28.9203409
},
{
  "type": "node",
  "id": 5072458498,
  "lat": 41.0183435,
  "lon": 28.9204240
},
{
  "type": "node",
  "id": 5072458499,
  "lat": 41.0183390,
  "lon": 28.9205097
},
{
  "type": "node",
  "id": 5072458500,
  "lat": 41.0179530,
  "lon": 28.9205300
},
{
  "type": "node",
  "id": 5072458501,
  "lat": 41.0179434,
  "lon": 28.9204412
},
{
  "type": "node",
  "id": 5072458502,
  "lat": 41.0179566,
  "lon": 28.9203532
},
{
  "type": "node",
  "id": 5072458503,
  "lat": 41.0179890,
  "lon": 28.9202916
},
{
  "type": "node",
  "id": 5072458504,
  "lat": 41.0183140,
  "lon": 28.9205890
},
{
  "type": "node",
  "id": 5072458505,
  "lat": 41.0182713,
  "lon": 28.9206536
},
{
  "type": "node",
  "id": 5072458506,
  "lat": 41.0182153,
  "lon": 28.9206967
},
{
  "type": "node",
  "id": 5072458507,
  "lat": 41.0181518,
  "lon": 28.9207140
},
{
  "type": "node",
  "id": 5072458508,
  "lat": 41.0180875,
  "lon": 28.9207034
},
{
  "type": "node",
  "id": 5072458509,
  "lat": 41.0180290,
  "lon": 28.9206663
},
{
  "type": "node",
  "id": 5072458510,
  "lat": 41.0179826,
  "lon": 28.9206064
},
{
  "type": "node",
  "id": 5072458511,
  "lat": 41.0180431,
  "lon": 28.9202186
},
{
  "type": "node",
  "id": 5072458512,
  "lat": 41.0181040,
  "lon": 28.9201866
},
{
  "type": "node",
  "id": 5072458513,
  "lat": 41.0181741,
  "lon": 28.9201857
},
{
  "type": "node",
  "id": 5072458514,
  "lat": 41.0182383,
  "lon": 28.9202140
},
{
  "type": "node",
  "id": 364440050,
  "lat": 41.0310568,
  "lon": 28.9391458
},
{
  "type": "node",
  "id": 364440051,
  "lat": 41.0313113,
  "lon": 28.9391767
},
{
  "type": "node",
  "id": 364440053,
  "lat": 41.0313483,
  "lon": 28.9389065
},
{
  "type": "node",
  "id": 3138595880,
  "lat": 41.0312653,
  "lon": 28.9392015
},
{
  "type": "node",
  "id": 3138595881,
  "lat": 41.0312875,
  "lon": 28.9391720
},
{
  "type": "node",
  "id": 3138595882,
  "lat": 41.0312410,
  "lon": 28.9391834
},
{
  "type": "node",
  "id": 3138595883,
  "lat": 41.0312086,
  "lon": 28.9392135
},
{
  "type": "node",
  "id": 3138595884,
  "lat": 41.0311798,
  "lon": 28.9392075
},
{
  "type": "node",
  "id": 3138595885,
  "lat": 41.0311702,
  "lon": 28.9391733
},
{
  "type": "node",
  "id": 3138595886,
  "lat": 41.0311494,
  "lon": 28.9391720
},
{
  "type": "node",
  "id": 3138595887,
  "lat": 41.0311327,
  "lon": 28.9391492
},
{
  "type": "node",
  "id": 3138595888,
  "lat": 41.0311135,
  "lon": 28.9391914
},
{
  "type": "node",
  "id": 3138595889,
  "lat": 41.0310842,
  "lon": 28.9391894
},
{
  "type": "node",
  "id": 3138595890,
  "lat": 41.0311919,
  "lon": 28.9388441
},
{
  "type": "node",
  "id": 3138595891,
  "lat": 41.0311332,
  "lon": 28.9388246
},
{
  "type": "node",
  "id": 3359193649,
  "lat": 41.0154796,
  "lon": 28.9523129
},
{
  "type": "node",
  "id": 3359193652,
  "lat": 41.0151059,
  "lon": 28.9522846
},
{
  "type": "node",
  "id": 3359193653,
  "lat": 41.0153954,
  "lon": 28.9522316
},
{
  "type": "node",
  "id": 3359193654,
  "lat": 41.0150675,
  "lon": 28.9522470
},
{
  "type": "node",
  "id": 3359193655,
  "lat": 41.0149349,
  "lon": 28.9522572
},
{
  "type": "node",
  "id": 3359193656,
  "lat": 41.0155653,
  "lon": 28.9521397
},
{
  "type": "node",
  "id": 3359193657,
  "lat": 41.0150432,
  "lon": 28.9523999
},
{
  "type": "node",
  "id": 3359193658,
  "lat": 41.0153893,
  "lon": 28.9521424
},
{
  "type": "node",
  "id": 3359193661,
  "lat": 41.0153589,
  "lon": 28.9520673
},
{
  "type": "node",
  "id": 3359193662,
  "lat": 41.0152597,
  "lon": 28.9519547
},
{
  "type": "node",
  "id": 3359193663,
  "lat": 41.0152678,
  "lon": 28.9517669
},
{
  "type": "node",
  "id": 3359193664,
  "lat": 41.0153458,
  "lon": 28.9520990
},
{
  "type": "node",
  "id": 1273540368,
  "lat": 41.0091148,
  "lon": 28.9720302
},
{
  "type": "node",
  "id": 1273540380,
  "lat": 41.0090257,
  "lon": 28.9720898
},
{
  "type": "node",
  "id": 1273540395,
  "lat": 41.0090986,
  "lon": 28.9722484
},
{
  "type": "node",
  "id": 1273540436,
  "lat": 41.0089408,
  "lon": 28.9720787
},
{
  "type": "node",
  "id": 1273540463,
  "lat": 41.0090309,
  "lon": 28.9720193
},
{
  "type": "node",
  "id": 1273540466,
  "lat": 41.0089685,
  "lon": 28.9717050
},
{
  "type": "node",
  "id": 3424668192,
  "lat": 41.0044938,
  "lon": 28.9734352
},
{
  "type": "node",
  "id": 1255431508,
  "lat": 41.0081699,
  "lon": 28.9787626
},
{
  "type": "node",
  "id": 1255431509,
  "lat": 41.0077872,
  "lon": 28.9798048
},
{
  "type": "node",
  "id": 1255431528,
  "lat": 41.0083850,
  "lon": 28.9790137
},
{
  "type": "node",
  "id": 1255431533,
  "lat": 41.0083061,
  "lon": 28.9790976
},
{
  "type": "node",
  "id": 1255431537,
  "lat": 41.0079024,
  "lon": 28.9793274
},
{
  "type": "node",
  "id": 1255431538,
  "lat": 41.0083105,
  "lon": 28.9792797
},
{
  "type": "node",
  "id": 1255431555,
  "lat": 41.0083268,
  "lon": 28.9789038
},
{
  "type": "node",
  "id": 1255431559,
  "lat": 41.0078977,
  "lon": 28.9799525
},
{
  "type": "node",
  "id": 1255431560,
  "lat": 41.0080813,
  "lon": 28.9788864
},
{
  "type": "node",
  "id": 1255431580,
  "lat": 41.0083703,
  "lon": 28.9789440
},
{
  "type": "node",
  "id": 1255431582,
  "lat": 41.0081114,
  "lon": 28.9796075
},
{
  "type": "node",
  "id": 1255431589,
  "lat": 41.0081630,
  "lon": 28.9796536
},
{
  "type": "node",
  "id": 1255431595,
  "lat": 41.0077733,
  "lon": 28.9793874
},
{
  "type": "node",
  "id": 1255431598,
  "lat": 41.0082373,
  "lon": 28.9789876
},
{
  "type": "node",
  "id": 1255431614,
  "lat": 41.0077693,
  "lon": 28.9794854
},
{
  "type": "node",
  "id": 1255431619,
  "lat": 41.0082656,
  "lon": 28.9789179
},
{
  "type": "node",
  "id": 1255431622,
  "lat": 41.0082363,
  "lon": 28.9788463
},
{
  "type": "node",
  "id": 1255431625,
  "lat": 41.0080162,
  "lon": 28.9791483
},
{
  "type": "node",
  "id": 1255431633,
  "lat": 41.0078285,
  "lon": 28.9793220
},
{
  "type": "node",
  "id": 1255431638,
  "lat": 41.0083527,
  "lon": 28.9790788
},
{
  "type": "node",
  "id": 1255431639,
  "lat": 41.0077275,
  "lon": 28.9797473
},
{
  "type": "node",
  "id": 1255431655,
  "lat": 41.0078186,
  "lon": 28.9795585
},
{
  "type": "node",
  "id": 1255431662,
  "lat": 41.0079413,
  "lon": 28.9790702
},
{
  "type": "node",
  "id": 1255431670,
  "lat": 41.0077987,
  "lon": 28.9799014
},
{
  "type": "node",
  "id": 1255431671,
  "lat": 41.0076228,
  "lon": 28.9799382
},
{
  "type": "node",
  "id": 1255431678,
  "lat": 41.0079963,
  "lon": 28.9789715
},
{
  "type": "node",
  "id": 1255431684,
  "lat": 41.0082555,
  "lon": 28.9790654
},
{
  "type": "node",
  "id": 1255431689,
  "lat": 41.0082841,
  "lon": 28.9792534
},
{
  "type": "node",
  "id": 1255431697,
  "lat": 41.0076547,
  "lon": 28.9797626
},
{
  "type": "node",
  "id": 1255431701,
  "lat": 41.0081477,
  "lon": 28.9789700
},
{
  "type": "node",
  "id": 1255431713,
  "lat": 41.0076113,
  "lon": 28.9798416
},
{
  "type": "node",
  "id": 1255431716,
  "lat": 41.0080712,
  "lon": 28.9790497
},
{
  "type": "node",
  "id": 1256388856,
  "lat": 41.0088912,
  "lon": 28.9795337
},
{
  "type": "node",
  "id": 1256388866,
  "lat": 41.0089129,
  "lon": 28.9795518
},
{
  "type": "node",
  "id": 1256638276,
  "lat": 41.0091103,
  "lon": 28.9797702
},
{
  "type": "node",
  "id": 1256638280,
  "lat": 41.0087562,
  "lon": 28.9794176
},
{
  "type": "node",
  "id": 1256638281,
  "lat": 41.0087666,
  "lon": 28.9794850
},
{
  "type": "node",
  "id": 1256638286,
  "lat": 41.0088715,
  "lon": 28.9795732
},
{
  "type": "node",
  "id": 1256638287,
  "lat": 41.0088931,
  "lon": 28.9795914
},
{
  "type": "node",
  "id": 1256638288,
  "lat": 41.0089769,
  "lon": 28.9796625
},
{
  "type": "node",
  "id": 1256638290,
  "lat": 41.0088414,
  "lon": 28.9794942
},
{
  "type": "node",
  "id": 1256638293,
  "lat": 41.0090353,
  "lon": 28.9795244
},
{
  "type": "node",
  "id": 1256638297,
  "lat": 41.0088596,
  "lon": 28.9795097
},
{
  "type": "node",
  "id": 1256638307,
  "lat": 41.0087858,
  "lon": 28.9795021
},
{
  "type": "node",
  "id": 1256638315,
  "lat": 41.0090717,
  "lon": 28.9800099
},
{
  "type": "node",
  "id": 1256638317,
  "lat": 41.0091506,
  "lon": 28.9799321
},
{
  "type": "node",
  "id": 1256638318,
  "lat": 41.0090527,
  "lon": 28.9797191
},
{
  "type": "node",
  "id": 1256638319,
  "lat": 41.0090656,
  "lon": 28.9798570
},
{
  "type": "node",
  "id": 1256638324,
  "lat": 41.0088419,
  "lon": 28.9795494
},
{
  "type": "node",
  "id": 1256638328,
  "lat": 41.0087891,
  "lon": 28.9794459
},
{
  "type": "node",
  "id": 1256638330,
  "lat": 41.0088232,
  "lon": 28.9795347
},
{
  "type": "node",
  "id": 1256638331,
  "lat": 41.0089599,
  "lon": 28.9800056
},
{
  "type": "node",
  "id": 1256638333,
  "lat": 41.0091122,
  "lon": 28.9795888
},
{
  "type": "node",
  "id": 1256638335,
  "lat": 41.0088083,
  "lon": 28.9794630
},
{
  "type": "node",
  "id": 1256638336,
  "lat": 41.0087094,
  "lon": 28.9794373
},
{
  "type": "node",
  "id": 1256638341,
  "lat": 41.0087305,
  "lon": 28.9793959
},
{
  "type": "node",
  "id": 1256638343,
  "lat": 41.0087350,
  "lon": 28.9794591
},
{
  "type": "node",
  "id": 1256643642,
  "lat": 41.0081614,
  "lon": 28.9795074
},
{
  "type": "node",
  "id": 1256643643,
  "lat": 41.0083432,
  "lon": 28.9791375
},
{
  "type": "node",
  "id": 1256643644,
  "lat": 41.0084335,
  "lon": 28.9792194
},
{
  "type": "node",
  "id": 1256643646,
  "lat": 41.0086239,
  "lon": 28.9791816
},
{
  "type": "node",
  "id": 1256643647,
  "lat": 41.0081339,
  "lon": 28.9794811
},
{
  "type": "node",
  "id": 1256643648,
  "lat": 41.0082956,
  "lon": 28.9793067
},
{
  "type": "node",
  "id": 1256643649,
  "lat": 41.0086131,
  "lon": 28.9792034
},
{
  "type": "node",
  "id": 1256643651,
  "lat": 41.0084951,
  "lon": 28.9790997
},
{
  "type": "node",
  "id": 1256643652,
  "lat": 41.0086969,
  "lon": 28.9792400
},
{
  "type": "node",
  "id": 1256643653,
  "lat": 41.0086300,
  "lon": 28.9793716
},
{
  "type": "node",
  "id": 1256643655,
  "lat": 41.0081393,
  "lon": 28.9791706
},
{
  "type": "node",
  "id": 1256657531,
  "lat": 41.0091183,
  "lon": 28.9799989
},
{
  "type": "node",
  "id": 1762092188,
  "lat": 41.0083100,
  "lon": 28.9792025
},
{
  "type": "node",
  "id": 1909688081,
  "lat": 41.0083433,
  "lon": 28.9779289
},
{
  "type": "node",
  "id": 1909688083,
  "lat": 41.0083880,
  "lon": 28.9779987
},
{
  "type": "node",
  "id": 1909688085,
  "lat": 41.0084195,
  "lon": 28.9778431
},
{
  "type": "node",
  "id": 1909688087,
  "lat": 41.0084167,
  "lon": 28.9779664
},
{
  "type": "node",
  "id": 1909688093,
  "lat": 41.0084642,
  "lon": 28.9779129
},
{
  "type": "node",
  "id": 2706580178,
  "lat": 41.0058260,
  "lon": 28.9747079
},
{
  "type": "node",
  "id": 2706580179,
  "lat": 41.0060985,
  "lon": 28.9741557
},
{
  "type": "node",
  "id": 2706580181,
  "lat": 41.0067341,
  "lon": 28.9747326
},
{
  "type": "node",
  "id": 2706580183,
  "lat": 41.0066353,
  "lon": 28.9749414
},
{
  "type": "node",
  "id": 2706580184,
  "lat": 41.0069638,
  "lon": 28.9752493
},
{
  "type": "node",
  "id": 2706580186,
  "lat": 41.0068062,
  "lon": 28.9755431
},
{
  "type": "node",
  "id": 2706580188,
  "lat": 41.0065338,
  "lon": 28.9752989
},
{
  "type": "node",
  "id": 2706580189,
  "lat": 41.0066567,
  "lon": 28.9750618
},
{
  "type": "node",
  "id": 2706580191,
  "lat": 41.0065098,
  "lon": 28.9749202
},
{
  "type": "node",
  "id": 2706580193,
  "lat": 41.0063842,
  "lon": 28.9751786
},
{
  "type": "node",
  "id": 3174025199,
  "lat": 41.0084547,
  "lon": 28.9751407
},
{
  "type": "node",
  "id": 3174025200,
  "lat": 41.0082746,
  "lon": 28.9751180
},
{
  "type": "node",
  "id": 3174025201,
  "lat": 41.0082715,
  "lon": 28.9751616
},
{
  "type": "node",
  "id": 3174025202,
  "lat": 41.0081921,
  "lon": 28.9751516
},
{
  "type": "node",
  "id": 3174025203,
  "lat": 41.0081730,
  "lon": 28.9754177
},
{
  "type": "node",
  "id": 3174025204,
  "lat": 41.0082403,
  "lon": 28.9754261
},
{
  "type": "node",
  "id": 3174025205,
  "lat": 41.0082384,
  "lon": 28.9754531
},
{
  "type": "node",
  "id": 3174025206,
  "lat": 41.0083039,
  "lon": 28.9754613
},
{
  "type": "node",
  "id": 3174025207,
  "lat": 41.0084469,
  "lon": 28.9752271
},
{
  "type": "node",
  "id": 3174025208,
  "lat": 41.0083216,
  "lon": 28.9752159
},
{
  "type": "node",
  "id": 3373092091,
  "lat": 41.0043765,
  "lon": 28.9774580
},
{
  "type": "node",
  "id": 3373092092,
  "lat": 41.0042979,
  "lon": 28.9775733
},
{
  "type": "node",
  "id": 3373093193,
  "lat": 41.0042897,
  "lon": 28.9773543
},
{
  "type": "node",
  "id": 3373093194,
  "lat": 41.0042112,
  "lon": 28.9774696
},
{
  "type": "node",
  "id": 3424668186,
  "lat": 41.0043885,
  "lon": 28.9738727
},
{
  "type": "node",
  "id": 3424668188,
  "lat": 41.0044233,
  "lon": 28.9735548
},
{
  "type": "node",
  "id": 3424669896,
  "lat": 41.0045181,
  "lon": 28.9736530
},
{
  "type": "node",
  "id": 3424669898,
  "lat": 41.0045477,
  "lon": 28.9738527
},
{
  "type": "node",
  "id": 3424669899,
  "lat": 41.0046191,
  "lon": 28.9737299
},
{
  "type": "node",
  "id": 3424669901,
  "lat": 41.0046970,
  "lon": 28.9740050
},
{
  "type": "node",
  "id": 3424669902,
  "lat": 41.0047535,
  "lon": 28.9746974
},
{
  "type": "node",
  "id": 3424669904,
  "lat": 41.0047684,
  "lon": 28.9738822
},
{
  "type": "node",
  "id": 3424669906,
  "lat": 41.0048344,
  "lon": 28.9741455
},
{
  "type": "node",
  "id": 3424669908,
  "lat": 41.0048766,
  "lon": 28.9748249
},
{
  "type": "node",
  "id": 3424669909,
  "lat": 41.0049068,
  "lon": 28.9740228
},
{
  "type": "node",
  "id": 3424669910,
  "lat": 41.0049171,
  "lon": 28.9744199
},
{
  "type": "node",
  "id": 3424669911,
  "lat": 41.0049415,
  "lon": 28.9747149
},
{
  "type": "node",
  "id": 3424669912,
  "lat": 41.0049960,
  "lon": 28.9747713
},
{
  "type": "node",
  "id": 3424669913,
  "lat": 41.0050561,
  "lon": 28.9743751
},
{
  "type": "node",
  "id": 3424669914,
  "lat": 41.0051285,
  "lon": 28.9742524
},
{
  "type": "node",
  "id": 3424669915,
  "lat": 41.0052948,
  "lon": 28.9742645
},
{
  "type": "node",
  "id": 3424857251,
  "lat": 41.0081045,
  "lon": 28.9792270
},
{
  "type": "node",
  "id": 3424857253,
  "lat": 41.0082046,
  "lon": 28.9793246
},
{
  "type": "node",
  "id": 3424857277,
  "lat": 41.0088062,
  "lon": 28.9795192
},
{
  "type": "node",
  "id": 4680908276,
  "lat": 41.0077553,
  "lon": 28.9799804
},
{
  "type": "node",
  "id": 4680908277,
  "lat": 41.0076825,
  "lon": 28.9799957
},
{
  "type": "node",
  "id": 4680908278,
  "lat": 41.0078926,
  "lon": 28.9795639
},
{
  "type": "node",
  "id": 4680908279,
  "lat": 41.0079518,
  "lon": 28.9794005
},
{
  "type": "node",
  "id": 4680908280,
  "lat": 41.0079477,
  "lon": 28.9794984
},
{
  "type": "node",
  "id": 5484199879,
  "lat": 41.0060633,
  "lon": 28.9749080
},
{
  "type": "node",
  "id": 5484199880,
  "lat": 41.0061770,
  "lon": 28.9743812
},
{
  "type": "node",
  "id": 5484199881,
  "lat": 41.0060069,
  "lon": 28.9747353
},
{
  "type": "node",
  "id": 5484199882,
  "lat": 41.0062174,
  "lon": 28.9749177
},
{
  "type": "node",
  "id": 5484199883,
  "lat": 41.0062741,
  "lon": 28.9748292
},
{
  "type": "node",
  "id": 5484199884,
  "lat": 41.0063389,
  "lon": 28.9749016
},
{
  "type": "node",
  "id": 5484199885,
  "lat": 41.0064664,
  "lon": 28.9746495
},
{
  "type": "node",
  "id": 1273540458,
  "lat": 41.0095738,
  "lon": 28.9717839
},
{
  "type": "node",
  "id": 1273540468,
  "lat": 41.0095350,
  "lon": 28.9723053
},
{
  "type": "node",
  "id": 251397966,
  "lat": 41.0077975,
  "lon": 28.9801328
},
{
  "type": "node",
  "id": 1193429204,
  "lat": 41.0085535,
  "lon": 28.9809191
},
{
  "type": "node",
  "id": 1255431656,
  "lat": 41.0079766,
  "lon": 28.9800210
},
{
  "type": "node",
  "id": 1256638277,
  "lat": 41.0086967,
  "lon": 28.9805205
},
{
  "type": "node",
  "id": 1256638279,
  "lat": 41.0086962,
  "lon": 28.9806119
},
{
  "type": "node",
  "id": 1256638282,
  "lat": 41.0089224,
  "lon": 28.9800789
},
{
  "type": "node",
  "id": 1256638283,
  "lat": 41.0087437,
  "lon": 28.9807881
},
{
  "type": "node",
  "id": 1256638284,
  "lat": 41.0086376,
  "lon": 28.9806364
},
{
  "type": "node",
  "id": 1256638285,
  "lat": 41.0087774,
  "lon": 28.9807646
},
{
  "type": "node",
  "id": 1256638292,
  "lat": 41.0084989,
  "lon": 28.9808628
},
{
  "type": "node",
  "id": 1256638294,
  "lat": 41.0086861,
  "lon": 28.9807715
},
{
  "type": "node",
  "id": 1256638295,
  "lat": 41.0087832,
  "lon": 28.9806352
},
{
  "type": "node",
  "id": 1256638296,
  "lat": 41.0088456,
  "lon": 28.9802292
},
{
  "type": "node",
  "id": 1256638298,
  "lat": 41.0086582,
  "lon": 28.9807099
},
{
  "type": "node",
  "id": 1256638299,
  "lat": 41.0079452,
  "lon": 28.9802721
},
{
  "type": "node",
  "id": 1256638300,
  "lat": 41.0088255,
  "lon": 28.9802686
},
{
  "type": "node",
  "id": 1256638301,
  "lat": 41.0087234,
  "lon": 28.9807900
},
{
  "type": "node",
  "id": 1256638303,
  "lat": 41.0087920,
  "lon": 28.9807390
},
{
  "type": "node",
  "id": 1256638304,
  "lat": 41.0089280,
  "lon": 28.9803076
},
{
  "type": "node",
  "id": 1256638305,
  "lat": 41.0089118,
  "lon": 28.9804712
},
{
  "type": "node",
  "id": 1256638308,
  "lat": 41.0088207,
  "lon": 28.9806295
},
{
  "type": "node",
  "id": 1256638309,
  "lat": 41.0086102,
  "lon": 28.9808306
},
{
  "type": "node",
  "id": 1256638310,
  "lat": 41.0087908,
  "lon": 28.9806498
},
{
  "type": "node",
  "id": 1256638311,
  "lat": 41.0087664,
  "lon": 28.9807759
},
{
  "type": "node",
  "id": 1256638312,
  "lat": 41.0086762,
  "lon": 28.9806322
},
{
  "type": "node",
  "id": 1256638313,
  "lat": 41.0086636,
  "lon": 28.9806574
},
{
  "type": "node",
  "id": 1256638321,
  "lat": 41.0085920,
  "lon": 28.9808119
},
{
  "type": "node",
  "id": 1256638325,
  "lat": 41.0086992,
  "lon": 28.9807818
},
{
  "type": "node",
  "id": 1256638326,
  "lat": 41.0087988,
  "lon": 28.9806798
},
{
  "type": "node",
  "id": 1256638327,
  "lat": 41.0090353,
  "lon": 28.9800769
},
{
  "type": "node",
  "id": 1256638329,
  "lat": 41.0080754,
  "lon": 28.9804526
},
{
  "type": "node",
  "id": 1256638332,
  "lat": 41.0087998,
  "lon": 28.9806989
},
{
  "type": "node",
  "id": 1256638334,
  "lat": 41.0087422,
  "lon": 28.9806033
},
{
  "type": "node",
  "id": 1256638337,
  "lat": 41.0091000,
  "lon": 28.9800367
},
{
  "type": "node",
  "id": 1256638338,
  "lat": 41.0086654,
  "lon": 28.9807392
},
{
  "type": "node",
  "id": 1256638339,
  "lat": 41.0090170,
  "lon": 28.9801574
},
{
  "type": "node",
  "id": 1256638340,
  "lat": 41.0088490,
  "lon": 28.9804015
},
{
  "type": "node",
  "id": 1256638342,
  "lat": 41.0079210,
  "lon": 28.9803204
},
{
  "type": "node",
  "id": 1256638344,
  "lat": 41.0088895,
  "lon": 28.9803317
},
{
  "type": "node",
  "id": 1256638345,
  "lat": 41.0087647,
  "lon": 28.9806145
},
{
  "type": "node",
  "id": 1256638347,
  "lat": 41.0087175,
  "lon": 28.9806027
},
{
  "type": "node",
  "id": 1256657486,
  "lat": 41.0090657,
  "lon": 28.9803893
},
{
  "type": "node",
  "id": 1256657490,
  "lat": 41.0088821,
  "lon": 28.9806910
},
{
  "type": "node",
  "id": 1256657492,
  "lat": 41.0087786,
  "lon": 28.9808477
},
{
  "type": "node",
  "id": 1256657494,
  "lat": 41.0089410,
  "lon": 28.9806039
},
{
  "type": "node",
  "id": 1256657503,
  "lat": 41.0088423,
  "lon": 28.9809766
},
{
  "type": "node",
  "id": 1256657509,
  "lat": 41.0087756,
  "lon": 28.9808975
},
{
  "type": "node",
  "id": 1256657512,
  "lat": 41.0089157,
  "lon": 28.9805739
},
{
  "type": "node",
  "id": 1256657515,
  "lat": 41.0088647,
  "lon": 28.9807203
},
{
  "type": "node",
  "id": 1256657516,
  "lat": 41.0087956,
  "lon": 28.9808679
},
{
  "type": "node",
  "id": 1256657517,
  "lat": 41.0088980,
  "lon": 28.9807098
},
{
  "type": "node",
  "id": 1256657526,
  "lat": 41.0088792,
  "lon": 28.9807375
},
{
  "type": "node",
  "id": 1256657529,
  "lat": 41.0090517,
  "lon": 28.9803727
},
{
  "type": "node",
  "id": 4078371618,
  "lat": 41.0083102,
  "lon": 28.9807544
},
{
  "type": "node",
  "id": 4078371619,
  "lat": 41.0084724,
  "lon": 28.9809129
},
{
  "type": "node",
  "id": 31678655,
  "lat": 41.0117404,
  "lon": 28.9821588
},
{
  "type": "node",
  "id": 35889091,
  "lat": 41.0096290,
  "lon": 28.9815181
},
{
  "type": "node",
  "id": 278366522,
  "lat": 41.0112534,
  "lon": 28.9800736
},
{
  "type": "node",
  "id": 278366524,
  "lat": 41.0116569,
  "lon": 28.9804597
},
{
  "type": "node",
  "id": 278366525,
  "lat": 41.0126549,
  "lon": 28.9815326
},
{
  "type": "node",
  "id": 278366526,
  "lat": 41.0122359,
  "lon": 28.9823525
},
{
  "type": "node",
  "id": 364455746,
  "lat": 41.0094018,
  "lon": 28.9812448
},
{
  "type": "node",
  "id": 364455751,
  "lat": 41.0100243,
  "lon": 28.9810875
},
{
  "type": "node",
  "id": 1193429006,
  "lat": 41.0115327,
  "lon": 28.9806930
},
{
  "type": "node",
  "id": 1193429009,
  "lat": 41.0120586,
  "lon": 28.9815167
},
{
  "type": "node",
  "id": 1193429012,
  "lat": 41.0112376,
  "lon": 28.9801116
},
{
  "type": "node",
  "id": 1193429072,
  "lat": 41.0111290,
  "lon": 28.9803156
},
{
  "type": "node",
  "id": 1193429103,
  "lat": 41.0122270,
  "lon": 28.9811855
},
{
  "type": "node",
  "id": 1193429133,
  "lat": 41.0118177,
  "lon": 28.9813014
},
{
  "type": "node",
  "id": 1193429140,
  "lat": 41.0121540,
  "lon": 28.9810595
},
{
  "type": "node",
  "id": 1193429198,
  "lat": 41.0121061,
  "lon": 28.9810105
},
{
  "type": "node",
  "id": 1193429411,
  "lat": 41.0119914,
  "lon": 28.9809598
},
{
  "type": "node",
  "id": 1193429551,
  "lat": 41.0121385,
  "lon": 28.9810247
},
{
  "type": "node",
  "id": 1193429613,
  "lat": 41.0120785,
  "lon": 28.9810376
},
{
  "type": "node",
  "id": 1193429619,
  "lat": 41.0121382,
  "lon": 28.9811061
},
{
  "type": "node",
  "id": 1199393856,
  "lat": 41.0117655,
  "lon": 28.9821188
},
{
  "type": "node",
  "id": 1199394356,
  "lat": 41.0118332,
  "lon": 28.9819864
},
{
  "type": "node",
  "id": 1256657495,
  "lat": 41.0091672,
  "lon": 28.9802391
},
{
  "type": "node",
  "id": 1256657496,
  "lat": 41.0092635,
  "lon": 28.9803534
},
{
  "type": "node",
  "id": 2049944448,
  "lat": 41.0115814,
  "lon": 28.9804331
},
{
  "type": "node",
  "id": 2049944450,
  "lat": 41.0115971,
  "lon": 28.9804037
},
{
  "type": "node",
  "id": 3254386803,
  "lat": 41.0107588,
  "lon": 28.9812950
},
{
  "type": "node",
  "id": 3254386804,
  "lat": 41.0107833,
  "lon": 28.9813171
},
{
  "type": "node",
  "id": 3254386805,
  "lat": 41.0108156,
  "lon": 28.9812543
},
{
  "type": "node",
  "id": 3254386806,
  "lat": 41.0108398,
  "lon": 28.9813628
},
{
  "type": "node",
  "id": 3254386807,
  "lat": 41.0108666,
  "lon": 28.9810853
},
{
  "type": "node",
  "id": 3254386808,
  "lat": 41.0108702,
  "lon": 28.9813037
},
{
  "type": "node",
  "id": 3254386809,
  "lat": 41.0108852,
  "lon": 28.9809997
},
{
  "type": "node",
  "id": 3254386810,
  "lat": 41.0109234,
  "lon": 28.9811366
},
{
  "type": "node",
  "id": 3254386811,
  "lat": 41.0109595,
  "lon": 28.9810665
},
{
  "type": "node",
  "id": 3254386812,
  "lat": 41.0111207,
  "lon": 28.9805403
},
{
  "type": "node",
  "id": 3254386813,
  "lat": 41.0111258,
  "lon": 28.9810507
},
{
  "type": "node",
  "id": 3254386814,
  "lat": 41.0112946,
  "lon": 28.9817737
},
{
  "type": "node",
  "id": 3254386815,
  "lat": 41.0113032,
  "lon": 28.9807046
},
{
  "type": "node",
  "id": 3254386816,
  "lat": 41.0113258,
  "lon": 28.9817130
},
{
  "type": "node",
  "id": 3254386817,
  "lat": 41.0113804,
  "lon": 28.9812800
},
{
  "type": "node",
  "id": 3254386818,
  "lat": 41.0114029,
  "lon": 28.9812363
},
{
  "type": "node",
  "id": 3254386819,
  "lat": 41.0114579,
  "lon": 28.9813452
},
{
  "type": "node",
  "id": 3254386820,
  "lat": 41.0114787,
  "lon": 28.9813045
},
{
  "type": "node",
  "id": 3254386821,
  "lat": 41.0116268,
  "lon": 28.9819850
},
{
  "type": "node",
  "id": 3254386822,
  "lat": 41.0116693,
  "lon": 28.9818190
},
{
  "type": "node",
  "id": 3254386823,
  "lat": 41.0116986,
  "lon": 28.9818455
},
{
  "type": "node",
  "id": 3254386824,
  "lat": 41.0117091,
  "lon": 28.9817415
},
{
  "type": "node",
  "id": 3254386825,
  "lat": 41.0117775,
  "lon": 28.9816330
},
{
  "type": "node",
  "id": 3254386826,
  "lat": 41.0117962,
  "lon": 28.9815966
},
{
  "type": "node",
  "id": 3254386827,
  "lat": 41.0118554,
  "lon": 28.9816986
},
{
  "type": "node",
  "id": 3254386828,
  "lat": 41.0118724,
  "lon": 28.9816653
},
{
  "type": "node",
  "id": 3254386829,
  "lat": 41.0121186,
  "lon": 28.9819356
},
{
  "type": "node",
  "id": 3254386830,
  "lat": 41.0122237,
  "lon": 28.9822047
},
{
  "type": "node",
  "id": 3254386831,
  "lat": 41.0123616,
  "lon": 28.9814617
},
{
  "type": "node",
  "id": 3254386832,
  "lat": 41.0125279,
  "lon": 28.9816114
},
{
  "type": "node",
  "id": 3424786618,
  "lat": 41.0098440,
  "lon": 28.9812041
},
{
  "type": "node",
  "id": 3424786619,
  "lat": 41.0098582,
  "lon": 28.9807684
},
{
  "type": "node",
  "id": 3424786620,
  "lat": 41.0099002,
  "lon": 28.9812717
},
{
  "type": "node",
  "id": 3424786623,
  "lat": 41.0099233,
  "lon": 28.9808417
},
{
  "type": "node",
  "id": 3424786624,
  "lat": 41.0099278,
  "lon": 28.9812314
},
{
  "type": "node",
  "id": 3424786626,
  "lat": 41.0099535,
  "lon": 28.9812622
},
{
  "type": "node",
  "id": 3424786627,
  "lat": 41.0099679,
  "lon": 28.9810197
},
{
  "type": "node",
  "id": 3424786628,
  "lat": 41.0099773,
  "lon": 28.9812268
},
{
  "type": "node",
  "id": 3424786629,
  "lat": 41.0099811,
  "lon": 28.9805770
},
{
  "type": "node",
  "id": 3424786630,
  "lat": 41.0099816,
  "lon": 28.9811498
},
{
  "type": "node",
  "id": 3424786631,
  "lat": 41.0099868,
  "lon": 28.9803668
},
{
  "type": "node",
  "id": 3424786633,
  "lat": 41.0100084,
  "lon": 28.9811820
},
{
  "type": "node",
  "id": 3424786635,
  "lat": 41.0100462,
  "lon": 28.9806503
},
{
  "type": "node",
  "id": 3424786638,
  "lat": 41.0102358,
  "lon": 28.9806040
},
{
  "type": "node",
  "id": 3424881153,
  "lat": 41.0107332,
  "lon": 28.9813020
},
{
  "type": "node",
  "id": 3424881158,
  "lat": 41.0113664,
  "lon": 28.9805375
},
{
  "type": "node",
  "id": 2433573015,
  "lat": 40.9816734,
  "lon": 29.0249749
},
{
  "type": "node",
  "id": 2433573017,
  "lat": 40.9816919,
  "lon": 29.0248559
},
{
  "type": "node",
  "id": 2433573019,
  "lat": 40.9817973,
  "lon": 29.0250086
},
{
  "type": "node",
  "id": 2433573021,
  "lat": 40.9818157,
  "lon": 29.0248896
},
{
  "type": "node",
  "id": 6239257673,
  "lat": 41.0134092,
  "lon": 29.0419694
},
{
  "type": "node",
  "id": 6239257674,
  "lat": 41.0134605,
  "lon": 29.0420202
},
{
  "type": "node",
  "id": 6239257675,
  "lat": 41.0134868,
  "lon": 29.0420014
},
{
  "type": "node",
  "id": 6239257676,
  "lat": 41.0135098,
  "lon": 29.0420226
},
{
  "type": "node",
  "id": 6239257677,
  "lat": 41.0134697,
  "lon": 29.0420980
},
{
  "type": "node",
  "id": 6239257678,
  "lat": 41.0134961,
  "lon": 29.0421231
},
{
  "type": "node",
  "id": 6239257679,
  "lat": 41.0135133,
  "lon": 29.0420912
},
{
  "type": "node",
  "id": 6239257680,
  "lat": 41.0135550,
  "lon": 29.0421308
},
{
  "type": "node",
  "id": 6239257681,
  "lat": 41.0135372,
  "lon": 29.0421637
},
{
  "type": "node",
  "id": 6239257682,
  "lat": 41.0135632,
  "lon": 29.0421884
},
{
  "type": "node",
  "id": 6239257683,
  "lat": 41.0135963,
  "lon": 29.0421273
},
{
  "type": "node",
  "id": 6239257684,
  "lat": 41.0136088,
  "lon": 29.0421392
},
{
  "type": "node",
  "id": 6239258885,
  "lat": 41.0135889,
  "lon": 29.0421760
},
{
  "type": "node",
  "id": 6239258886,
  "lat": 41.0136502,
  "lon": 29.0422340
},
{
  "type": "node",
  "id": 6239258887,
  "lat": 41.0137236,
  "lon": 29.0420980
},
{
  "type": "node",
  "id": 6239258888,
  "lat": 41.0137560,
  "lon": 29.0421140
},
{
  "type": "node",
  "id": 6239258889,
  "lat": 41.0138046,
  "lon": 29.0420148
},
{
  "type": "node",
  "id": 6239258890,
  "lat": 41.0137904,
  "lon": 29.0419907
},
{
  "type": "node",
  "id": 6239258891,
  "lat": 41.0138379,
  "lon": 29.0419064
},
{
  "type": "node",
  "id": 6239258892,
  "lat": 41.0137969,
  "lon": 29.0418659
},
{
  "type": "node",
  "id": 6239258893,
  "lat": 41.0137752,
  "lon": 29.0419044
},
{
  "type": "node",
  "id": 6239258894,
  "lat": 41.0136327,
  "lon": 29.0417635
},
{
  "type": "node",
  "id": 6239258895,
  "lat": 41.0136603,
  "lon": 29.0417145
},
{
  "type": "node",
  "id": 6239258896,
  "lat": 41.0136044,
  "lon": 29.0416593
},
{
  "type": "node",
  "id": 6239258897,
  "lat": 41.0135523,
  "lon": 29.0417518
},
{
  "type": "node",
  "id": 6239258898,
  "lat": 41.0135174,
  "lon": 29.0417173
},
{
  "type": "node",
  "id": 6239258899,
  "lat": 41.0134541,
  "lon": 29.0418298
},
{
  "type": "node",
  "id": 6239258900,
  "lat": 41.0134758,
  "lon": 29.0418512
},
{
  "type": "node",
  "id": 4555807484,
  "lat": 40.9471390,
  "lon": 29.1071726
},
{
  "type": "node",
  "id": 4555807485,
  "lat": 40.9470377,
  "lon": 29.1070547
},
{
  "type": "node",
  "id": 4555807486,
  "lat": 40.9469640,
  "lon": 29.1071726
},
{
  "type": "node",
  "id": 4555807487,
  "lat": 40.9470622,
  "lon": 29.1072946
},
{
  "type": "node",
  "id": 2451239991,
  "lat": 40.9759566,
  "lon": 29.0706193
},
{
  "type": "node",
  "id": 5508192030,
  "lat": 40.9760496,
  "lon": 29.0707083
},
{
  "type": "node",
  "id": 5508192031,
  "lat": 40.9758917,
  "lon": 29.0707455
},
{
  "type": "node",
  "id": 5508192032,
  "lat": 40.9759788,
  "lon": 29.0708314
},
{
  "type": "node",
  "id": 6837661055,
  "lat": 40.9975612,
  "lon": 29.0643592
},
{
  "type": "node",
  "id": 6837661056,
  "lat": 40.9974801,
  "lon": 29.0643405
},
{
  "type": "node",
  "id": 6837661057,
  "lat": 40.9974308,
  "lon": 29.0643054
},
{
  "type": "node",
  "id": 6837661058,
  "lat": 40.9974114,
  "lon": 29.0643405
},
{
  "type": "node",
  "id": 6837661059,
  "lat": 40.9973726,
  "lon": 29.0643125
},
{
  "type": "node",
  "id": 6837661060,
  "lat": 40.9973515,
  "lon": 29.0642728
},
{
  "type": "node",
  "id": 6837661061,
  "lat": 40.9973339,
  "lon": 29.0643241
},
{
  "type": "node",
  "id": 6837661062,
  "lat": 40.9973074,
  "lon": 29.0643592
},
{
  "type": "node",
  "id": 6837661063,
  "lat": 40.9972757,
  "lon": 29.0643662
},
{
  "type": "node",
  "id": 6837661064,
  "lat": 40.9972422,
  "lon": 29.0643521
},
{
  "type": "node",
  "id": 6837661065,
  "lat": 40.9972158,
  "lon": 29.0643265
},
{
  "type": "node",
  "id": 6837661066,
  "lat": 40.9972070,
  "lon": 29.0642821
},
{
  "type": "node",
  "id": 6837661067,
  "lat": 40.9972158,
  "lon": 29.0642354
},
{
  "type": "node",
  "id": 6837661068,
  "lat": 40.9972334,
  "lon": 29.0642097
},
{
  "type": "node",
  "id": 6837661069,
  "lat": 40.9972669,
  "lon": 29.0641864
},
{
  "type": "node",
  "id": 6837661070,
  "lat": 40.9973022,
  "lon": 29.0641910
},
{
  "type": "node",
  "id": 6837661071,
  "lat": 40.9973233,
  "lon": 29.0642027
},
{
  "type": "node",
  "id": 6837661072,
  "lat": 40.9973321,
  "lon": 29.0641887
},
{
  "type": "node",
  "id": 6837661073,
  "lat": 40.9973180,
  "lon": 29.0641443
},
{
  "type": "node",
  "id": 6837661074,
  "lat": 40.9973110,
  "lon": 29.0640743
},
{
  "type": "node",
  "id": 6837661075,
  "lat": 40.9973145,
  "lon": 29.0640042
},
{
  "type": "node",
  "id": 6837661076,
  "lat": 40.9973251,
  "lon": 29.0639272
},
{
  "type": "node",
  "id": 6837661077,
  "lat": 40.9973480,
  "lon": 29.0638571
},
{
  "type": "node",
  "id": 6837661078,
  "lat": 40.9973850,
  "lon": 29.0638011
},
{
  "type": "node",
  "id": 6837661079,
  "lat": 40.9974273,
  "lon": 29.0637684
},
{
  "type": "node",
  "id": 6837661080,
  "lat": 40.9974713,
  "lon": 29.0637521
},
{
  "type": "node",
  "id": 6837661081,
  "lat": 40.9975348,
  "lon": 29.0637521
},
{
  "type": "node",
  "id": 6837661082,
  "lat": 40.9975859,
  "lon": 29.0637777
},
{
  "type": "node",
  "id": 6837661083,
  "lat": 40.9976335,
  "lon": 29.0638244
},
{
  "type": "node",
  "id": 6837661084,
  "lat": 40.9976740,
  "lon": 29.0638945
},
{
  "type": "node",
  "id": 6837685585,
  "lat": 40.9977004,
  "lon": 29.0639715
},
{
  "type": "node",
  "id": 6837685586,
  "lat": 40.9977110,
  "lon": 29.0640579
},
{
  "type": "node",
  "id": 6837685587,
  "lat": 40.9977128,
  "lon": 29.0641560
},
{
  "type": "node",
  "id": 6837685588,
  "lat": 40.9977022,
  "lon": 29.0642517
},
{
  "type": "node",
  "id": 6837685589,
  "lat": 40.9976758,
  "lon": 29.0643592
},
{
  "type": "node",
  "id": 6837685590,
  "lat": 40.9976405,
  "lon": 29.0644526
},
{
  "type": "node",
  "id": 6837685591,
  "lat": 40.9975947,
  "lon": 29.0645366
},
{
  "type": "node",
  "id": 6837685592,
  "lat": 40.9975383,
  "lon": 29.0646253
},
{
  "type": "node",
  "id": 6837685593,
  "lat": 40.9974925,
  "lon": 29.0646837
},
{
  "type": "node",
  "id": 6837685594,
  "lat": 40.9974484,
  "lon": 29.0647071
},
{
  "type": "node",
  "id": 6837685595,
  "lat": 40.9974097,
  "lon": 29.0647141
},
{
  "type": "node",
  "id": 6837685596,
  "lat": 40.9973638,
  "lon": 29.0647047
},
{
  "type": "node",
  "id": 6837685597,
  "lat": 40.9973356,
  "lon": 29.0646767
},
{
  "type": "node",
  "id": 6837685598,
  "lat": 40.9973162,
  "lon": 29.0646347
},
{
  "type": "node",
  "id": 6837685599,
  "lat": 40.9973162,
  "lon": 29.0645763
},
{
  "type": "node",
  "id": 6837685600,
  "lat": 40.9973268,
  "lon": 29.0645179
},
{
  "type": "node",
  "id": 6837685601,
  "lat": 40.9973462,
  "lon": 29.0644876
},
{
  "type": "node",
  "id": 6837685602,
  "lat": 40.9973815,
  "lon": 29.0644596
},
{
  "type": "node",
  "id": 6837685603,
  "lat": 40.9974290,
  "lon": 29.0644479
},
{
  "type": "node",
  "id": 6837685604,
  "lat": 40.9974643,
  "lon": 29.0644572
},
{
  "type": "node",
  "id": 6837685605,
  "lat": 40.9975013,
  "lon": 29.0644876
},
{
  "type": "node",
  "id": 6837685606,
  "lat": 40.9975260,
  "lon": 29.0644479
},
{
  "type": "node",
  "id": 6837685607,
  "lat": 40.9975489,
  "lon": 29.0644059
},
{
  "type": "node",
  "id": 3359149905,
  "lat": 41.0164010,
  "lon": 28.9556953
},
{
  "type": "node",
  "id": 3359149906,
  "lat": 41.0165447,
  "lon": 28.9554397
},
{
  "type": "node",
  "id": 3359149907,
  "lat": 41.0162837,
  "lon": 28.9551820
},
{
  "type": "node",
  "id": 6505991197,
  "lat": 41.0161521,
  "lon": 28.9554349
},
{
  "type": "node",
  "id": 1496717683,
  "lat": 41.0289482,
  "lon": 28.9465258
},
{
  "type": "node",
  "id": 1496717684,
  "lat": 41.0289816,
  "lon": 28.9461913
},
{
  "type": "node",
  "id": 1496717685,
  "lat": 41.0290227,
  "lon": 28.9465415
},
{
  "type": "node",
  "id": 1496717686,
  "lat": 41.0290315,
  "lon": 28.9465773
},
{
  "type": "node",
  "id": 1496717687,
  "lat": 41.0290543,
  "lon": 28.9466058
},
{
  "type": "node",
  "id": 1496717688,
  "lat": 41.0290959,
  "lon": 28.9465923
},
{
  "type": "node",
  "id": 1496717689,
  "lat": 41.0291091,
  "lon": 28.9465503
},
{
  "type": "node",
  "id": 1496717690,
  "lat": 41.0291898,
  "lon": 28.9465615
},
{
  "type": "node",
  "id": 1496717692,
  "lat": 41.0292135,
  "lon": 28.9462317
},
{
  "type": "node",
  "id": 1496717693,
  "lat": 41.0291901,
  "lon": 28.9464701
},
{
  "type": "node",
  "id": 1496717694,
  "lat": 41.0292889,
  "lon": 28.9467231
},
{
  "type": "node",
  "id": 1496717695,
  "lat": 41.0293165,
  "lon": 28.9464726
},
{
  "type": "node",
  "id": 1861011503,
  "lat": 41.0290269,
  "lon": 28.9465593
},
{
  "type": "node",
  "id": 1861011505,
  "lat": 41.0290422,
  "lon": 28.9465932
},
{
  "type": "node",
  "id": 1861011507,
  "lat": 41.0290694,
  "lon": 28.9466091
},
{
  "type": "node",
  "id": 1861011509,
  "lat": 41.0290832,
  "lon": 28.9466036
},
{
  "type": "node",
  "id": 1861011511,
  "lat": 41.0291044,
  "lon": 28.9465773
},
{
  "type": "node",
  "id": 1861011513,
  "lat": 41.0291845,
  "lon": 28.9466749
},
{
  "type": "node",
  "id": 1861011515,
  "lat": 41.0292076,
  "lon": 28.9467157
},
{
  "type": "node",
  "id": 1861011518,
  "lat": 41.0292356,
  "lon": 28.9467122
},
{
  "type": "node",
  "id": 1861011520,
  "lat": 41.0292341,
  "lon": 28.9467224
},
{
  "type": "node",
  "id": 1861011523,
  "lat": 41.0292458,
  "lon": 28.9464782
},
{
  "type": "node",
  "id": 1861011526,
  "lat": 41.0292460,
  "lon": 28.9464595
},
{
  "type": "node",
  "id": 5134231237,
  "lat": 41.0292094,
  "lon": 28.9466820
},
{
  "type": "node",
  "id": 27607296,
  "lat": 41.0418400,
  "lon": 28.9481494
},
{
  "type": "node",
  "id": 27610990,
  "lat": 41.0415580,
  "lon": 28.9479222
},
{
  "type": "node",
  "id": 1818122680,
  "lat": 41.0413004,
  "lon": 28.9477217
},
{
  "type": "node",
  "id": 1818122681,
  "lat": 41.0416036,
  "lon": 28.9474402
},
{
  "type": "node",
  "id": 1818122682,
  "lat": 41.0417291,
  "lon": 28.9472597
},
{
  "type": "node",
  "id": 1818122684,
  "lat": 41.0411540,
  "lon": 28.9479743
},
{
  "type": "node",
  "id": 1818122688,
  "lat": 41.0415102,
  "lon": 28.9474792
},
{
  "type": "node",
  "id": 2478523175,
  "lat": 41.0412687,
  "lon": 28.9482625
},
{
  "type": "node",
  "id": 2478523176,
  "lat": 41.0411377,
  "lon": 28.9479528
},
{
  "type": "node",
  "id": 2478523177,
  "lat": 41.0411642,
  "lon": 28.9479086
},
{
  "type": "node",
  "id": 2478523178,
  "lat": 41.0412028,
  "lon": 28.9478418
},
{
  "type": "node",
  "id": 2478523179,
  "lat": 41.0412260,
  "lon": 28.9479096
},
{
  "type": "node",
  "id": 2478523180,
  "lat": 41.0413747,
  "lon": 28.9476200
},
{
  "type": "node",
  "id": 2478523181,
  "lat": 41.0414421,
  "lon": 28.9475491
},
{
  "type": "node",
  "id": 2478523182,
  "lat": 41.0414675,
  "lon": 28.9476243
},
{
  "type": "node",
  "id": 2478523183,
  "lat": 41.0415342,
  "lon": 28.9475429
},
{
  "type": "node",
  "id": 3247431857,
  "lat": 41.0413073,
  "lon": 28.9478048
},
{
  "type": "node",
  "id": 3247431858,
  "lat": 41.0414651,
  "lon": 28.9480315
},
{
  "type": "node",
  "id": 3247431859,
  "lat": 41.0413901,
  "lon": 28.9477127
},
{
  "type": "node",
  "id": 3247431860,
  "lat": 41.0415477,
  "lon": 28.9479343
},
{
  "type": "node",
  "id": 3282691518,
  "lat": 41.0412086,
  "lon": 28.9480777
},
{
  "type": "node",
  "id": 3282691519,
  "lat": 41.0412106,
  "lon": 28.9480428
},
{
  "type": "node",
  "id": 3282691520,
  "lat": 41.0412137,
  "lon": 28.9481126
},
{
  "type": "node",
  "id": 3282691521,
  "lat": 41.0412359,
  "lon": 28.9479785
},
{
  "type": "node",
  "id": 3282691522,
  "lat": 41.0413401,
  "lon": 28.9480348
},
{
  "type": "node",
  "id": 3282691523,
  "lat": 41.0413401,
  "lon": 28.9478470
},
{
  "type": "node",
  "id": 3282691524,
  "lat": 41.0414109,
  "lon": 28.9479476
},
{
  "type": "node",
  "id": 3282691525,
  "lat": 41.0414128,
  "lon": 28.9477445
},
{
  "type": "node",
  "id": 3282691526,
  "lat": 41.0414733,
  "lon": 28.9476798
},
{
  "type": "node",
  "id": 3282691527,
  "lat": 41.0414938,
  "lon": 28.9478564
},
{
  "type": "node",
  "id": 3282691528,
  "lat": 41.0415420,
  "lon": 28.9476110
},
{
  "type": "node",
  "id": 3282691529,
  "lat": 41.0415667,
  "lon": 28.9477679
},
{
  "type": "node",
  "id": 3282691530,
  "lat": 41.0416213,
  "lon": 28.9476821
},
{
  "type": "node",
  "id": 3282691531,
  "lat": 41.0416108,
  "lon": 28.9475489
},
{
  "type": "node",
  "id": 3282691532,
  "lat": 41.0416597,
  "lon": 28.9476150
},
{
  "type": "node",
  "id": 3282691533,
  "lat": 41.0417229,
  "lon": 28.9474639
},
{
  "type": "node",
  "id": 4013415967,
  "lat": 41.0412774,
  "lon": 28.9480965
},
{
  "type": "node",
  "id": 4013415968,
  "lat": 41.0412359,
  "lon": 28.9481166
},
{
  "type": "node",
  "id": 2665723768,
  "lat": 41.0162594,
  "lon": 28.9724276
},
{
  "type": "node",
  "id": 2665723769,
  "lat": 41.0161234,
  "lon": 28.9723242
},
{
  "type": "node",
  "id": 2665723770,
  "lat": 41.0159285,
  "lon": 28.9727741
},
{
  "type": "node",
  "id": 2665723771,
  "lat": 41.0160645,
  "lon": 28.9728776
},
{
  "type": "node",
  "id": 1772585016,
  "lat": 41.0279218,
  "lon": 28.9749414
},
{
  "type": "node",
  "id": 1772585017,
  "lat": 41.0278611,
  "lon": 28.9751667
},
{
  "type": "node",
  "id": 1772585019,
  "lat": 41.0281075,
  "lon": 28.9752870
},
{
  "type": "node",
  "id": 1772585024,
  "lat": 41.0281646,
  "lon": 28.9750675
},
{
  "type": "node",
  "id": 266762639,
  "lat": 41.0304893,
  "lon": 28.9836098
},
{
  "type": "node",
  "id": 266762640,
  "lat": 41.0305665,
  "lon": 28.9834778
},
{
  "type": "node",
  "id": 266762641,
  "lat": 41.0305925,
  "lon": 28.9837387
},
{
  "type": "node",
  "id": 266762642,
  "lat": 41.0306696,
  "lon": 28.9835995
},
{
  "type": "node",
  "id": 27610599,
  "lat": 41.0421069,
  "lon": 28.9478996
},
{
  "type": "node",
  "id": 2360118788,
  "lat": 41.0421235,
  "lon": 28.9492804
},
{
  "type": "node",
  "id": 2360118797,
  "lat": 41.0422252,
  "lon": 28.9496501
},
{
  "type": "node",
  "id": 2360118801,
  "lat": 41.0422769,
  "lon": 28.9496957
},
{
  "type": "node",
  "id": 2360118802,
  "lat": 41.0422961,
  "lon": 28.9477287
},
{
  "type": "node",
  "id": 2360118821,
  "lat": 41.0424229,
  "lon": 28.9495109
},
{
  "type": "node",
  "id": 2360118833,
  "lat": 41.0425414,
  "lon": 28.9493563
},
{
  "type": "node",
  "id": 2360118844,
  "lat": 41.0427280,
  "lon": 28.9491167
},
{
  "type": "node",
  "id": 2360118849,
  "lat": 41.0428657,
  "lon": 28.9489364
},
{
  "type": "node",
  "id": 2360118856,
  "lat": 41.0430148,
  "lon": 28.9487082
},
{
  "type": "node",
  "id": 2478523184,
  "lat": 41.0424377,
  "lon": 28.9479217
},
{
  "type": "node",
  "id": 1860923998,
  "lat": 41.0388424,
  "lon": 28.9989015
},
{
  "type": "node",
  "id": 2696287568,
  "lat": 41.0384410,
  "lon": 28.9991038
},
{
  "type": "node",
  "id": 2696287581,
  "lat": 41.0384714,
  "lon": 28.9992077
},
{
  "type": "node",
  "id": 2696287606,
  "lat": 41.0385050,
  "lon": 28.9991904
},
{
  "type": "node",
  "id": 2696287613,
  "lat": 41.0385217,
  "lon": 28.9990161
},
{
  "type": "node",
  "id": 2696287622,
  "lat": 41.0385334,
  "lon": 28.9990562
},
{
  "type": "node",
  "id": 2696287628,
  "lat": 41.0385457,
  "lon": 28.9994568
},
{
  "type": "node",
  "id": 2696287641,
  "lat": 41.0385781,
  "lon": 28.9994401
},
{
  "type": "node",
  "id": 2696287646,
  "lat": 41.0386452,
  "lon": 28.9989525
},
{
  "type": "node",
  "id": 2696287659,
  "lat": 41.0387125,
  "lon": 28.9989178
},
{
  "type": "node",
  "id": 2696287665,
  "lat": 41.0387254,
  "lon": 28.9989617
},
{
  "type": "node",
  "id": 2696287682,
  "lat": 41.0388018,
  "lon": 28.9990406
},
{
  "type": "node",
  "id": 2696287728,
  "lat": 41.0388675,
  "lon": 28.9992648
},
{
  "type": "node",
  "id": 2696287733,
  "lat": 41.0388725,
  "lon": 28.9990042
},
{
  "type": "node",
  "id": 2696287743,
  "lat": 41.0388972,
  "lon": 28.9992495
},
{
  "type": "node",
  "id": 2696287752,
  "lat": 41.0389221,
  "lon": 28.9993343
},
{
  "type": "node",
  "id": 2696287756,
  "lat": 41.0389386,
  "lon": 28.9993258
},
{
  "type": "node",
  "id": 2696287769,
  "lat": 41.0389676,
  "lon": 28.9996038
},
{
  "type": "node",
  "id": 2696287771,
  "lat": 41.0389722,
  "lon": 28.9995239
},
{
  "type": "node",
  "id": 2696287773,
  "lat": 41.0389920,
  "lon": 28.9995912
},
{
  "type": "node",
  "id": 2696287774,
  "lat": 41.0389934,
  "lon": 28.9995130
},
{
  "type": "node",
  "id": 4383002587,
  "lat": 41.0403796,
  "lon": 28.9943839
},
{
  "type": "node",
  "id": 4383003891,
  "lat": 41.0400679,
  "lon": 28.9949764
},
{
  "type": "node",
  "id": 4383003892,
  "lat": 41.0385251,
  "lon": 28.9948115
},
{
  "type": "node",
  "id": 4383003893,
  "lat": 41.0402027,
  "lon": 28.9936330
},
{
  "type": "node",
  "id": 4383003899,
  "lat": 41.0385853,
  "lon": 28.9949935
},
{
  "type": "node",
  "id": 4383003900,
  "lat": 41.0403609,
  "lon": 28.9940110
},
{
  "type": "node",
  "id": 4383003901,
  "lat": 41.0402823,
  "lon": 28.9946979
},
{
  "type": "node",
  "id": 4383003902,
  "lat": 41.0386037,
  "lon": 28.9941247
},
{
  "type": "node",
  "id": 4383003904,
  "lat": 41.0403865,
  "lon": 28.9942021
},
{
  "type": "node",
  "id": 4383003906,
  "lat": 41.0388181,
  "lon": 28.9938463
},
{
  "type": "node",
  "id": 4383003908,
  "lat": 41.0385451,
  "lon": 28.9942654
},
{
  "type": "node",
  "id": 4383003911,
  "lat": 41.0386900,
  "lon": 28.9939949
},
{
  "type": "node",
  "id": 4383003912,
  "lat": 41.0403409,
  "lon": 28.9945573
},
{
  "type": "node",
  "id": 4383003913,
  "lat": 41.0401960,
  "lon": 28.9948278
},
{
  "type": "node",
  "id": 4383003916,
  "lat": 41.0403007,
  "lon": 28.9938290
},
{
  "type": "node",
  "id": 4383003918,
  "lat": 41.0385065,
  "lon": 28.9944387
},
{
  "type": "node",
  "id": 4383003919,
  "lat": 41.0384995,
  "lon": 28.9946205
},
{
  "type": "node",
  "id": 4383012845,
  "lat": 41.0388026,
  "lon": 28.9953661
},
{
  "type": "node",
  "id": 4383012846,
  "lat": 41.0386839,
  "lon": 28.9951913
},
{
  "type": "node",
  "id": 4383012847,
  "lat": 41.0394417,
  "lon": 28.9955603
},
{
  "type": "node",
  "id": 4383012848,
  "lat": 41.0396988,
  "lon": 28.9953550
},
{
  "type": "node",
  "id": 4383012849,
  "lat": 41.0395582,
  "lon": 28.9954822
},
{
  "type": "node",
  "id": 4383012850,
  "lat": 41.0393243,
  "lon": 28.9956003
},
{
  "type": "node",
  "id": 4383012851,
  "lat": 41.0389988,
  "lon": 28.9936500
},
{
  "type": "node",
  "id": 4383012854,
  "lat": 41.0389207,
  "lon": 28.9954890
},
{
  "type": "node",
  "id": 4383012855,
  "lat": 41.0391882,
  "lon": 28.9956063
},
{
  "type": "node",
  "id": 4383012856,
  "lat": 41.0390536,
  "lon": 28.9955695
},
{
  "type": "node",
  "id": 4383017938,
  "lat": 41.0396989,
  "lon": 28.9932173
},
{
  "type": "node",
  "id": 4383017939,
  "lat": 41.0398335,
  "lon": 28.9932541
},
{
  "type": "node",
  "id": 4383017940,
  "lat": 41.0399665,
  "lon": 28.9933346
},
{
  "type": "node",
  "id": 4383017941,
  "lat": 41.0400845,
  "lon": 28.9934575
},
{
  "type": "node",
  "id": 4383017943,
  "lat": 41.0394454,
  "lon": 28.9932633
},
{
  "type": "node",
  "id": 4383017944,
  "lat": 41.0393289,
  "lon": 28.9933414
},
{
  "type": "node",
  "id": 4383017945,
  "lat": 41.0391883,
  "lon": 28.9934686
},
{
  "type": "node",
  "id": 4383017946,
  "lat": 41.0398874,
  "lon": 28.9951722
},
{
  "type": "node",
  "id": 4383017948,
  "lat": 41.0395628,
  "lon": 28.9932233
},
{
  "type": "node",
  "id": 4383025434,
  "lat": 41.0395787,
  "lon": 28.9937330
},
{
  "type": "node",
  "id": 4383025435,
  "lat": 41.0398248,
  "lon": 28.9945955
},
{
  "type": "node",
  "id": 4383025436,
  "lat": 41.0399298,
  "lon": 28.9944737
},
{
  "type": "node",
  "id": 4383025437,
  "lat": 41.0398259,
  "lon": 28.9938226
},
{
  "type": "node",
  "id": 4383025438,
  "lat": 41.0396570,
  "lon": 28.9947774
},
{
  "type": "node",
  "id": 4383025439,
  "lat": 41.0397694,
  "lon": 28.9937637
},
{
  "type": "node",
  "id": 4383025440,
  "lat": 41.0394045,
  "lon": 28.9938770
},
{
  "type": "node",
  "id": 4383025441,
  "lat": 41.0392284,
  "lon": 28.9940456
},
{
  "type": "node",
  "id": 4383025442,
  "lat": 41.0388944,
  "lon": 28.9944589
},
{
  "type": "node",
  "id": 4383025443,
  "lat": 41.0396165,
  "lon": 28.9937201
},
{
  "type": "node",
  "id": 4383025444,
  "lat": 41.0399728,
  "lon": 28.9944090
},
{
  "type": "node",
  "id": 4383025445,
  "lat": 41.0388775,
  "lon": 28.9945892
},
{
  "type": "node",
  "id": 4383025446,
  "lat": 41.0397159,
  "lon": 28.9937314
},
{
  "type": "node",
  "id": 4383025447,
  "lat": 41.0391713,
  "lon": 28.9950922
},
{
  "type": "node",
  "id": 4383025448,
  "lat": 41.0396667,
  "lon": 28.9937179
},
{
  "type": "node",
  "id": 4383025449,
  "lat": 41.0389562,
  "lon": 28.9943491
},
{
  "type": "node",
  "id": 4383025450,
  "lat": 41.0394816,
  "lon": 28.9949474
},
{
  "type": "node",
  "id": 4383025451,
  "lat": 41.0389824,
  "lon": 28.9948851
},
{
  "type": "node",
  "id": 4383025452,
  "lat": 41.0388801,
  "lon": 28.9945232
},
{
  "type": "node",
  "id": 4383025453,
  "lat": 41.0393664,
  "lon": 28.9950517
},
{
  "type": "node",
  "id": 4383025454,
  "lat": 41.0391178,
  "lon": 28.9950599
},
{
  "type": "node",
  "id": 4383025455,
  "lat": 41.0400060,
  "lon": 28.9942994
},
{
  "type": "node",
  "id": 4383025456,
  "lat": 41.0389132,
  "lon": 28.9944137
},
{
  "type": "node",
  "id": 4383025457,
  "lat": 41.0390613,
  "lon": 28.9942271
},
{
  "type": "node",
  "id": 4383025458,
  "lat": 41.0392706,
  "lon": 28.9951035
},
{
  "type": "node",
  "id": 4383025459,
  "lat": 41.0389170,
  "lon": 28.9947540
},
{
  "type": "node",
  "id": 4383025460,
  "lat": 41.0400085,
  "lon": 28.9942336
},
{
  "type": "node",
  "id": 4383025461,
  "lat": 41.0388878,
  "lon": 28.9946656
},
{
  "type": "node",
  "id": 4383025462,
  "lat": 41.0399691,
  "lon": 28.9940688
},
{
  "type": "node",
  "id": 4383025463,
  "lat": 41.0390605,
  "lon": 28.9950002
},
{
  "type": "node",
  "id": 4383025464,
  "lat": 41.0399917,
  "lon": 28.9943636
},
{
  "type": "node",
  "id": 4383025465,
  "lat": 41.0399982,
  "lon": 28.9941569
},
{
  "type": "node",
  "id": 4383025466,
  "lat": 41.0392204,
  "lon": 28.9951057
},
{
  "type": "node",
  "id": 4383025467,
  "lat": 41.0393084,
  "lon": 28.9950906
},
{
  "type": "node",
  "id": 4383025468,
  "lat": 41.0395207,
  "lon": 28.9937719
},
{
  "type": "node",
  "id": 4383025469,
  "lat": 41.0399040,
  "lon": 28.9939386
},
{
  "type": "node",
  "id": 1860924004,
  "lat": 41.0393060,
  "lon": 29.0001964
},
{
  "type": "node",
  "id": 1860924010,
  "lat": 41.0394591,
  "lon": 29.0007048
},
{
  "type": "node",
  "id": 1861053743,
  "lat": 41.0393747,
  "lon": 29.0023692
},
{
  "type": "node",
  "id": 1861053744,
  "lat": 41.0397160,
  "lon": 29.0031875
},
{
  "type": "node",
  "id": 1861053745,
  "lat": 41.0397012,
  "lon": 29.0022127
},
{
  "type": "node",
  "id": 1861053746,
  "lat": 41.0399491,
  "lon": 29.0030661
},
{
  "type": "node",
  "id": 2342422683,
  "lat": 41.0394049,
  "lon": 29.0024768
},
{
  "type": "node",
  "id": 2342422684,
  "lat": 41.0394304,
  "lon": 29.0024642
},
{
  "type": "node",
  "id": 2342422685,
  "lat": 41.0394415,
  "lon": 29.0025784
},
{
  "type": "node",
  "id": 2342422686,
  "lat": 41.0394598,
  "lon": 29.0025693
},
{
  "type": "node",
  "id": 2342422687,
  "lat": 41.0394614,
  "lon": 29.0023013
},
{
  "type": "node",
  "id": 2342422688,
  "lat": 41.0394625,
  "lon": 29.0026534
},
{
  "type": "node",
  "id": 2342422689,
  "lat": 41.0394676,
  "lon": 29.0023235
},
{
  "type": "node",
  "id": 2342422691,
  "lat": 41.0394833,
  "lon": 29.0026432
},
{
  "type": "node",
  "id": 2342422693,
  "lat": 41.0394865,
  "lon": 29.0027192
},
{
  "type": "node",
  "id": 2342422695,
  "lat": 41.0395024,
  "lon": 29.0027114
},
{
  "type": "node",
  "id": 2342422697,
  "lat": 41.0395336,
  "lon": 29.0028875
},
{
  "type": "node",
  "id": 2342422698,
  "lat": 41.0395475,
  "lon": 29.0028806
},
{
  "type": "node",
  "id": 2342422701,
  "lat": 41.0395506,
  "lon": 29.0029668
},
{
  "type": "node",
  "id": 2342422703,
  "lat": 41.0395691,
  "lon": 29.0029577
},
{
  "type": "node",
  "id": 2342422705,
  "lat": 41.0395708,
  "lon": 29.0030387
},
{
  "type": "node",
  "id": 2342422707,
  "lat": 41.0395899,
  "lon": 29.0030293
},
{
  "type": "node",
  "id": 2342422709,
  "lat": 41.0396030,
  "lon": 29.0031527
},
{
  "type": "node",
  "id": 2342422711,
  "lat": 41.0396047,
  "lon": 29.0022307
},
{
  "type": "node",
  "id": 2342422713,
  "lat": 41.0396120,
  "lon": 29.0022566
},
{
  "type": "node",
  "id": 2342422715,
  "lat": 41.0396218,
  "lon": 29.0031434
},
{
  "type": "node",
  "id": 2342422717,
  "lat": 41.0396252,
  "lon": 29.0032322
},
{
  "type": "node",
  "id": 2342422719,
  "lat": 41.0397076,
  "lon": 29.0023144
},
{
  "type": "node",
  "id": 2342422721,
  "lat": 41.0397240,
  "lon": 29.0032158
},
{
  "type": "node",
  "id": 2342422723,
  "lat": 41.0397270,
  "lon": 29.0023048
},
{
  "type": "node",
  "id": 2342422725,
  "lat": 41.0397391,
  "lon": 29.0024269
},
{
  "type": "node",
  "id": 2342422727,
  "lat": 41.0397650,
  "lon": 29.0024142
},
{
  "type": "node",
  "id": 2342422729,
  "lat": 41.0398033,
  "lon": 29.0025512
},
{
  "type": "node",
  "id": 2342422731,
  "lat": 41.0398520,
  "lon": 29.0031140
},
{
  "type": "node",
  "id": 2342422733,
  "lat": 41.0398616,
  "lon": 29.0031481
},
{
  "type": "node",
  "id": 2342422735,
  "lat": 41.0398737,
  "lon": 29.0028864
},
{
  "type": "node",
  "id": 2342422737,
  "lat": 41.0398944,
  "lon": 29.0028762
},
{
  "type": "node",
  "id": 2342422739,
  "lat": 41.0399028,
  "lon": 29.0029905
},
{
  "type": "node",
  "id": 2342422741,
  "lat": 41.0399249,
  "lon": 29.0029796
},
{
  "type": "node",
  "id": 2696287649,
  "lat": 41.0386404,
  "lon": 28.9997801
},
{
  "type": "node",
  "id": 2696287653,
  "lat": 41.0386822,
  "lon": 28.9997586
},
{
  "type": "node",
  "id": 2696287660,
  "lat": 41.0387163,
  "lon": 29.0000345
},
{
  "type": "node",
  "id": 2696287668,
  "lat": 41.0387462,
  "lon": 29.0001367
},
{
  "type": "node",
  "id": 2696287673,
  "lat": 41.0387569,
  "lon": 29.0000136
},
{
  "type": "node",
  "id": 2696287678,
  "lat": 41.0388001,
  "lon": 29.0006552
},
{
  "type": "node",
  "id": 2696287681,
  "lat": 41.0388012,
  "lon": 29.0006386
},
{
  "type": "node",
  "id": 2696287684,
  "lat": 41.0388028,
  "lon": 29.0006718
},
{
  "type": "node",
  "id": 2696287686,
  "lat": 41.0388078,
  "lon": 29.0001064
},
{
  "type": "node",
  "id": 2696287687,
  "lat": 41.0388072,
  "lon": 29.0006831
},
{
  "type": "node",
  "id": 2696287689,
  "lat": 41.0388109,
  "lon": 29.0006144
},
{
  "type": "node",
  "id": 2696287692,
  "lat": 41.0388125,
  "lon": 29.0006915
},
{
  "type": "node",
  "id": 2696287694,
  "lat": 41.0388196,
  "lon": 29.0006991
},
{
  "type": "node",
  "id": 2696287696,
  "lat": 41.0388200,
  "lon": 29.0006044
},
{
  "type": "node",
  "id": 2696287698,
  "lat": 41.0388201,
  "lon": 29.0004897
},
{
  "type": "node",
  "id": 2696287703,
  "lat": 41.0388250,
  "lon": 29.0007029
},
{
  "type": "node",
  "id": 2696287707,
  "lat": 41.0388299,
  "lon": 29.0005984
},
{
  "type": "node",
  "id": 2696287711,
  "lat": 41.0388341,
  "lon": 29.0007067
},
{
  "type": "node",
  "id": 2696287713,
  "lat": 41.0388348,
  "lon": 29.0003217
},
{
  "type": "node",
  "id": 2696287717,
  "lat": 41.0388379,
  "lon": 29.0005940
},
{
  "type": "node",
  "id": 2696287721,
  "lat": 41.0388497,
  "lon": 29.0005904
},
{
  "type": "node",
  "id": 2696287723,
  "lat": 41.0388542,
  "lon": 29.0007054
},
{
  "type": "node",
  "id": 2696287726,
  "lat": 41.0388687,
  "lon": 29.0006979
},
{
  "type": "node",
  "id": 2696287730,
  "lat": 41.0388708,
  "lon": 29.0003026
},
{
  "type": "node",
  "id": 2696287737,
  "lat": 41.0388764,
  "lon": 29.0004598
},
{
  "type": "node",
  "id": 2696287739,
  "lat": 41.0388798,
  "lon": 29.0006895
},
{
  "type": "node",
  "id": 2696287748,
  "lat": 41.0389101,
  "lon": 29.0007885
},
{
  "type": "node",
  "id": 2696287765,
  "lat": 41.0389608,
  "lon": 29.0007617
},
{
  "type": "node",
  "id": 2696287776,
  "lat": 41.0390380,
  "lon": 28.9998443
},
{
  "type": "node",
  "id": 2696287777,
  "lat": 41.0390402,
  "lon": 29.0010251
},
{
  "type": "node",
  "id": 2696287783,
  "lat": 41.0390457,
  "lon": 29.0011946
},
{
  "type": "node",
  "id": 2696287790,
  "lat": 41.0390737,
  "lon": 29.0010073
},
{
  "type": "node",
  "id": 2696287792,
  "lat": 41.0390791,
  "lon": 29.0013124
},
{
  "type": "node",
  "id": 2696287794,
  "lat": 41.0390839,
  "lon": 29.0000642
},
{
  "type": "node",
  "id": 2696287796,
  "lat": 41.0390922,
  "lon": 28.9999668
},
{
  "type": "node",
  "id": 2696287798,
  "lat": 41.0390886,
  "lon": 28.9998183
},
{
  "type": "node",
  "id": 2696287801,
  "lat": 41.0391093,
  "lon": 29.0011244
},
{
  "type": "node",
  "id": 2696287803,
  "lat": 41.0391155,
  "lon": 29.0008868
},
{
  "type": "node",
  "id": 2696287805,
  "lat": 41.0391185,
  "lon": 29.0012928
},
{
  "type": "node",
  "id": 2696287807,
  "lat": 41.0391188,
  "lon": 29.0011582
},
{
  "type": "node",
  "id": 2696287809,
  "lat": 41.0391190,
  "lon": 29.0000456
},
{
  "type": "node",
  "id": 2696287812,
  "lat": 41.0391263,
  "lon": 28.9999500
},
{
  "type": "node",
  "id": 2696287814,
  "lat": 41.0391330,
  "lon": 29.0009450
},
{
  "type": "node",
  "id": 2696287816,
  "lat": 41.0391488,
  "lon": 29.0002796
},
{
  "type": "node",
  "id": 2696287818,
  "lat": 41.0391503,
  "lon": 29.0015506
},
{
  "type": "node",
  "id": 2696287822,
  "lat": 41.0391864,
  "lon": 29.0015326
},
{
  "type": "node",
  "id": 2696287824,
  "lat": 41.0392469,
  "lon": 29.0018914
},
{
  "type": "node",
  "id": 2696287826,
  "lat": 41.0392862,
  "lon": 29.0018718
},
{
  "type": "node",
  "id": 2696287830,
  "lat": 41.0393204,
  "lon": 29.0021375
},
{
  "type": "node",
  "id": 2696287833,
  "lat": 41.0393475,
  "lon": 29.0022334
},
{
  "type": "node",
  "id": 2696287835,
  "lat": 41.0393564,
  "lon": 29.0021196
},
{
  "type": "node",
  "id": 2696287837,
  "lat": 41.0393677,
  "lon": 29.0008207
},
{
  "type": "node",
  "id": 2696287839,
  "lat": 41.0394134,
  "lon": 29.0009729
},
{
  "type": "node",
  "id": 2696287841,
  "lat": 41.0394383,
  "lon": 29.0009605
},
{
  "type": "node",
  "id": 2696287843,
  "lat": 41.0394413,
  "lon": 29.0021867
},
{
  "type": "node",
  "id": 2696287846,
  "lat": 41.0394432,
  "lon": 29.0012027
},
{
  "type": "node",
  "id": 2696287848,
  "lat": 41.0394558,
  "lon": 29.0022377
},
{
  "type": "node",
  "id": 2696287850,
  "lat": 41.0394717,
  "lon": 29.0013032
},
{
  "type": "node",
  "id": 2696287852,
  "lat": 41.0394991,
  "lon": 29.0011749
},
{
  "type": "node",
  "id": 2696287854,
  "lat": 41.0395257,
  "lon": 29.0012763
},
{
  "type": "node",
  "id": 2696287857,
  "lat": 41.0395328,
  "lon": 29.0021445
},
{
  "type": "node",
  "id": 2696287859,
  "lat": 41.0395464,
  "lon": 29.0021926
},
{
  "type": "node",
  "id": 2696287861,
  "lat": 41.0395501,
  "lon": 29.0014746
},
{
  "type": "node",
  "id": 2696287865,
  "lat": 41.0395780,
  "lon": 29.0014607
},
{
  "type": "node",
  "id": 2696287868,
  "lat": 41.0395923,
  "lon": 29.0016235
},
{
  "type": "node",
  "id": 2696287870,
  "lat": 41.0396087,
  "lon": 29.0020508
},
{
  "type": "node",
  "id": 2696287874,
  "lat": 41.0396226,
  "lon": 29.0020998
},
{
  "type": "node",
  "id": 2696287879,
  "lat": 41.0396477,
  "lon": 29.0015959
},
{
  "type": "node",
  "id": 2696287881,
  "lat": 41.0396569,
  "lon": 29.0016284
},
{
  "type": "node",
  "id": 2696287889,
  "lat": 41.0396920,
  "lon": 29.0020093
},
{
  "type": "node",
  "id": 2696287895,
  "lat": 41.0397067,
  "lon": 29.0020612
},
{
  "type": "node",
  "id": 2696287915,
  "lat": 41.0397986,
  "lon": 29.0020154
},
{
  "type": "node",
  "id": 2696287922,
  "lat": 41.0398076,
  "lon": 29.0015210
},
{
  "type": "node",
  "id": 2696287924,
  "lat": 41.0398108,
  "lon": 29.0020585
},
{
  "type": "node",
  "id": 2696287926,
  "lat": 41.0398156,
  "lon": 29.0015493
},
{
  "type": "node",
  "id": 2696287935,
  "lat": 41.0398722,
  "lon": 29.0014888
},
{
  "type": "node",
  "id": 2696287939,
  "lat": 41.0398824,
  "lon": 29.0015247
},
{
  "type": "node",
  "id": 2696287946,
  "lat": 41.0398975,
  "lon": 29.0019713
},
{
  "type": "node",
  "id": 2696287950,
  "lat": 41.0399084,
  "lon": 29.0020099
},
{
  "type": "node",
  "id": 2696287965,
  "lat": 41.0399446,
  "lon": 29.0014558
},
{
  "type": "node",
  "id": 2696287975,
  "lat": 41.0399540,
  "lon": 29.0014890
},
{
  "type": "node",
  "id": 2696288004,
  "lat": 41.0400066,
  "lon": 29.0014249
},
{
  "type": "node",
  "id": 2696288007,
  "lat": 41.0400167,
  "lon": 29.0014603
},
{
  "type": "node",
  "id": 2696288040,
  "lat": 41.0401592,
  "lon": 29.0013537
},
{
  "type": "node",
  "id": 2696288043,
  "lat": 41.0401625,
  "lon": 29.0018393
},
{
  "type": "node",
  "id": 2696288045,
  "lat": 41.0401680,
  "lon": 29.0013849
},
{
  "type": "node",
  "id": 2696288048,
  "lat": 41.0401728,
  "lon": 29.0018758
},
{
  "type": "node",
  "id": 2696288051,
  "lat": 41.0402268,
  "lon": 29.0013200
},
{
  "type": "node",
  "id": 2696288054,
  "lat": 41.0402375,
  "lon": 29.0013578
},
{
  "type": "node",
  "id": 2696288057,
  "lat": 41.0402603,
  "lon": 29.0017968
},
{
  "type": "node",
  "id": 2696288063,
  "lat": 41.0402691,
  "lon": 29.0018278
},
{
  "type": "node",
  "id": 2696288066,
  "lat": 41.0403355,
  "lon": 29.0012697
},
{
  "type": "node",
  "id": 2696288067,
  "lat": 41.0403453,
  "lon": 29.0013041
},
{
  "type": "node",
  "id": 2696288069,
  "lat": 41.0404062,
  "lon": 29.0012345
},
{
  "type": "node",
  "id": 2696288070,
  "lat": 41.0404205,
  "lon": 29.0014145
},
{
  "type": "node",
  "id": 2696288072,
  "lat": 41.0404527,
  "lon": 29.0013984
},
{
  "type": "node",
  "id": 2696288073,
  "lat": 41.0404541,
  "lon": 29.0015332
},
{
  "type": "node",
  "id": 2696288074,
  "lat": 41.0404583,
  "lon": 29.0016981
},
{
  "type": "node",
  "id": 2696288076,
  "lat": 41.0404666,
  "lon": 29.0017276
},
{
  "type": "node",
  "id": 2696288078,
  "lat": 41.0404834,
  "lon": 29.0015186
},
{
  "type": "node",
  "id": 2696288079,
  "lat": 41.0405332,
  "lon": 29.0016944
},
{
  "type": "node",
  "id": 2696376437,
  "lat": 41.0391146,
  "lon": 28.9999050
},
{
  "type": "node",
  "id": 4902051664,
  "lat": 41.0410300,
  "lon": 29.0061078
},
{
  "type": "node",
  "id": 4902051665,
  "lat": 41.0409516,
  "lon": 29.0060721
},
{
  "type": "node",
  "id": 4902051690,
  "lat": 41.0407805,
  "lon": 29.0058523
},
{
  "type": "node",
  "id": 4902051718,
  "lat": 41.0406471,
  "lon": 29.0056087
},
{
  "type": "node",
  "id": 4902051720,
  "lat": 41.0414904,
  "lon": 29.0053219
},
{
  "type": "node",
  "id": 4902051769,
  "lat": 41.0410691,
  "lon": 29.0061468
},
{
  "type": "node",
  "id": 4902051770,
  "lat": 41.0410000,
  "lon": 29.0061272
},
{
  "type": "node",
  "id": 4902051771,
  "lat": 41.0409012,
  "lon": 29.0059349
},
{
  "type": "node",
  "id": 4902051772,
  "lat": 41.0408289,
  "lon": 29.0058210
},
{
  "type": "node",
  "id": 4902051778,
  "lat": 41.0407072,
  "lon": 29.0055699
},
{
  "type": "node",
  "id": 4902051779,
  "lat": 41.0414010,
  "lon": 29.0061791
},
{
  "type": "node",
  "id": 4902051780,
  "lat": 41.0410976,
  "lon": 29.0062245
},
{
  "type": "node",
  "id": 4902051854,
  "lat": 41.0410491,
  "lon": 29.0061597
},
{
  "type": "node",
  "id": 4902051855,
  "lat": 41.0409744,
  "lon": 29.0060574
},
{
  "type": "node",
  "id": 4902051880,
  "lat": 41.0407340,
  "lon": 29.0057257
},
{
  "type": "node",
  "id": 4902051881,
  "lat": 41.0406986,
  "lon": 29.0057487
},
{
  "type": "node",
  "id": 4902051882,
  "lat": 41.0411217,
  "lon": 29.0062089
},
{
  "type": "node",
  "id": 4902051883,
  "lat": 41.0411636,
  "lon": 29.0055330
},
{
  "type": "node",
  "id": 4902051884,
  "lat": 41.0406735,
  "lon": 29.0054784
},
{
  "type": "node",
  "id": 4902051943,
  "lat": 41.0408766,
  "lon": 29.0059508
},
{
  "type": "node",
  "id": 4902052021,
  "lat": 41.0413801,
  "lon": 29.0050219
},
{
  "type": "node",
  "id": 4902051719,
  "lat": 41.0411664,
  "lon": 29.0063306
},
{
  "type": "node",
  "id": 4037142018,
  "lat": 41.0416108,
  "lon": 29.0409812
},
{
  "type": "node",
  "id": 4037142019,
  "lat": 41.0416410,
  "lon": 29.0411085
},
{
  "type": "node",
  "id": 4037142020,
  "lat": 41.0415692,
  "lon": 29.0411385
},
{
  "type": "node",
  "id": 4037142021,
  "lat": 41.0415798,
  "lon": 29.0411832
},
{
  "type": "node",
  "id": 4037142022,
  "lat": 41.0414779,
  "lon": 29.0412258
},
{
  "type": "node",
  "id": 4037142023,
  "lat": 41.0414672,
  "lon": 29.0411806
},
{
  "type": "node",
  "id": 4037142024,
  "lat": 41.0414041,
  "lon": 29.0412069
},
{
  "type": "node",
  "id": 4037142025,
  "lat": 41.0413756,
  "lon": 29.0410872
},
{
  "type": "node",
  "id": 4037142026,
  "lat": 41.0414278,
  "lon": 29.0410654
},
{
  "type": "node",
  "id": 4037142027,
  "lat": 41.0414203,
  "lon": 29.0410339
},
{
  "type": "node",
  "id": 4037142028,
  "lat": 41.0415197,
  "lon": 29.0409923
},
{
  "type": "node",
  "id": 4037142029,
  "lat": 41.0415255,
  "lon": 29.0410169
},
{
  "type": "node",
  "id": 3318894270,
  "lat": 41.0513424,
  "lon": 29.0117477
},
{
  "type": "node",
  "id": 3318894271,
  "lat": 41.0513013,
  "lon": 29.0117323
},
{
  "type": "node",
  "id": 3318894272,
  "lat": 41.0514301,
  "lon": 29.0117814
},
{
  "type": "node",
  "id": 3318894273,
  "lat": 41.0514008,
  "lon": 29.0119162
},
{
  "type": "node",
  "id": 3318894274,
  "lat": 41.0514303,
  "lon": 29.0119273
},
{
  "type": "node",
  "id": 3318894275,
  "lat": 41.0514138,
  "lon": 29.0120044
},
{
  "type": "node",
  "id": 3318894276,
  "lat": 41.0513903,
  "lon": 29.0119955
},
{
  "type": "node",
  "id": 3318894277,
  "lat": 41.0513779,
  "lon": 29.0120536
},
{
  "type": "node",
  "id": 3318894278,
  "lat": 41.0513385,
  "lon": 29.0120388
},
{
  "type": "node",
  "id": 3318894279,
  "lat": 41.0513433,
  "lon": 29.0120162
},
{
  "type": "node",
  "id": 3318894280,
  "lat": 41.0512800,
  "lon": 29.0119924
},
{
  "type": "node",
  "id": 3318894282,
  "lat": 41.0512536,
  "lon": 29.0119498
},
{
  "type": "node",
  "id": 3318894283,
  "lat": 41.0513127,
  "lon": 29.0120553
},
{
  "type": "node",
  "id": 3318894284,
  "lat": 41.0512687,
  "lon": 29.0120402
},
{
  "type": "node",
  "id": 3318894294,
  "lat": 41.0516494,
  "lon": 29.0118638
},
{
  "type": "node",
  "id": 3318894295,
  "lat": 41.0516278,
  "lon": 29.0119623
},
{
  "type": "node",
  "id": 3318894296,
  "lat": 41.0514086,
  "lon": 29.0118814
},
{
  "type": "node",
  "id": 3321551761,
  "lat": 41.0527061,
  "lon": 29.0127219
},
{
  "type": "node",
  "id": 3321551762,
  "lat": 41.0521636,
  "lon": 29.0125246
},
{
  "type": "node",
  "id": 3321551763,
  "lat": 41.0521094,
  "lon": 29.0127856
},
{
  "type": "node",
  "id": 3321551765,
  "lat": 41.0521526,
  "lon": 29.0125778
},
{
  "type": "node",
  "id": 3321551766,
  "lat": 41.0514732,
  "lon": 29.0123362
},
{
  "type": "node",
  "id": 3321551767,
  "lat": 41.0514397,
  "lon": 29.0125012
},
{
  "type": "node",
  "id": 3321551768,
  "lat": 41.0521185,
  "lon": 29.0127417
},
{
  "type": "node",
  "id": 3329697464,
  "lat": 41.0522558,
  "lon": 29.0125582
},
{
  "type": "node",
  "id": 3329697469,
  "lat": 41.0524032,
  "lon": 29.0126116
},
{
  "type": "node",
  "id": 3329697470,
  "lat": 41.0524105,
  "lon": 29.0125765
},
{
  "type": "node",
  "id": 3329697471,
  "lat": 41.0522631,
  "lon": 29.0125228
},
{
  "type": "node",
  "id": 3329716554,
  "lat": 41.0519298,
  "lon": 29.0126966
},
{
  "type": "node",
  "id": 3329716555,
  "lat": 41.0517036,
  "lon": 29.0124187
},
{
  "type": "node",
  "id": 3329716556,
  "lat": 41.0519676,
  "lon": 29.0125118
},
{
  "type": "node",
  "id": 3329716557,
  "lat": 41.0516698,
  "lon": 29.0125828
},
{
  "type": "node",
  "id": 3329716558,
  "lat": 41.0517147,
  "lon": 29.0123641
},
{
  "type": "node",
  "id": 3329716559,
  "lat": 41.0516850,
  "lon": 29.0122054
},
{
  "type": "node",
  "id": 3329716560,
  "lat": 41.0515335,
  "lon": 29.0123577
},
{
  "type": "node",
  "id": 3329716561,
  "lat": 41.0521040,
  "lon": 29.0125255
},
{
  "type": "node",
  "id": 3329716562,
  "lat": 41.0520740,
  "lon": 29.0125144
},
{
  "type": "node",
  "id": 3329716563,
  "lat": 41.0516626,
  "lon": 29.0126184
},
{
  "type": "node",
  "id": 3329716564,
  "lat": 41.0515469,
  "lon": 29.0125394
},
{
  "type": "node",
  "id": 3329716565,
  "lat": 41.0520113,
  "lon": 29.0127039
},
{
  "type": "node",
  "id": 3329716566,
  "lat": 41.0521129,
  "lon": 29.0125634
},
{
  "type": "node",
  "id": 3329716567,
  "lat": 41.0519339,
  "lon": 29.0126763
},
{
  "type": "node",
  "id": 3329716568,
  "lat": 41.0520461,
  "lon": 29.0125397
},
{
  "type": "node",
  "id": 3329716569,
  "lat": 41.0517525,
  "lon": 29.0126123
},
{
  "type": "node",
  "id": 3329716570,
  "lat": 41.0517485,
  "lon": 29.0126321
},
{
  "type": "node",
  "id": 3329716571,
  "lat": 41.0520639,
  "lon": 29.0127432
},
{
  "type": "node",
  "id": 3329716572,
  "lat": 41.0515398,
  "lon": 29.0125746
},
{
  "type": "node",
  "id": 3329716573,
  "lat": 41.0516460,
  "lon": 29.0123982
},
{
  "type": "node",
  "id": 3329716574,
  "lat": 41.0515725,
  "lon": 29.0121654
},
{
  "type": "node",
  "id": 3329716575,
  "lat": 41.0520161,
  "lon": 29.0127273
},
{
  "type": "node",
  "id": 3329716576,
  "lat": 41.0520790,
  "lon": 29.0127273
},
{
  "type": "node",
  "id": 3329716577,
  "lat": 41.0519785,
  "lon": 29.0124581
},
{
  "type": "node",
  "id": 3329831254,
  "lat": 41.0485834,
  "lon": 29.0111935
},
{
  "type": "node",
  "id": 3329831255,
  "lat": 41.0490111,
  "lon": 29.0112533
},
{
  "type": "node",
  "id": 3329831256,
  "lat": 41.0490248,
  "lon": 29.0110818
},
{
  "type": "node",
  "id": 3329831257,
  "lat": 41.0486366,
  "lon": 29.0110275
},
{
  "type": "node",
  "id": 3329831258,
  "lat": 41.0486313,
  "lon": 29.0110941
},
{
  "type": "node",
  "id": 3329831259,
  "lat": 41.0485917,
  "lon": 29.0110886
},
{
  "type": "node",
  "id": 3329845041,
  "lat": 41.0485889,
  "lon": 29.0111237
},
{
  "type": "node",
  "id": 3331476228,
  "lat": 41.0512632,
  "lon": 29.0123064
},
{
  "type": "node",
  "id": 3331476229,
  "lat": 41.0511558,
  "lon": 29.0122695
},
{
  "type": "node",
  "id": 3331476230,
  "lat": 41.0511734,
  "lon": 29.0121865
},
{
  "type": "node",
  "id": 3331476231,
  "lat": 41.0511518,
  "lon": 29.0121782
},
{
  "type": "node",
  "id": 3331476232,
  "lat": 41.0511645,
  "lon": 29.0121135
},
{
  "type": "node",
  "id": 3331476233,
  "lat": 41.0511866,
  "lon": 29.0121212
},
{
  "type": "node",
  "id": 3331476234,
  "lat": 41.0512027,
  "lon": 29.0120377
},
{
  "type": "node",
  "id": 3331476235,
  "lat": 41.0512306,
  "lon": 29.0120493
},
{
  "type": "node",
  "id": 3331476236,
  "lat": 41.0512452,
  "lon": 29.0119851
},
{
  "type": "node",
  "id": 3329662260,
  "lat": 41.0524103,
  "lon": 29.0129333
},
{
  "type": "node",
  "id": 3329662261,
  "lat": 41.0526918,
  "lon": 29.0130612
},
{
  "type": "node",
  "id": 3329697460,
  "lat": 41.0522150,
  "lon": 29.0128621
},
{
  "type": "node",
  "id": 3329697462,
  "lat": 41.0527431,
  "lon": 29.0128137
},
{
  "type": "node",
  "id": 3329697463,
  "lat": 41.0522223,
  "lon": 29.0128267
},
{
  "type": "node",
  "id": 3329697465,
  "lat": 41.0526861,
  "lon": 29.0128184
},
{
  "type": "node",
  "id": 3329697466,
  "lat": 41.0523274,
  "lon": 29.0128651
},
{
  "type": "node",
  "id": 3329697468,
  "lat": 41.0523201,
  "lon": 29.0129004
},
{
  "type": "node",
  "id": 3329697472,
  "lat": 41.0524176,
  "lon": 29.0128979
},
{
  "type": "node",
  "id": 3329727156,
  "lat": 41.0527267,
  "lon": 29.0129049
},
{
  "type": "node",
  "id": 3329727157,
  "lat": 41.0527123,
  "lon": 29.0129759
},
{
  "type": "node",
  "id": 3329727158,
  "lat": 41.0527494,
  "lon": 29.0128879
},
{
  "type": "node",
  "id": 3329727159,
  "lat": 41.0527251,
  "lon": 29.0130054
},
{
  "type": "node",
  "id": 3329727160,
  "lat": 41.0527088,
  "lon": 29.0128012
},
{
  "type": "node",
  "id": 3329730931,
  "lat": 41.0527575,
  "lon": 29.0128489
},
{
  "type": "node",
  "id": 3329730932,
  "lat": 41.0527179,
  "lon": 29.0130395
},
{
  "type": "node",
  "id": 3329731621,
  "lat": 41.0526448,
  "lon": 29.0130186
},
{
  "type": "node",
  "id": 3329731622,
  "lat": 41.0526576,
  "lon": 29.0130488
},
{
  "type": "node",
  "id": 769253430,
  "lat": 41.0425704,
  "lon": 29.0395890
},
{
  "type": "node",
  "id": 769253432,
  "lat": 41.0426087,
  "lon": 29.0396586
},
{
  "type": "node",
  "id": 769253433,
  "lat": 41.0426867,
  "lon": 29.0395832
},
{
  "type": "node",
  "id": 769253434,
  "lat": 41.0427518,
  "lon": 29.0397016
},
{
  "type": "node",
  "id": 769253435,
  "lat": 41.0427910,
  "lon": 29.0396637
},
{
  "type": "node",
  "id": 769253436,
  "lat": 41.0428451,
  "lon": 29.0397621
},
{
  "type": "node",
  "id": 769253437,
  "lat": 41.0428113,
  "lon": 29.0397948
},
{
  "type": "node",
  "id": 769253438,
  "lat": 41.0429121,
  "lon": 29.0399783
},
{
  "type": "node",
  "id": 769253439,
  "lat": 41.0429523,
  "lon": 29.0399395
},
{
  "type": "node",
  "id": 769253440,
  "lat": 41.0429830,
  "lon": 29.0399954
},
{
  "type": "node",
  "id": 769253441,
  "lat": 41.0429484,
  "lon": 29.0400289
},
{
  "type": "node",
  "id": 769253442,
  "lat": 41.0430165,
  "lon": 29.0401528
},
{
  "type": "node",
  "id": 769253443,
  "lat": 41.0429494,
  "lon": 29.0402176
},
{
  "type": "node",
  "id": 769253445,
  "lat": 41.0429783,
  "lon": 29.0402701
},
{
  "type": "node",
  "id": 769253446,
  "lat": 41.0428206,
  "lon": 29.0404224
},
{
  "type": "node",
  "id": 769253447,
  "lat": 41.0427878,
  "lon": 29.0403628
},
{
  "type": "node",
  "id": 769253448,
  "lat": 41.0427007,
  "lon": 29.0404470
},
{
  "type": "node",
  "id": 769253449,
  "lat": 41.0423757,
  "lon": 29.0398559
},
{
  "type": "node",
  "id": 769253450,
  "lat": 41.0424451,
  "lon": 29.0397888
},
{
  "type": "node",
  "id": 769253451,
  "lat": 41.0424168,
  "lon": 29.0397374
},
{
  "type": "node",
  "id": 4406237393,
  "lat": 41.0637558,
  "lon": 29.0599115
},
{
  "type": "node",
  "id": 4406237394,
  "lat": 41.0637856,
  "lon": 29.0597527
},
{
  "type": "node",
  "id": 4406237398,
  "lat": 41.0638838,
  "lon": 29.0599537
},
{
  "type": "node",
  "id": 4406237400,
  "lat": 41.0639136,
  "lon": 29.0597950
},
{
  "type": "node",
  "id": 2391536266,
  "lat": 41.0785326,
  "lon": 29.0650382
},
{
  "type": "node",
  "id": 2391536268,
  "lat": 41.0785058,
  "lon": 29.0650194
},
{
  "type": "node",
  "id": 2391536270,
  "lat": 41.0784853,
  "lon": 29.0650654
},
{
  "type": "node",
  "id": 2391536272,
  "lat": 41.0782648,
  "lon": 29.0649128
},
{
  "type": "node",
  "id": 2391536274,
  "lat": 41.0782726,
  "lon": 29.0648752
},
{
  "type": "node",
  "id": 2391536276,
  "lat": 41.0782411,
  "lon": 29.0648585
},
{
  "type": "node",
  "id": 2391536278,
  "lat": 41.0783057,
  "lon": 29.0646850
},
{
  "type": "node",
  "id": 2391536280,
  "lat": 41.0785909,
  "lon": 29.0648814
},
{
  "type": "node",
  "id": 4902176131,
  "lat": 41.0857375,
  "lon": 29.0563621
},
{
  "type": "node",
  "id": 4902176137,
  "lat": 41.0842167,
  "lon": 29.0557494
},
{
  "type": "node",
  "id": 4902176138,
  "lat": 41.0843132,
  "lon": 29.0557561
},
{
  "type": "node",
  "id": 4902176140,
  "lat": 41.0850245,
  "lon": 29.0565723
},
{
  "type": "node",
  "id": 4902176163,
  "lat": 41.0848392,
  "lon": 29.0565164
},
{
  "type": "node",
  "id": 4902203897,
  "lat": 41.0842012,
  "lon": 29.0566450
},
{
  "type": "node",
  "id": 4902203898,
  "lat": 41.0842331,
  "lon": 29.0566653
},
{
  "type": "node",
  "id": 4902203899,
  "lat": 41.0842374,
  "lon": 29.0567397
},
{
  "type": "node",
  "id": 4902203900,
  "lat": 41.0842196,
  "lon": 29.0567609
},
{
  "type": "node",
  "id": 4902203901,
  "lat": 41.0838476,
  "lon": 29.0566534
},
{
  "type": "node",
  "id": 4902203910,
  "lat": 41.0855997,
  "lon": 29.0563691
},
{
  "type": "node",
  "id": 4902205005,
  "lat": 41.0845200,
  "lon": 29.0567813
},
{
  "type": "node",
  "id": 4902205006,
  "lat": 41.0844870,
  "lon": 29.0567618
},
{
  "type": "node",
  "id": 4902205007,
  "lat": 41.0846701,
  "lon": 29.0557297
},
{
  "type": "node",
  "id": 4902205008,
  "lat": 41.0846703,
  "lon": 29.0557276
},
{
  "type": "node",
  "id": 4902205009,
  "lat": 41.0838757,
  "lon": 29.0566184
},
{
  "type": "node",
  "id": 4902205010,
  "lat": 41.0845646,
  "lon": 29.0566844
},
{
  "type": "node",
  "id": 4902208316,
  "lat": 41.0855293,
  "lon": 29.0558103
},
{
  "type": "node",
  "id": 4902208317,
  "lat": 41.0842502,
  "lon": 29.0556804
},
{
  "type": "node",
  "id": 4902209125,
  "lat": 41.0854826,
  "lon": 29.0557575
},
{
  "type": "node",
  "id": 4902209126,
  "lat": 41.0855026,
  "lon": 29.0557588
},
{
  "type": "node",
  "id": 4902209127,
  "lat": 41.0855194,
  "lon": 29.0557732
},
{
  "type": "node",
  "id": 4902209129,
  "lat": 41.0857370,
  "lon": 29.0562987
},
{
  "type": "node",
  "id": 4902209130,
  "lat": 41.0857416,
  "lon": 29.0563411
},
{
  "type": "node",
  "id": 4902209131,
  "lat": 41.0857295,
  "lon": 29.0563810
},
{
  "type": "node",
  "id": 4902209137,
  "lat": 41.0845437,
  "lon": 29.0567737
},
{
  "type": "node",
  "id": 4902209138,
  "lat": 41.0845079,
  "lon": 29.0567787
},
{
  "type": "node",
  "id": 4902209143,
  "lat": 41.0844741,
  "lon": 29.0567172
},
{
  "type": "node",
  "id": 4902209144,
  "lat": 41.0841679,
  "lon": 29.0566606
},
{
  "type": "node",
  "id": 4902209258,
  "lat": 41.0854539,
  "lon": 29.0557919
},
{
  "type": "node",
  "id": 4902209259,
  "lat": 41.0854647,
  "lon": 29.0557696
},
{
  "type": "node",
  "id": 4902209263,
  "lat": 41.0855251,
  "lon": 29.0557843
},
{
  "type": "node",
  "id": 4902209264,
  "lat": 41.0854520,
  "lon": 29.0558051
},
{
  "type": "node",
  "id": 4902209265,
  "lat": 41.0857414,
  "lon": 29.0563195
},
{
  "type": "node",
  "id": 4902209267,
  "lat": 41.0857182,
  "lon": 29.0563964
},
{
  "type": "node",
  "id": 4902209268,
  "lat": 41.0856884,
  "lon": 29.0564133
},
{
  "type": "node",
  "id": 4902209269,
  "lat": 41.0856563,
  "lon": 29.0564082
},
{
  "type": "node",
  "id": 4902209270,
  "lat": 41.0856305,
  "lon": 29.0563825
},
{
  "type": "node",
  "id": 4902209271,
  "lat": 41.0842891,
  "lon": 29.0557989
},
{
  "type": "node",
  "id": 4902209272,
  "lat": 41.0842288,
  "lon": 29.0556987
},
{
  "type": "node",
  "id": 4902209273,
  "lat": 41.0842876,
  "lon": 29.0556845
},
{
  "type": "node",
  "id": 4902209274,
  "lat": 41.0843065,
  "lon": 29.0557071
},
{
  "type": "node",
  "id": 4902209275,
  "lat": 41.0843143,
  "lon": 29.0557392
},
{
  "type": "node",
  "id": 4902209277,
  "lat": 41.0842676,
  "lon": 29.0558075
},
{
  "type": "node",
  "id": 4902209278,
  "lat": 41.0842185,
  "lon": 29.0557624
},
{
  "type": "node",
  "id": 4902209279,
  "lat": 41.0842215,
  "lon": 29.0557127
},
{
  "type": "node",
  "id": 4902209286,
  "lat": 41.0849783,
  "lon": 29.0564741
},
{
  "type": "node",
  "id": 4902209342,
  "lat": 41.0857041,
  "lon": 29.0564075
},
{
  "type": "node",
  "id": 4902209343,
  "lat": 41.0856721,
  "lon": 29.0564136
},
{
  "type": "node",
  "id": 4902209344,
  "lat": 41.0856421,
  "lon": 29.0563976
},
{
  "type": "node",
  "id": 4902209345,
  "lat": 41.0857287,
  "lon": 29.0562801
},
{
  "type": "node",
  "id": 4902209353,
  "lat": 41.0842755,
  "lon": 29.0556787
},
{
  "type": "node",
  "id": 4902209354,
  "lat": 41.0842982,
  "lon": 29.0556941
},
{
  "type": "node",
  "id": 4902209355,
  "lat": 41.0843119,
  "lon": 29.0557225
},
{
  "type": "node",
  "id": 4902209356,
  "lat": 41.0842803,
  "lon": 29.0558044
},
{
  "type": "node",
  "id": 4902209358,
  "lat": 41.0842428,
  "lon": 29.0558004
},
{
  "type": "node",
  "id": 4902209359,
  "lat": 41.0842239,
  "lon": 29.0557778
},
{
  "type": "node",
  "id": 4902209360,
  "lat": 41.0843089,
  "lon": 29.0557722
},
{
  "type": "node",
  "id": 4902209601,
  "lat": 41.0854582,
  "lon": 29.0557798
},
{
  "type": "node",
  "id": 4902209638,
  "lat": 41.0854731,
  "lon": 29.0557620
},
{
  "type": "node",
  "id": 4902209639,
  "lat": 41.0854926,
  "lon": 29.0557564
},
{
  "type": "node",
  "id": 4902209640,
  "lat": 41.0855117,
  "lon": 29.0557646
},
{
  "type": "node",
  "id": 4902209642,
  "lat": 41.0855285,
  "lon": 29.0557969
},
{
  "type": "node",
  "id": 4902209644,
  "lat": 41.0842386,
  "lon": 29.0556877
},
{
  "type": "node",
  "id": 4902209645,
  "lat": 41.0842628,
  "lon": 29.0556774
},
{
  "type": "node",
  "id": 4902209655,
  "lat": 41.0842549,
  "lon": 29.0558061
},
{
  "type": "node",
  "id": 4902209656,
  "lat": 41.0842322,
  "lon": 29.0557907
},
{
  "type": "node",
  "id": 4902209665,
  "lat": 41.0850622,
  "lon": 29.0564409
},
{
  "type": "node",
  "id": 4902209666,
  "lat": 41.0849949,
  "lon": 29.0564434
},
{
  "type": "node",
  "id": 4902209667,
  "lat": 41.0850208,
  "lon": 29.0564277
},
{
  "type": "node",
  "id": 4902209668,
  "lat": 41.0850491,
  "lon": 29.0564314
},
{
  "type": "node",
  "id": 4902209669,
  "lat": 41.0850845,
  "lon": 29.0565067
},
{
  "type": "node",
  "id": 4902209776,
  "lat": 41.0849751,
  "lon": 29.0564934
},
{
  "type": "node",
  "id": 4902209777,
  "lat": 41.0849851,
  "lon": 29.0564573
},
{
  "type": "node",
  "id": 4902209778,
  "lat": 41.0850070,
  "lon": 29.0564333
},
{
  "type": "node",
  "id": 4902209779,
  "lat": 41.0850351,
  "lon": 29.0564271
},
{
  "type": "node",
  "id": 4902209780,
  "lat": 41.0850840,
  "lon": 29.0564877
},
{
  "type": "node",
  "id": 4902209781,
  "lat": 41.0850812,
  "lon": 29.0565253
},
{
  "type": "node",
  "id": 4902209782,
  "lat": 41.0850388,
  "lon": 29.0565716
},
{
  "type": "node",
  "id": 4902209783,
  "lat": 41.0849978,
  "lon": 29.0565590
},
{
  "type": "node",
  "id": 4902209784,
  "lat": 41.0845601,
  "lon": 29.0566842
},
{
  "type": "node",
  "id": 4902209785,
  "lat": 41.0845101,
  "lon": 29.0566579
},
{
  "type": "node",
  "id": 4902209786,
  "lat": 41.0845458,
  "lon": 29.0566653
},
{
  "type": "node",
  "id": 4902209787,
  "lat": 41.0845664,
  "lon": 29.0567364
},
{
  "type": "node",
  "id": 4902209788,
  "lat": 41.0842083,
  "lon": 29.0567662
},
{
  "type": "node",
  "id": 4902209789,
  "lat": 41.0841962,
  "lon": 29.0567674
},
{
  "type": "node",
  "id": 4902209790,
  "lat": 41.0841844,
  "lon": 29.0567645
},
{
  "type": "node",
  "id": 4902209791,
  "lat": 41.0839032,
  "lon": 29.0566850
},
{
  "type": "node",
  "id": 4902209798,
  "lat": 41.0839066,
  "lon": 29.0567013
},
{
  "type": "node",
  "id": 4902209799,
  "lat": 41.0839031,
  "lon": 29.0567309
},
{
  "type": "node",
  "id": 4902209800,
  "lat": 41.0838789,
  "lon": 29.0567613
},
{
  "type": "node",
  "id": 4902209801,
  "lat": 41.0838564,
  "lon": 29.0567645
},
{
  "type": "node",
  "id": 4902209802,
  "lat": 41.0838358,
  "lon": 29.0567523
},
{
  "type": "node",
  "id": 4902209804,
  "lat": 41.0838199,
  "lon": 29.0567134
},
{
  "type": "node",
  "id": 4902209805,
  "lat": 41.0838235,
  "lon": 29.0566839
},
{
  "type": "node",
  "id": 4902209806,
  "lat": 41.0838294,
  "lon": 29.0566710
},
{
  "type": "node",
  "id": 4902209807,
  "lat": 41.0836526,
  "lon": 29.0555813
},
{
  "type": "node",
  "id": 4902209808,
  "lat": 41.0836424,
  "lon": 29.0554964
},
{
  "type": "node",
  "id": 4902209828,
  "lat": 41.0850745,
  "lon": 29.0565421
},
{
  "type": "node",
  "id": 4902209829,
  "lat": 41.0850647,
  "lon": 29.0565560
},
{
  "type": "node",
  "id": 4902209830,
  "lat": 41.0850525,
  "lon": 29.0565661
},
{
  "type": "node",
  "id": 4902209831,
  "lat": 41.0850105,
  "lon": 29.0565680
},
{
  "type": "node",
  "id": 4902209832,
  "lat": 41.0844837,
  "lon": 29.0566816
},
{
  "type": "node",
  "id": 4902209833,
  "lat": 41.0844986,
  "lon": 29.0566638
},
{
  "type": "node",
  "id": 4902209834,
  "lat": 41.0844754,
  "lon": 29.0567334
},
{
  "type": "node",
  "id": 4902209835,
  "lat": 41.0842372,
  "lon": 29.0566732
},
{
  "type": "node",
  "id": 4902209836,
  "lat": 41.0841892,
  "lon": 29.0566463
},
{
  "type": "node",
  "id": 4902209837,
  "lat": 41.0842240,
  "lon": 29.0566549
},
{
  "type": "node",
  "id": 4902209974,
  "lat": 41.0845345,
  "lon": 29.0566587
},
{
  "type": "node",
  "id": 4902209975,
  "lat": 41.0845554,
  "lon": 29.0566756
},
{
  "type": "node",
  "id": 4902209976,
  "lat": 41.0845537,
  "lon": 29.0567640
},
{
  "type": "node",
  "id": 4902210102,
  "lat": 41.0849873,
  "lon": 29.0565460
},
{
  "type": "node",
  "id": 4902210103,
  "lat": 41.0844887,
  "lon": 29.0566734
},
{
  "type": "node",
  "id": 4902210104,
  "lat": 41.0845224,
  "lon": 29.0566562
},
{
  "type": "node",
  "id": 4902210114,
  "lat": 41.0845614,
  "lon": 29.0567513
},
{
  "type": "node",
  "id": 4902210115,
  "lat": 41.0845323,
  "lon": 29.0567795
},
{
  "type": "node",
  "id": 4902210116,
  "lat": 41.0844966,
  "lon": 29.0567721
},
{
  "type": "node",
  "id": 4902210117,
  "lat": 41.0844798,
  "lon": 29.0567486
},
{
  "type": "node",
  "id": 4902210118,
  "lat": 41.0841632,
  "lon": 29.0566679
},
{
  "type": "node",
  "id": 4902210119,
  "lat": 41.0841778,
  "lon": 29.0566516
},
{
  "type": "node",
  "id": 4902210120,
  "lat": 41.0842131,
  "lon": 29.0566480
},
{
  "type": "node",
  "id": 4902210127,
  "lat": 41.0836433,
  "lon": 29.0555397
},
{
  "type": "node",
  "id": 4902210128,
  "lat": 41.0836501,
  "lon": 29.0554542
},
{
  "type": "node",
  "id": 4902210129,
  "lat": 41.0838118,
  "lon": 29.0553585
},
{
  "type": "node",
  "id": 4902210130,
  "lat": 41.0838813,
  "lon": 29.0554460
},
{
  "type": "node",
  "id": 4902210131,
  "lat": 41.0838180,
  "lon": 29.0556653
},
{
  "type": "node",
  "id": 4902210132,
  "lat": 41.0837540,
  "lon": 29.0556788
},
{
  "type": "node",
  "id": 4902210133,
  "lat": 41.0836934,
  "lon": 29.0556481
},
{
  "type": "node",
  "id": 4902210134,
  "lat": 41.0847586,
  "lon": 29.0557653
},
{
  "type": "node",
  "id": 4902210181,
  "lat": 41.0846824,
  "lon": 29.0556999
},
{
  "type": "node",
  "id": 4902210182,
  "lat": 41.0847033,
  "lon": 29.0556840
},
{
  "type": "node",
  "id": 4902210183,
  "lat": 41.0847275,
  "lon": 29.0556841
},
{
  "type": "node",
  "id": 4902210184,
  "lat": 41.0852622,
  "lon": 29.0557542
},
{
  "type": "node",
  "id": 4902210185,
  "lat": 41.0852669,
  "lon": 29.0557871
},
{
  "type": "node",
  "id": 4902210186,
  "lat": 41.0858067,
  "lon": 29.0559131
},
{
  "type": "node",
  "id": 4902210187,
  "lat": 41.0856959,
  "lon": 29.0556706
},
{
  "type": "node",
  "id": 4902210188,
  "lat": 41.0838816,
  "lon": 29.0562055
},
{
  "type": "node",
  "id": 4902210191,
  "lat": 41.0849797,
  "lon": 29.0565298
},
{
  "type": "node",
  "id": 4902210321,
  "lat": 41.0842426,
  "lon": 29.0567253
},
{
  "type": "node",
  "id": 4902210322,
  "lat": 41.0842296,
  "lon": 29.0567519
},
{
  "type": "node",
  "id": 4902210438,
  "lat": 41.0836656,
  "lon": 29.0554161
},
{
  "type": "node",
  "id": 4902210439,
  "lat": 41.0837160,
  "lon": 29.0553619
},
{
  "type": "node",
  "id": 4902210440,
  "lat": 41.0837800,
  "lon": 29.0553484
},
{
  "type": "node",
  "id": 4902210441,
  "lat": 41.0838642,
  "lon": 29.0554090
},
{
  "type": "node",
  "id": 4902210442,
  "lat": 41.0838906,
  "lon": 29.0554875
},
{
  "type": "node",
  "id": 4902210443,
  "lat": 41.0837866,
  "lon": 29.0556777
},
{
  "type": "node",
  "id": 4902210444,
  "lat": 41.0837222,
  "lon": 29.0556687
},
{
  "type": "node",
  "id": 4902210445,
  "lat": 41.0838405,
  "lon": 29.0553792
},
{
  "type": "node",
  "id": 4902210535,
  "lat": 41.0841735,
  "lon": 29.0567576
},
{
  "type": "node",
  "id": 4902210536,
  "lat": 41.0841644,
  "lon": 29.0567472
},
{
  "type": "node",
  "id": 4902210537,
  "lat": 41.0841575,
  "lon": 29.0567340
},
{
  "type": "node",
  "id": 4902210538,
  "lat": 41.0841535,
  "lon": 29.0567189
},
{
  "type": "node",
  "id": 4902210539,
  "lat": 41.0841526,
  "lon": 29.0567029
},
{
  "type": "node",
  "id": 4902210540,
  "lat": 41.0838620,
  "lon": 29.0566500
},
{
  "type": "node",
  "id": 4902210541,
  "lat": 41.0838376,
  "lon": 29.0566606
},
{
  "type": "node",
  "id": 4902210542,
  "lat": 41.0838587,
  "lon": 29.0566499
},
{
  "type": "node",
  "id": 4902210543,
  "lat": 41.0839039,
  "lon": 29.0566867
},
{
  "type": "node",
  "id": 4902210544,
  "lat": 41.0839063,
  "lon": 29.0567164
},
{
  "type": "node",
  "id": 4902210545,
  "lat": 41.0838889,
  "lon": 29.0567541
},
{
  "type": "node",
  "id": 4902210546,
  "lat": 41.0838678,
  "lon": 29.0567649
},
{
  "type": "node",
  "id": 4902210547,
  "lat": 41.0838455,
  "lon": 29.0567602
},
{
  "type": "node",
  "id": 4902210548,
  "lat": 41.0838280,
  "lon": 29.0567414
},
{
  "type": "node",
  "id": 4902210549,
  "lat": 41.0838226,
  "lon": 29.0567281
},
{
  "type": "node",
  "id": 4902210550,
  "lat": 41.0838202,
  "lon": 29.0566983
},
{
  "type": "node",
  "id": 4902210551,
  "lat": 41.0838971,
  "lon": 29.0567438
},
{
  "type": "node",
  "id": 4902210556,
  "lat": 41.0836697,
  "lon": 29.0556182
},
{
  "type": "node",
  "id": 4902210944,
  "lat": 41.0851676,
  "lon": 29.0558131
},
{
  "type": "node",
  "id": 4902210945,
  "lat": 41.0843155,
  "lon": 29.0558169
},
{
  "type": "node",
  "id": 4902211535,
  "lat": 41.0836881,
  "lon": 29.0553846
},
{
  "type": "node",
  "id": 4902211536,
  "lat": 41.0837473,
  "lon": 29.0553496
},
{
  "type": "node",
  "id": 4902211537,
  "lat": 41.0847483,
  "lon": 29.0557002
},
{
  "type": "node",
  "id": 4902211538,
  "lat": 41.0847603,
  "lon": 29.0557279
},
{
  "type": "node",
  "id": 4902211539,
  "lat": 41.0847482,
  "lon": 29.0557877
},
{
  "type": "node",
  "id": 4902211540,
  "lat": 41.0847272,
  "lon": 29.0558036
},
{
  "type": "node",
  "id": 4902211541,
  "lat": 41.0847152,
  "lon": 29.0558057
},
{
  "type": "node",
  "id": 4902211542,
  "lat": 41.0847031,
  "lon": 29.0558035
},
{
  "type": "node",
  "id": 4902211543,
  "lat": 41.0846919,
  "lon": 29.0557973
},
{
  "type": "node",
  "id": 4902211544,
  "lat": 41.0846822,
  "lon": 29.0557874
},
{
  "type": "node",
  "id": 4902211545,
  "lat": 41.0851781,
  "lon": 29.0557459
},
{
  "type": "node",
  "id": 4902211546,
  "lat": 41.0851866,
  "lon": 29.0557333
},
{
  "type": "node",
  "id": 4902211547,
  "lat": 41.0852220,
  "lon": 29.0557179
},
{
  "type": "node",
  "id": 4902211548,
  "lat": 41.0852458,
  "lon": 29.0557289
},
{
  "type": "node",
  "id": 4902211549,
  "lat": 41.0839053,
  "lon": 29.0555370
},
{
  "type": "node",
  "id": 4902211550,
  "lat": 41.0848276,
  "lon": 29.0564811
},
{
  "type": "node",
  "id": 4902211551,
  "lat": 41.0851811,
  "lon": 29.0562992
},
{
  "type": "node",
  "id": 4902211552,
  "lat": 41.0858127,
  "lon": 29.0561470
},
{
  "type": "node",
  "id": 4902212153,
  "lat": 41.0846720,
  "lon": 29.0557654
},
{
  "type": "node",
  "id": 4902212154,
  "lat": 41.0847605,
  "lon": 29.0557296
},
{
  "type": "node",
  "id": 4902212155,
  "lat": 41.0846750,
  "lon": 29.0557127
},
{
  "type": "node",
  "id": 4902212156,
  "lat": 41.0846921,
  "lon": 29.0556901
},
{
  "type": "node",
  "id": 4902212157,
  "lat": 41.0847154,
  "lon": 29.0556819
},
{
  "type": "node",
  "id": 4902212158,
  "lat": 41.0847387,
  "lon": 29.0556903
},
{
  "type": "node",
  "id": 4902212159,
  "lat": 41.0847557,
  "lon": 29.0557130
},
{
  "type": "node",
  "id": 4902212160,
  "lat": 41.0847556,
  "lon": 29.0557749
},
{
  "type": "node",
  "id": 4902212161,
  "lat": 41.0847385,
  "lon": 29.0557974
},
{
  "type": "node",
  "id": 4902212202,
  "lat": 41.0846748,
  "lon": 29.0557746
},
{
  "type": "node",
  "id": 4902212203,
  "lat": 41.0851724,
  "lon": 29.0557610
},
{
  "type": "node",
  "id": 4902213126,
  "lat": 41.0857182,
  "lon": 29.0556456
},
{
  "type": "node",
  "id": 4902213127,
  "lat": 41.0857446,
  "lon": 29.0556292
},
{
  "type": "node",
  "id": 4902213128,
  "lat": 41.0857733,
  "lon": 29.0556223
},
{
  "type": "node",
  "id": 4902213129,
  "lat": 41.0858024,
  "lon": 29.0556256
},
{
  "type": "node",
  "id": 4902213130,
  "lat": 41.0858298,
  "lon": 29.0556387
},
{
  "type": "node",
  "id": 4902213131,
  "lat": 41.0858538,
  "lon": 29.0556608
},
{
  "type": "node",
  "id": 4902213132,
  "lat": 41.0858726,
  "lon": 29.0556904
},
{
  "type": "node",
  "id": 4902213133,
  "lat": 41.0858850,
  "lon": 29.0557254
},
{
  "type": "node",
  "id": 4902213134,
  "lat": 41.0858902,
  "lon": 29.0557635
},
{
  "type": "node",
  "id": 4902213135,
  "lat": 41.0858878,
  "lon": 29.0558021
},
{
  "type": "node",
  "id": 4902213136,
  "lat": 41.0858612,
  "lon": 29.0558703
},
{
  "type": "node",
  "id": 4902213137,
  "lat": 41.0858389,
  "lon": 29.0558953
},
{
  "type": "node",
  "id": 4902213138,
  "lat": 41.0857838,
  "lon": 29.0559186
},
{
  "type": "node",
  "id": 4902213139,
  "lat": 41.0857547,
  "lon": 29.0559153
},
{
  "type": "node",
  "id": 4902213140,
  "lat": 41.0857272,
  "lon": 29.0559022
},
{
  "type": "node",
  "id": 4902213141,
  "lat": 41.0857033,
  "lon": 29.0558801
},
{
  "type": "node",
  "id": 4902213142,
  "lat": 41.0856845,
  "lon": 29.0558505
},
{
  "type": "node",
  "id": 4902213143,
  "lat": 41.0856720,
  "lon": 29.0558155
},
{
  "type": "node",
  "id": 4902213144,
  "lat": 41.0856693,
  "lon": 29.0557388
},
{
  "type": "node",
  "id": 4902213145,
  "lat": 41.0856792,
  "lon": 29.0557024
},
{
  "type": "node",
  "id": 4902213146,
  "lat": 41.0858779,
  "lon": 29.0558385
},
{
  "type": "node",
  "id": 4902213147,
  "lat": 41.0855429,
  "lon": 29.0558470
},
{
  "type": "node",
  "id": 4902213148,
  "lat": 41.0838486,
  "lon": 29.0556512
},
{
  "type": "node",
  "id": 4902213161,
  "lat": 41.0839547,
  "lon": 29.0559177
},
{
  "type": "node",
  "id": 4902213162,
  "lat": 41.0839241,
  "lon": 29.0561569
},
{
  "type": "node",
  "id": 4902213240,
  "lat": 41.0851972,
  "lon": 29.0557241
},
{
  "type": "node",
  "id": 4902213241,
  "lat": 41.0852093,
  "lon": 29.0557188
},
{
  "type": "node",
  "id": 4902213242,
  "lat": 41.0852344,
  "lon": 29.0557213
},
{
  "type": "node",
  "id": 4902213243,
  "lat": 41.0852552,
  "lon": 29.0557401
},
{
  "type": "node",
  "id": 4902213244,
  "lat": 41.0852662,
  "lon": 29.0557703
},
{
  "type": "node",
  "id": 4902213245,
  "lat": 41.0856714,
  "lon": 29.0558106
},
{
  "type": "node",
  "id": 4902213246,
  "lat": 41.0856670,
  "lon": 29.0557752
},
{
  "type": "node",
  "id": 4902213533,
  "lat": 41.0839376,
  "lon": 29.0557406
},
{
  "type": "node",
  "id": 4902213534,
  "lat": 41.0839015,
  "lon": 29.0562542
},
{
  "type": "node",
  "id": 4902213535,
  "lat": 41.0839019,
  "lon": 29.0566490
},
{
  "type": "node",
  "id": 4902213536,
  "lat": 41.0846904,
  "lon": 29.0566325
},
{
  "type": "node",
  "id": 4902213537,
  "lat": 41.0850648,
  "lon": 29.0564393
},
{
  "type": "node",
  "id": 4902213779,
  "lat": 41.0858213,
  "lon": 29.0559239
},
{
  "type": "node",
  "id": 4902213780,
  "lat": 41.0855408,
  "lon": 29.0558110
},
{
  "type": "node",
  "id": 4902213781,
  "lat": 41.0851698,
  "lon": 29.0557775
},
{
  "type": "node",
  "id": 4902213782,
  "lat": 41.0843207,
  "lon": 29.0557802
},
{
  "type": "node",
  "id": 4902213783,
  "lat": 41.0839123,
  "lon": 29.0557601
},
{
  "type": "node",
  "id": 4902213784,
  "lat": 41.0839274,
  "lon": 29.0559170
},
{
  "type": "node",
  "id": 4902213785,
  "lat": 41.0838991,
  "lon": 29.0561382
},
{
  "type": "node",
  "id": 4902213786,
  "lat": 41.0838476,
  "lon": 29.0561973
},
{
  "type": "node",
  "id": 4902213787,
  "lat": 41.0838739,
  "lon": 29.0562616
},
{
  "type": "node",
  "id": 4902213788,
  "lat": 41.0838476,
  "lon": 29.0566331
},
{
  "type": "node",
  "id": 4902213789,
  "lat": 41.0842449,
  "lon": 29.0567096
},
{
  "type": "node",
  "id": 4902213790,
  "lat": 41.0845683,
  "lon": 29.0567203
},
{
  "type": "node",
  "id": 4902213791,
  "lat": 41.0847048,
  "lon": 29.0566640
},
{
  "type": "node",
  "id": 4902213848,
  "lat": 41.0850798,
  "lon": 29.0564695
},
{
  "type": "node",
  "id": 4902213849,
  "lat": 41.0858389,
  "lon": 29.0561651
},
{
  "type": "node",
  "id": 4902214025,
  "lat": 41.0856075,
  "lon": 29.0564065
},
{
  "type": "node",
  "id": 4902214142,
  "lat": 41.0851900,
  "lon": 29.0563367
},
{
  "type": "node",
  "id": 4902214143,
  "lat": 41.0858491,
  "lon": 29.0559036
},
{
  "type": "node",
  "id": 6911898848,
  "lat": 41.0844432,
  "lon": 29.0528020
},
{
  "type": "node",
  "id": 6911898849,
  "lat": 41.0844317,
  "lon": 29.0529896
},
{
  "type": "node",
  "id": 6911898850,
  "lat": 41.0842918,
  "lon": 29.0529745
},
{
  "type": "node",
  "id": 6911898851,
  "lat": 41.0843033,
  "lon": 29.0527869
},
{
  "type": "node",
  "id": 6988378738,
  "lat": 41.0827439,
  "lon": 29.0534414
},
{
  "type": "node",
  "id": 6988378739,
  "lat": 41.0826553,
  "lon": 29.0533369
},
{
  "type": "node",
  "id": 6988378740,
  "lat": 41.0825713,
  "lon": 29.0534624
},
{
  "type": "node",
  "id": 6988378741,
  "lat": 41.0826598,
  "lon": 29.0535668
},
{
  "type": "way",
  "id": 109738924,
  "nodes": [
    1255431622,
    1255431701,
    1255431560,
    1255431508,
    1255431622
  ]
},
{
  "type": "way",
  "id": 109738926,
  "nodes": [
    1255431716,
    1255431625,
    1255431662,
    1255431678,
    1255431716
  ]
},
{
  "type": "way",
  "id": 109738930,
  "nodes": [
    1255431528,
    1255431638,
    1255431533,
    1255431684,
    1255431598,
    1255431619,
    1255431555,
    1255431580,
    1255431528
  ]
},
{
  "type": "way",
  "id": 109836394,
  "nodes": [
    1255431509,
    1255431670,
    4680908276,
    4680908277,
    1255431671,
    1255431713,
    1255431697,
    1255431639,
    1255431509
  ]
},
{
  "type": "way",
  "id": 109836395,
  "nodes": [
    1255431537,
    4680908279,
    4680908280,
    4680908278,
    1255431655,
    1255431614,
    1255431595,
    1255431633,
    1255431537
  ]
},
{
  "type": "way",
  "id": 180546853,
  "nodes": [
    1909688085,
    1909688093,
    1909688087,
    1909688083,
    1909688081,
    1909688085
  ]
},
{
  "type": "way",
  "id": 264996197,
  "nodes": [
    2706580178,
    2706580179,
    2706580181,
    2706580183
  ]
},
{
  "type": "way",
  "id": 335351350,
  "nodes": [
    3424669898,
    3424669899,
    3424669904,
    3424669901,
    3424669898
  ]
},
{
  "type": "way",
  "id": 335351351,
  "nodes": [
    3424669906,
    3424669909,
    3424669914,
    3424669913,
    3424669906
  ]
},
{
  "type": "way",
  "id": 570435285,
  "nodes": [
    2706580183,
    2706580184,
    2706580186,
    2706580188,
    2706580189,
    2706580191,
    2706580193,
    5484199879,
    2706580178
  ]
},
{
  "type": "way",
  "id": 570435286,
  "nodes": [
    5484199880,
    5484199881,
    5484199882,
    5484199883,
    5484199884,
    5484199885,
    5484199880
  ]
},
{
  "type": "way",
  "id": 109862851,
  "nodes": [
    1256638330,
    3424857277,
    1256638307,
    1256638335,
    1256638328,
    1256638281,
    1256638343,
    1256638280,
    1256638341,
    1256638336,
    1256643653,
    1256643652,
    1256643646,
    1256643649,
    1256643651,
    1256643644,
    1256643643,
    1762092188,
    1255431689,
    1255431538,
    1256643648,
    1256643655,
    3424857251,
    3424857253,
    1256643647,
    1256643642,
    1255431582,
    1255431589,
    1255431656,
    1255431559,
    251397966,
    1256638299,
    1256638342,
    1256638329,
    4078371618,
    4078371619,
    1256638292,
    1193429204,
    1256638309,
    1256638321,
    1256638298,
    1256638338,
    1256638294,
    1256638325,
    1256638301,
    1256638283,
    1256638311,
    1256638285,
    1256638303,
    1256638332,
    1256638326,
    1256638310,
    1256638295,
    1256638345,
    1256638334,
    1256638347,
    1256638279,
    1256638312,
    1256638313,
    1256638284,
    1256638277,
    1256638308,
    1256638305,
    1256638340,
    1256638344,
    1256638300,
    1256638296,
    1256638304,
    1256638339,
    1256638282,
    1256638331,
    1256638327,
    1256638315,
    1256638337,
    1256657531,
    1256638317,
    1256638319,
    1256638276,
    1256638318,
    1256638333,
    1256638293,
    1256638288,
    1256638287,
    1256388866,
    1256388856,
    1256638286,
    1256638324,
    1256638297,
    1256638290,
    1256638330
  ]
},
{
  "type": "way",
  "id": 335351349,
  "nodes": [
    3424669915,
    3424668192,
    3424668188,
    3424669896,
    3424668186,
    3424669910,
    3424669902,
    3424669908,
    3424669911,
    3424669912,
    3424669915
  ]
},
{
  "type": "way",
  "id": 109864688,
  "nodes": [
    1256657495,
    1256657486,
    1256657529,
    1256657512,
    1256657494,
    1256657490,
    1256657517,
    1256657526,
    1256657515,
    1256657492,
    1256657516,
    1256657509,
    1256657503,
    1256657496,
    1256657495
  ]
},
{
  "type": "way",
  "id": 32396325,
  "nodes": [
    3424786627,
    364455751,
    3424786630,
    3424786633,
    3424786628,
    3424786626,
    3424786624,
    3424786620,
    3424786618,
    35889091,
    364455746,
    3424786631,
    3424786638,
    3424786627
  ]
},
{
  "type": "way",
  "id": 335364923,
  "nodes": [
    3424786635,
    3424786623,
    3424786619,
    3424786629,
    3424786635
  ]
},
{
  "type": "way",
  "id": 227308608,
  "nodes": [
    2478523175,
    2360118788,
    2360118797,
    2360118801,
    2360118821,
    2360118833,
    2360118844,
    2360118849,
    2360118856,
    2478523184,
    2360118802
  ]
},
{
  "type": "way",
  "id": 318342527,
  "nodes": [
    2360118802,
    27610599,
    27607296,
    27610990,
    3247431860
  ]
},
{
  "type": "way",
  "id": 170654364,
  "nodes": [
    3247431857,
    2478523179,
    1818122684,
    2478523176,
    2478523177,
    2478523178,
    1818122680,
    2478523180,
    2478523181,
    1818122688,
    1818122682,
    1818122681,
    2478523183,
    2478523182,
    3247431859
  ]
},
{
  "type": "way",
  "id": 318342522,
  "nodes": [
    3247431858,
    2478523175
  ]
},
{
  "type": "way",
  "id": 318342524,
  "nodes": [
    3247431860,
    3282691527
  ]
},
{
  "type": "way",
  "id": 318342525,
  "nodes": [
    3247431858,
    3282691524
  ]
},
{
  "type": "way",
  "id": 321514699,
  "nodes": [
    3282691525,
    3247431859
  ]
},
{
  "type": "way",
  "id": 321514700,
  "nodes": [
    3282691523,
    3247431857
  ]
},
{
  "type": "way",
  "id": 321514703,
  "nodes": [
    3282691524,
    3282691522,
    4013415967,
    4013415968,
    3282691520,
    3282691518,
    3282691519,
    3282691521,
    3282691523
  ]
},
{
  "type": "way",
  "id": 321514704,
  "nodes": [
    3282691525,
    3282691526,
    3282691528,
    3282691531,
    3282691533,
    3282691532,
    3282691530,
    3282691529,
    3282691527
  ]
},
{
  "type": "way",
  "id": 440558676,
  "nodes": [
    4383003893,
    4383017941,
    4383017940,
    4383017939,
    4383017938,
    4383017948,
    4383017943,
    4383017944,
    4383017945,
    4383012851,
    4383003906,
    4383003911,
    4383003902,
    4383003908,
    4383003918,
    4383003919,
    4383003892,
    4383003899,
    4383012846,
    4383012845,
    4383012854,
    4383012856,
    4383012855,
    4383012850,
    4383012847,
    4383012849,
    4383012848,
    4383017946,
    4383003891,
    4383003913,
    4383003901,
    4383003912,
    4383002587,
    4383003904,
    4383003900,
    4383003916,
    4383003893
  ]
},
{
  "type": "way",
  "id": 440558677,
  "nodes": [
    4383025469,
    4383025437,
    4383025439,
    4383025446,
    4383025448,
    4383025443,
    4383025434,
    4383025468,
    4383025440,
    4383025441,
    4383025457,
    4383025449,
    4383025456,
    4383025442,
    4383025452,
    4383025445,
    4383025461,
    4383025459,
    4383025451,
    4383025463,
    4383025454,
    4383025447,
    4383025466,
    4383025458,
    4383025467,
    4383025453,
    4383025450,
    4383025438,
    4383025435,
    4383025436,
    4383025444,
    4383025464,
    4383025455,
    4383025460,
    4383025465,
    4383025462,
    4383025469
  ]
},
{
  "type": "way",
  "id": 498879780,
  "nodes": [
    4902209264,
    4902210185,
    4902213244,
    4902210184,
    4902213243,
    4902211548,
    4902213242,
    4902211547,
    4902213241,
    4902213240,
    4902211546,
    4902211545,
    4902212203,
    4902213781,
    4902212154,
    4902211538,
    4902212159,
    4902211537,
    4902212158,
    4902210183,
    4902212157,
    4902210182,
    4902212156,
    4902210181,
    4902212155,
    4902205008,
    4902205007,
    4902213782,
    4902209360,
    4902176138,
    4902209275,
    4902209355,
    4902209274,
    4902209354,
    4902209273,
    4902209353,
    4902209645,
    4902208317,
    4902209644,
    4902209272,
    4902209279,
    4902210442,
    4902210130,
    4902210441,
    4902210445,
    4902210129,
    4902210440,
    4902211536,
    4902210439,
    4902211535,
    4902210438,
    4902210128,
    4902209808,
    4902210127,
    4902209807,
    4902210556,
    4902210133,
    4902210444,
    4902210132,
    4902210443,
    4902210131,
    4902213783,
    4902213784,
    4902213785,
    4902213786,
    4902213787,
    4902213788,
    4902210540,
    4902210542,
    4902203901,
    4902210541,
    4902209806,
    4902209805,
    4902210550,
    4902209804,
    4902210549,
    4902210548,
    4902209802,
    4902210547,
    4902209801,
    4902210546,
    4902209800,
    4902210545,
    4902210551,
    4902209799,
    4902210544,
    4902209798,
    4902210543,
    4902209791,
    4902210539,
    4902210538,
    4902210537,
    4902210536,
    4902210535,
    4902209790,
    4902209789,
    4902209788,
    4902203900,
    4902210322,
    4902203899,
    4902210321,
    4902213789,
    4902209143,
    4902209834,
    4902210117,
    4902205006,
    4902210116,
    4902209138,
    4902205005,
    4902210115,
    4902209137,
    4902209976,
    4902210114,
    4902209787,
    4902213790,
    4902213791,
    4902176163,
    4902210191,
    4902210102,
    4902209783,
    4902209831,
    4902176140,
    4902209782,
    4902209830,
    4902209829,
    4902209828,
    4902209781,
    4902209669,
    4902209780,
    4902213848,
    4902214142,
    4902214025,
    4902209270,
    4902209344,
    4902209269,
    4902209343,
    4902209268,
    4902209342,
    4902209267,
    4902209131,
    4902176131,
    4902209130,
    4902209265,
    4902209129,
    4902209345,
    4902213849,
    4902214143,
    4902213137,
    4902213136,
    4902213146,
    4902213135,
    4902213134,
    4902213133,
    4902213132,
    4902213131,
    4902213130,
    4902213129,
    4902213128,
    4902213127,
    4902213126,
    4902210187,
    4902213145,
    4902213144,
    4902213246,
    4902213780,
    4902208316,
    4902209642,
    4902209263,
    4902209127,
    4902209640,
    4902209126,
    4902209639,
    4902209125,
    4902209638,
    4902209259,
    4902209601,
    4902209258,
    4902209264
  ]
},
{
  "type": "way",
  "id": 498879782,
  "nodes": [
    4902176137,
    4902209278,
    4902209359,
    4902209656,
    4902209358,
    4902209655,
    4902209277,
    4902209356,
    4902209271,
    4902210945,
    4902212153,
    4902212202,
    4902211544,
    4902211543,
    4902211542,
    4902211541,
    4902211540,
    4902212161,
    4902211539,
    4902212160,
    4902210134,
    4902210944,
    4902213147,
    4902213245,
    4902213143,
    4902213142,
    4902213141,
    4902213140,
    4902213139,
    4902213138,
    4902210186,
    4902213779,
    4902211552,
    4902203910,
    4902211551,
    4902213537,
    4902209665,
    4902209668,
    4902209779,
    4902209667,
    4902209778,
    4902209666,
    4902209777,
    4902209286,
    4902209776,
    4902211550,
    4902213536,
    4902205010,
    4902209784,
    4902209975,
    4902209786,
    4902209974,
    4902210104,
    4902209785,
    4902209833,
    4902210103,
    4902209832,
    4902209835,
    4902203898,
    4902209837,
    4902210120,
    4902203897,
    4902209836,
    4902210119,
    4902209144,
    4902210118,
    4902213535,
    4902205009,
    4902213534,
    4902210188,
    4902213162,
    4902213161,
    4902213533,
    4902213148,
    4902211549,
    4902176137
  ]
}

  ]
}
