{
  "version": 0.6,
  "generator": "Overpass API 0.7.55.1011 6c2efc30",
  "osm3s": {
    "timestamp_osm_base": "2020-02-14T15:10:01Z",
    "copyright": "The data included in this document is from www.openstreetmap.org. The data is made available under ODbL."
  },
  "elements": [

{
  "type": "node",
  "id": 267673035,
  "lat": 38.1166201,
  "lon": 13.3410945,
  "tags": {
    "name": "museo dell'Islam",
    "tourism": "museum",
    "wheelchair": "no",
    "wikidata": "Q1954317",
    "wikipedia": "it:Museo d'arte islamica (Palermo)"
  }
},
{
  "type": "node",
  "id": 1572913967,
  "lat": 38.1165922,
  "lon": 13.3711754,
  "tags": {
    "name": "Galleria Regionale",
    "tourism": "museum",
    "wikidata": "Q1255652",
    "wikipedia": "it:Palazzo Abatellis"
  }
},
{
  "type": "node",
  "id": 1816345209,
  "lat": 38.1185396,
  "lon": 13.3705559,
  "tags": {
    "addr:housenumber": "5",
    "addr:street": "Piazzetta Antonio Pasqualino",
    "contact:email": "mimap@museomarionettepalermo.it",
    "contact:fax": "+39 091 328276",
    "contact:phone": "+39 091 328060",
    "name": "museo internazionale delle marionette Antonio Pasqualino",
    "tourism": "museum",
    "website": "http://museomarionettepalermo.it/",
    "wikidata": "Q1954250",
    "wikipedia": "it:Museo internazionale delle marionette Antonio Pasqualino"
  }
},
{
  "type": "node",
  "id": 1879329469,
  "lat": 37.9865367,
  "lon": 13.6958411,
  "tags": {
    "name": "Museo Civico",
    "tourism": "museum"
  }
},
{
  "type": "node",
  "id": 1927130930,
  "lat": 38.1344399,
  "lon": 13.3489259,
  "tags": {
    "name": "Museo d'arte e archeologia Ignazio Mormino",
    "tourism": "museum",
    "wikidata": "Q3867861",
    "wikipedia": "it:Museo d'arte e archeologia Ignazio Mormino"
  }
},
{
  "type": "node",
  "id": 1948131038,
  "lat": 38.1366598,
  "lon": 13.3672465,
  "tags": {
    "name": "Arsenale della Real Marina",
    "tourism": "museum",
    "wheelchair": "yes",
    "wikidata": "Q3867956",
    "wikipedia": "it:Arsenale di Palermo - Museo del mare"
  }
},
{
  "type": "node",
  "id": 1957103614,
  "lat": 38.0740994,
  "lon": 13.5079981,
  "tags": {
    "name": "Museo del Giocattolo",
    "tourism": "museum"
  }
},
{
  "type": "node",
  "id": 1962531883,
  "lat": 38.1043965,
  "lon": 13.3470991,
  "tags": {
    "name": "Museo storico dei motori e dei meccanismi",
    "tourism": "museum",
    "url": "http://www.museomotori.unipa.it"
  }
},
{
  "type": "node",
  "id": 2027074010,
  "lat": 38.1114372,
  "lon": 13.3531724,
  "tags": {
    "man_made": "observatory",
    "name": "Museo dell'Osservatorio Astronomico",
    "tourism": "museum",
    "wheelchair": "yes",
    "wikidata": "Q3886764",
    "wikipedia": "it:Osservatorio astronomico di Palermo"
  }
},
{
  "type": "node",
  "id": 2215309343,
  "lat": 38.1194078,
  "lon": 13.3630909,
  "tags": {
    "name": "Museo del Risorgimento Vittorio Emanuele Orlando",
    "tourism": "museum",
    "wikidata": "Q1954299",
    "wikipedia": "it:Museo del Risorgimento (Palermo)"
  }
},
{
  "type": "node",
  "id": 2320556452,
  "lat": 38.1165506,
  "lon": 13.3682238,
  "tags": {
    "name": "museo di Palazzo Mirto",
    "tourism": "museum",
    "wikidata": "Q3890489",
    "wikipedia": "it:Palazzo Mirto"
  }
},
{
  "type": "node",
  "id": 2492630586,
  "lat": 38.1160773,
  "lon": 13.3509232,
  "tags": {
    "addr:city": "Palermo",
    "addr:housenumber": "110",
    "addr:postcode": "90138",
    "addr:street": "Corso Alberto Amedeo",
    "name": "Catacombe di Porta d'Ossuna",
    "opening_hours": "Su 10:00-13:00,15:00-18:00",
    "phone": "3279849519",
    "site_type": "tomb",
    "tourism": "museum",
    "website": "http://www.archeofficina.com/la-catacomba-di-porta-dossuna-a-palermo/",
    "wikidata": "Q3663198",
    "wikipedia": "it:Catacombe di Porta d'Ossuna"
  }
},
{
  "type": "node",
  "id": 2498804753,
  "lat": 38.1150762,
  "lon": 13.3658349,
  "tags": {
    "addr:city": "Palermo",
    "addr:housenumber": "21",
    "addr:postcode": "90133",
    "addr:street": "Via Sant'Anna",
    "name": "Galleria d'arte moderna \"Empedocle Restivo\"",
    "name:en": "Modern art gallery \"Empedocle Restivo\"",
    "opening_hours": "Tu-Su 09:30-18:30",
    "toilets:wheelchair": "yes",
    "tourism": "museum",
    "wheelchair": "yes",
    "wheelchair:description": "Galleria d'arte moderna Empedocle Restivo",
    "wikidata": "Q1492337",
    "wikipedia": "it:Galleria d'arte moderna Sant'Anna"
  }
},
{
  "type": "node",
  "id": 2516447353,
  "lat": 38.1119528,
  "lon": 13.3543588,
  "tags": {
    "name": "Ingresso Palazzo Reale e Capilla Palatina",
    "name:de": "Eingang Palazzo Reale e Capilla Palatina",
    "name:en": "Entrance Palazzo Reale e Capilla Palatina",
    "tourism": "museum"
  }
},
{
  "type": "node",
  "id": 2577234736,
  "lat": 38.1151739,
  "lon": 13.3599625,
  "tags": {
    "name": "Museo d'Arte Contemporanea della Sicilia",
    "tourism": "museum",
    "wikidata": "Q1421391",
    "wikipedia": "it:Palazzo Riso"
  }
},
{
  "type": "node",
  "id": 2583016847,
  "lat": 38.0899052,
  "lon": 13.5014725,
  "tags": {
    "name": "Museo Guttuso",
    "tourism": "museum",
    "wikidata": "Q3867610",
    "wikipedia": "it:Museo Guttuso"
  }
},
{
  "type": "node",
  "id": 3321172961,
  "lat": 38.1086940,
  "lon": 13.3324895,
  "tags": {
    "name": "Esposizione strumenti medici ex ospedale psichiatrico",
    "tourism": "museum"
  }
},
{
  "type": "node",
  "id": 3874596957,
  "lat": 37.9620423,
  "lon": 13.1752017,
  "tags": {
    "addr:city": "San Cipirello",
    "addr:housenumber": "287",
    "addr:street": "Via roma",
    "name": "centro polifunzionale",
    "tourism": "museum",
    "wheelchair": "yes"
  }
},
{
  "type": "node",
  "id": 4056938289,
  "lat": 38.1137300,
  "lon": 13.3555440,
  "tags": {
    "addr:city": "Palermo",
    "addr:housenumber": "2",
    "addr:postcode": "90100",
    "addr:street": "Via Matteo Bonello",
    "name": "Museo Diocesano di Palermo (MUdiPA)",
    "tourism": "museum",
    "website": "http://www.museodiocesanopa.it",
    "wheelchair": "yes",
    "wheelchair:description": "Museo Diocesano nel Palazzo Arcivescovile di Palermo",
    "wikidata": "Q518412",
    "wikipedia": "it:Museo diocesano (Palermo)"
  }
},
{
  "type": "node",
  "id": 4169714289,
  "lat": 38.1170246,
  "lon": 13.3723984,
  "tags": {
    "name": "CantoMUSEO",
    "tourism": "museum"
  }
},
{
  "type": "node",
  "id": 4382743763,
  "lat": 37.8972064,
  "lon": 13.5618561,
  "tags": {
    "name": "Museo civico Filippo Meli",
    "tourism": "museum"
  }
},
{
  "type": "node",
  "id": 4843420022,
  "lat": 37.8116492,
  "lon": 13.3018515,
  "tags": {
    "addr:housenumber": "7",
    "addr:postcode": "90034",
    "addr:street": "Via G. Valenti",
    "name": "C.I.D.M.A.",
    "name:it": "Centro Internazionale di Documentazione sulla Mafia e del Movimento Antimafia",
    "opening_hours": "Mo-Fr 11:00-13:00, 15:00-17:00",
    "phone": "+39 340 402 5601",
    "tourism": "museum",
    "website": "https://cidmacorleone.it/"
  }
},
{
  "type": "node",
  "id": 5972228874,
  "lat": 37.9893434,
  "lon": 13.6859517,
  "tags": {
    "name": "Museo del motorismo siciliano e della Targa Florio",
    "tourism": "museum"
  }
},
{
  "type": "node",
  "id": 6124516286,
  "lat": 38.1190373,
  "lon": 13.3708970,
  "tags": {
    "name:ru": "Музей марионеток",
    "tourism": "museum"
  }
},
{
  "type": "node",
  "id": 6385323217,
  "lat": 38.0819916,
  "lon": 13.2927814,
  "tags": {
    "addr:city": "Monreale",
    "addr:housenumber": "2",
    "addr:postcode": "90046",
    "addr:street": "Via Arcivescovado",
    "name": "Museo Diocesano di Monreale",
    "source": "http://www.museodiocesanomonreale.it/index.php?option=com_content&view=article&id=33&Itemid=145",
    "tourism": "museum",
    "website": "http://www.museodiocesanomonreale.it",
    "wikidata": "Q16336836",
    "wikipedia": "it:Museo diocesano (Monreale)"
  }
},
{
  "type": "node",
  "id": 7117019635,
  "lat": 37.8262043,
  "lon": 13.4833069,
  "tags": {
    "contact:facebook": "https://www.facebook.com/assculturale.museodelgrano",
    "email": "museodelgrano@outlook.it",
    "fee": "no",
    "museum": "local",
    "museum_type": "private",
    "name": "Museo del Grano",
    "opening_hours": "24/7",
    "phone": "+39 03386285865",
    "reservation": "only",
    "subject": "history",
    "tourism": "museum",
    "website": "http://www.museodelgrano.it/"
  }
},
{
  "type": "node",
  "id": 7174955199,
  "lat": 38.1138883,
  "lon": 13.3573264,
  "tags": {
    "addr:city": "Palermo",
    "addr:housenumber": "452",
    "addr:postcode": "90134",
    "addr:street": "Corso Vittorio Emanuele",
    "description": "Le otto sale museali conservano i cimeli più incredibili del mondo collezionistico della Mela. Dallo straordinario Apple I ad una raccolta di scatti inediti del suo fondatore Steve Jobs.",
    "email": "info@mecmuseum.it",
    "fee": "yes",
    "museum": "technology",
    "name": "MEC Museum",
    "opening_hours": "Tu-Sa 09:30-17:00; Su 09:00-12:00, 17:00-20:00",
    "phone": "+39 091 9891901",
    "start_date": "31/01/2020",
    "tourism": "museum",
    "website": "https://www.mecmuseum.it/"
  }
},
{
  "type": "node",
  "id": 7204313014,
  "lat": 37.8651107,
  "lon": 13.4634057,
  "tags": {
    "museum": "local",
    "museum_type": "municipal",
    "name": "Museo dei Pupi siciliani",
    "tourism": "museum",
    "website": "http://www.mezzojusoecotour.it/Pages/pupi.php"
  }
},
{
  "type": "node",
  "id": 7204313015,
  "lat": 37.8651508,
  "lon": 13.4641508,
  "tags": {
    "museum": "local",
    "name": "Museo del Mastro di Campo",
    "tourism": "museum"
  }
},
{
  "type": "node",
  "id": 7204313017,
  "lat": 37.8652830,
  "lon": 13.4637914,
  "tags": {
    "museum": "local",
    "museum_type": "municipal",
    "name": "Mostra permanente dei Carnevali storici",
    "tourism": "museum",
    "website": "http://www.mezzojusoecotour.it/Pages/pupi.php"
  }
},
{
  "type": "way",
  "id": 24818426,
  "nodes": [
    269620745,
    947107225,
    947108623,
    947104460,
    947108710,
    269620746,
    269620747,
    269620748,
    269620745
  ],
  "tags": {
    "addr:housename": "Dipartimento di Scienze Fisiche e Astronomiche",
    "building": "yes",
    "name": "Museo di Mineralogia",
    "tourism": "museum"
  }
},
{
  "type": "way",
  "id": 81301770,
  "nodes": [
    947106686,
    947107964,
    947103928,
    947104282,
    947105932,
    947106261,
    947108417,
    947108899,
    4338228960,
    947104740,
    947104655,
    947106686
  ],
  "tags": {
    "addr:housenumber": "16",
    "addr:street": "Via Archirafi",
    "alt_name": "Museo Zoologico Doderlein",
    "building": "yes",
    "contact:email": "info@astridnatura.it",
    "contact:fax": "+39 091 23860750",
    "contact:phone": "+39 091 23891819",
    "name": "Museo di Zoologia Doderlein",
    "tourism": "museum",
    "wikidata": "Q3867607",
    "wikipedia": "it:Museo di zoologia Pietro Doderlein"
  }
},
{
  "type": "way",
  "id": 112395828,
  "nodes": [
    1277555375,
    1277555384,
    1277555299,
    1277555332,
    1277555356,
    1277555367,
    1277555376,
    1277555387,
    1277555361,
    1277555339,
    1277555347,
    1277555375
  ],
  "tags": {
    "building": "yes",
    "name": "Museo di Camporeale",
    "tourism": "museum"
  }
},
{
  "type": "way",
  "id": 143741766,
  "nodes": [
    1572949703,
    1572949729,
    1572949765,
    1572949715,
    1572949697,
    632547560,
    632547555,
    1572949703
  ],
  "tags": {
    "building": "yes",
    "name": "Museo Archeologico Regionale Antonio Salinas",
    "tourism": "museum",
    "wikidata": "Q1954237",
    "wikipedia": "it:Museo archeologico regionale Antonio Salinas"
  }
},
{
  "type": "way",
  "id": 162450143,
  "nodes": [
    1743401160,
    1743401164,
    1743401158,
    1743401163,
    4338805960,
    1743401162,
    1743401160
  ],
  "tags": {
    "addr:housenumber": "131",
    "addr:street": "Corso Tukory",
    "alt_name": "Museo Gaetano Giorgio Gemmellaro",
    "building": "yes",
    "name": "Museo di Geologia Gemmelaro",
    "official_name": "Museo di Paleontologia e Geologia Gaetano Giorgio Gemmellaro",
    "tourism": "museum",
    "wikidata": "Q1954246",
    "wikipedia": "it:Museo di paleontologia e geologia Gaetano Giorgio Gemmellaro"
  }
},
{
  "type": "way",
  "id": 400424488,
  "nodes": [
    3212909998,
    4029862641,
    620489426,
    620489427,
    4029862642,
    4029862640,
    3212909992,
    3212910100,
    3212909998
  ],
  "tags": {
    "amenity": "place_of_worship",
    "building": "chapel",
    "building:part": "yes",
    "contact:phone": "+39 091 7054879",
    "denomination": "catholic",
    "heritage": "1",
    "heritage:operator": "whc",
    "historic": "archaeological_site",
    "name": "Cappella Palatina",
    "name:en": "Palatine Chapel",
    "name:fr": "Chapelle Palatine",
    "name:ko": "팔라티노 채플",
    "ref:whc": "1487-001",
    "religion": "christian",
    "tourism": "museum",
    "website": "https://www.cappellapalatinapalermo.it/",
    "whc:criteria": "ii;iv",
    "whc:inscription_date": "2015",
    "wheelchair": "limited",
    "wikidata": "Q1034853",
    "wikipedia": "it:Cappella Palatina (Palermo)"
  }
},
{
  "type": "way",
  "id": 685468670,
  "nodes": [
    2593988300,
    2593988305,
    2593988287,
    6423737858,
    2593988333,
    2593988291,
    2593988300
  ],
  "tags": {
    "museum": "local",
    "name": "Museo etnografico siciliano Giuseppe Pitrè",
    "tourism": "museum",
    "wheelchair": "limited",
    "wikidata": "Q122476",
    "wikipedia": "it:Museo etnografico siciliano Giuseppe Pitrè"
  }
},
{
  "type": "relation",
  "id": 3279479,
  "members": [
    {
      "type": "way",
      "ref": 242654596,
      "role": "outer"
    },
    {
      "type": "way",
      "ref": 242654603,
      "role": "inner"
    }
  ],
  "tags": {
    "building": "yes",
    "name": "Museo regionale di Terrasina",
    "tourism": "museum",
    "type": "multipolygon"
  }
},
{
  "type": "node",
  "id": 1277555299,
  "lat": 37.8971877,
  "lon": 13.0961797
},
{
  "type": "node",
  "id": 1277555332,
  "lat": 37.8971877,
  "lon": 13.0961618
},
{
  "type": "node",
  "id": 1277555339,
  "lat": 37.8971887,
  "lon": 13.0959527
},
{
  "type": "node",
  "id": 1277555347,
  "lat": 37.8972311,
  "lon": 13.0959539
},
{
  "type": "node",
  "id": 1277555356,
  "lat": 37.8971623,
  "lon": 13.0961045
},
{
  "type": "node",
  "id": 1277555361,
  "lat": 37.8971142,
  "lon": 13.0959587
},
{
  "type": "node",
  "id": 1277555367,
  "lat": 37.8971142,
  "lon": 13.0961308
},
{
  "type": "node",
  "id": 1277555375,
  "lat": 37.8972527,
  "lon": 13.0959529
},
{
  "type": "node",
  "id": 1277555376,
  "lat": 37.8970887,
  "lon": 13.0960471
},
{
  "type": "node",
  "id": 1277555384,
  "lat": 37.8972650,
  "lon": 13.0961833
},
{
  "type": "node",
  "id": 1277555387,
  "lat": 37.8971302,
  "lon": 13.0960292
},
{
  "type": "node",
  "id": 2501137315,
  "lat": 38.1532184,
  "lon": 13.0798663
},
{
  "type": "node",
  "id": 2501137318,
  "lat": 38.1536084,
  "lon": 13.0792819
},
{
  "type": "node",
  "id": 2501137319,
  "lat": 38.1540537,
  "lon": 13.0797626
},
{
  "type": "node",
  "id": 2501137321,
  "lat": 38.1536637,
  "lon": 13.0803469
},
{
  "type": "node",
  "id": 2501137525,
  "lat": 38.1539028,
  "lon": 13.0796901
},
{
  "type": "node",
  "id": 2501137526,
  "lat": 38.1536790,
  "lon": 13.0794451
},
{
  "type": "node",
  "id": 2501137529,
  "lat": 38.1534283,
  "lon": 13.0798155
},
{
  "type": "node",
  "id": 2501137530,
  "lat": 38.1536520,
  "lon": 13.0800605
},
{
  "type": "node",
  "id": 2501137531,
  "lat": 38.1538182,
  "lon": 13.0795084
},
{
  "type": "node",
  "id": 5481176779,
  "lat": 38.1538152,
  "lon": 13.0801199
},
{
  "type": "node",
  "id": 620489426,
  "lat": 38.1109015,
  "lon": 13.3533335
},
{
  "type": "node",
  "id": 620489427,
  "lat": 38.1109706,
  "lon": 13.3535360
},
{
  "type": "node",
  "id": 3212909992,
  "lat": 38.1109681,
  "lon": 13.3536342
},
{
  "type": "node",
  "id": 3212909998,
  "lat": 38.1108480,
  "lon": 13.3536374
},
{
  "type": "node",
  "id": 3212910100,
  "lat": 38.1108664,
  "lon": 13.3536908
},
{
  "type": "node",
  "id": 4029862640,
  "lat": 38.1109798,
  "lon": 13.3536278
},
{
  "type": "node",
  "id": 4029862641,
  "lat": 38.1107692,
  "lon": 13.3534064
},
{
  "type": "node",
  "id": 4029862642,
  "lat": 38.1109520,
  "lon": 13.3535462
},
{
  "type": "node",
  "id": 1743401158,
  "lat": 38.1089897,
  "lon": 13.3596727
},
{
  "type": "node",
  "id": 1743401160,
  "lat": 38.1090815,
  "lon": 13.3592449
},
{
  "type": "node",
  "id": 1743401162,
  "lat": 38.1089177,
  "lon": 13.3593649
},
{
  "type": "node",
  "id": 1743401163,
  "lat": 38.1089665,
  "lon": 13.3596593
},
{
  "type": "node",
  "id": 1743401164,
  "lat": 38.1091448,
  "lon": 13.3595681
},
{
  "type": "node",
  "id": 4338805960,
  "lat": 38.1089433,
  "lon": 13.3595192
},
{
  "type": "node",
  "id": 632547555,
  "lat": 38.1206643,
  "lon": 13.3603054
},
{
  "type": "node",
  "id": 632547560,
  "lat": 38.1207586,
  "lon": 13.3607652
},
{
  "type": "node",
  "id": 1572949697,
  "lat": 38.1208084,
  "lon": 13.3610084
},
{
  "type": "node",
  "id": 1572949703,
  "lat": 38.1209182,
  "lon": 13.3602213
},
{
  "type": "node",
  "id": 1572949715,
  "lat": 38.1207033,
  "lon": 13.3610432
},
{
  "type": "node",
  "id": 1572949729,
  "lat": 38.1211347,
  "lon": 13.3612776
},
{
  "type": "node",
  "id": 1572949765,
  "lat": 38.1207731,
  "lon": 13.3613607
},
{
  "type": "node",
  "id": 269620745,
  "lat": 38.1105373,
  "lon": 13.3733261
},
{
  "type": "node",
  "id": 269620746,
  "lat": 38.1100588,
  "lon": 13.3737105
},
{
  "type": "node",
  "id": 269620747,
  "lat": 38.1099558,
  "lon": 13.3735173
},
{
  "type": "node",
  "id": 269620748,
  "lat": 38.1104362,
  "lon": 13.3731303
},
{
  "type": "node",
  "id": 947103928,
  "lat": 38.1121385,
  "lon": 13.3721793
},
{
  "type": "node",
  "id": 947104282,
  "lat": 38.1121213,
  "lon": 13.3721443
},
{
  "type": "node",
  "id": 947104460,
  "lat": 38.1102294,
  "lon": 13.3735369
},
{
  "type": "node",
  "id": 947104655,
  "lat": 38.1122039,
  "lon": 13.3717181
},
{
  "type": "node",
  "id": 947104740,
  "lat": 38.1121900,
  "lon": 13.3716898
},
{
  "type": "node",
  "id": 947105932,
  "lat": 38.1120817,
  "lon": 13.3721757
},
{
  "type": "node",
  "id": 947106261,
  "lat": 38.1119544,
  "lon": 13.3719161
},
{
  "type": "node",
  "id": 947106686,
  "lat": 38.1122854,
  "lon": 13.3716535
},
{
  "type": "node",
  "id": 947107225,
  "lat": 38.1103480,
  "lon": 13.3734779
},
{
  "type": "node",
  "id": 947107964,
  "lat": 38.1124300,
  "lon": 13.3719484
},
{
  "type": "node",
  "id": 947108417,
  "lat": 38.1120276,
  "lon": 13.3718580
},
{
  "type": "node",
  "id": 947108623,
  "lat": 38.1103340,
  "lon": 13.3734560
},
{
  "type": "node",
  "id": 947108710,
  "lat": 38.1102467,
  "lon": 13.3735643
},
{
  "type": "node",
  "id": 947108899,
  "lat": 38.1120137,
  "lon": 13.3718295
},
{
  "type": "node",
  "id": 4338228960,
  "lat": 38.1121017,
  "lon": 13.3717598
},
{
  "type": "node",
  "id": 2593988287,
  "lat": 38.1667274,
  "lon": 13.3309936
},
{
  "type": "node",
  "id": 2593988291,
  "lat": 38.1672792,
  "lon": 13.3308451
},
{
  "type": "node",
  "id": 2593988300,
  "lat": 38.1671414,
  "lon": 13.3305077
},
{
  "type": "node",
  "id": 2593988305,
  "lat": 38.1666637,
  "lon": 13.3308348
},
{
  "type": "node",
  "id": 2593988333,
  "lat": 38.1667959,
  "lon": 13.3311646
},
{
  "type": "node",
  "id": 6423737858,
  "lat": 38.1667654,
  "lon": 13.3310900
},
{
  "type": "way",
  "id": 242654596,
  "nodes": [
    2501137319,
    5481176779,
    2501137321,
    2501137315,
    2501137318,
    2501137531,
    2501137319
  ]
},
{
  "type": "way",
  "id": 242654603,
  "nodes": [
    2501137525,
    2501137530,
    2501137529,
    2501137526,
    2501137525
  ]
}

  ]
}
