{
  "version": 0.6,
  "generator": "Overpass API 0.7.55.1011 6c2efc30",
  "osm3s": {
    "timestamp_osm_base": "2020-02-14T10:39:02Z",
    "copyright": "The data included in this document is from www.openstreetmap.org. The data is made available under ODbL."
  },
  "elements": [

{
  "type": "node",
  "id": 32548136,
  "lat": 50.0349774,
  "lon": 8.6144989,
  "tags": {
    "fax": "+49 69 694390",
    "museum": "transport",
    "name": "Zeppelin-Museum",
    "opening_hours": "Fr 14:00-17:00; Sa,Su 10:00-17:00; PH 10:00-17:00",
    "operator": "Stadt Neu-Isenburg; Verein für Zeppelin-Luftschiffahrt Zeppelinheim e. V.",
    "subject": "history",
    "tourism": "museum",
    "website": "http://www.zeppelin-museum-zeppelinheim.de/",
    "wheelchair": "yes",
    "wikidata": "Q191399",
    "wikipedia": "de:Zeppelin-Museum Zeppelinheim"
  }
},
{
  "type": "node",
  "id": 94755769,
  "lat": 49.8582439,
  "lon": 8.4425962,
  "tags": {
    "name": "Heimatmuseum",
    "tourism": "museum"
  }
},
{
  "type": "node",
  "id": 130224730,
  "lat": 50.1068865,
  "lon": 8.6119543,
  "tags": {
    "museum": "railway",
    "name": "Feldbahnmuseum",
    "tourism": "museum",
    "website": "http://www.feldbahn-ffm.de",
    "wikidata": "Q1444958"
  }
},
{
  "type": "node",
  "id": 144343388,
  "lat": 50.1062431,
  "lon": 8.6808483,
  "tags": {
    "addr:city": "Frankfurt am Main",
    "addr:housenumber": "17",
    "addr:postcode": "60594",
    "addr:street": "Schaumainkai",
    "alt_name": "Museum für Angewandte Kunst",
    "contact:website": "http://www.museumangewandtekunst.de/",
    "name": "Museum Angewandte Kunst",
    "opening_hours": "Tu-Su 10:00-18:00; We 10:00-20:00",
    "short_name": "MAK",
    "toilets:wheelchair": "yes",
    "tourism": "museum",
    "wheelchair": "yes",
    "wikidata": "Q198418",
    "wikipedia": "de:Museum Angewandte Kunst (Frankfurt am Main)"
  }
},
{
  "type": "node",
  "id": 144346893,
  "lat": 50.1033327,
  "lon": 8.6738180,
  "tags": {
    "addr:city": "Frankfurt am Main",
    "addr:housenumber": "63",
    "addr:postcode": "60596",
    "addr:street": "Schaumainkai",
    "name": "Städel",
    "name:ko": "슈타델 미술관",
    "name:zh": "施泰德藝術館",
    "phone": "+49 69 6050980",
    "toilets:wheelchair": "yes",
    "tourism": "museum",
    "website": "https://www.staedelmuseum.de/de",
    "wheelchair": "yes",
    "wheelchair:description": "Behindertentoilette vorhanden, Türbreite 85 cm",
    "wikidata": "Q163804",
    "wikipedia": "de:Städelsches Kunstinstitut"
  }
},
{
  "type": "node",
  "id": 144349808,
  "lat": 50.1019899,
  "lon": 8.6718795,
  "tags": {
    "addr:city": "Frankfurt am Main",
    "addr:housenumber": "71",
    "addr:postcode": "60596",
    "addr:street": "Schaumainkai",
    "name": "Liebieghaus",
    "name:zh": "雕塑博物館",
    "toilets:wheelchair": "no",
    "tourism": "museum",
    "wheelchair": "no",
    "wikidata": "Q1823966"
  }
},
{
  "type": "node",
  "id": 221726317,
  "lat": 49.8608334,
  "lon": 8.5542572,
  "tags": {
    "name": "Museum Griesheim - Schaufenster",
    "tourism": "museum",
    "wheelchair": "no"
  }
},
{
  "type": "node",
  "id": 221726323,
  "lat": 49.8607224,
  "lon": 8.5538702,
  "tags": {
    "name": "Museum Griesheim - Scheune",
    "tourism": "museum"
  }
},
{
  "type": "node",
  "id": 253900180,
  "lat": 49.8354204,
  "lon": 8.5003317,
  "tags": {
    "created_by": "Potlatch 0.8",
    "name": "Büchnerhaus",
    "toilets:wheelchair": "no",
    "tourism": "museum",
    "wheelchair": "no",
    "wikidata": "Q1020395"
  }
},
{
  "type": "node",
  "id": 255893339,
  "lat": 49.8734594,
  "lon": 8.6556192,
  "tags": {
    "addr:city": "Darmstadt",
    "addr:housenumber": "15",
    "addr:postcode": "64283",
    "addr:street": "Marktplatz",
    "contact:phone": "+49 6151 24035",
    "contact:website": "http://www.schlossmuseum-darmstadt.de",
    "name": "Schlossmuseum",
    "opening_hours": "Fr-Su 10:00-17:00",
    "tourism": "museum",
    "website": "http://www.schlossmuseum-darmstadt.de",
    "wheelchair": "yes",
    "wheelchair:description": "Entry on the left side of the building, automatic doors",
    "wikidata": "Q1232004",
    "wikipedia": "de:Schlossmuseum Darmstadt"
  }
},
{
  "type": "node",
  "id": 256551879,
  "lat": 50.1547461,
  "lon": 8.1854281,
  "tags": {
    "name": "Museum im Wehener Schloss",
    "tourism": "museum",
    "wheelchair": "no",
    "wikidata": "Q76634227",
    "wikipedia": "de:Wehen (Taunusstein)#Wehener Schloss"
  }
},
{
  "type": "node",
  "id": 263686327,
  "lat": 49.9990944,
  "lon": 8.2645851,
  "tags": {
    "addr:housenumber": "2",
    "addr:postcode": "55116",
    "addr:street": "Neue Universitätsstraße",
    "image": "https://commons.wikimedia.org/wiki/File:Proviantamt_Mainz.jpg",
    "name": "Fastnachtsmuseum",
    "opening_hours": "Tu-Su 11:00-17:00",
    "phone": "+49 6131 1444071",
    "tourism": "museum",
    "website": "http://www.mainzer-fastnachtsmuseum.de",
    "wheelchair": "no",
    "wikidata": "Q1885723",
    "wikipedia": "de:Mainzer Fastnachtsmuseum"
  }
},
{
  "type": "node",
  "id": 263985409,
  "lat": 49.9923368,
  "lon": 8.2743081,
  "tags": {
    "addr:city": "Mainz",
    "addr:country": "DE",
    "addr:housenumber": "Bau D",
    "addr:postcode": "55131",
    "addr:street": "Zitadelle",
    "name": "Stadthistorisches Museum",
    "opening_hours": "Fr 14:00-17:00; Sa,Su 11:00-17:00",
    "toilets:wheelchair": "yes",
    "tourism": "museum",
    "website": "http://www.stadtmuseum-mainz.de",
    "wheelchair": "yes",
    "wikidata": "Q3329673"
  }
},
{
  "type": "node",
  "id": 264097946,
  "lat": 49.9939325,
  "lon": 8.2800386,
  "tags": {
    "addr:city": "Mainz",
    "addr:country": "DE",
    "addr:housenumber": "2b",
    "addr:postcode": "55116",
    "addr:street": "Neutorstraße",
    "contact:website": "http://web.rgzm.de/museen/museum-fuer-antike-schiffahrt-mainz/",
    "fee": "no",
    "lastcheck": "2016-12-19",
    "name": "Museum für Antike Schiffahrt",
    "opening_hours": "Tu-Su 10:00-18:00",
    "tourism": "museum",
    "wheelchair": "yes",
    "wikidata": "Q1954606"
  }
},
{
  "type": "node",
  "id": 264220528,
  "lat": 49.9985979,
  "lon": 8.2746578,
  "tags": {
    "addr:city": "Mainz",
    "addr:housenumber": "3",
    "addr:postcode": "55116",
    "addr:street": "Domstraße",
    "email": "info@dommuseum-mainz.de",
    "fax": "+49 6131 253-349",
    "image": "https://commons.wikimedia.org/wiki/File:Kreuzgang_Mainzer_Dom.jpg",
    "museum": "art",
    "name": "Bischöfliches Dom- und Diözesanmuseum Mainz",
    "opening_hours": "Tu-Fr 10:00-17:00; Sa-Su 11:00-18:00",
    "operator": "Bistum Mainz",
    "phone": "+49 6131 253-344",
    "tourism": "museum",
    "website": "http://www.dommuseum-mainz.de/",
    "wheelchair": "limited",
    "wikidata": "Q1236504",
    "wikipedia": "de:Dom- und Diözesanmuseum (Mainz)"
  }
},
{
  "type": "node",
  "id": 264527030,
  "lat": 49.9997132,
  "lon": 8.2753543,
  "tags": {
    "addr:city": "Mainz",
    "addr:housenumber": "5",
    "addr:postcode": "55116",
    "addr:street": "Liebfrauenplatz",
    "image": "http://commons.wikimedia.org/wiki/File:Zum%20R%C3%B6mischen%20Kaiser%20Mainz.jpg",
    "name": "Gutenberg-Museum",
    "start_date": "1900",
    "tourism": "museum",
    "website": "http://www.gutenberg-museum.de",
    "wheelchair": "yes",
    "wikidata": "Q474841",
    "wikipedia": "de:Gutenberg-Museum"
  }
},
{
  "type": "node",
  "id": 266057268,
  "lat": 50.2982185,
  "lon": 8.2716321,
  "tags": {
    "name": "Heimatmuseum",
    "tourism": "museum"
  }
},
{
  "type": "node",
  "id": 266262710,
  "lat": 49.9455488,
  "lon": 8.4559071,
  "tags": {
    "name": "Heimatmuseum",
    "tourism": "museum",
    "website": "https://www.heimatmuseum-nauheim.de/",
    "wheelchair": "no",
    "wikidata": "Q76634095"
  }
},
{
  "type": "node",
  "id": 268714032,
  "lat": 50.1437188,
  "lon": 8.5684429,
  "tags": {
    "addr:city": "Eschborn",
    "addr:country": "DE",
    "addr:housenumber": "1",
    "addr:postcode": "65760",
    "addr:street": "Eschenplatz",
    "name": "Heimatmuseum Eschborn",
    "tourism": "museum"
  }
},
{
  "type": "node",
  "id": 270274191,
  "lat": 50.0443625,
  "lon": 8.2418664,
  "tags": {
    "addr:city": "Wiesbaden",
    "addr:country": "DE",
    "addr:housenumber": "4",
    "addr:postcode": "65203",
    "addr:street": "Rudolf-Dyckerhoff-Straße",
    "name": "Heimatmuseum",
    "opening_hours": "We,Th 16:00-19:00; Tu 10:00-12:00",
    "tourism": "museum",
    "website": "http://www.wiesbaden.de/kultur/museen/stadtteilmuseen/heimatmuseum-biebrich_.php",
    "wheelchair": "no"
  }
},
{
  "type": "node",
  "id": 281587923,
  "lat": 50.1175172,
  "lon": 8.6521803,
  "tags": {
    "addr:city": "Frankfurt am Main",
    "addr:housenumber": "25",
    "addr:postcode": "60325",
    "addr:street": "Senckenberganlage",
    "fax": "+49 69 746238",
    "fee": "yes",
    "name": "Senckenberg-Museum",
    "opening_hours": "Mo-Tu 09:00-17:00; We 09:00-20:00; Th-Fr 09:00-17:00; Sa-Su 09:00-18:00",
    "phone": "+49 69 75420",
    "toilets:wheelchair": "yes",
    "tourism": "museum",
    "website": "http://www.senckenberg.de/root/index.php?page_id=5247&PHPSESSID=pnfki6ktu2fhuhd6fees8goba0",
    "wheelchair": "yes",
    "wheelchair:description": "Etwa 90 Prozent der Ausstellung mit Rollstuhl oder Gehhilfe erreichbar. Die Bereiche \"Fossilien der Grube Messel\", \"Edmuntosaurus und Flugsaurier\", \"Evolution des Menschen\" und Galerie der Ausstellung \"Meeressaurier und Fische\" sind nicht barrierefrei.",
    "wikidata": "Q706441",
    "wikipedia": "de:Senckenberg Naturmuseum"
  }
},
{
  "type": "node",
  "id": 290861282,
  "lat": 49.9637333,
  "lon": 8.3450248,
  "tags": {
    "name": "Heimatmuseum Ginsheim",
    "tourism": "museum",
    "wheelchair": "no"
  }
},
{
  "type": "node",
  "id": 292961306,
  "lat": 49.9286479,
  "lon": 8.3028080,
  "tags": {
    "created_by": "Potlatch 0.10b",
    "name": "Heimatmuseum",
    "tourism": "museum",
    "wheelchair": "limited"
  }
},
{
  "type": "node",
  "id": 292961415,
  "lat": 49.9282169,
  "lon": 8.3146698,
  "tags": {
    "created_by": "Potlatch 0.10b",
    "name": "Deutsches Pumpenmuseum",
    "tourism": "museum",
    "wheelchair": "no"
  }
},
{
  "type": "node",
  "id": 300928576,
  "lat": 50.1056691,
  "lon": 8.6792100,
  "tags": {
    "name": "Weltkulturen Museum",
    "name:zh": "世界文化博物館",
    "tourism": "museum",
    "website": "https://www.weltkulturenmuseum.de/",
    "wheelchair": "no",
    "wikidata": "Q1954571"
  }
},
{
  "type": "node",
  "id": 349174250,
  "lat": 49.8983572,
  "lon": 7.9663378,
  "tags": {
    "name": "Weindorfmuseum",
    "tourism": "museum"
  }
},
{
  "type": "node",
  "id": 358022265,
  "lat": 49.9003474,
  "lon": 8.6977608,
  "tags": {
    "addr:city": "Darmstadt",
    "addr:housenumber": "261",
    "addr:postcode": "64289",
    "addr:street": "Kranichsteiner Straße",
    "email": "anfrage@jagdschloss-kranichstein.de",
    "internet_access": "wlan",
    "internet_access:fee": "no",
    "level": "0,_1",
    "name": "MUSEUM Jagdschloss Kranichstein",
    "opening_hours": "We-Su 13:00-17:00",
    "operator": "Stiftung Hessischer Jägerhof",
    "operator:type": "private_non_profit",
    "payment:cash": "yes",
    "payment:debit_cards": "yes",
    "phone": "+49 6151 971118-88",
    "tourism": "museum",
    "website": "https://jagdschloss-kranichstein.de/museen/museum/",
    "wheelchair": "no",
    "wikidata": "Q76633673"
  }
},
{
  "type": "node",
  "id": 358022275,
  "lat": 49.8980485,
  "lon": 8.6952480,
  "tags": {
    "addr:city": "Darmstadt",
    "addr:country": "DE",
    "addr:housenumber": "253",
    "addr:postcode": "64289",
    "addr:street": "Kranichsteiner Straße",
    "description": "Im bioversum Jagdschloss Kranichstein dreht sich alles um das Ökosystem Wald. In der Mitmachaustellung warten In- und Outdoor auf die kleinen und großen Besucher interaktive Erlebnisstationen, Hörspiele und vieles mehr.",
    "email": "anfrage@jagdschloss-kranichstein.de",
    "internet_access": "wlan",
    "internet_access:fee": "no",
    "name": "bioversum Jagdschloss Kranichstein",
    "opening_hours": "Tu-Fr 11:00-17:00; Sa-So 10:00-17:00",
    "operator": "Stiftung Hessischer Jägerhof",
    "operator:type": "private_non_profit",
    "payment:cash": "yes",
    "payment:debit_cards": "yes",
    "phone": "+49 6151 971118-88",
    "tourism": "museum",
    "website": "https://jagdschloss-kranichstein.de/",
    "wheelchair": "yes"
  }
},
{
  "type": "node",
  "id": 373765262,
  "lat": 50.0965518,
  "lon": 8.4909038,
  "tags": {
    "name": "Heimatmuseum",
    "tourism": "museum",
    "website": "http://www.zhgv.de",
    "wheelchair": "yes"
  }
},
{
  "type": "node",
  "id": 385171325,
  "lat": 50.1050639,
  "lon": 8.6776864,
  "tags": {
    "addr:city": "Frankfurt am Main",
    "addr:housenumber": "41",
    "addr:postcode": "60596",
    "addr:street": "Schaumainkai",
    "name": "Deutsches Filmmuseum",
    "name:zh": "德國電影博物館",
    "opening_hours": "Tu 10:00-18:00;We 10:00-20:00;Th-Su 10:00-18:00",
    "phone": "+49 69 961220220",
    "toilets:wheelchair": "yes",
    "tourism": "museum",
    "website": "https://deutsches-filminstitut.de/filmmuseum/",
    "wheelchair": "yes",
    "wheelchair:description": "Türbreite Toilette 86 cm, evtl nicht behindertengerecht ausgestattet.",
    "wikidata": "Q1205629"
  }
},
{
  "type": "node",
  "id": 385171326,
  "lat": 50.1049750,
  "lon": 8.6773143,
  "tags": {
    "addr:city": "Frankfurt am Main",
    "addr:housenumber": "43",
    "addr:postcode": "60596",
    "addr:street": "Schaumainkai",
    "email": "info.dam@stadt-frankfurt.de",
    "fax": "+49 69 21237721",
    "name": "Deutsches Architekturmuseum",
    "name:zh": "德國建築博物館",
    "opening_hours": "Tu, Th-Su 11:00-18:00; We 11:00-20:00",
    "phone": "+49 69 21238844",
    "ref:isil": "DE-MUS-241810",
    "short_name": "DAM",
    "toilets:wheelchair": "yes",
    "tourism": "museum",
    "website": "http://www.dam-online.de/",
    "wheelchair": "yes",
    "wheelchair:description": "Türbreite Toilette 90 cm, evtl nicht behindertengerecht ausgestattet nach DIN-Norm.",
    "wikidata": "Q885179",
    "wikipedia": "de:Deutsches Architekturmuseum"
  }
},
{
  "type": "node",
  "id": 385993933,
  "lat": 49.8579658,
  "lon": 8.6478657,
  "tags": {
    "addr:city": "Darmstadt",
    "addr:country": "DE",
    "addr:housenumber": "88d",
    "addr:postcode": "64285",
    "addr:street": "Bessunger Straße",
    "amenity": "arts_centre",
    "name": "Jazzinstitut Darmstadt",
    "source": "yahoo img",
    "tourism": "museum",
    "wheelchair": "no",
    "wikidata": "Q1684534",
    "wikipedia": "de:Jazzinstitut Darmstadt"
  }
},
{
  "type": "node",
  "id": 441175599,
  "lat": 49.9800675,
  "lon": 7.9297903,
  "tags": {
    "name": "Spielzeug- und Eisenbahnmuseum",
    "name:de": "Spielzeug- und Eisenbahnmuseum",
    "name:en": "Toy Museum",
    "opening_hours": "Mo-Fr 10:00-18:00",
    "tourism": "museum",
    "wikidata": "Q76634176"
  }
},
{
  "type": "node",
  "id": 442334058,
  "lat": 49.7494447,
  "lon": 8.4058527,
  "tags": {
    "name": "Heimatmuseum",
    "tourism": "museum"
  }
},
{
  "type": "node",
  "id": 445423154,
  "lat": 49.9892704,
  "lon": 8.6798867,
  "tags": {
    "name": "Altes Rathaus",
    "tourism": "museum",
    "wheelchair": "yes"
  }
},
{
  "type": "node",
  "id": 454084224,
  "lat": 49.7806494,
  "lon": 8.3745435,
  "tags": {
    "name": "Storchenschulhaus",
    "opening_hours": "Su 14:00-18:00",
    "tourism": "museum",
    "website": "http://www.museum-vg-eich.de/"
  }
},
{
  "type": "node",
  "id": 454167509,
  "lat": 49.9645084,
  "lon": 8.4538158,
  "tags": {
    "tourism": "museum"
  }
},
{
  "type": "node",
  "id": 454217337,
  "lat": 49.9993211,
  "lon": 8.4196842,
  "tags": {
    "charge": "Eur 1,50",
    "description": "Ausstellung zur industriellen Entwicklung der Firma Opel und der Stadt Rüsselsheim",
    "fee": "yes",
    "name": "Stadtmuseum",
    "opening_hours": "Tu-Fr 09:00-13:00, 14:00-17:00; Sa,Su 10:00-17:00",
    "tourism": "museum",
    "wheelchair": "yes"
  }
},
{
  "type": "node",
  "id": 483286599,
  "lat": 49.9749290,
  "lon": 8.2527644,
  "tags": {
    "addr:city": "Mainz",
    "addr:housenumber": "1",
    "addr:postcode": "55128",
    "addr:street": "Alte Ziegelei",
    "fee": "no",
    "name": "Ziegelmuseum Alte Ziegelei",
    "opening_hours": "Apr-Oct Su 10:00-13:00",
    "tourism": "museum",
    "website": "http://www.alteziegelei-mainz.de/Ziegelmuseum.html"
  }
},
{
  "type": "node",
  "id": 526156996,
  "lat": 49.9545826,
  "lon": 8.0166629,
  "tags": {
    "addr:city": "Gau-Algesheim",
    "addr:housenumber": "12",
    "addr:postcode": "55435",
    "addr:street": "Schlossgasse",
    "level": "0",
    "name": "Rheinhessisches Fahrradmuseum Gau-Algesheim",
    "opening_hours": "easter-Oct Su[2]: Su,PH 11:00-17:00 || \"nach Vereinbarung\"",
    "tourism": "museum",
    "website": "http://www.fahrradmuseum-rheinhessen.de/",
    "wheelchair": "yes",
    "wikidata": "Q1459154",
    "wikipedia": "de:Rheinhessisches Fahrradmuseum"
  }
},
{
  "type": "node",
  "id": 539073156,
  "lat": 50.0250059,
  "lon": 8.1230325,
  "tags": {
    "addr:postcode": "65343",
    "email": "kurfuerstliche-burg@eltville.de",
    "historic": "castle",
    "name": "Kurfürstliche Burg Eltville",
    "seamark:landmark:category": "tower",
    "seamark:landmark:conspicuity": "conspicuous",
    "seamark:landmark:name": "Burg Crass",
    "seamark:type": "landmark",
    "toilets:wheelchair": "no",
    "tourism": "museum",
    "website": "http://www.eltville.de/unsere_stadt/kurfuerstliche_burg.html",
    "wheelchair": "limited",
    "wikidata": "Q1011604",
    "wikipedia": "de:Burg Eltville"
  }
},
{
  "type": "node",
  "id": 543815668,
  "lat": 49.9974545,
  "lon": 8.2630791,
  "tags": {
    "name": "Kupferberg-Museum",
    "opening_hours": "\"nach Anmeldung\"",
    "tourism": "museum",
    "wheelchair": "limited"
  }
},
{
  "type": "node",
  "id": 601050306,
  "lat": 49.9890228,
  "lon": 8.3552569,
  "tags": {
    "name": "Altes Rathaus / Heimatmuseum",
    "tourism": "museum",
    "wheelchair": "no"
  }
},
{
  "type": "node",
  "id": 641125606,
  "lat": 49.9799035,
  "lon": 7.9222966,
  "tags": {
    "addr:city": "Rüdesheim am Rhein",
    "addr:country": "DE",
    "addr:housenumber": "49-51",
    "addr:postcode": "65385",
    "addr:street": "Oberstraße",
    "name": "Mittelalterliches Foltermuseum",
    "name:de": "Mittelalterliches Foltermuseum",
    "name:en": "Medial Torture Museum",
    "name:fr": "Musée de torture medieval",
    "tourism": "museum",
    "website": "http://www.foltermuseum.com",
    "wikidata": "Q12130582"
  }
},
{
  "type": "node",
  "id": 694865930,
  "lat": 49.8457054,
  "lon": 7.8468613,
  "tags": {
    "name": "Römerhalle",
    "tourism": "museum",
    "wheelchair": "limited",
    "wikidata": "Q2179565",
    "wikipedia": "de:Römerhalle (Bad Kreuznach)"
  }
},
{
  "type": "node",
  "id": 694865931,
  "lat": 49.8462419,
  "lon": 7.8473481,
  "tags": {
    "name": "PuK Museum für PuppentheaterKultur",
    "operator": "Stadt Bad Kreuznach",
    "phone": "+49 671 8459185",
    "toilets:wheelchair": "yes",
    "tourism": "museum",
    "wheelchair": "yes",
    "wikidata": "Q1954669",
    "wikipedia": "de:Museum für Puppentheaterkultur"
  }
},
{
  "type": "node",
  "id": 715551908,
  "lat": 50.1110056,
  "lon": 8.6837013,
  "tags": {
    "addr:city": "Frankfurt am Main",
    "addr:housenumber": "2-4",
    "addr:postcode": "60311",
    "addr:street": "Hinter dem Lämmchen",
    "alt_name": "Heinrich-Hoffmann-Museum",
    "email": "Info@struwwelpeter-museum.de",
    "fax": "+49 69 9494767499",
    "loc_name": "Struwwelpetermuseum",
    "name": "Struwwelpeter-Museum",
    "opening_hours": "Tu-Su 10:00-18:00",
    "phone": "+49 69 747969",
    "tourism": "museum",
    "website": "https://www.struwwelpeter-museum.de/",
    "wheelchair": "yes"
  }
},
{
  "type": "node",
  "id": 770100783,
  "lat": 49.7057430,
  "lon": 8.1664663,
  "tags": {
    "name": "Dinotherium Museum",
    "tourism": "museum",
    "wikidata": "Q1226717",
    "wikipedia:de": "Dinotherium-Museum"
  }
},
{
  "type": "node",
  "id": 820929201,
  "lat": 49.8721881,
  "lon": 8.6638716,
  "tags": {
    "name": "Darmstädter Papiertheatersammlung",
    "opening_hours": "Mo 15:00-17:00; Tu 09:30-11:30; Th 15:00-17:00",
    "tourism": "museum"
  }
},
{
  "type": "node",
  "id": 830066740,
  "lat": 50.0546487,
  "lon": 8.3028609,
  "tags": {
    "name": "Heimatmuseum Erbenheim",
    "tourism": "museum"
  }
},
{
  "type": "node",
  "id": 843464889,
  "lat": 50.1102249,
  "lon": 8.6595096,
  "tags": {
    "addr:city": "Frankfurt am Main",
    "addr:country": "DE",
    "addr:street": "Friedrich-Ebert-Anlage",
    "name": "Art Foyer, DZ BANK [Kunstsammlung]",
    "tourism": "museum",
    "wheelchair": "limited"
  }
},
{
  "type": "node",
  "id": 846636296,
  "lat": 49.9986666,
  "lon": 8.2073933,
  "tags": {
    "fax": "+49 6131 9719386",
    "name": "Museum Gonsenheim",
    "opening_hours": "Su 10:00-12:30",
    "phone": "+49 6131 41592",
    "tourism": "museum",
    "website": "http://www.hgg-gonsenheim.de/index.php?id=3763"
  }
},
{
  "type": "node",
  "id": 888548882,
  "lat": 50.1810909,
  "lon": 8.5066643,
  "tags": {
    "ele": "400",
    "name": "Burg Kronberg",
    "tourism": "museum",
    "wheelchair": "no",
    "wikidata": "Q895788",
    "wikipedia": "de:Burg Kronberg"
  }
},
{
  "type": "node",
  "id": 895820693,
  "lat": 50.0168064,
  "lon": 8.4524239,
  "tags": {
    "name": "Heimatmuseum",
    "tourism": "museum",
    "wikidata": "Q76634149"
  }
},
{
  "type": "node",
  "id": 1080527318,
  "lat": 50.0662329,
  "lon": 8.6711180,
  "tags": {
    "email": "stadtwaldhaus@stadt-frankfurt.de",
    "fax": "+49 69 68612969",
    "information": "office",
    "name": "Informationszentrum Stadtwaldhaus / Fasanerie",
    "opening_hours": "Mar-Oct Mo-Th 09:00-16:00;Sa 12:00-18:00;Su 10:00-18:00;Nov-Feb Mo-Th 09:00-16:00;Sa 12:00-16:00;Su 10:00-16:00",
    "phone": "+49 69 683239",
    "tourism": "museum",
    "website": "https://stadtwaldhaus-frankfurt.de",
    "wheelchair": "limited"
  }
},
{
  "type": "node",
  "id": 1172604081,
  "lat": 49.8762514,
  "lon": 8.1477971,
  "tags": {
    "name": "Heimatmuseum Saulheim",
    "tourism": "museum",
    "wheelchair": "no"
  }
},
{
  "type": "node",
  "id": 1249757083,
  "lat": 49.9624979,
  "lon": 8.3122322,
  "tags": {
    "name": "Heimatmuseum in der Ortsverwaltung",
    "tourism": "museum"
  }
},
{
  "type": "node",
  "id": 1330728061,
  "lat": 50.0765607,
  "lon": 8.2033948,
  "tags": {
    "name": "Aartalbahnmuseum",
    "railway": "museum",
    "tourism": "museum",
    "website": "http://www.aartalbahn.de/"
  }
},
{
  "type": "node",
  "id": 1419162683,
  "lat": 50.0112217,
  "lon": 7.8486636,
  "tags": {
    "name": "Heimatmuseum",
    "tourism": "museum"
  }
},
{
  "type": "node",
  "id": 1565268094,
  "lat": 50.0655205,
  "lon": 8.1806907,
  "tags": {
    "fee": "yes",
    "name": "Erfahrungsfeld zur Entfaltung der Sinne und des Denkens",
    "tourism": "museum",
    "website": "https://www.schlossfreudenberg.de/",
    "wheelchair": "no"
  }
},
{
  "type": "node",
  "id": 1591630307,
  "lat": 50.1154292,
  "lon": 8.6897100,
  "tags": {
    "addr:city": "Frankfurt am Main",
    "addr:country": "DE",
    "addr:housenumber": "5",
    "addr:postcode": "60313",
    "addr:street": "Klapperfeldstraße",
    "contact:website": "http://www.klapperfeld.de/",
    "name": "Ehemaliges Polizeigefängnis Klapperfeld",
    "opening_hours": "Sa 15:00-18:00",
    "operator": "Faites votre jeu!",
    "phone": "+491773982718",
    "tourism": "museum",
    "website": "http://www.klapperfeld.de/de/ausstellung.html",
    "wheelchair": "limited"
  }
},
{
  "type": "node",
  "id": 1605537983,
  "lat": 50.1154243,
  "lon": 8.6478270,
  "tags": {
    "name": "ExperiMINTa",
    "operator": "Förderverein ExperiMINTa Frankfurt am Main e.V.",
    "toilets:wheelchair": "yes",
    "tourism": "museum",
    "wheelchair": "limited",
    "wikidata": "Q1384457"
  }
},
{
  "type": "node",
  "id": 1658987384,
  "lat": 49.8749171,
  "lon": 8.3366840,
  "tags": {
    "lastcheck": "2016-12-19",
    "name": "Paläontologisches Museum",
    "opening_hours": "Su[3] 11:00-16:00",
    "phone": "+49 6133 58312",
    "tourism": "museum",
    "website": "http://www.museum-nierstein.de/",
    "wheelchair": "no"
  }
},
{
  "type": "node",
  "id": 1660439802,
  "lat": 50.1515197,
  "lon": 8.6309220,
  "tags": {
    "name": "Ernst-May-Haus",
    "tourism": "museum",
    "wheelchair": "no"
  }
},
{
  "type": "node",
  "id": 1667883672,
  "lat": 49.9393105,
  "lon": 8.7414212,
  "tags": {
    "name": "Fossilien- und Heimatmuseum Messel",
    "opening_hours": "Apr-Oct: Mo-Su 11:00-17:00; Nov-Mar: Sa,Su,PH 11:00-17:00",
    "tourism": "museum",
    "wheelchair": "no",
    "wikidata": "Q1439432",
    "wikipedia": "de:Fossilien- und Heimatmuseum Messel"
  }
},
{
  "type": "node",
  "id": 1738608438,
  "lat": 50.2342283,
  "lon": 8.5748118,
  "tags": {
    "name": "Stadthistorisches Museum",
    "opening_hours": "Tu-Sa 14:00-17:00; Su 10:00-18:00",
    "tourism": "museum",
    "wheelchair": "yes"
  }
},
{
  "type": "node",
  "id": 1752719166,
  "lat": 50.1000028,
  "lon": 8.5656355,
  "tags": {
    "name": "Heimatmuseum Nied",
    "tourism": "museum"
  }
},
{
  "type": "node",
  "id": 1758295679,
  "lat": 50.0062825,
  "lon": 8.2818926,
  "tags": {
    "addr:city": "Mainz-Kastel",
    "addr:postcode": "55252",
    "addr:street": "Rheinufer",
    "email": "info@museum-castellum.de",
    "fee": "no",
    "name": "Museum Castellum",
    "opening_hours": "Su 10:30-12:30",
    "operator": "Gesellschaft für Heimatgeschichte Kastel e.V.",
    "tourism": "museum",
    "website": "https://museum-castellum.de/",
    "wikidata": "Q64667856"
  }
},
{
  "type": "node",
  "id": 1825447201,
  "lat": 49.7805281,
  "lon": 8.4643178,
  "tags": {
    "addr:city": "Biebesheim",
    "addr:country": "DE",
    "addr:housenumber": "44",
    "addr:postcode": "64584",
    "addr:street": "Rheinstraße",
    "contact:phone": "+49 6258 81599",
    "fee": "no",
    "name": "Heimatmuseum",
    "opening_hours": "Su 10:00-12:00",
    "tourism": "museum",
    "wheelchair": "no",
    "wikidata": "Q76633613"
  }
},
{
  "type": "node",
  "id": 1851762708,
  "lat": 50.1101269,
  "lon": 8.6852614,
  "tags": {
    "addr:city": "Frankfurt am Main",
    "addr:housenumber": "17",
    "addr:postcode": "60311",
    "addr:street": "Weckmarkt",
    "alt_name": "Museum für Komische Kunst",
    "name": "Caricatura",
    "opening_hours": "Tu-Su 11:00-18:00; We 11:00-21:00",
    "phone": "+49 69 21230161",
    "toilets:wheelchair": "yes",
    "tourism": "museum",
    "website": "http://www.caricatura-museum.de/",
    "wheelchair": "yes",
    "wheelchair:description": "Toilettentür 90 cm breit, Toilette evtl nicht behindertengerecht ausgestattet (Haltegriffe etc).",
    "wikidata": "Q1525564",
    "wikipedia": "de:Museum für Komische Kunst"
  }
},
{
  "type": "node",
  "id": 1851804853,
  "lat": 50.1107812,
  "lon": 8.6829922,
  "tags": {
    "name": "Frankfurter Kunstverein",
    "tourism": "museum",
    "wheelchair": "yes",
    "wikidata": "Q1444994",
    "wikipedia:de": "Frankfurter Kunstverein"
  }
},
{
  "type": "node",
  "id": 1853549297,
  "lat": 50.1123357,
  "lon": 8.6885584,
  "tags": {
    "name": "Museum Judengasse",
    "toilets:wheelchair": "no",
    "tourism": "museum",
    "wheelchair": "limited",
    "wikidata": "Q21251780"
  }
},
{
  "type": "node",
  "id": 2008703806,
  "lat": 50.0864889,
  "lon": 8.5815123,
  "tags": {
    "fee": "no",
    "name": "Heimatmuseum Schwanheim",
    "tourism": "museum"
  }
},
{
  "type": "node",
  "id": 2128975839,
  "lat": 50.0780592,
  "lon": 8.2320795,
  "tags": {
    "addr:city": "Wiesbaden",
    "addr:housenumber": "5",
    "addr:postcode": "65185",
    "addr:street": "Wörthstraße",
    "name": "Frauen Museum Wiesbaden",
    "phone": "+49 611 3081763",
    "toilets:wheelchair": "no",
    "tourism": "museum",
    "website": "https://www.frauenmuseum-wiesbaden.de/",
    "wheelchair": "limited",
    "wikidata": "Q76634302"
  }
},
{
  "type": "node",
  "id": 2140149043,
  "lat": 50.0110275,
  "lon": 8.3457396,
  "tags": {
    "description": "Kunst des 20. Jahrhunderts",
    "name": "Hochheimer Kunstsammlung",
    "tourism": "museum"
  }
},
{
  "type": "node",
  "id": 2153585456,
  "lat": 50.1112851,
  "lon": 8.5305544,
  "tags": {
    "name": "Heimatmuseum Unterliederbach",
    "tourism": "museum"
  }
},
{
  "type": "node",
  "id": 2313585888,
  "lat": 50.1728438,
  "lon": 8.5285153,
  "tags": {
    "name": "Braun-Sammlung",
    "source": "www.braunsammlung.info",
    "tourism": "museum",
    "wheelchair": "yes"
  }
},
{
  "type": "node",
  "id": 2419028126,
  "lat": 49.9154500,
  "lon": 8.3416712,
  "tags": {
    "addr:postcode": "55299",
    "name": "Ortsmuseum Nackenheim",
    "tourism": "museum"
  }
},
{
  "type": "node",
  "id": 2425823378,
  "lat": 49.8496801,
  "lon": 8.3537313,
  "tags": {
    "email": "kontakt@dwb-museum.de",
    "fax": "+49 6133 70727",
    "name": "Deutsches Weinbaumuseum",
    "opening_hours": "\"1.April-31.October: Tu-Fr 14-17; Sa+Su+Holiday 10-17\"",
    "phone": "+49 6133 2544",
    "tourism": "museum",
    "website": "http://www.dwm-content.de/",
    "wheelchair": "no",
    "wikidata": "Q1206096",
    "wikipedia": "de:Deutsches Weinbaumuseum"
  }
},
{
  "type": "node",
  "id": 2448228880,
  "lat": 50.0120554,
  "lon": 8.2623855,
  "tags": {
    "addr:city": "Mainz",
    "addr:country": "DE",
    "addr:housenumber": "3-5",
    "addr:postcode": "55118",
    "addr:street": "Am Zollhafen",
    "amenity": "arts_centre",
    "fee": "yes",
    "lastcheck": "2016-12-19",
    "name": "Kunsthalle Mainz",
    "opening_hours": "Tu-Fr 10:00-18:00; We 10:00-21:00; Sa,Su 11:00-18:00",
    "operator": "Stiftung Kunsthalle Mainz",
    "phone": "+49 6131 126936",
    "tourism": "museum",
    "website": "http://www.kunsthalle-mainz.de",
    "wheelchair": "yes",
    "wikidata": "Q1236023",
    "wikipedia": "de:Kunsthalle Mainz"
  }
},
{
  "type": "node",
  "id": 2547104680,
  "lat": 50.1096033,
  "lon": 8.6824430,
  "tags": {
    "addr:city": "Frankfurt am Main",
    "addr:housenumber": "2",
    "addr:postcode": "60311",
    "addr:street": "Fahrtor",
    "entrance": "yes",
    "fee": "yes",
    "name": "Historisches Museum Frankfurt",
    "name:en": "Historical Museum Frankfurt",
    "name:ko": "프랑크푸르트 역사 박물관",
    "name:zh": "歷史博物館",
    "opening_hours": "Tu-Su 10:00-17:00; We 10:00-21:00",
    "toilets:wheelchair": "yes",
    "tourism": "museum",
    "website": "http://www.historisches-museum.frankfurt.de",
    "wheelchair": "yes",
    "wikidata": "Q198347",
    "wikipedia:de": "Historisches Museum Frankfurt"
  }
},
{
  "type": "node",
  "id": 2628704919,
  "lat": 49.8764481,
  "lon": 8.6681879,
  "tags": {
    "name": "Museum Künstlerkolonie",
    "tourism": "museum",
    "website": "https://www.mathildenhoehe.eu/",
    "wheelchair": "limited",
    "wikidata": "Q1954458",
    "wikipedia": "de:Museum Künstlerkolonie Darmstadt"
  }
},
{
  "type": "node",
  "id": 2671107504,
  "lat": 50.1053632,
  "lon": 8.6816492,
  "tags": {
    "addr:city": "Frankfurt am Main",
    "addr:housenumber": "19",
    "addr:postcode": "60594",
    "addr:street": "Metzlerstraße",
    "loc_name": "Bibelmuseum",
    "name": "Bibelhaus Erlebnis Museum",
    "opening_hours": "Tu-Sa 10:00-17:00; Su 14:00-18:00",
    "operator": "Frankfurter Bibelgesellschaft",
    "phone": "+49 69 66426525",
    "toilets:wheelchair": "yes",
    "tourism": "museum",
    "website": "http://www.bibelhaus-frankfurt.de",
    "wheelchair": "limited",
    "wheelchair:description": "Obergeschoss nicht barrierefrei erreichbar.",
    "wikidata": "Q76633730"
  }
},
{
  "type": "node",
  "id": 2934038750,
  "lat": 50.1832226,
  "lon": 8.4632736,
  "tags": {
    "addr:city": "Königstein",
    "addr:housenumber": "1",
    "addr:postcode": "61462",
    "addr:street": "Kugelherrnstraße",
    "alt_name": "Burg- und Stadtmuseum",
    "contact:phone": "+49 6173 4503",
    "name": "Stadtmuseum Königstein",
    "note": "Eintrittspreise: Erwachsene 1,50 Euro, Kinder (6–14 Jahre) 0,30 Euro.",
    "opening_hours": "Sa-Su 14:00-17:30; \"sowie nach Vereinbarung unter Tel.: 06173 4503\"",
    "operator": "Heimatkunde e.V.",
    "phone": "+49 6174 21455",
    "tourism": "museum",
    "wheelchair": "no",
    "wikidata": "Q76633965"
  }
},
{
  "type": "node",
  "id": 2953702020,
  "lat": 50.1075055,
  "lon": 8.6679382,
  "tags": {
    "name": "Hammermuseum",
    "toilets:wheelchair": "no",
    "tourism": "museum",
    "website": "http://www.vollderhammer.eu",
    "wheelchair": "no",
    "wikidata": "Q1317292"
  }
},
{
  "type": "node",
  "id": 2953703710,
  "lat": 50.1094099,
  "lon": 8.6781545,
  "tags": {
    "name": "Institut für Stadtgeschichte",
    "tourism": "museum",
    "website": "https://www.stadtgeschichte-ffm.de",
    "wheelchair": "limited"
  }
},
{
  "type": "node",
  "id": 3157469110,
  "lat": 50.1103709,
  "lon": 8.6729779,
  "tags": {
    "name": "MMK2 - Museum für moderne Kunst",
    "tourism": "museum",
    "website": "https://www.mmk-frankfurt.de/"
  }
},
{
  "type": "node",
  "id": 3222567997,
  "lat": 50.0000828,
  "lon": 8.3058401,
  "tags": {
    "addr:housenumber": "137",
    "addr:street": "Hauptstraße",
    "fee": "no",
    "name": "Heimatmuseum",
    "opening_hours": "Su[1,3] 10:00-12:00,15:00-17:00",
    "tourism": "museum",
    "website": "http://heimatmuseum-kostheim.de/"
  }
},
{
  "type": "node",
  "id": 3639308023,
  "lat": 49.8364521,
  "lon": 8.4659461,
  "tags": {
    "addr:city": "Riedstadt",
    "addr:country": "DE",
    "addr:housenumber": "28",
    "addr:postcode": "64560",
    "addr:street": "Wilhelm-Leuschner-Straße",
    "addr:suburb": "Erfelden",
    "name": "Phil. Schäfer II. Museum",
    "opening_hours": "Su[1],Su[3] 10:00-11:30; \"oder nach Vereinbarung\"",
    "operator": "Heimat- & Museumsverein, Erfelden",
    "tourism": "museum"
  }
},
{
  "type": "node",
  "id": 3661520542,
  "lat": 49.8518218,
  "lon": 7.9603039,
  "tags": {
    "addr:city": "Pfaffen-Schwabenheim",
    "addr:postcode": "55546",
    "addr:street": "Brühlstraße (außerhalb)",
    "contact:fax": "+49 6701 2730",
    "contact:mobile": "+49 171 7793572",
    "contact:phone": "+49 6701 7877",
    "contact:website": "http://www.pferdepension-sonnenhof.de/kutschenmuseum.html",
    "name": "Kutschenmuseum Sonnenhof",
    "opening_hours": "\"nach Vereinbarung\"",
    "operator": "Norbert Theis",
    "tourism": "museum"
  }
},
{
  "type": "node",
  "id": 3891320264,
  "lat": 50.1141417,
  "lon": 8.6830100,
  "tags": {
    "addr:city": "Frankfurt am Main",
    "addr:housenumber": "4",
    "addr:postcode": "60313",
    "addr:street": "Holzgraben",
    "name": "Deutsches Museum für Kochkunst und Tafelkultur",
    "opening_hours": "Sa, Su 14:00-18:00",
    "operator": "Deutsche Tafelkultur e.V.",
    "tourism": "museum",
    "website": "http://www.tafelkultur.com",
    "wheelchair": "no",
    "wikidata": "Q26791742"
  }
},
{
  "type": "node",
  "id": 3966806290,
  "lat": 49.8532152,
  "lon": 8.3549164,
  "tags": {
    "addr:postcode": "55276",
    "name": "Oppenheimer Stadtmuseum",
    "tourism": "museum"
  }
},
{
  "type": "node",
  "id": 4010204902,
  "lat": 49.7857028,
  "lon": 8.0361922,
  "tags": {
    "addr:city": "Flonheim",
    "addr:housenumber": "12",
    "addr:postcode": "55237",
    "addr:street": "Marktplatz",
    "name": "Ortsmuseum Flonheim",
    "opening_hours": "May-Oct Sa,Su,PH 15:00-18:00 || \"nach Vereinbarung\"",
    "phone": "+49 6734 9130657",
    "tourism": "museum",
    "website": "https://www.flonheim.de/de/tourismus-kultur/ortsmuseum/",
    "wheelchair": "yes"
  }
},
{
  "type": "node",
  "id": 4095091189,
  "lat": 50.0686381,
  "lon": 8.5294311,
  "tags": {
    "addr:city": "Kelsterbach",
    "addr:housenumber": "11",
    "addr:postcode": "65451",
    "addr:street": "Marktstraße",
    "contact:phone": "+49 6107 626 37",
    "contact:website": "https://www.kelsterbach.de/rathaus-verwaltung/verwaltung/aemter-und-abteilungen/kultur-sport-vereinsarbeit/tourismus-freizeit-und-erholung/stadtmuseum",
    "name": "Stadtmuseum Kelsterbach",
    "opening_hours": "Su 14:00-17:00",
    "operator": "Volksbildungswerk Kelsterbach e.V.",
    "tourism": "museum",
    "wheelchair": "no"
  }
},
{
  "type": "node",
  "id": 4239199921,
  "lat": 50.1206713,
  "lon": 8.0072390,
  "tags": {
    "name": "Heimatmuseum",
    "tourism": "museum",
    "wheelchair": "no"
  }
},
{
  "type": "node",
  "id": 4292738515,
  "lat": 50.1043774,
  "lon": 8.6758709,
  "tags": {
    "email": "mfk-frankfurt@mspt.de",
    "fax": "+49 69 6060666",
    "name": "Museum für Kommunikation",
    "name:zh": "通訊博物館",
    "opening_hours": "Mo-Fr 09:00-18:00; Sa,Su 11:00-19:00",
    "phone": "+49 69 60600",
    "toilets:wheelchair": "yes",
    "tourism": "museum",
    "website": "https://www.mfk-frankfurt.de/",
    "wheelchair": "yes",
    "wikidata": "Q1954640"
  }
},
{
  "type": "node",
  "id": 4311635242,
  "lat": 49.9187813,
  "lon": 8.4845864,
  "tags": {
    "name": "Stadtmuseum",
    "tourism": "museum",
    "wheelchair": "yes"
  }
},
{
  "type": "node",
  "id": 4395858273,
  "lat": 49.6952800,
  "lon": 8.3656992,
  "tags": {
    "name": "Ausstellung zur Rheinschifffahrt und dem Fährwesen",
    "operator": "Verein für Heimatgeschichte Nordheim e.V.",
    "tourism": "museum",
    "website": "http://burgsteinmuseum.npage.de/"
  }
},
{
  "type": "node",
  "id": 4426328858,
  "lat": 49.9208126,
  "lon": 8.4838882,
  "tags": {
    "name": "Handwerks Museum",
    "tourism": "museum"
  }
},
{
  "type": "node",
  "id": 4446054744,
  "lat": 49.7573225,
  "lon": 8.0325449,
  "tags": {
    "addr:housenumber": "30",
    "addr:street": "Hauptstraße",
    "name": "Postmuseum Rheinhessen",
    "tourism": "museum",
    "wikidata": "Q2106211",
    "wikipedia:de": "Postmuseum Rheinhessen"
  }
},
{
  "type": "node",
  "id": 4485338090,
  "lat": 49.7995527,
  "lon": 8.3407225,
  "tags": {
    "name": "Museum im Kellerweg 20",
    "tourism": "museum",
    "website": "https://www.kulturverein-guntersblum.de/",
    "wheelchair": "limited"
  }
},
{
  "type": "node",
  "id": 4539428739,
  "lat": 49.9532609,
  "lon": 8.6315320,
  "tags": {
    "addr:city": "Erzhausen",
    "addr:housenumber": "12",
    "addr:postcode": "64390",
    "addr:street": "Hauptstraße",
    "name": "Dorfmuseum",
    "opening_hours": "\"upon announcement\"",
    "operator": "Ortskundlicher Arbeitskreis",
    "tourism": "museum",
    "wikidata": "Q44992760"
  }
},
{
  "type": "node",
  "id": 4596649590,
  "lat": 50.0065546,
  "lon": 8.2557441,
  "tags": {
    "addr:country": "DE",
    "addr:housenumber": "66 Im Hinterhof",
    "addr:street": "Boppstraße",
    "name": "Atelier Pralinenfabrik",
    "name:de": "Atelier Pralinenfabrik",
    "opening_hours": "Mo-Su 10:00-00:00",
    "phone": "+49 6131 2057449",
    "tourism": "museum",
    "website": "http://www.pralinenfabrik.com"
  }
},
{
  "type": "node",
  "id": 4853566513,
  "lat": 50.0832031,
  "lon": 8.4641191,
  "tags": {
    "name": "Heimatkundliche Sammlung Kriftel",
    "tourism": "museum"
  }
},
{
  "type": "node",
  "id": 5308338523,
  "lat": 50.1112281,
  "lon": 8.6825488,
  "tags": {
    "name": "Fotografie Forum Frankfurt",
    "name:en": "Photography Forum Frankfurt",
    "opening_hours": "Tu, Th-Su 11:00-18:00; We 11:00-20:00",
    "tourism": "museum",
    "website": "https://www.fffrankfurt.org/",
    "wheelchair": "no"
  }
},
{
  "type": "node",
  "id": 5528044750,
  "lat": 50.0628151,
  "lon": 8.6691651,
  "tags": {
    "name": "Forstgeräte früher und heute",
    "tourism": "museum"
  }
},
{
  "type": "node",
  "id": 5541987429,
  "lat": 49.8533066,
  "lon": 8.4982968,
  "tags": {
    "addr:city": "Riedstadt",
    "addr:housenumber": "1B",
    "addr:postcode": "64560",
    "addr:street": "Groß-Gerauer-Straße",
    "name": "Heimatmuseum Wolfskehlen",
    "opening_hours": "Su[1] 10:00-12:00",
    "operator": "HGV Wolfskehlen",
    "tourism": "museum"
  }
},
{
  "type": "node",
  "id": 5673390196,
  "lat": 50.0689465,
  "lon": 8.6467482,
  "tags": {
    "addr:city": "Frankfurt am Main",
    "addr:housenumber": "362",
    "addr:postcode": "60528",
    "addr:street": "Mörfelder Landstraße",
    "email": "info@eintracht-frankfurt-museum.de",
    "name": "Eintracht Frankfurt Museum",
    "opening_hours": "Tu-Su 10:00-18:00",
    "phone": "+49 69 95503275",
    "tourism": "museum",
    "website": "http://www.eintracht-frankfurt-museum.de",
    "wheelchair": "yes",
    "wikidata": "Q76633736"
  }
},
{
  "type": "node",
  "id": 5813986624,
  "lat": 50.0037373,
  "lon": 8.2679962,
  "tags": {
    "addr:city": "Mainz",
    "addr:housenumber": "49-51",
    "addr:postcode": "55116",
    "addr:street": "Große Bleiche",
    "blind:description:de": "Mehrere Folien-Tastbücher für Blinde befinden sich im Bestand des Landesmuseums, außerdem audiodescriptive Guides. Es gibt Führungen iunter dem Motto \"Mit allen Sinnen\".",
    "deaf:description:de": "Videoguides ausleihbar mit Gebärdensprach-Videos.",
    "email": "landesmuseum-mainz@gdke.rlp.de",
    "fax": "+49 6131 2857288",
    "fee": "yes",
    "name": "Landesmuseum Mainz",
    "opening_hours": "Tu 10:00-20:00, We-Su 10:00-17:00",
    "phone": "+49 6131 28570",
    "toilets:wheelchair": "yes",
    "tourism": "museum",
    "website": "http://www.landesmuseum-mainz.de",
    "wheelchair": "yes",
    "wikidata": "Q834183",
    "wikipedia": "de:Landesmuseum Mainz"
  }
},
{
  "type": "node",
  "id": 5846740959,
  "lat": 50.0056298,
  "lon": 8.2811837,
  "tags": {
    "addr:city": "Mainz-Kastel",
    "addr:housename": "Bastion Schönborn",
    "addr:postcode": "55252",
    "addr:street": "Kasteler Museumsufer",
    "alt_name": "Flößerzimmer",
    "name": "Flößermuseum",
    "opening_hours": "Mo-Su 11:00+",
    "operator": "Gesellschaft für Heimatgeschichte Kastel e.V.",
    "tourism": "museum"
  }
},
{
  "type": "node",
  "id": 6113413213,
  "lat": 50.1364450,
  "lon": 8.6687167,
  "tags": {
    "addr:city": "Frankfurt am Main",
    "addr:housenumber": "150",
    "addr:postcode": "60320",
    "addr:street": "Hansaallee",
    "level": "0,_1",
    "name": "Bildungsstätte Anne Frank",
    "opening_hours": "Mo-Fr 09:00-17:00, Sa-Su 12:00-18:00",
    "operator": "Bildungsstätte Anne Frank",
    "phone": "+49 69 5600020",
    "source": "local knowledge;survey;aerial imagery",
    "start_date": "1994",
    "toilets:wheelchair": "yes",
    "tourism": "museum",
    "website": "http://bs-anne-frank.de",
    "wheelchair": "yes",
    "wikidata": "Q1711260",
    "wikipedia": "de:Bildungsstätte Anne Frank"
  }
},
{
  "type": "node",
  "id": 6268173592,
  "lat": 50.1107369,
  "lon": 8.6843227,
  "tags": {
    "addr:city": "Frankfurt am Main",
    "addr:housenumber": "7",
    "addr:postcode": "60311",
    "addr:street": "Markt",
    "alt_name": "Friedrich-Stoltze-Museum",
    "name": "Stoltze-Museum",
    "operator": "Frankfurter Sparkasse",
    "tourism": "museum",
    "website": "https://www.frankfurter-sparkasse.de/stoltze",
    "wheelchair": "no"
  }
},
{
  "type": "node",
  "id": 6344912842,
  "lat": 49.8845438,
  "lon": 8.0817468,
  "tags": {
    "addr:city": "Partenheim",
    "addr:housenumber": "15",
    "addr:postcode": "55288",
    "addr:street": "Vordergasse",
    "name": "Heimatmuseum \"Sellemols\"",
    "operator": "Burkhard Runkel",
    "tourism": "museum"
  }
},
{
  "type": "node",
  "id": 6882184609,
  "lat": 50.1067548,
  "lon": 8.6880002,
  "tags": {
    "name": "Ikonen-Museum",
    "tourism": "museum"
  }
},
{
  "type": "way",
  "id": 23502938,
  "nodes": [
    253808840,
    254535115,
    254535119,
    254535120,
    253808840
  ],
  "tags": {
    "building": "yes",
    "name": "Hofgut Guntershausen",
    "tourism": "museum"
  }
},
{
  "type": "way",
  "id": 24317979,
  "nodes": [
    263682463,
    263682323,
    263682464,
    572592458,
    263682465,
    2839351849,
    263682466,
    5193769758,
    263682467,
    572592459,
    572592445,
    572592446,
    572592447,
    572592460,
    572592443,
    572592444,
    572592457,
    1666387256,
    2453933771,
    263682463
  ],
  "tags": {
    "addr:city": "Mainz",
    "addr:housenumber": "1",
    "addr:postcode": "55116",
    "addr:street": "Reichklarastraße",
    "building": "yes",
    "name": "Naturhistorisches Museum",
    "note": "Öffnungszeiten Stand 27.11.2009 laut http://www.staff.uni-mainz.de/lsnhmmz/",
    "opening_hours": "Tu 10:00-20:00; We 10:00-14:00; Th-Su 10:00-17:00",
    "tourism": "museum",
    "wheelchair": "yes",
    "wikidata": "Q1970332",
    "wikipedia": "de:Naturhistorisches Museum (Mainz)"
  }
},
{
  "type": "way",
  "id": 24489915,
  "nodes": [
    266287540,
    49332426,
    42221654,
    266287544,
    266287540
  ],
  "tags": {
    "amenity": "school",
    "landuse": "forest",
    "name": "Schulwald",
    "tourism": "museum"
  }
},
{
  "type": "way",
  "id": 25752994,
  "nodes": [
    280862738,
    280862748,
    1151005986,
    280862757,
    280862768,
    2154750200,
    280862738
  ],
  "tags": {
    "addr:city": "Wiesbaden",
    "addr:housenumber": "220",
    "addr:postcode": "65201",
    "addr:street": "Freudenbergstraße",
    "building": "yes",
    "castle_type": "stately",
    "fee": "yes",
    "historic": "castle",
    "name": "Schloss Freudenberg",
    "opening_hours": "Mo-Fr 09:00-18:00; Sa-Su 11:00-18:00",
    "phone": "+49 611 4110141",
    "tourism": "museum",
    "website": "https://www.schlossfreudenberg.de/",
    "wheelchair": "no",
    "wikidata": "Q919657",
    "wikipedia": "de:Schloss Freudenberg"
  }
},
{
  "type": "way",
  "id": 26979864,
  "nodes": [
    295711193,
    1255672385,
    1255673780,
    295711195,
    295711196,
    1255671981,
    295711197,
    295711198,
    295711199,
    295711200,
    295711201,
    295711193
  ],
  "tags": {
    "building": "yes",
    "name": "Feuerwehrmuseum",
    "tourism": "museum"
  }
},
{
  "type": "way",
  "id": 27352712,
  "nodes": [
    300294045,
    2403438627,
    300294047,
    300294049,
    300294051,
    300294045
  ],
  "tags": {
    "addr:city": "Ingelheim am Rhein",
    "addr:country": "DE",
    "addr:housenumber": "1",
    "addr:postcode": "55218",
    "addr:street": "François-Lachenal-Platz",
    "building": "yes",
    "description": "Kalksteinquaderbau im Rundbogenstil, 1859–62, Architekt Eduard Köhler, Bingen; platzbildprägend",
    "heritage": "yes",
    "historic": "building",
    "image": "File:Altes-Rathaus-Nieder-Ingelheim.jpg",
    "name": "Altes Rathaus",
    "source": "Own Knowledge",
    "start_date": "1859-1862",
    "tourism": "museum"
  }
},
{
  "type": "way",
  "id": 27352713,
  "nodes": [
    300294053,
    300294055,
    3066389020,
    300294056,
    2401877510,
    2401877508,
    300294058,
    2837797100,
    2837799001,
    300294053
  ],
  "tags": {
    "addr:city": "Ingelheim am Rhein",
    "addr:country": "DE",
    "addr:housenumber": "5",
    "addr:postcode": "55218",
    "addr:street": "François-Lachenal-Platz",
    "building": "detached",
    "building:levels": "1",
    "name": "Kaiserpfalz Museum",
    "opening_hours": "Apr-Oct: Tu-Su 10:00-17:00; Nov-Mar: Tu-Su 10:00-16:00",
    "tourism": "museum",
    "wheelchair": "yes"
  }
},
{
  "type": "way",
  "id": 28045788,
  "nodes": [
    307963756,
    307963757,
    717325166,
    717325176,
    717325178,
    717325180,
    717325174,
    717325182,
    599413683,
    717325172,
    717325171,
    717325162,
    717325168,
    599413685,
    307963758,
    307963759,
    1009543000,
    307963756
  ],
  "tags": {
    "addr:city": "Wiesbaden",
    "addr:housenumber": "2",
    "addr:postcode": "65185",
    "addr:street": "Friedrich-Ebert-Allee",
    "building": "yes",
    "name": "Museum Wiesbaden",
    "name:de": "Museum Wiesbaden",
    "name:fr": "Musée de Wiesbaden",
    "opening_hours": "Mo off; Tu,Th 10:00-20:00; We,Fr-Su 10:00-17:00",
    "operator": "Hessischen Ministerium für Wissenschaft und Kunst",
    "svg:bezier": "no",
    "toilets:wheelchair": "yes",
    "tourism": "museum",
    "website": "https://de.wikipedia.org/wiki/Museum_Wiesbaden",
    "wheelchair": "yes",
    "wikidata": "Q316514"
  }
},
{
  "type": "way",
  "id": 28047816,
  "nodes": [
    307985913,
    307985914,
    307985916,
    307985918,
    307985920,
    307985921,
    307985913
  ],
  "tags": {
    "addr:city": "Wiesbaden",
    "addr:housenumber": "39",
    "addr:street": "Wandersmannstraße",
    "building": "yes",
    "name": "Harlikeneum",
    "tourism": "museum"
  }
},
{
  "type": "way",
  "id": 28124674,
  "nodes": [
    308904576,
    5022425680,
    5022425684,
    308904579,
    308904580,
    308904581,
    308904582,
    308904583,
    308904576
  ],
  "tags": {
    "addr:city": "Oberursel (Taunus)",
    "addr:country": "DE",
    "addr:housenumber": "1",
    "addr:postcode": "61440",
    "addr:street": "Marktplatz",
    "building": "yes",
    "name": "Vortaunusmuseum",
    "operator": "Stadt Oberursel",
    "source": "Yahoo",
    "tourism": "museum",
    "wheelchair": "no",
    "wikidata": "Q2534575"
  }
},
{
  "type": "way",
  "id": 30854699,
  "nodes": [
    343210337,
    343210284,
    343210288,
    343210292,
    343210337
  ],
  "tags": {
    "building": "yes",
    "man_made": "tower",
    "name": "Kirchturm-Museum Sankt Ursula",
    "source": "Bing",
    "tourism": "museum",
    "wheelchair": "no"
  }
},
{
  "type": "way",
  "id": 31540379,
  "nodes": [
    352944000,
    352944001,
    352944002,
    352944003,
    352944000
  ],
  "tags": {
    "addr:city": "Dreieich",
    "addr:housenumber": "52",
    "addr:postcode": "63303",
    "addr:street": "Fahrgasse",
    "alt_name": "Dreieichmuseum",
    "building": "yes",
    "name": "Dreieich-Museum",
    "tourism": "museum",
    "wheelchair": "limited",
    "wikidata": "Q76633684"
  }
},
{
  "type": "way",
  "id": 35150323,
  "nodes": [
    412297663,
    412297664,
    1216871283,
    412297665,
    1216871335,
    1216871274,
    1216871322,
    412297666,
    412297663
  ],
  "tags": {
    "addr:city": "Darmstadt",
    "addr:country": "DE",
    "addr:housenumber": "2",
    "addr:postcode": "64285",
    "addr:street": "Goethestraße",
    "building": "yes",
    "name": "Schader Stiftung",
    "source": "local_knowledge",
    "tourism": "museum",
    "website": "https://www.schader-stiftung.de/",
    "wikipedia": "de:Schader-Stiftung"
  }
},
{
  "type": "way",
  "id": 35216115,
  "nodes": [
    412962799,
    2495222645,
    842348892,
    412962800,
    842348820,
    842348790,
    412962801,
    412962802,
    1852182477,
    1852182479,
    1852182478,
    412962803,
    2561866554,
    1852182487,
    1852182485,
    1852182484,
    1852182486,
    1852182488,
    1852182489,
    2561866558,
    2561866584,
    1852182492,
    412962805,
    2561866550,
    2561866548,
    412962799
  ],
  "tags": {
    "addr:city": "Frankfurt am Main",
    "addr:country": "DE",
    "addr:housenumber": "10",
    "addr:postcode": "60311",
    "addr:street": "Domstraße",
    "building": "yes",
    "name": "Museum für Moderne Kunst",
    "name:zh": "現代藝術美術館",
    "toilets:wheelchair": "yes",
    "tourism": "museum",
    "website": "https://www.mmk-frankfurt.de/",
    "wheelchair": "yes",
    "wheelchair:description": "im Haus 3 gibt es keine barrierefreie Toilette.",
    "wikidata": "Q456994"
  }
},
{
  "type": "way",
  "id": 35998409,
  "nodes": [
    1478148932,
    1842229596,
    1842229598,
    1842229599,
    1842229597,
    1842229600,
    1842229602,
    1842229603,
    1842229601,
    420782438,
    5240710482,
    420782423,
    420782424,
    420782425,
    420782426,
    420782427,
    420782428,
    2676934028,
    420782429,
    848774870,
    848774876,
    848774888,
    848774880,
    420782430,
    420782431,
    420782433,
    420782434,
    1478148932
  ],
  "tags": {
    "addr:city": "Frankfurt am Main",
    "addr:country": "DE",
    "addr:housename": "Deutschordenshaus",
    "addr:housenumber": "3",
    "addr:postcode": "60594",
    "addr:street": "Brückenstraße",
    "building": "yes",
    "historic": "building",
    "name": "Deutschordenshaus",
    "opening_hours": "Tu,Th-Su 10:00-17:00;We 10:00-20:00",
    "tourism": "museum",
    "website": "http://www.ikonenmuseumfrankfurt.de",
    "wikidata": "Q16831924",
    "wikipedia": "de:Deutschordenskirche (Frankfurt)"
  }
},
{
  "type": "way",
  "id": 38291651,
  "nodes": [
    451845817,
    1244173438,
    451845818,
    451845819,
    451845820,
    451845817
  ],
  "tags": {
    "addr:city": "Darmstadt",
    "addr:country": "DE",
    "addr:housenumber": "10",
    "addr:postcode": "64289",
    "addr:street": "Schloßgartenstraße",
    "alt_name": "Porzellanschlößchen",
    "building": "house",
    "building:levels": "2",
    "name": "Prinz-Georg-Palais",
    "opening_hours": "Apr-Oct: Mo-Su 10:00-17:00",
    "roof:levels": "1",
    "roof:shape": "mansard",
    "tourism": "museum"
  }
},
{
  "type": "way",
  "id": 39383376,
  "nodes": [
    471869251,
    2495222643,
    472582613,
    472582615,
    472582616,
    471869251
  ],
  "tags": {
    "addr:city": "Frankfurt am Main",
    "addr:country": "DE",
    "addr:housenumber": "2",
    "addr:postcode": "60594",
    "addr:street": "Alte Brücke",
    "amenity": "arts_centre",
    "building": "yes",
    "name": "Portikus",
    "opening_hours": "Tu-Su 11:00-18:00; We 11:00-20:00",
    "tourism": "museum",
    "website": "http://www.portikus.de/",
    "wheelchair": "yes",
    "wheelchair:description": "barrierefreier Eingang über Hintereingang",
    "wikidata": "Q874768"
  }
},
{
  "type": "way",
  "id": 43449097,
  "nodes": [
    548131627,
    548131630,
    548131639,
    548131645,
    548131643,
    548131648,
    548131649,
    548131650,
    548131647,
    548131641,
    548131669,
    548131667,
    548131661,
    548131665,
    548131663,
    548131659,
    548131655,
    548131657,
    548131632,
    548131634,
    548131635,
    548131637,
    548131627
  ],
  "tags": {
    "addr:city": "Bad Homburg v.d. Höhe",
    "addr:country": "DE",
    "addr:housenumber": "5",
    "addr:postcode": "61348",
    "addr:street": "Niederstedter Weg",
    "building": "yes",
    "email": "info@central-garage.de",
    "fax": "+49 6172 5976058",
    "fee": "no",
    "name": "Central Garage",
    "opening_hours": "We-Su 12:00-16:30",
    "phone": "+49 6172 5976057",
    "tourism": "museum",
    "website": "https://www.central-garage.de/",
    "wheelchair": "limited"
  }
},
{
  "type": "way",
  "id": 46870694,
  "nodes": [
    598453988,
    598453992,
    598453989,
    598453991,
    598453988
  ],
  "tags": {
    "addr:city": "Alzey",
    "addr:country": "DE",
    "addr:housenumber": "41",
    "addr:postcode": "55232",
    "addr:street": "Antoniterstraße",
    "building": "yes",
    "description": "ehemaliges Hospital; dreigeschossiger Renaissancebau, Walmdach, Treppenturm, bezeichnet 1580, barock überformt. 1747 bezeichnet",
    "fax": "+49 6731 990885",
    "heritage": "4",
    "heritage:operator": "gdke",
    "name": "Museum Alzey",
    "phone": "+49 6731 498896",
    "ref:gdke": "N",
    "source": "http://de.wikipedia.org/wiki/Liste_der_Kulturdenkm%C3%A4ler_in_Alzey",
    "tourism": "museum",
    "wheelchair": "limited"
  }
},
{
  "type": "way",
  "id": 47097744,
  "nodes": [
    600575779,
    600575780,
    600575777,
    600575778,
    854394402,
    600575779
  ],
  "tags": {
    "building": "yes",
    "fee": "no",
    "name": "Mühlenmuseum",
    "operator": "Wambacher Mühle",
    "tourism": "museum",
    "wheelchair": "no"
  }
},
{
  "type": "way",
  "id": 49410221,
  "nodes": [
    627571146,
    627571148,
    627571149,
    627571150,
    1823779005,
    627571146
  ],
  "tags": {
    "addr:city": "Bad Schwalbach",
    "addr:country": "DE",
    "addr:housenumber": "16a",
    "addr:postcode": "65307",
    "addr:street": "Pestalozzistraße",
    "addr:suburb": "Bad Schwalbach",
    "building": "yes",
    "name": "Kur- Stadt- und Apothekenmuseum",
    "opening_hours": "We-Su 14:00-18:00",
    "tourism": "museum",
    "website": "https://www.museum-bad-schwalbach.de/",
    "wikidata": "Q76633553"
  }
},
{
  "type": "way",
  "id": 50306098,
  "nodes": [
    639157301,
    639157302,
    639157303,
    639157304,
    639157301
  ],
  "tags": {
    "addr:city": "Rüdesheim am Rhein",
    "addr:country": "DE",
    "addr:housenumber": "2",
    "addr:postcode": "65385",
    "addr:street": "Rheinstraße",
    "building": "yes",
    "contact:website": "http://wiki.openstreetmap.org/wiki/File:DSC00139.jpg",
    "historic": "castle",
    "name": "Brömserburg",
    "toilets:wheelchair": "no",
    "tourism": "museum",
    "wheelchair": "no",
    "wikidata": "Q995765",
    "wikipedia": "de:Brömserburg"
  }
},
{
  "type": "way",
  "id": 52008051,
  "nodes": [
    663072522,
    663072517,
    663072518,
    663072519,
    663072531,
    663072522
  ],
  "tags": {
    "addr:city": "Idstein",
    "addr:housenumber": "7",
    "addr:postcode": "65510",
    "addr:street": "König-Adolf-Platz",
    "building": "yes",
    "name": "Killingerhaus",
    "tourism": "museum",
    "wheelchair": "no",
    "wheelchair:description": "Altes Fachwerkhaus, Außentreppe, enge Türen, kein Aufzug\nAm Fuß der Treppe gibt es eine Klingel mit der Unterstützung herbei gerufen werden kann.",
    "wikidata": "Q1294304"
  }
},
{
  "type": "way",
  "id": 52502711,
  "nodes": [
    667281392,
    667281393,
    667281405,
    667281411,
    667281392
  ],
  "tags": {
    "amenity": "public_building",
    "building": "yes",
    "building:roof:shape": "gabled",
    "name": "Heimatmuseum",
    "tourism": "museum"
  }
},
{
  "type": "way",
  "id": 54825414,
  "nodes": [
    690144127,
    690144135,
    5431276728,
    5431276727,
    5431276726,
    5431276725,
    690144142,
    6162390336,
    5431270213,
    690144161,
    5431276724,
    5431276723,
    5431270196,
    5431276722,
    5431276721,
    5431270220,
    5431270219,
    299815409,
    299815410,
    5431276730,
    5431276729,
    299815411,
    690144172,
    690144127
  ],
  "tags": {
    "architect": "Joseph Maria Olbrich",
    "building": "yes",
    "contact:email": "mathildenhoehe@darmstadt.de",
    "contact:phone": "+49-6151-132778",
    "contact:website": "https://www.mathildenhoehe.eu/",
    "name": "Ausstellungsgebäude",
    "tourism": "museum",
    "wheelchair": "yes",
    "year_of_construction": "1908"
  }
},
{
  "type": "way",
  "id": 55229023,
  "nodes": [
    694216077,
    694216079,
    694216083,
    694216085,
    1643452387,
    694216072,
    694216074,
    694216080,
    694216078,
    694216077
  ],
  "tags": {
    "addr:city": "Darmstadt",
    "addr:housenumber": "88",
    "addr:postcode": "64293",
    "addr:street": "Kirschenallee",
    "building": "yes",
    "name": "Außenstelle hessisches Landesmuseum Darmstadt (Abt. Schriftguss, Satz und Druckverfahren)",
    "opening_hours": "Tu, Fr 10:00-12:00; Th 15:00-17:00",
    "operator": "Hessisches Landesmuseum Darmstadt",
    "tourism": "museum",
    "website": "https://www.hlmd.de/museum/aussenstellen/abteilung-schriftguss-satz-und-druckverfahren.html"
  }
},
{
  "type": "way",
  "id": 55456112,
  "nodes": [
    696972156,
    696972149,
    696972166,
    696972163,
    696972156
  ],
  "tags": {
    "building": "yes",
    "name": "Nebbiensches Gartenhaus",
    "tourism": "museum",
    "wikipedia": "de:Nebbiensches Gartenhaus"
  }
},
{
  "type": "way",
  "id": 61192752,
  "nodes": [
    765104786,
    880932547,
    765104793,
    765104788,
    765104786
  ],
  "tags": {
    "addr:city": "Wiesbaden",
    "addr:country": "DE",
    "addr:housenumber": "11",
    "addr:postcode": "65205",
    "addr:street": "Turmstraße",
    "addr:suburb": "Nordenstadt",
    "building": "yes",
    "name": "Heimatmuseum Nordenstadt",
    "tourism": "museum",
    "wheelchair": "no"
  }
},
{
  "type": "way",
  "id": 65681255,
  "nodes": [
    800597551,
    800597553,
    800597550,
    800597556,
    800597551
  ],
  "tags": {
    "addr:city": "Frankfurt am Main",
    "addr:country": "DE",
    "addr:housenumber": "17",
    "addr:postcode": "60528",
    "addr:street": "Schwanheimer Straße",
    "alt_name": "Heimatmuseum Bezirksverein Niederrad",
    "building": "yes",
    "name": "Heimatmuseum",
    "tourism": "museum"
  }
},
{
  "type": "way",
  "id": 70908761,
  "nodes": [
    845178574,
    845178599,
    845178576,
    2411440788,
    2411440786,
    2411440785,
    845178613,
    845178597,
    845178630,
    2411440799,
    2411440800,
    2411440802,
    2411440804,
    2411440807,
    2411440810,
    2411440812,
    2411440813,
    2411440814,
    2411440816,
    2411440817,
    845178569,
    845178601,
    2411440823,
    2411440825,
    2411440818,
    2411440821,
    2411440808,
    2411440803,
    845178574
  ],
  "tags": {
    "addr:city": "Frankfurt am Main",
    "addr:country": "DE",
    "addr:housenumber": "83",
    "addr:postcode": "60596",
    "addr:street": "Schaumainkai",
    "building": "yes",
    "name": "Museum Giersch",
    "phone": "+49 69 13821010",
    "toilets:wheelchair": "no",
    "tourism": "museum",
    "website": "http://www.museum-giersch.de",
    "wheelchair": "limited",
    "wheelchair:description": "Bitte am Eingang klingeln, das Personal schickt einen Aufzug nach unten. Toilettentür mit 67 cm sehr schmal.",
    "wikidata": "Q1954440"
  }
},
{
  "type": "way",
  "id": 72843486,
  "nodes": [
    864404199,
    864404163,
    864404250,
    864404234,
    864404098,
    864404272,
    864404150,
    864404288,
    864404179,
    864404141,
    864404221,
    864404270,
    864404199
  ],
  "tags": {
    "addr:city": "Frankfurt am Main",
    "addr:country": "DE",
    "addr:housenumber": "14",
    "addr:postcode": "60311",
    "addr:street": "Untermainkai",
    "building": "yes",
    "name": "Jüdisches Museum",
    "tourism": "museum"
  }
},
{
  "type": "way",
  "id": 89068530,
  "nodes": [
    1033447362,
    1033447848,
    1033447169,
    1033446566,
    1033447362
  ],
  "tags": {
    "addr:city": "Frankfurt am Main",
    "addr:country": "DE",
    "addr:housenumber": "27",
    "addr:postcode": "60325",
    "addr:street": "Kettenhofweg",
    "building": "yes",
    "name": "Degussa Goldkammer",
    "tourism": "museum"
  }
},
{
  "type": "way",
  "id": 89278428,
  "nodes": [
    1035911425,
    1035911043,
    1223062593,
    1035910651,
    1112933652,
    1035911425
  ],
  "tags": {
    "addr:city": "Lorch",
    "addr:country": "DE",
    "addr:housenumber": "5",
    "addr:postcode": "65391",
    "addr:street": "Markt",
    "building": "museum",
    "name": "Robert Struppmann Museum",
    "opening_hours": "Mo-Fr 09:00-13:00,14:00-16:00",
    "source": "Bing",
    "toilets:wheelchair": "no",
    "tourism": "museum",
    "wheelchair": "yes"
  }
},
{
  "type": "way",
  "id": 89581009,
  "nodes": [
    1364154976,
    1437610486,
    1437610482,
    1437610471,
    1437610475,
    1364154973,
    1038356118,
    1038356151,
    1364154976
  ],
  "tags": {
    "name": "Landmuseum Ransel",
    "tourism": "museum",
    "website": "www.landmuseum-ransel.de"
  }
},
{
  "type": "way",
  "id": 94582407,
  "nodes": [
    1098499436,
    1098499390,
    1098499591,
    1098499526,
    1098499471,
    1098499412,
    1098499363,
    1100059108,
    1098499559,
    1098499558,
    1098499464,
    1098499557,
    1098499512,
    1098499436
  ],
  "tags": {
    "building": "yes",
    "historic": "yes",
    "name": "Schlossturm Gräfenhausen - Museum der Stadt Weiterstadt",
    "operator": "Heimatverein Gräfenhausen-Schneppenhausen e. V.",
    "tourism": "museum",
    "website": "http://www.heimatverein-graefenhausen-schneppenhausen.de/der-turmbau-hinter-dem-ohlystift/"
  }
},
{
  "type": "way",
  "id": 97315810,
  "nodes": [
    1127116783,
    1127116720,
    1127116811,
    1127116733,
    1127116772,
    1127116899,
    1127116783
  ],
  "tags": {
    "addr:city": "Frankfurt am Main",
    "addr:country": "DE",
    "addr:housename": "Kronberger Haus",
    "addr:housenumber": "152",
    "addr:postcode": "65929",
    "addr:street": "Bolongarostraße",
    "building": "yes",
    "historic": "building",
    "name": "Kronberger Haus - Porzellanmuseum",
    "name:en": "Porcelain Museum in Frankfurt",
    "opening_hours": "Sa,Su 11:00-18:00",
    "start_date": "1580",
    "tourism": "museum",
    "wheelchair": "no",
    "wikipedia": "de:Höchster Altstadt#Kronberger Haus"
  }
},
{
  "type": "way",
  "id": 97400460,
  "nodes": [
    4377396892,
    4386860098,
    53468914,
    4377397253,
    4386860097,
    1184214485,
    4398906077,
    4398906076,
    4398906080,
    1128049840,
    4397550852,
    1184214490,
    4377396892
  ],
  "tags": {
    "addr:city": "Wiesbaden",
    "addr:housenumber": "6",
    "addr:postcode": "65201",
    "addr:street": "Zehntenhofstraße",
    "building": "yes",
    "name": "Schiersteiner Heimatmuseum",
    "opening_hours": "Su 10:30-12:30",
    "operator": "Verein \"Heimatmuseum Schierstein\" e.V.",
    "tourism": "museum"
  }
},
{
  "type": "way",
  "id": 108747623,
  "nodes": [
    1246899569,
    1246899603,
    1246899614,
    1246899647,
    1246899569
  ],
  "tags": {
    "building": "yes",
    "tourism": "museum"
  }
},
{
  "type": "way",
  "id": 108747628,
  "nodes": [
    1246899682,
    1246899600,
    1246899565,
    1246899538,
    1246899682
  ],
  "tags": {
    "building": "yes",
    "tourism": "museum"
  }
},
{
  "type": "way",
  "id": 113018366,
  "nodes": [
    1283047480,
    1283048722,
    1283047831,
    1283047931,
    1283047480
  ],
  "tags": {
    "addr:city": "Frankfurt am Main",
    "addr:country": "DE",
    "addr:housenumber": "11",
    "addr:postcode": "60385",
    "addr:street": "Turmstraße",
    "building": "yes",
    "name": "Bernemer Museumslädchen",
    "tourism": "museum"
  }
},
{
  "type": "way",
  "id": 116374273,
  "nodes": [
    1311995828,
    1311995825,
    1852182459,
    1311995832,
    1852182458,
    1311995836,
    1311995820,
    651553,
    1311995827,
    1311995834,
    1311995838,
    1852182460,
    1311995828
  ],
  "tags": {
    "addr:city": "Frankfurt am Main",
    "addr:country": "DE",
    "addr:housenumber": "3",
    "addr:postcode": "60311",
    "addr:street": "Domstraße",
    "building": "yes",
    "name": "ehem. Hauptzollamt / Museum für Moderne Kunst 3",
    "tourism": "museum"
  }
},
{
  "type": "way",
  "id": 131009572,
  "nodes": [
    1442495035,
    1442495039,
    1442495017,
    1442495015,
    1442495035
  ],
  "tags": {
    "building": "yes",
    "name": "Heimatmuseum Ockenheim",
    "tourism": "museum"
  }
},
{
  "type": "way",
  "id": 138494750,
  "nodes": [
    1518595988,
    3518835588,
    3518835587,
    1518595331,
    1518595147,
    1897359704,
    1518595529,
    1518595525,
    1518595866,
    3427774389,
    1518595988
  ],
  "tags": {
    "addr:city": "Neu-Isenburg",
    "addr:country": "DE",
    "addr:housenumber": "24",
    "addr:postcode": "63263",
    "addr:street": "Löwengasse",
    "building": "civic",
    "building:levels": "2",
    "building:material": "timber_framing",
    "name": "Haus zum Löwen",
    "opening_hours": "Fr 14:00-17:00; Sa,Su,PH 11:00-17:00",
    "roof:levels": "1",
    "tourism": "museum",
    "website": "https://hugenottenhalle.de/weitere-kulturorte/museen/stadtmuseum-haus-zum-loewen/",
    "wheelchair": "yes",
    "wheelchair:description": "Obergeschoss mit Treppenlift erreichbar, allerdings muss man den Rollstuhl dazu verlassen und von den Mitarbeitern hochschleppen lassen."
  }
},
{
  "type": "way",
  "id": 139743375,
  "nodes": [
    1531408342,
    1531408367,
    1531408373,
    1531408371,
    1531408364,
    1531408332,
    1531408336,
    1531408342
  ],
  "tags": {
    "name": "Orgel Art Museum",
    "phone": "+49 6707 2429700",
    "tourism": "museum",
    "website": "http://www.orgelartmuseum.org/",
    "wheelchair": "yes"
  }
},
{
  "type": "way",
  "id": 140908429,
  "nodes": [
    1542783271,
    1542783269,
    1542783257,
    1542783251,
    1542783253,
    1542783229,
    3172308749,
    1542783231,
    1542783233,
    1542783235,
    3172308751,
    1542783249,
    1542783263,
    1542783271
  ],
  "tags": {
    "addr:city": "Neu-Isenburg",
    "addr:country": "DE",
    "addr:housenumber": "10",
    "addr:postcode": "63263",
    "addr:street": "Zeppelinstraße",
    "building": "civic",
    "name": "Bertha-Pappenheim-Haus",
    "old_name": "Mädchenwohnheim Neu-Isenburg",
    "start_date": "1907",
    "tourism": "museum",
    "wikidata": "Q1312015",
    "wikipedia": "de:Heim Neu-Isenburg"
  }
},
{
  "type": "way",
  "id": 146395623,
  "nodes": [
    1596680329,
    1596680351,
    1596680283,
    1596680281,
    1596680279,
    1596680329
  ],
  "tags": {
    "building": "yes",
    "email": "info@hochhut-museum.de",
    "name": "Technische Sammlung Hochhut",
    "tourism": "museum",
    "wikidata": "Q1355073",
    "wikipedia": "de:Technische Sammlung Hochhut"
  }
},
{
  "type": "way",
  "id": 166162668,
  "nodes": [
    1776420377,
    1776420378,
    1776420380,
    1776420379,
    1776420377
  ],
  "tags": {
    "building": "yes",
    "height": "16",
    "man_made": "tower",
    "name": "Hinkelsturm",
    "tourism": "museum",
    "wheelchair": "no",
    "wikidata": "Q19259126"
  }
},
{
  "type": "way",
  "id": 174501386,
  "nodes": [
    1851742634,
    1851742640,
    1851742644,
    1851742699,
    1851742712,
    2545840630,
    1851742750,
    1851742708,
    1851742634
  ],
  "tags": {
    "addr:city": "Frankfurt am Main",
    "addr:country": "DE",
    "addr:housenumber": "25",
    "addr:postcode": "60311",
    "addr:street": "Großer Hirschgraben",
    "building": "yes",
    "name": "Goethe-Museum",
    "tourism": "museum"
  }
},
{
  "type": "way",
  "id": 174600880,
  "nodes": [
    860470131,
    1852665814,
    1852665817,
    1852665825,
    1852665832,
    1852665818,
    1852665823,
    1852665842,
    2547038069,
    1852665847,
    1852665839,
    1854476003,
    1854476005,
    1854476004,
    1852665845,
    1854476001,
    1852665834,
    1854475996,
    1852665827,
    1852665815,
    1852665816,
    1852665813,
    1852665808,
    860470131
  ],
  "tags": {
    "building": "yes",
    "tourism": "museum",
    "wheelchair": "no"
  }
},
{
  "type": "way",
  "id": 174600907,
  "nodes": [
    1852665796,
    1852665804,
    860469988,
    1852665792,
    1852665794,
    1852665795,
    1852665796
  ],
  "tags": {
    "building": "yes",
    "tourism": "museum",
    "wheelchair": "no"
  }
},
{
  "type": "way",
  "id": 174789450,
  "nodes": [
    864404250,
    1854475797,
    1854475785,
    1854475786,
    1854475784,
    1854475782,
    1854475781,
    1854475780,
    1854475779,
    1854475778,
    1854475777,
    1854475775,
    1854475772,
    1854475771,
    1854475774,
    1854475769,
    864404163,
    864404250
  ],
  "tags": {
    "addr:city": "Frankfurt am Main",
    "addr:country": "DE",
    "addr:housenumber": "15",
    "addr:postcode": "60311",
    "addr:street": "Untermainkai",
    "building": "yes",
    "name": "Jüdisches Museum",
    "tourism": "museum"
  }
},
{
  "type": "way",
  "id": 178604474,
  "nodes": [
    1889506878,
    1889506870,
    1889506872,
    1889506879,
    1889506878
  ],
  "tags": {
    "building": "yes",
    "name": "Historische Feuerwehr",
    "tourism": "museum",
    "wheelchair": "yes"
  }
},
{
  "type": "way",
  "id": 178604476,
  "nodes": [
    1889506880,
    1889506876,
    1889506877,
    1889506881,
    1889506880
  ],
  "tags": {
    "building": "yes",
    "name": "Schöfferhaus - Heimatmuseum",
    "tourism": "museum",
    "wheelchair": "yes"
  }
},
{
  "type": "way",
  "id": 180739939,
  "nodes": [
    1912018213,
    3978876098,
    2098423854,
    3978876095,
    3978876096,
    1912018187,
    1912018189,
    1912018213
  ],
  "tags": {
    "building": "yes",
    "historic": "building",
    "image": "File:Egelsbach_Kirchstrasse_1_von_Sueden.jpg",
    "name": "Heimatmuseum, Arresthaus",
    "tourism": "museum"
  }
},
{
  "type": "way",
  "id": 192645875,
  "nodes": [
    2031903201,
    2032405817,
    4345924740,
    2031903200,
    2031903142,
    2031903147,
    2031903201
  ],
  "tags": {
    "addr:city": "Messel",
    "addr:housenumber": "2",
    "addr:postcode": "64409",
    "addr:street": "Langgasse",
    "building": "yes",
    "name": "Fossilien- und Heimatmuseum Messel",
    "opening_hours": "Apr-Oct: Mo-Su 11:00-17:00; Nov-Mar: Sa,PH,Su 11:00-17:00",
    "operator": "Museumsverein Messel e.V.",
    "phone": "+49 6159 5119",
    "tourism": "museum",
    "website": "http://www.messelmuseum.de",
    "wikipedia": "de:Fossilien- und Heimatmuseum Messel"
  }
},
{
  "type": "way",
  "id": 193683308,
  "nodes": [
    2145803487,
    6757607992,
    2145803488,
    1871178456,
    4914835199,
    1871178463,
    2146285418,
    2146285419,
    1871178465,
    1871178461,
    2145803490,
    2145803489,
    2042021195,
    2042021193,
    2042021198,
    2042021201,
    2145803487
  ],
  "tags": {
    "addr:city": "Hofheim am Taunus",
    "addr:housenumber": "11",
    "addr:postcode": "65719",
    "addr:street": "Burgstraße",
    "alt_name": "Hofheimer Stadtmuseum",
    "building": "yes",
    "name": "Stadtmuseum Hofheim",
    "operator": "Stadt Hofheim am Taunus",
    "tourism": "museum",
    "website": "https://www.hofheim.de/kultur/Stadtmuseum/",
    "wheelchair": "yes",
    "wikidata": "Q2327662",
    "wikipedia": "de:Stadtmuseum Hofheim am Taunus"
  }
},
{
  "type": "way",
  "id": 195448580,
  "nodes": [
    2059026682,
    4030986641,
    2059026708,
    2059026714,
    2059026711,
    2059026702,
    2059026699,
    2059026705,
    2059026682
  ],
  "tags": {
    "addr:city": "Eppstein",
    "addr:housename": "Burgmuseum",
    "building": "public",
    "name": "Burgmuseum Eppstein",
    "tourism": "museum"
  }
},
{
  "type": "way",
  "id": 199005452,
  "nodes": [
    2090691198,
    2090691200,
    2090691196,
    2090691195,
    2090691201,
    2090691198
  ],
  "tags": {
    "addr:city": "Ginsheim-Gustavsburg",
    "building": "yes",
    "email": "info@schiffsmuehle-ginsheim.de",
    "fee": "yes",
    "image": "https://commons.wikimedia.org/wiki/File:20120513_GinsheimSchiffsmuehle1.JPG",
    "man_made": "watermill",
    "name": "Rheinschiffsmühle Ginsheim",
    "opening_hours": "We,Sa,Su 13:30-18:00",
    "operator": "Verein Historische Rheinschiffsmühle Ginsheim e.V.",
    "payment:cash": "yes",
    "phone": "+49 1573 7052722",
    "tourism": "museum",
    "website": "http://www.schiffsmuehle-ginsheim.de",
    "wheelchair": "limited"
  }
},
{
  "type": "way",
  "id": 201612604,
  "nodes": [
    2116416896,
    2116416898,
    2116416897,
    2116416899,
    2116416896
  ],
  "tags": {
    "addr:postcode": "65439",
    "building": "house",
    "tourism": "museum"
  }
},
{
  "type": "way",
  "id": 206348663,
  "nodes": [
    2163560432,
    4917627059,
    4917627178,
    4917627057,
    4917627058,
    4917627179,
    4917627180,
    4917627066,
    4917626879,
    3301466271,
    4917627067,
    4917626878,
    4917627187,
    4917627182,
    4917627186,
    4917627185,
    4917626916,
    4917627188,
    4917627184,
    4917627183,
    4917627194,
    4917626917,
    4917627189,
    4917627190,
    4917627191,
    4917627192,
    4917627193,
    4917627061,
    4917627062,
    2163560473,
    4917627063,
    2163560444,
    2163560475,
    2163560481,
    2163560489,
    2163560467,
    2163560479,
    2163560465,
    4917627177,
    2163560406,
    4917627219,
    4917627220,
    2163560435,
    4917627034,
    4917627223,
    4917627224,
    4917627222,
    2163560433,
    4917626620,
    4917627042,
    4917627041,
    4917627048,
    4917627040,
    4917627049,
    4917626619,
    4917626618,
    4917627221,
    5021438130,
    2163560457,
    4917627039,
    4917627052,
    4917627051,
    4917626997,
    2163560432
  ],
  "tags": {
    "landuse": "railway",
    "museum": "railway",
    "name": "Eisenbahnmuseum Kranichstein",
    "opening_hours": "PH,Su 10:00-16:00; Apr-Sep We 10:00-16:00",
    "start_date": "1970s",
    "tourism": "museum",
    "website": "https://www.bahnwelt.de/",
    "wheelchair": "limited",
    "wikidata": "Q1311759",
    "wikipedia": "de:Eisenbahnmuseum Darmstadt-Kranichstein"
  }
},
{
  "type": "way",
  "id": 218657153,
  "nodes": [
    2278857959,
    2278857960,
    2278857972,
    2278857971,
    2278857959
  ],
  "tags": {
    "addr:city": "Mainz",
    "addr:country": "DE",
    "addr:housename": "Museum für Mombacher Ortsgeschichte",
    "addr:housenumber": "70",
    "addr:postcode": "55120",
    "addr:street": "Emrichruhstraße",
    "building": "public",
    "name": "Museum für Mombacher Ortsgeschichte",
    "note": "ehemaliges Pumphaus des Wasserwerks",
    "tourism": "museum"
  }
},
{
  "type": "way",
  "id": 228511212,
  "nodes": [
    2371826284,
    2371826279,
    4534220803,
    2371826281,
    2371826282,
    2371826286,
    2371826284
  ],
  "tags": {
    "building": "yes",
    "name": "Museum Stadtgeschichte Kronberg",
    "tourism": "museum"
  }
},
{
  "type": "way",
  "id": 231314904,
  "nodes": [
    2397087774,
    2397087770,
    6322553993,
    6322553992,
    2397087769,
    2397087767,
    2397087766,
    2397087765,
    2397087764,
    6322553924,
    6322553925,
    6322553926,
    6322553923,
    6322553922,
    6322553927,
    6322553928,
    6322553921,
    6322553920,
    6322553929,
    6322553930,
    2397087763,
    2397087762,
    6322553931,
    6322553932,
    6322553933,
    6322553934,
    6322553935,
    6322553936,
    6322553937,
    6322553938,
    6322553939,
    6322553940,
    6322553941,
    6322553942,
    6322553943,
    6322553944,
    6322553945,
    6322553946,
    6322553947,
    6322553948,
    6322553949,
    6322553950,
    6322553951,
    6322553952,
    6322553953,
    6322553954,
    6322553955,
    6322553956,
    6322553957,
    6322553958,
    6322553959,
    6322553960,
    6322553961,
    6322553962,
    6322553963,
    6322553964,
    6322553965,
    6322553966,
    6322553967,
    6322553968,
    6322553969,
    6322553970,
    6322553971,
    6322553972,
    6322553973,
    6322553974,
    6322553975,
    6322553976,
    6322553977,
    6322553978,
    6322553979,
    6322553980,
    6322553981,
    6322553982,
    6322553983,
    6322553984,
    6322553985,
    6322553986,
    6322553987,
    6322553988,
    6322553989,
    6322615417,
    6322553919,
    6322553990,
    6322553991,
    2397087774
  ],
  "tags": {
    "addr:city": "Osthofen",
    "addr:housenumber": "38",
    "addr:postcode": "67574",
    "addr:street": "Ziegelhüttenweg",
    "building": "yes",
    "historic": "memorial",
    "tourism": "museum"
  }
},
{
  "type": "way",
  "id": 231675337,
  "nodes": [
    2400164729,
    2400164722,
    2400164702,
    2400164703,
    2400164715,
    6435415540,
    2400164729
  ],
  "tags": {
    "addr:housenumber": "97",
    "addr:street": "Friedrich-Ebert-Straße",
    "building": "yes",
    "name": "Heimatmuseum Osthofen",
    "phone": "+49 6242 915337",
    "roof:shape": "gabled",
    "tourism": "museum",
    "website": "https://www.osthofen.de/index.php?option=com_content&task=view&id=64&Itemid=97"
  }
},
{
  "type": "way",
  "id": 237483693,
  "nodes": [
    2453768852,
    2453768853,
    2453768854,
    2453768855,
    2453768857,
    2453768852
  ],
  "tags": {
    "addr:city": "Rüdesheim am Rhein",
    "addr:housenumber": "29",
    "addr:postcode": "65385",
    "addr:street": "Oberstraße",
    "building": "yes",
    "fee": "yes",
    "name": "Siegfrieds Mechanisches Musikkabinett",
    "name:de": "Siegfrieds Mechanisches Musikkabinett",
    "name:en": "Siegfried's Mechanical Music Cabinet",
    "tourism": "museum",
    "website": "https://www.smmk.de/",
    "wikidata": "Q56704085"
  }
},
{
  "type": "way",
  "id": 254399074,
  "nodes": [
    2601959854,
    2601959858,
    2601959877,
    2601959881,
    2601959869,
    2601959873,
    7036084828,
    7036084829,
    7036084830,
    7036084827,
    2601959833,
    7036084834,
    7036084833,
    7036084832,
    7036084831,
    2601959810,
    7036084825,
    7036084826,
    2601959854
  ],
  "tags": {
    "addr:city": "Bingen am Rhein",
    "addr:housenumber": "3",
    "addr:postcode": "55411",
    "addr:street": "Museumstraße",
    "building": "public",
    "name": "Museum am Strom",
    "phone": "+49 6721 184350",
    "toilets:wheelchair": "yes",
    "tourism": "museum",
    "website": "https://www.bingen.de/tourismus/kulturelle-einrichtungen-und-museen/museum-am-strom/besucherservice?item=a3dffdd1-6910-45a2-a0c4-a1bcf2ff049f",
    "wheelchair": "yes"
  }
},
{
  "type": "way",
  "id": 265793228,
  "nodes": [
    309126164,
    2543810235,
    2543810226,
    1854475769,
    864404163,
    864404199,
    1854475800,
    1854475814,
    1854475817,
    1854475836,
    1854475853,
    1854475857,
    1854475880,
    1854475872,
    1854475926,
    1854475909,
    1854475895,
    1854475878,
    2543810706,
    309126164
  ],
  "tags": {
    "name": "Jüdisches Museum",
    "name:en": "Jewish Museum",
    "toilets:wheelchair": "yes",
    "tourism": "museum",
    "website": "https://www.juedischesmuseum.de/",
    "wheelchair": "yes",
    "wikidata": "Q278571"
  }
},
{
  "type": "way",
  "id": 291832134,
  "nodes": [
    2953417478,
    2953417479,
    2953417474,
    2953417473,
    2953417478
  ],
  "tags": {
    "addr:postcode": "64546",
    "building": "yes",
    "historic": "building",
    "image": "File:Heimatmuseum Mörfelden.jpg",
    "name": "Heimatmuseum",
    "opening_hours": "Su 14:00-17:00, Tu 15:00-17:00",
    "operator": "Stadt Mörfelden",
    "tourism": "museum",
    "website": "https://www.moerfelden-walldorf.de/default.asp?action=article&ID=2273"
  }
},
{
  "type": "way",
  "id": 303991765,
  "nodes": [
    3085077575,
    3085077581,
    3085077608,
    3085077605,
    3085077601,
    3085077575
  ],
  "tags": {
    "addr:city": "Darmstadt",
    "addr:housenumber": "17",
    "addr:postcode": "64291",
    "addr:street": "Römergasse",
    "building": "yes",
    "historic": "building",
    "image": "File:DA-Wixhausen_vilaĝa_muzeo_Dorfmuseum_1.JPG",
    "name": "Dorfmuseum",
    "source": "https://de.wikipedia.org/wiki/Wixh%C3%A4user_Dorfmuseum",
    "tourism": "museum"
  }
},
{
  "type": "way",
  "id": 312451733,
  "nodes": [
    259067702,
    3183086089,
    259067703,
    259067704,
    259067701,
    3183086062,
    3183086087,
    3183086088,
    259067702
  ],
  "tags": {
    "addr:city": "Frankfurt am Main",
    "addr:country": "DE",
    "addr:housenumber": "14",
    "addr:postcode": "60431",
    "addr:street": "Wilhelm-Epstein-Straße",
    "building": "yes",
    "fee": "no",
    "name": "Geldmuseum",
    "opening_hours": "Su-Fr,PH 09:00-17:00",
    "phone": "+49 69 95663512",
    "toilets:wheelchair": "yes",
    "tourism": "museum",
    "website": "https://www.bundesbank.de/",
    "wheelchair": "yes",
    "wikidata": "Q1499511",
    "wikipedia:de": "Geldmuseum der Deutschen Bundesbank"
  }
},
{
  "type": "way",
  "id": 314686168,
  "nodes": [
    3207329171,
    3207329198,
    3207329180,
    3207329166,
    3207329171
  ],
  "tags": {
    "addr:city": "Klein-Winternheim",
    "addr:country": "DE",
    "addr:housenumber": "17",
    "addr:postcode": "55270",
    "addr:street": "Raiffeisenstraße",
    "building": "yes",
    "name": "Lebendiges Museum",
    "tourism": "museum"
  }
},
{
  "type": "way",
  "id": 370478242,
  "nodes": [
    3741748173,
    3741748174,
    3741748177,
    3741748175,
    3741748173
  ],
  "tags": {
    "building": "yes",
    "name": "technikum29",
    "tourism": "museum"
  }
},
{
  "type": "way",
  "id": 370478243,
  "nodes": [
    3741748173,
    3741748175,
    3741748176,
    738157695,
    738157697,
    3741748166,
    3741748173
  ],
  "tags": {
    "building": "yes",
    "name": "technikum29",
    "tourism": "museum"
  }
},
{
  "type": "way",
  "id": 390851258,
  "nodes": [
    3939910120,
    3939910119,
    3939910121,
    3939910127,
    3939910128,
    3939910129,
    3939910130,
    3939910131,
    3939910132,
    3939945565,
    3939910133,
    2636039144,
    2636039122,
    2636039108,
    2636039096,
    2636039088,
    3939910125,
    3939910124,
    3939910122,
    3939910120
  ],
  "tags": {
    "addr:city": "Frankfurt am Main",
    "addr:country": "DE",
    "addr:housenumber": "133",
    "addr:postcode": "60529",
    "addr:street": "Rheinlandstraße",
    "alt_name": "Westhalle",
    "building": "yes",
    "name": "Verkehrsmuseum Frankfurt am Main",
    "opening_hours": "Su 10:00-17:00; PH 10:00-17:00",
    "operator": "Verkehrsgesellschaft Frankfur am Main / Historische Straßenbahn der Stadt Frankfurt e.V.",
    "tourism": "museum",
    "wheelchair": "yes",
    "wikidata": "Q2516360"
  }
},
{
  "type": "way",
  "id": 436710446,
  "nodes": [
    4345924739,
    4345924740,
    2031903200,
    4345924741,
    2031903216,
    4345924742,
    4345924739
  ],
  "tags": {
    "building": "yes",
    "tourism": "museum"
  }
},
{
  "type": "way",
  "id": 485039354,
  "nodes": [
    4777959798,
    4777959799,
    4777959800,
    4777959801,
    4777959798
  ],
  "tags": {
    "addr:city": "Glashütten",
    "addr:housenumber": "11",
    "addr:postcode": "61479",
    "addr:street": "Langstraße",
    "addr:suburb": "Schloßborn",
    "building": "yes",
    "name": "Heimatmuseum (Alte Schule/Altes Rathaus)",
    "operator": "Heimat- und Geschichtsverein",
    "tourism": "museum"
  }
},
{
  "type": "way",
  "id": 554029671,
  "nodes": [
    5347143744,
    5347143745,
    5347143746,
    5347143747,
    5347143749,
    5347143750,
    5347143751,
    5347143748,
    5347143744
  ],
  "tags": {
    "building": "museum",
    "building:levels": "4",
    "name": "Römisch-Germanisches Zentralmuseum",
    "roof:levels": "0",
    "roof:shape": "flat",
    "tourism": "museum",
    "wikidata": "Q878029"
  }
},
{
  "type": "way",
  "id": 632222013,
  "nodes": [
    5969474914,
    5969474913,
    1854475799,
    864404270,
    864404221,
    864404141,
    864404179,
    864404288,
    864404150,
    864404272,
    864404098,
    864404234,
    864404250,
    1854475797,
    5969474912,
    5969474911,
    5969474914
  ],
  "tags": {
    "building": "yes",
    "description": "Neubau Jüdisches Museum",
    "name": "Jüdisches Museum",
    "tourism": "museum"
  }
},
{
  "type": "way",
  "id": 670869350,
  "nodes": [
    6282363715,
    6282363716,
    6282363717,
    6282363718,
    6282363715
  ],
  "tags": {
    "addr:city": "Bingen am Rhein",
    "addr:housenumber": "9",
    "addr:postcode": "55411",
    "addr:street": "Freidhof",
    "building": "yes",
    "name": "Stephan George Haus",
    "opening_hours": "Tu,Th,Sa 14:00-17:00",
    "operator": "Stefan-George-Gesellschaft e.V.",
    "tourism": "museum",
    "website": "https://www.bingen.de/tourismus/kulturelle-einrichtungen-und-museen/stefan-george-museum"
  }
},
{
  "type": "way",
  "id": 689507214,
  "nodes": [
    489979516,
    489979517,
    1853541350,
    1853541347,
    1853086784,
    489979510,
    1853086790,
    489979509,
    489979506,
    489979520,
    1853541503,
    1853541499,
    1853541496,
    1853541489,
    1853541488,
    1853541481,
    1853541475,
    1853541474,
    489979523,
    489979525,
    489979522,
    489979494,
    489979500,
    6270093541,
    1853086801,
    860226508,
    6270497454,
    489979590,
    6270497453,
    860226545,
    6270497449,
    6270497451,
    6270497450,
    1853541501,
    6270497452,
    6270497417,
    860226589,
    860226554,
    860226601,
    860233491,
    6268283152,
    860233477,
    860233481,
    860233485,
    860233472,
    860233469,
    860233478,
    860233488,
    860233490,
    860233487,
    860233475,
    860233474,
    860233480,
    860233473,
    860233482,
    860233476,
    860233483,
    860233484,
    860233492,
    860233486,
    860233470,
    489979589,
    6270497427,
    860226579,
    6270497426,
    860226494,
    6270497425,
    489979596,
    6270497424,
    860226552,
    6270093543,
    1851750736,
    489979501,
    489979556,
    489979559,
    489979497,
    489979503,
    489979508,
    489979549,
    1853541324,
    1853541322,
    489979516
  ],
  "tags": {
    "addr:housenumber": "20",
    "addr:street": "Saalgasse",
    "building": "yes",
    "name": "Schirn Kunsthalle",
    "toilets:wheelchair": "yes",
    "tourism": "museum",
    "website": "https://www.schirn.de/",
    "wheelchair": "yes",
    "wikidata": "Q176293"
  }
},
{
  "type": "way",
  "id": 719266442,
  "nodes": [
    6752686348,
    6752686349,
    6752686350,
    6752686351,
    6752686348
  ],
  "tags": {
    "addr:city": "Mainz-Kastel",
    "addr:housenumber": "2",
    "addr:postcode": "55252",
    "addr:street": "Ludwig-Wolker-Straße",
    "building": "commercial",
    "email": "info@startimer.de",
    "museum": "technology",
    "museum_type": "private",
    "name": "Startimer",
    "opening_hours": "We-Sa 10:00-17:00",
    "operator": "Startimer GmbH",
    "operator:type": "private",
    "phone": "+49 6134 258 9940",
    "tourism": "museum",
    "website": "http://www.startimer.de/"
  }
},
{
  "type": "relation",
  "id": 1126033,
  "members": [
    {
      "type": "way",
      "ref": 72473813,
      "role": "outer"
    },
    {
      "type": "way",
      "ref": 72473815,
      "role": "inner"
    }
  ],
  "tags": {
    "addr:city": "Frankfurt am Main",
    "addr:country": "DE",
    "addr:housenumber": "1",
    "addr:postcode": "60311",
    "addr:street": "Karmelitergasse",
    "building": "yes",
    "name": "Archäologisches Museum",
    "phone": "+49 69 21235896",
    "toilets:wheelchair": "yes",
    "tourism": "museum",
    "type": "multipolygon",
    "website": "http://www.archaeologisches-museum.frankfurt.de/",
    "wheelchair": "limited",
    "wheelchair:description": "Barrierefreier Zugang seitlich vom Haupteingang, nicht alle Exponate barrierefrei zu besichtigen (Gruft und Abteilung \"Alter Orient\")."
  }
},
{
  "type": "relation",
  "id": 1337437,
  "members": [
    {
      "type": "way",
      "ref": 91117646,
      "role": "outer"
    }
  ],
  "tags": {
    "museum": "railway",
    "name": "Feldbahnmuseum Guldental",
    "note": "Spurweite laut http://www.waldeisenbahn.de/de/links/eisenbahnlinks#600mm",
    "opening_hours": "1. Mai, 3. Oktober und von Juni bis September jeden ersten Sonntag im Monat",
    "operator": "Gerhard & Wolfdieter Faust",
    "source": "Bing",
    "start_date": "2000",
    "subject": "railway",
    "tourism": "museum",
    "type": "multipolygon",
    "website": "http://www.feldbahnmuseum-guldental.de"
  }
},
{
  "type": "relation",
  "id": 2198921,
  "members": [
    {
      "type": "way",
      "ref": 165023748,
      "role": "outer"
    },
    {
      "type": "way",
      "ref": 165023756,
      "role": "inner"
    },
    {
      "type": "way",
      "ref": 304882915,
      "role": "inner"
    },
    {
      "type": "way",
      "ref": 304882912,
      "role": "inner"
    }
  ],
  "tags": {
    "building": "yes",
    "name": "Hessisches Landesmuseum",
    "opening_hours": "Tu,Th,Fr 10:00-18:00, We 10:00-20:00, Sa,Su,PH 11:00-17:00",
    "source": "aerowest",
    "tourism": "museum",
    "type": "multipolygon",
    "website": "https://www.hlmd.de/",
    "wheelchair": "yes",
    "wikidata": "Q452362",
    "wikipedia": "de:Hessisches Landesmuseum Darmstadt"
  }
},
{
  "type": "relation",
  "id": 8171080,
  "members": [
    {
      "type": "way",
      "ref": 433226419,
      "role": ""
    },
    {
      "type": "way",
      "ref": 433226418,
      "role": ""
    },
    {
      "type": "way",
      "ref": 174545092,
      "role": ""
    },
    {
      "type": "way",
      "ref": 174500423,
      "role": ""
    },
    {
      "type": "way",
      "ref": 148834019,
      "role": ""
    },
    {
      "type": "way",
      "ref": 72677586,
      "role": ""
    },
    {
      "type": "way",
      "ref": 174500422,
      "role": ""
    },
    {
      "type": "way",
      "ref": 174500421,
      "role": ""
    },
    {
      "type": "way",
      "ref": 148834018,
      "role": ""
    }
  ],
  "tags": {
    "name": "Historisches Museum Frankfurt",
    "tourism": "museum",
    "type": "site"
  }
},
{
  "type": "relation",
  "id": 10053552,
  "members": [
    {
      "type": "way",
      "ref": 514182391,
      "role": "outer"
    },
    {
      "type": "way",
      "ref": 108747626,
      "role": "outer"
    },
    {
      "type": "way",
      "ref": 514182393,
      "role": "outer"
    },
    {
      "type": "way",
      "ref": 514182389,
      "role": "outer"
    }
  ],
  "tags": {
    "building": "yes",
    "name": "Schlossparkmuseum",
    "toilets:wheelchair": "yes",
    "tourism": "museum",
    "type": "multipolygon",
    "wheelchair": "yes"
  }
},
{
  "type": "relation",
  "id": 10166298,
  "members": [
    {
      "type": "way",
      "ref": 174501344,
      "role": "outer"
    },
    {
      "type": "way",
      "ref": 174501385,
      "role": "outer"
    }
  ],
  "tags": {
    "addr:city": "Frankfurt am Main",
    "addr:country": "DE",
    "addr:housenumber": "17-19;21",
    "addr:postcode": "60311",
    "addr:street": "Großer Hirschgraben",
    "building": "yes",
    "name": "Deutsche Romantik-Museum",
    "tourism": "museum",
    "type": "multipolygon"
  }
},
{
  "type": "relation",
  "id": 10247658,
  "members": [
    {
      "type": "way",
      "ref": 174503730,
      "role": "outer"
    },
    {
      "type": "way",
      "ref": 174503729,
      "role": "outer"
    }
  ],
  "tags": {
    "alt_name": "Frankfurter Dom",
    "building": "yes",
    "building:levels": "2",
    "building:material": "stone",
    "building:part": "yes",
    "historic": "yes",
    "name": "Dommuseum",
    "tourism": "museum",
    "type": "multipolygon",
    "wheelchair": "yes",
    "wikidata": "Q1238556"
  }
},
{
  "type": "node",
  "id": 1246899538,
  "lat": 49.8454567,
  "lon": 7.8470034
},
{
  "type": "node",
  "id": 1246899544,
  "lat": 49.8466142,
  "lon": 7.8502988
},
{
  "type": "node",
  "id": 1246899565,
  "lat": 49.8456152,
  "lon": 7.8472456
},
{
  "type": "node",
  "id": 1246899569,
  "lat": 49.8460348,
  "lon": 7.8468332
},
{
  "type": "node",
  "id": 1246899600,
  "lat": 49.8459469,
  "lon": 7.8467236
},
{
  "type": "node",
  "id": 1246899603,
  "lat": 49.8466178,
  "lon": 7.8477713
},
{
  "type": "node",
  "id": 1246899614,
  "lat": 49.8464937,
  "lon": 7.8479568
},
{
  "type": "node",
  "id": 1246899647,
  "lat": 49.8459107,
  "lon": 7.8470187
},
{
  "type": "node",
  "id": 1246899653,
  "lat": 49.8466444,
  "lon": 7.8506265
},
{
  "type": "node",
  "id": 1246899679,
  "lat": 49.8467938,
  "lon": 7.8505934
},
{
  "type": "node",
  "id": 1246899682,
  "lat": 49.8457884,
  "lon": 7.8464814
},
{
  "type": "node",
  "id": 1246899710,
  "lat": 49.8467636,
  "lon": 7.8502657
},
{
  "type": "node",
  "id": 5024019998,
  "lat": 49.8466220,
  "lon": 7.8503881
},
{
  "type": "node",
  "id": 5024019999,
  "lat": 49.8464443,
  "lon": 7.8504305
},
{
  "type": "node",
  "id": 5024020000,
  "lat": 49.8464613,
  "lon": 7.8506011
},
{
  "type": "node",
  "id": 5024020001,
  "lat": 49.8466390,
  "lon": 7.8505586
},
{
  "type": "node",
  "id": 5024020002,
  "lat": 49.8467131,
  "lon": 7.8502769
},
{
  "type": "node",
  "id": 5024020003,
  "lat": 49.8467058,
  "lon": 7.8501993
},
{
  "type": "node",
  "id": 5024020004,
  "lat": 49.8466331,
  "lon": 7.8502198
},
{
  "type": "node",
  "id": 5024020005,
  "lat": 49.8466404,
  "lon": 7.8502930
},
{
  "type": "node",
  "id": 5024020006,
  "lat": 49.8467520,
  "lon": 7.8506027
},
{
  "type": "node",
  "id": 5024020007,
  "lat": 49.8467603,
  "lon": 7.8506872
},
{
  "type": "node",
  "id": 5024020008,
  "lat": 49.8466752,
  "lon": 7.8507039
},
{
  "type": "node",
  "id": 5024020009,
  "lat": 49.8466691,
  "lon": 7.8506211
},
{
  "type": "node",
  "id": 5077704596,
  "lat": 49.8804788,
  "lon": 7.8505404
},
{
  "type": "node",
  "id": 1057576599,
  "lat": 49.8796603,
  "lon": 7.8520948
},
{
  "type": "node",
  "id": 1057807775,
  "lat": 49.8821622,
  "lon": 7.8514009
},
{
  "type": "node",
  "id": 1057807799,
  "lat": 49.8799635,
  "lon": 7.8516439
},
{
  "type": "node",
  "id": 1057807802,
  "lat": 49.8822778,
  "lon": 7.8525784
},
{
  "type": "node",
  "id": 1057819630,
  "lat": 49.8800177,
  "lon": 7.8515005
},
{
  "type": "node",
  "id": 5077704581,
  "lat": 49.8794838,
  "lon": 7.8514641
},
{
  "type": "node",
  "id": 5077704582,
  "lat": 49.8796584,
  "lon": 7.8512737
},
{
  "type": "node",
  "id": 5077704595,
  "lat": 49.8821082,
  "lon": 7.8513214
},
{
  "type": "node",
  "id": 5077704597,
  "lat": 49.8804457,
  "lon": 7.8523721
},
{
  "type": "node",
  "id": 5077704598,
  "lat": 49.8809460,
  "lon": 7.8527650
},
{
  "type": "node",
  "id": 5077704599,
  "lat": 49.8817860,
  "lon": 7.8530225
},
{
  "type": "node",
  "id": 5077704600,
  "lat": 49.8818603,
  "lon": 7.8530198
},
{
  "type": "node",
  "id": 5077704601,
  "lat": 49.8820573,
  "lon": 7.8529555
},
{
  "type": "node",
  "id": 5077704602,
  "lat": 49.8821317,
  "lon": 7.8529394
},
{
  "type": "node",
  "id": 5077704603,
  "lat": 49.8822086,
  "lon": 7.8529796
},
{
  "type": "node",
  "id": 5077704604,
  "lat": 49.8823149,
  "lon": 7.8530896
},
{
  "type": "node",
  "id": 5077704605,
  "lat": 49.8824609,
  "lon": 7.8533149
},
{
  "type": "node",
  "id": 5077704606,
  "lat": 49.8826069,
  "lon": 7.8536394
},
{
  "type": "node",
  "id": 5077704610,
  "lat": 49.8824830,
  "lon": 7.8529352
},
{
  "type": "node",
  "id": 5077704607,
  "lat": 49.8829077,
  "lon": 7.8546050
},
{
  "type": "node",
  "id": 5077704608,
  "lat": 49.8830580,
  "lon": 7.8544924
},
{
  "type": "node",
  "id": 5077704609,
  "lat": 49.8828541,
  "lon": 7.8539506
},
{
  "type": "node",
  "id": 1531408332,
  "lat": 49.9113333,
  "lon": 7.8195460
},
{
  "type": "node",
  "id": 1531408336,
  "lat": 49.9113875,
  "lon": 7.8194010
},
{
  "type": "node",
  "id": 1531408342,
  "lat": 49.9114456,
  "lon": 7.8192457
},
{
  "type": "node",
  "id": 1531408364,
  "lat": 49.9116298,
  "lon": 7.8197891
},
{
  "type": "node",
  "id": 1531408367,
  "lat": 49.9117422,
  "lon": 7.8195145
},
{
  "type": "node",
  "id": 1531408371,
  "lat": 49.9117643,
  "lon": 7.8197833
},
{
  "type": "node",
  "id": 1531408373,
  "lat": 49.9118029,
  "lon": 7.8196689
},
{
  "type": "node",
  "id": 2400164702,
  "lat": 49.7032242,
  "lon": 8.3157390
},
{
  "type": "node",
  "id": 2400164703,
  "lat": 49.7032316,
  "lon": 8.3155810
},
{
  "type": "node",
  "id": 2400164715,
  "lat": 49.7033067,
  "lon": 8.3155837
},
{
  "type": "node",
  "id": 2400164722,
  "lat": 49.7033183,
  "lon": 8.3157458
},
{
  "type": "node",
  "id": 2400164729,
  "lat": 49.7033241,
  "lon": 8.3155838
},
{
  "type": "node",
  "id": 6435415540,
  "lat": 49.7033199,
  "lon": 8.3155832
},
{
  "type": "node",
  "id": 2397087762,
  "lat": 49.7077378,
  "lon": 8.3257557
},
{
  "type": "node",
  "id": 2397087763,
  "lat": 49.7077442,
  "lon": 8.3259230
},
{
  "type": "node",
  "id": 2397087764,
  "lat": 49.7078539,
  "lon": 8.3259160
},
{
  "type": "node",
  "id": 2397087765,
  "lat": 49.7078594,
  "lon": 8.3261040
},
{
  "type": "node",
  "id": 2397087766,
  "lat": 49.7080909,
  "lon": 8.3260906
},
{
  "type": "node",
  "id": 2397087767,
  "lat": 49.7080882,
  "lon": 8.3260586
},
{
  "type": "node",
  "id": 2397087769,
  "lat": 49.7081078,
  "lon": 8.3260562
},
{
  "type": "node",
  "id": 2397087770,
  "lat": 49.7081650,
  "lon": 8.3260510
},
{
  "type": "node",
  "id": 2397087774,
  "lat": 49.7082446,
  "lon": 8.3260429
},
{
  "type": "node",
  "id": 6322553919,
  "lat": 49.7082444,
  "lon": 8.3260301
},
{
  "type": "node",
  "id": 6322553920,
  "lat": 49.7077533,
  "lon": 8.3259224
},
{
  "type": "node",
  "id": 6322553921,
  "lat": 49.7077890,
  "lon": 8.3259202
},
{
  "type": "node",
  "id": 6322553922,
  "lat": 49.7077995,
  "lon": 8.3259195
},
{
  "type": "node",
  "id": 6322553923,
  "lat": 49.7078211,
  "lon": 8.3259181
},
{
  "type": "node",
  "id": 6322553924,
  "lat": 49.7078304,
  "lon": 8.3259175
},
{
  "type": "node",
  "id": 6322553925,
  "lat": 49.7078304,
  "lon": 8.3259230
},
{
  "type": "node",
  "id": 6322553926,
  "lat": 49.7078212,
  "lon": 8.3259235
},
{
  "type": "node",
  "id": 6322553927,
  "lat": 49.7077996,
  "lon": 8.3259258
},
{
  "type": "node",
  "id": 6322553928,
  "lat": 49.7077894,
  "lon": 8.3259265
},
{
  "type": "node",
  "id": 6322553929,
  "lat": 49.7077535,
  "lon": 8.3259286
},
{
  "type": "node",
  "id": 6322553930,
  "lat": 49.7077442,
  "lon": 8.3259286
},
{
  "type": "node",
  "id": 6322553931,
  "lat": 49.7077377,
  "lon": 8.3257502
},
{
  "type": "node",
  "id": 6322553932,
  "lat": 49.7077494,
  "lon": 8.3257491
},
{
  "type": "node",
  "id": 6322553933,
  "lat": 49.7077496,
  "lon": 8.3257525
},
{
  "type": "node",
  "id": 6322553934,
  "lat": 49.7077853,
  "lon": 8.3257497
},
{
  "type": "node",
  "id": 6322553935,
  "lat": 49.7077852,
  "lon": 8.3257457
},
{
  "type": "node",
  "id": 6322553936,
  "lat": 49.7077956,
  "lon": 8.3257446
},
{
  "type": "node",
  "id": 6322553937,
  "lat": 49.7077959,
  "lon": 8.3257487
},
{
  "type": "node",
  "id": 6322553938,
  "lat": 49.7078469,
  "lon": 8.3257440
},
{
  "type": "node",
  "id": 6322553939,
  "lat": 49.7078469,
  "lon": 8.3257401
},
{
  "type": "node",
  "id": 6322553940,
  "lat": 49.7078574,
  "lon": 8.3257386
},
{
  "type": "node",
  "id": 6322553941,
  "lat": 49.7078576,
  "lon": 8.3257427
},
{
  "type": "node",
  "id": 6322553942,
  "lat": 49.7078769,
  "lon": 8.3257412
},
{
  "type": "node",
  "id": 6322553943,
  "lat": 49.7078767,
  "lon": 8.3257367
},
{
  "type": "node",
  "id": 6322553944,
  "lat": 49.7078865,
  "lon": 8.3257356
},
{
  "type": "node",
  "id": 6322553945,
  "lat": 49.7078870,
  "lon": 8.3257405
},
{
  "type": "node",
  "id": 6322553946,
  "lat": 49.7079075,
  "lon": 8.3257388
},
{
  "type": "node",
  "id": 6322553947,
  "lat": 49.7079072,
  "lon": 8.3257348
},
{
  "type": "node",
  "id": 6322553948,
  "lat": 49.7079185,
  "lon": 8.3257335
},
{
  "type": "node",
  "id": 6322553949,
  "lat": 49.7079186,
  "lon": 8.3257382
},
{
  "type": "node",
  "id": 6322553950,
  "lat": 49.7079395,
  "lon": 8.3257369
},
{
  "type": "node",
  "id": 6322553951,
  "lat": 49.7079391,
  "lon": 8.3257315
},
{
  "type": "node",
  "id": 6322553952,
  "lat": 49.7079500,
  "lon": 8.3257305
},
{
  "type": "node",
  "id": 6322553953,
  "lat": 49.7079501,
  "lon": 8.3257363
},
{
  "type": "node",
  "id": 6322553954,
  "lat": 49.7079701,
  "lon": 8.3257354
},
{
  "type": "node",
  "id": 6322553955,
  "lat": 49.7079700,
  "lon": 8.3257293
},
{
  "type": "node",
  "id": 6322553956,
  "lat": 49.7079811,
  "lon": 8.3257288
},
{
  "type": "node",
  "id": 6322553957,
  "lat": 49.7079815,
  "lon": 8.3257339
},
{
  "type": "node",
  "id": 6322553958,
  "lat": 49.7080027,
  "lon": 8.3257326
},
{
  "type": "node",
  "id": 6322553959,
  "lat": 49.7080024,
  "lon": 8.3257281
},
{
  "type": "node",
  "id": 6322553960,
  "lat": 49.7080112,
  "lon": 8.3257268
},
{
  "type": "node",
  "id": 6322553961,
  "lat": 49.7080116,
  "lon": 8.3257324
},
{
  "type": "node",
  "id": 6322553962,
  "lat": 49.7080326,
  "lon": 8.3257309
},
{
  "type": "node",
  "id": 6322553963,
  "lat": 49.7080323,
  "lon": 8.3257253
},
{
  "type": "node",
  "id": 6322553964,
  "lat": 49.7080424,
  "lon": 8.3257241
},
{
  "type": "node",
  "id": 6322553965,
  "lat": 49.7080427,
  "lon": 8.3257298
},
{
  "type": "node",
  "id": 6322553966,
  "lat": 49.7080774,
  "lon": 8.3257260
},
{
  "type": "node",
  "id": 6322553967,
  "lat": 49.7080772,
  "lon": 8.3257213
},
{
  "type": "node",
  "id": 6322553968,
  "lat": 49.7080863,
  "lon": 8.3257208
},
{
  "type": "node",
  "id": 6322553969,
  "lat": 49.7080866,
  "lon": 8.3257264
},
{
  "type": "node",
  "id": 6322553970,
  "lat": 49.7081162,
  "lon": 8.3257238
},
{
  "type": "node",
  "id": 6322553971,
  "lat": 49.7081159,
  "lon": 8.3257182
},
{
  "type": "node",
  "id": 6322553972,
  "lat": 49.7081231,
  "lon": 8.3257176
},
{
  "type": "node",
  "id": 6322553973,
  "lat": 49.7081237,
  "lon": 8.3257234
},
{
  "type": "node",
  "id": 6322553974,
  "lat": 49.7081441,
  "lon": 8.3257217
},
{
  "type": "node",
  "id": 6322553975,
  "lat": 49.7081438,
  "lon": 8.3257157
},
{
  "type": "node",
  "id": 6322553976,
  "lat": 49.7081527,
  "lon": 8.3257149
},
{
  "type": "node",
  "id": 6322553977,
  "lat": 49.7081533,
  "lon": 8.3257208
},
{
  "type": "node",
  "id": 6322553978,
  "lat": 49.7081707,
  "lon": 8.3257191
},
{
  "type": "node",
  "id": 6322553979,
  "lat": 49.7081704,
  "lon": 8.3257133
},
{
  "type": "node",
  "id": 6322553980,
  "lat": 49.7081791,
  "lon": 8.3257124
},
{
  "type": "node",
  "id": 6322553981,
  "lat": 49.7081790,
  "lon": 8.3257191
},
{
  "type": "node",
  "id": 6322553982,
  "lat": 49.7081984,
  "lon": 8.3257174
},
{
  "type": "node",
  "id": 6322553983,
  "lat": 49.7081980,
  "lon": 8.3257109
},
{
  "type": "node",
  "id": 6322553984,
  "lat": 49.7082080,
  "lon": 8.3257100
},
{
  "type": "node",
  "id": 6322553985,
  "lat": 49.7082082,
  "lon": 8.3257167
},
{
  "type": "node",
  "id": 6322553986,
  "lat": 49.7082352,
  "lon": 8.3257149
},
{
  "type": "node",
  "id": 6322553987,
  "lat": 49.7082349,
  "lon": 8.3257076
},
{
  "type": "node",
  "id": 6322553988,
  "lat": 49.7082443,
  "lon": 8.3257067
},
{
  "type": "node",
  "id": 6322553989,
  "lat": 49.7082446,
  "lon": 8.3257236
},
{
  "type": "node",
  "id": 6322553990,
  "lat": 49.7082504,
  "lon": 8.3260298
},
{
  "type": "node",
  "id": 6322553991,
  "lat": 49.7082507,
  "lon": 8.3260427
},
{
  "type": "node",
  "id": 6322553992,
  "lat": 49.7081084,
  "lon": 8.3261054
},
{
  "type": "node",
  "id": 6322553993,
  "lat": 49.7081653,
  "lon": 8.3261019
},
{
  "type": "node",
  "id": 6322615417,
  "lat": 49.7082380,
  "lon": 8.3257241
},
{
  "type": "node",
  "id": 598453988,
  "lat": 49.7474328,
  "lon": 8.1123320
},
{
  "type": "node",
  "id": 598453989,
  "lat": 49.7472587,
  "lon": 8.1126629
},
{
  "type": "node",
  "id": 598453991,
  "lat": 49.7472294,
  "lon": 8.1124793
},
{
  "type": "node",
  "id": 598453992,
  "lat": 49.7474767,
  "lon": 8.1124771
},
{
  "type": "node",
  "id": 1889506870,
  "lat": 49.7515758,
  "lon": 8.4817221
},
{
  "type": "node",
  "id": 1889506872,
  "lat": 49.7515845,
  "lon": 8.4818433
},
{
  "type": "node",
  "id": 1889506876,
  "lat": 49.7517391,
  "lon": 8.4818891
},
{
  "type": "node",
  "id": 1889506877,
  "lat": 49.7517646,
  "lon": 8.4822426
},
{
  "type": "node",
  "id": 1889506878,
  "lat": 49.7518461,
  "lon": 8.4816752
},
{
  "type": "node",
  "id": 1889506879,
  "lat": 49.7518549,
  "lon": 8.4817964
},
{
  "type": "node",
  "id": 1889506880,
  "lat": 49.7518604,
  "lon": 8.4818680
},
{
  "type": "node",
  "id": 1889506881,
  "lat": 49.7518860,
  "lon": 8.4822216
},
{
  "type": "node",
  "id": 253808840,
  "lat": 49.8161719,
  "lon": 8.4590736
},
{
  "type": "node",
  "id": 254535115,
  "lat": 49.8160551,
  "lon": 8.4591792
},
{
  "type": "node",
  "id": 254535119,
  "lat": 49.8157527,
  "lon": 8.4583763
},
{
  "type": "node",
  "id": 254535120,
  "lat": 49.8158694,
  "lon": 8.4582706
},
{
  "type": "node",
  "id": 412297663,
  "lat": 49.8628744,
  "lon": 8.6536161
},
{
  "type": "node",
  "id": 412297664,
  "lat": 49.8628517,
  "lon": 8.6538649
},
{
  "type": "node",
  "id": 412297665,
  "lat": 49.8629043,
  "lon": 8.6539130
},
{
  "type": "node",
  "id": 412297666,
  "lat": 49.8630398,
  "lon": 8.6536524
},
{
  "type": "node",
  "id": 1216871274,
  "lat": 49.8630588,
  "lon": 8.6537296
},
{
  "type": "node",
  "id": 1216871283,
  "lat": 49.8629076,
  "lon": 8.6538771
},
{
  "type": "node",
  "id": 1216871322,
  "lat": 49.8630333,
  "lon": 8.6537240
},
{
  "type": "node",
  "id": 1216871335,
  "lat": 49.8630394,
  "lon": 8.6539426
},
{
  "type": "node",
  "id": 1766058038,
  "lat": 49.8746404,
  "lon": 8.6530017
},
{
  "type": "node",
  "id": 1766058041,
  "lat": 49.8746592,
  "lon": 8.6531385
},
{
  "type": "node",
  "id": 1766058044,
  "lat": 49.8746734,
  "lon": 8.6531338
},
{
  "type": "node",
  "id": 1766058045,
  "lat": 49.8746793,
  "lon": 8.6533988
},
{
  "type": "node",
  "id": 1766058048,
  "lat": 49.8747085,
  "lon": 8.6533892
},
{
  "type": "node",
  "id": 1766058049,
  "lat": 49.8748214,
  "lon": 8.6529419
},
{
  "type": "node",
  "id": 1766058050,
  "lat": 49.8747154,
  "lon": 8.6536622
},
{
  "type": "node",
  "id": 1766058053,
  "lat": 49.8747447,
  "lon": 8.6536525
},
{
  "type": "node",
  "id": 1766058054,
  "lat": 49.8747658,
  "lon": 8.6539132
},
{
  "type": "node",
  "id": 1766058056,
  "lat": 49.8747799,
  "lon": 8.6539085
},
{
  "type": "node",
  "id": 1766058058,
  "lat": 49.8748030,
  "lon": 8.6532330
},
{
  "type": "node",
  "id": 1766058060,
  "lat": 49.8747850,
  "lon": 8.6540530
},
{
  "type": "node",
  "id": 1766058066,
  "lat": 49.8748212,
  "lon": 8.6533673
},
{
  "type": "node",
  "id": 1766058070,
  "lat": 49.8748409,
  "lon": 8.6540345
},
{
  "type": "node",
  "id": 1766058073,
  "lat": 49.8748660,
  "lon": 8.6542172
},
{
  "type": "node",
  "id": 1766058078,
  "lat": 49.8750201,
  "lon": 8.6538428
},
{
  "type": "node",
  "id": 1766058084,
  "lat": 49.8749060,
  "lon": 8.6529140
},
{
  "type": "node",
  "id": 1766058090,
  "lat": 49.8749707,
  "lon": 8.6541405
},
{
  "type": "node",
  "id": 1766058091,
  "lat": 49.8749763,
  "lon": 8.6541807
},
{
  "type": "node",
  "id": 1766058093,
  "lat": 49.8750586,
  "lon": 8.6528374
},
{
  "type": "node",
  "id": 1766058094,
  "lat": 49.8750621,
  "lon": 8.6528624
},
{
  "type": "node",
  "id": 1766058096,
  "lat": 49.8750863,
  "lon": 8.6529889
},
{
  "type": "node",
  "id": 1766058099,
  "lat": 49.8751235,
  "lon": 8.6532700
},
{
  "type": "node",
  "id": 1766058101,
  "lat": 49.8751575,
  "lon": 8.6535049
},
{
  "type": "node",
  "id": 1766058103,
  "lat": 49.8751958,
  "lon": 8.6537856
},
{
  "type": "node",
  "id": 1766058105,
  "lat": 49.8752460,
  "lon": 8.6527755
},
{
  "type": "node",
  "id": 1766058107,
  "lat": 49.8752462,
  "lon": 8.6529453
},
{
  "type": "node",
  "id": 1766058109,
  "lat": 49.8752658,
  "lon": 8.6540431
},
{
  "type": "node",
  "id": 1766058110,
  "lat": 49.8752679,
  "lon": 8.6540588
},
{
  "type": "node",
  "id": 1766058112,
  "lat": 49.8752683,
  "lon": 8.6529380
},
{
  "type": "node",
  "id": 1766058117,
  "lat": 49.8753526,
  "lon": 8.6537199
},
{
  "type": "node",
  "id": 1766058118,
  "lat": 49.8753605,
  "lon": 8.6538911
},
{
  "type": "node",
  "id": 1766058119,
  "lat": 49.8753748,
  "lon": 8.6537126
},
{
  "type": "node",
  "id": 1766058121,
  "lat": 49.8753786,
  "lon": 8.6540223
},
{
  "type": "node",
  "id": 1766058123,
  "lat": 49.8753977,
  "lon": 8.6538788
},
{
  "type": "node",
  "id": 2904132929,
  "lat": 49.8746952,
  "lon": 8.6535150
},
{
  "type": "node",
  "id": 3094655834,
  "lat": 49.8747958,
  "lon": 8.6529504
},
{
  "type": "node",
  "id": 3094655835,
  "lat": 49.8748781,
  "lon": 8.6532085
},
{
  "type": "node",
  "id": 3094655836,
  "lat": 49.8748963,
  "lon": 8.6533428
},
{
  "type": "node",
  "id": 3094655837,
  "lat": 49.8749590,
  "lon": 8.6531906
},
{
  "type": "node",
  "id": 3094655838,
  "lat": 49.8749757,
  "lon": 8.6533171
},
{
  "type": "node",
  "id": 3094655839,
  "lat": 49.8749818,
  "lon": 8.6535620
},
{
  "type": "node",
  "id": 3094655840,
  "lat": 49.8750101,
  "lon": 8.6530133
},
{
  "type": "node",
  "id": 3094655841,
  "lat": 49.8750186,
  "lon": 8.6531716
},
{
  "type": "node",
  "id": 3094655842,
  "lat": 49.8750270,
  "lon": 8.6531408
},
{
  "type": "node",
  "id": 1776420377,
  "lat": 49.8719284,
  "lon": 8.6590921
},
{
  "type": "node",
  "id": 1776420378,
  "lat": 49.8719375,
  "lon": 8.6590167
},
{
  "type": "node",
  "id": 1776420379,
  "lat": 49.8719775,
  "lon": 8.6591064
},
{
  "type": "node",
  "id": 1776420380,
  "lat": 49.8719866,
  "lon": 8.6590310
},
{
  "type": "node",
  "id": 694216072,
  "lat": 49.8808566,
  "lon": 8.6363802
},
{
  "type": "node",
  "id": 694216074,
  "lat": 49.8809065,
  "lon": 8.6361759
},
{
  "type": "node",
  "id": 694216077,
  "lat": 49.8812244,
  "lon": 8.6362438
},
{
  "type": "node",
  "id": 694216078,
  "lat": 49.8811600,
  "lon": 8.6362060
},
{
  "type": "node",
  "id": 694216079,
  "lat": 49.8811993,
  "lon": 8.6363466
},
{
  "type": "node",
  "id": 694216080,
  "lat": 49.8811346,
  "lon": 8.6363101
},
{
  "type": "node",
  "id": 694216083,
  "lat": 49.8815685,
  "lon": 8.6365638
},
{
  "type": "node",
  "id": 694216085,
  "lat": 49.8815183,
  "lon": 8.6367694
},
{
  "type": "node",
  "id": 1643452387,
  "lat": 49.8809349,
  "lon": 8.6364262
},
{
  "type": "node",
  "id": 451845817,
  "lat": 49.8797152,
  "lon": 8.6531754
},
{
  "type": "node",
  "id": 451845818,
  "lat": 49.8797916,
  "lon": 8.6534068
},
{
  "type": "node",
  "id": 451845819,
  "lat": 49.8797011,
  "lon": 8.6534788
},
{
  "type": "node",
  "id": 451845820,
  "lat": 49.8796247,
  "lon": 8.6532474
},
{
  "type": "node",
  "id": 1244173438,
  "lat": 49.8797510,
  "lon": 8.6532838
},
{
  "type": "node",
  "id": 299815409,
  "lat": 49.8772481,
  "lon": 8.6673619
},
{
  "type": "node",
  "id": 299815410,
  "lat": 49.8772870,
  "lon": 8.6676182
},
{
  "type": "node",
  "id": 299815411,
  "lat": 49.8766539,
  "lon": 8.6679374
},
{
  "type": "node",
  "id": 690144127,
  "lat": 49.8765882,
  "lon": 8.6677906
},
{
  "type": "node",
  "id": 690144135,
  "lat": 49.8765765,
  "lon": 8.6677112
},
{
  "type": "node",
  "id": 690144142,
  "lat": 49.8765766,
  "lon": 8.6674871
},
{
  "type": "node",
  "id": 690144161,
  "lat": 49.8765893,
  "lon": 8.6675766
},
{
  "type": "node",
  "id": 690144172,
  "lat": 49.8766302,
  "lon": 8.6677758
},
{
  "type": "node",
  "id": 5431270196,
  "lat": 49.8769888,
  "lon": 8.6674617
},
{
  "type": "node",
  "id": 5431270213,
  "lat": 49.8765832,
  "lon": 8.6675334
},
{
  "type": "node",
  "id": 5431270219,
  "lat": 49.8771457,
  "lon": 8.6673970
},
{
  "type": "node",
  "id": 5431270220,
  "lat": 49.8771424,
  "lon": 8.6673741
},
{
  "type": "node",
  "id": 5431276721,
  "lat": 49.8770612,
  "lon": 8.6674019
},
{
  "type": "node",
  "id": 5431276722,
  "lat": 49.8770660,
  "lon": 8.6674353
},
{
  "type": "node",
  "id": 5431276723,
  "lat": 49.8767395,
  "lon": 8.6675471
},
{
  "type": "node",
  "id": 5431276724,
  "lat": 49.8767366,
  "lon": 8.6675262
},
{
  "type": "node",
  "id": 5431276725,
  "lat": 49.8765079,
  "lon": 8.6675107
},
{
  "type": "node",
  "id": 5431276726,
  "lat": 49.8765202,
  "lon": 8.6675974
},
{
  "type": "node",
  "id": 5431276727,
  "lat": 49.8765364,
  "lon": 8.6675918
},
{
  "type": "node",
  "id": 5431276728,
  "lat": 49.8765568,
  "lon": 8.6677182
},
{
  "type": "node",
  "id": 5431276729,
  "lat": 49.8771891,
  "lon": 8.6677478
},
{
  "type": "node",
  "id": 5431276730,
  "lat": 49.8771758,
  "lon": 8.6676576
},
{
  "type": "node",
  "id": 6162390336,
  "lat": 49.8765825,
  "lon": 8.6675286
},
{
  "type": "node",
  "id": 2163560406,
  "lat": 49.9076426,
  "lon": 8.6783964
},
{
  "type": "node",
  "id": 2163560432,
  "lat": 49.9085421,
  "lon": 8.6808345
},
{
  "type": "node",
  "id": 2163560433,
  "lat": 49.9062526,
  "lon": 8.6779364
},
{
  "type": "node",
  "id": 2163560435,
  "lat": 49.9064127,
  "lon": 8.6773566
},
{
  "type": "node",
  "id": 2163560457,
  "lat": 49.9074110,
  "lon": 8.6794278
},
{
  "type": "node",
  "id": 2163560465,
  "lat": 49.9082460,
  "lon": 8.6788019
},
{
  "type": "node",
  "id": 2163560467,
  "lat": 49.9083671,
  "lon": 8.6798945
},
{
  "type": "node",
  "id": 2163560479,
  "lat": 49.9085026,
  "lon": 8.6790531
},
{
  "type": "node",
  "id": 2163560489,
  "lat": 49.9084311,
  "lon": 8.6801003
},
{
  "type": "node",
  "id": 4917626618,
  "lat": 49.9068313,
  "lon": 8.6787182
},
{
  "type": "node",
  "id": 4917626619,
  "lat": 49.9065860,
  "lon": 8.6784205
},
{
  "type": "node",
  "id": 4917626620,
  "lat": 49.9064500,
  "lon": 8.6781613
},
{
  "type": "node",
  "id": 4917626997,
  "lat": 49.9078617,
  "lon": 8.6798950
},
{
  "type": "node",
  "id": 4917627034,
  "lat": 49.9063270,
  "lon": 8.6776682
},
{
  "type": "node",
  "id": 4917627039,
  "lat": 49.9074938,
  "lon": 8.6795141
},
{
  "type": "node",
  "id": 4917627040,
  "lat": 49.9065306,
  "lon": 8.6783245
},
{
  "type": "node",
  "id": 4917627041,
  "lat": 49.9064934,
  "lon": 8.6782323
},
{
  "type": "node",
  "id": 4917627042,
  "lat": 49.9064775,
  "lon": 8.6782021
},
{
  "type": "node",
  "id": 4917627048,
  "lat": 49.9065152,
  "lon": 8.6782808
},
{
  "type": "node",
  "id": 4917627049,
  "lat": 49.9065504,
  "lon": 8.6783654
},
{
  "type": "node",
  "id": 4917627051,
  "lat": 49.9077800,
  "lon": 8.6797994
},
{
  "type": "node",
  "id": 4917627052,
  "lat": 49.9076657,
  "lon": 8.6796747
},
{
  "type": "node",
  "id": 4917627177,
  "lat": 49.9079541,
  "lon": 8.6785928
},
{
  "type": "node",
  "id": 4917627219,
  "lat": 49.9074775,
  "lon": 8.6782620
},
{
  "type": "node",
  "id": 4917627220,
  "lat": 49.9068004,
  "lon": 8.6776974
},
{
  "type": "node",
  "id": 4917627221,
  "lat": 49.9071062,
  "lon": 8.6790429
},
{
  "type": "node",
  "id": 4917627222,
  "lat": 49.9062656,
  "lon": 8.6778914
},
{
  "type": "node",
  "id": 4917627223,
  "lat": 49.9063116,
  "lon": 8.6777244
},
{
  "type": "node",
  "id": 4917627224,
  "lat": 49.9063068,
  "lon": 8.6777416
},
{
  "type": "node",
  "id": 5021438130,
  "lat": 49.9071292,
  "lon": 8.6790719
},
{
  "type": "node",
  "id": 2163560444,
  "lat": 49.9098555,
  "lon": 8.6820343
},
{
  "type": "node",
  "id": 2163560473,
  "lat": 49.9106361,
  "lon": 8.6832801
},
{
  "type": "node",
  "id": 2163560475,
  "lat": 49.9093588,
  "lon": 8.6813376
},
{
  "type": "node",
  "id": 2163560481,
  "lat": 49.9089682,
  "lon": 8.6808260
},
{
  "type": "node",
  "id": 4917627057,
  "lat": 49.9104263,
  "lon": 8.6834365
},
{
  "type": "node",
  "id": 4917627058,
  "lat": 49.9104785,
  "lon": 8.6835055
},
{
  "type": "node",
  "id": 4917627059,
  "lat": 49.9096977,
  "lon": 8.6824357
},
{
  "type": "node",
  "id": 4917627063,
  "lat": 49.9103344,
  "lon": 8.6827423
},
{
  "type": "node",
  "id": 4917627178,
  "lat": 49.9102244,
  "lon": 8.6831700
},
{
  "type": "node",
  "id": 3301466271,
  "lat": 49.9114779,
  "lon": 8.6848578
},
{
  "type": "node",
  "id": 4917626878,
  "lat": 49.9117507,
  "lon": 8.6851041
},
{
  "type": "node",
  "id": 4917626879,
  "lat": 49.9113863,
  "lon": 8.6847688
},
{
  "type": "node",
  "id": 4917626916,
  "lat": 49.9126280,
  "lon": 8.6860046
},
{
  "type": "node",
  "id": 4917626917,
  "lat": 49.9126480,
  "lon": 8.6859258
},
{
  "type": "node",
  "id": 4917627061,
  "lat": 49.9109494,
  "lon": 8.6838219
},
{
  "type": "node",
  "id": 4917627062,
  "lat": 49.9108293,
  "lon": 8.6836154
},
{
  "type": "node",
  "id": 4917627066,
  "lat": 49.9113168,
  "lon": 8.6846871
},
{
  "type": "node",
  "id": 4917627067,
  "lat": 49.9116591,
  "lon": 8.6850376
},
{
  "type": "node",
  "id": 4917627179,
  "lat": 49.9107409,
  "lon": 8.6838862
},
{
  "type": "node",
  "id": 4917627180,
  "lat": 49.9111865,
  "lon": 8.6845031
},
{
  "type": "node",
  "id": 4917627182,
  "lat": 49.9121301,
  "lon": 8.6855114
},
{
  "type": "node",
  "id": 4917627183,
  "lat": 49.9130642,
  "lon": 8.6863077
},
{
  "type": "node",
  "id": 4917627184,
  "lat": 49.9130369,
  "lon": 8.6863794
},
{
  "type": "node",
  "id": 4917627185,
  "lat": 49.9125883,
  "lon": 8.6859682
},
{
  "type": "node",
  "id": 4917627186,
  "lat": 49.9122796,
  "lon": 8.6856760
},
{
  "type": "node",
  "id": 4917627187,
  "lat": 49.9118193,
  "lon": 8.6851693
},
{
  "type": "node",
  "id": 4917627188,
  "lat": 49.9130139,
  "lon": 8.6863583
},
{
  "type": "node",
  "id": 4917627189,
  "lat": 49.9126160,
  "lon": 8.6858964
},
{
  "type": "node",
  "id": 4917627190,
  "lat": 49.9123093,
  "lon": 8.6856060
},
{
  "type": "node",
  "id": 4917627191,
  "lat": 49.9118514,
  "lon": 8.6851021
},
{
  "type": "node",
  "id": 4917627192,
  "lat": 49.9114987,
  "lon": 8.6846495
},
{
  "type": "node",
  "id": 4917627193,
  "lat": 49.9111389,
  "lon": 8.6841443
},
{
  "type": "node",
  "id": 4917627194,
  "lat": 49.9130413,
  "lon": 8.6862862
},
{
  "type": "node",
  "id": 6282363715,
  "lat": 49.9675546,
  "lon": 7.8925175
},
{
  "type": "node",
  "id": 6282363716,
  "lat": 49.9675090,
  "lon": 7.8922950
},
{
  "type": "node",
  "id": 6282363717,
  "lat": 49.9671972,
  "lon": 7.8924495
},
{
  "type": "node",
  "id": 6282363718,
  "lat": 49.9672428,
  "lon": 7.8926720
},
{
  "type": "node",
  "id": 2601959810,
  "lat": 49.9695579,
  "lon": 7.8922663
},
{
  "type": "node",
  "id": 2601959833,
  "lat": 49.9695667,
  "lon": 7.8928397
},
{
  "type": "node",
  "id": 2601959854,
  "lat": 49.9697961,
  "lon": 7.8922414
},
{
  "type": "node",
  "id": 2601959858,
  "lat": 49.9697980,
  "lon": 7.8924401
},
{
  "type": "node",
  "id": 2601959869,
  "lat": 49.9698010,
  "lon": 7.8925857
},
{
  "type": "node",
  "id": 2601959873,
  "lat": 49.9698035,
  "lon": 7.8928357
},
{
  "type": "node",
  "id": 2601959877,
  "lat": 49.9698288,
  "lon": 7.8924394
},
{
  "type": "node",
  "id": 2601959881,
  "lat": 49.9698302,
  "lon": 7.8925850
},
{
  "type": "node",
  "id": 7036084825,
  "lat": 49.9696751,
  "lon": 7.8922636
},
{
  "type": "node",
  "id": 7036084826,
  "lat": 49.9696749,
  "lon": 7.8922443
},
{
  "type": "node",
  "id": 7036084827,
  "lat": 49.9696539,
  "lon": 7.8928376
},
{
  "type": "node",
  "id": 7036084828,
  "lat": 49.9697193,
  "lon": 7.8928377
},
{
  "type": "node",
  "id": 7036084829,
  "lat": 49.9697196,
  "lon": 7.8928642
},
{
  "type": "node",
  "id": 7036084830,
  "lat": 49.9696542,
  "lon": 7.8928658
},
{
  "type": "node",
  "id": 7036084831,
  "lat": 49.9695598,
  "lon": 7.8924661
},
{
  "type": "node",
  "id": 7036084832,
  "lat": 49.9695785,
  "lon": 7.8924656
},
{
  "type": "node",
  "id": 7036084833,
  "lat": 49.9695807,
  "lon": 7.8926919
},
{
  "type": "node",
  "id": 7036084834,
  "lat": 49.9695653,
  "lon": 7.8926923
},
{
  "type": "node",
  "id": 639157301,
  "lat": 49.9777049,
  "lon": 7.9174791
},
{
  "type": "node",
  "id": 639157302,
  "lat": 49.9774927,
  "lon": 7.9176374
},
{
  "type": "node",
  "id": 639157303,
  "lat": 49.9775729,
  "lon": 7.9179995
},
{
  "type": "node",
  "id": 639157304,
  "lat": 49.9778024,
  "lon": 7.9178908
},
{
  "type": "node",
  "id": 2453768852,
  "lat": 49.9791730,
  "lon": 7.9201271
},
{
  "type": "node",
  "id": 2453768853,
  "lat": 49.9791363,
  "lon": 7.9197937
},
{
  "type": "node",
  "id": 2453768854,
  "lat": 49.9793136,
  "lon": 7.9197465
},
{
  "type": "node",
  "id": 2453768855,
  "lat": 49.9793511,
  "lon": 7.9200779
},
{
  "type": "node",
  "id": 2453768857,
  "lat": 49.9792369,
  "lon": 7.9201101
},
{
  "type": "node",
  "id": 1035910651,
  "lat": 50.0442259,
  "lon": 7.8039291
},
{
  "type": "node",
  "id": 1035911043,
  "lat": 50.0443518,
  "lon": 7.8040209
},
{
  "type": "node",
  "id": 1035911425,
  "lat": 50.0443743,
  "lon": 7.8039463
},
{
  "type": "node",
  "id": 1112933652,
  "lat": 50.0442509,
  "lon": 7.8038569
},
{
  "type": "node",
  "id": 1223062593,
  "lat": 50.0442870,
  "lon": 7.8039736
},
{
  "type": "node",
  "id": 1038356118,
  "lat": 50.1018399,
  "lon": 7.8502399
},
{
  "type": "node",
  "id": 1038356151,
  "lat": 50.1021706,
  "lon": 7.8482765
},
{
  "type": "node",
  "id": 1364154973,
  "lat": 50.1013648,
  "lon": 7.8494595
},
{
  "type": "node",
  "id": 1364154976,
  "lat": 50.1020646,
  "lon": 7.8482028
},
{
  "type": "node",
  "id": 1437610471,
  "lat": 50.1016882,
  "lon": 7.8487719
},
{
  "type": "node",
  "id": 1437610475,
  "lat": 50.1017166,
  "lon": 7.8488296
},
{
  "type": "node",
  "id": 1437610482,
  "lat": 50.1018619,
  "lon": 7.8484841
},
{
  "type": "node",
  "id": 1437610486,
  "lat": 50.1019068,
  "lon": 7.8485204
},
{
  "type": "node",
  "id": 1442495015,
  "lat": 49.9429897,
  "lon": 7.9753915
},
{
  "type": "node",
  "id": 1442495017,
  "lat": 49.9430447,
  "lon": 7.9754909
},
{
  "type": "node",
  "id": 1442495035,
  "lat": 49.9430849,
  "lon": 7.9752561
},
{
  "type": "node",
  "id": 1442495039,
  "lat": 49.9431449,
  "lon": 7.9753519
},
{
  "type": "node",
  "id": 300294045,
  "lat": 49.9767947,
  "lon": 8.0708363
},
{
  "type": "node",
  "id": 300294047,
  "lat": 49.9768125,
  "lon": 8.0711955
},
{
  "type": "node",
  "id": 300294049,
  "lat": 49.9766968,
  "lon": 8.0712094
},
{
  "type": "node",
  "id": 300294051,
  "lat": 49.9766790,
  "lon": 8.0708502
},
{
  "type": "node",
  "id": 300294053,
  "lat": 49.9766803,
  "lon": 8.0713794
},
{
  "type": "node",
  "id": 300294055,
  "lat": 49.9764867,
  "lon": 8.0713434
},
{
  "type": "node",
  "id": 300294056,
  "lat": 49.9764626,
  "lon": 8.0715492
},
{
  "type": "node",
  "id": 300294058,
  "lat": 49.9766448,
  "lon": 8.0717524
},
{
  "type": "node",
  "id": 2401877508,
  "lat": 49.9765216,
  "lon": 8.0716544
},
{
  "type": "node",
  "id": 2401877510,
  "lat": 49.9765335,
  "lon": 8.0715714
},
{
  "type": "node",
  "id": 2403438627,
  "lat": 49.9767986,
  "lon": 8.0709149
},
{
  "type": "node",
  "id": 2837797100,
  "lat": 49.9766480,
  "lon": 8.0717192
},
{
  "type": "node",
  "id": 2837799001,
  "lat": 49.9766535,
  "lon": 8.0716608
},
{
  "type": "node",
  "id": 3066389020,
  "lat": 49.9764847,
  "lon": 8.0713602
},
{
  "type": "node",
  "id": 600575777,
  "lat": 50.1021836,
  "lon": 8.1042992
},
{
  "type": "node",
  "id": 600575778,
  "lat": 50.1021393,
  "lon": 8.1041834
},
{
  "type": "node",
  "id": 600575779,
  "lat": 50.1023264,
  "lon": 8.1040096
},
{
  "type": "node",
  "id": 600575780,
  "lat": 50.1023707,
  "lon": 8.1041254
},
{
  "type": "node",
  "id": 854394402,
  "lat": 50.1022097,
  "lon": 8.1041184
},
{
  "type": "node",
  "id": 3207329166,
  "lat": 49.9421573,
  "lon": 8.2104221
},
{
  "type": "node",
  "id": 3207329171,
  "lat": 49.9423189,
  "lon": 8.2102534
},
{
  "type": "node",
  "id": 3207329180,
  "lat": 49.9424201,
  "lon": 8.2110298
},
{
  "type": "node",
  "id": 3207329198,
  "lat": 49.9425817,
  "lon": 8.2108611
},
{
  "type": "node",
  "id": 2278857959,
  "lat": 50.0201565,
  "lon": 8.2216051
},
{
  "type": "node",
  "id": 2278857960,
  "lat": 50.0201660,
  "lon": 8.2214877
},
{
  "type": "node",
  "id": 2278857971,
  "lat": 50.0203001,
  "lon": 8.2216332
},
{
  "type": "node",
  "id": 2278857972,
  "lat": 50.0203096,
  "lon": 8.2215159
},
{
  "type": "node",
  "id": 5347143744,
  "lat": 49.9936793,
  "lon": 8.2804926
},
{
  "type": "node",
  "id": 5347143745,
  "lat": 49.9940188,
  "lon": 8.2811836
},
{
  "type": "node",
  "id": 5347143746,
  "lat": 49.9935920,
  "lon": 8.2816165
},
{
  "type": "node",
  "id": 5347143747,
  "lat": 49.9934435,
  "lon": 8.2817428
},
{
  "type": "node",
  "id": 5347143748,
  "lat": 49.9934176,
  "lon": 8.2814635
},
{
  "type": "node",
  "id": 5347143749,
  "lat": 49.9932426,
  "lon": 8.2819023
},
{
  "type": "node",
  "id": 5347143750,
  "lat": 49.9931042,
  "lon": 8.2815018
},
{
  "type": "node",
  "id": 5347143751,
  "lat": 49.9931480,
  "lon": 8.2813003
},
{
  "type": "node",
  "id": 263682323,
  "lat": 50.0039072,
  "lon": 8.2705816
},
{
  "type": "node",
  "id": 263682463,
  "lat": 50.0037937,
  "lon": 8.2704857
},
{
  "type": "node",
  "id": 572592443,
  "lat": 50.0033166,
  "lon": 8.2704105
},
{
  "type": "node",
  "id": 572592447,
  "lat": 50.0032347,
  "lon": 8.2705932
},
{
  "type": "node",
  "id": 572592457,
  "lat": 50.0037515,
  "lon": 8.2706378
},
{
  "type": "node",
  "id": 572592460,
  "lat": 50.0032677,
  "lon": 8.2705188
},
{
  "type": "node",
  "id": 1666387256,
  "lat": 50.0037801,
  "lon": 8.2705895
},
{
  "type": "node",
  "id": 2453933771,
  "lat": 50.0037729,
  "lon": 8.2705212
},
{
  "type": "node",
  "id": 263682464,
  "lat": 50.0039525,
  "lon": 8.2706658
},
{
  "type": "node",
  "id": 263682465,
  "lat": 50.0039782,
  "lon": 8.2708254
},
{
  "type": "node",
  "id": 263682466,
  "lat": 50.0037679,
  "lon": 8.2711469
},
{
  "type": "node",
  "id": 263682467,
  "lat": 50.0036092,
  "lon": 8.2708887
},
{
  "type": "node",
  "id": 572592444,
  "lat": 50.0036538,
  "lon": 8.2707870
},
{
  "type": "node",
  "id": 572592445,
  "lat": 50.0033710,
  "lon": 8.2706899
},
{
  "type": "node",
  "id": 572592446,
  "lat": 50.0033546,
  "lon": 8.2707291
},
{
  "type": "node",
  "id": 572592458,
  "lat": 50.0039146,
  "lon": 8.2707157
},
{
  "type": "node",
  "id": 572592459,
  "lat": 50.0035641,
  "lon": 8.2708994
},
{
  "type": "node",
  "id": 2839351849,
  "lat": 50.0039625,
  "lon": 8.2708495
},
{
  "type": "node",
  "id": 5193769758,
  "lat": 50.0036887,
  "lon": 8.2710180
},
{
  "type": "node",
  "id": 2090691195,
  "lat": 49.9704869,
  "lon": 8.3291211
},
{
  "type": "node",
  "id": 2090691196,
  "lat": 49.9704448,
  "lon": 8.3290317
},
{
  "type": "node",
  "id": 2090691198,
  "lat": 49.9706572,
  "lon": 8.3289272
},
{
  "type": "node",
  "id": 2090691200,
  "lat": 49.9706150,
  "lon": 8.3288378
},
{
  "type": "node",
  "id": 2090691201,
  "lat": 49.9705162,
  "lon": 8.3290877
},
{
  "type": "node",
  "id": 6752686348,
  "lat": 50.0153237,
  "lon": 8.2846863
},
{
  "type": "node",
  "id": 6752686349,
  "lat": 50.0149355,
  "lon": 8.2844055
},
{
  "type": "node",
  "id": 6752686350,
  "lat": 50.0148479,
  "lon": 8.2846986
},
{
  "type": "node",
  "id": 6752686351,
  "lat": 50.0152361,
  "lon": 8.2849795
},
{
  "type": "node",
  "id": 53468914,
  "lat": 50.0436526,
  "lon": 8.1950228
},
{
  "type": "node",
  "id": 1128049840,
  "lat": 50.0435012,
  "lon": 8.1948178
},
{
  "type": "node",
  "id": 1184214485,
  "lat": 50.0435486,
  "lon": 8.1947945
},
{
  "type": "node",
  "id": 1184214490,
  "lat": 50.0435461,
  "lon": 8.1950398
},
{
  "type": "node",
  "id": 4377396892,
  "lat": 50.0435526,
  "lon": 8.1950719
},
{
  "type": "node",
  "id": 4377397253,
  "lat": 50.0436457,
  "lon": 8.1949889
},
{
  "type": "node",
  "id": 4386860097,
  "lat": 50.0436012,
  "lon": 8.1947687
},
{
  "type": "node",
  "id": 4386860098,
  "lat": 50.0435871,
  "lon": 8.1950549
},
{
  "type": "node",
  "id": 4397550852,
  "lat": 50.0435228,
  "lon": 8.1949288
},
{
  "type": "node",
  "id": 4398906076,
  "lat": 50.0435246,
  "lon": 8.1948064
},
{
  "type": "node",
  "id": 4398906077,
  "lat": 50.0435284,
  "lon": 8.1948045
},
{
  "type": "node",
  "id": 4398906080,
  "lat": 50.0435086,
  "lon": 8.1948142
},
{
  "type": "node",
  "id": 280862738,
  "lat": 50.0660385,
  "lon": 8.1806461
},
{
  "type": "node",
  "id": 280862757,
  "lat": 50.0662271,
  "lon": 8.1810377
},
{
  "type": "node",
  "id": 280862768,
  "lat": 50.0660070,
  "lon": 8.1809885
},
{
  "type": "node",
  "id": 2154750200,
  "lat": 50.0660227,
  "lon": 8.1808183
},
{
  "type": "node",
  "id": 280862748,
  "lat": 50.0662587,
  "lon": 8.1806953
},
{
  "type": "node",
  "id": 1151005986,
  "lat": 50.0662431,
  "lon": 8.1808644
},
{
  "type": "node",
  "id": 307963756,
  "lat": 50.0778655,
  "lon": 8.2455661
},
{
  "type": "node",
  "id": 307963757,
  "lat": 50.0778997,
  "lon": 8.2465231
},
{
  "type": "node",
  "id": 307963758,
  "lat": 50.0769979,
  "lon": 8.2464349
},
{
  "type": "node",
  "id": 307963759,
  "lat": 50.0769697,
  "lon": 8.2456438
},
{
  "type": "node",
  "id": 599413683,
  "lat": 50.0772687,
  "lon": 8.2468317
},
{
  "type": "node",
  "id": 599413685,
  "lat": 50.0771433,
  "lon": 8.2464223
},
{
  "type": "node",
  "id": 717325162,
  "lat": 50.0772626,
  "lon": 8.2458498
},
{
  "type": "node",
  "id": 717325166,
  "lat": 50.0777134,
  "lon": 8.2465393
},
{
  "type": "node",
  "id": 717325168,
  "lat": 50.0771233,
  "lon": 8.2458619
},
{
  "type": "node",
  "id": 717325171,
  "lat": 50.0772732,
  "lon": 8.2461452
},
{
  "type": "node",
  "id": 717325172,
  "lat": 50.0772443,
  "lon": 8.2461477
},
{
  "type": "node",
  "id": 717325174,
  "lat": 50.0776555,
  "lon": 8.2460093
},
{
  "type": "node",
  "id": 717325176,
  "lat": 50.0777056,
  "lon": 8.2463195
},
{
  "type": "node",
  "id": 717325178,
  "lat": 50.0777584,
  "lon": 8.2463150
},
{
  "type": "node",
  "id": 717325180,
  "lat": 50.0777472,
  "lon": 8.2460014
},
{
  "type": "node",
  "id": 717325182,
  "lat": 50.0776836,
  "lon": 8.2467957
},
{
  "type": "node",
  "id": 1009543000,
  "lat": 50.0774248,
  "lon": 8.2456043
},
{
  "type": "node",
  "id": 307985913,
  "lat": 50.0552501,
  "lon": 8.3054335
},
{
  "type": "node",
  "id": 307985914,
  "lat": 50.0553138,
  "lon": 8.3058345
},
{
  "type": "node",
  "id": 307985916,
  "lat": 50.0548941,
  "lon": 8.3059963
},
{
  "type": "node",
  "id": 307985918,
  "lat": 50.0548389,
  "lon": 8.3056488
},
{
  "type": "node",
  "id": 307985920,
  "lat": 50.0550166,
  "lon": 8.3055802
},
{
  "type": "node",
  "id": 307985921,
  "lat": 50.0550081,
  "lon": 8.3055268
},
{
  "type": "node",
  "id": 765104786,
  "lat": 50.0629123,
  "lon": 8.3426762
},
{
  "type": "node",
  "id": 765104788,
  "lat": 50.0628175,
  "lon": 8.3425800
},
{
  "type": "node",
  "id": 765104793,
  "lat": 50.0627949,
  "lon": 8.3426341
},
{
  "type": "node",
  "id": 880932547,
  "lat": 50.0628897,
  "lon": 8.3427303
},
{
  "type": "node",
  "id": 627571146,
  "lat": 50.1411086,
  "lon": 8.0726755
},
{
  "type": "node",
  "id": 627571148,
  "lat": 50.1411855,
  "lon": 8.0725561
},
{
  "type": "node",
  "id": 627571149,
  "lat": 50.1413547,
  "lon": 8.0728214
},
{
  "type": "node",
  "id": 627571150,
  "lat": 50.1412778,
  "lon": 8.0729408
},
{
  "type": "node",
  "id": 1823779005,
  "lat": 50.1412004,
  "lon": 8.0728195
},
{
  "type": "node",
  "id": 663072517,
  "lat": 50.2210813,
  "lon": 8.2693908
},
{
  "type": "node",
  "id": 663072518,
  "lat": 50.2210309,
  "lon": 8.2694744
},
{
  "type": "node",
  "id": 663072519,
  "lat": 50.2210497,
  "lon": 8.2695108
},
{
  "type": "node",
  "id": 663072522,
  "lat": 50.2211871,
  "lon": 8.2695453
},
{
  "type": "node",
  "id": 663072531,
  "lat": 50.2211481,
  "lon": 8.2696631
},
{
  "type": "node",
  "id": 4777959798,
  "lat": 50.1995851,
  "lon": 8.3826988
},
{
  "type": "node",
  "id": 4777959799,
  "lat": 50.1995114,
  "lon": 8.3828310
},
{
  "type": "node",
  "id": 4777959800,
  "lat": 50.1994022,
  "lon": 8.3826583
},
{
  "type": "node",
  "id": 4777959801,
  "lat": 50.1994786,
  "lon": 8.3825325
},
{
  "type": "node",
  "id": 2116416896,
  "lat": 50.0114540,
  "lon": 8.4265104
},
{
  "type": "node",
  "id": 2116416897,
  "lat": 50.0114040,
  "lon": 8.4267621
},
{
  "type": "node",
  "id": 2116416898,
  "lat": 50.0113487,
  "lon": 8.4266778
},
{
  "type": "node",
  "id": 2116416899,
  "lat": 50.0115093,
  "lon": 8.4265947
},
{
  "type": "node",
  "id": 2953417473,
  "lat": 49.9752833,
  "lon": 8.5689983
},
{
  "type": "node",
  "id": 2953417474,
  "lat": 49.9752974,
  "lon": 8.5691369
},
{
  "type": "node",
  "id": 2953417478,
  "lat": 49.9755295,
  "lon": 8.5689381
},
{
  "type": "node",
  "id": 2953417479,
  "lat": 49.9755436,
  "lon": 8.5690767
},
{
  "type": "node",
  "id": 1871178456,
  "lat": 50.0869612,
  "lon": 8.4468124
},
{
  "type": "node",
  "id": 1871178461,
  "lat": 50.0870818,
  "lon": 8.4463949
},
{
  "type": "node",
  "id": 1871178463,
  "lat": 50.0870425,
  "lon": 8.4468692
},
{
  "type": "node",
  "id": 1871178465,
  "lat": 50.0872209,
  "lon": 8.4464922
},
{
  "type": "node",
  "id": 2042021193,
  "lat": 50.0869693,
  "lon": 8.4463191
},
{
  "type": "node",
  "id": 2042021195,
  "lat": 50.0870596,
  "lon": 8.4463822
},
{
  "type": "node",
  "id": 2042021198,
  "lat": 50.0869095,
  "lon": 8.4465272
},
{
  "type": "node",
  "id": 2042021201,
  "lat": 50.0869817,
  "lon": 8.4465777
},
{
  "type": "node",
  "id": 2145803487,
  "lat": 50.0869657,
  "lon": 8.4466334
},
{
  "type": "node",
  "id": 2145803488,
  "lat": 50.0870049,
  "lon": 8.4466608
},
{
  "type": "node",
  "id": 2145803489,
  "lat": 50.0870505,
  "lon": 8.4464138
},
{
  "type": "node",
  "id": 2145803490,
  "lat": 50.0870720,
  "lon": 8.4464288
},
{
  "type": "node",
  "id": 2146285418,
  "lat": 50.0871378,
  "lon": 8.4465381
},
{
  "type": "node",
  "id": 2146285419,
  "lat": 50.0871960,
  "lon": 8.4465788
},
{
  "type": "node",
  "id": 4914835199,
  "lat": 50.0870254,
  "lon": 8.4468572
},
{
  "type": "node",
  "id": 6757607992,
  "lat": 50.0869830,
  "lon": 8.4466455
},
{
  "type": "node",
  "id": 2636039088,
  "lat": 50.0821144,
  "lon": 8.5817041
},
{
  "type": "node",
  "id": 2636039096,
  "lat": 50.0821502,
  "lon": 8.5817014
},
{
  "type": "node",
  "id": 2636039108,
  "lat": 50.0821860,
  "lon": 8.5816987
},
{
  "type": "node",
  "id": 2636039122,
  "lat": 50.0822208,
  "lon": 8.5816961
},
{
  "type": "node",
  "id": 2636039144,
  "lat": 50.0822582,
  "lon": 8.5816933
},
{
  "type": "node",
  "id": 3939910119,
  "lat": 50.0819686,
  "lon": 8.5812106
},
{
  "type": "node",
  "id": 3939910120,
  "lat": 50.0819765,
  "lon": 8.5814660
},
{
  "type": "node",
  "id": 3939910121,
  "lat": 50.0820101,
  "lon": 8.5811178
},
{
  "type": "node",
  "id": 3939910122,
  "lat": 50.0820455,
  "lon": 8.5816257
},
{
  "type": "node",
  "id": 3939910124,
  "lat": 50.0820941,
  "lon": 8.5816221
},
{
  "type": "node",
  "id": 3939910125,
  "lat": 50.0820967,
  "lon": 8.5817055
},
{
  "type": "node",
  "id": 3939910127,
  "lat": 50.0822205,
  "lon": 8.5811019
},
{
  "type": "node",
  "id": 3939910128,
  "lat": 50.0822227,
  "lon": 8.5811741
},
{
  "type": "node",
  "id": 3939910129,
  "lat": 50.0822562,
  "lon": 8.5811715
},
{
  "type": "node",
  "id": 3939910130,
  "lat": 50.0822765,
  "lon": 8.5812268
},
{
  "type": "node",
  "id": 3939910131,
  "lat": 50.0822791,
  "lon": 8.5813110
},
{
  "type": "node",
  "id": 3939910132,
  "lat": 50.0822925,
  "lon": 8.5813099
},
{
  "type": "node",
  "id": 3939910133,
  "lat": 50.0823043,
  "lon": 8.5816898
},
{
  "type": "node",
  "id": 3939945565,
  "lat": 50.0822946,
  "lon": 8.5813752
},
{
  "type": "node",
  "id": 1127116720,
  "lat": 50.0996208,
  "lon": 8.5484083
},
{
  "type": "node",
  "id": 1127116733,
  "lat": 50.0998357,
  "lon": 8.5484404
},
{
  "type": "node",
  "id": 1127116772,
  "lat": 50.0997485,
  "lon": 8.5485131
},
{
  "type": "node",
  "id": 1127116783,
  "lat": 50.0997293,
  "lon": 8.5487252
},
{
  "type": "node",
  "id": 1127116811,
  "lat": 50.0997764,
  "lon": 8.5482666
},
{
  "type": "node",
  "id": 1127116899,
  "lat": 50.0998008,
  "lon": 8.5486658
},
{
  "type": "node",
  "id": 1098499363,
  "lat": 49.9286959,
  "lon": 8.6010077
},
{
  "type": "node",
  "id": 1098499390,
  "lat": 49.9287227,
  "lon": 8.6010698
},
{
  "type": "node",
  "id": 1098499412,
  "lat": 49.9287110,
  "lon": 8.6010005
},
{
  "type": "node",
  "id": 1098499436,
  "lat": 49.9287117,
  "lon": 8.6010756
},
{
  "type": "node",
  "id": 1098499464,
  "lat": 49.9286178,
  "lon": 8.6010002
},
{
  "type": "node",
  "id": 1098499471,
  "lat": 49.9287257,
  "lon": 8.6010101
},
{
  "type": "node",
  "id": 1098499512,
  "lat": 49.9287181,
  "lon": 8.6011726
},
{
  "type": "node",
  "id": 1098499526,
  "lat": 49.9287341,
  "lon": 8.6010363
},
{
  "type": "node",
  "id": 1098499557,
  "lat": 49.9286302,
  "lon": 8.6011867
},
{
  "type": "node",
  "id": 1098499558,
  "lat": 49.9286836,
  "lon": 8.6009898
},
{
  "type": "node",
  "id": 1098499559,
  "lat": 49.9286855,
  "lon": 8.6010186
},
{
  "type": "node",
  "id": 1098499591,
  "lat": 49.9287299,
  "lon": 8.6010596
},
{
  "type": "node",
  "id": 1100059108,
  "lat": 49.9286906,
  "lon": 8.6010165
},
{
  "type": "node",
  "id": 3085077575,
  "lat": 49.9332612,
  "lon": 8.6418593
},
{
  "type": "node",
  "id": 3085077581,
  "lat": 49.9332858,
  "lon": 8.6417234
},
{
  "type": "node",
  "id": 3085077601,
  "lat": 49.9333936,
  "lon": 8.6419170
},
{
  "type": "node",
  "id": 3085077605,
  "lat": 49.9334060,
  "lon": 8.6418483
},
{
  "type": "node",
  "id": 3085077608,
  "lat": 49.9334181,
  "lon": 8.6417811
},
{
  "type": "node",
  "id": 1912018187,
  "lat": 49.9695791,
  "lon": 8.6666953
},
{
  "type": "node",
  "id": 1912018189,
  "lat": 49.9695790,
  "lon": 8.6667246
},
{
  "type": "node",
  "id": 1912018213,
  "lat": 49.9696559,
  "lon": 8.6667222
},
{
  "type": "node",
  "id": 2098423854,
  "lat": 49.9695786,
  "lon": 8.6665247
},
{
  "type": "node",
  "id": 3978876095,
  "lat": 49.9695550,
  "lon": 8.6665301
},
{
  "type": "node",
  "id": 3978876096,
  "lat": 49.9695580,
  "lon": 8.6666951
},
{
  "type": "node",
  "id": 3978876098,
  "lat": 49.9696518,
  "lon": 8.6665224
},
{
  "type": "node",
  "id": 2031903142,
  "lat": 49.9392370,
  "lon": 8.7413688
},
{
  "type": "node",
  "id": 2031903147,
  "lat": 49.9392407,
  "lon": 8.7412446
},
{
  "type": "node",
  "id": 2031903200,
  "lat": 49.9393490,
  "lon": 8.7413769
},
{
  "type": "node",
  "id": 2031903201,
  "lat": 49.9393527,
  "lon": 8.7412527
},
{
  "type": "node",
  "id": 2031903216,
  "lat": 49.9393673,
  "lon": 8.7414656
},
{
  "type": "node",
  "id": 2032405817,
  "lat": 49.9393513,
  "lon": 8.7412993
},
{
  "type": "node",
  "id": 4345924739,
  "lat": 49.9393918,
  "lon": 8.7413672
},
{
  "type": "node",
  "id": 4345924740,
  "lat": 49.9393494,
  "lon": 8.7413641
},
{
  "type": "node",
  "id": 4345924741,
  "lat": 49.9393465,
  "lon": 8.7414617
},
{
  "type": "node",
  "id": 4345924742,
  "lat": 49.9393889,
  "lon": 8.7414667
},
{
  "type": "node",
  "id": 352944000,
  "lat": 50.0017634,
  "lon": 8.7157356
},
{
  "type": "node",
  "id": 352944001,
  "lat": 50.0015532,
  "lon": 8.7160486
},
{
  "type": "node",
  "id": 352944002,
  "lat": 50.0016103,
  "lon": 8.7161414
},
{
  "type": "node",
  "id": 352944003,
  "lat": 50.0018205,
  "lon": 8.7158284
},
{
  "type": "node",
  "id": 1542783229,
  "lat": 50.0573151,
  "lon": 8.6849816
},
{
  "type": "node",
  "id": 1542783231,
  "lat": 50.0573154,
  "lon": 8.6850618
},
{
  "type": "node",
  "id": 1542783233,
  "lat": 50.0573198,
  "lon": 8.6850618
},
{
  "type": "node",
  "id": 1542783235,
  "lat": 50.0573202,
  "lon": 8.6851621
},
{
  "type": "node",
  "id": 1542783249,
  "lat": 50.0573512,
  "lon": 8.6851679
},
{
  "type": "node",
  "id": 1542783251,
  "lat": 50.0573601,
  "lon": 8.6849901
},
{
  "type": "node",
  "id": 1542783253,
  "lat": 50.0573601,
  "lon": 8.6849812
},
{
  "type": "node",
  "id": 1542783257,
  "lat": 50.0573927,
  "lon": 8.6849897
},
{
  "type": "node",
  "id": 1542783263,
  "lat": 50.0574215,
  "lon": 8.6851672
},
{
  "type": "node",
  "id": 1542783269,
  "lat": 50.0574503,
  "lon": 8.6849892
},
{
  "type": "node",
  "id": 1542783271,
  "lat": 50.0574510,
  "lon": 8.6851669
},
{
  "type": "node",
  "id": 3172308749,
  "lat": 50.0573151,
  "lon": 8.6849905
},
{
  "type": "node",
  "id": 3172308751,
  "lat": 50.0573512,
  "lon": 8.6851618
},
{
  "type": "node",
  "id": 1518595147,
  "lat": 50.0565641,
  "lon": 8.6956538
},
{
  "type": "node",
  "id": 1518595331,
  "lat": 50.0566133,
  "lon": 8.6957276
},
{
  "type": "node",
  "id": 1518595525,
  "lat": 50.0566594,
  "lon": 8.6953169
},
{
  "type": "node",
  "id": 1518595529,
  "lat": 50.0566596,
  "lon": 8.6954283
},
{
  "type": "node",
  "id": 1518595866,
  "lat": 50.0567417,
  "lon": 8.6953147
},
{
  "type": "node",
  "id": 1518595988,
  "lat": 50.0568027,
  "lon": 8.6954270
},
{
  "type": "node",
  "id": 1897359704,
  "lat": 50.0566814,
  "lon": 8.6954654
},
{
  "type": "node",
  "id": 3427774389,
  "lat": 50.0567722,
  "lon": 8.6953708
},
{
  "type": "node",
  "id": 3518835587,
  "lat": 50.0566280,
  "lon": 8.6957043
},
{
  "type": "node",
  "id": 3518835588,
  "lat": 50.0567166,
  "lon": 8.6955636
},
{
  "type": "node",
  "id": 800597550,
  "lat": 50.0882045,
  "lon": 8.6448145
},
{
  "type": "node",
  "id": 800597551,
  "lat": 50.0882659,
  "lon": 8.6446304
},
{
  "type": "node",
  "id": 800597553,
  "lat": 50.0882857,
  "lon": 8.6447901
},
{
  "type": "node",
  "id": 800597556,
  "lat": 50.0881847,
  "lon": 8.6446548
},
{
  "type": "node",
  "id": 1596680279,
  "lat": 50.1045806,
  "lon": 8.6380154
},
{
  "type": "node",
  "id": 1596680281,
  "lat": 50.1046197,
  "lon": 8.6383833
},
{
  "type": "node",
  "id": 1596680283,
  "lat": 50.1046242,
  "lon": 8.6384256
},
{
  "type": "node",
  "id": 1596680329,
  "lat": 50.1048688,
  "lon": 8.6379410
},
{
  "type": "node",
  "id": 1596680351,
  "lat": 50.1049123,
  "lon": 8.6383512
},
{
  "type": "node",
  "id": 845178569,
  "lat": 50.1014172,
  "lon": 8.6702550
},
{
  "type": "node",
  "id": 845178576,
  "lat": 50.1013034,
  "lon": 8.6703816
},
{
  "type": "node",
  "id": 845178597,
  "lat": 50.1013374,
  "lon": 8.6701244
},
{
  "type": "node",
  "id": 845178599,
  "lat": 50.1012935,
  "lon": 8.6703960
},
{
  "type": "node",
  "id": 845178601,
  "lat": 50.1014481,
  "lon": 8.6703070
},
{
  "type": "node",
  "id": 845178613,
  "lat": 50.1012421,
  "lon": 8.6702610
},
{
  "type": "node",
  "id": 845178630,
  "lat": 50.1013723,
  "lon": 8.6701812
},
{
  "type": "node",
  "id": 2411440785,
  "lat": 50.1012785,
  "lon": 8.6703224
},
{
  "type": "node",
  "id": 2411440786,
  "lat": 50.1012785,
  "lon": 8.6703317
},
{
  "type": "node",
  "id": 2411440788,
  "lat": 50.1012816,
  "lon": 8.6703437
},
{
  "type": "node",
  "id": 2411440799,
  "lat": 50.1013798,
  "lon": 8.6701792
},
{
  "type": "node",
  "id": 2411440800,
  "lat": 50.1013851,
  "lon": 8.6701792
},
{
  "type": "node",
  "id": 2411440802,
  "lat": 50.1013917,
  "lon": 8.6701809
},
{
  "type": "node",
  "id": 2411440803,
  "lat": 50.1013930,
  "lon": 8.6703885
},
{
  "type": "node",
  "id": 2411440804,
  "lat": 50.1013971,
  "lon": 8.6701838
},
{
  "type": "node",
  "id": 2411440807,
  "lat": 50.1014027,
  "lon": 8.6701886
},
{
  "type": "node",
  "id": 2411440808,
  "lat": 50.1014038,
  "lon": 8.6704067
},
{
  "type": "node",
  "id": 2411440810,
  "lat": 50.1014066,
  "lon": 8.6701932
},
{
  "type": "node",
  "id": 2411440812,
  "lat": 50.1014115,
  "lon": 8.6702014
},
{
  "type": "node",
  "id": 2411440813,
  "lat": 50.1014147,
  "lon": 8.6702088
},
{
  "type": "node",
  "id": 2411440814,
  "lat": 50.1014174,
  "lon": 8.6702186
},
{
  "type": "node",
  "id": 2411440816,
  "lat": 50.1014187,
  "lon": 8.6702267
},
{
  "type": "node",
  "id": 2411440817,
  "lat": 50.1014190,
  "lon": 8.6702417
},
{
  "type": "node",
  "id": 2411440818,
  "lat": 50.1014220,
  "lon": 8.6703618
},
{
  "type": "node",
  "id": 2411440821,
  "lat": 50.1014281,
  "lon": 8.6703720
},
{
  "type": "node",
  "id": 2411440823,
  "lat": 50.1014326,
  "lon": 8.6703293
},
{
  "type": "node",
  "id": 2411440825,
  "lat": 50.1014382,
  "lon": 8.6703387
},
{
  "type": "node",
  "id": 845178574,
  "lat": 50.1013367,
  "lon": 8.6704690
},
{
  "type": "node",
  "id": 309126164,
  "lat": 50.1073607,
  "lon": 8.6737616
},
{
  "type": "node",
  "id": 864404098,
  "lat": 50.1072439,
  "lon": 8.6744118
},
{
  "type": "node",
  "id": 864404141,
  "lat": 50.1072638,
  "lon": 8.6744806
},
{
  "type": "node",
  "id": 864404150,
  "lat": 50.1072646,
  "lon": 8.6744275
},
{
  "type": "node",
  "id": 864404163,
  "lat": 50.1070735,
  "lon": 8.6743765
},
{
  "type": "node",
  "id": 864404179,
  "lat": 50.1072692,
  "lon": 8.6744631
},
{
  "type": "node",
  "id": 864404199,
  "lat": 50.1072003,
  "lon": 8.6746818
},
{
  "type": "node",
  "id": 864404221,
  "lat": 50.1072591,
  "lon": 8.6744887
},
{
  "type": "node",
  "id": 864404234,
  "lat": 50.1072290,
  "lon": 8.6744163
},
{
  "type": "node",
  "id": 864404250,
  "lat": 50.1071710,
  "lon": 8.6742768
},
{
  "type": "node",
  "id": 864404270,
  "lat": 50.1072975,
  "lon": 8.6745811
},
{
  "type": "node",
  "id": 864404272,
  "lat": 50.1072546,
  "lon": 8.6744164
},
{
  "type": "node",
  "id": 864404288,
  "lat": 50.1072693,
  "lon": 8.6744449
},
{
  "type": "node",
  "id": 1854475769,
  "lat": 50.1069373,
  "lon": 8.6740544
},
{
  "type": "node",
  "id": 1854475771,
  "lat": 50.1069495,
  "lon": 8.6740119
},
{
  "type": "node",
  "id": 1854475772,
  "lat": 50.1069553,
  "lon": 8.6739849
},
{
  "type": "node",
  "id": 1854475774,
  "lat": 50.1069584,
  "lon": 8.6740328
},
{
  "type": "node",
  "id": 1854475775,
  "lat": 50.1069928,
  "lon": 8.6739468
},
{
  "type": "node",
  "id": 1854475777,
  "lat": 50.1070099,
  "lon": 8.6739501
},
{
  "type": "node",
  "id": 1854475778,
  "lat": 50.1070200,
  "lon": 8.6739740
},
{
  "type": "node",
  "id": 1854475779,
  "lat": 50.1070371,
  "lon": 8.6739564
},
{
  "type": "node",
  "id": 1854475780,
  "lat": 50.1070679,
  "lon": 8.6740293
},
{
  "type": "node",
  "id": 1854475781,
  "lat": 50.1070726,
  "lon": 8.6740245
},
{
  "type": "node",
  "id": 1854475782,
  "lat": 50.1071118,
  "lon": 8.6741172
},
{
  "type": "node",
  "id": 1854475784,
  "lat": 50.1071227,
  "lon": 8.6741061
},
{
  "type": "node",
  "id": 1854475785,
  "lat": 50.1071387,
  "lon": 8.6741779
},
{
  "type": "node",
  "id": 1854475786,
  "lat": 50.1071487,
  "lon": 8.6741676
},
{
  "type": "node",
  "id": 1854475797,
  "lat": 50.1071777,
  "lon": 8.6742700
},
{
  "type": "node",
  "id": 1854475799,
  "lat": 50.1073054,
  "lon": 8.6745729
},
{
  "type": "node",
  "id": 1854475800,
  "lat": 50.1073106,
  "lon": 8.6749372
},
{
  "type": "node",
  "id": 1854475814,
  "lat": 50.1074147,
  "lon": 8.6748280
},
{
  "type": "node",
  "id": 1854475817,
  "lat": 50.1074321,
  "lon": 8.6748097
},
{
  "type": "node",
  "id": 1854475836,
  "lat": 50.1074738,
  "lon": 8.6748063
},
{
  "type": "node",
  "id": 1854475853,
  "lat": 50.1075182,
  "lon": 8.6747599
},
{
  "type": "node",
  "id": 1854475857,
  "lat": 50.1075253,
  "lon": 8.6747763
},
{
  "type": "node",
  "id": 1854475872,
  "lat": 50.1075577,
  "lon": 8.6747232
},
{
  "type": "node",
  "id": 1854475878,
  "lat": 50.1075636,
  "lon": 8.6744330
},
{
  "type": "node",
  "id": 1854475880,
  "lat": 50.1075634,
  "lon": 8.6747365
},
{
  "type": "node",
  "id": 1854475895,
  "lat": 50.1075875,
  "lon": 8.6744887
},
{
  "type": "node",
  "id": 1854475909,
  "lat": 50.1076204,
  "lon": 8.6745646
},
{
  "type": "node",
  "id": 1854475926,
  "lat": 50.1076480,
  "lon": 8.6746289
},
{
  "type": "node",
  "id": 2543810226,
  "lat": 50.1069075,
  "lon": 8.6739657
},
{
  "type": "node",
  "id": 2543810235,
  "lat": 50.1071156,
  "lon": 8.6737605
},
{
  "type": "node",
  "id": 2543810706,
  "lat": 50.1075602,
  "lon": 8.6743712
},
{
  "type": "node",
  "id": 5969474911,
  "lat": 50.1072618,
  "lon": 8.6738549
},
{
  "type": "node",
  "id": 5969474912,
  "lat": 50.1073048,
  "lon": 8.6741352
},
{
  "type": "node",
  "id": 5969474913,
  "lat": 50.1074769,
  "lon": 8.6742237
},
{
  "type": "node",
  "id": 5969474914,
  "lat": 50.1073479,
  "lon": 8.6737892
},
{
  "type": "node",
  "id": 489979497,
  "lat": 50.1101436,
  "lon": 8.6831495
},
{
  "type": "node",
  "id": 489979501,
  "lat": 50.1101848,
  "lon": 8.6828810
},
{
  "type": "node",
  "id": 489979503,
  "lat": 50.1100995,
  "lon": 8.6831678
},
{
  "type": "node",
  "id": 489979508,
  "lat": 50.1101441,
  "lon": 8.6834340
},
{
  "type": "node",
  "id": 489979516,
  "lat": 50.1099989,
  "lon": 8.6834910
},
{
  "type": "node",
  "id": 489979549,
  "lat": 50.1100766,
  "lon": 8.6834630
},
{
  "type": "node",
  "id": 489979556,
  "lat": 50.1101667,
  "lon": 8.6828885
},
{
  "type": "node",
  "id": 489979559,
  "lat": 50.1101034,
  "lon": 8.6829147
},
{
  "type": "node",
  "id": 489979589,
  "lat": 50.1103355,
  "lon": 8.6834048
},
{
  "type": "node",
  "id": 489979596,
  "lat": 50.1102921,
  "lon": 8.6834278
},
{
  "type": "node",
  "id": 489979608,
  "lat": 50.1098267,
  "lon": 8.6820770
},
{
  "type": "node",
  "id": 489979614,
  "lat": 50.1094006,
  "lon": 8.6822666
},
{
  "type": "node",
  "id": 489979616,
  "lat": 50.1094070,
  "lon": 8.6823695
},
{
  "type": "node",
  "id": 860226494,
  "lat": 50.1103055,
  "lon": 8.6834159
},
{
  "type": "node",
  "id": 860226552,
  "lat": 50.1102803,
  "lon": 8.6834434
},
{
  "type": "node",
  "id": 860226579,
  "lat": 50.1103202,
  "lon": 8.6834081
},
{
  "type": "node",
  "id": 860233470,
  "lat": 50.1103016,
  "lon": 8.6831931
},
{
  "type": "node",
  "id": 860233473,
  "lat": 50.1104978,
  "lon": 8.6833171
},
{
  "type": "node",
  "id": 860233474,
  "lat": 50.1105287,
  "lon": 8.6833920
},
{
  "type": "node",
  "id": 860233475,
  "lat": 50.1105398,
  "lon": 8.6834373
},
{
  "type": "node",
  "id": 860233476,
  "lat": 50.1104334,
  "lon": 8.6832339
},
{
  "type": "node",
  "id": 860233480,
  "lat": 50.1105172,
  "lon": 8.6833583
},
{
  "type": "node",
  "id": 860233482,
  "lat": 50.1104621,
  "lon": 8.6832626
},
{
  "type": "node",
  "id": 860233483,
  "lat": 50.1104115,
  "lon": 8.6832178
},
{
  "type": "node",
  "id": 860233484,
  "lat": 50.1103828,
  "lon": 8.6832050
},
{
  "type": "node",
  "id": 860233486,
  "lat": 50.1103302,
  "lon": 8.6831929
},
{
  "type": "node",
  "id": 860233487,
  "lat": 50.1105452,
  "lon": 8.6834696
},
{
  "type": "node",
  "id": 860233488,
  "lat": 50.1105268,
  "lon": 8.6835061
},
{
  "type": "node",
  "id": 860233490,
  "lat": 50.1105241,
  "lon": 8.6834748
},
{
  "type": "node",
  "id": 860233492,
  "lat": 50.1103570,
  "lon": 8.6831963
},
{
  "type": "node",
  "id": 860469877,
  "lat": 50.1092255,
  "lon": 8.6775296
},
{
  "type": "node",
  "id": 860469934,
  "lat": 50.1091383,
  "lon": 8.6780354
},
{
  "type": "node",
  "id": 860469939,
  "lat": 50.1090354,
  "lon": 8.6782795
},
{
  "type": "node",
  "id": 860469951,
  "lat": 50.1092295,
  "lon": 8.6785458
},
{
  "type": "node",
  "id": 860469954,
  "lat": 50.1094737,
  "lon": 8.6785297
},
{
  "type": "node",
  "id": 860469988,
  "lat": 50.1088255,
  "lon": 8.6779413
},
{
  "type": "node",
  "id": 860470032,
  "lat": 50.1091565,
  "lon": 8.6783829
},
{
  "type": "node",
  "id": 860470046,
  "lat": 50.1092638,
  "lon": 8.6777579
},
{
  "type": "node",
  "id": 860470088,
  "lat": 50.1093558,
  "lon": 8.6784793
},
{
  "type": "node",
  "id": 860470090,
  "lat": 50.1094565,
  "lon": 8.6784422
},
{
  "type": "node",
  "id": 860470131,
  "lat": 50.1088625,
  "lon": 8.6782131
},
{
  "type": "node",
  "id": 860470139,
  "lat": 50.1091862,
  "lon": 8.6785665
},
{
  "type": "node",
  "id": 860470144,
  "lat": 50.1091196,
  "lon": 8.6778159
},
{
  "type": "node",
  "id": 860470177,
  "lat": 50.1090644,
  "lon": 8.6784080
},
{
  "type": "node",
  "id": 860470181,
  "lat": 50.1094895,
  "lon": 8.6784241
},
{
  "type": "node",
  "id": 860470226,
  "lat": 50.1089366,
  "lon": 8.6781841
},
{
  "type": "node",
  "id": 860470231,
  "lat": 50.1091542,
  "lon": 8.6785829
},
{
  "type": "node",
  "id": 860470239,
  "lat": 50.1090648,
  "lon": 8.6775254
},
{
  "type": "node",
  "id": 860470283,
  "lat": 50.1090977,
  "lon": 8.6784638
},
{
  "type": "node",
  "id": 860470287,
  "lat": 50.1093142,
  "lon": 8.6774860
},
{
  "type": "node",
  "id": 860470346,
  "lat": 50.1089567,
  "lon": 8.6783162
},
{
  "type": "node",
  "id": 860470348,
  "lat": 50.1091758,
  "lon": 8.6786851
},
{
  "type": "node",
  "id": 860470363,
  "lat": 50.1089194,
  "lon": 8.6776665
},
{
  "type": "node",
  "id": 860470370,
  "lat": 50.1089583,
  "lon": 8.6778812
},
{
  "type": "node",
  "id": 860470375,
  "lat": 50.1092661,
  "lon": 8.6779811
},
{
  "type": "node",
  "id": 860470401,
  "lat": 50.1091513,
  "lon": 8.6784321
},
{
  "type": "node",
  "id": 863102925,
  "lat": 50.1091773,
  "lon": 8.6822797
},
{
  "type": "node",
  "id": 863102929,
  "lat": 50.1096095,
  "lon": 8.6829839
},
{
  "type": "node",
  "id": 863102934,
  "lat": 50.1094558,
  "lon": 8.6831330
},
{
  "type": "node",
  "id": 863102935,
  "lat": 50.1094605,
  "lon": 8.6831171
},
{
  "type": "node",
  "id": 863102954,
  "lat": 50.1093785,
  "lon": 8.6831199
},
{
  "type": "node",
  "id": 863102957,
  "lat": 50.1093680,
  "lon": 8.6829157
},
{
  "type": "node",
  "id": 863102959,
  "lat": 50.1092188,
  "lon": 8.6823587
},
{
  "type": "node",
  "id": 863102961,
  "lat": 50.1094138,
  "lon": 8.6829201
},
{
  "type": "node",
  "id": 863102963,
  "lat": 50.1093353,
  "lon": 8.6830954
},
{
  "type": "node",
  "id": 863102983,
  "lat": 50.1094126,
  "lon": 8.6829101
},
{
  "type": "node",
  "id": 863102986,
  "lat": 50.1096023,
  "lon": 8.6829169
},
{
  "type": "node",
  "id": 863102992,
  "lat": 50.1093784,
  "lon": 8.6828941
},
{
  "type": "node",
  "id": 863102996,
  "lat": 50.1093592,
  "lon": 8.6827877
},
{
  "type": "node",
  "id": 863103015,
  "lat": 50.1093855,
  "lon": 8.6831369
},
{
  "type": "node",
  "id": 863103029,
  "lat": 50.1096141,
  "lon": 8.6830260
},
{
  "type": "node",
  "id": 863103032,
  "lat": 50.1094174,
  "lon": 8.6831694
},
{
  "type": "node",
  "id": 863103048,
  "lat": 50.1094285,
  "lon": 8.6831672
},
{
  "type": "node",
  "id": 863103053,
  "lat": 50.1091791,
  "lon": 8.6822578
},
{
  "type": "node",
  "id": 863103057,
  "lat": 50.1094625,
  "lon": 8.6830995
},
{
  "type": "node",
  "id": 863103062,
  "lat": 50.1094501,
  "lon": 8.6831460
},
{
  "type": "node",
  "id": 863103072,
  "lat": 50.1093925,
  "lon": 8.6831506
},
{
  "type": "node",
  "id": 863103096,
  "lat": 50.1091933,
  "lon": 8.6823637
},
{
  "type": "node",
  "id": 863103105,
  "lat": 50.1094613,
  "lon": 8.6830797
},
{
  "type": "node",
  "id": 863103112,
  "lat": 50.1093743,
  "lon": 8.6830869
},
{
  "type": "node",
  "id": 863103126,
  "lat": 50.1093953,
  "lon": 8.6828888
},
{
  "type": "node",
  "id": 863103132,
  "lat": 50.1094051,
  "lon": 8.6828968
},
{
  "type": "node",
  "id": 863103137,
  "lat": 50.1093753,
  "lon": 8.6830990
},
{
  "type": "node",
  "id": 863103146,
  "lat": 50.1093138,
  "lon": 8.6824084
},
{
  "type": "node",
  "id": 863103160,
  "lat": 50.1095975,
  "lon": 8.6828721
},
{
  "type": "node",
  "id": 863103162,
  "lat": 50.1094002,
  "lon": 8.6831610
},
{
  "type": "node",
  "id": 863103168,
  "lat": 50.1094435,
  "lon": 8.6831556
},
{
  "type": "node",
  "id": 863103172,
  "lat": 50.1092893,
  "lon": 8.6828169
},
{
  "type": "node",
  "id": 863103175,
  "lat": 50.1093671,
  "lon": 8.6822799
},
{
  "type": "node",
  "id": 863103185,
  "lat": 50.1094826,
  "lon": 8.6830605
},
{
  "type": "node",
  "id": 863103188,
  "lat": 50.1094369,
  "lon": 8.6831636
},
{
  "type": "node",
  "id": 863103193,
  "lat": 50.1094067,
  "lon": 8.6831667
},
{
  "type": "node",
  "id": 1447996715,
  "lat": 50.1098964,
  "lon": 8.6830178
},
{
  "type": "node",
  "id": 1447996718,
  "lat": 50.1094847,
  "lon": 8.6821139
},
{
  "type": "node",
  "id": 1618995152,
  "lat": 50.1092619,
  "lon": 8.6823495
},
{
  "type": "node",
  "id": 1618995153,
  "lat": 50.1092474,
  "lon": 8.6822737
},
{
  "type": "node",
  "id": 1851738958,
  "lat": 50.1094660,
  "lon": 8.6829065
},
{
  "type": "node",
  "id": 1851742386,
  "lat": 50.1106799,
  "lon": 8.6774845
},
{
  "type": "node",
  "id": 1851742414,
  "lat": 50.1107657,
  "lon": 8.6775605
},
{
  "type": "node",
  "id": 1851742419,
  "lat": 50.1108583,
  "lon": 8.6774001
},
{
  "type": "node",
  "id": 1851742424,
  "lat": 50.1108847,
  "lon": 8.6771161
},
{
  "type": "node",
  "id": 1851742457,
  "lat": 50.1110064,
  "lon": 8.6776272
},
{
  "type": "node",
  "id": 1851742459,
  "lat": 50.1110273,
  "lon": 8.6774505
},
{
  "type": "node",
  "id": 1851742460,
  "lat": 50.1110286,
  "lon": 8.6774391
},
{
  "type": "node",
  "id": 1851742498,
  "lat": 50.1111425,
  "lon": 8.6776646
},
{
  "type": "node",
  "id": 1851742501,
  "lat": 50.1111492,
  "lon": 8.6774946
},
{
  "type": "node",
  "id": 1851742505,
  "lat": 50.1111516,
  "lon": 8.6774742
},
{
  "type": "node",
  "id": 1851742525,
  "lat": 50.1111635,
  "lon": 8.6774987
},
{
  "type": "node",
  "id": 1851742634,
  "lat": 50.1113472,
  "lon": 8.6777127
},
{
  "type": "node",
  "id": 1851742640,
  "lat": 50.1113593,
  "lon": 8.6776156
},
{
  "type": "node",
  "id": 1851742644,
  "lat": 50.1113628,
  "lon": 8.6775873
},
{
  "type": "node",
  "id": 1851742699,
  "lat": 50.1115102,
  "lon": 8.6776258
},
{
  "type": "node",
  "id": 1851742708,
  "lat": 50.1115721,
  "lon": 8.6777712
},
{
  "type": "node",
  "id": 1851742712,
  "lat": 50.1115871,
  "lon": 8.6774664
},
{
  "type": "node",
  "id": 1851742750,
  "lat": 50.1116717,
  "lon": 8.6775672
},
{
  "type": "node",
  "id": 1851750736,
  "lat": 50.1102231,
  "lon": 8.6831050
},
{
  "type": "node",
  "id": 1852169892,
  "lat": 50.1091880,
  "lon": 8.6823021
},
{
  "type": "node",
  "id": 1852169893,
  "lat": 50.1091946,
  "lon": 8.6823352
},
{
  "type": "node",
  "id": 1852169894,
  "lat": 50.1091958,
  "lon": 8.6822497
},
{
  "type": "node",
  "id": 1852169895,
  "lat": 50.1092022,
  "lon": 8.6822577
},
{
  "type": "node",
  "id": 1852169896,
  "lat": 50.1092031,
  "lon": 8.6823779
},
{
  "type": "node",
  "id": 1852169897,
  "lat": 50.1092153,
  "lon": 8.6823720
},
{
  "type": "node",
  "id": 1852169898,
  "lat": 50.1092216,
  "lon": 8.6822492
},
{
  "type": "node",
  "id": 1852169899,
  "lat": 50.1092271,
  "lon": 8.6822349
},
{
  "type": "node",
  "id": 1852169900,
  "lat": 50.1092380,
  "lon": 8.6823493
},
{
  "type": "node",
  "id": 1852169901,
  "lat": 50.1092431,
  "lon": 8.6822275
},
{
  "type": "node",
  "id": 1852169902,
  "lat": 50.1092478,
  "lon": 8.6823563
},
{
  "type": "node",
  "id": 1852169903,
  "lat": 50.1092520,
  "lon": 8.6822652
},
{
  "type": "node",
  "id": 1852169904,
  "lat": 50.1092532,
  "lon": 8.6822447
},
{
  "type": "node",
  "id": 1852169905,
  "lat": 50.1092532,
  "lon": 8.6823059
},
{
  "type": "node",
  "id": 1852169906,
  "lat": 50.1092601,
  "lon": 8.6823074
},
{
  "type": "node",
  "id": 1852169907,
  "lat": 50.1092665,
  "lon": 8.6823285
},
{
  "type": "node",
  "id": 1852169908,
  "lat": 50.1093574,
  "lon": 8.6822202
},
{
  "type": "node",
  "id": 1852169909,
  "lat": 50.1093749,
  "lon": 8.6827821
},
{
  "type": "node",
  "id": 1852169910,
  "lat": 50.1093824,
  "lon": 8.6830835
},
{
  "type": "node",
  "id": 1852169911,
  "lat": 50.1093994,
  "lon": 8.6821548
},
{
  "type": "node",
  "id": 1852169912,
  "lat": 50.1095107,
  "lon": 8.6822726
},
{
  "type": "node",
  "id": 1852169913,
  "lat": 50.1094596,
  "lon": 8.6830679
},
{
  "type": "node",
  "id": 1852665792,
  "lat": 50.1087758,
  "lon": 8.6775916
},
{
  "type": "node",
  "id": 1852665794,
  "lat": 50.1087796,
  "lon": 8.6775685
},
{
  "type": "node",
  "id": 1852665795,
  "lat": 50.1087905,
  "lon": 8.6775491
},
{
  "type": "node",
  "id": 1852665796,
  "lat": 50.1088130,
  "lon": 8.6775259
},
{
  "type": "node",
  "id": 1852665804,
  "lat": 50.1088717,
  "lon": 8.6779191
},
{
  "type": "node",
  "id": 1852665808,
  "lat": 50.1089045,
  "lon": 8.6781967
},
{
  "type": "node",
  "id": 1852665813,
  "lat": 50.1089364,
  "lon": 8.6784311
},
{
  "type": "node",
  "id": 1852665814,
  "lat": 50.1089375,
  "lon": 8.6787986
},
{
  "type": "node",
  "id": 1852665815,
  "lat": 50.1089441,
  "lon": 8.6783704
},
{
  "type": "node",
  "id": 1852665816,
  "lat": 50.1089505,
  "lon": 8.6784273
},
{
  "type": "node",
  "id": 1852665817,
  "lat": 50.1089570,
  "lon": 8.6787997
},
{
  "type": "node",
  "id": 1852665818,
  "lat": 50.1089572,
  "lon": 8.6785910
},
{
  "type": "node",
  "id": 1852665823,
  "lat": 50.1089673,
  "lon": 8.6785886
},
{
  "type": "node",
  "id": 1852665825,
  "lat": 50.1089679,
  "lon": 8.6787935
},
{
  "type": "node",
  "id": 1852665827,
  "lat": 50.1089761,
  "lon": 8.6783859
},
{
  "type": "node",
  "id": 1852665832,
  "lat": 50.1089834,
  "lon": 8.6787825
},
{
  "type": "node",
  "id": 1852665834,
  "lat": 50.1089879,
  "lon": 8.6784041
},
{
  "type": "node",
  "id": 1852665839,
  "lat": 50.1089985,
  "lon": 8.6785689
},
{
  "type": "node",
  "id": 1852665842,
  "lat": 50.1090068,
  "lon": 8.6787787
},
{
  "type": "node",
  "id": 1852665845,
  "lat": 50.1090076,
  "lon": 8.6784649
},
{
  "type": "node",
  "id": 1852665847,
  "lat": 50.1090372,
  "lon": 8.6787615
},
{
  "type": "node",
  "id": 1853086732,
  "lat": 50.1096280,
  "lon": 8.6830849
},
{
  "type": "node",
  "id": 1853541322,
  "lat": 50.1100340,
  "lon": 8.6834759
},
{
  "type": "node",
  "id": 1853541324,
  "lat": 50.1100349,
  "lon": 8.6834809
},
{
  "type": "node",
  "id": 1854475996,
  "lat": 50.1089833,
  "lon": 8.6783943
},
{
  "type": "node",
  "id": 1854476001,
  "lat": 50.1089977,
  "lon": 8.6784360
},
{
  "type": "node",
  "id": 1854476003,
  "lat": 50.1090091,
  "lon": 8.6785072
},
{
  "type": "node",
  "id": 1854476004,
  "lat": 50.1090099,
  "lon": 8.6784815
},
{
  "type": "node",
  "id": 1854476005,
  "lat": 50.1090101,
  "lon": 8.6784940
},
{
  "type": "node",
  "id": 1854476041,
  "lat": 50.1091995,
  "lon": 8.6783652
},
{
  "type": "node",
  "id": 2104927982,
  "lat": 50.1090310,
  "lon": 8.6783305
},
{
  "type": "node",
  "id": 2104927983,
  "lat": 50.1090342,
  "lon": 8.6783469
},
{
  "type": "node",
  "id": 2104927984,
  "lat": 50.1090440,
  "lon": 8.6783244
},
{
  "type": "node",
  "id": 2104927985,
  "lat": 50.1090469,
  "lon": 8.6783410
},
{
  "type": "node",
  "id": 2104927986,
  "lat": 50.1090484,
  "lon": 8.6784038
},
{
  "type": "node",
  "id": 2104927987,
  "lat": 50.1090533,
  "lon": 8.6784176
},
{
  "type": "node",
  "id": 2104927988,
  "lat": 50.1090571,
  "lon": 8.6783942
},
{
  "type": "node",
  "id": 2104927989,
  "lat": 50.1090888,
  "lon": 8.6784603
},
{
  "type": "node",
  "id": 2104927990,
  "lat": 50.1090917,
  "lon": 8.6784427
},
{
  "type": "node",
  "id": 2104927991,
  "lat": 50.1091006,
  "lon": 8.6784462
},
{
  "type": "node",
  "id": 2104927992,
  "lat": 50.1091370,
  "lon": 8.6784300
},
{
  "type": "node",
  "id": 2104927993,
  "lat": 50.1091439,
  "lon": 8.6784422
},
{
  "type": "node",
  "id": 2104927994,
  "lat": 50.1091444,
  "lon": 8.6784198
},
{
  "type": "node",
  "id": 2545840581,
  "lat": 50.1090369,
  "lon": 8.6775525
},
{
  "type": "node",
  "id": 2545840630,
  "lat": 50.1116613,
  "lon": 8.6775548
},
{
  "type": "node",
  "id": 2547038069,
  "lat": 50.1090244,
  "lon": 8.6787688
},
{
  "type": "node",
  "id": 2547038076,
  "lat": 50.1094046,
  "lon": 8.6779697
},
{
  "type": "node",
  "id": 2547104690,
  "lat": 50.1093678,
  "lon": 8.6829428
},
{
  "type": "node",
  "id": 2547104692,
  "lat": 50.1093738,
  "lon": 8.6829691
},
{
  "type": "node",
  "id": 2547104702,
  "lat": 50.1107230,
  "lon": 8.6770679
},
{
  "type": "node",
  "id": 4320738910,
  "lat": 50.1095640,
  "lon": 8.6826588
},
{
  "type": "node",
  "id": 4320738911,
  "lat": 50.1096653,
  "lon": 8.6821118
},
{
  "type": "node",
  "id": 4320738912,
  "lat": 50.1096652,
  "lon": 8.6821061
},
{
  "type": "node",
  "id": 4320738913,
  "lat": 50.1097370,
  "lon": 8.6830530
},
{
  "type": "node",
  "id": 4320738914,
  "lat": 50.1097366,
  "lon": 8.6830539
},
{
  "type": "node",
  "id": 5522460705,
  "lat": 50.1095201,
  "lon": 8.6823413
},
{
  "type": "node",
  "id": 5522460706,
  "lat": 50.1095720,
  "lon": 8.6821454
},
{
  "type": "node",
  "id": 5522460708,
  "lat": 50.1096151,
  "lon": 8.6830053
},
{
  "type": "node",
  "id": 5522460709,
  "lat": 50.1096658,
  "lon": 8.6829959
},
{
  "type": "node",
  "id": 5522460710,
  "lat": 50.1096151,
  "lon": 8.6826284
},
{
  "type": "node",
  "id": 5522460711,
  "lat": 50.1094818,
  "lon": 8.6828148
},
{
  "type": "node",
  "id": 5522460712,
  "lat": 50.1095798,
  "lon": 8.6827746
},
{
  "type": "node",
  "id": 5522460713,
  "lat": 50.1094953,
  "lon": 8.6821746
},
{
  "type": "node",
  "id": 6270093543,
  "lat": 50.1102409,
  "lon": 8.6832095
},
{
  "type": "node",
  "id": 6270497412,
  "lat": 50.1094939,
  "lon": 8.6821698
},
{
  "type": "node",
  "id": 6270497424,
  "lat": 50.1102860,
  "lon": 8.6834352
},
{
  "type": "node",
  "id": 6270497425,
  "lat": 50.1102986,
  "lon": 8.6834213
},
{
  "type": "node",
  "id": 6270497426,
  "lat": 50.1103127,
  "lon": 8.6834115
},
{
  "type": "node",
  "id": 6270497427,
  "lat": 50.1103278,
  "lon": 8.6834059
},
{
  "type": "node",
  "id": 651553,
  "lat": 50.1110853,
  "lon": 8.6846079
},
{
  "type": "node",
  "id": 98156872,
  "lat": 50.1107713,
  "lon": 8.6852299
},
{
  "type": "node",
  "id": 412962799,
  "lat": 50.1117196,
  "lon": 8.6846243
},
{
  "type": "node",
  "id": 412962800,
  "lat": 50.1118293,
  "lon": 8.6845624
},
{
  "type": "node",
  "id": 412962801,
  "lat": 50.1119715,
  "lon": 8.6844689
},
{
  "type": "node",
  "id": 412962802,
  "lat": 50.1120262,
  "lon": 8.6844568
},
{
  "type": "node",
  "id": 420782423,
  "lat": 50.1065964,
  "lon": 8.6878523
},
{
  "type": "node",
  "id": 420782424,
  "lat": 50.1066005,
  "lon": 8.6880342
},
{
  "type": "node",
  "id": 420782425,
  "lat": 50.1068073,
  "lon": 8.6881170
},
{
  "type": "node",
  "id": 420782426,
  "lat": 50.1067434,
  "lon": 8.6884876
},
{
  "type": "node",
  "id": 420782427,
  "lat": 50.1066000,
  "lon": 8.6884436
},
{
  "type": "node",
  "id": 420782428,
  "lat": 50.1065967,
  "lon": 8.6884944
},
{
  "type": "node",
  "id": 420782429,
  "lat": 50.1063443,
  "lon": 8.6884847
},
{
  "type": "node",
  "id": 420782430,
  "lat": 50.1063352,
  "lon": 8.6886591
},
{
  "type": "node",
  "id": 420782431,
  "lat": 50.1065986,
  "lon": 8.6886760
},
{
  "type": "node",
  "id": 420782433,
  "lat": 50.1067462,
  "lon": 8.6887149
},
{
  "type": "node",
  "id": 420782434,
  "lat": 50.1067035,
  "lon": 8.6889845
},
{
  "type": "node",
  "id": 420782438,
  "lat": 50.1069565,
  "lon": 8.6879781
},
{
  "type": "node",
  "id": 471869251,
  "lat": 50.1079715,
  "lon": 8.6874345
},
{
  "type": "node",
  "id": 472582613,
  "lat": 50.1080594,
  "lon": 8.6874338
},
{
  "type": "node",
  "id": 472582615,
  "lat": 50.1080586,
  "lon": 8.6871950
},
{
  "type": "node",
  "id": 472582616,
  "lat": 50.1079707,
  "lon": 8.6871957
},
{
  "type": "node",
  "id": 489979494,
  "lat": 50.1104334,
  "lon": 8.6848146
},
{
  "type": "node",
  "id": 489979500,
  "lat": 50.1105101,
  "lon": 8.6847828
},
{
  "type": "node",
  "id": 489979506,
  "lat": 50.1102885,
  "lon": 8.6839681
},
{
  "type": "node",
  "id": 489979509,
  "lat": 50.1102399,
  "lon": 8.6839882
},
{
  "type": "node",
  "id": 489979510,
  "lat": 50.1101953,
  "lon": 8.6837218
},
{
  "type": "node",
  "id": 489979517,
  "lat": 50.1100524,
  "lon": 8.6837914
},
{
  "type": "node",
  "id": 489979520,
  "lat": 50.1103849,
  "lon": 8.6845316
},
{
  "type": "node",
  "id": 489979522,
  "lat": 50.1104082,
  "lon": 8.6846673
},
{
  "type": "node",
  "id": 489979523,
  "lat": 50.1103291,
  "lon": 8.6845165
},
{
  "type": "node",
  "id": 489979525,
  "lat": 50.1103462,
  "lon": 8.6846826
},
{
  "type": "node",
  "id": 489979590,
  "lat": 50.1103292,
  "lon": 8.6836591
},
{
  "type": "node",
  "id": 842348790,
  "lat": 50.1119218,
  "lon": 8.6844869
},
{
  "type": "node",
  "id": 842348820,
  "lat": 50.1118282,
  "lon": 8.6845429
},
{
  "type": "node",
  "id": 842348892,
  "lat": 50.1117262,
  "lon": 8.6845875
},
{
  "type": "node",
  "id": 848774870,
  "lat": 50.1063432,
  "lon": 8.6885059
},
{
  "type": "node",
  "id": 848774876,
  "lat": 50.1063156,
  "lon": 8.6885024
},
{
  "type": "node",
  "id": 848774880,
  "lat": 50.1063374,
  "lon": 8.6886108
},
{
  "type": "node",
  "id": 848774888,
  "lat": 50.1063095,
  "lon": 8.6886097
},
{
  "type": "node",
  "id": 860226508,
  "lat": 50.1103176,
  "lon": 8.6836556
},
{
  "type": "node",
  "id": 860226545,
  "lat": 50.1103411,
  "lon": 8.6836600
},
{
  "type": "node",
  "id": 860226554,
  "lat": 50.1104356,
  "lon": 8.6839562
},
{
  "type": "node",
  "id": 860226589,
  "lat": 50.1103805,
  "lon": 8.6836425
},
{
  "type": "node",
  "id": 860226601,
  "lat": 50.1104656,
  "lon": 8.6839436
},
{
  "type": "node",
  "id": 860233469,
  "lat": 50.1105261,
  "lon": 8.6835771
},
{
  "type": "node",
  "id": 860233472,
  "lat": 50.1105235,
  "lon": 8.6836095
},
{
  "type": "node",
  "id": 860233477,
  "lat": 50.1104782,
  "lon": 8.6836258
},
{
  "type": "node",
  "id": 860233478,
  "lat": 50.1105273,
  "lon": 8.6835433
},
{
  "type": "node",
  "id": 860233481,
  "lat": 50.1105007,
  "lon": 8.6836238
},
{
  "type": "node",
  "id": 860233485,
  "lat": 50.1105196,
  "lon": 8.6836323
},
{
  "type": "node",
  "id": 860233491,
  "lat": 50.1104161,
  "lon": 8.6836503
},
{
  "type": "node",
  "id": 861135442,
  "lat": 50.1109320,
  "lon": 8.6849685
},
{
  "type": "node",
  "id": 1311995820,
  "lat": 50.1110597,
  "lon": 8.6843911
},
{
  "type": "node",
  "id": 1311995825,
  "lat": 50.1114006,
  "lon": 8.6842308
},
{
  "type": "node",
  "id": 1311995827,
  "lat": 50.1111121,
  "lon": 8.6846018
},
{
  "type": "node",
  "id": 1311995828,
  "lat": 50.1114533,
  "lon": 8.6844297
},
{
  "type": "node",
  "id": 1311995832,
  "lat": 50.1112582,
  "lon": 8.6843134
},
{
  "type": "node",
  "id": 1311995834,
  "lat": 50.1112271,
  "lon": 8.6845573
},
{
  "type": "node",
  "id": 1311995836,
  "lat": 50.1111264,
  "lon": 8.6843726
},
{
  "type": "node",
  "id": 1311995838,
  "lat": 50.1112996,
  "lon": 8.6845252
},
{
  "type": "node",
  "id": 1478148932,
  "lat": 50.1067882,
  "lon": 8.6890151
},
{
  "type": "node",
  "id": 1840766370,
  "lat": 50.1107627,
  "lon": 8.6851065
},
{
  "type": "node",
  "id": 1840766375,
  "lat": 50.1108186,
  "lon": 8.6850050
},
{
  "type": "node",
  "id": 1840766377,
  "lat": 50.1108591,
  "lon": 8.6849807
},
{
  "type": "node",
  "id": 1840766378,
  "lat": 50.1108603,
  "lon": 8.6849981
},
{
  "type": "node",
  "id": 1840766379,
  "lat": 50.1108678,
  "lon": 8.6850890
},
{
  "type": "node",
  "id": 1840766380,
  "lat": 50.1108762,
  "lon": 8.6852124
},
{
  "type": "node",
  "id": 1840766383,
  "lat": 50.1109540,
  "lon": 8.6852907
},
{
  "type": "node",
  "id": 1842229596,
  "lat": 50.1068399,
  "lon": 8.6886879
},
{
  "type": "node",
  "id": 1842229597,
  "lat": 50.1068473,
  "lon": 8.6886412
},
{
  "type": "node",
  "id": 1842229598,
  "lat": 50.1068598,
  "lon": 8.6886976
},
{
  "type": "node",
  "id": 1842229599,
  "lat": 50.1068658,
  "lon": 8.6886505
},
{
  "type": "node",
  "id": 1842229600,
  "lat": 50.1068951,
  "lon": 8.6883391
},
{
  "type": "node",
  "id": 1842229601,
  "lat": 50.1069019,
  "lon": 8.6882958
},
{
  "type": "node",
  "id": 1842229602,
  "lat": 50.1069144,
  "lon": 8.6883511
},
{
  "type": "node",
  "id": 1842229603,
  "lat": 50.1069224,
  "lon": 8.6883041
},
{
  "type": "node",
  "id": 1851761140,
  "lat": 50.1107565,
  "lon": 8.6850154
},
{
  "type": "node",
  "id": 1852182458,
  "lat": 50.1111949,
  "lon": 8.6843448
},
{
  "type": "node",
  "id": 1852182459,
  "lat": 50.1113340,
  "lon": 8.6842716
},
{
  "type": "node",
  "id": 1852182460,
  "lat": 50.1113837,
  "lon": 8.6844767
},
{
  "type": "node",
  "id": 1852182477,
  "lat": 50.1120350,
  "lon": 8.6845390
},
{
  "type": "node",
  "id": 1852182478,
  "lat": 50.1120488,
  "lon": 8.6845067
},
{
  "type": "node",
  "id": 1852182479,
  "lat": 50.1120514,
  "lon": 8.6845346
},
{
  "type": "node",
  "id": 1853086784,
  "lat": 50.1101673,
  "lon": 8.6837338
},
{
  "type": "node",
  "id": 1853086790,
  "lat": 50.1102073,
  "lon": 8.6837979
},
{
  "type": "node",
  "id": 1853086801,
  "lat": 50.1103356,
  "lon": 8.6837583
},
{
  "type": "node",
  "id": 1853541347,
  "lat": 50.1100851,
  "lon": 8.6837691
},
{
  "type": "node",
  "id": 1853541350,
  "lat": 50.1100865,
  "lon": 8.6837767
},
{
  "type": "node",
  "id": 1853541474,
  "lat": 50.1103288,
  "lon": 8.6845039
},
{
  "type": "node",
  "id": 1853541475,
  "lat": 50.1103321,
  "lon": 8.6844941
},
{
  "type": "node",
  "id": 1853541481,
  "lat": 50.1103371,
  "lon": 8.6844846
},
{
  "type": "node",
  "id": 1853541488,
  "lat": 50.1103465,
  "lon": 8.6844825
},
{
  "type": "node",
  "id": 1853541489,
  "lat": 50.1103543,
  "lon": 8.6844845
},
{
  "type": "node",
  "id": 1853541496,
  "lat": 50.1103613,
  "lon": 8.6844928
},
{
  "type": "node",
  "id": 1853541499,
  "lat": 50.1103674,
  "lon": 8.6845065
},
{
  "type": "node",
  "id": 1853541501,
  "lat": 50.1103643,
  "lon": 8.6836538
},
{
  "type": "node",
  "id": 1853541503,
  "lat": 50.1103722,
  "lon": 8.6845353
},
{
  "type": "node",
  "id": 1912699598,
  "lat": 50.1107774,
  "lon": 8.6853200
},
{
  "type": "node",
  "id": 2495222643,
  "lat": 50.1080210,
  "lon": 8.6874341
},
{
  "type": "node",
  "id": 2495222645,
  "lat": 50.1117231,
  "lon": 8.6846049
},
{
  "type": "node",
  "id": 2676934028,
  "lat": 50.1064867,
  "lon": 8.6884901
},
{
  "type": "node",
  "id": 4957006356,
  "lat": 50.1107635,
  "lon": 8.6851177
},
{
  "type": "node",
  "id": 4957006361,
  "lat": 50.1107706,
  "lon": 8.6852197
},
{
  "type": "node",
  "id": 5240710482,
  "lat": 50.1067235,
  "lon": 8.6878967
},
{
  "type": "node",
  "id": 6268283152,
  "lat": 50.1104717,
  "lon": 8.6836283
},
{
  "type": "node",
  "id": 6270093541,
  "lat": 50.1105050,
  "lon": 8.6847470
},
{
  "type": "node",
  "id": 6270497417,
  "lat": 50.1103753,
  "lon": 8.6836469
},
{
  "type": "node",
  "id": 6270497449,
  "lat": 50.1103470,
  "lon": 8.6836595
},
{
  "type": "node",
  "id": 6270497450,
  "lat": 50.1103586,
  "lon": 8.6836563
},
{
  "type": "node",
  "id": 6270497451,
  "lat": 50.1103529,
  "lon": 8.6836582
},
{
  "type": "node",
  "id": 6270497452,
  "lat": 50.1103699,
  "lon": 8.6836507
},
{
  "type": "node",
  "id": 6270497453,
  "lat": 50.1103351,
  "lon": 8.6836599
},
{
  "type": "node",
  "id": 6270497454,
  "lat": 50.1103234,
  "lon": 8.6836577
},
{
  "type": "node",
  "id": 6938590164,
  "lat": 50.1107876,
  "lon": 8.6850102
},
{
  "type": "node",
  "id": 6938590165,
  "lat": 50.1108395,
  "lon": 8.6850015
},
{
  "type": "node",
  "id": 6938590166,
  "lat": 50.1109403,
  "lon": 8.6850895
},
{
  "type": "node",
  "id": 1033446566,
  "lat": 50.1149205,
  "lon": 8.6670171
},
{
  "type": "node",
  "id": 1033447169,
  "lat": 50.1149276,
  "lon": 8.6671650
},
{
  "type": "node",
  "id": 1033447362,
  "lat": 50.1151046,
  "lon": 8.6669954
},
{
  "type": "node",
  "id": 1033447848,
  "lat": 50.1151118,
  "lon": 8.6671433
},
{
  "type": "node",
  "id": 696972149,
  "lat": 50.1174967,
  "lon": 8.6765336
},
{
  "type": "node",
  "id": 696972156,
  "lat": 50.1174543,
  "lon": 8.6763512
},
{
  "type": "node",
  "id": 696972163,
  "lat": 50.1174041,
  "lon": 8.6763796
},
{
  "type": "node",
  "id": 696972166,
  "lat": 50.1174465,
  "lon": 8.6765620
},
{
  "type": "node",
  "id": 259067701,
  "lat": 50.1356182,
  "lon": 8.6615691
},
{
  "type": "node",
  "id": 259067702,
  "lat": 50.1359297,
  "lon": 8.6617131
},
{
  "type": "node",
  "id": 259067703,
  "lat": 50.1359324,
  "lon": 8.6620710
},
{
  "type": "node",
  "id": 259067704,
  "lat": 50.1356220,
  "lon": 8.6620767
},
{
  "type": "node",
  "id": 3183086062,
  "lat": 50.1356567,
  "lon": 8.6615684
},
{
  "type": "node",
  "id": 3183086087,
  "lat": 50.1359286,
  "lon": 8.6615634
},
{
  "type": "node",
  "id": 3183086088,
  "lat": 50.1359294,
  "lon": 8.6616710
},
{
  "type": "node",
  "id": 3183086089,
  "lat": 50.1359310,
  "lon": 8.6618900
},
{
  "type": "node",
  "id": 412962803,
  "lat": 50.1121550,
  "lon": 8.6844822
},
{
  "type": "node",
  "id": 412962805,
  "lat": 50.1122595,
  "lon": 8.6856154
},
{
  "type": "node",
  "id": 1852182484,
  "lat": 50.1121540,
  "lon": 8.6846806
},
{
  "type": "node",
  "id": 1852182485,
  "lat": 50.1121541,
  "lon": 8.6846541
},
{
  "type": "node",
  "id": 1852182486,
  "lat": 50.1121573,
  "lon": 8.6847097
},
{
  "type": "node",
  "id": 1852182487,
  "lat": 50.1121582,
  "lon": 8.6846314
},
{
  "type": "node",
  "id": 1852182488,
  "lat": 50.1121629,
  "lon": 8.6847326
},
{
  "type": "node",
  "id": 1852182489,
  "lat": 50.1121715,
  "lon": 8.6847469
},
{
  "type": "node",
  "id": 1852182492,
  "lat": 50.1122460,
  "lon": 8.6853827
},
{
  "type": "node",
  "id": 2561866548,
  "lat": 50.1121521,
  "lon": 8.6854498
},
{
  "type": "node",
  "id": 2561866550,
  "lat": 50.1121632,
  "lon": 8.6854386
},
{
  "type": "node",
  "id": 2561866554,
  "lat": 50.1121730,
  "lon": 8.6846270
},
{
  "type": "node",
  "id": 2561866558,
  "lat": 50.1121868,
  "lon": 8.6847433
},
{
  "type": "node",
  "id": 2561866584,
  "lat": 50.1122567,
  "lon": 8.6853780
},
{
  "type": "node",
  "id": 1283047480,
  "lat": 50.1309611,
  "lon": 8.7109698
},
{
  "type": "node",
  "id": 1283047831,
  "lat": 50.1308968,
  "lon": 8.7109547
},
{
  "type": "node",
  "id": 1283047931,
  "lat": 50.1309354,
  "lon": 8.7109126
},
{
  "type": "node",
  "id": 1283048722,
  "lat": 50.1309225,
  "lon": 8.7110119
},
{
  "type": "node",
  "id": 2059026682,
  "lat": 50.1404423,
  "lon": 8.3934150
},
{
  "type": "node",
  "id": 2059026699,
  "lat": 50.1404691,
  "lon": 8.3936861
},
{
  "type": "node",
  "id": 2059026702,
  "lat": 50.1404965,
  "lon": 8.3937565
},
{
  "type": "node",
  "id": 2059026705,
  "lat": 50.1404986,
  "lon": 8.3936552
},
{
  "type": "node",
  "id": 2059026708,
  "lat": 50.1405240,
  "lon": 8.3933684
},
{
  "type": "node",
  "id": 2059026711,
  "lat": 50.1405506,
  "lon": 8.3936849
},
{
  "type": "node",
  "id": 2059026714,
  "lat": 50.1405816,
  "lon": 8.3936153
},
{
  "type": "node",
  "id": 4030986641,
  "lat": 50.1404816,
  "lon": 8.3933931
},
{
  "type": "node",
  "id": 738157695,
  "lat": 50.1451456,
  "lon": 8.4463056
},
{
  "type": "node",
  "id": 738157697,
  "lat": 50.1450413,
  "lon": 8.4461185
},
{
  "type": "node",
  "id": 3741748166,
  "lat": 50.1451187,
  "lon": 8.4460133
},
{
  "type": "node",
  "id": 3741748173,
  "lat": 50.1451439,
  "lon": 8.4460585
},
{
  "type": "node",
  "id": 3741748174,
  "lat": 50.1451831,
  "lon": 8.4460054
},
{
  "type": "node",
  "id": 3741748175,
  "lat": 50.1452090,
  "lon": 8.4461747
},
{
  "type": "node",
  "id": 3741748176,
  "lat": 50.1452232,
  "lon": 8.4462002
},
{
  "type": "node",
  "id": 3741748177,
  "lat": 50.1452480,
  "lon": 8.4461217
},
{
  "type": "node",
  "id": 2371826279,
  "lat": 50.1811126,
  "lon": 8.5075877
},
{
  "type": "node",
  "id": 2371826281,
  "lat": 50.1811163,
  "lon": 8.5077682
},
{
  "type": "node",
  "id": 2371826282,
  "lat": 50.1811485,
  "lon": 8.5077630
},
{
  "type": "node",
  "id": 2371826284,
  "lat": 50.1811806,
  "lon": 8.5075856
},
{
  "type": "node",
  "id": 2371826286,
  "lat": 50.1811830,
  "lon": 8.5077236
},
{
  "type": "node",
  "id": 4534220803,
  "lat": 50.1811153,
  "lon": 8.5077172
},
{
  "type": "node",
  "id": 667281392,
  "lat": 50.1679031,
  "lon": 8.5713159
},
{
  "type": "node",
  "id": 667281393,
  "lat": 50.1679394,
  "lon": 8.5712494
},
{
  "type": "node",
  "id": 667281405,
  "lat": 50.1680122,
  "lon": 8.5713464
},
{
  "type": "node",
  "id": 667281411,
  "lat": 50.1679759,
  "lon": 8.5714128
},
{
  "type": "node",
  "id": 42221654,
  "lat": 50.2082828,
  "lon": 8.5555817
},
{
  "type": "node",
  "id": 49332426,
  "lat": 50.2085691,
  "lon": 8.5543255
},
{
  "type": "node",
  "id": 266287540,
  "lat": 50.2074925,
  "lon": 8.5537237
},
{
  "type": "node",
  "id": 266287544,
  "lat": 50.2072873,
  "lon": 8.5550582
},
{
  "type": "node",
  "id": 308904576,
  "lat": 50.2018426,
  "lon": 8.5761206
},
{
  "type": "node",
  "id": 308904579,
  "lat": 50.2018996,
  "lon": 8.5767692
},
{
  "type": "node",
  "id": 308904580,
  "lat": 50.2019386,
  "lon": 8.5766386
},
{
  "type": "node",
  "id": 308904581,
  "lat": 50.2020079,
  "lon": 8.5766786
},
{
  "type": "node",
  "id": 308904582,
  "lat": 50.2020433,
  "lon": 8.5765319
},
{
  "type": "node",
  "id": 308904583,
  "lat": 50.2017895,
  "lon": 8.5762244
},
{
  "type": "node",
  "id": 343210284,
  "lat": 50.2030757,
  "lon": 8.5748017
},
{
  "type": "node",
  "id": 343210288,
  "lat": 50.2029929,
  "lon": 8.5748172
},
{
  "type": "node",
  "id": 343210292,
  "lat": 50.2030010,
  "lon": 8.5749238
},
{
  "type": "node",
  "id": 343210337,
  "lat": 50.2030839,
  "lon": 8.5749083
},
{
  "type": "node",
  "id": 5022425680,
  "lat": 50.2021373,
  "lon": 8.5764866
},
{
  "type": "node",
  "id": 5022425684,
  "lat": 50.2020335,
  "lon": 8.5768597
},
{
  "type": "node",
  "id": 295711193,
  "lat": 50.1780434,
  "lon": 8.6603496
},
{
  "type": "node",
  "id": 295711195,
  "lat": 50.1780668,
  "lon": 8.6606466
},
{
  "type": "node",
  "id": 295711196,
  "lat": 50.1780899,
  "lon": 8.6606330
},
{
  "type": "node",
  "id": 295711197,
  "lat": 50.1781693,
  "lon": 8.6608794
},
{
  "type": "node",
  "id": 295711198,
  "lat": 50.1781253,
  "lon": 8.6609050
},
{
  "type": "node",
  "id": 295711199,
  "lat": 50.1781919,
  "lon": 8.6611814
},
{
  "type": "node",
  "id": 295711200,
  "lat": 50.1780751,
  "lon": 8.6612500
},
{
  "type": "node",
  "id": 295711201,
  "lat": 50.1778813,
  "lon": 8.6604447
},
{
  "type": "node",
  "id": 1255671981,
  "lat": 50.1781075,
  "lon": 8.6606227
},
{
  "type": "node",
  "id": 1255672385,
  "lat": 50.1780703,
  "lon": 8.6604616
},
{
  "type": "node",
  "id": 1255673780,
  "lat": 50.1780282,
  "lon": 8.6604863
},
{
  "type": "node",
  "id": 548131627,
  "lat": 50.2168485,
  "lon": 8.5999609
},
{
  "type": "node",
  "id": 548131630,
  "lat": 50.2168366,
  "lon": 8.6000584
},
{
  "type": "node",
  "id": 548131635,
  "lat": 50.2169670,
  "lon": 8.5999626
},
{
  "type": "node",
  "id": 548131637,
  "lat": 50.2169631,
  "lon": 8.5999949
},
{
  "type": "node",
  "id": 548131639,
  "lat": 50.2167460,
  "lon": 8.6003114
},
{
  "type": "node",
  "id": 548131643,
  "lat": 50.2168803,
  "lon": 8.6005018
},
{
  "type": "node",
  "id": 548131645,
  "lat": 50.2169002,
  "lon": 8.6004463
},
{
  "type": "node",
  "id": 548131648,
  "lat": 50.2169335,
  "lon": 8.6005484
},
{
  "type": "node",
  "id": 548131649,
  "lat": 50.2168506,
  "lon": 8.6007798
},
{
  "type": "node",
  "id": 548131650,
  "lat": 50.2169209,
  "lon": 8.6008413
},
{
  "type": "node",
  "id": 548131632,
  "lat": 50.2170449,
  "lon": 8.5999214
},
{
  "type": "node",
  "id": 548131634,
  "lat": 50.2170374,
  "lon": 8.5999835
},
{
  "type": "node",
  "id": 548131641,
  "lat": 50.2170396,
  "lon": 8.6006412
},
{
  "type": "node",
  "id": 548131647,
  "lat": 50.2170038,
  "lon": 8.6006099
},
{
  "type": "node",
  "id": 548131655,
  "lat": 50.2172510,
  "lon": 8.5999826
},
{
  "type": "node",
  "id": 548131657,
  "lat": 50.2171419,
  "lon": 8.5999502
},
{
  "type": "node",
  "id": 548131659,
  "lat": 50.2172365,
  "lon": 8.6001024
},
{
  "type": "node",
  "id": 548131661,
  "lat": 50.2172272,
  "lon": 8.6001790
},
{
  "type": "node",
  "id": 548131663,
  "lat": 50.2172566,
  "lon": 8.6001083
},
{
  "type": "node",
  "id": 548131665,
  "lat": 50.2172473,
  "lon": 8.6001850
},
{
  "type": "node",
  "id": 548131667,
  "lat": 50.2172104,
  "lon": 8.6003172
},
{
  "type": "node",
  "id": 548131669,
  "lat": 50.2171610,
  "lon": 8.6003026
},
{
  "type": "way",
  "id": 108747626,
  "nodes": [
    1246899710,
    1246899679,
    5024020006,
    5024020009,
    1246899653,
    5024020001,
    5024019998,
    1246899544,
    5024020005,
    5024020002,
    1246899710
  ]
},
{
  "type": "way",
  "id": 514182389,
  "nodes": [
    5024019998,
    5024019999,
    5024020000,
    5024020001,
    5024019998
  ]
},
{
  "type": "way",
  "id": 514182391,
  "nodes": [
    5024020002,
    5024020003,
    5024020004,
    5024020005,
    5024020002
  ]
},
{
  "type": "way",
  "id": 514182393,
  "nodes": [
    5024020006,
    5024020007,
    5024020008,
    5024020009,
    5024020006
  ]
},
{
  "type": "way",
  "id": 91117646,
  "nodes": [
    1057576599,
    5077704581,
    5077704582,
    1057807799,
    1057819630,
    5077704596,
    5077704595,
    1057807775,
    1057807802,
    5077704610,
    5077704609,
    5077704608,
    5077704607,
    5077704606,
    5077704605,
    5077704604,
    5077704603,
    5077704602,
    5077704601,
    5077704600,
    5077704599,
    5077704598,
    5077704597,
    1057576599
  ]
},
{
  "type": "way",
  "id": 165023748,
  "nodes": [
    1766058070,
    1766058073,
    1766058091,
    1766058090,
    1766058109,
    1766058110,
    1766058121,
    1766058118,
    1766058123,
    1766058119,
    1766058117,
    1766058107,
    1766058112,
    1766058105,
    1766058093,
    1766058094,
    1766058084,
    1766058049,
    3094655834,
    1766058038,
    1766058041,
    1766058044,
    1766058048,
    1766058045,
    2904132929,
    1766058050,
    1766058053,
    1766058056,
    1766058054,
    1766058060,
    1766058070
  ]
},
{
  "type": "way",
  "id": 165023756,
  "nodes": [
    1766058101,
    1766058103,
    1766058078,
    3094655839,
    1766058101
  ]
},
{
  "type": "way",
  "id": 304882912,
  "nodes": [
    3094655838,
    3094655837,
    3094655841,
    3094655842,
    3094655840,
    1766058096,
    1766058099,
    3094655838
  ]
},
{
  "type": "way",
  "id": 304882915,
  "nodes": [
    3094655836,
    1766058066,
    1766058058,
    3094655835,
    3094655836
  ]
},
{
  "type": "way",
  "id": 72473813,
  "nodes": [
    860469988,
    1852665804,
    860470370,
    860470363,
    2545840581,
    860470239,
    860470144,
    860470046,
    860469877,
    860470287,
    2547038076,
    860470181,
    860470090,
    860469954,
    860470348,
    860470231,
    860470139,
    860470032,
    2104927994,
    860470401,
    2104927993,
    2104927992,
    2104927991,
    860470283,
    2104927989,
    2104927990,
    860470177,
    2104927987,
    2104927986,
    2104927988,
    2104927985,
    2104927983,
    2104927982,
    2104927984,
    860469939,
    860470346,
    860470226,
    1852665808,
    860470131,
    860469988
  ]
},
{
  "type": "way",
  "id": 72473815,
  "nodes": [
    860470375,
    860470088,
    860469951,
    1854476041,
    860469934,
    860470375
  ]
},
{
  "type": "way",
  "id": 72677586,
  "nodes": [
    863103112,
    1852169910,
    2547104692,
    2547104690,
    863102957,
    863102992,
    863102996,
    863103172,
    863102963,
    863103112
  ]
},
{
  "type": "way",
  "id": 148834018,
  "nodes": [
    863102959,
    1852169897,
    1852169896,
    863103096,
    1852169893,
    1852169892,
    863102925,
    863103053,
    1852169894,
    1852169895,
    1852169898,
    1852169899,
    1852169901,
    1852169904,
    1852169903,
    1618995153,
    1852169905,
    1852169906,
    1852169907,
    1618995152,
    1852169902,
    1852169900,
    863102959
  ]
},
{
  "type": "way",
  "id": 148834019,
  "nodes": [
    863103146,
    1852169909,
    863102996,
    863103172,
    863102959,
    1852169900,
    1852169902,
    1618995152,
    863103146
  ]
},
{
  "type": "way",
  "id": 174500421,
  "nodes": [
    1851738958,
    863103185,
    863103029,
    863102929,
    863102986,
    863103160,
    1851738958
  ]
},
{
  "type": "way",
  "id": 174500422,
  "nodes": [
    863103185,
    1851738958,
    863102961,
    863102983,
    863103132,
    863103126,
    863102992,
    863102957,
    2547104690,
    2547104692,
    1852169910,
    863103112,
    863103137,
    863102954,
    863103015,
    863103072,
    863103162,
    863103193,
    863103032,
    863103048,
    863103188,
    863103168,
    863103062,
    863102934,
    863102935,
    863103057,
    863103105,
    1852169913,
    863103185
  ]
},
{
  "type": "way",
  "id": 174500423,
  "nodes": [
    863103146,
    1618995152,
    1852169907,
    1852169906,
    1852169905,
    1618995153,
    1852169908,
    863103175,
    489979614,
    489979616,
    863103146
  ]
},
{
  "type": "way",
  "id": 174501344,
  "nodes": [
    1851742424,
    1851742419,
    1851742459,
    1851742457,
    1851742414,
    1851742386,
    2547104702,
    1851742424
  ]
},
{
  "type": "way",
  "id": 174501385,
  "nodes": [
    1851742459,
    1851742460,
    1851742505,
    1851742501,
    1851742525,
    1851742498,
    1851742457,
    1851742459
  ]
},
{
  "type": "way",
  "id": 174545092,
  "nodes": [
    489979616,
    5522460711,
    5522460712,
    5522460705,
    1852169912,
    6270497412,
    1447996718,
    1852169911,
    1852169901,
    1852169904,
    1852169903,
    1618995153,
    1852169908,
    863103175,
    489979614,
    489979616
  ]
},
{
  "type": "way",
  "id": 433226418,
  "nodes": [
    4320738911,
    4320738914,
    1853086732,
    5522460708,
    5522460709,
    5522460710,
    4320738910,
    5522460705,
    1852169912,
    5522460713,
    5522460706,
    4320738911
  ]
},
{
  "type": "way",
  "id": 433226419,
  "nodes": [
    489979608,
    4320738912,
    4320738913,
    1447996715,
    489979608
  ]
},
{
  "type": "way",
  "id": 174503729,
  "nodes": [
    98156872,
    4957006361,
    4957006356,
    1840766370,
    1840766379,
    1840766380,
    98156872
  ]
},
{
  "type": "way",
  "id": 174503730,
  "nodes": [
    1840766375,
    6938590165,
    1840766378,
    1840766377,
    861135442,
    6938590166,
    1840766383,
    1912699598,
    98156872,
    1840766380,
    1840766379,
    1840766370,
    1851761140,
    6938590164,
    1840766375
  ]
}

  ]
}
