{
  "version": 0.6,
  "generator": "Overpass API 0.7.55.1011 6c2efc30",
  "osm3s": {
    "timestamp_osm_base": "2020-02-14T15:12:02Z",
    "copyright": "The data included in this document is from www.openstreetmap.org. The data is made available under ODbL."
  },
  "elements": [

{
  "type": "node",
  "id": 187098366,
  "lat": 44.4184435,
  "lon": 8.9245283,
  "tags": {
    "name": "Museo delle culture del mondo",
    "tourism": "museum",
    "wheelchair": "yes",
    "wikidata": "Q3868144",
    "wikipedia": "it:Museo delle culture del mondo"
  }
},
{
  "type": "node",
  "id": 247849985,
  "lat": 44.4124771,
  "lon": 8.9294197,
  "tags": {
    "name": "Museo Risorgimento - Casa Mazzini",
    "phone": "+39 010 2465843",
    "tourism": "museum",
    "url": "http://www.musei.it/liguria/genova/museo-del-risorgimento---casa-mazzini.asp",
    "wikidata": "Q3867926",
    "wikipedia": "it:Museo del Risorgimento e istituto mazziniano"
  }
},
{
  "type": "node",
  "id": 252630595,
  "lat": 44.4043725,
  "lon": 8.9319129,
  "tags": {
    "addr:housenumber": "35 rosso",
    "addr:street": "Piazza Sarzano",
    "name": "Museo di Sant'Agostino",
    "tourism": "museum",
    "url": "http://www.museidigenova.it/spip.php?rubrique27",
    "wheelchair": "yes",
    "wikidata": "Q18613378"
  }
},
{
  "type": "node",
  "id": 253489497,
  "lat": 44.4075798,
  "lon": 8.9348010,
  "tags": {
    "name": "Museo dell'Accademia Ligustica di Belle Arti",
    "tourism": "museum",
    "wikidata": "Q42810756"
  }
},
{
  "type": "node",
  "id": 254372356,
  "lat": 44.4079822,
  "lon": 8.9248654,
  "tags": {
    "access": "no",
    "name": "Museo Emanuele Luzzati",
    "tourism": "museum",
    "wheelchair": "yes",
    "wikidata": "Q20008344",
    "wikipedia": "it:Museo Emanuele Luzzati di Genova"
  }
},
{
  "type": "node",
  "id": 304978993,
  "lat": 44.3459735,
  "lon": 9.2387897,
  "tags": {
    "name": "Museo del Merletto",
    "tourism": "museum",
    "url": "http://www.comune.rapallo.ge.it/interna_AT.asp?menu=316&id=319",
    "wikidata": "Q3867961",
    "wikipedia": "it:Museo del merletto (Rapallo)"
  }
},
{
  "type": "node",
  "id": 310450475,
  "lat": 44.4074060,
  "lon": 8.9322588,
  "tags": {
    "addr:housenumber": "34 rosso",
    "addr:street": "Via Tommaso Reggio",
    "amenity": "nightclub",
    "name": "Louisiana Jazz Club",
    "tourism": "museum",
    "website": "https://www.italianjazzinstitute.com/",
    "wikidata": "Q18785499",
    "wikipedia": "it:Museo del jazz di Genova"
  }
},
{
  "type": "node",
  "id": 549481451,
  "lat": 44.4048901,
  "lon": 8.9048739,
  "tags": {
    "addr:postcode": "16126",
    "addr:street": "Rampa della Lanterna",
    "name": "Museo della Lanterna",
    "opening_hours": "Sa-Mo 14:30-18:30",
    "phone": "+393492809485",
    "tourism": "museum",
    "website": "http://www.laternadigenova.it",
    "wheelchair": "limited"
  }
},
{
  "type": "node",
  "id": 628745865,
  "lat": 44.4284259,
  "lon": 8.8151205,
  "tags": {
    "name": "Museo Navale",
    "tourism": "museum",
    "wikidata": "Q3868414",
    "wikipedia": "it:Museo navale di Pegli"
  }
},
{
  "type": "node",
  "id": 644619948,
  "lat": 44.3318377,
  "lon": 9.2067189,
  "tags": {
    "name": "cimitero",
    "opening_hours": "Jun-Sep: Mo-Su,PH 08:00-19:00; Oct-May: Mo-Su,PH 08:00-17:00",
    "tourism": "museum"
  }
},
{
  "type": "node",
  "id": 664525961,
  "lat": 44.4085329,
  "lon": 8.9278294,
  "tags": {
    "name": "Museo della Storia del Genoa",
    "tourism": "museum",
    "website": "http://genoacfc.it/sede/museum-and-store/",
    "wikidata": "Q3868112",
    "wikipedia": "it:Genoa Museum and Store"
  }
},
{
  "type": "node",
  "id": 691922233,
  "lat": 44.5374125,
  "lon": 8.6987293,
  "tags": {
    "addr:housenumber": "20",
    "addr:street": "Via della Giustizia",
    "contact:phone": "+39 010 920099",
    "name": "Museo civico della Filigrana Pietro Carlo Bosio",
    "tourism": "museum",
    "website": "http://www.museofiligrana.org/",
    "wikidata": "Q55377567"
  }
},
{
  "type": "node",
  "id": 956009817,
  "lat": 44.3481661,
  "lon": 9.2355317,
  "tags": {
    "addr:street": "piazzale Josemaría Escrivá de Balaguer",
    "name": "Museo Attilio e Cleofe Gaffoglio",
    "short_name": "Museo Gaffoglio",
    "tourism": "museum",
    "wikidata": "Q55348595"
  }
},
{
  "type": "node",
  "id": 1273655066,
  "lat": 44.4144399,
  "lon": 9.1595598,
  "tags": {
    "name": "Museo degli orologi da torre Roberto Trebino",
    "tourism": "museum",
    "website": "http://www.trebino.eu/museo-orologi",
    "wikidata": "Q55348692"
  }
},
{
  "type": "node",
  "id": 1634289245,
  "lat": 44.6370385,
  "lon": 8.6474648,
  "tags": {
    "addr:city": "Ovada",
    "addr:housenumber": "17",
    "addr:postcode": "15076",
    "addr:street": "Via Sant'Antonio",
    "email": "museomaini@comune.ovada.al.it",
    "name": "Museo paleontologico \"Giulio Maini\"",
    "opening_hours": "Jun 1-Sep 30: Sa 15:00-18:00; Su 10:00-12:00; Oct 1-May 31: Sa 15:00-18:00; Su 10:00-12:00, 15:00-18:00",
    "phone": "+39 0143 822815",
    "tourism": "museum",
    "website": "http://www.museopaleontologicomaini.it"
  }
},
{
  "type": "node",
  "id": 1759651300,
  "lat": 44.4053983,
  "lon": 8.9291260,
  "tags": {
    "name": "Museo di Santa Maria di Castello",
    "tourism": "museum",
    "website": "http://www.santamariadicastello.it/contesto.html"
  }
},
{
  "type": "node",
  "id": 2274188965,
  "lat": 44.4281349,
  "lon": 8.7685812,
  "tags": {
    "name": "Parco del Basilico di Pra'",
    "tourism": "museum"
  }
},
{
  "type": "node",
  "id": 2387852143,
  "lat": 44.4124217,
  "lon": 8.9283184,
  "tags": {
    "addr:housenumber": "29 rosso",
    "addr:street": "Via del Campo",
    "name": "Via del Campo 29 Rosso",
    "operator": "Solidarietà e lavoro",
    "phone": "+39 010 2474064",
    "tourism": "museum",
    "wikidata": "Q18670434"
  }
},
{
  "type": "node",
  "id": 2442948731,
  "lat": 44.5690612,
  "lon": 8.7788894,
  "tags": {
    "addr:housenumber": "32A",
    "addr:street": "Via Umberto primo",
    "name": "Ecomuseo Cascina Moglioni",
    "tourism": "museum"
  }
},
{
  "type": "node",
  "id": 2990114658,
  "lat": 44.4107756,
  "lon": 8.9302399,
  "tags": {
    "addr:city": "Genova",
    "addr:housenumber": "1",
    "addr:postcode": "16123",
    "addr:street": "Piazza di Pellicceria",
    "email": "palazzospinola@beniculturali.it",
    "name": "Galleria Nazionale di Palazzo Spinola",
    "opening_hours": "Tu-Sa 08:30-19:30; Mo off; Su, PH off",
    "phone": "+39 010 2705300",
    "tourism": "museum",
    "website": "http://www.palazzospinola.beniculturali.it",
    "wikidata": "Q3757770",
    "wikipedia": "it:Galleria nazionale di palazzo Spinola"
  }
},
{
  "type": "node",
  "id": 3298106659,
  "lat": 44.3168505,
  "lon": 9.3273119,
  "tags": {
    "addr:city": "Chiavari",
    "addr:housenumber": "4",
    "addr:postcode": "16043",
    "addr:street": "Via Costaguta",
    "email": "pm-lig.museochiavari@beniculturali.it",
    "name": "Museo Archeologico di Chiavari",
    "opening_hours": "Tu-Sa 09:00-14:00; Su [1,3,5] 09:00-14:00; Mo off; Su [2,4] off",
    "operator": "Soprintendenza Archeologia della Liguria",
    "phone": "+39 0185 320829",
    "tourism": "museum",
    "website": "http://www.musei.liguria.beniculturali.it/musei?mid=187&nome=museo-archeologico-di-chiavari-palazzo-rocca",
    "wheelchair": "limited",
    "wikidata": "Q3867722",
    "wikipedia": "it:Museo archeologico di Chiavari"
  }
},
{
  "type": "node",
  "id": 3450444309,
  "lat": 44.5636691,
  "lon": 8.9879465,
  "tags": {
    "addr:city": "Savignone",
    "addr:housenumber": "12",
    "addr:postcode": "16010",
    "addr:street": "Via Angelo Caprile",
    "name": "Museo degli Alpini",
    "operator": "Grupo Alpini Savignone",
    "phone": "+39 010 9360103",
    "tourism": "museum",
    "website": "http://www.museoalpini.com",
    "wikidata": "Q55348676"
  }
},
{
  "type": "node",
  "id": 3731066767,
  "lat": 44.4032043,
  "lon": 8.5342911,
  "tags": {
    "name": "Museo Archeologico Mario Fenoglio",
    "tourism": "museum"
  }
},
{
  "type": "node",
  "id": 3741493558,
  "lat": 44.3290391,
  "lon": 8.5079992,
  "tags": {
    "addr:housenumber": "29",
    "addr:street": "Viale Giacomo Matteotti",
    "name": "Museo della Ceramica Giuseppe Mazzotti",
    "tourism": "museum",
    "website": "http://www.fondazione.gmazzotti1903.it/index.html",
    "wheelchair": "limited",
    "wikidata": "Q3770979",
    "wikipedia": "it:Giuseppe Mazzotti Manifattura Ceramiche"
  }
},
{
  "type": "node",
  "id": 3747823361,
  "lat": 44.3821984,
  "lon": 9.0456947,
  "tags": {
    "name": "Galleria d'Arte Moderna",
    "tourism": "museum",
    "wikidata": "Q3757718",
    "wikipedia": "it:Galleria d'arte moderna (Genova)"
  }
},
{
  "type": "node",
  "id": 3747823362,
  "lat": 44.3801028,
  "lon": 9.0545837,
  "tags": {
    "name": "Museo Giannettino Luxoro",
    "tourism": "museum",
    "website": "www.museoluxoro.museidigenova.it",
    "wikidata": "Q3867605",
    "wikipedia": "it:Museo Giannettino Luxoro"
  }
},
{
  "type": "node",
  "id": 3747823363,
  "lat": 44.3813514,
  "lon": 9.0477439,
  "tags": {
    "name": "Raccolte Frugone",
    "tourism": "museum",
    "website": "www.museidigenova.it/spip.php?article427",
    "wikidata": "Q2217376",
    "wikipedia": "it:Raccolte Frugone"
  }
},
{
  "type": "node",
  "id": 3762322862,
  "lat": 44.5075058,
  "lon": 8.8915388,
  "tags": {
    "addr:city": "Campomorone",
    "addr:housenumber": "14",
    "addr:postcode": "16014",
    "addr:street": "Via Primo Cavallieri",
    "name": "Museo della CRI",
    "tourism": "museum",
    "website": "http://www.cricampomorone.org/wpcri/?page_id=81"
  }
},
{
  "type": "node",
  "id": 3820290850,
  "lat": 44.3319347,
  "lon": 8.5178418,
  "tags": {
    "level": "1",
    "name": "Museo della Ceramica Manlio Trucco",
    "operator": "Comune di Albisola Superiore",
    "toilets:wheelchair": "yes",
    "tourism": "museum",
    "wheelchair": "yes"
  }
},
{
  "type": "node",
  "id": 3820479008,
  "lat": 44.3360737,
  "lon": 8.5102997,
  "tags": {
    "name": "Giardino Monumentale Fabbrica Pacetti Ernan",
    "tourism": "museum",
    "wheelchair": "no",
    "wikidata": "Q29886150"
  }
},
{
  "type": "node",
  "id": 3820540206,
  "lat": 44.3297187,
  "lon": 8.5143510,
  "tags": {
    "name": "La Stella Collezione permanente di Arte Contemporanea",
    "tourism": "museum",
    "wheelchair": "yes"
  }
},
{
  "type": "node",
  "id": 3942491058,
  "lat": 44.3475350,
  "lon": 9.1567075,
  "tags": {
    "addr:city": "Camogli",
    "addr:housenumber": "42",
    "addr:postcode": "16032",
    "addr:street": "Via Gio Bono Ferrari",
    "name": "Museo Marinaro Gio Bono Ferrari",
    "tourism": "museum",
    "website": "http://www.museomarinaro.it/",
    "wheelchair": "no",
    "wikidata": "Q3868402",
    "wikipedia": "it:Museo marinaro di Camogli"
  }
},
{
  "type": "node",
  "id": 3942501175,
  "lat": 44.3475254,
  "lon": 9.1566767,
  "tags": {
    "addr:city": "Camogli",
    "addr:housenumber": "41",
    "addr:postcode": "16032",
    "addr:street": "Via Gio Bono Ferrari",
    "name": "Sala archeologica",
    "phone": "+39 0185 729048",
    "tourism": "museum",
    "website": "http://www.comune.camogli.ge.it/c010007/zf/index.php/musei-monumenti/index/dettaglio-museo/museo/6",
    "wheelchair": "no"
  }
},
{
  "type": "node",
  "id": 4060409453,
  "lat": 44.4133011,
  "lon": 8.9239692,
  "tags": {
    "addr:housenumber": "9",
    "addr:street": "Calata Andalò di Negro",
    "name": "Museo internazionale del cinema",
    "tourism": "museum",
    "website": "http://www.museointernazionaledelcinema.it/"
  }
},
{
  "type": "node",
  "id": 4187189906,
  "lat": 44.4309632,
  "lon": 9.1822746,
  "tags": {
    "addr:city": "Gattorna",
    "addr:housenumber": "4",
    "addr:street": "Via Terzonasca",
    "name": "La Mecca del Videogioco primo museo videoludico",
    "tourism": "museum"
  }
},
{
  "type": "node",
  "id": 4208087610,
  "lat": 44.5634232,
  "lon": 9.2182267,
  "tags": {
    "name": "Museo del lupo",
    "tourism": "museum",
    "website": "http://www.parcoantola.it/dettaglio.php?id=32549"
  }
},
{
  "type": "node",
  "id": 4208100297,
  "lat": 44.5241651,
  "lon": 9.2478443,
  "tags": {
    "name": "Museo del contadino",
    "tourism": "museum"
  }
},
{
  "type": "node",
  "id": 4339050757,
  "lat": 44.4024954,
  "lon": 8.6185223,
  "tags": {
    "name": "Museo Contadino",
    "tourism": "museum"
  }
},
{
  "type": "node",
  "id": 4378844942,
  "lat": 44.4278758,
  "lon": 8.8061812,
  "tags": {
    "addr:city": "Genova",
    "addr:postcode": "16156",
    "addr:street": "Viale Giorgio Modugno",
    "name": "museo C.L.S.M.",
    "opening_hours": "Sa,Su 14:00-18:00",
    "operator": "C.L.S.M.",
    "tourism": "museum"
  }
},
{
  "type": "node",
  "id": 4405712552,
  "lat": 44.4087333,
  "lon": 8.9339627,
  "tags": {
    "addr:street": "Via Cassa di Risparmio 15",
    "name": "Collezioni di Arte Banca Carige",
    "ref": "19",
    "tourism": "museum"
  }
},
{
  "type": "node",
  "id": 4405714625,
  "lat": 44.4078451,
  "lon": 8.9323805,
  "tags": {
    "addr:street": "Via Tommaso Reggio 34 r",
    "name": "Museo del Jazz Gianni Dagnino - Italian Jazz Institute",
    "ref": "30",
    "source": "Regione Liguria",
    "tourism": "museum"
  }
},
{
  "type": "node",
  "id": 4442370139,
  "lat": 44.5466247,
  "lon": 8.9775670,
  "tags": {
    "name": "Museo Civico Archeologico di Savignone",
    "tourism": "museum"
  }
},
{
  "type": "node",
  "id": 4442370140,
  "lat": 44.5855968,
  "lon": 9.0222995,
  "tags": {
    "addr:street": "Via alla Chiesa",
    "contact:phone": "+39 347 8436982",
    "name": "Museo Paleontologico",
    "tourism": "museum"
  }
},
{
  "type": "node",
  "id": 4442370141,
  "lat": 44.5589513,
  "lon": 8.6753134,
  "tags": {
    "name": "Museo Passatempo - Moto Cicli Oggetti del 900 Collezione privata Minetti & Pizzorno",
    "tourism": "museum"
  }
},
{
  "type": "node",
  "id": 4442370144,
  "lat": 44.5779338,
  "lon": 8.9406895,
  "tags": {
    "name": "Museo del Territorio dell'Alta Valle Scrivia",
    "tourism": "museum"
  }
},
{
  "type": "node",
  "id": 4442381208,
  "lat": 44.4085081,
  "lon": 9.2364536,
  "tags": {
    "name": "Ecomuseo dell'Ardesia - La Via della Pietra Nera",
    "tourism": "museum"
  }
},
{
  "type": "node",
  "id": 4442381209,
  "lat": 44.4409489,
  "lon": 9.2509529,
  "tags": {
    "name": "Monteghirfo: il museo etnografico",
    "tourism": "museum"
  }
},
{
  "type": "node",
  "id": 4442381211,
  "lat": 44.4499394,
  "lon": 9.2605219,
  "tags": {
    "addr:housenumber": "16",
    "addr:street": "Località Acereto",
    "name": "Museo Casa Giannini o Museo dell'Emigrante",
    "tourism": "museum"
  }
},
{
  "type": "node",
  "id": 4468747324,
  "lat": 44.4591881,
  "lon": 8.9013514,
  "tags": {
    "name": "Museo della Montagna",
    "operator": "Municipio V - Val Polcevera",
    "tourism": "museum"
  }
},
{
  "type": "node",
  "id": 4523406529,
  "lat": 44.4294650,
  "lon": 8.8173050,
  "tags": {
    "addr:city": "Genova",
    "addr:housenumber": "11",
    "addr:postcode": "16155",
    "addr:street": "Viale Durazzo Pallavicini",
    "name": "Museo Civico di Archeologia Ligure",
    "tourism": "museum",
    "website": "http://www.museidigenova.it/spip.php?rubrique34",
    "wikidata": "Q2644208",
    "wikipedia": "it:Museo di archeologia ligure"
  }
},
{
  "type": "node",
  "id": 4680261882,
  "lat": 44.3021281,
  "lon": 9.2105841,
  "tags": {
    "addr:city": "Portofino",
    "addr:country": "IT",
    "addr:housenumber": "11",
    "addr:street": "Molo Umberto I",
    "barrier": "entrance",
    "name": "Museo del parco",
    "tourism": "museum"
  }
},
{
  "type": "node",
  "id": 5115952356,
  "lat": 44.4345479,
  "lon": 8.9609036,
  "tags": {
    "name": "Museo dell'Acqua e del Gas",
    "opening_hours": "\"by appointment\"",
    "tourism": "museum",
    "wikidata": "Q3868006",
    "wikipedia": "it:Museo dell'acqua e del gas"
  }
},
{
  "type": "node",
  "id": 5155327717,
  "lat": 44.3157653,
  "lon": 9.3235798,
  "tags": {
    "addr:housenumber": "7",
    "addr:street": "Piazza Nostra Signora dell'Orto",
    "name": "Museo Diocesano di Arte Sacra",
    "tourism": "museum",
    "wikidata": "Q3868309"
  }
},
{
  "type": "node",
  "id": 5155328475,
  "lat": 44.3180029,
  "lon": 9.3251221,
  "tags": {
    "addr:housenumber": "15",
    "addr:street": "Via Ravaschieri",
    "name": "Museo Storico del Risorgimento",
    "tourism": "museum",
    "wikidata": "Q3868474"
  }
},
{
  "type": "node",
  "id": 5646318317,
  "lat": 44.5563989,
  "lon": 9.1195750,
  "tags": {
    "name": "Sezione Etnologica \"La stalla\"",
    "operator": "Museo Storico Alta Valle Scrivia",
    "tourism": "museum"
  }
},
{
  "type": "node",
  "id": 5747829963,
  "lat": 44.4425228,
  "lon": 8.8478860,
  "tags": {
    "name": "Museo speleologico del Monte Gazzo",
    "tourism": "museum",
    "wikidata": "Q3868462",
    "wikipedia": "it:Museo speleologico del Monte Gazzo"
  }
},
{
  "type": "node",
  "id": 6203379270,
  "lat": 44.5035636,
  "lon": 8.7097920,
  "tags": {
    "name": "Museo civico Andrea Tubino",
    "tourism": "museum",
    "wikidata": "Q55348552"
  }
},
{
  "type": "node",
  "id": 6305437724,
  "lat": 44.6180755,
  "lon": 9.1763096,
  "tags": {
    "name": "Museo della Cultura Popolare e Contadina",
    "tourism": "museum"
  }
},
{
  "type": "node",
  "id": 6703989314,
  "lat": 44.4125960,
  "lon": 8.9294117,
  "tags": {
    "name": "Museo Risorgimento - Casa Mazzini",
    "tourism": "museum"
  }
},
{
  "type": "way",
  "id": 22703883,
  "nodes": [
    243534676,
    243534677,
    243534679,
    1688449963,
    243534680,
    961832306,
    961832247,
    961832286,
    243534681,
    243534682,
    243534683,
    243534685,
    243534676
  ],
  "tags": {
    "alt_name": "Palazzo di Andrea Doria",
    "building": "yes",
    "historic": "monument",
    "name": "Villa del Principe",
    "opening_hours": "Fr-We 10:00-17:00; Sep-Mar off",
    "phone": "+39 010 255509",
    "tourism": "museum",
    "website": "http://www.dopart.it/genova/",
    "wikidata": "Q3558847",
    "wikipedia": "it:Villa del Principe"
  }
},
{
  "type": "way",
  "id": 22977475,
  "nodes": [
    247689773,
    247689774,
    247689775,
    247689776,
    1229994692,
    1229994677,
    1229994642,
    1229994615,
    247689773
  ],
  "tags": {
    "building": "yes",
    "description": "sistema dei Rolli n°18",
    "heritage": "1",
    "heritage:operator": "whc",
    "historic": "heritage",
    "name": "Palazzo Bianco",
    "tourism": "museum",
    "wikidata": "Q1808872",
    "wikipedia": "it:Palazzo Bianco"
  }
},
{
  "type": "way",
  "id": 22977972,
  "nodes": [
    247693935,
    247693936,
    247693937,
    1247040157,
    247693938,
    5711972650,
    5711972651,
    247693935
  ],
  "tags": {
    "building": "yes",
    "name": "Museo d'arte contemporanea Villa Croce",
    "tourism": "museum",
    "website": "http://www.villacroce.org/",
    "wikidata": "Q3867852",
    "wikipedia": "it:Museo d'arte contemporanea Villa Croce"
  }
},
{
  "type": "way",
  "id": 43311482,
  "nodes": [
    544271739,
    2359159344,
    4222397977,
    2359159333,
    187030744,
    544271736,
    544271738,
    544271739
  ],
  "tags": {
    "building": "yes",
    "name": "Museo d'arte orientale Edoardo Chiossone",
    "source": "Regione Liguria",
    "tourism": "museum",
    "website": "http://www.museidigenova.it/it/content/museo-darte-orientale",
    "wikidata": "Q3867875",
    "wikipedia": "it:Museo d'arte orientale Edoardo Chiossone"
  }
},
{
  "type": "way",
  "id": 97257467,
  "nodes": [
    1126583534,
    1126583573,
    1126583615,
    1126583507,
    1126583534
  ],
  "tags": {
    "building": "yes",
    "name": "Museo Biblioteca dell'attore",
    "tourism": "museum"
  }
},
{
  "type": "way",
  "id": 168350396,
  "nodes": [
    1796308656,
    1796308652,
    1796308651,
    1796308653,
    1796308654,
    1796308656
  ],
  "tags": {
    "amenity": "public_building",
    "building": "yes",
    "man_made": "pontoon",
    "name": "Dialogo nel Buio",
    "old_name": "Genova Urban Lab",
    "tourism": "museum"
  }
},
{
  "type": "way",
  "id": 176174996,
  "nodes": [
    1867275566,
    1867275570,
    1867275578,
    1867275576,
    1867275563,
    1867275560,
    1867275557,
    1867275554,
    1867275566
  ],
  "tags": {
    "building": "yes",
    "name": "Museo Civico di storia e cultura contadina",
    "tourism": "museum"
  }
},
{
  "type": "way",
  "id": 177045335,
  "nodes": [
    3126392883,
    257052158,
    3126392882,
    3126392885,
    1875104181,
    1875104148,
    1875104152,
    1875104156,
    1875104163,
    3126392877,
    3126392878,
    3126392879,
    3126392881,
    3126392893,
    3126392883
  ],
  "tags": {
    "building": "yes",
    "name": "Collezione Wolfson",
    "source": "Regione Liguria",
    "tourism": "museum",
    "wheelchair": "yes",
    "wikidata": "Q2592412",
    "wikipedia": "it:Wolfsoniana"
  }
},
{
  "type": "way",
  "id": 203609999,
  "nodes": [
    2136147105,
    2136147085,
    2136147885,
    2136148072,
    2136148087,
    2136148091,
    2136148096,
    2136147848,
    2136147105
  ],
  "tags": {
    "building": "yes",
    "building:levels": "5",
    "building:underground_levels": "1",
    "name": "Muvita",
    "source": "Regione Liguria",
    "tourism": "museum"
  }
},
{
  "type": "way",
  "id": 204445637,
  "nodes": [
    2144641921,
    2144641901,
    2144641872,
    2144641761,
    2144641785,
    2144641798,
    2144641830,
    2144641833,
    2144641841,
    2144641869,
    2144641944,
    2144641921
  ],
  "tags": {
    "building": "yes",
    "source": "Regione Liguria",
    "tourism": "museum"
  }
},
{
  "type": "way",
  "id": 204450409,
  "nodes": [
    2144638859,
    2144638857,
    2144638932,
    2144638936,
    2144638859
  ],
  "tags": {
    "building": "yes",
    "source": "Regione Liguria",
    "tourism": "museum"
  }
},
{
  "type": "way",
  "id": 204450852,
  "nodes": [
    2144638936,
    2144638932,
    2144638948,
    2144638964,
    2144638936
  ],
  "tags": {
    "building": "yes",
    "source": "Regione Liguria",
    "tourism": "museum"
  }
},
{
  "type": "way",
  "id": 204742306,
  "nodes": [
    2147268554,
    2147268537,
    2147268511,
    2147268491,
    2147268425,
    2147268466,
    2147268337,
    2147268315,
    2147268297,
    2147268312,
    2147268326,
    2147268328,
    2147268395,
    2147268527,
    2147268523,
    2147268556,
    2147268545,
    2147268554
  ],
  "tags": {
    "building": "yes",
    "source": "Regione Liguria",
    "tourism": "museum"
  }
},
{
  "type": "way",
  "id": 204742377,
  "nodes": [
    2147278482,
    2147278652,
    2147278803,
    2147278807,
    2147278824,
    2147278984,
    2147278918,
    2147279023,
    2147278942,
    2147279047,
    2147279014,
    2147278897,
    2147278866,
    2147278355,
    2147278386,
    2147278439,
    2147278471,
    2147278482
  ],
  "tags": {
    "building": "yes",
    "source": "Regione Liguria",
    "tourism": "museum"
  }
},
{
  "type": "way",
  "id": 204752340,
  "nodes": [
    2147305016,
    2147304985,
    2147304990,
    2147304905,
    2147304925,
    2147305034,
    2147305016
  ],
  "tags": {
    "building": "house",
    "name": "Casa museo Cristoforo Colombo",
    "source": "Regione Liguria",
    "tourism": "museum"
  }
},
{
  "type": "way",
  "id": 204753483,
  "nodes": [
    2147315820,
    4857396446,
    2147315802,
    2147315781,
    2147315771,
    2147315775,
    2147315803,
    2147315822,
    4857396445,
    2147315820
  ],
  "tags": {
    "building": "yes",
    "source": "Regione Liguria",
    "tourism": "museum"
  }
},
{
  "type": "way",
  "id": 207333478,
  "nodes": [
    2175235252,
    4468747326,
    1761254097,
    2175235033,
    2175235133,
    2175235404,
    4532341602,
    4468747325,
    2175235252
  ],
  "tags": {
    "building": "house",
    "name": "Casa della Resistenza",
    "operator": "Municipio V - Val Polcevera",
    "source": "Regione Liguria",
    "tourism": "museum",
    "wheelchair": "no"
  }
},
{
  "type": "way",
  "id": 207446574,
  "nodes": [
    2177007722,
    2177007723,
    2177007724,
    2177007727,
    2177007728,
    2177007732,
    2177007731,
    2177007730,
    2177007729,
    2177007721,
    2177007722
  ],
  "tags": {
    "building": "yes",
    "name": "Museo della Carta",
    "source": "Regione Liguria",
    "tourism": "museum"
  }
},
{
  "type": "way",
  "id": 207457248,
  "nodes": [
    2144661721,
    2144661720,
    2144661690,
    2144661682,
    2144661676,
    2144661670,
    2144661651,
    2144661668,
    2144661657,
    2144661652,
    2144661647,
    2144661649,
    2144661653,
    2144661655,
    2144661662,
    2144661663,
    2144661687,
    2144661680,
    2144661691,
    2144661726,
    2144661725,
    2144661721
  ],
  "tags": {
    "tourism": "museum"
  }
},
{
  "type": "way",
  "id": 207920143,
  "nodes": [
    247693874,
    2181616266,
    2181616269,
    2181616129,
    2181616114,
    2181615989,
    2181615957,
    2181616155,
    2181616176,
    247693874
  ],
  "tags": {
    "building": "yes",
    "name": "Galata Museo del Mare",
    "name:ru": "Музей моря",
    "source": "Regione Liguria",
    "tourism": "museum",
    "website": "http://www.galatamuseodelmare.it",
    "wheelchair": "yes",
    "wikidata": "Q1916826",
    "wikipedia": "it:Galata − Museo del mare"
  }
},
{
  "type": "way",
  "id": 207937529,
  "nodes": [
    2323676536,
    2181944230,
    2181944141,
    2181943985,
    2181944001,
    2181943951,
    2181943989,
    2181944335,
    2323676536
  ],
  "tags": {
    "alt_name": "Palazzo Verde",
    "amenity": "university",
    "building": "house",
    "name": "Magazzini dell'Abbondanza",
    "source": "Regione Liguria",
    "tourism": "museum",
    "wikidata": "Q3843087",
    "wikipedia": "it:Magazzini dell'Abbondanza"
  }
},
{
  "type": "way",
  "id": 223893208,
  "nodes": [
    2327427824,
    2327427826,
    2327427832,
    2327427833,
    2327427817,
    2327427818,
    2327427781,
    2327427780,
    2327427793,
    2327427794,
    2327427812,
    2327427811,
    2327427824
  ],
  "tags": {
    "name": "Pinacoteca del Convento Cappuccini",
    "tourism": "museum"
  }
},
{
  "type": "way",
  "id": 227715599,
  "nodes": [
    2363558833,
    2363558794,
    2363558797,
    2363558702,
    2363558686,
    2363558561,
    2363558549,
    2363558557,
    2363558859,
    2363558833
  ],
  "tags": {
    "building": "yes",
    "source": "Regione Liguria",
    "tourism": "museum"
  }
},
{
  "type": "way",
  "id": 268116089,
  "nodes": [
    2734728848,
    2734728847,
    2734728859,
    2734728849,
    2734728796,
    2734728792,
    2734728772,
    2734728773,
    2734728758,
    2734728759,
    2734728762,
    2734728763,
    2734728771,
    2734728788,
    2734728798,
    2734728797,
    2734728823,
    2734728826,
    2734728831,
    2734728855,
    2734728848
  ],
  "tags": {
    "building": "yes",
    "name": "Villa Gruber De Mari",
    "source": "Regione Liguria",
    "tourism": "museum",
    "wikidata": "Q26828180"
  }
},
{
  "type": "way",
  "id": 481794647,
  "nodes": [
    4746935806,
    4746935805,
    2147258979,
    2147259008,
    4746935806
  ],
  "tags": {
    "addr:city": "Avegno",
    "addr:country": "IT",
    "addr:housenumber": "9",
    "addr:place": "Avegno",
    "addr:postcode": "16036",
    "addr:street": "via dell'Artigianato",
    "name": "Museo delle Campane-Antica fonderia Picasso",
    "opening_hours": "sa 10:00-12:00,15:00-18:00 || \"by appointment\"",
    "operator": "Comune di Avegno",
    "phone": "0185799927 – 3357481186",
    "tourism": "museum",
    "website": "http://www.turismoinliguria.com/it/riviere-liguri/riviera-del-levante/golfo-paradiso/avegno/museo-delle-campane-di-avegno.html"
  }
},
{
  "type": "way",
  "id": 632641331,
  "nodes": [
    5973276649,
    5973276650,
    5973276651,
    5973276652,
    5973276653,
    5973276654,
    5973276649
  ],
  "tags": {
    "building": "yes",
    "name": "Casa Natale",
    "tourism": "museum"
  }
},
{
  "type": "relation",
  "id": 294914,
  "members": [
    {
      "type": "way",
      "ref": 22978074,
      "role": "outer"
    },
    {
      "type": "way",
      "ref": 42701241,
      "role": "inner"
    },
    {
      "type": "way",
      "ref": 42701242,
      "role": "inner"
    }
  ],
  "tags": {
    "building": "yes",
    "name": "Museo Civico di Storia Naturale Giacomo Doria",
    "tourism": "museum",
    "type": "multipolygon",
    "wikidata": "Q3328400",
    "wikipedia": "it:Museo di storia naturale Giacomo Doria"
  }
},
{
  "type": "relation",
  "id": 1524221,
  "members": [
    {
      "type": "way",
      "ref": 106971504,
      "role": "inner"
    },
    {
      "type": "way",
      "ref": 22977840,
      "role": "outer"
    }
  ],
  "tags": {
    "building": "yes",
    "description": "sistema dei Rolli n°19",
    "heritage": "1",
    "heritage:operator": "whc",
    "historic": "heritage",
    "layer": "1",
    "name": "Palazzo Rosso",
    "tourism": "museum",
    "type": "multipolygon",
    "wikidata": "Q2034331",
    "wikipedia": "it:Palazzo Rosso (Genova)"
  }
},
{
  "type": "relation",
  "id": 1532374,
  "members": [
    {
      "type": "way",
      "ref": 107714380,
      "role": "inner"
    },
    {
      "type": "way",
      "ref": 22978034,
      "role": "outer"
    }
  ],
  "tags": {
    "addr:city": "Genova",
    "addr:housenumber": "10",
    "addr:postcode": "16126",
    "addr:street": "Via Balbi",
    "building": "yes",
    "description": "sistema dei Rolli n°30",
    "email": "pal-ge@beniculturali.it",
    "heritage": "1",
    "heritage:operator": "whc",
    "historic": "heritage",
    "name": "Museo Palazzo Reale di Genova",
    "opening_hours": "Tu, Fr 09:00-14:00, We-Th 09:00-19:00, Sa-Su-PH 13:30-19:00; Mo off, Jan 1 off; Dec 25 off",
    "operator": "Museo di Palazzo Reale",
    "phone": "+39 010 2710236",
    "tourism": "museum",
    "type": "multipolygon",
    "website": "http://palazzorealegenova.beniculturali.it",
    "wheelchair": "yes",
    "wikidata": "Q1514006",
    "wikipedia": "it:Palazzo Reale (Genova)"
  }
},
{
  "type": "relation",
  "id": 3019158,
  "members": [
    {
      "type": "way",
      "ref": 23116819,
      "role": "outer"
    },
    {
      "type": "way",
      "ref": 227201120,
      "role": "inner"
    },
    {
      "type": "way",
      "ref": 227201122,
      "role": "inner"
    }
  ],
  "tags": {
    "building": "yes",
    "historic": "monument",
    "name": "Palazzo Ducale",
    "name:ru": "Паллацо Дукале - Дворец дожей",
    "tourism": "museum",
    "type": "multipolygon",
    "website": "http://www.palazzoducale.genova.it",
    "wheelchair": "yes",
    "wikidata": "Q2047566",
    "wikipedia": "it:Palazzo Ducale (Genova)"
  }
},
{
  "type": "relation",
  "id": 5648754,
  "members": [
    {
      "type": "way",
      "ref": 379121872,
      "role": "outer"
    },
    {
      "type": "way",
      "ref": 379121874,
      "role": "inner"
    }
  ],
  "tags": {
    "addr:city": "Genova",
    "addr:housenumber": "20",
    "addr:postcode": "16123",
    "addr:street": "Via Tomaso Reggio",
    "building": "yes",
    "name": "Museo Diocesano",
    "phone": "+39 010 2541250",
    "tourism": "museum",
    "type": "multipolygon",
    "website": "http://www.museodiocesanogenova.it",
    "wikidata": "Q3868267",
    "wikipedia": "it:Museo diocesano (Genova)"
  }
},
{
  "type": "node",
  "id": 2136147085,
  "lat": 44.4021555,
  "lon": 8.6647920
},
{
  "type": "node",
  "id": 2136147105,
  "lat": 44.4021619,
  "lon": 8.6650442
},
{
  "type": "node",
  "id": 2136147848,
  "lat": 44.4023284,
  "lon": 8.6650360
},
{
  "type": "node",
  "id": 2136147885,
  "lat": 44.4023476,
  "lon": 8.6647825
},
{
  "type": "node",
  "id": 2136148072,
  "lat": 44.4024137,
  "lon": 8.6647793
},
{
  "type": "node",
  "id": 2136148087,
  "lat": 44.4024163,
  "lon": 8.6648818
},
{
  "type": "node",
  "id": 2136148091,
  "lat": 44.4024179,
  "lon": 8.6649467
},
{
  "type": "node",
  "id": 2136148096,
  "lat": 44.4024200,
  "lon": 8.6650315
},
{
  "type": "node",
  "id": 2177007721,
  "lat": 44.4570552,
  "lon": 8.7689074
},
{
  "type": "node",
  "id": 2177007722,
  "lat": 44.4570661,
  "lon": 8.7688214
},
{
  "type": "node",
  "id": 2177007723,
  "lat": 44.4570753,
  "lon": 8.7687458
},
{
  "type": "node",
  "id": 2177007724,
  "lat": 44.4570786,
  "lon": 8.7687207
},
{
  "type": "node",
  "id": 2177007727,
  "lat": 44.4571704,
  "lon": 8.7687433
},
{
  "type": "node",
  "id": 2177007728,
  "lat": 44.4571728,
  "lon": 8.7687439
},
{
  "type": "node",
  "id": 2177007729,
  "lat": 44.4571790,
  "lon": 8.7689377
},
{
  "type": "node",
  "id": 2177007730,
  "lat": 44.4571895,
  "lon": 8.7688544
},
{
  "type": "node",
  "id": 2177007731,
  "lat": 44.4571932,
  "lon": 8.7688551
},
{
  "type": "node",
  "id": 2177007732,
  "lat": 44.4572063,
  "lon": 8.7687521
},
{
  "type": "node",
  "id": 1867275554,
  "lat": 44.4355615,
  "lon": 8.9074744
},
{
  "type": "node",
  "id": 1867275557,
  "lat": 44.4355904,
  "lon": 8.9076575
},
{
  "type": "node",
  "id": 1867275560,
  "lat": 44.4356362,
  "lon": 8.9076551
},
{
  "type": "node",
  "id": 1867275563,
  "lat": 44.4356515,
  "lon": 8.9079903
},
{
  "type": "node",
  "id": 1867275566,
  "lat": 44.4356549,
  "lon": 8.9074696
},
{
  "type": "node",
  "id": 1867275570,
  "lat": 44.4357041,
  "lon": 8.9076384
},
{
  "type": "node",
  "id": 1867275576,
  "lat": 44.4357449,
  "lon": 8.9078762
},
{
  "type": "node",
  "id": 1867275578,
  "lat": 44.4357466,
  "lon": 8.9076337
},
{
  "type": "node",
  "id": 1761254097,
  "lat": 44.4591057,
  "lon": 8.9013482
},
{
  "type": "node",
  "id": 2175235033,
  "lat": 44.4590205,
  "lon": 8.9012939
},
{
  "type": "node",
  "id": 2175235133,
  "lat": 44.4590912,
  "lon": 8.9010765
},
{
  "type": "node",
  "id": 2175235252,
  "lat": 44.4591910,
  "lon": 8.9014027
},
{
  "type": "node",
  "id": 2175235404,
  "lat": 44.4592617,
  "lon": 8.9011853
},
{
  "type": "node",
  "id": 4468747325,
  "lat": 44.4592103,
  "lon": 8.9013434
},
{
  "type": "node",
  "id": 4468747326,
  "lat": 44.4591340,
  "lon": 8.9013663
},
{
  "type": "node",
  "id": 4532341602,
  "lat": 44.4592489,
  "lon": 8.9012247
},
{
  "type": "node",
  "id": 247693935,
  "lat": 44.3984327,
  "lon": 8.9380281
},
{
  "type": "node",
  "id": 247693936,
  "lat": 44.3982772,
  "lon": 8.9379050
},
{
  "type": "node",
  "id": 247693937,
  "lat": 44.3981403,
  "lon": 8.9382982
},
{
  "type": "node",
  "id": 247693938,
  "lat": 44.3982976,
  "lon": 8.9384068
},
{
  "type": "node",
  "id": 1247040157,
  "lat": 44.3982333,
  "lon": 8.9383628
},
{
  "type": "node",
  "id": 5711972650,
  "lat": 44.3983517,
  "lon": 8.9382625
},
{
  "type": "node",
  "id": 5711972651,
  "lat": 44.3983413,
  "lon": 8.9382532
},
{
  "type": "node",
  "id": 249569085,
  "lat": 44.4072803,
  "lon": 8.9324371
},
{
  "type": "node",
  "id": 249569086,
  "lat": 44.4073705,
  "lon": 8.9322545
},
{
  "type": "node",
  "id": 249569089,
  "lat": 44.4080697,
  "lon": 8.9325176
},
{
  "type": "node",
  "id": 546744987,
  "lat": 44.4077176,
  "lon": 8.9321582
},
{
  "type": "node",
  "id": 1233070541,
  "lat": 44.4075147,
  "lon": 8.9323942
},
{
  "type": "node",
  "id": 2181943951,
  "lat": 44.4067216,
  "lon": 8.9264124
},
{
  "type": "node",
  "id": 2181943985,
  "lat": 44.4067470,
  "lon": 8.9265296
},
{
  "type": "node",
  "id": 2181943989,
  "lat": 44.4067601,
  "lon": 8.9263458
},
{
  "type": "node",
  "id": 2181944001,
  "lat": 44.4067812,
  "lon": 8.9264637
},
{
  "type": "node",
  "id": 2181944141,
  "lat": 44.4068065,
  "lon": 8.9265741
},
{
  "type": "node",
  "id": 2181944230,
  "lat": 44.4068554,
  "lon": 8.9266133
},
{
  "type": "node",
  "id": 2181944335,
  "lat": 44.4070111,
  "lon": 8.9265457
},
{
  "type": "node",
  "id": 2323676536,
  "lat": 44.4069261,
  "lon": 8.9266730
},
{
  "type": "node",
  "id": 2359158680,
  "lat": 44.4075706,
  "lon": 8.9323295
},
{
  "type": "node",
  "id": 2359158690,
  "lat": 44.4076153,
  "lon": 8.9322772
},
{
  "type": "node",
  "id": 2359158710,
  "lat": 44.4077267,
  "lon": 8.9321646
},
{
  "type": "node",
  "id": 2359158724,
  "lat": 44.4077583,
  "lon": 8.9324617
},
{
  "type": "node",
  "id": 2359158736,
  "lat": 44.4077853,
  "lon": 8.9322307
},
{
  "type": "node",
  "id": 2359158771,
  "lat": 44.4079483,
  "lon": 8.9323952
},
{
  "type": "node",
  "id": 2360971527,
  "lat": 44.4078818,
  "lon": 8.9318588
},
{
  "type": "node",
  "id": 2360971550,
  "lat": 44.4080212,
  "lon": 8.9319924
},
{
  "type": "node",
  "id": 2360971552,
  "lat": 44.4080214,
  "lon": 8.9320613
},
{
  "type": "node",
  "id": 2360971557,
  "lat": 44.4080440,
  "lon": 8.9320200
},
{
  "type": "node",
  "id": 2360971562,
  "lat": 44.4080613,
  "lon": 8.9320991
},
{
  "type": "node",
  "id": 2360971571,
  "lat": 44.4080872,
  "lon": 8.9320540
},
{
  "type": "node",
  "id": 2360971581,
  "lat": 44.4081240,
  "lon": 8.9320984
},
{
  "type": "node",
  "id": 2360971603,
  "lat": 44.4081639,
  "lon": 8.9318980
},
{
  "type": "node",
  "id": 2360971617,
  "lat": 44.4082012,
  "lon": 8.9315988
},
{
  "type": "node",
  "id": 2360971621,
  "lat": 44.4082113,
  "lon": 8.9317986
},
{
  "type": "node",
  "id": 2360971630,
  "lat": 44.4082237,
  "lon": 8.9319349
},
{
  "type": "node",
  "id": 2360971644,
  "lat": 44.4082646,
  "lon": 8.9316709
},
{
  "type": "node",
  "id": 2363558549,
  "lat": 44.4044019,
  "lon": 8.9312640
},
{
  "type": "node",
  "id": 2363558557,
  "lat": 44.4044050,
  "lon": 8.9312003
},
{
  "type": "node",
  "id": 2363558561,
  "lat": 44.4044100,
  "lon": 8.9314063
},
{
  "type": "node",
  "id": 2363558686,
  "lat": 44.4046424,
  "lon": 8.9313094
},
{
  "type": "node",
  "id": 2363558702,
  "lat": 44.4046622,
  "lon": 8.9313893
},
{
  "type": "node",
  "id": 2363558794,
  "lat": 44.4047643,
  "lon": 8.9314401
},
{
  "type": "node",
  "id": 2363558797,
  "lat": 44.4047695,
  "lon": 8.9314184
},
{
  "type": "node",
  "id": 2363558833,
  "lat": 44.4048331,
  "lon": 8.9314622
},
{
  "type": "node",
  "id": 2363558859,
  "lat": 44.4048465,
  "lon": 8.9313191
},
{
  "type": "node",
  "id": 3824840057,
  "lat": 44.4078552,
  "lon": 8.9318281
},
{
  "type": "node",
  "id": 3824840058,
  "lat": 44.4080324,
  "lon": 8.9314460
},
{
  "type": "node",
  "id": 3824840059,
  "lat": 44.4081500,
  "lon": 8.9315354
},
{
  "type": "node",
  "id": 3824840060,
  "lat": 44.4081121,
  "lon": 8.9317051
},
{
  "type": "node",
  "id": 3824840061,
  "lat": 44.4080478,
  "lon": 8.9318389
},
{
  "type": "node",
  "id": 3824840062,
  "lat": 44.4079469,
  "lon": 8.9317440
},
{
  "type": "node",
  "id": 3824840063,
  "lat": 44.4080111,
  "lon": 8.9316101
},
{
  "type": "node",
  "id": 249569080,
  "lat": 44.4074932,
  "lon": 8.9336581
},
{
  "type": "node",
  "id": 249569081,
  "lat": 44.4069419,
  "lon": 8.9331246
},
{
  "type": "node",
  "id": 249569082,
  "lat": 44.4070346,
  "lon": 8.9329438
},
{
  "type": "node",
  "id": 249569083,
  "lat": 44.4073413,
  "lon": 8.9332439
},
{
  "type": "node",
  "id": 249569084,
  "lat": 44.4075920,
  "lon": 8.9327443
},
{
  "type": "node",
  "id": 1544127744,
  "lat": 44.4078131,
  "lon": 8.9330250
},
{
  "type": "node",
  "id": 2359158644,
  "lat": 44.4072012,
  "lon": 8.9333756
},
{
  "type": "node",
  "id": 2359158646,
  "lat": 44.4072563,
  "lon": 8.9334288
},
{
  "type": "node",
  "id": 2359158647,
  "lat": 44.4073083,
  "lon": 8.9333938
},
{
  "type": "node",
  "id": 2359158650,
  "lat": 44.4073674,
  "lon": 8.9331920
},
{
  "type": "node",
  "id": 2359158651,
  "lat": 44.4073707,
  "lon": 8.9332752
},
{
  "type": "node",
  "id": 2359158653,
  "lat": 44.4073897,
  "lon": 8.9334773
},
{
  "type": "node",
  "id": 2359158654,
  "lat": 44.4073921,
  "lon": 8.9335603
},
{
  "type": "node",
  "id": 2359158659,
  "lat": 44.4074203,
  "lon": 8.9330866
},
{
  "type": "node",
  "id": 2359158660,
  "lat": 44.4074210,
  "lon": 8.9335884
},
{
  "type": "node",
  "id": 2359158663,
  "lat": 44.4074521,
  "lon": 8.9333586
},
{
  "type": "node",
  "id": 2359158672,
  "lat": 44.4075154,
  "lon": 8.9328969
},
{
  "type": "node",
  "id": 2359158681,
  "lat": 44.4075668,
  "lon": 8.9327195
},
{
  "type": "node",
  "id": 2359158682,
  "lat": 44.4075672,
  "lon": 8.9327937
},
{
  "type": "node",
  "id": 2359158687,
  "lat": 44.4076040,
  "lon": 8.9334388
},
{
  "type": "node",
  "id": 2359158697,
  "lat": 44.4076383,
  "lon": 8.9326963
},
{
  "type": "node",
  "id": 2359158720,
  "lat": 44.4077488,
  "lon": 8.9328063
},
{
  "type": "node",
  "id": 2359158762,
  "lat": 44.4078689,
  "lon": 8.9325717
},
{
  "type": "node",
  "id": 3249785525,
  "lat": 44.4074631,
  "lon": 8.9330012
},
{
  "type": "node",
  "id": 3769289622,
  "lat": 44.4073138,
  "lon": 8.9334845
},
{
  "type": "node",
  "id": 243534676,
  "lat": 44.4157873,
  "lon": 8.9166460
},
{
  "type": "node",
  "id": 243534677,
  "lat": 44.4159814,
  "lon": 8.9165574
},
{
  "type": "node",
  "id": 243534679,
  "lat": 44.4165968,
  "lon": 8.9180536
},
{
  "type": "node",
  "id": 243534680,
  "lat": 44.4160189,
  "lon": 8.9186233
},
{
  "type": "node",
  "id": 243534681,
  "lat": 44.4161907,
  "lon": 8.9181930
},
{
  "type": "node",
  "id": 243534682,
  "lat": 44.4163767,
  "lon": 8.9180319
},
{
  "type": "node",
  "id": 243534683,
  "lat": 44.4162149,
  "lon": 8.9176189
},
{
  "type": "node",
  "id": 243534685,
  "lat": 44.4160736,
  "lon": 8.9177288
},
{
  "type": "node",
  "id": 961832247,
  "lat": 44.4155143,
  "lon": 8.9187377
},
{
  "type": "node",
  "id": 961832286,
  "lat": 44.4154968,
  "lon": 8.9186778
},
{
  "type": "node",
  "id": 961832306,
  "lat": 44.4158850,
  "lon": 8.9187321
},
{
  "type": "node",
  "id": 1688449963,
  "lat": 44.4164429,
  "lon": 8.9181776
},
{
  "type": "node",
  "id": 247693874,
  "lat": 44.4145391,
  "lon": 8.9231004
},
{
  "type": "node",
  "id": 247694476,
  "lat": 44.4150048,
  "lon": 8.9259207
},
{
  "type": "node",
  "id": 1237425393,
  "lat": 44.4148274,
  "lon": 8.9257384
},
{
  "type": "node",
  "id": 1237425417,
  "lat": 44.4147731,
  "lon": 8.9258001
},
{
  "type": "node",
  "id": 1237425531,
  "lat": 44.4145800,
  "lon": 8.9255031
},
{
  "type": "node",
  "id": 1237425569,
  "lat": 44.4147005,
  "lon": 8.9259454
},
{
  "type": "node",
  "id": 1237425617,
  "lat": 44.4145655,
  "lon": 8.9255926
},
{
  "type": "node",
  "id": 1237425624,
  "lat": 44.4146777,
  "lon": 8.9259882
},
{
  "type": "node",
  "id": 1237425676,
  "lat": 44.4147412,
  "lon": 8.9258642
},
{
  "type": "node",
  "id": 1237425802,
  "lat": 44.4144569,
  "lon": 8.9258107
},
{
  "type": "node",
  "id": 1237425844,
  "lat": 44.4148102,
  "lon": 8.9259347
},
{
  "type": "node",
  "id": 1237425863,
  "lat": 44.4144007,
  "lon": 8.9258505
},
{
  "type": "node",
  "id": 1796308651,
  "lat": 44.4137168,
  "lon": 8.9239583
},
{
  "type": "node",
  "id": 1796308652,
  "lat": 44.4138144,
  "lon": 8.9240502
},
{
  "type": "node",
  "id": 1796308653,
  "lat": 44.4138565,
  "lon": 8.9236674
},
{
  "type": "node",
  "id": 1796308654,
  "lat": 44.4139002,
  "lon": 8.9237086
},
{
  "type": "node",
  "id": 1796308656,
  "lat": 44.4139541,
  "lon": 8.9237593
},
{
  "type": "node",
  "id": 2181615957,
  "lat": 44.4138567,
  "lon": 8.9234927
},
{
  "type": "node",
  "id": 2181615989,
  "lat": 44.4139381,
  "lon": 8.9233085
},
{
  "type": "node",
  "id": 2181616114,
  "lat": 44.4141690,
  "lon": 8.9227646
},
{
  "type": "node",
  "id": 2181616129,
  "lat": 44.4141931,
  "lon": 8.9227079
},
{
  "type": "node",
  "id": 2181616155,
  "lat": 44.4142308,
  "lon": 8.9238099
},
{
  "type": "node",
  "id": 2181616176,
  "lat": 44.4142533,
  "lon": 8.9237581
},
{
  "type": "node",
  "id": 2181616266,
  "lat": 44.4145110,
  "lon": 8.9230774
},
{
  "type": "node",
  "id": 2181616269,
  "lat": 44.4145486,
  "lon": 8.9229852
},
{
  "type": "node",
  "id": 2282825168,
  "lat": 44.4150549,
  "lon": 8.9259709
},
{
  "type": "node",
  "id": 2321005199,
  "lat": 44.4143853,
  "lon": 8.9258815
},
{
  "type": "node",
  "id": 2321005210,
  "lat": 44.4144041,
  "lon": 8.9258978
},
{
  "type": "node",
  "id": 2321005215,
  "lat": 44.4144129,
  "lon": 8.9258805
},
{
  "type": "node",
  "id": 2337031036,
  "lat": 44.4146795,
  "lon": 8.9255987
},
{
  "type": "node",
  "id": 2337031050,
  "lat": 44.4147378,
  "lon": 8.9256547
},
{
  "type": "node",
  "id": 247689773,
  "lat": 44.4118223,
  "lon": 8.9317659
},
{
  "type": "node",
  "id": 247689774,
  "lat": 44.4114767,
  "lon": 8.9316067
},
{
  "type": "node",
  "id": 247689775,
  "lat": 44.4114027,
  "lon": 8.9319203
},
{
  "type": "node",
  "id": 247689776,
  "lat": 44.4117503,
  "lon": 8.9320817
},
{
  "type": "node",
  "id": 247693132,
  "lat": 44.4109775,
  "lon": 8.9321703
},
{
  "type": "node",
  "id": 247693133,
  "lat": 44.4112255,
  "lon": 8.9322850
},
{
  "type": "node",
  "id": 247693135,
  "lat": 44.4111587,
  "lon": 8.9319087
},
{
  "type": "node",
  "id": 247694473,
  "lat": 44.4147714,
  "lon": 8.9262366
},
{
  "type": "node",
  "id": 247694474,
  "lat": 44.4146355,
  "lon": 8.9261005
},
{
  "type": "node",
  "id": 941888789,
  "lat": 44.4112724,
  "lon": 8.9320862
},
{
  "type": "node",
  "id": 1229994575,
  "lat": 44.4110377,
  "lon": 8.9320854
},
{
  "type": "node",
  "id": 1229994581,
  "lat": 44.4111126,
  "lon": 8.9321181
},
{
  "type": "node",
  "id": 1229994615,
  "lat": 44.4117976,
  "lon": 8.9318728
},
{
  "type": "node",
  "id": 1229994623,
  "lat": 44.4110510,
  "lon": 8.9318588
},
{
  "type": "node",
  "id": 1229994640,
  "lat": 44.4112631,
  "lon": 8.9319570
},
{
  "type": "node",
  "id": 1229994642,
  "lat": 44.4116307,
  "lon": 8.9317949
},
{
  "type": "node",
  "id": 1229994650,
  "lat": 44.4111368,
  "lon": 8.9320095
},
{
  "type": "node",
  "id": 1229994664,
  "lat": 44.4110619,
  "lon": 8.9319768
},
{
  "type": "node",
  "id": 1229994677,
  "lat": 44.4116028,
  "lon": 8.9319070
},
{
  "type": "node",
  "id": 1229994692,
  "lat": 44.4117728,
  "lon": 8.9319885
},
{
  "type": "node",
  "id": 1237425751,
  "lat": 44.4147679,
  "lon": 8.9260124
},
{
  "type": "node",
  "id": 2281984013,
  "lat": 44.4112990,
  "lon": 8.9319736
},
{
  "type": "node",
  "id": 2282825167,
  "lat": 44.4148664,
  "lon": 8.9263271
},
{
  "type": "node",
  "id": 2321005241,
  "lat": 44.4146467,
  "lon": 8.9261462
},
{
  "type": "node",
  "id": 2321005244,
  "lat": 44.4146575,
  "lon": 8.9261259
},
{
  "type": "node",
  "id": 2321005245,
  "lat": 44.4146705,
  "lon": 8.9261686
},
{
  "type": "node",
  "id": 2321005250,
  "lat": 44.4146792,
  "lon": 8.9261476
},
{
  "type": "node",
  "id": 2336334824,
  "lat": 44.4146001,
  "lon": 8.9260650
},
{
  "type": "node",
  "id": 2343763797,
  "lat": 44.4111199,
  "lon": 8.9322362
},
{
  "type": "node",
  "id": 6394700959,
  "lat": 44.4111833,
  "lon": 8.9319201
},
{
  "type": "node",
  "id": 187030744,
  "lat": 44.4111934,
  "lon": 8.9361473
},
{
  "type": "node",
  "id": 544271736,
  "lat": 44.4113564,
  "lon": 8.9359337
},
{
  "type": "node",
  "id": 544271738,
  "lat": 44.4114455,
  "lon": 8.9360688
},
{
  "type": "node",
  "id": 544271739,
  "lat": 44.4112805,
  "lon": 8.9362830
},
{
  "type": "node",
  "id": 2359159333,
  "lat": 44.4110978,
  "lon": 8.9362728
},
{
  "type": "node",
  "id": 2359159344,
  "lat": 44.4111866,
  "lon": 8.9364050
},
{
  "type": "node",
  "id": 4222397977,
  "lat": 44.4111437,
  "lon": 8.9363411
},
{
  "type": "node",
  "id": 247694664,
  "lat": 44.4028541,
  "lon": 8.9426017
},
{
  "type": "node",
  "id": 247694665,
  "lat": 44.4027356,
  "lon": 8.9430612
},
{
  "type": "node",
  "id": 247694666,
  "lat": 44.4021254,
  "lon": 8.9427466
},
{
  "type": "node",
  "id": 247694667,
  "lat": 44.4022522,
  "lon": 8.9422816
},
{
  "type": "node",
  "id": 533977389,
  "lat": 44.4026009,
  "lon": 8.9426288
},
{
  "type": "node",
  "id": 533977390,
  "lat": 44.4024241,
  "lon": 8.9425369
},
{
  "type": "node",
  "id": 533977391,
  "lat": 44.4023203,
  "lon": 8.9424876
},
{
  "type": "node",
  "id": 533977392,
  "lat": 44.4022813,
  "lon": 8.9426484
},
{
  "type": "node",
  "id": 533977393,
  "lat": 44.4023851,
  "lon": 8.9426977
},
{
  "type": "node",
  "id": 533977394,
  "lat": 44.4027031,
  "lon": 8.9426834
},
{
  "type": "node",
  "id": 533977406,
  "lat": 44.4025576,
  "lon": 8.9427878
},
{
  "type": "node",
  "id": 533977407,
  "lat": 44.4026598,
  "lon": 8.9428424
},
{
  "type": "node",
  "id": 911863135,
  "lat": 44.4024153,
  "lon": 8.9429433
},
{
  "type": "node",
  "id": 1204897734,
  "lat": 44.4024801,
  "lon": 8.9424033
},
{
  "type": "node",
  "id": 1204897902,
  "lat": 44.4026448,
  "lon": 8.9424491
},
{
  "type": "node",
  "id": 1204897932,
  "lat": 44.4024902,
  "lon": 8.9423665
},
{
  "type": "node",
  "id": 1204898001,
  "lat": 44.4026348,
  "lon": 8.9424859
},
{
  "type": "node",
  "id": 5590053153,
  "lat": 44.4024938,
  "lon": 8.9429831
},
{
  "type": "node",
  "id": 5590053156,
  "lat": 44.4023408,
  "lon": 8.9429032
},
{
  "type": "node",
  "id": 5590053158,
  "lat": 44.4021441,
  "lon": 8.9426780
},
{
  "type": "node",
  "id": 5590053159,
  "lat": 44.4023400,
  "lon": 8.9429056
},
{
  "type": "node",
  "id": 5590053160,
  "lat": 44.4023514,
  "lon": 8.9428639
},
{
  "type": "node",
  "id": 5590053161,
  "lat": 44.4024934,
  "lon": 8.9429846
},
{
  "type": "node",
  "id": 5590053162,
  "lat": 44.4025044,
  "lon": 8.9429419
},
{
  "type": "node",
  "id": 1126583507,
  "lat": 44.4086536,
  "lon": 8.9392152
},
{
  "type": "node",
  "id": 1126583534,
  "lat": 44.4087592,
  "lon": 8.9392452
},
{
  "type": "node",
  "id": 1126583573,
  "lat": 44.4087397,
  "lon": 8.9393593
},
{
  "type": "node",
  "id": 1126583615,
  "lat": 44.4086305,
  "lon": 8.9393769
},
{
  "type": "node",
  "id": 2734728758,
  "lat": 44.4150645,
  "lon": 8.9403906
},
{
  "type": "node",
  "id": 2734728759,
  "lat": 44.4150670,
  "lon": 8.9403516
},
{
  "type": "node",
  "id": 2734728762,
  "lat": 44.4150838,
  "lon": 8.9400901
},
{
  "type": "node",
  "id": 2734728763,
  "lat": 44.4150861,
  "lon": 8.9400541
},
{
  "type": "node",
  "id": 2734728771,
  "lat": 44.4151039,
  "lon": 8.9400562
},
{
  "type": "node",
  "id": 2734728772,
  "lat": 44.4151059,
  "lon": 8.9404170
},
{
  "type": "node",
  "id": 2734728773,
  "lat": 44.4151072,
  "lon": 8.9403959
},
{
  "type": "node",
  "id": 2734728788,
  "lat": 44.4151335,
  "lon": 8.9400599
},
{
  "type": "node",
  "id": 2734728792,
  "lat": 44.4151399,
  "lon": 8.9404213
},
{
  "type": "node",
  "id": 2734728796,
  "lat": 44.4151440,
  "lon": 8.9403570
},
{
  "type": "node",
  "id": 2734728797,
  "lat": 44.4151463,
  "lon": 8.9401007
},
{
  "type": "node",
  "id": 2734728798,
  "lat": 44.4151488,
  "lon": 8.9400618
},
{
  "type": "node",
  "id": 2734728823,
  "lat": 44.4152358,
  "lon": 8.9401118
},
{
  "type": "node",
  "id": 2734728826,
  "lat": 44.4152384,
  "lon": 8.9400720
},
{
  "type": "node",
  "id": 2734728831,
  "lat": 44.4152462,
  "lon": 8.9399500
},
{
  "type": "node",
  "id": 2734728847,
  "lat": 44.4153017,
  "lon": 8.9401213
},
{
  "type": "node",
  "id": 2734728848,
  "lat": 44.4153043,
  "lon": 8.9400808
},
{
  "type": "node",
  "id": 2734728849,
  "lat": 44.4153052,
  "lon": 8.9403770
},
{
  "type": "node",
  "id": 2734728855,
  "lat": 44.4153122,
  "lon": 8.9399582
},
{
  "type": "node",
  "id": 2734728859,
  "lat": 44.4153214,
  "lon": 8.9401237
},
{
  "type": "node",
  "id": 257052158,
  "lat": 44.3824583,
  "lon": 9.0446565
},
{
  "type": "node",
  "id": 1875104148,
  "lat": 44.3822114,
  "lon": 9.0446489
},
{
  "type": "node",
  "id": 1875104152,
  "lat": 44.3822404,
  "lon": 9.0445628
},
{
  "type": "node",
  "id": 1875104156,
  "lat": 44.3822558,
  "lon": 9.0445175
},
{
  "type": "node",
  "id": 1875104163,
  "lat": 44.3823397,
  "lon": 9.0445727
},
{
  "type": "node",
  "id": 1875104181,
  "lat": 44.3824519,
  "lon": 9.0448068
},
{
  "type": "node",
  "id": 3126392877,
  "lat": 44.3823504,
  "lon": 9.0445412
},
{
  "type": "node",
  "id": 3126392878,
  "lat": 44.3823518,
  "lon": 9.0445368
},
{
  "type": "node",
  "id": 3126392879,
  "lat": 44.3824461,
  "lon": 9.0442577
},
{
  "type": "node",
  "id": 3126392881,
  "lat": 44.3824489,
  "lon": 9.0442495
},
{
  "type": "node",
  "id": 3126392882,
  "lat": 44.3824695,
  "lon": 9.0446638
},
{
  "type": "node",
  "id": 3126392883,
  "lat": 44.3824705,
  "lon": 9.0446201
},
{
  "type": "node",
  "id": 3126392885,
  "lat": 44.3824945,
  "lon": 9.0446803
},
{
  "type": "node",
  "id": 3126392893,
  "lat": 44.3825690,
  "lon": 9.0443284
},
{
  "type": "node",
  "id": 2147258979,
  "lat": 44.3838307,
  "lon": 9.1626142
},
{
  "type": "node",
  "id": 2147259008,
  "lat": 44.3838965,
  "lon": 9.1625631
},
{
  "type": "node",
  "id": 4746935805,
  "lat": 44.3838645,
  "lon": 9.1626984
},
{
  "type": "node",
  "id": 4746935806,
  "lat": 44.3839313,
  "lon": 9.1626498
},
{
  "type": "node",
  "id": 2147304905,
  "lat": 44.4245101,
  "lon": 9.2001258
},
{
  "type": "node",
  "id": 2147304925,
  "lat": 44.4245241,
  "lon": 9.2000487
},
{
  "type": "node",
  "id": 2147304985,
  "lat": 44.4245607,
  "lon": 9.2001503
},
{
  "type": "node",
  "id": 2147304990,
  "lat": 44.4245628,
  "lon": 9.2001404
},
{
  "type": "node",
  "id": 2147305016,
  "lat": 44.4245851,
  "lon": 9.2001590
},
{
  "type": "node",
  "id": 2147305034,
  "lat": 44.4246002,
  "lon": 9.2000757
},
{
  "type": "node",
  "id": 5973276649,
  "lat": 44.6351408,
  "lon": 8.7636509
},
{
  "type": "node",
  "id": 5973276650,
  "lat": 44.6352677,
  "lon": 8.7635843
},
{
  "type": "node",
  "id": 5973276651,
  "lat": 44.6352331,
  "lon": 8.7634541
},
{
  "type": "node",
  "id": 5973276652,
  "lat": 44.6351686,
  "lon": 8.7634880
},
{
  "type": "node",
  "id": 5973276653,
  "lat": 44.6351841,
  "lon": 8.7635462
},
{
  "type": "node",
  "id": 5973276654,
  "lat": 44.6351217,
  "lon": 8.7635789
},
{
  "type": "node",
  "id": 2327427780,
  "lat": 44.6157790,
  "lon": 8.8436221
},
{
  "type": "node",
  "id": 2327427781,
  "lat": 44.6157792,
  "lon": 8.8441361
},
{
  "type": "node",
  "id": 2327427793,
  "lat": 44.6158331,
  "lon": 8.8436220
},
{
  "type": "node",
  "id": 2327427794,
  "lat": 44.6158332,
  "lon": 8.8437147
},
{
  "type": "node",
  "id": 2327427811,
  "lat": 44.6159890,
  "lon": 8.8436752
},
{
  "type": "node",
  "id": 2327427812,
  "lat": 44.6159891,
  "lon": 8.8437145
},
{
  "type": "node",
  "id": 2327427817,
  "lat": 44.6160237,
  "lon": 8.8440515
},
{
  "type": "node",
  "id": 2327427818,
  "lat": 44.6160238,
  "lon": 8.8441359
},
{
  "type": "node",
  "id": 2327427824,
  "lat": 44.6160953,
  "lon": 8.8436751
},
{
  "type": "node",
  "id": 2327427826,
  "lat": 44.6160954,
  "lon": 8.8438109
},
{
  "type": "node",
  "id": 2327427832,
  "lat": 44.6161401,
  "lon": 8.8438108
},
{
  "type": "node",
  "id": 2327427833,
  "lat": 44.6161402,
  "lon": 8.8440514
},
{
  "type": "node",
  "id": 2144641761,
  "lat": 44.5646438,
  "lon": 9.1848749
},
{
  "type": "node",
  "id": 2144641785,
  "lat": 44.5646766,
  "lon": 9.1848222
},
{
  "type": "node",
  "id": 2144641798,
  "lat": 44.5646833,
  "lon": 9.1848113
},
{
  "type": "node",
  "id": 2144641830,
  "lat": 44.5646977,
  "lon": 9.1848289
},
{
  "type": "node",
  "id": 2144641833,
  "lat": 44.5647014,
  "lon": 9.1848230
},
{
  "type": "node",
  "id": 2144641841,
  "lat": 44.5647137,
  "lon": 9.1848033
},
{
  "type": "node",
  "id": 2144641869,
  "lat": 44.5647230,
  "lon": 9.1847884
},
{
  "type": "node",
  "id": 2144641872,
  "lat": 44.5647303,
  "lon": 9.1849805
},
{
  "type": "node",
  "id": 2144641901,
  "lat": 44.5647581,
  "lon": 9.1849359
},
{
  "type": "node",
  "id": 2144641921,
  "lat": 44.5647819,
  "lon": 9.1848977
},
{
  "type": "node",
  "id": 2144641944,
  "lat": 44.5647951,
  "lon": 9.1848764
},
{
  "type": "node",
  "id": 2144638857,
  "lat": 44.5623638,
  "lon": 9.2178352
},
{
  "type": "node",
  "id": 2144638859,
  "lat": 44.5623712,
  "lon": 9.2179102
},
{
  "type": "node",
  "id": 2144638932,
  "lat": 44.5624266,
  "lon": 9.2178212
},
{
  "type": "node",
  "id": 2144638936,
  "lat": 44.5624342,
  "lon": 9.2178947
},
{
  "type": "node",
  "id": 2144638948,
  "lat": 44.5624484,
  "lon": 9.2178170
},
{
  "type": "node",
  "id": 2144638964,
  "lat": 44.5624551,
  "lon": 9.2178900
},
{
  "type": "node",
  "id": 2144661647,
  "lat": 44.5910587,
  "lon": 9.2033750
},
{
  "type": "node",
  "id": 2144661649,
  "lat": 44.5910696,
  "lon": 9.2033572
},
{
  "type": "node",
  "id": 2144661651,
  "lat": 44.5911069,
  "lon": 9.2034827
},
{
  "type": "node",
  "id": 2144661652,
  "lat": 44.5910844,
  "lon": 9.2033829
},
{
  "type": "node",
  "id": 2144661653,
  "lat": 44.5910889,
  "lon": 9.2033185
},
{
  "type": "node",
  "id": 2144661655,
  "lat": 44.5910975,
  "lon": 9.2032258
},
{
  "type": "node",
  "id": 2144661657,
  "lat": 44.5911023,
  "lon": 9.2034040
},
{
  "type": "node",
  "id": 2144661662,
  "lat": 44.5911064,
  "lon": 9.2032274
},
{
  "type": "node",
  "id": 2144661663,
  "lat": 44.5911098,
  "lon": 9.2031947
},
{
  "type": "node",
  "id": 2144661668,
  "lat": 44.5911118,
  "lon": 9.2034328
},
{
  "type": "node",
  "id": 2144661670,
  "lat": 44.5911364,
  "lon": 9.2034814
},
{
  "type": "node",
  "id": 2144661676,
  "lat": 44.5911597,
  "lon": 9.2034882
},
{
  "type": "node",
  "id": 2144661680,
  "lat": 44.5911885,
  "lon": 9.2033403
},
{
  "type": "node",
  "id": 2144661682,
  "lat": 44.5911959,
  "lon": 9.2035187
},
{
  "type": "node",
  "id": 2144661687,
  "lat": 44.5911991,
  "lon": 9.2032109
},
{
  "type": "node",
  "id": 2144661690,
  "lat": 44.5911993,
  "lon": 9.2035089
},
{
  "type": "node",
  "id": 2144661691,
  "lat": 44.5912012,
  "lon": 9.2033673
},
{
  "type": "node",
  "id": 2144661720,
  "lat": 44.5912551,
  "lon": 9.2035585
},
{
  "type": "node",
  "id": 2144661721,
  "lat": 44.5912599,
  "lon": 9.2035459
},
{
  "type": "node",
  "id": 2144661725,
  "lat": 44.5912874,
  "lon": 9.2034743
},
{
  "type": "node",
  "id": 2144661726,
  "lat": 44.5913003,
  "lon": 9.2034406
},
{
  "type": "node",
  "id": 2147268297,
  "lat": 44.4015405,
  "lon": 9.2570429
},
{
  "type": "node",
  "id": 2147268312,
  "lat": 44.4015556,
  "lon": 9.2569727
},
{
  "type": "node",
  "id": 2147268315,
  "lat": 44.4015584,
  "lon": 9.2570512
},
{
  "type": "node",
  "id": 2147268326,
  "lat": 44.4015635,
  "lon": 9.2569375
},
{
  "type": "node",
  "id": 2147268328,
  "lat": 44.4015644,
  "lon": 9.2569338
},
{
  "type": "node",
  "id": 2147268337,
  "lat": 44.4015697,
  "lon": 9.2570562
},
{
  "type": "node",
  "id": 2147268395,
  "lat": 44.4016391,
  "lon": 9.2569655
},
{
  "type": "node",
  "id": 2147268425,
  "lat": 44.4016640,
  "lon": 9.2572617
},
{
  "type": "node",
  "id": 2147268466,
  "lat": 44.4017054,
  "lon": 9.2571180
},
{
  "type": "node",
  "id": 2147268491,
  "lat": 44.4017273,
  "lon": 9.2572997
},
{
  "type": "node",
  "id": 2147268511,
  "lat": 44.4017455,
  "lon": 9.2573107
},
{
  "type": "node",
  "id": 2147268523,
  "lat": 44.4017574,
  "lon": 9.2570880
},
{
  "type": "node",
  "id": 2147268527,
  "lat": 44.4017710,
  "lon": 9.2570216
},
{
  "type": "node",
  "id": 2147268537,
  "lat": 44.4017821,
  "lon": 9.2571792
},
{
  "type": "node",
  "id": 2147268545,
  "lat": 44.4017903,
  "lon": 9.2571293
},
{
  "type": "node",
  "id": 2147268554,
  "lat": 44.4017955,
  "lon": 9.2571313
},
{
  "type": "node",
  "id": 2147268556,
  "lat": 44.4017962,
  "lon": 9.2571065
},
{
  "type": "node",
  "id": 2147278355,
  "lat": 44.4095456,
  "lon": 9.2768384
},
{
  "type": "node",
  "id": 2147278386,
  "lat": 44.4095565,
  "lon": 9.2768091
},
{
  "type": "node",
  "id": 2147278439,
  "lat": 44.4095788,
  "lon": 9.2767497
},
{
  "type": "node",
  "id": 2147278471,
  "lat": 44.4095902,
  "lon": 9.2767591
},
{
  "type": "node",
  "id": 2147278482,
  "lat": 44.4095956,
  "lon": 9.2767464
},
{
  "type": "node",
  "id": 2147278652,
  "lat": 44.4096929,
  "lon": 9.2768272
},
{
  "type": "node",
  "id": 2147278803,
  "lat": 44.4097733,
  "lon": 9.2767174
},
{
  "type": "node",
  "id": 2147278807,
  "lat": 44.4097760,
  "lon": 9.2767138
},
{
  "type": "node",
  "id": 2147278824,
  "lat": 44.4097834,
  "lon": 9.2767251
},
{
  "type": "node",
  "id": 2147278866,
  "lat": 44.4098000,
  "lon": 9.2770498
},
{
  "type": "node",
  "id": 2147278897,
  "lat": 44.4098109,
  "lon": 9.2770244
},
{
  "type": "node",
  "id": 2147278918,
  "lat": 44.4098195,
  "lon": 9.2768711
},
{
  "type": "node",
  "id": 2147278942,
  "lat": 44.4098304,
  "lon": 9.2769895
},
{
  "type": "node",
  "id": 2147278984,
  "lat": 44.4098457,
  "lon": 9.2768218
},
{
  "type": "node",
  "id": 2147279014,
  "lat": 44.4098600,
  "lon": 9.2770652
},
{
  "type": "node",
  "id": 2147279023,
  "lat": 44.4098649,
  "lon": 9.2769089
},
{
  "type": "node",
  "id": 2147279047,
  "lat": 44.4098761,
  "lon": 9.2770275
},
{
  "type": "node",
  "id": 2147315771,
  "lat": 44.4336633,
  "lon": 9.2769359
},
{
  "type": "node",
  "id": 2147315775,
  "lat": 44.4336839,
  "lon": 9.2769231
},
{
  "type": "node",
  "id": 2147315781,
  "lat": 44.4337091,
  "lon": 9.2770791
},
{
  "type": "node",
  "id": 2147315802,
  "lat": 44.4337562,
  "lon": 9.2770496
},
{
  "type": "node",
  "id": 2147315803,
  "lat": 44.4337627,
  "lon": 9.2768739
},
{
  "type": "node",
  "id": 2147315820,
  "lat": 44.4338084,
  "lon": 9.2770645
},
{
  "type": "node",
  "id": 2147315822,
  "lat": 44.4338086,
  "lon": 9.2770170
},
{
  "type": "node",
  "id": 4857396445,
  "lat": 44.4338215,
  "lon": 9.2770535
},
{
  "type": "node",
  "id": 4857396446,
  "lat": 44.4337684,
  "lon": 9.2770864
},
{
  "type": "way",
  "id": 23116819,
  "nodes": [
    2359158736,
    2359158771,
    249569089,
    1544127744,
    2359158687,
    249569080,
    2359158660,
    2359158654,
    3769289622,
    2359158646,
    2359158644,
    249569081,
    249569082,
    249569083,
    2359158650,
    2359158659,
    3249785525,
    2359158672,
    2359158682,
    249569084,
    2359158681,
    249569085,
    249569086,
    1233070541,
    2359158680,
    2359158690,
    546744987,
    2359158710,
    2359158736
  ]
},
{
  "type": "way",
  "id": 227201120,
  "nodes": [
    2359158724,
    2359158697,
    2359158720,
    2359158762,
    2359158724
  ]
},
{
  "type": "way",
  "id": 379121872,
  "nodes": [
    2360971617,
    2360971644,
    2360971621,
    2360971603,
    2360971630,
    2360971581,
    2360971571,
    2360971562,
    2360971552,
    2360971557,
    2360971550,
    2360971527,
    3824840057,
    3824840058,
    3824840059,
    2360971617
  ]
},
{
  "type": "way",
  "id": 379121874,
  "nodes": [
    3824840060,
    3824840061,
    3824840062,
    3824840063,
    3824840060
  ]
},
{
  "type": "way",
  "id": 227201122,
  "nodes": [
    2359158651,
    2359158647,
    2359158653,
    2359158663,
    2359158651
  ]
},
{
  "type": "way",
  "id": 22978034,
  "nodes": [
    247694476,
    2282825168,
    2282825167,
    247694473,
    2321005250,
    2321005245,
    2321005241,
    2321005244,
    247694474,
    2336334824,
    2321005215,
    2321005210,
    2321005199,
    1237425863,
    1237425531,
    2337031036,
    2337031050,
    1237425393,
    247694476
  ]
},
{
  "type": "way",
  "id": 107714380,
  "nodes": [
    1237425417,
    1237425617,
    1237425802,
    1237425624,
    1237425569,
    1237425751,
    1237425844,
    1237425676,
    1237425417
  ]
},
{
  "type": "way",
  "id": 22977840,
  "nodes": [
    1229994623,
    247693132,
    2343763797,
    247693133,
    941888789,
    2281984013,
    1229994640,
    6394700959,
    247693135,
    1229994623
  ]
},
{
  "type": "way",
  "id": 106971504,
  "nodes": [
    1229994664,
    1229994575,
    1229994581,
    1229994650,
    1229994664
  ]
},
{
  "type": "way",
  "id": 22978074,
  "nodes": [
    247694664,
    247694665,
    5590053162,
    5590053153,
    5590053161,
    911863135,
    5590053159,
    5590053156,
    5590053160,
    247694666,
    5590053158,
    247694667,
    1204897734,
    1204897932,
    1204897902,
    1204898001,
    247694664
  ]
},
{
  "type": "way",
  "id": 42701241,
  "nodes": [
    533977394,
    533977389,
    533977406,
    533977407,
    533977394
  ]
},
{
  "type": "way",
  "id": 42701242,
  "nodes": [
    533977390,
    533977391,
    533977392,
    533977393,
    533977390
  ]
}

  ]
}
