{
  "version": 0.6,
  "generator": "Overpass API 0.7.55.9 ab41fea6",
  "osm3s": {
    "timestamp_osm_base": "2020-02-14T10:53:02Z",
    "copyright": "The data included in this document is from www.openstreetmap.org. The data is made available under ODbL."
  },
  "elements": [

{
  "type": "node",
  "id": 206340962,
  "lat": 48.3971049,
  "lon": 9.9947315,
  "tags": {
    "addr:city": "Ulm",
    "addr:country": "DE",
    "addr:housenumber": "9",
    "addr:postcode": "89073",
    "addr:street": "Marktplatz",
    "fee": "yes",
    "fee:description": "jeden ersten Freitag im Monat der Eintritt frei",
    "lastcheck": "2017-08-21",
    "local_name": "Ulmer Museum",
    "name": "Museum Ulm",
    "opening_hours": "Tu-Su 11:00-17:00",
    "toilets:wheelchair": "yes",
    "tourism": "museum",
    "website": "https://museumulm.de/",
    "wheelchair": "yes",
    "wikidata": "Q2475379",
    "wikipedia": "de:Museum Ulm"
  }
},
{
  "type": "node",
  "id": 271903635,
  "lat": 48.6757553,
  "lon": 10.1491886,
  "tags": {
    "name": "Heimatmuseum Heidenheim",
    "tourism": "museum"
  }
},
{
  "type": "node",
  "id": 274816030,
  "lat": 48.6782672,
  "lon": 10.1563702,
  "tags": {
    "addr:city": "Heidenheim an der Brenz",
    "addr:country": "DE",
    "addr:housenumber": "3",
    "addr:postcode": "89518",
    "addr:street": "Theodor-Heuss-Straße",
    "lastcheck": "2017-11-16",
    "name": "Museum im Römerbad",
    "opening_hours": "May-Oct: Su 13:00-17:00",
    "tourism": "museum",
    "wheelchair": "limited"
  }
},
{
  "type": "node",
  "id": 275670876,
  "lat": 48.6804048,
  "lon": 10.1542171,
  "tags": {
    "addr:city": "Heidenheim an der Brenz",
    "addr:country": "DE",
    "addr:housenumber": "4",
    "addr:postcode": "89518",
    "addr:street": "Marienstraße",
    "lastcheck": "2017-11-16",
    "loc_name": "Kunstmuseum Heidenheim",
    "name": "Hermann Voith Galerie",
    "opening_hours": "Tu 11:00-17:00; We 13:00-18:00; Th-Su 10:45-17:00",
    "tourism": "museum",
    "website": "https://17.kunstmuseum-heidenheim.de/",
    "wheelchair": "no"
  }
},
{
  "type": "node",
  "id": 281234504,
  "lat": 48.4376490,
  "lon": 9.9397707,
  "tags": {
    "name": "Heimatmuseum",
    "tourism": "museum"
  }
},
{
  "type": "node",
  "id": 295195372,
  "lat": 48.7396487,
  "lon": 10.1153446,
  "tags": {
    "name": "Torbogenmuseum",
    "opening_hours": "\"nach Vereinbarung\"",
    "tourism": "museum"
  }
},
{
  "type": "node",
  "id": 412384133,
  "lat": 48.2746880,
  "lon": 10.2278330,
  "tags": {
    "name": "Klostermuseum",
    "tourism": "museum"
  }
},
{
  "type": "node",
  "id": 440851427,
  "lat": 48.6165317,
  "lon": 10.1760912,
  "tags": {
    "tourism": "museum",
    "wheelchair": "no"
  }
},
{
  "type": "node",
  "id": 450690375,
  "lat": 48.5764185,
  "lon": 10.4935485,
  "tags": {
    "name": "Stadt- und Hochstiftmuseum",
    "operator": "Historischer Verein Dillingen",
    "tourism": "museum",
    "website": "http://www.historischer-verein-dillingen.de/museum/museum.htm",
    "wikidata": "Q2326313",
    "wikipedia": "de:Stadt- und Hochstiftmuseum"
  }
},
{
  "type": "node",
  "id": 600341151,
  "lat": 48.2451950,
  "lon": 10.3691872,
  "tags": {
    "addr:city": "Krumbach",
    "addr:country": "DE",
    "addr:housenumber": "3-5",
    "addr:postcode": "86381",
    "addr:street": "Heinrich-Sinz-Straße",
    "name": "Mittelschwäbisches Heimatmuseum",
    "opening_hours": "Th-Su 14:00-17:00",
    "tourism": "museum",
    "wikidata": "Q1768678",
    "wikipedia": "de:Mittelschwäbisches Heimatmuseum"
  }
},
{
  "type": "node",
  "id": 811872637,
  "lat": 48.3707053,
  "lon": 10.2999367,
  "tags": {
    "description": "Zweigstelle des Bayer. Nationalmuseums",
    "name": "Bayerisches Schulmuseum",
    "tourism": "museum",
    "wheelchair": "limited"
  }
},
{
  "type": "node",
  "id": 949755841,
  "lat": 48.4009500,
  "lon": 9.9901267,
  "tags": {
    "name": "Museum der Brotkultur",
    "toilets:wheelchair": "yes",
    "tourism": "museum",
    "website": "http://www.museum-brotkultur.de/",
    "wheelchair": "yes",
    "wikidata": "Q1954536",
    "wikipedia": "de:Museum der Brotkultur"
  }
},
{
  "type": "node",
  "id": 1115808499,
  "lat": 48.3279521,
  "lon": 10.3705786,
  "tags": {
    "name": "Hammerschmiede Naichen und Stockerhof",
    "opening_hours": "easter - nov Su[1]: Su 13:00-17:00; Su[1,3] 13:00-17:00 \"Schmiedevorführung\"",
    "phone": "+49 8283 928606 (nur während der Öffnungszeiten); ansonsten: +49 8238 3001-16 (Schwäbisches Volkskundemuseum Oberschönenfeld)",
    "tourism": "museum",
    "website": "http://www.hammerschmiede-naichen.de/",
    "wikidata": "Q1573818",
    "wikipedia": "de:Hammerschmiede Naichen"
  }
},
{
  "type": "node",
  "id": 1122698767,
  "lat": 48.3483220,
  "lon": 10.5955699,
  "tags": {
    "addr:housenumber": "27",
    "addr:street": "Augsburger Straße",
    "name": "Heimatmuseum Dinkelscherben",
    "opening_hours": "Su[1] 13:00-16:00",
    "tourism": "museum",
    "website": "http://www.dinkelscherben.de/index.php/dinkelscherben/kultur-musik/heimatmuseum",
    "wheelchair": "limited"
  }
},
{
  "type": "node",
  "id": 1175574271,
  "lat": 48.3165376,
  "lon": 10.2946077,
  "tags": {
    "addr:city": "Stoffenried",
    "addr:postcode": "89352",
    "name": "Kreisheimatstube Stoffenried",
    "operator": "Landkreis Günzburg An der Kapuzinermauer 1 89312 Günzburg Tel. 08221950",
    "tourism": "museum",
    "wikidata": "Q1787696",
    "wikipedia": "de:Kreisheimatstube Stoffenried"
  }
},
{
  "type": "node",
  "id": 1237847119,
  "lat": 48.3998777,
  "lon": 9.9957168,
  "tags": {
    "name": "Naturkundliches Bildungszentrum",
    "toilets:wheelchair": "no",
    "tourism": "museum",
    "wheelchair": "no",
    "wikidata": "Q76632194"
  }
},
{
  "type": "node",
  "id": 1239286977,
  "lat": 48.3974607,
  "lon": 9.9939619,
  "tags": {
    "addr:city": "Ulm",
    "addr:housenumber": "1",
    "addr:postcode": "89073",
    "addr:street": "Hans-und-Sophie-Scholl-Platz",
    "fee": "yes",
    "lastcheck": "2017-08-21",
    "name": "Kunsthalle Weishaupt",
    "opening_hours": "Tu-Su 11:00-17:00; Th 11:00-20:00",
    "toilets:wheelchair": "yes",
    "tourism": "museum",
    "website": "http://www.kunsthalle-weishaupt.de/",
    "wheelchair": "yes",
    "wikidata": "Q1792420",
    "wikipedia": "de:Kunsthalle Weishaupt"
  }
},
{
  "type": "node",
  "id": 1274038210,
  "lat": 48.6246994,
  "lon": 10.0227771,
  "tags": {
    "museum": "railway",
    "name": "Eisenbahnmuseum",
    "tourism": "museum"
  }
},
{
  "type": "node",
  "id": 1274038211,
  "lat": 48.6246458,
  "lon": 10.0229099,
  "tags": {
    "name": "Riff-Museum",
    "tourism": "museum"
  }
},
{
  "type": "node",
  "id": 1322223547,
  "lat": 48.7514312,
  "lon": 10.3389579,
  "tags": {
    "building": "train_station",
    "name": "Härtsfeld-Museumsbahn",
    "opening_hours": "Su[1] 10:00-18:00; Nov-Apr off",
    "operator": "Härtsfeld-Museumsbahn e.V.",
    "tourism": "museum",
    "website": "http://www.hmb-ev.de",
    "wikidata": "Q76631646"
  }
},
{
  "type": "node",
  "id": 1374478036,
  "lat": 48.5790353,
  "lon": 10.2327378,
  "tags": {
    "name": "Alte Mühle Burgberg",
    "tourism": "museum",
    "website": "http://www.muehlenverein-burgberg.de/"
  }
},
{
  "type": "node",
  "id": 1374489525,
  "lat": 48.5919204,
  "lon": 10.2048627,
  "tags": {
    "addr:city": "Hürben",
    "addr:housenumber": "3",
    "addr:postcode": "89537",
    "addr:street": "Dettinger Straße",
    "alt_name": "Stadtmuseum",
    "name": "Heimatmuseum",
    "opening_hours": "Apr-Oct: Su,PH 14:00-18:00",
    "operator": "Stadt Giengen an der Brenz",
    "tourism": "museum",
    "wheelchair": "no"
  }
},
{
  "type": "node",
  "id": 1379401801,
  "lat": 48.3924366,
  "lon": 9.9849185,
  "tags": {
    "name": "Donauschwäbisches Zentralmuseum",
    "opening_hours": "Tu-Su,PH 11:00-17:00",
    "phone": "+49731962540‎",
    "toilets:wheelchair": "yes",
    "tourism": "museum",
    "website": "http://www.dzm-museum.de",
    "wheelchair": "yes",
    "wikidata": "Q1241000"
  }
},
{
  "type": "node",
  "id": 1380341486,
  "lat": 48.3615148,
  "lon": 9.9913300,
  "tags": {
    "name": "Museum im Konventbau",
    "toilets:wheelchair": "yes",
    "tourism": "museum",
    "website": "https://www.kloster-wiblingen.de/",
    "wheelchair": "yes",
    "wikidata": "Q181304",
    "wikipedia": "de:Kloster Wiblingen"
  }
},
{
  "type": "node",
  "id": 1448729596,
  "lat": 48.4006234,
  "lon": 9.9990074,
  "tags": {
    "name": "Galerie Sebastianskapelle",
    "tourism": "museum"
  }
},
{
  "type": "node",
  "id": 1576180504,
  "lat": 48.4101362,
  "lon": 10.0393667,
  "tags": {
    "email": "Heimatmuseum.Pfuhl@gmail.com",
    "fee": "no",
    "name": "Heimatmuseum Pfuhl",
    "opening_hours": "Su 14:00-17:00",
    "phone": "+49 731 9408926",
    "tourism": "museum",
    "website": "http://www.heimatmuseum-pfuhl.de/"
  }
},
{
  "type": "node",
  "id": 1603569677,
  "lat": 48.4298782,
  "lon": 10.1446407,
  "tags": {
    "contact:phone": "+49 7308 922443",
    "contact:website": "http://www.landkreis.neu-ulm-tourismus.de/themen/kulturelle-schaetze/kunstmuseum-oberfahlheim.html",
    "museum": "art",
    "name": "Museum für bildende Kunst",
    "opening_hours": "Tu 16:00-20:00;Sa-Su 13:00-17:00",
    "operator": "Landkreis Neu-Ulm",
    "ref:isil": "DE-MUS-716210",
    "tourism": "museum"
  }
},
{
  "type": "node",
  "id": 1640442791,
  "lat": 48.3719124,
  "lon": 10.3046330,
  "tags": {
    "name": "Bayerisches Schulmuseum",
    "opening_hours": "Tu-Su 10:00-17:00; Mo off",
    "tourism": "museum"
  }
},
{
  "type": "node",
  "id": 1744035820,
  "lat": 48.4964320,
  "lon": 10.1207222,
  "tags": {
    "name": "Museum für Vor- und Frühgeschichte",
    "tourism": "museum"
  }
},
{
  "type": "node",
  "id": 1770367212,
  "lat": 48.5006927,
  "lon": 10.0214934,
  "tags": {
    "name": "Heimatstube",
    "tourism": "museum"
  }
},
{
  "type": "node",
  "id": 1771713981,
  "lat": 48.4164187,
  "lon": 9.9184657,
  "tags": {
    "name": "Ausstellung Steinzeitdorf Ehrenstein",
    "tourism": "museum"
  }
},
{
  "type": "node",
  "id": 1807837883,
  "lat": 48.5144358,
  "lon": 9.9994509,
  "tags": {
    "name": "Mühlenmuseum",
    "tourism": "museum"
  }
},
{
  "type": "node",
  "id": 1819365787,
  "lat": 48.5532764,
  "lon": 10.3679179,
  "tags": {
    "entrance": "yes",
    "name": "Sudetendeutsche Heimatstube",
    "tourism": "museum"
  }
},
{
  "type": "node",
  "id": 1844583295,
  "lat": 48.4458728,
  "lon": 10.2788746,
  "tags": {
    "addr:housenumber": "11",
    "addr:postcode": "89312",
    "addr:street": "Am Hang",
    "name": "Besenwelten",
    "tourism": "museum",
    "website": "http://www.besenwelten.de"
  }
},
{
  "type": "node",
  "id": 1868302286,
  "lat": 48.4421469,
  "lon": 9.9866185,
  "tags": {
    "name": "Heimatgeschichtliche Sammlung Jungingen",
    "opening_hours": "Su[1] 14:00-17:00",
    "tourism": "museum"
  }
},
{
  "type": "node",
  "id": 1870663694,
  "lat": 48.4314818,
  "lon": 10.4073261,
  "tags": {
    "name": "Schloss Museum",
    "tourism": "museum",
    "wheelchair": "no"
  }
},
{
  "type": "node",
  "id": 2093126171,
  "lat": 48.6112212,
  "lon": 10.5676218,
  "tags": {
    "addr:city": "Höchstädt a.d.Donau",
    "addr:country": "DE",
    "addr:housenumber": "7",
    "addr:postcode": "89420",
    "addr:street": "Marktplatz",
    "name": "Heimatmuseum",
    "opening_hours": "Apr-Oct: Su 14:00-17:00; Nov-Mar: Su[1] 14:00-16:00",
    "tourism": "museum",
    "wheelchair": "no",
    "wikidata": "Q41311068"
  }
},
{
  "type": "node",
  "id": 2131392541,
  "lat": 48.4577013,
  "lon": 10.6626468,
  "tags": {
    "name": "Ganghofer Stätte",
    "tourism": "museum"
  }
},
{
  "type": "node",
  "id": 2183271162,
  "lat": 48.2930290,
  "lon": 10.5262200,
  "tags": {
    "addr:city": "Ziemetshausen",
    "addr:country": "DE",
    "addr:housenumber": "7a",
    "addr:postcode": "86473",
    "addr:street": "Friedhofstraße",
    "contact:website": "http://www.webereimuseum-ziemetshausen.de/",
    "name": "Webereimuseum",
    "tourism": "museum"
  }
},
{
  "type": "node",
  "id": 2183271173,
  "lat": 48.2933703,
  "lon": 10.5268178,
  "tags": {
    "addr:city": "Ziemetshausen",
    "addr:country": "DE",
    "addr:housenumber": "2",
    "addr:postcode": "86473",
    "addr:street": "Friedhofstraße",
    "contact:website": "http://www.schreinereimuseum-ziemetshausen.de/",
    "name": "Handwerkermuseum",
    "tourism": "museum"
  }
},
{
  "type": "node",
  "id": 2266614909,
  "lat": 48.4115228,
  "lon": 9.9832167,
  "tags": {
    "addr:housenumber": "100",
    "addr:street": "Prittwitzstraße",
    "name": "Museumsinsel",
    "opening_hours": "Su[3] 14:00+",
    "operator": "Förderkreis Bundesfestung Ulm",
    "source": "http://www.festung-ulm.de",
    "toilets:wheelchair": "yes",
    "tourism": "museum",
    "wheelchair": "limited"
  }
},
{
  "type": "node",
  "id": 2266646882,
  "lat": 48.3822024,
  "lon": 9.9497592,
  "tags": {
    "addr:city": "Ulm",
    "addr:housenumber": "11",
    "addr:postcode": "89081",
    "addr:street": "Am Hochsträß",
    "building": "yes",
    "fee": "no",
    "name": "Festungsmuseum Fort Oberer Kuhberk (Werk XXXII)",
    "opening_hours": "Su[1] 14:00+",
    "operator": "Förderkreis Bundesfestung, Ulm e.V.",
    "source": "Bing",
    "tourism": "museum",
    "website": "http://www.festung-ulm.de",
    "wheelchair": "no"
  }
},
{
  "type": "node",
  "id": 2276227208,
  "lat": 48.3039610,
  "lon": 10.1611519,
  "tags": {
    "name": "Archäologische Sammlung",
    "tourism": "museum"
  }
},
{
  "type": "node",
  "id": 2335002257,
  "lat": 48.5525893,
  "lon": 10.5354702,
  "tags": {
    "name": "Fristinger Mühle",
    "tourism": "museum"
  }
},
{
  "type": "node",
  "id": 2335002264,
  "lat": 48.5736754,
  "lon": 10.5786860,
  "tags": {
    "name": "Kicklinger Mühle",
    "tourism": "museum"
  }
},
{
  "type": "node",
  "id": 2373283630,
  "lat": 48.3962306,
  "lon": 9.9904803,
  "tags": {
    "name": "Haus der Stadtgeschichte",
    "opening_hours": "Tu-Su 11:00-17:00",
    "toilets:wheelchair": "yes",
    "tourism": "museum",
    "wheelchair": "yes",
    "wikidata": "Q48757234",
    "wikipedia": "de:Haus der Stadtgeschichte – Stadtarchiv Ulm"
  }
},
{
  "type": "node",
  "id": 2459377379,
  "lat": 48.4964231,
  "lon": 10.1208438,
  "tags": {
    "name": "Ungarndeutsche Heimatstuben",
    "tourism": "museum"
  }
},
{
  "type": "node",
  "id": 2459403729,
  "lat": 48.4849478,
  "lon": 10.0310143,
  "tags": {
    "name": "Küfermuseum",
    "tourism": "museum"
  }
},
{
  "type": "node",
  "id": 2466661747,
  "lat": 48.3060700,
  "lon": 9.9926744,
  "tags": {
    "email": "werners.radiobude@web.de",
    "name": "Radiomuseum",
    "opening_hours": "\"nach Vereinbarung\"",
    "operator": "Werner Hauf",
    "phone": "+49 7346 2800",
    "tourism": "museum",
    "website": "https://www.staig.de/de/freizeit/museen-ausstellungen/radiomuseum.php"
  }
},
{
  "type": "node",
  "id": 2483553962,
  "lat": 48.5777225,
  "lon": 10.4911548,
  "tags": {
    "name": "Naturhistorisches Museum",
    "tourism": "museum"
  }
},
{
  "type": "node",
  "id": 2483567046,
  "lat": 48.5778768,
  "lon": 10.4949823,
  "tags": {
    "name": "Zeugnisse klösterlichen Lebens",
    "tourism": "museum"
  }
},
{
  "type": "node",
  "id": 2495183278,
  "lat": 48.3045659,
  "lon": 10.1596835,
  "tags": {
    "fee": "yes",
    "name": "Heimatmuseum",
    "tourism": "museum",
    "wheelchair": "no"
  }
},
{
  "type": "node",
  "id": 2503333317,
  "lat": 48.3813995,
  "lon": 9.9484839,
  "tags": {
    "name": "HfG-Archiv Ulm",
    "opening_hours": "Tu-Su 11:00-17:00; Th 11:00-20:00",
    "operator": "Ulmer Museum",
    "tourism": "museum",
    "wikipedia": "de:Hochschule für Gestaltung Ulm#HfG-Archiv Ulm"
  }
},
{
  "type": "node",
  "id": 2564406723,
  "lat": 48.3959876,
  "lon": 10.0074659,
  "tags": {
    "name": "Galerie im Venet-Haus",
    "tourism": "museum",
    "website": "https://www.galerie-im-venet-haus.de"
  }
},
{
  "type": "node",
  "id": 2662961952,
  "lat": 48.5693254,
  "lon": 10.4288767,
  "tags": {
    "name": "Lauinger Heimathaus",
    "tourism": "museum"
  }
},
{
  "type": "node",
  "id": 2852982164,
  "lat": 48.7549711,
  "lon": 10.3433430,
  "tags": {
    "addr:city": "Neresheim",
    "addr:housenumber": "12",
    "addr:postcode": "73450",
    "addr:street": "Kloster Neresheim",
    "name": "Klosterbuchhandlung",
    "shop": "books",
    "toilets:wheelchair": "no",
    "tourism": "museum",
    "wheelchair": "limited"
  }
},
{
  "type": "node",
  "id": 2939076467,
  "lat": 48.7383720,
  "lon": 10.1157070,
  "tags": {
    "name": "Königsbronner Kannen Museum",
    "tourism": "museum"
  }
},
{
  "type": "node",
  "id": 3093536510,
  "lat": 48.2411121,
  "lon": 10.1333413,
  "tags": {
    "addr:city": "Illertissen",
    "addr:country": "DE",
    "addr:housenumber": "1",
    "addr:postcode": "89257",
    "addr:street": "Jungviehweide",
    "contact:phone": "+49 7303 9524747",
    "name": "Museum der Gartenkultur",
    "opening_hours": "11:00-17:00",
    "operator": "Stiftung Gartenkultur",
    "toilets:wheelchair": "yes",
    "tourism": "museum",
    "url": "http://www.stiftung-gartenkultur.org",
    "website": "http://museum-der-gartenkultur.de",
    "wheelchair": "yes",
    "wikidata": "Q15835876"
  }
},
{
  "type": "node",
  "id": 3099048005,
  "lat": 48.7358054,
  "lon": 10.1175702,
  "tags": {
    "name": "Alte Feilenschleiferei",
    "tourism": "museum"
  }
},
{
  "type": "node",
  "id": 3100622229,
  "lat": 48.5018818,
  "lon": 10.1723157,
  "tags": {
    "name": "Ausstellung in der Landeswasserversorgung Langenau",
    "operator": "Zweckverband Landeswasserversorgung",
    "tourism": "museum",
    "website": "https://www.langenau.de/de/04_tourismus/04.02_stadtrundgang/c_lw_ausstellung.php"
  }
},
{
  "type": "node",
  "id": 3158627506,
  "lat": 48.4488896,
  "lon": 10.2229420,
  "tags": {
    "name": "Christophs Friseurmuseum",
    "tourism": "museum",
    "wikidata": "Q76628313"
  }
},
{
  "type": "node",
  "id": 3294556161,
  "lat": 48.2929922,
  "lon": 10.5257400,
  "tags": {
    "name": "Heimatmuseum",
    "tourism": "museum"
  }
},
{
  "type": "node",
  "id": 3342268622,
  "lat": 48.4450882,
  "lon": 10.2433934,
  "tags": {
    "name": "Fliegerhorstmuseum Leipheim",
    "source": "http://www.fliegerhorstmuseum-leipheim.de",
    "tourism": "museum"
  }
},
{
  "type": "node",
  "id": 3342284347,
  "lat": 48.4463386,
  "lon": 10.2200623,
  "tags": {
    "name": "Mühlentechnik",
    "source": "http://www.leipheim.de/index.php?selected_page_id=8988",
    "tourism": "museum"
  }
},
{
  "type": "node",
  "id": 3373049567,
  "lat": 48.7237545,
  "lon": 10.3916961,
  "tags": {
    "tourism": "museum"
  }
},
{
  "type": "node",
  "id": 3705815764,
  "lat": 48.4970074,
  "lon": 10.1210239,
  "tags": {
    "name": "Heimatmuseum",
    "toilets:wheelchair": "no",
    "tourism": "museum",
    "wheelchair": "limited"
  }
},
{
  "type": "node",
  "id": 4394183349,
  "lat": 48.2807605,
  "lon": 10.4705435,
  "tags": {
    "addr:city": "Thannhausen",
    "addr:country": "DE",
    "addr:housenumber": "16",
    "addr:postcode": "86470",
    "addr:street": "Edmund-Zimmermann-Straße",
    "contact:website": "http://www.tuchmacherhaus.de",
    "name": "Heimatmuseum im Tuchmacherhaus",
    "tourism": "museum",
    "wikidata": "Q76629564"
  }
},
{
  "type": "node",
  "id": 4770674921,
  "lat": 48.5633580,
  "lon": 10.6798706,
  "tags": {
    "addr:city": "Wertingen",
    "addr:housenumber": "1",
    "addr:street": "Fèrestraße",
    "name": "Radio- und Telefonmuseum",
    "operator": "Stadt Wertingen",
    "tourism": "museum",
    "website": "http://www.radiomuseum-wertingen.de/",
    "wikidata": "Q61037854"
  }
},
{
  "type": "node",
  "id": 4920148894,
  "lat": 48.4011494,
  "lon": 10.0047456,
  "tags": {
    "craft": "printing",
    "name": "Druckwerkstatt Ulm",
    "operator": "Verein zur Pflege historischer Druckverfahren",
    "tourism": "museum",
    "url": "https://www.druckwerkstatt-ulm.de/"
  }
},
{
  "type": "node",
  "id": 4948824702,
  "lat": 48.3971668,
  "lon": 9.9538764,
  "tags": {
    "name": "Museum in der Klostermühle",
    "opening_hours": "PH,Su 14:00-17:00",
    "operator": "Museumsverein Ulm-Söflingen e.V.",
    "tourism": "museum",
    "url": "http://www.museum-soeflingen.de/",
    "wheelchair": "no"
  }
},
{
  "type": "node",
  "id": 6363608602,
  "lat": 48.5736521,
  "lon": 10.4180929,
  "tags": {
    "addr:city": "Lauingen (Donau)",
    "addr:postcode": "89415",
    "name": "Deutz-Fahr Museum",
    "opening_hours": "Mo-Fr 09:00-17:00; PH off",
    "operator": "Deutz-Fahr GmbH",
    "tourism": "museum"
  }
},
{
  "type": "node",
  "id": 6579196245,
  "lat": 48.2706344,
  "lon": 10.2414887,
  "tags": {
    "name": "Krippenausstellung",
    "opening_hours": "Winter",
    "tourism": "museum"
  }
},
{
  "type": "node",
  "id": 6611494332,
  "lat": 48.5615366,
  "lon": 10.2932426,
  "tags": {
    "name": "Heimatmuseum",
    "operator": "Gemeinde Sontheim an der Brenz",
    "operator:type": "public",
    "tourism": "museum",
    "website": "http://www.sontheim-brenz.de/schloss-brenz/heimatmuseum"
  }
},
{
  "type": "node",
  "id": 6855196457,
  "lat": 48.6794500,
  "lon": 10.1551951,
  "tags": {
    "addr:city": "Heidenheim an der Brenz",
    "addr:housenumber": "6",
    "addr:postcode": "89518",
    "addr:street": "Bahnhofstraße",
    "email": "info@welt-der-sinne.org",
    "name": "Welt der Sinne",
    "opening_hours": "Mo,Tu,Th,Fr 09:00-12:00,14:00-17:00; We 09:00-12:00; PH off",
    "phone": "+49 7321 3550509",
    "tourism": "museum",
    "website": "http://www.welt-der-sinne.org/"
  }
},
{
  "type": "way",
  "id": 24999965,
  "nodes": [
    271778359,
    271778349,
    276064664,
    271778363,
    271778359
  ],
  "tags": {
    "alt_name": "Museum für Kutschen, Chaisen und Karren",
    "building": "yes",
    "fee": "yes",
    "image": "https://commons.wikimedia.org/wiki/File:HDHFruchtkasten.jpg",
    "lastcheck": "2017-11-16",
    "name": "Fruchtkasten",
    "opening_hours": "Apr-Oct: Tu-Sa 11:00-16:00; Su 11:00-17:00",
    "tourism": "museum"
  }
},
{
  "type": "way",
  "id": 27542123,
  "nodes": [
    302341416,
    302341417,
    302341419,
    302341420,
    302341416
  ],
  "tags": {
    "created_by": "Potlatch 0.10c",
    "name": "Obstbaummuseum",
    "tourism": "museum"
  }
},
{
  "type": "way",
  "id": 35325166,
  "nodes": [
    414053143,
    414053144,
    414053145,
    414053146,
    414053143
  ],
  "tags": {
    "building": "yes",
    "name": "Automuseum Gundelfingen",
    "tourism": "museum"
  }
},
{
  "type": "way",
  "id": 48549857,
  "nodes": [
    616729380,
    616729432,
    616729431,
    616729430,
    616729380
  ],
  "tags": {
    "addr:city": "Nattheim",
    "addr:country": "DE",
    "addr:housenumber": "9",
    "addr:postcode": "89564",
    "addr:street": "Neresheimer Straße",
    "building": "yes",
    "name": "Alte Schule",
    "tourism": "museum",
    "wheelchair": "no"
  }
},
{
  "type": "way",
  "id": 60225107,
  "nodes": [
    748154210,
    748154121,
    748154156,
    748154018,
    748154111,
    748154210
  ],
  "tags": {
    "addr:city": "Gessertshausen",
    "addr:housenumber": "4",
    "addr:postcode": "86459",
    "addr:street": "Oberschönenfeld",
    "building": "yes",
    "name": "Museum Oberschönenfeld",
    "tourism": "museum",
    "website": "https://mos.bezirk-schwaben.de",
    "wikidata": "Q1643659",
    "wikipedia": "de:Museum Oberschönenfeld"
  }
},
{
  "type": "way",
  "id": 60225115,
  "nodes": [
    748154122,
    748154053,
    748154069,
    748154138,
    3767878361,
    748154122
  ],
  "tags": {
    "building": "yes",
    "name": "Besucherzentrum",
    "opening_hours": "Tu-Su 10:00-17:00",
    "tourism": "museum"
  }
},
{
  "type": "way",
  "id": 60255671,
  "nodes": [
    1065087516,
    748763291,
    748763269,
    748763265,
    748763287,
    1065087649,
    1065087526,
    1065087589,
    1065087516
  ],
  "tags": {
    "building": "yes",
    "name": "Museumspädagogik",
    "tourism": "museum"
  }
},
{
  "type": "way",
  "id": 60255677,
  "nodes": [
    748763288,
    748763266,
    748763313,
    748763308,
    748763288
  ],
  "tags": {
    "addr:city": "Gessertshausen",
    "addr:country": "DE",
    "addr:housenumber": "5",
    "addr:postcode": "86459",
    "addr:street": "Oberschönenfeld",
    "building": "yes",
    "historic": "yes",
    "name": "Staudenhaus",
    "opening_hours": "Apr-Oct: Sa,Su,PH 13:00-17:00",
    "tourism": "museum",
    "website": "https://mos.bezirk-schwaben.de/oberschoenenfeld/staudenhaus/",
    "wheelchair": "no",
    "wikipedia": "de:Staudenhaus"
  }
},
{
  "type": "way",
  "id": 91660404,
  "nodes": [
    1065087590,
    1065087567,
    1065087645,
    1065087614,
    1065087590
  ],
  "tags": {
    "addr:city": "Gessertshausen",
    "addr:country": "DE",
    "addr:housenumber": "4",
    "addr:postcode": "86459",
    "addr:street": "Oberschönenfeld",
    "building": "yes",
    "tourism": "museum"
  }
},
{
  "type": "way",
  "id": 112702983,
  "nodes": [
    1280485472,
    1280485839,
    1280485440,
    1280485549,
    1280485472
  ],
  "tags": {
    "addr:city": "Neresheim",
    "addr:country": "DE",
    "addr:housenumber": "22",
    "addr:postcode": "73450",
    "addr:street": "Hauptstraße",
    "building": "yes",
    "name": "Heimatmuseum",
    "opening_hours": "Apr-Oct: Su 13:30-16:00 || \"Gruppenführungen nach Absprache Tourist-Info\"",
    "tourism": "museum",
    "wheelchair": "no"
  }
},
{
  "type": "way",
  "id": 116003794,
  "nodes": [
    1281816807,
    1309244015,
    1281816693,
    1281816813,
    1281816816,
    828732076,
    2973878890,
    2973878889,
    1281816825,
    1281816742,
    1281816690,
    1281816699,
    1281816707,
    1281816807
  ],
  "tags": {
    "addr:city": "Neu-Ulm",
    "addr:country": "DE",
    "addr:housenumber": "4",
    "addr:postcode": "89231",
    "addr:street": "Petrusplatz",
    "building": "yes",
    "email": "esm@neu-ulm.de",
    "name": "Edwin-Scharff-Museum",
    "opening_hours": "Tu-We 13:00-17:00; Th-Sa 13:00-18:00; Su 10:00-18:00",
    "phone": "+49 731 9726180",
    "toilets:wheelchair": "no",
    "tourism": "museum",
    "website": "http://www.edwinscharffmuseum.de/",
    "wheelchair": "limited"
  }
},
{
  "type": "way",
  "id": 128507723,
  "nodes": [
    1420045756,
    1420045891,
    1420045237,
    1420045310,
    1420045756
  ],
  "tags": {
    "building": "yes",
    "name": "Museum",
    "tourism": "museum"
  }
},
{
  "type": "way",
  "id": 129016265,
  "nodes": [
    1424301694,
    1424301693,
    1424301682,
    1424301683,
    1424301694
  ],
  "tags": {
    "addr:city": "Dischingen",
    "addr:housenumber": "5",
    "addr:postcode": "89561",
    "addr:street": "Hauptstraße",
    "building": "yes",
    "name": "Heimatmuseum",
    "tourism": "museum"
  }
},
{
  "type": "way",
  "id": 138817666,
  "nodes": [
    1522200428,
    1522200397,
    1522200424,
    3564393398,
    3564393397,
    1522200368,
    3564393395,
    3564393396,
    1522200381,
    1522200452,
    1522200428
  ],
  "tags": {
    "addr:city": "Diedorf",
    "addr:country": "DE",
    "addr:housenumber": "1",
    "addr:postcode": "86420",
    "addr:street": "Lindenstraße",
    "building": "yes",
    "name": "Maskenmuseum Diedorf",
    "opening_hours": "\"Nach Vereinbarung\"",
    "operator": "Stoehr",
    "phone": "+49(0)8238-60245",
    "source": "http://www.maskenmuseum.de/az.html",
    "tourism": "museum",
    "website": "https://www.maskenmuseum.de/"
  }
},
{
  "type": "way",
  "id": 151223698,
  "nodes": [
    1640442832,
    1640442834,
    1640442826,
    1640442824,
    1640442832
  ],
  "tags": {
    "addr:city": "Ichenhausen",
    "addr:housenumber": "22",
    "addr:postcode": "89335",
    "addr:street": "Vordere Ostergasse",
    "building": "yes",
    "building:levels": "3",
    "name": "ehemalige Synagoge",
    "tourism": "museum",
    "wikidata": "Q2375113",
    "wikipedia": "de:Synagoge (Ichenhausen)"
  }
},
{
  "type": "way",
  "id": 181652029,
  "nodes": [
    1920640983,
    1920640981,
    5126990912,
    5126992721,
    1920640973,
    4977177937,
    4977177936,
    1920640978,
    1920640976,
    4977177938,
    1920640971,
    1920640983
  ],
  "tags": {
    "addr:city": "Bächingen an der Brenz",
    "addr:housenumber": "7",
    "addr:postcode": "89431",
    "addr:street": "Schloßstraße",
    "building": "yes",
    "name": "mooseum",
    "tourism": "museum",
    "website": "https://www.mooseum.net/"
  }
},
{
  "type": "way",
  "id": 182875504,
  "nodes": [
    1932344204,
    1932344207,
    1932344209,
    1932344208,
    1932344205,
    4394989693,
    1932344206,
    1932344204
  ],
  "tags": {
    "email": "info@walthercollection.com",
    "name": "Walther Collection",
    "opening_hours": "Fr 17:00-18:00; Sa-Su 15:00-16:00; PH off",
    "operator": "Walther Family Foundation",
    "phone": "+49 731 1769143",
    "tourism": "museum",
    "website": "http://walthercollection.com/",
    "wheelchair": "no",
    "wikidata": "Q2415036",
    "wikipedia": "de:The Walther Collection"
  }
},
{
  "type": "way",
  "id": 191612969,
  "nodes": [
    2021953941,
    2021953938,
    3645679747,
    2021953937,
    2021953940,
    2021953941
  ],
  "tags": {
    "addr:city": "Hürben",
    "addr:housenumber": "62",
    "addr:postcode": "89537",
    "addr:street": "Lonetalstraße",
    "building": "yes",
    "name": "Höhlenschauland",
    "opening_hours": "Apr-Oct 10:00-18:00",
    "tourism": "museum",
    "wheelchair": "yes"
  }
},
{
  "type": "way",
  "id": 228550019,
  "nodes": [
    2372217971,
    3155143340,
    2372217980,
    2372217963,
    2372217946,
    2372217971
  ],
  "tags": {
    "addr:city": "Königsbronn",
    "addr:housenumber": "3",
    "addr:postcode": "89551",
    "addr:street": "Herwartstraße",
    "building": "yes",
    "name": "Georg-Elser-Gedenkstätte",
    "opening_hours": "Su,PH 11:00-17:00",
    "tourism": "museum",
    "wheelchair": "no"
  }
},
{
  "type": "way",
  "id": 258694613,
  "nodes": [
    2640189027,
    2640189049,
    2640189029,
    2640189043,
    2640189027
  ],
  "tags": {
    "building": "yes",
    "name": "Museum Deutscher Fayencen",
    "start_date": "2013",
    "tourism": "museum"
  }
},
{
  "type": "way",
  "id": 263141718,
  "nodes": [
    2687662431,
    2687676189,
    2687662433,
    2687662435,
    2687662438,
    2687662441,
    2687662445,
    2687676186,
    2687662447,
    2687662407,
    2687676179,
    2687662409,
    2687676154,
    2687662422,
    2687676158,
    2687662424,
    2691239913,
    2687676163,
    2687662427,
    2687676165,
    5211889622,
    2687662429,
    2687662411,
    2687676171,
    3631514138,
    2687662415,
    2687676169,
    2687662418,
    7015091314,
    2687676174,
    7015091313,
    7015091312,
    2687662420,
    7015091311,
    7015091310,
    7015091309,
    2687676177,
    2687662431
  ],
  "tags": {
    "addr:city": "Niederstotzingen",
    "addr:housenumber": "1",
    "addr:postcode": "89168",
    "addr:street": "Am Vogelherd",
    "architect": "Ritter Jockisch",
    "architect:landscape": "Keller Damm Kollegen",
    "building": "yes",
    "information": "office",
    "name": "Infozentrum Archäopark Vogelherd",
    "phone": "+49 7325 952 8000",
    "source": "knowledge",
    "start_date": "2013",
    "tourism": "museum",
    "website": "http://www.archaeopark-vogelherd.de"
  }
},
{
  "type": "way",
  "id": 294137436,
  "nodes": [
    2977074773,
    2977074772,
    2977074783,
    2977074784,
    2977074788,
    2977074787,
    2977074795,
    2977074796,
    2977074790,
    2977074791,
    2977074778,
    2977074777,
    2977074762,
    2977074761,
    2977074773
  ],
  "tags": {
    "building": "yes",
    "name": "Kicklinger Mühle",
    "tourism": "museum"
  }
},
{
  "type": "way",
  "id": 310774192,
  "nodes": [
    3162599519,
    3162599484,
    3162599550,
    3162599557,
    3162599482,
    3162599541,
    3162599559,
    3162599519
  ],
  "tags": {
    "addr:city": "Leipheim",
    "addr:housenumber": "1",
    "addr:postcode": "89340",
    "addr:street": "Stadtberg",
    "building": "yes",
    "name": "Blaue Ente Heimatmuseum",
    "tourism": "museum",
    "wikidata": "Q22691997",
    "wikipedia": "de:Gasthaus Blaue Ente (Leipheim)"
  }
},
{
  "type": "way",
  "id": 321905803,
  "nodes": [
    3286777621,
    3286777590,
    3286777599,
    3286777611,
    3286777620,
    3286777617,
    3286777592,
    3286777600,
    3286777616,
    3286777604,
    3286793892,
    3286777621
  ],
  "tags": {
    "building": "yes",
    "name": "Alter Flammofen",
    "tourism": "museum"
  }
},
{
  "type": "way",
  "id": 384386679,
  "nodes": [
    3876873543,
    3876873540,
    3876873531,
    3876873542,
    3876873547,
    3876873543
  ],
  "tags": {
    "barrier": "fence",
    "name": "Straßenbahnmuseum Blindheim",
    "opening_hours": "off",
    "operator": "Verein Münchner Trambahngesellschaft (MTG)",
    "tourism": "museum"
  }
},
{
  "type": "way",
  "id": 520258644,
  "nodes": [
    5071160797,
    5071160798,
    6111055964,
    6111055965,
    5071160799,
    5071160800,
    5071160797
  ],
  "tags": {
    "addr:city": "Neresheim",
    "addr:postcode": "73450",
    "name": "Fliegendes Museum",
    "proposed:building": "hangar",
    "tourism": "museum"
  }
},
{
  "type": "way",
  "id": 530368091,
  "nodes": [
    5150260963,
    5150260966,
    5150260962,
    5150260961,
    5150260957,
    5150260960,
    5150260963
  ],
  "tags": {
    "addr:city": "Steinheim am Albuch",
    "addr:housenumber": "5",
    "addr:postcode": "89555",
    "addr:street": "Hochfeldweg",
    "addr:suburb": "Sontheim im Stubental",
    "building": "yes",
    "name": "Meteorkratermuseum",
    "tourism": "museum",
    "website": "https://www.geopark-alb.de/de/?we_objectID=89",
    "wheelchair": "yes",
    "wikidata": "Q1700293",
    "wikipedia": "de:Meteorkratermuseum"
  }
},
{
  "type": "way",
  "id": 704113432,
  "nodes": [
    6611355737,
    6611355738,
    6611355739,
    6611355740,
    6611355737
  ],
  "tags": {
    "building": "yes",
    "inscription": "BEIM YCHBRUNNEN (EICHBRUNNEN)",
    "name": "Älteste Faßanstalt in Bayern",
    "operator": "Kulturmarkt Lauingen e.V.",
    "tourism": "museum"
  }
},
{
  "type": "relation",
  "id": 5009021,
  "members": [
    {
      "type": "way",
      "ref": 343661540,
      "role": "outer"
    },
    {
      "type": "way",
      "ref": 122553785,
      "role": "outer"
    }
  ],
  "tags": {
    "addr:city": "Giengen an der Brenz",
    "addr:country": "DE",
    "addr:housenumber": "1",
    "addr:postcode": "89537",
    "addr:street": "Margarete Steiff-Platz",
    "alt_name": "Die Welt von Steiff",
    "building": "yes",
    "dogs": "no",
    "fee": "yes",
    "name": "Steiff Museum",
    "opening_hours": "Mo-Su,PH 10:00-18:00; Dec 24,Dec 31 10:00-13:00; Jan 1,Dec 25,Dec 26 off",
    "phone": "+491805 131-101",
    "smoking": "no",
    "toilets:wheelchair": "yes",
    "tourism": "museum",
    "type": "multipolygon",
    "website": "http://www.steiff.com/site/de/das-museum/",
    "wheelchair": "yes",
    "wikidata": "Q2339190",
    "wikipedia": "de:Steiff Museum"
  }
},
{
  "type": "node",
  "id": 828732076,
  "lat": 48.3934979,
  "lon": 9.9990386
},
{
  "type": "node",
  "id": 1281816690,
  "lat": 48.3935342,
  "lon": 9.9991382
},
{
  "type": "node",
  "id": 1281816693,
  "lat": 48.3935734,
  "lon": 9.9988847
},
{
  "type": "node",
  "id": 1281816699,
  "lat": 48.3936453,
  "lon": 9.9993172
},
{
  "type": "node",
  "id": 1281816707,
  "lat": 48.3936720,
  "lon": 9.9992796
},
{
  "type": "node",
  "id": 1281816742,
  "lat": 48.3934822,
  "lon": 9.9992115
},
{
  "type": "node",
  "id": 1281816807,
  "lat": 48.3937238,
  "lon": 9.9993631
},
{
  "type": "node",
  "id": 1281816813,
  "lat": 48.3934948,
  "lon": 9.9989954
},
{
  "type": "node",
  "id": 1281816816,
  "lat": 48.3935105,
  "lon": 9.9990208
},
{
  "type": "node",
  "id": 1281816825,
  "lat": 48.3934192,
  "lon": 9.9991101
},
{
  "type": "node",
  "id": 1309244015,
  "lat": 48.3938020,
  "lon": 9.9992530
},
{
  "type": "node",
  "id": 2973878889,
  "lat": 48.3934731,
  "lon": 9.9990342
},
{
  "type": "node",
  "id": 2973878890,
  "lat": 48.3934861,
  "lon": 9.9990551
},
{
  "type": "node",
  "id": 1932344204,
  "lat": 48.4135787,
  "lon": 10.0648645
},
{
  "type": "node",
  "id": 1932344205,
  "lat": 48.4135876,
  "lon": 10.0645454
},
{
  "type": "node",
  "id": 1932344206,
  "lat": 48.4136621,
  "lon": 10.0647461
},
{
  "type": "node",
  "id": 1932344207,
  "lat": 48.4138106,
  "lon": 10.0652927
},
{
  "type": "node",
  "id": 1932344208,
  "lat": 48.4138509,
  "lon": 10.0642285
},
{
  "type": "node",
  "id": 1932344209,
  "lat": 48.4141021,
  "lon": 10.0649299
},
{
  "type": "node",
  "id": 4394989693,
  "lat": 48.4135830,
  "lon": 10.0646113
},
{
  "type": "node",
  "id": 302341416,
  "lat": 48.3463890,
  "lon": 10.1316005
},
{
  "type": "node",
  "id": 302341420,
  "lat": 48.3473872,
  "lon": 10.1311542
},
{
  "type": "node",
  "id": 302341417,
  "lat": 48.3468453,
  "lon": 10.1327678
},
{
  "type": "node",
  "id": 302341419,
  "lat": 48.3477808,
  "lon": 10.1322185
},
{
  "type": "node",
  "id": 3162599482,
  "lat": 48.4496347,
  "lon": 10.2192956
},
{
  "type": "node",
  "id": 3162599484,
  "lat": 48.4497039,
  "lon": 10.2195453
},
{
  "type": "node",
  "id": 3162599519,
  "lat": 48.4497710,
  "lon": 10.2194675
},
{
  "type": "node",
  "id": 3162599541,
  "lat": 48.4496651,
  "lon": 10.2193551
},
{
  "type": "node",
  "id": 3162599550,
  "lat": 48.4496643,
  "lon": 10.2195912
},
{
  "type": "node",
  "id": 3162599557,
  "lat": 48.4495586,
  "lon": 10.2193839
},
{
  "type": "node",
  "id": 3162599559,
  "lat": 48.4496956,
  "lon": 10.2193197
},
{
  "type": "node",
  "id": 1640442824,
  "lat": 48.3706015,
  "lon": 10.3061302
},
{
  "type": "node",
  "id": 1640442826,
  "lat": 48.3706421,
  "lon": 10.3064245
},
{
  "type": "node",
  "id": 1640442832,
  "lat": 48.3707039,
  "lon": 10.3060982
},
{
  "type": "node",
  "id": 1640442834,
  "lat": 48.3707445,
  "lon": 10.3063925
},
{
  "type": "node",
  "id": 2687662407,
  "lat": 48.5579626,
  "lon": 10.1970677
},
{
  "type": "node",
  "id": 2687662409,
  "lat": 48.5579816,
  "lon": 10.1971231
},
{
  "type": "node",
  "id": 2687662411,
  "lat": 48.5577234,
  "lon": 10.1969639
},
{
  "type": "node",
  "id": 2687662415,
  "lat": 48.5576787,
  "lon": 10.1969146
},
{
  "type": "node",
  "id": 2687662418,
  "lat": 48.5576858,
  "lon": 10.1968303
},
{
  "type": "node",
  "id": 2687662420,
  "lat": 48.5577429,
  "lon": 10.1966362
},
{
  "type": "node",
  "id": 2687662422,
  "lat": 48.5579480,
  "lon": 10.1972062
},
{
  "type": "node",
  "id": 2687662424,
  "lat": 48.5578797,
  "lon": 10.1971902
},
{
  "type": "node",
  "id": 2687662427,
  "lat": 48.5578302,
  "lon": 10.1971125
},
{
  "type": "node",
  "id": 2687662429,
  "lat": 48.5577464,
  "lon": 10.1970113
},
{
  "type": "node",
  "id": 2687662431,
  "lat": 48.5577384,
  "lon": 10.1968751
},
{
  "type": "node",
  "id": 2687662433,
  "lat": 48.5577710,
  "lon": 10.1969205
},
{
  "type": "node",
  "id": 2687662435,
  "lat": 48.5577967,
  "lon": 10.1969708
},
{
  "type": "node",
  "id": 2687662438,
  "lat": 48.5578191,
  "lon": 10.1969997
},
{
  "type": "node",
  "id": 2687662441,
  "lat": 48.5578430,
  "lon": 10.1970234
},
{
  "type": "node",
  "id": 2687662445,
  "lat": 48.5578715,
  "lon": 10.1970438
},
{
  "type": "node",
  "id": 2687662447,
  "lat": 48.5579204,
  "lon": 10.1970652
},
{
  "type": "node",
  "id": 2687676154,
  "lat": 48.5579845,
  "lon": 10.1972066
},
{
  "type": "node",
  "id": 2687676158,
  "lat": 48.5579108,
  "lon": 10.1972020
},
{
  "type": "node",
  "id": 2687676163,
  "lat": 48.5578607,
  "lon": 10.1971323
},
{
  "type": "node",
  "id": 2687676165,
  "lat": 48.5577985,
  "lon": 10.1970813
},
{
  "type": "node",
  "id": 2687676169,
  "lat": 48.5577018,
  "lon": 10.1968982
},
{
  "type": "node",
  "id": 2687676171,
  "lat": 48.5577027,
  "lon": 10.1969874
},
{
  "type": "node",
  "id": 2687676174,
  "lat": 48.5576783,
  "lon": 10.1967098
},
{
  "type": "node",
  "id": 2687676177,
  "lat": 48.5577509,
  "lon": 10.1968655
},
{
  "type": "node",
  "id": 2687676179,
  "lat": 48.5579618,
  "lon": 10.1971221
},
{
  "type": "node",
  "id": 2687676186,
  "lat": 48.5578972,
  "lon": 10.1970569
},
{
  "type": "node",
  "id": 2687676189,
  "lat": 48.5577601,
  "lon": 10.1969336
},
{
  "type": "node",
  "id": 2691239913,
  "lat": 48.5578505,
  "lon": 10.1971751
},
{
  "type": "node",
  "id": 3631514138,
  "lat": 48.5576913,
  "lon": 10.1969533
},
{
  "type": "node",
  "id": 5211889622,
  "lat": 48.5577725,
  "lon": 10.1970499
},
{
  "type": "node",
  "id": 7015091309,
  "lat": 48.5577405,
  "lon": 10.1968098
},
{
  "type": "node",
  "id": 7015091310,
  "lat": 48.5577348,
  "lon": 10.1967515
},
{
  "type": "node",
  "id": 7015091311,
  "lat": 48.5577361,
  "lon": 10.1966972
},
{
  "type": "node",
  "id": 7015091312,
  "lat": 48.5576882,
  "lon": 10.1966134
},
{
  "type": "node",
  "id": 7015091313,
  "lat": 48.5576833,
  "lon": 10.1966603
},
{
  "type": "node",
  "id": 7015091314,
  "lat": 48.5576806,
  "lon": 10.1967656
},
{
  "type": "node",
  "id": 2021953937,
  "lat": 48.5847808,
  "lon": 10.2073309
},
{
  "type": "node",
  "id": 2021953938,
  "lat": 48.5848532,
  "lon": 10.2075271
},
{
  "type": "node",
  "id": 2021953940,
  "lat": 48.5850112,
  "lon": 10.2071367
},
{
  "type": "node",
  "id": 2021953941,
  "lat": 48.5850835,
  "lon": 10.2073329
},
{
  "type": "node",
  "id": 3645679747,
  "lat": 48.5848284,
  "lon": 10.2074601
},
{
  "type": "node",
  "id": 1369156556,
  "lat": 48.6210635,
  "lon": 10.2414935
},
{
  "type": "node",
  "id": 1369156558,
  "lat": 48.6210575,
  "lon": 10.2413957
},
{
  "type": "node",
  "id": 1369156562,
  "lat": 48.6216745,
  "lon": 10.2412873
},
{
  "type": "node",
  "id": 2575049091,
  "lat": 48.6212920,
  "lon": 10.2415354
},
{
  "type": "node",
  "id": 2575049092,
  "lat": 48.6212380,
  "lon": 10.2416592
},
{
  "type": "node",
  "id": 2575049095,
  "lat": 48.6212762,
  "lon": 10.2418473
},
{
  "type": "node",
  "id": 2575049098,
  "lat": 48.6214703,
  "lon": 10.2414921
},
{
  "type": "node",
  "id": 2575049099,
  "lat": 48.6216780,
  "lon": 10.2414027
},
{
  "type": "node",
  "id": 2614894231,
  "lat": 48.6215355,
  "lon": 10.2416501
},
{
  "type": "node",
  "id": 2614894232,
  "lat": 48.6215069,
  "lon": 10.2417951
},
{
  "type": "node",
  "id": 2614894233,
  "lat": 48.6214489,
  "lon": 10.2418669
},
{
  "type": "node",
  "id": 2614894234,
  "lat": 48.6213808,
  "lon": 10.2418938
},
{
  "type": "node",
  "id": 3476804994,
  "lat": 48.6215185,
  "lon": 10.2415616
},
{
  "type": "node",
  "id": 3504680494,
  "lat": 48.6212534,
  "lon": 10.2418004
},
{
  "type": "node",
  "id": 3504680495,
  "lat": 48.6212357,
  "lon": 10.2417302
},
{
  "type": "node",
  "id": 3709107379,
  "lat": 48.6212471,
  "lon": 10.2416123
},
{
  "type": "node",
  "id": 3709107382,
  "lat": 48.6212643,
  "lon": 10.2415726
},
{
  "type": "node",
  "id": 3709107385,
  "lat": 48.6212879,
  "lon": 10.2414602
},
{
  "type": "node",
  "id": 3709107388,
  "lat": 48.6213117,
  "lon": 10.2418781
},
{
  "type": "node",
  "id": 3709107391,
  "lat": 48.6213472,
  "lon": 10.2418938
},
{
  "type": "node",
  "id": 3709107394,
  "lat": 48.6214182,
  "lon": 10.2418859
},
{
  "type": "node",
  "id": 3709107399,
  "lat": 48.6214682,
  "lon": 10.2414383
},
{
  "type": "node",
  "id": 3709107400,
  "lat": 48.6214778,
  "lon": 10.2418388
},
{
  "type": "node",
  "id": 3709107404,
  "lat": 48.6215017,
  "lon": 10.2415301
},
{
  "type": "node",
  "id": 3709107408,
  "lat": 48.6215246,
  "lon": 10.2417538
},
{
  "type": "node",
  "id": 3709107410,
  "lat": 48.6215289,
  "lon": 10.2415980
},
{
  "type": "node",
  "id": 3709107412,
  "lat": 48.6215332,
  "lon": 10.2417053
},
{
  "type": "node",
  "id": 3709121559,
  "lat": 48.6212908,
  "lon": 10.2414995
},
{
  "type": "node",
  "id": 3709121560,
  "lat": 48.6214690,
  "lon": 10.2414708
},
{
  "type": "node",
  "id": 1920640971,
  "lat": 48.5478255,
  "lon": 10.3140317
},
{
  "type": "node",
  "id": 1920640973,
  "lat": 48.5479190,
  "lon": 10.3138614
},
{
  "type": "node",
  "id": 1920640976,
  "lat": 48.5476213,
  "lon": 10.3140370
},
{
  "type": "node",
  "id": 1920640978,
  "lat": 48.5476198,
  "lon": 10.3138975
},
{
  "type": "node",
  "id": 1920640981,
  "lat": 48.5479241,
  "lon": 10.3141229
},
{
  "type": "node",
  "id": 1920640983,
  "lat": 48.5478258,
  "lon": 10.3141274
},
{
  "type": "node",
  "id": 4977177936,
  "lat": 48.5478239,
  "lon": 10.3138927
},
{
  "type": "node",
  "id": 4977177937,
  "lat": 48.5478236,
  "lon": 10.3138637
},
{
  "type": "node",
  "id": 4977177938,
  "lat": 48.5477649,
  "lon": 10.3140336
},
{
  "type": "node",
  "id": 5126990912,
  "lat": 48.5479202,
  "lon": 10.3139797
},
{
  "type": "node",
  "id": 5126992721,
  "lat": 48.5479199,
  "lon": 10.3139434
},
{
  "type": "node",
  "id": 414053143,
  "lat": 48.5467432,
  "lon": 10.3529067
},
{
  "type": "node",
  "id": 414053144,
  "lat": 48.5471450,
  "lon": 10.3527410
},
{
  "type": "node",
  "id": 414053145,
  "lat": 48.5470995,
  "lon": 10.3524892
},
{
  "type": "node",
  "id": 414053146,
  "lat": 48.5466977,
  "lon": 10.3526549
},
{
  "type": "node",
  "id": 1420045237,
  "lat": 48.5005080,
  "lon": 10.4041925
},
{
  "type": "node",
  "id": 1420045310,
  "lat": 48.5006141,
  "lon": 10.4041271
},
{
  "type": "node",
  "id": 1420045756,
  "lat": 48.5005823,
  "lon": 10.4040096
},
{
  "type": "node",
  "id": 1420045891,
  "lat": 48.5004762,
  "lon": 10.4040750
},
{
  "type": "node",
  "id": 6611355737,
  "lat": 48.5682579,
  "lon": 10.4311464
},
{
  "type": "node",
  "id": 6611355738,
  "lat": 48.5682896,
  "lon": 10.4311788
},
{
  "type": "node",
  "id": 6611355739,
  "lat": 48.5682702,
  "lon": 10.4312221
},
{
  "type": "node",
  "id": 6611355740,
  "lat": 48.5682385,
  "lon": 10.4311897
},
{
  "type": "node",
  "id": 748154018,
  "lat": 48.3127823,
  "lon": 10.7273104
},
{
  "type": "node",
  "id": 748154053,
  "lat": 48.3126558,
  "lon": 10.7282011
},
{
  "type": "node",
  "id": 748154069,
  "lat": 48.3128208,
  "lon": 10.7282244
},
{
  "type": "node",
  "id": 748154111,
  "lat": 48.3131356,
  "lon": 10.7277093
},
{
  "type": "node",
  "id": 748154121,
  "lat": 48.3129418,
  "lon": 10.7277105
},
{
  "type": "node",
  "id": 748154156,
  "lat": 48.3127120,
  "lon": 10.7274511
},
{
  "type": "node",
  "id": 748154210,
  "lat": 48.3130653,
  "lon": 10.7278500
},
{
  "type": "node",
  "id": 748763265,
  "lat": 48.3119764,
  "lon": 10.7278524
},
{
  "type": "node",
  "id": 748763269,
  "lat": 48.3119325,
  "lon": 10.7279610
},
{
  "type": "node",
  "id": 748763287,
  "lat": 48.3122984,
  "lon": 10.7281768
},
{
  "type": "node",
  "id": 1065087526,
  "lat": 48.3123128,
  "lon": 10.7282160
},
{
  "type": "node",
  "id": 1065087567,
  "lat": 48.3126357,
  "lon": 10.7273006
},
{
  "type": "node",
  "id": 1065087590,
  "lat": 48.3124282,
  "lon": 10.7270983
},
{
  "type": "node",
  "id": 1065087614,
  "lat": 48.3123684,
  "lon": 10.7272370
},
{
  "type": "node",
  "id": 1065087645,
  "lat": 48.3125759,
  "lon": 10.7274394
},
{
  "type": "node",
  "id": 1065087649,
  "lat": 48.3122920,
  "lon": 10.7281963
},
{
  "type": "node",
  "id": 748154122,
  "lat": 48.3126445,
  "lon": 10.7283629
},
{
  "type": "node",
  "id": 748154138,
  "lat": 48.3129655,
  "lon": 10.7282450
},
{
  "type": "node",
  "id": 748763266,
  "lat": 48.3122407,
  "lon": 10.7294630
},
{
  "type": "node",
  "id": 748763288,
  "lat": 48.3121808,
  "lon": 10.7292929
},
{
  "type": "node",
  "id": 748763291,
  "lat": 48.3122541,
  "lon": 10.7282901
},
{
  "type": "node",
  "id": 748763308,
  "lat": 48.3121004,
  "lon": 10.7293567
},
{
  "type": "node",
  "id": 748763313,
  "lat": 48.3121602,
  "lon": 10.7295268
},
{
  "type": "node",
  "id": 1065087516,
  "lat": 48.3122613,
  "lon": 10.7282723
},
{
  "type": "node",
  "id": 1065087589,
  "lat": 48.3122812,
  "lon": 10.7282912
},
{
  "type": "node",
  "id": 3767878361,
  "lat": 48.3129541,
  "lon": 10.7284068
},
{
  "type": "node",
  "id": 1522200368,
  "lat": 48.3539263,
  "lon": 10.7775034
},
{
  "type": "node",
  "id": 1522200381,
  "lat": 48.3539628,
  "lon": 10.7772961
},
{
  "type": "node",
  "id": 1522200397,
  "lat": 48.3540554,
  "lon": 10.7776145
},
{
  "type": "node",
  "id": 1522200424,
  "lat": 48.3540722,
  "lon": 10.7774604
},
{
  "type": "node",
  "id": 1522200428,
  "lat": 48.3541255,
  "lon": 10.7776318
},
{
  "type": "node",
  "id": 1522200452,
  "lat": 48.3541569,
  "lon": 10.7773440
},
{
  "type": "node",
  "id": 3564393395,
  "lat": 48.3539379,
  "lon": 10.7773972
},
{
  "type": "node",
  "id": 3564393396,
  "lat": 48.3539514,
  "lon": 10.7774005
},
{
  "type": "node",
  "id": 3564393397,
  "lat": 48.3539714,
  "lon": 10.7775145
},
{
  "type": "node",
  "id": 3564393398,
  "lat": 48.3539798,
  "lon": 10.7774376
},
{
  "type": "node",
  "id": 2977074761,
  "lat": 48.5736497,
  "lon": 10.5787218
},
{
  "type": "node",
  "id": 2977074762,
  "lat": 48.5736541,
  "lon": 10.5789503
},
{
  "type": "node",
  "id": 2977074772,
  "lat": 48.5737477,
  "lon": 10.5786533
},
{
  "type": "node",
  "id": 2977074773,
  "lat": 48.5737489,
  "lon": 10.5787174
},
{
  "type": "node",
  "id": 2977074777,
  "lat": 48.5738258,
  "lon": 10.5789428
},
{
  "type": "node",
  "id": 2977074778,
  "lat": 48.5738329,
  "lon": 10.5793112
},
{
  "type": "node",
  "id": 2977074783,
  "lat": 48.5738889,
  "lon": 10.5786471
},
{
  "type": "node",
  "id": 2977074784,
  "lat": 48.5738909,
  "lon": 10.5787510
},
{
  "type": "node",
  "id": 2977074787,
  "lat": 48.5739037,
  "lon": 10.5787026
},
{
  "type": "node",
  "id": 2977074788,
  "lat": 48.5739046,
  "lon": 10.5787504
},
{
  "type": "node",
  "id": 2977074790,
  "lat": 48.5739321,
  "lon": 10.5790008
},
{
  "type": "node",
  "id": 2977074791,
  "lat": 48.5739380,
  "lon": 10.5793066
},
{
  "type": "node",
  "id": 2977074795,
  "lat": 48.5739741,
  "lon": 10.5786995
},
{
  "type": "node",
  "id": 2977074796,
  "lat": 48.5739798,
  "lon": 10.5789987
},
{
  "type": "node",
  "id": 2640189027,
  "lat": 48.6106454,
  "lon": 10.5727246
},
{
  "type": "node",
  "id": 2640189029,
  "lat": 48.6107110,
  "lon": 10.5729649
},
{
  "type": "node",
  "id": 2640189043,
  "lat": 48.6106456,
  "lon": 10.5729650
},
{
  "type": "node",
  "id": 2640189049,
  "lat": 48.6107091,
  "lon": 10.5727271
},
{
  "type": "node",
  "id": 3876873531,
  "lat": 48.6438399,
  "lon": 10.6149517
},
{
  "type": "node",
  "id": 3876873540,
  "lat": 48.6444803,
  "lon": 10.6145413
},
{
  "type": "node",
  "id": 3876873542,
  "lat": 48.6445035,
  "lon": 10.6164066
},
{
  "type": "node",
  "id": 3876873543,
  "lat": 48.6445221,
  "lon": 10.6145662
},
{
  "type": "node",
  "id": 3876873547,
  "lat": 48.6449591,
  "lon": 10.6160983
},
{
  "type": "node",
  "id": 5150260957,
  "lat": 48.6775502,
  "lon": 10.0686686
},
{
  "type": "node",
  "id": 5150260960,
  "lat": 48.6776542,
  "lon": 10.0686850
},
{
  "type": "node",
  "id": 5150260961,
  "lat": 48.6774063,
  "lon": 10.0686476
},
{
  "type": "node",
  "id": 5150260962,
  "lat": 48.6773968,
  "lon": 10.0687967
},
{
  "type": "node",
  "id": 5150260963,
  "lat": 48.6776425,
  "lon": 10.0688408
},
{
  "type": "node",
  "id": 5150260966,
  "lat": 48.6775811,
  "lon": 10.0688298
},
{
  "type": "node",
  "id": 271778349,
  "lat": 48.6753672,
  "lon": 10.1495226
},
{
  "type": "node",
  "id": 271778359,
  "lat": 48.6755096,
  "lon": 10.1495271
},
{
  "type": "node",
  "id": 271778363,
  "lat": 48.6755042,
  "lon": 10.1499155
},
{
  "type": "node",
  "id": 276064664,
  "lat": 48.6753618,
  "lon": 10.1499109
},
{
  "type": "node",
  "id": 2372217946,
  "lat": 48.7376596,
  "lon": 10.1139932
},
{
  "type": "node",
  "id": 2372217963,
  "lat": 48.7377737,
  "lon": 10.1141117
},
{
  "type": "node",
  "id": 2372217971,
  "lat": 48.7377194,
  "lon": 10.1138610
},
{
  "type": "node",
  "id": 2372217980,
  "lat": 48.7378335,
  "lon": 10.1139795
},
{
  "type": "node",
  "id": 3155143340,
  "lat": 48.7377799,
  "lon": 10.1139239
},
{
  "type": "node",
  "id": 3286777590,
  "lat": 48.7415852,
  "lon": 10.1176912
},
{
  "type": "node",
  "id": 3286777592,
  "lat": 48.7417712,
  "lon": 10.1176858
},
{
  "type": "node",
  "id": 3286777599,
  "lat": 48.7415521,
  "lon": 10.1176322
},
{
  "type": "node",
  "id": 3286777600,
  "lat": 48.7417086,
  "lon": 10.1177667
},
{
  "type": "node",
  "id": 3286777604,
  "lat": 48.7416743,
  "lon": 10.1179175
},
{
  "type": "node",
  "id": 3286777611,
  "lat": 48.7416389,
  "lon": 10.1175200
},
{
  "type": "node",
  "id": 3286777616,
  "lat": 48.7417433,
  "lon": 10.1178284
},
{
  "type": "node",
  "id": 3286777617,
  "lat": 48.7417038,
  "lon": 10.1175658
},
{
  "type": "node",
  "id": 3286777620,
  "lat": 48.7416811,
  "lon": 10.1175951
},
{
  "type": "node",
  "id": 3286777621,
  "lat": 48.7415632,
  "lon": 10.1177197
},
{
  "type": "node",
  "id": 3286793892,
  "lat": 48.7415773,
  "lon": 10.1177448
},
{
  "type": "node",
  "id": 616729380,
  "lat": 48.6999564,
  "lon": 10.2419605
},
{
  "type": "node",
  "id": 616729430,
  "lat": 48.6999127,
  "lon": 10.2421052
},
{
  "type": "node",
  "id": 616729431,
  "lat": 48.7000813,
  "lon": 10.2422222
},
{
  "type": "node",
  "id": 616729432,
  "lat": 48.7001250,
  "lon": 10.2420774
},
{
  "type": "node",
  "id": 5071160797,
  "lat": 48.7803294,
  "lon": 10.2661442
},
{
  "type": "node",
  "id": 5071160798,
  "lat": 48.7797384,
  "lon": 10.2661516
},
{
  "type": "node",
  "id": 5071160799,
  "lat": 48.7798783,
  "lon": 10.2673996
},
{
  "type": "node",
  "id": 5071160800,
  "lat": 48.7803362,
  "lon": 10.2673939
},
{
  "type": "node",
  "id": 6111055964,
  "lat": 48.7797404,
  "lon": 10.2665321
},
{
  "type": "node",
  "id": 6111055965,
  "lat": 48.7798736,
  "lon": 10.2665304
},
{
  "type": "node",
  "id": 1424301682,
  "lat": 48.6963204,
  "lon": 10.3631370
},
{
  "type": "node",
  "id": 1424301683,
  "lat": 48.6963421,
  "lon": 10.3630105
},
{
  "type": "node",
  "id": 1424301693,
  "lat": 48.6965129,
  "lon": 10.3632131
},
{
  "type": "node",
  "id": 1424301694,
  "lat": 48.6965347,
  "lon": 10.3630866
},
{
  "type": "node",
  "id": 1280485440,
  "lat": 48.7536771,
  "lon": 10.3344795
},
{
  "type": "node",
  "id": 1280485472,
  "lat": 48.7538350,
  "lon": 10.3343924
},
{
  "type": "node",
  "id": 1280485549,
  "lat": 48.7537212,
  "lon": 10.3343200
},
{
  "type": "node",
  "id": 1280485839,
  "lat": 48.7537909,
  "lon": 10.3345520
},
{
  "type": "way",
  "id": 122553785,
  "nodes": [
    2575049091,
    3709107382,
    3709107379,
    2575049092,
    3504680495,
    3504680494,
    2575049095,
    3709107388,
    3709107391,
    2614894234,
    3709107394,
    2614894233,
    3709107400,
    2614894232,
    3709107408,
    3709107412,
    2614894231,
    3709107410,
    3476804994,
    3709107404,
    2575049098
  ]
},
{
  "type": "way",
  "id": 343661540,
  "nodes": [
    2575049098,
    3709121560,
    3709107399,
    2575049099,
    1369156562,
    1369156558,
    1369156556,
    3709107385,
    3709121559,
    2575049091
  ]
}

  ]
}
