{
  "version": 0.6,
  "generator": "Overpass API 0.7.55.1011 6c2efc30",
  "osm3s": {
    "timestamp_osm_base": "2020-02-14T17:02:02Z",
    "copyright": "The data included in this document is from www.openstreetmap.org. The data is made available under ODbL."
  },
  "elements": [

{
  "type": "node",
  "id": 1911301392,
  "lat": 49.5405028,
  "lon": 24.0755795,
  "tags": {
    "name": "Етнографічний музей",
    "tourism": "museum"
  }
},
{
  "type": "node",
  "id": 2168953263,
  "lat": 49.8477485,
  "lon": 24.0155463,
  "tags": {
    "addr:housenumber": "18",
    "addr:street": "Клепарівська вулиця",
    "name": "Музей пивоваріння",
    "name:be": "Музей броварства",
    "name:en": "Lviv Beer Museum",
    "name:pl": "Muzeum Piwa Lwów",
    "name:ru": "Львовский пивзавод",
    "name:uk": "Музей пивоваріння",
    "opening_hours": "We-Mo 10:30-18:00",
    "tourism": "museum",
    "website": "http://lvivarnya.com.ua/",
    "wikidata": "Q4306415",
    "wikipedia": "uk:Музей пивоваріння (Львів)"
  }
},
{
  "type": "node",
  "id": 2168953266,
  "lat": 49.8344815,
  "lon": 24.0186798,
  "tags": {
    "name": "Національний музей \"Тюрма на Лонцького\"",
    "name:en": "National Museum & Memorial to the Victims of Occupation",
    "name:ja": "国立虐殺記念館、博物館",
    "name:pl": "Muzeum Pamięci Narodowej „Więzienie przy Łąckiego” we Lwowie",
    "name:ru": "Национальный музей \"Тюрьма на Лонцкого\"",
    "name:tr": "Nazi Soviet muzesi",
    "opening_hours": "Mo-Sa 10:00-13:00, 14:00-19:00; Su 10:00-13:00, 14:00-17:00",
    "phone": "247 42 20",
    "tourism": "museum",
    "website": "http://www.lonckoho.lviv.ua",
    "wikidata": "Q4467697",
    "wikipedia": "uk:Тюрма на Лонцького"
  }
},
{
  "type": "node",
  "id": 2264110232,
  "lat": 49.7842728,
  "lon": 23.6463037,
  "tags": {
    "name": "Городоцький історико-краєзнавчий музей",
    "tourism": "museum"
  }
},
{
  "type": "node",
  "id": 2310900918,
  "lat": 49.8424170,
  "lon": 24.0324633,
  "tags": {
    "name": "Львівський історичний музей",
    "name:be": "Львоўскі гістарычны музей",
    "name:pl": "Muzeum Historyczne we Lwowie",
    "name:ru": "Львовский исторический музей",
    "tourism": "museum",
    "wikidata": "Q4271084",
    "wikipedia": "pl:Muzeum Historyczne we Lwowie"
  }
},
{
  "type": "node",
  "id": 2340884755,
  "lat": 49.8468668,
  "lon": 24.0306132,
  "tags": {
    "name": "Музей пам'яток стародавнього Львова",
    "name:ru": "Музей памятников древнего Львова",
    "tourism": "museum",
    "wikidata": "Q12130571",
    "wikipedia": "uk:Музей пам'яток стародавнього Львова"
  }
},
{
  "type": "node",
  "id": 3625914924,
  "lat": 49.8367577,
  "lon": 24.0198375,
  "tags": {
    "email": "muzejsk@ukr.net",
    "name": "Музично-меморіальний музей С. Крушельницької",
    "name:ru": "Музыкально-мемориальный музей С. Крушельницкой",
    "official_name": "Музично-меморіальний музей Соломії Крушельницької у м. Львові",
    "operator": "Управління культури Львівської облдержадміністрації",
    "phone": "(032) 261-04-76",
    "tourism": "museum",
    "wikidata": "Q12130696",
    "wikipedia": "uk:Музично-меморіальний музей Соломії Крушельницької"
  }
},
{
  "type": "node",
  "id": 3625922335,
  "lat": 49.8354288,
  "lon": 24.0300593,
  "tags": {
    "name": "Меморіальний музей-майстерня Теодозії Бриж",
    "name:ru": "Мемориальный музей-мастерская Теодозии Бриж",
    "phone": "(032) 261-31-14",
    "tourism": "museum"
  }
},
{
  "type": "node",
  "id": 3625947381,
  "lat": 49.8363323,
  "lon": 24.0340424,
  "tags": {
    "name": "Музей метрології та вимірювальної техніки",
    "phone": "(032) 261-61-71",
    "tourism": "museum"
  }
},
{
  "type": "node",
  "id": 3625962845,
  "lat": 49.8375399,
  "lon": 24.0153078,
  "tags": {
    "image": "http://lviv.travel/php_uploads/images/articleimages/ArticleImages_1438_d31fa1212e.jpg",
    "name": "Художньо-меморіальний музей Олекси Новаківського",
    "opening_hours": "Mo-Su 10:00-18:00; Fr off; Sa off",
    "phone": "+3803222610552",
    "start_date": "1972",
    "tourism": "museum",
    "website": "https://www.facebook.com/novakivsky.museum/",
    "wikidata": "Q12167978",
    "wikipedia": "uk:Художньо-меморіальний музей Олекси Новаківського"
  }
},
{
  "type": "node",
  "id": 3625966455,
  "lat": 49.8369161,
  "lon": 24.0154789,
  "tags": {
    "name": "Художньо-меморіальний музей-майстерня Леопольда Левицького",
    "tourism": "museum"
  }
},
{
  "type": "node",
  "id": 3862564193,
  "lat": 49.8336281,
  "lon": 23.9979745,
  "tags": {
    "name": "Музей історії Львівської залізниці",
    "name:be": "Музей гісторыі Львоўскай чыгункі",
    "name:ru": "Музей истории Львовской железной дороги",
    "opening_hours": "Mo-Fr 08:00-12:00,13:00-17:00",
    "tourism": "museum"
  }
},
{
  "type": "node",
  "id": 4259060790,
  "lat": 49.8339677,
  "lon": 24.0323084,
  "tags": {
    "name": "Мінералогічний музей",
    "operator": "ЛНУ",
    "tourism": "museum"
  }
},
{
  "type": "node",
  "id": 4266912968,
  "lat": 49.8422181,
  "lon": 24.0336914,
  "tags": {
    "name": "Друкарня-музей",
    "tourism": "museum"
  }
},
{
  "type": "node",
  "id": 4269777691,
  "lat": 49.8550753,
  "lon": 24.0285578,
  "tags": {
    "name": "Виставка мотоциклів",
    "opening_hours": "Mo-Su 10:00-19:00",
    "phone": "+38 (067) 33 23 703; +38 (063) 01 69 109",
    "tourism": "museum"
  }
},
{
  "type": "node",
  "id": 4502260289,
  "lat": 49.8378173,
  "lon": 24.0156601,
  "tags": {
    "image": "https://scontent-vie1-1.xx.fbcdn.net/t31.0-8/14102831_1111401135621976_1166043401173412188_o.jpg",
    "level": "3",
    "name": "Художньо-меморіальний музей Олени Кульчицької",
    "name:be": "Музей ім. А.Кульчыцкай",
    "name:ru": "Музей Е.Кульчицкой",
    "opening_hours": "Mo-Fr 10:00-18:00",
    "phone": "+38 (032) 261 07 06",
    "tourism": "museum",
    "website": "http://facebook.com/pages/художньо-меморіальний-музей-Олени-Кульчицької/141096795985753"
  }
},
{
  "type": "node",
  "id": 4706258341,
  "lat": 49.8338703,
  "lon": 24.0321573,
  "tags": {
    "name": "Зоологічний музей",
    "operator": "ЛНУ ім. Івана Франка",
    "tourism": "museum"
  }
},
{
  "type": "node",
  "id": 4706260448,
  "lat": 49.8340419,
  "lon": 24.0324110,
  "tags": {
    "name": "Геологічний музей",
    "operator": "ЛНУ ім. Івана Франка",
    "tourism": "museum"
  }
},
{
  "type": "node",
  "id": 4732363197,
  "lat": 49.8325202,
  "lon": 23.7780043,
  "tags": {
    "name": "Кімната-музей",
    "tourism": "museum"
  }
},
{
  "type": "node",
  "id": 4746764597,
  "lat": 49.8370473,
  "lon": 24.0253740,
  "tags": {
    "name": "Львівська національна галерея мистецтв",
    "name:en": "Lviv National Art Gallery",
    "name:es": "Galería de arte de Leópolis",
    "name:pl": "Lwowska Galeria Sztuki",
    "name:ru": "Львовская национальная галерея искусств",
    "name:uk": "Львівська національна галерея мистецтв",
    "official_name": "Львівська національна галерея мистецтв імені Бориса Возницького",
    "official_name:pl": "Lwowska Galeria Sztuki im. Borysa Woźnickiego",
    "official_name:uk": "Львівська національна галерея мистецтв імені Бориса Возницького",
    "old_name": "Льві́вська карти́нна галере́я",
    "old_name:es": "Galería de cuadros de Leópolis",
    "old_name:pl": "Lwowska Galeria Obrazów",
    "old_name:uk": "Льві́вська карти́нна галере́я",
    "tourism": "museum",
    "wikidata": "Q2391444",
    "wikipedia": "uk:Львівська національна галерея мистецтв імені Бориса Возницького"
  }
},
{
  "type": "node",
  "id": 4834218621,
  "lat": 49.8394818,
  "lon": 24.0332497,
  "tags": {
    "name:uk": "Інтерактивний музей \"Таємна аптека\"",
    "tourism": "museum"
  }
},
{
  "type": "node",
  "id": 4931671023,
  "lat": 49.8446059,
  "lon": 24.0660961,
  "tags": {
    "name": "Скансен народної архітектури і побуту імені Климентія Шептицького „Шевченківський гай“",
    "name:de": "Museum für Volksarchitektur und Landleben „Schewtschenko-Hain“",
    "name:en": "Skansen of Folk Architecture and Rural Life „Shevchenkivskyi Hai“",
    "name:ru": "Скансен народной архитектуры и быта им. Климентия Шептицкого „Шевченковский гай“",
    "name:uk": "Скансен народної архітектури і побуту імені Климентія Шептицького „Шевченківський гай“",
    "tourism": "museum"
  }
},
{
  "type": "node",
  "id": 5157890190,
  "lat": 49.9322317,
  "lon": 23.5656369,
  "tags": {
    "entrance": "main",
    "name": "Міський Новояворівський краєзнавчий музей",
    "operator": "Відділ культури і туризму Яворівської РДА",
    "tourism": "museum"
  }
},
{
  "type": "node",
  "id": 5158385521,
  "lat": 49.8407146,
  "lon": 24.0354978,
  "tags": {
    "name:en": "Insomnia Haunted House",
    "tourism": "museum"
  }
},
{
  "type": "node",
  "id": 5627132431,
  "lat": 49.8416097,
  "lon": 24.0313316,
  "tags": {
    "name": "Музей міста",
    "name:be": "Музей горада",
    "name:en": "City Museum",
    "name:ru": "Музей города",
    "name:uk": "Музей міста",
    "tourism": "museum"
  }
},
{
  "type": "node",
  "id": 5866505654,
  "lat": 49.8364843,
  "lon": 24.0295900,
  "tags": {
    "name": "Музей фотоілюзій",
    "tourism": "museum"
  }
},
{
  "type": "node",
  "id": 5996345746,
  "lat": 49.8442270,
  "lon": 23.9422117,
  "tags": {
    "alt_name": "Меморіальний музей Романа Шухевича",
    "name": "Музей Романа Шухевича",
    "official_name": "Музей генерал-хорунжого УПА Романа Шухевича",
    "operator": "Львівський історичний музей",
    "start_date": "2001",
    "tourism": "museum",
    "website": "http://www.lhm.lviv.ua/ekspozyciyi/muzey_shuhevycha.html",
    "wikidata": "Q12122576",
    "wikipedia:uk": "Меморіальний музей Романа Шухевича"
  }
},
{
  "type": "node",
  "id": 6067403892,
  "lat": 49.5229886,
  "lon": 23.9799326,
  "tags": {
    "addr:housenumber": "41",
    "addr:postcode": "81600",
    "addr:street": "Устияновича",
    "building:levels": "1",
    "name": "Музей Уляни Кравченко та Миколи Устияновича",
    "tourism": "museum"
  }
},
{
  "type": "node",
  "id": 6221119348,
  "lat": 49.8425933,
  "lon": 24.0323956,
  "tags": {
    "name": "Музей скла",
    "name:be": "Музей шкла",
    "tourism": "museum"
  }
},
{
  "type": "node",
  "id": 6246806988,
  "lat": 50.0556125,
  "lon": 23.9686987,
  "tags": {
    "name:en": "Museum",
    "name:pl": "Muzeum",
    "tourism": "museum"
  }
},
{
  "type": "node",
  "id": 6646647987,
  "lat": 49.8319493,
  "lon": 24.0182763,
  "tags": {
    "name": "Ретро Гараж",
    "name:en": "Retro cars garage",
    "opening_hours": "Th-Tu 10:00-17:00",
    "tourism": "museum"
  }
},
{
  "type": "node",
  "id": 7062969773,
  "lat": 49.8315287,
  "lon": 24.0182747,
  "tags": {
    "addr:housenumber": "57-А",
    "addr:street": "Дмитра Вітовського вулиця",
    "name": "Ретро Гараж",
    "phone": "+380 67 674 9206",
    "tourism": "museum"
  }
},
{
  "type": "node",
  "id": 7170652109,
  "lat": 49.8441494,
  "lon": 24.0680225,
  "tags": {
    "museum": "history",
    "name": "Виставка с/г реманенту",
    "name:en": "Exhibition of agricultural stock",
    "tourism": "museum"
  }
},
{
  "type": "way",
  "id": 40887654,
  "nodes": [
    497579594,
    497579605,
    497579631,
    497579627,
    1895142768,
    497579606,
    497579622,
    497579640,
    497579642,
    497579643,
    497579615,
    497579612,
    497579613,
    497579602,
    497579594
  ],
  "tags": {
    "addr:housename": "Палац Корнякта",
    "addr:housenumber": "6",
    "addr:street": "Ринок площа",
    "building": "yes",
    "building:levels": "4",
    "name": "Кам'яниця Корнякта",
    "name:be": "Камяніца Корнякта",
    "name:en": "Koriniakt Palace (The Royal Town House)",
    "name:pl": "Kamienica Królewska \"Mały Wawel\"",
    "name:ru": "Каменица Корнякта",
    "name:uk": "Кам'яниця Корнякта",
    "start_date": "1580",
    "tourism": "museum",
    "wikidata": "Q1982271",
    "wikipedia": "uk:Палац Корнякта"
  }
},
{
  "type": "way",
  "id": 40955749,
  "nodes": [
    498891089,
    498891090,
    498891091,
    498891093,
    498891105,
    498891099,
    498891089
  ],
  "tags": {
    "addr:housenumber": "2",
    "addr:postcode": "79008",
    "addr:street": "Друкарська вулиця",
    "building": "yes",
    "building:levels": "4",
    "name": "Аптека-музей \"Під чорним орлом\"",
    "name:be": "Музей Аптека",
    "name:en": "Pharmacy Museum",
    "name:fr": "musée de la pharmacie",
    "name:ja": "薬局博物館",
    "name:ru": "Аптека-музей",
    "name:tr": "Eski ilaçların sergilendiği müze",
    "opening_hours": "Mo-Su 10:00-18:00",
    "start_date": "1840",
    "tourism": "museum",
    "wikidata": "Q1989108",
    "wikipedia": "uk:Під чорним орлом"
  }
},
{
  "type": "way",
  "id": 40987616,
  "nodes": [
    499520562,
    499520567,
    499520569,
    499520571,
    499520572,
    1896426285,
    499520562
  ],
  "tags": {
    "addr:housename": "Львівський історичний музей",
    "addr:housenumber": "24",
    "addr:street": "Ринок площа",
    "building": "yes",
    "building:levels": "4",
    "name": "Львівський історичний музей",
    "name:ru": "Львовский исторический музей",
    "name:uk": "Львівський історичний музей",
    "start_date": "1400",
    "tourism": "museum",
    "wikidata": "Q4271084",
    "wikipedia": "uk:Львівський історичний музей"
  }
},
{
  "type": "way",
  "id": 41265856,
  "nodes": [
    504467113,
    1868504082,
    504467114,
    4837561441,
    3646224602,
    3646224604,
    504467188,
    3646224603,
    504467191,
    504467115,
    1852724456,
    3646229793,
    3646229794,
    504467113
  ],
  "tags": {
    "addr:housenumber": "5",
    "addr:postcode": "79008",
    "addr:street": "Підвальна вулиця",
    "building": "yes",
    "building:levels": "2",
    "name": "Арсенал, Львівський державний історичний музей старовинної зброї",
    "name:be": "Арсенал",
    "name:en": "Lviv Arsenal Museum",
    "name:ja": "兵器博物館",
    "name:pl": "Arsenał Miejski",
    "name:ru": "Городской арсенал",
    "name:uk": "Арсенал, Львівський державний історичний музей старовинної зброї",
    "start_date": "1555",
    "tourism": "museum",
    "wheelchair": "limited",
    "wikidata": "Q1967013",
    "wikipedia": "uk:Міський арсенал (Львів)"
  }
},
{
  "type": "way",
  "id": 60351849,
  "nodes": [
    750704753,
    750704759,
    750704763,
    750704817,
    750704753
  ],
  "tags": {
    "addr:housenumber": "150",
    "addr:street": "Івана Франка вулиця",
    "building": "yes",
    "building:levels": "2",
    "name": "Музей Івана Франка",
    "name:ru": "Львовский национальный литературно - мемориальный музей Ивана Франко",
    "name:uk": "Музей Івана Франка",
    "official_name": "Львівський національний літературно- меморіальний музей Івана Франка",
    "tourism": "museum"
  }
},
{
  "type": "way",
  "id": 151409890,
  "nodes": [
    1642319030,
    1642319014,
    1642319015,
    1642319021,
    1642319018,
    1642319017,
    1642319016,
    1642319028,
    1642319029,
    1642319025,
    1642319026,
    1642319031,
    1642319030
  ],
  "tags": {
    "addr:housenumber": "13",
    "addr:postcode": "79008",
    "addr:street": "Підвальна вулиця",
    "building": "yes",
    "building:levels": "2",
    "name": "Королівський арсенал",
    "name:be": "Каралеўскі арсенал",
    "name:pl": "Arsenał Królewski",
    "name:ru": "Королевский арсенал",
    "name:tr": "On3mli katedral",
    "name:uk": "Королівський арсенал",
    "source": "Bing",
    "start_date": "1639",
    "tourism": "museum",
    "wheelchair": "no",
    "wikidata": "Q4233747",
    "wikipedia": "uk:Королівський арсенал"
  }
},
{
  "type": "way",
  "id": 155134305,
  "nodes": [
    1675642028,
    1675642045,
    1675642047,
    1675642031,
    1675642028
  ],
  "tags": {
    "addr:housenumber": "42",
    "addr:postcode": "79005",
    "addr:street": "Михайла Драгоманова вулиця",
    "building": "yes",
    "building:levels": "2",
    "name": "Національний музей",
    "name:de": "Nationalmuseum",
    "name:en": "National Museum",
    "name:ru": "Национальный музей",
    "name:uk": "Національний музей",
    "opening_hours": "We-Su 10:00-18:00",
    "start_date": "1897",
    "tourism": "museum"
  }
},
{
  "type": "way",
  "id": 163696211,
  "nodes": [
    1753761806,
    1753761819,
    1753761812,
    1753761803,
    1753761806
  ],
  "tags": {
    "addr:housenumber": "3",
    "addr:postcode": "79010",
    "addr:street": "Устима Кармалюка вулиця",
    "building": "yes",
    "building:levels": "2",
    "name": "Музей історії медицини Галичини",
    "name:ru": "Музей истории медицины Галичины",
    "phone": "(032) 276-97-98",
    "start_date": "1925",
    "tourism": "museum"
  }
},
{
  "type": "way",
  "id": 164446921,
  "nodes": [
    1760847063,
    1760847064,
    1760847041,
    1760847033,
    1760847062,
    1760847060,
    1760847027,
    1760847029,
    1760847063
  ],
  "tags": {
    "addr:city": "Львів",
    "addr:housenumber": "24",
    "addr:postcode": "79008",
    "addr:street": "Володимира Винниченка вулиця",
    "building": "yes",
    "building:levels": "3",
    "name": "Музей археології ім. І. Крип'якевича",
    "name:be": "Музей археалогіі ім. І. Крыпякевіча",
    "start_date": "1831",
    "tourism": "museum"
  }
},
{
  "type": "way",
  "id": 165220792,
  "nodes": [
    1767816753,
    1767816752,
    1767816758,
    1767816759,
    1767816778,
    1767816781,
    1767816760,
    1767816762,
    1767816757,
    1767816755,
    1767816754,
    1767816751,
    1767816748,
    1767816753
  ],
  "tags": {
    "addr:housenumber": "2",
    "addr:street": "Митна площа",
    "building": "yes",
    "name": "Музей сакральної барокової скульптури Пінзеля",
    "name:be": "Мкзей скульптуры Пінзэля",
    "name:en": "Johann Georg Pinzel Sculpture Museum",
    "name:ru": "Музей скульптуры Пинзеля",
    "name:uk": "Музей скульптури Пінзеля",
    "opening_hours": "Tu-Fr 11:00-17:00; Sa-Su 10:00-18:00",
    "phone": "(032) 275-69-66",
    "tourism": "museum",
    "wikidata": "Q4235779",
    "wikipedia": "uk:Музей сакральної барокової скульптури Пінзеля"
  }
},
{
  "type": "way",
  "id": 166224257,
  "nodes": [
    1776955425,
    1776955426,
    1776955424,
    1776955420,
    1776955425
  ],
  "tags": {
    "addr:housenumber": "15а",
    "addr:postcode": "79005",
    "addr:street": "Миколая Коперника вулиця",
    "building": "yes",
    "building:levels": "2",
    "name": "Музей мистецтва давньої української книги",
    "name:en": "Museum of Ancient Ukrainian Books",
    "name:tr": "Eski kitap müzesi",
    "name:uk": "Музей мистецтва давньої української книги",
    "tourism": "museum"
  }
},
{
  "type": "way",
  "id": 166638394,
  "nodes": [
    1780769476,
    1780769480,
    1780769483,
    1780769481,
    1780769478,
    1780769477,
    1780769476
  ],
  "tags": {
    "building": "yes",
    "name": "Русалка Дністрова",
    "tourism": "museum"
  }
},
{
  "type": "way",
  "id": 170023137,
  "nodes": [
    1811755131,
    1811755240,
    1811755106,
    1811755091,
    1628406141,
    1802228138,
    1802228127,
    1802228139,
    1802228143,
    1628406130,
    1628406134,
    1628406137,
    1628406133,
    1628406138,
    1628406139,
    1776959532,
    1628406142,
    1628406140,
    1628406143,
    1628406144,
    1628406145,
    1811755131
  ],
  "tags": {
    "addr:housenumber": "15",
    "addr:street": "Миколая Коперника вулиця",
    "building": "public",
    "building:levels": "2",
    "castle_type": "palace",
    "historic": "castle",
    "name": "Палац Потоцьких",
    "name:be": "Палац Патоцкіх",
    "name:de": "Potocki-Palast",
    "name:en": "Potocki Palace",
    "name:pl": "Pałac Potockich",
    "name:ru": "Дворец Потоцких",
    "name:uk": "Палац Потоцьких",
    "opening_hours": "Su, Tu 12:00-18:00; Mo, We-Sa 11:00-18:00",
    "source": "Bing",
    "start_date": "1880",
    "tourism": "museum",
    "wikidata": "Q1576016",
    "wikipedia": "uk:Палац Потоцьких (Львів)"
  }
},
{
  "type": "way",
  "id": 170662264,
  "nodes": [
    1818212820,
    1818212793,
    1818212791,
    1818212765,
    1818212769,
    1818212741,
    1818212719,
    1818212714,
    1818212712,
    1818212706,
    1818212696,
    1818212733,
    1818212747,
    1818212750,
    1818212757,
    1818212763,
    1818212815,
    1818212820
  ],
  "tags": {
    "building": "yes",
    "name": "Музей національно-визвольної боротьби",
    "name:ru": "Музей национально-освободительной борьбы",
    "source": "bing",
    "tourism": "museum",
    "website": "http://www.lhm.lviv.ua/ekspozyciyi/muzey_vyzvolnoyi_borotby_ukrayiny.html"
  }
},
{
  "type": "way",
  "id": 178927725,
  "nodes": [
    1700814283,
    1883356820,
    1700814279,
    1892823301,
    1700814283
  ],
  "tags": {
    "addr:housenumber": "7",
    "addr:postcode": "79011",
    "addr:street": "Станіслава Людкевича вулиця",
    "building": "yes",
    "building:levels": "2",
    "name": "Меморіальний музей С. Людкевича",
    "name:ru": "Мемориальный музей С. Людкевича",
    "tourism": "museum",
    "website": "http://www.salomeamuseum.lviv.ua",
    "wikidata": "Q56367420",
    "wikipedia": "uk:Меморіальний музей Станіслава Людкевича"
  }
},
{
  "type": "way",
  "id": 179148900,
  "nodes": [
    1895010085,
    1895010081,
    1895010076,
    1895010082,
    1895010084,
    1895010086,
    1895010089,
    1895010101,
    1895010103,
    1895010105,
    1895010109,
    1895010113,
    1895010118,
    1895010120,
    1895010126,
    1895010128,
    1895010124,
    1895010116,
    1908718370,
    1895010114,
    1895010100,
    1895010098,
    1895010078,
    1895010079,
    1895010083,
    1895010085
  ],
  "tags": {
    "building": "yes",
    "name": "Музей історії давньоруського міста Звенигорода",
    "tourism": "museum"
  }
},
{
  "type": "way",
  "id": 181771854,
  "nodes": [
    1922009466,
    1922009478,
    1922009486,
    1922009481,
    1922009466
  ],
  "tags": {
    "addr:housenumber": "154",
    "addr:street": "Івана Франка вулиця",
    "building": "yes",
    "name": "Музей Михайла Грушевського",
    "name:en": "State memorial museum of Mykhailo Hrushevs'kyi in Lviv",
    "name:uk": "Музей Михайла Грушевського",
    "official_name": "Державний меморіальний музей Михайла Грушевського у Львові",
    "tourism": "museum"
  }
},
{
  "type": "way",
  "id": 236900750,
  "nodes": [
    2448596380,
    2448596382,
    2448596376,
    2448596374,
    2448596378,
    2448596372,
    2448596380
  ],
  "tags": {
    "addr:housenumber": "152",
    "addr:street": "Івана Франка вулиця",
    "building": "yes",
    "building:levels": "3",
    "name": "Музей Івана Франка",
    "name:ru": "Львовский национальный литературно - мемориальный музей Ивана Франко",
    "name:uk": "Музей Івана Франка",
    "official_name": "Львівський національний літературно- меморіальний музей Івана Франка",
    "opening_hours": "10:00-16:00; Tu off",
    "start_date": "1902",
    "tourism": "museum"
  }
},
{
  "type": "way",
  "id": 265257287,
  "nodes": [
    2709240549,
    2709240552,
    2709240541,
    2709240539,
    2709240549
  ],
  "tags": {
    "addr:housenumber": "28",
    "addr:postcode": "79057",
    "addr:street": "Івана Труша вулиця",
    "building": "yes",
    "building:level": "2",
    "name": "Художньо-меморіальний музей І.І.Труша",
    "tourism": "museum"
  }
},
{
  "type": "way",
  "id": 333888189,
  "nodes": [
    3409317306,
    3409317307,
    3409317308,
    3409317309,
    3409317306
  ],
  "tags": {
    "addr:housenumber": "26",
    "addr:postcode": "79495",
    "addr:street": "Галицька вулиця",
    "building": "yes",
    "name": "Історико-краєзнавчий музей",
    "tourism": "museum"
  }
},
{
  "type": "way",
  "id": 333979856,
  "nodes": [
    3410569506,
    3410569507,
    3410569508,
    3410569509,
    3410569506
  ],
  "tags": {
    "addr:housenumber": "5",
    "addr:postcode": "79495",
    "addr:street": "Володимира Івасюка вулиця",
    "building": "yes",
    "name": "Історико-краєзнавчий музей (виставковий майданчик)",
    "tourism": "museum"
  }
},
{
  "type": "way",
  "id": 364229132,
  "nodes": [
    3682868630,
    3682868631,
    3682868632,
    3682868633,
    3682868630
  ],
  "tags": {
    "building": "house",
    "description": "Хата з села Шандровець, Турківського району, Львівської області, 1909 р.",
    "description:en": "House from Shandrovets village, Turka district, Lviv region, 1909.",
    "historic": "house",
    "material": "wood",
    "museum": "history",
    "name": "Хата, с. Шандровець, 1909",
    "name:en": "House, Shandrovets village, 1909",
    "ref": "33",
    "website": "http://lvivskansen.org/archive/hata-1909-r-z-s-shandrovecz-turkivskogo-r-n/"
  }
},
{
  "type": "way",
  "id": 424192211,
  "nodes": [
    4236571970,
    4236571971,
    4236571968,
    4236571967,
    4236571965,
    7000747170,
    4236571962,
    4236571963,
    4236571964,
    4236571966,
    4236571969,
    4236571970
  ],
  "tags": {
    "barrier": "fence",
    "tourism": "museum"
  }
},
{
  "type": "way",
  "id": 626179085,
  "nodes": [
    1821815874,
    1821815863,
    1821815838,
    1821815854,
    1821815834,
    1821815852,
    1821815903,
    1821815874
  ],
  "tags": {
    "addr:housenumber": "15",
    "addr:street": "Свободи проспект",
    "building": "yes",
    "building:levels": "3",
    "name": "Музей етнографії та художнього промислу",
    "name:be": "Музей этнаграфіі і мастацкага промыслу",
    "name:en": "Museum of Ethnography,Arts &Crafts",
    "name:pl": "Muzeum Etnografii, Sztuki i Rzemiosła",
    "name:uk": "Музей етнографії та художнього промислу",
    "source": "Bing",
    "start_date": "1874",
    "tourism": "museum",
    "wikidata": "Q4306518",
    "wikipedia": "uk:Музей етнографії та художнього промислу"
  }
},
{
  "type": "way",
  "id": 702560350,
  "nodes": [
    6597586314,
    6597586315,
    6597586316,
    6597586317,
    6597586314
  ],
  "tags": {
    "opening_hours": "24/7",
    "operator": "Укрзалізниця",
    "tourism": "museum"
  }
},
{
  "type": "relation",
  "id": 254623,
  "members": [
    {
      "type": "way",
      "ref": 41054705,
      "role": "outer"
    },
    {
      "type": "way",
      "ref": 41054706,
      "role": "inner"
    }
  ],
  "tags": {
    "addr:city": "Львів",
    "addr:housenumber": "20",
    "addr:street": "Свободи проспект",
    "building": "yes",
    "building:levels": "4",
    "name": "Національний музей у Львові",
    "name:be": "Нацыянальны музей у Львове",
    "name:de": "Nationalmuseum Lemberg",
    "name:en": "Lviv National Museum",
    "name:pl": "Muzeum Narodowe we Lwowie",
    "name:ru": "Национальный музей во Львове имени Андрея Шептицкого",
    "name:uk": "Національний музей у Львові",
    "start_date": "1894",
    "tourism": "museum",
    "type": "multipolygon",
    "wikidata": "Q2037262",
    "wikipedia": "uk:Національний музей у Львові"
  }
},
{
  "type": "relation",
  "id": 1582525,
  "members": [
    {
      "type": "way",
      "ref": 112793604,
      "role": "outer"
    },
    {
      "type": "way",
      "ref": 112793609,
      "role": "inner"
    }
  ],
  "tags": {
    "addr:housenumber": "35",
    "addr:postcode": "79008",
    "addr:street": "Вірменська вулиця",
    "building": "yes",
    "building:levels": "3",
    "name": "Львівський музей історії релігії",
    "name:be": "Львоўскі музей гісторыі рэлігіі",
    "name:ru": "Львовский музей истории религии",
    "start_date": "1600",
    "tourism": "museum",
    "type": "multipolygon",
    "website": "http://www.museum.lviv.ua/",
    "wikidata": "Q4306348",
    "wikipedia": "uk:Львівський музей історії релігії"
  }
},
{
  "type": "relation",
  "id": 2021187,
  "members": [
    {
      "type": "way",
      "ref": 149962214,
      "role": "outer"
    },
    {
      "type": "way",
      "ref": 149962321,
      "role": "inner"
    }
  ],
  "tags": {
    "addr:housenumber": "18",
    "addr:postcode": "79008",
    "addr:street": "Театральна вулиця",
    "building": "yes",
    "building:levels": "3",
    "name": "Львівський Державний Природознавчий Музей",
    "name:be": "Львоўскі дзяржаўны краязнаўчы музей",
    "name:ru": "Львовский Государственный Природоведческий Музей",
    "name:uk": "Львівський Державний Природознавчий Музей",
    "recycling:batteries": "yes",
    "start_date": "1830",
    "tourism": "museum",
    "type": "multipolygon"
  }
},
{
  "type": "relation",
  "id": 6116501,
  "members": [
    {
      "type": "way",
      "ref": 400982736,
      "role": "outer"
    },
    {
      "type": "way",
      "ref": 508107329,
      "role": "outer"
    },
    {
      "type": "way",
      "ref": 408631397,
      "role": "inner"
    }
  ],
  "tags": {
    "building": "yes",
    "building:levels": "2",
    "name": "Музей історії Академії",
    "name:ru": "Музей истории Академии",
    "name:uk": "Музей історії Академії",
    "official_name": "Музей історії Академії сухопутних військ ім. гетьмана Петра Сагайдачного",
    "tourism": "museum",
    "type": "multipolygon"
  }
},
{
  "type": "relation",
  "id": 8706515,
  "members": [
    {
      "type": "way",
      "ref": 626179101,
      "role": "outer"
    },
    {
      "type": "way",
      "ref": 179479722,
      "role": "outer"
    }
  ],
  "tags": {
    "building": "yes",
    "building:part": "yes",
    "name": "Музей Історії Релігії",
    "name:be": "Музей гісторыі рэлігіі",
    "name:en": "Lviv Museum Of The History Of Religion",
    "name:ja": "リヴィウ宗教歴史博物館",
    "name:tr": "Dinler tarihi muzesi",
    "name:uk": "Музей Історії Релігії",
    "tourism": "museum",
    "type": "multipolygon"
  }
},
{
  "type": "node",
  "id": 2709240539,
  "lat": 49.8229891,
  "lon": 23.9943198
},
{
  "type": "node",
  "id": 2709240541,
  "lat": 49.8229908,
  "lon": 23.9944935
},
{
  "type": "node",
  "id": 2709240549,
  "lat": 49.8230868,
  "lon": 23.9943176
},
{
  "type": "node",
  "id": 2709240552,
  "lat": 49.8230884,
  "lon": 23.9944912
},
{
  "type": "node",
  "id": 750704817,
  "lat": 49.8225503,
  "lon": 24.0320266
},
{
  "type": "node",
  "id": 1922009466,
  "lat": 49.8224559,
  "lon": 24.0308004
},
{
  "type": "node",
  "id": 1922009478,
  "lat": 49.8225216,
  "lon": 24.0310912
},
{
  "type": "node",
  "id": 1922009481,
  "lat": 49.8225834,
  "lon": 24.0307312
},
{
  "type": "node",
  "id": 1922009486,
  "lat": 49.8226491,
  "lon": 24.0310220
},
{
  "type": "node",
  "id": 2448596372,
  "lat": 49.8222510,
  "lon": 24.0314823
},
{
  "type": "node",
  "id": 2448596374,
  "lat": 49.8222515,
  "lon": 24.0316802
},
{
  "type": "node",
  "id": 2448596376,
  "lat": 49.8222746,
  "lon": 24.0318114
},
{
  "type": "node",
  "id": 2448596378,
  "lat": 49.8222835,
  "lon": 24.0316666
},
{
  "type": "node",
  "id": 2448596380,
  "lat": 49.8223588,
  "lon": 24.0314366
},
{
  "type": "node",
  "id": 2448596382,
  "lat": 49.8224145,
  "lon": 24.0317521
},
{
  "type": "node",
  "id": 750704753,
  "lat": 49.8223840,
  "lon": 24.0320547
},
{
  "type": "node",
  "id": 750704759,
  "lat": 49.8224074,
  "lon": 24.0323869
},
{
  "type": "node",
  "id": 750704763,
  "lat": 49.8225737,
  "lon": 24.0323587
},
{
  "type": "node",
  "id": 6597586314,
  "lat": 49.8360244,
  "lon": 23.9940695
},
{
  "type": "node",
  "id": 6597586315,
  "lat": 49.8359466,
  "lon": 23.9941017
},
{
  "type": "node",
  "id": 6597586316,
  "lat": 49.8362612,
  "lon": 23.9959288
},
{
  "type": "node",
  "id": 6597586317,
  "lat": 49.8363391,
  "lon": 23.9958966
},
{
  "type": "node",
  "id": 4034634895,
  "lat": 49.8250270,
  "lon": 24.0192510
},
{
  "type": "node",
  "id": 4034634896,
  "lat": 49.8251762,
  "lon": 24.0194311
},
{
  "type": "node",
  "id": 4034634897,
  "lat": 49.8249530,
  "lon": 24.0198753
},
{
  "type": "node",
  "id": 4034634898,
  "lat": 49.8247942,
  "lon": 24.0196835
},
{
  "type": "node",
  "id": 4105346996,
  "lat": 49.8248896,
  "lon": 24.0196083
},
{
  "type": "node",
  "id": 4105346997,
  "lat": 49.8249628,
  "lon": 24.0196992
},
{
  "type": "node",
  "id": 4105346998,
  "lat": 49.8249810,
  "lon": 24.0193117
},
{
  "type": "node",
  "id": 4105346999,
  "lat": 49.8249907,
  "lon": 24.0193233
},
{
  "type": "node",
  "id": 4105347000,
  "lat": 49.8250122,
  "lon": 24.0193711
},
{
  "type": "node",
  "id": 4105347001,
  "lat": 49.8250854,
  "lon": 24.0194620
},
{
  "type": "node",
  "id": 1780769476,
  "lat": 49.8366541,
  "lon": 24.0231420
},
{
  "type": "node",
  "id": 1780769477,
  "lat": 49.8367053,
  "lon": 24.0230828
},
{
  "type": "node",
  "id": 1780769478,
  "lat": 49.8366704,
  "lon": 24.0230101
},
{
  "type": "node",
  "id": 1780769480,
  "lat": 49.8365908,
  "lon": 24.0230104
},
{
  "type": "node",
  "id": 1780769481,
  "lat": 49.8367024,
  "lon": 24.0229731
},
{
  "type": "node",
  "id": 1780769483,
  "lat": 49.8366741,
  "lon": 24.0229142
},
{
  "type": "node",
  "id": 1700814279,
  "lat": 49.8287663,
  "lon": 24.0352450
},
{
  "type": "node",
  "id": 1700814283,
  "lat": 49.8288005,
  "lon": 24.0350059
},
{
  "type": "node",
  "id": 1883356820,
  "lat": 49.8288528,
  "lon": 24.0351839
},
{
  "type": "node",
  "id": 1892823301,
  "lat": 49.8287140,
  "lon": 24.0350670
},
{
  "type": "node",
  "id": 1675642028,
  "lat": 49.8330180,
  "lon": 24.0282721
},
{
  "type": "node",
  "id": 1675642031,
  "lat": 49.8331008,
  "lon": 24.0280985
},
{
  "type": "node",
  "id": 1675642045,
  "lat": 49.8332056,
  "lon": 24.0284871
},
{
  "type": "node",
  "id": 1675642047,
  "lat": 49.8332884,
  "lon": 24.0283134
},
{
  "type": "node",
  "id": 499520562,
  "lat": 49.8413547,
  "lon": 24.0308525
},
{
  "type": "node",
  "id": 499520567,
  "lat": 49.8414349,
  "lon": 24.0308102
},
{
  "type": "node",
  "id": 499520569,
  "lat": 49.8413243,
  "lon": 24.0303060
},
{
  "type": "node",
  "id": 499520571,
  "lat": 49.8412818,
  "lon": 24.0303284
},
{
  "type": "node",
  "id": 499520572,
  "lat": 49.8413185,
  "lon": 24.0304956
},
{
  "type": "node",
  "id": 500323113,
  "lat": 49.8432171,
  "lon": 24.0276306
},
{
  "type": "node",
  "id": 500323115,
  "lat": 49.8433423,
  "lon": 24.0284336
},
{
  "type": "node",
  "id": 500323125,
  "lat": 49.8430406,
  "lon": 24.0285468
},
{
  "type": "node",
  "id": 500323127,
  "lat": 49.8429167,
  "lon": 24.0277527
},
{
  "type": "node",
  "id": 500323128,
  "lat": 49.8429897,
  "lon": 24.0277254
},
{
  "type": "node",
  "id": 500323130,
  "lat": 49.8429822,
  "lon": 24.0276777
},
{
  "type": "node",
  "id": 500323133,
  "lat": 49.8431490,
  "lon": 24.0276152
},
{
  "type": "node",
  "id": 500323135,
  "lat": 49.8431550,
  "lon": 24.0276539
},
{
  "type": "node",
  "id": 500323137,
  "lat": 49.8432088,
  "lon": 24.0282276
},
{
  "type": "node",
  "id": 500323139,
  "lat": 49.8430878,
  "lon": 24.0282778
},
{
  "type": "node",
  "id": 500323142,
  "lat": 49.8431040,
  "lon": 24.0283721
},
{
  "type": "node",
  "id": 500323144,
  "lat": 49.8432251,
  "lon": 24.0283220
},
{
  "type": "node",
  "id": 1628406130,
  "lat": 49.8376742,
  "lon": 24.0267395
},
{
  "type": "node",
  "id": 1628406133,
  "lat": 49.8378817,
  "lon": 24.0266006
},
{
  "type": "node",
  "id": 1628406134,
  "lat": 49.8378856,
  "lon": 24.0264466
},
{
  "type": "node",
  "id": 1628406137,
  "lat": 49.8379332,
  "lon": 24.0265292
},
{
  "type": "node",
  "id": 1628406138,
  "lat": 49.8379690,
  "lon": 24.0267522
},
{
  "type": "node",
  "id": 1628406139,
  "lat": 49.8380039,
  "lon": 24.0267039
},
{
  "type": "node",
  "id": 1628406140,
  "lat": 49.8380258,
  "lon": 24.0268377
},
{
  "type": "node",
  "id": 1628406141,
  "lat": 49.8379872,
  "lon": 24.0272902
},
{
  "type": "node",
  "id": 1628406142,
  "lat": 49.8380564,
  "lon": 24.0267952
},
{
  "type": "node",
  "id": 1628406143,
  "lat": 49.8380963,
  "lon": 24.0269601
},
{
  "type": "node",
  "id": 1628406144,
  "lat": 49.8381544,
  "lon": 24.0268796
},
{
  "type": "node",
  "id": 1628406145,
  "lat": 49.8382083,
  "lon": 24.0269731
},
{
  "type": "node",
  "id": 1628992285,
  "lat": 49.8424025,
  "lon": 24.0290881
},
{
  "type": "node",
  "id": 1628992296,
  "lat": 49.8424602,
  "lon": 24.0293623
},
{
  "type": "node",
  "id": 1628992305,
  "lat": 49.8425047,
  "lon": 24.0292696
},
{
  "type": "node",
  "id": 1628992307,
  "lat": 49.8425330,
  "lon": 24.0297088
},
{
  "type": "node",
  "id": 1628992308,
  "lat": 49.8425335,
  "lon": 24.0294021
},
{
  "type": "node",
  "id": 1628992315,
  "lat": 49.8426249,
  "lon": 24.0295784
},
{
  "type": "node",
  "id": 1628992316,
  "lat": 49.8426409,
  "lon": 24.0296543
},
{
  "type": "node",
  "id": 1628992317,
  "lat": 49.8426420,
  "lon": 24.0291977
},
{
  "type": "node",
  "id": 1628992318,
  "lat": 49.8426474,
  "lon": 24.0295670
},
{
  "type": "node",
  "id": 1628992320,
  "lat": 49.8426620,
  "lon": 24.0289493
},
{
  "type": "node",
  "id": 1628992321,
  "lat": 49.8426709,
  "lon": 24.0293303
},
{
  "type": "node",
  "id": 1628992323,
  "lat": 49.8427110,
  "lon": 24.0295349
},
{
  "type": "node",
  "id": 1628992331,
  "lat": 49.8427781,
  "lon": 24.0295010
},
{
  "type": "node",
  "id": 1776955420,
  "lat": 49.8378317,
  "lon": 24.0278323
},
{
  "type": "node",
  "id": 1776955424,
  "lat": 49.8379161,
  "lon": 24.0279708
},
{
  "type": "node",
  "id": 1776955425,
  "lat": 49.8380917,
  "lon": 24.0274517
},
{
  "type": "node",
  "id": 1776955426,
  "lat": 49.8381761,
  "lon": 24.0275902
},
{
  "type": "node",
  "id": 1776959532,
  "lat": 49.8380309,
  "lon": 24.0267508
},
{
  "type": "node",
  "id": 1802228127,
  "lat": 49.8379684,
  "lon": 24.0271613
},
{
  "type": "node",
  "id": 1802228138,
  "lat": 49.8379375,
  "lon": 24.0272041
},
{
  "type": "node",
  "id": 1802228139,
  "lat": 49.8377519,
  "lon": 24.0267858
},
{
  "type": "node",
  "id": 1802228143,
  "lat": 49.8377235,
  "lon": 24.0268251
},
{
  "type": "node",
  "id": 1811755091,
  "lat": 49.8380764,
  "lon": 24.0271664
},
{
  "type": "node",
  "id": 1811755106,
  "lat": 49.8381044,
  "lon": 24.0272148
},
{
  "type": "node",
  "id": 1811755131,
  "lat": 49.8381372,
  "lon": 24.0270717
},
{
  "type": "node",
  "id": 1811755240,
  "lat": 49.8381685,
  "lon": 24.0271260
},
{
  "type": "node",
  "id": 1821815834,
  "lat": 49.8409184,
  "lon": 24.0272647
},
{
  "type": "node",
  "id": 1821815838,
  "lat": 49.8409312,
  "lon": 24.0271429
},
{
  "type": "node",
  "id": 1821815852,
  "lat": 49.8409547,
  "lon": 24.0273799
},
{
  "type": "node",
  "id": 1821815854,
  "lat": 49.8409563,
  "lon": 24.0272426
},
{
  "type": "node",
  "id": 1821815863,
  "lat": 49.8409878,
  "lon": 24.0270997
},
{
  "type": "node",
  "id": 1821815874,
  "lat": 49.8410528,
  "lon": 24.0270489
},
{
  "type": "node",
  "id": 1821815903,
  "lat": 49.8411758,
  "lon": 24.0272350
},
{
  "type": "node",
  "id": 1852724475,
  "lat": 49.8430660,
  "lon": 24.0276463
},
{
  "type": "node",
  "id": 1895684923,
  "lat": 49.8427471,
  "lon": 24.0293536
},
{
  "type": "node",
  "id": 1895684926,
  "lat": 49.8427595,
  "lon": 24.0294127
},
{
  "type": "node",
  "id": 1895684928,
  "lat": 49.8427671,
  "lon": 24.0294488
},
{
  "type": "node",
  "id": 1896426285,
  "lat": 49.8412809,
  "lon": 24.0305155
},
{
  "type": "node",
  "id": 476675145,
  "lat": 49.8433590,
  "lon": 24.0336261
},
{
  "type": "node",
  "id": 497579594,
  "lat": 49.8421380,
  "lon": 24.0325897
},
{
  "type": "node",
  "id": 497579602,
  "lat": 49.8422324,
  "lon": 24.0330389
},
{
  "type": "node",
  "id": 497579605,
  "lat": 49.8422754,
  "lon": 24.0325203
},
{
  "type": "node",
  "id": 497579606,
  "lat": 49.8423999,
  "lon": 24.0331134
},
{
  "type": "node",
  "id": 497579612,
  "lat": 49.8422831,
  "lon": 24.0330966
},
{
  "type": "node",
  "id": 497579613,
  "lat": 49.8422482,
  "lon": 24.0331142
},
{
  "type": "node",
  "id": 497579615,
  "lat": 49.8422496,
  "lon": 24.0329368
},
{
  "type": "node",
  "id": 497579622,
  "lat": 49.8423538,
  "lon": 24.0331367
},
{
  "type": "node",
  "id": 497579627,
  "lat": 49.8423804,
  "lon": 24.0330206
},
{
  "type": "node",
  "id": 497579631,
  "lat": 49.8423443,
  "lon": 24.0328487
},
{
  "type": "node",
  "id": 497579640,
  "lat": 49.8423173,
  "lon": 24.0329631
},
{
  "type": "node",
  "id": 497579642,
  "lat": 49.8423310,
  "lon": 24.0329562
},
{
  "type": "node",
  "id": 497579643,
  "lat": 49.8423195,
  "lon": 24.0329015
},
{
  "type": "node",
  "id": 498891089,
  "lat": 49.8429258,
  "lon": 24.0323489
},
{
  "type": "node",
  "id": 498891090,
  "lat": 49.8429007,
  "lon": 24.0322026
},
{
  "type": "node",
  "id": 498891091,
  "lat": 49.8426891,
  "lon": 24.0322898
},
{
  "type": "node",
  "id": 498891093,
  "lat": 49.8427355,
  "lon": 24.0325606
},
{
  "type": "node",
  "id": 498891099,
  "lat": 49.8428458,
  "lon": 24.0323819
},
{
  "type": "node",
  "id": 498891105,
  "lat": 49.8428672,
  "lon": 24.0325064
},
{
  "type": "node",
  "id": 504467113,
  "lat": 49.8415371,
  "lon": 24.0350804
},
{
  "type": "node",
  "id": 504467114,
  "lat": 49.8410585,
  "lon": 24.0352852
},
{
  "type": "node",
  "id": 504467115,
  "lat": 49.8415414,
  "lon": 24.0353105
},
{
  "type": "node",
  "id": 504467188,
  "lat": 49.8410148,
  "lon": 24.0353801
},
{
  "type": "node",
  "id": 504467191,
  "lat": 49.8410353,
  "lon": 24.0355181
},
{
  "type": "node",
  "id": 1281378056,
  "lat": 49.8433023,
  "lon": 24.0340978
},
{
  "type": "node",
  "id": 1281378058,
  "lat": 49.8430304,
  "lon": 24.0338854
},
{
  "type": "node",
  "id": 1281378070,
  "lat": 49.8432784,
  "lon": 24.0339025
},
{
  "type": "node",
  "id": 1281378098,
  "lat": 49.8432038,
  "lon": 24.0339244
},
{
  "type": "node",
  "id": 1281378117,
  "lat": 49.8432277,
  "lon": 24.0341198
},
{
  "type": "node",
  "id": 1281378120,
  "lat": 49.8432693,
  "lon": 24.0335061
},
{
  "type": "node",
  "id": 1281378123,
  "lat": 49.8433689,
  "lon": 24.0343422
},
{
  "type": "node",
  "id": 1281378129,
  "lat": 49.8433169,
  "lon": 24.0334973
},
{
  "type": "node",
  "id": 1281378151,
  "lat": 49.8430638,
  "lon": 24.0341115
},
{
  "type": "node",
  "id": 1281378155,
  "lat": 49.8434173,
  "lon": 24.0343314
},
{
  "type": "node",
  "id": 1281378171,
  "lat": 49.8432702,
  "lon": 24.0336103
},
{
  "type": "node",
  "id": 1281378187,
  "lat": 49.8433582,
  "lon": 24.0342603
},
{
  "type": "node",
  "id": 1281378208,
  "lat": 49.8433298,
  "lon": 24.0336273
},
{
  "type": "node",
  "id": 1642319014,
  "lat": 49.8427084,
  "lon": 24.0345707
},
{
  "type": "node",
  "id": 1642319015,
  "lat": 49.8427530,
  "lon": 24.0348821
},
{
  "type": "node",
  "id": 1642319016,
  "lat": 49.8428132,
  "lon": 24.0347115
},
{
  "type": "node",
  "id": 1642319017,
  "lat": 49.8428207,
  "lon": 24.0347643
},
{
  "type": "node",
  "id": 1642319018,
  "lat": 49.8429664,
  "lon": 24.0347142
},
{
  "type": "node",
  "id": 1642319021,
  "lat": 49.8429792,
  "lon": 24.0348042
},
{
  "type": "node",
  "id": 1642319025,
  "lat": 49.8431019,
  "lon": 24.0346760
},
{
  "type": "node",
  "id": 1642319026,
  "lat": 49.8431157,
  "lon": 24.0347722
},
{
  "type": "node",
  "id": 1642319028,
  "lat": 49.8431752,
  "lon": 24.0345869
},
{
  "type": "node",
  "id": 1642319029,
  "lat": 49.8431839,
  "lon": 24.0346478
},
{
  "type": "node",
  "id": 1642319030,
  "lat": 49.8432363,
  "lon": 24.0343890
},
{
  "type": "node",
  "id": 1642319031,
  "lat": 49.8432829,
  "lon": 24.0347147
},
{
  "type": "node",
  "id": 1760847027,
  "lat": 49.8431966,
  "lon": 24.0362706
},
{
  "type": "node",
  "id": 1760847029,
  "lat": 49.8432502,
  "lon": 24.0367696
},
{
  "type": "node",
  "id": 1760847033,
  "lat": 49.8433542,
  "lon": 24.0364869
},
{
  "type": "node",
  "id": 1760847041,
  "lat": 49.8433781,
  "lon": 24.0366989
},
{
  "type": "node",
  "id": 1767816748,
  "lat": 49.8395546,
  "lon": 24.0368233
},
{
  "type": "node",
  "id": 1767816751,
  "lat": 49.8395608,
  "lon": 24.0371528
},
{
  "type": "node",
  "id": 1767816752,
  "lat": 49.8395951,
  "lon": 24.0367314
},
{
  "type": "node",
  "id": 1767816753,
  "lat": 49.8395968,
  "lon": 24.0368214
},
{
  "type": "node",
  "id": 1767816754,
  "lat": 49.8396038,
  "lon": 24.0371505
},
{
  "type": "node",
  "id": 1767816755,
  "lat": 49.8396082,
  "lon": 24.0373054
},
{
  "type": "node",
  "id": 1767816757,
  "lat": 49.8396083,
  "lon": 24.0374398
},
{
  "type": "node",
  "id": 1767816758,
  "lat": 49.8396736,
  "lon": 24.0367279
},
{
  "type": "node",
  "id": 1767816759,
  "lat": 49.8396753,
  "lon": 24.0368178
},
{
  "type": "node",
  "id": 1767816760,
  "lat": 49.8396965,
  "lon": 24.0371467
},
{
  "type": "node",
  "id": 1767816762,
  "lat": 49.8397047,
  "lon": 24.0374292
},
{
  "type": "node",
  "id": 1767816778,
  "lat": 49.8397180,
  "lon": 24.0368159
},
{
  "type": "node",
  "id": 1767816781,
  "lat": 49.8397242,
  "lon": 24.0371455
},
{
  "type": "node",
  "id": 1852724456,
  "lat": 49.8415344,
  "lon": 24.0352720
},
{
  "type": "node",
  "id": 1868504082,
  "lat": 49.8412727,
  "lon": 24.0351935
},
{
  "type": "node",
  "id": 1895142768,
  "lat": 49.8423927,
  "lon": 24.0330791
},
{
  "type": "node",
  "id": 1898578873,
  "lat": 49.8428767,
  "lon": 24.0336485
},
{
  "type": "node",
  "id": 1898578874,
  "lat": 49.8428922,
  "lon": 24.0337528
},
{
  "type": "node",
  "id": 1898578875,
  "lat": 49.8429221,
  "lon": 24.0336311
},
{
  "type": "node",
  "id": 1898578876,
  "lat": 49.8429503,
  "lon": 24.0339139
},
{
  "type": "node",
  "id": 1898578877,
  "lat": 49.8429510,
  "lon": 24.0341515
},
{
  "type": "node",
  "id": 1898578879,
  "lat": 49.8429648,
  "lon": 24.0336147
},
{
  "type": "node",
  "id": 1898578882,
  "lat": 49.8429793,
  "lon": 24.0337123
},
{
  "type": "node",
  "id": 1898578883,
  "lat": 49.8429837,
  "lon": 24.0341399
},
{
  "type": "node",
  "id": 1898578886,
  "lat": 49.8429839,
  "lon": 24.0343742
},
{
  "type": "node",
  "id": 1898578890,
  "lat": 49.8430766,
  "lon": 24.0336778
},
{
  "type": "node",
  "id": 1898578896,
  "lat": 49.8431035,
  "lon": 24.0338595
},
{
  "type": "node",
  "id": 1898578923,
  "lat": 49.8433885,
  "lon": 24.0336243
},
{
  "type": "node",
  "id": 3646224602,
  "lat": 49.8409786,
  "lon": 24.0352821
},
{
  "type": "node",
  "id": 3646224603,
  "lat": 49.8410063,
  "lon": 24.0354142
},
{
  "type": "node",
  "id": 3646224604,
  "lat": 49.8410098,
  "lon": 24.0353128
},
{
  "type": "node",
  "id": 3646229793,
  "lat": 49.8415192,
  "lon": 24.0351828
},
{
  "type": "node",
  "id": 3646229794,
  "lat": 49.8415521,
  "lon": 24.0351688
},
{
  "type": "node",
  "id": 4837561441,
  "lat": 49.8410011,
  "lon": 24.0352381
},
{
  "type": "node",
  "id": 1760847060,
  "lat": 49.8435095,
  "lon": 24.0362520
},
{
  "type": "node",
  "id": 1760847062,
  "lat": 49.8435101,
  "lon": 24.0364788
},
{
  "type": "node",
  "id": 1760847063,
  "lat": 49.8435108,
  "lon": 24.0367595
},
{
  "type": "node",
  "id": 1760847064,
  "lat": 49.8435112,
  "lon": 24.0366974
},
{
  "type": "node",
  "id": 1822889868,
  "lat": 49.8435260,
  "lon": 24.0336171
},
{
  "type": "node",
  "id": 1898578927,
  "lat": 49.8435065,
  "lon": 24.0336181
},
{
  "type": "node",
  "id": 1818212696,
  "lat": 49.8431858,
  "lon": 24.0426708
},
{
  "type": "node",
  "id": 1818212706,
  "lat": 49.8432086,
  "lon": 24.0425640
},
{
  "type": "node",
  "id": 1818212712,
  "lat": 49.8432354,
  "lon": 24.0424384
},
{
  "type": "node",
  "id": 1818212714,
  "lat": 49.8432466,
  "lon": 24.0424442
},
{
  "type": "node",
  "id": 1818212719,
  "lat": 49.8432650,
  "lon": 24.0423578
},
{
  "type": "node",
  "id": 1818212733,
  "lat": 49.8433175,
  "lon": 24.0427383
},
{
  "type": "node",
  "id": 1818212741,
  "lat": 49.8433462,
  "lon": 24.0422933
},
{
  "type": "node",
  "id": 1818212747,
  "lat": 49.8433735,
  "lon": 24.0427670
},
{
  "type": "node",
  "id": 1818212750,
  "lat": 49.8433967,
  "lon": 24.0426585
},
{
  "type": "node",
  "id": 1753761803,
  "lat": 49.8395494,
  "lon": 24.0487676
},
{
  "type": "node",
  "id": 1753761806,
  "lat": 49.8396031,
  "lon": 24.0485580
},
{
  "type": "node",
  "id": 1753761812,
  "lat": 49.8396439,
  "lon": 24.0488258
},
{
  "type": "node",
  "id": 1753761819,
  "lat": 49.8396976,
  "lon": 24.0486162
},
{
  "type": "node",
  "id": 1818212757,
  "lat": 49.8434593,
  "lon": 24.0426906
},
{
  "type": "node",
  "id": 1818212763,
  "lat": 49.8434851,
  "lon": 24.0425698
},
{
  "type": "node",
  "id": 1818212765,
  "lat": 49.8434872,
  "lon": 24.0424391
},
{
  "type": "node",
  "id": 1818212769,
  "lat": 49.8435014,
  "lon": 24.0423728
},
{
  "type": "node",
  "id": 1818212791,
  "lat": 49.8435993,
  "lon": 24.0424966
},
{
  "type": "node",
  "id": 1818212793,
  "lat": 49.8436088,
  "lon": 24.0424520
},
{
  "type": "node",
  "id": 1818212815,
  "lat": 49.8436795,
  "lon": 24.0426696
},
{
  "type": "node",
  "id": 1818212820,
  "lat": 49.8437144,
  "lon": 24.0425062
},
{
  "type": "node",
  "id": 4236571962,
  "lat": 49.8511794,
  "lon": 24.0232928
},
{
  "type": "node",
  "id": 4236571963,
  "lat": 49.8512259,
  "lon": 24.0226261
},
{
  "type": "node",
  "id": 4236571964,
  "lat": 49.8512883,
  "lon": 24.0219255
},
{
  "type": "node",
  "id": 4236571965,
  "lat": 49.8513145,
  "lon": 24.0233198
},
{
  "type": "node",
  "id": 4236571966,
  "lat": 49.8513522,
  "lon": 24.0214773
},
{
  "type": "node",
  "id": 4236571967,
  "lat": 49.8513885,
  "lon": 24.0223738
},
{
  "type": "node",
  "id": 4236571968,
  "lat": 49.8514800,
  "lon": 24.0214289
},
{
  "type": "node",
  "id": 4236571969,
  "lat": 49.8515018,
  "lon": 24.0207115
},
{
  "type": "node",
  "id": 4236571970,
  "lat": 49.8516129,
  "lon": 24.0203184
},
{
  "type": "node",
  "id": 4236571971,
  "lat": 49.8516906,
  "lon": 24.0203308
},
{
  "type": "node",
  "id": 7000747170,
  "lat": 49.8512724,
  "lon": 24.0233032
},
{
  "type": "node",
  "id": 3682868630,
  "lat": 49.8441349,
  "lon": 24.0678417
},
{
  "type": "node",
  "id": 3682868631,
  "lat": 49.8442493,
  "lon": 24.0681386
},
{
  "type": "node",
  "id": 3682868632,
  "lat": 49.8441744,
  "lon": 24.0682079
},
{
  "type": "node",
  "id": 3682868633,
  "lat": 49.8440600,
  "lon": 24.0679110
},
{
  "type": "node",
  "id": 3409317306,
  "lat": 49.8168957,
  "lon": 24.1389150
},
{
  "type": "node",
  "id": 3409317307,
  "lat": 49.8169146,
  "lon": 24.1391610
},
{
  "type": "node",
  "id": 3409317308,
  "lat": 49.8167778,
  "lon": 24.1391863
},
{
  "type": "node",
  "id": 3409317309,
  "lat": 49.8167588,
  "lon": 24.1389403
},
{
  "type": "node",
  "id": 3410569506,
  "lat": 49.8182321,
  "lon": 24.1369064
},
{
  "type": "node",
  "id": 3410569507,
  "lat": 49.8181028,
  "lon": 24.1369177
},
{
  "type": "node",
  "id": 3410569508,
  "lat": 49.8181114,
  "lon": 24.1371578
},
{
  "type": "node",
  "id": 3410569509,
  "lat": 49.8182408,
  "lon": 24.1371466
},
{
  "type": "node",
  "id": 1895010076,
  "lat": 49.7337048,
  "lon": 24.2475012
},
{
  "type": "node",
  "id": 1895010078,
  "lat": 49.7337059,
  "lon": 24.2478713
},
{
  "type": "node",
  "id": 1895010079,
  "lat": 49.7337083,
  "lon": 24.2477752
},
{
  "type": "node",
  "id": 1895010081,
  "lat": 49.7337086,
  "lon": 24.2475359
},
{
  "type": "node",
  "id": 1895010082,
  "lat": 49.7337121,
  "lon": 24.2474716
},
{
  "type": "node",
  "id": 1895010083,
  "lat": 49.7337219,
  "lon": 24.2477760
},
{
  "type": "node",
  "id": 1895010084,
  "lat": 49.7337233,
  "lon": 24.2474450
},
{
  "type": "node",
  "id": 1895010085,
  "lat": 49.7337261,
  "lon": 24.2475655
},
{
  "type": "node",
  "id": 1895010086,
  "lat": 49.7337377,
  "lon": 24.2474226
},
{
  "type": "node",
  "id": 1895010089,
  "lat": 49.7337549,
  "lon": 24.2474053
},
{
  "type": "node",
  "id": 1895010098,
  "lat": 49.7337721,
  "lon": 24.2478752
},
{
  "type": "node",
  "id": 1895010100,
  "lat": 49.7337736,
  "lon": 24.2478148
},
{
  "type": "node",
  "id": 1895010101,
  "lat": 49.7337740,
  "lon": 24.2473939
},
{
  "type": "node",
  "id": 1895010103,
  "lat": 49.7337943,
  "lon": 24.2473889
},
{
  "type": "node",
  "id": 1895010105,
  "lat": 49.7338147,
  "lon": 24.2473905
},
{
  "type": "node",
  "id": 1895010109,
  "lat": 49.7338345,
  "lon": 24.2473987
},
{
  "type": "node",
  "id": 1895010113,
  "lat": 49.7338528,
  "lon": 24.2474131
},
{
  "type": "node",
  "id": 1895010114,
  "lat": 49.7338616,
  "lon": 24.2478200
},
{
  "type": "node",
  "id": 1895010116,
  "lat": 49.7338681,
  "lon": 24.2475687
},
{
  "type": "node",
  "id": 1895010118,
  "lat": 49.7338687,
  "lon": 24.2474330
},
{
  "type": "node",
  "id": 1895010120,
  "lat": 49.7338816,
  "lon": 24.2474576
},
{
  "type": "node",
  "id": 1895010124,
  "lat": 49.7338852,
  "lon": 24.2475468
},
{
  "type": "node",
  "id": 1895010126,
  "lat": 49.7338909,
  "lon": 24.2474858
},
{
  "type": "node",
  "id": 1895010128,
  "lat": 49.7338962,
  "lon": 24.2475165
},
{
  "type": "node",
  "id": 1908718370,
  "lat": 49.7338663,
  "lon": 24.2477292
},
{
  "type": "way",
  "id": 400982736,
  "nodes": [
    4034634895,
    4034634896,
    4034634897,
    4034634898
  ]
},
{
  "type": "way",
  "id": 408631397,
  "nodes": [
    4105347001,
    4105347000,
    4105346996,
    4105346997,
    4105347001
  ]
},
{
  "type": "way",
  "id": 508107329,
  "nodes": [
    4034634898,
    4105346998,
    4105346999,
    4034634895
  ]
},
{
  "type": "way",
  "id": 41054705,
  "nodes": [
    500323113,
    500323115,
    500323125,
    500323127,
    500323128,
    500323130,
    1852724475,
    500323133,
    500323135,
    500323113
  ]
},
{
  "type": "way",
  "id": 41054706,
  "nodes": [
    500323137,
    500323139,
    500323142,
    500323144,
    500323137
  ]
},
{
  "type": "way",
  "id": 149962214,
  "nodes": [
    1628992285,
    1628992320,
    1895684923,
    1895684926,
    1895684928,
    1628992331,
    1628992323,
    1628992318,
    1628992315,
    1628992316,
    1628992307,
    1628992296,
    1628992285
  ]
},
{
  "type": "way",
  "id": 149962321,
  "nodes": [
    1628992317,
    1628992321,
    1628992308,
    1628992305,
    1628992317
  ]
},
{
  "type": "way",
  "id": 112793609,
  "nodes": [
    1281378098,
    1281378117,
    1281378056,
    1281378070,
    1281378098
  ]
},
{
  "type": "way",
  "id": 179479722,
  "nodes": [
    1898578874,
    1898578873,
    1898578875,
    1898578879,
    1898578882,
    1898578890,
    1898578896,
    1281378058,
    1898578876,
    1898578883,
    1898578877
  ]
},
{
  "type": "way",
  "id": 626179101,
  "nodes": [
    1898578877,
    1898578874
  ]
},
{
  "type": "way",
  "id": 112793604,
  "nodes": [
    1822889868,
    1281378155,
    1281378123,
    1281378187,
    1898578886,
    1898578877,
    1898578883,
    1281378151,
    1281378058,
    1898578896,
    1898578890,
    1281378171,
    1281378120,
    1281378129,
    1281378208,
    476675145,
    1898578923,
    1898578927,
    1822889868
  ]
}

  ]
}
