{
  "version": 0.6,
  "generator": "Overpass API 0.7.55.9 ab41fea6",
  "osm3s": {
    "timestamp_osm_base": "2020-02-14T14:29:02Z",
    "copyright": "The data included in this document is from www.openstreetmap.org. The data is made available under ODbL."
  },
  "elements": [

{
  "type": "node",
  "id": 878930173,
  "lat": 47.4691393,
  "lon": 23.9264300,
  "tags": {
    "name": "Muzeul Etnografic Rogoz",
    "name:en": "Rogoz Ethnographic Museum",
    "tourism": "museum"
  }
},
{
  "type": "node",
  "id": 2634651839,
  "lat": 47.7185550,
  "lon": 23.1894310,
  "tags": {
    "LMI": "SM-II-m-B-05372",
    "SIRUTA:code": "139296",
    "addr:city": "Valea Vinului",
    "addr:housenumber": "303",
    "addr:postcode": "447345",
    "codul_entității_muzeale": "6962508.0",
    "historic": "memorial",
    "museum_type": "Historical Personalities",
    "name": "Casa Memorială \"Aloisie Tautu\"",
    "name:en": "\"Aloisie Tautu\" Memorial House",
    "opening_hours": "10:00-18:00,Sa 10:00-14:00 Apr-Sep; 9:00-17:00,Sa 10:00-14:00 Oct-Mar; Mo closed",
    "source": "INP",
    "source:link": "http://date.gov.ro/dataset/ghidul-muzeelor-din-romania",
    "start_date": "1995",
    "tourism": "museum",
    "tourism_survey": "29.10.2012 18:21:34",
    "website": "http://www.muzeusm.ro"
  }
},
{
  "type": "node",
  "id": 2634651861,
  "lat": 47.6580730,
  "lon": 23.5837240,
  "tags": {
    "LMI": "MM-II-m-A-04434",
    "SIRUTA:code": "106327",
    "addr:city": "Baia Mare",
    "addr:housenumber": "8",
    "addr:postcode": "430331",
    "addr:street": "Strada 1 Mai",
    "codul_entității_muzeale": "6950501.0",
    "description:en": "The museum has functioned in the present premises since 1954.",
    "description:ro": "Muzeul functioneaza in actuala cladire din 1954.",
    "email": "muzartbm@yahoo.com",
    "fax": "0262/214.080",
    "name": "Muzeul Județean de Artă \"Centrul Artistic Baia Mare\"",
    "name:en": "\"Baia Mare Art Centre\" Fine Art Museum",
    "opening_hours": "Tu-Sa 10:00-16:30",
    "phone": "0262/213.964",
    "source": "INP",
    "source:link": "http://date.gov.ro/dataset/ghidul-muzeelor-din-romania",
    "start_date": "1896",
    "tourism": "museum",
    "tourism_survey": "10.12.2013 14:25:10",
    "website": "https://muzeuldeartabaiamare.wordpress.com/"
  }
},
{
  "type": "node",
  "id": 2634651914,
  "lat": 47.7629920,
  "lon": 23.1952860,
  "tags": {
    "LMI": "SM-II-m-B-05260",
    "SIRUTA:code": "136811",
    "addr:city": "Apa",
    "addr:postcode": "447015",
    "addr:street": "nr. 246",
    "codul_entității_muzeale": "7162100.0",
    "fax": "0261/737.526",
    "historic": "memorial",
    "museum_type": "Historical Personalities",
    "name": "Casa Memorială \"Dr. Vasile Lucaciu\"",
    "name:en": "\"Dr. Vasile Lucaciu\" Memorial House",
    "opening_hours": "10:00-18:00,Sa 10:00-14:00 Apr-Sep; 9:00-17:00,Sa 10:00-14:00 Oct-Mar; Mo closed",
    "phone": "0261/737.526",
    "source": "INP",
    "source:link": "http://date.gov.ro/dataset/ghidul-muzeelor-din-romania",
    "start_date": "1979",
    "tourism": "museum",
    "tourism_survey": "02.11.2012 17:49:18",
    "website": "http://www.muzeusm.ro"
  }
},
{
  "type": "node",
  "id": 2634651915,
  "lat": 47.6310410,
  "lon": 23.6941190,
  "tags": {
    "SIRUTA:code": "109103",
    "addr:city": "Șișești",
    "addr:housenumber": "250",
    "addr:postcode": "437325",
    "codul_entității_muzeale": "6950505.0",
    "email": "maramuresmuzeu@gmail.com",
    "museum_type": "Historical Personalities",
    "name": "Ansamblul Muzeal și Monumental \"Dr. Vasile Lucaciu\"",
    "name:en": "\"Dr. Vasile Lucaciu\" Museum and Monumental Group",
    "opening_hours": "9:00-17:00; Mo closed",
    "phone": "0262/298.038",
    "source": "INP",
    "source:link": "http://date.gov.ro/dataset/ghidul-muzeelor-din-romania",
    "start_date": "1968",
    "tourism": "museum",
    "tourism_survey": "07.11.2013 12:18:34",
    "website": "http://www.maramuresmuzeu.ro/"
  }
},
{
  "type": "node",
  "id": 2634652091,
  "lat": 47.5998081,
  "lon": 23.5228691,
  "tags": {
    "SIRUTA:code": "108838",
    "addr:city": "Coltău",
    "addr:postcode": "437283",
    "addr:street": "Castelul Teleky",
    "codul_entității_muzeale": "7150300.0",
    "description:en": "Organized in the '50s in Coltau castle to celebrate the poet's friendship with count Teleki Sandor and the happy days following the poet's marriage to Szendrey Julia in 1847.",
    "description:ro": "Organizat in anii '50 in castelul de la Coltau pentru a celebra prietenia poetului cu contele Teleki S?ndor si zilele fericite de dupa casatoria lui Pet?fi cu Szendrey Julia la 8 septembrie 1847, cu puternic ecou in opera marelui poet.",
    "email": "maramuresmuzeu@gmail.com",
    "historic": "memorial",
    "is_in": "Koltó; Baia Mare; RO",
    "name": "Muzeul Memorial \"Petőfi Sándor\"",
    "name:en": "\"Petőfi Sándor\" Memorial Collection",
    "name:hu": "Petőfi múzeum",
    "opening_hours": "9:00-17:00;Mo closed",
    "source": "INP",
    "source:link": "http://date.gov.ro/dataset/ghidul-muzeelor-din-romania",
    "start_date": "1960",
    "tourism": "museum",
    "tourism_survey": "07.11.2013 12:18:15",
    "website": "http://www.muzeumm.baiamare.rdsnet.ro/petofi.htm;http://www.maramuresmuzeu.ro",
    "wikipedia": "hu:Teleki-kastély (Koltó)"
  }
},
{
  "type": "node",
  "id": 2634652252,
  "lat": 47.9031240,
  "lon": 23.4599620,
  "tags": {
    "SIRUTA:code": "137416",
    "addr:city": "Certeze",
    "addr:postcode": "447100",
    "codul_entității_muzeale": "7140010.0",
    "name": "Muzeul Local Certeze",
    "name:en": "Certeze Local Museum",
    "opening_hours": "unknown",
    "source": "INP",
    "source:link": "http://date.gov.ro/dataset/ghidul-muzeelor-din-romania",
    "start_date": "2009",
    "tourism": "museum",
    "tourism_survey": "02.11.2012 21:57:54",
    "website": "http://www.muzeusm.ro"
  }
},
{
  "type": "node",
  "id": 2634652262,
  "lat": 47.7184250,
  "lon": 23.1884020,
  "tags": {
    "SIRUTA:code": "139303",
    "addr:city": "Măriuș",
    "addr:postcode": "447346",
    "codul_entității_muzeale": "6962503.0",
    "name": "Muzeul tarii Codrului",
    "name:en": "Codru Land Museum",
    "opening_hours": "09:00-16:30; Sa 09:00-14:00; Mo closed",
    "source": "INP",
    "source:link": "http://date.gov.ro/dataset/ghidul-muzeelor-din-romania",
    "start_date": "1991",
    "tourism": "museum",
    "tourism_survey": "29.10.2012 18:05:23",
    "website": "http://www.muzeusm.ro"
  }
},
{
  "type": "node",
  "id": 2634652386,
  "lat": 47.6569430,
  "lon": 23.5343270,
  "tags": {
    "SIRUTA:code": "106327",
    "addr:city": "Baia Mare",
    "addr:housenumber": "146",
    "addr:postcode": "430061",
    "addr:street": "Strada Victoriei",
    "codul_entității_muzeale": "6950514.0",
    "email": "muzeulflorean@cmc.ro; cmc@cmc.ro",
    "name": "Muzeul Florean",
    "name:en": "Florean Museum",
    "opening_hours": "10:00-18:00; Mo closed",
    "source": "INP",
    "source:link": "http://date.gov.ro/dataset/ghidul-muzeelor-din-romania",
    "start_date": "1997",
    "tourism": "museum",
    "tourism_survey": "10.12.2013 14:25:47"
  }
},
{
  "type": "node",
  "id": 2634652463,
  "lat": 47.8381380,
  "lon": 23.2852580,
  "tags": {
    "SIRUTA:code": "138360",
    "addr:city": "Orașu Nou",
    "addr:postcode": "4472200",
    "addr:street": "Strada Principală",
    "codul_entității_muzeale": "7140020.0",
    "name": "Gospodăria Țăranească",
    "name:en": "Local Museum",
    "opening_hours": "10:00-18:00 Sa;10:00-14:00 Apr-Sep; 09:00-17:00; Sa 10:00-14:00 Oct-Mar; Mo closed",
    "source": "INP",
    "source:link": "http://date.gov.ro/dataset/ghidul-muzeelor-din-romania",
    "start_date": "2009",
    "tourism": "museum",
    "tourism_survey": "03.12.2013 13:49:35",
    "website": "http://www.muzeusm.ro"
  }
},
{
  "type": "node",
  "id": 2634652482,
  "lat": 47.7042850,
  "lon": 23.4913070,
  "tags": {
    "SIRUTA:code": "106489",
    "addr:city": "Băița",
    "addr:postcode": "437346",
    "codul_entității_muzeale": "6950508.0",
    "email": "maramuresmuzeu@gmail.com",
    "fixme": "Adresa muzeului este de fapt adresa localitati, trebuie cautat manual unde este adresa corecta",
    "historic": "memorial",
    "name": "Casa Memorială a Poetului Ion Siugariu",
    "name:en": "Memorial House of the Poet Ion siugariu",
    "opening_hours": "9:00-17:00; Mo closed",
    "phone": "0262/294.083",
    "source": "INP",
    "source:link": "http://date.gov.ro/dataset/ghidul-muzeelor-din-romania",
    "start_date": "1983",
    "tourism": "museum",
    "tourism_survey": "07.11.2013 12:19:16",
    "website": "http://www.maramuresmuzeu.ro/"
  }
},
{
  "type": "node",
  "id": 2634652540,
  "lat": 47.6504340,
  "lon": 23.5671180,
  "tags": {
    "SIRUTA:code": "106327",
    "addr:city": "Baia Mare",
    "addr:housenumber": "8",
    "addr:postcode": "430211",
    "addr:street": "Bulevardul Traian",
    "codul_entității_muzeale": "7050400.0",
    "description:en": "The collection of minerals was started in 1968, and in 1976 was founded the section of natural sciences - mineralogy, as part of the Maramures County Museum. In 1989 the basic exhibition opened in the new premises of 8 Traian Avenue. The Maramures Museum",
    "description:ro": "in 1968 incepe constituirea colectiei de minerale, iar in 1976 se infiinteaza sectia de stiintele naturii cu profil de mineralogie in cadrul Muzeului Judetean Maramures. in 1989 se deschde expozitia de baza in noul sediu din B-dul Traian nr.8. Muzeul de",
    "email": "muzmin@muzeuminbm.ro",
    "fax": "0262/227.517",
    "leisure": "garden",
    "museum_type": "Natural Sciences - Mineralogy",
    "name": "Muzeul de Mineralogie",
    "name:en": "Museum of Mineralogy",
    "opening_hours": "9:00-17:00",
    "phone": "0262/227.517;0362.804.124",
    "source": "INP",
    "source:link": "http://date.gov.ro/dataset/ghidul-muzeelor-din-romania",
    "start_date": "1989",
    "tourism": "museum",
    "tourism_survey": "10.12.2013 11:40:38",
    "website": "http://www.muzeuminbm.ro"
  }
},
{
  "type": "node",
  "id": 6551718786,
  "lat": 47.8168121,
  "lon": 23.9280312,
  "tags": {
    "addr:postcode": "437160",
    "description:en": "Traditional architectural monument, originally belonged to Greek-Catholic Basil Mihaly and was built in 1826, as certified by the inscription in Latin. On the back of main beam is engraved in wood, another inscription: \"Lazarus survivor\", the two famil...",
    "description:ro": "Monument de arhitectura traditionala, a apartinut initial protopopului greco-catolic Vasile Mihalyi si a fost edificata in anul 1826, asa cum atesta inscriptia in limba latina. Pe spatele mestergrindei se afla, sapata in lemn, o alta inscriptie: „urmas...",
    "email": "muzeulmaramuresului@yahoo.com",
    "name": "Casa Memoriala Ilie Lazar",
    "name:en": "Ilie Lazar Memorial House",
    "phone": "(+40) 262375130",
    "ref:codul_entitații_muzeale": "7051507",
    "reviewed": "no",
    "tourism": "museum",
    "website": "http://muzeulmaramuresului.ro/"
  }
},
{
  "type": "node",
  "id": 6551718812,
  "lat": 47.6682160,
  "lon": 23.5746560,
  "tags": {
    "addr:postcode": "430165",
    "description:en": "Animals from local and foreign fauna.",
    "description:ro": "Prezinta animale din fauna autohtona si straina.",
    "name": "Gradina Zoologica Baia Mare",
    "name:en": "Zoological Garden",
    "ref:codul_entitații_muzeale": "7050700",
    "reviewed": "no",
    "tourism": "museum"
  }
},
{
  "type": "node",
  "id": 6551718817,
  "lat": 47.6667924,
  "lon": 23.4668609,
  "tags": {
    "addr:postcode": "437345",
    "description:en": "Museum presents a full homestead, originally from Bozanta Mare village, over 300 years old. This house consists of three rooms, barn, stable and within these objects and tools specific to this area are exposed.",
    "description:hu": "A múzeum egy 300 éves szerves parasztházat mutat be, amely Nagybozinta (Bozanta Mare) faluból. 3 házból áll: a kiságyból, a szúrából, az istállóból és azokban a területre jellemző tárgyak és szerszámok láthatók",
    "description:ro": "Muzeul prezinta o gospodarie taraneasca integrala, originara din Bozanta Mare, veche de peste 300 de ani. Aceasta este compusa din casa cu trei incaperi, colnita, sura, grajd iar in cadrul acestora sunt expuse obiecte si unelte specifice zonei.",
    "name": "Muzeul satului Acasa",
    "name:en": "At Home Village Museum",
    "opening_hours": "by appointment",
    "phone": "(+40) 722250065",
    "ref:codul_entitații_muzeale": "7152200",
    "reviewed": "no",
    "tourism": "museum"
  }
},
{
  "type": "node",
  "id": 6551718829,
  "lat": 47.6577870,
  "lon": 23.5635800,
  "tags": {
    "addr:postcode": "430245",
    "description:en": "The planetarium includes an astronomical observatory with field glasses and telescopes for exploring the cosmos, a complex projection device rendering an accurate image of the sky, as well as a projector for explaining cosmic phenomena. It has a perman...",
    "description:ro": "Infiintat in 1969 ca primul planetariu public din Romania si unicul din Transilvania (pana in prezent), Planetariul Baia Mare – in urma finalizarii Observatorului Astronomic, a devenit incepand cu 1971 un punct nodal de citire si inregistrare a datelor...",
    "email": "planetariul_bm@yahoo.com;planetariubm@gmail.com",
    "fax": "(+40) 362 401921",
    "foundation_date": "1969",
    "name": "Planetariul Baia Mare",
    "name:en": "Planetarium",
    "opening_hours": "9.00; 11.00; 13.00; 15.00; luni: inchis",
    "phone": "(+40) 262.275.206, (+40) 362 401921",
    "ref:codul_entitații_muzeale": "6950507",
    "reviewed": "no",
    "tourism": "museum",
    "website": "https://planetariubm.wordpress.com/"
  }
},
{
  "type": "node",
  "id": 6939046610,
  "lat": 47.6651363,
  "lon": 23.4659091,
  "tags": {
    "contact:phone": "0040-262-293-272; 0040-744-453-697",
    "name:en": "Miklós Kis Miklós Museum in Mistótfalu",
    "name:hu": "Misztótfalusi Kis Miklós múzeum",
    "name:ro": "Muzeul Kis Miklós din Mistótfalu",
    "tourism": "museum",
    "website": "https://www.welcometoromania.eu/DN1c_Halmeu_Rastoci/DN1c_Halmeu_Rastoci_Tautii_Magheraus_Muzeul_Misztotfalusi_m.htm"
  }
},
{
  "type": "way",
  "id": 250236329,
  "nodes": [
    2567165969,
    2567165977,
    2567165948,
    2567165956,
    2567165969
  ],
  "tags": {
    "building": "yes",
    "name": "Muzeul de Mineralogie",
    "tourism": "museum"
  }
},
{
  "type": "way",
  "id": 250236332,
  "nodes": [
    2567165950,
    2567165992,
    2567165976,
    2567165938,
    2567165991,
    2567165988,
    2567165950
  ],
  "tags": {
    "building": "yes",
    "name": "Muzeul de Mineralogie",
    "tourism": "museum"
  }
},
{
  "type": "way",
  "id": 348173667,
  "nodes": [
    3543607693,
    3543607277,
    3543607261,
    3543607476,
    3543607484,
    3543607751,
    3543607761,
    3543607762,
    3543607729,
    3543607699,
    3543607694,
    3543607693
  ],
  "tags": {
    "SIRUTA:code": "136606",
    "addr:city": "Negrești-Oaș",
    "addr:housenumber": "3-5",
    "addr:postcode": "445200",
    "addr:street": "Strada Livezilor",
    "codul_entității_muzeale": "6962501.0",
    "description:en": "The Negresti museum is the only place where the famous pottery of Vama is produced.",
    "description:ro": "Muzeul din Negresti este singurul loc in care se mai produce renumita ceramica de Vama.",
    "email": "oasmuseum@yahoo.com",
    "leisure": "park",
    "name": "Muzeul Țării Oașului",
    "name:en": "Oaș Land Museum",
    "opening_hours": "09:00-17:00;Sa 09:00-14:00, Mo closed",
    "phone": "0261/854.839 (sediu);0261/854.860 (Muzeul in aer liber)",
    "source": "INP",
    "source:link": "http://date.gov.ro/dataset/ghidul-muzeelor-din-romania",
    "start_date": "1966",
    "tourism": "museum",
    "tourism_survey": "31.10.2013 14:48:48",
    "website": "http://www.oasmuseum.ro",
    "wikidata": "Q18544251",
    "wikipedia": "ro:Muzeul Țării Oașului"
  }
},
{
  "type": "way",
  "id": 443628298,
  "nodes": [
    4411831549,
    4411831550,
    4411831551,
    4411831552,
    4411831553,
    4411831554,
    4411831555,
    4411831556,
    4411831557,
    4411831558,
    4411831559,
    4411831560,
    4411831561,
    4411831562,
    4411831549
  ],
  "tags": {
    "building": "yes",
    "name": "Muzeul Județean de Istorie și Arheologie Maramureș",
    "tourism": "museum"
  }
},
{
  "type": "way",
  "id": 443628299,
  "nodes": [
    4411831563,
    4411831564,
    4411831565,
    4411831566,
    4411831567,
    4411831568,
    4411831563
  ],
  "tags": {
    "building": "yes",
    "name": "Muzeul Județean de Istorie și Arheologie Maramureș",
    "tourism": "museum"
  }
},
{
  "type": "way",
  "id": 443628301,
  "nodes": [
    6551718985,
    4411831570,
    4411831571,
    4411831572,
    4411831573,
    4411831574,
    4411831575,
    4411831576,
    4411831577,
    4411831578,
    4411831579,
    4411831580,
    4411831581,
    4411831582,
    4411831583,
    4411831584,
    4411831585,
    6551718985
  ],
  "tags": {
    "addr:postcode": "430165",
    "building": "yes",
    "description:en": "The museum has functioned in the present location since 1971. The exhibition includes three distinct parts, illustrating the main and secondary traditional trades, crafts and technical installations, folk art items: pottery, furniture, domestic utensil...",
    "description:ro": "Muzeul functioneaza in actuala cladire din 1971. Expozitia pavilionara de etnografie si arta populara are trei parti distincte, in care sunt prezentate: ocupatiile traditionale principale si secundare, mestesuguri si instalatii tehnice, obiecte apartin...",
    "email": "office@maramuresmuzeu.ro;muzeumm@yahoo.com",
    "fax": "(+40) 262276333",
    "foundation_date": "1965",
    "name": "Muzeul de Etnografie și Artă Populară;Muzeul de Etnografie si Arta Populara Baia Mare",
    "name:en": "Ethnographic and Folk Art Museum",
    "opening_hours": "9:00 - 17:00",
    "phone": "(+40) 262.276.895;(+40) 262/211.927",
    "ref:codul_entitații_muzeale": "6950502",
    "reviewed": "no",
    "tourism": "museum",
    "website": "http://www.etnografie-maramures.ro/;http://www.tvrplus.ro/editie-romania-in-cinci-minute-muzee-case-memoriale-complexe-muzeale-152406 s http://www.tvrplus.ro/editie-romania-in-cinci-minute-muzee-case-memoriale-complexe-muzeale-151686"
  }
},
{
  "type": "way",
  "id": 443628303,
  "nodes": [
    6181106345,
    6181106335,
    6181106336,
    6181106346,
    6181106341,
    6181106347,
    6181106348,
    6181106349,
    6181106350,
    6181106725,
    6181106351,
    6181107102,
    6181106354,
    6181106353,
    6181106352,
    6181106355,
    6181106356,
    6181106357,
    6181106343,
    4411831593,
    4411831594,
    6181106344,
    6181106342,
    6181106345
  ],
  "tags": {
    "barrier": "fence",
    "leisure": "park",
    "name": "Muzeul Satului",
    "tourism": "museum"
  }
},
{
  "type": "way",
  "id": 731719190,
  "nodes": [
    6852199008,
    6852199009,
    6852199010,
    6852199011,
    6852199012,
    6852199013,
    6852199014,
    6852199006,
    6852199008
  ],
  "tags": {
    "building": "yes",
    "tourism": "museum"
  }
},
{
  "type": "node",
  "id": 3543607277,
  "lat": 47.8687791,
  "lon": 23.4286865
},
{
  "type": "node",
  "id": 3543607693,
  "lat": 47.8693985,
  "lon": 23.4288236
},
{
  "type": "node",
  "id": 3543607694,
  "lat": 47.8694712,
  "lon": 23.4290089
},
{
  "type": "node",
  "id": 3543607261,
  "lat": 47.8686138,
  "lon": 23.4307968
},
{
  "type": "node",
  "id": 3543607476,
  "lat": 47.8692308,
  "lon": 23.4308775
},
{
  "type": "node",
  "id": 3543607484,
  "lat": 47.8692625,
  "lon": 23.4308535
},
{
  "type": "node",
  "id": 3543607699,
  "lat": 47.8696604,
  "lon": 23.4292768
},
{
  "type": "node",
  "id": 3543607729,
  "lat": 47.8697839,
  "lon": 23.4295550
},
{
  "type": "node",
  "id": 3543607751,
  "lat": 47.8697172,
  "lon": 23.4308976
},
{
  "type": "node",
  "id": 3543607761,
  "lat": 47.8698010,
  "lon": 23.4304563
},
{
  "type": "node",
  "id": 3543607762,
  "lat": 47.8698070,
  "lon": 23.4300172
},
{
  "type": "node",
  "id": 2567165938,
  "lat": 47.6505255,
  "lon": 23.5673535
},
{
  "type": "node",
  "id": 2567165948,
  "lat": 47.6505544,
  "lon": 23.5675359
},
{
  "type": "node",
  "id": 2567165950,
  "lat": 47.6506068,
  "lon": 23.5669780
},
{
  "type": "node",
  "id": 2567165956,
  "lat": 47.6507514,
  "lon": 23.5674233
},
{
  "type": "node",
  "id": 2567165969,
  "lat": 47.6505797,
  "lon": 23.5667929
},
{
  "type": "node",
  "id": 2567165976,
  "lat": 47.6504514,
  "lon": 23.5670853
},
{
  "type": "node",
  "id": 2567165977,
  "lat": 47.6503412,
  "lon": 23.5667634
},
{
  "type": "node",
  "id": 2567165988,
  "lat": 47.6506881,
  "lon": 23.5672543
},
{
  "type": "node",
  "id": 2567165991,
  "lat": 47.6506285,
  "lon": 23.5673696
},
{
  "type": "node",
  "id": 2567165992,
  "lat": 47.6505111,
  "lon": 23.5669566
},
{
  "type": "node",
  "id": 6852199006,
  "lat": 47.6582139,
  "lon": 23.5835990
},
{
  "type": "node",
  "id": 6852199008,
  "lat": 47.6581763,
  "lon": 23.5834826
},
{
  "type": "node",
  "id": 6852199009,
  "lat": 47.6581021,
  "lon": 23.5835269
},
{
  "type": "node",
  "id": 6852199010,
  "lat": 47.6580533,
  "lon": 23.5833606
},
{
  "type": "node",
  "id": 6852199011,
  "lat": 47.6579576,
  "lon": 23.5834116
},
{
  "type": "node",
  "id": 6852199012,
  "lat": 47.6579847,
  "lon": 23.5835269
},
{
  "type": "node",
  "id": 6852199013,
  "lat": 47.6577842,
  "lon": 23.5836530
},
{
  "type": "node",
  "id": 6852199014,
  "lat": 47.6578438,
  "lon": 23.5838408
},
{
  "type": "node",
  "id": 4411831570,
  "lat": 47.6661157,
  "lon": 23.5763473
},
{
  "type": "node",
  "id": 4411831571,
  "lat": 47.6660466,
  "lon": 23.5763331
},
{
  "type": "node",
  "id": 4411831572,
  "lat": 47.6660276,
  "lon": 23.5762942
},
{
  "type": "node",
  "id": 4411831573,
  "lat": 47.6659823,
  "lon": 23.5763154
},
{
  "type": "node",
  "id": 4411831574,
  "lat": 47.6659251,
  "lon": 23.5761101
},
{
  "type": "node",
  "id": 4411831575,
  "lat": 47.6658488,
  "lon": 23.5761561
},
{
  "type": "node",
  "id": 4411831576,
  "lat": 47.6659084,
  "lon": 23.5763650
},
{
  "type": "node",
  "id": 4411831577,
  "lat": 47.6658702,
  "lon": 23.5763897
},
{
  "type": "node",
  "id": 4411831578,
  "lat": 47.6659894,
  "lon": 23.5768428
},
{
  "type": "node",
  "id": 4411831579,
  "lat": 47.6660371,
  "lon": 23.5768286
},
{
  "type": "node",
  "id": 4411831580,
  "lat": 47.6660895,
  "lon": 23.5770409
},
{
  "type": "node",
  "id": 4411831581,
  "lat": 47.6661563,
  "lon": 23.5769949
},
{
  "type": "node",
  "id": 4411831582,
  "lat": 47.6661062,
  "lon": 23.5767861
},
{
  "type": "node",
  "id": 4411831583,
  "lat": 47.6661467,
  "lon": 23.5767684
},
{
  "type": "node",
  "id": 4411831584,
  "lat": 47.6661229,
  "lon": 23.5766410
},
{
  "type": "node",
  "id": 4411831585,
  "lat": 47.6663422,
  "lon": 23.5765844
},
{
  "type": "node",
  "id": 6181106341,
  "lat": 47.6673129,
  "lon": 23.5766092
},
{
  "type": "node",
  "id": 6181106346,
  "lat": 47.6673626,
  "lon": 23.5770571
},
{
  "type": "node",
  "id": 6181106347,
  "lat": 47.6666283,
  "lon": 23.5769284
},
{
  "type": "node",
  "id": 6181106348,
  "lat": 47.6662887,
  "lon": 23.5780039
},
{
  "type": "node",
  "id": 6181106349,
  "lat": 47.6659500,
  "lon": 23.5792659
},
{
  "type": "node",
  "id": 6181106350,
  "lat": 47.6659708,
  "lon": 23.5794295
},
{
  "type": "node",
  "id": 6181106351,
  "lat": 47.6666662,
  "lon": 23.5796119
},
{
  "type": "node",
  "id": 6181106725,
  "lat": 47.6663196,
  "lon": 23.5795210
},
{
  "type": "node",
  "id": 6181107102,
  "lat": 47.6673382,
  "lon": 23.5796294
},
{
  "type": "node",
  "id": 6551718985,
  "lat": 47.6662731,
  "lon": 23.5762694
},
{
  "type": "node",
  "id": 4411831594,
  "lat": 47.6688233,
  "lon": 23.5783646
},
{
  "type": "node",
  "id": 6181106335,
  "lat": 47.6677591,
  "lon": 23.5769995
},
{
  "type": "node",
  "id": 6181106336,
  "lat": 47.6676407,
  "lon": 23.5770008
},
{
  "type": "node",
  "id": 6181106342,
  "lat": 47.6681302,
  "lon": 23.5770544
},
{
  "type": "node",
  "id": 6181106344,
  "lat": 47.6686188,
  "lon": 23.5772985
},
{
  "type": "node",
  "id": 6181106345,
  "lat": 47.6678385,
  "lon": 23.5770263
},
{
  "type": "node",
  "id": 4411831549,
  "lat": 47.6617824,
  "lon": 23.5809765
},
{
  "type": "node",
  "id": 4411831550,
  "lat": 47.6616680,
  "lon": 23.5810190
},
{
  "type": "node",
  "id": 4411831551,
  "lat": 47.6616775,
  "lon": 23.5812844
},
{
  "type": "node",
  "id": 4411831552,
  "lat": 47.6617538,
  "lon": 23.5812880
},
{
  "type": "node",
  "id": 4411831553,
  "lat": 47.6619278,
  "lon": 23.5827497
},
{
  "type": "node",
  "id": 4411831554,
  "lat": 47.6617943,
  "lon": 23.5827391
},
{
  "type": "node",
  "id": 4411831555,
  "lat": 47.6617920,
  "lon": 23.5824453
},
{
  "type": "node",
  "id": 4411831556,
  "lat": 47.6616966,
  "lon": 23.5824488
},
{
  "type": "node",
  "id": 4411831557,
  "lat": 47.6617038,
  "lon": 23.5829231
},
{
  "type": "node",
  "id": 4411831558,
  "lat": 47.6620828,
  "lon": 23.5829196
},
{
  "type": "node",
  "id": 4411831559,
  "lat": 47.6619850,
  "lon": 23.5822931
},
{
  "type": "node",
  "id": 4411831560,
  "lat": 47.6620518,
  "lon": 23.5822613
},
{
  "type": "node",
  "id": 4411831561,
  "lat": 47.6620303,
  "lon": 23.5821551
},
{
  "type": "node",
  "id": 4411831562,
  "lat": 47.6619660,
  "lon": 23.5821728
},
{
  "type": "node",
  "id": 4411831563,
  "lat": 47.6616132,
  "lon": 23.5813623
},
{
  "type": "node",
  "id": 4411831564,
  "lat": 47.6615512,
  "lon": 23.5814154
},
{
  "type": "node",
  "id": 4411831565,
  "lat": 47.6616299,
  "lon": 23.5817445
},
{
  "type": "node",
  "id": 4411831566,
  "lat": 47.6616370,
  "lon": 23.5820843
},
{
  "type": "node",
  "id": 4411831567,
  "lat": 47.6617085,
  "lon": 23.5820878
},
{
  "type": "node",
  "id": 4411831568,
  "lat": 47.6617109,
  "lon": 23.5817410
},
{
  "type": "node",
  "id": 6181106352,
  "lat": 47.6674642,
  "lon": 23.5801933
},
{
  "type": "node",
  "id": 6181106353,
  "lat": 47.6674673,
  "lon": 23.5800920
},
{
  "type": "node",
  "id": 6181106354,
  "lat": 47.6673283,
  "lon": 23.5800827
},
{
  "type": "node",
  "id": 4411831593,
  "lat": 47.6689353,
  "lon": 23.5810096
},
{
  "type": "node",
  "id": 6181106343,
  "lat": 47.6685123,
  "lon": 23.5811368
},
{
  "type": "node",
  "id": 6181106355,
  "lat": 47.6679406,
  "lon": 23.5802007
},
{
  "type": "node",
  "id": 6181106356,
  "lat": 47.6679144,
  "lon": 23.5807478
},
{
  "type": "node",
  "id": 6181106357,
  "lat": 47.6681366,
  "lon": 23.5808605
}

  ]
}
