{
  "version": 0.6,
  "generator": "Overpass API 0.7.55.9 ab41fea6",
  "osm3s": {
    "timestamp_osm_base": "2020-02-14T10:48:02Z",
    "copyright": "The data included in this document is from www.openstreetmap.org. The data is made available under ODbL."
  },
  "elements": [

{
  "type": "node",
  "id": 274868855,
  "lat": 47.5977863,
  "lon": 9.5387664,
  "tags": {
    "addr:city": "Langenargen",
    "addr:country": "DE",
    "addr:housenumber": "20",
    "addr:postcode": "88085",
    "addr:street": "Marktplatz",
    "description": "Kunstmuseum",
    "name": "Museum Langenargen",
    "opening_hours": "Apr-Oct: Tu-Su 10:00-12:00, 14:00-17:00",
    "phone": "+49 7543 2200",
    "tourism": "museum",
    "website": "http://museum-langenargen.de",
    "wheelchair": "no"
  }
},
{
  "type": "node",
  "id": 296978840,
  "lat": 47.6727450,
  "lon": 8.9613718,
  "tags": {
    "addr:city": "Gaienhofen",
    "addr:country": "DE",
    "addr:housenumber": "6",
    "addr:postcode": "78343",
    "addr:street": "Otto-Dix-Weg",
    "description": "Kunstmuseum",
    "email": "dix@kunstmuseum-stuttgart.de",
    "name": "Otto-Dix-Haus",
    "opening_hours": "Tu-Su 11:00-18:00; Nov-Feb off",
    "phone": "+49 (0)7735 93 71 60",
    "tourism": "museum",
    "website": "http://www.museum-haus-dix.de"
  }
},
{
  "type": "node",
  "id": 304838044,
  "lat": 47.6887466,
  "lon": 9.0803775,
  "tags": {
    "name": "Museum St. Georg",
    "tourism": "museum",
    "website": "http://www.museumreichenau.de/index.php?id=2",
    "wheelchair": "yes"
  }
},
{
  "type": "node",
  "id": 337910395,
  "lat": 47.4244674,
  "lon": 9.3350416,
  "tags": {
    "name": "Ortsmuseum Gaiserwald",
    "toilets:wheelchair": "no",
    "tourism": "museum",
    "wheelchair": "no"
  }
},
{
  "type": "node",
  "id": 343831971,
  "lat": 47.7034490,
  "lon": 9.5491105,
  "tags": {
    "name": "Museum im Schloss",
    "tourism": "museum",
    "wheelchair": "no"
  }
},
{
  "type": "node",
  "id": 366910826,
  "lat": 47.6718997,
  "lon": 9.5886357,
  "tags": {
    "addr:city": "Tettnang",
    "addr:country": "DE",
    "addr:housenumber": "43",
    "addr:postcode": "88069",
    "addr:street": "Montfortstraße",
    "description": "Kulturgeschichtliches Museum",
    "name": "Montfort-Museum im Torschloss",
    "opening_hours": "Apr-Oct: Tu-Su 14:00-18:00",
    "phone": "+49 7542 510150",
    "tourism": "museum",
    "wheelchair": "no"
  }
},
{
  "type": "node",
  "id": 369025176,
  "lat": 47.6900076,
  "lon": 9.6160148,
  "tags": {
    "addr:city": "Tettnang",
    "addr:country": "DE",
    "addr:housenumber": "20",
    "addr:postcode": "88069",
    "addr:street": "Hopfengut",
    "addr:suburb": "Siggenweiler",
    "contact:email": "mail@hopfengut.de",
    "contact:fax": "+49 7542 953553",
    "contact:phone": "+49 7542 952206",
    "contact:website": "http://www.hopfengut.de/",
    "name": "Hopfenmuseum",
    "opening_hours": "Apr-Oct: Mo off; Apr-Oct: Tu-Su 10:30-17:00",
    "operator": "Hopfengut No20 GbR",
    "tourism": "museum",
    "website": "https://www.hopfengut.de",
    "wheelchair": "no"
  }
},
{
  "type": "node",
  "id": 371530037,
  "lat": 47.4310540,
  "lon": 9.1191110,
  "tags": {
    "name": "Ortsmuseum Oberuzwil",
    "tourism": "museum"
  }
},
{
  "type": "node",
  "id": 373868024,
  "lat": 47.4233859,
  "lon": 9.3735915,
  "tags": {
    "addr:city": "St. Gallen",
    "addr:country": "CH",
    "addr:housenumber": "2",
    "addr:postcode": "9000",
    "addr:street": "Kornhausstrasse",
    "description": "Kulturgeschichtliches Museum",
    "email": "info@textilmuseum.ch",
    "name": "Textilmuseum",
    "name:de": "Textilmuseum",
    "name:zh": "纺织品博物馆",
    "opening_hours": "10:00-17:00",
    "phone": "+41 (0)71 222 17 44",
    "tourism": "museum",
    "website": "https://www.textilmuseum.ch/",
    "wikidata": "Q1675727"
  }
},
{
  "type": "node",
  "id": 386231465,
  "lat": 47.3605821,
  "lon": 9.0724278,
  "tags": {
    "name": "Ortsmuseum",
    "tourism": "museum"
  }
},
{
  "type": "node",
  "id": 415220224,
  "lat": 47.5837617,
  "lon": 8.8662887,
  "tags": {
    "addr:city": "Warth",
    "addr:country": "CH",
    "addr:postcode": "8532",
    "addr:street": "Kartause Ittingen",
    "description": "Kunstmuseum",
    "email": "kunstmuseum@tg.ch",
    "name": "Kunstmuseum Thurgau",
    "opening_hours": "Apr-Sep: Mo-Fr 14:00-18:00, Sa-Su 11:00-18:00; Oct-Mar: Mo-Fr 14:00-17:00, Sa-Su 11:00-17:00",
    "phone": "+41(0)527484120",
    "tourism": "museum",
    "website": "http://www.kunstmuseum.ch",
    "wikidata": "Q1792557"
  }
},
{
  "type": "node",
  "id": 427927753,
  "lat": 47.7646250,
  "lon": 9.5968813,
  "tags": {
    "addr:city": "Ravensburg",
    "addr:housenumber": "7",
    "addr:postcode": "88214",
    "addr:street": "Torplatz",
    "lastcheck": "2017-02-06",
    "name": "Heimatmuseum Eschach",
    "opening_hours": "\"nach Vereinbarung\"",
    "tourism": "museum"
  }
},
{
  "type": "node",
  "id": 473115740,
  "lat": 47.7672490,
  "lon": 8.8186220,
  "tags": {
    "addr:city": "Singen",
    "addr:country": "DE",
    "addr:housenumber": "2a",
    "addr:postcode": "78224",
    "addr:street": "Hohentwiel",
    "description": "Schlossmuseum",
    "email": "info@festungsruine-hohentwiel.de",
    "name": "Festungsruine Hohentwiel",
    "opening_hours": "Mar 16 - Mar 31: 10:00-18:00; Apr 01 - Sep 15: 9:00-19:30; Sep 16 - Oct 31: 10:00-18:00; Nov 01 - Mar 15: 11:00-16:00 \"Letzter Einlass 1 Stunde vor Schluss\"",
    "phone": "+49 7731 69178",
    "tourism": "museum",
    "website": "https://www.schloesser-und-gaerten.de/",
    "wheelchair": "no"
  }
},
{
  "type": "node",
  "id": 474973990,
  "lat": 47.6488189,
  "lon": 9.1890795,
  "tags": {
    "addr:city": "Kreuzlingen",
    "addr:country": "CH",
    "addr:housenumber": "3",
    "addr:postcode": "8280",
    "addr:street": "Seeweg",
    "description": "Kulturgeschichtliches Museum",
    "ele": "403.8765869",
    "email": "info@seemuseum.ch",
    "name": "Seemuseum",
    "opening_hours": "Jul-Sep: Tu-Su 14:00-17:00; Apr-Jun,Oct: We,Sa,Su 14:00-17:00; Nov-Mar: Su 14:00-17:00",
    "phone": "+41716885242",
    "tourism": "museum",
    "website": "http://www.seemuseum.ch/",
    "wheelchair": "limited",
    "wpt_description": "23-AUG-09 14:59:56"
  }
},
{
  "type": "node",
  "id": 520412146,
  "lat": 47.4389058,
  "lon": 9.2784184,
  "tags": {
    "name": "Ortsmuseum",
    "tourism": "museum"
  }
},
{
  "type": "node",
  "id": 570938410,
  "lat": 47.6806446,
  "lon": 8.9770239,
  "tags": {
    "addr:city": "Gaienhofen",
    "addr:country": "DE",
    "addr:housenumber": "2",
    "addr:postcode": "78343",
    "addr:street": "Hermann-Hesse-Weg",
    "description": "Kulturgeschichtliches Gebäude",
    "email": "info@hermann-hesse-haus.de",
    "name": "Hermann-Hesse-Haus",
    "opening_hours": "\"nach tel. Anmeldung\"",
    "phone": "+49 773 581837",
    "tourism": "museum",
    "website": "https://www.hermann-hesse-haus.de",
    "wheelchair": "no"
  }
},
{
  "type": "node",
  "id": 571834911,
  "lat": 47.6588972,
  "lon": 9.1709442,
  "tags": {
    "addr:city": "Konstanz",
    "addr:country": "DE",
    "addr:housenumber": "64",
    "addr:postcode": "78462",
    "addr:street": "Hussenstraße",
    "description": "Historisches Museum",
    "email": "hus-museum@t-online.de",
    "name": "Hus-Haus",
    "name:cs": "Muzeum Jana Husa",
    "name:cz": "Dům pobytu Mistra Jana Husa",
    "name:de": "Hus-Haus",
    "name:sk": "Husovo múzeum",
    "opening_hours": "Tu-Su 11:00-16:00",
    "phone": "+49 7531 29042",
    "toilets:wheelchair": "no",
    "tourism": "museum",
    "website": "https://www.konstanz.de/tourismus/01434/01435/01648/index.html",
    "wheelchair": "no"
  }
},
{
  "type": "node",
  "id": 574116926,
  "lat": 47.6584679,
  "lon": 8.8602389,
  "tags": {
    "addr:city": "Stein am Rhein",
    "addr:housenumber": "3",
    "addr:postcode": "8260",
    "addr:street": "Fischmarkt",
    "email": "klostermuseum@bak.admin.ch",
    "name": "Klostermuseum St. Georgen",
    "name:de": "Klostermuseum Sankt Georgen",
    "opening_hours": "Tu-Su 10:00-17:00",
    "phone": "+41 52 741 21 42",
    "tourism": "museum",
    "website": "https://www.klostersanktgeorgen.ch/",
    "wheelchair": "limited",
    "wikidata": "Q27489025"
  }
},
{
  "type": "node",
  "id": 746347753,
  "lat": 47.7114867,
  "lon": 9.2900870,
  "tags": {
    "name": "Lehrbienenstand",
    "tourism": "museum"
  }
},
{
  "type": "node",
  "id": 914459325,
  "lat": 47.6603391,
  "lon": 8.9288266,
  "tags": {
    "addr:city": "Öhningen",
    "addr:country": "DE",
    "addr:housenumber": "1a",
    "addr:postcode": "78337",
    "addr:street": "Seeweg",
    "addr:suburb": "Wangen",
    "description": "Kulturgeschichtliches Museum",
    "email": "info@museum-fischerhaus.de",
    "name": "Museum Fischerhaus",
    "opening_hours": "easter-Oct 15: Tu-Sa 11:00-17:00, SU,PH 14:00-17:00 || \"Sonderöffnungen und Führungen nach telefonischer Vereinbarung\"",
    "phone": "+49 773 5937316",
    "tourism": "museum",
    "website": "http://www.museum-fischerhaus.de",
    "wheelchair": "no",
    "wikidata": "Q76631731"
  }
},
{
  "type": "node",
  "id": 959680107,
  "lat": 47.4218661,
  "lon": 9.3661157,
  "tags": {
    "name": "Lokremise Kunstzone",
    "tourism": "museum",
    "wheelchair": "yes"
  }
},
{
  "type": "node",
  "id": 972117086,
  "lat": 47.5522750,
  "lon": 8.7953588,
  "tags": {
    "addr:city": "Rickenbach (ZH)",
    "addr:housenumber": "1",
    "addr:postcode": "8545",
    "addr:street": "Dorfstrasse",
    "name": "Ortsmuseum Hanselispycher",
    "tourism": "museum"
  }
},
{
  "type": "node",
  "id": 1103193531,
  "lat": 47.6597902,
  "lon": 9.1747647,
  "tags": {
    "addr:city": "Konstanz",
    "addr:country": "DE",
    "addr:housenumber": "3-5",
    "addr:postcode": "78462",
    "addr:street": "Rosgartenstraße",
    "description": "Kulturgeschichtliches Museum",
    "name": "Rosgartenmuseum",
    "opening_hours": "Tu-Fr 10:00-18:00; Sa-Su 10:00-17:00",
    "phone": "+49 753 1900245",
    "toilets:wheelchair": "no",
    "tourism": "museum",
    "website": "http://www.rosgartenmuseum-konstanz.de",
    "wheelchair": "limited",
    "wheelchair:description": "Stufen vorhanden, aber mit Rampe zugänglich",
    "wikidata": "Q2167344"
  }
},
{
  "type": "node",
  "id": 1110267734,
  "lat": 47.8440550,
  "lon": 8.9033250,
  "tags": {
    "addr:city": "Orsingen-Nenzingen",
    "addr:country": "DE",
    "addr:housenumber": "4",
    "addr:postcode": "78359",
    "addr:street": "Langenstein-Schloß",
    "description": "Kulturgeschichtliches Museum",
    "name": "Fasnachtsmuseum Schloß Langenstein",
    "opening_hours": "May 1 - Oct 31: We-Sa 13:00-17:00, Su,PH 10:00-17:00; Nov 1 - Apr 30: We,Sa-Su,PH 13:00-17:00; Dec 1 - easter-47 days: \"Closed\"",
    "phone": "+49(0)7771920126",
    "tourism": "museum",
    "website": "https://www.fasnachtsmuseum.de/",
    "wheelchair": "no",
    "wikidata": "Q47496492"
  }
},
{
  "type": "node",
  "id": 1110272856,
  "lat": 47.8516658,
  "lon": 9.0120164,
  "tags": {
    "addr:city": "Stockach",
    "addr:country": "DE",
    "addr:housenumber": "1",
    "addr:postcode": "78333",
    "addr:street": "Salmannsweilerstraße",
    "description": "Kulturgeschichtliches Museum, Stadtbibliothek",
    "email": "stadtmuseum@stockach.de",
    "name": "Stadtmuseum Stockach",
    "opening_hours": "Tu 9:00-17:00; Th 09:00-12:00, 14:00-19:00; Fr 14:00-17:00; Sa 09:00-13:00",
    "operator": "Stadt Stockach",
    "phone": "+49 7771802303",
    "tourism": "museum",
    "website": "https://www.stockach.de",
    "wikidata": "Q50180580"
  }
},
{
  "type": "node",
  "id": 1110380868,
  "lat": 47.7367832,
  "lon": 8.9689419,
  "tags": {
    "addr:city": "Radolfzell am Bodensee",
    "addr:country": "DE",
    "addr:housenumber": "3",
    "addr:postcode": "78315",
    "addr:street": "Seetorstraße",
    "description": "Kulturgeschichtliches Museum",
    "email": "museum@radolfzell.de",
    "name": "Stadtmuseum Radolfzell in der alten Stadtapotheke",
    "opening_hours": "Tu-Su,PH 10:00-12:30,14:00-17:30",
    "phone": "+49 7732 81530",
    "toilets:wheelchair": "yes",
    "tourism": "museum",
    "website": "http://www.stadtmuseum-radolfzell.de",
    "wheelchair": "limited",
    "wheelchair:description": "Dachgeschoss nicht barrierefrei erreichbar"
  }
},
{
  "type": "node",
  "id": 1113032131,
  "lat": 47.6632655,
  "lon": 9.1750556,
  "tags": {
    "addr:city": "Konstanz",
    "addr:country": "DE",
    "addr:housenumber": "43",
    "addr:postcode": "78462",
    "addr:street": "Wessenbergstraße",
    "description": "Kunstmuseum",
    "email": "StarkB@stadt.konstanz.de",
    "name": "Städtische Wessenberg Galerie",
    "opening_hours": "Tu-Fr 10:00-18:00; Sa,Su,PH 10:00-17:00",
    "operator": "Stadt Konstanz",
    "phone": "+49 7531 900 376",
    "toilets:wheelchair": "yes",
    "tourism": "museum",
    "website": "https://www.konstanz.de/wessenberg/",
    "wheelchair": "yes",
    "wikidata": "Q15849542",
    "wikipedia": "de:Städtische Wessenberg-Galerie"
  }
},
{
  "type": "node",
  "id": 1116942926,
  "lat": 47.5595954,
  "lon": 9.3771898,
  "tags": {
    "name": "Bahnerlebniswelt Locorama",
    "tourism": "museum"
  }
},
{
  "type": "node",
  "id": 1117299178,
  "lat": 47.7767285,
  "lon": 9.2783222,
  "tags": {
    "addr:city": "Salem",
    "addr:housenumber": "1",
    "addr:postcode": "88682",
    "addr:street": "Schlossbezirk",
    "description": "Großmuseum mit versch. Sparten",
    "email": "schloss@salem.de",
    "name": "Schloß Salem",
    "opening_hours": "Apr 1 - Nov 1: Mo-Sa 09:30-18:00; Su,PH 10:30-18:00",
    "phone": "+49 7553 9165336",
    "toilets:wheelchair": "yes",
    "tourism": "museum",
    "website": "https://www.salem.de/",
    "wheelchair": "limited"
  }
},
{
  "type": "node",
  "id": 1123339498,
  "lat": 47.6935428,
  "lon": 9.2720443,
  "tags": {
    "addr:city": "Meersburg",
    "addr:country": "DE",
    "addr:housenumber": "12",
    "addr:postcode": "88709",
    "addr:street": "Schloßplatz",
    "description": "Schlossmuseum",
    "email": "kulturamt@meersburg.de",
    "name": "Neues Schloss",
    "phone": "+49 7532 4404900",
    "tourism": "museum",
    "website": "https://www.meersburg.de/",
    "wheelchair": "yes"
  }
},
{
  "type": "node",
  "id": 1123409332,
  "lat": 47.6949478,
  "lon": 9.2721089,
  "tags": {
    "addr:city": "Meersburg",
    "addr:country": "DE",
    "addr:housenumber": "4",
    "addr:postcode": "88709",
    "addr:street": "Kirchstraße",
    "description": "Kulturgeschichtliches Museum",
    "email": "kulturamt@meersburg.de",
    "name": "Stadtmuseum im Dominikanerinnenkloster",
    "opening_hours": "Apr - Oct: We-Th,Sa 14:00-18:00",
    "phone": "+49 7532 4404801",
    "tourism": "museum",
    "website": "https://www.meersburg.de/158"
  }
},
{
  "type": "node",
  "id": 1123424275,
  "lat": 47.6726515,
  "lon": 9.3524953,
  "tags": {
    "contact:email": "heimatverein-immenstaad@t-online.de",
    "contact:phone": "+49 7545 1766",
    "contact:website": "http://www.koenig-immenstaad.privat.t-online.de/heimatverein/",
    "description": "Kulturgeschichtliches Museum",
    "name": "Heimatmuseum Immenstaad",
    "tourism": "museum"
  }
},
{
  "type": "node",
  "id": 1123427465,
  "lat": 47.6521710,
  "lon": 9.4691392,
  "tags": {
    "addr:city": "Friedrichshafen",
    "addr:country": "DE",
    "addr:housenumber": "14",
    "addr:postcode": "88045",
    "addr:street": "Friedrichstraße",
    "description": "Kulturgeschichtliches Museum",
    "email": "info@schulmuseum-fn.de",
    "name": "Schulmuseum",
    "opening_hours": "Apr-Oct: 10:00-17:00; Nov-Mar: Tu-Su 14:00-17:00",
    "phone": "+49 7541 32622",
    "tourism": "museum",
    "website": "https://www.schulmuseum-fn.de/",
    "wheelchair": "no",
    "wikidata": "Q10000136",
    "wikipedia": "de:Schulmuseum Friedrichshafen"
  }
},
{
  "type": "node",
  "id": 1124717004,
  "lat": 47.6698344,
  "lon": 9.5849111,
  "tags": {
    "addr:city": "Tettnang",
    "addr:country": "DE",
    "addr:housenumber": "1",
    "addr:postcode": "88069",
    "addr:street": "Montfortplatz",
    "description": "Schlossmuseum",
    "email": "tourist-info@tettnang.de",
    "name": "Neues Schloss Tettnang",
    "note": "Schlossbesichtigung nur mit Führung möglich (Stündliche Führung)",
    "phone": "+49 7542 952555",
    "service_times": "Apr-Oct: Th-Tu 11:00-17:00",
    "tourism": "museum",
    "website": "http://www.tettnang.de",
    "wheelchair": "no",
    "wikidata": "Q76632137"
  }
},
{
  "type": "node",
  "id": 1124886695,
  "lat": 47.3729261,
  "lon": 9.3446142,
  "tags": {
    "addr:city": "Stein AR",
    "addr:country": "CH",
    "addr:postcode": "9063",
    "addr:street": "Dorf",
    "description": "Kulturgeschichtliches Museum",
    "email": "info@avm-stein.ch",
    "name": "Appenzeller Volkskunde-Museum",
    "opening_hours": "Tu-Su 10:00-17:00 \"Führungen und Extraöffnungen auf Anfrage\"",
    "phone": "+41 (0)71 368 50 58",
    "tourism": "museum",
    "website": "http://www.avm-stein.ch",
    "wikidata": "Q19362445"
  }
},
{
  "type": "node",
  "id": 1129235632,
  "lat": 47.3855660,
  "lon": 9.2788911,
  "tags": {
    "addr:city": "Herisau",
    "addr:country": "CH",
    "addr:housenumber": "Postfach 1221",
    "addr:postcode": "9102",
    "addr:street": "Platz",
    "description": "Kulturgeschichtliches Museum",
    "email": "info@museumherisau.ch",
    "name": "Museum Herisau",
    "opening_hours": "May-Dec: We-Su 13:00-17:00; easter+50 days 13:00-17:00 || \"für Gruppen auf Anfrage Führungen nach Vereinbarung\"",
    "phone": "+41 (0)79 377 34 43",
    "tourism": "museum",
    "website": "http://www.museumherisau.ch",
    "wheelchair": "no",
    "wikidata": "Q19362436"
  }
},
{
  "type": "node",
  "id": 1129245030,
  "lat": 47.4771861,
  "lon": 9.3771318,
  "tags": {
    "addr:city": "Wittenbach",
    "addr:country": "CH",
    "addr:housenumber": "661",
    "addr:postcode": "9300",
    "addr:street": "Schloss Dottenwil",
    "description": "Kulturgeschichtliches Museum",
    "email": "info@dottenwil.ch",
    "name": "Museen in Wittenbach im Schloss Dottenwil",
    "opening_hours": "Sa 14:00-20:00, Su 10:00-18:00; Sa[3] 14:00-23:00 open \"Kulturabend\"",
    "phone": "+41 (0)71 298 26 62",
    "tourism": "museum",
    "website": "https://www.dottenwil.ch/"
  }
},
{
  "type": "node",
  "id": 1129249504,
  "lat": 47.5158821,
  "lon": 9.4366511,
  "tags": {
    "addr:city": "Arbon",
    "addr:country": "CH",
    "addr:postcode": "9320",
    "addr:street": "Schloss Arbon",
    "description": "Historisches Museum",
    "email": "h.geisser@freesurf.ch",
    "name": "Historisches Museum Schloss Arbon",
    "opening_hours": "May-Sep: 14:00-17:00 \"Führungen gegen Voranmeldung jederzeit möglich.\"; Mar,Apr,Oct,Nov: Su 14:00-17:00 \"Führungen gegen Voranmeldung jederzeit möglich.\"",
    "phone": "+41 (0)71 446 60 10",
    "tourism": "museum",
    "website": "https://www.arbon.ch/freizeit_tourismus/museum-galerie/historisches_museum_schloss_arbon",
    "wikidata": "Q27479514"
  }
},
{
  "type": "node",
  "id": 1129291980,
  "lat": 47.4936424,
  "lon": 9.2402887,
  "tags": {
    "addr:city": "Bischofszell",
    "addr:country": "CH",
    "addr:housenumber": "4/6",
    "addr:postcode": "9220",
    "addr:street": "Marktgasse",
    "description": "Kulturgeschichtliches Museum",
    "email": "museum.bischofszell@bluewin.ch",
    "name": "Museum Bischofszell",
    "opening_hours": "Feb 1-Dec 15: Su 14:00-17:00 || \"Führungen jederzeit auf Anfrage\"",
    "phone": "+41 (0)71 422 38 91",
    "tourism": "museum",
    "website": "http://www.museum-bischofszell.ch/"
  }
},
{
  "type": "node",
  "id": 1129293450,
  "lat": 47.4676158,
  "lon": 9.0500008,
  "tags": {
    "addr:city": "Wil",
    "addr:country": "CH",
    "addr:housenumber": "88",
    "addr:postcode": "9500",
    "addr:street": "Marktgasse",
    "description": "Kulturgeschichtliches Museum",
    "email": "stadtmuseum@wilerbuerger.ch",
    "name": "Stadtmuseum Wil",
    "opening_hours": "Sa, Su 14:00-17:00 || \"nach Absprache\"",
    "phone": "+41 (0)71 912 41 35",
    "tourism": "museum",
    "website": "http://www.wilerbuerger.ch",
    "wikidata": "Q27489831"
  }
},
{
  "type": "node",
  "id": 1129297282,
  "lat": 47.5564574,
  "lon": 8.8984937,
  "tags": {
    "addr:city": "Frauenfeld",
    "addr:country": "CH",
    "addr:housenumber": "24",
    "addr:postcode": "8510",
    "addr:street": "Freiestrasse",
    "description": "Archäologisches Museum",
    "email": "archaeologie@tg.ch",
    "name": "Museum für Archäologie des Kantons Thurgau",
    "opening_hours": "Mo off; Tu-Sa 14:00-17:00; Su 12:00-17:00",
    "phone": "+41 52 724 22 19",
    "tourism": "museum",
    "website": "https://archaeologie.tg.ch/",
    "wikidata": "Q55504238",
    "wikipedia": "de:Museum für Archäologie Thurgau"
  }
},
{
  "type": "node",
  "id": 1129298047,
  "lat": 47.5565939,
  "lon": 8.8986052,
  "tags": {
    "addr:city": "Frauenfeld",
    "addr:country": "CH",
    "addr:housenumber": "26",
    "addr:postcode": "8510",
    "addr:street": "Freiestrasse",
    "description": "Naturmuseum",
    "name": "Naturmuseum des Kantons Thurgau",
    "opening_hours": "Tu-Sa 14:00-17:00; Su 12:00-17:00; Mo off; \"Schulklassen vormittags nach Voranmeldung\"",
    "phone": "+41 52 724 22 19",
    "tourism": "museum",
    "website": "https://naturmuseum.tg.ch/",
    "wikidata": "Q15836395",
    "wikipedia": "de:Naturmuseum Thurgau"
  }
},
{
  "type": "node",
  "id": 1129306887,
  "lat": 47.5552511,
  "lon": 8.8968035,
  "tags": {
    "addr:city": "Frauenfeld",
    "addr:country": "CH",
    "addr:postcode": "8510",
    "addr:street": "Rathausplatz",
    "description": "Historisches Museum",
    "email": "alexander.leumann@tg.ch",
    "name": "Historisches Museum Thurgau",
    "opening_hours": "Tu-Su 14:00-17:00",
    "phone": "+41 52 724 25 20",
    "tourism": "museum",
    "website": "https://historisches-museum.tg.ch/",
    "wikidata": "Q27480235"
  }
},
{
  "type": "node",
  "id": 1129313603,
  "lat": 47.5835661,
  "lon": 8.8663610,
  "tags": {
    "addr:city": "Warth",
    "addr:country": "CH",
    "addr:postcode": "8532",
    "addr:street": "Kartause Ittingen",
    "description": "Kulturgeschichtliches Museum",
    "email": "kunstmuseum@tg.ch",
    "name": "Ittinger Museum",
    "opening_hours": "Apr-Sep: Mo-Fr 14:00-18:00, Sa-Su 11:00-18:00; Oct-Mar: Mo-Fr 14:00-17:00, Sa-Su 11:00-17:00",
    "phone": "+41(0)527484120",
    "tourism": "museum",
    "website": "https://ittingermuseum.tg.ch/"
  }
},
{
  "type": "node",
  "id": 1129315409,
  "lat": 47.6443593,
  "lon": 9.1721196,
  "tags": {
    "addr:city": "Kreuzlingen",
    "addr:country": "CH",
    "addr:housenumber": "6",
    "addr:postcode": "8280",
    "addr:street": "Bärenstrasse",
    "description": "Kulturgeschichtliches Museum",
    "email": "info@museumrosenegg.ch",
    "name": "Museum Rosenegg",
    "opening_hours": "We 17:00-19:00; Su 14:00-17:00; Mo-Tu,Th-Sa off",
    "phone": "+41 716728151",
    "tourism": "museum",
    "website": "https://www.museumrosenegg.ch/",
    "wheelchair": "limited"
  }
},
{
  "type": "node",
  "id": 1129328125,
  "lat": 47.6726822,
  "lon": 9.0592034,
  "tags": {
    "addr:city": "Salenstein",
    "addr:country": "CH",
    "addr:postcode": "8268",
    "addr:street": "Schloss Arenberg",
    "description": "Schlossmuseum",
    "email": "napoleonmuseum@tg.ch",
    "name": "Napoleonmuseum",
    "opening_hours": "Tu-Su 10:00-17:00; Apr 1-Oct 15: Mo 13:00-17:00, Tu-Su 10:00-17:00; Dec 25 - Jan 15: closed",
    "phone": "+41(0)716633260",
    "tourism": "museum",
    "website": "http://www.napoleonmuseum.ch"
  }
},
{
  "type": "node",
  "id": 1129331221,
  "lat": 47.6737997,
  "lon": 9.0158427,
  "tags": {
    "addr:city": "Berlingen am Untersee",
    "addr:country": "CH",
    "addr:housenumber": "31",
    "addr:postcode": "8267",
    "addr:street": "Seestrasse",
    "description": "Kunstmuseum",
    "email": "sekretariat.kunstmuseum@tg.ch",
    "name": "Adolf-Dietrich-Haus",
    "opening_hours": "May 3 - Sep 14 : Sa,Su 12:00-18:00",
    "phone": "+41(0)52 7484120",
    "toilets:wheelchair": "no",
    "tourism": "museum",
    "website": "http://www.kunstraum-kreuzlingen.ch/ad_dietrich-haus.htm",
    "wheelchair": "no"
  }
},
{
  "type": "node",
  "id": 1129336305,
  "lat": 47.6688894,
  "lon": 8.9828046,
  "tags": {
    "addr:city": "Steckborn",
    "addr:country": "CH",
    "addr:housenumber": "84",
    "addr:postcode": "8266",
    "addr:street": "Seestrasse",
    "description": "Kulturgeschichtliches Museum",
    "email": "hp-hausammann@bluewin.ch",
    "name": "Museum im Turmhof",
    "opening_hours": "May-Oct : We,Th,Sa,Su 15:00-17:00",
    "phone": "+41(0)527612903",
    "tourism": "museum",
    "website": "http://www.turmhof-museum.ch",
    "wikidata": "Q27489014"
  }
},
{
  "type": "node",
  "id": 1245467692,
  "lat": 47.4196589,
  "lon": 9.3671079,
  "tags": {
    "name": "Museum im Lagerhaus",
    "tourism": "museum",
    "wikidata": "Q27488983"
  }
},
{
  "type": "node",
  "id": 1306144093,
  "lat": 47.5600056,
  "lon": 8.9034585,
  "tags": {
    "name": "Guggenhürli",
    "tourism": "museum"
  }
},
{
  "type": "node",
  "id": 1564845064,
  "lat": 47.5173473,
  "lon": 9.4376613,
  "tags": {
    "name": "Saurer Museum",
    "tourism": "museum"
  }
},
{
  "type": "node",
  "id": 1588742357,
  "lat": 47.6593594,
  "lon": 8.8600467,
  "tags": {
    "amenity": "cafe",
    "name": "Krippenwelt",
    "opening_hours": "Tu-Su 10:00-18:00",
    "outdoor_seating": "yes",
    "phone": "+41 52 721 00 05",
    "tourism": "museum",
    "wheelchair": "no"
  }
},
{
  "type": "node",
  "id": 1647313075,
  "lat": 47.8207384,
  "lon": 9.2521089,
  "tags": {
    "addr:housenumber": "1",
    "addr:street": "Hauptstraße",
    "addr:suburb": "Altheim",
    "contact:phone": "+49 171 7210622",
    "contact:website": "http://tueftlermuseum.frickingen.de/projects/tueftler-museum/index.php",
    "name": "Tüftler Werkstatt Museum",
    "opening_hours": "Su,PH 10:30-12:00 || \"sowie nach Vereinbarung\"",
    "tourism": "museum"
  }
},
{
  "type": "node",
  "id": 1716385098,
  "lat": 47.8005328,
  "lon": 9.0384953,
  "tags": {
    "name": "Heimatmuseum in Planung",
    "tourism": "museum"
  }
},
{
  "type": "node",
  "id": 1813001034,
  "lat": 47.6719895,
  "lon": 9.5884945,
  "tags": {
    "addr:city": "Tettnang",
    "addr:country": "DE",
    "addr:housenumber": "41",
    "addr:postcode": "88069",
    "addr:street": "Montfortstraße",
    "description": "Elektronikmuseum",
    "email": "info@emuseum-tettnang.de",
    "lastcheck": "2017-07-23",
    "name": "Elektronikmuseum Tettnang",
    "opening_hours": "Apr-Oct: Tu-Su 14:00-18:00",
    "operator": "Förderverein des Elektronikmuseums Tettnang e.V.",
    "start_date": "2002",
    "tourism": "museum",
    "website": "http://www.emuseum-tettnang.de",
    "wheelchair": "no"
  }
},
{
  "type": "node",
  "id": 1823237715,
  "lat": 47.4895063,
  "lon": 9.3705030,
  "tags": {
    "name": "Landwirtschafts-Museum",
    "tourism": "museum"
  }
},
{
  "type": "node",
  "id": 1930438579,
  "lat": 47.6682912,
  "lon": 9.1784694,
  "tags": {
    "addr:city": "Konstanz",
    "addr:country": "DE",
    "addr:housenumber": "5",
    "addr:postcode": "78467",
    "addr:street": "Benediktinerplatz",
    "addr:suburb": "Petershausen",
    "lastcheck": "2016-11-20",
    "name": "Stadtarchiv Konstanz",
    "opening_hours": "Mo-Th 08:00-12:30,14:00-17:00; Fr 08:00-12:30,14:00-16:00",
    "tourism": "museum",
    "wheelchair": "no"
  }
},
{
  "type": "node",
  "id": 1930438583,
  "lat": 47.6682515,
  "lon": 9.1791293,
  "tags": {
    "addr:city": "Konstanz",
    "addr:country": "DE",
    "addr:housenumber": "5",
    "addr:postcode": "78467",
    "addr:street": "Benediktinerplatz",
    "addr:suburb": "Petershausen",
    "description": "Archäologisches Museum Adresse:Haltestelle ist barrierefrei.‎",
    "email": "info@konstanz.alm-bw.de",
    "lastcheck": "2016-11-20",
    "name": "Archäologisches Landesmuseum",
    "opening_hours": "Tu-Su,PH 10:00-18:00; Sa[1] 10:00-18:00 open \"Eintritt ins gesamte Haus frei\"; Jan 1,Dec 24,Dec 25,easter -52 days: closed",
    "phone": "+49 7531 98040",
    "toilets:wheelchair": "yes",
    "tourism": "museum",
    "website": "https://www.konstanz.alm-bw.de/",
    "wheelchair": "yes"
  }
},
{
  "type": "node",
  "id": 1977634008,
  "lat": 47.6705425,
  "lon": 9.5177765,
  "tags": {
    "addr:city": "Friedrichshafen",
    "addr:housenumber": "1",
    "addr:postcode": "88046",
    "addr:street": "Claude-Dornier-Platz",
    "contact:email": "besucherservice@dorniermuseum.de",
    "contact:facebook": "https://de-de.facebook.com/dorniermuseum/",
    "contact:fax": "+49 7541 48736 51",
    "contact:phone": "+49 7541 48736 00",
    "contact:website": "http://www.dorniermuseum.de",
    "fee": "11€",
    "name": "Dornier Museum Friedrichshafen",
    "name:de": "Dornier Museum Friedrichshafen",
    "name:es": "Museo Dornier",
    "name:pt": "Museu Dornier",
    "opening_hours": "Tu-Su 10:00-17:00; May-Oct: 09:00-17:00",
    "phone": "+49 7541 4873600",
    "toilets:wheelchair": "yes",
    "tourism": "museum",
    "website": "https://www.dorniermuseum.de",
    "wheelchair": "yes",
    "wheelchair:description": "Aufzug und Parkplätze vorhanden",
    "wikidata": "Q786797",
    "wikipedia": "de:Dornier-Museum"
  }
},
{
  "type": "node",
  "id": 2047029932,
  "lat": 47.5674629,
  "lon": 9.3822596,
  "tags": {
    "name": "Museum im Alten Zollhaus",
    "tourism": "museum"
  }
},
{
  "type": "node",
  "id": 2240025551,
  "lat": 47.6687546,
  "lon": 9.0770268,
  "tags": {
    "name": "Vinorama",
    "tourism": "museum"
  }
},
{
  "type": "node",
  "id": 2240025563,
  "lat": 47.6690093,
  "lon": 9.0770616,
  "tags": {
    "name": "Haus Phönix (Vinorama)",
    "tourism": "museum"
  }
},
{
  "type": "node",
  "id": 2298603640,
  "lat": 47.6951594,
  "lon": 9.2721184,
  "tags": {
    "addr:city": "Meersburg",
    "addr:country": "DE",
    "addr:housenumber": "4",
    "addr:postcode": "88709",
    "addr:street": "Kirchstraße",
    "amenity": "library",
    "name": "Bibelgalerie Stadtbücherei",
    "toilets:wheelchair": "no",
    "tourism": "museum",
    "website": "https://www.meersburg.de/de/b%c3%bcrger/bildung/stadtb%c3%bccherei",
    "wheelchair": "yes"
  }
},
{
  "type": "node",
  "id": 2337349110,
  "lat": 47.6570953,
  "lon": 9.1805996,
  "tags": {
    "name": "Naturkunde Museum",
    "toilets:wheelchair": "yes",
    "tourism": "museum",
    "wheelchair": "yes",
    "wheelchair:description": "Erreichbar über Sea Life Center. Komplett Barrierefrei. Gute Toiletten vorhanden.",
    "wikidata": "Q19835577",
    "wikipedia": "de:Bodensee-Naturmuseum"
  }
},
{
  "type": "node",
  "id": 2357646699,
  "lat": 47.4613317,
  "lon": 8.9698795,
  "tags": {
    "designation": "Mechanische Werkstätte Wiesental Eschlikon",
    "tourism": "museum"
  }
},
{
  "type": "node",
  "id": 2458553341,
  "lat": 47.4302601,
  "lon": 9.3791440,
  "tags": {
    "addr:housenumber": "37",
    "addr:street": "St. Jakob-Strasse",
    "name": "Bierflaschenmuseum",
    "opening_hours": "Mo-Fr 08:00-12:15, 13:30-18:00; Sa 08:00-16:30",
    "tourism": "museum",
    "website": "https://www.schuetzengarten.ch/"
  }
},
{
  "type": "node",
  "id": 2607485642,
  "lat": 47.4883729,
  "lon": 9.5556145,
  "tags": {
    "name": "Fliegermuseum",
    "tourism": "museum",
    "website": "https://www.fliegermuseum.ch/",
    "wikidata": "Q1428564"
  }
},
{
  "type": "node",
  "id": 3124778327,
  "lat": 47.6605749,
  "lon": 8.8583098,
  "tags": {
    "addr:city": "Stein am Rhein",
    "addr:housename": "Zum Lindwurm",
    "addr:housenumber": "18",
    "addr:postcode": "8260",
    "addr:street": "Understadt",
    "description": "Kulturgeschichtliches Museum",
    "email": "info@museum-lindwurm.ch",
    "image": "http://upload.wikimedia.org/wikipedia/commons/2/2b/Stein_am_Rhein_Haus_Lindwurm.jpg",
    "name": "Museum Lindwurm",
    "opening_hours": "Mar-Oct : Mo,We-Su 10:00-17:00, Tu off",
    "phone": "+41 52 741 25 12",
    "tourism": "museum",
    "website": "https://www.museum-lindwurm.ch/",
    "wikidata": "Q27489027",
    "wikimedia_commons": "File:Stein am Rhein Haus Lindwurm.jpg"
  }
},
{
  "type": "node",
  "id": 3172492030,
  "lat": 47.8131081,
  "lon": 9.2716682,
  "tags": {
    "addr:city": "Frickingen",
    "addr:country": "DE",
    "addr:housenumber": "9",
    "addr:postcode": "88699",
    "addr:street": "Kirchstraße",
    "contact:phone": "+49 7554 98300",
    "contact:website": "http://bodenseeobstmuseum.frickingen.de/projects/bodensee-obst-museum/index.php",
    "name": "Bodensee-Obst-Museum",
    "opening_hours": "Su,PH 10:30-12:00 || \"sowie nach Vereinbarung\"",
    "source": "Maps4BW, LGL, www.lgl-bw.de",
    "tourism": "museum"
  }
},
{
  "type": "node",
  "id": 3172492031,
  "lat": 47.8092522,
  "lon": 9.2948204,
  "tags": {
    "addr:city": "Frickingen",
    "addr:country": "DE",
    "addr:housenumber": "14",
    "addr:postcode": "88699",
    "addr:street": "Dorfstraße",
    "addr:suburb": "Leustetten",
    "contact:phone": "+49 171 7210622",
    "contact:website": "http://gerbermuseum.frickingen.de/projects/gerber-museum/index.php",
    "name": "Gerber Museum",
    "opening_hours": "Su,PH 10:30-12:00 || \"sowie nach Vereinbarung\"",
    "tourism": "museum"
  }
},
{
  "type": "node",
  "id": 3357502595,
  "lat": 47.4784153,
  "lon": 9.5067125,
  "tags": {
    "internet_access": "wlan",
    "name": "Forum Würth Rorschach",
    "toilets:wheelchair": "yes",
    "tourism": "museum",
    "wheelchair": "yes"
  }
},
{
  "type": "node",
  "id": 4149594093,
  "lat": 47.3955552,
  "lon": 9.3894536,
  "tags": {
    "name": "A. Vogel - Heilkräuter-Garten",
    "tourism": "museum"
  }
},
{
  "type": "node",
  "id": 4158078954,
  "lat": 47.5205710,
  "lon": 8.7884993,
  "tags": {
    "addr:city": "Wiesendangen",
    "addr:housenumber": "26",
    "addr:postcode": "8542",
    "addr:street": "Dorfstrasse",
    "name": "Ortsmuseum",
    "tourism": "museum"
  }
},
{
  "type": "node",
  "id": 4242405736,
  "lat": 47.4183781,
  "lon": 9.3665472,
  "tags": {
    "group_only": "yes",
    "name": "Historischer Polizeiposten",
    "tourism": "museum"
  }
},
{
  "type": "node",
  "id": 4294491468,
  "lat": 47.6593933,
  "lon": 8.8598389,
  "tags": {
    "addr:city": "Stein am Rhein",
    "addr:postcode": "8260",
    "name": "Bürgerasyl",
    "opening_hours": "24/7",
    "operator": "Stadt Stein am Rhein",
    "tourism": "museum",
    "wheelchair": "yes"
  }
},
{
  "type": "node",
  "id": 4294903086,
  "lat": 47.7610984,
  "lon": 8.8367096,
  "tags": {
    "addr:city": "Singen",
    "addr:country": "DE",
    "addr:housenumber": "10",
    "addr:postcode": "78224",
    "addr:street": "Ekkehardstraße",
    "email": "kunstmuseum@singen.de",
    "emergency": "fire_detection_system",
    "name": "Kunstmuseum Singen",
    "opening_hours": "Tu-Fr 14:00-18:00; Sa-Su 11:00-17:00",
    "phone": "+49 7731 85-271",
    "toilets:wheelchair": "yes",
    "tourism": "museum",
    "website": "https://www.kunstmuseum-singen.de",
    "wheelchair": "yes"
  }
},
{
  "type": "node",
  "id": 4399903689,
  "lat": 47.5443721,
  "lon": 9.2738553,
  "tags": {
    "addr:city": "Amriswil",
    "addr:country": "CH",
    "addr:housenumber": "127",
    "addr:postcode": "8580",
    "addr:street": "Weinfelderstrasse",
    "name": "Schulmuseum",
    "name:de": "Schulmuseum",
    "tourism": "museum"
  }
},
{
  "type": "node",
  "id": 4437361994,
  "lat": 47.7467689,
  "lon": 8.9790112,
  "tags": {
    "addr:city": "Radolfzell am Bodensee",
    "addr:postcode": "78315",
    "name": "CompuRama-Radolfzell e.V.",
    "phone": "+49-7732-938817",
    "tourism": "museum",
    "website": "https://www.compurama-radolfzell.de/",
    "wheelchair": "limited",
    "wheelchair:description": "Teilweise stehen Geräte in den Gängen, so daß die Gänge zu schmal für einen Rollstuhl sind."
  }
},
{
  "type": "node",
  "id": 4490051106,
  "lat": 47.5574113,
  "lon": 9.3768712,
  "tags": {
    "description": "CHF 15.00 Erwachsene",
    "email": "info@autobau.ch",
    "internet_access": "wlan",
    "internet_access:fee": "no",
    "name": "autobau Erlebniswelt",
    "opening_hours": "We 16:00-20:00; Su 10:00-17:00",
    "operator": "autobau",
    "phone": "+41 71 466 00 66",
    "tourism": "museum",
    "website": "https://www.autobau.ch/",
    "wheelchair": "yes"
  }
},
{
  "type": "node",
  "id": 4585737673,
  "lat": 47.7653769,
  "lon": 8.7814797,
  "tags": {
    "name": "Museum im Schlosspark",
    "tourism": "museum"
  }
},
{
  "type": "node",
  "id": 4594050834,
  "lat": 47.4251155,
  "lon": 9.3836782,
  "tags": {
    "addr:city": "St. Gallen",
    "addr:housenumber": "77",
    "addr:postcode": "9000",
    "addr:street": "Linsebühlstrasse",
    "name": "POINT JAUNE museum",
    "opening_hours": "We 18:00+",
    "tourism": "museum",
    "website": "http://www.postpost.ch"
  }
},
{
  "type": "node",
  "id": 4720479534,
  "lat": 47.4927630,
  "lon": 9.2339443,
  "tags": {
    "name": "Typorama",
    "tourism": "museum",
    "website": "https://www.typorama.ch/"
  }
},
{
  "type": "node",
  "id": 4727166389,
  "lat": 47.7615100,
  "lon": 9.2836334,
  "tags": {
    "phone": "+49 7553 82312",
    "tourism": "museum",
    "website": "http://www.feuchtmayermuseum.de"
  }
},
{
  "type": "node",
  "id": 5474437621,
  "lat": 47.6722791,
  "lon": 9.0594870,
  "tags": {
    "name:en": "Napoleon Museum",
    "tourism": "museum"
  }
},
{
  "type": "node",
  "id": 5824825453,
  "lat": 47.6939819,
  "lon": 9.2715031,
  "tags": {
    "addr:city": "Meersburg",
    "addr:housenumber": "8",
    "addr:postcode": "88709",
    "addr:street": "Schloßplatz",
    "email": "info@zeppelinmuseum.eu",
    "name": "Zeppelinmuseum",
    "opening_hours": "Mo-So 10:00-18:00",
    "phone": "+49 7532 7909",
    "tourism": "museum",
    "website": "http://www.zeppelinmuseum.com/",
    "wikipedia": "Q191397"
  }
},
{
  "type": "node",
  "id": 5839480826,
  "lat": 47.4238252,
  "lon": 9.3762772,
  "tags": {
    "addr:city": "St.Gallen",
    "addr:housenumber": "14",
    "addr:postcode": "9000",
    "addr:street": "Gallusstrasse",
    "name": "Stadthaus St.Gallen",
    "tourism": "museum",
    "website": "https://www.ortsbuerger.ch/stadthaus.html",
    "wikidata": "Q29786866"
  }
},
{
  "type": "node",
  "id": 5851719456,
  "lat": 47.6555507,
  "lon": 9.4837221,
  "tags": {
    "email": "info@zf-forum.com",
    "fee": "no",
    "museum_type": "company",
    "name": "ZF Forum",
    "opening_hours": "Su 10:00-17:00",
    "operator": "ZF Group",
    "phone": "+49 7541 77 0",
    "tourism": "museum",
    "website": "https://www.zf.com/site/zfforum/de/your_visit/your_visit.html",
    "wheelchair": "yes"
  }
},
{
  "type": "node",
  "id": 6265940217,
  "lat": 47.4171428,
  "lon": 9.0637881,
  "tags": {
    "name": "Toggenburger Schmiede- & Werkzeugmuseum",
    "short_name": "Schmiedemuseum",
    "tourism": "museum",
    "website": "https://www.schmiedemuseum.ch",
    "wikidata": "Q55503508"
  }
},
{
  "type": "node",
  "id": 6652739798,
  "lat": 47.6406837,
  "lon": 9.2127075,
  "tags": {
    "name": "Dorfmuseum Bottighofen",
    "opening_hours": "Mi 14:00 - 18:00",
    "operator": "Gemeinde Bottighofen",
    "operator:type": "community",
    "tourism": "museum"
  }
},
{
  "type": "node",
  "id": 6780556288,
  "lat": 47.6659880,
  "lon": 9.1774249,
  "tags": {
    "email": "hgrathwohl@hpm-personal.de",
    "facebook": "https://www.facebook.com/Fasnachtsmuseumkonstanz/?fref=ts",
    "fee": "2€",
    "name": "Fasnachtsmuseum Konstanz",
    "opening_hours": "Apr-Oct: Fr 18:00-22:00; Apr-Oct: Sa,Su 14:00-17:00",
    "phone": "+49 7531 52602",
    "tourism": "museum",
    "website": "http://www.fasnachtsmuseum-konstanz.de"
  }
},
{
  "type": "way",
  "id": 26835734,
  "nodes": [
    294685661,
    294685995,
    294685997,
    294685801,
    294686023,
    294686003,
    294685664,
    294685632,
    5954775311,
    5954775338,
    294685633,
    294686024,
    294686073,
    294685805,
    294685636,
    294685637,
    294685638,
    417193267,
    417193268,
    294685510,
    294685511,
    294685512,
    294685513,
    294685515,
    294685661
  ],
  "tags": {
    "addr:city": "Konstanz",
    "addr:country": "DE",
    "addr:housenumber": "5",
    "addr:postcode": "78467",
    "addr:street": "Benediktinerplatz",
    "addr:suburb": "Petershausen",
    "building": "civic",
    "name": "Konventbau des ehemaligen Benediktinerklosters Petershausen",
    "name:en": "Petershausen Abbey",
    "tourism": "museum",
    "wheelchair": "yes",
    "wikidata": "Q457309",
    "wikipedia": "de:Kloster Petershausen"
  }
},
{
  "type": "way",
  "id": 35596408,
  "nodes": [
    417193269,
    417193268,
    417193267,
    417193270,
    417193271,
    417193272,
    417193273,
    417193274,
    417193269
  ],
  "tags": {
    "building": "civic",
    "building:levels": "1",
    "name": "Archäologisches Landesmuseum",
    "opening_hours": "Tu-Su 10:00-18:00",
    "phone": "+49 7531 9804 0",
    "roof:levels": "0",
    "toilets:wheelchair": "yes",
    "tourism": "museum",
    "website": "https://www.konstanz.alm-bw.de/de/",
    "wheelchair": "yes",
    "wikipedia": "de:Archäologisches Landesmuseum Baden-Württemberg#Landesmuseum in Konstanz"
  }
},
{
  "type": "way",
  "id": 35929714,
  "nodes": [
    29778686,
    7125168444,
    7125168443,
    6912840553,
    1131564110,
    1131563981,
    420051577,
    7125168440,
    2191685182,
    1131564084,
    1131564065,
    1131563958,
    1131564378,
    1131564254,
    1131564185,
    420051578,
    420051576,
    2191685176,
    2191685171,
    29778686
  ],
  "tags": {
    "addr:city": "Friedrichshafen",
    "addr:country": "DE",
    "addr:housenumber": "22",
    "addr:postcode": "88045",
    "addr:street": "Seestraße",
    "building": "yes",
    "building:levels": "3",
    "contact:website": "http://www.zeppelin-museum.de",
    "description": "Großmuseum mit versch. Sparten",
    "email": "info@zeppelin-museum.de",
    "fax": "+49 7541 380181",
    "name": "Zeppelin Museum",
    "name:es": "Museo Zeppelin",
    "name:ru": "Музей дирижаблей",
    "opening_hours": "May-Oct: Mo-Su 09:00-17:00; Nov-Apr: Tu-Su 10:00-17:00; Jul-Sep: Mo 09:00-17:00",
    "operator": "Zeppelin Museum Friedrichshafen GmbH",
    "phone": "+49 7541 38010",
    "source": "HiRes aerial imagery;LGL, www.lgl-bw.de",
    "toilets:wheelchair": "yes",
    "tourism": "museum",
    "wheelchair": "yes",
    "wikidata": "Q191427",
    "wikipedia": "de:Zeppelin Museum"
  }
},
{
  "type": "way",
  "id": 36328890,
  "nodes": [
    423753633,
    423753637,
    728285037,
    423753638,
    6720849769,
    6720849767,
    6720849765,
    6720849766,
    6720849768,
    6720867467,
    423753639,
    429826707,
    423753640,
    423753633
  ],
  "tags": {
    "addr:city": "Meersburg",
    "addr:country": "DE",
    "addr:housenumber": "13",
    "addr:postcode": "88709",
    "addr:street": "Schloßplatz",
    "building": "yes",
    "description": "Kunstmuseum",
    "email": "kulturamt@kultur-bodenseekreis.de",
    "name": "Galerie Bodenseekreis",
    "opening_hours": "Tu-Su 11:00-17:00; Mo off",
    "tourism": "museum",
    "website": "https://www.bodenseekreis.de/bildung-kultur/kultur/galerie-bodenseekreis.html"
  }
},
{
  "type": "way",
  "id": 36329384,
  "nodes": [
    423758475,
    423758481,
    423758483,
    423758477,
    423758475
  ],
  "tags": {
    "addr:city": "Meersburg",
    "addr:country": "DE",
    "addr:housenumber": "11",
    "addr:postcode": "88709",
    "addr:street": "Vorburggasse",
    "building": "yes",
    "description": "Kulturgeschichtliches Museum",
    "email": "kulturamt@meersburg.de",
    "name": "Weinbaumuseum",
    "opening_hours": "Apr - Oct: Tu,Fr,Su 14:00-18:00",
    "phone": "+49(0)7532440400",
    "tourism": "museum",
    "website": "https://www.meersburg.de/160",
    "wikidata": "Q76631545"
  }
},
{
  "type": "way",
  "id": 37077203,
  "nodes": [
    431197213,
    1293306389,
    1293305375,
    1293304779,
    1293305716,
    1280827654,
    2431413844,
    2431413845,
    431197214,
    1280827709,
    660463681,
    2431413835,
    6473915634,
    6473915635,
    2431413838,
    2431413829,
    2431413831,
    2431413842,
    431197217,
    1293306097,
    1293304343,
    7035384748,
    1293307038,
    1293306713,
    1293304990,
    1293304464,
    1293304200,
    1293304606,
    431197213
  ],
  "tags": {
    "addr:housenumber": "1",
    "addr:street": "Technoramastrasse",
    "building": "yes",
    "building:roof": "flat",
    "changing_table": "yes",
    "museum": "technology",
    "museum_type": "national",
    "name": "Technorama",
    "opening_hours": "Mo-Su 10:00-17:00; Dec 25 closed",
    "toilets": "yes",
    "tourism": "museum",
    "website": "https://www.technorama.ch/",
    "wheelchair": "yes",
    "wikidata": "Q1501500",
    "wikipedia": "de:Technorama"
  }
},
{
  "type": "way",
  "id": 40215511,
  "nodes": [
    484715513,
    484715515,
    6836661918,
    484715517,
    484715520,
    484715513
  ],
  "tags": {
    "addr:city": "Gaienhofen",
    "addr:country": "DE",
    "addr:housenumber": "8",
    "addr:postcode": "78343",
    "addr:street": "Kapellenstraße",
    "building": "civic",
    "email": "hesse-museum@gaienhofen.de",
    "fax": "+49 7735 440948",
    "name": "Hermann-Hesse-Höri-Museum",
    "phone": "+49 7735 440949",
    "tourism": "museum",
    "website": "https://www.hesse-museum-gaienhofen.de"
  }
},
{
  "type": "way",
  "id": 40215512,
  "nodes": [
    484715521,
    484715523,
    484715525,
    6836661919,
    484715526,
    484715521
  ],
  "tags": {
    "addr:city": "Gaienhofen",
    "addr:country": "DE",
    "addr:housenumber": "5",
    "addr:postcode": "78343",
    "addr:street": "Kapellenstraße",
    "building": "house",
    "email": "hesse-museum@gaienhofen.de",
    "fax": "+49 7735 440948",
    "name": "Hermann-Hesse-Haus",
    "phone": "+49 7735 440949",
    "tourism": "museum",
    "website": "https://www.hesse-museum-gaienhofen.de"
  }
},
{
  "type": "way",
  "id": 43078681,
  "nodes": [
    539691131,
    539691171,
    539691172,
    540126840,
    540126845,
    539691175,
    539691131
  ],
  "tags": {
    "addr:city": "Allensbach",
    "addr:country": "DE",
    "addr:housenumber": "2",
    "addr:postcode": "78476",
    "addr:street": "Brunnengasse",
    "building": "house",
    "description": "Kulturgeschichtliches Museum",
    "name": "Heimatmuseum / Gemeindebücherei",
    "opening_hours": "May 15-Jun 30,Sep 1-Oct 15: Tu 17:00-19:00, Sa 10:00-12:00; Jul,Aug: Tu 17:00-19:00, Th 10:00-12:00; Sa 10:00-12:00",
    "phone": "+49 7533 80152",
    "tourism": "museum",
    "website": "https://www.museum-allensbach.de/"
  }
},
{
  "type": "way",
  "id": 44071152,
  "nodes": [
    560158954,
    560158955,
    560158956,
    560158957,
    560158954
  ],
  "tags": {
    "building": "yes",
    "tourism": "museum",
    "wheelchair": "yes"
  }
},
{
  "type": "way",
  "id": 45138292,
  "nodes": [
    572541911,
    1019710070,
    1314239703,
    1314239651,
    1314239636,
    1314239684,
    1314239773,
    572541913,
    572541918,
    572541923,
    1019709726,
    1019710572,
    572541927,
    572541931,
    572541911
  ],
  "tags": {
    "addr:city": "Radolfzell am Bodensee",
    "addr:country": "DE",
    "addr:housenumber": "3",
    "addr:postcode": "78315",
    "addr:street": "Kaufhausstraße",
    "building": "yes",
    "name": "Zunfthaus",
    "tourism": "museum",
    "website": "http://www.zunfthaus-radolfzell.de/"
  }
},
{
  "type": "way",
  "id": 45171528,
  "nodes": [
    573248538,
    573248539,
    573248540,
    1330787660,
    1330787813,
    1330787852,
    1330787868,
    573248541,
    573248538
  ],
  "tags": {
    "addr:city": "Radolfzell am Bodensee",
    "addr:country": "DE",
    "addr:housenumber": "8",
    "addr:postcode": "78315",
    "addr:street": "Scheffelstraße",
    "building": "museum",
    "name": "Villa Bosch",
    "phone": "+49 7732 81371",
    "toilets:wheelchair": "yes",
    "tourism": "museum",
    "website": "https://www.radolfzell.de/villabosch",
    "wheelchair": "yes"
  }
},
{
  "type": "way",
  "id": 45172964,
  "nodes": [
    573260425,
    573260426,
    573260427,
    573260428,
    573260429,
    573260430,
    573260425
  ],
  "tags": {
    "addr:city": "Radolfzell am Bodensee",
    "addr:country": "DE",
    "addr:housenumber": "3",
    "addr:postcode": "78315",
    "addr:street": "Seetorstraße",
    "building": "yes",
    "name": "Alte Stadtapotheke",
    "tourism": "museum"
  }
},
{
  "type": "way",
  "id": 61390384,
  "nodes": [
    766587760,
    766587765,
    2312625785,
    2312625786,
    766587767,
    2312625790,
    766587770,
    766587773,
    5498025241,
    2312625791,
    2312625787,
    2312625784,
    766587760
  ],
  "tags": {
    "landuse": "recreation_ground",
    "name": "Grenzsteinmuseum",
    "tourism": "museum"
  }
},
{
  "type": "way",
  "id": 87589902,
  "nodes": [
    1018921944,
    1018921977,
    1018921691,
    1018921803,
    1018921944
  ],
  "tags": {
    "addr:city": "Meersburg",
    "addr:country": "DE",
    "addr:housenumber": "11",
    "addr:postcode": "88709",
    "addr:street": "Stettener Straße",
    "building": "yes",
    "description": "Kulturgeschichtliches Museum",
    "email": "info@fuerstenhaeusle.de",
    "name": "Droste-Museum im Fürstenhäusle",
    "opening_hours": "Tu-Sa 10:00-12:30, 14:00-18:00; Su 14:00-18:00",
    "phone": "+49(0)75326088",
    "tourism": "museum",
    "website": "https://www.fuerstenhaeusle.de/",
    "wikidata": "Q1294333",
    "wikipedia": "de:Fürstenhäusle"
  }
},
{
  "type": "way",
  "id": 88139397,
  "nodes": [
    1024094164,
    1024094172,
    1024094142,
    1024094220,
    1024094164
  ],
  "tags": {
    "building": "yes",
    "name": "Maggi Museum",
    "tourism": "museum"
  }
},
{
  "type": "way",
  "id": 100715631,
  "nodes": [
    1164287095,
    1164286970,
    1164286579,
    1164287410,
    1164287237,
    1164287597,
    1164286831,
    1164287665,
    1164287095
  ],
  "tags": {
    "addr:city": "Rorschach",
    "addr:housenumber": "58",
    "addr:postcode": "9400",
    "addr:street": "Hauptstrasse",
    "building": "yes",
    "historic": "granary",
    "name": "Kornhaus",
    "source": "Bing",
    "tourism": "museum"
  }
},
{
  "type": "way",
  "id": 101782363,
  "nodes": [
    1174958122,
    2365392146,
    1174957846,
    1174958106,
    1174957891,
    5894539272,
    1174958122
  ],
  "tags": {
    "building": "yes",
    "name": "Feuerwehrmuseum",
    "tourism": "museum",
    "website": "https://www.salem.de/erlebnis-kloster-schloss/ausstellungen/feuerwehrmuseum",
    "wikidata": "Q76631913"
  }
},
{
  "type": "way",
  "id": 108714143,
  "nodes": [
    1246521082,
    1246521066,
    2396328506,
    2396328507,
    2396328509,
    2396328508,
    2396328510,
    2396328511,
    2396328512,
    2396328513,
    1246521042,
    1246521049,
    1246521082
  ],
  "tags": {
    "addr:city": "Uhldingen-Mühlhofen",
    "addr:country": "DE",
    "addr:hamlet": "Gebhardsweiler",
    "addr:housenumber": "1",
    "addr:postcode": "88690",
    "addr:street": "Gebhardsweiler",
    "building": "yes",
    "building:levels": "2",
    "contact:website": "http://www.auto-und-traktor-museum.de",
    "email": "kontakt@traktormuseum.de",
    "fee": "yes",
    "lastcheck": "2017-08-16",
    "name": "Auto- & Traktorenmuseum",
    "opening_hours": "May-Oct: Mo-Su,PH 09:30-17:30; Nov-Apr: Tu-Su 10:00-17:00; Dec 24 off; Jan 01 off",
    "operator": "Legal GmbH",
    "phone": "+49 7556 928360",
    "toilets:wheelchair": "yes",
    "tourism": "museum",
    "website": "https://autoundtraktor.museum/",
    "wheelchair": "yes",
    "wikidata": "Q15673084",
    "wikipedia": "de:Traktormuseum Bodensee"
  }
},
{
  "type": "way",
  "id": 118607006,
  "nodes": [
    1333681164,
    1333681030,
    1333681067,
    1333681110,
    6759802311,
    1333680694,
    6759802309,
    6759802310,
    1333681072,
    1333680452,
    1333681164
  ],
  "tags": {
    "addr:city": "Singen (Hohentwiel)",
    "addr:country": "DE",
    "addr:housenumber": "2",
    "addr:postcode": "78224",
    "addr:street": "Am Schloßgarten",
    "building": "castle",
    "description": "Archäologisches Hegau-Museum Singen",
    "email": "hegau-museum.stadt@singen.de",
    "name": "Archäologisches Hegau-Museum",
    "opening_hours": "Tu-Sa 14:00-18:00; Su,PH 14:00-17:00; Mo off",
    "operator": "Stadt Singen",
    "phone": "+49 7731 85-267",
    "toilets:wheelchair": "no",
    "tourism": "museum",
    "website": "http://www.hegau-museum.de",
    "wheelchair": "no",
    "wheelchair:description": "18 Stufen insgesamt",
    "wikidata": "Q1660748",
    "wikipedia": "de:Oberes Schloss Singen"
  }
},
{
  "type": "way",
  "id": 122231726,
  "nodes": [
    1366507580,
    1366507610,
    1366507649,
    1366507636,
    1366507580
  ],
  "tags": {
    "addr:city": "Reichenau",
    "addr:country": "DE",
    "addr:housenumber": "14",
    "addr:postcode": "78479",
    "addr:street": "Fischergasse",
    "building": "yes",
    "name": "Museum Reichenau St. Peter und Paul",
    "tourism": "museum"
  }
},
{
  "type": "way",
  "id": 125066638,
  "nodes": [
    1389962763,
    1389962757,
    1389962745,
    1389962744,
    1389962733,
    1389962754,
    1389962759,
    1389962758,
    1389962763
  ],
  "tags": {
    "addr:city": "St. Gallen",
    "addr:country": "CH",
    "addr:housenumber": "50",
    "addr:postcode": "9000",
    "addr:street": "Museumstrasse",
    "building": "public",
    "description": "Historisches Museum",
    "email": "info@hmsg.ch",
    "name": "Historisches und Völkerkundemuseum",
    "opening_hours": "Tu-Su 10:00-17:00",
    "phone": "+41 (0)71 242 06 42",
    "tourism": "museum",
    "website": "https://www.hmsg.ch/",
    "wikidata": "Q1621043"
  }
},
{
  "type": "way",
  "id": 125066644,
  "nodes": [
    1389962596,
    1389962618,
    1389962606,
    1389962672,
    1389962674,
    1389962680,
    1389962659,
    1389962642,
    1389962644,
    1389962546,
    1389962532,
    1389962505,
    1389962596
  ],
  "tags": {
    "addr:city": "St Gallen",
    "addr:country": "CH",
    "addr:housenumber": "32",
    "addr:postcode": "9000",
    "addr:street": "Museumstrasse",
    "building": "public",
    "description": "Großmuseum mit vielen Sparten",
    "email": "info@kunstmuseumsg.ch",
    "name": "Kunstmuseum",
    "opening_hours": "Tu-Su 10:00-17:00; We 10:00-20:00",
    "phone": "+41 (0)71 242 06 71",
    "tourism": "museum",
    "website": "https://www.kunstmuseumsg.ch/home.html",
    "wheelchair": "limited",
    "wheelchair:description": "über steile Rampe zugänglich",
    "wikidata": "Q1792552"
  }
},
{
  "type": "way",
  "id": 131605934,
  "nodes": [
    1448218619,
    1448218648,
    1448218647,
    1448218649,
    1448218629,
    1448218621,
    1448218619
  ],
  "tags": {
    "addr:city": "St. Gallen",
    "addr:country": "CH",
    "addr:housenumber": "6d",
    "addr:postcode": "9004",
    "addr:region": "SG",
    "addr:street": "Klosterhof",
    "amenity": "library",
    "building": "yes",
    "contact:email": "stibi@stibi.ch",
    "description": "Die Stiftsbibliothek ist die älteste Bibliothek der Schweiz mit einem einmaligen Bestand von rund 170'000 Büchern und anderen Medien. Sie ist heute eine aktive Leihbibliothek.",
    "image": "https://www.wikidata.org/wiki/Q689896#/media/File:BibliothekSG.jpg",
    "name": "Stiftsbibliothek",
    "name:de": "Stiftsbibliothek",
    "name:en": "Abbey Library",
    "name:zh": "修道院图书馆",
    "opening_hours": "Mo-Sa 10:00-17:00, Su 10:00-16:00; Nov: \"Im November3 Wochen geschlossen\" || \"Spezielle Öffnungszeiten siehe auf der Homepage\"",
    "phone": "+41 71 227 34 16",
    "ref:isil": "CH-000093-7",
    "source": "Bing",
    "toilets:wheelchair": "yes",
    "tourism": "museum",
    "tourism_1": "yes",
    "website": "http://www.stibi.ch",
    "wheelchair": "yes",
    "wikidata": "Q689896",
    "wikipedia": "de:Stiftsbibliothek St. Gallen"
  }
},
{
  "type": "way",
  "id": 177205192,
  "nodes": [
    1876555946,
    1876555934,
    1876555942,
    1876555963,
    1876555946
  ],
  "tags": {
    "addr:city": "Hagnau am Bodensee",
    "addr:country": "DE",
    "addr:housenumber": "20",
    "addr:postcode": "88709",
    "addr:street": "Neugartenstraße",
    "building": "yes",
    "contact:website": "http://www.puppen-und-spielzeugmuseum.de",
    "lastcheck": "2016-12-03",
    "name": "Das Kleine Museum",
    "opening_hours": "We-Su 14:00-17:00; Th off; Fr off",
    "tourism": "museum",
    "wikidata": "Q21035621",
    "wikipedia": "de:Das Kleine Museum"
  }
},
{
  "type": "way",
  "id": 195446857,
  "nodes": [
    2058970056,
    2058970064,
    2058970196,
    2058970078,
    2058970056
  ],
  "tags": {
    "building": "yes",
    "name": "Autobau Factory",
    "tourism": "museum"
  }
},
{
  "type": "way",
  "id": 196720659,
  "nodes": [
    2070145792,
    2791115172,
    2791115182,
    2791115185,
    2791115177,
    2070145873,
    2070145676,
    2070145760,
    2070145792
  ],
  "tags": {
    "addr:city": "Flawil",
    "addr:housenumber": "81",
    "addr:postcode": "9230",
    "addr:street": "St. Gallerstrasse",
    "building": "yes",
    "name": "Ortsmuseum Flawil",
    "tourism": "museum"
  }
},
{
  "type": "way",
  "id": 199170363,
  "nodes": [
    2092027022,
    2092027043,
    2092027031,
    2092027008,
    2092027022
  ],
  "tags": {
    "building": "yes",
    "is_in": "Donzhausen",
    "name": "Heimatmuseum Donzhausen",
    "source": "Bing",
    "tourism": "museum"
  }
},
{
  "type": "way",
  "id": 200360017,
  "nodes": [
    2103498977,
    2103498975,
    2103498978,
    2103498979,
    2103498977
  ],
  "tags": {
    "addr:city": "Friedrichshafen",
    "addr:country": "DE",
    "addr:housenumber": "20",
    "addr:postcode": "88048",
    "addr:street": "Waltenweilerstraße",
    "building": "yes",
    "name": "Feuerwehrmuseum Friedrichshafen",
    "phone": "+49 (0) 7541 2032200",
    "tourism": "museum",
    "website": "https://www.friedrichshafen.de/kultur-leben/museen/?tx_wesfacilities_pi1%5Bid%5D=180&tx_wesfacilities_pi1%5BcategoryUid%5D=71&tx_wesfacilities_sight%5BshowUid%5D=180&cHash=3a4441743848250ad844e81abfe2bfae"
  }
},
{
  "type": "way",
  "id": 204686300,
  "nodes": [
    2146715016,
    2146714961,
    2146714958,
    2146714976,
    2146714944,
    2146714932,
    2146714928,
    2146714994,
    2146715000,
    2146714959,
    2146714972,
    2146715005,
    2146715008,
    2146714982,
    2146714999,
    2146715003,
    2146715004,
    2146715013,
    2146715016
  ],
  "tags": {
    "addr:city": "Salenstein",
    "addr:country": "CH",
    "addr:housenumber": "1",
    "addr:postcode": "8268",
    "addr:street": "Arenenbergstrasse",
    "building": "civic",
    "tourism": "museum"
  }
},
{
  "type": "way",
  "id": 207822918,
  "nodes": [
    2180719895,
    6919705784,
    2180719857,
    2180719852,
    2180719941,
    2180719815,
    2180719874,
    6206046560,
    6206046561,
    6919720486,
    6919720487,
    6919720488,
    6206046562,
    6919720485,
    6919720489,
    6206046563,
    2180719879,
    6206046559,
    2180719865,
    2180719895
  ],
  "tags": {
    "addr:city": "Singen (Hohentwiel)",
    "addr:country": "DE",
    "addr:housenumber": "1",
    "addr:postcode": "78224",
    "addr:street": "Parkstraße",
    "building": "commercial",
    "name": "MAC Museum Art & Cars",
    "phone": "+49 7731 9265374",
    "toilets:wheelchair": "yes",
    "tourism": "museum",
    "website": "https://www.museum-art-cars.com",
    "wheelchair": "yes",
    "wikidata": "Q20180064",
    "wikipedia": "de:MAC – Museum Art & Cars"
  }
},
{
  "type": "way",
  "id": 210763197,
  "nodes": [
    2208241890,
    2208241892,
    2208241862,
    2208241860,
    2208241890
  ],
  "tags": {
    "addr:city": "Elgg",
    "addr:housenumber": "17",
    "addr:postcode": "8353",
    "addr:street": "Humbergstrasse",
    "building": "yes",
    "name": "Heimatmuseum",
    "tourism": "museum"
  }
},
{
  "type": "way",
  "id": 220719769,
  "nodes": [
    2298117628,
    2298117627,
    2298117629,
    2298117630,
    2298117628
  ],
  "tags": {
    "building": "yes",
    "height": "28 m",
    "historic": "castle",
    "man_made": "tower",
    "name": "Hexenturm",
    "roof:height": "8 m",
    "roof:shape": "gabled",
    "source": "LGL-BW, www.lgl-bw.de",
    "tourism": "museum",
    "wheelchair": "no",
    "wikidata": "Q67772530"
  }
},
{
  "type": "way",
  "id": 225322368,
  "nodes": [
    2341115346,
    2341115387,
    2341115392,
    2341115358,
    2341115346
  ],
  "tags": {
    "addr:city": "Nonnenhorn",
    "addr:country": "DE",
    "addr:housenumber": "4",
    "addr:postcode": "88149",
    "addr:street": "Seehalde",
    "building": "yes",
    "name": "Dorfmuseum",
    "tourism": "museum"
  }
},
{
  "type": "way",
  "id": 238221018,
  "nodes": [
    2460688575,
    2460688583,
    2460688578,
    2460688601,
    2460688613,
    2460688616,
    2460688676,
    2460688664,
    2460688722,
    2460688697,
    2460688661,
    6716135847,
    6716130031,
    2460688643,
    6716130032,
    6716130033,
    2460688629,
    6716135845,
    6716135843,
    6716135844,
    6716135846,
    2460688642,
    2460688604,
    2460688625,
    6716135851,
    6716135849,
    6716135848,
    6716135850,
    2460688607,
    2460688589,
    2460688575
  ],
  "tags": {
    "addr:city": "Überlingen",
    "addr:country": "DE",
    "addr:housename": "Reichlin-von-Meldegg-Haus",
    "addr:housenumber": "30",
    "addr:postcode": "88662",
    "addr:street": "Krummebergstraße",
    "building": "yes",
    "description": "Patrizierhof, Festsaal, Hauskapelle. Heute kulturgeschichtliches Museum",
    "historic": "yes",
    "name": "Staedtisches Museum",
    "opening_hours": "Tu-Sa 9:00-12:30, 14:00-17:00; Apr 1 - Oct 31: Su,PH 10:00-15:00",
    "phone": "+49 7551 991079",
    "tourism": "museum",
    "website": "https://www.museum-ueberlingen.de/",
    "wheelchair": "no",
    "wikidata": "Q50778172",
    "wikipedia": "de:Reichlin-von-Meldegg-Haus"
  }
},
{
  "type": "way",
  "id": 238747974,
  "nodes": [
    2465475918,
    2465475917,
    2465475915,
    2465475916,
    6968984317,
    6968984316,
    2465475918
  ],
  "tags": {
    "addr:city": "Wilhelmsdorf",
    "addr:housenumber": "27",
    "addr:postcode": "88271",
    "addr:street": "Hoffmannstraße",
    "building": "farm",
    "fee": "yes",
    "name": "Museum für bäuerliches Handwerk und Kultur",
    "opening_hours": "\"April bis Oktober 1. und 3. Sonntag 14 bis 17 Uhr, Gruppen ab 10 jederzeit nach Vereinbarung\"",
    "tourism": "museum",
    "wheelchair": "no",
    "wikidata": "Q76632374"
  }
},
{
  "type": "way",
  "id": 252056700,
  "nodes": [
    2581749525,
    2581749344,
    2581749205,
    2581749393,
    2581749525
  ],
  "tags": {
    "addr:city": "Schmidrüti",
    "addr:housenumber": "1246",
    "addr:postcode": "8495",
    "addr:street": "Krinnensberg",
    "building": "yes",
    "email": "info@ortsmuseum-turbenthal.ch",
    "name": "Verein für ein Ortsmuseum in Turbenthal",
    "phone": "+41 52 385 33 30",
    "tourism": "museum",
    "website": "https://www.ortsmuseum-turbenthal.ch/"
  }
},
{
  "type": "way",
  "id": 464120306,
  "nodes": [
    4592726923,
    4592726922,
    4592726921,
    4592726920,
    4592726919,
    4592726918,
    4592726917,
    4592726913,
    4592726912,
    4592726914,
    4592726915,
    4592726916,
    4592726923
  ],
  "tags": {
    "addr:city": "St. Gallen",
    "addr:housenumber": "263",
    "addr:postcode": "9016",
    "addr:street": "Rorschacher Strasse",
    "building": "yes",
    "building:levels": "4",
    "email": "info@naturmuseumsg.ch",
    "name": "Naturmuseum St.Gallen",
    "opening_hours": "Tu, Th-Su 10:00-17:00; We 10:00-20:00",
    "phone": "+41 71 243 40 40",
    "tourism": "museum",
    "website": "https://www.naturmuseumsg.ch/",
    "wikidata": "Q1970402"
  }
},
{
  "type": "way",
  "id": 625016768,
  "nodes": [
    5901343456,
    5901343457,
    5901343458,
    6918592592,
    6918592593,
    5901343459,
    6918592591,
    6918592590,
    6918592589,
    5901343456
  ],
  "tags": {
    "addr:city": "Singen (Hohentwiel)",
    "addr:postcode": "78224",
    "addr:street": "Parkstraße",
    "building": "commercial",
    "name": "MAC 2",
    "operator": "MAC",
    "operator:type": "private",
    "start_date": "2019-06",
    "tourism": "museum"
  }
},
{
  "type": "way",
  "id": 630909769,
  "nodes": [
    5956859988,
    5956859989,
    5956859990,
    5956859991,
    5956859992,
    5956859993,
    5956859994,
    5956859995,
    5956859988
  ],
  "tags": {
    "addr:housenumber": "209",
    "addr:street": "St. Gallerstrasse",
    "building": "yes",
    "name": "MoMö",
    "opening_hours": "We,Fr 09:00-18:30; Th 09:00-21:00; Sa,Su 09:00-17:00",
    "tourism": "museum",
    "website": "https://www.moehl.ch/de/besuche-das-momoe/momoe/"
  }
},
{
  "type": "way",
  "id": 683546613,
  "nodes": [
    6402390449,
    6402390448,
    6402390447,
    6402390446,
    6402390445,
    6402390436,
    6402390449
  ],
  "tags": {
    "addr:city": "Reichenau",
    "addr:country": "DE",
    "addr:housenumber": "1+3",
    "addr:postcode": "78479",
    "addr:street": "Ergat",
    "description": "Kulturgeschichtliches Museum",
    "email": "info@reichenau-tourismus.de",
    "name": "Museum Reichenau",
    "note": "Da das Museum die Gebäude Ergat 1 und 3 umfasst, als Fläche um beide eingetragen. Bitte Umriss bei Bedarf präzisieren. Danke!",
    "opening_hours": "Apr-Oct: Mo-Su 10:30-16:30; Jul,Aug: Mo-Su 10:30-17:30; Nov- Mar: Sa,Su,PH 14:00-17:00",
    "phone": "+49 7534 999321",
    "source": "old OSM data",
    "tourism": "museum",
    "website": "http://www.museumreichenau.de/index.php?id=5"
  }
},
{
  "type": "way",
  "id": 695032530,
  "nodes": [
    637480533,
    6528641287,
    6528641296,
    6528641289,
    6528624781,
    6799479644,
    6528624777,
    6528641301,
    6528641299,
    6528641302,
    637480533
  ],
  "tags": {
    "addr:city": "Uhldingen-Mühlhofen",
    "addr:country": "DE",
    "addr:housenumber": "6",
    "addr:postcode": "88690",
    "addr:street": "Strandpromenade",
    "addr:suburb": "Unteruhldingen",
    "email": "mail@pfahlbauten.de",
    "fax": "+49 7556 9289010",
    "museum": "history",
    "name": "Pfahlbaumuseum Unteruhldingen",
    "phone": "+49 7556 928900",
    "toilets:wheelchair": "yes",
    "tourism": "museum",
    "website": "https://www.pfahlbauten.de/",
    "wheelchair": "limited",
    "wheelchair:description": "Eingangsbereich komplett rollstuhlgerecht, Behindertentoilette vorhanden. Die Wege zischen den Pfahlbauten sind mit dem Rollstuhl befahrbar. Die Eingänge in die Pfahlbauten sind recht schmal (ca. 65 cm) und teilw. steil, hier wird etwas Hilfe benötigt.",
    "wikidata": "Q321923",
    "wikipedia": "de:Pfahlbaumuseum Unteruhldingen"
  }
},
{
  "type": "way",
  "id": 702376470,
  "nodes": [
    6595877934,
    2072119783,
    2072119804,
    2072119803,
    2072119827,
    6595877943,
    6595877944,
    6595877935,
    6595877934
  ],
  "tags": {
    "addr:city": "Friedrichshafen",
    "addr:country": "DE",
    "addr:housenumber": "12",
    "addr:postcode": "88045",
    "addr:street": "König-Wilhelm-Platz",
    "building": "yes",
    "email": "anmeldung@zeppelin-museum.de",
    "fee": "5€",
    "name": "Schauhaus im Zeppelindorf",
    "opening_hours": "May-Oct: Su 12:00-17:00",
    "phone": "+49 7541 3801 25",
    "tourism": "museum",
    "website": "https://www.zeppelin-museum.de/de/museum/zeppelindorf.php"
  }
},
{
  "type": "node",
  "id": 431197213,
  "lat": 47.5144854,
  "lon": 8.7645431
},
{
  "type": "node",
  "id": 431197214,
  "lat": 47.5143651,
  "lon": 8.7652957
},
{
  "type": "node",
  "id": 431197217,
  "lat": 47.5138406,
  "lon": 8.7638736
},
{
  "type": "node",
  "id": 660463681,
  "lat": 47.5135649,
  "lon": 8.7644534
},
{
  "type": "node",
  "id": 1280827654,
  "lat": 47.5142767,
  "lon": 8.7648745
},
{
  "type": "node",
  "id": 1280827709,
  "lat": 47.5138264,
  "lon": 8.7647384
},
{
  "type": "node",
  "id": 1293304200,
  "lat": 47.5143360,
  "lon": 8.7642709
},
{
  "type": "node",
  "id": 1293304343,
  "lat": 47.5140736,
  "lon": 8.7640386
},
{
  "type": "node",
  "id": 1293304464,
  "lat": 47.5143007,
  "lon": 8.7642344
},
{
  "type": "node",
  "id": 1293304606,
  "lat": 47.5142987,
  "lon": 8.7643500
},
{
  "type": "node",
  "id": 1293304779,
  "lat": 47.5143970,
  "lon": 8.7649458
},
{
  "type": "node",
  "id": 1293304990,
  "lat": 47.5142579,
  "lon": 8.7643251
},
{
  "type": "node",
  "id": 1293305375,
  "lat": 47.5144419,
  "lon": 8.7648506
},
{
  "type": "node",
  "id": 1293305716,
  "lat": 47.5142936,
  "lon": 8.7648388
},
{
  "type": "node",
  "id": 1293306097,
  "lat": 47.5140403,
  "lon": 8.7641091
},
{
  "type": "node",
  "id": 1293306389,
  "lat": 47.5143736,
  "lon": 8.7647800
},
{
  "type": "node",
  "id": 1293306713,
  "lat": 47.5140786,
  "lon": 8.7641396
},
{
  "type": "node",
  "id": 1293307038,
  "lat": 47.5141090,
  "lon": 8.7640752
},
{
  "type": "node",
  "id": 2431413829,
  "lat": 47.5135350,
  "lon": 8.7640379
},
{
  "type": "node",
  "id": 2431413831,
  "lat": 47.5135760,
  "lon": 8.7639521
},
{
  "type": "node",
  "id": 2431413835,
  "lat": 47.5135661,
  "lon": 8.7644508
},
{
  "type": "node",
  "id": 2431413838,
  "lat": 47.5137133,
  "lon": 8.7642227
},
{
  "type": "node",
  "id": 2431413842,
  "lat": 47.5137289,
  "lon": 8.7641097
},
{
  "type": "node",
  "id": 2431413844,
  "lat": 47.5142561,
  "lon": 8.7649182
},
{
  "type": "node",
  "id": 2431413845,
  "lat": 47.5144491,
  "lon": 8.7651179
},
{
  "type": "node",
  "id": 6473915634,
  "lat": 47.5136435,
  "lon": 8.7642872
},
{
  "type": "node",
  "id": 6473915635,
  "lat": 47.5136708,
  "lon": 8.7643139
},
{
  "type": "node",
  "id": 7035384748,
  "lat": 47.5140905,
  "lon": 8.7640560
},
{
  "type": "node",
  "id": 2581749205,
  "lat": 47.4153499,
  "lon": 8.9086616
},
{
  "type": "node",
  "id": 2581749344,
  "lat": 47.4154126,
  "lon": 8.9087508
},
{
  "type": "node",
  "id": 2581749393,
  "lat": 47.4154271,
  "lon": 8.9085430
},
{
  "type": "node",
  "id": 2581749525,
  "lat": 47.4154898,
  "lon": 8.9086322
},
{
  "type": "node",
  "id": 2208241860,
  "lat": 47.4888753,
  "lon": 8.8729529
},
{
  "type": "node",
  "id": 2208241862,
  "lat": 47.4888396,
  "lon": 8.8732141
},
{
  "type": "node",
  "id": 2208241890,
  "lat": 47.4890244,
  "lon": 8.8729630
},
{
  "type": "node",
  "id": 2208241892,
  "lat": 47.4890162,
  "lon": 8.8732261
},
{
  "type": "node",
  "id": 2070145676,
  "lat": 47.4125690,
  "lon": 9.1929037
},
{
  "type": "node",
  "id": 2070145760,
  "lat": 47.4125861,
  "lon": 9.1927050
},
{
  "type": "node",
  "id": 2070145792,
  "lat": 47.4127004,
  "lon": 9.1927265
},
{
  "type": "node",
  "id": 2070145873,
  "lat": 47.4126816,
  "lon": 9.1929249
},
{
  "type": "node",
  "id": 2791115172,
  "lat": 47.4126962,
  "lon": 9.1927743
},
{
  "type": "node",
  "id": 2791115177,
  "lat": 47.4126854,
  "lon": 9.1928804
},
{
  "type": "node",
  "id": 2791115182,
  "lat": 47.4127132,
  "lon": 9.1927775
},
{
  "type": "node",
  "id": 2791115185,
  "lat": 47.4127040,
  "lon": 9.1928839
},
{
  "type": "node",
  "id": 2092027008,
  "lat": 47.5542438,
  "lon": 9.1967054
},
{
  "type": "node",
  "id": 2092027022,
  "lat": 47.5543315,
  "lon": 9.1966223
},
{
  "type": "node",
  "id": 2092027031,
  "lat": 47.5543847,
  "lon": 9.1970318
},
{
  "type": "node",
  "id": 2092027043,
  "lat": 47.5544724,
  "lon": 9.1969487
},
{
  "type": "node",
  "id": 484715513,
  "lat": 47.6829222,
  "lon": 8.9823022
},
{
  "type": "node",
  "id": 484715515,
  "lat": 47.6830142,
  "lon": 8.9825358
},
{
  "type": "node",
  "id": 484715517,
  "lat": 47.6828851,
  "lon": 8.9826480
},
{
  "type": "node",
  "id": 484715520,
  "lat": 47.6827931,
  "lon": 8.9824144
},
{
  "type": "node",
  "id": 484715521,
  "lat": 47.6831971,
  "lon": 8.9824641
},
{
  "type": "node",
  "id": 484715523,
  "lat": 47.6833236,
  "lon": 8.9826225
},
{
  "type": "node",
  "id": 484715525,
  "lat": 47.6832584,
  "lon": 8.9827374
},
{
  "type": "node",
  "id": 484715526,
  "lat": 47.6831319,
  "lon": 8.9825790
},
{
  "type": "node",
  "id": 6836661918,
  "lat": 47.6829488,
  "lon": 8.9825927
},
{
  "type": "node",
  "id": 6836661919,
  "lat": 47.6831523,
  "lon": 8.9826046
},
{
  "type": "node",
  "id": 2180719852,
  "lat": 47.7613660,
  "lon": 8.8275371
},
{
  "type": "node",
  "id": 2180719857,
  "lat": 47.7615108,
  "lon": 8.8274558
},
{
  "type": "node",
  "id": 2180719865,
  "lat": 47.7612201,
  "lon": 8.8275205
},
{
  "type": "node",
  "id": 2180719895,
  "lat": 47.7614802,
  "lon": 8.8273602
},
{
  "type": "node",
  "id": 5901343456,
  "lat": 47.7625454,
  "lon": 8.8273633
},
{
  "type": "node",
  "id": 5901343457,
  "lat": 47.7625013,
  "lon": 8.8271835
},
{
  "type": "node",
  "id": 5901343458,
  "lat": 47.7621871,
  "lon": 8.8272047
},
{
  "type": "node",
  "id": 5901343459,
  "lat": 47.7621992,
  "lon": 8.8275717
},
{
  "type": "node",
  "id": 6918592589,
  "lat": 47.7623749,
  "lon": 8.8274764
},
{
  "type": "node",
  "id": 6918592590,
  "lat": 47.7623591,
  "lon": 8.8274509
},
{
  "type": "node",
  "id": 6918592591,
  "lat": 47.7623293,
  "lon": 8.8274831
},
{
  "type": "node",
  "id": 6918592592,
  "lat": 47.7621461,
  "lon": 8.8273202
},
{
  "type": "node",
  "id": 6918592593,
  "lat": 47.7621923,
  "lon": 8.8274476
},
{
  "type": "node",
  "id": 6919705784,
  "lat": 47.7615040,
  "lon": 8.8274354
},
{
  "type": "node",
  "id": 1333680452,
  "lat": 47.7623217,
  "lon": 8.8340687
},
{
  "type": "node",
  "id": 1333680694,
  "lat": 47.7624806,
  "lon": 8.8338407
},
{
  "type": "node",
  "id": 1333681030,
  "lat": 47.7622459,
  "lon": 8.8338434
},
{
  "type": "node",
  "id": 1333681067,
  "lat": 47.7625633,
  "lon": 8.8336074
},
{
  "type": "node",
  "id": 1333681072,
  "lat": 47.7624958,
  "lon": 8.8339392
},
{
  "type": "node",
  "id": 1333681110,
  "lat": 47.7626061,
  "lon": 8.8337347
},
{
  "type": "node",
  "id": 1333681164,
  "lat": 47.7622839,
  "lon": 8.8339564
},
{
  "type": "node",
  "id": 2180719815,
  "lat": 47.7615116,
  "lon": 8.8277041
},
{
  "type": "node",
  "id": 2180719874,
  "lat": 47.7615617,
  "lon": 8.8278579
},
{
  "type": "node",
  "id": 2180719879,
  "lat": 47.7613653,
  "lon": 8.8278494
},
{
  "type": "node",
  "id": 2180719941,
  "lat": 47.7614250,
  "lon": 8.8277128
},
{
  "type": "node",
  "id": 6206046559,
  "lat": 47.7613539,
  "lon": 8.8278600
},
{
  "type": "node",
  "id": 6206046560,
  "lat": 47.7615163,
  "lon": 8.8278889
},
{
  "type": "node",
  "id": 6206046561,
  "lat": 47.7615086,
  "lon": 8.8278701
},
{
  "type": "node",
  "id": 6206046562,
  "lat": 47.7614313,
  "lon": 8.8278404
},
{
  "type": "node",
  "id": 6206046563,
  "lat": 47.7613850,
  "lon": 8.8278968
},
{
  "type": "node",
  "id": 6759802309,
  "lat": 47.7624767,
  "lon": 8.8338572
},
{
  "type": "node",
  "id": 6759802310,
  "lat": 47.7624698,
  "lon": 8.8338624
},
{
  "type": "node",
  "id": 6759802311,
  "lat": 47.7624774,
  "lon": 8.8338303
},
{
  "type": "node",
  "id": 6919720485,
  "lat": 47.7614139,
  "lon": 8.8278572
},
{
  "type": "node",
  "id": 6919720486,
  "lat": 47.7615001,
  "lon": 8.8278521
},
{
  "type": "node",
  "id": 6919720487,
  "lat": 47.7614828,
  "lon": 8.8278400
},
{
  "type": "node",
  "id": 6919720488,
  "lat": 47.7614421,
  "lon": 8.8278456
},
{
  "type": "node",
  "id": 6919720489,
  "lat": 47.7614135,
  "lon": 8.8278675
},
{
  "type": "node",
  "id": 1024094142,
  "lat": 47.7589221,
  "lon": 8.8432862
},
{
  "type": "node",
  "id": 1024094164,
  "lat": 47.7589542,
  "lon": 8.8437684
},
{
  "type": "node",
  "id": 1024094172,
  "lat": 47.7587931,
  "lon": 8.8434134
},
{
  "type": "node",
  "id": 1024094220,
  "lat": 47.7590823,
  "lon": 8.8436417
},
{
  "type": "node",
  "id": 572541911,
  "lat": 47.7374174,
  "lon": 8.9685672
},
{
  "type": "node",
  "id": 572541913,
  "lat": 47.7370468,
  "lon": 8.9683537
},
{
  "type": "node",
  "id": 572541918,
  "lat": 47.7370362,
  "lon": 8.9684035
},
{
  "type": "node",
  "id": 572541923,
  "lat": 47.7371599,
  "lon": 8.9684604
},
{
  "type": "node",
  "id": 572541927,
  "lat": 47.7372791,
  "lon": 8.9685735
},
{
  "type": "node",
  "id": 572541931,
  "lat": 47.7374010,
  "lon": 8.9686397
},
{
  "type": "node",
  "id": 573260425,
  "lat": 47.7368810,
  "lon": 8.9688801
},
{
  "type": "node",
  "id": 573260426,
  "lat": 47.7368523,
  "lon": 8.9690147
},
{
  "type": "node",
  "id": 573260427,
  "lat": 47.7366384,
  "lon": 8.9689162
},
{
  "type": "node",
  "id": 573260428,
  "lat": 47.7366512,
  "lon": 8.9688544
},
{
  "type": "node",
  "id": 573260429,
  "lat": 47.7367063,
  "lon": 8.9688791
},
{
  "type": "node",
  "id": 573260430,
  "lat": 47.7367195,
  "lon": 8.9688095
},
{
  "type": "node",
  "id": 1019709726,
  "lat": 47.7371523,
  "lon": 8.9684966
},
{
  "type": "node",
  "id": 1019710070,
  "lat": 47.7373129,
  "lon": 8.9685138
},
{
  "type": "node",
  "id": 1019710572,
  "lat": 47.7372824,
  "lon": 8.9685573
},
{
  "type": "node",
  "id": 1314239636,
  "lat": 47.7372025,
  "lon": 8.9684219
},
{
  "type": "node",
  "id": 1314239651,
  "lat": 47.7371984,
  "lon": 8.9684598
},
{
  "type": "node",
  "id": 1314239684,
  "lat": 47.7371811,
  "lon": 8.9684132
},
{
  "type": "node",
  "id": 1314239703,
  "lat": 47.7372754,
  "lon": 8.9684922
},
{
  "type": "node",
  "id": 1314239773,
  "lat": 47.7370574,
  "lon": 8.9683584
},
{
  "type": "node",
  "id": 573248538,
  "lat": 47.7364141,
  "lon": 8.9740712
},
{
  "type": "node",
  "id": 573248539,
  "lat": 47.7363524,
  "lon": 8.9742894
},
{
  "type": "node",
  "id": 573248540,
  "lat": 47.7362412,
  "lon": 8.9742198
},
{
  "type": "node",
  "id": 573248541,
  "lat": 47.7363024,
  "lon": 8.9740014
},
{
  "type": "node",
  "id": 1330787660,
  "lat": 47.7362595,
  "lon": 8.9741549
},
{
  "type": "node",
  "id": 1330787813,
  "lat": 47.7362257,
  "lon": 8.9741338
},
{
  "type": "node",
  "id": 1330787852,
  "lat": 47.7362520,
  "lon": 8.9740407
},
{
  "type": "node",
  "id": 1330787868,
  "lat": 47.7362854,
  "lon": 8.9740615
},
{
  "type": "node",
  "id": 2146714928,
  "lat": 47.6719181,
  "lon": 9.0603548
},
{
  "type": "node",
  "id": 2146714932,
  "lat": 47.6719384,
  "lon": 9.0602364
},
{
  "type": "node",
  "id": 2146714944,
  "lat": 47.6720102,
  "lon": 9.0602643
},
{
  "type": "node",
  "id": 2146714958,
  "lat": 47.6720689,
  "lon": 9.0594511
},
{
  "type": "node",
  "id": 2146714959,
  "lat": 47.6721192,
  "lon": 9.0603005
},
{
  "type": "node",
  "id": 2146714961,
  "lat": 47.6720907,
  "lon": 9.0593367
},
{
  "type": "node",
  "id": 2146714972,
  "lat": 47.6721616,
  "lon": 9.0600444
},
{
  "type": "node",
  "id": 2146714976,
  "lat": 47.6721365,
  "lon": 9.0594772
},
{
  "type": "node",
  "id": 2146714982,
  "lat": 47.6721955,
  "lon": 9.0598307
},
{
  "type": "node",
  "id": 2146714994,
  "lat": 47.6722195,
  "lon": 9.0604614
},
{
  "type": "node",
  "id": 2146714999,
  "lat": 47.6722409,
  "lon": 9.0595627
},
{
  "type": "node",
  "id": 2146715000,
  "lat": 47.6722378,
  "lon": 9.0603468
},
{
  "type": "node",
  "id": 2146715003,
  "lat": 47.6722727,
  "lon": 9.0595714
},
{
  "type": "node",
  "id": 2146715004,
  "lat": 47.6722797,
  "lon": 9.0595277
},
{
  "type": "node",
  "id": 2146715005,
  "lat": 47.6722819,
  "lon": 9.0600901
},
{
  "type": "node",
  "id": 2146715008,
  "lat": 47.6723177,
  "lon": 9.0598766
},
{
  "type": "node",
  "id": 2146715013,
  "lat": 47.6723699,
  "lon": 9.0595606
},
{
  "type": "node",
  "id": 2146715016,
  "lat": 47.6723860,
  "lon": 9.0594487
},
{
  "type": "node",
  "id": 6402390436,
  "lat": 47.6967431,
  "lon": 9.0622884
},
{
  "type": "node",
  "id": 6402390445,
  "lat": 47.6967697,
  "lon": 9.0625258
},
{
  "type": "node",
  "id": 6402390446,
  "lat": 47.6965770,
  "lon": 9.0625995
},
{
  "type": "node",
  "id": 6402390447,
  "lat": 47.6963509,
  "lon": 9.0623400
},
{
  "type": "node",
  "id": 6402390448,
  "lat": 47.6963509,
  "lon": 9.0620913
},
{
  "type": "node",
  "id": 6402390449,
  "lat": 47.6967422,
  "lon": 9.0620899
},
{
  "type": "node",
  "id": 1366507580,
  "lat": 47.7066304,
  "lon": 9.0438521
},
{
  "type": "node",
  "id": 1366507610,
  "lat": 47.7067539,
  "lon": 9.0438609
},
{
  "type": "node",
  "id": 1366507636,
  "lat": 47.7066266,
  "lon": 9.0439695
},
{
  "type": "node",
  "id": 1366507649,
  "lat": 47.7067501,
  "lon": 9.0439783
},
{
  "type": "node",
  "id": 539691131,
  "lat": 47.7156737,
  "lon": 9.0656338
},
{
  "type": "node",
  "id": 539691171,
  "lat": 47.7157726,
  "lon": 9.0656652
},
{
  "type": "node",
  "id": 539691172,
  "lat": 47.7158111,
  "lon": 9.0653975
},
{
  "type": "node",
  "id": 539691175,
  "lat": 47.7157122,
  "lon": 9.0653660
},
{
  "type": "node",
  "id": 540126840,
  "lat": 47.7158018,
  "lon": 9.0653945
},
{
  "type": "node",
  "id": 540126845,
  "lat": 47.7157669,
  "lon": 9.0653834
},
{
  "type": "node",
  "id": 294685510,
  "lat": 47.6678501,
  "lon": 9.1790991
},
{
  "type": "node",
  "id": 294685511,
  "lat": 47.6679032,
  "lon": 9.1789317
},
{
  "type": "node",
  "id": 294685512,
  "lat": 47.6681819,
  "lon": 9.1791265
},
{
  "type": "node",
  "id": 294685513,
  "lat": 47.6683476,
  "lon": 9.1786039
},
{
  "type": "node",
  "id": 294685515,
  "lat": 47.6680790,
  "lon": 9.1784162
},
{
  "type": "node",
  "id": 294685632,
  "lat": 47.6684216,
  "lon": 9.1789048
},
{
  "type": "node",
  "id": 294685633,
  "lat": 47.6683484,
  "lon": 9.1791364
},
{
  "type": "node",
  "id": 294685636,
  "lat": 47.6682179,
  "lon": 9.1795512
},
{
  "type": "node",
  "id": 294685637,
  "lat": 47.6680753,
  "lon": 9.1794519
},
{
  "type": "node",
  "id": 294685638,
  "lat": 47.6681259,
  "lon": 9.1792916
},
{
  "type": "node",
  "id": 294685661,
  "lat": 47.6681273,
  "lon": 9.1782637
},
{
  "type": "node",
  "id": 294685664,
  "lat": 47.6683956,
  "lon": 9.1788867
},
{
  "type": "node",
  "id": 294685801,
  "lat": 47.6685520,
  "lon": 9.1785220
},
{
  "type": "node",
  "id": 294685805,
  "lat": 47.6682790,
  "lon": 9.1793577
},
{
  "type": "node",
  "id": 294685995,
  "lat": 47.6684015,
  "lon": 9.1784553
},
{
  "type": "node",
  "id": 294685997,
  "lat": 47.6684114,
  "lon": 9.1784238
},
{
  "type": "node",
  "id": 294686003,
  "lat": 47.6684599,
  "lon": 9.1786835
},
{
  "type": "node",
  "id": 294686023,
  "lat": 47.6684934,
  "lon": 9.1787068
},
{
  "type": "node",
  "id": 294686024,
  "lat": 47.6683247,
  "lon": 9.1791199
},
{
  "type": "node",
  "id": 294686073,
  "lat": 47.6682549,
  "lon": 9.1793410
},
{
  "type": "node",
  "id": 417193267,
  "lat": 47.6680537,
  "lon": 9.1792413
},
{
  "type": "node",
  "id": 417193268,
  "lat": 47.6679979,
  "lon": 9.1792024
},
{
  "type": "node",
  "id": 417193269,
  "lat": 47.6679829,
  "lon": 9.1792496
},
{
  "type": "node",
  "id": 417193270,
  "lat": 47.6680399,
  "lon": 9.1792848
},
{
  "type": "node",
  "id": 417193271,
  "lat": 47.6680883,
  "lon": 9.1793185
},
{
  "type": "node",
  "id": 417193272,
  "lat": 47.6680583,
  "lon": 9.1794130
},
{
  "type": "node",
  "id": 417193273,
  "lat": 47.6676773,
  "lon": 9.1791479
},
{
  "type": "node",
  "id": 417193274,
  "lat": 47.6677061,
  "lon": 9.1790570
},
{
  "type": "node",
  "id": 5954775311,
  "lat": 47.6684093,
  "lon": 9.1789437
},
{
  "type": "node",
  "id": 5954775338,
  "lat": 47.6683611,
  "lon": 9.1790962
},
{
  "type": "node",
  "id": 6528641299,
  "lat": 47.7257765,
  "lon": 9.2270733
},
{
  "type": "node",
  "id": 2460688575,
  "lat": 47.7673747,
  "lon": 9.1634114
},
{
  "type": "node",
  "id": 2460688578,
  "lat": 47.7673779,
  "lon": 9.1634587
},
{
  "type": "node",
  "id": 2460688583,
  "lat": 47.7673919,
  "lon": 9.1634425
},
{
  "type": "node",
  "id": 2460688589,
  "lat": 47.7674139,
  "lon": 9.1633718
},
{
  "type": "node",
  "id": 2460688601,
  "lat": 47.7674303,
  "lon": 9.1635539
},
{
  "type": "node",
  "id": 2460688604,
  "lat": 47.7674453,
  "lon": 9.1632848
},
{
  "type": "node",
  "id": 2460688607,
  "lat": 47.7674538,
  "lon": 9.1634415
},
{
  "type": "node",
  "id": 2460688613,
  "lat": 47.7674845,
  "lon": 9.1634874
},
{
  "type": "node",
  "id": 2460688616,
  "lat": 47.7675134,
  "lon": 9.1635393
},
{
  "type": "node",
  "id": 2460688625,
  "lat": 47.7675051,
  "lon": 9.1633800
},
{
  "type": "node",
  "id": 2460688629,
  "lat": 47.7675156,
  "lon": 9.1629353
},
{
  "type": "node",
  "id": 2460688642,
  "lat": 47.7675777,
  "lon": 9.1631099
},
{
  "type": "node",
  "id": 2460688643,
  "lat": 47.7675855,
  "lon": 9.1628580
},
{
  "type": "node",
  "id": 2460688661,
  "lat": 47.7676800,
  "lon": 9.1631353
},
{
  "type": "node",
  "id": 2460688664,
  "lat": 47.7676815,
  "lon": 9.1632507
},
{
  "type": "node",
  "id": 2460688676,
  "lat": 47.7676982,
  "lon": 9.1632792
},
{
  "type": "node",
  "id": 2460688697,
  "lat": 47.7677643,
  "lon": 9.1630501
},
{
  "type": "node",
  "id": 2460688722,
  "lat": 47.7677890,
  "lon": 9.1631310
},
{
  "type": "node",
  "id": 6716130031,
  "lat": 47.7675928,
  "lon": 9.1628765
},
{
  "type": "node",
  "id": 6716130032,
  "lat": 47.7675706,
  "lon": 9.1628718
},
{
  "type": "node",
  "id": 6716130033,
  "lat": 47.7675742,
  "lon": 9.1628805
},
{
  "type": "node",
  "id": 6716135843,
  "lat": 47.7675004,
  "lon": 9.1629395
},
{
  "type": "node",
  "id": 6716135844,
  "lat": 47.7675077,
  "lon": 9.1629571
},
{
  "type": "node",
  "id": 6716135845,
  "lat": 47.7675122,
  "lon": 9.1629282
},
{
  "type": "node",
  "id": 6716135846,
  "lat": 47.7675128,
  "lon": 9.1629520
},
{
  "type": "node",
  "id": 6716135847,
  "lat": 47.7675837,
  "lon": 9.1628857
},
{
  "type": "node",
  "id": 6716135848,
  "lat": 47.7674781,
  "lon": 9.1634055
},
{
  "type": "node",
  "id": 6716135849,
  "lat": 47.7674979,
  "lon": 9.1633817
},
{
  "type": "node",
  "id": 6716135850,
  "lat": 47.7674800,
  "lon": 9.1634095
},
{
  "type": "node",
  "id": 6716135851,
  "lat": 47.7675001,
  "lon": 9.1633856
},
{
  "type": "node",
  "id": 6528641302,
  "lat": 47.7267935,
  "lon": 9.2271271
},
{
  "type": "node",
  "id": 1448218619,
  "lat": 47.4225726,
  "lon": 9.3764437
},
{
  "type": "node",
  "id": 1448218621,
  "lat": 47.4226021,
  "lon": 9.3765925
},
{
  "type": "node",
  "id": 1448218629,
  "lat": 47.4226966,
  "lon": 9.3765517
},
{
  "type": "node",
  "id": 1448218647,
  "lat": 47.4229055,
  "lon": 9.3762995
},
{
  "type": "node",
  "id": 1448218648,
  "lat": 47.4228848,
  "lon": 9.3763084
},
{
  "type": "node",
  "id": 1448218649,
  "lat": 47.4229350,
  "lon": 9.3764483
},
{
  "type": "node",
  "id": 1389962505,
  "lat": 47.4274979,
  "lon": 9.3813418
},
{
  "type": "node",
  "id": 1389962532,
  "lat": 47.4275742,
  "lon": 9.3814796
},
{
  "type": "node",
  "id": 1389962546,
  "lat": 47.4275944,
  "lon": 9.3814552
},
{
  "type": "node",
  "id": 1389962596,
  "lat": 47.4276847,
  "lon": 9.3811160
},
{
  "type": "node",
  "id": 1389962606,
  "lat": 47.4277380,
  "lon": 9.3812792
},
{
  "type": "node",
  "id": 1389962618,
  "lat": 47.4277601,
  "lon": 9.3812523
},
{
  "type": "node",
  "id": 1389962642,
  "lat": 47.4278054,
  "lon": 9.3819035
},
{
  "type": "node",
  "id": 1389962644,
  "lat": 47.4278276,
  "lon": 9.3818766
},
{
  "type": "node",
  "id": 1389962659,
  "lat": 47.4278785,
  "lon": 9.3820357
},
{
  "type": "node",
  "id": 1389962672,
  "lat": 47.4279708,
  "lon": 9.3816998
},
{
  "type": "node",
  "id": 1389962674,
  "lat": 47.4279912,
  "lon": 9.3816751
},
{
  "type": "node",
  "id": 1389962680,
  "lat": 47.4280656,
  "lon": 9.3818095
},
{
  "type": "node",
  "id": 1389962733,
  "lat": 47.4283750,
  "lon": 9.3830786
},
{
  "type": "node",
  "id": 1389962744,
  "lat": 47.4284914,
  "lon": 9.3832898
},
{
  "type": "node",
  "id": 1389962745,
  "lat": 47.4284968,
  "lon": 9.3832834
},
{
  "type": "node",
  "id": 1389962754,
  "lat": 47.4286634,
  "lon": 9.3827314
},
{
  "type": "node",
  "id": 1389962757,
  "lat": 47.4287127,
  "lon": 9.3836752
},
{
  "type": "node",
  "id": 1389962758,
  "lat": 47.4287744,
  "lon": 9.3829547
},
{
  "type": "node",
  "id": 1389962759,
  "lat": 47.4287816,
  "lon": 9.3829460
},
{
  "type": "node",
  "id": 1389962763,
  "lat": 47.4289885,
  "lon": 9.3833432
},
{
  "type": "node",
  "id": 4592726912,
  "lat": 47.4394772,
  "lon": 9.4090095
},
{
  "type": "node",
  "id": 4592726913,
  "lat": 47.4394960,
  "lon": 9.4089874
},
{
  "type": "node",
  "id": 4592726914,
  "lat": 47.4393486,
  "lon": 9.4087700
},
{
  "type": "node",
  "id": 4592726915,
  "lat": 47.4393679,
  "lon": 9.4087472
},
{
  "type": "node",
  "id": 4592726916,
  "lat": 47.4393271,
  "lon": 9.4086712
},
{
  "type": "node",
  "id": 4592726917,
  "lat": 47.4395293,
  "lon": 9.4090495
},
{
  "type": "node",
  "id": 4592726918,
  "lat": 47.4396067,
  "lon": 9.4089587
},
{
  "type": "node",
  "id": 4592726919,
  "lat": 47.4395750,
  "lon": 9.4088996
},
{
  "type": "node",
  "id": 4592726920,
  "lat": 47.4396317,
  "lon": 9.4088330
},
{
  "type": "node",
  "id": 4592726921,
  "lat": 47.4395152,
  "lon": 9.4086161
},
{
  "type": "node",
  "id": 4592726922,
  "lat": 47.4394795,
  "lon": 9.4086580
},
{
  "type": "node",
  "id": 4592726923,
  "lat": 47.4394250,
  "lon": 9.4085564
},
{
  "type": "node",
  "id": 5956859988,
  "lat": 47.5072525,
  "lon": 9.4121617
},
{
  "type": "node",
  "id": 5956859989,
  "lat": 47.5072269,
  "lon": 9.4124371
},
{
  "type": "node",
  "id": 5956859990,
  "lat": 47.5070077,
  "lon": 9.4123924
},
{
  "type": "node",
  "id": 5956859991,
  "lat": 47.5069813,
  "lon": 9.4122605
},
{
  "type": "node",
  "id": 5956859992,
  "lat": 47.5069047,
  "lon": 9.4122446
},
{
  "type": "node",
  "id": 5956859993,
  "lat": 47.5069307,
  "lon": 9.4119707
},
{
  "type": "node",
  "id": 5956859994,
  "lat": 47.5071419,
  "lon": 9.4120147
},
{
  "type": "node",
  "id": 5956859995,
  "lat": 47.5071705,
  "lon": 9.4121449
},
{
  "type": "node",
  "id": 2058970056,
  "lat": 47.5571287,
  "lon": 9.3751841
},
{
  "type": "node",
  "id": 2058970064,
  "lat": 47.5569875,
  "lon": 9.3757259
},
{
  "type": "node",
  "id": 2058970078,
  "lat": 47.5565856,
  "lon": 9.3748784
},
{
  "type": "node",
  "id": 2058970196,
  "lat": 47.5564408,
  "lon": 9.3754172
},
{
  "type": "node",
  "id": 1164286579,
  "lat": 47.4792939,
  "lon": 9.4922593
},
{
  "type": "node",
  "id": 1164286831,
  "lat": 47.4792264,
  "lon": 9.4916638
},
{
  "type": "node",
  "id": 1164286970,
  "lat": 47.4795304,
  "lon": 9.4915424
},
{
  "type": "node",
  "id": 1164287095,
  "lat": 47.4793580,
  "lon": 9.4914179
},
{
  "type": "node",
  "id": 1164287237,
  "lat": 47.4792117,
  "lon": 9.4918615
},
{
  "type": "node",
  "id": 1164287410,
  "lat": 47.4791215,
  "lon": 9.4921348
},
{
  "type": "node",
  "id": 1164287597,
  "lat": 47.4791709,
  "lon": 9.4918320
},
{
  "type": "node",
  "id": 1164287665,
  "lat": 47.4792672,
  "lon": 9.4916932
},
{
  "type": "node",
  "id": 2341115346,
  "lat": 47.5747854,
  "lon": 9.6090389
},
{
  "type": "node",
  "id": 2341115358,
  "lat": 47.5748127,
  "lon": 9.6091854
},
{
  "type": "node",
  "id": 2341115387,
  "lat": 47.5749873,
  "lon": 9.6089562
},
{
  "type": "node",
  "id": 2341115392,
  "lat": 47.5750146,
  "lon": 9.6091026
},
{
  "type": "node",
  "id": 423753633,
  "lat": 47.6936530,
  "lon": 9.2726298
},
{
  "type": "node",
  "id": 423753637,
  "lat": 47.6935945,
  "lon": 9.2726114
},
{
  "type": "node",
  "id": 423753638,
  "lat": 47.6935497,
  "lon": 9.2725986
},
{
  "type": "node",
  "id": 423753639,
  "lat": 47.6935257,
  "lon": 9.2727349
},
{
  "type": "node",
  "id": 423753640,
  "lat": 47.6936366,
  "lon": 9.2727948
},
{
  "type": "node",
  "id": 423758481,
  "lat": 47.6937685,
  "lon": 9.2729878
},
{
  "type": "node",
  "id": 423758483,
  "lat": 47.6937671,
  "lon": 9.2733178
},
{
  "type": "node",
  "id": 429826707,
  "lat": 47.6935504,
  "lon": 9.2727548
},
{
  "type": "node",
  "id": 728285037,
  "lat": 47.6935586,
  "lon": 9.2726013
},
{
  "type": "node",
  "id": 6720849765,
  "lat": 47.6935410,
  "lon": 9.2725974
},
{
  "type": "node",
  "id": 6720849766,
  "lat": 47.6935394,
  "lon": 9.2726018
},
{
  "type": "node",
  "id": 6720849767,
  "lat": 47.6935438,
  "lon": 9.2725952
},
{
  "type": "node",
  "id": 6720849768,
  "lat": 47.6935400,
  "lon": 9.2726081
},
{
  "type": "node",
  "id": 6720849769,
  "lat": 47.6935474,
  "lon": 9.2725961
},
{
  "type": "node",
  "id": 6720867467,
  "lat": 47.6935422,
  "lon": 9.2726121
},
{
  "type": "node",
  "id": 423758475,
  "lat": 47.6938910,
  "lon": 9.2729859
},
{
  "type": "node",
  "id": 423758477,
  "lat": 47.6939068,
  "lon": 9.2733011
},
{
  "type": "node",
  "id": 1018921691,
  "lat": 47.6944222,
  "lon": 9.2753739
},
{
  "type": "node",
  "id": 1018921803,
  "lat": 47.6945286,
  "lon": 9.2754911
},
{
  "type": "node",
  "id": 1018921944,
  "lat": 47.6945709,
  "lon": 9.2754064
},
{
  "type": "node",
  "id": 1018921977,
  "lat": 47.6944644,
  "lon": 9.2752892
},
{
  "type": "node",
  "id": 6528624777,
  "lat": 47.7253654,
  "lon": 9.2287720
},
{
  "type": "node",
  "id": 6528624781,
  "lat": 47.7258072,
  "lon": 9.2288658
},
{
  "type": "node",
  "id": 6528641289,
  "lat": 47.7259512,
  "lon": 9.2293462
},
{
  "type": "node",
  "id": 6528641296,
  "lat": 47.7265065,
  "lon": 9.2294313
},
{
  "type": "node",
  "id": 6528641301,
  "lat": 47.7252130,
  "lon": 9.2279796
},
{
  "type": "node",
  "id": 6799479644,
  "lat": 47.7257255,
  "lon": 9.2287946
},
{
  "type": "node",
  "id": 1876555934,
  "lat": 47.6765662,
  "lon": 9.3106294
},
{
  "type": "node",
  "id": 1876555942,
  "lat": 47.6766309,
  "lon": 9.3104246
},
{
  "type": "node",
  "id": 1876555946,
  "lat": 47.6766547,
  "lon": 9.3106910
},
{
  "type": "node",
  "id": 1876555963,
  "lat": 47.6767194,
  "lon": 9.3104862
},
{
  "type": "node",
  "id": 2298117627,
  "lat": 47.7201385,
  "lon": 9.3909543
},
{
  "type": "node",
  "id": 2298117628,
  "lat": 47.7201687,
  "lon": 9.3908757
},
{
  "type": "node",
  "id": 2298117629,
  "lat": 47.7201917,
  "lon": 9.3909994
},
{
  "type": "node",
  "id": 2298117630,
  "lat": 47.7202219,
  "lon": 9.3909208
},
{
  "type": "node",
  "id": 637480533,
  "lat": 47.7270148,
  "lon": 9.2283257
},
{
  "type": "node",
  "id": 6528641287,
  "lat": 47.7267319,
  "lon": 9.2289652
},
{
  "type": "node",
  "id": 1246521042,
  "lat": 47.7292118,
  "lon": 9.2573264
},
{
  "type": "node",
  "id": 1246521049,
  "lat": 47.7289802,
  "lon": 9.2567970
},
{
  "type": "node",
  "id": 1246521066,
  "lat": 47.7292438,
  "lon": 9.2568961
},
{
  "type": "node",
  "id": 1246521082,
  "lat": 47.7291426,
  "lon": 9.2566504
},
{
  "type": "node",
  "id": 2396328506,
  "lat": 47.7292114,
  "lon": 9.2569227
},
{
  "type": "node",
  "id": 2396328507,
  "lat": 47.7292954,
  "lon": 9.2571322
},
{
  "type": "node",
  "id": 2396328508,
  "lat": 47.7293697,
  "lon": 9.2570914
},
{
  "type": "node",
  "id": 2396328509,
  "lat": 47.7293674,
  "lon": 9.2571065
},
{
  "type": "node",
  "id": 2396328510,
  "lat": 47.7294811,
  "lon": 9.2570454
},
{
  "type": "node",
  "id": 2396328511,
  "lat": 47.7294839,
  "lon": 9.2570584
},
{
  "type": "node",
  "id": 2396328512,
  "lat": 47.7296960,
  "lon": 9.2569923
},
{
  "type": "node",
  "id": 2396328513,
  "lat": 47.7297166,
  "lon": 9.2571418
},
{
  "type": "node",
  "id": 560158954,
  "lat": 47.7623570,
  "lon": 9.2452758
},
{
  "type": "node",
  "id": 560158955,
  "lat": 47.7620535,
  "lon": 9.2450238
},
{
  "type": "node",
  "id": 560158956,
  "lat": 47.7621345,
  "lon": 9.2448079
},
{
  "type": "node",
  "id": 560158957,
  "lat": 47.7624380,
  "lon": 9.2450599
},
{
  "type": "node",
  "id": 1174957846,
  "lat": 47.7753889,
  "lon": 9.2761483
},
{
  "type": "node",
  "id": 1174957891,
  "lat": 47.7750323,
  "lon": 9.2761667
},
{
  "type": "node",
  "id": 1174958106,
  "lat": 47.7751253,
  "lon": 9.2763907
},
{
  "type": "node",
  "id": 1174958122,
  "lat": 47.7752959,
  "lon": 9.2759243
},
{
  "type": "node",
  "id": 2365392146,
  "lat": 47.7753161,
  "lon": 9.2759730
},
{
  "type": "node",
  "id": 5894539272,
  "lat": 47.7751262,
  "lon": 9.2760804
},
{
  "type": "node",
  "id": 29778686,
  "lat": 47.6504549,
  "lon": 9.4828948
},
{
  "type": "node",
  "id": 420051577,
  "lat": 47.6506638,
  "lon": 9.4826036
},
{
  "type": "node",
  "id": 1131563981,
  "lat": 47.6505215,
  "lon": 9.4827711
},
{
  "type": "node",
  "id": 1131564065,
  "lat": 47.6509083,
  "lon": 9.4828819
},
{
  "type": "node",
  "id": 1131564084,
  "lat": 47.6508507,
  "lon": 9.4827832
},
{
  "type": "node",
  "id": 1131564110,
  "lat": 47.6505037,
  "lon": 9.4827371
},
{
  "type": "node",
  "id": 2191685182,
  "lat": 47.6507988,
  "lon": 9.4828537
},
{
  "type": "node",
  "id": 6912840553,
  "lat": 47.6504626,
  "lon": 9.4827846
},
{
  "type": "node",
  "id": 7125168440,
  "lat": 47.6507580,
  "lon": 9.4827783
},
{
  "type": "node",
  "id": 7125168443,
  "lat": 47.6504808,
  "lon": 9.4828193
},
{
  "type": "node",
  "id": 7125168444,
  "lat": 47.6504952,
  "lon": 9.4828467
},
{
  "type": "node",
  "id": 420051576,
  "lat": 47.6508761,
  "lon": 9.4836910
},
{
  "type": "node",
  "id": 420051578,
  "lat": 47.6511078,
  "lon": 9.4833954
},
{
  "type": "node",
  "id": 1131563958,
  "lat": 47.6510556,
  "lon": 9.4831574
},
{
  "type": "node",
  "id": 1131564185,
  "lat": 47.6510768,
  "lon": 9.4833453
},
{
  "type": "node",
  "id": 1131564254,
  "lat": 47.6510642,
  "lon": 9.4833253
},
{
  "type": "node",
  "id": 1131564378,
  "lat": 47.6511198,
  "lon": 9.4832562
},
{
  "type": "node",
  "id": 2191685171,
  "lat": 47.6505493,
  "lon": 9.4830720
},
{
  "type": "node",
  "id": 2191685176,
  "lat": 47.6507741,
  "lon": 9.4834942
},
{
  "type": "node",
  "id": 2072119783,
  "lat": 47.6667313,
  "lon": 9.4788967
},
{
  "type": "node",
  "id": 2072119803,
  "lat": 47.6667524,
  "lon": 9.4789400
},
{
  "type": "node",
  "id": 2072119804,
  "lat": 47.6667536,
  "lon": 9.4788981
},
{
  "type": "node",
  "id": 2072119827,
  "lat": 47.6667992,
  "lon": 9.4789430
},
{
  "type": "node",
  "id": 6595877934,
  "lat": 47.6667347,
  "lon": 9.4787811
},
{
  "type": "node",
  "id": 6595877935,
  "lat": 47.6668140,
  "lon": 9.4787839
},
{
  "type": "node",
  "id": 6595877943,
  "lat": 47.6668009,
  "lon": 9.4788841
},
{
  "type": "node",
  "id": 6595877944,
  "lat": 47.6668111,
  "lon": 9.4788848
},
{
  "type": "node",
  "id": 2103498975,
  "lat": 47.7048190,
  "lon": 9.5113973
},
{
  "type": "node",
  "id": 2103498977,
  "lat": 47.7048679,
  "lon": 9.5112842
},
{
  "type": "node",
  "id": 2103498978,
  "lat": 47.7048880,
  "lon": 9.5114631
},
{
  "type": "node",
  "id": 2103498979,
  "lat": 47.7049368,
  "lon": 9.5113500
},
{
  "type": "node",
  "id": 2465475915,
  "lat": 47.8649302,
  "lon": 9.4267544
},
{
  "type": "node",
  "id": 2465475916,
  "lat": 47.8650843,
  "lon": 9.4269392
},
{
  "type": "node",
  "id": 2465475917,
  "lat": 47.8649871,
  "lon": 9.4266490
},
{
  "type": "node",
  "id": 2465475918,
  "lat": 47.8651412,
  "lon": 9.4268337
},
{
  "type": "node",
  "id": 6968984316,
  "lat": 47.8651396,
  "lon": 9.4268368
},
{
  "type": "node",
  "id": 6968984317,
  "lat": 47.8650861,
  "lon": 9.4269358
},
{
  "type": "node",
  "id": 766587760,
  "lat": 47.9186338,
  "lon": 9.3600006
},
{
  "type": "node",
  "id": 766587765,
  "lat": 47.9184991,
  "lon": 9.3594807
},
{
  "type": "node",
  "id": 766587767,
  "lat": 47.9192415,
  "lon": 9.3588136
},
{
  "type": "node",
  "id": 766587770,
  "lat": 47.9193156,
  "lon": 9.3595031
},
{
  "type": "node",
  "id": 766587773,
  "lat": 47.9193557,
  "lon": 9.3596542
},
{
  "type": "node",
  "id": 2312625784,
  "lat": 47.9187846,
  "lon": 9.3600045
},
{
  "type": "node",
  "id": 2312625785,
  "lat": 47.9187866,
  "lon": 9.3592447
},
{
  "type": "node",
  "id": 2312625786,
  "lat": 47.9187905,
  "lon": 9.3591136
},
{
  "type": "node",
  "id": 2312625787,
  "lat": 47.9188065,
  "lon": 9.3601058
},
{
  "type": "node",
  "id": 2312625790,
  "lat": 47.9192389,
  "lon": 9.3591445
},
{
  "type": "node",
  "id": 2312625791,
  "lat": 47.9192997,
  "lon": 9.3598543
},
{
  "type": "node",
  "id": 5498025241,
  "lat": 47.9193563,
  "lon": 9.3597566
}

  ]
}
