{
  "version": 0.6,
  "generator": "Overpass API 0.7.55.9 ab41fea6",
  "osm3s": {
    "timestamp_osm_base": "2020-02-14T10:29:02Z",
    "copyright": "The data included in this document is from www.openstreetmap.org. The data is made available under ODbL."
  },
  "elements": [

{
  "type": "node",
  "id": 33234783,
  "lat": 49.3367961,
  "lon": 11.0181305,
  "tags": {
    "name": "Schwabacher Stadtmuseum",
    "tourism": "museum",
    "wheelchair": "yes"
  }
},
{
  "type": "node",
  "id": 60010627,
  "lat": 49.4570189,
  "lon": 11.0810039,
  "tags": {
    "contact:email": "spielearchiv@stadt.nuernberg.de",
    "name": "Deutsches Spielearchiv Nürnberg",
    "operator": "museen der stadt nürnberg",
    "phone": "+49 911 231 14810",
    "ref:isil": "none",
    "tourism": "museum",
    "website": "http://deutsches-spielearchiv.de",
    "wikidata": "Q1205987",
    "wikipedia": "de:Deutsches Spielearchiv Nürnberg"
  }
},
{
  "type": "node",
  "id": 82596749,
  "lat": 49.3379236,
  "lon": 10.7908390,
  "tags": {
    "addr:city": "Heilsbronn",
    "addr:country": "DE",
    "addr:housename": "Konventhaus",
    "addr:housenumber": "5",
    "addr:postcode": "91560",
    "addr:street": "Hauptstraße",
    "name": "Stadtgeschichtliches Museum",
    "tourism": "museum",
    "wheelchair": "yes"
  }
},
{
  "type": "node",
  "id": 171245288,
  "lat": 49.4763925,
  "lon": 11.2217091,
  "tags": {
    "name": "Museum für historische Wehrtechnik",
    "tourism": "museum",
    "website": "http://www.wehrtechnikmuseum.de/index.html",
    "wikidata": "Q1954627"
  }
},
{
  "type": "node",
  "id": 194139280,
  "lat": 49.2785139,
  "lon": 11.4566611,
  "tags": {
    "contact:fax": "+49 9181 255198",
    "contact:phone": "+49 9181 2401",
    "contact:website": "http://www.stadtmuseum.neumarkt.de",
    "name": "Stadtmuseum",
    "tourism": "museum",
    "wikidata": "Q62008847"
  }
},
{
  "type": "node",
  "id": 194170726,
  "lat": 49.2817623,
  "lon": 11.4628810,
  "tags": {
    "addr:city": "Neumarkt in der Oberpfalz",
    "addr:country": "DE",
    "addr:housenumber": "7a",
    "addr:postcode": "92318",
    "addr:street": "Weiherstraße",
    "contact:email": "info@museum-lothar-fischer.de",
    "contact:fax": "+49 9181 511392",
    "contact:phone": "+49 9181 510348",
    "contact:website": "http://www.museum-lothar-fischer.de",
    "name": "Museum Lothar Fischer",
    "opening_hours": "We-Fr 14:00-17:00; Sa-Su 11:00-17:00; Mo,Tu off",
    "tourism": "museum",
    "wheelchair": "yes",
    "wikidata": "Q1954470",
    "wikipedia": "de:Museum Lothar Fischer"
  }
},
{
  "type": "node",
  "id": 250148138,
  "lat": 49.4339695,
  "lon": 11.1126843,
  "tags": {
    "addr:city": "Nürnberg",
    "addr:country": "DE",
    "addr:housenumber": "110",
    "addr:postcode": "90478",
    "addr:street": "Bayernstraße",
    "email": "dokumentationszentrum@stadt.nuernberg.de",
    "name": "Dokumentationszentrum Reichsparteitagsgelände",
    "name:de": "Dokumentationszentrum Reichsparteitagsgelände",
    "name:el": "Κέντρο Τεκμηρίωσης του Κογκρέσου του Ναζιστικού Κόμματος",
    "name:en": "Documentation Center Nazi Party Rally Grounds",
    "name:ru": "Центр документации нацистской партии",
    "opening_hours": "Mo-Fr 09:00-17:00; Sa-Su,PH 10:00-17:00; Dec24 off; Dec 25 off",
    "phone": "+49 911 231 7312",
    "toilets:wheelchair": "yes",
    "tourism": "museum",
    "website": "http://www.dokumentationszentrum-nuernberg.de/",
    "wheelchair": "yes",
    "wheelchair:description": "Eingang unterhalb Treppe Haupteingang Aufzug z Foyer verschiedenen Ebenen Eingang nicht geöffnet bitte läuten 2 Rollstühle bitte reservieren. Ebene 1 rollstuhlgerechte Toilette. Treppenlifts bitte Klingel Audioguide Brailleschrift leichter Sprache",
    "wikidata": "Q877333",
    "wikipedia": "de:Dokumentationszentrum Reichsparteitagsgelände"
  }
},
{
  "type": "node",
  "id": 251258537,
  "lat": 49.4738863,
  "lon": 10.9871071,
  "tags": {
    "addr:city": "Fürth",
    "addr:country": "DE",
    "addr:housenumber": "2",
    "addr:postcode": "90762",
    "addr:street": "Ottostraße",
    "blind:description:de": "Es werden Führungen für Blinde angeboten unter dem Titel \"Anfassen erlaubt!\"",
    "name": "Stadtmuseum Fürth",
    "opening_hours": "Tu-Th 10:00-16:00; Sa 13:00-17:00; Su 10:00-16:00; Th[1] 10:00-22:00",
    "tourism": "museum",
    "website": "http://www.stadtmuseum-fuerth.de",
    "wheelchair": "yes",
    "wikidata": "Q2327651"
  }
},
{
  "type": "node",
  "id": 256198465,
  "lat": 49.1893127,
  "lon": 11.1907483,
  "tags": {
    "name": "Zum Schwarzen Roß",
    "opening_hours": "May-Oct: Mo 13:00-17:00; Nov-Apr: Su, Ph 13:30-16:30",
    "phone": "+49 9174 978507",
    "tourism": "museum",
    "wheelchair": "no"
  }
},
{
  "type": "node",
  "id": 265694205,
  "lat": 49.4938435,
  "lon": 11.2441187,
  "tags": {
    "name": "Heimatmuseum",
    "tourism": "museum"
  }
},
{
  "type": "node",
  "id": 291212815,
  "lat": 49.4941419,
  "lon": 10.7944602,
  "tags": {
    "description": "Heimatmuseum. Öffnungszeiten: ganzjährig am 1. Sonntag im Monat, 14 – 16 Uhr, Außerdem am Kirchweihsamstag, -sonntag, zum Altstadtfest und zum Weihnachtsmarkt, oder auch nach telefonischer oder email Vereinbarung, auch für Gruppen.",
    "image": "https://upload.wikimedia.org/wikipedia/commons/7/74/Heimatmuseum_Langenzenn.jpg",
    "name": "Heimatmuseum",
    "tourism": "museum",
    "website": "http://www.heimatverein-langenzenn.de/museen/heimatmuseeum/",
    "wheelchair": "no"
  }
},
{
  "type": "node",
  "id": 337305804,
  "lat": 49.3558521,
  "lon": 11.1002635,
  "tags": {
    "name": "Heimatmuseum Kornburg",
    "tourism": "museum",
    "wikidata": "Q76628880"
  }
},
{
  "type": "node",
  "id": 358482359,
  "lat": 49.5099120,
  "lon": 11.4293042,
  "tags": {
    "addr:city": "Hersbruck",
    "addr:country": "DE",
    "addr:housenumber": "7",
    "addr:postcode": "91217",
    "addr:street": "Eisenhüttlein",
    "email": "hirtenmuseum@hersbruck.de",
    "name": "Deutsches Hirtenmuseum",
    "opening_hours": "Fr-Su 10:00-16:00",
    "phone": "+49 9151 2161",
    "tourism": "museum",
    "website": "http://www.deutsches-hirtenmuseum.de/",
    "wheelchair": "no",
    "wikidata": "Q1205697",
    "wikipedia": "de:Deutsches Hirtenmuseum"
  }
},
{
  "type": "node",
  "id": 392335177,
  "lat": 49.5094810,
  "lon": 11.4310525,
  "tags": {
    "addr:city": "Hersbruck",
    "addr:country": "DE",
    "addr:housenumber": "17",
    "addr:postcode": "91217",
    "addr:street": "Mauerweg",
    "name": "Dokumentationsstätte KZ Hersbruck",
    "phone": "+49 9151 82 29 20",
    "tourism": "museum",
    "website": "http://www.kz-hersbruck-info.de",
    "wheelchair": "no"
  }
},
{
  "type": "node",
  "id": 410270922,
  "lat": 49.1756263,
  "lon": 10.9248686,
  "tags": {
    "addr:city": "Spalt",
    "addr:country": "DE",
    "addr:housenumber": "27",
    "addr:postcode": "91174",
    "addr:street": "Hauptstraße",
    "name": "Feuerwehrmuseum",
    "tourism": "museum",
    "wikidata": "Q76629510"
  }
},
{
  "type": "node",
  "id": 410270924,
  "lat": 49.1737822,
  "lon": 10.9255706,
  "tags": {
    "addr:housenumber": "12",
    "addr:street": "Am Oberen Tor",
    "name": "Handwerkerstuben",
    "tourism": "museum"
  }
},
{
  "type": "node",
  "id": 410270926,
  "lat": 49.1734244,
  "lon": 10.9263571,
  "tags": {
    "addr:housenumber": "12",
    "addr:street": "Turmgasse",
    "name": "Heimatstuben",
    "tourism": "museum"
  }
},
{
  "type": "node",
  "id": 428282038,
  "lat": 49.2435890,
  "lon": 10.9625108,
  "tags": {
    "addr:housenumber": "16",
    "addr:street": "Burgstraße",
    "name": "Klöppelmuseum und Haus fränkischer Geschichte",
    "tourism": "museum",
    "wheelchair": "no"
  }
},
{
  "type": "node",
  "id": 442338814,
  "lat": 49.1610140,
  "lon": 11.1251013,
  "tags": {
    "name": "Laffenauer Dorfmuseum",
    "tourism": "museum"
  }
},
{
  "type": "node",
  "id": 446273700,
  "lat": 49.6571652,
  "lon": 11.0327381,
  "tags": {
    "name": "Meerrettich-Museum-Baiersdorf",
    "tourism": "museum",
    "wheelchair": "no"
  }
},
{
  "type": "node",
  "id": 446859295,
  "lat": 49.4484454,
  "lon": 11.0669724,
  "tags": {
    "name": "Garnisonmuseum, Außenstelle Spittlertorturm",
    "tourism": "museum"
  }
},
{
  "type": "node",
  "id": 472372786,
  "lat": 49.5580166,
  "lon": 11.3412293,
  "tags": {
    "name": "Heimatmuseum",
    "tourism": "museum"
  }
},
{
  "type": "node",
  "id": 472372788,
  "lat": 49.5578659,
  "lon": 11.3412142,
  "tags": {
    "name": "Jüdisches Museum",
    "tourism": "museum",
    "wikidata": "Q1716823",
    "wikipedia": "de:Jüdisches Museum Franken"
  }
},
{
  "type": "node",
  "id": 540412159,
  "lat": 49.2738612,
  "lon": 11.4602481,
  "tags": {
    "addr:city": "Neumarkt",
    "addr:housenumber": "8",
    "addr:postcode": "92318",
    "addr:street": "Holzgartenstraße",
    "contact:email": "info@automuseum-maybach.de",
    "contact:phone": "+49 9181 4877100",
    "contact:website": "http://www.automuseum-maybach.de/",
    "name": "Museum für historische Maybach-Fahrzeuge",
    "opening_hours": "We-Su 10:00-17:00; Mo-Tu off",
    "tourism": "museum",
    "wheelchair": "yes",
    "wikidata": "Q1954705"
  }
},
{
  "type": "node",
  "id": 569524361,
  "lat": 49.7194005,
  "lon": 11.0554130,
  "tags": {
    "addr:city": "Forchheim",
    "addr:housenumber": "19",
    "addr:street": "Wallstraße",
    "fee": "5.€",
    "name": "Rote Mauer",
    "opening_hours": "Apr-Oct: Su 10:00-17:00",
    "source": "survey",
    "toilets:wheelchair": "no",
    "tourism": "museum",
    "website": "https://kaiserpfalz.forchheim.de/de/pfalzmuseum/erlebnismuseum-rote-mauer/",
    "wheelchair": "no"
  }
},
{
  "type": "node",
  "id": 600154183,
  "lat": 49.3550280,
  "lon": 11.3163018,
  "tags": {
    "name": "Heimat und Kanalmuseum",
    "tourism": "museum",
    "wheelchair": "no"
  }
},
{
  "type": "node",
  "id": 602731918,
  "lat": 49.7196589,
  "lon": 11.0646360,
  "tags": {
    "fee": "yes",
    "name": "Feuerwehrmuseum",
    "opening_hours": "\"Nur nach Vereinbarung\"",
    "toilets:wheelchair": "no",
    "tourism": "museum",
    "website": "http://www.ffw-forchheim.de/verein/museum",
    "wheelchair": "no"
  }
},
{
  "type": "node",
  "id": 667068550,
  "lat": 49.4573976,
  "lon": 11.0955363,
  "tags": {
    "addr:city": "Nürnberg",
    "addr:housenumber": "42",
    "addr:postcode": "90489",
    "addr:street": "Sulzbacher Straße",
    "fee": "yes",
    "name": "Rotkreuz-Museum",
    "opening_hours": "Mar-Dec: Sa[2] 10:00-14:00; Sa[3] 10:00-14:00; We 14:00-18:00",
    "phone": "+49 911 5301 263",
    "tourism": "museum",
    "website": "http://www.rotkreuz-museum-nuernberg.de",
    "wheelchair": "limited",
    "wheelchair:description": "Treppe",
    "wikidata": "Q2168814",
    "wikipedia": "de:Rotkreuz-Museum Nürnberg"
  }
},
{
  "type": "node",
  "id": 679759092,
  "lat": 49.5101603,
  "lon": 11.2802917,
  "tags": {
    "name": "\"Reichel'sche Schleif\"",
    "tourism": "museum",
    "website": "https://altstadtfreunde-lauf.de/de/2-sehenswuerdigkeiten/2b-reichelsche-schleif"
  }
},
{
  "type": "node",
  "id": 693336890,
  "lat": 49.4427824,
  "lon": 11.0523155,
  "tags": {
    "addr:city": "Nürnberg",
    "addr:country": "DE",
    "addr:housenumber": "17",
    "addr:postcode": "90439",
    "addr:street": "Michael-Ende-Straße",
    "email": "info@museum-im-koffer.de",
    "name": "Kinder- und Jugendmuseum",
    "phone": "+49911600040",
    "tourism": "museum",
    "website": "http://www.kindermuseum-nuernberg.de/"
  }
},
{
  "type": "node",
  "id": 707929405,
  "lat": 49.4489256,
  "lon": 11.0699685,
  "tags": {
    "addr:city": "Nürnberg",
    "addr:country": "DE",
    "addr:housenumber": "20",
    "addr:postcode": "90402",
    "addr:street": "Jakobsplatz",
    "description:entrance": "Zugang über Hofeinfahrt Zirkelschmiedsgasse",
    "fee": "yes",
    "name": "Feuerwehrmuseum",
    "opening_hours": "Sa[1] 13:00 - 17:00",
    "tourism": "museum",
    "website": "http://feuerwehrmuseum-nuernberg.de/Museum/",
    "wheelchair": "no",
    "wikidata": "Q1410049",
    "wikipedia": "de:Feuerwehrmuseum Nürnberg"
  }
},
{
  "type": "node",
  "id": 1317203934,
  "lat": 49.1326175,
  "lon": 11.1261832,
  "tags": {
    "name": "Heimatkundliche Sammlung",
    "tourism": "museum"
  }
},
{
  "type": "node",
  "id": 1368679020,
  "lat": 49.6468668,
  "lon": 11.2488130,
  "tags": {
    "name": "Turmuhrenmuseum Rammensee",
    "tourism": "museum"
  }
},
{
  "type": "node",
  "id": 1528865653,
  "lat": 49.4574452,
  "lon": 11.0748709,
  "tags": {
    "email": "info@felsengaenge-nuernberg.de",
    "name": "Historischer Kunstbunker",
    "note:opening_hours": "Führungen für Einzelpersonen finden zu den entsprechenden Zeiten statt.",
    "opening_hours": "Mo-Th 14:30; Fr 14:30, 17:30; Sa 11:30, 14:30, 17:30; Su 11:30, 14:30; Dec 25-26 14:30; Dec24 off; Dec 31 off; open \"Eintritt nur mit Führung möglich\"",
    "phone": "+49 911 227066",
    "tourism": "museum",
    "website": "http://www.historischer-kunstbunker.de/",
    "wheelchair": "no",
    "wikidata": "Q1620940",
    "wikipedia": "de:Historischer Kunstbunker"
  }
},
{
  "type": "node",
  "id": 1529939905,
  "lat": 49.4544391,
  "lon": 11.0480624,
  "tags": {
    "addr:city": "Nürnberg",
    "addr:housenumber": "72",
    "addr:postcode": "90429",
    "addr:street": "Bärenschanzstraße",
    "name": "Memorium Nürnberger Prozesse",
    "name:de": "Memorium Nürnberger Prozesse",
    "name:en": "Memorium Nuremberg Trials",
    "name:ru": "Мемориал Нюрнбергские процессы",
    "opening_hours": "We-Mo 10:00-18:00",
    "phone": "+4991132179372",
    "toilets:wheelchair": "yes",
    "tourism": "museum",
    "website": "http://www.memorium-nuernberg.de/",
    "wheelchair": "yes",
    "wikidata": "Q1920112",
    "wikipedia": "de:Memorium Nürnberger Prozesse"
  }
},
{
  "type": "node",
  "id": 1539266304,
  "lat": 49.4522153,
  "lon": 11.0695024,
  "tags": {
    "fee": "yes",
    "name": "turmdersinne",
    "opening_hours": "Tu-Fr 13:00-17:00; Sa,Su,PH 10:00-18:00",
    "phone": "+499119443281",
    "tourism": "museum",
    "website": "http://www.turmdersinne.de",
    "wheelchair": "no",
    "wikidata": "Q2460905",
    "wikipedia": "de:Turm der Sinne"
  }
},
{
  "type": "node",
  "id": 1539285608,
  "lat": 49.4455031,
  "lon": 11.0743607,
  "tags": {
    "addr:city": "Nürnberg",
    "addr:country": "DE",
    "addr:housenumber": "6",
    "addr:postcode": "90443",
    "addr:street": "Lessingstraße",
    "alt_name": "Museum für Kommunikation Nürnberg",
    "amenity": "library",
    "level": "1",
    "loc_name": "Verkehrsmuseum",
    "name": "DB Museum",
    "note:opening_hours": "Hat an Montagen in der Adventszeit geöffnet",
    "old_name": "Verkehrsmuseum",
    "opening_hours": "Mo off; Tu-Fr 09:00-17:00; Sa, Su, Ph 10:00-18:00; Jan 01 off; May 01 off; Dec 24 off; Dec 25 off; Dec 31 off",
    "payment:account_cards": "yes",
    "payment:credit_cards": "yes",
    "ref:isil": "DE-N31",
    "tourism": "museum",
    "website": "https://www.dbmuseum.de/",
    "wheelchair": "yes",
    "wikidata": "Q458915",
    "wikipedia": "de:Verkehrsmuseum Nürnberg"
  }
},
{
  "type": "node",
  "id": 1549267984,
  "lat": 49.4476576,
  "lon": 11.0799640,
  "tags": {
    "addr:city": "Nürnberg",
    "addr:country": "DE",
    "addr:housenumber": "5",
    "addr:postcode": "90402",
    "addr:street": "Luitpoldstraße",
    "name": "Neues Museum",
    "note": "Eingang liegt am Klarissenplatz",
    "opening_hours": "Mo off; Tu-Su 10:00-18:00; Th 10:00-20:00",
    "phone": "+49 911 240 20 69",
    "tourism": "museum",
    "website": "http://www.nmn.de",
    "wheelchair": "yes",
    "wikidata": "Q895720",
    "wikipedia": "de:Neues Museum Nürnberg"
  }
},
{
  "type": "node",
  "id": 1571414270,
  "lat": 49.3847095,
  "lon": 11.3554259,
  "tags": {
    "addr:city": "Altdorf b.Nürnberg",
    "addr:country": "DE",
    "addr:housenumber": "5",
    "addr:postcode": "90518",
    "addr:street": "Neubaugasse",
    "name": "Universitätsmuseum",
    "opening_hours": "Sa, Su 14:00-17:00",
    "tourism": "museum",
    "wheelchair": "no"
  }
},
{
  "type": "node",
  "id": 1580622766,
  "lat": 49.3754015,
  "lon": 11.2122112,
  "tags": {
    "addr:city": "Feucht",
    "addr:housenumber": "6",
    "addr:postcode": "90537",
    "addr:street": "Pfinzingstraße",
    "heritage": "yes",
    "image": "File:Hutzlerhaus (3).jpg",
    "name": "Zeidelmuseum",
    "opening_hours": "Su 13:30-17:30",
    "tourism": "museum",
    "website": "https://www.zeidelmuseum.de/",
    "wheelchair": "no"
  }
},
{
  "type": "node",
  "id": 1582440729,
  "lat": 49.4517717,
  "lon": 11.0847752,
  "tags": {
    "amenity": "library",
    "name": "Naturhistorisches Museum",
    "ref:isil": "DE-N36",
    "tourism": "museum",
    "website": "http://www.naturhistorischesmuseumnuernberg.de",
    "wheelchair": "limited",
    "wikidata": "Q1747361",
    "wikipedia": "de:Naturhistorisches Museum Nürnberg"
  }
},
{
  "type": "node",
  "id": 1582440755,
  "lat": 49.4515202,
  "lon": 11.0844147,
  "tags": {
    "addr:city": "Nürnberg",
    "addr:housenumber": "8",
    "addr:postcode": "90403",
    "addr:street": "Marientorgraben",
    "amenity": "library",
    "name": "Stadtarchiv Nürnberg",
    "ref:isil": "DE-N28",
    "tourism": "museum",
    "website": "http://www.stadtarchiv.nuernberg.de",
    "wheelchair": "yes",
    "wikidata": "Q2326574",
    "wikipedia": "de:Stadtarchiv Nürnberg"
  }
},
{
  "type": "node",
  "id": 1582440768,
  "lat": 49.4515163,
  "lon": 11.0834190,
  "tags": {
    "name": "Uhrenmuseum",
    "tourism": "museum",
    "wheelchair": "yes",
    "wikidata": "Q2474193",
    "wikipedia": "de:Uhrensammlung Karl Gebhardt"
  }
},
{
  "type": "node",
  "id": 1596090926,
  "lat": 49.4413443,
  "lon": 10.9560727,
  "tags": {
    "addr:city": "Zirndorf",
    "addr:country": "DE",
    "addr:housenumber": "2",
    "addr:postcode": "90513",
    "addr:street": "Spitalstraße",
    "name": "Städtisches Museum Zirndorf",
    "phone": "+4991196060590",
    "tourism": "museum",
    "website": "https://www.zirndorf.de/museum",
    "wheelchair": "no",
    "wikidata": "Q21035630"
  }
},
{
  "type": "node",
  "id": 1600964877,
  "lat": 49.6760135,
  "lon": 11.3367578,
  "tags": {
    "name": "Motorradmuseum",
    "tourism": "museum"
  }
},
{
  "type": "node",
  "id": 1621649098,
  "lat": 49.5504346,
  "lon": 10.7152963,
  "tags": {
    "name": "Heimatmuseum",
    "tourism": "museum",
    "website": "http://www.heimatmuseum-emskirchen.de/"
  }
},
{
  "type": "node",
  "id": 1621663213,
  "lat": 49.5637471,
  "lon": 10.7372324,
  "tags": {
    "addr:city": "Wilhelmsdorf",
    "addr:housename": "Rathaus",
    "addr:housenumber": "8",
    "addr:postcode": "91489",
    "addr:street": "Hugenottenplatz",
    "name": "Zirkelmuseum",
    "operator": "Heimatverein Eintracht Wilhelmsdorf",
    "tourism": "museum",
    "website": "http://www.zirkelmuseum.de",
    "wheelchair": "no"
  }
},
{
  "type": "node",
  "id": 1648303383,
  "lat": 49.4771168,
  "lon": 11.1132130,
  "tags": {
    "addr:city": "Nürnberg",
    "addr:country": "DE",
    "addr:housenumber": "51",
    "addr:postcode": "90411",
    "addr:street": "Klingenhofstraße",
    "email": "info@merks-motor-museum.de",
    "fax": "+49 911 5614 9498",
    "name": "MERKS MOTOR MUSEUM Oldtimermuseum",
    "opening_hours": "Th-Su 10:00-17:00",
    "phone": "+49 911 5614 9499",
    "tourism": "museum",
    "website": "http://www.merks-motor-museum.de",
    "wheelchair": "limited",
    "wheelchair:description": "Eingang ist barrierefrei mit Rampe...nur ein kleiner einziger Raum in der Ausstellung ist über 3 Stufen erreichbar...ansonste alles ebenerdig"
  }
},
{
  "type": "node",
  "id": 1738144091,
  "lat": 49.4811283,
  "lon": 11.2368333,
  "tags": {
    "addr:city": "Röthenbach a.d.Pegnitz",
    "addr:country": "DE",
    "addr:housenumber": "1",
    "addr:postcode": "90552",
    "addr:street": "Mühlgasse",
    "name": "Stadtmuseum Conradtyhaus",
    "tourism": "museum",
    "website": "https://stadtmuseum-conradtyhaus.de/"
  }
},
{
  "type": "node",
  "id": 1940641273,
  "lat": 49.4502909,
  "lon": 11.0824176,
  "tags": {
    "addr:city": "Nürnberg",
    "addr:country": "DE",
    "addr:housenumber": "22",
    "addr:postcode": "90402",
    "addr:street": "Kühnertsgasse",
    "description": "Museum für mittelalterliches Handwerk und Wohnen",
    "name": "Museum |22|20|18| Kühnertsgasse",
    "opening_hours": "Mo,Sa,Su 14:00-17:00",
    "operator": "Altstadtfreunde Nürnberg",
    "phone": "+49 911 241393",
    "tourism": "museum",
    "website": "http://www.altstadtfreunde-nuernberg.de/museum.html",
    "wheelchair": "no"
  }
},
{
  "type": "node",
  "id": 1963694841,
  "lat": 49.4699306,
  "lon": 11.1684503,
  "tags": {
    "description": "Ausstellung zur Geschichte und Technik der spätmittelalterlichen Industriesiedlung Hammer und der Entwicklung von Laufamholz",
    "description:opening_hours": "Sonntags ab Ostersonntag bis Oktober; Führungen auch nach Vereinbarung",
    "name": "Leben und arbeiten in Hammer",
    "opening_hours": "easter,Apr-Oct Su 14:00-17:00",
    "operator": "N-ERGIE",
    "phone": "+49 911 80258058",
    "tourism": "museum",
    "website": "https://www.n-ergie.de/n-ergie/schulinformation/besichtigungen/"
  }
},
{
  "type": "node",
  "id": 2290783242,
  "lat": 49.6113822,
  "lon": 11.1301431,
  "tags": {
    "name": "Felix-Müller-Museum",
    "tourism": "museum",
    "wheelchair": "no"
  }
},
{
  "type": "node",
  "id": 2299848503,
  "lat": 49.3861353,
  "lon": 11.0233959,
  "tags": {
    "museum": "railway",
    "name": "Feldbahn-Museum 500 e.V.",
    "tourism": "museum"
  }
},
{
  "type": "node",
  "id": 2409494782,
  "lat": 49.4611965,
  "lon": 11.0775317,
  "tags": {
    "addr:city": "Nürnberg",
    "addr:country": "DE",
    "addr:housenumber": "2",
    "addr:postcode": "90408",
    "addr:street": "Kaulbachstraße",
    "name": "Friedensmuseum",
    "opening_hours": "Mo 17:00-19:00; We 15:00-17:00",
    "operator": "Friedensmuseum Nürnberg e.V.",
    "phone": "+49-911-3609577",
    "tourism": "museum",
    "wheelchair": "limited",
    "wikidata": "Q1456860",
    "wikipedia": "de:Friedensmuseum Nürnberg"
  }
},
{
  "type": "node",
  "id": 2431199581,
  "lat": 49.6018558,
  "lon": 11.0034413,
  "tags": {
    "addr:city": "Erlangen",
    "addr:country": "DE",
    "addr:housenumber": "9",
    "addr:postcode": "91054",
    "addr:street": "Martin-Luther-Platz",
    "contact:phone": "+49 9131 862408",
    "contact:website": "https://www.erlangen.de/stadtmuseum/",
    "entrance": "yes",
    "name": "Stadtmuseum",
    "opening_hours": "Tu,We 09:00-17:00; Th 09:00-13:00,17:00-20:00; Fr 09:00-13:00; Sa,Su 11:00-17:00",
    "toilets:wheelchair": "yes",
    "tourism": "museum",
    "wheelchair": "yes",
    "wheelchair:description": "Rollstuhlgerechter Eingang 1Flg.-Tür B 96 cm el. Türöffner Schwellenlos Rollstuhlgerechtes WC Tür B 92cm WC H 55 cm Platz L. v. WC 77cm, Platz R. v. WC 20 cm, davor 112cm Armlehne Links WB H 87cm Aufzug TürB 90cm B141cmxL142cm P 52m DreifaltigkeitsK.",
    "wikidata": "Q51248685"
  }
},
{
  "type": "node",
  "id": 2528038877,
  "lat": 49.5155465,
  "lon": 11.3666959,
  "tags": {
    "addr:city": "Reichenschwand",
    "addr:country": "DE",
    "addr:housenumber": "8",
    "addr:postcode": "91244",
    "addr:street": "Rosenstraße",
    "fee": "no",
    "name": "Sammlung Werner Löffler",
    "telephone": "(0) 91 51-83 00 8-0",
    "tourism": "museum",
    "website": "http://www.loeffler.de.com/de/sammlung"
  }
},
{
  "type": "node",
  "id": 2623834519,
  "lat": 49.4580791,
  "lon": 11.0751891,
  "tags": {
    "name": "Kaiserburg-Museum",
    "operator": "Germanisches Nationalmuseum",
    "tourism": "museum",
    "website": "https://www.gnm.de/"
  }
},
{
  "type": "node",
  "id": 2623962785,
  "lat": 49.4532321,
  "lon": 11.0732730,
  "tags": {
    "name": "Henkerhaus",
    "name:de": "Henkerhaus",
    "name:ko": "헹커스테크",
    "opening_hours": "Apr-Dec Sa,Su 14:00-18:00",
    "tourism": "museum",
    "website": "http://henkerhaus-nuernberg.de/"
  }
},
{
  "type": "node",
  "id": 2639931263,
  "lat": 49.2745753,
  "lon": 11.4589635,
  "tags": {
    "name": "Bayerisches Metzgereimuseum",
    "tourism": "museum",
    "wheelchair": "limited"
  }
},
{
  "type": "node",
  "id": 2710451381,
  "lat": 49.4438449,
  "lon": 11.0725658,
  "tags": {
    "name": "DB Museum - Freigelände",
    "tourism": "museum",
    "wheelchair": "yes"
  }
},
{
  "type": "node",
  "id": 2787224227,
  "lat": 49.4349184,
  "lon": 11.1310304,
  "tags": {
    "addr:housenumber": "200",
    "addr:street": "Valznerweiherstraße",
    "name": "Club-Museum",
    "tourism": "museum",
    "website": "https://www.fcn.de/club/club-museum/",
    "wheelchair": "yes",
    "wikidata": "Q33473293"
  }
},
{
  "type": "node",
  "id": 2882293263,
  "lat": 49.4030401,
  "lon": 11.0935408,
  "tags": {
    "addr:city": "Nürnberg",
    "addr:country": "DE",
    "addr:housenumber": "40",
    "addr:postcode": "90469",
    "addr:street": "Schießplatzstraße",
    "name": "Deutsches Taubenmuseum",
    "note": "Achtung, Öffnungszeitenangaben unzuverlässig, Nachfragen empfehlenswert",
    "tourism": "museum",
    "website": "http://www.taubenmuseum.de"
  }
},
{
  "type": "node",
  "id": 2884970519,
  "lat": 49.5965902,
  "lon": 11.0185858,
  "tags": {
    "addr:city": "Erlangen",
    "addr:country": "DE",
    "addr:housenumber": "1",
    "addr:postcode": "91052",
    "addr:street": "Gebbertstraße",
    "contact:email": "medmuseum.team@siemens-healthineers.com",
    "contact:phone": "+49 9131 845442",
    "contact:website": "https://www.medmuseum.siemens.com/",
    "name": "Siemens MedMuseum",
    "opening_hours": "Mo-Fr 10:00-17:00, Sa-Su,PH off",
    "operator": "Siemens",
    "toilets:wheelchair": "yes",
    "tourism": "museum",
    "wheelchair": "yes"
  }
},
{
  "type": "node",
  "id": 3073030387,
  "lat": 49.6105348,
  "lon": 11.1295367,
  "tags": {
    "name": "Heimatmuseum (alter Bahnhof)",
    "tourism": "museum"
  }
},
{
  "type": "node",
  "id": 3073169379,
  "lat": 49.2515272,
  "lon": 11.2316844,
  "tags": {
    "tourism": "museum"
  }
},
{
  "type": "node",
  "id": 3184237582,
  "lat": 49.6899671,
  "lon": 11.0357273,
  "tags": {
    "addr:city": "Hausen",
    "addr:housenumber": "4",
    "addr:postcode": "91353",
    "addr:street": "Doktor-Kupfer-Straße",
    "name": "Dorfmuseum im Greifenhaus",
    "telephone": "09191/7372-0",
    "tourism": "museum",
    "website": "http://www.hausen.de",
    "wikidata": "Q76627836"
  }
},
{
  "type": "node",
  "id": 3265114076,
  "lat": 49.2635551,
  "lon": 11.3429065,
  "tags": {
    "addr:housenumber": "23",
    "addr:street": "Ludwigstraße",
    "name": "Dorfmuseum Fleischmichlhaus Pavelsbach",
    "tourism": "museum"
  }
},
{
  "type": "node",
  "id": 3740119708,
  "lat": 49.1752443,
  "lon": 10.9271613,
  "tags": {
    "addr:city": "Spalt",
    "addr:housenumber": "1",
    "addr:postcode": "91174",
    "addr:street": "Gabrieliplatz",
    "alt_name": "Museum im Kornhaus",
    "name": "HopfenBierGut",
    "opening_hours": "Tu-Su 10:00-17:00",
    "toilets:wheelchair": "yes",
    "tourism": "museum",
    "website": "http://www.hopfenbiergut.de/museum/",
    "wheelchair": "yes"
  }
},
{
  "type": "node",
  "id": 3752683893,
  "lat": 49.6510328,
  "lon": 11.4718926,
  "tags": {
    "addr:city": "Plech",
    "addr:housenumber": "8",
    "addr:street": "Schulstraße",
    "name": "Deutsches Kameramuseum",
    "opening_hours": "Su 11:00-17:00",
    "phone": "+49 9244 9825499",
    "tourism": "museum",
    "website": "http://www.kameramuseum.de",
    "wikidata": "Q1205762"
  }
},
{
  "type": "node",
  "id": 3879789922,
  "lat": 49.4868466,
  "lon": 10.9260289,
  "tags": {
    "name": "Museum Frauenkultur Regional-International",
    "opening_hours": "Th, Fr 14:00-18:00; Su 11:00-17:00",
    "phone": "+49 911 729377",
    "tourism": "museum",
    "website": "https://www.frauenindereinenwelt.de/",
    "wikidata": "Q15835872"
  }
},
{
  "type": "node",
  "id": 3968116665,
  "lat": 49.4001031,
  "lon": 10.6890306,
  "tags": {
    "name": "Heimatmuseum Dietenhofen",
    "tourism": "museum",
    "wikidata": "Q76627385"
  }
},
{
  "type": "node",
  "id": 4019320645,
  "lat": 49.3314504,
  "lon": 11.0227402,
  "tags": {
    "addr:city": "Schwabach",
    "addr:housenumber": "10a",
    "addr:postcode": "91126",
    "addr:street": "Synagogengasse",
    "name": "Jüdisches Museum Franken",
    "tourism": "museum",
    "website": "www.juedisches-museum.org/judisches-museum-franken-in-schwabach"
  }
},
{
  "type": "node",
  "id": 4142999228,
  "lat": 49.2068367,
  "lon": 10.9005684,
  "tags": {
    "addr:city": "Abenberg",
    "addr:housenumber": "1b",
    "addr:postcode": "91183",
    "addr:street": "Pflugsmühle",
    "email": "walter.mungenau@web.de",
    "name": "Fahrradmuseum Pflugsmühle",
    "operator": "Helmut Walter",
    "phone": "+49 9873 976744",
    "tourism": "museum",
    "website": "http://www.der-radsherr.de/"
  }
},
{
  "type": "node",
  "id": 4219347456,
  "lat": 49.6053158,
  "lon": 10.8846372,
  "tags": {
    "FIXME": "Falsches Gebäude",
    "addr:housenumber": "6",
    "addr:postcode": "91093",
    "addr:street": "Obermembach",
    "museum": "apis mellifera",
    "name": "Imkereckmuseum Obermembach",
    "tourism": "museum",
    "website": "http://www.deutscherimkerbund.de/153-Adressen_Bienenmuseen"
  }
},
{
  "type": "node",
  "id": 4460330790,
  "lat": 49.7176608,
  "lon": 11.0596812,
  "tags": {
    "addr:city": "Forchheim",
    "addr:housenumber": "2",
    "addr:postcode": "91301",
    "addr:street": "Paradeplatz",
    "name": "Heimatmuseum",
    "operator": "Heimatkreis Braunau Sudetenland e.V.",
    "toilets:wheelchair": "no",
    "tourism": "museum",
    "wheelchair": "no"
  }
},
{
  "type": "node",
  "id": 4460332589,
  "lat": 49.7208135,
  "lon": 11.0573959,
  "tags": {
    "addr:city": "Forchheim",
    "addr:housenumber": "4",
    "addr:postcode": "91301",
    "addr:street": "Krottental",
    "name": "Salzmagazin",
    "tourism": "museum"
  }
},
{
  "type": "node",
  "id": 4513404340,
  "lat": 49.2826904,
  "lon": 10.7825802,
  "tags": {
    "name": "Löhe-Zeit-Museum im Bahnhof",
    "tourism": "museum",
    "wheelchair": "no"
  }
},
{
  "type": "node",
  "id": 4825684686,
  "lat": 49.3533128,
  "lon": 11.1384362,
  "tags": {
    "name": "Drechslermuseum",
    "tourism": "museum"
  }
},
{
  "type": "node",
  "id": 4926337657,
  "lat": 49.4157371,
  "lon": 11.0175308,
  "tags": {
    "addr:city": "Stein",
    "addr:housenumber": "1",
    "addr:postcode": "90547",
    "addr:street": "Mühlstraße",
    "email": "info@heimat-und-kulturverein-stein.de",
    "fax": "+49 911 6804757",
    "name": "Heimatmuseum Stein",
    "opening_hours": "Su[3] 13:00-17:00",
    "operator": "Heimat- und Kulturverein Stein e. V.",
    "phone": "+49 911 6804757",
    "tourism": "museum",
    "website": "http://www.heimat-und-kulturverein-stein.de/hkmuseum.htm",
    "wikidata": "Q21403258",
    "wikipedia": "de:Heimatmuseum Stein (Mittelfranken)"
  }
},
{
  "type": "node",
  "id": 5037514852,
  "lat": 49.4588229,
  "lon": 10.8519240,
  "tags": {
    "email": "info@museum-cadolzburg.de",
    "name": "Historisches Museum",
    "opening_hours": "We-Su 14:00-17:00,",
    "phone": "+49 9103 6831086",
    "tourism": "museum",
    "website": "http://www.museum-cadolzburg.de/",
    "wheelchair": "no"
  }
},
{
  "type": "node",
  "id": 5065894830,
  "lat": 49.5182871,
  "lon": 11.0499313,
  "tags": {
    "name": "Heimatmuseum",
    "tourism": "museum"
  }
},
{
  "type": "node",
  "id": 5108203283,
  "lat": 49.4560605,
  "lon": 11.0830448,
  "tags": {
    "addr:housenumber": "33",
    "addr:street": "Innere Laufer Gasse",
    "level": "-1",
    "name": "Hutmuseum",
    "tourism": "museum",
    "website": "http://www.hutmuseum-nuernberg.de/",
    "wheelchair": "no",
    "wikidata": "Q76628888"
  }
},
{
  "type": "node",
  "id": 5119740141,
  "lat": 49.7203064,
  "lon": 11.0556377,
  "tags": {
    "addr:city": "Forchheim",
    "addr:country": "DE",
    "addr:housename": "Kaiserpfalz",
    "addr:housenumber": "16",
    "addr:postcode": "91301",
    "addr:street": "Kapellenstraße",
    "email": "kaiserpfalz@forchheim.de",
    "fax": "+49-9191-714-375",
    "name": "Pfalzmuseum",
    "opening_hours": "Tu-Su 10:00-17:00",
    "phone": "+49-9191-714-326",
    "tourism": "museum",
    "website": "https://kaiserpfalz.forchheim.de/de/pfalzmuseum/",
    "wheelchair": "limited",
    "wikidata": "Q76627577"
  }
},
{
  "type": "node",
  "id": 5352544497,
  "lat": 49.4943915,
  "lon": 10.7952941,
  "tags": {
    "description": "Bibelausstellung (geöffnet jeden ersten Sonntag im Monat)",
    "name": "Bibel-o-thek",
    "opening_hours": "Su 14:00-17:00",
    "tourism": "museum",
    "website": "http://bibel-o-thek.de"
  }
},
{
  "type": "node",
  "id": 5405870643,
  "lat": 49.4646772,
  "lon": 11.1723813,
  "tags": {
    "addr:city": "Nürnberg",
    "addr:country": "DE",
    "addr:housenumber": "39",
    "addr:postcode": "90482",
    "addr:street": "Schupfer Straße",
    "description": "Besichtung nur nach Voranmeldung",
    "email": "weizenglasmuseum.nbg@gmx.de",
    "name": "Weizenbierglasmuseum",
    "name:de": "Weizenbierglasmuseum",
    "name:en": "Wheat Beer Glass Museum",
    "tourism": "museum",
    "website": "http://www.weizenglasmuseum-nuernberg.de/"
  }
},
{
  "type": "node",
  "id": 5405883789,
  "lat": 49.4570039,
  "lon": 11.0749620,
  "tags": {
    "addr:city": "Nürnberg",
    "addr:housenumber": "19",
    "addr:postcode": "90403",
    "addr:street": "Bergstraße",
    "name": "Kasematten und Lochwasserleitung",
    "tourism": "museum"
  }
},
{
  "type": "node",
  "id": 5468715425,
  "lat": 49.5937898,
  "lon": 11.0049855,
  "tags": {
    "addr:city": "Erlangen",
    "addr:housenumber": "9",
    "addr:postcode": "91052",
    "addr:street": "Nürnberger Straße",
    "name": "Kunstmuseum Erlangen",
    "opening_hours": "We,Fr,Sa,Su,PH 11:00-15:00; Th 16:00-20:00",
    "operator": "Stadt Erlangen",
    "tourism": "museum",
    "website": "https://www.erlangen.de/desktopdefault.aspx/tabid-1386/",
    "wikidata": "Q15824605",
    "wikipedia": "de:Kunstmuseum Erlangen"
  }
},
{
  "type": "node",
  "id": 5515678448,
  "lat": 49.4574878,
  "lon": 11.0540826,
  "tags": {
    "addr:city": "Nürnberg",
    "addr:housenumber": "34",
    "addr:postcode": "90419",
    "addr:street": "Wiesentalstraße",
    "fee": "Erwachsene 3€, Ermäßigt 2€",
    "name": "BMF Museum Bayerische Metallwarenfabrik",
    "opening_hours": "Th,Su 14:00-18:00",
    "phone": "+49 911 8919006",
    "tourism": "museum",
    "website": "http://www.bmf-museum.de",
    "wikidata": "Q76628912"
  }
},
{
  "type": "node",
  "id": 6066525487,
  "lat": 49.4598472,
  "lon": 10.8502114,
  "tags": {
    "castle_type": "defensive",
    "castle_type:de": "burg",
    "historic": "castle",
    "name": "Burg Cadolzburg",
    "opening_hours": "Apr-Sep: Tu-Su 09:00-18:00; Oct-Mar:10:00-16:00,",
    "operator": "Bay. Schlossverwaltung",
    "phone": "+49 911 2446590",
    "toilets:wheelchair": "yes",
    "tourism": "museum",
    "website": "http://www.burg-cadolzburg.de",
    "wheelchair": "limited",
    "wikidata": "Q41369686"
  }
},
{
  "type": "node",
  "id": 6308610888,
  "lat": 49.2507589,
  "lon": 11.2362487,
  "tags": {
    "name": "Museum: Jacob Gilardi 1689-2006",
    "operator": "Markt Allersberg",
    "tourism": "museum"
  }
},
{
  "type": "node",
  "id": 6429020247,
  "lat": 49.3650053,
  "lon": 11.2695014,
  "tags": {
    "addr:city": "Schwarzenbruck",
    "addr:housenumber": "47",
    "addr:postcode": "90592",
    "addr:street": "Rummelsberg",
    "name": "Diakoniemuseum",
    "opening_hours": "Tu, Do, Sa 14:00-17:00",
    "operator": "Rummelsberger Diakonie e.V.",
    "tourism": "museum",
    "website": "https://www.diakoniemuseum.de/"
  }
},
{
  "type": "node",
  "id": 7179725633,
  "lat": 49.4769124,
  "lon": 10.9888728,
  "tags": {
    "fee": "yes",
    "name": "Kriminalmuseum Fürth",
    "opening_hours": "Su 13:00-17:00",
    "tourism": "museum",
    "website": "https://www.kriminalmuseum-fuerth.de/"
  }
},
{
  "type": "node",
  "id": 7179725634,
  "lat": 49.4771233,
  "lon": 10.9882237,
  "tags": {
    "addr:city": "Fürth",
    "addr:housenumber": "7",
    "addr:postcode": "90762",
    "addr:street": "Ludwig-Erhard-Straße",
    "description": "Der Lernsupermarkt fuer Kinder",
    "name": "Ludwigs Kleine Welt",
    "tourism": "museum",
    "website": "https://www.ludwig-erhard-zentrum.de/service/lernsupermarkt.html"
  }
},
{
  "type": "node",
  "id": 7191728424,
  "lat": 49.3751179,
  "lon": 11.2119126,
  "tags": {
    "addr:city": "Feucht",
    "addr:housenumber": "12,14",
    "addr:postcode": "90537",
    "addr:street": "Pfinzingstraße",
    "name": "Hermann-Oberth-Raumfahrt-Museum",
    "opening_hours": "Sa,Su 14:00-17:00",
    "tourism": "museum",
    "website": "http://www.oberth-museum.org/",
    "wheelchair": "no",
    "wikidata": "Q1610464",
    "wikipedia": "de:Hermann-Oberth-Raumfahrt-Museum"
  }
},
{
  "type": "node",
  "id": 7203804139,
  "lat": 49.4546058,
  "lon": 11.0742620,
  "tags": {
    "addr:city": "Nürnberg",
    "addr:housenumber": "13",
    "addr:postcode": "90403",
    "addr:street": "Karlstraße",
    "name": "Spielzeugmuseum",
    "name:en": "Toy Museum Nuremberg",
    "name:es": "Museo del Jueguete de Núremberg",
    "opening_hours": "Mo off; Tu-Fr 10:00-17:00; Sa,Su 10:00-18:00",
    "phone": "+49 911 2313164",
    "tourism": "museum",
    "website": "https://museen.nuernberg.de/spielzeugmuseum/",
    "wikidata": "Q2310413",
    "wikipedia": "de:Spielzeugmuseum Nürnberg"
  }
},
{
  "type": "way",
  "id": 18796762,
  "nodes": [
    2647828038,
    194170707,
    194170712,
    2647828034,
    2647828038
  ],
  "tags": {
    "building": "public",
    "tourism": "museum",
    "wikidata": "Q1954470"
  }
},
{
  "type": "way",
  "id": 28674190,
  "nodes": [
    315110974,
    972266110,
    315110975,
    666396820,
    666396822,
    666396821,
    315110977,
    315110974
  ],
  "tags": {
    "addr:city": "Nürnberg",
    "addr:country": "DE",
    "addr:housename": "Museum Industriekultur",
    "addr:housenumber": "60",
    "addr:postcode": "90491",
    "addr:street": "Äußere Sulzbacher Straße",
    "building": "industrial",
    "name": "Museum Industriekultur",
    "opening_hours": "Mo off; Tu-Fr 09:00-17:00; Sa,Su 10:00-18:00",
    "phone": "+49 911 2313875",
    "tourism": "museum",
    "website": "https://museen.nuernberg.de/museum-industriekultur/",
    "wikidata": "Q1423672",
    "wikipedia": "de:Museum Industriekultur (Nürnberg)"
  }
},
{
  "type": "way",
  "id": 31862063,
  "nodes": [
    356732935,
    356732937,
    1492274973,
    1492274971,
    356733022,
    1492274972,
    1492274974,
    356732938,
    356732940,
    3782177359,
    3782177358,
    356732935
  ],
  "tags": {
    "building": "yes",
    "building:levels": "2",
    "name": "Hirsvogelsaal",
    "roof:levels": "0.5",
    "roof:material": "roof_tiles",
    "roof:shape": "hipped",
    "source": "HiRes aerial imagery",
    "tourism": "museum",
    "wikipedia": "de:Hirsvogelsaal"
  }
},
{
  "type": "way",
  "id": 31862065,
  "nodes": [
    356732949,
    356732951,
    356733066,
    356732953,
    356732955,
    356732956,
    356732958,
    356732960,
    2152610341,
    2152610353,
    1492274956,
    356732961,
    356732963,
    356732964,
    3772932627,
    3772932636,
    356732966,
    356732967,
    356732976,
    356732977,
    3772932653,
    3772932650,
    356732970,
    356732973,
    356732974,
    356732971,
    3772932632,
    3772943558,
    3772932645,
    3772932644,
    3772943560,
    3772932641,
    3772932647,
    3772932639,
    3772943557,
    3772932656,
    356732949
  ],
  "tags": {
    "building": "yes",
    "castle_type": "stately",
    "castle_type:de": "schloss",
    "historic": "castle",
    "name": "Tucherschloss",
    "roof:material": "roof_tiles",
    "tourism": "museum",
    "wikidata": "Q2459075",
    "wikipedia": "de:Tucherschloss"
  }
},
{
  "type": "way",
  "id": 31978975,
  "nodes": [
    358802711,
    358365774,
    358365776,
    358365778,
    358802713,
    358802711
  ],
  "tags": {
    "building:part": "yes",
    "name": "Krankenhaus-Museum",
    "tourism": "museum"
  }
},
{
  "type": "way",
  "id": 32235509,
  "nodes": [
    361488520,
    361488521,
    361488522,
    361488523,
    361488524,
    1771950250,
    1771950253,
    1771950256,
    361488525,
    361488526,
    361488527,
    361488528,
    361488529,
    361488531,
    361488532,
    361488520
  ],
  "tags": {
    "building": "yes",
    "museum": "railway",
    "name": "Historisches Straßenbahndepot St. Peter",
    "source": "Yahoo",
    "tourism": "museum",
    "website": "http://www.sfnbg.de/index.php/de/das-depot",
    "wikidata": "Q1621032",
    "wikipedia": "de:Historisches Straßenbahndepot Nürnberg"
  }
},
{
  "type": "way",
  "id": 32264933,
  "nodes": [
    362614811,
    362614813,
    362614815,
    362614817,
    362614819,
    362614821,
    362614824,
    362614828,
    362614829,
    362614831,
    7103823242,
    362614833,
    362614835,
    362614811
  ],
  "tags": {
    "addr:city": "Nürnberg",
    "addr:country": "DE",
    "addr:housenumber": "72",
    "addr:postcode": "90411",
    "addr:street": "Klingenhofstraße",
    "building": "yes",
    "email": "info@ofenwerk.de",
    "fee": "no",
    "name": "Ofenwerk",
    "note": "Oldtimermuseum",
    "phone": "+49 911 5218207",
    "tourism": "museum",
    "website": "https://www.ofenwerk.de/"
  }
},
{
  "type": "way",
  "id": 32389427,
  "nodes": [
    2901980326,
    2290910444,
    2290910442,
    364372753,
    2290910434,
    2290910431,
    2290910417,
    364372754,
    2290910422,
    2290910415,
    2290910274,
    2290910429,
    2290910432,
    364372755,
    364372752,
    2290910451,
    2901980326
  ],
  "tags": {
    "addr:city": "Nürnberg",
    "addr:country": "DE",
    "addr:housenumber": "17",
    "addr:postcode": "90402",
    "addr:street": "Blumenstraße",
    "building": "yes",
    "name": "Kunstvilla",
    "note": "Museum für regionale Kunst",
    "opening_hours": "Tu-Su 10:00-18:00; We 10:00-20:00; Mo Off; ",
    "tourism": "museum",
    "wikidata": "Q59163428",
    "wikipedia": "de:Kunstvilla Nürnberg"
  }
},
{
  "type": "way",
  "id": 32477251,
  "nodes": [
    365156144,
    1505243550,
    1505243551,
    1806604145,
    1806604140,
    365156148,
    365367144,
    365156149,
    365156155,
    4770052491,
    365156156,
    365156144
  ],
  "tags": {
    "alt_name": "Dürer-Museum",
    "building": "yes",
    "building:levels": "4",
    "email": "albrecht-duerer-haus@stadt.nuernberg.de",
    "fax": "+49 911 231 2443",
    "name": "Albrecht-Dürer-Haus",
    "name:de": "Albrecht-Dürer-Haus",
    "name:en": "Albrecht Dürer's House",
    "name:ko": "뒤러의 집",
    "name:zh": "丢勒故居",
    "note:opening_hours": "Während des Christkindlsmarktes auch Montags geöffnet",
    "opening_hours": "Tu-Fr 10:00-17:00, Th 10:00-20:00, Sa,Su 10:00-18:00; Jul-Sep Mo 10:00-17:00; Dec 24 off; Dec 25 off,",
    "operator": "Stadt Nürnberg",
    "phone": "+49 911 231 2568",
    "roof:material": "roof_tiles",
    "source": "HiRes aerial imagery",
    "tourism": "museum",
    "website": "http://www.albrecht-duerer-haus.de/",
    "wheelchair": "no",
    "wikidata": "Q523148",
    "wikipedia": "de:Albrecht-Dürer-Haus"
  }
},
{
  "type": "way",
  "id": 37087174,
  "nodes": [
    3842575828,
    3842575826,
    3842575825,
    3842575824,
    3842575827,
    431323552,
    4458037790,
    431323553,
    1005996599,
    746264094,
    3842575828
  ],
  "tags": {
    "addr:city": "Fürth",
    "addr:country": "DE",
    "addr:housenumber": "37a",
    "addr:street": "Kurgartenstraße",
    "building": "yes",
    "children": "yes",
    "name": "Rundfunkmuseum",
    "opening_hours": "Tu-Fr 12:00-17:00; Sa,Su 10:00-17:00; \"last Th in the month\" 12:00-22:00; PH 10:00-17:00",
    "operator": "Stadt Fürth",
    "tourism": "museum",
    "wheelchair": "yes",
    "wheelchair:description": "elevator to all floors. But main entrance door needs to be opened by hand.",
    "wikidata": "Q1474539"
  }
},
{
  "type": "way",
  "id": 38369367,
  "nodes": [
    453313035,
    453313031,
    453313009,
    453313024,
    453313486,
    453313482,
    453313035
  ],
  "tags": {
    "addr:city": "Neunkirchen a. Sand",
    "addr:postcode": "91233",
    "addr:street": "Kersbacher Straße",
    "addr:suburb": "Speikern",
    "building": "yes",
    "name": "Fränkische Hopfenscheune",
    "source": "Gemeinde Neunkirchen am Sand",
    "tourism": "museum"
  }
},
{
  "type": "way",
  "id": 40399037,
  "nodes": [
    473135000,
    488468545,
    488468548,
    488468551,
    2060797372,
    488468553,
    1227855450,
    1227855447,
    1227855396,
    488468557,
    488468559,
    473135000
  ],
  "tags": {
    "addr:city": "Roßtal",
    "addr:country": "DE",
    "addr:housenumber": "13",
    "addr:postcode": "90574",
    "addr:street": "Schulstraße",
    "building": "yes",
    "building:colour": "#b1a89e",
    "building:levels": "1",
    "building:material": "timber_framing",
    "name": "Museumshof Roßtal",
    "roof:colour": "red",
    "roof:levels": "1",
    "roof:material": "roof_tiles",
    "roof:shape": "gabled",
    "tourism": "museum"
  }
},
{
  "type": "way",
  "id": 43137538,
  "nodes": [
    540405511,
    4366845205,
    4366845203,
    4366845204,
    4366845201,
    4366845202,
    540405516,
    540405511
  ],
  "tags": {
    "building": "yes",
    "name": "Fabrikmuseum",
    "tourism": "museum",
    "wheelchair": "no"
  }
},
{
  "type": "way",
  "id": 45436961,
  "nodes": [
    577782785,
    577782780,
    577782763,
    577782782,
    577782785
  ],
  "tags": {
    "addr:city": "Lauf a.d.Pegnitz",
    "addr:country": "DE",
    "addr:postcode": "91207",
    "addr:street": "Höllgasse",
    "building": "yes",
    "name": "Reichelsche Schleif",
    "tourism": "museum",
    "website": "https://altstadtfreunde-lauf.de/de/2-sehenswuerdigkeiten/2b-reichelsche-schleif"
  }
},
{
  "type": "way",
  "id": 93721880,
  "nodes": [
    1088296988,
    1088297160,
    1088296956,
    1088297146,
    1088296988
  ],
  "tags": {
    "building": "yes",
    "description": "Eintritt sm Automaten. Schlüssel im Gasthof Vogel",
    "fee": "yes",
    "fee:amount": "2 €",
    "name": "Badhaus",
    "note": "Medieval Public Bath House",
    "opening_hours": "09:00-18:00",
    "tourism": "museum"
  }
},
{
  "type": "way",
  "id": 94519233,
  "nodes": [
    1097935473,
    1097935457,
    1097935438,
    2740734001,
    1097935473
  ],
  "tags": {
    "addr:city": "Pommelsbrunn",
    "addr:country": "DE",
    "addr:postcode": "91224",
    "building": "yes",
    "name": "Naturkundliches Heimatmuseum",
    "opening_hours": "Su 14:00-17:00",
    "operator": "Heimat- und Museumsverein e.V.",
    "tourism": "museum",
    "website": "http://www.mein-pommelsbrunn.de/index.php?bereich=verein_id&id=1&menu=1&inline=1&auswahl=0"
  }
},
{
  "type": "way",
  "id": 95689769,
  "nodes": [
    1109379835,
    2209108281,
    1109380496,
    2209108320,
    1109380149,
    2209108355,
    1109379784,
    1109380356,
    1109380115,
    1109379834,
    1109380193,
    2697713790,
    2209108251,
    1109379835
  ],
  "tags": {
    "addr:city": "Nürnberg",
    "addr:country": "DE",
    "addr:housenumber": "54",
    "addr:postcode": "90441",
    "addr:street": "Zweibrückener Straße",
    "building": "yes",
    "fee": "yes",
    "name": "Garnisonmuseum",
    "opening_hours": "closed",
    "phone": "+49 911 6491159",
    "seamark:landmark:category": "tower",
    "seamark:landmark:conspicuity": "conspicuous",
    "seamark:type": "landmark",
    "source": "Bing",
    "tourism": "museum",
    "website": "https://tourismus.nuernberg.de/sehen/museen/aussergewoehnliche-museen/location/garnisonmuseum/",
    "wheelchair": "no",
    "wikidata": "Q76628872"
  }
},
{
  "type": "way",
  "id": 129819559,
  "nodes": [
    1431609482,
    1431609475,
    1431609479,
    1431609432,
    1431609482
  ],
  "tags": {
    "addr:city": "Neunkirchen a. Brand",
    "addr:country": "DE",
    "addr:housenumber": "8",
    "addr:postcode": "91077",
    "addr:street": "Wagnergasse",
    "addr:suburb": "Ermreuth",
    "building": "yes",
    "name": "Synagoge Ermreuth / Jüdisches Museum",
    "tourism": "museum",
    "website": "http://www.synagoge-museum-ermreuth.de/",
    "wheelchair": "yes"
  }
},
{
  "type": "way",
  "id": 136870076,
  "nodes": [
    1501594351,
    1501594350,
    1500832811,
    2210508276,
    1501594341,
    364389096,
    1501594343,
    3200778408,
    3200778407,
    3200778411,
    3200778412,
    1501594351
  ],
  "tags": {
    "addr:city": "Nürnberg",
    "addr:housenumber": "32",
    "addr:postcode": "90402",
    "addr:street": "Lorenzer Straße",
    "building": "yes",
    "building:colour": "#d1b9a2",
    "name": "Kunsthalle Nürnberg",
    "phone": "+49 911 2312853",
    "tourism": "museum",
    "website": "https://www.kunstkulturquartier.de/kunsthalle",
    "wheelchair": "yes",
    "wheelchair:description": "Eingang über seitliche Rampe möglich (rechts vom Haupteingang ums Eck)",
    "wikidata": "Q1792415",
    "wikipedia": "de:Kunsthalle Nürnberg"
  }
},
{
  "type": "way",
  "id": 161627426,
  "nodes": [
    279103138,
    279103139,
    573416467,
    573416460,
    1736015823,
    573416462,
    573416463,
    573416455,
    573416454,
    573416442,
    279103143,
    573416431,
    573416428,
    573416459,
    573416458,
    573416457,
    279103138
  ],
  "tags": {
    "building": "yes",
    "name": "Industriemuseum",
    "toilets:wheelchair": "yes",
    "tourism": "museum",
    "website": "http://www.industriemuseum-lauf.de",
    "wheelchair": "limited"
  }
},
{
  "type": "way",
  "id": 161627432,
  "nodes": [
    573416464,
    573416468,
    279103140,
    279103141,
    573416444,
    573416445,
    573416447,
    573416448,
    573364287,
    573416449,
    573416451,
    573416452,
    279103142,
    573416433,
    573416466,
    573416464
  ],
  "tags": {
    "building": "yes",
    "building:levels": "3",
    "name": "Industriemuseum",
    "toilets:wheelchair": "no",
    "tourism": "museum",
    "website": "http://www.industriemuseum-lauf.de",
    "wheelchair": "limited"
  }
},
{
  "type": "way",
  "id": 178451085,
  "nodes": [
    6276130085,
    4756517723,
    1888017882,
    4756517722,
    539204335,
    539204333,
    6276130085
  ],
  "tags": {
    "addr:city": "Fürth",
    "addr:country": "DE",
    "addr:housenumber": "5",
    "addr:postcode": "90762",
    "addr:street": "Ludwig-Erhard-Straße",
    "building": "construction",
    "name": "Ludwig Erhard Zentrum",
    "opening_hours": "Mo off; Tu-We 10:00-18:00, Th 10:00-20:00; Fr-Sa 10:00-18:00",
    "short_name": "LEZ",
    "toilets:wheelchair": "yes",
    "tourism": "museum",
    "website": "https://www.ludwig-erhard-zentrum.de/",
    "wheelchair": "yes",
    "wikidata": "Q18288271",
    "wikipedia": "de:Ludwig Erhard Zentrum"
  }
},
{
  "type": "way",
  "id": 198412624,
  "nodes": [
    2085443545,
    2085443536,
    2085443529,
    2085443538,
    2085443532,
    2085443527,
    2085443519,
    2085443526,
    2085443544,
    2085443547,
    2085443540,
    2085443521,
    2085443545
  ],
  "tags": {
    "building": "yes",
    "name": "Historischer Eisenhammer",
    "note": "Funktionstüchtiges Hammerwerk mit Luft-, Feder- und Fallhämmern",
    "source": "Bing",
    "telephone": "09171/81329",
    "telephone:alt": "09171/4784",
    "tourism": "museum",
    "website": "https://www.stadt-roth.de/lwwcm-rh/rh-publish.nsf/Content/GE-1-TO-Museen-Eisenhammer"
  }
},
{
  "type": "way",
  "id": 207047759,
  "nodes": [
    2171702216,
    2171702214,
    2171702211,
    3634953319,
    3634953532,
    3634953044,
    3634953318,
    3634956396,
    3634953533,
    3634953124,
    3634956507,
    2171702210,
    3634953320,
    3634953321,
    3634953125,
    3634952858,
    2171702216
  ],
  "tags": {
    "addr:city": "Heroldsberg",
    "addr:country": "DE",
    "addr:housenumber": "4",
    "addr:postcode": "90562",
    "addr:street": "Kirchenweg",
    "building": "yes",
    "email": "mail@weisses-schloss-heroldsberg.de",
    "historic": "castle",
    "name": "Weißes Schloß",
    "opening_hours": "We 10:00-13:00, Fr-Su 15:00-18:00",
    "tourism": "museum",
    "website": "http://www.weisses-schloss-heroldsberg.de/"
  }
},
{
  "type": "way",
  "id": 207430298,
  "nodes": [
    2176851314,
    2176851311,
    2176851312,
    2176851307,
    2176851313,
    2176851314
  ],
  "tags": {
    "building": "yes",
    "name": "Heimatmuseum",
    "tourism": "museum"
  }
},
{
  "type": "way",
  "id": 208747092,
  "nodes": [
    2190076063,
    6401205955,
    6401205956,
    1029897177,
    6401205957,
    2190076070,
    2190076090,
    2190076088,
    2190076094,
    2190076092,
    2190076078,
    2190076063
  ],
  "tags": {
    "addr:city": "Fürth",
    "addr:country": "DE",
    "addr:housenumber": "89",
    "addr:postcode": "90762",
    "addr:street": "Königstraße",
    "name": "Jüdisches Museum Franken",
    "opening_hours": "Tu 10:00-20:00; We-Su 10:00-17:00; Mo off",
    "tourism": "museum",
    "website": "http://www.juedisches-museum.org/judisches-museum-franken-in-furth/",
    "wikidata": "Q1716823",
    "wikipedia": "de:Jüdisches Museum Franken"
  }
},
{
  "type": "way",
  "id": 209308918,
  "nodes": [
    2195357383,
    2195357384,
    2195357381,
    2195357380,
    2195357383
  ],
  "tags": {
    "building": "yes",
    "operator": "Akademie der Bildenden Künste Nürnberg",
    "tourism": "museum"
  }
},
{
  "type": "way",
  "id": 229044633,
  "nodes": [
    365389168,
    2376815416,
    2942742391,
    2941182570,
    2941182531,
    2941182571,
    2376815410,
    2376815414,
    2376815413,
    2376815405,
    2376815409,
    2426056840,
    365389166,
    3129830383,
    365389168
  ],
  "tags": {
    "addr:city": "Nürnberg",
    "addr:country": "DE",
    "addr:housenumber": "15",
    "addr:postcode": "90403",
    "addr:street": "Burgstraße",
    "alt_name": "Stadtmuseum Fembohaus",
    "name": "Fembohaus",
    "opening_hours": "Tu-Fr 10:00-17:00; Sa-Su 10:00-18:00",
    "phone": "+49 911 231 2595",
    "tourism": "museum",
    "website": "http://www.museen.nuernberg.de",
    "wheelchair": "yes",
    "wikidata": "Q2327648",
    "wikipedia": "de:Stadtmuseum Fembohaus"
  }
},
{
  "type": "way",
  "id": 270228340,
  "nodes": [
    2752741448,
    2752741447,
    2752741410,
    2752741422,
    2752741436,
    2752741448
  ],
  "tags": {
    "addr:city": "Herzogenaurach",
    "addr:housenumber": "2",
    "addr:postcode": "91074",
    "addr:street": "Kirchenplatz",
    "building": "yes",
    "building:levels": "3",
    "building:material": "timberwork",
    "name": "Stadtmuseum",
    "opening_hours": "Th 17:00-20:00; Sa-Su 14:00-17:00",
    "operator": "Stadt Herzogenaurach",
    "roof:colour": "red",
    "roof:levels": "2",
    "roof:material": "roof_tiles",
    "telephone": "09132 901-116",
    "tourism": "museum",
    "website": "https://www.herzogenaurach.de/de/kultur-sport-und-freizeit/stadtmuseum.html",
    "wikidata": "Q17321530"
  }
},
{
  "type": "way",
  "id": 288478989,
  "nodes": [
    329426961,
    2920349244,
    2920349238,
    2920349242,
    2920349241,
    2920349240,
    2920349245,
    2920349236,
    329426961
  ],
  "tags": {
    "building": "yes",
    "name": "Jagd und Fischereimuseum",
    "open": "Sundays (not in winter) 13-17",
    "tourism": "museum"
  }
},
{
  "type": "way",
  "id": 291276296,
  "nodes": [
    2947136352,
    2947136353,
    2947136354,
    2947136355,
    559124206,
    2947136351,
    2947136352
  ],
  "tags": {
    "addr:city": "Hersbruck",
    "addr:housenumber": "2",
    "addr:postcode": "91217",
    "addr:street": "Amberger Straße",
    "building": "yes",
    "email": "info@kunstmuseum-hersbruck.de",
    "name": "Kunstmuseum Hersbruck",
    "phone": "+49 9151 862575",
    "tourism": "museum",
    "website": "https://www.kunstmuseum-hersbruck.de/",
    "wheelchair": "no"
  }
},
{
  "type": "way",
  "id": 292622392,
  "nodes": [
    2961582327,
    2961582326,
    2961582325,
    2961582328,
    2961582332,
    2961583065,
    2961583089,
    2961583101,
    2961583103,
    2961583102,
    2961583096,
    2961583081,
    2961583061,
    2961583036,
    2961583033,
    2961582329,
    2961582327
  ],
  "tags": {
    "barrier": "fence",
    "fee": "no",
    "name": "Walderlebniszentrum Tennenlohe",
    "opening_hours": "Nov-Mar: Mo-Th 08:00-16:00; Nov-Mar: Fr 08:00-14:00; Nov-Mar: Su,PH 11:00-17:00;Mar-Oct: Mo-Th 08:00-16:00; Mar-Oct: Fr 08:00-18:00; Mar-Oct: Sa 13:00-18:00; Mar-Oct: Su,PH 11:00-18:00",
    "tourism": "museum",
    "wheelchair": "yes"
  }
},
{
  "type": "way",
  "id": 404864698,
  "nodes": [
    4071174371,
    4071174372,
    4071174375,
    4071174373,
    4071174374,
    4071174371
  ],
  "tags": {
    "addr:city": "Hersbruck",
    "addr:housenumber": "76",
    "addr:postcode": "91217",
    "addr:street": "Amberger Straße",
    "building": "yes",
    "name": "Dokumentationsort KZ Hersbruck",
    "opening_hours": "Mo-Su,PH 10:00-18:00",
    "operator": "KZ-Gedenkstätte Flossenbürg",
    "tourism": "museum",
    "website": "https://www.gedenkstaette-flossenbuerg.de/geschichte/hersbruck/kz-aussenlager-hersbruck/",
    "wikidata": "Q1547244",
    "wikipedia": "de:KZ-Außenlager Hersbruck"
  }
},
{
  "type": "relation",
  "id": 56430,
  "members": [
    {
      "type": "way",
      "ref": 488061080,
      "role": "outer"
    },
    {
      "type": "way",
      "ref": 32492647,
      "role": "outer"
    }
  ],
  "tags": {
    "addr:city": "Nürnberg",
    "addr:country": "DE",
    "addr:housenumber": "1",
    "addr:postcode": "90402",
    "addr:street": "Kartäusergasse",
    "name": "Germanisches Nationalmuseum",
    "name:de": "Germanisches Nationalmuseum",
    "name:zh": "日耳曼民族國立博物館",
    "opening_hours": "Tu-Su, PH 10:00-18:00; We 10:00-21:00; Mo off",
    "phone": "+49 911 1331 0",
    "toilets:wheelchair": "yes",
    "tourism": "museum",
    "type": "multipolygon",
    "website": "https://www.gnm.de/",
    "wheelchair": "yes",
    "wheelchair:description": "alle Etagen sind problemlos mit einem Lift zu erreichen",
    "wikidata": "Q478695",
    "wikipedia": "de:Germanisches Nationalmuseum"
  }
},
{
  "type": "relation",
  "id": 151879,
  "members": [
    {
      "type": "way",
      "ref": 35399404,
      "role": ""
    },
    {
      "type": "way",
      "ref": 32391977,
      "role": ""
    },
    {
      "type": "way",
      "ref": 24213816,
      "role": ""
    }
  ],
  "tags": {
    "name": "Neues Museum - Staatliches Museum für Kunst und Design in Nürnberg",
    "tourism": "museum",
    "type": "site",
    "website": "http://www.nmn.de",
    "wikidata": "Q895720",
    "wikipedia": "de:Neues Museum Nürnberg"
  }
},
{
  "type": "node",
  "id": 473135000,
  "lat": 49.3967799,
  "lon": 10.8846642
},
{
  "type": "node",
  "id": 488468545,
  "lat": 49.3967450,
  "lon": 10.8843933
},
{
  "type": "node",
  "id": 488468548,
  "lat": 49.3968045,
  "lon": 10.8843752
},
{
  "type": "node",
  "id": 488468551,
  "lat": 49.3968296,
  "lon": 10.8845694
},
{
  "type": "node",
  "id": 488468553,
  "lat": 49.3969495,
  "lon": 10.8845329
},
{
  "type": "node",
  "id": 488468557,
  "lat": 49.3970645,
  "lon": 10.8844842
},
{
  "type": "node",
  "id": 488468559,
  "lat": 49.3970761,
  "lon": 10.8845740
},
{
  "type": "node",
  "id": 1227855396,
  "lat": 49.3970463,
  "lon": 10.8844897
},
{
  "type": "node",
  "id": 1227855447,
  "lat": 49.3970443,
  "lon": 10.8844741
},
{
  "type": "node",
  "id": 1227855450,
  "lat": 49.3969458,
  "lon": 10.8845041
},
{
  "type": "node",
  "id": 2060797372,
  "lat": 49.3969159,
  "lon": 10.8845431
},
{
  "type": "node",
  "id": 2752741410,
  "lat": 49.5685887,
  "lon": 10.8833983
},
{
  "type": "node",
  "id": 2752741422,
  "lat": 49.5685953,
  "lon": 10.8832589
},
{
  "type": "node",
  "id": 2752741436,
  "lat": 49.5687260,
  "lon": 10.8833073
},
{
  "type": "node",
  "id": 2752741447,
  "lat": 49.5685849,
  "lon": 10.8834787
},
{
  "type": "node",
  "id": 2752741448,
  "lat": 49.5687153,
  "lon": 10.8834760
},
{
  "type": "node",
  "id": 2176851307,
  "lat": 49.6183167,
  "lon": 10.8383999
},
{
  "type": "node",
  "id": 2176851311,
  "lat": 49.6179800,
  "lon": 10.8389096
},
{
  "type": "node",
  "id": 2176851312,
  "lat": 49.6182539,
  "lon": 10.8383323
},
{
  "type": "node",
  "id": 2176851313,
  "lat": 49.6183994,
  "lon": 10.8384979
},
{
  "type": "node",
  "id": 2176851314,
  "lat": 49.6181254,
  "lon": 10.8390740
},
{
  "type": "node",
  "id": 329426961,
  "lat": 49.6893549,
  "lon": 10.8773836
},
{
  "type": "node",
  "id": 2920349236,
  "lat": 49.6892761,
  "lon": 10.8773563
},
{
  "type": "node",
  "id": 2920349238,
  "lat": 49.6892543,
  "lon": 10.8774931
},
{
  "type": "node",
  "id": 2920349240,
  "lat": 49.6892256,
  "lon": 10.8773791
},
{
  "type": "node",
  "id": 2920349241,
  "lat": 49.6892161,
  "lon": 10.8774449
},
{
  "type": "node",
  "id": 2920349242,
  "lat": 49.6892592,
  "lon": 10.8774598
},
{
  "type": "node",
  "id": 2920349244,
  "lat": 49.6893350,
  "lon": 10.8775210
},
{
  "type": "node",
  "id": 2920349245,
  "lat": 49.6892705,
  "lon": 10.8773947
},
{
  "type": "node",
  "id": 540405516,
  "lat": 49.2467331,
  "lon": 11.0950312
},
{
  "type": "node",
  "id": 4366845202,
  "lat": 49.2466824,
  "lon": 11.0951458
},
{
  "type": "node",
  "id": 540405511,
  "lat": 49.2470057,
  "lon": 11.0953145
},
{
  "type": "node",
  "id": 4366845201,
  "lat": 49.2466283,
  "lon": 11.0952678
},
{
  "type": "node",
  "id": 4366845203,
  "lat": 49.2466868,
  "lon": 11.0954128
},
{
  "type": "node",
  "id": 4366845204,
  "lat": 49.2467123,
  "lon": 11.0953551
},
{
  "type": "node",
  "id": 4366845205,
  "lat": 49.2468754,
  "lon": 11.0956088
},
{
  "type": "node",
  "id": 2085443519,
  "lat": 49.2204806,
  "lon": 11.1337156
},
{
  "type": "node",
  "id": 2085443521,
  "lat": 49.2202938,
  "lon": 11.1335876
},
{
  "type": "node",
  "id": 2085443526,
  "lat": 49.2204847,
  "lon": 11.1337586
},
{
  "type": "node",
  "id": 2085443527,
  "lat": 49.2205686,
  "lon": 11.1336961
},
{
  "type": "node",
  "id": 2085443529,
  "lat": 49.2206027,
  "lon": 11.1336506
},
{
  "type": "node",
  "id": 2085443532,
  "lat": 49.2205722,
  "lon": 11.1337342
},
{
  "type": "node",
  "id": 2085443536,
  "lat": 49.2208238,
  "lon": 11.1336016
},
{
  "type": "node",
  "id": 2085443538,
  "lat": 49.2206098,
  "lon": 11.1337259
},
{
  "type": "node",
  "id": 2085443540,
  "lat": 49.2203053,
  "lon": 11.1337089
},
{
  "type": "node",
  "id": 2085443544,
  "lat": 49.2204222,
  "lon": 11.1337724
},
{
  "type": "node",
  "id": 2085443545,
  "lat": 49.2208115,
  "lon": 11.1334727
},
{
  "type": "node",
  "id": 2085443547,
  "lat": 49.2204139,
  "lon": 11.1336847
},
{
  "type": "node",
  "id": 539204333,
  "lat": 49.4770798,
  "lon": 10.9888658
},
{
  "type": "node",
  "id": 539204335,
  "lat": 49.4769740,
  "lon": 10.9886987
},
{
  "type": "node",
  "id": 1888017882,
  "lat": 49.4771392,
  "lon": 10.9885110
},
{
  "type": "node",
  "id": 2190076063,
  "lat": 49.4770695,
  "lon": 10.9902764
},
{
  "type": "node",
  "id": 2190076078,
  "lat": 49.4771796,
  "lon": 10.9901603
},
{
  "type": "node",
  "id": 2190076092,
  "lat": 49.4772546,
  "lon": 10.9903083
},
{
  "type": "node",
  "id": 4756517722,
  "lat": 49.4771202,
  "lon": 10.9884824
},
{
  "type": "node",
  "id": 4756517723,
  "lat": 49.4772195,
  "lon": 10.9883912
},
{
  "type": "node",
  "id": 6276130085,
  "lat": 49.4773029,
  "lon": 10.9885220
},
{
  "type": "node",
  "id": 6401205955,
  "lat": 49.4770386,
  "lon": 10.9903071
},
{
  "type": "node",
  "id": 1029897177,
  "lat": 49.4770149,
  "lon": 10.9906303
},
{
  "type": "node",
  "id": 2190076070,
  "lat": 49.4771689,
  "lon": 10.9905180
},
{
  "type": "node",
  "id": 2190076088,
  "lat": 49.4772292,
  "lon": 10.9904621
},
{
  "type": "node",
  "id": 2190076090,
  "lat": 49.4772298,
  "lon": 10.9904721
},
{
  "type": "node",
  "id": 2190076094,
  "lat": 49.4772909,
  "lon": 10.9904099
},
{
  "type": "node",
  "id": 6401205956,
  "lat": 49.4769282,
  "lon": 10.9904170
},
{
  "type": "node",
  "id": 6401205957,
  "lat": 49.4771274,
  "lon": 10.9905182
},
{
  "type": "node",
  "id": 1109379784,
  "lat": 49.4272448,
  "lon": 11.0461486
},
{
  "type": "node",
  "id": 1109379834,
  "lat": 49.4271423,
  "lon": 11.0462178
},
{
  "type": "node",
  "id": 1109379835,
  "lat": 49.4270981,
  "lon": 11.0460663
},
{
  "type": "node",
  "id": 1109380115,
  "lat": 49.4271905,
  "lon": 11.0462231
},
{
  "type": "node",
  "id": 1109380149,
  "lat": 49.4272320,
  "lon": 11.0460304
},
{
  "type": "node",
  "id": 1109380193,
  "lat": 49.4271124,
  "lon": 11.0461847
},
{
  "type": "node",
  "id": 1109380356,
  "lat": 49.4272231,
  "lon": 11.0461969
},
{
  "type": "node",
  "id": 1109380496,
  "lat": 49.4271536,
  "lon": 11.0459898
},
{
  "type": "node",
  "id": 2209108251,
  "lat": 49.4270947,
  "lon": 11.0461268
},
{
  "type": "node",
  "id": 2209108281,
  "lat": 49.4271198,
  "lon": 11.0460169
},
{
  "type": "node",
  "id": 2209108320,
  "lat": 49.4271981,
  "lon": 11.0459937
},
{
  "type": "node",
  "id": 2209108355,
  "lat": 49.4272483,
  "lon": 11.0460838
},
{
  "type": "node",
  "id": 2697713790,
  "lat": 49.4270986,
  "lon": 11.0461397
},
{
  "type": "node",
  "id": 94977276,
  "lat": 49.4480120,
  "lon": 11.0752407
},
{
  "type": "node",
  "id": 94977279,
  "lat": 49.4488493,
  "lon": 11.0753513
},
{
  "type": "node",
  "id": 94977301,
  "lat": 49.4473748,
  "lon": 11.0750624
},
{
  "type": "node",
  "id": 248964444,
  "lat": 49.4486097,
  "lon": 11.0743052
},
{
  "type": "node",
  "id": 248964446,
  "lat": 49.4485474,
  "lon": 11.0751042
},
{
  "type": "node",
  "id": 248964448,
  "lat": 49.4482052,
  "lon": 11.0749423
},
{
  "type": "node",
  "id": 248964449,
  "lat": 49.4480971,
  "lon": 11.0749742
},
{
  "type": "node",
  "id": 248964450,
  "lat": 49.4480905,
  "lon": 11.0750618
},
{
  "type": "node",
  "id": 248964451,
  "lat": 49.4477630,
  "lon": 11.0749848
},
{
  "type": "node",
  "id": 248964452,
  "lat": 49.4478155,
  "lon": 11.0744164
},
{
  "type": "node",
  "id": 248964455,
  "lat": 49.4481296,
  "lon": 11.0744680
},
{
  "type": "node",
  "id": 364426569,
  "lat": 49.4475802,
  "lon": 11.0751166
},
{
  "type": "node",
  "id": 365313509,
  "lat": 49.4479439,
  "lon": 11.0744387
},
{
  "type": "node",
  "id": 365313603,
  "lat": 49.4485899,
  "lon": 11.0745435
},
{
  "type": "node",
  "id": 365313748,
  "lat": 49.4475230,
  "lon": 11.0745301
},
{
  "type": "node",
  "id": 365313752,
  "lat": 49.4475114,
  "lon": 11.0747814
},
{
  "type": "node",
  "id": 365313757,
  "lat": 49.4474375,
  "lon": 11.0747734
},
{
  "type": "node",
  "id": 365313761,
  "lat": 49.4474337,
  "lon": 11.0748564
},
{
  "type": "node",
  "id": 365313766,
  "lat": 49.4473773,
  "lon": 11.0748503
},
{
  "type": "node",
  "id": 365313770,
  "lat": 49.4473925,
  "lon": 11.0745193
},
{
  "type": "node",
  "id": 398315038,
  "lat": 49.4479255,
  "lon": 11.0751861
},
{
  "type": "node",
  "id": 398315041,
  "lat": 49.4479120,
  "lon": 11.0754423
},
{
  "type": "node",
  "id": 398315044,
  "lat": 49.4480001,
  "lon": 11.0754539
},
{
  "type": "node",
  "id": 398315047,
  "lat": 49.4475802,
  "lon": 11.0751615
},
{
  "type": "node",
  "id": 398315103,
  "lat": 49.4481420,
  "lon": 11.0742711
},
{
  "type": "node",
  "id": 398315107,
  "lat": 49.4481870,
  "lon": 11.0742805
},
{
  "type": "node",
  "id": 398315110,
  "lat": 49.4482095,
  "lon": 11.0751019
},
{
  "type": "node",
  "id": 398315119,
  "lat": 49.4481503,
  "lon": 11.0749528
},
{
  "type": "node",
  "id": 1509950416,
  "lat": 49.4474184,
  "lon": 11.0745221
},
{
  "type": "node",
  "id": 1509950418,
  "lat": 49.4474203,
  "lon": 11.0744814
},
{
  "type": "node",
  "id": 1509950420,
  "lat": 49.4474947,
  "lon": 11.0745270
},
{
  "type": "node",
  "id": 1509950428,
  "lat": 49.4474964,
  "lon": 11.0744897
},
{
  "type": "node",
  "id": 1509950438,
  "lat": 49.4485271,
  "lon": 11.0742902
},
{
  "type": "node",
  "id": 1550399706,
  "lat": 49.4482227,
  "lon": 11.0752912
},
{
  "type": "node",
  "id": 3221934652,
  "lat": 49.4476522,
  "lon": 11.0751641
},
{
  "type": "node",
  "id": 4044568842,
  "lat": 49.4474247,
  "lon": 11.0748554
},
{
  "type": "node",
  "id": 4044568844,
  "lat": 49.4474355,
  "lon": 11.0748187
},
{
  "type": "node",
  "id": 4044568848,
  "lat": 49.4481632,
  "lon": 11.0752607
},
{
  "type": "node",
  "id": 4044568849,
  "lat": 49.4481739,
  "lon": 11.0752695
},
{
  "type": "node",
  "id": 4044568850,
  "lat": 49.4481759,
  "lon": 11.0752864
},
{
  "type": "node",
  "id": 4044568851,
  "lat": 49.4482579,
  "lon": 11.0752221
},
{
  "type": "node",
  "id": 4044568852,
  "lat": 49.4482619,
  "lon": 11.0752951
},
{
  "type": "node",
  "id": 4044568853,
  "lat": 49.4485125,
  "lon": 11.0753068
},
{
  "type": "node",
  "id": 4044568854,
  "lat": 49.4485146,
  "lon": 11.0752564
},
{
  "type": "node",
  "id": 4044568855,
  "lat": 49.4485241,
  "lon": 11.0751473
},
{
  "type": "node",
  "id": 4044568856,
  "lat": 49.4485271,
  "lon": 11.0751016
},
{
  "type": "node",
  "id": 4804242699,
  "lat": 49.4483942,
  "lon": 11.0751286
},
{
  "type": "node",
  "id": 4804242700,
  "lat": 49.4483827,
  "lon": 11.0752388
},
{
  "type": "node",
  "id": 4804242702,
  "lat": 49.4480578,
  "lon": 11.0750541
},
{
  "type": "node",
  "id": 4804242703,
  "lat": 49.4480747,
  "lon": 11.0749009
},
{
  "type": "node",
  "id": 4804242704,
  "lat": 49.4478783,
  "lon": 11.0748521
},
{
  "type": "node",
  "id": 4804242705,
  "lat": 49.4478632,
  "lon": 11.0750084
},
{
  "type": "node",
  "id": 94977287,
  "lat": 49.4488292,
  "lon": 11.0757114
},
{
  "type": "node",
  "id": 94977291,
  "lat": 49.4487601,
  "lon": 11.0759587
},
{
  "type": "node",
  "id": 94977295,
  "lat": 49.4485912,
  "lon": 11.0768194
},
{
  "type": "node",
  "id": 94977297,
  "lat": 49.4473253,
  "lon": 11.0767624
},
{
  "type": "node",
  "id": 249807638,
  "lat": 49.4487125,
  "lon": 11.0768361
},
{
  "type": "node",
  "id": 249807639,
  "lat": 49.4485733,
  "lon": 11.0771240
},
{
  "type": "node",
  "id": 249807862,
  "lat": 49.4475397,
  "lon": 11.0802319
},
{
  "type": "node",
  "id": 262177444,
  "lat": 49.4480801,
  "lon": 11.0796616
},
{
  "type": "node",
  "id": 262177450,
  "lat": 49.4481527,
  "lon": 11.0800238
},
{
  "type": "node",
  "id": 262177452,
  "lat": 49.4479889,
  "lon": 11.0800759
},
{
  "type": "node",
  "id": 262177454,
  "lat": 49.4477922,
  "lon": 11.0801238
},
{
  "type": "node",
  "id": 262177456,
  "lat": 49.4476351,
  "lon": 11.0801858
},
{
  "type": "node",
  "id": 262177458,
  "lat": 49.4474438,
  "lon": 11.0802902
},
{
  "type": "node",
  "id": 262177460,
  "lat": 49.4473527,
  "lon": 11.0803477
},
{
  "type": "node",
  "id": 262177462,
  "lat": 49.4472809,
  "lon": 11.0804027
},
{
  "type": "node",
  "id": 262177465,
  "lat": 49.4472739,
  "lon": 11.0802517
},
{
  "type": "node",
  "id": 262177467,
  "lat": 49.4473120,
  "lon": 11.0798959
},
{
  "type": "node",
  "id": 262177468,
  "lat": 49.4473385,
  "lon": 11.0796859
},
{
  "type": "node",
  "id": 262177473,
  "lat": 49.4481295,
  "lon": 11.0798733
},
{
  "type": "node",
  "id": 262177474,
  "lat": 49.4481082,
  "lon": 11.0798830
},
{
  "type": "node",
  "id": 262177478,
  "lat": 49.4481669,
  "lon": 11.0800595
},
{
  "type": "node",
  "id": 338438562,
  "lat": 49.4476168,
  "lon": 11.0769873
},
{
  "type": "node",
  "id": 338438563,
  "lat": 49.4487054,
  "lon": 11.0756951
},
{
  "type": "node",
  "id": 338438564,
  "lat": 49.4486912,
  "lon": 11.0759496
},
{
  "type": "node",
  "id": 364406555,
  "lat": 49.4481570,
  "lon": 11.0801013
},
{
  "type": "node",
  "id": 364406563,
  "lat": 49.4478640,
  "lon": 11.0804149
},
{
  "type": "node",
  "id": 364406566,
  "lat": 49.4478196,
  "lon": 11.0801945
},
{
  "type": "node",
  "id": 364406569,
  "lat": 49.4480357,
  "lon": 11.0802083
},
{
  "type": "node",
  "id": 364406571,
  "lat": 49.4478925,
  "lon": 11.0802491
},
{
  "type": "node",
  "id": 364406574,
  "lat": 49.4479053,
  "lon": 11.0803459
},
{
  "type": "node",
  "id": 364426541,
  "lat": 49.4482298,
  "lon": 11.0770731
},
{
  "type": "node",
  "id": 364426546,
  "lat": 49.4481104,
  "lon": 11.0770503
},
{
  "type": "node",
  "id": 364426574,
  "lat": 49.4473549,
  "lon": 11.0756485
},
{
  "type": "node",
  "id": 364426577,
  "lat": 49.4473957,
  "lon": 11.0756528
},
{
  "type": "node",
  "id": 364426583,
  "lat": 49.4473912,
  "lon": 11.0757890
},
{
  "type": "node",
  "id": 364426587,
  "lat": 49.4473766,
  "lon": 11.0757883
},
{
  "type": "node",
  "id": 398315058,
  "lat": 49.4483658,
  "lon": 11.0770912
},
{
  "type": "node",
  "id": 398315060,
  "lat": 49.4484950,
  "lon": 11.0771132
},
{
  "type": "node",
  "id": 415280151,
  "lat": 49.4472732,
  "lon": 11.0803087
},
{
  "type": "node",
  "id": 415280152,
  "lat": 49.4479570,
  "lon": 11.0796662
},
{
  "type": "node",
  "id": 415280153,
  "lat": 49.4480141,
  "lon": 11.0799248
},
{
  "type": "node",
  "id": 1596681434,
  "lat": 49.4473553,
  "lon": 11.0796836
},
{
  "type": "node",
  "id": 1596681492,
  "lat": 49.4476951,
  "lon": 11.0801633
},
{
  "type": "node",
  "id": 1596681496,
  "lat": 49.4477051,
  "lon": 11.0801715
},
{
  "type": "node",
  "id": 1596681497,
  "lat": 49.4477151,
  "lon": 11.0801664
},
{
  "type": "node",
  "id": 1596681503,
  "lat": 49.4477176,
  "lon": 11.0801535
},
{
  "type": "node",
  "id": 1596681506,
  "lat": 49.4477199,
  "lon": 11.0796720
},
{
  "type": "node",
  "id": 1596681507,
  "lat": 49.4477241,
  "lon": 11.0801505
},
{
  "type": "node",
  "id": 1596681510,
  "lat": 49.4477360,
  "lon": 11.0801596
},
{
  "type": "node",
  "id": 1596681516,
  "lat": 49.4477474,
  "lon": 11.0801557
},
{
  "type": "node",
  "id": 1596681518,
  "lat": 49.4477565,
  "lon": 11.0801369
},
{
  "type": "node",
  "id": 1596681522,
  "lat": 49.4477660,
  "lon": 11.0801472
},
{
  "type": "node",
  "id": 1596681525,
  "lat": 49.4477784,
  "lon": 11.0801424
},
{
  "type": "node",
  "id": 1596681527,
  "lat": 49.4477817,
  "lon": 11.0801277
},
{
  "type": "node",
  "id": 1596681547,
  "lat": 49.4478511,
  "lon": 11.0804014
},
{
  "type": "node",
  "id": 1596681558,
  "lat": 49.4478935,
  "lon": 11.0800959
},
{
  "type": "node",
  "id": 1596681610,
  "lat": 49.4479916,
  "lon": 11.0801352
},
{
  "type": "node",
  "id": 1596681616,
  "lat": 49.4479974,
  "lon": 11.0802192
},
{
  "type": "node",
  "id": 1596681654,
  "lat": 49.4481515,
  "lon": 11.0800905
},
{
  "type": "node",
  "id": 2421377754,
  "lat": 49.4485894,
  "lon": 11.0768493
},
{
  "type": "node",
  "id": 2421377784,
  "lat": 49.4473537,
  "lon": 11.0769437
},
{
  "type": "node",
  "id": 2421377785,
  "lat": 49.4473611,
  "lon": 11.0768142
},
{
  "type": "node",
  "id": 2421377791,
  "lat": 49.4475899,
  "lon": 11.0769824
},
{
  "type": "node",
  "id": 3299183411,
  "lat": 49.4481104,
  "lon": 11.0801020
},
{
  "type": "node",
  "id": 3299183417,
  "lat": 49.4478226,
  "lon": 11.0802145
},
{
  "type": "node",
  "id": 3306752910,
  "lat": 49.4480948,
  "lon": 11.0797247
},
{
  "type": "node",
  "id": 3306752912,
  "lat": 49.4481042,
  "lon": 11.0797195
},
{
  "type": "node",
  "id": 3306752913,
  "lat": 49.4481076,
  "lon": 11.0797794
},
{
  "type": "node",
  "id": 3306752914,
  "lat": 49.4481169,
  "lon": 11.0797742
},
{
  "type": "node",
  "id": 4804242701,
  "lat": 49.4473660,
  "lon": 11.0767676
},
{
  "type": "node",
  "id": 4804242970,
  "lat": 49.4487232,
  "lon": 11.0766395
},
{
  "type": "node",
  "id": 4804242971,
  "lat": 49.4486986,
  "lon": 11.0758166
},
{
  "type": "node",
  "id": 364372752,
  "lat": 49.4500892,
  "lon": 11.0869925
},
{
  "type": "node",
  "id": 364372753,
  "lat": 49.4500194,
  "lon": 11.0872049
},
{
  "type": "node",
  "id": 364372754,
  "lat": 49.4498984,
  "lon": 11.0871113
},
{
  "type": "node",
  "id": 364372755,
  "lat": 49.4499651,
  "lon": 11.0868967
},
{
  "type": "node",
  "id": 364389096,
  "lat": 49.4493700,
  "lon": 11.0824821
},
{
  "type": "node",
  "id": 1500832811,
  "lat": 49.4497667,
  "lon": 11.0828406
},
{
  "type": "node",
  "id": 1501594341,
  "lat": 49.4493382,
  "lon": 11.0826059
},
{
  "type": "node",
  "id": 1501594343,
  "lat": 49.4494144,
  "lon": 11.0823091
},
{
  "type": "node",
  "id": 1501594350,
  "lat": 49.4498036,
  "lon": 11.0828634
},
{
  "type": "node",
  "id": 1501594351,
  "lat": 49.4498760,
  "lon": 11.0825857
},
{
  "type": "node",
  "id": 2210508276,
  "lat": 49.4497112,
  "lon": 11.0828060
},
{
  "type": "node",
  "id": 2290910274,
  "lat": 49.4499284,
  "lon": 11.0869407
},
{
  "type": "node",
  "id": 2290910415,
  "lat": 49.4498984,
  "lon": 11.0870318
},
{
  "type": "node",
  "id": 2290910417,
  "lat": 49.4499004,
  "lon": 11.0871437
},
{
  "type": "node",
  "id": 2290910422,
  "lat": 49.4499193,
  "lon": 11.0870479
},
{
  "type": "node",
  "id": 2290910429,
  "lat": 49.4499351,
  "lon": 11.0869200
},
{
  "type": "node",
  "id": 2290910431,
  "lat": 49.4499371,
  "lon": 11.0871721
},
{
  "type": "node",
  "id": 2290910432,
  "lat": 49.4499529,
  "lon": 11.0869338
},
{
  "type": "node",
  "id": 2290910434,
  "lat": 49.4499605,
  "lon": 11.0871593
},
{
  "type": "node",
  "id": 2290910442,
  "lat": 49.4500393,
  "lon": 11.0871443
},
{
  "type": "node",
  "id": 2290910444,
  "lat": 49.4500487,
  "lon": 11.0871516
},
{
  "type": "node",
  "id": 2290910451,
  "lat": 49.4500805,
  "lon": 11.0870191
},
{
  "type": "node",
  "id": 2901980326,
  "lat": 49.4500899,
  "lon": 11.0870264
},
{
  "type": "node",
  "id": 3200778407,
  "lat": 49.4496369,
  "lon": 11.0824760
},
{
  "type": "node",
  "id": 3200778408,
  "lat": 49.4496445,
  "lon": 11.0824436
},
{
  "type": "node",
  "id": 3200778411,
  "lat": 49.4496976,
  "lon": 11.0825099
},
{
  "type": "node",
  "id": 3200778412,
  "lat": 49.4497054,
  "lon": 11.0824803
},
{
  "type": "node",
  "id": 365389166,
  "lat": 49.4564706,
  "lon": 11.0773592
},
{
  "type": "node",
  "id": 365389168,
  "lat": 49.4564768,
  "lon": 11.0772210
},
{
  "type": "node",
  "id": 2376815405,
  "lat": 49.4565983,
  "lon": 11.0772006
},
{
  "type": "node",
  "id": 2376815409,
  "lat": 49.4565851,
  "lon": 11.0773789
},
{
  "type": "node",
  "id": 2376815410,
  "lat": 49.4566229,
  "lon": 11.0768926
},
{
  "type": "node",
  "id": 2376815413,
  "lat": 49.4566060,
  "lon": 11.0771019
},
{
  "type": "node",
  "id": 2376815414,
  "lat": 49.4566130,
  "lon": 11.0770132
},
{
  "type": "node",
  "id": 2376815416,
  "lat": 49.4564823,
  "lon": 11.0771206
},
{
  "type": "node",
  "id": 2426056840,
  "lat": 49.4565284,
  "lon": 11.0773692
},
{
  "type": "node",
  "id": 2941182531,
  "lat": 49.4565385,
  "lon": 11.0767396
},
{
  "type": "node",
  "id": 2941182570,
  "lat": 49.4565179,
  "lon": 11.0767362
},
{
  "type": "node",
  "id": 2941182571,
  "lat": 49.4566383,
  "lon": 11.0767560
},
{
  "type": "node",
  "id": 2942742391,
  "lat": 49.4564952,
  "lon": 11.0769816
},
{
  "type": "node",
  "id": 3129830383,
  "lat": 49.4564731,
  "lon": 11.0773025
},
{
  "type": "node",
  "id": 361488528,
  "lat": 49.4436422,
  "lon": 11.1009580
},
{
  "type": "node",
  "id": 361488529,
  "lat": 49.4434696,
  "lon": 11.1008099
},
{
  "type": "node",
  "id": 361488520,
  "lat": 49.4437864,
  "lon": 11.0999255
},
{
  "type": "node",
  "id": 361488521,
  "lat": 49.4438125,
  "lon": 11.0999492
},
{
  "type": "node",
  "id": 361488522,
  "lat": 49.4439065,
  "lon": 11.1000253
},
{
  "type": "node",
  "id": 361488523,
  "lat": 49.4439613,
  "lon": 11.1000762
},
{
  "type": "node",
  "id": 361488524,
  "lat": 49.4439483,
  "lon": 11.1001061
},
{
  "type": "node",
  "id": 361488525,
  "lat": 49.4439864,
  "lon": 11.1001750
},
{
  "type": "node",
  "id": 361488526,
  "lat": 49.4437506,
  "lon": 11.1008166
},
{
  "type": "node",
  "id": 361488527,
  "lat": 49.4437066,
  "lon": 11.1007763
},
{
  "type": "node",
  "id": 361488531,
  "lat": 49.4437456,
  "lon": 11.1000454
},
{
  "type": "node",
  "id": 361488532,
  "lat": 49.4437669,
  "lon": 11.0999806
},
{
  "type": "node",
  "id": 1771950250,
  "lat": 49.4439709,
  "lon": 11.1001256
},
{
  "type": "node",
  "id": 1771950253,
  "lat": 49.4439817,
  "lon": 11.1001382
},
{
  "type": "node",
  "id": 1771950256,
  "lat": 49.4439875,
  "lon": 11.1001541
},
{
  "type": "node",
  "id": 431323552,
  "lat": 49.4685049,
  "lon": 11.0126012
},
{
  "type": "node",
  "id": 431323553,
  "lat": 49.4687046,
  "lon": 11.0124664
},
{
  "type": "node",
  "id": 746264094,
  "lat": 49.4685607,
  "lon": 11.0127958
},
{
  "type": "node",
  "id": 1005996599,
  "lat": 49.4687604,
  "lon": 11.0126610
},
{
  "type": "node",
  "id": 3842575824,
  "lat": 49.4684969,
  "lon": 11.0127013
},
{
  "type": "node",
  "id": 3842575825,
  "lat": 49.4685029,
  "lon": 11.0127223
},
{
  "type": "node",
  "id": 3842575826,
  "lat": 49.4685090,
  "lon": 11.0127434
},
{
  "type": "node",
  "id": 3842575827,
  "lat": 49.4685276,
  "lon": 11.0126805
},
{
  "type": "node",
  "id": 3842575828,
  "lat": 49.4685397,
  "lon": 11.0127227
},
{
  "type": "node",
  "id": 4458037790,
  "lat": 49.4685938,
  "lon": 11.0125412
},
{
  "type": "node",
  "id": 358365776,
  "lat": 49.4632366,
  "lon": 11.0634484
},
{
  "type": "node",
  "id": 358365778,
  "lat": 49.4632327,
  "lon": 11.0634169
},
{
  "type": "node",
  "id": 358802713,
  "lat": 49.4632217,
  "lon": 11.0633274
},
{
  "type": "node",
  "id": 365156144,
  "lat": 49.4572047,
  "lon": 11.0737654
},
{
  "type": "node",
  "id": 365156148,
  "lat": 49.4571457,
  "lon": 11.0739921
},
{
  "type": "node",
  "id": 365156149,
  "lat": 49.4571254,
  "lon": 11.0737837
},
{
  "type": "node",
  "id": 365156155,
  "lat": 49.4571303,
  "lon": 11.0737826
},
{
  "type": "node",
  "id": 365156156,
  "lat": 49.4571389,
  "lon": 11.0735674
},
{
  "type": "node",
  "id": 365367144,
  "lat": 49.4571304,
  "lon": 11.0738346
},
{
  "type": "node",
  "id": 1505243550,
  "lat": 49.4572085,
  "lon": 11.0738042
},
{
  "type": "node",
  "id": 1505243551,
  "lat": 49.4572281,
  "lon": 11.0737997
},
{
  "type": "node",
  "id": 1806604140,
  "lat": 49.4571985,
  "lon": 11.0739812
},
{
  "type": "node",
  "id": 1806604145,
  "lat": 49.4572455,
  "lon": 11.0739714
},
{
  "type": "node",
  "id": 4770052491,
  "lat": 49.4570732,
  "lon": 11.0736196
},
{
  "type": "node",
  "id": 358365774,
  "lat": 49.4633261,
  "lon": 11.0634222
},
{
  "type": "node",
  "id": 358802711,
  "lat": 49.4633111,
  "lon": 11.0633012
},
{
  "type": "node",
  "id": 356732935,
  "lat": 49.4579808,
  "lon": 11.0839700
},
{
  "type": "node",
  "id": 356732937,
  "lat": 49.4579002,
  "lon": 11.0839709
},
{
  "type": "node",
  "id": 356732938,
  "lat": 49.4579014,
  "lon": 11.0842156
},
{
  "type": "node",
  "id": 356732940,
  "lat": 49.4579820,
  "lon": 11.0842147
},
{
  "type": "node",
  "id": 356732949,
  "lat": 49.4577024,
  "lon": 11.0842183
},
{
  "type": "node",
  "id": 356732951,
  "lat": 49.4577005,
  "lon": 11.0843430
},
{
  "type": "node",
  "id": 356732953,
  "lat": 49.4575876,
  "lon": 11.0843391
},
{
  "type": "node",
  "id": 356732955,
  "lat": 49.4575867,
  "lon": 11.0844054
},
{
  "type": "node",
  "id": 356732956,
  "lat": 49.4575664,
  "lon": 11.0844047
},
{
  "type": "node",
  "id": 356732958,
  "lat": 49.4575650,
  "lon": 11.0845050
},
{
  "type": "node",
  "id": 356732960,
  "lat": 49.4574750,
  "lon": 11.0845054
},
{
  "type": "node",
  "id": 356732961,
  "lat": 49.4575054,
  "lon": 11.0839636
},
{
  "type": "node",
  "id": 356732963,
  "lat": 49.4575693,
  "lon": 11.0839658
},
{
  "type": "node",
  "id": 356732964,
  "lat": 49.4575690,
  "lon": 11.0839802
},
{
  "type": "node",
  "id": 356732966,
  "lat": 49.4577171,
  "lon": 11.0839732
},
{
  "type": "node",
  "id": 356732967,
  "lat": 49.4577172,
  "lon": 11.0840721
},
{
  "type": "node",
  "id": 356732970,
  "lat": 49.4575678,
  "lon": 11.0840526
},
{
  "type": "node",
  "id": 356732971,
  "lat": 49.4575393,
  "lon": 11.0842127
},
{
  "type": "node",
  "id": 356732973,
  "lat": 49.4575669,
  "lon": 11.0841111
},
{
  "type": "node",
  "id": 356732974,
  "lat": 49.4575408,
  "lon": 11.0841102
},
{
  "type": "node",
  "id": 356732976,
  "lat": 49.4576558,
  "lon": 11.0840700
},
{
  "type": "node",
  "id": 356732977,
  "lat": 49.4576560,
  "lon": 11.0840556
},
{
  "type": "node",
  "id": 356733022,
  "lat": 49.4578764,
  "lon": 11.0840857
},
{
  "type": "node",
  "id": 356733066,
  "lat": 49.4576579,
  "lon": 11.0843424
},
{
  "type": "node",
  "id": 1492274956,
  "lat": 49.4574873,
  "lon": 11.0839630
},
{
  "type": "node",
  "id": 1492274971,
  "lat": 49.4578762,
  "lon": 11.0840556
},
{
  "type": "node",
  "id": 1492274972,
  "lat": 49.4578766,
  "lon": 11.0841306
},
{
  "type": "node",
  "id": 1492274973,
  "lat": 49.4579006,
  "lon": 11.0840553
},
{
  "type": "node",
  "id": 1492274974,
  "lat": 49.4579010,
  "lon": 11.0841303
},
{
  "type": "node",
  "id": 2152610341,
  "lat": 49.4574790,
  "lon": 11.0843292
},
{
  "type": "node",
  "id": 2152610353,
  "lat": 49.4574840,
  "lon": 11.0841091
},
{
  "type": "node",
  "id": 3772932627,
  "lat": 49.4576037,
  "lon": 11.0839786
},
{
  "type": "node",
  "id": 3772932632,
  "lat": 49.4575531,
  "lon": 11.0842132
},
{
  "type": "node",
  "id": 3772932636,
  "lat": 49.4576403,
  "lon": 11.0839768
},
{
  "type": "node",
  "id": 3772932639,
  "lat": 49.4576061,
  "lon": 11.0841989
},
{
  "type": "node",
  "id": 3772932641,
  "lat": 49.4575963,
  "lon": 11.0841919
},
{
  "type": "node",
  "id": 3772932644,
  "lat": 49.4575825,
  "lon": 11.0841957
},
{
  "type": "node",
  "id": 3772932645,
  "lat": 49.4575758,
  "lon": 11.0842053
},
{
  "type": "node",
  "id": 3772932647,
  "lat": 49.4575999,
  "lon": 11.0841934
},
{
  "type": "node",
  "id": 3772932650,
  "lat": 49.4576028,
  "lon": 11.0840538
},
{
  "type": "node",
  "id": 3772932653,
  "lat": 49.4576386,
  "lon": 11.0840550
},
{
  "type": "node",
  "id": 3772932656,
  "lat": 49.4576125,
  "lon": 11.0842143
},
{
  "type": "node",
  "id": 3772943557,
  "lat": 49.4576106,
  "lon": 11.0842074
},
{
  "type": "node",
  "id": 3772943558,
  "lat": 49.4575729,
  "lon": 11.0842153
},
{
  "type": "node",
  "id": 3772943560,
  "lat": 49.4575891,
  "lon": 11.0841919
},
{
  "type": "node",
  "id": 3782177358,
  "lat": 49.4579808,
  "lon": 11.0839814
},
{
  "type": "node",
  "id": 3782177359,
  "lat": 49.4579819,
  "lon": 11.0842030
},
{
  "type": "node",
  "id": 315110974,
  "lat": 49.4611295,
  "lon": 11.1102710
},
{
  "type": "node",
  "id": 315110975,
  "lat": 49.4614014,
  "lon": 11.1113669
},
{
  "type": "node",
  "id": 315110977,
  "lat": 49.4608355,
  "lon": 11.1104437
},
{
  "type": "node",
  "id": 666396820,
  "lat": 49.4613208,
  "lon": 11.1114143
},
{
  "type": "node",
  "id": 666396821,
  "lat": 49.4611417,
  "lon": 11.1116777
},
{
  "type": "node",
  "id": 666396822,
  "lat": 49.4613551,
  "lon": 11.1115524
},
{
  "type": "node",
  "id": 972266110,
  "lat": 49.4613015,
  "lon": 11.1109537
},
{
  "type": "node",
  "id": 2195357380,
  "lat": 49.4459493,
  "lon": 11.1367059
},
{
  "type": "node",
  "id": 2195357381,
  "lat": 49.4459660,
  "lon": 11.1368643
},
{
  "type": "node",
  "id": 2195357383,
  "lat": 49.4462149,
  "lon": 11.1366395
},
{
  "type": "node",
  "id": 2195357384,
  "lat": 49.4462317,
  "lon": 11.1367979
},
{
  "type": "node",
  "id": 362614817,
  "lat": 49.4762681,
  "lon": 11.1169999
},
{
  "type": "node",
  "id": 362614819,
  "lat": 49.4762985,
  "lon": 11.1171579
},
{
  "type": "node",
  "id": 362614821,
  "lat": 49.4762452,
  "lon": 11.1171829
},
{
  "type": "node",
  "id": 362614811,
  "lat": 49.4770840,
  "lon": 11.1168091
},
{
  "type": "node",
  "id": 362614813,
  "lat": 49.4766388,
  "lon": 11.1169980
},
{
  "type": "node",
  "id": 362614815,
  "lat": 49.4766106,
  "lon": 11.1168393
},
{
  "type": "node",
  "id": 362614824,
  "lat": 49.4765745,
  "lon": 11.1188942
},
{
  "type": "node",
  "id": 362614828,
  "lat": 49.4774621,
  "lon": 11.1185010
},
{
  "type": "node",
  "id": 362614829,
  "lat": 49.4773637,
  "lon": 11.1179807
},
{
  "type": "node",
  "id": 362614831,
  "lat": 49.4772452,
  "lon": 11.1180351
},
{
  "type": "node",
  "id": 362614833,
  "lat": 49.4771779,
  "lon": 11.1176949
},
{
  "type": "node",
  "id": 362614835,
  "lat": 49.4772442,
  "lon": 11.1176678
},
{
  "type": "node",
  "id": 7103823242,
  "lat": 49.4772179,
  "lon": 11.1178970
},
{
  "type": "node",
  "id": 194170707,
  "lat": 49.2818946,
  "lon": 11.4626688
},
{
  "type": "node",
  "id": 194170712,
  "lat": 49.2816377,
  "lon": 11.4626714
},
{
  "type": "node",
  "id": 2647828034,
  "lat": 49.2816390,
  "lon": 11.4629899
},
{
  "type": "node",
  "id": 2647828038,
  "lat": 49.2818960,
  "lon": 11.4629873
},
{
  "type": "node",
  "id": 559124206,
  "lat": 49.5091456,
  "lon": 11.4320713
},
{
  "type": "node",
  "id": 2947136351,
  "lat": 49.5091675,
  "lon": 11.4320882
},
{
  "type": "node",
  "id": 2947136352,
  "lat": 49.5091749,
  "lon": 11.4320655
},
{
  "type": "node",
  "id": 2947136354,
  "lat": 49.5091763,
  "lon": 11.4321650
},
{
  "type": "node",
  "id": 2947136355,
  "lat": 49.5091274,
  "lon": 11.4321271
},
{
  "type": "node",
  "id": 1088296956,
  "lat": 49.5022784,
  "lon": 11.5142087
},
{
  "type": "node",
  "id": 1088296988,
  "lat": 49.5023792,
  "lon": 11.5140589
},
{
  "type": "node",
  "id": 1088297146,
  "lat": 49.5023844,
  "lon": 11.5141994
},
{
  "type": "node",
  "id": 1088297160,
  "lat": 49.5022732,
  "lon": 11.5140682
},
{
  "type": "node",
  "id": 1097935438,
  "lat": 49.5031578,
  "lon": 11.5130487
},
{
  "type": "node",
  "id": 1097935457,
  "lat": 49.5032118,
  "lon": 11.5129188
},
{
  "type": "node",
  "id": 1097935473,
  "lat": 49.5033287,
  "lon": 11.5130340
},
{
  "type": "node",
  "id": 2740734001,
  "lat": 49.5032747,
  "lon": 11.5131638
},
{
  "type": "node",
  "id": 2961582325,
  "lat": 49.5553995,
  "lon": 11.0277790
},
{
  "type": "node",
  "id": 2961582326,
  "lat": 49.5554023,
  "lon": 11.0280732
},
{
  "type": "node",
  "id": 2961582327,
  "lat": 49.5554671,
  "lon": 11.0282370
},
{
  "type": "node",
  "id": 2961582328,
  "lat": 49.5555068,
  "lon": 11.0273222
},
{
  "type": "node",
  "id": 2961582329,
  "lat": 49.5556272,
  "lon": 11.0282566
},
{
  "type": "node",
  "id": 2961582332,
  "lat": 49.5556439,
  "lon": 11.0270341
},
{
  "type": "node",
  "id": 2961583033,
  "lat": 49.5556559,
  "lon": 11.0282588
},
{
  "type": "node",
  "id": 2961583036,
  "lat": 49.5557255,
  "lon": 11.0282328
},
{
  "type": "node",
  "id": 2961583061,
  "lat": 49.5558952,
  "lon": 11.0281310
},
{
  "type": "node",
  "id": 2961583065,
  "lat": 49.5559136,
  "lon": 11.0267796
},
{
  "type": "node",
  "id": 2961583081,
  "lat": 49.5560057,
  "lon": 11.0280253
},
{
  "type": "node",
  "id": 2961583089,
  "lat": 49.5560680,
  "lon": 11.0269471
},
{
  "type": "node",
  "id": 2961583096,
  "lat": 49.5560988,
  "lon": 11.0278256
},
{
  "type": "node",
  "id": 2961583101,
  "lat": 49.5561565,
  "lon": 11.0270804
},
{
  "type": "node",
  "id": 2961583102,
  "lat": 49.5561834,
  "lon": 11.0274357
},
{
  "type": "node",
  "id": 2961583103,
  "lat": 49.5561903,
  "lon": 11.0271361
},
{
  "type": "node",
  "id": 2171702210,
  "lat": 49.5360701,
  "lon": 11.1580007
},
{
  "type": "node",
  "id": 2171702211,
  "lat": 49.5359697,
  "lon": 11.1579424
},
{
  "type": "node",
  "id": 2171702214,
  "lat": 49.5360058,
  "lon": 11.1577953
},
{
  "type": "node",
  "id": 2171702216,
  "lat": 49.5361074,
  "lon": 11.1578543
},
{
  "type": "node",
  "id": 3634952858,
  "lat": 49.5360916,
  "lon": 11.1579188
},
{
  "type": "node",
  "id": 3634953044,
  "lat": 49.5359986,
  "lon": 11.1579976
},
{
  "type": "node",
  "id": 3634953124,
  "lat": 49.5360291,
  "lon": 11.1579969
},
{
  "type": "node",
  "id": 3634953125,
  "lat": 49.5361177,
  "lon": 11.1579340
},
{
  "type": "node",
  "id": 3634953318,
  "lat": 49.5360112,
  "lon": 11.1580124
},
{
  "type": "node",
  "id": 3634953319,
  "lat": 49.5360121,
  "lon": 11.1579658
},
{
  "type": "node",
  "id": 3634953320,
  "lat": 49.5360770,
  "lon": 11.1579724
},
{
  "type": "node",
  "id": 3634953321,
  "lat": 49.5361044,
  "lon": 11.1579884
},
{
  "type": "node",
  "id": 3634953532,
  "lat": 49.5360002,
  "lon": 11.1579774
},
{
  "type": "node",
  "id": 3634953533,
  "lat": 49.5360283,
  "lon": 11.1580076
},
{
  "type": "node",
  "id": 3634956396,
  "lat": 49.5360212,
  "lon": 11.1580155
},
{
  "type": "node",
  "id": 3634956507,
  "lat": 49.5360352,
  "lon": 11.1579801
},
{
  "type": "node",
  "id": 279103138,
  "lat": 49.5099689,
  "lon": 11.2756354
},
{
  "type": "node",
  "id": 279103139,
  "lat": 49.5100594,
  "lon": 11.2761039
},
{
  "type": "node",
  "id": 279103140,
  "lat": 49.5098702,
  "lon": 11.2768749
},
{
  "type": "node",
  "id": 279103141,
  "lat": 49.5097573,
  "lon": 11.2768355
},
{
  "type": "node",
  "id": 279103142,
  "lat": 49.5098456,
  "lon": 11.2760173
},
{
  "type": "node",
  "id": 279103143,
  "lat": 49.5098709,
  "lon": 11.2757077
},
{
  "type": "node",
  "id": 573364287,
  "lat": 49.5098254,
  "lon": 11.2762846
},
{
  "type": "node",
  "id": 573416428,
  "lat": 49.5098185,
  "lon": 11.2755528
},
{
  "type": "node",
  "id": 573416431,
  "lat": 49.5098336,
  "lon": 11.2757115
},
{
  "type": "node",
  "id": 573416433,
  "lat": 49.5099050,
  "lon": 11.2760229
},
{
  "type": "node",
  "id": 573416442,
  "lat": 49.5099396,
  "lon": 11.2760201
},
{
  "type": "node",
  "id": 573416444,
  "lat": 49.5097598,
  "lon": 11.2767908
},
{
  "type": "node",
  "id": 573416445,
  "lat": 49.5097209,
  "lon": 11.2767823
},
{
  "type": "node",
  "id": 573416447,
  "lat": 49.5097334,
  "lon": 11.2766775
},
{
  "type": "node",
  "id": 573416448,
  "lat": 49.5097792,
  "lon": 11.2766839
},
{
  "type": "node",
  "id": 573416449,
  "lat": 49.5097778,
  "lon": 11.2762693
},
{
  "type": "node",
  "id": 573416451,
  "lat": 49.5097820,
  "lon": 11.2761731
},
{
  "type": "node",
  "id": 573416452,
  "lat": 49.5098375,
  "lon": 11.2761795
},
{
  "type": "node",
  "id": 573416454,
  "lat": 49.5099561,
  "lon": 11.2760902
},
{
  "type": "node",
  "id": 573416455,
  "lat": 49.5099517,
  "lon": 11.2762370
},
{
  "type": "node",
  "id": 573416457,
  "lat": 49.5099544,
  "lon": 11.2756431
},
{
  "type": "node",
  "id": 573416458,
  "lat": 49.5099384,
  "lon": 11.2755747
},
{
  "type": "node",
  "id": 573416459,
  "lat": 49.5098957,
  "lon": 11.2755446
},
{
  "type": "node",
  "id": 573416460,
  "lat": 49.5100168,
  "lon": 11.2766023
},
{
  "type": "node",
  "id": 573416462,
  "lat": 49.5099319,
  "lon": 11.2765856
},
{
  "type": "node",
  "id": 573416463,
  "lat": 49.5099486,
  "lon": 11.2763432
},
{
  "type": "node",
  "id": 573416464,
  "lat": 49.5099031,
  "lon": 11.2763331
},
{
  "type": "node",
  "id": 573416466,
  "lat": 49.5099015,
  "lon": 11.2762376
},
{
  "type": "node",
  "id": 573416467,
  "lat": 49.5100584,
  "lon": 11.2762513
},
{
  "type": "node",
  "id": 573416468,
  "lat": 49.5098981,
  "lon": 11.2765792
},
{
  "type": "node",
  "id": 1736015823,
  "lat": 49.5099670,
  "lon": 11.2765925
},
{
  "type": "node",
  "id": 577782763,
  "lat": 49.5101281,
  "lon": 11.2803152
},
{
  "type": "node",
  "id": 577782780,
  "lat": 49.5101682,
  "lon": 11.2803142
},
{
  "type": "node",
  "id": 577782782,
  "lat": 49.5101292,
  "lon": 11.2804247
},
{
  "type": "node",
  "id": 577782785,
  "lat": 49.5101694,
  "lon": 11.2804261
},
{
  "type": "node",
  "id": 1431609475,
  "lat": 49.6402188,
  "lon": 11.1924230
},
{
  "type": "node",
  "id": 1431609432,
  "lat": 49.6403653,
  "lon": 11.1925646
},
{
  "type": "node",
  "id": 1431609479,
  "lat": 49.6402972,
  "lon": 11.1923605
},
{
  "type": "node",
  "id": 1431609482,
  "lat": 49.6402869,
  "lon": 11.1926271
},
{
  "type": "node",
  "id": 453313009,
  "lat": 49.5283557,
  "lon": 11.3425155
},
{
  "type": "node",
  "id": 453313024,
  "lat": 49.5283125,
  "lon": 11.3425525
},
{
  "type": "node",
  "id": 453313031,
  "lat": 49.5283103,
  "lon": 11.3423888
},
{
  "type": "node",
  "id": 453313035,
  "lat": 49.5282074,
  "lon": 11.3424758
},
{
  "type": "node",
  "id": 453313482,
  "lat": 49.5282203,
  "lon": 11.3425122
},
{
  "type": "node",
  "id": 453313486,
  "lat": 49.5282528,
  "lon": 11.3426039
},
{
  "type": "node",
  "id": 2947136353,
  "lat": 49.5092019,
  "lon": 11.4320865
},
{
  "type": "node",
  "id": 4071174371,
  "lat": 49.5111688,
  "lon": 11.4420576
},
{
  "type": "node",
  "id": 4071174372,
  "lat": 49.5111269,
  "lon": 11.4420404
},
{
  "type": "node",
  "id": 4071174373,
  "lat": 49.5111049,
  "lon": 11.4421671
},
{
  "type": "node",
  "id": 4071174374,
  "lat": 49.5111468,
  "lon": 11.4421843
},
{
  "type": "node",
  "id": 4071174375,
  "lat": 49.5111205,
  "lon": 11.4420761
},
{
  "type": "way",
  "id": 32492647,
  "nodes": [
    365313748,
    365313752,
    365313757,
    4044568844,
    365313761,
    4044568842,
    365313766,
    365313770,
    1509950416,
    1509950418,
    1509950428,
    1509950420,
    365313748
  ]
},
{
  "type": "way",
  "id": 488061080,
  "nodes": [
    248964452,
    248964451,
    4804242705,
    4804242704,
    4804242703,
    4804242702,
    248964450,
    248964449,
    398315119,
    248964448,
    398315110,
    4044568851,
    4044568852,
    1550399706,
    4044568850,
    4044568849,
    4044568848,
    94977276,
    398315044,
    398315041,
    398315038,
    3221934652,
    398315047,
    364426569,
    94977301,
    364426574,
    364426577,
    364426583,
    364426587,
    94977297,
    4804242701,
    2421377785,
    2421377784,
    2421377791,
    338438562,
    364426546,
    364426541,
    398315058,
    398315060,
    249807639,
    2421377754,
    94977295,
    249807638,
    4804242970,
    94977291,
    338438564,
    4804242971,
    338438563,
    94977287,
    94977279,
    4044568853,
    4044568854,
    4804242700,
    4804242699,
    4044568855,
    4044568856,
    248964446,
    365313603,
    248964444,
    1509950438,
    398315107,
    398315103,
    248964455,
    365313509,
    248964452
  ]
},
{
  "type": "way",
  "id": 24213816,
  "nodes": [
    3306752912,
    3306752914,
    3306752913,
    262177473,
    262177474,
    415280153,
    415280152,
    262177444,
    3306752910,
    3306752912
  ]
},
{
  "type": "way",
  "id": 32391977,
  "nodes": [
    364406571,
    364406574,
    364406563,
    1596681547,
    3299183417,
    364406566,
    1596681610,
    3299183411,
    1596681654,
    364406555,
    364406569,
    1596681616,
    364406571
  ]
},
{
  "type": "way",
  "id": 35399404,
  "nodes": [
    262177474,
    262177450,
    262177478,
    262177452,
    1596681558,
    262177454,
    1596681527,
    1596681525,
    1596681522,
    1596681518,
    1596681516,
    1596681510,
    1596681507,
    1596681503,
    1596681497,
    1596681496,
    1596681492,
    262177456,
    249807862,
    262177458,
    262177460,
    262177462,
    415280151,
    262177465,
    262177467,
    262177468,
    1596681434,
    1596681506,
    415280152,
    415280153,
    262177474
  ]
}

  ]
}
