{
  "version": 0.6,
  "generator": "Overpass API 0.7.55.9 ab41fea6",
  "osm3s": {
    "timestamp_osm_base": "2020-02-14T13:15:02Z",
    "copyright": "The data included in this document is from www.openstreetmap.org. The data is made available under ODbL."
  },
  "elements": [

{
  "type": "node",
  "id": 578023554,
  "lat": 43.6974774,
  "lon": 7.2772468,
  "tags": {
    "addr:housenumber": "15",
    "name": "Palais Lascaris",
    "phone": "+33 4 93 62 72 40",
    "ref:FR:museofile": "M0887",
    "source": "Ministère de la Culture - Muséofile - 09/2019",
    "tourism": "museum",
    "website": "http://www.nice.fr/fr/culture/musees-et-galeries/agenda-du-palais-lascaris",
    "wheelchair": "no",
    "wikidata": "Q3360882",
    "wikipedia": "fr:Palais Lascaris"
  }
},
{
  "type": "node",
  "id": 864652139,
  "lat": 43.7009336,
  "lon": 7.1149868,
  "tags": {
    "addr:housenumber": "623",
    "addr:postcode": "06570",
    "addr:street": "Chemin des Gardettes",
    "email": "info@fondation-maeght.com ",
    "name": "Fondation Maeght",
    "phone": "+33 (0)4 93 32 81 63",
    "tourism": "museum",
    "url": "http://www.fondation-maeght.com/",
    "wikidata": "Q1435689"
  }
},
{
  "type": "node",
  "id": 915052193,
  "lat": 43.6432175,
  "lon": 6.9740893,
  "tags": {
    "name": "Champs de Fleurs",
    "tourism": "museum"
  }
},
{
  "type": "node",
  "id": 1268201093,
  "lat": 43.7836001,
  "lon": 7.2764439,
  "tags": {
    "name": "Château-Musée d'Histoire naturelle",
    "opening_hours": "Tu-Su 14:00-17:30",
    "tourism": "museum"
  }
},
{
  "type": "node",
  "id": 1297270381,
  "lat": 43.7017095,
  "lon": 7.3106230,
  "tags": {
    "fee": "no",
    "name": "Musée Volti",
    "tourism": "museum"
  }
},
{
  "type": "node",
  "id": 1398474011,
  "lat": 43.7019475,
  "lon": 7.2797089,
  "tags": {
    "addr:city": "Nice",
    "addr:country": "FR",
    "addr:housenumber": "60",
    "addr:postcode": "06300",
    "addr:street": "Boulevard Risso",
    "description": "Billet permettant l'accès au groupe de musée Sciences comprenant : Musée d'archéologie (sites de Cimiez et de Terra Amata) et Muséum d'Histoire Naturelle. Validité 48h. ",
    "ele": "252",
    "email": "museum.histoire-naturelle@ville-nice.fr",
    "fax": "+33497134685",
    "level": "2",
    "name": "Museum d'Histoire Naturelle",
    "opening_hours": "Tu-Su 10:00-18:00",
    "operator": "Ville de Nice",
    "phone": "+33497134680",
    "source": "Survey 2017",
    "tourism": "museum",
    "website": "http://www.mhnnice.org/",
    "wheelchair": "no",
    "wikidata": "Q3330894",
    "wikipedia": "fr:Muséum d'histoire naturelle de Nice"
  }
},
{
  "type": "node",
  "id": 1416739719,
  "lat": 43.6212652,
  "lon": 7.1123586,
  "tags": {
    "name": "Musée du Bonsaï",
    "tourism": "museum",
    "website": "http://museedubonsai.free.fr/"
  }
},
{
  "type": "node",
  "id": 1681932253,
  "lat": 43.7320036,
  "lon": 7.4139350,
  "tags": {
    "addr:country": "MC",
    "addr:housenumber": "56Bis",
    "addr:street": "Boulevard du Jardin Exotique",
    "contact:website": "https://map-mc.org/",
    "fee": "yes",
    "name": "Musée d'Anthropologie Préhistorique",
    "tourism": "museum",
    "wikidata": "Q3329551"
  }
},
{
  "type": "node",
  "id": 1696392024,
  "lat": 43.6206937,
  "lon": 6.9690382,
  "tags": {
    "name": "Espace de l'Art Concret",
    "tourism": "museum"
  }
},
{
  "type": "node",
  "id": 2264574277,
  "lat": 43.7016417,
  "lon": 7.3106329,
  "tags": {
    "fee": "no",
    "name": "Musée Goetz-Boumeester",
    "tourism": "museum"
  }
},
{
  "type": "node",
  "id": 2264574278,
  "lat": 43.7016010,
  "lon": 7.3106059,
  "tags": {
    "fee": "no",
    "name": "Salle Souvenir du 24e BCA",
    "tourism": "museum"
  }
},
{
  "type": "node",
  "id": 2264574279,
  "lat": 43.7011297,
  "lon": 7.3109172,
  "tags": {
    "fee": "no",
    "name": "Collection Roux",
    "tourism": "museum"
  }
},
{
  "type": "node",
  "id": 2279265380,
  "lat": 43.7023621,
  "lon": 7.3122689,
  "tags": {
    "name": "Musée de la Marine",
    "tourism": "museum"
  }
},
{
  "type": "node",
  "id": 2449315048,
  "lat": 43.8417836,
  "lon": 7.1858498,
  "tags": {
    "addr:city": "Gilette",
    "addr:country": "FR",
    "addr:housenumber": "3250",
    "addr:postcode": "06830",
    "addr:street": "Route de Gilette",
    "name": "Musée Lou Ferouil",
    "opening_hours": "Tu-Su 10:00-17:30",
    "tourism": "museum",
    "website": "http://www.louferouil.fr"
  }
},
{
  "type": "node",
  "id": 2824215844,
  "lat": 43.5239040,
  "lon": 7.0453202,
  "tags": {
    "name": "Musée de la Mer",
    "tourism": "museum",
    "website": "http://www.cannes.com/fr/culture/musee-de-la-mer.html",
    "wikidata": "Q3329924",
    "wikipedia": "fr:Musée de la Mer de Cannes"
  }
},
{
  "type": "node",
  "id": 2881409864,
  "lat": 43.8719582,
  "lon": 6.9647759,
  "tags": {
    "addr:city": "Sigale",
    "addr:postcode": "06910",
    "addr:street": "Rue de la Baragne",
    "name": "Lou temp passat",
    "note": "ouverture sur réservation seulement",
    "operator": "mairie",
    "phone": "+33 4 93 05 83 52",
    "tourism": "museum"
  }
},
{
  "type": "node",
  "id": 3042324075,
  "lat": 43.5801706,
  "lon": 7.1274779,
  "tags": {
    "capacity": "8-18",
    "contact:phone": "+33 4 92 90 54 28",
    "name": "Musée de la Tour",
    "opening_hours": "\"by appointment\"",
    "tourism": "museum"
  }
},
{
  "type": "node",
  "id": 3143891747,
  "lat": 43.8736396,
  "lon": 7.0065115,
  "tags": {
    "name": "Ancien moulin à huile",
    "operator": "Mairie de Roquestéron",
    "tourism": "museum"
  }
},
{
  "type": "node",
  "id": 4688828348,
  "lat": 43.7062629,
  "lon": 7.1923789,
  "tags": {
    "addr:city": "Nice",
    "addr:postcode": "06200",
    "addr:street": "Stade Allianz Riviera, Boulevard des Jardiniers",
    "description": "Présentation des sports et de leur patrimoine respectif",
    "name": "Musée National du sport",
    "opening_hours": "May-Oct Tu-Su,PH 10:00-18:00; Nov-Apr Tu-Su,PH 11:00-17:00",
    "operator": "Ville de Nice",
    "phone": "+33 4 89 22 44 00",
    "source": "Survey 2017",
    "start_date": "2014-10-15",
    "tourism": "museum",
    "website": "http://www.museedusport.fr/",
    "wheelchair": "yes",
    "wikidata": "Q3330734",
    "wikipedia": "fr:Musée national du Sport"
  }
},
{
  "type": "node",
  "id": 4688883802,
  "lat": 43.6959151,
  "lon": 7.2745989,
  "tags": {
    "addr:city": "Nice",
    "addr:housenumber": "1",
    "addr:postcode": "06300",
    "addr:street": "Place Pierre Gautier",
    "alt_name": "Théâtre de la Photographie et de l’Image Charles Nègre",
    "level": "2",
    "name": "Musée de la photographie Charles Nègre",
    "opening_hours": "Mo,We-Su 11:00-18:00",
    "operator": "Ville de Nice",
    "phone": "+33 4 97 13 42 20",
    "source": "Survey 2017",
    "toilets:wheelchair": "yes",
    "tourism": "museum",
    "website": "http://museephotographie.nice.fr/",
    "wheelchair": "yes"
  }
},
{
  "type": "node",
  "id": 4689017366,
  "lat": 43.7201242,
  "lon": 7.2789108,
  "tags": {
    "addr:city": "Nice",
    "addr:postcode": "06000",
    "addr:street": "place Jean-Paul II Pape",
    "description": "Le musée évoque notamment la vie franciscaine à Nice du XIIIe à nos jours. Nombreux documents et œuvres d’art.",
    "ele": "250",
    "level": "1",
    "name": "Musée Franciscain",
    "opening_hours": "10:00-12:00,15:00-18:00; Su off",
    "phone": "+334 93 81 00 04",
    "source": "Survey 2017",
    "tourism": "museum",
    "website": "http://www.nicerendezvous.com/musee-franciscain.html",
    "wheelchair": "yes",
    "wikidata": "Q3320265",
    "wikipedia": "fr:Monastère de Cimiez"
  }
},
{
  "type": "node",
  "id": 4793674909,
  "lat": 43.6273561,
  "lon": 7.0984841,
  "tags": {
    "name": "Musée d’histoire et de céramique biotoises",
    "tourism": "museum",
    "wikidata": "Q23780781"
  }
},
{
  "type": "node",
  "id": 5405127621,
  "lat": 43.7308941,
  "lon": 7.4171118,
  "tags": {
    "addr:country": "MC",
    "level": "2",
    "name": "La Collection de voitures anciennes de SAS le Prince de Monaco",
    "name:en": "The Cars collection of HSH the Prince of Monaco",
    "opening_hours": "Mo-Su 10:00-17:30",
    "tourism": "museum",
    "website": "http://Http://www.mtcc.mc",
    "wikidata": "Q16010845",
    "wikipedia": "fr:Musée de l'automobile de Monaco"
  }
},
{
  "type": "node",
  "id": 5436112400,
  "lat": 43.7530571,
  "lon": 7.3816632,
  "tags": {
    "name": "salle-don-jacques-fighiera",
    "tourism": "museum",
    "wheelchair": "yes"
  }
},
{
  "type": "node",
  "id": 5589249921,
  "lat": 43.7302075,
  "lon": 7.4166803,
  "tags": {
    "addr:country": "MC",
    "name": "Musée naval",
    "name:en": "monaco top cars collection",
    "tourism": "museum",
    "wikidata": "Q16010845"
  }
},
{
  "type": "node",
  "id": 5919288520,
  "lat": 43.7309118,
  "lon": 7.4176679,
  "tags": {
    "addr:country": "MC",
    "name": "Musée des Timbres et des Monnaies",
    "tourism": "museum",
    "wikidata": "Q3330282"
  }
},
{
  "type": "node",
  "id": 7041632654,
  "lat": 43.6011911,
  "lon": 6.9956916,
  "tags": {
    "name": "Musée d'Art Classique de Mougins",
    "tourism": "museum",
    "website": "https://mouginsmusee.com/",
    "wikidata": "Q3329574",
    "wikipedia": "fr:Musée d'art classique de Mougins"
  }
},
{
  "type": "way",
  "id": 19597352,
  "nodes": [
    203508133,
    6580645321,
    6580645320,
    6580645319,
    1855052395,
    6580645322,
    203508134,
    1536322945,
    1536322941,
    1122841180,
    1536322898,
    1122841401,
    1536322702,
    1536322711,
    1536322582,
    1122841015,
    1122841277,
    203508135,
    1855052262,
    1855052253,
    1855052260,
    1855052259,
    1855052261,
    1855052252,
    1855052250,
    1855052248,
    1855052246,
    203508136,
    1855052247,
    203508133
  ],
  "tags": {
    "addr:city": "Nice",
    "addr:housenumber": "65",
    "addr:postcode": "06000",
    "addr:street": "Rue de France",
    "leisure": "park",
    "name": "Musée Masséna",
    "opening_hours": "Nov-Apr 11:00-18:00; May-Oct 10:00-18:00; Tu off; Jan 01,May 01,Dec 25,easter off",
    "operator": "Ville de Nice",
    "phone": "+33 4 93 91 19 10",
    "ref:FR:museofile": "M0881",
    "source": "Ministère de la Culture - base Muséofile - 2019",
    "tourism": "museum",
    "website": "www.nice.fr/Culture/Musees-et-expositions/Musee-Massena",
    "wikidata": "Q3329270",
    "wikipedia": "fr:Musée Masséna"
  }
},
{
  "type": "way",
  "id": 23715051,
  "nodes": [
    256791670,
    256791671,
    918052367,
    256791672,
    256791673,
    6456373625,
    1702431999,
    256791674,
    256791675,
    256791676,
    256791677,
    256791670
  ],
  "tags": {
    "addr:city": "Monaco",
    "addr:country": "MC",
    "addr:postcode": "98000",
    "addr:street": "Avenue Saint-Martin",
    "building": "public",
    "email": "musee@oceano.org",
    "museum": "maritime",
    "name": "Musée Océanographique",
    "name:de": "Ozeanographisches Museum Monaco",
    "name:en": "Oceanographic Museum",
    "name:es": "Museo_Oceanográfico_de_Mónaco",
    "name:ja": "モナコ海洋博物館",
    "name:ko": "모나코 해양박물관",
    "name:ru": "Океанографический_музей_Монако",
    "name:zh": "摩納哥海洋博物館",
    "opening_hours": "Oct-Mar 10:00-18:00; Apr-Jun,Sep 10:00-19:00; Jul 10:00-20:00; Dec 25 off",
    "phone": "+33 7 93 15 36 00",
    "tourism": "museum",
    "website": "https://www.oceano.mc/",
    "wikidata": "Q851527",
    "wikipedia": "en:Musée Océanographique"
  }
},
{
  "type": "way",
  "id": 39868553,
  "nodes": [
    478218506,
    478218507,
    478218508,
    478218509,
    5695988541,
    478218510,
    478218511,
    478218518,
    478218512,
    478218514,
    478218506
  ],
  "tags": {
    "building": "yes",
    "name": "Le Lavoir",
    "source": "cadastre-dgi-fr source : Direction Générale des Impôts - Cadastre. Mise à jour : 2009",
    "tourism": "museum"
  }
},
{
  "type": "way",
  "id": 39868609,
  "nodes": [
    478218656,
    478218667,
    478218672,
    478218665,
    478218664,
    478218663,
    478218669,
    478218662,
    478218661,
    478218668,
    478218660,
    478218659,
    478218658,
    478218656
  ],
  "tags": {
    "building": "yes",
    "name": "Espace Culturel - Musée Maurice Gottlob",
    "source": "cadastre-dgi-fr source : Direction Générale des Impôts - Cadastre. Mise à jour : 2009",
    "tourism": "museum"
  }
},
{
  "type": "way",
  "id": 39868628,
  "nodes": [
    478218701,
    478218702,
    478218700,
    478218699,
    478218701
  ],
  "tags": {
    "building": "yes",
    "name": "Musée d'Histoire locale",
    "source": "cadastre-dgi-fr source : Direction Générale des Impôts - Cadastre. Mise à jour : 2009",
    "tourism": "museum"
  }
},
{
  "type": "way",
  "id": 39868675,
  "nodes": [
    478218842,
    478218858,
    478218862,
    478218855,
    478218853,
    478218718,
    478218717,
    478218845,
    478218860,
    478218843,
    486817582,
    478218842
  ],
  "tags": {
    "building": "yes",
    "name": "Musée de la Photographie André Villers",
    "source": "cadastre-dgi-fr source : Direction Générale des Impôts - Cadastre. Mise à jour : 2009",
    "tourism": "museum"
  }
},
{
  "type": "way",
  "id": 40812784,
  "nodes": [
    496224936,
    4745071385,
    4745071386,
    4069071986,
    496224937,
    496224940,
    496224941,
    4745071400,
    4745071399,
    496224942,
    4745071397,
    4745071398,
    4745071396,
    496224946,
    496224947,
    4745071395,
    4745071393,
    4745071394,
    4745071392,
    496224949,
    496224951,
    4069072499,
    4069072500,
    4745071391,
    496224953,
    496224954,
    496224955,
    4069072498,
    496224956,
    496224957,
    4745071390,
    496224958,
    4745071389,
    496224959,
    4745071388,
    496224961,
    1523196267,
    1523196395,
    4745071387,
    496224962,
    496224936
  ],
  "tags": {
    "addr:city": "Nice",
    "addr:housenumber": "20",
    "addr:postcode": "06100",
    "addr:street": "Avenue Stephen Liégeard",
    "barrier": "wall",
    "description": "La villa Arson est un établissement public administratif du ministère de la Culture à Nice qui réunit une école nationale supérieure d'art, un centre national d'art contemporain, une résidence d'artistes et une médiathèque spécialisée",
    "heritage": "3",
    "heritage:operator": "mhs",
    "mhs:inscription_date": "1943-03-01",
    "name": "Villa Arson",
    "note": "Heures d'ouverture : 14h-18h (fermé le mardi)",
    "phone": "+33 4 92 07 73 73",
    "ref:mhs": "PA00080809",
    "source": "survey 2017",
    "source:heritage": "Ministère de la Culture - 06/2019",
    "tourism": "museum",
    "website": "https://www.villa-arson.org/",
    "wikidata": "Q1107189",
    "wikipedia": "fr:Villa Arson"
  }
},
{
  "type": "way",
  "id": 63022395,
  "nodes": [
    783434807,
    783418769,
    783379292,
    783432789,
    783408063,
    783425970,
    783402690,
    783382818,
    783393274,
    783423716,
    783434807
  ],
  "tags": {
    "addr:street": "Avenue R. Gramalia",
    "building": "yes",
    "source": "cadastre-dgi-fr source : Direction Générale des Impôts - Cadastre. Mise à jour : 2010",
    "tourism": "museum",
    "website": "http://villalescamelias.com/"
  }
},
{
  "type": "way",
  "id": 63029935,
  "nodes": [
    6028528385,
    6028528386,
    783465122,
    6028530533,
    783481247,
    783474807,
    783446487,
    783475415,
    783472480,
    783474257,
    783489952,
    783450844,
    783449360,
    783474104,
    783453889,
    783475105,
    783452216,
    783463844,
    783452358,
    783449910,
    783450817,
    783448918,
    783472886,
    783483915,
    783443643,
    783446586,
    783444313,
    783446552,
    783443767,
    783474666,
    783485231,
    783487193,
    783449080,
    783455678,
    783471998,
    5023163853,
    5023163865,
    5023163866,
    783461205,
    783443982,
    5023163867,
    6028528387,
    6028528385
  ],
  "tags": {
    "addr:city": "Saint-Jean-Cap-Ferrat",
    "addr:housenumber": "1",
    "addr:postcode": "06230",
    "addr:street": "Avenue Ephrussi de Rothschild",
    "alt_name": "Villa Île-de-France",
    "building": "yes",
    "description:en": "Former mansion of Baroness Béatrice de Rothschild. After her death she donated the property to Institut de France. Entrance fee 14€.",
    "email": "message@villa-ephrussi.com",
    "fee": "yes",
    "heritage": "2",
    "heritage:operator": "mhs",
    "mhs:inscription_date": "1996",
    "name": "Villa Ephrussi de Rothschild",
    "opening_hours": "10:00-18:00; Jul,Aug: 10:00-19:00; Nov-Feb: Mo-Fr 14:00-18:00",
    "phone": "+33 4 93 01 33 09",
    "ref:mhs": "PA00125706",
    "source": "cadastre-dgi-fr source : Direction Générale des Finances Publiques - Cadastre. Mise à jour : 2018",
    "tourism": "museum",
    "website": "https://www.villa-ephrussi.com/",
    "wikidata": "Q2452513",
    "wikipedia": "fr:Villa Ephrussi de Rothschild"
  }
},
{
  "type": "way",
  "id": 63863191,
  "nodes": [
    788696061,
    788669153,
    788912699,
    788668132,
    788833974,
    788749036,
    788748726,
    788687709,
    788752906,
    788731939,
    788656865,
    788696061
  ],
  "tags": {
    "building": "yes",
    "heritage": "2",
    "heritage:operator": "mhs",
    "importance": "international",
    "layer": "1",
    "mhs:inscription_date": "2001-10-25",
    "name": "Musée Renoir",
    "old_name": "Domaine des Collettes",
    "phone": "+33 4 93 20 61 07",
    "ref:FR:museofile": "M0871",
    "ref:mhs": "PA06000001",
    "source": "cadastre-dgi-fr source : Direction Générale des Impôts - Cadastre. Mise à jour : 2009",
    "source:heritage": "data.gouv.fr, Ministère de la Culture - 2016",
    "start_date": "C19",
    "tourism": "museum",
    "website": "http://www.cagnes-sur-mer.fr/culture/musee-renoir/",
    "wikidata": "Q30291857",
    "wikipedia": "fr:Musée Renoir de Cagnes-sur-Mer"
  }
},
{
  "type": "way",
  "id": 63886282,
  "nodes": [
    788804548,
    788645888,
    788803549,
    788620723,
    788881232,
    788747936,
    788782230,
    530651122,
    788785973,
    788702643,
    788750498,
    788750738,
    788838203,
    788893439,
    3446646507,
    788804548
  ],
  "tags": {
    "building": "yes",
    "heritage": "2",
    "heritage:operator": "mhs",
    "historic": "castle",
    "importance": "international",
    "mhs:inscription_date": "1948-04-15",
    "name": "Château Grimaldi ou château de Cagnes",
    "ref:mhs": "PA00080687",
    "source": "cadastre-dgi-fr source : Direction Générale des Impôts - Cadastre. Mise à jour : 2010",
    "source:heritage": "Ministère de la Culture - 06/2019",
    "start_date": "C14",
    "tourism": "museum",
    "wikidata": "Q2241293",
    "wikipedia": "fr:Château Grimaldi"
  }
},
{
  "type": "way",
  "id": 64715752,
  "nodes": [
    794196625,
    794198668,
    794199381,
    794200504,
    794195404,
    794194968,
    794196625
  ],
  "tags": {
    "addr:city": "Mouans-Sartoux",
    "addr:country": "FR",
    "addr:housename": "Les Jardins du MIP",
    "addr:housenumber": "979",
    "addr:postcode": "06370",
    "addr:street": "Chemin des Gourettes",
    "building": "yes",
    "contact:phone": "+33 4 92 98 92 69",
    "name": "Les Jardins du Musée International de la Parfumerie",
    "source": "cadastre-dgi-fr source : Direction Générale des Impôts - Cadastre. Mise à jour : 2010",
    "tourism": "museum",
    "website": "https://www.museesdegrasse.com/"
  }
},
{
  "type": "way",
  "id": 64745997,
  "nodes": [
    794382794,
    794382467,
    794383101,
    794382767,
    794382444,
    794382936,
    629859463,
    629868875,
    794382794
  ],
  "tags": {
    "building": "yes",
    "name": "Musée Ethnographique Reflet d'un Monde Rural",
    "source": "cadastre-dgi-fr source : Direction Générale des Impôts - Cadastre. Mise à jour : 2010",
    "tourism": "museum"
  }
},
{
  "type": "way",
  "id": 64746008,
  "nodes": [
    794383030,
    629859564,
    794382825,
    5432174309,
    5432174308,
    794382487,
    794382556,
    5432174307,
    794383001,
    794382966,
    794382597,
    794383014,
    794382473,
    794383030
  ],
  "tags": {
    "building": "yes",
    "name": "Donation Albers-Honegger",
    "source": "cadastre-dgi-fr source : Direction Générale des Impôts - Cadastre. Mise à jour : 2010",
    "tourism": "museum"
  }
},
{
  "type": "way",
  "id": 64917198,
  "nodes": [
    795552879,
    795549249,
    795550295,
    795560259,
    795549346,
    795558628,
    795562242,
    795550509,
    795561215,
    795548610,
    795555861,
    795548215,
    795560278,
    795551681,
    795562305,
    795558809,
    795554834,
    795560409,
    795559354,
    795551342,
    795550784,
    795560431,
    795560887,
    795556628,
    795561715,
    795552879
  ],
  "tags": {
    "building": "yes",
    "name": "Musée de la Castre",
    "source": "cadastre-dgi-fr source : Direction Générale des Impôts - Cadastre. Mise à jour : 2010",
    "tourism": "museum",
    "wikidata": "Q3329886",
    "wikipedia": "fr:Musée de la Castre"
  }
},
{
  "type": "way",
  "id": 67152119,
  "nodes": [
    811098914,
    811112443,
    3756215538,
    3756215541,
    811109198,
    811094056,
    811098914
  ],
  "tags": {
    "building": "yes",
    "name": "Musée Bonnard",
    "source": "cadastre-dgi-fr source : Direction Générale des Impôts - Cadastre. Mise à jour : 2010",
    "tourism": "museum",
    "wikidata": "Q15814098"
  }
},
{
  "type": "way",
  "id": 67332403,
  "nodes": [
    813261962,
    813256275,
    813256015,
    813253638,
    813252493,
    813257021,
    813251934,
    813255390,
    813251873,
    813251061,
    813262526,
    813260971,
    813259615,
    813260018,
    813251854,
    813259530,
    813260512,
    813252492,
    813261962
  ],
  "tags": {
    "building": "yes",
    "name": "Musée d'Art et d'Histoire de Provence de Grasse",
    "source": "cadastre-dgi-fr source : Direction Générale des Impôts - Cadastre. Mise à jour : 2010",
    "tourism": "museum",
    "wikidata": "Q23781118"
  }
},
{
  "type": "way",
  "id": 67332571,
  "nodes": [
    813251556,
    813260031,
    813255086,
    813258791,
    813254300,
    813252328,
    813251556
  ],
  "tags": {
    "building": "yes",
    "heritage": "2",
    "heritage:operator": "mhs",
    "mhs:inscription_date": "1989",
    "name": "Villa-Musée Jean-Honoré Fragonard",
    "opening_hours": "Oct-May: Mo-Su 11:00-19:00; Jun-Sep: Mo-Su 10:00-18:00, Tu off; Dec 25: off; Jan 1: off; May 1: off",
    "ref:mhs": "PA00080736",
    "source": "cadastre-dgi-fr source : Direction Générale des Impôts - Cadastre. Mise à jour : 2010",
    "source:heritage": "data.gouv.fr:Ministère de la Culture - 04/2015",
    "tourism": "museum",
    "website": "https://www.museesdegrasse.com/",
    "wikidata": "Q22916181"
  }
},
{
  "type": "way",
  "id": 67332908,
  "nodes": [
    813255558,
    813253903,
    813254675,
    813259786,
    813260044,
    813261555,
    813255558
  ],
  "tags": {
    "building": "yes",
    "name": "Musée International de la Parfumerie",
    "source": "cadastre-dgi-fr source : Direction Générale des Impôts - Cadastre. Mise à jour : 2010",
    "tourism": "museum",
    "wikidata": "Q21559215"
  }
},
{
  "type": "way",
  "id": 68051130,
  "nodes": [
    820631362,
    820657267,
    820657011,
    820452044,
    820418691,
    820405364,
    820679634,
    820673408,
    820523843,
    820732205,
    820468706,
    820611887,
    820605368,
    820720815,
    820523595,
    820417955,
    820768556,
    820625068,
    820479038,
    820503223,
    820631854,
    820401184,
    820757398,
    820641673,
    820434097,
    820631362
  ],
  "tags": {
    "addr:city": "Antibes",
    "addr:postcode": "06600",
    "addr:street": "Place Mariejol",
    "building": "yes",
    "contact:email": "musee.picasso@ville-antibes.fr",
    "contact:fax": "+33 4 92 90 54 21",
    "contact:phone": "+33 4 92 90 54 26",
    "heritage": "2",
    "heritage:operator": "mhs",
    "historic": "castle",
    "mhs:inscription_date": "1928-04-29",
    "name": "Musée Picasso",
    "old_name": "Chateau des Grimaldi",
    "opening_hours": "Sep 16-Jun 14 Th-Su 10:00-12:00,14:00-18:00; Jun 15-Jun 30,Sep 01-Sep 15 Tu-Su 10:00-18:00; Jul-Aug Tu,Th,Sa-Su 10:00-18:00, Jul-Aug We,Fr 10:00-18:00",
    "phone": "+33 4 92 90 54 28",
    "ref:FR:museofile": "M0867",
    "ref:mhs": "PA00080651",
    "source": "cadastre-dgi-fr source : Direction Générale des Impôts - Cadastre. Mise à jour : 2010",
    "source:heritage": "data.gouv.fr, Ministère de la Culture - 2016",
    "start_date": "C15",
    "tourism": "museum",
    "website": "http://www.antibes-juanlespins.com",
    "wheelchair": "yes",
    "wikidata": "Q1368360",
    "wikipedia": "fr:Musée Picasso (Antibes)"
  }
},
{
  "type": "way",
  "id": 68051325,
  "nodes": [
    820695964,
    820383911,
    820426394,
    820484378,
    820603406,
    820695964
  ],
  "tags": {
    "building": "yes",
    "name": "Musée de l'Ecole",
    "source": "cadastre-dgi-fr source : Direction Générale des Impôts - Cadastre. Mise à jour : 2010",
    "tourism": "museum"
  }
},
{
  "type": "way",
  "id": 68052995,
  "nodes": [
    820681616,
    820715828,
    820706027,
    820376702,
    820580162,
    820686848,
    820697991,
    6466848611,
    820456278,
    820539733,
    820472557,
    820698324,
    820717554,
    6466848648,
    820716889,
    820402184,
    820672218,
    2295276503,
    820697566,
    820755874,
    820603012,
    6466848649,
    820412496,
    820466954,
    820529138,
    820418557,
    820681616
  ],
  "tags": {
    "building": "yes",
    "building:levels": "1",
    "name": "Musée de la Poype",
    "source": "cadastre-dgi-fr source : Direction Générale des Impôts - Cadastre. Mise à jour : 2010",
    "tourism": "museum"
  }
},
{
  "type": "way",
  "id": 68074824,
  "nodes": [
    820505450,
    820687033,
    820513419,
    820404019,
    820479571,
    820607625,
    820394306,
    820419063,
    820499343,
    820411059,
    820390156,
    820518539,
    820384651,
    820735472,
    820406532,
    820684276,
    820485987,
    820697292,
    820674953,
    820714823,
    820505450
  ],
  "tags": {
    "building": "yes",
    "name": "Archéologie",
    "source": "cadastre-dgi-fr source : Direction Générale des Impôts - Cadastre. Mise à jour : 2010",
    "tourism": "museum"
  }
},
{
  "type": "way",
  "id": 81023334,
  "nodes": [
    385677362,
    944510195,
    1018952215,
    385677372,
    944510148,
    944510156,
    1018330852,
    385677370,
    1018331026,
    1018331495,
    1018330730,
    385677369,
    1018331291,
    1018330798,
    1018330889,
    1018330848,
    1018331444,
    1018330652,
    1018330995,
    1018331388,
    4603472145,
    385677368,
    1018331000,
    1018330739,
    1018331552,
    1018331283,
    1018330705,
    1018330834,
    1018331434,
    385677367,
    1018331436,
    1018331087,
    944510129,
    944510189,
    1018331351,
    1018330976,
    1018330879,
    1018331601,
    1018331275,
    385677366,
    1018331190,
    4603472135,
    4603472134,
    4603472127,
    4603472122,
    4603472117,
    385677364,
    385677363,
    385677362
  ],
  "tags": {
    "area": "yes",
    "barrier": "wall",
    "name": "Musée des Arts Asiatiques",
    "name:de": "Museum für Asiatische Kunst",
    "name:fr": "Musée des Arts Asiatiques",
    "opening_hours": "10:00-18:00; Tu off",
    "phone": "+33 4 92 29 37 00",
    "tourism": "museum",
    "website": "www.arts-asiatiques.com/",
    "wikidata": "Q3330160"
  }
},
{
  "type": "way",
  "id": 81023342,
  "nodes": [
    385677370,
    1018330947,
    944510100,
    944510140,
    944510103,
    944510143,
    944510191,
    944510116,
    944510160,
    944510095,
    944510136,
    944510164,
    944510098,
    944510139,
    944510189,
    944510129,
    1018331087,
    1018331436,
    385677367,
    1018331434,
    1018330834,
    1018330705,
    1018331283,
    1018331552,
    1018330739,
    1018331000,
    385677368,
    4603472145,
    1018331388,
    1018330995,
    1018330652,
    1018331444,
    1018330848,
    1018330889,
    1018330798,
    1018331291,
    385677369,
    1018330730,
    1018331495,
    1018331026,
    385677370
  ],
  "tags": {
    "addr:city": "Nice",
    "addr:housenumber": "405",
    "addr:postcode": "06200",
    "addr:street": "Promenade des Anglais",
    "building": "yes",
    "description": "Lieu de rencontres et d'échanges entre les arts asiatiques et la culture occidentale.",
    "email": "arts-asiatiques@departement06.fr",
    "fax": "+33 4 92 29 37 01",
    "height": "10",
    "name": "Musée des Arts Asiatiques",
    "opening_hours": "Mo-Su 10:00-17:00; Tu off",
    "operator": "Ville de Nice",
    "phone": "+33 4 92 29 37 00",
    "source": "survey 2017",
    "tourism": "museum",
    "website": "http://www.arts-asiatiques.com",
    "wheelchair": "yes",
    "wikidata": "Q3330160",
    "wikipedia": "fr:Musée des arts asiatiques de Nice"
  }
},
{
  "type": "way",
  "id": 87940994,
  "nodes": [
    1022369327,
    1022361517,
    1022384291,
    1022364540,
    1022374465,
    1022378114,
    1022372230,
    1022384365,
    1022379900,
    1022376756,
    1022366395,
    1022362223,
    1022366822,
    1022364097,
    1022357038,
    1022369605,
    1022364755,
    1022362083,
    1022348751,
    1022369327
  ],
  "tags": {
    "building": "yes",
    "name": "Chapelle de la Miséricorde",
    "source": "cadastre-dgi-fr source : Direction Générale des Impôts - Cadastre. Mise à jour : 2010",
    "tourism": "museum"
  }
},
{
  "type": "way",
  "id": 88039972,
  "nodes": [
    1023260111,
    1023262596,
    1023258774,
    1023261842,
    1023262468,
    1023260611,
    1023258537,
    1023262603,
    1023266242,
    1023265245,
    1023258173,
    1023247405,
    1023254111,
    1023254166,
    1023264841,
    1023265505,
    1023257322,
    1023246440,
    1023265248,
    1023260291,
    1023258304,
    1023259662,
    1023261729,
    1023264445,
    1023261687,
    1023255208,
    1023262431,
    1023263738,
    1023260884,
    1023261785,
    1023260337,
    1023263593,
    1023248344,
    1023258438,
    1023261849,
    1023266224,
    1023265007,
    1023255423,
    1023246642,
    1023248622,
    1023255353,
    1023256893,
    1023262357,
    1023259277,
    1023256927,
    1023265889,
    1023261980,
    1023263346,
    1023259256,
    1023251462,
    1023261456,
    1023266033,
    1023254020,
    1023260792,
    1023251952,
    1023265707,
    1023258581,
    1023263454,
    1023254281,
    1023256719,
    1023253325,
    1023259560,
    1023248961,
    1023259913,
    1023259609,
    1023260970,
    1023258273,
    1023265836,
    1023246422,
    1023247249,
    1023249665,
    1023257543,
    1023258289,
    1023260111
  ],
  "tags": {
    "alt_name": "Musée de la Céramique",
    "building": "yes",
    "name": "Musée Magnelli",
    "source": "cadastre-dgi-fr source : Direction Générale des Impôts - Cadastre. Mise à jour : 2010",
    "tourism": "museum"
  }
},
{
  "type": "way",
  "id": 88040667,
  "nodes": [
    1023260111,
    1023258289,
    1023257543,
    1023249665,
    1023247249,
    1023246422,
    1023265836,
    1023258273,
    1023260970,
    1023259609,
    1023259913,
    1023248961,
    1023254061,
    1023263225,
    1023264684,
    1023261113,
    1023258537,
    1023260611,
    1023266544,
    1023262596,
    1023260111
  ],
  "tags": {
    "building": "yes",
    "name": "Musée national Picasso « La guerre et la paix »",
    "source": "cadastre-dgi-fr source : Direction Générale des Impôts - Cadastre. Mise à jour : 2010",
    "tourism": "museum",
    "wheelchair": "no",
    "wikipedia": "fr:Musée Picasso (Vallauris)"
  }
},
{
  "type": "way",
  "id": 89087817,
  "nodes": [
    1033556929,
    1033550608,
    1033419516,
    1033568500,
    1033537113,
    1033437917,
    1033431505,
    3823141997,
    1033530995,
    1033453912,
    1033453407,
    1033556929
  ],
  "tags": {
    "building": "yes",
    "name": "Salles d'expositions municipales",
    "operator": "Biot",
    "source": "cadastre-dgi-fr source : Direction Générale des Impôts - Cadastre. Mise à jour : 2010",
    "tourism": "museum"
  }
},
{
  "type": "way",
  "id": 89113602,
  "nodes": [
    1033532788,
    1033565926,
    1033519679,
    1033576490,
    1033429514,
    1033435040,
    1033489151,
    1033566688,
    1033574203,
    1033457216,
    1033603567,
    1033502503,
    1033504857,
    1033425455,
    1033522794,
    1033439517,
    1033587029,
    1033464283,
    1033517437,
    1033599681,
    1033536849,
    1033556572,
    1033613047,
    1033454670,
    1033425896,
    1033458443,
    1033434909,
    1033432068,
    1033595680,
    1033536194,
    1033424852,
    1033580914,
    1033581210,
    1033523709,
    1033503292,
    1033438732,
    1033532788
  ],
  "tags": {
    "building": "yes",
    "name": "Musée national Fernand Léger",
    "source": "cadastre-dgi-fr source : Direction Générale des Impôts - Cadastre. Mise à jour : 2010",
    "tourism": "museum",
    "website": "http://www.musee-fernandleger.fr/",
    "wikidata": "Q3330673"
  }
},
{
  "type": "way",
  "id": 94452761,
  "nodes": [
    1097188584,
    1097189088,
    1097190827,
    6008635222,
    6008635224,
    6008635225,
    6008635227,
    6008635226,
    6008635223,
    1097191859,
    1097188339,
    1097190053,
    1097188862,
    5931906970,
    6008635221,
    6008635220,
    1097190618,
    1097188584
  ],
  "tags": {
    "addr:city": "Monaco",
    "addr:country": "MC",
    "addr:housename": "Villa Sauber",
    "addr:housenumber": "17",
    "addr:postcode": "98000",
    "addr:street": "Avenue Princesse Grace",
    "building": "public",
    "description": "Full price NMNM ticket (Villa Paloma + Villa Sauber) 6€",
    "email": "public@nmnm.mc",
    "facebook": "http://www.facebook.com/pages/Nouveau-Mus%C3%A9e-National-de-Monaco/136013936481069",
    "fee": "yes",
    "name": "Nouveau Musée National - Villa Sauber",
    "name:en": "New National Museum of Monaco",
    "name:zh": "摩纳哥新国家博物馆",
    "opening_hours": "10:00-18:00",
    "phone": "+377 98 98 91 26",
    "tourism": "museum",
    "website": "http://www.nmnm.mc",
    "wikidata": "Q3345073",
    "wikipedia": "fr:Nouveau musée national de Monaco"
  }
},
{
  "type": "way",
  "id": 123917452,
  "nodes": [
    1380494729,
    1573017879,
    1573017877,
    1573017875,
    1573017873,
    1380494727,
    1380494725,
    1380494723,
    1380494724,
    1380494722,
    1380494717,
    1380494710,
    1380494719,
    1380494721,
    1591426028,
    2204448729,
    1380494726,
    1380494729
  ],
  "tags": {
    "leisure": "garden",
    "name": "Les Jardins du Musée International de la Parfumerie",
    "opening_hours": "May-Sep: Mo-Su 10:00-20:00; Oct-Mar: Mo-Su 11:00-18:00, Tu off",
    "tourism": "museum",
    "website": "https://www.museesdegrasse.com/"
  }
},
{
  "type": "way",
  "id": 128860574,
  "nodes": [
    1422852567,
    1422852514,
    1422852549,
    1422852557,
    1422852565,
    1422852582,
    1422852672,
    1422852948,
    1422852956,
    1422852988,
    1422852977,
    1422852965,
    1422852906,
    1422852950,
    1422852903,
    1422852872,
    1422852804,
    1422852751,
    1422852720,
    1422852687,
    1422852609,
    1422852577,
    1422852538,
    1422852567
  ],
  "tags": {
    "amenity": "townhall",
    "building": "yes",
    "name": "Château-Mairie",
    "source": "cadastre-dgi-fr source : Direction Générale des Impôts - Cadastre. Mise à jour : 2011",
    "tourism": "museum"
  }
},
{
  "type": "way",
  "id": 128860875,
  "nodes": [
    1422860012,
    1422859846,
    1422859829,
    1422859844,
    1422859839,
    1422859824,
    1422859810,
    1422859934,
    1422860023,
    1422860053,
    1422859901,
    1422859929,
    1422859956,
    1422860012
  ],
  "tags": {
    "building": "yes",
    "name": "La Bastide aux Violettes",
    "source": "cadastre-dgi-fr source : Direction Générale des Impôts - Cadastre. Mise à jour : 2011",
    "tourism": "museum"
  }
},
{
  "type": "way",
  "id": 129666878,
  "nodes": [
    1430161139,
    1430161039,
    1430161000,
    1430160970,
    1430160963,
    1430160705,
    1430160789,
    1430160881,
    1430160928,
    1430160954,
    1430160966,
    1430161160,
    1430161171,
    1430161296,
    1430161139
  ],
  "tags": {
    "alt_name": "Chapelle du Rosaire",
    "amenity": "place_of_worship",
    "building": "chapel",
    "denomination": "catholic",
    "heritage": "3",
    "heritage:operator": "mhs",
    "historic": "yes",
    "mhs:inscription_date": "1965-12-28",
    "name": "Chapelle du Rosaire",
    "name:ru": "Часовня Розер",
    "ref:mhs": "PA00080911",
    "religion": "christian",
    "source": "cadastre-dgi-fr source : Direction Générale des Impôts - Cadastre. Mise à jour : 2011",
    "source:heritage": "data.gouv.fr, Ministère de la Culture - 2016",
    "start_date": "C20",
    "tourism": "museum",
    "wikidata": "Q1062726",
    "wikipedia": "fr:Chapelle du Rosaire de Vence"
  }
},
{
  "type": "way",
  "id": 129667034,
  "nodes": [
    1430126328,
    1430128200,
    1430128687,
    1430129425,
    1430129661,
    1430129636,
    1430130019,
    1430130098,
    1430129551,
    1430128796,
    1430126842,
    1430126887,
    1430125859,
    1430125704,
    1430126493,
    1430126328
  ],
  "tags": {
    "alt_name": "Fondation Emile Hugues",
    "building": "yes",
    "historic": "castle",
    "name": "Château de Villeneuve",
    "opening_hours": "Tu-Su 10:00-12:30, 14:00-18:00",
    "source": "cadastre-dgi-fr source : Direction Générale des Impôts - Cadastre. Mise à jour : 2011",
    "tourism": "museum",
    "website": "http://www.museedevence.com/"
  }
},
{
  "type": "way",
  "id": 129687290,
  "nodes": [
    1430119133,
    1430119187,
    1430120666,
    1430120985,
    1430119822,
    1430118822,
    1430119133
  ],
  "tags": {
    "building": "yes",
    "name": "Espace muséal Gombrowicz",
    "source": "cadastre-dgi-fr source : Direction Générale des Impôts - Cadastre. Mise à jour : 2011",
    "tourism": "museum"
  }
},
{
  "type": "way",
  "id": 130473371,
  "nodes": [
    1436876394,
    1436876249,
    1436876297,
    1436876730,
    1436876812,
    1436876758,
    1436876806,
    1436876768,
    1436876838,
    1436876474,
    4698680469,
    1436876394
  ],
  "tags": {
    "man_made": "tower",
    "name": "Musée archéologique de Saint-Raphaël",
    "opening_hours": "Tu-Sa 10:00-18:00",
    "source": "cadastre-dgi-fr source : Direction Générale des Impôts - Cadastre. Mise à jour : 2011",
    "tourism": "museum",
    "website": "http://www.musee-saintraphael.com/",
    "wikidata": "Q3329530"
  }
},
{
  "type": "way",
  "id": 137213821,
  "nodes": [
    1505156571,
    1505156570,
    1505156562,
    1505156561,
    1505156557,
    1505156525,
    1505156516,
    1505156784,
    1505156804,
    1505156865,
    1505156879,
    1505156813,
    1505156820,
    1505156571
  ],
  "tags": {
    "addr:city": "Nice",
    "addr:housenumber": "25",
    "addr:postcode": "06300",
    "addr:street": "Boulevard Carnot",
    "building": "yes",
    "description": "Le musée de Terra Amata conserve, à l’emplacement même du site, les vestiges laissés par des Homo erectus niçois, il y a 400 000 ans. Rénovation en 2016",
    "fax": "+33 4 93 89 91 31",
    "height": "20",
    "name": "Musée Terra Amata",
    "official_name": "Musée de paléontologie de Terra Amata",
    "opening_hours": "Jan 01 off; Oct 16-Jun 22 11:00-18:00; Jun 23-Oct 15 10:00-18:00",
    "operator": "Ville de Nice",
    "phone": "+33 4 93 55 59 93",
    "ref:FR:museofile": "M0885",
    "source": "Survey 2017",
    "tourism": "museum",
    "website": "http://www.musee-terra-amata.org"
  }
},
{
  "type": "way",
  "id": 138946234,
  "nodes": [
    1523195641,
    1523195651,
    1523195664,
    1523195769,
    1523195758,
    1523195641
  ],
  "tags": {
    "addr:housename": "Musée Prieuré du Vieux Logis",
    "addr:housenumber": "51",
    "building": "yes",
    "height": "9",
    "name": "Musée Prieuré du Vieux Logis",
    "opening_hours": "ouvert uniquement sur rdv auprès du musée Massena",
    "phone": "+33 4 93 91 19 10",
    "source": "survey 2017",
    "tourism": "museum",
    "wheelchair": "no",
    "wikidata": "Q24006488",
    "wikipedia": "fr:Prieuré du Vieux Logis"
  }
},
{
  "type": "way",
  "id": 139931873,
  "nodes": [
    1533314337,
    1533314402,
    1533314430,
    1533314408,
    1533314334,
    1533314285,
    1533314271,
    1533314257,
    1533314279,
    1533314337
  ],
  "tags": {
    "building": "yes",
    "description": "L'intérêt de cette collection réside dans la présentation de l'évolution artistique de Matisse, ses avancées et ses recherches dans le domaine de la couleur et du graphisme, des premiers tableaux de 1890 aux gouaches découpées de la fin de sa vie.",
    "ele": "224",
    "email": "musee.matisse@ville-nice.fr",
    "fax": "+33 4 93 53 00 22",
    "height": "18",
    "level": "3",
    "name": "Musée Matisse",
    "phone": "+33 4 93 53 40 53",
    "ref:FR:museofile": "M0884",
    "source": "Survey 2017",
    "tourism": "museum",
    "website": "http://www.musee-matisse-nice.org",
    "wheelchair": "no",
    "wikidata": "Q1563354",
    "wikipedia": "fr:Musée Matisse de Nice"
  }
},
{
  "type": "way",
  "id": 139932041,
  "nodes": [
    1533314206,
    2756217663,
    1533314255,
    1533314188,
    1533314248,
    1533314287,
    1533314303,
    1533314389,
    1533314382,
    1533314397,
    1533314366,
    1533314342,
    2756217645,
    1533314315,
    1533314135,
    1533314137,
    1533314098,
    1533314056,
    1533314054,
    1533314006,
    1533314002,
    1533313976,
    1533313809,
    1533313831,
    1533313826,
    1533313816,
    1533313815,
    1533313825,
    1533313836,
    1533313854,
    1533313869,
    1533313875,
    1533313883,
    1533313937,
    1533313925,
    1533314139,
    1533314141,
    1533314172,
    1533314206
  ],
  "tags": {
    "addr:city": "Nice",
    "addr:housenumber": "160",
    "addr:postcode": "06000",
    "addr:street": "Avenue des Arènes de Cimiez",
    "building": "yes",
    "description": "Témoignages archéologiques sur l'histoire ancienne de Cimiez et de Nice ainsi que des collections antiques provenant d'autres sites.",
    "ele": "210",
    "email": "cimiez.archeo@libertysurf.fr",
    "height": "5",
    "level": "2",
    "name": "Musée d'Archéologique de Nice-Cimiez",
    "official_name": "Musée archéologique de Cimiez",
    "phone": "+33 4 93 81 59 57",
    "ref:FR:museofile": "M0883",
    "source": "Survey 2017",
    "tourism": "museum",
    "website": "http://www.nice.fr/fr/culture/musees",
    "wheelchair": "no",
    "wikidata": "Q3329446",
    "wikipedia": "fr:Musée archéologique de Nice-Cimiez"
  }
},
{
  "type": "way",
  "id": 140067117,
  "nodes": [
    1534797453,
    1534797423,
    1534797446,
    1534797545,
    1534797512,
    1534797543,
    1534797618,
    1534797588,
    1534797615,
    1534797675,
    1534797652,
    3729569065,
    1534797781,
    1534797822,
    1534797900,
    1534797785,
    1534797784,
    1534797773,
    1534797590,
    1534797563,
    1534797467,
    1534797502,
    1534797372,
    1534797275,
    1534797266,
    1534797178,
    1534797151,
    1534797268,
    1534797285,
    1534797230,
    1534797253,
    1534797050,
    1534797018,
    1534796893,
    1534796817,
    1534796978,
    1534796938,
    1534796487,
    1534796536,
    1534796421,
    1534796476,
    1534796588,
    1534796733,
    1534796896,
    1534797162,
    1534797273,
    1534797315,
    1534797300,
    1534797180,
    1534797052,
    1534796619,
    1534796501,
    1534796563,
    1534796725,
    1534796859,
    1534796942,
    1534797298,
    1534797277,
    1534797403,
    1534797453
  ],
  "tags": {
    "addr:city": "Nice",
    "addr:housenumber": "36",
    "addr:postcode": "06000",
    "addr:street": "Avenue du Docteur Ménard",
    "building": "public",
    "description:en": "Full rate : €8, Reduced rate : €6, Free: Free : - for visitors under 26 (EU citizens or visitors with EU visas and long residence in EU) - every first Sunday of the month.",
    "email": "visiteguide-mn06@culture.gouv.fr",
    "fax": "+33 4 93 53 87 39",
    "height": "8",
    "level": "2",
    "museum": "art",
    "name": "Musée Marc Chagall",
    "name:ko": "샤갈 미술관",
    "opening_hours": "10:00-18:00; Nov-Apr: 10:00-17:00; Jan 01,May 01,Dec 25 off",
    "opening_hours:url": "http://en.musees-nationaux-alpesmaritimes.fr/chagall/c-practical-information",
    "operator": "Privé",
    "phone": "+33 4 93 53 87 20",
    "ref:FR:museofile": "M5029",
    "source": "Survey 2017",
    "start_date": "1973",
    "tourism": "museum",
    "website": "https://musees-nationaux-alpesmaritimes.fr/chagall/",
    "wheelchair": "yes",
    "wikidata": "Q3329265",
    "wikipedia": "fr:Musée Marc-Chagall (Nice)"
  }
},
{
  "type": "way",
  "id": 140260291,
  "nodes": [
    1536818239,
    1536818237,
    1536818276,
    1536818274,
    1536818281,
    1536818295,
    1536818297,
    1536818284,
    1536818279,
    1536818261,
    1536818260,
    1536818214,
    1536818193,
    1536817995,
    4769485702,
    1536818037,
    1536818132,
    1536818141,
    1536818239
  ],
  "tags": {
    "addr:city": "Nice",
    "addr:housenumber": "33",
    "addr:postcode": "06000",
    "addr:street": "Avenue des Baumettes",
    "alt_name": "Musée Chéret",
    "building": "yes",
    "description": "Les collections de peinture et de sculpture s’étendent du XVIe au XXe siècle.",
    "height": "19",
    "heritage": "3",
    "heritage:operator": "mhs",
    "level": "2",
    "mhs:inscription_date": "1976-12-17",
    "name": "Musée des Beaux Arts",
    "opening_hours": "Jan 01 off; Oct 16-Jun 22 11:00-18:00; Jun 23-Oct 15 10:00-18:00",
    "operator": "Ville de Nice",
    "phone": "+334 92 15 28 28",
    "ref:mhs": "PA00080804",
    "source": "Survey 2017",
    "source:heritage": "Ministère de la Culture - 06/2019",
    "tourism": "museum",
    "website": "http://www.musee-beaux-arts-nice.org",
    "wheelchair": "limited",
    "wikidata": "Q3330218",
    "wikipedia": "fr:Musée des Beaux-Arts de Nice"
  }
},
{
  "type": "way",
  "id": 141550678,
  "nodes": [
    4748517632,
    1549341714,
    1549341729,
    1549341789,
    1549341808,
    1549341810,
    1549341806,
    1549341741,
    1549341771,
    1549341867,
    1549341949,
    1549342166,
    1549342154,
    1549342142,
    1549342138,
    1549342133,
    1549342120,
    1549342140,
    1549342152,
    1549342172,
    1549342165,
    1549342143,
    1549342124,
    1549342101,
    1549342074,
    1549342050,
    1549342020,
    1549341725,
    1549341693,
    1549341670,
    1549341648,
    1549341635,
    1549341615,
    1549341607,
    1549341605,
    1549341618,
    1549341633,
    1549341649,
    1549341672,
    1549341689,
    4748517632
  ],
  "tags": {
    "access": "Oui",
    "building": "yes",
    "email": "ciac@ville-carros.fr",
    "historic": "castle",
    "historic:civilization": "medieval",
    "name": "Centre international d'art contemporain",
    "name:fr": "Château de Carros",
    "opening_hours": "Jul-Aug: Tu-Su 10:00-12:30, 14:30-18:30; Sep-Jun: Tu-Su 10:00-12:30, 14:00-17:30",
    "phone": "+33 4 93 29 37 97",
    "source": "cadastre-dgi-fr source : Direction Générale des Impôts - Cadastre. Mise à jour : 2011",
    "tourism": "museum",
    "website": "http://www.ciac-carros.fr/",
    "wikidata": "Q65153095",
    "wikipedia": "fr:Château de Carros"
  }
},
{
  "type": "way",
  "id": 161885377,
  "nodes": [
    1738399823,
    5596346612,
    5596346618,
    1738399820,
    1738399818,
    1738399815,
    1738399813,
    1738399809,
    1738399807,
    1738399795,
    1738399797,
    1738399788,
    1738399787,
    1738399780,
    1738399781,
    1738399778,
    1738399766,
    1738399769,
    1738399776,
    1738399773,
    1738399768,
    1738399775,
    1738399771,
    1738399761,
    1738399762,
    1738399760,
    1738399763,
    1738399783,
    1738399785,
    1738399823
  ],
  "tags": {
    "addr:city": "Monaco",
    "addr:country": "MC",
    "addr:housenumber": "4",
    "addr:postcode": "98000",
    "addr:street": "Quai Antoine 1er",
    "building": "yes",
    "name": "Salle d'Exposition",
    "tourism": "museum"
  }
},
{
  "type": "way",
  "id": 169086558,
  "nodes": [
    1802566011,
    1802566007,
    1802566009,
    1802566034,
    1802566031,
    1802566039,
    1802566036,
    1802566024,
    1802566019,
    1802566029,
    1802566028,
    1802566016,
    1802566014,
    1802566022,
    1802566018,
    1802566013,
    1802566012,
    1802566011
  ],
  "tags": {
    "alt_name": "Salle du Saint-Esprit",
    "building": "church",
    "denomination": "catholic",
    "name": "Chapelle du Saint-Esprit",
    "religion": "christian",
    "source": "cadastre-dgi-fr source : Direction Générale des Impôts - Cadastre ; mise à jour : 2009",
    "tourism": "museum"
  }
},
{
  "type": "way",
  "id": 169086570,
  "nodes": [
    1802565956,
    1802565958,
    1802565976,
    1802565975,
    1802565972,
    1802565960,
    6297952129,
    1802565990,
    1802565989,
    6297952128,
    6297952127,
    1802565979,
    1802565954,
    1802565956
  ],
  "tags": {
    "alt_name": "Abbaye Chalaisienne",
    "building": "yes",
    "name": "Musée du patrimoine Le vieux Valbonne",
    "source": "cadastre-dgi-fr source : Direction Générale des Impôts - Cadastre ; mise à jour : 2009",
    "tourism": "museum",
    "wikipedia": "fr:Abbaye de Valbonne (Valbonne)"
  }
},
{
  "type": "way",
  "id": 171570079,
  "nodes": [
    1825805143,
    5183927333,
    5086966447,
    5086966446,
    5086966445,
    5086966444,
    1825805127,
    1825805129,
    5086966988,
    5086966987,
    5086966986,
    5086966443,
    1825805159,
    1825805143
  ],
  "tags": {
    "building": "yes",
    "name": "Musée des Troupes de Marine",
    "tourism": "museum"
  }
},
{
  "type": "way",
  "id": 193259615,
  "nodes": [
    2037779368,
    2037779355,
    2037779351,
    2037779344,
    2037779523,
    2037779542,
    2037779470,
    2037779440,
    2037779405,
    2037779368
  ],
  "tags": {
    "building": "yes",
    "name": "Musée du Peu",
    "source": "cadastre-dgi-fr source : Direction Générale des Impôts - Cadastre. Mise à jour : 2012",
    "tourism": "museum"
  }
},
{
  "type": "way",
  "id": 522243661,
  "nodes": [
    5086966985,
    5086966442,
    5086966441,
    5183949053,
    5086966837,
    5086966836,
    5086966835,
    5086966834,
    5086966833,
    5086966985
  ],
  "tags": {
    "building": "yes",
    "building:levels": "2",
    "name": "Centre d'histoire et d'étude des troupes d'outre-mer (CHEtom°",
    "tourism": "museum"
  }
},
{
  "type": "way",
  "id": 527859113,
  "nodes": [
    1322440309,
    5130960037,
    5130960036,
    5130960035,
    5130960034,
    5130960033,
    5130960026,
    1322634484,
    5130960059,
    5130960058,
    4026358839,
    4026358845,
    4073744251,
    4073744252,
    4073744253,
    4026358846,
    4073744247,
    4026358842,
    4026358834,
    4026208400,
    4026208399,
    4073744241,
    4026208405,
    4026208398,
    4028819320,
    6448601888,
    4028819319,
    4028819316,
    4028819313,
    4028819315,
    4028819317,
    4028819321,
    4028819325,
    4028819327,
    4028819329,
    4028819328,
    5130960032,
    4028819324,
    4028819323,
    4028819312,
    4028819305,
    5130960030,
    4028819309,
    1322635029,
    4028819308,
    4028819306,
    4028819307,
    5130960057,
    5130960056,
    5130960055,
    5130960054,
    5130960053,
    5130960052,
    5130960051,
    5130960050,
    5130960049,
    5130960048,
    5130960047,
    5130960046,
    5130960045,
    5130960044,
    5130960043,
    5130960042,
    5130960041,
    5130960040,
    5130960039,
    5130960038,
    30318021,
    1322440133,
    5113919677,
    1322440325,
    1322440309
  ],
  "tags": {
    "leisure": "park",
    "name": "Jardins d'Eilenroc",
    "tourism": "museum"
  }
},
{
  "type": "way",
  "id": 586521034,
  "nodes": [
    5603872506,
    5603872507,
    5603872508,
    5603872509,
    5603872519,
    5603872510,
    5603872511,
    5603872506
  ],
  "tags": {
    "addr:city": "Monaco",
    "addr:country": "MC",
    "addr:housename": "Villa Paloma",
    "addr:housenumber": "56",
    "addr:postcode": "98000",
    "addr:street": "Boulevard du Jardin Exotique",
    "building": "public",
    "building:levels": "4",
    "description": "Full price NMNM ticket (Villa Paloma + Villa Sauber) 6€",
    "email": "public@nmnm.mc",
    "facebook": "http://www.facebook.com/pages/Nouveau-Mus%C3%A9e-National-de-Monaco/136013936481069",
    "fee": "yes",
    "fee:conditional": "no @ Su",
    "name": "Nouveau Musée National - Villa Paloma",
    "name:en": "New National Museum of Monaco",
    "opening_hours": "10:00-18:00",
    "phone": "+377 98 98 48 60",
    "tourism": "museum",
    "website": "http://www.nmnm.mc",
    "wikidata": "Q3345073",
    "wikipedia": "fr:Nouveau musée national de Monaco"
  }
},
{
  "type": "way",
  "id": 708311359,
  "nodes": [
    6655752302,
    6655703360,
    6655703359,
    6655752303,
    6655752304,
    6655752305,
    6655752302
  ],
  "tags": {
    "landuse": "tourism",
    "name": "Musée international d'art naïf Anatole Jakovsky",
    "official_name": "Musée d'art naïf Anatole Jakovsky",
    "phone": "+33 4 93 71 78 33",
    "ref:FR:museofile": "M0886",
    "source": "Ministère de la Culture - Muséofile - 09/2019",
    "tourism": "museum"
  }
},
{
  "type": "relation",
  "id": 1074415,
  "members": [
    {
      "type": "way",
      "ref": 68043982,
      "role": "outer"
    },
    {
      "type": "way",
      "ref": 68069019,
      "role": "inner"
    }
  ],
  "tags": {
    "building": "yes",
    "name": "Musée Peynet",
    "tourism": "museum",
    "type": "multipolygon",
    "wikidata": "Q60193124"
  }
},
{
  "type": "relation",
  "id": 1949582,
  "members": [
    {
      "type": "way",
      "ref": 143921079,
      "role": "outer"
    },
    {
      "type": "way",
      "ref": 143921357,
      "role": "inner"
    }
  ],
  "tags": {
    "addr:city": "Nice",
    "addr:postcode": "06300",
    "addr:street": "Place Yves Klein",
    "building": "yes",
    "description": "1 300 oeuvres et plus de 300 artistes, le MAMAC couvre une vaste période allant de la fin des années 1950 jusqu’à aujourd’hui.",
    "ele": "250",
    "email": "mamac@ville-nice.fr",
    "fax": "+33 4 97 13 42 02",
    "level": "5",
    "name": "Musée d'art moderne et d'art contemporain",
    "name:ko": "니스 현대미술관",
    "opening_hours": "11:00-18:00",
    "operator": "Ville de Nice",
    "phone": "+33 4 97 13 42 01",
    "short_name": "MAMAC",
    "source": "Survey 2017",
    "tourism": "museum",
    "type": "multipolygon",
    "website": "http://www.mamac-nice.org/",
    "wheelchair": "yes",
    "wikidata": "Q936859",
    "wikipedia": "fr:Musée d'art moderne et d'art contemporain de Nice"
  }
},
{
  "type": "relation",
  "id": 3681896,
  "members": [
    {
      "type": "way",
      "ref": 62544253,
      "role": "outer"
    },
    {
      "type": "way",
      "ref": 276897956,
      "role": "inner"
    }
  ],
  "tags": {
    "addr:city": "Beaulieu-sur-Mer",
    "addr:postcode": "06310",
    "addr:street": "Impasse Gustave Eiffel",
    "building": "yes",
    "heritage:operator": "mhs",
    "mhs:inscription_date": "1966",
    "name": "Villa grecque Kerylos",
    "operator": "Fondation Théodore Reinach",
    "phone": "+33 4 93 01 01 44",
    "ref:mhs": "PA00080664",
    "tourism": "museum",
    "type": "multipolygon",
    "website": "http://www.villa-kerylos.com",
    "wheelchair": "limited",
    "wheelchair:description": "The ground floor of the Villa is accessible to people in wheelchairs.",
    "wikidata": "Q3558616",
    "wikipedia": "en:Villa Kerylos"
  }
},
{
  "type": "node",
  "id": 1436876249,
  "lat": 43.4259553,
  "lon": 6.7693168
},
{
  "type": "node",
  "id": 1436876297,
  "lat": 43.4259643,
  "lon": 6.7693211
},
{
  "type": "node",
  "id": 1436876394,
  "lat": 43.4259906,
  "lon": 6.7691728
},
{
  "type": "node",
  "id": 1436876474,
  "lat": 43.4260095,
  "lon": 6.7691505
},
{
  "type": "node",
  "id": 1436876730,
  "lat": 43.4260393,
  "lon": 6.7693528
},
{
  "type": "node",
  "id": 1436876758,
  "lat": 43.4260423,
  "lon": 6.7692828
},
{
  "type": "node",
  "id": 1436876768,
  "lat": 43.4260453,
  "lon": 6.7692348
},
{
  "type": "node",
  "id": 1436876806,
  "lat": 43.4260533,
  "lon": 6.7692388
},
{
  "type": "node",
  "id": 1436876812,
  "lat": 43.4260543,
  "lon": 6.7692898
},
{
  "type": "node",
  "id": 1436876838,
  "lat": 43.4260603,
  "lon": 6.7691708
},
{
  "type": "node",
  "id": 4698680469,
  "lat": 43.4259978,
  "lon": 6.7691463
},
{
  "type": "node",
  "id": 1825805127,
  "lat": 43.4717678,
  "lon": 6.7206785
},
{
  "type": "node",
  "id": 1825805129,
  "lat": 43.4717708,
  "lon": 6.7207924
},
{
  "type": "node",
  "id": 1825805143,
  "lat": 43.4722967,
  "lon": 6.7205826
},
{
  "type": "node",
  "id": 1825805159,
  "lat": 43.4723033,
  "lon": 6.7207605
},
{
  "type": "node",
  "id": 5086966441,
  "lat": 43.4716090,
  "lon": 6.7208772
},
{
  "type": "node",
  "id": 5086966442,
  "lat": 43.4716072,
  "lon": 6.7208295
},
{
  "type": "node",
  "id": 5086966443,
  "lat": 43.4719021,
  "lon": 6.7207901
},
{
  "type": "node",
  "id": 5086966444,
  "lat": 43.4718589,
  "lon": 6.7206718
},
{
  "type": "node",
  "id": 5086966445,
  "lat": 43.4718597,
  "lon": 6.7207033
},
{
  "type": "node",
  "id": 5086966446,
  "lat": 43.4718989,
  "lon": 6.7206989
},
{
  "type": "node",
  "id": 5086966447,
  "lat": 43.4718981,
  "lon": 6.7206254
},
{
  "type": "node",
  "id": 5086966833,
  "lat": 43.4717103,
  "lon": 6.7209547
},
{
  "type": "node",
  "id": 5086966834,
  "lat": 43.4716878,
  "lon": 6.7209563
},
{
  "type": "node",
  "id": 5086966835,
  "lat": 43.4716899,
  "lon": 6.7210112
},
{
  "type": "node",
  "id": 5086966836,
  "lat": 43.4713907,
  "lon": 6.7210327
},
{
  "type": "node",
  "id": 5086966837,
  "lat": 43.4713866,
  "lon": 6.7208915
},
{
  "type": "node",
  "id": 5086966985,
  "lat": 43.4717053,
  "lon": 6.7208225
},
{
  "type": "node",
  "id": 5086966986,
  "lat": 43.4719007,
  "lon": 6.7207403
},
{
  "type": "node",
  "id": 5086966987,
  "lat": 43.4718596,
  "lon": 6.7207404
},
{
  "type": "node",
  "id": 5086966988,
  "lat": 43.4718606,
  "lon": 6.7207870
},
{
  "type": "node",
  "id": 5183927333,
  "lat": 43.4720368,
  "lon": 6.7206105
},
{
  "type": "node",
  "id": 5183949053,
  "lat": 43.4715830,
  "lon": 6.7208843
},
{
  "type": "node",
  "id": 795548215,
  "lat": 43.5502263,
  "lon": 7.0106055
},
{
  "type": "node",
  "id": 795548610,
  "lat": 43.5502038,
  "lon": 7.0106068
},
{
  "type": "node",
  "id": 795549249,
  "lat": 43.5499990,
  "lon": 7.0102306
},
{
  "type": "node",
  "id": 795549346,
  "lat": 43.5502027,
  "lon": 7.0103299
},
{
  "type": "node",
  "id": 795550295,
  "lat": 43.5501488,
  "lon": 7.0102464
},
{
  "type": "node",
  "id": 795550509,
  "lat": 43.5501871,
  "lon": 7.0105857
},
{
  "type": "node",
  "id": 795550784,
  "lat": 43.5501705,
  "lon": 7.0101983
},
{
  "type": "node",
  "id": 795551342,
  "lat": 43.5501664,
  "lon": 7.0102276
},
{
  "type": "node",
  "id": 795551681,
  "lat": 43.5502442,
  "lon": 7.0105791
},
{
  "type": "node",
  "id": 795552879,
  "lat": 43.5500034,
  "lon": 7.0101472
},
{
  "type": "node",
  "id": 795554834,
  "lat": 43.5502814,
  "lon": 7.0103428
},
{
  "type": "node",
  "id": 795555861,
  "lat": 43.5502117,
  "lon": 7.0106092
},
{
  "type": "node",
  "id": 795556628,
  "lat": 43.5501270,
  "lon": 7.0101602
},
{
  "type": "node",
  "id": 795558628,
  "lat": 43.5501760,
  "lon": 7.0105621
},
{
  "type": "node",
  "id": 795558809,
  "lat": 43.5502700,
  "lon": 7.0104114
},
{
  "type": "node",
  "id": 795559354,
  "lat": 43.5501962,
  "lon": 7.0102324
},
{
  "type": "node",
  "id": 795560259,
  "lat": 43.5501456,
  "lon": 7.0103108
},
{
  "type": "node",
  "id": 795560278,
  "lat": 43.5502361,
  "lon": 7.0105966
},
{
  "type": "node",
  "id": 795560409,
  "lat": 43.5502947,
  "lon": 7.0102504
},
{
  "type": "node",
  "id": 795560431,
  "lat": 43.5501751,
  "lon": 7.0101653
},
{
  "type": "node",
  "id": 795560887,
  "lat": 43.5501438,
  "lon": 7.0101623
},
{
  "type": "node",
  "id": 795561215,
  "lat": 43.5501942,
  "lon": 7.0105986
},
{
  "type": "node",
  "id": 795561715,
  "lat": 43.5500813,
  "lon": 7.0101553
},
{
  "type": "node",
  "id": 795562242,
  "lat": 43.5501840,
  "lon": 7.0105627
},
{
  "type": "node",
  "id": 795562305,
  "lat": 43.5502526,
  "lon": 7.0105796
},
{
  "type": "node",
  "id": 811094056,
  "lat": 43.5764281,
  "lon": 7.0199943
},
{
  "type": "node",
  "id": 811098914,
  "lat": 43.5765400,
  "lon": 7.0200305
},
{
  "type": "node",
  "id": 811109198,
  "lat": 43.5764560,
  "lon": 7.0198298
},
{
  "type": "node",
  "id": 811112443,
  "lat": 43.5765681,
  "lon": 7.0198654
},
{
  "type": "node",
  "id": 3756215538,
  "lat": 43.5765251,
  "lon": 7.0198515
},
{
  "type": "node",
  "id": 3756215541,
  "lat": 43.5764617,
  "lon": 7.0198316
},
{
  "type": "node",
  "id": 629859463,
  "lat": 43.6204700,
  "lon": 6.9697438
},
{
  "type": "node",
  "id": 629859564,
  "lat": 43.6210804,
  "lon": 6.9694408
},
{
  "type": "node",
  "id": 629868875,
  "lat": 43.6205853,
  "lon": 6.9699644
},
{
  "type": "node",
  "id": 794382444,
  "lat": 43.6205580,
  "lon": 6.9697558
},
{
  "type": "node",
  "id": 794382467,
  "lat": 43.6206044,
  "lon": 6.9698525
},
{
  "type": "node",
  "id": 794382473,
  "lat": 43.6211810,
  "lon": 6.9693902
},
{
  "type": "node",
  "id": 794382487,
  "lat": 43.6213197,
  "lon": 6.9695843
},
{
  "type": "node",
  "id": 794382556,
  "lat": 43.6213401,
  "lon": 6.9694161
},
{
  "type": "node",
  "id": 794382597,
  "lat": 43.6213091,
  "lon": 6.9692511
},
{
  "type": "node",
  "id": 794382767,
  "lat": 43.6205641,
  "lon": 6.9697496
},
{
  "type": "node",
  "id": 794382794,
  "lat": 43.6206375,
  "lon": 6.9699152
},
{
  "type": "node",
  "id": 794382825,
  "lat": 43.6210764,
  "lon": 6.9694795
},
{
  "type": "node",
  "id": 794382936,
  "lat": 43.6205230,
  "lon": 6.9696879
},
{
  "type": "node",
  "id": 794382966,
  "lat": 43.6213010,
  "lon": 6.9693141
},
{
  "type": "node",
  "id": 794383001,
  "lat": 43.6213787,
  "lon": 6.9693323
},
{
  "type": "node",
  "id": 794383014,
  "lat": 43.6211994,
  "lon": 6.9692284
},
{
  "type": "node",
  "id": 794383030,
  "lat": 43.6210876,
  "lon": 6.9693706
},
{
  "type": "node",
  "id": 794383101,
  "lat": 43.6206127,
  "lon": 6.9698437
},
{
  "type": "node",
  "id": 5432174307,
  "lat": 43.6213690,
  "lon": 6.9694228
},
{
  "type": "node",
  "id": 5432174308,
  "lat": 43.6212539,
  "lon": 6.9695688
},
{
  "type": "node",
  "id": 5432174309,
  "lat": 43.6212586,
  "lon": 6.9695198
},
{
  "type": "node",
  "id": 478218506,
  "lat": 43.6012086,
  "lon": 6.9943973
},
{
  "type": "node",
  "id": 478218507,
  "lat": 43.6011955,
  "lon": 6.9944340
},
{
  "type": "node",
  "id": 478218508,
  "lat": 43.6012017,
  "lon": 6.9944423
},
{
  "type": "node",
  "id": 478218509,
  "lat": 43.6011750,
  "lon": 6.9945195
},
{
  "type": "node",
  "id": 478218510,
  "lat": 43.6010053,
  "lon": 6.9944117
},
{
  "type": "node",
  "id": 478218511,
  "lat": 43.6010296,
  "lon": 6.9943207
},
{
  "type": "node",
  "id": 478218512,
  "lat": 43.6011362,
  "lon": 6.9943886
},
{
  "type": "node",
  "id": 478218514,
  "lat": 43.6011468,
  "lon": 6.9943565
},
{
  "type": "node",
  "id": 478218518,
  "lat": 43.6011100,
  "lon": 6.9943716
},
{
  "type": "node",
  "id": 478218656,
  "lat": 43.6003328,
  "lon": 6.9944724
},
{
  "type": "node",
  "id": 478218658,
  "lat": 43.6002035,
  "lon": 6.9943796
},
{
  "type": "node",
  "id": 478218659,
  "lat": 43.6001699,
  "lon": 6.9943945
},
{
  "type": "node",
  "id": 478218660,
  "lat": 43.6001634,
  "lon": 6.9944020
},
{
  "type": "node",
  "id": 478218661,
  "lat": 43.6001586,
  "lon": 6.9944134
},
{
  "type": "node",
  "id": 478218662,
  "lat": 43.6001571,
  "lon": 6.9944258
},
{
  "type": "node",
  "id": 478218663,
  "lat": 43.6001590,
  "lon": 6.9944421
},
{
  "type": "node",
  "id": 478218664,
  "lat": 43.6001607,
  "lon": 6.9944467
},
{
  "type": "node",
  "id": 478218665,
  "lat": 43.6001663,
  "lon": 6.9944555
},
{
  "type": "node",
  "id": 478218667,
  "lat": 43.6002909,
  "lon": 6.9945497
},
{
  "type": "node",
  "id": 478218668,
  "lat": 43.6001607,
  "lon": 6.9944075
},
{
  "type": "node",
  "id": 478218669,
  "lat": 43.6001574,
  "lon": 6.9944344
},
{
  "type": "node",
  "id": 478218672,
  "lat": 43.6002291,
  "lon": 6.9945030
},
{
  "type": "node",
  "id": 478218699,
  "lat": 43.6001664,
  "lon": 6.9951613
},
{
  "type": "node",
  "id": 478218700,
  "lat": 43.6000750,
  "lon": 6.9951568
},
{
  "type": "node",
  "id": 478218701,
  "lat": 43.6001720,
  "lon": 6.9952232
},
{
  "type": "node",
  "id": 478218702,
  "lat": 43.6000798,
  "lon": 6.9952145
},
{
  "type": "node",
  "id": 478218717,
  "lat": 43.6004432,
  "lon": 6.9954878
},
{
  "type": "node",
  "id": 478218718,
  "lat": 43.6004306,
  "lon": 6.9955070
},
{
  "type": "node",
  "id": 478218842,
  "lat": 43.6005374,
  "lon": 6.9955309
},
{
  "type": "node",
  "id": 478218843,
  "lat": 43.6004687,
  "lon": 6.9954547
},
{
  "type": "node",
  "id": 478218845,
  "lat": 43.6004452,
  "lon": 6.9954905
},
{
  "type": "node",
  "id": 478218853,
  "lat": 43.6004295,
  "lon": 6.9955090
},
{
  "type": "node",
  "id": 478218855,
  "lat": 43.6004410,
  "lon": 6.9955245
},
{
  "type": "node",
  "id": 478218858,
  "lat": 43.6005085,
  "lon": 6.9956012
},
{
  "type": "node",
  "id": 478218860,
  "lat": 43.6004668,
  "lon": 6.9954600
},
{
  "type": "node",
  "id": 478218862,
  "lat": 43.6004755,
  "lon": 6.9955620
},
{
  "type": "node",
  "id": 486817582,
  "lat": 43.6005131,
  "lon": 6.9955039
},
{
  "type": "node",
  "id": 5695988541,
  "lat": 43.6011590,
  "lon": 6.9945093
},
{
  "type": "node",
  "id": 794194968,
  "lat": 43.6144050,
  "lon": 6.9787130
},
{
  "type": "node",
  "id": 794195404,
  "lat": 43.6144061,
  "lon": 6.9787159
},
{
  "type": "node",
  "id": 794196625,
  "lat": 43.6150422,
  "lon": 6.9782475
},
{
  "type": "node",
  "id": 794198668,
  "lat": 43.6150134,
  "lon": 6.9781739
},
{
  "type": "node",
  "id": 794199381,
  "lat": 43.6143413,
  "lon": 6.9786652
},
{
  "type": "node",
  "id": 794200504,
  "lat": 43.6143705,
  "lon": 6.9787416
},
{
  "type": "node",
  "id": 1380494710,
  "lat": 43.6140550,
  "lon": 6.9789757
},
{
  "type": "node",
  "id": 1380494717,
  "lat": 43.6141827,
  "lon": 6.9793822
},
{
  "type": "node",
  "id": 1380494719,
  "lat": 43.6142450,
  "lon": 6.9787399
},
{
  "type": "node",
  "id": 1380494721,
  "lat": 43.6143067,
  "lon": 6.9786324
},
{
  "type": "node",
  "id": 1380494726,
  "lat": 43.6152692,
  "lon": 6.9779206
},
{
  "type": "node",
  "id": 1591426028,
  "lat": 43.6150583,
  "lon": 6.9780766
},
{
  "type": "node",
  "id": 2204448729,
  "lat": 43.6151699,
  "lon": 6.9780034
},
{
  "type": "node",
  "id": 1380494722,
  "lat": 43.6144203,
  "lon": 6.9797608
},
{
  "type": "node",
  "id": 1380494723,
  "lat": 43.6145448,
  "lon": 6.9805020
},
{
  "type": "node",
  "id": 1380494724,
  "lat": 43.6145600,
  "lon": 6.9803223
},
{
  "type": "node",
  "id": 1380494725,
  "lat": 43.6148293,
  "lon": 6.9810122
},
{
  "type": "node",
  "id": 1380494727,
  "lat": 43.6152668,
  "lon": 6.9809748
},
{
  "type": "node",
  "id": 1380494729,
  "lat": 43.6162200,
  "lon": 6.9804116
},
{
  "type": "node",
  "id": 1573017873,
  "lat": 43.6155357,
  "lon": 6.9807164
},
{
  "type": "node",
  "id": 1573017875,
  "lat": 43.6157064,
  "lon": 6.9806057
},
{
  "type": "node",
  "id": 1573017877,
  "lat": 43.6158228,
  "lon": 6.9805307
},
{
  "type": "node",
  "id": 1573017879,
  "lat": 43.6159391,
  "lon": 6.9804771
},
{
  "type": "node",
  "id": 1022348751,
  "lat": 43.5784990,
  "lon": 7.0508890
},
{
  "type": "node",
  "id": 1022357038,
  "lat": 43.5785180,
  "lon": 7.0507370
},
{
  "type": "node",
  "id": 1022361517,
  "lat": 43.5784930,
  "lon": 7.0509100
},
{
  "type": "node",
  "id": 1022362083,
  "lat": 43.5784400,
  "lon": 7.0508060
},
{
  "type": "node",
  "id": 1022362223,
  "lat": 43.5785250,
  "lon": 7.0507470
},
{
  "type": "node",
  "id": 1022364097,
  "lat": 43.5785240,
  "lon": 7.0507280
},
{
  "type": "node",
  "id": 1022364540,
  "lat": 43.5785380,
  "lon": 7.0509400
},
{
  "type": "node",
  "id": 1022364755,
  "lat": 43.5785010,
  "lon": 7.0507150
},
{
  "type": "node",
  "id": 1022366395,
  "lat": 43.5785880,
  "lon": 7.0508300
},
{
  "type": "node",
  "id": 1022366822,
  "lat": 43.5785320,
  "lon": 7.0507380
},
{
  "type": "node",
  "id": 1022369327,
  "lat": 43.5784890,
  "lon": 7.0509050
},
{
  "type": "node",
  "id": 1022369605,
  "lat": 43.5785020,
  "lon": 7.0507120
},
{
  "type": "node",
  "id": 1022372230,
  "lat": 43.5786510,
  "lon": 7.0509130
},
{
  "type": "node",
  "id": 1022374465,
  "lat": 43.5785890,
  "lon": 7.0510080
},
{
  "type": "node",
  "id": 1022376756,
  "lat": 43.5785940,
  "lon": 7.0508210
},
{
  "type": "node",
  "id": 1022378114,
  "lat": 43.5786200,
  "lon": 7.0509600
},
{
  "type": "node",
  "id": 1022379900,
  "lat": 43.5786020,
  "lon": 7.0508310
},
{
  "type": "node",
  "id": 1022384291,
  "lat": 43.5785040,
  "lon": 7.0508950
},
{
  "type": "node",
  "id": 1022384365,
  "lat": 43.5785950,
  "lon": 7.0508400
},
{
  "type": "node",
  "id": 1023246422,
  "lat": 43.5801070,
  "lon": 7.0533700
},
{
  "type": "node",
  "id": 1023246440,
  "lat": 43.5798170,
  "lon": 7.0532700
},
{
  "type": "node",
  "id": 1023246642,
  "lat": 43.5799350,
  "lon": 7.0536270
},
{
  "type": "node",
  "id": 1023247249,
  "lat": 43.5800990,
  "lon": 7.0533710
},
{
  "type": "node",
  "id": 1023247405,
  "lat": 43.5798440,
  "lon": 7.0532220
},
{
  "type": "node",
  "id": 1023248344,
  "lat": 43.5799380,
  "lon": 7.0536000
},
{
  "type": "node",
  "id": 1023248622,
  "lat": 43.5799360,
  "lon": 7.0536320
},
{
  "type": "node",
  "id": 1023248961,
  "lat": 43.5801310,
  "lon": 7.0533230
},
{
  "type": "node",
  "id": 1023249665,
  "lat": 43.5800920,
  "lon": 7.0533700
},
{
  "type": "node",
  "id": 1023251462,
  "lat": 43.5801410,
  "lon": 7.0535090
},
{
  "type": "node",
  "id": 1023251952,
  "lat": 43.5801750,
  "lon": 7.0535150
},
{
  "type": "node",
  "id": 1023253325,
  "lat": 43.5801900,
  "lon": 7.0534270
},
{
  "type": "node",
  "id": 1023254020,
  "lat": 43.5801610,
  "lon": 7.0535200
},
{
  "type": "node",
  "id": 1023254061,
  "lat": 43.5801210,
  "lon": 7.0532970
},
{
  "type": "node",
  "id": 1023254111,
  "lat": 43.5798350,
  "lon": 7.0532230
},
{
  "type": "node",
  "id": 1023254166,
  "lat": 43.5798280,
  "lon": 7.0532280
},
{
  "type": "node",
  "id": 1023254281,
  "lat": 43.5801880,
  "lon": 7.0534810
},
{
  "type": "node",
  "id": 1023255208,
  "lat": 43.5798280,
  "lon": 7.0532900
},
{
  "type": "node",
  "id": 1023255353,
  "lat": 43.5799420,
  "lon": 7.0536460
},
{
  "type": "node",
  "id": 1023255423,
  "lat": 43.5799340,
  "lon": 7.0536220
},
{
  "type": "node",
  "id": 1023256719,
  "lat": 43.5802050,
  "lon": 7.0534700
},
{
  "type": "node",
  "id": 1023256893,
  "lat": 43.5799520,
  "lon": 7.0536540
},
{
  "type": "node",
  "id": 1023256927,
  "lat": 43.5799820,
  "lon": 7.0536380
},
{
  "type": "node",
  "id": 1023257322,
  "lat": 43.5798150,
  "lon": 7.0532580
},
{
  "type": "node",
  "id": 1023257543,
  "lat": 43.5800850,
  "lon": 7.0533660
},
{
  "type": "node",
  "id": 1023258173,
  "lat": 43.5798520,
  "lon": 7.0532240
},
{
  "type": "node",
  "id": 1023258273,
  "lat": 43.5801200,
  "lon": 7.0533600
},
{
  "type": "node",
  "id": 1023258289,
  "lat": 43.5800790,
  "lon": 7.0533600
},
{
  "type": "node",
  "id": 1023258304,
  "lat": 43.5798200,
  "lon": 7.0532790
},
{
  "type": "node",
  "id": 1023258438,
  "lat": 43.5799360,
  "lon": 7.0536040
},
{
  "type": "node",
  "id": 1023258537,
  "lat": 43.5798990,
  "lon": 7.0532100
},
{
  "type": "node",
  "id": 1023258581,
  "lat": 43.5801850,
  "lon": 7.0535010
},
{
  "type": "node",
  "id": 1023258774,
  "lat": 43.5800740,
  "lon": 7.0533640
},
{
  "type": "node",
  "id": 1023259256,
  "lat": 43.5801370,
  "lon": 7.0535010
},
{
  "type": "node",
  "id": 1023259277,
  "lat": 43.5799740,
  "lon": 7.0536500
},
{
  "type": "node",
  "id": 1023259560,
  "lat": 43.5801710,
  "lon": 7.0534400
},
{
  "type": "node",
  "id": 1023259609,
  "lat": 43.5801280,
  "lon": 7.0533440
},
{
  "type": "node",
  "id": 1023259662,
  "lat": 43.5798210,
  "lon": 7.0532820
},
{
  "type": "node",
  "id": 1023259913,
  "lat": 43.5801300,
  "lon": 7.0533330
},
{
  "type": "node",
  "id": 1023260111,
  "lat": 43.5800740,
  "lon": 7.0533530
},
{
  "type": "node",
  "id": 1023260291,
  "lat": 43.5798190,
  "lon": 7.0532770
},
{
  "type": "node",
  "id": 1023260337,
  "lat": 43.5799420,
  "lon": 7.0535920
},
{
  "type": "node",
  "id": 1023260611,
  "lat": 43.5799240,
  "lon": 7.0532610
},
{
  "type": "node",
  "id": 1023260792,
  "lat": 43.5801680,
  "lon": 7.0535190
},
{
  "type": "node",
  "id": 1023260884,
  "lat": 43.5798330,
  "lon": 7.0532950
},
{
  "type": "node",
  "id": 1023260970,
  "lat": 43.5801250,
  "lon": 7.0533520
},
{
  "type": "node",
  "id": 1023261113,
  "lat": 43.5799830,
  "lon": 7.0531030
},
{
  "type": "node",
  "id": 1023261456,
  "lat": 43.5801470,
  "lon": 7.0535150
},
{
  "type": "node",
  "id": 1023261687,
  "lat": 43.5798260,
  "lon": 7.0532880
},
{
  "type": "node",
  "id": 1023261729,
  "lat": 43.5798230,
  "lon": 7.0532840
},
{
  "type": "node",
  "id": 1023261785,
  "lat": 43.5799450,
  "lon": 7.0535890
},
{
  "type": "node",
  "id": 1023261842,
  "lat": 43.5799670,
  "lon": 7.0534520
},
{
  "type": "node",
  "id": 1023261849,
  "lat": 43.5799350,
  "lon": 7.0536080
},
{
  "type": "node",
  "id": 1023261980,
  "lat": 43.5799840,
  "lon": 7.0536080
},
{
  "type": "node",
  "id": 1023262357,
  "lat": 43.5799630,
  "lon": 7.0536560
},
{
  "type": "node",
  "id": 1023262431,
  "lat": 43.5798300,
  "lon": 7.0532920
},
{
  "type": "node",
  "id": 1023262468,
  "lat": 43.5799020,
  "lon": 7.0532880
},
{
  "type": "node",
  "id": 1023262596,
  "lat": 43.5800700,
  "lon": 7.0533580
},
{
  "type": "node",
  "id": 1023262603,
  "lat": 43.5798700,
  "lon": 7.0532490
},
{
  "type": "node",
  "id": 1023263225,
  "lat": 43.5800520,
  "lon": 7.0531980
},
{
  "type": "node",
  "id": 1023263346,
  "lat": 43.5800690,
  "lon": 7.0535480
},
{
  "type": "node",
  "id": 1023263454,
  "lat": 43.5801880,
  "lon": 7.0534910
},
{
  "type": "node",
  "id": 1023263593,
  "lat": 43.5799400,
  "lon": 7.0535960
},
{
  "type": "node",
  "id": 1023263738,
  "lat": 43.5798320,
  "lon": 7.0532930
},
{
  "type": "node",
  "id": 1023264445,
  "lat": 43.5798240,
  "lon": 7.0532860
},
{
  "type": "node",
  "id": 1023264684,
  "lat": 43.5800490,
  "lon": 7.0532010
},
{
  "type": "node",
  "id": 1023264841,
  "lat": 43.5798220,
  "lon": 7.0532360
},
{
  "type": "node",
  "id": 1023265007,
  "lat": 43.5799340,
  "lon": 7.0536180
},
{
  "type": "node",
  "id": 1023265245,
  "lat": 43.5798600,
  "lon": 7.0532300
},
{
  "type": "node",
  "id": 1023265248,
  "lat": 43.5798180,
  "lon": 7.0532740
},
{
  "type": "node",
  "id": 1023265505,
  "lat": 43.5798170,
  "lon": 7.0532470
},
{
  "type": "node",
  "id": 1023265707,
  "lat": 43.5801810,
  "lon": 7.0535090
},
{
  "type": "node",
  "id": 1023265836,
  "lat": 43.5801140,
  "lon": 7.0533660
},
{
  "type": "node",
  "id": 1023265889,
  "lat": 43.5799860,
  "lon": 7.0536230
},
{
  "type": "node",
  "id": 1023266033,
  "lat": 43.5801540,
  "lon": 7.0535190
},
{
  "type": "node",
  "id": 1023266224,
  "lat": 43.5799340,
  "lon": 7.0536130
},
{
  "type": "node",
  "id": 1023266242,
  "lat": 43.5798660,
  "lon": 7.0532380
},
{
  "type": "node",
  "id": 1023266544,
  "lat": 43.5799680,
  "lon": 7.0532050
},
{
  "type": "node",
  "id": 1322635029,
  "lat": 43.5444167,
  "lon": 7.1296105
},
{
  "type": "node",
  "id": 4028819305,
  "lat": 43.5441958,
  "lon": 7.1299646
},
{
  "type": "node",
  "id": 4028819306,
  "lat": 43.5444005,
  "lon": 7.1295287
},
{
  "type": "node",
  "id": 4028819307,
  "lat": 43.5444088,
  "lon": 7.1294611
},
{
  "type": "node",
  "id": 4028819308,
  "lat": 43.5444181,
  "lon": 7.1295886
},
{
  "type": "node",
  "id": 4028819309,
  "lat": 43.5442949,
  "lon": 7.1297004
},
{
  "type": "node",
  "id": 5130960030,
  "lat": 43.5442098,
  "lon": 7.1297930
},
{
  "type": "node",
  "id": 5130960047,
  "lat": 43.5452120,
  "lon": 7.1294591
},
{
  "type": "node",
  "id": 5130960048,
  "lat": 43.5452232,
  "lon": 7.1296683
},
{
  "type": "node",
  "id": 5130960049,
  "lat": 43.5451552,
  "lon": 7.1296884
},
{
  "type": "node",
  "id": 5130960050,
  "lat": 43.5449924,
  "lon": 7.1297608
},
{
  "type": "node",
  "id": 5130960051,
  "lat": 43.5449379,
  "lon": 7.1297461
},
{
  "type": "node",
  "id": 5130960052,
  "lat": 43.5449292,
  "lon": 7.1296991
},
{
  "type": "node",
  "id": 5130960053,
  "lat": 43.5449438,
  "lon": 7.1296549
},
{
  "type": "node",
  "id": 5130960054,
  "lat": 43.5448738,
  "lon": 7.1296240
},
{
  "type": "node",
  "id": 5130960055,
  "lat": 43.5447872,
  "lon": 7.1295811
},
{
  "type": "node",
  "id": 5130960056,
  "lat": 43.5446026,
  "lon": 7.1295610
},
{
  "type": "node",
  "id": 5130960057,
  "lat": 43.5444490,
  "lon": 7.1295087
},
{
  "type": "node",
  "id": 30318021,
  "lat": 43.5462640,
  "lon": 7.1295578
},
{
  "type": "node",
  "id": 1322440133,
  "lat": 43.5462864,
  "lon": 7.1296585
},
{
  "type": "node",
  "id": 1322440309,
  "lat": 43.5466108,
  "lon": 7.1295091
},
{
  "type": "node",
  "id": 1322440325,
  "lat": 43.5464911,
  "lon": 7.1296085
},
{
  "type": "node",
  "id": 1322634484,
  "lat": 43.5478302,
  "lon": 7.1300794
},
{
  "type": "node",
  "id": 4026358839,
  "lat": 43.5479986,
  "lon": 7.1300641
},
{
  "type": "node",
  "id": 5113919677,
  "lat": 43.5463659,
  "lon": 7.1297126
},
{
  "type": "node",
  "id": 5130960026,
  "lat": 43.5478181,
  "lon": 7.1300485
},
{
  "type": "node",
  "id": 5130960033,
  "lat": 43.5477919,
  "lon": 7.1299995
},
{
  "type": "node",
  "id": 5130960034,
  "lat": 43.5476184,
  "lon": 7.1299955
},
{
  "type": "node",
  "id": 5130960035,
  "lat": 43.5471163,
  "lon": 7.1298936
},
{
  "type": "node",
  "id": 5130960036,
  "lat": 43.5468592,
  "lon": 7.1297360
},
{
  "type": "node",
  "id": 5130960037,
  "lat": 43.5467416,
  "lon": 7.1296569
},
{
  "type": "node",
  "id": 5130960038,
  "lat": 43.5462483,
  "lon": 7.1295530
},
{
  "type": "node",
  "id": 5130960039,
  "lat": 43.5461958,
  "lon": 7.1295248
},
{
  "type": "node",
  "id": 5130960040,
  "lat": 43.5460723,
  "lon": 7.1295583
},
{
  "type": "node",
  "id": 5130960041,
  "lat": 43.5459022,
  "lon": 7.1295208
},
{
  "type": "node",
  "id": 5130960042,
  "lat": 43.5457467,
  "lon": 7.1294028
},
{
  "type": "node",
  "id": 5130960043,
  "lat": 43.5456466,
  "lon": 7.1292740
},
{
  "type": "node",
  "id": 5130960044,
  "lat": 43.5455348,
  "lon": 7.1292070
},
{
  "type": "node",
  "id": 5130960045,
  "lat": 43.5454609,
  "lon": 7.1292056
},
{
  "type": "node",
  "id": 5130960046,
  "lat": 43.5454278,
  "lon": 7.1292740
},
{
  "type": "node",
  "id": 5130960058,
  "lat": 43.5479250,
  "lon": 7.1300465
},
{
  "type": "node",
  "id": 5130960059,
  "lat": 43.5478434,
  "lon": 7.1301015
},
{
  "type": "node",
  "id": 820384651,
  "lat": 43.5774599,
  "lon": 7.1261853
},
{
  "type": "node",
  "id": 820390156,
  "lat": 43.5777120,
  "lon": 7.1262842
},
{
  "type": "node",
  "id": 820394306,
  "lat": 43.5770464,
  "lon": 7.1260862
},
{
  "type": "node",
  "id": 820404019,
  "lat": 43.5770394,
  "lon": 7.1260722
},
{
  "type": "node",
  "id": 820406532,
  "lat": 43.5774896,
  "lon": 7.1260208
},
{
  "type": "node",
  "id": 820411059,
  "lat": 43.5777098,
  "lon": 7.1262995
},
{
  "type": "node",
  "id": 820419063,
  "lat": 43.5770496,
  "lon": 7.1260886
},
{
  "type": "node",
  "id": 820479571,
  "lat": 43.5770414,
  "lon": 7.1260780
},
{
  "type": "node",
  "id": 820485987,
  "lat": 43.5774082,
  "lon": 7.1259798
},
{
  "type": "node",
  "id": 820499343,
  "lat": 43.5770543,
  "lon": 7.1260906
},
{
  "type": "node",
  "id": 820505450,
  "lat": 43.5770393,
  "lon": 7.1260458
},
{
  "type": "node",
  "id": 820513419,
  "lat": 43.5770376,
  "lon": 7.1260620
},
{
  "type": "node",
  "id": 820518539,
  "lat": 43.5777141,
  "lon": 7.1262696
},
{
  "type": "node",
  "id": 820607625,
  "lat": 43.5770434,
  "lon": 7.1260820
},
{
  "type": "node",
  "id": 820674953,
  "lat": 43.5771787,
  "lon": 7.1258833
},
{
  "type": "node",
  "id": 820684276,
  "lat": 43.5774905,
  "lon": 7.1260102
},
{
  "type": "node",
  "id": 820687033,
  "lat": 43.5770373,
  "lon": 7.1260552
},
{
  "type": "node",
  "id": 820697292,
  "lat": 43.5774099,
  "lon": 7.1259637
},
{
  "type": "node",
  "id": 820714823,
  "lat": 43.5770484,
  "lon": 7.1260313
},
{
  "type": "node",
  "id": 820735472,
  "lat": 43.5774872,
  "lon": 7.1260285
},
{
  "type": "node",
  "id": 771393545,
  "lat": 43.5810507,
  "lon": 7.1258977
},
{
  "type": "node",
  "id": 820373332,
  "lat": 43.5808527,
  "lon": 7.1259534
},
{
  "type": "node",
  "id": 820373436,
  "lat": 43.5809135,
  "lon": 7.1258040
},
{
  "type": "node",
  "id": 820374256,
  "lat": 43.5808214,
  "lon": 7.1259692
},
{
  "type": "node",
  "id": 820383911,
  "lat": 43.5837278,
  "lon": 7.1250813
},
{
  "type": "node",
  "id": 820386873,
  "lat": 43.5808886,
  "lon": 7.1258690
},
{
  "type": "node",
  "id": 820388754,
  "lat": 43.5808924,
  "lon": 7.1260005
},
{
  "type": "node",
  "id": 820395909,
  "lat": 43.5808612,
  "lon": 7.1259540
},
{
  "type": "node",
  "id": 820401184,
  "lat": 43.5808423,
  "lon": 7.1285894
},
{
  "type": "node",
  "id": 820402928,
  "lat": 43.5808245,
  "lon": 7.1258848
},
{
  "type": "node",
  "id": 820405364,
  "lat": 43.5809514,
  "lon": 7.1282088
},
{
  "type": "node",
  "id": 820414989,
  "lat": 43.5808678,
  "lon": 7.1258934
},
{
  "type": "node",
  "id": 820415845,
  "lat": 43.5809043,
  "lon": 7.1259850
},
{
  "type": "node",
  "id": 820417429,
  "lat": 43.5808746,
  "lon": 7.1259998
},
{
  "type": "node",
  "id": 820417955,
  "lat": 43.5805764,
  "lon": 7.1282351
},
{
  "type": "node",
  "id": 820418691,
  "lat": 43.5809345,
  "lon": 7.1282581
},
{
  "type": "node",
  "id": 820423213,
  "lat": 43.5810482,
  "lon": 7.1260090
},
{
  "type": "node",
  "id": 820426394,
  "lat": 43.5837400,
  "lon": 7.1249531
},
{
  "type": "node",
  "id": 820431512,
  "lat": 43.5808866,
  "lon": 7.1259221
},
{
  "type": "node",
  "id": 820433485,
  "lat": 43.5809165,
  "lon": 7.1260022
},
{
  "type": "node",
  "id": 820434097,
  "lat": 43.5808945,
  "lon": 7.1285365
},
{
  "type": "node",
  "id": 820441057,
  "lat": 43.5808149,
  "lon": 7.1258976
},
{
  "type": "node",
  "id": 820445510,
  "lat": 43.5809109,
  "lon": 7.1259939
},
{
  "type": "node",
  "id": 820452044,
  "lat": 43.5808714,
  "lon": 7.1284413
},
{
  "type": "node",
  "id": 820456425,
  "lat": 43.5809523,
  "lon": 7.1258027
},
{
  "type": "node",
  "id": 820468706,
  "lat": 43.5808430,
  "lon": 7.1281408
},
{
  "type": "node",
  "id": 820479038,
  "lat": 43.5807905,
  "lon": 7.1285315
},
{
  "type": "node",
  "id": 820484378,
  "lat": 43.5836710,
  "lon": 7.1249399
},
{
  "type": "node",
  "id": 820494932,
  "lat": 43.5808645,
  "lon": 7.1258051
},
{
  "type": "node",
  "id": 820496630,
  "lat": 43.5810531,
  "lon": 7.1258007
},
{
  "type": "node",
  "id": 820501996,
  "lat": 43.5808240,
  "lon": 7.1259117
},
{
  "type": "node",
  "id": 820503223,
  "lat": 43.5807837,
  "lon": 7.1285579
},
{
  "type": "node",
  "id": 820523595,
  "lat": 43.5805637,
  "lon": 7.1282270
},
{
  "type": "node",
  "id": 820523843,
  "lat": 43.5808925,
  "lon": 7.1281717
},
{
  "type": "node",
  "id": 820525041,
  "lat": 43.5808368,
  "lon": 7.1258262
},
{
  "type": "node",
  "id": 820526502,
  "lat": 43.5809351,
  "lon": 7.1258032
},
{
  "type": "node",
  "id": 820539221,
  "lat": 43.5808402,
  "lon": 7.1259694
},
{
  "type": "node",
  "id": 820552002,
  "lat": 43.5808609,
  "lon": 7.1259792
},
{
  "type": "node",
  "id": 820603406,
  "lat": 43.5836601,
  "lon": 7.1250637
},
{
  "type": "node",
  "id": 820605368,
  "lat": 43.5806051,
  "lon": 7.1281418
},
{
  "type": "node",
  "id": 820611887,
  "lat": 43.5806420,
  "lon": 7.1280153
},
{
  "type": "node",
  "id": 820625068,
  "lat": 43.5807759,
  "lon": 7.1285192
},
{
  "type": "node",
  "id": 820631362,
  "lat": 43.5808763,
  "lon": 7.1285269
},
{
  "type": "node",
  "id": 820631854,
  "lat": 43.5808386,
  "lon": 7.1285864
},
{
  "type": "node",
  "id": 820641673,
  "lat": 43.5808921,
  "lon": 7.1285447
},
{
  "type": "node",
  "id": 820657011,
  "lat": 43.5808977,
  "lon": 7.1284582
},
{
  "type": "node",
  "id": 820657267,
  "lat": 43.5808861,
  "lon": 7.1284945
},
{
  "type": "node",
  "id": 820673408,
  "lat": 43.5809177,
  "lon": 7.1281880
},
{
  "type": "node",
  "id": 820679634,
  "lat": 43.5809409,
  "lon": 7.1282025
},
{
  "type": "node",
  "id": 820680057,
  "lat": 43.5808122,
  "lon": 7.1259277
},
{
  "type": "node",
  "id": 820683545,
  "lat": 43.5808158,
  "lon": 7.1258713
},
{
  "type": "node",
  "id": 820685580,
  "lat": 43.5808174,
  "lon": 7.1258287
},
{
  "type": "node",
  "id": 820695964,
  "lat": 43.5836593,
  "lon": 7.1250687
},
{
  "type": "node",
  "id": 820701103,
  "lat": 43.5809069,
  "lon": 7.1258972
},
{
  "type": "node",
  "id": 820720815,
  "lat": 43.5805908,
  "lon": 7.1281335
},
{
  "type": "node",
  "id": 820724137,
  "lat": 43.5809168,
  "lon": 7.1259943
},
{
  "type": "node",
  "id": 820732205,
  "lat": 43.5808688,
  "lon": 7.1281566
},
{
  "type": "node",
  "id": 820741490,
  "lat": 43.5808112,
  "lon": 7.1259528
},
{
  "type": "node",
  "id": 820757398,
  "lat": 43.5808596,
  "lon": 7.1285274
},
{
  "type": "node",
  "id": 820768556,
  "lat": 43.5805483,
  "lon": 7.1283252
},
{
  "type": "node",
  "id": 820777309,
  "lat": 43.5808370,
  "lon": 7.1258060
},
{
  "type": "node",
  "id": 1033419516,
  "lat": 43.6280663,
  "lon": 7.0970913
},
{
  "type": "node",
  "id": 1033431505,
  "lat": 43.6279599,
  "lon": 7.0969400
},
{
  "type": "node",
  "id": 1033437917,
  "lat": 43.6280327,
  "lon": 7.0970027
},
{
  "type": "node",
  "id": 1033453407,
  "lat": 43.6279810,
  "lon": 7.0971153
},
{
  "type": "node",
  "id": 1033453912,
  "lat": 43.6279817,
  "lon": 7.0971110
},
{
  "type": "node",
  "id": 1033530995,
  "lat": 43.6279119,
  "lon": 7.0970508
},
{
  "type": "node",
  "id": 1033537113,
  "lat": 43.6280251,
  "lon": 7.0970220
},
{
  "type": "node",
  "id": 1033550608,
  "lat": 43.6280348,
  "lon": 7.0971604
},
{
  "type": "node",
  "id": 1033556929,
  "lat": 43.6279929,
  "lon": 7.0971252
},
{
  "type": "node",
  "id": 1033568500,
  "lat": 43.6280779,
  "lon": 7.0970656
},
{
  "type": "node",
  "id": 3823141997,
  "lat": 43.6279359,
  "lon": 7.0969955
},
{
  "type": "node",
  "id": 1033424852,
  "lat": 43.6224043,
  "lon": 7.1124653
},
{
  "type": "node",
  "id": 1033425455,
  "lat": 43.6222748,
  "lon": 7.1126124
},
{
  "type": "node",
  "id": 1033425896,
  "lat": 43.6226080,
  "lon": 7.1124600
},
{
  "type": "node",
  "id": 1033429514,
  "lat": 43.6221468,
  "lon": 7.1120792
},
{
  "type": "node",
  "id": 1033432068,
  "lat": 43.6225380,
  "lon": 7.1124668
},
{
  "type": "node",
  "id": 1033434909,
  "lat": 43.6225896,
  "lon": 7.1124448
},
{
  "type": "node",
  "id": 1033435040,
  "lat": 43.6221474,
  "lon": 7.1120922
},
{
  "type": "node",
  "id": 1033438732,
  "lat": 43.6223091,
  "lon": 7.1124674
},
{
  "type": "node",
  "id": 1033439517,
  "lat": 43.6224336,
  "lon": 7.1126113
},
{
  "type": "node",
  "id": 1033454670,
  "lat": 43.6226429,
  "lon": 7.1124595
},
{
  "type": "node",
  "id": 1033457216,
  "lat": 43.6221529,
  "lon": 7.1126387
},
{
  "type": "node",
  "id": 1033458443,
  "lat": 43.6225912,
  "lon": 7.1124603
},
{
  "type": "node",
  "id": 1033464283,
  "lat": 43.6224712,
  "lon": 7.1126110
},
{
  "type": "node",
  "id": 1033489151,
  "lat": 43.6221556,
  "lon": 7.1120918
},
{
  "type": "node",
  "id": 1033502503,
  "lat": 43.6222830,
  "lon": 7.1126274
},
{
  "type": "node",
  "id": 1033503292,
  "lat": 43.6223165,
  "lon": 7.1124670
},
{
  "type": "node",
  "id": 1033504857,
  "lat": 43.6222750,
  "lon": 7.1126269
},
{
  "type": "node",
  "id": 1033517437,
  "lat": 43.6225203,
  "lon": 7.1126095
},
{
  "type": "node",
  "id": 1033519679,
  "lat": 43.6222772,
  "lon": 7.1120901
},
{
  "type": "node",
  "id": 1033522794,
  "lat": 43.6223598,
  "lon": 7.1126115
},
{
  "type": "node",
  "id": 1033523709,
  "lat": 43.6223550,
  "lon": 7.1124653
},
{
  "type": "node",
  "id": 1033532788,
  "lat": 43.6222733,
  "lon": 7.1124693
},
{
  "type": "node",
  "id": 1033536194,
  "lat": 43.6224577,
  "lon": 7.1124757
},
{
  "type": "node",
  "id": 1033536849,
  "lat": 43.6226098,
  "lon": 7.1126075
},
{
  "type": "node",
  "id": 1033556572,
  "lat": 43.6226094,
  "lon": 7.1125531
},
{
  "type": "node",
  "id": 1033565926,
  "lat": 43.6222684,
  "lon": 7.1120895
},
{
  "type": "node",
  "id": 1033566688,
  "lat": 43.6221596,
  "lon": 7.1126286
},
{
  "type": "node",
  "id": 1033574203,
  "lat": 43.6221524,
  "lon": 7.1126291
},
{
  "type": "node",
  "id": 1033576490,
  "lat": 43.6222773,
  "lon": 7.1120785
},
{
  "type": "node",
  "id": 1033580914,
  "lat": 43.6223725,
  "lon": 7.1124530
},
{
  "type": "node",
  "id": 1033581210,
  "lat": 43.6223718,
  "lon": 7.1124645
},
{
  "type": "node",
  "id": 1033587029,
  "lat": 43.6224504,
  "lon": 7.1126110
},
{
  "type": "node",
  "id": 1033595680,
  "lat": 43.6224993,
  "lon": 7.1124742
},
{
  "type": "node",
  "id": 1033599681,
  "lat": 43.6225378,
  "lon": 7.1126093
},
{
  "type": "node",
  "id": 1033603567,
  "lat": 43.6222835,
  "lon": 7.1126371
},
{
  "type": "node",
  "id": 1033613047,
  "lat": 43.6226440,
  "lon": 7.1125338
},
{
  "type": "node",
  "id": 820376702,
  "lat": 43.6128887,
  "lon": 7.1264679
},
{
  "type": "node",
  "id": 820402184,
  "lat": 43.6130457,
  "lon": 7.1264883
},
{
  "type": "node",
  "id": 820412496,
  "lat": 43.6130743,
  "lon": 7.1260430
},
{
  "type": "node",
  "id": 820418557,
  "lat": 43.6130320,
  "lon": 7.1260204
},
{
  "type": "node",
  "id": 820456278,
  "lat": 43.6131194,
  "lon": 7.1267397
},
{
  "type": "node",
  "id": 820466954,
  "lat": 43.6130774,
  "lon": 7.1260308
},
{
  "type": "node",
  "id": 820472557,
  "lat": 43.6131460,
  "lon": 7.1267056
},
{
  "type": "node",
  "id": 820529138,
  "lat": 43.6130345,
  "lon": 7.1260122
},
{
  "type": "node",
  "id": 820539733,
  "lat": 43.6131397,
  "lon": 7.1266996
},
{
  "type": "node",
  "id": 820580162,
  "lat": 43.6129036,
  "lon": 7.1265318
},
{
  "type": "node",
  "id": 820603012,
  "lat": 43.6131061,
  "lon": 7.1260564
},
{
  "type": "node",
  "id": 820672218,
  "lat": 43.6130500,
  "lon": 7.1264869
},
{
  "type": "node",
  "id": 820681616,
  "lat": 43.6130023,
  "lon": 7.1260077
},
{
  "type": "node",
  "id": 820686848,
  "lat": 43.6129179,
  "lon": 7.1265255
},
{
  "type": "node",
  "id": 820697566,
  "lat": 43.6130274,
  "lon": 7.1263848
},
{
  "type": "node",
  "id": 820697991,
  "lat": 43.6129268,
  "lon": 7.1265614
},
{
  "type": "node",
  "id": 820698324,
  "lat": 43.6131640,
  "lon": 7.1266681
},
{
  "type": "node",
  "id": 820706027,
  "lat": 43.6129030,
  "lon": 7.1264599
},
{
  "type": "node",
  "id": 820715828,
  "lat": 43.6128945,
  "lon": 7.1264268
},
{
  "type": "node",
  "id": 820716889,
  "lat": 43.6131805,
  "lon": 7.1266143
},
{
  "type": "node",
  "id": 820717554,
  "lat": 43.6131572,
  "lon": 7.1266626
},
{
  "type": "node",
  "id": 820755874,
  "lat": 43.6130219,
  "lon": 7.1263867
},
{
  "type": "node",
  "id": 2295276503,
  "lat": 43.6130386,
  "lon": 7.1264355
},
{
  "type": "node",
  "id": 6466848611,
  "lat": 43.6130886,
  "lon": 7.1267111
},
{
  "type": "node",
  "id": 6466848648,
  "lat": 43.6131701,
  "lon": 7.1266359
},
{
  "type": "node",
  "id": 6466848649,
  "lat": 43.6130889,
  "lon": 7.1260492
},
{
  "type": "node",
  "id": 4028819312,
  "lat": 43.5445543,
  "lon": 7.1307340
},
{
  "type": "node",
  "id": 4028819313,
  "lat": 43.5446702,
  "lon": 7.1329636
},
{
  "type": "node",
  "id": 4028819315,
  "lat": 43.5446781,
  "lon": 7.1326546
},
{
  "type": "node",
  "id": 4028819316,
  "lat": 43.5446824,
  "lon": 7.1331074
},
{
  "type": "node",
  "id": 4028819317,
  "lat": 43.5446911,
  "lon": 7.1325455
},
{
  "type": "node",
  "id": 4028819319,
  "lat": 43.5447354,
  "lon": 7.1332451
},
{
  "type": "node",
  "id": 4028819320,
  "lat": 43.5447409,
  "lon": 7.1332855
},
{
  "type": "node",
  "id": 4028819321,
  "lat": 43.5447701,
  "lon": 7.1323778
},
{
  "type": "node",
  "id": 4028819323,
  "lat": 43.5447943,
  "lon": 7.1313010
},
{
  "type": "node",
  "id": 4028819324,
  "lat": 43.5448180,
  "lon": 7.1314031
},
{
  "type": "node",
  "id": 4028819325,
  "lat": 43.5449733,
  "lon": 7.1320963
},
{
  "type": "node",
  "id": 4028819327,
  "lat": 43.5449839,
  "lon": 7.1320707
},
{
  "type": "node",
  "id": 4028819328,
  "lat": 43.5449614,
  "lon": 7.1318994
},
{
  "type": "node",
  "id": 4028819329,
  "lat": 43.5450030,
  "lon": 7.1319952
},
{
  "type": "node",
  "id": 5130960032,
  "lat": 43.5448222,
  "lon": 7.1316786
},
{
  "type": "node",
  "id": 6448601888,
  "lat": 43.5447398,
  "lon": 7.1332774
},
{
  "type": "node",
  "id": 4026208398,
  "lat": 43.5473053,
  "lon": 7.1329975
},
{
  "type": "node",
  "id": 4026208399,
  "lat": 43.5473528,
  "lon": 7.1319301
},
{
  "type": "node",
  "id": 4026208400,
  "lat": 43.5473465,
  "lon": 7.1313316
},
{
  "type": "node",
  "id": 4026208405,
  "lat": 43.5473953,
  "lon": 7.1329808
},
{
  "type": "node",
  "id": 4026358834,
  "lat": 43.5473443,
  "lon": 7.1312758
},
{
  "type": "node",
  "id": 4026358842,
  "lat": 43.5480034,
  "lon": 7.1313633
},
{
  "type": "node",
  "id": 4026358845,
  "lat": 43.5480597,
  "lon": 7.1304777
},
{
  "type": "node",
  "id": 4026358846,
  "lat": 43.5481187,
  "lon": 7.1308442
},
{
  "type": "node",
  "id": 4073744241,
  "lat": 43.5473952,
  "lon": 7.1326011
},
{
  "type": "node",
  "id": 4073744247,
  "lat": 43.5480676,
  "lon": 7.1310508
},
{
  "type": "node",
  "id": 4073744251,
  "lat": 43.5481140,
  "lon": 7.1306665
},
{
  "type": "node",
  "id": 4073744252,
  "lat": 43.5481201,
  "lon": 7.1307290
},
{
  "type": "node",
  "id": 4073744253,
  "lat": 43.5481206,
  "lon": 7.1307933
},
{
  "type": "node",
  "id": 813251556,
  "lat": 43.6566121,
  "lon": 6.9212366
},
{
  "type": "node",
  "id": 813252328,
  "lat": 43.6565627,
  "lon": 6.9211631
},
{
  "type": "node",
  "id": 813254300,
  "lat": 43.6566099,
  "lon": 6.9211015
},
{
  "type": "node",
  "id": 813255086,
  "lat": 43.6566603,
  "lon": 6.9210797
},
{
  "type": "node",
  "id": 813258791,
  "lat": 43.6566250,
  "lon": 6.9211240
},
{
  "type": "node",
  "id": 813260031,
  "lat": 43.6566977,
  "lon": 6.9211260
},
{
  "type": "node",
  "id": 813251061,
  "lat": 43.6574711,
  "lon": 6.9228434
},
{
  "type": "node",
  "id": 813251854,
  "lat": 43.6576337,
  "lon": 6.9227108
},
{
  "type": "node",
  "id": 813251873,
  "lat": 43.6575495,
  "lon": 6.9227783
},
{
  "type": "node",
  "id": 813251934,
  "lat": 43.6576030,
  "lon": 6.9227331
},
{
  "type": "node",
  "id": 813252492,
  "lat": 43.6575698,
  "lon": 6.9223393
},
{
  "type": "node",
  "id": 813252493,
  "lat": 43.6575509,
  "lon": 6.9226254
},
{
  "type": "node",
  "id": 813253638,
  "lat": 43.6575134,
  "lon": 6.9225346
},
{
  "type": "node",
  "id": 813253903,
  "lat": 43.6579203,
  "lon": 6.9219115
},
{
  "type": "node",
  "id": 813254675,
  "lat": 43.6581017,
  "lon": 6.9220660
},
{
  "type": "node",
  "id": 813255390,
  "lat": 43.6575699,
  "lon": 6.9227616
},
{
  "type": "node",
  "id": 813255558,
  "lat": 43.6580375,
  "lon": 6.9216702
},
{
  "type": "node",
  "id": 813256015,
  "lat": 43.6575198,
  "lon": 6.9225294
},
{
  "type": "node",
  "id": 813256275,
  "lat": 43.6574511,
  "lon": 6.9223607
},
{
  "type": "node",
  "id": 813257021,
  "lat": 43.6575572,
  "lon": 6.9226216
},
{
  "type": "node",
  "id": 813259530,
  "lat": 43.6576964,
  "lon": 6.9226432
},
{
  "type": "node",
  "id": 813259615,
  "lat": 43.6575782,
  "lon": 6.9228810
},
{
  "type": "node",
  "id": 813259786,
  "lat": 43.6581236,
  "lon": 6.9220208
},
{
  "type": "node",
  "id": 813260018,
  "lat": 43.6576491,
  "lon": 6.9227382
},
{
  "type": "node",
  "id": 813260044,
  "lat": 43.6580688,
  "lon": 6.9219734
},
{
  "type": "node",
  "id": 813260512,
  "lat": 43.6576282,
  "lon": 6.9224788
},
{
  "type": "node",
  "id": 813260971,
  "lat": 43.6575612,
  "lon": 6.9229314
},
{
  "type": "node",
  "id": 813261555,
  "lat": 43.6581571,
  "lon": 6.9217865
},
{
  "type": "node",
  "id": 813261962,
  "lat": 43.6575410,
  "lon": 6.9222741
},
{
  "type": "node",
  "id": 813262526,
  "lat": 43.6574775,
  "lon": 6.9228891
},
{
  "type": "node",
  "id": 1802565954,
  "lat": 43.6401487,
  "lon": 7.0091166
},
{
  "type": "node",
  "id": 1802565956,
  "lat": 43.6401666,
  "lon": 7.0087826
},
{
  "type": "node",
  "id": 1802565958,
  "lat": 43.6402105,
  "lon": 7.0087884
},
{
  "type": "node",
  "id": 1802565960,
  "lat": 43.6402252,
  "lon": 7.0090169
},
{
  "type": "node",
  "id": 1802565972,
  "lat": 43.6402394,
  "lon": 7.0088414
},
{
  "type": "node",
  "id": 1802565975,
  "lat": 43.6402729,
  "lon": 7.0088457
},
{
  "type": "node",
  "id": 1802565976,
  "lat": 43.6402750,
  "lon": 7.0087943
},
{
  "type": "node",
  "id": 1802565979,
  "lat": 43.6402629,
  "lon": 7.0091300
},
{
  "type": "node",
  "id": 1802565989,
  "lat": 43.6403513,
  "lon": 7.0091404
},
{
  "type": "node",
  "id": 1802565990,
  "lat": 43.6403565,
  "lon": 7.0090376
},
{
  "type": "node",
  "id": 1802566007,
  "lat": 43.6405254,
  "lon": 7.0090683
},
{
  "type": "node",
  "id": 1802566009,
  "lat": 43.6405401,
  "lon": 7.0088512
},
{
  "type": "node",
  "id": 1802566011,
  "lat": 43.6405443,
  "lon": 7.0090709
},
{
  "type": "node",
  "id": 1802566012,
  "lat": 43.6405722,
  "lon": 7.0090739
},
{
  "type": "node",
  "id": 1802566013,
  "lat": 43.6405758,
  "lon": 7.0090334
},
{
  "type": "node",
  "id": 1802566014,
  "lat": 43.6405772,
  "lon": 7.0090163
},
{
  "type": "node",
  "id": 1802566016,
  "lat": 43.6405807,
  "lon": 7.0089670
},
{
  "type": "node",
  "id": 1802566018,
  "lat": 43.6405825,
  "lon": 7.0090336
},
{
  "type": "node",
  "id": 1802566019,
  "lat": 43.6405827,
  "lon": 7.0089486
},
{
  "type": "node",
  "id": 1802566022,
  "lat": 43.6405842,
  "lon": 7.0090174
},
{
  "type": "node",
  "id": 1802566024,
  "lat": 43.6405872,
  "lon": 7.0088941
},
{
  "type": "node",
  "id": 1802566028,
  "lat": 43.6405878,
  "lon": 7.0089671
},
{
  "type": "node",
  "id": 1802566029,
  "lat": 43.6405882,
  "lon": 7.0089496
},
{
  "type": "node",
  "id": 1802566031,
  "lat": 43.6405892,
  "lon": 7.0088801
},
{
  "type": "node",
  "id": 1802566034,
  "lat": 43.6405912,
  "lon": 7.0088595
},
{
  "type": "node",
  "id": 1802566036,
  "lat": 43.6405935,
  "lon": 7.0088947
},
{
  "type": "node",
  "id": 1802566039,
  "lat": 43.6405940,
  "lon": 7.0088818
},
{
  "type": "node",
  "id": 6297952127,
  "lat": 43.6403168,
  "lon": 7.0091363
},
{
  "type": "node",
  "id": 6297952128,
  "lat": 43.6403294,
  "lon": 7.0091378
},
{
  "type": "node",
  "id": 6297952129,
  "lat": 43.6402721,
  "lon": 7.0090243
},
{
  "type": "node",
  "id": 1422852514,
  "lat": 43.7157410,
  "lon": 7.0588250
},
{
  "type": "node",
  "id": 1422852538,
  "lat": 43.7157540,
  "lon": 7.0587490
},
{
  "type": "node",
  "id": 1422852549,
  "lat": 43.7157610,
  "lon": 7.0588720
},
{
  "type": "node",
  "id": 1422852557,
  "lat": 43.7157650,
  "lon": 7.0588940
},
{
  "type": "node",
  "id": 1422852565,
  "lat": 43.7157710,
  "lon": 7.0589360
},
{
  "type": "node",
  "id": 1422852567,
  "lat": 43.7157720,
  "lon": 7.0587980
},
{
  "type": "node",
  "id": 1422852577,
  "lat": 43.7157790,
  "lon": 7.0587240
},
{
  "type": "node",
  "id": 1422852582,
  "lat": 43.7157820,
  "lon": 7.0589980
},
{
  "type": "node",
  "id": 1422852609,
  "lat": 43.7157990,
  "lon": 7.0587730
},
{
  "type": "node",
  "id": 1422859810,
  "lat": 43.7183740,
  "lon": 7.0551970
},
{
  "type": "node",
  "id": 1422859824,
  "lat": 43.7183880,
  "lon": 7.0550670
},
{
  "type": "node",
  "id": 1422859829,
  "lat": 43.7183930,
  "lon": 7.0550180
},
{
  "type": "node",
  "id": 1422859839,
  "lat": 43.7184010,
  "lon": 7.0550690
},
{
  "type": "node",
  "id": 1422859844,
  "lat": 43.7184050,
  "lon": 7.0550200
},
{
  "type": "node",
  "id": 1422859846,
  "lat": 43.7184060,
  "lon": 7.0548940
},
{
  "type": "node",
  "id": 1422859901,
  "lat": 43.7184340,
  "lon": 7.0551280
},
{
  "type": "node",
  "id": 1422859929,
  "lat": 43.7184390,
  "lon": 7.0550770
},
{
  "type": "node",
  "id": 1422859934,
  "lat": 43.7184420,
  "lon": 7.0552120
},
{
  "type": "node",
  "id": 1422859956,
  "lat": 43.7184480,
  "lon": 7.0550790
},
{
  "type": "node",
  "id": 1422860012,
  "lat": 43.7184650,
  "lon": 7.0549050
},
{
  "type": "node",
  "id": 1422860023,
  "lat": 43.7184690,
  "lon": 7.0552180
},
{
  "type": "node",
  "id": 1422860053,
  "lat": 43.7184800,
  "lon": 7.0551390
},
{
  "type": "node",
  "id": 1422852672,
  "lat": 43.7158410,
  "lon": 7.0589840
},
{
  "type": "node",
  "id": 1422852687,
  "lat": 43.7158520,
  "lon": 7.0587250
},
{
  "type": "node",
  "id": 1422852720,
  "lat": 43.7158700,
  "lon": 7.0587690
},
{
  "type": "node",
  "id": 1422852751,
  "lat": 43.7158850,
  "lon": 7.0587550
},
{
  "type": "node",
  "id": 1422852804,
  "lat": 43.7158950,
  "lon": 7.0587770
},
{
  "type": "node",
  "id": 1422852872,
  "lat": 43.7159130,
  "lon": 7.0587640
},
{
  "type": "node",
  "id": 1422852903,
  "lat": 43.7159250,
  "lon": 7.0588060
},
{
  "type": "node",
  "id": 1422852906,
  "lat": 43.7159260,
  "lon": 7.0588780
},
{
  "type": "node",
  "id": 1422852948,
  "lat": 43.7159430,
  "lon": 7.0589500
},
{
  "type": "node",
  "id": 1422852950,
  "lat": 43.7159440,
  "lon": 7.0588640
},
{
  "type": "node",
  "id": 1422852956,
  "lat": 43.7159460,
  "lon": 7.0589540
},
{
  "type": "node",
  "id": 1422852965,
  "lat": 43.7159490,
  "lon": 7.0589360
},
{
  "type": "node",
  "id": 1422852977,
  "lat": 43.7159540,
  "lon": 7.0589360
},
{
  "type": "node",
  "id": 1422852988,
  "lat": 43.7159590,
  "lon": 7.0589490
},
{
  "type": "node",
  "id": 1430118822,
  "lat": 43.7220670,
  "lon": 7.1109440
},
{
  "type": "node",
  "id": 1430119133,
  "lat": 43.7220840,
  "lon": 7.1109580
},
{
  "type": "node",
  "id": 1430119187,
  "lat": 43.7220870,
  "lon": 7.1109480
},
{
  "type": "node",
  "id": 1430119822,
  "lat": 43.7221290,
  "lon": 7.1108130
},
{
  "type": "node",
  "id": 1430120666,
  "lat": 43.7221970,
  "lon": 7.1110280
},
{
  "type": "node",
  "id": 1430120985,
  "lat": 43.7222480,
  "lon": 7.1109080
},
{
  "type": "node",
  "id": 1430125704,
  "lat": 43.7227530,
  "lon": 7.1125840
},
{
  "type": "node",
  "id": 1430125859,
  "lat": 43.7227660,
  "lon": 7.1124940
},
{
  "type": "node",
  "id": 1430126328,
  "lat": 43.7228020,
  "lon": 7.1126640
},
{
  "type": "node",
  "id": 1430126493,
  "lat": 43.7228090,
  "lon": 7.1125990
},
{
  "type": "node",
  "id": 1430126842,
  "lat": 43.7228300,
  "lon": 7.1125460
},
{
  "type": "node",
  "id": 1430126887,
  "lat": 43.7228340,
  "lon": 7.1125110
},
{
  "type": "node",
  "id": 1430128200,
  "lat": 43.7228890,
  "lon": 7.1126830
},
{
  "type": "node",
  "id": 1430128687,
  "lat": 43.7229350,
  "lon": 7.1126920
},
{
  "type": "node",
  "id": 1430128796,
  "lat": 43.7229460,
  "lon": 7.1125590
},
{
  "type": "node",
  "id": 1430129425,
  "lat": 43.7230080,
  "lon": 7.1127080
},
{
  "type": "node",
  "id": 1430129551,
  "lat": 43.7230250,
  "lon": 7.1125880
},
{
  "type": "node",
  "id": 1430129636,
  "lat": 43.7230380,
  "lon": 7.1127370
},
{
  "type": "node",
  "id": 1430129661,
  "lat": 43.7230400,
  "lon": 7.1127150
},
{
  "type": "node",
  "id": 1430130019,
  "lat": 43.7230860,
  "lon": 7.1127530
},
{
  "type": "node",
  "id": 1430130098,
  "lat": 43.7231060,
  "lon": 7.1126170
},
{
  "type": "node",
  "id": 1430160705,
  "lat": 43.7274170,
  "lon": 7.1127820
},
{
  "type": "node",
  "id": 1430160789,
  "lat": 43.7274400,
  "lon": 7.1128760
},
{
  "type": "node",
  "id": 1430160881,
  "lat": 43.7274640,
  "lon": 7.1128660
},
{
  "type": "node",
  "id": 1430160928,
  "lat": 43.7274900,
  "lon": 7.1129650
},
{
  "type": "node",
  "id": 1430160954,
  "lat": 43.7274970,
  "lon": 7.1129630
},
{
  "type": "node",
  "id": 1430160963,
  "lat": 43.7275010,
  "lon": 7.1127400
},
{
  "type": "node",
  "id": 1430160966,
  "lat": 43.7275020,
  "lon": 7.1129840
},
{
  "type": "node",
  "id": 1430160970,
  "lat": 43.7275030,
  "lon": 7.1127530
},
{
  "type": "node",
  "id": 1430161000,
  "lat": 43.7275170,
  "lon": 7.1127440
},
{
  "type": "node",
  "id": 1430161039,
  "lat": 43.7275300,
  "lon": 7.1128020
},
{
  "type": "node",
  "id": 1430161139,
  "lat": 43.7275700,
  "lon": 7.1127800
},
{
  "type": "node",
  "id": 1430161160,
  "lat": 43.7275750,
  "lon": 7.1129470
},
{
  "type": "node",
  "id": 1430161171,
  "lat": 43.7275780,
  "lon": 7.1129570
},
{
  "type": "node",
  "id": 1430161296,
  "lat": 43.7276150,
  "lon": 7.1129390
},
{
  "type": "node",
  "id": 530651122,
  "lat": 43.6669133,
  "lon": 7.1455605
},
{
  "type": "node",
  "id": 788620723,
  "lat": 43.6671171,
  "lon": 7.1453386
},
{
  "type": "node",
  "id": 788645888,
  "lat": 43.6671617,
  "lon": 7.1454018
},
{
  "type": "node",
  "id": 788702643,
  "lat": 43.6669955,
  "lon": 7.1456976
},
{
  "type": "node",
  "id": 788747936,
  "lat": 43.6669150,
  "lon": 7.1454340
},
{
  "type": "node",
  "id": 788750498,
  "lat": 43.6670107,
  "lon": 7.1456891
},
{
  "type": "node",
  "id": 788750738,
  "lat": 43.6670204,
  "lon": 7.1457252
},
{
  "type": "node",
  "id": 788782230,
  "lat": 43.6669145,
  "lon": 7.1454905
},
{
  "type": "node",
  "id": 788785973,
  "lat": 43.6669139,
  "lon": 7.1455840
},
{
  "type": "node",
  "id": 788803549,
  "lat": 43.6671607,
  "lon": 7.1453957
},
{
  "type": "node",
  "id": 788804548,
  "lat": 43.6671888,
  "lon": 7.1455836
},
{
  "type": "node",
  "id": 788838203,
  "lat": 43.6670621,
  "lon": 7.1457030
},
{
  "type": "node",
  "id": 788881232,
  "lat": 43.6670420,
  "lon": 7.1452522
},
{
  "type": "node",
  "id": 788893439,
  "lat": 43.6670513,
  "lon": 7.1456648
},
{
  "type": "node",
  "id": 3446646507,
  "lat": 43.6670764,
  "lon": 7.1456500
},
{
  "type": "node",
  "id": 788656865,
  "lat": 43.6677376,
  "lon": 7.1570192
},
{
  "type": "node",
  "id": 788668132,
  "lat": 43.6677242,
  "lon": 7.1569971
},
{
  "type": "node",
  "id": 788669153,
  "lat": 43.6677105,
  "lon": 7.1570065
},
{
  "type": "node",
  "id": 788687709,
  "lat": 43.6675893,
  "lon": 7.1569436
},
{
  "type": "node",
  "id": 788696061,
  "lat": 43.6677210,
  "lon": 7.1570108
},
{
  "type": "node",
  "id": 788731939,
  "lat": 43.6677241,
  "lon": 7.1570767
},
{
  "type": "node",
  "id": 788748726,
  "lat": 43.6676043,
  "lon": 7.1569518
},
{
  "type": "node",
  "id": 788749036,
  "lat": 43.6676369,
  "lon": 7.1568255
},
{
  "type": "node",
  "id": 788752906,
  "lat": 43.6675727,
  "lon": 7.1570093
},
{
  "type": "node",
  "id": 788833974,
  "lat": 43.6677534,
  "lon": 7.1568785
},
{
  "type": "node",
  "id": 788912699,
  "lat": 43.6677137,
  "lon": 7.1569936
},
{
  "type": "node",
  "id": 385677362,
  "lat": 43.6677064,
  "lon": 7.2158507
},
{
  "type": "node",
  "id": 385677363,
  "lat": 43.6678646,
  "lon": 7.2163659
},
{
  "type": "node",
  "id": 385677364,
  "lat": 43.6679126,
  "lon": 7.2163257
},
{
  "type": "node",
  "id": 385677366,
  "lat": 43.6681466,
  "lon": 7.2164121
},
{
  "type": "node",
  "id": 385677367,
  "lat": 43.6681366,
  "lon": 7.2162848
},
{
  "type": "node",
  "id": 385677368,
  "lat": 43.6682414,
  "lon": 7.2162088
},
{
  "type": "node",
  "id": 385677369,
  "lat": 43.6681907,
  "lon": 7.2160043
},
{
  "type": "node",
  "id": 385677370,
  "lat": 43.6680974,
  "lon": 7.2158687
},
{
  "type": "node",
  "id": 385677372,
  "lat": 43.6680905,
  "lon": 7.2155804
},
{
  "type": "node",
  "id": 944510095,
  "lat": 43.6679660,
  "lon": 7.2161039
},
{
  "type": "node",
  "id": 944510098,
  "lat": 43.6680452,
  "lon": 7.2161718
},
{
  "type": "node",
  "id": 944510100,
  "lat": 43.6680640,
  "lon": 7.2159581
},
{
  "type": "node",
  "id": 944510103,
  "lat": 43.6679893,
  "lon": 7.2159077
},
{
  "type": "node",
  "id": 944510116,
  "lat": 43.6680262,
  "lon": 7.2160273
},
{
  "type": "node",
  "id": 944510129,
  "lat": 43.6680669,
  "lon": 7.2161936
},
{
  "type": "node",
  "id": 944510136,
  "lat": 43.6680198,
  "lon": 7.2161600
},
{
  "type": "node",
  "id": 944510139,
  "lat": 43.6679825,
  "lon": 7.2162858
},
{
  "type": "node",
  "id": 944510140,
  "lat": 43.6680514,
  "lon": 7.2159757
},
{
  "type": "node",
  "id": 944510143,
  "lat": 43.6679729,
  "lon": 7.2159402
},
{
  "type": "node",
  "id": 944510148,
  "lat": 43.6680973,
  "lon": 7.2157635
},
{
  "type": "node",
  "id": 944510156,
  "lat": 43.6681062,
  "lon": 7.2157684
},
{
  "type": "node",
  "id": 944510160,
  "lat": 43.6680138,
  "lon": 7.2160195
},
{
  "type": "node",
  "id": 944510164,
  "lat": 43.6680318,
  "lon": 7.2161434
},
{
  "type": "node",
  "id": 944510189,
  "lat": 43.6680041,
  "lon": 7.2163059
},
{
  "type": "node",
  "id": 944510191,
  "lat": 43.6680358,
  "lon": 7.2160009
},
{
  "type": "node",
  "id": 944510195,
  "lat": 43.6679374,
  "lon": 7.2156424
},
{
  "type": "node",
  "id": 1018330652,
  "lat": 43.6682268,
  "lon": 7.2161585
},
{
  "type": "node",
  "id": 1018330705,
  "lat": 43.6681808,
  "lon": 7.2161777
},
{
  "type": "node",
  "id": 1018330730,
  "lat": 43.6681623,
  "lon": 7.2159622
},
{
  "type": "node",
  "id": 1018330739,
  "lat": 43.6682114,
  "lon": 7.2162264
},
{
  "type": "node",
  "id": 1018330798,
  "lat": 43.6682668,
  "lon": 7.2160541
},
{
  "type": "node",
  "id": 1018330834,
  "lat": 43.6681674,
  "lon": 7.2161883
},
{
  "type": "node",
  "id": 1018330848,
  "lat": 43.6682093,
  "lon": 7.2161120
},
{
  "type": "node",
  "id": 1018330852,
  "lat": 43.6681122,
  "lon": 7.2158418
},
{
  "type": "node",
  "id": 1018330879,
  "lat": 43.6680633,
  "lon": 7.2164179
},
{
  "type": "node",
  "id": 1018330889,
  "lat": 43.6682261,
  "lon": 7.2161277
},
{
  "type": "node",
  "id": 1018330947,
  "lat": 43.6680537,
  "lon": 7.2159457
},
{
  "type": "node",
  "id": 1018330976,
  "lat": 43.6680474,
  "lon": 7.2164106
},
{
  "type": "node",
  "id": 1018330995,
  "lat": 43.6682397,
  "lon": 7.2161389
},
{
  "type": "node",
  "id": 1018331000,
  "lat": 43.6682292,
  "lon": 7.2162208
},
{
  "type": "node",
  "id": 1018331026,
  "lat": 43.6681370,
  "lon": 7.2159157
},
{
  "type": "node",
  "id": 1018331087,
  "lat": 43.6680877,
  "lon": 7.2162056
},
{
  "type": "node",
  "id": 1018331190,
  "lat": 43.6681529,
  "lon": 7.2164717
},
{
  "type": "node",
  "id": 1018331275,
  "lat": 43.6681029,
  "lon": 7.2164167
},
{
  "type": "node",
  "id": 1018331283,
  "lat": 43.6682039,
  "lon": 7.2162030
},
{
  "type": "node",
  "id": 1018331291,
  "lat": 43.6682042,
  "lon": 7.2159851
},
{
  "type": "node",
  "id": 1018331351,
  "lat": 43.6680356,
  "lon": 7.2163170
},
{
  "type": "node",
  "id": 1018331388,
  "lat": 43.6682490,
  "lon": 7.2161600
},
{
  "type": "node",
  "id": 1018331434,
  "lat": 43.6681815,
  "lon": 7.2162042
},
{
  "type": "node",
  "id": 1018331436,
  "lat": 43.6680786,
  "lon": 7.2162226
},
{
  "type": "node",
  "id": 1018331444,
  "lat": 43.6682024,
  "lon": 7.2161332
},
{
  "type": "node",
  "id": 1018331495,
  "lat": 43.6681260,
  "lon": 7.2159371
},
{
  "type": "node",
  "id": 1018331552,
  "lat": 43.6681939,
  "lon": 7.2162225
},
{
  "type": "node",
  "id": 1018331601,
  "lat": 43.6681046,
  "lon": 7.2164265
},
{
  "type": "node",
  "id": 1018952215,
  "lat": 43.6680117,
  "lon": 7.2156123
},
{
  "type": "node",
  "id": 4603472117,
  "lat": 43.6679856,
  "lon": 7.2163995
},
{
  "type": "node",
  "id": 4603472122,
  "lat": 43.6680090,
  "lon": 7.2164206
},
{
  "type": "node",
  "id": 4603472127,
  "lat": 43.6680476,
  "lon": 7.2164384
},
{
  "type": "node",
  "id": 4603472134,
  "lat": 43.6681046,
  "lon": 7.2164587
},
{
  "type": "node",
  "id": 4603472135,
  "lat": 43.6681062,
  "lon": 7.2164791
},
{
  "type": "node",
  "id": 4603472145,
  "lat": 43.6682484,
  "lon": 7.2161886
},
{
  "type": "node",
  "id": 6655703359,
  "lat": 43.6863408,
  "lon": 7.2334444
},
{
  "type": "node",
  "id": 6655703360,
  "lat": 43.6856034,
  "lon": 7.2325391
},
{
  "type": "node",
  "id": 6655752302,
  "lat": 43.6863041,
  "lon": 7.2319974
},
{
  "type": "node",
  "id": 6655752303,
  "lat": 43.6868378,
  "lon": 7.2330025
},
{
  "type": "node",
  "id": 6655752304,
  "lat": 43.6867891,
  "lon": 7.2328008
},
{
  "type": "node",
  "id": 6655752305,
  "lat": 43.6866996,
  "lon": 7.2326539
},
{
  "type": "node",
  "id": 1536817995,
  "lat": 43.6944260,
  "lon": 7.2486960
},
{
  "type": "node",
  "id": 1536818037,
  "lat": 43.6944750,
  "lon": 7.2491150
},
{
  "type": "node",
  "id": 1536818132,
  "lat": 43.6945640,
  "lon": 7.2490920
},
{
  "type": "node",
  "id": 1536818141,
  "lat": 43.6945650,
  "lon": 7.2491030
},
{
  "type": "node",
  "id": 1536818193,
  "lat": 43.6946650,
  "lon": 7.2486440
},
{
  "type": "node",
  "id": 1536818214,
  "lat": 43.6947000,
  "lon": 7.2489440
},
{
  "type": "node",
  "id": 1536818237,
  "lat": 43.6947190,
  "lon": 7.2490580
},
{
  "type": "node",
  "id": 1536818239,
  "lat": 43.6947190,
  "lon": 7.2490650
},
{
  "type": "node",
  "id": 1536818260,
  "lat": 43.6947890,
  "lon": 7.2489240
},
{
  "type": "node",
  "id": 1536818261,
  "lat": 43.6947920,
  "lon": 7.2489500
},
{
  "type": "node",
  "id": 1536818274,
  "lat": 43.6948000,
  "lon": 7.2490120
},
{
  "type": "node",
  "id": 1536818276,
  "lat": 43.6948040,
  "lon": 7.2490400
},
{
  "type": "node",
  "id": 1536818279,
  "lat": 43.6948050,
  "lon": 7.2489510
},
{
  "type": "node",
  "id": 1536818281,
  "lat": 43.6948110,
  "lon": 7.2490050
},
{
  "type": "node",
  "id": 1536818284,
  "lat": 43.6948150,
  "lon": 7.2489610
},
{
  "type": "node",
  "id": 1536818295,
  "lat": 43.6948190,
  "lon": 7.2489920
},
{
  "type": "node",
  "id": 1536818297,
  "lat": 43.6948200,
  "lon": 7.2489760
},
{
  "type": "node",
  "id": 4769485702,
  "lat": 43.6944553,
  "lon": 7.2489461
},
{
  "type": "node",
  "id": 203508133,
  "lat": 43.6955693,
  "lon": 7.2585920
},
{
  "type": "node",
  "id": 203508134,
  "lat": 43.6956495,
  "lon": 7.2591948
},
{
  "type": "node",
  "id": 203508135,
  "lat": 43.6945869,
  "lon": 7.2592786
},
{
  "type": "node",
  "id": 203508136,
  "lat": 43.6944496,
  "lon": 7.2585738
},
{
  "type": "node",
  "id": 1122841015,
  "lat": 43.6949430,
  "lon": 7.2595250
},
{
  "type": "node",
  "id": 1122841180,
  "lat": 43.6955990,
  "lon": 7.2591910
},
{
  "type": "node",
  "id": 1122841277,
  "lat": 43.6949070,
  "lon": 7.2592132
},
{
  "type": "node",
  "id": 1122841401,
  "lat": 43.6955510,
  "lon": 7.2592150
},
{
  "type": "node",
  "id": 1536322582,
  "lat": 43.6953870,
  "lon": 7.2594380
},
{
  "type": "node",
  "id": 1536322702,
  "lat": 43.6955660,
  "lon": 7.2594000
},
{
  "type": "node",
  "id": 1536322711,
  "lat": 43.6955451,
  "lon": 7.2594047
},
{
  "type": "node",
  "id": 1536322898,
  "lat": 43.6956000,
  "lon": 7.2592070
},
{
  "type": "node",
  "id": 1536322941,
  "lat": 43.6956350,
  "lon": 7.2591850
},
{
  "type": "node",
  "id": 1536322945,
  "lat": 43.6956370,
  "lon": 7.2591970
},
{
  "type": "node",
  "id": 1855052246,
  "lat": 43.6944784,
  "lon": 7.2587711
},
{
  "type": "node",
  "id": 1855052247,
  "lat": 43.6944895,
  "lon": 7.2585741
},
{
  "type": "node",
  "id": 1855052248,
  "lat": 43.6944951,
  "lon": 7.2587716
},
{
  "type": "node",
  "id": 1855052250,
  "lat": 43.6945051,
  "lon": 7.2588058
},
{
  "type": "node",
  "id": 1855052252,
  "lat": 43.6945111,
  "lon": 7.2588048
},
{
  "type": "node",
  "id": 1855052253,
  "lat": 43.6945235,
  "lon": 7.2590781
},
{
  "type": "node",
  "id": 1855052259,
  "lat": 43.6945391,
  "lon": 7.2590404
},
{
  "type": "node",
  "id": 1855052260,
  "lat": 43.6945410,
  "lon": 7.2590703
},
{
  "type": "node",
  "id": 1855052261,
  "lat": 43.6945454,
  "lon": 7.2590396
},
{
  "type": "node",
  "id": 1855052262,
  "lat": 43.6945538,
  "lon": 7.2592853
},
{
  "type": "node",
  "id": 1855052395,
  "lat": 43.6956061,
  "lon": 7.2589922
},
{
  "type": "node",
  "id": 6580645319,
  "lat": 43.6955876,
  "lon": 7.2589796
},
{
  "type": "node",
  "id": 6580645320,
  "lat": 43.6955726,
  "lon": 7.2588663
},
{
  "type": "node",
  "id": 6580645321,
  "lat": 43.6955992,
  "lon": 7.2588164
},
{
  "type": "node",
  "id": 6580645322,
  "lat": 43.6956241,
  "lon": 7.2590038
},
{
  "type": "node",
  "id": 1134619433,
  "lat": 43.7013082,
  "lon": 7.2780696
},
{
  "type": "node",
  "id": 1134619857,
  "lat": 43.7011115,
  "lon": 7.2785905
},
{
  "type": "node",
  "id": 1480453840,
  "lat": 43.7013571,
  "lon": 7.2787551
},
{
  "type": "node",
  "id": 1480453841,
  "lat": 43.7014005,
  "lon": 7.2786298
},
{
  "type": "node",
  "id": 1480453842,
  "lat": 43.7014930,
  "lon": 7.2783727
},
{
  "type": "node",
  "id": 1480453843,
  "lat": 43.7015372,
  "lon": 7.2782519
},
{
  "type": "node",
  "id": 1574803050,
  "lat": 43.7010980,
  "lon": 7.2785360
},
{
  "type": "node",
  "id": 1574803078,
  "lat": 43.7011580,
  "lon": 7.2787680
},
{
  "type": "node",
  "id": 1574803095,
  "lat": 43.7012510,
  "lon": 7.2780980
},
{
  "type": "node",
  "id": 1574803100,
  "lat": 43.7012690,
  "lon": 7.2784580
},
{
  "type": "node",
  "id": 1574803101,
  "lat": 43.7012810,
  "lon": 7.2785030
},
{
  "type": "node",
  "id": 1574803108,
  "lat": 43.7012870,
  "lon": 7.2787080
},
{
  "type": "node",
  "id": 1574803110,
  "lat": 43.7012950,
  "lon": 7.2787120
},
{
  "type": "node",
  "id": 1574803116,
  "lat": 43.7013070,
  "lon": 7.2783320
},
{
  "type": "node",
  "id": 1574803126,
  "lat": 43.7013310,
  "lon": 7.2784880
},
{
  "type": "node",
  "id": 1574803128,
  "lat": 43.7013490,
  "lon": 7.2783120
},
{
  "type": "node",
  "id": 1574803132,
  "lat": 43.7013580,
  "lon": 7.2786010
},
{
  "type": "node",
  "id": 1574803143,
  "lat": 43.7013690,
  "lon": 7.2783780
},
{
  "type": "node",
  "id": 1574803154,
  "lat": 43.7014185,
  "lon": 7.2780158
},
{
  "type": "node",
  "id": 1574803172,
  "lat": 43.7014280,
  "lon": 7.2788040
},
{
  "type": "node",
  "id": 1574803176,
  "lat": 43.7014320,
  "lon": 7.2786540
},
{
  "type": "node",
  "id": 1574803190,
  "lat": 43.7014520,
  "lon": 7.2783430
},
{
  "type": "node",
  "id": 1574803199,
  "lat": 43.7014660,
  "lon": 7.2782020
},
{
  "type": "node",
  "id": 1574803205,
  "lat": 43.7014740,
  "lon": 7.2789840
},
{
  "type": "node",
  "id": 1574803233,
  "lat": 43.7015150,
  "lon": 7.2786110
},
{
  "type": "node",
  "id": 1574803240,
  "lat": 43.7015250,
  "lon": 7.2783960
},
{
  "type": "node",
  "id": 1574803244,
  "lat": 43.7015330,
  "lon": 7.2789540
},
{
  "type": "node",
  "id": 1574803252,
  "lat": 43.7015520,
  "lon": 7.2785060
},
{
  "type": "node",
  "id": 1574803264,
  "lat": 43.7015690,
  "lon": 7.2786520
},
{
  "type": "node",
  "id": 1574803293,
  "lat": 43.7015830,
  "lon": 7.2786620
},
{
  "type": "node",
  "id": 1574803399,
  "lat": 43.7016040,
  "lon": 7.2783000
},
{
  "type": "node",
  "id": 1574803432,
  "lat": 43.7016108,
  "lon": 7.2785338
},
{
  "type": "node",
  "id": 1574803452,
  "lat": 43.7016250,
  "lon": 7.2785430
},
{
  "type": "node",
  "id": 1574803481,
  "lat": 43.7016430,
  "lon": 7.2789010
},
{
  "type": "node",
  "id": 1574803654,
  "lat": 43.7017410,
  "lon": 7.2782360
},
{
  "type": "node",
  "id": 1574803704,
  "lat": 43.7017620,
  "lon": 7.2783210
},
{
  "type": "node",
  "id": 1574803790,
  "lat": 43.7017970,
  "lon": 7.2784630
},
{
  "type": "node",
  "id": 2512590213,
  "lat": 43.7013171,
  "lon": 7.2784016
},
{
  "type": "node",
  "id": 1534796421,
  "lat": 43.7089190,
  "lon": 7.2693100
},
{
  "type": "node",
  "id": 1534796476,
  "lat": 43.7089390,
  "lon": 7.2693050
},
{
  "type": "node",
  "id": 1534796487,
  "lat": 43.7089400,
  "lon": 7.2691730
},
{
  "type": "node",
  "id": 1534796501,
  "lat": 43.7089430,
  "lon": 7.2698560
},
{
  "type": "node",
  "id": 1534796536,
  "lat": 43.7089500,
  "lon": 7.2691960
},
{
  "type": "node",
  "id": 1534796563,
  "lat": 43.7089570,
  "lon": 7.2698560
},
{
  "type": "node",
  "id": 1534796588,
  "lat": 43.7089650,
  "lon": 7.2693500
},
{
  "type": "node",
  "id": 1534796619,
  "lat": 43.7089840,
  "lon": 7.2697020
},
{
  "type": "node",
  "id": 1534796725,
  "lat": 43.7090040,
  "lon": 7.2699410
},
{
  "type": "node",
  "id": 1534796733,
  "lat": 43.7090080,
  "lon": 7.2693410
},
{
  "type": "node",
  "id": 1534796817,
  "lat": 43.7090200,
  "lon": 7.2691020
},
{
  "type": "node",
  "id": 1534796859,
  "lat": 43.7090260,
  "lon": 7.2699790
},
{
  "type": "node",
  "id": 1534796893,
  "lat": 43.7090300,
  "lon": 7.2690940
},
{
  "type": "node",
  "id": 1534796896,
  "lat": 43.7090300,
  "lon": 7.2693800
},
{
  "type": "node",
  "id": 1534796938,
  "lat": 43.7090340,
  "lon": 7.2691510
},
{
  "type": "node",
  "id": 1534796942,
  "lat": 43.7090350,
  "lon": 7.2699620
},
{
  "type": "node",
  "id": 1534796978,
  "lat": 43.7090400,
  "lon": 7.2691310
},
{
  "type": "node",
  "id": 1534797018,
  "lat": 43.7090450,
  "lon": 7.2690380
},
{
  "type": "node",
  "id": 1534797050,
  "lat": 43.7090520,
  "lon": 7.2690500
},
{
  "type": "node",
  "id": 1534797052,
  "lat": 43.7090520,
  "lon": 7.2696900
},
{
  "type": "node",
  "id": 1534797151,
  "lat": 43.7090690,
  "lon": 7.2691890
},
{
  "type": "node",
  "id": 1534797162,
  "lat": 43.7090730,
  "lon": 7.2693680
},
{
  "type": "node",
  "id": 1534797178,
  "lat": 43.7090760,
  "lon": 7.2692230
},
{
  "type": "node",
  "id": 1534797180,
  "lat": 43.7090770,
  "lon": 7.2695920
},
{
  "type": "node",
  "id": 1534797230,
  "lat": 43.7090860,
  "lon": 7.2690580
},
{
  "type": "node",
  "id": 1534797253,
  "lat": 43.7090910,
  "lon": 7.2690410
},
{
  "type": "node",
  "id": 1534797266,
  "lat": 43.7090960,
  "lon": 7.2692170
},
{
  "type": "node",
  "id": 1534797268,
  "lat": 43.7090970,
  "lon": 7.2690980
},
{
  "type": "node",
  "id": 1534797273,
  "lat": 43.7091010,
  "lon": 7.2694180
},
{
  "type": "node",
  "id": 1534797275,
  "lat": 43.7091020,
  "lon": 7.2692640
},
{
  "type": "node",
  "id": 1534797277,
  "lat": 43.7091040,
  "lon": 7.2699200
},
{
  "type": "node",
  "id": 1534797285,
  "lat": 43.7091080,
  "lon": 7.2690960
},
{
  "type": "node",
  "id": 1534797298,
  "lat": 43.7091150,
  "lon": 7.2699470
},
{
  "type": "node",
  "id": 1534797300,
  "lat": 43.7091170,
  "lon": 7.2694430
},
{
  "type": "node",
  "id": 1534797315,
  "lat": 43.7091270,
  "lon": 7.2694110
},
{
  "type": "node",
  "id": 1534797372,
  "lat": 43.7091450,
  "lon": 7.2692540
},
{
  "type": "node",
  "id": 1534797403,
  "lat": 43.7091520,
  "lon": 7.2697370
},
{
  "type": "node",
  "id": 1534797423,
  "lat": 43.7091640,
  "lon": 7.2697010
},
{
  "type": "node",
  "id": 1534797446,
  "lat": 43.7091710,
  "lon": 7.2696710
},
{
  "type": "node",
  "id": 1534797453,
  "lat": 43.7091720,
  "lon": 7.2697190
},
{
  "type": "node",
  "id": 1534797467,
  "lat": 43.7091730,
  "lon": 7.2690700
},
{
  "type": "node",
  "id": 1534797502,
  "lat": 43.7091810,
  "lon": 7.2691210
},
{
  "type": "node",
  "id": 1534797512,
  "lat": 43.7091820,
  "lon": 7.2696330
},
{
  "type": "node",
  "id": 1534797543,
  "lat": 43.7091910,
  "lon": 7.2695960
},
{
  "type": "node",
  "id": 1534797545,
  "lat": 43.7091910,
  "lon": 7.2696500
},
{
  "type": "node",
  "id": 1534797563,
  "lat": 43.7091950,
  "lon": 7.2690650
},
{
  "type": "node",
  "id": 1534797588,
  "lat": 43.7092010,
  "lon": 7.2695590
},
{
  "type": "node",
  "id": 1534797590,
  "lat": 43.7092040,
  "lon": 7.2690330
},
{
  "type": "node",
  "id": 1534797615,
  "lat": 43.7092100,
  "lon": 7.2695260
},
{
  "type": "node",
  "id": 1534797618,
  "lat": 43.7092100,
  "lon": 7.2695770
},
{
  "type": "node",
  "id": 1534797652,
  "lat": 43.7092190,
  "lon": 7.2694870
},
{
  "type": "node",
  "id": 1534797675,
  "lat": 43.7092290,
  "lon": 7.2695080
},
{
  "type": "node",
  "id": 3729569065,
  "lat": 43.7092365,
  "lon": 7.2694231
},
{
  "type": "node",
  "id": 1534797773,
  "lat": 43.7092870,
  "lon": 7.2690730
},
{
  "type": "node",
  "id": 1534797781,
  "lat": 43.7092980,
  "lon": 7.2691980
},
{
  "type": "node",
  "id": 1534797784,
  "lat": 43.7093020,
  "lon": 7.2690690
},
{
  "type": "node",
  "id": 1534797785,
  "lat": 43.7093030,
  "lon": 7.2690910
},
{
  "type": "node",
  "id": 1534797822,
  "lat": 43.7093380,
  "lon": 7.2692200
},
{
  "type": "node",
  "id": 1534797900,
  "lat": 43.7093650,
  "lon": 7.2691240
},
{
  "type": "node",
  "id": 496224936,
  "lat": 43.7218118,
  "lon": 7.2532556
},
{
  "type": "node",
  "id": 496224937,
  "lat": 43.7219340,
  "lon": 7.2526800
},
{
  "type": "node",
  "id": 496224940,
  "lat": 43.7220442,
  "lon": 7.2520219
},
{
  "type": "node",
  "id": 496224941,
  "lat": 43.7220368,
  "lon": 7.2519755
},
{
  "type": "node",
  "id": 496224942,
  "lat": 43.7219072,
  "lon": 7.2519747
},
{
  "type": "node",
  "id": 496224946,
  "lat": 43.7213730,
  "lon": 7.2521144
},
{
  "type": "node",
  "id": 496224947,
  "lat": 43.7212956,
  "lon": 7.2521515
},
{
  "type": "node",
  "id": 496224949,
  "lat": 43.7208255,
  "lon": 7.2526311
},
{
  "type": "node",
  "id": 496224951,
  "lat": 43.7204325,
  "lon": 7.2528971
},
{
  "type": "node",
  "id": 496224953,
  "lat": 43.7195472,
  "lon": 7.2535228
},
{
  "type": "node",
  "id": 496224954,
  "lat": 43.7195239,
  "lon": 7.2536011
},
{
  "type": "node",
  "id": 496224955,
  "lat": 43.7195510,
  "lon": 7.2538277
},
{
  "type": "node",
  "id": 496224956,
  "lat": 43.7196248,
  "lon": 7.2539926
},
{
  "type": "node",
  "id": 496224957,
  "lat": 43.7200240,
  "lon": 7.2537562
},
{
  "type": "node",
  "id": 496224958,
  "lat": 43.7202170,
  "lon": 7.2539026
},
{
  "type": "node",
  "id": 496224959,
  "lat": 43.7206277,
  "lon": 7.2537821
},
{
  "type": "node",
  "id": 496224961,
  "lat": 43.7209715,
  "lon": 7.2536549
},
{
  "type": "node",
  "id": 496224962,
  "lat": 43.7214882,
  "lon": 7.2533508
},
{
  "type": "node",
  "id": 1523196267,
  "lat": 43.7211054,
  "lon": 7.2535956
},
{
  "type": "node",
  "id": 1523196395,
  "lat": 43.7211959,
  "lon": 7.2535235
},
{
  "type": "node",
  "id": 4069071986,
  "lat": 43.7218817,
  "lon": 7.2529962
},
{
  "type": "node",
  "id": 4069072498,
  "lat": 43.7195697,
  "lon": 7.2540013
},
{
  "type": "node",
  "id": 4069072499,
  "lat": 43.7201478,
  "lon": 7.2530898
},
{
  "type": "node",
  "id": 4069072500,
  "lat": 43.7197442,
  "lon": 7.2533632
},
{
  "type": "node",
  "id": 4745071385,
  "lat": 43.7218313,
  "lon": 7.2532406
},
{
  "type": "node",
  "id": 4745071386,
  "lat": 43.7218443,
  "lon": 7.2532091
},
{
  "type": "node",
  "id": 4745071387,
  "lat": 43.7213113,
  "lon": 7.2534619
},
{
  "type": "node",
  "id": 4745071388,
  "lat": 43.7207680,
  "lon": 7.2536872
},
{
  "type": "node",
  "id": 4745071389,
  "lat": 43.7206142,
  "lon": 7.2537553
},
{
  "type": "node",
  "id": 4745071390,
  "lat": 43.7200777,
  "lon": 7.2538505
},
{
  "type": "node",
  "id": 4745071391,
  "lat": 43.7196509,
  "lon": 7.2534425
},
{
  "type": "node",
  "id": 4745071392,
  "lat": 43.7208414,
  "lon": 7.2526164
},
{
  "type": "node",
  "id": 4745071393,
  "lat": 43.7211864,
  "lon": 7.2522375
},
{
  "type": "node",
  "id": 4745071394,
  "lat": 43.7211409,
  "lon": 7.2522871
},
{
  "type": "node",
  "id": 4745071395,
  "lat": 43.7212262,
  "lon": 7.2521979
},
{
  "type": "node",
  "id": 4745071396,
  "lat": 43.7217636,
  "lon": 7.2519579
},
{
  "type": "node",
  "id": 4745071397,
  "lat": 43.7218958,
  "lon": 7.2519752
},
{
  "type": "node",
  "id": 4745071398,
  "lat": 43.7218855,
  "lon": 7.2519695
},
{
  "type": "node",
  "id": 4745071399,
  "lat": 43.7220179,
  "lon": 7.2519582
},
{
  "type": "node",
  "id": 4745071400,
  "lat": 43.7220325,
  "lon": 7.2519663
},
{
  "type": "node",
  "id": 1523195641,
  "lat": 43.7206310,
  "lon": 7.2549750
},
{
  "type": "node",
  "id": 1523195651,
  "lat": 43.7206420,
  "lon": 7.2550280
},
{
  "type": "node",
  "id": 1523195664,
  "lat": 43.7206520,
  "lon": 7.2550820
},
{
  "type": "node",
  "id": 1523195758,
  "lat": 43.7207700,
  "lon": 7.2549250
},
{
  "type": "node",
  "id": 1523195769,
  "lat": 43.7207890,
  "lon": 7.2550290
},
{
  "type": "node",
  "id": 1533313809,
  "lat": 43.7188710,
  "lon": 7.2753000
},
{
  "type": "node",
  "id": 1533313815,
  "lat": 43.7188770,
  "lon": 7.2754230
},
{
  "type": "node",
  "id": 1533313816,
  "lat": 43.7188780,
  "lon": 7.2754130
},
{
  "type": "node",
  "id": 1533313825,
  "lat": 43.7188810,
  "lon": 7.2754420
},
{
  "type": "node",
  "id": 1533313826,
  "lat": 43.7188820,
  "lon": 7.2753970
},
{
  "type": "node",
  "id": 1533313831,
  "lat": 43.7188880,
  "lon": 7.2753840
},
{
  "type": "node",
  "id": 1533313836,
  "lat": 43.7188920,
  "lon": 7.2754520
},
{
  "type": "node",
  "id": 1533313854,
  "lat": 43.7189070,
  "lon": 7.2754510
},
{
  "type": "node",
  "id": 1533313869,
  "lat": 43.7189160,
  "lon": 7.2754430
},
{
  "type": "node",
  "id": 1533313875,
  "lat": 43.7189210,
  "lon": 7.2754300
},
{
  "type": "node",
  "id": 1533313883,
  "lat": 43.7189220,
  "lon": 7.2754140
},
{
  "type": "node",
  "id": 1533313925,
  "lat": 43.7189480,
  "lon": 7.2754480
},
{
  "type": "node",
  "id": 1533313937,
  "lat": 43.7189510,
  "lon": 7.2754220
},
{
  "type": "node",
  "id": 1533313976,
  "lat": 43.7189800,
  "lon": 7.2752070
},
{
  "type": "node",
  "id": 1533314002,
  "lat": 43.7190140,
  "lon": 7.2752170
},
{
  "type": "node",
  "id": 1533314006,
  "lat": 43.7190170,
  "lon": 7.2751990
},
{
  "type": "node",
  "id": 1533314054,
  "lat": 43.7190980,
  "lon": 7.2752230
},
{
  "type": "node",
  "id": 1533314056,
  "lat": 43.7191010,
  "lon": 7.2752120
},
{
  "type": "node",
  "id": 1533314098,
  "lat": 43.7191330,
  "lon": 7.2752110
},
{
  "type": "node",
  "id": 1533314135,
  "lat": 43.7191600,
  "lon": 7.2752440
},
{
  "type": "node",
  "id": 1533314137,
  "lat": 43.7191610,
  "lon": 7.2752210
},
{
  "type": "node",
  "id": 1533314139,
  "lat": 43.7191610,
  "lon": 7.2755130
},
{
  "type": "node",
  "id": 1533314141,
  "lat": 43.7191640,
  "lon": 7.2754920
},
{
  "type": "node",
  "id": 1533314172,
  "lat": 43.7191870,
  "lon": 7.2754990
},
{
  "type": "node",
  "id": 1533314188,
  "lat": 43.7192010,
  "lon": 7.2757320
},
{
  "type": "node",
  "id": 1533314206,
  "lat": 43.7192140,
  "lon": 7.2754940
},
{
  "type": "node",
  "id": 1533314248,
  "lat": 43.7192690,
  "lon": 7.2758840
},
{
  "type": "node",
  "id": 1533314255,
  "lat": 43.7192720,
  "lon": 7.2755590
},
{
  "type": "node",
  "id": 1533314257,
  "lat": 43.7192750,
  "lon": 7.2763610
},
{
  "type": "node",
  "id": 1533314271,
  "lat": 43.7193010,
  "lon": 7.2762840
},
{
  "type": "node",
  "id": 1533314279,
  "lat": 43.7193220,
  "lon": 7.2763890
},
{
  "type": "node",
  "id": 1533314285,
  "lat": 43.7193380,
  "lon": 7.2761690
},
{
  "type": "node",
  "id": 1533314287,
  "lat": 43.7193400,
  "lon": 7.2757970
},
{
  "type": "node",
  "id": 1533314303,
  "lat": 43.7193550,
  "lon": 7.2758060
},
{
  "type": "node",
  "id": 1533314315,
  "lat": 43.7193660,
  "lon": 7.2753080
},
{
  "type": "node",
  "id": 1533314334,
  "lat": 43.7193990,
  "lon": 7.2759820
},
{
  "type": "node",
  "id": 1533314337,
  "lat": 43.7194010,
  "lon": 7.2764350
},
{
  "type": "node",
  "id": 1533314342,
  "lat": 43.7194090,
  "lon": 7.2753950
},
{
  "type": "node",
  "id": 1533314366,
  "lat": 43.7194470,
  "lon": 7.2753690
},
{
  "type": "node",
  "id": 1533314382,
  "lat": 43.7194630,
  "lon": 7.2754600
},
{
  "type": "node",
  "id": 1533314389,
  "lat": 43.7194720,
  "lon": 7.2754670
},
{
  "type": "node",
  "id": 1533314397,
  "lat": 43.7194770,
  "lon": 7.2754190
},
{
  "type": "node",
  "id": 1533314402,
  "lat": 43.7194830,
  "lon": 7.2761840
},
{
  "type": "node",
  "id": 1533314408,
  "lat": 43.7194870,
  "lon": 7.2760350
},
{
  "type": "node",
  "id": 1533314430,
  "lat": 43.7195260,
  "lon": 7.2760580
},
{
  "type": "node",
  "id": 2756217645,
  "lat": 43.7193942,
  "lon": 7.2753650
},
{
  "type": "node",
  "id": 2756217663,
  "lat": 43.7192350,
  "lon": 7.2755175
},
{
  "type": "node",
  "id": 1505156516,
  "lat": 43.6976020,
  "lon": 7.2894600
},
{
  "type": "node",
  "id": 1505156525,
  "lat": 43.6976310,
  "lon": 7.2892580
},
{
  "type": "node",
  "id": 1505156557,
  "lat": 43.6977450,
  "lon": 7.2892830
},
{
  "type": "node",
  "id": 1505156561,
  "lat": 43.6977540,
  "lon": 7.2892170
},
{
  "type": "node",
  "id": 1505156562,
  "lat": 43.6977550,
  "lon": 7.2892020
},
{
  "type": "node",
  "id": 1505156570,
  "lat": 43.6977910,
  "lon": 7.2892120
},
{
  "type": "node",
  "id": 1505156571,
  "lat": 43.6977950,
  "lon": 7.2891880
},
{
  "type": "node",
  "id": 1505156784,
  "lat": 43.6981380,
  "lon": 7.2895780
},
{
  "type": "node",
  "id": 1505156804,
  "lat": 43.6981640,
  "lon": 7.2893810
},
{
  "type": "node",
  "id": 1505156813,
  "lat": 43.6981720,
  "lon": 7.2893140
},
{
  "type": "node",
  "id": 1505156820,
  "lat": 43.6981780,
  "lon": 7.2892780
},
{
  "type": "node",
  "id": 1505156865,
  "lat": 43.6982010,
  "lon": 7.2893910
},
{
  "type": "node",
  "id": 1505156879,
  "lat": 43.6982100,
  "lon": 7.2893240
},
{
  "type": "node",
  "id": 783443643,
  "lat": 43.6964977,
  "lon": 7.3283044
},
{
  "type": "node",
  "id": 783443767,
  "lat": 43.6964878,
  "lon": 7.3282562
},
{
  "type": "node",
  "id": 783443982,
  "lat": 43.6964744,
  "lon": 7.3285950
},
{
  "type": "node",
  "id": 783444313,
  "lat": 43.6964993,
  "lon": 7.3282799
},
{
  "type": "node",
  "id": 783446487,
  "lat": 43.6967095,
  "lon": 7.3282719
},
{
  "type": "node",
  "id": 783446552,
  "lat": 43.6964946,
  "lon": 7.3282609
},
{
  "type": "node",
  "id": 783446586,
  "lat": 43.6964950,
  "lon": 7.3282970
},
{
  "type": "node",
  "id": 783448918,
  "lat": 43.6965737,
  "lon": 7.3282681
},
{
  "type": "node",
  "id": 783449080,
  "lat": 43.6964292,
  "lon": 7.3282906
},
{
  "type": "node",
  "id": 783449360,
  "lat": 43.6967099,
  "lon": 7.3280909
},
{
  "type": "node",
  "id": 783449910,
  "lat": 43.6966247,
  "lon": 7.3282682
},
{
  "type": "node",
  "id": 783450817,
  "lat": 43.6965880,
  "lon": 7.3282790
},
{
  "type": "node",
  "id": 783450844,
  "lat": 43.6967183,
  "lon": 7.3280883
},
{
  "type": "node",
  "id": 783452216,
  "lat": 43.6966340,
  "lon": 7.3281120
},
{
  "type": "node",
  "id": 783452358,
  "lat": 43.6966194,
  "lon": 7.3282212
},
{
  "type": "node",
  "id": 783453889,
  "lat": 43.6966394,
  "lon": 7.3280727
},
{
  "type": "node",
  "id": 783455678,
  "lat": 43.6964318,
  "lon": 7.3283026
},
{
  "type": "node",
  "id": 783461205,
  "lat": 43.6965025,
  "lon": 7.3285858
},
{
  "type": "node",
  "id": 783463844,
  "lat": 43.6966495,
  "lon": 7.3282127
},
{
  "type": "node",
  "id": 783465122,
  "lat": 43.6966537,
  "lon": 7.3285860
},
{
  "type": "node",
  "id": 783471998,
  "lat": 43.6964405,
  "lon": 7.3283202
},
{
  "type": "node",
  "id": 783472480,
  "lat": 43.6967158,
  "lon": 7.3282134
},
{
  "type": "node",
  "id": 783472886,
  "lat": 43.6965520,
  "lon": 7.3282739
},
{
  "type": "node",
  "id": 783474104,
  "lat": 43.6967059,
  "lon": 7.3280551
},
{
  "type": "node",
  "id": 783474257,
  "lat": 43.6967260,
  "lon": 7.3281919
},
{
  "type": "node",
  "id": 783474666,
  "lat": 43.6964858,
  "lon": 7.3282374
},
{
  "type": "node",
  "id": 783474807,
  "lat": 43.6967469,
  "lon": 7.3285271
},
{
  "type": "node",
  "id": 783475105,
  "lat": 43.6966431,
  "lon": 7.3281103
},
{
  "type": "node",
  "id": 783475415,
  "lat": 43.6967229,
  "lon": 7.3282686
},
{
  "type": "node",
  "id": 783481247,
  "lat": 43.6967269,
  "lon": 7.3285682
},
{
  "type": "node",
  "id": 783483915,
  "lat": 43.6965451,
  "lon": 7.3282918
},
{
  "type": "node",
  "id": 783485231,
  "lat": 43.6964318,
  "lon": 7.3282547
},
{
  "type": "node",
  "id": 783487193,
  "lat": 43.6964342,
  "lon": 7.3282693
},
{
  "type": "node",
  "id": 783489952,
  "lat": 43.6967318,
  "lon": 7.3281871
},
{
  "type": "node",
  "id": 5023163853,
  "lat": 43.6964347,
  "lon": 7.3283202
},
{
  "type": "node",
  "id": 5023163865,
  "lat": 43.6964502,
  "lon": 7.3284285
},
{
  "type": "node",
  "id": 5023163866,
  "lat": 43.6964796,
  "lon": 7.3284229
},
{
  "type": "node",
  "id": 5023163867,
  "lat": 43.6964976,
  "lon": 7.3287533
},
{
  "type": "node",
  "id": 6028528385,
  "lat": 43.6966839,
  "lon": 7.3286455
},
{
  "type": "node",
  "id": 6028528386,
  "lat": 43.6966618,
  "lon": 7.3286512
},
{
  "type": "node",
  "id": 6028528387,
  "lat": 43.6966927,
  "lon": 7.3287032
},
{
  "type": "node",
  "id": 6028530533,
  "lat": 43.6966752,
  "lon": 7.3285808
},
{
  "type": "node",
  "id": 780406149,
  "lat": 43.7033503,
  "lon": 7.3338496
},
{
  "type": "node",
  "id": 780406197,
  "lat": 43.7032823,
  "lon": 7.3339071
},
{
  "type": "node",
  "id": 780407159,
  "lat": 43.7035196,
  "lon": 7.3337957
},
{
  "type": "node",
  "id": 780410022,
  "lat": 43.7033785,
  "lon": 7.3338457
},
{
  "type": "node",
  "id": 780410343,
  "lat": 43.7035179,
  "lon": 7.3337549
},
{
  "type": "node",
  "id": 780410383,
  "lat": 43.7030624,
  "lon": 7.3339352
},
{
  "type": "node",
  "id": 780411186,
  "lat": 43.7032885,
  "lon": 7.3339970
},
{
  "type": "node",
  "id": 780411986,
  "lat": 43.7034062,
  "lon": 7.3337467
},
{
  "type": "node",
  "id": 780412306,
  "lat": 43.7033111,
  "lon": 7.3339940
},
{
  "type": "node",
  "id": 780414800,
  "lat": 43.7031792,
  "lon": 7.3340100
},
{
  "type": "node",
  "id": 780415280,
  "lat": 43.7032666,
  "lon": 7.3337400
},
{
  "type": "node",
  "id": 780415501,
  "lat": 43.7034896,
  "lon": 7.3337577
},
{
  "type": "node",
  "id": 780416298,
  "lat": 43.7031158,
  "lon": 7.3337599
},
{
  "type": "node",
  "id": 780416358,
  "lat": 43.7031815,
  "lon": 7.3340429
},
{
  "type": "node",
  "id": 780418146,
  "lat": 43.7030497,
  "lon": 7.3339369
},
{
  "type": "node",
  "id": 780419437,
  "lat": 43.7031309,
  "lon": 7.3340164
},
{
  "type": "node",
  "id": 780420530,
  "lat": 43.7033132,
  "lon": 7.3340255
},
{
  "type": "node",
  "id": 780420617,
  "lat": 43.7034988,
  "lon": 7.3338300
},
{
  "type": "node",
  "id": 780422480,
  "lat": 43.7030567,
  "lon": 7.3340384
},
{
  "type": "node",
  "id": 780426580,
  "lat": 43.7032682,
  "lon": 7.3337635
},
{
  "type": "node",
  "id": 780426776,
  "lat": 43.7035525,
  "lon": 7.3338086
},
{
  "type": "node",
  "id": 780428633,
  "lat": 43.7033005,
  "lon": 7.3339047
},
{
  "type": "node",
  "id": 780429131,
  "lat": 43.7034353,
  "lon": 7.3338385
},
{
  "type": "node",
  "id": 780430196,
  "lat": 43.7031119,
  "lon": 7.3337027
},
{
  "type": "node",
  "id": 780432246,
  "lat": 43.7034083,
  "lon": 7.3337662
},
{
  "type": "node",
  "id": 780433323,
  "lat": 43.7031317,
  "lon": 7.3340285
},
{
  "type": "node",
  "id": 780438175,
  "lat": 43.7034912,
  "lon": 7.3337964
},
{
  "type": "node",
  "id": 780439490,
  "lat": 43.7035623,
  "lon": 7.3337500
},
{
  "type": "node",
  "id": 780440058,
  "lat": 43.7032972,
  "lon": 7.3338562
},
{
  "type": "node",
  "id": 780440979,
  "lat": 43.7030469,
  "lon": 7.3337113
},
{
  "type": "node",
  "id": 2814569169,
  "lat": 43.7031511,
  "lon": 7.3338104
},
{
  "type": "node",
  "id": 2814569170,
  "lat": 43.7031552,
  "lon": 7.3338672
},
{
  "type": "node",
  "id": 2814569171,
  "lat": 43.7031927,
  "lon": 7.3338046
},
{
  "type": "node",
  "id": 2814569172,
  "lat": 43.7031968,
  "lon": 7.3338614
},
{
  "type": "node",
  "id": 2814569173,
  "lat": 43.7032906,
  "lon": 7.3337606
},
{
  "type": "node",
  "id": 1549341605,
  "lat": 43.7924440,
  "lon": 7.1868950
},
{
  "type": "node",
  "id": 1549341607,
  "lat": 43.7924450,
  "lon": 7.1868820
},
{
  "type": "node",
  "id": 1549341615,
  "lat": 43.7924460,
  "lon": 7.1868770
},
{
  "type": "node",
  "id": 1549341618,
  "lat": 43.7924460,
  "lon": 7.1868990
},
{
  "type": "node",
  "id": 1549341633,
  "lat": 43.7924480,
  "lon": 7.1869080
},
{
  "type": "node",
  "id": 1549341635,
  "lat": 43.7924490,
  "lon": 7.1868710
},
{
  "type": "node",
  "id": 1549341648,
  "lat": 43.7924530,
  "lon": 7.1868650
},
{
  "type": "node",
  "id": 1549341649,
  "lat": 43.7924530,
  "lon": 7.1869150
},
{
  "type": "node",
  "id": 1549341670,
  "lat": 43.7924580,
  "lon": 7.1868610
},
{
  "type": "node",
  "id": 1549341672,
  "lat": 43.7924590,
  "lon": 7.1869190
},
{
  "type": "node",
  "id": 1549341689,
  "lat": 43.7924660,
  "lon": 7.1869220
},
{
  "type": "node",
  "id": 1549341693,
  "lat": 43.7924690,
  "lon": 7.1868560
},
{
  "type": "node",
  "id": 1549341714,
  "lat": 43.7924760,
  "lon": 7.1869510
},
{
  "type": "node",
  "id": 1549341725,
  "lat": 43.7924815,
  "lon": 7.1868584
},
{
  "type": "node",
  "id": 1549341729,
  "lat": 43.7924800,
  "lon": 7.1869740
},
{
  "type": "node",
  "id": 1549341741,
  "lat": 43.7924820,
  "lon": 7.1871390
},
{
  "type": "node",
  "id": 1549341771,
  "lat": 43.7924890,
  "lon": 7.1871460
},
{
  "type": "node",
  "id": 1549341789,
  "lat": 43.7924920,
  "lon": 7.1870490
},
{
  "type": "node",
  "id": 1549341806,
  "lat": 43.7924960,
  "lon": 7.1871000
},
{
  "type": "node",
  "id": 1549341808,
  "lat": 43.7924980,
  "lon": 7.1870890
},
{
  "type": "node",
  "id": 1549341810,
  "lat": 43.7924980,
  "lon": 7.1870960
},
{
  "type": "node",
  "id": 1549341867,
  "lat": 43.7925300,
  "lon": 7.1871720
},
{
  "type": "node",
  "id": 1549341949,
  "lat": 43.7925840,
  "lon": 7.1872070
},
{
  "type": "node",
  "id": 1549342020,
  "lat": 43.7926100,
  "lon": 7.1868100
},
{
  "type": "node",
  "id": 1549342050,
  "lat": 43.7926210,
  "lon": 7.1868280
},
{
  "type": "node",
  "id": 1549342074,
  "lat": 43.7926260,
  "lon": 7.1868220
},
{
  "type": "node",
  "id": 1549342101,
  "lat": 43.7926350,
  "lon": 7.1868190
},
{
  "type": "node",
  "id": 1549342120,
  "lat": 43.7926420,
  "lon": 7.1868840
},
{
  "type": "node",
  "id": 1549342124,
  "lat": 43.7926440,
  "lon": 7.1868230
},
{
  "type": "node",
  "id": 1549342133,
  "lat": 43.7926450,
  "lon": 7.1869500
},
{
  "type": "node",
  "id": 1549342138,
  "lat": 43.7926480,
  "lon": 7.1870190
},
{
  "type": "node",
  "id": 1549342140,
  "lat": 43.7926490,
  "lon": 7.1868760
},
{
  "type": "node",
  "id": 1549342142,
  "lat": 43.7926510,
  "lon": 7.1870720
},
{
  "type": "node",
  "id": 1549342143,
  "lat": 43.7926520,
  "lon": 7.1868300
},
{
  "type": "node",
  "id": 1549342152,
  "lat": 43.7926530,
  "lon": 7.1868670
},
{
  "type": "node",
  "id": 1549342154,
  "lat": 43.7926530,
  "lon": 7.1871270
},
{
  "type": "node",
  "id": 1549342165,
  "lat": 43.7926560,
  "lon": 7.1868430
},
{
  "type": "node",
  "id": 1549342166,
  "lat": 43.7926560,
  "lon": 7.1871910
},
{
  "type": "node",
  "id": 1549342172,
  "lat": 43.7926570,
  "lon": 7.1868560
},
{
  "type": "node",
  "id": 4748517632,
  "lat": 43.7924719,
  "lon": 7.1869224
},
{
  "type": "node",
  "id": 783379292,
  "lat": 43.7206101,
  "lon": 7.3977599
},
{
  "type": "node",
  "id": 783382818,
  "lat": 43.7206732,
  "lon": 7.3979274
},
{
  "type": "node",
  "id": 783393274,
  "lat": 43.7206651,
  "lon": 7.3979013
},
{
  "type": "node",
  "id": 783402690,
  "lat": 43.7206467,
  "lon": 7.3979431
},
{
  "type": "node",
  "id": 783408063,
  "lat": 43.7206094,
  "lon": 7.3979564
},
{
  "type": "node",
  "id": 783418769,
  "lat": 43.7206178,
  "lon": 7.3977749
},
{
  "type": "node",
  "id": 783423716,
  "lat": 43.7206973,
  "lon": 7.3978822
},
{
  "type": "node",
  "id": 783425970,
  "lat": 43.7206394,
  "lon": 7.3979394
},
{
  "type": "node",
  "id": 783432789,
  "lat": 43.7205597,
  "lon": 7.3977884
},
{
  "type": "node",
  "id": 783434807,
  "lat": 43.7206568,
  "lon": 7.3977517
},
{
  "type": "node",
  "id": 5603872506,
  "lat": 43.7328733,
  "lon": 7.4137256
},
{
  "type": "node",
  "id": 5603872507,
  "lat": 43.7327236,
  "lon": 7.4136989
},
{
  "type": "node",
  "id": 5603872508,
  "lat": 43.7327186,
  "lon": 7.4137465
},
{
  "type": "node",
  "id": 5603872509,
  "lat": 43.7326935,
  "lon": 7.4137427
},
{
  "type": "node",
  "id": 5603872510,
  "lat": 43.7326853,
  "lon": 7.4138511
},
{
  "type": "node",
  "id": 5603872511,
  "lat": 43.7328611,
  "lon": 7.4138737
},
{
  "type": "node",
  "id": 5603872519,
  "lat": 43.7326907,
  "lon": 7.4137792
},
{
  "type": "node",
  "id": 256791676,
  "lat": 43.7303126,
  "lon": 7.4250966
},
{
  "type": "node",
  "id": 256791677,
  "lat": 43.7304305,
  "lon": 7.4249684
},
{
  "type": "node",
  "id": 1738399760,
  "lat": 43.7322715,
  "lon": 7.4230416
},
{
  "type": "node",
  "id": 1738399761,
  "lat": 43.7322979,
  "lon": 7.4232401
},
{
  "type": "node",
  "id": 1738399762,
  "lat": 43.7323114,
  "lon": 7.4232347
},
{
  "type": "node",
  "id": 1738399763,
  "lat": 43.7323303,
  "lon": 7.4230183
},
{
  "type": "node",
  "id": 1738399766,
  "lat": 43.7323349,
  "lon": 7.4240787
},
{
  "type": "node",
  "id": 1738399768,
  "lat": 43.7323365,
  "lon": 7.4236307
},
{
  "type": "node",
  "id": 1738399769,
  "lat": 43.7323406,
  "lon": 7.4239062
},
{
  "type": "node",
  "id": 1738399771,
  "lat": 43.7323416,
  "lon": 7.4235440
},
{
  "type": "node",
  "id": 1738399773,
  "lat": 43.7323429,
  "lon": 7.4237611
},
{
  "type": "node",
  "id": 1738399775,
  "lat": 43.7323578,
  "lon": 7.4236223
},
{
  "type": "node",
  "id": 1738399776,
  "lat": 43.7323704,
  "lon": 7.4238944
},
{
  "type": "node",
  "id": 1738399778,
  "lat": 43.7324056,
  "lon": 7.4244667
},
{
  "type": "node",
  "id": 1738399780,
  "lat": 43.7324523,
  "lon": 7.4247341
},
{
  "type": "node",
  "id": 1738399781,
  "lat": 43.7324602,
  "lon": 7.4247309
},
{
  "type": "node",
  "id": 1738399783,
  "lat": 43.7324626,
  "lon": 7.4236589
},
{
  "type": "node",
  "id": 1738399785,
  "lat": 43.7324979,
  "lon": 7.4236449
},
{
  "type": "node",
  "id": 256791670,
  "lat": 43.7306357,
  "lon": 7.4253297
},
{
  "type": "node",
  "id": 256791671,
  "lat": 43.7307252,
  "lon": 7.4252324
},
{
  "type": "node",
  "id": 256791672,
  "lat": 43.7308819,
  "lon": 7.4255096
},
{
  "type": "node",
  "id": 256791673,
  "lat": 43.7308066,
  "lon": 7.4255908
},
{
  "type": "node",
  "id": 256791674,
  "lat": 43.7310126,
  "lon": 7.4259567
},
{
  "type": "node",
  "id": 256791675,
  "lat": 43.7308818,
  "lon": 7.4260990
},
{
  "type": "node",
  "id": 918052367,
  "lat": 43.7308073,
  "lon": 7.4253770
},
{
  "type": "node",
  "id": 1702431999,
  "lat": 43.7309982,
  "lon": 7.4259314
},
{
  "type": "node",
  "id": 1738399787,
  "lat": 43.7325640,
  "lon": 7.4252750
},
{
  "type": "node",
  "id": 1738399788,
  "lat": 43.7325818,
  "lon": 7.4252679
},
{
  "type": "node",
  "id": 1738399795,
  "lat": 43.7328332,
  "lon": 7.4265789
},
{
  "type": "node",
  "id": 1738399797,
  "lat": 43.7328510,
  "lon": 7.4265719
},
{
  "type": "node",
  "id": 1738399807,
  "lat": 43.7329848,
  "lon": 7.4273129
},
{
  "type": "node",
  "id": 1738399809,
  "lat": 43.7330058,
  "lon": 7.4273075
},
{
  "type": "node",
  "id": 1738399813,
  "lat": 43.7330299,
  "lon": 7.4273768
},
{
  "type": "node",
  "id": 1738399815,
  "lat": 43.7330579,
  "lon": 7.4274470
},
{
  "type": "node",
  "id": 1738399818,
  "lat": 43.7330735,
  "lon": 7.4274740
},
{
  "type": "node",
  "id": 1738399820,
  "lat": 43.7330891,
  "lon": 7.4274907
},
{
  "type": "node",
  "id": 1738399823,
  "lat": 43.7332768,
  "lon": 7.4274165
},
{
  "type": "node",
  "id": 5596346612,
  "lat": 43.7332552,
  "lon": 7.4274250
},
{
  "type": "node",
  "id": 5596346618,
  "lat": 43.7331949,
  "lon": 7.4274489
},
{
  "type": "node",
  "id": 6456373625,
  "lat": 43.7309855,
  "lon": 7.4259089
},
{
  "type": "node",
  "id": 1097188339,
  "lat": 43.7443170,
  "lon": 7.4304959
},
{
  "type": "node",
  "id": 1097188584,
  "lat": 43.7445367,
  "lon": 7.4305066
},
{
  "type": "node",
  "id": 1097188862,
  "lat": 43.7444995,
  "lon": 7.4306698
},
{
  "type": "node",
  "id": 1097189088,
  "lat": 43.7444888,
  "lon": 7.4304606
},
{
  "type": "node",
  "id": 1097190053,
  "lat": 43.7443068,
  "lon": 7.4305176
},
{
  "type": "node",
  "id": 1097190618,
  "lat": 43.7445451,
  "lon": 7.4305224
},
{
  "type": "node",
  "id": 1097190827,
  "lat": 43.7444962,
  "lon": 7.4304431
},
{
  "type": "node",
  "id": 1097191859,
  "lat": 43.7442448,
  "lon": 7.4304339
},
{
  "type": "node",
  "id": 5931906970,
  "lat": 43.7445379,
  "lon": 7.4305840
},
{
  "type": "node",
  "id": 6008635220,
  "lat": 43.7445471,
  "lon": 7.4305421
},
{
  "type": "node",
  "id": 6008635221,
  "lat": 43.7445456,
  "lon": 7.4305609
},
{
  "type": "node",
  "id": 6008635222,
  "lat": 43.7444053,
  "lon": 7.4303666
},
{
  "type": "node",
  "id": 6008635223,
  "lat": 43.7443050,
  "lon": 7.4303123
},
{
  "type": "node",
  "id": 6008635224,
  "lat": 43.7443990,
  "lon": 7.4303820
},
{
  "type": "node",
  "id": 6008635225,
  "lat": 43.7443882,
  "lon": 7.4303720
},
{
  "type": "node",
  "id": 6008635226,
  "lat": 43.7443464,
  "lon": 7.4303473
},
{
  "type": "node",
  "id": 6008635227,
  "lat": 43.7443852,
  "lon": 7.4303773
},
{
  "type": "node",
  "id": 2037779405,
  "lat": 43.8628590,
  "lon": 7.1892930
},
{
  "type": "node",
  "id": 2037779344,
  "lat": 43.8628440,
  "lon": 7.1894250
},
{
  "type": "node",
  "id": 2037779351,
  "lat": 43.8628450,
  "lon": 7.1894000
},
{
  "type": "node",
  "id": 2037779355,
  "lat": 43.8628460,
  "lon": 7.1893720
},
{
  "type": "node",
  "id": 2037779368,
  "lat": 43.8628490,
  "lon": 7.1893110
},
{
  "type": "node",
  "id": 2037779440,
  "lat": 43.8628760,
  "lon": 7.1893190
},
{
  "type": "node",
  "id": 2037779470,
  "lat": 43.8628840,
  "lon": 7.1893080
},
{
  "type": "node",
  "id": 2037779523,
  "lat": 43.8629110,
  "lon": 7.1893690
},
{
  "type": "node",
  "id": 2037779542,
  "lat": 43.8629180,
  "lon": 7.1893550
},
{
  "type": "way",
  "id": 68043982,
  "nodes": [
    820501996,
    820680057,
    820741490,
    820374256,
    820539221,
    820373332,
    820395909,
    820552002,
    820417429,
    820388754,
    820415845,
    820445510,
    820724137,
    820433485,
    820423213,
    771393545,
    820496630,
    820456425,
    820526502,
    820373436,
    820494932,
    820777309,
    820525041,
    820685580,
    820683545,
    820402928,
    820441057,
    820501996
  ]
},
{
  "type": "way",
  "id": 68069019,
  "nodes": [
    820386873,
    820701103,
    820431512,
    820414989,
    820386873
  ]
},
{
  "type": "way",
  "id": 143921079,
  "nodes": [
    1574803172,
    1574803205,
    1574803244,
    1574803481,
    1574803293,
    1574803264,
    1574803432,
    1574803452,
    1574803790,
    1574803704,
    1574803654,
    1574803399,
    1480453843,
    1574803199,
    1574803154,
    1134619433,
    1574803095,
    1574803116,
    1574803128,
    2512590213,
    1574803101,
    1574803100,
    1574803050,
    1134619857,
    1574803078,
    1574803108,
    1574803110,
    1480453840,
    1574803172
  ]
},
{
  "type": "way",
  "id": 143921357,
  "nodes": [
    1574803176,
    1480453841,
    1574803132,
    1574803126,
    1574803143,
    1574803190,
    1480453842,
    1574803240,
    1574803252,
    1574803233,
    1574803176
  ]
},
{
  "type": "way",
  "id": 62544253,
  "nodes": [
    2814569173,
    780426580,
    780415280,
    780416298,
    780430196,
    780440979,
    780410383,
    780418146,
    780422480,
    780433323,
    780419437,
    780414800,
    780416358,
    780420530,
    780412306,
    780411186,
    780406197,
    780428633,
    780440058,
    780406149,
    780410022,
    780429131,
    780420617,
    780426776,
    780439490,
    780410343,
    780407159,
    780438175,
    780415501,
    780432246,
    780411986,
    2814569173
  ]
},
{
  "type": "way",
  "id": 276897956,
  "nodes": [
    2814569171,
    2814569169,
    2814569170,
    2814569172,
    2814569171
  ]
}

  ]
}
