{
  "version": 0.6,
  "generator": "Overpass API 0.7.55.9 ab41fea6",
  "osm3s": {
    "timestamp_osm_base": "2020-02-14T18:58:01Z",
    "copyright": "The data included in this document is from www.openstreetmap.org. The data is made available under ODbL."
  },
  "elements": [

{
  "type": "node",
  "id": 305523475,
  "lat": 46.5101584,
  "lon": 15.2673011,
  "tags": {
    "name": "Gozdni muzej",
    "tourism": "museum"
  }
},
{
  "type": "node",
  "id": 353864056,
  "lat": 46.4581240,
  "lon": 15.4643826,
  "tags": {
    "historic": "yes",
    "name": "Partizanska bolnišnica Jesen",
    "tourism": "museum"
  }
},
{
  "type": "node",
  "id": 506737483,
  "lat": 46.7583523,
  "lon": 15.4074119,
  "tags": {
    "addr:city": "Großklein",
    "addr:country": "AT",
    "addr:housenumber": "23",
    "addr:place": "Mantrach",
    "addr:postcode": "8452",
    "at_bev:addr_date": "2018-10-01",
    "name": "Kürbiskernöl Museum",
    "shop": "pumpkin_seed_oil",
    "shop:de": "Kürbiskernöl",
    "tourism": "museum"
  }
},
{
  "type": "node",
  "id": 541010385,
  "lat": 46.5190539,
  "lon": 15.3204351,
  "tags": {
    "description": "muzej NOB",
    "name": "Urbančeva lovska koča",
    "tourism": "museum"
  }
},
{
  "type": "node",
  "id": 734586347,
  "lat": 46.6793880,
  "lon": 15.5731392,
  "tags": {
    "addr:city": "Zgornja Kungota",
    "addr:housenumber": "12",
    "addr:postcode": "2201",
    "addr:street": "Svečina",
    "name": "Vinogradniški muzej Kebl",
    "opening_hours": "Sa 10:00-16:00; Su 14:00-19:00 \"rain off\"",
    "tourism": "museum"
  }
},
{
  "type": "node",
  "id": 890453085,
  "lat": 46.7354873,
  "lon": 15.4410984,
  "tags": {
    "addr:country": "AT",
    "addr:housenumber": "10",
    "addr:street": "Großklein",
    "name": "Hallstattzeitliches Museum",
    "phone": "+436642714414",
    "tourism": "museum",
    "website": "www.archaeo-grossklein.com"
  }
},
{
  "type": "node",
  "id": 924199040,
  "lat": 46.7641622,
  "lon": 15.9656331,
  "tags": {
    "name": "Weinbaumuseum",
    "tourism": "museum"
  }
},
{
  "type": "node",
  "id": 1509702576,
  "lat": 46.4649961,
  "lon": 15.5177909,
  "tags": {
    "addr:housenumber": "5",
    "addr:street": "Bojtina",
    "name": "Črna kuhinja",
    "tourism": "museum"
  }
},
{
  "type": "node",
  "id": 1822637535,
  "lat": 46.2870034,
  "lon": 15.4771675,
  "tags": {
    "name": "Etnološka zbirka Črešnar",
    "tourism": "museum"
  }
},
{
  "type": "node",
  "id": 1835390350,
  "lat": 46.7186480,
  "lon": 15.5532090,
  "tags": {
    "addr:city": "Gamlitz",
    "addr:province": "Styria",
    "name": "Wein Museum",
    "tourism": "museum"
  }
},
{
  "type": "node",
  "id": 1842772326,
  "lat": 46.6589290,
  "lon": 15.4686320,
  "tags": {
    "addr:city": "Schlossberg",
    "addr:province": "Styria",
    "addr:state": "AUSTRIA",
    "name": "Krennmühle",
    "note": "Alte Mühle mit Verkauf von Mehl, Äpfel, Kastanien, Spirituosen",
    "shop": "farm",
    "tourism": "museum"
  }
},
{
  "type": "node",
  "id": 2407209653,
  "lat": 46.8002103,
  "lon": 15.8857676,
  "tags": {
    "email": "BULLDOGWirt@aon.at",
    "name": "Museum nostaligisches Landleben",
    "phone": "+43(0)3473/8267",
    "source": "knowledge",
    "tourism": "museum",
    "website": "http://www.bulldogwirt.at/museum.html"
  }
},
{
  "type": "node",
  "id": 2959639929,
  "lat": 46.7809734,
  "lon": 15.7678193,
  "tags": {
    "amenity": "restaurant",
    "cuisine": "regional",
    "name": "Ottersbachmühle",
    "opening_hours": "Mo-Fr 09:00-24:00",
    "tourism": "museum"
  }
},
{
  "type": "node",
  "id": 4176916222,
  "lat": 46.5578981,
  "lon": 15.6421391,
  "tags": {
    "addr:city": "Maribor",
    "addr:housenumber": "19",
    "addr:postcode": "2000",
    "addr:street": "Koroška cesta",
    "name": "Fotografski muzej Maribor",
    "opening_hours": "Tu-Fr 9:00-17:00; Sa 13:00-17:00",
    "phone": "+386 2 235 2605",
    "tourism": "museum",
    "website": "https://www.facebook.com/FotografskiMuzejMaribor"
  }
},
{
  "type": "node",
  "id": 4545614690,
  "lat": 46.5604375,
  "lon": 15.6485434,
  "tags": {
    "addr:housenumber": "2",
    "addr:postcode": "2000",
    "addr:street": "Grajska ulica",
    "email": "museum@maribor.si",
    "name": "Pokrajinski muzej",
    "name:en": "Regional museum",
    "name:sl": "Pokrajinski muzej",
    "opening_hours": "Tu-Sa 10:00-18:00",
    "phone": "02 2283551",
    "tourism": "museum",
    "website": "https://museum-mb.si/"
  }
},
{
  "type": "node",
  "id": 5173521396,
  "lat": 46.4990272,
  "lon": 15.9839526,
  "tags": {
    "contact:phone": "051 260 506",
    "contact:website": "www.jenez-puh.si",
    "fee": "yes",
    "museum": "bicycles and motorcycles made by Puch",
    "name": "Puhov Muzej",
    "name:de": "Johann Puch Museum",
    "opening_hours": "may 1 - oct 31 Sa,Su,Ph 10:00-18:00",
    "operator": "Duštvo Rojaka Janeza Puha Juršinci",
    "operator:de": "Verein des Landesmannes Johann Puch Juršinci",
    "tourism": "museum",
    "wheelchair": "no"
  }
},
{
  "type": "node",
  "id": 5286258613,
  "lat": 46.5478892,
  "lon": 15.6309485,
  "tags": {
    "addr:city": "Maribor",
    "addr:housenumber": "15",
    "addr:postcode": "2111",
    "addr:street": "Engelsova ulica",
    "email": "zvezdan.markovic@gmail.com",
    "museum": "military",
    "name": "Vojaški muzej Slovenske Vojske",
    "phone": "+386 2 449 5006",
    "tourism": "museum",
    "website": "http://www.vojaskimuzej.si/main.aspx"
  }
},
{
  "type": "node",
  "id": 5368588152,
  "lat": 46.5238620,
  "lon": 15.6636396,
  "tags": {
    "addr:housenumber": "31",
    "addr:postcode": "2000",
    "addr:street": "Perhavčeva ulica",
    "email": "info@conatezno.si",
    "historic": "industrial",
    "name": "Mariborski rovi - cona Tezno",
    "tourism": "museum",
    "website": "http://www.conatezno.si/rovi/"
  }
},
{
  "type": "node",
  "id": 5834036189,
  "lat": 46.3944436,
  "lon": 15.6613173,
  "tags": {
    "addr:city": "Pragersko",
    "addr:postcode": "2331",
    "addr:street": "Kolodvorska ulica",
    "description": "Muzejska lokomotiva, ki stoji tik ob železniških zapornicah, je parna lokomotiva, ki se je do srede šestdesetih let uporabljala za premikanje in sestavljanje vlakov ter vlake »nabiralnike«. Vozila je na relaciji Tezno-Pragersko-Čakovec- Kotoriba.",
    "name": "Muzejska lokomotiva",
    "tourism": "museum",
    "website": "http://tdbreza.si/o-kraju/"
  }
},
{
  "type": "node",
  "id": 6163743535,
  "lat": 46.5611039,
  "lon": 15.6467434,
  "tags": {
    "museum": "tehnology",
    "name": "Radijski muzej Radio City",
    "tourism": "museum"
  }
},
{
  "type": "node",
  "id": 6811593925,
  "lat": 46.4208251,
  "lon": 15.8689733,
  "tags": {
    "int_name": "Traditional carnival masks in the area of Ptuj",
    "name": "Tradicionalne pustne maske na ptujskem območju",
    "name:de": "Traditionelle Faschingsmasken in Ptuj und Umgebung",
    "name:en": "Traditional carnival masks in the area of Ptuj",
    "name:fr": "Masques de carnaval traditionnels de Ptuj et environs",
    "tourism": "museum"
  }
},
{
  "type": "way",
  "id": 30382823,
  "nodes": [
    335315026,
    335315032,
    335315037,
    3212172135,
    335315043,
    3212172131,
    335315026
  ],
  "tags": {
    "building": "yes",
    "name": "Museum Flavia Solva",
    "source": "plan.at 2009,bing",
    "tourism": "museum"
  }
},
{
  "type": "way",
  "id": 72284924,
  "nodes": [
    858916886,
    858916908,
    858916934,
    858916956,
    858916886
  ],
  "tags": {
    "addr:city": "Ratschendorf",
    "addr:housenumber": "31a",
    "addr:place": "Ratschendorf",
    "addr:postcode": "8483",
    "building": "yes",
    "name": "Römermuseum",
    "tourism": "museum",
    "wheelchair": "limited"
  }
},
{
  "type": "way",
  "id": 121902097,
  "nodes": [
    1363473135,
    1363473215,
    1363473019,
    1363473274,
    1363473135
  ],
  "tags": {
    "addr:city": "Maribor",
    "addr:housenumber": "5",
    "addr:postcode": "2000",
    "addr:street": "Ulica heroja Tomšiča",
    "building": "commercial",
    "building:levels": "3",
    "email": "osebje@mnom.si",
    "name": "Muzej narodne osvoboditve Maribor",
    "opening_hours": "Mo-Fr 8:00-17:00; Sa 9:00-12:00",
    "phone": "+386 2 235 2605",
    "tourism": "museum",
    "website": "http://mnom.si/",
    "wikipedia": "sl:Muzej narodne osvoboditve Maribor"
  }
},
{
  "type": "way",
  "id": 121903442,
  "nodes": [
    1363485000,
    1363485043,
    1363485022,
    1363485011,
    1363484998,
    1363485054,
    1363485034,
    1363485012,
    1363485003,
    1363485002,
    1363485000
  ],
  "tags": {
    "addr:housenumber": "4",
    "addr:street": "Židovska ulica",
    "building": "retail",
    "building:levels": "1",
    "email": "info@sinagogamaribor.si",
    "fee": "yes",
    "name": "Sinagoga Maribor",
    "name:en": "Maribor Synagogue",
    "name:fr": "Synagogue de Maribor",
    "opening_hours": "Mo-Fr 8:00-16:00",
    "phone": "+386 2 252 78 36",
    "roof:levels": "1",
    "roof:shape": "hipped",
    "tourism": "museum",
    "website": "http://www.sinagogamaribor.si/",
    "wikidata": "Q4281383",
    "wikipedia": "sl:Sinagoga Maribor"
  }
},
{
  "type": "way",
  "id": 127756426,
  "nodes": [
    1413436868,
    1413436941,
    1413437007,
    1413436984,
    1413436953,
    1413436938,
    1413437138,
    1413437143,
    1413437171,
    1413437221,
    1413437186,
    1413437260,
    1413437268,
    1413437226,
    1413437248,
    1413437293,
    1413437360,
    1413437295,
    1413437256,
    1413437172,
    1413437157,
    1413437002,
    1413436835,
    1413436868
  ],
  "tags": {
    "addr:city": "Bad Radkersburg",
    "addr:housenumber": "9",
    "addr:postcode": "8490",
    "addr:street": "Emmenstraße",
    "building": "public",
    "contact:website": "http://www.museum-badradkersburg.at/",
    "opening_hours": "May-Oct Tu,We,Fr,Sa 14:00-18:00; Feb-Apr,Nov We,Fr 15:00-16:00 closed \"Nur Führungen um 15 Uhr\"",
    "tourism": "museum"
  }
},
{
  "type": "way",
  "id": 128933869,
  "nodes": [
    506731304,
    1423446611,
    1423446660,
    1423446662,
    1423446713,
    1423446706,
    1423446677,
    1423446675,
    1423446672,
    1423446670,
    5469853264,
    1423446656,
    1423446657,
    1423446651,
    1423446654,
    506731304
  ],
  "tags": {
    "addr:city": "Kitzeck im Sausal",
    "addr:country": "AT",
    "addr:housenumber": "15",
    "addr:place": "Steinriegel",
    "addr:postcode": "8442",
    "at_bev:addr_date": "2017-04-07",
    "building": "yes",
    "name": "Weinmuseum",
    "source": "Bing",
    "tourism": "museum"
  }
},
{
  "type": "way",
  "id": 131917219,
  "nodes": [
    1451251273,
    3569805177,
    3569805178,
    3569810599,
    3569805179,
    1451251265,
    1451251268,
    1451251288,
    1451251273
  ],
  "tags": {
    "addr:city": "Leibnitz",
    "addr:country": "AT",
    "addr:housenumber": "9",
    "addr:postcode": "8430",
    "addr:street": "Am Frauenberg",
    "at_bev:addr_date": "2019-10-01",
    "building": "yes",
    "building:levels": "1",
    "name": "Tempelmuseum Frauenberg",
    "source": "geoimage.at",
    "tourism": "museum"
  }
},
{
  "type": "way",
  "id": 176306063,
  "nodes": [
    1868513069,
    1868513070,
    1868513068,
    1868513067,
    1868513069
  ],
  "tags": {
    "addr:city": "Ptuj",
    "addr:housenumber": "4",
    "addr:postcode": "2250",
    "addr:street": "K Mitreju",
    "building": "yes",
    "int_name": "Mithras Shrine III",
    "name": "III. mitrej Svetšče boga Mitra",
    "name:de": "III. Mithräum",
    "name:en": "Mithras Shrine III",
    "name:fr": "Sanctuaire mithriaque III",
    "tourism": "museum"
  }
},
{
  "type": "way",
  "id": 177212094,
  "nodes": [
    1876653548,
    1665651788,
    1876653247,
    1876653416,
    1876653548
  ],
  "tags": {
    "landuse": "meadow",
    "name": "Hallstattzeitliches Gehöft am Burgstallkogel",
    "tourism": "museum"
  }
},
{
  "type": "way",
  "id": 253793101,
  "nodes": [
    2596777324,
    2596777291,
    2596777268,
    2596777285,
    2596777322,
    2596777324
  ],
  "tags": {
    "addr:city": "Pichla bei Mureck",
    "addr:country": "AT",
    "addr:housenumber": "71",
    "addr:place": "Pichla bei Mureck",
    "addr:postcode": "8481",
    "building": "yes",
    "name": "Handwerkerdörfl",
    "operator": "Gerhard Seher",
    "tourism": "museum",
    "website": "https://www.suedsteiermark.at/museen/7382/handwerkerdoerfl-pichla-bei-mureck-pichla-bei-mureck/"
  }
},
{
  "type": "way",
  "id": 255779303,
  "nodes": [
    2614659338,
    2614659339,
    2614659340,
    2614659330,
    2614659331,
    2614659322,
    2614659323,
    2614659328,
    2614659332,
    2614659333,
    2614659334,
    2614659335,
    2614659336,
    2614659337,
    2614659329,
    2614659324,
    2614659325,
    2614659326,
    2614659347,
    2614659327,
    2614659338
  ],
  "tags": {
    "addr:city": "Vitanje",
    "addr:housenumber": "18",
    "addr:postcode": "3205",
    "addr:street": "Na vasi",
    "building": "yes",
    "contact:phone": "+386 599 34517",
    "contact:website": "http://www.ksevt.eu/",
    "name": "KSEVT",
    "tourism": "museum",
    "wheelchair": "yes",
    "wikidata": "Q12793203",
    "wikipedia": "sl:Pomoč:Center Hermana Potočnika Noordunga"
  }
},
{
  "type": "way",
  "id": 333392193,
  "nodes": [
    3405068397,
    3405068416,
    3405068403,
    3405068399,
    3405068393,
    3405068285,
    3405068290,
    3405068286,
    3405068397
  ],
  "tags": {
    "addr:city": "Ehrenhausen an der Weinstraße",
    "addr:country": "AT",
    "addr:housenumber": "26",
    "addr:place": "Retznei",
    "addr:postcode": "8461",
    "at_bev:addr_date": "2016-10-02",
    "building": "yes",
    "name": "Museum Villa Retznei",
    "source": "Geoimage.at MaxRes",
    "tourism": "museum"
  }
},
{
  "type": "way",
  "id": 333553667,
  "nodes": [
    3406857015,
    3406857018,
    3406857016,
    3406857012,
    3406857015
  ],
  "tags": {
    "building": "yes",
    "name": "Oldtimer & Bauernkram",
    "opening_hours": "We-Su 10:00-22:00",
    "operator": "Großschmidt",
    "source": "Geoimage.at MaxRes",
    "tourism": "museum"
  }
},
{
  "type": "way",
  "id": 337028162,
  "nodes": [
    3441257537,
    4186999285,
    4186999890,
    4186999892,
    4186999288,
    3441257538,
    3441257539,
    3441257540,
    3441257537
  ],
  "tags": {
    "addr:city": "Sveti Jurij ob Ščavnici",
    "addr:housenumber": "20",
    "addr:postcode": "9244",
    "addr:street": "Videm",
    "building": "yes",
    "name": "Spomenik borcev Generala Maistra",
    "tourism": "museum"
  }
},
{
  "type": "way",
  "id": 444559854,
  "nodes": [
    4420258123,
    5929107534,
    5929107533,
    5929107532,
    4420257815,
    4420257856,
    4420257912,
    4420258052,
    4420258051,
    4420258107,
    4420258187,
    4420258156,
    4420258088,
    4420257992,
    4420258123
  ],
  "tags": {
    "addr:city": "Ptuj",
    "addr:housenumber": "1",
    "addr:postcode": "2250",
    "addr:street": "Muzejski trg",
    "building": "yes",
    "name": "Pokrajinski muzej Ptuj",
    "old_name": "Dominican Monastery",
    "old_name:de": "Dominikaner Kloster",
    "tourism": "museum",
    "was:amenity": "monastry"
  }
},
{
  "type": "relation",
  "id": 6839842,
  "members": [
    {
      "type": "way",
      "ref": 108948388,
      "role": "outer"
    },
    {
      "type": "way",
      "ref": 463129387,
      "role": "inner"
    }
  ],
  "tags": {
    "building": "yes",
    "castle_type": "stately",
    "castle_type:de": "schloss",
    "historic": "castle",
    "name": "Schloss Burgstall",
    "tourism": "museum",
    "type": "multipolygon",
    "wikidata": "Q672707",
    "wikipedia": "de:Wies#Schloss Burgstall"
  }
},
{
  "type": "node",
  "id": 2614659322,
  "lat": 46.3830775,
  "lon": 15.2950304
},
{
  "type": "node",
  "id": 2614659324,
  "lat": 46.3830994,
  "lon": 15.2955741
},
{
  "type": "node",
  "id": 2614659325,
  "lat": 46.3830401,
  "lon": 15.2955645
},
{
  "type": "node",
  "id": 2614659326,
  "lat": 46.3829858,
  "lon": 15.2955284
},
{
  "type": "node",
  "id": 2614659327,
  "lat": 46.3829140,
  "lon": 15.2953962
},
{
  "type": "node",
  "id": 2614659330,
  "lat": 46.3829712,
  "lon": 15.2950915
},
{
  "type": "node",
  "id": 2614659331,
  "lat": 46.3830211,
  "lon": 15.2950489
},
{
  "type": "node",
  "id": 2614659338,
  "lat": 46.3829026,
  "lon": 15.2953139
},
{
  "type": "node",
  "id": 2614659339,
  "lat": 46.3829090,
  "lon": 15.2952306
},
{
  "type": "node",
  "id": 2614659340,
  "lat": 46.3829327,
  "lon": 15.2951540
},
{
  "type": "node",
  "id": 2614659347,
  "lat": 46.3829421,
  "lon": 15.2954695
},
{
  "type": "node",
  "id": 2614659323,
  "lat": 46.3831351,
  "lon": 15.2950377
},
{
  "type": "node",
  "id": 2614659328,
  "lat": 46.3831885,
  "lon": 15.2950700
},
{
  "type": "node",
  "id": 2614659329,
  "lat": 46.3831578,
  "lon": 15.2955562
},
{
  "type": "node",
  "id": 2614659332,
  "lat": 46.3832326,
  "lon": 15.2951243
},
{
  "type": "node",
  "id": 2614659333,
  "lat": 46.3832639,
  "lon": 15.2951980
},
{
  "type": "node",
  "id": 2614659334,
  "lat": 46.3832776,
  "lon": 15.2952822
},
{
  "type": "node",
  "id": 2614659335,
  "lat": 46.3832725,
  "lon": 15.2953684
},
{
  "type": "node",
  "id": 2614659336,
  "lat": 46.3832489,
  "lon": 15.2954479
},
{
  "type": "node",
  "id": 2614659337,
  "lat": 46.3832094,
  "lon": 15.2955127
},
{
  "type": "node",
  "id": 1363484998,
  "lat": 46.5566986,
  "lon": 15.6478423
},
{
  "type": "node",
  "id": 1363485000,
  "lat": 46.5568711,
  "lon": 15.6474478
},
{
  "type": "node",
  "id": 1363485002,
  "lat": 46.5568182,
  "lon": 15.6474476
},
{
  "type": "node",
  "id": 1363485003,
  "lat": 46.5568181,
  "lon": 15.6475280
},
{
  "type": "node",
  "id": 1363485011,
  "lat": 46.5568355,
  "lon": 15.6478428
},
{
  "type": "node",
  "id": 1363485012,
  "lat": 46.5567531,
  "lon": 15.6475277
},
{
  "type": "node",
  "id": 1363485022,
  "lat": 46.5568359,
  "lon": 15.6476303
},
{
  "type": "node",
  "id": 1363485034,
  "lat": 46.5567529,
  "lon": 15.6476639
},
{
  "type": "node",
  "id": 1363485043,
  "lat": 46.5568707,
  "lon": 15.6476305
},
{
  "type": "node",
  "id": 1363485054,
  "lat": 46.5566989,
  "lon": 15.6476636
},
{
  "type": "node",
  "id": 1363473019,
  "lat": 46.5626187,
  "lon": 15.6480134
},
{
  "type": "node",
  "id": 1363473135,
  "lat": 46.5628997,
  "lon": 15.6477488
},
{
  "type": "node",
  "id": 1363473215,
  "lat": 46.5626126,
  "lon": 15.6477636
},
{
  "type": "node",
  "id": 1363473274,
  "lat": 46.5629057,
  "lon": 15.6479986
},
{
  "type": "node",
  "id": 1868513067,
  "lat": 46.4177793,
  "lon": 15.8546775
},
{
  "type": "node",
  "id": 1868513068,
  "lat": 46.4177985,
  "lon": 15.8547871
},
{
  "type": "node",
  "id": 1868513069,
  "lat": 46.4179343,
  "lon": 15.8546203
},
{
  "type": "node",
  "id": 1868513070,
  "lat": 46.4179535,
  "lon": 15.8547300
},
{
  "type": "node",
  "id": 4420257815,
  "lat": 46.4203003,
  "lon": 15.8646877
},
{
  "type": "node",
  "id": 4420257856,
  "lat": 46.4203316,
  "lon": 15.8646118
},
{
  "type": "node",
  "id": 4420257912,
  "lat": 46.4203828,
  "lon": 15.8645271
},
{
  "type": "node",
  "id": 4420257992,
  "lat": 46.4204734,
  "lon": 15.8646427
},
{
  "type": "node",
  "id": 4420258051,
  "lat": 46.4205844,
  "lon": 15.8642597
},
{
  "type": "node",
  "id": 4420258052,
  "lat": 46.4205138,
  "lon": 15.8642477
},
{
  "type": "node",
  "id": 4420258088,
  "lat": 46.4205692,
  "lon": 15.8644440
},
{
  "type": "node",
  "id": 4420258107,
  "lat": 46.4206366,
  "lon": 15.8642860
},
{
  "type": "node",
  "id": 4420258123,
  "lat": 46.4206606,
  "lon": 15.8648034
},
{
  "type": "node",
  "id": 4420258156,
  "lat": 46.4207366,
  "lon": 15.8645783
},
{
  "type": "node",
  "id": 4420258187,
  "lat": 46.4207950,
  "lon": 15.8644056
},
{
  "type": "node",
  "id": 5929107532,
  "lat": 46.4202824,
  "lon": 15.8647302
},
{
  "type": "node",
  "id": 5929107533,
  "lat": 46.4203627,
  "lon": 15.8648155
},
{
  "type": "node",
  "id": 5929107534,
  "lat": 46.4205918,
  "lon": 15.8650073
},
{
  "type": "node",
  "id": 3441257537,
  "lat": 46.5691008,
  "lon": 16.0213015
},
{
  "type": "node",
  "id": 3441257538,
  "lat": 46.5691180,
  "lon": 16.0215526
},
{
  "type": "node",
  "id": 3441257539,
  "lat": 46.5690238,
  "lon": 16.0215662
},
{
  "type": "node",
  "id": 3441257540,
  "lat": 46.5690067,
  "lon": 16.0213151
},
{
  "type": "node",
  "id": 4186999285,
  "lat": 46.5691085,
  "lon": 16.0214147
},
{
  "type": "node",
  "id": 4186999288,
  "lat": 46.5691168,
  "lon": 16.0215352
},
{
  "type": "node",
  "id": 4186999890,
  "lat": 46.5691364,
  "lon": 16.0214107
},
{
  "type": "node",
  "id": 4186999892,
  "lat": 46.5691447,
  "lon": 16.0215311
},
{
  "type": "node",
  "id": 1248710916,
  "lat": 46.7190343,
  "lon": 15.2650008
},
{
  "type": "node",
  "id": 1248710934,
  "lat": 46.7190538,
  "lon": 15.2644064
},
{
  "type": "node",
  "id": 1248710940,
  "lat": 46.7189357,
  "lon": 15.2649449
},
{
  "type": "node",
  "id": 1248710956,
  "lat": 46.7191095,
  "lon": 15.2646095
},
{
  "type": "node",
  "id": 1248710957,
  "lat": 46.7188538,
  "lon": 15.2645146
},
{
  "type": "node",
  "id": 1248710962,
  "lat": 46.7189426,
  "lon": 15.2650227
},
{
  "type": "node",
  "id": 1248710981,
  "lat": 46.7189125,
  "lon": 15.2649528
},
{
  "type": "node",
  "id": 1248710986,
  "lat": 46.7191725,
  "lon": 15.2645895
},
{
  "type": "node",
  "id": 1248711001,
  "lat": 46.7188933,
  "lon": 15.2648371
},
{
  "type": "node",
  "id": 1248711005,
  "lat": 46.7192218,
  "lon": 15.2648950
},
{
  "type": "node",
  "id": 1248711027,
  "lat": 46.7189193,
  "lon": 15.2648191
},
{
  "type": "node",
  "id": 1248711031,
  "lat": 46.7190370,
  "lon": 15.2649588
},
{
  "type": "node",
  "id": 4584385266,
  "lat": 46.7190213,
  "lon": 15.2645897
},
{
  "type": "node",
  "id": 4584385267,
  "lat": 46.7189492,
  "lon": 15.2646340
},
{
  "type": "node",
  "id": 4584385268,
  "lat": 46.7189676,
  "lon": 15.2647018
},
{
  "type": "node",
  "id": 4584385269,
  "lat": 46.7189484,
  "lon": 15.2647111
},
{
  "type": "node",
  "id": 4584385270,
  "lat": 46.7189692,
  "lon": 15.2648092
},
{
  "type": "node",
  "id": 4584385271,
  "lat": 46.7190517,
  "lon": 15.2647671
},
{
  "type": "node",
  "id": 4584385272,
  "lat": 46.7190325,
  "lon": 15.2646317
},
{
  "type": "node",
  "id": 1665651788,
  "lat": 46.7477509,
  "lon": 15.4068498
},
{
  "type": "node",
  "id": 1876653247,
  "lat": 46.7478697,
  "lon": 15.4067867
},
{
  "type": "node",
  "id": 1876653416,
  "lat": 46.7475757,
  "lon": 15.4060010
},
{
  "type": "node",
  "id": 1876653548,
  "lat": 46.7474113,
  "lon": 15.4061756
},
{
  "type": "node",
  "id": 506731304,
  "lat": 46.7824069,
  "lon": 15.4532159
},
{
  "type": "node",
  "id": 1423446611,
  "lat": 46.7824340,
  "lon": 15.4533081
},
{
  "type": "node",
  "id": 1423446651,
  "lat": 46.7825526,
  "lon": 15.4530926
},
{
  "type": "node",
  "id": 1423446654,
  "lat": 46.7825606,
  "lon": 15.4531198
},
{
  "type": "node",
  "id": 1423446656,
  "lat": 46.7825739,
  "lon": 15.4530407
},
{
  "type": "node",
  "id": 1423446657,
  "lat": 46.7825834,
  "lon": 15.4530734
},
{
  "type": "node",
  "id": 1423446660,
  "lat": 46.7825958,
  "lon": 15.4532069
},
{
  "type": "node",
  "id": 1423446662,
  "lat": 46.7826000,
  "lon": 15.4532213
},
{
  "type": "node",
  "id": 1423446670,
  "lat": 46.7826317,
  "lon": 15.4530049
},
{
  "type": "node",
  "id": 1423446672,
  "lat": 46.7826387,
  "lon": 15.4530307
},
{
  "type": "node",
  "id": 1423446675,
  "lat": 46.7826519,
  "lon": 15.4530230
},
{
  "type": "node",
  "id": 1423446677,
  "lat": 46.7826542,
  "lon": 15.4530314
},
{
  "type": "node",
  "id": 1423446706,
  "lat": 46.7827283,
  "lon": 15.4529886
},
{
  "type": "node",
  "id": 1423446713,
  "lat": 46.7827675,
  "lon": 15.4531166
},
{
  "type": "node",
  "id": 5469853264,
  "lat": 46.7826186,
  "lon": 15.4530125
},
{
  "type": "node",
  "id": 3405068285,
  "lat": 46.7366982,
  "lon": 15.5704042
},
{
  "type": "node",
  "id": 3405068286,
  "lat": 46.7366998,
  "lon": 15.5703296
},
{
  "type": "node",
  "id": 3405068290,
  "lat": 46.7367246,
  "lon": 15.5703651
},
{
  "type": "node",
  "id": 3405068393,
  "lat": 46.7367446,
  "lon": 15.5704709
},
{
  "type": "node",
  "id": 3405068397,
  "lat": 46.7367524,
  "lon": 15.5702517
},
{
  "type": "node",
  "id": 3405068399,
  "lat": 46.7367709,
  "lon": 15.5704318
},
{
  "type": "node",
  "id": 3405068403,
  "lat": 46.7368184,
  "lon": 15.5705000
},
{
  "type": "node",
  "id": 3405068416,
  "lat": 46.7368710,
  "lon": 15.5704221
},
{
  "type": "node",
  "id": 1451251265,
  "lat": 46.7740359,
  "lon": 15.5232207
},
{
  "type": "node",
  "id": 1451251268,
  "lat": 46.7740895,
  "lon": 15.5233487
},
{
  "type": "node",
  "id": 1451251273,
  "lat": 46.7741150,
  "lon": 15.5231502
},
{
  "type": "node",
  "id": 1451251288,
  "lat": 46.7741685,
  "lon": 15.5232782
},
{
  "type": "node",
  "id": 3569805177,
  "lat": 46.7740464,
  "lon": 15.5230063
},
{
  "type": "node",
  "id": 3569805178,
  "lat": 46.7740188,
  "lon": 15.5230291
},
{
  "type": "node",
  "id": 3569805179,
  "lat": 46.7740850,
  "lon": 15.5231739
},
{
  "type": "node",
  "id": 3569810599,
  "lat": 46.7740731,
  "lon": 15.5231479
},
{
  "type": "node",
  "id": 335315026,
  "lat": 46.7691637,
  "lon": 15.5688931
},
{
  "type": "node",
  "id": 335315032,
  "lat": 46.7691499,
  "lon": 15.5690139
},
{
  "type": "node",
  "id": 335315037,
  "lat": 46.7688274,
  "lon": 15.5689357
},
{
  "type": "node",
  "id": 335315043,
  "lat": 46.7688410,
  "lon": 15.5688145
},
{
  "type": "node",
  "id": 3212172131,
  "lat": 46.7688679,
  "lon": 15.5688214
},
{
  "type": "node",
  "id": 3212172135,
  "lat": 46.7688341,
  "lon": 15.5688720
},
{
  "type": "node",
  "id": 2596777268,
  "lat": 46.7338221,
  "lon": 15.7014111
},
{
  "type": "node",
  "id": 2596777285,
  "lat": 46.7338217,
  "lon": 15.7014180
},
{
  "type": "node",
  "id": 2596777291,
  "lat": 46.7338241,
  "lon": 15.7013755
},
{
  "type": "node",
  "id": 2596777322,
  "lat": 46.7338470,
  "lon": 15.7014203
},
{
  "type": "node",
  "id": 2596777324,
  "lat": 46.7338488,
  "lon": 15.7013778
},
{
  "type": "node",
  "id": 858916886,
  "lat": 46.7431929,
  "lon": 15.8168480
},
{
  "type": "node",
  "id": 858916908,
  "lat": 46.7432530,
  "lon": 15.8167525
},
{
  "type": "node",
  "id": 858916934,
  "lat": 46.7432113,
  "lon": 15.8166898
},
{
  "type": "node",
  "id": 858916956,
  "lat": 46.7431501,
  "lon": 15.8167838
},
{
  "type": "node",
  "id": 3406857012,
  "lat": 46.8480418,
  "lon": 15.6064124
},
{
  "type": "node",
  "id": 3406857015,
  "lat": 46.8481678,
  "lon": 15.6062660
},
{
  "type": "node",
  "id": 3406857016,
  "lat": 46.8481605,
  "lon": 15.6066310
},
{
  "type": "node",
  "id": 3406857018,
  "lat": 46.8482866,
  "lon": 15.6064846
},
{
  "type": "node",
  "id": 1413436835,
  "lat": 46.6887159,
  "lon": 15.9877013
},
{
  "type": "node",
  "id": 1413436868,
  "lat": 46.6887632,
  "lon": 15.9874144
},
{
  "type": "node",
  "id": 1413436938,
  "lat": 46.6888776,
  "lon": 15.9876571
},
{
  "type": "node",
  "id": 1413436941,
  "lat": 46.6888807,
  "lon": 15.9874419
},
{
  "type": "node",
  "id": 1413436953,
  "lat": 46.6888990,
  "lon": 15.9875578
},
{
  "type": "node",
  "id": 1413436984,
  "lat": 46.6889173,
  "lon": 15.9875578
},
{
  "type": "node",
  "id": 1413437002,
  "lat": 46.6889295,
  "lon": 15.9877822
},
{
  "type": "node",
  "id": 1413437007,
  "lat": 46.6889310,
  "lon": 15.9874663
},
{
  "type": "node",
  "id": 1413437138,
  "lat": 46.6890638,
  "lon": 15.9877135
},
{
  "type": "node",
  "id": 1413437143,
  "lat": 46.6890806,
  "lon": 15.9876387
},
{
  "type": "node",
  "id": 1413437157,
  "lat": 46.6890867,
  "lon": 15.9878417
},
{
  "type": "node",
  "id": 1413437171,
  "lat": 46.6891094,
  "lon": 15.9875522
},
{
  "type": "node",
  "id": 1413437172,
  "lat": 46.6891111,
  "lon": 15.9877379
},
{
  "type": "node",
  "id": 1413437186,
  "lat": 46.6891172,
  "lon": 15.9877120
},
{
  "type": "node",
  "id": 1413437221,
  "lat": 46.6891502,
  "lon": 15.9875728
},
{
  "type": "node",
  "id": 1413437226,
  "lat": 46.6891615,
  "lon": 15.9876876
},
{
  "type": "node",
  "id": 1413437248,
  "lat": 46.6891768,
  "lon": 15.9875975
},
{
  "type": "node",
  "id": 1413437256,
  "lat": 46.6891921,
  "lon": 15.9877957
},
{
  "type": "node",
  "id": 1413437260,
  "lat": 46.6891997,
  "lon": 15.9877837
},
{
  "type": "node",
  "id": 1413437268,
  "lat": 46.6892180,
  "lon": 15.9877212
},
{
  "type": "node",
  "id": 1413437293,
  "lat": 46.6892442,
  "lon": 15.9876276
},
{
  "type": "node",
  "id": 1413437295,
  "lat": 46.6892497,
  "lon": 15.9878591
},
{
  "type": "node",
  "id": 1413437360,
  "lat": 46.6893301,
  "lon": 15.9876872
},
{
  "type": "way",
  "id": 108948388,
  "nodes": [
    1248710957,
    1248710934,
    1248710956,
    1248710986,
    1248711005,
    1248711031,
    1248710916,
    1248710962,
    1248710940,
    1248710981,
    1248711001,
    1248711027,
    1248710957
  ]
},
{
  "type": "way",
  "id": 463129387,
  "nodes": [
    4584385266,
    4584385267,
    4584385268,
    4584385269,
    4584385270,
    4584385271,
    4584385272,
    4584385266
  ]
}

  ]
}
