{
  "version": 0.6,
  "generator": "Overpass API 0.7.55.9 ab41fea6",
  "osm3s": {
    "timestamp_osm_base": "2020-02-14T10:22:02Z",
    "copyright": "The data included in this document is from www.openstreetmap.org. The data is made available under ODbL."
  },
  "elements": [

{
  "type": "node",
  "id": 248955008,
  "lat": 49.6422299,
  "lon": 8.6450844,
  "tags": {
    "ele": "115.48",
    "internet_access": "wlan",
    "name": "Heimatmuseum",
    "operator": "Stadt Heppenheim",
    "tourism": "museum",
    "website": "https://www.heppenheim.de/",
    "wheelchair": "no"
  }
},
{
  "type": "node",
  "id": 251472583,
  "lat": 49.2393359,
  "lon": 8.8974511,
  "tags": {
    "addr:city": "Sinsheim",
    "addr:country": "DE",
    "addr:housenumber": "2",
    "addr:postcode": "74889",
    "addr:street": "Eberhard-Layher-Straße",
    "email": "info@technik-museum.de",
    "fax": "+49 7261 13916",
    "name": "Auto & Technik Museum Sinsheim",
    "name:uk": "Музей техніки в Зінсгаймі",
    "opening_hours": "Mo-Fr 09:00-18:00; Sa,Su,PH 09:00-19:00",
    "phone": "+49 7261 92990",
    "toilets:wheelchair": "yes",
    "tourism": "museum",
    "url:official": "http://www.technik-museum.de/",
    "website": "https://sinsheim.technik-museum.de/",
    "wheelchair": "limited",
    "wikidata": "Q374459",
    "wikipedia": "de:Auto- und Technikmuseum Sinsheim"
  }
},
{
  "type": "node",
  "id": 253620718,
  "lat": 49.2215589,
  "lon": 8.3714151,
  "tags": {
    "name": "Stadt und Festungsmuseum Germersheim",
    "opening_hours": "\"geöffnet von April bis Dezember, jeden ersten Sonntag im Monat, von 10 bis 17 Uhr\"",
    "tourism": "museum",
    "wikidata": "Q76636971"
  }
},
{
  "type": "node",
  "id": 253620807,
  "lat": 49.2214475,
  "lon": 8.3754877,
  "tags": {
    "addr:city": "Germersheim",
    "addr:country": "DE",
    "addr:postcode": "76726",
    "contact:website": "http://deutsches-strassenmuseum.de",
    "fee": "yes",
    "lastcheck": "2016-07-30",
    "name": "Deutsches Straßenmuseum",
    "opening_hours": "Tu-Fr 10:00-18:00; Sa,Su 11:00-18:00",
    "tourism": "museum",
    "wikidata": "Q1206017",
    "wikipedia": "de:Deutsches Straßenmuseum"
  }
},
{
  "type": "node",
  "id": 262142383,
  "lat": 49.3886725,
  "lon": 9.0102884,
  "tags": {
    "name": "Heimatmuseum",
    "toilets:wheelchair": "no",
    "tourism": "museum"
  }
},
{
  "type": "node",
  "id": 267889562,
  "lat": 49.4113671,
  "lon": 8.7028964,
  "tags": {
    "addr:city": "Heidelberg",
    "addr:country": "DE",
    "addr:housenumber": "97",
    "addr:postcode": "69117",
    "addr:street": "Hauptstraße",
    "contact:fax": "+49 6221 5834900",
    "contact:phone": "+49 6221 5834020",
    "contact:website": "http://www.museum-heidelberg.de",
    "fee": "yes",
    "lastcheck": "2016-12-29",
    "name": "Kurpfälzisches Museum",
    "opening_hours": "Tu-Su 10:00-18:00",
    "toilets:wheelchair": "yes",
    "tourism": "museum",
    "wheelchair": "limited",
    "wheelchair:description": "Nicht alle Ausstellungen erreichbar.",
    "wikidata": "Q874724",
    "wikipedia": "de:Kurpfälzisches Museum der Stadt Heidelberg"
  }
},
{
  "type": "node",
  "id": 268283188,
  "lat": 49.3657102,
  "lon": 8.3085578,
  "tags": {
    "name": "Heimatmuseum Altes Rathaus",
    "tourism": "museum",
    "wheelchair": "no"
  }
},
{
  "type": "node",
  "id": 283617999,
  "lat": 49.3931758,
  "lon": 8.7993992,
  "tags": {
    "addr:housenumber": "25",
    "addr:street": "Hauptstraße",
    "name": "Museum im Alten Rathaus",
    "tourism": "museum"
  }
},
{
  "type": "node",
  "id": 300164883,
  "lat": 49.4576776,
  "lon": 8.2939741,
  "tags": {
    "name": "Deutsches Kartoffelmuseum",
    "phone": "+49-06237-929266",
    "tourism": "museum",
    "wikidata": "Q1205760",
    "wikipedia:de": "Synagoge (Fußgönheim)"
  }
},
{
  "type": "node",
  "id": 305695273,
  "lat": 49.1368284,
  "lon": 8.6101561,
  "tags": {
    "name": "Streuobstmuseum",
    "tourism": "museum"
  }
},
{
  "type": "node",
  "id": 305730147,
  "lat": 49.1270289,
  "lon": 8.5212431,
  "tags": {
    "name": "Heimatmuseum Neuthard",
    "tourism": "museum"
  }
},
{
  "type": "node",
  "id": 310458297,
  "lat": 49.3595462,
  "lon": 8.7838587,
  "tags": {
    "name": "Heimatmuseum Bammental",
    "tourism": "museum"
  }
},
{
  "type": "node",
  "id": 314432376,
  "lat": 49.1232318,
  "lon": 8.7151536,
  "tags": {
    "name": "Torwächterhaus",
    "source": "http://www.kraichtal.de/Torwaechterhaus.253.0.html",
    "tourism": "museum",
    "wheelchair": "no"
  }
},
{
  "type": "node",
  "id": 318244183,
  "lat": 49.2493707,
  "lon": 8.7269577,
  "tags": {
    "addr:city": "Mühlhausen",
    "addr:housenumber": "5",
    "addr:postcode": "69242",
    "addr:street": "Untere Mühlstraße",
    "name": "Museumshaus",
    "operator": "Gemeinde Mühlhausen",
    "tourism": "museum",
    "website": "https://www.muehlhausen-kraichgau.de/index.php?id=146"
  }
},
{
  "type": "node",
  "id": 322589694,
  "lat": 49.1039494,
  "lon": 8.7492451,
  "tags": {
    "addr:city": "Kraichtal",
    "addr:housenumber": "20",
    "addr:street": "Hintere Gasse",
    "name": "Deutsches Zuckerbäckermuseum",
    "tourism": "museum"
  }
},
{
  "type": "node",
  "id": 322589699,
  "lat": 49.1039724,
  "lon": 8.7494599,
  "tags": {
    "addr:city": "Kraichtal",
    "addr:housenumber": "2",
    "addr:street": "Rudolf-Herzer-Platz",
    "name": "Badisches Bäckereimuseum",
    "tourism": "museum"
  }
},
{
  "type": "node",
  "id": 353270272,
  "lat": 49.4519455,
  "lon": 8.6778260,
  "tags": {
    "email": "Hefi.dossenheim@web.de",
    "name": "Heimatmuseum",
    "opening_hours": "Su[3] 14:00-17:00",
    "phone": "+49 6221 869769",
    "tourism": "museum",
    "website": "https://www.dossenheim.de/pb/168984.html"
  }
},
{
  "type": "node",
  "id": 357378092,
  "lat": 49.3150643,
  "lon": 8.8860995,
  "tags": {
    "name": "Heimatmuseum",
    "tourism": "museum"
  }
},
{
  "type": "node",
  "id": 370144322,
  "lat": 49.6927680,
  "lon": 8.8595353,
  "tags": {
    "name": "Keilvelterhof",
    "tourism": "museum"
  }
},
{
  "type": "node",
  "id": 373420235,
  "lat": 49.1994614,
  "lon": 8.6426547,
  "tags": {
    "name": "Heimatmuseum",
    "tourism": "museum"
  }
},
{
  "type": "node",
  "id": 392080832,
  "lat": 49.6829623,
  "lon": 8.7777449,
  "tags": {
    "addr:city": "Lindenfels",
    "addr:housenumber": "40",
    "addr:postcode": "64678",
    "addr:street": "Burgstraße",
    "name": "Lindenfelser Museum (Heimatmuseum)",
    "opening_hours": "Apr-Oct Su,PH 14:00-17:00",
    "tourism": "museum"
  }
},
{
  "type": "node",
  "id": 416625972,
  "lat": 49.5468823,
  "lon": 8.6726405,
  "tags": {
    "addr:city": "Weinheim",
    "addr:housenumber": "2",
    "addr:postcode": "69469",
    "addr:street": "Amtsgasse",
    "name": "Museum der Stadt Weinheim",
    "tourism": "museum",
    "wikidata": "Q76632319"
  }
},
{
  "type": "node",
  "id": 427136655,
  "lat": 49.4728260,
  "lon": 8.4755863,
  "tags": {
    "description": "Landmaschinenmuseum",
    "name": "John Deere Forum",
    "opening_hours": "Mo-Fr 09:00-17:00; Su 11:00-17:00",
    "tourism": "museum",
    "website": "http://www.deere.de/wps/dcom/de_DE/our_company/forum/forum.page",
    "wheelchair": "limited"
  }
},
{
  "type": "node",
  "id": 428842668,
  "lat": 49.1368542,
  "lon": 8.9113558,
  "tags": {
    "addr:city": "Eppingen",
    "addr:country": "DE",
    "addr:housenumber": "1",
    "addr:postcode": "75031",
    "addr:street": "Eichgasse",
    "alt_name": "Privatmuseum Sack",
    "name": "Kultur-Historisches Museum",
    "tourism": "museum",
    "website": "http://www.heimat2010.de/themen/privatmuseum-sack/",
    "wikidata": "Q1791568",
    "wikipedia": "de:Kultur-Historisches Museum (Eppingen)"
  }
},
{
  "type": "node",
  "id": 429962659,
  "lat": 49.1374524,
  "lon": 8.9115389,
  "tags": {
    "name": "Alte Universität",
    "opening_hours": "PH,We-Su 14:00-16:00",
    "tourism": "museum",
    "wheelchair": "no"
  }
},
{
  "type": "node",
  "id": 476975834,
  "lat": 49.2815890,
  "lon": 8.4736386,
  "tags": {
    "addr:city": "Oberhausen-Rheinhausen",
    "addr:country": "DE",
    "addr:housenumber": "3",
    "addr:postcode": "68794",
    "addr:street": "Hauptstraße",
    "addr:suburb": "Rheinhausen",
    "fee": "no",
    "museum": "history",
    "name": "Postmuseum",
    "name:hu": "Postamúzeum",
    "opening_hours": "Su[2] 15:00-17:00; Aug off",
    "operator": "Heimatverein e.V. Oberhausen-Rheinhausen",
    "start_date": "1990",
    "tourism": "museum",
    "website": "http://www.oberhausen-rheinhausen.de/index.php?id=37",
    "wheelchair": "no"
  }
},
{
  "type": "node",
  "id": 534654175,
  "lat": 49.2202382,
  "lon": 8.6608100,
  "tags": {
    "addr:city": "Bad Schönborn",
    "addr:country": "DE",
    "addr:housenumber": "16",
    "addr:postcode": "76669",
    "addr:street": "Monestraße",
    "name": "Puppenmuseum",
    "phone": "+49 7253 50520",
    "tourism": "museum"
  }
},
{
  "type": "node",
  "id": 734415575,
  "lat": 49.3164137,
  "lon": 8.4392827,
  "tags": {
    "addr:city": "Speyer",
    "addr:country": "DE",
    "addr:housenumber": "21",
    "addr:postcode": "67346",
    "addr:street": "Kleine Pfaffengasse",
    "name": "Johann-Joachim-Becher-Haus",
    "opening_hours": "\"Auf Anfrage\"",
    "phone": "+49 6232/103213",
    "tourism": "museum",
    "website": "https://www.johann-joachim-becher.de/",
    "wheelchair": "limited",
    "wheelchair:description": "1 Stufe, keine Behindertentoilette, Behindertenparkplatz vorhanden"
  }
},
{
  "type": "node",
  "id": 734666637,
  "lat": 49.2530280,
  "lon": 8.8769950,
  "tags": {
    "name": "Heimatmuseum Sinsheim",
    "tourism": "museum",
    "wheelchair": "no"
  }
},
{
  "type": "node",
  "id": 740706854,
  "lat": 49.2674602,
  "lon": 8.5985757,
  "tags": {
    "addr:city": "St. Leon-Rot",
    "addr:country": "DE",
    "addr:housenumber": "81",
    "addr:street": "Marktstraße",
    "name": "Heimatmuseum St. Leon-Rot",
    "tourism": "museum"
  }
},
{
  "type": "node",
  "id": 757357500,
  "lat": 49.3162621,
  "lon": 8.8652376,
  "tags": {
    "name": "Freilichtmuseum Sellemols Agger",
    "opening_hours": "24/7",
    "tourism": "museum"
  }
},
{
  "type": "node",
  "id": 757357694,
  "lat": 49.3207016,
  "lon": 8.8659956,
  "tags": {
    "addr:city": "Eschelbronn",
    "addr:country": "DE",
    "addr:postcode": "74927",
    "name": "Schreiner- und Heimatmuseum",
    "opening_hours": "\"nach Vereinbarung\"",
    "tourism": "museum",
    "wheelchair": "no"
  }
},
{
  "type": "node",
  "id": 759766937,
  "lat": 49.3863102,
  "lon": 8.3707697,
  "tags": {
    "addr:city": "Schifferstadt",
    "addr:housenumber": "17",
    "addr:postcode": "67105",
    "addr:street": "Kirchenstraße",
    "lastcheck": "2016-12-13",
    "name": "Heimatmuseum",
    "opening_hours": "May-Oct: Su[1] 10:00-12:00",
    "tourism": "museum"
  }
},
{
  "type": "node",
  "id": 759767113,
  "lat": 49.3863306,
  "lon": 8.3720993,
  "tags": {
    "addr:city": "Schifferstadt",
    "addr:housenumber": "2",
    "addr:postcode": "67105",
    "addr:street": "Bäckergasse",
    "contact:website": "http://www.ringermuseum.de/",
    "lastcheck": "2016-12-13",
    "name": "Deutsches Ringermuseum",
    "opening_hours": "Su[1] 10:00-12:00",
    "tourism": "museum"
  }
},
{
  "type": "node",
  "id": 880906379,
  "lat": 49.4786764,
  "lon": 8.4548251,
  "tags": {
    "name": "Ernst-Bloch-Zentrum",
    "opening_hours": "Tu,We 14:00-17:00; Th 14:00-20:00",
    "tourism": "museum",
    "website": "https://www.bloch.de/",
    "wheelchair": "yes",
    "wikidata": "Q76637134"
  }
},
{
  "type": "node",
  "id": 945892414,
  "lat": 49.4433543,
  "lon": 8.3543867,
  "tags": {
    "addr:city": "Mutterstadt",
    "addr:country": "DE",
    "addr:housenumber": "13",
    "addr:postcode": "67112",
    "addr:street": "Oggersheimer Straße",
    "building": "yes",
    "name": "Museum für Ortsgeschichte",
    "tourism": "museum",
    "wheelchair": "no"
  }
},
{
  "type": "node",
  "id": 946839577,
  "lat": 49.3377898,
  "lon": 8.9107873,
  "tags": {
    "name": "Heimatmuseum Epfenbach",
    "tourism": "museum"
  }
},
{
  "type": "node",
  "id": 947046510,
  "lat": 49.3181488,
  "lon": 8.5465281,
  "tags": {
    "name": "Tabakmuseum",
    "tourism": "museum",
    "wheelchair": "yes"
  }
},
{
  "type": "node",
  "id": 968058850,
  "lat": 49.7215017,
  "lon": 8.6940139,
  "tags": {
    "ele": "219",
    "hiking": "yes",
    "information": "office",
    "name": "Felsenmeer Informationszentrum",
    "opening_hours": "10:00-16:00",
    "operator": "Odenwaldklub",
    "phone": "+49 6254 940160",
    "short_name": "FIZ",
    "tourism": "museum",
    "website": "http://www.felsenmeer-informationszentrum.de"
  }
},
{
  "type": "node",
  "id": 983696390,
  "lat": 49.3164380,
  "lon": 8.4394970,
  "tags": {
    "addr:city": "Speyer",
    "addr:country": "DE",
    "addr:housenumber": "20/21",
    "addr:postcode": "67346",
    "addr:street": "Kleine Pfaffengasse",
    "contact:phone": "+49 6232 291971",
    "contact:website": "http://www.speyer.de/sv_speyer/de/Tourismus/Museen%20und%20Lernorte/Museum%20SchPIRA/",
    "fee": "yes",
    "lastcheck": "2016-07-30",
    "name": "Museum SchPIRA",
    "opening_hours": "Nov-Mar: Tu-Su 10:00-16:00; Apr-Oct: Tu-Su 10:00-17:00",
    "tourism": "museum",
    "wheelchair": "yes",
    "wheelchair:description": "ebenerdig, schwellenlos erreichbar (aber Synagoge und Mikwe über Treppen), mit Behindertentoilette, mit Behindertenparkplatz",
    "wikidata": "Q22600",
    "wikipedia": "de:Museum SchPIRA"
  }
},
{
  "type": "node",
  "id": 1184177036,
  "lat": 49.1287096,
  "lon": 8.5981156,
  "tags": {
    "addr:city": "Bruchsal",
    "addr:country": "DE",
    "addr:housenumber": "4",
    "addr:postcode": "76646",
    "addr:street": "Schloßraum",
    "name": "Deutsches Musikautomatenmuseum",
    "opening_hours": "Tu-Su 10:00-17:00",
    "operator": "Badisches Landesmuseum",
    "toilets:wheelchair": "yes",
    "tourism": "museum",
    "website": "http://www.dmm-bruchsal.de",
    "wheelchair": "yes",
    "wikidata": "Q1205844"
  }
},
{
  "type": "node",
  "id": 1291944317,
  "lat": 49.5452419,
  "lon": 8.4433988,
  "tags": {
    "addr:city": "Mannheim",
    "addr:country": "DE",
    "addr:postcode": "68307",
    "addr:street": "Kriegerstraße",
    "fax": "+49 621 33856-16",
    "historic": "yes",
    "name": "KZ-Gedenkstätte Sandhofen",
    "phone": "+49 621 33856-0",
    "tourism": "museum",
    "website": "http://www.kz-gedenkstaette-sandhofen.de/"
  }
},
{
  "type": "node",
  "id": 1300163591,
  "lat": 49.4190214,
  "lon": 8.6744470,
  "tags": {
    "addr:city": "Heidelberg",
    "addr:housenumber": "235",
    "addr:postcode": "69120",
    "addr:street": "Im Neuenheimer Feld",
    "contact:website": "https://www.uni-heidelberg.de/einrichtungen/museen/geowissenschaften.html",
    "lastcheck": "2016-11-19",
    "name": "Museum Geowissenschaften",
    "opening_hours": "Mo-Fr 08:00-17:00 || \"Am Wochenende auf Anfrage\"",
    "tourism": "museum",
    "wheelchair": "no"
  }
},
{
  "type": "node",
  "id": 1324802486,
  "lat": 49.4113863,
  "lon": 8.7066904,
  "tags": {
    "addr:city": "Heidelberg",
    "addr:country": "DE",
    "addr:housenumber": "2",
    "addr:postcode": "69117",
    "addr:street": "Augustinergasse",
    "contact:email": "unishop@uni-heidelberg.de",
    "contact:phone": "+49 6221 543554",
    "contact:website": "http://www.unishop.uni-hd.de",
    "name": "Studentenmuseum mit Karzer",
    "name:zh": "學生監獄",
    "opening_hours": "Mo-Sa 10:00-16:00",
    "tourism": "museum",
    "wheelchair": "no",
    "wikidata": "Q1387313",
    "wikipedia": "de:Studentenkarzer (Heidelberg)"
  }
},
{
  "type": "node",
  "id": 1354166261,
  "lat": 49.2378956,
  "lon": 8.4525920,
  "tags": {
    "addr:city": "Philippsburg",
    "addr:country": "DE",
    "addr:housenumber": "1",
    "addr:postcode": "76661",
    "addr:street": "Kronenwerkstraße",
    "name": "Heimatmuseum",
    "phone": "+49-7256-7930",
    "tourism": "museum",
    "website": "http://www.heimatverein-philippsburg.de/",
    "wikidata": "Q76631760"
  }
},
{
  "type": "node",
  "id": 1412648912,
  "lat": 49.4178595,
  "lon": 8.6743102,
  "tags": {
    "name": "Zoologisches Museum",
    "tourism": "museum",
    "wheelchair": "limited"
  }
},
{
  "type": "node",
  "id": 1543970931,
  "lat": 49.6825762,
  "lon": 8.7788338,
  "tags": {
    "addr:city": "Lindenfels",
    "addr:postcode": "64678",
    "addr:street": "In der Stadt",
    "name": "Das Deutsche Drachenmuseum Lindenfels",
    "tourism": "museum"
  }
},
{
  "type": "node",
  "id": 1591596441,
  "lat": 49.1897516,
  "lon": 8.3804501,
  "tags": {
    "addr:city": "Germersheim",
    "addr:country": "DE",
    "addr:housename": "Alte Ziegelei",
    "addr:postcode": "76726",
    "description": "1834 gegründete, ehem. Ziegelei Stubenrauch, heute Industriedenkmal, mit 1,2 km langer Feldbahn",
    "lastcheck": "2017-11-07",
    "name": "Ziegeleimuseum Sondernheim",
    "opening_hours": "Apr-Oct: Su[1] 10:00-15:00",
    "tourism": "museum",
    "website": "http://www.ziegelei-sondernheim.de/",
    "wikidata": "Q15136188"
  }
},
{
  "type": "node",
  "id": 1637486928,
  "lat": 49.4797964,
  "lon": 8.4439530,
  "tags": {
    "addr:city": "Ludwigshafen am Rhein",
    "addr:country": "DE",
    "addr:housenumber": "23",
    "addr:postcode": "67059",
    "addr:street": "Berliner Straße",
    "fax": "+496215043780",
    "name": "Wilhelm-Hack-Museum",
    "phone": "+496215043045",
    "tourism": "museum",
    "wheelchair": "yes",
    "wikidata": "Q499901",
    "wikipedia:de": "Wilhelm-Hack-Museum"
  }
},
{
  "type": "node",
  "id": 1800247005,
  "lat": 49.4629189,
  "lon": 8.5550950,
  "tags": {
    "addr:city": "Mannheim",
    "addr:housenumber": "94",
    "addr:postcode": "68239",
    "addr:street": "Kloppenheimer Straße",
    "name": "Aufzugsmuseum",
    "operator": "Lochbühler Aufzüge GmbH",
    "start_date": "2012-06",
    "tourism": "museum",
    "website": "http://www.lochbuehler.de/"
  }
},
{
  "type": "node",
  "id": 1849689851,
  "lat": 49.5043388,
  "lon": 8.4836185,
  "tags": {
    "name": "Imkereiausstellung Bienenzuechterverein Mannheim",
    "tourism": "museum"
  }
},
{
  "type": "node",
  "id": 1880120982,
  "lat": 49.3169274,
  "lon": 8.4332553,
  "tags": {
    "addr:city": "Speyer",
    "addr:country": "DE",
    "addr:housenumber": "3",
    "addr:postcode": "67346",
    "addr:street": "Antoniengasse",
    "lastcheck": "2016-07-30",
    "name": "Elwedritsche-Museum Speyer",
    "opening_hours": "Mo-Sa 14:00-22:00",
    "phone": "+49 (0) 6232 9005050",
    "tourism": "museum",
    "website": "http://www.elwedritsche-museum.de/"
  }
},
{
  "type": "node",
  "id": 2335222458,
  "lat": 49.4574733,
  "lon": 8.2946047,
  "tags": {
    "name": "Freilichtmuseum Fußgönheim",
    "tourism": "museum"
  }
},
{
  "type": "node",
  "id": 2335222459,
  "lat": 49.4574602,
  "lon": 8.2942693,
  "tags": {
    "addr:housenumber": "67",
    "addr:street": "Hauptstraße",
    "name": "Heimatmuseum Fußgönheim",
    "phone": "+49-06237-3288",
    "tourism": "museum",
    "website": "http://www.hkk-fussgoenheim.de/"
  }
},
{
  "type": "node",
  "id": 2345308282,
  "lat": 49.4960486,
  "lon": 8.4310887,
  "tags": {
    "name": "BASF Besucherzentrum",
    "name:de": "BASF Besucherzentrum",
    "name:en": "BASF Visitor Center",
    "toilets:wheelchair": "yes",
    "tourism": "museum",
    "website": "http://besucherzentrum.basf.de/ecp1/vc/en/",
    "wheelchair": "yes"
  }
},
{
  "type": "node",
  "id": 2378780215,
  "lat": 49.3998124,
  "lon": 9.0726122,
  "tags": {
    "name": "Fremdenverkehrsverein",
    "tourism": "museum"
  }
},
{
  "type": "node",
  "id": 2398328144,
  "lat": 49.3926574,
  "lon": 8.5957009,
  "tags": {
    "name": "Heimatmuseum",
    "tourism": "museum"
  }
},
{
  "type": "node",
  "id": 2421161970,
  "lat": 49.4079846,
  "lon": 8.6887219,
  "tags": {
    "addr:housenumber": "36/5",
    "addr:street": "Poststraße",
    "layer": "1",
    "level": "1",
    "name": "Körperwelten",
    "opening_hours": "Mo-Fr 09:00-18:00; Sa,Su,PH 10:00-18:00",
    "tourism": "museum",
    "website": "https://koerperwelten.de/ausstellung/heidelberg/",
    "wheelchair": "yes",
    "wheelchair:description": "oberes Stockwerk (ca. 30% der Ausstellung) nur über Treppe erreichbar. Aufzug erst ab Mitte 2018"
  }
},
{
  "type": "node",
  "id": 2481638564,
  "lat": 49.5660440,
  "lon": 8.8511130,
  "tags": {
    "addr:city": "Wald-Michelbach",
    "addr:postcode": "69483",
    "contact:website": "http://grube-ludwig.de/",
    "designation": "Museumsbergwerk",
    "historic": "mine",
    "lastcheck": "2017-04-13",
    "man_made": "adit",
    "name": "Grube Ludwig",
    "tourism": "museum",
    "wikidata": "Q21035609"
  }
},
{
  "type": "node",
  "id": 2501670073,
  "lat": 49.4127586,
  "lon": 8.7089510,
  "tags": {
    "addr:city": "Heidelberg",
    "addr:country": "DE",
    "addr:housenumber": "12",
    "addr:postcode": "69117",
    "addr:street": "Haspelgasse",
    "lastcheck": "2017-05-19",
    "name": "Haus Cajeth",
    "opening_hours": "Mo-Sa 11:00-17:00",
    "phone": "+49622124466",
    "source": "lokal knowledge",
    "tourism": "museum",
    "website": "http://www.cajeth.de",
    "wheelchair": "no"
  }
},
{
  "type": "node",
  "id": 2523975062,
  "lat": 49.4019632,
  "lon": 8.6297329,
  "tags": {
    "name": "Deutsche Hasenmuseum",
    "tourism": "museum",
    "website": "https://www.eppelheim.de/p/d3.asp?artikel_id=1307",
    "wheelchair": "no"
  }
},
{
  "type": "node",
  "id": 2631056000,
  "lat": 49.4984921,
  "lon": 8.4112212,
  "tags": {
    "name": "Museum Friesenheim",
    "tourism": "museum",
    "wikidata": "Q76637139"
  }
},
{
  "type": "node",
  "id": 2704072950,
  "lat": 49.3417217,
  "lon": 8.7979529,
  "tags": {
    "name": "Urgeschichtliches Museum",
    "tourism": "museum",
    "website": "https://www.gemeinde-mauer.de/pb/,Lde/110574.html",
    "wikidata": "Q76631527"
  }
},
{
  "type": "node",
  "id": 2750143441,
  "lat": 49.3393961,
  "lon": 8.7994718,
  "tags": {
    "name": "Homo heidelbergensis",
    "tourism": "museum",
    "website": "http://www.homoheidelbergensis.de/",
    "wheelchair": "limited"
  }
},
{
  "type": "node",
  "id": 2976036832,
  "lat": 49.3781438,
  "lon": 8.6929532,
  "tags": {
    "name": "Heimatmuseum Rohrbach",
    "tourism": "museum",
    "website": "http://www.heidelberg-rohrbach.com/index.php/heimatmuseum.html",
    "wheelchair": "no"
  }
},
{
  "type": "node",
  "id": 3013955525,
  "lat": 49.5349948,
  "lon": 8.5782001,
  "tags": {
    "name": "Kunstverein Viernheim",
    "opening_hours": "Th,Fr 15:00-18:00;Sa 10:00-13:00",
    "tourism": "museum",
    "website": "http://www.kunstverein-viernheim.de/"
  }
},
{
  "type": "node",
  "id": 3074116278,
  "lat": 49.3183587,
  "lon": 8.2992434,
  "tags": {
    "addr:city": "Haßloch",
    "addr:postcode": "67454",
    "contact:website": "http://www.holidaypark-uptodate.de/holiday-park-museum",
    "name": "Holiday Park Museum",
    "tourism": "museum",
    "wheelchair": "yes"
  }
},
{
  "type": "node",
  "id": 3735155133,
  "lat": 49.6686013,
  "lon": 8.7454904,
  "tags": {
    "name": "Dorfmuseum",
    "opening_hours": "Su 10:00+",
    "tourism": "museum"
  }
},
{
  "type": "node",
  "id": 3926950918,
  "lat": 49.4072727,
  "lon": 8.8373905,
  "tags": {
    "name": "Eichendorff-Museum",
    "tourism": "museum"
  }
},
{
  "type": "node",
  "id": 3951855701,
  "lat": 49.2928063,
  "lon": 8.5235811,
  "tags": {
    "name": "Turmuhrenmuseum Neulußheim",
    "opening_hours": "We 16:00-18:00; Su[2] 14:00-18:00",
    "toilets:wheelchair": "no",
    "tourism": "museum",
    "website": "http://www.turmuhrenmuseum-neulussheim.de",
    "wheelchair": "no",
    "wikidata": "Q18028791"
  }
},
{
  "type": "node",
  "id": 4146081790,
  "lat": 49.5924742,
  "lon": 8.4717914,
  "tags": {
    "addr:housenumber": "21",
    "addr:street": "Römerstraße",
    "name": "Heimatmuseum Lampertheim",
    "tourism": "museum",
    "website": "http://www.heimatmuseum-lampertheim.de",
    "wikidata": "Q76633993"
  }
},
{
  "type": "node",
  "id": 4294013709,
  "lat": 49.4098894,
  "lon": 8.6957273,
  "tags": {
    "addr:housenumber": "22",
    "addr:street": "Hauptstraße",
    "description": "Innenhof",
    "fax": "+49 6221 658414",
    "name": "Deutsches Verpackungsmuseum",
    "name:zh": "包裝博物館",
    "opening_hours": "We-Fr 13:00-18:00;Sa,Su 11:00-18:00;Mo,Tu off",
    "operator": "Förderverein Deutsches Verpackungs-Museum e.V.",
    "phone": "+49 6221 21361",
    "tourism": "museum",
    "website": "https://www.verpackungsmuseum.de/",
    "wheelchair": "no"
  }
},
{
  "type": "node",
  "id": 4498336858,
  "lat": 49.5464150,
  "lon": 8.4497111,
  "tags": {
    "addr:city": "Mannheim",
    "addr:country": "DE",
    "addr:street": "Birnbaumstraße",
    "contact:website": "http://www.zgma.de/",
    "description": "Ausstellung von der Zeit der fliegenden Zigarren über den 1.Weltkrieg, hin zur Machtübernahme des NS Regimes bis zum katastrophalen Zusammenbruch und der Verbombung Mannheims und einer Zusammenstellung der Zeit der US-Armee",
    "lastcheck": "2016-11-19",
    "name": "Zeitgeschichtliches Museum Mannheim",
    "opening_hours": "Su[1],Su[3] 14:00-17:00",
    "operator": "Heimatmuseum Sandhofen e.V.",
    "short_name": "ZGMA",
    "tourism": "museum",
    "wikidata": "Q67204924"
  }
},
{
  "type": "node",
  "id": 4498339489,
  "lat": 49.5464672,
  "lon": 8.4490882,
  "tags": {
    "addr:city": "Mannheim",
    "addr:country": "DE",
    "addr:street": "Bartholomäusstraße",
    "name": "Heimatmuseum Sandhofen",
    "opening_hours": "Su[1],Su[3] 14:00-17:00 || \"während der Sommerferien geschlossen\"",
    "operator": "Heimatmuseum Sandhofen e.V.",
    "tourism": "museum"
  }
},
{
  "type": "node",
  "id": 4569004995,
  "lat": 49.3698193,
  "lon": 8.5825204,
  "tags": {
    "addr:postcode": "68723",
    "name": "Heimatmuseum Oftersheim",
    "operator": "Gemeinde Oftersheim",
    "tourism": "museum"
  }
},
{
  "type": "node",
  "id": 4621823205,
  "lat": 49.5181518,
  "lon": 8.5344060,
  "tags": {
    "name": "ZEITSTROM-Haus",
    "opening_hours": "Mo-Fr 10:00-16:00; Sa 13:00-16:00",
    "start_date": "2016",
    "tourism": "museum",
    "website": "https://franklin-mannheim.de/franklin-field/zeitstrom"
  }
},
{
  "type": "node",
  "id": 4857343885,
  "lat": 49.4097516,
  "lon": 8.7058892,
  "tags": {
    "addr:city": "Heidelberg",
    "addr:housenumber": "107-109",
    "addr:postcode": "69117",
    "addr:street": "Plöck",
    "fee": "no",
    "name": "Universitätsbibliothek Heidelberg",
    "opening_hours": "Mo-Fr 08:30-01:00; Sa-Su 09:00-01:00; PH off",
    "toilets:wheelchair": "yes",
    "tourism": "museum",
    "website": "https://www.uni-heidelberg.de/einrichtungen/museen/universitaetsbibliothek.html",
    "wheelchair": "yes"
  }
},
{
  "type": "node",
  "id": 4872984638,
  "lat": 49.4128998,
  "lon": 8.7132063,
  "tags": {
    "addr:housenumber": "21",
    "addr:street": "Heiliggeiststraße",
    "name": "Forum für Kunst",
    "tourism": "museum",
    "website": "http://www.heidelberger-forum-fuer-kunst.de"
  }
},
{
  "type": "node",
  "id": 5100400111,
  "lat": 49.4124781,
  "lon": 8.7083167,
  "tags": {
    "addr:housenumber": "18",
    "addr:street": "Pfaffengasse",
    "fee": "no",
    "name": "Reichspräsident-Friedrich-Ebert-Gedenkstätte",
    "opening_hours": "Tu,We,Fr,Sa,Su 10:00-18:00; Th 10:00-20:00",
    "tourism": "museum",
    "website": "https://www.ebert-gedenkstaette.de/"
  }
},
{
  "type": "node",
  "id": 5111795980,
  "lat": 49.4828501,
  "lon": 8.4621817,
  "tags": {
    "name": "Schlossmuseum",
    "opening_hours": "Tu-Su 10:00-17:00",
    "toilets:wheelchair": "yes",
    "tourism": "museum",
    "wheelchair": "yes"
  }
},
{
  "type": "node",
  "id": 5118289840,
  "lat": 49.2948141,
  "lon": 8.5776928,
  "tags": {
    "name": "Heimatmuseum",
    "tourism": "museum",
    "wheelchair": "no"
  }
},
{
  "type": "node",
  "id": 5120013012,
  "lat": 49.4878753,
  "lon": 8.5354169,
  "tags": {
    "addr:street": "Eintrachtstraße",
    "name": "Heimatmuseum Feudenheim",
    "opening_hours": "Apr-Oct: Su[2] 14:30-17:30",
    "operator": "Verein für Ortsgeschichte e.V.",
    "tourism": "museum"
  }
},
{
  "type": "node",
  "id": 5272753822,
  "lat": 49.5000928,
  "lon": 8.4614823,
  "tags": {
    "name": "Marchivum",
    "operator": "Stadt Mannheim",
    "toilets:wheelchair": "yes",
    "tourism": "museum",
    "wheelchair": "yes"
  }
},
{
  "type": "node",
  "id": 5316695366,
  "lat": 49.3620298,
  "lon": 8.8025689,
  "tags": {
    "addr:city": "Wiesenbach",
    "addr:housenumber": "8",
    "addr:postcode": "69257",
    "addr:street": "Poststraße",
    "name": "Alte Ziegelei Wiesenbach",
    "opening_hours": "\"nach telefonischer Vereinbarung +49 6223 95020 (Gemeinde Wiesenbach)\"",
    "start_date": "2000",
    "tourism": "museum",
    "website": "http://www.heimatmuseum-wiesenbach.de/alte-ziegelei/"
  }
},
{
  "type": "node",
  "id": 5435115531,
  "lat": 49.4110783,
  "lon": 8.7078944,
  "tags": {
    "description": "Museum für sakrale Kunst und Liturgie mit Schatzkammer, Erdgeschoss kostenlos",
    "fee": "yes",
    "tourism": "museum"
  }
},
{
  "type": "node",
  "id": 5461363727,
  "lat": 49.4171419,
  "lon": 8.7614036,
  "tags": {
    "alt_name": "Textilmuseum",
    "name": "Textilsammlung Max Berk",
    "opening_hours": "We, Sa, Su 13:00-18:00",
    "operator": "Stadt Heidelberg",
    "phone": "+49 6221 5834000",
    "tourism": "museum"
  }
},
{
  "type": "node",
  "id": 5588276714,
  "lat": 49.4087585,
  "lon": 8.6970130,
  "tags": {
    "FIXME": "genaue Position",
    "addr:housenumber": "16",
    "addr:street": "Plöck",
    "name": "Heidelberger Stuhlmuseum",
    "tourism": "museum",
    "website": "http://www.heidelberger-stuhlmuseum.de"
  }
},
{
  "type": "node",
  "id": 5880404177,
  "lat": 49.4625640,
  "lon": 8.9837508,
  "tags": {
    "name": "Heimatmuseum",
    "tourism": "museum"
  }
},
{
  "type": "node",
  "id": 5937366001,
  "lat": 49.2658200,
  "lon": 8.7068984,
  "tags": {
    "addr:city": "Rauenberg",
    "addr:country": "DE",
    "addr:housenumber": "12",
    "addr:postcode": "69231",
    "addr:street": "Landfriedstraße",
    "name": "Winzermuseum",
    "opening_hours": "Su[1] 14:00-17:00",
    "operator": "Stadt Rauenberg und Interessengemeinschaft Winzermuseum e.V.",
    "toilets:wheelchair": "no",
    "tourism": "museum",
    "website": "https://www.winzermuseum-rauenberg.de/",
    "wheelchair": "no",
    "wikidata": "Q76631788"
  }
},
{
  "type": "node",
  "id": 5966419882,
  "lat": 49.3688501,
  "lon": 8.9885258,
  "tags": {
    "name": "Zauberwelt der Mineralien und Edelsteine",
    "tourism": "museum"
  }
},
{
  "type": "node",
  "id": 6256618312,
  "lat": 49.3051827,
  "lon": 9.0227285,
  "tags": {
    "addr:city": "Helmstadt-Bargen",
    "addr:housenumber": "42",
    "addr:postcode": "74921",
    "addr:street": "Hauptstraße",
    "addr:suburb": "Bargen",
    "name": "Dorfmuseum Bargen",
    "operator": "Bürgerverein Bargen",
    "phone": "+49 6268 95130",
    "tourism": "museum",
    "website": "https://buergerverein-bargen.jimdo.com/das-dorfmuseum/"
  }
},
{
  "type": "way",
  "id": 4740850,
  "nodes": [
    2183266442,
    30206647,
    2131368191,
    2131368190,
    2131368194,
    2131368195,
    2131368199,
    2131368198,
    2131368200,
    2131368201,
    2131368204,
    2131368203,
    2131368208,
    2131368209,
    2131368215,
    2131368214,
    2131368218,
    2131368219,
    2131368227,
    2131368226,
    2131368231,
    2131368232,
    2131368238,
    2131368236,
    2131368244,
    2131368246,
    30206644,
    30206645,
    2131368240,
    2131368242,
    2131368234,
    2131368233,
    2131368229,
    2131368230,
    2131368225,
    2131368223,
    2131368216,
    2131368217,
    2131368213,
    2131368211,
    2131368205,
    2131368206,
    2131368197,
    2131368196,
    2131368192,
    2131368193,
    2131368189,
    2131368188,
    2183266442
  ],
  "tags": {
    "addr:city": "Worms",
    "addr:country": "DE",
    "addr:housenumber": "10",
    "addr:postcode": "67547",
    "addr:street": "Fischerpförtchen",
    "building": "yes",
    "email": "nibelungenmuseum@worms.de",
    "name": "Nibelungenmuseum",
    "name:fr": "Nibelungenmuseum",
    "phone": "+49 6241 8534120",
    "source": "LGL-BW",
    "tourism": "museum",
    "website": "http://www.nibelungenmuseum.de",
    "wikidata": "Q1465938",
    "wikipedia": "de:Nibelungenmuseum Worms"
  }
},
{
  "type": "way",
  "id": 24039236,
  "nodes": [
    260705982,
    260705983,
    2271273562,
    2271273565,
    260705984,
    260705985,
    260705982
  ],
  "tags": {
    "addr:housenumber": "113",
    "addr:street": "Hauptstraße",
    "amenity": "townhall",
    "building": "yes",
    "historic": "yes",
    "name": "Heimatmuseum im alten Rathaus",
    "phone": "+49 6224 9790984",
    "source": "LGL, www.lgl-bw.de",
    "tourism": "museum",
    "website": "https://www.sandhausen.de/index.php?id=94",
    "wheelchair": "no",
    "wikidata": "Q76631918"
  }
},
{
  "type": "way",
  "id": 31587210,
  "nodes": [
    353473570,
    353473572,
    353473573,
    353473574,
    1687330488,
    1687330496,
    353473575,
    353473577,
    353473578,
    1687330612,
    1687330620,
    353473580,
    1687330626,
    1687330628,
    353473581,
    1687330652,
    1687330657,
    353473582,
    1687330658,
    1687330653,
    353473584,
    1687330627,
    353473585,
    353473586,
    353473587,
    353473588,
    1687330478,
    353473591,
    353473592,
    1687330476,
    1687330477,
    353473593,
    353473570
  ],
  "tags": {
    "TMC:cid_58:tabcd_1:Class": "Point",
    "TMC:cid_58:tabcd_1:LCLversion": "9.00",
    "TMC:cid_58:tabcd_1:LocationCode": "57866",
    "addr:city": "Sinsheim",
    "addr:housenumber": "2",
    "addr:postcode": "74889",
    "addr:street": "Eberhard-Layher-Straße",
    "building": "yes",
    "email": "info@technik-museum.de",
    "fax": "+49 7261 - 1 39 16 - 0",
    "name": "Auto+Technik Museum Sinsheim e.V., Museum 1",
    "opening_hours": "Mo-Fr 09:00-18:00; Sa,Su 09:00-19:00",
    "phone": "+49 7261 9299-0",
    "source": "HiRes aerial imagery",
    "tourism": "museum",
    "website": "https://www.technik-museum.de/"
  }
},
{
  "type": "way",
  "id": 34122007,
  "nodes": [
    391183810,
    391183811,
    391183812,
    391183813,
    391183810
  ],
  "tags": {
    "building": "yes",
    "contact:fax": "+49 6202 60616",
    "contact:phone": "+49 6202 6060",
    "contact:website": "http://www.ketsch.de/,Lde/Startseite/Freizeit/Heimatmuseum.html",
    "name": "Heimatmuseum Ketsch",
    "tourism": "museum"
  }
},
{
  "type": "way",
  "id": 34400398,
  "nodes": [
    395011367,
    395011370,
    2403557578,
    2403557586,
    2403557614,
    2403557624,
    2403557602,
    2403557622,
    2403557483,
    2403557487,
    2403557474,
    2403557470,
    348571657,
    395011367
  ],
  "tags": {
    "building": "yes",
    "building:levels": "1",
    "name": "Motorsportmuseum",
    "opening_hours": "Mo-Su 10:00-17:00",
    "tourism": "museum",
    "wheelchair": "yes"
  }
},
{
  "type": "way",
  "id": 35148702,
  "nodes": [
    412278967,
    1113527330,
    1113527335,
    2756965994,
    2756965991,
    1113527354,
    1113527346,
    1113527355,
    1113527357,
    1113527360,
    1113527382,
    1113527333,
    454396210,
    412278968,
    2756966037,
    2756966020,
    412278969,
    1113527450,
    4803510133,
    4803510132,
    1113527377,
    412278970,
    2756965972,
    2756965968,
    2756965956,
    2756965960,
    412278971,
    2756965950,
    2756965952,
    2756965930,
    2756965925,
    412278972,
    2756965933,
    2756965936,
    1113527325,
    1113527311,
    412278973,
    2756965942,
    412278974,
    412278975,
    412278977,
    2756965975,
    412278979,
    2756965986,
    2756965983,
    412278981,
    2756966000,
    2756965998,
    2756966011,
    2756966015,
    412278983,
    2756966012,
    2756966009,
    412278967
  ],
  "tags": {
    "addr:city": "Mannheim",
    "addr:housenumber": "1",
    "addr:postcode": "68165",
    "addr:street": "Museumsstraße",
    "blind:description:de": "Museumsführung für Blinde auf Anfrage",
    "building": "yes",
    "building:colour": "#F4F4F4",
    "contact:phone": "+49 621 42989",
    "contact:website": "http://www.technoseum.de/",
    "fee": "yes",
    "lastcheck": "2016-11-19",
    "name": "Technoseum",
    "note:3d": "heights and levels estimated",
    "old_name": "Landesmuseum für Technik und Arbeit",
    "opening_hours": "Mo-Su 09:00-17:00",
    "roof:shape": "flat",
    "start_date": "~1988",
    "toilets:wheelchair": "yes",
    "tourism": "museum",
    "wheelchair": "yes",
    "wheelchair:description": "barrierefreie Führungen können gebucht werden. Das Gebäude ist laut Website nicht komplett barrierefrei.",
    "wheelchair:description:de": "Museum ist nicht vollständig barrierefrei, aber es werden auf Anfrage barrierefreie Führungen gemacht.",
    "wikidata": "Q882079",
    "wikipedia": "de:Technoseum"
  }
},
{
  "type": "way",
  "id": 35465057,
  "nodes": [
    415916515,
    415919872,
    282950975,
    4573151345,
    415919868,
    415919869,
    415916518,
    415916515
  ],
  "tags": {
    "addr:city": "Heidelberg",
    "addr:country": "DE",
    "addr:housenumber": "1",
    "addr:postcode": "69117",
    "addr:street": "Grabengasse",
    "amenity": "university",
    "building": "university",
    "building:levels": "3",
    "building:obm": "106",
    "name": "Alte Universität, Rektorat",
    "name:zh": "海德堡大學",
    "phone": "+49 6221 5419012",
    "roof:colour": "75706d",
    "tourism": "museum",
    "wheelchair": "limited"
  }
},
{
  "type": "way",
  "id": 35866606,
  "nodes": [
    419162745,
    419162748,
    419162747,
    419162750,
    419162749,
    419162752,
    4598399833,
    419162751,
    419162754,
    419162745
  ],
  "tags": {
    "addr:city": "Heidelberg",
    "addr:housenumber": "2",
    "addr:postcode": "69115",
    "addr:street": "Voßstraße",
    "building": "university",
    "fee": "yes",
    "name": "Sammlung Prinzhorn",
    "tourism": "museum",
    "url:official": "http://prinzhorn.ukl-hd.de",
    "wheelchair": "limited",
    "wikidata": "Q19567335",
    "wikipedia": "de:Sammlung Prinzhorn"
  }
},
{
  "type": "way",
  "id": 36576978,
  "nodes": [
    425820775,
    425820777,
    5727478314,
    425820778,
    425820776,
    455212558,
    455212560,
    425820775
  ],
  "tags": {
    "addr:city": "Lorsch",
    "addr:country": "DE",
    "addr:housenumber": "35",
    "addr:postcode": "64653",
    "addr:street": "Nibelungenstraße",
    "building": "yes",
    "lastcheck": "2018-06-29",
    "name": "Museumszentrum Lorsch",
    "opening_hours": "Tu-Su, PH 10:00-17:00",
    "tourism": "museum",
    "wheelchair": "limited"
  }
},
{
  "type": "way",
  "id": 36818628,
  "nodes": [
    427969606,
    1064259415,
    2536352618,
    427969608,
    427969609,
    427969610,
    427969611,
    427969612,
    427969613,
    4872984635,
    427969602,
    427969603,
    427969604,
    427969605,
    427969606
  ],
  "tags": {
    "addr:city": "Heidelberg",
    "addr:country": "DE",
    "addr:housenumber": "235",
    "addr:postcode": "69117",
    "addr:street": "Hauptstraße",
    "building": "yes",
    "contact:website": "http://www.voelkerkundemuseum-vpst.de/",
    "description": "Palais Weimar",
    "fee": "yes",
    "lastcheck": "2016-11-19",
    "name": "Völkerkundemuseum",
    "opening_hours": "We-Sa 14:00-18:00; Su,PH 11:00-18:00",
    "tourism": "museum",
    "wheelchair": "no",
    "wikidata": "Q2536333",
    "wikipedia": "de:Völkerkundemuseum Heidelberg"
  }
},
{
  "type": "way",
  "id": 50061287,
  "nodes": [
    635775947,
    635775950,
    635775948,
    635775951,
    635775949,
    635775952,
    635775947
  ],
  "tags": {
    "addr:country": "DE",
    "building": "yes",
    "lastcheck": "2016-07-30",
    "name": "Museum im Brückenhaus",
    "tourism": "museum"
  }
},
{
  "type": "way",
  "id": 50192058,
  "nodes": [
    637950941,
    637950963,
    2139660424,
    2139660426,
    2139660414,
    637950959,
    637950748,
    637950753,
    637950750,
    637950941
  ],
  "tags": {
    "building": "yes",
    "name": "Fastnachtsmuseum",
    "opening_hours": "We 09:00-12:00,14:00-17:00; Jan-Dec Su[2] 09:00-12:00,14:00-17:00",
    "tourism": "museum"
  }
},
{
  "type": "way",
  "id": 50322829,
  "nodes": [
    4144708788,
    4144714857,
    4144709589,
    4144714858,
    4144714859,
    4144714860,
    639305204,
    639305205,
    639305206,
    4144708788
  ],
  "tags": {
    "addr:city": "Schriesheim",
    "addr:housenumber": "157",
    "addr:postcode": "69198",
    "addr:street": "Talstraße",
    "description": "500 Jahre altes Silber- und Vitriolbergwerk mit Außenanlage aus dem 18. Jahrhundert",
    "historic": "mine",
    "name": "Besucherbergwerk Grube Anna-Elisabeth",
    "operator": "Bergwerksverein Schriesheim e.V.",
    "phone": "+49 6203 68167",
    "tourism": "museum",
    "website": "https://www.bergwerk-schriesheim.de/",
    "wikidata": "Q1408907"
  }
},
{
  "type": "way",
  "id": 59210519,
  "nodes": [
    734415506,
    891142961,
    3964586112,
    891143066,
    3964586124,
    734415617,
    3964586139,
    891143732,
    891143414,
    891142849,
    1277771903,
    1277773254,
    1277772429,
    1277772083,
    1277772541,
    3964586137,
    1277772222,
    3964586103,
    734415573,
    1277772024,
    891143564,
    1277771827,
    1277772277,
    1160398454,
    1160399125,
    1160397862,
    891143619,
    3266078605,
    3266078585,
    734415537,
    1160398153,
    3056484357,
    298883319,
    3056484355,
    734415463,
    891143260,
    734415639,
    734415616,
    734415569,
    2991603805,
    734415531,
    891142795,
    891143516,
    891142948,
    891142818,
    891143667,
    2991603821,
    891142992,
    2991603942,
    891143554,
    2991603953,
    2991603955,
    2991603960,
    891143697,
    891143222,
    734415499,
    891142905,
    734415506
  ],
  "tags": {
    "addr:city": "Speyer",
    "addr:country": "DE",
    "addr:housenumber": "1",
    "addr:postcode": "67346",
    "addr:street": "Am Technik Museum",
    "contact:phone": "+49-6232-6708-0",
    "contact:website": "https://speyer.technik-museum.de",
    "name": "Technik Museum Speyer",
    "name:note": "Technik Museum Speyer ist die offizielle Schreibweise auf der Homepage",
    "name:zh": "施派爾科技博物館",
    "opening_hours": "Mo-Fr 09:00-18:00; Sa-Su 09:00-19:00",
    "start_date": "1991",
    "tourism": "museum",
    "wheelchair": "limited",
    "wheelchair:description": "großteils ist das Museum ebenerdig, schwellenlos erreichbar, mit Behinderten WC, mit Behindertenparkplatz",
    "wikidata": "Q578657",
    "wikipedia": "de:Technik-Museum Speyer"
  }
},
{
  "type": "way",
  "id": 75082938,
  "nodes": [
    886154688,
    6653517199,
    6653517196,
    6653517197,
    6653517198,
    886154689,
    886154692,
    886154693,
    886154688
  ],
  "tags": {
    "addr:city": "Eberbach",
    "addr:housenumber": "1",
    "addr:postcode": "69412",
    "addr:street": "Alter Markt",
    "building": "yes",
    "culture": "museum",
    "fee": "no",
    "name": "Stadtmuseum Eberbach",
    "opening_hours": "Tu,Fr 15:00-17:00; Sa-Su 14:00-17:00",
    "tourism": "museum",
    "website": "https://www.museum-eberbach.de/"
  }
},
{
  "type": "way",
  "id": 75490832,
  "nodes": [
    891142987,
    891143591,
    891143083,
    891143254,
    3964586058,
    891142987
  ],
  "tags": {
    "building": "yes",
    "building:levels": "4",
    "contact:website": "http://speyer.technik-museum.de/museum-wilhelmsbau",
    "image": "http://de.wikipedia.org/w/index.php?title=Datei:Wilhelmsbau_am_Technik-Museum_Speyer.JPG&filetimestamp=20090225214051&",
    "lastcheck": "2016-05-23",
    "name": "Museum Wilhelmsbau",
    "opening_hours": "Mo-Fr 09:00-18:00; Sa,Su,PH 09:00-19:00",
    "tourism": "museum",
    "wheelchair": "no"
  }
},
{
  "type": "way",
  "id": 87297157,
  "nodes": [
    1015019042,
    1746041457,
    1015019040,
    1746041455,
    1015019044,
    3105102161,
    1746041452,
    1746041451,
    1015019049,
    1746041448,
    1746041450,
    1746041453,
    1746041454,
    1746041456,
    1015019059,
    1854160282,
    1015019055,
    1746041460,
    1746041463,
    1746041462,
    1015019052,
    1746041461,
    1746041459,
    1746041458,
    1015019042
  ],
  "tags": {
    "building": "ship",
    "historic": "ship",
    "name": "Museumsschiff Mannheim",
    "ship:type": "passenger_ship",
    "start_date": "1929",
    "tourism": "museum",
    "wikipedia": "de:Mainz (Schiff, 1929)"
  }
},
{
  "type": "way",
  "id": 89221692,
  "nodes": [
    1035573814,
    1035574150,
    2037985716,
    2037985705,
    2037985718,
    2037985703,
    1035574790,
    1035574404,
    1035573814
  ],
  "tags": {
    "addr:city": "Heidelberg",
    "addr:housenumber": "46",
    "addr:postcode": "69118",
    "addr:street": "Schloss-Wolfsbrunnenweg",
    "addr:suburb": "Schlierbach",
    "building": "yes",
    "fee": "yes",
    "lastcheck": "2016-11-19",
    "name": "Carl Bosch Museum",
    "opening_hours": "Mo-Su 10:00-17:00; Th off",
    "operator": "Carl Bosch Museum gGmbH",
    "phone": "+49 6221 603616",
    "source:geometry": "HiRes aerial imagery",
    "toilets:wheelchair": "yes",
    "tourism": "museum",
    "website": "https://www.carl-bosch-museum.de/",
    "wheelchair": "yes",
    "wikidata": "Q1037126",
    "wikipedia": "de:Carl Bosch Museum Heidelberg"
  }
},
{
  "type": "way",
  "id": 89728626,
  "nodes": [
    1039839619,
    3238554343,
    1432761668,
    3238554345,
    3238554348,
    3238554353,
    3238554351,
    3238554352,
    3238554355,
    3238554358,
    3238554359,
    3238555761,
    3238554360,
    3238555764,
    3238555765,
    3238555767,
    3238555766,
    3238555768,
    3238555769,
    3238555771,
    3238555770,
    3238555772,
    3238555773,
    3238555776,
    3238555775,
    3238555774,
    3238555762,
    3238555763,
    3238554357,
    3238554356,
    3238554349,
    3238554350,
    1039839517,
    1039839619
  ],
  "tags": {
    "addr:street": "C5",
    "building": "yes",
    "name": "Museum Zeughaus",
    "tourism": "museum",
    "website": "http://www.rem-mannheim.de",
    "wheelchair": "yes",
    "wikidata": "Q196957"
  }
},
{
  "type": "way",
  "id": 96354612,
  "nodes": [
    1116683766,
    1377612467,
    1116683791,
    1116683821,
    1116683774,
    1116683805,
    1116683824,
    1116683813,
    1116754174,
    1116754079,
    1116754019,
    1116754024,
    1116683768,
    1116683799,
    1116683754,
    1116683782,
    1116683812,
    1116683764,
    1116683794,
    1116683766
  ],
  "tags": {
    "addr:housenumber": "3",
    "addr:street": "An der Stadtmühle",
    "building": "yes",
    "name": "Museum der Stadt Bensheim",
    "operator": "Stadt Bensheim",
    "tourism": "museum",
    "wheelchair": "limited"
  }
},
{
  "type": "way",
  "id": 98854492,
  "nodes": [
    1143621280,
    1143621128,
    1143621256,
    1143621186,
    1143621097,
    1143621280
  ],
  "tags": {
    "addr:city": "Haßloch",
    "addr:country": "DE",
    "addr:housenumber": "11",
    "addr:postcode": "67454",
    "addr:street": "Gillergasse",
    "building": "yes",
    "historic": "yes",
    "name": "Heimatmuseum Ältestes Haus",
    "note": "build 1599",
    "opening_hours:signed": "no",
    "tourism": "museum",
    "wheelchair": "no"
  }
},
{
  "type": "way",
  "id": 104844434,
  "nodes": [
    1209199180,
    1209199638,
    1209199072,
    1209199275,
    1209199180
  ],
  "tags": {
    "building": "yes",
    "name": "Heimatmuseum",
    "tourism": "museum",
    "wheelchair": "no"
  }
},
{
  "type": "way",
  "id": 109866910,
  "nodes": [
    677368513,
    294295463,
    1256674569,
    572303139,
    677368513
  ],
  "tags": {
    "addr:city": "Speyer",
    "addr:country": "DE",
    "addr:housenumber": "99",
    "addr:postcode": "67346",
    "addr:street": "Maximilianstraße",
    "building": "yes",
    "name": "Sophie-La-Roche-Haus",
    "opening_hours": "Mo-Fr 10:00-18:00; Sa 10:00-15:00",
    "source": "bing",
    "tourism": "museum",
    "wheelchair": "no"
  }
},
{
  "type": "way",
  "id": 112417683,
  "nodes": [
    1277773284,
    4797253360,
    1277772807,
    1277773150,
    1277772473,
    1277771772,
    1277772766,
    1277773126,
    1277772454,
    1277772152,
    1277773175,
    1277771974,
    1277772916,
    6410512293,
    1277771959,
    1277772998,
    1277772194,
    1277771992,
    1277772844,
    1277772520,
    1277772948,
    1277772711,
    1277771792,
    1277773148,
    1277771898,
    1277773249,
    1277772423,
    1277772080,
    1277772535,
    1277772217,
    1277773050,
    6410512296,
    1277772856,
    1277773030,
    1277772834,
    6410512294,
    1277771872,
    1277773227,
    6410512295,
    1277771982,
    1277771783,
    1277772509,
    1277772165,
    1277772689,
    1277772400,
    1277773135,
    1277772941,
    1277773236,
    1277773040,
    1277772074,
    1277771886,
    1277772052,
    1277771861,
    1277772629,
    1277772348,
    1277772825,
    1277772496,
    1277773017,
    1277771769,
    1277773124,
    1277772150,
    1277771972,
    1277772380,
    1277772064,
    1277772926,
    1277772667,
    1277772904,
    1277772601,
    1277773202,
    1277772327,
    1277772044,
    1277772485,
    1277772133,
    1277773004,
    1277772813,
    1277773108,
    1277772914,
    1277771955,
    1277773303,
    1277771931,
    1277773284
  ],
  "tags": {
    "addr:city": "Speyer",
    "addr:country": "DE",
    "addr:housenumber": "7",
    "addr:postcode": "67346",
    "addr:street": "Große Pfaffengasse",
    "fee": "yes",
    "museum": "history",
    "name": "Historisches Museum der Pfalz",
    "note": "ACHTUNG: Tags für Gebäude befinden sich am Multipolygon // Adresse auf Homepage ist Adresse der Verwaltung nicht des Gebäudes!",
    "opening_hours": "Mo 10:00-18:00 \"in der Regel nur während der Schulferien in Rheinland-Pfalz, Baden Württemberg oder Hessen\";Tu-Su,PH 10:00-18:00",
    "phone": "+49 6232 13250",
    "start_date": "1910",
    "tourism": "museum",
    "website": "https://museum.speyer.de/",
    "wheelchair": "yes",
    "wheelchair:description": "12 Stufen, aber seitlich schwelleloser Aufzug mit Klingel und Hilfestellung vorhanden, Behindertentoilette vorhanden, kein Behindertenparkplätz, Besuch mit Blindenhund möglich, Audioguide, hilfreiches Aufsichtspersonal,",
    "wikidata": "Q1325163",
    "wikipedia": "de:Historisches Museum der Pfalz"
  }
},
{
  "type": "way",
  "id": 114372509,
  "nodes": [
    1295706905,
    1295707265,
    6944703055,
    6944703054,
    6944703053,
    6944703056,
    1295708588,
    6944703057,
    6944703058,
    1295707554,
    1295706905
  ],
  "tags": {
    "addr:city": "Limbach",
    "addr:country": "DE",
    "addr:housenumber": "35",
    "addr:postcode": "74838",
    "addr:street": "Hauptstraße",
    "addr:suburb": "Wagenschwend",
    "building": "yes",
    "name": "Dorfmuseum",
    "tourism": "museum"
  }
},
{
  "type": "way",
  "id": 119239314,
  "nodes": [
    2932335428,
    2932335430,
    1340397602,
    1340397603,
    2932335432,
    2932335434,
    2932335433,
    2932335431,
    1340397600,
    1340397608,
    2932335429,
    2932335427,
    2932335428
  ],
  "tags": {
    "building": "yes",
    "name": "Carl-Benz-Haus",
    "operator": "Daimler und Benz Stiftung",
    "tourism": "museum",
    "website": "https://www.daimler.com/dccom/0-5-1333278-49-1279528-1-0-0-1279556-0-0-135-0-0-0-0-0-0-0-0.html",
    "wheelchair": "no"
  }
},
{
  "type": "way",
  "id": 130369581,
  "nodes": [
    1436208890,
    1436208889,
    1436208895,
    1436208891,
    1860759476,
    1436208892,
    1436208898,
    1436208890
  ],
  "tags": {
    "addr:city": "Mannheim",
    "addr:country": "DE",
    "addr:housenumber": "9b",
    "addr:place": "C4",
    "addr:postcode": "68159",
    "building": "yes",
    "fee": "yes",
    "lastcheck": "2016-11-19",
    "name": "Zephyr - Museum für Photographie",
    "opening_hours": "Tu-Su 11:00-18:00",
    "tourism": "museum",
    "website": "http://www.zephyr-mannheim.de/"
  }
},
{
  "type": "way",
  "id": 137816592,
  "nodes": [
    1511352246,
    1511352245,
    5024879728,
    5024879729,
    1511352251,
    1511352256,
    1511352246
  ],
  "tags": {
    "addr:city": "Ubstadt-Weiher",
    "addr:country": "DE",
    "addr:housenumber": "14",
    "addr:postcode": "76698",
    "addr:street": "Lußhardtstraße",
    "addr:suburb": "Stettfeld",
    "building": "yes",
    "contact:phone": "+49 7253 70298",
    "contact:website": "http://www.roemermuseum-stettfeld.de/",
    "lastcheck": "2016-12-22",
    "name": "Römermuseum Stettfeld",
    "opening_hours": "Su 14:00-17:00",
    "operator": "Freundeskreis Römermuseum Stettfeld",
    "source:geometry": "Bing 2017",
    "tourism": "museum",
    "wikidata": "Q1110620",
    "wikipedia": "de:Römermuseum Stettfeld"
  }
},
{
  "type": "way",
  "id": 143752268,
  "nodes": [
    1186359159,
    1573017256,
    1573017251,
    2147877391,
    2147877393,
    2147877395,
    1573017248,
    2147877394,
    2147877392,
    2147877390,
    1573017244,
    1573017230,
    1573017227,
    2147877370,
    2147877367,
    1573017224,
    1573017220,
    2147877349,
    1573017222,
    1573017219,
    1573017204,
    2147877286,
    2147877280,
    2147877278,
    2147877276,
    2147877282,
    1573017210,
    2147877268,
    2147877266,
    2147877270,
    1573017202,
    2147877329,
    2147877327,
    2147877333,
    2147877362,
    1186359159
  ],
  "tags": {
    "building": "c",
    "castle_type": "defensive",
    "castle_type:de": "burg",
    "historic": "castle",
    "historic:civilization": "middle-ages",
    "image": "File:Burg-guttenberg-2008-5b.jpg",
    "name": "Burg Guttenberg",
    "tourism": "museum",
    "website": "http://www.burg-guttenberg.de/de/burgmuseum/museum",
    "wikidata": "Q1012129",
    "wikipedia": "de:Burg Guttenberg (Haßmersheim)"
  }
},
{
  "type": "way",
  "id": 150770988,
  "nodes": [
    1636527760,
    1636527759,
    1636527787,
    1636527791,
    1636527760
  ],
  "tags": {
    "tourism": "museum"
  }
},
{
  "type": "way",
  "id": 151785732,
  "nodes": [
    1646250039,
    1646250020,
    1646250011,
    1646250032,
    1646250039
  ],
  "tags": {
    "addr:city": "Mannheim",
    "addr:country": "DE",
    "addr:housenumber": "58",
    "addr:postcode": "68165",
    "addr:street": "Augustaanlage",
    "building": "yes",
    "image": "http://de.wikipedia.org/wiki/Datei:Mannheim_Kunstverein_20100627.jpg",
    "name": "Kunstverein",
    "opening_hours": "Tu,Th-Su 12:00-17:00; We 14:00-19:00",
    "tourism": "museum",
    "website": "http://www.mannheimer-kunstverein.de",
    "wikipedia": "de:Mannheimer Kunstverein"
  }
},
{
  "type": "way",
  "id": 159056002,
  "nodes": [
    1711604707,
    3959682673,
    1711605479,
    1711605204,
    1711604642,
    1711604707
  ],
  "tags": {
    "addr:city": "Böhl-Iggelheim",
    "addr:housenumber": "2",
    "addr:postcode": "67459",
    "addr:street": "Haßlocher Straße",
    "addr:suburb": "Iggelheim",
    "building": "yes",
    "name": "Heimatmuseum Altes Schulhaus",
    "tourism": "museum",
    "website": "http://www.hpmv.de/",
    "wheelchair": "no"
  }
},
{
  "type": "way",
  "id": 159093984,
  "nodes": [
    1711914308,
    1711914365,
    1711915267,
    1711914043,
    1711914855,
    1711914308
  ],
  "tags": {
    "building": "yes",
    "email": "iln-iggelheim@gmx.de",
    "name": "Altes Rathaus",
    "tourism": "museum",
    "website": "http://www.hpmv.de/"
  }
},
{
  "type": "way",
  "id": 162235976,
  "nodes": [
    1741595123,
    3898797535,
    3898797534,
    6712164171,
    6712164170,
    6712164169,
    6712164172,
    3898797532,
    3898797533,
    6712164369,
    6712164372,
    6712164371,
    6712164370,
    3898797531,
    3898797530,
    3898797528,
    3898797529,
    3898797527,
    3898797526,
    1741595076,
    6712164167,
    6712164168,
    1741595069,
    1741595089,
    1741595090,
    6712164166,
    1741595120,
    6712164367,
    6712164174,
    6712164173,
    1741595123
  ],
  "tags": {
    "addr:city": "Ladenburg",
    "addr:housename": "Bischofshof",
    "addr:housenumber": "1",
    "addr:postcode": "68526",
    "addr:street": "Amtshof",
    "building": "yes",
    "email": "info@heimatbund-ladenburg.de",
    "name": "Lobdengau-Museum",
    "opening_hours": "We 14:00-17:00; Sa,Su 11:00-17:00",
    "phone": "+49 6203-53 18",
    "toilets:wheelchair": "yes",
    "tourism": "museum",
    "website": "http://www.lobdengau-museum.de/",
    "wheelchair": "yes",
    "wikidata": "Q1867056"
  }
},
{
  "type": "way",
  "id": 168900950,
  "nodes": [
    1800824000,
    1800824050,
    6653394215,
    1800824083,
    1800824087,
    1800824038,
    1800824000
  ],
  "tags": {
    "addr:city": "Eberbach",
    "addr:housenumber": "2",
    "addr:postcode": "69412",
    "addr:street": "Pfarrhof",
    "building": "yes",
    "name": "Küferei Museum",
    "phone": "+49 6271 2704",
    "tourism": "museum"
  }
},
{
  "type": "way",
  "id": 174672453,
  "nodes": [
    1853249104,
    1853249102,
    1853249077,
    1853249083,
    4986835443,
    1853249104
  ],
  "tags": {
    "addr:city": "Hirschhorn",
    "addr:country": "DE",
    "addr:housenumber": "2",
    "addr:postcode": "69434",
    "addr:street": "Alleeweg",
    "building": "yes",
    "information": "office",
    "name": "Langbein-Museum",
    "opening_hours": "Tu-Fr 10:00-12:00,14:00-17:00",
    "tourism": "museum"
  }
},
{
  "type": "way",
  "id": 175493235,
  "nodes": [
    1860721139,
    1860751918,
    1860721140,
    1860759465,
    1860721142,
    1860721141,
    1436208895,
    1436208889,
    1860721139
  ],
  "tags": {
    "addr:city": "Mannheim",
    "addr:country": "DE",
    "addr:housenumber": "8",
    "addr:place": "C4",
    "addr:postcode": "68159",
    "building": "yes",
    "contact:website": "http://www.rem-mannheim.de/museen-in-mannheim/museum-bassermannhaus-fuer-musik-und-kunst/willkommen-in-c4/",
    "fee": "yes",
    "lastcheck": "2016-11-19",
    "name": "Museum Bassermannhaus für Musik und Kunst",
    "opening_hours": "Tu-Su 11:00-18:00",
    "tourism": "museum",
    "wikidata": "Q21011372"
  }
},
{
  "type": "way",
  "id": 176229053,
  "nodes": [
    684275281,
    2508213201,
    2508213204,
    2508213205,
    2508213203,
    2508213202,
    684275303,
    1867742564,
    1867742587,
    1867742578,
    1867742581,
    684275281
  ],
  "tags": {
    "addr:city": "Ladenburg",
    "addr:country": "DE",
    "addr:housenumber": "26",
    "addr:postcode": "68526",
    "addr:street": "Ilvesheimer Straße",
    "building": "industrial",
    "name": "Automuseum Dr. Carl Benz",
    "opening_hours": "We,Sa,Su 14:00-18:00",
    "phone": "+49-6203-181786",
    "tourism": "museum",
    "website": "www.automuseum-ladenburg.de",
    "wikidata": "Q787947",
    "wikipedia": "de:Automuseum Dr. Carl Benz"
  }
},
{
  "type": "way",
  "id": 191742703,
  "nodes": [
    2023221472,
    5496276152,
    4860233144,
    2023221468,
    2023221460,
    2023221467,
    5496276123,
    2023221472
  ],
  "tags": {
    "building": "yes",
    "name": "Raschi-Haus",
    "tourism": "museum",
    "wikidata": "Q13639970"
  }
},
{
  "type": "way",
  "id": 193287029,
  "nodes": [
    2037985712,
    2037985714,
    2037985728,
    2037985726,
    2037985724,
    2037985720,
    2296924878,
    2037985722,
    2328114812,
    2037985712
  ],
  "tags": {
    "addr:city": "Heidelberg",
    "addr:housenumber": "44",
    "addr:postcode": "69118",
    "addr:street": "Schloss-Wolfsbrunnenweg",
    "addr:suburb": "Schlierbach",
    "building": "yes",
    "fee": "yes",
    "lastcheck": "2016-12-29",
    "name": "Museum am Ginkgo",
    "operator": "Carl Bosch Museum gGmbH",
    "phone": "+49 6221 603616",
    "source:geometry": "Datenquelle: LGL, www.lgl-bw.de",
    "tourism": "museum",
    "website": "http://www.museum-am-ginkgo.de",
    "wheelchair": "yes"
  }
},
{
  "type": "way",
  "id": 197559108,
  "nodes": [
    1362647515,
    3238656687,
    3238656686,
    3238656692,
    3238656694,
    1883905460,
    3238656696,
    3238656695,
    1883905452,
    3238656680,
    3238656679,
    2077786024,
    3238656558,
    3238656559,
    3238656677,
    3238656673,
    1362647515
  ],
  "tags": {
    "addr:city": "Mannheim",
    "addr:place": "D5",
    "addr:postcode": "68159",
    "building": "yes",
    "fee": "yes",
    "height": "16",
    "lastcheck": "2016-11-19",
    "name": "Reiss-Engelhorn-Museum",
    "opening_hours": "Tu-Su 11:00-18:00",
    "phone": "+49 621 293 0",
    "roof:shape": "flat",
    "short_name": "rem",
    "tourism": "museum",
    "website": "https://www.rem-mannheim.de/",
    "wheelchair": "yes",
    "wikidata": "Q468496"
  }
},
{
  "type": "way",
  "id": 205570871,
  "nodes": [
    2155381684,
    2155381710,
    2155381691,
    2155381696,
    2155381694,
    2155381688,
    2155381687,
    2155381685,
    2155381680,
    2155381679,
    2155381684
  ],
  "tags": {
    "addr:city": "Frankenthal (Pfalz)",
    "addr:housenumber": "1",
    "addr:postcode": "67227",
    "addr:street": "Rathausplatz",
    "building": "yes",
    "name": "Erkenbert-Museum",
    "tourism": "museum",
    "wheelchair": "yes",
    "wikidata": "Q76636956"
  }
},
{
  "type": "way",
  "id": 209362198,
  "nodes": [
    2195839590,
    2195839503,
    2195839588,
    2195839589,
    2195839590
  ],
  "tags": {
    "addr:city": "Worms",
    "addr:country": "DE",
    "addr:housenumber": "31",
    "addr:postcode": "67547",
    "addr:street": "Große Fischerweide",
    "building": "yes",
    "name": "Bojemääschterei",
    "tourism": "museum",
    "website": "https://fischerweide.jimdo.com/bojem%C3%A4%C3%A4schterei-museum/"
  }
},
{
  "type": "way",
  "id": 220319254,
  "nodes": [
    2294533419,
    2294533424,
    2294533426,
    2294533422,
    2294533419
  ],
  "tags": {
    "addr:city": "Oberzent",
    "addr:country": "DE",
    "addr:housenumber": "22",
    "addr:postcode": "64760",
    "addr:street": "Brunnengasse",
    "addr:suburb": "Beerfelden",
    "building": "museum",
    "name": "Museum der Oberzent",
    "operator": "Heimat- und Geschichtsverein Oberzent e.V.",
    "tourism": "museum",
    "wheelchair": "no",
    "wikidata": "Q76633592"
  }
},
{
  "type": "way",
  "id": 222698355,
  "nodes": [
    2316390222,
    2316390220,
    2316390217,
    2316390214,
    2316390207,
    2316390210,
    3451859898,
    3451859899,
    3881151351,
    2316390202,
    2316390204,
    3881151352,
    3451859901,
    3451859902,
    2316390208,
    2316390209,
    2316390212,
    2316390211,
    2316390215,
    2316390216,
    3881151354,
    2316390219,
    2316390218,
    3451859910,
    3451859911,
    3451859913,
    3451859912,
    2316390222
  ],
  "tags": {
    "addr:city": "Altlußheim",
    "addr:country": "DE",
    "addr:housenumber": "154",
    "addr:postcode": "68804",
    "addr:street": "Hauptstraße",
    "fee": "yes",
    "museum": "automobile",
    "name": "Museum Autovision",
    "opening_hours": "Th-Su 10:00-17:00",
    "operator": "Museum Autovision Horst und Brigitte Schultz Stiftung",
    "operator:type": "foundation",
    "surveillance": "indoor",
    "tourism": "museum",
    "website": "http://www.museum-autovision.de/",
    "wheelchair": "limited",
    "wheelchair:description": "Aufzug vorhanden",
    "wikidata": "Q660452",
    "wikipedia": "de:Museum Autovision"
  }
},
{
  "type": "way",
  "id": 230381825,
  "nodes": [
    2388913773,
    2388913775,
    2388913774,
    2388913772,
    2388913773
  ],
  "tags": {
    "addr:city": "Heppenheim",
    "addr:country": "DE",
    "addr:housenumber": "2",
    "addr:postcode": "64646",
    "addr:street": "Werlestraße",
    "building": "yes",
    "building:levels": "3",
    "name": "Martin-Buber-Haus",
    "opening_hours": "\"nach Voranmeldung\"",
    "tourism": "museum",
    "website": "http://www.iccj.org"
  }
},
{
  "type": "way",
  "id": 240398490,
  "nodes": [
    2481369184,
    2481369183,
    2481369182,
    2481369181,
    2481369184
  ],
  "tags": {
    "addr:city": "Wald-Michelbach",
    "addr:housenumber": "2",
    "addr:postcode": "69483",
    "addr:street": "Michelstraße",
    "building": "yes",
    "building:levels": "1",
    "height": "5",
    "name": "Stoewer-Museum",
    "tourism": "museum",
    "website": "http://www.stoewer-museum.de"
  }
},
{
  "type": "way",
  "id": 246811045,
  "nodes": [
    2538051453,
    2538051437,
    2538051492,
    2538051499,
    2538051453
  ],
  "tags": {
    "addr:city": "Meckesheim",
    "addr:country": "DE",
    "addr:housenumber": "22",
    "addr:postcode": "74909",
    "addr:street": "Friedrichstraße",
    "building": "yes",
    "name": "Alte Schulstube",
    "operator": "Gemeinde Meckesheim",
    "tourism": "museum",
    "wheelchair": "no"
  }
},
{
  "type": "way",
  "id": 247530260,
  "nodes": [
    2544039216,
    2544039210,
    2544039262,
    2544039187,
    2544039357,
    2544039254,
    2544039345,
    2544039317,
    5400779509,
    5400785624,
    5400779515,
    5400785623,
    2544039175,
    2544039237,
    2544039189,
    2544039164,
    5400785625,
    5400779520,
    5400779519,
    5400785621,
    5400785622,
    2544039212,
    2544039267,
    2544039216
  ],
  "tags": {
    "addr:city": "Heidelberg",
    "addr:housenumber": "2",
    "addr:postcode": "69117",
    "addr:street": "Bremeneckgasse",
    "building": "yes",
    "historic": "memorial",
    "name": "Dokumentations- und Kulturzentrum Deutscher Sinti und Roma",
    "source:geometry": "LGL, www.lgl-bw.de",
    "tourism": "museum",
    "website": "http://www.sintiundroma.de",
    "wheelchair": "yes"
  }
},
{
  "type": "way",
  "id": 254154166,
  "nodes": [
    270405841,
    2599659746,
    270405597,
    2599659726,
    2599659723,
    2599659718,
    2599659714,
    270405593,
    2599659710,
    2599659706,
    2599659705,
    2599659717,
    270405833,
    270405832,
    270405765,
    270405768,
    270405769,
    270405846,
    270405845,
    270405844,
    270405843,
    270405842,
    2599659773,
    2599659772,
    2599659766,
    2599659749,
    3093291866,
    270405841
  ],
  "tags": {
    "addr:city": "Heidelberg",
    "addr:postcode": "69117",
    "addr:street": "Schlosshof",
    "contact:phone": "+49 6221 25880",
    "contact:website": "http://www.deutsches-apotheken-museum.de/",
    "description": "Eintritt im Schlossticket integriert.",
    "lastcheck": "2016-11-19",
    "level": "0",
    "name": "Deutsches Apotheken-Museum",
    "opening_hours": "Apr-Oct Mo-Su 10:00-18:00; Nov-Mar Mo-Su 10:00-17:00",
    "toilets:wheelchair": "no",
    "tourism": "museum",
    "wheelchair": "no",
    "wikidata": "Q1205535",
    "wikipedia": "de:Deutsches Apothekenmuseum"
  }
},
{
  "type": "way",
  "id": 284630048,
  "nodes": [
    2883524095,
    2883524096,
    2883524097,
    2883524098,
    2883524099,
    2883524095
  ],
  "tags": {
    "addr:city": "Östringen",
    "addr:housenumber": "100",
    "addr:postcode": "76684",
    "addr:street": "Hauptstraße",
    "building": "yes",
    "name": "Heimatmuseum Östringen",
    "tourism": "museum"
  }
},
{
  "type": "way",
  "id": 290563787,
  "nodes": [
    2940793295,
    2940793292,
    2940793283,
    2940793290,
    2940793295
  ],
  "tags": {
    "addr:city": "Dettenheim",
    "addr:housenumber": "9a",
    "addr:postcode": "76706",
    "addr:street": "Ruchenstraße",
    "building": "bunker",
    "description": "Regelbau 32, Sanitätsbunker, in BW der einzige erhaltene RB32!",
    "historic": "yes",
    "image": "https://fotos.verwaltungsportal.de/mandate/logo/bunkermuseum.jpg",
    "lastcheck": "2016-12-30",
    "military": "bunker",
    "name": "Bunkermuseum Dettenheim",
    "opening_hours": "Apr-Oct: Su[2] 12:00-17:00",
    "source": "Maps4BW",
    "tourism": "museum",
    "website": "https://www.dettenheim.de/verzeichnis/visitenkarte.php?mandat=147100",
    "wheelchair": "no"
  }
},
{
  "type": "way",
  "id": 297504041,
  "nodes": [
    3013956649,
    3013956654,
    3013956650,
    3013956648,
    3013956649
  ],
  "tags": {
    "addr:city": "Viernheim",
    "addr:housenumber": "28",
    "addr:postcode": "68519",
    "addr:street": "Berliner Ring",
    "building": "yes",
    "name": "Heimatmuseum",
    "tourism": "museum"
  }
},
{
  "type": "way",
  "id": 306364216,
  "nodes": [
    3112506483,
    3112506469,
    3112506475,
    3112506471,
    3112506477,
    3112506478,
    3112506481,
    3112506479,
    3112506480,
    3112506482,
    3112506484,
    3112506485,
    3112506483
  ],
  "tags": {
    "addr:city": "Graben-Neudorf",
    "addr:country": "DE",
    "addr:housenumber": "47",
    "addr:postcode": "76676",
    "addr:street": "Karlsruher Straße",
    "building": "yes",
    "name": "Heimatmuseum",
    "source": "Maps4BW",
    "tourism": "museum",
    "website": "https://www.graben-neudorf.de/",
    "wheelchair": "no"
  }
},
{
  "type": "way",
  "id": 307782481,
  "nodes": [
    3129919259,
    3129919264,
    3129919248,
    3129919243,
    3129919259
  ],
  "tags": {
    "addr:city": "Heppenheim",
    "addr:housenumber": "6",
    "addr:postcode": "64646",
    "addr:street": "Hinterer Graben",
    "building": "yes",
    "name": "Geldmuseum",
    "operator": "Sparkasse Starkenburg",
    "tourism": "museum"
  }
},
{
  "type": "way",
  "id": 312189791,
  "nodes": [
    3180357143,
    5962549992,
    5962549991,
    3180357144,
    3180357148,
    5962549990,
    5962549989,
    3180357149,
    3180310184,
    3180310185,
    3180310161,
    3180357142,
    3180357141,
    3180357140,
    3180357143
  ],
  "tags": {
    "addr:city": "Wiesloch",
    "addr:country": "DE",
    "addr:housenumber": "24",
    "addr:postcode": "69168",
    "addr:street": "Röhrgasse",
    "building": "yes",
    "name": "Städtisches Museum",
    "tourism": "museum"
  }
},
{
  "type": "way",
  "id": 317838568,
  "nodes": [
    3241478291,
    3241478297,
    3241478302,
    3241478308,
    3241478298,
    3241478291
  ],
  "tags": {
    "addr:city": "Mannheim",
    "addr:country": "DE",
    "addr:housenumber": "7",
    "addr:place": "B5",
    "addr:postcode": "68159",
    "building": "yes",
    "image": "https://commons.wikimedia.org/wiki/File:Mannheim_Museum_Schillerhaus.JPG",
    "name": "Schillerhaus",
    "opening_hours": "Sa-Su 11:00-18:00",
    "operator": "rem gGmbH",
    "source": "LGL, www.lgl-bw.de",
    "tourism": "museum",
    "website": "http://www.rem-mannheim.de/museen/museum-schillerhaus/willkommen-in-b57.html",
    "wheelchair": "no",
    "wikidata": "Q21035613"
  }
},
{
  "type": "way",
  "id": 337844073,
  "nodes": [
    3449024172,
    1697326273,
    1697326251,
    3449024147,
    3449024150,
    3449024159,
    3449024172
  ],
  "tags": {
    "addr:city": "Mannheim",
    "addr:country": "DE",
    "addr:housenumber": "20",
    "addr:postcode": "68239",
    "addr:street": "Kloppenheimer Straße",
    "building": "yes",
    "name": "Heimatmuseum Seckenheim e.V.",
    "source:geometry": "LGL, www.lgl-bw.de",
    "tourism": "museum",
    "website": "http://p1qza.homepage.t-online.de/heimatmuseum/"
  }
},
{
  "type": "way",
  "id": 343014528,
  "nodes": [
    3499401836,
    3499401837,
    3499401838,
    3499401839,
    3499401836
  ],
  "tags": {
    "addr:city": "Elztal",
    "addr:housenumber": "7",
    "addr:postcode": "74834",
    "addr:street": "Mosbacher Straße",
    "addr:suburb": "Neckarburken",
    "building": "yes",
    "heritage": "yes",
    "image": "File:Neckarburken_-_Ortsmitte.jpg",
    "name": "Museum am Odenwaldlimes",
    "opening_hours": "Apr-Oct: Su 14:00-16:00 || \"sowie nach Vereinbarung\"",
    "phone": "+49 6261 5706",
    "tourism": "museum",
    "wheelchair": "no"
  }
},
{
  "type": "way",
  "id": 346392601,
  "nodes": [
    2361335155,
    2361335149,
    2361335147,
    2361335156,
    3529352185,
    2361335155
  ],
  "tags": {
    "addr:city": "Mannheim",
    "addr:postcode": "68259",
    "addr:street": "Pfalzstraße",
    "building": "yes",
    "building:levels": "1",
    "name": "Bohrmann'sche Schmiede",
    "tourism": "museum"
  }
},
{
  "type": "way",
  "id": 352149624,
  "nodes": [
    3579136798,
    3579136678,
    3579136648,
    4328511777,
    3579136639,
    3579136629,
    4328511715,
    3579136626,
    3579136627,
    4328511720,
    3579136628,
    4328511742,
    3579136630,
    3579136633,
    3579136635,
    4328511769,
    4328511775,
    3579136653,
    3579136798
  ],
  "tags": {
    "addr:city": "Speyer",
    "addr:country": "DE",
    "addr:housenumber": "13",
    "addr:postcode": "67346",
    "addr:street": "Gilgenstraße",
    "name": "Archäologisches Schaufenster",
    "phone": "+49 6232 670657",
    "toilets:wheelchair": "yes",
    "tourism": "museum",
    "website": "http://www.archaeologie-speyer.de/",
    "wheelchair": "yes",
    "wheelchair:description": "5 Stufen, schwellenloser Eingang vorhanden, Behindertentoilette vorhanden, kein Behindertenparkplatz"
  }
},
{
  "type": "way",
  "id": 352149632,
  "nodes": [
    3579136805,
    3579136801,
    3579136802,
    3579136807,
    3579136811,
    3579136810,
    3579136809,
    3579136808,
    3579136805
  ],
  "tags": {
    "addr:city": "Speyer",
    "addr:country": "DE",
    "addr:housenumber": "14",
    "addr:postcode": "67346",
    "addr:street": "Kleine Greifengasse",
    "alt_name": "Hans Purrmann-Haus",
    "name": "Purrmann-Haus",
    "phone": "+49 6232 77911",
    "tourism": "museum",
    "website": "https://www.speyer.de/sv_speyer/de/Tourismus/Museen%20und%20Lernorte/Purrmann%20Haus/",
    "wheelchair": "no",
    "wheelchair:description": "2 Stufen, keine Behindertentoilette, kein Behindertenparkplatz",
    "wikidata": "Q22838"
  }
},
{
  "type": "way",
  "id": 371345754,
  "nodes": [
    3749195428,
    3749195426,
    3749195423,
    3749195407,
    3749195409,
    3749195410,
    3749195400,
    3749195402,
    3749195406,
    3749195428
  ],
  "tags": {
    "addr:city": "Eppingen",
    "addr:country": "DE",
    "addr:housenumber": "6",
    "addr:postcode": "75031",
    "addr:street": "Kirchgasse",
    "building": "yes",
    "name": "Museum für Zeugnisse religiösen Volksglaubens",
    "source": "LGL, www.lgl-bw.de",
    "tourism": "museum"
  }
},
{
  "type": "way",
  "id": 387843648,
  "nodes": [
    3910769108,
    3910769098,
    3910769097,
    3910769100,
    3910769099,
    3910769107,
    3910769108
  ],
  "tags": {
    "FIXME": "ist das das richtige Gebäude?",
    "addr:city": "Schwarzach",
    "addr:housenumber": "25",
    "addr:postcode": "74869",
    "addr:street": "Wildparkstraße",
    "addr:suburb": "Unterschwarzach",
    "building": "yes",
    "museum": "apis mellifera",
    "name": "Bienenkundemuseum",
    "opening_hours:signed": "no",
    "tourism": "museum"
  }
},
{
  "type": "way",
  "id": 390203263,
  "nodes": [
    3933653661,
    3933653660,
    3933653659,
    3933653658,
    3933653657,
    3933653253,
    3933653249,
    3933653246,
    3933653247,
    3933653245,
    3933653244,
    3933653248,
    3933653250,
    3933653252,
    3933653251,
    3933653254,
    3933653255,
    3933653256,
    3933653661
  ],
  "tags": {
    "addr:city": "Mannheim",
    "addr:housenumber": "43",
    "addr:postcode": "68229",
    "addr:street": "Sulzer Straße",
    "email": "hemev@web.de",
    "fax": "+49 621 4825375",
    "fixme": "Umriss der als Museum genutzten Fläche nicht genau bekannt",
    "name": "Historische Eisenbahn Mannheim e.V.",
    "opening_hours": "Sa 10:00-17:00",
    "phone": "+49 621 4825374",
    "short_name": "HEM",
    "tourism": "museum",
    "website": "http://www.historische-eisenbahn-ma.de"
  }
},
{
  "type": "way",
  "id": 400256639,
  "nodes": [
    4028560536,
    4028560535,
    4028560508,
    4028481765,
    772784065,
    4028481716,
    4028481676,
    766876146,
    4028481654,
    4028481659,
    4028481665,
    4028560494,
    4061033130,
    4028481671,
    4028481698,
    772784067,
    4061033135,
    4061033136,
    4061033137,
    4061033138,
    4061033139,
    766876151,
    4028481977,
    1195647660,
    1195647715,
    4028482990,
    4028483637,
    4029019685,
    4029019687,
    4028483638,
    4028483636,
    4028483629,
    4028483608,
    4028483472,
    4028483457,
    4028483416,
    4028483404,
    766876129,
    4028483230,
    4028483189,
    4028560536
  ],
  "tags": {
    "addr:city": "Wiesloch",
    "addr:housenumber": "2",
    "addr:postcode": "69168",
    "addr:street": "In den Weinäckern",
    "alt_name": "Wiesloch Feldbahn;Wiesloch Feldbahn Museum;Wiesloch Industrie Museum;Feldbahn Museum Wiesloch;Feldbahn und Industriemuseum Wiesloch",
    "name": "Feldbahn- & Industriemuseum Wiesloch",
    "name:de": "Feldbahn- und Industriemuseum Wiesloch",
    "name:en": "Wiesloch Feldbahn and Industrial Museum",
    "operator": "Feldbahn- & Industriemuseum Wiesloch e.V.",
    "tourism": "museum",
    "website": "http://www.feldbahnmuseum-wiesloch.de/",
    "wheelchair": "no",
    "wikidata": "Q23721126",
    "wikipedia": "de:Feldbahn- & Industriemuseum Wiesloch",
    "wikipedia:en": "Wiesloch Feldbahn and Industrial Museum"
  }
},
{
  "type": "way",
  "id": 429579995,
  "nodes": [
    4287365483,
    4287365484,
    4287365485,
    5879132365,
    4287365486,
    4287365483
  ],
  "tags": {
    "addr:city": "Heppenheim",
    "addr:housenumber": "2",
    "addr:postcode": "64646",
    "addr:street": "Dieselstraße",
    "building": "yes",
    "building:levels": "2",
    "description": "Neubau Feuerwehrmuseum",
    "email": "1.vorsitzender@feuerwehr-heppenheim.de",
    "name": "Feuerwehr Museum Brandmeister Rudolf Kohl",
    "operator": "Freiw. Feuerwehr Heppenheim-Mitte e.V.",
    "phone": "+49 6252 77466",
    "tourism": "museum",
    "website": "http://www.feuerwehr-heppenheim.de"
  }
},
{
  "type": "way",
  "id": 458576985,
  "nodes": [
    4073309391,
    4073309390,
    4545598706,
    4545598708,
    4545598674,
    4545598709,
    4545598710,
    4545598711,
    4545598712,
    4545598713,
    4545598714,
    4545598715,
    4545598716,
    4073309394,
    4073309395,
    4073309391
  ],
  "tags": {
    "addr:city": "Speyer",
    "addr:country": "DE",
    "addr:housenumber": "9",
    "addr:postcode": "67346",
    "addr:street": "Allerheiligenstraße",
    "contact:phone": "+49 6232 70448",
    "contact:website": "http://www.feuerbachhaus.de/",
    "name": "Feuerbachhaus",
    "opening_hours": "Tu-Fr 16:00-18:00; Sa-Su 11:00-13:00",
    "tourism": "museum",
    "wheelchair": "no",
    "wheelchair:description": "Auf Grund der im Original erhaltenenen Grundrisssituation ist das Feuerbachhaus für Rollstuhlfahrer nicht geeignet. Der Zugang erfolgt über Kopfsteinpflaster und drei Treppenstufen ins Erdgeschoss. Im Sommer kann der angrenzende Rosengarten barrierefrei ü",
    "wikidata": "Q22616",
    "wikipedia": "de:Feuerbachhaus (Speyer)"
  }
},
{
  "type": "way",
  "id": 583554281,
  "nodes": [
    5579024776,
    5579024772,
    5579024773,
    5579024770,
    5579024771,
    2025662151,
    5579024759,
    5579024784,
    5579024781,
    5579024782,
    5579024783,
    2025662145,
    2025662149,
    2025662159,
    2025662162,
    2025662179,
    5579024777,
    2025662163,
    2025662166,
    2025662167,
    5983154733,
    2025662187,
    5983154731,
    2025662161,
    5579024785,
    5579024786,
    5579024787,
    5579024788,
    2025662156,
    5579024776
  ],
  "tags": {
    "addr:city": "Sinsheim",
    "addr:country": "DE",
    "addr:housenumber": "4",
    "addr:postcode": "74889",
    "addr:street": "Untere Au",
    "contact:website": "http://www.erlebnispark-fördertechnik.de/",
    "fee": "yes",
    "museum": "technology",
    "name": "Erlebnismuseum Fördertechnik",
    "opening_hours": "Tu-Su 10:00-17:00",
    "operator": "Stiftung Erlebnismuseum Fördertechnik gGmbH",
    "tourism": "museum",
    "wheelchair": "yes"
  }
},
{
  "type": "way",
  "id": 659181594,
  "nodes": [
    4126922058,
    4126922055,
    4126922053,
    4126922054,
    3150250182,
    1635848138,
    1635848143,
    1635848139,
    1635848136,
    1635848137,
    1635848132,
    1635848130,
    6171606909,
    1635848116,
    1635848127,
    1635848113,
    1635848112,
    1635848108,
    1635848118,
    1635848133,
    3150250183,
    4126922052,
    4126922051,
    4126922050,
    4126922056,
    6171616290,
    6171616291,
    6171629966,
    6171616292,
    4126922057,
    4126922058
  ],
  "tags": {
    "addr:city": "Mannheim",
    "addr:housenumber": "4",
    "addr:postcode": "68165",
    "addr:street": "Friedrichsplatz",
    "amenity": "arts_centre",
    "fee": "yes",
    "lastcheck": "2018-12-29",
    "name": "Kunsthalle Mannheim",
    "opening_hours": "Tu-Su,PH 10:00-18:00; We 10:00-20:00",
    "toilets:wheelchair": "yes",
    "tourism": "museum",
    "website": "https://www.kuma.art",
    "wheelchair": "yes",
    "wikidata": "Q468458",
    "wikipedia": "de:Kunsthalle Mannheim"
  }
},
{
  "type": "way",
  "id": 687240631,
  "nodes": [
    6441637178,
    6441637179,
    6441637180,
    6441637181,
    6441637178
  ],
  "tags": {
    "addr:city": "Bensheim",
    "addr:postcode": "64625",
    "building": "yes",
    "description": "Russische Flugzeug- und Raketentechnik",
    "name": "Red Stars",
    "opening_hours": "Apr-Nov Su 15:00-18:00",
    "operator": "Sanner GmbH",
    "operator:type": "private",
    "tourism": "museum",
    "website": "http://web.archive.org/web/20180808173903/http://redstars-bensheim.de/"
  }
},
{
  "type": "way",
  "id": 690655732,
  "nodes": [
    6480075883,
    6480075890,
    6480075891,
    6480075892,
    6480075882,
    6480075911,
    6480075912,
    6480075913,
    6480075914,
    6480075915,
    6480075916,
    6480075917,
    6480075918,
    6480075919,
    6480075920,
    6480075921,
    6480075897,
    6480075905,
    6480075898,
    6480075899,
    6480075900,
    6480075901,
    6480075902,
    6480075903,
    6480075904,
    6480075896,
    6480075922,
    6480075923,
    6480075881,
    6480075924,
    6480075925,
    6480075926,
    6480075927,
    6480075928,
    6480075929,
    6480075906,
    6480075907,
    6480075908,
    6480075884,
    6480075889,
    6480075888,
    6480075887,
    6480075886,
    6480075885,
    6480075895,
    6480075909,
    5997405599,
    6480075910,
    6480075894,
    6480075883
  ],
  "tags": {
    "addr:city": "Worms",
    "addr:country": "DE",
    "addr:housenumber": "9",
    "addr:postcode": "67547",
    "addr:street": "Stephansgasse",
    "building": "yes",
    "name": "Museum Heylshof",
    "shop": "art",
    "tourism": "museum",
    "website": "http://www.museum-heylshof.de/",
    "wikidata": "Q29650188"
  }
},
{
  "type": "way",
  "id": 732425408,
  "nodes": [
    2047959834,
    6858571832,
    6858571831,
    6858571830,
    6858571829,
    6858571828,
    6858571827,
    6858571826,
    2047959642,
    2047959739,
    909296635,
    909296622,
    909296627,
    2047959770,
    2047959802,
    2047959834
  ],
  "tags": {
    "addr:city": "Sinsheim",
    "addr:country": "DE",
    "addr:housenumber": "6",
    "addr:postcode": "74889",
    "addr:street": "Dietmar-Hopp-Straße",
    "contact:website": "https://klima-arena.de/",
    "name": "Klima Arena",
    "opening_hours": "Oct-Mar Mo-Fr 09:00-17:00; Oct-Mar Sa,Su 10:00-17:00; Apr-Sep Mo-Fr 09:00-18:00,18:00-19:00 open \"nur Außenausstellung\"; Apr-Nov Sa,Su 10:00-18:00,18:00-19:00 open \"nur Außenausstellung\"",
    "operator": "Klimastiftung für Bürger",
    "operator:type": "foundation",
    "start_date": "2019-10",
    "tourism": "museum"
  }
},
{
  "type": "relation",
  "id": 2655934,
  "members": [
    {
      "type": "way",
      "ref": 188600465,
      "role": "outer"
    },
    {
      "type": "way",
      "ref": 188600305,
      "role": "outer"
    },
    {
      "type": "way",
      "ref": 188600587,
      "role": "outer"
    },
    {
      "type": "way",
      "ref": 188600609,
      "role": "outer"
    }
  ],
  "tags": {
    "building": "yes",
    "name": "Friedrich der Große Museum im Lerchenhof",
    "tourism": "museum",
    "type": "multipolygon"
  }
},
{
  "type": "relation",
  "id": 9251661,
  "members": [
    {
      "type": "way",
      "ref": 207515779,
      "role": "outer"
    },
    {
      "type": "way",
      "ref": 207515780,
      "role": "outer"
    },
    {
      "type": "way",
      "ref": 207515778,
      "role": "outer"
    },
    {
      "type": "way",
      "ref": 207515607,
      "role": "outer"
    }
  ],
  "tags": {
    "addr:city": "Worms",
    "addr:housename": "Andreaskirche",
    "addr:housenumber": "8;7",
    "addr:postcode": "67547",
    "addr:street": "Weckerlingplatz",
    "building": "yes",
    "name": "Museum der Stadt Worms",
    "opening_hours": "Tu–Su 10:00–17:00; Mo off",
    "operator": "Stadt Worms",
    "religion": "christian",
    "tourism": "museum",
    "type": "multipolygon",
    "website": "https://www.worms.de/museum-andreasstift/",
    "wikidata": "Q23787108",
    "wikipedia": "de:Museum der Stadt Worms"
  }
},
{
  "type": "node",
  "id": 1143621097,
  "lat": 49.3610086,
  "lon": 8.2624064
},
{
  "type": "node",
  "id": 1143621128,
  "lat": 49.3610793,
  "lon": 8.2621319
},
{
  "type": "node",
  "id": 1143621186,
  "lat": 49.3610346,
  "lon": 8.2624005
},
{
  "type": "node",
  "id": 1143621256,
  "lat": 49.3611034,
  "lon": 8.2623850
},
{
  "type": "node",
  "id": 1143621280,
  "lat": 49.3609844,
  "lon": 8.2621532
},
{
  "type": "node",
  "id": 1711604642,
  "lat": 49.3650166,
  "lon": 8.3031059
},
{
  "type": "node",
  "id": 1711604707,
  "lat": 49.3651164,
  "lon": 8.3033512
},
{
  "type": "node",
  "id": 1711605204,
  "lat": 49.3650753,
  "lon": 8.3030496
},
{
  "type": "node",
  "id": 1711605479,
  "lat": 49.3651750,
  "lon": 8.3032949
},
{
  "type": "node",
  "id": 3959682673,
  "lat": 49.3651621,
  "lon": 8.3033073
},
{
  "type": "node",
  "id": 1711914043,
  "lat": 49.3655979,
  "lon": 8.3085066
},
{
  "type": "node",
  "id": 1711914308,
  "lat": 49.3656713,
  "lon": 8.3083967
},
{
  "type": "node",
  "id": 1711914365,
  "lat": 49.3657150,
  "lon": 8.3085925
},
{
  "type": "node",
  "id": 1711914855,
  "lat": 49.3655840,
  "lon": 8.3084262
},
{
  "type": "node",
  "id": 1711915267,
  "lat": 49.3656451,
  "lon": 8.3086193
},
{
  "type": "node",
  "id": 2155381679,
  "lat": 49.5355448,
  "lon": 8.3545470
},
{
  "type": "node",
  "id": 2155381680,
  "lat": 49.5355822,
  "lon": 8.3548996
},
{
  "type": "node",
  "id": 2155381684,
  "lat": 49.5356546,
  "lon": 8.3545177
},
{
  "type": "node",
  "id": 2155381685,
  "lat": 49.5356788,
  "lon": 8.3548607
},
{
  "type": "node",
  "id": 2155381687,
  "lat": 49.5356859,
  "lon": 8.3548578
},
{
  "type": "node",
  "id": 2155381688,
  "lat": 49.5357000,
  "lon": 8.3548946
},
{
  "type": "node",
  "id": 2155381691,
  "lat": 49.5357145,
  "lon": 8.3548391
},
{
  "type": "node",
  "id": 2155381694,
  "lat": 49.5357230,
  "lon": 8.3548721
},
{
  "type": "node",
  "id": 2155381696,
  "lat": 49.5357258,
  "lon": 8.3548692
},
{
  "type": "node",
  "id": 2155381710,
  "lat": 49.5357831,
  "lon": 8.3548031
},
{
  "type": "node",
  "id": 1209199072,
  "lat": 49.5779856,
  "lon": 8.3654925
},
{
  "type": "node",
  "id": 1209199180,
  "lat": 49.5778678,
  "lon": 8.3657804
},
{
  "type": "node",
  "id": 1209199275,
  "lat": 49.5779790,
  "lon": 8.3657804
},
{
  "type": "node",
  "id": 1209199638,
  "lat": 49.5778735,
  "lon": 8.3654864
},
{
  "type": "node",
  "id": 2177680533,
  "lat": 49.6282156,
  "lon": 8.3579778
},
{
  "type": "node",
  "id": 2177680536,
  "lat": 49.6282451,
  "lon": 8.3578947
},
{
  "type": "node",
  "id": 2177680538,
  "lat": 49.6283857,
  "lon": 8.3575185
},
{
  "type": "node",
  "id": 2177680540,
  "lat": 49.6282586,
  "lon": 8.3573958
},
{
  "type": "node",
  "id": 2177680543,
  "lat": 49.6281179,
  "lon": 8.3577579
},
{
  "type": "node",
  "id": 2177680545,
  "lat": 49.6280957,
  "lon": 8.3577393
},
{
  "type": "node",
  "id": 2177680548,
  "lat": 49.6280592,
  "lon": 8.3578385
},
{
  "type": "node",
  "id": 2177682190,
  "lat": 49.6279098,
  "lon": 8.3574442
},
{
  "type": "node",
  "id": 2177682191,
  "lat": 49.6280905,
  "lon": 8.3572699
},
{
  "type": "node",
  "id": 2177682192,
  "lat": 49.6282498,
  "lon": 8.3574183
},
{
  "type": "node",
  "id": 2177682193,
  "lat": 49.6280768,
  "lon": 8.3577907
},
{
  "type": "node",
  "id": 2177682194,
  "lat": 49.6282815,
  "lon": 8.3574180
},
{
  "type": "node",
  "id": 2177682195,
  "lat": 49.6279793,
  "lon": 8.3575140
},
{
  "type": "node",
  "id": 2177682196,
  "lat": 49.6283059,
  "lon": 8.3573611
},
{
  "type": "node",
  "id": 2177682197,
  "lat": 49.6280575,
  "lon": 8.3571036
},
{
  "type": "node",
  "id": 2177682198,
  "lat": 49.6279567,
  "lon": 8.3574913
},
{
  "type": "node",
  "id": 2177682199,
  "lat": 49.6278142,
  "lon": 8.3575891
},
{
  "type": "node",
  "id": 2177682200,
  "lat": 49.6279029,
  "lon": 8.3576189
},
{
  "type": "node",
  "id": 2177682201,
  "lat": 49.6278872,
  "lon": 8.3574201
},
{
  "type": "node",
  "id": 2177682202,
  "lat": 49.6278872,
  "lon": 8.3576561
},
{
  "type": "node",
  "id": 2177682203,
  "lat": 49.6281510,
  "lon": 8.3576690
},
{
  "type": "node",
  "id": 5997405599,
  "lat": 49.6313589,
  "lon": 8.3598138
},
{
  "type": "node",
  "id": 6480075881,
  "lat": 49.6311405,
  "lon": 8.3596199
},
{
  "type": "node",
  "id": 6480075882,
  "lat": 49.6313430,
  "lon": 8.3598676
},
{
  "type": "node",
  "id": 6480075883,
  "lat": 49.6313518,
  "lon": 8.3598591
},
{
  "type": "node",
  "id": 6480075884,
  "lat": 49.6313445,
  "lon": 8.3597629
},
{
  "type": "node",
  "id": 6480075885,
  "lat": 49.6313529,
  "lon": 8.3597721
},
{
  "type": "node",
  "id": 6480075886,
  "lat": 49.6313523,
  "lon": 8.3597680
},
{
  "type": "node",
  "id": 6480075887,
  "lat": 49.6313507,
  "lon": 8.3597646
},
{
  "type": "node",
  "id": 6480075888,
  "lat": 49.6313483,
  "lon": 8.3597626
},
{
  "type": "node",
  "id": 6480075889,
  "lat": 49.6313456,
  "lon": 8.3597622
},
{
  "type": "node",
  "id": 6480075890,
  "lat": 49.6313508,
  "lon": 8.3598637
},
{
  "type": "node",
  "id": 6480075891,
  "lat": 49.6313485,
  "lon": 8.3598671
},
{
  "type": "node",
  "id": 6480075892,
  "lat": 49.6313455,
  "lon": 8.3598684
},
{
  "type": "node",
  "id": 6480075894,
  "lat": 49.6313519,
  "lon": 8.3598440
},
{
  "type": "node",
  "id": 6480075895,
  "lat": 49.6313527,
  "lon": 8.3597834
},
{
  "type": "node",
  "id": 6480075896,
  "lat": 49.6311670,
  "lon": 8.3597365
},
{
  "type": "node",
  "id": 6480075897,
  "lat": 49.6311651,
  "lon": 8.3598748
},
{
  "type": "node",
  "id": 6480075898,
  "lat": 49.6311496,
  "lon": 8.3598558
},
{
  "type": "node",
  "id": 6480075899,
  "lat": 49.6311427,
  "lon": 8.3598383
},
{
  "type": "node",
  "id": 6480075900,
  "lat": 49.6311389,
  "lon": 8.3598186
},
{
  "type": "node",
  "id": 6480075901,
  "lat": 49.6311386,
  "lon": 8.3597981
},
{
  "type": "node",
  "id": 6480075902,
  "lat": 49.6311417,
  "lon": 8.3597782
},
{
  "type": "node",
  "id": 6480075903,
  "lat": 49.6311481,
  "lon": 8.3597603
},
{
  "type": "node",
  "id": 6480075904,
  "lat": 49.6311573,
  "lon": 8.3597455
},
{
  "type": "node",
  "id": 6480075905,
  "lat": 49.6311592,
  "lon": 8.3598699
},
{
  "type": "node",
  "id": 6480075906,
  "lat": 49.6313108,
  "lon": 8.3596723
},
{
  "type": "node",
  "id": 6480075907,
  "lat": 49.6313097,
  "lon": 8.3597569
},
{
  "type": "node",
  "id": 6480075908,
  "lat": 49.6313445,
  "lon": 8.3597580
},
{
  "type": "node",
  "id": 6480075909,
  "lat": 49.6313590,
  "lon": 8.3597836
},
{
  "type": "node",
  "id": 6480075910,
  "lat": 49.6313581,
  "lon": 8.3598442
},
{
  "type": "node",
  "id": 6480075911,
  "lat": 49.6313430,
  "lon": 8.3598722
},
{
  "type": "node",
  "id": 6480075912,
  "lat": 49.6313081,
  "lon": 8.3598710
},
{
  "type": "node",
  "id": 6480075913,
  "lat": 49.6313070,
  "lon": 8.3599471
},
{
  "type": "node",
  "id": 6480075914,
  "lat": 49.6313346,
  "lon": 8.3599915
},
{
  "type": "node",
  "id": 6480075915,
  "lat": 49.6312853,
  "lon": 8.3600643
},
{
  "type": "node",
  "id": 6480075916,
  "lat": 49.6312653,
  "lon": 8.3600320
},
{
  "type": "node",
  "id": 6480075917,
  "lat": 49.6312140,
  "lon": 8.3601079
},
{
  "type": "node",
  "id": 6480075918,
  "lat": 49.6312176,
  "lon": 8.3601136
},
{
  "type": "node",
  "id": 6480075919,
  "lat": 49.6312109,
  "lon": 8.3601233
},
{
  "type": "node",
  "id": 6480075920,
  "lat": 49.6311311,
  "lon": 8.3599948
},
{
  "type": "node",
  "id": 6480075921,
  "lat": 49.6311641,
  "lon": 8.3599459
},
{
  "type": "node",
  "id": 6480075922,
  "lat": 49.6311679,
  "lon": 8.3596713
},
{
  "type": "node",
  "id": 6480075923,
  "lat": 49.6311381,
  "lon": 8.3596234
},
{
  "type": "node",
  "id": 6480075924,
  "lat": 49.6311863,
  "lon": 8.3595521
},
{
  "type": "node",
  "id": 6480075925,
  "lat": 49.6311882,
  "lon": 8.3595552
},
{
  "type": "node",
  "id": 6480075926,
  "lat": 49.6312199,
  "lon": 8.3595082
},
{
  "type": "node",
  "id": 6480075927,
  "lat": 49.6312720,
  "lon": 8.3595921
},
{
  "type": "node",
  "id": 6480075928,
  "lat": 49.6312926,
  "lon": 8.3595617
},
{
  "type": "node",
  "id": 6480075929,
  "lat": 49.6313375,
  "lon": 8.3596341
},
{
  "type": "node",
  "id": 30206644,
  "lat": 49.6296290,
  "lon": 8.3669400
},
{
  "type": "node",
  "id": 30206645,
  "lat": 49.6296136,
  "lon": 8.3670528
},
{
  "type": "node",
  "id": 30206647,
  "lat": 49.6292476,
  "lon": 8.3668054
},
{
  "type": "node",
  "id": 2023221460,
  "lat": 49.6333003,
  "lon": 8.3664913
},
{
  "type": "node",
  "id": 2023221467,
  "lat": 49.6333268,
  "lon": 8.3661997
},
{
  "type": "node",
  "id": 2023221468,
  "lat": 49.6334176,
  "lon": 8.3665167
},
{
  "type": "node",
  "id": 2023221472,
  "lat": 49.6334441,
  "lon": 8.3662251
},
{
  "type": "node",
  "id": 2131368188,
  "lat": 49.6292722,
  "lon": 8.3669119
},
{
  "type": "node",
  "id": 2131368189,
  "lat": 49.6292752,
  "lon": 8.3668897
},
{
  "type": "node",
  "id": 2131368190,
  "lat": 49.6292825,
  "lon": 8.3668515
},
{
  "type": "node",
  "id": 2131368191,
  "lat": 49.6292870,
  "lon": 8.3668181
},
{
  "type": "node",
  "id": 2131368192,
  "lat": 49.6292916,
  "lon": 8.3669265
},
{
  "type": "node",
  "id": 2131368193,
  "lat": 49.6292957,
  "lon": 8.3668963
},
{
  "type": "node",
  "id": 2131368194,
  "lat": 49.6293049,
  "lon": 8.3668588
},
{
  "type": "node",
  "id": 2131368195,
  "lat": 49.6293105,
  "lon": 8.3668175
},
{
  "type": "node",
  "id": 2131368196,
  "lat": 49.6293344,
  "lon": 8.3669404
},
{
  "type": "node",
  "id": 2131368197,
  "lat": 49.6293377,
  "lon": 8.3669160
},
{
  "type": "node",
  "id": 2131368198,
  "lat": 49.6293378,
  "lon": 8.3668751
},
{
  "type": "node",
  "id": 2131368199,
  "lat": 49.6293441,
  "lon": 8.3668284
},
{
  "type": "node",
  "id": 2131368200,
  "lat": 49.6293631,
  "lon": 8.3668833
},
{
  "type": "node",
  "id": 2131368201,
  "lat": 49.6293680,
  "lon": 8.3668473
},
{
  "type": "node",
  "id": 2131368203,
  "lat": 49.6293892,
  "lon": 8.3668952
},
{
  "type": "node",
  "id": 2131368204,
  "lat": 49.6293946,
  "lon": 8.3668558
},
{
  "type": "node",
  "id": 2131368205,
  "lat": 49.6294027,
  "lon": 8.3669710
},
{
  "type": "node",
  "id": 2131368206,
  "lat": 49.6294072,
  "lon": 8.3669385
},
{
  "type": "node",
  "id": 2131368208,
  "lat": 49.6294158,
  "lon": 8.3669038
},
{
  "type": "node",
  "id": 2131368209,
  "lat": 49.6294201,
  "lon": 8.3668721
},
{
  "type": "node",
  "id": 2131368211,
  "lat": 49.6294391,
  "lon": 8.3669828
},
{
  "type": "node",
  "id": 2131368213,
  "lat": 49.6294422,
  "lon": 8.3669603
},
{
  "type": "node",
  "id": 2131368214,
  "lat": 49.6294517,
  "lon": 8.3669212
},
{
  "type": "node",
  "id": 2131368215,
  "lat": 49.6294567,
  "lon": 8.3668840
},
{
  "type": "node",
  "id": 2131368216,
  "lat": 49.6294638,
  "lon": 8.3669955
},
{
  "type": "node",
  "id": 2131368217,
  "lat": 49.6294675,
  "lon": 8.3669685
},
{
  "type": "node",
  "id": 2131368218,
  "lat": 49.6294730,
  "lon": 8.3669281
},
{
  "type": "node",
  "id": 2131368219,
  "lat": 49.6294780,
  "lon": 8.3668913
},
{
  "type": "node",
  "id": 2131368223,
  "lat": 49.6294939,
  "lon": 8.3670053
},
{
  "type": "node",
  "id": 2131368225,
  "lat": 49.6294975,
  "lon": 8.3669792
},
{
  "type": "node",
  "id": 2131368226,
  "lat": 49.6295084,
  "lon": 8.3669341
},
{
  "type": "node",
  "id": 2131368227,
  "lat": 49.6295126,
  "lon": 8.3669025
},
{
  "type": "node",
  "id": 2131368229,
  "lat": 49.6295205,
  "lon": 8.3670174
},
{
  "type": "node",
  "id": 2131368230,
  "lat": 49.6295245,
  "lon": 8.3669880
},
{
  "type": "node",
  "id": 2131368231,
  "lat": 49.6295331,
  "lon": 8.3669421
},
{
  "type": "node",
  "id": 2131368232,
  "lat": 49.6295374,
  "lon": 8.3669102
},
{
  "type": "node",
  "id": 2131368233,
  "lat": 49.6295548,
  "lon": 8.3670286
},
{
  "type": "node",
  "id": 2131368234,
  "lat": 49.6295582,
  "lon": 8.3670035
},
{
  "type": "node",
  "id": 2131368236,
  "lat": 49.6295654,
  "lon": 8.3669669
},
{
  "type": "node",
  "id": 2131368238,
  "lat": 49.6295716,
  "lon": 8.3669213
},
{
  "type": "node",
  "id": 2131368240,
  "lat": 49.6295790,
  "lon": 8.3670416
},
{
  "type": "node",
  "id": 2131368242,
  "lat": 49.6295831,
  "lon": 8.3670116
},
{
  "type": "node",
  "id": 2131368244,
  "lat": 49.6295887,
  "lon": 8.3669745
},
{
  "type": "node",
  "id": 2131368246,
  "lat": 49.6295949,
  "lon": 8.3669290
},
{
  "type": "node",
  "id": 2183266442,
  "lat": 49.6292348,
  "lon": 8.3668998
},
{
  "type": "node",
  "id": 4860233144,
  "lat": 49.6334264,
  "lon": 8.3664192
},
{
  "type": "node",
  "id": 5496276123,
  "lat": 49.6334104,
  "lon": 8.3662178
},
{
  "type": "node",
  "id": 5496276152,
  "lat": 49.6334430,
  "lon": 8.3662360
},
{
  "type": "node",
  "id": 2195839503,
  "lat": 49.6331878,
  "lon": 8.3699059
},
{
  "type": "node",
  "id": 2195839588,
  "lat": 49.6332209,
  "lon": 8.3698011
},
{
  "type": "node",
  "id": 2195839589,
  "lat": 49.6331579,
  "lon": 8.3697529
},
{
  "type": "node",
  "id": 2195839590,
  "lat": 49.6331279,
  "lon": 8.3698609
},
{
  "type": "node",
  "id": 2940793283,
  "lat": 49.1857818,
  "lon": 8.4263187
},
{
  "type": "node",
  "id": 2940793290,
  "lat": 49.1858561,
  "lon": 8.4264883
},
{
  "type": "node",
  "id": 2940793292,
  "lat": 49.1858577,
  "lon": 8.4262408
},
{
  "type": "node",
  "id": 2940793295,
  "lat": 49.1859321,
  "lon": 8.4264104
},
{
  "type": "node",
  "id": 3112506469,
  "lat": 49.1554946,
  "lon": 8.4835887
},
{
  "type": "node",
  "id": 3112506471,
  "lat": 49.1555036,
  "lon": 8.4836601
},
{
  "type": "node",
  "id": 3112506475,
  "lat": 49.1555144,
  "lon": 8.4836522
},
{
  "type": "node",
  "id": 3112506477,
  "lat": 49.1555217,
  "lon": 8.4837180
},
{
  "type": "node",
  "id": 3112506478,
  "lat": 49.1555347,
  "lon": 8.4837085
},
{
  "type": "node",
  "id": 3112506479,
  "lat": 49.1555551,
  "lon": 8.4838375
},
{
  "type": "node",
  "id": 3112506480,
  "lat": 49.1555616,
  "lon": 8.4838581
},
{
  "type": "node",
  "id": 3112506481,
  "lat": 49.1555713,
  "lon": 8.4838257
},
{
  "type": "node",
  "id": 3112506482,
  "lat": 49.1555778,
  "lon": 8.4838462
},
{
  "type": "node",
  "id": 3112506483,
  "lat": 49.1555976,
  "lon": 8.4835134
},
{
  "type": "node",
  "id": 3112506484,
  "lat": 49.1556065,
  "lon": 8.4839381
},
{
  "type": "node",
  "id": 3112506485,
  "lat": 49.1557074,
  "lon": 8.4838643
},
{
  "type": "node",
  "id": 2316390202,
  "lat": 49.2978048,
  "lon": 8.5062436
},
{
  "type": "node",
  "id": 2316390204,
  "lat": 49.2978924,
  "lon": 8.5063381
},
{
  "type": "node",
  "id": 2316390207,
  "lat": 49.2980240,
  "lon": 8.5056928
},
{
  "type": "node",
  "id": 2316390208,
  "lat": 49.2980359,
  "lon": 8.5060261
},
{
  "type": "node",
  "id": 2316390209,
  "lat": 49.2980409,
  "lon": 8.5060315
},
{
  "type": "node",
  "id": 2316390210,
  "lat": 49.2980454,
  "lon": 8.5057159
},
{
  "type": "node",
  "id": 2316390211,
  "lat": 49.2980563,
  "lon": 8.5059815
},
{
  "type": "node",
  "id": 2316390212,
  "lat": 49.2980613,
  "lon": 8.5059869
},
{
  "type": "node",
  "id": 2316390214,
  "lat": 49.2980840,
  "lon": 8.5055620
},
{
  "type": "node",
  "id": 2316390215,
  "lat": 49.2980979,
  "lon": 8.5058910
},
{
  "type": "node",
  "id": 2316390216,
  "lat": 49.2981059,
  "lon": 8.5058996
},
{
  "type": "node",
  "id": 2316390217,
  "lat": 49.2981054,
  "lon": 8.5055851
},
{
  "type": "node",
  "id": 2316390218,
  "lat": 49.2981344,
  "lon": 8.5058113
},
{
  "type": "node",
  "id": 2316390219,
  "lat": 49.2981424,
  "lon": 8.5058199
},
{
  "type": "node",
  "id": 2316390220,
  "lat": 49.2981474,
  "lon": 8.5054936
},
{
  "type": "node",
  "id": 2316390222,
  "lat": 49.2982362,
  "lon": 8.5055893
},
{
  "type": "node",
  "id": 3451859898,
  "lat": 49.2979041,
  "lon": 8.5060240
},
{
  "type": "node",
  "id": 3451859899,
  "lat": 49.2979051,
  "lon": 8.5060250
},
{
  "type": "node",
  "id": 3451859901,
  "lat": 49.2979927,
  "lon": 8.5061195
},
{
  "type": "node",
  "id": 3451859902,
  "lat": 49.2979929,
  "lon": 8.5061198
},
{
  "type": "node",
  "id": 3451859910,
  "lat": 49.2981742,
  "lon": 8.5057245
},
{
  "type": "node",
  "id": 3451859911,
  "lat": 49.2981792,
  "lon": 8.5057299
},
{
  "type": "node",
  "id": 3451859912,
  "lat": 49.2981942,
  "lon": 8.5056809
},
{
  "type": "node",
  "id": 3451859913,
  "lat": 49.2981992,
  "lon": 8.5056862
},
{
  "type": "node",
  "id": 3881151351,
  "lat": 49.2978741,
  "lon": 8.5060925
},
{
  "type": "node",
  "id": 3881151352,
  "lat": 49.2979617,
  "lon": 8.5061870
},
{
  "type": "node",
  "id": 3881151354,
  "lat": 49.2981241,
  "lon": 8.5058598
},
{
  "type": "node",
  "id": 1511352245,
  "lat": 49.1818986,
  "lon": 8.6429334
},
{
  "type": "node",
  "id": 1511352246,
  "lat": 49.1819898,
  "lon": 8.6426393
},
{
  "type": "node",
  "id": 1511352251,
  "lat": 49.1820342,
  "lon": 8.6428181
},
{
  "type": "node",
  "id": 1511352256,
  "lat": 49.1820714,
  "lon": 8.6426984
},
{
  "type": "node",
  "id": 5024879728,
  "lat": 49.1819439,
  "lon": 8.6429663
},
{
  "type": "node",
  "id": 5024879729,
  "lat": 49.1819980,
  "lon": 8.6427918
},
{
  "type": "node",
  "id": 766876129,
  "lat": 49.2985784,
  "lon": 8.6695829
},
{
  "type": "node",
  "id": 766876146,
  "lat": 49.2968979,
  "lon": 8.6686438
},
{
  "type": "node",
  "id": 766876151,
  "lat": 49.2971708,
  "lon": 8.6671711
},
{
  "type": "node",
  "id": 772784065,
  "lat": 49.2970996,
  "lon": 8.6687491
},
{
  "type": "node",
  "id": 772784067,
  "lat": 49.2970516,
  "lon": 8.6678459
},
{
  "type": "node",
  "id": 1195647660,
  "lat": 49.2974318,
  "lon": 8.6673666
},
{
  "type": "node",
  "id": 1195647715,
  "lat": 49.2978032,
  "lon": 8.6674347
},
{
  "type": "node",
  "id": 4028481654,
  "lat": 49.2969125,
  "lon": 8.6685680
},
{
  "type": "node",
  "id": 4028481659,
  "lat": 49.2969291,
  "lon": 8.6685719
},
{
  "type": "node",
  "id": 4028481665,
  "lat": 49.2969650,
  "lon": 8.6685787
},
{
  "type": "node",
  "id": 4028481671,
  "lat": 49.2969813,
  "lon": 8.6682653
},
{
  "type": "node",
  "id": 4028481676,
  "lat": 49.2969863,
  "lon": 8.6686884
},
{
  "type": "node",
  "id": 4028481698,
  "lat": 49.2970373,
  "lon": 8.6679199
},
{
  "type": "node",
  "id": 4028481716,
  "lat": 49.2970823,
  "lon": 8.6687385
},
{
  "type": "node",
  "id": 4028481765,
  "lat": 49.2971340,
  "lon": 8.6687733
},
{
  "type": "node",
  "id": 4028481977,
  "lat": 49.2973077,
  "lon": 8.6672483
},
{
  "type": "node",
  "id": 4028482990,
  "lat": 49.2981208,
  "lon": 8.6674806
},
{
  "type": "node",
  "id": 4028483189,
  "lat": 49.2983332,
  "lon": 8.6695020
},
{
  "type": "node",
  "id": 4028483230,
  "lat": 49.2984976,
  "lon": 8.6695604
},
{
  "type": "node",
  "id": 4028483404,
  "lat": 49.2986683,
  "lon": 8.6696073
},
{
  "type": "node",
  "id": 4028483416,
  "lat": 49.2987130,
  "lon": 8.6693607
},
{
  "type": "node",
  "id": 4028483457,
  "lat": 49.2988433,
  "lon": 8.6688242
},
{
  "type": "node",
  "id": 4028483472,
  "lat": 49.2988902,
  "lon": 8.6687271
},
{
  "type": "node",
  "id": 4028483608,
  "lat": 49.2990065,
  "lon": 8.6685578
},
{
  "type": "node",
  "id": 4028483629,
  "lat": 49.2991489,
  "lon": 8.6684282
},
{
  "type": "node",
  "id": 4028483636,
  "lat": 49.2992007,
  "lon": 8.6683181
},
{
  "type": "node",
  "id": 4028483637,
  "lat": 49.2992164,
  "lon": 8.6674661
},
{
  "type": "node",
  "id": 4028483638,
  "lat": 49.2992286,
  "lon": 8.6681927
},
{
  "type": "node",
  "id": 4028560494,
  "lat": 49.2969657,
  "lon": 8.6685632
},
{
  "type": "node",
  "id": 4028560508,
  "lat": 49.2975558,
  "lon": 8.6690383
},
{
  "type": "node",
  "id": 4028560535,
  "lat": 49.2981947,
  "lon": 8.6694404
},
{
  "type": "node",
  "id": 4028560536,
  "lat": 49.2982688,
  "lon": 8.6694755
},
{
  "type": "node",
  "id": 4029019685,
  "lat": 49.2992089,
  "lon": 8.6676920
},
{
  "type": "node",
  "id": 4029019687,
  "lat": 49.2992321,
  "lon": 8.6679815
},
{
  "type": "node",
  "id": 4061033130,
  "lat": 49.2969776,
  "lon": 8.6683021
},
{
  "type": "node",
  "id": 4061033135,
  "lat": 49.2971123,
  "lon": 8.6674939
},
{
  "type": "node",
  "id": 4061033136,
  "lat": 49.2971218,
  "lon": 8.6674407
},
{
  "type": "node",
  "id": 4061033137,
  "lat": 49.2971312,
  "lon": 8.6673876
},
{
  "type": "node",
  "id": 4061033138,
  "lat": 49.2971407,
  "lon": 8.6673344
},
{
  "type": "node",
  "id": 4061033139,
  "lat": 49.2971475,
  "lon": 8.6672962
},
{
  "type": "node",
  "id": 3180310161,
  "lat": 49.2936026,
  "lon": 8.6994539
},
{
  "type": "node",
  "id": 3180310184,
  "lat": 49.2935780,
  "lon": 8.6993805
},
{
  "type": "node",
  "id": 3180310185,
  "lat": 49.2935864,
  "lon": 8.6994482
},
{
  "type": "node",
  "id": 3180357140,
  "lat": 49.2936389,
  "lon": 8.6994436
},
{
  "type": "node",
  "id": 3180357141,
  "lat": 49.2936362,
  "lon": 8.6995272
},
{
  "type": "node",
  "id": 3180357142,
  "lat": 49.2936335,
  "lon": 8.6995528
},
{
  "type": "node",
  "id": 3180357143,
  "lat": 49.2937031,
  "lon": 8.6994232
},
{
  "type": "node",
  "id": 3180357144,
  "lat": 49.2937073,
  "lon": 8.6993049
},
{
  "type": "node",
  "id": 3180357148,
  "lat": 49.2936279,
  "lon": 8.6993197
},
{
  "type": "node",
  "id": 3180357149,
  "lat": 49.2935951,
  "lon": 8.6993783
},
{
  "type": "node",
  "id": 5962549989,
  "lat": 49.2935943,
  "lon": 8.6993439
},
{
  "type": "node",
  "id": 5962549990,
  "lat": 49.2936269,
  "lon": 8.6993393
},
{
  "type": "node",
  "id": 5962549991,
  "lat": 49.2937205,
  "lon": 8.6994097
},
{
  "type": "node",
  "id": 5962549992,
  "lat": 49.2937015,
  "lon": 8.6994154
},
{
  "type": "node",
  "id": 2883524095,
  "lat": 49.2188429,
  "lon": 8.7105774
},
{
  "type": "node",
  "id": 2883524096,
  "lat": 49.2188665,
  "lon": 8.7107518
},
{
  "type": "node",
  "id": 2883524097,
  "lat": 49.2187316,
  "lon": 8.7107464
},
{
  "type": "node",
  "id": 2883524098,
  "lat": 49.2187193,
  "lon": 8.7106096
},
{
  "type": "node",
  "id": 2883524099,
  "lat": 49.2188078,
  "lon": 8.7105895
},
{
  "type": "node",
  "id": 3579136626,
  "lat": 49.3157891,
  "lon": 8.4307763
},
{
  "type": "node",
  "id": 3579136627,
  "lat": 49.3158195,
  "lon": 8.4306754
},
{
  "type": "node",
  "id": 3579136628,
  "lat": 49.3159083,
  "lon": 8.4307297
},
{
  "type": "node",
  "id": 3579136629,
  "lat": 49.3159303,
  "lon": 8.4308631
},
{
  "type": "node",
  "id": 3579136630,
  "lat": 49.3159908,
  "lon": 8.4304253
},
{
  "type": "node",
  "id": 3579136633,
  "lat": 49.3160323,
  "lon": 8.4302804
},
{
  "type": "node",
  "id": 3579136635,
  "lat": 49.3160413,
  "lon": 8.4302426
},
{
  "type": "node",
  "id": 3579136639,
  "lat": 49.3160646,
  "lon": 8.4309262
},
{
  "type": "node",
  "id": 3579136648,
  "lat": 49.3161043,
  "lon": 8.4307232
},
{
  "type": "node",
  "id": 3579136653,
  "lat": 49.3161196,
  "lon": 8.4299537
},
{
  "type": "node",
  "id": 3579136678,
  "lat": 49.3161772,
  "lon": 8.4303564
},
{
  "type": "node",
  "id": 3579136798,
  "lat": 49.3162430,
  "lon": 8.4300276
},
{
  "type": "node",
  "id": 3579136801,
  "lat": 49.3185641,
  "lon": 8.4343699
},
{
  "type": "node",
  "id": 3579136805,
  "lat": 49.3186619,
  "lon": 8.4343140
},
{
  "type": "node",
  "id": 3579136808,
  "lat": 49.3186860,
  "lon": 8.4344019
},
{
  "type": "node",
  "id": 3579136809,
  "lat": 49.3187015,
  "lon": 8.4344544
},
{
  "type": "node",
  "id": 4328511715,
  "lat": 49.3158417,
  "lon": 8.4308086
},
{
  "type": "node",
  "id": 4328511720,
  "lat": 49.3158680,
  "lon": 8.4307050
},
{
  "type": "node",
  "id": 4328511742,
  "lat": 49.3159571,
  "lon": 8.4305530
},
{
  "type": "node",
  "id": 4328511769,
  "lat": 49.3160431,
  "lon": 8.4302365
},
{
  "type": "node",
  "id": 4328511775,
  "lat": 49.3160789,
  "lon": 8.4301131
},
{
  "type": "node",
  "id": 4328511777,
  "lat": 49.3160928,
  "lon": 8.4307818
},
{
  "type": "node",
  "id": 294295463,
  "lat": 49.3175727,
  "lon": 8.4397118
},
{
  "type": "node",
  "id": 572303139,
  "lat": 49.3174374,
  "lon": 8.4393591
},
{
  "type": "node",
  "id": 677368513,
  "lat": 49.3176064,
  "lon": 8.4394144
},
{
  "type": "node",
  "id": 1256674569,
  "lat": 49.3174155,
  "lon": 8.4396705
},
{
  "type": "node",
  "id": 1277771792,
  "lat": 49.3154930,
  "lon": 8.4410013
},
{
  "type": "node",
  "id": 1277771898,
  "lat": 49.3154511,
  "lon": 8.4410029
},
{
  "type": "node",
  "id": 1277771992,
  "lat": 49.3155716,
  "lon": 8.4410307
},
{
  "type": "node",
  "id": 1277772080,
  "lat": 49.3154139,
  "lon": 8.4410019
},
{
  "type": "node",
  "id": 1277772217,
  "lat": 49.3153932,
  "lon": 8.4410325
},
{
  "type": "node",
  "id": 1277772423,
  "lat": 49.3154265,
  "lon": 8.4409964
},
{
  "type": "node",
  "id": 1277772520,
  "lat": 49.3155462,
  "lon": 8.4409897
},
{
  "type": "node",
  "id": 1277772535,
  "lat": 49.3154019,
  "lon": 8.4410144
},
{
  "type": "node",
  "id": 1277772711,
  "lat": 49.3155093,
  "lon": 8.4409869
},
{
  "type": "node",
  "id": 1277772844,
  "lat": 49.3155615,
  "lon": 8.4410064
},
{
  "type": "node",
  "id": 1277772948,
  "lat": 49.3155279,
  "lon": 8.4409829
},
{
  "type": "node",
  "id": 1277773249,
  "lat": 49.3154391,
  "lon": 8.4409968
},
{
  "type": "node",
  "id": 3579136802,
  "lat": 49.3186109,
  "lon": 8.4345392
},
{
  "type": "node",
  "id": 3579136807,
  "lat": 49.3186704,
  "lon": 8.4347033
},
{
  "type": "node",
  "id": 3579136810,
  "lat": 49.3187149,
  "lon": 8.4345019
},
{
  "type": "node",
  "id": 3579136811,
  "lat": 49.3187601,
  "lon": 8.4346267
},
{
  "type": "node",
  "id": 4073309390,
  "lat": 49.3145932,
  "lon": 8.4353375
},
{
  "type": "node",
  "id": 4073309391,
  "lat": 49.3146283,
  "lon": 8.4352683
},
{
  "type": "node",
  "id": 4073309394,
  "lat": 49.3147091,
  "lon": 8.4356098
},
{
  "type": "node",
  "id": 4073309395,
  "lat": 49.3147629,
  "lon": 8.4354728
},
{
  "type": "node",
  "id": 4545598674,
  "lat": 49.3145682,
  "lon": 8.4355316
},
{
  "type": "node",
  "id": 4545598706,
  "lat": 49.3145589,
  "lon": 8.4354065
},
{
  "type": "node",
  "id": 4545598708,
  "lat": 49.3145291,
  "lon": 8.4354562
},
{
  "type": "node",
  "id": 4545598709,
  "lat": 49.3146337,
  "lon": 8.4356578
},
{
  "type": "node",
  "id": 4545598710,
  "lat": 49.3146445,
  "lon": 8.4356693
},
{
  "type": "node",
  "id": 4545598711,
  "lat": 49.3146549,
  "lon": 8.4356741
},
{
  "type": "node",
  "id": 4545598712,
  "lat": 49.3146663,
  "lon": 8.4356741
},
{
  "type": "node",
  "id": 4545598713,
  "lat": 49.3146763,
  "lon": 8.4356697
},
{
  "type": "node",
  "id": 4545598714,
  "lat": 49.3146832,
  "lon": 8.4356636
},
{
  "type": "node",
  "id": 4545598715,
  "lat": 49.3146912,
  "lon": 8.4356519
},
{
  "type": "node",
  "id": 4545598716,
  "lat": 49.3147009,
  "lon": 8.4356305
},
{
  "type": "node",
  "id": 637950748,
  "lat": 49.3395567,
  "lon": 8.4296892
},
{
  "type": "node",
  "id": 637950750,
  "lat": 49.3396002,
  "lon": 8.4295514
},
{
  "type": "node",
  "id": 637950753,
  "lat": 49.3395676,
  "lon": 8.4295456
},
{
  "type": "node",
  "id": 637950941,
  "lat": 49.3396371,
  "lon": 8.4295265
},
{
  "type": "node",
  "id": 637950959,
  "lat": 49.3396236,
  "lon": 8.4297012
},
{
  "type": "node",
  "id": 637950963,
  "lat": 49.3396770,
  "lon": 8.4296626
},
{
  "type": "node",
  "id": 2139660414,
  "lat": 49.3396350,
  "lon": 8.4297404
},
{
  "type": "node",
  "id": 2139660424,
  "lat": 49.3396944,
  "lon": 8.4296506
},
{
  "type": "node",
  "id": 2139660426,
  "lat": 49.3397063,
  "lon": 8.4296912
},
{
  "type": "node",
  "id": 734415463,
  "lat": 49.3097442,
  "lon": 8.4474618
},
{
  "type": "node",
  "id": 734415499,
  "lat": 49.3123708,
  "lon": 8.4444806
},
{
  "type": "node",
  "id": 734415531,
  "lat": 49.3111649,
  "lon": 8.4438300
},
{
  "type": "node",
  "id": 734415569,
  "lat": 49.3113835,
  "lon": 8.4448037
},
{
  "type": "node",
  "id": 734415616,
  "lat": 49.3099575,
  "lon": 8.4456662
},
{
  "type": "node",
  "id": 734415639,
  "lat": 49.3095702,
  "lon": 8.4459637
},
{
  "type": "node",
  "id": 891142795,
  "lat": 49.3112559,
  "lon": 8.4438496
},
{
  "type": "node",
  "id": 891142818,
  "lat": 49.3115532,
  "lon": 8.4440677
},
{
  "type": "node",
  "id": 891142948,
  "lat": 49.3114727,
  "lon": 8.4440573
},
{
  "type": "node",
  "id": 891142992,
  "lat": 49.3118566,
  "lon": 8.4440268
},
{
  "type": "node",
  "id": 891143222,
  "lat": 49.3122213,
  "lon": 8.4441841
},
{
  "type": "node",
  "id": 891143260,
  "lat": 49.3094810,
  "lon": 8.4463533
},
{
  "type": "node",
  "id": 891143516,
  "lat": 49.3113556,
  "lon": 8.4439712
},
{
  "type": "node",
  "id": 891143554,
  "lat": 49.3120069,
  "lon": 8.4440307
},
{
  "type": "node",
  "id": 891143667,
  "lat": 49.3116661,
  "lon": 8.4440597
},
{
  "type": "node",
  "id": 891143697,
  "lat": 49.3121415,
  "lon": 8.4440837
},
{
  "type": "node",
  "id": 2991603805,
  "lat": 49.3113563,
  "lon": 8.4446825
},
{
  "type": "node",
  "id": 2991603821,
  "lat": 49.3117674,
  "lon": 8.4440414
},
{
  "type": "node",
  "id": 2991603942,
  "lat": 49.3119343,
  "lon": 8.4440264
},
{
  "type": "node",
  "id": 2991603953,
  "lat": 49.3120649,
  "lon": 8.4440468
},
{
  "type": "node",
  "id": 2991603955,
  "lat": 49.3120795,
  "lon": 8.4440539
},
{
  "type": "node",
  "id": 2991603960,
  "lat": 49.3121125,
  "lon": 8.4440697
},
{
  "type": "node",
  "id": 298883319,
  "lat": 49.3101617,
  "lon": 8.4492360
},
{
  "type": "node",
  "id": 734415537,
  "lat": 49.3106128,
  "lon": 8.4512418
},
{
  "type": "node",
  "id": 891143591,
  "lat": 49.3125450,
  "lon": 8.4485865
},
{
  "type": "node",
  "id": 891143619,
  "lat": 49.3117981,
  "lon": 8.4505423
},
{
  "type": "node",
  "id": 1160397862,
  "lat": 49.3121539,
  "lon": 8.4520331
},
{
  "type": "node",
  "id": 1160398153,
  "lat": 49.3104273,
  "lon": 8.4504181
},
{
  "type": "node",
  "id": 1160399125,
  "lat": 49.3123772,
  "lon": 8.4518977
},
{
  "type": "node",
  "id": 3056484355,
  "lat": 49.3101467,
  "lon": 8.4491721
},
{
  "type": "node",
  "id": 3056484357,
  "lat": 49.3101825,
  "lon": 8.4493284
},
{
  "type": "node",
  "id": 3266078585,
  "lat": 49.3111918,
  "lon": 8.4509086
},
{
  "type": "node",
  "id": 3266078605,
  "lat": 49.3117022,
  "lon": 8.4506026
},
{
  "type": "node",
  "id": 734415506,
  "lat": 49.3130228,
  "lon": 8.4459138
},
{
  "type": "node",
  "id": 734415617,
  "lat": 49.3131893,
  "lon": 8.4465573
},
{
  "type": "node",
  "id": 891142849,
  "lat": 49.3133692,
  "lon": 8.4470697
},
{
  "type": "node",
  "id": 891142905,
  "lat": 49.3127180,
  "lon": 8.4451848
},
{
  "type": "node",
  "id": 891142961,
  "lat": 49.3130348,
  "lon": 8.4459503
},
{
  "type": "node",
  "id": 891143066,
  "lat": 49.3131351,
  "lon": 8.4462670
},
{
  "type": "node",
  "id": 891143414,
  "lat": 49.3133562,
  "lon": 8.4469630
},
{
  "type": "node",
  "id": 891143732,
  "lat": 49.3133111,
  "lon": 8.4468702
},
{
  "type": "node",
  "id": 1277771769,
  "lat": 49.3153838,
  "lon": 8.4419079
},
{
  "type": "node",
  "id": 1277771772,
  "lat": 49.3157934,
  "lon": 8.4414120
},
{
  "type": "node",
  "id": 1277771783,
  "lat": 49.3151936,
  "lon": 8.4413019
},
{
  "type": "node",
  "id": 1277771861,
  "lat": 49.3153445,
  "lon": 8.4418444
},
{
  "type": "node",
  "id": 1277771872,
  "lat": 49.3152158,
  "lon": 8.4412738
},
{
  "type": "node",
  "id": 1277771886,
  "lat": 49.3153508,
  "lon": 8.4418160
},
{
  "type": "node",
  "id": 1277771903,
  "lat": 49.3133872,
  "lon": 8.4471402
},
{
  "type": "node",
  "id": 1277771931,
  "lat": 49.3157856,
  "lon": 8.4415687
},
{
  "type": "node",
  "id": 1277771955,
  "lat": 49.3158013,
  "lon": 8.4415915
},
{
  "type": "node",
  "id": 1277771959,
  "lat": 49.3157411,
  "lon": 8.4413528
},
{
  "type": "node",
  "id": 1277771972,
  "lat": 49.3154189,
  "lon": 8.4419338
},
{
  "type": "node",
  "id": 1277771974,
  "lat": 49.3157645,
  "lon": 8.4413428
},
{
  "type": "node",
  "id": 1277771982,
  "lat": 49.3151949,
  "lon": 8.4412917
},
{
  "type": "node",
  "id": 1277772044,
  "lat": 49.3157646,
  "lon": 8.4416677
},
{
  "type": "node",
  "id": 1277772052,
  "lat": 49.3153454,
  "lon": 8.4418290
},
{
  "type": "node",
  "id": 1277772064,
  "lat": 49.3154464,
  "lon": 8.4419266
},
{
  "type": "node",
  "id": 1277772074,
  "lat": 49.3153595,
  "lon": 8.4418083
},
{
  "type": "node",
  "id": 1277772083,
  "lat": 49.3133163,
  "lon": 8.4474630
},
{
  "type": "node",
  "id": 1277772133,
  "lat": 49.3157860,
  "lon": 8.4416634
},
{
  "type": "node",
  "id": 1277772150,
  "lat": 49.3154052,
  "lon": 8.4419284
},
{
  "type": "node",
  "id": 1277772152,
  "lat": 49.3157802,
  "lon": 8.4413514
},
{
  "type": "node",
  "id": 1277772165,
  "lat": 49.3151981,
  "lon": 8.4413206
},
{
  "type": "node",
  "id": 1277772194,
  "lat": 49.3155752,
  "lon": 8.4410591
},
{
  "type": "node",
  "id": 1277772327,
  "lat": 49.3157543,
  "lon": 8.4416619
},
{
  "type": "node",
  "id": 1277772348,
  "lat": 49.3153562,
  "lon": 8.4418685
},
{
  "type": "node",
  "id": 1277772380,
  "lat": 49.3154330,
  "lon": 8.4419331
},
{
  "type": "node",
  "id": 1277772400,
  "lat": 49.3151668,
  "lon": 8.4413878
},
{
  "type": "node",
  "id": 1277772429,
  "lat": 49.3133714,
  "lon": 8.4474195
},
{
  "type": "node",
  "id": 1277772454,
  "lat": 49.3157871,
  "lon": 8.4413608
},
{
  "type": "node",
  "id": 1277772473,
  "lat": 49.3157877,
  "lon": 8.4414276
},
{
  "type": "node",
  "id": 1277772485,
  "lat": 49.3157755,
  "lon": 8.4416682
},
{
  "type": "node",
  "id": 1277772496,
  "lat": 49.3153743,
  "lon": 8.4418677
},
{
  "type": "node",
  "id": 1277772509,
  "lat": 49.3151949,
  "lon": 8.4413125
},
{
  "type": "node",
  "id": 1277772601,
  "lat": 49.3154752,
  "lon": 8.4418573
},
{
  "type": "node",
  "id": 1277772629,
  "lat": 49.3153484,
  "lon": 8.4418587
},
{
  "type": "node",
  "id": 1277772667,
  "lat": 49.3154673,
  "lon": 8.4418983
},
{
  "type": "node",
  "id": 1277772689,
  "lat": 49.3152056,
  "lon": 8.4413319
},
{
  "type": "node",
  "id": 1277772766,
  "lat": 49.3157953,
  "lon": 8.4413940
},
{
  "type": "node",
  "id": 1277772807,
  "lat": 49.3157674,
  "lon": 8.4414486
},
{
  "type": "node",
  "id": 1277772813,
  "lat": 49.3158015,
  "lon": 8.4416402
},
{
  "type": "node",
  "id": 1277772825,
  "lat": 49.3153661,
  "lon": 8.4418717
},
{
  "type": "node",
  "id": 1277772834,
  "lat": 49.3152264,
  "lon": 8.4412832
},
{
  "type": "node",
  "id": 1277772856,
  "lat": 49.3153941,
  "lon": 8.4410942
},
{
  "type": "node",
  "id": 1277772904,
  "lat": 49.3154731,
  "lon": 8.4418786
},
{
  "type": "node",
  "id": 1277772914,
  "lat": 49.3158048,
  "lon": 8.4416074
},
{
  "type": "node",
  "id": 1277772916,
  "lat": 49.3157571,
  "lon": 8.4413430
},
{
  "type": "node",
  "id": 1277772926,
  "lat": 49.3154581,
  "lon": 8.4419147
},
{
  "type": "node",
  "id": 1277772941,
  "lat": 49.3152506,
  "lon": 8.4416313
},
{
  "type": "node",
  "id": 1277772998,
  "lat": 49.3155716,
  "lon": 8.4410874
},
{
  "type": "node",
  "id": 1277773004,
  "lat": 49.3157950,
  "lon": 8.4416538
},
{
  "type": "node",
  "id": 1277773017,
  "lat": 49.3153772,
  "lon": 8.4418888
},
{
  "type": "node",
  "id": 1277773030,
  "lat": 49.3152328,
  "lon": 8.4412963
},
{
  "type": "node",
  "id": 1277773040,
  "lat": 49.3152973,
  "lon": 8.4416813
},
{
  "type": "node",
  "id": 1277773050,
  "lat": 49.3153890,
  "lon": 8.4410540
},
{
  "type": "node",
  "id": 1277773108,
  "lat": 49.3158049,
  "lon": 8.4416242
},
{
  "type": "node",
  "id": 1277773124,
  "lat": 49.3153931,
  "lon": 8.4419176
},
{
  "type": "node",
  "id": 1277773126,
  "lat": 49.3157931,
  "lon": 8.4413761
},
{
  "type": "node",
  "id": 1277773135,
  "lat": 49.3152583,
  "lon": 8.4415903
},
{
  "type": "node",
  "id": 1277773148,
  "lat": 49.3154739,
  "lon": 8.4410373
},
{
  "type": "node",
  "id": 1277773150,
  "lat": 49.3157785,
  "lon": 8.4414397
},
{
  "type": "node",
  "id": 1277773175,
  "lat": 49.3157725,
  "lon": 8.4413455
},
{
  "type": "node",
  "id": 1277773202,
  "lat": 49.3157457,
  "lon": 8.4416513
},
{
  "type": "node",
  "id": 1277773227,
  "lat": 49.3152060,
  "lon": 8.4412750
},
{
  "type": "node",
  "id": 1277773236,
  "lat": 49.3152729,
  "lon": 8.4416816
},
{
  "type": "node",
  "id": 1277773254,
  "lat": 49.3133825,
  "lon": 8.4473004
},
{
  "type": "node",
  "id": 1277773284,
  "lat": 49.3157750,
  "lon": 8.4415641
},
{
  "type": "node",
  "id": 1277773303,
  "lat": 49.3157946,
  "lon": 8.4415782
},
{
  "type": "node",
  "id": 3964586112,
  "lat": 49.3130955,
  "lon": 8.4461241
},
{
  "type": "node",
  "id": 3964586124,
  "lat": 49.3131552,
  "lon": 8.4463895
},
{
  "type": "node",
  "id": 3964586139,
  "lat": 49.3132456,
  "lon": 8.4467237
},
{
  "type": "node",
  "id": 4797253360,
  "lat": 49.3157712,
  "lon": 8.4415072
},
{
  "type": "node",
  "id": 6410512293,
  "lat": 49.3157491,
  "lon": 8.4413461
},
{
  "type": "node",
  "id": 6410512294,
  "lat": 49.3152212,
  "lon": 8.4412768
},
{
  "type": "node",
  "id": 6410512295,
  "lat": 49.3151999,
  "lon": 8.4412805
},
{
  "type": "node",
  "id": 6410512296,
  "lat": 49.3153899,
  "lon": 8.4410777
},
{
  "type": "node",
  "id": 635775947,
  "lat": 49.3168412,
  "lon": 8.4493943
},
{
  "type": "node",
  "id": 635775948,
  "lat": 49.3167787,
  "lon": 8.4498481
},
{
  "type": "node",
  "id": 635775949,
  "lat": 49.3168020,
  "lon": 8.4497446
},
{
  "type": "node",
  "id": 635775950,
  "lat": 49.3169389,
  "lon": 8.4497422
},
{
  "type": "node",
  "id": 635775951,
  "lat": 49.3167578,
  "lon": 8.4497738
},
{
  "type": "node",
  "id": 635775952,
  "lat": 49.3167252,
  "lon": 8.4494709
},
{
  "type": "node",
  "id": 734415573,
  "lat": 49.3129494,
  "lon": 8.4489163
},
{
  "type": "node",
  "id": 891142987,
  "lat": 49.3127019,
  "lon": 8.4484999
},
{
  "type": "node",
  "id": 891143083,
  "lat": 49.3127133,
  "lon": 8.4493035
},
{
  "type": "node",
  "id": 891143254,
  "lat": 49.3128701,
  "lon": 8.4492169
},
{
  "type": "node",
  "id": 891143564,
  "lat": 49.3129042,
  "lon": 8.4498692
},
{
  "type": "node",
  "id": 1160398454,
  "lat": 49.3131864,
  "lon": 8.4514180
},
{
  "type": "node",
  "id": 1277771827,
  "lat": 49.3129093,
  "lon": 8.4501455
},
{
  "type": "node",
  "id": 1277772024,
  "lat": 49.3129197,
  "lon": 8.4495464
},
{
  "type": "node",
  "id": 1277772222,
  "lat": 49.3131666,
  "lon": 8.4478629
},
{
  "type": "node",
  "id": 1277772277,
  "lat": 49.3130042,
  "lon": 8.4506148
},
{
  "type": "node",
  "id": 1277772541,
  "lat": 49.3133239,
  "lon": 8.4476179
},
{
  "type": "node",
  "id": 3964586058,
  "lat": 49.3127851,
  "lon": 8.4488544
},
{
  "type": "node",
  "id": 3964586103,
  "lat": 49.3129932,
  "lon": 8.4484687
},
{
  "type": "node",
  "id": 3964586137,
  "lat": 49.3132251,
  "lon": 8.4477056
},
{
  "type": "node",
  "id": 395011367,
  "lat": 49.3255912,
  "lon": 8.5655852
},
{
  "type": "node",
  "id": 395011370,
  "lat": 49.3259723,
  "lon": 8.5652610
},
{
  "type": "node",
  "id": 2403557578,
  "lat": 49.3260147,
  "lon": 8.5653783
},
{
  "type": "node",
  "id": 2403557586,
  "lat": 49.3260483,
  "lon": 8.5653498
},
{
  "type": "node",
  "id": 2403557602,
  "lat": 49.3260700,
  "lon": 8.5655315
},
{
  "type": "node",
  "id": 2403557614,
  "lat": 49.3260887,
  "lon": 8.5654616
},
{
  "type": "node",
  "id": 2403557624,
  "lat": 49.3261036,
  "lon": 8.5655030
},
{
  "type": "node",
  "id": 348571657,
  "lat": 49.3257223,
  "lon": 8.5659479
},
{
  "type": "node",
  "id": 2403557470,
  "lat": 49.3258788,
  "lon": 8.5658147
},
{
  "type": "node",
  "id": 2403557474,
  "lat": 49.3258871,
  "lon": 8.5658376
},
{
  "type": "node",
  "id": 2403557483,
  "lat": 49.3259091,
  "lon": 8.5657889
},
{
  "type": "node",
  "id": 2403557487,
  "lat": 49.3259174,
  "lon": 8.5658118
},
{
  "type": "node",
  "id": 2403557622,
  "lat": 49.3261033,
  "lon": 8.5656236
},
{
  "type": "node",
  "id": 391183810,
  "lat": 49.3696325,
  "lon": 8.5346966
},
{
  "type": "node",
  "id": 391183811,
  "lat": 49.3695370,
  "lon": 8.5346436
},
{
  "type": "node",
  "id": 391183812,
  "lat": 49.3695069,
  "lon": 8.5347716
},
{
  "type": "node",
  "id": 391183813,
  "lat": 49.3696024,
  "lon": 8.5348245
},
{
  "type": "node",
  "id": 1635848108,
  "lat": 49.4821104,
  "lon": 8.4753185
},
{
  "type": "node",
  "id": 1635848112,
  "lat": 49.4821481,
  "lon": 8.4752214
},
{
  "type": "node",
  "id": 1635848113,
  "lat": 49.4821643,
  "lon": 8.4752362
},
{
  "type": "node",
  "id": 1635848116,
  "lat": 49.4822341,
  "lon": 8.4749727
},
{
  "type": "node",
  "id": 1635848118,
  "lat": 49.4822467,
  "lon": 8.4754436
},
{
  "type": "node",
  "id": 1635848127,
  "lat": 49.4822579,
  "lon": 8.4749946
},
{
  "type": "node",
  "id": 1635848130,
  "lat": 49.4823030,
  "lon": 8.4747950
},
{
  "type": "node",
  "id": 1635848132,
  "lat": 49.4823268,
  "lon": 8.4748169
},
{
  "type": "node",
  "id": 1635848133,
  "lat": 49.4823780,
  "lon": 8.4751048
},
{
  "type": "node",
  "id": 1635848136,
  "lat": 49.4824035,
  "lon": 8.4745588
},
{
  "type": "node",
  "id": 1635848137,
  "lat": 49.4824206,
  "lon": 8.4745746
},
{
  "type": "node",
  "id": 1635848138,
  "lat": 49.4824468,
  "lon": 8.4749271
},
{
  "type": "node",
  "id": 1635848139,
  "lat": 49.4824419,
  "lon": 8.4744596
},
{
  "type": "node",
  "id": 1635848143,
  "lat": 49.4825792,
  "lon": 8.4745856
},
{
  "type": "node",
  "id": 1636527759,
  "lat": 49.4815033,
  "lon": 8.4749492
},
{
  "type": "node",
  "id": 1636527760,
  "lat": 49.4815996,
  "lon": 8.4744601
},
{
  "type": "node",
  "id": 1636527787,
  "lat": 49.4818460,
  "lon": 8.4752635
},
{
  "type": "node",
  "id": 1636527791,
  "lat": 49.4820129,
  "lon": 8.4748407
},
{
  "type": "node",
  "id": 3150250182,
  "lat": 49.4826002,
  "lon": 8.4750679
},
{
  "type": "node",
  "id": 3150250183,
  "lat": 49.4825313,
  "lon": 8.4752456
},
{
  "type": "node",
  "id": 4126922050,
  "lat": 49.4823877,
  "lon": 8.4755417
},
{
  "type": "node",
  "id": 4126922051,
  "lat": 49.4824892,
  "lon": 8.4752800
},
{
  "type": "node",
  "id": 4126922052,
  "lat": 49.4825104,
  "lon": 8.4752995
},
{
  "type": "node",
  "id": 4126922053,
  "lat": 49.4825995,
  "lon": 8.4749954
},
{
  "type": "node",
  "id": 4126922054,
  "lat": 49.4826208,
  "lon": 8.4750149
},
{
  "type": "node",
  "id": 4126922055,
  "lat": 49.4827250,
  "lon": 8.4746718
},
{
  "type": "node",
  "id": 4126922056,
  "lat": 49.4827861,
  "lon": 8.4759076
},
{
  "type": "node",
  "id": 6171606909,
  "lat": 49.4822691,
  "lon": 8.4748825
},
{
  "type": "node",
  "id": 6171616291,
  "lat": 49.4829253,
  "lon": 8.4753332
},
{
  "type": "node",
  "id": 6171616292,
  "lat": 49.4829608,
  "lon": 8.4752415
},
{
  "type": "node",
  "id": 6171629966,
  "lat": 49.4829431,
  "lon": 8.4752873
},
{
  "type": "node",
  "id": 1646250011,
  "lat": 49.4787641,
  "lon": 8.4878054
},
{
  "type": "node",
  "id": 1646250020,
  "lat": 49.4788902,
  "lon": 8.4879223
},
{
  "type": "node",
  "id": 1646250032,
  "lat": 49.4789315,
  "lon": 8.4873804
},
{
  "type": "node",
  "id": 1646250039,
  "lat": 49.4790576,
  "lon": 8.4874973
},
{
  "type": "node",
  "id": 1039839517,
  "lat": 49.4878731,
  "lon": 8.4616917
},
{
  "type": "node",
  "id": 1039839619,
  "lat": 49.4876792,
  "lon": 8.4615146
},
{
  "type": "node",
  "id": 1362647515,
  "lat": 49.4887807,
  "lon": 8.4616104
},
{
  "type": "node",
  "id": 1432761668,
  "lat": 49.4877459,
  "lon": 8.4613417
},
{
  "type": "node",
  "id": 1436208889,
  "lat": 49.4877935,
  "lon": 8.4627325
},
{
  "type": "node",
  "id": 1436208890,
  "lat": 49.4879311,
  "lon": 8.4628565
},
{
  "type": "node",
  "id": 1436208891,
  "lat": 49.4878975,
  "lon": 8.4626181
},
{
  "type": "node",
  "id": 1436208892,
  "lat": 49.4879738,
  "lon": 8.4624176
},
{
  "type": "node",
  "id": 1436208895,
  "lat": 49.4878525,
  "lon": 8.4625775
},
{
  "type": "node",
  "id": 1436208898,
  "lat": 49.4880665,
  "lon": 8.4625009
},
{
  "type": "node",
  "id": 1860721139,
  "lat": 49.4875818,
  "lon": 8.4625418
},
{
  "type": "node",
  "id": 1860721140,
  "lat": 49.4877120,
  "lon": 8.4621992
},
{
  "type": "node",
  "id": 1860721141,
  "lat": 49.4878336,
  "lon": 8.4625606
},
{
  "type": "node",
  "id": 1860721142,
  "lat": 49.4879049,
  "lon": 8.4623731
},
{
  "type": "node",
  "id": 1860751918,
  "lat": 49.4876382,
  "lon": 8.4623934
},
{
  "type": "node",
  "id": 1860759465,
  "lat": 49.4877839,
  "lon": 8.4622640
},
{
  "type": "node",
  "id": 1860759476,
  "lat": 49.4879212,
  "lon": 8.4625558
},
{
  "type": "node",
  "id": 1883905452,
  "lat": 49.4889059,
  "lon": 8.4625414
},
{
  "type": "node",
  "id": 1883905460,
  "lat": 49.4891503,
  "lon": 8.4619540
},
{
  "type": "node",
  "id": 2077786024,
  "lat": 49.4885395,
  "lon": 8.4622252
},
{
  "type": "node",
  "id": 3238554343,
  "lat": 49.4877149,
  "lon": 8.4614221
},
{
  "type": "node",
  "id": 3238554345,
  "lat": 49.4877888,
  "lon": 8.4613809
},
{
  "type": "node",
  "id": 3238554348,
  "lat": 49.4878631,
  "lon": 8.4611881
},
{
  "type": "node",
  "id": 3238554349,
  "lat": 49.4878787,
  "lon": 8.4616548
},
{
  "type": "node",
  "id": 3238554350,
  "lat": 49.4878851,
  "lon": 8.4616606
},
{
  "type": "node",
  "id": 3238554351,
  "lat": 49.4878926,
  "lon": 8.4609694
},
{
  "type": "node",
  "id": 3238554352,
  "lat": 49.4879297,
  "lon": 8.4608732
},
{
  "type": "node",
  "id": 3238554353,
  "lat": 49.4879331,
  "lon": 8.4610065
},
{
  "type": "node",
  "id": 3238554355,
  "lat": 49.4879584,
  "lon": 8.4607986
},
{
  "type": "node",
  "id": 3238554356,
  "lat": 49.4879769,
  "lon": 8.4614003
},
{
  "type": "node",
  "id": 3238554357,
  "lat": 49.4879832,
  "lon": 8.4614061
},
{
  "type": "node",
  "id": 3238554358,
  "lat": 49.4879961,
  "lon": 8.4608331
},
{
  "type": "node",
  "id": 3238554359,
  "lat": 49.4880018,
  "lon": 8.4608183
},
{
  "type": "node",
  "id": 3238554360,
  "lat": 49.4880118,
  "lon": 8.4608474
},
{
  "type": "node",
  "id": 3238555761,
  "lat": 49.4880175,
  "lon": 8.4608327
},
{
  "type": "node",
  "id": 3238555762,
  "lat": 49.4880345,
  "lon": 8.4612508
},
{
  "type": "node",
  "id": 3238555763,
  "lat": 49.4880409,
  "lon": 8.4612565
},
{
  "type": "node",
  "id": 3238555764,
  "lat": 49.4880514,
  "lon": 8.4608835
},
{
  "type": "node",
  "id": 3238555765,
  "lat": 49.4880570,
  "lon": 8.4608688
},
{
  "type": "node",
  "id": 3238555766,
  "lat": 49.4880598,
  "lon": 8.4608913
},
{
  "type": "node",
  "id": 3238555767,
  "lat": 49.4880655,
  "lon": 8.4608765
},
{
  "type": "node",
  "id": 3238555768,
  "lat": 49.4880791,
  "lon": 8.4609089
},
{
  "type": "node",
  "id": 3238555769,
  "lat": 49.4880848,
  "lon": 8.4608942
},
{
  "type": "node",
  "id": 3238555770,
  "lat": 49.4880898,
  "lon": 8.4609187
},
{
  "type": "node",
  "id": 3238555771,
  "lat": 49.4880955,
  "lon": 8.4609039
},
{
  "type": "node",
  "id": 3238555772,
  "lat": 49.4881260,
  "lon": 8.4609517
},
{
  "type": "node",
  "id": 3238555773,
  "lat": 49.4881316,
  "lon": 8.4609370
},
{
  "type": "node",
  "id": 3238555774,
  "lat": 49.4881348,
  "lon": 8.4609908
},
{
  "type": "node",
  "id": 3238555775,
  "lat": 49.4881411,
  "lon": 8.4609966
},
{
  "type": "node",
  "id": 3238555776,
  "lat": 49.4881556,
  "lon": 8.4609589
},
{
  "type": "node",
  "id": 3238656558,
  "lat": 49.4886310,
  "lon": 8.4619920
},
{
  "type": "node",
  "id": 3238656559,
  "lat": 49.4886406,
  "lon": 8.4620009
},
{
  "type": "node",
  "id": 3238656673,
  "lat": 49.4887139,
  "lon": 8.4617808
},
{
  "type": "node",
  "id": 3238656677,
  "lat": 49.4887235,
  "lon": 8.4617897
},
{
  "type": "node",
  "id": 3238656679,
  "lat": 49.4887335,
  "lon": 8.4624056
},
{
  "type": "node",
  "id": 3238656680,
  "lat": 49.4887406,
  "lon": 8.4623876
},
{
  "type": "node",
  "id": 3238656686,
  "lat": 49.4889182,
  "lon": 8.4617574
},
{
  "type": "node",
  "id": 3238656687,
  "lat": 49.4889237,
  "lon": 8.4617434
},
{
  "type": "node",
  "id": 3238656692,
  "lat": 49.4889868,
  "lon": 8.4618212
},
{
  "type": "node",
  "id": 3238656694,
  "lat": 49.4889923,
  "lon": 8.4618071
},
{
  "type": "node",
  "id": 3238656695,
  "lat": 49.4889943,
  "lon": 8.4623160
},
{
  "type": "node",
  "id": 3238656696,
  "lat": 49.4890046,
  "lon": 8.4623256
},
{
  "type": "node",
  "id": 3241478291,
  "lat": 49.4870013,
  "lon": 8.4608944
},
{
  "type": "node",
  "id": 3241478297,
  "lat": 49.4870481,
  "lon": 8.4607717
},
{
  "type": "node",
  "id": 3241478298,
  "lat": 49.4870550,
  "lon": 8.4609429
},
{
  "type": "node",
  "id": 3241478302,
  "lat": 49.4870780,
  "lon": 8.4607987
},
{
  "type": "node",
  "id": 3241478308,
  "lat": 49.4871018,
  "lon": 8.4608202
},
{
  "type": "node",
  "id": 4126922057,
  "lat": 49.4830224,
  "lon": 8.4752981
},
{
  "type": "node",
  "id": 4126922058,
  "lat": 49.4831233,
  "lon": 8.4750377
},
{
  "type": "node",
  "id": 6171616290,
  "lat": 49.4829868,
  "lon": 8.4753898
},
{
  "type": "node",
  "id": 1015019040,
  "lat": 49.4947971,
  "lon": 8.4687126
},
{
  "type": "node",
  "id": 1015019042,
  "lat": 49.4949660,
  "lon": 8.4684093
},
{
  "type": "node",
  "id": 1015019044,
  "lat": 49.4946884,
  "lon": 8.4689772
},
{
  "type": "node",
  "id": 1015019049,
  "lat": 49.4946080,
  "lon": 8.4693803
},
{
  "type": "node",
  "id": 1015019052,
  "lat": 49.4950005,
  "lon": 8.4684266
},
{
  "type": "node",
  "id": 1015019055,
  "lat": 49.4949004,
  "lon": 8.4687994
},
{
  "type": "node",
  "id": 1015019059,
  "lat": 49.4947976,
  "lon": 8.4690740
},
{
  "type": "node",
  "id": 1746041448,
  "lat": 49.4946105,
  "lon": 8.4693857
},
{
  "type": "node",
  "id": 1746041450,
  "lat": 49.4946156,
  "lon": 8.4693868
},
{
  "type": "node",
  "id": 1746041451,
  "lat": 49.4946251,
  "lon": 8.4692517
},
{
  "type": "node",
  "id": 1746041452,
  "lat": 49.4946513,
  "lon": 8.4691248
},
{
  "type": "node",
  "id": 1746041453,
  "lat": 49.4946646,
  "lon": 8.4693186
},
{
  "type": "node",
  "id": 1746041454,
  "lat": 49.4947091,
  "lon": 8.4692475
},
{
  "type": "node",
  "id": 1746041455,
  "lat": 49.4947351,
  "lon": 8.4688374
},
{
  "type": "node",
  "id": 1746041456,
  "lat": 49.4947625,
  "lon": 8.4691572
},
{
  "type": "node",
  "id": 1746041457,
  "lat": 49.4949340,
  "lon": 8.4684643
},
{
  "type": "node",
  "id": 1746041458,
  "lat": 49.4949736,
  "lon": 8.4684044
},
{
  "type": "node",
  "id": 1746041459,
  "lat": 49.4949835,
  "lon": 8.4684039
},
{
  "type": "node",
  "id": 1746041460,
  "lat": 49.4949885,
  "lon": 8.4685172
},
{
  "type": "node",
  "id": 1746041461,
  "lat": 49.4949943,
  "lon": 8.4684142
},
{
  "type": "node",
  "id": 1746041462,
  "lat": 49.4950043,
  "lon": 8.4684418
},
{
  "type": "node",
  "id": 1746041463,
  "lat": 49.4950045,
  "lon": 8.4684623
},
{
  "type": "node",
  "id": 1854160282,
  "lat": 49.4948571,
  "lon": 8.4689326
},
{
  "type": "node",
  "id": 3105102161,
  "lat": 49.4946841,
  "lon": 8.4689943
},
{
  "type": "node",
  "id": 3933653244,
  "lat": 49.4400479,
  "lon": 8.5628133
},
{
  "type": "node",
  "id": 3933653245,
  "lat": 49.4403903,
  "lon": 8.5619718
},
{
  "type": "node",
  "id": 3933653246,
  "lat": 49.4405159,
  "lon": 8.5625740
},
{
  "type": "node",
  "id": 3933653247,
  "lat": 49.4406529,
  "lon": 8.5622169
},
{
  "type": "node",
  "id": 3933653248,
  "lat": 49.4407476,
  "lon": 8.5634549
},
{
  "type": "node",
  "id": 3933653249,
  "lat": 49.4407610,
  "lon": 8.5627828
},
{
  "type": "node",
  "id": 3933653250,
  "lat": 49.4408178,
  "lon": 8.5632591
},
{
  "type": "node",
  "id": 3933653251,
  "lat": 49.4408673,
  "lon": 8.5633492
},
{
  "type": "node",
  "id": 3933653252,
  "lat": 49.4408797,
  "lon": 8.5633158
},
{
  "type": "node",
  "id": 3933653253,
  "lat": 49.4408893,
  "lon": 8.5624207
},
{
  "type": "node",
  "id": 3933653254,
  "lat": 49.4409755,
  "lon": 8.5634420
},
{
  "type": "node",
  "id": 3933653255,
  "lat": 49.4409825,
  "lon": 8.5634210
},
{
  "type": "node",
  "id": 3933653256,
  "lat": 49.4410651,
  "lon": 8.5634916
},
{
  "type": "node",
  "id": 3933653657,
  "lat": 49.4411454,
  "lon": 8.5626345
},
{
  "type": "node",
  "id": 3933653658,
  "lat": 49.4417064,
  "lon": 8.5611467
},
{
  "type": "node",
  "id": 3933653659,
  "lat": 49.4418429,
  "lon": 8.5607829
},
{
  "type": "node",
  "id": 3933653660,
  "lat": 49.4422858,
  "lon": 8.5598752
},
{
  "type": "node",
  "id": 3933653661,
  "lat": 49.4423753,
  "lon": 8.5599217
},
{
  "type": "node",
  "id": 412278970,
  "lat": 49.4763837,
  "lon": 8.4972900
},
{
  "type": "node",
  "id": 412278971,
  "lat": 49.4761283,
  "lon": 8.4970527
},
{
  "type": "node",
  "id": 412278972,
  "lat": 49.4759293,
  "lon": 8.4975601
},
{
  "type": "node",
  "id": 412278973,
  "lat": 49.4761708,
  "lon": 8.4977844
},
{
  "type": "node",
  "id": 412278974,
  "lat": 49.4758671,
  "lon": 8.4984655
},
{
  "type": "node",
  "id": 412278975,
  "lat": 49.4759784,
  "lon": 8.4985688
},
{
  "type": "node",
  "id": 412278977,
  "lat": 49.4760906,
  "lon": 8.4986731
},
{
  "type": "node",
  "id": 412278979,
  "lat": 49.4763720,
  "lon": 8.4979556
},
{
  "type": "node",
  "id": 1113527311,
  "lat": 49.4760861,
  "lon": 8.4977057
},
{
  "type": "node",
  "id": 1113527325,
  "lat": 49.4760906,
  "lon": 8.4976942
},
{
  "type": "node",
  "id": 2756965925,
  "lat": 49.4759492,
  "lon": 8.4975093
},
{
  "type": "node",
  "id": 2756965930,
  "lat": 49.4759605,
  "lon": 8.4975198
},
{
  "type": "node",
  "id": 2756965933,
  "lat": 49.4759642,
  "lon": 8.4975925
},
{
  "type": "node",
  "id": 2756965936,
  "lat": 49.4759687,
  "lon": 8.4975810
},
{
  "type": "node",
  "id": 2756965942,
  "lat": 49.4760800,
  "lon": 8.4979880
},
{
  "type": "node",
  "id": 2756965950,
  "lat": 49.4761085,
  "lon": 8.4971031
},
{
  "type": "node",
  "id": 2756965952,
  "lat": 49.4761199,
  "lon": 8.4971136
},
{
  "type": "node",
  "id": 2756965956,
  "lat": 49.4761565,
  "lon": 8.4971021
},
{
  "type": "node",
  "id": 2756965960,
  "lat": 49.4761632,
  "lon": 8.4970851
},
{
  "type": "node",
  "id": 2756965968,
  "lat": 49.4762778,
  "lon": 8.4972148
},
{
  "type": "node",
  "id": 2756965972,
  "lat": 49.4762844,
  "lon": 8.4971978
},
{
  "type": "node",
  "id": 2756965975,
  "lat": 49.4762859,
  "lon": 8.4981751
},
{
  "type": "node",
  "id": 412278967,
  "lat": 49.4765595,
  "lon": 8.4974765
},
{
  "type": "node",
  "id": 412278968,
  "lat": 49.4769601,
  "lon": 8.4964379
},
{
  "type": "node",
  "id": 412278969,
  "lat": 49.4768234,
  "lon": 8.4963113
},
{
  "type": "node",
  "id": 412278981,
  "lat": 49.4765215,
  "lon": 8.4981102
},
{
  "type": "node",
  "id": 412278983,
  "lat": 49.4767205,
  "lon": 8.4976029
},
{
  "type": "node",
  "id": 454396210,
  "lat": 49.4768910,
  "lon": 8.4966176
},
{
  "type": "node",
  "id": 1113527330,
  "lat": 49.4765662,
  "lon": 8.4974595
},
{
  "type": "node",
  "id": 1113527333,
  "lat": 49.4767689,
  "lon": 8.4969287
},
{
  "type": "node",
  "id": 1113527335,
  "lat": 49.4765282,
  "lon": 8.4974242
},
{
  "type": "node",
  "id": 1113527346,
  "lat": 49.4765305,
  "lon": 8.4972360
},
{
  "type": "node",
  "id": 1113527354,
  "lat": 49.4765107,
  "lon": 8.4973241
},
{
  "type": "node",
  "id": 1113527355,
  "lat": 49.4765753,
  "lon": 8.4971134
},
{
  "type": "node",
  "id": 1113527357,
  "lat": 49.4766329,
  "lon": 8.4970123
},
{
  "type": "node",
  "id": 1113527360,
  "lat": 49.4766851,
  "lon": 8.4969512
},
{
  "type": "node",
  "id": 1113527377,
  "lat": 49.4766093,
  "lon": 8.4967855
},
{
  "type": "node",
  "id": 1113527382,
  "lat": 49.4767282,
  "lon": 8.4969199
},
{
  "type": "node",
  "id": 1113527450,
  "lat": 49.4766847,
  "lon": 8.4966191
},
{
  "type": "node",
  "id": 2756965983,
  "lat": 49.4764909,
  "lon": 8.4980817
},
{
  "type": "node",
  "id": 2756965986,
  "lat": 49.4764954,
  "lon": 8.4980703
},
{
  "type": "node",
  "id": 2756965991,
  "lat": 49.4765103,
  "lon": 8.4973629
},
{
  "type": "node",
  "id": 2756965994,
  "lat": 49.4765155,
  "lon": 8.4973961
},
{
  "type": "node",
  "id": 2756965998,
  "lat": 49.4765302,
  "lon": 8.4980490
},
{
  "type": "node",
  "id": 2756966000,
  "lat": 49.4765414,
  "lon": 8.4980595
},
{
  "type": "node",
  "id": 2756966009,
  "lat": 49.4766832,
  "lon": 8.4975914
},
{
  "type": "node",
  "id": 2756966011,
  "lat": 49.4766895,
  "lon": 8.4976428
},
{
  "type": "node",
  "id": 2756966012,
  "lat": 49.4766898,
  "lon": 8.4975744
},
{
  "type": "node",
  "id": 2756966015,
  "lat": 49.4767008,
  "lon": 8.4976532
},
{
  "type": "node",
  "id": 2756966020,
  "lat": 49.4768438,
  "lon": 8.4963302
},
{
  "type": "node",
  "id": 2756966037,
  "lat": 49.4768906,
  "lon": 8.4963736
},
{
  "type": "node",
  "id": 4803510132,
  "lat": 49.4766247,
  "lon": 8.4967515
},
{
  "type": "node",
  "id": 4803510133,
  "lat": 49.4766726,
  "lon": 8.4966458
},
{
  "type": "node",
  "id": 2361335147,
  "lat": 49.4873849,
  "lon": 8.5342468
},
{
  "type": "node",
  "id": 2361335149,
  "lat": 49.4873944,
  "lon": 8.5342069
},
{
  "type": "node",
  "id": 2361335155,
  "lat": 49.4874760,
  "lon": 8.5342531
},
{
  "type": "node",
  "id": 2361335156,
  "lat": 49.4875090,
  "lon": 8.5343172
},
{
  "type": "node",
  "id": 3529352185,
  "lat": 49.4875186,
  "lon": 8.5342772
},
{
  "type": "node",
  "id": 1697326251,
  "lat": 49.4645324,
  "lon": 8.5617169
},
{
  "type": "node",
  "id": 1697326273,
  "lat": 49.4645751,
  "lon": 8.5618034
},
{
  "type": "node",
  "id": 3449024147,
  "lat": 49.4645685,
  "lon": 8.5616747
},
{
  "type": "node",
  "id": 3449024150,
  "lat": 49.4645780,
  "lon": 8.5616635
},
{
  "type": "node",
  "id": 3449024159,
  "lat": 49.4646199,
  "lon": 8.5616145
},
{
  "type": "node",
  "id": 3449024172,
  "lat": 49.4646626,
  "lon": 8.5617010
},
{
  "type": "node",
  "id": 684275281,
  "lat": 49.4747959,
  "lon": 8.5967070
},
{
  "type": "node",
  "id": 684275303,
  "lat": 49.4746965,
  "lon": 8.5971481
},
{
  "type": "node",
  "id": 1867742564,
  "lat": 49.4742256,
  "lon": 8.5968625
},
{
  "type": "node",
  "id": 1867742578,
  "lat": 49.4742275,
  "lon": 8.5965666
},
{
  "type": "node",
  "id": 1867742581,
  "lat": 49.4742754,
  "lon": 8.5963839
},
{
  "type": "node",
  "id": 1867742587,
  "lat": 49.4742926,
  "lon": 8.5966070
},
{
  "type": "node",
  "id": 2508213201,
  "lat": 49.4750580,
  "lon": 8.5968525
},
{
  "type": "node",
  "id": 2508213202,
  "lat": 49.4747915,
  "lon": 8.5967784
},
{
  "type": "node",
  "id": 2508213203,
  "lat": 49.4749183,
  "lon": 8.5968497
},
{
  "type": "node",
  "id": 2508213204,
  "lat": 49.4749451,
  "lon": 8.5972799
},
{
  "type": "node",
  "id": 2508213205,
  "lat": 49.4748251,
  "lon": 8.5972055
},
{
  "type": "node",
  "id": 260705982,
  "lat": 49.3435680,
  "lon": 8.6582110
},
{
  "type": "node",
  "id": 260705983,
  "lat": 49.3434910,
  "lon": 8.6582534
},
{
  "type": "node",
  "id": 260705984,
  "lat": 49.3435012,
  "lon": 8.6580486
},
{
  "type": "node",
  "id": 260705985,
  "lat": 49.3435268,
  "lon": 8.6580345
},
{
  "type": "node",
  "id": 2271273562,
  "lat": 49.3434527,
  "lon": 8.6580897
},
{
  "type": "node",
  "id": 2271273565,
  "lat": 49.3435042,
  "lon": 8.6580613
},
{
  "type": "node",
  "id": 419162745,
  "lat": 49.4098662,
  "lon": 8.6885714
},
{
  "type": "node",
  "id": 419162747,
  "lat": 49.4097470,
  "lon": 8.6889481
},
{
  "type": "node",
  "id": 419162748,
  "lat": 49.4096943,
  "lon": 8.6886410
},
{
  "type": "node",
  "id": 419162749,
  "lat": 49.4099063,
  "lon": 8.6887932
},
{
  "type": "node",
  "id": 419162750,
  "lat": 49.4099208,
  "lon": 8.6888777
},
{
  "type": "node",
  "id": 419162751,
  "lat": 49.4098629,
  "lon": 8.6886664
},
{
  "type": "node",
  "id": 419162752,
  "lat": 49.4098861,
  "lon": 8.6888014
},
{
  "type": "node",
  "id": 419162754,
  "lat": 49.4098812,
  "lon": 8.6886589
},
{
  "type": "node",
  "id": 4598399833,
  "lat": 49.4098747,
  "lon": 8.6887352
},
{
  "type": "node",
  "id": 1340397600,
  "lat": 49.4708508,
  "lon": 8.6065955
},
{
  "type": "node",
  "id": 1340397602,
  "lat": 49.4706898,
  "lon": 8.6064066
},
{
  "type": "node",
  "id": 1340397603,
  "lat": 49.4708542,
  "lon": 8.6064138
},
{
  "type": "node",
  "id": 1340397608,
  "lat": 49.4706864,
  "lon": 8.6065882
},
{
  "type": "node",
  "id": 1741595069,
  "lat": 49.4706264,
  "lon": 8.6078916
},
{
  "type": "node",
  "id": 1741595076,
  "lat": 49.4706617,
  "lon": 8.6081035
},
{
  "type": "node",
  "id": 1741595089,
  "lat": 49.4706909,
  "lon": 8.6078631
},
{
  "type": "node",
  "id": 1741595090,
  "lat": 49.4707061,
  "lon": 8.6079450
},
{
  "type": "node",
  "id": 1741595120,
  "lat": 49.4709651,
  "lon": 8.6078244
},
{
  "type": "node",
  "id": 1741595123,
  "lat": 49.4709889,
  "lon": 8.6079999
},
{
  "type": "node",
  "id": 2932335427,
  "lat": 49.4706697,
  "lon": 8.6065280
},
{
  "type": "node",
  "id": 2932335428,
  "lat": 49.4706710,
  "lon": 8.6064615
},
{
  "type": "node",
  "id": 2932335429,
  "lat": 49.4706875,
  "lon": 8.6065288
},
{
  "type": "node",
  "id": 2932335430,
  "lat": 49.4706888,
  "lon": 8.6064623
},
{
  "type": "node",
  "id": 2932335431,
  "lat": 49.4708517,
  "lon": 8.6065496
},
{
  "type": "node",
  "id": 2932335432,
  "lat": 49.4708539,
  "lon": 8.6064314
},
{
  "type": "node",
  "id": 2932335433,
  "lat": 49.4708683,
  "lon": 8.6065504
},
{
  "type": "node",
  "id": 2932335434,
  "lat": 49.4708705,
  "lon": 8.6064322
},
{
  "type": "node",
  "id": 3898797526,
  "lat": 49.4706822,
  "lon": 8.6080945
},
{
  "type": "node",
  "id": 3898797527,
  "lat": 49.4706875,
  "lon": 8.6081227
},
{
  "type": "node",
  "id": 3898797528,
  "lat": 49.4707114,
  "lon": 8.6080828
},
{
  "type": "node",
  "id": 3898797529,
  "lat": 49.4707165,
  "lon": 8.6081099
},
{
  "type": "node",
  "id": 3898797530,
  "lat": 49.4708019,
  "lon": 8.6080429
},
{
  "type": "node",
  "id": 3898797531,
  "lat": 49.4708063,
  "lon": 8.6080663
},
{
  "type": "node",
  "id": 3898797532,
  "lat": 49.4708383,
  "lon": 8.6080332
},
{
  "type": "node",
  "id": 3898797533,
  "lat": 49.4708418,
  "lon": 8.6080534
},
{
  "type": "node",
  "id": 3898797534,
  "lat": 49.4709595,
  "lon": 8.6079835
},
{
  "type": "node",
  "id": 3898797535,
  "lat": 49.4709645,
  "lon": 8.6080106
},
{
  "type": "node",
  "id": 6712164166,
  "lat": 49.4708554,
  "lon": 8.6078830
},
{
  "type": "node",
  "id": 6712164167,
  "lat": 49.4706374,
  "lon": 8.6079727
},
{
  "type": "node",
  "id": 6712164168,
  "lat": 49.4706412,
  "lon": 8.6079710
},
{
  "type": "node",
  "id": 6712164169,
  "lat": 49.4709123,
  "lon": 8.6080293
},
{
  "type": "node",
  "id": 6712164170,
  "lat": 49.4709438,
  "lon": 8.6080154
},
{
  "type": "node",
  "id": 6712164171,
  "lat": 49.4709395,
  "lon": 8.6079923
},
{
  "type": "node",
  "id": 6712164172,
  "lat": 49.4709074,
  "lon": 8.6080027
},
{
  "type": "node",
  "id": 6712164173,
  "lat": 49.4709845,
  "lon": 8.6079759
},
{
  "type": "node",
  "id": 6712164174,
  "lat": 49.4709916,
  "lon": 8.6079728
},
{
  "type": "node",
  "id": 6712164367,
  "lat": 49.4709810,
  "lon": 8.6079133
},
{
  "type": "node",
  "id": 6712164369,
  "lat": 49.4708452,
  "lon": 8.6080540
},
{
  "type": "node",
  "id": 6712164370,
  "lat": 49.4708029,
  "lon": 8.6080685
},
{
  "type": "node",
  "id": 6712164371,
  "lat": 49.4708138,
  "lon": 8.6080970
},
{
  "type": "node",
  "id": 6712164372,
  "lat": 49.4708383,
  "lon": 8.6080878
},
{
  "type": "node",
  "id": 639305204,
  "lat": 49.4782504,
  "lon": 8.6733970
},
{
  "type": "node",
  "id": 639305205,
  "lat": 49.4781614,
  "lon": 8.6731588
},
{
  "type": "node",
  "id": 639305206,
  "lat": 49.4774653,
  "lon": 8.6735785
},
{
  "type": "node",
  "id": 4144708788,
  "lat": 49.4776144,
  "lon": 8.6739168
},
{
  "type": "node",
  "id": 4144709589,
  "lat": 49.4778800,
  "lon": 8.6740224
},
{
  "type": "node",
  "id": 4144714857,
  "lat": 49.4777520,
  "lon": 8.6738867
},
{
  "type": "node",
  "id": 4144714858,
  "lat": 49.4780016,
  "lon": 8.6737380
},
{
  "type": "node",
  "id": 4144714859,
  "lat": 49.4780962,
  "lon": 8.6736935
},
{
  "type": "node",
  "id": 4144714860,
  "lat": 49.4781064,
  "lon": 8.6735867
},
{
  "type": "node",
  "id": 270405593,
  "lat": 49.4107199,
  "lon": 8.7158412
},
{
  "type": "node",
  "id": 270405597,
  "lat": 49.4107516,
  "lon": 8.7158154
},
{
  "type": "node",
  "id": 270405832,
  "lat": 49.4108684,
  "lon": 8.7160445
},
{
  "type": "node",
  "id": 270405833,
  "lat": 49.4108493,
  "lon": 8.7160083
},
{
  "type": "node",
  "id": 270405841,
  "lat": 49.4108305,
  "lon": 8.7157498
},
{
  "type": "node",
  "id": 2544039175,
  "lat": 49.4107929,
  "lon": 8.7107761
},
{
  "type": "node",
  "id": 2544039187,
  "lat": 49.4106740,
  "lon": 8.7110041
},
{
  "type": "node",
  "id": 2544039210,
  "lat": 49.4106794,
  "lon": 8.7108979
},
{
  "type": "node",
  "id": 2544039212,
  "lat": 49.4107262,
  "lon": 8.7107745
},
{
  "type": "node",
  "id": 2544039216,
  "lat": 49.4106431,
  "lon": 8.7108916
},
{
  "type": "node",
  "id": 2544039237,
  "lat": 49.4108170,
  "lon": 8.7108416
},
{
  "type": "node",
  "id": 2544039254,
  "lat": 49.4106506,
  "lon": 8.7111104
},
{
  "type": "node",
  "id": 2544039262,
  "lat": 49.4106746,
  "lon": 8.7109774
},
{
  "type": "node",
  "id": 2544039267,
  "lat": 49.4106306,
  "lon": 8.7108576
},
{
  "type": "node",
  "id": 2544039317,
  "lat": 49.4105079,
  "lon": 8.7107642
},
{
  "type": "node",
  "id": 2544039345,
  "lat": 49.4106077,
  "lon": 8.7110355
},
{
  "type": "node",
  "id": 2544039357,
  "lat": 49.4106954,
  "lon": 8.7110427
},
{
  "type": "node",
  "id": 2599659705,
  "lat": 49.4106992,
  "lon": 8.7158487
},
{
  "type": "node",
  "id": 2599659706,
  "lat": 49.4107070,
  "lon": 8.7158458
},
{
  "type": "node",
  "id": 2599659710,
  "lat": 49.4107146,
  "lon": 8.7158430
},
{
  "type": "node",
  "id": 2599659714,
  "lat": 49.4107258,
  "lon": 8.7158569
},
{
  "type": "node",
  "id": 2599659717,
  "lat": 49.4107427,
  "lon": 8.7160391
},
{
  "type": "node",
  "id": 2599659718,
  "lat": 49.4107433,
  "lon": 8.7158629
},
{
  "type": "node",
  "id": 2599659723,
  "lat": 49.4107534,
  "lon": 8.7158520
},
{
  "type": "node",
  "id": 2599659726,
  "lat": 49.4107568,
  "lon": 8.7158337
},
{
  "type": "node",
  "id": 2599659746,
  "lat": 49.4108100,
  "lon": 8.7157669
},
{
  "type": "node",
  "id": 2599659749,
  "lat": 49.4108182,
  "lon": 8.7157150
},
{
  "type": "node",
  "id": 2599659766,
  "lat": 49.4108674,
  "lon": 8.7156741
},
{
  "type": "node",
  "id": 2599659772,
  "lat": 49.4108755,
  "lon": 8.7156674
},
{
  "type": "node",
  "id": 3093291866,
  "lat": 49.4108256,
  "lon": 8.7157356
},
{
  "type": "node",
  "id": 5400779509,
  "lat": 49.4106932,
  "lon": 8.7106032
},
{
  "type": "node",
  "id": 5400779515,
  "lat": 49.4107481,
  "lon": 8.7107069
},
{
  "type": "node",
  "id": 5400779519,
  "lat": 49.4108317,
  "lon": 8.7111407
},
{
  "type": "node",
  "id": 5400779520,
  "lat": 49.4108406,
  "lon": 8.7111330
},
{
  "type": "node",
  "id": 5400785621,
  "lat": 49.4107867,
  "lon": 8.7110183
},
{
  "type": "node",
  "id": 5400785622,
  "lat": 49.4108088,
  "lon": 8.7109990
},
{
  "type": "node",
  "id": 5400785623,
  "lat": 49.4107782,
  "lon": 8.7107888
},
{
  "type": "node",
  "id": 5400785624,
  "lat": 49.4107059,
  "lon": 8.7105922
},
{
  "type": "node",
  "id": 5400785625,
  "lat": 49.4108682,
  "lon": 8.7112079
},
{
  "type": "node",
  "id": 282950975,
  "lat": 49.4111208,
  "lon": 8.7061844
},
{
  "type": "node",
  "id": 415916515,
  "lat": 49.4113320,
  "lon": 8.7067476
},
{
  "type": "node",
  "id": 415916518,
  "lat": 49.4112692,
  "lon": 8.7063574
},
{
  "type": "node",
  "id": 415919868,
  "lat": 49.4114786,
  "lon": 8.7060234
},
{
  "type": "node",
  "id": 415919869,
  "lat": 49.4115066,
  "lon": 8.7062335
},
{
  "type": "node",
  "id": 415919872,
  "lat": 49.4112000,
  "lon": 8.7067949
},
{
  "type": "node",
  "id": 4573151345,
  "lat": 49.4112578,
  "lon": 8.7061228
},
{
  "type": "node",
  "id": 270405765,
  "lat": 49.4111212,
  "lon": 8.7158225
},
{
  "type": "node",
  "id": 270405768,
  "lat": 49.4110256,
  "lon": 8.7155651
},
{
  "type": "node",
  "id": 270405769,
  "lat": 49.4110048,
  "lon": 8.7155815
},
{
  "type": "node",
  "id": 270405842,
  "lat": 49.4108982,
  "lon": 8.7156486
},
{
  "type": "node",
  "id": 270405843,
  "lat": 49.4108997,
  "lon": 8.7156528
},
{
  "type": "node",
  "id": 270405844,
  "lat": 49.4109502,
  "lon": 8.7156108
},
{
  "type": "node",
  "id": 270405845,
  "lat": 49.4109546,
  "lon": 8.7156231
},
{
  "type": "node",
  "id": 270405846,
  "lat": 49.4109566,
  "lon": 8.7156276
},
{
  "type": "node",
  "id": 427969602,
  "lat": 49.4132543,
  "lon": 8.7146507
},
{
  "type": "node",
  "id": 427969603,
  "lat": 49.4132790,
  "lon": 8.7147595
},
{
  "type": "node",
  "id": 427969604,
  "lat": 49.4133713,
  "lon": 8.7147171
},
{
  "type": "node",
  "id": 427969605,
  "lat": 49.4134571,
  "lon": 8.7151583
},
{
  "type": "node",
  "id": 427969606,
  "lat": 49.4133529,
  "lon": 8.7152062
},
{
  "type": "node",
  "id": 427969608,
  "lat": 49.4132147,
  "lon": 8.7153175
},
{
  "type": "node",
  "id": 427969609,
  "lat": 49.4131927,
  "lon": 8.7152047
},
{
  "type": "node",
  "id": 427969610,
  "lat": 49.4133095,
  "lon": 8.7151509
},
{
  "type": "node",
  "id": 427969611,
  "lat": 49.4132499,
  "lon": 8.7148445
},
{
  "type": "node",
  "id": 427969612,
  "lat": 49.4131346,
  "lon": 8.7148975
},
{
  "type": "node",
  "id": 427969613,
  "lat": 49.4131024,
  "lon": 8.7147250
},
{
  "type": "node",
  "id": 1064259415,
  "lat": 49.4133615,
  "lon": 8.7152500
},
{
  "type": "node",
  "id": 2536352618,
  "lat": 49.4132921,
  "lon": 8.7152819
},
{
  "type": "node",
  "id": 2544039164,
  "lat": 49.4110213,
  "lon": 8.7110748
},
{
  "type": "node",
  "id": 2544039189,
  "lat": 49.4109068,
  "lon": 8.7107635
},
{
  "type": "node",
  "id": 2599659773,
  "lat": 49.4108817,
  "lon": 8.7156623
},
{
  "type": "node",
  "id": 4872984635,
  "lat": 49.4131085,
  "lon": 8.7147216
},
{
  "type": "node",
  "id": 1035573814,
  "lat": 49.4154126,
  "lon": 8.7299430
},
{
  "type": "node",
  "id": 1035574150,
  "lat": 49.4155182,
  "lon": 8.7299448
},
{
  "type": "node",
  "id": 1035574404,
  "lat": 49.4154102,
  "lon": 8.7302793
},
{
  "type": "node",
  "id": 1035574790,
  "lat": 49.4155158,
  "lon": 8.7302811
},
{
  "type": "node",
  "id": 2037985703,
  "lat": 49.4155164,
  "lon": 8.7301892
},
{
  "type": "node",
  "id": 2037985705,
  "lat": 49.4154860,
  "lon": 8.7300408
},
{
  "type": "node",
  "id": 2037985712,
  "lat": 49.4154835,
  "lon": 8.7294286
},
{
  "type": "node",
  "id": 2037985714,
  "lat": 49.4155136,
  "lon": 8.7296602
},
{
  "type": "node",
  "id": 2037985716,
  "lat": 49.4155175,
  "lon": 8.7300414
},
{
  "type": "node",
  "id": 2037985718,
  "lat": 49.4154849,
  "lon": 8.7301887
},
{
  "type": "node",
  "id": 2037985720,
  "lat": 49.4153757,
  "lon": 8.7296912
},
{
  "type": "node",
  "id": 2037985722,
  "lat": 49.4153577,
  "lon": 8.7294671
},
{
  "type": "node",
  "id": 2037985724,
  "lat": 49.4153809,
  "lon": 8.7297311
},
{
  "type": "node",
  "id": 2037985726,
  "lat": 49.4154275,
  "lon": 8.7297167
},
{
  "type": "node",
  "id": 2037985728,
  "lat": 49.4154237,
  "lon": 8.7296878
},
{
  "type": "node",
  "id": 2296924878,
  "lat": 49.4153864,
  "lon": 8.7296880
},
{
  "type": "node",
  "id": 2328114812,
  "lat": 49.4154555,
  "lon": 8.7294372
},
{
  "type": "node",
  "id": 3749195400,
  "lat": 49.1374691,
  "lon": 8.9103873
},
{
  "type": "node",
  "id": 3749195402,
  "lat": 49.1374736,
  "lon": 8.9104846
},
{
  "type": "node",
  "id": 3749195406,
  "lat": 49.1374799,
  "lon": 8.9105350
},
{
  "type": "node",
  "id": 3749195407,
  "lat": 49.1374831,
  "lon": 8.9102706
},
{
  "type": "node",
  "id": 3749195409,
  "lat": 49.1374843,
  "lon": 8.9102995
},
{
  "type": "node",
  "id": 3749195410,
  "lat": 49.1374876,
  "lon": 8.9103804
},
{
  "type": "node",
  "id": 3749195423,
  "lat": 49.1375170,
  "lon": 8.9102547
},
{
  "type": "node",
  "id": 3749195426,
  "lat": 49.1375242,
  "lon": 8.9103562
},
{
  "type": "node",
  "id": 3749195428,
  "lat": 49.1375382,
  "lon": 8.9105074
},
{
  "type": "node",
  "id": 909296627,
  "lat": 49.2394459,
  "lon": 8.8799690
},
{
  "type": "node",
  "id": 2047959770,
  "lat": 49.2395195,
  "lon": 8.8794227
},
{
  "type": "node",
  "id": 2047959802,
  "lat": 49.2396959,
  "lon": 8.8786124
},
{
  "type": "node",
  "id": 2047959834,
  "lat": 49.2399265,
  "lon": 8.8782107
},
{
  "type": "node",
  "id": 6858571830,
  "lat": 49.2386813,
  "lon": 8.8796514
},
{
  "type": "node",
  "id": 6858571831,
  "lat": 49.2388056,
  "lon": 8.8788629
},
{
  "type": "node",
  "id": 6858571832,
  "lat": 49.2389965,
  "lon": 8.8778168
},
{
  "type": "node",
  "id": 909296622,
  "lat": 49.2394582,
  "lon": 8.8806783
},
{
  "type": "node",
  "id": 909296635,
  "lat": 49.2395435,
  "lon": 8.8812041
},
{
  "type": "node",
  "id": 2047959642,
  "lat": 49.2388161,
  "lon": 8.8818797
},
{
  "type": "node",
  "id": 2047959739,
  "lat": 49.2393694,
  "lon": 8.8815722
},
{
  "type": "node",
  "id": 6858571826,
  "lat": 49.2387321,
  "lon": 8.8814834
},
{
  "type": "node",
  "id": 6858571827,
  "lat": 49.2386568,
  "lon": 8.8809791
},
{
  "type": "node",
  "id": 6858571828,
  "lat": 49.2386252,
  "lon": 8.8805848
},
{
  "type": "node",
  "id": 6858571829,
  "lat": 49.2386340,
  "lon": 8.8801610
},
{
  "type": "node",
  "id": 353473570,
  "lat": 49.2377154,
  "lon": 8.8987434
},
{
  "type": "node",
  "id": 353473572,
  "lat": 49.2378646,
  "lon": 8.8984265
},
{
  "type": "node",
  "id": 353473573,
  "lat": 49.2379144,
  "lon": 8.8984803
},
{
  "type": "node",
  "id": 353473574,
  "lat": 49.2381718,
  "lon": 8.8979376
},
{
  "type": "node",
  "id": 353473575,
  "lat": 49.2383255,
  "lon": 8.8976668
},
{
  "type": "node",
  "id": 353473577,
  "lat": 49.2383985,
  "lon": 8.8976118
},
{
  "type": "node",
  "id": 353473578,
  "lat": 49.2385304,
  "lon": 8.8973265
},
{
  "type": "node",
  "id": 353473580,
  "lat": 49.2386050,
  "lon": 8.8973094
},
{
  "type": "node",
  "id": 353473581,
  "lat": 49.2386719,
  "lon": 8.8972437
},
{
  "type": "node",
  "id": 353473582,
  "lat": 49.2386984,
  "lon": 8.8971118
},
{
  "type": "node",
  "id": 353473584,
  "lat": 49.2386744,
  "lon": 8.8969986
},
{
  "type": "node",
  "id": 353473585,
  "lat": 49.2386574,
  "lon": 8.8969266
},
{
  "type": "node",
  "id": 353473586,
  "lat": 49.2386212,
  "lon": 8.8966420
},
{
  "type": "node",
  "id": 353473587,
  "lat": 49.2383341,
  "lon": 8.8963370
},
{
  "type": "node",
  "id": 353473588,
  "lat": 49.2381910,
  "lon": 8.8966535
},
{
  "type": "node",
  "id": 353473591,
  "lat": 49.2378494,
  "lon": 8.8971274
},
{
  "type": "node",
  "id": 353473592,
  "lat": 49.2377758,
  "lon": 8.8970580
},
{
  "type": "node",
  "id": 353473593,
  "lat": 49.2372552,
  "lon": 8.8982290
},
{
  "type": "node",
  "id": 1687330476,
  "lat": 49.2376599,
  "lon": 8.8973160
},
{
  "type": "node",
  "id": 1687330477,
  "lat": 49.2376858,
  "lon": 8.8973398
},
{
  "type": "node",
  "id": 1687330478,
  "lat": 49.2381046,
  "lon": 8.8965613
},
{
  "type": "node",
  "id": 1687330488,
  "lat": 49.2381936,
  "lon": 8.8979584
},
{
  "type": "node",
  "id": 1687330496,
  "lat": 49.2382423,
  "lon": 8.8978464
},
{
  "type": "node",
  "id": 1687330612,
  "lat": 49.2385623,
  "lon": 8.8973229
},
{
  "type": "node",
  "id": 1687330620,
  "lat": 49.2385855,
  "lon": 8.8973193
},
{
  "type": "node",
  "id": 1687330626,
  "lat": 49.2386256,
  "lon": 8.8972956
},
{
  "type": "node",
  "id": 1687330627,
  "lat": 49.2386453,
  "lon": 8.8969514
},
{
  "type": "node",
  "id": 1687330628,
  "lat": 49.2386465,
  "lon": 8.8972768
},
{
  "type": "node",
  "id": 1687330652,
  "lat": 49.2386865,
  "lon": 8.8972072
},
{
  "type": "node",
  "id": 1687330653,
  "lat": 49.2386904,
  "lon": 8.8970403
},
{
  "type": "node",
  "id": 1687330657,
  "lat": 49.2386955,
  "lon": 8.8971654
},
{
  "type": "node",
  "id": 1687330658,
  "lat": 49.2386968,
  "lon": 8.8970841
},
{
  "type": "node",
  "id": 2025662145,
  "lat": 49.2399013,
  "lon": 8.8953522
},
{
  "type": "node",
  "id": 2025662149,
  "lat": 49.2399629,
  "lon": 8.8952438
},
{
  "type": "node",
  "id": 2025662151,
  "lat": 49.2399687,
  "lon": 8.8961870
},
{
  "type": "node",
  "id": 2025662156,
  "lat": 49.2400650,
  "lon": 8.8962795
},
{
  "type": "node",
  "id": 2025662159,
  "lat": 49.2401326,
  "lon": 8.8954698
},
{
  "type": "node",
  "id": 2025662161,
  "lat": 49.2401932,
  "lon": 8.8964107
},
{
  "type": "node",
  "id": 2025662162,
  "lat": 49.2401915,
  "lon": 8.8953661
},
{
  "type": "node",
  "id": 2025662163,
  "lat": 49.2401894,
  "lon": 8.8957982
},
{
  "type": "node",
  "id": 2025662166,
  "lat": 49.2402294,
  "lon": 8.8958391
},
{
  "type": "node",
  "id": 2025662167,
  "lat": 49.2402434,
  "lon": 8.8958068
},
{
  "type": "node",
  "id": 2025662179,
  "lat": 49.2403300,
  "lon": 8.8955505
},
{
  "type": "node",
  "id": 2025662187,
  "lat": 49.2403908,
  "lon": 8.8959578
},
{
  "type": "node",
  "id": 5579024759,
  "lat": 49.2399026,
  "lon": 8.8960990
},
{
  "type": "node",
  "id": 5579024770,
  "lat": 49.2400450,
  "lon": 8.8960707
},
{
  "type": "node",
  "id": 5579024771,
  "lat": 49.2400391,
  "lon": 8.8960629
},
{
  "type": "node",
  "id": 5579024772,
  "lat": 49.2400716,
  "lon": 8.8960998
},
{
  "type": "node",
  "id": 5579024773,
  "lat": 49.2400509,
  "lon": 8.8960786
},
{
  "type": "node",
  "id": 5579024776,
  "lat": 49.2401211,
  "lon": 8.8961510
},
{
  "type": "node",
  "id": 5579024777,
  "lat": 49.2402096,
  "lon": 8.8957626
},
{
  "type": "node",
  "id": 5579024781,
  "lat": 49.2398528,
  "lon": 8.8956616
},
{
  "type": "node",
  "id": 5579024782,
  "lat": 49.2398161,
  "lon": 8.8956128
},
{
  "type": "node",
  "id": 5579024783,
  "lat": 49.2399371,
  "lon": 8.8953998
},
{
  "type": "node",
  "id": 5579024784,
  "lat": 49.2397329,
  "lon": 8.8958730
},
{
  "type": "node",
  "id": 5579024785,
  "lat": 49.2401319,
  "lon": 8.8963480
},
{
  "type": "node",
  "id": 5579024786,
  "lat": 49.2401194,
  "lon": 8.8963765
},
{
  "type": "node",
  "id": 5579024787,
  "lat": 49.2400855,
  "lon": 8.8963418
},
{
  "type": "node",
  "id": 5579024788,
  "lat": 49.2400980,
  "lon": 8.8963133
},
{
  "type": "node",
  "id": 5983154731,
  "lat": 49.2403433,
  "lon": 8.8960666
},
{
  "type": "node",
  "id": 5983154733,
  "lat": 49.2402627,
  "lon": 8.8958266
},
{
  "type": "node",
  "id": 1992223153,
  "lat": 49.2384111,
  "lon": 8.9116986
},
{
  "type": "node",
  "id": 1992223214,
  "lat": 49.2384501,
  "lon": 8.9120370
},
{
  "type": "node",
  "id": 1992223241,
  "lat": 49.2384592,
  "lon": 8.9118458
},
{
  "type": "node",
  "id": 1992223274,
  "lat": 49.2384779,
  "lon": 8.9119834
},
{
  "type": "node",
  "id": 1992223317,
  "lat": 49.2385010,
  "lon": 8.9118467
},
{
  "type": "node",
  "id": 1992223325,
  "lat": 49.2385089,
  "lon": 8.9118314
},
{
  "type": "node",
  "id": 1992223330,
  "lat": 49.2385188,
  "lon": 8.9119830
},
{
  "type": "node",
  "id": 1992223332,
  "lat": 49.2385194,
  "lon": 8.9120351
},
{
  "type": "node",
  "id": 1992223342,
  "lat": 49.2385247,
  "lon": 8.9116689
},
{
  "type": "node",
  "id": 1992223344,
  "lat": 49.2385267,
  "lon": 8.9119147
},
{
  "type": "node",
  "id": 1992223369,
  "lat": 49.2385331,
  "lon": 8.9119036
},
{
  "type": "node",
  "id": 1992223391,
  "lat": 49.2385388,
  "lon": 8.9117857
},
{
  "type": "node",
  "id": 1992223421,
  "lat": 49.2385591,
  "lon": 8.9118698
},
{
  "type": "node",
  "id": 1992223423,
  "lat": 49.2385596,
  "lon": 8.9117568
},
{
  "type": "node",
  "id": 1992223425,
  "lat": 49.2385599,
  "lon": 8.9118687
},
{
  "type": "node",
  "id": 1992223484,
  "lat": 49.2385834,
  "lon": 8.9118357
},
{
  "type": "node",
  "id": 1992223489,
  "lat": 49.2385838,
  "lon": 8.9118364
},
{
  "type": "node",
  "id": 1992223498,
  "lat": 49.2385958,
  "lon": 8.9118190
},
{
  "type": "node",
  "id": 1992223515,
  "lat": 49.2386037,
  "lon": 8.9120346
},
{
  "type": "node",
  "id": 1992223549,
  "lat": 49.2386299,
  "lon": 8.9119113
},
{
  "type": "node",
  "id": 1992223555,
  "lat": 49.2386332,
  "lon": 8.9119911
},
{
  "type": "node",
  "id": 1992223559,
  "lat": 49.2386340,
  "lon": 8.9119898
},
{
  "type": "node",
  "id": 1992223602,
  "lat": 49.2386574,
  "lon": 8.9119552
},
{
  "type": "node",
  "id": 1186359159,
  "lat": 49.2803561,
  "lon": 9.1348061
},
{
  "type": "node",
  "id": 1573017202,
  "lat": 49.2801958,
  "lon": 9.1345748
},
{
  "type": "node",
  "id": 1573017204,
  "lat": 49.2802233,
  "lon": 9.1341266
},
{
  "type": "node",
  "id": 1573017210,
  "lat": 49.2801701,
  "lon": 9.1345054
},
{
  "type": "node",
  "id": 1573017219,
  "lat": 49.2803612,
  "lon": 9.1339493
},
{
  "type": "node",
  "id": 1573017220,
  "lat": 49.2803170,
  "lon": 9.1338658
},
{
  "type": "node",
  "id": 1573017222,
  "lat": 49.2803312,
  "lon": 9.1339237
},
{
  "type": "node",
  "id": 1573017224,
  "lat": 49.2803343,
  "lon": 9.1338344
},
{
  "type": "node",
  "id": 1573017227,
  "lat": 49.2803851,
  "lon": 9.1339072
},
{
  "type": "node",
  "id": 1573017230,
  "lat": 49.2805885,
  "lon": 9.1339777
},
{
  "type": "node",
  "id": 1573017244,
  "lat": 49.2806293,
  "lon": 9.1339941
},
{
  "type": "node",
  "id": 1573017248,
  "lat": 49.2807366,
  "lon": 9.1341061
},
{
  "type": "node",
  "id": 1573017251,
  "lat": 49.2806964,
  "lon": 9.1343110
},
{
  "type": "node",
  "id": 1573017256,
  "lat": 49.2806579,
  "lon": 9.1343753
},
{
  "type": "node",
  "id": 2147877266,
  "lat": 49.2801443,
  "lon": 9.1345540
},
{
  "type": "node",
  "id": 2147877268,
  "lat": 49.2801480,
  "lon": 9.1345123
},
{
  "type": "node",
  "id": 2147877270,
  "lat": 49.2801663,
  "lon": 9.1345812
},
{
  "type": "node",
  "id": 2147877276,
  "lat": 49.2801731,
  "lon": 9.1341696
},
{
  "type": "node",
  "id": 2147877278,
  "lat": 49.2801753,
  "lon": 9.1341401
},
{
  "type": "node",
  "id": 2147877280,
  "lat": 49.2801881,
  "lon": 9.1341135
},
{
  "type": "node",
  "id": 2147877282,
  "lat": 49.2801883,
  "lon": 9.1341997
},
{
  "type": "node",
  "id": 2147877286,
  "lat": 49.2802044,
  "lon": 9.1341144
},
{
  "type": "node",
  "id": 2147877327,
  "lat": 49.2803004,
  "lon": 9.1347805
},
{
  "type": "node",
  "id": 2147877329,
  "lat": 49.2803076,
  "lon": 9.1347378
},
{
  "type": "node",
  "id": 2147877333,
  "lat": 49.2803116,
  "lon": 9.1348123
},
{
  "type": "node",
  "id": 2147877349,
  "lat": 49.2803213,
  "lon": 9.1338965
},
{
  "type": "node",
  "id": 2147877362,
  "lat": 49.2803341,
  "lon": 9.1348223
},
{
  "type": "node",
  "id": 2147877367,
  "lat": 49.2803634,
  "lon": 9.1338373
},
{
  "type": "node",
  "id": 2147877370,
  "lat": 49.2803862,
  "lon": 9.1338645
},
{
  "type": "node",
  "id": 2147877390,
  "lat": 49.2806896,
  "lon": 9.1340791
},
{
  "type": "node",
  "id": 2147877391,
  "lat": 49.2807053,
  "lon": 9.1341679
},
{
  "type": "node",
  "id": 2147877392,
  "lat": 49.2807100,
  "lon": 9.1340638
},
{
  "type": "node",
  "id": 2147877393,
  "lat": 49.2807220,
  "lon": 9.1341591
},
{
  "type": "node",
  "id": 2147877394,
  "lat": 49.2807303,
  "lon": 9.1340799
},
{
  "type": "node",
  "id": 2147877395,
  "lat": 49.2807324,
  "lon": 9.1341327
},
{
  "type": "node",
  "id": 2538051437,
  "lat": 49.3215342,
  "lon": 8.8193119
},
{
  "type": "node",
  "id": 2538051453,
  "lat": 49.3215622,
  "lon": 8.8191055
},
{
  "type": "node",
  "id": 2538051492,
  "lat": 49.3216398,
  "lon": 8.8193457
},
{
  "type": "node",
  "id": 2538051499,
  "lat": 49.3216678,
  "lon": 8.8191392
},
{
  "type": "node",
  "id": 3910769097,
  "lat": 49.3700160,
  "lon": 8.9873662
},
{
  "type": "node",
  "id": 3910769098,
  "lat": 49.3700287,
  "lon": 8.9874780
},
{
  "type": "node",
  "id": 3910769099,
  "lat": 49.3700350,
  "lon": 8.9873355
},
{
  "type": "node",
  "id": 3910769100,
  "lat": 49.3700378,
  "lon": 8.9873604
},
{
  "type": "node",
  "id": 3910769107,
  "lat": 49.3700704,
  "lon": 8.9873260
},
{
  "type": "node",
  "id": 3910769108,
  "lat": 49.3700859,
  "lon": 8.9874627
},
{
  "type": "node",
  "id": 1853249077,
  "lat": 49.4460562,
  "lon": 8.8977822
},
{
  "type": "node",
  "id": 1853249083,
  "lat": 49.4461080,
  "lon": 8.8976351
},
{
  "type": "node",
  "id": 1853249102,
  "lat": 49.4461993,
  "lon": 8.8979015
},
{
  "type": "node",
  "id": 1853249104,
  "lat": 49.4462512,
  "lon": 8.8977543
},
{
  "type": "node",
  "id": 4986835443,
  "lat": 49.4461796,
  "lon": 8.8976947
},
{
  "type": "node",
  "id": 886154688,
  "lat": 49.4615211,
  "lon": 8.9854673
},
{
  "type": "node",
  "id": 886154689,
  "lat": 49.4614437,
  "lon": 8.9853670
},
{
  "type": "node",
  "id": 886154692,
  "lat": 49.4613615,
  "lon": 8.9855150
},
{
  "type": "node",
  "id": 886154693,
  "lat": 49.4614385,
  "lon": 8.9856161
},
{
  "type": "node",
  "id": 1800824000,
  "lat": 49.4612351,
  "lon": 8.9864848
},
{
  "type": "node",
  "id": 1800824038,
  "lat": 49.4613065,
  "lon": 8.9865707
},
{
  "type": "node",
  "id": 1800824050,
  "lat": 49.4613066,
  "lon": 8.9863719
},
{
  "type": "node",
  "id": 1800824083,
  "lat": 49.4613752,
  "lon": 8.9864551
},
{
  "type": "node",
  "id": 1800824087,
  "lat": 49.4613695,
  "lon": 8.9864628
},
{
  "type": "node",
  "id": 6653394215,
  "lat": 49.4613489,
  "lon": 8.9864225
},
{
  "type": "node",
  "id": 6653517196,
  "lat": 49.4614676,
  "lon": 8.9854039
},
{
  "type": "node",
  "id": 6653517197,
  "lat": 49.4614513,
  "lon": 8.9853825
},
{
  "type": "node",
  "id": 6653517198,
  "lat": 49.4614531,
  "lon": 8.9853793
},
{
  "type": "node",
  "id": 6653517199,
  "lat": 49.4614698,
  "lon": 8.9853999
},
{
  "type": "node",
  "id": 3499401836,
  "lat": 49.3774918,
  "lon": 9.1678890
},
{
  "type": "node",
  "id": 3499401837,
  "lat": 49.3773603,
  "lon": 9.1679579
},
{
  "type": "node",
  "id": 3499401838,
  "lat": 49.3773895,
  "lon": 9.1680893
},
{
  "type": "node",
  "id": 3499401839,
  "lat": 49.3775210,
  "lon": 9.1680204
},
{
  "type": "node",
  "id": 1295706905,
  "lat": 49.4723193,
  "lon": 9.1457947
},
{
  "type": "node",
  "id": 1295707265,
  "lat": 49.4723887,
  "lon": 9.1457049
},
{
  "type": "node",
  "id": 1295707554,
  "lat": 49.4724024,
  "lon": 9.1459471
},
{
  "type": "node",
  "id": 1295708588,
  "lat": 49.4724629,
  "lon": 9.1458435
},
{
  "type": "node",
  "id": 6944703053,
  "lat": 49.4724521,
  "lon": 9.1458020
},
{
  "type": "node",
  "id": 6944703054,
  "lat": 49.4724316,
  "lon": 9.1457644
},
{
  "type": "node",
  "id": 6944703055,
  "lat": 49.4724255,
  "lon": 9.1457723
},
{
  "type": "node",
  "id": 6944703056,
  "lat": 49.4724452,
  "lon": 9.1458110
},
{
  "type": "node",
  "id": 6944703057,
  "lat": 49.4724367,
  "lon": 9.1458774
},
{
  "type": "node",
  "id": 6944703058,
  "lat": 49.4724448,
  "lon": 9.1458922
},
{
  "type": "node",
  "id": 3013956648,
  "lat": 49.5345099,
  "lon": 8.5806853
},
{
  "type": "node",
  "id": 3013956649,
  "lat": 49.5345649,
  "lon": 8.5805151
},
{
  "type": "node",
  "id": 3013956650,
  "lat": 49.5345962,
  "lon": 8.5807515
},
{
  "type": "node",
  "id": 3013956654,
  "lat": 49.5346512,
  "lon": 8.5805813
},
{
  "type": "node",
  "id": 425820775,
  "lat": 49.6541970,
  "lon": 8.5686650
},
{
  "type": "node",
  "id": 425820776,
  "lat": 49.6543667,
  "lon": 8.5693632
},
{
  "type": "node",
  "id": 425820777,
  "lat": 49.6540698,
  "lon": 8.5687387
},
{
  "type": "node",
  "id": 425820778,
  "lat": 49.6542395,
  "lon": 8.5694369
},
{
  "type": "node",
  "id": 455212558,
  "lat": 49.6543199,
  "lon": 8.5691707
},
{
  "type": "node",
  "id": 455212560,
  "lat": 49.6542820,
  "lon": 8.5690185
},
{
  "type": "node",
  "id": 5727478314,
  "lat": 49.6541765,
  "lon": 8.5691777
},
{
  "type": "node",
  "id": 4287365483,
  "lat": 49.6473909,
  "lon": 8.6284835
},
{
  "type": "node",
  "id": 4287365484,
  "lat": 49.6473227,
  "lon": 8.6286231
},
{
  "type": "node",
  "id": 4287365485,
  "lat": 49.6473742,
  "lon": 8.6286897
},
{
  "type": "node",
  "id": 4287365486,
  "lat": 49.6474465,
  "lon": 8.6285501
},
{
  "type": "node",
  "id": 5879132365,
  "lat": 49.6474280,
  "lon": 8.6285858
},
{
  "type": "node",
  "id": 2388913772,
  "lat": 49.6410906,
  "lon": 8.6427893
},
{
  "type": "node",
  "id": 2388913773,
  "lat": 49.6411301,
  "lon": 8.6429456
},
{
  "type": "node",
  "id": 2388913774,
  "lat": 49.6412337,
  "lon": 8.6427032
},
{
  "type": "node",
  "id": 2388913775,
  "lat": 49.6412731,
  "lon": 8.6428596
},
{
  "type": "node",
  "id": 3129919243,
  "lat": 49.6407663,
  "lon": 8.6456714
},
{
  "type": "node",
  "id": 3129919248,
  "lat": 49.6408061,
  "lon": 8.6458609
},
{
  "type": "node",
  "id": 3129919259,
  "lat": 49.6409278,
  "lon": 8.6455905
},
{
  "type": "node",
  "id": 3129919264,
  "lat": 49.6409676,
  "lon": 8.6457801
},
{
  "type": "node",
  "id": 1116683754,
  "lat": 49.6809024,
  "lon": 8.6236220
},
{
  "type": "node",
  "id": 1116683764,
  "lat": 49.6810005,
  "lon": 8.6237827
},
{
  "type": "node",
  "id": 1116683766,
  "lat": 49.6810339,
  "lon": 8.6234942
},
{
  "type": "node",
  "id": 1116683768,
  "lat": 49.6808199,
  "lon": 8.6237086
},
{
  "type": "node",
  "id": 1116683774,
  "lat": 49.6808037,
  "lon": 8.6236530
},
{
  "type": "node",
  "id": 1116683782,
  "lat": 49.6809062,
  "lon": 8.6236390
},
{
  "type": "node",
  "id": 1116683791,
  "lat": 49.6808890,
  "lon": 8.6235497
},
{
  "type": "node",
  "id": 1116683794,
  "lat": 49.6810801,
  "lon": 8.6237190
},
{
  "type": "node",
  "id": 1116683799,
  "lat": 49.6808123,
  "lon": 8.6236760
},
{
  "type": "node",
  "id": 1116683805,
  "lat": 49.6807626,
  "lon": 8.6235227
},
{
  "type": "node",
  "id": 1116683812,
  "lat": 49.6809622,
  "lon": 8.6236116
},
{
  "type": "node",
  "id": 1116683813,
  "lat": 49.6806983,
  "lon": 8.6237925
},
{
  "type": "node",
  "id": 1116683821,
  "lat": 49.6808972,
  "lon": 8.6235974
},
{
  "type": "node",
  "id": 1116683824,
  "lat": 49.6806379,
  "lon": 8.6236027
},
{
  "type": "node",
  "id": 1116754019,
  "lat": 49.6807342,
  "lon": 8.6238118
},
{
  "type": "node",
  "id": 1116754024,
  "lat": 49.6807223,
  "lon": 8.6237753
},
{
  "type": "node",
  "id": 1116754079,
  "lat": 49.6807175,
  "lon": 8.6238234
},
{
  "type": "node",
  "id": 1116754174,
  "lat": 49.6807060,
  "lon": 8.6237873
},
{
  "type": "node",
  "id": 1377612467,
  "lat": 49.6809523,
  "lon": 8.6235254
},
{
  "type": "node",
  "id": 6441637178,
  "lat": 49.7064193,
  "lon": 8.6127255
},
{
  "type": "node",
  "id": 6441637179,
  "lat": 49.7064612,
  "lon": 8.6132935
},
{
  "type": "node",
  "id": 6441637180,
  "lat": 49.7062744,
  "lon": 8.6133265
},
{
  "type": "node",
  "id": 6441637181,
  "lat": 49.7062325,
  "lon": 8.6127585
},
{
  "type": "node",
  "id": 2481369181,
  "lat": 49.5707748,
  "lon": 8.8281675
},
{
  "type": "node",
  "id": 2481369182,
  "lat": 49.5706268,
  "lon": 8.8280355
},
{
  "type": "node",
  "id": 2481369183,
  "lat": 49.5706750,
  "lon": 8.8279152
},
{
  "type": "node",
  "id": 2481369184,
  "lat": 49.5708134,
  "lon": 8.8280463
},
{
  "type": "node",
  "id": 2294533419,
  "lat": 49.5683716,
  "lon": 8.9753426
},
{
  "type": "node",
  "id": 2294533422,
  "lat": 49.5684161,
  "lon": 8.9754744
},
{
  "type": "node",
  "id": 2294533424,
  "lat": 49.5684435,
  "lon": 8.9752850
},
{
  "type": "node",
  "id": 2294533426,
  "lat": 49.5684879,
  "lon": 8.9754168
},
{
  "type": "way",
  "id": 207515607,
  "nodes": [
    2177680536,
    2177680533,
    2177680548,
    2177682193,
    2177680545,
    2177680543,
    2177682192,
    2177680540,
    2177682194,
    2177680538,
    2177680536
  ]
},
{
  "type": "way",
  "id": 207515778,
  "nodes": [
    2177682195,
    2177682198,
    2177682200,
    2177682193,
    2177680545,
    2177680543,
    2177682203,
    2177682195
  ]
},
{
  "type": "way",
  "id": 207515779,
  "nodes": [
    2177682202,
    2177682200,
    2177682198,
    2177682190,
    2177682201,
    2177682199,
    2177682202
  ]
},
{
  "type": "way",
  "id": 207515780,
  "nodes": [
    2177682196,
    2177682194,
    2177680540,
    2177682192,
    2177682191,
    2177682195,
    2177682198,
    2177682190,
    2177682197,
    2177682196
  ]
},
{
  "type": "way",
  "id": 188600305,
  "nodes": [
    1992223555,
    1992223421,
    1992223344,
    1992223515,
    1992223555
  ]
},
{
  "type": "way",
  "id": 188600465,
  "nodes": [
    1992223549,
    1992223489,
    1992223425,
    1992223559,
    1992223602,
    1992223549
  ]
},
{
  "type": "way",
  "id": 188600587,
  "nodes": [
    1992223369,
    1992223484,
    1992223498,
    1992223423,
    1992223317,
    1992223369
  ]
},
{
  "type": "way",
  "id": 188600609,
  "nodes": [
    1992223342,
    1992223153,
    1992223214,
    1992223332,
    1992223330,
    1992223274,
    1992223241,
    1992223325,
    1992223391,
    1992223342
  ]
}

  ]
}
