{
  "version": 0.6,
  "generator": "Overpass API 0.7.55.1011 6c2efc30",
  "osm3s": {
    "timestamp_osm_base": "2020-02-14T10:25:02Z",
    "copyright": "The data included in this document is from www.openstreetmap.org. The data is made available under ODbL."
  },
  "elements": [

{
  "type": "node",
  "id": 296160331,
  "lat": 48.1836471,
  "lon": 7.8815071,
  "tags": {
    "name": "Heimatmuseum",
    "tourism": "museum"
  }
},
{
  "type": "node",
  "id": 301467055,
  "lat": 47.9166739,
  "lon": 7.5363633,
  "tags": {
    "name": "Maison Victor Schoelcher",
    "tourism": "museum"
  }
},
{
  "type": "node",
  "id": 318512077,
  "lat": 48.0526867,
  "lon": 7.7843981,
  "tags": {
    "amenity": "library",
    "description": "opening hours: april-october, 1st sunday each month, 14:00-18:00",
    "name": "Heimatmuseum",
    "tourism": "museum"
  }
},
{
  "type": "node",
  "id": 348230979,
  "lat": 48.0436895,
  "lon": 7.6466787,
  "tags": {
    "addr:city": "Ihringen",
    "addr:housenumber": "42",
    "addr:postcode": "79241",
    "addr:street": "Bachenstraße",
    "name": "Heimatmuseum",
    "toilets:wheelchair": "yes",
    "tourism": "museum",
    "website": "http://www.heimatmuseum-ihringen.de/",
    "wheelchair": "limited",
    "wheelchair:description": "Rollstuhlgerechtes WC im benachbarten Rathaus zu Öffnungszeiten des Rathauses nutzbar."
  }
},
{
  "type": "node",
  "id": 348230980,
  "lat": 48.0436699,
  "lon": 7.6467404,
  "tags": {
    "addr:city": "Ihringen",
    "addr:housenumber": "42",
    "addr:postcode": "79241",
    "addr:street": "Bachenstraße",
    "information": "nature",
    "name": "Naturzentrum Kaiserstuhl",
    "operator": "Schwarzwaldverein",
    "toilets:wheelchair": "yes",
    "tourism": "museum",
    "website": "http://www.naturzentrum-kaiserstuhl.de",
    "wheelchair": "limited",
    "wheelchair:description": "Rollstuhlgerechtes WC im benachbarten Rathaus zu Öffnungszeiten des Rathauses nutzbar."
  }
},
{
  "type": "node",
  "id": 354971335,
  "lat": 47.8692342,
  "lon": 7.6746737,
  "tags": {
    "historic": "archaeological_site",
    "name": "Villa urbana (Römische Ruine)",
    "tourism": "museum",
    "wheelchair": "limited",
    "wheelchair:description": "WC ist zu eng, Museum kann bis auf einen kleinen Bereich (Keller) besucht werden"
  }
},
{
  "type": "node",
  "id": 369083561,
  "lat": 48.1509251,
  "lon": 7.7510081,
  "tags": {
    "addr:city": "Riegel am Kaiserstuhl",
    "addr:housenumber": "12",
    "addr:postcode": "79359",
    "addr:street": "Hauptstraße",
    "contact:website": "http://www.museum-riegel.de/",
    "designation": "Museum",
    "fax": "+49 7642 9044 26",
    "name": "Museum Riegel",
    "opening_hours": "Su 11:00-17:00 || \"by appointment\"",
    "operator": "Geschichtsverein Riegel e. V.",
    "phone": "+49 7642 9044 11",
    "tourism": "museum",
    "website": "http://www.museum-riegel.de/"
  }
},
{
  "type": "node",
  "id": 500222333,
  "lat": 47.9152540,
  "lon": 7.6994454,
  "tags": {
    "name": "Museum im Litschgihaus",
    "tourism": "museum"
  }
},
{
  "type": "node",
  "id": 617649525,
  "lat": 48.1485868,
  "lon": 7.7537189,
  "tags": {
    "name": "Messmer foundation",
    "tourism": "museum",
    "wikidata": "Q15824603",
    "wikipedia": "de:Kunsthalle Messmer"
  }
},
{
  "type": "node",
  "id": 622292049,
  "lat": 48.0677865,
  "lon": 7.6252730,
  "tags": {
    "name": "Weinbaumuseum",
    "tourism": "museum",
    "wheelchair": "limited"
  }
},
{
  "type": "node",
  "id": 663601656,
  "lat": 48.0158407,
  "lon": 7.5257835,
  "tags": {
    "name": "Musée Vauban",
    "name:de": "Vauban-Museum",
    "tourism": "museum"
  }
},
{
  "type": "node",
  "id": 685084692,
  "lat": 48.0395250,
  "lon": 7.5455969,
  "tags": {
    "name": "Musée Gallo-Romain",
    "tourism": "museum"
  }
},
{
  "type": "node",
  "id": 811577785,
  "lat": 47.8701501,
  "lon": 8.0958933,
  "tags": {
    "email": "gscheiter-beck@t-online.de",
    "fax": "+49 7655 698",
    "name": "Schnapsmuseum",
    "opening_hours": "Tu-Su 11:00-18:00",
    "phone": "+49 7655 341",
    "tourism": "museum",
    "website": "http://www.gscheiter-beck.de/"
  }
},
{
  "type": "node",
  "id": 1077545477,
  "lat": 47.7607210,
  "lon": 8.1277698,
  "tags": {
    "name": "Museum St. Blasien",
    "tourism": "museum"
  }
},
{
  "type": "node",
  "id": 1256591076,
  "lat": 48.0395709,
  "lon": 7.5457548,
  "tags": {
    "name": "Musée de l'Instrumentation Optique",
    "source": "cadastre-dgi-fr source : Direction Générale des Impôts - Cadastre. Mise à jour : 2011",
    "tourism": "museum"
  }
},
{
  "type": "node",
  "id": 1285921111,
  "lat": 48.1204473,
  "lon": 8.1962749,
  "tags": {
    "name": "Reinertonishof",
    "tourism": "museum"
  }
},
{
  "type": "node",
  "id": 1363487650,
  "lat": 47.9954144,
  "lon": 7.8486189,
  "tags": {
    "addr:city": "Freiburg im Breisgau",
    "addr:housenumber": "17",
    "addr:postcode": "79098",
    "addr:street": "Bertoldstraße",
    "contact:website": "http://www.uniseum.uni-freiburg.de/",
    "name": "Uniseum",
    "opening_hours": "Th 14:00-18:00; Fr 14:00-20:00; Sa 14:00-18:00",
    "phone": "+49 761 2033835",
    "toilets:wheelchair": "yes",
    "tourism": "museum",
    "website": "http://www.uniseum.uni-freiburg.de",
    "wheelchair": "limited",
    "wheelchair:description": "UG nicht barrierefrei",
    "wikidata": "Q598975",
    "wikipedia": "de:Uniseum"
  }
},
{
  "type": "node",
  "id": 1365167142,
  "lat": 48.0510858,
  "lon": 8.2076730,
  "tags": {
    "addr:city": "Furtwangen im Schwarzwald",
    "addr:country": "DE",
    "addr:housenumber": "1",
    "addr:postcode": "78120",
    "addr:street": "Robert-Gerwig-Platz",
    "fee": "yes",
    "name": "Deutsches Uhrenmuseum Furtwangen",
    "opening_hours": "Apr-Oct: Mo-Su,PH 09:00-18:00;Nov-Mar: Mo-Su,PH 10:00-17:00",
    "toilets:wheelchair": "yes",
    "tourism": "museum",
    "wheelchair": "yes",
    "wheelchair:description": "Behinderten-WC mit Euro-Schloss. Ein kleiner Teil der Ausstellung ist nur über Treppen erreichbar, aber trotzdem von Empore sehbar."
  }
},
{
  "type": "node",
  "id": 1404447101,
  "lat": 48.1740075,
  "lon": 8.0713783,
  "tags": {
    "addr:city": "Elzach",
    "addr:housenumber": "39",
    "addr:postcode": "79215",
    "addr:street": "Hauptstraße",
    "lastcheck": "2017-08-24",
    "name": "Heimatmuseum Elzach",
    "opening_hours": "Sa 10:00-13:00",
    "tourism": "museum",
    "wheelchair": "no"
  }
},
{
  "type": "node",
  "id": 1449509957,
  "lat": 48.1432561,
  "lon": 7.7034936,
  "tags": {
    "addr:city": "Endingen am Kaiserstuhl",
    "addr:housenumber": "7",
    "addr:postcode": "79346",
    "addr:street": "Rempartstraße",
    "name": "Käserei Museum",
    "opening_hours": "Su[3] 15:00-18:00",
    "tourism": "museum",
    "website": "http://www.endingen.de/html/seiten/text;museen;30,de.html"
  }
},
{
  "type": "node",
  "id": 1583367217,
  "lat": 47.8148326,
  "lon": 7.5618626,
  "tags": {
    "addr:city": "Neuenburg am Rhein",
    "addr:country": "DE",
    "addr:housenumber": "4",
    "addr:postcode": "79395",
    "addr:street": "Franziskanerplatz",
    "lastcheck": "2017-08-13",
    "name": "Stadtmuseum Neuenburg am Rhein",
    "opening_hours": "Su 10:00-12:00,14:00-16:00",
    "toilets:wheelchair": "no",
    "tourism": "museum",
    "wheelchair": "no"
  }
},
{
  "type": "node",
  "id": 1784532362,
  "lat": 48.1579643,
  "lon": 7.5559686,
  "tags": {
    "contact:city": "Marckolsheim",
    "contact:postcode": "67390",
    "contact:street": "Rue du Rhin",
    "name": "Musée Mémorial Ligne Maginot à Marckolsheim",
    "source": "Survey",
    "tourism": "museum"
  }
},
{
  "type": "node",
  "id": 1798001629,
  "lat": 48.1283977,
  "lon": 7.8117840,
  "tags": {
    "addr:housenumber": "11",
    "addr:street": "Emmendinger Straße",
    "contact:phone": "+49 7641 580645",
    "name": "Hilla-von-Rebay-Erinnerungsstätte",
    "opening_hours": "Su 14:00-17:00",
    "operator": "Gemeinde Teningen",
    "tourism": "museum",
    "website": "http://www.hilla-rebay.de/",
    "wikidata": "Q243117",
    "wikipedia": "de:Hilla von Rebay"
  }
},
{
  "type": "node",
  "id": 2010231146,
  "lat": 47.8061927,
  "lon": 7.6290423,
  "tags": {
    "addr:city": "Müllheim",
    "addr:country": "DE",
    "addr:housenumber": "7",
    "addr:postcode": "79379",
    "addr:street": "Wilhelmstraße",
    "contact:website": "http://www.markgraefler-museum.de/",
    "fee": "yes",
    "lastcheck": "2016-02-17",
    "name": "Markgräfler Museum Müllheim",
    "opening_hours": "Tu-Su 14:00-18:00",
    "tourism": "museum"
  }
},
{
  "type": "node",
  "id": 2010239837,
  "lat": 47.8006141,
  "lon": 7.6698494,
  "tags": {
    "addr:city": "Badenweiler",
    "addr:housenumber": "2",
    "addr:postcode": "79410",
    "addr:street": "Blauenstraße",
    "contact:website": "http://www.kunstpalais-badenweiler.de/",
    "name": "KunstPalais Badenweiler",
    "tourism": "museum"
  }
},
{
  "type": "node",
  "id": 2136794174,
  "lat": 48.1215656,
  "lon": 7.8495150,
  "tags": {
    "contact:email": "museum@emmendingen.de",
    "level": "2",
    "name": "Fotomuseum Hirsmüller",
    "opening_hours": "We,Su 14:00-17:00",
    "phone": "+49 7641 452324",
    "ref:isil": "DE-MUS-774914",
    "tourism": "museum",
    "website": "https://tourismus.emmendingen.de/kunst-kultur/museen-galerien/staendige-ausstellungen/"
  }
},
{
  "type": "node",
  "id": 2136794177,
  "lat": 48.1215417,
  "lon": 7.8496050,
  "tags": {
    "contact:email": "museum@emmendingen.de",
    "level": "1",
    "name": "Stadtgeschichtliche Sammlung",
    "opening_hours": "We,Su 14:00-17:00",
    "phone": "+49 7641 452324",
    "ref:isil": "DE-MUS-040711",
    "tourism": "museum",
    "website": "https://tourismus.emmendingen.de/kunst-kultur/museen-galerien/staendige-ausstellungen/"
  }
},
{
  "type": "node",
  "id": 2214965964,
  "lat": 48.1607961,
  "lon": 7.9745546,
  "tags": {
    "name": "Stefanshofkapelle anno 1770",
    "tourism": "museum"
  }
},
{
  "type": "node",
  "id": 2214965968,
  "lat": 48.1551457,
  "lon": 7.9784867,
  "tags": {
    "name": "Krummholzenhofkapelle",
    "tourism": "museum"
  }
},
{
  "type": "node",
  "id": 2291872354,
  "lat": 47.8243024,
  "lon": 7.5145453,
  "tags": {
    "addr:city": "Bantzenheim",
    "addr:country": "FR",
    "addr:housenumber": "8",
    "addr:postcode": "68490",
    "addr:street": "Rue du Général de Gaulle",
    "name": "La Grange à Bécanes - Musée Rhenan de la Moto",
    "opening_hours": "Tu-Sa 14:00-17:00; Su 10:00-12:30,14:00-17:00; Mo off",
    "phone": "+33 3 89 26 23 36",
    "source": "knowledge",
    "tourism": "museum",
    "website": "http://lagrangeabecanes.com/la-collection-motos-anciennes/",
    "wheelchair": "yes"
  }
},
{
  "type": "node",
  "id": 2331584478,
  "lat": 47.8813037,
  "lon": 7.7297145,
  "tags": {
    "addr:city": "Staufen im Breisgau",
    "addr:housenumber": "3",
    "addr:postcode": "79219",
    "addr:street": "Wettelbrunner Straße",
    "email": "keramikmuseum-staufen@t-online.de",
    "name": "Keramikmuseum Staufen",
    "opening_hours": "We-Sa 14:00-17:00; Su 11:00-13:00,14:00-17:00; Dec-Jan off",
    "phone": "+49 7633 6721",
    "tourism": "museum",
    "website": "http://www.landesmuseum.de/website/Deutsch/Museum/Zweigmuseen/Keramikmuseum_Staufen.htm"
  }
},
{
  "type": "node",
  "id": 2503854252,
  "lat": 47.8831931,
  "lon": 7.7323204,
  "tags": {
    "name": "Badisches Landesmuseum, Außenstelle Südbaden",
    "opening_hours": "Mo-Fr 09:00-13:00; We 09:00-13:00,14:00-16:00",
    "phone": "+49 7633 806450",
    "tourism": "museum",
    "website": "http://www.landesmuseum.de/website/Deutsch/Museum/Aussenstellen/Aussenstelle_Suedbaden.htm"
  }
},
{
  "type": "node",
  "id": 2507265651,
  "lat": 47.8717880,
  "lon": 7.6621907,
  "tags": {
    "name": "Puppenmuseum \"Kleine Welt\"",
    "operator": "Ursula Trefzger",
    "phone": "+49 07634 6951138",
    "tourism": "museum",
    "wheelchair": "no"
  }
},
{
  "type": "node",
  "id": 2542086986,
  "lat": 48.2764373,
  "lon": 8.0203006,
  "tags": {
    "name": "Museumsspeicher",
    "tourism": "museum",
    "website": "http://www.gastliches-kinzigtal.de/Media/Attraktionen/Steinach-Museumsspeicher-Welschensteinach/(fromlist)/true/(listnode)/3463"
  }
},
{
  "type": "node",
  "id": 2779964408,
  "lat": 48.1168252,
  "lon": 7.9003400,
  "tags": {
    "name": "Hochburgmuseum",
    "opening_hours": "Apr-Oct: Su,PH 13:00-17:00",
    "tourism": "museum",
    "website": "http://www.hochburg.de/start/museum-1/index.html",
    "wikidata": "Q885079",
    "wikipedia": "de:Hochburg (Emmendingen)"
  }
},
{
  "type": "node",
  "id": 2827542955,
  "lat": 48.1009559,
  "lon": 7.5978714,
  "tags": {
    "name": "Korkenziehermuseum",
    "opening_hours": "We-Sa 11:00-18:00 || \"Winterpause\"",
    "operator": "Kaiserstuhl Shop",
    "tourism": "museum",
    "website": "https://www.korkenzieher.de",
    "wheelchair": "no",
    "wikidata": "Q1784444"
  }
},
{
  "type": "node",
  "id": 2944390220,
  "lat": 47.8018154,
  "lon": 8.0355279,
  "tags": {
    "addr:city": "Bernau im Schwarzwald",
    "addr:country": "DE",
    "addr:housenumber": "18",
    "addr:postcode": "79872",
    "addr:street": "Rathausstraße",
    "building": "yes",
    "name": "Hans-Thoma-Museum",
    "toilets:wheelchair": "yes",
    "tourism": "museum",
    "website": "https://www.hans-thoma-museum.de/",
    "wheelchair": "yes",
    "wheelchair:description": "barrierefreier Eingang: rechts ums Haus"
  }
},
{
  "type": "node",
  "id": 2975851047,
  "lat": 47.8799070,
  "lon": 7.7298832,
  "tags": {
    "email": "Tangomuseum-Staufen@t-online.de",
    "name": "Tango- und Bandoneonmuseum Staufen",
    "opening_hours": "Sa,Su 15:00-18:00",
    "operator": "Tango- und Bandoneonmuseum Staufen e.V.",
    "phone": "+49 7634 591939",
    "tourism": "museum",
    "website": "https://staufentango.de/"
  }
},
{
  "type": "node",
  "id": 3004778957,
  "lat": 47.8817399,
  "lon": 7.7308408,
  "tags": {
    "name": "Literarische Dauerausstellung Peter Huchel und Erhart Kästner",
    "opening_hours": "Th,Su 15:00-18:00",
    "operator": "Stadt Staufen im Breisgau",
    "tourism": "museum"
  }
},
{
  "type": "node",
  "id": 3004778959,
  "lat": 47.8816569,
  "lon": 7.7318891,
  "tags": {
    "name": "Stadtmuseum",
    "opening_hours": "Mo 08:00-12:00,14:00-18:00; Tu-Fr 08:00-12:00; Sa-Su 14:00-17:00",
    "operator": "Stadt Staufen im Breisgau",
    "tourism": "museum"
  }
},
{
  "type": "node",
  "id": 3006594760,
  "lat": 47.8720098,
  "lon": 7.7133596,
  "tags": {
    "email": "info@hausdermodernenkunst.de",
    "fax": "+49 7633 500692",
    "name": "Haus der modernen Kunst",
    "opening_hours": "Th-Su 15:00-18:00",
    "phone": "+49 7633 929441",
    "tourism": "museum",
    "website": "http://www.hausdermodernenkunst.de"
  }
},
{
  "type": "node",
  "id": 3283156650,
  "lat": 47.9964707,
  "lon": 7.8483043,
  "tags": {
    "addr:city": "Freiburg im Breisgau",
    "addr:housenumber": "12",
    "addr:postcode": "79098",
    "addr:street": "Turmstraße",
    "name": "Fasnetmuseum",
    "opening_hours": "Sa 10:00-14:00",
    "operator": "Freiburger Narrenzunft",
    "phone": "+49 761 22611",
    "tourism": "museum",
    "website": "http://www.breisgauer-narrenzunft.de"
  }
},
{
  "type": "node",
  "id": 3472296534,
  "lat": 48.1390002,
  "lon": 7.8058153,
  "tags": {
    "addr:city": "Teningen",
    "addr:housenumber": "20",
    "addr:postcode": "79331",
    "addr:street": "Hauptstraße",
    "addr:suburb": "Köndringen",
    "name": "Franzfelder Heimatstube",
    "opening_hours": "\"Besichtigung nach Anmeldung\"",
    "tourism": "museum"
  }
},
{
  "type": "node",
  "id": 3707726570,
  "lat": 47.8778949,
  "lon": 7.8354272,
  "tags": {
    "addr:city": "Münstertal/Schwarzwald",
    "addr:housenumber": "55",
    "addr:postcode": "79244",
    "addr:street": "Spielweg",
    "fee": "yes",
    "museum": "apis mellifera",
    "name": "Bienenkundemuseum",
    "opening_hours": "We-Su 14:00-17:00; Th off; Fr off",
    "tourism": "museum",
    "website": "https://www.bienenkundemuseum.de/",
    "wikidata": "Q76631627"
  }
},
{
  "type": "node",
  "id": 3855529623,
  "lat": 47.8644948,
  "lon": 8.0221713,
  "tags": {
    "level": "11",
    "name": "Schinkenmuseum",
    "note": "im 11. Stock",
    "opening_hours": "Mo-Su,PH 09:00-16:30",
    "start_date": "2013",
    "tourism": "museum",
    "website": "http://m.hochschwarzwald.de/Media/Attraktionen/Schwarzwaelder-Schinkenmuseum",
    "wheelchair": "limited"
  }
},
{
  "type": "node",
  "id": 3867817450,
  "lat": 48.1910148,
  "lon": 7.7708985,
  "tags": {
    "name": "Narrenschau Kenzingen",
    "tourism": "museum"
  }
},
{
  "type": "node",
  "id": 4002911295,
  "lat": 47.9949701,
  "lon": 7.8531312,
  "tags": {
    "addr:city": "Freiburg im Breisgau",
    "addr:housenumber": "30",
    "addr:postcode": "79098",
    "addr:street": "Münsterplatz",
    "name": "Museum für Stadtgeschichte",
    "phone": "+49 716 2012515",
    "toilets:wheelchair": "no",
    "tourism": "museum",
    "wheelchair": "no",
    "wikidata": "Q1954675"
  }
},
{
  "type": "node",
  "id": 4159841236,
  "lat": 47.9722729,
  "lon": 7.8430699,
  "tags": {
    "addr:city": "Freiburg im Breisgau",
    "addr:street": "Wonnhaldestraße",
    "name": "WaldHaus",
    "opening_hours": "Tu-Fr 10:00-17:00, Su,PH 12:00-17:00",
    "tourism": "museum",
    "website": "https://www.waldhaus-freiburg.de/",
    "wheelchair": "yes"
  }
},
{
  "type": "node",
  "id": 4168001370,
  "lat": 48.1424967,
  "lon": 7.7044322,
  "tags": {
    "addr:city": "Endingen am Kaiserstuhl",
    "addr:housenumber": "20",
    "addr:postcode": "79346",
    "addr:street": "Adelshof",
    "lastcheck": "2016-11-30",
    "name": "Vorderöstereich Museum",
    "opening_hours": "Nov-Mar: Mo-Fr 09:00-12:30,14:30-17:00; We 09:00-12:30; Apr-Oct: Mo-Fr 09:00-12:30,14:30-18:00; We 09:00-12:30; Sa 10:00-13:00",
    "tourism": "museum",
    "website": "http://www.endingen.de/html/seiten/text;museen;30,de.html",
    "wheelchair": "no"
  }
},
{
  "type": "node",
  "id": 4380555490,
  "lat": 47.9129063,
  "lon": 7.5382995,
  "tags": {
    "addr:housenumber": "21",
    "addr:postcode": "68740",
    "addr:street": "Rue de la Libération",
    "email": "musee.schoelcher@fessenheim.fr",
    "name": "Espace muséographique Victor Schoelcher, son oeuvre",
    "name:fr": "Espace muséographique Victor Schoelcher, son oeuvre",
    "opening_hours": "Mo-Su 14:00-18:00",
    "phone": "+33389620328",
    "tourism": "museum",
    "website": "http://www.fessenheim.fr/vie-communale/services-communaux/victor-schoelcher-son-oeuvre/"
  }
},
{
  "type": "node",
  "id": 4438287894,
  "lat": 48.1422895,
  "lon": 7.7015542,
  "tags": {
    "addr:city": "Endingen am Kaiserstuhl",
    "addr:housenumber": "69",
    "addr:postcode": "79346",
    "addr:street": "Hauptstraße",
    "lastcheck": "2016-11-30",
    "name": "Fasnacht-Museum im Torli",
    "opening_hours": "\"nach Vereinbarung\"",
    "tourism": "museum",
    "website": "http://www.endingen.de/html/seiten/text;museen;30,de.html"
  }
},
{
  "type": "node",
  "id": 4850193652,
  "lat": 48.2344211,
  "lon": 7.8195487,
  "tags": {
    "name": "Kellermuseum",
    "operator": "Weingut Jäger",
    "phone": "+49 (78 22) 51 43",
    "tourism": "museum",
    "website": "http://www.weingut-jaeger.de/"
  }
},
{
  "type": "node",
  "id": 4984802736,
  "lat": 48.0032471,
  "lon": 7.8535976,
  "tags": {
    "description": "Ausstellung von antiken Originale, Abgüssen griechischer und römischer Skulptur, Bauteilen der Architektur der römischen Tempelanlage in Baalbek sowie zahlreicher Leihgaben antiker Kunstwerke.",
    "name": "Archäologische Sammlung",
    "opening_hours": "Tu-Th 14:00-18:00; Su 11:00-17:00",
    "operator": "Albert-Ludwigs-Universität",
    "tourism": "museum",
    "wheelchair": "yes"
  }
},
{
  "type": "node",
  "id": 5056364180,
  "lat": 48.1592790,
  "lon": 8.0907887,
  "tags": {
    "addr:city": "Elzach",
    "addr:housenumber": "57",
    "addr:postcode": "79215",
    "addr:street": "Dorfstraße",
    "addr:suburb": "Yach",
    "contact:website": "http://www.heimatverein-yach.de/",
    "lastcheck": "2017-08-24",
    "name": "Heimatmuseum Yach",
    "opening_hours": "Su,PH 15:00-17:00",
    "tourism": "museum"
  }
},
{
  "type": "node",
  "id": 5218649065,
  "lat": 48.0158791,
  "lon": 8.0321309,
  "tags": {
    "fee": "no",
    "museum": "history",
    "name": "Mediathek „Haus der Zähringer“",
    "opening_hours": "May-Oct Tu-Su 09:00-18:00; Nov-Apr Tu-Su 10:00-17:00",
    "tourism": "museum",
    "website": "http://www.die-zaehringer.eu"
  }
},
{
  "type": "node",
  "id": 5630475224,
  "lat": 48.0013111,
  "lon": 7.6918692,
  "tags": {
    "name": "Sanitätsbunker des Westwalls",
    "opening_hours": "Sa-Su 10:00-17:00",
    "operator": "Weinhaus Opfingen",
    "phone": "+4976646139970",
    "tourism": "museum"
  }
},
{
  "type": "node",
  "id": 5814665884,
  "lat": 48.1399984,
  "lon": 8.2371658,
  "tags": {
    "alt_name": "Schwarzwaldbahn-Erlebnispfad Station 1",
    "name": "Bahnhof Triberg - Ausstellung",
    "tourism": "museum"
  }
},
{
  "type": "node",
  "id": 5884412899,
  "lat": 47.9977447,
  "lon": 7.8461581,
  "tags": {
    "addr:city": "Freiburg im Breisgau",
    "addr:housenumber": "5",
    "addr:postcode": "79098",
    "addr:street": "Rotteckring",
    "name": "Archäologisches Museum Colombischlössle",
    "phone": "+49 761 2012571",
    "toilets:wheelchair": "no",
    "tourism": "museum",
    "website": "https://www.freiburg.de/pb/,Lde/237910.html",
    "wheelchair": "limited",
    "wheelchair:description": "kein behindertengerecht ausgewiesenes WC",
    "wikidata": "Q28737857"
  }
},
{
  "type": "node",
  "id": 6279323948,
  "lat": 47.9488613,
  "lon": 8.2387376,
  "tags": {
    "name": "Modelleisenbahn-Ausstellung",
    "opening_hours": "Th-Sa 14:00-17:00",
    "tourism": "museum"
  }
},
{
  "type": "node",
  "id": 6795990385,
  "lat": 48.0153387,
  "lon": 7.5266940,
  "tags": {
    "addr:postcode": "68600",
    "addr:street": "Place de la Porte de Belfort",
    "email": "info@mausa.fr",
    "name": "Mausa Vauban",
    "opening_hours": "Tu-Su 11:00-19:00",
    "tourism": "museum",
    "website": "http://mausa.fr"
  }
},
{
  "type": "way",
  "id": 23235191,
  "nodes": [
    1136495511,
    1136495199,
    7105763369,
    1136495465,
    251383518,
    2516076291,
    2516076283,
    251383469,
    2516076269,
    2516076266,
    1136495171,
    1136495441,
    1136495107,
    1136495382,
    7105763331,
    7105763332,
    251383550,
    7105763330,
    7105763329,
    2516076200,
    2516076225,
    1136495193,
    1136495343,
    1136495144,
    1195156938,
    1136495581,
    1195156939,
    1136495511
  ],
  "tags": {
    "addr:city": "Freiburg im Breisgau",
    "addr:housenumber": "10a",
    "addr:postcode": "79098",
    "addr:street": "Marienstraße",
    "building": "yes",
    "contact:phone": "+49 761 201-2583",
    "contact:website": "http://www.freiburg.de/pb/,Lde/237848.html",
    "fee": "yes",
    "lastcheck": "2016-11-04",
    "name": "Museum für neue Kunst",
    "old_name": "Mädchen-Bürgerschule Adelhausen",
    "opening_hours": "Tu-Su 10:00-17:00",
    "operator": "Stadt Freiburg",
    "toilets:wheelchair": "yes",
    "tourism": "museum",
    "wheelchair": "yes",
    "wheelchair:description": "Zugang über Adelhauser Straße, Klingel!",
    "wikidata": "Q1954668",
    "wikipedia": "de:Museum für Neue Kunst (Freiburg im Breisgau)"
  }
},
{
  "type": "way",
  "id": 23235540,
  "nodes": [
    251386419,
    251386413,
    2516076379,
    2516076371,
    2516076370,
    2516076383,
    2516076382,
    1136550389,
    7105763325,
    251386418,
    251386419
  ],
  "tags": {
    "addr:city": "Freiburg im Breisgau",
    "addr:housenumber": "32",
    "addr:postcode": "79098",
    "addr:street": "Gerberau",
    "building": "yes",
    "contact:phone": "+49 761 201-2566",
    "contact:website": "http://www.freiburg.de/pb/,Lde/238070.html",
    "fee": "yes",
    "lastcheck": "2016-11-04",
    "name": "Museum Natur und Mensch",
    "opening_hours": "Tu-Su 10:00-17:00",
    "operator": "Stadt Freiburg",
    "toilets:wheelchair": "yes",
    "tourism": "museum",
    "wheelchair": "yes",
    "wikidata": "Q1970389",
    "wikipedia": "de:Museum Natur und Mensch Freiburg"
  }
},
{
  "type": "way",
  "id": 24341475,
  "nodes": [
    264060313,
    264060314,
    6261835736,
    6261835737,
    1110833494,
    1110832921,
    1110832900,
    264060315,
    6261835735,
    1110832461,
    1110832801,
    4966894106,
    1110832892,
    5760139509,
    1110833460,
    4966894107,
    264060316,
    1110834051,
    5759453145,
    4966893034,
    264060313
  ],
  "tags": {
    "alt_name": "s'Glatze Mühle",
    "building": "yes",
    "historic": "yes",
    "int_name": "Old Watermill",
    "man_made": "watermill",
    "name": "Historische Mühle Glatz",
    "tourism": "museum",
    "wikidata": "Q76632025"
  }
},
{
  "type": "way",
  "id": 28240205,
  "nodes": [
    310170705,
    310171165,
    3647259389,
    310170706,
    310170707,
    4298664375,
    295323658,
    310170705
  ],
  "tags": {
    "addr:city": "Furtwangen im Schwarzwald",
    "addr:country": "DE",
    "addr:housenumber": "1",
    "addr:postcode": "78120",
    "addr:street": "Robert-Gerwig-Platz",
    "building": "yes",
    "name": "U",
    "toilets:wheelchair": "yes",
    "tourism": "museum",
    "wheelchair": "yes",
    "wheelchair:description": "Behinderten-WC mit Euro-Schloss. Ein kleiner Teil der Ausstellung ist nur über Treppen erreichbar, aber trotzdem von Empore sehbar."
  }
},
{
  "type": "way",
  "id": 29982656,
  "nodes": [
    330059442,
    330059445,
    330059447,
    6475707736,
    4144697592,
    4144697593,
    4144697595,
    4144697594,
    330059449,
    4144697599,
    4144697597,
    4144697596,
    4144697598,
    330059442
  ],
  "tags": {
    "addr:city": "Schluchsee",
    "addr:country": "DE",
    "addr:housenumber": "4",
    "addr:postcode": "79859",
    "addr:street": "Eisenbreche",
    "amenity": "cafe",
    "building": "yes",
    "name": "Modellbahnzentrum Schluchsee",
    "phone": "+497656988401",
    "tourism": "museum",
    "website": "http://www.modellbahn-schluchsee.de"
  }
},
{
  "type": "way",
  "id": 48525649,
  "nodes": [
    616489105,
    2125058007,
    2125058024,
    615540062,
    616489111,
    616489122,
    616489105
  ],
  "tags": {
    "addr:city": "Mahlberg",
    "addr:housenumber": "4",
    "addr:postcode": "77972",
    "addr:street": "Kirchstraße",
    "building": "yes",
    "contact:website": "http://www.tabakmuseum-mahlberg.de/",
    "fee": "yes",
    "lastcheck": "2016-12-04",
    "name": "Oberrheinisches Tabakmuseum",
    "opening_hours": "May 1-Sep 30: Su,PH 10:00-17:00",
    "tourism": "museum",
    "wikidata": "Q2386256"
  }
},
{
  "type": "way",
  "id": 61094260,
  "nodes": [
    764416127,
    2290930129,
    2290930130,
    2290930132,
    2290930131,
    764416095,
    764416111,
    2290930128,
    2290930126,
    2290930125,
    2290930127,
    764416103,
    764416127
  ],
  "tags": {
    "addr:city": "Oberried",
    "addr:housenumber": "3",
    "addr:postcode": "79254",
    "addr:street": "Gegendrumweg",
    "addr:suburb": "Hofsgrund",
    "building": "yes",
    "name": "Schniederlihof",
    "phone": "+49 170 3462672",
    "tourism": "museum",
    "website": "http://www.schauinslandbahn.de/hoch-erleben/angebote/schniederlihof/"
  }
},
{
  "type": "way",
  "id": 89153289,
  "nodes": [
    1034154077,
    1034153999,
    1034154113,
    1034154266,
    1034154077
  ],
  "tags": {
    "addr:city": "Freiburg im Breisgau",
    "addr:housenumber": "73",
    "addr:postcode": "79104",
    "addr:street": "Pochgasse",
    "building": "yes",
    "contact:website": "http://www.stiftung-konkrete-kunst.de/",
    "name": "Skulpturenhalle der Stiftung für konkrete Kunst Roland Phlebs",
    "tourism": "museum"
  }
},
{
  "type": "way",
  "id": 89804523,
  "nodes": [
    1040914561,
    1040914598,
    1040914585,
    1040914568,
    1040914560,
    1040914578,
    1040914564,
    1040914587,
    1040914582,
    1040914561
  ],
  "tags": {
    "addr:city": "Schonach im Schwarzwald",
    "addr:housenumber": "27",
    "addr:postcode": "78136",
    "addr:street": "Schonachbach",
    "building": "yes",
    "name": "Kuckucksuhrmuseum",
    "name:de": "Kuckucksuhrmuseum",
    "name:sk": "Múzeum kukučkových hodín",
    "operator": "Eble Uhren-Park GmbH",
    "tourism": "museum"
  }
},
{
  "type": "way",
  "id": 95868381,
  "nodes": [
    1110985398,
    2514158879,
    1110985540,
    1110985403,
    1110985326,
    1110985334,
    1110985446,
    1110985398
  ],
  "tags": {
    "addr:city": "Eichstetten am Kaiserstuhl",
    "addr:housenumber": "93",
    "addr:street": "Altweg",
    "building": "public",
    "name": "Dorfmuseum",
    "tourism": "museum"
  }
},
{
  "type": "way",
  "id": 102010799,
  "nodes": [
    1177592285,
    2747665260,
    2747665257,
    2747665259,
    2747665261,
    1177592182,
    1177592165,
    1177592112,
    1177592285
  ],
  "tags": {
    "addr:city": "Feldberg",
    "addr:country": "DE",
    "addr:housenumber": "4",
    "addr:postcode": "79868",
    "addr:street": "Dr.-Pilet-Spur",
    "building": "yes",
    "fixme": "zwei verschiedene Wheelmap-Einträge, einmal wheelchair=yes, einmal no. Von außen würde ich eher sage \"yes\"",
    "information": "office",
    "name": "Haus der Natur",
    "opening_hours": "\"Am 25.12. sowie an Montagen zwischen November und Mai außerhalb der Schulferien Baden-Württemberg ist das Haus der Natur geschlossen.\"",
    "tourism": "museum",
    "website": "https://www.naturpark-suedschwarzwald.de/bildungsangebote/haus-natur",
    "wheelchair": "yes",
    "wikidata": "Q18629387"
  }
},
{
  "type": "way",
  "id": 107637059,
  "nodes": [
    1236693424,
    1236693628,
    2371391164,
    2371391125,
    2371391120,
    2371391154,
    2371391146,
    1236693361,
    2371391226,
    2371391224,
    5892971598,
    2371391229,
    1236693809,
    1236693424
  ],
  "tags": {
    "addr:city": "Waldkirch",
    "addr:country": "DE",
    "addr:housenumber": "14",
    "addr:postcode": "79183",
    "addr:street": "Kirchplatz",
    "building": "public",
    "name": "Elztalmuseum Waldkirch",
    "source": "Bing",
    "tourism": "museum",
    "wheelchair": "yes",
    "wikidata": "Q15055976"
  }
},
{
  "type": "way",
  "id": 108022771,
  "nodes": [
    1240218443,
    1240218174,
    1240218347,
    1240217919,
    1240218443
  ],
  "tags": {
    "building": "yes",
    "name": "Hugenhofmühle",
    "source": "local",
    "tourism": "museum"
  }
},
{
  "type": "way",
  "id": 110470122,
  "nodes": [
    1261484831,
    1261484887,
    1261484805,
    1261484791,
    1261484831
  ],
  "tags": {
    "abandoned:name": "Stadtkirche Sulzburg",
    "abandoned:place_of_worship": "church",
    "addr:postcode": "79295",
    "building": "yes",
    "name": "Landesbergbaumuseum",
    "source": "Bing Aerial",
    "tourism": "museum",
    "wikidata": "Q76632130"
  }
},
{
  "type": "way",
  "id": 110712464,
  "nodes": [
    1263618900,
    1263618527,
    1263618846,
    1263619295,
    4057315879,
    4057315873,
    4057315880,
    4057315885,
    1263618236,
    4057315899,
    1263618356,
    1263618900
  ],
  "tags": {
    "building": "yes",
    "name": "Blaues Haus",
    "source": "Bing",
    "tourism": "museum",
    "wheelchair": "no",
    "wikipedia": "de:Blaues Haus (Breisach)"
  }
},
{
  "type": "way",
  "id": 110747800,
  "nodes": [
    1263912637,
    622507466,
    1263912227,
    5394261791,
    1263912550,
    1263912646,
    1263912655,
    1263912637
  ],
  "tags": {
    "addr:city": "Breisach am Rhein",
    "addr:housenumber": "1",
    "addr:postcode": "79206",
    "addr:street": "Rheintorplatz",
    "building": "public",
    "name": "Rheintor - Museum für Stadtgeschichte",
    "opening_hours": "Tu-Fr 14:00-17:00; Sa 11:30-17:00; Su 11:30-18:00",
    "source": "Bing",
    "tourism": "museum",
    "wheelchair": "no"
  }
},
{
  "type": "way",
  "id": 111384530,
  "nodes": [
    1269056002,
    1269055484,
    1269054919,
    1269055854,
    1269056002
  ],
  "tags": {
    "addr:city": "Denzlingen",
    "addr:postcode": "79211",
    "addr:street": "Hauptstraße",
    "building": "barn",
    "historic:landuse": "farmyard",
    "name": "Heimethues Denzlingen",
    "source": "Bing",
    "tourism": "museum",
    "wheelchair": "limited"
  }
},
{
  "type": "way",
  "id": 111384677,
  "nodes": [
    1269055603,
    1269054933,
    3087926490,
    1269055872,
    1269055255,
    1269055603
  ],
  "tags": {
    "addr:city": "Denzlingen",
    "addr:housenumber": "76",
    "addr:postcode": "79211",
    "addr:street": "Hauptstraße",
    "building": "museum",
    "historic:landuse": "farmyard",
    "name": "Heimethues Denzlingen",
    "source": "Bing",
    "tourism": "museum"
  }
},
{
  "type": "way",
  "id": 112320946,
  "nodes": [
    1277018327,
    1277017874,
    4143007559,
    4143007556,
    1277018142,
    1277018279,
    1277018327
  ],
  "tags": {
    "building": "yes",
    "name": "Hammerschmiede Museum",
    "source": "Bing",
    "tourism": "museum",
    "website": "https://www.hammerschmiede-oberprechtal.de"
  }
},
{
  "type": "way",
  "id": 112400309,
  "nodes": [
    1277597340,
    3645999516,
    1277598369,
    1277598713,
    1277599366,
    3645999518,
    1277597340
  ],
  "tags": {
    "addr:city": "Simonswald",
    "addr:housenumber": "55",
    "addr:street": "Talstraße",
    "building": "yes",
    "contact:email": "simonswald@zweitaelerland.de",
    "contact:phone": "+49 7683 909257",
    "name": "historische Ölmühle",
    "opening_hours": "Th,Sa 10:00-15:00|| \"nach Vereinbarung\"",
    "source": "Bing",
    "tourism": "museum"
  }
},
{
  "type": "way",
  "id": 119555710,
  "nodes": [
    1342995535,
    2363211745,
    1342995405,
    1342995358,
    1342995420,
    1342995535
  ],
  "tags": {
    "addr:city": "Emmendingen",
    "addr:country": "DE",
    "addr:housenumber": "7",
    "addr:postcode": "79312",
    "addr:street": "Schloßplatz",
    "building": "yes",
    "contact:email": "info@juedisches-museum-emmendingen.de",
    "contact:phone": "+49 7641 574444",
    "contact:website": "http://www.juedisches-museum-emmendingen.de/",
    "name": "Jüdisches Museum",
    "opening_hours": "We,Su 14:00-17:00",
    "ref:isil": "DE-MUS-720110",
    "tourism": "museum",
    "wikidata": "Q15280833"
  }
},
{
  "type": "way",
  "id": 122493920,
  "nodes": [
    1368672475,
    1368672431,
    4159841236,
    1368672488,
    1368672556,
    2081505973,
    2081505970,
    1368672475
  ],
  "tags": {
    "addr:city": "Freiburg im Breisgau",
    "addr:housenumber": "6",
    "addr:postcode": "79100",
    "addr:street": "Wonnhaldestraße",
    "building": "civic",
    "name": "Waldhaus Freiburg",
    "opening_hours": "Tu-Fr 10:00-17:00, Su,PH 12:00-17:00",
    "tourism": "museum",
    "website": "https://www.waldhaus-freiburg.de/",
    "wheelchair": "yes"
  }
},
{
  "type": "way",
  "id": 130407748,
  "nodes": [
    1436403233,
    1436403230,
    1436403227,
    1436403225,
    2098806971,
    1436403231,
    1436403233
  ],
  "tags": {
    "addr:city": "Endingen am Kaiserstuhl",
    "addr:housenumber": "1",
    "addr:postcode": "79346",
    "addr:street": "Marktplatz",
    "building": "yes",
    "name": "Heimatmuseum / Altes Rathaus",
    "tourism": "museum",
    "website": "http://www.endingen.de/html/seiten/text;kaiserstuehler-heimatmuseum;jump,152;152,de.html"
  }
},
{
  "type": "way",
  "id": 131675501,
  "nodes": [
    1448940613,
    1448940616,
    1448940618,
    1448940614,
    1448940613
  ],
  "tags": {
    "building": "yes",
    "name": "Heimatstuben",
    "tourism": "museum"
  }
},
{
  "type": "way",
  "id": 146907371,
  "nodes": [
    1601261843,
    281474066,
    5171630101,
    2546177880,
    5171630100,
    347301447,
    1601261857,
    1601261843
  ],
  "tags": {
    "addr:city": "Malterdingen",
    "addr:housenumber": "7",
    "addr:postcode": "79364",
    "addr:street": "Hauptstraße",
    "building": "yes",
    "name": "Torhiesli",
    "tourism": "museum",
    "wheelchair": "no"
  }
},
{
  "type": "way",
  "id": 158081736,
  "nodes": [
    1703355906,
    1703355909,
    1703355903,
    1703355895,
    1703355906
  ],
  "tags": {
    "addr:city": "Hinterzarten",
    "addr:country": "DE",
    "addr:housenumber": "35",
    "addr:postcode": "79856",
    "addr:street": "Erlenbrucker Straße",
    "building": "yes",
    "contact:website": "http://www.schwarzwaelder-skimuseum.de/",
    "fee": "yes",
    "lastcheck": "2016-12-11",
    "name": "Schwarzwälder Skimuseum im Hugenhof",
    "opening_hours": "Tu-Fr 14:00-17:00; Th off; Sa,Su,PH 12:00-17:00",
    "source": "bing",
    "tourism": "museum"
  }
},
{
  "type": "way",
  "id": 166177242,
  "nodes": [
    1776584259,
    1776584094,
    1776584162,
    1776584285,
    1776584259
  ],
  "tags": {
    "addr:city": "Schluchsee",
    "addr:country": "DE",
    "addr:housenumber": "10",
    "addr:postcode": "79859",
    "addr:street": "Mattenweg",
    "building": "yes",
    "historic": "house",
    "name": "Heimethus am Scheffelbach",
    "operator": "H. Reichenbach",
    "phone": "+49 (0)76561347",
    "source": "Bing Aerial",
    "tourism": "museum",
    "website": "http://perlentasche.de/",
    "website_1": "http://www.schwarzwald-tourismus.info/Media/Attraktionen/Heimethus-am-Scheffelbach"
  }
},
{
  "type": "way",
  "id": 167001836,
  "nodes": [
    1783963409,
    1783963395,
    1783963394,
    1783963397,
    1783963408,
    1783963409
  ],
  "tags": {
    "addr:city": "Teningen",
    "addr:housenumber": "2",
    "addr:postcode": "79331",
    "addr:street": "Kirchstraße",
    "building": "yes",
    "name": "Menton Heimatmuseum",
    "opening_hours": "Mar-Nov: Su[1] 14:00-17:00",
    "tourism": "museum",
    "website": "https://menton-heimatmuseum.jimdo.com/"
  }
},
{
  "type": "way",
  "id": 183546549,
  "nodes": [
    1939458196,
    1939458195,
    2921144427,
    1939458207,
    2921144420,
    1939458192,
    1939458196
  ],
  "tags": {
    "addr:city": "Bernau im Schwarzwald",
    "addr:country": "DE",
    "addr:housenumber": "2",
    "addr:postcode": "79872",
    "addr:street": "Resenhofweg",
    "building": "yes",
    "name": "Resenhof",
    "opening_hours": "We-Su 14:00-17:00",
    "tourism": "museum"
  }
},
{
  "type": "way",
  "id": 185545977,
  "nodes": [
    1961721622,
    1961721614,
    1961721636,
    1961721626,
    4281929381,
    4281929375,
    1961721592,
    4281929380,
    4281929384,
    1961721608,
    1961721625,
    1961721620,
    1961721595,
    1961721617,
    1961721639,
    1961721611,
    1961721622
  ],
  "tags": {
    "addr:city": "Triberg im Schwarzwald",
    "addr:country": "DE",
    "addr:housenumber": "4",
    "addr:postcode": "78098",
    "addr:street": "Wallfahrtstraße",
    "building": "yes",
    "email": "info@schwarzwaldmuseum.de",
    "fax": "+49 7722 920110",
    "name": "Schwarzwaldmuseum",
    "opening_hours": "Tu-Su 10:00-17:00",
    "phone": "+49 7722 4434",
    "tourism": "museum",
    "website": "https://www.schwarzwaldmuseum.de/",
    "wheelchair": "yes",
    "wikidata": "Q61667909"
  }
},
{
  "type": "way",
  "id": 190227257,
  "nodes": [
    2008169998,
    2008169981,
    4305543282,
    4305543399,
    2008169987,
    2008170000,
    4305543427,
    4305543434,
    2008169998
  ],
  "tags": {
    "addr:city": "Buchenbach",
    "addr:housenumber": "18",
    "addr:street": "Griesdobelstraße",
    "building": "farm",
    "name": "Hansmeyerhof",
    "source:geometry": "maps4bw (LGL, www.lgl-bw.de); Mapbox Satellite",
    "tourism": "museum"
  }
},
{
  "type": "way",
  "id": 194215356,
  "nodes": [
    2047305955,
    2047305951,
    2047305931,
    2047305936,
    2047305955
  ],
  "tags": {
    "addr:city": "Titisee-Neustadt",
    "addr:housenumber": "21a",
    "addr:postcode": "79822",
    "addr:street": "Seestraße",
    "amenity": "arts_centre",
    "building": "yes",
    "building:levels": "3",
    "email": "info@maerklin-world-titisee.de",
    "name": "Märklin World Titisee",
    "opening_hours": "Mo-Su 11:00-19:00",
    "phone": "+49 7651 2040597",
    "roof:shape": "gabled",
    "source:outline": "Bing-2012-Nov",
    "tourism": "museum",
    "website": "http://www.maerklin-world-titisee.de/",
    "wheelchair": "no"
  }
},
{
  "type": "way",
  "id": 198309820,
  "nodes": [
    2084572306,
    2084572272,
    5827951902,
    5827951900,
    5827951899,
    5827951901,
    2084572342,
    5827951894,
    5827951893,
    2084572317,
    5827951897,
    5827951895,
    5827951896,
    5827951898,
    2084572264,
    2084572306
  ],
  "tags": {
    "building": "yes",
    "name": "Städtisches Museum Margarethen Kapelle",
    "tourism": "museum"
  }
},
{
  "type": "way",
  "id": 199832544,
  "nodes": [
    2098298012,
    2098297999,
    2098297998,
    2098297978,
    2098297965,
    2098297970,
    2098297979,
    2098297992,
    2098297985,
    2098297997,
    2098298012
  ],
  "tags": {
    "addr:city": "Weisweil",
    "addr:housenumber": "10",
    "addr:postcode": "79367",
    "addr:street": "Köpfle",
    "building": "yes",
    "name": "Lotte`s Museum für Landwirtschaft",
    "opening_hours": "Mo-Sa 9:00-18:00",
    "operator": "Lotte",
    "source:addr": "LGL, www.lgl-bw.de",
    "tourism": "museum"
  }
},
{
  "type": "way",
  "id": 204432693,
  "nodes": [
    2144424002,
    2144424000,
    2144423997,
    2144423998,
    2144424002
  ],
  "tags": {
    "addr:city": "Forchheim",
    "addr:country": "DE",
    "addr:housenumber": "1",
    "addr:postcode": "79362",
    "addr:street": "Adlerstraße",
    "building": "yes",
    "name": "Heimatmuseum",
    "tourism": "museum"
  }
},
{
  "type": "way",
  "id": 206591214,
  "nodes": [
    2166127235,
    2166127187,
    2166127189,
    2618709873,
    2618709874,
    2166127182,
    2166127183,
    2166127198,
    2166127218,
    2166127240,
    2166127237,
    2166127236,
    2166127235
  ],
  "tags": {
    "addr:country": "DE",
    "addr:housenumber": "19a",
    "addr:postcode": "79336",
    "addr:street": "Weinstraße",
    "addr:suburb": "Tutschfelden",
    "building": "yes",
    "name": "Heimatstube und Museumsdorfschiire",
    "operator": "Heimatverein Tutschfelden",
    "tourism": "museum",
    "website": "http://heimatverein-tutschfelden.de/"
  }
},
{
  "type": "way",
  "id": 219240274,
  "nodes": [
    2284323985,
    2284323986,
    2284323980,
    2284323982,
    2284323978,
    2284323976,
    2284323977,
    5087367975,
    5087367974,
    2284323979,
    2284323984,
    2284323985
  ],
  "tags": {
    "name": "Alamannen-Museum Vörstetten",
    "opening_hours": "May-Oct Th 10:00-17:00; May - Oct Fr 10:00-15:00; May - Oct Sa 14:00-18:00; Nov-Apr We 10:00-15:00; Nov-Apr Th 10:00-17:00; Nov-Apr Fr 10:00-15:00",
    "operator": "Museums- und Geschichtsverein Vörstetten",
    "phone": "+49-7666-8820042",
    "tourism": "museum",
    "website": "www.alamannen-museum.de",
    "wheelchair": "yes"
  }
},
{
  "type": "way",
  "id": 225789717,
  "nodes": [
    2345434256,
    2345434244,
    2345434249,
    2345434251,
    4784090674,
    2345434263,
    4784090875,
    2345434256
  ],
  "tags": {
    "addr:city": "Zell im Wiesental",
    "addr:country": "DE",
    "addr:housenumber": "4",
    "addr:postcode": "79669",
    "addr:street": "Teichstraße",
    "building": "yes",
    "contact:website": "http://www.wiesentaeler-textilmuseum.de/",
    "fee": "yes",
    "lastcheck": "2016-12-11",
    "name": "Textilmuseum",
    "opening_hours": "Sa,Su 10:00-12:00, Mar 01-Nov 30: Tu 14:00-17:00; \"sowie nach Anmeldung\"",
    "tourism": "museum",
    "wheelchair": "yes"
  }
},
{
  "type": "way",
  "id": 227520094,
  "nodes": [
    2361889036,
    2361889016,
    2361888993,
    2361889003,
    2361889036
  ],
  "tags": {
    "addr:city": "Furtwangen im Schwarzwald",
    "addr:housenumber": "1",
    "addr:postcode": "78120",
    "addr:street": "Katzensteigstraße",
    "building": "yes",
    "contact:website": "http://www.museum-gasthaus-arche.de/",
    "lastcheck": "2016-12-03",
    "name": "Museum Gasthaus Arche",
    "opening_hours": "Su 14:00-17:00 || \"nach Vereinbarung\"",
    "tourism": "museum",
    "wheelchair": "limited"
  }
},
{
  "type": "way",
  "id": 258644333,
  "nodes": [
    2639768202,
    2916520369,
    2916520370,
    2916520368,
    2916520367,
    2639768203,
    3980259729,
    3980259730,
    2639768204,
    2639768205,
    2916520364,
    2916520366,
    2916520371,
    2916520372,
    2639768202
  ],
  "tags": {
    "addr:city": "Hinterzarten",
    "addr:country": "DE",
    "addr:housename": "Museum für alte Landtechnik",
    "addr:housenumber": "31",
    "addr:postcode": "79856",
    "addr:street": "Bruderhalde",
    "building": "farm",
    "building:levels": "2",
    "fee": "yes",
    "lastcheck": "2016-12-11",
    "name": "Bankenhof",
    "opening_hours": "Th 14:00-17:00",
    "tourism": "museum",
    "website": "http://www.alte-landtechnik.de/"
  }
},
{
  "type": "way",
  "id": 271494922,
  "nodes": [
    2764569579,
    2764569576,
    2764569577,
    2764569578,
    2764569580,
    2764569579
  ],
  "tags": {
    "addr:city": "Buggingen",
    "addr:housenumber": "4",
    "addr:postcode": "79426",
    "addr:street": "Ölbergweg",
    "building": "public",
    "name": "Kalibergbaumuseum",
    "source": "maps4bw, LGL, www.lgl-bw.de;Bing",
    "tourism": "museum",
    "wheelchair": "no"
  }
},
{
  "type": "way",
  "id": 276413779,
  "nodes": [
    2810072950,
    2810072947,
    5010229421,
    2810072945,
    2810072948,
    2810072950
  ],
  "tags": {
    "addr:city": "Kandern",
    "addr:country": "DE",
    "addr:housenumber": "30",
    "addr:postcode": "79400",
    "addr:street": "Ziegelstraße",
    "building": "yes",
    "name": "Heimat- und Keramikmuseum Kandern",
    "source:outline": "maps4bw (LGL, www.lgl-bw.de)",
    "tourism": "museum"
  }
},
{
  "type": "way",
  "id": 291785381,
  "nodes": [
    2952850170,
    2952850148,
    2952850151,
    2952850173,
    2952850170
  ],
  "tags": {
    "addr:city": "Todtmoos",
    "addr:country": "DE",
    "addr:housenumber": "15",
    "addr:postcode": "79682",
    "addr:street": "Murgtalstraße",
    "building": "yes",
    "historic": "building",
    "name": "Heimatmuseum Häusle",
    "opening_hours": "We, Fr, Su, PH 14:30-17:00, Jun-Sep Tu 14:30-17:00",
    "tourism": "museum",
    "website": "https://www.hochschwarzwald.de/Attraktionen/Museum-Heimethus",
    "wheelchair": "no",
    "wikimedia_commons": "Category:Heimethus_(Todtmoos)?uselang=de",
    "wikipedia": "de:Heimethus Todtmoos"
  }
},
{
  "type": "way",
  "id": 305032273,
  "nodes": [
    356995442,
    356995435,
    356995436,
    3095948037,
    3095948039,
    3095948044,
    3095948046,
    356995442
  ],
  "tags": {
    "museum": "mining",
    "name": "Besucherbergwerk Finstergrund",
    "opening_hours": "Mo-Tu off; We 10:00-17:00; Th-Fr off; Sa-Su 10:00-17:00",
    "tourism": "museum",
    "website": "http://finstergrund.de/",
    "wikidata": "Q76632361",
    "wikipedia": "de:Finstergrund"
  }
},
{
  "type": "way",
  "id": 313611410,
  "nodes": [
    3196155268,
    3196155269,
    3196155270,
    3196155271,
    3196155268
  ],
  "tags": {
    "building": "yes",
    "name": "Besucherbergwerk",
    "tourism": "museum",
    "website": "http://www.todtmoos.de/eip/pages/bergwerk-hoffnungsstollen.php",
    "wheelchair": "no"
  }
},
{
  "type": "way",
  "id": 341914550,
  "nodes": [
    3489770379,
    3489770380,
    3489770381,
    3489770382,
    3489770379
  ],
  "tags": {
    "addr:city": "Vöhrenbach",
    "addr:housenumber": "1",
    "addr:postcode": "78147",
    "addr:street": "Silbergrubenweg",
    "building": "yes",
    "tourism": "museum"
  }
},
{
  "type": "way",
  "id": 395675687,
  "nodes": [
    3984978257,
    3984978258,
    3984978259,
    3984978260,
    3984978261,
    3984978262,
    3984978263,
    3984978257
  ],
  "tags": {
    "addr:city": "Zell im Wiesental",
    "addr:country": "DE",
    "addr:housenumber": "18",
    "addr:postcode": "79669",
    "addr:street": "Ortsstraße",
    "addr:suburb": "Mambach",
    "building": "industrial",
    "name": "Alte Schmiede Mambach",
    "opening_hours": "\"auf Anfrage\"",
    "operator": "Alte Schmiede Mambach e.V",
    "tourism": "museum",
    "website": "https://schmiede-mambach.de/"
  }
},
{
  "type": "way",
  "id": 438327947,
  "nodes": [
    4360611430,
    4360611432,
    4360611431,
    4360611429,
    4360611428,
    4360611427,
    4360611430
  ],
  "tags": {
    "addr:city": "Steinen",
    "addr:country": "DE",
    "addr:housenumber": "6",
    "addr:postcode": "79585",
    "addr:street": "Am Schneiderhof",
    "addr:suburb": "Endenburg",
    "building": "yes",
    "name": "Bauernhausmuseum Schneiderhof",
    "tourism": "museum",
    "website": "https://www.bauernhausmuseum-schneiderhof.de/"
  }
},
{
  "type": "way",
  "id": 480075748,
  "nodes": [
    4731019378,
    4731019377,
    4731019373,
    4731019374,
    4731019376,
    4731019375,
    4731019378
  ],
  "tags": {
    "building": "yes",
    "name": "Hummelhofmühle",
    "tourism": "museum"
  }
},
{
  "type": "way",
  "id": 522293772,
  "nodes": [
    5087367784,
    5087367783,
    5087367774,
    5087367782,
    5087367781,
    5087367780,
    5087367779,
    5087367778,
    5087367777,
    5087367784
  ],
  "tags": {
    "addr:city": "Vörstetten",
    "addr:country": "DE",
    "addr:housenumber": "24a",
    "addr:postcode": "79279",
    "addr:street": "Denzlinger Straße",
    "building": "yes",
    "email": "info@alamannen-museum.de",
    "name": "Alamannen-Museum Vörstetten",
    "opening_hours": "Th 10:00-17:00; Fr 10:00-15:00; Sa 14:00-18:00",
    "phone": "+49 7666 88 200 42",
    "tourism": "museum",
    "website": "http://www.alamannen-museum.de/"
  }
},
{
  "type": "way",
  "id": 587293696,
  "nodes": [
    5609918994,
    5609918995,
    5609918996,
    5609918997,
    5609918994
  ],
  "tags": {
    "addr:city": "Vöhrenbach",
    "addr:housenumber": "2/1",
    "addr:postcode": "78147",
    "addr:street": "Adolf-Heer-Straße",
    "building": "yes",
    "tourism": "museum"
  }
},
{
  "type": "relation",
  "id": 6944,
  "members": [
    {
      "type": "way",
      "ref": 23235192,
      "role": "outer"
    },
    {
      "type": "way",
      "ref": 23235190,
      "role": "inner"
    },
    {
      "type": "way",
      "ref": 23235194,
      "role": "inner"
    }
  ],
  "tags": {
    "addr:city": "Freiburg im Breisgau",
    "addr:postcode": "79098",
    "addr:street": "Augustinerplatz",
    "building": "yes",
    "check_date:opening_hours": "2016-01-22",
    "contact:website": "https://www.freiburg.de/pb/,Lde/237748.html",
    "disused:tourism": "museum",
    "name": "Augustinermuseum",
    "opening_hours": "Tu-Su 10:00-17:00",
    "operator": "Stadt Freiburg",
    "phone": "+49 716 2012521",
    "source:opening_hours": "entrance",
    "source:outline": "maps4bw (LGL, www.lgl-bw.de)",
    "toilets:wheelchair": "yes",
    "tourism": "museum",
    "type": "multipolygon",
    "website": "https://www.freiburg.de/pb/,Lde/265394.html",
    "wheelchair": "yes",
    "wheelchair:description": "Nach Umbau behindertengerecht",
    "wikipedia": "de:Augustinermuseum"
  }
},
{
  "type": "relation",
  "id": 6713502,
  "members": [
    {
      "type": "way",
      "ref": 146291591,
      "role": "outer"
    }
  ],
  "tags": {
    "addr:city": "Freiburg im Breisgau",
    "addr:housenumber": "5",
    "addr:postcode": "79098",
    "addr:street": "Rotteckring",
    "man_made": "surveillance",
    "name": "Archäologisches Museum Colombischlössle",
    "surveillance": "indoor",
    "toilets:wheelchair": "no",
    "tourism": "museum",
    "type": "multipolygon",
    "website": "https://www.freiburg.de/pb/,Lde/498868.html",
    "wheelchair": "limited",
    "wheelchair:description": "Zugang über Hinterhof, Aufzug mit Klingel",
    "wikidata": "Q329255",
    "wikipedia": "de:Archäologisches Museum Colombischlössle"
  }
},
{
  "type": "node",
  "id": 2810072945,
  "lat": 47.7155166,
  "lon": 7.6605142
},
{
  "type": "node",
  "id": 2810072947,
  "lat": 47.7155769,
  "lon": 7.6604157
},
{
  "type": "node",
  "id": 2810072948,
  "lat": 47.7155729,
  "lon": 7.6605795
},
{
  "type": "node",
  "id": 2810072950,
  "lat": 47.7156279,
  "lon": 7.6604749
},
{
  "type": "node",
  "id": 5010229421,
  "lat": 47.7155716,
  "lon": 7.6604096
},
{
  "type": "node",
  "id": 4360611427,
  "lat": 47.7142882,
  "lon": 7.7567742
},
{
  "type": "node",
  "id": 4360611428,
  "lat": 47.7143360,
  "lon": 7.7568363
},
{
  "type": "node",
  "id": 4360611429,
  "lat": 47.7143558,
  "lon": 7.7568025
},
{
  "type": "node",
  "id": 4360611430,
  "lat": 47.7143610,
  "lon": 7.7566505
},
{
  "type": "node",
  "id": 4360611431,
  "lat": 47.7144587,
  "lon": 7.7569363
},
{
  "type": "node",
  "id": 4360611432,
  "lat": 47.7145117,
  "lon": 7.7568463
},
{
  "type": "node",
  "id": 2345434244,
  "lat": 47.7069804,
  "lon": 7.8550682
},
{
  "type": "node",
  "id": 2345434249,
  "lat": 47.7070758,
  "lon": 7.8556136
},
{
  "type": "node",
  "id": 2345434251,
  "lat": 47.7071441,
  "lon": 7.8555873
},
{
  "type": "node",
  "id": 2345434256,
  "lat": 47.7071663,
  "lon": 7.8549964
},
{
  "type": "node",
  "id": 2345434263,
  "lat": 47.7072617,
  "lon": 7.8555418
},
{
  "type": "node",
  "id": 4784090674,
  "lat": 47.7071552,
  "lon": 7.8555830
},
{
  "type": "node",
  "id": 4784090875,
  "lat": 47.7072102,
  "lon": 7.8552473
},
{
  "type": "node",
  "id": 3984978257,
  "lat": 47.7276980,
  "lon": 7.8780416
},
{
  "type": "node",
  "id": 3984978258,
  "lat": 47.7277847,
  "lon": 7.8781079
},
{
  "type": "node",
  "id": 3984978259,
  "lat": 47.7277651,
  "lon": 7.8781760
},
{
  "type": "node",
  "id": 3984978260,
  "lat": 47.7277222,
  "lon": 7.8781582
},
{
  "type": "node",
  "id": 3984978261,
  "lat": 47.7276973,
  "lon": 7.8782291
},
{
  "type": "node",
  "id": 3984978262,
  "lat": 47.7276429,
  "lon": 7.8782150
},
{
  "type": "node",
  "id": 3984978263,
  "lat": 47.7276707,
  "lon": 7.8781134
},
{
  "type": "node",
  "id": 3196155268,
  "lat": 47.7444143,
  "lon": 7.9856538
},
{
  "type": "node",
  "id": 3196155269,
  "lat": 47.7443678,
  "lon": 7.9857053
},
{
  "type": "node",
  "id": 3196155270,
  "lat": 47.7444309,
  "lon": 7.9858314
},
{
  "type": "node",
  "id": 3196155271,
  "lat": 47.7444774,
  "lon": 7.9857799
},
{
  "type": "node",
  "id": 2952850148,
  "lat": 47.7375323,
  "lon": 8.0024689
},
{
  "type": "node",
  "id": 2952850151,
  "lat": 47.7375600,
  "lon": 8.0023373
},
{
  "type": "node",
  "id": 2952850170,
  "lat": 47.7376872,
  "lon": 8.0025409
},
{
  "type": "node",
  "id": 2952850173,
  "lat": 47.7377149,
  "lon": 8.0024093
},
{
  "type": "node",
  "id": 1939458192,
  "lat": 47.7886549,
  "lon": 8.0473776
},
{
  "type": "node",
  "id": 1939458195,
  "lat": 47.7888075,
  "lon": 8.0476715
},
{
  "type": "node",
  "id": 1939458196,
  "lat": 47.7888544,
  "lon": 8.0474960
},
{
  "type": "node",
  "id": 1939458207,
  "lat": 47.7887117,
  "lon": 8.0476697
},
{
  "type": "node",
  "id": 2921144420,
  "lat": 47.7885952,
  "lon": 8.0476006
},
{
  "type": "node",
  "id": 2921144427,
  "lat": 47.7887244,
  "lon": 8.0476223
},
{
  "type": "node",
  "id": 330059442,
  "lat": 47.7993640,
  "lon": 8.1766419
},
{
  "type": "node",
  "id": 330059445,
  "lat": 47.7991876,
  "lon": 8.1767063
},
{
  "type": "node",
  "id": 330059447,
  "lat": 47.7992130,
  "lon": 8.1768610
},
{
  "type": "node",
  "id": 330059449,
  "lat": 47.7993987,
  "lon": 8.1767933
},
{
  "type": "node",
  "id": 4144697592,
  "lat": 47.7992678,
  "lon": 8.1768411
},
{
  "type": "node",
  "id": 4144697593,
  "lat": 47.7992714,
  "lon": 8.1768634
},
{
  "type": "node",
  "id": 4144697594,
  "lat": 47.7993068,
  "lon": 8.1768268
},
{
  "type": "node",
  "id": 4144697595,
  "lat": 47.7993105,
  "lon": 8.1768491
},
{
  "type": "node",
  "id": 4144697596,
  "lat": 47.7993577,
  "lon": 8.1766733
},
{
  "type": "node",
  "id": 4144697597,
  "lat": 47.7993623,
  "lon": 8.1767009
},
{
  "type": "node",
  "id": 4144697598,
  "lat": 47.7993685,
  "lon": 8.1766694
},
{
  "type": "node",
  "id": 4144697599,
  "lat": 47.7993823,
  "lon": 8.1766936
},
{
  "type": "node",
  "id": 6475707736,
  "lat": 47.7992467,
  "lon": 8.1768488
},
{
  "type": "node",
  "id": 1776584094,
  "lat": 47.8226977,
  "lon": 8.1747813
},
{
  "type": "node",
  "id": 1776584162,
  "lat": 47.8227407,
  "lon": 8.1749333
},
{
  "type": "node",
  "id": 1776584259,
  "lat": 47.8228253,
  "lon": 8.1747012
},
{
  "type": "node",
  "id": 1776584285,
  "lat": 47.8228683,
  "lon": 8.1748532
},
{
  "type": "node",
  "id": 2764569576,
  "lat": 47.8452239,
  "lon": 7.6332475
},
{
  "type": "node",
  "id": 2764569577,
  "lat": 47.8452413,
  "lon": 7.6333374
},
{
  "type": "node",
  "id": 2764569578,
  "lat": 47.8453195,
  "lon": 7.6332968
},
{
  "type": "node",
  "id": 2764569579,
  "lat": 47.8453325,
  "lon": 7.6332041
},
{
  "type": "node",
  "id": 2764569580,
  "lat": 47.8453420,
  "lon": 7.6332605
},
{
  "type": "node",
  "id": 1261484791,
  "lat": 47.8407053,
  "lon": 7.7080507
},
{
  "type": "node",
  "id": 1261484805,
  "lat": 47.8405210,
  "lon": 7.7078489
},
{
  "type": "node",
  "id": 1261484831,
  "lat": 47.8407965,
  "lon": 7.7078658
},
{
  "type": "node",
  "id": 1261484887,
  "lat": 47.8406122,
  "lon": 7.7076640
},
{
  "type": "node",
  "id": 622507466,
  "lat": 48.0325273,
  "lon": 7.5748936
},
{
  "type": "node",
  "id": 1263912227,
  "lat": 48.0324059,
  "lon": 7.5749146
},
{
  "type": "node",
  "id": 1263912550,
  "lat": 48.0324175,
  "lon": 7.5750812
},
{
  "type": "node",
  "id": 1263912637,
  "lat": 48.0326907,
  "lon": 7.5748705
},
{
  "type": "node",
  "id": 1263912646,
  "lat": 48.0325601,
  "lon": 7.5750578
},
{
  "type": "node",
  "id": 1263912655,
  "lat": 48.0327022,
  "lon": 7.5750371
},
{
  "type": "node",
  "id": 5394261791,
  "lat": 48.0324087,
  "lon": 7.5749542
},
{
  "type": "node",
  "id": 1263618236,
  "lat": 48.0337107,
  "lon": 7.5786561
},
{
  "type": "node",
  "id": 1263618356,
  "lat": 48.0338296,
  "lon": 7.5785641
},
{
  "type": "node",
  "id": 1263618527,
  "lat": 48.0337208,
  "lon": 7.5784341
},
{
  "type": "node",
  "id": 1263618846,
  "lat": 48.0337355,
  "lon": 7.5784777
},
{
  "type": "node",
  "id": 1263618900,
  "lat": 48.0337637,
  "lon": 7.5783936
},
{
  "type": "node",
  "id": 1263619295,
  "lat": 48.0336774,
  "lon": 7.5785236
},
{
  "type": "node",
  "id": 4057315873,
  "lat": 48.0336650,
  "lon": 7.5785481
},
{
  "type": "node",
  "id": 4057315879,
  "lat": 48.0336789,
  "lon": 7.5785300
},
{
  "type": "node",
  "id": 4057315880,
  "lat": 48.0336828,
  "lon": 7.5785759
},
{
  "type": "node",
  "id": 4057315885,
  "lat": 48.0336926,
  "lon": 7.5785958
},
{
  "type": "node",
  "id": 4057315899,
  "lat": 48.0337265,
  "lon": 7.5786438
},
{
  "type": "node",
  "id": 3095948037,
  "lat": 47.8323937,
  "lon": 7.9032060
},
{
  "type": "node",
  "id": 3095948039,
  "lat": 47.8325301,
  "lon": 7.9027238
},
{
  "type": "node",
  "id": 3095948044,
  "lat": 47.8331558,
  "lon": 7.9033608
},
{
  "type": "node",
  "id": 356995435,
  "lat": 47.8333858,
  "lon": 7.9040641
},
{
  "type": "node",
  "id": 356995436,
  "lat": 47.8324062,
  "lon": 7.9036816
},
{
  "type": "node",
  "id": 356995442,
  "lat": 47.8333262,
  "lon": 7.9036849
},
{
  "type": "node",
  "id": 3095948046,
  "lat": 47.8332367,
  "lon": 7.9036642
},
{
  "type": "node",
  "id": 764416095,
  "lat": 47.9072050,
  "lon": 7.9002705
},
{
  "type": "node",
  "id": 764416103,
  "lat": 47.9070417,
  "lon": 7.9000598
},
{
  "type": "node",
  "id": 764416111,
  "lat": 47.9070973,
  "lon": 7.9003218
},
{
  "type": "node",
  "id": 764416127,
  "lat": 47.9071488,
  "lon": 7.9000087
},
{
  "type": "node",
  "id": 2290930125,
  "lat": 47.9070199,
  "lon": 7.9001128
},
{
  "type": "node",
  "id": 2290930126,
  "lat": 47.9070418,
  "lon": 7.9002150
},
{
  "type": "node",
  "id": 2290930127,
  "lat": 47.9070500,
  "lon": 7.9000985
},
{
  "type": "node",
  "id": 2290930128,
  "lat": 47.9070715,
  "lon": 7.9002008
},
{
  "type": "node",
  "id": 2290930129,
  "lat": 47.9071609,
  "lon": 7.9000653
},
{
  "type": "node",
  "id": 2290930130,
  "lat": 47.9071769,
  "lon": 7.9000578
},
{
  "type": "node",
  "id": 2290930131,
  "lat": 47.9071825,
  "lon": 7.9001654
},
{
  "type": "node",
  "id": 2290930132,
  "lat": 47.9071983,
  "lon": 7.9001579
},
{
  "type": "node",
  "id": 1368672431,
  "lat": 47.9723345,
  "lon": 7.8429450
},
{
  "type": "node",
  "id": 1368672475,
  "lat": 47.9722308,
  "lon": 7.8428309
},
{
  "type": "node",
  "id": 1368672488,
  "lat": 47.9721703,
  "lon": 7.8432777
},
{
  "type": "node",
  "id": 1368672556,
  "lat": 47.9720997,
  "lon": 7.8432000
},
{
  "type": "node",
  "id": 2081505970,
  "lat": 47.9721302,
  "lon": 7.8430347
},
{
  "type": "node",
  "id": 2081505973,
  "lat": 47.9721633,
  "lon": 7.8430711
},
{
  "type": "node",
  "id": 4159841236,
  "lat": 47.9722729,
  "lon": 7.8430699
},
{
  "type": "node",
  "id": 248205858,
  "lat": 47.9977238,
  "lon": 7.8459896
},
{
  "type": "node",
  "id": 248205870,
  "lat": 47.9976091,
  "lon": 7.8461496
},
{
  "type": "node",
  "id": 248205890,
  "lat": 47.9976391,
  "lon": 7.8462012
},
{
  "type": "node",
  "id": 248205936,
  "lat": 47.9978498,
  "lon": 7.8461773
},
{
  "type": "node",
  "id": 248205983,
  "lat": 47.9977370,
  "lon": 7.8463437
},
{
  "type": "node",
  "id": 2876782639,
  "lat": 47.9977561,
  "lon": 7.8459952
},
{
  "type": "node",
  "id": 2876782640,
  "lat": 47.9977612,
  "lon": 7.8459887
},
{
  "type": "node",
  "id": 2876782641,
  "lat": 47.9977679,
  "lon": 7.8459867
},
{
  "type": "node",
  "id": 2876782642,
  "lat": 47.9977749,
  "lon": 7.8459915
},
{
  "type": "node",
  "id": 2876782643,
  "lat": 47.9977799,
  "lon": 7.8460020
},
{
  "type": "node",
  "id": 2876782644,
  "lat": 47.9977790,
  "lon": 7.8460146
},
{
  "type": "node",
  "id": 2876782645,
  "lat": 47.9978209,
  "lon": 7.8461273
},
{
  "type": "node",
  "id": 2876782646,
  "lat": 47.9978226,
  "lon": 7.8461212
},
{
  "type": "node",
  "id": 2876782647,
  "lat": 47.9978261,
  "lon": 7.8460803
},
{
  "type": "node",
  "id": 2876782648,
  "lat": 47.9978283,
  "lon": 7.8461181
},
{
  "type": "node",
  "id": 2876782649,
  "lat": 47.9978308,
  "lon": 7.8460764
},
{
  "type": "node",
  "id": 2876782650,
  "lat": 47.9978361,
  "lon": 7.8461185
},
{
  "type": "node",
  "id": 2876782651,
  "lat": 47.9978367,
  "lon": 7.8460780
},
{
  "type": "node",
  "id": 2876782652,
  "lat": 47.9978429,
  "lon": 7.8460863
},
{
  "type": "node",
  "id": 2876782653,
  "lat": 47.9978435,
  "lon": 7.8461125
},
{
  "type": "node",
  "id": 2876782654,
  "lat": 47.9978456,
  "lon": 7.8460990
},
{
  "type": "node",
  "id": 2876783098,
  "lat": 47.9976307,
  "lon": 7.8462085
},
{
  "type": "node",
  "id": 2876783099,
  "lat": 47.9976299,
  "lon": 7.8462780
},
{
  "type": "node",
  "id": 2876783101,
  "lat": 47.9977226,
  "lon": 7.8459844
},
{
  "type": "node",
  "id": 2876783102,
  "lat": 47.9976493,
  "lon": 7.8460931
},
{
  "type": "node",
  "id": 2876783103,
  "lat": 47.9976497,
  "lon": 7.8462458
},
{
  "type": "node",
  "id": 2876783104,
  "lat": 47.9976585,
  "lon": 7.8463153
},
{
  "type": "node",
  "id": 2876783106,
  "lat": 47.9976815,
  "lon": 7.8462817
},
{
  "type": "node",
  "id": 2876783107,
  "lat": 47.9976945,
  "lon": 7.8463118
},
{
  "type": "node",
  "id": 2876783108,
  "lat": 47.9977082,
  "lon": 7.8462974
},
{
  "type": "node",
  "id": 2876783111,
  "lat": 47.9977474,
  "lon": 7.8460248
},
{
  "type": "node",
  "id": 2876783112,
  "lat": 47.9977529,
  "lon": 7.8460051
},
{
  "type": "node",
  "id": 2876783113,
  "lat": 47.9977552,
  "lon": 7.8460163
},
{
  "type": "node",
  "id": 7104683124,
  "lat": 47.9977053,
  "lon": 7.8463108
},
{
  "type": "node",
  "id": 7104683125,
  "lat": 47.9976959,
  "lon": 7.8463068
},
{
  "type": "node",
  "id": 7104683126,
  "lat": 47.9977032,
  "lon": 7.8463043
},
{
  "type": "node",
  "id": 7104683127,
  "lat": 47.9977458,
  "lon": 7.8463421
},
{
  "type": "node",
  "id": 7104683128,
  "lat": 47.9977375,
  "lon": 7.8463386
},
{
  "type": "node",
  "id": 7104683129,
  "lat": 47.9977438,
  "lon": 7.8463373
},
{
  "type": "node",
  "id": 7104683130,
  "lat": 47.9978505,
  "lon": 7.8461610
},
{
  "type": "node",
  "id": 7104683131,
  "lat": 47.9978469,
  "lon": 7.8461753
},
{
  "type": "node",
  "id": 7104683132,
  "lat": 47.9978472,
  "lon": 7.8461627
},
{
  "type": "node",
  "id": 7104683133,
  "lat": 47.9976319,
  "lon": 7.8462236
},
{
  "type": "node",
  "id": 7104683134,
  "lat": 47.9976348,
  "lon": 7.8462220
},
{
  "type": "node",
  "id": 7104683135,
  "lat": 47.9976337,
  "lon": 7.8462104
},
{
  "type": "node",
  "id": 7104683136,
  "lat": 47.9976087,
  "lon": 7.8461659
},
{
  "type": "node",
  "id": 7104683137,
  "lat": 47.9976126,
  "lon": 7.8461648
},
{
  "type": "node",
  "id": 7104683138,
  "lat": 47.9976127,
  "lon": 7.8461508
},
{
  "type": "node",
  "id": 7104683139,
  "lat": 47.9977143,
  "lon": 7.8459907
},
{
  "type": "node",
  "id": 7104683140,
  "lat": 47.9977139,
  "lon": 7.8459846
},
{
  "type": "node",
  "id": 251383445,
  "lat": 47.9937703,
  "lon": 7.8524796
},
{
  "type": "node",
  "id": 251383452,
  "lat": 47.9937340,
  "lon": 7.8526844
},
{
  "type": "node",
  "id": 251383454,
  "lat": 47.9938755,
  "lon": 7.8525169
},
{
  "type": "node",
  "id": 251383464,
  "lat": 47.9938523,
  "lon": 7.8528883
},
{
  "type": "node",
  "id": 251383469,
  "lat": 47.9929782,
  "lon": 7.8523334
},
{
  "type": "node",
  "id": 251383484,
  "lat": 47.9936590,
  "lon": 7.8527918
},
{
  "type": "node",
  "id": 251383504,
  "lat": 47.9936912,
  "lon": 7.8530535
},
{
  "type": "node",
  "id": 251383513,
  "lat": 47.9937542,
  "lon": 7.8528467
},
{
  "type": "node",
  "id": 251383518,
  "lat": 47.9929193,
  "lon": 7.8525625
},
{
  "type": "node",
  "id": 251383519,
  "lat": 47.9938388,
  "lon": 7.8527264
},
{
  "type": "node",
  "id": 251383526,
  "lat": 47.9937252,
  "lon": 7.8530877
},
{
  "type": "node",
  "id": 251383534,
  "lat": 47.9937743,
  "lon": 7.8531519
},
{
  "type": "node",
  "id": 251383543,
  "lat": 47.9935369,
  "lon": 7.8530190
},
{
  "type": "node",
  "id": 251383547,
  "lat": 47.9937248,
  "lon": 7.8530939
},
{
  "type": "node",
  "id": 251383550,
  "lat": 47.9926192,
  "lon": 7.8520805
},
{
  "type": "node",
  "id": 251386413,
  "lat": 47.9932563,
  "lon": 7.8514263
},
{
  "type": "node",
  "id": 251386418,
  "lat": 47.9933911,
  "lon": 7.8517618
},
{
  "type": "node",
  "id": 251386419,
  "lat": 47.9933533,
  "lon": 7.8514337
},
{
  "type": "node",
  "id": 1136495107,
  "lat": 47.9927606,
  "lon": 7.8521867
},
{
  "type": "node",
  "id": 1136495144,
  "lat": 47.9927052,
  "lon": 7.8523981
},
{
  "type": "node",
  "id": 1136495171,
  "lat": 47.9928494,
  "lon": 7.8522558
},
{
  "type": "node",
  "id": 1136495193,
  "lat": 47.9926487,
  "lon": 7.8523317
},
{
  "type": "node",
  "id": 1136495199,
  "lat": 47.9928410,
  "lon": 7.8524717
},
{
  "type": "node",
  "id": 1136495343,
  "lat": 47.9927031,
  "lon": 7.8523722
},
{
  "type": "node",
  "id": 1136495382,
  "lat": 47.9927589,
  "lon": 7.8521946
},
{
  "type": "node",
  "id": 1136495441,
  "lat": 47.9928501,
  "lon": 7.8522454
},
{
  "type": "node",
  "id": 1136495465,
  "lat": 47.9928362,
  "lon": 7.8525076
},
{
  "type": "node",
  "id": 1136495511,
  "lat": 47.9927881,
  "lon": 7.8524346
},
{
  "type": "node",
  "id": 1136495581,
  "lat": 47.9927489,
  "lon": 7.8524388
},
{
  "type": "node",
  "id": 1136550389,
  "lat": 47.9932580,
  "lon": 7.8517690
},
{
  "type": "node",
  "id": 1149639537,
  "lat": 47.9937059,
  "lon": 7.8523899
},
{
  "type": "node",
  "id": 1149639601,
  "lat": 47.9935823,
  "lon": 7.8529271
},
{
  "type": "node",
  "id": 1149639625,
  "lat": 47.9936976,
  "lon": 7.8526750
},
{
  "type": "node",
  "id": 1149639662,
  "lat": 47.9937378,
  "lon": 7.8523974
},
{
  "type": "node",
  "id": 1149639687,
  "lat": 47.9936075,
  "lon": 7.8529554
},
{
  "type": "node",
  "id": 1149639769,
  "lat": 47.9938128,
  "lon": 7.8531136
},
{
  "type": "node",
  "id": 1149639821,
  "lat": 47.9938002,
  "lon": 7.8531073
},
{
  "type": "node",
  "id": 1195156938,
  "lat": 47.9927314,
  "lon": 7.8524294
},
{
  "type": "node",
  "id": 1195156939,
  "lat": 47.9927705,
  "lon": 7.8524439
},
{
  "type": "node",
  "id": 2516076200,
  "lat": 47.9925502,
  "lon": 7.8523003
},
{
  "type": "node",
  "id": 2516076225,
  "lat": 47.9926379,
  "lon": 7.8523682
},
{
  "type": "node",
  "id": 2516076266,
  "lat": 47.9929229,
  "lon": 7.8523040
},
{
  "type": "node",
  "id": 2516076269,
  "lat": 47.9929248,
  "lon": 7.8522987
},
{
  "type": "node",
  "id": 2516076283,
  "lat": 47.9929362,
  "lon": 7.8524557
},
{
  "type": "node",
  "id": 2516076291,
  "lat": 47.9929505,
  "lon": 7.8524699
},
{
  "type": "node",
  "id": 2516076370,
  "lat": 47.9932273,
  "lon": 7.8516993
},
{
  "type": "node",
  "id": 2516076371,
  "lat": 47.9932271,
  "lon": 7.8516656
},
{
  "type": "node",
  "id": 2516076379,
  "lat": 47.9932535,
  "lon": 7.8516622
},
{
  "type": "node",
  "id": 2516076382,
  "lat": 47.9932518,
  "lon": 7.8517643
},
{
  "type": "node",
  "id": 2516076383,
  "lat": 47.9932526,
  "lon": 7.8516970
},
{
  "type": "node",
  "id": 4933895789,
  "lat": 47.9937955,
  "lon": 7.8534151
},
{
  "type": "node",
  "id": 4933895790,
  "lat": 47.9938734,
  "lon": 7.8532739
},
{
  "type": "node",
  "id": 4933895791,
  "lat": 47.9938261,
  "lon": 7.8532106
},
{
  "type": "node",
  "id": 4933895792,
  "lat": 47.9938489,
  "lon": 7.8531693
},
{
  "type": "node",
  "id": 4933895793,
  "lat": 47.9938587,
  "lon": 7.8531783
},
{
  "type": "node",
  "id": 4933895794,
  "lat": 47.9938950,
  "lon": 7.8531919
},
{
  "type": "node",
  "id": 4933895795,
  "lat": 47.9939305,
  "lon": 7.8531595
},
{
  "type": "node",
  "id": 4933895796,
  "lat": 47.9939785,
  "lon": 7.8528989
},
{
  "type": "node",
  "id": 4933895797,
  "lat": 47.9940018,
  "lon": 7.8529066
},
{
  "type": "node",
  "id": 4933895798,
  "lat": 47.9940877,
  "lon": 7.8524905
},
{
  "type": "node",
  "id": 4933895801,
  "lat": 47.9940266,
  "lon": 7.8524120
},
{
  "type": "node",
  "id": 4933895802,
  "lat": 47.9939513,
  "lon": 7.8524343
},
{
  "type": "node",
  "id": 4933895803,
  "lat": 47.9939613,
  "lon": 7.8523804
},
{
  "type": "node",
  "id": 4933895804,
  "lat": 47.9937610,
  "lon": 7.8523070
},
{
  "type": "node",
  "id": 4933895806,
  "lat": 47.9937605,
  "lon": 7.8522655
},
{
  "type": "node",
  "id": 4933895807,
  "lat": 47.9937223,
  "lon": 7.8522552
},
{
  "type": "node",
  "id": 7105763318,
  "lat": 47.9940465,
  "lon": 7.8524717
},
{
  "type": "node",
  "id": 7105763319,
  "lat": 47.9939764,
  "lon": 7.8524439
},
{
  "type": "node",
  "id": 7105763320,
  "lat": 47.9940546,
  "lon": 7.8524383
},
{
  "type": "node",
  "id": 7105763321,
  "lat": 47.9939806,
  "lon": 7.8524058
},
{
  "type": "node",
  "id": 7105763325,
  "lat": 47.9933072,
  "lon": 7.8517771
},
{
  "type": "node",
  "id": 7105763329,
  "lat": 47.9925803,
  "lon": 7.8522170
},
{
  "type": "node",
  "id": 7105763330,
  "lat": 47.9925763,
  "lon": 7.8522086
},
{
  "type": "node",
  "id": 7105763331,
  "lat": 47.9926858,
  "lon": 7.8521370
},
{
  "type": "node",
  "id": 7105763332,
  "lat": 47.9926875,
  "lon": 7.8521313
},
{
  "type": "node",
  "id": 7105763369,
  "lat": 47.9928296,
  "lon": 7.8524941
},
{
  "type": "node",
  "id": 1034153999,
  "lat": 48.0222167,
  "lon": 7.8748168
},
{
  "type": "node",
  "id": 1034154077,
  "lat": 48.0222791,
  "lon": 7.8747064
},
{
  "type": "node",
  "id": 1034154113,
  "lat": 48.0220746,
  "lon": 7.8746373
},
{
  "type": "node",
  "id": 1034154266,
  "lat": 48.0221370,
  "lon": 7.8745269
},
{
  "type": "node",
  "id": 1110985326,
  "lat": 48.0929830,
  "lon": 7.7318673
},
{
  "type": "node",
  "id": 1110985334,
  "lat": 48.0929095,
  "lon": 7.7318828
},
{
  "type": "node",
  "id": 1110985398,
  "lat": 48.0929231,
  "lon": 7.7315173
},
{
  "type": "node",
  "id": 1110985403,
  "lat": 48.0929608,
  "lon": 7.7316310
},
{
  "type": "node",
  "id": 1110985446,
  "lat": 48.0928763,
  "lon": 7.7315300
},
{
  "type": "node",
  "id": 1110985540,
  "lat": 48.0929347,
  "lon": 7.7316365
},
{
  "type": "node",
  "id": 2514158879,
  "lat": 48.0929321,
  "lon": 7.7316055
},
{
  "type": "node",
  "id": 1436403225,
  "lat": 48.1416616,
  "lon": 7.7037388
},
{
  "type": "node",
  "id": 1436403227,
  "lat": 48.1416974,
  "lon": 7.7035623
},
{
  "type": "node",
  "id": 1436403230,
  "lat": 48.1417152,
  "lon": 7.7034745
},
{
  "type": "node",
  "id": 1436403231,
  "lat": 48.1417709,
  "lon": 7.7037885
},
{
  "type": "node",
  "id": 1436403233,
  "lat": 48.1418244,
  "lon": 7.7035242
},
{
  "type": "node",
  "id": 2098806971,
  "lat": 48.1416857,
  "lon": 7.7037498
},
{
  "type": "node",
  "id": 2144423997,
  "lat": 48.1627308,
  "lon": 7.7001527
},
{
  "type": "node",
  "id": 2144423998,
  "lat": 48.1627306,
  "lon": 7.6999817
},
{
  "type": "node",
  "id": 2144424000,
  "lat": 48.1628137,
  "lon": 7.7001601
},
{
  "type": "node",
  "id": 2144424002,
  "lat": 48.1628171,
  "lon": 7.6999876
},
{
  "type": "node",
  "id": 2098297965,
  "lat": 48.2028793,
  "lon": 7.6729899
},
{
  "type": "node",
  "id": 2098297970,
  "lat": 48.2029092,
  "lon": 7.6730213
},
{
  "type": "node",
  "id": 2098297978,
  "lat": 48.2029365,
  "lon": 7.6728675
},
{
  "type": "node",
  "id": 2098297979,
  "lat": 48.2029371,
  "lon": 7.6729616
},
{
  "type": "node",
  "id": 2098297985,
  "lat": 48.2029542,
  "lon": 7.6730697
},
{
  "type": "node",
  "id": 2098297992,
  "lat": 48.2029824,
  "lon": 7.6730092
},
{
  "type": "node",
  "id": 2098297997,
  "lat": 48.2030012,
  "lon": 7.6731190
},
{
  "type": "node",
  "id": 2098297998,
  "lat": 48.2030033,
  "lon": 7.6729378
},
{
  "type": "node",
  "id": 2098297999,
  "lat": 48.2030120,
  "lon": 7.6729191
},
{
  "type": "node",
  "id": 2098298012,
  "lat": 48.2030673,
  "lon": 7.6729772
},
{
  "type": "node",
  "id": 2284323976,
  "lat": 48.0654675,
  "lon": 7.8528874
},
{
  "type": "node",
  "id": 2284323977,
  "lat": 48.0655120,
  "lon": 7.8529265
},
{
  "type": "node",
  "id": 2284323978,
  "lat": 48.0656716,
  "lon": 7.8522100
},
{
  "type": "node",
  "id": 2284323979,
  "lat": 48.0658174,
  "lon": 7.8531033
},
{
  "type": "node",
  "id": 2284323980,
  "lat": 48.0658297,
  "lon": 7.8525315
},
{
  "type": "node",
  "id": 2284323982,
  "lat": 48.0658803,
  "lon": 7.8523547
},
{
  "type": "node",
  "id": 2284323984,
  "lat": 48.0659494,
  "lon": 7.8531722
},
{
  "type": "node",
  "id": 2284323985,
  "lat": 48.0659715,
  "lon": 7.8531197
},
{
  "type": "node",
  "id": 2284323986,
  "lat": 48.0660752,
  "lon": 7.8526991
},
{
  "type": "node",
  "id": 5087367774,
  "lat": 48.0660692,
  "lon": 7.8530115
},
{
  "type": "node",
  "id": 5087367777,
  "lat": 48.0662129,
  "lon": 7.8530257
},
{
  "type": "node",
  "id": 5087367778,
  "lat": 48.0662529,
  "lon": 7.8530501
},
{
  "type": "node",
  "id": 5087367779,
  "lat": 48.0662302,
  "lon": 7.8531276
},
{
  "type": "node",
  "id": 5087367780,
  "lat": 48.0661379,
  "lon": 7.8530693
},
{
  "type": "node",
  "id": 5087367781,
  "lat": 48.0661110,
  "lon": 7.8531647
},
{
  "type": "node",
  "id": 5087367782,
  "lat": 48.0660388,
  "lon": 7.8531172
},
{
  "type": "node",
  "id": 5087367783,
  "lat": 48.0660921,
  "lon": 7.8529295
},
{
  "type": "node",
  "id": 5087367784,
  "lat": 48.0662175,
  "lon": 7.8530092
},
{
  "type": "node",
  "id": 5087367974,
  "lat": 48.0656328,
  "lon": 7.8534974
},
{
  "type": "node",
  "id": 5087367975,
  "lat": 48.0654073,
  "lon": 7.8532233
},
{
  "type": "node",
  "id": 1783963394,
  "lat": 48.1288038,
  "lon": 7.8074436
},
{
  "type": "node",
  "id": 1783963395,
  "lat": 48.1288047,
  "lon": 7.8072443
},
{
  "type": "node",
  "id": 1783963397,
  "lat": 48.1288467,
  "lon": 7.8074441
},
{
  "type": "node",
  "id": 1783963408,
  "lat": 48.1289076,
  "lon": 7.8074447
},
{
  "type": "node",
  "id": 1783963409,
  "lat": 48.1289085,
  "lon": 7.8072454
},
{
  "type": "node",
  "id": 1342995358,
  "lat": 48.1218252,
  "lon": 7.8502502
},
{
  "type": "node",
  "id": 1342995405,
  "lat": 48.1218018,
  "lon": 7.8503247
},
{
  "type": "node",
  "id": 1342995420,
  "lat": 48.1218870,
  "lon": 7.8502941
},
{
  "type": "node",
  "id": 1342995535,
  "lat": 48.1218639,
  "lon": 7.8503673
},
{
  "type": "node",
  "id": 2363211745,
  "lat": 48.1218491,
  "lon": 7.8503583
},
{
  "type": "node",
  "id": 1269054919,
  "lat": 48.0687917,
  "lon": 7.8760523
},
{
  "type": "node",
  "id": 1269054933,
  "lat": 48.0689473,
  "lon": 7.8757558
},
{
  "type": "node",
  "id": 1269055255,
  "lat": 48.0690154,
  "lon": 7.8759239
},
{
  "type": "node",
  "id": 1269055484,
  "lat": 48.0688564,
  "lon": 7.8758246
},
{
  "type": "node",
  "id": 1269055603,
  "lat": 48.0690468,
  "lon": 7.8758324
},
{
  "type": "node",
  "id": 1269055854,
  "lat": 48.0688546,
  "lon": 7.8760923
},
{
  "type": "node",
  "id": 1269055872,
  "lat": 48.0689158,
  "lon": 7.8758473
},
{
  "type": "node",
  "id": 1269056002,
  "lat": 48.0689193,
  "lon": 7.8758646
},
{
  "type": "node",
  "id": 3087926490,
  "lat": 48.0689432,
  "lon": 7.8757678
},
{
  "type": "node",
  "id": 1236693424,
  "lat": 48.0909990,
  "lon": 7.9624929
},
{
  "type": "node",
  "id": 1236693628,
  "lat": 48.0908722,
  "lon": 7.9624848
},
{
  "type": "node",
  "id": 1236693809,
  "lat": 48.0909959,
  "lon": 7.9626019
},
{
  "type": "node",
  "id": 2371391229,
  "lat": 48.0909867,
  "lon": 7.9626013
},
{
  "type": "node",
  "id": 1236693361,
  "lat": 48.0909791,
  "lon": 7.9630277
},
{
  "type": "node",
  "id": 2371391120,
  "lat": 48.0908178,
  "lon": 7.9628048
},
{
  "type": "node",
  "id": 2371391125,
  "lat": 48.0908211,
  "lon": 7.9626882
},
{
  "type": "node",
  "id": 2371391146,
  "lat": 48.0908523,
  "lon": 7.9630196
},
{
  "type": "node",
  "id": 2371391154,
  "lat": 48.0908584,
  "lon": 7.9628075
},
{
  "type": "node",
  "id": 2371391164,
  "lat": 48.0908663,
  "lon": 7.9626911
},
{
  "type": "node",
  "id": 2371391224,
  "lat": 48.0909775,
  "lon": 7.9629215
},
{
  "type": "node",
  "id": 2371391226,
  "lat": 48.0909822,
  "lon": 7.9629218
},
{
  "type": "node",
  "id": 5892971598,
  "lat": 48.0909818,
  "lon": 7.9627714
},
{
  "type": "node",
  "id": 4731019373,
  "lat": 48.1381218,
  "lon": 7.9664688
},
{
  "type": "node",
  "id": 4731019374,
  "lat": 48.1381006,
  "lon": 7.9664736
},
{
  "type": "node",
  "id": 4731019375,
  "lat": 48.1381749,
  "lon": 7.9665351
},
{
  "type": "node",
  "id": 4731019376,
  "lat": 48.1381084,
  "lon": 7.9665504
},
{
  "type": "node",
  "id": 4731019377,
  "lat": 48.1381176,
  "lon": 7.9664273
},
{
  "type": "node",
  "id": 4731019378,
  "lat": 48.1381628,
  "lon": 7.9664169
},
{
  "type": "node",
  "id": 281474066,
  "lat": 48.1630931,
  "lon": 7.7969856
},
{
  "type": "node",
  "id": 347301447,
  "lat": 48.1631348,
  "lon": 7.7970163
},
{
  "type": "node",
  "id": 1601261843,
  "lat": 48.1631165,
  "lon": 7.7969064
},
{
  "type": "node",
  "id": 1601261857,
  "lat": 48.1631590,
  "lon": 7.7969346
},
{
  "type": "node",
  "id": 2546177880,
  "lat": 48.1630911,
  "lon": 7.7970801
},
{
  "type": "node",
  "id": 5171630100,
  "lat": 48.1631110,
  "lon": 7.7970980
},
{
  "type": "node",
  "id": 5171630101,
  "lat": 48.1630668,
  "lon": 7.7970758
},
{
  "type": "node",
  "id": 2084572264,
  "lat": 48.2230862,
  "lon": 7.7773671
},
{
  "type": "node",
  "id": 2084572272,
  "lat": 48.2231378,
  "lon": 7.7773407
},
{
  "type": "node",
  "id": 2084572306,
  "lat": 48.2231218,
  "lon": 7.7773384
},
{
  "type": "node",
  "id": 2084572317,
  "lat": 48.2231611,
  "lon": 7.7776020
},
{
  "type": "node",
  "id": 2084572342,
  "lat": 48.2232088,
  "lon": 7.7775626
},
{
  "type": "node",
  "id": 5827951893,
  "lat": 48.2231858,
  "lon": 7.7776227
},
{
  "type": "node",
  "id": 5827951894,
  "lat": 48.2232051,
  "lon": 7.7776104
},
{
  "type": "node",
  "id": 5827951895,
  "lat": 48.2231341,
  "lon": 7.7775459
},
{
  "type": "node",
  "id": 5827951896,
  "lat": 48.2231126,
  "lon": 7.7774708
},
{
  "type": "node",
  "id": 5827951897,
  "lat": 48.2231420,
  "lon": 7.7775422
},
{
  "type": "node",
  "id": 5827951898,
  "lat": 48.2231173,
  "lon": 7.7774646
},
{
  "type": "node",
  "id": 5827951899,
  "lat": 48.2231974,
  "lon": 7.7774970
},
{
  "type": "node",
  "id": 5827951900,
  "lat": 48.2231624,
  "lon": 7.7773801
},
{
  "type": "node",
  "id": 5827951901,
  "lat": 48.2231900,
  "lon": 7.7775038
},
{
  "type": "node",
  "id": 5827951902,
  "lat": 48.2231530,
  "lon": 7.7773882
},
{
  "type": "node",
  "id": 2166127182,
  "lat": 48.2171186,
  "lon": 7.8080097
},
{
  "type": "node",
  "id": 2166127183,
  "lat": 48.2171218,
  "lon": 7.8081046
},
{
  "type": "node",
  "id": 2166127187,
  "lat": 48.2171681,
  "lon": 7.8079195
},
{
  "type": "node",
  "id": 2166127189,
  "lat": 48.2171710,
  "lon": 7.8080058
},
{
  "type": "node",
  "id": 2166127198,
  "lat": 48.2172016,
  "lon": 7.8080974
},
{
  "type": "node",
  "id": 2166127218,
  "lat": 48.2172967,
  "lon": 7.8080925
},
{
  "type": "node",
  "id": 2166127235,
  "lat": 48.2173251,
  "lon": 7.8079076
},
{
  "type": "node",
  "id": 2166127236,
  "lat": 48.2173257,
  "lon": 7.8079264
},
{
  "type": "node",
  "id": 2166127237,
  "lat": 48.2173299,
  "lon": 7.8080540
},
{
  "type": "node",
  "id": 2166127240,
  "lat": 48.2173311,
  "lon": 7.8080888
},
{
  "type": "node",
  "id": 2618709873,
  "lat": 48.2171493,
  "lon": 7.8080074
},
{
  "type": "node",
  "id": 2618709874,
  "lat": 48.2171309,
  "lon": 7.8080088
},
{
  "type": "node",
  "id": 1177592165,
  "lat": 47.8604532,
  "lon": 8.0346367
},
{
  "type": "node",
  "id": 1177592182,
  "lat": 47.8602745,
  "lon": 8.0344862
},
{
  "type": "node",
  "id": 1177592112,
  "lat": 47.8601597,
  "lon": 8.0354111
},
{
  "type": "node",
  "id": 1177592285,
  "lat": 47.8599809,
  "lon": 8.0352605
},
{
  "type": "node",
  "id": 2747665257,
  "lat": 47.8601348,
  "lon": 8.0348064
},
{
  "type": "node",
  "id": 2747665259,
  "lat": 47.8601489,
  "lon": 8.0347692
},
{
  "type": "node",
  "id": 2747665260,
  "lat": 47.8601486,
  "lon": 8.0348181
},
{
  "type": "node",
  "id": 2747665261,
  "lat": 47.8601627,
  "lon": 8.0347809
},
{
  "type": "node",
  "id": 1703355895,
  "lat": 47.8983051,
  "lon": 8.1036886
},
{
  "type": "node",
  "id": 1703355903,
  "lat": 47.8984096,
  "lon": 8.1039912
},
{
  "type": "node",
  "id": 1703355906,
  "lat": 47.8984239,
  "lon": 8.1035973
},
{
  "type": "node",
  "id": 1703355909,
  "lat": 47.8985284,
  "lon": 8.1038999
},
{
  "type": "node",
  "id": 2639768202,
  "lat": 47.8884872,
  "lon": 8.1284868
},
{
  "type": "node",
  "id": 2639768203,
  "lat": 47.8883322,
  "lon": 8.1281964
},
{
  "type": "node",
  "id": 2639768204,
  "lat": 47.8881485,
  "lon": 8.1284522
},
{
  "type": "node",
  "id": 2639768205,
  "lat": 47.8882280,
  "lon": 8.1286012
},
{
  "type": "node",
  "id": 2916520364,
  "lat": 47.8883015,
  "lon": 8.1285140
},
{
  "type": "node",
  "id": 2916520366,
  "lat": 47.8883274,
  "lon": 8.1285626
},
{
  "type": "node",
  "id": 2916520367,
  "lat": 47.8883596,
  "lon": 8.1282477
},
{
  "type": "node",
  "id": 2916520368,
  "lat": 47.8883811,
  "lon": 8.1282221
},
{
  "type": "node",
  "id": 2916520369,
  "lat": 47.8883846,
  "lon": 8.1282945
},
{
  "type": "node",
  "id": 2916520370,
  "lat": 47.8884061,
  "lon": 8.1282689
},
{
  "type": "node",
  "id": 2916520371,
  "lat": 47.8884077,
  "lon": 8.1284673
},
{
  "type": "node",
  "id": 2916520372,
  "lat": 47.8884449,
  "lon": 8.1285370
},
{
  "type": "node",
  "id": 3980259729,
  "lat": 47.8882102,
  "lon": 8.1283411
},
{
  "type": "node",
  "id": 3980259730,
  "lat": 47.8882226,
  "lon": 8.1283643
},
{
  "type": "node",
  "id": 2047305931,
  "lat": 47.9005880,
  "lon": 8.1524911
},
{
  "type": "node",
  "id": 2047305936,
  "lat": 47.9006202,
  "lon": 8.1525896
},
{
  "type": "node",
  "id": 2047305951,
  "lat": 47.9007583,
  "lon": 8.1523672
},
{
  "type": "node",
  "id": 2047305955,
  "lat": 47.9007905,
  "lon": 8.1524657
},
{
  "type": "node",
  "id": 2008169981,
  "lat": 47.9674996,
  "lon": 8.0301069
},
{
  "type": "node",
  "id": 2008169987,
  "lat": 47.9675877,
  "lon": 8.0304748
},
{
  "type": "node",
  "id": 2008169998,
  "lat": 47.9676881,
  "lon": 8.0300496
},
{
  "type": "node",
  "id": 2008170000,
  "lat": 47.9677163,
  "lon": 8.0304358
},
{
  "type": "node",
  "id": 4305543282,
  "lat": 47.9675273,
  "lon": 8.0303103
},
{
  "type": "node",
  "id": 4305543399,
  "lat": 47.9675638,
  "lon": 8.0302992
},
{
  "type": "node",
  "id": 4305543427,
  "lat": 47.9676840,
  "lon": 8.0301990
},
{
  "type": "node",
  "id": 4305543434,
  "lat": 47.9677075,
  "lon": 8.0301918
},
{
  "type": "node",
  "id": 1448940613,
  "lat": 47.9146335,
  "lon": 8.2145283
},
{
  "type": "node",
  "id": 1448940614,
  "lat": 47.9146195,
  "lon": 8.2146980
},
{
  "type": "node",
  "id": 1448940616,
  "lat": 47.9147961,
  "lon": 8.2145583
},
{
  "type": "node",
  "id": 1448940618,
  "lat": 47.9147820,
  "lon": 8.2147279
},
{
  "type": "node",
  "id": 1277597340,
  "lat": 48.0917891,
  "lon": 8.0677696
},
{
  "type": "node",
  "id": 1277598369,
  "lat": 48.0917317,
  "lon": 8.0676870
},
{
  "type": "node",
  "id": 1277598713,
  "lat": 48.0918045,
  "lon": 8.0675735
},
{
  "type": "node",
  "id": 1277599366,
  "lat": 48.0918619,
  "lon": 8.0676561
},
{
  "type": "node",
  "id": 3645999516,
  "lat": 48.0917731,
  "lon": 8.0677465
},
{
  "type": "node",
  "id": 3645999518,
  "lat": 48.0918231,
  "lon": 8.0677166
},
{
  "type": "node",
  "id": 1240217919,
  "lat": 48.1608659,
  "lon": 7.9784459
},
{
  "type": "node",
  "id": 1240218174,
  "lat": 48.1608166,
  "lon": 7.9782679
},
{
  "type": "node",
  "id": 1240218347,
  "lat": 48.1607770,
  "lon": 7.9783606
},
{
  "type": "node",
  "id": 1240218443,
  "lat": 48.1609055,
  "lon": 7.9783532
},
{
  "type": "node",
  "id": 1277017874,
  "lat": 48.2130648,
  "lon": 8.1429998
},
{
  "type": "node",
  "id": 1277018142,
  "lat": 48.2130544,
  "lon": 8.1432456
},
{
  "type": "node",
  "id": 1277018279,
  "lat": 48.2131241,
  "lon": 8.1432523
},
{
  "type": "node",
  "id": 1277018327,
  "lat": 48.2131345,
  "lon": 8.1430064
},
{
  "type": "node",
  "id": 4143007556,
  "lat": 48.2130606,
  "lon": 8.1431003
},
{
  "type": "node",
  "id": 4143007559,
  "lat": 48.2130633,
  "lon": 8.1430355
},
{
  "type": "node",
  "id": 2361888993,
  "lat": 48.0562776,
  "lon": 8.2025539
},
{
  "type": "node",
  "id": 2361889003,
  "lat": 48.0563389,
  "lon": 8.2024043
},
{
  "type": "node",
  "id": 2361889016,
  "lat": 48.0563857,
  "lon": 8.2026529
},
{
  "type": "node",
  "id": 2361889036,
  "lat": 48.0564470,
  "lon": 8.2025033
},
{
  "type": "node",
  "id": 295323658,
  "lat": 48.0510169,
  "lon": 8.2078987
},
{
  "type": "node",
  "id": 310170705,
  "lat": 48.0512049,
  "lon": 8.2077522
},
{
  "type": "node",
  "id": 310170706,
  "lat": 48.0510727,
  "lon": 8.2075050
},
{
  "type": "node",
  "id": 310170707,
  "lat": 48.0508742,
  "lon": 8.2078272
},
{
  "type": "node",
  "id": 310171165,
  "lat": 48.0511886,
  "lon": 8.2077210
},
{
  "type": "node",
  "id": 3647259389,
  "lat": 48.0511314,
  "lon": 8.2076150
},
{
  "type": "node",
  "id": 4298664375,
  "lat": 48.0509658,
  "lon": 8.2079453
},
{
  "type": "node",
  "id": 1961721592,
  "lat": 48.1289583,
  "lon": 8.2298479
},
{
  "type": "node",
  "id": 1961721595,
  "lat": 48.1292081,
  "lon": 8.2300000
},
{
  "type": "node",
  "id": 1961721608,
  "lat": 48.1291651,
  "lon": 8.2298879
},
{
  "type": "node",
  "id": 1961721611,
  "lat": 48.1293621,
  "lon": 8.2300071
},
{
  "type": "node",
  "id": 1961721614,
  "lat": 48.1291337,
  "lon": 8.2295643
},
{
  "type": "node",
  "id": 1961721617,
  "lat": 48.1293099,
  "lon": 8.2300282
},
{
  "type": "node",
  "id": 1961721620,
  "lat": 48.1292841,
  "lon": 8.2298539
},
{
  "type": "node",
  "id": 1961721622,
  "lat": 48.1294350,
  "lon": 8.2298672
},
{
  "type": "node",
  "id": 1961721625,
  "lat": 48.1292193,
  "lon": 8.2297847
},
{
  "type": "node",
  "id": 1961721626,
  "lat": 48.1290785,
  "lon": 8.2296221
},
{
  "type": "node",
  "id": 1961721636,
  "lat": 48.1290979,
  "lon": 8.2296394
},
{
  "type": "node",
  "id": 1961721639,
  "lat": 48.1293304,
  "lon": 8.2299822
},
{
  "type": "node",
  "id": 4281929375,
  "lat": 48.1290205,
  "lon": 8.2297038
},
{
  "type": "node",
  "id": 4281929380,
  "lat": 48.1290619,
  "lon": 8.2299225
},
{
  "type": "node",
  "id": 4281929381,
  "lat": 48.1290371,
  "lon": 8.2297200
},
{
  "type": "node",
  "id": 4281929384,
  "lat": 48.1291085,
  "lon": 8.2298290
},
{
  "type": "node",
  "id": 5609918994,
  "lat": 48.0456147,
  "lon": 8.3022774
},
{
  "type": "node",
  "id": 5609918995,
  "lat": 48.0456190,
  "lon": 8.3024415
},
{
  "type": "node",
  "id": 5609918996,
  "lat": 48.0455850,
  "lon": 8.3024441
},
{
  "type": "node",
  "id": 5609918997,
  "lat": 48.0455807,
  "lon": 8.3022812
},
{
  "type": "node",
  "id": 3489770379,
  "lat": 48.0475340,
  "lon": 8.3055172
},
{
  "type": "node",
  "id": 3489770380,
  "lat": 48.0474420,
  "lon": 8.3054993
},
{
  "type": "node",
  "id": 3489770381,
  "lat": 48.0474314,
  "lon": 8.3056216
},
{
  "type": "node",
  "id": 3489770382,
  "lat": 48.0475234,
  "lon": 8.3056395
},
{
  "type": "node",
  "id": 1040914560,
  "lat": 48.1474900,
  "lon": 8.2413975
},
{
  "type": "node",
  "id": 1040914561,
  "lat": 48.1476980,
  "lon": 8.2409274
},
{
  "type": "node",
  "id": 1040914564,
  "lat": 48.1473735,
  "lon": 8.2416057
},
{
  "type": "node",
  "id": 1040914568,
  "lat": 48.1475913,
  "lon": 8.2413812
},
{
  "type": "node",
  "id": 1040914578,
  "lat": 48.1475034,
  "lon": 8.2415847
},
{
  "type": "node",
  "id": 1040914582,
  "lat": 48.1475287,
  "lon": 8.2409548
},
{
  "type": "node",
  "id": 1040914585,
  "lat": 48.1476076,
  "lon": 8.2416074
},
{
  "type": "node",
  "id": 1040914587,
  "lat": 48.1473289,
  "lon": 8.2409870
},
{
  "type": "node",
  "id": 1040914598,
  "lat": 48.1477454,
  "lon": 8.2415851
},
{
  "type": "node",
  "id": 615540062,
  "lat": 48.2871836,
  "lon": 7.8086182
},
{
  "type": "node",
  "id": 616489105,
  "lat": 48.2869999,
  "lon": 7.8083138
},
{
  "type": "node",
  "id": 616489111,
  "lat": 48.2872799,
  "lon": 7.8084109
},
{
  "type": "node",
  "id": 616489122,
  "lat": 48.2870604,
  "lon": 7.8081805
},
{
  "type": "node",
  "id": 2125058007,
  "lat": 48.2871601,
  "lon": 7.8084908
},
{
  "type": "node",
  "id": 2125058024,
  "lat": 48.2871288,
  "lon": 7.8085540
},
{
  "type": "node",
  "id": 264060313,
  "lat": 48.3067490,
  "lon": 7.9395841
},
{
  "type": "node",
  "id": 264060314,
  "lat": 48.3067784,
  "lon": 7.9395840
},
{
  "type": "node",
  "id": 264060315,
  "lat": 48.3065564,
  "lon": 7.9398419
},
{
  "type": "node",
  "id": 264060316,
  "lat": 48.3066694,
  "lon": 7.9394657
},
{
  "type": "node",
  "id": 1110832461,
  "lat": 48.3065559,
  "lon": 7.9395919
},
{
  "type": "node",
  "id": 1110832801,
  "lat": 48.3066371,
  "lon": 7.9395915
},
{
  "type": "node",
  "id": 1110832892,
  "lat": 48.3066368,
  "lon": 7.9394255
},
{
  "type": "node",
  "id": 1110832900,
  "lat": 48.3066441,
  "lon": 7.9398415
},
{
  "type": "node",
  "id": 1110832921,
  "lat": 48.3066439,
  "lon": 7.9397623
},
{
  "type": "node",
  "id": 1110833460,
  "lat": 48.3066694,
  "lon": 7.9394254
},
{
  "type": "node",
  "id": 1110833494,
  "lat": 48.3067685,
  "lon": 7.9397617
},
{
  "type": "node",
  "id": 1110834051,
  "lat": 48.3067488,
  "lon": 7.9394654
},
{
  "type": "node",
  "id": 4966893034,
  "lat": 48.3067490,
  "lon": 7.9395470
},
{
  "type": "node",
  "id": 4966894106,
  "lat": 48.3066368,
  "lon": 7.9394479
},
{
  "type": "node",
  "id": 4966894107,
  "lat": 48.3066694,
  "lon": 7.9394466
},
{
  "type": "node",
  "id": 5759453145,
  "lat": 48.3067488,
  "lon": 7.9394828
},
{
  "type": "node",
  "id": 5760139509,
  "lat": 48.3066524,
  "lon": 7.9394254
},
{
  "type": "node",
  "id": 6261835735,
  "lat": 48.3065560,
  "lon": 7.9396424
},
{
  "type": "node",
  "id": 6261835736,
  "lat": 48.3067786,
  "lon": 7.9397048
},
{
  "type": "node",
  "id": 6261835737,
  "lat": 48.3067684,
  "lon": 7.9397048
},
{
  "type": "way",
  "id": 146291591,
  "nodes": [
    2876782645,
    2876782646,
    2876782648,
    2876782650,
    2876782653,
    2876782654,
    2876782652,
    2876782651,
    2876782649,
    2876782647,
    2876782644,
    2876782643,
    2876782642,
    2876782641,
    2876782640,
    2876782639,
    2876783112,
    2876783113,
    2876783111,
    248205858,
    2876783101,
    7104683140,
    7104683139,
    2876783102,
    7104683138,
    248205870,
    7104683136,
    7104683137,
    248205890,
    7104683135,
    2876783098,
    7104683133,
    7104683134,
    2876783103,
    2876783099,
    2876783104,
    2876783106,
    7104683125,
    2876783107,
    7104683124,
    7104683126,
    2876783108,
    7104683128,
    248205983,
    7104683127,
    7104683129,
    7104683131,
    248205936,
    7104683130,
    7104683132,
    2876782645
  ]
},
{
  "type": "way",
  "id": 23235190,
  "nodes": [
    251383513,
    251383504,
    251383526,
    251383547,
    251383534,
    1149639821,
    1149639769,
    251383464,
    251383513
  ]
},
{
  "type": "way",
  "id": 23235192,
  "nodes": [
    4933895798,
    4933895797,
    4933895796,
    4933895795,
    4933895794,
    4933895793,
    4933895792,
    4933895791,
    4933895790,
    4933895789,
    251383543,
    1149639601,
    1149639687,
    251383484,
    1149639625,
    1149639662,
    1149639537,
    4933895807,
    4933895806,
    4933895804,
    4933895803,
    4933895802,
    7105763319,
    7105763321,
    4933895801,
    7105763320,
    7105763318,
    4933895798
  ]
},
{
  "type": "way",
  "id": 23235194,
  "nodes": [
    251383445,
    251383452,
    251383519,
    251383454,
    251383445
  ]
}

  ]
}
