{
  "version": 0.6,
  "generator": "Overpass API 0.7.55.1011 6c2efc30",
  "osm3s": {
    "timestamp_osm_base": "2020-02-14T18:16:02Z",
    "copyright": "The data included in this document is from www.openstreetmap.org. The data is made available under ODbL."
  },
  "elements": [

{
  "type": "node",
  "id": 309113264,
  "lat": 61.4803869,
  "lon": 23.5286789,
  "tags": {
    "tourism": "museum"
  }
},
{
  "type": "node",
  "id": 611053259,
  "lat": 61.5015912,
  "lon": 23.7598322,
  "tags": {
    "addr:city": "Tampere",
    "addr:country": "FI",
    "name": "TR1",
    "opening_hours:signed": "no",
    "tourism": "museum",
    "wheelchair": "yes"
  }
},
{
  "type": "node",
  "id": 611053262,
  "lat": 61.4956855,
  "lon": 23.7518022,
  "tags": {
    "name": "Lenin-museo",
    "tourism": "museum",
    "wikidata": "Q7223852"
  }
},
{
  "type": "node",
  "id": 853918732,
  "lat": 61.5039585,
  "lon": 23.7104121,
  "tags": {
    "addr:city": "Tampere",
    "addr:housenumber": "8",
    "addr:postcode": "33250",
    "addr:street": "Portaanpää",
    "name": "Lauri Viita -museo",
    "tourism": "museum"
  }
},
{
  "type": "node",
  "id": 964743488,
  "lat": 61.4471888,
  "lon": 23.5558830,
  "tags": {
    "name": "Reipin kotiseutumuseo",
    "tourism": "museum"
  }
},
{
  "type": "node",
  "id": 1242390702,
  "lat": 61.5030211,
  "lon": 23.7604160,
  "tags": {
    "name": "Mediamuseo Rupriikki",
    "tourism": "museum",
    "wheelchair": "yes",
    "wikidata": "Q3453295"
  }
},
{
  "type": "node",
  "id": 1242390704,
  "lat": 61.5011097,
  "lon": 23.7610404,
  "tags": {
    "name": "Vakoilumuseo",
    "name:de": "Spionagemuseum",
    "name:en": "Spy Museum",
    "name:es": "Museo de espionaje",
    "name:fi": "Vakoilumuseo",
    "name:fr": "Musée de l’espionnage",
    "name:it": "Museo dello Spionaggio",
    "name:ru": "Музей Шпионажа",
    "name:sv": "Spionerimuseet",
    "opening_hours": "Mo-Sa 10:00-18:00; Su 12:00-18:00",
    "tourism": "museum",
    "wheelchair": "yes",
    "wikidata": "Q4306511"
  }
},
{
  "type": "node",
  "id": 1640941669,
  "lat": 61.4735668,
  "lon": 23.3709640,
  "tags": {
    "name": "Ossi Somman taidepiha",
    "tourism": "museum"
  }
},
{
  "type": "node",
  "id": 1661764748,
  "lat": 61.4403223,
  "lon": 24.1304585,
  "tags": {
    "addr:city": "Kangasala",
    "addr:housenumber": "75",
    "addr:street": "Kustaa Kolmannen tie",
    "name": "Mobilia automuseo",
    "phone": "(03)31404000",
    "tourism": "museum",
    "website": "https://www.mobilia.fi/"
  }
},
{
  "type": "node",
  "id": 1835370249,
  "lat": 61.4991734,
  "lon": 23.7433944,
  "tags": {
    "contact:website": "http://www.tampere.fi/amuri",
    "information:fi": "Sisäänkäynti Satakunnankadulta",
    "name": "Amurin työläismuseokortteli",
    "name:en": "Amuri Museum of Workers' Housing",
    "name:fi": "Amurin työläismuseokortteli",
    "opening_hours": "May 10-Sep 11",
    "tourism": "museum"
  }
},
{
  "type": "node",
  "id": 1835370260,
  "lat": 61.4977985,
  "lon": 23.7486154,
  "tags": {
    "name": "Hiekan taidemuseo",
    "tourism": "museum",
    "wikidata": "Q11862518"
  }
},
{
  "type": "node",
  "id": 1987974980,
  "lat": 61.5482004,
  "lon": 23.7168193,
  "tags": {
    "name": "Villa Urpo",
    "tourism": "museum"
  }
},
{
  "type": "node",
  "id": 2034602905,
  "lat": 61.3378202,
  "lon": 24.2717996,
  "tags": {
    "man_made": "windmill",
    "name": "Tuulimyllymuseo",
    "opening_hours": "July Tu-We 12:00-15:00",
    "tourism": "museum"
  }
},
{
  "type": "node",
  "id": 2187961192,
  "lat": 61.7517338,
  "lon": 23.9353768,
  "tags": {
    "addr:city": "Velaatta",
    "addr:housenumber": "551",
    "addr:postcode": "34270",
    "addr:street": "Velaatantie",
    "alt_name": "Velaatan Maitolaiturimuseo",
    "alt_name:en": "Velaatta Milk Platform Museum",
    "alt_name:fi": "Velaatan Maitolaiturimuseo",
    "email": "welaatta@gmail.com",
    "name": "Maitolaiturimuseo",
    "name:en": "Milk Platform Museum",
    "name:fi": "Maitolaiturimuseo",
    "opening_hours": "summer: 24/7; winter: closed",
    "phone": "+358 50 561 7667",
    "tourism": "museum",
    "website": "http://www.maitolaiturimuseo.net/"
  }
},
{
  "type": "node",
  "id": 2441918304,
  "lat": 61.2988666,
  "lon": 23.4859029,
  "tags": {
    "name": "Narvan kotiseutumuseo",
    "tourism": "museum"
  }
},
{
  "type": "node",
  "id": 2591143987,
  "lat": 61.4430068,
  "lon": 24.1278960,
  "tags": {
    "name": "Mobilia",
    "tourism": "museum"
  }
},
{
  "type": "node",
  "id": 3565346093,
  "lat": 61.4895803,
  "lon": 23.5418072,
  "tags": {
    "name": "Branderin torppa",
    "tourism": "museum"
  }
},
{
  "type": "node",
  "id": 3655924158,
  "lat": 61.5040384,
  "lon": 23.7524861,
  "tags": {
    "addr:city": "Tampere",
    "addr:housenumber": "8",
    "addr:postcode": "33210",
    "addr:street": "Milavidanrinne",
    "name": "Museo Milavida",
    "tourism": "museum",
    "website": "http://museomilavida.fi/"
  }
},
{
  "type": "node",
  "id": 3978082316,
  "lat": 61.4927438,
  "lon": 23.7456874,
  "tags": {
    "addr:housenumber": "40",
    "addr:postcode": "33200",
    "addr:street": "Mariankatu",
    "name": "Pyynikinlinna",
    "name:de": "Emil Aaltonen Museum",
    "name:en": "Emil Aaltonen Museum",
    "name:fi": "Emil Aaltosen Museo",
    "opening_hours": "We 12:00-18:00; Th, Sa-Su 12:00-16:00",
    "phone": "032124551",
    "tourism": "museum",
    "website": "http://pyynikinlinna.fi",
    "wikidata": "Q11857748"
  }
},
{
  "type": "node",
  "id": 3997635801,
  "lat": 61.4530480,
  "lon": 23.8523530,
  "tags": {
    "addr:city": "Tampere",
    "addr:housenumber": "2",
    "addr:pobox": "123",
    "addr:pobox:postcode": "33721",
    "addr:postcode": "33720",
    "addr:street": "Vaajakatu",
    "contact:website": "http://www.poliisimuseo.fi",
    "email": "poliisimuseo@poliisi.fi",
    "fax": "+358 71 878 3002",
    "fee": "no",
    "name": "Poliisimuseo",
    "name:de": "Polizeimuseum",
    "name:en": "National Police Museum",
    "name:fi": "Poliisimuseo",
    "name:sv": "Polismuseet",
    "opening_hours": "Tu-Fr 10:00-15:00; Sa 12:00-17:00",
    "phone": "+358 71 878 3900",
    "source": "survey",
    "toilets": "yes",
    "toilets:access": "permissive",
    "toilets:wheelchair": "yes",
    "tourism": "museum",
    "wheelchair": "yes",
    "wikidata": "Q4306431"
  }
},
{
  "type": "node",
  "id": 4868406530,
  "lat": 61.4960741,
  "lon": 23.7829025,
  "tags": {
    "name": "Muumimuseo",
    "name:en": "Moomin Museum",
    "name:sv": "Muminmuseet",
    "toilets:wheelchair": "yes",
    "tourism": "museum",
    "website": "https://muumimuseo.fi/",
    "wheelchair": "yes"
  }
},
{
  "type": "node",
  "id": 4915971421,
  "lat": 61.4632533,
  "lon": 24.0731985,
  "tags": {
    "name": "Kangasala-talo",
    "name:fi": "Kangasala-talo",
    "tourism": "museum"
  }
},
{
  "type": "node",
  "id": 4958329513,
  "lat": 61.5706220,
  "lon": 23.5975063,
  "tags": {
    "addr:housenumber": "4",
    "addr:street": "Hietastentie",
    "name": "Ylöjärven museo",
    "tourism": "museum",
    "website": "https://www.ylojarvi.fi/vapaa-aika/kulttuuri/ylojarven-museo/"
  }
},
{
  "type": "node",
  "id": 4958329514,
  "lat": 61.5948188,
  "lon": 23.6696226,
  "tags": {
    "addr:housenumber": "77",
    "addr:street": "Härkilevontie",
    "name": "Suomen jäähdytystekniikan museo",
    "tourism": "museum",
    "website": "http://kylmamuseo.fi/"
  }
},
{
  "type": "node",
  "id": 5914028247,
  "lat": 61.2648287,
  "lon": 24.0288072,
  "tags": {
    "addr:city": "Valkeakoski",
    "addr:housenumber": "3",
    "addr:postcode": "37600",
    "addr:street": "Kanavanranta",
    "name": "Myllysaaren museo",
    "operator": "Myllysaaren museo",
    "tourism": "museum",
    "website": "http://www.valkeakoski.fi/portal/suomi/kulttuuri_ja_vapaa-aika/museot/myllysaaren_museo/"
  }
},
{
  "type": "node",
  "id": 6083409874,
  "lat": 61.3417000,
  "lon": 24.2115310,
  "tags": {
    "name": "Salinmäen ulkomuseo",
    "tourism": "museum"
  }
},
{
  "type": "way",
  "id": 23704451,
  "nodes": [
    2103220073,
    256672570,
    1021403690,
    5859411159,
    256672571,
    256672572,
    256672573,
    256672574,
    256672575,
    256672576,
    256672578,
    256672579,
    256672580,
    256672581,
    256672582,
    256672583,
    256672584,
    2103220073
  ],
  "tags": {
    "addr:city": "Tampere",
    "addr:country": "FI",
    "addr:housenumber": "5",
    "addr:postcode": "33100",
    "addr:street": "Alaverstaanraitti",
    "building": "yes",
    "email": "vapriikki@tampere.fi",
    "fax": "+358 3 5656 6808",
    "name": "Vapriikki",
    "opening_hours": "Tu-Su 10:00-18:00",
    "phone": "+358 3 5656 6966",
    "tourism": "museum",
    "url": "http://www.tampere.fi/vapriikki/",
    "website": "http://vapriikki.fi/",
    "wheelchair": "yes",
    "wikidata": "Q18346706"
  }
},
{
  "type": "way",
  "id": 34907695,
  "nodes": [
    409495532,
    409495533,
    409495534,
    409496495,
    409496497,
    409495535,
    409495536,
    409495537,
    409495538,
    409495539,
    409495540,
    409495541,
    409495542,
    409495543,
    409495544,
    409495545,
    409495546,
    2625147019,
    409495547,
    2625147021,
    409495548,
    2625147023,
    409495549,
    2625147033,
    409495550,
    2625147035,
    409495551,
    2625112033,
    409495552,
    2625147025,
    409495532
  ],
  "tags": {
    "building": "yes",
    "name": "Toijalan veturimuseo",
    "railway": "museum",
    "source": "MML",
    "tourism": "museum",
    "website": "www.veturimuseo.fi",
    "wikidata": "Q18346747",
    "wikipedia": "fi:Veturimuseo"
  }
},
{
  "type": "way",
  "id": 87221901,
  "nodes": [
    1014215404,
    1014215423,
    1014215415,
    1014215383,
    1014215386,
    1014215438,
    1014215374,
    1014215402,
    1014215413,
    1014234453,
    317991485,
    1014215393,
    1014215406,
    1014215421,
    1014215429,
    1014219134,
    1014219166,
    1014234456,
    1014219168,
    1014215390,
    1014215404
  ],
  "tags": {
    "building": "yes",
    "name": "Työväenmuseo Werstas",
    "opening_hours": "Tu-Su 11:00-18:00",
    "tourism": "museum",
    "wheelchair": "yes"
  }
},
{
  "type": "way",
  "id": 93350227,
  "nodes": [
    1082390344,
    1082390949,
    1082390162,
    1082390558,
    4799229255,
    1082390344
  ],
  "tags": {
    "addr:city": "Tampere",
    "addr:housenumber": "34",
    "addr:postcode": "33230",
    "addr:street": "Puutarhakatu",
    "building": "yes",
    "email": "tamu@tampere.fi",
    "name": "Tampereen taidemuseo",
    "name:en": "Tampere Art Museum",
    "name:fi": "Tampereen taidemuseo",
    "name:sv": "Tammerfors konstmuseum",
    "opening_hours": "Tu-Th 09:00-17:00; Fr 09:00-18:00; Sa-Su 10:00-18:00",
    "phone": "+358 3 5656 6577",
    "source": "Bing",
    "toilets:access": "customers",
    "toilets:wheelchair": "yes",
    "tourism": "museum",
    "website": "http://tampereentaidemuseo.fi/",
    "wheelchair": "yes",
    "wikidata": "Q10690515",
    "wikipedia": "fi:Tampereen taidemuseo"
  }
},
{
  "type": "way",
  "id": 164495899,
  "nodes": [
    1761264763,
    1761264767,
    1761264773,
    1761264771,
    1761264704,
    1761264713,
    1761264709,
    1761264758,
    1761264763
  ],
  "tags": {
    "building": "yes",
    "name": "Myttäälän kyläkoulu",
    "tourism": "museum"
  }
},
{
  "type": "way",
  "id": 217738260,
  "nodes": [
    2270394852,
    2270394857,
    2270394854,
    2318852602,
    2270394859,
    2270394852
  ],
  "tags": {
    "name": "Kotiseutumuseo",
    "tourism": "museum"
  }
},
{
  "type": "way",
  "id": 221588484,
  "nodes": [
    2306250706,
    1499884930,
    2306250705,
    2306250708,
    2306250702,
    2306250709,
    2306250706
  ],
  "tags": {
    "building": "yes",
    "name": "Vehoniemen automuseo",
    "source": "MML orto",
    "tourism": "museum",
    "wikidata": "Q11900703"
  }
},
{
  "type": "way",
  "id": 553246073,
  "nodes": [
    5340664425,
    5340664426,
    5340664427,
    5340664428,
    5340664425
  ],
  "tags": {
    "building": "yes",
    "tourism": "museum"
  }
},
{
  "type": "way",
  "id": 553246074,
  "nodes": [
    5340664429,
    5340664430,
    5340664431,
    5340664432,
    5340664429
  ],
  "tags": {
    "building": "yes",
    "tourism": "museum"
  }
},
{
  "type": "way",
  "id": 553246075,
  "nodes": [
    5340664433,
    5340664434,
    5340664435,
    5340664436,
    5340664433
  ],
  "tags": {
    "building": "yes",
    "tourism": "museum"
  }
},
{
  "type": "way",
  "id": 553246076,
  "nodes": [
    5340664437,
    5340664438,
    5340664439,
    5340664440,
    5340664437
  ],
  "tags": {
    "building": "yes",
    "tourism": "museum"
  }
},
{
  "type": "node",
  "id": 409495532,
  "lat": 61.1716664,
  "lon": 23.8594622
},
{
  "type": "node",
  "id": 409495533,
  "lat": 61.1717785,
  "lon": 23.8590098
},
{
  "type": "node",
  "id": 409495534,
  "lat": 61.1718509,
  "lon": 23.8591208
},
{
  "type": "node",
  "id": 409495535,
  "lat": 61.1719097,
  "lon": 23.8593207
},
{
  "type": "node",
  "id": 409495536,
  "lat": 61.1719497,
  "lon": 23.8594624
},
{
  "type": "node",
  "id": 409495537,
  "lat": 61.1719750,
  "lon": 23.8595840
},
{
  "type": "node",
  "id": 409495538,
  "lat": 61.1719209,
  "lon": 23.8596155
},
{
  "type": "node",
  "id": 409495539,
  "lat": 61.1719381,
  "lon": 23.8597640
},
{
  "type": "node",
  "id": 409495540,
  "lat": 61.1719307,
  "lon": 23.8599540
},
{
  "type": "node",
  "id": 409495541,
  "lat": 61.1719089,
  "lon": 23.8600968
},
{
  "type": "node",
  "id": 409495542,
  "lat": 61.1718656,
  "lon": 23.8602557
},
{
  "type": "node",
  "id": 409495543,
  "lat": 61.1718080,
  "lon": 23.8603767
},
{
  "type": "node",
  "id": 409495544,
  "lat": 61.1717418,
  "lon": 23.8604660
},
{
  "type": "node",
  "id": 409495545,
  "lat": 61.1716933,
  "lon": 23.8605008
},
{
  "type": "node",
  "id": 409495546,
  "lat": 61.1716448,
  "lon": 23.8601703
},
{
  "type": "node",
  "id": 409495547,
  "lat": 61.1716904,
  "lon": 23.8601304
},
{
  "type": "node",
  "id": 409495548,
  "lat": 61.1717368,
  "lon": 23.8600396
},
{
  "type": "node",
  "id": 409495549,
  "lat": 61.1717649,
  "lon": 23.8598819
},
{
  "type": "node",
  "id": 409495550,
  "lat": 61.1717652,
  "lon": 23.8597263
},
{
  "type": "node",
  "id": 409495551,
  "lat": 61.1717356,
  "lon": 23.8595948
},
{
  "type": "node",
  "id": 409495552,
  "lat": 61.1716992,
  "lon": 23.8595146
},
{
  "type": "node",
  "id": 409496495,
  "lat": 61.1718827,
  "lon": 23.8591700
},
{
  "type": "node",
  "id": 409496497,
  "lat": 61.1718644,
  "lon": 23.8592149
},
{
  "type": "node",
  "id": 2625112033,
  "lat": 61.1717234,
  "lon": 23.8595679
},
{
  "type": "node",
  "id": 2625147019,
  "lat": 61.1716679,
  "lon": 23.8601515
},
{
  "type": "node",
  "id": 2625147021,
  "lat": 61.1717032,
  "lon": 23.8601054
},
{
  "type": "node",
  "id": 2625147023,
  "lat": 61.1717538,
  "lon": 23.8599440
},
{
  "type": "node",
  "id": 2625147025,
  "lat": 61.1716866,
  "lon": 23.8594945
},
{
  "type": "node",
  "id": 2625147033,
  "lat": 61.1717650,
  "lon": 23.8598079
},
{
  "type": "node",
  "id": 2625147035,
  "lat": 61.1717520,
  "lon": 23.8596676
},
{
  "type": "node",
  "id": 1082390344,
  "lat": 61.4984740,
  "lon": 23.7435965
},
{
  "type": "node",
  "id": 1082390949,
  "lat": 61.4986673,
  "lon": 23.7435037
},
{
  "type": "node",
  "id": 1082390162,
  "lat": 61.4987116,
  "lon": 23.7439089
},
{
  "type": "node",
  "id": 1082390558,
  "lat": 61.4985183,
  "lon": 23.7440017
},
{
  "type": "node",
  "id": 4799229255,
  "lat": 61.4984963,
  "lon": 23.7438002
},
{
  "type": "node",
  "id": 317991485,
  "lat": 61.5016051,
  "lon": 23.7594522
},
{
  "type": "node",
  "id": 1014215374,
  "lat": 61.5016344,
  "lon": 23.7592018
},
{
  "type": "node",
  "id": 1014215383,
  "lat": 61.5016803,
  "lon": 23.7591217
},
{
  "type": "node",
  "id": 1014215386,
  "lat": 61.5016726,
  "lon": 23.7591378
},
{
  "type": "node",
  "id": 1014215390,
  "lat": 61.5012976,
  "lon": 23.7589927
},
{
  "type": "node",
  "id": 1014215393,
  "lat": 61.5016039,
  "lon": 23.7595003
},
{
  "type": "node",
  "id": 1014215402,
  "lat": 61.5016171,
  "lon": 23.7592921
},
{
  "type": "node",
  "id": 1014215404,
  "lat": 61.5016748,
  "lon": 23.7588742
},
{
  "type": "node",
  "id": 1014215406,
  "lat": 61.5015674,
  "lon": 23.7597073
},
{
  "type": "node",
  "id": 1014215413,
  "lat": 61.5015962,
  "lon": 23.7592936
},
{
  "type": "node",
  "id": 1014215415,
  "lat": 61.5016831,
  "lon": 23.7590970
},
{
  "type": "node",
  "id": 1014215421,
  "lat": 61.5015539,
  "lon": 23.7597202
},
{
  "type": "node",
  "id": 1014215423,
  "lat": 61.5016797,
  "lon": 23.7589416
},
{
  "type": "node",
  "id": 1014215429,
  "lat": 61.5013572,
  "lon": 23.7597817
},
{
  "type": "node",
  "id": 1014215438,
  "lat": 61.5016351,
  "lon": 23.7591450
},
{
  "type": "node",
  "id": 1014219134,
  "lat": 61.5013475,
  "lon": 23.7596493
},
{
  "type": "node",
  "id": 1014219166,
  "lat": 61.5013402,
  "lon": 23.7595517
},
{
  "type": "node",
  "id": 1014219168,
  "lat": 61.5013011,
  "lon": 23.7590422
},
{
  "type": "node",
  "id": 1014234453,
  "lat": 61.5015977,
  "lon": 23.7593202
},
{
  "type": "node",
  "id": 1014234456,
  "lat": 61.5013295,
  "lon": 23.7594068
},
{
  "type": "node",
  "id": 256672570,
  "lat": 61.5027698,
  "lon": 23.7606678
},
{
  "type": "node",
  "id": 256672571,
  "lat": 61.5027492,
  "lon": 23.7616033
},
{
  "type": "node",
  "id": 256672572,
  "lat": 61.5028198,
  "lon": 23.7614095
},
{
  "type": "node",
  "id": 256672573,
  "lat": 61.5029382,
  "lon": 23.7615990
},
{
  "type": "node",
  "id": 256672574,
  "lat": 61.5030178,
  "lon": 23.7613805
},
{
  "type": "node",
  "id": 256672575,
  "lat": 61.5028930,
  "lon": 23.7611808
},
{
  "type": "node",
  "id": 256672576,
  "lat": 61.5030752,
  "lon": 23.7606807
},
{
  "type": "node",
  "id": 256672578,
  "lat": 61.5032645,
  "lon": 23.7609837
},
{
  "type": "node",
  "id": 256672579,
  "lat": 61.5033870,
  "lon": 23.7606473
},
{
  "type": "node",
  "id": 256672580,
  "lat": 61.5032192,
  "lon": 23.7603789
},
{
  "type": "node",
  "id": 256672581,
  "lat": 61.5034124,
  "lon": 23.7598488
},
{
  "type": "node",
  "id": 256672582,
  "lat": 61.5033052,
  "lon": 23.7596773
},
{
  "type": "node",
  "id": 256672583,
  "lat": 61.5034656,
  "lon": 23.7592370
},
{
  "type": "node",
  "id": 256672584,
  "lat": 61.5032241,
  "lon": 23.7588506
},
{
  "type": "node",
  "id": 1021403690,
  "lat": 61.5025469,
  "lon": 23.7612796
},
{
  "type": "node",
  "id": 2103220073,
  "lat": 61.5026386,
  "lon": 23.7604579
},
{
  "type": "node",
  "id": 5859411159,
  "lat": 61.5026056,
  "lon": 23.7613736
},
{
  "type": "node",
  "id": 5340664425,
  "lat": 61.2609250,
  "lon": 24.0263952
},
{
  "type": "node",
  "id": 5340664426,
  "lat": 61.2607907,
  "lon": 24.0263224
},
{
  "type": "node",
  "id": 5340664427,
  "lat": 61.2607752,
  "lon": 24.0264455
},
{
  "type": "node",
  "id": 5340664428,
  "lat": 61.2609096,
  "lon": 24.0265183
},
{
  "type": "node",
  "id": 5340664429,
  "lat": 61.2610174,
  "lon": 24.0258946
},
{
  "type": "node",
  "id": 5340664430,
  "lat": 61.2609414,
  "lon": 24.0258398
},
{
  "type": "node",
  "id": 5340664431,
  "lat": 61.2609189,
  "lon": 24.0259746
},
{
  "type": "node",
  "id": 5340664432,
  "lat": 61.2609949,
  "lon": 24.0260294
},
{
  "type": "node",
  "id": 5340664433,
  "lat": 61.2613092,
  "lon": 24.0270393
},
{
  "type": "node",
  "id": 5340664434,
  "lat": 61.2612580,
  "lon": 24.0268075
},
{
  "type": "node",
  "id": 5340664435,
  "lat": 61.2611913,
  "lon": 24.0268712
},
{
  "type": "node",
  "id": 5340664436,
  "lat": 61.2612425,
  "lon": 24.0271030
},
{
  "type": "node",
  "id": 5340664437,
  "lat": 61.2607734,
  "lon": 24.0272894
},
{
  "type": "node",
  "id": 5340664438,
  "lat": 61.2607154,
  "lon": 24.0272423
},
{
  "type": "node",
  "id": 5340664439,
  "lat": 61.2607015,
  "lon": 24.0273159
},
{
  "type": "node",
  "id": 5340664440,
  "lat": 61.2607596,
  "lon": 24.0273631
},
{
  "type": "node",
  "id": 1761264704,
  "lat": 61.3412352,
  "lon": 24.2107692
},
{
  "type": "node",
  "id": 1761264709,
  "lat": 61.3411920,
  "lon": 24.2107424
},
{
  "type": "node",
  "id": 1761264713,
  "lat": 61.3412087,
  "lon": 24.2107100
},
{
  "type": "node",
  "id": 1761264758,
  "lat": 61.3411610,
  "lon": 24.2106732
},
{
  "type": "node",
  "id": 1761264763,
  "lat": 61.3409511,
  "lon": 24.2110822
},
{
  "type": "node",
  "id": 1761264767,
  "lat": 61.3410284,
  "lon": 24.2112546
},
{
  "type": "node",
  "id": 1761264771,
  "lat": 61.3412178,
  "lon": 24.2108032
},
{
  "type": "node",
  "id": 1761264773,
  "lat": 61.3412375,
  "lon": 24.2108472
},
{
  "type": "node",
  "id": 1499884930,
  "lat": 61.4083818,
  "lon": 24.1579698
},
{
  "type": "node",
  "id": 2306250702,
  "lat": 61.4082433,
  "lon": 24.1577440
},
{
  "type": "node",
  "id": 2306250705,
  "lat": 61.4083450,
  "lon": 24.1579099
},
{
  "type": "node",
  "id": 2306250706,
  "lat": 61.4086582,
  "lon": 24.1572298
},
{
  "type": "node",
  "id": 2306250708,
  "lat": 61.4082564,
  "lon": 24.1577653
},
{
  "type": "node",
  "id": 2306250709,
  "lat": 61.4085198,
  "lon": 24.1570040
},
{
  "type": "node",
  "id": 2270394852,
  "lat": 61.4646359,
  "lon": 24.0692100
},
{
  "type": "node",
  "id": 2270394854,
  "lat": 61.4645232,
  "lon": 24.0694878
},
{
  "type": "node",
  "id": 2270394857,
  "lat": 61.4646455,
  "lon": 24.0694679
},
{
  "type": "node",
  "id": 2270394859,
  "lat": 61.4645136,
  "lon": 24.0692298
},
{
  "type": "node",
  "id": 2318852602,
  "lat": 61.4645183,
  "lon": 24.0693565
}

  ]
}
