{
  "version": 0.6,
  "generator": "Overpass API 0.7.55.1011 6c2efc30",
  "osm3s": {
    "timestamp_osm_base": "2020-02-14T14:31:02Z",
    "copyright": "The data included in this document is from www.openstreetmap.org. The data is made available under ODbL."
  },
  "elements": [

{
  "type": "node",
  "id": 1595931510,
  "lat": 47.0006634,
  "lon": 21.4883826,
  "tags": {
    "tourism": "museum"
  }
},
{
  "type": "node",
  "id": 2634651830,
  "lat": 47.0579320,
  "lon": 21.9351420,
  "tags": {
    "LMI": "BH-IV-m-B-01256",
    "SIRUTA:code": "26573",
    "addr:city": "Oradea",
    "addr:housenumber": "1",
    "addr:postcode": "410033",
    "addr:street": "Strada Parcul Traian",
    "codul_entității_muzeale": "6908501.0",
    "description:en": "Founded in the former Müllerei café, frequented by the poet.",
    "description:ro": "infiintat in fosta cafenea Mullerei, frecventata de poet.",
    "email": "contact@mtariicrisurilor.ro; istorie@mtariicrisurilor.ro",
    "fax": "0259/479.918",
    "name": "Muzeul Memorial \"Ady Endre\"",
    "name:en": "\"Ady Endre\" Memorial Museum",
    "name:hu": "Ady Endre emlékmúzeum (egykori Müllerei cukrászda)",
    "opening_hours": "Tu,Th,Sa 08:00-15:00; We,Fr,Su 10:00-14:00,16:00-18:00; Mo closed",
    "phone": "0259/412.724, 0259/412.725, int. 214",
    "source": "INP",
    "source:link": "http://date.gov.ro/dataset/ghidul-muzeelor-din-romania",
    "start_date": "1955",
    "tourism": "museum",
    "tourism_survey": "05.12.2013 11:30:25",
    "website": "https://mtariicrisurilor.ro/",
    "wikipedia": "hu:Ady Endre Emlékmúzeum (Nagyvárad)"
  }
},
{
  "type": "node",
  "id": 2634651846,
  "lat": 46.8023660,
  "lon": 21.6633180,
  "tags": {
    "LMI": "BH-II-m-B-00997",
    "SIRUTA:code": "26984",
    "addr:city": "Salonta",
    "addr:housenumber": "4",
    "addr:postcode": "415500",
    "addr:street": "Piața Libertății",
    "alt_name": "Muzeul turnului Ciunt",
    "codul_entității_muzeale": "7009500.0",
    "description:ro": "Fiului poetului, Arany Laszlo, a donat manuscrise originale, o parte a bibliotecii si mobilierul din camera de lucru a tatalui sau.",
    "historic": "memorial",
    "name": "\"Arany János\" Emlékmúzeum",
    "name:en": "\"Arany Janos\" Memorial Museum",
    "opening_hours": "Tu-Su 10:00-16:00; Mo closed",
    "phone": "0259/371.157",
    "source": "INP",
    "source:link": "http://date.gov.ro/dataset/ghidul-muzeelor-din-romania",
    "start_date": "1885",
    "tourism": "museum",
    "tourism_survey": "22.08.2012 13:14:52"
  }
},
{
  "type": "node",
  "id": 2634651850,
  "lat": 47.0566090,
  "lon": 21.9342220,
  "tags": {
    "LMI": "BH-IV-M-01253",
    "SIRUTA:code": "26573",
    "addr:city": "Oradea",
    "addr:housenumber": "13",
    "addr:postcode": "410043",
    "addr:street": "Strada Aurel Lazăr",
    "codul_entității_muzeale": "6908502.0",
    "description:ro": "Deschis la data de 01. 12. 2008.",
    "email": "contact@mtariicrisurilor.ro; istorie@mtariicrisurilor.ro",
    "fax": "0259/479.918",
    "historic": "memorial",
    "museum_type": "Historical Personalities",
    "name": "Muzeul Memorial \"Aurel Lazăr\"",
    "name:en": "\"Aurel Lazar\" Memorial House",
    "opening_hours": "Tu,Th,Sa 10:00-15:00; We,Fr,Su 10:00-14:00,16:00-18:00; Mo closed",
    "phone": "0259/442.112",
    "source": "INP",
    "source:link": "http://date.gov.ro/dataset/ghidul-muzeelor-din-romania",
    "start_date": "2008",
    "tourism": "museum",
    "tourism_survey": "05.12.2013 11:30:25",
    "website": "https://mtariicrisurilor.ro/"
  }
},
{
  "type": "node",
  "id": 2634651998,
  "lat": 47.0560046,
  "lon": 21.9334563,
  "tags": {
    "LMI": "BH-IV-m-B-01257",
    "SIRUTA:code": "26573",
    "addr:city": "Oradea",
    "addr:housenumber": "14",
    "addr:postcode": "410041",
    "addr:street": "Strada Iosif Vulcan",
    "codul_entității_muzeale": "6.908502E7",
    "description:en": "The musem was founded in the house were Iosif Vulcan lived.",
    "description:ro": "Muzeul a fost infiintat in casa in care a locuit Iosif Vulcan.",
    "email": "contact@mtariicrisurilor.ro",
    "fax": "0259/479.918",
    "historic": "memorial",
    "name": "Muzeul Memorial \"Iosif Vulcan\"",
    "name:en": "\"Iosif Vulcan\" Memorial Museum",
    "name:hu": "Iosif Vulcan emlékmúzeum",
    "opening_hours": "Tu,Th,Sa 08:00-15:00; We,Fr,Su 10:00-14:00,16:00-18:00",
    "phone": "0259/463.755",
    "source": "INP",
    "source:link": "http://date.gov.ro/dataset/ghidul-muzeelor-din-romania",
    "start_date": "1965",
    "tourism": "museum",
    "tourism_survey": "16.10.2013 11:03:37",
    "website": "https://mtariicrisurilor.ro/"
  }
},
{
  "type": "node",
  "id": 2634652419,
  "lat": 47.0514722,
  "lon": 21.9421442,
  "tags": {
    "SIRUTA:code": "26573",
    "addr:city": "Oradea",
    "codul_entității_muzeale": "6908505.0",
    "name": "Muzeul de Istorie al Cetății Oradea",
    "name:en": "History Museum of Oradea Citadel",
    "name:hu": "Vármúzeum",
    "source": "INP",
    "source:link": "http://date.gov.ro/dataset/ghidul-muzeelor-din-romania",
    "tourism": "museum",
    "tourism_survey": "30.11.2011 13:43:21"
  }
},
{
  "type": "node",
  "id": 2634652851,
  "lat": 46.7728450,
  "lon": 21.9384490,
  "tags": {
    "SIRUTA:code": "31798",
    "addr:city": "Tinca",
    "addr:housenumber": "57",
    "addr:postcode": "417595",
    "addr:street": "Strada Avram Iancu",
    "codul_entității_muzeale": "6908506.0",
    "email": "berkesandor@gmail.com",
    "leisure": "garden",
    "museum_type": "Natural Sciences",
    "name": "Muzeul de Științe Naturale",
    "name:en": "Natural Sciences Museum",
    "opening_hours": "Tu 10:00-12:00, Fr 16:00-18:00 ;unknown",
    "phone": "0259/310.0299",
    "source": "INP",
    "source:link": "http://date.gov.ro/dataset/ghidul-muzeelor-din-romania",
    "start_date": "1956",
    "tourism": "museum",
    "tourism_survey": "15.11.2013 12:40:21"
  }
},
{
  "type": "node",
  "id": 2634652866,
  "lat": 47.0587830,
  "lon": 21.9331800,
  "tags": {
    "SIRUTA:code": "26573",
    "addr:city": "Oradea",
    "addr:housenumber": "3",
    "addr:street": "Strada Episcop Roman Ciorogariu",
    "codul_entității_muzeale": "5.143000004E9",
    "fax": "0259/433.487",
    "name": "Colecția Muzeală a Episcopiei Ortodoxe",
    "name:en": "Oradea Orthodox Bishopric Museum Collection",
    "name:hu": "A nagyváradi ortodox egyházmegyei központ múzeuma",
    "phone": "0259/433.487",
    "source": "INP",
    "source:link": "http://date.gov.ro/dataset/ghidul-muzeelor-din-romania",
    "tourism": "museum",
    "tourism_survey": "07.08.2013 15:24:04"
  }
},
{
  "type": "node",
  "id": 3462322993,
  "lat": 47.2815940,
  "lon": 21.8083980,
  "tags": {
    "name": "Tájház",
    "source": "turistautak.hu",
    "source:date": "2011-03-29",
    "tourism": "museum",
    "url": "http://turistautak.hu/poi.php?id=82643"
  }
},
{
  "type": "node",
  "id": 3485173355,
  "lat": 46.9689000,
  "lon": 21.6084170,
  "tags": {
    "description": "Múzeumként működik.",
    "fixme": "resurvey (source was old)",
    "name": "Szabó Pál szülőháza",
    "source": "turistautak.hu",
    "source:date": "2009-10-05",
    "tourism": "museum",
    "url": "http://turistautak.hu/poi.php?id=79656"
  }
},
{
  "type": "node",
  "id": 4048696402,
  "lat": 46.8842200,
  "lon": 21.5789080,
  "tags": {
    "name": "Arany János Emlékház",
    "source": "turistautak.hu",
    "tourism": "museum",
    "url": "http://turistautak.hu/poi.php?id=78736"
  }
},
{
  "type": "node",
  "id": 6551718787,
  "lat": 47.0687850,
  "lon": 21.9313190,
  "tags": {
    "addr:postcode": "410161",
    "description:en": "The exhibits include rare books, decorative art and fine arts items.",
    "description:ro": "Basilica romano-catolica impreuna cu Palatul Baroc (sediul Episcopiei Romano-Catolice si temporar al Muzeului Tarii Crisurilor Oradea, pana la mutarea in sediul de pe strada Armatei nr.1/A), Sirul Canonicilor din apropiere formeaza cel mai important co...",
    "email": "fodor_joseph@freemail.hu",
    "foundation_date": "1992",
    "name": "Colecția muzeală a Episcopiei Romano-Catolice Oradea",
    "name:en": "Romano-Catholic Bishopric Museum Collection of Oradea",
    "opening_hours": "Tuesday - Saturday: 9:00 - 16:00; Monday: closed; Sunday closed during the religious service",
    "phone": "(+40) 259.41.82.35",
    "ref:codul_entitații_muzeale": "520400076",
    "reviewed": "no",
    "tourism": "museum"
  }
},
{
  "type": "node",
  "id": 6551718822,
  "lat": 47.0680340,
  "lon": 21.9314390,
  "tags": {
    "addr:postcode": "410464",
    "description:en": "Between 1872 and 1896, the History and Archaeology Society of the Bihor County organised a museum in Oradea and gathered rich collections. In 1896, the museum opened in a place of its own, and after the World War I, in 1921, the museum reopened. In 194...",
    "description:ro": "In a doua jumatate a secolului al XVIII-lea, la 23 mai 1752, conform documentelor existente, s-a pus piatra de temelie a Palatului Baroc, destinat a fi sediu al Episcopiei Romano-Catolice de Oradea, care impreuna cu Basilica romano-catolica si cu Sirul...",
    "email": "contact@mtariicrisurilor.ro",
    "fax": "(+40) 259479918",
    "foundation_date": "1971",
    "name": "Muzeul Țării Crișurilor",
    "name:en": "Cris Land Museum",
    "opening_hours": "Tu,Th,Sa 10:00-15:00; We,Fr,Su 10:00-18:00",
    "phone": "(+40) 259.412.724;(+40) 259/412.725",
    "ref:codul_entitații_muzeale": "6908500",
    "reviewed": "no",
    "tourism": "museum",
    "website": "http://www.mtariicrisurilor.ro"
  }
},
{
  "type": "node",
  "id": 6551718826,
  "lat": 47.0466360,
  "lon": 21.9233910,
  "tags": {
    "addr:postcode": "410087",
    "description:en": "The collection includes military items: weapons, uniforms, medals, documents, and photos. Many documents and objects were donated by veterans of the 11th Infantry Division in Oradea and their families while others belonged to the National Military Muse...",
    "description:ro": "Colectia detine obiecte de istorie militara;arme, uniforme, medalii, documente, fotografii. Patrimoniul muzeului este alcatuit din documente si obiecte donate de veterani ai Diviziei 11 Infanterie (fosta Divizie 11 Mecanizata din Oradea) si de familii...",
    "foundation_date": "1971",
    "name": "Muzeul Militar National Regele Ferdinand I  Filiala Oradea",
    "name:en": "King Ferdinand I National Military Museum. Oradea Branch",
    "ref:codul_entitații_muzeale": "6908510",
    "reviewed": "no",
    "tourism": "museum"
  }
},
{
  "type": "way",
  "id": 81495785,
  "nodes": [
    2015543244,
    2015543353,
    2015543341,
    2015543137,
    2015543272,
    2015543404,
    2015543190,
    2015543343,
    2015543145,
    2015543293,
    2015543289,
    2015543288,
    2015543236,
    2015543305,
    2015543417,
    2015543175,
    949594877,
    949594871,
    2015543244
  ],
  "tags": {
    "LMI": "BH-II-m-A-01042",
    "SIRUTA:code": "26573",
    "building": "public",
    "codul_entității_muzeale": "6908500.0",
    "description:en": "Between 1872 - 1896, functioned the Museum of the History and Archaeology Society of the Bihor county. In 1896 the Museum was opened in a place of its own, and in 1921 the museum was reopened. In 1948 it became state property. Between 1950 - 1970 it func",
    "description:ro": "intre anii 1872 - 1896, functioneaza Muzeul Societatii de Istorie si Arheologie a Judetului Bihor. in 1896 are loc deschiderea Muzeului in local propriu, iar in 1921 - redeschiderea muzeului care in 1948 trece in proprietatea statului. Timp de 25 de ani,",
    "email": "contact@mtariicrisurilor.ro",
    "name": "Museul Țării Crișurilor",
    "name:en": "Criș Land Museum",
    "name:hu": "Körösvidéki Múzeum",
    "tourism": "museum",
    "website": "https://mtariicrisurilor.ro/"
  }
},
{
  "type": "way",
  "id": 262123910,
  "nodes": [
    2677729119,
    2677729112,
    2677729145,
    2677729142,
    2677729131,
    2677729135,
    2677729115,
    2677729150,
    2677729128,
    2677729101,
    2677729148,
    2677729139,
    2677729110,
    2677729105,
    2677729122,
    2677729125,
    2677729119
  ],
  "tags": {
    "addr:city": "Oradea",
    "addr:housenumber": "24A",
    "addr:street": "Calea Armatei Române",
    "building": ",",
    "name": "Muzeul Militar Național Regele Ferdinand I",
    "tourism": "museum"
  }
},
{
  "type": "way",
  "id": 286245386,
  "nodes": [
    2898939415,
    2898939416,
    2898939417,
    2898939418,
    2898939415
  ],
  "tags": {
    "addr:city": "Oradea",
    "addr:housenumber": "25",
    "addr:street": "Strada Primăriei",
    "building": "yes",
    "name": "Muzeul Istoriei Evreilor din Oradea",
    "tourism": "museum"
  }
},
{
  "type": "node",
  "id": 949594871,
  "lat": 47.0489444,
  "lon": 21.9242220
},
{
  "type": "node",
  "id": 949594877,
  "lat": 47.0486988,
  "lon": 21.9236013
},
{
  "type": "node",
  "id": 2015543137,
  "lat": 47.0496099,
  "lon": 21.9230998
},
{
  "type": "node",
  "id": 2015543145,
  "lat": 47.0495165,
  "lon": 21.9234421
},
{
  "type": "node",
  "id": 2015543175,
  "lat": 47.0488654,
  "lon": 21.9234594
},
{
  "type": "node",
  "id": 2015543190,
  "lat": 47.0494973,
  "lon": 21.9235386
},
{
  "type": "node",
  "id": 2015543236,
  "lat": 47.0489843,
  "lon": 21.9239832
},
{
  "type": "node",
  "id": 2015543244,
  "lat": 47.0499397,
  "lon": 21.9233738
},
{
  "type": "node",
  "id": 2015543272,
  "lat": 47.0496751,
  "lon": 21.9230442
},
{
  "type": "node",
  "id": 2015543288,
  "lat": 47.0492600,
  "lon": 21.9237482
},
{
  "type": "node",
  "id": 2015543289,
  "lat": 47.0491232,
  "lon": 21.9234024
},
{
  "type": "node",
  "id": 2015543293,
  "lat": 47.0494056,
  "lon": 21.9231618
},
{
  "type": "node",
  "id": 2015543305,
  "lat": 47.0488809,
  "lon": 21.9237219
},
{
  "type": "node",
  "id": 2015543341,
  "lat": 47.0495266,
  "lon": 21.9228892
},
{
  "type": "node",
  "id": 2015543343,
  "lat": 47.0494735,
  "lon": 21.9234786
},
{
  "type": "node",
  "id": 2015543353,
  "lat": 47.0496921,
  "lon": 21.9227481
},
{
  "type": "node",
  "id": 2015543404,
  "lat": 47.0497765,
  "lon": 21.9233006
},
{
  "type": "node",
  "id": 2015543417,
  "lat": 47.0489470,
  "lon": 21.9236656
},
{
  "type": "node",
  "id": 2677729101,
  "lat": 47.0469404,
  "lon": 21.9237059
},
{
  "type": "node",
  "id": 2677729105,
  "lat": 47.0465421,
  "lon": 21.9233653
},
{
  "type": "node",
  "id": 2677729110,
  "lat": 47.0465622,
  "lon": 21.9233224
},
{
  "type": "node",
  "id": 2677729112,
  "lat": 47.0463429,
  "lon": 21.9233492
},
{
  "type": "node",
  "id": 2677729115,
  "lat": 47.0467759,
  "lon": 21.9237274
},
{
  "type": "node",
  "id": 2677729119,
  "lat": 47.0462626,
  "lon": 21.9235337
},
{
  "type": "node",
  "id": 2677729122,
  "lat": 47.0462752,
  "lon": 21.9231158
},
{
  "type": "node",
  "id": 2677729125,
  "lat": 47.0461443,
  "lon": 21.9234290
},
{
  "type": "node",
  "id": 2677729128,
  "lat": 47.0468180,
  "lon": 21.9240171
},
{
  "type": "node",
  "id": 2677729131,
  "lat": 47.0465841,
  "lon": 21.9236871
},
{
  "type": "node",
  "id": 2677729135,
  "lat": 47.0466207,
  "lon": 21.9235933
},
{
  "type": "node",
  "id": 2677729139,
  "lat": 47.0466938,
  "lon": 21.9234377
},
{
  "type": "node",
  "id": 2677729142,
  "lat": 47.0464824,
  "lon": 21.9236006
},
{
  "type": "node",
  "id": 2677729145,
  "lat": 47.0465208,
  "lon": 21.9235041
},
{
  "type": "node",
  "id": 2677729148,
  "lat": 47.0466773,
  "lon": 21.9234806
},
{
  "type": "node",
  "id": 2677729150,
  "lat": 47.0467035,
  "lon": 21.9239145
},
{
  "type": "node",
  "id": 2898939415,
  "lat": 47.0571540,
  "lon": 21.9230254
},
{
  "type": "node",
  "id": 2898939416,
  "lat": 47.0571287,
  "lon": 21.9233305
},
{
  "type": "node",
  "id": 2898939417,
  "lat": 47.0569722,
  "lon": 21.9233025
},
{
  "type": "node",
  "id": 2898939418,
  "lat": 47.0569975,
  "lon": 21.9229974
}

  ]
}
