{
  "version": 0.6,
  "generator": "Overpass API 0.7.55.1011 6c2efc30",
  "osm3s": {
    "timestamp_osm_base": "2020-02-14T11:37:02Z",
    "copyright": "The data included in this document is from www.openstreetmap.org. The data is made available under ODbL."
  },
  "elements": [

{
  "type": "node",
  "id": 493904059,
  "lat": 49.8686674,
  "lon": 18.2653498,
  "tags": {
    "email": "landekpark@vitkovice.cz",
    "name": "Hornické muzeum",
    "operator": "Landek Park",
    "phone": "+420 596 131 804",
    "tourism": "museum",
    "website": "http://www.landekpark.cz/",
    "wikidata": "Q11324674",
    "wikipedia": "cs:Hornické muzeum Landek Park"
  }
},
{
  "type": "node",
  "id": 653145977,
  "lat": 49.6472621,
  "lon": 17.9346866,
  "tags": {
    "name": "Muzeum Moravských bratří",
    "tourism": "museum"
  }
},
{
  "type": "node",
  "id": 759793325,
  "lat": 49.7559917,
  "lon": 18.0164030,
  "tags": {
    "name": "Muzeum",
    "tourism": "museum"
  }
},
{
  "type": "node",
  "id": 922400563,
  "lat": 49.8169641,
  "lon": 18.2724281,
  "tags": {
    "name": "Muzeum Vítkovic",
    "tourism": "museum"
  }
},
{
  "type": "node",
  "id": 945736899,
  "lat": 49.8424715,
  "lon": 18.3445510,
  "tags": {
    "email": "dulmichal@npu.cz",
    "name": "Důl Michal",
    "name:en": "Michal Mine",
    "phone": "+420 596 231 160",
    "tourism": "museum",
    "website": "https://www.dul-michal.cz/",
    "wikidata": "Q11863219",
    "wikipedia": "en:Michal Mine"
  }
},
{
  "type": "node",
  "id": 1184111701,
  "lat": 49.6617120,
  "lon": 17.8286078,
  "tags": {
    "addr:conscriptionnumber": "83",
    "addr:country": "CZ",
    "addr:housenumber": "83/32",
    "addr:place": "Odry",
    "addr:postcode": "74235",
    "addr:street": "Okružní",
    "addr:streetnumber": "32",
    "name": "Katovna",
    "ref:ruian:addr": "8465037",
    "tourism": "museum"
  }
},
{
  "type": "node",
  "id": 1332061097,
  "lat": 49.8377921,
  "lon": 18.2988336,
  "tags": {
    "name": "Muzeum Keltičkova kovárna",
    "source": "survey",
    "tourism": "museum",
    "website": "http://www.keltickovakovarna.wbs.cz/"
  }
},
{
  "type": "node",
  "id": 1627463250,
  "lat": 49.9252117,
  "lon": 18.2213383,
  "tags": {
    "fee": "yes",
    "name": "Areál čs. opevnění Hlučín - Darkovičky",
    "source": "knowledge",
    "tourism": "museum",
    "website": "http://www.szmo.cz/rubrika/41/expozicni-arealy/areal-cs-opevneni-hlucin-darkovicky.html"
  }
},
{
  "type": "node",
  "id": 2146331133,
  "lat": 50.0919906,
  "lon": 17.7105232,
  "tags": {
    "name": "Městské muzeum - Flemmichova vila",
    "tourism": "museum"
  }
},
{
  "type": "node",
  "id": 2146688353,
  "lat": 50.0473482,
  "lon": 17.7437835,
  "tags": {
    "name": "Muzeum Na faře",
    "tourism": "museum"
  }
},
{
  "type": "node",
  "id": 2239877957,
  "lat": 49.6477481,
  "lon": 17.9362381,
  "tags": {
    "name": "Muzeum vojenské historie",
    "tourism": "museum"
  }
},
{
  "type": "node",
  "id": 2244732323,
  "lat": 49.8965272,
  "lon": 18.1854254,
  "tags": {
    "name": "Muzeum Hlučínska",
    "source": "local knowledge",
    "tourism": "museum"
  }
},
{
  "type": "node",
  "id": 2421049633,
  "lat": 49.7126253,
  "lon": 17.9050907,
  "tags": {
    "name": "Památník J. A. Komenského",
    "tourism": "museum",
    "wikidata": "Q12043641",
    "wikipedia": "cs:Památník Jana Amose Komenského ve Fulneku"
  }
},
{
  "type": "node",
  "id": 2718790807,
  "lat": 49.8193161,
  "lon": 18.2806482,
  "tags": {
    "addr:conscriptionnumber": "2995",
    "addr:country": "CZ",
    "addr:housenumber": "2995/20a",
    "addr:place": "Vítkovice",
    "addr:postcode": "70300",
    "addr:street": "Ruská",
    "addr:streetnumber": "20a",
    "exposition": "yes",
    "interactive": "yes",
    "name": "U6",
    "ref:ruian:addr": "42219345",
    "tourism": "museum"
  }
},
{
  "type": "node",
  "id": 2815328523,
  "lat": 49.8289340,
  "lon": 18.2824855,
  "tags": {
    "contact:email": "zmms@zmms.cz",
    "contact:website": "http://www.zmms.cz/index.php",
    "name": "Železniční muzeum moravskoslezské",
    "opening_hours": "We 09:00-16:00; Th 12:00-16:00; Sa 09:00-16:00; Su 09:00-13:00",
    "tourism": "museum"
  }
},
{
  "type": "node",
  "id": 3271013370,
  "lat": 49.6476257,
  "lon": 17.9360396,
  "tags": {
    "addr:city": "74201",
    "addr:housenumber": "230",
    "addr:street": "Komenského",
    "name": "Muzeum městyse Suchdol nad Odrou",
    "operator": "Městys Suchdol nad Odrou",
    "tourism": "museum"
  }
},
{
  "type": "node",
  "id": 3386107064,
  "lat": 49.8642357,
  "lon": 17.8742733,
  "tags": {
    "checkpoint": "hiking",
    "checkpoint:name": "Hradec nad Moravicí",
    "checkpoint:type": "needler",
    "name": "Zámek Hradec nad Moravicí",
    "note": "Kontrollpunkt Bergwanderweg Eisenach–Budapest (EB)",
    "tourism": "museum"
  }
},
{
  "type": "node",
  "id": 3751708115,
  "lat": 49.9989741,
  "lon": 17.8094107,
  "tags": {
    "name": "Muzeum Slezský venkov Holasovice",
    "tourism": "museum"
  }
},
{
  "type": "node",
  "id": 3763714629,
  "lat": 49.6989253,
  "lon": 18.0961770,
  "tags": {
    "tourism": "museum"
  }
},
{
  "type": "node",
  "id": 3974949319,
  "lat": 49.9904291,
  "lon": 17.4650956,
  "tags": {
    "name": "Muzeum Bruntálska",
    "tourism": "museum"
  }
},
{
  "type": "node",
  "id": 4081768813,
  "lat": 49.8717867,
  "lon": 17.8761281,
  "tags": {
    "email": "mu.hradec@telecom.cz",
    "name": "Městské muzeum Hradce nad Moravicí",
    "phases": "+420 553 783 701",
    "tourism": "museum"
  }
},
{
  "type": "node",
  "id": 4583688739,
  "lat": 49.8350988,
  "lon": 18.2930085,
  "tags": {
    "contact:website": "http://www.ostrmuz.cz/",
    "name": "Ostravské muzeum",
    "opening_hours": "Mo-Fr 09:00-17:00; Sa 09:00-13:00; Su 13:00-17:00; PH off",
    "tourism": "museum",
    "wheelchair": "yes",
    "wikidata": "Q3565047"
  }
},
{
  "type": "node",
  "id": 4583691449,
  "lat": 49.8340563,
  "lon": 18.2867830,
  "tags": {
    "contact:email": "info@gvuo.cz",
    "contact:phone": "+420 596 112 566",
    "contact:website": "http://www.gvuo.cz",
    "name": "Galerie výtvarného umění v Ostravě",
    "old_name": "Dům Umění",
    "opening_hours": "Tu-Su 10:00-18:00",
    "tourism": "museum",
    "wikidata": "Q11292897",
    "wikipedia": "cs:Galerie výtvarného umění v Ostravě"
  }
},
{
  "type": "node",
  "id": 4592305411,
  "lat": 49.8368142,
  "lon": 18.2930445,
  "tags": {
    "contact:email": "info@muzeumhracekostrava.cz",
    "contact:facebook": "https://www.facebook.com/muzeumhracekostrava",
    "contact:phone": "+420604637590",
    "contact:website": "http://muzeumhracekostrava.cz",
    "level": "2",
    "name": "Muzeum hraček",
    "opening_hours": "Mo-Fr 09:00-19:00; Sa 09:00-13:00",
    "source": "survey",
    "tourism": "museum"
  }
},
{
  "type": "node",
  "id": 4755312823,
  "lat": 49.6706878,
  "lon": 18.0530389,
  "tags": {
    "name": "Dům přírody Poodří",
    "tourism": "museum"
  }
},
{
  "type": "node",
  "id": 4992841007,
  "lat": 49.9652685,
  "lon": 18.3060533,
  "tags": {
    "name": "Plenerowe muzeum Czarnego Dębu",
    "opening_hours": "24/7",
    "operator": "gmina Krzyżanowice",
    "tourism": "museum"
  }
},
{
  "type": "node",
  "id": 5250017449,
  "lat": 49.9870695,
  "lon": 18.1178750,
  "tags": {
    "contact:email": "himi.h@seznam.cz",
    "contact:phone": "+420 732 151 869",
    "contact:website": "https://www.muzeum-chuchelná.com",
    "name": "Vojenské muzeum Chuchelná",
    "opening_hours": "Sa,Su 10:00-12:00,13:00-17:00",
    "tourism": "museum"
  }
},
{
  "type": "node",
  "id": 5324549708,
  "lat": 49.7255404,
  "lon": 18.0750471,
  "tags": {
    "name": "Vagonářské muzeum",
    "tourism": "museum",
    "website": "https://www.vagonarske-muzeum.cz/"
  }
},
{
  "type": "way",
  "id": 52292755,
  "nodes": [
    665451099,
    665451100,
    665451097,
    665451098,
    665451103,
    665451104,
    665451101,
    665451102,
    665451096,
    4018265829,
    4018265830,
    665451119,
    665451117,
    665451118,
    665451116,
    665451108,
    665451110,
    665451109,
    665451089,
    665451088,
    665451090,
    4018265828,
    4018265827,
    665451105,
    665451099
  ],
  "tags": {
    "addr:conscriptionnumber": "419/10",
    "addr:street": "Komenského",
    "building": "civic",
    "building:levels": "2",
    "building:ruian:type": "15",
    "contact:email": "pokladnahvb@szm.cz",
    "contact:phone": "+420 553 714 809",
    "contact:website": "www.szm.cz",
    "name": "Slezské zemské muzeum Opava",
    "opening_hours": "09:00-19:00",
    "operator": "Ministerstvo kultury",
    "ref:ruian:building": "23964227",
    "source": "cuzk:ruian",
    "tourism": "museum",
    "wikidata": "Q651366",
    "wikipedia": "cs:Slezské zemské muzeum"
  }
},
{
  "type": "way",
  "id": 55948344,
  "nodes": [
    702345414,
    702345415,
    4517301185,
    4517301184,
    4517301183,
    4517301182,
    4517301181,
    4517301180,
    4517301179,
    702345416,
    4517301178,
    702345417,
    702345410,
    702345411,
    4517301177,
    4517301176,
    4517301175,
    702345413,
    4517301174,
    4517301173,
    4517301172,
    4517301171,
    4517301170,
    4517301169,
    4517301168,
    4517301167,
    4517301166,
    4517301165,
    4517301164,
    4517301163,
    4517301162,
    702345412,
    702345424,
    702345423,
    702345422,
    4517301161,
    4517301160,
    4517301159,
    4517301158,
    4517301157,
    4517301156,
    4517301155,
    4517301154,
    702345409,
    702345407,
    4517301153,
    4517301152,
    4517301151,
    702345408,
    4517301150,
    702345405,
    702345406,
    702345404,
    702345427,
    702345426,
    2193075672,
    4517301149,
    4517301148,
    702345421,
    702345425,
    702345418,
    702345420,
    4517301147,
    4517301146,
    702345419,
    702345414
  ],
  "tags": {
    "addr:conscriptionnumber": "192",
    "addr:country": "CZ",
    "addr:housenumber": "192",
    "addr:place": "Hrabyně",
    "addr:postcode": "74763",
    "building": "yes",
    "building:levels": "1",
    "building:ruian:type": "19",
    "email": "pamatnik-valky@szm.cz",
    "name": "Národní památník II. světové války",
    "phone": "+420 553 775 091",
    "ref:ruian:addr": "25187414",
    "ref:ruian:building": "24725447",
    "source": "cuzk:ruian",
    "start_date": "1999-11-10",
    "tourism": "museum"
  }
},
{
  "type": "way",
  "id": 78540806,
  "nodes": [
    4962680593,
    921589633,
    4962680592,
    4962680591,
    4962680590,
    4962680589,
    4962680588,
    4962680587,
    4962680586,
    4962680585,
    4962680584,
    4962680583,
    4962680582,
    4962680581,
    4962680580,
    4962680579,
    4962680578,
    4962680577,
    4962680576,
    4962680575,
    4962680574,
    4962680573,
    921590748,
    4962680572,
    4962680571,
    4962680566,
    4962680565,
    921591223,
    4962680567,
    4962680568,
    7126059257,
    7126059256,
    7126059255,
    7126059254,
    7126059253,
    7126059252,
    7126059251,
    7126059250,
    7126059249,
    7126059248,
    7126059247,
    7126059246,
    7126059245,
    7126059244,
    7126059243,
    7126059242,
    7126059241,
    7126059240,
    921591671,
    4962680564,
    4962680563,
    4962680562,
    5201868924,
    5201868923,
    4962680561,
    4962680560,
    4962680603,
    4962680602,
    4962680601,
    4962680600,
    4962680599,
    4962680598,
    4962680597,
    4962680596,
    4962680595,
    4962680594,
    4962680593
  ],
  "tags": {
    "building": "civic",
    "building:ruian:type": "9",
    "height": "30",
    "name": "Malý Svět techniky U6",
    "operator": "Dolní oblast VÍTKOVICE, z.s.",
    "ref": "U6",
    "ref:ruian:building": "53978188",
    "source": "cuzk:ruian",
    "start_date": "2012-05-04",
    "tourism": "museum"
  }
},
{
  "type": "way",
  "id": 78540988,
  "nodes": [
    3145969141,
    3145969153,
    3375494337,
    921590307,
    7126059258,
    4960213527,
    4960213534,
    4960213528,
    4960213532,
    4960213531,
    4960213536,
    4960213530,
    4960213533,
    4960213529,
    4960213535,
    4960213526,
    921589432,
    3145969141
  ],
  "tags": {
    "building": "civic",
    "building:ruian:type": "15",
    "fixme": "resurvey",
    "name": "Velký Svět techniky",
    "operator": "Dolní oblast VÍTKOVICE, z.s.",
    "ref:ruian:building": "78721644",
    "source": "cuzk:ruian",
    "start_date": "2014-09-24",
    "tourism": "museum"
  }
},
{
  "type": "way",
  "id": 128800258,
  "nodes": [
    1422383501,
    2223407819,
    2223407813,
    2223407807,
    2223407811,
    2223407809,
    2223407804,
    1422383495,
    1422383489,
    1422383498,
    2223407815,
    2223407817,
    1422383501
  ],
  "tags": {
    "addr:city": "Wojnowice",
    "addr:city:simc": "0215440",
    "addr:housenumber": "1",
    "addr:postcode": "47-475",
    "addr:street": "Pałacowa",
    "addr:street:sym_ul": "15590",
    "alt_name": "Muzeum Horroru",
    "alt_name:pl": "Muzeum Horroru w Wojnowicach",
    "amenity": "restaurant",
    "building": "yes",
    "email": "restauracja@palacwojnowice.pl",
    "historic": "castle",
    "name": "Pałac Wojnowice",
    "name:pl": "Pałac w Wojnowicach",
    "phone": "+48509 205 554",
    "source:addr": "emuia.gugik.gov.pl",
    "tourism": "museum",
    "website": "http://www.palacwojnowice.pl/",
    "wikidata": "Q11815056",
    "wikipedia": "pl:Pałac w Wojnowicach"
  }
},
{
  "type": "way",
  "id": 208843307,
  "nodes": [
    2190992363,
    3950637844,
    3950637846,
    2190992362,
    3950637847,
    2190992365,
    3950637845,
    2498150938,
    2190992368,
    2190992367,
    2190992364,
    3837117289,
    2190992366,
    3950637830,
    3950637831,
    2190992363
  ],
  "tags": {
    "alt_name": "Izolovaný pěchotní srub MO-S 5 \"Na trati\"",
    "building": "bunker",
    "building:ruian:type": "19",
    "bunker_type": "blockhouse",
    "disused": "yes",
    "heritage": "2",
    "historic": "yes",
    "military": "bunker",
    "name": "MO-S 5",
    "phone": "+420 604 148 470",
    "ref:ruian:building": "41490983",
    "source": "cuzk:ruian",
    "tourism": "museum",
    "website": "http://www.bunkr-bohumin.cz/"
  }
},
{
  "type": "way",
  "id": 215461071,
  "nodes": [
    2249120709,
    2123122717,
    2249120399,
    2249120127,
    2249120332,
    2249120385,
    2249120709
  ],
  "tags": {
    "addr:city": "Racibórz",
    "addr:housenumber": "12",
    "addr:postcode": "47-400",
    "addr:street": "Fryderyka Chopina",
    "building": "yes",
    "heritage": "2",
    "heritage:operator": "nid",
    "name": "Muzeum",
    "phone": "+48324154905",
    "ref:nid": "A/1295/83",
    "source": "UM Racibórz",
    "tourism": "museum",
    "website": "http://www.muzeum.raciborz.pl"
  }
},
{
  "type": "way",
  "id": 215463944,
  "nodes": [
    2249121983,
    2249121967,
    2249121938,
    2249121831,
    2249121849,
    2249121837,
    2249121803,
    2249121751,
    2249121869,
    2249121772,
    2249121493,
    2249121455,
    2249121466,
    2249121488,
    2249121536,
    2249121508,
    2249121520,
    2249121539,
    2249121577,
    2249121559,
    2249121570,
    2249121593,
    2249121639,
    2249121619,
    2123122720,
    2249121638,
    2249121668,
    2249121712,
    2249121724,
    2249121733,
    2249121853,
    2249121983
  ],
  "tags": {
    "addr:city": "Racibórz",
    "addr:housenumber": "8",
    "addr:postcode": "47-400",
    "addr:street": "Gimnazjalna",
    "alt_name": "Dawny Kościół Dominikanek pw. Świętego Ducha",
    "building": "yes",
    "heritage": "2",
    "heritage:operator": "nid",
    "historic": "church",
    "image": "File:Kościół św. Ducha (obecnie muzeum miejskie) w Raciborzu 6.JPG",
    "name": "Muzeum",
    "phone": "+48324152841",
    "ref:nid": "A/Op-613/59",
    "source": "UM Racibórz",
    "tourism": "museum",
    "website": "http://www.muzeum.raciborz.pl"
  }
},
{
  "type": "way",
  "id": 373579461,
  "nodes": [
    5219139027,
    5219139026,
    5219139025,
    5219139024,
    5219139027
  ],
  "tags": {
    "addr:city": "Bieńkowice",
    "addr:postcode": "47-451",
    "addr:street": "Wojnowska",
    "building": "yes",
    "description": "Zwiedzanie po uprzednim kontakcie telefonicznym.",
    "name": "Muzeum Kowalstwa w Bieńkowicach",
    "phone": "+4832 419 65 29",
    "tourism": "museum",
    "year": "1702"
  }
},
{
  "type": "way",
  "id": 461612373,
  "nodes": [
    4570830000,
    4570830001,
    4570829992,
    4570829991,
    4570829990,
    4570829989,
    4570829988,
    4570829979,
    4570829980,
    4570829987,
    4570829986,
    4570830047,
    4570830048,
    4570829985,
    4570829984,
    4570829983,
    4570829982,
    4570830000
  ],
  "tags": {
    "addr:city": "Ostrava",
    "addr:housenumber": "53/3",
    "addr:postcode": "70200",
    "addr:street": "Zákrejsova",
    "building": "yes",
    "building:levels": "1",
    "building:ruian:type": "15",
    "email": "muzeum@hzsmsk.cz",
    "name": "Hasičské muzeum města Ostravy",
    "phone": "+420 596 136 841",
    "ref:ruian:building": "3177050",
    "source": "cuzk:ruian",
    "tourism": "museum",
    "website": "http://www.hzsmsk.cz/index.php?ID=1719"
  }
},
{
  "type": "way",
  "id": 501468230,
  "nodes": [
    3762324730,
    4922722716,
    4922722717,
    3762324731,
    3762324730
  ],
  "tags": {
    "name": "Plenerowe muzeum Czarnego Dębu",
    "opening_hours": "24/7",
    "operator": "gmina Krzyżanowice",
    "tourism": "museum",
    "wheelchair": "yes"
  }
},
{
  "type": "relation",
  "id": 534588,
  "members": [
    {
      "type": "way",
      "ref": 53257363,
      "role": "outer"
    },
    {
      "type": "way",
      "ref": 53257362,
      "role": "inner"
    }
  ],
  "tags": {
    "addr:conscriptionnumber": "377",
    "addr:country": "CZ",
    "addr:housenumber": "377/24",
    "addr:place": "Kravaře",
    "addr:postcode": "74721",
    "addr:street": "Alejní",
    "addr:streetnumber": "24",
    "building": "civic",
    "building:levels": "1",
    "building:ruian:type": "15",
    "heritage": "2",
    "historic": "castle",
    "name": "Zámek Kravaře",
    "ref:ruian:addr": "4440323",
    "ref:ruian:building": "4410548",
    "source": "cuzk:ruian",
    "tourism": "museum",
    "type": "multipolygon",
    "wikidata": "Q2241928",
    "wikipedia": "cs:Kravaře (zámek)"
  }
},
{
  "type": "relation",
  "id": 553406,
  "members": [
    {
      "type": "way",
      "ref": 55218946,
      "role": "inner"
    },
    {
      "type": "way",
      "ref": 53549710,
      "role": "outer"
    }
  ],
  "tags": {
    "addr:conscriptionnumber": "67",
    "addr:country": "CZ",
    "addr:housenumber": "67",
    "addr:place": "Raduň",
    "addr:postcode": "74761",
    "addr:street": "Zámecká",
    "building": "yes",
    "email": "radun@npu.cz",
    "heritage": "2",
    "historic": "castle",
    "name": "Zámek Raduň",
    "name:en": "Raduň Chateau",
    "phases": "+420 553 796 203",
    "phone": "+420 553 796 119",
    "ref:ruian:addr": "4257171",
    "tourism": "museum",
    "type": "multipolygon",
    "website": "https://www.zamek-radun.cz/",
    "wikidata": "Q1375348",
    "wikipedia": "cs:Raduň (zámek)"
  }
},
{
  "type": "relation",
  "id": 3437302,
  "members": [
    {
      "type": "way",
      "ref": 256474374,
      "role": "outer"
    },
    {
      "type": "way",
      "ref": 256475238,
      "role": "inner"
    }
  ],
  "tags": {
    "addr:conscriptionnumber": "1",
    "addr:country": "CZ",
    "addr:housenumber": "1",
    "addr:place": "Bartošovice",
    "addr:postcode": "74254",
    "building": "civic",
    "building:levels": "2",
    "building:ruian:type": "5",
    "heritage": "2",
    "historic": "castle",
    "name": "Zámek Bartošovice",
    "ref:ruian:addr": "8165246",
    "ref:ruian:building": "8116067",
    "source": "cuzk:ruian",
    "tourism": "museum",
    "type": "multipolygon"
  }
},
{
  "type": "node",
  "id": 676531544,
  "lat": 49.8910642,
  "lon": 17.9444115
},
{
  "type": "node",
  "id": 676531546,
  "lat": 49.8913944,
  "lon": 17.9442270
},
{
  "type": "node",
  "id": 676531548,
  "lat": 49.8914490,
  "lon": 17.9444645
},
{
  "type": "node",
  "id": 676531550,
  "lat": 49.8913359,
  "lon": 17.9445272
},
{
  "type": "node",
  "id": 676531552,
  "lat": 49.8913470,
  "lon": 17.9445758
},
{
  "type": "node",
  "id": 676531554,
  "lat": 49.8912516,
  "lon": 17.9446287
},
{
  "type": "node",
  "id": 676531572,
  "lat": 49.8912393,
  "lon": 17.9445751
},
{
  "type": "node",
  "id": 676531574,
  "lat": 49.8911174,
  "lon": 17.9446426
},
{
  "type": "node",
  "id": 694134059,
  "lat": 49.8913485,
  "lon": 17.9440275
},
{
  "type": "node",
  "id": 694134060,
  "lat": 49.8910180,
  "lon": 17.9442106
},
{
  "type": "node",
  "id": 694134061,
  "lat": 49.8912593,
  "lon": 17.9441389
},
{
  "type": "node",
  "id": 694134062,
  "lat": 49.8912928,
  "lon": 17.9442839
},
{
  "type": "node",
  "id": 694134063,
  "lat": 49.8911532,
  "lon": 17.9443616
},
{
  "type": "node",
  "id": 694134064,
  "lat": 49.8911197,
  "lon": 17.9442166
},
{
  "type": "node",
  "id": 4147344505,
  "lat": 49.8913001,
  "lon": 17.9446018
},
{
  "type": "node",
  "id": 673874835,
  "lat": 49.9285050,
  "lon": 17.9989715
},
{
  "type": "node",
  "id": 673874836,
  "lat": 49.9285743,
  "lon": 17.9989609
},
{
  "type": "node",
  "id": 673874837,
  "lat": 49.9285719,
  "lon": 17.9988917
},
{
  "type": "node",
  "id": 673874838,
  "lat": 49.9286010,
  "lon": 17.9988782
},
{
  "type": "node",
  "id": 673874839,
  "lat": 49.9286111,
  "lon": 17.9994277
},
{
  "type": "node",
  "id": 673874840,
  "lat": 49.9286096,
  "lon": 17.9993242
},
{
  "type": "node",
  "id": 673874841,
  "lat": 49.9285095,
  "lon": 17.9993171
},
{
  "type": "node",
  "id": 673874842,
  "lat": 49.9285080,
  "lon": 17.9992247
},
{
  "type": "node",
  "id": 673874843,
  "lat": 49.9284704,
  "lon": 17.9991965
},
{
  "type": "node",
  "id": 673874844,
  "lat": 49.9284628,
  "lon": 17.9991116
},
{
  "type": "node",
  "id": 673874845,
  "lat": 49.9285064,
  "lon": 17.9990647
},
{
  "type": "node",
  "id": 673874851,
  "lat": 49.9286122,
  "lon": 17.9990476
},
{
  "type": "node",
  "id": 5756401187,
  "lat": 49.9286129,
  "lon": 17.9990475
},
{
  "type": "node",
  "id": 5756401188,
  "lat": 49.9286128,
  "lon": 17.9990448
},
{
  "type": "node",
  "id": 5756401431,
  "lat": 49.9284897,
  "lon": 17.9992134
},
{
  "type": "node",
  "id": 5756401432,
  "lat": 49.9285142,
  "lon": 17.9993228
},
{
  "type": "node",
  "id": 5756401433,
  "lat": 49.9286078,
  "lon": 17.9994209
},
{
  "type": "node",
  "id": 5756401458,
  "lat": 49.9285976,
  "lon": 17.9988831
},
{
  "type": "node",
  "id": 5756401459,
  "lat": 49.9285976,
  "lon": 17.9988876
},
{
  "type": "node",
  "id": 5756401460,
  "lat": 49.9285093,
  "lon": 17.9989660
},
{
  "type": "node",
  "id": 5756401461,
  "lat": 49.9284879,
  "lon": 17.9990768
},
{
  "type": "node",
  "id": 5756401462,
  "lat": 49.9284736,
  "lon": 17.9990961
},
{
  "type": "node",
  "id": 5756401463,
  "lat": 49.9284732,
  "lon": 17.9990957
},
{
  "type": "node",
  "id": 5756401464,
  "lat": 49.9284724,
  "lon": 17.9990974
},
{
  "type": "node",
  "id": 5756401465,
  "lat": 49.9284688,
  "lon": 17.9990942
},
{
  "type": "node",
  "id": 5756401466,
  "lat": 49.9284664,
  "lon": 17.9991148
},
{
  "type": "node",
  "id": 5756401467,
  "lat": 49.9284623,
  "lon": 17.9991462
},
{
  "type": "node",
  "id": 5756401468,
  "lat": 49.9284668,
  "lon": 17.9991736
},
{
  "type": "node",
  "id": 5756401469,
  "lat": 49.9284658,
  "lon": 17.9991752
},
{
  "type": "node",
  "id": 5756401470,
  "lat": 49.9284666,
  "lon": 17.9991769
},
{
  "type": "node",
  "id": 5756401471,
  "lat": 49.9284634,
  "lon": 17.9991801
},
{
  "type": "node",
  "id": 5756401472,
  "lat": 49.9284734,
  "lon": 17.9991933
},
{
  "type": "node",
  "id": 2621380247,
  "lat": 49.6710920,
  "lon": 18.0502810
},
{
  "type": "node",
  "id": 2621380252,
  "lat": 49.6711171,
  "lon": 18.0507605
},
{
  "type": "node",
  "id": 2621380281,
  "lat": 49.6712597,
  "lon": 18.0504163
},
{
  "type": "node",
  "id": 2621380283,
  "lat": 49.6712650,
  "lon": 18.0505409
},
{
  "type": "node",
  "id": 2621380287,
  "lat": 49.6712836,
  "lon": 18.0503815
},
{
  "type": "node",
  "id": 2621380288,
  "lat": 49.6712855,
  "lon": 18.0504132
},
{
  "type": "node",
  "id": 2621380297,
  "lat": 49.6713350,
  "lon": 18.0507257
},
{
  "type": "node",
  "id": 2621380302,
  "lat": 49.6713424,
  "lon": 18.0507971
},
{
  "type": "node",
  "id": 2621380312,
  "lat": 49.6713589,
  "lon": 18.0503706
},
{
  "type": "node",
  "id": 2621380315,
  "lat": 49.6713736,
  "lon": 18.0505248
},
{
  "type": "node",
  "id": 2621380343,
  "lat": 49.6714257,
  "lon": 18.0507015
},
{
  "type": "node",
  "id": 2621380350,
  "lat": 49.6714324,
  "lon": 18.0507743
},
{
  "type": "node",
  "id": 2621380357,
  "lat": 49.6714561,
  "lon": 18.0502252
},
{
  "type": "node",
  "id": 2621380361,
  "lat": 49.6714777,
  "lon": 18.0506873
},
{
  "type": "node",
  "id": 2621380366,
  "lat": 49.6714889,
  "lon": 18.0506928
},
{
  "type": "node",
  "id": 2621380370,
  "lat": 49.6714925,
  "lon": 18.0506489
},
{
  "type": "node",
  "id": 2621380373,
  "lat": 49.6714981,
  "lon": 18.0506820
},
{
  "type": "node",
  "id": 2621380375,
  "lat": 49.6715022,
  "lon": 18.0506671
},
{
  "type": "node",
  "id": 2847134714,
  "lat": 49.6712711,
  "lon": 18.0507347
},
{
  "type": "node",
  "id": 4343909508,
  "lat": 49.6714554,
  "lon": 18.0506934
},
{
  "type": "node",
  "id": 4343909528,
  "lat": 49.6713867,
  "lon": 18.0507859
},
{
  "type": "node",
  "id": 702345404,
  "lat": 49.8860207,
  "lon": 18.0512216
},
{
  "type": "node",
  "id": 702345405,
  "lat": 49.8858680,
  "lon": 18.0511790
},
{
  "type": "node",
  "id": 702345406,
  "lat": 49.8858988,
  "lon": 18.0511030
},
{
  "type": "node",
  "id": 702345407,
  "lat": 49.8858956,
  "lon": 18.0508971
},
{
  "type": "node",
  "id": 702345408,
  "lat": 49.8858213,
  "lon": 18.0510794
},
{
  "type": "node",
  "id": 702345409,
  "lat": 49.8858425,
  "lon": 18.0508456
},
{
  "type": "node",
  "id": 702345410,
  "lat": 49.8855341,
  "lon": 18.0516323
},
{
  "type": "node",
  "id": 702345411,
  "lat": 49.8855492,
  "lon": 18.0515947
},
{
  "type": "node",
  "id": 702345412,
  "lat": 49.8855242,
  "lon": 18.0513655
},
{
  "type": "node",
  "id": 702345413,
  "lat": 49.8854881,
  "lon": 18.0514809
},
{
  "type": "node",
  "id": 702345414,
  "lat": 49.8856728,
  "lon": 18.0517671
},
{
  "type": "node",
  "id": 702345415,
  "lat": 49.8856645,
  "lon": 18.0517880
},
{
  "type": "node",
  "id": 702345416,
  "lat": 49.8856379,
  "lon": 18.0517613
},
{
  "type": "node",
  "id": 702345417,
  "lat": 49.8856439,
  "lon": 18.0517390
},
{
  "type": "node",
  "id": 702345418,
  "lat": 49.8858087,
  "lon": 18.0517938
},
{
  "type": "node",
  "id": 702345419,
  "lat": 49.8857461,
  "lon": 18.0518392
},
{
  "type": "node",
  "id": 702345420,
  "lat": 49.8857750,
  "lon": 18.0517613
},
{
  "type": "node",
  "id": 702345421,
  "lat": 49.8858025,
  "lon": 18.0516916
},
{
  "type": "node",
  "id": 702345422,
  "lat": 49.8856080,
  "lon": 18.0514181
},
{
  "type": "node",
  "id": 702345423,
  "lat": 49.8856142,
  "lon": 18.0514241
},
{
  "type": "node",
  "id": 702345424,
  "lat": 49.8856055,
  "lon": 18.0514453
},
{
  "type": "node",
  "id": 702345425,
  "lat": 49.8858368,
  "lon": 18.0517250
},
{
  "type": "node",
  "id": 702345426,
  "lat": 49.8860054,
  "lon": 18.0513127
},
{
  "type": "node",
  "id": 702345427,
  "lat": 49.8859900,
  "lon": 18.0512972
},
{
  "type": "node",
  "id": 2193075672,
  "lat": 49.8858964,
  "lon": 18.0515823
},
{
  "type": "node",
  "id": 4517301146,
  "lat": 49.8857744,
  "lon": 18.0517702
},
{
  "type": "node",
  "id": 4517301147,
  "lat": 49.8857721,
  "lon": 18.0517683
},
{
  "type": "node",
  "id": 4517301148,
  "lat": 49.8858270,
  "lon": 18.0516318
},
{
  "type": "node",
  "id": 4517301149,
  "lat": 49.8858614,
  "lon": 18.0516662
},
{
  "type": "node",
  "id": 4517301150,
  "lat": 49.8858060,
  "lon": 18.0511168
},
{
  "type": "node",
  "id": 4517301151,
  "lat": 49.8858198,
  "lon": 18.0510779
},
{
  "type": "node",
  "id": 4517301152,
  "lat": 49.8858301,
  "lon": 18.0510525
},
{
  "type": "node",
  "id": 4517301153,
  "lat": 49.8858316,
  "lon": 18.0510539
},
{
  "type": "node",
  "id": 4517301154,
  "lat": 49.8858098,
  "lon": 18.0509256
},
{
  "type": "node",
  "id": 4517301155,
  "lat": 49.8858149,
  "lon": 18.0509307
},
{
  "type": "node",
  "id": 4517301156,
  "lat": 49.8857886,
  "lon": 18.0509948
},
{
  "type": "node",
  "id": 4517301157,
  "lat": 49.8857835,
  "lon": 18.0509897
},
{
  "type": "node",
  "id": 4517301158,
  "lat": 49.8857631,
  "lon": 18.0510395
},
{
  "type": "node",
  "id": 4517301159,
  "lat": 49.8857692,
  "lon": 18.0510455
},
{
  "type": "node",
  "id": 4517301160,
  "lat": 49.8857586,
  "lon": 18.0510711
},
{
  "type": "node",
  "id": 4517301161,
  "lat": 49.8857526,
  "lon": 18.0510652
},
{
  "type": "node",
  "id": 4517301162,
  "lat": 49.8855224,
  "lon": 18.0513701
},
{
  "type": "node",
  "id": 4517301163,
  "lat": 49.8855297,
  "lon": 18.0513772
},
{
  "type": "node",
  "id": 4517301164,
  "lat": 49.8855160,
  "lon": 18.0514107
},
{
  "type": "node",
  "id": 4517301165,
  "lat": 49.8855087,
  "lon": 18.0514036
},
{
  "type": "node",
  "id": 4517301166,
  "lat": 49.8855066,
  "lon": 18.0514088
},
{
  "type": "node",
  "id": 4517301167,
  "lat": 49.8855096,
  "lon": 18.0514117
},
{
  "type": "node",
  "id": 4517301168,
  "lat": 49.8855070,
  "lon": 18.0514179
},
{
  "type": "node",
  "id": 4517301169,
  "lat": 49.8855040,
  "lon": 18.0514150
},
{
  "type": "node",
  "id": 4517301170,
  "lat": 49.8854849,
  "lon": 18.0514616
},
{
  "type": "node",
  "id": 4517301171,
  "lat": 49.8854881,
  "lon": 18.0514647
},
{
  "type": "node",
  "id": 4517301172,
  "lat": 49.8854855,
  "lon": 18.0514708
},
{
  "type": "node",
  "id": 4517301173,
  "lat": 49.8854824,
  "lon": 18.0514677
},
{
  "type": "node",
  "id": 4517301174,
  "lat": 49.8854802,
  "lon": 18.0514732
},
{
  "type": "node",
  "id": 4517301175,
  "lat": 49.8854749,
  "lon": 18.0515134
},
{
  "type": "node",
  "id": 4517301176,
  "lat": 49.8854669,
  "lon": 18.0515057
},
{
  "type": "node",
  "id": 4517301177,
  "lat": 49.8854648,
  "lon": 18.0515108
},
{
  "type": "node",
  "id": 4517301178,
  "lat": 49.8856356,
  "lon": 18.0517593
},
{
  "type": "node",
  "id": 4517301179,
  "lat": 49.8856353,
  "lon": 18.0517675
},
{
  "type": "node",
  "id": 4517301180,
  "lat": 49.8856330,
  "lon": 18.0517653
},
{
  "type": "node",
  "id": 4517301181,
  "lat": 49.8856309,
  "lon": 18.0517704
},
{
  "type": "node",
  "id": 4517301182,
  "lat": 49.8856599,
  "lon": 18.0517991
},
{
  "type": "node",
  "id": 4517301183,
  "lat": 49.8856619,
  "lon": 18.0517940
},
{
  "type": "node",
  "id": 4517301184,
  "lat": 49.8856598,
  "lon": 18.0517918
},
{
  "type": "node",
  "id": 4517301185,
  "lat": 49.8856623,
  "lon": 18.0517858
},
{
  "type": "node",
  "id": 921589432,
  "lat": 49.8191108,
  "lon": 18.2823217
},
{
  "type": "node",
  "id": 921589633,
  "lat": 49.8187160,
  "lon": 18.2810662
},
{
  "type": "node",
  "id": 921590307,
  "lat": 49.8201499,
  "lon": 18.2830641
},
{
  "type": "node",
  "id": 921590748,
  "lat": 49.8190725,
  "lon": 18.2808552
},
{
  "type": "node",
  "id": 921591223,
  "lat": 49.8192760,
  "lon": 18.2816589
},
{
  "type": "node",
  "id": 921591671,
  "lat": 49.8189195,
  "lon": 18.2818722
},
{
  "type": "node",
  "id": 3145969141,
  "lat": 49.8193612,
  "lon": 18.2821788
},
{
  "type": "node",
  "id": 3145969153,
  "lat": 49.8197143,
  "lon": 18.2824309
},
{
  "type": "node",
  "id": 3375494337,
  "lat": 49.8200556,
  "lon": 18.2826767
},
{
  "type": "node",
  "id": 4960213526,
  "lat": 49.8192989,
  "lon": 18.2830898
},
{
  "type": "node",
  "id": 4960213527,
  "lat": 49.8196529,
  "lon": 18.2833344
},
{
  "type": "node",
  "id": 4960213528,
  "lat": 49.8195727,
  "lon": 18.2833590
},
{
  "type": "node",
  "id": 4960213529,
  "lat": 49.8193444,
  "lon": 18.2832054
},
{
  "type": "node",
  "id": 4960213530,
  "lat": 49.8194134,
  "lon": 18.2832966
},
{
  "type": "node",
  "id": 4960213531,
  "lat": 49.8194939,
  "lon": 18.2833477
},
{
  "type": "node",
  "id": 4960213532,
  "lat": 49.8195332,
  "lon": 18.2833577
},
{
  "type": "node",
  "id": 4960213533,
  "lat": 49.8193766,
  "lon": 18.2832554
},
{
  "type": "node",
  "id": 4960213534,
  "lat": 49.8196130,
  "lon": 18.2833514
},
{
  "type": "node",
  "id": 4960213535,
  "lat": 49.8193186,
  "lon": 18.2831500
},
{
  "type": "node",
  "id": 4960213536,
  "lat": 49.8194536,
  "lon": 18.2833278
},
{
  "type": "node",
  "id": 4962680560,
  "lat": 49.8188600,
  "lon": 18.2816363
},
{
  "type": "node",
  "id": 4962680561,
  "lat": 49.8188674,
  "lon": 18.2816660
},
{
  "type": "node",
  "id": 4962680562,
  "lat": 49.8188851,
  "lon": 18.2817171
},
{
  "type": "node",
  "id": 4962680563,
  "lat": 49.8189101,
  "lon": 18.2818160
},
{
  "type": "node",
  "id": 4962680564,
  "lat": 49.8189060,
  "lon": 18.2818187
},
{
  "type": "node",
  "id": 4962680565,
  "lat": 49.8192637,
  "lon": 18.2816135
},
{
  "type": "node",
  "id": 4962680566,
  "lat": 49.8192840,
  "lon": 18.2816010
},
{
  "type": "node",
  "id": 4962680567,
  "lat": 49.8192494,
  "lon": 18.2816769
},
{
  "type": "node",
  "id": 4962680568,
  "lat": 49.8192474,
  "lon": 18.2816700
},
{
  "type": "node",
  "id": 4962680571,
  "lat": 49.8191042,
  "lon": 18.2808881
},
{
  "type": "node",
  "id": 4962680572,
  "lat": 49.8190836,
  "lon": 18.2809007
},
{
  "type": "node",
  "id": 4962680573,
  "lat": 49.8190465,
  "lon": 18.2808706
},
{
  "type": "node",
  "id": 4962680574,
  "lat": 49.8190478,
  "lon": 18.2808758
},
{
  "type": "node",
  "id": 4962680575,
  "lat": 49.8190046,
  "lon": 18.2809013
},
{
  "type": "node",
  "id": 4962680576,
  "lat": 49.8190032,
  "lon": 18.2808962
},
{
  "type": "node",
  "id": 4962680577,
  "lat": 49.8189932,
  "lon": 18.2809021
},
{
  "type": "node",
  "id": 4962680578,
  "lat": 49.8189945,
  "lon": 18.2809072
},
{
  "type": "node",
  "id": 4962680579,
  "lat": 49.8189374,
  "lon": 18.2809410
},
{
  "type": "node",
  "id": 4962680580,
  "lat": 49.8189362,
  "lon": 18.2809359
},
{
  "type": "node",
  "id": 4962680581,
  "lat": 49.8189261,
  "lon": 18.2809418
},
{
  "type": "node",
  "id": 4962680582,
  "lat": 49.8189274,
  "lon": 18.2809470
},
{
  "type": "node",
  "id": 4962680583,
  "lat": 49.8188649,
  "lon": 18.2809840
},
{
  "type": "node",
  "id": 4962680584,
  "lat": 49.8188636,
  "lon": 18.2809788
},
{
  "type": "node",
  "id": 4962680585,
  "lat": 49.8188539,
  "lon": 18.2809846
},
{
  "type": "node",
  "id": 4962680586,
  "lat": 49.8188552,
  "lon": 18.2809897
},
{
  "type": "node",
  "id": 4962680587,
  "lat": 49.8187982,
  "lon": 18.2810235
},
{
  "type": "node",
  "id": 4962680588,
  "lat": 49.8187969,
  "lon": 18.2810182
},
{
  "type": "node",
  "id": 4962680589,
  "lat": 49.8187868,
  "lon": 18.2810243
},
{
  "type": "node",
  "id": 4962680590,
  "lat": 49.8187881,
  "lon": 18.2810294
},
{
  "type": "node",
  "id": 4962680591,
  "lat": 49.8187435,
  "lon": 18.2810538
},
{
  "type": "node",
  "id": 4962680592,
  "lat": 49.8187427,
  "lon": 18.2810491
},
{
  "type": "node",
  "id": 4962680593,
  "lat": 49.8187295,
  "lon": 18.2811208
},
{
  "type": "node",
  "id": 4962680594,
  "lat": 49.8187338,
  "lon": 18.2811178
},
{
  "type": "node",
  "id": 4962680595,
  "lat": 49.8187724,
  "lon": 18.2812713
},
{
  "type": "node",
  "id": 4962680596,
  "lat": 49.8187684,
  "lon": 18.2812735
},
{
  "type": "node",
  "id": 4962680597,
  "lat": 49.8187759,
  "lon": 18.2813012
},
{
  "type": "node",
  "id": 4962680598,
  "lat": 49.8187794,
  "lon": 18.2812985
},
{
  "type": "node",
  "id": 4962680599,
  "lat": 49.8188179,
  "lon": 18.2814511
},
{
  "type": "node",
  "id": 4962680600,
  "lat": 49.8188143,
  "lon": 18.2814537
},
{
  "type": "node",
  "id": 4962680601,
  "lat": 49.8188222,
  "lon": 18.2814838
},
{
  "type": "node",
  "id": 4962680602,
  "lat": 49.8188256,
  "lon": 18.2814812
},
{
  "type": "node",
  "id": 4962680603,
  "lat": 49.8188640,
  "lon": 18.2816334
},
{
  "type": "node",
  "id": 5201868923,
  "lat": 49.8188424,
  "lon": 18.2816791
},
{
  "type": "node",
  "id": 5201868924,
  "lat": 49.8188556,
  "lon": 18.2817337
},
{
  "type": "node",
  "id": 7126059240,
  "lat": 49.8189471,
  "lon": 18.2818574
},
{
  "type": "node",
  "id": 7126059241,
  "lat": 49.8189452,
  "lon": 18.2818501
},
{
  "type": "node",
  "id": 7126059242,
  "lat": 49.8189889,
  "lon": 18.2818241
},
{
  "type": "node",
  "id": 7126059243,
  "lat": 49.8189904,
  "lon": 18.2818299
},
{
  "type": "node",
  "id": 7126059244,
  "lat": 49.8190003,
  "lon": 18.2818239
},
{
  "type": "node",
  "id": 7126059245,
  "lat": 49.8189988,
  "lon": 18.2818181
},
{
  "type": "node",
  "id": 7126059246,
  "lat": 49.8190558,
  "lon": 18.2817840
},
{
  "type": "node",
  "id": 7126059247,
  "lat": 49.8190572,
  "lon": 18.2817898
},
{
  "type": "node",
  "id": 7126059248,
  "lat": 49.8190672,
  "lon": 18.2817839
},
{
  "type": "node",
  "id": 7126059249,
  "lat": 49.8190658,
  "lon": 18.2817781
},
{
  "type": "node",
  "id": 7126059250,
  "lat": 49.8191276,
  "lon": 18.2817417
},
{
  "type": "node",
  "id": 7126059251,
  "lat": 49.8191286,
  "lon": 18.2817474
},
{
  "type": "node",
  "id": 7126059252,
  "lat": 49.8191379,
  "lon": 18.2817420
},
{
  "type": "node",
  "id": 7126059253,
  "lat": 49.8191369,
  "lon": 18.2817362
},
{
  "type": "node",
  "id": 7126059254,
  "lat": 49.8191947,
  "lon": 18.2817016
},
{
  "type": "node",
  "id": 7126059255,
  "lat": 49.8191958,
  "lon": 18.2817076
},
{
  "type": "node",
  "id": 7126059256,
  "lat": 49.8192052,
  "lon": 18.2817023
},
{
  "type": "node",
  "id": 7126059257,
  "lat": 49.8192039,
  "lon": 18.2816960
},
{
  "type": "node",
  "id": 7126059258,
  "lat": 49.8201472,
  "lon": 18.2830656
},
{
  "type": "node",
  "id": 4570829979,
  "lat": 49.8520214,
  "lon": 18.2731227
},
{
  "type": "node",
  "id": 4570829980,
  "lat": 49.8520594,
  "lon": 18.2731016
},
{
  "type": "node",
  "id": 4570829982,
  "lat": 49.8520343,
  "lon": 18.2734305
},
{
  "type": "node",
  "id": 4570829983,
  "lat": 49.8520337,
  "lon": 18.2734279
},
{
  "type": "node",
  "id": 4570829984,
  "lat": 49.8521236,
  "lon": 18.2733775
},
{
  "type": "node",
  "id": 4570829985,
  "lat": 49.8521243,
  "lon": 18.2733802
},
{
  "type": "node",
  "id": 4570829986,
  "lat": 49.8521063,
  "lon": 18.2731337
},
{
  "type": "node",
  "id": 4570829987,
  "lat": 49.8520942,
  "lon": 18.2730823
},
{
  "type": "node",
  "id": 4570829988,
  "lat": 49.8519959,
  "lon": 18.2731368
},
{
  "type": "node",
  "id": 4570829989,
  "lat": 49.8520176,
  "lon": 18.2732360
},
{
  "type": "node",
  "id": 4570829990,
  "lat": 49.8519927,
  "lon": 18.2732499
},
{
  "type": "node",
  "id": 4570829991,
  "lat": 49.8519895,
  "lon": 18.2732370
},
{
  "type": "node",
  "id": 4570829992,
  "lat": 49.8519576,
  "lon": 18.2732548
},
{
  "type": "node",
  "id": 4570830000,
  "lat": 49.8519969,
  "lon": 18.2734534
},
{
  "type": "node",
  "id": 4570830001,
  "lat": 49.8519667,
  "lon": 18.2732941
},
{
  "type": "node",
  "id": 4570830047,
  "lat": 49.8521098,
  "lon": 18.2731317
},
{
  "type": "node",
  "id": 4570830048,
  "lat": 49.8521621,
  "lon": 18.2733590
},
{
  "type": "node",
  "id": 2190992362,
  "lat": 49.9110729,
  "lon": 18.3314247
},
{
  "type": "node",
  "id": 2190992363,
  "lat": 49.9109765,
  "lon": 18.3311556
},
{
  "type": "node",
  "id": 2190992364,
  "lat": 49.9109122,
  "lon": 18.3313228
},
{
  "type": "node",
  "id": 2190992365,
  "lat": 49.9110617,
  "lon": 18.3314655
},
{
  "type": "node",
  "id": 2190992366,
  "lat": 49.9108294,
  "lon": 18.3312134
},
{
  "type": "node",
  "id": 2190992367,
  "lat": 49.9109252,
  "lon": 18.3313509
},
{
  "type": "node",
  "id": 2190992368,
  "lat": 49.9109805,
  "lon": 18.3313660
},
{
  "type": "node",
  "id": 2498150938,
  "lat": 49.9110313,
  "lon": 18.3314721
},
{
  "type": "node",
  "id": 3837117289,
  "lat": 49.9108361,
  "lon": 18.3312650
},
{
  "type": "node",
  "id": 3950637830,
  "lat": 49.9108307,
  "lon": 18.3312077
},
{
  "type": "node",
  "id": 3950637831,
  "lat": 49.9108337,
  "lon": 18.3312033
},
{
  "type": "node",
  "id": 3950637844,
  "lat": 49.9109796,
  "lon": 18.3311607
},
{
  "type": "node",
  "id": 3950637845,
  "lat": 49.9110464,
  "lon": 18.3314750
},
{
  "type": "node",
  "id": 3950637846,
  "lat": 49.9110681,
  "lon": 18.3313997
},
{
  "type": "node",
  "id": 3950637847,
  "lat": 49.9110702,
  "lon": 18.3314479
},
{
  "type": "node",
  "id": 665451088,
  "lat": 49.9372114,
  "lon": 17.9082771
},
{
  "type": "node",
  "id": 665451089,
  "lat": 49.9371774,
  "lon": 17.9083478
},
{
  "type": "node",
  "id": 665451090,
  "lat": 49.9372148,
  "lon": 17.9082811
},
{
  "type": "node",
  "id": 665451096,
  "lat": 49.9375732,
  "lon": 17.9082594
},
{
  "type": "node",
  "id": 665451097,
  "lat": 49.9374190,
  "lon": 17.9081039
},
{
  "type": "node",
  "id": 665451098,
  "lat": 49.9374239,
  "lon": 17.9080938
},
{
  "type": "node",
  "id": 665451099,
  "lat": 49.9374144,
  "lon": 17.9080736
},
{
  "type": "node",
  "id": 665451100,
  "lat": 49.9374061,
  "lon": 17.9080907
},
{
  "type": "node",
  "id": 665451101,
  "lat": 49.9374983,
  "lon": 17.9081996
},
{
  "type": "node",
  "id": 665451102,
  "lat": 49.9375071,
  "lon": 17.9081816
},
{
  "type": "node",
  "id": 665451103,
  "lat": 49.9374914,
  "lon": 17.9081726
},
{
  "type": "node",
  "id": 665451104,
  "lat": 49.9374856,
  "lon": 17.9081845
},
{
  "type": "node",
  "id": 665451105,
  "lat": 49.9373483,
  "lon": 17.9079966
},
{
  "type": "node",
  "id": 665451108,
  "lat": 49.9373217,
  "lon": 17.9085892
},
{
  "type": "node",
  "id": 665451109,
  "lat": 49.9372355,
  "lon": 17.9084157
},
{
  "type": "node",
  "id": 665451110,
  "lat": 49.9372121,
  "lon": 17.9084614
},
{
  "type": "node",
  "id": 665451116,
  "lat": 49.9373440,
  "lon": 17.9085424
},
{
  "type": "node",
  "id": 665451117,
  "lat": 49.9374369,
  "lon": 17.9085398
},
{
  "type": "node",
  "id": 665451118,
  "lat": 49.9374024,
  "lon": 17.9086111
},
{
  "type": "node",
  "id": 665451119,
  "lat": 49.9374338,
  "lon": 17.9085362
},
{
  "type": "node",
  "id": 4018265827,
  "lat": 49.9373137,
  "lon": 17.9080676
},
{
  "type": "node",
  "id": 4018265828,
  "lat": 49.9373171,
  "lon": 17.9080716
},
{
  "type": "node",
  "id": 4018265829,
  "lat": 49.9375384,
  "lon": 17.9083309
},
{
  "type": "node",
  "id": 4018265830,
  "lat": 49.9375352,
  "lon": 17.9083270
},
{
  "type": "node",
  "id": 673874846,
  "lat": 49.9286177,
  "lon": 17.9992405
},
{
  "type": "node",
  "id": 673874847,
  "lat": 49.9286159,
  "lon": 17.9991847
},
{
  "type": "node",
  "id": 673874848,
  "lat": 49.9286193,
  "lon": 17.9991616
},
{
  "type": "node",
  "id": 673874849,
  "lat": 49.9286173,
  "lon": 17.9990973
},
{
  "type": "node",
  "id": 673874850,
  "lat": 49.9286182,
  "lon": 17.9991220
},
{
  "type": "node",
  "id": 673874870,
  "lat": 49.9290415,
  "lon": 17.9991085
},
{
  "type": "node",
  "id": 673874871,
  "lat": 49.9290435,
  "lon": 17.9991111
},
{
  "type": "node",
  "id": 673874872,
  "lat": 49.9290451,
  "lon": 17.9992159
},
{
  "type": "node",
  "id": 673874873,
  "lat": 49.9290345,
  "lon": 17.9992219
},
{
  "type": "node",
  "id": 673874874,
  "lat": 49.9290344,
  "lon": 17.9994023
},
{
  "type": "node",
  "id": 673874875,
  "lat": 49.9290247,
  "lon": 17.9988628
},
{
  "type": "node",
  "id": 673874876,
  "lat": 49.9290288,
  "lon": 17.9990385
},
{
  "type": "node",
  "id": 673874877,
  "lat": 49.9290391,
  "lon": 17.9990437
},
{
  "type": "node",
  "id": 673874878,
  "lat": 49.9290396,
  "lon": 17.9990929
},
{
  "type": "node",
  "id": 673874879,
  "lat": 49.9288568,
  "lon": 17.9991974
},
{
  "type": "node",
  "id": 673874880,
  "lat": 49.9288276,
  "lon": 17.9991960
},
{
  "type": "node",
  "id": 673874881,
  "lat": 49.9288280,
  "lon": 17.9992378
},
{
  "type": "node",
  "id": 673874882,
  "lat": 49.9288262,
  "lon": 17.9990380
},
{
  "type": "node",
  "id": 673874883,
  "lat": 49.9288265,
  "lon": 17.9990739
},
{
  "type": "node",
  "id": 673874884,
  "lat": 49.9288550,
  "lon": 17.9990731
},
{
  "type": "node",
  "id": 673874885,
  "lat": 49.9290419,
  "lon": 17.9991292
},
{
  "type": "node",
  "id": 5756401189,
  "lat": 49.9288247,
  "lon": 17.9990328
},
{
  "type": "node",
  "id": 5756401190,
  "lat": 49.9288248,
  "lon": 17.9990380
},
{
  "type": "node",
  "id": 5756401191,
  "lat": 49.9288277,
  "lon": 17.9990646
},
{
  "type": "node",
  "id": 5756401192,
  "lat": 49.9288264,
  "lon": 17.9990646
},
{
  "type": "node",
  "id": 5756401193,
  "lat": 49.9288325,
  "lon": 17.9990737
},
{
  "type": "node",
  "id": 5756401194,
  "lat": 49.9288325,
  "lon": 17.9990716
},
{
  "type": "node",
  "id": 5756401195,
  "lat": 49.9288550,
  "lon": 17.9990710
},
{
  "type": "node",
  "id": 5756401196,
  "lat": 49.9288577,
  "lon": 17.9990730
},
{
  "type": "node",
  "id": 5756401197,
  "lat": 49.9288584,
  "lon": 17.9991040
},
{
  "type": "node",
  "id": 5756401198,
  "lat": 49.9288571,
  "lon": 17.9991041
},
{
  "type": "node",
  "id": 5756401199,
  "lat": 49.9288576,
  "lon": 17.9991137
},
{
  "type": "node",
  "id": 5756401200,
  "lat": 49.9288589,
  "lon": 17.9991135
},
{
  "type": "node",
  "id": 5756401201,
  "lat": 49.9288584,
  "lon": 17.9991572
},
{
  "type": "node",
  "id": 5756401202,
  "lat": 49.9288571,
  "lon": 17.9991573
},
{
  "type": "node",
  "id": 5756401203,
  "lat": 49.9288572,
  "lon": 17.9991668
},
{
  "type": "node",
  "id": 5756401204,
  "lat": 49.9288585,
  "lon": 17.9991669
},
{
  "type": "node",
  "id": 5756401205,
  "lat": 49.9288588,
  "lon": 17.9991953
},
{
  "type": "node",
  "id": 5756401206,
  "lat": 49.9288568,
  "lon": 17.9991953
},
{
  "type": "node",
  "id": 5756401207,
  "lat": 49.9288344,
  "lon": 17.9991980
},
{
  "type": "node",
  "id": 5756401208,
  "lat": 49.9288344,
  "lon": 17.9991959
},
{
  "type": "node",
  "id": 5756401209,
  "lat": 49.9288276,
  "lon": 17.9992061
},
{
  "type": "node",
  "id": 5756401210,
  "lat": 49.9288290,
  "lon": 17.9992061
},
{
  "type": "node",
  "id": 5756401211,
  "lat": 49.9288293,
  "lon": 17.9992317
},
{
  "type": "node",
  "id": 5756401212,
  "lat": 49.9288279,
  "lon": 17.9992317
},
{
  "type": "node",
  "id": 5756401213,
  "lat": 49.9286289,
  "lon": 17.9992415
},
{
  "type": "node",
  "id": 5756401214,
  "lat": 49.9286289,
  "lon": 17.9992404
},
{
  "type": "node",
  "id": 5756401215,
  "lat": 49.9286225,
  "lon": 17.9992406
},
{
  "type": "node",
  "id": 5756401216,
  "lat": 49.9286225,
  "lon": 17.9992417
},
{
  "type": "node",
  "id": 5756401217,
  "lat": 49.9286191,
  "lon": 17.9992416
},
{
  "type": "node",
  "id": 5756401218,
  "lat": 49.9286191,
  "lon": 17.9992405
},
{
  "type": "node",
  "id": 5756401219,
  "lat": 49.9286176,
  "lon": 17.9992370
},
{
  "type": "node",
  "id": 5756401220,
  "lat": 49.9286164,
  "lon": 17.9992372
},
{
  "type": "node",
  "id": 5756401421,
  "lat": 49.9286156,
  "lon": 17.9992035
},
{
  "type": "node",
  "id": 5756401422,
  "lat": 49.9286170,
  "lon": 17.9992034
},
{
  "type": "node",
  "id": 5756401423,
  "lat": 49.9286169,
  "lon": 17.9992004
},
{
  "type": "node",
  "id": 5756401424,
  "lat": 49.9286182,
  "lon": 17.9992003
},
{
  "type": "node",
  "id": 5756401425,
  "lat": 49.9286193,
  "lon": 17.9991898
},
{
  "type": "node",
  "id": 5756401426,
  "lat": 49.9286180,
  "lon": 17.9991888
},
{
  "type": "node",
  "id": 5756401427,
  "lat": 49.9286185,
  "lon": 17.9991858
},
{
  "type": "node",
  "id": 5756401428,
  "lat": 49.9286147,
  "lon": 17.9990982
},
{
  "type": "node",
  "id": 5756401429,
  "lat": 49.9286169,
  "lon": 17.9990945
},
{
  "type": "node",
  "id": 5756401430,
  "lat": 49.9286184,
  "lon": 17.9990939
},
{
  "type": "node",
  "id": 5756401434,
  "lat": 49.9287895,
  "lon": 17.9994199
},
{
  "type": "node",
  "id": 5756401435,
  "lat": 49.9290389,
  "lon": 17.9993958
},
{
  "type": "node",
  "id": 5756401436,
  "lat": 49.9290417,
  "lon": 17.9992218
},
{
  "type": "node",
  "id": 5756401437,
  "lat": 49.9290417,
  "lon": 17.9992184
},
{
  "type": "node",
  "id": 5756401438,
  "lat": 49.9290430,
  "lon": 17.9992162
},
{
  "type": "node",
  "id": 5756401439,
  "lat": 49.9290443,
  "lon": 17.9991946
},
{
  "type": "node",
  "id": 5756401440,
  "lat": 49.9290419,
  "lon": 17.9991948
},
{
  "type": "node",
  "id": 5756401441,
  "lat": 49.9290407,
  "lon": 17.9991631
},
{
  "type": "node",
  "id": 5756401442,
  "lat": 49.9290425,
  "lon": 17.9991629
},
{
  "type": "node",
  "id": 5756401443,
  "lat": 49.9290424,
  "lon": 17.9991592
},
{
  "type": "node",
  "id": 5756401444,
  "lat": 49.9290452,
  "lon": 17.9991642
},
{
  "type": "node",
  "id": 5756401445,
  "lat": 49.9290514,
  "lon": 17.9991548
},
{
  "type": "node",
  "id": 5756401446,
  "lat": 49.9290445,
  "lon": 17.9991469
},
{
  "type": "node",
  "id": 5756401447,
  "lat": 49.9290422,
  "lon": 17.9991498
},
{
  "type": "node",
  "id": 5756401448,
  "lat": 49.9290500,
  "lon": 17.9991021
},
{
  "type": "node",
  "id": 5756401449,
  "lat": 49.9290445,
  "lon": 17.9990918
},
{
  "type": "node",
  "id": 5756401450,
  "lat": 49.9290413,
  "lon": 17.9990954
},
{
  "type": "node",
  "id": 5756401451,
  "lat": 49.9290412,
  "lon": 17.9990929
},
{
  "type": "node",
  "id": 5756401452,
  "lat": 49.9290389,
  "lon": 17.9990617
},
{
  "type": "node",
  "id": 5756401453,
  "lat": 49.9290411,
  "lon": 17.9990616
},
{
  "type": "node",
  "id": 5756401454,
  "lat": 49.9290406,
  "lon": 17.9990415
},
{
  "type": "node",
  "id": 5756401455,
  "lat": 49.9290370,
  "lon": 17.9990416
},
{
  "type": "node",
  "id": 5756401456,
  "lat": 49.9290369,
  "lon": 17.9990380
},
{
  "type": "node",
  "id": 5756401457,
  "lat": 49.9290213,
  "lon": 17.9988572
},
{
  "type": "node",
  "id": 5219139024,
  "lat": 50.0248508,
  "lon": 18.2098988
},
{
  "type": "node",
  "id": 5219139025,
  "lat": 50.0247717,
  "lon": 18.2098783
},
{
  "type": "node",
  "id": 5219139026,
  "lat": 50.0247882,
  "lon": 18.2097237
},
{
  "type": "node",
  "id": 5219139027,
  "lat": 50.0248675,
  "lon": 18.2097437
},
{
  "type": "node",
  "id": 1422383489,
  "lat": 50.0608117,
  "lon": 18.1527908
},
{
  "type": "node",
  "id": 1422383495,
  "lat": 50.0608955,
  "lon": 18.1526465
},
{
  "type": "node",
  "id": 1422383498,
  "lat": 50.0609894,
  "lon": 18.1530412
},
{
  "type": "node",
  "id": 1422383501,
  "lat": 50.0611668,
  "lon": 18.1528302
},
{
  "type": "node",
  "id": 2223407804,
  "lat": 50.0608721,
  "lon": 18.1526135
},
{
  "type": "node",
  "id": 2223407807,
  "lat": 50.0609349,
  "lon": 18.1526790
},
{
  "type": "node",
  "id": 2223407809,
  "lat": 50.0609367,
  "lon": 18.1525023
},
{
  "type": "node",
  "id": 2223407811,
  "lat": 50.0609922,
  "lon": 18.1525804
},
{
  "type": "node",
  "id": 2223407813,
  "lat": 50.0610569,
  "lon": 18.1528509
},
{
  "type": "node",
  "id": 2223407815,
  "lat": 50.0610708,
  "lon": 18.1529010
},
{
  "type": "node",
  "id": 2223407817,
  "lat": 50.0611010,
  "lon": 18.1529435
},
{
  "type": "node",
  "id": 2223407819,
  "lat": 50.0611130,
  "lon": 18.1527543
},
{
  "type": "node",
  "id": 2123122717,
  "lat": 50.0930472,
  "lon": 18.2175479
},
{
  "type": "node",
  "id": 2123122720,
  "lat": 50.0933894,
  "lon": 18.2168166
},
{
  "type": "node",
  "id": 2249120127,
  "lat": 50.0928971,
  "lon": 18.2175751
},
{
  "type": "node",
  "id": 2249120332,
  "lat": 50.0929793,
  "lon": 18.2173030
},
{
  "type": "node",
  "id": 2249120385,
  "lat": 50.0930039,
  "lon": 18.2173219
},
{
  "type": "node",
  "id": 2249120399,
  "lat": 50.0930130,
  "lon": 18.2176592
},
{
  "type": "node",
  "id": 2249120709,
  "lat": 50.0930951,
  "lon": 18.2173917
},
{
  "type": "node",
  "id": 2249121455,
  "lat": 50.0933043,
  "lon": 18.2169970
},
{
  "type": "node",
  "id": 2249121466,
  "lat": 50.0933114,
  "lon": 18.2169819
},
{
  "type": "node",
  "id": 2249121488,
  "lat": 50.0933222,
  "lon": 18.2169940
},
{
  "type": "node",
  "id": 2249121493,
  "lat": 50.0933238,
  "lon": 18.2170177
},
{
  "type": "node",
  "id": 2249121508,
  "lat": 50.0933333,
  "lon": 18.2169400
},
{
  "type": "node",
  "id": 2249121520,
  "lat": 50.0933378,
  "lon": 18.2169290
},
{
  "type": "node",
  "id": 2249121536,
  "lat": 50.0933419,
  "lon": 18.2169501
},
{
  "type": "node",
  "id": 2249121539,
  "lat": 50.0933467,
  "lon": 18.2169380
},
{
  "type": "node",
  "id": 2249121559,
  "lat": 50.0933588,
  "lon": 18.2168797
},
{
  "type": "node",
  "id": 2249121570,
  "lat": 50.0933644,
  "lon": 18.2168649
},
{
  "type": "node",
  "id": 2249121577,
  "lat": 50.0933685,
  "lon": 18.2168903
},
{
  "type": "node",
  "id": 2249121593,
  "lat": 50.0933746,
  "lon": 18.2168754
},
{
  "type": "node",
  "id": 2249121619,
  "lat": 50.0933870,
  "lon": 18.2168233
},
{
  "type": "node",
  "id": 2249121638,
  "lat": 50.0933924,
  "lon": 18.2168096
},
{
  "type": "node",
  "id": 2249121639,
  "lat": 50.0933940,
  "lon": 18.2168304
},
{
  "type": "node",
  "id": 2249121668,
  "lat": 50.0933999,
  "lon": 18.2168166
},
{
  "type": "node",
  "id": 2249121712,
  "lat": 50.0934183,
  "lon": 18.2167747
},
{
  "type": "node",
  "id": 2249121724,
  "lat": 50.0934229,
  "lon": 18.2167795
},
{
  "type": "node",
  "id": 2249121733,
  "lat": 50.0934299,
  "lon": 18.2167633
},
{
  "type": "node",
  "id": 2249121751,
  "lat": 50.0934376,
  "lon": 18.2170291
},
{
  "type": "node",
  "id": 2249121772,
  "lat": 50.0934452,
  "lon": 18.2171460
},
{
  "type": "node",
  "id": 2249121803,
  "lat": 50.0934571,
  "lon": 18.2169854
},
{
  "type": "node",
  "id": 2249121831,
  "lat": 50.0934618,
  "lon": 18.2169742
},
{
  "type": "node",
  "id": 2249121837,
  "lat": 50.0934653,
  "lon": 18.2169937
},
{
  "type": "node",
  "id": 2249121849,
  "lat": 50.0934700,
  "lon": 18.2169841
},
{
  "type": "node",
  "id": 2249121853,
  "lat": 50.0934729,
  "lon": 18.2168104
},
{
  "type": "node",
  "id": 2249121869,
  "lat": 50.0934785,
  "lon": 18.2170730
},
{
  "type": "node",
  "id": 2249121938,
  "lat": 50.0935086,
  "lon": 18.2168673
},
{
  "type": "node",
  "id": 2249121967,
  "lat": 50.0935195,
  "lon": 18.2168794
},
{
  "type": "node",
  "id": 2249121983,
  "lat": 50.0935249,
  "lon": 18.2168672
},
{
  "type": "node",
  "id": 3762324730,
  "lat": 49.9825398,
  "lon": 18.2683596
},
{
  "type": "node",
  "id": 3762324731,
  "lat": 49.9824797,
  "lon": 18.2684294
},
{
  "type": "node",
  "id": 4922722716,
  "lat": 49.9825471,
  "lon": 18.2684760
},
{
  "type": "node",
  "id": 4922722717,
  "lat": 49.9824949,
  "lon": 18.2685001
},
{
  "type": "way",
  "id": 53549710,
  "nodes": [
    676531550,
    676531552,
    4147344505,
    676531554,
    676531572,
    676531574,
    676531544,
    694134060,
    694134059,
    676531546,
    676531548,
    676531550
  ]
},
{
  "type": "way",
  "id": 55218946,
  "nodes": [
    694134061,
    694134064,
    694134063,
    694134062,
    694134061
  ]
},
{
  "type": "way",
  "id": 53257362,
  "nodes": [
    5756401430,
    5756401429,
    673874849,
    5756401428,
    673874850,
    673874848,
    673874847,
    5756401427,
    5756401426,
    5756401425,
    5756401424,
    5756401423,
    5756401422,
    5756401421,
    5756401220,
    5756401219,
    673874846,
    5756401218,
    5756401217,
    5756401216,
    5756401215,
    5756401214,
    5756401213,
    673874881,
    5756401212,
    5756401211,
    5756401210,
    5756401209,
    673874880,
    5756401208,
    5756401207,
    673874879,
    5756401206,
    5756401205,
    5756401204,
    5756401203,
    5756401202,
    5756401201,
    5756401200,
    5756401199,
    5756401198,
    5756401197,
    5756401196,
    673874884,
    5756401195,
    5756401194,
    5756401193,
    673874883,
    5756401192,
    5756401191,
    673874882,
    5756401190,
    5756401189,
    5756401188,
    5756401187,
    673874851,
    5756401430
  ]
},
{
  "type": "way",
  "id": 53257363,
  "nodes": [
    5756401472,
    673874843,
    5756401471,
    5756401470,
    5756401469,
    5756401468,
    5756401467,
    5756401466,
    673874844,
    5756401465,
    5756401464,
    5756401463,
    5756401462,
    5756401461,
    673874845,
    673874835,
    5756401460,
    673874836,
    673874837,
    5756401459,
    5756401458,
    673874838,
    5756401457,
    673874875,
    673874876,
    5756401456,
    5756401455,
    673874877,
    5756401454,
    5756401453,
    5756401452,
    673874878,
    5756401451,
    5756401450,
    5756401449,
    5756401448,
    673874871,
    673874870,
    673874885,
    5756401447,
    5756401446,
    5756401445,
    5756401444,
    5756401443,
    5756401442,
    5756401441,
    5756401440,
    5756401439,
    673874872,
    5756401438,
    5756401437,
    5756401436,
    673874873,
    5756401435,
    673874874,
    5756401434,
    673874839,
    5756401433,
    673874840,
    5756401432,
    673874841,
    673874842,
    5756401431,
    5756401472
  ]
},
{
  "type": "way",
  "id": 256474374,
  "nodes": [
    2621380370,
    2621380375,
    2621380373,
    2621380366,
    2621380361,
    4343909508,
    2621380343,
    2621380350,
    4343909528,
    2621380302,
    2621380297,
    2847134714,
    2621380252,
    2621380247,
    2621380357,
    2621380370
  ]
},
{
  "type": "way",
  "id": 256475238,
  "nodes": [
    2621380312,
    2621380287,
    2621380288,
    2621380281,
    2621380283,
    2621380315,
    2621380312
  ]
}

  ]
}
