{
  "version": 0.6,
  "generator": "Overpass API 0.7.55.9 ab41fea6",
  "osm3s": {
    "timestamp_osm_base": "2020-02-14T11:33:02Z",
    "copyright": "The data included in this document is from www.openstreetmap.org. The data is made available under ODbL."
  },
  "elements": [

{
  "type": "node",
  "id": 429896402,
  "lat": 49.0122648,
  "lon": 13.9982122,
  "tags": {
    "addr:city": "Prachatice",
    "addr:conscriptionnumber": "178",
    "addr:country": "CZ",
    "addr:housenumber": "178",
    "addr:postcode": "38301",
    "addr:street": "Poštovní",
    "is_in": "Prachatice I, Prachatice, Jihočeský kraj, CZ",
    "name": "Muzeum krajky",
    "name:en": "Museum of Bobbin Laces",
    "phone": "286580282",
    "ref:ruian": "17696798",
    "source:addr": "ruian",
    "tourism": "museum"
  }
},
{
  "type": "node",
  "id": 451724397,
  "lat": 49.3075604,
  "lon": 14.1462703,
  "tags": {
    "name": "Vodní elektrárna královského města Písku",
    "tourism": "museum"
  }
},
{
  "type": "node",
  "id": 451724398,
  "lat": 49.3088535,
  "lon": 14.1465376,
  "tags": {
    "addr:city": "Písek",
    "addr:housenumber": "114",
    "addr:postcode": "39720",
    "addr:street": "Velké náměstí",
    "name": "Prácheňské muzeum",
    "operator": "Prácheňské muzeum v Písku",
    "tourism": "museum",
    "website": "http://www.prachenskemuzeum.cz/"
  }
},
{
  "type": "node",
  "id": 609072921,
  "lat": 49.1484584,
  "lon": 14.1773377,
  "tags": {
    "tourism": "museum"
  }
},
{
  "type": "node",
  "id": 802642853,
  "lat": 49.0283146,
  "lon": 13.9398952,
  "tags": {
    "int_name": "Creche Museum",
    "name": "Muzeum betlémů",
    "tourism": "museum",
    "url": "http://www.papirove-betlemy.cz/"
  }
},
{
  "type": "node",
  "id": 1175188001,
  "lat": 49.2581410,
  "lon": 13.9017453,
  "tags": {
    "name": "Muzeum Středního Pootaví",
    "tourism": "museum"
  }
},
{
  "type": "node",
  "id": 1334395533,
  "lat": 49.0133431,
  "lon": 13.9982287,
  "tags": {
    "name": "Prachatické muzeum",
    "tourism": "museum"
  }
},
{
  "type": "node",
  "id": 1334399574,
  "lat": 49.0124268,
  "lon": 13.9980611,
  "tags": {
    "addr:city": "Prachatice",
    "addr:housenumber": "43",
    "addr:postcode": "38301",
    "addr:street": "Velké náměstí",
    "name": "Muzeum loutek",
    "opening_hours": "Tu-Su 09:00-17:00",
    "tourism": "museum"
  }
},
{
  "type": "node",
  "id": 1529785026,
  "lat": 49.3209954,
  "lon": 13.7010631,
  "tags": {
    "name": "Městské muzeum HORAŽĎOVICE",
    "tourism": "museum"
  }
},
{
  "type": "node",
  "id": 1997101298,
  "lat": 49.2965617,
  "lon": 14.4692809,
  "tags": {
    "name": "Muzeum turistiky",
    "tourism": "museum",
    "wikidata": "Q12039029",
    "wikipedia": "cs:Muzeum turistiky"
  }
},
{
  "type": "node",
  "id": 2081588955,
  "lat": 49.2944555,
  "lon": 14.4677316,
  "tags": {
    "name": "Městské muzeum",
    "tourism": "museum"
  }
},
{
  "type": "node",
  "id": 3164107515,
  "lat": 49.4246336,
  "lon": 13.8817453,
  "tags": {
    "email": "muzeum@blatna.net",
    "fax": "+420 383 422 640",
    "name": "Městské Muzeum Blatná",
    "phone": "+420 383 422 640",
    "tourism": "museum"
  }
},
{
  "type": "node",
  "id": 3414310251,
  "lat": 49.2939361,
  "lon": 14.1907171,
  "tags": {
    "name": "Luštírna",
    "operator": "Lesy města Písku",
    "source": "local knowledge",
    "tourism": "museum"
  }
},
{
  "type": "node",
  "id": 3451745082,
  "lat": 49.0521899,
  "lon": 13.9856009,
  "tags": {
    "tourism": "museum"
  }
},
{
  "type": "node",
  "id": 3667829631,
  "lat": 49.4058103,
  "lon": 13.7154540,
  "tags": {
    "name": "galerie Nositelů tradice lidových řemesel",
    "tourism": "museum"
  }
},
{
  "type": "node",
  "id": 3896933157,
  "lat": 49.1701020,
  "lon": 14.2540254,
  "tags": {
    "addr:city": "Protivín",
    "addr:housenumber": "26",
    "addr:place": "Záboří",
    "addr:postcode": "39811",
    "name": "Hasičské minimuzeum",
    "note": "Otevřeno po dohodě",
    "opening_hours": "Otevřeno po dohodě",
    "operator": "SDH Záboří, Josef Kovářík",
    "phone": "+420724257287",
    "tourism": "museum",
    "website": "http://www.sdhzabori.cz/hasicske-minimuzeum/"
  }
},
{
  "type": "node",
  "id": 6168939555,
  "lat": 49.4050220,
  "lon": 13.7149984,
  "tags": {
    "name": "Muzeum lidových řemesel",
    "tourism": "museum"
  }
},
{
  "type": "way",
  "id": 92830523,
  "nodes": [
    1076452813,
    1076453021,
    1076452583,
    1076452056,
    1076451923,
    3685049901,
    3685049907,
    3685049909,
    1076451423,
    3685049912,
    3685049908,
    3685049906,
    3685049900,
    1076453919,
    3685049890,
    3685049884,
    3685049883,
    1076454117,
    3685049882,
    1076453692,
    3685049881,
    3685049880,
    1076453255,
    1076452813
  ],
  "tags": {
    "building": "yes",
    "building:ruian:type": "5",
    "name": "Přírodovědné muzeum Semenec",
    "ref:ruian:building": "46948244",
    "source": "cuzk:ruian",
    "tourism": "museum"
  }
},
{
  "type": "way",
  "id": 93831507,
  "nodes": [
    1090196368,
    1090195433,
    1090195088,
    1090195979,
    1090196578,
    1090196368
  ],
  "tags": {
    "addr:city": "Volyně",
    "addr:conscriptionnumber": "744",
    "addr:country": "CZ",
    "addr:housenumber": "744",
    "addr:place": "Volyně",
    "addr:postcode": "38701",
    "addr:street": "Školní",
    "building": "civic",
    "building:levels": "1",
    "building:ruian:type": "15",
    "name": "Městské muzeum",
    "ref:ruian:addr": "27989909",
    "ref:ruian:building": "27456731",
    "source": "cuzk:ruian",
    "tourism": "museum"
  }
},
{
  "type": "way",
  "id": 365632787,
  "nodes": [
    3696405650,
    3696405630,
    3696405628,
    3696405643,
    3696405650
  ],
  "tags": {
    "building": "civic",
    "building:ruian:type": "5",
    "name": "Síň voroplavby",
    "note": "muzeum voroplavby",
    "ref:ruian:building": "17488052",
    "source": "cuzk:ruian",
    "tourism": "museum"
  }
},
{
  "type": "node",
  "id": 1090195088,
  "lat": 49.1674670,
  "lon": 13.8862517
},
{
  "type": "node",
  "id": 1090195433,
  "lat": 49.1673901,
  "lon": 13.8862712
},
{
  "type": "node",
  "id": 1090195979,
  "lat": 49.1674682,
  "lon": 13.8862614
},
{
  "type": "node",
  "id": 1090196368,
  "lat": 49.1674240,
  "lon": 13.8866203
},
{
  "type": "node",
  "id": 1090196578,
  "lat": 49.1675097,
  "lon": 13.8866043
},
{
  "type": "node",
  "id": 3696405628,
  "lat": 49.1267710,
  "lon": 14.4526378
},
{
  "type": "node",
  "id": 3696405630,
  "lat": 49.1267982,
  "lon": 14.4527650
},
{
  "type": "node",
  "id": 3696405643,
  "lat": 49.1268976,
  "lon": 14.4525689
},
{
  "type": "node",
  "id": 3696405650,
  "lat": 49.1269284,
  "lon": 14.4526976
},
{
  "type": "node",
  "id": 1076451423,
  "lat": 49.2337132,
  "lon": 14.4058481
},
{
  "type": "node",
  "id": 1076451923,
  "lat": 49.2336925,
  "lon": 14.4057966
},
{
  "type": "node",
  "id": 1076452056,
  "lat": 49.2337781,
  "lon": 14.4056019
},
{
  "type": "node",
  "id": 1076452583,
  "lat": 49.2337369,
  "lon": 14.4055597
},
{
  "type": "node",
  "id": 1076452813,
  "lat": 49.2334926,
  "lon": 14.4060260
},
{
  "type": "node",
  "id": 1076453021,
  "lat": 49.2334666,
  "lon": 14.4059621
},
{
  "type": "node",
  "id": 1076453255,
  "lat": 49.2336228,
  "lon": 14.4059004
},
{
  "type": "node",
  "id": 1076453692,
  "lat": 49.2336503,
  "lon": 14.4059313
},
{
  "type": "node",
  "id": 1076453919,
  "lat": 49.2336895,
  "lon": 14.4059236
},
{
  "type": "node",
  "id": 1076454117,
  "lat": 49.2336675,
  "lon": 14.4059341
},
{
  "type": "node",
  "id": 3685049880,
  "lat": 49.2336303,
  "lon": 14.4059139
},
{
  "type": "node",
  "id": 3685049881,
  "lat": 49.2336396,
  "lon": 14.4059244
},
{
  "type": "node",
  "id": 3685049882,
  "lat": 49.2336560,
  "lon": 14.4059333
},
{
  "type": "node",
  "id": 3685049883,
  "lat": 49.2336733,
  "lon": 14.4059330
},
{
  "type": "node",
  "id": 3685049884,
  "lat": 49.2336789,
  "lon": 14.4059308
},
{
  "type": "node",
  "id": 3685049890,
  "lat": 49.2336844,
  "lon": 14.4059277
},
{
  "type": "node",
  "id": 3685049900,
  "lat": 49.2336987,
  "lon": 14.4059128
},
{
  "type": "node",
  "id": 3685049901,
  "lat": 49.2337012,
  "lon": 14.4058084
},
{
  "type": "node",
  "id": 3685049906,
  "lat": 49.2337060,
  "lon": 14.4058991
},
{
  "type": "node",
  "id": 3685049907,
  "lat": 49.2337078,
  "lon": 14.4058229
},
{
  "type": "node",
  "id": 3685049908,
  "lat": 49.2337110,
  "lon": 14.4058831
},
{
  "type": "node",
  "id": 3685049909,
  "lat": 49.2337120,
  "lon": 14.4058394
},
{
  "type": "node",
  "id": 3685049912,
  "lat": 49.2337134,
  "lon": 14.4058658
}

  ]
}
