{
  "version": 0.6,
  "generator": "Overpass API 0.7.55.9 ab41fea6",
  "osm3s": {
    "timestamp_osm_base": "2020-02-14T09:47:02Z",
    "copyright": "The data included in this document is from www.openstreetmap.org. The data is made available under ODbL."
  },
  "elements": [

{
  "type": "node",
  "id": 302826860,
  "lat": 51.4234121,
  "lon": -1.9952871,
  "tags": {
    "name": "Atwell-Wilson Motor Museum",
    "opening_hours": "Apr-Oct: Tu-Su 11:00-17:00;Nov-Mar: Th-Su 11:00-16:00",
    "tourism": "museum"
  }
},
{
  "type": "node",
  "id": 368610180,
  "lat": 51.3825066,
  "lon": -2.3669406,
  "tags": {
    "addr:city": "Bath",
    "addr:housenumber": "19",
    "addr:street": "New King Street",
    "name": "Herschel Museum of Astronomy",
    "operator": "Bath Preservation Trust",
    "tourism": "museum",
    "website": "https://herschelmuseum.org.uk/",
    "wheelchair": "no",
    "wikidata": "Q3369709"
  }
},
{
  "type": "node",
  "id": 369729598,
  "lat": 51.4575708,
  "lon": -2.1144033,
  "tags": {
    "addr:city": "Chippenham",
    "addr:housenumber": "10",
    "addr:postcode": "SN15 3HF",
    "addr:street": "Market Place",
    "name": "Chippenham Museum & Heritage Centre",
    "tourism": "museum"
  }
},
{
  "type": "node",
  "id": 693647171,
  "lat": 51.1884765,
  "lon": -2.5480700,
  "tags": {
    "tourism": "museum"
  }
},
{
  "type": "node",
  "id": 903656210,
  "lat": 51.0056217,
  "lon": -2.1966758,
  "tags": {
    "addr:postcode": "SP7 8JW",
    "addr:street": "Gold Hill",
    "email": "enquiries@goldhillmuseum.org.uk",
    "name": "Gold Hill Museum",
    "phone": "+44 1747 852157",
    "tourism": "museum",
    "website": "https://goldhillmuseum.org.uk/"
  }
},
{
  "type": "node",
  "id": 912701741,
  "lat": 51.0358820,
  "lon": -2.2758959,
  "tags": {
    "addr:postcode": "SP8 4UA",
    "email": "office@gillinghammuseum.co.uk",
    "name": "Gillingham Museum",
    "tourism": "museum",
    "website": "http://www.gillinghammuseum.co.uk/"
  }
},
{
  "type": "node",
  "id": 1118711994,
  "lat": 51.3206057,
  "lon": -2.2093269,
  "tags": {
    "name": "Trowbridge Museum",
    "tourism": "museum",
    "wikidata": "Q7846682"
  }
},
{
  "type": "node",
  "id": 1179833836,
  "lat": 51.2322956,
  "lon": -2.3198315,
  "tags": {
    "name": "Frome Museum",
    "tourism": "museum",
    "wikidata": "Q5505735"
  }
},
{
  "type": "node",
  "id": 1286958975,
  "lat": 51.3542443,
  "lon": -1.9980252,
  "tags": {
    "industrial": "brewery",
    "name": "Wadworth Brewery",
    "real_ale": "yes",
    "tourism": "museum",
    "website": "http://www.wadworth.co.uk/",
    "wikidata": "Q7959363",
    "wikipedia": "en:Wadworth Brewery"
  }
},
{
  "type": "node",
  "id": 1529742659,
  "lat": 50.9255949,
  "lon": -2.3051047,
  "tags": {
    "name": "Sturminster Museum",
    "phone": "+44 1258 817116",
    "tourism": "museum",
    "website": "https://www.sturminsternewton-museum.co.uk/"
  }
},
{
  "type": "node",
  "id": 1612021991,
  "lat": 51.0899315,
  "lon": -2.2705403,
  "tags": {
    "name": "Mere Museum",
    "tourism": "museum"
  }
},
{
  "type": "node",
  "id": 1638998690,
  "lat": 51.3499174,
  "lon": -1.9936462,
  "tags": {
    "name": "Wiltshire Heritage Museum",
    "tourism": "museum",
    "wikidata": "Q8023438"
  }
},
{
  "type": "node",
  "id": 1639000308,
  "lat": 51.3550618,
  "lon": -1.9945549,
  "tags": {
    "name": "Kennet and Avon Canal Museum",
    "tourism": "museum",
    "wikidata": "Q4249914"
  }
},
{
  "type": "node",
  "id": 1716233613,
  "lat": 51.4950612,
  "lon": -2.2263462,
  "tags": {
    "name": "Castle Combe Museum",
    "tourism": "museum"
  }
},
{
  "type": "node",
  "id": 1744440469,
  "lat": 51.3565858,
  "lon": -1.8505070,
  "tags": {
    "fee": "no",
    "name": "Ray Popes' Photo Musuem",
    "opening_hours": "24/7",
    "tourism": "museum"
  }
},
{
  "type": "node",
  "id": 2090015073,
  "lat": 51.1120778,
  "lon": -2.4542773,
  "tags": {
    "name": "Bruton Museum",
    "tourism": "museum",
    "wikidata": "Q4979873"
  }
},
{
  "type": "node",
  "id": 2679028086,
  "lat": 51.3464314,
  "lon": -2.2501766,
  "tags": {
    "name": "Bradford on Avon Museum",
    "tourism": "museum",
    "website": "http://www.bradfordonavonmuseum.co.uk/"
  }
},
{
  "type": "node",
  "id": 2697518597,
  "lat": 51.3862376,
  "lon": -2.3628285,
  "tags": {
    "addr:housename": "Assembly Rooms",
    "addr:postcode": "BA1 2QH",
    "addr:street": "Bennett Street",
    "description": "Fashionable dress for men, women and children from the late 16th century to the present day",
    "name": "Assembly Rooms and Fashion Museum",
    "opening_hours": "10:30-17:00",
    "operator": "Bath & North East Somerset Council",
    "source": "website",
    "source:description": "en:wikipedia",
    "tourism": "museum",
    "website": "https://www.fashionmuseum.co.uk/",
    "wheelchair": "yes",
    "wikidata": "Q5436742",
    "wikipedia": "en:Fashion Museum, Bath"
  }
},
{
  "type": "node",
  "id": 3166294015,
  "lat": 51.1727794,
  "lon": -1.7811149,
  "tags": {
    "addr:city": "Amesbury, Salisbury",
    "addr:street": "High Street",
    "name": "Amesbury Aviation Heritage Centre",
    "source": "Photograph",
    "tourism": "museum"
  }
},
{
  "type": "node",
  "id": 3804338083,
  "lat": 51.4170550,
  "lon": -2.2548553,
  "tags": {
    "name": "Box Rock Circus",
    "tourism": "museum"
  }
},
{
  "type": "node",
  "id": 4523986945,
  "lat": 51.3834392,
  "lon": -2.3600760,
  "tags": {
    "name": "Bath Postal Museum",
    "tourism": "museum",
    "wheelchair": "yes",
    "wheelchair:description": "Stairlift to basement museum.",
    "wikidata": "Q4375431"
  }
},
{
  "type": "node",
  "id": 4832276236,
  "lat": 51.1841873,
  "lon": -1.8572014,
  "tags": {
    "name": "Exhibition",
    "tourism": "museum"
  }
},
{
  "type": "node",
  "id": 4866242529,
  "lat": 51.0897643,
  "lon": -2.2891501,
  "tags": {
    "name": "Hillbrush",
    "tourism": "museum"
  }
},
{
  "type": "node",
  "id": 4997338411,
  "lat": 51.2273658,
  "lon": -2.6717054,
  "tags": {
    "name": "Paper Making Museum",
    "tourism": "museum"
  }
},
{
  "type": "node",
  "id": 4997338413,
  "lat": 51.2275583,
  "lon": -2.6716053,
  "tags": {
    "name": "Cave Diving Museum",
    "tourism": "museum"
  }
},
{
  "type": "node",
  "id": 5634986893,
  "lat": 51.4369913,
  "lon": -2.0045536,
  "tags": {
    "addr:city": "Calne",
    "addr:housename": "Carnegie Building",
    "addr:postcode": "SN11 0SQ",
    "addr:street": "New Road",
    "email": "email@calneheritage.co.uk",
    "name": "Calne Heritage Centre",
    "phone": "+44 1249 815 305",
    "tourism": "museum",
    "website": "http://www.calneheritage.co.uk/index.php"
  }
},
{
  "type": "way",
  "id": 27832246,
  "nodes": [
    305579302,
    305579303,
    305579305,
    305579306,
    305579302
  ],
  "tags": {
    "building": "yes",
    "name": "Fox Talbot Museum",
    "operator": "National Trust",
    "tourism": "museum",
    "website": "https://www.nationaltrust.org.uk/lacock-abbey-fox-talbot-museum-and-village",
    "wheelchair": "yes",
    "wikidata": "Q26273040"
  }
},
{
  "type": "way",
  "id": 28164251,
  "nodes": [
    309349790,
    309349791,
    4752670127,
    4752670128,
    4752670129,
    4752670130,
    4752670131,
    4752670132,
    4752670133,
    4752670134,
    309349792,
    309349793,
    309349790
  ],
  "tags": {
    "aeroway": "hangar",
    "building": "yes",
    "name": "Boscombe Down Aviation Collection",
    "tourism": "museum",
    "website": "http://www.boscombedownaviationcollection.co.uk/"
  }
},
{
  "type": "way",
  "id": 40034967,
  "nodes": [
    1873505382,
    26428429,
    481390339,
    479090343,
    481390341,
    4171766880,
    2073737627,
    2073737624,
    1324422734,
    2073737610,
    4171766879,
    4171766881,
    460409152,
    2697592095,
    479090376,
    2697592096,
    1863269722,
    1926998257,
    1873505495,
    1873505465,
    1873505459,
    4171785610,
    1873505494,
    1873505428,
    1873505392,
    1873505516,
    1873505502,
    1926998262,
    1926998260,
    1926998265,
    1926998289,
    1926998286,
    1873505492,
    1873505357,
    1863269613,
    1873505467,
    1873505468,
    1873505382
  ],
  "tags": {
    "addr:housename": "The Holburne Museum",
    "addr:postcode": "BA2 4DB",
    "addr:street": "Great Pulteney Street",
    "description": "Art museum with about 9,000 objects",
    "fee": "free",
    "name": "Holburne Museum",
    "source:description": "website",
    "toilets:wheelchair": "yes",
    "tourism": "museum",
    "website": "https://www.holburne.org/",
    "wheelchair": "yes",
    "wikidata": "Q5878811",
    "wikipedia": "en:Holburne Museum of Art"
  }
},
{
  "type": "way",
  "id": 74533973,
  "nodes": [
    880865385,
    3836365071,
    3836365072,
    3836365073,
    3836365074,
    3836365070,
    880871943,
    880871946,
    880871954,
    880865385
  ],
  "tags": {
    "addr:city": "Bath",
    "addr:housename": "The Old Schoolhouse",
    "addr:street": "The Paragon",
    "building": "yes",
    "name": "Museum of Bath Arcitecture",
    "opening_hours": "Tu-Fr 14:00-17:00; Sa,Su 10:30-17:00",
    "operator": "Bath Preservation Trust",
    "toilets:wheelchair": "no",
    "tourism": "museum",
    "website": "https://museumofbatharchitecture.org.uk/",
    "wheelchair": "yes",
    "wheelchair:description": "N.B. Historic building with uneven stone floor.  Toilets up a couple of steps."
  }
},
{
  "type": "way",
  "id": 79656972,
  "nodes": [
    929533232,
    1430801437,
    1430801435,
    2669418311,
    2669418264,
    929533233,
    2669418013,
    2669417961,
    929533234,
    2669417895,
    2669417882,
    2669417898,
    2669417904,
    2669417947,
    1430801433,
    929533235,
    2075976244,
    2461015935,
    2461015965,
    929533232
  ],
  "tags": {
    "alt_name": "The Rifles (Berkshire and Wiltshire) Museum",
    "alt_name2": "The Rifles Salisbury Office",
    "name": "The Rifles Museum",
    "note": "Building is both a museum and the Salisbury office of The Rifles army regiment.",
    "office": "government",
    "tourism": "museum",
    "website": "https://www.thewardrobe.org.uk/",
    "website2": "https://www.army.mod.uk/infantry/regiments/23448.aspx",
    "wikidata": "Q17544103"
  }
},
{
  "type": "way",
  "id": 79788073,
  "nodes": [
    5673692292,
    931302577,
    5666383356,
    5666383355,
    5666383354,
    5666383353,
    5666383352,
    5666383351,
    5666383350,
    5666383357,
    5666383363,
    5673692295,
    5673692294,
    5673692292
  ],
  "tags": {
    "addr:city": "Bath",
    "addr:housenumber": "16-18",
    "addr:postcode": "BA1 2HN",
    "addr:street": "Queen Square",
    "building": "commercial",
    "name": "Bath Royal Literary & Scientific Institution",
    "tourism": "museum",
    "website": "https://www.brlsi.org/",
    "wheelchair": "no"
  }
},
{
  "type": "way",
  "id": 80290576,
  "nodes": [
    937129650,
    937129651,
    937129652,
    937129653,
    937129655,
    937129656,
    937129650
  ],
  "tags": {
    "building": "yes",
    "name": "The American Museum (Claverton Manor)",
    "source": "Bing",
    "toilets:wheelchair": "yes",
    "tourism": "museum",
    "website": "http://www.americanmuseum.org/",
    "wheelchair": "yes",
    "wikidata": "Q465746"
  }
},
{
  "type": "way",
  "id": 85665451,
  "nodes": [
    993848601,
    993849073,
    993848270,
    993848537,
    993848471,
    993848692,
    993849107,
    3994877273,
    3994877275,
    3994877274,
    3994877272,
    3994877271,
    3994877267,
    993848193,
    993848601
  ],
  "tags": {
    "building": "yes",
    "name": "Wells Museum",
    "source": "OS_OpenData_StreetView",
    "tourism": "museum",
    "wikidata": "Q7981719"
  }
},
{
  "type": "way",
  "id": 108690624,
  "nodes": [
    1246291590,
    1246291442,
    1246291392,
    1246291518,
    1246291533,
    1246291757,
    1246291487,
    5180454564,
    1246291728,
    1246291564,
    703590362,
    1246291776,
    1246291697,
    1246291590
  ],
  "tags": {
    "addr:postcode": "BA22 7LH",
    "building": "yes",
    "name": "Haynes International Motor Museum",
    "phone": "+44 1963 440 804",
    "tourism": "museum",
    "website": "https://www.haynesmotormuseum.com/"
  }
},
{
  "type": "way",
  "id": 120020819,
  "nodes": [
    1346735000,
    1346735008,
    1346735019,
    1346735016,
    1346735000
  ],
  "tags": {
    "addr:city": "Bath",
    "addr:postcode": "BA1 2RH",
    "addr:street": "Julian Road",
    "building": "yes",
    "fhrs:id": "204972",
    "name": "Museum of Bath at Work",
    "phone": "+44 1225 318348",
    "tourism": "museum",
    "website": "http://www.bath-at-work.org.uk",
    "wheelchair": "yes",
    "wheelchair:description": "Access available at rear of building",
    "wikidata": "Q15260368"
  }
},
{
  "type": "way",
  "id": 121115396,
  "nodes": [
    1052476722,
    3835562891,
    3835574681,
    3835574689,
    3835574682,
    3835574684,
    3835574683,
    1052476896,
    3835562895,
    1052477343,
    3835574679,
    1052477306,
    987483114,
    1052477251,
    987483118,
    1052476722
  ],
  "tags": {
    "addr:city": "Bath",
    "addr:housenumber": "1",
    "addr:postcode": "BA1 2LR",
    "addr:street": "Royal Crescent",
    "building": "yes",
    "fee": "yes",
    "fhrs:id": "771091",
    "name": "No.1 Royal Crescent Museum",
    "name:zh": "皇家新月楼1号",
    "opening_hours": "Mo-Su 10:00-17:00",
    "operator": "Bath Preservation Trust",
    "tourism": "museum",
    "website": "https://no1royalcrescent.org.uk/",
    "wheelchair": "limited",
    "wikidata": "Q21521452"
  }
},
{
  "type": "way",
  "id": 137725840,
  "nodes": [
    1510322755,
    5321004781,
    5321004780,
    1510322769,
    1510322758,
    2715770124,
    2715770013,
    2715769933,
    2715770056,
    1510322761,
    6226249535,
    1510322755
  ],
  "tags": {
    "building": "yes",
    "name": "Wiltshire and Swindon History Centre",
    "operator": "Wiltshire Council",
    "tourism": "museum"
  }
},
{
  "type": "way",
  "id": 144473712,
  "nodes": [
    1580236356,
    1580235888,
    3397563176,
    3397563177,
    3365844191,
    4309968093,
    1580236356
  ],
  "tags": {
    "addr:postcode": "BA3 3EP",
    "building": "yes",
    "fhrs:id": "203997",
    "name": "Radstock Museum",
    "tourism": "museum",
    "website": "radstockmuseum.co.uk/",
    "wikidata": "Q7281699"
  }
},
{
  "type": "way",
  "id": 162014589,
  "nodes": [
    1739600747,
    1739600760,
    1739600758,
    1739600764,
    1739600768,
    1739600770,
    1739600772,
    1739600766,
    1739600748,
    1739600762,
    1739600747
  ],
  "tags": {
    "building": "yes",
    "name": "Kingswood Heritage Museum",
    "source:outline": "Bing",
    "tourism": "museum"
  }
},
{
  "type": "way",
  "id": 162785101,
  "nodes": [
    1746060765,
    1746060762,
    1746060763,
    1746060766,
    1746060765
  ],
  "tags": {
    "building": "yes",
    "fee": "yes",
    "historic": "building",
    "name": "Avebury Tithe Barn/Alexander Keiller Museum",
    "opening_hours": "Mo-Su 10:00-18:00",
    "operator": "National Trust",
    "tourism": "museum",
    "website": "https://www.nationaltrust.org.uk/avebury/",
    "wheelchair": "yes"
  }
},
{
  "type": "way",
  "id": 261309916,
  "nodes": [
    2669417559,
    2669417557,
    2669417553,
    1624653577,
    1624653506,
    1624653526,
    2669417548,
    2669417544,
    1624653528,
    1624653532,
    2669417538,
    2669417537,
    2669417533,
    1624653573,
    2669417532,
    1624653571,
    2669417530,
    2669417534,
    2669417531,
    2669417529,
    1624653580,
    1624653591,
    1624653522,
    1624653539,
    2669417536,
    2669417535,
    1624653540,
    1624653530,
    2669417543,
    2669417539,
    2669417551,
    2669417552,
    1624653549,
    2669417555,
    2669417558,
    2669417561,
    1624653547,
    2669417568,
    1624653508,
    2669417580,
    2669417581,
    2669417577,
    2669417575,
    2669417572,
    2669417566,
    1624653525,
    2669417563,
    2669417559
  ],
  "tags": {
    "addr:housenumber": "65",
    "alt_name": "Salisbury Museum",
    "building": "yes",
    "name": "Salisbury and South Wiltshire Museum",
    "tourism": "museum",
    "wikidata": "Q7404829"
  }
},
{
  "type": "way",
  "id": 368271015,
  "nodes": [
    3721174401,
    3721174402,
    3721174403,
    3721174404,
    3721174401
  ],
  "tags": {
    "building": "yes",
    "name": "Market Lavington Museum",
    "opening_hours": "Saturday, Sunday, Wednesday and Bank Holiday afternoons from 2.30 to 4.30 pm between the 1st of May and the 30th October.",
    "tourism": "museum",
    "website": "http://www.marketlavingtonmuseum.org.uk/"
  }
},
{
  "type": "way",
  "id": 371698245,
  "nodes": [
    3751555065,
    3752543930,
    617179443,
    617179447,
    1354973250,
    617179450,
    3751555067,
    3751555065
  ],
  "tags": {
    "addr:city": "Bath",
    "addr:housenumber": "12",
    "addr:postcode": "BA1 2QJ",
    "addr:street": "Bennett Street",
    "building": "yes",
    "description": "Last admission to the museum is at 16:30. Closed on Mondays and Bank Holiday Mondays.",
    "name": "Museum of East Asian Art",
    "opening_hours": "Tu-Sa 10:00-17:00; Su 12:00-17:00",
    "source": "Personal knowledge & MEAA website",
    "tourism": "museum",
    "website": "https://meaa.org.uk/",
    "wheelchair": "limited",
    "wikidata": "Q3328433"
  }
},
{
  "type": "way",
  "id": 433031049,
  "nodes": [
    4319573482,
    4319573483,
    4319573484,
    4319573485,
    4319573486,
    4319573487,
    4319573482
  ],
  "tags": {
    "building": "yes",
    "tourism": "museum"
  }
},
{
  "type": "way",
  "id": 457209488,
  "nodes": [
    4254088125,
    4254088126,
    5496853085,
    4254088135,
    5496853086,
    4254088141,
    4254088143,
    4533841828,
    4533841829,
    5490657293,
    4445969633,
    4533841830,
    4533841831,
    4155683329,
    4533841832,
    4533841833,
    4533841834,
    4254088125
  ],
  "tags": {
    "tourism": "museum"
  }
},
{
  "type": "way",
  "id": 557083339,
  "nodes": [
    5373040469,
    5373059235,
    5373059228,
    5373059240,
    5373040470,
    5373040469
  ],
  "tags": {
    "addr:city": "Bath",
    "addr:housenumber": "40",
    "addr:postcode": "BA1 2NT",
    "addr:street": "Gay Street",
    "building": "retail",
    "fhrs:id": "204296",
    "name": "Jane Austen Centre",
    "phone": "+44 1225 443000",
    "tourism": "museum",
    "website": "https://www.janeausten.co.uk/",
    "wheelchair": "no",
    "wheelchair:description": "Big step at front. Ramp available on request. exhibition on single floor, but tea room upstairs",
    "wikidata": "Q6151132"
  }
},
{
  "type": "way",
  "id": 577204160,
  "nodes": [
    5533902019,
    5533902020,
    5533902021,
    5533902022,
    5533902019
  ],
  "tags": {
    "building": "yes",
    "name": "Pewsey Heritage Centre",
    "tourism": "museum"
  }
},
{
  "type": "way",
  "id": 636269892,
  "nodes": [
    6000105346,
    6000105348,
    6000105349,
    6000105350,
    6000105351,
    6000105346
  ],
  "tags": {
    "addr:city": "Bath",
    "addr:country": "GB",
    "addr:housenumber": "54a",
    "addr:postcode": "BA2 5HZ",
    "addr:street": "Combe Road",
    "addr:suburb": "Combe Down",
    "building": "museum",
    "name": "Museum of Bath Stone",
    "opening_hours": "Su 10:00-16:00; Mo 10:00-13:00, 14:00-16:00",
    "phone": "+44 1225 837 439",
    "tourism": "museum",
    "website": "https://www.museumofbathstone.org/"
  }
},
{
  "type": "relation",
  "id": 6755933,
  "members": [
    {
      "type": "way",
      "ref": 414421729,
      "role": "outer"
    },
    {
      "type": "way",
      "ref": 457209489,
      "role": "outer"
    }
  ],
  "tags": {
    "addr:city": "Lyneham",
    "addr:housename": "MoD Lynahm",
    "addr:postcode": "SN15 4XX",
    "addr:street": "Calne Road",
    "building": "yes",
    "name": "REME Museum",
    "opening_hours": "Tu-Sa 10:00-16:30",
    "operator": "REME Museum",
    "phone": "+44 1249 89 4869",
    "tourism": "museum",
    "type": "multipolygon",
    "website": "https://www.rememuseum.org.uk/",
    "wheelchair": "yes",
    "wikidata": "Q7276351"
  }
},
{
  "type": "node",
  "id": 703590362,
  "lat": 51.0407583,
  "lon": -2.5595062
},
{
  "type": "node",
  "id": 1246291392,
  "lat": 51.0410296,
  "lon": -2.5599444
},
{
  "type": "node",
  "id": 1246291442,
  "lat": 51.0409413,
  "lon": -2.5598934
},
{
  "type": "node",
  "id": 1246291487,
  "lat": 51.0410221,
  "lon": -2.5583636
},
{
  "type": "node",
  "id": 1246291518,
  "lat": 51.0415476,
  "lon": -2.5581771
},
{
  "type": "node",
  "id": 1246291533,
  "lat": 51.0412363,
  "lon": -2.5579531
},
{
  "type": "node",
  "id": 1246291564,
  "lat": 51.0410239,
  "lon": -2.5586867
},
{
  "type": "node",
  "id": 1246291590,
  "lat": 51.0408779,
  "lon": -2.5600695
},
{
  "type": "node",
  "id": 1246291697,
  "lat": 51.0405006,
  "lon": -2.5596250
},
{
  "type": "node",
  "id": 1246291728,
  "lat": 51.0409473,
  "lon": -2.5586236
},
{
  "type": "node",
  "id": 1246291757,
  "lat": 51.0411018,
  "lon": -2.5584314
},
{
  "type": "node",
  "id": 1246291776,
  "lat": 51.0405787,
  "lon": -2.5593574
},
{
  "type": "node",
  "id": 5180454564,
  "lat": 51.0409864,
  "lon": -2.5584876
},
{
  "type": "node",
  "id": 993848193,
  "lat": 51.2107311,
  "lon": -2.6446524
},
{
  "type": "node",
  "id": 993848270,
  "lat": 51.2112216,
  "lon": -2.6446194
},
{
  "type": "node",
  "id": 993848471,
  "lat": 51.2109150,
  "lon": -2.6445894
},
{
  "type": "node",
  "id": 993848537,
  "lat": 51.2111825,
  "lon": -2.6447684
},
{
  "type": "node",
  "id": 993848601,
  "lat": 51.2112632,
  "lon": -2.6449802
},
{
  "type": "node",
  "id": 993848692,
  "lat": 51.2109785,
  "lon": -2.6443481
},
{
  "type": "node",
  "id": 993849073,
  "lat": 51.2113376,
  "lon": -2.6446971
},
{
  "type": "node",
  "id": 993849107,
  "lat": 51.2108246,
  "lon": -2.6442382
},
{
  "type": "node",
  "id": 3994877267,
  "lat": 51.2107519,
  "lon": -2.6445544
},
{
  "type": "node",
  "id": 3994877271,
  "lat": 51.2107900,
  "lon": -2.6445799
},
{
  "type": "node",
  "id": 3994877272,
  "lat": 51.2107998,
  "lon": -2.6445396
},
{
  "type": "node",
  "id": 3994877273,
  "lat": 51.2108076,
  "lon": -2.6443118
},
{
  "type": "node",
  "id": 3994877274,
  "lat": 51.2108215,
  "lon": -2.6445536
},
{
  "type": "node",
  "id": 3994877275,
  "lat": 51.2108637,
  "lon": -2.6443505
},
{
  "type": "node",
  "id": 4319573482,
  "lat": 50.9255718,
  "lon": -2.3049751
},
{
  "type": "node",
  "id": 4319573483,
  "lat": 50.9255592,
  "lon": -2.3051773
},
{
  "type": "node",
  "id": 4319573484,
  "lat": 50.9256381,
  "lon": -2.3051897
},
{
  "type": "node",
  "id": 4319573485,
  "lat": 50.9256430,
  "lon": -2.3051113
},
{
  "type": "node",
  "id": 4319573486,
  "lat": 50.9256146,
  "lon": -2.3051068
},
{
  "type": "node",
  "id": 4319573487,
  "lat": 50.9256223,
  "lon": -2.3049830
},
{
  "type": "node",
  "id": 929533232,
  "lat": 51.0666607,
  "lon": -1.8007623
},
{
  "type": "node",
  "id": 929533233,
  "lat": 51.0662710,
  "lon": -1.7991215
},
{
  "type": "node",
  "id": 929533234,
  "lat": 51.0659760,
  "lon": -1.7992078
},
{
  "type": "node",
  "id": 929533235,
  "lat": 51.0663780,
  "lon": -1.8011445
},
{
  "type": "node",
  "id": 1430801433,
  "lat": 51.0661788,
  "lon": -1.8006337
},
{
  "type": "node",
  "id": 1430801435,
  "lat": 51.0664282,
  "lon": -1.7999781
},
{
  "type": "node",
  "id": 1430801437,
  "lat": 51.0665686,
  "lon": -1.8005652
},
{
  "type": "node",
  "id": 1624653506,
  "lat": 51.0645903,
  "lon": -1.7997426
},
{
  "type": "node",
  "id": 1624653508,
  "lat": 51.0648152,
  "lon": -1.8005013
},
{
  "type": "node",
  "id": 1624653522,
  "lat": 51.0641730,
  "lon": -1.8002931
},
{
  "type": "node",
  "id": 1624653525,
  "lat": 51.0647355,
  "lon": -1.7999836
},
{
  "type": "node",
  "id": 1624653526,
  "lat": 51.0646236,
  "lon": -1.7999502
},
{
  "type": "node",
  "id": 1624653528,
  "lat": 51.0643995,
  "lon": -1.7999782
},
{
  "type": "node",
  "id": 1624653530,
  "lat": 51.0643818,
  "lon": -1.8002644
},
{
  "type": "node",
  "id": 1624653532,
  "lat": 51.0643725,
  "lon": -1.7998296
},
{
  "type": "node",
  "id": 1624653539,
  "lat": 51.0641978,
  "lon": -1.8005401
},
{
  "type": "node",
  "id": 1624653540,
  "lat": 51.0644010,
  "lon": -1.8003934
},
{
  "type": "node",
  "id": 1624653547,
  "lat": 51.0647481,
  "lon": -1.8004362
},
{
  "type": "node",
  "id": 1624653549,
  "lat": 51.0646574,
  "lon": -1.8001266
},
{
  "type": "node",
  "id": 1624653571,
  "lat": 51.0642903,
  "lon": -1.7999473
},
{
  "type": "node",
  "id": 1624653573,
  "lat": 51.0642974,
  "lon": -1.7997766
},
{
  "type": "node",
  "id": 1624653577,
  "lat": 51.0646396,
  "lon": -1.7997259
},
{
  "type": "node",
  "id": 1624653580,
  "lat": 51.0641983,
  "lon": -1.8000350
},
{
  "type": "node",
  "id": 1624653591,
  "lat": 51.0642304,
  "lon": -1.8002685
},
{
  "type": "node",
  "id": 2075976244,
  "lat": 51.0664451,
  "lon": -1.8010505
},
{
  "type": "node",
  "id": 2461015935,
  "lat": 51.0665087,
  "lon": -1.8009638
},
{
  "type": "node",
  "id": 2461015965,
  "lat": 51.0666064,
  "lon": -1.8008296
},
{
  "type": "node",
  "id": 2669417529,
  "lat": 51.0642492,
  "lon": -1.8000200
},
{
  "type": "node",
  "id": 2669417530,
  "lat": 51.0642687,
  "lon": -1.7999517
},
{
  "type": "node",
  "id": 2669417531,
  "lat": 51.0642687,
  "lon": -1.8001580
},
{
  "type": "node",
  "id": 2669417532,
  "lat": 51.0642726,
  "lon": -1.7997920
},
{
  "type": "node",
  "id": 2669417533,
  "lat": 51.0642960,
  "lon": -1.7997455
},
{
  "type": "node",
  "id": 2669417534,
  "lat": 51.0642999,
  "lon": -1.8001409
},
{
  "type": "node",
  "id": 2669417535,
  "lat": 51.0643427,
  "lon": -1.8004201
},
{
  "type": "node",
  "id": 2669417536,
  "lat": 51.0643535,
  "lon": -1.8004898
},
{
  "type": "node",
  "id": 2669417537,
  "lat": 51.0643759,
  "lon": -1.7997129
},
{
  "type": "node",
  "id": 2669417538,
  "lat": 51.0643905,
  "lon": -1.7998230
},
{
  "type": "node",
  "id": 2669417539,
  "lat": 51.0644071,
  "lon": -1.8002030
},
{
  "type": "node",
  "id": 2669417543,
  "lat": 51.0644139,
  "lon": -1.8002526
},
{
  "type": "node",
  "id": 2669417544,
  "lat": 51.0644353,
  "lon": -1.7999672
},
{
  "type": "node",
  "id": 2669417548,
  "lat": 51.0644460,
  "lon": -1.8000107
},
{
  "type": "node",
  "id": 2669417551,
  "lat": 51.0644928,
  "lon": -1.8001673
},
{
  "type": "node",
  "id": 2669417552,
  "lat": 51.0644987,
  "lon": -1.8001983
},
{
  "type": "node",
  "id": 2669417553,
  "lat": 51.0646575,
  "lon": -1.7998432
},
{
  "type": "node",
  "id": 2669417555,
  "lat": 51.0646897,
  "lon": -1.8003208
},
{
  "type": "node",
  "id": 2669417557,
  "lat": 51.0647030,
  "lon": -1.7998219
},
{
  "type": "node",
  "id": 2669417558,
  "lat": 51.0647043,
  "lon": -1.8003162
},
{
  "type": "node",
  "id": 2669417559,
  "lat": 51.0647131,
  "lon": -1.7998600
},
{
  "type": "node",
  "id": 2669417561,
  "lat": 51.0647228,
  "lon": -1.8004464
},
{
  "type": "node",
  "id": 2669417563,
  "lat": 51.0647284,
  "lon": -1.7999354
},
{
  "type": "node",
  "id": 2669417566,
  "lat": 51.0647608,
  "lon": -1.8001425
},
{
  "type": "node",
  "id": 2669417568,
  "lat": 51.0647657,
  "lon": -1.8005193
},
{
  "type": "node",
  "id": 2669417572,
  "lat": 51.0647745,
  "lon": -1.8001347
},
{
  "type": "node",
  "id": 2669417575,
  "lat": 51.0647979,
  "lon": -1.8002789
},
{
  "type": "node",
  "id": 2669417577,
  "lat": 51.0648057,
  "lon": -1.8002743
},
{
  "type": "node",
  "id": 2669417580,
  "lat": 51.0648125,
  "lon": -1.8004681
},
{
  "type": "node",
  "id": 2669417581,
  "lat": 51.0648398,
  "lon": -1.8004604
},
{
  "type": "node",
  "id": 2669417882,
  "lat": 51.0660055,
  "lon": -1.7995877
},
{
  "type": "node",
  "id": 2669417895,
  "lat": 51.0660186,
  "lon": -1.7995298
},
{
  "type": "node",
  "id": 2669417898,
  "lat": 51.0660226,
  "lon": -1.7996999
},
{
  "type": "node",
  "id": 2669417904,
  "lat": 51.0660457,
  "lon": -1.7998508
},
{
  "type": "node",
  "id": 2669417947,
  "lat": 51.0660724,
  "lon": -1.7999424
},
{
  "type": "node",
  "id": 2669417961,
  "lat": 51.0660970,
  "lon": -1.7991724
},
{
  "type": "node",
  "id": 2669418013,
  "lat": 51.0661410,
  "lon": -1.7991595
},
{
  "type": "node",
  "id": 2669418264,
  "lat": 51.0663044,
  "lon": -1.7993576
},
{
  "type": "node",
  "id": 2669418311,
  "lat": 51.0663318,
  "lon": -1.7995168
},
{
  "type": "node",
  "id": 309349790,
  "lat": 51.1000163,
  "lon": -1.7862291
},
{
  "type": "node",
  "id": 309349791,
  "lat": 51.0996409,
  "lon": -1.7857992
},
{
  "type": "node",
  "id": 309349792,
  "lat": 51.0999248,
  "lon": -1.7851719
},
{
  "type": "node",
  "id": 309349793,
  "lat": 51.1002997,
  "lon": -1.7856014
},
{
  "type": "node",
  "id": 4752670127,
  "lat": 51.0997066,
  "lon": -1.7856539
},
{
  "type": "node",
  "id": 4752670128,
  "lat": 51.0996691,
  "lon": -1.7856110
},
{
  "type": "node",
  "id": 4752670129,
  "lat": 51.0995939,
  "lon": -1.7857776
},
{
  "type": "node",
  "id": 4752670130,
  "lat": 51.0995280,
  "lon": -1.7857022
},
{
  "type": "node",
  "id": 4752670131,
  "lat": 51.0997240,
  "lon": -1.7852682
},
{
  "type": "node",
  "id": 4752670132,
  "lat": 51.0997876,
  "lon": -1.7853411
},
{
  "type": "node",
  "id": 4752670133,
  "lat": 51.0997243,
  "lon": -1.7854813
},
{
  "type": "node",
  "id": 4752670134,
  "lat": 51.0997643,
  "lon": -1.7855272
},
{
  "type": "node",
  "id": 1580235888,
  "lat": 51.2932535,
  "lon": -2.4475759
},
{
  "type": "node",
  "id": 1580236356,
  "lat": 51.2931380,
  "lon": -2.4476351
},
{
  "type": "node",
  "id": 3365844191,
  "lat": 51.2931677,
  "lon": -2.4470738
},
{
  "type": "node",
  "id": 3397563176,
  "lat": 51.2932315,
  "lon": -2.4474592
},
{
  "type": "node",
  "id": 3397563177,
  "lat": 51.2931662,
  "lon": -2.4470981
},
{
  "type": "node",
  "id": 4309968093,
  "lat": 51.2930408,
  "lon": -2.4471283
},
{
  "type": "node",
  "id": 931302577,
  "lat": 51.3831876,
  "lon": -2.3644097
},
{
  "type": "node",
  "id": 5666383350,
  "lat": 51.3832494,
  "lon": -2.3644798
},
{
  "type": "node",
  "id": 5666383351,
  "lat": 51.3833395,
  "lon": -2.3645166
},
{
  "type": "node",
  "id": 5666383352,
  "lat": 51.3833218,
  "lon": -2.3646284
},
{
  "type": "node",
  "id": 5666383353,
  "lat": 51.3831735,
  "lon": -2.3645680
},
{
  "type": "node",
  "id": 5666383354,
  "lat": 51.3831912,
  "lon": -2.3644567
},
{
  "type": "node",
  "id": 5666383355,
  "lat": 51.3832136,
  "lon": -2.3644658
},
{
  "type": "node",
  "id": 5666383356,
  "lat": 51.3832204,
  "lon": -2.3644231
},
{
  "type": "node",
  "id": 5666383357,
  "lat": 51.3832565,
  "lon": -2.3644350
},
{
  "type": "node",
  "id": 5666383363,
  "lat": 51.3833839,
  "lon": -2.3644869
},
{
  "type": "node",
  "id": 5673692292,
  "lat": 51.3832231,
  "lon": -2.3641861
},
{
  "type": "node",
  "id": 5673692294,
  "lat": 51.3833030,
  "lon": -2.3642186
},
{
  "type": "node",
  "id": 5673692295,
  "lat": 51.3834189,
  "lon": -2.3642659
},
{
  "type": "node",
  "id": 987483114,
  "lat": 51.3865672,
  "lon": -2.3673044
},
{
  "type": "node",
  "id": 987483118,
  "lat": 51.3866506,
  "lon": -2.3672856
},
{
  "type": "node",
  "id": 1052476722,
  "lat": 51.3866114,
  "lon": -2.3670221
},
{
  "type": "node",
  "id": 1052476896,
  "lat": 51.3865021,
  "lon": -2.3669477
},
{
  "type": "node",
  "id": 1052477251,
  "lat": 51.3865832,
  "lon": -2.3673102
},
{
  "type": "node",
  "id": 1052477306,
  "lat": 51.3865570,
  "lon": -2.3672967
},
{
  "type": "node",
  "id": 1052477343,
  "lat": 51.3865237,
  "lon": -2.3670691
},
{
  "type": "node",
  "id": 3835562891,
  "lat": 51.3866005,
  "lon": -2.3669384
},
{
  "type": "node",
  "id": 3835562895,
  "lat": 51.3865086,
  "lon": -2.3669874
},
{
  "type": "node",
  "id": 3835574679,
  "lat": 51.3865157,
  "lon": -2.3670733
},
{
  "type": "node",
  "id": 3835574681,
  "lat": 51.3865953,
  "lon": -2.3669072
},
{
  "type": "node",
  "id": 3835574682,
  "lat": 51.3865782,
  "lon": -2.3668074
},
{
  "type": "node",
  "id": 3835574683,
  "lat": 51.3864922,
  "lon": -2.3669529
},
{
  "type": "node",
  "id": 3835574684,
  "lat": 51.3864749,
  "lon": -2.3668526
},
{
  "type": "node",
  "id": 3835574689,
  "lat": 51.3865908,
  "lon": -2.3668808
},
{
  "type": "node",
  "id": 617179443,
  "lat": 51.3864073,
  "lon": -2.3635321
},
{
  "type": "node",
  "id": 617179447,
  "lat": 51.3863962,
  "lon": -2.3635148
},
{
  "type": "node",
  "id": 617179450,
  "lat": 51.3863580,
  "lon": -2.3634551
},
{
  "type": "node",
  "id": 880865385,
  "lat": 51.3866861,
  "lon": -2.3606868
},
{
  "type": "node",
  "id": 880871943,
  "lat": 51.3867020,
  "lon": -2.3603945
},
{
  "type": "node",
  "id": 880871946,
  "lat": 51.3866498,
  "lon": -2.3603894
},
{
  "type": "node",
  "id": 880871954,
  "lat": 51.3866302,
  "lon": -2.3606819
},
{
  "type": "node",
  "id": 1346735000,
  "lat": 51.3882347,
  "lon": -2.3626655
},
{
  "type": "node",
  "id": 1346735008,
  "lat": 51.3881208,
  "lon": -2.3622070
},
{
  "type": "node",
  "id": 1346735016,
  "lat": 51.3881337,
  "lon": -2.3627299
},
{
  "type": "node",
  "id": 1346735019,
  "lat": 51.3880198,
  "lon": -2.3622714
},
{
  "type": "node",
  "id": 1354973250,
  "lat": 51.3863818,
  "lon": -2.3634922
},
{
  "type": "node",
  "id": 3751555065,
  "lat": 51.3864882,
  "lon": -2.3634318
},
{
  "type": "node",
  "id": 3751555067,
  "lat": 51.3864287,
  "lon": -2.3633388
},
{
  "type": "node",
  "id": 3752543930,
  "lat": 51.3864175,
  "lon": -2.3635480
},
{
  "type": "node",
  "id": 3836365070,
  "lat": 51.3866906,
  "lon": -2.3605918
},
{
  "type": "node",
  "id": 3836365071,
  "lat": 51.3866868,
  "lon": -2.3606649
},
{
  "type": "node",
  "id": 3836365072,
  "lat": 51.3867247,
  "lon": -2.3606673
},
{
  "type": "node",
  "id": 3836365073,
  "lat": 51.3867274,
  "lon": -2.3606303
},
{
  "type": "node",
  "id": 3836365074,
  "lat": 51.3866902,
  "lon": -2.3606260
},
{
  "type": "node",
  "id": 5373040469,
  "lat": 51.3840890,
  "lon": -2.3632095
},
{
  "type": "node",
  "id": 5373040470,
  "lat": 51.3841116,
  "lon": -2.3630638
},
{
  "type": "node",
  "id": 5373059228,
  "lat": 51.3840539,
  "lon": -2.3630408
},
{
  "type": "node",
  "id": 5373059235,
  "lat": 51.3840313,
  "lon": -2.3631867
},
{
  "type": "node",
  "id": 5373059240,
  "lat": 51.3840893,
  "lon": -2.3630546
},
{
  "type": "node",
  "id": 6000105346,
  "lat": 51.3587935,
  "lon": -2.3499531
},
{
  "type": "node",
  "id": 6000105348,
  "lat": 51.3587785,
  "lon": -2.3497949
},
{
  "type": "node",
  "id": 6000105349,
  "lat": 51.3587031,
  "lon": -2.3498110
},
{
  "type": "node",
  "id": 6000105350,
  "lat": 51.3587165,
  "lon": -2.3498995
},
{
  "type": "node",
  "id": 6000105351,
  "lat": 51.3587718,
  "lon": -2.3499585
},
{
  "type": "node",
  "id": 26428429,
  "lat": 51.3852571,
  "lon": -2.3506446
},
{
  "type": "node",
  "id": 460409152,
  "lat": 51.3861771,
  "lon": -2.3510822
},
{
  "type": "node",
  "id": 479090343,
  "lat": 51.3855944,
  "lon": -2.3501116
},
{
  "type": "node",
  "id": 479090376,
  "lat": 51.3862097,
  "lon": -2.3514798
},
{
  "type": "node",
  "id": 481390339,
  "lat": 51.3853877,
  "lon": -2.3505279
},
{
  "type": "node",
  "id": 481390341,
  "lat": 51.3857969,
  "lon": -2.3499980
},
{
  "type": "node",
  "id": 1324422734,
  "lat": 51.3860373,
  "lon": -2.3503554
},
{
  "type": "node",
  "id": 1863269613,
  "lat": 51.3854113,
  "lon": -2.3510652
},
{
  "type": "node",
  "id": 1863269722,
  "lat": 51.3858215,
  "lon": -2.3515414
},
{
  "type": "node",
  "id": 1873505357,
  "lat": 51.3854165,
  "lon": -2.3511163
},
{
  "type": "node",
  "id": 1873505382,
  "lat": 51.3853326,
  "lon": -2.3510389
},
{
  "type": "node",
  "id": 1873505392,
  "lat": 51.3855192,
  "lon": -2.3515797
},
{
  "type": "node",
  "id": 1873505428,
  "lat": 51.3855227,
  "lon": -2.3515959
},
{
  "type": "node",
  "id": 1873505459,
  "lat": 51.3857604,
  "lon": -2.3516234
},
{
  "type": "node",
  "id": 1873505465,
  "lat": 51.3857745,
  "lon": -2.3516088
},
{
  "type": "node",
  "id": 1873505467,
  "lat": 51.3853960,
  "lon": -2.3510308
},
{
  "type": "node",
  "id": 1873505468,
  "lat": 51.3853622,
  "lon": -2.3510501
},
{
  "type": "node",
  "id": 1873505492,
  "lat": 51.3853486,
  "lon": -2.3511598
},
{
  "type": "node",
  "id": 1873505494,
  "lat": 51.3855954,
  "lon": -2.3516717
},
{
  "type": "node",
  "id": 1873505495,
  "lat": 51.3857872,
  "lon": -2.3515811
},
{
  "type": "node",
  "id": 1873505502,
  "lat": 51.3855256,
  "lon": -2.3515422
},
{
  "type": "node",
  "id": 1873505516,
  "lat": 51.3855195,
  "lon": -2.3515630
},
{
  "type": "node",
  "id": 1926998257,
  "lat": 51.3857993,
  "lon": -2.3515535
},
{
  "type": "node",
  "id": 1926998260,
  "lat": 51.3854931,
  "lon": -2.3515336
},
{
  "type": "node",
  "id": 1926998262,
  "lat": 51.3854998,
  "lon": -2.3515162
},
{
  "type": "node",
  "id": 1926998265,
  "lat": 51.3854864,
  "lon": -2.3515440
},
{
  "type": "node",
  "id": 1926998286,
  "lat": 51.3854113,
  "lon": -2.3514847
},
{
  "type": "node",
  "id": 1926998289,
  "lat": 51.3854768,
  "lon": -2.3515443
},
{
  "type": "node",
  "id": 2073737610,
  "lat": 51.3860800,
  "lon": -2.3504435
},
{
  "type": "node",
  "id": 2073737624,
  "lat": 51.3859996,
  "lon": -2.3502912
},
{
  "type": "node",
  "id": 2073737627,
  "lat": 51.3860239,
  "lon": -2.3502074
},
{
  "type": "node",
  "id": 2697592095,
  "lat": 51.3861983,
  "lon": -2.3513829
},
{
  "type": "node",
  "id": 2697592096,
  "lat": 51.3858677,
  "lon": -2.3515684
},
{
  "type": "node",
  "id": 4171766879,
  "lat": 51.3862615,
  "lon": -2.3506993
},
{
  "type": "node",
  "id": 4171766880,
  "lat": 51.3860211,
  "lon": -2.3500499
},
{
  "type": "node",
  "id": 4171766881,
  "lat": 51.3862197,
  "lon": -2.3508675
},
{
  "type": "node",
  "id": 4171785610,
  "lat": 51.3857469,
  "lon": -2.3516274
},
{
  "type": "node",
  "id": 937129650,
  "lat": 51.3749196,
  "lon": -2.3113554
},
{
  "type": "node",
  "id": 937129651,
  "lat": 51.3749439,
  "lon": -2.3110060
},
{
  "type": "node",
  "id": 937129652,
  "lat": 51.3751649,
  "lon": -2.3110274
},
{
  "type": "node",
  "id": 937129653,
  "lat": 51.3751604,
  "lon": -2.3111296
},
{
  "type": "node",
  "id": 937129655,
  "lat": 51.3753637,
  "lon": -2.3111591
},
{
  "type": "node",
  "id": 937129656,
  "lat": 51.3753572,
  "lon": -2.3113934
},
{
  "type": "node",
  "id": 1739600747,
  "lat": 51.4526937,
  "lon": -2.4795262
},
{
  "type": "node",
  "id": 1739600748,
  "lat": 51.4527183,
  "lon": -2.4793158
},
{
  "type": "node",
  "id": 1739600758,
  "lat": 51.4527292,
  "lon": -2.4796464
},
{
  "type": "node",
  "id": 1739600760,
  "lat": 51.4527470,
  "lon": -2.4796205
},
{
  "type": "node",
  "id": 1739600762,
  "lat": 51.4527725,
  "lon": -2.4794117
},
{
  "type": "node",
  "id": 1739600764,
  "lat": 51.4528131,
  "lon": -2.4797951
},
{
  "type": "node",
  "id": 1739600766,
  "lat": 51.4528287,
  "lon": -2.4791553
},
{
  "type": "node",
  "id": 1739600768,
  "lat": 51.4529281,
  "lon": -2.4796279
},
{
  "type": "node",
  "id": 1739600770,
  "lat": 51.4529625,
  "lon": -2.4796887
},
{
  "type": "node",
  "id": 1739600772,
  "lat": 51.4530544,
  "lon": -2.4795550
},
{
  "type": "node",
  "id": 305579302,
  "lat": 51.4146989,
  "lon": -2.1203810
},
{
  "type": "node",
  "id": 305579303,
  "lat": 51.4146383,
  "lon": -2.1204250
},
{
  "type": "node",
  "id": 305579305,
  "lat": 51.4145484,
  "lon": -2.1201141
},
{
  "type": "node",
  "id": 305579306,
  "lat": 51.4146090,
  "lon": -2.1200687
},
{
  "type": "node",
  "id": 1510322755,
  "lat": 51.4641641,
  "lon": -2.1092679
},
{
  "type": "node",
  "id": 1510322758,
  "lat": 51.4636262,
  "lon": -2.1085907
},
{
  "type": "node",
  "id": 1510322761,
  "lat": 51.4639026,
  "lon": -2.1093372
},
{
  "type": "node",
  "id": 1510322769,
  "lat": 51.4641261,
  "lon": -2.1084327
},
{
  "type": "node",
  "id": 2715769933,
  "lat": 51.4637328,
  "lon": -2.1091640
},
{
  "type": "node",
  "id": 2715770013,
  "lat": 51.4637018,
  "lon": -2.1088684
},
{
  "type": "node",
  "id": 2715770056,
  "lat": 51.4638794,
  "lon": -2.1091218
},
{
  "type": "node",
  "id": 2715770124,
  "lat": 51.4636604,
  "lon": -2.1088804
},
{
  "type": "node",
  "id": 5321004780,
  "lat": 51.4641840,
  "lon": -2.1090418
},
{
  "type": "node",
  "id": 5321004781,
  "lat": 51.4641471,
  "lon": -2.1090531
},
{
  "type": "node",
  "id": 6226249535,
  "lat": 51.4639780,
  "lon": -2.1093172
},
{
  "type": "node",
  "id": 3721174401,
  "lat": 51.2866289,
  "lon": -1.9807642
},
{
  "type": "node",
  "id": 3721174402,
  "lat": 51.2866612,
  "lon": -1.9806965
},
{
  "type": "node",
  "id": 3721174403,
  "lat": 51.2865851,
  "lon": -1.9806038
},
{
  "type": "node",
  "id": 3721174404,
  "lat": 51.2865528,
  "lon": -1.9806716
},
{
  "type": "node",
  "id": 5533902019,
  "lat": 51.3399911,
  "lon": -1.7649862
},
{
  "type": "node",
  "id": 5533902020,
  "lat": 51.3400594,
  "lon": -1.7647268
},
{
  "type": "node",
  "id": 5533902021,
  "lat": 51.3399379,
  "lon": -1.7646449
},
{
  "type": "node",
  "id": 5533902022,
  "lat": 51.3398696,
  "lon": -1.7649043
},
{
  "type": "node",
  "id": 4155683302,
  "lat": 51.5047100,
  "lon": -1.9704268
},
{
  "type": "node",
  "id": 4155683303,
  "lat": 51.5043790,
  "lon": -1.9704226
},
{
  "type": "node",
  "id": 4155683304,
  "lat": 51.5043816,
  "lon": -1.9702902
},
{
  "type": "node",
  "id": 4155683305,
  "lat": 51.5041671,
  "lon": -1.9702755
},
{
  "type": "node",
  "id": 4155683306,
  "lat": 51.5041671,
  "lon": -1.9700443
},
{
  "type": "node",
  "id": 4155683307,
  "lat": 51.5043908,
  "lon": -1.9700548
},
{
  "type": "node",
  "id": 4155683308,
  "lat": 51.5043908,
  "lon": -1.9699329
},
{
  "type": "node",
  "id": 4155683309,
  "lat": 51.5043542,
  "lon": -1.9699308
},
{
  "type": "node",
  "id": 4155683310,
  "lat": 51.5043570,
  "lon": -1.9695637
},
{
  "type": "node",
  "id": 4155683311,
  "lat": 51.5046007,
  "lon": -1.9695736
},
{
  "type": "node",
  "id": 4155683312,
  "lat": 51.5046058,
  "lon": -1.9693157
},
{
  "type": "node",
  "id": 4155683313,
  "lat": 51.5047171,
  "lon": -1.9693225
},
{
  "type": "node",
  "id": 4155683314,
  "lat": 51.5047152,
  "lon": -1.9694033
},
{
  "type": "node",
  "id": 4155683315,
  "lat": 51.5049109,
  "lon": -1.9694053
},
{
  "type": "node",
  "id": 4155683316,
  "lat": 51.5048809,
  "lon": -1.9697185
},
{
  "type": "node",
  "id": 4155683317,
  "lat": 51.5047200,
  "lon": -1.9697158
},
{
  "type": "node",
  "id": 4155683329,
  "lat": 51.5052741,
  "lon": -1.9698977
},
{
  "type": "node",
  "id": 4254088125,
  "lat": 51.5047070,
  "lon": -1.9710601
},
{
  "type": "node",
  "id": 4254088126,
  "lat": 51.5039860,
  "lon": -1.9710544
},
{
  "type": "node",
  "id": 4254088135,
  "lat": 51.5040080,
  "lon": -1.9689234
},
{
  "type": "node",
  "id": 4254088141,
  "lat": 51.5047839,
  "lon": -1.9686640
},
{
  "type": "node",
  "id": 4254088143,
  "lat": 51.5051997,
  "lon": -1.9686529
},
{
  "type": "node",
  "id": 4445969633,
  "lat": 51.5051201,
  "lon": -1.9697894
},
{
  "type": "node",
  "id": 4533841819,
  "lat": 51.5044423,
  "lon": -1.9704234
},
{
  "type": "node",
  "id": 4533841820,
  "lat": 51.5044423,
  "lon": -1.9704807
},
{
  "type": "node",
  "id": 4533841821,
  "lat": 51.5045109,
  "lon": -1.9704843
},
{
  "type": "node",
  "id": 4533841822,
  "lat": 51.5045118,
  "lon": -1.9704270
},
{
  "type": "node",
  "id": 4533841823,
  "lat": 51.5048824,
  "lon": -1.9696061
},
{
  "type": "node",
  "id": 4533841824,
  "lat": 51.5049085,
  "lon": -1.9696070
},
{
  "type": "node",
  "id": 4533841828,
  "lat": 51.5051320,
  "lon": -1.9690521
},
{
  "type": "node",
  "id": 4533841829,
  "lat": 51.5051193,
  "lon": -1.9697508
},
{
  "type": "node",
  "id": 4533841830,
  "lat": 51.5051216,
  "lon": -1.9698564
},
{
  "type": "node",
  "id": 4533841831,
  "lat": 51.5052463,
  "lon": -1.9698614
},
{
  "type": "node",
  "id": 4533841832,
  "lat": 51.5053143,
  "lon": -1.9699546
},
{
  "type": "node",
  "id": 4533841833,
  "lat": 51.5050067,
  "lon": -1.9709027
},
{
  "type": "node",
  "id": 4533841834,
  "lat": 51.5047151,
  "lon": -1.9708844
},
{
  "type": "node",
  "id": 4533841835,
  "lat": 51.5047193,
  "lon": -1.9698663
},
{
  "type": "node",
  "id": 4533841836,
  "lat": 51.5047371,
  "lon": -1.9698673
},
{
  "type": "node",
  "id": 4533841837,
  "lat": 51.5047384,
  "lon": -1.9698017
},
{
  "type": "node",
  "id": 4533841838,
  "lat": 51.5047183,
  "lon": -1.9697998
},
{
  "type": "node",
  "id": 5490657293,
  "lat": 51.5051195,
  "lon": -1.9697613
},
{
  "type": "node",
  "id": 5490657297,
  "lat": 51.5047376,
  "lon": -1.9698402
},
{
  "type": "node",
  "id": 5496853085,
  "lat": 51.5040025,
  "lon": -1.9694563
},
{
  "type": "node",
  "id": 5496853086,
  "lat": 51.5042165,
  "lon": -1.9688537
},
{
  "type": "node",
  "id": 5496853091,
  "lat": 51.5045673,
  "lon": -1.9695712
},
{
  "type": "node",
  "id": 5496853096,
  "lat": 51.5046001,
  "lon": -1.9695592
},
{
  "type": "node",
  "id": 5496853097,
  "lat": 51.5047182,
  "lon": -1.9699334
},
{
  "type": "node",
  "id": 5496853100,
  "lat": 51.5047194,
  "lon": -1.9697433
},
{
  "type": "node",
  "id": 1746060762,
  "lat": 51.4291644,
  "lon": -1.8573609
},
{
  "type": "node",
  "id": 1746060763,
  "lat": 51.4291724,
  "lon": -1.8568151
},
{
  "type": "node",
  "id": 1746060765,
  "lat": 51.4292757,
  "lon": -1.8573647
},
{
  "type": "node",
  "id": 1746060766,
  "lat": 51.4292843,
  "lon": -1.8568227
},
{
  "type": "way",
  "id": 414421729,
  "nodes": [
    4533841835,
    5496853097,
    4155683302,
    4533841822,
    4533841821,
    4533841820,
    4533841819,
    4155683303,
    4155683304,
    4155683305,
    4155683306,
    4155683307,
    4155683308,
    4155683309,
    4155683310,
    5496853091,
    4155683311
  ]
},
{
  "type": "way",
  "id": 457209489,
  "nodes": [
    4155683311,
    5496853096,
    4155683312,
    4155683313,
    4155683314,
    4155683315,
    4533841824,
    4533841823,
    4155683316,
    4155683317,
    5496853100,
    4533841838,
    4533841837,
    5490657297,
    4533841836,
    4533841835
  ]
}

  ]
}
