{
  "version": 0.6,
  "generator": "Overpass API 0.7.55.9 ab41fea6",
  "osm3s": {
    "timestamp_osm_base": "2020-02-14T14:30:02Z",
    "copyright": "The data included in this document is from www.openstreetmap.org. The data is made available under ODbL."
  },
  "elements": [

{
  "type": "node",
  "id": 2170708731,
  "lat": 46.7728731,
  "lon": 24.8592818,
  "tags": {
    "name": "Castelul Rakoczi - Bornemisza",
    "tourism": "museum"
  }
},
{
  "type": "node",
  "id": 2634652060,
  "lat": 46.5434590,
  "lon": 24.5630470,
  "tags": {
    "SIRUTA:code": "114328",
    "addr:city": "Târgu Mureș",
    "addr:housenumber": "1",
    "addr:postcode": "540057",
    "addr:street": "Strada Köteles Sámuel",
    "codul_entității_muzeale": "7055502.0",
    "name": "Galeria de Artă \"Nagy Imre\"",
    "name:en": "\"Nagy Imre\" Art Gallery",
    "opening_hours": "9:00-17:00; Mo closed",
    "phone": "0265/265.267",
    "source": "INP",
    "source:link": "http://date.gov.ro/dataset/ghidul-muzeelor-din-romania",
    "start_date": "1956",
    "tourism": "museum",
    "tourism_survey": "05.12.2011 14:29:53",
    "website": "http://muzeumures.ro/"
  }
},
{
  "type": "node",
  "id": 2634652224,
  "lat": 46.5427400,
  "lon": 24.5653883,
  "tags": {
    "SIRUTA:code": "114328",
    "addr:city": "Târgu Mureș",
    "addr:housenumber": "17",
    "addr:postcode": "540067",
    "addr:street": "Strada Bolyai",
    "codul_entității_muzeale": "802035.0",
    "name": "Muzeul Bolyai",
    "name:en": "Bolyai Museum",
    "name:hu": "Teleki Téka",
    "opening_hours": "9:00-17:00",
    "phone": "0265/261.857",
    "source": "INP",
    "source:link": "http://date.gov.ro/dataset/ghidul-muzeelor-din-romania",
    "start_date": "1937",
    "tourism": "museum",
    "tourism_survey": "10.04.2012 12:08:37",
    "website": "http://telekiteka.ro/index.php?lang=ro"
  }
},
{
  "type": "node",
  "id": 2634652324,
  "lat": 46.7864630,
  "lon": 24.7012660,
  "tags": {
    "SIRUTA:code": "114818",
    "addr:city": "Reghin",
    "addr:housenumber": "51",
    "addr:postcode": "545300",
    "addr:street": "Strada Vânătorilor",
    "codul_entității_muzeale": "7055100.0",
    "description:en": "The museum was founded by Anton Badea. In 1970 the Reghin Ethnographic Museum became a county museum.",
    "description:ro": "Muzeul a fost infiintat de Anton Badea in dorinta conservarii si valorificarii monumentelor de arhitectura, instalatiilor tehnice si obiectelor de arta populara. Prin adresa din 16 martie 1970, Muzeul Etnografic Reghin devine muzeu judetean, precizandu-s",
    "email": "muzeureghin@yahoo.com",
    "fax": "0265/512.571",
    "name": "Muzeul Etnografic",
    "name:en": "Ethnographic Museum",
    "opening_hours": "9:00-17:00; Mo closed",
    "phone": "0265/512.571",
    "source": "INP",
    "source:link": "http://date.gov.ro/dataset/ghidul-muzeelor-din-romania",
    "start_date": "1960",
    "tourism": "museum",
    "tourism_survey": "10.12.2013 14:27:17",
    "website": "http://muzeureghin.xhost.ro/"
  }
},
{
  "type": "node",
  "id": 2634652493,
  "lat": 46.5526830,
  "lon": 24.5639760,
  "tags": {
    "SIRUTA:code": "114328",
    "addr:city": "Târgu Mureș",
    "addr:housenumber": "8",
    "addr:postcode": "540328",
    "addr:street": "Strada Mărăști",
    "codul_entității_muzeale": "6954500.0",
    "description:en": "The present museum resulted from the merging of two older museums. In 1886 the Museum of Industrial Art of the Szeckler people was founded. In 1934 the Museum of Archaeology and Ethnography was founded. After 1945, the Museum of History was created. The",
    "description:ro": "Actualul muzeu este rezultat din contopirea unor muzee mai vechi. in 1886, este infiintat Muzeul de arta industriala a secuimii, apoi, in 1934, se infiinteaza Muzeul de arheologie si etnografie. Dupa 1945, s-a creat Muzeul de Istorie. Muzeul a fost reorg",
    "fax": "0365-430.021",
    "fixme": "Adresa muzeului este de fapt adresa strazi, trebuie cautat manual unde este adresa corecta",
    "name": "Muzeul Județean Mureș",
    "name:en": "Mures County Museum",
    "opening_hours": "Tu-Su 9:00-18:00 Apr-Sep; 9:00-16:00 Oct-Mar",
    "phone": "0365-430.021",
    "source": "INP",
    "source:link": "http://date.gov.ro/dataset/ghidul-muzeelor-din-romania",
    "start_date": "1886",
    "tourism": "museum",
    "tourism_survey": "11.12.2013 13:57:16",
    "website": "http://muzeumures.ro/"
  }
},
{
  "type": "node",
  "id": 2634652494,
  "lat": 46.5433310,
  "lon": 24.5576460,
  "tags": {
    "SIRUTA:code": "114328",
    "addr:city": "Târgu Mureș",
    "addr:housenumber": "2",
    "addr:postcode": "540052",
    "addr:street": "Strada George Enescu",
    "codul_entității_muzeale": "7055500.0",
    "description:en": "It was founded in the Palace of Culture, a historic and art monument, built in a Secession style, between 1912 and 1913. In 1913 the picture gallery was created in the Palace of Culture.",
    "description:ro": "infiintat in Palatul Culturii, monument istoric si de arta, construit in stil Secession, intre anii 1912 - 1913. in anul 1913 a fost creata Pinacoteca in cladirea Palatului Culturii intr-un spatiu special amenajat.",
    "fax": "0365-430.021",
    "name": "Muzeul Județean Mureș. Muzeul de Artă",
    "name:en": "Mures County Museum. Art Museum",
    "opening_hours": "9:00-16:00; Sa, Su 9:00-13:00",
    "phone": "0365-430.021",
    "source": "INP",
    "source:link": "http://date.gov.ro/dataset/ghidul-muzeelor-din-romania",
    "start_date": "1913",
    "tourism": "museum",
    "tourism_survey": "05.12.2013 11:37:34",
    "website": "http://muzeumures.ro/"
  }
},
{
  "type": "node",
  "id": 2634652495,
  "lat": 46.5453590,
  "lon": 24.5615830,
  "tags": {
    "LMI": "MS-II-m-A-15553",
    "SIRUTA:code": "114328",
    "addr:city": "Târgu Mureș",
    "addr:housenumber": "11",
    "addr:postcode": "540049",
    "addr:street": "Piața Trandafirilor",
    "codul_entității_muzeale": "6954502.0",
    "description:en": "Having been founded in 1934, it was closed after 1940 and reopened in 1984. It was founded by Aurel Filimon (1891 - 1946), an archaeologist and ethnographer, who laid the foundation for the Mures ethnographic research.",
    "description:ro": "infiintat in 1934, este inchis dupa 1940 si se redeschide in 1984. A fost fondat de Aurel Filimon (1891 - 1946), arheolog si etnograf, cel care a pus bazele cercetarii etnografice muresene.",
    "email": "muzeuetnomures@yahoo.com",
    "fax": "0265/250.169",
    "name": "Muzeul Județean Mureș. Secția de Etnografie și Artă Populară",
    "name:en": "Mures County Museum. Ethnography and Folk Art Department",
    "opening_hours": "Tu-Su 09:00-17:00 Apr-Sep; Tu-We 09:00-16:00; Su 09:00-13:00 Oct-Mar; Mo closed",
    "phone": "0265/250.169",
    "source": "INP",
    "source:link": "http://date.gov.ro/dataset/ghidul-muzeelor-din-romania",
    "start_date": "1934",
    "tourism": "museum",
    "tourism_survey": "05.12.2013 11:37:35",
    "website": "http://muzeumures.ro/"
  }
},
{
  "type": "node",
  "id": 2634652568,
  "lat": 46.4170660,
  "lon": 24.9720710,
  "tags": {
    "SIRUTA:code": "537006",
    "addr:city": "Crișeni",
    "addr:housenumber": "229",
    "addr:postcode": "537006",
    "addr:street": "Strada Gergely",
    "codul_entității_muzeale": "651100.0",
    "email": "szkhe@yahoo.com;lajos80@freemail.hu",
    "name": "Muzeul Palariilor de Paie",
    "name:en": "Museum of Straw Hats",
    "name:hu": "Szalmakalap múzeum",
    "opening_hours": "9:00-18:00",
    "phone": "0266-226016 / 0266-226306",
    "source": "INP",
    "source:link": "http://date.gov.ro/dataset/ghidul-muzeelor-din-romania",
    "tourism": "museum",
    "tourism_survey": "05.12.2013 11:30:25",
    "website": "http://www.korispatak.ro;http://recomespar.ro/"
  }
},
{
  "type": "node",
  "id": 2634652934,
  "lat": 46.3291430,
  "lon": 24.2822500,
  "tags": {
    "LMI": "MS-II-m-B-16048",
    "SIRUTA:code": "114934",
    "addr:city": "Târnăveni",
    "addr:housenumber": "2",
    "addr:postcode": "545600",
    "addr:street": "Strada Stadionului",
    "codul_entității_muzeale": "7055800.0",
    "description:en": "It functions as a small exhibition as part of the House of Culture, and since 1966 has had the statute of Town Museum.",
    "description:ro": "Functioneaza ca microexpozitie in cadrul Casei de Cultura, iar din 1966 cu statut de Muzeu Orasenesc.",
    "email": "muzeultarnaveni@yahoo.com",
    "name": "Muzeul Municipal Târnăveni",
    "name:en": "Târnăveni City Museum",
    "opening_hours": "We, Fr, Su 8:00-14:00; Tu, Th 17:00-20:00; Mo closed",
    "phone": "0265/440.902",
    "source": "INP",
    "source:link": "http://date.gov.ro/dataset/ghidul-muzeelor-din-romania",
    "start_date": "1962",
    "tourism": "museum",
    "tourism_survey": "03.09.2013 11:34:03"
  }
},
{
  "type": "node",
  "id": 4156011340,
  "lat": 46.5436088,
  "lon": 24.5579919,
  "tags": {
    "addr:street": "Strada George Enescu",
    "opening_hours": "Tu-Su 09:00-18:00",
    "tourism": "museum"
  }
},
{
  "type": "node",
  "id": 6551718797,
  "lat": 46.5516160,
  "lon": 24.5665803,
  "tags": {
    "addr:postcode": "540067",
    "description:en": "Ion Vlasiu gallery, housed on the premises of Teleki Library, was established in 1988 following the donation from master Ion Vlasiu, a Targu Mures sculptor, painter and writer. Vlasiu’s triple vocation, known especially as a painter, but being a painte...",
    "description:ro": "Gazduita de spatiile Bibliotecii Teleki, Galeria Ion Vlasiu a luat fiinta in anul 1988 in urma donatiei facute de maestrul Ion Vlasiu, sculptor, pictor si scriitor targumuresan. Tripla vocatie a lui Vlasiu, cunoscut mai ales ca sculptor, dar aproape in...",
    "foundation_date": "1986",
    "name": "Galeria de Arta Ion Vlasiu",
    "name:en": "Ion Vlasiu Art Gallery",
    "opening_hours": "Mo-Fr 09:00-16:00; Sa 09:00-14:00; Su 09:00-13:00",
    "phone": "(+40) 265267179",
    "ref:codul_entitații_muzeale": "7055501",
    "reviewed": "no",
    "tourism": "museum",
    "website": "http://muzeumures.ro/"
  }
},
{
  "type": "way",
  "id": 88191869,
  "nodes": [
    1024738873,
    1024738809,
    1024738893,
    1024738719,
    1024738914,
    1024738400,
    1024738479,
    1936658122,
    1024738437,
    1024738428,
    1024738921,
    1024738806,
    1024738538,
    1024738459,
    1936658112,
    1024738659,
    1024738440,
    1024738904,
    1024738811,
    1024738531,
    1024738419,
    1024738873
  ],
  "tags": {
    "SIRUTA:code": "114328",
    "addr:city": "Târgu Mureș",
    "addr:housenumber": "24",
    "addr:postcode": "540036",
    "addr:street": "Strada Horea",
    "building": "yes",
    "codul_entității_muzeale": "6954503.0",
    "description:en": "Aurel Filimon's collection laid the foundation of the natural sciences section of the museum, opened in 1934. In 1939, the Octavian Goga Museum of Natural History was founded on this collection. A large part of the collection was destroyed in 1944",
    "description:ro": "Colectia lui Aurel Filimon a stat la baza sectiei de stiinte naturale a muzeului din Targu Mures, deschis in 1934. in 1939, cu aceasta colectie s-a constituit Muzeul de Istorie Naturala Octavian Goga. O mare parte din colectie a fost distrusa in 1944.",
    "fax": "+40-251-236987",
    "museum_type": "Natural Sciences - Botanics, Zoology; Geology",
    "name": "Muzeul Județean Mureș - Secția de Științele Naturii",
    "name:en": "Mureș County Museum - Natural Sciences Department",
    "name:hu": "Maros megyei múzeum - Természetrajzi osztály",
    "opening_hours": "Tu-Fr 09:00-16:00; Sa 09:00-14:00; Su 09:00-13:00",
    "phone": "+40-365-430390",
    "source": "INP",
    "source:link": "http://date.gov.ro/dataset/ghidul-muzeelor-din-romania",
    "start_date": "1988",
    "tourism": "museum",
    "website": "http://www.muzeumures.ro/"
  }
},
{
  "type": "way",
  "id": 207319643,
  "nodes": [
    2175139248,
    2175139215,
    2175139234,
    2175139174,
    2175139208,
    2175139230,
    2175139224,
    2175139157,
    2175139235,
    2175139177,
    2175139248
  ],
  "tags": {
    "building": "yes",
    "name": "Castelul Ugron",
    "tourism": "museum",
    "wikidata": "Q12723639",
    "wikipedia": "ro:Castelul Ugron din Zau de Câmpie"
  }
},
{
  "type": "node",
  "id": 1024738419,
  "lat": 46.5458268,
  "lon": 24.5562993
},
{
  "type": "node",
  "id": 1024738440,
  "lat": 46.5456631,
  "lon": 24.5561434
},
{
  "type": "node",
  "id": 1024738459,
  "lat": 46.5455914,
  "lon": 24.5562792
},
{
  "type": "node",
  "id": 1024738531,
  "lat": 46.5458160,
  "lon": 24.5562888
},
{
  "type": "node",
  "id": 1024738538,
  "lat": 46.5455982,
  "lon": 24.5562858
},
{
  "type": "node",
  "id": 1024738659,
  "lat": 46.5456567,
  "lon": 24.5561371
},
{
  "type": "node",
  "id": 1024738811,
  "lat": 46.5458510,
  "lon": 24.5562126
},
{
  "type": "node",
  "id": 1024738873,
  "lat": 46.5458114,
  "lon": 24.5563330
},
{
  "type": "node",
  "id": 1024738904,
  "lat": 46.5456992,
  "lon": 24.5560650
},
{
  "type": "node",
  "id": 1936658112,
  "lat": 46.5456241,
  "lon": 24.5562081
},
{
  "type": "node",
  "id": 1024738400,
  "lat": 46.5457989,
  "lon": 24.5564534
},
{
  "type": "node",
  "id": 1024738428,
  "lat": 46.5457509,
  "lon": 24.5564325
},
{
  "type": "node",
  "id": 1024738437,
  "lat": 46.5457610,
  "lon": 24.5564423
},
{
  "type": "node",
  "id": 1024738479,
  "lat": 46.5458068,
  "lon": 24.5564360
},
{
  "type": "node",
  "id": 1024738719,
  "lat": 46.5459037,
  "lon": 24.5563978
},
{
  "type": "node",
  "id": 1024738806,
  "lat": 46.5455657,
  "lon": 24.5563566
},
{
  "type": "node",
  "id": 1024738809,
  "lat": 46.5458396,
  "lon": 24.5563604
},
{
  "type": "node",
  "id": 1024738893,
  "lat": 46.5458475,
  "lon": 24.5563432
},
{
  "type": "node",
  "id": 1024738914,
  "lat": 46.5458536,
  "lon": 24.5565066
},
{
  "type": "node",
  "id": 1024738921,
  "lat": 46.5457178,
  "lon": 24.5565044
},
{
  "type": "node",
  "id": 1936658122,
  "lat": 46.5457772,
  "lon": 24.5564072
},
{
  "type": "node",
  "id": 2175139157,
  "lat": 46.6075207,
  "lon": 24.1328810
},
{
  "type": "node",
  "id": 2175139174,
  "lat": 46.6076276,
  "lon": 24.1333182
},
{
  "type": "node",
  "id": 2175139177,
  "lat": 46.6074544,
  "lon": 24.1330205
},
{
  "type": "node",
  "id": 2175139208,
  "lat": 46.6076128,
  "lon": 24.1333477
},
{
  "type": "node",
  "id": 2175139215,
  "lat": 46.6074304,
  "lon": 24.1332673
},
{
  "type": "node",
  "id": 2175139224,
  "lat": 46.6078542,
  "lon": 24.1333880
},
{
  "type": "node",
  "id": 2175139230,
  "lat": 46.6077510,
  "lon": 24.1335623
},
{
  "type": "node",
  "id": 2175139234,
  "lat": 46.6075004,
  "lon": 24.1331466
},
{
  "type": "node",
  "id": 2175139235,
  "lat": 46.6074396,
  "lon": 24.1329937
},
{
  "type": "node",
  "id": 2175139248,
  "lat": 46.6073604,
  "lon": 24.1331707
}

  ]
}
