{
  "version": 0.6,
  "generator": "Overpass API 0.7.55.1011 6c2efc30",
  "osm3s": {
    "timestamp_osm_base": "2020-02-14T09:40:02Z",
    "copyright": "The data included in this document is from www.openstreetmap.org. The data is made available under ODbL."
  },
  "elements": [

{
  "type": "node",
  "id": 4118134,
  "lat": 52.1367191,
  "lon": -0.4635326,
  "tags": {
    "addr:city": "Bedford",
    "addr:postcode": "MK40 3EU",
    "addr:street": "Mill Street",
    "description": "Collection of artifacts and information related to the life of John Bunyan, 17th Centrury Puritan preacher and author of The Pilgrim's Progress, who was imprisoned for his beliefs.\nTu-Sa 11\nSaturdays only November, January, and early February, 11am to 4pm",
    "name": "John Bunyan museum",
    "opening_hours": "Tu-Sa 11:00-16:00",
    "tourism": "museum",
    "website": "http://www.bunyanmeeting.co.uk/museum/",
    "wikidata": "Q6223861",
    "wikipedia": "en:John Bunyan Museum"
  }
},
{
  "type": "node",
  "id": 303713489,
  "lat": 52.2943289,
  "lon": -0.5983327,
  "tags": {
    "addr:city": "Rushden",
    "addr:country": "GB",
    "addr:housename": "Old Railway Station",
    "addr:postcode": "NN10 0AW",
    "addr:street": "Station Approach",
    "fhrs:authority": "East Northamptonshire",
    "fhrs:id": "555167",
    "fhrs:local_authority_id": "13/00030/COM",
    "fhrs:rating": "5",
    "name": "Rushden Historical Transport Society",
    "tourism": "museum",
    "usage": "tourism",
    "wikidata": "Q7380791",
    "wikipedia": "en:Rushden Transport Museum"
  }
},
{
  "type": "node",
  "id": 370081459,
  "lat": 52.2847864,
  "lon": -0.6741356,
  "tags": {
    "created_by": "Potlatch 0.10f",
    "name": "Irchester Railway Museum",
    "tourism": "museum"
  }
},
{
  "type": "node",
  "id": 385581413,
  "lat": 52.4998532,
  "lon": -0.9824349,
  "tags": {
    "name": "Foxton Inclined Plane Trust Museum",
    "tourism": "museum"
  }
},
{
  "type": "node",
  "id": 517543373,
  "lat": 52.0474347,
  "lon": -0.7952871,
  "tags": {
    "name": "City Discovery Centre",
    "tourism": "museum"
  }
},
{
  "type": "node",
  "id": 692751601,
  "lat": 52.3391109,
  "lon": -0.6527529,
  "tags": {
    "name": "Historical Society",
    "tourism": "museum"
  }
},
{
  "type": "node",
  "id": 2020064472,
  "lat": 52.3964952,
  "lon": -0.7268544,
  "tags": {
    "addr:city": "Kettering",
    "addr:country": "GB",
    "addr:postcode": "NN16 0AN",
    "addr:street": "Sheep Street",
    "name": "Manor House Museum",
    "source": "OS_OpenData_StreetView",
    "tourism": "museum"
  }
},
{
  "type": "node",
  "id": 2268883574,
  "lat": 52.2867668,
  "lon": -0.6001055,
  "tags": {
    "addr:city": "Rushden",
    "addr:country": "GB",
    "addr:housename": "The Old Stable Block",
    "addr:postcode": "NN10 9EP",
    "addr:street": "Hall Avenue",
    "name": "Rushden Hall and Museum",
    "tourism": "museum"
  }
},
{
  "type": "node",
  "id": 2868432125,
  "lat": 52.4366902,
  "lon": -1.2084563,
  "tags": {
    "addr:postcode": "LE17 4HX",
    "addr:street": "Main Street",
    "name": "Cotesbach Educational Trust",
    "tourism": "museum",
    "website": "http://cotesbachschoolhouse.org.uk/"
  }
},
{
  "type": "node",
  "id": 2929160455,
  "lat": 52.4787159,
  "lon": -0.9204808,
  "tags": {
    "tourism": "museum"
  }
},
{
  "type": "node",
  "id": 3683815621,
  "lat": 52.3710519,
  "lon": -1.2643459,
  "tags": {
    "addr:city": "Rugby",
    "addr:country": "GB",
    "addr:housenumber": "5",
    "addr:postcode": "CV21 3BY",
    "addr:street": "St Matthews Street",
    "name": "webb ellis museum",
    "source:addr": "interpolation;FHRS Open Data",
    "tourism": "museum"
  }
},
{
  "type": "node",
  "id": 4524729092,
  "lat": 52.1313516,
  "lon": -0.9884764,
  "tags": {
    "name": "Towcester Museum",
    "name:en": "Towcester Museum",
    "tourism": "museum"
  }
},
{
  "type": "node",
  "id": 4894497023,
  "lat": 52.2580024,
  "lon": -1.1601573,
  "tags": {
    "name": "Daventry Museum",
    "tourism": "museum"
  }
},
{
  "type": "way",
  "id": 4017483,
  "nodes": [
    21293252,
    21293249,
    21293250,
    21293251,
    21293252
  ],
  "tags": {
    "building": "yes",
    "name": "Piddington Roman Villa museum",
    "tourism": "museum",
    "wikipedia": "en:Piddington Roman Villa"
  }
},
{
  "type": "way",
  "id": 36706274,
  "nodes": [
    426683279,
    426683278,
    426683280,
    1939192639,
    1939192621,
    1939192762,
    1939192743,
    426683277,
    426683279
  ],
  "tags": {
    "addr:housename": "Hut 1",
    "building": "hut",
    "building:levels": "1",
    "description": "Wireless Telegraphy Station",
    "name": "Hut 1",
    "source": "approximation",
    "tourism": "museum"
  }
},
{
  "type": "way",
  "id": 36706280,
  "nodes": [
    426683294,
    426683297,
    426683298,
    426683295,
    426683294
  ],
  "tags": {
    "addr:housename": "Hut 6",
    "building": "hut",
    "description": "German Army and Air Force message decryption",
    "tourism": "museum"
  }
},
{
  "type": "way",
  "id": 36706282,
  "nodes": [
    426683300,
    426683302,
    426683301,
    426683299,
    426683300
  ],
  "tags": {
    "addr:housename": "Hut 3",
    "building": "hut",
    "description": "Analysis of German Army and Air Force message decrypts",
    "name": "Hut 3",
    "tourism": "museum"
  }
},
{
  "type": "way",
  "id": 36706283,
  "nodes": [
    426683303,
    426683305,
    426683306,
    426683304,
    426683303
  ],
  "tags": {
    "addr:housename": "Hut 11",
    "building": "hut",
    "description": "Bombe Room",
    "name": "Hut 11",
    "tourism": "museum"
  }
},
{
  "type": "way",
  "id": 36706308,
  "nodes": [
    426683430,
    426683432,
    426683433,
    426683431,
    779092542,
    426683430
  ],
  "tags": {
    "building": "hut",
    "description": "Exhibit space",
    "name": "Hut 12",
    "tourism": "museum"
  }
},
{
  "type": "way",
  "id": 59194378,
  "nodes": [
    734104075,
    1485585470,
    1485585445,
    734104029,
    1485585454,
    1485585477,
    1485585436,
    1485585480,
    1485585463,
    734104067,
    734104055,
    734104093,
    734104071,
    1485585444,
    1485585439,
    1485585483,
    734104114,
    1485585458,
    734104075
  ],
  "tags": {
    "building": "museum",
    "historic": "Old Gaol",
    "name": "Central Museum",
    "source:shape": "OS_OpenData_StreetView",
    "tourism": "museum"
  }
},
{
  "type": "way",
  "id": 62364877,
  "nodes": [
    779061340,
    779061341,
    779061342,
    779061343,
    779061340
  ],
  "tags": {
    "addr:housename": "Hut 11a",
    "building": "hut",
    "name": "Hut 11A",
    "tourism": "museum"
  }
},
{
  "type": "way",
  "id": 90607742,
  "nodes": [
    1051426136,
    1051426135,
    1051426122,
    1051426172,
    1051426136
  ],
  "tags": {
    "building": "yes",
    "name": "Abington Museum",
    "tourism": "museum"
  }
},
{
  "type": "way",
  "id": 134430455,
  "nodes": [
    1478112040,
    1478112042,
    1478112039,
    6506038330,
    1478112013,
    1478112012,
    1478112014,
    1478112019,
    1478112018,
    1478112035,
    1478112036,
    1478112021,
    1478112020,
    1478112016,
    1478112017,
    1478112023,
    1478112028,
    1478112029,
    1478112031,
    1478112030,
    1478112032,
    1478112033,
    1478112034,
    1478112038,
    1478112037,
    1478112044,
    1478112043,
    1478112055,
    1478112051,
    1478112060,
    1478112064,
    1478112068,
    1478112067,
    1478112062,
    1478112057,
    1478112050,
    1478112046,
    1478112049,
    1478112047,
    1478112045,
    1478112040
  ],
  "tags": {
    "addr:city": "Bedford",
    "addr:country": "GB",
    "addr:postcode": "MK40 3XD",
    "addr:street": "Castle Lane",
    "building": "yes",
    "description": "Museum and Art Gallery with local focus, bringing together the Higgins Fine & Decorative arts collections, the former Bedford Gallery, and Bedford Museum in the former Higgins Brewery.",
    "fee": "no",
    "fhrs:authority": "Bedford",
    "fhrs:id": "1064001",
    "fhrs:local_authority_id": "113801",
    "name": "The Higgins",
    "old_name": "Cecil Higgins Art Gallery and Bedford Museum",
    "opening_hours": "Tu-Sa 11:00-17:00; Su 14:00-17:00",
    "phone": "+44 1234 718618",
    "source": "bing",
    "start_date": "2015",
    "tourism": "museum",
    "website": "http://www.thehigginsbedford.org.uk/",
    "wikidata": "Q7739582",
    "wikipedia": "en:The Higgins Art Gallery & Museum"
  }
},
{
  "type": "way",
  "id": 135249236,
  "nodes": [
    1485538227,
    1485538236,
    2917802024,
    1485538238,
    2917802023,
    2917802022,
    1485538225,
    1485538212,
    1485538202,
    1485538227
  ],
  "tags": {
    "building": "yes",
    "name": "The Canal Museum",
    "shop": "gift",
    "source": "Bing",
    "tourism": "museum"
  }
},
{
  "type": "way",
  "id": 135458962,
  "nodes": [
    1487716854,
    1487716856,
    1487716858,
    1487716860,
    1487716854
  ],
  "tags": {
    "building": "yes",
    "name": "Moot Hall",
    "source": "Bing",
    "tourism": "museum",
    "wikidata": "Q17533009"
  }
},
{
  "type": "way",
  "id": 143124495,
  "nodes": [
    1566322663,
    1566322664,
    1566322638,
    1566322642,
    1566322725,
    1566322710,
    1566322653,
    1566322571,
    1566322551,
    5648379366,
    1566322530,
    1566322663
  ],
  "tags": {
    "building": "yes",
    "name": "Cowper and Newton Museum",
    "tourism": "museum",
    "wikidata": "Q5179804"
  }
},
{
  "type": "way",
  "id": 149179653,
  "nodes": [
    1621911257,
    4512534122,
    1621911234,
    1621911263,
    1621911269,
    1621911303,
    1621911275,
    7197935140,
    1621911339,
    1621911341,
    1621911355,
    1621911348,
    4512534129,
    1621911382,
    1621911391,
    1621911398,
    1621911395,
    1621911472,
    6757547854,
    6757547850,
    6757547851,
    6757547855,
    6757547856,
    6757547852,
    6757547853,
    6757547857,
    1621911483,
    4512534137,
    1621911430,
    1621911421,
    1621911394,
    1621911396,
    1621911373,
    1621911370,
    1621911346,
    1621911353,
    1621911311,
    1621911308,
    1621911274,
    1621911299,
    1621911257
  ],
  "tags": {
    "addr:housename": "Block C",
    "building": "yes",
    "name": "Visitor Centre",
    "source": "Bing",
    "tourism": "museum"
  }
},
{
  "type": "way",
  "id": 149179662,
  "nodes": [
    1621911450,
    4512534135,
    4512534136,
    1621911453,
    1621911425,
    1621911419,
    4512534132,
    4512534133,
    1621911450
  ],
  "tags": {
    "building": "yes",
    "name": "National Radio Centre (RSGB)",
    "source": "Bing",
    "tourism": "museum"
  }
},
{
  "type": "way",
  "id": 149179663,
  "nodes": [
    1621911375,
    1621911402,
    1621911393,
    1621911365,
    1621911375
  ],
  "tags": {
    "building": "yes",
    "source": "Bing",
    "tourism": "museum"
  }
},
{
  "type": "way",
  "id": 149179664,
  "nodes": [
    1621911350,
    1621911344,
    1621911272,
    1621911291,
    1621911350
  ],
  "tags": {
    "building": "yes",
    "source": "Bing",
    "tourism": "museum"
  }
},
{
  "type": "way",
  "id": 183074067,
  "nodes": [
    1934341637,
    536763657,
    1934341643,
    1934341646,
    1934341658,
    1934341667,
    5496804528,
    5496804529,
    1934341710,
    5496804530,
    1934341719,
    1934341696,
    1934341714,
    1934341699,
    536386588,
    5496804526,
    5496804527,
    1934341657,
    1934341651,
    1934341645,
    1934341627,
    1934341625,
    1934341623,
    1934341621,
    1934341622,
    5496804531,
    1934341631,
    1934341637
  ],
  "tags": {
    "addr:city": "Milton Keynes",
    "addr:country": "GB",
    "addr:housename": "Milton Keynes Museum",
    "addr:postcode": "MK12 5EL",
    "addr:street": "McConnell Drive",
    "email": "info@mkmuseum.org.uk",
    "fax": "+44 (0) 1908 319148",
    "name": "Milton Keynes Museum",
    "opening_hours": "We-Su 11:00-16:30",
    "phone": "+44 1908 316222",
    "tourism": "museum",
    "website": "http://www.miltonkeynesmuseum.org.uk/",
    "wikidata": "Q11989512",
    "wikipedia": "en:Milton Keynes Museum"
  }
},
{
  "type": "way",
  "id": 183524126,
  "nodes": [
    1939192763,
    274605482,
    274605481,
    1939192731,
    1939192585,
    274605479,
    1939192600,
    1939192773,
    1939192763
  ],
  "tags": {
    "addr:housename": "Hut 8",
    "building": "hut",
    "building:levels": "1",
    "name": "Hut 8",
    "tourism": "museum"
  }
},
{
  "type": "way",
  "id": 183524131,
  "nodes": [
    1939192638,
    1939192717,
    1939192665,
    1939192695,
    1939192725,
    1939192629,
    1939192637,
    1939192606,
    1939192702,
    1939192703,
    1939192711,
    1939192596,
    1939192607,
    1939192605,
    1939192686,
    1939192738,
    1939192689,
    1939192681,
    1939192649,
    1939192666,
    1939192697,
    1939192709,
    1939192610,
    1939192644,
    1939192661,
    1939192755,
    1939192735,
    1939192682,
    1939192778,
    1939192761,
    1939192722,
    1939192715,
    1939192683,
    1939192757,
    1939192754,
    1939192638
  ],
  "tags": {
    "addr:city": "Milton Keynes",
    "addr:country": "GB",
    "addr:housename": "The Mansion",
    "addr:postcode": "MK3 6EB",
    "addr:street": "Sherwood Drive",
    "alt_name": "Bletchley Park Mansion",
    "building": "yes",
    "fhrs:authority": "Milton Keynes",
    "fhrs:id": "508863",
    "fhrs:local_authority_id": "82079",
    "tourism": "museum"
  }
},
{
  "type": "way",
  "id": 194460405,
  "nodes": [
    274605498,
    274605496,
    779061367,
    779061366,
    779061365,
    779061364,
    779061363,
    779061362,
    779061361,
    779061360,
    274605493,
    274605491,
    779061359,
    779061358,
    1621911380,
    1621911377,
    274605498
  ],
  "tags": {
    "addr:housename": "Block B",
    "building": "yes",
    "name": "Block B",
    "tourism": "museum"
  }
},
{
  "type": "way",
  "id": 207009353,
  "nodes": [
    2171323238,
    2171323237,
    2171323233,
    2171323235,
    2171323238
  ],
  "tags": {
    "building": "yes",
    "name": "Fire Museum",
    "tourism": "museum"
  }
},
{
  "type": "way",
  "id": 207009356,
  "nodes": [
    2171323406,
    2171323420,
    2171323416,
    2171323402,
    2171323406
  ],
  "tags": {
    "building": "yes",
    "name": "MT Museum",
    "tourism": "museum"
  }
},
{
  "type": "way",
  "id": 207009357,
  "nodes": [
    2171323450,
    2171323437,
    2171323436,
    2171323412,
    2171323413,
    2171323419,
    2171323450
  ],
  "tags": {
    "building": "yes",
    "name": "Museums and YMCA Canteen",
    "tourism": "museum"
  }
},
{
  "type": "way",
  "id": 207009363,
  "nodes": [
    2171323363,
    2171323359,
    2171323293,
    2171323316,
    2171323363
  ],
  "tags": {
    "building": "yes",
    "name": "S.O.44 Museum",
    "tourism": "museum"
  }
},
{
  "type": "way",
  "id": 207009411,
  "nodes": [
    2171323445,
    2171323457,
    2171323446,
    2171323434,
    2171323445
  ],
  "tags": {
    "building": "yes",
    "name": "1940's Re-enactors",
    "tourism": "museum"
  }
},
{
  "type": "way",
  "id": 235213907,
  "nodes": [
    779096468,
    1939192675,
    2432876535,
    1939192640,
    5927526087,
    1939192767,
    5927526085,
    1671895306,
    1939192734,
    1939192655,
    2453487261,
    1671895448,
    1939192690,
    779096468
  ],
  "tags": {
    "access": "Tu-Su 10:30-17:00",
    "alt_name": "TNMOC",
    "name": "The National Museum of Computing",
    "tourism": "museum",
    "website": "http://www.tnmoc.org/",
    "wikidata": "Q2855072",
    "wikipedia": "en:The National Museum of Computing"
  }
},
{
  "type": "way",
  "id": 235892598,
  "nodes": [
    779173211,
    6757547858,
    6757547859,
    779061379,
    4742759575,
    2435716812,
    779061377,
    4360006736,
    779061376,
    2435716814,
    5927524984,
    779061374,
    779061372,
    779061370,
    779092561,
    436250001,
    1939192777,
    1939192671,
    2432876535,
    1939192675,
    779096468,
    1939192690,
    1671895448,
    2453487261,
    1939192655,
    1939192734,
    1671895306,
    2049660880,
    1939192632,
    1939192726,
    2049660883,
    1939192700,
    1939192668,
    2439713879,
    2439713875,
    2439713877,
    1939192599,
    1049882209,
    1939192692,
    1939192616,
    2444890108,
    1939192727,
    1939200005,
    1939192704,
    4360006707,
    4892325372,
    4360006709,
    4892325374,
    1939192756,
    4360006711,
    4360006716,
    2048222958,
    779173211
  ],
  "tags": {
    "name": "Bletchley Park",
    "note": "approximate",
    "tourism": "museum",
    "website": "https://www.bletchleypark.org.uk/",
    "wheelchair": "yes",
    "wheelchair:description": "Step-free access to all buildings and around the park",
    "wikidata": "Q155921",
    "wikipedia": "en:Bletchley Park"
  }
},
{
  "type": "way",
  "id": 238341903,
  "nodes": [
    2461878588,
    2461878270,
    2461878294,
    5391362879,
    2461878588
  ],
  "tags": {
    "building": "yes",
    "name": "Aviation Museum",
    "tourism": "museum"
  }
},
{
  "type": "way",
  "id": 240034129,
  "nodes": [
    2478033794,
    6504456283,
    6504456284,
    6504456385,
    6504456386,
    6504456281,
    6504456282,
    2478033795,
    2478033796,
    2478033798,
    6005781924,
    6005781923,
    6504494513,
    2478033799,
    6504456265,
    2478033801,
    6504456392,
    26204570,
    6504456390,
    6504456388,
    6504456387,
    2478033794
  ],
  "tags": {
    "addr:city": "Bedford",
    "addr:country": "GB",
    "addr:housenumber": "9",
    "addr:postcode": "MK40 3NX",
    "addr:street": "Newnham Road",
    "building": "no",
    "fhrs:authority": "Bedford",
    "fhrs:id": "665543",
    "fhrs:local_authority_id": "29639",
    "name": "Panacea Museum",
    "operator": "The Panacea Charitable Trust",
    "tourism": "museum",
    "website": "http://panaceamuseum.org"
  }
},
{
  "type": "way",
  "id": 255100146,
  "nodes": [
    2608455478,
    2608455479,
    2608455480,
    2608455464,
    2608455478
  ],
  "tags": {
    "building": "yes",
    "name": "Harrington Aviation Museum",
    "tourism": "museum",
    "website": "https://harringtonmuseum.org.uk/"
  }
},
{
  "type": "way",
  "id": 280856661,
  "nodes": [
    2848992634,
    2848992635,
    2848992636,
    2848992622,
    2848992637,
    2848992638,
    2848992639,
    2848992640,
    2848992641,
    2848992634
  ],
  "tags": {
    "addr:city": "Wellingborough",
    "addr:housenumber": "12",
    "addr:postcode": "NN8 1XB",
    "addr:street": "Castle Way",
    "building": "public",
    "fhrs:authority": "Wellingborough",
    "fhrs:id": "173268",
    "fhrs:local_authority_id": "PI/000025317",
    "fhrs:rating": "5",
    "name": "Wellingborough Museum",
    "not:addr:postcode": "NN8 1XA",
    "operator": "Registered charity: 1079695",
    "tourism": "museum",
    "wikipedia": "en:Wellingborough"
  }
},
{
  "type": "way",
  "id": 292362962,
  "nodes": [
    2959189334,
    2959189333,
    2959189335,
    2959189336,
    2959189334
  ],
  "tags": {
    "addr:city": "Wellingborough",
    "addr:country": "GB",
    "addr:housenumber": "102",
    "addr:postcode": "NN29 7RJ",
    "addr:street": "High Street",
    "addr:village": "Wollaston",
    "building": "yes",
    "name": "Wollaston Museum",
    "opening_hours": "We,Su 14:30-16:30",
    "operator": "Wollaston Heritage Society",
    "tourism": "museum"
  }
},
{
  "type": "way",
  "id": 331941840,
  "nodes": [
    3390395504,
    3390395505,
    3390395506,
    3390395507,
    3390395508,
    3390395509,
    3390395510,
    3390395511,
    3390395504
  ],
  "tags": {
    "building": "church",
    "name": "Woburn Heritage Museum",
    "old_name": "St Mary's Church",
    "tourism": "museum",
    "website": "http://www.woburnheritagemuseum.co.uk/"
  }
},
{
  "type": "way",
  "id": 361948944,
  "nodes": [
    3663514033,
    3663514034,
    3663514035,
    3663514036,
    3663514037,
    3663514038,
    3663514039,
    3663514040,
    3663514041,
    3663514042,
    3663514043,
    3663514044,
    3663514033
  ],
  "tags": {
    "addr:city": "Buckingham",
    "addr:postcode": "MK18 1JX",
    "addr:street": "Market Hill",
    "building": "yes",
    "name": "Buckingham Old Gaol",
    "opening_hours": "Mo-Sa 10:00-16:00",
    "operator": "Buckingham Old Gaol Trust",
    "tourism": "museum",
    "website": "https://buckinghamoldgaol.org.uk/",
    "wikidata": "Q15205486",
    "wikipedia": "en:Buckingham Old Gaol"
  }
},
{
  "type": "way",
  "id": 378131232,
  "nodes": [
    3815478016,
    3815478019,
    3815478020,
    3815478021,
    3815478022,
    3815478023,
    3815478017,
    3815478016
  ],
  "tags": {
    "building": "yes",
    "name": "Desborough Heritage Centre",
    "tourism": "museum"
  }
},
{
  "type": "way",
  "id": 437429280,
  "nodes": [
    4352436790,
    5751867948,
    4352436791,
    5751867969,
    4352436792,
    4352436793,
    4352436790
  ],
  "tags": {
    "addr:city": "Silverstone",
    "addr:postcode": "NN12 8TN",
    "building": "yes",
    "name": "Silverstone Experiece",
    "operator": "Silverstone Heritage Limited",
    "operator:type": "private_non_profit",
    "tourism": "museum",
    "website": "https://silverstone-experience.co.uk"
  }
},
{
  "type": "way",
  "id": 512580487,
  "nodes": [
    5011817949,
    5011817950,
    5011817951,
    5011817952,
    5011817949
  ],
  "tags": {
    "building": "yes",
    "name": "Bletchley Park",
    "source": "OS OpenMap Local",
    "tourism": "museum"
  }
},
{
  "type": "way",
  "id": 512580488,
  "nodes": [
    5011817953,
    5011817954,
    5011817955,
    5011817956,
    5011817953
  ],
  "tags": {
    "building": "yes",
    "name": "Bletchley Park",
    "source": "OS OpenMap Local",
    "tourism": "museum"
  }
},
{
  "type": "way",
  "id": 512580489,
  "nodes": [
    5011817957,
    5011817958,
    5011817959,
    5011817960,
    5011817957
  ],
  "tags": {
    "building": "yes",
    "name": "Bletchley Park",
    "source": "OS OpenMap Local",
    "tourism": "museum"
  }
},
{
  "type": "way",
  "id": 512580492,
  "nodes": [
    5011817973,
    5011817974,
    5011817975,
    5011817976,
    5011817973
  ],
  "tags": {
    "building": "yes",
    "name": "Bletchley Park",
    "source": "OS OpenMap Local",
    "tourism": "museum"
  }
},
{
  "type": "way",
  "id": 647173095,
  "nodes": [
    4963527015,
    4963527016,
    6078446262,
    6078446275,
    6078446274,
    6078446271,
    6078446273,
    4963527009,
    4963527014,
    4963527015
  ],
  "tags": {
    "name": "78 Derngate: The Charles Rennie Mackintosh House",
    "tourism": "museum",
    "url": "https://www.78derngate.org.uk/",
    "wikidata": "Q4643664"
  }
},
{
  "type": "node",
  "id": 3663514033,
  "lat": 52.0010125,
  "lon": -0.9863937
},
{
  "type": "node",
  "id": 3663514034,
  "lat": 52.0009159,
  "lon": -0.9865573
},
{
  "type": "node",
  "id": 3663514035,
  "lat": 52.0008969,
  "lon": -0.9865291
},
{
  "type": "node",
  "id": 3663514036,
  "lat": 52.0008813,
  "lon": -0.9865466
},
{
  "type": "node",
  "id": 3663514037,
  "lat": 52.0008457,
  "lon": -0.9865466
},
{
  "type": "node",
  "id": 3663514038,
  "lat": 52.0008317,
  "lon": -0.9865627
},
{
  "type": "node",
  "id": 3663514039,
  "lat": 52.0008053,
  "lon": -0.9865157
},
{
  "type": "node",
  "id": 3663514040,
  "lat": 52.0008177,
  "lon": -0.9864983
},
{
  "type": "node",
  "id": 3663514041,
  "lat": 52.0008210,
  "lon": -0.9864446
},
{
  "type": "node",
  "id": 3663514042,
  "lat": 52.0008424,
  "lon": -0.9864098
},
{
  "type": "node",
  "id": 3663514043,
  "lat": 52.0008301,
  "lon": -0.9863870
},
{
  "type": "node",
  "id": 3663514044,
  "lat": 52.0009217,
  "lon": -0.9862421
},
{
  "type": "node",
  "id": 4352436790,
  "lat": 52.0745864,
  "lon": -1.0221590
},
{
  "type": "node",
  "id": 4352436791,
  "lat": 52.0737705,
  "lon": -1.0220341
},
{
  "type": "node",
  "id": 4352436792,
  "lat": 52.0738001,
  "lon": -1.0214862
},
{
  "type": "node",
  "id": 4352436793,
  "lat": 52.0746165,
  "lon": -1.0216114
},
{
  "type": "node",
  "id": 5751867948,
  "lat": 52.0743470,
  "lon": -1.0221269
},
{
  "type": "node",
  "id": 5751867969,
  "lat": 52.0737711,
  "lon": -1.0220233
},
{
  "type": "node",
  "id": 1485538202,
  "lat": 52.1424368,
  "lon": -0.9149776
},
{
  "type": "node",
  "id": 1485538212,
  "lat": 52.1424712,
  "lon": -0.9149060
},
{
  "type": "node",
  "id": 1485538225,
  "lat": 52.1424853,
  "lon": -0.9148768
},
{
  "type": "node",
  "id": 1485538227,
  "lat": 52.1425395,
  "lon": -0.9151088
},
{
  "type": "node",
  "id": 1485538236,
  "lat": 52.1425867,
  "lon": -0.9150107
},
{
  "type": "node",
  "id": 1485538238,
  "lat": 52.1426372,
  "lon": -0.9149618
},
{
  "type": "node",
  "id": 2917802022,
  "lat": 52.1425649,
  "lon": -0.9149785
},
{
  "type": "node",
  "id": 2917802023,
  "lat": 52.1425974,
  "lon": -0.9149110
},
{
  "type": "node",
  "id": 2917802024,
  "lat": 52.1426034,
  "lon": -0.9150321
},
{
  "type": "node",
  "id": 6078446271,
  "lat": 52.2353685,
  "lon": -0.8897115
},
{
  "type": "node",
  "id": 6078446273,
  "lat": 52.2354777,
  "lon": -0.8896445
},
{
  "type": "node",
  "id": 6078446274,
  "lat": 52.2352900,
  "lon": -0.8898127
},
{
  "type": "node",
  "id": 6078446275,
  "lat": 52.2353693,
  "lon": -0.8901286
},
{
  "type": "node",
  "id": 734104029,
  "lat": 52.2364822,
  "lon": -0.8948815
},
{
  "type": "node",
  "id": 734104055,
  "lat": 52.2366356,
  "lon": -0.8948144
},
{
  "type": "node",
  "id": 734104067,
  "lat": 52.2366216,
  "lon": -0.8949570
},
{
  "type": "node",
  "id": 734104071,
  "lat": 52.2367784,
  "lon": -0.8946905
},
{
  "type": "node",
  "id": 734104075,
  "lat": 52.2365184,
  "lon": -0.8944565
},
{
  "type": "node",
  "id": 734104093,
  "lat": 52.2367565,
  "lon": -0.8948508
},
{
  "type": "node",
  "id": 734104114,
  "lat": 52.2367333,
  "lon": -0.8945184
},
{
  "type": "node",
  "id": 1485585436,
  "lat": 52.2361146,
  "lon": -0.8950459
},
{
  "type": "node",
  "id": 1485585439,
  "lat": 52.2368110,
  "lon": -0.8945559
},
{
  "type": "node",
  "id": 1485585444,
  "lat": 52.2367906,
  "lon": -0.8946978
},
{
  "type": "node",
  "id": 1485585445,
  "lat": 52.2365122,
  "lon": -0.8945816
},
{
  "type": "node",
  "id": 1485585454,
  "lat": 52.2364519,
  "lon": -0.8949117
},
{
  "type": "node",
  "id": 1485585458,
  "lat": 52.2367271,
  "lon": -0.8944956
},
{
  "type": "node",
  "id": 1485585463,
  "lat": 52.2366873,
  "lon": -0.8949808
},
{
  "type": "node",
  "id": 1485585470,
  "lat": 52.2365148,
  "lon": -0.8944794
},
{
  "type": "node",
  "id": 1485585477,
  "lat": 52.2361457,
  "lon": -0.8948169
},
{
  "type": "node",
  "id": 1485585480,
  "lat": 52.2366583,
  "lon": -0.8952101
},
{
  "type": "node",
  "id": 1485585483,
  "lat": 52.2368076,
  "lon": -0.8945395
},
{
  "type": "node",
  "id": 4963527009,
  "lat": 52.2355062,
  "lon": -0.8896958
},
{
  "type": "node",
  "id": 4963527014,
  "lat": 52.2355537,
  "lon": -0.8898766
},
{
  "type": "node",
  "id": 4963527015,
  "lat": 52.2355841,
  "lon": -0.8899985
},
{
  "type": "node",
  "id": 4963527016,
  "lat": 52.2355035,
  "lon": -0.8900523
},
{
  "type": "node",
  "id": 6078446262,
  "lat": 52.2354839,
  "lon": -0.8900656
},
{
  "type": "node",
  "id": 1051426122,
  "lat": 52.2461029,
  "lon": -0.8666694
},
{
  "type": "node",
  "id": 1051426135,
  "lat": 52.2464682,
  "lon": -0.8669230
},
{
  "type": "node",
  "id": 1051426136,
  "lat": 52.2465872,
  "lon": -0.8664657
},
{
  "type": "node",
  "id": 1051426172,
  "lat": 52.2462219,
  "lon": -0.8662122
},
{
  "type": "node",
  "id": 2608455464,
  "lat": 52.4029295,
  "lon": -0.8724937
},
{
  "type": "node",
  "id": 2608455478,
  "lat": 52.4038782,
  "lon": -0.8740141
},
{
  "type": "node",
  "id": 2608455479,
  "lat": 52.4040011,
  "lon": -0.8710802
},
{
  "type": "node",
  "id": 2608455480,
  "lat": 52.4033784,
  "lon": -0.8709834
},
{
  "type": "node",
  "id": 274605479,
  "lat": 51.9970282,
  "lon": -0.7420921
},
{
  "type": "node",
  "id": 274605481,
  "lat": 51.9973933,
  "lon": -0.7420037
},
{
  "type": "node",
  "id": 274605482,
  "lat": 51.9973882,
  "lon": -0.7418590
},
{
  "type": "node",
  "id": 274605496,
  "lat": 51.9973679,
  "lon": -0.7408501
},
{
  "type": "node",
  "id": 274605498,
  "lat": 51.9974670,
  "lon": -0.7408347
},
{
  "type": "node",
  "id": 426683277,
  "lat": 51.9970819,
  "lon": -0.7421539
},
{
  "type": "node",
  "id": 426683278,
  "lat": 51.9973162,
  "lon": -0.7421980
},
{
  "type": "node",
  "id": 426683279,
  "lat": 51.9970918,
  "lon": -0.7422556
},
{
  "type": "node",
  "id": 426683280,
  "lat": 51.9973057,
  "lon": -0.7420901
},
{
  "type": "node",
  "id": 426683294,
  "lat": 51.9973407,
  "lon": -0.7422061
},
{
  "type": "node",
  "id": 426683295,
  "lat": 51.9973259,
  "lon": -0.7420638
},
{
  "type": "node",
  "id": 426683297,
  "lat": 51.9976067,
  "lon": -0.7421331
},
{
  "type": "node",
  "id": 426683298,
  "lat": 51.9975919,
  "lon": -0.7419908
},
{
  "type": "node",
  "id": 426683299,
  "lat": 51.9974576,
  "lon": -0.7421957
},
{
  "type": "node",
  "id": 426683300,
  "lat": 51.9974731,
  "lon": -0.7423557
},
{
  "type": "node",
  "id": 426683301,
  "lat": 51.9976331,
  "lon": -0.7421509
},
{
  "type": "node",
  "id": 426683302,
  "lat": 51.9976486,
  "lon": -0.7423109
},
{
  "type": "node",
  "id": 426683303,
  "lat": 51.9976222,
  "lon": -0.7424583
},
{
  "type": "node",
  "id": 426683304,
  "lat": 51.9975345,
  "lon": -0.7425019
},
{
  "type": "node",
  "id": 426683305,
  "lat": 51.9976701,
  "lon": -0.7427129
},
{
  "type": "node",
  "id": 426683306,
  "lat": 51.9975824,
  "lon": -0.7427564
},
{
  "type": "node",
  "id": 426683430,
  "lat": 51.9959007,
  "lon": -0.7427753
},
{
  "type": "node",
  "id": 426683431,
  "lat": 51.9959007,
  "lon": -0.7426592
},
{
  "type": "node",
  "id": 426683432,
  "lat": 51.9957324,
  "lon": -0.7427753
},
{
  "type": "node",
  "id": 426683433,
  "lat": 51.9957324,
  "lon": -0.7426592
},
{
  "type": "node",
  "id": 436250001,
  "lat": 51.9989089,
  "lon": -0.7418377
},
{
  "type": "node",
  "id": 779061340,
  "lat": 51.9975882,
  "lon": -0.7428045
},
{
  "type": "node",
  "id": 779061341,
  "lat": 51.9976715,
  "lon": -0.7427619
},
{
  "type": "node",
  "id": 779061342,
  "lat": 51.9977506,
  "lon": -0.7431694
},
{
  "type": "node",
  "id": 779061343,
  "lat": 51.9976673,
  "lon": -0.7432120
},
{
  "type": "node",
  "id": 779061362,
  "lat": 51.9973176,
  "lon": -0.7406138
},
{
  "type": "node",
  "id": 779061363,
  "lat": 51.9973489,
  "lon": -0.7406090
},
{
  "type": "node",
  "id": 779061364,
  "lat": 51.9973512,
  "lon": -0.7406476
},
{
  "type": "node",
  "id": 779061365,
  "lat": 51.9973538,
  "lon": -0.7406916
},
{
  "type": "node",
  "id": 779061366,
  "lat": 51.9971746,
  "lon": -0.7407193
},
{
  "type": "node",
  "id": 779061367,
  "lat": 51.9971839,
  "lon": -0.7408785
},
{
  "type": "node",
  "id": 779092542,
  "lat": 51.9959007,
  "lon": -0.7427354
},
{
  "type": "node",
  "id": 779096468,
  "lat": 51.9986224,
  "lon": -0.7438922
},
{
  "type": "node",
  "id": 1049882209,
  "lat": 51.9961474,
  "lon": -0.7435561
},
{
  "type": "node",
  "id": 1621911272,
  "lat": 51.9972630,
  "lon": -0.7417023
},
{
  "type": "node",
  "id": 1621911291,
  "lat": 51.9972708,
  "lon": -0.7418168
},
{
  "type": "node",
  "id": 1621911344,
  "lat": 51.9973853,
  "lon": -0.7416804
},
{
  "type": "node",
  "id": 1621911350,
  "lat": 51.9973931,
  "lon": -0.7417949
},
{
  "type": "node",
  "id": 1621911365,
  "lat": 51.9974138,
  "lon": -0.7415583
},
{
  "type": "node",
  "id": 1621911375,
  "lat": 51.9974407,
  "lon": -0.7419702
},
{
  "type": "node",
  "id": 1621911377,
  "lat": 51.9974555,
  "lon": -0.7406388
},
{
  "type": "node",
  "id": 1621911380,
  "lat": 51.9974752,
  "lon": -0.7406358
},
{
  "type": "node",
  "id": 1621911393,
  "lat": 51.9975166,
  "lon": -0.7415405
},
{
  "type": "node",
  "id": 1621911402,
  "lat": 51.9975435,
  "lon": -0.7419524
},
{
  "type": "node",
  "id": 1671895306,
  "lat": 51.9980592,
  "lon": -0.7433173
},
{
  "type": "node",
  "id": 1671895448,
  "lat": 51.9980527,
  "lon": -0.7446293
},
{
  "type": "node",
  "id": 1939192585,
  "lat": 51.9971036,
  "lon": -0.7420850
},
{
  "type": "node",
  "id": 1939192596,
  "lat": 51.9964352,
  "lon": -0.7428559
},
{
  "type": "node",
  "id": 1939192599,
  "lat": 51.9962873,
  "lon": -0.7437955
},
{
  "type": "node",
  "id": 1939192600,
  "lat": 51.9970233,
  "lon": -0.7419544
},
{
  "type": "node",
  "id": 1939192605,
  "lat": 51.9964744,
  "lon": -0.7428181
},
{
  "type": "node",
  "id": 1939192606,
  "lat": 51.9964232,
  "lon": -0.7430109
},
{
  "type": "node",
  "id": 1939192607,
  "lat": 51.9964452,
  "lon": -0.7428285
},
{
  "type": "node",
  "id": 1939192610,
  "lat": 51.9968349,
  "lon": -0.7432489
},
{
  "type": "node",
  "id": 1939192616,
  "lat": 51.9955236,
  "lon": -0.7431789
},
{
  "type": "node",
  "id": 1939192621,
  "lat": 51.9972882,
  "lon": -0.7420481
},
{
  "type": "node",
  "id": 1939192629,
  "lat": 51.9964725,
  "lon": -0.7430764
},
{
  "type": "node",
  "id": 1939192632,
  "lat": 51.9975595,
  "lon": -0.7434708
},
{
  "type": "node",
  "id": 1939192637,
  "lat": 51.9964315,
  "lon": -0.7430874
},
{
  "type": "node",
  "id": 1939192638,
  "lat": 51.9965459,
  "lon": -0.7435653
},
{
  "type": "node",
  "id": 1939192639,
  "lat": 51.9972926,
  "lon": -0.7420935
},
{
  "type": "node",
  "id": 1939192640,
  "lat": 51.9984511,
  "lon": -0.7430513
},
{
  "type": "node",
  "id": 1939192644,
  "lat": 51.9968126,
  "lon": -0.7432590
},
{
  "type": "node",
  "id": 1939192649,
  "lat": 51.9967998,
  "lon": -0.7431823
},
{
  "type": "node",
  "id": 1939192655,
  "lat": 51.9980153,
  "lon": -0.7440344
},
{
  "type": "node",
  "id": 1939192661,
  "lat": 51.9968341,
  "lon": -0.7433810
},
{
  "type": "node",
  "id": 1939192665,
  "lat": 51.9964563,
  "lon": -0.7432368
},
{
  "type": "node",
  "id": 1939192666,
  "lat": 51.9968234,
  "lon": -0.7431718
},
{
  "type": "node",
  "id": 1939192668,
  "lat": 51.9973584,
  "lon": -0.7436734
},
{
  "type": "node",
  "id": 1939192671,
  "lat": 51.9990678,
  "lon": -0.7427665
},
{
  "type": "node",
  "id": 1939192675,
  "lat": 51.9988221,
  "lon": -0.7436472
},
{
  "type": "node",
  "id": 1939192681,
  "lat": 51.9967942,
  "lon": -0.7432022
},
{
  "type": "node",
  "id": 1939192682,
  "lat": 51.9967890,
  "lon": -0.7435715
},
{
  "type": "node",
  "id": 1939192683,
  "lat": 51.9967155,
  "lon": -0.7435997
},
{
  "type": "node",
  "id": 1939192686,
  "lat": 51.9964906,
  "lon": -0.7428378
},
{
  "type": "node",
  "id": 1939192689,
  "lat": 51.9967520,
  "lon": -0.7432196
},
{
  "type": "node",
  "id": 1939192690,
  "lat": 51.9983963,
  "lon": -0.7442164
},
{
  "type": "node",
  "id": 1939192692,
  "lat": 51.9959309,
  "lon": -0.7431855
},
{
  "type": "node",
  "id": 1939192695,
  "lat": 51.9964513,
  "lon": -0.7431976
},
{
  "type": "node",
  "id": 1939192697,
  "lat": 51.9968386,
  "lon": -0.7431874
},
{
  "type": "node",
  "id": 1939192700,
  "lat": 51.9973550,
  "lon": -0.7436351
},
{
  "type": "node",
  "id": 1939192702,
  "lat": 51.9964387,
  "lon": -0.7430068
},
{
  "type": "node",
  "id": 1939192703,
  "lat": 51.9964256,
  "lon": -0.7428814
},
{
  "type": "node",
  "id": 1939192704,
  "lat": 51.9953864,
  "lon": -0.7417249
},
{
  "type": "node",
  "id": 1939192709,
  "lat": 51.9968448,
  "lon": -0.7432227
},
{
  "type": "node",
  "id": 1939192711,
  "lat": 51.9964378,
  "lon": -0.7428781
},
{
  "type": "node",
  "id": 1939192715,
  "lat": 51.9966979,
  "lon": -0.7435004
},
{
  "type": "node",
  "id": 1939192717,
  "lat": 51.9964926,
  "lon": -0.7432268
},
{
  "type": "node",
  "id": 1939192722,
  "lat": 51.9967175,
  "lon": -0.7434921
},
{
  "type": "node",
  "id": 1939192725,
  "lat": 51.9964865,
  "lon": -0.7431879
},
{
  "type": "node",
  "id": 1939192726,
  "lat": 51.9974278,
  "lon": -0.7435412
},
{
  "type": "node",
  "id": 1939192727,
  "lat": 51.9954186,
  "lon": -0.7424530
},
{
  "type": "node",
  "id": 1939192731,
  "lat": 51.9971017,
  "lon": -0.7420312
},
{
  "type": "node",
  "id": 1939192734,
  "lat": 51.9981106,
  "lon": -0.7437155
},
{
  "type": "node",
  "id": 1939192735,
  "lat": 51.9968447,
  "lon": -0.7435471
},
{
  "type": "node",
  "id": 1939192738,
  "lat": 51.9966805,
  "lon": -0.7427708
},
{
  "type": "node",
  "id": 1939192743,
  "lat": 51.9971789,
  "lon": -0.7421290
},
{
  "type": "node",
  "id": 1939192754,
  "lat": 51.9966416,
  "lon": -0.7435217
},
{
  "type": "node",
  "id": 1939192755,
  "lat": 51.9968186,
  "lon": -0.7433881
},
{
  "type": "node",
  "id": 1939192757,
  "lat": 51.9966595,
  "lon": -0.7436249
},
{
  "type": "node",
  "id": 1939192761,
  "lat": 51.9966884,
  "lon": -0.7433177
},
{
  "type": "node",
  "id": 1939192762,
  "lat": 51.9971739,
  "lon": -0.7420774
},
{
  "type": "node",
  "id": 1939192763,
  "lat": 51.9970494,
  "lon": -0.7418909
},
{
  "type": "node",
  "id": 1939192767,
  "lat": 51.9980941,
  "lon": -0.7432067
},
{
  "type": "node",
  "id": 1939192773,
  "lat": 51.9970516,
  "lon": -0.7419517
},
{
  "type": "node",
  "id": 1939192777,
  "lat": 51.9989261,
  "lon": -0.7419395
},
{
  "type": "node",
  "id": 1939192778,
  "lat": 51.9967411,
  "lon": -0.7432952
},
{
  "type": "node",
  "id": 1939200005,
  "lat": 51.9953339,
  "lon": -0.7418427
},
{
  "type": "node",
  "id": 2049660880,
  "lat": 51.9977567,
  "lon": -0.7433911
},
{
  "type": "node",
  "id": 2049660883,
  "lat": 51.9973535,
  "lon": -0.7435560
},
{
  "type": "node",
  "id": 2432876535,
  "lat": 51.9987016,
  "lon": -0.7429399
},
{
  "type": "node",
  "id": 2439713875,
  "lat": 51.9966835,
  "lon": -0.7438254
},
{
  "type": "node",
  "id": 2439713877,
  "lat": 51.9966451,
  "lon": -0.7437072
},
{
  "type": "node",
  "id": 2439713879,
  "lat": 51.9968187,
  "lon": -0.7438227
},
{
  "type": "node",
  "id": 2444890108,
  "lat": 51.9954259,
  "lon": -0.7425239
},
{
  "type": "node",
  "id": 2453487261,
  "lat": 51.9979770,
  "lon": -0.7443186
},
{
  "type": "node",
  "id": 4360006707,
  "lat": 51.9954983,
  "lon": -0.7408342
},
{
  "type": "node",
  "id": 4360006709,
  "lat": 51.9960783,
  "lon": -0.7409510
},
{
  "type": "node",
  "id": 4892325372,
  "lat": 51.9958958,
  "lon": -0.7409143
},
{
  "type": "node",
  "id": 5011817949,
  "lat": 51.9959804,
  "lon": -0.7414122
},
{
  "type": "node",
  "id": 5011817950,
  "lat": 51.9959139,
  "lon": -0.7413968
},
{
  "type": "node",
  "id": 5011817951,
  "lat": 51.9958737,
  "lon": -0.7418147
},
{
  "type": "node",
  "id": 5011817952,
  "lat": 51.9959438,
  "lon": -0.7418318
},
{
  "type": "node",
  "id": 5011817953,
  "lat": 51.9960076,
  "lon": -0.7409749
},
{
  "type": "node",
  "id": 5011817954,
  "lat": 51.9959660,
  "lon": -0.7411418
},
{
  "type": "node",
  "id": 5011817955,
  "lat": 51.9960601,
  "lon": -0.7412063
},
{
  "type": "node",
  "id": 5011817956,
  "lat": 51.9961034,
  "lon": -0.7410329
},
{
  "type": "node",
  "id": 5011817957,
  "lat": 51.9953713,
  "lon": -0.7431823
},
{
  "type": "node",
  "id": 5011817958,
  "lat": 51.9954648,
  "lon": -0.7431510
},
{
  "type": "node",
  "id": 5011817959,
  "lat": 51.9954008,
  "lon": -0.7426497
},
{
  "type": "node",
  "id": 5011817960,
  "lat": 51.9953073,
  "lon": -0.7426810
},
{
  "type": "node",
  "id": 5011817973,
  "lat": 51.9954524,
  "lon": -0.7428819
},
{
  "type": "node",
  "id": 5011817974,
  "lat": 51.9954901,
  "lon": -0.7428676
},
{
  "type": "node",
  "id": 5011817975,
  "lat": 51.9954777,
  "lon": -0.7427826
},
{
  "type": "node",
  "id": 5011817976,
  "lat": 51.9954400,
  "lon": -0.7427968
},
{
  "type": "node",
  "id": 5927526085,
  "lat": 51.9980462,
  "lon": -0.7432280
},
{
  "type": "node",
  "id": 5927526087,
  "lat": 51.9983054,
  "lon": -0.7431111
},
{
  "type": "node",
  "id": 274605491,
  "lat": 51.9975167,
  "lon": -0.7400177
},
{
  "type": "node",
  "id": 274605493,
  "lat": 51.9973416,
  "lon": -0.7400448
},
{
  "type": "node",
  "id": 779061358,
  "lat": 51.9974485,
  "lon": -0.7401808
},
{
  "type": "node",
  "id": 779061359,
  "lat": 51.9975235,
  "lon": -0.7401688
},
{
  "type": "node",
  "id": 779061360,
  "lat": 51.9973654,
  "lon": -0.7404502
},
{
  "type": "node",
  "id": 779061361,
  "lat": 51.9973086,
  "lon": -0.7404590
},
{
  "type": "node",
  "id": 779061370,
  "lat": 51.9993862,
  "lon": -0.7401457
},
{
  "type": "node",
  "id": 779061372,
  "lat": 51.9989641,
  "lon": -0.7400073
},
{
  "type": "node",
  "id": 779061374,
  "lat": 51.9986860,
  "lon": -0.7400813
},
{
  "type": "node",
  "id": 779061376,
  "lat": 51.9985247,
  "lon": -0.7393892
},
{
  "type": "node",
  "id": 779061377,
  "lat": 51.9984007,
  "lon": -0.7385173
},
{
  "type": "node",
  "id": 779061379,
  "lat": 51.9970210,
  "lon": -0.7387114
},
{
  "type": "node",
  "id": 779173211,
  "lat": 51.9970417,
  "lon": -0.7395282
},
{
  "type": "node",
  "id": 1621911234,
  "lat": 51.9971501,
  "lon": -0.7393103
},
{
  "type": "node",
  "id": 1621911257,
  "lat": 51.9971925,
  "lon": -0.7398875
},
{
  "type": "node",
  "id": 1621911263,
  "lat": 51.9972481,
  "lon": -0.7392913
},
{
  "type": "node",
  "id": 1621911269,
  "lat": 51.9972627,
  "lon": -0.7394905
},
{
  "type": "node",
  "id": 1621911274,
  "lat": 51.9972771,
  "lon": -0.7396619
},
{
  "type": "node",
  "id": 1621911275,
  "lat": 51.9972793,
  "lon": -0.7392847
},
{
  "type": "node",
  "id": 1621911299,
  "lat": 51.9972922,
  "lon": -0.7398681
},
{
  "type": "node",
  "id": 1621911303,
  "lat": 51.9972940,
  "lon": -0.7394844
},
{
  "type": "node",
  "id": 1621911308,
  "lat": 51.9973018,
  "lon": -0.7396571
},
{
  "type": "node",
  "id": 1621911311,
  "lat": 51.9973169,
  "lon": -0.7398627
},
{
  "type": "node",
  "id": 1621911339,
  "lat": 51.9973736,
  "lon": -0.7392703
},
{
  "type": "node",
  "id": 1621911341,
  "lat": 51.9973900,
  "lon": -0.7394717
},
{
  "type": "node",
  "id": 1621911346,
  "lat": 51.9974031,
  "lon": -0.7396409
},
{
  "type": "node",
  "id": 1621911348,
  "lat": 51.9974037,
  "lon": -0.7392620
},
{
  "type": "node",
  "id": 1621911353,
  "lat": 51.9974180,
  "lon": -0.7398431
},
{
  "type": "node",
  "id": 1621911355,
  "lat": 51.9974187,
  "lon": -0.7394661
},
{
  "type": "node",
  "id": 1621911370,
  "lat": 51.9974330,
  "lon": -0.7396351
},
{
  "type": "node",
  "id": 1621911373,
  "lat": 51.9974480,
  "lon": -0.7398397
},
{
  "type": "node",
  "id": 1621911382,
  "lat": 51.9974999,
  "lon": -0.7392434
},
{
  "type": "node",
  "id": 1621911391,
  "lat": 51.9975146,
  "lon": -0.7394436
},
{
  "type": "node",
  "id": 1621911394,
  "lat": 51.9975297,
  "lon": -0.7396182
},
{
  "type": "node",
  "id": 1621911395,
  "lat": 51.9975316,
  "lon": -0.7392384
},
{
  "type": "node",
  "id": 1621911396,
  "lat": 51.9975446,
  "lon": -0.7398210
},
{
  "type": "node",
  "id": 1621911398,
  "lat": 51.9975463,
  "lon": -0.7394375
},
{
  "type": "node",
  "id": 1621911419,
  "lat": 51.9975405,
  "lon": -0.7401545
},
{
  "type": "node",
  "id": 1621911421,
  "lat": 51.9975596,
  "lon": -0.7396124
},
{
  "type": "node",
  "id": 1621911425,
  "lat": 51.9975370,
  "lon": -0.7400210
},
{
  "type": "node",
  "id": 1621911430,
  "lat": 51.9975747,
  "lon": -0.7398167
},
{
  "type": "node",
  "id": 1621911450,
  "lat": 51.9976494,
  "lon": -0.7402105
},
{
  "type": "node",
  "id": 1621911453,
  "lat": 51.9976830,
  "lon": -0.7400106
},
{
  "type": "node",
  "id": 1621911472,
  "lat": 51.9977232,
  "lon": -0.7392012
},
{
  "type": "node",
  "id": 1621911483,
  "lat": 51.9977642,
  "lon": -0.7397799
},
{
  "type": "node",
  "id": 1939192756,
  "lat": 51.9962652,
  "lon": -0.7401959
},
{
  "type": "node",
  "id": 2048222958,
  "lat": 51.9968140,
  "lon": -0.7396172
},
{
  "type": "node",
  "id": 2435716812,
  "lat": 51.9977382,
  "lon": -0.7385424
},
{
  "type": "node",
  "id": 2435716814,
  "lat": 51.9985774,
  "lon": -0.7398077
},
{
  "type": "node",
  "id": 4360006711,
  "lat": 51.9962727,
  "lon": -0.7400678
},
{
  "type": "node",
  "id": 4360006716,
  "lat": 51.9968861,
  "lon": -0.7399370
},
{
  "type": "node",
  "id": 4360006736,
  "lat": 51.9984684,
  "lon": -0.7390457
},
{
  "type": "node",
  "id": 4512534122,
  "lat": 51.9971702,
  "lon": -0.7395949
},
{
  "type": "node",
  "id": 4512534129,
  "lat": 51.9974478,
  "lon": -0.7392535
},
{
  "type": "node",
  "id": 4512534132,
  "lat": 51.9975581,
  "lon": -0.7401533
},
{
  "type": "node",
  "id": 4512534133,
  "lat": 51.9975598,
  "lon": -0.7402168
},
{
  "type": "node",
  "id": 4512534135,
  "lat": 51.9976478,
  "lon": -0.7401526
},
{
  "type": "node",
  "id": 4512534136,
  "lat": 51.9976867,
  "lon": -0.7401499
},
{
  "type": "node",
  "id": 4512534137,
  "lat": 51.9976995,
  "lon": -0.7397925
},
{
  "type": "node",
  "id": 4742759575,
  "lat": 51.9973096,
  "lon": -0.7386655
},
{
  "type": "node",
  "id": 4892325374,
  "lat": 51.9962502,
  "lon": -0.7404408
},
{
  "type": "node",
  "id": 5927524984,
  "lat": 51.9986153,
  "lon": -0.7399631
},
{
  "type": "node",
  "id": 6757547850,
  "lat": 51.9976378,
  "lon": -0.7393767
},
{
  "type": "node",
  "id": 6757547851,
  "lat": 51.9976415,
  "lon": -0.7394270
},
{
  "type": "node",
  "id": 6757547852,
  "lat": 51.9976551,
  "lon": -0.7395866
},
{
  "type": "node",
  "id": 6757547853,
  "lat": 51.9976587,
  "lon": -0.7396359
},
{
  "type": "node",
  "id": 6757547854,
  "lat": 51.9977347,
  "lon": -0.7393579
},
{
  "type": "node",
  "id": 6757547855,
  "lat": 51.9977368,
  "lon": -0.7394085
},
{
  "type": "node",
  "id": 6757547856,
  "lat": 51.9977486,
  "lon": -0.7395685
},
{
  "type": "node",
  "id": 6757547857,
  "lat": 51.9977522,
  "lon": -0.7396177
},
{
  "type": "node",
  "id": 6757547858,
  "lat": 51.9971322,
  "lon": -0.7394944
},
{
  "type": "node",
  "id": 6757547859,
  "lat": 51.9970702,
  "lon": -0.7392596
},
{
  "type": "node",
  "id": 7197935140,
  "lat": 51.9973063,
  "lon": -0.7392806
},
{
  "type": "node",
  "id": 779092561,
  "lat": 51.9996102,
  "lon": -0.7415192
},
{
  "type": "node",
  "id": 3390395504,
  "lat": 51.9895340,
  "lon": -0.6199850
},
{
  "type": "node",
  "id": 3390395505,
  "lat": 51.9897123,
  "lon": -0.6199788
},
{
  "type": "node",
  "id": 3390395506,
  "lat": 51.9897110,
  "lon": -0.6198741
},
{
  "type": "node",
  "id": 3390395507,
  "lat": 51.9896534,
  "lon": -0.6198761
},
{
  "type": "node",
  "id": 3390395508,
  "lat": 51.9896537,
  "lon": -0.6199015
},
{
  "type": "node",
  "id": 3390395509,
  "lat": 51.9895901,
  "lon": -0.6199037
},
{
  "type": "node",
  "id": 3390395510,
  "lat": 51.9895885,
  "lon": -0.6197860
},
{
  "type": "node",
  "id": 3390395511,
  "lat": 51.9895314,
  "lon": -0.6197879
},
{
  "type": "node",
  "id": 536386588,
  "lat": 52.0561013,
  "lon": -0.8065324
},
{
  "type": "node",
  "id": 1934341621,
  "lat": 52.0547169,
  "lon": -0.8069965
},
{
  "type": "node",
  "id": 1934341622,
  "lat": 52.0547347,
  "lon": -0.8064781
},
{
  "type": "node",
  "id": 1934341623,
  "lat": 52.0548743,
  "lon": -0.8071281
},
{
  "type": "node",
  "id": 1934341625,
  "lat": 52.0550392,
  "lon": -0.8071250
},
{
  "type": "node",
  "id": 1934341627,
  "lat": 52.0554710,
  "lon": -0.8062771
},
{
  "type": "node",
  "id": 1934341645,
  "lat": 52.0555388,
  "lon": -0.8061440
},
{
  "type": "node",
  "id": 5496804526,
  "lat": 52.0558860,
  "lon": -0.8062659
},
{
  "type": "node",
  "id": 5496804527,
  "lat": 52.0557993,
  "lon": -0.8061807
},
{
  "type": "node",
  "id": 536763657,
  "lat": 52.0552747,
  "lon": -0.8035479
},
{
  "type": "node",
  "id": 1934341631,
  "lat": 52.0550797,
  "lon": -0.8045943
},
{
  "type": "node",
  "id": 1934341637,
  "lat": 52.0552409,
  "lon": -0.8036633
},
{
  "type": "node",
  "id": 1934341643,
  "lat": 52.0553889,
  "lon": -0.8034762
},
{
  "type": "node",
  "id": 1934341646,
  "lat": 52.0555276,
  "lon": -0.8035373
},
{
  "type": "node",
  "id": 1934341651,
  "lat": 52.0556058,
  "lon": -0.8060817
},
{
  "type": "node",
  "id": 1934341657,
  "lat": 52.0556908,
  "lon": -0.8060834
},
{
  "type": "node",
  "id": 1934341658,
  "lat": 52.0557422,
  "lon": -0.8037522
},
{
  "type": "node",
  "id": 1934341667,
  "lat": 52.0560808,
  "lon": -0.8038196
},
{
  "type": "node",
  "id": 1934341696,
  "lat": 52.0562898,
  "lon": -0.8051144
},
{
  "type": "node",
  "id": 1934341699,
  "lat": 52.0563362,
  "lon": -0.8059214
},
{
  "type": "node",
  "id": 1934341710,
  "lat": 52.0566042,
  "lon": -0.8037627
},
{
  "type": "node",
  "id": 1934341714,
  "lat": 52.0565512,
  "lon": -0.8055244
},
{
  "type": "node",
  "id": 1934341719,
  "lat": 52.0568678,
  "lon": -0.8038254
},
{
  "type": "node",
  "id": 5496804528,
  "lat": 52.0561494,
  "lon": -0.8038280
},
{
  "type": "node",
  "id": 5496804529,
  "lat": 52.0562520,
  "lon": -0.8037408
},
{
  "type": "node",
  "id": 5496804530,
  "lat": 52.0568231,
  "lon": -0.8036914
},
{
  "type": "node",
  "id": 5496804531,
  "lat": 52.0548809,
  "lon": -0.8056796
},
{
  "type": "node",
  "id": 21293249,
  "lat": 52.1840141,
  "lon": -0.8244612
},
{
  "type": "node",
  "id": 21293250,
  "lat": 52.1839015,
  "lon": -0.8244952
},
{
  "type": "node",
  "id": 21293251,
  "lat": 52.1838843,
  "lon": -0.8243622
},
{
  "type": "node",
  "id": 21293252,
  "lat": 52.1839991,
  "lon": -0.8243272
},
{
  "type": "node",
  "id": 1566322530,
  "lat": 52.1524082,
  "lon": -0.7008961
},
{
  "type": "node",
  "id": 1566322551,
  "lat": 52.1524141,
  "lon": -0.7008298
},
{
  "type": "node",
  "id": 1566322571,
  "lat": 52.1524511,
  "lon": -0.7008344
},
{
  "type": "node",
  "id": 1566322638,
  "lat": 52.1525139,
  "lon": -0.7009801
},
{
  "type": "node",
  "id": 1566322642,
  "lat": 52.1525158,
  "lon": -0.7010257
},
{
  "type": "node",
  "id": 1566322653,
  "lat": 52.1525473,
  "lon": -0.7008426
},
{
  "type": "node",
  "id": 1566322663,
  "lat": 52.1525184,
  "lon": -0.7009113
},
{
  "type": "node",
  "id": 1566322664,
  "lat": 52.1525247,
  "lon": -0.7009773
},
{
  "type": "node",
  "id": 1566322710,
  "lat": 52.1526015,
  "lon": -0.7008404
},
{
  "type": "node",
  "id": 1566322725,
  "lat": 52.1526108,
  "lon": -0.7010233
},
{
  "type": "node",
  "id": 5648379366,
  "lat": 52.1524118,
  "lon": -0.7008559
},
{
  "type": "node",
  "id": 1487716854,
  "lat": 52.1161172,
  "lon": -0.4689651
},
{
  "type": "node",
  "id": 1487716856,
  "lat": 52.1160576,
  "lon": -0.4688968
},
{
  "type": "node",
  "id": 1487716858,
  "lat": 52.1159613,
  "lon": -0.4691196
},
{
  "type": "node",
  "id": 1487716860,
  "lat": 52.1160209,
  "lon": -0.4691879
},
{
  "type": "node",
  "id": 2171323233,
  "lat": 52.1795417,
  "lon": -0.4894780
},
{
  "type": "node",
  "id": 2171323235,
  "lat": 52.1795457,
  "lon": -0.4895420
},
{
  "type": "node",
  "id": 2171323237,
  "lat": 52.1796699,
  "lon": -0.4894565
},
{
  "type": "node",
  "id": 2171323238,
  "lat": 52.1796739,
  "lon": -0.4895206
},
{
  "type": "node",
  "id": 2171323293,
  "lat": 52.1800982,
  "lon": -0.4889868
},
{
  "type": "node",
  "id": 2171323316,
  "lat": 52.1801598,
  "lon": -0.4890627
},
{
  "type": "node",
  "id": 2171323359,
  "lat": 52.1802519,
  "lon": -0.4886550
},
{
  "type": "node",
  "id": 2171323363,
  "lat": 52.1803135,
  "lon": -0.4887309
},
{
  "type": "node",
  "id": 2171323402,
  "lat": 52.1807172,
  "lon": -0.4871778
},
{
  "type": "node",
  "id": 2171323406,
  "lat": 52.1807758,
  "lon": -0.4872413
},
{
  "type": "node",
  "id": 2171323412,
  "lat": 52.1808233,
  "lon": -0.4875371
},
{
  "type": "node",
  "id": 2171323413,
  "lat": 52.1808528,
  "lon": -0.4875690
},
{
  "type": "node",
  "id": 2171323416,
  "lat": 52.1808624,
  "lon": -0.4868209
},
{
  "type": "node",
  "id": 2171323419,
  "lat": 52.1808891,
  "lon": -0.4876083
},
{
  "type": "node",
  "id": 2171323420,
  "lat": 52.1809210,
  "lon": -0.4868844
},
{
  "type": "node",
  "id": 2171323434,
  "lat": 52.1810762,
  "lon": -0.4860040
},
{
  "type": "node",
  "id": 2171323436,
  "lat": 52.1811109,
  "lon": -0.4868303
},
{
  "type": "node",
  "id": 2171323437,
  "lat": 52.1811252,
  "lon": -0.4868458
},
{
  "type": "node",
  "id": 2171323445,
  "lat": 52.1811469,
  "lon": -0.4860808
},
{
  "type": "node",
  "id": 2171323446,
  "lat": 52.1811482,
  "lon": -0.4858280
},
{
  "type": "node",
  "id": 2171323450,
  "lat": 52.1811767,
  "lon": -0.4869015
},
{
  "type": "node",
  "id": 2171323457,
  "lat": 52.1812189,
  "lon": -0.4859048
},
{
  "type": "node",
  "id": 26204570,
  "lat": 52.1365025,
  "lon": -0.4625573
},
{
  "type": "node",
  "id": 1478112012,
  "lat": 52.1359505,
  "lon": -0.4642703
},
{
  "type": "node",
  "id": 1478112013,
  "lat": 52.1360601,
  "lon": -0.4642892
},
{
  "type": "node",
  "id": 1478112014,
  "lat": 52.1359605,
  "lon": -0.4640916
},
{
  "type": "node",
  "id": 1478112016,
  "lat": 52.1359647,
  "lon": -0.4640013
},
{
  "type": "node",
  "id": 1478112017,
  "lat": 52.1359799,
  "lon": -0.4638195
},
{
  "type": "node",
  "id": 1478112018,
  "lat": 52.1360034,
  "lon": -0.4641394
},
{
  "type": "node",
  "id": 1478112019,
  "lat": 52.1360066,
  "lon": -0.4640971
},
{
  "type": "node",
  "id": 1478112020,
  "lat": 52.1360112,
  "lon": -0.4640124
},
{
  "type": "node",
  "id": 1478112021,
  "lat": 52.1360197,
  "lon": -0.4639002
},
{
  "type": "node",
  "id": 1478112023,
  "lat": 52.1360252,
  "lon": -0.4638267
},
{
  "type": "node",
  "id": 1478112028,
  "lat": 52.1360296,
  "lon": -0.4637507
},
{
  "type": "node",
  "id": 1478112029,
  "lat": 52.1360680,
  "lon": -0.4637566
},
{
  "type": "node",
  "id": 1478112030,
  "lat": 52.1360768,
  "lon": -0.4634164
},
{
  "type": "node",
  "id": 1478112031,
  "lat": 52.1360876,
  "lon": -0.4634180
},
{
  "type": "node",
  "id": 1478112032,
  "lat": 52.1360884,
  "lon": -0.4632152
},
{
  "type": "node",
  "id": 1478112033,
  "lat": 52.1361098,
  "lon": -0.4632184
},
{
  "type": "node",
  "id": 1478112034,
  "lat": 52.1361147,
  "lon": -0.4631330
},
{
  "type": "node",
  "id": 1478112035,
  "lat": 52.1361430,
  "lon": -0.4641607
},
{
  "type": "node",
  "id": 1478112036,
  "lat": 52.1361568,
  "lon": -0.4639210
},
{
  "type": "node",
  "id": 1478112037,
  "lat": 52.1361616,
  "lon": -0.4631893
},
{
  "type": "node",
  "id": 1478112038,
  "lat": 52.1361645,
  "lon": -0.4631407
},
{
  "type": "node",
  "id": 1478112039,
  "lat": 52.1361894,
  "lon": -0.4643935
},
{
  "type": "node",
  "id": 1478112040,
  "lat": 52.1361956,
  "lon": -0.4641688
},
{
  "type": "node",
  "id": 1478112042,
  "lat": 52.1362023,
  "lon": -0.4641698
},
{
  "type": "node",
  "id": 1478112043,
  "lat": 52.1362159,
  "lon": -0.4632370
},
{
  "type": "node",
  "id": 1478112044,
  "lat": 52.1362187,
  "lon": -0.4631960
},
{
  "type": "node",
  "id": 1478112045,
  "lat": 52.1362094,
  "lon": -0.4639290
},
{
  "type": "node",
  "id": 1478112046,
  "lat": 52.1362182,
  "lon": -0.4637795
},
{
  "type": "node",
  "id": 1478112047,
  "lat": 52.1362206,
  "lon": -0.4639307
},
{
  "type": "node",
  "id": 1478112049,
  "lat": 52.1362293,
  "lon": -0.4637812
},
{
  "type": "node",
  "id": 1478112050,
  "lat": 52.1362359,
  "lon": -0.4634724
},
{
  "type": "node",
  "id": 1478112051,
  "lat": 52.1362516,
  "lon": -0.4633661
},
{
  "type": "node",
  "id": 1478112055,
  "lat": 52.1362609,
  "lon": -0.4632448
},
{
  "type": "node",
  "id": 1478112057,
  "lat": 52.1362726,
  "lon": -0.4634780
},
{
  "type": "node",
  "id": 1478112060,
  "lat": 52.1362817,
  "lon": -0.4633747
},
{
  "type": "node",
  "id": 1478112062,
  "lat": 52.1363155,
  "lon": -0.4635273
},
{
  "type": "node",
  "id": 1478112064,
  "lat": 52.1363326,
  "lon": -0.4633440
},
{
  "type": "node",
  "id": 1478112067,
  "lat": 52.1363689,
  "lon": -0.4634928
},
{
  "type": "node",
  "id": 1478112068,
  "lat": 52.1363765,
  "lon": -0.4634078
},
{
  "type": "node",
  "id": 2478033794,
  "lat": 52.1365512,
  "lon": -0.4617482
},
{
  "type": "node",
  "id": 2478033795,
  "lat": 52.1360488,
  "lon": -0.4616354
},
{
  "type": "node",
  "id": 2478033796,
  "lat": 52.1360127,
  "lon": -0.4621341
},
{
  "type": "node",
  "id": 2478033798,
  "lat": 52.1360749,
  "lon": -0.4621535
},
{
  "type": "node",
  "id": 2478033799,
  "lat": 52.1360248,
  "lon": -0.4627272
},
{
  "type": "node",
  "id": 2478033801,
  "lat": 52.1364711,
  "lon": -0.4628369
},
{
  "type": "node",
  "id": 6005781923,
  "lat": 52.1360371,
  "lon": -0.4625869
},
{
  "type": "node",
  "id": 6005781924,
  "lat": 52.1360454,
  "lon": -0.4624920
},
{
  "type": "node",
  "id": 6504456265,
  "lat": 52.1362448,
  "lon": -0.4627827
},
{
  "type": "node",
  "id": 6504456281,
  "lat": 52.1362774,
  "lon": -0.4616821
},
{
  "type": "node",
  "id": 6504456282,
  "lat": 52.1362475,
  "lon": -0.4616760
},
{
  "type": "node",
  "id": 6504456283,
  "lat": 52.1365130,
  "lon": -0.4617390
},
{
  "type": "node",
  "id": 6504456284,
  "lat": 52.1364048,
  "lon": -0.4617128
},
{
  "type": "node",
  "id": 6504456385,
  "lat": 52.1362923,
  "lon": -0.4616857
},
{
  "type": "node",
  "id": 6504456386,
  "lat": 52.1362849,
  "lon": -0.4616839
},
{
  "type": "node",
  "id": 6504456387,
  "lat": 52.1365229,
  "lon": -0.4622260
},
{
  "type": "node",
  "id": 6504456388,
  "lat": 52.1365074,
  "lon": -0.4624850
},
{
  "type": "node",
  "id": 6504456390,
  "lat": 52.1365039,
  "lon": -0.4625362
},
{
  "type": "node",
  "id": 6504456392,
  "lat": 52.1364833,
  "lon": -0.4628245
},
{
  "type": "node",
  "id": 6504494513,
  "lat": 52.1360277,
  "lon": -0.4626943
},
{
  "type": "node",
  "id": 6506038330,
  "lat": 52.1360554,
  "lon": -0.4643731
},
{
  "type": "node",
  "id": 2461878270,
  "lat": 52.3022015,
  "lon": -0.7868970
},
{
  "type": "node",
  "id": 2461878294,
  "lat": 52.3021744,
  "lon": -0.7868365
},
{
  "type": "node",
  "id": 2461878588,
  "lat": 52.3018152,
  "lon": -0.7873610
},
{
  "type": "node",
  "id": 5391362879,
  "lat": 52.3017881,
  "lon": -0.7873006
},
{
  "type": "node",
  "id": 2959189333,
  "lat": 52.2572624,
  "lon": -0.6711927
},
{
  "type": "node",
  "id": 2959189334,
  "lat": 52.2572854,
  "lon": -0.6711203
},
{
  "type": "node",
  "id": 2959189335,
  "lat": 52.2573841,
  "lon": -0.6712957
},
{
  "type": "node",
  "id": 2959189336,
  "lat": 52.2574070,
  "lon": -0.6712234
},
{
  "type": "node",
  "id": 2848992622,
  "lat": 52.2999807,
  "lon": -0.6888155
},
{
  "type": "node",
  "id": 2848992634,
  "lat": 52.2998412,
  "lon": -0.6893689
},
{
  "type": "node",
  "id": 2848992635,
  "lat": 52.2998786,
  "lon": -0.6887310
},
{
  "type": "node",
  "id": 2848992636,
  "lat": 52.2999847,
  "lon": -0.6887477
},
{
  "type": "node",
  "id": 2848992637,
  "lat": 52.2999693,
  "lon": -0.6890102
},
{
  "type": "node",
  "id": 2848992638,
  "lat": 52.3000254,
  "lon": -0.6890190
},
{
  "type": "node",
  "id": 2848992639,
  "lat": 52.3000126,
  "lon": -0.6892361
},
{
  "type": "node",
  "id": 2848992640,
  "lat": 52.2999495,
  "lon": -0.6892262
},
{
  "type": "node",
  "id": 2848992641,
  "lat": 52.2999402,
  "lon": -0.6893845
},
{
  "type": "node",
  "id": 3815478016,
  "lat": 52.4435735,
  "lon": -0.8184998
},
{
  "type": "node",
  "id": 3815478017,
  "lat": 52.4436258,
  "lon": -0.8185849
},
{
  "type": "node",
  "id": 3815478019,
  "lat": 52.4434711,
  "lon": -0.8187032
},
{
  "type": "node",
  "id": 3815478020,
  "lat": 52.4436768,
  "lon": -0.8190452
},
{
  "type": "node",
  "id": 3815478021,
  "lat": 52.4437467,
  "lon": -0.8189267
},
{
  "type": "node",
  "id": 3815478022,
  "lat": 52.4436600,
  "lon": -0.8187836
},
{
  "type": "node",
  "id": 3815478023,
  "lat": 52.4437066,
  "lon": -0.8187059
}

  ]
}
