{
  "version": 0.6,
  "generator": "Overpass API 0.7.55.1011 6c2efc30",
  "osm3s": {
    "timestamp_osm_base": "2020-02-14T18:31:02Z",
    "copyright": "The data included in this document is from www.openstreetmap.org. The data is made available under ODbL."
  },
  "elements": [

{
  "type": "node",
  "id": 3345615236,
  "lat": 38.6102881,
  "lon": 27.4299896,
  "tags": {
    "name": "Manisa Müzesi",
    "name:en": "Manisa Museum",
    "opening_hours": "Mo-Sa 08:00-17:00",
    "tourism": "museum",
    "wheelchair": "yes"
  }
},
{
  "type": "node",
  "id": 4167431689,
  "lat": 38.4357022,
  "lon": 27.1404888,
  "tags": {
    "name": "Atatürk Müzesi",
    "name:en": "Atatürk Museum",
    "tourism": "museum"
  }
},
{
  "type": "node",
  "id": 4815177744,
  "lat": 38.4321118,
  "lon": 27.1367385,
  "tags": {
    "fee": "no",
    "name": "Arkas Art Center",
    "name:tr": "Arkas Sanat Merkezi",
    "tourism": "museum",
    "website": "http://www.arkassanatmerkezi.com/en/"
  }
},
{
  "type": "node",
  "id": 4815177745,
  "lat": 38.4273716,
  "lon": 27.1430577,
  "tags": {
    "charge": "5 TL (2017)",
    "fee": "yes",
    "name": "Izmir Museum of History and Art",
    "tourism": "museum",
    "wheelchair": "yes",
    "wikidata": "Q6035320"
  }
},
{
  "type": "node",
  "id": 4815186884,
  "lat": 38.4137371,
  "lon": 27.1284748,
  "tags": {
    "fee": "no",
    "name": "Izmir Ethnography Museum",
    "name:ru": "Этнографический музей Измира",
    "tourism": "museum",
    "wikidata": "Q6102072",
    "wikipedia": "en:Izmir Ethnography Museum"
  }
},
{
  "type": "node",
  "id": 4815186885,
  "lat": 38.4139347,
  "lon": 27.1280671,
  "tags": {
    "charge": "10 TL (2017)",
    "fee": "yes",
    "name": "Izmir Archaeology Museum",
    "name:ru": "Археологический музей в Измире",
    "tourism": "museum",
    "wikidata": "Q6102069",
    "wikipedia": "en:İzmir Archaeological Museum"
  }
},
{
  "type": "node",
  "id": 5265478638,
  "lat": 38.3230699,
  "lon": 26.7639569,
  "tags": {
    "name": "Necati Cumalı museum",
    "tourism": "museum"
  }
},
{
  "type": "node",
  "id": 5295296256,
  "lat": 38.4352626,
  "lon": 27.1408483,
  "tags": {
    "addr:street": "Atatürk Caddesi;Kıbrıs Şehitler Cd",
    "name": "Izmir Atatürk",
    "toilets:wheelchair": "no",
    "tourism": "museum"
  }
},
{
  "type": "node",
  "id": 5494664308,
  "lat": 38.4122112,
  "lon": 27.0340277,
  "tags": {
    "description": "Öğrenciler için ücretsizdir. (Free for students.)",
    "name": "İzmir Müze Gemiler Müdürlüğü",
    "opening_hours": "Tu-Su 09:00-17:00",
    "operator": "Deniz Kuvvetleri Komutanlığı",
    "payment:cash": "yes",
    "phone": "+90 232 278 52 34",
    "tourism": "museum",
    "website": "http://izmirmuzegemiler.dzkk.tsk.tr/"
  }
},
{
  "type": "node",
  "id": 6372376286,
  "lat": 38.4189186,
  "lon": 27.1394001,
  "tags": {
    "name:ru": "Раскопки античной Смирны",
    "tourism": "museum"
  }
},
{
  "type": "way",
  "id": 256317190,
  "nodes": [
    2619815639,
    5483481827,
    2619815640,
    2619815641,
    2619815642,
    2619815643,
    2619815644,
    5483481825,
    2619815645,
    5483481826,
    2619815646,
    5538672280,
    2619815647,
    2619815639
  ],
  "tags": {
    "name": "Agora Açık Hava Müzesi",
    "operator": "Kültür ve Turizm Bakanlığı",
    "operator:type": "public",
    "tourism": "museum"
  }
},
{
  "type": "way",
  "id": 377719864,
  "nodes": [
    3811083064,
    3811083063,
    3811083062,
    433230280,
    3811083064
  ],
  "tags": {
    "building": "yes",
    "name": "Bostanlı Açık Hava Müzesi",
    "tourism": "museum",
    "wheelchair": "yes"
  }
},
{
  "type": "way",
  "id": 393642045,
  "nodes": [
    3968524675,
    3968524676,
    3968524677,
    3968524678,
    3968524675
  ],
  "tags": {
    "building": "yes",
    "name": "Askeri Müze",
    "tourism": "museum"
  }
},
{
  "type": "node",
  "id": 2619815643,
  "lat": 38.4198037,
  "lon": 27.1384553
},
{
  "type": "node",
  "id": 2619815644,
  "lat": 38.4198161,
  "lon": 27.1369972
},
{
  "type": "node",
  "id": 2619815645,
  "lat": 38.4181191,
  "lon": 27.1368624
},
{
  "type": "node",
  "id": 2619815646,
  "lat": 38.4183189,
  "lon": 27.1382800
},
{
  "type": "node",
  "id": 5483481825,
  "lat": 38.4183477,
  "lon": 27.1368848
},
{
  "type": "node",
  "id": 5483481826,
  "lat": 38.4182011,
  "lon": 27.1379603
},
{
  "type": "node",
  "id": 2619815639,
  "lat": 38.4184168,
  "lon": 27.1398100
},
{
  "type": "node",
  "id": 2619815640,
  "lat": 38.4193570,
  "lon": 27.1399664
},
{
  "type": "node",
  "id": 2619815641,
  "lat": 38.4195322,
  "lon": 27.1398814
},
{
  "type": "node",
  "id": 2619815642,
  "lat": 38.4195358,
  "lon": 27.1384793
},
{
  "type": "node",
  "id": 2619815647,
  "lat": 38.4183734,
  "lon": 27.1393192
},
{
  "type": "node",
  "id": 5483481827,
  "lat": 38.4187835,
  "lon": 27.1398892
},
{
  "type": "node",
  "id": 5538672280,
  "lat": 38.4183342,
  "lon": 27.1385720
},
{
  "type": "node",
  "id": 433230280,
  "lat": 38.4545130,
  "lon": 27.0991248
},
{
  "type": "node",
  "id": 3811083064,
  "lat": 38.4549600,
  "lon": 27.0987624
},
{
  "type": "node",
  "id": 3811083062,
  "lat": 38.4547532,
  "lon": 27.0996293
},
{
  "type": "node",
  "id": 3811083063,
  "lat": 38.4552073,
  "lon": 27.0992692
},
{
  "type": "node",
  "id": 3968524675,
  "lat": 38.6129299,
  "lon": 27.4042272
},
{
  "type": "node",
  "id": 3968524676,
  "lat": 38.6127943,
  "lon": 27.4041501
},
{
  "type": "node",
  "id": 3968524677,
  "lat": 38.6126006,
  "lon": 27.4047079
},
{
  "type": "node",
  "id": 3968524678,
  "lat": 38.6127361,
  "lon": 27.4047851
}

  ]
}
