{
  "version": 0.6,
  "generator": "Overpass API 0.7.55.1011 6c2efc30",
  "osm3s": {
    "timestamp_osm_base": "2020-02-14T19:21:02Z",
    "copyright": "The data included in this document is from www.openstreetmap.org. The data is made available under ODbL."
  },
  "elements": [

{
  "type": "node",
  "id": 207174459,
  "lat": 49.8470610,
  "lon": 6.4351173,
  "tags": {
    "name": "Naturparkzentrum Teufelsschlucht",
    "tourism": "museum",
    "wheelchair": "yes"
  }
},
{
  "type": "node",
  "id": 262541079,
  "lat": 49.5259026,
  "lon": 6.3787726,
  "tags": {
    "name": "Mahlkopf",
    "site_type": "tumulus",
    "tourism": "museum"
  }
},
{
  "type": "node",
  "id": 279379082,
  "lat": 49.4607826,
  "lon": 6.0229017,
  "tags": {
    "addr:city": "Rumelange",
    "addr:country": "LU",
    "addr:housenumber": "3",
    "addr:postcode": "3714",
    "addr:street": "Carreau de la Mine Walert",
    "name": "Musée national des Mines",
    "ref:caclr": "242249",
    "tourism": "museum",
    "url": "http://www.mnm.lu/"
  }
},
{
  "type": "node",
  "id": 312608600,
  "lat": 49.8136153,
  "lon": 6.4218585,
  "tags": {
    "addr:city": "Echternach",
    "addr:country": "LU",
    "addr:housenumber": "11",
    "addr:postcode": "6486",
    "addr:street": "Parvis de la Basilique",
    "name": "Musée de l'Abbaye",
    "tourism": "museum",
    "wheelchair": "no"
  }
},
{
  "type": "node",
  "id": 370332317,
  "lat": 49.6450594,
  "lon": 5.9874248,
  "tags": {
    "addr:city": "Capellen",
    "addr:country": "LU",
    "addr:housenumber": "51",
    "addr:postcode": "8310",
    "addr:street": "Route d'Arlon",
    "name": "Musee de Police",
    "name:de": "Internationales Gendarmerie- und Polizeimuseum",
    "name:en": "International Gendarmerie and Police Museum",
    "name:fr": "Musée International d'Effets de Gendarmerie et Police",
    "opening_hours": "14:30-18:00",
    "tourism": "museum",
    "website": "http://www.gendarmerie.lu"
  }
},
{
  "type": "node",
  "id": 389437949,
  "lat": 49.4725505,
  "lon": 6.0792342,
  "tags": {
    "tourism": "museum"
  }
},
{
  "type": "node",
  "id": 393969161,
  "lat": 49.4923688,
  "lon": 5.9758920,
  "tags": {
    "fee": "no",
    "name": "Musée National de la Résistance",
    "opening_hours": "Tu-Su 14:00-18:00",
    "tourism": "museum",
    "wheelchair": "yes",
    "wikidata": "Q6978080"
  }
},
{
  "type": "node",
  "id": 457736462,
  "lat": 49.8486562,
  "lon": 6.1042639,
  "tags": {
    "name": "General Patton Memorial",
    "tourism": "museum"
  }
},
{
  "type": "node",
  "id": 528191804,
  "lat": 49.6100633,
  "lon": 6.1170155,
  "tags": {
    "tourism": "museum"
  }
},
{
  "type": "node",
  "id": 534654500,
  "lat": 49.6078998,
  "lon": 6.5509168,
  "tags": {
    "name": "Amüseum",
    "tourism": "museum",
    "wheelchair": "no"
  }
},
{
  "type": "node",
  "id": 869314749,
  "lat": 49.4708581,
  "lon": 6.3662837,
  "tags": {
    "name": "Europamuseum",
    "opening_hours": "Mo-Su 10:00-18:00",
    "tourism": "museum",
    "website": "http://www.visitschengen.lu/en/european-museum",
    "wheelchair": "yes",
    "wikidata": "Q13102046"
  }
},
{
  "type": "node",
  "id": 1573735855,
  "lat": 49.8681523,
  "lon": 6.1583854,
  "tags": {
    "addr:city": "Diekirch",
    "addr:country": "LU",
    "addr:housenumber": "20-22",
    "addr:postcode": "9280",
    "addr:street": "Rue de Stavelot",
    "name": "Musée National de l'Automobile",
    "operator": "asbl",
    "ref:caclr": "missing",
    "tourism": "museum"
  }
},
{
  "type": "node",
  "id": 1593209706,
  "lat": 49.4612910,
  "lon": 6.0213536,
  "tags": {
    "name": "Musée national des Mines",
    "tourism": "museum",
    "url": "http://www.mnm.lu/"
  }
},
{
  "type": "node",
  "id": 1607354926,
  "lat": 49.7267197,
  "lon": 5.8961745,
  "tags": {
    "name": "Déi al Millen",
    "tourism": "museum"
  }
},
{
  "type": "node",
  "id": 1690457957,
  "lat": 49.6054744,
  "lon": 6.1278134,
  "tags": {
    "name": "Galerie d’art contemporain ‘Am Tunnel’",
    "tourism": "museum"
  }
},
{
  "type": "node",
  "id": 1756168430,
  "lat": 49.6007868,
  "lon": 6.3858646,
  "tags": {
    "name": "Musee du Vin",
    "tourism": "museum"
  }
},
{
  "type": "node",
  "id": 1759662572,
  "lat": 49.5288093,
  "lon": 6.3542124,
  "tags": {
    "name": "A Possen",
    "tourism": "museum"
  }
},
{
  "type": "node",
  "id": 1786059523,
  "lat": 49.3328008,
  "lon": 6.1142622,
  "tags": {
    "name": "Musée",
    "tourism": "museum"
  }
},
{
  "type": "node",
  "id": 1826078624,
  "lat": 49.5011617,
  "lon": 6.2824438,
  "tags": {
    "name": "Musée de l'aviation",
    "tourism": "museum"
  }
},
{
  "type": "node",
  "id": 1941622445,
  "lat": 49.4734193,
  "lon": 6.0816211,
  "tags": {
    "name": "Pomhouse",
    "tourism": "museum"
  }
},
{
  "type": "node",
  "id": 2331847204,
  "lat": 49.6112793,
  "lon": 6.1303848,
  "tags": {
    "name": "Ratskeller",
    "tourism": "museum",
    "wheelchair": "yes"
  }
},
{
  "type": "node",
  "id": 2398196460,
  "lat": 49.4077776,
  "lon": 6.0626161,
  "tags": {
    "description": "casemate restaurée et visitable parfois",
    "tourism": "museum"
  }
},
{
  "type": "node",
  "id": 2398497847,
  "lat": 49.4249402,
  "lon": 6.2531821,
  "tags": {
    "description": "visitable en saison",
    "name": "Ouvrage Maginot du Galgenberg",
    "tourism": "museum"
  }
},
{
  "type": "node",
  "id": 2420573414,
  "lat": 49.5355363,
  "lon": 6.4322032,
  "tags": {
    "name": "Westwallmuseum Sinz",
    "tourism": "museum",
    "website": "http://www.westwallmuseen-saar-mosel.eu/index.php?option=com_content&view=article&id=62&Itemid=80"
  }
},
{
  "type": "node",
  "id": 2433718893,
  "lat": 49.4571600,
  "lon": 6.4327433,
  "tags": {
    "name": "Château de Malbrouck",
    "tourism": "museum",
    "website": "http://www.chateau-malbrouck.com",
    "wikipedia": "en:Burg Malbrouck"
  }
},
{
  "type": "node",
  "id": 2433745078,
  "lat": 49.4229137,
  "lon": 6.3855751,
  "tags": {
    "name": "Maison de la Nature",
    "tourism": "museum",
    "website": "http://www.maisondelanature.eu/de/"
  }
},
{
  "type": "node",
  "id": 3012367349,
  "lat": 49.6163950,
  "lon": 6.1392966,
  "tags": {
    "name": "Musée Dräi Eechelen",
    "name:zh": "三橡果博物馆",
    "tourism": "museum",
    "wheelchair": "yes",
    "wikidata": "Q15107302",
    "wikipedia": "lb:Musée Dräi Eechelen - forteresse, histoire, identités"
  }
},
{
  "type": "node",
  "id": 3169046558,
  "lat": 49.4697757,
  "lon": 6.2865596,
  "tags": {
    "name": "Musée des Illusions",
    "source": "bing, survey",
    "tourism": "museum"
  }
},
{
  "type": "node",
  "id": 3397343495,
  "lat": 49.6061196,
  "lon": 6.1392112,
  "tags": {
    "name": "Musée de la Police Grand-Ducale",
    "tourism": "museum"
  }
},
{
  "type": "node",
  "id": 4025715434,
  "lat": 49.7420393,
  "lon": 5.9223880,
  "tags": {
    "name": "Näerdener Gare: Musée chemins de fer régionaux",
    "tourism": "museum"
  }
},
{
  "type": "node",
  "id": 4352815729,
  "lat": 49.8038588,
  "lon": 6.4984206,
  "tags": {
    "name": "the Tudor Museum",
    "tourism": "museum",
    "wikidata": "Q7851303"
  }
},
{
  "type": "node",
  "id": 4369600577,
  "lat": 49.5236529,
  "lon": 6.1299258,
  "tags": {
    "name": "Musée Rural et Artisanal",
    "tourism": "museum"
  }
},
{
  "type": "node",
  "id": 4369605170,
  "lat": 49.5230818,
  "lon": 6.1275787,
  "tags": {
    "name": "Musée de Calèche",
    "tourism": "museum"
  }
},
{
  "type": "node",
  "id": 4447164406,
  "lat": 49.5197062,
  "lon": 6.4199506,
  "tags": {
    "name": "Saarländisches Brennereimuseum",
    "tourism": "museum",
    "website": "http://www.saarländisches-brennereimuseum.de/"
  }
},
{
  "type": "node",
  "id": 4569083395,
  "lat": 49.6993037,
  "lon": 6.5720220,
  "tags": {
    "name": "Westwallmuseum Konz",
    "tourism": "museum",
    "website": "http://www.westwallmuseum-konz.de/"
  }
},
{
  "type": "node",
  "id": 4750603426,
  "lat": 49.6097822,
  "lon": 6.1271673,
  "tags": {
    "addr:city": "Luxembourg",
    "addr:housenumber": "41",
    "addr:postcode": "2345",
    "addr:street": "Rue Notre-Dame",
    "contact:website": "http://www.casino-luxembourg.lu/",
    "fee": "no",
    "name": "Casino Luxembourg - Forum d'art contemporain",
    "tourism": "museum",
    "wikidata": "Q3019728"
  }
},
{
  "type": "node",
  "id": 5024972044,
  "lat": 49.6463644,
  "lon": 6.5938514,
  "tags": {
    "name": "Westwallmuseum Wiltingen",
    "opening_hours": "May-Sep: Su[1] 14:00-18:00",
    "operator": "Westwallmuseen-Saar-Mosel e. V.",
    "tourism": "museum",
    "website": "http://www.westwallmuseen-saar-mosel.eu/"
  }
},
{
  "type": "node",
  "id": 5030030344,
  "lat": 49.5290616,
  "lon": 5.7649584,
  "tags": {
    "contact:housenumber": "12",
    "contact:street": "Rue du Tivoli",
    "description": "Musée de la Sidérurgie, Arts, Histoire et Terroir",
    "name": "La Grange aux Arts",
    "opening_hours": "Jul 01-Sep 30 Mo-Su 10:00-12:00,14:00-19:00; Oct 01-Nov 30 Sa-Su 10:00-12:00,14:00-19:00; Dec 01-Jun 30 off",
    "phone": "+33 3 82 25 51 19",
    "tourism": "museum"
  }
},
{
  "type": "node",
  "id": 6145995207,
  "lat": 49.5574123,
  "lon": 5.8277815,
  "tags": {
    "addr:city": "Athus",
    "addr:housenumber": "11",
    "addr:postcode": "6791",
    "addr:street": "Rue du Terminal",
    "email": "contact@athus-acier.be",
    "name": "Athus et l'Acier",
    "tourism": "museum",
    "website": "http://athus-acier.be"
  }
},
{
  "type": "node",
  "id": 6146007086,
  "lat": 49.5576593,
  "lon": 5.8281211,
  "tags": {
    "addr:city": "Athus",
    "addr:housenumber": "8",
    "addr:postcode": "6791",
    "addr:street": "Rue Fernand André",
    "name": "L'Univers des Pompiers",
    "tourism": "museum",
    "website": "https://www.universdespompiers.be/"
  }
},
{
  "type": "node",
  "id": 6622536301,
  "lat": 49.8036764,
  "lon": 5.9958213,
  "tags": {
    "name": "replica Roman mozaic Vichten",
    "tourism": "museum"
  }
},
{
  "type": "node",
  "id": 6845177495,
  "lat": 49.5953936,
  "lon": 6.1208189,
  "tags": {
    "name": "Deportation Museum",
    "tourism": "museum"
  }
},
{
  "type": "node",
  "id": 6853833844,
  "lat": 49.8496287,
  "lon": 5.9000601,
  "tags": {
    "email": "thillenvogtei@gmail.com",
    "facebook": "https://www.facebook.com/thillenvogtei/",
    "name": "Thillenvogtei",
    "phone": "+352 691 11 90 90",
    "tourism": "museum",
    "website": "http://www.thillenvogtei.lu"
  }
},
{
  "type": "node",
  "id": 7203688295,
  "lat": 49.6072892,
  "lon": 6.1285348,
  "tags": {
    "addr:housenumber": "1",
    "addr:street": "Place de Metz",
    "description": "history of Luxemburg financial center and Spuerkee's history",
    "name": "Musee de la Banque",
    "opening_hours": "Mo-Fr 09:00-17:30",
    "phone": "+352 40 15 24 71",
    "tourism": "museum",
    "website": "http://www.bcee.lu/"
  }
},
{
  "type": "way",
  "id": 9042342,
  "nodes": [
    662559828,
    662559829,
    66550406,
    7096527205,
    66550408,
    634300970,
    634300958,
    634300939,
    66550399,
    7095302057,
    66550401,
    7095302062,
    7095302080,
    634300884,
    634300912,
    634300875,
    634300836,
    634300847,
    634300923,
    634300901,
    634300861,
    634300890,
    634300869,
    1748816936,
    66550403,
    66550404,
    662559828
  ],
  "tags": {
    "addr:city": "Luxembourg",
    "addr:country": "LU",
    "addr:housenumber": "3",
    "addr:postcode": "1499",
    "addr:street": "Park Dräi Eechelen",
    "building": "yes",
    "diet:vegan": "yes",
    "diet:vegetarian": "yes",
    "email": "info@mudam.lu",
    "height": "20",
    "layer": "1",
    "name": "MUDAM",
    "name:zh": "大公现代艺术博物馆",
    "official_name": "Musée d'Art Moderne Grand-Duc Jean",
    "opening_hours": "Sa-Mo 11:00-18:00, We-Fr 11:00-20:00",
    "phone": "+3524537851",
    "tourism": "museum",
    "website": "https://www.mudam.lu/",
    "wheelchair": "yes",
    "wikidata": "Q1955758"
  }
},
{
  "type": "way",
  "id": 26613328,
  "nodes": [
    291892903,
    291892904,
    291892905,
    291892906,
    291892903
  ],
  "tags": {
    "building": "yes",
    "name": "Hall Paul Wurth",
    "name:de": "Paul-Wurth-Halle",
    "name:fr": "Hall Paul Wurth",
    "opening_hours": "Su 14:00-18:00",
    "source": "Bing",
    "tourism": "museum",
    "website": "http://www.fond-de-gras.lu/",
    "wikipedia": "lb:Hollerecher Elektrozentral"
  }
},
{
  "type": "way",
  "id": 32548302,
  "nodes": [
    366042425,
    366042428,
    366042430,
    366042432,
    366042434,
    1334518880,
    1334518864,
    366042439,
    366042440,
    366042441,
    366042425
  ],
  "tags": {
    "addr:city": "Diekirch",
    "addr:housenumber": "10",
    "addr:postcode": "9209",
    "addr:street": "Bamertal",
    "building": "yes",
    "email": "info@mnhm.lu",
    "name": "Musée militaire de Diekirch",
    "name:es": "Museo Militar Histórico",
    "opening_hours": "Tu-Su 10:00-18:00",
    "phone": "+352808908",
    "ref:caclr": "131195",
    "source": "Bing",
    "tourism": "museum",
    "website": "http://www.mnhm.lu",
    "wikidata": "Q478061"
  }
},
{
  "type": "way",
  "id": 32612267,
  "nodes": [
    366726481,
    366726482,
    366726483,
    366726484,
    366726486,
    366726487,
    366726488,
    366726489,
    366726481
  ],
  "tags": {
    "building": "yes",
    "name": "Epicerie Binck",
    "name:de": "Krämerladen Binck",
    "name:fr": "Epicerie Binck",
    "source": "Bing",
    "tourism": "museum",
    "website": "http://www.fond-de-gras.lu/",
    "wikipedia": "lb:Epicerie Binck am Fond-de-Gras"
  }
},
{
  "type": "way",
  "id": 32612544,
  "nodes": [
    366728922,
    366728923,
    366728924,
    366728925,
    366728922
  ],
  "tags": {
    "building": "yes",
    "man_made": "works",
    "tourism": "museum"
  }
},
{
  "type": "way",
  "id": 33767420,
  "nodes": [
    1748751882,
    386509788,
    899689860,
    899690065,
    386509789,
    1108878265,
    1108878092,
    386509784,
    370137618,
    386509785,
    4924103102,
    4924103097,
    4924103101,
    4924103098,
    4924103099,
    4924103100,
    4924103096,
    4924103103,
    3384072891,
    1108878162,
    4924103026,
    1748751882
  ],
  "tags": {
    "addr:city": "Luxembourg",
    "addr:country": "LU",
    "addr:housenumber": "25",
    "addr:postcode": "2160",
    "addr:street": "Rue Munster",
    "building": "yes",
    "name": "Musée national d'histoire naturelle",
    "name:lb": "Naturmusée",
    "opening_hours": "We-Su 10:00-18:00; Tu 10:00-20:00",
    "tourism": "museum",
    "wheelchair": "yes",
    "wikidata": "Q6974489"
  }
},
{
  "type": "way",
  "id": 48994765,
  "nodes": [
    621843950,
    5129595011,
    5129595010,
    621843953,
    621843955,
    621843957,
    621843960,
    621843962,
    621843964,
    1824880597,
    621843967,
    683833128,
    683833129,
    1325568958,
    1587861109,
    1587861107,
    621843969,
    683833126,
    683833122,
    683833124,
    683833125,
    621843950
  ],
  "tags": {
    "addr:city": "Luxembourg",
    "addr:country": "LU",
    "addr:housename": "Refuge d'Orval",
    "addr:housenumber": "14",
    "addr:postcode": "2090",
    "addr:street": "Rue du Saint-Esprit",
    "building": "yes",
    "name": "Musée d'Histoire de la Ville de Luxembourg",
    "name:lb": "Staatermusée",
    "tourism": "museum",
    "wheelchair": "yes",
    "wikidata": "Q2555232"
  }
},
{
  "type": "way",
  "id": 48994767,
  "nodes": [
    621843989,
    5319044118,
    621843995,
    1587861566,
    1587861563,
    621844004,
    621844013,
    1825161386,
    621844023,
    621844041,
    5129392114,
    1108860047,
    1108860029,
    621844049,
    621843989
  ],
  "tags": {
    "addr:city": "Luxembourg",
    "addr:country": "LU",
    "addr:housenumber": "1",
    "addr:postcode": "2345",
    "addr:street": "Marché-aux-Poissons",
    "building": "yes",
    "fee": "no",
    "museum": "history",
    "name": "Musée national d'histore et d'art Luxembourg",
    "name:de": "Luxemburgisches Museum für Geschichte und Kunst",
    "name:en": "National Museum of History and Art",
    "name:fr": "Musée d'Histore et d'Art de Luxembourg",
    "name:lb": "Geschichtsmusée",
    "name:zh": "卢森堡国家历史艺术博物馆",
    "ref:caclr": "228090",
    "toilets:wheelchair": "yes",
    "tourism": "museum",
    "website": "https://www.mnha.lu/",
    "wheelchair": "yes",
    "wikidata": "Q2585886",
    "wikipedia": "en:National Museum of History and Art"
  }
},
{
  "type": "way",
  "id": 53087984,
  "nodes": [
    672150668,
    672150673,
    5531468774,
    726195150,
    720599029,
    672150671,
    726195178,
    726195124,
    5531468775,
    672150662,
    4998091011,
    4998091008,
    4998091009,
    4998091010,
    672150668
  ],
  "tags": {
    "addr:city": "Luxembourg",
    "addr:country": "LU",
    "addr:housenumber": "18",
    "addr:postcode": "2090",
    "addr:street": "Avenue Émile Reuter",
    "building": "yes",
    "name": "Villa Vauban",
    "opening_hours": "We-Mo 10:00-18:00, Fr 10:00-21:00",
    "tourism": "museum",
    "website": "https://villavauban.lu/",
    "wheelchair": "yes",
    "wikidata": "Q2223322"
  }
},
{
  "type": "way",
  "id": 55432249,
  "nodes": [
    696604927,
    696604926,
    7054154604,
    696604928,
    696604949,
    696604959,
    696604958,
    7023276521,
    696604947,
    696604948,
    4757303099,
    1582486675,
    696604963,
    696604940,
    696604927
  ],
  "tags": {
    "addr:city": "Luxembourg",
    "addr:country": "LU",
    "addr:housenumber": "63",
    "addr:postcode": "1248",
    "addr:street": "Rue de Bouillon",
    "building": "yes",
    "name": "Musée des Tramways et de Bus",
    "opening_hours": "Th,Sa,Su 13:30-17:30",
    "tourism": "museum",
    "wikidata": "Q4306482",
    "wikipedia": "fr:Musée des tramways et de bus de la ville de Luxembourg"
  }
},
{
  "type": "way",
  "id": 58734376,
  "nodes": [
    727781651,
    1304648223,
    1304648217,
    2081235306,
    727781640,
    727781554,
    727781623,
    2081235294,
    2081235290,
    727781583,
    2489112639,
    2489112633,
    727781649,
    2081235276,
    727781563,
    1304648211,
    727781572,
    1304648281,
    1304648249,
    727781651
  ],
  "tags": {
    "area": "yes",
    "name": "Volkskunde u. Freilichtmuseum Roscheider Hof",
    "opening_hours": "Tu-Fr 09:00-18:00; Sa,Su,PH 10:00-18:00; Nov-Mar Tu-Fr 09:00-17:00; Sa,Su,PH 10:00-17:00",
    "tourism": "museum",
    "website": "http://www.roscheiderhof.de",
    "wheelchair": "limited",
    "wikidata": "Q315313",
    "wikipedia": "de:Roscheider Hof"
  }
},
{
  "type": "way",
  "id": 81536134,
  "nodes": [
    950453062,
    950453064,
    950453067,
    950453070,
    950453072,
    950453078,
    950453080,
    950453082,
    950453084,
    950453085,
    950453087,
    950453089,
    950453090,
    950453093,
    950453094,
    950453095,
    950453096,
    950453098,
    950453099,
    950453101,
    950453108,
    950453109,
    950453111,
    950453112,
    950453113,
    950453114,
    950453115,
    950453117,
    950453123,
    950453126,
    950453129,
    950453131,
    950453133,
    950453135,
    950453136,
    950453143,
    950453062
  ],
  "tags": {
    "building": "yes",
    "name": "Musée des émaux et faïences",
    "source": "extraction vectorielle v1 cadastre-dgi-fr source : Direction Générale des Impôts - Cadas. Mise à jour : 2010",
    "tourism": "museum"
  }
},
{
  "type": "way",
  "id": 88991948,
  "nodes": [
    1031466992,
    1031350708,
    1031540128,
    1031353584,
    1031518024,
    1031539445,
    1031623991,
    1031718542,
    1031940720,
    1031498873,
    1031761912,
    1031318157,
    1031483922,
    1031472858,
    1031466992
  ],
  "tags": {
    "building": "public",
    "heritage": "3",
    "heritage:operator": "mhs",
    "historic": "castle",
    "mhs:inscription_date": "1932",
    "name": "Tour aux Puces",
    "name:de": "Flohturm",
    "name:fr": "Tour aux Puces",
    "ref:mhs": "PA00107018",
    "source": "extraction vectorielle v1 cadastre-dgi-fr source : Direction Générale des Impôts - Cadas. Mise à jour : 2010",
    "tourism": "museum",
    "wikidata": "Q22959920",
    "wikipedia": "fr:Musée de la Tour aux Puces"
  }
},
{
  "type": "way",
  "id": 92084676,
  "nodes": [
    1069447392,
    1069447424,
    1069447443,
    1069447350,
    1069447388,
    1069447432,
    1069447367,
    1069447410,
    1069447343,
    1069447379,
    1069447347,
    1069447338,
    1069447405,
    1069447360,
    6800359529,
    1069447427,
    1069447383,
    1069447422,
    1069447392
  ],
  "tags": {
    "addr:city": "Perl",
    "addr:country": "DE",
    "addr:housenumber": "1",
    "addr:postcode": "66706",
    "addr:street": "Im Meeswald",
    "building": "yes",
    "email": "info@villa-borg.de",
    "name": "Römische Villa Borg",
    "opening_hours": "Apr-Oct: Th-Su 11:00-18:00; Feb-Mar: Th-Su 11:00-16:00; Nov-Dec: Th-Su 11:00-16:00; Dec 24 off; Dec 25 off; Dec 26 off;Jan off",
    "phone": "+49 6865 91170",
    "tourism": "museum",
    "wheelchair": "limited",
    "wikidata": "Q2202540"
  }
},
{
  "type": "way",
  "id": 94601271,
  "nodes": [
    1098658817,
    1098658813,
    1098658805,
    1098658829,
    2525491829,
    1098658817
  ],
  "tags": {
    "addr:city": "Echternach",
    "addr:country": "LU",
    "addr:housenumber": "4A",
    "addr:postcode": "6471",
    "addr:street": "Rue du Pont",
    "building": "public",
    "name": "Musée de la Préhistoire Hihof",
    "phone": "+352720296",
    "tourism": "museum",
    "wikidata": "Q7239963"
  }
},
{
  "type": "way",
  "id": 111268652,
  "nodes": [
    1268156520,
    1268156493,
    1268156541,
    1268156496,
    1268156525,
    1268156485,
    6123811352,
    1268156534,
    1268156488,
    6123811515,
    6123811514,
    1268156514,
    1268156554,
    6436415222,
    1268156490,
    1268156531,
    7047461373,
    1268156520
  ],
  "tags": {
    "abandoned:school": "yes",
    "addr:city": "Differdange",
    "addr:country": "LU",
    "addr:housenumber": "50",
    "addr:postcode": "4620",
    "addr:street": "Rue Émile Mark",
    "building": "yes",
    "contact:facebook": "https://www.facebook.com/LuScienceCenter/",
    "email": "info@science-center.lu",
    "loc_name": "Léierbud",
    "museum": "science",
    "name": "Luxembourg Science Center",
    "old_name": "Centre de formation professionnelle ArcelorMittal",
    "old_operator": "ArcelorMittal",
    "opening_hours": "Mo-Fr 09:00-17:00; Sa-Su 10:00-18:00",
    "phone": "+352 288 399-1",
    "ref:caclr": "49910",
    "start_date": "1980",
    "tourism": "museum",
    "website": "https://www.science-center.lu/"
  }
},
{
  "type": "way",
  "id": 118188375,
  "nodes": [
    1329731806,
    1329731814,
    1329731808,
    1329731802,
    1329731815,
    1329731811,
    1329731803,
    1329731798,
    1329731806
  ],
  "tags": {
    "addr:city": "Dudelange",
    "addr:country": "LU",
    "addr:housenumber": "25",
    "addr:postcode": "3505",
    "addr:street": "Rue Dominique Lang",
    "building": "yes",
    "name": "Centre d'Art Nei Liicht",
    "opening_hours": "Tu-Su 15:00-19:00",
    "tourism": "museum"
  }
},
{
  "type": "way",
  "id": 118608195,
  "nodes": [
    1333689517,
    1333689521,
    1333689522,
    1333689523,
    1333689517
  ],
  "tags": {
    "amenity": "shelter",
    "building": "yes",
    "name": "Maison néolithique",
    "tourism": "museum"
  }
},
{
  "type": "way",
  "id": 132844742,
  "nodes": [
    1461523292,
    1461523254,
    1461523418,
    1461523471,
    1461523431,
    1461523446,
    1461523366,
    1461523364,
    1461523292
  ],
  "tags": {
    "addr:city": "Rettel",
    "addr:housenumber": "3",
    "addr:postcode": "57480",
    "addr:street": "Rue du Puits",
    "building": "yes",
    "name": "Musée lorrain des cheminots Rettel",
    "opening_hours": "1er mai - 30 septembre 15.00 - 17.30",
    "source": "cadastre-dgi-fr source : Direction Générale des Impôts - Cadastre. Mise à jour : 2011",
    "tourism": "museum",
    "website": "http://www.museelorraindescheminots.fr/",
    "wikidata": "Q28952390"
  }
},
{
  "type": "way",
  "id": 150476109,
  "nodes": [
    1633835246,
    1633835261,
    1633835224,
    1633835238,
    1633835226,
    1633835266,
    1633835218,
    1633835250,
    1633835246
  ],
  "tags": {
    "building": "yes",
    "name": "Grouwen a Feldbunn",
    "tourism": "museum",
    "website": "http://www.rail.lu/feldbunnbanz.html"
  }
},
{
  "type": "way",
  "id": 164340780,
  "nodes": [
    1759818685,
    1759818734,
    1759818741,
    1759818689,
    1759818685
  ],
  "tags": {
    "building": "yes",
    "name": "Fondation de l'Architecture et de l'ingénierie Luxembourg",
    "source": "bing",
    "tourism": "museum"
  }
},
{
  "type": "way",
  "id": 165334066,
  "nodes": [
    1768857444,
    1768857410,
    1768857442,
    1768857452,
    1768857444
  ],
  "tags": {
    "building": "roof",
    "tourism": "museum"
  }
},
{
  "type": "way",
  "id": 166888230,
  "nodes": [
    1783065100,
    1783065071,
    1783065082,
    1783065097,
    1783065111,
    1783065100
  ],
  "tags": {
    "building": "yes",
    "name": "Musée 385th bomb group",
    "tourism": "museum",
    "url": "http://www.385bg.com/"
  }
},
{
  "type": "way",
  "id": 168934435,
  "nodes": [
    1801157154,
    1801157162,
    6800359538,
    1801157143,
    1801157136,
    6800359537,
    1801157154
  ],
  "tags": {
    "building": "yes",
    "toilets:wheelchair": "yes",
    "tourism": "museum",
    "wheelchair": "yes"
  }
},
{
  "type": "way",
  "id": 169347728,
  "nodes": [
    1805174971,
    1805174965,
    1805174968,
    1805174970,
    1805174971
  ],
  "tags": {
    "addr:city": "Perl",
    "addr:country": "DE",
    "addr:housenumber": "11",
    "addr:postcode": "66706",
    "addr:street": "Römerstraße",
    "building": "yes",
    "name": "Römisches Mosaik",
    "tourism": "museum"
  }
},
{
  "type": "way",
  "id": 183837718,
  "nodes": [
    1942560662,
    1942560668,
    1942560650,
    1942560655,
    1942560653,
    1942560657,
    1942560664,
    1942560660,
    1942560658,
    1942560651,
    1942560656,
    1942560652,
    1942560666,
    1942560661,
    1942560659,
    1942560663,
    1942560665,
    1942560654,
    1942560667,
    1942560662
  ],
  "tags": {
    "building": "yes",
    "name": "Waassertuerm",
    "tourism": "museum"
  }
},
{
  "type": "way",
  "id": 224240498,
  "nodes": [
    3040896533,
    2330601274,
    2330601280,
    2330601296,
    2330601307,
    2330601324,
    2330601305,
    2330601282,
    3040896533
  ],
  "tags": {
    "building": "yes",
    "name": "Musée Campagnard",
    "source": "cadastre-dgi-fr source : Direction Générale des Finances Publiques - Cadastre. Mise à jour : 2013",
    "tourism": "museum"
  }
},
{
  "type": "way",
  "id": 230860355,
  "nodes": [
    2392954635,
    2392954628,
    2392954626,
    2392954629,
    2392954605,
    2392954632,
    2392954616,
    2392954606,
    2392954617,
    2392954620,
    2392954624,
    3660112617,
    3660112618,
    2392954608,
    2392954611,
    2392954615,
    2392954612,
    2392954607,
    2392954609,
    2392954618,
    2392954637,
    2392954613,
    2392954633,
    2392954627,
    2392954636,
    2392954635
  ],
  "tags": {
    "building": "bunker",
    "bunker_type": "bloc d'ouvrage",
    "historic": "yes",
    "military": "bunker",
    "name": "Ouvrage du Bois-du-Four",
    "tourism": "museum",
    "wikidata": "Q3358766",
    "wikipedia": "fr:Ouvrage du Bois-du-Four"
  }
},
{
  "type": "way",
  "id": 233951104,
  "nodes": [
    2422620830,
    2422620832,
    2422620836,
    2422620829,
    2422620837,
    2422620838,
    2422620831,
    2422620835,
    2422620839,
    2422620833,
    2422620834,
    2422620830
  ],
  "tags": {
    "building": "yes",
    "bunker_type": "pillbox",
    "description": "Abri arrière de la ligne Maginot",
    "military": "bunker",
    "name": "Abri du Zeiterholz",
    "tourism": "museum",
    "wikidata": "Q2821917",
    "wikipedia": "fr:Abri du Zeiterholz"
  }
},
{
  "type": "way",
  "id": 245244715,
  "nodes": [
    2524738391,
    2524738392,
    4692766775,
    4692766776,
    4692766777,
    2524738393,
    4692766778,
    2524738395,
    2524738396,
    2524738397,
    2524738398,
    4692766774,
    4692766773,
    2524738391
  ],
  "tags": {
    "building": "yes",
    "name": "Mühlenmuseum Hackenberger Mühle",
    "opening_hours": "Mo-Sa 09:30-18:30; Su,PH 11:00-18:00",
    "tourism": "museum"
  }
},
{
  "type": "way",
  "id": 248051338,
  "nodes": [
    2548943503,
    2548943510,
    2548943496,
    2548943492,
    2548943503
  ],
  "tags": {
    "addr:city": "Nospelt",
    "addr:country": "LU",
    "addr:housenumber": "2",
    "addr:postcode": "8392",
    "addr:street": "Rue d'Olm",
    "building": "yes",
    "name": "Ausgriewermusee",
    "operator": "D'Georges Kayser Altertumsfuerscher",
    "tourism": "museum",
    "website": "https://gka.lu/"
  }
},
{
  "type": "way",
  "id": 274800002,
  "nodes": [
    2794674891,
    2794674893,
    2794674889,
    5663651874,
    5663651873,
    5663651870,
    5663651869,
    5663651868,
    5663651867,
    2794674894,
    5663651872,
    5663651871,
    2794674891
  ],
  "tags": {
    "name": "Musée de la Mine",
    "tourism": "museum"
  }
},
{
  "type": "way",
  "id": 279492897,
  "nodes": [
    2837190168,
    3709143300,
    3709143299,
    2837190169,
    2837190170,
    2837190171,
    2837190172,
    2837190173,
    2837190168
  ],
  "tags": {
    "building": "yes",
    "email": "info@fond-de-gras.lu",
    "name": "Espace Muséologique",
    "opening_hours": "May-Sep Su 14:00-18:00",
    "phone": "+352 26 50 41 24",
    "tourism": "museum",
    "website": "http://www.fond-de-gras.lu",
    "wheelchair": "yes"
  }
},
{
  "type": "way",
  "id": 279492901,
  "nodes": [
    2837190180,
    3708752135,
    3708752136,
    2837190181,
    2837190182,
    2837190183,
    2837911820,
    2837190180
  ],
  "tags": {
    "addr:city": "Lasauvage",
    "addr:housename": "Maison Depienne",
    "addr:housenumber": "88",
    "addr:postcode": "4698",
    "addr:street": "Rue Principale",
    "building": "yes",
    "email": "info@fond-de-gras.lu",
    "fax": "+352 26 50 41 41",
    "name": "Musée Eugène Pesch",
    "opening_hours": "May-Sep Su 14:00-18:00",
    "phone": "+352 26 50 41 24",
    "ref:caclr": "53325",
    "tourism": "museum",
    "website": "http://www.fond-de-gras.lu",
    "wikipedia": "lb:Musée Eugène-Pesch"
  }
},
{
  "type": "way",
  "id": 283933312,
  "nodes": [
    2877403833,
    2877403834,
    2877403835,
    2877403836,
    2877403833
  ],
  "tags": {
    "building": "roof",
    "tourism": "museum"
  }
},
{
  "type": "way",
  "id": 294499931,
  "nodes": [
    2980974323,
    2980974324,
    2980974325,
    2980974326,
    2980974323
  ],
  "tags": {
    "alt_name": "Mine Grôven",
    "building": "yes",
    "ele": "343",
    "name": "Mine Grouwen",
    "operator": "Commune de Differdange",
    "tourism": "museum",
    "website": "https://www.differdange.lu/"
  }
},
{
  "type": "way",
  "id": 294923659,
  "nodes": [
    2985675850,
    2985675851,
    844082917,
    4578966799,
    4578966802,
    4578966798,
    4578966795,
    2985675856,
    4578966804,
    4577665850,
    2985675858,
    2985675857,
    2985675855,
    2985675854,
    2985675853,
    4578966803,
    2985675852,
    2985675850
  ],
  "tags": {
    "building": "yes",
    "name": "Musée Archéologique",
    "name:de": "Archäologisches Museum",
    "tourism": "museum",
    "wikidata": "Q3329423",
    "wikipedia": "fr:Musée archéologique d'Arlon"
  }
},
{
  "type": "way",
  "id": 294923660,
  "nodes": [
    2985675848,
    2985675849,
    1329391387,
    4578966776,
    4578966777,
    4578966780,
    4578966778,
    4578966779,
    4578966781,
    2985675847,
    2985675848
  ],
  "tags": {
    "addr:city": "Arlon",
    "addr:housenumber": "16",
    "addr:postcode": "6700",
    "addr:street": "Rue des Martyrs",
    "building": "yes",
    "name": "Musée Gaspar",
    "operator": "Ville d'Arlon",
    "tourism": "museum",
    "wikidata": "Q3329169",
    "wikipedia": "fr:Musée Gaspar"
  }
},
{
  "type": "way",
  "id": 302309856,
  "nodes": [
    3065706662,
    3065706663,
    3065706664,
    4791588237,
    3065706666,
    3065706667,
    3065706662
  ],
  "tags": {
    "building": "yes",
    "name": "Kulturhuef",
    "toilets:wheelchair": "yes",
    "tourism": "museum",
    "website": "https://www.kulturhuef.lu/de/",
    "wheelchair": "yes"
  }
},
{
  "type": "way",
  "id": 312899656,
  "nodes": [
    3188204382,
    3188204390,
    3188204391,
    3188204395,
    3188204392,
    3188204378,
    3188204382
  ],
  "tags": {
    "addr:city": "Reimberg",
    "addr:country": "LU",
    "addr:housenumber": "9",
    "addr:postcode": "8614",
    "addr:street": "Rue Docteur Lucius",
    "building": "yes",
    "name": "Musée Michel Lucius",
    "tourism": "museum",
    "website": "http://www.museemichellucius.lu/index.html"
  }
},
{
  "type": "way",
  "id": 332004205,
  "nodes": [
    3391061940,
    3391061939,
    3391061941,
    3391061942,
    3391061940
  ],
  "tags": {
    "addr:city": "Arlon",
    "addr:country": "BE",
    "addr:housenumber": "26",
    "addr:postcode": "6700",
    "addr:street": "Am-Eck",
    "addr:suburb": "Autelbas",
    "building": "yes",
    "contact:website": "http://www.autelbas.net/",
    "name": "Musée",
    "tourism": "museum"
  }
},
{
  "type": "way",
  "id": 332209951,
  "nodes": [
    3393211187,
    3393211185,
    3393211186,
    3393211188,
    3393211187
  ],
  "tags": {
    "addr:city": "Arlon",
    "addr:housenumber": "44",
    "addr:postcode": "6706",
    "addr:street": "Rue de Stehnen",
    "addr:suburb": "Weyler",
    "building": "yes",
    "name": "Musée du Cycle",
    "tourism": "museum"
  }
},
{
  "type": "way",
  "id": 407224760,
  "nodes": [
    736465917,
    4092493456,
    736465935,
    2864742869,
    4094380422,
    736465948,
    2864742889,
    4095144107,
    4092708291,
    4092708299,
    4092708323,
    4092708322,
    4092708289,
    2670621919,
    4092707477,
    4092707429,
    736466087,
    736466069,
    4092493457,
    4092493462,
    736465917
  ],
  "tags": {
    "fee": "no",
    "historic": "archaeological_site",
    "historic:civilization": "ancient_roman",
    "landuse": "recreation_ground",
    "name": "Villa Romaine",
    "opening_hours": "Apr-Oct Tu-Su 10:00-12:00, 13:00-17:00",
    "phone": "+3524793301",
    "site_type": "settlement",
    "tourism": "museum",
    "website": "https://www.mnha.lu/",
    "wheelchair": "limited"
  }
},
{
  "type": "way",
  "id": 416435130,
  "nodes": [
    4171767670,
    4171767671,
    4171767672,
    4171767673,
    4171767674,
    4171767675,
    4171767676,
    4171767670
  ],
  "tags": {
    "building": "yes",
    "name": "Musée de la Poterie",
    "operator": "Syndicat d'Initiative Nouspelt",
    "tourism": "museum"
  }
},
{
  "type": "way",
  "id": 429894268,
  "nodes": [
    4290946885,
    4290946887,
    4290948790,
    4290946884,
    4290948789,
    4290946885
  ],
  "tags": {
    "alt_name": "Musée des mines de fer de Lorraine",
    "name": "Musée des Mines de Fer d'Aumetz",
    "opening_hours": "01may-30sep;1400/1800",
    "phone": "+33 3 82 85 76 55",
    "ref:FR:museofile": "M0530",
    "source": "Ministère de la Culture - Muséofile - 09/2019",
    "tourism": "museum",
    "url": "http://www.musee-minesdefer-lorraine.com/mine-aumetz",
    "website": "http://www.musee-minesdefer-lorraine.com",
    "wikidata": "Q3578606"
  }
},
{
  "type": "way",
  "id": 451544750,
  "nodes": [
    3386125621,
    3386125622,
    3386125629,
    4483645419,
    3386125621
  ],
  "tags": {
    "addr:city": "Oberbillig",
    "addr:country": "DE",
    "addr:housenumber": "16 A",
    "addr:postcode": "54331",
    "addr:street": "Brückenstraße",
    "building": "yes",
    "name": "Pieterhaus",
    "name:de": "Pieterhaus",
    "name:en": "Pieterhaus",
    "opening_hours": "\"Nach Vereinbarung\"",
    "tourism": "museum"
  }
},
{
  "type": "way",
  "id": 638481429,
  "nodes": [
    2858597805,
    7080376110,
    7080376109,
    2858597807,
    1778006351,
    1778006352,
    1778006354,
    1778006358,
    1778006366,
    268312466,
    1778006362,
    1778006363,
    1778006364,
    1778006365,
    1778006374,
    1914579668,
    1778006376,
    1914579683,
    1778006381,
    1778006380,
    1914579680,
    1778006378,
    1778006377,
    1778006375,
    1778006369,
    1914579664,
    1778006361,
    1778006359,
    1778006356,
    4869926266,
    2421130036,
    1914579638,
    2866096154,
    2866096155,
    4869926265,
    1778006353,
    1914579555,
    6453127750,
    1914579561,
    1914579583,
    1914579579,
    6453127756,
    6453127751,
    1914579547,
    1914579487,
    6017445039,
    1914579473,
    3627155637,
    6017445026,
    877652544,
    6017445027,
    877652516,
    2858594500,
    2858769364,
    4434189733,
    6017445013,
    2858597805
  ],
  "tags": {
    "contact:facebook": "https://www.facebook.com/pages/Parc-Industriel-et-Ferroviaire-du-Fond-de-Gras/348811061824127",
    "email": "info@fond-de-gras.lu",
    "fax": "+352 26 50 41 41",
    "historic": "technical_monument",
    "landuse": "railway",
    "name": "Parc Industriel et Ferroviaire du Fond-de-Gras",
    "name:de": "Industrie- und Eisenbahnpark Fond-de-Gras",
    "name:lb": "Industrie- an Eisebunnspark Fond-de-Gras",
    "phone": "+352 26 50 41 24",
    "tourism": "museum",
    "website": "http://www.fond-de-gras.lu/",
    "wikidata": "Q2627532",
    "wikipedia": "lb:Industrie- an Eisebunnspark Fond-de-Gras"
  }
},
{
  "type": "way",
  "id": 743473900,
  "nodes": [
    1822538239,
    1822538194,
    1822538190,
    1822538142,
    1822538135,
    1822538132,
    1822538104,
    1822538095,
    1822538092,
    1822538090,
    1822538089,
    1822538069,
    1822538077,
    1822538080,
    1822538087,
    1822538091,
    1822538093,
    1822538085,
    1822538088,
    1822538128,
    1822538137,
    1822538152,
    1822538156,
    1822538164,
    1822538184,
    1822538188,
    1822538192,
    1822538193,
    1822538198,
    1822538196,
    1822538214,
    1822538200,
    1822538186,
    1822538182,
    1822538202,
    1822538210,
    1822538219,
    1822538235,
    1822538237,
    1822538241,
    1822538239
  ],
  "tags": {
    "alt_name": "Musée des mines de fer de Lorraine",
    "name": "Musée des Mines de Fer de Neufchef Amomferlor",
    "phone": "+33 3 82 85 76 55",
    "ref:FR:museofile": "M0530",
    "source": "Ministère de la Culture - Muséofile - 09/2019",
    "tourism": "museum",
    "website": "http://www.musee-minesdefer-lorraine.com",
    "wikidata": "Q3578606"
  }
},
{
  "type": "relation",
  "id": 9525226,
  "members": [
    {
      "type": "way",
      "ref": 115535188,
      "role": "outer"
    },
    {
      "type": "way",
      "ref": 233087058,
      "role": "outer"
    }
  ],
  "tags": {
    "building": "yes",
    "name": "Alte Glockengießerei",
    "tourism": "museum",
    "type": "multipolygon"
  }
},
{
  "type": "node",
  "id": 2330601274,
  "lat": 49.4061850,
  "lon": 5.8473460
},
{
  "type": "node",
  "id": 2330601280,
  "lat": 49.4062210,
  "lon": 5.8474010
},
{
  "type": "node",
  "id": 2330601282,
  "lat": 49.4062270,
  "lon": 5.8470740
},
{
  "type": "node",
  "id": 2330601296,
  "lat": 49.4062720,
  "lon": 5.8473230
},
{
  "type": "node",
  "id": 2330601305,
  "lat": 49.4063300,
  "lon": 5.8472350
},
{
  "type": "node",
  "id": 2330601307,
  "lat": 49.4063410,
  "lon": 5.8474300
},
{
  "type": "node",
  "id": 2330601324,
  "lat": 49.4063990,
  "lon": 5.8473420
},
{
  "type": "node",
  "id": 3040896533,
  "lat": 49.4061150,
  "lon": 5.8472374
},
{
  "type": "node",
  "id": 2392954605,
  "lat": 49.4578512,
  "lon": 5.8435137
},
{
  "type": "node",
  "id": 2392954606,
  "lat": 49.4578562,
  "lon": 5.8437607
},
{
  "type": "node",
  "id": 2392954607,
  "lat": 49.4576394,
  "lon": 5.8440478
},
{
  "type": "node",
  "id": 2392954608,
  "lat": 49.4577965,
  "lon": 5.8439251
},
{
  "type": "node",
  "id": 2392954609,
  "lat": 49.4576293,
  "lon": 5.8440224
},
{
  "type": "node",
  "id": 2392954611,
  "lat": 49.4577651,
  "lon": 5.8439219
},
{
  "type": "node",
  "id": 2392954612,
  "lat": 49.4576623,
  "lon": 5.8440615
},
{
  "type": "node",
  "id": 2392954613,
  "lat": 49.4575860,
  "lon": 5.8438199
},
{
  "type": "node",
  "id": 2392954615,
  "lat": 49.4576911,
  "lon": 5.8440450
},
{
  "type": "node",
  "id": 2392954616,
  "lat": 49.4578405,
  "lon": 5.8437205
},
{
  "type": "node",
  "id": 2392954617,
  "lat": 49.4578562,
  "lon": 5.8438091
},
{
  "type": "node",
  "id": 2392954618,
  "lat": 49.4576420,
  "lon": 5.8439725
},
{
  "type": "node",
  "id": 2392954620,
  "lat": 49.4579086,
  "lon": 5.8438316
},
{
  "type": "node",
  "id": 2392954624,
  "lat": 49.4579012,
  "lon": 5.8439009
},
{
  "type": "node",
  "id": 2392954626,
  "lat": 49.4578022,
  "lon": 5.8434775
},
{
  "type": "node",
  "id": 2392954627,
  "lat": 49.4576436,
  "lon": 5.8436899
},
{
  "type": "node",
  "id": 2392954628,
  "lat": 49.4577865,
  "lon": 5.8435195
},
{
  "type": "node",
  "id": 2392954629,
  "lat": 49.4578301,
  "lon": 5.8434820
},
{
  "type": "node",
  "id": 2392954632,
  "lat": 49.4578544,
  "lon": 5.8435548
},
{
  "type": "node",
  "id": 2392954633,
  "lat": 49.4576342,
  "lon": 5.8437479
},
{
  "type": "node",
  "id": 2392954635,
  "lat": 49.4576761,
  "lon": 5.8435432
},
{
  "type": "node",
  "id": 2392954636,
  "lat": 49.4576698,
  "lon": 5.8436399
},
{
  "type": "node",
  "id": 2392954637,
  "lat": 49.4576034,
  "lon": 5.8439111
},
{
  "type": "node",
  "id": 3660112617,
  "lat": 49.4578725,
  "lon": 5.8439416
},
{
  "type": "node",
  "id": 3660112618,
  "lat": 49.4578311,
  "lon": 5.8438913
},
{
  "type": "node",
  "id": 2794674889,
  "lat": 49.5534736,
  "lon": 5.7109006
},
{
  "type": "node",
  "id": 2794674891,
  "lat": 49.5535975,
  "lon": 5.7102968
},
{
  "type": "node",
  "id": 2794674893,
  "lat": 49.5533409,
  "lon": 5.7107002
},
{
  "type": "node",
  "id": 2794674894,
  "lat": 49.5537921,
  "lon": 5.7104939
},
{
  "type": "node",
  "id": 5663651867,
  "lat": 49.5537265,
  "lon": 5.7105970
},
{
  "type": "node",
  "id": 5663651868,
  "lat": 49.5536969,
  "lon": 5.7105522
},
{
  "type": "node",
  "id": 5663651869,
  "lat": 49.5536734,
  "lon": 5.7105892
},
{
  "type": "node",
  "id": 5663651870,
  "lat": 49.5537030,
  "lon": 5.7106339
},
{
  "type": "node",
  "id": 5663651871,
  "lat": 49.5536883,
  "lon": 5.7104340
},
{
  "type": "node",
  "id": 5663651872,
  "lat": 49.5537197,
  "lon": 5.7103845
},
{
  "type": "node",
  "id": 5663651873,
  "lat": 49.5536386,
  "lon": 5.7107352
},
{
  "type": "node",
  "id": 5663651874,
  "lat": 49.5536081,
  "lon": 5.7106891
},
{
  "type": "node",
  "id": 950453062,
  "lat": 49.5226340,
  "lon": 5.7633020
},
{
  "type": "node",
  "id": 950453064,
  "lat": 49.5226350,
  "lon": 5.7632865
},
{
  "type": "node",
  "id": 950453067,
  "lat": 49.5226375,
  "lon": 5.7632418
},
{
  "type": "node",
  "id": 950453070,
  "lat": 49.5226382,
  "lon": 5.7632283
},
{
  "type": "node",
  "id": 950453072,
  "lat": 49.5226407,
  "lon": 5.7631813
},
{
  "type": "node",
  "id": 950453078,
  "lat": 49.5226417,
  "lon": 5.7631656
},
{
  "type": "node",
  "id": 950453080,
  "lat": 49.5226329,
  "lon": 5.7631645
},
{
  "type": "node",
  "id": 950453082,
  "lat": 49.5226005,
  "lon": 5.7631605
},
{
  "type": "node",
  "id": 950453084,
  "lat": 49.5225903,
  "lon": 5.7631590
},
{
  "type": "node",
  "id": 950453085,
  "lat": 49.5225593,
  "lon": 5.7631553
},
{
  "type": "node",
  "id": 950453087,
  "lat": 49.5225485,
  "lon": 5.7631539
},
{
  "type": "node",
  "id": 950453089,
  "lat": 49.5225147,
  "lon": 5.7631497
},
{
  "type": "node",
  "id": 950453090,
  "lat": 49.5225045,
  "lon": 5.7631483
},
{
  "type": "node",
  "id": 950453093,
  "lat": 49.5225038,
  "lon": 5.7631621
},
{
  "type": "node",
  "id": 950453094,
  "lat": 49.5225010,
  "lon": 5.7632124
},
{
  "type": "node",
  "id": 950453095,
  "lat": 49.5225003,
  "lon": 5.7632240
},
{
  "type": "node",
  "id": 950453096,
  "lat": 49.5224977,
  "lon": 5.7632715
},
{
  "type": "node",
  "id": 950453098,
  "lat": 49.5224968,
  "lon": 5.7632847
},
{
  "type": "node",
  "id": 950453099,
  "lat": 49.5224884,
  "lon": 5.7634377
},
{
  "type": "node",
  "id": 950453101,
  "lat": 49.5224876,
  "lon": 5.7634520
},
{
  "type": "node",
  "id": 950453108,
  "lat": 49.5224852,
  "lon": 5.7634964
},
{
  "type": "node",
  "id": 950453109,
  "lat": 49.5224842,
  "lon": 5.7635096
},
{
  "type": "node",
  "id": 950453111,
  "lat": 49.5224817,
  "lon": 5.7635557
},
{
  "type": "node",
  "id": 950453112,
  "lat": 49.5224808,
  "lon": 5.7635712
},
{
  "type": "node",
  "id": 950453113,
  "lat": 49.5224912,
  "lon": 5.7635726
},
{
  "type": "node",
  "id": 950453114,
  "lat": 49.5225244,
  "lon": 5.7635765
},
{
  "type": "node",
  "id": 950453115,
  "lat": 49.5225346,
  "lon": 5.7635779
},
{
  "type": "node",
  "id": 950453117,
  "lat": 49.5225656,
  "lon": 5.7635813
},
{
  "type": "node",
  "id": 950453123,
  "lat": 49.5225752,
  "lon": 5.7635824
},
{
  "type": "node",
  "id": 950453126,
  "lat": 49.5226079,
  "lon": 5.7635865
},
{
  "type": "node",
  "id": 950453129,
  "lat": 49.5226184,
  "lon": 5.7635877
},
{
  "type": "node",
  "id": 950453131,
  "lat": 49.5226191,
  "lon": 5.7635739
},
{
  "type": "node",
  "id": 950453133,
  "lat": 49.5226216,
  "lon": 5.7635283
},
{
  "type": "node",
  "id": 950453135,
  "lat": 49.5226223,
  "lon": 5.7635148
},
{
  "type": "node",
  "id": 950453136,
  "lat": 49.5226248,
  "lon": 5.7634707
},
{
  "type": "node",
  "id": 950453143,
  "lat": 49.5226258,
  "lon": 5.7634544
},
{
  "type": "node",
  "id": 2837190168,
  "lat": 49.5241145,
  "lon": 5.8355983
},
{
  "type": "node",
  "id": 2837190169,
  "lat": 49.5240227,
  "lon": 5.8352969
},
{
  "type": "node",
  "id": 2837190170,
  "lat": 49.5237723,
  "lon": 5.8353782
},
{
  "type": "node",
  "id": 2837190171,
  "lat": 49.5237944,
  "lon": 5.8355037
},
{
  "type": "node",
  "id": 2837190172,
  "lat": 49.5239926,
  "lon": 5.8354408
},
{
  "type": "node",
  "id": 2837190173,
  "lat": 49.5240001,
  "lon": 5.8356150
},
{
  "type": "node",
  "id": 2837190180,
  "lat": 49.5263935,
  "lon": 5.8379455
},
{
  "type": "node",
  "id": 2837190181,
  "lat": 49.5262532,
  "lon": 5.8380332
},
{
  "type": "node",
  "id": 2837190182,
  "lat": 49.5262166,
  "lon": 5.8377403
},
{
  "type": "node",
  "id": 2837190183,
  "lat": 49.5263623,
  "lon": 5.8376970
},
{
  "type": "node",
  "id": 2837911820,
  "lat": 49.5263822,
  "lon": 5.8378558
},
{
  "type": "node",
  "id": 3708752135,
  "lat": 49.5263253,
  "lon": 5.8379657
},
{
  "type": "node",
  "id": 3708752136,
  "lat": 49.5263309,
  "lon": 5.8380101
},
{
  "type": "node",
  "id": 3709143299,
  "lat": 49.5240378,
  "lon": 5.8354682
},
{
  "type": "node",
  "id": 3709143300,
  "lat": 49.5241136,
  "lon": 5.8354642
},
{
  "type": "node",
  "id": 1778006356,
  "lat": 49.5348737,
  "lon": 5.8555493
},
{
  "type": "node",
  "id": 1778006359,
  "lat": 49.5350461,
  "lon": 5.8552328
},
{
  "type": "node",
  "id": 1778006361,
  "lat": 49.5350583,
  "lon": 5.8545467
},
{
  "type": "node",
  "id": 1778006365,
  "lat": 49.5351848,
  "lon": 5.8585729
},
{
  "type": "node",
  "id": 1914579638,
  "lat": 49.5349677,
  "lon": 5.8569520
},
{
  "type": "node",
  "id": 1914579664,
  "lat": 49.5353527,
  "lon": 5.8545651
},
{
  "type": "node",
  "id": 2421130036,
  "lat": 49.5348926,
  "lon": 5.8559645
},
{
  "type": "node",
  "id": 2866096154,
  "lat": 49.5348597,
  "lon": 5.8574100
},
{
  "type": "node",
  "id": 2866096155,
  "lat": 49.5347554,
  "lon": 5.8581845
},
{
  "type": "node",
  "id": 4869926265,
  "lat": 49.5348059,
  "lon": 5.8583743
},
{
  "type": "node",
  "id": 4869926266,
  "lat": 49.5348589,
  "lon": 5.8558604
},
{
  "type": "node",
  "id": 268312466,
  "lat": 49.5351966,
  "lon": 5.8602452
},
{
  "type": "node",
  "id": 291892903,
  "lat": 49.5350528,
  "lon": 5.8610753
},
{
  "type": "node",
  "id": 291892904,
  "lat": 49.5349371,
  "lon": 5.8614104
},
{
  "type": "node",
  "id": 291892905,
  "lat": 49.5348144,
  "lon": 5.8613098
},
{
  "type": "node",
  "id": 291892906,
  "lat": 49.5349302,
  "lon": 5.8609747
},
{
  "type": "node",
  "id": 366726481,
  "lat": 49.5337456,
  "lon": 5.8635779
},
{
  "type": "node",
  "id": 366726482,
  "lat": 49.5338711,
  "lon": 5.8637141
},
{
  "type": "node",
  "id": 366726483,
  "lat": 49.5340426,
  "lon": 5.8633384
},
{
  "type": "node",
  "id": 366726484,
  "lat": 49.5339247,
  "lon": 5.8632043
},
{
  "type": "node",
  "id": 366726486,
  "lat": 49.5338867,
  "lon": 5.8632870
},
{
  "type": "node",
  "id": 366726487,
  "lat": 49.5339662,
  "lon": 5.8633732
},
{
  "type": "node",
  "id": 366726488,
  "lat": 49.5338877,
  "lon": 5.8635451
},
{
  "type": "node",
  "id": 366726489,
  "lat": 49.5338027,
  "lon": 5.8634529
},
{
  "type": "node",
  "id": 877652516,
  "lat": 49.5340070,
  "lon": 5.8627602
},
{
  "type": "node",
  "id": 877652544,
  "lat": 49.5341532,
  "lon": 5.8625972
},
{
  "type": "node",
  "id": 1768857410,
  "lat": 49.5349575,
  "lon": 5.8609103
},
{
  "type": "node",
  "id": 1768857442,
  "lat": 49.5350642,
  "lon": 5.8605989
},
{
  "type": "node",
  "id": 1768857444,
  "lat": 49.5350843,
  "lon": 5.8610135
},
{
  "type": "node",
  "id": 1768857452,
  "lat": 49.5351910,
  "lon": 5.8607021
},
{
  "type": "node",
  "id": 1778006351,
  "lat": 49.5344494,
  "lon": 5.8629755
},
{
  "type": "node",
  "id": 1778006352,
  "lat": 49.5345626,
  "lon": 5.8616828
},
{
  "type": "node",
  "id": 1778006353,
  "lat": 49.5345476,
  "lon": 5.8596253
},
{
  "type": "node",
  "id": 1778006354,
  "lat": 49.5348642,
  "lon": 5.8614012
},
{
  "type": "node",
  "id": 1778006358,
  "lat": 49.5349490,
  "lon": 5.8614682
},
{
  "type": "node",
  "id": 1778006362,
  "lat": 49.5350395,
  "lon": 5.8601377
},
{
  "type": "node",
  "id": 1778006363,
  "lat": 49.5351148,
  "lon": 5.8597873
},
{
  "type": "node",
  "id": 1778006364,
  "lat": 49.5351674,
  "lon": 5.8592113
},
{
  "type": "node",
  "id": 1778006366,
  "lat": 49.5352097,
  "lon": 5.8607019
},
{
  "type": "node",
  "id": 1914579473,
  "lat": 49.5341981,
  "lon": 5.8614271
},
{
  "type": "node",
  "id": 1914579487,
  "lat": 49.5342862,
  "lon": 5.8611437
},
{
  "type": "node",
  "id": 1914579547,
  "lat": 49.5343994,
  "lon": 5.8615232
},
{
  "type": "node",
  "id": 1914579555,
  "lat": 49.5345248,
  "lon": 5.8601432
},
{
  "type": "node",
  "id": 1914579561,
  "lat": 49.5345415,
  "lon": 5.8604749
},
{
  "type": "node",
  "id": 1914579579,
  "lat": 49.5344910,
  "lon": 5.8614234
},
{
  "type": "node",
  "id": 1914579583,
  "lat": 49.5346315,
  "lon": 5.8606321
},
{
  "type": "node",
  "id": 2858594500,
  "lat": 49.5341471,
  "lon": 5.8628495
},
{
  "type": "node",
  "id": 2858597805,
  "lat": 49.5342745,
  "lon": 5.8631285
},
{
  "type": "node",
  "id": 2858597807,
  "lat": 49.5344240,
  "lon": 5.8631764
},
{
  "type": "node",
  "id": 2858769364,
  "lat": 49.5342237,
  "lon": 5.8628960
},
{
  "type": "node",
  "id": 2877403833,
  "lat": 49.5342395,
  "lon": 5.8622435
},
{
  "type": "node",
  "id": 2877403834,
  "lat": 49.5341868,
  "lon": 5.8622028
},
{
  "type": "node",
  "id": 2877403835,
  "lat": 49.5341266,
  "lon": 5.8623876
},
{
  "type": "node",
  "id": 2877403836,
  "lat": 49.5341793,
  "lon": 5.8624283
},
{
  "type": "node",
  "id": 3627155637,
  "lat": 49.5340598,
  "lon": 5.8623625
},
{
  "type": "node",
  "id": 4434189733,
  "lat": 49.5341753,
  "lon": 5.8631714
},
{
  "type": "node",
  "id": 6017445013,
  "lat": 49.5342331,
  "lon": 5.8631978
},
{
  "type": "node",
  "id": 6017445026,
  "lat": 49.5341931,
  "lon": 5.8624861
},
{
  "type": "node",
  "id": 6017445027,
  "lat": 49.5341106,
  "lon": 5.8625479
},
{
  "type": "node",
  "id": 6017445039,
  "lat": 49.5342654,
  "lon": 5.8613683
},
{
  "type": "node",
  "id": 6453127750,
  "lat": 49.5345342,
  "lon": 5.8603296
},
{
  "type": "node",
  "id": 6453127751,
  "lat": 49.5344231,
  "lon": 5.8615081
},
{
  "type": "node",
  "id": 6453127756,
  "lat": 49.5344316,
  "lon": 5.8614696
},
{
  "type": "node",
  "id": 7080376109,
  "lat": 49.5343977,
  "lon": 5.8631680
},
{
  "type": "node",
  "id": 7080376110,
  "lat": 49.5343339,
  "lon": 5.8631475
},
{
  "type": "node",
  "id": 366728922,
  "lat": 49.5359558,
  "lon": 5.8489984
},
{
  "type": "node",
  "id": 366728923,
  "lat": 49.5358398,
  "lon": 5.8489025
},
{
  "type": "node",
  "id": 366728924,
  "lat": 49.5357296,
  "lon": 5.8492189
},
{
  "type": "node",
  "id": 366728925,
  "lat": 49.5358455,
  "lon": 5.8493148
},
{
  "type": "node",
  "id": 1778006378,
  "lat": 49.5362370,
  "lon": 5.8522292
},
{
  "type": "node",
  "id": 1778006380,
  "lat": 49.5366319,
  "lon": 5.8516839
},
{
  "type": "node",
  "id": 1778006381,
  "lat": 49.5367252,
  "lon": 5.8517427
},
{
  "type": "node",
  "id": 1914579680,
  "lat": 49.5364365,
  "lon": 5.8519872
},
{
  "type": "node",
  "id": 1914579683,
  "lat": 49.5365429,
  "lon": 5.8521102
},
{
  "type": "node",
  "id": 1778006369,
  "lat": 49.5355020,
  "lon": 5.8538383
},
{
  "type": "node",
  "id": 1778006374,
  "lat": 49.5356300,
  "lon": 5.8554183
},
{
  "type": "node",
  "id": 1778006375,
  "lat": 49.5356193,
  "lon": 5.8535110
},
{
  "type": "node",
  "id": 1778006376,
  "lat": 49.5357851,
  "lon": 5.8541223
},
{
  "type": "node",
  "id": 1778006377,
  "lat": 49.5357264,
  "lon": 5.8533456
},
{
  "type": "node",
  "id": 1914579668,
  "lat": 49.5357103,
  "lon": 5.8543909
},
{
  "type": "node",
  "id": 3393211185,
  "lat": 49.6600071,
  "lon": 5.8268816
},
{
  "type": "node",
  "id": 3393211186,
  "lat": 49.6600977,
  "lon": 5.8266479
},
{
  "type": "node",
  "id": 3393211187,
  "lat": 49.6601355,
  "lon": 5.8270004
},
{
  "type": "node",
  "id": 3393211188,
  "lat": 49.6602261,
  "lon": 5.8267667
},
{
  "type": "node",
  "id": 3391061939,
  "lat": 49.6454401,
  "lon": 5.8628877
},
{
  "type": "node",
  "id": 3391061940,
  "lat": 49.6454771,
  "lon": 5.8629746
},
{
  "type": "node",
  "id": 3391061941,
  "lat": 49.6455158,
  "lon": 5.8628147
},
{
  "type": "node",
  "id": 3391061942,
  "lat": 49.6455510,
  "lon": 5.8629085
},
{
  "type": "node",
  "id": 844082917,
  "lat": 49.6840135,
  "lon": 5.8104594
},
{
  "type": "node",
  "id": 1329391387,
  "lat": 49.6837180,
  "lon": 5.8111572
},
{
  "type": "node",
  "id": 2985675847,
  "lat": 49.6836742,
  "lon": 5.8108367
},
{
  "type": "node",
  "id": 2985675848,
  "lat": 49.6837842,
  "lon": 5.8107997
},
{
  "type": "node",
  "id": 2985675849,
  "lat": 49.6838274,
  "lon": 5.8111202
},
{
  "type": "node",
  "id": 2985675850,
  "lat": 49.6840173,
  "lon": 5.8105612
},
{
  "type": "node",
  "id": 2985675851,
  "lat": 49.6840295,
  "lon": 5.8105560
},
{
  "type": "node",
  "id": 2985675852,
  "lat": 49.6840724,
  "lon": 5.8108622
},
{
  "type": "node",
  "id": 2985675853,
  "lat": 49.6841015,
  "lon": 5.8109520
},
{
  "type": "node",
  "id": 2985675854,
  "lat": 49.6841026,
  "lon": 5.8109571
},
{
  "type": "node",
  "id": 2985675855,
  "lat": 49.6841435,
  "lon": 5.8109414
},
{
  "type": "node",
  "id": 2985675856,
  "lat": 49.6841553,
  "lon": 5.8103632
},
{
  "type": "node",
  "id": 2985675857,
  "lat": 49.6841789,
  "lon": 5.8109815
},
{
  "type": "node",
  "id": 2985675858,
  "lat": 49.6842852,
  "lon": 5.8108813
},
{
  "type": "node",
  "id": 4577665850,
  "lat": 49.6842559,
  "lon": 5.8107628
},
{
  "type": "node",
  "id": 4578966776,
  "lat": 49.6837095,
  "lon": 5.8110956
},
{
  "type": "node",
  "id": 4578966777,
  "lat": 49.6837176,
  "lon": 5.8110914
},
{
  "type": "node",
  "id": 4578966778,
  "lat": 49.6836932,
  "lon": 5.8109891
},
{
  "type": "node",
  "id": 4578966779,
  "lat": 49.6836854,
  "lon": 5.8109286
},
{
  "type": "node",
  "id": 4578966780,
  "lat": 49.6837032,
  "lon": 5.8109863
},
{
  "type": "node",
  "id": 4578966781,
  "lat": 49.6836875,
  "lon": 5.8109263
},
{
  "type": "node",
  "id": 4578966795,
  "lat": 49.6841268,
  "lon": 5.8103827
},
{
  "type": "node",
  "id": 4578966798,
  "lat": 49.6841085,
  "lon": 5.8103951
},
{
  "type": "node",
  "id": 4578966799,
  "lat": 49.6840616,
  "lon": 5.8104267
},
{
  "type": "node",
  "id": 4578966802,
  "lat": 49.6841033,
  "lon": 5.8103987
},
{
  "type": "node",
  "id": 4578966803,
  "lat": 49.6840851,
  "lon": 5.8108574
},
{
  "type": "node",
  "id": 4578966804,
  "lat": 49.6842444,
  "lon": 5.8107228
},
{
  "type": "node",
  "id": 1783065071,
  "lat": 49.8098287,
  "lon": 5.7638096
},
{
  "type": "node",
  "id": 1783065082,
  "lat": 49.8098706,
  "lon": 5.7637567
},
{
  "type": "node",
  "id": 1783065097,
  "lat": 49.8099093,
  "lon": 5.7637077
},
{
  "type": "node",
  "id": 1783065100,
  "lat": 49.8099260,
  "lon": 5.7639940
},
{
  "type": "node",
  "id": 1783065111,
  "lat": 49.8100055,
  "lon": 5.7638905
},
{
  "type": "node",
  "id": 1822538069,
  "lat": 49.3251660,
  "lon": 6.0285850
},
{
  "type": "node",
  "id": 1822538077,
  "lat": 49.3251830,
  "lon": 6.0284060
},
{
  "type": "node",
  "id": 1822538080,
  "lat": 49.3251960,
  "lon": 6.0283550
},
{
  "type": "node",
  "id": 1822538085,
  "lat": 49.3252100,
  "lon": 6.0282020
},
{
  "type": "node",
  "id": 1822538087,
  "lat": 49.3252170,
  "lon": 6.0283230
},
{
  "type": "node",
  "id": 1822538088,
  "lat": 49.3252300,
  "lon": 6.0280290
},
{
  "type": "node",
  "id": 1822538089,
  "lat": 49.3252360,
  "lon": 6.0286010
},
{
  "type": "node",
  "id": 1822538090,
  "lat": 49.3252390,
  "lon": 6.0286170
},
{
  "type": "node",
  "id": 1822538091,
  "lat": 49.3252480,
  "lon": 6.0283080
},
{
  "type": "node",
  "id": 1822538092,
  "lat": 49.3252490,
  "lon": 6.0286460
},
{
  "type": "node",
  "id": 1822538093,
  "lat": 49.3252510,
  "lon": 6.0282840
},
{
  "type": "node",
  "id": 1822538095,
  "lat": 49.3252650,
  "lon": 6.0286690
},
{
  "type": "node",
  "id": 1822538104,
  "lat": 49.3252830,
  "lon": 6.0286780
},
{
  "type": "node",
  "id": 1822538128,
  "lat": 49.3252880,
  "lon": 6.0280400
},
{
  "type": "node",
  "id": 1822538132,
  "lat": 49.3253030,
  "lon": 6.0286800
},
{
  "type": "node",
  "id": 1822538135,
  "lat": 49.3253240,
  "lon": 6.0286570
},
{
  "type": "node",
  "id": 1822538137,
  "lat": 49.3253300,
  "lon": 6.0276790
},
{
  "type": "node",
  "id": 1822538142,
  "lat": 49.3253380,
  "lon": 6.0286250
},
{
  "type": "node",
  "id": 1822538152,
  "lat": 49.3253590,
  "lon": 6.0276830
},
{
  "type": "node",
  "id": 1822538156,
  "lat": 49.3253730,
  "lon": 6.0276580
},
{
  "type": "node",
  "id": 1822538164,
  "lat": 49.3253870,
  "lon": 6.0276460
},
{
  "type": "node",
  "id": 1822538182,
  "lat": 49.3253950,
  "lon": 6.0282450
},
{
  "type": "node",
  "id": 1822538184,
  "lat": 49.3253980,
  "lon": 6.0276460
},
{
  "type": "node",
  "id": 1822538186,
  "lat": 49.3254020,
  "lon": 6.0281750
},
{
  "type": "node",
  "id": 1822538188,
  "lat": 49.3254080,
  "lon": 6.0276560
},
{
  "type": "node",
  "id": 1822538190,
  "lat": 49.3254110,
  "lon": 6.0286420
},
{
  "type": "node",
  "id": 1822538192,
  "lat": 49.3254140,
  "lon": 6.0276740
},
{
  "type": "node",
  "id": 1822538193,
  "lat": 49.3254150,
  "lon": 6.0276990
},
{
  "type": "node",
  "id": 1822538194,
  "lat": 49.3254250,
  "lon": 6.0285290
},
{
  "type": "node",
  "id": 1822538196,
  "lat": 49.3254340,
  "lon": 6.0278570
},
{
  "type": "node",
  "id": 1822538198,
  "lat": 49.3254500,
  "lon": 6.0277070
},
{
  "type": "node",
  "id": 1822538200,
  "lat": 49.3254520,
  "lon": 6.0281820
},
{
  "type": "node",
  "id": 1822538202,
  "lat": 49.3254590,
  "lon": 6.0283010
},
{
  "type": "node",
  "id": 1822538210,
  "lat": 49.3254830,
  "lon": 6.0283450
},
{
  "type": "node",
  "id": 1822538214,
  "lat": 49.3254880,
  "lon": 6.0278710
},
{
  "type": "node",
  "id": 1822538219,
  "lat": 49.3255010,
  "lon": 6.0284000
},
{
  "type": "node",
  "id": 1822538235,
  "lat": 49.3255050,
  "lon": 6.0284440
},
{
  "type": "node",
  "id": 1822538237,
  "lat": 49.3255050,
  "lon": 6.0284990
},
{
  "type": "node",
  "id": 1822538239,
  "lat": 49.3255500,
  "lon": 6.0285560
},
{
  "type": "node",
  "id": 1822538241,
  "lat": 49.3255560,
  "lon": 6.0285090
},
{
  "type": "node",
  "id": 4290946884,
  "lat": 49.4228174,
  "lon": 5.9503348
},
{
  "type": "node",
  "id": 4290946885,
  "lat": 49.4216742,
  "lon": 5.9497383
},
{
  "type": "node",
  "id": 4290946887,
  "lat": 49.4221990,
  "lon": 5.9487512
},
{
  "type": "node",
  "id": 4290948790,
  "lat": 49.4225466,
  "lon": 5.9488821
},
{
  "type": "node",
  "id": 4290948789,
  "lat": 49.4225633,
  "lon": 5.9508433
},
{
  "type": "node",
  "id": 1633835218,
  "lat": 49.4749213,
  "lon": 5.9756831
},
{
  "type": "node",
  "id": 1633835224,
  "lat": 49.4753097,
  "lon": 5.9754968
},
{
  "type": "node",
  "id": 1633835226,
  "lat": 49.4754234,
  "lon": 5.9757303
},
{
  "type": "node",
  "id": 1633835238,
  "lat": 49.4752889,
  "lon": 5.9756972
},
{
  "type": "node",
  "id": 1633835246,
  "lat": 49.4748646,
  "lon": 5.9756025
},
{
  "type": "node",
  "id": 1633835250,
  "lat": 49.4749281,
  "lon": 5.9756181
},
{
  "type": "node",
  "id": 1633835261,
  "lat": 49.4748864,
  "lon": 5.9753926
},
{
  "type": "node",
  "id": 1633835266,
  "lat": 49.4754156,
  "lon": 5.9758048
},
{
  "type": "node",
  "id": 1031318157,
  "lat": 49.3578436,
  "lon": 6.1690747
},
{
  "type": "node",
  "id": 1031350708,
  "lat": 49.3579204,
  "lon": 6.1692443
},
{
  "type": "node",
  "id": 1031353584,
  "lat": 49.3579907,
  "lon": 6.1692014
},
{
  "type": "node",
  "id": 1031466992,
  "lat": 49.3578846,
  "lon": 6.1692266
},
{
  "type": "node",
  "id": 1031472858,
  "lat": 49.3578552,
  "lon": 6.1691856
},
{
  "type": "node",
  "id": 1031483922,
  "lat": 49.3578415,
  "lon": 6.1691314
},
{
  "type": "node",
  "id": 1031498873,
  "lat": 49.3578940,
  "lon": 6.1689890
},
{
  "type": "node",
  "id": 1031518024,
  "lat": 49.3580091,
  "lon": 6.1691504
},
{
  "type": "node",
  "id": 1031539445,
  "lat": 49.3580118,
  "lon": 6.1690937
},
{
  "type": "node",
  "id": 1031540128,
  "lat": 49.3579587,
  "lon": 6.1692361
},
{
  "type": "node",
  "id": 1031623991,
  "lat": 49.3579975,
  "lon": 6.1690395
},
{
  "type": "node",
  "id": 1031718542,
  "lat": 49.3579699,
  "lon": 6.1689974
},
{
  "type": "node",
  "id": 1031761912,
  "lat": 49.3578626,
  "lon": 6.1690214
},
{
  "type": "node",
  "id": 1031940720,
  "lat": 49.3579329,
  "lon": 6.1689809
},
{
  "type": "node",
  "id": 2422620829,
  "lat": 49.4119728,
  "lon": 6.1180583
},
{
  "type": "node",
  "id": 2422620830,
  "lat": 49.4118349,
  "lon": 6.1179886
},
{
  "type": "node",
  "id": 2422620831,
  "lat": 49.4118332,
  "lon": 6.1185519
},
{
  "type": "node",
  "id": 2422620832,
  "lat": 49.4118489,
  "lon": 6.1179698
},
{
  "type": "node",
  "id": 2422620833,
  "lat": 49.4117180,
  "lon": 6.1184607
},
{
  "type": "node",
  "id": 2422620834,
  "lat": 49.4117948,
  "lon": 6.1182300
},
{
  "type": "node",
  "id": 2422620835,
  "lat": 49.4118175,
  "lon": 6.1185519
},
{
  "type": "node",
  "id": 2422620836,
  "lat": 49.4119588,
  "lon": 6.1180315
},
{
  "type": "node",
  "id": 2422620837,
  "lat": 49.4119693,
  "lon": 6.1180905
},
{
  "type": "node",
  "id": 2422620838,
  "lat": 49.4118524,
  "lon": 6.1185358
},
{
  "type": "node",
  "id": 2422620839,
  "lat": 49.4117145,
  "lon": 6.1184875
},
{
  "type": "node",
  "id": 1942560650,
  "lat": 49.4733323,
  "lon": 6.0819318
},
{
  "type": "node",
  "id": 1942560651,
  "lat": 49.4734380,
  "lon": 6.0819499
},
{
  "type": "node",
  "id": 1942560652,
  "lat": 49.4734457,
  "lon": 6.0818922
},
{
  "type": "node",
  "id": 1942560653,
  "lat": 49.4733548,
  "lon": 6.0819781
},
{
  "type": "node",
  "id": 1942560654,
  "lat": 49.4733567,
  "lon": 6.0818281
},
{
  "type": "node",
  "id": 1942560655,
  "lat": 49.4733411,
  "lon": 6.0819578
},
{
  "type": "node",
  "id": 1942560656,
  "lat": 49.4734450,
  "lon": 6.0819221
},
{
  "type": "node",
  "id": 1942560657,
  "lat": 49.4733720,
  "lon": 6.0819905
},
{
  "type": "node",
  "id": 1942560658,
  "lat": 49.4734258,
  "lon": 6.0819723
},
{
  "type": "node",
  "id": 1942560659,
  "lat": 49.4734126,
  "lon": 6.0818227
},
{
  "type": "node",
  "id": 1942560660,
  "lat": 49.4734095,
  "lon": 6.0819874
},
{
  "type": "node",
  "id": 1942560661,
  "lat": 49.4734285,
  "lon": 6.0818397
},
{
  "type": "node",
  "id": 1942560662,
  "lat": 49.4733328,
  "lon": 6.0818741
},
{
  "type": "node",
  "id": 1942560663,
  "lat": 49.4733939,
  "lon": 6.0818147
},
{
  "type": "node",
  "id": 1942560664,
  "lat": 49.4733909,
  "lon": 6.0819937
},
{
  "type": "node",
  "id": 1942560665,
  "lat": 49.4733746,
  "lon": 6.0818166
},
{
  "type": "node",
  "id": 1942560666,
  "lat": 49.4734400,
  "lon": 6.0818637
},
{
  "type": "node",
  "id": 1942560667,
  "lat": 49.4733422,
  "lon": 6.0818480
},
{
  "type": "node",
  "id": 1942560668,
  "lat": 49.4733295,
  "lon": 6.0819029
},
{
  "type": "node",
  "id": 1329731798,
  "lat": 49.4825903,
  "lon": 6.0856949
},
{
  "type": "node",
  "id": 1329731802,
  "lat": 49.4825980,
  "lon": 6.0859318
},
{
  "type": "node",
  "id": 1329731803,
  "lat": 49.4825861,
  "lon": 6.0857196
},
{
  "type": "node",
  "id": 1329731806,
  "lat": 49.4826591,
  "lon": 6.0857221
},
{
  "type": "node",
  "id": 1329731808,
  "lat": 49.4826152,
  "lon": 6.0858289
},
{
  "type": "node",
  "id": 1329731811,
  "lat": 49.4824882,
  "lon": 6.0856808
},
{
  "type": "node",
  "id": 1329731814,
  "lat": 49.4826396,
  "lon": 6.0858386
},
{
  "type": "node",
  "id": 1329731815,
  "lat": 49.4824557,
  "lon": 6.0858755
},
{
  "type": "node",
  "id": 1461523254,
  "lat": 49.4435100,
  "lon": 6.3272330
},
{
  "type": "node",
  "id": 1461523292,
  "lat": 49.4435350,
  "lon": 6.3269610
},
{
  "type": "node",
  "id": 1461523364,
  "lat": 49.4435570,
  "lon": 6.3269660
},
{
  "type": "node",
  "id": 1461523366,
  "lat": 49.4435590,
  "lon": 6.3269410
},
{
  "type": "node",
  "id": 1461523418,
  "lat": 49.4435750,
  "lon": 6.3272460
},
{
  "type": "node",
  "id": 1461523431,
  "lat": 49.4435790,
  "lon": 6.3269720
},
{
  "type": "node",
  "id": 1461523446,
  "lat": 49.4435810,
  "lon": 6.3269450
},
{
  "type": "node",
  "id": 1461523471,
  "lat": 49.4435960,
  "lon": 6.3269760
},
{
  "type": "node",
  "id": 1069447338,
  "lat": 49.4967347,
  "lon": 6.4582449
},
{
  "type": "node",
  "id": 1069447343,
  "lat": 49.4963814,
  "lon": 6.4586351
},
{
  "type": "node",
  "id": 1069447347,
  "lat": 49.4965932,
  "lon": 6.4585990
},
{
  "type": "node",
  "id": 1069447350,
  "lat": 49.4963965,
  "lon": 6.4578869
},
{
  "type": "node",
  "id": 1069447360,
  "lat": 49.4968253,
  "lon": 6.4581191
},
{
  "type": "node",
  "id": 1069447367,
  "lat": 49.4961762,
  "lon": 6.4582641
},
{
  "type": "node",
  "id": 1069447379,
  "lat": 49.4964500,
  "lon": 6.4584634
},
{
  "type": "node",
  "id": 1069447383,
  "lat": 49.4966521,
  "lon": 6.4581371
},
{
  "type": "node",
  "id": 1069447388,
  "lat": 49.4962632,
  "lon": 6.4577607
},
{
  "type": "node",
  "id": 1069447392,
  "lat": 49.4964607,
  "lon": 6.4583918
},
{
  "type": "node",
  "id": 1069447405,
  "lat": 49.4967639,
  "lon": 6.4582726
},
{
  "type": "node",
  "id": 1069447410,
  "lat": 49.4961250,
  "lon": 6.4583922
},
{
  "type": "node",
  "id": 1069447422,
  "lat": 49.4965871,
  "lon": 6.4580755
},
{
  "type": "node",
  "id": 1069447424,
  "lat": 49.4963440,
  "lon": 6.4582812
},
{
  "type": "node",
  "id": 1069447427,
  "lat": 49.4967048,
  "lon": 6.4580050
},
{
  "type": "node",
  "id": 1069447432,
  "lat": 49.4960934,
  "lon": 6.4581857
},
{
  "type": "node",
  "id": 1069447443,
  "lat": 49.4962678,
  "lon": 6.4582090
},
{
  "type": "node",
  "id": 1801157136,
  "lat": 49.4967174,
  "lon": 6.4572418
},
{
  "type": "node",
  "id": 1801157143,
  "lat": 49.4967788,
  "lon": 6.4570983
},
{
  "type": "node",
  "id": 1801157154,
  "lat": 49.4968671,
  "lon": 6.4573935
},
{
  "type": "node",
  "id": 1801157162,
  "lat": 49.4969284,
  "lon": 6.4572501
},
{
  "type": "node",
  "id": 6800359529,
  "lat": 49.4967394,
  "lon": 6.4580377
},
{
  "type": "node",
  "id": 6800359537,
  "lat": 49.4967944,
  "lon": 6.4573198
},
{
  "type": "node",
  "id": 6800359538,
  "lat": 49.4968549,
  "lon": 6.4571755
},
{
  "type": "node",
  "id": 2980974323,
  "lat": 49.5174138,
  "lon": 5.8786297
},
{
  "type": "node",
  "id": 2980974324,
  "lat": 49.5174811,
  "lon": 5.8787308
},
{
  "type": "node",
  "id": 2980974325,
  "lat": 49.5174530,
  "lon": 5.8787752
},
{
  "type": "node",
  "id": 2980974326,
  "lat": 49.5173857,
  "lon": 5.8786741
},
{
  "type": "node",
  "id": 1268156485,
  "lat": 49.5220022,
  "lon": 5.8945845
},
{
  "type": "node",
  "id": 1268156488,
  "lat": 49.5217212,
  "lon": 5.8938991
},
{
  "type": "node",
  "id": 1268156496,
  "lat": 49.5222029,
  "lon": 5.8946290
},
{
  "type": "node",
  "id": 1268156514,
  "lat": 49.5222695,
  "lon": 5.8942317
},
{
  "type": "node",
  "id": 1268156525,
  "lat": 49.5220348,
  "lon": 5.8944916
},
{
  "type": "node",
  "id": 1268156534,
  "lat": 49.5215987,
  "lon": 5.8942546
},
{
  "type": "node",
  "id": 1268156541,
  "lat": 49.5221725,
  "lon": 5.8947172
},
{
  "type": "node",
  "id": 1268156554,
  "lat": 49.5222389,
  "lon": 5.8943205
},
{
  "type": "node",
  "id": 6123811352,
  "lat": 49.5216636,
  "lon": 5.8943077
},
{
  "type": "node",
  "id": 6123811514,
  "lat": 49.5218082,
  "lon": 5.8938546
},
{
  "type": "node",
  "id": 6123811515,
  "lat": 49.5217771,
  "lon": 5.8939449
},
{
  "type": "node",
  "id": 1268156490,
  "lat": 49.5223509,
  "lon": 5.8944120
},
{
  "type": "node",
  "id": 1268156493,
  "lat": 49.5224570,
  "lon": 5.8949498
},
{
  "type": "node",
  "id": 1268156520,
  "lat": 49.5225483,
  "lon": 5.8946847
},
{
  "type": "node",
  "id": 1268156531,
  "lat": 49.5223210,
  "lon": 5.8944988
},
{
  "type": "node",
  "id": 6436415222,
  "lat": 49.5222956,
  "lon": 5.8943668
},
{
  "type": "node",
  "id": 7047461373,
  "lat": 49.5225210,
  "lon": 5.8946623
},
{
  "type": "node",
  "id": 2548943492,
  "lat": 49.6737812,
  "lon": 6.0078793
},
{
  "type": "node",
  "id": 2548943496,
  "lat": 49.6738308,
  "lon": 6.0080577
},
{
  "type": "node",
  "id": 2548943503,
  "lat": 49.6738630,
  "lon": 6.0078250
},
{
  "type": "node",
  "id": 2548943510,
  "lat": 49.6739126,
  "lon": 6.0080033
},
{
  "type": "node",
  "id": 4171767670,
  "lat": 49.6752926,
  "lon": 6.0075339
},
{
  "type": "node",
  "id": 4171767671,
  "lat": 49.6752681,
  "lon": 6.0074816
},
{
  "type": "node",
  "id": 4171767672,
  "lat": 49.6752063,
  "lon": 6.0075313
},
{
  "type": "node",
  "id": 4171767673,
  "lat": 49.6751216,
  "lon": 6.0076307
},
{
  "type": "node",
  "id": 4171767674,
  "lat": 49.6751005,
  "lon": 6.0076019
},
{
  "type": "node",
  "id": 4171767675,
  "lat": 49.6750463,
  "lon": 6.0076817
},
{
  "type": "node",
  "id": 4171767676,
  "lat": 49.6750819,
  "lon": 6.0077667
},
{
  "type": "node",
  "id": 696604926,
  "lat": 49.5989012,
  "lon": 6.1028561
},
{
  "type": "node",
  "id": 696604927,
  "lat": 49.5989386,
  "lon": 6.1024357
},
{
  "type": "node",
  "id": 696604928,
  "lat": 49.5989713,
  "lon": 6.1028781
},
{
  "type": "node",
  "id": 696604940,
  "lat": 49.5992369,
  "lon": 6.1024999
},
{
  "type": "node",
  "id": 696604947,
  "lat": 49.5991127,
  "lon": 6.1030558
},
{
  "type": "node",
  "id": 696604948,
  "lat": 49.5991290,
  "lon": 6.1028751
},
{
  "type": "node",
  "id": 696604949,
  "lat": 49.5989582,
  "lon": 6.1030225
},
{
  "type": "node",
  "id": 696604958,
  "lat": 49.5990338,
  "lon": 6.1030388
},
{
  "type": "node",
  "id": 696604959,
  "lat": 49.5989817,
  "lon": 6.1030276
},
{
  "type": "node",
  "id": 696604963,
  "lat": 49.5991965,
  "lon": 6.1029463
},
{
  "type": "node",
  "id": 1582486675,
  "lat": 49.5991400,
  "lon": 6.1028774
},
{
  "type": "node",
  "id": 4757303099,
  "lat": 49.5991345,
  "lon": 6.1028762
},
{
  "type": "node",
  "id": 7023276521,
  "lat": 49.5990845,
  "lon": 6.1030484
},
{
  "type": "node",
  "id": 7054154604,
  "lat": 49.5989546,
  "lon": 6.1028728
},
{
  "type": "node",
  "id": 1759818685,
  "lat": 49.5974902,
  "lon": 6.1244942
},
{
  "type": "node",
  "id": 1759818689,
  "lat": 49.5975052,
  "lon": 6.1249186
},
{
  "type": "node",
  "id": 1759818734,
  "lat": 49.5976267,
  "lon": 6.1244828
},
{
  "type": "node",
  "id": 1759818741,
  "lat": 49.5976416,
  "lon": 6.1249072
},
{
  "type": "node",
  "id": 672150662,
  "lat": 49.6131728,
  "lon": 6.1226628
},
{
  "type": "node",
  "id": 672150668,
  "lat": 49.6129854,
  "lon": 6.1225789
},
{
  "type": "node",
  "id": 672150671,
  "lat": 49.6131808,
  "lon": 6.1221431
},
{
  "type": "node",
  "id": 672150673,
  "lat": 49.6129516,
  "lon": 6.1225976
},
{
  "type": "node",
  "id": 720599029,
  "lat": 49.6130240,
  "lon": 6.1222064
},
{
  "type": "node",
  "id": 726195124,
  "lat": 49.6132218,
  "lon": 6.1228265
},
{
  "type": "node",
  "id": 726195150,
  "lat": 49.6130517,
  "lon": 6.1223318
},
{
  "type": "node",
  "id": 726195178,
  "lat": 49.6133002,
  "lon": 6.1227693
},
{
  "type": "node",
  "id": 4998091008,
  "lat": 49.6130596,
  "lon": 6.1226852
},
{
  "type": "node",
  "id": 4998091009,
  "lat": 49.6130564,
  "lon": 6.1226708
},
{
  "type": "node",
  "id": 4998091010,
  "lat": 49.6130067,
  "lon": 6.1226732
},
{
  "type": "node",
  "id": 4998091011,
  "lat": 49.6130851,
  "lon": 6.1226685
},
{
  "type": "node",
  "id": 5531468774,
  "lat": 49.6129082,
  "lon": 6.1224108
},
{
  "type": "node",
  "id": 5531468775,
  "lat": 49.6131924,
  "lon": 6.1227258
},
{
  "type": "node",
  "id": 621843950,
  "lat": 49.6097180,
  "lon": 6.1334183
},
{
  "type": "node",
  "id": 621843953,
  "lat": 49.6097141,
  "lon": 6.1335797
},
{
  "type": "node",
  "id": 621843955,
  "lat": 49.6097849,
  "lon": 6.1335879
},
{
  "type": "node",
  "id": 621843957,
  "lat": 49.6097875,
  "lon": 6.1337163
},
{
  "type": "node",
  "id": 621843960,
  "lat": 49.6100475,
  "lon": 6.1337260
},
{
  "type": "node",
  "id": 621843962,
  "lat": 49.6100455,
  "lon": 6.1338227
},
{
  "type": "node",
  "id": 621843964,
  "lat": 49.6101460,
  "lon": 6.1338325
},
{
  "type": "node",
  "id": 621843967,
  "lat": 49.6101746,
  "lon": 6.1336635
},
{
  "type": "node",
  "id": 621843969,
  "lat": 49.6101351,
  "lon": 6.1334811
},
{
  "type": "node",
  "id": 621843989,
  "lat": 49.6115661,
  "lon": 6.1340468
},
{
  "type": "node",
  "id": 621843995,
  "lat": 49.6115897,
  "lon": 6.1336381
},
{
  "type": "node",
  "id": 621844004,
  "lat": 49.6115866,
  "lon": 6.1335601
},
{
  "type": "node",
  "id": 621844013,
  "lat": 49.6115808,
  "lon": 6.1333770
},
{
  "type": "node",
  "id": 621844023,
  "lat": 49.6118161,
  "lon": 6.1333843
},
{
  "type": "node",
  "id": 621844041,
  "lat": 49.6118061,
  "lon": 6.1336157
},
{
  "type": "node",
  "id": 621844049,
  "lat": 49.6116739,
  "lon": 6.1340631
},
{
  "type": "node",
  "id": 683833122,
  "lat": 49.6100104,
  "lon": 6.1335069
},
{
  "type": "node",
  "id": 683833124,
  "lat": 49.6100107,
  "lon": 6.1334855
},
{
  "type": "node",
  "id": 683833125,
  "lat": 49.6098334,
  "lon": 6.1334690
},
{
  "type": "node",
  "id": 683833126,
  "lat": 49.6101344,
  "lon": 6.1335146
},
{
  "type": "node",
  "id": 683833128,
  "lat": 49.6101905,
  "lon": 6.1336632
},
{
  "type": "node",
  "id": 683833129,
  "lat": 49.6102306,
  "lon": 6.1335251
},
{
  "type": "node",
  "id": 1108860029,
  "lat": 49.6116772,
  "lon": 6.1340268
},
{
  "type": "node",
  "id": 1108860047,
  "lat": 49.6117280,
  "lon": 6.1340240
},
{
  "type": "node",
  "id": 1325568958,
  "lat": 49.6102080,
  "lon": 6.1335179
},
{
  "type": "node",
  "id": 1587861107,
  "lat": 49.6101887,
  "lon": 6.1334818
},
{
  "type": "node",
  "id": 1587861109,
  "lat": 49.6101882,
  "lon": 6.1335125
},
{
  "type": "node",
  "id": 1587861563,
  "lat": 49.6116634,
  "lon": 6.1335720
},
{
  "type": "node",
  "id": 1587861566,
  "lat": 49.6116621,
  "lon": 6.1336306
},
{
  "type": "node",
  "id": 1824880597,
  "lat": 49.6101725,
  "lon": 6.1337634
},
{
  "type": "node",
  "id": 1825161386,
  "lat": 49.6117802,
  "lon": 6.1333839
},
{
  "type": "node",
  "id": 5129392114,
  "lat": 49.6118544,
  "lon": 6.1336400
},
{
  "type": "node",
  "id": 5129595010,
  "lat": 49.6097151,
  "lon": 6.1335079
},
{
  "type": "node",
  "id": 5129595011,
  "lat": 49.6097058,
  "lon": 6.1335022
},
{
  "type": "node",
  "id": 5319044118,
  "lat": 49.6115809,
  "lon": 6.1337906
},
{
  "type": "node",
  "id": 370137618,
  "lat": 49.6100430,
  "lon": 6.1356738
},
{
  "type": "node",
  "id": 386509784,
  "lat": 49.6100535,
  "lon": 6.1354606
},
{
  "type": "node",
  "id": 386509785,
  "lat": 49.6100372,
  "lon": 6.1357908
},
{
  "type": "node",
  "id": 386509788,
  "lat": 49.6095100,
  "lon": 6.1355434
},
{
  "type": "node",
  "id": 386509789,
  "lat": 49.6095868,
  "lon": 6.1355556
},
{
  "type": "node",
  "id": 899689860,
  "lat": 49.6095066,
  "lon": 6.1354362
},
{
  "type": "node",
  "id": 899690065,
  "lat": 49.6095841,
  "lon": 6.1354261
},
{
  "type": "node",
  "id": 1108878092,
  "lat": 49.6097842,
  "lon": 6.1354189
},
{
  "type": "node",
  "id": 1108878162,
  "lat": 49.6095320,
  "lon": 6.1356950
},
{
  "type": "node",
  "id": 1108878265,
  "lat": 49.6097796,
  "lon": 6.1355744
},
{
  "type": "node",
  "id": 1748751882,
  "lat": 49.6093395,
  "lon": 6.1356044
},
{
  "type": "node",
  "id": 3384072891,
  "lat": 49.6097723,
  "lon": 6.1357225
},
{
  "type": "node",
  "id": 4924103026,
  "lat": 49.6093610,
  "lon": 6.1357376
},
{
  "type": "node",
  "id": 4924103096,
  "lat": 49.6098483,
  "lon": 6.1356803
},
{
  "type": "node",
  "id": 4924103097,
  "lat": 49.6098919,
  "lon": 6.1356846
},
{
  "type": "node",
  "id": 4924103098,
  "lat": 49.6099468,
  "lon": 6.1356401
},
{
  "type": "node",
  "id": 4924103099,
  "lat": 49.6099517,
  "lon": 6.1355183
},
{
  "type": "node",
  "id": 4924103100,
  "lat": 49.6098552,
  "lon": 6.1355089
},
{
  "type": "node",
  "id": 4924103101,
  "lat": 49.6098939,
  "lon": 6.1356350
},
{
  "type": "node",
  "id": 4924103102,
  "lat": 49.6098894,
  "lon": 6.1357477
},
{
  "type": "node",
  "id": 4924103103,
  "lat": 49.6098465,
  "lon": 6.1357367
},
{
  "type": "node",
  "id": 66550399,
  "lat": 49.6172337,
  "lon": 6.1398785
},
{
  "type": "node",
  "id": 66550401,
  "lat": 49.6172378,
  "lon": 6.1405514
},
{
  "type": "node",
  "id": 66550403,
  "lat": 49.6165113,
  "lon": 6.1401211
},
{
  "type": "node",
  "id": 66550404,
  "lat": 49.6167926,
  "lon": 6.1401102
},
{
  "type": "node",
  "id": 66550406,
  "lat": 49.6169174,
  "lon": 6.1396637
},
{
  "type": "node",
  "id": 66550408,
  "lat": 49.6169436,
  "lon": 6.1394543
},
{
  "type": "node",
  "id": 634300836,
  "lat": 49.6165063,
  "lon": 6.1405951
},
{
  "type": "node",
  "id": 634300847,
  "lat": 49.6164326,
  "lon": 6.1405965
},
{
  "type": "node",
  "id": 634300861,
  "lat": 49.6164325,
  "lon": 6.1403949
},
{
  "type": "node",
  "id": 634300869,
  "lat": 49.6165880,
  "lon": 6.1402659
},
{
  "type": "node",
  "id": 634300875,
  "lat": 49.6165321,
  "lon": 6.1405523
},
{
  "type": "node",
  "id": 634300884,
  "lat": 49.6166188,
  "lon": 6.1403060
},
{
  "type": "node",
  "id": 634300890,
  "lat": 49.6165054,
  "lon": 6.1403943
},
{
  "type": "node",
  "id": 634300901,
  "lat": 49.6164027,
  "lon": 6.1404490
},
{
  "type": "node",
  "id": 634300912,
  "lat": 49.6165328,
  "lon": 6.1404378
},
{
  "type": "node",
  "id": 634300923,
  "lat": 49.6164019,
  "lon": 6.1405548
},
{
  "type": "node",
  "id": 634300939,
  "lat": 49.6171488,
  "lon": 6.1397561
},
{
  "type": "node",
  "id": 634300958,
  "lat": 49.6171454,
  "lon": 6.1395865
},
{
  "type": "node",
  "id": 634300970,
  "lat": 49.6170315,
  "lon": 6.1395838
},
{
  "type": "node",
  "id": 662559828,
  "lat": 49.6169412,
  "lon": 6.1398802
},
{
  "type": "node",
  "id": 662559829,
  "lat": 49.6169223,
  "lon": 6.1397704
},
{
  "type": "node",
  "id": 1748816936,
  "lat": 49.6165065,
  "lon": 6.1401340
},
{
  "type": "node",
  "id": 7095302057,
  "lat": 49.6172361,
  "lon": 6.1402975
},
{
  "type": "node",
  "id": 7095302062,
  "lat": 49.6170721,
  "lon": 6.1405541
},
{
  "type": "node",
  "id": 7095302080,
  "lat": 49.6168039,
  "lon": 6.1405621
},
{
  "type": "node",
  "id": 7096527205,
  "lat": 49.6169246,
  "lon": 6.1395572
},
{
  "type": "node",
  "id": 1333689517,
  "lat": 49.7015930,
  "lon": 6.1608764
},
{
  "type": "node",
  "id": 1333689521,
  "lat": 49.7015539,
  "lon": 6.1609943
},
{
  "type": "node",
  "id": 1333689522,
  "lat": 49.7013899,
  "lon": 6.1608640
},
{
  "type": "node",
  "id": 1333689523,
  "lat": 49.7014290,
  "lon": 6.1607461
},
{
  "type": "node",
  "id": 3188204378,
  "lat": 49.7963040,
  "lon": 5.9531406
},
{
  "type": "node",
  "id": 3188204382,
  "lat": 49.7963505,
  "lon": 5.9530769
},
{
  "type": "node",
  "id": 3188204390,
  "lat": 49.7963849,
  "lon": 5.9531372
},
{
  "type": "node",
  "id": 3188204391,
  "lat": 49.7963803,
  "lon": 5.9531436
},
{
  "type": "node",
  "id": 3188204392,
  "lat": 49.7963883,
  "lon": 5.9532882
},
{
  "type": "node",
  "id": 3188204395,
  "lat": 49.7964301,
  "lon": 5.9532309
},
{
  "type": "node",
  "id": 366042425,
  "lat": 49.8710596,
  "lon": 6.1593282
},
{
  "type": "node",
  "id": 366042428,
  "lat": 49.8711917,
  "lon": 6.1596800
},
{
  "type": "node",
  "id": 366042430,
  "lat": 49.8710526,
  "lon": 6.1598058
},
{
  "type": "node",
  "id": 366042432,
  "lat": 49.8711897,
  "lon": 6.1601709
},
{
  "type": "node",
  "id": 366042434,
  "lat": 49.8709905,
  "lon": 6.1603510
},
{
  "type": "node",
  "id": 366042439,
  "lat": 49.8707071,
  "lon": 6.1597223
},
{
  "type": "node",
  "id": 366042440,
  "lat": 49.8708964,
  "lon": 6.1595512
},
{
  "type": "node",
  "id": 366042441,
  "lat": 49.8708753,
  "lon": 6.1594949
},
{
  "type": "node",
  "id": 1334518864,
  "lat": 49.8707801,
  "lon": 6.1599164
},
{
  "type": "node",
  "id": 1334518880,
  "lat": 49.8708153,
  "lon": 6.1598846
},
{
  "type": "node",
  "id": 1805174965,
  "lat": 49.5289936,
  "lon": 6.3848077
},
{
  "type": "node",
  "id": 1805174968,
  "lat": 49.5291011,
  "lon": 6.3848269
},
{
  "type": "node",
  "id": 1805174970,
  "lat": 49.5291197,
  "lon": 6.3845797
},
{
  "type": "node",
  "id": 1805174971,
  "lat": 49.5290122,
  "lon": 6.3845605
},
{
  "type": "node",
  "id": 3065706662,
  "lat": 49.6832626,
  "lon": 6.4488409
},
{
  "type": "node",
  "id": 3065706663,
  "lat": 49.6832135,
  "lon": 6.4489842
},
{
  "type": "node",
  "id": 3065706664,
  "lat": 49.6835126,
  "lon": 6.4492235
},
{
  "type": "node",
  "id": 3065706666,
  "lat": 49.6831080,
  "lon": 6.4490271
},
{
  "type": "node",
  "id": 3065706667,
  "lat": 49.6831907,
  "lon": 6.4487834
},
{
  "type": "node",
  "id": 4791588237,
  "lat": 49.6834790,
  "lon": 6.4493239
},
{
  "type": "node",
  "id": 2524738391,
  "lat": 49.6078484,
  "lon": 6.5512664
},
{
  "type": "node",
  "id": 2524738392,
  "lat": 49.6078192,
  "lon": 6.5513126
},
{
  "type": "node",
  "id": 2524738393,
  "lat": 49.6077874,
  "lon": 6.5515295
},
{
  "type": "node",
  "id": 2524738395,
  "lat": 49.6078641,
  "lon": 6.5516437
},
{
  "type": "node",
  "id": 2524738396,
  "lat": 49.6078539,
  "lon": 6.5515545
},
{
  "type": "node",
  "id": 2524738397,
  "lat": 49.6079019,
  "lon": 6.5515409
},
{
  "type": "node",
  "id": 2524738398,
  "lat": 49.6078942,
  "lon": 6.5514352
},
{
  "type": "node",
  "id": 4692766773,
  "lat": 49.6078679,
  "lon": 6.5513212
},
{
  "type": "node",
  "id": 4692766774,
  "lat": 49.6078770,
  "lon": 6.5514364
},
{
  "type": "node",
  "id": 4692766775,
  "lat": 49.6078055,
  "lon": 6.5513540
},
{
  "type": "node",
  "id": 4692766776,
  "lat": 49.6077847,
  "lon": 6.5514176
},
{
  "type": "node",
  "id": 4692766777,
  "lat": 49.6077830,
  "lon": 6.5514802
},
{
  "type": "node",
  "id": 4692766778,
  "lat": 49.6078025,
  "lon": 6.5516653
},
{
  "type": "node",
  "id": 1305007545,
  "lat": 49.6098994,
  "lon": 6.5572881
},
{
  "type": "node",
  "id": 1305007546,
  "lat": 49.6100381,
  "lon": 6.5569229
},
{
  "type": "node",
  "id": 1305007548,
  "lat": 49.6101522,
  "lon": 6.5570398
},
{
  "type": "node",
  "id": 2286776966,
  "lat": 49.6098498,
  "lon": 6.5570590
},
{
  "type": "node",
  "id": 2286776969,
  "lat": 49.6098981,
  "lon": 6.5570999
},
{
  "type": "node",
  "id": 2414298323,
  "lat": 49.6099572,
  "lon": 6.5571501
},
{
  "type": "node",
  "id": 2414298328,
  "lat": 49.6099308,
  "lon": 6.5568318
},
{
  "type": "node",
  "id": 6763093987,
  "lat": 49.6101161,
  "lon": 6.5571352
},
{
  "type": "node",
  "id": 6763093998,
  "lat": 49.6100157,
  "lon": 6.5574005
},
{
  "type": "node",
  "id": 3386125621,
  "lat": 49.7096223,
  "lon": 6.5046113
},
{
  "type": "node",
  "id": 3386125622,
  "lat": 49.7096340,
  "lon": 6.5047275
},
{
  "type": "node",
  "id": 3386125629,
  "lat": 49.7097230,
  "lon": 6.5047060
},
{
  "type": "node",
  "id": 4483645419,
  "lat": 49.7097113,
  "lon": 6.5045898
},
{
  "type": "node",
  "id": 727781554,
  "lat": 49.7054954,
  "lon": 6.5957516
},
{
  "type": "node",
  "id": 727781563,
  "lat": 49.7055475,
  "lon": 6.5993344
},
{
  "type": "node",
  "id": 727781583,
  "lat": 49.7047688,
  "lon": 6.5964738
},
{
  "type": "node",
  "id": 727781623,
  "lat": 49.7054882,
  "lon": 6.5960824
},
{
  "type": "node",
  "id": 727781649,
  "lat": 49.7048836,
  "lon": 6.5987258
},
{
  "type": "node",
  "id": 2081235276,
  "lat": 49.7051089,
  "lon": 6.5985587
},
{
  "type": "node",
  "id": 2081235290,
  "lat": 49.7054337,
  "lon": 6.5962038
},
{
  "type": "node",
  "id": 2081235294,
  "lat": 49.7054667,
  "lon": 6.5961703
},
{
  "type": "node",
  "id": 2489112633,
  "lat": 49.7040470,
  "lon": 6.5972186
},
{
  "type": "node",
  "id": 2489112639,
  "lat": 49.7045643,
  "lon": 6.5964616
},
{
  "type": "node",
  "id": 727781572,
  "lat": 49.7065468,
  "lon": 6.5988362
},
{
  "type": "node",
  "id": 727781640,
  "lat": 49.7058044,
  "lon": 6.5956194
},
{
  "type": "node",
  "id": 727781651,
  "lat": 49.7062770,
  "lon": 6.5952996
},
{
  "type": "node",
  "id": 1304648217,
  "lat": 49.7059559,
  "lon": 6.5956878
},
{
  "type": "node",
  "id": 1304648223,
  "lat": 49.7061503,
  "lon": 6.5951204
},
{
  "type": "node",
  "id": 1304648249,
  "lat": 49.7064207,
  "lon": 6.5974015
},
{
  "type": "node",
  "id": 1304648281,
  "lat": 49.7064683,
  "lon": 6.5980525
},
{
  "type": "node",
  "id": 2081235306,
  "lat": 49.7059086,
  "lon": 6.5956835
},
{
  "type": "node",
  "id": 1304648211,
  "lat": 49.7058673,
  "lon": 6.5998641
},
{
  "type": "node",
  "id": 736465917,
  "lat": 49.8037573,
  "lon": 6.4126095
},
{
  "type": "node",
  "id": 736466069,
  "lat": 49.8040255,
  "lon": 6.4120437
},
{
  "type": "node",
  "id": 4092493456,
  "lat": 49.8039708,
  "lon": 6.4128829
},
{
  "type": "node",
  "id": 4092493457,
  "lat": 49.8040458,
  "lon": 6.4120688
},
{
  "type": "node",
  "id": 4092493462,
  "lat": 49.8039043,
  "lon": 6.4123340
},
{
  "type": "node",
  "id": 736465935,
  "lat": 49.8043401,
  "lon": 6.4133557
},
{
  "type": "node",
  "id": 736465948,
  "lat": 49.8050757,
  "lon": 6.4119602
},
{
  "type": "node",
  "id": 736466087,
  "lat": 49.8041046,
  "lon": 6.4118908
},
{
  "type": "node",
  "id": 2670621919,
  "lat": 49.8043251,
  "lon": 6.4115423
},
{
  "type": "node",
  "id": 2864742869,
  "lat": 49.8045361,
  "lon": 6.4129839
},
{
  "type": "node",
  "id": 2864742889,
  "lat": 49.8050797,
  "lon": 6.4117766
},
{
  "type": "node",
  "id": 4092707429,
  "lat": 49.8041248,
  "lon": 6.4119149
},
{
  "type": "node",
  "id": 4092707477,
  "lat": 49.8042338,
  "lon": 6.4117118
},
{
  "type": "node",
  "id": 4092708289,
  "lat": 49.8045657,
  "lon": 6.4110950
},
{
  "type": "node",
  "id": 4092708291,
  "lat": 49.8048259,
  "lon": 6.4114400
},
{
  "type": "node",
  "id": 4092708299,
  "lat": 49.8046619,
  "lon": 6.4112225
},
{
  "type": "node",
  "id": 4092708322,
  "lat": 49.8046562,
  "lon": 6.4109277
},
{
  "type": "node",
  "id": 4092708323,
  "lat": 49.8047539,
  "lon": 6.4110597
},
{
  "type": "node",
  "id": 4094380422,
  "lat": 49.8047163,
  "lon": 6.4126421
},
{
  "type": "node",
  "id": 4095144107,
  "lat": 49.8049775,
  "lon": 6.4116411
},
{
  "type": "node",
  "id": 1098658805,
  "lat": 49.8127776,
  "lon": 6.4232327
},
{
  "type": "node",
  "id": 1098658813,
  "lat": 49.8128861,
  "lon": 6.4232463
},
{
  "type": "node",
  "id": 1098658817,
  "lat": 49.8128981,
  "lon": 6.4230152
},
{
  "type": "node",
  "id": 1098658829,
  "lat": 49.8127896,
  "lon": 6.4230016
},
{
  "type": "node",
  "id": 2525491829,
  "lat": 49.8128250,
  "lon": 6.4230061
},
{
  "type": "way",
  "id": 115535188,
  "nodes": [
    1305007545,
    2414298323,
    1305007546,
    1305007548,
    6763093987,
    6763093998,
    1305007545
  ]
},
{
  "type": "way",
  "id": 233087058,
  "nodes": [
    2414298328,
    1305007546,
    2414298323,
    2286776969,
    2286776966,
    2414298328
  ]
}

  ]
}
