{
  "version": 0.6,
  "generator": "Overpass API 0.7.55.1011 6c2efc30",
  "osm3s": {
    "timestamp_osm_base": "2020-02-14T13:09:02Z",
    "copyright": "The data included in this document is from www.openstreetmap.org. The data is made available under ODbL."
  },
  "elements": [

{
  "type": "node",
  "id": 352743162,
  "lat": 47.7930794,
  "lon": -4.2834941,
  "tags": {
    "layer": "2",
    "name": "Haliotika",
    "tourism": "museum",
    "website": "http://www.haliotika.com/"
  }
},
{
  "type": "node",
  "id": 1162498487,
  "lat": 47.9962360,
  "lon": -4.1023420,
  "tags": {
    "addr:city": "Quimper",
    "addr:postcode": "29000",
    "addr:street": "Place Saint-Corentin",
    "name": "Musée des Beaux-Arts",
    "name:br": "Mirdi an Arzoù-Kaer",
    "opening_hours": "9:30-12:00, 14:00-18:00; Tu off",
    "operator": "Commune de Quimper",
    "phone": "+33298954520",
    "tourism": "museum",
    "website": "http://www.mbaq.fr/",
    "wikidata": "Q3330220",
    "wikipedia": "fr:Musée des beaux-arts de Quimper"
  }
},
{
  "type": "node",
  "id": 1200509257,
  "lat": 48.0569211,
  "lon": -3.6539461,
  "tags": {
    "amenity": "reception_desk",
    "level": "0",
    "name": "Gare de Guiscriff",
    "opening_hours": "Tu-Su 10:30-18:30; Sep-Mar off",
    "source": "Survey",
    "tourism": "museum",
    "website": "https://www.lagaredeguiscriff.com/",
    "wheelchair": "designated",
    "wikidata": "Q17373215"
  }
},
{
  "type": "node",
  "id": 1354802421,
  "lat": 47.9892400,
  "lon": -4.1122190,
  "tags": {
    "addr:city": "Quimper",
    "addr:country": "FR",
    "addr:housenumber": "14",
    "addr:postcode": "29000",
    "addr:street": "Rue Jean-Baptiste Bousquet",
    "description": "Exhibitions of earthenware pieces with information on centenary industry",
    "name": "Musée de la Faïence de Quimper",
    "name:br": "Mirdi ar Feilhañserezh Kemper",
    "opening_hours": "Apr Mo [2]-Oct Sa [2] 10:00-18:00",
    "phone": "+33 298 901272",
    "source:name:br": "proper translation",
    "tourism": "museum",
    "website": "http://ww.musee-faience-quimper.com",
    "wheelchair": "yes",
    "wikidata": "Q23013069"
  }
},
{
  "type": "node",
  "id": 1458523215,
  "lat": 48.2448847,
  "lon": -4.2263366,
  "tags": {
    "contact:phone": "+33 2 98 26 04 72",
    "fee": "yes",
    "name": "Musée de l'école rurale en Bretagne",
    "tourism": "museum",
    "website": "http://musee-ecole.fr/"
  }
},
{
  "type": "node",
  "id": 2132097968,
  "lat": 48.0986852,
  "lon": -4.2072456,
  "tags": {
    "name": "Musée Municipal",
    "tourism": "museum",
    "wheelchair": "limited"
  }
},
{
  "type": "node",
  "id": 4232411213,
  "lat": 48.0409706,
  "lon": -4.4880399,
  "tags": {
    "heritage": "3",
    "heritage:operator": "mhs",
    "mhs:inscription_date": "1993-12-03",
    "name": "Maison du Marquisat",
    "name:br": "Ti ar Markiz",
    "ref:mhs": "PA00125342",
    "source": "cadastre-dgi-fr source : Direction Générale des Impôts - Cadastre. Mise à jour : 2016",
    "source:heritage": "Ministère de la Culture - 07/2018",
    "source:name:br": "ofis publik ar brezhoneg",
    "tourism": "museum",
    "wikidata": "Q22968794"
  }
},
{
  "type": "node",
  "id": 4565441493,
  "lat": 48.0931365,
  "lon": -4.3341842,
  "tags": {
    "name": "Bateaux-musées",
    "name:en": "Museum-boats",
    "tourism": "museum"
  }
},
{
  "type": "node",
  "id": 6711762263,
  "lat": 48.0230757,
  "lon": -4.5398300,
  "tags": {
    "contact:phone": "+33 2 98 70 27 49",
    "fee": "yes",
    "name": "Musée Maritime du Cap-Sizun",
    "tourism": "museum",
    "website": "http://museemaritime.fr/",
    "wikidata": "Q26257872",
    "wikipedia": "fr:Musée maritime du Cap-Sizun"
  }
},
{
  "type": "node",
  "id": 6854194626,
  "lat": 47.8685176,
  "lon": -3.9169786,
  "tags": {
    "email": "contact.concarneau@mnhn.fr",
    "name": "Marinarum",
    "opening_hours": "Apr-Jun 10:00-12:00,14:00-18:00; SH 10:00-12:00,14:00-18:00; Jul-Aug 10:00-19:00; Sep-Dec 14:00-18:00; Feb-Mar 14:00-18:00",
    "operator": "MNHN",
    "phone": "0033298508164",
    "tourism": "museum",
    "website": "http://www.stationmarinedeconcarneau.fr/"
  }
},
{
  "type": "way",
  "id": 40686013,
  "nodes": [
    494173339,
    1371656067,
    1371699321,
    494173331,
    832432148,
    1371672970,
    832432136,
    1371663616,
    1371631927,
    1371675857,
    1371640854,
    1371684334,
    1371652875,
    1371666644,
    1371634608,
    1371678445,
    1371646748,
    1371643866,
    494173337,
    1371662424,
    1371630734,
    494173339
  ],
  "tags": {
    "name": "Port-musée",
    "name:br": "Porzh-Mirdi",
    "name:en": "Boat Museum",
    "source:name:br": "survey",
    "tourism": "museum",
    "website": "http://www.port-musee.org/",
    "wikipedia": "fr:Port-musée de Douarnenez"
  }
},
{
  "type": "way",
  "id": 53965753,
  "nodes": [
    680827504,
    680827506,
    680827508,
    680827510,
    680827512,
    680827515,
    680827517,
    680827504
  ],
  "tags": {
    "building": "yes",
    "tourism": "museum"
  }
},
{
  "type": "way",
  "id": 53965826,
  "nodes": [
    680827512,
    680827510,
    680827508,
    680827769,
    680827770,
    680827762,
    680827763,
    680827764,
    680827765,
    680827766,
    680827767,
    680827757,
    680827758,
    680827759,
    680827517,
    680827515,
    680827512
  ],
  "tags": {
    "building": "yes",
    "name": "Musée des vieux métiers",
    "tourism": "museum"
  }
},
{
  "type": "way",
  "id": 53965833,
  "nodes": [
    680827771,
    680827774,
    680827775,
    680827776,
    680827777,
    680827778,
    680827779,
    680827780,
    680827782,
    680827783,
    680827784,
    680827785,
    680827786,
    680827787,
    680827788,
    680827789,
    680827790,
    680827506,
    680827504,
    680827791,
    680827792,
    680827793,
    680827794,
    680827796,
    680827771
  ],
  "tags": {
    "building": "yes",
    "tourism": "museum"
  }
},
{
  "type": "way",
  "id": 53993190,
  "nodes": [
    680961008,
    680961009,
    680961010,
    680961011,
    680960957,
    680960958,
    680960959,
    680960960,
    680960961,
    680960962,
    680960963,
    680960964,
    680960978,
    680960979,
    680960980,
    680960981,
    680960967,
    680960968,
    680960969,
    680960970,
    680960971,
    680960972,
    680960941,
    680960942,
    680960943,
    680960944,
    680960945,
    680960946,
    680960948,
    680960949,
    680960950,
    5915909375,
    5915909376,
    5915909377,
    680960990,
    680960991,
    680960954,
    680960955,
    680960956,
    680961006,
    680961007,
    680961008
  ],
  "tags": {
    "building": "yes",
    "source": "CCPC/DGFiP mars2010;cadastre-dgi-fr source : PaysDeBrest - 20100331",
    "tourism": "museum"
  }
},
{
  "type": "way",
  "id": 66604805,
  "nodes": [
    805658821,
    805691515,
    805729412,
    805686521,
    805681217,
    805735204,
    805658821
  ],
  "tags": {
    "building": "yes",
    "name": "Canot \"Papa Poydenot\"",
    "source": "cadastre-dgi-fr source : Direction Générale des Impôts - Cadastre. Mise à jour : 2010",
    "tourism": "museum",
    "website": "http://www.papapoydenot.fr/",
    "wikipedia": "fr:Papa Poydenot"
  }
},
{
  "type": "way",
  "id": 66615882,
  "nodes": [
    805775678,
    805783135,
    805696362,
    805705196,
    805755970,
    805690544,
    805768533,
    805653718,
    805775678
  ],
  "tags": {
    "building": "yes",
    "heritage": "2",
    "heritage:operator": "mhs",
    "mhs:inscription_date": "1925-05-18",
    "name": "Musée préhistorique à Pors Carn",
    "ref:mhs": "PA00090156",
    "source": "cadastre-dgi-fr source : Direction Générale des Impôts - Cadastre. Mise à jour : 2010",
    "source:heritage": "data.gouv.fr, Ministère de la Culture - 2016",
    "tourism": "museum",
    "wikidata": "Q22926065",
    "wikipedia": "fr:Musée de la préhistoire finistérienne"
  }
},
{
  "type": "way",
  "id": 84081121,
  "nodes": [
    978162793,
    978143666,
    978160527,
    978155659,
    978143477,
    978163321,
    978155943,
    978148868,
    978157921,
    978144460,
    978153230,
    978148516,
    978150398,
    978151782,
    978143238,
    978155338,
    978147960,
    978157843,
    978160525,
    978153377,
    978155851,
    978151806,
    978155745,
    978158720,
    978155970,
    978162793
  ],
  "tags": {
    "building": "yes",
    "contact:phone": "+33 2 98 06 14 43",
    "fee": "yes",
    "name": "Musée de Pont-Aven",
    "official_name": "Musée",
    "phone": "+33 2 98 06 14 43",
    "ref:FR:museofile": "M0205",
    "source": "cadastre-dgi-fr source : Direction Générale des Impôts - Cadastre. Mise à jour : 2010",
    "tourism": "museum",
    "website": "https://www.museepontaven.fr/",
    "wikidata": "Q3330214",
    "wikipedia": "fr:Musée de Pont-Aven"
  }
},
{
  "type": "way",
  "id": 94312010,
  "nodes": [
    1095539608,
    1095250027,
    1095678525,
    1095382995,
    6545196733,
    1095120611,
    1764200961,
    1095558950,
    1095263268,
    1095409496,
    1095155451,
    1095577086,
    1095572365,
    1095272150,
    1094975716,
    1095427819,
    1095177439,
    1095592206,
    1095283693,
    1095001559,
    1095453173,
    1095199391,
    1095612312,
    1095539608
  ],
  "tags": {
    "addr:city": "Quimper",
    "addr:housenumber": "1",
    "addr:postcode": "29000",
    "addr:street": "Rue du Roi Gradlon",
    "alt_name": "Ancien Évêché",
    "alt_name:br": "Eskopti kozh",
    "building": "yes",
    "building:levels": "3",
    "contact:email": "musee.breton@cg29.fr",
    "fax": "+33 298 958969",
    "heritage": "2",
    "heritage:operator": "mhs",
    "mhs:inscription_date": "1921-08-08",
    "name": "Musée départemental breton",
    "name:br": "Mirdi breizhek an Departamant",
    "opening_hours": "Tu-Sa 9:00-12:30, 13:30-17:00; Su 13:30-17:00; PH off; Jun 15-Sep 27 9:00-18:00",
    "operator": "Conseil départemental du Finistère",
    "phone": "+33 298 952160",
    "ref:mhs": "PA00090331",
    "source": "cadastre-dgi-fr source : Direction Générale des Impôts - Cadastre. Mise à jour : 2010",
    "source:heritage": "Ministère de la Culture - 06/2019",
    "source:name:br": "survey",
    "tourism": "museum",
    "website": "http://musee-breton.finistere.fr/",
    "wheelchair": "yes",
    "wikidata": "Q2386980",
    "wikipedia": "fr:Musée départemental breton"
  }
},
{
  "type": "way",
  "id": 180624719,
  "nodes": [
    1910598607,
    1910598385,
    1910597890,
    1910597856,
    1910597927,
    1910598954,
    1910597801,
    1910598971,
    1910598166,
    1910598876,
    1910598607
  ],
  "tags": {
    "tourism": "museum"
  }
},
{
  "type": "way",
  "id": 188566238,
  "nodes": [
    1991942367,
    1991942351,
    1991942353,
    1991942340,
    1991942336,
    1991942311,
    1991942308,
    1991942320,
    1991942330,
    1991942349,
    1991942313,
    1991942363,
    1991942364,
    1991942365,
    1991942367
  ],
  "tags": {
    "access": "customers",
    "building": "yes",
    "name": "Centre d'Interprétation Archéologique",
    "source": "cadastre-dgi-fr source : Direction Générale des Impôts - Cadastre. Mise à jour : 2012",
    "tourism": "museum"
  }
},
{
  "type": "way",
  "id": 235741593,
  "nodes": [
    2437985870,
    2437985875,
    2437985878,
    2437985876,
    2437985873,
    2437985872,
    2437985870
  ],
  "tags": {
    "building": "yes",
    "name": "Maison Henaff - Musée",
    "tourism": "museum"
  }
},
{
  "type": "way",
  "id": 262769334,
  "nodes": [
    2684221047,
    2684221064,
    2684221073,
    2684221078,
    2684221059,
    2684221053,
    2684221055,
    2684221025,
    2684221024,
    2684221023,
    2684221029,
    2684221035,
    2684221041,
    2684221028,
    2684221034,
    2684221027,
    2684221047
  ],
  "tags": {
    "addr:city": "Pouldreuzic",
    "addr:housenumber": "30",
    "addr:postcode": "29710",
    "addr:street": "Rue du Port",
    "building": "yes",
    "name": "Maison de l'Amiral",
    "phone": "+33 2 98 51 52 52",
    "source": "cadastre-dgi-fr source : Direction Générale des Finances Publiques - Cadastre. Mise à jour : 2014",
    "tourism": "museum",
    "website": "http://www.museedelamiral.com/"
  }
},
{
  "type": "way",
  "id": 727602505,
  "nodes": [
    1058935190,
    6818463104,
    6818463105,
    6818463106,
    6818463107,
    6818463108,
    6818463109,
    6818463110,
    6818463111,
    6818463112,
    6949357490,
    6818463114,
    6818463115,
    6818463118,
    6818463119,
    6818463120,
    6818463121,
    6818463122,
    6845716489,
    6818463123,
    6818463124,
    6818463125,
    6818463126,
    1058932501,
    6818463127,
    1058947002,
    1058941646,
    1058929069,
    1058942019,
    1058928604,
    1058950585,
    1058936778,
    1058925454,
    1058935190
  ],
  "tags": {
    "name": "Manoir de Squividan",
    "name:br": "Maner Skividan",
    "operator": "Conseil départemental du Finistère",
    "tourism": "museum"
  }
},
{
  "type": "relation",
  "id": 3986935,
  "members": [
    {
      "type": "way",
      "ref": 299792794,
      "role": "inner"
    },
    {
      "type": "way",
      "ref": 116403263,
      "role": "outer"
    }
  ],
  "tags": {
    "building": "civic",
    "name": "Musée de la Pêche",
    "old_name": "Ancienne caserne Hervo",
    "phone": "+33 2 98 97 10 20",
    "source": "cadastre-dgi-fr source : Direction Générale des Impôts - Cadastre. Mise à jour : 2014",
    "tourism": "museum",
    "type": "multipolygon",
    "website": "https://www.musee-peche.fr/",
    "wikidata": "Q3330064"
  }
},
{
  "type": "node",
  "id": 805658821,
  "lat": 47.7980445,
  "lon": -4.3733806
},
{
  "type": "node",
  "id": 805681217,
  "lat": 47.7980638,
  "lon": -4.3735577
},
{
  "type": "node",
  "id": 805686521,
  "lat": 47.7980906,
  "lon": -4.3734505
},
{
  "type": "node",
  "id": 805691515,
  "lat": 47.7980514,
  "lon": -4.3733502
},
{
  "type": "node",
  "id": 805729412,
  "lat": 47.7981079,
  "lon": -4.3733818
},
{
  "type": "node",
  "id": 805735204,
  "lat": 47.7980086,
  "lon": -4.3735235
},
{
  "type": "node",
  "id": 805653718,
  "lat": 47.8261144,
  "lon": -4.3636802
},
{
  "type": "node",
  "id": 805690544,
  "lat": 47.8257738,
  "lon": -4.3636207
},
{
  "type": "node",
  "id": 805696362,
  "lat": 47.8259617,
  "lon": -4.3637761
},
{
  "type": "node",
  "id": 805705196,
  "lat": 47.8258390,
  "lon": -4.3636787
},
{
  "type": "node",
  "id": 805755970,
  "lat": 47.8258412,
  "lon": -4.3636726
},
{
  "type": "node",
  "id": 805768533,
  "lat": 47.8258340,
  "lon": -4.3634480
},
{
  "type": "node",
  "id": 805775678,
  "lat": 47.8260533,
  "lon": -4.3638424
},
{
  "type": "node",
  "id": 805783135,
  "lat": 47.8259631,
  "lon": -4.3637728
},
{
  "type": "node",
  "id": 1991942308,
  "lat": 47.9871730,
  "lon": -4.4741780
},
{
  "type": "node",
  "id": 1991942311,
  "lat": 47.9871790,
  "lon": -4.4742170
},
{
  "type": "node",
  "id": 1991942313,
  "lat": 47.9871840,
  "lon": -4.4740140
},
{
  "type": "node",
  "id": 1991942320,
  "lat": 47.9871900,
  "lon": -4.4741720
},
{
  "type": "node",
  "id": 1991942330,
  "lat": 47.9871940,
  "lon": -4.4741910
},
{
  "type": "node",
  "id": 1991942336,
  "lat": 47.9871970,
  "lon": -4.4742100
},
{
  "type": "node",
  "id": 1991942340,
  "lat": 47.9872010,
  "lon": -4.4742360
},
{
  "type": "node",
  "id": 1991942349,
  "lat": 47.9872110,
  "lon": -4.4741850
},
{
  "type": "node",
  "id": 1991942351,
  "lat": 47.9872170,
  "lon": -4.4742120
},
{
  "type": "node",
  "id": 1991942353,
  "lat": 47.9872200,
  "lon": -4.4742280
},
{
  "type": "node",
  "id": 1991942363,
  "lat": 47.9872410,
  "lon": -4.4739940
},
{
  "type": "node",
  "id": 1991942364,
  "lat": 47.9872540,
  "lon": -4.4740700
},
{
  "type": "node",
  "id": 1991942365,
  "lat": 47.9872690,
  "lon": -4.4741750
},
{
  "type": "node",
  "id": 1991942367,
  "lat": 47.9872720,
  "lon": -4.4741930
},
{
  "type": "node",
  "id": 2684221023,
  "lat": 47.9406690,
  "lon": -4.4040790
},
{
  "type": "node",
  "id": 2684221024,
  "lat": 47.9406690,
  "lon": -4.4041080
},
{
  "type": "node",
  "id": 2684221025,
  "lat": 47.9406700,
  "lon": -4.4041340
},
{
  "type": "node",
  "id": 2684221029,
  "lat": 47.9406740,
  "lon": -4.4040420
},
{
  "type": "node",
  "id": 2684221053,
  "lat": 47.9407580,
  "lon": -4.4042170
},
{
  "type": "node",
  "id": 2684221055,
  "lat": 47.9407630,
  "lon": -4.4042020
},
{
  "type": "node",
  "id": 2684221059,
  "lat": 47.9408090,
  "lon": -4.4042530
},
{
  "type": "node",
  "id": 2684221027,
  "lat": 47.9406730,
  "lon": -4.4039490
},
{
  "type": "node",
  "id": 2684221028,
  "lat": 47.9406740,
  "lon": -4.4039640
},
{
  "type": "node",
  "id": 2684221034,
  "lat": 47.9406780,
  "lon": -4.4039520
},
{
  "type": "node",
  "id": 2684221035,
  "lat": 47.9406790,
  "lon": -4.4040120
},
{
  "type": "node",
  "id": 2684221041,
  "lat": 47.9406890,
  "lon": -4.4039760
},
{
  "type": "node",
  "id": 2684221047,
  "lat": 47.9407060,
  "lon": -4.4038500
},
{
  "type": "node",
  "id": 2684221064,
  "lat": 47.9408335,
  "lon": -4.4039564
},
{
  "type": "node",
  "id": 2684221073,
  "lat": 47.9408719,
  "lon": -4.4039884
},
{
  "type": "node",
  "id": 2684221078,
  "lat": 47.9408870,
  "lon": -4.4040010
},
{
  "type": "node",
  "id": 2437985870,
  "lat": 47.9542482,
  "lon": -4.3713242
},
{
  "type": "node",
  "id": 2437985873,
  "lat": 47.9543612,
  "lon": -4.3712904
},
{
  "type": "node",
  "id": 2437985875,
  "lat": 47.9544193,
  "lon": -4.3714140
},
{
  "type": "node",
  "id": 2437985872,
  "lat": 47.9542736,
  "lon": -4.3712408
},
{
  "type": "node",
  "id": 2437985876,
  "lat": 47.9544288,
  "lon": -4.3710412
},
{
  "type": "node",
  "id": 2437985878,
  "lat": 47.9545048,
  "lon": -4.3710697
},
{
  "type": "node",
  "id": 494173331,
  "lat": 48.0926614,
  "lon": -4.3324382
},
{
  "type": "node",
  "id": 494173337,
  "lat": 48.0921860,
  "lon": -4.3327291
},
{
  "type": "node",
  "id": 494173339,
  "lat": 48.0924360,
  "lon": -4.3329470
},
{
  "type": "node",
  "id": 832432136,
  "lat": 48.0926360,
  "lon": -4.3320220
},
{
  "type": "node",
  "id": 832432148,
  "lat": 48.0926060,
  "lon": -4.3323790
},
{
  "type": "node",
  "id": 1371630734,
  "lat": 48.0922950,
  "lon": -4.3328230
},
{
  "type": "node",
  "id": 1371631927,
  "lat": 48.0925980,
  "lon": -4.3320170
},
{
  "type": "node",
  "id": 1371634608,
  "lat": 48.0923890,
  "lon": -4.3322760
},
{
  "type": "node",
  "id": 1371640854,
  "lat": 48.0925610,
  "lon": -4.3321580
},
{
  "type": "node",
  "id": 1371643866,
  "lat": 48.0922170,
  "lon": -4.3326280
},
{
  "type": "node",
  "id": 1371646748,
  "lat": 48.0923670,
  "lon": -4.3322800
},
{
  "type": "node",
  "id": 1371652875,
  "lat": 48.0924210,
  "lon": -4.3322740
},
{
  "type": "node",
  "id": 1371656067,
  "lat": 48.0926280,
  "lon": -4.3325050
},
{
  "type": "node",
  "id": 1371662424,
  "lat": 48.0922030,
  "lon": -4.3327420
},
{
  "type": "node",
  "id": 1371663616,
  "lat": 48.0925990,
  "lon": -4.3320160
},
{
  "type": "node",
  "id": 1371666644,
  "lat": 48.0924000,
  "lon": -4.3322510
},
{
  "type": "node",
  "id": 1371672970,
  "lat": 48.0926390,
  "lon": -4.3320230
},
{
  "type": "node",
  "id": 1371675857,
  "lat": 48.0925710,
  "lon": -4.3320290
},
{
  "type": "node",
  "id": 1371678445,
  "lat": 48.0923860,
  "lon": -4.3322720
},
{
  "type": "node",
  "id": 1371684334,
  "lat": 48.0924270,
  "lon": -4.3322400
},
{
  "type": "node",
  "id": 1371699321,
  "lat": 48.0926290,
  "lon": -4.3325030
},
{
  "type": "node",
  "id": 1910597801,
  "lat": 48.2472102,
  "lon": -4.3191072
},
{
  "type": "node",
  "id": 1910598954,
  "lat": 48.2465013,
  "lon": -4.3191752
},
{
  "type": "node",
  "id": 680827504,
  "lat": 48.2467510,
  "lon": -4.3184253
},
{
  "type": "node",
  "id": 680827506,
  "lat": 48.2467865,
  "lon": -4.3184231
},
{
  "type": "node",
  "id": 680827508,
  "lat": 48.2467816,
  "lon": -4.3182549
},
{
  "type": "node",
  "id": 680827510,
  "lat": 48.2467811,
  "lon": -4.3182394
},
{
  "type": "node",
  "id": 680827512,
  "lat": 48.2467502,
  "lon": -4.3182417
},
{
  "type": "node",
  "id": 680827515,
  "lat": 48.2467505,
  "lon": -4.3182524
},
{
  "type": "node",
  "id": 680827517,
  "lat": 48.2467473,
  "lon": -4.3182526
},
{
  "type": "node",
  "id": 680827757,
  "lat": 48.2464835,
  "lon": -4.3182780
},
{
  "type": "node",
  "id": 680827758,
  "lat": 48.2465841,
  "lon": -4.3182753
},
{
  "type": "node",
  "id": 680827759,
  "lat": 48.2465866,
  "lon": -4.3182603
},
{
  "type": "node",
  "id": 680827762,
  "lat": 48.2468310,
  "lon": -4.3181684
},
{
  "type": "node",
  "id": 680827763,
  "lat": 48.2468001,
  "lon": -4.3181703
},
{
  "type": "node",
  "id": 680827764,
  "lat": 48.2467915,
  "lon": -4.3180127
},
{
  "type": "node",
  "id": 680827765,
  "lat": 48.2467338,
  "lon": -4.3180196
},
{
  "type": "node",
  "id": 680827766,
  "lat": 48.2467419,
  "lon": -4.3181689
},
{
  "type": "node",
  "id": 680827767,
  "lat": 48.2464837,
  "lon": -4.3181930
},
{
  "type": "node",
  "id": 680827769,
  "lat": 48.2468766,
  "lon": -4.3182471
},
{
  "type": "node",
  "id": 680827770,
  "lat": 48.2468736,
  "lon": -4.3181656
},
{
  "type": "node",
  "id": 680827771,
  "lat": 48.2465033,
  "lon": -4.3186243
},
{
  "type": "node",
  "id": 680827774,
  "lat": 48.2466751,
  "lon": -4.3186135
},
{
  "type": "node",
  "id": 680827775,
  "lat": 48.2466733,
  "lon": -4.3185528
},
{
  "type": "node",
  "id": 680827776,
  "lat": 48.2467023,
  "lon": -4.3185509
},
{
  "type": "node",
  "id": 680827777,
  "lat": 48.2467039,
  "lon": -4.3186114
},
{
  "type": "node",
  "id": 680827778,
  "lat": 48.2468867,
  "lon": -4.3185992
},
{
  "type": "node",
  "id": 680827779,
  "lat": 48.2468850,
  "lon": -4.3185406
},
{
  "type": "node",
  "id": 680827780,
  "lat": 48.2469141,
  "lon": -4.3185387
},
{
  "type": "node",
  "id": 680827782,
  "lat": 48.2469157,
  "lon": -4.3185973
},
{
  "type": "node",
  "id": 680827783,
  "lat": 48.2469522,
  "lon": -4.3185951
},
{
  "type": "node",
  "id": 680827784,
  "lat": 48.2469539,
  "lon": -4.3186515
},
{
  "type": "node",
  "id": 680827785,
  "lat": 48.2470579,
  "lon": -4.3186448
},
{
  "type": "node",
  "id": 680827786,
  "lat": 48.2470508,
  "lon": -4.3184058
},
{
  "type": "node",
  "id": 680827787,
  "lat": 48.2469102,
  "lon": -4.3184152
},
{
  "type": "node",
  "id": 680827788,
  "lat": 48.2469115,
  "lon": -4.3184578
},
{
  "type": "node",
  "id": 680827789,
  "lat": 48.2468822,
  "lon": -4.3184597
},
{
  "type": "node",
  "id": 680827790,
  "lat": 48.2468810,
  "lon": -4.3184168
},
{
  "type": "node",
  "id": 680827791,
  "lat": 48.2466975,
  "lon": -4.3184289
},
{
  "type": "node",
  "id": 680827792,
  "lat": 48.2466987,
  "lon": -4.3184722
},
{
  "type": "node",
  "id": 680827793,
  "lat": 48.2466705,
  "lon": -4.3184740
},
{
  "type": "node",
  "id": 680827794,
  "lat": 48.2466692,
  "lon": -4.3184310
},
{
  "type": "node",
  "id": 680827796,
  "lat": 48.2464982,
  "lon": -4.3184418
},
{
  "type": "node",
  "id": 1910597856,
  "lat": 48.2464209,
  "lon": -4.3179517
},
{
  "type": "node",
  "id": 1910597890,
  "lat": 48.2464067,
  "lon": -4.3179165
},
{
  "type": "node",
  "id": 1910597927,
  "lat": 48.2464746,
  "lon": -4.3186943
},
{
  "type": "node",
  "id": 1910598166,
  "lat": 48.2470390,
  "lon": -4.3179166
},
{
  "type": "node",
  "id": 1910598385,
  "lat": 48.2463978,
  "lon": -4.3177555
},
{
  "type": "node",
  "id": 1910598607,
  "lat": 48.2464514,
  "lon": -4.3176952
},
{
  "type": "node",
  "id": 1910598876,
  "lat": 48.2468765,
  "lon": -4.3178306
},
{
  "type": "node",
  "id": 1910598971,
  "lat": 48.2471170,
  "lon": -4.3180447
},
{
  "type": "node",
  "id": 1058925454,
  "lat": 47.9120780,
  "lon": -4.0770000
},
{
  "type": "node",
  "id": 1058928604,
  "lat": 47.9121170,
  "lon": -4.0767780
},
{
  "type": "node",
  "id": 1058929069,
  "lat": 47.9121390,
  "lon": -4.0765220
},
{
  "type": "node",
  "id": 1058935190,
  "lat": 47.9120530,
  "lon": -4.0770940
},
{
  "type": "node",
  "id": 1058936778,
  "lat": 47.9120980,
  "lon": -4.0769250
},
{
  "type": "node",
  "id": 1058941646,
  "lat": 47.9121350,
  "lon": -4.0764470
},
{
  "type": "node",
  "id": 1058942019,
  "lat": 47.9121350,
  "lon": -4.0765930
},
{
  "type": "node",
  "id": 1058947002,
  "lat": 47.9121310,
  "lon": -4.0763690
},
{
  "type": "node",
  "id": 1058950585,
  "lat": 47.9121050,
  "lon": -4.0768910
},
{
  "type": "node",
  "id": 6818463104,
  "lat": 47.9120178,
  "lon": -4.0772002
},
{
  "type": "node",
  "id": 6818463105,
  "lat": 47.9119729,
  "lon": -4.0773129
},
{
  "type": "node",
  "id": 6818463106,
  "lat": 47.9119396,
  "lon": -4.0773343
},
{
  "type": "node",
  "id": 6818463107,
  "lat": 47.9118345,
  "lon": -4.0773021
},
{
  "type": "node",
  "id": 6818463108,
  "lat": 47.9117661,
  "lon": -4.0773035
},
{
  "type": "node",
  "id": 6818463109,
  "lat": 47.9117284,
  "lon": -4.0773410
},
{
  "type": "node",
  "id": 6818463110,
  "lat": 47.9117077,
  "lon": -4.0773772
},
{
  "type": "node",
  "id": 6818463111,
  "lat": 47.9116969,
  "lon": -4.0774255
},
{
  "type": "node",
  "id": 6818463112,
  "lat": 47.9116727,
  "lon": -4.0775006
},
{
  "type": "node",
  "id": 6818463114,
  "lat": 47.9109544,
  "lon": -4.0772498
},
{
  "type": "node",
  "id": 6818463115,
  "lat": 47.9106713,
  "lon": -4.0771613
},
{
  "type": "node",
  "id": 6949357490,
  "lat": 47.9109526,
  "lon": -4.0773075
},
{
  "type": "node",
  "id": 1058932501,
  "lat": 47.9120880,
  "lon": -4.0760340
},
{
  "type": "node",
  "id": 6818463118,
  "lat": 47.9109652,
  "lon": -4.0752650
},
{
  "type": "node",
  "id": 6818463119,
  "lat": 47.9110830,
  "lon": -4.0749230
},
{
  "type": "node",
  "id": 6818463120,
  "lat": 47.9111108,
  "lon": -4.0748909
},
{
  "type": "node",
  "id": 6818463121,
  "lat": 47.9114470,
  "lon": -4.0747500
},
{
  "type": "node",
  "id": 6818463122,
  "lat": 47.9114857,
  "lon": -4.0747326
},
{
  "type": "node",
  "id": 6818463123,
  "lat": 47.9117733,
  "lon": -4.0747178
},
{
  "type": "node",
  "id": 6818463124,
  "lat": 47.9120403,
  "lon": -4.0747165
},
{
  "type": "node",
  "id": 6818463125,
  "lat": 47.9120691,
  "lon": -4.0747742
},
{
  "type": "node",
  "id": 6818463126,
  "lat": 47.9120106,
  "lon": -4.0754139
},
{
  "type": "node",
  "id": 6818463127,
  "lat": 47.9121284,
  "lon": -4.0763097
},
{
  "type": "node",
  "id": 6845716489,
  "lat": 47.9116277,
  "lon": -4.0747259
},
{
  "type": "node",
  "id": 1095120611,
  "lat": 47.9952400,
  "lon": -4.1026000
},
{
  "type": "node",
  "id": 1095558950,
  "lat": 47.9950520,
  "lon": -4.1025750
},
{
  "type": "node",
  "id": 1764200961,
  "lat": 47.9951313,
  "lon": -4.1025855
},
{
  "type": "node",
  "id": 1095382995,
  "lat": 47.9954950,
  "lon": -4.1026000
},
{
  "type": "node",
  "id": 1095678525,
  "lat": 47.9954950,
  "lon": -4.1025930
},
{
  "type": "node",
  "id": 6545196733,
  "lat": 47.9954826,
  "lon": -4.1026000
},
{
  "type": "node",
  "id": 1094975716,
  "lat": 47.9952410,
  "lon": -4.1020780
},
{
  "type": "node",
  "id": 1095001559,
  "lat": 47.9952410,
  "lon": -4.1022790
},
{
  "type": "node",
  "id": 1095155451,
  "lat": 47.9952010,
  "lon": -4.1020390
},
{
  "type": "node",
  "id": 1095177439,
  "lat": 47.9952450,
  "lon": -4.1021860
},
{
  "type": "node",
  "id": 1095199391,
  "lat": 47.9951980,
  "lon": -4.1023960
},
{
  "type": "node",
  "id": 1095263268,
  "lat": 47.9951760,
  "lon": -4.1020160
},
{
  "type": "node",
  "id": 1095272150,
  "lat": 47.9952460,
  "lon": -4.1020600
},
{
  "type": "node",
  "id": 1095283693,
  "lat": 47.9952540,
  "lon": -4.1022300
},
{
  "type": "node",
  "id": 1095409496,
  "lat": 47.9951970,
  "lon": -4.1020340
},
{
  "type": "node",
  "id": 1095427819,
  "lat": 47.9952680,
  "lon": -4.1020930
},
{
  "type": "node",
  "id": 1095453173,
  "lat": 47.9952260,
  "lon": -4.1022700
},
{
  "type": "node",
  "id": 1095539608,
  "lat": 47.9952580,
  "lon": -4.1024760
},
{
  "type": "node",
  "id": 1095572365,
  "lat": 47.9952380,
  "lon": -4.1020360
},
{
  "type": "node",
  "id": 1095577086,
  "lat": 47.9952160,
  "lon": -4.1020240
},
{
  "type": "node",
  "id": 1095592206,
  "lat": 47.9952620,
  "lon": -4.1021950
},
{
  "type": "node",
  "id": 1095612312,
  "lat": 47.9952290,
  "lon": -4.1024110
},
{
  "type": "node",
  "id": 1095250027,
  "lat": 47.9954770,
  "lon": -4.1024720
},
{
  "type": "node",
  "id": 1312322650,
  "lat": 47.8720427,
  "lon": -3.9160905
},
{
  "type": "node",
  "id": 1312322653,
  "lat": 47.8721513,
  "lon": -3.9154183
},
{
  "type": "node",
  "id": 1312322669,
  "lat": 47.8724188,
  "lon": -3.9156729
},
{
  "type": "node",
  "id": 1312322670,
  "lat": 47.8722389,
  "lon": -3.9160499
},
{
  "type": "node",
  "id": 1312322671,
  "lat": 47.8720114,
  "lon": -3.9159736
},
{
  "type": "node",
  "id": 1312322673,
  "lat": 47.8719512,
  "lon": -3.9159022
},
{
  "type": "node",
  "id": 1312322681,
  "lat": 47.8719621,
  "lon": -3.9159782
},
{
  "type": "node",
  "id": 1312322695,
  "lat": 47.8720013,
  "lon": -3.9160596
},
{
  "type": "node",
  "id": 1312322705,
  "lat": 47.8722035,
  "lon": -3.9161439
},
{
  "type": "node",
  "id": 1312322721,
  "lat": 47.8720667,
  "lon": -3.9160248
},
{
  "type": "node",
  "id": 1312322722,
  "lat": 47.8719568,
  "lon": -3.9159069
},
{
  "type": "node",
  "id": 1312322729,
  "lat": 47.8722575,
  "lon": -3.9160654
},
{
  "type": "node",
  "id": 1312322740,
  "lat": 47.8719984,
  "lon": -3.9160084
},
{
  "type": "node",
  "id": 1312322741,
  "lat": 47.8719463,
  "lon": -3.9159152
},
{
  "type": "node",
  "id": 1312322750,
  "lat": 47.8720033,
  "lon": -3.9160544
},
{
  "type": "node",
  "id": 1312322757,
  "lat": 47.8719481,
  "lon": -3.9160138
},
{
  "type": "node",
  "id": 3038730429,
  "lat": 47.8720694,
  "lon": -3.9158572
},
{
  "type": "node",
  "id": 3038730739,
  "lat": 47.8721660,
  "lon": -3.9159457
},
{
  "type": "node",
  "id": 3038730744,
  "lat": 47.8721604,
  "lon": -3.9155979
},
{
  "type": "node",
  "id": 3038730755,
  "lat": 47.8722634,
  "lon": -3.9157005
},
{
  "type": "node",
  "id": 5794224291,
  "lat": 47.8721131,
  "lon": -3.9160652
},
{
  "type": "node",
  "id": 5794302549,
  "lat": 47.8722366,
  "lon": -3.9157680
},
{
  "type": "node",
  "id": 5794302554,
  "lat": 47.8721096,
  "lon": -3.9157427
},
{
  "type": "node",
  "id": 978143238,
  "lat": 47.8550867,
  "lon": -3.7465536
},
{
  "type": "node",
  "id": 978143477,
  "lat": 47.8552333,
  "lon": -3.7464603
},
{
  "type": "node",
  "id": 978143666,
  "lat": 47.8552059,
  "lon": -3.7463902
},
{
  "type": "node",
  "id": 978144460,
  "lat": 47.8551367,
  "lon": -3.7466198
},
{
  "type": "node",
  "id": 978147960,
  "lat": 47.8549280,
  "lon": -3.7465799
},
{
  "type": "node",
  "id": 978148516,
  "lat": 47.8551309,
  "lon": -3.7465272
},
{
  "type": "node",
  "id": 978148868,
  "lat": 47.8551555,
  "lon": -3.7469137
},
{
  "type": "node",
  "id": 978150398,
  "lat": 47.8551063,
  "lon": -3.7465330
},
{
  "type": "node",
  "id": 978151782,
  "lat": 47.8551075,
  "lon": -3.7465474
},
{
  "type": "node",
  "id": 978151806,
  "lat": 47.8551941,
  "lon": -3.7463106
},
{
  "type": "node",
  "id": 978153230,
  "lat": 47.8551332,
  "lon": -3.7465629
},
{
  "type": "node",
  "id": 978153377,
  "lat": 47.8550680,
  "lon": -3.7462688
},
{
  "type": "node",
  "id": 978155338,
  "lat": 47.8550850,
  "lon": -3.7465466
},
{
  "type": "node",
  "id": 978155659,
  "lat": 47.8552114,
  "lon": -3.7464659
},
{
  "type": "node",
  "id": 978155745,
  "lat": 47.8551917,
  "lon": -3.7463129
},
{
  "type": "node",
  "id": 978155851,
  "lat": 47.8551828,
  "lon": -3.7462394
},
{
  "type": "node",
  "id": 978155943,
  "lat": 47.8552641,
  "lon": -3.7469041
},
{
  "type": "node",
  "id": 978155970,
  "lat": 47.8551383,
  "lon": -3.7464057
},
{
  "type": "node",
  "id": 978157843,
  "lat": 47.8549232,
  "lon": -3.7464627
},
{
  "type": "node",
  "id": 978157921,
  "lat": 47.8551412,
  "lon": -3.7466901
},
{
  "type": "node",
  "id": 978158720,
  "lat": 47.8551306,
  "lon": -3.7463308
},
{
  "type": "node",
  "id": 978160525,
  "lat": 47.8550842,
  "lon": -3.7464213
},
{
  "type": "node",
  "id": 978160527,
  "lat": 47.8552068,
  "lon": -3.7464046
},
{
  "type": "node",
  "id": 978162793,
  "lat": 47.8552026,
  "lon": -3.7463909
},
{
  "type": "node",
  "id": 978163321,
  "lat": 47.8552451,
  "lon": -3.7466218
},
{
  "type": "node",
  "id": 680960941,
  "lat": 48.2900465,
  "lon": -4.2674617
},
{
  "type": "node",
  "id": 680960942,
  "lat": 48.2900581,
  "lon": -4.2674230
},
{
  "type": "node",
  "id": 680960943,
  "lat": 48.2901064,
  "lon": -4.2674617
},
{
  "type": "node",
  "id": 680960944,
  "lat": 48.2901882,
  "lon": -4.2672354
},
{
  "type": "node",
  "id": 680960945,
  "lat": 48.2901393,
  "lon": -4.2671912
},
{
  "type": "node",
  "id": 680960946,
  "lat": 48.2901825,
  "lon": -4.2670602
},
{
  "type": "node",
  "id": 680960954,
  "lat": 48.2901544,
  "lon": -4.2669025
},
{
  "type": "node",
  "id": 680960955,
  "lat": 48.2901566,
  "lon": -4.2668876
},
{
  "type": "node",
  "id": 680960956,
  "lat": 48.2901607,
  "lon": -4.2668756
},
{
  "type": "node",
  "id": 680960957,
  "lat": 48.2900773,
  "lon": -4.2667525
},
{
  "type": "node",
  "id": 680960958,
  "lat": 48.2900788,
  "lon": -4.2668081
},
{
  "type": "node",
  "id": 680960959,
  "lat": 48.2900941,
  "lon": -4.2668340
},
{
  "type": "node",
  "id": 680960960,
  "lat": 48.2900851,
  "lon": -4.2668538
},
{
  "type": "node",
  "id": 680960961,
  "lat": 48.2900659,
  "lon": -4.2668692
},
{
  "type": "node",
  "id": 680960962,
  "lat": 48.2900372,
  "lon": -4.2668454
},
{
  "type": "node",
  "id": 680960963,
  "lat": 48.2900312,
  "lon": -4.2668562
},
{
  "type": "node",
  "id": 680960964,
  "lat": 48.2900017,
  "lon": -4.2668309
},
{
  "type": "node",
  "id": 680960967,
  "lat": 48.2899843,
  "lon": -4.2671705
},
{
  "type": "node",
  "id": 680960968,
  "lat": 48.2900053,
  "lon": -4.2671873
},
{
  "type": "node",
  "id": 680960969,
  "lat": 48.2899549,
  "lon": -4.2673470
},
{
  "type": "node",
  "id": 680960970,
  "lat": 48.2899845,
  "lon": -4.2673706
},
{
  "type": "node",
  "id": 680960971,
  "lat": 48.2900002,
  "lon": -4.2673831
},
{
  "type": "node",
  "id": 680960972,
  "lat": 48.2899868,
  "lon": -4.2674179
},
{
  "type": "node",
  "id": 680960978,
  "lat": 48.2899893,
  "lon": -4.2668202
},
{
  "type": "node",
  "id": 680960979,
  "lat": 48.2899695,
  "lon": -4.2668818
},
{
  "type": "node",
  "id": 680960980,
  "lat": 48.2899923,
  "lon": -4.2668995
},
{
  "type": "node",
  "id": 680960981,
  "lat": 48.2899191,
  "lon": -4.2671183
},
{
  "type": "node",
  "id": 680961006,
  "lat": 48.2901823,
  "lon": -4.2668071
},
{
  "type": "node",
  "id": 680961007,
  "lat": 48.2901578,
  "lon": -4.2667710
},
{
  "type": "node",
  "id": 680961008,
  "lat": 48.2901139,
  "lon": -4.2667063
},
{
  "type": "node",
  "id": 680961009,
  "lat": 48.2900638,
  "lon": -4.2666326
},
{
  "type": "node",
  "id": 680961010,
  "lat": 48.2900169,
  "lon": -4.2667039
},
{
  "type": "node",
  "id": 680961011,
  "lat": 48.2900559,
  "lon": -4.2667572
},
{
  "type": "node",
  "id": 680960948,
  "lat": 48.2902755,
  "lon": -4.2671338
},
{
  "type": "node",
  "id": 680960949,
  "lat": 48.2903005,
  "lon": -4.2670719
},
{
  "type": "node",
  "id": 680960950,
  "lat": 48.2902713,
  "lon": -4.2670415
},
{
  "type": "node",
  "id": 680960990,
  "lat": 48.2902342,
  "lon": -4.2669673
},
{
  "type": "node",
  "id": 680960991,
  "lat": 48.2902217,
  "lon": -4.2669635
},
{
  "type": "node",
  "id": 5915909375,
  "lat": 48.2902745,
  "lon": -4.2670209
},
{
  "type": "node",
  "id": 5915909376,
  "lat": 48.2902482,
  "lon": -4.2670145
},
{
  "type": "node",
  "id": 5915909377,
  "lat": 48.2902330,
  "lon": -4.2669869
},
{
  "type": "way",
  "id": 116403263,
  "nodes": [
    1312322669,
    1312322729,
    1312322670,
    1312322705,
    5794224291,
    1312322721,
    1312322650,
    1312322695,
    1312322750,
    1312322757,
    1312322681,
    1312322740,
    1312322671,
    1312322741,
    1312322673,
    1312322722,
    1312322653,
    1312322669
  ]
},
{
  "type": "way",
  "id": 299792794,
  "nodes": [
    3038730755,
    3038730744,
    5794302554,
    3038730429,
    3038730739,
    5794302549,
    3038730755
  ]
}

  ]
}
