{
  "version": 0.6,
  "generator": "Overpass API 0.7.55.1011 6c2efc30",
  "osm3s": {
    "timestamp_osm_base": "2020-02-14T16:50:02Z",
    "copyright": "The data included in this document is from www.openstreetmap.org. The data is made available under ODbL."
  },
  "elements": [

{
  "type": "node",
  "id": 253468101,
  "lat": 46.5091778,
  "lon": 6.4982644,
  "tags": {
    "name": "Musée Forel",
    "opening_hours": "Tu-Su 14:00-18:00",
    "tourism": "museum",
    "wikidata": "Q3329046"
  }
},
{
  "type": "node",
  "id": 429358960,
  "lat": 46.3799759,
  "lon": 6.2403229,
  "tags": {
    "name": "Musée du Léman",
    "opening_hours": "Apr-Oct Tu-Su 10:00-17:00; Nov-Mar Tu-Su 14:00-17:00",
    "phone": "+41 22 316 42 50",
    "tourism": "museum",
    "website": "https://www.museeduleman.ch/",
    "wheelchair": "yes",
    "wikidata": "Q644296"
  }
},
{
  "type": "node",
  "id": 429660690,
  "lat": 46.3812118,
  "lon": 6.2399422,
  "tags": {
    "name": "Musée Romain",
    "opening_hours": "Apr-Oct Tu-Su 10:00-17:00; Nov-Mar Tu-Su 14:00-17:00",
    "phone": "+41 22 316 42 80",
    "tourism": "museum",
    "website": "https://www.mrn.ch/",
    "wikidata": "Q643983"
  }
},
{
  "type": "node",
  "id": 474658708,
  "lat": 46.1165072,
  "lon": 6.3683091,
  "tags": {
    "name": "Expomusee",
    "tourism": "museum"
  }
},
{
  "type": "node",
  "id": 481408209,
  "lat": 46.1977904,
  "lon": 6.1373069,
  "tags": {
    "addr:city": "Genève",
    "addr:country": "CH",
    "addr:housenumber": "65",
    "addr:postcode": "1205",
    "addr:street": "Boulevard Carl Vogt",
    "name": "MEG: Musée d'Ethnographie de Genève",
    "tourism": "museum",
    "website": "http://www.ville-ge.ch/meg/",
    "wikidata": "Q1955752"
  }
},
{
  "type": "node",
  "id": 486032307,
  "lat": 46.5205705,
  "lon": 6.0226517,
  "tags": {
    "addr:city": "Morez",
    "addr:postcode": "39400",
    "addr:street": "Place Jean Jaurès",
    "name": "Musée de la lunette",
    "operator": "Mairie de Morez",
    "phone": "+33 3 84 33 39 30",
    "tourism": "museum",
    "website": "http://www.musee-lunette.fr",
    "wikidata": "Q15651003",
    "wikipedia": "fr:Musée de la lunette de Morez"
  }
},
{
  "type": "node",
  "id": 682260369,
  "lat": 46.5111232,
  "lon": 6.3668691,
  "tags": {
    "name": "Musée du Bois",
    "tourism": "museum",
    "wikidata": "Q27479581"
  }
},
{
  "type": "node",
  "id": 701851300,
  "lat": 46.2339717,
  "lon": 6.0557211,
  "tags": {
    "name:en": "The Globe of Science and Innovation",
    "name:es": "Globo de la Ciencia y de la Innovación",
    "name:fr": "Globe de la Science et de L'innovation",
    "opening_hours": "Mo-Sa 10:00-17:00; Su off",
    "operator": "CERN",
    "tourism": "museum",
    "wikidata": "Q7736814",
    "wikipedia": "en:The Globe of Science and Innovation"
  }
},
{
  "type": "node",
  "id": 701851798,
  "lat": 46.2327054,
  "lon": 6.0557659,
  "tags": {
    "name": "Microcosm",
    "opening_hours": "Mo-Fr 08:30-17:30; Sa 09:00-17:00; Su off",
    "tourism": "museum",
    "website": "http://microcosm.web.cern.ch"
  }
},
{
  "type": "node",
  "id": 981690477,
  "lat": 46.1842913,
  "lon": 6.1391515,
  "tags": {
    "addr:city": "Carouge (GE)",
    "addr:housenumber": "2",
    "addr:postcode": "1227",
    "addr:street": "Place de Sardaigne",
    "name": "Musée de Carouge",
    "tourism": "museum",
    "website": "https://www.carouge.ch/musee",
    "wheelchair": "yes"
  }
},
{
  "type": "node",
  "id": 983366077,
  "lat": 46.1982817,
  "lon": 6.1089823,
  "tags": {
    "addr:housenumber": "4",
    "addr:postcode": "1213",
    "addr:street": "Route du Pont-Butin",
    "name": "Musée de l'EAN",
    "name:de": "Arquebusemuseum",
    "name:fr": "Musée des EAN",
    "phone": "+41227923146",
    "tourism": "museum",
    "website": "http://www.arquebuse.ch/gen_pages.php?f=musee_ferme.txt"
  }
},
{
  "type": "node",
  "id": 995696434,
  "lat": 46.5803831,
  "lon": 6.2084367,
  "tags": {
    "name": "Musée Audemars-Piguet",
    "opening_hours": "\"On invitation\"",
    "tourism": "museum",
    "wikidata": "Q27483983"
  }
},
{
  "type": "node",
  "id": 1150390160,
  "lat": 46.3941172,
  "lon": 6.2518864,
  "tags": {
    "addr:housenumber": "3",
    "addr:street": "Avenue du Général Guiguer",
    "name": "Musée National Suisse",
    "opening_hours": "Tu-Su 10:00-17:00",
    "phone": "+41 22 994 88 90",
    "tourism": "museum",
    "website": "http://chateaudepragins.ch"
  }
},
{
  "type": "node",
  "id": 1207861986,
  "lat": 46.5087600,
  "lon": 6.4992433,
  "tags": {
    "addr:city": "Morges",
    "addr:country": "CH",
    "addr:postcode": "1110",
    "addr:street": "Rue Louis de Savoie",
    "level": "0",
    "name": "Maison du Dessin de Presse",
    "phone": "+41 (0) 21 801 58 15",
    "tourism": "museum",
    "website": "http://mddp.ch/"
  }
},
{
  "type": "node",
  "id": 1268936116,
  "lat": 46.3345768,
  "lon": 6.0655512,
  "tags": {
    "name": "Musée Départemental des Sapeurs Pompiers",
    "tourism": "museum"
  }
},
{
  "type": "node",
  "id": 1427064702,
  "lat": 46.2866985,
  "lon": 6.1563829,
  "tags": {
    "tourism": "museum"
  }
},
{
  "type": "node",
  "id": 1447469236,
  "lat": 46.1977280,
  "lon": 6.1508676,
  "tags": {
    "addr:city": "Genève",
    "addr:housenumber": "2",
    "addr:street": "Terrasse de Saint-Victor",
    "description": "Fermé définitivement",
    "name": "Petit-Palais",
    "tourism": "museum",
    "wikidata": "Q25917792"
  }
},
{
  "type": "node",
  "id": 1461102398,
  "lat": 46.1975981,
  "lon": 6.1532892,
  "tags": {
    "FIXME": "Double ?",
    "name": "Fondation Baur",
    "name:en": "Museum of Far Eastern Art",
    "tourism": "museum",
    "website": "http://fondation-baur.ch",
    "wikidata": "Q27481219"
  }
},
{
  "type": "node",
  "id": 1481473698,
  "lat": 46.2075839,
  "lon": 6.1336577,
  "tags": {
    "name": "Musée Voltaire",
    "name:en": "Voltaire Museum",
    "name:fr": "Musée Voltaire",
    "tourism": "museum"
  }
},
{
  "type": "node",
  "id": 1716046922,
  "lat": 46.5252049,
  "lon": 6.6235504,
  "tags": {
    "name": "Musée de la machine à écrire",
    "tourism": "museum",
    "wikidata": "Q3330027",
    "wikipedia": "fr:Musée de la machine à écrire de Lausanne"
  }
},
{
  "type": "node",
  "id": 1768216261,
  "lat": 46.2208268,
  "lon": 6.1520970,
  "tags": {
    "name": "Musée d'histoire des sciences",
    "name:ru": "Музей естественной истории",
    "name:zh": "科学历史博物馆",
    "source": "survey",
    "tourism": "museum",
    "wikidata": "Q19824862"
  }
},
{
  "type": "node",
  "id": 1848644645,
  "lat": 46.5371627,
  "lon": 6.1387190,
  "tags": {
    "contact:email": "contact@museedelaboissellerie.com",
    "contact:phone": "+33 3 84 60 98 79",
    "contact:website": "http://museedelaboissellerie.com/",
    "name": "Musée de la Boissellerie",
    "tourism": "museum",
    "wheelchair": "yes"
  }
},
{
  "type": "node",
  "id": 1981204487,
  "lat": 46.4684877,
  "lon": 6.3343048,
  "tags": {
    "name": "Musée du Vigneron",
    "tourism": "museum"
  }
},
{
  "type": "node",
  "id": 2021513198,
  "lat": 46.1992863,
  "lon": 6.1376416,
  "tags": {
    "addr:city": "Genève",
    "addr:housenumber": "34",
    "addr:postcode": "1205",
    "addr:street": "Rue des Bains",
    "name": "Mamco: Musée d'art moderne et contemporain",
    "name:en": "Mamco- modern and contemporary art museum",
    "name:fr": "Mamco- musée d'art moderne et contemporain",
    "name:zh": "现当代艺术博物馆",
    "opening_hours": "Tu-Fr 12:00-18:00; Sa-Su 11:00-18:00",
    "phone": "+41 22 320 61 22",
    "source": "survey",
    "tourism": "museum",
    "website": "https://www.mamco.ch/",
    "wikidata": "Q3329535"
  }
},
{
  "type": "node",
  "id": 2021514567,
  "lat": 46.1985076,
  "lon": 6.1373644,
  "tags": {
    "tourism": "museum"
  }
},
{
  "type": "node",
  "id": 2157985977,
  "lat": 46.1976471,
  "lon": 6.1533690,
  "tags": {
    "FIXME": "Double ?",
    "addr:city": "Genève",
    "addr:country": "CH",
    "addr:housenumber": "8",
    "addr:street": "Rue Munier-Romilly",
    "name": "Fondatio Baur",
    "note": "surveyed by Alex-7",
    "source": "survey",
    "survey:date": "2013-02-16",
    "tourism": "museum"
  }
},
{
  "type": "node",
  "id": 2178312845,
  "lat": 46.2255170,
  "lon": 6.0830497,
  "tags": {
    "addr:city": "Meyrin",
    "addr:housename": "Vivarium de Meyrin",
    "addr:housenumber": "32A",
    "addr:postcode": "1217",
    "addr:street": "Rue du Cardinal-Journet",
    "name": "Vivarium de Meyrin",
    "phone": "+41 22 785 60 60",
    "tourism": "museum",
    "website": "http://www.vivariumdemeyrin.ch/",
    "wheelchair": "yes"
  }
},
{
  "type": "node",
  "id": 2338867803,
  "lat": 46.5076835,
  "lon": 6.4977854,
  "tags": {
    "addr:city": "Morges",
    "addr:country": "CH",
    "addr:housenumber": "73-75",
    "addr:postcode": "1110",
    "name": "Expo Fondation Bolle",
    "opening_hours": "We-Su 14:00-18:00",
    "operator": "Salvatore Gervasi",
    "phone": "+41 79 349 22 91",
    "tourism": "museum",
    "website": "http://www.fondationbolle.ch/"
  }
},
{
  "type": "node",
  "id": 2362831289,
  "lat": 46.2013411,
  "lon": 6.1465766,
  "tags": {
    "name": "Espace Rousseau",
    "name:en": "House of Rousseau and Literature",
    "name:zh": "卢梭故居",
    "tourism": "museum"
  }
},
{
  "type": "node",
  "id": 2504644178,
  "lat": 46.3655497,
  "lon": 5.9950622,
  "tags": {
    "name": "Musée du lapidaire et des pierres fines et précieuses",
    "tourism": "museum",
    "wikipedia": "fr:Musée du lapidaire et des pierres fines et précieuses de Mijoux"
  }
},
{
  "type": "node",
  "id": 2622206214,
  "lat": 46.6041493,
  "lon": 6.2272390,
  "tags": {
    "name": "Espace Horloger Vallée de Joux",
    "tourism": "museum",
    "website": "http://www.espacehorloger.ch/Page.aspx?id=Welcome",
    "wikidata": "Q27483976"
  }
},
{
  "type": "node",
  "id": 2732858435,
  "lat": 46.5068063,
  "lon": 6.4967953,
  "tags": {
    "addr:city": "Morges",
    "addr:country": "CH",
    "addr:housenumber": "1",
    "addr:postcode": "1110",
    "addr:street": "Rue du Château",
    "level": "0,1,2",
    "name": "Musée Militaire",
    "operator": "Musée Militaire Vaudois",
    "phone": "+41 (0) 21 316 09 90",
    "tourism": "museum",
    "website": "http://www.chateau-morges.ch/expositions/exposition-permanente/histoire-militaire-vaudoise/",
    "wikidata": "Q3330647",
    "wikipedia": "fr:Musée militaire vaudois"
  }
},
{
  "type": "node",
  "id": 2967665134,
  "lat": 46.5204879,
  "lon": 6.6349907,
  "tags": {
    "addr:street": "Rue du Rôtillon",
    "fee": "no",
    "name": "Musée de la Chaussure",
    "name:de": "Schuhmuseum",
    "name:en": "Shoe Museum",
    "operator": "Association du Musée de la Chaussure",
    "phone": "+41 (0)21 312 06 77",
    "tourism": "museum",
    "website": "http://www.shoemuseum.ch",
    "wheelchair": "yes",
    "wikipedia": "en:Shoe museum lau"
  }
},
{
  "type": "node",
  "id": 2967834673,
  "lat": 46.5234534,
  "lon": 6.6335999,
  "tags": {
    "addr:floor": "3",
    "addr:housenumber": "6",
    "addr:street": "Place de la Riponne",
    "name": "Musée monétaire cantonal",
    "opening_hours": "Tu-Th 11:00-18:00; Fr-Su 11:00-17:00; PH 11:00-17:00",
    "phone": "+41 (0) 21 316 39 90",
    "tourism": "museum",
    "website": "http://www.musees.vd.ch/musee-monetaire/",
    "wheelchair": "yes",
    "wikidata": "Q14630546"
  }
},
{
  "type": "node",
  "id": 2967837255,
  "lat": 46.5232458,
  "lon": 6.6335449,
  "tags": {
    "addr:floor": "1",
    "addr:housenumber": "6",
    "addr:street": "Place de la Riponne",
    "name": "Musée cantonal d'archéologie et d'histoire",
    "opening_hours": "Fr-Su 11:00-17:00; Tu-Th 11:00-18:00; PH 11:00-17:00",
    "phone": "+41 (0) 21 316 34 30",
    "tourism": "museum",
    "website": "http://www.musees.vd.ch/musee-darcheologie-et-dhistoire/",
    "wheelchair": "yes",
    "wikidata": "Q3329513"
  }
},
{
  "type": "node",
  "id": 2967837258,
  "lat": 46.5237396,
  "lon": 6.6341561,
  "tags": {
    "addr:floor": "5",
    "addr:housenumber": "6",
    "addr:street": "Place de la Riponne",
    "name": "Musée cantonal de zoologie",
    "opening_hours": "Tu-Th 11:00-18:00; Fr-Su 11:00-17:00; PH 11:00-17:00",
    "phone": "+41 (0) 21 316 34 60",
    "tourism": "museum",
    "website": "http://www.musees.vd.ch/musee-de-zoologie/",
    "wheelchair": "yes",
    "wikidata": "Q14630553"
  }
},
{
  "type": "node",
  "id": 2967845363,
  "lat": 46.5232696,
  "lon": 6.6337546,
  "tags": {
    "addr:floor": "3",
    "addr:housenumber": "6",
    "addr:street": "Place de la Riponne",
    "name": "Musée cantonal de géologie",
    "opening_hours": "Tu-Th 11:00-18:00; Fr-Su 11:00-17:00; PH 11:00-17:00",
    "phone": "+41 (0) 21 316 33 10",
    "tourism": "museum",
    "website": "http://www.unil.ch/mcg/",
    "wheelchair": "yes",
    "wikidata": "Q3329516"
  }
},
{
  "type": "node",
  "id": 3029387517,
  "lat": 46.5066494,
  "lon": 6.4967356,
  "tags": {
    "addr:city": "Morges",
    "addr:country": "CH",
    "addr:housenumber": "1",
    "addr:postcode": "1110",
    "addr:street": "Rue du Château",
    "level": "1",
    "name": "Musée de l'artillerie",
    "operator": "Musée Militaire Vaudois",
    "phone": "+41 (0) 21 316 09 90",
    "tourism": "museum",
    "website": "http://www.chateau-morges.ch/expositions/exposition-permanente/artillerie/",
    "wikidata": "Q3330647",
    "wikipedia": "fr:Musée militaire vaudois"
  }
},
{
  "type": "node",
  "id": 3029387518,
  "lat": 46.5067124,
  "lon": 6.4968351,
  "tags": {
    "addr:city": "Morges",
    "addr:country": "CH",
    "addr:housenumber": "1",
    "addr:postcode": "1110",
    "addr:street": "Rue du Château",
    "level": "2",
    "name": "Musée suisse de la figurine historique",
    "operator": "Musée Militaire Vaudois",
    "phone": "+41 (0) 21 316 09 90",
    "tourism": "museum",
    "website": "http://www.chateau-morges.ch/expositions/exposition-permanente/figurines-historiques/",
    "wikidata": "Q3330647",
    "wikipedia": "fr:Musée militaire vaudois"
  }
},
{
  "type": "node",
  "id": 3029387519,
  "lat": 46.5067644,
  "lon": 6.4966171,
  "tags": {
    "addr:city": "Morges",
    "addr:country": "CH",
    "addr:housenumber": "1",
    "addr:postcode": "1110",
    "addr:street": "Rue du Château",
    "level": "3",
    "name": "Musée de la gendarmerie vaudoise",
    "operator": "Musée Militaire Vaudois",
    "phone": "+41 (0) 21 316 09 90",
    "tourism": "museum",
    "website": "http://www.chateau-morges.ch/expositions/exposition-permanente/gendarmerie-vaudoise/",
    "wikidata": "Q3330647",
    "wikipedia": "fr:Musée militaire vaudois"
  }
},
{
  "type": "node",
  "id": 3436729151,
  "lat": 46.1984004,
  "lon": 6.1382674,
  "tags": {
    "addr:city": "Genève",
    "addr:housenumber": "7",
    "addr:postcode": "1205",
    "addr:street": "Rue des Vieux-Grenadiers",
    "name": "Patek Philippe Museum",
    "name:ru": "Музей Patek Philippe",
    "name:zh": "百达翡丽钟表博物馆",
    "opening_hours": "Tu-Fr 14:00-18:00; Sa 10:00-18:00",
    "phone": "+41 22 8070910",
    "tourism": "museum",
    "website": "http://www.patekmuseum.com/",
    "wikidata": "Q3329302"
  }
},
{
  "type": "node",
  "id": 3659114813,
  "lat": 46.1988648,
  "lon": 6.1375504,
  "tags": {
    "name": "Centre d’Art Contemporain Genève",
    "tourism": "museum",
    "wikidata": "Q683970"
  }
},
{
  "type": "node",
  "id": 4117238218,
  "lat": 46.5222197,
  "lon": 6.6349237,
  "tags": {
    "addr:housenumber": "4",
    "addr:street": "Place de la Cathédrale",
    "building": "yes",
    "name": "Musée Historique de Lausanne",
    "opening_hours": "Tu-Su 11:00-18:00",
    "phone": "+41 21 315 41 01",
    "source": "Lausanne - Orthophoto technique 2012",
    "tourism": "museum",
    "website": "http://lausanne.ch",
    "wikidata": "Q3330589",
    "wikipedia": "fr:Musée historique de Lausanne"
  }
},
{
  "type": "node",
  "id": 4159177394,
  "lat": 46.2022355,
  "lon": 6.1392711,
  "tags": {
    "addr:housenumber": "16",
    "addr:street": "Rue de l'Arquebuse",
    "name": "Next Door Gallery",
    "opening_hours": "We-Sa 13:30-17:30",
    "tourism": "museum"
  }
},
{
  "type": "node",
  "id": 4314538190,
  "lat": 46.4038678,
  "lon": 6.1905747,
  "tags": {
    "addr:city": "Gingins",
    "addr:housenumber": "61",
    "addr:street": "Route de Chiblins",
    "name": "Musée Romand de la Machine Agricole",
    "tourism": "museum",
    "wikidata": "Q3330780"
  }
},
{
  "type": "node",
  "id": 4620180209,
  "lat": 46.3819999,
  "lon": 6.2406689,
  "tags": {
    "name": "Château de Nyon",
    "opening_hours": "Apr-Oct Tu-Su 10:00-17:00; Nov-Mar Tu-Su 14:00-17:00",
    "phone": "+41 22 316 42 73",
    "tourism": "museum",
    "website": "https://www.chateaudenyon.ch/",
    "wikidata": "Q3330603"
  }
},
{
  "type": "node",
  "id": 4673743537,
  "lat": 46.2027105,
  "lon": 6.2491435,
  "tags": {
    "addr:housenumber": "1",
    "addr:street": "Rue du Commerce",
    "contact:mobile": "+33 6 10 57 57 04",
    "contact:phone": "+33 4 50 79 10 61",
    "name": "Musée du Batiment",
    "tourism": "museum"
  }
},
{
  "type": "node",
  "id": 4681396472,
  "lat": 46.2020320,
  "lon": 6.1466978,
  "tags": {
    "addr:city": "Genève",
    "addr:housenumber": "10",
    "addr:postcode": "1204",
    "addr:street": "Rue Jean-Calvin",
    "description": "Arts de l’Antiquité, de l’Afrique, de l’Asie et de l’Océanie",
    "email": "musee@barbier-mueller.ch",
    "name": "Musée Barbier-Mueller",
    "opening_hours": "11:00-17:00",
    "phone": "+41 22 312 02 70",
    "tourism": "museum",
    "website": "http://www.barbier-mueller.ch",
    "wikidata": "Q3329082"
  }
},
{
  "type": "node",
  "id": 4755372834,
  "lat": 46.1991099,
  "lon": 6.1374734,
  "tags": {
    "addr:housenumber": "28",
    "addr:postcode": "1205",
    "addr:street": "Rue des Bains",
    "name": "Centre de la photographie",
    "name:en": "Centre of Photography",
    "name:fr": "Centre de la photographie",
    "tourism": "museum",
    "website": "https://www.centrephotogeneve.ch/"
  }
},
{
  "type": "node",
  "id": 4962051190,
  "lat": 46.5066480,
  "lon": 6.4968515,
  "tags": {
    "addr:city": "Morges",
    "addr:country": "CH",
    "addr:housenumber": "1",
    "addr:postcode": "1110",
    "addr:street": "Rue du Château",
    "level": "2",
    "name": "Musée Paderewski",
    "tourism": "museum",
    "website": "http://www.paderewski-morges.ch",
    "wikidata": "Q27485198"
  }
},
{
  "type": "node",
  "id": 5030087522,
  "lat": 46.3869834,
  "lon": 5.8666854,
  "tags": {
    "addr:housenumber": "1",
    "addr:postcode": "39200",
    "addr:street": "Place Jacques FAIZANT",
    "name": "Musée de la pipe et du diamant",
    "name:en": "Pipe and diamond Museum",
    "name:fr": "Musée de la pipe et du diamant",
    "opening_hours": "Mo-Su 09:30-12:00;Mo-Su 14:00-18:30",
    "phone": "+33 3 84 45 17 00",
    "tourism": "museum",
    "website": "http://www.musee-pipe-diamant.com/",
    "wikidata": "Q3329935"
  }
},
{
  "type": "node",
  "id": 5475773723,
  "lat": 46.1921228,
  "lon": 6.1548310,
  "tags": {
    "addr:housenumber": "6",
    "addr:postcode": "1206",
    "addr:street": "Avenue Dumas",
    "email": "fondation@nufnuf-art.ch",
    "internet_access": "wlan",
    "name": "nufnuf-art fondation",
    "name:de": "nufnuf-art stiftung",
    "name:en": "nufnuf-art foundation",
    "opening_hours": "Th-Sa 14:00-20:00",
    "phone": "+41786036999",
    "tourism": "museum",
    "website": "http://www.nufnuf-art.ch"
  }
},
{
  "type": "node",
  "id": 5525862776,
  "lat": 46.5187352,
  "lon": 6.5637197,
  "tags": {
    "addr:city": "Lausanne",
    "addr:housenumber": "Station 14",
    "addr:postcode": "1015",
    "addr:street": "EPFL – Bâtiment INF",
    "fee": "no",
    "level": "0",
    "name": "Musée Bolo",
    "opening_hours": "Mo-Fr 08:00-19:00",
    "tourism": "museum",
    "website": "https://www.museebolo.ch/",
    "wikidata": "Q3329097"
  }
},
{
  "type": "node",
  "id": 5537445278,
  "lat": 46.3735929,
  "lon": 6.4782107,
  "tags": {
    "addr:housenumber": "2",
    "addr:street": "Rue Michaud",
    "contact:email": "culture@ville-thonon.fr",
    "contact:fax": "+33 4 50 17 02 45",
    "contact:phone": "+33 4 50 70 69 49",
    "contact:website": "https://www.thononlesbains.com/fr/patrimoine-culturel/1/163042-musee-du-chablais.html",
    "name": "Musée du Chablais",
    "ref:FR:museofile": "M1057",
    "source": "Ministère de la Culture - Muséofile - 09/2019",
    "tourism": "museum",
    "wikidata": "Q28216487"
  }
},
{
  "type": "node",
  "id": 5584004125,
  "lat": 46.1456219,
  "lon": 6.4097161,
  "tags": {
    "addr:housenumber": "800",
    "addr:street": "Avenue de Savoie",
    "contact:email": "paysalp@paysalp.fr",
    "contact:phone": "+33 4 50 36 89 18",
    "contact:website": "http://paysalp.fr/",
    "name": "Maison de la Mémoire",
    "tourism": "museum"
  }
},
{
  "type": "node",
  "id": 5924895417,
  "lat": 46.3843170,
  "lon": 5.7977750,
  "tags": {
    "addr:city": "Lavans les Saint-Claude",
    "addr:housenumber": "126",
    "addr:postcode": "39170",
    "addr:street": "Route des Viaducs",
    "craft": "yes",
    "name": "Musée de la Tournerie - Artisanat sur Corne",
    "operator": "Emmanuel Michaud",
    "phone": "+33 3 84 42 11 68",
    "tourism": "museum",
    "website": "http://www.artisanatcorne.com"
  }
},
{
  "type": "node",
  "id": 6027848697,
  "lat": 46.3328683,
  "lon": 6.3807164,
  "tags": {
    "addr:housenumber": "207",
    "addr:street": "Route du Moulin de la Glacière",
    "contact:email": "museeprehistoire.sciez@yahoo.fr",
    "contact:phone": "+33 4 50 72 60 53",
    "contact:website": "https://www.musee-prehistoire-sciez.com/",
    "museum": "history",
    "name": "Musée de la préhistoire",
    "tourism": "museum"
  }
},
{
  "type": "node",
  "id": 6049277338,
  "lat": 46.1987829,
  "lon": 6.1369427,
  "tags": {
    "name": "Exploracentre",
    "opening_hours": "We 10:00-18:00, Th-Fr 13:30-16:30, Sa 10:00-18:00, Su 13:00-18:00",
    "tourism": "museum",
    "website": "https://www.exploracentre.ch"
  }
},
{
  "type": "node",
  "id": 6609292036,
  "lat": 46.4676231,
  "lon": 6.3344349,
  "tags": {
    "name": "Musée du Vigneron",
    "tourism": "museum"
  }
},
{
  "type": "node",
  "id": 6609292037,
  "lat": 46.3163684,
  "lon": 6.1932568,
  "tags": {
    "name": "Musée du Vieux-Coppet",
    "tourism": "museum"
  }
},
{
  "type": "node",
  "id": 6609292038,
  "lat": 46.5091232,
  "lon": 6.2644252,
  "tags": {
    "name": "Moulin de Saint-George",
    "tourism": "museum"
  }
},
{
  "type": "node",
  "id": 6743797746,
  "lat": 46.4833064,
  "lon": 6.4543534,
  "tags": {
    "name": "Musée du Verrier",
    "tourism": "museum",
    "wikidata": "Q27488730"
  }
},
{
  "type": "node",
  "id": 6810059198,
  "lat": 46.6667778,
  "lon": 6.3143063,
  "tags": {
    "name": "Musée de vacherin",
    "tourism": "museum",
    "website": "www.vacherin-le-pelerin.ch"
  }
},
{
  "type": "node",
  "id": 6904873585,
  "lat": 46.5178854,
  "lon": 6.6254928,
  "tags": {
    "addr:housenumber": "16",
    "addr:postcode": "1003",
    "addr:street": "Place de la Gare",
    "name": "Musée Cantonal des Beaux-Arts",
    "phone": "+41 (0) 21 316 34 45",
    "short_name": "MCBA",
    "tourism": "museum",
    "website": "http://www.musees.vd.ch/fr/musee-des-beaux-arts/",
    "wheelchair": "yes",
    "wikidata": "Q3329523"
  }
},
{
  "type": "node",
  "id": 7169514061,
  "lat": 46.2565814,
  "lon": 6.5307475,
  "tags": {
    "email": "musees@bellevaux.com",
    "name": "Musée de la Faune",
    "phone": "+33 6 14 14 00 36",
    "tourism": "museum",
    "website": "https://www.museesbellevaux.weebly.com"
  }
},
{
  "type": "node",
  "id": 7199160131,
  "lat": 46.5273164,
  "lon": 6.6246922,
  "tags": {
    "addr:city": "Lausanne",
    "addr:housenumber": "11",
    "addr:postcode": "1004",
    "addr:street": "Avenue des Bergières",
    "museum": "art",
    "name": "Collection de l’Art Brut",
    "opening_hours": "Tu-Su 11:00-18:00",
    "operator": "Ville de Lausanne",
    "operator:type": "government",
    "source": "Orthophoto Ville de Lausanne 2008",
    "tourism": "museum",
    "website": "https://www.artbrut.ch",
    "wikidata": "Q2982900",
    "wikipedia": "fr:Collection de l'art brut"
  }
},
{
  "type": "way",
  "id": 14364104,
  "nodes": [
    139712711,
    1997357629,
    1997357631,
    1997357625,
    1997357623,
    139712712,
    929411558,
    929411410,
    929411526,
    929411439,
    139712714,
    1997357536,
    1997357534,
    1997357539,
    1997357540,
    139712716,
    139712718,
    929411406,
    929411517,
    139712720,
    929411597,
    929411490,
    929411401,
    929411498,
    139712723,
    929411590,
    139712725,
    139712711
  ],
  "tags": {
    "addr:city": "Genève",
    "addr:housenumber": "10",
    "addr:postcode": "1202",
    "addr:street": "Avenue de la Paix",
    "building": "yes",
    "email": "ariana@ville-ge.ch",
    "name": "Musée Ariana",
    "name:zh": "阿里亚纳博物馆",
    "opening_hours": "Tu-Su 10:00-18:00",
    "operator": "Ville de Genève",
    "phone": "+41 22 418 54 50",
    "start_date": "1884",
    "tourism": "museum",
    "website": "http://institutions.ville-geneve.ch/fr/ariana",
    "wheelchair": "yes",
    "wikidata": "Q671822",
    "wikipedia": "fr:Musée Ariana"
  }
},
{
  "type": "way",
  "id": 15256715,
  "nodes": [
    2941479696,
    2941479694,
    2941479693,
    2941479695,
    151180077,
    151180074,
    2941479705,
    1345227542,
    2941479706,
    151180075,
    151180076,
    2941479696
  ],
  "tags": {
    "building": "yes",
    "building:part": "no",
    "name": "Musée Rath",
    "tourism": "museum",
    "wikidata": "Q673396"
  }
},
{
  "type": "way",
  "id": 44114652,
  "nodes": [
    560586620,
    563677151,
    560586621,
    563677150,
    560586617,
    560586616,
    560586618,
    560586619,
    563677156,
    560586624,
    563677158,
    560586625,
    563677159,
    560586626,
    563677160,
    560586620
  ],
  "tags": {
    "addr:city": "Lausanne",
    "addr:country": "CH",
    "addr:housenumber": "1",
    "addr:postcode": "1007",
    "addr:street": "Vallée-de-la-Jeunesse",
    "building": "yes",
    "name": "Espace des Inventions",
    "opening_hours": "We-Sa 14:00-18:00, Su  10:00-18:00",
    "tourism": "museum",
    "website": "http://www.espace-des-inventions.ch",
    "wheelchair": "yes"
  }
},
{
  "type": "way",
  "id": 44176010,
  "nodes": [
    561177134,
    561177145,
    561177146,
    561177147,
    561177148,
    561177149,
    561177150,
    3538455010,
    3538455009,
    561177139,
    3538455007,
    561177134
  ],
  "tags": {
    "addr:city": "Lausanne",
    "addr:country": "CH",
    "addr:housenumber": "6",
    "addr:postcode": "1005",
    "addr:street": "Place de la Cathédrale",
    "building": "yes",
    "copyright": "OpenAddresses",
    "email": "info@mudac.ch",
    "fax": "+41 21 315 25 39",
    "name": "mudac",
    "oa:imported_by": "sbrunner",
    "oa:lat": "46.52210999",
    "oa:lon": "6.63529682",
    "oa:version": "oa2osm - 0.2 - sax",
    "phone": "+41 21 315 25 30",
    "source": "orthophoto lausanne 2009",
    "tourism": "museum",
    "website": "http://www.mudac.ch",
    "wikidata": "Q3329765",
    "wikipedia": "fr:Musée de design et d’arts appliqués contemporains"
  }
},
{
  "type": "way",
  "id": 44331611,
  "nodes": [
    563287692,
    563287693,
    563287677,
    563287721,
    563287692
  ],
  "tags": {
    "addr:city": "Lausanne",
    "addr:country": "CH",
    "addr:housenumber": "24",
    "addr:street": "Chemin du Bois-de-Vaux",
    "building": "yes",
    "name": "Musée romain de Lausanne-Vidy",
    "source": "Orthophoto Ville de Lausanne 2008",
    "tourism": "museum",
    "wikidata": "Q3330776",
    "wikipedia": "fr:Musée romain de Lausanne"
  }
},
{
  "type": "way",
  "id": 44784574,
  "nodes": [
    567923274,
    1480460490,
    1480460492,
    567926381,
    1480460489,
    1480460488,
    3817926830,
    1480460487,
    1480460485,
    1480460484,
    1480460486,
    1480460481,
    1480460479,
    567926385,
    567926387,
    567926383,
    567926389,
    567923274
  ],
  "tags": {
    "addr:city": "Lausanne",
    "addr:country": "CH",
    "addr:housenumber": "34",
    "addr:street": "Avenue de l'Élysée",
    "building": "yes",
    "name": "Musée Olympique",
    "name:de": "Olympisches Museum",
    "name:et": "Olümpiamuuseumid",
    "name:ru": "Олимпийский музей",
    "name:zh": "奥林匹克博物馆",
    "source": "Orthophotos Ville de Lausanne 2008",
    "tourism": "museum",
    "website": "https://www.olympic.org/museum",
    "wikidata": "Q598646",
    "wikipedia": "fr:Musée olympique"
  }
},
{
  "type": "way",
  "id": 46824102,
  "nodes": [
    598110312,
    598110320,
    598110321,
    598110319,
    598110318,
    598110317,
    598110313,
    598110311,
    598110312
  ],
  "tags": {
    "addr:city": "Lausanne",
    "addr:country": "CH",
    "addr:housenumber": "21",
    "addr:postcode": "1011",
    "addr:street": "Rue du Bugnon",
    "building": "civic",
    "name": "Fondation Claude Verdan - Musée de la Main",
    "opening_hours": "Tu-Fr 12:00-18:00; Sa,Su,PH 11:00-18:00",
    "ref": "MM",
    "source": "Orthophoto Ville de Lausanne 2008",
    "tourism": "museum",
    "wikidata": "Q3330030"
  }
},
{
  "type": "way",
  "id": 46834980,
  "nodes": [
    598199909,
    598199908,
    598199907,
    598199916,
    598199915,
    1408349515,
    1408349513,
    1408349519,
    1408349517,
    1408349501,
    1408349505,
    1408349507,
    1408349510,
    598199912,
    598199913,
    598199914,
    598199902,
    598199901,
    598199903,
    598199909
  ],
  "tags": {
    "addr:city": "Lausanne",
    "addr:country": "CH",
    "addr:housenumber": "2",
    "addr:postcode": "1018",
    "addr:street": "Route du Signal",
    "building": "yes",
    "name": "Fondation de l'Hermitage",
    "source": "Orthophotos de la Ville de Lausanne (2008)",
    "tourism": "museum",
    "wikidata": "Q3075622",
    "wikipedia": "fr:Fondation de l'Hermitage"
  }
},
{
  "type": "way",
  "id": 53013854,
  "nodes": [
    561177115,
    561177249,
    561177247,
    767175917,
    6966747900,
    561177316,
    561177317,
    561177318,
    3492914006,
    3492914012,
    561177262,
    561177263,
    561177261,
    767175920,
    561177258,
    561177259,
    561177260,
    561177253,
    3492901973,
    3492901971,
    767175913,
    3492901967,
    3492901963,
    561177240,
    561177239,
    561177238,
    561177237,
    561177232,
    561177233,
    3491858254,
    566396415,
    1758921864,
    561177115
  ],
  "tags": {
    "building": "university",
    "building:levels": "5",
    "name": "Palais de Rumine",
    "name:ko": "뤼민궁",
    "opening_hours": "Mo-Fr 07:00-22:00; Sa 07:00-17:00; Su 10:00-17:00; PH 10:00-17:00",
    "roof:levels": "1",
    "roof:shape": "half-hipped",
    "source": "Lausanne - Orthophoto technique 2012",
    "tourism": "museum",
    "url": "http://www.lanuitdesmusees.ch/2008/le-projet-acc%C3%A8s-cible-de-la-ndm",
    "wheelchair": "yes",
    "wikidata": "Q661033",
    "wikipedia": "fr:Palais de Rumine"
  }
},
{
  "type": "way",
  "id": 53013878,
  "nodes": [
    564160163,
    564160157,
    564160175,
    564160161,
    564160163
  ],
  "tags": {
    "addr:city": "Lausanne",
    "addr:housenumber": "2bis",
    "addr:postcode": "1005",
    "addr:street": "Place de la Riponne",
    "building": "yes",
    "building:levels": "3",
    "name": "Espace Arlaud",
    "opening_hours": "We-Fr 12:00-18:00, Sa,Su 11:00-17:00",
    "source": "Lausanne - Orthophoto technique 2012",
    "toilets:wheelchair": "no",
    "tourism": "museum",
    "wheelchair": "limited"
  }
},
{
  "type": "way",
  "id": 67045504,
  "nodes": [
    810101005,
    810031578,
    810049844,
    810126290,
    810144379,
    810135035,
    810023638,
    810028334,
    810019696,
    810120946,
    810028949,
    810031775,
    810076229,
    810101005
  ],
  "tags": {
    "addr:housenumber": "2",
    "addr:street": "Quai de Rives",
    "building": "public",
    "contact:email": "culture@ville-thonon.fr",
    "contact:phone": "+33 4 50 70 69 49",
    "contact:website": "http://www.ville-thonon.fr/annuaire/23/97-ecomusee-de-la-peche-et-du-lac.htm",
    "name": "Écomusée de la Pêche et du Lac",
    "source": "extraction vectorielle v1 cadastre-dgi-fr source : Direction Générale des Impôts - Cadas. Mise à jour : 2010",
    "start_date": "1987",
    "tourism": "museum"
  }
},
{
  "type": "way",
  "id": 74879740,
  "nodes": [
    884383298,
    884383300,
    884383302,
    884383304,
    884383298
  ],
  "tags": {
    "addr:city": "Chambésy",
    "addr:country": "CH",
    "addr:housenumber": "18A",
    "addr:postcode": "1292",
    "addr:street": "Route de Pregny",
    "building": "yes",
    "name": "Musée des Suisses à l'Etranger",
    "tourism": "museum"
  }
},
{
  "type": "way",
  "id": 78492660,
  "nodes": [
    921161499,
    2159670056,
    975264600,
    975264711,
    921161386,
    921161290,
    975264541,
    975264671,
    921161622,
    921161276,
    921161400,
    1907673400,
    1907673399,
    921161565,
    1329099405,
    921161617,
    1907673415,
    1907673411,
    921161453,
    945083827,
    945083777,
    945084044,
    921161558,
    921161499
  ],
  "tags": {
    "building": "yes",
    "name": "Muséum d'Histoire Naturelle",
    "name:en": "Natural History Museum",
    "name:fr": "Muséum d'Histoire Naturelle",
    "name:zh": "自然历史博物馆",
    "opening_hours": "Tu-Su 10:00-17:00",
    "tourism": "museum",
    "url": "http://www.ville-ge.ch/mhng/",
    "wheelchair": "yes",
    "wikidata": "Q663025"
  }
},
{
  "type": "way",
  "id": 79211035,
  "nodes": [
    925352163,
    916944864,
    6371799522,
    987426525,
    2162586774,
    925352114,
    987426527,
    2162586806,
    987426528,
    2162586816,
    987426529,
    987426530,
    987426531,
    925352506,
    925352163
  ],
  "tags": {
    "building": "yes",
    "building:levels": "4",
    "name:en": "International Museum of the Reformation",
    "name:fr": "Musée international de la Réforme",
    "name:zh": "国际宗教改革博物馆",
    "tourism": "museum",
    "website": "https://www.musee-reforme.ch",
    "wikidata": "Q584164"
  }
},
{
  "type": "way",
  "id": 79393933,
  "nodes": [
    926920557,
    926920828,
    926920566,
    926920862,
    926920907,
    926920868,
    926920865,
    926920553,
    926920557
  ],
  "tags": {
    "addr:city": "Genève",
    "addr:housenumber": "25",
    "addr:street": "Rue des Délices",
    "building": "yes",
    "name": "Musée Voltaire",
    "opening_hours": "Mo-fr 14:00-17:00",
    "tourism": "museum",
    "website": "www.bge-geneve.ch/voltaire"
  }
},
{
  "type": "way",
  "id": 81596620,
  "nodes": [
    4313748863,
    4313748867,
    4313748868,
    950843437,
    4313748863
  ],
  "tags": {
    "addr:city": "Genève",
    "building": "yes",
    "fixme": "approximation from memory",
    "name": "Musée d'ethnographie",
    "tourism": "museum"
  }
},
{
  "type": "way",
  "id": 87603849,
  "nodes": [
    1019012102,
    1019012034,
    1019012051,
    1019012088,
    2166870368,
    1019012109,
    1019012070,
    2166870367,
    1019012048,
    1019012104,
    1019012074,
    2166870376,
    1019132011,
    1019132162,
    1019012041,
    1019012113,
    1019012043,
    1019012077,
    2166870385,
    1019012111,
    1019132574,
    1019012038,
    1019012086,
    1019012129,
    1019012102
  ],
  "tags": {
    "addr:city": "Geneva",
    "addr:country": "CH",
    "addr:housenumber": "6",
    "addr:postcode": "1204",
    "addr:street": "Rue du Puits-Saint-Pierre",
    "building": "yes",
    "name": "Maison Tavel",
    "name:zh": "塔沃馆",
    "tourism": "museum"
  }
},
{
  "type": "way",
  "id": 102786570,
  "nodes": [
    1187086586,
    1187081633,
    1187080821,
    1187088704,
    1187091648,
    1187087401,
    1187086586
  ],
  "tags": {
    "building": "yes",
    "name": "Musée du ski et de la tradition Rousselande",
    "source": "cadastre-dgi-fr source : Direction Générale des Impôts - Cadastre. Mise à jour : 2011",
    "tourism": "museum"
  }
},
{
  "type": "way",
  "id": 111738037,
  "nodes": [
    567931489,
    567931491,
    567931492,
    567931493,
    567931494,
    567931486,
    567931487,
    567931488,
    567931489
  ],
  "tags": {
    "addr:city": "Lausanne",
    "addr:country": "CH",
    "addr:housenumber": "18",
    "addr:postcode": "1014",
    "addr:street": "Avenue de l'Élysée",
    "building": "yes",
    "name": "Musée de l'Élysée",
    "source": "Lausanne - Orthophoto technique 2012",
    "tourism": "museum",
    "wikidata": "Q675261",
    "wikipedia": "fr:Musée de l'Élysée"
  }
},
{
  "type": "way",
  "id": 132280301,
  "nodes": [
    1455461559,
    2146461252,
    2146461258,
    1455461564,
    2146461266,
    2146461269,
    1455461584,
    2146461279,
    2146461277,
    1455461576,
    2146461263,
    2146461261,
    1455461559
  ],
  "tags": {
    "addr:city": "Conches",
    "addr:housenumber": "7",
    "addr:street": "Chemin Calandrini",
    "building": "yes",
    "name": "Annexe musée d'Ethnographie",
    "tourism": "museum"
  }
},
{
  "type": "way",
  "id": 135040388,
  "nodes": [
    1483682195,
    1483570619,
    1483570858,
    1483570857,
    1483571039,
    1483683038,
    1483570910,
    1483682801,
    1483570776,
    1483682195
  ],
  "tags": {
    "addr:city": "Saint-Claude",
    "addr:housenumber": "3",
    "addr:postcode": "39200",
    "addr:street": "Place de l'Abbaye",
    "amenity": "arts_centre",
    "building": "yes",
    "heritage": "2",
    "heritage:operator": "mhs",
    "mhs:inscription_date": "2004-08-24",
    "name": "Musée de l'Abbaye",
    "old_name": "Palais Abbatial",
    "phone": "+33 3 84 38 12 60",
    "ref:mhs": "PA00135340",
    "source": "cadastre-dgi-fr source : Direction Générale des Impôts - Cadastre. Mise à jour : 2011",
    "source:heritage": "data.gouv.fr:Ministère de la Culture - 04/2015",
    "tourism": "museum",
    "website": "http://www.museedelabbaye.fr/home/index.php",
    "wikidata": "Q25395891",
    "wikipedia": "fr:Musée de l'Abbaye (Saint-Claude)"
  }
},
{
  "type": "way",
  "id": 163802500,
  "nodes": [
    809007896,
    809033826,
    809015602,
    809025599,
    809005014,
    809023580,
    809014601,
    809012948,
    809005637,
    809004370,
    809005533,
    809043720,
    809009503,
    809014265,
    809011343,
    809045733,
    809023488,
    809031498,
    809019485,
    809012438,
    809012731,
    809040296,
    809043461,
    809037651,
    809013926,
    809013887,
    809044928,
    809047660,
    809013560,
    809031975,
    809006598,
    809004748,
    809017306,
    809010327,
    809027808,
    809041059,
    809017998,
    809010294,
    809047792,
    809014340,
    809007896
  ],
  "tags": {
    "addr:housenumber": "15",
    "building": "yes",
    "heritage": "3",
    "heritage:operator": "mhs",
    "mhs:inscription_date": "1986-04-21",
    "name": "Palais Lumière",
    "old_name": "Ancien établissement thermal",
    "ref:mhs": "PA00118395",
    "source:heritage": "data.gouv.fr, Ministère de la Culture - 2016",
    "start_date": "C20",
    "tourism": "museum",
    "wikidata": "Q20751541"
  }
},
{
  "type": "way",
  "id": 179836807,
  "nodes": [
    1902642419,
    1902642393,
    1902642360,
    1902642363,
    1902642290,
    1902642291,
    1902642251,
    1902642248,
    1902642305,
    1902642317,
    1902642383,
    1902642429,
    1902642467,
    1902642567,
    1902642419
  ],
  "tags": {
    "addr:city": "Genève",
    "addr:housenumber": "8",
    "addr:postcode": "1206",
    "addr:street": "Rue Munier-Romilly",
    "building": "yes",
    "name": "Musée des arts d'Extrême-Orient",
    "opening_hours": "Tu-Su 14:00-18:00",
    "operator": "Fondation Baur",
    "tourism": "museum"
  }
},
{
  "type": "way",
  "id": 189088527,
  "nodes": [
    1997357763,
    1999391476,
    1997357758,
    3985139873,
    3985139886,
    3985139892,
    3985139894,
    3985139896,
    3985139898,
    3985139891,
    3985139893,
    3985139887,
    3985139885,
    3985139880,
    3985139878,
    3985139881,
    3985139879,
    3985139883,
    3985139872,
    1997357751,
    1997357752,
    3985139897,
    3985139900,
    3985139901,
    1997357762,
    1997357763
  ],
  "tags": {
    "building": "yes",
    "name": "Musée International de la Croix-Rouge et du Croissant-Rouge",
    "name:de": "Internationales Rotkreuz- und Rothalbmondmuseum",
    "name:en": "ICRC",
    "name:zh": "国际红十字会及红新月会博物馆",
    "opening_hours": "Apr-Oct Tu-Su, PH10:00-18:00; Nov-Mar Tu-Su, PH 10:00-17:00; Dec 24, 25, 31 off; Jan 01 off",
    "toilets:wheelchair": "yes",
    "tourism": "museum",
    "website": "http://www.micr.ch/",
    "wheelchair": "yes",
    "wikidata": "Q683406",
    "wikipedia": "fr:Musée international de la Croix-Rouge et du Croissant-Rouge"
  }
},
{
  "type": "way",
  "id": 197286425,
  "nodes": [
    2075495830,
    2075495922,
    2075495964,
    2075496038,
    2075497762,
    2075497604,
    2075497548,
    2075495939,
    2075495830
  ],
  "tags": {
    "addr:housenumber": "217",
    "addr:street": "Route du Moulin de la Glacière",
    "alt_name": "Musée des Sapeurs-Pompiers de Haute-Savoie",
    "building": "public",
    "contact:phone": "+33 4 50 72 39 68",
    "contact:website": "http://www.museesapeurpompier74.fr/",
    "museum": "firefighter",
    "name": "Musée départemental des Sapeurs-Pompiers",
    "opening_hours": "Mo-Su 10:30-19:00",
    "operator": "Association La Pompe à Bras",
    "source": "cadastre-dgi-fr source : Direction Générale des Impôts - Cadastre. Mise à jour : 2012",
    "tourism": "museum"
  }
},
{
  "type": "way",
  "id": 218705566,
  "nodes": [
    2279320410,
    2279320401,
    2279320368,
    2279320386,
    2279320410
  ],
  "tags": {
    "addr:city": "Fort-du-Plasne",
    "addr:postcode": "39150",
    "addr:street": "Le Coin d'Aval",
    "alt_name": "Chalet d’Aval",
    "building": "yes",
    "heritage": "3",
    "heritage:operator": "mhs",
    "mhs:inscription_date": "2003-07-17",
    "name": "Chalet du Coin d'Aval",
    "ref:mhs": "PA39000056",
    "source": "cadastre-dgi-fr source : Direction Générale des Impôts - Cadastre. Mise à jour : 2013",
    "source:heritage": "data.gouv.fr:Ministère de la Culture - 04/2015",
    "tourism": "museum",
    "website": "https://www.haut-jura-grandvaux.com/fr/visiter/musees/F339000073_ancienne-fruitiere-le-chalet-du-coin-d-aval-fort-du-plasne.html",
    "wikidata": "Q22996725"
  }
},
{
  "type": "way",
  "id": 258587018,
  "nodes": [
    1907183502,
    2639198201,
    2639198187,
    2639198185,
    2639198183,
    2639198169,
    2639198167,
    2639198166,
    2639198164,
    2639198160,
    2639198153,
    2639198139,
    2639198130,
    2639198124,
    2639198121,
    2639198117,
    2639198115,
    2639198116,
    2639198078,
    2639198075,
    2639198069,
    2639198063,
    2639198049,
    2639198048,
    2639198043,
    2639198042,
    2639198036,
    2639198035,
    2639198037,
    2639161584,
    2639161596,
    2639198148,
    2639198190,
    1907183526,
    1907183520,
    1907183516,
    1907183508,
    1907183502
  ],
  "tags": {
    "name": "Fondation Martin Bodmer",
    "opening_hours": "Th-Su 14:00-18:00",
    "tourism": "museum",
    "wikidata": "Q667858",
    "wikipedia": "fr:Fondation Martin Bodmer"
  }
},
{
  "type": "way",
  "id": 320030038,
  "nodes": [
    3264600887,
    3264600874,
    3265347333,
    3265347342,
    3264600887
  ],
  "tags": {
    "name": "Musée Milouti",
    "tourism": "museum"
  }
},
{
  "type": "way",
  "id": 328199865,
  "nodes": [
    3350110272,
    3350110273,
    3350111097,
    3350111096,
    3350111114,
    3350111113,
    3350110292,
    3350110285,
    3350110272
  ],
  "tags": {
    "addr:city": "Viuz-en-Sallaz",
    "addr:country": "FR",
    "addr:housenumber": "628",
    "addr:postcode": "74250",
    "addr:street": "Avenue de Savoie",
    "alt_name": "Musée Paysan",
    "building": "public",
    "contact:email": "paysalp@paysalp.fr",
    "contact:phone": "+33 4 50 36 89 18",
    "contact:website": "http://www.paysalp.fr",
    "name": "Écomusée Paysalp",
    "source": "extraction vectorielle v1 cadastre-dgi-fr source : Direction Générale des Impôts - Cadas. Mise à jour : 2010",
    "tourism": "museum"
  }
},
{
  "type": "way",
  "id": 370245333,
  "nodes": [
    2116914348,
    2116914351,
    2116914368,
    2116914372,
    2116914361,
    2116914369,
    2116914374,
    2116914380,
    2116914373,
    2116914377,
    2116914385,
    2116914392,
    2116914409,
    2116914439,
    2116914441,
    2116914445,
    2116914449,
    2116914448,
    2116914447,
    2116914460,
    2116914443,
    6716467321,
    2116914418,
    2116914412,
    2116914404,
    6123521199,
    2116914381,
    2116914375,
    4332319600,
    2116914348
  ],
  "tags": {
    "building": "yes",
    "name": "L'atelier des savoir-faire",
    "opening_hours": "SH Tu-Sa 13:30-18:00;Jul-Aug 10:30-18:30; May-Jun,Sep Tu-Sa 13:30-18:00; Dec We-Sa 13:30-18:00",
    "phone": "+33 3 84 42 65 06",
    "source": "cadastre-dgi-fr source : Direction Générale des Impôts - Cadastre. Mise à jour : 2013",
    "tourism": "museum",
    "website": "https://www.atelierdessavoirfaire.fr/"
  }
},
{
  "type": "way",
  "id": 437877497,
  "nodes": [
    4356548906,
    4356548901,
    4356548905,
    4356548903,
    4356548904,
    4356548902,
    4356548906
  ],
  "tags": {
    "building": "public",
    "contact:email": "moulin@vlg.fr",
    "contact:mobile": "+33 7 84 54 27 76",
    "contact:phone": "+33 4 50 49 33 12",
    "contact:website": "https://www.ville-la-grand.fr/ma-mairie/ville-la-grand/patrimoine/le-moulin-de-carra/",
    "man_made:1637-1940": "watermill",
    "name": "Moulin de Carra",
    "note": "Cessation d'activité en 1940. Ruine rénové entre 2012 et 2016, puis inauguré le 1er juillet 2017",
    "opening_hours": "We,Sa 14:00-18:00",
    "start_date": "1637",
    "tourism": "museum"
  }
},
{
  "type": "relation",
  "id": 1289171,
  "members": [
    {
      "type": "way",
      "ref": 78263370,
      "role": "outer"
    },
    {
      "type": "way",
      "ref": 86700318,
      "role": "inner"
    }
  ],
  "tags": {
    "addr:city": "Genève",
    "addr:housenumber": "2",
    "addr:postcode": "1205",
    "addr:street": "Rue Charles-Galland",
    "building": "yes",
    "name": "Musée d'Art et d'Histoire",
    "name:be": "Музей мастацтва і гісторыі",
    "name:fr": "Musée d'Art et d'Histoire",
    "name:ru": "Женевский музей искусства и истории",
    "name:zh": "历史艺术博物馆",
    "opening_hours": "Tu-Su 11:00-18:00",
    "operator": "Ville de Genève",
    "tourism": "museum",
    "type": "multipolygon",
    "wikidata": "Q679075",
    "wikipedia": "fr:Musée d'art et d'histoire de Genève"
  }
},
{
  "type": "relation",
  "id": 6361058,
  "members": [
    {
      "type": "way",
      "ref": 209341536,
      "role": "outer"
    },
    {
      "type": "way",
      "ref": 209341535,
      "role": "outer"
    }
  ],
  "tags": {
    "addr:city": "Tolochenaz",
    "addr:housenumber": "2",
    "addr:postcode": "1131",
    "addr:street": "Chemin du Boiron",
    "building": "yes",
    "building:levels": "1",
    "cuisine": "coffee_shop",
    "description": "Centre de compétences en gestion et renaturation des milieux aquatiques, La Maison de la Rivière est un centre voué à la nature au coeur de la nature.",
    "internet_access": "yes",
    "name": "La Maison de la Rivière",
    "opening_hours": "Ouver tous les jours de 10-18h sauf le mardi.",
    "operator": "La Maison de la Rivière",
    "phone": "0215462060",
    "smoking": "no",
    "tourism": "museum",
    "type": "multipolygon",
    "website": "http://www.maisondelariviere.ch",
    "wheelchair": "yes"
  }
},
{
  "type": "node",
  "id": 1483570619,
  "lat": 46.3860450,
  "lon": 5.8654020
},
{
  "type": "node",
  "id": 1483570776,
  "lat": 46.3860880,
  "lon": 5.8651010
},
{
  "type": "node",
  "id": 1483570857,
  "lat": 46.3861170,
  "lon": 5.8653640
},
{
  "type": "node",
  "id": 1483570858,
  "lat": 46.3861170,
  "lon": 5.8654020
},
{
  "type": "node",
  "id": 1483570910,
  "lat": 46.3861390,
  "lon": 5.8651370
},
{
  "type": "node",
  "id": 1483571039,
  "lat": 46.3861890,
  "lon": 5.8653580
},
{
  "type": "node",
  "id": 1483682195,
  "lat": 46.3860480,
  "lon": 5.8651040
},
{
  "type": "node",
  "id": 1483682801,
  "lat": 46.3861400,
  "lon": 5.8651080
},
{
  "type": "node",
  "id": 1483683038,
  "lat": 46.3861910,
  "lon": 5.8651340
},
{
  "type": "node",
  "id": 2116914348,
  "lat": 46.4236170,
  "lon": 5.8032010
},
{
  "type": "node",
  "id": 2116914351,
  "lat": 46.4236750,
  "lon": 5.8032260
},
{
  "type": "node",
  "id": 2116914361,
  "lat": 46.4237420,
  "lon": 5.8031860
},
{
  "type": "node",
  "id": 2116914368,
  "lat": 46.4237530,
  "lon": 5.8032090
},
{
  "type": "node",
  "id": 2116914369,
  "lat": 46.4237540,
  "lon": 5.8031620
},
{
  "type": "node",
  "id": 2116914372,
  "lat": 46.4237590,
  "lon": 5.8031990
},
{
  "type": "node",
  "id": 2116914373,
  "lat": 46.4237650,
  "lon": 5.8031340
},
{
  "type": "node",
  "id": 2116914374,
  "lat": 46.4237700,
  "lon": 5.8031740
},
{
  "type": "node",
  "id": 2116914375,
  "lat": 46.4237730,
  "lon": 5.8028360
},
{
  "type": "node",
  "id": 2116914377,
  "lat": 46.4237770,
  "lon": 5.8031090
},
{
  "type": "node",
  "id": 2116914380,
  "lat": 46.4237800,
  "lon": 5.8031490
},
{
  "type": "node",
  "id": 2116914381,
  "lat": 46.4237850,
  "lon": 5.8028500
},
{
  "type": "node",
  "id": 2116914385,
  "lat": 46.4237920,
  "lon": 5.8031240
},
{
  "type": "node",
  "id": 2116914392,
  "lat": 46.4238110,
  "lon": 5.8030820
},
{
  "type": "node",
  "id": 2116914404,
  "lat": 46.4238640,
  "lon": 5.8026630
},
{
  "type": "node",
  "id": 2116914409,
  "lat": 46.4238850,
  "lon": 5.8031430
},
{
  "type": "node",
  "id": 2116914412,
  "lat": 46.4238930,
  "lon": 5.8026870
},
{
  "type": "node",
  "id": 2116914418,
  "lat": 46.4239000,
  "lon": 5.8026710
},
{
  "type": "node",
  "id": 2116914439,
  "lat": 46.4239570,
  "lon": 5.8029630
},
{
  "type": "node",
  "id": 2116914441,
  "lat": 46.4239660,
  "lon": 5.8029670
},
{
  "type": "node",
  "id": 2116914443,
  "lat": 46.4239750,
  "lon": 5.8026790
},
{
  "type": "node",
  "id": 2116914445,
  "lat": 46.4239840,
  "lon": 5.8029610
},
{
  "type": "node",
  "id": 2116914447,
  "lat": 46.4239920,
  "lon": 5.8028850
},
{
  "type": "node",
  "id": 2116914448,
  "lat": 46.4239980,
  "lon": 5.8028890
},
{
  "type": "node",
  "id": 2116914449,
  "lat": 46.4239990,
  "lon": 5.8029200
},
{
  "type": "node",
  "id": 2116914460,
  "lat": 46.4240520,
  "lon": 5.8027440
},
{
  "type": "node",
  "id": 4332319600,
  "lat": 46.4236591,
  "lon": 5.8031026
},
{
  "type": "node",
  "id": 6123521199,
  "lat": 46.4238245,
  "lon": 5.8027565
},
{
  "type": "node",
  "id": 6716467321,
  "lat": 46.4239506,
  "lon": 5.8026764
},
{
  "type": "node",
  "id": 3350110272,
  "lat": 46.1442210,
  "lon": 6.4096160
},
{
  "type": "node",
  "id": 3350110273,
  "lat": 46.1442230,
  "lon": 6.4097610
},
{
  "type": "node",
  "id": 3350110285,
  "lat": 46.1442720,
  "lon": 6.4096150
},
{
  "type": "node",
  "id": 3350110292,
  "lat": 46.1442900,
  "lon": 6.4096140
},
{
  "type": "node",
  "id": 3350111096,
  "lat": 46.1443010,
  "lon": 6.4098250
},
{
  "type": "node",
  "id": 3350111097,
  "lat": 46.1443020,
  "lon": 6.4097580
},
{
  "type": "node",
  "id": 3350111113,
  "lat": 46.1444000,
  "lon": 6.4096120
},
{
  "type": "node",
  "id": 3350111114,
  "lat": 46.1444010,
  "lon": 6.4098240
},
{
  "type": "node",
  "id": 950843437,
  "lat": 46.1978012,
  "lon": 6.1364513
},
{
  "type": "node",
  "id": 4313748863,
  "lat": 46.1976940,
  "lon": 6.1366433
},
{
  "type": "node",
  "id": 4313748867,
  "lat": 46.1978782,
  "lon": 6.1368319
},
{
  "type": "node",
  "id": 4313748868,
  "lat": 46.1979884,
  "lon": 6.1366443
},
{
  "type": "node",
  "id": 151180074,
  "lat": 46.2018768,
  "lon": 6.1433007
},
{
  "type": "node",
  "id": 151180075,
  "lat": 46.2019339,
  "lon": 6.1435838
},
{
  "type": "node",
  "id": 151180076,
  "lat": 46.2016276,
  "lon": 6.1437129
},
{
  "type": "node",
  "id": 151180077,
  "lat": 46.2015704,
  "lon": 6.1434298
},
{
  "type": "node",
  "id": 1019012034,
  "lat": 46.2014336,
  "lon": 6.1472068
},
{
  "type": "node",
  "id": 1019012038,
  "lat": 46.2015454,
  "lon": 6.1470761
},
{
  "type": "node",
  "id": 1019012041,
  "lat": 46.2014951,
  "lon": 6.1468785
},
{
  "type": "node",
  "id": 1019012043,
  "lat": 46.2016046,
  "lon": 6.1468895
},
{
  "type": "node",
  "id": 1019012048,
  "lat": 46.2013832,
  "lon": 6.1469081
},
{
  "type": "node",
  "id": 1019012051,
  "lat": 46.2014272,
  "lon": 6.1472171
},
{
  "type": "node",
  "id": 1019012070,
  "lat": 46.2014214,
  "lon": 6.1469872
},
{
  "type": "node",
  "id": 1019012074,
  "lat": 46.2014351,
  "lon": 6.1469351
},
{
  "type": "node",
  "id": 1019012077,
  "lat": 46.2016413,
  "lon": 6.1469239
},
{
  "type": "node",
  "id": 1019012086,
  "lat": 46.2015286,
  "lon": 6.1470594
},
{
  "type": "node",
  "id": 1019012088,
  "lat": 46.2013503,
  "lon": 6.1471309
},
{
  "type": "node",
  "id": 1019012102,
  "lat": 46.2014427,
  "lon": 6.1472036
},
{
  "type": "node",
  "id": 1019012104,
  "lat": 46.2014011,
  "lon": 6.1468883
},
{
  "type": "node",
  "id": 1019012109,
  "lat": 46.2013833,
  "lon": 6.1470489
},
{
  "type": "node",
  "id": 1019012111,
  "lat": 46.2015915,
  "lon": 6.1470193
},
{
  "type": "node",
  "id": 1019012113,
  "lat": 46.2015702,
  "lon": 6.1469679
},
{
  "type": "node",
  "id": 1019012129,
  "lat": 46.2014526,
  "lon": 6.1472070
},
{
  "type": "node",
  "id": 1019132011,
  "lat": 46.2014530,
  "lon": 6.1469133
},
{
  "type": "node",
  "id": 1019132162,
  "lat": 46.2014652,
  "lon": 6.1469284
},
{
  "type": "node",
  "id": 1019132574,
  "lat": 46.2015593,
  "lon": 6.1470635
},
{
  "type": "node",
  "id": 1345227542,
  "lat": 46.2019060,
  "lon": 6.1434458
},
{
  "type": "node",
  "id": 2166870367,
  "lat": 46.2013721,
  "lon": 6.1469265
},
{
  "type": "node",
  "id": 2166870368,
  "lat": 46.2013887,
  "lon": 6.1470561
},
{
  "type": "node",
  "id": 2166870376,
  "lat": 46.2014471,
  "lon": 6.1469205
},
{
  "type": "node",
  "id": 2166870385,
  "lat": 46.2015975,
  "lon": 6.1470243
},
{
  "type": "node",
  "id": 2941479693,
  "lat": 46.2015682,
  "lon": 6.1435270
},
{
  "type": "node",
  "id": 2941479694,
  "lat": 46.2015866,
  "lon": 6.1436183
},
{
  "type": "node",
  "id": 2941479695,
  "lat": 46.2015883,
  "lon": 6.1435185
},
{
  "type": "node",
  "id": 2941479696,
  "lat": 46.2016068,
  "lon": 6.1436098
},
{
  "type": "node",
  "id": 2941479705,
  "lat": 46.2018947,
  "lon": 6.1433894
},
{
  "type": "node",
  "id": 2941479706,
  "lat": 46.2019131,
  "lon": 6.1434807
},
{
  "type": "node",
  "id": 919092703,
  "lat": 46.1991275,
  "lon": 6.1515799
},
{
  "type": "node",
  "id": 919092715,
  "lat": 46.1989552,
  "lon": 6.1513317
},
{
  "type": "node",
  "id": 919092717,
  "lat": 46.1987392,
  "lon": 6.1513506
},
{
  "type": "node",
  "id": 919092720,
  "lat": 46.1991499,
  "lon": 6.1507373
},
{
  "type": "node",
  "id": 919092744,
  "lat": 46.1991532,
  "lon": 6.1519627
},
{
  "type": "node",
  "id": 919092757,
  "lat": 46.1991387,
  "lon": 6.1510607
},
{
  "type": "node",
  "id": 919092789,
  "lat": 46.1995884,
  "lon": 6.1513302
},
{
  "type": "node",
  "id": 919092790,
  "lat": 46.1993170,
  "lon": 6.1513042
},
{
  "type": "node",
  "id": 924668377,
  "lat": 46.1993732,
  "lon": 6.1516457
},
{
  "type": "node",
  "id": 973009761,
  "lat": 46.1990821,
  "lon": 6.1518603
},
{
  "type": "node",
  "id": 973009817,
  "lat": 46.1990810,
  "lon": 6.1518326
},
{
  "type": "node",
  "id": 973009927,
  "lat": 46.1995167,
  "lon": 6.1512264
},
{
  "type": "node",
  "id": 973009975,
  "lat": 46.1994907,
  "lon": 6.1512192
},
{
  "type": "node",
  "id": 1902642248,
  "lat": 46.1974488,
  "lon": 6.1534108
},
{
  "type": "node",
  "id": 1902642251,
  "lat": 46.1974522,
  "lon": 6.1534059
},
{
  "type": "node",
  "id": 1902642290,
  "lat": 46.1974796,
  "lon": 6.1533544
},
{
  "type": "node",
  "id": 1902642291,
  "lat": 46.1974830,
  "lon": 6.1533600
},
{
  "type": "node",
  "id": 1902642305,
  "lat": 46.1974913,
  "lon": 6.1534691
},
{
  "type": "node",
  "id": 1902642317,
  "lat": 46.1975075,
  "lon": 6.1534457
},
{
  "type": "node",
  "id": 1902642360,
  "lat": 46.1975412,
  "lon": 6.1532512
},
{
  "type": "node",
  "id": 1902642363,
  "lat": 46.1975430,
  "lon": 6.1532605
},
{
  "type": "node",
  "id": 1902642383,
  "lat": 46.1975656,
  "lon": 6.1535275
},
{
  "type": "node",
  "id": 1902642393,
  "lat": 46.1975674,
  "lon": 6.1532147
},
{
  "type": "node",
  "id": 1902642419,
  "lat": 46.1975797,
  "lon": 6.1532132
},
{
  "type": "node",
  "id": 1902642429,
  "lat": 46.1975876,
  "lon": 6.1534919
},
{
  "type": "node",
  "id": 1902642467,
  "lat": 46.1976053,
  "lon": 6.1535185
},
{
  "type": "node",
  "id": 1902642567,
  "lat": 46.1976973,
  "lon": 6.1533799
},
{
  "type": "node",
  "id": 921161276,
  "lat": 46.1985753,
  "lon": 6.1579807
},
{
  "type": "node",
  "id": 921161290,
  "lat": 46.1993465,
  "lon": 6.1586211
},
{
  "type": "node",
  "id": 921161386,
  "lat": 46.1993559,
  "lon": 6.1591153
},
{
  "type": "node",
  "id": 921161400,
  "lat": 46.1986896,
  "lon": 6.1580337
},
{
  "type": "node",
  "id": 921161453,
  "lat": 46.1987483,
  "lon": 6.1580566
},
{
  "type": "node",
  "id": 921161499,
  "lat": 46.1995313,
  "lon": 6.1591349
},
{
  "type": "node",
  "id": 921161558,
  "lat": 46.1995212,
  "lon": 6.1585088
},
{
  "type": "node",
  "id": 921161565,
  "lat": 46.1987117,
  "lon": 6.1577620
},
{
  "type": "node",
  "id": 921161617,
  "lat": 46.1988381,
  "lon": 6.1578200
},
{
  "type": "node",
  "id": 921161622,
  "lat": 46.1985027,
  "lon": 6.1583081
},
{
  "type": "node",
  "id": 945083777,
  "lat": 46.1993421,
  "lon": 6.1584768
},
{
  "type": "node",
  "id": 945083827,
  "lat": 46.1993719,
  "lon": 6.1583399
},
{
  "type": "node",
  "id": 945084044,
  "lat": 46.1994200,
  "lon": 6.1585122
},
{
  "type": "node",
  "id": 975264541,
  "lat": 46.1993159,
  "lon": 6.1586069
},
{
  "type": "node",
  "id": 975264600,
  "lat": 46.1994323,
  "lon": 6.1591383
},
{
  "type": "node",
  "id": 975264671,
  "lat": 46.1993003,
  "lon": 6.1586773
},
{
  "type": "node",
  "id": 975264711,
  "lat": 46.1994318,
  "lon": 6.1591123
},
{
  "type": "node",
  "id": 1329099405,
  "lat": 46.1987712,
  "lon": 6.1577896
},
{
  "type": "node",
  "id": 1907673399,
  "lat": 46.1986665,
  "lon": 6.1579657
},
{
  "type": "node",
  "id": 1907673400,
  "lat": 46.1987011,
  "lon": 6.1579818
},
{
  "type": "node",
  "id": 1907673411,
  "lat": 46.1987576,
  "lon": 6.1580137
},
{
  "type": "node",
  "id": 1907673415,
  "lat": 46.1987924,
  "lon": 6.1580295
},
{
  "type": "node",
  "id": 2159670056,
  "lat": 46.1994409,
  "lon": 6.1591379
},
{
  "type": "node",
  "id": 916944864,
  "lat": 46.2014069,
  "lon": 6.1481052
},
{
  "type": "node",
  "id": 925352114,
  "lat": 46.2013180,
  "lon": 6.1484463
},
{
  "type": "node",
  "id": 925352163,
  "lat": 46.2016461,
  "lon": 6.1482432
},
{
  "type": "node",
  "id": 925352506,
  "lat": 46.2015534,
  "lon": 6.1485788
},
{
  "type": "node",
  "id": 987426525,
  "lat": 46.2013595,
  "lon": 6.1482768
},
{
  "type": "node",
  "id": 987426527,
  "lat": 46.2013915,
  "lon": 6.1484878
},
{
  "type": "node",
  "id": 987426528,
  "lat": 46.2014484,
  "lon": 6.1483260
},
{
  "type": "node",
  "id": 987426529,
  "lat": 46.2015199,
  "lon": 6.1483817
},
{
  "type": "node",
  "id": 987426530,
  "lat": 46.2015056,
  "lon": 6.1484337
},
{
  "type": "node",
  "id": 987426531,
  "lat": 46.2014776,
  "lon": 6.1485351
},
{
  "type": "node",
  "id": 2162586774,
  "lat": 46.2013147,
  "lon": 6.1484357
},
{
  "type": "node",
  "id": 2162586806,
  "lat": 46.2014326,
  "lon": 6.1483359
},
{
  "type": "node",
  "id": 2162586816,
  "lat": 46.2015112,
  "lon": 6.1483601
},
{
  "type": "node",
  "id": 6371799522,
  "lat": 46.2013938,
  "lon": 6.1481528
},
{
  "type": "node",
  "id": 1455461559,
  "lat": 46.1806610,
  "lon": 6.1771644
},
{
  "type": "node",
  "id": 1455461564,
  "lat": 46.1807276,
  "lon": 6.1769951
},
{
  "type": "node",
  "id": 1455461576,
  "lat": 46.1808249,
  "lon": 6.1772280
},
{
  "type": "node",
  "id": 1455461584,
  "lat": 46.1808800,
  "lon": 6.1770396
},
{
  "type": "node",
  "id": 2146461252,
  "lat": 46.1806914,
  "lon": 6.1770198
},
{
  "type": "node",
  "id": 2146461258,
  "lat": 46.1807198,
  "lon": 6.1770323
},
{
  "type": "node",
  "id": 2146461261,
  "lat": 46.1807550,
  "lon": 6.1772057
},
{
  "type": "node",
  "id": 2146461263,
  "lat": 46.1807566,
  "lon": 6.1771981
},
{
  "type": "node",
  "id": 2146461266,
  "lat": 46.1808256,
  "lon": 6.1770380
},
{
  "type": "node",
  "id": 2146461269,
  "lat": 46.1808299,
  "lon": 6.1770176
},
{
  "type": "node",
  "id": 2146461277,
  "lat": 46.1808519,
  "lon": 6.1770995
},
{
  "type": "node",
  "id": 2146461279,
  "lat": 46.1808661,
  "lon": 6.1771058
},
{
  "type": "node",
  "id": 926920553,
  "lat": 46.2076556,
  "lon": 6.1330510
},
{
  "type": "node",
  "id": 926920557,
  "lat": 46.2076334,
  "lon": 6.1331156
},
{
  "type": "node",
  "id": 926920566,
  "lat": 46.2076195,
  "lon": 6.1333959
},
{
  "type": "node",
  "id": 926920828,
  "lat": 46.2077001,
  "lon": 6.1331683
},
{
  "type": "node",
  "id": 926920862,
  "lat": 46.2075517,
  "lon": 6.1333499
},
{
  "type": "node",
  "id": 926920865,
  "lat": 46.2077720,
  "lon": 6.1331345
},
{
  "type": "node",
  "id": 926920868,
  "lat": 46.2075951,
  "lon": 6.1336323
},
{
  "type": "node",
  "id": 926920907,
  "lat": 46.2074817,
  "lon": 6.1335500
},
{
  "type": "node",
  "id": 139712711,
  "lat": 46.2256992,
  "lon": 6.1388720
},
{
  "type": "node",
  "id": 139712712,
  "lat": 46.2256187,
  "lon": 6.1391447
},
{
  "type": "node",
  "id": 139712714,
  "lat": 46.2251098,
  "lon": 6.1388384
},
{
  "type": "node",
  "id": 139712716,
  "lat": 46.2251883,
  "lon": 6.1385648
},
{
  "type": "node",
  "id": 139712718,
  "lat": 46.2253697,
  "lon": 6.1386751
},
{
  "type": "node",
  "id": 139712720,
  "lat": 46.2254259,
  "lon": 6.1386011
},
{
  "type": "node",
  "id": 139712723,
  "lat": 46.2255236,
  "lon": 6.1386896
},
{
  "type": "node",
  "id": 139712725,
  "lat": 46.2255134,
  "lon": 6.1387632
},
{
  "type": "node",
  "id": 929411401,
  "lat": 46.2255002,
  "lon": 6.1386288
},
{
  "type": "node",
  "id": 929411406,
  "lat": 46.2253825,
  "lon": 6.1386385
},
{
  "type": "node",
  "id": 929411410,
  "lat": 46.2254292,
  "lon": 6.1390535
},
{
  "type": "node",
  "id": 929411439,
  "lat": 46.2252907,
  "lon": 6.1389463
},
{
  "type": "node",
  "id": 929411490,
  "lat": 46.2254761,
  "lon": 6.1386063
},
{
  "type": "node",
  "id": 929411498,
  "lat": 46.2255144,
  "lon": 6.1386570
},
{
  "type": "node",
  "id": 929411517,
  "lat": 46.2254002,
  "lon": 6.1386155
},
{
  "type": "node",
  "id": 929411526,
  "lat": 46.2252840,
  "lon": 6.1389673
},
{
  "type": "node",
  "id": 929411558,
  "lat": 46.2254338,
  "lon": 6.1390349
},
{
  "type": "node",
  "id": 929411590,
  "lat": 46.2255242,
  "lon": 6.1387258
},
{
  "type": "node",
  "id": 929411597,
  "lat": 46.2254589,
  "lon": 6.1385990
},
{
  "type": "node",
  "id": 1997357534,
  "lat": 46.2251234,
  "lon": 6.1387396
},
{
  "type": "node",
  "id": 1997357536,
  "lat": 46.2251357,
  "lon": 6.1387485
},
{
  "type": "node",
  "id": 1997357539,
  "lat": 46.2251491,
  "lon": 6.1386500
},
{
  "type": "node",
  "id": 1997357540,
  "lat": 46.2251609,
  "lon": 6.1386572
},
{
  "type": "node",
  "id": 1997357623,
  "lat": 46.2256449,
  "lon": 6.1390544
},
{
  "type": "node",
  "id": 1997357625,
  "lat": 46.2256560,
  "lon": 6.1390609
},
{
  "type": "node",
  "id": 1997357629,
  "lat": 46.2256712,
  "lon": 6.1389632
},
{
  "type": "node",
  "id": 1997357631,
  "lat": 46.2256818,
  "lon": 6.1389705
},
{
  "type": "node",
  "id": 884383300,
  "lat": 46.2322816,
  "lon": 6.1404146
},
{
  "type": "node",
  "id": 884383302,
  "lat": 46.2322796,
  "lon": 6.1405872
},
{
  "type": "node",
  "id": 1997357751,
  "lat": 46.2269987,
  "lon": 6.1368438
},
{
  "type": "node",
  "id": 1997357752,
  "lat": 46.2272167,
  "lon": 6.1365912
},
{
  "type": "node",
  "id": 1997357758,
  "lat": 46.2271767,
  "lon": 6.1372585
},
{
  "type": "node",
  "id": 1997357762,
  "lat": 46.2275994,
  "lon": 6.1365340
},
{
  "type": "node",
  "id": 1997357763,
  "lat": 46.2276972,
  "lon": 6.1367621
},
{
  "type": "node",
  "id": 1999391476,
  "lat": 46.2273800,
  "lon": 6.1370440
},
{
  "type": "node",
  "id": 3985139872,
  "lat": 46.2271174,
  "lon": 6.1371205
},
{
  "type": "node",
  "id": 3985139873,
  "lat": 46.2271341,
  "lon": 6.1371593
},
{
  "type": "node",
  "id": 3985139878,
  "lat": 46.2271777,
  "lon": 6.1368476
},
{
  "type": "node",
  "id": 3985139879,
  "lat": 46.2271784,
  "lon": 6.1369221
},
{
  "type": "node",
  "id": 3985139880,
  "lat": 46.2271800,
  "lon": 6.1368142
},
{
  "type": "node",
  "id": 3985139881,
  "lat": 46.2271865,
  "lon": 6.1368504
},
{
  "type": "node",
  "id": 3985139883,
  "lat": 46.2272019,
  "lon": 6.1369672
},
{
  "type": "node",
  "id": 3985139885,
  "lat": 46.2272150,
  "lon": 6.1368231
},
{
  "type": "node",
  "id": 3985139886,
  "lat": 46.2272158,
  "lon": 6.1370017
},
{
  "type": "node",
  "id": 3985139887,
  "lat": 46.2272181,
  "lon": 6.1367997
},
{
  "type": "node",
  "id": 3985139891,
  "lat": 46.2272731,
  "lon": 6.1368353
},
{
  "type": "node",
  "id": 3985139892,
  "lat": 46.2272735,
  "lon": 6.1370229
},
{
  "type": "node",
  "id": 3985139893,
  "lat": 46.2272751,
  "lon": 6.1368092
},
{
  "type": "node",
  "id": 3985139894,
  "lat": 46.2272778,
  "lon": 6.1369739
},
{
  "type": "node",
  "id": 3985139896,
  "lat": 46.2272939,
  "lon": 6.1369767
},
{
  "type": "node",
  "id": 3985139897,
  "lat": 46.2272984,
  "lon": 6.1366175
},
{
  "type": "node",
  "id": 3985139898,
  "lat": 46.2273070,
  "lon": 6.1368420
},
{
  "type": "node",
  "id": 3985139900,
  "lat": 46.2273438,
  "lon": 6.1365618
},
{
  "type": "node",
  "id": 3985139901,
  "lat": 46.2274285,
  "lon": 6.1365529
},
{
  "type": "node",
  "id": 2639161584,
  "lat": 46.2148811,
  "lon": 6.1799476
},
{
  "type": "node",
  "id": 1907183502,
  "lat": 46.2155919,
  "lon": 6.1808774
},
{
  "type": "node",
  "id": 1907183508,
  "lat": 46.2156031,
  "lon": 6.1808205
},
{
  "type": "node",
  "id": 1907183516,
  "lat": 46.2156133,
  "lon": 6.1807732
},
{
  "type": "node",
  "id": 1907183520,
  "lat": 46.2156236,
  "lon": 6.1807255
},
{
  "type": "node",
  "id": 1907183526,
  "lat": 46.2156552,
  "lon": 6.1805613
},
{
  "type": "node",
  "id": 2639161596,
  "lat": 46.2151553,
  "lon": 6.1801791
},
{
  "type": "node",
  "id": 2639198035,
  "lat": 46.2147656,
  "lon": 6.1809248
},
{
  "type": "node",
  "id": 2639198036,
  "lat": 46.2147662,
  "lon": 6.1810832
},
{
  "type": "node",
  "id": 2639198037,
  "lat": 46.2147829,
  "lon": 6.1807232
},
{
  "type": "node",
  "id": 2639198042,
  "lat": 46.2148546,
  "lon": 6.1810101
},
{
  "type": "node",
  "id": 2639198043,
  "lat": 46.2148756,
  "lon": 6.1809971
},
{
  "type": "node",
  "id": 2639198048,
  "lat": 46.2149551,
  "lon": 6.1809741
},
{
  "type": "node",
  "id": 2639198049,
  "lat": 46.2149671,
  "lon": 6.1809690
},
{
  "type": "node",
  "id": 2639198063,
  "lat": 46.2149772,
  "lon": 6.1809601
},
{
  "type": "node",
  "id": 2639198069,
  "lat": 46.2149842,
  "lon": 6.1809463
},
{
  "type": "node",
  "id": 2639198075,
  "lat": 46.2149888,
  "lon": 6.1809245
},
{
  "type": "node",
  "id": 2639198078,
  "lat": 46.2149918,
  "lon": 6.1808824
},
{
  "type": "node",
  "id": 2639198115,
  "lat": 46.2150444,
  "lon": 6.1809140
},
{
  "type": "node",
  "id": 2639198116,
  "lat": 46.2150464,
  "lon": 6.1808893
},
{
  "type": "node",
  "id": 2639198117,
  "lat": 46.2150469,
  "lon": 6.1809302
},
{
  "type": "node",
  "id": 2639198121,
  "lat": 46.2150515,
  "lon": 6.1809394
},
{
  "type": "node",
  "id": 2639198124,
  "lat": 46.2150606,
  "lon": 6.1809419
},
{
  "type": "node",
  "id": 2639198130,
  "lat": 46.2151278,
  "lon": 6.1809262
},
{
  "type": "node",
  "id": 2639198139,
  "lat": 46.2151947,
  "lon": 6.1809127
},
{
  "type": "node",
  "id": 2639198148,
  "lat": 46.2152269,
  "lon": 6.1802248
},
{
  "type": "node",
  "id": 2639198153,
  "lat": 46.2152650,
  "lon": 6.1809035
},
{
  "type": "node",
  "id": 2639198160,
  "lat": 46.2153124,
  "lon": 6.1809051
},
{
  "type": "node",
  "id": 2639198164,
  "lat": 46.2153196,
  "lon": 6.1809028
},
{
  "type": "node",
  "id": 2639198166,
  "lat": 46.2153263,
  "lon": 6.1808988
},
{
  "type": "node",
  "id": 2639198167,
  "lat": 46.2153333,
  "lon": 6.1808878
},
{
  "type": "node",
  "id": 2639198169,
  "lat": 46.2153389,
  "lon": 6.1808844
},
{
  "type": "node",
  "id": 2639198183,
  "lat": 46.2153928,
  "lon": 6.1808848
},
{
  "type": "node",
  "id": 2639198185,
  "lat": 46.2153996,
  "lon": 6.1808901
},
{
  "type": "node",
  "id": 2639198187,
  "lat": 46.2154079,
  "lon": 6.1808953
},
{
  "type": "node",
  "id": 2639198190,
  "lat": 46.2154759,
  "lon": 6.1803703
},
{
  "type": "node",
  "id": 2639198201,
  "lat": 46.2155887,
  "lon": 6.1808966
},
{
  "type": "node",
  "id": 884383298,
  "lat": 46.2324580,
  "lon": 6.1404188
},
{
  "type": "node",
  "id": 884383304,
  "lat": 46.2324560,
  "lon": 6.1405915
},
{
  "type": "node",
  "id": 4356548901,
  "lat": 46.2084217,
  "lon": 6.2560137
},
{
  "type": "node",
  "id": 4356548902,
  "lat": 46.2082231,
  "lon": 6.2557804
},
{
  "type": "node",
  "id": 4356548903,
  "lat": 46.2083827,
  "lon": 6.2558501
},
{
  "type": "node",
  "id": 4356548904,
  "lat": 46.2083660,
  "lon": 6.2558904
},
{
  "type": "node",
  "id": 4356548905,
  "lat": 46.2084607,
  "lon": 6.2559091
},
{
  "type": "node",
  "id": 4356548906,
  "lat": 46.2081893,
  "lon": 6.2558602
},
{
  "type": "node",
  "id": 3264600874,
  "lat": 46.3080477,
  "lon": 6.2736777
},
{
  "type": "node",
  "id": 3264600887,
  "lat": 46.3082540,
  "lon": 6.2738499
},
{
  "type": "node",
  "id": 3265347333,
  "lat": 46.3085338,
  "lon": 6.2724163
},
{
  "type": "node",
  "id": 3265347342,
  "lat": 46.3087824,
  "lon": 6.2725269
},
{
  "type": "node",
  "id": 1187080821,
  "lat": 46.4936660,
  "lon": 6.0664190
},
{
  "type": "node",
  "id": 1187081633,
  "lat": 46.4936590,
  "lon": 6.0664260
},
{
  "type": "node",
  "id": 1187086586,
  "lat": 46.4936400,
  "lon": 6.0663800
},
{
  "type": "node",
  "id": 1187087401,
  "lat": 46.4936990,
  "lon": 6.0663320
},
{
  "type": "node",
  "id": 1187088704,
  "lat": 46.4936990,
  "lon": 6.0664900
},
{
  "type": "node",
  "id": 1187091648,
  "lat": 46.4937470,
  "lon": 6.0664440
},
{
  "type": "node",
  "id": 2075495830,
  "lat": 46.3329200,
  "lon": 6.3802830
},
{
  "type": "node",
  "id": 2075495922,
  "lat": 46.3329310,
  "lon": 6.3803870
},
{
  "type": "node",
  "id": 2075495939,
  "lat": 46.3329330,
  "lon": 6.3802800
},
{
  "type": "node",
  "id": 2075495964,
  "lat": 46.3329370,
  "lon": 6.3804450
},
{
  "type": "node",
  "id": 2075496038,
  "lat": 46.3329480,
  "lon": 6.3805490
},
{
  "type": "node",
  "id": 2075497548,
  "lat": 46.3332280,
  "lon": 6.3802170
},
{
  "type": "node",
  "id": 2075497604,
  "lat": 46.3332390,
  "lon": 6.3802140
},
{
  "type": "node",
  "id": 2075497762,
  "lat": 46.3332660,
  "lon": 6.3804810
},
{
  "type": "node",
  "id": 810019696,
  "lat": 46.3751128,
  "lon": 6.4775443
},
{
  "type": "node",
  "id": 810023638,
  "lat": 46.3751486,
  "lon": 6.4776430
},
{
  "type": "node",
  "id": 810028334,
  "lat": 46.3751452,
  "lon": 6.4776453
},
{
  "type": "node",
  "id": 810028949,
  "lat": 46.3750855,
  "lon": 6.4774412
},
{
  "type": "node",
  "id": 810031578,
  "lat": 46.3750213,
  "lon": 6.4773988
},
{
  "type": "node",
  "id": 810031775,
  "lat": 46.3750817,
  "lon": 6.4774435
},
{
  "type": "node",
  "id": 810049844,
  "lat": 46.3750729,
  "lon": 6.4775690
},
{
  "type": "node",
  "id": 810076229,
  "lat": 46.3750714,
  "lon": 6.4774110
},
{
  "type": "node",
  "id": 810101005,
  "lat": 46.3750592,
  "lon": 6.4773729
},
{
  "type": "node",
  "id": 810120946,
  "lat": 46.3751175,
  "lon": 6.4775406
},
{
  "type": "node",
  "id": 810126290,
  "lat": 46.3750754,
  "lon": 6.4775682
},
{
  "type": "node",
  "id": 810135035,
  "lat": 46.3751777,
  "lon": 6.4777316
},
{
  "type": "node",
  "id": 810144379,
  "lat": 46.3751389,
  "lon": 6.4777584
},
{
  "type": "node",
  "id": 2195641933,
  "lat": 46.4927933,
  "lon": 6.4794131
},
{
  "type": "node",
  "id": 2195641935,
  "lat": 46.4928169,
  "lon": 6.4793808
},
{
  "type": "node",
  "id": 2195641936,
  "lat": 46.4927792,
  "lon": 6.4789435
},
{
  "type": "node",
  "id": 2195641937,
  "lat": 46.4929978,
  "lon": 6.4792653
},
{
  "type": "node",
  "id": 2195641938,
  "lat": 46.4926052,
  "lon": 6.4795550
},
{
  "type": "node",
  "id": 2195641939,
  "lat": 46.4928701,
  "lon": 6.4794585
},
{
  "type": "node",
  "id": 2195641940,
  "lat": 46.4928505,
  "lon": 6.4797199
},
{
  "type": "node",
  "id": 2195641941,
  "lat": 46.4926682,
  "lon": 6.4794613
},
{
  "type": "node",
  "id": 2195641942,
  "lat": 46.4926354,
  "lon": 6.4791679
},
{
  "type": "node",
  "id": 2195641943,
  "lat": 46.4927874,
  "lon": 6.4798137
},
{
  "type": "node",
  "id": 4421251858,
  "lat": 46.4929478,
  "lon": 6.4791918
},
{
  "type": "node",
  "id": 809004370,
  "lat": 46.4013228,
  "lon": 6.5920460
},
{
  "type": "node",
  "id": 809004748,
  "lat": 46.4011087,
  "lon": 6.5915270
},
{
  "type": "node",
  "id": 809005014,
  "lat": 46.4011083,
  "lon": 6.5920302
},
{
  "type": "node",
  "id": 809005533,
  "lat": 46.4013258,
  "lon": 6.5920429
},
{
  "type": "node",
  "id": 809005637,
  "lat": 46.4013208,
  "lon": 6.5920481
},
{
  "type": "node",
  "id": 809006598,
  "lat": 46.4011104,
  "lon": 6.5914980
},
{
  "type": "node",
  "id": 809007896,
  "lat": 46.4011053,
  "lon": 6.5917514
},
{
  "type": "node",
  "id": 809009503,
  "lat": 46.4013411,
  "lon": 6.5917297
},
{
  "type": "node",
  "id": 809010294,
  "lat": 46.4011067,
  "lon": 6.5917009
},
{
  "type": "node",
  "id": 809010327,
  "lat": 46.4011052,
  "lon": 6.5915642
},
{
  "type": "node",
  "id": 809011343,
  "lat": 46.4013539,
  "lon": 6.5915234
},
{
  "type": "node",
  "id": 809012438,
  "lat": 46.4013613,
  "lon": 6.5912029
},
{
  "type": "node",
  "id": 809012731,
  "lat": 46.4013607,
  "lon": 6.5912004
},
{
  "type": "node",
  "id": 809012948,
  "lat": 46.4013196,
  "lon": 6.5920513
},
{
  "type": "node",
  "id": 809013560,
  "lat": 46.4011157,
  "lon": 6.5914385
},
{
  "type": "node",
  "id": 809013887,
  "lat": 46.4011264,
  "lon": 6.5911720
},
{
  "type": "node",
  "id": 809013926,
  "lat": 46.4011278,
  "lon": 6.5911711
},
{
  "type": "node",
  "id": 809014265,
  "lat": 46.4013449,
  "lon": 6.5917296
},
{
  "type": "node",
  "id": 809014340,
  "lat": 46.4011054,
  "lon": 6.5917367
},
{
  "type": "node",
  "id": 809014601,
  "lat": 46.4011093,
  "lon": 6.5920339
},
{
  "type": "node",
  "id": 809015602,
  "lat": 46.4011060,
  "lon": 6.5920251
},
{
  "type": "node",
  "id": 809017306,
  "lat": 46.4011063,
  "lon": 6.5915646
},
{
  "type": "node",
  "id": 809017998,
  "lat": 46.4011038,
  "lon": 6.5917001
},
{
  "type": "node",
  "id": 809019485,
  "lat": 46.4013633,
  "lon": 6.5912037
},
{
  "type": "node",
  "id": 809023488,
  "lat": 46.4013660,
  "lon": 6.5912106
},
{
  "type": "node",
  "id": 809023580,
  "lat": 46.4011094,
  "lon": 6.5920309
},
{
  "type": "node",
  "id": 809025599,
  "lat": 46.4011071,
  "lon": 6.5920292
},
{
  "type": "node",
  "id": 809027808,
  "lat": 46.4011031,
  "lon": 6.5916687
},
{
  "type": "node",
  "id": 809031498,
  "lat": 46.4013646,
  "lon": 6.5912062
},
{
  "type": "node",
  "id": 809031975,
  "lat": 46.4011138,
  "lon": 6.5914387
},
{
  "type": "node",
  "id": 809033826,
  "lat": 46.4011032,
  "lon": 6.5920237
},
{
  "type": "node",
  "id": 809037651,
  "lat": 46.4011281,
  "lon": 6.5911675
},
{
  "type": "node",
  "id": 809040296,
  "lat": 46.4011324,
  "lon": 6.5911644
},
{
  "type": "node",
  "id": 809041059,
  "lat": 46.4011049,
  "lon": 6.5916701
},
{
  "type": "node",
  "id": 809043461,
  "lat": 46.4011323,
  "lon": 6.5911665
},
{
  "type": "node",
  "id": 809043720,
  "lat": 46.4013393,
  "lon": 6.5917817
},
{
  "type": "node",
  "id": 809044928,
  "lat": 46.4011257,
  "lon": 6.5911885
},
{
  "type": "node",
  "id": 809045733,
  "lat": 46.4013522,
  "lon": 6.5915230
},
{
  "type": "node",
  "id": 809047660,
  "lat": 46.4011242,
  "lon": 6.5912264
},
{
  "type": "node",
  "id": 809047792,
  "lat": 46.4011061,
  "lon": 6.5917128
},
{
  "type": "node",
  "id": 563287677,
  "lat": 46.5188369,
  "lon": 6.5987541
},
{
  "type": "node",
  "id": 563287692,
  "lat": 46.5190771,
  "lon": 6.5986303
},
{
  "type": "node",
  "id": 563287693,
  "lat": 46.5189638,
  "lon": 6.5985073
},
{
  "type": "node",
  "id": 563287721,
  "lat": 46.5189503,
  "lon": 6.5988771
},
{
  "type": "node",
  "id": 560586616,
  "lat": 46.5194253,
  "lon": 6.6036746
},
{
  "type": "node",
  "id": 560586617,
  "lat": 46.5194121,
  "lon": 6.6037483
},
{
  "type": "node",
  "id": 560586618,
  "lat": 46.5194604,
  "lon": 6.6036239
},
{
  "type": "node",
  "id": 560586619,
  "lat": 46.5195109,
  "lon": 6.6036053
},
{
  "type": "node",
  "id": 560586620,
  "lat": 46.5194996,
  "lon": 6.6038848
},
{
  "type": "node",
  "id": 560586621,
  "lat": 46.5194432,
  "lon": 6.6038484
},
{
  "type": "node",
  "id": 560586624,
  "lat": 46.5195782,
  "lon": 6.6036485
},
{
  "type": "node",
  "id": 560586625,
  "lat": 46.5196049,
  "lon": 6.6037453
},
{
  "type": "node",
  "id": 560586626,
  "lat": 46.5195786,
  "lon": 6.6038415
},
{
  "type": "node",
  "id": 563677150,
  "lat": 46.5194191,
  "lon": 6.6037977
},
{
  "type": "node",
  "id": 563677151,
  "lat": 46.5194715,
  "lon": 6.6038747
},
{
  "type": "node",
  "id": 563677156,
  "lat": 46.5195475,
  "lon": 6.6036172
},
{
  "type": "node",
  "id": 563677158,
  "lat": 46.5195976,
  "lon": 6.6036919
},
{
  "type": "node",
  "id": 563677159,
  "lat": 46.5195976,
  "lon": 6.6037989
},
{
  "type": "node",
  "id": 563677160,
  "lat": 46.5195428,
  "lon": 6.6038763
},
{
  "type": "node",
  "id": 567923274,
  "lat": 46.5089921,
  "lon": 6.6339496
},
{
  "type": "node",
  "id": 567926381,
  "lat": 46.5086630,
  "lon": 6.6337376
},
{
  "type": "node",
  "id": 567926383,
  "lat": 46.5087160,
  "lon": 6.6342889
},
{
  "type": "node",
  "id": 567926385,
  "lat": 46.5083566,
  "lon": 6.6345528
},
{
  "type": "node",
  "id": 567926387,
  "lat": 46.5086022,
  "lon": 6.6346973
},
{
  "type": "node",
  "id": 567926389,
  "lat": 46.5088720,
  "lon": 6.6343807
},
{
  "type": "node",
  "id": 567931486,
  "lat": 46.5099510,
  "lon": 6.6329701
},
{
  "type": "node",
  "id": 567931487,
  "lat": 46.5097204,
  "lon": 6.6329096
},
{
  "type": "node",
  "id": 567931488,
  "lat": 46.5097598,
  "lon": 6.6325946
},
{
  "type": "node",
  "id": 567931489,
  "lat": 46.5099139,
  "lon": 6.6326350
},
{
  "type": "node",
  "id": 567931491,
  "lat": 46.5099274,
  "lon": 6.6325271
},
{
  "type": "node",
  "id": 567931492,
  "lat": 46.5100816,
  "lon": 6.6325676
},
{
  "type": "node",
  "id": 567931493,
  "lat": 46.5100610,
  "lon": 6.6327324
},
{
  "type": "node",
  "id": 567931494,
  "lat": 46.5099832,
  "lon": 6.6327121
},
{
  "type": "node",
  "id": 1480460479,
  "lat": 46.5083951,
  "lon": 6.6344144
},
{
  "type": "node",
  "id": 1480460481,
  "lat": 46.5084229,
  "lon": 6.6344307
},
{
  "type": "node",
  "id": 1480460484,
  "lat": 46.5084272,
  "lon": 6.6342887
},
{
  "type": "node",
  "id": 1480460485,
  "lat": 46.5084531,
  "lon": 6.6341959
},
{
  "type": "node",
  "id": 1480460486,
  "lat": 46.5084575,
  "lon": 6.6343065
},
{
  "type": "node",
  "id": 1480460487,
  "lat": 46.5084811,
  "lon": 6.6342124
},
{
  "type": "node",
  "id": 1480460488,
  "lat": 46.5085679,
  "lon": 6.6339007
},
{
  "type": "node",
  "id": 1480460489,
  "lat": 46.5086106,
  "lon": 6.6339258
},
{
  "type": "node",
  "id": 1480460490,
  "lat": 46.5088293,
  "lon": 6.6338539
},
{
  "type": "node",
  "id": 1480460492,
  "lat": 46.5088338,
  "lon": 6.6338381
},
{
  "type": "node",
  "id": 3817926830,
  "lat": 46.5085281,
  "lon": 6.6340438
},
{
  "type": "node",
  "id": 564160161,
  "lat": 46.5228725,
  "lon": 6.6320421
},
{
  "type": "node",
  "id": 564160163,
  "lat": 46.5227537,
  "lon": 6.6319597
},
{
  "type": "node",
  "id": 561177115,
  "lat": 46.5229053,
  "lon": 6.6337785
},
{
  "type": "node",
  "id": 561177134,
  "lat": 46.5219402,
  "lon": 6.6351761
},
{
  "type": "node",
  "id": 561177139,
  "lat": 46.5219307,
  "lon": 6.6354856
},
{
  "type": "node",
  "id": 561177145,
  "lat": 46.5221665,
  "lon": 6.6351886
},
{
  "type": "node",
  "id": 561177146,
  "lat": 46.5221604,
  "lon": 6.6352816
},
{
  "type": "node",
  "id": 561177147,
  "lat": 46.5221667,
  "lon": 6.6352815
},
{
  "type": "node",
  "id": 561177148,
  "lat": 46.5221638,
  "lon": 6.6353778
},
{
  "type": "node",
  "id": 561177149,
  "lat": 46.5221541,
  "lon": 6.6353784
},
{
  "type": "node",
  "id": 561177150,
  "lat": 46.5221584,
  "lon": 6.6354798
},
{
  "type": "node",
  "id": 561177232,
  "lat": 46.5231354,
  "lon": 6.6333554
},
{
  "type": "node",
  "id": 561177233,
  "lat": 46.5231422,
  "lon": 6.6333330
},
{
  "type": "node",
  "id": 561177237,
  "lat": 46.5233939,
  "lon": 6.6335202
},
{
  "type": "node",
  "id": 561177238,
  "lat": 46.5233995,
  "lon": 6.6335017
},
{
  "type": "node",
  "id": 561177239,
  "lat": 46.5234681,
  "lon": 6.6335454
},
{
  "type": "node",
  "id": 561177240,
  "lat": 46.5235172,
  "lon": 6.6333828
},
{
  "type": "node",
  "id": 561177247,
  "lat": 46.5230007,
  "lon": 6.6338172
},
{
  "type": "node",
  "id": 561177249,
  "lat": 46.5229951,
  "lon": 6.6338358
},
{
  "type": "node",
  "id": 561177253,
  "lat": 46.5237614,
  "lon": 6.6335384
},
{
  "type": "node",
  "id": 561177258,
  "lat": 46.5237389,
  "lon": 6.6337437
},
{
  "type": "node",
  "id": 561177259,
  "lat": 46.5237446,
  "lon": 6.6337246
},
{
  "type": "node",
  "id": 561177260,
  "lat": 46.5237115,
  "lon": 6.6337035
},
{
  "type": "node",
  "id": 561177261,
  "lat": 46.5240269,
  "lon": 6.6339273
},
{
  "type": "node",
  "id": 561177262,
  "lat": 46.5241505,
  "lon": 6.6339754
},
{
  "type": "node",
  "id": 561177263,
  "lat": 46.5240346,
  "lon": 6.6339015
},
{
  "type": "node",
  "id": 561177316,
  "lat": 46.5238882,
  "lon": 6.6343831
},
{
  "type": "node",
  "id": 561177317,
  "lat": 46.5238841,
  "lon": 6.6343966
},
{
  "type": "node",
  "id": 561177318,
  "lat": 46.5240009,
  "lon": 6.6344711
},
{
  "type": "node",
  "id": 564160157,
  "lat": 46.5226444,
  "lon": 6.6322912
},
{
  "type": "node",
  "id": 564160175,
  "lat": 46.5227635,
  "lon": 6.6323738
},
{
  "type": "node",
  "id": 566396415,
  "lat": 46.5229867,
  "lon": 6.6335089
},
{
  "type": "node",
  "id": 767175913,
  "lat": 46.5236425,
  "lon": 6.6334627
},
{
  "type": "node",
  "id": 767175917,
  "lat": 46.5233634,
  "lon": 6.6340485
},
{
  "type": "node",
  "id": 767175920,
  "lat": 46.5237713,
  "lon": 6.6337643
},
{
  "type": "node",
  "id": 1758921864,
  "lat": 46.5229646,
  "lon": 6.6335820
},
{
  "type": "node",
  "id": 3491858254,
  "lat": 46.5230563,
  "lon": 6.6332783
},
{
  "type": "node",
  "id": 3492901963,
  "lat": 46.5235394,
  "lon": 6.6333969
},
{
  "type": "node",
  "id": 3492901967,
  "lat": 46.5236257,
  "lon": 6.6334520
},
{
  "type": "node",
  "id": 3492901971,
  "lat": 46.5236613,
  "lon": 6.6334746
},
{
  "type": "node",
  "id": 3492901973,
  "lat": 46.5237408,
  "lon": 6.6335253
},
{
  "type": "node",
  "id": 3492914006,
  "lat": 46.5240171,
  "lon": 6.6344176
},
{
  "type": "node",
  "id": 3492914012,
  "lat": 46.5241370,
  "lon": 6.6340203
},
{
  "type": "node",
  "id": 3538455007,
  "lat": 46.5219101,
  "lon": 6.6353356
},
{
  "type": "node",
  "id": 3538455009,
  "lat": 46.5219684,
  "lon": 6.6354830
},
{
  "type": "node",
  "id": 3538455010,
  "lat": 46.5219684,
  "lon": 6.6354906
},
{
  "type": "node",
  "id": 6966747900,
  "lat": 46.5234290,
  "lon": 6.6340903
},
{
  "type": "node",
  "id": 598110311,
  "lat": 46.5249839,
  "lon": 6.6404185
},
{
  "type": "node",
  "id": 598110312,
  "lat": 46.5250135,
  "lon": 6.6404076
},
{
  "type": "node",
  "id": 598110313,
  "lat": 46.5250028,
  "lon": 6.6405136
},
{
  "type": "node",
  "id": 598110317,
  "lat": 46.5248950,
  "lon": 6.6405505
},
{
  "type": "node",
  "id": 598110318,
  "lat": 46.5249256,
  "lon": 6.6407010
},
{
  "type": "node",
  "id": 598110319,
  "lat": 46.5250519,
  "lon": 6.6407422
},
{
  "type": "node",
  "id": 598110320,
  "lat": 46.5250598,
  "lon": 6.6406698
},
{
  "type": "node",
  "id": 598110321,
  "lat": 46.5250402,
  "lon": 6.6406806
},
{
  "type": "node",
  "id": 598199901,
  "lat": 46.5280778,
  "lon": 6.6370767
},
{
  "type": "node",
  "id": 598199902,
  "lat": 46.5280599,
  "lon": 6.6371149
},
{
  "type": "node",
  "id": 598199903,
  "lat": 46.5281041,
  "lon": 6.6370488
},
{
  "type": "node",
  "id": 598199907,
  "lat": 46.5281846,
  "lon": 6.6369793
},
{
  "type": "node",
  "id": 598199908,
  "lat": 46.5281371,
  "lon": 6.6370518
},
{
  "type": "node",
  "id": 598199909,
  "lat": 46.5281258,
  "lon": 6.6370362
},
{
  "type": "node",
  "id": 598199912,
  "lat": 46.5280336,
  "lon": 6.6372137
},
{
  "type": "node",
  "id": 598199913,
  "lat": 46.5280672,
  "lon": 6.6371624
},
{
  "type": "node",
  "id": 598199914,
  "lat": 46.5280547,
  "lon": 6.6371450
},
{
  "type": "node",
  "id": 598199915,
  "lat": 46.5281592,
  "lon": 6.6373807
},
{
  "type": "node",
  "id": 598199916,
  "lat": 46.5283092,
  "lon": 6.6371517
},
{
  "type": "node",
  "id": 1408349501,
  "lat": 46.5280077,
  "lon": 6.6373271
},
{
  "type": "node",
  "id": 1408349505,
  "lat": 46.5280485,
  "lon": 6.6372649
},
{
  "type": "node",
  "id": 1408349507,
  "lat": 46.5280657,
  "lon": 6.6372887
},
{
  "type": "node",
  "id": 1408349510,
  "lat": 46.5280762,
  "lon": 6.6372727
},
{
  "type": "node",
  "id": 1408349513,
  "lat": 46.5281263,
  "lon": 6.6373748
},
{
  "type": "node",
  "id": 1408349515,
  "lat": 46.5281399,
  "lon": 6.6373540
},
{
  "type": "node",
  "id": 1408349517,
  "lat": 46.5281526,
  "lon": 6.6375275
},
{
  "type": "node",
  "id": 1408349519,
  "lat": 46.5281926,
  "lon": 6.6374664
},
{
  "type": "node",
  "id": 2279320368,
  "lat": 46.6142410,
  "lon": 5.9741470
},
{
  "type": "node",
  "id": 2279320386,
  "lat": 46.6142780,
  "lon": 5.9742930
},
{
  "type": "node",
  "id": 2279320401,
  "lat": 46.6143220,
  "lon": 5.9741020
},
{
  "type": "node",
  "id": 2279320410,
  "lat": 46.6143600,
  "lon": 5.9742460
},
{
  "type": "way",
  "id": 78263370,
  "nodes": [
    919092720,
    973009975,
    973009927,
    919092789,
    924668377,
    919092744,
    973009761,
    973009817,
    919092717,
    919092720
  ]
},
{
  "type": "way",
  "id": 86700318,
  "nodes": [
    919092757,
    919092715,
    919092703,
    919092790,
    919092757
  ]
},
{
  "type": "way",
  "id": 209341535,
  "nodes": [
    2195641940,
    2195641943,
    2195641938,
    2195641941,
    2195641940
  ]
},
{
  "type": "way",
  "id": 209341536,
  "nodes": [
    2195641937,
    4421251858,
    2195641936,
    2195641942,
    2195641933,
    2195641935,
    2195641939,
    2195641937
  ]
}

  ]
}
