{
  "version": 0.6,
  "generator": "Overpass API 0.7.55.9 ab41fea6",
  "osm3s": {
    "timestamp_osm_base": "2020-02-14T18:45:02Z",
    "copyright": "The data included in this document is from www.openstreetmap.org. The data is made available under ODbL."
  },
  "elements": [

{
  "type": "node",
  "id": 1324535934,
  "lat": 55.8278320,
  "lon": 24.3608733,
  "tags": {
    "addr:city": "Stanioniai",
    "addr:contact": "yes",
    "addr:housenumber": "4",
    "addr:street": "Įstro g.",
    "fee": "yes",
    "name": "Lėktuvų muziejus",
    "tourism": "museum",
    "website": "http://aviapark.lt/lt/lektuvu-muziejus"
  }
},
{
  "type": "node",
  "id": 1398468730,
  "lat": 55.7700930,
  "lon": 23.8556914,
  "tags": {
    "museum_type": "municipal",
    "name": "Kleboniškių kaimo buities ekspozicija",
    "opening_hours": "Apr - Oct Tu-Su 9:00-17:00",
    "phone": "+370 422 42 005",
    "tourism": "museum",
    "website": "https://www.muziejai.lt/radviliskis/kleboniskes.htm"
  }
},
{
  "type": "node",
  "id": 1398472864,
  "lat": 55.7823674,
  "lon": 23.8981503,
  "tags": {
    "email": "daugyvenesmuz@gmail.com",
    "museum_type": "municipal",
    "name": "Burbiškio dvaro istorijos ekspozicija",
    "official_name": "Daugyvenės kultūros istorijos muziejus-draustinis",
    "opening_hours": "Apr 1 - Oct 31 Tu-Su 9:00-18:00; Nov 1 - Mar 31 Tu-Sa 8:00-17:00",
    "phone": "+370 422 42 001",
    "tourism": "museum"
  }
},
{
  "type": "node",
  "id": 3461232753,
  "lat": 55.7300873,
  "lon": 24.3597365,
  "tags": {
    "addr:city": "Panevėžys",
    "addr:housenumber": "17",
    "addr:postcode": "35185",
    "addr:street": "Respublikos g.",
    "description": "Dėl lankymo kitu laiku reikia tartis pagrindiniame muziejaus pastate Vasario 16-osios g. 23 arba telefonu (8 45) 59 61 81",
    "museum_type": "municipal",
    "name": "Pasipriešinimo sovietinei okupacijai ir Sąjudžio muziejus",
    "opening_hours": "Tu-Fr 9:00-15:00",
    "tourism": "museum",
    "website": "http://www.paneveziomuziejus.lt/"
  }
},
{
  "type": "node",
  "id": 3461260750,
  "lat": 55.7321570,
  "lon": 24.3608710,
  "tags": {
    "addr:city": "Panevėžys",
    "addr:housenumber": "21",
    "addr:postcode": "35172",
    "addr:street": "Kranto g.",
    "description": "Dėl lankymo reikia tartis pagrindiniame muziejaus pastate Vasario 16-osios g. 23 arba telefonu (8 45) 59 61 81. Paskutinis mėnesio penktadienis – nedarbo diena.",
    "museum_type": "municipal",
    "name": "Seniausias Panevėžio pastatas",
    "tourism": "museum",
    "website": "http://www.paneveziomuziejus.lt/"
  }
},
{
  "type": "node",
  "id": 3500600410,
  "lat": 55.8870322,
  "lon": 24.7771365,
  "tags": {
    "email": "etnografijos.muziejus@gmail.com",
    "image": "http://etnografijosmuziejus.lt/images/galerija/petrausko_muziejus4_3.jpg",
    "museum_type": "municipal",
    "name": "Adomo Petrausko sodyba-muziejus",
    "official_name": "Adomo Petrausko muziejus",
    "opening_hours": "Tu-Fr 8:00-17:00; Sa 8:00-15:45",
    "phone": "+370 459 46 210",
    "tourism": "museum",
    "website": "http://etnografijosmuziejus.lt/muziejaus-struktura/a-petrausko-muziejus"
  }
},
{
  "type": "node",
  "id": 3689128583,
  "lat": 55.7334360,
  "lon": 24.3665410,
  "tags": {
    "addr:city": "Panevėžys",
    "addr:contact": "yes",
    "addr:housenumber": "18",
    "addr:street": "Šv. Zitos g.",
    "museum_type": "public",
    "name": "Medicinos muziejus",
    "tourism": "museum"
  }
},
{
  "type": "node",
  "id": 3763604803,
  "lat": 55.8685371,
  "lon": 24.0653103,
  "tags": {
    "addr:city": "Punziniškis",
    "addr:housenumber": "4",
    "addr:nostreet": "yes",
    "addr:place": "Punziniškis",
    "description": "Muziejų galima lankyti susitarus iš anksto",
    "museum_type": "public",
    "name": "Gabrielės Petkevičaitės-Bitės muziejus",
    "opening_hours": "Tu-Sa 10:00-14:00",
    "phone": "+370 45 587 046",
    "tourism": "museum",
    "website": "https://www.muziejai.lt/Panevezys/petkevicaites_bites_muziejus.htm"
  }
},
{
  "type": "node",
  "id": 3766882495,
  "lat": 55.7527513,
  "lon": 24.3831457,
  "tags": {
    "addr:city": "Panevėžys",
    "addr:housenumber": "12",
    "addr:street": "Koldingo g.",
    "description": "Ekspozicija lankoma iš anksto susitarus.",
    "email": "info@panrbiblioteka.lt",
    "museum_type": "public",
    "name": "Mato Grigonio literatūrinis muziejus",
    "opening_hours": "Mo-Fr 8:00-17:00",
    "phone": "+370 45 587 046",
    "tourism": "museum",
    "website": "http://www.panrbiblioteka.lt/lt/struktura-ir-kontaktai/muziejai/280-mato-grigonio-literatrinis-muziejus"
  }
},
{
  "type": "node",
  "id": 4539399606,
  "lat": 55.6154239,
  "lon": 24.1019896,
  "tags": {
    "addr:city": "Ustronė",
    "addr:housenumber": "1",
    "addr:nostreet": "yes",
    "addr:place": "Ustronė",
    "description": "Muziejų galima lankyti susitarus iš anksto",
    "name": "Juozo Tumo-Vaižganto ir knygnešių muziejus",
    "opening_hours": "Tu-Sa 9:00-17:00",
    "phone": "+370 45 587046,",
    "tourism": "museum"
  }
},
{
  "type": "node",
  "id": 4849190540,
  "lat": 55.6768675,
  "lon": 24.5388302,
  "tags": {
    "addr:city": "Miežiškiai",
    "addr:contact": "yes",
    "addr:housenumber": "26",
    "addr:street": "Nevėžio g.",
    "name": "Eglutės žaisliukų muziejus",
    "tourism": "museum",
    "website": "http://www.muziejukai.lt/2016/06/01/eglutes-zaisliuku-muziejus/"
  }
},
{
  "type": "node",
  "id": 4873888656,
  "lat": 55.7801119,
  "lon": 24.3599429,
  "tags": {
    "addr:city": "Piniava",
    "addr:contact": "yes",
    "addr:housenumber": "7C",
    "addr:street": "Saulėtekio g.",
    "name": "K. Sakalausko privatus etnografinis muziejus",
    "tourism": "museum"
  }
},
{
  "type": "node",
  "id": 5983426630,
  "lat": 55.8057522,
  "lon": 24.0155473,
  "tags": {
    "email": "smilgiu@panrs.lt",
    "name": "Smilgių etnografinė sodyba",
    "phone": "+370 45 553524",
    "start_date": "1979",
    "tourism": "museum"
  }
},
{
  "type": "node",
  "id": 6669252329,
  "lat": 55.8989802,
  "lon": 24.8196924,
  "tags": {
    "email": "etnografijos.muziejus@gmail.com",
    "name": "Veronikos Šleivytės paveikslų galerija",
    "operator": "Kupiškio etnografijos muziejus",
    "phone": "+370 459 46439",
    "subject:wikidata": "Q16475864",
    "subject:wikipedia": "lt:Veronika Šleivytė",
    "tourism": "museum",
    "website": "http://etnografijosmuziejus.lt/muziejaus-struktura/v-sleivytes-paveikslu-galerija"
  }
},
{
  "type": "way",
  "id": 234326949,
  "nodes": [
    2425837858,
    3214015827,
    3214015826,
    2425837864,
    2425837866,
    2425837860,
    2425837858
  ],
  "tags": {
    "addr:city": "Panevėžys",
    "addr:housenumber": "23",
    "addr:postcode": "35185",
    "addr:street": "Vasario 16-osios g.",
    "building": "yes",
    "museum_type": "municipal",
    "name": "Panevėžio kraštotyros muziejus",
    "opening_hours": "Mo-Th 08:00-17:00; Fr 08:00-15:45",
    "phone": "+370 45 596 181",
    "tourism": "museum",
    "website": "http://www.paneveziomuziejus.lt/"
  }
},
{
  "type": "way",
  "id": 240292039,
  "nodes": [
    2480295738,
    2480295752,
    2480295755,
    2480295739,
    2480295738
  ],
  "tags": {
    "building": "yes",
    "image": "https://kvr.kpd.lt/KvrWcf/LabbisServiceKvr.svc/GetImage/F5DB40CA-502B-4BB3-8109-DC5404851882",
    "name": "Balsių malūnas",
    "opening_hours": "24/7",
    "ref:lt:kpd": "1527",
    "tourism": "museum",
    "website": "http://www.balsiumalunas.lt/"
  }
},
{
  "type": "way",
  "id": 256137355,
  "nodes": [
    2618309820,
    2618309817,
    2618309821,
    2618309818,
    2618309837,
    2618309839,
    2618309840,
    2618309842,
    2618309843,
    2618309828,
    2618309824,
    2618309822,
    2618309820
  ],
  "tags": {
    "landuse": "residential",
    "name": "Linų muziejus",
    "tourism": "museum"
  }
},
{
  "type": "node",
  "id": 2618309817,
  "lat": 55.6289213,
  "lon": 24.2311605
},
{
  "type": "node",
  "id": 2618309818,
  "lat": 55.6289748,
  "lon": 24.2305911
},
{
  "type": "node",
  "id": 2618309820,
  "lat": 55.6290516,
  "lon": 24.2320521
},
{
  "type": "node",
  "id": 2618309821,
  "lat": 55.6290533,
  "lon": 24.2311176
},
{
  "type": "node",
  "id": 2618309822,
  "lat": 55.6290703,
  "lon": 24.2318205
},
{
  "type": "node",
  "id": 2618309824,
  "lat": 55.6291824,
  "lon": 24.2317213
},
{
  "type": "node",
  "id": 2618309828,
  "lat": 55.6292851,
  "lon": 24.2317323
},
{
  "type": "node",
  "id": 2618309837,
  "lat": 55.6295011,
  "lon": 24.2303520
},
{
  "type": "node",
  "id": 2618309839,
  "lat": 55.6295394,
  "lon": 24.2307994
},
{
  "type": "node",
  "id": 2618309840,
  "lat": 55.6295733,
  "lon": 24.2311945
},
{
  "type": "node",
  "id": 2618309842,
  "lat": 55.6295810,
  "lon": 24.2314818
},
{
  "type": "node",
  "id": 2618309843,
  "lat": 55.6295827,
  "lon": 24.2315419
},
{
  "type": "node",
  "id": 2425837858,
  "lat": 55.7300030,
  "lon": 24.3583624
},
{
  "type": "node",
  "id": 2425837860,
  "lat": 55.7300643,
  "lon": 24.3581347
},
{
  "type": "node",
  "id": 2425837864,
  "lat": 55.7301340,
  "lon": 24.3585044
},
{
  "type": "node",
  "id": 2425837866,
  "lat": 55.7302020,
  "lon": 24.3582517
},
{
  "type": "node",
  "id": 3214015826,
  "lat": 55.7300291,
  "lon": 24.3584154
},
{
  "type": "node",
  "id": 3214015827,
  "lat": 55.7300358,
  "lon": 24.3583903
},
{
  "type": "node",
  "id": 2480295739,
  "lat": 56.0342317,
  "lon": 24.3531687
},
{
  "type": "node",
  "id": 2480295755,
  "lat": 56.0343890,
  "lon": 24.3531700
},
{
  "type": "node",
  "id": 2480295738,
  "lat": 56.0342310,
  "lon": 24.3534355
},
{
  "type": "node",
  "id": 2480295752,
  "lat": 56.0343883,
  "lon": 24.3534368
}

  ]
}
