{
  "version": 0.6,
  "generator": "Overpass API 0.7.55.9 ab41fea6",
  "osm3s": {
    "timestamp_osm_base": "2020-02-14T10:10:02Z",
    "copyright": "The data included in this document is from www.openstreetmap.org. The data is made available under ODbL."
  },
  "elements": [

{
  "type": "node",
  "id": 274868855,
  "lat": 47.5977863,
  "lon": 9.5387664,
  "tags": {
    "addr:city": "Langenargen",
    "addr:country": "DE",
    "addr:housenumber": "20",
    "addr:postcode": "88085",
    "addr:street": "Marktplatz",
    "description": "Kunstmuseum",
    "name": "Museum Langenargen",
    "opening_hours": "Apr-Oct: Tu-Su 10:00-12:00, 14:00-17:00",
    "phone": "+49 7543 2200",
    "tourism": "museum",
    "website": "http://museum-langenargen.de",
    "wheelchair": "no"
  }
},
{
  "type": "node",
  "id": 275655497,
  "lat": 47.5828875,
  "lon": 9.8485878,
  "tags": {
    "name": "Handwerkermuseum",
    "tourism": "museum"
  }
},
{
  "type": "node",
  "id": 330889988,
  "lat": 47.4303617,
  "lon": 9.6551595,
  "tags": {
    "name": "Stickereimuseum",
    "tourism": "museum"
  }
},
{
  "type": "node",
  "id": 337910395,
  "lat": 47.4244674,
  "lon": 9.3350416,
  "tags": {
    "name": "Ortsmuseum Gaiserwald",
    "toilets:wheelchair": "no",
    "tourism": "museum",
    "wheelchair": "no"
  }
},
{
  "type": "node",
  "id": 343831971,
  "lat": 47.7034490,
  "lon": 9.5491105,
  "tags": {
    "name": "Museum im Schloss",
    "tourism": "museum",
    "wheelchair": "no"
  }
},
{
  "type": "node",
  "id": 366910826,
  "lat": 47.6718997,
  "lon": 9.5886357,
  "tags": {
    "addr:city": "Tettnang",
    "addr:country": "DE",
    "addr:housenumber": "43",
    "addr:postcode": "88069",
    "addr:street": "Montfortstraße",
    "description": "Kulturgeschichtliches Museum",
    "name": "Montfort-Museum im Torschloss",
    "opening_hours": "Apr-Oct: Tu-Su 14:00-18:00",
    "phone": "+49 7542 510150",
    "tourism": "museum",
    "wheelchair": "no"
  }
},
{
  "type": "node",
  "id": 369025176,
  "lat": 47.6900076,
  "lon": 9.6160148,
  "tags": {
    "addr:city": "Tettnang",
    "addr:country": "DE",
    "addr:housenumber": "20",
    "addr:postcode": "88069",
    "addr:street": "Hopfengut",
    "addr:suburb": "Siggenweiler",
    "contact:email": "mail@hopfengut.de",
    "contact:fax": "+49 7542 953553",
    "contact:phone": "+49 7542 952206",
    "contact:website": "http://www.hopfengut.de/",
    "name": "Hopfenmuseum",
    "opening_hours": "Apr-Oct: Mo off; Apr-Oct: Tu-Su 10:30-17:00",
    "operator": "Hopfengut No20 GbR",
    "tourism": "museum",
    "website": "https://www.hopfengut.de",
    "wheelchair": "no"
  }
},
{
  "type": "node",
  "id": 373425179,
  "lat": 47.4475722,
  "lon": 9.6611462,
  "tags": {
    "addr:city": "Lustenau",
    "addr:country": "AT",
    "addr:housenumber": "4",
    "addr:postcode": "6893",
    "addr:street": "Höchster Straße",
    "description": "Kulturgeschichtliches Museum",
    "email": "verein@rheinschauen.at",
    "name": "Museum Rhein Schauen",
    "opening_hours": "May - Oct: We, Fr-Su, PH 13:00-17:00 \"Bahnfahrten zur Rheinmündung: Fr-Su 15:00\"",
    "phone": "+43 5577 20539",
    "tourism": "museum",
    "website": "https://www.rheinschauen.at/",
    "wheelchair": "yes"
  }
},
{
  "type": "node",
  "id": 373868024,
  "lat": 47.4233859,
  "lon": 9.3735915,
  "tags": {
    "addr:city": "St. Gallen",
    "addr:country": "CH",
    "addr:housenumber": "2",
    "addr:postcode": "9000",
    "addr:street": "Kornhausstrasse",
    "description": "Kulturgeschichtliches Museum",
    "email": "info@textilmuseum.ch",
    "name": "Textilmuseum",
    "name:de": "Textilmuseum",
    "name:zh": "纺织品博物馆",
    "opening_hours": "10:00-17:00",
    "phone": "+41 (0)71 222 17 44",
    "tourism": "museum",
    "website": "https://www.textilmuseum.ch/",
    "wikidata": "Q1675727"
  }
},
{
  "type": "node",
  "id": 427927753,
  "lat": 47.7646250,
  "lon": 9.5968813,
  "tags": {
    "addr:city": "Ravensburg",
    "addr:housenumber": "7",
    "addr:postcode": "88214",
    "addr:street": "Torplatz",
    "lastcheck": "2017-02-06",
    "name": "Heimatmuseum Eschach",
    "opening_hours": "\"nach Vereinbarung\"",
    "tourism": "museum"
  }
},
{
  "type": "node",
  "id": 486090911,
  "lat": 47.5555466,
  "lon": 10.0238818,
  "tags": {
    "fee": "yes",
    "name": "Heimatmuseum \"Beim Strumpfar\"",
    "opening_hours": "We,Fr 15:00-17:00; Su 10:00-12:00",
    "tourism": "museum",
    "website": "https://www.allgaeu.de/a-heimatmuseum-beim-strumpfar"
  }
},
{
  "type": "node",
  "id": 520412146,
  "lat": 47.4389058,
  "lon": 9.2784184,
  "tags": {
    "name": "Ortsmuseum",
    "tourism": "museum"
  }
},
{
  "type": "node",
  "id": 654054701,
  "lat": 47.5579698,
  "lon": 9.6611838,
  "tags": {
    "amenity": "arts_centre",
    "name": "Friedensräume",
    "opening_hours": "Tu-Sa 10:00-13:00, 14:00-17:00; Su 14:00-17:00; PH 14:00-17:00; Mo off; Sep-Mar: off",
    "tourism": "museum",
    "wheelchair": "limited",
    "wikidata": "Q28803311"
  }
},
{
  "type": "node",
  "id": 665157746,
  "lat": 47.8068601,
  "lon": 9.6407103,
  "tags": {
    "addr:city": "Weingarten",
    "addr:country": "DE",
    "addr:housenumber": "28",
    "addr:postcode": "88250",
    "addr:street": "Karlstraße",
    "description": "Archäologisches Museum",
    "email": "museen@weingarten-online.de",
    "name": "Alamannenmuseum",
    "opening_hours": "We-Su 14:00-17:00; Mo-Tu off; PH 14:00-17:00; Dec 25-Jan 01 off; Jan 06 off; Nov 01 off",
    "phone": "+49 751 49343",
    "tourism": "museum",
    "website": "https://www.weingarten-online.de/,Lde/Startseite/Kultur+_+Museen/Alamannenmuseum.html",
    "wikidata": "Q1313295"
  }
},
{
  "type": "node",
  "id": 764259591,
  "lat": 47.5010722,
  "lon": 9.7492858,
  "tags": {
    "addr:city": "Bregenz",
    "addr:country": "AT",
    "addr:housenumber": "3b",
    "addr:postcode": "6900",
    "addr:street": "Martinsgasse",
    "name": "Martinsturm Bregenz",
    "name:zh": "马丁塔",
    "tourism": "museum",
    "website": "https://www.martinsturm.at/",
    "wheelchair": "no",
    "wikidata": "Q1905741",
    "wikipedia": "de:Martinsturm (Bregenz)"
  }
},
{
  "type": "node",
  "id": 886432016,
  "lat": 47.2829373,
  "lon": 9.5429474,
  "tags": {
    "name": "Ortsmuseum",
    "ref": "15",
    "tourism": "museum"
  }
},
{
  "type": "node",
  "id": 886432025,
  "lat": 47.2936557,
  "lon": 9.5371964,
  "tags": {
    "name": "Biermuseum",
    "ref": "14",
    "tourism": "museum"
  }
},
{
  "type": "node",
  "id": 959680107,
  "lat": 47.4218661,
  "lon": 9.3661157,
  "tags": {
    "name": "Lokremise Kunstzone",
    "tourism": "museum",
    "wheelchair": "yes"
  }
},
{
  "type": "node",
  "id": 1116942926,
  "lat": 47.5595954,
  "lon": 9.3771898,
  "tags": {
    "name": "Bahnerlebniswelt Locorama",
    "tourism": "museum"
  }
},
{
  "type": "node",
  "id": 1123424275,
  "lat": 47.6726515,
  "lon": 9.3524953,
  "tags": {
    "contact:email": "heimatverein-immenstaad@t-online.de",
    "contact:phone": "+49 7545 1766",
    "contact:website": "http://www.koenig-immenstaad.privat.t-online.de/heimatverein/",
    "description": "Kulturgeschichtliches Museum",
    "name": "Heimatmuseum Immenstaad",
    "tourism": "museum"
  }
},
{
  "type": "node",
  "id": 1123427465,
  "lat": 47.6521710,
  "lon": 9.4691392,
  "tags": {
    "addr:city": "Friedrichshafen",
    "addr:country": "DE",
    "addr:housenumber": "14",
    "addr:postcode": "88045",
    "addr:street": "Friedrichstraße",
    "description": "Kulturgeschichtliches Museum",
    "email": "info@schulmuseum-fn.de",
    "name": "Schulmuseum",
    "opening_hours": "Apr-Oct: 10:00-17:00; Nov-Mar: Tu-Su 14:00-17:00",
    "phone": "+49 7541 32622",
    "tourism": "museum",
    "website": "https://www.schulmuseum-fn.de/",
    "wheelchair": "no",
    "wikidata": "Q10000136",
    "wikipedia": "de:Schulmuseum Friedrichshafen"
  }
},
{
  "type": "node",
  "id": 1124717004,
  "lat": 47.6698344,
  "lon": 9.5849111,
  "tags": {
    "addr:city": "Tettnang",
    "addr:country": "DE",
    "addr:housenumber": "1",
    "addr:postcode": "88069",
    "addr:street": "Montfortplatz",
    "description": "Schlossmuseum",
    "email": "tourist-info@tettnang.de",
    "name": "Neues Schloss Tettnang",
    "note": "Schlossbesichtigung nur mit Führung möglich (Stündliche Führung)",
    "phone": "+49 7542 952555",
    "service_times": "Apr-Oct: Th-Tu 11:00-17:00",
    "tourism": "museum",
    "website": "http://www.tettnang.de",
    "wheelchair": "no",
    "wikidata": "Q76632137"
  }
},
{
  "type": "node",
  "id": 1124731537,
  "lat": 47.6315745,
  "lon": 9.7135180,
  "tags": {
    "addr:city": "Achberg",
    "addr:country": "DE",
    "addr:housenumber": "2",
    "addr:postcode": "88147",
    "addr:street": "Achberg",
    "description": "Schloßmuseum",
    "email": "info@schloss-achberg.de",
    "name": "Schloß Achberg",
    "opening_hours": "Apr 26-Oct 12: Fr 14:00-18:00; Apr 26-Oct 12: Sa,Su,PH 10:00-18:00 || Su,PH 14:30+ \"Schlossführungen Gruppenführungen nach Vereinbarung auch außerhalb der Öffnungszeiten\"",
    "phone": "+49 751 859510",
    "tourism": "museum",
    "website": "http://www.schloss-achberg.de/"
  }
},
{
  "type": "node",
  "id": 1124737318,
  "lat": 47.6875534,
  "lon": 9.8356070,
  "tags": {
    "addr:city": "Wangen im Allgäu",
    "addr:housenumber": "1",
    "addr:postcode": "88239",
    "addr:street": "Eselberg",
    "description": "Kulturgeschichtliches Museum",
    "email": "tourist@wangen.de",
    "name": "Städtische Museen Wangen im Allgäu",
    "opening_hours": "Apr 01 - Oct 31: Tu-Fr,Su 14:00-17:00; Sa 11:00-17:00",
    "phone": "+49 7522 74115",
    "tourism": "museum",
    "website": "https://www.wangen.de"
  }
},
{
  "type": "node",
  "id": 1124744660,
  "lat": 47.6943502,
  "lon": 10.0415526,
  "tags": {
    "addr:city": "Isny im Allgäu",
    "addr:country": "DE",
    "addr:housenumber": "40",
    "addr:postcode": "88316",
    "addr:street": "Wassertorstraße",
    "description": "Kulturgeschichtliches Museum",
    "email": "info@rathaus.isny.de",
    "name": "Wassertormuseum",
    "opening_hours": "Mo 19:00+; We 14:00+; Su 10:00+ || \"Führung, Sonderführungen nach Vereinbarung.\"",
    "phone": "+49 7562 93434",
    "tourism": "museum",
    "website": "https://www.isny.de/kultur/sehenswuerdigkeiten/museen/wassertor-museum.html"
  }
},
{
  "type": "node",
  "id": 1124817477,
  "lat": 47.5049030,
  "lon": 9.7530541,
  "tags": {
    "addr:city": "Bregenz",
    "addr:country": "AT",
    "addr:housenumber": "4",
    "addr:postcode": "6900",
    "addr:street": "Steinbruchgasse",
    "description": "Technisches Museum",
    "email": "office@pfaenderbahn.at",
    "name": "Pfänderbahn-Museum",
    "opening_hours": "08:00-19:00; Nov 10-Nov 21: \"closed\"",
    "phone": "+43 5574 42 16 00",
    "tourism": "museum",
    "website": "www.pfaenderbahn.at"
  }
},
{
  "type": "node",
  "id": 1124841229,
  "lat": 47.3605989,
  "lon": 9.6917296,
  "tags": {
    "addr:city": "Hohenems",
    "addr:country": "AT",
    "addr:housenumber": "11",
    "addr:postcode": "6845",
    "addr:street": "Sägerstraße",
    "description": "Technisches Museum",
    "email": "kontakt@museum-stoffels-saege-muehle.at",
    "name": "Museum Stoffels Säge-Mühle",
    "opening_hours": "Apr 25-Oct 31: 09:00-18:00",
    "phone": "+43(0)557672434",
    "tourism": "museum",
    "website": "http://www.museum-stoffels-saege-muehle.at"
  }
},
{
  "type": "node",
  "id": 1124886695,
  "lat": 47.3729261,
  "lon": 9.3446142,
  "tags": {
    "addr:city": "Stein AR",
    "addr:country": "CH",
    "addr:postcode": "9063",
    "addr:street": "Dorf",
    "description": "Kulturgeschichtliches Museum",
    "email": "info@avm-stein.ch",
    "name": "Appenzeller Volkskunde-Museum",
    "opening_hours": "Tu-Su 10:00-17:00 \"Führungen und Extraöffnungen auf Anfrage\"",
    "phone": "+41 (0)71 368 50 58",
    "tourism": "museum",
    "website": "http://www.avm-stein.ch",
    "wikidata": "Q19362445"
  }
},
{
  "type": "node",
  "id": 1129245030,
  "lat": 47.4771861,
  "lon": 9.3771318,
  "tags": {
    "addr:city": "Wittenbach",
    "addr:country": "CH",
    "addr:housenumber": "661",
    "addr:postcode": "9300",
    "addr:street": "Schloss Dottenwil",
    "description": "Kulturgeschichtliches Museum",
    "email": "info@dottenwil.ch",
    "name": "Museen in Wittenbach im Schloss Dottenwil",
    "opening_hours": "Sa 14:00-20:00, Su 10:00-18:00; Sa[3] 14:00-23:00 open \"Kulturabend\"",
    "phone": "+41 (0)71 298 26 62",
    "tourism": "museum",
    "website": "https://www.dottenwil.ch/"
  }
},
{
  "type": "node",
  "id": 1129249504,
  "lat": 47.5158821,
  "lon": 9.4366511,
  "tags": {
    "addr:city": "Arbon",
    "addr:country": "CH",
    "addr:postcode": "9320",
    "addr:street": "Schloss Arbon",
    "description": "Historisches Museum",
    "email": "h.geisser@freesurf.ch",
    "name": "Historisches Museum Schloss Arbon",
    "opening_hours": "May-Sep: 14:00-17:00 \"Führungen gegen Voranmeldung jederzeit möglich.\"; Mar,Apr,Oct,Nov: Su 14:00-17:00 \"Führungen gegen Voranmeldung jederzeit möglich.\"",
    "phone": "+41 (0)71 446 60 10",
    "tourism": "museum",
    "website": "https://www.arbon.ch/freizeit_tourismus/museum-galerie/historisches_museum_schloss_arbon",
    "wikidata": "Q27479514"
  }
},
{
  "type": "node",
  "id": 1130811411,
  "lat": 47.4158138,
  "lon": 9.8511848,
  "tags": {
    "addr:city": "Schwarzenberg",
    "addr:country": "AT",
    "addr:housenumber": "34",
    "addr:postcode": "6867",
    "addr:street": "Brand",
    "description": "Kunstmuseum",
    "email": "museum.schwarzenberg@aon.at",
    "name": "Angelika Kauffmann Museum",
    "phone": "+43(0)55123570",
    "tourism": "museum",
    "website": "http://www.angelika-kauffmann.com/",
    "wikidata": "Q37841197"
  }
},
{
  "type": "node",
  "id": 1245467692,
  "lat": 47.4196589,
  "lon": 9.3671079,
  "tags": {
    "name": "Museum im Lagerhaus",
    "tourism": "museum",
    "wikidata": "Q27488983"
  }
},
{
  "type": "node",
  "id": 1564845064,
  "lat": 47.5173473,
  "lon": 9.4376613,
  "tags": {
    "name": "Saurer Museum",
    "tourism": "museum"
  }
},
{
  "type": "node",
  "id": 1690334118,
  "lat": 47.4118001,
  "lon": 9.7425873,
  "tags": {
    "addr:city": "Dornbirn",
    "addr:country": "AT",
    "addr:housenumber": "33",
    "addr:postcode": "6850",
    "addr:street": "Marktstraße",
    "designation": "Architektur",
    "email": "info@v-a-i.at",
    "fax": "+43 5572 51169 9548",
    "name": "vai Vorarlberger Architektur Institut",
    "opening_hours": "Tu-Fr 14:00-17:00; Th 14:00-20:00; Sa 11:00-15:00",
    "opening_hours:office": "Mo - Fr 09:00 - 12:00",
    "operator": "Gemeinnützige Vorarlberger Architektur Dienstleistung GmbH",
    "phone": "+43 5572 51169",
    "toilets:wheelchair": "no",
    "tourism": "museum",
    "website": "https://v-a-i.at/",
    "wheelchair": "yes"
  }
},
{
  "type": "node",
  "id": 1813001034,
  "lat": 47.6719895,
  "lon": 9.5884945,
  "tags": {
    "addr:city": "Tettnang",
    "addr:country": "DE",
    "addr:housenumber": "41",
    "addr:postcode": "88069",
    "addr:street": "Montfortstraße",
    "description": "Elektronikmuseum",
    "email": "info@emuseum-tettnang.de",
    "lastcheck": "2017-07-23",
    "name": "Elektronikmuseum Tettnang",
    "opening_hours": "Apr-Oct: Tu-Su 14:00-18:00",
    "operator": "Förderverein des Elektronikmuseums Tettnang e.V.",
    "start_date": "2002",
    "tourism": "museum",
    "website": "http://www.emuseum-tettnang.de",
    "wheelchair": "no"
  }
},
{
  "type": "node",
  "id": 1823237715,
  "lat": 47.4895063,
  "lon": 9.3705030,
  "tags": {
    "name": "Landwirtschafts-Museum",
    "tourism": "museum"
  }
},
{
  "type": "node",
  "id": 1972927178,
  "lat": 47.4533341,
  "lon": 9.5520797,
  "tags": {
    "addr:city": "Wolfhalden",
    "addr:country": "CH",
    "addr:housenumber": "61",
    "addr:postcode": "9427",
    "addr:street": "Kronenstrasse",
    "contact:phone": "+41 71 891 21 42",
    "contact:website": "http://museumwolfhalden.ch/",
    "name": "Museum Wolfhalden",
    "opening_hours": "May-Oct Su 10:00-12:00",
    "tourism": "museum",
    "wikidata": "Q27489895"
  }
},
{
  "type": "node",
  "id": 1977634008,
  "lat": 47.6705425,
  "lon": 9.5177765,
  "tags": {
    "addr:city": "Friedrichshafen",
    "addr:housenumber": "1",
    "addr:postcode": "88046",
    "addr:street": "Claude-Dornier-Platz",
    "contact:email": "besucherservice@dorniermuseum.de",
    "contact:facebook": "https://de-de.facebook.com/dorniermuseum/",
    "contact:fax": "+49 7541 48736 51",
    "contact:phone": "+49 7541 48736 00",
    "contact:website": "http://www.dorniermuseum.de",
    "fee": "11€",
    "name": "Dornier Museum Friedrichshafen",
    "name:de": "Dornier Museum Friedrichshafen",
    "name:es": "Museo Dornier",
    "name:pt": "Museu Dornier",
    "opening_hours": "Tu-Su 10:00-17:00; May-Oct: 09:00-17:00",
    "phone": "+49 7541 4873600",
    "toilets:wheelchair": "yes",
    "tourism": "museum",
    "website": "https://www.dorniermuseum.de",
    "wheelchair": "yes",
    "wheelchair:description": "Aufzug und Parkplätze vorhanden",
    "wikidata": "Q786797",
    "wikipedia": "de:Dornier-Museum"
  }
},
{
  "type": "node",
  "id": 2047029932,
  "lat": 47.5674629,
  "lon": 9.3822596,
  "tags": {
    "name": "Museum im Alten Zollhaus",
    "tourism": "museum"
  }
},
{
  "type": "node",
  "id": 2124818893,
  "lat": 47.7885923,
  "lon": 9.8817302,
  "tags": {
    "tourism": "museum"
  }
},
{
  "type": "node",
  "id": 2177531922,
  "lat": 47.3305696,
  "lon": 9.6030500,
  "tags": {
    "name": "Museum f. Urgeschichte",
    "tourism": "museum"
  }
},
{
  "type": "node",
  "id": 2371779882,
  "lat": 47.3521084,
  "lon": 9.6203182,
  "tags": {
    "name": "Alamannen-Museumsdorf",
    "tourism": "museum",
    "website": "https://www.alamannenkreis.com/museumsdorf/"
  }
},
{
  "type": "node",
  "id": 2429299941,
  "lat": 47.4117129,
  "lon": 9.7425633,
  "tags": {
    "fee:price": "4",
    "name": "Flatz Museum",
    "opening_hours": "Fr 15:00-17:00; Sa 11:00-17:00",
    "subject": "arts",
    "toilets:wheelchair": "no",
    "tourism": "museum",
    "website": "https://www.flatzmuseum.at/",
    "wheelchair": "yes"
  }
},
{
  "type": "node",
  "id": 2458553341,
  "lat": 47.4302601,
  "lon": 9.3791440,
  "tags": {
    "addr:housenumber": "37",
    "addr:street": "St. Jakob-Strasse",
    "name": "Bierflaschenmuseum",
    "opening_hours": "Mo-Fr 08:00-12:15, 13:30-18:00; Sa 08:00-16:30",
    "tourism": "museum",
    "website": "https://www.schuetzengarten.ch/"
  }
},
{
  "type": "node",
  "id": 2514072746,
  "lat": 47.7545314,
  "lon": 9.7112428,
  "tags": {
    "name": "Museum für Indianistik",
    "operator": "Alois Weber",
    "phone": "+49 7529 6571",
    "tourism": "museum"
  }
},
{
  "type": "node",
  "id": 2519885647,
  "lat": 47.7589823,
  "lon": 9.7120310,
  "tags": {
    "name": "Museum auf der Burg",
    "operator": "Gemeinde Waldburg",
    "tourism": "museum"
  }
},
{
  "type": "node",
  "id": 2606146608,
  "lat": 47.4660156,
  "lon": 9.5671409,
  "tags": {
    "name": "Ortsmuseum",
    "tourism": "museum",
    "website": "http://www.ortsmuseum-thal.ch"
  }
},
{
  "type": "node",
  "id": 2607485642,
  "lat": 47.4883729,
  "lon": 9.5556145,
  "tags": {
    "name": "Fliegermuseum",
    "tourism": "museum",
    "website": "https://www.fliegermuseum.ch/",
    "wikidata": "Q1428564"
  }
},
{
  "type": "node",
  "id": 3357502595,
  "lat": 47.4784153,
  "lon": 9.5067125,
  "tags": {
    "internet_access": "wlan",
    "name": "Forum Würth Rorschach",
    "toilets:wheelchair": "yes",
    "tourism": "museum",
    "wheelchair": "yes"
  }
},
{
  "type": "node",
  "id": 3475007146,
  "lat": 47.6048058,
  "lon": 9.8912777,
  "tags": {
    "addr:city": "Lindenberg im Allgäu",
    "addr:country": "DE",
    "addr:housenumber": "1",
    "addr:postcode": "88161",
    "addr:street": "Museumsplatz",
    "contact:website": "http://www.deutsches-hutmuseum.de/",
    "fee": "yes",
    "lastcheck": "2018-05-16",
    "name": "Deutsches Hutmuseum",
    "opening_hours": "Tu-Su 09:30-17:00",
    "ref:isil": "DE-MUS-260717",
    "toilets:wheelchair": "yes",
    "tourism": "museum",
    "wheelchair": "yes"
  }
},
{
  "type": "node",
  "id": 3577032597,
  "lat": 47.4514654,
  "lon": 9.8280969,
  "tags": {
    "addr:city": "Alberschwende",
    "addr:country": "AT",
    "addr:housenumber": "579",
    "addr:place": "Hof",
    "addr:postcode": "6861",
    "contact:website": "http://www.alberschwende.at/museum.html",
    "name": "Heimatmuseum Alberschwende",
    "tourism": "museum"
  }
},
{
  "type": "node",
  "id": 3945935118,
  "lat": 47.4786629,
  "lon": 9.6760578,
  "tags": {
    "addr:city": "Hard",
    "addr:country": "AT",
    "addr:housenumber": "8",
    "addr:postcode": "6971",
    "addr:street": "Am Römerstein",
    "email": "wilfried.stadelmann@alpla.com",
    "name": "Oldtimermuseum",
    "note": "Sehenswert",
    "opening_hours": "\"Anmeldungen per E-Mail\"",
    "operator": "Alwin Lehner",
    "tourism": "museum"
  }
},
{
  "type": "node",
  "id": 4149594093,
  "lat": 47.3955552,
  "lon": 9.3894536,
  "tags": {
    "name": "A. Vogel - Heilkräuter-Garten",
    "tourism": "museum"
  }
},
{
  "type": "node",
  "id": 4242405736,
  "lat": 47.4183781,
  "lon": 9.3665472,
  "tags": {
    "group_only": "yes",
    "name": "Historischer Polizeiposten",
    "tourism": "museum"
  }
},
{
  "type": "node",
  "id": 4399903689,
  "lat": 47.5443721,
  "lon": 9.2738553,
  "tags": {
    "addr:city": "Amriswil",
    "addr:country": "CH",
    "addr:housenumber": "127",
    "addr:postcode": "8580",
    "addr:street": "Weinfelderstrasse",
    "name": "Schulmuseum",
    "name:de": "Schulmuseum",
    "tourism": "museum"
  }
},
{
  "type": "node",
  "id": 4490051106,
  "lat": 47.5574113,
  "lon": 9.3768712,
  "tags": {
    "description": "CHF 15.00 Erwachsene",
    "email": "info@autobau.ch",
    "internet_access": "wlan",
    "internet_access:fee": "no",
    "name": "autobau Erlebniswelt",
    "opening_hours": "We 16:00-20:00; Su 10:00-17:00",
    "operator": "autobau",
    "phone": "+41 71 466 00 66",
    "tourism": "museum",
    "website": "https://www.autobau.ch/",
    "wheelchair": "yes"
  }
},
{
  "type": "node",
  "id": 4594050834,
  "lat": 47.4251155,
  "lon": 9.3836782,
  "tags": {
    "addr:city": "St. Gallen",
    "addr:housenumber": "77",
    "addr:postcode": "9000",
    "addr:street": "Linsebühlstrasse",
    "name": "POINT JAUNE museum",
    "opening_hours": "We 18:00+",
    "tourism": "museum",
    "website": "http://www.postpost.ch"
  }
},
{
  "type": "node",
  "id": 4716718092,
  "lat": 47.8253744,
  "lon": 9.6505813,
  "tags": {
    "name": "Kardel und Zunftmuseum",
    "name:de": "Kardel und Zunftmuseum",
    "tourism": "museum"
  }
},
{
  "type": "node",
  "id": 4827939021,
  "lat": 47.8217990,
  "lon": 9.7937081,
  "tags": {
    "name": "Automuseum",
    "tourism": "museum"
  }
},
{
  "type": "node",
  "id": 4829451841,
  "lat": 47.8217780,
  "lon": 9.7924056,
  "tags": {
    "name": "Automuseum 2",
    "tourism": "museum"
  }
},
{
  "type": "node",
  "id": 5389728535,
  "lat": 47.4125996,
  "lon": 9.7443929,
  "tags": {
    "addr:city": "Dornbirn",
    "addr:country": "AT",
    "addr:housenumber": "2",
    "addr:postcode": "6850",
    "addr:street": "Dr. Waibel Straße",
    "contact:phone": "+43 5572 3777 200",
    "email": "erlebniswelt@mohrenbrauerei.at",
    "name": "Mohren Biererlebniswelt",
    "opening_hours": "Th 10:00-20:00; Fr,Sa 10:00-18:00; Su 10:00-17:00",
    "operator": "Mohrenbrauerei Vertriebs KG",
    "toilets:wheelchair": "yes",
    "tourism": "museum",
    "website": "https://www.mohrenbrauerei.at/de/erlebniswelt-mohren",
    "wheelchair": "yes"
  }
},
{
  "type": "node",
  "id": 5839480826,
  "lat": 47.4238252,
  "lon": 9.3762772,
  "tags": {
    "addr:city": "St.Gallen",
    "addr:housenumber": "14",
    "addr:postcode": "9000",
    "addr:street": "Gallusstrasse",
    "name": "Stadthaus St.Gallen",
    "tourism": "museum",
    "website": "https://www.ortsbuerger.ch/stadthaus.html",
    "wikidata": "Q29786866"
  }
},
{
  "type": "node",
  "id": 5851719456,
  "lat": 47.6555507,
  "lon": 9.4837221,
  "tags": {
    "email": "info@zf-forum.com",
    "fee": "no",
    "museum_type": "company",
    "name": "ZF Forum",
    "opening_hours": "Su 10:00-17:00",
    "operator": "ZF Group",
    "phone": "+49 7541 77 0",
    "tourism": "museum",
    "website": "https://www.zf.com/site/zfforum/de/your_visit/your_visit.html",
    "wheelchair": "yes"
  }
},
{
  "type": "node",
  "id": 6065865722,
  "lat": 47.6620332,
  "lon": 9.9306475,
  "tags": {
    "addr:city": "Argenbühl",
    "addr:housenumber": "3",
    "addr:postcode": "88260",
    "addr:street": "Dorfplatz",
    "name": "Musikmuseum Eglofs",
    "opening_hours": "Mai-Oct: Su 10:00-12:00,13:30-16:00",
    "tourism": "museum",
    "website": "http://museen.de/allgaeu-schwaebisches-musikmuseum-eglofs-argenbuehl.html"
  }
},
{
  "type": "node",
  "id": 6301902627,
  "lat": 47.5456957,
  "lon": 9.6811511,
  "tags": {
    "addr:city": "Lindau (Bodensee)",
    "addr:housenumber": "52",
    "addr:postcode": "88131",
    "addr:street": "Maximilianstraße",
    "name": "Kunstmuseum am Inselbahnhof",
    "operator": "Stadt Lindau",
    "tourism": "museum",
    "website": "https://www.kultur-lindau.de/museum/friedensreich-hundertwasser/"
  }
},
{
  "type": "way",
  "id": 26143674,
  "nodes": [
    286304763,
    286304764,
    286304765,
    286304767,
    286304768,
    286304763
  ],
  "tags": {
    "addr:city": "Bezau",
    "addr:country": "AT",
    "addr:housenumber": "181",
    "addr:postcode": "6870",
    "addr:street": "Ellenbogen",
    "at_bev:addr_date": "2017-10-01",
    "building": "yes",
    "name": "Heimatmuseum Bezau",
    "tourism": "museum",
    "wikidata": "Q15114294",
    "wikipedia": "de:Heimatmuseum Bezau"
  }
},
{
  "type": "way",
  "id": 35929714,
  "nodes": [
    29778686,
    7125168444,
    7125168443,
    6912840553,
    1131564110,
    1131563981,
    420051577,
    7125168440,
    2191685182,
    1131564084,
    1131564065,
    1131563958,
    1131564378,
    1131564254,
    1131564185,
    420051578,
    420051576,
    2191685176,
    2191685171,
    29778686
  ],
  "tags": {
    "addr:city": "Friedrichshafen",
    "addr:country": "DE",
    "addr:housenumber": "22",
    "addr:postcode": "88045",
    "addr:street": "Seestraße",
    "building": "yes",
    "building:levels": "3",
    "contact:website": "http://www.zeppelin-museum.de",
    "description": "Großmuseum mit versch. Sparten",
    "email": "info@zeppelin-museum.de",
    "fax": "+49 7541 380181",
    "name": "Zeppelin Museum",
    "name:es": "Museo Zeppelin",
    "name:ru": "Музей дирижаблей",
    "opening_hours": "May-Oct: Mo-Su 09:00-17:00; Nov-Apr: Tu-Su 10:00-17:00; Jul-Sep: Mo 09:00-17:00",
    "operator": "Zeppelin Museum Friedrichshafen GmbH",
    "phone": "+49 7541 38010",
    "source": "HiRes aerial imagery;LGL, www.lgl-bw.de",
    "toilets:wheelchair": "yes",
    "tourism": "museum",
    "wheelchair": "yes",
    "wikidata": "Q191427",
    "wikipedia": "de:Zeppelin Museum"
  }
},
{
  "type": "way",
  "id": 54601490,
  "nodes": [
    687322693,
    687428176,
    687322677,
    687322679,
    687322727,
    687322729,
    687322696,
    687322691,
    687322693
  ],
  "tags": {
    "addr:city": "Lindau (Bodensee)",
    "addr:country": "DE",
    "addr:housenumber": "6",
    "addr:postcode": "88131",
    "addr:street": "Marktplatz",
    "building": "yes",
    "description": "Kulturgeschichtliches Museum",
    "email": "kulturamt@lindau.de",
    "historic": "building",
    "name": "Stadtmuseum Lindau - \"Haus zum Cavazzen\"",
    "opening_hours": "derzeit wegen Umbau geschlossen",
    "operator": "Stadt Lindau (B)",
    "phone": "+49 838227756514",
    "source": "DOP LVA Bayern lizenziert und eingezeichnet von User: britschler",
    "tourism": "museum",
    "website": "https://www.kultur-lindau.de/museum/",
    "wheelchair": "limited",
    "wikidata": "Q15848825",
    "wikipedia": "de:Stadtmuseum Lindau"
  }
},
{
  "type": "way",
  "id": 66753850,
  "nodes": [
    807073806,
    807073745,
    807073759,
    807073804,
    807073813,
    807073740,
    1357774702,
    807073821,
    807073748,
    1357774704,
    807073812,
    1357774703,
    807073720,
    807073806
  ],
  "tags": {
    "addr:city": "Hard",
    "addr:country": "AT",
    "addr:housenumber": "3",
    "addr:postcode": "6971",
    "addr:street": "Mittelweiherburg",
    "building": "yes",
    "castle_type": "stately",
    "castle_type:de": "schloss",
    "contact:website": "https://www.hard.at/de/textildruckmuseum-mittelweiherburg/",
    "description": "Kulturgeschichtliches Museum",
    "email": "textildruckmuseum@hard.at",
    "historic": "castle",
    "name": "Textildruckmuseum Mittelweiherburg",
    "opening_hours": "Apr-Oct: We,Sa 17:00-19:00, Su,PH 10:00-12:00; \"Führungen auch nach telefonischer Vereinbarung\"",
    "phone": "+43 5574 69720",
    "tourism": "museum",
    "website": "https://www.hard.at/",
    "wikidata": "Q1940464",
    "wikipedia": "de:Mittelweiherburg"
  }
},
{
  "type": "way",
  "id": 81759684,
  "nodes": [
    952586847,
    952586070,
    952586645,
    952586186,
    3152338601,
    952586847
  ],
  "tags": {
    "addr:city": "St. Margrethen",
    "addr:country": "CH",
    "addr:housenumber": "5",
    "addr:postcode": "9430",
    "addr:street": "Obere Heldsbergstrasse",
    "building": "yes",
    "contact:email": "info@festung.ch",
    "contact:phone": "+41 71 744 82 08",
    "contact:website": "http://www.festung.ch",
    "military": "bunker",
    "name": "Festungsmuseum Heldsberg",
    "opening_hours": "Sa 11:00-17:00",
    "tourism": "museum",
    "wikidata": "Q367574",
    "wikipedia": "de:Festung Heldsberg"
  }
},
{
  "type": "way",
  "id": 90547438,
  "nodes": [
    1050573236,
    1050573751,
    1050573064,
    1050573296,
    1050573236
  ],
  "tags": {
    "addr:country": "DE",
    "addr:housenumber": "2",
    "addr:street": "Hauptstraße",
    "building": "yes",
    "email": "info@westallgaeuer-heimatmuseum.de",
    "name": "Westallgäuer Heimatmuseum e.V.",
    "name:de": "Westallgäuer Heimatmuseum",
    "name:en": "Westallgäuer Heimatmuseum",
    "opening_hours": "We 10:00-12:00, 14:30-21:00",
    "operator": "Westallgäuer Heimatverein e.V.",
    "phone": "+49 8387 650",
    "source": "Bing",
    "tourism": "museum",
    "website": "https://www.westallgaeuer-heimatmuseum.de/",
    "wikidata": "Q76629744"
  }
},
{
  "type": "way",
  "id": 91382751,
  "nodes": [
    1061510107,
    1061510406,
    1061510592,
    1061510048,
    1061510242,
    1061510336,
    1061510514,
    1061510767,
    287036454,
    1061510311,
    1061510489,
    1061510738,
    1061510154,
    1061510253,
    1061510407,
    1061510676,
    1061510053,
    1061510473,
    1061510627,
    1061510118,
    1061510288,
    1061510390,
    1061510560,
    1061510815,
    1061510226,
    1061510795,
    1061510207,
    1061510437,
    1061510313,
    1061510286,
    1061510319,
    1061510469,
    1061510719,
    1061510110,
    1061510524,
    1061510694,
    1061510180,
    1061510346,
    1061510443,
    1061510107
  ],
  "tags": {
    "area": "yes",
    "contact:city": "Wolfegg",
    "contact:country": "DE",
    "contact:housenumber": "4",
    "contact:postcode": "88364",
    "contact:street": "Vogter Strraße",
    "description": "Kulturgeschichtliches Museum",
    "name": "Bauernhausmuseum Wolfegg",
    "opening_hours": "Apr-Oct: Tu-Su 10:00-17:00; May-Sep: Mo-Su 10:00-18:00; \"Oster-Mo. geöffnet\"",
    "phone": "+49 7527 95500",
    "tourism": "museum",
    "website": "https://www.bauernhausmuseum-wolfegg.de",
    "wikidata": "Q811257",
    "wikipedia": "de:Bauernhaus-Museum Wolfegg"
  }
},
{
  "type": "way",
  "id": 100715631,
  "nodes": [
    1164287095,
    1164286970,
    1164286579,
    1164287410,
    1164287237,
    1164287597,
    1164286831,
    1164287665,
    1164287095
  ],
  "tags": {
    "addr:city": "Rorschach",
    "addr:housenumber": "58",
    "addr:postcode": "9400",
    "addr:street": "Hauptstrasse",
    "building": "yes",
    "historic": "granary",
    "name": "Kornhaus",
    "source": "Bing",
    "tourism": "museum"
  }
},
{
  "type": "way",
  "id": 105527271,
  "nodes": [
    1215351089,
    1215351329,
    1215352446,
    1215350791,
    1215351089
  ],
  "tags": {
    "addr:city": "Dornbirn",
    "addr:country": "AT",
    "addr:hamlet": "Gütle",
    "addr:housenumber": "11c",
    "addr:postcode": "6850",
    "addr:street": "Gütle",
    "building": "yes",
    "email": "krippenmuseum.dornbirn@cable.vol.at",
    "name": "Krippenmuseum Dornbirn",
    "phone": "+43 5572 200632",
    "short_name": "Krippenmuseum",
    "tourism": "museum",
    "website": "www.krippenmuseum-dornbirn.at",
    "wikidata": "Q1559225",
    "wikipedia": "de:Krippenmuseum (Dornbirn)"
  }
},
{
  "type": "way",
  "id": 105527290,
  "nodes": [
    1215351977,
    1215352344,
    1998205784,
    1998205785,
    1215351397,
    1215351630,
    1215351977
  ],
  "tags": {
    "addr:city": "Dornbirn",
    "addr:country": "AT",
    "addr:hamlet": "Gütle",
    "addr:housenumber": "11a",
    "addr:place": "Gütle",
    "addr:postcode": "6850",
    "building": "yes",
    "email": "contact@rolls-royce-museum.at",
    "fax": "+43 5572 526526",
    "name": "Rolls-Royce-Museum",
    "phone": "+43 5572 52652",
    "tourism": "museum",
    "website": "https://www.rolls-royce-museum.at/",
    "wikidata": "Q2164265",
    "wikipedia": "de:Rolls-Royce-Museum"
  }
},
{
  "type": "way",
  "id": 118761081,
  "nodes": [
    1335004384,
    2483957882,
    2483957879,
    1335004374,
    1335004384
  ],
  "tags": {
    "addr:city": "Bregenz",
    "addr:country": "AT",
    "addr:housenumber": "3",
    "addr:postcode": "6900",
    "addr:street": "Karl-Tizian-Platz",
    "architect": "Peter Zumthor",
    "architect:wikidata": "Q123179",
    "building": "yes",
    "name": "Kunsthaus Bregenz",
    "opening_hours": "Tu,We,Fr-Su 10:00-18:00; Th 10:00-20:00",
    "phone": "+43 5574 485940",
    "source": "GeoImage.at",
    "start_date": "1997",
    "tourism": "museum",
    "website": "https://www.kunsthaus-bregenz.at/",
    "wheelchair": "yes",
    "wikidata": "Q675326",
    "wikipedia": "de:Kunsthaus Bregenz"
  }
},
{
  "type": "way",
  "id": 120137864,
  "nodes": [
    1347755658,
    1347755605,
    1347755499,
    1347755311,
    1347755628,
    1347755534,
    1347755358,
    1347755624,
    1347755658
  ],
  "tags": {
    "addr:city": "Hard",
    "addr:country": "AT",
    "addr:housenumber": "1",
    "addr:postcode": "6971",
    "addr:street": "Bommenweg",
    "building": "yes",
    "name": "Feuerwehr-Oldtimer-Museum",
    "source": "geoimage.at",
    "tourism": "museum"
  }
},
{
  "type": "way",
  "id": 125066638,
  "nodes": [
    1389962763,
    1389962757,
    1389962745,
    1389962744,
    1389962733,
    1389962754,
    1389962759,
    1389962758,
    1389962763
  ],
  "tags": {
    "addr:city": "St. Gallen",
    "addr:country": "CH",
    "addr:housenumber": "50",
    "addr:postcode": "9000",
    "addr:street": "Museumstrasse",
    "building": "public",
    "description": "Historisches Museum",
    "email": "info@hmsg.ch",
    "name": "Historisches und Völkerkundemuseum",
    "opening_hours": "Tu-Su 10:00-17:00",
    "phone": "+41 (0)71 242 06 42",
    "tourism": "museum",
    "website": "https://www.hmsg.ch/",
    "wikidata": "Q1621043"
  }
},
{
  "type": "way",
  "id": 125066644,
  "nodes": [
    1389962596,
    1389962618,
    1389962606,
    1389962672,
    1389962674,
    1389962680,
    1389962659,
    1389962642,
    1389962644,
    1389962546,
    1389962532,
    1389962505,
    1389962596
  ],
  "tags": {
    "addr:city": "St Gallen",
    "addr:country": "CH",
    "addr:housenumber": "32",
    "addr:postcode": "9000",
    "addr:street": "Museumstrasse",
    "building": "public",
    "description": "Großmuseum mit vielen Sparten",
    "email": "info@kunstmuseumsg.ch",
    "name": "Kunstmuseum",
    "opening_hours": "Tu-Su 10:00-17:00; We 10:00-20:00",
    "phone": "+41 (0)71 242 06 71",
    "tourism": "museum",
    "website": "https://www.kunstmuseumsg.ch/home.html",
    "wheelchair": "limited",
    "wheelchair:description": "über steile Rampe zugänglich",
    "wikidata": "Q1792552"
  }
},
{
  "type": "way",
  "id": 128782664,
  "nodes": [
    1422280275,
    1422280303,
    1422280307,
    1422280312,
    1422280334,
    1422280314,
    1422280271,
    1422280288,
    1422280275
  ],
  "tags": {
    "addr:city": "Klaus",
    "addr:country": "AT",
    "addr:housenumber": "1",
    "addr:postcode": "6833",
    "addr:street": "Walgaustraße",
    "building": "yes",
    "contact:phone": "+43 5523 62426",
    "name": "Radiomuseum",
    "opening_hours": "\"call us\"",
    "operator": "Gertrud Gut",
    "source": "geoimage.at",
    "tourism": "museum"
  }
},
{
  "type": "way",
  "id": 129310215,
  "nodes": [
    1426924131,
    1426924125,
    1426924122,
    1426924127,
    1426924131
  ],
  "tags": {
    "addr:country": "DE",
    "addr:housenumber": "13",
    "addr:street": "Hauptstraße",
    "building": "yes",
    "building:levels": "1",
    "email": "info@westallgaeuer-heimatmuseum.de",
    "name": "Kornhaus",
    "operator": "Westallgäuer Heimatverein e.V.",
    "phone": "+49 8387 1654",
    "tourism": "museum",
    "website": "https://www.westallgaeuer-heimatmuseum.de/"
  }
},
{
  "type": "way",
  "id": 131605934,
  "nodes": [
    1448218619,
    1448218648,
    1448218647,
    1448218649,
    1448218629,
    1448218621,
    1448218619
  ],
  "tags": {
    "addr:city": "St. Gallen",
    "addr:country": "CH",
    "addr:housenumber": "6d",
    "addr:postcode": "9004",
    "addr:region": "SG",
    "addr:street": "Klosterhof",
    "amenity": "library",
    "building": "yes",
    "contact:email": "stibi@stibi.ch",
    "description": "Die Stiftsbibliothek ist die älteste Bibliothek der Schweiz mit einem einmaligen Bestand von rund 170'000 Büchern und anderen Medien. Sie ist heute eine aktive Leihbibliothek.",
    "image": "https://www.wikidata.org/wiki/Q689896#/media/File:BibliothekSG.jpg",
    "name": "Stiftsbibliothek",
    "name:de": "Stiftsbibliothek",
    "name:en": "Abbey Library",
    "name:zh": "修道院图书馆",
    "opening_hours": "Mo-Sa 10:00-17:00, Su 10:00-16:00; Nov: \"Im November3 Wochen geschlossen\" || \"Spezielle Öffnungszeiten siehe auf der Homepage\"",
    "phone": "+41 71 227 34 16",
    "ref:isil": "CH-000093-7",
    "source": "Bing",
    "toilets:wheelchair": "yes",
    "tourism": "museum",
    "tourism_1": "yes",
    "website": "http://www.stibi.ch",
    "wheelchair": "yes",
    "wikidata": "Q689896",
    "wikipedia": "de:Stiftsbibliothek St. Gallen"
  }
},
{
  "type": "way",
  "id": 132735550,
  "nodes": [
    1460299463,
    1460299433,
    1460299422,
    1460299438,
    1460299439,
    5349324646,
    1460299463
  ],
  "tags": {
    "addr:city": "Lochau",
    "addr:country": "AT",
    "addr:housenumber": "25",
    "addr:postcode": "6911",
    "addr:street": "Landstraße",
    "at_bev:addr_date": "2017-10-01",
    "building": "school",
    "inscription": "Schulhüsle",
    "name": "Altes Schulhüsle",
    "source": "GeoImage.at",
    "tourism": "museum"
  }
},
{
  "type": "way",
  "id": 135405103,
  "nodes": [
    1487086110,
    1487086113,
    1487086117,
    1487086134,
    1487086114,
    1487086093,
    1487086101,
    1487086096,
    1487086110
  ],
  "tags": {
    "addr:city": "Hohenems",
    "addr:country": "AT",
    "addr:housenumber": "5",
    "addr:postcode": "6845",
    "addr:street": "Schweizer Straße",
    "building": "yes",
    "description": "Historisches Museum",
    "email": "office@jm-hohenems.at",
    "name": "Jüdisches Museum",
    "opening_hours": "Tu-Su, PH 10:00-17:00",
    "phone": "+43(0)557673989",
    "source": "geoimage.at",
    "tourism": "museum",
    "website": "https://www.jm-hohenems.at/",
    "wheelchair": "no",
    "wikidata": "Q1575385",
    "wikipedia": "de:Jüdisches Museum Hohenems"
  }
},
{
  "type": "way",
  "id": 135633777,
  "nodes": [
    1489384199,
    1489384197,
    1489384198,
    1489384200,
    1489384199
  ],
  "tags": {
    "addr:city": "Dornbirn",
    "addr:country": "AT",
    "addr:housename": "Stadtmuseum Dornbirn",
    "addr:housenumber": "11",
    "addr:postcode": "6850",
    "addr:street": "Marktplatz",
    "building": "yes",
    "name": "Stadtmuseum Dornbirn",
    "opening_hours": "Tu-Su 10:00-12:00, 14:00-17:00",
    "tourism": "museum",
    "website": "https://stadtmuseum.dornbirn.at/?id=3043",
    "wheelchair": "no",
    "wikidata": "Q1366650",
    "wikipedia": "de:Stadtmuseum Dornbirn"
  }
},
{
  "type": "way",
  "id": 142495222,
  "nodes": [
    1559429710,
    1559429672,
    1559429671,
    1559429704,
    1559429710
  ],
  "tags": {
    "building": "yes",
    "name": "Kunst im Rohnerhaus",
    "opening_hours": "We-Sa11:00-17:00;Fr11:00-22:00",
    "tourism": "museum",
    "website": "http://www.rohnerhaus.at/"
  }
},
{
  "type": "way",
  "id": 143955986,
  "nodes": [
    1575337242,
    1575337245,
    1575337184,
    1575337181,
    1575337242
  ],
  "tags": {
    "building": "yes",
    "name": "s'Huimatle",
    "tourism": "museum"
  }
},
{
  "type": "way",
  "id": 147379004,
  "nodes": [
    1605898611,
    1605898606,
    1605898613,
    442329817,
    1605898611
  ],
  "tags": {
    "addr:city": "Weingarten",
    "addr:country": "DE",
    "addr:housenumber": "1",
    "addr:postcode": "88250",
    "addr:street": "Scherzachstraße",
    "building": "yes",
    "description": "Kulturgeschichtliches Museum",
    "email": "museen@weingarten-online.de",
    "image": "File:Weingarten Schlössle.jpg",
    "name": "Stadtmuseum im Schlössle",
    "opening_hours": "Tu,We,Fr-Su 14:00-17:00; Th 14:00-18:00",
    "phone": "+49(0)751405255",
    "tourism": "museum",
    "website": "http://www.weingarten-online.de/servlet/PB/menu/1120936/index.html",
    "wheelchair": "yes"
  }
},
{
  "type": "way",
  "id": 148595075,
  "nodes": [
    1616790261,
    1616790224,
    1616790197,
    1616790233,
    1616790261
  ],
  "tags": {
    "addr:city": "Rehetobel",
    "addr:country": "CH",
    "addr:housenumber": "4",
    "addr:postcode": "9038",
    "addr:street": "Heidenerstrasse",
    "building": "yes",
    "name": "Velomuseum",
    "source": "Orthophoto Rehetobel 2011 / R-Pod @ HEIG-VD",
    "tourism": "museum",
    "website": "https://www.velomuseum-rehetobel.ch/"
  }
},
{
  "type": "way",
  "id": 156354626,
  "nodes": [
    1686103891,
    1686103921,
    1686103894,
    1686103903,
    1686103835,
    1686103832,
    1686103829,
    1686103833,
    1686103824,
    1686103821,
    1686103819,
    1686103868,
    1686103839,
    1686103810,
    1686103780,
    1686103761,
    1686103798,
    1686103796,
    1686103807,
    1686103809,
    1686103812,
    1686103817,
    1686103818,
    1686103808,
    1686103814,
    1686103826,
    1686103828,
    1686103815,
    1686103857,
    1686103862,
    1686103891
  ],
  "tags": {
    "addr:city": "Dornbirn",
    "addr:country": "AT",
    "addr:housenumber": "9",
    "addr:postcode": "6850",
    "addr:street": "Jahngasse",
    "building": "yes",
    "description": "Naturmuseum",
    "email": "naturschau@inatura.at",
    "name": "inatura-ErlebnisNaturschau Dornbirn",
    "opening_hours": "10:00-18:00",
    "phone": "+43 557223235",
    "source": "Orthophoto: www.geoimage.at (c)",
    "toilets:wheelchair": "yes",
    "tourism": "museum",
    "website": "https://www.inatura.at/",
    "wheelchair": "yes",
    "wikidata": "Q1660913",
    "wikipedia": "de:Inatura"
  }
},
{
  "type": "way",
  "id": 177205192,
  "nodes": [
    1876555946,
    1876555934,
    1876555942,
    1876555963,
    1876555946
  ],
  "tags": {
    "addr:city": "Hagnau am Bodensee",
    "addr:country": "DE",
    "addr:housenumber": "20",
    "addr:postcode": "88709",
    "addr:street": "Neugartenstraße",
    "building": "yes",
    "contact:website": "http://www.puppen-und-spielzeugmuseum.de",
    "lastcheck": "2016-12-03",
    "name": "Das Kleine Museum",
    "opening_hours": "We-Su 14:00-17:00; Th off; Fr off",
    "tourism": "museum",
    "wikidata": "Q21035621",
    "wikipedia": "de:Das Kleine Museum"
  }
},
{
  "type": "way",
  "id": 180155545,
  "nodes": [
    1905864353,
    1905864282,
    1905864253,
    1905864287,
    1905864353
  ],
  "tags": {
    "addr:city": "Hittisau",
    "addr:country": "AT",
    "addr:housenumber": "501",
    "addr:postcode": "6952",
    "addr:street": "Platz",
    "at_bev:addr_date": "2017-04-07",
    "building": "yes",
    "description": "Kulturgeschichtliches Museum",
    "email": "kontakt@frauenmuseum.at",
    "name": "Frauenmuseum Hittisau",
    "opening_hours": "Th 15:00-18:00; Fr,Sa,Su 10:00-12:00,14:00-17:00",
    "phone": "+43(0)5513620930",
    "source": "geoimage.at",
    "tourism": "museum",
    "website": "https://www.frauenmuseum.com/",
    "wheelchair": "yes",
    "wikidata": "Q1451826",
    "wikipedia": "de:Frauenmuseum Hittisau"
  }
},
{
  "type": "way",
  "id": 192165515,
  "nodes": [
    2027246828,
    2027246815,
    2030538602,
    2030538601,
    2027246833,
    2027246846,
    2027246828
  ],
  "tags": {
    "addr:country": "CH",
    "addr:housenumber": "25",
    "addr:postcode": "9437",
    "addr:street": "Obergasse",
    "alt_name": "Ortsmuseum",
    "building": "yes",
    "name": "Oberes Bad",
    "tourism": "museum",
    "website": "http://www.marbach.ch/de/sportkulturfreizeit/ortsmuseum/"
  }
},
{
  "type": "way",
  "id": 192501917,
  "nodes": [
    2030538609,
    2030538607,
    2030538608,
    2030538610,
    2030538609
  ],
  "tags": {
    "alt_name": "Spritzenhaus",
    "building": "yes",
    "name": "Ortsmuseum Rebstein",
    "opening_hours": "\"nach Vereinbarung (Tel. +41 79 207 85 58)\"",
    "tourism": "museum"
  }
},
{
  "type": "way",
  "id": 193024740,
  "nodes": [
    2035531095,
    2035531087,
    2035531040,
    2035531043,
    2035531025,
    2035531009,
    2035531006,
    2035531072,
    2035531069,
    2035531097,
    2035531101,
    2035531099,
    2035531095
  ],
  "tags": {
    "addr:city": "Altstätten",
    "addr:country": "CH",
    "addr:postcode": "9450",
    "addr:street": "Gerbergasse",
    "building": "yes",
    "description": "Historisches Museum",
    "email": "info@museum-altstaetten.ch",
    "name": "Museum Prestegg",
    "opening_hours": "Apr-Nov: Su 14:00-17:00 \"und nach Vereinbarung\"",
    "phone": "+41(0)717552020",
    "source": "bing",
    "tourism": "museum",
    "website": "http://www.museum-altstaetten.ch",
    "wikidata": "Q27479450"
  }
},
{
  "type": "way",
  "id": 194026958,
  "nodes": [
    2726695076,
    2726695074,
    2726695075,
    2726695077,
    2726695079,
    634367667,
    2045385004,
    2045385009,
    2726695078,
    2726695076
  ],
  "tags": {
    "addr:city": "Ravensburg",
    "addr:country": "DE",
    "addr:housenumber": "26",
    "addr:postcode": "88212",
    "addr:street": "Marktstraße",
    "building": "yes",
    "building:colour": "red",
    "building:levels": "4",
    "name": "Museum Ravensburger",
    "opening_hours": "Tu-Su 10:00-18:00; Mo off",
    "phone": "+49 751 861377",
    "roof:levels": "2",
    "tourism": "museum",
    "website": "https://www.museum-ravensburger.de",
    "wheelchair": "yes",
    "wikidata": "Q18760637"
  }
},
{
  "type": "way",
  "id": 194191779,
  "nodes": [
    5020292385,
    5020292386,
    2047051190,
    5020292382,
    5020292383,
    5020292384,
    2047051115,
    2047051121,
    5020292385
  ],
  "tags": {
    "addr:city": "Appenzell",
    "addr:housenumber": "5",
    "addr:postcode": "9050",
    "addr:street": "Unterrainstrasse",
    "building": "yes",
    "email": "info@kunstmuseumappenzell.ch",
    "fax": "+41 71 788 18 01",
    "name": "Kunstmuseum Appenzell",
    "opening_hours": "Tu-Fr 10:00-12:00,14:00-17:00;Sa-Su 11:00-17:00",
    "operator": "Heinrich Gebert Kulturstiftung Appenzell",
    "phone": "+41 71 788 18 00",
    "tourism": "museum",
    "website": "http://www.h-gebertka.ch",
    "wheelchair": "yes",
    "wikidata": "Q1954467",
    "wikipedia": "de:Kunstmuseum Appenzell"
  }
},
{
  "type": "way",
  "id": 194701404,
  "nodes": [
    2052038348,
    2052038320,
    2290545934,
    2052038293,
    2052038276,
    2052038287,
    2052038348
  ],
  "tags": {
    "addr:city": "Weingarten",
    "addr:country": "DE",
    "addr:housenumber": "3",
    "addr:postcode": "88250",
    "addr:street": "Am Vorderochsen",
    "building": "yes",
    "name": "Fasnetsmuseum der Plätzlerzunft",
    "operator": "Plätzlerzunft Altdorf-Weingarten 1348 e. V.",
    "tourism": "museum",
    "website": "https://www.plaetzlerzunft.de/"
  }
},
{
  "type": "way",
  "id": 195446857,
  "nodes": [
    2058970056,
    2058970064,
    2058970196,
    2058970078,
    2058970056
  ],
  "tags": {
    "building": "yes",
    "name": "Autobau Factory",
    "tourism": "museum"
  }
},
{
  "type": "way",
  "id": 196764852,
  "nodes": [
    2070560891,
    2070560727,
    2070560736,
    2070560677,
    2070560891
  ],
  "tags": {
    "building": "yes",
    "name": "Feuerwehrmuseum",
    "tourism": "museum"
  }
},
{
  "type": "way",
  "id": 197457250,
  "nodes": [
    2076970628,
    2076970620,
    2076970605,
    2076970592,
    2076970544,
    2076970558,
    2076970566,
    2076970569,
    2076970628
  ],
  "tags": {
    "addr:city": "Appenzell",
    "addr:housenumber": "14",
    "addr:postcode": "9050",
    "addr:street": "Ziegeleistrasse",
    "building": "yes",
    "email": "info@kunsthalleziegelhuette.ch",
    "fax": "+41 71 788 18 61",
    "name": "Kunsthalle Ziegelhütte",
    "opening_hours": "Tu-Fr 10:00-12:00,14:00-17:00; Sa-Su 11:00-17:00",
    "operator": "Heinrich Gebert Kulturstiftung Appenzell",
    "phone": "+41 71 788 18 60",
    "tourism": "museum",
    "website": "http://www.h-gebertka.ch",
    "wheelchair": "limited"
  }
},
{
  "type": "way",
  "id": 199522073,
  "nodes": [
    2095071852,
    2095071843,
    2095071835,
    2095071844,
    2095071842,
    2095071848,
    2095071845,
    2095071849,
    2095071852
  ],
  "tags": {
    "addr:city": "Heiden",
    "addr:country": "CH",
    "addr:housenumber": "2",
    "addr:postcode": "9410",
    "addr:street": "Asylstrasse",
    "building": "yes",
    "contact:phone": "+41 71 891 44 04",
    "contact:website": "http://www.museum-urnaesch.ch",
    "name": "Henry-Dunant-Museum",
    "source": "Bing",
    "tourism": "museum",
    "website": "http://www.dunant-museum.ch/",
    "wikidata": "Q689389",
    "wikipedia": "de:Henry-Dunant-Museum Heiden"
  }
},
{
  "type": "way",
  "id": 200360017,
  "nodes": [
    2103498977,
    2103498975,
    2103498978,
    2103498979,
    2103498977
  ],
  "tags": {
    "addr:city": "Friedrichshafen",
    "addr:country": "DE",
    "addr:housenumber": "20",
    "addr:postcode": "88048",
    "addr:street": "Waltenweilerstraße",
    "building": "yes",
    "name": "Feuerwehrmuseum Friedrichshafen",
    "phone": "+49 (0) 7541 2032200",
    "tourism": "museum",
    "website": "https://www.friedrichshafen.de/kultur-leben/museen/?tx_wesfacilities_pi1%5Bid%5D=180&tx_wesfacilities_pi1%5BcategoryUid%5D=71&tx_wesfacilities_sight%5BshowUid%5D=180&cHash=3a4441743848250ad844e81abfe2bfae"
  }
},
{
  "type": "way",
  "id": 202030660,
  "nodes": [
    2120140750,
    2120140748,
    2726695067,
    2726695066,
    6451181500,
    6451181503,
    2120140751,
    2120140759,
    2120140750
  ],
  "tags": {
    "addr:city": "Ravensburg",
    "addr:country": "DE",
    "addr:housenumber": "9",
    "addr:postcode": "88212",
    "addr:street": "Burgstraße",
    "building": "yes",
    "fee": "yes",
    "lastcheck": "2017-11-16",
    "name": "Kunstmuseum Ravensburg",
    "opening_hours": "Tu-Su 11:00-18:00; Fr 11:00-19:00",
    "phone": "+49 751 82810",
    "tourism": "museum",
    "website": "https://www.kunstmuseum-ravensburg.de/",
    "wheelchair": "yes",
    "wikidata": "Q1792548",
    "wikipedia": "de:Kunstmuseum Ravensburg"
  }
},
{
  "type": "way",
  "id": 220719769,
  "nodes": [
    2298117628,
    2298117627,
    2298117629,
    2298117630,
    2298117628
  ],
  "tags": {
    "building": "yes",
    "height": "28 m",
    "historic": "castle",
    "man_made": "tower",
    "name": "Hexenturm",
    "roof:height": "8 m",
    "roof:shape": "gabled",
    "source": "LGL-BW, www.lgl-bw.de",
    "tourism": "museum",
    "wheelchair": "no",
    "wikidata": "Q67772530"
  }
},
{
  "type": "way",
  "id": 225322368,
  "nodes": [
    2341115346,
    2341115387,
    2341115392,
    2341115358,
    2341115346
  ],
  "tags": {
    "addr:city": "Nonnenhorn",
    "addr:country": "DE",
    "addr:housenumber": "4",
    "addr:postcode": "88149",
    "addr:street": "Seehalde",
    "building": "yes",
    "name": "Dorfmuseum",
    "tourism": "museum"
  }
},
{
  "type": "way",
  "id": 225619512,
  "nodes": [
    2343783479,
    2343783481,
    2343783480,
    2343783478,
    2343783479
  ],
  "tags": {
    "addr:city": "Wasserburg (Bodensee)",
    "addr:country": "DE",
    "addr:housenumber": "77",
    "addr:postcode": "88142",
    "addr:street": "Halbinselstraße",
    "building": "yes",
    "name": "Im Malhaus",
    "tourism": "museum",
    "wikidata": "Q1954715"
  }
},
{
  "type": "way",
  "id": 227685502,
  "nodes": [
    2363300331,
    2363300329,
    2363300326,
    2363300328,
    2363300331
  ],
  "tags": {
    "building": "yes",
    "fee": "no",
    "name": "kleines Feuerwehr-Museum",
    "source": "survey",
    "tourism": "museum"
  }
},
{
  "type": "way",
  "id": 231175169,
  "nodes": [
    2395856938,
    2395856941,
    2395856927,
    2395856951,
    2395856965,
    2395856930,
    2395856938
  ],
  "tags": {
    "addr:city": "Egg",
    "addr:country": "AT",
    "addr:housenumber": "5",
    "addr:postcode": "6863",
    "addr:street": "Pfarrhof",
    "building": "yes",
    "heritage": "4",
    "heritage:operator": "bda",
    "historic": "heritage_building",
    "image": "http://commons.wikimedia.org/wiki/File:Pfarrhof_5_Egg_02.JPG",
    "name": "Egg Museum",
    "note": "Heimatmuseum",
    "ref:at:bda": "21805",
    "source": "geoimage.at",
    "tourism": "museum",
    "website": "https://www.eggmuseum.at/",
    "wikidata": "Q1297374",
    "wikipedia": "de:Egg Museum"
  }
},
{
  "type": "way",
  "id": 232119581,
  "nodes": [
    2404827082,
    2404827025,
    2404827038,
    2404827043,
    2404827079,
    2404827067,
    2404827082
  ],
  "tags": {
    "addr:city": "Feldkirch",
    "addr:country": "AT",
    "addr:housenumber": "39",
    "addr:postcode": "6800",
    "addr:street": "Bifangstraße",
    "building": "yes",
    "name": "Motorradmuseum Gisingen",
    "opening_hours": "Fr[2] 14:00 - 18:00; Sa[2] 14:00 - 18:00",
    "tourism": "museum",
    "website": "https://puch-museum.jimdo.com/"
  }
},
{
  "type": "way",
  "id": 239877616,
  "nodes": [
    2476550943,
    2476550944,
    2476550945,
    2476550946,
    2476550947,
    2476550948,
    2476550943
  ],
  "tags": {
    "building": "yes",
    "name": "Museum im blauen Haus",
    "tourism": "museum"
  }
},
{
  "type": "way",
  "id": 240681421,
  "nodes": [
    1335000472,
    2151179947,
    1335000319,
    1335000079,
    2151179948,
    1335000299,
    1335000472
  ],
  "tags": {
    "addr:city": "Bregenz",
    "addr:country": "AT",
    "addr:housenumber": "1",
    "addr:postcode": "6900",
    "addr:street": "Kornmarktplatz",
    "building": "yes",
    "description": "Vorarlberger Landesmuseum",
    "email": "info@vorarlbergmuseum.at",
    "name": "vorarlberg museum",
    "note": "formerly Bezirkshauptmannschaft (administration building), museum opened June 2013",
    "opening_hours": "Tu-Su 10:00-18:00; Th 10:00-21:00",
    "operator": "Vorarlberger Kulturhäuser-Betriebsgesellschaft mbH",
    "phone": "+43 5574 46050",
    "source": "GeoImage.at",
    "start_date": "1904",
    "toilets:wheelchair": "yes",
    "tourism": "museum",
    "website": "http://www.vorarlbergmuseum.at",
    "wheelchair": "yes",
    "wikidata": "Q2533480",
    "wikipedia": "de:Vorarlberg museum"
  }
},
{
  "type": "way",
  "id": 240765959,
  "nodes": [
    2484708979,
    2484708987,
    2484708980,
    2484708981,
    2484708975,
    2484708979
  ],
  "tags": {
    "building": "yes",
    "name": "Museum Appenzell",
    "tourism": "museum",
    "wikidata": "Q19362419"
  }
},
{
  "type": "way",
  "id": 267199592,
  "nodes": [
    2726695094,
    2726695085,
    1982674328,
    2726695088,
    2726695093,
    2726695109,
    2726695094
  ],
  "tags": {
    "building": "yes",
    "building:colour": "yellow",
    "building:levels": "3",
    "name": "Wirtschaftsmuseum Ravensburg",
    "phone": "+49 751 35505777",
    "roof:levels": "2",
    "tourism": "museum",
    "website": "http://www.wirtschaftsmuseum-ravensburg.de",
    "wheelchair": "limited",
    "wikidata": "Q2585923"
  }
},
{
  "type": "way",
  "id": 267214276,
  "nodes": [
    2726844775,
    2726844780,
    634367662,
    2726844791,
    2726844792,
    2726844784,
    2726844775
  ],
  "tags": {
    "addr:city": "Ravensburg",
    "addr:country": "DE",
    "addr:housenumber": "45",
    "addr:postcode": "88212",
    "addr:street": "Marktstraße",
    "building": "yes",
    "description": "Kulturgeschichtliches Museum",
    "email": "museum-humpis-quartier@ravensburg.de",
    "name": "Museum Humpis-Quartier",
    "opening_hours": "Tu-Su 11:00-18:00; Th 11:00-20:00; \"Öffentliche Führungen: Do 18:00, Familienführungen: Sa 15:00\"",
    "phone": "+49 751 82820",
    "toilets:wheelchair": "yes",
    "tourism": "museum",
    "website": "https://www.museum-humpis-quartier.de",
    "wheelchair": "yes",
    "wikidata": "Q1637298",
    "wikipedia": "de:Humpis-Quartier"
  }
},
{
  "type": "way",
  "id": 290388949,
  "nodes": [
    2939216850,
    2939216851,
    2939216849,
    916276946,
    2939216850
  ],
  "tags": {
    "addr:city": "Hergensweiler",
    "addr:country": "DE",
    "addr:housenumber": "20",
    "addr:postcode": "88138",
    "addr:street": "Dorfstraße",
    "building": "yes",
    "description": "Kulturgeschichtliches Museum",
    "email": "nuberw@t-online.de",
    "name": "Heimatmuseum Hergensweiler",
    "opening_hours": "May Su[1] - Nov Su[1]: Su[1,3] 10:30-16:00",
    "phone": "+49(0)8388235",
    "tourism": "museum",
    "website": "http://www.hergensweiler.info/heimatmuseum/"
  }
},
{
  "type": "way",
  "id": 311983636,
  "nodes": [
    1363290260,
    1363290264,
    1363290246,
    1363290233,
    1363290252,
    1363290257,
    1363290260
  ],
  "tags": {
    "addr:city": "Hohenems",
    "addr:country": "AT",
    "addr:housenumber": "2",
    "addr:postcode": "6845",
    "addr:street": "Schwefelbadstraße",
    "building": "yes",
    "contact:email": "otten@ottenkunstraum.at",
    "contact:phone": "+43 5576 90400",
    "name": "Otten Kunstraum",
    "operator": "Wilhelm Otten",
    "ref": "A01",
    "tourism": "museum",
    "website": "http://ottenkunstraum.at/"
  }
},
{
  "type": "way",
  "id": 319847880,
  "nodes": [
    3263193477,
    3263193246,
    3263193251,
    3263193463,
    3263193465,
    3263193474,
    3263193473,
    3263193482,
    3263193477
  ],
  "tags": {
    "addr:housenumber": "2",
    "addr:street": "Dorfplatz",
    "building": "yes",
    "name": "Museum am Dorfplatz Gais",
    "tourism": "museum",
    "website": "http://www.museen-im-appenzellerland.ch/museen/museum-am-dorfplatz-gais/"
  }
},
{
  "type": "way",
  "id": 335747424,
  "nodes": [
    3428540619,
    3428540626,
    3428540624,
    3428540625,
    3428540620,
    3428540617,
    3428540608,
    3428540614,
    3428540619
  ],
  "tags": {
    "building": "yes",
    "name": "Ortsmuseum",
    "tourism": "museum"
  }
},
{
  "type": "way",
  "id": 381302093,
  "nodes": [
    3845298575,
    3845298583,
    3845298578,
    3845298584,
    3845298581,
    3845298586,
    3845298582,
    3845298574,
    3845298575
  ],
  "tags": {
    "addr:city": "Lustenau",
    "addr:country": "AT",
    "addr:housenumber": "21",
    "addr:postcode": "6890",
    "addr:street": "Hofsteigstraße",
    "building": "yes",
    "name": "Rauch's Radiomuseum",
    "opening_hours": "Th 15:00-19:00",
    "operator": "Herbert Rauch",
    "phone": "+43 5577 82784",
    "tourism": "museum",
    "website": "http://www.vorarlbergmuseen.at/museen/rauchs-radiomuseum-lustenau/"
  }
},
{
  "type": "way",
  "id": 464120306,
  "nodes": [
    4592726923,
    4592726922,
    4592726921,
    4592726920,
    4592726919,
    4592726918,
    4592726917,
    4592726913,
    4592726912,
    4592726914,
    4592726915,
    4592726916,
    4592726923
  ],
  "tags": {
    "addr:city": "St. Gallen",
    "addr:housenumber": "263",
    "addr:postcode": "9016",
    "addr:street": "Rorschacher Strasse",
    "building": "yes",
    "building:levels": "4",
    "email": "info@naturmuseumsg.ch",
    "name": "Naturmuseum St.Gallen",
    "opening_hours": "Tu, Th-Su 10:00-17:00; We 10:00-20:00",
    "phone": "+41 71 243 40 40",
    "tourism": "museum",
    "website": "https://www.naturmuseumsg.ch/",
    "wikidata": "Q1970402"
  }
},
{
  "type": "way",
  "id": 630909769,
  "nodes": [
    5956859988,
    5956859989,
    5956859990,
    5956859991,
    5956859992,
    5956859993,
    5956859994,
    5956859995,
    5956859988
  ],
  "tags": {
    "addr:housenumber": "209",
    "addr:street": "St. Gallerstrasse",
    "building": "yes",
    "name": "MoMö",
    "opening_hours": "We,Fr 09:00-18:30; Th 09:00-21:00; Sa,Su 09:00-17:00",
    "tourism": "museum",
    "website": "https://www.moehl.ch/de/besuche-das-momoe/momoe/"
  }
},
{
  "type": "way",
  "id": 697105843,
  "nodes": [
    6547162099,
    6547162100,
    6547162102,
    6547162101,
    6547162099
  ],
  "tags": {
    "addr:city": "Haslen",
    "addr:postcode": "9054",
    "addr:street": "Vorderhaslen",
    "building": "yes",
    "email": "info@festung.ch",
    "military": "bunker",
    "name": "Kommandobunker Grenzbrigade 8",
    "operator": "Verein Festungsmuseum Heldsberg",
    "phone": "+41 71 733 40 31",
    "tourism": "museum",
    "website": "www.festung.ch"
  }
},
{
  "type": "way",
  "id": 702376470,
  "nodes": [
    6595877934,
    2072119783,
    2072119804,
    2072119803,
    2072119827,
    6595877943,
    6595877944,
    6595877935,
    6595877934
  ],
  "tags": {
    "addr:city": "Friedrichshafen",
    "addr:country": "DE",
    "addr:housenumber": "12",
    "addr:postcode": "88045",
    "addr:street": "König-Wilhelm-Platz",
    "building": "yes",
    "email": "anmeldung@zeppelin-museum.de",
    "fee": "5€",
    "name": "Schauhaus im Zeppelindorf",
    "opening_hours": "May-Oct: Su 12:00-17:00",
    "phone": "+49 7541 3801 25",
    "tourism": "museum",
    "website": "https://www.zeppelin-museum.de/de/museum/zeppelindorf.php"
  }
},
{
  "type": "relation",
  "id": 3206290,
  "members": [
    {
      "type": "way",
      "ref": 237933969,
      "role": ""
    },
    {
      "type": "way",
      "ref": 237933968,
      "role": ""
    },
    {
      "type": "way",
      "ref": 237933967,
      "role": ""
    },
    {
      "type": "way",
      "ref": 237933980,
      "role": ""
    }
  ],
  "tags": {
    "name": "Schollenmühle",
    "opening_hours": "24/7",
    "operator": "Pro Riet",
    "tourism": "museum",
    "type": "site"
  }
},
{
  "type": "node",
  "id": 6547162099,
  "lat": 47.3584182,
  "lon": 9.3719142
},
{
  "type": "node",
  "id": 6547162100,
  "lat": 47.3582980,
  "lon": 9.3719140
},
{
  "type": "node",
  "id": 6547162101,
  "lat": 47.3584180,
  "lon": 9.3720686
},
{
  "type": "node",
  "id": 6547162102,
  "lat": 47.3582978,
  "lon": 9.3720684
},
{
  "type": "node",
  "id": 2076970544,
  "lat": 47.3254393,
  "lon": 9.4078755
},
{
  "type": "node",
  "id": 2076970558,
  "lat": 47.3255319,
  "lon": 9.4074744
},
{
  "type": "node",
  "id": 2076970566,
  "lat": 47.3255652,
  "lon": 9.4074912
},
{
  "type": "node",
  "id": 2076970569,
  "lat": 47.3255780,
  "lon": 9.4074356
},
{
  "type": "node",
  "id": 2076970592,
  "lat": 47.3256953,
  "lon": 9.4080041
},
{
  "type": "node",
  "id": 2076970605,
  "lat": 47.3257559,
  "lon": 9.4077414
},
{
  "type": "node",
  "id": 2076970620,
  "lat": 47.3258188,
  "lon": 9.4077729
},
{
  "type": "node",
  "id": 2076970628,
  "lat": 47.3258635,
  "lon": 9.4075791
},
{
  "type": "node",
  "id": 2484708975,
  "lat": 47.3307711,
  "lon": 9.4099252
},
{
  "type": "node",
  "id": 2484708979,
  "lat": 47.3307691,
  "lon": 9.4098100
},
{
  "type": "node",
  "id": 2484708980,
  "lat": 47.3309680,
  "lon": 9.4097991
},
{
  "type": "node",
  "id": 2484708981,
  "lat": 47.3309713,
  "lon": 9.4099144
},
{
  "type": "node",
  "id": 2484708987,
  "lat": 47.3309534,
  "lon": 9.4097999
},
{
  "type": "node",
  "id": 2047051115,
  "lat": 47.3279232,
  "lon": 9.4114772
},
{
  "type": "node",
  "id": 2047051121,
  "lat": 47.3279482,
  "lon": 9.4114764
},
{
  "type": "node",
  "id": 2047051190,
  "lat": 47.3284266,
  "lon": 9.4114971
},
{
  "type": "node",
  "id": 2476550943,
  "lat": 47.3286476,
  "lon": 9.4133319
},
{
  "type": "node",
  "id": 2476550944,
  "lat": 47.3285821,
  "lon": 9.4134719
},
{
  "type": "node",
  "id": 2476550945,
  "lat": 47.3286467,
  "lon": 9.4135376
},
{
  "type": "node",
  "id": 2476550946,
  "lat": 47.3286743,
  "lon": 9.4134787
},
{
  "type": "node",
  "id": 2476550947,
  "lat": 47.3287197,
  "lon": 9.4135249
},
{
  "type": "node",
  "id": 2476550948,
  "lat": 47.3287576,
  "lon": 9.4134439
},
{
  "type": "node",
  "id": 5020292382,
  "lat": 47.3284096,
  "lon": 9.4114976
},
{
  "type": "node",
  "id": 5020292383,
  "lat": 47.3284099,
  "lon": 9.4116038
},
{
  "type": "node",
  "id": 5020292384,
  "lat": 47.3279247,
  "lon": 9.4115868
},
{
  "type": "node",
  "id": 5020292385,
  "lat": 47.3279512,
  "lon": 9.4113825
},
{
  "type": "node",
  "id": 5020292386,
  "lat": 47.3284265,
  "lon": 9.4113887
},
{
  "type": "node",
  "id": 2404827025,
  "lat": 47.2546044,
  "lon": 9.5882797
},
{
  "type": "node",
  "id": 2404827038,
  "lat": 47.2544901,
  "lon": 9.5883541
},
{
  "type": "node",
  "id": 2404827043,
  "lat": 47.2544483,
  "lon": 9.5882148
},
{
  "type": "node",
  "id": 2404827067,
  "lat": 47.2545529,
  "lon": 9.5882001
},
{
  "type": "node",
  "id": 2404827079,
  "lat": 47.2545395,
  "lon": 9.5881554
},
{
  "type": "node",
  "id": 2404827082,
  "lat": 47.2545760,
  "lon": 9.5881851
},
{
  "type": "node",
  "id": 3263193246,
  "lat": 47.3620863,
  "lon": 9.4541325
},
{
  "type": "node",
  "id": 3263193251,
  "lat": 47.3621149,
  "lon": 9.4542993
},
{
  "type": "node",
  "id": 3263193463,
  "lat": 47.3621495,
  "lon": 9.4542858
},
{
  "type": "node",
  "id": 3263193465,
  "lat": 47.3621535,
  "lon": 9.4543008
},
{
  "type": "node",
  "id": 3263193473,
  "lat": 47.3621943,
  "lon": 9.4542648
},
{
  "type": "node",
  "id": 3263193474,
  "lat": 47.3621983,
  "lon": 9.4542843
},
{
  "type": "node",
  "id": 3263193477,
  "lat": 47.3622024,
  "lon": 9.4540889
},
{
  "type": "node",
  "id": 3263193482,
  "lat": 47.3622278,
  "lon": 9.4542528
},
{
  "type": "node",
  "id": 2035531006,
  "lat": 47.3776844,
  "lon": 9.5384483
},
{
  "type": "node",
  "id": 2035531009,
  "lat": 47.3776976,
  "lon": 9.5385119
},
{
  "type": "node",
  "id": 2035531025,
  "lat": 47.3777181,
  "lon": 9.5386100
},
{
  "type": "node",
  "id": 2035531040,
  "lat": 47.3777796,
  "lon": 9.5384750
},
{
  "type": "node",
  "id": 2035531043,
  "lat": 47.3777967,
  "lon": 9.5385569
},
{
  "type": "node",
  "id": 2035531069,
  "lat": 47.3778920,
  "lon": 9.5383540
},
{
  "type": "node",
  "id": 2035531072,
  "lat": 47.3778802,
  "lon": 9.5383593
},
{
  "type": "node",
  "id": 2035531087,
  "lat": 47.3778921,
  "lon": 9.5384238
},
{
  "type": "node",
  "id": 2035531095,
  "lat": 47.3779180,
  "lon": 9.5384120
},
{
  "type": "node",
  "id": 2035531097,
  "lat": 47.3780049,
  "lon": 9.5382436
},
{
  "type": "node",
  "id": 2035531099,
  "lat": 47.3780016,
  "lon": 9.5385988
},
{
  "type": "node",
  "id": 2035531101,
  "lat": 47.3781146,
  "lon": 9.5384885
},
{
  "type": "node",
  "id": 2070560677,
  "lat": 47.4100670,
  "lon": 9.5351930
},
{
  "type": "node",
  "id": 2070560727,
  "lat": 47.4099994,
  "lon": 9.5352682
},
{
  "type": "node",
  "id": 2070560736,
  "lat": 47.4099938,
  "lon": 9.5352075
},
{
  "type": "node",
  "id": 2070560891,
  "lat": 47.4100726,
  "lon": 9.5352537
},
{
  "type": "node",
  "id": 2458021190,
  "lat": 47.3566781,
  "lon": 9.5667164
},
{
  "type": "node",
  "id": 2458021191,
  "lat": 47.3567035,
  "lon": 9.5668804
},
{
  "type": "node",
  "id": 2458021192,
  "lat": 47.3567054,
  "lon": 9.5666272
},
{
  "type": "node",
  "id": 2458021193,
  "lat": 47.3567834,
  "lon": 9.5669466
},
{
  "type": "node",
  "id": 2458021194,
  "lat": 47.3568340,
  "lon": 9.5665869
},
{
  "type": "node",
  "id": 2458021195,
  "lat": 47.3568769,
  "lon": 9.5666387
},
{
  "type": "node",
  "id": 2458021196,
  "lat": 47.3568867,
  "lon": 9.5671135
},
{
  "type": "node",
  "id": 2458021199,
  "lat": 47.3569724,
  "lon": 9.5671567
},
{
  "type": "node",
  "id": 2458021201,
  "lat": 47.3569802,
  "lon": 9.5667164
},
{
  "type": "node",
  "id": 2458021202,
  "lat": 47.3570061,
  "lon": 9.5664851
},
{
  "type": "node",
  "id": 2458021205,
  "lat": 47.3570251,
  "lon": 9.5665719
},
{
  "type": "node",
  "id": 2458021208,
  "lat": 47.3570757,
  "lon": 9.5671451
},
{
  "type": "node",
  "id": 2458021210,
  "lat": 47.3571128,
  "lon": 9.5668056
},
{
  "type": "node",
  "id": 2458021213,
  "lat": 47.3571459,
  "lon": 9.5670905
},
{
  "type": "node",
  "id": 2458021214,
  "lat": 47.3571537,
  "lon": 9.5669466
},
{
  "type": "node",
  "id": 2458021219,
  "lat": 47.3572161,
  "lon": 9.5663446
},
{
  "type": "node",
  "id": 2458021221,
  "lat": 47.3572241,
  "lon": 9.5663812
},
{
  "type": "node",
  "id": 2458021226,
  "lat": 47.3572649,
  "lon": 9.5662871
},
{
  "type": "node",
  "id": 2458021228,
  "lat": 47.3572717,
  "lon": 9.5663181
},
{
  "type": "node",
  "id": 2458021230,
  "lat": 47.3572824,
  "lon": 9.5665719
},
{
  "type": "node",
  "id": 2458021232,
  "lat": 47.3572946,
  "lon": 9.5664440
},
{
  "type": "node",
  "id": 2458021234,
  "lat": 47.3573095,
  "lon": 9.5666559
},
{
  "type": "node",
  "id": 2458021235,
  "lat": 47.3573260,
  "lon": 9.5665413
},
{
  "type": "node",
  "id": 2458021239,
  "lat": 47.3573597,
  "lon": 9.5662419
},
{
  "type": "node",
  "id": 2458021240,
  "lat": 47.3573665,
  "lon": 9.5664093
},
{
  "type": "node",
  "id": 2458021242,
  "lat": 47.3574506,
  "lon": 9.5663691
},
{
  "type": "node",
  "id": 2458021243,
  "lat": 47.3574208,
  "lon": 9.5665777
},
{
  "type": "node",
  "id": 2458021245,
  "lat": 47.3574440,
  "lon": 9.5661650
},
{
  "type": "node",
  "id": 2458021247,
  "lat": 47.3574656,
  "lon": 9.5662176
},
{
  "type": "node",
  "id": 2458021251,
  "lat": 47.3575308,
  "lon": 9.5664102
},
{
  "type": "node",
  "id": 2458021252,
  "lat": 47.3575300,
  "lon": 9.5660882
},
{
  "type": "node",
  "id": 2458021253,
  "lat": 47.3575515,
  "lon": 9.5661408
},
{
  "type": "node",
  "id": 2458021255,
  "lat": 47.3575865,
  "lon": 9.5665460
},
{
  "type": "node",
  "id": 2458021259,
  "lat": 47.3578368,
  "lon": 9.5661368
},
{
  "type": "node",
  "id": 2458021261,
  "lat": 47.3578925,
  "lon": 9.5662727
},
{
  "type": "node",
  "id": 4424648462,
  "lat": 47.3573700,
  "lon": 9.5662888
},
{
  "type": "node",
  "id": 4424648463,
  "lat": 47.3574271,
  "lon": 9.5662615
},
{
  "type": "node",
  "id": 4424899884,
  "lat": 47.3572077,
  "lon": 9.5663890
},
{
  "type": "node",
  "id": 4424899886,
  "lat": 47.3572266,
  "lon": 9.5664763
},
{
  "type": "node",
  "id": 4424899888,
  "lat": 47.3573087,
  "lon": 9.5664877
},
{
  "type": "node",
  "id": 4424900089,
  "lat": 47.3573792,
  "lon": 9.5664488
},
{
  "type": "node",
  "id": 2027246815,
  "lat": 47.3927563,
  "lon": 9.5650250
},
{
  "type": "node",
  "id": 2027246828,
  "lat": 47.3928369,
  "lon": 9.5651317
},
{
  "type": "node",
  "id": 2027246833,
  "lat": 47.3927152,
  "lon": 9.5646820
},
{
  "type": "node",
  "id": 2027246846,
  "lat": 47.3929340,
  "lon": 9.5649717
},
{
  "type": "node",
  "id": 2030538601,
  "lat": 47.3927027,
  "lon": 9.5647026
},
{
  "type": "node",
  "id": 2030538602,
  "lat": 47.3928409,
  "lon": 9.5648857
},
{
  "type": "node",
  "id": 2030538607,
  "lat": 47.3990132,
  "lon": 9.5828812
},
{
  "type": "node",
  "id": 2030538608,
  "lat": 47.3990617,
  "lon": 9.5830362
},
{
  "type": "node",
  "id": 2030538609,
  "lat": 47.3990980,
  "lon": 9.5828233
},
{
  "type": "node",
  "id": 2030538610,
  "lat": 47.3991465,
  "lon": 9.5829783
},
{
  "type": "node",
  "id": 3428540608,
  "lat": 47.4078441,
  "lon": 9.6071292
},
{
  "type": "node",
  "id": 3428540614,
  "lat": 47.4079123,
  "lon": 9.6070634
},
{
  "type": "node",
  "id": 3428540617,
  "lat": 47.4079239,
  "lon": 9.6073098
},
{
  "type": "node",
  "id": 3428540619,
  "lat": 47.4079490,
  "lon": 9.6070280
},
{
  "type": "node",
  "id": 3428540620,
  "lat": 47.4079665,
  "lon": 9.6073497
},
{
  "type": "node",
  "id": 3428540624,
  "lat": 47.4079894,
  "lon": 9.6072467
},
{
  "type": "node",
  "id": 3428540625,
  "lat": 47.4080259,
  "lon": 9.6072981
},
{
  "type": "node",
  "id": 3428540626,
  "lat": 47.4080289,
  "lon": 9.6072086
},
{
  "type": "node",
  "id": 1422280271,
  "lat": 47.3117517,
  "lon": 9.6491118
},
{
  "type": "node",
  "id": 1422280275,
  "lat": 47.3117525,
  "lon": 9.6490479
},
{
  "type": "node",
  "id": 1422280288,
  "lat": 47.3117682,
  "lon": 9.6490585
},
{
  "type": "node",
  "id": 1422280303,
  "lat": 47.3117878,
  "lon": 9.6489339
},
{
  "type": "node",
  "id": 1422280307,
  "lat": 47.3118075,
  "lon": 9.6489471
},
{
  "type": "node",
  "id": 1422280312,
  "lat": 47.3118212,
  "lon": 9.6489027
},
{
  "type": "node",
  "id": 1422280314,
  "lat": 47.3118351,
  "lon": 9.6491679
},
{
  "type": "node",
  "id": 1422280334,
  "lat": 47.3119007,
  "lon": 9.6489562
},
{
  "type": "node",
  "id": 1363290233,
  "lat": 47.3491844,
  "lon": 9.6720321
},
{
  "type": "node",
  "id": 1363290246,
  "lat": 47.3493267,
  "lon": 9.6722626
},
{
  "type": "node",
  "id": 1363290252,
  "lat": 47.3493998,
  "lon": 9.6717203
},
{
  "type": "node",
  "id": 1363290257,
  "lat": 47.3494642,
  "lon": 9.6718153
},
{
  "type": "node",
  "id": 1363290260,
  "lat": 47.3495083,
  "lon": 9.6718890
},
{
  "type": "node",
  "id": 1363290264,
  "lat": 47.3495558,
  "lon": 9.6719737
},
{
  "type": "node",
  "id": 1487086093,
  "lat": 47.3645495,
  "lon": 9.6886557
},
{
  "type": "node",
  "id": 1487086096,
  "lat": 47.3645534,
  "lon": 9.6885910
},
{
  "type": "node",
  "id": 1487086101,
  "lat": 47.3645727,
  "lon": 9.6886150
},
{
  "type": "node",
  "id": 1487086110,
  "lat": 47.3646100,
  "lon": 9.6884915
},
{
  "type": "node",
  "id": 1487086113,
  "lat": 47.3646293,
  "lon": 9.6885155
},
{
  "type": "node",
  "id": 1487086114,
  "lat": 47.3646355,
  "lon": 9.6887625
},
{
  "type": "node",
  "id": 1487086117,
  "lat": 47.3646486,
  "lon": 9.6884816
},
{
  "type": "node",
  "id": 1487086134,
  "lat": 47.3647346,
  "lon": 9.6885884
},
{
  "type": "node",
  "id": 1686103807,
  "lat": 47.4090243,
  "lon": 9.7385952
},
{
  "type": "node",
  "id": 1686103808,
  "lat": 47.4090255,
  "lon": 9.7384844
},
{
  "type": "node",
  "id": 1686103809,
  "lat": 47.4090371,
  "lon": 9.7386180
},
{
  "type": "node",
  "id": 1686103812,
  "lat": 47.4090657,
  "lon": 9.7385827
},
{
  "type": "node",
  "id": 1686103814,
  "lat": 47.4090756,
  "lon": 9.7384227
},
{
  "type": "node",
  "id": 1686103815,
  "lat": 47.4090821,
  "lon": 9.7384039
},
{
  "type": "node",
  "id": 1686103817,
  "lat": 47.4090857,
  "lon": 9.7386181
},
{
  "type": "node",
  "id": 1686103818,
  "lat": 47.4090947,
  "lon": 9.7386070
},
{
  "type": "node",
  "id": 1686103819,
  "lat": 47.4090971,
  "lon": 9.7386441
},
{
  "type": "node",
  "id": 1686103821,
  "lat": 47.4091087,
  "lon": 9.7386298
},
{
  "type": "node",
  "id": 1686103826,
  "lat": 47.4091453,
  "lon": 9.7385461
},
{
  "type": "node",
  "id": 1686103828,
  "lat": 47.4091554,
  "lon": 9.7385336
},
{
  "type": "node",
  "id": 1686103829,
  "lat": 47.4091590,
  "lon": 9.7385672
},
{
  "type": "node",
  "id": 1686103832,
  "lat": 47.4091704,
  "lon": 9.7385531
},
{
  "type": "node",
  "id": 1686103833,
  "lat": 47.4091728,
  "lon": 9.7385917
},
{
  "type": "node",
  "id": 1686103835,
  "lat": 47.4091847,
  "lon": 9.7385784
},
{
  "type": "node",
  "id": 1686103857,
  "lat": 47.4093373,
  "lon": 9.7380893
},
{
  "type": "node",
  "id": 1686103862,
  "lat": 47.4093633,
  "lon": 9.7381354
},
{
  "type": "node",
  "id": 1686103891,
  "lat": 47.4094017,
  "lon": 9.7380881
},
{
  "type": "node",
  "id": 1686103894,
  "lat": 47.4094211,
  "lon": 9.7382347
},
{
  "type": "node",
  "id": 1686103903,
  "lat": 47.4094385,
  "lon": 9.7382656
},
{
  "type": "node",
  "id": 1686103921,
  "lat": 47.4094585,
  "lon": 9.7381887
},
{
  "type": "node",
  "id": 1686103761,
  "lat": 47.4087481,
  "lon": 9.7389867
},
{
  "type": "node",
  "id": 1686103780,
  "lat": 47.4088432,
  "lon": 9.7391551
},
{
  "type": "node",
  "id": 1686103796,
  "lat": 47.4089378,
  "lon": 9.7387018
},
{
  "type": "node",
  "id": 1686103798,
  "lat": 47.4089548,
  "lon": 9.7387320
},
{
  "type": "node",
  "id": 1686103810,
  "lat": 47.4090451,
  "lon": 9.7389063
},
{
  "type": "node",
  "id": 1686103824,
  "lat": 47.4091223,
  "lon": 9.7386539
},
{
  "type": "node",
  "id": 1686103839,
  "lat": 47.4092469,
  "lon": 9.7392639
},
{
  "type": "node",
  "id": 1686103868,
  "lat": 47.4093649,
  "lon": 9.7391185
},
{
  "type": "node",
  "id": 1215350791,
  "lat": 47.3900811,
  "lon": 9.7769108
},
{
  "type": "node",
  "id": 1215351089,
  "lat": 47.3901459,
  "lon": 9.7770689
},
{
  "type": "node",
  "id": 1215351329,
  "lat": 47.3899897,
  "lon": 9.7772087
},
{
  "type": "node",
  "id": 1215351397,
  "lat": 47.3905178,
  "lon": 9.7769297
},
{
  "type": "node",
  "id": 1215351630,
  "lat": 47.3907695,
  "lon": 9.7766511
},
{
  "type": "node",
  "id": 1215351977,
  "lat": 47.3909094,
  "lon": 9.7769270
},
{
  "type": "node",
  "id": 1215352344,
  "lat": 47.3906119,
  "lon": 9.7772562
},
{
  "type": "node",
  "id": 1215352446,
  "lat": 47.3899249,
  "lon": 9.7770505
},
{
  "type": "node",
  "id": 1998205784,
  "lat": 47.3905712,
  "lon": 9.7771760
},
{
  "type": "node",
  "id": 1998205785,
  "lat": 47.3906170,
  "lon": 9.7771254
},
{
  "type": "node",
  "id": 286304765,
  "lat": 47.3783481,
  "lon": 9.8958759
},
{
  "type": "node",
  "id": 286304767,
  "lat": 47.3782535,
  "lon": 9.8958075
},
{
  "type": "node",
  "id": 286304763,
  "lat": 47.3782709,
  "lon": 9.8960417
},
{
  "type": "node",
  "id": 286304764,
  "lat": 47.3782986,
  "lon": 9.8960548
},
{
  "type": "node",
  "id": 286304768,
  "lat": 47.3781996,
  "lon": 9.8959952
},
{
  "type": "node",
  "id": 1448218619,
  "lat": 47.4225726,
  "lon": 9.3764437
},
{
  "type": "node",
  "id": 1448218621,
  "lat": 47.4226021,
  "lon": 9.3765925
},
{
  "type": "node",
  "id": 1448218629,
  "lat": 47.4226966,
  "lon": 9.3765517
},
{
  "type": "node",
  "id": 1448218647,
  "lat": 47.4229055,
  "lon": 9.3762995
},
{
  "type": "node",
  "id": 1448218648,
  "lat": 47.4228848,
  "lon": 9.3763084
},
{
  "type": "node",
  "id": 1448218649,
  "lat": 47.4229350,
  "lon": 9.3764483
},
{
  "type": "node",
  "id": 1389962505,
  "lat": 47.4274979,
  "lon": 9.3813418
},
{
  "type": "node",
  "id": 1389962532,
  "lat": 47.4275742,
  "lon": 9.3814796
},
{
  "type": "node",
  "id": 1389962546,
  "lat": 47.4275944,
  "lon": 9.3814552
},
{
  "type": "node",
  "id": 1389962596,
  "lat": 47.4276847,
  "lon": 9.3811160
},
{
  "type": "node",
  "id": 1389962606,
  "lat": 47.4277380,
  "lon": 9.3812792
},
{
  "type": "node",
  "id": 1389962618,
  "lat": 47.4277601,
  "lon": 9.3812523
},
{
  "type": "node",
  "id": 1389962642,
  "lat": 47.4278054,
  "lon": 9.3819035
},
{
  "type": "node",
  "id": 1389962644,
  "lat": 47.4278276,
  "lon": 9.3818766
},
{
  "type": "node",
  "id": 1389962659,
  "lat": 47.4278785,
  "lon": 9.3820357
},
{
  "type": "node",
  "id": 1389962672,
  "lat": 47.4279708,
  "lon": 9.3816998
},
{
  "type": "node",
  "id": 1389962674,
  "lat": 47.4279912,
  "lon": 9.3816751
},
{
  "type": "node",
  "id": 1389962680,
  "lat": 47.4280656,
  "lon": 9.3818095
},
{
  "type": "node",
  "id": 1389962733,
  "lat": 47.4283750,
  "lon": 9.3830786
},
{
  "type": "node",
  "id": 1389962744,
  "lat": 47.4284914,
  "lon": 9.3832898
},
{
  "type": "node",
  "id": 1389962745,
  "lat": 47.4284968,
  "lon": 9.3832834
},
{
  "type": "node",
  "id": 1389962754,
  "lat": 47.4286634,
  "lon": 9.3827314
},
{
  "type": "node",
  "id": 1389962757,
  "lat": 47.4287127,
  "lon": 9.3836752
},
{
  "type": "node",
  "id": 1389962758,
  "lat": 47.4287744,
  "lon": 9.3829547
},
{
  "type": "node",
  "id": 1389962759,
  "lat": 47.4287816,
  "lon": 9.3829460
},
{
  "type": "node",
  "id": 1389962763,
  "lat": 47.4289885,
  "lon": 9.3833432
},
{
  "type": "node",
  "id": 4592726912,
  "lat": 47.4394772,
  "lon": 9.4090095
},
{
  "type": "node",
  "id": 4592726913,
  "lat": 47.4394960,
  "lon": 9.4089874
},
{
  "type": "node",
  "id": 4592726914,
  "lat": 47.4393486,
  "lon": 9.4087700
},
{
  "type": "node",
  "id": 4592726915,
  "lat": 47.4393679,
  "lon": 9.4087472
},
{
  "type": "node",
  "id": 4592726916,
  "lat": 47.4393271,
  "lon": 9.4086712
},
{
  "type": "node",
  "id": 4592726917,
  "lat": 47.4395293,
  "lon": 9.4090495
},
{
  "type": "node",
  "id": 4592726918,
  "lat": 47.4396067,
  "lon": 9.4089587
},
{
  "type": "node",
  "id": 4592726919,
  "lat": 47.4395750,
  "lon": 9.4088996
},
{
  "type": "node",
  "id": 4592726920,
  "lat": 47.4396317,
  "lon": 9.4088330
},
{
  "type": "node",
  "id": 4592726921,
  "lat": 47.4395152,
  "lon": 9.4086161
},
{
  "type": "node",
  "id": 4592726922,
  "lat": 47.4394795,
  "lon": 9.4086580
},
{
  "type": "node",
  "id": 4592726923,
  "lat": 47.4394250,
  "lon": 9.4085564
},
{
  "type": "node",
  "id": 5956859988,
  "lat": 47.5072525,
  "lon": 9.4121617
},
{
  "type": "node",
  "id": 5956859989,
  "lat": 47.5072269,
  "lon": 9.4124371
},
{
  "type": "node",
  "id": 5956859990,
  "lat": 47.5070077,
  "lon": 9.4123924
},
{
  "type": "node",
  "id": 5956859991,
  "lat": 47.5069813,
  "lon": 9.4122605
},
{
  "type": "node",
  "id": 5956859992,
  "lat": 47.5069047,
  "lon": 9.4122446
},
{
  "type": "node",
  "id": 5956859993,
  "lat": 47.5069307,
  "lon": 9.4119707
},
{
  "type": "node",
  "id": 5956859994,
  "lat": 47.5071419,
  "lon": 9.4120147
},
{
  "type": "node",
  "id": 5956859995,
  "lat": 47.5071705,
  "lon": 9.4121449
},
{
  "type": "node",
  "id": 2058970056,
  "lat": 47.5571287,
  "lon": 9.3751841
},
{
  "type": "node",
  "id": 2058970064,
  "lat": 47.5569875,
  "lon": 9.3757259
},
{
  "type": "node",
  "id": 2058970078,
  "lat": 47.5565856,
  "lon": 9.3748784
},
{
  "type": "node",
  "id": 2058970196,
  "lat": 47.5564408,
  "lon": 9.3754172
},
{
  "type": "node",
  "id": 1616790197,
  "lat": 47.4256886,
  "lon": 9.4853277
},
{
  "type": "node",
  "id": 1616790224,
  "lat": 47.4257400,
  "lon": 9.4851655
},
{
  "type": "node",
  "id": 1616790233,
  "lat": 47.4257636,
  "lon": 9.4853797
},
{
  "type": "node",
  "id": 1616790261,
  "lat": 47.4258151,
  "lon": 9.4852175
},
{
  "type": "node",
  "id": 2095071835,
  "lat": 47.4432163,
  "lon": 9.5313980
},
{
  "type": "node",
  "id": 2095071842,
  "lat": 47.4432803,
  "lon": 9.5312945
},
{
  "type": "node",
  "id": 2095071843,
  "lat": 47.4432829,
  "lon": 9.5315192
},
{
  "type": "node",
  "id": 2095071844,
  "lat": 47.4432891,
  "lon": 9.5313106
},
{
  "type": "node",
  "id": 2095071845,
  "lat": 47.4433184,
  "lon": 9.5311773
},
{
  "type": "node",
  "id": 2095071848,
  "lat": 47.4433420,
  "lon": 9.5312204
},
{
  "type": "node",
  "id": 2095071849,
  "lat": 47.4433631,
  "lon": 9.5311236
},
{
  "type": "node",
  "id": 2095071852,
  "lat": 47.4434622,
  "lon": 9.5313040
},
{
  "type": "node",
  "id": 1164286579,
  "lat": 47.4792939,
  "lon": 9.4922593
},
{
  "type": "node",
  "id": 1164286831,
  "lat": 47.4792264,
  "lon": 9.4916638
},
{
  "type": "node",
  "id": 1164286970,
  "lat": 47.4795304,
  "lon": 9.4915424
},
{
  "type": "node",
  "id": 1164287095,
  "lat": 47.4793580,
  "lon": 9.4914179
},
{
  "type": "node",
  "id": 1164287237,
  "lat": 47.4792117,
  "lon": 9.4918615
},
{
  "type": "node",
  "id": 1164287410,
  "lat": 47.4791215,
  "lon": 9.4921348
},
{
  "type": "node",
  "id": 1164287597,
  "lat": 47.4791709,
  "lon": 9.4918320
},
{
  "type": "node",
  "id": 1164287665,
  "lat": 47.4792672,
  "lon": 9.4916932
},
{
  "type": "node",
  "id": 952586070,
  "lat": 47.4432954,
  "lon": 9.6431708
},
{
  "type": "node",
  "id": 952586186,
  "lat": 47.4432285,
  "lon": 9.6433181
},
{
  "type": "node",
  "id": 952586645,
  "lat": 47.4432029,
  "lon": 9.6432287
},
{
  "type": "node",
  "id": 952586847,
  "lat": 47.4433210,
  "lon": 9.6432601
},
{
  "type": "node",
  "id": 3152338601,
  "lat": 47.4432647,
  "lon": 9.6432954
},
{
  "type": "node",
  "id": 2343783478,
  "lat": 47.5666826,
  "lon": 9.6299958
},
{
  "type": "node",
  "id": 2343783479,
  "lat": 47.5667048,
  "lon": 9.6298218
},
{
  "type": "node",
  "id": 2343783480,
  "lat": 47.5667877,
  "lon": 9.6300253
},
{
  "type": "node",
  "id": 2343783481,
  "lat": 47.5668100,
  "lon": 9.6298514
},
{
  "type": "node",
  "id": 2341115346,
  "lat": 47.5747854,
  "lon": 9.6090389
},
{
  "type": "node",
  "id": 2341115358,
  "lat": 47.5748127,
  "lon": 9.6091854
},
{
  "type": "node",
  "id": 2341115387,
  "lat": 47.5749873,
  "lon": 9.6089562
},
{
  "type": "node",
  "id": 2341115392,
  "lat": 47.5750146,
  "lon": 9.6091026
},
{
  "type": "node",
  "id": 1876555934,
  "lat": 47.6765662,
  "lon": 9.3106294
},
{
  "type": "node",
  "id": 1876555942,
  "lat": 47.6766309,
  "lon": 9.3104246
},
{
  "type": "node",
  "id": 1876555946,
  "lat": 47.6766547,
  "lon": 9.3106910
},
{
  "type": "node",
  "id": 1876555963,
  "lat": 47.6767194,
  "lon": 9.3104862
},
{
  "type": "node",
  "id": 2298117627,
  "lat": 47.7201385,
  "lon": 9.3909543
},
{
  "type": "node",
  "id": 2298117628,
  "lat": 47.7201687,
  "lon": 9.3908757
},
{
  "type": "node",
  "id": 2298117629,
  "lat": 47.7201917,
  "lon": 9.3909994
},
{
  "type": "node",
  "id": 2298117630,
  "lat": 47.7202219,
  "lon": 9.3909208
},
{
  "type": "node",
  "id": 29778686,
  "lat": 47.6504549,
  "lon": 9.4828948
},
{
  "type": "node",
  "id": 420051577,
  "lat": 47.6506638,
  "lon": 9.4826036
},
{
  "type": "node",
  "id": 1131563981,
  "lat": 47.6505215,
  "lon": 9.4827711
},
{
  "type": "node",
  "id": 1131564065,
  "lat": 47.6509083,
  "lon": 9.4828819
},
{
  "type": "node",
  "id": 1131564084,
  "lat": 47.6508507,
  "lon": 9.4827832
},
{
  "type": "node",
  "id": 1131564110,
  "lat": 47.6505037,
  "lon": 9.4827371
},
{
  "type": "node",
  "id": 2191685182,
  "lat": 47.6507988,
  "lon": 9.4828537
},
{
  "type": "node",
  "id": 6912840553,
  "lat": 47.6504626,
  "lon": 9.4827846
},
{
  "type": "node",
  "id": 7125168440,
  "lat": 47.6507580,
  "lon": 9.4827783
},
{
  "type": "node",
  "id": 7125168443,
  "lat": 47.6504808,
  "lon": 9.4828193
},
{
  "type": "node",
  "id": 7125168444,
  "lat": 47.6504952,
  "lon": 9.4828467
},
{
  "type": "node",
  "id": 420051576,
  "lat": 47.6508761,
  "lon": 9.4836910
},
{
  "type": "node",
  "id": 420051578,
  "lat": 47.6511078,
  "lon": 9.4833954
},
{
  "type": "node",
  "id": 1131563958,
  "lat": 47.6510556,
  "lon": 9.4831574
},
{
  "type": "node",
  "id": 1131564185,
  "lat": 47.6510768,
  "lon": 9.4833453
},
{
  "type": "node",
  "id": 1131564254,
  "lat": 47.6510642,
  "lon": 9.4833253
},
{
  "type": "node",
  "id": 1131564378,
  "lat": 47.6511198,
  "lon": 9.4832562
},
{
  "type": "node",
  "id": 2191685171,
  "lat": 47.6505493,
  "lon": 9.4830720
},
{
  "type": "node",
  "id": 2191685176,
  "lat": 47.6507741,
  "lon": 9.4834942
},
{
  "type": "node",
  "id": 2072119783,
  "lat": 47.6667313,
  "lon": 9.4788967
},
{
  "type": "node",
  "id": 2072119803,
  "lat": 47.6667524,
  "lon": 9.4789400
},
{
  "type": "node",
  "id": 2072119804,
  "lat": 47.6667536,
  "lon": 9.4788981
},
{
  "type": "node",
  "id": 2072119827,
  "lat": 47.6667992,
  "lon": 9.4789430
},
{
  "type": "node",
  "id": 6595877934,
  "lat": 47.6667347,
  "lon": 9.4787811
},
{
  "type": "node",
  "id": 6595877935,
  "lat": 47.6668140,
  "lon": 9.4787839
},
{
  "type": "node",
  "id": 6595877943,
  "lat": 47.6668009,
  "lon": 9.4788841
},
{
  "type": "node",
  "id": 6595877944,
  "lat": 47.6668111,
  "lon": 9.4788848
},
{
  "type": "node",
  "id": 2103498975,
  "lat": 47.7048190,
  "lon": 9.5113973
},
{
  "type": "node",
  "id": 2103498977,
  "lat": 47.7048679,
  "lon": 9.5112842
},
{
  "type": "node",
  "id": 2103498978,
  "lat": 47.7048880,
  "lon": 9.5114631
},
{
  "type": "node",
  "id": 2103498979,
  "lat": 47.7049368,
  "lon": 9.5113500
},
{
  "type": "node",
  "id": 634367662,
  "lat": 47.7804815,
  "lon": 9.6159006
},
{
  "type": "node",
  "id": 634367667,
  "lat": 47.7801725,
  "lon": 9.6153443
},
{
  "type": "node",
  "id": 1982674328,
  "lat": 47.7804211,
  "lon": 9.6152386
},
{
  "type": "node",
  "id": 2045385004,
  "lat": 47.7802312,
  "lon": 9.6156143
},
{
  "type": "node",
  "id": 2045385009,
  "lat": 47.7803578,
  "lon": 9.6155244
},
{
  "type": "node",
  "id": 2120140748,
  "lat": 47.7800256,
  "lon": 9.6148240
},
{
  "type": "node",
  "id": 2120140750,
  "lat": 47.7801355,
  "lon": 9.6147517
},
{
  "type": "node",
  "id": 2120140751,
  "lat": 47.7801631,
  "lon": 9.6151713
},
{
  "type": "node",
  "id": 2120140759,
  "lat": 47.7802442,
  "lon": 9.6151180
},
{
  "type": "node",
  "id": 2726695066,
  "lat": 47.7800882,
  "lon": 9.6149186
},
{
  "type": "node",
  "id": 2726695067,
  "lat": 47.7800593,
  "lon": 9.6149376
},
{
  "type": "node",
  "id": 2726695074,
  "lat": 47.7802178,
  "lon": 9.6151613
},
{
  "type": "node",
  "id": 2726695075,
  "lat": 47.7802355,
  "lon": 9.6152089
},
{
  "type": "node",
  "id": 2726695076,
  "lat": 47.7802427,
  "lon": 9.6151412
},
{
  "type": "node",
  "id": 2726695077,
  "lat": 47.7802455,
  "lon": 9.6152010
},
{
  "type": "node",
  "id": 2726695078,
  "lat": 47.7802799,
  "lon": 9.6152416
},
{
  "type": "node",
  "id": 2726695079,
  "lat": 47.7802748,
  "lon": 9.6152811
},
{
  "type": "node",
  "id": 2726695085,
  "lat": 47.7803599,
  "lon": 9.6152839
},
{
  "type": "node",
  "id": 2726695088,
  "lat": 47.7803892,
  "lon": 9.6151422
},
{
  "type": "node",
  "id": 2726695093,
  "lat": 47.7804280,
  "lon": 9.6151115
},
{
  "type": "node",
  "id": 2726695094,
  "lat": 47.7804219,
  "lon": 9.6154752
},
{
  "type": "node",
  "id": 2726695109,
  "lat": 47.7805234,
  "lon": 9.6153954
},
{
  "type": "node",
  "id": 2726844775,
  "lat": 47.7803813,
  "lon": 9.6156958
},
{
  "type": "node",
  "id": 2726844780,
  "lat": 47.7804713,
  "lon": 9.6158819
},
{
  "type": "node",
  "id": 2726844784,
  "lat": 47.7805008,
  "lon": 9.6155748
},
{
  "type": "node",
  "id": 2726844791,
  "lat": 47.7805775,
  "lon": 9.6157828
},
{
  "type": "node",
  "id": 2726844792,
  "lat": 47.7805813,
  "lon": 9.6157788
},
{
  "type": "node",
  "id": 6451181500,
  "lat": 47.7801164,
  "lon": 9.6150138
},
{
  "type": "node",
  "id": 6451181503,
  "lat": 47.7801458,
  "lon": 9.6151130
},
{
  "type": "node",
  "id": 2052038276,
  "lat": 47.7958341,
  "lon": 9.6393876
},
{
  "type": "node",
  "id": 2052038287,
  "lat": 47.7958965,
  "lon": 9.6391506
},
{
  "type": "node",
  "id": 2052038293,
  "lat": 47.7959425,
  "lon": 9.6394510
},
{
  "type": "node",
  "id": 2052038320,
  "lat": 47.7960371,
  "lon": 9.6394140
},
{
  "type": "node",
  "id": 2052038348,
  "lat": 47.7960785,
  "lon": 9.6392569
},
{
  "type": "node",
  "id": 2290545934,
  "lat": 47.7959636,
  "lon": 9.6393710
},
{
  "type": "node",
  "id": 442329817,
  "lat": 47.8055367,
  "lon": 9.6393725
},
{
  "type": "node",
  "id": 1605898606,
  "lat": 47.8053660,
  "lon": 9.6391530
},
{
  "type": "node",
  "id": 1605898611,
  "lat": 47.8054250,
  "lon": 9.6394260
},
{
  "type": "node",
  "id": 1605898613,
  "lat": 47.8054777,
  "lon": 9.6390995
},
{
  "type": "node",
  "id": 3845298574,
  "lat": 47.4361285,
  "lon": 9.6622532
},
{
  "type": "node",
  "id": 3845298575,
  "lat": 47.4361991,
  "lon": 9.6619813
},
{
  "type": "node",
  "id": 3845298578,
  "lat": 47.4362626,
  "lon": 9.6621521
},
{
  "type": "node",
  "id": 3845298581,
  "lat": 47.4362902,
  "lon": 9.6621843
},
{
  "type": "node",
  "id": 3845298582,
  "lat": 47.4362913,
  "lon": 9.6623456
},
{
  "type": "node",
  "id": 3845298583,
  "lat": 47.4362931,
  "lon": 9.6620346
},
{
  "type": "node",
  "id": 3845298584,
  "lat": 47.4362940,
  "lon": 9.6621699
},
{
  "type": "node",
  "id": 3845298586,
  "lat": 47.4363277,
  "lon": 9.6622056
},
{
  "type": "node",
  "id": 1489384197,
  "lat": 47.4135864,
  "lon": 9.7433314
},
{
  "type": "node",
  "id": 1489384198,
  "lat": 47.4135993,
  "lon": 9.7431146
},
{
  "type": "node",
  "id": 1489384199,
  "lat": 47.4137262,
  "lon": 9.7433496
},
{
  "type": "node",
  "id": 1489384200,
  "lat": 47.4137391,
  "lon": 9.7431328
},
{
  "type": "node",
  "id": 1347755311,
  "lat": 47.4795341,
  "lon": 9.6912470
},
{
  "type": "node",
  "id": 1347755358,
  "lat": 47.4795507,
  "lon": 9.6908352
},
{
  "type": "node",
  "id": 1347755499,
  "lat": 47.4796287,
  "lon": 9.6912245
},
{
  "type": "node",
  "id": 1347755534,
  "lat": 47.4795625,
  "lon": 9.6909435
},
{
  "type": "node",
  "id": 1347755605,
  "lat": 47.4796224,
  "lon": 9.6911670
},
{
  "type": "node",
  "id": 1347755624,
  "lat": 47.4796478,
  "lon": 9.6908120
},
{
  "type": "node",
  "id": 1347755628,
  "lat": 47.4795026,
  "lon": 9.6909578
},
{
  "type": "node",
  "id": 1347755658,
  "lat": 47.4796849,
  "lon": 9.6911521
},
{
  "type": "node",
  "id": 807073720,
  "lat": 47.4821122,
  "lon": 9.7038299
},
{
  "type": "node",
  "id": 807073740,
  "lat": 47.4820951,
  "lon": 9.7037813
},
{
  "type": "node",
  "id": 807073745,
  "lat": 47.4821541,
  "lon": 9.7038442
},
{
  "type": "node",
  "id": 807073748,
  "lat": 47.4820902,
  "lon": 9.7038101
},
{
  "type": "node",
  "id": 807073759,
  "lat": 47.4821834,
  "lon": 9.7037059
},
{
  "type": "node",
  "id": 807073804,
  "lat": 47.4821209,
  "lon": 9.7036749
},
{
  "type": "node",
  "id": 807073806,
  "lat": 47.4821187,
  "lon": 9.7038263
},
{
  "type": "node",
  "id": 807073812,
  "lat": 47.4820987,
  "lon": 9.7038262
},
{
  "type": "node",
  "id": 807073813,
  "lat": 47.4821009,
  "lon": 9.7037755
},
{
  "type": "node",
  "id": 807073821,
  "lat": 47.4820894,
  "lon": 9.7037998
},
{
  "type": "node",
  "id": 1357774702,
  "lat": 47.4820911,
  "lon": 9.7037898
},
{
  "type": "node",
  "id": 1357774703,
  "lat": 47.4821052,
  "lon": 9.7038299
},
{
  "type": "node",
  "id": 1357774704,
  "lat": 47.4820935,
  "lon": 9.7038193
},
{
  "type": "node",
  "id": 1559429671,
  "lat": 47.4736577,
  "lon": 9.7291207
},
{
  "type": "node",
  "id": 1559429672,
  "lat": 47.4736730,
  "lon": 9.7289587
},
{
  "type": "node",
  "id": 1559429704,
  "lat": 47.4738953,
  "lon": 9.7291696
},
{
  "type": "node",
  "id": 1559429710,
  "lat": 47.4739105,
  "lon": 9.7290076
},
{
  "type": "node",
  "id": 1335000079,
  "lat": 47.5043081,
  "lon": 9.7465956
},
{
  "type": "node",
  "id": 1335000299,
  "lat": 47.5046608,
  "lon": 9.7463255
},
{
  "type": "node",
  "id": 1335000319,
  "lat": 47.5045283,
  "lon": 9.7470035
},
{
  "type": "node",
  "id": 1335000472,
  "lat": 47.5047946,
  "lon": 9.7466183
},
{
  "type": "node",
  "id": 1335004374,
  "lat": 47.5051488,
  "lon": 9.7473412
},
{
  "type": "node",
  "id": 1335004384,
  "lat": 47.5050197,
  "lon": 9.7470656
},
{
  "type": "node",
  "id": 2151179947,
  "lat": 47.5046511,
  "lon": 9.7468159
},
{
  "type": "node",
  "id": 2151179948,
  "lat": 47.5044161,
  "lon": 9.7464535
},
{
  "type": "node",
  "id": 2483957879,
  "lat": 47.5049583,
  "lon": 9.7475369
},
{
  "type": "node",
  "id": 2483957882,
  "lat": 47.5048291,
  "lon": 9.7472612
},
{
  "type": "node",
  "id": 2363300326,
  "lat": 47.5614014,
  "lon": 9.6517575
},
{
  "type": "node",
  "id": 2363300328,
  "lat": 47.5614223,
  "lon": 9.6516895
},
{
  "type": "node",
  "id": 2363300329,
  "lat": 47.5614707,
  "lon": 9.6518041
},
{
  "type": "node",
  "id": 2363300331,
  "lat": 47.5614915,
  "lon": 9.6517361
},
{
  "type": "node",
  "id": 687322677,
  "lat": 47.5471047,
  "lon": 9.6864535
},
{
  "type": "node",
  "id": 687322679,
  "lat": 47.5472350,
  "lon": 9.6863405
},
{
  "type": "node",
  "id": 687322691,
  "lat": 47.5470087,
  "lon": 9.6865881
},
{
  "type": "node",
  "id": 687322693,
  "lat": 47.5469909,
  "lon": 9.6865194
},
{
  "type": "node",
  "id": 687322696,
  "lat": 47.5470443,
  "lon": 9.6867218
},
{
  "type": "node",
  "id": 687322727,
  "lat": 47.5472952,
  "lon": 9.6865895
},
{
  "type": "node",
  "id": 687322729,
  "lat": 47.5471914,
  "lon": 9.6866358
},
{
  "type": "node",
  "id": 687428176,
  "lat": 47.5470053,
  "lon": 9.6865111
},
{
  "type": "node",
  "id": 1460299422,
  "lat": 47.5284623,
  "lon": 9.7519234
},
{
  "type": "node",
  "id": 1460299433,
  "lat": 47.5284625,
  "lon": 9.7517734
},
{
  "type": "node",
  "id": 1460299438,
  "lat": 47.5285171,
  "lon": 9.7519236
},
{
  "type": "node",
  "id": 1460299439,
  "lat": 47.5285172,
  "lon": 9.7518904
},
{
  "type": "node",
  "id": 1460299463,
  "lat": 47.5285966,
  "lon": 9.7517738
},
{
  "type": "node",
  "id": 5349324646,
  "lat": 47.5285964,
  "lon": 9.7518906
},
{
  "type": "node",
  "id": 916276946,
  "lat": 47.6104562,
  "lon": 9.7777196
},
{
  "type": "node",
  "id": 2939216849,
  "lat": 47.6105385,
  "lon": 9.7778588
},
{
  "type": "node",
  "id": 2939216850,
  "lat": 47.6105549,
  "lon": 9.7775913
},
{
  "type": "node",
  "id": 2939216851,
  "lat": 47.6106372,
  "lon": 9.7777305
},
{
  "type": "node",
  "id": 2395856941,
  "lat": 47.4316110,
  "lon": 9.8957807
},
{
  "type": "node",
  "id": 2395856930,
  "lat": 47.4317824,
  "lon": 9.8958735
},
{
  "type": "node",
  "id": 2395856938,
  "lat": 47.4317814,
  "lon": 9.8957770
},
{
  "type": "node",
  "id": 2395856965,
  "lat": 47.4317953,
  "lon": 9.8958732
},
{
  "type": "node",
  "id": 2395856927,
  "lat": 47.4316137,
  "lon": 9.8960559
},
{
  "type": "node",
  "id": 2395856951,
  "lat": 47.4317971,
  "lon": 9.8960519
},
{
  "type": "node",
  "id": 1905864287,
  "lat": 47.4563397,
  "lon": 9.9611645
},
{
  "type": "node",
  "id": 1905864353,
  "lat": 47.4564539,
  "lon": 9.9612734
},
{
  "type": "node",
  "id": 1905864253,
  "lat": 47.4561980,
  "lon": 9.9614895
},
{
  "type": "node",
  "id": 1905864282,
  "lat": 47.4563122,
  "lon": 9.9615984
},
{
  "type": "node",
  "id": 1050573064,
  "lat": 47.5822946,
  "lon": 9.9173322
},
{
  "type": "node",
  "id": 1050573751,
  "lat": 47.5823418,
  "lon": 9.9175112
},
{
  "type": "node",
  "id": 1426924122,
  "lat": 47.5818715,
  "lon": 9.9156498
},
{
  "type": "node",
  "id": 1426924125,
  "lat": 47.5819207,
  "lon": 9.9160106
},
{
  "type": "node",
  "id": 1426924127,
  "lat": 47.5819419,
  "lon": 9.9156287
},
{
  "type": "node",
  "id": 1426924131,
  "lat": 47.5819910,
  "lon": 9.9159895
},
{
  "type": "node",
  "id": 1050573236,
  "lat": 47.5824778,
  "lon": 9.9174323
},
{
  "type": "node",
  "id": 1050573296,
  "lat": 47.5824306,
  "lon": 9.9172533
},
{
  "type": "node",
  "id": 1575337181,
  "lat": 47.5550934,
  "lon": 10.0592541
},
{
  "type": "node",
  "id": 1575337184,
  "lat": 47.5550953,
  "lon": 10.0594633
},
{
  "type": "node",
  "id": 1575337242,
  "lat": 47.5552235,
  "lon": 10.0592514
},
{
  "type": "node",
  "id": 1575337245,
  "lat": 47.5552255,
  "lon": 10.0594607
},
{
  "type": "node",
  "id": 287036454,
  "lat": 47.8159318,
  "lon": 9.7907535
},
{
  "type": "node",
  "id": 1061510053,
  "lat": 47.8178386,
  "lon": 9.7881877
},
{
  "type": "node",
  "id": 1061510154,
  "lat": 47.8158459,
  "lon": 9.7888147
},
{
  "type": "node",
  "id": 1061510242,
  "lat": 47.8178236,
  "lon": 9.7906027
},
{
  "type": "node",
  "id": 1061510253,
  "lat": 47.8162373,
  "lon": 9.7886293
},
{
  "type": "node",
  "id": 1061510311,
  "lat": 47.8153299,
  "lon": 9.7894595
},
{
  "type": "node",
  "id": 1061510407,
  "lat": 47.8167829,
  "lon": 9.7885410
},
{
  "type": "node",
  "id": 1061510473,
  "lat": 47.8183545,
  "lon": 9.7875960
},
{
  "type": "node",
  "id": 1061510489,
  "lat": 47.8155494,
  "lon": 9.7892387
},
{
  "type": "node",
  "id": 1061510676,
  "lat": 47.8168245,
  "lon": 9.7884262
},
{
  "type": "node",
  "id": 1061510738,
  "lat": 47.8157569,
  "lon": 9.7889914
},
{
  "type": "node",
  "id": 1061510336,
  "lat": 47.8171476,
  "lon": 9.7911061
},
{
  "type": "node",
  "id": 1061510514,
  "lat": 47.8166197,
  "lon": 9.7915830
},
{
  "type": "node",
  "id": 1061510767,
  "lat": 47.8162698,
  "lon": 9.7912915
},
{
  "type": "node",
  "id": 1061510048,
  "lat": 47.8185946,
  "lon": 9.7903377
},
{
  "type": "node",
  "id": 1061510107,
  "lat": 47.8193952,
  "lon": 9.7899756
},
{
  "type": "node",
  "id": 1061510110,
  "lat": 47.8205973,
  "lon": 9.7898748
},
{
  "type": "node",
  "id": 1061510118,
  "lat": 47.8189713,
  "lon": 9.7873487
},
{
  "type": "node",
  "id": 1061510180,
  "lat": 47.8200824,
  "lon": 9.7903306
},
{
  "type": "node",
  "id": 1061510207,
  "lat": 47.8210943,
  "lon": 9.7877108
},
{
  "type": "node",
  "id": 1061510226,
  "lat": 47.8205902,
  "lon": 9.7877373
},
{
  "type": "node",
  "id": 1061510286,
  "lat": 47.8211786,
  "lon": 9.7894428
},
{
  "type": "node",
  "id": 1061510288,
  "lat": 47.8191077,
  "lon": 9.7871279
},
{
  "type": "node",
  "id": 1061510313,
  "lat": 47.8215630,
  "lon": 9.7890891
},
{
  "type": "node",
  "id": 1061510319,
  "lat": 47.8210873,
  "lon": 9.7895788
},
{
  "type": "node",
  "id": 1061510346,
  "lat": 47.8197521,
  "lon": 9.7897012
},
{
  "type": "node",
  "id": 1061510390,
  "lat": 47.8199438,
  "lon": 9.7871102
},
{
  "type": "node",
  "id": 1061510406,
  "lat": 47.8190749,
  "lon": 9.7900109
},
{
  "type": "node",
  "id": 1061510437,
  "lat": 47.8217822,
  "lon": 9.7887618
},
{
  "type": "node",
  "id": 1061510443,
  "lat": 47.8194694,
  "lon": 9.7898967
},
{
  "type": "node",
  "id": 1061510469,
  "lat": 47.8209066,
  "lon": 9.7898479
},
{
  "type": "node",
  "id": 1061510524,
  "lat": 47.8205050,
  "lon": 9.7898675
},
{
  "type": "node",
  "id": 1061510560,
  "lat": 47.8201573,
  "lon": 9.7873487
},
{
  "type": "node",
  "id": 1061510592,
  "lat": 47.8188259,
  "lon": 9.7901787
},
{
  "type": "node",
  "id": 1061510627,
  "lat": 47.8188408,
  "lon": 9.7875518
},
{
  "type": "node",
  "id": 1061510694,
  "lat": 47.8201698,
  "lon": 9.7901714
},
{
  "type": "node",
  "id": 1061510719,
  "lat": 47.8207722,
  "lon": 9.7897156
},
{
  "type": "node",
  "id": 1061510795,
  "lat": 47.8208512,
  "lon": 9.7876754
},
{
  "type": "node",
  "id": 1061510815,
  "lat": 47.8204005,
  "lon": 9.7875253
},
{
  "type": "way",
  "id": 237933967,
  "nodes": [
    2458021240,
    4424900089,
    2458021243,
    2458021234,
    2458021230,
    2458021235,
    4424899888,
    2458021232,
    4424899886,
    2458021205,
    2458021202,
    4424899884,
    2458021221,
    2458021219,
    2458021228,
    2458021226,
    2458021239,
    4424648462,
    4424648463,
    2458021242,
    2458021240
  ]
},
{
  "type": "way",
  "id": 237933968,
  "nodes": [
    2458021253,
    2458021247,
    2458021245,
    2458021252,
    2458021253
  ]
},
{
  "type": "way",
  "id": 237933969,
  "nodes": [
    2458021261,
    2458021255,
    2458021251,
    2458021259,
    2458021261
  ]
},
{
  "type": "way",
  "id": 237933980,
  "nodes": [
    2458021214,
    2458021210,
    2458021201,
    2458021195,
    2458021194,
    2458021192,
    2458021190,
    2458021191,
    2458021193,
    2458021196,
    2458021199,
    2458021208,
    2458021213,
    2458021214
  ]
}

  ]
}
