{
  "version": 0.6,
  "generator": "Overpass API 0.7.55.1011 6c2efc30",
  "osm3s": {
    "timestamp_osm_base": "2020-02-14T12:00:02Z",
    "copyright": "The data included in this document is from www.openstreetmap.org. The data is made available under ODbL."
  },
  "elements": [

{
  "type": "node",
  "id": 249060732,
  "lat": 49.9701868,
  "lon": 20.4314375,
  "tags": {
    "created_by": "JOSM",
    "name": "Kopalnia Soli \"Bochnia\"",
    "tourism": "museum"
  }
},
{
  "type": "node",
  "id": 471557535,
  "lat": 50.0632264,
  "lon": 19.9403302,
  "tags": {
    "addr:city": "Kraków",
    "addr:country": "PL",
    "addr:housenumber": "25",
    "addr:street": "Floriańska",
    "email": "mf1@mp.pl",
    "name": "Muzeum Farmacji UJ",
    "name:en": "Museum of Pharmacy",
    "name:hu": "Patikamúzeum",
    "name:pl": "Muzeum Farmacji UJ",
    "name:ru": "Музей фармацевтики",
    "opening_hours": "We-Sa 09:30-15:00; Tu 12:00-18:30",
    "phone": "+48 12 421 92 79",
    "tourism": "museum",
    "website": "http://muzeum.farmacja.uj.edu.pl"
  }
},
{
  "type": "node",
  "id": 471557583,
  "lat": 50.0615617,
  "lon": 19.9337367,
  "tags": {
    "name": "Muzeum Uniwersytetu Jagiellońskiego",
    "name:de": "Museum des Jagiellonen-Universitäts",
    "name:en": "University Museum",
    "name:hu": "Jagelló Egyetem Múzeuma",
    "tourism": "museum",
    "wikidata": "Q11787234",
    "wikipedia": "pl:Muzeum Uniwersytetu Jagiellońskiego"
  }
},
{
  "type": "node",
  "id": 471557722,
  "lat": 50.0575043,
  "lon": 19.9366963,
  "tags": {
    "addr:city": "Kraków",
    "addr:country": "PL",
    "addr:housenumber": "2",
    "addr:street": "Senacka",
    "name": "Muzeum Geologiczne PAN",
    "name:de": "Geologisches Museum",
    "name:en": "Geological Museum",
    "name:hu": "Lengyel Tudományos Akadémia Földtani Múzeuma",
    "name:pl": "Muzeum Geologiczne PAN",
    "tourism": "museum"
  }
},
{
  "type": "node",
  "id": 471557771,
  "lat": 50.0556310,
  "lon": 19.9367935,
  "tags": {
    "addr:city": "Kraków",
    "addr:country": "PL",
    "addr:housenumber": "25",
    "addr:street": "Kanonicza",
    "description:hu": "Jan Długosz (1415–1480) lengyel pap, történetíró, diplomata, katona és püspöki titkár, a lengyel történetírás atyja",
    "name": "Dom Długosza",
    "name:de": "Jan-Długosz-Haus",
    "name:hu": "Jan Długosz ház",
    "name:pl": "Dom Długosza",
    "tourism": "museum"
  }
},
{
  "type": "node",
  "id": 471557814,
  "lat": 50.0633123,
  "lon": 19.9417875,
  "tags": {
    "addr:city": "Kraków",
    "addr:country": "PL",
    "addr:housenumber": "21",
    "addr:street": "Szpitalna",
    "name": "Dom Pod Krzyżem",
    "name:hu": "Ház a Kereszt Alatt",
    "tourism": "museum"
  }
},
{
  "type": "node",
  "id": 471557838,
  "lat": 50.0627747,
  "lon": 19.9364960,
  "tags": {
    "name": "Muzeum Historyczne Miasta Krakowa",
    "name:en": "Historical Museum of the City of Kraków",
    "name:hu": "Krakkói Várostörténeti Múzeum",
    "opening_hours": "We-Su 10:00-17:30",
    "tourism": "museum",
    "wikidata": "Q5101500",
    "wikipedia": "pl:Muzeum Historyczne Miasta Krakowa"
  }
},
{
  "type": "node",
  "id": 471635664,
  "lat": 50.0633496,
  "lon": 19.9359640,
  "tags": {
    "addr:housenumber": "9",
    "addr:street": "Plac Szczepański",
    "description:hu": "Stanisław Wyspiański (1869–1907) lengyel drámaíró, festő, költő, belsőépítész és bútortervező…",
    "name": "Muzeum Stanisława Wyspiańskiego",
    "name:de": "Stanisław-Wyspiański-Museum",
    "name:hu": "Stanisław Wyspiański Múzeum",
    "opening_hours": "Tu-Sa 10:00-18:00; Su 10:00-16:00",
    "phone": "+48 12 433 54 50",
    "tourism": "museum",
    "website": "https://mnk.pl/oddzial/kamienica-szolayskich",
    "wikidata": "Q1321083",
    "wikipedia": "pl:Muzeum Stanisława Wyspiańskiego"
  }
},
{
  "type": "node",
  "id": 471984985,
  "lat": 50.0643704,
  "lon": 19.9337317,
  "tags": {
    "addr:city": "Kraków",
    "addr:country": "PL",
    "addr:housenumber": "3",
    "addr:street": "Juliana Dunajewskiego",
    "name": "Muzeum Ubezpieczeń",
    "name:en": "Insurance Museum",
    "name:hu": "Biztosítási Múzeum",
    "note": "one of its kind",
    "tourism": "museum",
    "wikidata": "Q6940904",
    "wikipedia": "pl:Muzeum Ubezpieczeń w Krakowie"
  }
},
{
  "type": "node",
  "id": 472032760,
  "lat": 50.0554747,
  "lon": 19.9415137,
  "tags": {
    "addr:city": "Kraków",
    "addr:housenumber": "9",
    "addr:postcode": "31-049",
    "addr:street": "Świętego Sebastiana",
    "museum": "nature",
    "name": "Muzeum Przyrodnicze PAN",
    "name:hu": "Lengyel Tudományos Akadémia Természettudományi Múzeuma",
    "opening_hours": "Tu-Fr 09:00-15:00; Sa, Su 10:00-18:00",
    "operator": "PAN",
    "tourism": "museum",
    "website": "http://www.isez.pan.krakow.pl/muzeum.html"
  }
},
{
  "type": "node",
  "id": 472125058,
  "lat": 50.0513931,
  "lon": 19.9485742,
  "tags": {
    "fee": "yes",
    "fee:conditional": "no @ Monday",
    "name": "Muzeum Historii i Kultury Żydów Krakowa",
    "name:be": "Музей гісторыі і культуры жыдоў Кракава",
    "name:es": "Museo de Historia y Cultura Judía",
    "name:hu": "Krakkói Zsidó Történeti és Kulturális Múzeum",
    "tourism": "museum",
    "visiting_time": "30 min"
  }
},
{
  "type": "node",
  "id": 472147189,
  "lat": 50.0508571,
  "lon": 19.9496775,
  "tags": {
    "addr:city": "Kraków",
    "addr:country": "PL",
    "addr:housenumber": "18",
    "addr:street": "Dajwór",
    "name": "Żydowskie Muzeum Galicja",
    "name:en": "Galicia Jewish Museum",
    "name:he": "מוזיאון יהודי",
    "name:hu": "Galíciai Zsidó Múzeum",
    "opening_hours": "Mo-Su 10:00-18:00",
    "phone": "+48 12 421 68 42",
    "source:name:en": "http://www.galiciajewishmuseum.org/en",
    "tourism": "museum",
    "website": "http://www.galiciajewishmuseum.org/",
    "wikidata": "Q326670",
    "wikipedia": "pl:Żydowskie Muzeum Galicja w Krakowie"
  }
},
{
  "type": "node",
  "id": 472147202,
  "lat": 50.0486624,
  "lon": 19.9434852,
  "tags": {
    "addr:housenumber": "1",
    "addr:street": "Plac Wolnica",
    "name": "Muzeum Etnograficzne",
    "name:hu": "Néprajzi Múzeum",
    "opening_hours": "Tu-Su 10:00-19:00",
    "tourism": "museum",
    "website": "http://etnomuzeum.eu/",
    "wikidata": "Q194616",
    "wikipedia": "en:Ethnographic Museum of Kraków"
  }
},
{
  "type": "node",
  "id": 472147280,
  "lat": 50.0478189,
  "lon": 19.9438128,
  "tags": {
    "name": "Muzeum Etnograficzne (Dom Esterki)",
    "name:hu": "Néprajzi Múzeum (Esterka-ház)",
    "tourism": "museum"
  }
},
{
  "type": "node",
  "id": 475387282,
  "lat": 50.0635805,
  "lon": 19.9344469,
  "tags": {
    "addr:city": "Kraków",
    "addr:housenumber": "3a",
    "addr:postcode": "31-011",
    "addr:street": "Plac Szczepański",
    "name": "Bunkier Sztuki",
    "name:hu": "Művészetek Bunkere",
    "opening_hours": "Tu-Su 11:00-19:00",
    "tourism": "museum",
    "website": "http://bunkier.art.pl/",
    "wikidata": "Q11699302",
    "wikipedia": "pl:Galeria Sztuki Współczesnej „Bunkier Sztuki”"
  }
},
{
  "type": "node",
  "id": 748842563,
  "lat": 50.0341198,
  "lon": 20.2175728,
  "tags": {
    "name": "Muzeum Sukiennice",
    "tourism": "museum"
  }
},
{
  "type": "node",
  "id": 968360655,
  "lat": 50.0814425,
  "lon": 20.0362814,
  "tags": {
    "addr:city": "Kraków",
    "addr:country": "PL",
    "addr:housenumber": "23",
    "addr:street": "Osiedle Górali",
    "name": "Muzeum Czynu Zbrojnego",
    "name:en": "Museum of Armed Deed",
    "name:hu": "Hadtörténetni Múzeum",
    "tourism": "museum",
    "wikidata": "Q11786944",
    "wikipedia": "pl:Muzeum Czynu Zbrojnego w Krakowie"
  }
},
{
  "type": "node",
  "id": 979972831,
  "lat": 50.0462364,
  "lon": 19.9541481,
  "tags": {
    "addr:housenumber": "18",
    "addr:street": "Plac Bohaterów Getta",
    "description:hu": "Az egykori varsói gettóban működő egyetlen gyógyszertár",
    "email": "apteka@mhk.pl",
    "name": "Apteka Pod Orłem",
    "name:en": "Under the Eagle Pharmacy",
    "name:hu": "Patika a Sas Alatt",
    "opening_hours": "Mo 10:00-14:00; Tu-Su 09:00-17:00",
    "phone": "+48 12 656 56 25",
    "tourism": "museum",
    "website": "https://www.mhk.pl/oddzialy/apteka-pod-orlem",
    "wikidata": "Q5101454",
    "wikipedia": "pl:Apteka Pod Orłem w Krakowie"
  }
},
{
  "type": "node",
  "id": 1243361620,
  "lat": 50.3551520,
  "lon": 20.0375990,
  "tags": {
    "name": "Dworek Zacisze",
    "tourism": "museum"
  }
},
{
  "type": "node",
  "id": 1332080339,
  "lat": 50.0619960,
  "lon": 19.9377745,
  "tags": {
    "addr:city": "Kraków",
    "addr:country": "PL",
    "addr:housenumber": "1",
    "addr:postcode": "31-042",
    "addr:street": "Rynek Główny",
    "fee": "yes",
    "name": "Podziemia Rynku",
    "name:en": "Rynek Underground",
    "name:hu": "Föld alatti Piac tér",
    "name:pl": "Podziemia Rynku",
    "name:ru": "Подземелье рынка",
    "opening_hours": "Mo-Su 10:00-20:00; Tu 10:00-16:00",
    "operator": "Muzeum Historyczne Miasta Krakowa",
    "tourism": "museum",
    "website": "http://www.podziemiarynku.com/",
    "wikidata": "Q5420576",
    "wikipedia": "pl:Podziemia Rynku w Krakowie"
  }
},
{
  "type": "node",
  "id": 1416965542,
  "lat": 50.0700576,
  "lon": 20.0413202,
  "tags": {
    "addr:city": "Kraków",
    "addr:country": "PL",
    "addr:housenumber": "1",
    "addr:street": "Osiedle Centrum E",
    "description:hu": "A kommunista Lengyen Népköztársaság (1952–1990) története",
    "fee": "yes",
    "fee:conditional": "no @ Tuesday",
    "name": "Muzeum PRL-u",
    "name:en": "Museum of Poland under the Communist Regime",
    "name:hu": "Lengyel Népköztársaság Múzeuma",
    "official_name": "Muzeum PRL-u (w organizacji)",
    "old_name": "Kino Światowid",
    "opening_hours": "Tu-Su 11:00-19:00",
    "source:name:en": "http://www.mprl.pl/omuzeum/57/museum-of-poland-under-the-communist-regime-pl:-muzeum-prlu-in-the-former-swiatowid-cinema.html",
    "source:wheelchair": "http://www.mprl.pl/kontakt.html \"Uwaga! Budynek nie jest dostosowany do potrzeb osób niepełnosprawnych.\"",
    "tourism": "museum",
    "website": "http://www.muzprl.pl/",
    "wheelchair": "no",
    "wikidata": "Q6940983",
    "wikipedia": "pl:Muzeum PRL-u"
  }
},
{
  "type": "node",
  "id": 1499159102,
  "lat": 50.0545616,
  "lon": 19.8943551,
  "tags": {
    "name:de": "Kościuszko-Museum",
    "tourism": "museum"
  }
},
{
  "type": "node",
  "id": 1516798709,
  "lat": 50.0560885,
  "lon": 19.9371042,
  "tags": {
    "addr:city": "Kraków",
    "addr:country": "PL",
    "addr:housenumber": "19",
    "addr:street": "Kanonicza",
    "name": "Muzeum Archidiecezjalne",
    "name:de": "Erzdiözese-Museum",
    "name:hu": "Főegyházmegyei Múzeum",
    "name:pl": "Muzeum Archidiecezjalne",
    "tourism": "museum"
  }
},
{
  "type": "node",
  "id": 1516840253,
  "lat": 50.0563019,
  "lon": 19.9372228,
  "tags": {
    "addr:city": "Kraków",
    "addr:country": "PL",
    "addr:housenumber": "17",
    "addr:street": "Kanonicza",
    "description": "Oddział Muzeum Narodowego",
    "description:de": "Filiale des Nationalmuseums",
    "fee": "yes",
    "fee:conditional": "no @ Sunday",
    "name": "Pałac Biskupa Erazma Ciołka",
    "name:hu": "Erazm Ciołek (1492–1546) püspök palotája",
    "opening_hours": "Mo-Sa 10:00-18:00, Su 10:00-16:00",
    "tourism": "museum",
    "wheelchair": "yes",
    "wheelchair:description": "niemal nieograniczony, część jednej sali w galerii sztuki cerkiewnej ma stopień bez podjazdu"
  }
},
{
  "type": "node",
  "id": 1590572347,
  "lat": 50.3579123,
  "lon": 20.0272146,
  "tags": {
    "name": "Muzeum Ziemi Miechowskiej",
    "tourism": "museum"
  }
},
{
  "type": "node",
  "id": 1804452815,
  "lat": 50.2209609,
  "lon": 19.9793641,
  "tags": {
    "name": "Muzeum Regionalne PTTK w Iwanowicach",
    "tourism": "museum"
  }
},
{
  "type": "node",
  "id": 2311921622,
  "lat": 49.9835208,
  "lon": 20.0612614,
  "tags": {
    "name": "Kopalnia soli Wieliczka (trasa górnicza)",
    "tourism": "museum"
  }
},
{
  "type": "node",
  "id": 2311921623,
  "lat": 49.9830472,
  "lon": 20.0556960,
  "tags": {
    "alt_name": "Szyb Mikołaja Daniłowicza",
    "description": "trasa turystyczna",
    "headframe": "yes",
    "historic": "mineshaft",
    "man_made": "mineshaft",
    "mineshaft_type": "winding",
    "name": "Szyb Daniłowicza",
    "operator": "Kopalnia soli Wieliczka",
    "resource": "salt",
    "start_date": "1635",
    "tourism": "museum"
  }
},
{
  "type": "node",
  "id": 2319751946,
  "lat": 50.0636006,
  "lon": 19.9559687,
  "tags": {
    "entrance": "yes",
    "name": "Muzeum Ogrodu Botanicznego UJ",
    "name:hu": "Jagelló Egyetem Botanikus Kertjének Múzeuma",
    "official_name": "Muzeum Ogrodu Botanicznego i Pracownia Historii Botaniki im. J. Dyakowskiej",
    "opening_hours": "Th,Fr 10:00-14:00; Su 11:00-15:00; Oct 15-Apr 15 off",
    "start_date": "1994",
    "tourism": "museum",
    "website": "https://ogrod.uj.edu.pl/ogrod/ekspozycja-muzealna"
  }
},
{
  "type": "node",
  "id": 2359965247,
  "lat": 49.9693516,
  "lon": 20.4178240,
  "tags": {
    "heritage": "1",
    "heritage:operator": "whc",
    "historic": "yes",
    "name": "Kopalnia Soli",
    "ref:whc": "32ter",
    "tourism": "museum",
    "whc:criteria": "(iv)",
    "whc:inscription_date": "2013",
    "wikidata": "Q4936252",
    "wikipedia": "pl:Kopalnia soli Bochnia"
  }
},
{
  "type": "node",
  "id": 2511586195,
  "lat": 50.0356273,
  "lon": 20.2180603,
  "tags": {
    "name": "Muzeum Fonografii",
    "tourism": "museum",
    "website": "http://muzeumfonografii.pl/"
  }
},
{
  "type": "node",
  "id": 2616212673,
  "lat": 50.0614346,
  "lon": 19.9291440,
  "tags": {
    "description:hu": "Europeum Európai Kulturális Központ (képzőművészeti múzeum)",
    "name": "Europeum",
    "note": "W niedziele wstęp wolny.",
    "official_name": "Ośrodek Kultury Europejskiej \"Europeum\"",
    "opening_hours": "Tu-Sa 10:00-18:00; Su 10:00-16:00",
    "tourism": "museum",
    "wikidata": "Q11801618",
    "wikipedia": "pl:Ośrodek Kultury Europejskiej „Europeum”"
  }
},
{
  "type": "node",
  "id": 2768525812,
  "lat": 49.8770902,
  "lon": 20.0848388,
  "tags": {
    "addr:city": "Dobczyce",
    "addr:housenumber": "1",
    "addr:postcode": "32-410",
    "addr:street": "Podgórska",
    "name": "Muzeum Regionalne PTTK im.W.Kowalskiego",
    "operator": "PTTK",
    "tourism": "museum",
    "website": "http://www.pttk.pl/kznw/muzea/index.php?co=muz01"
  }
},
{
  "type": "node",
  "id": 3159131815,
  "lat": 50.0160064,
  "lon": 19.5877639,
  "tags": {
    "addr:housenumber": "1",
    "addr:place": "Kamień",
    "addr:postcode": "32-071",
    "name": "Izba Regionalna w Kamieniu",
    "tourism": "museum"
  }
},
{
  "type": "node",
  "id": 3333682428,
  "lat": 50.0693436,
  "lon": 19.5361329,
  "tags": {
    "addr:city": "Alwernia",
    "addr:housenumber": "10",
    "addr:postcode": "32-566",
    "addr:street": "Krzysztofa Korycińskiego",
    "name": "Małopolskie Muzeum Pożarnictwa w Alwerni",
    "opening_hours": "Mo-Sa 09:00-15:00",
    "operator": "OSP Alwernia",
    "tourism": "museum"
  }
},
{
  "type": "node",
  "id": 3470132737,
  "lat": 50.1688393,
  "lon": 19.6338544,
  "tags": {
    "addr:housenumber": "79",
    "addr:place": "Czerna",
    "name": "Muzeum Karmelitańskie w Czernej",
    "opening_hours": "Mo-Su 09:00-17:00",
    "phone": "+48 505 898 580",
    "tourism": "museum",
    "website": "http://dompielgrzyma.karmelczerna.pl/muzeum-karmelitanskie/"
  }
},
{
  "type": "node",
  "id": 3545259938,
  "lat": 50.0644028,
  "lon": 19.9573898,
  "tags": {
    "description:hu": "Paleobotanikai Múzeum",
    "name": "Muzeum Paleobotaniczne UJ",
    "name:hu": "Jagelló Egyetem Ősnövénytani Múzeuma",
    "official_name": "Muzeum Paleobotaniczne Instytutu Botaniki Uniwersytetu Jagiellońskiego",
    "start_date": "2003",
    "tourism": "museum",
    "website": "http://www.ib.uj.edu.pl/instytut/muzeum",
    "wikidata": "Q11787114",
    "wikipedia": "pl:Muzeum Paleobotaniczne Instytutu Botaniki UJ w Krakowie"
  }
},
{
  "type": "node",
  "id": 3545259939,
  "lat": 50.0642399,
  "lon": 19.9577676,
  "tags": {
    "description:hu": "Herbárium",
    "name": "Zielnik Uniwersytetu Jagiellońskiego",
    "name:hu": "Jagelló Egyetem Növénytára",
    "official_name": "Herbarium Universitatis Iagellonicae Cracoviensis (KRA)",
    "start_date": "1780",
    "tourism": "museum",
    "website": "http://www.ib.uj.edu.pl/instytut/zielnik"
  }
},
{
  "type": "node",
  "id": 3572269293,
  "lat": 50.2099627,
  "lon": 19.8293623,
  "tags": {
    "name": "Ekspozycja Przyrodnicza",
    "opening_hours": "Mo-Fr 09:00-16:00; Sa 10:00-16:00",
    "operator": "OPN",
    "tourism": "museum",
    "website": "http://www.ojcowskiparknarodowy.pl/main/muzeum.html",
    "wheelchair": "yes"
  }
},
{
  "type": "node",
  "id": 3572269295,
  "lat": 50.2084574,
  "lon": 19.8292402,
  "tags": {
    "addr:city": "Ojców",
    "addr:housenumber": "15",
    "addr:place": "Ojców",
    "addr:postcode": "32-047",
    "name": "Muzeum Regionalne \"Bazar Warszawski\"",
    "operator": "PTTK",
    "tourism": "museum"
  }
},
{
  "type": "node",
  "id": 3577574278,
  "lat": 49.9692765,
  "lon": 20.4179574,
  "tags": {
    "addr:city": "Bochnia",
    "addr:housenumber": "15",
    "addr:street": "Campi",
    "name": "Kopalnia Soli w Bochni",
    "tourism": "museum",
    "website": "http://www.kopalnia-bochnia.pl/"
  }
},
{
  "type": "node",
  "id": 3924520546,
  "lat": 50.0548363,
  "lon": 19.8927871,
  "tags": {
    "tourism": "museum"
  }
},
{
  "type": "node",
  "id": 3924702079,
  "lat": 50.0542558,
  "lon": 19.8943237,
  "tags": {
    "tourism": "museum"
  }
},
{
  "type": "node",
  "id": 3988103830,
  "lat": 50.0546591,
  "lon": 19.9344961,
  "tags": {
    "addr:city": "Kraków",
    "addr:housenumber": "2",
    "addr:place": "Wawel",
    "addr:postcode": "31-001",
    "name": "Muzeum Katedralne im. Jana Pawła II",
    "name:be": "Кафедральны музей Яна Паўла ІІ",
    "name:de": "Johann-Paul-II-Domsmuseum",
    "name:en": "John Paul II Cathedral Museum",
    "name:hu": "II. János Pál Székesegyházi Múzeum",
    "name:pl": "Muzeum Katedralne im. Jana Pawła II",
    "name:ru": "Кафедральный музей имени Иоанна Павла 2",
    "opening_hours": "Nov-Mar Mo-Sa 09:00-16:00; Apr-Oct Mo-Sa 09:00-17:00; PH off",
    "phone": "+48 12 4293321",
    "start_date": "1978-09-28",
    "tourism": "museum",
    "website": "http://www.katedra-wawelska.pl/historia,42.html",
    "wikidata": "Q6944418",
    "wikipedia": "pl:Muzeum Katedralne im. Jana Pawła II na Wawelu"
  }
},
{
  "type": "node",
  "id": 3992709827,
  "lat": 50.0527084,
  "lon": 19.9398623,
  "tags": {
    "addr:city": "Kraków",
    "addr:housenumber": "15",
    "addr:postcode": "31-068",
    "addr:street": "Stradomska",
    "description": "Pierwsze w Polsce muzeum fliperów",
    "description:hu": "Lengyelország első flippermúzeuma",
    "fee": "yes",
    "leisure": "amusement_arcade",
    "name": "Muzeum Flipperów",
    "name:en": "Krakow Pinball Museum",
    "name:hu": "Flippermúzeum",
    "opening_hours": "Fr,Sa 12:00-23:00; Su-Th 12:00-22:00",
    "phone": "+48 608 041 000",
    "tourism": "museum",
    "website": "http://www.krakowpinballmuseum.com/"
  }
},
{
  "type": "node",
  "id": 4002989037,
  "lat": 50.0641425,
  "lon": 19.9231397,
  "tags": {
    "addr:city": "Kraków",
    "addr:housenumber": "30",
    "addr:postcode": "30-059",
    "addr:street": "Aleja Adama Mickiewicza",
    "name": "Muzeum Geologiczne WGGiOŚ AGH",
    "name:hu": "Földtani Múzeum (Műszaki Egyetem, Geológiai Kar)",
    "operator": "Akademia Górniczo-Hutnicza w Krakowie",
    "phone": "+48 606 510 084",
    "tourism": "museum",
    "website": "http://www.geol.agh.edu.pl/~muzeum/index.php"
  }
},
{
  "type": "node",
  "id": 4031826801,
  "lat": 50.0617330,
  "lon": 19.9375856,
  "tags": {
    "addr:city": "Kraków",
    "addr:housenumber": "3",
    "addr:postcode": "31-042",
    "addr:street": "Rynek Główny",
    "fee": "yes",
    "fee:conditional": "no @ Sunday for unchanging expositions",
    "name": "Galeria Sztuki Polskiej XIX wieku",
    "name:en": "National Museum The Nineteenth Century Polish Art Gallery at the Sukiennice",
    "name:hu": "XIX. századi lengyel művészeti galéria",
    "name:ja": "織物会館",
    "opening_hours": "Su 10:00-16:00; Th 10:00-20:00; Tu, We, Fr, Sa 10:00-18:00",
    "operator": "Muzeum Narodowe w Krakowie",
    "phone": "+48 12 433 54 00",
    "tourism": "museum",
    "website": "https://mnk.pl/oddzial/galeria-sztuki-polskiej/o-oddziale",
    "wheelchair": "yes",
    "wikidata": "Q7635861",
    "wikipedia": "pl:Galeria Sztuki Polskiej XIX wieku w Sukiennicach"
  }
},
{
  "type": "node",
  "id": 4281228578,
  "lat": 50.0613744,
  "lon": 19.9417126,
  "tags": {
    "addr:city": "Kraków",
    "addr:country": "PL",
    "addr:housenumber": "18",
    "addr:postcode": "31-027",
    "addr:street": "Mikołajska",
    "description:hu": "Maria Angela Truszkowska (1825–99) lengyel rendalapító szerzetesnő",
    "email": "muzeum-mat@cssf.opoka.org.pl",
    "fax": "+48 12 4264740",
    "name": "Muzeum i Archiwum Marii Angeli Truszkowskiej",
    "name:hu": "Maria Angela Truszkowska Múzeum és Levéltár",
    "opening_hours": "Mo-Fr 10:00-14:00",
    "operator": "Zgromadzenie Sióstr Felicjanek",
    "phone": "+48 12 4264740",
    "start_date": "1999-10-11",
    "tourism": "museum",
    "website": "http://www.muzeum-mat.cssf.opoka.org.pl/",
    "wikidata": "Q11787298",
    "wikipedia": "pl:Muzeum i Archiwum bł. Marii Angeli Truszkowskiej w Krakowie"
  }
},
{
  "type": "node",
  "id": 4285260191,
  "lat": 50.0133713,
  "lon": 19.9367801,
  "tags": {
    "description": "Oddział Muzeum Archidiecezjalnego Kardynała Karola Wojtyły",
    "name": "Muzeum Jana Pawła II",
    "name:hu": "II. János Pál Pápa Múzeum",
    "note": "docelowo w budynku obok",
    "tourism": "museum"
  }
},
{
  "type": "node",
  "id": 4286631532,
  "lat": 50.1262320,
  "lon": 19.6538027,
  "tags": {
    "addr:city": "Nawojowa Góra",
    "addr:housenumber": "35",
    "addr:street": "Gwoździec",
    "name": "Galeria Kamienny kwiatek",
    "operator": "Dagmara Kwiatek",
    "phone": "+48 608 373 807,+48 601 475 628",
    "tourism": "museum",
    "website": "https://kamiennykwiatek.weebly.com/"
  }
},
{
  "type": "node",
  "id": 4290338097,
  "lat": 50.0625139,
  "lon": 19.9361345,
  "tags": {
    "addr:city": "Kraków",
    "addr:housenumber": "34",
    "addr:postcode": "31-010",
    "addr:street": "Rynek Główny",
    "description": "Muzeum figur woskowych",
    "description:hu": "Panoptikum: viaszfigurák múzeuma",
    "name": "Polonia Wax",
    "phone": "+48 502 799 445",
    "tourism": "museum",
    "website": "http://poloniawaxmuseum.com/"
  }
},
{
  "type": "node",
  "id": 4319513769,
  "lat": 49.9837496,
  "lon": 20.0595928,
  "tags": {
    "description": "Najstarszy (poł. XIII w.) szyb górniczy w Wieliczce odkryty w czasie wykopalisk archeologicznych w 1967 r.",
    "name": "Szyb poszukiwawczy",
    "source:description": "plate nearby",
    "tourism": "museum"
  }
},
{
  "type": "node",
  "id": 4357426638,
  "lat": 50.0550023,
  "lon": 19.9088530,
  "tags": {
    "addr:city": "Kraków",
    "addr:housenumber": "41",
    "addr:postcode": "30-209",
    "addr:street": "Królowej Jadwigi",
    "description": "Dom Zwierzyniecki - Oddział Muzeum Historycznego Miasta Krakowa",
    "description:hu": "A Krakkói Várostörténeti Múzeum kiállítóhelye: helytörténeti, mikrotörténeti kiállítások",
    "name": "Dom Zwierzyniecki",
    "name:hu": "Zwierzyniec Ház",
    "opening_hours": "Mo-Su 09:30-17:00",
    "tourism": "museum"
  }
},
{
  "type": "node",
  "id": 4443337491,
  "lat": 50.0707757,
  "lon": 19.9248071,
  "tags": {
    "addr:postcode": "30-039",
    "name": "Muzeum Historyczne Miasta Krakowa Ulica Pomorska",
    "name:en": "Historical Museum of Krakow, Pomorska Street",
    "name:hu": "Krakkói Várostörténeti Múzeum, Pomorska utca",
    "name:pl": "Muzeum Historyczne Miasta Krakowa Ulica Pomorska",
    "opening_hours": "Apr-Oct: Mo-Su 10:00-17:30",
    "todo": "Create relation of all 14 museum divisions. See wikipedia reference for further information https://en.wikipedia.org/wiki/Historical_Museum_of_Krak%C3%B3w",
    "tourism": "museum",
    "website": "https://mhk.pl/",
    "wikidata": "Q5101500",
    "wikipedia": "pl:Muzeum Historyczne Miasta Krakowa"
  }
},
{
  "type": "node",
  "id": 4817320821,
  "lat": 50.0590085,
  "lon": 19.9257049,
  "tags": {
    "addr:postcode": "31-111",
    "email": "info@stainedglass.pl",
    "name": "Muzeum Witrażu w Krakowie",
    "name:en": "Krakow Workshop and Stained Glass Museum",
    "name:hu": "Krakkói Ólomüvegablak-múzeum és -műhely",
    "name:pl": "Muzeum Witrażu w Krakowie",
    "opening_hours": "Tu-Sa 12:00-17:00",
    "phone": "+48 512 937 979",
    "tourism": "museum",
    "website": "http://muzeumwitrazu.pl",
    "wikidata": "Q6944430",
    "wikipedia": "pl:Muzeum Witrażu w Krakowie"
  }
},
{
  "type": "node",
  "id": 5199949834,
  "lat": 50.0666305,
  "lon": 19.9408143,
  "tags": {
    "addr:city": "Kraków",
    "addr:housenumber": "4",
    "addr:postcode": "31-157",
    "addr:street": "Ignacego Jana Paderewskiego",
    "description:hu": "A krakkói perec („Obwarzanek krakowski”) múzeuma",
    "fee": "yes",
    "name": "Żywe Muzeum Obwarzanka",
    "name:hu": "Élő Perecmúzeum",
    "opening_hours": "Mo-Th 10:00-16:00; Fr-Su 09:30-17:30",
    "phone": "+48 12 357 73 22,+48 662 101 909",
    "tourism": "museum",
    "website": "https://www.muzeumobwarzanka.com/",
    "wheelchair": "no"
  }
},
{
  "type": "node",
  "id": 5577948813,
  "lat": 50.0425139,
  "lon": 19.9609937,
  "tags": {
    "contact:facebook": "https://www.facebook.com/muzeumpodgorza/",
    "description:hu": "Podgórze Krakkó Visztulától délre eső városrésze",
    "name": "Muzeum Podgórza",
    "name:hu": "Podgórzei Múzeum",
    "opening_hours": "Tu-Su 09:30-17:00",
    "tourism": "museum"
  }
},
{
  "type": "node",
  "id": 5751039807,
  "lat": 50.0617966,
  "lon": 19.9459505,
  "tags": {
    "charge": "7 zł",
    "email": "mburbani@cyf-kr.edu.pl",
    "fee": "yes",
    "name": "Muzeum Anatomii",
    "name:en": "Museum of Anatomy",
    "name:hu": "Orvoslástörténeti Múzeum",
    "official_name": "Muzeum Katedry Anatomii Uniwersytetu Jagiellońskiego Collegium Medicum",
    "tourism": "museum",
    "website": "http://katedra-anatomii.cm-uj.krakow.pl/o-katedrze/muzeum-katedry/",
    "wikidata": "Q11787260",
    "wikipedia": "pl:Muzeum Wydziału Lekarskiego UJ"
  }
},
{
  "type": "node",
  "id": 5832155481,
  "lat": 50.0603006,
  "lon": 19.9206554,
  "tags": {
    "name": "Muzeum Czynu Niepodległościowego",
    "opening_hours": "\"by appointment\"",
    "phone": "012-633-47-15",
    "tourism": "museum"
  }
},
{
  "type": "node",
  "id": 5853439712,
  "lat": 50.0771546,
  "lon": 20.0393941,
  "tags": {
    "addr:city": "Kraków",
    "addr:housenumber": "16",
    "addr:postcode": "31-958",
    "addr:street": "Osiedle Słoneczne",
    "facebook": "https://www.facebook.com/NowaHutaMuzeum?fref=pb&hc_location=profile_browser",
    "name:en": "Historical Museum of Krakow, Department of History of Nowa Huta",
    "phone": "+48 12 425 97 75",
    "tourism": "museum",
    "website": "https://www.mhk.pl/branches/history-nowa-huta-quarter"
  }
},
{
  "type": "node",
  "id": 6064243286,
  "lat": 49.9066264,
  "lon": 19.7853916,
  "tags": {
    "addr:housenumber": "590",
    "addr:place": "Wola Radziszowska",
    "addr:postcode": "32-053",
    "name": "Izba Regionalna",
    "tourism": "museum",
    "website": "http://skarby.bliskokrakowa.pl/34-sbk-izba-regionalna-w-woli-radziszowskiej"
  }
},
{
  "type": "node",
  "id": 6220687323,
  "lat": 50.0646542,
  "lon": 19.9399553,
  "tags": {
    "name": "Muzeum XX. Czartoryskich w Krakowie",
    "opening_hours": "Mo-Su 10:00-15:30",
    "phone": "+48 12 370 54 60",
    "tourism": "museum",
    "website": "http://www.muzeum-czartoryskich.krakow.pl/"
  }
},
{
  "type": "node",
  "id": 6361414404,
  "lat": 50.0682178,
  "lon": 20.0152564,
  "tags": {
    "addr:city": "Kraków",
    "addr:housenumber": "41A",
    "addr:postcode": "31-586",
    "addr:street": "Centralna",
    "name": "Arcade Muzeum-Gry Wideo",
    "phone": "+48 509 031 898",
    "start_date": "2019-03-24",
    "tourism": "museum"
  }
},
{
  "type": "node",
  "id": 6732338597,
  "lat": 50.0472907,
  "lon": 19.9513049,
  "tags": {
    "name": "Centre for Documentation of the Art of Tadeusz Kantor CRICOTEKA",
    "name:pl": "Ośrodek Dokumentacji Sztuki Tadeusza Kantora CRICOTEKA",
    "tourism": "museum"
  }
},
{
  "type": "node",
  "id": 6853230186,
  "lat": 50.0655378,
  "lon": 19.9469933,
  "tags": {
    "name": "History Land",
    "opening_hours": "Mo-Fr 09:00-17:00; Sa-Su 10:00-18:00",
    "tourism": "museum"
  }
},
{
  "type": "node",
  "id": 6893874285,
  "lat": 50.0700553,
  "lon": 19.9236248,
  "tags": {
    "name:ru": "Музей истории фотографии",
    "tourism": "museum"
  }
},
{
  "type": "node",
  "id": 6958500807,
  "lat": 50.0660335,
  "lon": 19.9222029,
  "tags": {
    "addr:city": "Kraków",
    "addr:housenumber": "30",
    "addr:postcode": "30-059",
    "addr:street": "Aleja Adama Mickiewicza",
    "name": "Muzeum AGH",
    "operator": "Akademia Górniczo-Hutnicza w Krakowie",
    "tourism": "museum"
  }
},
{
  "type": "node",
  "id": 7056586723,
  "lat": 50.0750320,
  "lon": 19.9330798,
  "tags": {
    "addr:city": "Kraków",
    "addr:housenumber": "8",
    "addr:postcode": "30-006",
    "addr:street": "Wrocławska",
    "name": "Muzeum Elektroniki",
    "opening_hours:signed": "no",
    "phone": "+48 12 532 798 799",
    "tourism": "museum",
    "website": "http://www.muzeumelektroniki.pl"
  }
},
{
  "type": "way",
  "id": 30807865,
  "nodes": [
    3486988114,
    3486988098,
    3486987459,
    341393253,
    3486987509,
    6077795785,
    6077795788,
    3486987858,
    3486988097,
    3486987474,
    3486988112,
    3486988118,
    3486987475,
    3486987863,
    3486988123,
    3486988124,
    3486987718,
    3486988114
  ],
  "tags": {
    "addr:city": "Kraków",
    "addr:housenumber": "16",
    "addr:postcode": "31-504",
    "addr:street": "Lubicz",
    "building": "museum",
    "building:levels": "2",
    "description:hu": "A várostörténeti múzeum kiállítóhelye",
    "name": "Muzeum Celestat",
    "tourism": "museum",
    "wikidata": "Q9185653",
    "wikipedia": "pl:Celestat"
  }
},
{
  "type": "way",
  "id": 39357526,
  "nodes": [
    3080536035,
    3080535992,
    3080535993,
    3080535810,
    3080535614,
    3080535595,
    3080535577,
    3080535398,
    3080535592,
    3080535807,
    3080535809,
    3080535824,
    3080535622,
    3080535262,
    3080535830,
    3080530184,
    3080536035
  ],
  "tags": {
    "addr:city": "Kraków",
    "addr:country": "PL",
    "addr:housenumber": "4",
    "addr:postcode": "31-011",
    "addr:street": "Plac Szczepański",
    "building": "yes",
    "building:levels": "3",
    "name": "Pałac Sztuki",
    "name:de": "Palast der Kunst",
    "name:en": "Palace of Art",
    "name:hu": "Művészetek Palotája",
    "name:pl": "Pałac Sztuki",
    "name:uk": "Палац мистецтв",
    "opening_hours": "Mo-Fr 08:15-18:00; Sa-Su 10:00-18:00",
    "tourism": "museum",
    "wikidata": "Q11814864",
    "wikipedia": "pl:Pałac Sztuki w Krakowie"
  }
},
{
  "type": "way",
  "id": 39393947,
  "nodes": [
    3037326260,
    3037326635,
    3037295906,
    3037295905,
    3037295904,
    471984939,
    1391259505,
    3037326454,
    3037326241,
    3037322431,
    3037322432,
    3037326415,
    3037325375,
    3037326475,
    3037326472,
    3037326523,
    3037326432,
    3037326530,
    3037326458,
    3037326457,
    3037326452,
    3037326453,
    3037326455,
    3037326464,
    3037326459,
    3037326460,
    3037326255,
    3037326263,
    3037326260
  ],
  "tags": {
    "addr:city": "Kraków",
    "addr:country": "PL",
    "addr:housenumber": "26",
    "addr:postcode": "31-123",
    "addr:street": "Krupnicza",
    "building": "residential",
    "building:levels": "2",
    "description:hu": "Józef Mehoffer (1869–1946) lengyel festő és üvegművész",
    "name": "Dom Józefa Mehoffera",
    "name:en": "The Józef Mehoffer House",
    "name:hu": "Józef Mehoffer háza",
    "opening_hours": "Tu-Fr 09:00-16:00; Sa 10:00-18:00; Su 10:00-16:00; Mo off",
    "phone": "+48 12 433 58 80",
    "tourism": "museum",
    "website": "https://mnk.pl/oddzial/dom-jozefa-mehoffera",
    "wikidata": "Q1715072",
    "wikipedia": "pl:Dom Józefa Mehoffera"
  }
},
{
  "type": "way",
  "id": 87527975,
  "nodes": [
    4291849885,
    4291849894,
    4291849893,
    4291849896,
    4291849899,
    4291849898,
    4291849914,
    4291849915,
    4291849916,
    4291849913,
    4291849912,
    4291849891,
    4291849892,
    4291849889,
    4291849888,
    4291849875,
    4291849876,
    4291849870,
    4291849869,
    4291849848,
    4291849849,
    4291849846,
    4291849844,
    4291849845,
    4291849820,
    4291849818,
    4291849815,
    4291849823,
    4291849824,
    4291849833,
    4291849764,
    4291849754,
    4291849755,
    4291849750,
    4291849748,
    4291849749,
    4291849726,
    4291849724,
    4291849722,
    4291849727,
    4291849729,
    4291849743,
    4291849742,
    4291849746,
    4291849747,
    4291849784,
    4291849783,
    4291849788,
    4291849789,
    4291849794,
    4291849793,
    4291849799,
    4291849805,
    4291849801,
    4291849825,
    4291849826,
    4291849827,
    4291849822,
    4291849821,
    4291849812,
    4291849885
  ],
  "tags": {
    "building": "university",
    "building:levels": "1",
    "name": "Muzeum Politechniki Krakowskiej",
    "name:hu": "Krakkói Műszaki Egyetemi Múzeuma",
    "operator": "Politechnika Krakowska",
    "tourism": "museum",
    "wheelchair": "no",
    "wikidata": "Q16580041",
    "wikipedia": "pl:Muzeum Politechniki Krakowskiej"
  }
},
{
  "type": "way",
  "id": 128616563,
  "nodes": [
    3450775051,
    3450772834,
    3450774267,
    3450774262,
    3450774818,
    3450774829,
    3450775056,
    3450775060,
    3450775051
  ],
  "tags": {
    "addr:city": "Kraków",
    "addr:country": "PL",
    "addr:housenumber": "25",
    "addr:postcode": "31-752",
    "addr:street": "Melchiora Wańkowicza",
    "building": "museum",
    "description:hu": "Jan Matejko (1838–1893) lengyel festő",
    "heritage": "2",
    "heritage:operator": "nid",
    "name": "Dworek Jana Matejki",
    "name:hu": "Jan Matejko háza",
    "ref:nid": "A-638",
    "tourism": "museum",
    "wikidata": "Q5318318",
    "wikipedia": "pl:Dworek Jana Matejki w Krzesławicach (Kraków)"
  }
},
{
  "type": "way",
  "id": 136648568,
  "nodes": [
    1499189374,
    1658892299,
    1499189344,
    1499189335,
    1499189378,
    1499189330,
    1499189366,
    1499189360,
    6514751638,
    1499189375,
    1658892310,
    1499189374
  ],
  "tags": {
    "addr:city": "Kraków",
    "addr:housenumber": "4",
    "addr:postcode": "30-702",
    "addr:street": "Lipowa",
    "building": "yes",
    "building:levels": "3",
    "email": "fabrykaschindlera@mhk.pl",
    "name": "Fabryka Emalia Oskara Schindlera",
    "name:de": "Emaillewarenfabrik Oskar Schindler",
    "name:en": "Schindler's Factory",
    "name:hu": "Oskar Schindler zománcárugyára",
    "name:ko": "오스카 쉰들러 공장",
    "name:pl": "Fabryka Emalia Oskara Schindlera",
    "opening_hours": "Mo-Su 09:00-16:00",
    "operator": "Muzeum Historyczne Miasta Krakowa",
    "roof:shape": "flat",
    "short_name": "Fabryka Schindlera",
    "tourism": "museum",
    "website": "https://mhk.pl/oddzialy/fabryka_schindlera",
    "wikidata": "Q286522",
    "wikipedia": "pl:Fabryka Emalia Oskara Schindlera"
  }
},
{
  "type": "way",
  "id": 138515644,
  "nodes": [
    1518864584,
    6717888654,
    6717888610,
    6717888608,
    6717888609,
    1518864572,
    6717888607,
    6717888604,
    6717888603,
    6717888602,
    6717888605,
    6717888606,
    6717888601,
    6717888599,
    6717888600,
    2500393633,
    6717888598,
    6717888597,
    2500393635,
    2500393639,
    6717888596,
    6717888595,
    2500393637,
    6717888839,
    6717888555,
    1518864586,
    2500393648,
    1518864597,
    6717888756,
    6717888755,
    6717888660,
    1518864584
  ],
  "tags": {
    "building:colour": "#ffd700",
    "building:material": "stone",
    "building:use": "museum",
    "description:hu": "Polgári élet Krakkóban a 17–19. században",
    "height": "20",
    "name": "Kamienica Hipolitów",
    "name:hu": "Hipolit-ház",
    "roof:colour": "grey",
    "roof:height": "4",
    "roof:material": "tiles",
    "roof:orientation": "across",
    "roof:shape": "gabled",
    "tourism": "museum",
    "wikidata": "Q11734077",
    "wikipedia": "pl:Kamienica Hipolitów w Krakowie"
  }
},
{
  "type": "way",
  "id": 148464900,
  "nodes": [
    3435179690,
    3435192511,
    4319513775,
    3435192512,
    3435192445,
    3435192434,
    1298812205,
    3435192436,
    3435192442,
    3435193597,
    3435193598,
    3435193599,
    3435192771,
    3435192767,
    4319513786,
    3435192508,
    4319513776,
    3435180938,
    3435192497,
    3435192751,
    3435189056,
    3435192495,
    3435180933,
    3435180929,
    3435189052,
    3435192429,
    3435180924,
    3435180927,
    3435180925,
    3435192427,
    3435189046,
    3435189049,
    3435189055,
    3435180931,
    3435189057,
    3435192750,
    3435192509,
    3435179690
  ],
  "tags": {
    "addr:city": "Wieliczka",
    "addr:city:simc": "0952232",
    "addr:housenumber": "6",
    "addr:postcode": "32-020",
    "addr:street": "Zamkowa",
    "addr:street:sym_ul": "25547",
    "building": "yes",
    "description:eo": "Historia administrejo de salminejo de fino de 13-a jarcento ĝis 1945 jaro.",
    "description:payment:eo": "ĉiusabate - eniro senpaga",
    "description:payment:pl": "soboty - wstęp wolny",
    "description:pl": "Historyczna siedziba administracji kopali soli od końca XIII w. do 1945 r.",
    "historic": "castle",
    "name": "Zamek Żupny",
    "name:eo": "Kastelo Żupny",
    "opening_hours": "May-Sep: Tu-Su 09:00-20:00; Oct-Apr: Tu-Su 08:30-15:30; Jan 01,easter -1 day,easter,easter +60 days,Nov 01,Dec 24,Dec 25,Dec 26,Dec 31 off",
    "source": "Bing",
    "source:addr": "wieliczka.e-mapa.net",
    "source:description": "plate nearby",
    "tourism": "museum",
    "website": "http://muzeum.wieliczka.pl",
    "wikidata": "Q9386781",
    "wikipedia": "pl:Zamek Żupny"
  }
},
{
  "type": "way",
  "id": 153050736,
  "nodes": [
    1658020962,
    1658020955,
    2457223961,
    2457167139,
    2457223957,
    1658020940,
    1658020944,
    1658020962
  ],
  "tags": {
    "addr:city": "Krzeszowice",
    "addr:housenumber": "30",
    "addr:postcode": "32-065",
    "addr:street": "Krakowska",
    "building": "house",
    "name": "Muzeum Ziemi Krzeszowickiej",
    "source": "geoportal.gov.pl:ortofoto",
    "source:addr": "UM w Krzeszowicach",
    "tourism": "museum",
    "wheelchair": "no"
  }
},
{
  "type": "way",
  "id": 153158172,
  "nodes": [
    1658773392,
    1658773397,
    1658773403,
    1658773406,
    3279106652,
    1658773393,
    1658773398,
    3279112178,
    1658773410,
    1658773432,
    1658773424,
    3279112474,
    1658773394,
    3279111806,
    2000518588,
    2000518586,
    3279111802,
    3279112467,
    3279112469,
    3279111803,
    3279112471,
    3279111804,
    3279111805,
    3279112077,
    3279112473,
    3279112036,
    3279111808,
    1658773392
  ],
  "tags": {
    "building": "museum",
    "building:levels": "4",
    "description:hu": "Jan Matejko (1838–93) lengyel festő",
    "historic": "house",
    "name": "Dom Jana Matejki",
    "name:de": "Jan-Matejko-Haus",
    "name:en": "Matejko House",
    "name:hu": "Jan Matejko-ház",
    "name:pl": "Dom Jana Matejki",
    "tourism": "museum",
    "wikidata": "Q998674",
    "wikipedia": "pl:Dom Jana Matejki w Krakowie"
  }
},
{
  "type": "way",
  "id": 153173384,
  "nodes": [
    1658892542,
    1658892625,
    6680055026,
    6514751646,
    6514751647,
    1658892603,
    1658892315,
    1658892324,
    1658892313,
    1658892329,
    1658892271,
    1658892278,
    1658892288,
    1658892284,
    1658892294,
    6514751650,
    1658892595,
    6514751649,
    6514751648,
    1658892575,
    1658892602,
    1658892597,
    1658892604,
    1658892577,
    1658892552,
    1658892542
  ],
  "tags": {
    "addr:city": "Kraków",
    "addr:housenumber": "4h",
    "addr:postcode": "30-702",
    "addr:street": "Lipowa",
    "building": "yes",
    "name": "Muzeum Sztuki Współczesnej w Krakowie MOCAK",
    "name:de": "Museum für Gegenwartskunst in Krakau MOCAK",
    "name:en": "MOCAK Museum of Contemporary Art in Krakow",
    "name:hu": "Krakkói Kortárs Művészeti Múzeum (MOCAK)",
    "name:pl": "Muzeum Sztuki Współczesnej w Krakowie MOCAK",
    "short_name": "MOCAK",
    "tourism": "museum",
    "website": "https://www.mocak.pl/",
    "wheelchair": "yes",
    "wikidata": "Q11787222",
    "wikipedia": "pl:Muzeum Sztuki Współczesnej w Krakowie"
  }
},
{
  "type": "way",
  "id": 218654159,
  "nodes": [
    3620819913,
    3620821407,
    3620821409,
    3620802774,
    3620802773,
    3620819630,
    3620821408,
    3620821412,
    3620819913
  ],
  "tags": {
    "addr:city:simc": "0320526",
    "addr:housenumber": "76A",
    "addr:place": "Iwanowice Dworskie",
    "addr:postcode": "32-095",
    "building": "yes",
    "source:addr": "emuia.gugik.gov.pl",
    "tourism": "museum"
  }
},
{
  "type": "way",
  "id": 231815729,
  "nodes": [
    2401454365,
    2401454369,
    2401454373,
    2401454380,
    2401454454,
    2401454448,
    2401454451,
    2401454453,
    2401454452,
    2401454450,
    2401454441,
    2401454442,
    2401454437,
    2401454436,
    2401454434,
    2401454435,
    2401454433,
    2401454432,
    2401454409,
    2401454413,
    2401454404,
    2401454402,
    2401454384,
    2401454386,
    2401454379,
    2401454378,
    2401454364,
    2401454366,
    2401454361,
    2401454359,
    2401454341,
    2401454345,
    2401454336,
    2401454333,
    2401454306,
    2401454314,
    2401454305,
    2401454304,
    2401454294,
    2401454297,
    2401454291,
    2401454290,
    2401454263,
    2401454265,
    2401454257,
    2401454256,
    2401454250,
    2401454251,
    2401454249,
    2401454248,
    2401454242,
    2401454243,
    2401454240,
    2401454239,
    2401454227,
    2401454230,
    2401454223,
    2401454221,
    2401454157,
    2401454159,
    2401454144,
    2401454142,
    2401454122,
    2401454123,
    2401454121,
    2401454119,
    2401454117,
    2401454115,
    2401454094,
    2401454100,
    2401454091,
    2401454090,
    2401454070,
    2401454072,
    2401454066,
    2401454065,
    2401454053,
    2401454054,
    2401454051,
    2401454050,
    2401454027,
    2401454024,
    2401454018,
    2401454016,
    2401454013,
    2401454010,
    2401454009,
    2401454012,
    2401454011,
    2401454017,
    2401454008,
    2401454005,
    2401454004,
    2401454002,
    2401454001,
    2401453999,
    2401454003,
    2401454000,
    2401454007,
    2401454006,
    2401454365
  ],
  "tags": {
    "addr:city": "Kraków",
    "addr:country": "PL",
    "addr:housenumber": "1",
    "addr:postcode": "30-062",
    "addr:street": "Aleja 3 Maja",
    "building": "hall",
    "name": "Muzeum Narodowe w Krakowie",
    "name:de": "Nationalmuseum in Krakau",
    "name:en": "National Museum in Kraków",
    "name:hu": "Krakkói Nemzeti Múzeum",
    "name:pl": "Muzeum Narodowe w Krakowie",
    "tourism": "museum",
    "wheelchair": "yes",
    "wikidata": "Q195311",
    "wikipedia": "pl:Muzeum Narodowe w Krakowie"
  }
},
{
  "type": "way",
  "id": 233092298,
  "nodes": [
    2414350354,
    2414350445,
    2414350440,
    2414350619,
    2414350626,
    2414350670,
    2414350721,
    2414350716,
    1574123934,
    2414350738,
    2414350723,
    2414350736,
    2414350719,
    2414350605,
    2414350426,
    2414350430,
    2414350419,
    2414350416,
    2414350381,
    6500997624,
    2414350323,
    2414350315,
    2414350361,
    2414350354
  ],
  "tags": {
    "addr:city": "Kraków",
    "addr:country": "PL",
    "addr:housenumber": "1",
    "addr:postcode": "30-111",
    "addr:street": "Aleja Marszałka Ferdynanda Focha",
    "building": "yes",
    "name": "Dawny Hotel \"Cracovia\"",
    "operator": "Muzeum Narodowe w Krakowie",
    "tourism": "museum",
    "wikidata": "Q11710137",
    "wikipedia": "pl:Hotel „Cracovia”"
  }
},
{
  "type": "way",
  "id": 233371578,
  "nodes": [
    3071746356,
    3071745592,
    3071747073,
    3071746354,
    3071745590,
    3071747071,
    3071746353,
    3071745589,
    3071747070,
    3071746352,
    3071745588,
    3071747069,
    3071746351,
    3071745587,
    3071747068,
    3071746350,
    3071745586,
    3071746349,
    3071747067,
    3074942105,
    3071745591,
    3071746355,
    3071746357,
    3071746356
  ],
  "tags": {
    "addr:city": "Kraków",
    "addr:housenumber": "26",
    "addr:postcode": "30-302",
    "addr:street": "Marii Konopnickiej",
    "building": "yes",
    "name": "Muzeum Sztuki i Techniki Japońskiej Manggha",
    "name:hu": "Manggha Japán Művészeti és Technológiai Múzeum",
    "tourism": "museum",
    "website": "http://manggha.pl/",
    "wikidata": "Q572206",
    "wikipedia": "pl:Muzeum Sztuki i Techniki Japońskiej „Manggha”"
  }
},
{
  "type": "way",
  "id": 307773166,
  "nodes": [
    3129788193,
    1679460250,
    2905885404,
    4277346780,
    2905885401,
    4277346772,
    1679460196,
    1679460170,
    2409354640,
    3129551719,
    2409354637,
    2409354636,
    2409354635,
    1692479830,
    1692479826,
    4273750786,
    1692479816,
    1692479812,
    4273750770,
    1169654843,
    1692479796,
    1692479808,
    1692479814,
    3623200008,
    1262680449,
    1262680463,
    1770404410,
    1770404416,
    1262680459,
    1262680451,
    1692479881,
    2360485610,
    3623985953,
    3623985951,
    1692479880,
    1692479879,
    1692479878,
    1692479877,
    1692479875,
    2360485372,
    3129788195,
    1692479866,
    1692479864,
    1692479862,
    1692479861,
    1692479860,
    1692479859,
    1692479857,
    2959413255,
    1692479856,
    1692479855,
    1692479841,
    1692479839,
    3129788194,
    3129788193
  ],
  "tags": {
    "addr:city": "Kraków",
    "addr:postcode": "31-864",
    "addr:street": "Jana Pawła II",
    "email": "info@muzeumlotnictwa.pl",
    "fee": "We-Su 09:00-17:00",
    "name": "Muzeum Lotnictwa Polskiego",
    "name:be": "Музей польскай авіяцыі",
    "name:cs": "Muzeum polského letectví v Krakově",
    "name:de": "Polnisches Luftfahrtmuseum",
    "name:en": "Polish Aviation Museum",
    "name:eo": "Muzeo de la Pola Aviado en Krakovo",
    "name:es": "Museo Polaco de Aviación",
    "name:fi": "Puolan ilmailumuseo",
    "name:fr": "Musée de l'Aviation polonaise",
    "name:hu": "Lengyel Repülési Múzeum",
    "name:it": "Museo dell'aviazione polacca",
    "name:nl": "Pools Luchtvaartmuseum",
    "name:pl": "Muzeum Lotnictwa Polskiego",
    "name:ro": "Muzeul Polonez de Aviație",
    "name:ru": "Музей польской авиации",
    "name:uk": "Музей польської авіації",
    "name:zh": "波兰航空博物馆",
    "opening_hours": "Tu-Su 09:00-17:00",
    "phone": "+48 12 6409960",
    "tourism": "museum",
    "website": "http://muzeumlotnictwa.pl/",
    "wikidata": "Q377904",
    "wikipedia": "pl:Muzeum Lotnictwa Polskiego w Krakowie"
  }
},
{
  "type": "way",
  "id": 310879108,
  "nodes": [
    3163815805,
    3163815586,
    3163815587,
    3163806510,
    3163815805
  ],
  "tags": {
    "building": "yes",
    "name": "Małopolskie Muzeum Pożarnictwa w Alwerni",
    "operator": "OSP Alwernia",
    "tourism": "museum"
  }
},
{
  "type": "way",
  "id": 351463408,
  "nodes": [
    3572448196,
    3572448195,
    3572448193,
    3572448194,
    3572448198,
    5944721846,
    5944721843,
    5944721844,
    5944721845,
    3572448197,
    3572448196
  ],
  "tags": {
    "building": "yes",
    "name": "Muzeum im. Stanisława Fischera w Bochni",
    "tourism": "museum",
    "website": "http://www.muzeum.bochnia.pl/",
    "wikidata": "Q815903",
    "wikipedia": "pl:Bochnia"
  }
},
{
  "type": "way",
  "id": 352824784,
  "nodes": [
    3585916917,
    3585916918,
    3585916919,
    3585916920,
    3585916923,
    3585916922,
    3585916921,
    3585916917
  ],
  "tags": {
    "addr:city": "Dobczyce",
    "addr:housenumber": "1",
    "addr:street": "Podgórska",
    "name": "Skansen Drewnianego Budownictwa Ludowego",
    "tourism": "museum"
  }
},
{
  "type": "way",
  "id": 356668702,
  "nodes": [
    3620825071,
    3620825069,
    3620826194,
    3620825065,
    3620825064,
    3620825068,
    3620826030,
    3620825070,
    3620825071
  ],
  "tags": {
    "addr:city:simc": "0339520",
    "addr:housenumber": "141",
    "addr:place": "Imbramowice",
    "addr:postcode": "32-353",
    "building": "yes",
    "name": "Izba regionalna w Imbramowicach, Biały domek",
    "source:addr": "emuia.gugik.gov.pl",
    "tourism": "museum",
    "website": "http://www.imbramowice.pl;http://www.imbramowice.pl/index.php/galeria/bialy-domek"
  }
},
{
  "type": "way",
  "id": 413347054,
  "nodes": [
    4146767534,
    4146820325,
    4146802833,
    6514826234,
    6514826233,
    6514826232,
    4146768176,
    4146768175,
    4146768333,
    4146768336,
    4146843724,
    4146802838,
    4146843722,
    4146802836,
    4146802835,
    4146768172,
    4146768168,
    4146768159,
    4146848249,
    4146768151,
    4146767985,
    4146767974,
    4146767528,
    4146767269,
    4146767272,
    4146767271,
    4146767276,
    4146767534
  ],
  "tags": {
    "addr:city": "Kraków",
    "addr:street": "Marszałka Józefa Piłsudskiego",
    "email": "czapscy@mnk.pl",
    "fee": "yes",
    "fee:conditional": "no @ Sunday",
    "landuse": "commercial",
    "name": "Muzeum im. Emeryka Hutten-Czapskiego",
    "name:hu": "Emeryk Hutten-Czapski Múzeum",
    "opening_hours": "Tu-Sa 10:00-18:00; Su 10:00-16:00",
    "operator": "Muzeum Narodowe w Krakowie",
    "phone": "+48 12 433 58 40",
    "tourism": "museum",
    "website": "https://mnk.pl/oddzial/muzeum-im-emeryka-hutten-czapskiego",
    "wikidata": "Q1338606",
    "wikipedia": "pl:Muzeum im. Emeryka Hutten-Czapskiego"
  }
},
{
  "type": "way",
  "id": 417001313,
  "nodes": [
    2489574869,
    2489574782,
    2489574963,
    2489575242,
    2489574869
  ],
  "tags": {
    "addr:city": "Bochnia",
    "addr:housenumber": "9",
    "addr:postcode": "32-700",
    "addr:street": "Tadeusza Czackiego",
    "building": "yes",
    "level": "1",
    "name": "Muzeum Motyli Arthropoda",
    "opening_hours": "Mo-Fr 10:00-16:00; Sa-Su 10:00-15:00",
    "operator": "Filip Kobiela",
    "tourism": "museum",
    "website": "https://muzeummotyli.com/"
  }
},
{
  "type": "way",
  "id": 422834685,
  "nodes": [
    4225612449,
    4225612450,
    6241948276,
    4225612458,
    277365673,
    4225612473,
    277365676,
    7148387505,
    4704611739,
    4225612471,
    4882187347,
    5816133753,
    4225612449
  ],
  "tags": {
    "addr:city": "Grodzisko",
    "description": "stara osada młynarska - młyn i tartak",
    "email": "osada@boroniowka.pl",
    "fee": "yes",
    "landuse": "farmyard",
    "name": "Boroniówka",
    "opening_hours": "Sa,Su 10:00-17:00",
    "phone": "+48 12 3801109",
    "tourism": "museum",
    "website": "http://www.boroniowka.pl",
    "wheelchair": "limited"
  }
},
{
  "type": "way",
  "id": 638347163,
  "nodes": [
    6016404631,
    6016408620,
    4630471332,
    4630471331,
    4630471330,
    4630471329,
    4630471328,
    4546111145,
    4546111163,
    4546111164,
    6016404632,
    6016404633,
    6016404634,
    6016404631
  ],
  "tags": {
    "addr:city": "Kraków",
    "addr:housenumber": "26a",
    "addr:street": "Osiedle 2. Pułku Lotniczego",
    "name": "Hangar Czyżyny",
    "tourism": "museum"
  }
},
{
  "type": "way",
  "id": 638349014,
  "nodes": [
    2978715421,
    2978720917,
    2978720905,
    6016422954,
    6016422955,
    2978721047,
    2979062646,
    1649730843,
    1649730701,
    2979079781,
    2979062497,
    2979055698,
    2979057560,
    2978720810,
    6649526774,
    2978721150,
    2979079854,
    2979078698,
    2978721452,
    2144930431,
    470205533,
    2978715421
  ],
  "tags": {
    "addr:city": "Kraków",
    "addr:housenumber": "15",
    "addr:street": "Świętego Wawrzyńca",
    "name": "Muzeum Inżynierii Miejskiej",
    "tourism": "museum"
  }
},
{
  "type": "way",
  "id": 764582801,
  "nodes": [
    7142815527,
    7142815528,
    7142815529,
    7142815530,
    7142815531,
    7142815532,
    7142815533,
    7142815534,
    7142815535,
    7142815536,
    7142815527
  ],
  "tags": {
    "building": "yes",
    "museum": "history",
    "name": "Osada Podegrodzie",
    "tourism": "museum"
  }
},
{
  "type": "relation",
  "id": 1765210,
  "members": [
    {
      "type": "way",
      "ref": 131342427,
      "role": "outer"
    },
    {
      "type": "way",
      "ref": 341533598,
      "role": "inner"
    }
  ],
  "tags": {
    "addr:city": "Kraków",
    "addr:country": "PL",
    "addr:district": "Stare Miasto",
    "addr:housenumber": "12",
    "addr:postcode": "31-141",
    "addr:street": "Wita Stwosza",
    "addr:subdistrict": "Warszawskie",
    "building": "yes",
    "description:hu": "II. világháborús ellenállási múzeum",
    "name": "Muzeum Armii Krajowej",
    "name:hu": "Lengyel Honi Hadsereg Múzeuma",
    "official_name": "Muzeum Armii Krajowej im. Gen. Emila Fieldorfa \"Nila\"",
    "opening_hours": "Tu-Su 11:00-18:00",
    "phone": "+48 12 4100770",
    "tourism": "museum",
    "type": "multipolygon",
    "website": "http://www.muzeum-ak.pl/"
  }
},
{
  "type": "relation",
  "id": 1863002,
  "members": [
    {
      "type": "way",
      "ref": 138355832,
      "role": "outer"
    },
    {
      "type": "way",
      "ref": 138355838,
      "role": "inner"
    },
    {
      "type": "way",
      "ref": 138355813,
      "role": "inner"
    }
  ],
  "tags": {
    "building": "yes",
    "building:levels": "4",
    "fee": "yes",
    "fee:conditional": "no @ Sunday",
    "fee:conditional:note": "Zdarzają się wystawy w salach wynajmowane od muzeum, nie organizowane przez muzeum które nie są objęte darmowym wstępem",
    "name": "Muzeum Archeologiczne",
    "name:de": "Archäologisches Museum",
    "name:en": "Archeological Museum",
    "name:es": "Museo Arqueológico",
    "name:hu": "Régészeti Múzeum",
    "name:pl": "Muzeum Archeologiczne",
    "opening_hours": "Mo-Su 10:00-16:00",
    "tourism": "museum",
    "type": "multipolygon",
    "visiting_time": "1h",
    "website": "http://www.ma.krakow.pl/",
    "wheelchair": "no",
    "wikidata": "Q3329434",
    "wikipedia": "pl:Muzeum Archeologiczne w Krakowie"
  }
},
{
  "type": "relation",
  "id": 3953614,
  "members": [
    {
      "type": "way",
      "ref": 297220653,
      "role": "outer"
    },
    {
      "type": "way",
      "ref": 138025107,
      "role": "inner"
    }
  ],
  "tags": {
    "building": "yes",
    "building:material": "brick",
    "castle_type": "fortress",
    "height": "10",
    "heritage": "2",
    "heritage:operator": "nid",
    "historic": "castle",
    "name": "Barbakan",
    "name:de": "Barbican",
    "name:en": "Barbican",
    "name:es": "Barbacana",
    "name:hu": "Barbakán",
    "name:pl": "Barbakan",
    "opening_hours": "Mo-Su 10:30-18:00",
    "ref:nid": "A-8",
    "tourism": "museum",
    "type": "multipolygon",
    "wheelchair": "limited",
    "wikidata": "Q807309",
    "wikipedia": "pl:Barbakan w Krakowie"
  }
},
{
  "type": "relation",
  "id": 5245185,
  "members": [
    {
      "type": "way",
      "ref": 148464900,
      "role": ""
    },
    {
      "type": "way",
      "ref": 351463408,
      "role": ""
    },
    {
      "type": "way",
      "ref": 241271391,
      "role": ""
    },
    {
      "type": "relation",
      "ref": 2119457,
      "role": ""
    }
  ],
  "tags": {
    "building": "public",
    "name": "Muzea Szlak Solny",
    "route": "hiking",
    "tourism": "museum",
    "type": "route"
  }
},
{
  "type": "relation",
  "id": 10692372,
  "members": [
    {
      "type": "way",
      "ref": 307773166,
      "role": ""
    },
    {
      "type": "way",
      "ref": 155555106,
      "role": ""
    },
    {
      "type": "way",
      "ref": 101318622,
      "role": ""
    },
    {
      "type": "way",
      "ref": 101318649,
      "role": ""
    },
    {
      "type": "way",
      "ref": 60681466,
      "role": ""
    },
    {
      "type": "way",
      "ref": 60681305,
      "role": ""
    },
    {
      "type": "way",
      "ref": 60681344,
      "role": ""
    },
    {
      "type": "way",
      "ref": 157019237,
      "role": ""
    },
    {
      "type": "way",
      "ref": 101318630,
      "role": ""
    },
    {
      "type": "way",
      "ref": 101318631,
      "role": ""
    },
    {
      "type": "way",
      "ref": 770851415,
      "role": ""
    },
    {
      "type": "way",
      "ref": 286909392,
      "role": ""
    },
    {
      "type": "way",
      "ref": 286909389,
      "role": ""
    },
    {
      "type": "node",
      "ref": 3129698493,
      "role": ""
    },
    {
      "type": "node",
      "ref": 3129551719,
      "role": ""
    },
    {
      "type": "node",
      "ref": 5819273747,
      "role": ""
    },
    {
      "type": "node",
      "ref": 5819276657,
      "role": ""
    },
    {
      "type": "node",
      "ref": 5819276653,
      "role": ""
    },
    {
      "type": "node",
      "ref": 5819273737,
      "role": ""
    },
    {
      "type": "node",
      "ref": 5819273736,
      "role": ""
    },
    {
      "type": "node",
      "ref": 5819273748,
      "role": ""
    },
    {
      "type": "node",
      "ref": 5819273740,
      "role": ""
    },
    {
      "type": "node",
      "ref": 5819273750,
      "role": ""
    },
    {
      "type": "node",
      "ref": 4277506756,
      "role": ""
    },
    {
      "type": "node",
      "ref": 4277506749,
      "role": ""
    },
    {
      "type": "way",
      "ref": 356923393,
      "role": ""
    },
    {
      "type": "node",
      "ref": 3129649001,
      "role": ""
    },
    {
      "type": "node",
      "ref": 5819276668,
      "role": ""
    },
    {
      "type": "node",
      "ref": 5819273735,
      "role": ""
    },
    {
      "type": "node",
      "ref": 3129649011,
      "role": ""
    },
    {
      "type": "node",
      "ref": 3129649017,
      "role": ""
    },
    {
      "type": "node",
      "ref": 3129649015,
      "role": ""
    },
    {
      "type": "node",
      "ref": 5819273738,
      "role": ""
    },
    {
      "type": "node",
      "ref": 3129649018,
      "role": ""
    },
    {
      "type": "node",
      "ref": 5819276654,
      "role": ""
    },
    {
      "type": "node",
      "ref": 5819276656,
      "role": ""
    },
    {
      "type": "node",
      "ref": 5819276662,
      "role": ""
    },
    {
      "type": "node",
      "ref": 3129649022,
      "role": ""
    },
    {
      "type": "node",
      "ref": 5819276660,
      "role": ""
    },
    {
      "type": "node",
      "ref": 5819276663,
      "role": ""
    },
    {
      "type": "node",
      "ref": 3129649028,
      "role": ""
    },
    {
      "type": "node",
      "ref": 5819276669,
      "role": ""
    },
    {
      "type": "node",
      "ref": 5819273739,
      "role": ""
    },
    {
      "type": "node",
      "ref": 3129649021,
      "role": ""
    },
    {
      "type": "node",
      "ref": 5819273745,
      "role": ""
    },
    {
      "type": "node",
      "ref": 3129649026,
      "role": ""
    },
    {
      "type": "node",
      "ref": 3129649135,
      "role": ""
    },
    {
      "type": "node",
      "ref": 3129649137,
      "role": ""
    },
    {
      "type": "node",
      "ref": 3129649130,
      "role": ""
    },
    {
      "type": "node",
      "ref": 5819273751,
      "role": ""
    },
    {
      "type": "node",
      "ref": 3129649140,
      "role": ""
    },
    {
      "type": "node",
      "ref": 3129649144,
      "role": ""
    },
    {
      "type": "node",
      "ref": 3129649141,
      "role": ""
    },
    {
      "type": "node",
      "ref": 3129649143,
      "role": ""
    },
    {
      "type": "node",
      "ref": 3129649131,
      "role": ""
    },
    {
      "type": "node",
      "ref": 5819276661,
      "role": ""
    },
    {
      "type": "node",
      "ref": 3129649134,
      "role": ""
    },
    {
      "type": "node",
      "ref": 3129649136,
      "role": ""
    },
    {
      "type": "node",
      "ref": 5819276665,
      "role": ""
    },
    {
      "type": "node",
      "ref": 3129649023,
      "role": ""
    },
    {
      "type": "node",
      "ref": 3129649129,
      "role": ""
    },
    {
      "type": "node",
      "ref": 3129649024,
      "role": ""
    },
    {
      "type": "node",
      "ref": 3129649133,
      "role": ""
    },
    {
      "type": "node",
      "ref": 5819276667,
      "role": ""
    },
    {
      "type": "node",
      "ref": 3129649020,
      "role": ""
    },
    {
      "type": "node",
      "ref": 5819276671,
      "role": ""
    },
    {
      "type": "node",
      "ref": 3623317597,
      "role": ""
    },
    {
      "type": "node",
      "ref": 3129649014,
      "role": ""
    },
    {
      "type": "node",
      "ref": 5819276655,
      "role": ""
    },
    {
      "type": "node",
      "ref": 3623241170,
      "role": ""
    },
    {
      "type": "node",
      "ref": 3623241169,
      "role": ""
    },
    {
      "type": "node",
      "ref": 3129649016,
      "role": ""
    },
    {
      "type": "node",
      "ref": 3138384505,
      "role": ""
    },
    {
      "type": "node",
      "ref": 3129649002,
      "role": ""
    },
    {
      "type": "node",
      "ref": 3138384504,
      "role": ""
    },
    {
      "type": "node",
      "ref": 3138384507,
      "role": ""
    },
    {
      "type": "node",
      "ref": 5819273752,
      "role": ""
    },
    {
      "type": "node",
      "ref": 3138384506,
      "role": ""
    },
    {
      "type": "node",
      "ref": 3138384508,
      "role": ""
    },
    {
      "type": "node",
      "ref": 3138384509,
      "role": ""
    },
    {
      "type": "node",
      "ref": 3138384511,
      "role": ""
    },
    {
      "type": "node",
      "ref": 3138384513,
      "role": ""
    },
    {
      "type": "node",
      "ref": 3138384512,
      "role": ""
    },
    {
      "type": "node",
      "ref": 3138384510,
      "role": ""
    },
    {
      "type": "node",
      "ref": 3129649149,
      "role": ""
    },
    {
      "type": "node",
      "ref": 3129649147,
      "role": ""
    },
    {
      "type": "node",
      "ref": 3129649132,
      "role": ""
    },
    {
      "type": "node",
      "ref": 3129649142,
      "role": ""
    },
    {
      "type": "node",
      "ref": 3129649148,
      "role": ""
    },
    {
      "type": "node",
      "ref": 3129649025,
      "role": ""
    },
    {
      "type": "node",
      "ref": 3129649158,
      "role": ""
    },
    {
      "type": "node",
      "ref": 3129649146,
      "role": ""
    },
    {
      "type": "node",
      "ref": 3129649153,
      "role": ""
    },
    {
      "type": "node",
      "ref": 3129649139,
      "role": ""
    },
    {
      "type": "node",
      "ref": 3129649145,
      "role": ""
    },
    {
      "type": "node",
      "ref": 5819273743,
      "role": ""
    },
    {
      "type": "node",
      "ref": 5819276672,
      "role": ""
    },
    {
      "type": "node",
      "ref": 3129649167,
      "role": ""
    },
    {
      "type": "node",
      "ref": 3623958957,
      "role": ""
    },
    {
      "type": "node",
      "ref": 3129649164,
      "role": ""
    },
    {
      "type": "node",
      "ref": 3129649162,
      "role": ""
    },
    {
      "type": "node",
      "ref": 3129649166,
      "role": ""
    },
    {
      "type": "node",
      "ref": 3129649161,
      "role": ""
    },
    {
      "type": "node",
      "ref": 3129649156,
      "role": ""
    },
    {
      "type": "node",
      "ref": 3129649159,
      "role": ""
    },
    {
      "type": "node",
      "ref": 3129649154,
      "role": ""
    },
    {
      "type": "node",
      "ref": 3129649152,
      "role": ""
    },
    {
      "type": "node",
      "ref": 3129649177,
      "role": ""
    },
    {
      "type": "node",
      "ref": 3129649181,
      "role": ""
    },
    {
      "type": "node",
      "ref": 3129649176,
      "role": ""
    },
    {
      "type": "node",
      "ref": 3129649179,
      "role": ""
    },
    {
      "type": "node",
      "ref": 3129649180,
      "role": ""
    },
    {
      "type": "node",
      "ref": 3129649178,
      "role": ""
    },
    {
      "type": "node",
      "ref": 3129649171,
      "role": ""
    },
    {
      "type": "node",
      "ref": 3129649172,
      "role": ""
    },
    {
      "type": "node",
      "ref": 3129649170,
      "role": ""
    },
    {
      "type": "node",
      "ref": 3129649173,
      "role": ""
    },
    {
      "type": "node",
      "ref": 3129649168,
      "role": ""
    },
    {
      "type": "node",
      "ref": 3129649157,
      "role": ""
    },
    {
      "type": "node",
      "ref": 3129649187,
      "role": ""
    },
    {
      "type": "node",
      "ref": 3623241182,
      "role": ""
    },
    {
      "type": "node",
      "ref": 3623241181,
      "role": ""
    },
    {
      "type": "node",
      "ref": 3129649185,
      "role": ""
    },
    {
      "type": "node",
      "ref": 3129649186,
      "role": ""
    },
    {
      "type": "node",
      "ref": 3129649188,
      "role": ""
    },
    {
      "type": "node",
      "ref": 3623241179,
      "role": ""
    },
    {
      "type": "node",
      "ref": 3129649184,
      "role": ""
    },
    {
      "type": "node",
      "ref": 3623241177,
      "role": ""
    },
    {
      "type": "node",
      "ref": 5819276670,
      "role": ""
    },
    {
      "type": "node",
      "ref": 3129649174,
      "role": ""
    },
    {
      "type": "node",
      "ref": 3129649163,
      "role": ""
    },
    {
      "type": "node",
      "ref": 3623241174,
      "role": ""
    },
    {
      "type": "node",
      "ref": 3129649155,
      "role": ""
    },
    {
      "type": "node",
      "ref": 3129649151,
      "role": ""
    },
    {
      "type": "node",
      "ref": 5819276664,
      "role": ""
    },
    {
      "type": "way",
      "ref": 307839433,
      "role": ""
    },
    {
      "type": "node",
      "ref": 5819273742,
      "role": ""
    },
    {
      "type": "node",
      "ref": 3129649183,
      "role": ""
    },
    {
      "type": "node",
      "ref": 3623241178,
      "role": ""
    },
    {
      "type": "node",
      "ref": 3129649175,
      "role": ""
    },
    {
      "type": "node",
      "ref": 3129649169,
      "role": ""
    },
    {
      "type": "node",
      "ref": 3129649165,
      "role": ""
    },
    {
      "type": "node",
      "ref": 3129649160,
      "role": ""
    },
    {
      "type": "node",
      "ref": 3129649013,
      "role": ""
    },
    {
      "type": "way",
      "ref": 427486040,
      "role": ""
    },
    {
      "type": "node",
      "ref": 3623958903,
      "role": ""
    },
    {
      "type": "node",
      "ref": 1692479814,
      "role": ""
    },
    {
      "type": "way",
      "ref": 286909395,
      "role": ""
    },
    {
      "type": "node",
      "ref": 2905885405,
      "role": ""
    },
    {
      "type": "node",
      "ref": 3129649012,
      "role": ""
    },
    {
      "type": "node",
      "ref": 3129649010,
      "role": ""
    },
    {
      "type": "node",
      "ref": 3129649009,
      "role": ""
    },
    {
      "type": "node",
      "ref": 3129649008,
      "role": ""
    },
    {
      "type": "node",
      "ref": 3129649005,
      "role": ""
    },
    {
      "type": "node",
      "ref": 2409354635,
      "role": ""
    },
    {
      "type": "node",
      "ref": 4277346784,
      "role": ""
    },
    {
      "type": "node",
      "ref": 5819276666,
      "role": ""
    },
    {
      "type": "node",
      "ref": 5819273741,
      "role": ""
    },
    {
      "type": "node",
      "ref": 3623220495,
      "role": ""
    },
    {
      "type": "way",
      "ref": 357002039,
      "role": ""
    },
    {
      "type": "node",
      "ref": 5819276659,
      "role": ""
    },
    {
      "type": "way",
      "ref": 428663034,
      "role": ""
    },
    {
      "type": "node",
      "ref": 4277508445,
      "role": ""
    },
    {
      "type": "node",
      "ref": 2360485610,
      "role": ""
    },
    {
      "type": "node",
      "ref": 1692479879,
      "role": ""
    },
    {
      "type": "way",
      "ref": 351534282,
      "role": ""
    },
    {
      "type": "node",
      "ref": 4277508435,
      "role": ""
    },
    {
      "type": "way",
      "ref": 356922304,
      "role": ""
    },
    {
      "type": "node",
      "ref": 3129649003,
      "role": ""
    },
    {
      "type": "node",
      "ref": 3623241168,
      "role": ""
    },
    {
      "type": "way",
      "ref": 308575723,
      "role": ""
    },
    {
      "type": "node",
      "ref": 3623241171,
      "role": ""
    },
    {
      "type": "way",
      "ref": 356937487,
      "role": ""
    },
    {
      "type": "node",
      "ref": 2360485372,
      "role": ""
    },
    {
      "type": "node",
      "ref": 2959413255,
      "role": ""
    },
    {
      "type": "node",
      "ref": 1692479816,
      "role": ""
    },
    {
      "type": "way",
      "ref": 157019233,
      "role": ""
    },
    {
      "type": "way",
      "ref": 356922303,
      "role": ""
    },
    {
      "type": "way",
      "ref": 428662787,
      "role": ""
    },
    {
      "type": "way",
      "ref": 428662785,
      "role": ""
    },
    {
      "type": "way",
      "ref": 428662786,
      "role": ""
    }
  ],
  "tags": {
    "name": "Muzeum Lotnictwa Polskiego",
    "name:be": "Музей польскай авіяцыі",
    "name:cs": "Muzeum polského letectví v Krakově",
    "name:de": "Polnisches Luftfahrtmuseum",
    "name:en": "Polish Aviation Museum",
    "name:eo": "Muzeo de la Pola Aviado en Krakovo",
    "name:es": "Museo Polaco de Aviación",
    "name:fi": "Puolan ilmailumuseo",
    "name:fr": "Musée de l'Aviation polonaise",
    "name:hu": "Lengyel Repülési Múzeum",
    "name:it": "Museo dell'aviazione polacca",
    "name:nl": "Pools Luchtvaartmuseum",
    "name:pl": "Muzeum Lotnictwa Polskiego",
    "name:ro": "Muzeul Polonez de Aviație",
    "name:ru": "Музей польской авиации",
    "name:uk": "Музей польської авіації",
    "name:zh": "波兰航空博物馆",
    "tourism": "museum",
    "type": "site"
  }
},
{
  "type": "node",
  "id": 3585916917,
  "lat": 49.8777361,
  "lon": 20.0862022
},
{
  "type": "node",
  "id": 3585916918,
  "lat": 49.8773696,
  "lon": 20.0856791
},
{
  "type": "node",
  "id": 3585916919,
  "lat": 49.8773109,
  "lon": 20.0854753
},
{
  "type": "node",
  "id": 3585916920,
  "lat": 49.8771588,
  "lon": 20.0856496
},
{
  "type": "node",
  "id": 3585916921,
  "lat": 49.8775010,
  "lon": 20.0866957
},
{
  "type": "node",
  "id": 3585916922,
  "lat": 49.8772711,
  "lon": 20.0861995
},
{
  "type": "node",
  "id": 3585916923,
  "lat": 49.8771743,
  "lon": 20.0859098
},
{
  "type": "node",
  "id": 3163806510,
  "lat": 50.0697974,
  "lon": 19.5372381
},
{
  "type": "node",
  "id": 3163815586,
  "lat": 50.0695170,
  "lon": 19.5370912
},
{
  "type": "node",
  "id": 3163815587,
  "lat": 50.0695230,
  "lon": 19.5372639
},
{
  "type": "node",
  "id": 3163815805,
  "lat": 50.0697915,
  "lon": 19.5370683
},
{
  "type": "node",
  "id": 1658020940,
  "lat": 50.1347106,
  "lon": 19.6380829
},
{
  "type": "node",
  "id": 1658020944,
  "lat": 50.1348136,
  "lon": 19.6381691
},
{
  "type": "node",
  "id": 1658020955,
  "lat": 50.1348036,
  "lon": 19.6378126
},
{
  "type": "node",
  "id": 1658020962,
  "lat": 50.1349066,
  "lon": 19.6378988
},
{
  "type": "node",
  "id": 2457167139,
  "lat": 50.1347487,
  "lon": 19.6379721
},
{
  "type": "node",
  "id": 2457223957,
  "lat": 50.1347403,
  "lon": 19.6379966
},
{
  "type": "node",
  "id": 2457223961,
  "lat": 50.1347611,
  "lon": 19.6379361
},
{
  "type": "node",
  "id": 2414350619,
  "lat": 50.0585281,
  "lon": 19.9229209
},
{
  "type": "node",
  "id": 1298812205,
  "lat": 49.9839411,
  "lon": 20.0600580
},
{
  "type": "node",
  "id": 3435179690,
  "lat": 49.9839425,
  "lon": 20.0595125
},
{
  "type": "node",
  "id": 3435180924,
  "lat": 49.9837634,
  "lon": 20.0596973
},
{
  "type": "node",
  "id": 3435180925,
  "lat": 49.9837690,
  "lon": 20.0597888
},
{
  "type": "node",
  "id": 3435180927,
  "lat": 49.9837749,
  "lon": 20.0596991
},
{
  "type": "node",
  "id": 3435180929,
  "lat": 49.9837878,
  "lon": 20.0596812
},
{
  "type": "node",
  "id": 3435180931,
  "lat": 49.9837984,
  "lon": 20.0598346
},
{
  "type": "node",
  "id": 3435180933,
  "lat": 49.9838087,
  "lon": 20.0596841
},
{
  "type": "node",
  "id": 3435180938,
  "lat": 49.9839001,
  "lon": 20.0595061
},
{
  "type": "node",
  "id": 3435189046,
  "lat": 49.9837588,
  "lon": 20.0598265
},
{
  "type": "node",
  "id": 3435189049,
  "lat": 49.9837742,
  "lon": 20.0598071
},
{
  "type": "node",
  "id": 3435189052,
  "lat": 49.9837887,
  "lon": 20.0596642
},
{
  "type": "node",
  "id": 3435189055,
  "lat": 49.9837998,
  "lon": 20.0598103
},
{
  "type": "node",
  "id": 3435189056,
  "lat": 49.9838067,
  "lon": 20.0594926
},
{
  "type": "node",
  "id": 3435189057,
  "lat": 49.9838140,
  "lon": 20.0598367
},
{
  "type": "node",
  "id": 3435192427,
  "lat": 49.9837515,
  "lon": 20.0598099
},
{
  "type": "node",
  "id": 3435192429,
  "lat": 49.9837656,
  "lon": 20.0596607
},
{
  "type": "node",
  "id": 3435192434,
  "lat": 49.9839818,
  "lon": 20.0598281
},
{
  "type": "node",
  "id": 3435192436,
  "lat": 49.9839908,
  "lon": 20.0600736
},
{
  "type": "node",
  "id": 3435192442,
  "lat": 49.9840068,
  "lon": 20.0600649
},
{
  "type": "node",
  "id": 3435192445,
  "lat": 49.9840138,
  "lon": 20.0594485
},
{
  "type": "node",
  "id": 3435192495,
  "lat": 49.9838185,
  "lon": 20.0595165
},
{
  "type": "node",
  "id": 3435192497,
  "lat": 49.9838349,
  "lon": 20.0594961
},
{
  "type": "node",
  "id": 3435192508,
  "lat": 49.9839059,
  "lon": 20.0593285
},
{
  "type": "node",
  "id": 3435192509,
  "lat": 49.9839141,
  "lon": 20.0598308
},
{
  "type": "node",
  "id": 3435192511,
  "lat": 49.9839242,
  "lon": 20.0595099
},
{
  "type": "node",
  "id": 3435192512,
  "lat": 49.9839282,
  "lon": 20.0594363
},
{
  "type": "node",
  "id": 3435192750,
  "lat": 49.9838154,
  "lon": 20.0598129
},
{
  "type": "node",
  "id": 3435192751,
  "lat": 49.9838213,
  "lon": 20.0594712
},
{
  "type": "node",
  "id": 3435192767,
  "lat": 49.9840653,
  "lon": 20.0593422
},
{
  "type": "node",
  "id": 3435192771,
  "lat": 49.9841202,
  "lon": 20.0596062
},
{
  "type": "node",
  "id": 3435193597,
  "lat": 49.9841039,
  "lon": 20.0598077
},
{
  "type": "node",
  "id": 3435193598,
  "lat": 49.9841196,
  "lon": 20.0597120
},
{
  "type": "node",
  "id": 3435193599,
  "lat": 49.9841207,
  "lon": 20.0596871
},
{
  "type": "node",
  "id": 4319513775,
  "lat": 49.9839262,
  "lon": 20.0594733
},
{
  "type": "node",
  "id": 4319513776,
  "lat": 49.9839013,
  "lon": 20.0594679
},
{
  "type": "node",
  "id": 4319513786,
  "lat": 49.9839168,
  "lon": 20.0593294
},
{
  "type": "node",
  "id": 3071745586,
  "lat": 50.0506410,
  "lon": 19.9314717
},
{
  "type": "node",
  "id": 3071745587,
  "lat": 50.0506953,
  "lon": 19.9314518
},
{
  "type": "node",
  "id": 3071745588,
  "lat": 50.0507491,
  "lon": 19.9314513
},
{
  "type": "node",
  "id": 3071745589,
  "lat": 50.0508600,
  "lon": 19.9314984
},
{
  "type": "node",
  "id": 3071745590,
  "lat": 50.0509135,
  "lon": 19.9315279
},
{
  "type": "node",
  "id": 3071745591,
  "lat": 50.0509758,
  "lon": 19.9318650
},
{
  "type": "node",
  "id": 3071745592,
  "lat": 50.0510332,
  "lon": 19.9315080
},
{
  "type": "node",
  "id": 3071746349,
  "lat": 50.0504807,
  "lon": 19.9315733
},
{
  "type": "node",
  "id": 3071746350,
  "lat": 50.0506599,
  "lon": 19.9314624
},
{
  "type": "node",
  "id": 3071746351,
  "lat": 50.0507130,
  "lon": 19.9314496
},
{
  "type": "node",
  "id": 3071746352,
  "lat": 50.0507668,
  "lon": 19.9314549
},
{
  "type": "node",
  "id": 3071746353,
  "lat": 50.0508667,
  "lon": 19.9315234
},
{
  "type": "node",
  "id": 3071746354,
  "lat": 50.0509636,
  "lon": 19.9315275
},
{
  "type": "node",
  "id": 3071746355,
  "lat": 50.0509866,
  "lon": 19.9319034
},
{
  "type": "node",
  "id": 3071746356,
  "lat": 50.0511884,
  "lon": 19.9314127
},
{
  "type": "node",
  "id": 3071746357,
  "lat": 50.0512689,
  "lon": 19.9317316
},
{
  "type": "node",
  "id": 3071747067,
  "lat": 50.0505250,
  "lon": 19.9316862
},
{
  "type": "node",
  "id": 3071747068,
  "lat": 50.0506775,
  "lon": 19.9314561
},
{
  "type": "node",
  "id": 3071747069,
  "lat": 50.0507309,
  "lon": 19.9314493
},
{
  "type": "node",
  "id": 3071747070,
  "lat": 50.0507779,
  "lon": 19.9314586
},
{
  "type": "node",
  "id": 3071747071,
  "lat": 50.0509057,
  "lon": 19.9314994
},
{
  "type": "node",
  "id": 3071747073,
  "lat": 50.0509972,
  "lon": 19.9315202
},
{
  "type": "node",
  "id": 3074942105,
  "lat": 50.0505277,
  "lon": 19.9316873
},
{
  "type": "node",
  "id": 1574123934,
  "lat": 50.0588505,
  "lon": 19.9247973
},
{
  "type": "node",
  "id": 2414350315,
  "lat": 50.0581132,
  "lon": 19.9232546
},
{
  "type": "node",
  "id": 2414350323,
  "lat": 50.0581281,
  "lon": 19.9233560
},
{
  "type": "node",
  "id": 2414350354,
  "lat": 50.0581618,
  "lon": 19.9231627
},
{
  "type": "node",
  "id": 2414350361,
  "lat": 50.0581725,
  "lon": 19.9232347
},
{
  "type": "node",
  "id": 2414350381,
  "lat": 50.0582032,
  "lon": 19.9238697
},
{
  "type": "node",
  "id": 2414350416,
  "lat": 50.0583653,
  "lon": 19.9238142
},
{
  "type": "node",
  "id": 2414350419,
  "lat": 50.0583685,
  "lon": 19.9238390
},
{
  "type": "node",
  "id": 2414350426,
  "lat": 50.0583811,
  "lon": 19.9238088
},
{
  "type": "node",
  "id": 2414350430,
  "lat": 50.0583848,
  "lon": 19.9238343
},
{
  "type": "node",
  "id": 2414350440,
  "lat": 50.0584004,
  "lon": 19.9229661
},
{
  "type": "node",
  "id": 2414350445,
  "lat": 50.0584091,
  "lon": 19.9230340
},
{
  "type": "node",
  "id": 2414350605,
  "lat": 50.0585085,
  "lon": 19.9237654
},
{
  "type": "node",
  "id": 2414350626,
  "lat": 50.0585402,
  "lon": 19.9230139
},
{
  "type": "node",
  "id": 2414350670,
  "lat": 50.0586036,
  "lon": 19.9229860
},
{
  "type": "node",
  "id": 2414350716,
  "lat": 50.0586899,
  "lon": 19.9236950
},
{
  "type": "node",
  "id": 2414350719,
  "lat": 50.0586837,
  "lon": 19.9249869
},
{
  "type": "node",
  "id": 2414350721,
  "lat": 50.0587076,
  "lon": 19.9236905
},
{
  "type": "node",
  "id": 2414350723,
  "lat": 50.0588195,
  "lon": 19.9248620
},
{
  "type": "node",
  "id": 2414350736,
  "lat": 50.0588307,
  "lon": 19.9249346
},
{
  "type": "node",
  "id": 2414350738,
  "lat": 50.0588583,
  "lon": 19.9248507
},
{
  "type": "node",
  "id": 6500997624,
  "lat": 50.0581934,
  "lon": 19.9238027
},
{
  "type": "node",
  "id": 2998637681,
  "lat": 50.0577274,
  "lon": 19.9357953
},
{
  "type": "node",
  "id": 2998640028,
  "lat": 50.0573955,
  "lon": 19.9358503
},
{
  "type": "node",
  "id": 2998640030,
  "lat": 50.0573966,
  "lon": 19.9358550
},
{
  "type": "node",
  "id": 2998640172,
  "lat": 50.0575998,
  "lon": 19.9360350
},
{
  "type": "node",
  "id": 2998640186,
  "lat": 50.0577593,
  "lon": 19.9358369
},
{
  "type": "node",
  "id": 2998640189,
  "lat": 50.0577662,
  "lon": 19.9359146
},
{
  "type": "node",
  "id": 2998640190,
  "lat": 50.0578562,
  "lon": 19.9358965
},
{
  "type": "node",
  "id": 2998640191,
  "lat": 50.0578837,
  "lon": 19.9359185
},
{
  "type": "node",
  "id": 2998640192,
  "lat": 50.0578896,
  "lon": 19.9360065
},
{
  "type": "node",
  "id": 2998640193,
  "lat": 50.0578925,
  "lon": 19.9360062
},
{
  "type": "node",
  "id": 2998640370,
  "lat": 50.0573652,
  "lon": 19.9358552
},
{
  "type": "node",
  "id": 2998640371,
  "lat": 50.0573693,
  "lon": 19.9359040
},
{
  "type": "node",
  "id": 2998640373,
  "lat": 50.0573719,
  "lon": 19.9359047
},
{
  "type": "node",
  "id": 2998640962,
  "lat": 50.0576740,
  "lon": 19.9360227
},
{
  "type": "node",
  "id": 2998640963,
  "lat": 50.0576742,
  "lon": 19.9360252
},
{
  "type": "node",
  "id": 2998640966,
  "lat": 50.0576778,
  "lon": 19.9360223
},
{
  "type": "node",
  "id": 2998640967,
  "lat": 50.0576779,
  "lon": 19.9360245
},
{
  "type": "node",
  "id": 2998640971,
  "lat": 50.0576856,
  "lon": 19.9360210
},
{
  "type": "node",
  "id": 2998640972,
  "lat": 50.0577271,
  "lon": 19.9357999
},
{
  "type": "node",
  "id": 2998640975,
  "lat": 50.0577584,
  "lon": 19.9357875
},
{
  "type": "node",
  "id": 2998640976,
  "lat": 50.0577626,
  "lon": 19.9358363
},
{
  "type": "node",
  "id": 2998641054,
  "lat": 50.0578568,
  "lon": 19.9358993
},
{
  "type": "node",
  "id": 2998641057,
  "lat": 50.0578847,
  "lon": 19.9358919
},
{
  "type": "node",
  "id": 2998641058,
  "lat": 50.0578867,
  "lon": 19.9359181
},
{
  "type": "node",
  "id": 2998641061,
  "lat": 50.0578914,
  "lon": 19.9360330
},
{
  "type": "node",
  "id": 2998641064,
  "lat": 50.0578943,
  "lon": 19.9360326
},
{
  "type": "node",
  "id": 3086298995,
  "lat": 50.0576744,
  "lon": 19.9358087
},
{
  "type": "node",
  "id": 3086298996,
  "lat": 50.0576792,
  "lon": 19.9358079
},
{
  "type": "node",
  "id": 3086300544,
  "lat": 50.0578487,
  "lon": 19.9359007
},
{
  "type": "node",
  "id": 4146767269,
  "lat": 50.0592522,
  "lon": 19.9297924
},
{
  "type": "node",
  "id": 4146767271,
  "lat": 50.0592632,
  "lon": 19.9298658
},
{
  "type": "node",
  "id": 4146767272,
  "lat": 50.0592660,
  "lon": 19.9298645
},
{
  "type": "node",
  "id": 4146767276,
  "lat": 50.0592734,
  "lon": 19.9299340
},
{
  "type": "node",
  "id": 4146767528,
  "lat": 50.0593984,
  "lon": 19.9297311
},
{
  "type": "node",
  "id": 4146767534,
  "lat": 50.0594283,
  "lon": 19.9298982
},
{
  "type": "node",
  "id": 4146802833,
  "lat": 50.0596833,
  "lon": 19.9305934
},
{
  "type": "node",
  "id": 4146820325,
  "lat": 50.0596653,
  "lon": 19.9299602
},
{
  "type": "node",
  "id": 470205533,
  "lat": 50.0498201,
  "lon": 19.9470909
},
{
  "type": "node",
  "id": 1649730701,
  "lat": 50.0491303,
  "lon": 19.9466415
},
{
  "type": "node",
  "id": 1649730843,
  "lat": 50.0494146,
  "lon": 19.9464654
},
{
  "type": "node",
  "id": 2144930431,
  "lat": 50.0499791,
  "lon": 19.9478021
},
{
  "type": "node",
  "id": 2978715421,
  "lat": 50.0497235,
  "lon": 19.9466241
},
{
  "type": "node",
  "id": 2978720810,
  "lat": 50.0492493,
  "lon": 19.9481788
},
{
  "type": "node",
  "id": 2978720905,
  "lat": 50.0495928,
  "lon": 19.9465200
},
{
  "type": "node",
  "id": 2978720917,
  "lat": 50.0496270,
  "lon": 19.9466772
},
{
  "type": "node",
  "id": 2978721047,
  "lat": 50.0494960,
  "lon": 19.9464634
},
{
  "type": "node",
  "id": 2978721150,
  "lat": 50.0495875,
  "lon": 19.9480347
},
{
  "type": "node",
  "id": 2978721452,
  "lat": 50.0497826,
  "lon": 19.9478990
},
{
  "type": "node",
  "id": 2979055698,
  "lat": 50.0491232,
  "lon": 19.9471824
},
{
  "type": "node",
  "id": 2979057560,
  "lat": 50.0491421,
  "lon": 19.9473427
},
{
  "type": "node",
  "id": 2979062497,
  "lat": 50.0490773,
  "lon": 19.9468727
},
{
  "type": "node",
  "id": 2979062646,
  "lat": 50.0494864,
  "lon": 19.9464191
},
{
  "type": "node",
  "id": 2979078698,
  "lat": 50.0496416,
  "lon": 19.9479868
},
{
  "type": "node",
  "id": 2979079781,
  "lat": 50.0490466,
  "lon": 19.9466951
},
{
  "type": "node",
  "id": 2979079854,
  "lat": 50.0495894,
  "lon": 19.9480193
},
{
  "type": "node",
  "id": 6016422954,
  "lat": 50.0495689,
  "lon": 19.9465164
},
{
  "type": "node",
  "id": 6016422955,
  "lat": 50.0495167,
  "lon": 19.9465551
},
{
  "type": "node",
  "id": 6649526774,
  "lat": 50.0494005,
  "lon": 19.9481347
},
{
  "type": "node",
  "id": 1516929437,
  "lat": 50.0577217,
  "lon": 19.9365293
},
{
  "type": "node",
  "id": 1516929440,
  "lat": 50.0572428,
  "lon": 19.9367199
},
{
  "type": "node",
  "id": 1516929485,
  "lat": 50.0577781,
  "lon": 19.9362086
},
{
  "type": "node",
  "id": 1516929660,
  "lat": 50.0578560,
  "lon": 19.9361952
},
{
  "type": "node",
  "id": 1516929666,
  "lat": 50.0576900,
  "lon": 19.9365346
},
{
  "type": "node",
  "id": 1516929684,
  "lat": 50.0577682,
  "lon": 19.9360689
},
{
  "type": "node",
  "id": 1516929718,
  "lat": 50.0578463,
  "lon": 19.9360558
},
{
  "type": "node",
  "id": 1516929727,
  "lat": 50.0577140,
  "lon": 19.9364197
},
{
  "type": "node",
  "id": 1516929733,
  "lat": 50.0573009,
  "lon": 19.9367042
},
{
  "type": "node",
  "id": 1516929770,
  "lat": 50.0576825,
  "lon": 19.9364248
},
{
  "type": "node",
  "id": 2998637662,
  "lat": 50.0572136,
  "lon": 19.9365168
},
{
  "type": "node",
  "id": 2998637664,
  "lat": 50.0572789,
  "lon": 19.9364726
},
{
  "type": "node",
  "id": 2998637676,
  "lat": 50.0575906,
  "lon": 19.9365492
},
{
  "type": "node",
  "id": 2998637683,
  "lat": 50.0577377,
  "lon": 19.9366806
},
{
  "type": "node",
  "id": 2998640011,
  "lat": 50.0571733,
  "lon": 19.9362864
},
{
  "type": "node",
  "id": 2998640012,
  "lat": 50.0571777,
  "lon": 19.9363247
},
{
  "type": "node",
  "id": 2998640013,
  "lat": 50.0571808,
  "lon": 19.9363239
},
{
  "type": "node",
  "id": 2998640032,
  "lat": 50.0574030,
  "lon": 19.9362441
},
{
  "type": "node",
  "id": 2998640163,
  "lat": 50.0571919,
  "lon": 19.9362820
},
{
  "type": "node",
  "id": 2998640164,
  "lat": 50.0572342,
  "lon": 19.9367220
},
{
  "type": "node",
  "id": 2998640168,
  "lat": 50.0575249,
  "lon": 19.9366394
},
{
  "type": "node",
  "id": 2998640178,
  "lat": 50.0576100,
  "lon": 19.9366999
},
{
  "type": "node",
  "id": 2998640180,
  "lat": 50.0576100,
  "lon": 19.9367022
},
{
  "type": "node",
  "id": 2998640188,
  "lat": 50.0577658,
  "lon": 19.9366729
},
{
  "type": "node",
  "id": 2998640194,
  "lat": 50.0578997,
  "lon": 19.9366481
},
{
  "type": "node",
  "id": 2998640195,
  "lat": 50.0579284,
  "lon": 19.9366434
},
{
  "type": "node",
  "id": 2998640196,
  "lat": 50.0579334,
  "lon": 19.9366307
},
{
  "type": "node",
  "id": 2998640197,
  "lat": 50.0579382,
  "lon": 19.9366450
},
{
  "type": "node",
  "id": 2998640352,
  "lat": 50.0571924,
  "lon": 19.9362885
},
{
  "type": "node",
  "id": 2998640354,
  "lat": 50.0571942,
  "lon": 19.9364408
},
{
  "type": "node",
  "id": 2998640355,
  "lat": 50.0571959,
  "lon": 19.9364404
},
{
  "type": "node",
  "id": 2998640357,
  "lat": 50.0571976,
  "lon": 19.9364713
},
{
  "type": "node",
  "id": 2998640358,
  "lat": 50.0572003,
  "lon": 19.9365198
},
{
  "type": "node",
  "id": 2998640360,
  "lat": 50.0572750,
  "lon": 19.9364941
},
{
  "type": "node",
  "id": 2998640363,
  "lat": 50.0572828,
  "lon": 19.9364514
},
{
  "type": "node",
  "id": 2998640365,
  "lat": 50.0573377,
  "lon": 19.9364385
},
{
  "type": "node",
  "id": 2998640377,
  "lat": 50.0574683,
  "lon": 19.9364130
},
{
  "type": "node",
  "id": 2998640378,
  "lat": 50.0574804,
  "lon": 19.9364105
},
{
  "type": "node",
  "id": 2998640379,
  "lat": 50.0574898,
  "lon": 19.9360521
},
{
  "type": "node",
  "id": 2998640382,
  "lat": 50.0575091,
  "lon": 19.9364059
},
{
  "type": "node",
  "id": 2998640385,
  "lat": 50.0575332,
  "lon": 19.9367140
},
{
  "type": "node",
  "id": 2998640389,
  "lat": 50.0575640,
  "lon": 19.9367112
},
{
  "type": "node",
  "id": 2998640391,
  "lat": 50.0575761,
  "lon": 19.9363244
},
{
  "type": "node",
  "id": 2998640396,
  "lat": 50.0576654,
  "lon": 19.9360661
},
{
  "type": "node",
  "id": 2998640404,
  "lat": 50.0576883,
  "lon": 19.9360623
},
{
  "type": "node",
  "id": 2998640406,
  "lat": 50.0577292,
  "lon": 19.9366822
},
{
  "type": "node",
  "id": 2998640844,
  "lat": 50.0573000,
  "lon": 19.9366959
},
{
  "type": "node",
  "id": 2998640850,
  "lat": 50.0574685,
  "lon": 19.9364148
},
{
  "type": "node",
  "id": 2998640853,
  "lat": 50.0574804,
  "lon": 19.9364123
},
{
  "type": "node",
  "id": 2998640945,
  "lat": 50.0575089,
  "lon": 19.9364045
},
{
  "type": "node",
  "id": 2998640951,
  "lat": 50.0575159,
  "lon": 19.9363837
},
{
  "type": "node",
  "id": 2998640953,
  "lat": 50.0575188,
  "lon": 19.9363832
},
{
  "type": "node",
  "id": 2998640955,
  "lat": 50.0575204,
  "lon": 19.9364042
},
{
  "type": "node",
  "id": 2998640964,
  "lat": 50.0576763,
  "lon": 19.9360607
},
{
  "type": "node",
  "id": 2998640965,
  "lat": 50.0576766,
  "lon": 19.9360642
},
{
  "type": "node",
  "id": 2998640968,
  "lat": 50.0576801,
  "lon": 19.9360601
},
{
  "type": "node",
  "id": 2998640969,
  "lat": 50.0576803,
  "lon": 19.9360636
},
{
  "type": "node",
  "id": 2998640970,
  "lat": 50.0576838,
  "lon": 19.9363016
},
{
  "type": "node",
  "id": 2998640973,
  "lat": 50.0577290,
  "lon": 19.9366797
},
{
  "type": "node",
  "id": 2998640974,
  "lat": 50.0577375,
  "lon": 19.9366783
},
{
  "type": "node",
  "id": 2998640979,
  "lat": 50.0577661,
  "lon": 19.9366757
},
{
  "type": "node",
  "id": 2998640984,
  "lat": 50.0578999,
  "lon": 19.9366509
},
{
  "type": "node",
  "id": 2998641045,
  "lat": 50.0575694,
  "lon": 19.9365540
},
{
  "type": "node",
  "id": 2998641048,
  "lat": 50.0575836,
  "lon": 19.9367073
},
{
  "type": "node",
  "id": 2998641657,
  "lat": 50.0579287,
  "lon": 19.9366464
},
{
  "type": "node",
  "id": 2998641660,
  "lat": 50.0579369,
  "lon": 19.9366298
},
{
  "type": "node",
  "id": 3086297215,
  "lat": 50.0575196,
  "lon": 19.9365636
},
{
  "type": "node",
  "id": 3086299096,
  "lat": 50.0571738,
  "lon": 19.9362906
},
{
  "type": "node",
  "id": 3086299101,
  "lat": 50.0571992,
  "lon": 19.9365003
},
{
  "type": "node",
  "id": 3086299102,
  "lat": 50.0572000,
  "lon": 19.9365150
},
{
  "type": "node",
  "id": 1499189330,
  "lat": 50.0475405,
  "lon": 19.9611298
},
{
  "type": "node",
  "id": 1499189335,
  "lat": 50.0474216,
  "lon": 19.9617403
},
{
  "type": "node",
  "id": 1499189344,
  "lat": 50.0474420,
  "lon": 19.9622643
},
{
  "type": "node",
  "id": 1499189360,
  "lat": 50.0475025,
  "lon": 19.9615305
},
{
  "type": "node",
  "id": 1499189366,
  "lat": 50.0475251,
  "lon": 19.9615336
},
{
  "type": "node",
  "id": 1499189375,
  "lat": 50.0475027,
  "lon": 19.9617191
},
{
  "type": "node",
  "id": 1499189378,
  "lat": 50.0473524,
  "lon": 19.9611886
},
{
  "type": "node",
  "id": 1658892271,
  "lat": 50.0473133,
  "lon": 19.9608643
},
{
  "type": "node",
  "id": 1658892278,
  "lat": 50.0473742,
  "lon": 19.9604605
},
{
  "type": "node",
  "id": 1658892284,
  "lat": 50.0473677,
  "lon": 19.9607500
},
{
  "type": "node",
  "id": 1658892288,
  "lat": 50.0474113,
  "lon": 19.9604734
},
{
  "type": "node",
  "id": 1658892294,
  "lat": 50.0475283,
  "lon": 19.9608041
},
{
  "type": "node",
  "id": 1658892299,
  "lat": 50.0474677,
  "lon": 19.9622652
},
{
  "type": "node",
  "id": 1658892310,
  "lat": 50.0475128,
  "lon": 19.9619287
},
{
  "type": "node",
  "id": 1658892313,
  "lat": 50.0475835,
  "lon": 19.9615580
},
{
  "type": "node",
  "id": 1658892315,
  "lat": 50.0476026,
  "lon": 19.9617716
},
{
  "type": "node",
  "id": 1658892324,
  "lat": 50.0476325,
  "lon": 19.9615794
},
{
  "type": "node",
  "id": 1658892329,
  "lat": 50.0476670,
  "lon": 19.9609881
},
{
  "type": "node",
  "id": 1658892542,
  "lat": 50.0480868,
  "lon": 19.9616191
},
{
  "type": "node",
  "id": 1658892552,
  "lat": 50.0481047,
  "lon": 19.9614952
},
{
  "type": "node",
  "id": 1658892575,
  "lat": 50.0481293,
  "lon": 19.9611467
},
{
  "type": "node",
  "id": 1658892577,
  "lat": 50.0481269,
  "lon": 19.9615052
},
{
  "type": "node",
  "id": 1658892595,
  "lat": 50.0481299,
  "lon": 19.9609582
},
{
  "type": "node",
  "id": 1658892597,
  "lat": 50.0481416,
  "lon": 19.9612436
},
{
  "type": "node",
  "id": 1658892602,
  "lat": 50.0481555,
  "lon": 19.9611551
},
{
  "type": "node",
  "id": 1658892603,
  "lat": 50.0481455,
  "lon": 19.9619638
},
{
  "type": "node",
  "id": 1658892604,
  "lat": 50.0481644,
  "lon": 19.9612538
},
{
  "type": "node",
  "id": 1658892625,
  "lat": 50.0482451,
  "lon": 19.9616764
},
{
  "type": "node",
  "id": 6514751638,
  "lat": 50.0475227,
  "lon": 19.9617119
},
{
  "type": "node",
  "id": 6514751646,
  "lat": 50.0482299,
  "lon": 19.9617624
},
{
  "type": "node",
  "id": 6514751647,
  "lat": 50.0481808,
  "lon": 19.9617493
},
{
  "type": "node",
  "id": 6514751648,
  "lat": 50.0481414,
  "lon": 19.9610708
},
{
  "type": "node",
  "id": 6514751649,
  "lat": 50.0481136,
  "lon": 19.9610586
},
{
  "type": "node",
  "id": 6514751650,
  "lat": 50.0475362,
  "lon": 19.9607481
},
{
  "type": "node",
  "id": 6680055026,
  "lat": 50.0482382,
  "lon": 19.9617155
},
{
  "type": "node",
  "id": 1499189374,
  "lat": 50.0475253,
  "lon": 19.9622740
},
{
  "type": "node",
  "id": 471984939,
  "lat": 50.0633709,
  "lon": 19.9282412
},
{
  "type": "node",
  "id": 1391259505,
  "lat": 50.0632391,
  "lon": 19.9282635
},
{
  "type": "node",
  "id": 2401453999,
  "lat": 50.0599568,
  "lon": 19.9235474
},
{
  "type": "node",
  "id": 2401454000,
  "lat": 50.0599595,
  "lon": 19.9234383
},
{
  "type": "node",
  "id": 2401454001,
  "lat": 50.0599609,
  "lon": 19.9235662
},
{
  "type": "node",
  "id": 2401454002,
  "lat": 50.0599703,
  "lon": 19.9236104
},
{
  "type": "node",
  "id": 2401454003,
  "lat": 50.0599802,
  "lon": 19.9235354
},
{
  "type": "node",
  "id": 2401454004,
  "lat": 50.0599832,
  "lon": 19.9236037
},
{
  "type": "node",
  "id": 2401454005,
  "lat": 50.0599842,
  "lon": 19.9236084
},
{
  "type": "node",
  "id": 2401454006,
  "lat": 50.0599919,
  "lon": 19.9233828
},
{
  "type": "node",
  "id": 2401454007,
  "lat": 50.0599994,
  "lon": 19.9234177
},
{
  "type": "node",
  "id": 2401454008,
  "lat": 50.0600156,
  "lon": 19.9235921
},
{
  "type": "node",
  "id": 2401454009,
  "lat": 50.0600636,
  "lon": 19.9240476
},
{
  "type": "node",
  "id": 2401454010,
  "lat": 50.0600731,
  "lon": 19.9240923
},
{
  "type": "node",
  "id": 2401454011,
  "lat": 50.0600741,
  "lon": 19.9240368
},
{
  "type": "node",
  "id": 2401454012,
  "lat": 50.0600751,
  "lon": 19.9240417
},
{
  "type": "node",
  "id": 2401454013,
  "lat": 50.0600773,
  "lon": 19.9241120
},
{
  "type": "node",
  "id": 2401454016,
  "lat": 50.0600997,
  "lon": 19.9241004
},
{
  "type": "node",
  "id": 2401454017,
  "lat": 50.0601069,
  "lon": 19.9240199
},
{
  "type": "node",
  "id": 2401454018,
  "lat": 50.0601208,
  "lon": 19.9241992
},
{
  "type": "node",
  "id": 2401454024,
  "lat": 50.0601621,
  "lon": 19.9241778
},
{
  "type": "node",
  "id": 2401454027,
  "lat": 50.0601684,
  "lon": 19.9242075
},
{
  "type": "node",
  "id": 2401454050,
  "lat": 50.0602801,
  "lon": 19.9241498
},
{
  "type": "node",
  "id": 2401454051,
  "lat": 50.0602817,
  "lon": 19.9241574
},
{
  "type": "node",
  "id": 2401454053,
  "lat": 50.0602884,
  "lon": 19.9241444
},
{
  "type": "node",
  "id": 2401454054,
  "lat": 50.0602902,
  "lon": 19.9241529
},
{
  "type": "node",
  "id": 2401454065,
  "lat": 50.0603161,
  "lon": 19.9241300
},
{
  "type": "node",
  "id": 2401454066,
  "lat": 50.0603178,
  "lon": 19.9241382
},
{
  "type": "node",
  "id": 2401454070,
  "lat": 50.0603235,
  "lon": 19.9241258
},
{
  "type": "node",
  "id": 2401454072,
  "lat": 50.0603253,
  "lon": 19.9241343
},
{
  "type": "node",
  "id": 2401454090,
  "lat": 50.0603518,
  "lon": 19.9241111
},
{
  "type": "node",
  "id": 2401454091,
  "lat": 50.0603535,
  "lon": 19.9241193
},
{
  "type": "node",
  "id": 2401454094,
  "lat": 50.0603594,
  "lon": 19.9241067
},
{
  "type": "node",
  "id": 2401454100,
  "lat": 50.0603612,
  "lon": 19.9241153
},
{
  "type": "node",
  "id": 2401454115,
  "lat": 50.0603864,
  "lon": 19.9240927
},
{
  "type": "node",
  "id": 2401454117,
  "lat": 50.0603881,
  "lon": 19.9241004
},
{
  "type": "node",
  "id": 2401454119,
  "lat": 50.0603924,
  "lon": 19.9240982
},
{
  "type": "node",
  "id": 2401454121,
  "lat": 50.0603935,
  "lon": 19.9241036
},
{
  "type": "node",
  "id": 2401454122,
  "lat": 50.0603968,
  "lon": 19.9240935
},
{
  "type": "node",
  "id": 2401454123,
  "lat": 50.0603984,
  "lon": 19.9241011
},
{
  "type": "node",
  "id": 2401454142,
  "lat": 50.0604257,
  "lon": 19.9240786
},
{
  "type": "node",
  "id": 2401454144,
  "lat": 50.0604275,
  "lon": 19.9240869
},
{
  "type": "node",
  "id": 2401454157,
  "lat": 50.0604352,
  "lon": 19.9240733
},
{
  "type": "node",
  "id": 2401454159,
  "lat": 50.0604370,
  "lon": 19.9240819
},
{
  "type": "node",
  "id": 2401454221,
  "lat": 50.0604633,
  "lon": 19.9240588
},
{
  "type": "node",
  "id": 2401454223,
  "lat": 50.0604652,
  "lon": 19.9240674
},
{
  "type": "node",
  "id": 2401454227,
  "lat": 50.0604712,
  "lon": 19.9240543
},
{
  "type": "node",
  "id": 2401454230,
  "lat": 50.0604731,
  "lon": 19.9240633
},
{
  "type": "node",
  "id": 2401454239,
  "lat": 50.0604991,
  "lon": 19.9240399
},
{
  "type": "node",
  "id": 2401454240,
  "lat": 50.0605010,
  "lon": 19.9240487
},
{
  "type": "node",
  "id": 2401454242,
  "lat": 50.0605061,
  "lon": 19.9240359
},
{
  "type": "node",
  "id": 2401454243,
  "lat": 50.0605081,
  "lon": 19.9240451
},
{
  "type": "node",
  "id": 2401454248,
  "lat": 50.0605359,
  "lon": 19.9240205
},
{
  "type": "node",
  "id": 2401454249,
  "lat": 50.0605378,
  "lon": 19.9240296
},
{
  "type": "node",
  "id": 2401454250,
  "lat": 50.0605433,
  "lon": 19.9240164
},
{
  "type": "node",
  "id": 2401454251,
  "lat": 50.0605453,
  "lon": 19.9240258
},
{
  "type": "node",
  "id": 2401454256,
  "lat": 50.0605714,
  "lon": 19.9240019
},
{
  "type": "node",
  "id": 2401454257,
  "lat": 50.0605734,
  "lon": 19.9240112
},
{
  "type": "node",
  "id": 2401454263,
  "lat": 50.0605803,
  "lon": 19.9239970
},
{
  "type": "node",
  "id": 2401454265,
  "lat": 50.0605823,
  "lon": 19.9240066
},
{
  "type": "node",
  "id": 2401454290,
  "lat": 50.0606075,
  "lon": 19.9239829
},
{
  "type": "node",
  "id": 2401454291,
  "lat": 50.0606096,
  "lon": 19.9239925
},
{
  "type": "node",
  "id": 2401454294,
  "lat": 50.0606171,
  "lon": 19.9239777
},
{
  "type": "node",
  "id": 2401454297,
  "lat": 50.0606192,
  "lon": 19.9239875
},
{
  "type": "node",
  "id": 2401454304,
  "lat": 50.0606451,
  "lon": 19.9239631
},
{
  "type": "node",
  "id": 2401454305,
  "lat": 50.0606472,
  "lon": 19.9239729
},
{
  "type": "node",
  "id": 2401454306,
  "lat": 50.0606535,
  "lon": 19.9239586
},
{
  "type": "node",
  "id": 2401454314,
  "lat": 50.0606556,
  "lon": 19.9239686
},
{
  "type": "node",
  "id": 2401454333,
  "lat": 50.0606807,
  "lon": 19.9239444
},
{
  "type": "node",
  "id": 2401454336,
  "lat": 50.0606829,
  "lon": 19.9239545
},
{
  "type": "node",
  "id": 2401454341,
  "lat": 50.0606899,
  "lon": 19.9239394
},
{
  "type": "node",
  "id": 2401454345,
  "lat": 50.0606921,
  "lon": 19.9239497
},
{
  "type": "node",
  "id": 2401454359,
  "lat": 50.0607172,
  "lon": 19.9239253
},
{
  "type": "node",
  "id": 2401454361,
  "lat": 50.0607194,
  "lon": 19.9239356
},
{
  "type": "node",
  "id": 2401454364,
  "lat": 50.0607259,
  "lon": 19.9239205
},
{
  "type": "node",
  "id": 2401454365,
  "lat": 50.0607273,
  "lon": 19.9230022
},
{
  "type": "node",
  "id": 2401454366,
  "lat": 50.0607281,
  "lon": 19.9239310
},
{
  "type": "node",
  "id": 2401454369,
  "lat": 50.0607387,
  "lon": 19.9230554
},
{
  "type": "node",
  "id": 2401454373,
  "lat": 50.0607442,
  "lon": 19.9230526
},
{
  "type": "node",
  "id": 2401454378,
  "lat": 50.0607551,
  "lon": 19.9239053
},
{
  "type": "node",
  "id": 2401454379,
  "lat": 50.0607574,
  "lon": 19.9239160
},
{
  "type": "node",
  "id": 2401454380,
  "lat": 50.0607568,
  "lon": 19.9230460
},
{
  "type": "node",
  "id": 2401454384,
  "lat": 50.0607637,
  "lon": 19.9239006
},
{
  "type": "node",
  "id": 2401454386,
  "lat": 50.0607660,
  "lon": 19.9239115
},
{
  "type": "node",
  "id": 2401454402,
  "lat": 50.0607912,
  "lon": 19.9238864
},
{
  "type": "node",
  "id": 2401454404,
  "lat": 50.0607935,
  "lon": 19.9238972
},
{
  "type": "node",
  "id": 2401454409,
  "lat": 50.0607987,
  "lon": 19.9238822
},
{
  "type": "node",
  "id": 2401454413,
  "lat": 50.0608011,
  "lon": 19.9238933
},
{
  "type": "node",
  "id": 2401454432,
  "lat": 50.0608254,
  "lon": 19.9238683
},
{
  "type": "node",
  "id": 2401454433,
  "lat": 50.0608278,
  "lon": 19.9238794
},
{
  "type": "node",
  "id": 2401454434,
  "lat": 50.0608339,
  "lon": 19.9238636
},
{
  "type": "node",
  "id": 2401454435,
  "lat": 50.0608363,
  "lon": 19.9238749
},
{
  "type": "node",
  "id": 2401454436,
  "lat": 50.0608644,
  "lon": 19.9238479
},
{
  "type": "node",
  "id": 2401454437,
  "lat": 50.0608668,
  "lon": 19.9238592
},
{
  "type": "node",
  "id": 2401454441,
  "lat": 50.0608727,
  "lon": 19.9238432
},
{
  "type": "node",
  "id": 2401454442,
  "lat": 50.0608752,
  "lon": 19.9238549
},
{
  "type": "node",
  "id": 2401454448,
  "lat": 50.0608982,
  "lon": 19.9237796
},
{
  "type": "node",
  "id": 2401454450,
  "lat": 50.0608992,
  "lon": 19.9238295
},
{
  "type": "node",
  "id": 2401454451,
  "lat": 50.0609010,
  "lon": 19.9237928
},
{
  "type": "node",
  "id": 2401454452,
  "lat": 50.0609017,
  "lon": 19.9238411
},
{
  "type": "node",
  "id": 2401454453,
  "lat": 50.0609104,
  "lon": 19.9238366
},
{
  "type": "node",
  "id": 2401454454,
  "lat": 50.0609118,
  "lon": 19.9237726
},
{
  "type": "node",
  "id": 3037295904,
  "lat": 50.0633786,
  "lon": 19.9283095
},
{
  "type": "node",
  "id": 3037295905,
  "lat": 50.0633806,
  "lon": 19.9283090
},
{
  "type": "node",
  "id": 3037295906,
  "lat": 50.0633833,
  "lon": 19.9283391
},
{
  "type": "node",
  "id": 3037322431,
  "lat": 50.0631311,
  "lon": 19.9283485
},
{
  "type": "node",
  "id": 3037322432,
  "lat": 50.0631319,
  "lon": 19.9283638
},
{
  "type": "node",
  "id": 3037325375,
  "lat": 50.0632219,
  "lon": 19.9283467
},
{
  "type": "node",
  "id": 3037326241,
  "lat": 50.0631273,
  "lon": 19.9282850
},
{
  "type": "node",
  "id": 3037326255,
  "lat": 50.0633870,
  "lon": 19.9285630
},
{
  "type": "node",
  "id": 3037326260,
  "lat": 50.0633955,
  "lon": 19.9284884
},
{
  "type": "node",
  "id": 3037326263,
  "lat": 50.0634007,
  "lon": 19.9285606
},
{
  "type": "node",
  "id": 3037326415,
  "lat": 50.0632222,
  "lon": 19.9283491
},
{
  "type": "node",
  "id": 3037326432,
  "lat": 50.0632974,
  "lon": 19.9283551
},
{
  "type": "node",
  "id": 3037326452,
  "lat": 50.0631889,
  "lon": 19.9283869
},
{
  "type": "node",
  "id": 3037326453,
  "lat": 50.0631899,
  "lon": 19.9284020
},
{
  "type": "node",
  "id": 3037326454,
  "lat": 50.0631901,
  "lon": 19.9282727
},
{
  "type": "node",
  "id": 3037326455,
  "lat": 50.0631933,
  "lon": 19.9284016
},
{
  "type": "node",
  "id": 3037326457,
  "lat": 50.0631983,
  "lon": 19.9283856
},
{
  "type": "node",
  "id": 3037326458,
  "lat": 50.0631991,
  "lon": 19.9283918
},
{
  "type": "node",
  "id": 3037326459,
  "lat": 50.0631998,
  "lon": 19.9285858
},
{
  "type": "node",
  "id": 3037326460,
  "lat": 50.0632004,
  "lon": 19.9285949
},
{
  "type": "node",
  "id": 3037326464,
  "lat": 50.0632070,
  "lon": 19.9285847
},
{
  "type": "node",
  "id": 3037326472,
  "lat": 50.0632587,
  "lon": 19.9283232
},
{
  "type": "node",
  "id": 3037326475,
  "lat": 50.0632593,
  "lon": 19.9283406
},
{
  "type": "node",
  "id": 3037326523,
  "lat": 50.0632942,
  "lon": 19.9283176
},
{
  "type": "node",
  "id": 3037326530,
  "lat": 50.0632993,
  "lon": 19.9283763
},
{
  "type": "node",
  "id": 3037326635,
  "lat": 50.0633970,
  "lon": 19.9284881
},
{
  "type": "node",
  "id": 3080530184,
  "lat": 50.0641353,
  "lon": 19.9350253
},
{
  "type": "node",
  "id": 3080535262,
  "lat": 50.0641220,
  "lon": 19.9350458
},
{
  "type": "node",
  "id": 3080535398,
  "lat": 50.0638973,
  "lon": 19.9349788
},
{
  "type": "node",
  "id": 3080535577,
  "lat": 50.0638113,
  "lon": 19.9348954
},
{
  "type": "node",
  "id": 3080535592,
  "lat": 50.0638954,
  "lon": 19.9349835
},
{
  "type": "node",
  "id": 3080535595,
  "lat": 50.0639088,
  "lon": 19.9346526
},
{
  "type": "node",
  "id": 3080535614,
  "lat": 50.0639947,
  "lon": 19.9347360
},
{
  "type": "node",
  "id": 3080535622,
  "lat": 50.0641256,
  "lon": 19.9350495
},
{
  "type": "node",
  "id": 3080535807,
  "lat": 50.0639894,
  "lon": 19.9350741
},
{
  "type": "node",
  "id": 3080535809,
  "lat": 50.0639913,
  "lon": 19.9350694
},
{
  "type": "node",
  "id": 3080535810,
  "lat": 50.0639966,
  "lon": 19.9347313
},
{
  "type": "node",
  "id": 3080535824,
  "lat": 50.0640812,
  "lon": 19.9351571
},
{
  "type": "node",
  "id": 3080535830,
  "lat": 50.0641316,
  "lon": 19.9350219
},
{
  "type": "node",
  "id": 3080535992,
  "lat": 50.0640892,
  "lon": 19.9348284
},
{
  "type": "node",
  "id": 3080535993,
  "lat": 50.0640911,
  "lon": 19.9348236
},
{
  "type": "node",
  "id": 3080536035,
  "lat": 50.0641791,
  "lon": 19.9349160
},
{
  "type": "node",
  "id": 4146767974,
  "lat": 50.0598101,
  "lon": 19.9295630
},
{
  "type": "node",
  "id": 4146767985,
  "lat": 50.0598196,
  "lon": 19.9295600
},
{
  "type": "node",
  "id": 4146768151,
  "lat": 50.0599602,
  "lon": 19.9295012
},
{
  "type": "node",
  "id": 4146768159,
  "lat": 50.0599770,
  "lon": 19.9296215
},
{
  "type": "node",
  "id": 4146768168,
  "lat": 50.0599914,
  "lon": 19.9296161
},
{
  "type": "node",
  "id": 4146768172,
  "lat": 50.0600036,
  "lon": 19.9297013
},
{
  "type": "node",
  "id": 4146768175,
  "lat": 50.0600098,
  "lon": 19.9304812
},
{
  "type": "node",
  "id": 4146768176,
  "lat": 50.0600111,
  "lon": 19.9304908
},
{
  "type": "node",
  "id": 4146768333,
  "lat": 50.0600752,
  "lon": 19.9304603
},
{
  "type": "node",
  "id": 4146768336,
  "lat": 50.0601556,
  "lon": 19.9304347
},
{
  "type": "node",
  "id": 4146802835,
  "lat": 50.0600049,
  "lon": 19.9297085
},
{
  "type": "node",
  "id": 4146802836,
  "lat": 50.0600475,
  "lon": 19.9296867
},
{
  "type": "node",
  "id": 4146802838,
  "lat": 50.0601451,
  "lon": 19.9303721
},
{
  "type": "node",
  "id": 4146843722,
  "lat": 50.0600636,
  "lon": 19.9297999
},
{
  "type": "node",
  "id": 4146843724,
  "lat": 50.0601504,
  "lon": 19.9304034
},
{
  "type": "node",
  "id": 4146848249,
  "lat": 50.0599640,
  "lon": 19.9295282
},
{
  "type": "node",
  "id": 6514826232,
  "lat": 50.0599686,
  "lon": 19.9305119
},
{
  "type": "node",
  "id": 6514826233,
  "lat": 50.0599681,
  "lon": 19.9305082
},
{
  "type": "node",
  "id": 6514826234,
  "lat": 50.0599057,
  "lon": 19.9305269
},
{
  "type": "node",
  "id": 1518864572,
  "lat": 50.0618329,
  "lon": 19.9401655
},
{
  "type": "node",
  "id": 1518864584,
  "lat": 50.0620241,
  "lon": 19.9403130
},
{
  "type": "node",
  "id": 1518864586,
  "lat": 50.0620138,
  "lon": 19.9400376
},
{
  "type": "node",
  "id": 1518864597,
  "lat": 50.0620803,
  "lon": 19.9400888
},
{
  "type": "node",
  "id": 1658773392,
  "lat": 50.0637850,
  "lon": 19.9413187
},
{
  "type": "node",
  "id": 1658773393,
  "lat": 50.0637792,
  "lon": 19.9411569
},
{
  "type": "node",
  "id": 1658773394,
  "lat": 50.0637856,
  "lon": 19.9410375
},
{
  "type": "node",
  "id": 1658773397,
  "lat": 50.0637912,
  "lon": 19.9413002
},
{
  "type": "node",
  "id": 1658773398,
  "lat": 50.0638076,
  "lon": 19.9410780
},
{
  "type": "node",
  "id": 1658773403,
  "lat": 50.0638166,
  "lon": 19.9412190
},
{
  "type": "node",
  "id": 1658773406,
  "lat": 50.0638236,
  "lon": 19.9411966
},
{
  "type": "node",
  "id": 1658773410,
  "lat": 50.0638526,
  "lon": 19.9411178
},
{
  "type": "node",
  "id": 1658773424,
  "lat": 50.0638927,
  "lon": 19.9407291
},
{
  "type": "node",
  "id": 1658773432,
  "lat": 50.0639634,
  "lon": 19.9407832
},
{
  "type": "node",
  "id": 2000518586,
  "lat": 50.0637111,
  "lon": 19.9412611
},
{
  "type": "node",
  "id": 2000518588,
  "lat": 50.0637358,
  "lon": 19.9411846
},
{
  "type": "node",
  "id": 2330652965,
  "lat": 50.0656018,
  "lon": 19.9417756
},
{
  "type": "node",
  "id": 2330652967,
  "lat": 50.0656229,
  "lon": 19.9417175
},
{
  "type": "node",
  "id": 2500393633,
  "lat": 50.0618720,
  "lon": 19.9400241
},
{
  "type": "node",
  "id": 2500393635,
  "lat": 50.0618780,
  "lon": 19.9400237
},
{
  "type": "node",
  "id": 2500393637,
  "lat": 50.0618879,
  "lon": 19.9399625
},
{
  "type": "node",
  "id": 2500393639,
  "lat": 50.0618913,
  "lon": 19.9399761
},
{
  "type": "node",
  "id": 2500393648,
  "lat": 50.0620442,
  "lon": 19.9400618
},
{
  "type": "node",
  "id": 3010740992,
  "lat": 50.0652862,
  "lon": 19.9416183
},
{
  "type": "node",
  "id": 3010740995,
  "lat": 50.0653105,
  "lon": 19.9415756
},
{
  "type": "node",
  "id": 3010751497,
  "lat": 50.0653145,
  "lon": 19.9414795
},
{
  "type": "node",
  "id": 3010751498,
  "lat": 50.0653170,
  "lon": 19.9414673
},
{
  "type": "node",
  "id": 3010751500,
  "lat": 50.0653215,
  "lon": 19.9415225
},
{
  "type": "node",
  "id": 3010751502,
  "lat": 50.0653335,
  "lon": 19.9416400
},
{
  "type": "node",
  "id": 3010751508,
  "lat": 50.0653633,
  "lon": 19.9414873
},
{
  "type": "node",
  "id": 3010751512,
  "lat": 50.0653901,
  "lon": 19.9416683
},
{
  "type": "node",
  "id": 3010751513,
  "lat": 50.0653960,
  "lon": 19.9416687
},
{
  "type": "node",
  "id": 3010751514,
  "lat": 50.0654351,
  "lon": 19.9418142
},
{
  "type": "node",
  "id": 3010751515,
  "lat": 50.0654393,
  "lon": 19.9415344
},
{
  "type": "node",
  "id": 3010751516,
  "lat": 50.0654406,
  "lon": 19.9418380
},
{
  "type": "node",
  "id": 3010751519,
  "lat": 50.0654539,
  "lon": 19.9418282
},
{
  "type": "node",
  "id": 3010751520,
  "lat": 50.0654591,
  "lon": 19.9418052
},
{
  "type": "node",
  "id": 3010751522,
  "lat": 50.0654649,
  "lon": 19.9414353
},
{
  "type": "node",
  "id": 3010751526,
  "lat": 50.0655350,
  "lon": 19.9414844
},
{
  "type": "node",
  "id": 3010751528,
  "lat": 50.0655466,
  "lon": 19.9418398
},
{
  "type": "node",
  "id": 3010751531,
  "lat": 50.0655520,
  "lon": 19.9414993
},
{
  "type": "node",
  "id": 3010769448,
  "lat": 50.0652889,
  "lon": 19.9416052
},
{
  "type": "node",
  "id": 3010769449,
  "lat": 50.0653015,
  "lon": 19.9415432
},
{
  "type": "node",
  "id": 3010769450,
  "lat": 50.0653099,
  "lon": 19.9415833
},
{
  "type": "node",
  "id": 3010769532,
  "lat": 50.0655932,
  "lon": 19.9417900
},
{
  "type": "node",
  "id": 3010769938,
  "lat": 50.0653157,
  "lon": 19.9415504
},
{
  "type": "node",
  "id": 3010770044,
  "lat": 50.0653738,
  "lon": 19.9414918
},
{
  "type": "node",
  "id": 3010770046,
  "lat": 50.0654039,
  "lon": 19.9418018
},
{
  "type": "node",
  "id": 3010770049,
  "lat": 50.0654084,
  "lon": 19.9416693
},
{
  "type": "node",
  "id": 3010770051,
  "lat": 50.0654147,
  "lon": 19.9417628
},
{
  "type": "node",
  "id": 3010770052,
  "lat": 50.0654157,
  "lon": 19.9416349
},
{
  "type": "node",
  "id": 3010770057,
  "lat": 50.0656080,
  "lon": 19.9417624
},
{
  "type": "node",
  "id": 3010770063,
  "lat": 50.0656226,
  "lon": 19.9415672
},
{
  "type": "node",
  "id": 3010770401,
  "lat": 50.0653237,
  "lon": 19.9415155
},
{
  "type": "node",
  "id": 3010770402,
  "lat": 50.0653438,
  "lon": 19.9416447
},
{
  "type": "node",
  "id": 3010770479,
  "lat": 50.0654223,
  "lon": 19.9418225
},
{
  "type": "node",
  "id": 3010770482,
  "lat": 50.0654305,
  "lon": 19.9415691
},
{
  "type": "node",
  "id": 3010770483,
  "lat": 50.0654320,
  "lon": 19.9417858
},
{
  "type": "node",
  "id": 3010770809,
  "lat": 50.0654180,
  "lon": 19.9418176
},
{
  "type": "node",
  "id": 3010770814,
  "lat": 50.0654285,
  "lon": 19.9415155
},
{
  "type": "node",
  "id": 3010770818,
  "lat": 50.0654404,
  "lon": 19.9417918
},
{
  "type": "node",
  "id": 3010770822,
  "lat": 50.0654550,
  "lon": 19.9414267
},
{
  "type": "node",
  "id": 3010770823,
  "lat": 50.0654595,
  "lon": 19.9414128
},
{
  "type": "node",
  "id": 3010770825,
  "lat": 50.0654637,
  "lon": 19.9418504
},
{
  "type": "node",
  "id": 3010770828,
  "lat": 50.0654814,
  "lon": 19.9418550
},
{
  "type": "node",
  "id": 3010770830,
  "lat": 50.0655007,
  "lon": 19.9418148
},
{
  "type": "node",
  "id": 3010770831,
  "lat": 50.0655092,
  "lon": 19.9414539
},
{
  "type": "node",
  "id": 3010770832,
  "lat": 50.0655183,
  "lon": 19.9418523
},
{
  "type": "node",
  "id": 3010770845,
  "lat": 50.0654571,
  "lon": 19.9414851
},
{
  "type": "node",
  "id": 3010770847,
  "lat": 50.0654702,
  "lon": 19.9414189
},
{
  "type": "node",
  "id": 3010770848,
  "lat": 50.0654711,
  "lon": 19.9414783
},
{
  "type": "node",
  "id": 3010770850,
  "lat": 50.0654753,
  "lon": 19.9414325
},
{
  "type": "node",
  "id": 3010770901,
  "lat": 50.0655017,
  "lon": 19.9418376
},
{
  "type": "node",
  "id": 3010770902,
  "lat": 50.0655091,
  "lon": 19.9414328
},
{
  "type": "node",
  "id": 3010771287,
  "lat": 50.0654731,
  "lon": 19.9414538
},
{
  "type": "node",
  "id": 3010771289,
  "lat": 50.0654806,
  "lon": 19.9418370
},
{
  "type": "node",
  "id": 3010771290,
  "lat": 50.0654809,
  "lon": 19.9418134
},
{
  "type": "node",
  "id": 3010771291,
  "lat": 50.0654887,
  "lon": 19.9414509
},
{
  "type": "node",
  "id": 3010771292,
  "lat": 50.0654951,
  "lon": 19.9414738
},
{
  "type": "node",
  "id": 3010771294,
  "lat": 50.0655054,
  "lon": 19.9414762
},
{
  "type": "node",
  "id": 3010771297,
  "lat": 50.0655273,
  "lon": 19.9414376
},
{
  "type": "node",
  "id": 3010771433,
  "lat": 50.0655269,
  "lon": 19.9414822
},
{
  "type": "node",
  "id": 3010771434,
  "lat": 50.0655280,
  "lon": 19.9414593
},
{
  "type": "node",
  "id": 3010771435,
  "lat": 50.0655292,
  "lon": 19.9418055
},
{
  "type": "node",
  "id": 3010771437,
  "lat": 50.0655482,
  "lon": 19.9417919
},
{
  "type": "node",
  "id": 3010771439,
  "lat": 50.0655552,
  "lon": 19.9418128
},
{
  "type": "node",
  "id": 3010771441,
  "lat": 50.0655698,
  "lon": 19.9414394
},
{
  "type": "node",
  "id": 3010771444,
  "lat": 50.0655737,
  "lon": 19.9414750
},
{
  "type": "node",
  "id": 3010771498,
  "lat": 50.0656019,
  "lon": 19.9416286
},
{
  "type": "node",
  "id": 3010771553,
  "lat": 50.0655358,
  "lon": 19.9418279
},
{
  "type": "node",
  "id": 3010771554,
  "lat": 50.0655453,
  "lon": 19.9414464
},
{
  "type": "node",
  "id": 3010771734,
  "lat": 50.0655590,
  "lon": 19.9414567
},
{
  "type": "node",
  "id": 3010771735,
  "lat": 50.0655692,
  "lon": 19.9414648
},
{
  "type": "node",
  "id": 3010771736,
  "lat": 50.0655692,
  "lon": 19.9417661
},
{
  "type": "node",
  "id": 3010771740,
  "lat": 50.0655784,
  "lon": 19.9414502
},
{
  "type": "node",
  "id": 3010771743,
  "lat": 50.0655838,
  "lon": 19.9418026
},
{
  "type": "node",
  "id": 3010771745,
  "lat": 50.0655866,
  "lon": 19.9414940
},
{
  "type": "node",
  "id": 3010771748,
  "lat": 50.0655964,
  "lon": 19.9417023
},
{
  "type": "node",
  "id": 3010771750,
  "lat": 50.0656003,
  "lon": 19.9415141
},
{
  "type": "node",
  "id": 3010771751,
  "lat": 50.0656014,
  "lon": 19.9416710
},
{
  "type": "node",
  "id": 3010771752,
  "lat": 50.0656068,
  "lon": 19.9415206
},
{
  "type": "node",
  "id": 3010771756,
  "lat": 50.0656107,
  "lon": 19.9417093
},
{
  "type": "node",
  "id": 3010771757,
  "lat": 50.0656135,
  "lon": 19.9417484
},
{
  "type": "node",
  "id": 3010771759,
  "lat": 50.0656157,
  "lon": 19.9416776
},
{
  "type": "node",
  "id": 3010771760,
  "lat": 50.0656162,
  "lon": 19.9415058
},
{
  "type": "node",
  "id": 3010771766,
  "lat": 50.0656238,
  "lon": 19.9415184
},
{
  "type": "node",
  "id": 3010771768,
  "lat": 50.0656278,
  "lon": 19.9415951
},
{
  "type": "node",
  "id": 3010771769,
  "lat": 50.0656282,
  "lon": 19.9416875
},
{
  "type": "node",
  "id": 3010771771,
  "lat": 50.0656308,
  "lon": 19.9416261
},
{
  "type": "node",
  "id": 3010771772,
  "lat": 50.0656308,
  "lon": 19.9416564
},
{
  "type": "node",
  "id": 3010771857,
  "lat": 50.0655810,
  "lon": 19.9417804
},
{
  "type": "node",
  "id": 3010771859,
  "lat": 50.0655840,
  "lon": 19.9417404
},
{
  "type": "node",
  "id": 3010771860,
  "lat": 50.0655853,
  "lon": 19.9415501
},
{
  "type": "node",
  "id": 3010771864,
  "lat": 50.0655951,
  "lon": 19.9417553
},
{
  "type": "node",
  "id": 3010771867,
  "lat": 50.0655979,
  "lon": 19.9415923
},
{
  "type": "node",
  "id": 3010771871,
  "lat": 50.0656113,
  "lon": 19.9415929
},
{
  "type": "node",
  "id": 3010771873,
  "lat": 50.0656152,
  "lon": 19.9416253
},
{
  "type": "node",
  "id": 3010772337,
  "lat": 50.0656127,
  "lon": 19.9415355
},
{
  "type": "node",
  "id": 3279106652,
  "lat": 50.0638222,
  "lon": 19.9411954
},
{
  "type": "node",
  "id": 3279111802,
  "lat": 50.0637311,
  "lon": 19.9412760
},
{
  "type": "node",
  "id": 3279111803,
  "lat": 50.0637362,
  "lon": 19.9412802
},
{
  "type": "node",
  "id": 3279111804,
  "lat": 50.0637552,
  "lon": 19.9412965
},
{
  "type": "node",
  "id": 3279111805,
  "lat": 50.0637602,
  "lon": 19.9413002
},
{
  "type": "node",
  "id": 3279111806,
  "lat": 50.0637608,
  "lon": 19.9411105
},
{
  "type": "node",
  "id": 3279111808,
  "lat": 50.0637831,
  "lon": 19.9413174
},
{
  "type": "node",
  "id": 3279112036,
  "lat": 50.0637801,
  "lon": 19.9413153
},
{
  "type": "node",
  "id": 3279112077,
  "lat": 50.0637607,
  "lon": 19.9412986
},
{
  "type": "node",
  "id": 3279112178,
  "lat": 50.0638465,
  "lon": 19.9411125
},
{
  "type": "node",
  "id": 3279112467,
  "lat": 50.0637302,
  "lon": 19.9412777
},
{
  "type": "node",
  "id": 3279112469,
  "lat": 50.0637354,
  "lon": 19.9412818
},
{
  "type": "node",
  "id": 3279112471,
  "lat": 50.0637558,
  "lon": 19.9412947
},
{
  "type": "node",
  "id": 3279112473,
  "lat": 50.0637808,
  "lon": 19.9413132
},
{
  "type": "node",
  "id": 3279112474,
  "lat": 50.0637879,
  "lon": 19.9410395
},
{
  "type": "node",
  "id": 6717888555,
  "lat": 50.0620122,
  "lon": 19.9400416
},
{
  "type": "node",
  "id": 6717888595,
  "lat": 50.0618910,
  "lon": 19.9399656
},
{
  "type": "node",
  "id": 6717888596,
  "lat": 50.0618889,
  "lon": 19.9399729
},
{
  "type": "node",
  "id": 6717888597,
  "lat": 50.0618754,
  "lon": 19.9400237
},
{
  "type": "node",
  "id": 6717888598,
  "lat": 50.0618749,
  "lon": 19.9400255
},
{
  "type": "node",
  "id": 6717888599,
  "lat": 50.0618702,
  "lon": 19.9400447
},
{
  "type": "node",
  "id": 6717888600,
  "lat": 50.0618665,
  "lon": 19.9400404
},
{
  "type": "node",
  "id": 6717888601,
  "lat": 50.0618528,
  "lon": 19.9401029
},
{
  "type": "node",
  "id": 6717888602,
  "lat": 50.0618453,
  "lon": 19.9401155
},
{
  "type": "node",
  "id": 6717888603,
  "lat": 50.0618363,
  "lon": 19.9401452
},
{
  "type": "node",
  "id": 6717888604,
  "lat": 50.0618346,
  "lon": 19.9401446
},
{
  "type": "node",
  "id": 6717888605,
  "lat": 50.0618439,
  "lon": 19.9401136
},
{
  "type": "node",
  "id": 6717888606,
  "lat": 50.0618481,
  "lon": 19.9401005
},
{
  "type": "node",
  "id": 6717888607,
  "lat": 50.0618290,
  "lon": 19.9401626
},
{
  "type": "node",
  "id": 6717888608,
  "lat": 50.0619397,
  "lon": 19.9402543
},
{
  "type": "node",
  "id": 6717888609,
  "lat": 50.0619405,
  "lon": 19.9402511
},
{
  "type": "node",
  "id": 6717888610,
  "lat": 50.0620185,
  "lon": 19.9403145
},
{
  "type": "node",
  "id": 6717888654,
  "lat": 50.0620200,
  "lon": 19.9403102
},
{
  "type": "node",
  "id": 6717888660,
  "lat": 50.0620690,
  "lon": 19.9401517
},
{
  "type": "node",
  "id": 6717888755,
  "lat": 50.0620824,
  "lon": 19.9401072
},
{
  "type": "node",
  "id": 6717888756,
  "lat": 50.0620767,
  "lon": 19.9401020
},
{
  "type": "node",
  "id": 6717888839,
  "lat": 50.0618914,
  "lon": 19.9399535
},
{
  "type": "node",
  "id": 1445724671,
  "lat": 50.0721103,
  "lon": 19.9487021
},
{
  "type": "node",
  "id": 1445724690,
  "lat": 50.0722917,
  "lon": 19.9483020
},
{
  "type": "node",
  "id": 1445724709,
  "lat": 50.0724855,
  "lon": 19.9491122
},
{
  "type": "node",
  "id": 1445724720,
  "lat": 50.0726670,
  "lon": 19.9487129
},
{
  "type": "node",
  "id": 2665050439,
  "lat": 50.0721826,
  "lon": 19.9484828
},
{
  "type": "node",
  "id": 3486992850,
  "lat": 50.0724612,
  "lon": 19.9488988
},
{
  "type": "node",
  "id": 3486996266,
  "lat": 50.0721681,
  "lon": 19.9485161
},
{
  "type": "node",
  "id": 3486996275,
  "lat": 50.0723497,
  "lon": 19.9485498
},
{
  "type": "node",
  "id": 3486997689,
  "lat": 50.0721859,
  "lon": 19.9485364
},
{
  "type": "node",
  "id": 3486997691,
  "lat": 50.0721976,
  "lon": 19.9484520
},
{
  "type": "node",
  "id": 3486999299,
  "lat": 50.0722157,
  "lon": 19.9484705
},
{
  "type": "node",
  "id": 3486999324,
  "lat": 50.0722809,
  "lon": 19.9487021
},
{
  "type": "node",
  "id": 3487000293,
  "lat": 50.0725302,
  "lon": 19.9487439
},
{
  "type": "node",
  "id": 4291849722,
  "lat": 50.0725291,
  "lon": 19.9437162
},
{
  "type": "node",
  "id": 4291849724,
  "lat": 50.0725316,
  "lon": 19.9437071
},
{
  "type": "node",
  "id": 4291849726,
  "lat": 50.0725328,
  "lon": 19.9437079
},
{
  "type": "node",
  "id": 4291849727,
  "lat": 50.0725350,
  "lon": 19.9437203
},
{
  "type": "node",
  "id": 4291849729,
  "lat": 50.0725355,
  "lon": 19.9437183
},
{
  "type": "node",
  "id": 4291849742,
  "lat": 50.0725526,
  "lon": 19.9437321
},
{
  "type": "node",
  "id": 4291849743,
  "lat": 50.0725532,
  "lon": 19.9437303
},
{
  "type": "node",
  "id": 4291849746,
  "lat": 50.0725585,
  "lon": 19.9437361
},
{
  "type": "node",
  "id": 4291849747,
  "lat": 50.0725591,
  "lon": 19.9437341
},
{
  "type": "node",
  "id": 4291849748,
  "lat": 50.0725621,
  "lon": 19.9435984
},
{
  "type": "node",
  "id": 4291849749,
  "lat": 50.0725635,
  "lon": 19.9435993
},
{
  "type": "node",
  "id": 4291849750,
  "lat": 50.0725646,
  "lon": 19.9435896
},
{
  "type": "node",
  "id": 4291849754,
  "lat": 50.0725690,
  "lon": 19.9435948
},
{
  "type": "node",
  "id": 4291849755,
  "lat": 50.0725695,
  "lon": 19.9435930
},
{
  "type": "node",
  "id": 4291849764,
  "lat": 50.0725823,
  "lon": 19.9436039
},
{
  "type": "node",
  "id": 4291849783,
  "lat": 50.0726282,
  "lon": 19.9437834
},
{
  "type": "node",
  "id": 4291849784,
  "lat": 50.0726287,
  "lon": 19.9437817
},
{
  "type": "node",
  "id": 4291849788,
  "lat": 50.0726341,
  "lon": 19.9437874
},
{
  "type": "node",
  "id": 4291849789,
  "lat": 50.0726346,
  "lon": 19.9437856
},
{
  "type": "node",
  "id": 4291849793,
  "lat": 50.0726514,
  "lon": 19.9437992
},
{
  "type": "node",
  "id": 4291849794,
  "lat": 50.0726519,
  "lon": 19.9437974
},
{
  "type": "node",
  "id": 4291849799,
  "lat": 50.0726572,
  "lon": 19.9438032
},
{
  "type": "node",
  "id": 4291849801,
  "lat": 50.0726584,
  "lon": 19.9437945
},
{
  "type": "node",
  "id": 4291849805,
  "lat": 50.0726595,
  "lon": 19.9437953
},
{
  "type": "node",
  "id": 4291849812,
  "lat": 50.0726742,
  "lon": 19.9436674
},
{
  "type": "node",
  "id": 4291849815,
  "lat": 50.0726835,
  "lon": 19.9431698
},
{
  "type": "node",
  "id": 4291849818,
  "lat": 50.0726860,
  "lon": 19.9431610
},
{
  "type": "node",
  "id": 4291849820,
  "lat": 50.0726873,
  "lon": 19.9431619
},
{
  "type": "node",
  "id": 4291849821,
  "lat": 50.0726874,
  "lon": 19.9436764
},
{
  "type": "node",
  "id": 4291849822,
  "lat": 50.0726879,
  "lon": 19.9436744
},
{
  "type": "node",
  "id": 4291849823,
  "lat": 50.0726885,
  "lon": 19.9431733
},
{
  "type": "node",
  "id": 4291849824,
  "lat": 50.0726891,
  "lon": 19.9431714
},
{
  "type": "node",
  "id": 4291849825,
  "lat": 50.0726893,
  "lon": 19.9436847
},
{
  "type": "node",
  "id": 4291849826,
  "lat": 50.0726907,
  "lon": 19.9436856
},
{
  "type": "node",
  "id": 4291849827,
  "lat": 50.0726929,
  "lon": 19.9436778
},
{
  "type": "node",
  "id": 4291849833,
  "lat": 50.0727019,
  "lon": 19.9431802
},
{
  "type": "node",
  "id": 4291849844,
  "lat": 50.0727165,
  "lon": 19.9430528
},
{
  "type": "node",
  "id": 4291849845,
  "lat": 50.0727178,
  "lon": 19.9430537
},
{
  "type": "node",
  "id": 4291849846,
  "lat": 50.0727191,
  "lon": 19.9430436
},
{
  "type": "node",
  "id": 4291849848,
  "lat": 50.0727235,
  "lon": 19.9430489
},
{
  "type": "node",
  "id": 4291849849,
  "lat": 50.0727241,
  "lon": 19.9430470
},
{
  "type": "node",
  "id": 4291849869,
  "lat": 50.0727595,
  "lon": 19.9430736
},
{
  "type": "node",
  "id": 4291849870,
  "lat": 50.0727600,
  "lon": 19.9430717
},
{
  "type": "node",
  "id": 4291849875,
  "lat": 50.0727653,
  "lon": 19.9430776
},
{
  "type": "node",
  "id": 4291849876,
  "lat": 50.0727658,
  "lon": 19.9430757
},
{
  "type": "node",
  "id": 4291849885,
  "lat": 50.0727941,
  "lon": 19.9432425
},
{
  "type": "node",
  "id": 4291849888,
  "lat": 50.0728004,
  "lon": 19.9431017
},
{
  "type": "node",
  "id": 4291849889,
  "lat": 50.0728009,
  "lon": 19.9430999
},
{
  "type": "node",
  "id": 4291849891,
  "lat": 50.0728053,
  "lon": 19.9431052
},
{
  "type": "node",
  "id": 4291849892,
  "lat": 50.0728058,
  "lon": 19.9431032
},
{
  "type": "node",
  "id": 4291849893,
  "lat": 50.0728066,
  "lon": 19.9432534
},
{
  "type": "node",
  "id": 4291849894,
  "lat": 50.0728072,
  "lon": 19.9432515
},
{
  "type": "node",
  "id": 4291849896,
  "lat": 50.0728116,
  "lon": 19.9432569
},
{
  "type": "node",
  "id": 4291849898,
  "lat": 50.0728124,
  "lon": 19.9432481
},
{
  "type": "node",
  "id": 4291849899,
  "lat": 50.0728138,
  "lon": 19.9432491
},
{
  "type": "node",
  "id": 4291849912,
  "lat": 50.0728413,
  "lon": 19.9431298
},
{
  "type": "node",
  "id": 4291849913,
  "lat": 50.0728418,
  "lon": 19.9431278
},
{
  "type": "node",
  "id": 4291849914,
  "lat": 50.0728434,
  "lon": 19.9431383
},
{
  "type": "node",
  "id": 4291849915,
  "lat": 50.0728446,
  "lon": 19.9431391
},
{
  "type": "node",
  "id": 4291849916,
  "lat": 50.0728468,
  "lon": 19.9431312
},
{
  "type": "node",
  "id": 341393253,
  "lat": 50.0652351,
  "lon": 19.9492281
},
{
  "type": "node",
  "id": 3486987459,
  "lat": 50.0653183,
  "lon": 19.9492225
},
{
  "type": "node",
  "id": 3486987474,
  "lat": 50.0655198,
  "lon": 19.9494535
},
{
  "type": "node",
  "id": 3486987475,
  "lat": 50.0655598,
  "lon": 19.9494787
},
{
  "type": "node",
  "id": 3486987509,
  "lat": 50.0652179,
  "lon": 19.9493732
},
{
  "type": "node",
  "id": 3486987718,
  "lat": 50.0656789,
  "lon": 19.9493486
},
{
  "type": "node",
  "id": 3486987858,
  "lat": 50.0654007,
  "lon": 19.9494243
},
{
  "type": "node",
  "id": 3486987863,
  "lat": 50.0656084,
  "lon": 19.9495017
},
{
  "type": "node",
  "id": 3486988097,
  "lat": 50.0654012,
  "lon": 19.9494206
},
{
  "type": "node",
  "id": 3486988098,
  "lat": 50.0654183,
  "lon": 19.9492467
},
{
  "type": "node",
  "id": 3486988112,
  "lat": 50.0655191,
  "lon": 19.9494575
},
{
  "type": "node",
  "id": 3486988114,
  "lat": 50.0655476,
  "lon": 19.9492882
},
{
  "type": "node",
  "id": 3486988118,
  "lat": 50.0655601,
  "lon": 19.9494765
},
{
  "type": "node",
  "id": 3486988123,
  "lat": 50.0656089,
  "lon": 19.9494997
},
{
  "type": "node",
  "id": 3486988124,
  "lat": 50.0656502,
  "lon": 19.9495184
},
{
  "type": "node",
  "id": 6077795785,
  "lat": 50.0652768,
  "lon": 19.9493899
},
{
  "type": "node",
  "id": 6077795788,
  "lat": 50.0653230,
  "lon": 19.9494024
},
{
  "type": "node",
  "id": 759623336,
  "lat": 50.0766731,
  "lon": 19.9912075
},
{
  "type": "node",
  "id": 759623340,
  "lat": 50.0764351,
  "lon": 19.9923031
},
{
  "type": "node",
  "id": 759623344,
  "lat": 50.0762576,
  "lon": 19.9922092
},
{
  "type": "node",
  "id": 759623348,
  "lat": 50.0764957,
  "lon": 19.9911140
},
{
  "type": "node",
  "id": 1169654843,
  "lat": 50.0756958,
  "lon": 19.9934818
},
{
  "type": "node",
  "id": 1169654925,
  "lat": 50.0764633,
  "lon": 19.9934713
},
{
  "type": "node",
  "id": 1169655055,
  "lat": 50.0765047,
  "lon": 19.9932749
},
{
  "type": "node",
  "id": 1169655074,
  "lat": 50.0766373,
  "lon": 19.9932420
},
{
  "type": "node",
  "id": 1169655290,
  "lat": 50.0766113,
  "lon": 19.9933650
},
{
  "type": "node",
  "id": 1169655324,
  "lat": 50.0765492,
  "lon": 19.9933332
},
{
  "type": "node",
  "id": 1169655436,
  "lat": 50.0764530,
  "lon": 19.9932485
},
{
  "type": "node",
  "id": 1169655505,
  "lat": 50.0769453,
  "lon": 19.9937461
},
{
  "type": "node",
  "id": 1169655591,
  "lat": 50.0765145,
  "lon": 19.9934975
},
{
  "type": "node",
  "id": 1169655710,
  "lat": 50.0764721,
  "lon": 19.9931575
},
{
  "type": "node",
  "id": 1262680449,
  "lat": 50.0770174,
  "lon": 19.9938286
},
{
  "type": "node",
  "id": 1262680451,
  "lat": 50.0789627,
  "lon": 19.9912373
},
{
  "type": "node",
  "id": 1262680459,
  "lat": 50.0790876,
  "lon": 19.9935465
},
{
  "type": "node",
  "id": 1262680463,
  "lat": 50.0774631,
  "lon": 19.9937648
},
{
  "type": "node",
  "id": 1679460170,
  "lat": 50.0767390,
  "lon": 19.9900183
},
{
  "type": "node",
  "id": 1679460196,
  "lat": 50.0767987,
  "lon": 19.9898740
},
{
  "type": "node",
  "id": 1679460241,
  "lat": 50.0768909,
  "lon": 19.9901621
},
{
  "type": "node",
  "id": 1679460250,
  "lat": 50.0770682,
  "lon": 19.9893109
},
{
  "type": "node",
  "id": 1679460259,
  "lat": 50.0770938,
  "lon": 19.9897310
},
{
  "type": "node",
  "id": 1679460260,
  "lat": 50.0771030,
  "lon": 19.9899175
},
{
  "type": "node",
  "id": 1679460279,
  "lat": 50.0771572,
  "lon": 19.9904152
},
{
  "type": "node",
  "id": 1679460304,
  "lat": 50.0772335,
  "lon": 19.9897560
},
{
  "type": "node",
  "id": 1679460340,
  "lat": 50.0774376,
  "lon": 19.9899411
},
{
  "type": "node",
  "id": 1692479796,
  "lat": 50.0759519,
  "lon": 19.9936267
},
{
  "type": "node",
  "id": 1692479808,
  "lat": 50.0761294,
  "lon": 19.9937193
},
{
  "type": "node",
  "id": 1692479812,
  "lat": 50.0762873,
  "lon": 19.9908217
},
{
  "type": "node",
  "id": 1692479814,
  "lat": 50.0762959,
  "lon": 19.9937399
},
{
  "type": "node",
  "id": 1692479816,
  "lat": 50.0763250,
  "lon": 19.9908397
},
{
  "type": "node",
  "id": 1692479818,
  "lat": 50.0763480,
  "lon": 19.9909959
},
{
  "type": "node",
  "id": 1692479826,
  "lat": 50.0763775,
  "lon": 19.9908638
},
{
  "type": "node",
  "id": 1692479828,
  "lat": 50.0763995,
  "lon": 19.9910237
},
{
  "type": "node",
  "id": 1692479830,
  "lat": 50.0764289,
  "lon": 19.9908916
},
{
  "type": "node",
  "id": 1692479839,
  "lat": 50.0769908,
  "lon": 19.9889453
},
{
  "type": "node",
  "id": 1692479841,
  "lat": 50.0771894,
  "lon": 19.9887615
},
{
  "type": "node",
  "id": 1692479855,
  "lat": 50.0774660,
  "lon": 19.9885943
},
{
  "type": "node",
  "id": 1692479856,
  "lat": 50.0777506,
  "lon": 19.9894769
},
{
  "type": "node",
  "id": 1692479857,
  "lat": 50.0777570,
  "lon": 19.9895436
},
{
  "type": "node",
  "id": 1692479859,
  "lat": 50.0778278,
  "lon": 19.9896295
},
{
  "type": "node",
  "id": 1692479860,
  "lat": 50.0778782,
  "lon": 19.9896703
},
{
  "type": "node",
  "id": 1692479861,
  "lat": 50.0780150,
  "lon": 19.9897183
},
{
  "type": "node",
  "id": 1692479862,
  "lat": 50.0782947,
  "lon": 19.9897466
},
{
  "type": "node",
  "id": 1692479864,
  "lat": 50.0783908,
  "lon": 19.9897752
},
{
  "type": "node",
  "id": 1692479866,
  "lat": 50.0784630,
  "lon": 19.9898129
},
{
  "type": "node",
  "id": 1692479875,
  "lat": 50.0785837,
  "lon": 19.9899142
},
{
  "type": "node",
  "id": 1770404410,
  "lat": 50.0779994,
  "lon": 19.9936948
},
{
  "type": "node",
  "id": 1770404416,
  "lat": 50.0787184,
  "lon": 19.9935976
},
{
  "type": "node",
  "id": 2360485372,
  "lat": 50.0785740,
  "lon": 19.9899032
},
{
  "type": "node",
  "id": 2360485439,
  "lat": 50.0772735,
  "lon": 19.9903259
},
{
  "type": "node",
  "id": 2409354635,
  "lat": 50.0765182,
  "lon": 19.9906502
},
{
  "type": "node",
  "id": 2409354636,
  "lat": 50.0766778,
  "lon": 19.9902010
},
{
  "type": "node",
  "id": 2409354637,
  "lat": 50.0767224,
  "lon": 19.9902864
},
{
  "type": "node",
  "id": 2409354640,
  "lat": 50.0768137,
  "lon": 19.9900903
},
{
  "type": "node",
  "id": 2905885401,
  "lat": 50.0769018,
  "lon": 19.9896037
},
{
  "type": "node",
  "id": 2905885403,
  "lat": 50.0770090,
  "lon": 19.9902787
},
{
  "type": "node",
  "id": 2905885404,
  "lat": 50.0770326,
  "lon": 19.9892712
},
{
  "type": "node",
  "id": 2905885405,
  "lat": 50.0770451,
  "lon": 19.9897143
},
{
  "type": "node",
  "id": 2905885408,
  "lat": 50.0775103,
  "lon": 19.9897336
},
{
  "type": "node",
  "id": 2959413255,
  "lat": 50.0777526,
  "lon": 19.9894933
},
{
  "type": "node",
  "id": 3129551719,
  "lat": 50.0767290,
  "lon": 19.9902721
},
{
  "type": "node",
  "id": 3129649001,
  "lat": 50.0771307,
  "lon": 19.9934111
},
{
  "type": "node",
  "id": 3129649002,
  "lat": 50.0771414,
  "lon": 19.9936680
},
{
  "type": "node",
  "id": 3129649003,
  "lat": 50.0774246,
  "lon": 19.9927399
},
{
  "type": "node",
  "id": 3129649005,
  "lat": 50.0774589,
  "lon": 19.9914795
},
{
  "type": "node",
  "id": 3129649008,
  "lat": 50.0774715,
  "lon": 19.9914150
},
{
  "type": "node",
  "id": 3129649009,
  "lat": 50.0774874,
  "lon": 19.9913661
},
{
  "type": "node",
  "id": 3129649010,
  "lat": 50.0775006,
  "lon": 19.9913229
},
{
  "type": "node",
  "id": 3129649011,
  "lat": 50.0775346,
  "lon": 19.9921248
},
{
  "type": "node",
  "id": 3129649012,
  "lat": 50.0775215,
  "lon": 19.9912478
},
{
  "type": "node",
  "id": 3129649013,
  "lat": 50.0771930,
  "lon": 19.9920151
},
{
  "type": "node",
  "id": 3129649014,
  "lat": 50.0775615,
  "lon": 19.9934815
},
{
  "type": "node",
  "id": 3129649015,
  "lat": 50.0776259,
  "lon": 19.9921912
},
{
  "type": "node",
  "id": 3129649016,
  "lat": 50.0776466,
  "lon": 19.9933799
},
{
  "type": "node",
  "id": 3129649017,
  "lat": 50.0774560,
  "lon": 19.9920845
},
{
  "type": "node",
  "id": 3129649018,
  "lat": 50.0777250,
  "lon": 19.9916170
},
{
  "type": "node",
  "id": 3129649020,
  "lat": 50.0777530,
  "lon": 19.9926715
},
{
  "type": "node",
  "id": 3129649021,
  "lat": 50.0778074,
  "lon": 19.9910201
},
{
  "type": "node",
  "id": 3129649022,
  "lat": 50.0778263,
  "lon": 19.9914235
},
{
  "type": "node",
  "id": 3129649023,
  "lat": 50.0778447,
  "lon": 19.9923193
},
{
  "type": "node",
  "id": 3129649024,
  "lat": 50.0778474,
  "lon": 19.9921536
},
{
  "type": "node",
  "id": 3129649025,
  "lat": 50.0778753,
  "lon": 19.9933759
},
{
  "type": "node",
  "id": 3129649026,
  "lat": 50.0778939,
  "lon": 19.9907324
},
{
  "type": "node",
  "id": 3129649028,
  "lat": 50.0779160,
  "lon": 19.9911561
},
{
  "type": "node",
  "id": 3129649129,
  "lat": 50.0779338,
  "lon": 19.9925493
},
{
  "type": "node",
  "id": 3129649130,
  "lat": 50.0779364,
  "lon": 19.9908360
},
{
  "type": "node",
  "id": 3129649131,
  "lat": 50.0779476,
  "lon": 19.9919935
},
{
  "type": "node",
  "id": 3129649132,
  "lat": 50.0779976,
  "lon": 19.9933531
},
{
  "type": "node",
  "id": 3129649133,
  "lat": 50.0780096,
  "lon": 19.9924229
},
{
  "type": "node",
  "id": 3129649134,
  "lat": 50.0780122,
  "lon": 19.9917060
},
{
  "type": "node",
  "id": 3129649135,
  "lat": 50.0780189,
  "lon": 19.9909209
},
{
  "type": "node",
  "id": 3129649136,
  "lat": 50.0780242,
  "lon": 19.9915217
},
{
  "type": "node",
  "id": 3129649137,
  "lat": 50.0780388,
  "lon": 19.9910121
},
{
  "type": "node",
  "id": 3129649139,
  "lat": 50.0780893,
  "lon": 19.9933448
},
{
  "type": "node",
  "id": 3129649140,
  "lat": 50.0781465,
  "lon": 19.9914243
},
{
  "type": "node",
  "id": 3129649141,
  "lat": 50.0781465,
  "lon": 19.9921557
},
{
  "type": "node",
  "id": 3129649142,
  "lat": 50.0781797,
  "lon": 19.9933345
},
{
  "type": "node",
  "id": 3129649143,
  "lat": 50.0782116,
  "lon": 19.9920065
},
{
  "type": "node",
  "id": 3129649144,
  "lat": 50.0782542,
  "lon": 19.9918511
},
{
  "type": "node",
  "id": 3129649145,
  "lat": 50.0782608,
  "lon": 19.9931169
},
{
  "type": "node",
  "id": 3129649146,
  "lat": 50.0782755,
  "lon": 19.9933158
},
{
  "type": "node",
  "id": 3129649147,
  "lat": 50.0783725,
  "lon": 19.9933034
},
{
  "type": "node",
  "id": 3129649148,
  "lat": 50.0783858,
  "lon": 19.9931459
},
{
  "type": "node",
  "id": 3129649149,
  "lat": 50.0784789,
  "lon": 19.9932930
},
{
  "type": "node",
  "id": 3129649151,
  "lat": 50.0785634,
  "lon": 19.9909272
},
{
  "type": "node",
  "id": 3129649152,
  "lat": 50.0785547,
  "lon": 19.9913187
},
{
  "type": "node",
  "id": 3129649153,
  "lat": 50.0785959,
  "lon": 19.9932744
},
{
  "type": "node",
  "id": 3129649154,
  "lat": 50.0786504,
  "lon": 19.9916792
},
{
  "type": "node",
  "id": 3129649155,
  "lat": 50.0786544,
  "lon": 19.9909603
},
{
  "type": "node",
  "id": 3129649156,
  "lat": 50.0786544,
  "lon": 19.9914989
},
{
  "type": "node",
  "id": 3129649157,
  "lat": 50.0786597,
  "lon": 19.9912047
},
{
  "type": "node",
  "id": 3129649158,
  "lat": 50.0786756,
  "lon": 19.9932557
},
{
  "type": "node",
  "id": 3129649159,
  "lat": 50.0786796,
  "lon": 19.9918780
},
{
  "type": "node",
  "id": 3129649160,
  "lat": 50.0786761,
  "lon": 19.9903414
},
{
  "type": "node",
  "id": 3129649161,
  "lat": 50.0786996,
  "lon": 19.9920935
},
{
  "type": "node",
  "id": 3129649162,
  "lat": 50.0787142,
  "lon": 19.9922820
},
{
  "type": "node",
  "id": 3129649163,
  "lat": 50.0787231,
  "lon": 19.9906821
},
{
  "type": "node",
  "id": 3129649164,
  "lat": 50.0787182,
  "lon": 19.9924747
},
{
  "type": "node",
  "id": 3129649165,
  "lat": 50.0787335,
  "lon": 19.9903012
},
{
  "type": "node",
  "id": 3129649166,
  "lat": 50.0787208,
  "lon": 19.9926321
},
{
  "type": "node",
  "id": 3129649167,
  "lat": 50.0787235,
  "lon": 19.9928020
},
{
  "type": "node",
  "id": 3129649168,
  "lat": 50.0787461,
  "lon": 19.9912524
},
{
  "type": "node",
  "id": 3129649169,
  "lat": 50.0787708,
  "lon": 19.9902936
},
{
  "type": "node",
  "id": 3129649170,
  "lat": 50.0787780,
  "lon": 19.9914368
},
{
  "type": "node",
  "id": 3129649171,
  "lat": 50.0787820,
  "lon": 19.9916647
},
{
  "type": "node",
  "id": 3129649172,
  "lat": 50.0787886,
  "lon": 19.9918739
},
{
  "type": "node",
  "id": 3129649173,
  "lat": 50.0788219,
  "lon": 19.9919961
},
{
  "type": "node",
  "id": 3129649174,
  "lat": 50.0788272,
  "lon": 19.9906081
},
{
  "type": "node",
  "id": 3129649175,
  "lat": 50.0788312,
  "lon": 19.9902580
},
{
  "type": "node",
  "id": 3129649176,
  "lat": 50.0788338,
  "lon": 19.9921577
},
{
  "type": "node",
  "id": 3129649177,
  "lat": 50.0788365,
  "lon": 19.9923235
},
{
  "type": "node",
  "id": 3129649178,
  "lat": 50.0788418,
  "lon": 19.9924954
},
{
  "type": "node",
  "id": 3129649179,
  "lat": 50.0788551,
  "lon": 19.9926653
},
{
  "type": "node",
  "id": 3129649180,
  "lat": 50.0788671,
  "lon": 19.9928517
},
{
  "type": "node",
  "id": 3129649181,
  "lat": 50.0788697,
  "lon": 19.9930237
},
{
  "type": "node",
  "id": 3129649183,
  "lat": 50.0790578,
  "lon": 19.9899427
},
{
  "type": "node",
  "id": 3129649184,
  "lat": 50.0790910,
  "lon": 19.9904161
},
{
  "type": "node",
  "id": 3129649185,
  "lat": 50.0792724,
  "lon": 19.9903468
},
{
  "type": "node",
  "id": 3129698493,
  "lat": 50.0768761,
  "lon": 19.9904302
},
{
  "type": "node",
  "id": 3129702621,
  "lat": 50.0770918,
  "lon": 19.9896879
},
{
  "type": "node",
  "id": 3129788193,
  "lat": 50.0771715,
  "lon": 19.9894097
},
{
  "type": "node",
  "id": 3129788194,
  "lat": 50.0772283,
  "lon": 19.9892504
},
{
  "type": "node",
  "id": 3129788195,
  "lat": 50.0785647,
  "lon": 19.9898927
},
{
  "type": "node",
  "id": 3130757929,
  "lat": 50.0791919,
  "lon": 19.9895914
},
{
  "type": "node",
  "id": 3130757930,
  "lat": 50.0791955,
  "lon": 19.9895728
},
{
  "type": "node",
  "id": 3130757931,
  "lat": 50.0791983,
  "lon": 19.9895660
},
{
  "type": "node",
  "id": 3130757932,
  "lat": 50.0792460,
  "lon": 19.9899543
},
{
  "type": "node",
  "id": 3130757933,
  "lat": 50.0792466,
  "lon": 19.9899352
},
{
  "type": "node",
  "id": 3130757934,
  "lat": 50.0792473,
  "lon": 19.9899709
},
{
  "type": "node",
  "id": 3130757935,
  "lat": 50.0792498,
  "lon": 19.9899767
},
{
  "type": "node",
  "id": 3130757936,
  "lat": 50.0792500,
  "lon": 19.9899081
},
{
  "type": "node",
  "id": 3130757937,
  "lat": 50.0792551,
  "lon": 19.9899746
},
{
  "type": "node",
  "id": 3130757938,
  "lat": 50.0792620,
  "lon": 19.9899610
},
{
  "type": "node",
  "id": 3130757939,
  "lat": 50.0792642,
  "lon": 19.9896622
},
{
  "type": "node",
  "id": 3130757940,
  "lat": 50.0792686,
  "lon": 19.9899449
},
{
  "type": "node",
  "id": 3130757941,
  "lat": 50.0792715,
  "lon": 19.9896441
},
{
  "type": "node",
  "id": 3130757942,
  "lat": 50.0792730,
  "lon": 19.9896741
},
{
  "type": "node",
  "id": 3130757943,
  "lat": 50.0792737,
  "lon": 19.9896426
},
{
  "type": "node",
  "id": 3130757944,
  "lat": 50.0792754,
  "lon": 19.9897860
},
{
  "type": "node",
  "id": 3130757945,
  "lat": 50.0792758,
  "lon": 19.9896475
},
{
  "type": "node",
  "id": 3130757946,
  "lat": 50.0792758,
  "lon": 19.9896536
},
{
  "type": "node",
  "id": 3130757947,
  "lat": 50.0792758,
  "lon": 19.9899197
},
{
  "type": "node",
  "id": 3130757948,
  "lat": 50.0792882,
  "lon": 19.9896489
},
{
  "type": "node",
  "id": 3130757949,
  "lat": 50.0792890,
  "lon": 19.9896397
},
{
  "type": "node",
  "id": 3130757950,
  "lat": 50.0792930,
  "lon": 19.9894779
},
{
  "type": "node",
  "id": 3130757951,
  "lat": 50.0792957,
  "lon": 19.9896859
},
{
  "type": "node",
  "id": 3130757952,
  "lat": 50.0792975,
  "lon": 19.9894572
},
{
  "type": "node",
  "id": 3130757953,
  "lat": 50.0792977,
  "lon": 19.9896535
},
{
  "type": "node",
  "id": 3130757954,
  "lat": 50.0792994,
  "lon": 19.9896492
},
{
  "type": "node",
  "id": 3130757955,
  "lat": 50.0792999,
  "lon": 19.9897969
},
{
  "type": "node",
  "id": 3130757956,
  "lat": 50.0793028,
  "lon": 19.9895902
},
{
  "type": "node",
  "id": 3130757957,
  "lat": 50.0793032,
  "lon": 19.9896512
},
{
  "type": "node",
  "id": 3130757958,
  "lat": 50.0793113,
  "lon": 19.9895958
},
{
  "type": "node",
  "id": 3130757959,
  "lat": 50.0793142,
  "lon": 19.9895846
},
{
  "type": "node",
  "id": 3130757960,
  "lat": 50.0793200,
  "lon": 19.9896968
},
{
  "type": "node",
  "id": 3130757961,
  "lat": 50.0793210,
  "lon": 19.9895825
},
{
  "type": "node",
  "id": 3130757962,
  "lat": 50.0793266,
  "lon": 19.9896615
},
{
  "type": "node",
  "id": 3130757963,
  "lat": 50.0793269,
  "lon": 19.9895642
},
{
  "type": "node",
  "id": 3130757964,
  "lat": 50.0793303,
  "lon": 19.9896685
},
{
  "type": "node",
  "id": 3130757965,
  "lat": 50.0793305,
  "lon": 19.9896633
},
{
  "type": "node",
  "id": 3130757966,
  "lat": 50.0793373,
  "lon": 19.9895894
},
{
  "type": "node",
  "id": 3130757967,
  "lat": 50.0793384,
  "lon": 19.9895185
},
{
  "type": "node",
  "id": 3130757968,
  "lat": 50.0793392,
  "lon": 19.9895691
},
{
  "type": "node",
  "id": 3130757969,
  "lat": 50.0793398,
  "lon": 19.9896732
},
{
  "type": "node",
  "id": 3130757970,
  "lat": 50.0793404,
  "lon": 19.9896090
},
{
  "type": "node",
  "id": 3130757971,
  "lat": 50.0793412,
  "lon": 19.9895074
},
{
  "type": "node",
  "id": 3130757972,
  "lat": 50.0793421,
  "lon": 19.9895972
},
{
  "type": "node",
  "id": 3130757973,
  "lat": 50.0793425,
  "lon": 19.9896649
},
{
  "type": "node",
  "id": 3130757974,
  "lat": 50.0793430,
  "lon": 19.9897074
},
{
  "type": "node",
  "id": 3130757975,
  "lat": 50.0793464,
  "lon": 19.9895014
},
{
  "type": "node",
  "id": 3130757976,
  "lat": 50.0793466,
  "lon": 19.9895215
},
{
  "type": "node",
  "id": 3138384504,
  "lat": 50.0771946,
  "lon": 19.9935951
},
{
  "type": "node",
  "id": 3138384505,
  "lat": 50.0772087,
  "lon": 19.9936028
},
{
  "type": "node",
  "id": 3138384506,
  "lat": 50.0772141,
  "lon": 19.9937041
},
{
  "type": "node",
  "id": 3138384507,
  "lat": 50.0772342,
  "lon": 19.9937171
},
{
  "type": "node",
  "id": 3138384508,
  "lat": 50.0772557,
  "lon": 19.9937261
},
{
  "type": "node",
  "id": 3138384509,
  "lat": 50.0772778,
  "lon": 19.9937368
},
{
  "type": "node",
  "id": 3138384510,
  "lat": 50.0772932,
  "lon": 19.9936476
},
{
  "type": "node",
  "id": 3138384511,
  "lat": 50.0773010,
  "lon": 19.9937475
},
{
  "type": "node",
  "id": 3138384512,
  "lat": 50.0773068,
  "lon": 19.9936560
},
{
  "type": "node",
  "id": 3138384513,
  "lat": 50.0773182,
  "lon": 19.9937626
},
{
  "type": "node",
  "id": 3138384516,
  "lat": 50.0773610,
  "lon": 19.9936113
},
{
  "type": "node",
  "id": 3138384525,
  "lat": 50.0775390,
  "lon": 19.9936888
},
{
  "type": "node",
  "id": 3138384526,
  "lat": 50.0775846,
  "lon": 19.9936210
},
{
  "type": "node",
  "id": 3138384527,
  "lat": 50.0776198,
  "lon": 19.9935855
},
{
  "type": "node",
  "id": 3138384528,
  "lat": 50.0776550,
  "lon": 19.9935640
},
{
  "type": "node",
  "id": 3138392529,
  "lat": 50.0776861,
  "lon": 19.9935597
},
{
  "type": "node",
  "id": 3138392530,
  "lat": 50.0777213,
  "lon": 19.9935662
},
{
  "type": "node",
  "id": 3138392531,
  "lat": 50.0777461,
  "lon": 19.9935845
},
{
  "type": "node",
  "id": 3573386393,
  "lat": 50.0781795,
  "lon": 19.9905668
},
{
  "type": "node",
  "id": 3573386394,
  "lat": 50.0781802,
  "lon": 19.9904911
},
{
  "type": "node",
  "id": 3573386395,
  "lat": 50.0781291,
  "lon": 19.9905671
},
{
  "type": "node",
  "id": 3573386396,
  "lat": 50.0781887,
  "lon": 19.9905405
},
{
  "type": "node",
  "id": 3573386397,
  "lat": 50.0781663,
  "lon": 19.9905801
},
{
  "type": "node",
  "id": 3573386398,
  "lat": 50.0781864,
  "lon": 19.9905510
},
{
  "type": "node",
  "id": 3573386399,
  "lat": 50.0781895,
  "lon": 19.9905251
},
{
  "type": "node",
  "id": 3573386400,
  "lat": 50.0781218,
  "lon": 19.9905063
},
{
  "type": "node",
  "id": 3573386401,
  "lat": 50.0781519,
  "lon": 19.9904734
},
{
  "type": "node",
  "id": 3573386402,
  "lat": 50.0781395,
  "lon": 19.9904783
},
{
  "type": "node",
  "id": 3573386403,
  "lat": 50.0781304,
  "lon": 19.9904877
},
{
  "type": "node",
  "id": 3573386404,
  "lat": 50.0781224,
  "lon": 19.9905525
},
{
  "type": "node",
  "id": 3573386405,
  "lat": 50.0781439,
  "lon": 19.9905810
},
{
  "type": "node",
  "id": 3573386406,
  "lat": 50.0781874,
  "lon": 19.9905097
},
{
  "type": "node",
  "id": 3573386407,
  "lat": 50.0781189,
  "lon": 19.9905310
},
{
  "type": "node",
  "id": 3573386408,
  "lat": 50.0781558,
  "lon": 19.9905834
},
{
  "type": "node",
  "id": 3573386409,
  "lat": 50.0781672,
  "lon": 19.9904772
},
{
  "type": "node",
  "id": 3623200008,
  "lat": 50.0769338,
  "lon": 19.9938167
},
{
  "type": "node",
  "id": 3623200010,
  "lat": 50.0771737,
  "lon": 19.9926823
},
{
  "type": "node",
  "id": 3623200013,
  "lat": 50.0772848,
  "lon": 19.9928042
},
{
  "type": "node",
  "id": 3623200015,
  "lat": 50.0773720,
  "lon": 19.9919697
},
{
  "type": "node",
  "id": 3623200017,
  "lat": 50.0774455,
  "lon": 19.9920056
},
{
  "type": "node",
  "id": 3623200018,
  "lat": 50.0774698,
  "lon": 19.9920183
},
{
  "type": "node",
  "id": 3623200022,
  "lat": 50.0775014,
  "lon": 19.9918837
},
{
  "type": "node",
  "id": 3623200024,
  "lat": 50.0775096,
  "lon": 19.9930370
},
{
  "type": "node",
  "id": 3623200025,
  "lat": 50.0775303,
  "lon": 19.9918194
},
{
  "type": "node",
  "id": 3623200031,
  "lat": 50.0776605,
  "lon": 19.9921178
},
{
  "type": "node",
  "id": 3623200032,
  "lat": 50.0776911,
  "lon": 19.9921077
},
{
  "type": "node",
  "id": 3623200034,
  "lat": 50.0777088,
  "lon": 19.9919140
},
{
  "type": "node",
  "id": 3623200035,
  "lat": 50.0777191,
  "lon": 19.9920790
},
{
  "type": "node",
  "id": 3623200036,
  "lat": 50.0777241,
  "lon": 19.9919314
},
{
  "type": "node",
  "id": 3623200037,
  "lat": 50.0777347,
  "lon": 19.9920140
},
{
  "type": "node",
  "id": 3623200038,
  "lat": 50.0777359,
  "lon": 19.9919562
},
{
  "type": "node",
  "id": 3623200039,
  "lat": 50.0777365,
  "lon": 19.9919819
},
{
  "type": "node",
  "id": 3623219991,
  "lat": 50.0770821,
  "lon": 19.9934956
},
{
  "type": "node",
  "id": 3623219992,
  "lat": 50.0771817,
  "lon": 19.9930385
},
{
  "type": "node",
  "id": 3623220493,
  "lat": 50.0772120,
  "lon": 19.9929565
},
{
  "type": "node",
  "id": 3623220494,
  "lat": 50.0772497,
  "lon": 19.9929108
},
{
  "type": "node",
  "id": 3623220495,
  "lat": 50.0772482,
  "lon": 19.9923426
},
{
  "type": "node",
  "id": 3623220496,
  "lat": 50.0772939,
  "lon": 19.9928346
},
{
  "type": "node",
  "id": 3623220497,
  "lat": 50.0773171,
  "lon": 19.9928214
},
{
  "type": "node",
  "id": 3623220498,
  "lat": 50.0773537,
  "lon": 19.9936416
},
{
  "type": "node",
  "id": 3623220500,
  "lat": 50.0773830,
  "lon": 19.9936236
},
{
  "type": "node",
  "id": 3623220502,
  "lat": 50.0774655,
  "lon": 19.9929035
},
{
  "type": "node",
  "id": 3623220503,
  "lat": 50.0774874,
  "lon": 19.9929366
},
{
  "type": "node",
  "id": 3623220504,
  "lat": 50.0775004,
  "lon": 19.9929734
},
{
  "type": "node",
  "id": 3623220505,
  "lat": 50.0776166,
  "lon": 19.9925367
},
{
  "type": "node",
  "id": 3623241168,
  "lat": 50.0774622,
  "lon": 19.9931291
},
{
  "type": "node",
  "id": 3623241169,
  "lat": 50.0775627,
  "lon": 19.9933985
},
{
  "type": "node",
  "id": 3623241170,
  "lat": 50.0776214,
  "lon": 19.9933288
},
{
  "type": "node",
  "id": 3623241171,
  "lat": 50.0777704,
  "lon": 19.9933569
},
{
  "type": "node",
  "id": 3623241174,
  "lat": 50.0787017,
  "lon": 19.9906386
},
{
  "type": "node",
  "id": 3623241177,
  "lat": 50.0789308,
  "lon": 19.9904775
},
{
  "type": "node",
  "id": 3623241178,
  "lat": 50.0790165,
  "lon": 19.9901045
},
{
  "type": "node",
  "id": 3623241179,
  "lat": 50.0790757,
  "lon": 19.9903795
},
{
  "type": "node",
  "id": 3623241181,
  "lat": 50.0792698,
  "lon": 19.9902692
},
{
  "type": "node",
  "id": 3623317597,
  "lat": 50.0776832,
  "lon": 19.9929885
},
{
  "type": "node",
  "id": 3623366345,
  "lat": 50.0777912,
  "lon": 19.9934758
},
{
  "type": "node",
  "id": 3623366346,
  "lat": 50.0778552,
  "lon": 19.9935133
},
{
  "type": "node",
  "id": 3623366347,
  "lat": 50.0779055,
  "lon": 19.9935236
},
{
  "type": "node",
  "id": 3623366348,
  "lat": 50.0779826,
  "lon": 19.9935168
},
{
  "type": "node",
  "id": 3623958900,
  "lat": 50.0761896,
  "lon": 19.9925202
},
{
  "type": "node",
  "id": 3623958901,
  "lat": 50.0763341,
  "lon": 19.9927669
},
{
  "type": "node",
  "id": 3623958902,
  "lat": 50.0763672,
  "lon": 19.9926128
},
{
  "type": "node",
  "id": 3623958903,
  "lat": 50.0764875,
  "lon": 19.9928521
},
{
  "type": "node",
  "id": 3623958904,
  "lat": 50.0766941,
  "lon": 19.9924457
},
{
  "type": "node",
  "id": 3623958905,
  "lat": 50.0768308,
  "lon": 19.9936841
},
{
  "type": "node",
  "id": 3623958906,
  "lat": 50.0768504,
  "lon": 19.9917333
},
{
  "type": "node",
  "id": 3623958907,
  "lat": 50.0769140,
  "lon": 19.9933100
},
{
  "type": "node",
  "id": 3623958908,
  "lat": 50.0770286,
  "lon": 19.9933720
},
{
  "type": "node",
  "id": 3623958912,
  "lat": 50.0771184,
  "lon": 19.9927825
},
{
  "type": "node",
  "id": 3623958914,
  "lat": 50.0771402,
  "lon": 19.9926832
},
{
  "type": "node",
  "id": 3623958915,
  "lat": 50.0771494,
  "lon": 19.9928222
},
{
  "type": "node",
  "id": 3623958916,
  "lat": 50.0771539,
  "lon": 19.9928014
},
{
  "type": "node",
  "id": 3623958917,
  "lat": 50.0771674,
  "lon": 19.9927400
},
{
  "type": "node",
  "id": 3623958918,
  "lat": 50.0771794,
  "lon": 19.9926853
},
{
  "type": "node",
  "id": 3623958919,
  "lat": 50.0771816,
  "lon": 19.9928394
},
{
  "type": "node",
  "id": 3623958920,
  "lat": 50.0771996,
  "lon": 19.9927572
},
{
  "type": "node",
  "id": 3623958921,
  "lat": 50.0772666,
  "lon": 19.9909296
},
{
  "type": "node",
  "id": 3623958922,
  "lat": 50.0772708,
  "lon": 19.9909337
},
{
  "type": "node",
  "id": 3623958923,
  "lat": 50.0772810,
  "lon": 19.9909082
},
{
  "type": "node",
  "id": 3623958924,
  "lat": 50.0772970,
  "lon": 19.9919711
},
{
  "type": "node",
  "id": 3623958925,
  "lat": 50.0773225,
  "lon": 19.9918548
},
{
  "type": "node",
  "id": 3623958926,
  "lat": 50.0773227,
  "lon": 19.9920029
},
{
  "type": "node",
  "id": 3623958927,
  "lat": 50.0773274,
  "lon": 19.9920054
},
{
  "type": "node",
  "id": 3623958928,
  "lat": 50.0773391,
  "lon": 19.9919521
},
{
  "type": "node",
  "id": 3623958929,
  "lat": 50.0773565,
  "lon": 19.9918729
},
{
  "type": "node",
  "id": 3623958930,
  "lat": 50.0773727,
  "lon": 19.9906784
},
{
  "type": "node",
  "id": 3623958931,
  "lat": 50.0773795,
  "lon": 19.9906469
},
{
  "type": "node",
  "id": 3623958932,
  "lat": 50.0773837,
  "lon": 19.9906509
},
{
  "type": "node",
  "id": 3623958934,
  "lat": 50.0775086,
  "lon": 19.9904356
},
{
  "type": "node",
  "id": 3623958935,
  "lat": 50.0775609,
  "lon": 19.9912073
},
{
  "type": "node",
  "id": 3623958936,
  "lat": 50.0775689,
  "lon": 19.9911872
},
{
  "type": "node",
  "id": 3623958937,
  "lat": 50.0775699,
  "lon": 19.9912226
},
{
  "type": "node",
  "id": 3623958938,
  "lat": 50.0775718,
  "lon": 19.9912179
},
{
  "type": "node",
  "id": 3623958939,
  "lat": 50.0775743,
  "lon": 19.9912269
},
{
  "type": "node",
  "id": 3623958940,
  "lat": 50.0775873,
  "lon": 19.9911806
},
{
  "type": "node",
  "id": 3623958941,
  "lat": 50.0775913,
  "lon": 19.9911845
},
{
  "type": "node",
  "id": 3623958942,
  "lat": 50.0775940,
  "lon": 19.9902182
},
{
  "type": "node",
  "id": 3623958943,
  "lat": 50.0776245,
  "lon": 19.9901391
},
{
  "type": "node",
  "id": 3623958944,
  "lat": 50.0776616,
  "lon": 19.9909583
},
{
  "type": "node",
  "id": 3623958945,
  "lat": 50.0776661,
  "lon": 19.9909833
},
{
  "type": "node",
  "id": 3623958946,
  "lat": 50.0776698,
  "lon": 19.9909376
},
{
  "type": "node",
  "id": 3623958947,
  "lat": 50.0776704,
  "lon": 19.9909875
},
{
  "type": "node",
  "id": 3623958948,
  "lat": 50.0776805,
  "lon": 19.9909479
},
{
  "type": "node",
  "id": 3623958949,
  "lat": 50.0776827,
  "lon": 19.9909423
},
{
  "type": "node",
  "id": 3623958950,
  "lat": 50.0776868,
  "lon": 19.9909463
},
{
  "type": "node",
  "id": 3623958951,
  "lat": 50.0777104,
  "lon": 19.9899217
},
{
  "type": "node",
  "id": 3623958952,
  "lat": 50.0777869,
  "lon": 19.9907012
},
{
  "type": "node",
  "id": 3623958953,
  "lat": 50.0778723,
  "lon": 19.9904838
},
{
  "type": "node",
  "id": 3623958954,
  "lat": 50.0779032,
  "lon": 19.9904063
},
{
  "type": "node",
  "id": 3623958955,
  "lat": 50.0779461,
  "lon": 19.9902976
},
{
  "type": "node",
  "id": 3623958956,
  "lat": 50.0779890,
  "lon": 19.9901889
},
{
  "type": "node",
  "id": 3623958957,
  "lat": 50.0787429,
  "lon": 19.9930774
},
{
  "type": "node",
  "id": 4266973701,
  "lat": 50.0771307,
  "lon": 19.9914385
},
{
  "type": "node",
  "id": 4266973702,
  "lat": 50.0771619,
  "lon": 19.9912989
},
{
  "type": "node",
  "id": 4266973703,
  "lat": 50.0771791,
  "lon": 19.9914655
},
{
  "type": "node",
  "id": 4266973704,
  "lat": 50.0772141,
  "lon": 19.9913308
},
{
  "type": "node",
  "id": 4273750770,
  "lat": 50.0759569,
  "lon": 19.9922844
},
{
  "type": "node",
  "id": 4273750786,
  "lat": 50.0763604,
  "lon": 19.9908559
},
{
  "type": "node",
  "id": 4277346772,
  "lat": 50.0768828,
  "lon": 19.9896521
},
{
  "type": "node",
  "id": 4277346780,
  "lat": 50.0769210,
  "lon": 19.9895548
},
{
  "type": "node",
  "id": 4277346781,
  "lat": 50.0770010,
  "lon": 19.9902710
},
{
  "type": "node",
  "id": 4277346782,
  "lat": 50.0770222,
  "lon": 19.9902914
},
{
  "type": "node",
  "id": 4277346783,
  "lat": 50.0770784,
  "lon": 19.9893250
},
{
  "type": "node",
  "id": 4277346784,
  "lat": 50.0770856,
  "lon": 19.9929391
},
{
  "type": "node",
  "id": 4277346785,
  "lat": 50.0772154,
  "lon": 19.9904693
},
{
  "type": "node",
  "id": 4277346786,
  "lat": 50.0772626,
  "lon": 19.9903523
},
{
  "type": "node",
  "id": 4277346787,
  "lat": 50.0772882,
  "lon": 19.9895586
},
{
  "type": "node",
  "id": 4277346788,
  "lat": 50.0772960,
  "lon": 19.9895302
},
{
  "type": "node",
  "id": 4277353791,
  "lat": 50.0773466,
  "lon": 19.9901432
},
{
  "type": "node",
  "id": 4277353795,
  "lat": 50.0774292,
  "lon": 19.9899334
},
{
  "type": "node",
  "id": 4277354049,
  "lat": 50.0781589,
  "lon": 19.9904751
},
{
  "type": "node",
  "id": 4277394049,
  "lat": 50.0772765,
  "lon": 19.9909047
},
{
  "type": "node",
  "id": 4277394053,
  "lat": 50.0776784,
  "lon": 19.9909675
},
{
  "type": "node",
  "id": 4277506745,
  "lat": 50.0763906,
  "lon": 19.9925190
},
{
  "type": "node",
  "id": 4277506746,
  "lat": 50.0763944,
  "lon": 19.9910608
},
{
  "type": "node",
  "id": 4277506747,
  "lat": 50.0764311,
  "lon": 19.9905380
},
{
  "type": "node",
  "id": 4277506748,
  "lat": 50.0764686,
  "lon": 19.9921492
},
{
  "type": "node",
  "id": 4277506749,
  "lat": 50.0764731,
  "lon": 19.9921282
},
{
  "type": "node",
  "id": 4277506750,
  "lat": 50.0764773,
  "lon": 19.9921089
},
{
  "type": "node",
  "id": 4277506751,
  "lat": 50.0764937,
  "lon": 19.9925849
},
{
  "type": "node",
  "id": 4277506752,
  "lat": 50.0765099,
  "lon": 19.9925900
},
{
  "type": "node",
  "id": 4277506753,
  "lat": 50.0765224,
  "lon": 19.9925891
},
{
  "type": "node",
  "id": 4277506754,
  "lat": 50.0765316,
  "lon": 19.9925756
},
{
  "type": "node",
  "id": 4277506755,
  "lat": 50.0765886,
  "lon": 19.9915965
},
{
  "type": "node",
  "id": 4277506756,
  "lat": 50.0765933,
  "lon": 19.9915749
},
{
  "type": "node",
  "id": 4277506757,
  "lat": 50.0765969,
  "lon": 19.9915585
},
{
  "type": "node",
  "id": 4277506758,
  "lat": 50.0766200,
  "lon": 19.9923990
},
{
  "type": "node",
  "id": 4277506759,
  "lat": 50.0766330,
  "lon": 19.9923568
},
{
  "type": "node",
  "id": 4277506760,
  "lat": 50.0766357,
  "lon": 19.9923331
},
{
  "type": "node",
  "id": 4277506761,
  "lat": 50.0766433,
  "lon": 19.9923086
},
{
  "type": "node",
  "id": 4277506764,
  "lat": 50.0767696,
  "lon": 19.9917477
},
{
  "type": "node",
  "id": 4277506765,
  "lat": 50.0767761,
  "lon": 19.9917164
},
{
  "type": "node",
  "id": 4277506767,
  "lat": 50.0768358,
  "lon": 19.9913979
},
{
  "type": "node",
  "id": 4277506768,
  "lat": 50.0768374,
  "lon": 19.9914477
},
{
  "type": "node",
  "id": 4277506769,
  "lat": 50.0768401,
  "lon": 19.9914207
},
{
  "type": "node",
  "id": 4277508435,
  "lat": 50.0767054,
  "lon": 19.9923944
},
{
  "type": "node",
  "id": 4277508436,
  "lat": 50.0767120,
  "lon": 19.9923640
},
{
  "type": "node",
  "id": 4277508445,
  "lat": 50.0773443,
  "lon": 19.9918664
},
{
  "type": "node",
  "id": 4277508446,
  "lat": 50.0773536,
  "lon": 19.9918583
},
{
  "type": "node",
  "id": 4277508448,
  "lat": 50.0773788,
  "lon": 19.9917394
},
{
  "type": "node",
  "id": 4277508450,
  "lat": 50.0773857,
  "lon": 19.9919764
},
{
  "type": "node",
  "id": 4277508451,
  "lat": 50.0774052,
  "lon": 19.9918850
},
{
  "type": "node",
  "id": 4277508452,
  "lat": 50.0774224,
  "lon": 19.9919943
},
{
  "type": "node",
  "id": 4277508453,
  "lat": 50.0774506,
  "lon": 19.9917772
},
{
  "type": "node",
  "id": 4277508454,
  "lat": 50.0774528,
  "lon": 19.9918617
},
{
  "type": "node",
  "id": 5819273735,
  "lat": 50.0774989,
  "lon": 19.9921715
},
{
  "type": "node",
  "id": 5819273736,
  "lat": 50.0770561,
  "lon": 19.9906909
},
{
  "type": "node",
  "id": 5819273737,
  "lat": 50.0769806,
  "lon": 19.9905522
},
{
  "type": "node",
  "id": 5819273738,
  "lat": 50.0774315,
  "lon": 19.9921275
},
{
  "type": "node",
  "id": 5819273739,
  "lat": 50.0778296,
  "lon": 19.9909854
},
{
  "type": "node",
  "id": 5819273740,
  "lat": 50.0772294,
  "lon": 19.9907475
},
{
  "type": "node",
  "id": 5819273741,
  "lat": 50.0771920,
  "lon": 19.9927365
},
{
  "type": "node",
  "id": 5819273742,
  "lat": 50.0791138,
  "lon": 19.9899693
},
{
  "type": "node",
  "id": 5819273743,
  "lat": 50.0782208,
  "lon": 19.9932032
},
{
  "type": "node",
  "id": 5819273745,
  "lat": 50.0777482,
  "lon": 19.9911132
},
{
  "type": "node",
  "id": 5819273747,
  "lat": 50.0770471,
  "lon": 19.9903644
},
{
  "type": "node",
  "id": 5819273748,
  "lat": 50.0771351,
  "lon": 19.9908364
},
{
  "type": "node",
  "id": 5819273750,
  "lat": 50.0772529,
  "lon": 19.9906581
},
{
  "type": "node",
  "id": 5819273751,
  "lat": 50.0781346,
  "lon": 19.9913058
},
{
  "type": "node",
  "id": 5819273752,
  "lat": 50.0771585,
  "lon": 19.9936194
},
{
  "type": "node",
  "id": 5819276653,
  "lat": 50.0769826,
  "lon": 19.9904278
},
{
  "type": "node",
  "id": 5819276654,
  "lat": 50.0777958,
  "lon": 19.9916369
},
{
  "type": "node",
  "id": 5819276655,
  "lat": 50.0775924,
  "lon": 19.9933142
},
{
  "type": "node",
  "id": 5819276656,
  "lat": 50.0777834,
  "lon": 19.9916494
},
{
  "type": "node",
  "id": 5819276657,
  "lat": 50.0769919,
  "lon": 19.9904048
},
{
  "type": "node",
  "id": 5819276659,
  "lat": 50.0774250,
  "lon": 19.9919090
},
{
  "type": "node",
  "id": 5819276660,
  "lat": 50.0778561,
  "lon": 19.9912372
},
{
  "type": "node",
  "id": 5819276661,
  "lat": 50.0779518,
  "lon": 19.9917427
},
{
  "type": "node",
  "id": 5819276662,
  "lat": 50.0779016,
  "lon": 19.9913177
},
{
  "type": "node",
  "id": 5819276663,
  "lat": 50.0778630,
  "lon": 19.9914380
},
{
  "type": "node",
  "id": 5819276664,
  "lat": 50.0785087,
  "lon": 19.9910455
},
{
  "type": "node",
  "id": 5819276665,
  "lat": 50.0778779,
  "lon": 19.9920595
},
{
  "type": "node",
  "id": 5819276666,
  "lat": 50.0771849,
  "lon": 19.9927147
},
{
  "type": "node",
  "id": 5819276667,
  "lat": 50.0777248,
  "lon": 19.9927106
},
{
  "type": "node",
  "id": 5819276668,
  "lat": 50.0775962,
  "lon": 19.9922753
},
{
  "type": "node",
  "id": 5819276669,
  "lat": 50.0779264,
  "lon": 19.9910981
},
{
  "type": "node",
  "id": 5819276670,
  "lat": 50.0789414,
  "lon": 19.9905169
},
{
  "type": "node",
  "id": 5819276671,
  "lat": 50.0776238,
  "lon": 19.9930592
},
{
  "type": "node",
  "id": 5819276672,
  "lat": 50.0782395,
  "lon": 19.9932032
},
{
  "type": "node",
  "id": 7195114667,
  "lat": 50.0766775,
  "lon": 19.9908855
},
{
  "type": "node",
  "id": 7195114668,
  "lat": 50.0767032,
  "lon": 19.9909421
},
{
  "type": "node",
  "id": 7195114669,
  "lat": 50.0766938,
  "lon": 19.9908674
},
{
  "type": "node",
  "id": 7195114670,
  "lat": 50.0767196,
  "lon": 19.9909240
},
{
  "type": "node",
  "id": 4546111164,
  "lat": 50.0782359,
  "lon": 20.0010568
},
{
  "type": "node",
  "id": 6016404632,
  "lat": 50.0781874,
  "lon": 20.0009402
},
{
  "type": "node",
  "id": 1692479877,
  "lat": 50.0794156,
  "lon": 19.9893388
},
{
  "type": "node",
  "id": 1692479878,
  "lat": 50.0795520,
  "lon": 19.9899313
},
{
  "type": "node",
  "id": 1692479879,
  "lat": 50.0795695,
  "lon": 19.9900062
},
{
  "type": "node",
  "id": 1692479880,
  "lat": 50.0795882,
  "lon": 19.9900866
},
{
  "type": "node",
  "id": 1692479881,
  "lat": 50.0797607,
  "lon": 19.9908801
},
{
  "type": "node",
  "id": 2360485610,
  "lat": 50.0797240,
  "lon": 19.9906889
},
{
  "type": "node",
  "id": 3129649186,
  "lat": 50.0794547,
  "lon": 19.9906143
},
{
  "type": "node",
  "id": 3129649187,
  "lat": 50.0794574,
  "lon": 19.9902828
},
{
  "type": "node",
  "id": 3129649188,
  "lat": 50.0795730,
  "lon": 19.9905708
},
{
  "type": "node",
  "id": 3130757977,
  "lat": 50.0793482,
  "lon": 19.9896880
},
{
  "type": "node",
  "id": 3130757978,
  "lat": 50.0793484,
  "lon": 19.9895098
},
{
  "type": "node",
  "id": 3130757979,
  "lat": 50.0793494,
  "lon": 19.9896119
},
{
  "type": "node",
  "id": 3130757980,
  "lat": 50.0793505,
  "lon": 19.9896830
},
{
  "type": "node",
  "id": 3130757981,
  "lat": 50.0793540,
  "lon": 19.9896809
},
{
  "type": "node",
  "id": 3130757982,
  "lat": 50.0793546,
  "lon": 19.9897055
},
{
  "type": "node",
  "id": 3130757983,
  "lat": 50.0793552,
  "lon": 19.9896842
},
{
  "type": "node",
  "id": 3130757984,
  "lat": 50.0793987,
  "lon": 19.9895287
},
{
  "type": "node",
  "id": 3130757985,
  "lat": 50.0794027,
  "lon": 19.9895078
},
{
  "type": "node",
  "id": 3130757986,
  "lat": 50.0794398,
  "lon": 19.9897119
},
{
  "type": "node",
  "id": 3130757987,
  "lat": 50.0794438,
  "lon": 19.9896935
},
{
  "type": "node",
  "id": 3130757988,
  "lat": 50.0794440,
  "lon": 19.9896855
},
{
  "type": "node",
  "id": 3623241182,
  "lat": 50.0794319,
  "lon": 19.9901756
},
{
  "type": "node",
  "id": 3623985951,
  "lat": 50.0796376,
  "lon": 19.9903057
},
{
  "type": "node",
  "id": 3623985953,
  "lat": 50.0797188,
  "lon": 19.9906659
},
{
  "type": "node",
  "id": 4546111145,
  "lat": 50.0785529,
  "lon": 20.0018534
},
{
  "type": "node",
  "id": 4546111163,
  "lat": 50.0785357,
  "lon": 20.0017859
},
{
  "type": "node",
  "id": 4630471328,
  "lat": 50.0784316,
  "lon": 20.0023418
},
{
  "type": "node",
  "id": 4630471329,
  "lat": 50.0782596,
  "lon": 20.0029032
},
{
  "type": "node",
  "id": 4630471330,
  "lat": 50.0775718,
  "lon": 20.0035922
},
{
  "type": "node",
  "id": 4630471331,
  "lat": 50.0773917,
  "lon": 20.0036687
},
{
  "type": "node",
  "id": 4630471332,
  "lat": 50.0768881,
  "lon": 20.0026416
},
{
  "type": "node",
  "id": 6016404631,
  "lat": 50.0766778,
  "lon": 20.0022331
},
{
  "type": "node",
  "id": 6016404633,
  "lat": 50.0769446,
  "lon": 20.0018522
},
{
  "type": "node",
  "id": 6016404634,
  "lat": 50.0767587,
  "lon": 20.0020185
},
{
  "type": "node",
  "id": 6016408620,
  "lat": 50.0768214,
  "lon": 20.0025121
},
{
  "type": "node",
  "id": 3450772834,
  "lat": 50.0817511,
  "lon": 20.0551397
},
{
  "type": "node",
  "id": 3450774262,
  "lat": 50.0818072,
  "lon": 20.0554445
},
{
  "type": "node",
  "id": 3450774267,
  "lat": 50.0818286,
  "lon": 20.0554306
},
{
  "type": "node",
  "id": 3450774818,
  "lat": 50.0818292,
  "lon": 20.0555272
},
{
  "type": "node",
  "id": 3450774829,
  "lat": 50.0819218,
  "lon": 20.0554674
},
{
  "type": "node",
  "id": 3450775051,
  "lat": 50.0818558,
  "lon": 20.0550719
},
{
  "type": "node",
  "id": 3450775056,
  "lat": 50.0818911,
  "lon": 20.0553521
},
{
  "type": "node",
  "id": 3450775060,
  "lat": 50.0819247,
  "lon": 20.0553303
},
{
  "type": "node",
  "id": 277365673,
  "lat": 50.2220087,
  "lon": 19.8331735
},
{
  "type": "node",
  "id": 277365676,
  "lat": 50.2227959,
  "lon": 19.8321815
},
{
  "type": "node",
  "id": 4225612449,
  "lat": 50.2218043,
  "lon": 19.8328853
},
{
  "type": "node",
  "id": 4225612450,
  "lat": 50.2218137,
  "lon": 19.8329476
},
{
  "type": "node",
  "id": 4225612458,
  "lat": 50.2218735,
  "lon": 19.8331660
},
{
  "type": "node",
  "id": 4225612471,
  "lat": 50.2225703,
  "lon": 19.8317339
},
{
  "type": "node",
  "id": 4225612473,
  "lat": 50.2225515,
  "lon": 19.8326855
},
{
  "type": "node",
  "id": 4704611739,
  "lat": 50.2226581,
  "lon": 19.8317414
},
{
  "type": "node",
  "id": 4882187347,
  "lat": 50.2224408,
  "lon": 19.8319509
},
{
  "type": "node",
  "id": 5816133753,
  "lat": 50.2221861,
  "lon": 19.8326005
},
{
  "type": "node",
  "id": 6241948276,
  "lat": 50.2218272,
  "lon": 19.8330002
},
{
  "type": "node",
  "id": 7148387505,
  "lat": 50.2227088,
  "lon": 19.8318977
},
{
  "type": "node",
  "id": 3620825064,
  "lat": 50.3033994,
  "lon": 19.8693356
},
{
  "type": "node",
  "id": 3620825065,
  "lat": 50.3034019,
  "lon": 19.8693014
},
{
  "type": "node",
  "id": 3620825068,
  "lat": 50.3034177,
  "lon": 19.8693398
},
{
  "type": "node",
  "id": 3620825069,
  "lat": 50.3034293,
  "lon": 19.8691871
},
{
  "type": "node",
  "id": 3620825070,
  "lat": 50.3034968,
  "lon": 19.8694737
},
{
  "type": "node",
  "id": 3620825071,
  "lat": 50.3035171,
  "lon": 19.8692032
},
{
  "type": "node",
  "id": 3620826030,
  "lat": 50.3034092,
  "lon": 19.8694565
},
{
  "type": "node",
  "id": 3620826194,
  "lat": 50.3034205,
  "lon": 19.8693055
},
{
  "type": "node",
  "id": 3620802773,
  "lat": 50.2209087,
  "lon": 19.9794187
},
{
  "type": "node",
  "id": 3620802774,
  "lat": 50.2209092,
  "lon": 19.9791263
},
{
  "type": "node",
  "id": 3620819630,
  "lat": 50.2210007,
  "lon": 19.9794190
},
{
  "type": "node",
  "id": 3620819913,
  "lat": 50.2210206,
  "lon": 19.9792437
},
{
  "type": "node",
  "id": 3620821407,
  "lat": 50.2210008,
  "lon": 19.9792441
},
{
  "type": "node",
  "id": 3620821408,
  "lat": 50.2210009,
  "lon": 19.9793010
},
{
  "type": "node",
  "id": 3620821409,
  "lat": 50.2210011,
  "lon": 19.9791267
},
{
  "type": "node",
  "id": 3620821412,
  "lat": 50.2210207,
  "lon": 19.9793005
},
{
  "type": "node",
  "id": 7142815527,
  "lat": 50.0342225,
  "lon": 20.2194064
},
{
  "type": "node",
  "id": 7142815528,
  "lat": 50.0341794,
  "lon": 20.2192696
},
{
  "type": "node",
  "id": 7142815529,
  "lat": 50.0341286,
  "lon": 20.2193085
},
{
  "type": "node",
  "id": 7142815530,
  "lat": 50.0340907,
  "lon": 20.2193407
},
{
  "type": "node",
  "id": 7142815531,
  "lat": 50.0338848,
  "lon": 20.2192897
},
{
  "type": "node",
  "id": 7142815532,
  "lat": 50.0337831,
  "lon": 20.2196438
},
{
  "type": "node",
  "id": 7142815533,
  "lat": 50.0336918,
  "lon": 20.2197913
},
{
  "type": "node",
  "id": 7142815534,
  "lat": 50.0336109,
  "lon": 20.2198865
},
{
  "type": "node",
  "id": 7142815535,
  "lat": 50.0339632,
  "lon": 20.2202741
},
{
  "type": "node",
  "id": 7142815536,
  "lat": 50.0340424,
  "lon": 20.2202030
},
{
  "type": "node",
  "id": 2489563661,
  "lat": 49.9667215,
  "lon": 20.4154684
},
{
  "type": "node",
  "id": 2489563858,
  "lat": 49.9667826,
  "lon": 20.4153223
},
{
  "type": "node",
  "id": 2489564022,
  "lat": 49.9668354,
  "lon": 20.4155830
},
{
  "type": "node",
  "id": 2489564148,
  "lat": 49.9668893,
  "lon": 20.4154541
},
{
  "type": "node",
  "id": 2489564174,
  "lat": 49.9668966,
  "lon": 20.4154367
},
{
  "type": "node",
  "id": 2489564365,
  "lat": 49.9669733,
  "lon": 20.4152530
},
{
  "type": "node",
  "id": 2489564775,
  "lat": 49.9670660,
  "lon": 20.4153461
},
{
  "type": "node",
  "id": 2489564870,
  "lat": 49.9670886,
  "lon": 20.4152928
},
{
  "type": "node",
  "id": 2489566112,
  "lat": 49.9674683,
  "lon": 20.4160360
},
{
  "type": "node",
  "id": 2489566216,
  "lat": 49.9675270,
  "lon": 20.4158089
},
{
  "type": "node",
  "id": 2489566234,
  "lat": 49.9675318,
  "lon": 20.4160999
},
{
  "type": "node",
  "id": 2489566271,
  "lat": 49.9675495,
  "lon": 20.4157559
},
{
  "type": "node",
  "id": 2489566497,
  "lat": 49.9676160,
  "lon": 20.4158985
},
{
  "type": "node",
  "id": 2489574782,
  "lat": 49.9702040,
  "lon": 20.4237050
},
{
  "type": "node",
  "id": 2489574869,
  "lat": 49.9702613,
  "lon": 20.4236642
},
{
  "type": "node",
  "id": 2489574963,
  "lat": 49.9702793,
  "lon": 20.4239582
},
{
  "type": "node",
  "id": 2489575242,
  "lat": 49.9703365,
  "lon": 20.4239172
},
{
  "type": "node",
  "id": 3572448193,
  "lat": 49.9692062,
  "lon": 20.4312124
},
{
  "type": "node",
  "id": 3572448194,
  "lat": 49.9693106,
  "lon": 20.4315632
},
{
  "type": "node",
  "id": 3572448195,
  "lat": 49.9693716,
  "lon": 20.4310993
},
{
  "type": "node",
  "id": 3572448196,
  "lat": 49.9694428,
  "lon": 20.4313161
},
{
  "type": "node",
  "id": 3572448197,
  "lat": 49.9694627,
  "lon": 20.4313018
},
{
  "type": "node",
  "id": 3572448198,
  "lat": 49.9693980,
  "lon": 20.4315007
},
{
  "type": "node",
  "id": 5944721843,
  "lat": 49.9694389,
  "lon": 20.4313351
},
{
  "type": "node",
  "id": 5944721844,
  "lat": 49.9694485,
  "lon": 20.4313676
},
{
  "type": "node",
  "id": 5944721845,
  "lat": 49.9694764,
  "lon": 20.4313477
},
{
  "type": "node",
  "id": 5944721846,
  "lat": 49.9693645,
  "lon": 20.4313882
},
{
  "type": "way",
  "id": 148464900,
  "nodes": [
    3435179690,
    3435192511,
    4319513775,
    3435192512,
    3435192445,
    3435192434,
    1298812205,
    3435192436,
    3435192442,
    3435193597,
    3435193598,
    3435193599,
    3435192771,
    3435192767,
    4319513786,
    3435192508,
    4319513776,
    3435180938,
    3435192497,
    3435192751,
    3435189056,
    3435192495,
    3435180933,
    3435180929,
    3435189052,
    3435192429,
    3435180924,
    3435180927,
    3435180925,
    3435192427,
    3435189046,
    3435189049,
    3435189055,
    3435180931,
    3435189057,
    3435192750,
    3435192509,
    3435179690
  ]
},
{
  "type": "way",
  "id": 138355832,
  "nodes": [
    2998640389,
    2998641048,
    2998640180,
    2998640178,
    2998640973,
    2998640406,
    2998637683,
    2998640974,
    2998640188,
    2998640979,
    2998640984,
    2998640194,
    2998640195,
    2998641657,
    2998640197,
    2998641660,
    2998640196,
    2998641061,
    2998641064,
    2998640193,
    2998640192,
    2998640191,
    2998641058,
    2998641057,
    2998640190,
    2998641054,
    3086300544,
    2998640189,
    2998640186,
    2998640976,
    2998640975,
    2998637681,
    2998640972,
    3086298996,
    3086298995,
    2998640030,
    2998640028,
    2998640370,
    2998640371,
    2998640373,
    2998640032,
    2998640352,
    2998640163,
    2998640011,
    3086299096,
    2998640012,
    2998640013,
    2998640354,
    2998640355,
    2998640357,
    3086299101,
    3086299102,
    2998640358,
    2998637662,
    2998640164,
    1516929440,
    1516929733,
    2998640844,
    2998640360,
    2998637664,
    2998640363,
    2998640365,
    2998640377,
    2998640850,
    2998640853,
    2998640378,
    2998640945,
    2998640382,
    2998640955,
    2998640953,
    2998640951,
    2998640379,
    2998640172,
    2998640962,
    2998640963,
    2998640967,
    2998640966,
    2998640971,
    2998640404,
    2998640969,
    2998640968,
    2998640964,
    2998640965,
    2998640396,
    2998640970,
    2998640391,
    2998637676,
    2998641045,
    3086297215,
    2998640168,
    2998640385,
    2998640389
  ]
},
{
  "type": "way",
  "id": 138355813,
  "nodes": [
    1516929727,
    1516929437,
    1516929666,
    1516929770,
    1516929727
  ]
},
{
  "type": "way",
  "id": 138355838,
  "nodes": [
    1516929684,
    1516929485,
    1516929660,
    1516929718,
    1516929684
  ]
},
{
  "type": "way",
  "id": 138025107,
  "nodes": [
    3010751500,
    3010769938,
    3010740995,
    3010769450,
    3010770052,
    3010770049,
    3010770051,
    3010770483,
    3010770818,
    3010751514,
    3010751519,
    3010751520,
    3010771290,
    3010771289,
    3010770901,
    3010770830,
    3010771435,
    3010771553,
    3010771439,
    3010771437,
    3010771736,
    3010771857,
    3010771864,
    3010771859,
    3010771748,
    3010771756,
    3010771759,
    3010771751,
    3010771498,
    3010771873,
    3010771871,
    3010771867,
    3010771860,
    3010751531,
    3010751526,
    3010771433,
    3010771434,
    3010770831,
    3010771294,
    3010771292,
    3010771291,
    3010771287,
    3010770848,
    3010770845,
    3010751515,
    3010770482,
    3010770401,
    3010751500
  ]
},
{
  "type": "way",
  "id": 297220653,
  "nodes": [
    3010751498,
    3010751508,
    3010770044,
    3010770814,
    3010770822,
    3010770823,
    3010770847,
    3010751522,
    3010770850,
    3010770902,
    3010771297,
    3010771554,
    3010771734,
    3010771441,
    3010771740,
    3010771735,
    3010771444,
    3010771745,
    3010771750,
    3010771752,
    3010771760,
    3010771766,
    3010772337,
    3010770063,
    3010771768,
    3010771771,
    3010771772,
    3010771769,
    2330652967,
    3010771757,
    3010770057,
    2330652965,
    3010769532,
    3010771743,
    3010751528,
    3010770832,
    3010770828,
    3010770825,
    3010751516,
    3010770479,
    3010770809,
    3010770046,
    3010751512,
    3010751513,
    3010770402,
    3010751502,
    3010740992,
    3010769448,
    3010769449,
    3010751497,
    3010751498
  ]
},
{
  "type": "way",
  "id": 131342427,
  "nodes": [
    1445724720,
    1445724709,
    1445724671,
    3486997689,
    3486996266,
    2665050439,
    3486997691,
    3486999299,
    1445724690,
    1445724720
  ]
},
{
  "type": "way",
  "id": 341533598,
  "nodes": [
    3486996275,
    3487000293,
    3486992850,
    3486999324,
    3486996275
  ]
},
{
  "type": "way",
  "id": 60681305,
  "nodes": [
    3623958929,
    4277508445,
    3623958925,
    3623958924,
    3623958906,
    4277508436,
    4277508435,
    3623958904,
    3623958914,
    3623958912,
    3623958916,
    3623958917,
    3623958918,
    3623200010,
    3623220495,
    3623958926,
    3623958927,
    3623958928,
    3623958929
  ]
},
{
  "type": "way",
  "id": 60681344,
  "nodes": [
    759623336,
    4277506757,
    4277506756,
    4277506755,
    4277506750,
    4277506749,
    4277506748,
    759623340,
    759623344,
    759623348,
    759623336
  ]
},
{
  "type": "way",
  "id": 60681466,
  "nodes": [
    3623958945,
    3623958947,
    4277394053,
    3623958950,
    3623958949,
    3623958948,
    3623958946,
    3623958944,
    3623958930,
    3623958932,
    3623958931,
    4277394049,
    3623958921,
    3623958922,
    3623958923,
    3623958936,
    3623958935,
    3623958938,
    3623958937,
    3623958939,
    3623958941,
    3623958940,
    3623958945
  ]
},
{
  "type": "way",
  "id": 101318622,
  "nodes": [
    3623958951,
    3623958943,
    3623958954,
    3623958955,
    3623958956,
    3623958951
  ]
},
{
  "type": "way",
  "id": 101318630,
  "nodes": [
    1169655074,
    1169655710,
    1169655436,
    1169655055,
    1169654925,
    1169655591,
    1169655324,
    1169655290,
    1169655074
  ]
},
{
  "type": "way",
  "id": 101318631,
  "nodes": [
    3623958908,
    3623958907,
    3623958905,
    1169655505,
    3623958908
  ]
},
{
  "type": "way",
  "id": 101318649,
  "nodes": [
    3623958942,
    3623958934,
    3623958952,
    3623958953,
    3623958942
  ]
},
{
  "type": "way",
  "id": 155555106,
  "nodes": [
    4277346783,
    3129702621,
    1679460259,
    1679460196,
    1679460170,
    2409354640,
    1679460241,
    1679460260,
    1679460279,
    4277346785,
    4277346786,
    2360485439,
    4277353791,
    4277353795,
    1679460304,
    4277346787,
    4277346783
  ]
},
{
  "type": "way",
  "id": 157019233,
  "nodes": [
    1692479826,
    1692479830,
    1692479828,
    1692479818,
    1692479826
  ]
},
{
  "type": "way",
  "id": 157019237,
  "nodes": [
    3623958902,
    3623958900,
    1692479796,
    1692479808,
    3623958901,
    3623958902
  ]
},
{
  "type": "way",
  "id": 286909389,
  "nodes": [
    1679460279,
    1679460260,
    1679460241,
    4277346781,
    2905885403,
    4277346782,
    1679460279
  ]
},
{
  "type": "way",
  "id": 286909392,
  "nodes": [
    4277346788,
    2905885408,
    1679460340,
    4277353795,
    1679460304,
    4277346787,
    4277346788
  ]
},
{
  "type": "way",
  "id": 286909395,
  "nodes": [
    2905885404,
    4277346780,
    2905885401,
    4277346772,
    1679460196,
    1679460259,
    3129702621,
    4277346783,
    1679460250,
    2905885404
  ]
},
{
  "type": "way",
  "id": 308575723,
  "nodes": [
    3138392531,
    3138392530,
    3138392529,
    3138384528,
    3138384527,
    3138384526,
    3138384525
  ]
},
{
  "type": "way",
  "id": 351534282,
  "nodes": [
    3573386406,
    3573386394,
    3573386409,
    4277354049,
    3573386401,
    3573386402,
    3573386403,
    3573386400,
    3573386407,
    3573386404,
    3573386395,
    3573386405,
    3573386408,
    3573386397,
    3573386393,
    3573386398,
    3573386396,
    3573386399,
    3573386406
  ]
},
{
  "type": "way",
  "id": 356922303,
  "nodes": [
    3623200024,
    3623220505,
    3623200035,
    3623200032,
    3623200031,
    3623200018,
    3623200017,
    4277508452,
    4277508450,
    3623200015,
    3623958928,
    3623958927,
    3623958926,
    3623220495,
    3623200010,
    3623958918,
    3623958917,
    3623958920,
    3623200013,
    3623220497,
    3623220502,
    3623220503,
    3623220504,
    3623200024
  ]
},
{
  "type": "way",
  "id": 356922304,
  "nodes": [
    3623200018,
    3623200022,
    3623200025,
    3623200034,
    3623200036,
    3623200038,
    3623200039,
    3623200037,
    3623200035,
    3623200032,
    3623200031,
    3623200018
  ]
},
{
  "type": "way",
  "id": 356923393,
  "nodes": [
    3623220498,
    3623219991,
    3623219992,
    3623220493,
    3623220494,
    3623220496,
    3623220497,
    3623220502,
    3623220503,
    3623220504,
    3623200024,
    3623220500,
    3138384516,
    3623220498
  ]
},
{
  "type": "way",
  "id": 356937487,
  "nodes": [
    3623366348,
    3623366347,
    3623366346,
    3623366345
  ]
},
{
  "type": "way",
  "id": 357002039,
  "nodes": [
    3623958916,
    3623958915,
    3623958919,
    3623958920,
    3623958917,
    3623958916
  ]
},
{
  "type": "way",
  "id": 427486040,
  "nodes": [
    4266973701,
    4266973703,
    4266973704,
    4266973702,
    4266973701
  ]
},
{
  "type": "way",
  "id": 428662785,
  "nodes": [
    4277506748,
    4277506760,
    4277506759,
    4277506758,
    4277506754,
    4277506753,
    4277506752,
    4277506751,
    4277506745,
    759623340,
    4277506748
  ]
},
{
  "type": "way",
  "id": 428662786,
  "nodes": [
    4273750786,
    4277506747,
    4277506767,
    4277506769,
    4277506768,
    4277506765,
    4277506757,
    759623336,
    759623348,
    4277506746,
    1692479828,
    1692479830,
    1692479826,
    4273750786
  ]
},
{
  "type": "way",
  "id": 428662787,
  "nodes": [
    4277506755,
    4277506764,
    4277506761,
    4277506750,
    4277506755
  ]
},
{
  "type": "way",
  "id": 428663034,
  "nodes": [
    4277508448,
    4277508446,
    4277508451,
    4277508450,
    4277508452,
    4277508454,
    4277508453,
    4277508448
  ]
},
{
  "type": "way",
  "id": 770851415,
  "nodes": [
    7195114670,
    7195114668,
    7195114667,
    7195114669,
    7195114670
  ]
},
{
  "type": "way",
  "id": 307773166,
  "nodes": [
    3129788193,
    1679460250,
    2905885404,
    4277346780,
    2905885401,
    4277346772,
    1679460196,
    1679460170,
    2409354640,
    3129551719,
    2409354637,
    2409354636,
    2409354635,
    1692479830,
    1692479826,
    4273750786,
    1692479816,
    1692479812,
    4273750770,
    1169654843,
    1692479796,
    1692479808,
    1692479814,
    3623200008,
    1262680449,
    1262680463,
    1770404410,
    1770404416,
    1262680459,
    1262680451,
    1692479881,
    2360485610,
    3623985953,
    3623985951,
    1692479880,
    1692479879,
    1692479878,
    1692479877,
    1692479875,
    2360485372,
    3129788195,
    1692479866,
    1692479864,
    1692479862,
    1692479861,
    1692479860,
    1692479859,
    1692479857,
    2959413255,
    1692479856,
    1692479855,
    1692479841,
    1692479839,
    3129788194,
    3129788193
  ]
},
{
  "type": "way",
  "id": 307839433,
  "nodes": [
    3130757975,
    3130757978,
    3130757976,
    3130757985,
    3130757984,
    3130757968,
    3130757966,
    3130757972,
    3130757970,
    3130757979,
    3130757973,
    3130757969,
    3130757964,
    3130757965,
    3130757962,
    3130757960,
    3130757974,
    3130757977,
    3130757980,
    3130757981,
    3130757983,
    3130757982,
    3130757988,
    3130757987,
    3130757986,
    3130757955,
    3130757947,
    3130757940,
    3130757938,
    3130757937,
    3130757935,
    3130757934,
    3130757932,
    3130757933,
    3130757936,
    3130757944,
    3130757929,
    3130757930,
    3130757931,
    3130757939,
    3130757941,
    3130757943,
    3130757945,
    3130757946,
    3130757942,
    3130757951,
    3130757957,
    3130757954,
    3130757953,
    3130757948,
    3130757949,
    3130757956,
    3130757958,
    3130757959,
    3130757961,
    3130757963,
    3130757950,
    3130757952,
    3130757967,
    3130757971,
    3130757975
  ]
},
{
  "type": "way",
  "id": 241271391,
  "nodes": [
    2489564174,
    2489564365,
    2489564775,
    2489564870,
    2489566271,
    2489566216,
    2489566497,
    2489566234,
    2489566112,
    2489564148,
    2489564022,
    2489563661,
    2489563858,
    2489564174
  ]
},
{
  "type": "way",
  "id": 351463408,
  "nodes": [
    3572448196,
    3572448195,
    3572448193,
    3572448194,
    3572448198,
    5944721846,
    5944721843,
    5944721844,
    5944721845,
    3572448197,
    3572448196
  ]
}

  ]
}
