{
  "version": 0.6,
  "generator": "Overpass API 0.7.55.1011 6c2efc30",
  "osm3s": {
    "timestamp_osm_base": "2020-02-14T15:17:02Z",
    "copyright": "The data included in this document is from www.openstreetmap.org. The data is made available under ODbL."
  },
  "elements": [

{
  "type": "node",
  "id": 677550796,
  "lat": 40.8113434,
  "lon": 14.0802108,
  "tags": {
    "name": "Museo archeologico dei Campi Flegrei",
    "tourism": "museum",
    "wikidata": "Q3867669",
    "wikipedia": "it:Museo archeologico dei Campi Flegrei"
  }
},
{
  "type": "node",
  "id": 1653951916,
  "lat": 40.7373652,
  "lon": 13.8583764,
  "tags": {
    "tourism": "museum"
  }
},
{
  "type": "node",
  "id": 1653954215,
  "lat": 40.7590421,
  "lon": 13.8719432,
  "tags": {
    "name": "Villa Luchino Visconti, La Colombaia",
    "tourism": "museum"
  }
},
{
  "type": "node",
  "id": 1653960797,
  "lat": 40.7542940,
  "lon": 13.8843869,
  "tags": {
    "addr:city": "Lacco Ameno",
    "addr:street": "Piazza Santa Restituta",
    "name": "S. Restituta museo greco romano",
    "tourism": "museum"
  }
},
{
  "type": "node",
  "id": 1653960851,
  "lat": 40.7525104,
  "lon": 13.8830036,
  "tags": {
    "addr:city": "Lacco Ameno",
    "addr:street": "corso Angelo Rizzoli",
    "name": "Museo Archeologico di Pithecusae",
    "operator": "Comune di Lacco Amneo",
    "operator:type": "public",
    "tourism": "museum",
    "website": "http://www.pithecusae.it/",
    "wikidata": "Q3867690",
    "wikipedia": "it:Museo archeologico di Pithecusae"
  }
},
{
  "type": "node",
  "id": 1654200888,
  "lat": 40.7364784,
  "lon": 13.8600311,
  "tags": {
    "tourism": "museum"
  }
},
{
  "type": "node",
  "id": 1683061347,
  "lat": 40.8635196,
  "lon": 14.2555638,
  "tags": {
    "tourism": "museum"
  }
},
{
  "type": "node",
  "id": 1722896592,
  "lat": 40.8132571,
  "lon": 14.4814078,
  "tags": {
    "name": "Museo Emblema",
    "tourism": "museum",
    "wikidata": "Q21552264"
  }
},
{
  "type": "node",
  "id": 2338747687,
  "lat": 40.8054208,
  "lon": 14.1742008,
  "tags": {
    "name": "Corporea",
    "note": "In construction",
    "tourism": "museum"
  }
},
{
  "type": "node",
  "id": 2364159441,
  "lat": 40.5478218,
  "lon": 14.2449845,
  "tags": {
    "name": "Museo Diefenbach",
    "tourism": "museum"
  }
},
{
  "type": "node",
  "id": 2452221056,
  "lat": 40.6396761,
  "lon": 14.5444530,
  "tags": {
    "tourism": "museum"
  }
},
{
  "type": "node",
  "id": 2601104325,
  "lat": 40.8502685,
  "lon": 14.2481180,
  "tags": {
    "name": "Museo Hermann Nitsch",
    "tourism": "museum"
  }
},
{
  "type": "node",
  "id": 2677869507,
  "lat": 40.8224227,
  "lon": 14.3194110,
  "tags": {
    "name": "Museo Nazionale Ferroviario di Pietrarsa",
    "tourism": "museum",
    "wikidata": "Q832707",
    "wikipedia": "it:Museo nazionale ferroviario di Pietrarsa"
  }
},
{
  "type": "node",
  "id": 2685752767,
  "lat": 40.8439694,
  "lon": 14.2529356,
  "tags": {
    "name": "ARCA - Arte Religiosa Contemporanea",
    "tourism": "museum"
  }
},
{
  "type": "node",
  "id": 2712357340,
  "lat": 40.8454419,
  "lon": 14.4717276,
  "tags": {
    "name": "Museo all'aperto",
    "tourism": "museum"
  }
},
{
  "type": "node",
  "id": 2785675445,
  "lat": 40.8533692,
  "lon": 14.2555580,
  "tags": {
    "name": "Museo di anatomia umana",
    "name:de": "Museum der Anatomie",
    "tourism": "museum"
  }
},
{
  "type": "node",
  "id": 2785688521,
  "lat": 40.8551785,
  "lon": 14.2566473,
  "tags": {
    "name": "MUSA - Sezione di Farmacologia",
    "tourism": "museum"
  }
},
{
  "type": "node",
  "id": 2948166465,
  "lat": 40.9458663,
  "lon": 14.3715925,
  "tags": {
    "name": "Museo Archeologico",
    "tourism": "museum"
  }
},
{
  "type": "node",
  "id": 2948178368,
  "lat": 40.9456960,
  "lon": 14.3713214,
  "tags": {
    "name": "Museo della Maschera di Pulcinella",
    "tourism": "museum"
  }
},
{
  "type": "node",
  "id": 2962786642,
  "lat": 40.7320350,
  "lon": 13.9591842,
  "tags": {
    "addr:city": "Ischia",
    "addr:postcode": "80077",
    "addr:street": "Via Giovanni da Procida",
    "name": "Museo del Mare",
    "tourism": "museum"
  }
},
{
  "type": "node",
  "id": 3466005069,
  "lat": 40.8398268,
  "lon": 14.2486285,
  "tags": {
    "addr:city": "Napoli",
    "addr:housenumber": "179;180;181;182;183;184;185;186;187",
    "addr:postcode": "80132",
    "addr:street": "Via Toledo",
    "email": "info@palazzozevallos.com",
    "name": "Gallerie d'Italia",
    "opening_hours": "Mo-Fr 10:00-18:00; Sa-Su 10:00-20:00",
    "phone": "+39 800 454229",
    "tourism": "museum",
    "website": "https://www.gallerieditalia.com/it/napoli/",
    "wikidata": "Q3757772",
    "wikipedia": "it:Gallerie d'Italia"
  }
},
{
  "type": "node",
  "id": 3515649876,
  "lat": 40.8371511,
  "lon": 14.2483463,
  "tags": {
    "addr:city": "Napoli",
    "addr:housenumber": "48",
    "addr:postcode": "80132",
    "addr:street": "Piazza Trieste e Trento",
    "name": "Museo Giuseppe Caravita principe di Sirignano",
    "opening_hours": "Tu-Sa 10:00-16:00",
    "operator": "Fondazione \"Circolo Artistico Politecnico\"",
    "phone": "+39 081 42 65 43",
    "tourism": "museum",
    "website": "https://www.fondazionecircoloartistico.it",
    "wikidata": "Q3867608",
    "wikipedia": "it:Museo Giuseppe Caravita principe di Sirignano"
  }
},
{
  "type": "node",
  "id": 3515649877,
  "lat": 40.8490134,
  "lon": 14.2607436,
  "tags": {
    "name": "Museo civico Gaetano Filangieri",
    "tourism": "museum",
    "wikidata": "Q3867775",
    "wikipedia": "it:Museo civico Gaetano Filangieri"
  }
},
{
  "type": "node",
  "id": 3520613789,
  "lat": 40.6245939,
  "lon": 14.3711150,
  "tags": {
    "name": "Villa Fiorentino",
    "tourism": "museum"
  }
},
{
  "type": "node",
  "id": 3581704750,
  "lat": 40.6379314,
  "lon": 14.4021601,
  "tags": {
    "addr:city": "Piano di Sorrento",
    "addr:postcode": "80067",
    "addr:street": "Via Ripa di Cassano",
    "email": "pm-cam.georgevallet@beniculturali.it",
    "name": "Museo archeologico territoriale della penisola sorrentina Georges Vallet",
    "opening_hours": "Tu-Sa 09:00-18:50; Mo off",
    "phone": "+39 081 8087078",
    "tourism": "museum",
    "website": "http://www.polomusealecampania.beniculturali.it/index.php/il-museo-gvallet",
    "wikidata": "Q16336782",
    "wikipedia": "it:Museo archeologico territoriale della penisola sorrentina Georges Vallet"
  }
},
{
  "type": "node",
  "id": 3677050334,
  "lat": 40.7424977,
  "lon": 14.6081885,
  "tags": {
    "name": "Museo Sant'Alfonso Maria de Liguori",
    "tourism": "museum",
    "website": "http://www.museoalfonsiano.it/node/1"
  }
},
{
  "type": "node",
  "id": 3683555296,
  "lat": 40.8367840,
  "lon": 14.2369370,
  "tags": {
    "addr:city": "Napoli",
    "addr:housenumber": "60",
    "addr:postcode": "80121",
    "addr:street": "Via dei Mille",
    "alt_name": "PAN",
    "name": "Palazzo delle Arti Napoli",
    "tourism": "museum",
    "website": "http://www.palazzoartinapoli.net/",
    "wikidata": "Q1228306",
    "wikipedia": "it:Palazzo delle Arti di Napoli"
  }
},
{
  "type": "node",
  "id": 3733540789,
  "lat": 40.8394380,
  "lon": 14.2300026,
  "tags": {
    "addr:city": "Napoli",
    "addr:country": "IT",
    "addr:housename": "Villa Floridiana",
    "addr:housenumber": "77",
    "addr:postcode": "80127",
    "addr:street": "Via Domenico Cimarosa",
    "email": "pm-cam.martina@beniculturali.it",
    "name": "Museo nazionale della ceramica Duca di Martina",
    "opening_hours": "We-Su 08:30-16:15; Tu off",
    "phone": "+39 081 5788418",
    "tourism": "museum",
    "website": "http://www.polomusealecampania.beniculturali.it/index.php/il-museo",
    "wikidata": "Q3868424",
    "wikipedia": "it:Museo nazionale della ceramica Duca di Martina"
  }
},
{
  "type": "node",
  "id": 3782259178,
  "lat": 40.9657611,
  "lon": 14.2541765,
  "tags": {
    "addr:city": "Succivo",
    "addr:housenumber": "7",
    "addr:postcode": "81030",
    "addr:street": "Via Roma",
    "email": "pm-cam.succivo@beniculturali.it",
    "name": "Museo archeologico dell'Agro Atellano",
    "opening_hours": "Tu-Su 09:00-19:00; Mo off",
    "phone": "+39 081 5012701",
    "tourism": "museum",
    "website": "http://www.polomusealecampania.beniculturali.it/index.php/il-museo-succivo"
  }
},
{
  "type": "node",
  "id": 3782296771,
  "lat": 40.9766673,
  "lon": 14.2036820,
  "tags": {
    "addr:city": "Aversa",
    "addr:street": "Vicolo San Paolo",
    "name": "Museo diocesano",
    "opening_hours": "Mo-Fr 10:00-12:00; Tu off; Th off; Sa 10:00-12:00,16:30-18:00",
    "phone": "+39 081 5037665",
    "tourism": "museum",
    "website": "http://www.diocesiaversa.it/diocesi/uffici/museo-diocesano-di-aversa/"
  }
},
{
  "type": "node",
  "id": 3782303049,
  "lat": 40.9143342,
  "lon": 14.2986678,
  "tags": {
    "addr:city": "Casoria",
    "addr:housenumber": "63",
    "addr:street": "Via Duca d'Aosta",
    "name": "CAM Casoria Contemporary Art Museum",
    "opening_hours": "Tu-Th,Su 10:00-13:00; Sa 17:00- 20:00",
    "operator": "CAM | Casoria Contemporary Art Museum",
    "phone": "+39 0817576167",
    "tourism": "museum",
    "wikidata": "Q1047785",
    "wikipedia": "it:CAM Casoria Contemporary Art Museum"
  }
},
{
  "type": "node",
  "id": 4174698322,
  "lat": 40.8636544,
  "lon": 14.2555027,
  "tags": {
    "name": "Museo dell'Osservatorio Astronomico",
    "tourism": "museum"
  }
},
{
  "type": "node",
  "id": 4258447333,
  "lat": 40.8381289,
  "lon": 14.2496526,
  "tags": {
    "addr:city": "Napoli",
    "addr:housenumber": "19",
    "addr:postcode": "80132",
    "addr:street": "Galleria Umberto I",
    "name": "Museo del Corallo Ascione",
    "tourism": "museum",
    "website": "http://www.ascione.it/mobi/it/passione/museo.html",
    "wikidata": "Q729943",
    "wikipedia": "it:Museo del corallo"
  }
},
{
  "type": "node",
  "id": 4281257105,
  "lat": 40.8362120,
  "lon": 14.2323342,
  "tags": {
    "addr:city": "Napoli",
    "addr:housenumber": "48",
    "addr:postcode": "80121",
    "addr:street": "Via Giuseppe Martucci",
    "name": "Museo Fondazione PLART - Plastiche e Arte",
    "operator": "Fondazione PLART - Plastiche e Arte",
    "tourism": "museum",
    "website": "http://www.fondazioneplart.it/"
  }
},
{
  "type": "node",
  "id": 4309168120,
  "lat": 40.8327624,
  "lon": 14.2351034,
  "tags": {
    "contact:email": "claudia.disomma@szn.it",
    "contact:phone": "+39 081 5833291",
    "contact:website": "http://www.szn.it/index.php/it/ricerca/infrastrutture-di-ricerca-per-le-risorse-biologiche-marine/unita-museo-archivio-biblioteca-mab/",
    "operator": "Stazione zoologica Anton Dohrn",
    "tourism": "museum"
  }
},
{
  "type": "node",
  "id": 4394926693,
  "lat": 40.8499087,
  "lon": 14.2599739,
  "tags": {
    "addr:city": "Napoli",
    "addr:housenumber": "39",
    "addr:postcode": "80138",
    "addr:street": "Via San Biagio dei Librai",
    "name": "Ospedale delle Bambole",
    "opening_hours": "Mo-Fr 14:30-18:30; Tu,Th 10:00-14:30; Sa 10:00-12:00",
    "phone": "+39 081 18639797",
    "shop": "toys",
    "tourism": "museum",
    "website": "https://ospedaledellebambole.it/"
  }
},
{
  "type": "node",
  "id": 4512257096,
  "lat": 40.6627965,
  "lon": 14.4245487,
  "tags": {
    "addr:city": "Vico Equense",
    "addr:housenumber": "1",
    "addr:postcode": "80069",
    "addr:street": "Viale della Rimembranza",
    "email": "info@museomineralogicocampano.it",
    "name": "Museo Mineralogico Campano",
    "phone": "+39 081 801 56 68",
    "tourism": "museum",
    "website": "http://www.museomineralogicocampano.it/en/",
    "wikidata": "Q16336125"
  }
},
{
  "type": "node",
  "id": 4883911526,
  "lat": 40.6258520,
  "lon": 14.3702344,
  "tags": {
    "addr:housenumber": "28",
    "addr:street": "Via San Nicola",
    "description": "Inlaid Wood museum. Shows old and modern designs and gives some historical context especially with regard to Sorrento.",
    "name": "Museobottega della Tarsialignea - Inlaid Wood Museum",
    "opening_hours": "Mo-Su 10:00-18:30",
    "phone": "+39 081 877 19 42",
    "tourism": "museum",
    "website": "http://www.museomuta.it/"
  }
},
{
  "type": "node",
  "id": 4922663909,
  "lat": 40.7612819,
  "lon": 14.0348776,
  "tags": {
    "tourism": "museum"
  }
},
{
  "type": "node",
  "id": 5220396114,
  "lat": 40.7944372,
  "lon": 14.1850753,
  "tags": {
    "addr:housenumber": "36",
    "addr:postcode": "80123",
    "addr:street": "Discesa Coroglio",
    "name": "Parco Archeologico del Pausilypon",
    "name:en": "Pausilypon Archaeological Park",
    "name:tr": "Pausilypon Arkeoloji Parkı",
    "opening_hours": "Mo-Su 09:00-12:00",
    "phone": "+390812301030",
    "tourism": "museum",
    "website": "http://www.comune.napoli.it/flex/cm/pages/ServeBLOB.php/L/IT/IDPagina/1415"
  }
},
{
  "type": "node",
  "id": 5223459922,
  "lat": 40.8328663,
  "lon": 14.2427300,
  "tags": {
    "addr:housenumber": "12",
    "addr:postcode": "80121",
    "addr:street": "Via Vannella Gaetani",
    "name": "Galeria Lia Rumma",
    "name:en": "Lia Rumma Gallery",
    "name:fr": "Galerie Lia Rumma",
    "opening_hours": "Tu-Sa 11:00-13:30, 14:30-19:00",
    "phone": "08119812354",
    "tourism": "museum",
    "website": "http://liarumma.it"
  }
},
{
  "type": "node",
  "id": 5280124543,
  "lat": 40.8515732,
  "lon": 14.2509493,
  "tags": {
    "name": "Galleria e Gipsoteca dell'Accademia",
    "tourism": "museum"
  }
},
{
  "type": "node",
  "id": 5363234442,
  "lat": 40.5572494,
  "lon": 14.2249524,
  "tags": {
    "name": "Museo Axel Munthe",
    "tourism": "museum"
  }
},
{
  "type": "node",
  "id": 5556875944,
  "lat": 40.8212822,
  "lon": 14.1212579,
  "tags": {
    "name": "Museo Diocesano di Pozzuoli",
    "tourism": "museum"
  }
},
{
  "type": "node",
  "id": 5782884185,
  "lat": 41.0798785,
  "lon": 14.2568283,
  "tags": {
    "addr:city": "Santa Maria Capua Vetere",
    "addr:postcode": "81055",
    "addr:street": "Piazza Giovanni Bovio",
    "email": "museoneviosmcv@gmail.com",
    "name": "NEMUSS - Museo Scientifico Nevio",
    "opening_hours": "Mo-Fr 08:30-13:00, Sa 08:30-12:30",
    "phone": "+39 0823 846232",
    "tourism": "museum",
    "website": "http://nemuss.altervista.org/"
  }
},
{
  "type": "node",
  "id": 5782884186,
  "lat": 41.0798547,
  "lon": 14.2558634,
  "tags": {
    "addr:city": "Santa Maria Capua Vetere",
    "addr:housenumber": "78",
    "addr:postcode": "81055",
    "addr:street": "Corso Giuseppe Garibaldi",
    "name": "MUTEG - Museo \"del Teatro e del Cinema\" del Teatro Garibaldi",
    "tourism": "museum"
  }
},
{
  "type": "node",
  "id": 5796865933,
  "lat": 41.1055037,
  "lon": 14.3911168,
  "tags": {
    "name": "museo del contadino",
    "tourism": "museum"
  }
},
{
  "type": "node",
  "id": 5850018944,
  "lat": 41.0915223,
  "lon": 14.3672812,
  "tags": {
    "name": "museo dell'abbandono",
    "tourism": "museum"
  }
},
{
  "type": "node",
  "id": 6022470990,
  "lat": 40.8651869,
  "lon": 14.2473771,
  "tags": {
    "name:ru": "Катакомбы Неаполя",
    "opening_hours": "Mo-Sa 10:00-17:00",
    "tourism": "museum"
  }
},
{
  "type": "node",
  "id": 6574297119,
  "lat": 40.5505302,
  "lon": 14.2427813,
  "tags": {
    "name": "Museo Ignazio Cerio",
    "tourism": "museum",
    "website": "https://www.centrocaprense.org/museo/",
    "wikipedia": "en:Ignazio Cerio"
  }
},
{
  "type": "node",
  "id": 6717821899,
  "lat": 41.0340655,
  "lon": 14.3898458,
  "tags": {
    "addr:city": "Maddaloni",
    "addr:housenumber": "353",
    "addr:postcode": "81024",
    "addr:street": "Via Caudina",
    "email": "pm-cam.maddaloni@beniculturali.it",
    "name": "Museo Archeologico di Calatia",
    "opening_hours": "We-Mo 09:00-19:30; Tu off",
    "phone": "+39 0823 200065",
    "tourism": "museum",
    "website": "http://museoarcheologicocalatia.beniculturali.it"
  }
},
{
  "type": "node",
  "id": 6718393565,
  "lat": 40.8125952,
  "lon": 14.6222783,
  "tags": {
    "addr:city": "Sarno",
    "addr:housenumber": "7",
    "addr:postcode": "84087",
    "addr:street": "Via Cavour",
    "email": "pm-cam.sarno@beniculturali.it",
    "name": "Museo archeologico nazionale della Valle del Sarno",
    "opening_hours": "Tu-Su 09:00-19:00; Mo off",
    "phone": "+39 081 941451",
    "tourism": "museum",
    "website": "http://www.polomusealecampania.beniculturali.it/index.php/il-museo-sarno"
  }
},
{
  "type": "node",
  "id": 7045296374,
  "lat": 40.8477325,
  "lon": 14.2540527,
  "tags": {
    "addr:city": "Napoli",
    "addr:housenumber": "1B",
    "addr:postcode": "80134",
    "addr:street": "Via San Giovanni Maggiore Pignatelli",
    "email": "info@museodivinonapoli.it",
    "fee": "yes",
    "internet_access": "yes",
    "name": "Museodivino",
    "payment:cash": "yes",
    "payment:coins": "yes",
    "tourism": "museum",
    "website": "https://www.museodivinonapoli.it/"
  }
},
{
  "type": "node",
  "id": 7175603427,
  "lat": 40.8400198,
  "lon": 14.2534576,
  "tags": {
    "addr:housenumber": "130",
    "addr:street": "Via Agostino Depretis",
    "name": "Museo Della Pace",
    "tourism": "museum"
  }
},
{
  "type": "way",
  "id": 29403905,
  "nodes": [
    323903385,
    323903386,
    4330854597,
    323903387,
    323903389,
    323903390,
    323903391,
    323903393,
    323903394,
    323903385
  ],
  "tags": {
    "building": "yes",
    "name": "San Martino",
    "tourism": "museum"
  }
},
{
  "type": "way",
  "id": 60961277,
  "nodes": [
    763128270,
    763128271,
    763128273,
    763128272,
    763128270
  ],
  "tags": {
    "tourism": "museum"
  }
},
{
  "type": "way",
  "id": 79246694,
  "nodes": [
    925642575,
    925642410,
    925642355,
    925642673,
    925642551,
    925642460,
    925642567,
    925642468,
    4822184243,
    925642333,
    925642656,
    925642575
  ],
  "tags": {
    "addr:city": "Napoli",
    "addr:country": "IT",
    "addr:housenumber": "201",
    "addr:postcode": "80121",
    "addr:street": "Largo Principessa Rosina Pignatelli",
    "building": "villa",
    "email": "pm-cam.pignatelli@beniculturali.it",
    "name": "Villa Pignatelli",
    "opening_hours": "We-Su 08:30-16:00; Tu off",
    "phone": "+39 081 7612356",
    "source": "yahoo",
    "start_date": "1830",
    "tourism": "museum",
    "website": "http://www.polomusealecampania.beniculturali.it/index.php/il-museo-pignatelli",
    "wheelchair": "limited",
    "wikidata": "Q682173",
    "wikipedia": "it:Villa Pignatelli"
  }
},
{
  "type": "way",
  "id": 123977918,
  "nodes": [
    1380995552,
    2827068409,
    1380995555,
    2827070152,
    1380995550,
    6428190688,
    1380995547,
    1380995548,
    1380995558,
    1380995561,
    2827066698,
    1380995552
  ],
  "tags": {
    "addr:housenumber": "19;21",
    "addr:postcode": "80134",
    "addr:street": "Via Francesco de Sanctis",
    "alt_name": "Chiesa di Santa Maria della Pietà",
    "building": "chapel",
    "contact:email": "info@museosansevero.it",
    "contact:fax": "+39 081 5518470",
    "contact:phone": "+39 081 5518470",
    "loc_name": "La Pietatella",
    "name": "Cappella Sansevero",
    "name:en": "The Sansevero Chapel Museum",
    "name:it": "Museo Cappella Sansevero",
    "name:ru": "Капелла Сансеверо",
    "name:zh": "圣塞维罗博物馆",
    "opening_hours": "We-Mo 09:00-19:00",
    "tourism": "museum",
    "website": "https://www.museosansevero.it/",
    "wheelchair": "yes",
    "wikidata": "Q897839",
    "wikipedia": "it:Cappella Sansevero"
  }
},
{
  "type": "way",
  "id": 166243074,
  "nodes": [
    1777082751,
    1777082766,
    1777082756,
    1777082729,
    1777082751
  ],
  "tags": {
    "building": "church",
    "denomination": "catholic",
    "name": "Cappella Pontano",
    "religion": "christian",
    "tourism": "museum",
    "wikipedia": "it:Cappella dei Pontano"
  }
},
{
  "type": "way",
  "id": 174047979,
  "nodes": [
    1848069660,
    1848069617,
    1848069615,
    1848069578,
    1848069580,
    1848069576,
    1848069577,
    1848069611,
    1848069610,
    1848069606,
    1848069604,
    1848069664,
    1848069660
  ],
  "tags": {
    "building": "collapsed",
    "name": "Futuro Remoto",
    "tourism": "museum"
  }
},
{
  "type": "way",
  "id": 184157087,
  "nodes": [
    1946020270,
    1946020292,
    1946020285,
    1946020258,
    1946020270
  ],
  "tags": {
    "addr:city": "Napoli",
    "addr:housenumber": "22",
    "addr:postcode": "80129",
    "addr:street": "Via Tito Angelini",
    "building": "yes",
    "museum": "art",
    "name": "Museo del Novecento",
    "opening_hours": "We-Mo 09:30-16:15; Tu off",
    "operator": "MIBACT",
    "operator:type": "private",
    "tourism": "museum",
    "website": "http://www.polomusealecampania.beniculturali.it/index.php/museo-del-900"
  }
},
{
  "type": "way",
  "id": 204833826,
  "nodes": [
    2148076296,
    2148076297,
    2148076292,
    2148076290,
    2148076296
  ],
  "tags": {
    "building": "yes",
    "name": "museo dell'abbandono",
    "source": "Bing",
    "tourism": "museum"
  }
},
{
  "type": "way",
  "id": 239564249,
  "nodes": [
    2473415674,
    2473415673,
    2473415233,
    2473415221,
    2473415675,
    2473415672,
    2473415674
  ],
  "tags": {
    "building": "yes",
    "name": "Museo del Mare",
    "tourism": "museum",
    "wikidata": "Q1702378"
  }
},
{
  "type": "way",
  "id": 261251209,
  "nodes": [
    2668787769,
    2668787782,
    2668787791,
    2668769779,
    2668783121,
    2668783125,
    2668787765,
    2668787786,
    2668787787,
    2668787774,
    2668787766,
    2668787784,
    2668787779,
    2668787789,
    2668787770,
    2668787775,
    2668787780,
    2668787777,
    2668787771,
    2668787769
  ],
  "tags": {
    "building": "yes",
    "name": "Museo dell'Opera di Santa Chiara",
    "tourism": "museum",
    "wikidata": "Q3868004"
  }
},
{
  "type": "way",
  "id": 267077343,
  "nodes": [
    2725558104,
    2725596740,
    2725596738,
    2725558101,
    2725596735,
    2725593294,
    2725600521,
    2725601567,
    2725602773,
    2725588278,
    2725588305,
    2725588282,
    2725588276,
    2725593296,
    2725597792,
    2725558104
  ],
  "tags": {
    "building": "yes",
    "name": "Museo Universitario di Paleontologia",
    "tourism": "museum"
  }
},
{
  "type": "way",
  "id": 267095451,
  "nodes": [
    2725655057,
    2725697262,
    2725697256,
    2725554978,
    2725699574,
    2725685074,
    2725643395,
    2725655049,
    2725655053,
    2725655036,
    2725655034,
    2725699572,
    2725655057
  ],
  "tags": {
    "building": "office",
    "name": "Musei Universitari di Mineralogia, Zoologia ed Antropologia",
    "tourism": "museum",
    "wikipedia": "it:Museo di mineralogia (Napoli)"
  }
},
{
  "type": "way",
  "id": 270098547,
  "nodes": [
    2751826959,
    2751826457,
    2751826458,
    2751826960,
    2751826959
  ],
  "tags": {
    "building": "yes",
    "name": "Museo dell'Opera Pia Purgatorio ad Arco",
    "tourism": "museum",
    "wikidata": "Q3868001"
  }
},
{
  "type": "way",
  "id": 270655468,
  "nodes": [
    2756691525,
    2756691521,
    2756691526,
    2756691523,
    2756691524,
    2757098276,
    2756691522,
    2757098302,
    2756691525
  ],
  "tags": {
    "building": "church",
    "denomination": "catholic",
    "name": "San Gennaro all'Olmo (Museo Vichiano)",
    "name:en": "San Gennaro Cathedral",
    "religion": "christian",
    "tourism": "museum",
    "wikipedia": "it:Chiesa di San Gennaro all'Olmo"
  }
},
{
  "type": "way",
  "id": 271230153,
  "nodes": [
    2761879910,
    2885583794,
    2761879940,
    2885582719,
    2761879898,
    2761879912,
    2761879933,
    2761879900,
    2761879938,
    2761857448,
    2761857449,
    2761879902,
    2761879921,
    2761879916,
    2761880840,
    2761879914,
    2761879904,
    2761879908,
    2761879931,
    2761879936,
    2761879927,
    2761879934,
    1373189427,
    2761879906,
    2761879923,
    2885582646,
    2761879910
  ],
  "tags": {
    "building": "yes",
    "name": "Quadreria e Biblioteca dei Girolamini",
    "tourism": "museum"
  }
},
{
  "type": "way",
  "id": 271236135,
  "nodes": [
    2761900044,
    2761900046,
    2761900041,
    2761900047,
    2761900043,
    2761900045,
    2761900044
  ],
  "tags": {
    "building": "yes",
    "name": "Palazzo Caracciolo di Avellino (Fondazione Morra Greco)",
    "tourism": "museum",
    "wikipedia": "it:Palazzo Caracciolo di Avellino"
  }
},
{
  "type": "way",
  "id": 273733049,
  "nodes": [
    2785624526,
    2906016068,
    2785654117,
    2785619439,
    2785619440,
    2785619441,
    2785619437,
    2785624527,
    2762590784,
    2785624526
  ],
  "tags": {
    "building": "yes",
    "name": "Museo delle Arti Sanitarie",
    "tourism": "museum"
  }
},
{
  "type": "way",
  "id": 273735553,
  "nodes": [
    2785658554,
    2785658557,
    2785658556,
    2785659803,
    2901541439,
    2785658555,
    2762597786,
    2762597791,
    2906016072,
    2785658554
  ],
  "tags": {
    "building": "yes",
    "name": "Farmacia degli Incurabili",
    "tourism": "museum"
  }
},
{
  "type": "way",
  "id": 287726664,
  "nodes": [
    2913022910,
    2913022917,
    3193433598,
    2913022915,
    3189124319,
    2913022913,
    2913022916,
    2913022914,
    2913022911,
    1372613123,
    2913014703,
    2912996088,
    2912996096,
    2912996092,
    2912996076,
    2913022912,
    2913022910
  ],
  "tags": {
    "building": "yes",
    "name": "Museo del Tesoro di San Gennaro",
    "tourism": "museum",
    "wikidata": "Q3849166",
    "wikipedia": "it:Museo del tesoro di San Gennaro"
  }
},
{
  "type": "way",
  "id": 288081824,
  "nodes": [
    2916224481,
    2916224487,
    2905919592,
    2905936437,
    2905929527,
    3189109251,
    3189109247,
    2916224488,
    2916224483,
    2916224482,
    2916224486,
    2916224480,
    2916224485,
    2916224484,
    2916224481
  ],
  "tags": {
    "building": "church",
    "denomination": "catholic",
    "name": "Museo Diocesano (Santa Maria Donnaregina Nuova)",
    "religion": "christian",
    "tourism": "museum",
    "wikipedia": "it:Chiesa di Santa Maria Donnaregina Nuova"
  }
},
{
  "type": "way",
  "id": 288082000,
  "nodes": [
    2916225033,
    2916225030,
    2916225025,
    2916225024,
    2916225027,
    2916225031,
    2916225029,
    2916225028,
    2916225026,
    2916225032,
    3189106021,
    2916225033
  ],
  "tags": {
    "building": "church",
    "name": "Santa Maria Donnaregina Vecchia",
    "tourism": "museum",
    "wikidata": "Q1256210",
    "wikipedia": "it:Chiesa di Santa Maria Donnaregina"
  }
},
{
  "type": "way",
  "id": 288292746,
  "nodes": [
    2918542465,
    2918542466,
    2918542467,
    6516549440,
    2918542468,
    2918542465
  ],
  "tags": {
    "addr:city": "Ischia",
    "addr:postcode": "80077",
    "addr:street": "Via Nuova Cartaromana",
    "building": "yes",
    "name": "Torre di Michelangelo",
    "tourism": "museum"
  }
},
{
  "type": "way",
  "id": 303038762,
  "nodes": [
    3073306960,
    3073306961,
    6612954798,
    3073306948,
    3073306947,
    3073306960
  ],
  "tags": {
    "building": "yes",
    "name": "Museo Angelo Rizzoli",
    "operator": "Comune di Lacco Ameno",
    "operator:type": "public",
    "tourism": "museum"
  }
},
{
  "type": "way",
  "id": 303038780,
  "nodes": [
    3073306992,
    3073306988,
    3073306976,
    3073306981,
    3073306959,
    6612954817,
    6612954798,
    3073306961,
    6612954818,
    3073306965,
    3073306985,
    6612954824,
    6612954800,
    6612954799,
    3073306984,
    6612954802,
    6612954801,
    3073306992
  ],
  "tags": {
    "building": "yes",
    "building:levels": "2",
    "name": "Villa Arbusto",
    "tourism": "museum"
  }
},
{
  "type": "way",
  "id": 305314706,
  "nodes": [
    3099212182,
    3099212177,
    6587603224,
    3099212161,
    3099212165,
    3099212172,
    6592254535,
    6587603227,
    6587603232,
    3099212182
  ],
  "tags": {
    "building": "yes",
    "name": "Museo e sala da musica W. Walton",
    "tourism": "museum"
  }
},
{
  "type": "way",
  "id": 307252401,
  "nodes": [
    3123465570,
    6612954890,
    6612954891,
    3123465569,
    3123465550,
    3123465552,
    3123465570
  ],
  "tags": {
    "building": "yes",
    "name": "Villa Gingero - Centro Multimediale",
    "tourism": "museum"
  }
},
{
  "type": "way",
  "id": 309268120,
  "nodes": [
    3146016351,
    3146016352,
    3146016353,
    3146016354,
    3146016351
  ],
  "tags": {
    "addr:city": "Ercolano",
    "addr:housenumber": "44",
    "addr:street": "Via Quattro Novembre",
    "building": "yes",
    "name": "MAV Museo Archeologico Virtuale di Ercolano",
    "tourism": "museum",
    "wikipedia": "it:Museo archeologico virtuale"
  }
},
{
  "type": "way",
  "id": 328865896,
  "nodes": [
    3356888388,
    3356888603,
    3356888386,
    3356888610,
    3356888339,
    3356888601,
    3356888388
  ],
  "tags": {
    "building": "yes",
    "tourism": "museum"
  }
},
{
  "type": "way",
  "id": 337974453,
  "nodes": [
    3450447053,
    3450447084,
    3450447080,
    3450447083,
    3450447091,
    3450447059,
    3450447053
  ],
  "tags": {
    "building": "residential",
    "name": "Museo Orientale U.Scerrato",
    "tourism": "museum"
  }
},
{
  "type": "way",
  "id": 358680506,
  "nodes": [
    3635742705,
    3635742914,
    3635354448,
    3635356195,
    3635742896,
    3635742928,
    3635742905,
    3635742771,
    3635742759,
    3635742746,
    3635742742,
    3635742705
  ],
  "tags": {
    "building": "yes",
    "name": "Museo della Fondazione Nunziatella",
    "tourism": "museum"
  }
},
{
  "type": "way",
  "id": 358713733,
  "nodes": [
    3635977146,
    3635997235,
    3635997284,
    3635997221,
    3635997270,
    3635997153,
    3635997298,
    3635997206,
    3635997227,
    3635997197,
    3635997280,
    3635997230,
    3635977146
  ],
  "tags": {
    "building": "yes",
    "name": "Museo artistico industriale Filippo Palizzi",
    "tourism": "museum",
    "wikidata": "Q3867742",
    "wikipedia": "it:Museo artistico industriale Filippo Palizzi"
  }
},
{
  "type": "way",
  "id": 399887910,
  "nodes": [
    4025478841,
    4025478813,
    4025478801,
    4025478802,
    4025478800,
    4025478795,
    4025478809,
    4025478824,
    4025478823,
    4025478817,
    4025478814,
    4025478811,
    4025478810,
    4025478808,
    4025478807,
    4025478812,
    4025478815,
    4025478819,
    4025478818,
    4025478816,
    4025478826,
    4025478829,
    4025478858,
    4025478851,
    4025478871,
    4025479051,
    4025479022,
    4025479011,
    4025479010,
    4025479026,
    4025479007,
    4025478856,
    4025478841
  ],
  "tags": {
    "Shape_Area": "1442.95016952",
    "Shape_Leng": "184.284168055",
    "building": "yes",
    "name": "Antiquarium nazionale Boscoreale",
    "tourism": "museum"
  }
},
{
  "type": "way",
  "id": 403871102,
  "nodes": [
    4061723217,
    4061723218,
    4061723219,
    4061723220,
    4061723217
  ],
  "tags": {
    "building": "yes",
    "building:levels": "3",
    "name": "Casa del Servo di Dio Giuseppe Ottone",
    "source": "survey",
    "source:geometry": "bing",
    "tourism": "museum"
  }
},
{
  "type": "way",
  "id": 411016838,
  "nodes": [
    4127552955,
    4127552956,
    1937745522,
    4127552957,
    4127552958,
    4127552959,
    4127552960,
    4127552961,
    4127555189,
    4127552955
  ],
  "tags": {
    "addr:city": "Napoli",
    "addr:postcode": "80121",
    "addr:street": "Via Giacomo Piscicelli",
    "building": "yes",
    "tourism": "museum"
  }
},
{
  "type": "way",
  "id": 416112696,
  "nodes": [
    4169551759,
    4169551762,
    4169551745,
    4169551743,
    4169551759
  ],
  "tags": {
    "building": "yes",
    "name": "Museo delle Carrozze",
    "tourism": "museum"
  }
},
{
  "type": "way",
  "id": 497404263,
  "nodes": [
    4889667437,
    4889667439,
    4889667440,
    4889667451,
    4889667438,
    4889667437
  ],
  "tags": {
    "building": "yes",
    "name": "Museo diocesano",
    "operator": "Curia Vescovile di Caserta",
    "tourism": "museum"
  }
},
{
  "type": "way",
  "id": 498280997,
  "nodes": [
    4897340932,
    4897340933,
    4897340934,
    4897340935,
    4897340932
  ],
  "tags": {
    "addr:city": "Nola",
    "addr:postcode": "80023",
    "building": "yes",
    "description": "Struttura in legno (finanziata con fondi europei) mai ultimata ne' accessibile al pubblico, costruita al centro di uno stadio abbandonato, che avrebbe dovuto ospitare un fantomatico museo della cartapesta.",
    "name": "Museo della cartapesta (mai ultimato)",
    "tourism": "museum"
  }
},
{
  "type": "way",
  "id": 610606038,
  "nodes": [
    5782484896,
    5782484897,
    5782484898,
    5782484899,
    5782484900,
    5782484901,
    5782484902,
    5782484903,
    5782484904,
    5782484905,
    5782484896
  ],
  "tags": {
    "addr:city": "Santa Maria Capua Vetere",
    "addr:postcode": "81055",
    "addr:street": "Piazza I Ottobre",
    "building": "yes",
    "name": "Museo dei Gladiatori",
    "tourism": "museum",
    "wikipedia": "it:Museo dei gladiatori"
  }
},
{
  "type": "way",
  "id": 642712430,
  "nodes": [
    6049913316,
    6049913317,
    6049913318,
    6049913319,
    6049913316
  ],
  "tags": {
    "building": "yes",
    "name": "casa della Fantasia",
    "tourism": "museum"
  }
},
{
  "type": "way",
  "id": 655922835,
  "nodes": [
    6144932347,
    6144932348,
    6144932349,
    7025081369,
    6144932353,
    6144932354,
    6144932351,
    6144932352,
    6144932347
  ],
  "tags": {
    "tourism": "museum"
  }
},
{
  "type": "way",
  "id": 698220923,
  "nodes": [
    6557260285,
    6557260286,
    6557260287,
    6557260288,
    6557260285
  ],
  "tags": {
    "building": "yes",
    "tourism": "museum"
  }
},
{
  "type": "way",
  "id": 732202111,
  "nodes": [
    6856122994,
    6856123211,
    6856123212,
    6856122996,
    6856122993,
    6856122994
  ],
  "tags": {
    "addr:city": "Nola",
    "addr:housenumber": "2",
    "addr:postcode": "80035",
    "addr:street": "Via Senatore Cocozza",
    "building": "yes",
    "email": "pm-cam.nola@beniculturali.it",
    "fee": "no",
    "museum": "archaeological",
    "name": "Museo storico archeologico di Nola",
    "opening_hours": "Tu-Su 09:00-19:00; Mo off",
    "operator": "MIBACT",
    "operator:type": "public",
    "phone": "+39 081 5127184",
    "tourism": "museum",
    "website": "http://www.polomusealecampania.beniculturali.it/index.php/il-museo-nola"
  }
},
{
  "type": "way",
  "id": 734210221,
  "nodes": [
    6875800472,
    6875808592,
    6875816698,
    6875809883,
    6875798922,
    6875801154,
    6875809200,
    6875802535,
    6875810589,
    6875807747,
    6875815840,
    6875804807,
    6875812826,
    6875810706,
    6875799735,
    6875807861,
    6875815961,
    6875804935,
    6875800472
  ],
  "tags": {
    "building": "yes",
    "name": "Real Osservatorio Vesuviano",
    "tourism": "museum",
    "website": "http://www.ov.ingv.it/ov/museo.html"
  }
},
{
  "type": "way",
  "id": 734305473,
  "nodes": [
    6876601457,
    6876601454,
    6876601455,
    6876601456,
    6876601230,
    6876601229,
    6876601228,
    6876601227,
    6876601226,
    6876601225,
    6876601224,
    6876601223,
    6876601222,
    6876601221,
    6876601220,
    6876601219,
    6876601218,
    6876601217,
    6876601216,
    6876601215,
    6876601214,
    6876601213,
    6876601212,
    6876601211,
    6876601210,
    6876601209,
    6876601208,
    6876601207,
    6876601206,
    6876601205,
    6876601204,
    6876601203,
    6876601202,
    3532944667,
    6876601201,
    6876601200,
    6876601199,
    6876601198,
    6876601197,
    6876601196,
    6876601195,
    3532944662,
    6876601194,
    6876601193,
    6876601457
  ],
  "tags": {
    "building": "yes",
    "name": "Villa Campolieto",
    "operator": "Ente Ville Vesuviane",
    "tourism": "museum",
    "wikidata": "Q4011852",
    "wikipedia": "it:Villa Campolieto"
  }
},
{
  "type": "way",
  "id": 734891806,
  "nodes": [
    6882745259,
    6882756719,
    6882756718,
    6882756717,
    6882756716,
    6882745257,
    6882745259
  ],
  "tags": {
    "addr:city": "Castellammare di Stabia",
    "addr:postcode": "80053",
    "addr:street": "Piazza Giovanni XXIII",
    "building": "civic",
    "name": "Museo Diocesano Sorrentino Stabiese",
    "tourism": "museum"
  }
},
{
  "type": "way",
  "id": 749279348,
  "nodes": [
    3581704757,
    3581704752,
    7006882065,
    7006882064,
    7006882063,
    7006882062,
    7006882061,
    7006882060,
    7006882059,
    7006882058,
    7006882057,
    7006882056,
    7006882055,
    7006882054,
    3581704757
  ],
  "tags": {
    "building": "yes",
    "name": "Villa Fondi De Sangro",
    "tourism": "museum",
    "wikidata": "Q16621409",
    "wikipedia": "it:Villa Fondi De Sangro"
  }
},
{
  "type": "way",
  "id": 749281632,
  "nodes": [
    7006898967,
    7006898966,
    7006898965,
    7006898964,
    7006898963,
    7006898962,
    7006898961,
    7006898960,
    7006898959,
    7006898958,
    7006898957,
    7006898956,
    7006898955,
    7006898967
  ],
  "tags": {
    "building": "yes",
    "name": "Museo Correale di Terranova",
    "tourism": "museum",
    "wikidata": "Q2743852",
    "wikipedia": "it:Museo Correale di Terranova"
  }
},
{
  "type": "way",
  "id": 751445120,
  "nodes": [
    7024868539,
    7024868538,
    7024868537,
    7024868536,
    7024868535,
    7024868534,
    7024868533,
    7024868532,
    7024868531,
    7024868530,
    7024868529,
    7024868528,
    7024868527,
    7024868539
  ],
  "tags": {
    "building": "yes",
    "ele": "327",
    "name": "Villa San Michele",
    "tourism": "museum",
    "website": "https://www.villasanmichele.eu/",
    "wikidata": "Q1041718",
    "wikipedia": "en:Villa San Michele"
  }
},
{
  "type": "way",
  "id": 751445149,
  "nodes": [
    7024868723,
    7024868722,
    7024868721,
    7024868720,
    7024868723
  ],
  "tags": {
    "building": "yes",
    "name": "Olivetum",
    "tourism": "museum"
  }
},
{
  "type": "way",
  "id": 751445628,
  "nodes": [
    7024872468,
    7024872467,
    7024872466,
    7024872465,
    7024872464,
    7024872463,
    7024872462,
    7024872461,
    7024872460,
    7024872459,
    7024872458,
    7024872457,
    7024872456,
    7024872455,
    7024872454,
    7024872453,
    7024872452,
    7024872451,
    7024872450,
    7024872449,
    7024872448,
    7024872447,
    7024872446,
    7024872445,
    7024872444,
    7024872443,
    7024872442,
    7024872441,
    7024872468
  ],
  "tags": {
    "building": "yes",
    "historic": "building",
    "name": "Casa Rossa",
    "ruins": "yes",
    "tourism": "museum"
  }
},
{
  "type": "relation",
  "id": 62237,
  "members": [
    {
      "type": "way",
      "ref": 183334598,
      "role": "inner"
    },
    {
      "type": "way",
      "ref": 183334602,
      "role": "inner"
    },
    {
      "type": "way",
      "ref": 29403558,
      "role": "outer"
    },
    {
      "type": "way",
      "ref": 29403561,
      "role": "inner"
    },
    {
      "type": "way",
      "ref": 29403567,
      "role": "inner"
    },
    {
      "type": "way",
      "ref": 183334607,
      "role": "inner"
    }
  ],
  "tags": {
    "addr:city": "Napoli",
    "addr:postcode": "80132",
    "addr:street": "Piazza del Plebiscito",
    "building": "yes",
    "email": "pm-cam.palazzoreale.napoli@beniculturali.it",
    "name": "Palazzo Reale",
    "name:ko": "레알레 궁전(나폴리 왕궁)",
    "name:ru": "королевский дворец",
    "opening_hours": "Th-Tu 09:00-20:00; We off",
    "phone": "+39 081 5808255",
    "tourism": "museum",
    "type": "multipolygon",
    "website": "http://www.palazzorealenapoli.it/",
    "wikidata": "Q426339",
    "wikipedia": "it:Palazzo Reale di Napoli"
  }
},
{
  "type": "relation",
  "id": 62239,
  "members": [
    {
      "type": "way",
      "ref": 29403592,
      "role": "outer"
    },
    {
      "type": "way",
      "ref": 29403611,
      "role": "inner"
    }
  ],
  "tags": {
    "alt_name": "Maschio Angioino",
    "building": "castle",
    "ele": "40",
    "fee": "yes",
    "historic": "castle",
    "name": "Castel Nuovo (Museo Civico)",
    "name:ko": "누오보 성(카스텔 누오보)",
    "name:ru": "Замок Нуово",
    "name:zh": "新堡",
    "opening_hours": "Mo-Su 09:00-19:00",
    "tourism": "museum",
    "type": "multipolygon",
    "wheelchair": "limited",
    "wikidata": "Q781219",
    "wikipedia": "it:Maschio Angioino"
  }
},
{
  "type": "relation",
  "id": 1541871,
  "members": [
    {
      "type": "way",
      "ref": 139927636,
      "role": "outer"
    },
    {
      "type": "way",
      "ref": 139920147,
      "role": "outer"
    },
    {
      "type": "way",
      "ref": 139939926,
      "role": "outer"
    },
    {
      "type": "way",
      "ref": 108580346,
      "role": "outer"
    },
    {
      "type": "way",
      "ref": 139927637,
      "role": "outer"
    },
    {
      "type": "way",
      "ref": 108580351,
      "role": "inner"
    }
  ],
  "tags": {
    "building": "yes",
    "castle_type": "stately",
    "historic": "heritage",
    "name": "Belvedere",
    "opening_hours": "We-Mo 9:00-17:00",
    "phone": "+39 0823 273151",
    "tourism": "museum",
    "type": "multipolygon"
  }
},
{
  "type": "relation",
  "id": 1676059,
  "members": [
    {
      "type": "way",
      "ref": 122697728,
      "role": "outer"
    },
    {
      "type": "way",
      "ref": 122697729,
      "role": "inner"
    }
  ],
  "tags": {
    "addr:city": "Napoli",
    "addr:housenumber": "253",
    "addr:street": "Via dei Tribunali",
    "building": "yes",
    "denomination": "catholic",
    "name": "Pinacoteca del Monte della Misericordia",
    "opening_hours": "Mo-Tu 09:30-14:30; Th-Su 09:30-14:30",
    "tourism": "museum",
    "type": "multipolygon",
    "website": "https://www.piomontedellamisericordia.it/",
    "wikidata": "Q3737242",
    "wikipedia": "it:Pio Monte della Misericordia"
  }
},
{
  "type": "relation",
  "id": 3507387,
  "members": [
    {
      "type": "way",
      "ref": 261250685,
      "role": "outer"
    },
    {
      "type": "way",
      "ref": 79299088,
      "role": "inner"
    }
  ],
  "tags": {
    "building": "yes",
    "name": "Chiostro delle Clarisse",
    "tourism": "museum",
    "type": "multipolygon",
    "wikidata": "Q21192700",
    "wikipedia": "it:Chiostro maiolicato"
  }
},
{
  "type": "relation",
  "id": 3507390,
  "members": [
    {
      "type": "way",
      "ref": 261250725,
      "role": "outer"
    },
    {
      "type": "way",
      "ref": 261250729,
      "role": "inner"
    }
  ],
  "tags": {
    "building": "yes",
    "name": "Chiostro dei Minori",
    "tourism": "museum",
    "type": "multipolygon"
  }
},
{
  "type": "relation",
  "id": 3622561,
  "members": [
    {
      "type": "way",
      "ref": 271130190,
      "role": "outer"
    },
    {
      "type": "way",
      "ref": 271130460,
      "role": "inner"
    },
    {
      "type": "way",
      "ref": 271130471,
      "role": "inner"
    }
  ],
  "tags": {
    "amenity": "monastery",
    "building": "yes",
    "name": "Convento di San Domenico Maggiore",
    "tourism": "museum",
    "type": "multipolygon"
  }
},
{
  "type": "relation",
  "id": 3623111,
  "members": [
    {
      "type": "way",
      "ref": 271217565,
      "role": "outer"
    },
    {
      "type": "way",
      "ref": 271217563,
      "role": "inner"
    }
  ],
  "tags": {
    "building": "yes",
    "name": "Convento di San Lorenzo Maggiore",
    "tourism": "museum",
    "type": "multipolygon"
  }
},
{
  "type": "relation",
  "id": 3623210,
  "members": [
    {
      "type": "way",
      "ref": 271231505,
      "role": "outer"
    },
    {
      "type": "way",
      "ref": 271231506,
      "role": "inner"
    }
  ],
  "tags": {
    "building": "yes",
    "tourism": "museum",
    "type": "multipolygon"
  }
},
{
  "type": "relation",
  "id": 3821123,
  "members": [
    {
      "type": "way",
      "ref": 288082089,
      "role": "outer"
    },
    {
      "type": "way",
      "ref": 288082088,
      "role": "inner"
    }
  ],
  "tags": {
    "addr:housenumber": "79",
    "building": "yes",
    "name": "Madre",
    "tourism": "museum",
    "type": "multipolygon",
    "wikidata": "Q1954314",
    "wikipedia": "it:Museo d'arte contemporanea Donnaregina"
  }
},
{
  "type": "relation",
  "id": 3824019,
  "members": [
    {
      "type": "way",
      "ref": 288230272,
      "role": "outer"
    },
    {
      "type": "way",
      "ref": 29403647,
      "role": "inner"
    },
    {
      "type": "way",
      "ref": 29403652,
      "role": "inner"
    }
  ],
  "tags": {
    "addr:city": "Napoli",
    "addr:country": "IT",
    "addr:housenumber": "19",
    "addr:postcode": "80135",
    "addr:street": "Piazza Museo Nazionale",
    "building": "public",
    "contact:facebook": "https://www.facebook.com/MANNapoli/",
    "name": "Museo archeologico nazionale di Napoli",
    "name:de": "Archäologisches Nationalmuseum Neapel",
    "name:en": "Naples National Archaeological Museum",
    "name:es": "Museo Arqueológico Nacional de Nápoles",
    "name:fr": "Musée archéologique national de Naples",
    "name:ko": "나폴리 국립 고고학 박물관",
    "name:ru": "Национальный археологический музей Неаполя",
    "opening_hours": "We-Mo 09:00-19:30; Tu off",
    "phone": "+39 081 4422149",
    "short_name": "MANN",
    "tourism": "museum",
    "type": "multipolygon",
    "website": "http://www.museoarcheologiconapoli.it/it/",
    "wikidata": "Q637248",
    "wikipedia": "it:Museo archeologico nazionale di Napoli"
  }
},
{
  "type": "relation",
  "id": 4464209,
  "members": [
    {
      "type": "way",
      "ref": 231311665,
      "role": "outer"
    },
    {
      "type": "way",
      "ref": 618509333,
      "role": "inner"
    }
  ],
  "tags": {
    "addr:city": "Santa Maria Capua Vetere",
    "addr:housenumber": "48",
    "addr:postcode": "81055",
    "addr:street": "Via R. d'Angiò",
    "building": "public",
    "email": "pm-cam.museoanticacapua@beniculturali.it",
    "name": "Museo archeologico dell'antica Capua",
    "opening_hours": "Tu-Su 09:00-19:30; Mo off",
    "operator": "Ministero per i Beni Culturali e Ambientali",
    "phone": "+39 0823 844206",
    "tourism": "museum",
    "type": "multipolygon",
    "website": "http://www.polomusealecampania.beniculturali.it/index.php/il-museo-e-mitreo",
    "wikidata": "Q3867677",
    "wikipedia": "it:Museo archeologico dell'antica Capua"
  }
},
{
  "type": "relation",
  "id": 6451203,
  "members": [
    {
      "type": "way",
      "ref": 515771598,
      "role": "inner"
    },
    {
      "type": "way",
      "ref": 29403924,
      "role": "outer"
    },
    {
      "type": "way",
      "ref": 435133457,
      "role": "inner"
    },
    {
      "type": "way",
      "ref": 435133456,
      "role": "inner"
    }
  ],
  "tags": {
    "building": "yes",
    "name": "Museo nazionale di San Martino",
    "tourism": "museum",
    "type": "multipolygon",
    "wheelchair": "limited",
    "wikidata": "Q3329345",
    "wikipedia": "it:Museo nazionale di San Martino"
  }
},
{
  "type": "relation",
  "id": 9734895,
  "members": [
    {
      "type": "way",
      "ref": 314869462,
      "role": "outer"
    },
    {
      "type": "way",
      "ref": 29427589,
      "role": "inner"
    },
    {
      "type": "way",
      "ref": 29427592,
      "role": "inner"
    },
    {
      "type": "way",
      "ref": 29427598,
      "role": "inner"
    }
  ],
  "tags": {
    "addr:housenumber": "2",
    "addr:postcode": "80131",
    "addr:street": "Via Milano",
    "contact:email": "mu-cap@beniculturali.it",
    "contact:phone": "+39 081 7499111",
    "name": "Museo Nazionale di Capodimonte",
    "opening_hours": "Th-Tu 08:30-19:30",
    "tourism": "museum",
    "type": "multipolygon",
    "website": "http://www.museocapodimonte.beniculturali.it",
    "wikidata": "Q290549",
    "wikipedia": "it:Museo nazionale di Capodimonte",
    "wikipedia:en": "Museo di Capodimonte"
  }
},
{
  "type": "node",
  "id": 7024872441,
  "lat": 40.5552130,
  "lon": 14.2187324
},
{
  "type": "node",
  "id": 7024872442,
  "lat": 40.5552449,
  "lon": 14.2186809
},
{
  "type": "node",
  "id": 7024872443,
  "lat": 40.5552256,
  "lon": 14.2186569
},
{
  "type": "node",
  "id": 7024872444,
  "lat": 40.5552401,
  "lon": 14.2186186
},
{
  "type": "node",
  "id": 7024872445,
  "lat": 40.5551989,
  "lon": 14.2185705
},
{
  "type": "node",
  "id": 7024872446,
  "lat": 40.5551755,
  "lon": 14.2186014
},
{
  "type": "node",
  "id": 7024872447,
  "lat": 40.5551516,
  "lon": 14.2185738
},
{
  "type": "node",
  "id": 7024872448,
  "lat": 40.5550939,
  "lon": 14.2186560
},
{
  "type": "node",
  "id": 7024872449,
  "lat": 40.5551660,
  "lon": 14.2187328
},
{
  "type": "node",
  "id": 7024872450,
  "lat": 40.5551423,
  "lon": 14.2187668
},
{
  "type": "node",
  "id": 7024872451,
  "lat": 40.5551724,
  "lon": 14.2188076
},
{
  "type": "node",
  "id": 7024872452,
  "lat": 40.5551362,
  "lon": 14.2188524
},
{
  "type": "node",
  "id": 7024872453,
  "lat": 40.5551277,
  "lon": 14.2188390
},
{
  "type": "node",
  "id": 7024872454,
  "lat": 40.5550965,
  "lon": 14.2188813
},
{
  "type": "node",
  "id": 7024872455,
  "lat": 40.5550555,
  "lon": 14.2188300
},
{
  "type": "node",
  "id": 7024872456,
  "lat": 40.5551303,
  "lon": 14.2187376
},
{
  "type": "node",
  "id": 7024872457,
  "lat": 40.5550955,
  "lon": 14.2186993
},
{
  "type": "node",
  "id": 7024872458,
  "lat": 40.5550230,
  "lon": 14.2187921
},
{
  "type": "node",
  "id": 7024872459,
  "lat": 40.5549939,
  "lon": 14.2187391
},
{
  "type": "node",
  "id": 7024872460,
  "lat": 40.5549992,
  "lon": 14.2187306
},
{
  "type": "node",
  "id": 7024872461,
  "lat": 40.5549718,
  "lon": 14.2186871
},
{
  "type": "node",
  "id": 7024872462,
  "lat": 40.5549461,
  "lon": 14.2187179
},
{
  "type": "node",
  "id": 7024872463,
  "lat": 40.5549929,
  "lon": 14.2187852
},
{
  "type": "node",
  "id": 7024872464,
  "lat": 40.5549825,
  "lon": 14.2187994
},
{
  "type": "node",
  "id": 7024872465,
  "lat": 40.5550506,
  "lon": 14.2188972
},
{
  "type": "node",
  "id": 7024872466,
  "lat": 40.5551445,
  "lon": 14.2189983
},
{
  "type": "node",
  "id": 7024872467,
  "lat": 40.5552078,
  "lon": 14.2189014
},
{
  "type": "node",
  "id": 7024872468,
  "lat": 40.5552567,
  "lon": 14.2187780
},
{
  "type": "node",
  "id": 6144932347,
  "lat": 40.5567689,
  "lon": 14.2239262
},
{
  "type": "node",
  "id": 6144932348,
  "lat": 40.5568370,
  "lon": 14.2240604
},
{
  "type": "node",
  "id": 6144932349,
  "lat": 40.5566200,
  "lon": 14.2242542
},
{
  "type": "node",
  "id": 6144932351,
  "lat": 40.5565338,
  "lon": 14.2236306
},
{
  "type": "node",
  "id": 6144932352,
  "lat": 40.5566969,
  "lon": 14.2239695
},
{
  "type": "node",
  "id": 6144932353,
  "lat": 40.5563461,
  "lon": 14.2237923
},
{
  "type": "node",
  "id": 6144932354,
  "lat": 40.5564176,
  "lon": 14.2236781
},
{
  "type": "node",
  "id": 7025081369,
  "lat": 40.5564069,
  "lon": 14.2239462
},
{
  "type": "node",
  "id": 7024868527,
  "lat": 40.5572523,
  "lon": 14.2248613
},
{
  "type": "node",
  "id": 7024868528,
  "lat": 40.5572190,
  "lon": 14.2247919
},
{
  "type": "node",
  "id": 7024868529,
  "lat": 40.5571414,
  "lon": 14.2248348
},
{
  "type": "node",
  "id": 7024868530,
  "lat": 40.5571498,
  "lon": 14.2248614
},
{
  "type": "node",
  "id": 7024868531,
  "lat": 40.5571859,
  "lon": 14.2248564
},
{
  "type": "node",
  "id": 7024868532,
  "lat": 40.5572123,
  "lon": 14.2249388
},
{
  "type": "node",
  "id": 7024868533,
  "lat": 40.5571699,
  "lon": 14.2249622
},
{
  "type": "node",
  "id": 7024868534,
  "lat": 40.5571798,
  "lon": 14.2250141
},
{
  "type": "node",
  "id": 7024868535,
  "lat": 40.5572173,
  "lon": 14.2249982
},
{
  "type": "node",
  "id": 7024868536,
  "lat": 40.5572508,
  "lon": 14.2251027
},
{
  "type": "node",
  "id": 7024868537,
  "lat": 40.5572252,
  "lon": 14.2251169
},
{
  "type": "node",
  "id": 7024868538,
  "lat": 40.5572751,
  "lon": 14.2252721
},
{
  "type": "node",
  "id": 7024868539,
  "lat": 40.5573675,
  "lon": 14.2252211
},
{
  "type": "node",
  "id": 7024868720,
  "lat": 40.5572606,
  "lon": 14.2258519
},
{
  "type": "node",
  "id": 7024868721,
  "lat": 40.5571871,
  "lon": 14.2258286
},
{
  "type": "node",
  "id": 7024868722,
  "lat": 40.5571259,
  "lon": 14.2259910
},
{
  "type": "node",
  "id": 7024868723,
  "lat": 40.5571995,
  "lon": 14.2260138
},
{
  "type": "node",
  "id": 3356888339,
  "lat": 40.6254421,
  "lon": 14.3732375
},
{
  "type": "node",
  "id": 3356888386,
  "lat": 40.6254612,
  "lon": 14.3733105
},
{
  "type": "node",
  "id": 3356888388,
  "lat": 40.6255378,
  "lon": 14.3733640
},
{
  "type": "node",
  "id": 3356888601,
  "lat": 40.6255085,
  "lon": 14.3732149
},
{
  "type": "node",
  "id": 3356888603,
  "lat": 40.6254758,
  "lon": 14.3733851
},
{
  "type": "node",
  "id": 3356888610,
  "lat": 40.6254568,
  "lon": 14.3733120
},
{
  "type": "node",
  "id": 7006898955,
  "lat": 40.6288397,
  "lon": 14.3808574
},
{
  "type": "node",
  "id": 7006898956,
  "lat": 40.6287003,
  "lon": 14.3809469
},
{
  "type": "node",
  "id": 7006898957,
  "lat": 40.6286929,
  "lon": 14.3809269
},
{
  "type": "node",
  "id": 7006898958,
  "lat": 40.6286846,
  "lon": 14.3809322
},
{
  "type": "node",
  "id": 7006898959,
  "lat": 40.6286689,
  "lon": 14.3808898
},
{
  "type": "node",
  "id": 7006898960,
  "lat": 40.6285179,
  "lon": 14.3809867
},
{
  "type": "node",
  "id": 7006898961,
  "lat": 40.6285397,
  "lon": 14.3810457
},
{
  "type": "node",
  "id": 7006898962,
  "lat": 40.6286241,
  "lon": 14.3809915
},
{
  "type": "node",
  "id": 7006898963,
  "lat": 40.6286991,
  "lon": 14.3811942
},
{
  "type": "node",
  "id": 7006898964,
  "lat": 40.6289812,
  "lon": 14.3810131
},
{
  "type": "node",
  "id": 7006898965,
  "lat": 40.6289671,
  "lon": 14.3809749
},
{
  "type": "node",
  "id": 7006898966,
  "lat": 40.6289000,
  "lon": 14.3807933
},
{
  "type": "node",
  "id": 7006898967,
  "lat": 40.6288321,
  "lon": 14.3808369
},
{
  "type": "node",
  "id": 3581704752,
  "lat": 40.6378096,
  "lon": 14.4021537
},
{
  "type": "node",
  "id": 3581704757,
  "lat": 40.6380850,
  "lon": 14.4023681
},
{
  "type": "node",
  "id": 7006882054,
  "lat": 40.6381021,
  "lon": 14.4023303
},
{
  "type": "node",
  "id": 7006882055,
  "lat": 40.6381177,
  "lon": 14.4023425
},
{
  "type": "node",
  "id": 7006882056,
  "lat": 40.6381573,
  "lon": 14.4022552
},
{
  "type": "node",
  "id": 7006882057,
  "lat": 40.6381169,
  "lon": 14.4022236
},
{
  "type": "node",
  "id": 7006882058,
  "lat": 40.6381759,
  "lon": 14.4020934
},
{
  "type": "node",
  "id": 7006882059,
  "lat": 40.6381020,
  "lon": 14.4020357
},
{
  "type": "node",
  "id": 7006882060,
  "lat": 40.6380809,
  "lon": 14.4020823
},
{
  "type": "node",
  "id": 7006882061,
  "lat": 40.6380008,
  "lon": 14.4020199
},
{
  "type": "node",
  "id": 7006882062,
  "lat": 40.6380206,
  "lon": 14.4019762
},
{
  "type": "node",
  "id": 7006882063,
  "lat": 40.6379663,
  "lon": 14.4019339
},
{
  "type": "node",
  "id": 7006882064,
  "lat": 40.6379250,
  "lon": 14.4020252
},
{
  "type": "node",
  "id": 7006882065,
  "lat": 40.6378826,
  "lon": 14.4019922
},
{
  "type": "node",
  "id": 6882756718,
  "lat": 40.6945605,
  "lon": 14.4796968
},
{
  "type": "node",
  "id": 6882745257,
  "lat": 40.6946482,
  "lon": 14.4795645
},
{
  "type": "node",
  "id": 6882745259,
  "lat": 40.6947031,
  "lon": 14.4796908
},
{
  "type": "node",
  "id": 6882756716,
  "lat": 40.6946112,
  "lon": 14.4795989
},
{
  "type": "node",
  "id": 6882756717,
  "lat": 40.6946245,
  "lon": 14.4796348
},
{
  "type": "node",
  "id": 6882756719,
  "lat": 40.6945983,
  "lon": 14.4797825
},
{
  "type": "node",
  "id": 6557260285,
  "lat": 40.7382460,
  "lon": 13.8561274
},
{
  "type": "node",
  "id": 6557260286,
  "lat": 40.7382204,
  "lon": 13.8562273
},
{
  "type": "node",
  "id": 6557260287,
  "lat": 40.7380492,
  "lon": 13.8561327
},
{
  "type": "node",
  "id": 6557260288,
  "lat": 40.7380766,
  "lon": 13.8560431
},
{
  "type": "node",
  "id": 3099212161,
  "lat": 40.7525937,
  "lon": 13.8726625
},
{
  "type": "node",
  "id": 3099212165,
  "lat": 40.7526098,
  "lon": 13.8725932
},
{
  "type": "node",
  "id": 3099212172,
  "lat": 40.7526565,
  "lon": 13.8725341
},
{
  "type": "node",
  "id": 3099212177,
  "lat": 40.7526422,
  "lon": 13.8727231
},
{
  "type": "node",
  "id": 3099212182,
  "lat": 40.7526938,
  "lon": 13.8726573
},
{
  "type": "node",
  "id": 6587603224,
  "lat": 40.7526205,
  "lon": 13.8726979
},
{
  "type": "node",
  "id": 6587603227,
  "lat": 40.7526965,
  "lon": 13.8725796
},
{
  "type": "node",
  "id": 6587603232,
  "lat": 40.7526941,
  "lon": 13.8726284
},
{
  "type": "node",
  "id": 6592254535,
  "lat": 40.7526984,
  "lon": 13.8725377
},
{
  "type": "node",
  "id": 3073306947,
  "lat": 40.7523842,
  "lon": 13.8826818
},
{
  "type": "node",
  "id": 3073306948,
  "lat": 40.7523954,
  "lon": 13.8827628
},
{
  "type": "node",
  "id": 3073306959,
  "lat": 40.7524729,
  "lon": 13.8831121
},
{
  "type": "node",
  "id": 3073306960,
  "lat": 40.7524772,
  "lon": 13.8826564
},
{
  "type": "node",
  "id": 3073306961,
  "lat": 40.7524886,
  "lon": 13.8827384
},
{
  "type": "node",
  "id": 3073306965,
  "lat": 40.7524888,
  "lon": 13.8828435
},
{
  "type": "node",
  "id": 3073306976,
  "lat": 40.7525775,
  "lon": 13.8833304
},
{
  "type": "node",
  "id": 3073306981,
  "lat": 40.7525981,
  "lon": 13.8831107
},
{
  "type": "node",
  "id": 3073306984,
  "lat": 40.7526164,
  "lon": 13.8830043
},
{
  "type": "node",
  "id": 3073306985,
  "lat": 40.7526538,
  "lon": 13.8828178
},
{
  "type": "node",
  "id": 3073306988,
  "lat": 40.7526628,
  "lon": 13.8833353
},
{
  "type": "node",
  "id": 3073306992,
  "lat": 40.7527058,
  "lon": 13.8829977
},
{
  "type": "node",
  "id": 3123465550,
  "lat": 40.7521198,
  "lon": 13.8839166
},
{
  "type": "node",
  "id": 3123465552,
  "lat": 40.7521265,
  "lon": 13.8836133
},
{
  "type": "node",
  "id": 3123465569,
  "lat": 40.7522620,
  "lon": 13.8839246
},
{
  "type": "node",
  "id": 3123465570,
  "lat": 40.7522909,
  "lon": 13.8836185
},
{
  "type": "node",
  "id": 6612954798,
  "lat": 40.7524802,
  "lon": 13.8827406
},
{
  "type": "node",
  "id": 6612954799,
  "lat": 40.7526201,
  "lon": 13.8829020
},
{
  "type": "node",
  "id": 6612954800,
  "lat": 40.7526524,
  "lon": 13.8829002
},
{
  "type": "node",
  "id": 6612954801,
  "lat": 40.7526629,
  "lon": 13.8829970
},
{
  "type": "node",
  "id": 6612954802,
  "lat": 40.7526625,
  "lon": 13.8830067
},
{
  "type": "node",
  "id": 6612954817,
  "lat": 40.7524796,
  "lon": 13.8827738
},
{
  "type": "node",
  "id": 6612954818,
  "lat": 40.7524886,
  "lon": 13.8827731
},
{
  "type": "node",
  "id": 6612954824,
  "lat": 40.7526535,
  "lon": 13.8828346
},
{
  "type": "node",
  "id": 6612954890,
  "lat": 40.7522845,
  "lon": 13.8837406
},
{
  "type": "node",
  "id": 6612954891,
  "lat": 40.7522652,
  "lon": 13.8837388
},
{
  "type": "node",
  "id": 2918542465,
  "lat": 40.7277032,
  "lon": 13.9593466
},
{
  "type": "node",
  "id": 2918542466,
  "lat": 40.7277411,
  "lon": 13.9594915
},
{
  "type": "node",
  "id": 2918542467,
  "lat": 40.7276317,
  "lon": 13.9595413
},
{
  "type": "node",
  "id": 2918542468,
  "lat": 40.7275938,
  "lon": 13.9593964
},
{
  "type": "node",
  "id": 6516549440,
  "lat": 40.7276128,
  "lon": 13.9594691
},
{
  "type": "node",
  "id": 1848069576,
  "lat": 40.8034151,
  "lon": 14.1734460
},
{
  "type": "node",
  "id": 1848069577,
  "lat": 40.8035814,
  "lon": 14.1742058
},
{
  "type": "node",
  "id": 1848069578,
  "lat": 40.8036668,
  "lon": 14.1732660
},
{
  "type": "node",
  "id": 1848069580,
  "lat": 40.8036853,
  "lon": 14.1733423
},
{
  "type": "node",
  "id": 1848069604,
  "lat": 40.8041888,
  "lon": 14.1736474
},
{
  "type": "node",
  "id": 1848069606,
  "lat": 40.8042096,
  "lon": 14.1737511
},
{
  "type": "node",
  "id": 1848069610,
  "lat": 40.8039506,
  "lon": 14.1738563
},
{
  "type": "node",
  "id": 1848069611,
  "lat": 40.8039876,
  "lon": 14.1740120
},
{
  "type": "node",
  "id": 1848069615,
  "lat": 40.8044221,
  "lon": 14.1729548
},
{
  "type": "node",
  "id": 1848069617,
  "lat": 40.8044382,
  "lon": 14.1730372
},
{
  "type": "node",
  "id": 1848069660,
  "lat": 40.8050433,
  "lon": 14.1728022
},
{
  "type": "node",
  "id": 1848069664,
  "lat": 40.8051380,
  "lon": 14.1732477
},
{
  "type": "node",
  "id": 2473415221,
  "lat": 40.8141839,
  "lon": 14.1647140
},
{
  "type": "node",
  "id": 2473415233,
  "lat": 40.8143019,
  "lon": 14.1648106
},
{
  "type": "node",
  "id": 2473415672,
  "lat": 40.8141416,
  "lon": 14.1647255
},
{
  "type": "node",
  "id": 2473415673,
  "lat": 40.8144879,
  "lon": 14.1644142
},
{
  "type": "node",
  "id": 2473415674,
  "lat": 40.8143433,
  "lon": 14.1642957
},
{
  "type": "node",
  "id": 2473415675,
  "lat": 40.8141682,
  "lon": 14.1647473
},
{
  "type": "node",
  "id": 3450447053,
  "lat": 40.8311399,
  "lon": 14.2445212
},
{
  "type": "node",
  "id": 3450447059,
  "lat": 40.8310549,
  "lon": 14.2443684
},
{
  "type": "node",
  "id": 3450447080,
  "lat": 40.8312416,
  "lon": 14.2441310
},
{
  "type": "node",
  "id": 3450447083,
  "lat": 40.8311949,
  "lon": 14.2442096
},
{
  "type": "node",
  "id": 3450447084,
  "lat": 40.8313461,
  "lon": 14.2443323
},
{
  "type": "node",
  "id": 3450447091,
  "lat": 40.8311122,
  "lon": 14.2443143
},
{
  "type": "node",
  "id": 925642333,
  "lat": 40.8351229,
  "lon": 14.2334285
},
{
  "type": "node",
  "id": 925642355,
  "lat": 40.8347651,
  "lon": 14.2337550
},
{
  "type": "node",
  "id": 925642410,
  "lat": 40.8347560,
  "lon": 14.2333039
},
{
  "type": "node",
  "id": 925642460,
  "lat": 40.8350900,
  "lon": 14.2337552
},
{
  "type": "node",
  "id": 925642468,
  "lat": 40.8351265,
  "lon": 14.2336067
},
{
  "type": "node",
  "id": 925642551,
  "lat": 40.8349272,
  "lon": 14.2337609
},
{
  "type": "node",
  "id": 925642567,
  "lat": 40.8350870,
  "lon": 14.2336081
},
{
  "type": "node",
  "id": 925642575,
  "lat": 40.8350756,
  "lon": 14.2332927
},
{
  "type": "node",
  "id": 925642656,
  "lat": 40.8350783,
  "lon": 14.2334300
},
{
  "type": "node",
  "id": 925642673,
  "lat": 40.8349277,
  "lon": 14.2337493
},
{
  "type": "node",
  "id": 1937745522,
  "lat": 40.8357370,
  "lon": 14.2332168
},
{
  "type": "node",
  "id": 4127552955,
  "lat": 40.8358467,
  "lon": 14.2327941
},
{
  "type": "node",
  "id": 4127552956,
  "lat": 40.8359593,
  "lon": 14.2331360
},
{
  "type": "node",
  "id": 4127552957,
  "lat": 40.8357240,
  "lon": 14.2331020
},
{
  "type": "node",
  "id": 4127552958,
  "lat": 40.8358333,
  "lon": 14.2330578
},
{
  "type": "node",
  "id": 4127552959,
  "lat": 40.8358085,
  "lon": 14.2329316
},
{
  "type": "node",
  "id": 4127552960,
  "lat": 40.8356977,
  "lon": 14.2329682
},
{
  "type": "node",
  "id": 4127552961,
  "lat": 40.8356729,
  "lon": 14.2328572
},
{
  "type": "node",
  "id": 4127555189,
  "lat": 40.8357708,
  "lon": 14.2328216
},
{
  "type": "node",
  "id": 4169551743,
  "lat": 40.8353620,
  "lon": 14.2329839
},
{
  "type": "node",
  "id": 4169551745,
  "lat": 40.8353915,
  "lon": 14.2331261
},
{
  "type": "node",
  "id": 4169551759,
  "lat": 40.8356076,
  "lon": 14.2328981
},
{
  "type": "node",
  "id": 4169551762,
  "lat": 40.8356390,
  "lon": 14.2330282
},
{
  "type": "node",
  "id": 4822184243,
  "lat": 40.8351248,
  "lon": 14.2335210
},
{
  "type": "node",
  "id": 3635354448,
  "lat": 40.8332710,
  "lon": 14.2440748
},
{
  "type": "node",
  "id": 3635356195,
  "lat": 40.8333116,
  "lon": 14.2442800
},
{
  "type": "node",
  "id": 3635742705,
  "lat": 40.8331939,
  "lon": 14.2439112
},
{
  "type": "node",
  "id": 3635742742,
  "lat": 40.8331291,
  "lon": 14.2439383
},
{
  "type": "node",
  "id": 3635742746,
  "lat": 40.8331218,
  "lon": 14.2439729
},
{
  "type": "node",
  "id": 3635742759,
  "lat": 40.8331066,
  "lon": 14.2439773
},
{
  "type": "node",
  "id": 3635742771,
  "lat": 40.8330862,
  "lon": 14.2439881
},
{
  "type": "node",
  "id": 3635742896,
  "lat": 40.8332698,
  "lon": 14.2443550
},
{
  "type": "node",
  "id": 3635742905,
  "lat": 40.8331831,
  "lon": 14.2443620
},
{
  "type": "node",
  "id": 3635742914,
  "lat": 40.8332456,
  "lon": 14.2439666
},
{
  "type": "node",
  "id": 3635742928,
  "lat": 40.8332436,
  "lon": 14.2443336
},
{
  "type": "node",
  "id": 323904445,
  "lat": 40.8427387,
  "lon": 14.2401965
},
{
  "type": "node",
  "id": 323904463,
  "lat": 40.8437103,
  "lon": 14.2407876
},
{
  "type": "node",
  "id": 323904464,
  "lat": 40.8431731,
  "lon": 14.2404760
},
{
  "type": "node",
  "id": 323904882,
  "lat": 40.8430870,
  "lon": 14.2403499
},
{
  "type": "node",
  "id": 1946020258,
  "lat": 40.8435839,
  "lon": 14.2391667
},
{
  "type": "node",
  "id": 1946020270,
  "lat": 40.8437193,
  "lon": 14.2393530
},
{
  "type": "node",
  "id": 1946020285,
  "lat": 40.8439862,
  "lon": 14.2386559
},
{
  "type": "node",
  "id": 1946020292,
  "lat": 40.8441216,
  "lon": 14.2388423
},
{
  "type": "node",
  "id": 4330854286,
  "lat": 40.8427870,
  "lon": 14.2409591
},
{
  "type": "node",
  "id": 4330854288,
  "lat": 40.8426754,
  "lon": 14.2404084
},
{
  "type": "node",
  "id": 4330854589,
  "lat": 40.8428750,
  "lon": 14.2407587
},
{
  "type": "node",
  "id": 4330854591,
  "lat": 40.8426792,
  "lon": 14.2405334
},
{
  "type": "node",
  "id": 4330854592,
  "lat": 40.8426058,
  "lon": 14.2407670
},
{
  "type": "node",
  "id": 4330854593,
  "lat": 40.8428505,
  "lon": 14.2408561
},
{
  "type": "node",
  "id": 4330854594,
  "lat": 40.8426967,
  "lon": 14.2409201
},
{
  "type": "node",
  "id": 4330854595,
  "lat": 40.8426989,
  "lon": 14.2407893
},
{
  "type": "node",
  "id": 4330854596,
  "lat": 40.8427235,
  "lon": 14.2406919
},
{
  "type": "node",
  "id": 5036276172,
  "lat": 40.8432317,
  "lon": 14.2406187
},
{
  "type": "node",
  "id": 5036276173,
  "lat": 40.8431960,
  "lon": 14.2408037
},
{
  "type": "node",
  "id": 5036276174,
  "lat": 40.8430579,
  "lon": 14.2407571
},
{
  "type": "node",
  "id": 5036276175,
  "lat": 40.8430937,
  "lon": 14.2405720
},
{
  "type": "node",
  "id": 323903385,
  "lat": 40.8433799,
  "lon": 14.2421807
},
{
  "type": "node",
  "id": 323903386,
  "lat": 40.8426251,
  "lon": 14.2419150
},
{
  "type": "node",
  "id": 323903387,
  "lat": 40.8427494,
  "lon": 14.2413896
},
{
  "type": "node",
  "id": 323903389,
  "lat": 40.8428736,
  "lon": 14.2414405
},
{
  "type": "node",
  "id": 323903390,
  "lat": 40.8428031,
  "lon": 14.2418247
},
{
  "type": "node",
  "id": 323903391,
  "lat": 40.8433145,
  "lon": 14.2420085
},
{
  "type": "node",
  "id": 323903393,
  "lat": 40.8434148,
  "lon": 14.2414955
},
{
  "type": "node",
  "id": 323903394,
  "lat": 40.8435032,
  "lon": 14.2415246
},
{
  "type": "node",
  "id": 323904446,
  "lat": 40.8427782,
  "lon": 14.2413220
},
{
  "type": "node",
  "id": 323904450,
  "lat": 40.8429258,
  "lon": 14.2412388
},
{
  "type": "node",
  "id": 323904457,
  "lat": 40.8434360,
  "lon": 14.2414238
},
{
  "type": "node",
  "id": 323904458,
  "lat": 40.8437168,
  "lon": 14.2415944
},
{
  "type": "node",
  "id": 323904459,
  "lat": 40.8437428,
  "lon": 14.2414313
},
{
  "type": "node",
  "id": 323904461,
  "lat": 40.8435999,
  "lon": 14.2413884
},
{
  "type": "node",
  "id": 4330854285,
  "lat": 40.8426652,
  "lon": 14.2410476
},
{
  "type": "node",
  "id": 4330854287,
  "lat": 40.8424980,
  "lon": 14.2411546
},
{
  "type": "node",
  "id": 4330854590,
  "lat": 40.8427555,
  "lon": 14.2410865
},
{
  "type": "node",
  "id": 4330854597,
  "lat": 40.8426015,
  "lon": 14.2418182
},
{
  "type": "node",
  "id": 224807978,
  "lat": 40.8366570,
  "lon": 14.2502730
},
{
  "type": "node",
  "id": 224807980,
  "lat": 40.8372882,
  "lon": 14.2516852
},
{
  "type": "node",
  "id": 323891537,
  "lat": 40.8366202,
  "lon": 14.2522028
},
{
  "type": "node",
  "id": 323891539,
  "lat": 40.8364938,
  "lon": 14.2519430
},
{
  "type": "node",
  "id": 323891543,
  "lat": 40.8356420,
  "lon": 14.2500866
},
{
  "type": "node",
  "id": 323891545,
  "lat": 40.8355421,
  "lon": 14.2498628
},
{
  "type": "node",
  "id": 323891547,
  "lat": 40.8366796,
  "lon": 14.2489679
},
{
  "type": "node",
  "id": 323891548,
  "lat": 40.8367770,
  "lon": 14.2491857
},
{
  "type": "node",
  "id": 323891550,
  "lat": 40.8365996,
  "lon": 14.2493260
},
{
  "type": "node",
  "id": 323891551,
  "lat": 40.8369998,
  "lon": 14.2500184
},
{
  "type": "node",
  "id": 323891676,
  "lat": 40.8364189,
  "lon": 14.2495840
},
{
  "type": "node",
  "id": 323891678,
  "lat": 40.8361585,
  "lon": 14.2497831
},
{
  "type": "node",
  "id": 323891679,
  "lat": 40.8363197,
  "lon": 14.2501513
},
{
  "type": "node",
  "id": 323891680,
  "lat": 40.8365801,
  "lon": 14.2499522
},
{
  "type": "node",
  "id": 323892022,
  "lat": 40.8365381,
  "lon": 14.2506120
},
{
  "type": "node",
  "id": 323892023,
  "lat": 40.8364223,
  "lon": 14.2507017
},
{
  "type": "node",
  "id": 323892025,
  "lat": 40.8368513,
  "lon": 14.2516689
},
{
  "type": "node",
  "id": 323892026,
  "lat": 40.8369670,
  "lon": 14.2515792
},
{
  "type": "node",
  "id": 323892297,
  "lat": 40.8368345,
  "lon": 14.2498294
},
{
  "type": "node",
  "id": 323893603,
  "lat": 40.8378134,
  "lon": 14.2537778
},
{
  "type": "node",
  "id": 323893604,
  "lat": 40.8379141,
  "lon": 14.2536569
},
{
  "type": "node",
  "id": 323893607,
  "lat": 40.8377417,
  "lon": 14.2533558
},
{
  "type": "node",
  "id": 323893609,
  "lat": 40.8379024,
  "lon": 14.2531698
},
{
  "type": "node",
  "id": 323893610,
  "lat": 40.8381612,
  "lon": 14.2527312
},
{
  "type": "node",
  "id": 323893611,
  "lat": 40.8381544,
  "lon": 14.2526106
},
{
  "type": "node",
  "id": 323893612,
  "lat": 40.8382348,
  "lon": 14.2525069
},
{
  "type": "node",
  "id": 323893613,
  "lat": 40.8383712,
  "lon": 14.2525837
},
{
  "type": "node",
  "id": 323893614,
  "lat": 40.8383565,
  "lon": 14.2526417
},
{
  "type": "node",
  "id": 323893616,
  "lat": 40.8384133,
  "lon": 14.2526640
},
{
  "type": "node",
  "id": 323893617,
  "lat": 40.8384547,
  "lon": 14.2525922
},
{
  "type": "node",
  "id": 323893621,
  "lat": 40.8386291,
  "lon": 14.2527811
},
{
  "type": "node",
  "id": 323893622,
  "lat": 40.8387076,
  "lon": 14.2527078
},
{
  "type": "node",
  "id": 323893623,
  "lat": 40.8387647,
  "lon": 14.2527073
},
{
  "type": "node",
  "id": 323893627,
  "lat": 40.8387365,
  "lon": 14.2530275
},
{
  "type": "node",
  "id": 323893629,
  "lat": 40.8387141,
  "lon": 14.2531301
},
{
  "type": "node",
  "id": 323893630,
  "lat": 40.8386009,
  "lon": 14.2537297
},
{
  "type": "node",
  "id": 323893631,
  "lat": 40.8386463,
  "lon": 14.2537698
},
{
  "type": "node",
  "id": 323893632,
  "lat": 40.8386960,
  "lon": 14.2539639
},
{
  "type": "node",
  "id": 323894322,
  "lat": 40.8381901,
  "lon": 14.2539346
},
{
  "type": "node",
  "id": 323894323,
  "lat": 40.8379917,
  "lon": 14.2538421
},
{
  "type": "node",
  "id": 323894324,
  "lat": 40.8379046,
  "lon": 14.2539190
},
{
  "type": "node",
  "id": 323894464,
  "lat": 40.8382885,
  "lon": 14.2528860
},
{
  "type": "node",
  "id": 323894465,
  "lat": 40.8380293,
  "lon": 14.2533438
},
{
  "type": "node",
  "id": 323894466,
  "lat": 40.8381727,
  "lon": 14.2534585
},
{
  "type": "node",
  "id": 323894467,
  "lat": 40.8384418,
  "lon": 14.2535655
},
{
  "type": "node",
  "id": 323894468,
  "lat": 40.8385644,
  "lon": 14.2530031
},
{
  "type": "node",
  "id": 1308247022,
  "lat": 40.8378391,
  "lon": 14.2531682
},
{
  "type": "node",
  "id": 1308247024,
  "lat": 40.8377553,
  "lon": 14.2532536
},
{
  "type": "node",
  "id": 1847413501,
  "lat": 40.8377743,
  "lon": 14.2532182
},
{
  "type": "node",
  "id": 1847413512,
  "lat": 40.8377672,
  "lon": 14.2534358
},
{
  "type": "node",
  "id": 1847413519,
  "lat": 40.8378314,
  "lon": 14.2534942
},
{
  "type": "node",
  "id": 1847413525,
  "lat": 40.8378757,
  "lon": 14.2531640
},
{
  "type": "node",
  "id": 1847413527,
  "lat": 40.8378845,
  "lon": 14.2536074
},
{
  "type": "node",
  "id": 1847413530,
  "lat": 40.8378963,
  "lon": 14.2535840
},
{
  "type": "node",
  "id": 1847413533,
  "lat": 40.8379457,
  "lon": 14.2538651
},
{
  "type": "node",
  "id": 1847413534,
  "lat": 40.8379583,
  "lon": 14.2538797
},
{
  "type": "node",
  "id": 1847413535,
  "lat": 40.8380336,
  "lon": 14.2538612
},
{
  "type": "node",
  "id": 1847413538,
  "lat": 40.8380476,
  "lon": 14.2538827
},
{
  "type": "node",
  "id": 1847413539,
  "lat": 40.8380720,
  "lon": 14.2538846
},
{
  "type": "node",
  "id": 1847413554,
  "lat": 40.8380809,
  "lon": 14.2538758
},
{
  "type": "node",
  "id": 1847413558,
  "lat": 40.8380942,
  "lon": 14.2533966
},
{
  "type": "node",
  "id": 1847413562,
  "lat": 40.8381281,
  "lon": 14.2538973
},
{
  "type": "node",
  "id": 1847413564,
  "lat": 40.8381340,
  "lon": 14.2539227
},
{
  "type": "node",
  "id": 1847413567,
  "lat": 40.8381491,
  "lon": 14.2526751
},
{
  "type": "node",
  "id": 1847413568,
  "lat": 40.8381643,
  "lon": 14.2539256
},
{
  "type": "node",
  "id": 1847413570,
  "lat": 40.8381872,
  "lon": 14.2525428
},
{
  "type": "node",
  "id": 1847413573,
  "lat": 40.8382892,
  "lon": 14.2525038
},
{
  "type": "node",
  "id": 1847413575,
  "lat": 40.8383185,
  "lon": 14.2525141
},
{
  "type": "node",
  "id": 1847413578,
  "lat": 40.8383488,
  "lon": 14.2525397
},
{
  "type": "node",
  "id": 1847413589,
  "lat": 40.8383770,
  "lon": 14.2539999
},
{
  "type": "node",
  "id": 1847413602,
  "lat": 40.8384296,
  "lon": 14.2526058
},
{
  "type": "node",
  "id": 1847413604,
  "lat": 40.8384032,
  "lon": 14.2540633
},
{
  "type": "node",
  "id": 1847413617,
  "lat": 40.8385115,
  "lon": 14.2525923
},
{
  "type": "node",
  "id": 1847413627,
  "lat": 40.8385560,
  "lon": 14.2526244
},
{
  "type": "node",
  "id": 1847413651,
  "lat": 40.8386664,
  "lon": 14.2527326
},
{
  "type": "node",
  "id": 1847413654,
  "lat": 40.8386960,
  "lon": 14.2538931
},
{
  "type": "node",
  "id": 1847413655,
  "lat": 40.8386789,
  "lon": 14.2540310
},
{
  "type": "node",
  "id": 1937088399,
  "lat": 40.8357315,
  "lon": 14.2502157
},
{
  "type": "node",
  "id": 1937088401,
  "lat": 40.8358188,
  "lon": 14.2501465
},
{
  "type": "node",
  "id": 1937088403,
  "lat": 40.8358619,
  "lon": 14.2501300
},
{
  "type": "node",
  "id": 1937088404,
  "lat": 40.8359351,
  "lon": 14.2500728
},
{
  "type": "node",
  "id": 1937088447,
  "lat": 40.8361983,
  "lon": 14.2508825
},
{
  "type": "node",
  "id": 1937088451,
  "lat": 40.8362403,
  "lon": 14.2509768
},
{
  "type": "node",
  "id": 1937088455,
  "lat": 40.8362715,
  "lon": 14.2508253
},
{
  "type": "node",
  "id": 1937088459,
  "lat": 40.8363145,
  "lon": 14.2509188
},
{
  "type": "node",
  "id": 1937088462,
  "lat": 40.8364492,
  "lon": 14.2517992
},
{
  "type": "node",
  "id": 1937088466,
  "lat": 40.8365365,
  "lon": 14.2517300
},
{
  "type": "node",
  "id": 1937088470,
  "lat": 40.8365705,
  "lon": 14.2517161
},
{
  "type": "node",
  "id": 1937088473,
  "lat": 40.8366448,
  "lon": 14.2516582
},
{
  "type": "node",
  "id": 2552791944,
  "lat": 40.8383865,
  "lon": 14.2526522
},
{
  "type": "node",
  "id": 2552807100,
  "lat": 40.8378586,
  "lon": 14.2535296
},
{
  "type": "node",
  "id": 2552829307,
  "lat": 40.8382742,
  "lon": 14.2534989
},
{
  "type": "node",
  "id": 2552966768,
  "lat": 40.8368810,
  "lon": 14.2520007
},
{
  "type": "node",
  "id": 2552981094,
  "lat": 40.8367306,
  "lon": 14.2510460
},
{
  "type": "node",
  "id": 2552981096,
  "lat": 40.8365479,
  "lon": 14.2506341
},
{
  "type": "node",
  "id": 2552981099,
  "lat": 40.8369320,
  "lon": 14.2508722
},
{
  "type": "node",
  "id": 2552981105,
  "lat": 40.8366826,
  "lon": 14.2503304
},
{
  "type": "node",
  "id": 2556886000,
  "lat": 40.8366880,
  "lon": 14.2489866
},
{
  "type": "node",
  "id": 2556886001,
  "lat": 40.8369014,
  "lon": 14.2497879
},
{
  "type": "node",
  "id": 2787157071,
  "lat": 40.8387361,
  "lon": 14.2527031
},
{
  "type": "node",
  "id": 2787157108,
  "lat": 40.8386788,
  "lon": 14.2538261
},
{
  "type": "node",
  "id": 2787168562,
  "lat": 40.8378041,
  "lon": 14.2531865
},
{
  "type": "node",
  "id": 2787168563,
  "lat": 40.8377421,
  "lon": 14.2533059
},
{
  "type": "node",
  "id": 2787168564,
  "lat": 40.8377509,
  "lon": 14.2533992
},
{
  "type": "node",
  "id": 2787168565,
  "lat": 40.8377825,
  "lon": 14.2534577
},
{
  "type": "node",
  "id": 2787168566,
  "lat": 40.8378116,
  "lon": 14.2534839
},
{
  "type": "node",
  "id": 3276387957,
  "lat": 40.8384907,
  "lon": 14.2533304
},
{
  "type": "node",
  "id": 3276387960,
  "lat": 40.8384059,
  "lon": 14.2535512
},
{
  "type": "node",
  "id": 3276390261,
  "lat": 40.8384256,
  "lon": 14.2535591
},
{
  "type": "node",
  "id": 3276390262,
  "lat": 40.8383274,
  "lon": 14.2529025
},
{
  "type": "node",
  "id": 3455594555,
  "lat": 40.8355530,
  "lon": 14.2498863
},
{
  "type": "node",
  "id": 3635977146,
  "lat": 40.8342646,
  "lon": 14.2481356
},
{
  "type": "node",
  "id": 3635997153,
  "lat": 40.8342152,
  "lon": 14.2486019
},
{
  "type": "node",
  "id": 3635997197,
  "lat": 40.8341634,
  "lon": 14.2482910
},
{
  "type": "node",
  "id": 3635997206,
  "lat": 40.8341075,
  "lon": 14.2484155
},
{
  "type": "node",
  "id": 3635997221,
  "lat": 40.8343161,
  "lon": 14.2484266
},
{
  "type": "node",
  "id": 3635997227,
  "lat": 40.8340895,
  "lon": 14.2483183
},
{
  "type": "node",
  "id": 3635997230,
  "lat": 40.8341844,
  "lon": 14.2481641
},
{
  "type": "node",
  "id": 3635997235,
  "lat": 40.8342755,
  "lon": 14.2481965
},
{
  "type": "node",
  "id": 3635997270,
  "lat": 40.8342217,
  "lon": 14.2486372
},
{
  "type": "node",
  "id": 3635997280,
  "lat": 40.8342051,
  "lon": 14.2482761
},
{
  "type": "node",
  "id": 3635997284,
  "lat": 40.8342823,
  "lon": 14.2482357
},
{
  "type": "node",
  "id": 3635997298,
  "lat": 40.8341781,
  "lon": 14.2483904
},
{
  "type": "node",
  "id": 4295415170,
  "lat": 40.8365066,
  "lon": 14.2506364
},
{
  "type": "node",
  "id": 5261869320,
  "lat": 40.8381532,
  "lon": 14.2527039
},
{
  "type": "node",
  "id": 5261869721,
  "lat": 40.8381492,
  "lon": 14.2526425
},
{
  "type": "node",
  "id": 5261869722,
  "lat": 40.8381675,
  "lon": 14.2525739
},
{
  "type": "node",
  "id": 5261869723,
  "lat": 40.8382094,
  "lon": 14.2525212
},
{
  "type": "node",
  "id": 5261869724,
  "lat": 40.8382581,
  "lon": 14.2525009
},
{
  "type": "node",
  "id": 5261869725,
  "lat": 40.8383647,
  "lon": 14.2525621
},
{
  "type": "node",
  "id": 5261869726,
  "lat": 40.8385906,
  "lon": 14.2526927
},
{
  "type": "node",
  "id": 5261869727,
  "lat": 40.8385915,
  "lon": 14.2527648
},
{
  "type": "node",
  "id": 5261869728,
  "lat": 40.8384855,
  "lon": 14.2525894
},
{
  "type": "node",
  "id": 5261869729,
  "lat": 40.8385322,
  "lon": 14.2526055
},
{
  "type": "node",
  "id": 5261869730,
  "lat": 40.8385773,
  "lon": 14.2526550
},
{
  "type": "node",
  "id": 5261869731,
  "lat": 40.8385947,
  "lon": 14.2527287
},
{
  "type": "node",
  "id": 1847413607,
  "lat": 40.8384435,
  "lon": 14.2541120
},
{
  "type": "node",
  "id": 1847413637,
  "lat": 40.8386010,
  "lon": 14.2541275
},
{
  "type": "node",
  "id": 1847413653,
  "lat": 40.8386464,
  "lon": 14.2540873
},
{
  "type": "node",
  "id": 2787157104,
  "lat": 40.8385066,
  "lon": 14.2541412
},
{
  "type": "node",
  "id": 2787157106,
  "lat": 40.8385564,
  "lon": 14.2541423
},
{
  "type": "node",
  "id": 323893625,
  "lat": 40.8388553,
  "lon": 14.2529079
},
{
  "type": "node",
  "id": 323893626,
  "lat": 40.8387751,
  "lon": 14.2530195
},
{
  "type": "node",
  "id": 1847413666,
  "lat": 40.8388479,
  "lon": 14.2527962
},
{
  "type": "node",
  "id": 2787157061,
  "lat": 40.8387894,
  "lon": 14.2527187
},
{
  "type": "node",
  "id": 2787157063,
  "lat": 40.8388101,
  "lon": 14.2529955
},
{
  "type": "node",
  "id": 2787157065,
  "lat": 40.8388380,
  "lon": 14.2529573
},
{
  "type": "node",
  "id": 2787157067,
  "lat": 40.8388592,
  "lon": 14.2528521
},
{
  "type": "node",
  "id": 2787157069,
  "lat": 40.8388241,
  "lon": 14.2527512
},
{
  "type": "node",
  "id": 926103783,
  "lat": 40.8455365,
  "lon": 14.2530285
},
{
  "type": "node",
  "id": 926103786,
  "lat": 40.8458885,
  "lon": 14.2537724
},
{
  "type": "node",
  "id": 926103801,
  "lat": 40.8460637,
  "lon": 14.2526007
},
{
  "type": "node",
  "id": 926103802,
  "lat": 40.8464066,
  "lon": 14.2533366
},
{
  "type": "node",
  "id": 1641699265,
  "lat": 40.8491551,
  "lon": 14.2538690
},
{
  "type": "node",
  "id": 1941560972,
  "lat": 40.8457554,
  "lon": 14.2534973
},
{
  "type": "node",
  "id": 1941560976,
  "lat": 40.8458103,
  "lon": 14.2528052
},
{
  "type": "node",
  "id": 1941560978,
  "lat": 40.8458234,
  "lon": 14.2536398
},
{
  "type": "node",
  "id": 1941560983,
  "lat": 40.8459311,
  "lon": 14.2527078
},
{
  "type": "node",
  "id": 1941560987,
  "lat": 40.8460295,
  "lon": 14.2536514
},
{
  "type": "node",
  "id": 1941561003,
  "lat": 40.8461586,
  "lon": 14.2535417
},
{
  "type": "node",
  "id": 1941561005,
  "lat": 40.8461769,
  "lon": 14.2528457
},
{
  "type": "node",
  "id": 1941561009,
  "lat": 40.8462128,
  "lon": 14.2529230
},
{
  "type": "node",
  "id": 1941561011,
  "lat": 40.8462705,
  "lon": 14.2534483
},
{
  "type": "node",
  "id": 1941561013,
  "lat": 40.8462794,
  "lon": 14.2530652
},
{
  "type": "node",
  "id": 1941561015,
  "lat": 40.8463480,
  "lon": 14.2532119
},
{
  "type": "node",
  "id": 2668753411,
  "lat": 40.8463341,
  "lon": 14.2531007
},
{
  "type": "node",
  "id": 2668753415,
  "lat": 40.8464886,
  "lon": 14.2534175
},
{
  "type": "node",
  "id": 2668758598,
  "lat": 40.8464675,
  "lon": 14.2524237
},
{
  "type": "node",
  "id": 2668769762,
  "lat": 40.8457476,
  "lon": 14.2540741
},
{
  "type": "node",
  "id": 2668769763,
  "lat": 40.8454088,
  "lon": 14.2530602
},
{
  "type": "node",
  "id": 2668769764,
  "lat": 40.8457253,
  "lon": 14.2538863
},
{
  "type": "node",
  "id": 2668769766,
  "lat": 40.8456218,
  "lon": 14.2537281
},
{
  "type": "node",
  "id": 2668769767,
  "lat": 40.8453946,
  "lon": 14.2530173
},
{
  "type": "node",
  "id": 2668769768,
  "lat": 40.8453581,
  "lon": 14.2530977
},
{
  "type": "node",
  "id": 2668769770,
  "lat": 40.8455001,
  "lon": 14.2529288
},
{
  "type": "node",
  "id": 2668769771,
  "lat": 40.8464298,
  "lon": 14.2530191
},
{
  "type": "node",
  "id": 2668769772,
  "lat": 40.8454636,
  "lon": 14.2528456
},
{
  "type": "node",
  "id": 2668769774,
  "lat": 40.8456888,
  "lon": 14.2539239
},
{
  "type": "node",
  "id": 2668769775,
  "lat": 40.8456442,
  "lon": 14.2537093
},
{
  "type": "node",
  "id": 2668769776,
  "lat": 40.8461069,
  "lon": 14.2523317
},
{
  "type": "node",
  "id": 2668769778,
  "lat": 40.8453317,
  "lon": 14.2531219
},
{
  "type": "node",
  "id": 2668769779,
  "lat": 40.8458126,
  "lon": 14.2540338
},
{
  "type": "node",
  "id": 2668769780,
  "lat": 40.8465146,
  "lon": 14.2534679
},
{
  "type": "node",
  "id": 2668771156,
  "lat": 40.8469889,
  "lon": 14.2525468
},
{
  "type": "node",
  "id": 2668771159,
  "lat": 40.8467946,
  "lon": 14.2521303
},
{
  "type": "node",
  "id": 2668771160,
  "lat": 40.8466595,
  "lon": 14.2528231
},
{
  "type": "node",
  "id": 2668771794,
  "lat": 40.8469486,
  "lon": 14.2525428
},
{
  "type": "node",
  "id": 2668771797,
  "lat": 40.8465373,
  "lon": 14.2524126
},
{
  "type": "node",
  "id": 2668771799,
  "lat": 40.8467947,
  "lon": 14.2522067
},
{
  "type": "node",
  "id": 2668771802,
  "lat": 40.8466912,
  "lon": 14.2527487
},
{
  "type": "node",
  "id": 2668772432,
  "lat": 40.8466659,
  "lon": 14.2523097
},
{
  "type": "node",
  "id": 2668772435,
  "lat": 40.8468218,
  "lon": 14.2526443
},
{
  "type": "node",
  "id": 2668772793,
  "lat": 40.8466130,
  "lon": 14.2525779
},
{
  "type": "node",
  "id": 2668772794,
  "lat": 40.8468688,
  "lon": 14.2523685
},
{
  "type": "node",
  "id": 2668775490,
  "lat": 40.8453691,
  "lon": 14.2531980
},
{
  "type": "node",
  "id": 2668775491,
  "lat": 40.8455162,
  "lon": 14.2535156
},
{
  "type": "node",
  "id": 2668777224,
  "lat": 40.8456814,
  "lon": 14.2537905
},
{
  "type": "node",
  "id": 2668783121,
  "lat": 40.8464116,
  "lon": 14.2535489
},
{
  "type": "node",
  "id": 2668783125,
  "lat": 40.8464497,
  "lon": 14.2536394
},
{
  "type": "node",
  "id": 2668783126,
  "lat": 40.8464836,
  "lon": 14.2534958
},
{
  "type": "node",
  "id": 2668787765,
  "lat": 40.8463665,
  "lon": 14.2536986
},
{
  "type": "node",
  "id": 2668787766,
  "lat": 40.8460946,
  "lon": 14.2540043
},
{
  "type": "node",
  "id": 2668787774,
  "lat": 40.8461940,
  "lon": 14.2539212
},
{
  "type": "node",
  "id": 2668787779,
  "lat": 40.8459079,
  "lon": 14.2540499
},
{
  "type": "node",
  "id": 2668787784,
  "lat": 40.8460682,
  "lon": 14.2539346
},
{
  "type": "node",
  "id": 2668787786,
  "lat": 40.8463482,
  "lon": 14.2536637
},
{
  "type": "node",
  "id": 2668787787,
  "lat": 40.8461534,
  "lon": 14.2538300
},
{
  "type": "node",
  "id": 2668787791,
  "lat": 40.8457952,
  "lon": 14.2540446
},
{
  "type": "node",
  "id": 2668796417,
  "lat": 40.8465315,
  "lon": 14.2525555
},
{
  "type": "node",
  "id": 2668797882,
  "lat": 40.8460445,
  "lon": 14.2523807
},
{
  "type": "node",
  "id": 2668804627,
  "lat": 40.8455332,
  "lon": 14.2527900
},
{
  "type": "node",
  "id": 2668818118,
  "lat": 40.8469243,
  "lon": 14.2524082
},
{
  "type": "node",
  "id": 2668905209,
  "lat": 40.8487192,
  "lon": 14.2538551
},
{
  "type": "node",
  "id": 2668915372,
  "lat": 40.8491136,
  "lon": 14.2537548
},
{
  "type": "node",
  "id": 2668915377,
  "lat": 40.8495439,
  "lon": 14.2536068
},
{
  "type": "node",
  "id": 2668915391,
  "lat": 40.8494687,
  "lon": 14.2536609
},
{
  "type": "node",
  "id": 2668915393,
  "lat": 40.8494200,
  "lon": 14.2535376
},
{
  "type": "node",
  "id": 2760931557,
  "lat": 40.8494810,
  "lon": 14.2535377
},
{
  "type": "node",
  "id": 2760931560,
  "lat": 40.8490934,
  "lon": 14.2530790
},
{
  "type": "node",
  "id": 2760931563,
  "lat": 40.8493132,
  "lon": 14.2533494
},
{
  "type": "node",
  "id": 2760931564,
  "lat": 40.8491604,
  "lon": 14.2529905
},
{
  "type": "node",
  "id": 2760931566,
  "lat": 40.8490184,
  "lon": 14.2529958
},
{
  "type": "node",
  "id": 2760931568,
  "lat": 40.8492375,
  "lon": 14.2531782
},
{
  "type": "node",
  "id": 2760931571,
  "lat": 40.8491094,
  "lon": 14.2539109
},
{
  "type": "node",
  "id": 2760931574,
  "lat": 40.8494100,
  "lon": 14.2534652
},
{
  "type": "node",
  "id": 2760931577,
  "lat": 40.8489155,
  "lon": 14.2536015
},
{
  "type": "node",
  "id": 2760942421,
  "lat": 40.8489656,
  "lon": 14.2530227
},
{
  "type": "node",
  "id": 2760942427,
  "lat": 40.8486680,
  "lon": 14.2539322
},
{
  "type": "node",
  "id": 2760942428,
  "lat": 40.8492050,
  "lon": 14.2533284
},
{
  "type": "node",
  "id": 2760942431,
  "lat": 40.8485375,
  "lon": 14.2537442
},
{
  "type": "node",
  "id": 2760942435,
  "lat": 40.8489900,
  "lon": 14.2530495
},
{
  "type": "node",
  "id": 2760942436,
  "lat": 40.8489737,
  "lon": 14.2535269
},
{
  "type": "node",
  "id": 2760942438,
  "lat": 40.8489981,
  "lon": 14.2531997
},
{
  "type": "node",
  "id": 2760942441,
  "lat": 40.8490833,
  "lon": 14.2537013
},
{
  "type": "node",
  "id": 2760942443,
  "lat": 40.8490021,
  "lon": 14.2531460
},
{
  "type": "node",
  "id": 2760942446,
  "lat": 40.8489798,
  "lon": 14.2531782
},
{
  "type": "node",
  "id": 2760942448,
  "lat": 40.8484752,
  "lon": 14.2537436
},
{
  "type": "node",
  "id": 2760942449,
  "lat": 40.8490433,
  "lon": 14.2535291
},
{
  "type": "node",
  "id": 2760942453,
  "lat": 40.8485104,
  "lon": 14.2537019
},
{
  "type": "node",
  "id": 2760942455,
  "lat": 40.8489352,
  "lon": 14.2530817
},
{
  "type": "node",
  "id": 2760942457,
  "lat": 40.8491285,
  "lon": 14.2536659
},
{
  "type": "node",
  "id": 2760942459,
  "lat": 40.8485449,
  "lon": 14.2538584
},
{
  "type": "node",
  "id": 2760942461,
  "lat": 40.8486024,
  "lon": 14.2536664
},
{
  "type": "node",
  "id": 2760942463,
  "lat": 40.8486193,
  "lon": 14.2536927
},
{
  "type": "node",
  "id": 2760942464,
  "lat": 40.8485856,
  "lon": 14.2538129
},
{
  "type": "node",
  "id": 2760942466,
  "lat": 40.8491746,
  "lon": 14.2532641
},
{
  "type": "node",
  "id": 2760946922,
  "lat": 40.8493111,
  "lon": 14.2535344
},
{
  "type": "node",
  "id": 2760984741,
  "lat": 40.8485070,
  "lon": 14.2538014
},
{
  "type": "node",
  "id": 1370323668,
  "lat": 40.8517597,
  "lon": 14.2605915
},
{
  "type": "node",
  "id": 1370323687,
  "lat": 40.8513889,
  "lon": 14.2604828
},
{
  "type": "node",
  "id": 1370323692,
  "lat": 40.8514627,
  "lon": 14.2605622
},
{
  "type": "node",
  "id": 1370323694,
  "lat": 40.8517009,
  "lon": 14.2604196
},
{
  "type": "node",
  "id": 1374013618,
  "lat": 40.8508451,
  "lon": 14.2581908
},
{
  "type": "node",
  "id": 1374013632,
  "lat": 40.8508755,
  "lon": 14.2583617
},
{
  "type": "node",
  "id": 1374013726,
  "lat": 40.8506772,
  "lon": 14.2577149
},
{
  "type": "node",
  "id": 1380995547,
  "lat": 40.8491965,
  "lon": 14.2548412
},
{
  "type": "node",
  "id": 1380995548,
  "lat": 40.8492589,
  "lon": 14.2548045
},
{
  "type": "node",
  "id": 1380995550,
  "lat": 40.8492825,
  "lon": 14.2550961
},
{
  "type": "node",
  "id": 1380995552,
  "lat": 40.8493162,
  "lon": 14.2549445
},
{
  "type": "node",
  "id": 1380995555,
  "lat": 40.8493533,
  "lon": 14.2550543
},
{
  "type": "node",
  "id": 1380995558,
  "lat": 40.8493628,
  "lon": 14.2547420
},
{
  "type": "node",
  "id": 1380995561,
  "lat": 40.8494128,
  "lon": 14.2548871
},
{
  "type": "node",
  "id": 1777082729,
  "lat": 40.8500776,
  "lon": 14.2543943
},
{
  "type": "node",
  "id": 1777082751,
  "lat": 40.8501229,
  "lon": 14.2545378
},
{
  "type": "node",
  "id": 1777082756,
  "lat": 40.8501909,
  "lon": 14.2543319
},
{
  "type": "node",
  "id": 1777082766,
  "lat": 40.8502362,
  "lon": 14.2544754
},
{
  "type": "node",
  "id": 2668787769,
  "lat": 40.8457882,
  "lon": 14.2541358
},
{
  "type": "node",
  "id": 2668787770,
  "lat": 40.8458816,
  "lon": 14.2541492
},
{
  "type": "node",
  "id": 2668787771,
  "lat": 40.8458166,
  "lon": 14.2541814
},
{
  "type": "node",
  "id": 2668787775,
  "lat": 40.8458913,
  "lon": 14.2541722
},
{
  "type": "node",
  "id": 2668787777,
  "lat": 40.8458004,
  "lon": 14.2542055
},
{
  "type": "node",
  "id": 2668787780,
  "lat": 40.8458410,
  "lon": 14.2542162
},
{
  "type": "node",
  "id": 2668787782,
  "lat": 40.8458247,
  "lon": 14.2541036
},
{
  "type": "node",
  "id": 2668787789,
  "lat": 40.8459303,
  "lon": 14.2541063
},
{
  "type": "node",
  "id": 2725554978,
  "lat": 40.8465876,
  "lon": 14.2567537
},
{
  "type": "node",
  "id": 2725558101,
  "lat": 40.8469527,
  "lon": 14.2585404
},
{
  "type": "node",
  "id": 2725558104,
  "lat": 40.8468200,
  "lon": 14.2585809
},
{
  "type": "node",
  "id": 2725588276,
  "lat": 40.8466363,
  "lon": 14.2583468
},
{
  "type": "node",
  "id": 2725588278,
  "lat": 40.8468331,
  "lon": 14.2581268
},
{
  "type": "node",
  "id": 2725588282,
  "lat": 40.8467968,
  "lon": 14.2581916
},
{
  "type": "node",
  "id": 2725588305,
  "lat": 40.8467885,
  "lon": 14.2581510
},
{
  "type": "node",
  "id": 2725593294,
  "lat": 40.8469549,
  "lon": 14.2585077
},
{
  "type": "node",
  "id": 2725593296,
  "lat": 40.8467481,
  "lon": 14.2585778
},
{
  "type": "node",
  "id": 2725596735,
  "lat": 40.8469643,
  "lon": 14.2585339
},
{
  "type": "node",
  "id": 2725596738,
  "lat": 40.8469192,
  "lon": 14.2585596
},
{
  "type": "node",
  "id": 2725596740,
  "lat": 40.8469074,
  "lon": 14.2585318
},
{
  "type": "node",
  "id": 2725597792,
  "lat": 40.8467643,
  "lon": 14.2586100
},
{
  "type": "node",
  "id": 2725600521,
  "lat": 40.8469436,
  "lon": 14.2584724
},
{
  "type": "node",
  "id": 2725601567,
  "lat": 40.8469330,
  "lon": 14.2584394
},
{
  "type": "node",
  "id": 2725602773,
  "lat": 40.8469230,
  "lon": 14.2584158
},
{
  "type": "node",
  "id": 2725643395,
  "lat": 40.8463571,
  "lon": 14.2568248
},
{
  "type": "node",
  "id": 2725655034,
  "lat": 40.8468996,
  "lon": 14.2562909
},
{
  "type": "node",
  "id": 2725655036,
  "lat": 40.8468395,
  "lon": 14.2563267
},
{
  "type": "node",
  "id": 2725655049,
  "lat": 40.8462977,
  "lon": 14.2566545
},
{
  "type": "node",
  "id": 2725655053,
  "lat": 40.8465745,
  "lon": 14.2564860
},
{
  "type": "node",
  "id": 2725655057,
  "lat": 40.8470896,
  "lon": 14.2563319
},
{
  "type": "node",
  "id": 2725685074,
  "lat": 40.8464500,
  "lon": 14.2567682
},
{
  "type": "node",
  "id": 2725697256,
  "lat": 40.8465533,
  "lon": 14.2566552
},
{
  "type": "node",
  "id": 2725697262,
  "lat": 40.8467763,
  "lon": 14.2565194
},
{
  "type": "node",
  "id": 2725699572,
  "lat": 40.8470456,
  "lon": 14.2562035
},
{
  "type": "node",
  "id": 2725699574,
  "lat": 40.8464699,
  "lon": 14.2568254
},
{
  "type": "node",
  "id": 2751826457,
  "lat": 40.8507895,
  "lon": 14.2556646
},
{
  "type": "node",
  "id": 2751826458,
  "lat": 40.8507347,
  "lon": 14.2555331
},
{
  "type": "node",
  "id": 2751826959,
  "lat": 40.8509620,
  "lon": 14.2555439
},
{
  "type": "node",
  "id": 2751826960,
  "lat": 40.8509234,
  "lon": 14.2554339
},
{
  "type": "node",
  "id": 2751840952,
  "lat": 40.8508206,
  "lon": 14.2582059
},
{
  "type": "node",
  "id": 2756691521,
  "lat": 40.8495155,
  "lon": 14.2583208
},
{
  "type": "node",
  "id": 2756691522,
  "lat": 40.8495748,
  "lon": 14.2582198
},
{
  "type": "node",
  "id": 2756691523,
  "lat": 40.8495704,
  "lon": 14.2584187
},
{
  "type": "node",
  "id": 2756691524,
  "lat": 40.8496249,
  "lon": 14.2583843
},
{
  "type": "node",
  "id": 2756691525,
  "lat": 40.8494973,
  "lon": 14.2582611
},
{
  "type": "node",
  "id": 2756691526,
  "lat": 40.8495393,
  "lon": 14.2583090
},
{
  "type": "node",
  "id": 2757098276,
  "lat": 40.8495883,
  "lon": 14.2582642
},
{
  "type": "node",
  "id": 2757098302,
  "lat": 40.8495486,
  "lon": 14.2582338
},
{
  "type": "node",
  "id": 2761755799,
  "lat": 40.8504051,
  "lon": 14.2580073
},
{
  "type": "node",
  "id": 2761755812,
  "lat": 40.8504951,
  "lon": 14.2579501
},
{
  "type": "node",
  "id": 2761757056,
  "lat": 40.8506169,
  "lon": 14.2577101
},
{
  "type": "node",
  "id": 2761757065,
  "lat": 40.8505040,
  "lon": 14.2577798
},
{
  "type": "node",
  "id": 2761761661,
  "lat": 40.8507934,
  "lon": 14.2584123
},
{
  "type": "node",
  "id": 2761770297,
  "lat": 40.8508806,
  "lon": 14.2587173
},
{
  "type": "node",
  "id": 2761770298,
  "lat": 40.8505367,
  "lon": 14.2579377
},
{
  "type": "node",
  "id": 2761770300,
  "lat": 40.8508487,
  "lon": 14.2586296
},
{
  "type": "node",
  "id": 2761770301,
  "lat": 40.8507901,
  "lon": 14.2581639
},
{
  "type": "node",
  "id": 2761770302,
  "lat": 40.8507175,
  "lon": 14.2588667
},
{
  "type": "node",
  "id": 2761770304,
  "lat": 40.8506736,
  "lon": 14.2578491
},
{
  "type": "node",
  "id": 2761770305,
  "lat": 40.8506653,
  "lon": 14.2575446
},
{
  "type": "node",
  "id": 2761770307,
  "lat": 40.8507595,
  "lon": 14.2584768
},
{
  "type": "node",
  "id": 2761770308,
  "lat": 40.8506532,
  "lon": 14.2582524
},
{
  "type": "node",
  "id": 2761770309,
  "lat": 40.8507915,
  "lon": 14.2587740
},
{
  "type": "node",
  "id": 2761770311,
  "lat": 40.8507168,
  "lon": 14.2576904
},
{
  "type": "node",
  "id": 2761770312,
  "lat": 40.8505776,
  "lon": 14.2575987
},
{
  "type": "node",
  "id": 2761770315,
  "lat": 40.8507668,
  "lon": 14.2584292
},
{
  "type": "node",
  "id": 2761770316,
  "lat": 40.8507989,
  "lon": 14.2586612
},
{
  "type": "node",
  "id": 2761770317,
  "lat": 40.8504465,
  "lon": 14.2578163
},
{
  "type": "node",
  "id": 2761770319,
  "lat": 40.8507795,
  "lon": 14.2584641
},
{
  "type": "node",
  "id": 2761770320,
  "lat": 40.8508050,
  "lon": 14.2588111
},
{
  "type": "node",
  "id": 2761770321,
  "lat": 40.8507440,
  "lon": 14.2584340
},
{
  "type": "node",
  "id": 2761770323,
  "lat": 40.8507215,
  "lon": 14.2584483
},
{
  "type": "node",
  "id": 2827066698,
  "lat": 40.8493839,
  "lon": 14.2549045
},
{
  "type": "node",
  "id": 2827068409,
  "lat": 40.8493472,
  "lon": 14.2550363
},
{
  "type": "node",
  "id": 2827070152,
  "lat": 40.8493303,
  "lon": 14.2550679
},
{
  "type": "node",
  "id": 2850749531,
  "lat": 40.8505602,
  "lon": 14.2584339
},
{
  "type": "node",
  "id": 2850758404,
  "lat": 40.8504163,
  "lon": 14.2580382
},
{
  "type": "node",
  "id": 2914233955,
  "lat": 40.8517030,
  "lon": 14.2602910
},
{
  "type": "node",
  "id": 2914233957,
  "lat": 40.8518414,
  "lon": 14.2602073
},
{
  "type": "node",
  "id": 6428190688,
  "lat": 40.8492145,
  "lon": 14.2548946
},
{
  "type": "node",
  "id": 323895773,
  "lat": 40.8534926,
  "lon": 14.2514412
},
{
  "type": "node",
  "id": 323896580,
  "lat": 40.8535704,
  "lon": 14.2498528
},
{
  "type": "node",
  "id": 323896581,
  "lat": 40.8533708,
  "lon": 14.2499402
},
{
  "type": "node",
  "id": 323896582,
  "lat": 40.8534705,
  "lon": 14.2503657
},
{
  "type": "node",
  "id": 323896927,
  "lat": 40.8537555,
  "lon": 14.2505926
},
{
  "type": "node",
  "id": 323896928,
  "lat": 40.8535542,
  "lon": 14.2506714
},
{
  "type": "node",
  "id": 323896930,
  "lat": 40.8536437,
  "lon": 14.2510707
},
{
  "type": "node",
  "id": 323896931,
  "lat": 40.8538449,
  "lon": 14.2509919
},
{
  "type": "node",
  "id": 2469452946,
  "lat": 40.8534780,
  "lon": 14.2513813
},
{
  "type": "node",
  "id": 2917861786,
  "lat": 40.8537115,
  "lon": 14.2494821
},
{
  "type": "node",
  "id": 2917861787,
  "lat": 40.8541324,
  "lon": 14.2511856
},
{
  "type": "node",
  "id": 2917862106,
  "lat": 40.8533203,
  "lon": 14.2507501
},
{
  "type": "node",
  "id": 2917862107,
  "lat": 40.8532512,
  "lon": 14.2504625
},
{
  "type": "node",
  "id": 7145946185,
  "lat": 40.8536725,
  "lon": 14.2502761
},
{
  "type": "node",
  "id": 7146299685,
  "lat": 40.8530801,
  "lon": 14.2497591
},
{
  "type": "node",
  "id": 7146329485,
  "lat": 40.8532236,
  "lon": 14.2504739
},
{
  "type": "node",
  "id": 7146329585,
  "lat": 40.8532936,
  "lon": 14.2507616
},
{
  "type": "node",
  "id": 1370323672,
  "lat": 40.8520398,
  "lon": 14.2605296
},
{
  "type": "node",
  "id": 1370323673,
  "lat": 40.8520094,
  "lon": 14.2605477
},
{
  "type": "node",
  "id": 1370323676,
  "lat": 40.8519151,
  "lon": 14.2601634
},
{
  "type": "node",
  "id": 1372613123,
  "lat": 40.8523041,
  "lon": 14.2595195
},
{
  "type": "node",
  "id": 1373189408,
  "lat": 40.8524611,
  "lon": 14.2584229
},
{
  "type": "node",
  "id": 1373189427,
  "lat": 40.8523189,
  "lon": 14.2580000
},
{
  "type": "node",
  "id": 2761857448,
  "lat": 40.8521953,
  "lon": 14.2588706
},
{
  "type": "node",
  "id": 2761857449,
  "lat": 40.8522678,
  "lon": 14.2588299
},
{
  "type": "node",
  "id": 2761857450,
  "lat": 40.8521695,
  "lon": 14.2585182
},
{
  "type": "node",
  "id": 2761879898,
  "lat": 40.8531308,
  "lon": 14.2584004
},
{
  "type": "node",
  "id": 2761879900,
  "lat": 40.8532220,
  "lon": 14.2584048
},
{
  "type": "node",
  "id": 2761879902,
  "lat": 40.8522810,
  "lon": 14.2588714
},
{
  "type": "node",
  "id": 2761879904,
  "lat": 40.8525770,
  "lon": 14.2586295
},
{
  "type": "node",
  "id": 2761879906,
  "lat": 40.8524217,
  "lon": 14.2579482
},
{
  "type": "node",
  "id": 2761879908,
  "lat": 40.8528973,
  "lon": 14.2584487
},
{
  "type": "node",
  "id": 2761879910,
  "lat": 40.8527916,
  "lon": 14.2578094
},
{
  "type": "node",
  "id": 2761879912,
  "lat": 40.8530580,
  "lon": 14.2581735
},
{
  "type": "node",
  "id": 2761879914,
  "lat": 40.8525918,
  "lon": 14.2586695
},
{
  "type": "node",
  "id": 2761879916,
  "lat": 40.8525117,
  "lon": 14.2587119
},
{
  "type": "node",
  "id": 2761879918,
  "lat": 40.8522773,
  "lon": 14.2585249
},
{
  "type": "node",
  "id": 2761879921,
  "lat": 40.8525202,
  "lon": 14.2587387
},
{
  "type": "node",
  "id": 2761879923,
  "lat": 40.8524410,
  "lon": 14.2580083
},
{
  "type": "node",
  "id": 2761879927,
  "lat": 40.8524106,
  "lon": 14.2581197
},
{
  "type": "node",
  "id": 2761879929,
  "lat": 40.8522594,
  "lon": 14.2584683
},
{
  "type": "node",
  "id": 2761879931,
  "lat": 40.8527472,
  "lon": 14.2579839
},
{
  "type": "node",
  "id": 2761879933,
  "lat": 40.8531357,
  "lon": 14.2581308
},
{
  "type": "node",
  "id": 2761879934,
  "lat": 40.8523671,
  "lon": 14.2581449
},
{
  "type": "node",
  "id": 2761879936,
  "lat": 40.8524269,
  "lon": 14.2581647
},
{
  "type": "node",
  "id": 2761879938,
  "lat": 40.8522287,
  "lon": 14.2589689
},
{
  "type": "node",
  "id": 2761879940,
  "lat": 40.8530039,
  "lon": 14.2584719
},
{
  "type": "node",
  "id": 2761880840,
  "lat": 40.8525467,
  "lon": 14.2586924
},
{
  "type": "node",
  "id": 2761888293,
  "lat": 40.8522392,
  "lon": 14.2585724
},
{
  "type": "node",
  "id": 2761888296,
  "lat": 40.8522464,
  "lon": 14.2587622
},
{
  "type": "node",
  "id": 2761888299,
  "lat": 40.8521946,
  "lon": 14.2585972
},
{
  "type": "node",
  "id": 2761888303,
  "lat": 40.8524613,
  "lon": 14.2586886
},
{
  "type": "node",
  "id": 2761888306,
  "lat": 40.8524086,
  "lon": 14.2585180
},
{
  "type": "node",
  "id": 2761888309,
  "lat": 40.8522915,
  "lon": 14.2587371
},
{
  "type": "node",
  "id": 2761888314,
  "lat": 40.8523410,
  "lon": 14.2587534
},
{
  "type": "node",
  "id": 2761888318,
  "lat": 40.8522884,
  "lon": 14.2585828
},
{
  "type": "node",
  "id": 2761900041,
  "lat": 40.8528628,
  "lon": 14.2571348
},
{
  "type": "node",
  "id": 2761900043,
  "lat": 40.8528839,
  "lon": 14.2572541
},
{
  "type": "node",
  "id": 2761900044,
  "lat": 40.8525198,
  "lon": 14.2573337
},
{
  "type": "node",
  "id": 2761900045,
  "lat": 40.8525486,
  "lon": 14.2574491
},
{
  "type": "node",
  "id": 2761900046,
  "lat": 40.8528479,
  "lon": 14.2571433
},
{
  "type": "node",
  "id": 2761900047,
  "lat": 40.8528995,
  "lon": 14.2572437
},
{
  "type": "node",
  "id": 2762590784,
  "lat": 40.8536741,
  "lon": 14.2551561
},
{
  "type": "node",
  "id": 2762597786,
  "lat": 40.8542200,
  "lon": 14.2552756
},
{
  "type": "node",
  "id": 2762597791,
  "lat": 40.8541702,
  "lon": 14.2551073
},
{
  "type": "node",
  "id": 2785619437,
  "lat": 40.8535976,
  "lon": 14.2550952
},
{
  "type": "node",
  "id": 2785619439,
  "lat": 40.8536424,
  "lon": 14.2549755
},
{
  "type": "node",
  "id": 2785619440,
  "lat": 40.8536331,
  "lon": 14.2549464
},
{
  "type": "node",
  "id": 2785619441,
  "lat": 40.8535610,
  "lon": 14.2549806
},
{
  "type": "node",
  "id": 2785624526,
  "lat": 40.8536959,
  "lon": 14.2551427
},
{
  "type": "node",
  "id": 2785624527,
  "lat": 40.8536244,
  "lon": 14.2551818
},
{
  "type": "node",
  "id": 2785654117,
  "lat": 40.8536652,
  "lon": 14.2550469
},
{
  "type": "node",
  "id": 2785658554,
  "lat": 40.8540227,
  "lon": 14.2551836
},
{
  "type": "node",
  "id": 2785658555,
  "lat": 40.8540469,
  "lon": 14.2553652
},
{
  "type": "node",
  "id": 2785658556,
  "lat": 40.8540131,
  "lon": 14.2552503
},
{
  "type": "node",
  "id": 2785658557,
  "lat": 40.8540387,
  "lon": 14.2552370
},
{
  "type": "node",
  "id": 2785659803,
  "lat": 40.8540250,
  "lon": 14.2552887
},
{
  "type": "node",
  "id": 2885582646,
  "lat": 40.8526509,
  "lon": 14.2578943
},
{
  "type": "node",
  "id": 2885582719,
  "lat": 40.8530579,
  "lon": 14.2584416
},
{
  "type": "node",
  "id": 2885583794,
  "lat": 40.8529310,
  "lon": 14.2582448
},
{
  "type": "node",
  "id": 2901541439,
  "lat": 40.8540395,
  "lon": 14.2553368
},
{
  "type": "node",
  "id": 2905919592,
  "lat": 40.8537803,
  "lon": 14.2589487
},
{
  "type": "node",
  "id": 2905929527,
  "lat": 40.8537209,
  "lon": 14.2587605
},
{
  "type": "node",
  "id": 2905936437,
  "lat": 40.8537392,
  "lon": 14.2588180
},
{
  "type": "node",
  "id": 2906016068,
  "lat": 40.8536798,
  "lon": 14.2550926
},
{
  "type": "node",
  "id": 2906016072,
  "lat": 40.8541585,
  "lon": 14.2551134
},
{
  "type": "node",
  "id": 2912996076,
  "lat": 40.8523047,
  "lon": 14.2599034
},
{
  "type": "node",
  "id": 2912996088,
  "lat": 40.8523840,
  "lon": 14.2595591
},
{
  "type": "node",
  "id": 2912996092,
  "lat": 40.8525305,
  "lon": 14.2597696
},
{
  "type": "node",
  "id": 2912996096,
  "lat": 40.8524511,
  "lon": 14.2595226
},
{
  "type": "node",
  "id": 2913014703,
  "lat": 40.8523605,
  "lon": 14.2594939
},
{
  "type": "node",
  "id": 2913022910,
  "lat": 40.8522179,
  "lon": 14.2598891
},
{
  "type": "node",
  "id": 2913022911,
  "lat": 40.8522958,
  "lon": 14.2594877
},
{
  "type": "node",
  "id": 2913022912,
  "lat": 40.8522849,
  "lon": 14.2598489
},
{
  "type": "node",
  "id": 2913022913,
  "lat": 40.8520449,
  "lon": 14.2596010
},
{
  "type": "node",
  "id": 2913022914,
  "lat": 40.8521063,
  "lon": 14.2596046
},
{
  "type": "node",
  "id": 2913022915,
  "lat": 40.8520962,
  "lon": 14.2597657
},
{
  "type": "node",
  "id": 2913022916,
  "lat": 40.8520936,
  "lon": 14.2595713
},
{
  "type": "node",
  "id": 2913022917,
  "lat": 40.8521652,
  "lon": 14.2597308
},
{
  "type": "node",
  "id": 2916224480,
  "lat": 40.8542685,
  "lon": 14.2584364
},
{
  "type": "node",
  "id": 2916224481,
  "lat": 40.8543860,
  "lon": 14.2587075
},
{
  "type": "node",
  "id": 2916224482,
  "lat": 40.8541511,
  "lon": 14.2584302
},
{
  "type": "node",
  "id": 2916224483,
  "lat": 40.8540558,
  "lon": 14.2584834
},
{
  "type": "node",
  "id": 2916224484,
  "lat": 40.8543132,
  "lon": 14.2584794
},
{
  "type": "node",
  "id": 2916224485,
  "lat": 40.8542870,
  "lon": 14.2584941
},
{
  "type": "node",
  "id": 2916224486,
  "lat": 40.8541705,
  "lon": 14.2584911
},
{
  "type": "node",
  "id": 2916224487,
  "lat": 40.8538067,
  "lon": 14.2590310
},
{
  "type": "node",
  "id": 2916224488,
  "lat": 40.8540802,
  "lon": 14.2585598
},
{
  "type": "node",
  "id": 2916225024,
  "lat": 40.8544800,
  "lon": 14.2586337
},
{
  "type": "node",
  "id": 2916225025,
  "lat": 40.8544885,
  "lon": 14.2586624
},
{
  "type": "node",
  "id": 2916225026,
  "lat": 40.8544516,
  "lon": 14.2585345
},
{
  "type": "node",
  "id": 2916225027,
  "lat": 40.8544093,
  "lon": 14.2586744
},
{
  "type": "node",
  "id": 2916225028,
  "lat": 40.8543809,
  "lon": 14.2585805
},
{
  "type": "node",
  "id": 2916225029,
  "lat": 40.8543704,
  "lon": 14.2586150
},
{
  "type": "node",
  "id": 2916225030,
  "lat": 40.8547374,
  "lon": 14.2585173
},
{
  "type": "node",
  "id": 2916225031,
  "lat": 40.8543840,
  "lon": 14.2586580
},
{
  "type": "node",
  "id": 2916225032,
  "lat": 40.8544419,
  "lon": 14.2585048
},
{
  "type": "node",
  "id": 2916225033,
  "lat": 40.8546890,
  "lon": 14.2583602
},
{
  "type": "node",
  "id": 2916226359,
  "lat": 40.8547731,
  "lon": 14.2588614
},
{
  "type": "node",
  "id": 2916226360,
  "lat": 40.8546588,
  "lon": 14.2590311
},
{
  "type": "node",
  "id": 2916226361,
  "lat": 40.8549885,
  "lon": 14.2585471
},
{
  "type": "node",
  "id": 2916226362,
  "lat": 40.8550410,
  "lon": 14.2587135
},
{
  "type": "node",
  "id": 2916226363,
  "lat": 40.8551717,
  "lon": 14.2583977
},
{
  "type": "node",
  "id": 2916226364,
  "lat": 40.8549993,
  "lon": 14.2584379
},
{
  "type": "node",
  "id": 2916226365,
  "lat": 40.8545493,
  "lon": 14.2586851
},
{
  "type": "node",
  "id": 2916226366,
  "lat": 40.8549404,
  "lon": 14.2584675
},
{
  "type": "node",
  "id": 2916226367,
  "lat": 40.8552082,
  "lon": 14.2587223
},
{
  "type": "node",
  "id": 2916226368,
  "lat": 40.8547206,
  "lon": 14.2586950
},
{
  "type": "node",
  "id": 2916226369,
  "lat": 40.8548576,
  "lon": 14.2585054
},
{
  "type": "node",
  "id": 3189106021,
  "lat": 40.8545895,
  "lon": 14.2584184
},
{
  "type": "node",
  "id": 3189109247,
  "lat": 40.8537851,
  "lon": 14.2587197
},
{
  "type": "node",
  "id": 3189109251,
  "lat": 40.8537414,
  "lon": 14.2587436
},
{
  "type": "node",
  "id": 3189124319,
  "lat": 40.8520704,
  "lon": 14.2596827
},
{
  "type": "node",
  "id": 3193433598,
  "lat": 40.8521218,
  "lon": 14.2597527
},
{
  "type": "node",
  "id": 7179565924,
  "lat": 40.8551919,
  "lon": 14.2585772
},
{
  "type": "node",
  "id": 324324850,
  "lat": 40.8667249,
  "lon": 14.2505501
},
{
  "type": "node",
  "id": 324324851,
  "lat": 40.8664875,
  "lon": 14.2506570
},
{
  "type": "node",
  "id": 324324852,
  "lat": 40.8665666,
  "lon": 14.2509640
},
{
  "type": "node",
  "id": 324324853,
  "lat": 40.8668039,
  "lon": 14.2508571
},
{
  "type": "node",
  "id": 324324878,
  "lat": 40.8671116,
  "lon": 14.2503797
},
{
  "type": "node",
  "id": 324324879,
  "lat": 40.8668703,
  "lon": 14.2504882
},
{
  "type": "node",
  "id": 324324880,
  "lat": 40.8669497,
  "lon": 14.2507966
},
{
  "type": "node",
  "id": 324324881,
  "lat": 40.8671909,
  "lon": 14.2506882
},
{
  "type": "node",
  "id": 324324882,
  "lat": 40.8675621,
  "lon": 14.2505303
},
{
  "type": "node",
  "id": 324324883,
  "lat": 40.8674842,
  "lon": 14.2502082
},
{
  "type": "node",
  "id": 324324884,
  "lat": 40.8672493,
  "lon": 14.2503074
},
{
  "type": "node",
  "id": 324324885,
  "lat": 40.8673271,
  "lon": 14.2506296
},
{
  "type": "node",
  "id": 3209160735,
  "lat": 40.8678427,
  "lon": 14.2507600
},
{
  "type": "node",
  "id": 3209160736,
  "lat": 40.8664541,
  "lon": 14.2513641
},
{
  "type": "node",
  "id": 3209160737,
  "lat": 40.8662189,
  "lon": 14.2504194
},
{
  "type": "node",
  "id": 3209160738,
  "lat": 40.8676048,
  "lon": 14.2498043
},
{
  "type": "node",
  "id": 4326549257,
  "lat": 40.8674360,
  "lon": 14.2498777
},
{
  "type": "node",
  "id": 4326549258,
  "lat": 40.8674681,
  "lon": 14.2500064
},
{
  "type": "node",
  "id": 4326549259,
  "lat": 40.8664241,
  "lon": 14.2504609
},
{
  "type": "node",
  "id": 4326549263,
  "lat": 40.8663947,
  "lon": 14.2503428
},
{
  "type": "node",
  "id": 5569288397,
  "lat": 40.8666372,
  "lon": 14.2512844
},
{
  "type": "node",
  "id": 5569288398,
  "lat": 40.8666096,
  "lon": 14.2511737
},
{
  "type": "node",
  "id": 5569288399,
  "lat": 40.8676435,
  "lon": 14.2508467
},
{
  "type": "node",
  "id": 5569288400,
  "lat": 40.8676159,
  "lon": 14.2507357
},
{
  "type": "node",
  "id": 6578935713,
  "lat": 40.8675258,
  "lon": 14.2507749
},
{
  "type": "node",
  "id": 6578935714,
  "lat": 40.8673539,
  "lon": 14.2500561
},
{
  "type": "node",
  "id": 6578935716,
  "lat": 40.8673986,
  "lon": 14.2502443
},
{
  "type": "node",
  "id": 6578935717,
  "lat": 40.8674723,
  "lon": 14.2505682
},
{
  "type": "node",
  "id": 2397052238,
  "lat": 41.0809317,
  "lon": 14.2525509
},
{
  "type": "node",
  "id": 2397052242,
  "lat": 41.0809823,
  "lon": 14.2534642
},
{
  "type": "node",
  "id": 2397052246,
  "lat": 41.0800613,
  "lon": 14.2526260
},
{
  "type": "node",
  "id": 2397052247,
  "lat": 41.0805895,
  "lon": 14.2534772
},
{
  "type": "node",
  "id": 5782699565,
  "lat": 41.0808823,
  "lon": 14.2534698
},
{
  "type": "node",
  "id": 5782699566,
  "lat": 41.0808881,
  "lon": 14.2536411
},
{
  "type": "node",
  "id": 5782699567,
  "lat": 41.0806307,
  "lon": 14.2536541
},
{
  "type": "node",
  "id": 5846086083,
  "lat": 41.0805922,
  "lon": 14.2533370
},
{
  "type": "node",
  "id": 5846086192,
  "lat": 41.0808067,
  "lon": 14.2533702
},
{
  "type": "node",
  "id": 5846086193,
  "lat": 41.0808058,
  "lon": 14.2533501
},
{
  "type": "node",
  "id": 5846086194,
  "lat": 41.0806835,
  "lon": 14.2533800
},
{
  "type": "node",
  "id": 5846086195,
  "lat": 41.0806813,
  "lon": 14.2533300
},
{
  "type": "node",
  "id": 5846086196,
  "lat": 41.0805167,
  "lon": 14.2533430
},
{
  "type": "node",
  "id": 5846086197,
  "lat": 41.0805160,
  "lon": 14.2533269
},
{
  "type": "node",
  "id": 5846086198,
  "lat": 41.0808334,
  "lon": 14.2528468
},
{
  "type": "node",
  "id": 5846086199,
  "lat": 41.0808307,
  "lon": 14.2527867
},
{
  "type": "node",
  "id": 5846086200,
  "lat": 41.0806465,
  "lon": 14.2528615
},
{
  "type": "node",
  "id": 5846086201,
  "lat": 41.0806438,
  "lon": 14.2528015
},
{
  "type": "node",
  "id": 5846086202,
  "lat": 41.0801957,
  "lon": 14.2533523
},
{
  "type": "node",
  "id": 5846086203,
  "lat": 41.0808595,
  "lon": 14.2533458
},
{
  "type": "node",
  "id": 5846086204,
  "lat": 41.0808437,
  "lon": 14.2529950
},
{
  "type": "node",
  "id": 5846086205,
  "lat": 41.0806532,
  "lon": 14.2530101
},
{
  "type": "node",
  "id": 5846086206,
  "lat": 41.0806394,
  "lon": 14.2527016
},
{
  "type": "node",
  "id": 5846086207,
  "lat": 41.0801682,
  "lon": 14.2527388
},
{
  "type": "node",
  "id": 5846086208,
  "lat": 41.0800148,
  "lon": 14.2532084
},
{
  "type": "node",
  "id": 5846086209,
  "lat": 41.0806219,
  "lon": 14.2534733
},
{
  "type": "node",
  "id": 5846086210,
  "lat": 41.0802084,
  "lon": 14.2534988
},
{
  "type": "node",
  "id": 5846086211,
  "lat": 41.0801203,
  "lon": 14.2533448
},
{
  "type": "node",
  "id": 5846086212,
  "lat": 41.0801225,
  "lon": 14.2533919
},
{
  "type": "node",
  "id": 5846086213,
  "lat": 41.0801379,
  "lon": 14.2533433
},
{
  "type": "node",
  "id": 5846086214,
  "lat": 41.0802023,
  "lon": 14.2533915
},
{
  "type": "node",
  "id": 5846086215,
  "lat": 41.0801306,
  "lon": 14.2531876
},
{
  "type": "node",
  "id": 5846086216,
  "lat": 41.0800082,
  "lon": 14.2532010
},
{
  "type": "node",
  "id": 5846086217,
  "lat": 41.0799976,
  "lon": 14.2530642
},
{
  "type": "node",
  "id": 5846086218,
  "lat": 41.0800876,
  "lon": 14.2530589
},
{
  "type": "node",
  "id": 5782484896,
  "lat": 41.0852859,
  "lon": 14.2508245
},
{
  "type": "node",
  "id": 5782484897,
  "lat": 41.0852340,
  "lon": 14.2508278
},
{
  "type": "node",
  "id": 5782484898,
  "lat": 41.0852266,
  "lon": 14.2507950
},
{
  "type": "node",
  "id": 5782484899,
  "lat": 41.0850686,
  "lon": 14.2507983
},
{
  "type": "node",
  "id": 5782484900,
  "lat": 41.0850636,
  "lon": 14.2508474
},
{
  "type": "node",
  "id": 5782484901,
  "lat": 41.0850044,
  "lon": 14.2508507
},
{
  "type": "node",
  "id": 5782484902,
  "lat": 41.0850192,
  "lon": 14.2510538
},
{
  "type": "node",
  "id": 5782484903,
  "lat": 41.0851896,
  "lon": 14.2510243
},
{
  "type": "node",
  "id": 5782484904,
  "lat": 41.0851945,
  "lon": 14.2509719
},
{
  "type": "node",
  "id": 5782484905,
  "lat": 41.0852883,
  "lon": 14.2509621
},
{
  "type": "node",
  "id": 3532944662,
  "lat": 40.8017624,
  "lon": 14.3532822
},
{
  "type": "node",
  "id": 3532944667,
  "lat": 40.8013236,
  "lon": 14.3526550
},
{
  "type": "node",
  "id": 6876601193,
  "lat": 40.8014038,
  "lon": 14.3535604
},
{
  "type": "node",
  "id": 6876601194,
  "lat": 40.8014471,
  "lon": 14.3536272
},
{
  "type": "node",
  "id": 6876601195,
  "lat": 40.8017263,
  "lon": 14.3532155
},
{
  "type": "node",
  "id": 6876601196,
  "lat": 40.8016682,
  "lon": 14.3532810
},
{
  "type": "node",
  "id": 6876601197,
  "lat": 40.8014701,
  "lon": 14.3529550
},
{
  "type": "node",
  "id": 6876601198,
  "lat": 40.8014593,
  "lon": 14.3529210
},
{
  "type": "node",
  "id": 6876601199,
  "lat": 40.8014513,
  "lon": 14.3528639
},
{
  "type": "node",
  "id": 6876601200,
  "lat": 40.8014101,
  "lon": 14.3527543
},
{
  "type": "node",
  "id": 6876601201,
  "lat": 40.8013446,
  "lon": 14.3526731
},
{
  "type": "node",
  "id": 6876601202,
  "lat": 40.8013113,
  "lon": 14.3526477
},
{
  "type": "node",
  "id": 6876601203,
  "lat": 40.8012699,
  "lon": 14.3526317
},
{
  "type": "node",
  "id": 6876601204,
  "lat": 40.8012279,
  "lon": 14.3526272
},
{
  "type": "node",
  "id": 6876601205,
  "lat": 40.8011630,
  "lon": 14.3526493
},
{
  "type": "node",
  "id": 6876601206,
  "lat": 40.8011185,
  "lon": 14.3526838
},
{
  "type": "node",
  "id": 6876601207,
  "lat": 40.8010970,
  "lon": 14.3527137
},
{
  "type": "node",
  "id": 6876601208,
  "lat": 40.8010685,
  "lon": 14.3527807
},
{
  "type": "node",
  "id": 6876601209,
  "lat": 40.8010509,
  "lon": 14.3528593
},
{
  "type": "node",
  "id": 6876601210,
  "lat": 40.8010535,
  "lon": 14.3529207
},
{
  "type": "node",
  "id": 6876601211,
  "lat": 40.8009781,
  "lon": 14.3529962
},
{
  "type": "node",
  "id": 6876601212,
  "lat": 40.8009982,
  "lon": 14.3530227
},
{
  "type": "node",
  "id": 6876601213,
  "lat": 40.8009402,
  "lon": 14.3530829
},
{
  "type": "node",
  "id": 6876601214,
  "lat": 40.8009582,
  "lon": 14.3531128
},
{
  "type": "node",
  "id": 6876601215,
  "lat": 40.8008981,
  "lon": 14.3531817
},
{
  "type": "node",
  "id": 6876601216,
  "lat": 40.8008792,
  "lon": 14.3531596
},
{
  "type": "node",
  "id": 6876601217,
  "lat": 40.8008668,
  "lon": 14.3531568
},
{
  "type": "node",
  "id": 6876601218,
  "lat": 40.8008522,
  "lon": 14.3531634
},
{
  "type": "node",
  "id": 6876601219,
  "lat": 40.8008428,
  "lon": 14.3531753
},
{
  "type": "node",
  "id": 6876601220,
  "lat": 40.8008405,
  "lon": 14.3532004
},
{
  "type": "node",
  "id": 6876601221,
  "lat": 40.8008463,
  "lon": 14.3532153
},
{
  "type": "node",
  "id": 6876601222,
  "lat": 40.8008626,
  "lon": 14.3532234
},
{
  "type": "node",
  "id": 6876601223,
  "lat": 40.8008730,
  "lon": 14.3532384
},
{
  "type": "node",
  "id": 6876601224,
  "lat": 40.8011520,
  "lon": 14.3533598
},
{
  "type": "node",
  "id": 6876601225,
  "lat": 40.8011834,
  "lon": 14.3533813
},
{
  "type": "node",
  "id": 6876601226,
  "lat": 40.8013197,
  "lon": 14.3535395
},
{
  "type": "node",
  "id": 6876601227,
  "lat": 40.8013558,
  "lon": 14.3534960
},
{
  "type": "node",
  "id": 6876601228,
  "lat": 40.8013034,
  "lon": 14.3534282
},
{
  "type": "node",
  "id": 6876601229,
  "lat": 40.8013287,
  "lon": 14.3534010
},
{
  "type": "node",
  "id": 6876601230,
  "lat": 40.8013506,
  "lon": 14.3534396
},
{
  "type": "node",
  "id": 6876601454,
  "lat": 40.8015979,
  "lon": 14.3533491
},
{
  "type": "node",
  "id": 6876601455,
  "lat": 40.8015286,
  "lon": 14.3532395
},
{
  "type": "node",
  "id": 6876601456,
  "lat": 40.8013901,
  "lon": 14.3533911
},
{
  "type": "node",
  "id": 6876601457,
  "lat": 40.8014593,
  "lon": 14.3534998
},
{
  "type": "node",
  "id": 4061723217,
  "lat": 40.7564495,
  "lon": 14.4474818
},
{
  "type": "node",
  "id": 4061723218,
  "lat": 40.7562531,
  "lon": 14.4474519
},
{
  "type": "node",
  "id": 4061723219,
  "lat": 40.7562282,
  "lon": 14.4476180
},
{
  "type": "node",
  "id": 4061723220,
  "lat": 40.7564204,
  "lon": 14.4476707
},
{
  "type": "node",
  "id": 1370323690,
  "lat": 40.8515129,
  "lon": 14.2608431
},
{
  "type": "node",
  "id": 1370323695,
  "lat": 40.8515215,
  "lon": 14.2607341
},
{
  "type": "node",
  "id": 3208064345,
  "lat": 40.8514423,
  "lon": 14.2606357
},
{
  "type": "node",
  "id": 3146016351,
  "lat": 40.8075243,
  "lon": 14.3502767
},
{
  "type": "node",
  "id": 3146016352,
  "lat": 40.8071193,
  "lon": 14.3507253
},
{
  "type": "node",
  "id": 3146016353,
  "lat": 40.8069732,
  "lon": 14.3504950
},
{
  "type": "node",
  "id": 3146016354,
  "lat": 40.8073782,
  "lon": 14.3500464
},
{
  "type": "node",
  "id": 6875798922,
  "lat": 40.8280022,
  "lon": 14.3975671
},
{
  "type": "node",
  "id": 6875799735,
  "lat": 40.8279466,
  "lon": 14.3969152
},
{
  "type": "node",
  "id": 6875800472,
  "lat": 40.8281506,
  "lon": 14.3969707
},
{
  "type": "node",
  "id": 6875801154,
  "lat": 40.8279882,
  "lon": 14.3976171
},
{
  "type": "node",
  "id": 6875802535,
  "lat": 40.8279397,
  "lon": 14.3976316
},
{
  "type": "node",
  "id": 6875804807,
  "lat": 40.8278733,
  "lon": 14.3969766
},
{
  "type": "node",
  "id": 6875804935,
  "lat": 40.8280067,
  "lon": 14.3969646
},
{
  "type": "node",
  "id": 6875807747,
  "lat": 40.8279144,
  "lon": 14.3975657
},
{
  "type": "node",
  "id": 6875807861,
  "lat": 40.8279780,
  "lon": 14.3969204
},
{
  "type": "node",
  "id": 6875808592,
  "lat": 40.8281497,
  "lon": 14.3970684
},
{
  "type": "node",
  "id": 6875809200,
  "lat": 40.8279687,
  "lon": 14.3976315
},
{
  "type": "node",
  "id": 6875809883,
  "lat": 40.8280991,
  "lon": 14.3975714
},
{
  "type": "node",
  "id": 6875810589,
  "lat": 40.8279204,
  "lon": 14.3976135
},
{
  "type": "node",
  "id": 6875810706,
  "lat": 40.8279284,
  "lon": 14.3969310
},
{
  "type": "node",
  "id": 6875812826,
  "lat": 40.8279078,
  "lon": 14.3969765
},
{
  "type": "node",
  "id": 6875815840,
  "lat": 40.8278736,
  "lon": 14.3975630
},
{
  "type": "node",
  "id": 6875815961,
  "lat": 40.8279938,
  "lon": 14.3969381
},
{
  "type": "node",
  "id": 6875816698,
  "lat": 40.8281042,
  "lon": 14.3970739
},
{
  "type": "node",
  "id": 4025478795,
  "lat": 40.7617229,
  "lon": 14.4709231
},
{
  "type": "node",
  "id": 4025478800,
  "lat": 40.7617602,
  "lon": 14.4709599
},
{
  "type": "node",
  "id": 4025478801,
  "lat": 40.7617838,
  "lon": 14.4709920
},
{
  "type": "node",
  "id": 4025478802,
  "lat": 40.7617870,
  "lon": 14.4709864
},
{
  "type": "node",
  "id": 4025478807,
  "lat": 40.7618221,
  "lon": 14.4708554
},
{
  "type": "node",
  "id": 4025478808,
  "lat": 40.7618223,
  "lon": 14.4708576
},
{
  "type": "node",
  "id": 4025478809,
  "lat": 40.7618224,
  "lon": 14.4709097
},
{
  "type": "node",
  "id": 4025478810,
  "lat": 40.7618234,
  "lon": 14.4708653
},
{
  "type": "node",
  "id": 4025478811,
  "lat": 40.7618254,
  "lon": 14.4708712
},
{
  "type": "node",
  "id": 4025478812,
  "lat": 40.7618258,
  "lon": 14.4708439
},
{
  "type": "node",
  "id": 4025478813,
  "lat": 40.7618265,
  "lon": 14.4710385
},
{
  "type": "node",
  "id": 4025478814,
  "lat": 40.7618298,
  "lon": 14.4708792
},
{
  "type": "node",
  "id": 4025478815,
  "lat": 40.7618310,
  "lon": 14.4708377
},
{
  "type": "node",
  "id": 4025478816,
  "lat": 40.7618336,
  "lon": 14.4707949
},
{
  "type": "node",
  "id": 4025478817,
  "lat": 40.7618341,
  "lon": 14.4708828
},
{
  "type": "node",
  "id": 4025478818,
  "lat": 40.7618344,
  "lon": 14.4708009
},
{
  "type": "node",
  "id": 4025478819,
  "lat": 40.7618388,
  "lon": 14.4708357
},
{
  "type": "node",
  "id": 4025478823,
  "lat": 40.7618475,
  "lon": 14.4708834
},
{
  "type": "node",
  "id": 4025478824,
  "lat": 40.7618479,
  "lon": 14.4709062
},
{
  "type": "node",
  "id": 4025478826,
  "lat": 40.7618600,
  "lon": 14.4707543
},
{
  "type": "node",
  "id": 4025478829,
  "lat": 40.7618707,
  "lon": 14.4707377
},
{
  "type": "node",
  "id": 4025478841,
  "lat": 40.7619100,
  "lon": 14.4711294
},
{
  "type": "node",
  "id": 4025478851,
  "lat": 40.7619343,
  "lon": 14.4705775
},
{
  "type": "node",
  "id": 4025478856,
  "lat": 40.7619507,
  "lon": 14.4711737
},
{
  "type": "node",
  "id": 4025478858,
  "lat": 40.7619580,
  "lon": 14.4706032
},
{
  "type": "node",
  "id": 4025478871,
  "lat": 40.7619998,
  "lon": 14.4704702
},
{
  "type": "node",
  "id": 4025479007,
  "lat": 40.7621111,
  "lon": 14.4709179
},
{
  "type": "node",
  "id": 4025479010,
  "lat": 40.7621179,
  "lon": 14.4707992
},
{
  "type": "node",
  "id": 4025479011,
  "lat": 40.7621219,
  "lon": 14.4707826
},
{
  "type": "node",
  "id": 4025479022,
  "lat": 40.7621403,
  "lon": 14.4708020
},
{
  "type": "node",
  "id": 4025479026,
  "lat": 40.7621569,
  "lon": 14.4708399
},
{
  "type": "node",
  "id": 4025479051,
  "lat": 40.7622109,
  "lon": 14.4706903
},
{
  "type": "node",
  "id": 6049913316,
  "lat": 41.0952489,
  "lon": 14.3024468
},
{
  "type": "node",
  "id": 6049913317,
  "lat": 41.0951661,
  "lon": 14.3024334
},
{
  "type": "node",
  "id": 6049913318,
  "lat": 41.0951539,
  "lon": 14.3026158
},
{
  "type": "node",
  "id": 6049913319,
  "lat": 41.0952388,
  "lon": 14.3026238
},
{
  "type": "node",
  "id": 4889667437,
  "lat": 41.0742474,
  "lon": 14.3322650
},
{
  "type": "node",
  "id": 4889667438,
  "lat": 41.0742503,
  "lon": 14.3319935
},
{
  "type": "node",
  "id": 4889667439,
  "lat": 41.0740464,
  "lon": 14.3322722
},
{
  "type": "node",
  "id": 4889667440,
  "lat": 41.0740465,
  "lon": 14.3320009
},
{
  "type": "node",
  "id": 4889667451,
  "lat": 41.0741522,
  "lon": 14.3319960
},
{
  "type": "node",
  "id": 1245462752,
  "lat": 41.1008661,
  "lon": 14.3165417
},
{
  "type": "node",
  "id": 1533280326,
  "lat": 41.1006908,
  "lon": 14.3162508
},
{
  "type": "node",
  "id": 1533280348,
  "lat": 41.1008909,
  "lon": 14.3162848
},
{
  "type": "node",
  "id": 1533384353,
  "lat": 41.1007362,
  "lon": 14.3157794
},
{
  "type": "node",
  "id": 1533384355,
  "lat": 41.1008485,
  "lon": 14.3158519
},
{
  "type": "node",
  "id": 1533384356,
  "lat": 41.1008536,
  "lon": 14.3157994
},
{
  "type": "node",
  "id": 1245462723,
  "lat": 41.1013988,
  "lon": 14.3156749
},
{
  "type": "node",
  "id": 1245462726,
  "lat": 41.1010757,
  "lon": 14.3158127
},
{
  "type": "node",
  "id": 1245462730,
  "lat": 41.1012982,
  "lon": 14.3166151
},
{
  "type": "node",
  "id": 1245462731,
  "lat": 41.1010189,
  "lon": 14.3163580
},
{
  "type": "node",
  "id": 1245462753,
  "lat": 41.1012134,
  "lon": 14.3163936
},
{
  "type": "node",
  "id": 1245462758,
  "lat": 41.1009611,
  "lon": 14.3155976
},
{
  "type": "node",
  "id": 1245462774,
  "lat": 41.1012701,
  "lon": 14.3158483
},
{
  "type": "node",
  "id": 1533280354,
  "lat": 41.1009351,
  "lon": 14.3158666
},
{
  "type": "node",
  "id": 1533280362,
  "lat": 41.1011237,
  "lon": 14.3165854
},
{
  "type": "node",
  "id": 1533280363,
  "lat": 41.1011472,
  "lon": 14.3163832
},
{
  "type": "node",
  "id": 1533280372,
  "lat": 41.1012182,
  "lon": 14.3158388
},
{
  "type": "node",
  "id": 1533280376,
  "lat": 41.1012343,
  "lon": 14.3156478
},
{
  "type": "node",
  "id": 2148076290,
  "lat": 41.0914844,
  "lon": 14.3673009
},
{
  "type": "node",
  "id": 2148076292,
  "lat": 41.0914882,
  "lon": 14.3673743
},
{
  "type": "node",
  "id": 2148076296,
  "lat": 41.0915611,
  "lon": 14.3672938
},
{
  "type": "node",
  "id": 2148076297,
  "lat": 41.0915650,
  "lon": 14.3673672
},
{
  "type": "node",
  "id": 763128270,
  "lat": 40.9255764,
  "lon": 14.5303074
},
{
  "type": "node",
  "id": 763128271,
  "lat": 40.9254912,
  "lon": 14.5303641
},
{
  "type": "node",
  "id": 763128272,
  "lat": 40.9256922,
  "lon": 14.5306125
},
{
  "type": "node",
  "id": 763128273,
  "lat": 40.9256070,
  "lon": 14.5306691
},
{
  "type": "node",
  "id": 4897340934,
  "lat": 40.9304497,
  "lon": 14.5300932
},
{
  "type": "node",
  "id": 6856122993,
  "lat": 40.9256948,
  "lon": 14.5306276
},
{
  "type": "node",
  "id": 6856122994,
  "lat": 40.9256059,
  "lon": 14.5306784
},
{
  "type": "node",
  "id": 6856122996,
  "lat": 40.9256128,
  "lon": 14.5304116
},
{
  "type": "node",
  "id": 6856123211,
  "lat": 40.9254945,
  "lon": 14.5303701
},
{
  "type": "node",
  "id": 6856123212,
  "lat": 40.9255726,
  "lon": 14.5303204
},
{
  "type": "node",
  "id": 4897340932,
  "lat": 40.9308567,
  "lon": 14.5305651
},
{
  "type": "node",
  "id": 4897340933,
  "lat": 40.9306311,
  "lon": 14.5306861
},
{
  "type": "node",
  "id": 4897340935,
  "lat": 40.9306754,
  "lon": 14.5299722
},
{
  "type": "way",
  "id": 29403924,
  "nodes": [
    323904445,
    4330854288,
    4330854591,
    4330854592,
    4330854287,
    323904446,
    323903387,
    323903389,
    323904450,
    323904457,
    323903393,
    323903394,
    323904458,
    323904459,
    323904461,
    323904463,
    323904464,
    323904882,
    323904445
  ]
},
{
  "type": "way",
  "id": 435133457,
  "nodes": [
    4330854286,
    4330854590,
    4330854285,
    4330854594,
    4330854286
  ]
},
{
  "type": "way",
  "id": 435133456,
  "nodes": [
    4330854593,
    4330854589,
    4330854596,
    4330854595,
    4330854593
  ]
},
{
  "type": "way",
  "id": 515771598,
  "nodes": [
    5036276175,
    5036276174,
    5036276173,
    5036276172,
    5036276175
  ]
},
{
  "type": "way",
  "id": 29403558,
  "nodes": [
    323891537,
    323891539,
    323891543,
    3455594555,
    323891545,
    323891547,
    2556886000,
    323891548,
    323891550,
    323892297,
    2556886001,
    323891551,
    224807978,
    2552981105,
    2552981099,
    224807980,
    2552966768,
    323891537
  ]
},
{
  "type": "way",
  "id": 29403561,
  "nodes": [
    323891676,
    323891678,
    323891679,
    323891680,
    323891676
  ]
},
{
  "type": "way",
  "id": 29403567,
  "nodes": [
    323892022,
    4295415170,
    323892023,
    323892025,
    323892026,
    2552981094,
    2552981096,
    323892022
  ]
},
{
  "type": "way",
  "id": 29403611,
  "nodes": [
    323894464,
    323894465,
    1847413558,
    323894466,
    2552829307,
    3276387960,
    3276390261,
    323894467,
    3276387957,
    323894468,
    3276390262,
    323894464
  ]
},
{
  "type": "way",
  "id": 183334598,
  "nodes": [
    1937088470,
    1937088473,
    1937088459,
    1937088451,
    1937088470
  ]
},
{
  "type": "way",
  "id": 183334602,
  "nodes": [
    1937088455,
    1937088404,
    1937088403,
    1937088447,
    1937088455
  ]
},
{
  "type": "way",
  "id": 183334607,
  "nodes": [
    1937088462,
    1937088466,
    1937088401,
    1937088399,
    1937088462
  ]
},
{
  "type": "way",
  "id": 29403592,
  "nodes": [
    2787157104,
    1847413607,
    1847413604,
    1847413589,
    323894322,
    1847413568,
    1847413564,
    1847413562,
    1847413554,
    1847413539,
    1847413538,
    1847413535,
    323894323,
    1847413534,
    1847413533,
    323894324,
    323893603,
    323893604,
    1847413527,
    1847413530,
    2552807100,
    1847413519,
    2787168566,
    2787168565,
    1847413512,
    2787168564,
    323893607,
    2787168563,
    1308247024,
    1847413501,
    2787168562,
    1308247022,
    1847413525,
    323893609,
    323893610,
    5261869320,
    1847413567,
    5261869721,
    323893611,
    5261869722,
    1847413570,
    5261869723,
    323893612,
    5261869724,
    1847413573,
    1847413575,
    1847413578,
    5261869725,
    323893613,
    323893614,
    2552791944,
    323893616,
    1847413602,
    323893617,
    5261869728,
    1847413617,
    5261869729,
    1847413627,
    5261869730,
    5261869726,
    5261869731,
    5261869727,
    323893621,
    1847413651,
    323893622,
    2787157071,
    323893623,
    2787157061,
    2787157069,
    1847413666,
    2787157067,
    323893625,
    2787157065,
    2787157063,
    323893626,
    323893627,
    323893629,
    323893630,
    323893631,
    2787157108,
    1847413654,
    323893632,
    1847413655,
    1847413653,
    1847413637,
    2787157106,
    2787157104
  ]
},
{
  "type": "way",
  "id": 79299088,
  "nodes": [
    926103801,
    1941561005,
    1941561009,
    1941561013,
    1941561015,
    926103802,
    1941561011,
    1941561003,
    1941560987,
    926103786,
    1941560978,
    1941560972,
    926103783,
    1941560976,
    1941560983,
    926103801
  ]
},
{
  "type": "way",
  "id": 261250685,
  "nodes": [
    2668769776,
    2668769771,
    2668753411,
    2668753415,
    2668769780,
    2668783126,
    2668783121,
    2668769779,
    2668787791,
    2668769762,
    2668769774,
    2668769764,
    2668777224,
    2668769775,
    2668769766,
    2668775491,
    2668775490,
    2668769778,
    2668769768,
    2668769763,
    2668769767,
    2668769770,
    2668769772,
    2668804627,
    2668797882,
    2668769776
  ]
},
{
  "type": "way",
  "id": 261250725,
  "nodes": [
    2668758598,
    2668796417,
    2668771160,
    2668771156,
    2668818118,
    2668771159,
    2668758598
  ]
},
{
  "type": "way",
  "id": 261250729,
  "nodes": [
    2668771799,
    2668772794,
    2668771794,
    2668772435,
    2668771802,
    2668772793,
    2668771797,
    2668772432,
    2668771799
  ]
},
{
  "type": "way",
  "id": 271130190,
  "nodes": [
    2760931566,
    2760931560,
    2760931564,
    2760931568,
    2760931563,
    2760931574,
    2760931557,
    2668915377,
    2668915391,
    2668915393,
    2668915372,
    1641699265,
    2760931571,
    2760931577,
    2668905209,
    2760942427,
    2760942464,
    2760942459,
    2760984741,
    2760942448,
    2760942453,
    2760942431,
    2760942461,
    2760942463,
    2760942438,
    2760942446,
    2760942443,
    2760942455,
    2760942421,
    2760942435,
    2760931566
  ]
},
{
  "type": "way",
  "id": 271130460,
  "nodes": [
    2760942466,
    2760942436,
    2760942441,
    2760942457,
    2760942449,
    2760942428,
    2760942466
  ]
},
{
  "type": "way",
  "id": 271130471,
  "nodes": [
    2760942428,
    2760946922,
    2760942457,
    2760942449,
    2760942428
  ]
},
{
  "type": "way",
  "id": 271217563,
  "nodes": [
    2761770304,
    2761770301,
    2761770308,
    2761770298,
    2761770304
  ]
},
{
  "type": "way",
  "id": 271217565,
  "nodes": [
    2761770305,
    2761770311,
    1374013726,
    1374013618,
    2751840952,
    1374013632,
    2761761661,
    2761770315,
    2761770319,
    2761770307,
    2761770321,
    2761770323,
    2761770316,
    2761770300,
    2761770297,
    2761770309,
    2761770320,
    2761770302,
    2850749531,
    2850758404,
    2761755799,
    2761755812,
    2761770317,
    2761757065,
    2761757056,
    2761770312,
    2761770305
  ]
},
{
  "type": "way",
  "id": 122697728,
  "nodes": [
    1370323673,
    1370323690,
    3208064345,
    1370323687,
    2914233955,
    2914233957,
    1370323676,
    1370323672,
    1370323673
  ]
},
{
  "type": "way",
  "id": 122697729,
  "nodes": [
    1370323694,
    1370323668,
    1370323695,
    1370323692,
    1370323694
  ]
},
{
  "type": "way",
  "id": 29403647,
  "nodes": [
    323896580,
    7145946185,
    323896582,
    323896581,
    323896580
  ]
},
{
  "type": "way",
  "id": 29403652,
  "nodes": [
    323896927,
    323896931,
    323896930,
    323896928,
    323896927
  ]
},
{
  "type": "way",
  "id": 288230272,
  "nodes": [
    2917861786,
    7146299685,
    2917862107,
    7146329485,
    7146329585,
    2917862106,
    2469452946,
    323895773,
    2917861787,
    2917861786
  ]
},
{
  "type": "way",
  "id": 271231505,
  "nodes": [
    2761879918,
    2761879929,
    2761857450,
    2761888299,
    2761888293,
    2761888309,
    2761888296,
    2761857449,
    2761879902,
    2761879921,
    2761879916,
    2761880840,
    1373189408,
    2761879918
  ]
},
{
  "type": "way",
  "id": 271231506,
  "nodes": [
    2761888306,
    2761888303,
    2761888314,
    2761888318,
    2761888306
  ]
},
{
  "type": "way",
  "id": 288082088,
  "nodes": [
    2916226361,
    2916226362,
    2916226359,
    2916226368,
    2916226361
  ]
},
{
  "type": "way",
  "id": 288082089,
  "nodes": [
    2916226363,
    7179565924,
    2916226367,
    2916226360,
    2916226365,
    2916226369,
    2916226366,
    2916226364,
    2916226363
  ]
},
{
  "type": "way",
  "id": 29427589,
  "nodes": [
    324324850,
    324324851,
    324324852,
    324324853,
    324324850
  ]
},
{
  "type": "way",
  "id": 29427592,
  "nodes": [
    324324878,
    324324879,
    324324880,
    324324881,
    324324878
  ]
},
{
  "type": "way",
  "id": 29427598,
  "nodes": [
    324324882,
    324324883,
    6578935716,
    324324884,
    324324885,
    6578935717,
    324324882
  ]
},
{
  "type": "way",
  "id": 314869462,
  "nodes": [
    3209160735,
    5569288399,
    5569288400,
    6578935713,
    5569288398,
    5569288397,
    3209160736,
    3209160737,
    4326549263,
    4326549259,
    6578935714,
    4326549258,
    4326549257,
    3209160738,
    3209160735
  ]
},
{
  "type": "way",
  "id": 231311665,
  "nodes": [
    2397052238,
    2397052242,
    5782699565,
    5782699566,
    5782699567,
    5846086209,
    2397052247,
    5846086210,
    5846086214,
    5846086212,
    5846086211,
    5846086213,
    5846086215,
    5846086208,
    5846086216,
    5846086217,
    5846086218,
    2397052246,
    2397052238
  ]
},
{
  "type": "way",
  "id": 618509333,
  "nodes": [
    5846086207,
    5846086206,
    5846086201,
    5846086199,
    5846086198,
    5846086200,
    5846086205,
    5846086204,
    5846086203,
    5846086193,
    5846086192,
    5846086194,
    5846086195,
    5846086083,
    5846086196,
    5846086197,
    5846086202,
    5846086207
  ]
},
{
  "type": "way",
  "id": 108580346,
  "nodes": [
    1533280326,
    1533280348,
    1245462752
  ]
},
{
  "type": "way",
  "id": 139939926,
  "nodes": [
    1533280326,
    1533384353
  ]
},
{
  "type": "way",
  "id": 139920147,
  "nodes": [
    1533384353,
    1533384356,
    1533384355,
    1533280354,
    1245462758,
    1533280376,
    1245462723
  ]
},
{
  "type": "way",
  "id": 139927637,
  "nodes": [
    1245462730,
    1533280362,
    1245462752
  ]
},
{
  "type": "way",
  "id": 108580351,
  "nodes": [
    1245462774,
    1533280372,
    1245462726,
    1245462731,
    1533280363,
    1245462753,
    1245462774
  ]
},
{
  "type": "way",
  "id": 139927636,
  "nodes": [
    1245462723,
    1245462730
  ]
}

  ]
}
