{
  "version": 0.6,
  "generator": "Overpass API 0.7.55.1011 6c2efc30",
  "osm3s": {
    "timestamp_osm_base": "2020-02-14T17:12:02Z",
    "copyright": "The data included in this document is from www.openstreetmap.org. The data is made available under ODbL."
  },
  "elements": [

{
  "type": "node",
  "id": 297580153,
  "lat": 48.2139223,
  "lon": 14.4797366,
  "tags": {
    "addr:city": "Enns",
    "addr:country": "AT",
    "addr:housenumber": "19",
    "addr:postcode": "4470",
    "addr:street": "Hauptplatz",
    "name": "Museum Lauriacum",
    "source": "survey",
    "tourism": "museum",
    "wikidata": "Q29897087"
  }
},
{
  "type": "node",
  "id": 302214113,
  "lat": 48.3057359,
  "lon": 14.2879438,
  "tags": {
    "amenity": "arts_centre",
    "contact:phone": "+43 732 70701920",
    "contact:website": "http://www.zahnmuseum-linz.at",
    "name": "Zahnheilkundemuseum",
    "opening_hours": "Mo-Fr 09:00-13:00,14:00-18:00",
    "tourism": "museum"
  }
},
{
  "type": "node",
  "id": 490174610,
  "lat": 48.1566027,
  "lon": 14.0280363,
  "tags": {
    "name": "Burgmuseum",
    "tourism": "museum",
    "wheelchair": "yes"
  }
},
{
  "type": "node",
  "id": 527917628,
  "lat": 47.8930358,
  "lon": 14.4626413,
  "tags": {
    "addr:city": "Reichraming",
    "addr:postcode": "4462",
    "fixme": "exact position",
    "name": "Messingmuseum",
    "operator": "Kulturverein Bachaufwärts",
    "tourism": "museum"
  }
},
{
  "type": "node",
  "id": 582853972,
  "lat": 47.8843124,
  "lon": 14.2593491,
  "tags": {
    "name": "Museum im Dorf",
    "tourism": "museum"
  }
},
{
  "type": "node",
  "id": 583378930,
  "lat": 47.8895571,
  "lon": 14.4612583,
  "tags": {
    "name": "Forstmuseum-Reichraming",
    "tourism": "museum",
    "wheelchair": "no"
  }
},
{
  "type": "node",
  "id": 620825745,
  "lat": 48.1750474,
  "lon": 14.5339197,
  "tags": {
    "name": "Geschichtliches Museum St.Valentin",
    "tourism": "museum"
  }
},
{
  "type": "node",
  "id": 628168800,
  "lat": 48.1991655,
  "lon": 14.3569550,
  "tags": {
    "name": "OÖ Jagdmuseum (Schloss Hohenbrunn)",
    "tourism": "museum"
  }
},
{
  "type": "node",
  "id": 958307921,
  "lat": 48.2868763,
  "lon": 14.3718759,
  "tags": {
    "name": "Schlossmuseum",
    "tourism": "museum"
  }
},
{
  "type": "node",
  "id": 1259267402,
  "lat": 47.9289003,
  "lon": 14.3541960,
  "tags": {
    "name": "Info Center Museumsdorf Trattenbach",
    "tourism": "museum",
    "website": "https://www.tal-der-feitelmacher.at/",
    "wikidata": "Q67656195"
  }
},
{
  "type": "node",
  "id": 1413926602,
  "lat": 48.1441418,
  "lon": 14.3907013,
  "tags": {
    "addr:city": "Hofkirchen im Traunkreis",
    "addr:country": "AT",
    "addr:housenumber": "15",
    "addr:postcode": "4492",
    "addr:street": "Ipfmühlstraße",
    "name": "Sattler Mauseum",
    "phone": "*43 7225 6205",
    "tourism": "museum",
    "website": "https://www.sattlermuseum.at/"
  }
},
{
  "type": "node",
  "id": 2095716301,
  "lat": 48.1571170,
  "lon": 14.0216865,
  "tags": {
    "name": "Medienkulturhaus",
    "tourism": "museum"
  }
},
{
  "type": "node",
  "id": 2125629013,
  "lat": 48.2554384,
  "lon": 14.6281875,
  "tags": {
    "name": "Steinbrecherhaus",
    "tourism": "museum",
    "wikidata": "Q2340077"
  }
},
{
  "type": "node",
  "id": 2125645408,
  "lat": 48.2482328,
  "lon": 14.6339313,
  "tags": {
    "name": "Heimathaus und Stadtmuseum",
    "tourism": "museum"
  }
},
{
  "type": "node",
  "id": 2370287808,
  "lat": 48.0544510,
  "lon": 14.1460980,
  "tags": {
    "name": "Musikinstrumentenmuseum",
    "tourism": "museum"
  }
},
{
  "type": "node",
  "id": 2401175162,
  "lat": 47.9609426,
  "lon": 14.0108965,
  "tags": {
    "name": "Museum Bartlhaus - Schriften- und Druckmuseum",
    "tourism": "museum"
  }
},
{
  "type": "node",
  "id": 2600964515,
  "lat": 48.2405520,
  "lon": 14.5156227,
  "tags": {
    "name": "Mauthausener Heimatmuseum",
    "note": "zusätzlich das Trophäen–, Gerstmayr und Apothekenmuseum",
    "tourism": "museum"
  }
},
{
  "type": "node",
  "id": 2620080159,
  "lat": 48.0422324,
  "lon": 14.4206208,
  "tags": {
    "name": "Stollen der Erinnerung",
    "operator": "Verein Museum Arbeitswelt",
    "tourism": "museum",
    "wikidata": "Q1954403",
    "wikipedia": "de:Museum Arbeitswelt Steyr"
  }
},
{
  "type": "node",
  "id": 2827124013,
  "lat": 48.2093828,
  "lon": 14.2909339,
  "tags": {
    "name": "Anton Bruckner Museum",
    "tourism": "museum",
    "wikidata": "Q28735571"
  }
},
{
  "type": "node",
  "id": 3077892496,
  "lat": 48.0570539,
  "lon": 14.8539188,
  "tags": {
    "addr:city": "Neuhofen an der Ybbs",
    "addr:housenumber": "1",
    "addr:postcode": "3364",
    "addr:street": "Millenniumsplatz",
    "contact:email": "office@ostarrichi-kulturhof.at",
    "contact:phone": "+43 7475 52700-40",
    "contact:website": "http://www.ostarrichi-kulturhof.at/",
    "name": "Ostarrichi-Kulturhof",
    "tourism": "museum",
    "wheelchair": "yes"
  }
},
{
  "type": "node",
  "id": 3217026461,
  "lat": 48.1491325,
  "lon": 13.9975141,
  "tags": {
    "addr:city": "Wels",
    "addr:country": "AT",
    "addr:housenumber": "101",
    "addr:postcode": "4600",
    "addr:street": "Lichtenegger Straße",
    "name": "Feuerwehroldtimerverein",
    "operator": "Freiwillige Feuerwehr Wels",
    "tourism": "museum"
  }
},
{
  "type": "node",
  "id": 3763436613,
  "lat": 48.3183527,
  "lon": 14.4737845,
  "tags": {
    "name": "Karden- und Heimatmuseum Katsdorf",
    "tourism": "museum",
    "wikidata": "Q18413187"
  }
},
{
  "type": "node",
  "id": 3923278776,
  "lat": 48.0366669,
  "lon": 14.4178517,
  "tags": {
    "name": "Steyrer Kripperl",
    "tourism": "museum"
  }
},
{
  "type": "node",
  "id": 3923334828,
  "lat": 48.0391500,
  "lon": 14.4078332,
  "tags": {
    "name": "Steyrtal Museumsbahn (dampf)",
    "tourism": "museum"
  }
},
{
  "type": "node",
  "id": 3941265536,
  "lat": 47.9629721,
  "lon": 14.7737673,
  "tags": {
    "addr:city": "Waidhofen an der Ybbs",
    "addr:country": "AT",
    "addr:housenumber": "2",
    "addr:postcode": "3340",
    "addr:street": "Schlossweg",
    "name": "5-Elemente-Museum",
    "opening_hours": "We-Su 09:00-16:00",
    "tourism": "museum",
    "website": "http://www.schloss-rothschild.at/5emuseum/"
  }
},
{
  "type": "node",
  "id": 4226283857,
  "lat": 47.9129683,
  "lon": 14.2247056,
  "tags": {
    "tourism": "museum"
  }
},
{
  "type": "node",
  "id": 4260828543,
  "lat": 48.2887117,
  "lon": 14.2888771,
  "tags": {
    "name": "POSTCITY",
    "tourism": "museum"
  }
},
{
  "type": "node",
  "id": 4342022189,
  "lat": 48.1126295,
  "lon": 14.0192675,
  "tags": {
    "name": "Max Schwediauer Kunstmühle",
    "tourism": "museum"
  }
},
{
  "type": "node",
  "id": 4563434989,
  "lat": 47.8811211,
  "lon": 14.5414698,
  "tags": {
    "addr:housenumber": "36",
    "addr:postcode": "4463",
    "addr:street": "Rodelsbach",
    "name": "Kutschenmuseum Gruber",
    "opening_hours": "Mo-Su 10:00-12:00, 14:00-16:00",
    "phone": "004372548283",
    "tourism": "museum",
    "website": "http://www.johannesgruber.com"
  }
},
{
  "type": "node",
  "id": 4802493333,
  "lat": 48.2858545,
  "lon": 14.3696183,
  "tags": {
    "addr:city": "Steyregg",
    "addr:housenumber": "14",
    "addr:postcode": "4221",
    "addr:street": "Weißenwolffstraße",
    "name": "Whisky Museum",
    "tourism": "museum",
    "website": "http://www.whiskymuseum.at",
    "wheelchair": "no"
  }
},
{
  "type": "node",
  "id": 4802493334,
  "lat": 48.2850842,
  "lon": 14.3722925,
  "tags": {
    "addr:city": "Steyregg",
    "addr:housenumber": "11",
    "addr:postcode": "4221",
    "addr:street": "Stadtturmgasse",
    "name": "Stadtturm Heimatmuseum",
    "opening_hours": "May-Sep: Su 10:00-12:00 || \"nach Vereinbarung\"",
    "operator": "Heimatverein Steyregg",
    "phone": "+43 732 640677",
    "tourism": "museum",
    "website": "https://www.tiscover.com/at/guide/5,de/objectId,SIG568539at,parentId,RGN111161at/intern.html",
    "wheelchair": "no"
  }
},
{
  "type": "node",
  "id": 6131278299,
  "lat": 47.9454415,
  "lon": 14.7996823,
  "tags": {
    "addr:city": "Waidhofen an der Ybbs",
    "addr:housenumber": "6",
    "addr:postcode": "3340",
    "addr:street": "Kreilhofstraße",
    "name": "Museales Schaukraftwerk Schwellöd",
    "tourism": "museum"
  }
},
{
  "type": "node",
  "id": 6239605045,
  "lat": 47.9614687,
  "lon": 14.7739680,
  "tags": {
    "addr:city": "Waidhofen an der Ybbs",
    "addr:country": "AT",
    "addr:housenumber": "32",
    "addr:postcode": "3340",
    "addr:street": "Oberer Stadtplatz",
    "name": "Stadtmuseum",
    "opening_hours": "We-Su 09:00-16:00",
    "tourism": "museum"
  }
},
{
  "type": "node",
  "id": 6562890284,
  "lat": 48.2674181,
  "lon": 14.6874863,
  "tags": {
    "addr:city": "Windhaag bei Perg",
    "addr:housenumber": "2",
    "addr:postcode": "4322",
    "addr:street": "Altenburg",
    "tourism": "museum"
  }
},
{
  "type": "way",
  "id": 13959723,
  "nodes": [
    132136891,
    2325863815,
    2325863718,
    132136898,
    3665258163,
    132136902,
    2325863804,
    2325863822,
    132136906,
    132136891
  ],
  "tags": {
    "abbreviation": "Lentos",
    "addr:city": "Linz",
    "addr:country": "AT",
    "addr:housenumber": "1",
    "addr:postcode": "4020",
    "addr:street": "Ernst-Koref-Promenade",
    "building": "yes",
    "building:levels": "4",
    "building:material": "glass",
    "contact:phone": "+43 732 70703600",
    "contact:website": "http://www.lentos.at",
    "name": "LENTOS Kunstmuseum Linz",
    "name:en": "Lentos Museum of Modern Art",
    "opening_hours": "Mo-We 10:00-18:00; Th 10:00-21:00; Fr-Su 10:00-18:00",
    "roof:material": "concrete",
    "roof:shape": "flat",
    "source": "yahoo",
    "tourism": "museum",
    "wheelchair": "yes",
    "wikidata": "Q686531"
  }
},
{
  "type": "way",
  "id": 13964980,
  "nodes": [
    132219642,
    856659250,
    856659252,
    856538096,
    856659254,
    856659256,
    132219645,
    856659262,
    856659265,
    856659270,
    856659271,
    132219652,
    132219655,
    856659274,
    856659276,
    856659278,
    856659280,
    132219642
  ],
  "tags": {
    "addr:city": "Linz",
    "addr:country": "AT",
    "addr:housenumber": "14",
    "addr:postcode": "4010",
    "addr:street": "Museumstraße",
    "building": "museum",
    "building:levels": "3.5",
    "contact:phone": "+43 732 7744820",
    "contact:website": "http://www.landesmuseum.at",
    "name": "Landesmuseum",
    "name:de": "Landesmuseum",
    "name:en": "Upper Austrian State Museum",
    "opening_hours": "Tu,We,Fr 09:00-18:00, Th 09:00-21:00, Sa,Su,PH 10:00-17:00",
    "operator": "Oberösterreichisches Landesmuseum / Landesgalerie Linz",
    "source": "yahoo",
    "tourism": "museum",
    "wikidata": "Q2011578"
  }
},
{
  "type": "way",
  "id": 23692761,
  "nodes": [
    256555961,
    256555962,
    1586299390,
    3175613642,
    1586299387,
    3175613643,
    3175613644,
    3175613645,
    256555964,
    256555965,
    256555968,
    256556006,
    256555972,
    256556007,
    256555973,
    256555977,
    256555979,
    4699618001,
    256555980,
    256555982,
    256555983,
    256555985,
    256555986,
    256555987,
    256555991,
    256556000,
    256555992,
    256555994,
    256555995,
    256555961
  ],
  "tags": {
    "alt_name": "Stadtmuseum",
    "building": "public",
    "name": "Minoriten",
    "tourism": "museum"
  }
},
{
  "type": "way",
  "id": 24968628,
  "nodes": [
    271326386,
    3795448244,
    1034042909,
    1034042906,
    1034043053,
    3795448237,
    3795448235,
    1034042999,
    271326387,
    1034042957,
    271326388,
    6302379642,
    269539379,
    269539380,
    6302379641,
    271326386
  ],
  "tags": {
    "addr:city": "Wels",
    "addr:country": "AT",
    "addr:housenumber": "1",
    "addr:postcode": "4600",
    "addr:street": "Weliosplatz",
    "building": "yes",
    "emergency": "fire_detection_system",
    "name": "Welios",
    "tourism": "museum",
    "wikidata": "Q2557538"
  }
},
{
  "type": "way",
  "id": 30577175,
  "nodes": [
    337898811,
    1471019159,
    1471019157,
    337898814,
    1471019150,
    2620080144,
    1471019147,
    337898817,
    369551343,
    369551346,
    369551351,
    1471019145,
    1471019146,
    1471019148,
    1471019149,
    369551335,
    369551339,
    337898820,
    337898811
  ],
  "tags": {
    "addr:postcode": "4400",
    "building": "yes",
    "is_in": "Steyr,Steyr,Oberösterreich,Österreich,Europe",
    "name": "Museum Arbeitswelt",
    "operator": "Verein Museum Arbeitswelt",
    "source": "geoimage.at",
    "tourism": "museum",
    "wikidata": "Q1954403",
    "wikipedia": "de:Museum Arbeitswelt Steyr"
  }
},
{
  "type": "way",
  "id": 30580071,
  "nodes": [
    337933706,
    5729040906,
    337933711,
    337933717,
    337933722,
    5729040907,
    337933706
  ],
  "tags": {
    "addr:city": "Steyr",
    "addr:country": "AT",
    "addr:housenumber": "26",
    "addr:postcode": "4400",
    "addr:street": "Grünmarkt",
    "building": "yes",
    "name": "Heimatmuseum",
    "source": "basemap.at",
    "tourism": "museum"
  }
},
{
  "type": "way",
  "id": 31340724,
  "nodes": [
    349052482,
    349052467,
    349052470,
    3665244446,
    616433664,
    349059103,
    3665250825,
    1573528040,
    1573528042,
    3665250827,
    349052477,
    349052479,
    3665250829,
    3665250828,
    349052482
  ],
  "tags": {
    "abbreviation": "AEC",
    "addr:city": "Linz",
    "addr:country": "AT",
    "addr:housenumber": "2",
    "addr:postcode": "4020",
    "addr:street": "Hauptstraße",
    "building": "commercial",
    "building:levels": "6",
    "building:material": "glass",
    "contact:email": "center@ars.electronica.art",
    "contact:fax": "+43 732 7272-2",
    "contact:phone": "+43 732 72720",
    "contact:website": "http://www.aec.at",
    "name": "Ars Electronica Center",
    "opening_hours": "Tu,We,Fr 09:00-17:00;Th 09:00-19:00;Sa,Su 10:00-18:00;Mo off",
    "roof:orientation": "along",
    "roof:shape": "flat",
    "toilets:wheelchair": "yes",
    "tourism": "museum",
    "wheelchair": "yes",
    "wikidata": "Q703964"
  }
},
{
  "type": "way",
  "id": 35324453,
  "nodes": [
    414044293,
    414044309,
    1232196611,
    414044292,
    414044300,
    414044301,
    1232196801,
    414044311,
    414044310,
    1232196537,
    414044312,
    414044297,
    414044303,
    414044294,
    1232196455,
    414044298,
    414044296,
    1232196640,
    414044291,
    1232196521,
    1232196693,
    414044293
  ],
  "tags": {
    "addr:city": "Leonding",
    "addr:country": "AT",
    "addr:housenumber": "55",
    "addr:postcode": "4060",
    "addr:street": "Daffingerstraße",
    "alt_name": "9er Turm - Stadmuseum Leonding",
    "building": "watchtower",
    "building:levels": "2",
    "building:material": "stone",
    "contact:phone": "+43 732 674746",
    "description": "Turmbefestigung Linz",
    "description:de": "Turmbefestigung Linz",
    "man_made": "tower",
    "name": "Turm 9 (Apollonia)",
    "name:en": "Tower 9 (Apollonia)",
    "roof:levels": "1",
    "roof:material": "copper",
    "roof:shape": "pyramidal",
    "tourism": "museum",
    "tower:type": "observation",
    "wikidata": "Q1325557",
    "wikipedia": "de:Turmbefestigung Linz"
  }
},
{
  "type": "way",
  "id": 35900994,
  "nodes": [
    1067696681,
    419634407,
    3389997339,
    419634408,
    133304207,
    133304218,
    1568211770,
    1568211654,
    419634411,
    1568211651,
    762669628,
    762669634,
    1568211632,
    1568211622,
    1568211617,
    762669631,
    3389997337,
    1568211579,
    1568211566,
    419634412,
    1568211551,
    1568211561,
    1568211536,
    1067696681
  ],
  "tags": {
    "addr:city": "Linz",
    "addr:country": "AT",
    "addr:housenumber": "1a",
    "addr:postcode": "4020",
    "addr:street": "Schlossberg",
    "building": "yes",
    "building:levels": "2",
    "building:material": "glass",
    "name": "Schlossmuseum Linz",
    "name:de": "Südtrakt",
    "name:en": "Castle Museum Linz",
    "opening_hours": "Tu,We,Fr 09:00-18:00;Th 09:00-21:00;Sa,Su,PH 10:00-17:00;Mo oFF",
    "roof:shape": "flat",
    "tourism": "museum",
    "wheelchair": "limited"
  }
},
{
  "type": "way",
  "id": 38235132,
  "nodes": [
    450633768,
    450633769,
    450633770,
    450633771,
    450633772,
    450633773,
    450633774,
    450633775,
    450633768
  ],
  "tags": {
    "addr:city": "Wels",
    "addr:country": "AT",
    "addr:housenumber": "17",
    "addr:postcode": "4600",
    "addr:street": "Pollheimerstraße",
    "building": "yes",
    "tourism": "museum"
  }
},
{
  "type": "way",
  "id": 57776384,
  "nodes": [
    716791281,
    716791117,
    716791318,
    716791069,
    716791259,
    716791002,
    716791012,
    716791281
  ],
  "tags": {
    "addr:city": "Bad Hall",
    "addr:country": "AT",
    "addr:housenumber": "4",
    "addr:postcode": "4540",
    "addr:street": "Eduard-Bach-Straße",
    "building": "yes",
    "name": "Forum Hall, neues Badhaus",
    "source": "yahoo",
    "tourism": "museum"
  }
},
{
  "type": "way",
  "id": 72338398,
  "nodes": [
    859275382,
    4956274626,
    859275385,
    859275387,
    859275390,
    859275392,
    859275382
  ],
  "tags": {
    "abbreviation": "Nordico",
    "addr:city": "Linz",
    "addr:country": "AT",
    "addr:housenumber": "23",
    "addr:postcode": "4020",
    "addr:street": "Dametzstraße",
    "amenity": "arts_centre",
    "building": "yes",
    "contact:email": "nordico@mag.linz.at",
    "contact:fax": "+43 732 793518",
    "contact:phone": "+43 732 70701912",
    "contact:website": "http://www.nordico.at",
    "name": "NORDICO Stadtmuseum Linz",
    "name:en": "NORDICO Museum of the city of Linz",
    "opening_hours": "Mo off;Tu-Fr 10:00-18:00;Th 10:00-21:00",
    "operator": "IKT Linz GmbH",
    "tourism": "museum",
    "wheelchair": "yes",
    "wikidata": "Q1410802",
    "wikipedia": "de:Nordico"
  }
},
{
  "type": "way",
  "id": 81038286,
  "nodes": [
    944634381,
    944634383,
    944634385,
    944634386,
    944634387,
    944634388,
    944634381
  ],
  "tags": {
    "addr:city": "Molln",
    "addr:country": "AT",
    "addr:housenumber": "9",
    "addr:postcode": "4591",
    "addr:street": "Maultrommelstraße",
    "building": "yes",
    "name": "Hoisn Haus",
    "tourism": "museum",
    "wikidata": "Q38121013"
  }
},
{
  "type": "way",
  "id": 81178354,
  "nodes": [
    945946517,
    945946417,
    945946626,
    945946649,
    3885314751,
    3885314750,
    3885314749,
    3885314748,
    3885314747,
    3885314746,
    945946419,
    945946452,
    3885314745,
    945946480,
    945946501,
    945946528,
    945946555,
    945946420,
    4770181612,
    3885314753,
    3885314752,
    3885314754,
    945946462,
    945946482,
    945946505,
    945946535,
    945946517
  ],
  "tags": {
    "abandoned:amenity": "prison_camp",
    "concentration_camp": "nazism",
    "historic": "memorial",
    "image": "http://commons.wikimedia.org/wiki/File:Einfahrtsgeb%C3%A4ude_zum_KZ_Mauthausen_2010.JPG",
    "name": "KZ-Gedenkstätte Mauthausen",
    "prison_camp": "concentration_camp",
    "source": "geoland.at",
    "tourism": "museum",
    "website": "http://www.mauthausen-memorial.at/",
    "wikidata": "Q160139",
    "wikipedia": "de:KZ Mauthausen"
  }
},
{
  "type": "way",
  "id": 84505356,
  "nodes": [
    981769713,
    981770083,
    3663367978,
    3663367976,
    3663367974,
    3663367972,
    981769881,
    981769927,
    3663340089,
    981769702,
    981769789,
    981770131,
    981770150,
    3663340092,
    981769713
  ],
  "tags": {
    "addr:city": "Linz",
    "addr:country": "AT",
    "addr:housenumber": "19",
    "addr:postcode": "4040",
    "addr:street": "Landgutstraße",
    "alt_name": "Pöstlingberg Talstation",
    "building": "museum",
    "building:levels": "1",
    "building:material": "brick",
    "museum": "railway",
    "name": "Pöstlingbergbahn Museum",
    "roof:levels": "0.3",
    "roof:material": "roof_tiles",
    "roof:shape": "hipped",
    "toilets:wheelchair": "no",
    "tourism": "museum",
    "wikidata": "Q873726"
  }
},
{
  "type": "way",
  "id": 95387928,
  "nodes": [
    1106118049,
    1106118050,
    2418113926,
    1106118048,
    2907736700,
    1106118049
  ],
  "tags": {
    "addr:city": "Waidhofen an der Ybbs",
    "addr:country": "AT",
    "addr:housenumber": "27",
    "addr:postcode": "3340",
    "addr:street": "Oberer Stadtplatz",
    "building": "tower",
    "height": "50",
    "name": "Stadtturm",
    "roof:colour": "brown",
    "roof:height": "10",
    "roof:material": "metal",
    "roof:shape": "onion",
    "tourism": "museum",
    "tower:type": "defensive",
    "wikipedia": "de:Liste der denkmalgeschützten Objekte in Waidhofen an der Ybbs"
  }
},
{
  "type": "way",
  "id": 119832195,
  "nodes": [
    1345207416,
    1345207412,
    1371755515,
    1371755512,
    1371755494,
    1371755496,
    1345207408,
    1345207410,
    1345207416
  ],
  "tags": {
    "addr:city": "Pichling",
    "addr:country": "AT",
    "addr:housenumber": "266",
    "addr:postcode": "4030",
    "addr:street": "Traundorfer Straße",
    "building": "house",
    "name": "Cowboy Museum",
    "tourism": "museum"
  }
},
{
  "type": "way",
  "id": 122450431,
  "nodes": [
    5367627229,
    5367627228,
    5367627227,
    1368297510,
    1368297524,
    1368297495,
    1368297556,
    5367627226,
    5367627229
  ],
  "tags": {
    "addr:city": "Rosenau am Sonntagberg",
    "addr:country": "AT",
    "addr:housenumber": "5",
    "addr:postcode": "3332",
    "addr:street": "Aichöd",
    "building": "yes",
    "contact:phone": "+43 664 355 23 06",
    "name": "Militärmuseum",
    "opening_hours": "Sa, Su, PH 09:00-18:00",
    "tourism": "museum",
    "website": "http://www.militaermuseum.com/"
  }
},
{
  "type": "way",
  "id": 122925669,
  "nodes": [
    1372031588,
    1372031590,
    1372031591,
    1372031589,
    1372031588
  ],
  "tags": {
    "building": "yes",
    "name": "Wilderermuseum",
    "tourism": "museum"
  }
},
{
  "type": "way",
  "id": 122999640,
  "nodes": [
    1372842633,
    1372842635,
    1372842645,
    1372815862,
    1372842624,
    1372842627,
    1372842630,
    1372842644,
    1372842632,
    1372842633
  ],
  "tags": {
    "addr:city": "Sankt Florian",
    "addr:country": "AT",
    "addr:housenumber": "14a",
    "addr:postcode": "4490",
    "addr:street": "Leopold-Kotzmann-Straße",
    "building": "yes",
    "name": "Alte Remise Florianerbahn",
    "tourism": "museum",
    "website": "http://www.florianerbahn.at"
  }
},
{
  "type": "way",
  "id": 124080860,
  "nodes": [
    1381918349,
    1381918352,
    1381918305,
    1381918309,
    1381918326,
    1381918317,
    1381918349
  ],
  "tags": {
    "addr:city": "Sankt Florian",
    "addr:country": "AT",
    "addr:housenumber": "4",
    "addr:postcode": "4490",
    "addr:street": "Pummerinplatz",
    "tourism": "museum"
  }
},
{
  "type": "way",
  "id": 124369783,
  "nodes": [
    317233289,
    1384568827,
    1384568774,
    1384568789,
    317233289
  ],
  "tags": {
    "addr:city": "Linz",
    "addr:housename": "BG77",
    "addr:housenumber": "4",
    "addr:postcode": "4020",
    "addr:street": "voestalpine-Straße",
    "alt_name": "Bürogebäude 77",
    "building": "office",
    "building:levels": "7",
    "name": "voestalpine Stahlwelt",
    "opening_hours": "Tu-Sa 09:00-17:00",
    "ref": "BG77",
    "tourism": "museum",
    "website": "https://www.voestalpine.com/stahlwelt"
  }
},
{
  "type": "way",
  "id": 129994890,
  "nodes": [
    1433123696,
    1433123703,
    1433123743,
    1433123798,
    1433123893,
    1433123872,
    1433123952,
    1433123936,
    1433123922,
    1433123906,
    1433123871,
    1433123834,
    1433123791,
    1433123742,
    1433123734,
    1433123694,
    1433123696
  ],
  "tags": {
    "email": "freilichtmuseum@mitterkirchen.at",
    "landuse": "recreation_ground",
    "name": "Freilichtmuseum Keltendorf Mitterkirchen",
    "phone": "+43 7269/6611",
    "tourism": "museum",
    "website": "http://www.keltendorf-mitterkirchen.at/",
    "wikidata": "Q1689732"
  }
},
{
  "type": "way",
  "id": 130895638,
  "nodes": [
    1440704318,
    6622697315,
    6622697316,
    1440704111,
    6622697320,
    6622697318,
    6622697319,
    6622697317,
    1440704195,
    1440704375,
    6622697310,
    6622697312,
    6622697311,
    6622697313,
    6622697314,
    1440704318
  ],
  "tags": {
    "addr:city": "Sankt Florian",
    "addr:housenumber": "1",
    "addr:postcode": "4481",
    "addr:street": "Kornspitzstraße",
    "building": "yes",
    "name": "PANEUM - Wunderkammer des Brotes",
    "opening_hours": "Mo-Sa 09:00-17:00",
    "operator": "PANEUM - Wunderkammer des Brotes",
    "operator:type": "private",
    "tourism": "museum"
  }
},
{
  "type": "way",
  "id": 136739883,
  "nodes": [
    1500273279,
    1500273281,
    1500273275,
    1500273273,
    1500273279
  ],
  "tags": {
    "addr:city": "St. Pankraz",
    "addr:country": "AT",
    "addr:housenumber": "58",
    "addr:place": "St. Pankraz",
    "addr:postcode": "4572",
    "addr:street": "Sankt Pankraz",
    "at_bev:addr_date": "2016-10-02",
    "building": "yes",
    "name": "Kaffee, Teekannen Museum",
    "tourism": "museum"
  }
},
{
  "type": "way",
  "id": 150520077,
  "nodes": [
    1634229557,
    1634229554,
    1634229539,
    1634229544,
    1634229547,
    1634229550,
    1634229557
  ],
  "tags": {
    "addr:city": "Wels",
    "addr:country": "AT",
    "addr:housenumber": "9",
    "addr:postcode": "4600",
    "addr:street": "Maxlheid",
    "building": "hotel",
    "name": "Bahnzeit",
    "opening_hours": "Mo-Fr 09:00-18:00",
    "roof:shape": "flat",
    "source": "geoimage.at",
    "tourism": "museum",
    "website": "http://www.bahnzeit.at/"
  }
},
{
  "type": "way",
  "id": 154590966,
  "nodes": [
    1671191660,
    1671191639,
    1671191627,
    1671191611,
    1671191603,
    1671191598,
    1671191575,
    1671191569,
    1671191545,
    1671191492,
    1671191184,
    1671191181,
    1671191178,
    1671191168,
    1671191164,
    1671191166,
    1671191191,
    1671191195,
    1586242816,
    1671191241,
    1671191280,
    470394266,
    1671191388,
    470394268,
    470394270,
    1671191566,
    1671191572,
    1671191594,
    470394272,
    1671191613,
    1671191631,
    1671191660
  ],
  "tags": {
    "contact:phone": "+43 732 759733-0",
    "contact:website": "http://www.landesmuseum.at/en/location/biologiezentrum-linz.html",
    "landuse": "recreation_ground",
    "name": "Biologiezentrum Dornach",
    "name:en": "Biology Center Linz",
    "opening_hours": "Tu-We, Fr-Su 10:00-18:00; Th 10:00-21:00",
    "operator": "Oberösterreichische Landesmuseen",
    "tourism": "museum"
  }
},
{
  "type": "way",
  "id": 163844269,
  "nodes": [
    1755153592,
    1755153602,
    1755153598,
    1755153587,
    1755153572,
    1755153580,
    1755153576,
    1755153592
  ],
  "tags": {
    "addr:city": "Steinbach an der Steyr",
    "addr:country": "AT",
    "addr:housenumber": "17",
    "addr:postcode": "4596",
    "addr:street": "Hochgasse",
    "at_bev:addr_date": "2016-10-02",
    "building": "yes",
    "name": "Messerermuseum",
    "tourism": "museum",
    "wikidata": "Q1475129"
  }
},
{
  "type": "way",
  "id": 169549363,
  "nodes": [
    1807164487,
    1807164479,
    1807164463,
    1807164467,
    1807164477,
    1807164478,
    1807164487
  ],
  "tags": {
    "addr:city": "Gallneukirchen",
    "addr:country": "AT",
    "addr:housenumber": "2",
    "addr:postcode": "4210",
    "addr:street": "Dienergasse",
    "building": "yes",
    "name": "Heimathaus",
    "tourism": "museum"
  }
},
{
  "type": "way",
  "id": 198112167,
  "nodes": [
    2082934207,
    2082934199,
    2082934196,
    2082934193,
    6302379940,
    6302380011,
    6302379898,
    2082934217,
    6302379899,
    2082934224,
    2082934227,
    2082934240,
    2082934225,
    2082934222,
    2082934207
  ],
  "tags": {
    "addr:city": "Thalheim bei Wels",
    "addr:country": "AT",
    "addr:housenumber": "54",
    "addr:postcode": "4600",
    "addr:street": "Ascheter Straße",
    "building": "yes",
    "designation": "MUSEUM ANGERLEHNER",
    "email": "office@museum-angerlehner.at",
    "fax": "+43 (0)7242 / 224 422 - 90",
    "name": "Museum Angerlehner",
    "opening_hours": "Th 13:00-21:00;Fr-Su 10:00-18:00",
    "phone": "+43 (0)7242 / 224 422 - 0",
    "source": "geoimage.at",
    "tourism": "museum",
    "website": "http://www.museum-angerlehner.at/",
    "wikidata": "Q15835871"
  }
},
{
  "type": "way",
  "id": 217842687,
  "nodes": [
    2271448910,
    2271448892,
    2271448852,
    2271448895,
    2271448910
  ],
  "tags": {
    "building": "yes",
    "name": "Nagelschmiede Dambach",
    "tourism": "museum"
  }
},
{
  "type": "way",
  "id": 300851209,
  "nodes": [
    3049438624,
    3049438626,
    3049438627,
    3049438625,
    3049438624
  ],
  "tags": {
    "addr:city": "Wallsee-Sindelburg",
    "addr:country": "AT",
    "addr:housenumber": "1",
    "addr:postcode": "3313",
    "addr:street": "Donauberg",
    "at_bev:addr_date": "2017-10-01",
    "building": "yes",
    "name": "Römermuseum",
    "tourism": "museum"
  }
},
{
  "type": "way",
  "id": 310724676,
  "nodes": [
    3161797930,
    3161797934,
    3161797914,
    3161797921,
    3161797915,
    3161797910,
    3161797930
  ],
  "tags": {
    "addr:city": "Ternberg",
    "addr:country": "AT",
    "addr:housenumber": "21",
    "addr:postcode": "4453",
    "addr:street": "Hammerstraße",
    "building": "yes",
    "name": "Museum in der Wegscheid",
    "source": "geoimage.at",
    "tourism": "museum",
    "wikidata": "Q38079405"
  }
},
{
  "type": "way",
  "id": 310869388,
  "nodes": [
    3163688311,
    3163688308,
    3163688310,
    3163688307,
    3163688311
  ],
  "tags": {
    "addr:city": "Ternberg",
    "addr:country": "AT",
    "addr:housenumber": "23a",
    "addr:postcode": "4453",
    "addr:street": "Hammerstraße",
    "building": "yes",
    "name": "Schleiferei am König",
    "tourism": "museum",
    "wikidata": "Q38079415"
  }
},
{
  "type": "way",
  "id": 311019985,
  "nodes": [
    3165527728,
    3165527716,
    3165527714,
    3165527721,
    3165527728
  ],
  "tags": {
    "addr:city": "Ternberg",
    "addr:country": "AT",
    "addr:housenumber": "15",
    "addr:postcode": "4453",
    "addr:street": "Hammerstraße",
    "alt_name": "Löschenkohlhaus",
    "building": "yes",
    "contact:phone": "+43 7256 83 54",
    "craft": "blacksmith",
    "name": "Feitelwerkstätte Löschenkohl",
    "source": "geoimage.at",
    "tourism": "museum",
    "website": "http://www.loeschenkohl.at/",
    "wikidata": "Q38079386"
  }
},
{
  "type": "way",
  "id": 356748865,
  "nodes": [
    3621529673,
    3621529674,
    3621529675,
    3621529676,
    3621529677,
    3621529673
  ],
  "tags": {
    "building": "yes",
    "tourism": "museum"
  }
},
{
  "type": "way",
  "id": 385220365,
  "nodes": [
    3885757113,
    3885757110,
    3885757095,
    3885757097,
    6781728365,
    6781728366,
    6781728364,
    6781728363,
    3885757113
  ],
  "tags": {
    "addr:city": "Ternberg",
    "addr:country": "AT",
    "addr:housenumber": "1",
    "addr:postcode": "4453",
    "addr:street": "Kienbergstraße",
    "building": "yes",
    "name": "Drechslerei am Erlach",
    "tourism": "museum",
    "wikidata": "Q38079434"
  }
},
{
  "type": "relation",
  "id": 138931,
  "members": [
    {
      "type": "way",
      "ref": 145342678,
      "role": "outer"
    },
    {
      "type": "way",
      "ref": 34566614,
      "role": "inner"
    }
  ],
  "tags": {
    "building": "yes",
    "name": "Historisches Feuerwehrzeughaus",
    "tourism": "museum",
    "type": "multipolygon"
  }
},
{
  "type": "relation",
  "id": 1257790,
  "members": [
    {
      "type": "way",
      "ref": 84068696,
      "role": "outer"
    },
    {
      "type": "way",
      "ref": 84068716,
      "role": "inner"
    }
  ],
  "tags": {
    "addr:city": "Linz",
    "addr:country": "AT",
    "addr:housenumber": "7",
    "addr:postcode": "4030",
    "addr:street": "Ebelsberger Schloßweg",
    "alt_name": "Schloß Ebelsberg",
    "building": "castle",
    "castle_type": "stately",
    "castle_type:de": "schloss",
    "contact:email": "info@schloss-ebelsberg.at",
    "contact:phone": "+43 732 307632",
    "contact:website": "http://www.schloss-ebelsberg.at",
    "historic": "castle",
    "name": "Schloss Ebelsberg",
    "name:en": "Ebelsberg Castle",
    "tourism": "museum",
    "type": "multipolygon",
    "wikidata": "Q2240701"
  }
},
{
  "type": "relation",
  "id": 1662832,
  "members": [
    {
      "type": "way",
      "ref": 121645797,
      "role": "inner"
    },
    {
      "type": "way",
      "ref": 121645802,
      "role": "outer"
    }
  ],
  "tags": {
    "addr:city": "Traun",
    "addr:country": "AT",
    "addr:housenumber": "75",
    "addr:postcode": "4050",
    "addr:street": "Neubauerstraße",
    "building": "yes",
    "email": "dietmar.lindert@traun.at",
    "fax": "+43-7229688-170",
    "name": "Steinhumergut",
    "operator": "Stadt Traun",
    "phone": "+43-7229688-105",
    "tourism": "museum",
    "type": "multipolygon"
  }
},
{
  "type": "relation",
  "id": 1703223,
  "members": [
    {
      "type": "way",
      "ref": 125114691,
      "role": "inner"
    },
    {
      "type": "way",
      "ref": 125114690,
      "role": "outer"
    }
  ],
  "tags": {
    "addr:city": "Sankt Florian",
    "addr:country": "AT",
    "addr:housename": "Sumerauerhof",
    "addr:housenumber": "15",
    "addr:postcode": "4490",
    "addr:street": "Samesleiten",
    "building": "farm",
    "name": "Freilichtmuseum Sumerauerhof",
    "tourism": "museum",
    "type": "multipolygon",
    "wikidata": "Q38179350"
  }
},
{
  "type": "relation",
  "id": 1772973,
  "members": [
    {
      "type": "way",
      "ref": 132028381,
      "role": "outer"
    },
    {
      "type": "way",
      "ref": 132028382,
      "role": "inner"
    }
  ],
  "tags": {
    "addr:city": "Dietach",
    "addr:country": "AT",
    "addr:housenumber": "22",
    "addr:postcode": "4407",
    "addr:street": "Thannstraße",
    "building": "yes",
    "name": "Bauern- und Technikmuseum Gallhuberhof",
    "opening_hours": "Sa-Su 13:00-17:00",
    "phone": "+43725238294",
    "tourism": "museum",
    "type": "multipolygon",
    "website": "https://www.bauerntechnikmuseum.at/"
  }
},
{
  "type": "relation",
  "id": 2701002,
  "members": [
    {
      "type": "way",
      "ref": 201010529,
      "role": "outer"
    },
    {
      "type": "way",
      "ref": 201010531,
      "role": "outer"
    },
    {
      "type": "way",
      "ref": 99207435,
      "role": "outer"
    },
    {
      "type": "way",
      "ref": 201010528,
      "role": "outer"
    }
  ],
  "tags": {
    "amenity": "arts_centre",
    "building": "yes",
    "building:colour": "#ffffff",
    "building:facade:colour": "#ffffff",
    "name": "Sternwarte Kremsmünster",
    "operator": "Stift Kremsmünster",
    "tourism": "museum",
    "type": "multipolygon",
    "wikidata": "Q1776351"
  }
},
{
  "type": "node",
  "id": 1372031588,
  "lat": 47.7720385,
  "lon": 14.1701079
},
{
  "type": "node",
  "id": 1372031589,
  "lat": 47.7720549,
  "lon": 14.1702436
},
{
  "type": "node",
  "id": 1372031590,
  "lat": 47.7721080,
  "lon": 14.1700892
},
{
  "type": "node",
  "id": 1372031591,
  "lat": 47.7721245,
  "lon": 14.1702249
},
{
  "type": "node",
  "id": 1500273273,
  "lat": 47.7739167,
  "lon": 14.1818188
},
{
  "type": "node",
  "id": 1500273275,
  "lat": 47.7739643,
  "lon": 14.1818950
},
{
  "type": "node",
  "id": 1500273279,
  "lat": 47.7740208,
  "lon": 14.1816747
},
{
  "type": "node",
  "id": 1500273281,
  "lat": 47.7740685,
  "lon": 14.1817509
},
{
  "type": "node",
  "id": 944634381,
  "lat": 47.8929745,
  "lon": 14.2526502
},
{
  "type": "node",
  "id": 944634383,
  "lat": 47.8929022,
  "lon": 14.2526777
},
{
  "type": "node",
  "id": 944634385,
  "lat": 47.8929548,
  "lon": 14.2529852
},
{
  "type": "node",
  "id": 944634386,
  "lat": 47.8930538,
  "lon": 14.2529475
},
{
  "type": "node",
  "id": 944634387,
  "lat": 47.8930364,
  "lon": 14.2528458
},
{
  "type": "node",
  "id": 944634388,
  "lat": 47.8930097,
  "lon": 14.2528560
},
{
  "type": "node",
  "id": 716791012,
  "lat": 48.0345058,
  "lon": 14.2077266
},
{
  "type": "node",
  "id": 716791069,
  "lat": 48.0344828,
  "lon": 14.2075278
},
{
  "type": "node",
  "id": 716791117,
  "lat": 48.0342914,
  "lon": 14.2074295
},
{
  "type": "node",
  "id": 716791281,
  "lat": 48.0344308,
  "lon": 14.2077912
},
{
  "type": "node",
  "id": 716791318,
  "lat": 48.0344066,
  "lon": 14.2073302
},
{
  "type": "node",
  "id": 716791002,
  "lat": 48.0347156,
  "lon": 14.2075458
},
{
  "type": "node",
  "id": 716791259,
  "lat": 48.0346524,
  "lon": 14.2073817
},
{
  "type": "node",
  "id": 2082934193,
  "lat": 48.1479590,
  "lon": 14.0196121
},
{
  "type": "node",
  "id": 2082934196,
  "lat": 48.1480910,
  "lon": 14.0194149
},
{
  "type": "node",
  "id": 2082934199,
  "lat": 48.1481545,
  "lon": 14.0195071
},
{
  "type": "node",
  "id": 2082934207,
  "lat": 48.1482799,
  "lon": 14.0193202
},
{
  "type": "node",
  "id": 2082934217,
  "lat": 48.1484717,
  "lon": 14.0203730
},
{
  "type": "node",
  "id": 2082934222,
  "lat": 48.1485802,
  "lon": 14.0197616
},
{
  "type": "node",
  "id": 2082934224,
  "lat": 48.1486019,
  "lon": 14.0201702
},
{
  "type": "node",
  "id": 2082934225,
  "lat": 48.1486380,
  "lon": 14.0196826
},
{
  "type": "node",
  "id": 2082934227,
  "lat": 48.1487370,
  "lon": 14.0203666
},
{
  "type": "node",
  "id": 2082934240,
  "lat": 48.1489179,
  "lon": 14.0200875
},
{
  "type": "node",
  "id": 6302379898,
  "lat": 48.1484517,
  "lon": 14.0203437
},
{
  "type": "node",
  "id": 6302379899,
  "lat": 48.1485844,
  "lon": 14.0201974
},
{
  "type": "node",
  "id": 6302379940,
  "lat": 48.1483907,
  "lon": 14.0202534
},
{
  "type": "node",
  "id": 6302380011,
  "lat": 48.1484244,
  "lon": 14.0203035
},
{
  "type": "node",
  "id": 256555961,
  "lat": 48.1560272,
  "lon": 14.0244617
},
{
  "type": "node",
  "id": 256555962,
  "lat": 48.1559076,
  "lon": 14.0245583
},
{
  "type": "node",
  "id": 269539379,
  "lat": 48.1536845,
  "lon": 14.0223124
},
{
  "type": "node",
  "id": 269539380,
  "lat": 48.1537207,
  "lon": 14.0221832
},
{
  "type": "node",
  "id": 271326386,
  "lat": 48.1542769,
  "lon": 14.0224770
},
{
  "type": "node",
  "id": 271326387,
  "lat": 48.1536258,
  "lon": 14.0225487
},
{
  "type": "node",
  "id": 271326388,
  "lat": 48.1537731,
  "lon": 14.0224479
},
{
  "type": "node",
  "id": 450633768,
  "lat": 48.1569853,
  "lon": 14.0212914
},
{
  "type": "node",
  "id": 450633769,
  "lat": 48.1571745,
  "lon": 14.0216821
},
{
  "type": "node",
  "id": 450633770,
  "lat": 48.1569784,
  "lon": 14.0218955
},
{
  "type": "node",
  "id": 450633771,
  "lat": 48.1567406,
  "lon": 14.0214044
},
{
  "type": "node",
  "id": 450633772,
  "lat": 48.1567792,
  "lon": 14.0213624
},
{
  "type": "node",
  "id": 450633773,
  "lat": 48.1569223,
  "lon": 14.0216579
},
{
  "type": "node",
  "id": 450633774,
  "lat": 48.1569920,
  "lon": 14.0215820
},
{
  "type": "node",
  "id": 450633775,
  "lat": 48.1568975,
  "lon": 14.0213868
},
{
  "type": "node",
  "id": 1034042906,
  "lat": 48.1540857,
  "lon": 14.0225653
},
{
  "type": "node",
  "id": 1034042909,
  "lat": 48.1542118,
  "lon": 14.0225880
},
{
  "type": "node",
  "id": 1034042957,
  "lat": 48.1536543,
  "lon": 14.0224161
},
{
  "type": "node",
  "id": 1034042999,
  "lat": 48.1539308,
  "lon": 14.0229930
},
{
  "type": "node",
  "id": 1034043053,
  "lat": 48.1541676,
  "lon": 14.0226747
},
{
  "type": "node",
  "id": 1586299387,
  "lat": 48.1558006,
  "lon": 14.0246072
},
{
  "type": "node",
  "id": 1586299390,
  "lat": 48.1558376,
  "lon": 14.0243828
},
{
  "type": "node",
  "id": 3175613642,
  "lat": 48.1557657,
  "lon": 14.0244243
},
{
  "type": "node",
  "id": 3175613643,
  "lat": 48.1557808,
  "lon": 14.0246191
},
{
  "type": "node",
  "id": 3175613645,
  "lat": 48.1558831,
  "lon": 14.0246725
},
{
  "type": "node",
  "id": 3795448235,
  "lat": 48.1540399,
  "lon": 14.0228294
},
{
  "type": "node",
  "id": 3795448237,
  "lat": 48.1540542,
  "lon": 14.0228508
},
{
  "type": "node",
  "id": 3795448244,
  "lat": 48.1542177,
  "lon": 14.0225601
},
{
  "type": "node",
  "id": 6302379641,
  "lat": 48.1541043,
  "lon": 14.0223858
},
{
  "type": "node",
  "id": 6302379642,
  "lat": 48.1537381,
  "lon": 14.0223944
},
{
  "type": "node",
  "id": 256555964,
  "lat": 48.1559246,
  "lon": 14.0247852
},
{
  "type": "node",
  "id": 256555965,
  "lat": 48.1558237,
  "lon": 14.0248356
},
{
  "type": "node",
  "id": 256555968,
  "lat": 48.1558433,
  "lon": 14.0250235
},
{
  "type": "node",
  "id": 256555972,
  "lat": 48.1559024,
  "lon": 14.0253246
},
{
  "type": "node",
  "id": 256555973,
  "lat": 48.1559824,
  "lon": 14.0253273
},
{
  "type": "node",
  "id": 256555977,
  "lat": 48.1559604,
  "lon": 14.0252101
},
{
  "type": "node",
  "id": 256555979,
  "lat": 48.1560088,
  "lon": 14.0251831
},
{
  "type": "node",
  "id": 256555980,
  "lat": 48.1560678,
  "lon": 14.0254951
},
{
  "type": "node",
  "id": 256555982,
  "lat": 48.1561670,
  "lon": 14.0254318
},
{
  "type": "node",
  "id": 256555983,
  "lat": 48.1561344,
  "lon": 14.0252950
},
{
  "type": "node",
  "id": 256555985,
  "lat": 48.1561627,
  "lon": 14.0252798
},
{
  "type": "node",
  "id": 256555986,
  "lat": 48.1561942,
  "lon": 14.0254060
},
{
  "type": "node",
  "id": 256555987,
  "lat": 48.1562797,
  "lon": 14.0253621
},
{
  "type": "node",
  "id": 256555991,
  "lat": 48.1562232,
  "lon": 14.0251286
},
{
  "type": "node",
  "id": 256555992,
  "lat": 48.1562153,
  "lon": 14.0250029
},
{
  "type": "node",
  "id": 256555994,
  "lat": 48.1561455,
  "lon": 14.0248443
},
{
  "type": "node",
  "id": 256555995,
  "lat": 48.1561696,
  "lon": 14.0248233
},
{
  "type": "node",
  "id": 256556000,
  "lat": 48.1562048,
  "lon": 14.0250546
},
{
  "type": "node",
  "id": 256556006,
  "lat": 48.1558743,
  "lon": 14.0252003
},
{
  "type": "node",
  "id": 256556007,
  "lat": 48.1559107,
  "lon": 14.0253583
},
{
  "type": "node",
  "id": 3175613644,
  "lat": 48.1557986,
  "lon": 14.0247051
},
{
  "type": "node",
  "id": 4699618001,
  "lat": 48.1560541,
  "lon": 14.0254225
},
{
  "type": "node",
  "id": 1147590160,
  "lat": 48.0552347,
  "lon": 14.1313466
},
{
  "type": "node",
  "id": 1147590258,
  "lat": 48.0550522,
  "lon": 14.1316128
},
{
  "type": "node",
  "id": 1147590412,
  "lat": 48.0553462,
  "lon": 14.1315160
},
{
  "type": "node",
  "id": 1147590450,
  "lat": 48.0551644,
  "lon": 14.1317848
},
{
  "type": "node",
  "id": 2109585601,
  "lat": 48.0551069,
  "lon": 14.1315327
},
{
  "type": "node",
  "id": 2109585602,
  "lat": 48.0551169,
  "lon": 14.1314843
},
{
  "type": "node",
  "id": 2109585603,
  "lat": 48.0551454,
  "lon": 14.1314415
},
{
  "type": "node",
  "id": 2109585604,
  "lat": 48.0551756,
  "lon": 14.1314289
},
{
  "type": "node",
  "id": 2109585605,
  "lat": 48.0552186,
  "lon": 14.1317096
},
{
  "type": "node",
  "id": 2109585606,
  "lat": 48.0552429,
  "lon": 14.1316722
},
{
  "type": "node",
  "id": 2109585607,
  "lat": 48.0552714,
  "lon": 14.1316295
},
{
  "type": "node",
  "id": 2109585608,
  "lat": 48.0552886,
  "lon": 14.1316019
},
{
  "type": "node",
  "id": 1634229539,
  "lat": 48.1860691,
  "lon": 14.0752389
},
{
  "type": "node",
  "id": 1634229544,
  "lat": 48.1861464,
  "lon": 14.0755466
},
{
  "type": "node",
  "id": 1634229547,
  "lat": 48.1861800,
  "lon": 14.0755276
},
{
  "type": "node",
  "id": 1634229550,
  "lat": 48.1862014,
  "lon": 14.0756125
},
{
  "type": "node",
  "id": 1634229554,
  "lat": 48.1862330,
  "lon": 14.0751463
},
{
  "type": "node",
  "id": 1634229557,
  "lat": 48.1863316,
  "lon": 14.0755389
},
{
  "type": "node",
  "id": 1361109486,
  "lat": 48.2185596,
  "lon": 14.2254268
},
{
  "type": "node",
  "id": 1361109495,
  "lat": 48.2186795,
  "lon": 14.2260179
},
{
  "type": "node",
  "id": 1361109498,
  "lat": 48.2187039,
  "lon": 14.2253609
},
{
  "type": "node",
  "id": 1361109499,
  "lat": 48.2187046,
  "lon": 14.2255668
},
{
  "type": "node",
  "id": 1361109500,
  "lat": 48.2187158,
  "lon": 14.2254191
},
{
  "type": "node",
  "id": 1361109504,
  "lat": 48.2187565,
  "lon": 14.2258231
},
{
  "type": "node",
  "id": 1361109516,
  "lat": 48.2188093,
  "lon": 14.2253764
},
{
  "type": "node",
  "id": 1361109518,
  "lat": 48.2188170,
  "lon": 14.2255156
},
{
  "type": "node",
  "id": 1361109521,
  "lat": 48.2188689,
  "lon": 14.2257718
},
{
  "type": "node",
  "id": 1361109522,
  "lat": 48.2188867,
  "lon": 14.2253411
},
{
  "type": "node",
  "id": 1361109524,
  "lat": 48.2189948,
  "lon": 14.2258739
},
{
  "type": "node",
  "id": 3885757095,
  "lat": 47.9211403,
  "lon": 14.3409419
},
{
  "type": "node",
  "id": 3885757097,
  "lat": 47.9211569,
  "lon": 14.3408494
},
{
  "type": "node",
  "id": 3885757110,
  "lat": 47.9212393,
  "lon": 14.3409787
},
{
  "type": "node",
  "id": 3885757113,
  "lat": 47.9212653,
  "lon": 14.3408339
},
{
  "type": "node",
  "id": 6781728363,
  "lat": 47.9212165,
  "lon": 14.3408132
},
{
  "type": "node",
  "id": 6781728364,
  "lat": 47.9212116,
  "lon": 14.3408390
},
{
  "type": "node",
  "id": 6781728365,
  "lat": 47.9211667,
  "lon": 14.3408529
},
{
  "type": "node",
  "id": 6781728366,
  "lat": 47.9211723,
  "lon": 14.3408248
},
{
  "type": "node",
  "id": 3161797910,
  "lat": 47.9250866,
  "lon": 14.3456731
},
{
  "type": "node",
  "id": 3161797915,
  "lat": 47.9250362,
  "lon": 14.3457360
},
{
  "type": "node",
  "id": 3161797921,
  "lat": 47.9250756,
  "lon": 14.3458063
},
{
  "type": "node",
  "id": 3161797930,
  "lat": 47.9250419,
  "lon": 14.3455932
},
{
  "type": "node",
  "id": 3161797934,
  "lat": 47.9249352,
  "lon": 14.3457262
},
{
  "type": "node",
  "id": 3163688307,
  "lat": 47.9239530,
  "lon": 14.3445654
},
{
  "type": "node",
  "id": 3163688308,
  "lat": 47.9240286,
  "lon": 14.3446525
},
{
  "type": "node",
  "id": 3163688310,
  "lat": 47.9239499,
  "lon": 14.3446458
},
{
  "type": "node",
  "id": 3163688311,
  "lat": 47.9240317,
  "lon": 14.3445721
},
{
  "type": "node",
  "id": 3161797914,
  "lat": 47.9250193,
  "lon": 14.3458765
},
{
  "type": "node",
  "id": 3165527714,
  "lat": 47.9263766,
  "lon": 14.3485441
},
{
  "type": "node",
  "id": 3165527716,
  "lat": 47.9262814,
  "lon": 14.3485973
},
{
  "type": "node",
  "id": 3165527721,
  "lat": 47.9263298,
  "lon": 14.3483578
},
{
  "type": "node",
  "id": 3165527728,
  "lat": 47.9262346,
  "lon": 14.3484109
},
{
  "type": "node",
  "id": 1755153572,
  "lat": 47.9713489,
  "lon": 14.2667408
},
{
  "type": "node",
  "id": 1755153576,
  "lat": 47.9713543,
  "lon": 14.2667784
},
{
  "type": "node",
  "id": 1755153580,
  "lat": 47.9713678,
  "lon": 14.2667623
},
{
  "type": "node",
  "id": 1755153587,
  "lat": 47.9713857,
  "lon": 14.2666751
},
{
  "type": "node",
  "id": 1755153592,
  "lat": 47.9714118,
  "lon": 14.2668924
},
{
  "type": "node",
  "id": 1755153598,
  "lat": 47.9714190,
  "lon": 14.2667140
},
{
  "type": "node",
  "id": 1755153602,
  "lat": 47.9714719,
  "lon": 14.2668253
},
{
  "type": "node",
  "id": 2271448852,
  "lat": 47.9816175,
  "lon": 14.4268896
},
{
  "type": "node",
  "id": 2271448892,
  "lat": 47.9816784,
  "lon": 14.4269544
},
{
  "type": "node",
  "id": 2271448895,
  "lat": 47.9816859,
  "lon": 14.4267461
},
{
  "type": "node",
  "id": 2271448910,
  "lat": 47.9817468,
  "lon": 14.4268109
},
{
  "type": "node",
  "id": 337933706,
  "lat": 48.0368006,
  "lon": 14.4176215
},
{
  "type": "node",
  "id": 337933711,
  "lat": 48.0369921,
  "lon": 14.4176877
},
{
  "type": "node",
  "id": 337933722,
  "lat": 48.0367645,
  "lon": 14.4178810
},
{
  "type": "node",
  "id": 5729040906,
  "lat": 48.0368154,
  "lon": 14.4176267
},
{
  "type": "node",
  "id": 5729040907,
  "lat": 48.0367948,
  "lon": 14.4176632
},
{
  "type": "node",
  "id": 337933717,
  "lat": 48.0369520,
  "lon": 14.4179474
},
{
  "type": "node",
  "id": 3621529673,
  "lat": 47.9162943,
  "lon": 14.5371274
},
{
  "type": "node",
  "id": 3621529674,
  "lat": 47.9163019,
  "lon": 14.5371864
},
{
  "type": "node",
  "id": 3621529675,
  "lat": 47.9162356,
  "lon": 14.5372056
},
{
  "type": "node",
  "id": 3621529676,
  "lat": 47.9162279,
  "lon": 14.5371466
},
{
  "type": "node",
  "id": 3621529677,
  "lat": 47.9162603,
  "lon": 14.5371372
},
{
  "type": "node",
  "id": 337898811,
  "lat": 48.0429889,
  "lon": 14.4160785
},
{
  "type": "node",
  "id": 337898814,
  "lat": 48.0427878,
  "lon": 14.4169646
},
{
  "type": "node",
  "id": 337898817,
  "lat": 48.0425764,
  "lon": 14.4169098
},
{
  "type": "node",
  "id": 337898820,
  "lat": 48.0428233,
  "lon": 14.4159995
},
{
  "type": "node",
  "id": 369551335,
  "lat": 48.0427172,
  "lon": 14.4160245
},
{
  "type": "node",
  "id": 369551339,
  "lat": 48.0427802,
  "lon": 14.4160573
},
{
  "type": "node",
  "id": 369551343,
  "lat": 48.0425968,
  "lon": 14.4167886
},
{
  "type": "node",
  "id": 369551346,
  "lat": 48.0425389,
  "lon": 14.4167619
},
{
  "type": "node",
  "id": 369551351,
  "lat": 48.0425127,
  "lon": 14.4165303
},
{
  "type": "node",
  "id": 1471019145,
  "lat": 48.0425890,
  "lon": 14.4163447
},
{
  "type": "node",
  "id": 1471019146,
  "lat": 48.0426173,
  "lon": 14.4163594
},
{
  "type": "node",
  "id": 1471019147,
  "lat": 48.0426185,
  "lon": 14.4169594
},
{
  "type": "node",
  "id": 1471019148,
  "lat": 48.0426431,
  "lon": 14.4162803
},
{
  "type": "node",
  "id": 1471019149,
  "lat": 48.0426800,
  "lon": 14.4162048
},
{
  "type": "node",
  "id": 1471019150,
  "lat": 48.0427317,
  "lon": 14.4170036
},
{
  "type": "node",
  "id": 1471019157,
  "lat": 48.0427933,
  "lon": 14.4169349
},
{
  "type": "node",
  "id": 1471019159,
  "lat": 48.0428117,
  "lon": 14.4169410
},
{
  "type": "node",
  "id": 2620080144,
  "lat": 48.0426429,
  "lon": 14.4169687
},
{
  "type": "node",
  "id": 1452738814,
  "lat": 48.1128441,
  "lon": 14.4021848
},
{
  "type": "node",
  "id": 1452738816,
  "lat": 48.1128408,
  "lon": 14.4023013
},
{
  "type": "node",
  "id": 1452738817,
  "lat": 48.1129174,
  "lon": 14.4023021
},
{
  "type": "node",
  "id": 1452738853,
  "lat": 48.1130135,
  "lon": 14.4019737
},
{
  "type": "node",
  "id": 1452738854,
  "lat": 48.1127126,
  "lon": 14.4024538
},
{
  "type": "node",
  "id": 1452738855,
  "lat": 48.1129865,
  "lon": 14.4024636
},
{
  "type": "node",
  "id": 1452738856,
  "lat": 48.1129228,
  "lon": 14.4021850
},
{
  "type": "node",
  "id": 1452738989,
  "lat": 48.1127269,
  "lon": 14.4019523
},
{
  "type": "node",
  "id": 4251329686,
  "lat": 48.1127131,
  "lon": 14.4024357
},
{
  "type": "node",
  "id": 4251329687,
  "lat": 48.1127261,
  "lon": 14.4019804
},
{
  "type": "node",
  "id": 977996548,
  "lat": 48.2464479,
  "lon": 14.3281672
},
{
  "type": "node",
  "id": 977996634,
  "lat": 48.2467048,
  "lon": 14.3285396
},
{
  "type": "node",
  "id": 977996734,
  "lat": 48.2470412,
  "lon": 14.3283359
},
{
  "type": "node",
  "id": 977996849,
  "lat": 48.2467728,
  "lon": 14.3280723
},
{
  "type": "node",
  "id": 977996933,
  "lat": 48.2469215,
  "lon": 14.3283990
},
{
  "type": "node",
  "id": 977996936,
  "lat": 48.2470751,
  "lon": 14.3284748
},
{
  "type": "node",
  "id": 977997054,
  "lat": 48.2466848,
  "lon": 14.3287099
},
{
  "type": "node",
  "id": 977997185,
  "lat": 48.2467683,
  "lon": 14.3277538
},
{
  "type": "node",
  "id": 977997313,
  "lat": 48.2464797,
  "lon": 14.3287337
},
{
  "type": "node",
  "id": 977997392,
  "lat": 48.2465460,
  "lon": 14.3283007
},
{
  "type": "node",
  "id": 977997393,
  "lat": 48.2468363,
  "lon": 14.3278649
},
{
  "type": "node",
  "id": 1343831544,
  "lat": 48.2466351,
  "lon": 14.3285174
},
{
  "type": "node",
  "id": 1343831588,
  "lat": 48.2466383,
  "lon": 14.3285473
},
{
  "type": "node",
  "id": 1343831621,
  "lat": 48.2465885,
  "lon": 14.3282451
},
{
  "type": "node",
  "id": 1343831624,
  "lat": 48.2465977,
  "lon": 14.3283895
},
{
  "type": "node",
  "id": 1343831642,
  "lat": 48.2466057,
  "lon": 14.3284839
},
{
  "type": "node",
  "id": 1343831665,
  "lat": 48.2466884,
  "lon": 14.3285415
},
{
  "type": "node",
  "id": 1343831678,
  "lat": 48.2467653,
  "lon": 14.3280873
},
{
  "type": "node",
  "id": 1343831681,
  "lat": 48.2464966,
  "lon": 14.3281110
},
{
  "type": "node",
  "id": 1343831725,
  "lat": 48.2467071,
  "lon": 14.3286965
},
{
  "type": "node",
  "id": 1343831744,
  "lat": 48.2465006,
  "lon": 14.3281576
},
{
  "type": "node",
  "id": 1343831798,
  "lat": 48.2466749,
  "lon": 14.3278779
},
{
  "type": "node",
  "id": 1343831829,
  "lat": 48.2465306,
  "lon": 14.3280994
},
{
  "type": "node",
  "id": 1343831833,
  "lat": 48.2467153,
  "lon": 14.3280524
},
{
  "type": "node",
  "id": 1343831851,
  "lat": 48.2466120,
  "lon": 14.3284600
},
{
  "type": "node",
  "id": 1343831915,
  "lat": 48.2467518,
  "lon": 14.3281045
},
{
  "type": "node",
  "id": 1343832034,
  "lat": 48.2467323,
  "lon": 14.3280981
},
{
  "type": "node",
  "id": 1343832093,
  "lat": 48.2466256,
  "lon": 14.3284923
},
{
  "type": "node",
  "id": 1343832137,
  "lat": 48.2466160,
  "lon": 14.3282090
},
{
  "type": "node",
  "id": 1343832173,
  "lat": 48.2465826,
  "lon": 14.3284720
},
{
  "type": "node",
  "id": 1343832227,
  "lat": 48.2465675,
  "lon": 14.3283991
},
{
  "type": "node",
  "id": 1343832277,
  "lat": 48.2465866,
  "lon": 14.3284935
},
{
  "type": "node",
  "id": 1343832331,
  "lat": 48.2467182,
  "lon": 14.3280771
},
{
  "type": "node",
  "id": 1343832339,
  "lat": 48.2465563,
  "lon": 14.3280907
},
{
  "type": "node",
  "id": 401284612,
  "lat": 48.2066117,
  "lon": 14.3764283
},
{
  "type": "node",
  "id": 401284617,
  "lat": 48.2071248,
  "lon": 14.3764179
},
{
  "type": "node",
  "id": 401284618,
  "lat": 48.2072584,
  "lon": 14.3770151
},
{
  "type": "node",
  "id": 401284619,
  "lat": 48.2069434,
  "lon": 14.3771738
},
{
  "type": "node",
  "id": 401284620,
  "lat": 48.2068098,
  "lon": 14.3765766
},
{
  "type": "node",
  "id": 456348012,
  "lat": 48.2066351,
  "lon": 14.3765210
},
{
  "type": "node",
  "id": 1587574001,
  "lat": 48.2068521,
  "lon": 14.3774776
},
{
  "type": "node",
  "id": 1587574005,
  "lat": 48.2072154,
  "lon": 14.3761238
},
{
  "type": "node",
  "id": 1587574012,
  "lat": 48.2074460,
  "lon": 14.3771659
},
{
  "type": "node",
  "id": 1372815862,
  "lat": 48.2056965,
  "lon": 14.3840969
},
{
  "type": "node",
  "id": 1372842624,
  "lat": 48.2057242,
  "lon": 14.3840675
},
{
  "type": "node",
  "id": 1372842627,
  "lat": 48.2058594,
  "lon": 14.3843540
},
{
  "type": "node",
  "id": 1372842630,
  "lat": 48.2057861,
  "lon": 14.3844318
},
{
  "type": "node",
  "id": 1372842632,
  "lat": 48.2058072,
  "lon": 14.3846188
},
{
  "type": "node",
  "id": 1372842633,
  "lat": 48.2056062,
  "lon": 14.3841928
},
{
  "type": "node",
  "id": 1372842635,
  "lat": 48.2056317,
  "lon": 14.3841657
},
{
  "type": "node",
  "id": 1372842644,
  "lat": 48.2058519,
  "lon": 14.3845713
},
{
  "type": "node",
  "id": 1372842645,
  "lat": 48.2056635,
  "lon": 14.3841319
},
{
  "type": "node",
  "id": 1381918305,
  "lat": 48.2098362,
  "lon": 14.3971188
},
{
  "type": "node",
  "id": 1381918309,
  "lat": 48.2099005,
  "lon": 14.3968198
},
{
  "type": "node",
  "id": 1381918317,
  "lat": 48.2100300,
  "lon": 14.3966825
},
{
  "type": "node",
  "id": 1381918326,
  "lat": 48.2099910,
  "lon": 14.3968636
},
{
  "type": "node",
  "id": 1381918349,
  "lat": 48.2101809,
  "lon": 14.3967556
},
{
  "type": "node",
  "id": 1381918352,
  "lat": 48.2100777,
  "lon": 14.3972357
},
{
  "type": "node",
  "id": 1390395020,
  "lat": 48.2078087,
  "lon": 14.4072630
},
{
  "type": "node",
  "id": 1390395022,
  "lat": 48.2078113,
  "lon": 14.4081598
},
{
  "type": "node",
  "id": 1390395024,
  "lat": 48.2079353,
  "lon": 14.4074779
},
{
  "type": "node",
  "id": 1390395026,
  "lat": 48.2079385,
  "lon": 14.4079522
},
{
  "type": "node",
  "id": 1390395027,
  "lat": 48.2080025,
  "lon": 14.4074768
},
{
  "type": "node",
  "id": 1390395029,
  "lat": 48.2080033,
  "lon": 14.4075931
},
{
  "type": "node",
  "id": 1390395030,
  "lat": 48.2081097,
  "lon": 14.4074771
},
{
  "type": "node",
  "id": 1390395034,
  "lat": 48.2081105,
  "lon": 14.4075914
},
{
  "type": "node",
  "id": 1390395035,
  "lat": 48.2081704,
  "lon": 14.4074761
},
{
  "type": "node",
  "id": 1390395036,
  "lat": 48.2081736,
  "lon": 14.4079486
},
{
  "type": "node",
  "id": 1390395037,
  "lat": 48.2082800,
  "lon": 14.4072599
},
{
  "type": "node",
  "id": 1390395039,
  "lat": 48.2082826,
  "lon": 14.4081567
},
{
  "type": "node",
  "id": 1440704111,
  "lat": 48.2157358,
  "lon": 14.4093428
},
{
  "type": "node",
  "id": 1440704195,
  "lat": 48.2156794,
  "lon": 14.4089202
},
{
  "type": "node",
  "id": 1440704318,
  "lat": 48.2158933,
  "lon": 14.4092878
},
{
  "type": "node",
  "id": 1440704375,
  "lat": 48.2158390,
  "lon": 14.4088699
},
{
  "type": "node",
  "id": 6622697310,
  "lat": 48.2158589,
  "lon": 14.4090031
},
{
  "type": "node",
  "id": 6622697311,
  "lat": 48.2159353,
  "lon": 14.4091090
},
{
  "type": "node",
  "id": 6622697312,
  "lat": 48.2159000,
  "lon": 14.4090377
},
{
  "type": "node",
  "id": 6622697313,
  "lat": 48.2159449,
  "lon": 14.4091785
},
{
  "type": "node",
  "id": 6622697314,
  "lat": 48.2159254,
  "lon": 14.4092423
},
{
  "type": "node",
  "id": 6622697315,
  "lat": 48.2158339,
  "lon": 14.4093315
},
{
  "type": "node",
  "id": 6622697316,
  "lat": 48.2157826,
  "lon": 14.4093493
},
{
  "type": "node",
  "id": 6622697317,
  "lat": 48.2157129,
  "lon": 14.4091556
},
{
  "type": "node",
  "id": 6622697318,
  "lat": 48.2156984,
  "lon": 14.4092928
},
{
  "type": "node",
  "id": 6622697319,
  "lat": 48.2156989,
  "lon": 14.4092199
},
{
  "type": "node",
  "id": 6622697320,
  "lat": 48.2157115,
  "lon": 14.4093298
},
{
  "type": "node",
  "id": 1345207408,
  "lat": 48.2493559,
  "lon": 14.3778660
},
{
  "type": "node",
  "id": 1345207410,
  "lat": 48.2493802,
  "lon": 14.3777300
},
{
  "type": "node",
  "id": 1345207412,
  "lat": 48.2495678,
  "lon": 14.3779251
},
{
  "type": "node",
  "id": 1345207416,
  "lat": 48.2495877,
  "lon": 14.3778137
},
{
  "type": "node",
  "id": 1371755494,
  "lat": 48.2494164,
  "lon": 14.3779214
},
{
  "type": "node",
  "id": 1371755496,
  "lat": 48.2494215,
  "lon": 14.3778925
},
{
  "type": "node",
  "id": 1371755512,
  "lat": 48.2494858,
  "lon": 14.3779493
},
{
  "type": "node",
  "id": 1371755515,
  "lat": 48.2494953,
  "lon": 14.3778959
},
{
  "type": "node",
  "id": 1106118048,
  "lat": 47.9609860,
  "lon": 14.7746753
},
{
  "type": "node",
  "id": 1106118049,
  "lat": 47.9609637,
  "lon": 14.7745761
},
{
  "type": "node",
  "id": 1106118050,
  "lat": 47.9609984,
  "lon": 14.7745392
},
{
  "type": "node",
  "id": 2418113926,
  "lat": 47.9610373,
  "lon": 14.7746206
},
{
  "type": "node",
  "id": 2907736700,
  "lat": 47.9609471,
  "lon": 14.7745938
},
{
  "type": "node",
  "id": 1368297495,
  "lat": 48.0055181,
  "lon": 14.7443484
},
{
  "type": "node",
  "id": 1368297510,
  "lat": 48.0061320,
  "lon": 14.7439713
},
{
  "type": "node",
  "id": 1368297524,
  "lat": 48.0056424,
  "lon": 14.7445740
},
{
  "type": "node",
  "id": 1368297556,
  "lat": 48.0060069,
  "lon": 14.7437466
},
{
  "type": "node",
  "id": 5367627226,
  "lat": 48.0060568,
  "lon": 14.7438372
},
{
  "type": "node",
  "id": 5367627227,
  "lat": 48.0061022,
  "lon": 14.7439173
},
{
  "type": "node",
  "id": 5367627228,
  "lat": 48.0061817,
  "lon": 14.7438193
},
{
  "type": "node",
  "id": 5367627229,
  "lat": 48.0061371,
  "lon": 14.7437384
},
{
  "type": "node",
  "id": 3049438624,
  "lat": 48.1678138,
  "lon": 14.7146870
},
{
  "type": "node",
  "id": 3049438625,
  "lat": 48.1678566,
  "lon": 14.7154397
},
{
  "type": "node",
  "id": 3049438626,
  "lat": 48.1678890,
  "lon": 14.7146774
},
{
  "type": "node",
  "id": 3049438627,
  "lat": 48.1679318,
  "lon": 14.7154301
},
{
  "type": "node",
  "id": 1433123694,
  "lat": 48.1953825,
  "lon": 14.7258237
},
{
  "type": "node",
  "id": 1433123734,
  "lat": 48.1955884,
  "lon": 14.7257926
},
{
  "type": "node",
  "id": 1433123742,
  "lat": 48.1955988,
  "lon": 14.7257899
},
{
  "type": "node",
  "id": 1433123791,
  "lat": 48.1957794,
  "lon": 14.7257426
},
{
  "type": "node",
  "id": 1433123834,
  "lat": 48.1959589,
  "lon": 14.7256735
},
{
  "type": "node",
  "id": 1433123871,
  "lat": 48.1960555,
  "lon": 14.7256925
},
{
  "type": "node",
  "id": 1433123906,
  "lat": 48.1961677,
  "lon": 14.7259180
},
{
  "type": "node",
  "id": 1433123696,
  "lat": 48.1953894,
  "lon": 14.7259911
},
{
  "type": "node",
  "id": 1433123703,
  "lat": 48.1954542,
  "lon": 14.7274496
},
{
  "type": "node",
  "id": 1433123743,
  "lat": 48.1956096,
  "lon": 14.7274154
},
{
  "type": "node",
  "id": 1433123798,
  "lat": 48.1958518,
  "lon": 14.7273377
},
{
  "type": "node",
  "id": 1433123872,
  "lat": 48.1960569,
  "lon": 14.7267801
},
{
  "type": "node",
  "id": 1433123893,
  "lat": 48.1961283,
  "lon": 14.7272337
},
{
  "type": "node",
  "id": 1433123922,
  "lat": 48.1962298,
  "lon": 14.7261152
},
{
  "type": "node",
  "id": 1433123936,
  "lat": 48.1962857,
  "lon": 14.7263343
},
{
  "type": "node",
  "id": 1433123952,
  "lat": 48.1963499,
  "lon": 14.7266558
},
{
  "type": "node",
  "id": 414044291,
  "lat": 48.2861738,
  "lon": 14.2615219
},
{
  "type": "node",
  "id": 414044292,
  "lat": 48.2863768,
  "lon": 14.2616660
},
{
  "type": "node",
  "id": 414044293,
  "lat": 48.2862991,
  "lon": 14.2615336
},
{
  "type": "node",
  "id": 414044294,
  "lat": 48.2860807,
  "lon": 14.2618369
},
{
  "type": "node",
  "id": 414044296,
  "lat": 48.2860969,
  "lon": 14.2616109
},
{
  "type": "node",
  "id": 414044297,
  "lat": 48.2861483,
  "lon": 14.2619529
},
{
  "type": "node",
  "id": 414044298,
  "lat": 48.2860731,
  "lon": 14.2616913
},
{
  "type": "node",
  "id": 414044300,
  "lat": 48.2863855,
  "lon": 14.2617257
},
{
  "type": "node",
  "id": 414044301,
  "lat": 48.2863827,
  "lon": 14.2617955
},
{
  "type": "node",
  "id": 414044303,
  "lat": 48.2861103,
  "lon": 14.2619071
},
{
  "type": "node",
  "id": 414044309,
  "lat": 48.2863305,
  "lon": 14.2615651
},
{
  "type": "node",
  "id": 414044310,
  "lat": 48.2863061,
  "lon": 14.2619534
},
{
  "type": "node",
  "id": 414044311,
  "lat": 48.2863345,
  "lon": 14.2619223
},
{
  "type": "node",
  "id": 414044312,
  "lat": 48.2862013,
  "lon": 14.2619815
},
{
  "type": "node",
  "id": 1232196455,
  "lat": 48.2860692,
  "lon": 14.2617625
},
{
  "type": "node",
  "id": 1232196521,
  "lat": 48.2862166,
  "lon": 14.2615085
},
{
  "type": "node",
  "id": 1232196537,
  "lat": 48.2862510,
  "lon": 14.2619821
},
{
  "type": "node",
  "id": 1232196611,
  "lat": 48.2863575,
  "lon": 14.2616098
},
{
  "type": "node",
  "id": 1232196640,
  "lat": 48.2861347,
  "lon": 14.2615529
},
{
  "type": "node",
  "id": 1232196693,
  "lat": 48.2862621,
  "lon": 14.2615137
},
{
  "type": "node",
  "id": 1232196801,
  "lat": 48.2863611,
  "lon": 14.2618748
},
{
  "type": "node",
  "id": 317233289,
  "lat": 48.2770419,
  "lon": 14.3200940
},
{
  "type": "node",
  "id": 1384568774,
  "lat": 48.2767843,
  "lon": 14.3198707
},
{
  "type": "node",
  "id": 1384568789,
  "lat": 48.2768645,
  "lon": 14.3201935
},
{
  "type": "node",
  "id": 1384568827,
  "lat": 48.2769617,
  "lon": 14.3197712
},
{
  "type": "node",
  "id": 133304207,
  "lat": 48.3057535,
  "lon": 14.2832122
},
{
  "type": "node",
  "id": 133304218,
  "lat": 48.3056423,
  "lon": 14.2830543
},
{
  "type": "node",
  "id": 349052467,
  "lat": 48.3098160,
  "lon": 14.2840437
},
{
  "type": "node",
  "id": 349052470,
  "lat": 48.3095445,
  "lon": 14.2842470
},
{
  "type": "node",
  "id": 349059103,
  "lat": 48.3096810,
  "lon": 14.2846592
},
{
  "type": "node",
  "id": 419634407,
  "lat": 48.3051020,
  "lon": 14.2828297
},
{
  "type": "node",
  "id": 419634408,
  "lat": 48.3057006,
  "lon": 14.2832987
},
{
  "type": "node",
  "id": 419634411,
  "lat": 48.3052999,
  "lon": 14.2825953
},
{
  "type": "node",
  "id": 419634412,
  "lat": 48.3050325,
  "lon": 14.2823702
},
{
  "type": "node",
  "id": 616433664,
  "lat": 48.3096400,
  "lon": 14.2845355
},
{
  "type": "node",
  "id": 762669628,
  "lat": 48.3053661,
  "lon": 14.2824027
},
{
  "type": "node",
  "id": 762669631,
  "lat": 48.3052066,
  "lon": 14.2825705
},
{
  "type": "node",
  "id": 762669634,
  "lat": 48.3053346,
  "lon": 14.2823578
},
{
  "type": "node",
  "id": 1067696681,
  "lat": 48.3050941,
  "lon": 14.2828185
},
{
  "type": "node",
  "id": 1568211536,
  "lat": 48.3049166,
  "lon": 14.2825701
},
{
  "type": "node",
  "id": 1568211551,
  "lat": 48.3049946,
  "lon": 14.2824278
},
{
  "type": "node",
  "id": 1568211561,
  "lat": 48.3050025,
  "lon": 14.2824413
},
{
  "type": "node",
  "id": 1568211566,
  "lat": 48.3050407,
  "lon": 14.2823841
},
{
  "type": "node",
  "id": 1568211579,
  "lat": 48.3050627,
  "lon": 14.2823512
},
{
  "type": "node",
  "id": 1568211617,
  "lat": 48.3052169,
  "lon": 14.2825416
},
{
  "type": "node",
  "id": 1568211622,
  "lat": 48.3052595,
  "lon": 14.2825691
},
{
  "type": "node",
  "id": 1568211632,
  "lat": 48.3052826,
  "lon": 14.2825039
},
{
  "type": "node",
  "id": 1568211651,
  "lat": 48.3053225,
  "lon": 14.2825295
},
{
  "type": "node",
  "id": 1568211654,
  "lat": 48.3053338,
  "lon": 14.2826172
},
{
  "type": "node",
  "id": 1568211770,
  "lat": 48.3056355,
  "lon": 14.2830644
},
{
  "type": "node",
  "id": 3389997337,
  "lat": 48.3051242,
  "lon": 14.2824419
},
{
  "type": "node",
  "id": 3389997339,
  "lat": 48.3051522,
  "lon": 14.2828702
},
{
  "type": "node",
  "id": 3665244446,
  "lat": 48.3096282,
  "lon": 14.2844998
},
{
  "type": "node",
  "id": 981769702,
  "lat": 48.3109008,
  "lon": 14.2764234
},
{
  "type": "node",
  "id": 981769713,
  "lat": 48.3109830,
  "lon": 14.2763516
},
{
  "type": "node",
  "id": 981769789,
  "lat": 48.3109391,
  "lon": 14.2765294
},
{
  "type": "node",
  "id": 981769881,
  "lat": 48.3109380,
  "lon": 14.2766663
},
{
  "type": "node",
  "id": 981769927,
  "lat": 48.3108617,
  "lon": 14.2764553
},
{
  "type": "node",
  "id": 981770083,
  "lat": 48.3110606,
  "lon": 14.2765662
},
{
  "type": "node",
  "id": 981770131,
  "lat": 48.3109832,
  "lon": 14.2764933
},
{
  "type": "node",
  "id": 981770150,
  "lat": 48.3109436,
  "lon": 14.2763838
},
{
  "type": "node",
  "id": 3663340089,
  "lat": 48.3108791,
  "lon": 14.2764412
},
{
  "type": "node",
  "id": 3663340092,
  "lat": 48.3109638,
  "lon": 14.2763673
},
{
  "type": "node",
  "id": 3663367972,
  "lat": 48.3109724,
  "lon": 14.2766383
},
{
  "type": "node",
  "id": 3663367974,
  "lat": 48.3109907,
  "lon": 14.2766232
},
{
  "type": "node",
  "id": 3663367976,
  "lat": 48.3110076,
  "lon": 14.2766094
},
{
  "type": "node",
  "id": 3663367978,
  "lat": 48.3110243,
  "lon": 14.2765958
},
{
  "type": "node",
  "id": 349052477,
  "lat": 48.3102702,
  "lon": 14.2854441
},
{
  "type": "node",
  "id": 349052479,
  "lat": 48.3103628,
  "lon": 14.2852719
},
{
  "type": "node",
  "id": 349052482,
  "lat": 48.3099562,
  "lon": 14.2844669
},
{
  "type": "node",
  "id": 1573528040,
  "lat": 48.3100406,
  "lon": 14.2851589
},
{
  "type": "node",
  "id": 1573528042,
  "lat": 48.3100532,
  "lon": 14.2851373
},
{
  "type": "node",
  "id": 3665250825,
  "lat": 48.3099640,
  "lon": 14.2850524
},
{
  "type": "node",
  "id": 3665250827,
  "lat": 48.3101180,
  "lon": 14.2852289
},
{
  "type": "node",
  "id": 3665250828,
  "lat": 48.3101727,
  "lon": 14.2848955
},
{
  "type": "node",
  "id": 3665250829,
  "lat": 48.3102806,
  "lon": 14.2851091
},
{
  "type": "node",
  "id": 132136891,
  "lat": 48.3088284,
  "lon": 14.2895720
},
{
  "type": "node",
  "id": 132136898,
  "lat": 48.3080956,
  "lon": 14.2882225
},
{
  "type": "node",
  "id": 132136902,
  "lat": 48.3082612,
  "lon": 14.2880192
},
{
  "type": "node",
  "id": 132136906,
  "lat": 48.3089941,
  "lon": 14.2893686
},
{
  "type": "node",
  "id": 859275382,
  "lat": 48.3042048,
  "lon": 14.2912714
},
{
  "type": "node",
  "id": 859275385,
  "lat": 48.3040045,
  "lon": 14.2914079
},
{
  "type": "node",
  "id": 859275387,
  "lat": 48.3039415,
  "lon": 14.2914508
},
{
  "type": "node",
  "id": 859275390,
  "lat": 48.3040103,
  "lon": 14.2916792
},
{
  "type": "node",
  "id": 859275392,
  "lat": 48.3042736,
  "lon": 14.2914998
},
{
  "type": "node",
  "id": 2325863718,
  "lat": 48.3082034,
  "lon": 14.2884210
},
{
  "type": "node",
  "id": 2325863804,
  "lat": 48.3083690,
  "lon": 14.2882177
},
{
  "type": "node",
  "id": 2325863815,
  "lat": 48.3085159,
  "lon": 14.2889965
},
{
  "type": "node",
  "id": 2325863822,
  "lat": 48.3086816,
  "lon": 14.2887931
},
{
  "type": "node",
  "id": 3665258163,
  "lat": 48.3081856,
  "lon": 14.2881120
},
{
  "type": "node",
  "id": 4956274626,
  "lat": 48.3040498,
  "lon": 14.2913771
},
{
  "type": "node",
  "id": 132219642,
  "lat": 48.3059658,
  "lon": 14.2934234
},
{
  "type": "node",
  "id": 132219645,
  "lat": 48.3060534,
  "lon": 14.2939936
},
{
  "type": "node",
  "id": 132219652,
  "lat": 48.3057521,
  "lon": 14.2940986
},
{
  "type": "node",
  "id": 132219655,
  "lat": 48.3056631,
  "lon": 14.2935273
},
{
  "type": "node",
  "id": 856538096,
  "lat": 48.3060322,
  "lon": 14.2937032
},
{
  "type": "node",
  "id": 856659250,
  "lat": 48.3059998,
  "lon": 14.2936419
},
{
  "type": "node",
  "id": 856659252,
  "lat": 48.3060215,
  "lon": 14.2936343
},
{
  "type": "node",
  "id": 856659254,
  "lat": 48.3060433,
  "lon": 14.2937744
},
{
  "type": "node",
  "id": 856659256,
  "lat": 48.3060205,
  "lon": 14.2937825
},
{
  "type": "node",
  "id": 856659262,
  "lat": 48.3059798,
  "lon": 14.2940195
},
{
  "type": "node",
  "id": 856659265,
  "lat": 48.3059725,
  "lon": 14.2939728
},
{
  "type": "node",
  "id": 856659270,
  "lat": 48.3058228,
  "lon": 14.2940256
},
{
  "type": "node",
  "id": 856659271,
  "lat": 48.3058299,
  "lon": 14.2940712
},
{
  "type": "node",
  "id": 856659274,
  "lat": 48.3057408,
  "lon": 14.2934999
},
{
  "type": "node",
  "id": 856659276,
  "lat": 48.3057487,
  "lon": 14.2935505
},
{
  "type": "node",
  "id": 856659278,
  "lat": 48.3058966,
  "lon": 14.2934984
},
{
  "type": "node",
  "id": 856659280,
  "lat": 48.3058891,
  "lon": 14.2934504
},
{
  "type": "node",
  "id": 470394270,
  "lat": 48.3378691,
  "lon": 14.3130418
},
{
  "type": "node",
  "id": 470394272,
  "lat": 48.3380340,
  "lon": 14.3129278
},
{
  "type": "node",
  "id": 1671191164,
  "lat": 48.3366413,
  "lon": 14.3118848
},
{
  "type": "node",
  "id": 1671191166,
  "lat": 48.3366421,
  "lon": 14.3119385
},
{
  "type": "node",
  "id": 1671191168,
  "lat": 48.3366493,
  "lon": 14.3118503
},
{
  "type": "node",
  "id": 1671191178,
  "lat": 48.3366627,
  "lon": 14.3118288
},
{
  "type": "node",
  "id": 1671191181,
  "lat": 48.3366913,
  "lon": 14.3118217
},
{
  "type": "node",
  "id": 1671191184,
  "lat": 48.3367285,
  "lon": 14.3118276
},
{
  "type": "node",
  "id": 1671191191,
  "lat": 48.3367380,
  "lon": 14.3128097
},
{
  "type": "node",
  "id": 1671191492,
  "lat": 48.3377989,
  "lon": 14.3121899
},
{
  "type": "node",
  "id": 1671191545,
  "lat": 48.3378971,
  "lon": 14.3122233
},
{
  "type": "node",
  "id": 1671191566,
  "lat": 48.3379249,
  "lon": 14.3130216
},
{
  "type": "node",
  "id": 1671191569,
  "lat": 48.3379652,
  "lon": 14.3122472
},
{
  "type": "node",
  "id": 1671191572,
  "lat": 48.3379703,
  "lon": 14.3129685
},
{
  "type": "node",
  "id": 1671191575,
  "lat": 48.3379819,
  "lon": 14.3122579
},
{
  "type": "node",
  "id": 1671191594,
  "lat": 48.3379832,
  "lon": 14.3129163
},
{
  "type": "node",
  "id": 1671191598,
  "lat": 48.3380001,
  "lon": 14.3122853
},
{
  "type": "node",
  "id": 1671191603,
  "lat": 48.3380278,
  "lon": 14.3123794
},
{
  "type": "node",
  "id": 1671191611,
  "lat": 48.3380944,
  "lon": 14.3126274
},
{
  "type": "node",
  "id": 1671191613,
  "lat": 48.3381059,
  "lon": 14.3129963
},
{
  "type": "node",
  "id": 1671191627,
  "lat": 48.3381736,
  "lon": 14.3129337
},
{
  "type": "node",
  "id": 470394266,
  "lat": 48.3373852,
  "lon": 14.3132659
},
{
  "type": "node",
  "id": 470394268,
  "lat": 48.3377195,
  "lon": 14.3131016
},
{
  "type": "node",
  "id": 1586242816,
  "lat": 48.3367768,
  "lon": 14.3133490
},
{
  "type": "node",
  "id": 1671191195,
  "lat": 48.3367816,
  "lon": 14.3132817
},
{
  "type": "node",
  "id": 1671191241,
  "lat": 48.3370651,
  "lon": 14.3133170
},
{
  "type": "node",
  "id": 1671191280,
  "lat": 48.3372141,
  "lon": 14.3133075
},
{
  "type": "node",
  "id": 1671191388,
  "lat": 48.3375445,
  "lon": 14.3132026
},
{
  "type": "node",
  "id": 1671191631,
  "lat": 48.3381809,
  "lon": 14.3130933
},
{
  "type": "node",
  "id": 1671191639,
  "lat": 48.3382077,
  "lon": 14.3130898
},
{
  "type": "node",
  "id": 1671191660,
  "lat": 48.3382459,
  "lon": 14.3132062
},
{
  "type": "node",
  "id": 1807164463,
  "lat": 48.3525033,
  "lon": 14.4163394
},
{
  "type": "node",
  "id": 1807164467,
  "lat": 48.3525290,
  "lon": 14.4162774
},
{
  "type": "node",
  "id": 1807164477,
  "lat": 48.3526020,
  "lon": 14.4163458
},
{
  "type": "node",
  "id": 1807164478,
  "lat": 48.3526282,
  "lon": 14.4162823
},
{
  "type": "node",
  "id": 1807164479,
  "lat": 48.3526221,
  "lon": 14.4164507
},
{
  "type": "node",
  "id": 1807164487,
  "lat": 48.3526741,
  "lon": 14.4163252
},
{
  "type": "node",
  "id": 3885314749,
  "lat": 48.2567333,
  "lon": 14.4964278
},
{
  "type": "node",
  "id": 945946419,
  "lat": 48.2560118,
  "lon": 14.4997645
},
{
  "type": "node",
  "id": 945946452,
  "lat": 48.2557403,
  "lon": 14.5002526
},
{
  "type": "node",
  "id": 945946480,
  "lat": 48.2548438,
  "lon": 14.5011378
},
{
  "type": "node",
  "id": 945946501,
  "lat": 48.2548867,
  "lon": 14.5022160
},
{
  "type": "node",
  "id": 945946528,
  "lat": 48.2553755,
  "lon": 14.5021729
},
{
  "type": "node",
  "id": 3885314745,
  "lat": 48.2554510,
  "lon": 14.5002097
},
{
  "type": "node",
  "id": 3885314746,
  "lat": 48.2557618,
  "lon": 14.4989169
},
{
  "type": "node",
  "id": 3885314747,
  "lat": 48.2562725,
  "lon": 14.4981981
},
{
  "type": "node",
  "id": 3885314748,
  "lat": 48.2562725,
  "lon": 14.4974309
},
{
  "type": "node",
  "id": 3885314750,
  "lat": 48.2569297,
  "lon": 14.4967228
},
{
  "type": "node",
  "id": 3885314751,
  "lat": 48.2572190,
  "lon": 14.4966853
},
{
  "type": "node",
  "id": 945946420,
  "lat": 48.2562051,
  "lon": 14.5045515
},
{
  "type": "node",
  "id": 945946555,
  "lat": 48.2552006,
  "lon": 14.5032332
},
{
  "type": "node",
  "id": 3885314753,
  "lat": 48.2568404,
  "lon": 14.5036000
},
{
  "type": "node",
  "id": 4770181612,
  "lat": 48.2567460,
  "lon": 14.5037414
},
{
  "type": "node",
  "id": 945946417,
  "lat": 48.2587682,
  "lon": 14.4988443
},
{
  "type": "node",
  "id": 945946462,
  "lat": 48.2575333,
  "lon": 14.5024145
},
{
  "type": "node",
  "id": 945946482,
  "lat": 48.2582367,
  "lon": 14.5013288
},
{
  "type": "node",
  "id": 945946505,
  "lat": 48.2588920,
  "lon": 14.5003262
},
{
  "type": "node",
  "id": 945946517,
  "lat": 48.2592688,
  "lon": 14.4994914
},
{
  "type": "node",
  "id": 945946535,
  "lat": 48.2592852,
  "lon": 14.4996044
},
{
  "type": "node",
  "id": 945946626,
  "lat": 48.2578393,
  "lon": 14.4977562
},
{
  "type": "node",
  "id": 945946649,
  "lat": 48.2576404,
  "lon": 14.4970340
},
{
  "type": "node",
  "id": 3885314754,
  "lat": 48.2578361,
  "lon": 14.5030773
},
{
  "type": "node",
  "id": 3885314752,
  "lat": 48.2578047,
  "lon": 14.5038897
},
{
  "type": "way",
  "id": 99207435,
  "nodes": [
    2109585604,
    1147590160,
    1147590412,
    2109585608
  ]
},
{
  "type": "way",
  "id": 201010528,
  "nodes": [
    2109585608,
    2109585607,
    2109585606,
    2109585605
  ]
},
{
  "type": "way",
  "id": 201010529,
  "nodes": [
    2109585605,
    1147590450,
    1147590258,
    2109585601
  ]
},
{
  "type": "way",
  "id": 201010531,
  "nodes": [
    2109585601,
    2109585602,
    2109585603,
    2109585604
  ]
},
{
  "type": "way",
  "id": 121645797,
  "nodes": [
    1361109521,
    1361109518,
    1361109499,
    1361109504,
    1361109521
  ]
},
{
  "type": "way",
  "id": 121645802,
  "nodes": [
    1361109524,
    1361109522,
    1361109516,
    1361109500,
    1361109498,
    1361109486,
    1361109495,
    1361109524
  ]
},
{
  "type": "way",
  "id": 132028381,
  "nodes": [
    1452738853,
    1452738989,
    4251329687,
    4251329686,
    1452738854,
    1452738855,
    1452738853
  ]
},
{
  "type": "way",
  "id": 132028382,
  "nodes": [
    1452738856,
    1452738814,
    1452738816,
    1452738817,
    1452738856
  ]
},
{
  "type": "way",
  "id": 84068696,
  "nodes": [
    977996548,
    1343831744,
    1343831681,
    1343831829,
    1343832339,
    1343831798,
    977997185,
    977997393,
    977996734,
    977996936,
    1343831725,
    977997054,
    977997313,
    977996548
  ]
},
{
  "type": "way",
  "id": 84068716,
  "nodes": [
    977996849,
    1343831678,
    1343831915,
    1343832034,
    1343832331,
    1343831833,
    1343832137,
    1343831621,
    977997392,
    1343832227,
    1343831624,
    1343831851,
    1343832173,
    1343832277,
    1343831642,
    1343832093,
    1343831544,
    1343831588,
    1343831665,
    977996634,
    977996933,
    977996849
  ]
},
{
  "type": "way",
  "id": 34566614,
  "nodes": [
    401284617,
    401284620,
    401284619,
    401284618,
    401284617
  ]
},
{
  "type": "way",
  "id": 145342678,
  "nodes": [
    1587574001,
    456348012,
    401284612,
    1587574005,
    1587574012,
    1587574001
  ]
},
{
  "type": "way",
  "id": 125114690,
  "nodes": [
    1390395037,
    1390395020,
    1390395022,
    1390395039,
    1390395037
  ]
},
{
  "type": "way",
  "id": 125114691,
  "nodes": [
    1390395035,
    1390395030,
    1390395034,
    1390395029,
    1390395027,
    1390395024,
    1390395026,
    1390395036,
    1390395035
  ]
}

  ]
}
