{
  "version": 0.6,
  "generator": "Overpass API 0.7.55.9 ab41fea6",
  "osm3s": {
    "timestamp_osm_base": "2020-02-14T10:59:02Z",
    "copyright": "The data included in this document is from www.openstreetmap.org. The data is made available under ODbL."
  },
  "elements": [

{
  "type": "node",
  "id": 274749354,
  "lat": 51.9050137,
  "lon": 7.6389224,
  "tags": {
    "addr:city": "Münster",
    "addr:country": "DE",
    "addr:housenumber": "26",
    "addr:postcode": "48165",
    "addr:street": "Zur Alten Feuerwache",
    "fee": "no",
    "name": "Hiltruper Museum",
    "opening_hours": "Su 15:00-17:00",
    "phone": "+49 2501 1205",
    "start_date": "1998",
    "tourism": "museum",
    "website": "http://www.hiltruper-museum.de",
    "wikidata": "Q1618954",
    "wikipedia": "de:Hiltruper Museum"
  }
},
{
  "type": "node",
  "id": 307377645,
  "lat": 51.8997404,
  "lon": 7.1945241,
  "tags": {
    "name": "Glasmuseum",
    "tourism": "museum"
  }
},
{
  "type": "node",
  "id": 337558330,
  "lat": 52.0627594,
  "lon": 7.6377713,
  "tags": {
    "name": "Hofmuseum Averkamp",
    "tourism": "museum"
  }
},
{
  "type": "node",
  "id": 361541338,
  "lat": 52.2636260,
  "lon": 7.6373691,
  "tags": {
    "name": "Landmaschinenmuseum",
    "tourism": "museum"
  }
},
{
  "type": "node",
  "id": 382398811,
  "lat": 52.1724701,
  "lon": 7.6355059,
  "tags": {
    "addr:city": "Saerbeck",
    "addr:housenumber": "8",
    "addr:postcode": "48369",
    "addr:street": "Grevener Straße",
    "name": "Kornbrennerei-Museum",
    "opening_hours": "Sonntags von 10:30-12:30 und nach Vereinbarung",
    "operator": "Heimatverein Saerbeck e.VG.",
    "tourism": "museum",
    "website": "https://www.heimatverein-saerbeck.de/index.php/museen/kornbrennerei-museum",
    "wheelchair": "limited"
  }
},
{
  "type": "node",
  "id": 424401937,
  "lat": 52.0770562,
  "lon": 7.7779056,
  "tags": {
    "name": "Museum der historischen Waschtechnik",
    "tourism": "museum",
    "wikidata": "Q1954573"
  }
},
{
  "type": "node",
  "id": 449211905,
  "lat": 52.1469058,
  "lon": 7.3382051,
  "tags": {
    "name": "Stadtmuseum und -archiv",
    "tourism": "museum"
  }
},
{
  "type": "node",
  "id": 450168993,
  "lat": 52.1465766,
  "lon": 7.3394926,
  "tags": {
    "name": "Spielzeugmuseum",
    "tourism": "museum"
  }
},
{
  "type": "node",
  "id": 506582780,
  "lat": 51.9625932,
  "lon": 7.6241556,
  "tags": {
    "name": "Archäologisches Museum",
    "subject": "history;archeology",
    "tourism": "museum",
    "website": "https://www.uni-muenster.de/ArchaeologischesMuseum/",
    "wheelchair": "limited",
    "wikidata": "Q636996"
  }
},
{
  "type": "node",
  "id": 513534022,
  "lat": 52.1726646,
  "lon": 7.5305872,
  "tags": {
    "name": "Wannenmacher Museum",
    "tourism": "museum",
    "wheelchair": "limited",
    "wikidata": "Q2548467"
  }
},
{
  "type": "node",
  "id": 552437602,
  "lat": 51.9849543,
  "lon": 7.7863519,
  "tags": {
    "description": "Westfälisches Museum für religiöse Kultur",
    "name": "Museum Religio",
    "opening_hours": "Tu-Su 11:00-18:00",
    "tourism": "museum",
    "website": "https://www.museum-telgte.de/",
    "wheelchair": "yes"
  }
},
{
  "type": "node",
  "id": 558528433,
  "lat": 51.8925742,
  "lon": 7.1872273,
  "tags": {
    "name": "Museumbahnhof",
    "tourism": "museum"
  }
},
{
  "type": "node",
  "id": 673480857,
  "lat": 51.7653476,
  "lon": 7.4168721,
  "tags": {
    "name": "Home of Classic Bike's",
    "tourism": "museum",
    "wheelchair": "yes"
  }
},
{
  "type": "node",
  "id": 683874498,
  "lat": 52.1728561,
  "lon": 7.5310539,
  "tags": {
    "name": "August-Holländer-Museum",
    "tourism": "museum",
    "wikidata": "Q76634577"
  }
},
{
  "type": "node",
  "id": 858610000,
  "lat": 51.9612228,
  "lon": 7.6234971,
  "tags": {
    "name": "Bibelmuseum",
    "tourism": "museum",
    "wheelchair": "no",
    "wikidata": "Q856094"
  }
},
{
  "type": "node",
  "id": 1396156829,
  "lat": 52.0337976,
  "lon": 7.8398670,
  "tags": {
    "name": "Kutschenmuseum",
    "tourism": "museum",
    "wheelchair": "no"
  }
},
{
  "type": "node",
  "id": 1560744760,
  "lat": 52.1268404,
  "lon": 7.3970820,
  "tags": {
    "addr:housenumber": "5",
    "addr:postcode": "48565",
    "addr:street": "Kirchplatz",
    "designation": "Heinrich-Neuy-Museum",
    "email": "mail@hnbm.de",
    "internet_access": "wlan",
    "name": "HeinrichNeuyBauhausMuseum",
    "opening_hours": "Su, We-Fr 11:00-17:00",
    "operator": "HeinrichNeuyBauhausMuseum e.V.",
    "phone": "+49 (0) 2552 9958 309",
    "tourism": "museum",
    "website": "https://www.heinrichneuybauhausmuseum.de/"
  }
},
{
  "type": "node",
  "id": 1805234895,
  "lat": 52.2563901,
  "lon": 7.7281190,
  "tags": {
    "addr:housenumber": "26",
    "addr:postcode": "49479",
    "addr:street": "Markweg",
    "name": "Motorradmuseum",
    "tourism": "museum",
    "wikidata": "Q1805702"
  }
},
{
  "type": "node",
  "id": 1917478509,
  "lat": 51.8365372,
  "lon": 8.0231982,
  "tags": {
    "tourism": "museum"
  }
},
{
  "type": "node",
  "id": 2149360178,
  "lat": 51.7766049,
  "lon": 7.4426969,
  "tags": {
    "name": "Museum Vischering",
    "tourism": "museum",
    "wheelchair": "yes"
  }
},
{
  "type": "node",
  "id": 2193230772,
  "lat": 52.2601409,
  "lon": 7.4847073,
  "tags": {
    "contact:email": "feldbahn@web.de",
    "contact:website": "http://www.feldbahn.org/",
    "name": "Münsterländisches Feldbahnmuseum e.V.",
    "tourism": "museum",
    "wheelchair": "limited",
    "wheelchair:description": "befindet sich im Aufbau"
  }
},
{
  "type": "node",
  "id": 2293690739,
  "lat": 51.8463593,
  "lon": 8.0283312,
  "tags": {
    "name": "Bauhof der Sinne",
    "source": "www.bauhof-der-sinne.de",
    "tourism": "museum"
  }
},
{
  "type": "node",
  "id": 2551599464,
  "lat": 51.9776971,
  "lon": 7.4121353,
  "tags": {
    "name": "Rundfunkmuseum Holtstiege",
    "tourism": "museum"
  }
},
{
  "type": "node",
  "id": 2819478888,
  "lat": 51.9495275,
  "lon": 7.9950842,
  "tags": {
    "museum": "local",
    "name": "Torschreiberhaus",
    "operator": "Dezentrales Stadtmuseum",
    "tourism": "museum"
  }
},
{
  "type": "node",
  "id": 2819478889,
  "lat": 51.9499224,
  "lon": 7.9951415,
  "tags": {
    "name": "Gadem",
    "operator": "Dezentrales Stadtmuseum",
    "tourism": "museum"
  }
},
{
  "type": "node",
  "id": 2819489562,
  "lat": 51.9521853,
  "lon": 7.9931342,
  "tags": {
    "name": "Bürgerhaus des Klassizismus",
    "operator": "Dezentrales Stadtmuseum",
    "tourism": "museum"
  }
},
{
  "type": "node",
  "id": 2819489563,
  "lat": 51.9526631,
  "lon": 7.9871678,
  "tags": {
    "name": "Bürgerhaus des Historismus",
    "operator": "Dezentrales Stadtmuseum",
    "tourism": "museum"
  }
},
{
  "type": "node",
  "id": 2889759422,
  "lat": 52.0502570,
  "lon": 7.4666768,
  "tags": {
    "addr:housenumber": "4",
    "addr:street": "Gooiker Platz",
    "name": "Eiskeller",
    "opening_hours": "Mo-Sa 13:00-17:00; Su 11:00-17:00",
    "phone": "+49202505208232",
    "tourism": "museum",
    "website": "http://www.eiskeller-altenberge.de"
  }
},
{
  "type": "node",
  "id": 3610667293,
  "lat": 51.9513088,
  "lon": 7.9955251,
  "tags": {
    "addr:city": "Warendorf",
    "addr:housenumber": "21",
    "addr:postcode": "48231",
    "addr:street": "Klosterstraße",
    "contact:phone": "+49 2581 927770",
    "contact:website": "http://westpreussisches-landesmuseum.de",
    "fee": "yes",
    "name": "Westpreußisches Landesmuseum",
    "opening_hours": "Tu-Su 10:00-18:00",
    "start_date": "1975",
    "toilets:wheelchair": "yes",
    "tourism": "museum",
    "wheelchair": "yes",
    "wikidata": "Q2565582",
    "wikipedia": "de:Westpreußisches Landesmuseum"
  }
},
{
  "type": "node",
  "id": 3960486327,
  "lat": 52.1789042,
  "lon": 7.8738843,
  "tags": {
    "museum": "railway",
    "name": "Westfälisches Feldbahnmuseum",
    "tourism": "museum"
  }
},
{
  "type": "node",
  "id": 4384025110,
  "lat": 51.9847724,
  "lon": 7.7863517,
  "tags": {
    "name": "Museum Religio",
    "toilets:wheelchair": "yes",
    "tourism": "museum",
    "wheelchair": "yes"
  }
},
{
  "type": "node",
  "id": 4740642470,
  "lat": 52.0869895,
  "lon": 7.3245480,
  "tags": {
    "name": "Posten 46 Radbahn Münsterland",
    "opening_hours": "24/7",
    "tourism": "museum"
  }
},
{
  "type": "node",
  "id": 5154999921,
  "lat": 51.9616002,
  "lon": 7.6281828,
  "tags": {
    "addr:city": "Münster",
    "addr:housenumber": "10",
    "addr:postcode": "48143",
    "addr:street": "Prinzipalmarkt",
    "name": "Historisches Rathaus Münster",
    "opening_hours": "Tu-Fr 10:00-17:00; Sa,Su,PH 10:00-16:00",
    "phone": "+49 251 492 2724",
    "toilets:wheelchair": "no",
    "tourism": "museum",
    "website": "https://www.stadt-muenster.de/tourismus/sehenswertes/altstadt/rathaus.html",
    "wheelchair": "yes",
    "wheelchair:description": "Klingel mit Sprechanlage links neben der Treppe (kleine Säule) Zwei Infotafeln für blinde Menschen: in Blindenschrift die Geschichte des gotischen Rathauses und Giebel zum Ertasten am Haus Prinzipalmarkt 27 Hublift linker Seiteneingang"
  }
},
{
  "type": "node",
  "id": 5225531140,
  "lat": 52.0420947,
  "lon": 7.4570729,
  "tags": {
    "addr:city": "Altenberge",
    "addr:housenumber": "8",
    "addr:postcode": "48341",
    "addr:street": "Lindenstraße",
    "description": "Steinemuseum - Museum für regionale Geologie und Klimageschichte",
    "email": "info@museum-zurholt.de",
    "name": "Museum Zurholt",
    "tourism": "museum",
    "website": "http://www.museum-zurholt.de",
    "wikidata": "Q15835875"
  }
},
{
  "type": "node",
  "id": 6847506306,
  "lat": 52.0141809,
  "lon": 7.6390654,
  "tags": {
    "addr:city": "Münster",
    "addr:country": "DE",
    "addr:housenumber": "100",
    "addr:postcode": "48157",
    "addr:street": "Coermühle",
    "name": "Infozentrum",
    "tourism": "museum"
  }
},
{
  "type": "node",
  "id": 6847971668,
  "lat": 51.9953247,
  "lon": 7.6347710,
  "tags": {
    "access": "private",
    "addr:city": "Münster",
    "addr:country": "DE",
    "addr:housenumber": "1",
    "addr:postcode": "48157",
    "addr:street": "An den Speichern",
    "name": "THW Museum",
    "tourism": "museum"
  }
},
{
  "type": "node",
  "id": 6872091713,
  "lat": 51.9999874,
  "lon": 7.6118644,
  "tags": {
    "addr:city": "Münster",
    "addr:country": "DE",
    "addr:housenumber": "15",
    "addr:postcode": "48159",
    "addr:street": "Kinderhaus",
    "name": "Heimatmuseum",
    "toilets:wheelchair": "no",
    "tourism": "museum",
    "website": "https://www.heimatmuseum-kinderhaus.de/",
    "wheelchair": "no"
  }
},
{
  "type": "node",
  "id": 6872091714,
  "lat": 51.9999767,
  "lon": 7.6115634,
  "tags": {
    "addr:city": "Münster",
    "addr:country": "DE",
    "addr:housenumber": "15",
    "addr:postcode": "48159",
    "addr:street": "Kinderhaus",
    "name": "Lepramuseum",
    "tourism": "museum",
    "website": "https://www.lepramuseum.de/",
    "wheelchair": "no",
    "wikidata": "Q1656111",
    "wikipedia": "de:Lepramuseum Münster"
  }
},
{
  "type": "node",
  "id": 6895702683,
  "lat": 51.9794125,
  "lon": 7.6629632,
  "tags": {
    "addr:city": "Münster",
    "addr:country": "DE",
    "addr:housenumber": "10",
    "addr:postcode": "48155",
    "addr:street": "Dingstiege",
    "fee": "no",
    "name": "Schaustelle Kanal",
    "opening_hours": "Apr-Oct: Tu,We 15:00-18:00; Apr-Oct: Sa,Su 14:00-18:00",
    "tourism": "museum"
  }
},
{
  "type": "node",
  "id": 7130694985,
  "lat": 52.1250969,
  "lon": 7.3954186,
  "tags": {
    "addr:postcode": "48565",
    "email": "info@heimatverein-borghorst.de",
    "internet_access": "wlan",
    "name": "Heimathaus (Altes Rathaus)",
    "name:en": "Old Town Hall",
    "opening_hours": "Su 15:00-17:30",
    "operator": "Heimatverein Borghorst e.V.",
    "phone": "+49 2552-63248",
    "tourism": "museum",
    "website": "http://www.heimatverein-borghorst.de/heimathaus-borghorst/"
  }
},
{
  "type": "way",
  "id": 27227670,
  "nodes": [
    2650979203,
    2650979025,
    2650979030,
    2650979047,
    2650979110,
    2650979260,
    2650979203
  ],
  "tags": {
    "building": "yes",
    "name": "Kunstturm",
    "tourism": "museum",
    "wheelchair": "no"
  }
},
{
  "type": "way",
  "id": 27528507,
  "nodes": [
    596389904,
    4795886316,
    4795886264,
    4795886263,
    4795886262,
    4795886261,
    4795886260,
    596389897,
    2836605731,
    2836605749,
    2836605066,
    2836605752,
    302225800,
    2836604035,
    2836605869,
    2836605864,
    596389904
  ],
  "tags": {
    "addr:city": "Coesfeld",
    "addr:housenumber": "4",
    "addr:postcode": "48653",
    "addr:street": "Mühlenplatz",
    "building": "yes",
    "heritage": "8",
    "heritage:operator": "UntereDenkmalbehörde",
    "heritage:ref": "6",
    "historic": "city_gate",
    "name": "Walkenbrückentor",
    "tourism": "museum",
    "wikidata": "Q2542378",
    "wikipedia": "de:Walkenbrückentor"
  }
},
{
  "type": "way",
  "id": 32932602,
  "nodes": [
    3145841369,
    3145841382,
    3145841381,
    3145841374,
    3145841375,
    3145841356,
    3145841355,
    3145841358,
    3145841357,
    3145841354,
    3145841353,
    3145841352,
    3145841360,
    3145841373,
    3145841379,
    3145841393,
    3145841392,
    3145841409,
    3145841410,
    3145841408,
    3145841412,
    3145841411,
    3145841407,
    3145841391,
    3145841394,
    3145841405,
    3145841406,
    3145841629,
    3145841630,
    3145841397,
    3145841398,
    3145841378,
    3145841377,
    3145841367,
    3145841365,
    3145841376,
    3145841369
  ],
  "tags": {
    "addr:city": "Ahlen",
    "addr:country": "DE",
    "addr:housenumber": "1",
    "addr:postcode": "59227",
    "addr:street": "Museumsplatz",
    "building": "commercial",
    "name": "Kunstmuseum Ahlen",
    "phone": "+49 2382 91830",
    "tourism": "museum",
    "wheelchair": "yes",
    "wikidata": "Q15824604"
  }
},
{
  "type": "way",
  "id": 32932607,
  "nodes": [
    370856594,
    370856598,
    370856601,
    2684789500,
    370856605,
    370856610,
    370856613,
    370856617,
    370856620,
    370856594
  ],
  "tags": {
    "leisure": "garden",
    "name": "Museumsgarten",
    "tourism": "museum"
  }
},
{
  "type": "way",
  "id": 34943130,
  "nodes": [
    3381639425,
    3381639422,
    3381639424,
    3381639426,
    3381639425
  ],
  "tags": {
    "building": "yes",
    "name": "Heimatmuseum Nordwalde",
    "tourism": "museum"
  }
},
{
  "type": "way",
  "id": 35909533,
  "nodes": [
    419766733,
    419766735,
    419766736,
    419766738,
    419766733
  ],
  "tags": {
    "amenity": "events_venue",
    "building": "yes",
    "historic": "yes",
    "name": "Speicher Bispinghof",
    "operator": "Förderverein Bispinghof e.V.",
    "tourism": "museum",
    "url": "https://www.bispinghof-nordwalde.de",
    "wheelchair": "limited"
  }
},
{
  "type": "way",
  "id": 37278499,
  "nodes": [
    434349039,
    434349040,
    434349041,
    434349042,
    434349039
  ],
  "tags": {
    "building": "yes",
    "historic": "heritage",
    "man_made": "watermill",
    "name": "Bischofsmühle",
    "tourism": "museum",
    "wikidata": "Q866175",
    "wikipedia": "de:Bischofsmühle (Coesfeld)"
  }
},
{
  "type": "way",
  "id": 40967529,
  "nodes": [
    2578382947,
    2578382932,
    2578382930,
    2578382819,
    2578382830,
    2578382837,
    2578382839,
    2578382887,
    2578382885,
    2578382889,
    2578382892,
    2578382946,
    2578382934,
    2578382951,
    2578382947
  ],
  "tags": {
    "addr:city": "Münster",
    "addr:country": "DE",
    "addr:housenumber": "7",
    "addr:postcode": "48143",
    "addr:street": "Horsteberg",
    "building": "civic",
    "name": "Domkammer",
    "source": "ALK NRW-Atlas",
    "tourism": "museum",
    "website": "http://www.paulusdom.de/",
    "wheelchair": "yes",
    "wheelchair:description": "Domkammer barrierefrei. Vom Dom aus gelangen Besucher im Rollstuhl und mit Rollator über den barrierefreien Kreuzgang in die Domkammer. Alle Räume mit Exponaten können besichtigt werden, ein Fahrstuhl ist vorhanden."
  }
},
{
  "type": "way",
  "id": 47322174,
  "nodes": [
    602729260,
    602729224,
    602729225,
    602729261,
    602729262,
    602729263,
    602729260
  ],
  "tags": {
    "addr:housenumber": "20",
    "addr:street": "Emmerickweg",
    "building": "yes",
    "historic": "monument",
    "name": "Anna Katharina Emmerickhaus",
    "tourism": "museum",
    "wikipedia": "de:Anna-Katharina-Emmerick-Haus"
  }
},
{
  "type": "way",
  "id": 56183461,
  "nodes": [
    2560168382,
    3643097322,
    2560168377,
    2560168378,
    3643097297,
    3413149390,
    2560168372,
    2560168373,
    2560168371,
    2560168370,
    3643097225,
    3471555690,
    2560168367,
    2560168362,
    3643097207,
    2560170947,
    2560170945,
    2560170953,
    2560170952,
    2560168368,
    2560168366,
    2560168369,
    3643097227,
    3643097251,
    3643097264,
    3643097273,
    2560168374,
    2560168375,
    3643097287,
    3643097292,
    3643097300,
    2560168379,
    2560168380,
    2560168382
  ],
  "tags": {
    "addr:city": "Münster",
    "addr:country": "DE",
    "addr:housename": "LWL-Museum für Naturkunde",
    "addr:housenumber": "285",
    "addr:postcode": "48161",
    "addr:street": "Sentruper Straße",
    "building": "yes",
    "name": "LWL-Museum für Naturkunde",
    "opening_hours": "Th-Su 09:00-18:00",
    "phone": "+49 251 59105",
    "toilets:wheelchair": "yes",
    "tourism": "museum",
    "website": "https://www.lwl-naturkundemuseum-muenster.de/",
    "wheelchair": "yes",
    "wheelchair:description": "Der Museumszugang und alle Museumsbereiche sind mit Kinderwagen und Rollstuhl über breite Wege, eine Rampe und einfache Türdurchgänge erreichbar. Spezielle Plätze für Rollstuhlfahrende im Planetarium. Behinderten-WC ist vorhanden. Aufzug zum Museumscafé.",
    "wikidata": "Q1651758",
    "wikipedia": "de:LWL-Museum für Naturkunde"
  }
},
{
  "type": "way",
  "id": 60337391,
  "nodes": [
    750503216,
    750503252,
    750503253,
    4596437365,
    4596437364,
    750503223,
    750503216
  ],
  "tags": {
    "building": "yes",
    "museum": "apis mellifera",
    "name": "Dat kleine Immenhuisken",
    "tourism": "museum"
  }
},
{
  "type": "way",
  "id": 72608130,
  "nodes": [
    861724133,
    861724136,
    861724145,
    861724159,
    861724153,
    861724133
  ],
  "tags": {
    "name": "Sachsenhof",
    "operator": "Heimatverein Greven",
    "tourism": "museum"
  }
},
{
  "type": "way",
  "id": 73850070,
  "nodes": [
    3427389557,
    3427389549,
    3427389550,
    3427389548,
    3427389546,
    3427389547,
    3427389545,
    3427389553,
    3427389557
  ],
  "tags": {
    "building": "yes",
    "name": "Wessler Schleppermuseum",
    "tourism": "museum"
  }
},
{
  "type": "way",
  "id": 84661107,
  "nodes": [
    983495544,
    983495622,
    983495998,
    983495824,
    983495544
  ],
  "tags": {
    "addr:city": "Tecklenburg",
    "addr:country": "DE",
    "addr:housenumber": "1",
    "addr:postcode": "49545",
    "addr:street": "Wellenberg",
    "building": "yes",
    "name": "Puppenmuseum",
    "tourism": "museum",
    "wikidata": "Q76635140"
  }
},
{
  "type": "way",
  "id": 85710027,
  "nodes": [
    994863092,
    3647359989,
    1118524553,
    1118524555,
    1118524550,
    3647460500,
    994863085,
    3647363132,
    994863086,
    3651190467,
    3651190466,
    3647363115,
    3647363114,
    3646663016,
    3646662988,
    3646662977,
    994863111,
    987602582,
    3646662950,
    2352376878,
    3646662937,
    994863091,
    994863097,
    987602556,
    3646662879,
    987602541,
    3646662863,
    3646662861,
    3646662860,
    987602561,
    994863094,
    987602540,
    3647359984,
    3647460271,
    994863107,
    3647460264,
    3647460256,
    994863083,
    3647359969,
    3647460222,
    1108431254,
    994863098,
    1243852849,
    1243852864,
    3647359977,
    994863092
  ],
  "tags": {
    "addr:city": "Münster",
    "addr:country": "DE",
    "addr:housenumber": "1",
    "addr:postcode": "48149",
    "addr:street": "Theo-Breider-Weg",
    "email": "info@muehlenhof-muenster.org",
    "fee": "yes",
    "fixme": "shape to be adjusted",
    "name": "Mühlenhof Freilichtmuseum",
    "opening_hours": "Mar-Oct: Tu-Su 10:00-18:00; Nov-Feb: Sa-Su 11:00-17:30",
    "phone": "+49 251 981200",
    "toilets:wheelchair": "yes",
    "tourism": "museum",
    "website": "https://www.muehlenhof-muenster.org/",
    "wheelchair": "limited",
    "wikidata": "Q1958479"
  }
},
{
  "type": "way",
  "id": 85863845,
  "nodes": [
    996601144,
    996601289,
    996601309,
    996601243,
    990275063,
    996601144
  ],
  "tags": {
    "addr:city": "Tecklenburg",
    "addr:country": "DE",
    "addr:housenumber": "9",
    "addr:postcode": "49545",
    "addr:street": "Markt",
    "building": "yes",
    "name": "Modersohn Museum",
    "shop": "department_store",
    "tourism": "museum",
    "wheelchair": "yes"
  }
},
{
  "type": "way",
  "id": 93612715,
  "nodes": [
    3997834936,
    3997834938,
    3997834943,
    3997834928,
    3997834923,
    3997834934,
    3997834936
  ],
  "tags": {
    "addr:city": "Münster",
    "addr:country": "DE",
    "addr:housenumber": "488",
    "addr:postcode": "48165",
    "addr:street": "Westfalenstraße",
    "building": "yes",
    "name": "alter Speicher",
    "tourism": "museum"
  }
},
{
  "type": "way",
  "id": 94223123,
  "nodes": [
    2646161193,
    2646161300,
    2646161279,
    2646161280,
    2646161945,
    2646162009,
    2646162228,
    2646162353,
    2646161929,
    2646161967,
    2646161725,
    2646161793,
    2646161464,
    2646161507,
    2646161071,
    2646161011,
    2646160689,
    2646160833,
    2646160576,
    2646160821,
    2646160416,
    2646160057,
    2646158912,
    2646159465,
    2646159394,
    2646159219,
    2646158918,
    2646158902,
    2646158865,
    2646158843,
    2646158716,
    2646158667,
    2646158661,
    2646158634,
    2646158589,
    2646158578,
    2646158535,
    2646158444,
    2646158401,
    2646158396,
    2646158389,
    2646158328,
    2646158200,
    2646157557,
    2646159602,
    2646159644,
    2646159661,
    2646159735,
    2646159795,
    2646159939,
    2646159949,
    2646161989,
    2646162164,
    2646162575,
    2646162632,
    2646162400,
    2646162536,
    2646161865,
    2646161844,
    2646161627,
    2646160958,
    2646160963,
    2646160973,
    2646161002,
    2646160999,
    2646161159,
    2646161192,
    2646161207,
    2646161233,
    2646161249,
    2646161254,
    2646161234,
    2646161213,
    2646161193
  ],
  "tags": {
    "addr:city": "Hamm",
    "addr:country": "DE",
    "addr:housenumber": "9",
    "addr:postcode": "59065",
    "addr:street": "Neue Bahnhofstraße",
    "blind:audio_guide": "yes",
    "blind:information": "yes",
    "building": "public",
    "email": "Gustav-Luebcke-Museum@Stadt.Hamm.de",
    "name": "Gustav-Lübcke-Museum",
    "opening_hours": "Mo off, Tu-Sa 10:00-17:00; Su 10:00-18:00",
    "phone": "+49 2381 17 57 01",
    "toilets:wheelchair": "yes",
    "tourism": "museum",
    "website": "https://www.hamm.de/gustav-luebcke-museum.html",
    "wheelchair": "limited",
    "wheelchair:access": "yes",
    "wheelchair:note": "Angaben zu Barrierefreiheit finden Sie unter http://www.ruhr2010-barrierefrei.de/fileadmin/images/Veranstaltungsort_Sehenswuerdigkeiten/PDF_Dokumente_ABF/Hamm_Gustav_Luebcke_Museum.pdf",
    "wheelchair:source": "ruhr2010-barrierefrei.de",
    "wikidata": "Q76634662"
  }
},
{
  "type": "way",
  "id": 96693524,
  "nodes": [
    2571595794,
    2571595776,
    2571595771,
    2571595789,
    2571595794
  ],
  "tags": {
    "addr:housenumber": "81",
    "addr:street": "Am Rüschhaus",
    "building": "public",
    "name": "Haus Rüschhaus",
    "tourism": "museum",
    "wikidata": "Q895735"
  }
},
{
  "type": "way",
  "id": 98764362,
  "nodes": [
    4679851710,
    4679851700,
    4679851709,
    4679851701,
    4679851708,
    4679851707,
    4679851706,
    4679851703,
    4679851702,
    4679851710
  ],
  "tags": {
    "addr:city": "Drensteinfurt",
    "addr:housenumber": "44",
    "addr:postcode": "48317",
    "addr:street": "Eickenbeck",
    "building": "yes",
    "name": "Mühlenmuseum",
    "tourism": "museum"
  }
},
{
  "type": "way",
  "id": 103453947,
  "nodes": [
    2578493779,
    2578493734,
    2578493733,
    2578493725,
    2578493724,
    2578493716,
    2578493715,
    2578493711,
    2578493712,
    2578493697,
    2578493696,
    2578493692,
    2578493693,
    2578493695,
    2578493691,
    2578493689,
    2578493688,
    2578493709,
    2578493710,
    2578493706,
    2578493708,
    2578493713,
    2578493714,
    2578493719,
    2578493720,
    2578493731,
    2578493728,
    2578493726,
    2578493723,
    2578493747,
    2578493773,
    2578493776,
    2578493779
  ],
  "tags": {
    "addr:city": "Münster",
    "addr:country": "DE",
    "addr:housenumber": "3",
    "addr:postcode": "48143",
    "addr:street": "Pferdegasse",
    "building": "civic",
    "name": "Geomuseum",
    "operator": "Westfälische Wilhelms-Universität (WWU)",
    "roof:colour": "#dfba9d",
    "roof:material": "roof_tiles",
    "roof:shape": "hipped",
    "source": "HiRes aerial imagery 2010",
    "subject": "geology;palaeontology",
    "tourism": "museum",
    "website": "https://www.uni-muenster.de/Geomuseum",
    "wikidata": "Q1503291",
    "wikipedia": "de:Geologisch-Paläontologisches Museum Münster"
  }
},
{
  "type": "way",
  "id": 103454000,
  "nodes": [
    2588763217,
    2588763216,
    2588763215,
    2588763206,
    2588763205,
    2588763207,
    2588763209,
    2588763210,
    2588763211,
    2588763212,
    2588763217
  ],
  "tags": {
    "addr:city": "Münster",
    "addr:country": "DE",
    "addr:housenumber": "1",
    "addr:postcode": "48143",
    "addr:street": "Picassoplatz",
    "building": "civic",
    "contact:phone": "+49 251 4144710",
    "name": "Picassomuseum",
    "opening_hours": "Tu-Su 10:00-18:00",
    "source": "ALK NRW-Atlas",
    "subject": "arts",
    "toilets:wheelchair": "yes",
    "tourism": "museum",
    "website": "https://www.kunstmuseum-picasso-muenster.de/",
    "wheelchair": "yes",
    "wheelchair:description": "Rechts neben dem Haupteingang  barrierefreien Eingang, der auf Klingeln geöffnet wird. rollstuhlgerechter Aufzug und Behindertentoiletten",
    "wikidata": "Q1792550"
  }
},
{
  "type": "way",
  "id": 105636734,
  "nodes": [
    3114701091,
    3114701090,
    3114701242,
    3114701243,
    3114701238,
    3114701237,
    3114701233,
    3114700927,
    3114701073,
    3114701075,
    3114701084,
    3114701085,
    3114701105,
    3114701106,
    3114701115,
    3114701091
  ],
  "tags": {
    "addr:city": "Werne",
    "addr:country": "DE",
    "addr:housenumber": "12",
    "addr:postcode": "59368",
    "addr:street": "Kirchhof",
    "building": "yes",
    "email": "Museum@werne.de",
    "fax": "+49 2389 780776",
    "name": "Karl-Pollender-Stadtmuseum",
    "opening_hours": "Tu-Fr 10:00-12:00, 14:00-17:00; Su 10:00-13:00",
    "phone": "+49 2389 780773",
    "tourism": "museum",
    "website": "http://www.museum-werne.de/",
    "wikidata": "Q1730132",
    "wikipedia": "de:Karl-Pollender-Stadtmuseum"
  }
},
{
  "type": "way",
  "id": 140496453,
  "nodes": [
    3024421001,
    3024421004,
    3024421005,
    3024421003,
    3024421013,
    3024420986,
    3024420984,
    3024420982,
    3024420979,
    3024420981,
    3024420976,
    3024420978,
    3024420974,
    3024420975,
    3024420970,
    3024420972,
    3024420968,
    3024420969,
    3024420966,
    3024420964,
    3024420960,
    3024420963,
    3024420959,
    3024420973,
    3024420971,
    3024420983,
    3024420990,
    3024420997,
    3024421007,
    3024420998,
    3024421001
  ],
  "tags": {
    "addr:housenumber": "5",
    "addr:street": "Alexianerweg",
    "building": "yes",
    "name": "Kunsthaus Kannen",
    "source": "NRW-Atlas (ALK)",
    "tourism": "museum"
  }
},
{
  "type": "way",
  "id": 141429940,
  "nodes": [
    4202929615,
    4202929616,
    4202929618,
    4202929617,
    4202929593,
    4202929594,
    4202929596,
    4202929595,
    4202929611,
    4202929610,
    4202929612,
    4202929613,
    4202929615
  ],
  "tags": {
    "addr:city": "Münster",
    "addr:country": "DE",
    "addr:housenumber": "84",
    "addr:postcode": "48165",
    "addr:street": "Max-Winkelmann-Straße",
    "addr:suburb": "Hiltrup",
    "building": "yes",
    "name": "Kunsthalle Schnake",
    "tourism": "museum",
    "website": "https://www.kunsthalle-schnake.de/"
  }
},
{
  "type": "way",
  "id": 154946011,
  "nodes": [
    3255046003,
    3255046043,
    3255046074,
    3255046030,
    3255046033,
    3255045948,
    3255045879,
    3255045882,
    3255045878,
    3255045902,
    3255045944,
    3255045966,
    3255045971,
    3255046003
  ],
  "tags": {
    "building": "yes",
    "name": "Mühlenmuseum",
    "operator": "Heimatverein Metelen e.V.",
    "tourism": "museum",
    "wheelchair": "no"
  }
},
{
  "type": "way",
  "id": 168414677,
  "nodes": [
    2862976949,
    2862976941,
    2862976931,
    2862976932,
    2862976944,
    2862976943,
    2862976954,
    2862976953,
    2862976950,
    2862976949
  ],
  "tags": {
    "addr:city": "Münster",
    "addr:country": "DE",
    "addr:housenumber": "15",
    "addr:postcode": "48167",
    "addr:street": "Neustraße",
    "building": "yes",
    "name": "ZiBoMo Museum",
    "opening_hours": "\"Nach Absprache\"",
    "operator": "Karnevalsgesellschaft ZiBoMo",
    "source": "NRW Atlas (ALK)",
    "tourism": "museum",
    "website": "https://zibomo.de/",
    "wheelchair": "no"
  }
},
{
  "type": "way",
  "id": 172095618,
  "nodes": [
    2590696778,
    2590696777,
    2590696775,
    2590696779,
    2590696780,
    2590696781,
    2590696782,
    2590696783,
    2590696790,
    2590696788,
    2590696785,
    2590696786,
    2590696787,
    2590696789,
    2590696792,
    2590696793,
    2590696794,
    2590696795,
    2590696796,
    2590696797,
    2590696798,
    2590696801,
    2590696804,
    2590696799,
    2590696802,
    2590696803,
    2590696805,
    2590696806,
    2590696808,
    2590696778
  ],
  "tags": {
    "addr:city": "Münster",
    "addr:country": "DE",
    "addr:housenumber": "28",
    "addr:postcode": "48143",
    "addr:street": "Salzstraße",
    "building": "public",
    "building:colour": "white",
    "building:levels": "3",
    "contact:phone": "+49 251 4924503",
    "contact:website": "http://www.muenster.de/stadt/museum/",
    "fee": "no",
    "name": "Stadtmuseum",
    "opening_hours": "Tu-Fr 10:00-18:00; Sa-Su 11:00-18:00",
    "operator": "Stadt Münster",
    "roof:colour": "#a67f6e",
    "roof:levels": "1",
    "roof:material": "roof_tiles",
    "roof:shape": "flat_mansard",
    "source": "ALK NRW-Atlas",
    "subject": "history",
    "toilets": "yes",
    "toilets:access": "permissive",
    "toilets:wheelchair": "yes",
    "tourism": "museum",
    "wheelchair": "yes",
    "wheelchair:description": "Behindertentoilette vorhanden",
    "wikidata": "Q1307805",
    "wikipedia": "de:Stadtmuseum Münster"
  }
},
{
  "type": "way",
  "id": 178357337,
  "nodes": [
    3104204665,
    3104204662,
    3104204663,
    3104204664,
    3104204666,
    3104204665
  ],
  "tags": {
    "addr:city": "Ahlen",
    "addr:country": "DE",
    "addr:housenumber": "12",
    "addr:postcode": "59227",
    "addr:street": "Wilhelmstraße",
    "building": "commercial",
    "heritage": "8",
    "name": "Heimatmuseum",
    "phone": "+49 2382 59290",
    "tourism": "museum",
    "wikidata": "Q76634342"
  }
},
{
  "type": "way",
  "id": 181242389,
  "nodes": [
    1706860106,
    1916835275,
    1916835269,
    1916835273,
    1910509225,
    1910509147,
    1910508880,
    1508932215,
    1910509174,
    1910509201,
    1910508821,
    1910508803,
    1706860106
  ],
  "tags": {
    "name": "Karnevalsmuseum",
    "operator": "http://kgpaohlbuerger.de",
    "tourism": "museum"
  }
},
{
  "type": "way",
  "id": 197804196,
  "nodes": [
    1394006201,
    1394006203,
    2079968144,
    2079968146,
    2471534298,
    358047901,
    2079968149,
    2079968136,
    369108367,
    2079968130,
    1394006201
  ],
  "tags": {
    "addr:city": "Metelen",
    "addr:housenumber": "74",
    "addr:postcode": "48629",
    "addr:street": "Naendorf",
    "museum": "railway",
    "name": "Eisenbahnmuseum Metelen Land",
    "operator": "Eisenbahn-Interessengemeinschaft Metelen e.V.",
    "tourism": "museum",
    "website": "http://www.bahnhofsmuseum.de",
    "wikipedia": "de:Eisenbahnmuseum Metelen Land"
  }
},
{
  "type": "way",
  "id": 206627907,
  "nodes": [
    3231217533,
    3231217529,
    3231217530,
    3231217510,
    3231217503,
    3231217501,
    3231217484,
    3231217521,
    3231217533
  ],
  "tags": {
    "addr:housename": "Ofenmuseum Asbeck",
    "addr:postcode": "48739",
    "addr:street": "Brückenstraße",
    "building": "yes",
    "name": "Ofenmuseum Asbeck",
    "tourism": "museum"
  }
},
{
  "type": "way",
  "id": 220487004,
  "nodes": [
    3230182517,
    3230182516,
    2295979929,
    3230182510,
    3230182511,
    3230182505,
    3230182507,
    3230182504,
    3230182506,
    3230182508,
    3230182509,
    3230182512,
    3230182513,
    3230182514,
    3230182515,
    3230182517
  ],
  "tags": {
    "addr:city": "Billerbeck",
    "addr:country": "DE",
    "addr:housename": "Kolvenburg",
    "addr:housenumber": "3",
    "addr:postcode": "48727",
    "addr:street": "An der Kolvenburg",
    "building": "yes",
    "building:levels": "3",
    "historic": "castle",
    "name": "Kolvenburg",
    "opening_hours": "Tu-Sa 13:00-18:00; PH Su 10:00-13:00,13:30-17:30",
    "phone": "+49 2543 1540",
    "roof:levels": "3",
    "roof:shape": "half-hipped",
    "tourism": "museum",
    "website": "https://www.kolvenburg.de/",
    "wikidata": "Q1462460",
    "wikipedia": "de:Kolvenburg"
  }
},
{
  "type": "way",
  "id": 221167228,
  "nodes": [
    2650387868,
    2650387841,
    2650387716,
    2650387643,
    2650387756,
    2650387679,
    2650387806,
    2650387826,
    2650387839,
    2650387829,
    2650387835,
    2650387997,
    2650388170,
    2650387868
  ],
  "tags": {
    "addr:city": "Telgte",
    "addr:country": "DE",
    "addr:housenumber": "9a",
    "addr:postcode": "48291",
    "addr:street": "Steinstraße",
    "building": "yes",
    "building:colour": "red",
    "building:levels": "3",
    "building:material": "brick",
    "name": "Kornbrennerei Museum",
    "roof:colour": "red",
    "roof:levels": "1",
    "roof:material": "roof_tiles",
    "roof:orientation": "along",
    "roof:shape": "gabled",
    "tourism": "museum",
    "website": "http://www.telgte.de/tourismus-kultur-freizeit/museen/kornbrennerei-museum-telgte.html",
    "wheelchair": "no",
    "wikidata": "Q1257540",
    "wikipedia": "de:Kornbrennereimuseum"
  }
},
{
  "type": "way",
  "id": 242798044,
  "nodes": [
    3059724163,
    3059724164,
    3059723896,
    3644827985,
    3644827984,
    3059723835,
    3059722529,
    3059722523,
    3059722520,
    3059722518,
    3059722514,
    3059722513,
    3059722509,
    3059722505,
    3059722512,
    3950434980,
    3059722511,
    3059722507,
    3059722506,
    3059722515,
    3059722516,
    3059722517,
    3059722519,
    3059722521,
    3059722525,
    3059722531,
    3059723836,
    3059723839,
    3059723847,
    3643273630,
    3059723850,
    3643273634,
    3059723855,
    3059723858,
    3059723856,
    3059723851,
    3059723848,
    3059723852,
    3059723859,
    3059723860,
    3059723862,
    3412721745,
    3059723868,
    3059723866,
    3059723870,
    3059723872,
    3059723875,
    3059723878,
    3059723883,
    3059723887,
    3059723888,
    3059723889,
    3059723890,
    3059723891,
    3059723892,
    3059723893,
    3059723894,
    3059723895,
    3059723897,
    3059723900,
    3059723901,
    3059723904,
    3059723910,
    3059724163
  ],
  "tags": {
    "addr:city": "Münster",
    "addr:country": "DE",
    "addr:housenumber": "311",
    "addr:postcode": "48161",
    "addr:street": "Sentruper Straße",
    "building": "civic",
    "name": "Pferdemuseum",
    "phone": "+49 251 484270",
    "source": "ALK NRW-Atlas",
    "toilets:wheelchair": "yes",
    "tourism": "museum",
    "website": "https://www.pferdemuseum.de/",
    "wheelchair": "yes",
    "wikidata": "Q2565323"
  }
},
{
  "type": "way",
  "id": 247541452,
  "nodes": [
    2833858129,
    2833856496,
    2833858101,
    2833856716,
    2833856720,
    2833856718,
    2833858137,
    2833858129
  ],
  "tags": {
    "addr:city": "Coesfeld",
    "addr:housenumber": "6",
    "addr:postcode": "48653",
    "addr:street": "Pfauengasse",
    "building": "house",
    "historic": "heritage",
    "name": "Natz-Thier-Haus",
    "tourism": "museum"
  }
},
{
  "type": "way",
  "id": 254668238,
  "nodes": [
    3338119198,
    3338118986,
    3338118984,
    3338119194,
    3338119198
  ],
  "tags": {
    "building": "yes",
    "historic": "building",
    "name": "Müllerskotten",
    "tourism": "museum"
  }
},
{
  "type": "way",
  "id": 256329257,
  "nodes": [
    2619931627,
    2619931591,
    2619931587,
    2619931609,
    2619931603,
    2619931623,
    2619931627
  ],
  "tags": {
    "addr:city": "Warendorf",
    "addr:country": "DE",
    "addr:housenumber": "28",
    "addr:postcode": "48231",
    "addr:street": "Lindenstraße",
    "building": "yes",
    "name": "Stellmacherei",
    "tourism": "museum",
    "website": "https://www.hoetmar.de/index.php/hoetmar/28-sehenswertes/stellmacherei/20-die-stellmacherei"
  }
},
{
  "type": "way",
  "id": 261404006,
  "nodes": [
    2618986458,
    2618986457,
    2618986456,
    2618986218,
    2618986194,
    2618986102,
    2618986109,
    2618986006,
    2618986052,
    2618986471,
    2618986458
  ],
  "tags": {
    "addr:city": "Warendorf",
    "addr:country": "DE",
    "addr:housenumber": "1",
    "addr:postcode": "48231",
    "addr:street": "Markt",
    "building": "public",
    "building:colour": "white",
    "building:levels": "2",
    "building:material": "plaster",
    "construction_date": "1404",
    "historic": "building",
    "name": "Historisches Rathaus",
    "operator": "Stadt Warendorf",
    "operator:type": "government",
    "roof:colour": "black",
    "roof:levels": "2",
    "roof:material": "roof_tiles",
    "roof:shape": "gabled",
    "source": "https://www.warendorf.de/bildung-kultur/museen-in-warendorf/dezentrales-stadtmuseum/historisches-rathaus.html",
    "tourism": "museum",
    "wheelchair": "limited",
    "wheelchair:description": "Ratssaal zugänglich Historisches Museum und Trauungen nicht"
  }
},
{
  "type": "way",
  "id": 266538312,
  "nodes": [
    2720705016,
    2720705018,
    2949645078,
    2949645091,
    2720705028,
    2720705030,
    2720705016
  ],
  "tags": {
    "addr:city": "Havixbeck",
    "addr:country": "DE",
    "addr:housenumber": "9",
    "addr:postcode": "48329",
    "addr:street": "Gennerich",
    "building": "yes",
    "name": "Baumberger-Sandstein- Museum",
    "opening_hours": "Tu-Su 11:00-18:00",
    "phone": "+49 2507 1596",
    "toilets:wheelchair": "yes",
    "tourism": "museum",
    "website": "http://www.sandsteinmuseum.de",
    "wheelchair": "yes",
    "wheelchair:description": "Rampen und ebenerdige Anfahrten im Aussenbereich, Aufzug und Rollstuhfahrer-WC",
    "wikidata": "Q811526",
    "wikipedia": "de:Baumberger Sandsteinmuseum"
  }
},
{
  "type": "way",
  "id": 278882359,
  "nodes": [
    3118047651,
    3118047641,
    3118047640,
    3118047627,
    3118047629,
    3118047608,
    3118047612,
    3118047581,
    3118047576,
    3118047577,
    3118047580,
    3118047607,
    3118047625,
    3118047653,
    3118047651
  ],
  "tags": {
    "addr:city": "Ahlen",
    "addr:country": "DE",
    "addr:housenumber": "72-74",
    "addr:postcode": "59229",
    "addr:street": "Südberg",
    "building": "commercial",
    "name": "Fritz-Winter-Haus",
    "phone": "+49 2382 61582",
    "tourism": "museum"
  }
},
{
  "type": "way",
  "id": 285953676,
  "nodes": [
    2895909881,
    2895909791,
    2895909898,
    2895910085,
    2895910087,
    2895909881
  ],
  "tags": {
    "addr:city": "Laer",
    "addr:country": "DE",
    "addr:housenumber": "25",
    "addr:postcode": "48366",
    "addr:street": "Terup",
    "building": "yes",
    "name": "Holskenmuseum Laer",
    "tourism": "museum",
    "wheelchair": "no"
  }
},
{
  "type": "way",
  "id": 292734275,
  "nodes": [
    2962654375,
    2962654376,
    3050076628,
    2962654377,
    2962654378,
    2962654379,
    2962654380,
    2962654375
  ],
  "tags": {
    "addr:city": "Dülmen",
    "addr:housenumber": "2",
    "addr:postcode": "48249",
    "addr:street": "Neustraße",
    "addr:suburb": "Hiddingsel",
    "building": "house",
    "name": "Das kleine MECHANISCHE Musikmuseum",
    "smoking": "no",
    "tourism": "museum",
    "website": "https://www.musikmuseum.net/"
  }
},
{
  "type": "way",
  "id": 306263967,
  "nodes": [
    3111236461,
    3111236462,
    3359298379,
    3359298380,
    3359298381,
    3359298382,
    3359298385,
    3359298387,
    3359298386,
    3111236463,
    3359298390,
    3359301193,
    3359298392,
    3359298391,
    3359298389,
    3359298388,
    3111236464,
    3359298384,
    3359298383,
    3359298377,
    3359298378,
    3111236461
  ],
  "tags": {
    "addr:city": "Münster",
    "addr:housename": "Villa ten Hompel",
    "addr:housenumber": "28a",
    "addr:postcode": "48145",
    "addr:street": "Kaiser-Wilhelm-Ring",
    "building": "public",
    "name": "Villa ten Hompel",
    "source": "NRW Atlas (ALK,DOP40)",
    "tourism": "museum",
    "website": "https://www.stadt-muenster.de/villa-ten-hompel/",
    "wheelchair": "no",
    "wikidata": "Q201033",
    "wikipedia": "de:Villa ten Hompel"
  }
},
{
  "type": "way",
  "id": 316099183,
  "nodes": [
    3222067426,
    3222067427,
    3222067428,
    2609845095,
    2609845113,
    3222067426
  ],
  "tags": {
    "addr:city": "Everswinkel",
    "addr:country": "DE",
    "addr:housenumber": "31",
    "addr:postcode": "48351",
    "addr:street": "Wester",
    "building": "civic",
    "contact:website": "http://www.everswinkel.de/de/Tourismus-Freizeit/Museen/upnhoff.php",
    "description": "Landwirtschaftsmuseum",
    "museum": "agriculture",
    "name": "Mitmachmuseum Up'n Hoff",
    "toilets:wheelchair": "yes",
    "tourism": "museum",
    "wheelchair": "yes"
  }
},
{
  "type": "way",
  "id": 325248001,
  "nodes": [
    3319141152,
    3319141150,
    3319141151,
    3319141144,
    3319141135,
    3319141149,
    3319141152
  ],
  "tags": {
    "addr:city": "Münster",
    "addr:housenumber": "2",
    "addr:postcode": "48167",
    "addr:street": "Erbdrostenweg",
    "building": "yes",
    "name": "Pängelanton Eisenbahnmuseum",
    "operator": "Karnevalsverein Pängelanton",
    "phone": "+49 251 609450",
    "tourism": "museum",
    "website": "http://www.paengelanton.de/"
  }
},
{
  "type": "way",
  "id": 329895936,
  "nodes": [
    3368385075,
    3368385076,
    3368385077,
    3368385078,
    3368385075
  ],
  "tags": {
    "amenity": "shelter",
    "building": "yes",
    "building:levels": "1",
    "name": "Station 47",
    "railway:preserved": "yes",
    "tourism": "museum"
  }
},
{
  "type": "way",
  "id": 334573212,
  "nodes": [
    3416357693,
    3416357694,
    3416357667,
    3416357666,
    3416357693
  ],
  "tags": {
    "addr:city": "Münster",
    "addr:housenumber": "97",
    "addr:postcode": "48167",
    "addr:street": "Angelmodder Weg",
    "building": "yes",
    "name": "Gallitzin-Haus",
    "tourism": "museum"
  }
},
{
  "type": "way",
  "id": 336309166,
  "nodes": [
    3433622974,
    3433622915,
    3433622684,
    3433622663,
    3433622659,
    3433622679,
    3433622974
  ],
  "tags": {
    "tourism": "museum"
  }
},
{
  "type": "way",
  "id": 345096931,
  "nodes": [
    3517900318,
    3517900319,
    3517900320,
    3517900323,
    3517900322,
    3517900318
  ],
  "tags": {
    "addr:city": "Rosendahl",
    "addr:country": "DE",
    "addr:housenumber": "2",
    "addr:postcode": "48720",
    "addr:street": "Breikamp",
    "addr:suburb": "Darfeld",
    "building": "yes",
    "fee": "no",
    "name": "Oldtimer Voss",
    "tourism": "museum",
    "website": "www.oldtimer-voss.de",
    "wheelchair": "limited"
  }
},
{
  "type": "way",
  "id": 394322494,
  "nodes": [
    3973443025,
    3973443020,
    3973443021,
    3973443023,
    3973443019,
    3973443018,
    3973443003,
    3973443004,
    3973443005,
    3973443007,
    3973443009,
    3973443015,
    2591789537,
    3973443011,
    3973443006,
    3973443008,
    3973443010,
    3973443013,
    3973443016,
    3973443017,
    2591789555,
    2591789557,
    2591789558,
    2591789565,
    2591789568,
    2591789569,
    2591789566,
    2591789564,
    2591789562,
    2591789577,
    2591789572,
    2591789574,
    2591789563,
    2591789561,
    2591789556,
    3973443025
  ],
  "tags": {
    "addr:city": "Münster",
    "addr:country": "DE",
    "addr:housenumber": "26",
    "addr:postcode": "48143",
    "addr:street": "Windthorststraße",
    "building": "civic",
    "building:levels": "2",
    "contact:phone": "+49 251 41851 0",
    "contact:website": "http://www.museum-fuer-lackkunst.de/",
    "name": "Museum für Lackkunst",
    "opening_hours": "Tu 12:00-20:00; We-Su 12:00-18:00",
    "operator": "BASF Coatings GmbH",
    "roof:colour": "red",
    "roof:levels": "1",
    "roof:material": "roof_tiles",
    "roof:shape": "hipped",
    "source": "ALK NRW-Atlas",
    "subject": "arts",
    "toilets:wheelchair": "yes",
    "tourism": "museum",
    "wheelchair": "limited",
    "wheelchair:description": "Rückwärtiger Eingang ist eingeschränkt mit Rollstuhl zugänglich. Der Zugang zum Parkplatz kann jederzeit geöffnet werden. Der vorhandene Aufzug sichert die Erreichbarkeit aller Ebenen und eine barrierefreie Toilette befindet sich im Souterrain.",
    "wikidata": "Q1452889",
    "wikipedia": "de:Museum für Lackkunst"
  }
},
{
  "type": "relation",
  "id": 3961153,
  "members": [
    {
      "type": "way",
      "ref": 259541535,
      "role": "inner"
    },
    {
      "type": "way",
      "ref": 103453956,
      "role": "outer"
    }
  ],
  "tags": {
    "addr:city": "Münster",
    "addr:country": "DE",
    "addr:housenumber": "10",
    "addr:postcode": "48143",
    "addr:street": "Domplatz",
    "building": "civic",
    "building:colour": "#e7decf",
    "building:levels": "2",
    "building:material": "sandstone",
    "closed": "yes",
    "name": "LWL-Museum für Kunst und Kultur",
    "name:en": "Westphalian State Museum of Art and Cultural History",
    "note": "Blindenleitsystem zum Haupteingang",
    "official_name": "Westfälisches Landesmuseum für Kunst und Kulturgeschichte Münster",
    "old_name": "Westfälisches Landesmuseum für Kunst und Kulturgeschichte",
    "open_date": "2014-09-20",
    "opening_hours": "Tu-Su 10:00-18:00",
    "operator": "Landschaftsverband Westfalen-Lippe",
    "operator:type": "public",
    "phone": "+49 251 5907-01",
    "roof:colour": "#b9b9b1",
    "roof:shape": "flat",
    "start_date": "1905",
    "subject": "arts;culture",
    "toilets:wheelchair": "yes",
    "tourism": "museum",
    "type": "multipolygon",
    "website": "https://www.lwl.org/LWL/Kultur/LWL-Landesmuseum-Muenster/",
    "wheelchair": "yes",
    "wikidata": "Q1798475",
    "wikipedia": "de:LWL-Museum für Kunst und Kultur",
    "year_of_construction": "2014"
  }
},
{
  "type": "node",
  "id": 602729224,
  "lat": 51.9289609,
  "lon": 7.1410858
},
{
  "type": "node",
  "id": 602729225,
  "lat": 51.9291569,
  "lon": 7.1410835
},
{
  "type": "node",
  "id": 602729260,
  "lat": 51.9289617,
  "lon": 7.1412531
},
{
  "type": "node",
  "id": 602729261,
  "lat": 51.9291572,
  "lon": 7.1411510
},
{
  "type": "node",
  "id": 602729262,
  "lat": 51.9291149,
  "lon": 7.1411515
},
{
  "type": "node",
  "id": 602729263,
  "lat": 51.9291153,
  "lon": 7.1412513
},
{
  "type": "node",
  "id": 2833856496,
  "lat": 51.9433850,
  "lon": 7.1661293
},
{
  "type": "node",
  "id": 2833856716,
  "lat": 51.9434185,
  "lon": 7.1663100
},
{
  "type": "node",
  "id": 2833856718,
  "lat": 51.9434899,
  "lon": 7.1662308
},
{
  "type": "node",
  "id": 2833856720,
  "lat": 51.9434954,
  "lon": 7.1662706
},
{
  "type": "node",
  "id": 2833858101,
  "lat": 51.9433910,
  "lon": 7.1661793
},
{
  "type": "node",
  "id": 2833858129,
  "lat": 51.9434711,
  "lon": 7.1660990
},
{
  "type": "node",
  "id": 2833858137,
  "lat": 51.9434783,
  "lon": 7.1661488
},
{
  "type": "node",
  "id": 302225800,
  "lat": 51.9472599,
  "lon": 7.1723878
},
{
  "type": "node",
  "id": 596389897,
  "lat": 51.9471846,
  "lon": 7.1725143
},
{
  "type": "node",
  "id": 596389904,
  "lat": 51.9472749,
  "lon": 7.1723340
},
{
  "type": "node",
  "id": 2836604035,
  "lat": 51.9472657,
  "lon": 7.1723943
},
{
  "type": "node",
  "id": 2836605066,
  "lat": 51.9472280,
  "lon": 7.1724617
},
{
  "type": "node",
  "id": 2836605731,
  "lat": 51.9472147,
  "lon": 7.1724656
},
{
  "type": "node",
  "id": 2836605749,
  "lat": 51.9472208,
  "lon": 7.1724742
},
{
  "type": "node",
  "id": 2836605752,
  "lat": 51.9472214,
  "lon": 7.1724533
},
{
  "type": "node",
  "id": 2836605864,
  "lat": 51.9472636,
  "lon": 7.1723723
},
{
  "type": "node",
  "id": 2836605869,
  "lat": 51.9472710,
  "lon": 7.1723793
},
{
  "type": "node",
  "id": 4795886260,
  "lat": 51.9471765,
  "lon": 7.1724931
},
{
  "type": "node",
  "id": 4795886261,
  "lat": 51.9471724,
  "lon": 7.1724979
},
{
  "type": "node",
  "id": 4795886262,
  "lat": 51.9471366,
  "lon": 7.1724065
},
{
  "type": "node",
  "id": 4795886263,
  "lat": 51.9471726,
  "lon": 7.1723689
},
{
  "type": "node",
  "id": 4795886264,
  "lat": 51.9472282,
  "lon": 7.1722758
},
{
  "type": "node",
  "id": 4795886316,
  "lat": 51.9472332,
  "lon": 7.1722827
},
{
  "type": "node",
  "id": 434349039,
  "lat": 51.9376898,
  "lon": 7.1877986
},
{
  "type": "node",
  "id": 434349040,
  "lat": 51.9377729,
  "lon": 7.1877163
},
{
  "type": "node",
  "id": 434349041,
  "lat": 51.9378168,
  "lon": 7.1878327
},
{
  "type": "node",
  "id": 434349042,
  "lat": 51.9377337,
  "lon": 7.1879150
},
{
  "type": "node",
  "id": 2295979929,
  "lat": 51.9732162,
  "lon": 7.2884022
},
{
  "type": "node",
  "id": 3230182504,
  "lat": 51.9731482,
  "lon": 7.2884844
},
{
  "type": "node",
  "id": 3230182505,
  "lat": 51.9731520,
  "lon": 7.2884670
},
{
  "type": "node",
  "id": 3230182506,
  "lat": 51.9731532,
  "lon": 7.2885175
},
{
  "type": "node",
  "id": 3230182507,
  "lat": 51.9731542,
  "lon": 7.2884820
},
{
  "type": "node",
  "id": 3230182508,
  "lat": 51.9731591,
  "lon": 7.2885152
},
{
  "type": "node",
  "id": 3230182509,
  "lat": 51.9731614,
  "lon": 7.2885303
},
{
  "type": "node",
  "id": 3230182510,
  "lat": 51.9731774,
  "lon": 7.2884447
},
{
  "type": "node",
  "id": 3230182511,
  "lat": 51.9731783,
  "lon": 7.2884585
},
{
  "type": "node",
  "id": 3230182512,
  "lat": 51.9731836,
  "lon": 7.2885217
},
{
  "type": "node",
  "id": 3230182513,
  "lat": 51.9731920,
  "lon": 7.2885542
},
{
  "type": "node",
  "id": 3230182514,
  "lat": 51.9732552,
  "lon": 7.2886956
},
{
  "type": "node",
  "id": 3230182515,
  "lat": 51.9733035,
  "lon": 7.2886379
},
{
  "type": "node",
  "id": 3230182516,
  "lat": 51.9733043,
  "lon": 7.2883048
},
{
  "type": "node",
  "id": 3230182517,
  "lat": 51.9733969,
  "lon": 7.2884960
},
{
  "type": "node",
  "id": 2962654375,
  "lat": 51.8406552,
  "lon": 7.4010560
},
{
  "type": "node",
  "id": 2962654376,
  "lat": 51.8405866,
  "lon": 7.4009147
},
{
  "type": "node",
  "id": 2962654377,
  "lat": 51.8404971,
  "lon": 7.4010452
},
{
  "type": "node",
  "id": 2962654378,
  "lat": 51.8405633,
  "lon": 7.4011187
},
{
  "type": "node",
  "id": 2962654379,
  "lat": 51.8405875,
  "lon": 7.4010743
},
{
  "type": "node",
  "id": 2962654380,
  "lat": 51.8406205,
  "lon": 7.4011239
},
{
  "type": "node",
  "id": 3050076628,
  "lat": 51.8405072,
  "lon": 7.4010329
},
{
  "type": "node",
  "id": 2720705016,
  "lat": 51.9791094,
  "lon": 7.4072347
},
{
  "type": "node",
  "id": 2720705018,
  "lat": 51.9791607,
  "lon": 7.4073820
},
{
  "type": "node",
  "id": 2720705028,
  "lat": 51.9793568,
  "lon": 7.4072051
},
{
  "type": "node",
  "id": 2720705030,
  "lat": 51.9793056,
  "lon": 7.4070570
},
{
  "type": "node",
  "id": 2949645078,
  "lat": 51.9792421,
  "lon": 7.4073086
},
{
  "type": "node",
  "id": 2949645091,
  "lat": 51.9793297,
  "lon": 7.4072295
},
{
  "type": "node",
  "id": 3427389545,
  "lat": 52.0171714,
  "lon": 7.4433592
},
{
  "type": "node",
  "id": 3427389546,
  "lat": 52.0172692,
  "lon": 7.4429234
},
{
  "type": "node",
  "id": 3427389547,
  "lat": 52.0172714,
  "lon": 7.4429248
},
{
  "type": "node",
  "id": 3427389548,
  "lat": 52.0172786,
  "lon": 7.4428826
},
{
  "type": "node",
  "id": 3427389549,
  "lat": 52.0174044,
  "lon": 7.4429679
},
{
  "type": "node",
  "id": 3427389550,
  "lat": 52.0174060,
  "lon": 7.4429611
},
{
  "type": "node",
  "id": 3427389553,
  "lat": 52.0175049,
  "lon": 7.4435609
},
{
  "type": "node",
  "id": 3427389557,
  "lat": 52.0176122,
  "lon": 7.4430942
},
{
  "type": "node",
  "id": 3231217484,
  "lat": 52.0539777,
  "lon": 7.1448565
},
{
  "type": "node",
  "id": 3231217501,
  "lat": 52.0540000,
  "lon": 7.1447536
},
{
  "type": "node",
  "id": 3231217503,
  "lat": 52.0540044,
  "lon": 7.1447562
},
{
  "type": "node",
  "id": 3231217510,
  "lat": 52.0540093,
  "lon": 7.1447313
},
{
  "type": "node",
  "id": 3231217521,
  "lat": 52.0540191,
  "lon": 7.1448803
},
{
  "type": "node",
  "id": 3231217529,
  "lat": 52.0540356,
  "lon": 7.1447741
},
{
  "type": "node",
  "id": 3231217530,
  "lat": 52.0540378,
  "lon": 7.1447663
},
{
  "type": "node",
  "id": 3231217533,
  "lat": 52.0540415,
  "lon": 7.1447777
},
{
  "type": "node",
  "id": 3517900318,
  "lat": 52.0271196,
  "lon": 7.2830992
},
{
  "type": "node",
  "id": 3517900319,
  "lat": 52.0271219,
  "lon": 7.2834044
},
{
  "type": "node",
  "id": 3517900320,
  "lat": 52.0271242,
  "lon": 7.2837103
},
{
  "type": "node",
  "id": 3517900322,
  "lat": 52.0272666,
  "lon": 7.2830969
},
{
  "type": "node",
  "id": 3517900323,
  "lat": 52.0272697,
  "lon": 7.2837075
},
{
  "type": "node",
  "id": 3338118984,
  "lat": 52.1038383,
  "lon": 7.2915010
},
{
  "type": "node",
  "id": 3338118986,
  "lat": 52.1038759,
  "lon": 7.2913766
},
{
  "type": "node",
  "id": 3338119194,
  "lat": 52.1039549,
  "lon": 7.2915934
},
{
  "type": "node",
  "id": 3338119198,
  "lat": 52.1039925,
  "lon": 7.2914687
},
{
  "type": "node",
  "id": 3368385075,
  "lat": 52.1047620,
  "lon": 7.3337478
},
{
  "type": "node",
  "id": 3368385076,
  "lat": 52.1047507,
  "lon": 7.3338216
},
{
  "type": "node",
  "id": 3368385077,
  "lat": 52.1047050,
  "lon": 7.3338037
},
{
  "type": "node",
  "id": 3368385078,
  "lat": 52.1047163,
  "lon": 7.3337299
},
{
  "type": "node",
  "id": 3255045878,
  "lat": 52.1461663,
  "lon": 7.2145382
},
{
  "type": "node",
  "id": 3255045879,
  "lat": 52.1461690,
  "lon": 7.2145055
},
{
  "type": "node",
  "id": 3255045882,
  "lat": 52.1461720,
  "lon": 7.2145073
},
{
  "type": "node",
  "id": 3255045902,
  "lat": 52.1461937,
  "lon": 7.2145619
},
{
  "type": "node",
  "id": 3255045944,
  "lat": 52.1462506,
  "lon": 7.2145902
},
{
  "type": "node",
  "id": 3255045948,
  "lat": 52.1462527,
  "lon": 7.2140697
},
{
  "type": "node",
  "id": 3255045966,
  "lat": 52.1462805,
  "lon": 7.2144295
},
{
  "type": "node",
  "id": 3255045971,
  "lat": 52.1462873,
  "lon": 7.2144329
},
{
  "type": "node",
  "id": 3255046003,
  "lat": 52.1463142,
  "lon": 7.2142934
},
{
  "type": "node",
  "id": 3255046030,
  "lat": 52.1463413,
  "lon": 7.2141510
},
{
  "type": "node",
  "id": 3255046033,
  "lat": 52.1463477,
  "lon": 7.2141179
},
{
  "type": "node",
  "id": 3255046043,
  "lat": 52.1463560,
  "lon": 7.2143146
},
{
  "type": "node",
  "id": 3255046074,
  "lat": 52.1463834,
  "lon": 7.2141724
},
{
  "type": "node",
  "id": 358047901,
  "lat": 52.1623652,
  "lon": 7.2544386
},
{
  "type": "node",
  "id": 2079968144,
  "lat": 52.1621220,
  "lon": 7.2543557
},
{
  "type": "node",
  "id": 2079968146,
  "lat": 52.1623088,
  "lon": 7.2537576
},
{
  "type": "node",
  "id": 2079968149,
  "lat": 52.1622402,
  "lon": 7.2545231
},
{
  "type": "node",
  "id": 2471534298,
  "lat": 52.1624353,
  "lon": 7.2538061
},
{
  "type": "node",
  "id": 369108367,
  "lat": 52.1620055,
  "lon": 7.2567084
},
{
  "type": "node",
  "id": 1394006201,
  "lat": 52.1619105,
  "lon": 7.2566814
},
{
  "type": "node",
  "id": 1394006203,
  "lat": 52.1620705,
  "lon": 7.2551181
},
{
  "type": "node",
  "id": 2079968130,
  "lat": 52.1619517,
  "lon": 7.2566906
},
{
  "type": "node",
  "id": 2079968136,
  "lat": 52.1620623,
  "lon": 7.2563144
},
{
  "type": "node",
  "id": 2895909791,
  "lat": 52.0536596,
  "lon": 7.3655707
},
{
  "type": "node",
  "id": 2895909881,
  "lat": 52.0537065,
  "lon": 7.3655219
},
{
  "type": "node",
  "id": 2895909898,
  "lat": 52.0537129,
  "lon": 7.3657058
},
{
  "type": "node",
  "id": 2895910085,
  "lat": 52.0537580,
  "lon": 7.3656595
},
{
  "type": "node",
  "id": 2895910087,
  "lat": 52.0537598,
  "lon": 7.3656573
},
{
  "type": "node",
  "id": 3381639422,
  "lat": 52.0857671,
  "lon": 7.4810007
},
{
  "type": "node",
  "id": 3381639424,
  "lat": 52.0857817,
  "lon": 7.4811454
},
{
  "type": "node",
  "id": 3381639425,
  "lat": 52.0860481,
  "lon": 7.4809298
},
{
  "type": "node",
  "id": 3381639426,
  "lat": 52.0860623,
  "lon": 7.4810711
},
{
  "type": "node",
  "id": 419766733,
  "lat": 52.0864288,
  "lon": 7.4888887
},
{
  "type": "node",
  "id": 419766735,
  "lat": 52.0864001,
  "lon": 7.4890037
},
{
  "type": "node",
  "id": 419766736,
  "lat": 52.0864586,
  "lon": 7.4890423
},
{
  "type": "node",
  "id": 419766738,
  "lat": 52.0864873,
  "lon": 7.4889273
},
{
  "type": "node",
  "id": 3114700927,
  "lat": 51.6632214,
  "lon": 7.6342251
},
{
  "type": "node",
  "id": 3114701073,
  "lat": 51.6632759,
  "lon": 7.6342627
},
{
  "type": "node",
  "id": 3114701075,
  "lat": 51.6632764,
  "lon": 7.6342616
},
{
  "type": "node",
  "id": 3114701084,
  "lat": 51.6632972,
  "lon": 7.6342747
},
{
  "type": "node",
  "id": 3114701085,
  "lat": 51.6632979,
  "lon": 7.6342722
},
{
  "type": "node",
  "id": 3114701090,
  "lat": 51.6633149,
  "lon": 7.6342178
},
{
  "type": "node",
  "id": 3114701091,
  "lat": 51.6633153,
  "lon": 7.6342165
},
{
  "type": "node",
  "id": 3114701105,
  "lat": 51.6633396,
  "lon": 7.6343002
},
{
  "type": "node",
  "id": 3114701106,
  "lat": 51.6633403,
  "lon": 7.6342987
},
{
  "type": "node",
  "id": 3114701115,
  "lat": 51.6633583,
  "lon": 7.6342461
},
{
  "type": "node",
  "id": 3114701233,
  "lat": 51.6632384,
  "lon": 7.6341638
},
{
  "type": "node",
  "id": 3114701237,
  "lat": 51.6632503,
  "lon": 7.6341723
},
{
  "type": "node",
  "id": 3114701238,
  "lat": 51.6632521,
  "lon": 7.6341655
},
{
  "type": "node",
  "id": 3114701242,
  "lat": 51.6632586,
  "lon": 7.6341797
},
{
  "type": "node",
  "id": 3114701243,
  "lat": 51.6632608,
  "lon": 7.6341712
},
{
  "type": "node",
  "id": 750503216,
  "lat": 51.8012625,
  "lon": 7.7320863
},
{
  "type": "node",
  "id": 750503223,
  "lat": 51.8011973,
  "lon": 7.7321290
},
{
  "type": "node",
  "id": 750503252,
  "lat": 51.8013277,
  "lon": 7.7323466
},
{
  "type": "node",
  "id": 750503253,
  "lat": 51.8012506,
  "lon": 7.7323970
},
{
  "type": "node",
  "id": 4596437364,
  "lat": 51.8012287,
  "lon": 7.7322544
},
{
  "type": "node",
  "id": 4596437365,
  "lat": 51.8012168,
  "lon": 7.7322622
},
{
  "type": "node",
  "id": 2646157557,
  "lat": 51.6766293,
  "lon": 7.8110428
},
{
  "type": "node",
  "id": 2646158200,
  "lat": 51.6766737,
  "lon": 7.8106970
},
{
  "type": "node",
  "id": 2646158328,
  "lat": 51.6766821,
  "lon": 7.8106994
},
{
  "type": "node",
  "id": 2646158389,
  "lat": 51.6766908,
  "lon": 7.8106313
},
{
  "type": "node",
  "id": 2646158396,
  "lat": 51.6766918,
  "lon": 7.8106319
},
{
  "type": "node",
  "id": 2646158401,
  "lat": 51.6766937,
  "lon": 7.8106383
},
{
  "type": "node",
  "id": 2646158444,
  "lat": 51.6766993,
  "lon": 7.8106342
},
{
  "type": "node",
  "id": 2646158535,
  "lat": 51.6767083,
  "lon": 7.8105646
},
{
  "type": "node",
  "id": 2646158578,
  "lat": 51.6767111,
  "lon": 7.8105734
},
{
  "type": "node",
  "id": 2646158589,
  "lat": 51.6767165,
  "lon": 7.8105693
},
{
  "type": "node",
  "id": 2646158634,
  "lat": 51.6767253,
  "lon": 7.8105012
},
{
  "type": "node",
  "id": 2646158661,
  "lat": 51.6767264,
  "lon": 7.8105018
},
{
  "type": "node",
  "id": 2646158667,
  "lat": 51.6767281,
  "lon": 7.8105080
},
{
  "type": "node",
  "id": 2646158716,
  "lat": 51.6767336,
  "lon": 7.8105042
},
{
  "type": "node",
  "id": 2646158843,
  "lat": 51.6767425,
  "lon": 7.8104363
},
{
  "type": "node",
  "id": 2646158865,
  "lat": 51.6767435,
  "lon": 7.8104363
},
{
  "type": "node",
  "id": 2646158902,
  "lat": 51.6767456,
  "lon": 7.8104430
},
{
  "type": "node",
  "id": 2646158912,
  "lat": 51.6767499,
  "lon": 7.8103346
},
{
  "type": "node",
  "id": 2646158918,
  "lat": 51.6767510,
  "lon": 7.8104389
},
{
  "type": "node",
  "id": 2646159219,
  "lat": 51.6767598,
  "lon": 7.8103710
},
{
  "type": "node",
  "id": 2646159394,
  "lat": 51.6767808,
  "lon": 7.8103778
},
{
  "type": "node",
  "id": 2646159465,
  "lat": 51.6767839,
  "lon": 7.8103535
},
{
  "type": "node",
  "id": 2646159602,
  "lat": 51.6767958,
  "lon": 7.8110976
},
{
  "type": "node",
  "id": 2646159644,
  "lat": 51.6767995,
  "lon": 7.8111170
},
{
  "type": "node",
  "id": 2646159661,
  "lat": 51.6768070,
  "lon": 7.8111318
},
{
  "type": "node",
  "id": 2646159735,
  "lat": 51.6768173,
  "lon": 7.8111397
},
{
  "type": "node",
  "id": 2646159795,
  "lat": 51.6768287,
  "lon": 7.8111392
},
{
  "type": "node",
  "id": 2646159939,
  "lat": 51.6768393,
  "lon": 7.8111304
},
{
  "type": "node",
  "id": 2646159949,
  "lat": 51.6768473,
  "lon": 7.8111149
},
{
  "type": "node",
  "id": 2646160057,
  "lat": 51.6768747,
  "lon": 7.8097486
},
{
  "type": "node",
  "id": 2646160416,
  "lat": 51.6769121,
  "lon": 7.8097689
},
{
  "type": "node",
  "id": 2646160576,
  "lat": 51.6769319,
  "lon": 7.8099664
},
{
  "type": "node",
  "id": 2646160689,
  "lat": 51.6769488,
  "lon": 7.8100304
},
{
  "type": "node",
  "id": 2646160821,
  "lat": 51.6769586,
  "lon": 7.8098420
},
{
  "type": "node",
  "id": 2646160833,
  "lat": 51.6769591,
  "lon": 7.8099813
},
{
  "type": "node",
  "id": 2646160958,
  "lat": 51.6769725,
  "lon": 7.8107946
},
{
  "type": "node",
  "id": 2646160963,
  "lat": 51.6769733,
  "lon": 7.8107889
},
{
  "type": "node",
  "id": 2646160973,
  "lat": 51.6769754,
  "lon": 7.8107895
},
{
  "type": "node",
  "id": 2646160999,
  "lat": 51.6769762,
  "lon": 7.8107874
},
{
  "type": "node",
  "id": 2646161002,
  "lat": 51.6769765,
  "lon": 7.8107877
},
{
  "type": "node",
  "id": 2646161011,
  "lat": 51.6769790,
  "lon": 7.8100364
},
{
  "type": "node",
  "id": 2646161071,
  "lat": 51.6769813,
  "lon": 7.8100187
},
{
  "type": "node",
  "id": 2646161159,
  "lat": 51.6769942,
  "lon": 7.8106473
},
{
  "type": "node",
  "id": 2646161192,
  "lat": 51.6769986,
  "lon": 7.8106471
},
{
  "type": "node",
  "id": 2646161193,
  "lat": 51.6769988,
  "lon": 7.8106111
},
{
  "type": "node",
  "id": 2646161207,
  "lat": 51.6770025,
  "lon": 7.8106442
},
{
  "type": "node",
  "id": 2646161213,
  "lat": 51.6770027,
  "lon": 7.8106142
},
{
  "type": "node",
  "id": 2646161233,
  "lat": 51.6770056,
  "lon": 7.8106392
},
{
  "type": "node",
  "id": 2646161234,
  "lat": 51.6770057,
  "lon": 7.8106193
},
{
  "type": "node",
  "id": 2646161249,
  "lat": 51.6770072,
  "lon": 7.8106328
},
{
  "type": "node",
  "id": 2646161254,
  "lat": 51.6770073,
  "lon": 7.8106258
},
{
  "type": "node",
  "id": 2646161279,
  "lat": 51.6770145,
  "lon": 7.8104680
},
{
  "type": "node",
  "id": 2646161280,
  "lat": 51.6770152,
  "lon": 7.8104626
},
{
  "type": "node",
  "id": 2646161300,
  "lat": 51.6770173,
  "lon": 7.8104691
},
{
  "type": "node",
  "id": 2646161464,
  "lat": 51.6770613,
  "lon": 7.8101162
},
{
  "type": "node",
  "id": 2646161507,
  "lat": 51.6770699,
  "lon": 7.8100483
},
{
  "type": "node",
  "id": 2646161627,
  "lat": 51.6770889,
  "lon": 7.8108334
},
{
  "type": "node",
  "id": 2646161725,
  "lat": 51.6770950,
  "lon": 7.8101978
},
{
  "type": "node",
  "id": 2646161793,
  "lat": 51.6771037,
  "lon": 7.8101300
},
{
  "type": "node",
  "id": 2646161844,
  "lat": 51.6771088,
  "lon": 7.8108400
},
{
  "type": "node",
  "id": 2646161865,
  "lat": 51.6771105,
  "lon": 7.8108261
},
{
  "type": "node",
  "id": 2646161929,
  "lat": 51.6771284,
  "lon": 7.8102803
},
{
  "type": "node",
  "id": 2646161945,
  "lat": 51.6771341,
  "lon": 7.8105019
},
{
  "type": "node",
  "id": 2646161967,
  "lat": 51.6771372,
  "lon": 7.8102123
},
{
  "type": "node",
  "id": 2646161989,
  "lat": 51.6771408,
  "lon": 7.8112121
},
{
  "type": "node",
  "id": 2646162009,
  "lat": 51.6771437,
  "lon": 7.8105042
},
{
  "type": "node",
  "id": 2646162164,
  "lat": 51.6771581,
  "lon": 7.8110769
},
{
  "type": "node",
  "id": 2646162228,
  "lat": 51.6771611,
  "lon": 7.8103685
},
{
  "type": "node",
  "id": 2646162353,
  "lat": 51.6771706,
  "lon": 7.8102941
},
{
  "type": "node",
  "id": 2646162400,
  "lat": 51.6771766,
  "lon": 7.8110042
},
{
  "type": "node",
  "id": 2646162536,
  "lat": 51.6771958,
  "lon": 7.8108541
},
{
  "type": "node",
  "id": 2646162575,
  "lat": 51.6772004,
  "lon": 7.8110908
},
{
  "type": "node",
  "id": 2646162632,
  "lat": 51.6772101,
  "lon": 7.8110153
},
{
  "type": "node",
  "id": 370856594,
  "lat": 51.7632666,
  "lon": 7.8855117
},
{
  "type": "node",
  "id": 370856598,
  "lat": 51.7634388,
  "lon": 7.8855007
},
{
  "type": "node",
  "id": 370856601,
  "lat": 51.7635189,
  "lon": 7.8855751
},
{
  "type": "node",
  "id": 370856613,
  "lat": 51.7633543,
  "lon": 7.8860158
},
{
  "type": "node",
  "id": 370856617,
  "lat": 51.7633424,
  "lon": 7.8858020
},
{
  "type": "node",
  "id": 370856620,
  "lat": 51.7632694,
  "lon": 7.8858026
},
{
  "type": "node",
  "id": 3104204662,
  "lat": 51.7615163,
  "lon": 7.8887520
},
{
  "type": "node",
  "id": 3104204663,
  "lat": 51.7615274,
  "lon": 7.8888618
},
{
  "type": "node",
  "id": 3104204664,
  "lat": 51.7615593,
  "lon": 7.8891087
},
{
  "type": "node",
  "id": 3104204665,
  "lat": 51.7616182,
  "lon": 7.8887214
},
{
  "type": "node",
  "id": 3104204666,
  "lat": 51.7616594,
  "lon": 7.8890787
},
{
  "type": "node",
  "id": 3145841352,
  "lat": 51.7631270,
  "lon": 7.8856163
},
{
  "type": "node",
  "id": 3145841353,
  "lat": 51.7631275,
  "lon": 7.8856530
},
{
  "type": "node",
  "id": 3145841354,
  "lat": 51.7631314,
  "lon": 7.8856592
},
{
  "type": "node",
  "id": 3145841355,
  "lat": 51.7631333,
  "lon": 7.8857437
},
{
  "type": "node",
  "id": 3145841356,
  "lat": 51.7631343,
  "lon": 7.8858068
},
{
  "type": "node",
  "id": 3145841357,
  "lat": 51.7631351,
  "lon": 7.8856627
},
{
  "type": "node",
  "id": 3145841358,
  "lat": 51.7631364,
  "lon": 7.8857432
},
{
  "type": "node",
  "id": 3145841360,
  "lat": 51.7631479,
  "lon": 7.8855777
},
{
  "type": "node",
  "id": 3145841365,
  "lat": 51.7631581,
  "lon": 7.8859480
},
{
  "type": "node",
  "id": 3145841367,
  "lat": 51.7631609,
  "lon": 7.8860328
},
{
  "type": "node",
  "id": 3145841369,
  "lat": 51.7631704,
  "lon": 7.8858428
},
{
  "type": "node",
  "id": 3145841373,
  "lat": 51.7631718,
  "lon": 7.8855773
},
{
  "type": "node",
  "id": 3145841374,
  "lat": 51.7631737,
  "lon": 7.8858023
},
{
  "type": "node",
  "id": 3145841375,
  "lat": 51.7631737,
  "lon": 7.8858042
},
{
  "type": "node",
  "id": 3145841376,
  "lat": 51.7631739,
  "lon": 7.8859466
},
{
  "type": "node",
  "id": 3145841377,
  "lat": 51.7631760,
  "lon": 7.8860316
},
{
  "type": "node",
  "id": 3145841378,
  "lat": 51.7631768,
  "lon": 7.8860611
},
{
  "type": "node",
  "id": 3145841379,
  "lat": 51.7631772,
  "lon": 7.8855824
},
{
  "type": "node",
  "id": 3145841381,
  "lat": 51.7631795,
  "lon": 7.8858019
},
{
  "type": "node",
  "id": 3145841382,
  "lat": 51.7631807,
  "lon": 7.8858419
},
{
  "type": "node",
  "id": 3145841391,
  "lat": 51.7632253,
  "lon": 7.8857999
},
{
  "type": "node",
  "id": 3145841392,
  "lat": 51.7632263,
  "lon": 7.8855768
},
{
  "type": "node",
  "id": 3145841393,
  "lat": 51.7632263,
  "lon": 7.8855811
},
{
  "type": "node",
  "id": 3145841394,
  "lat": 51.7632264,
  "lon": 7.8858384
},
{
  "type": "node",
  "id": 3145841397,
  "lat": 51.7632334,
  "lon": 7.8860281
},
{
  "type": "node",
  "id": 3145841398,
  "lat": 51.7632342,
  "lon": 7.8860569
},
{
  "type": "node",
  "id": 3145841405,
  "lat": 51.7632532,
  "lon": 7.8858364
},
{
  "type": "node",
  "id": 3145841406,
  "lat": 51.7632553,
  "lon": 7.8859060
},
{
  "type": "node",
  "id": 3145841407,
  "lat": 51.7632662,
  "lon": 7.8857980
},
{
  "type": "node",
  "id": 3145841408,
  "lat": 51.7632673,
  "lon": 7.8856381
},
{
  "type": "node",
  "id": 3145841409,
  "lat": 51.7632678,
  "lon": 7.8855754
},
{
  "type": "node",
  "id": 3145841410,
  "lat": 51.7632690,
  "lon": 7.8856377
},
{
  "type": "node",
  "id": 3145841411,
  "lat": 51.7632691,
  "lon": 7.8857948
},
{
  "type": "node",
  "id": 3145841412,
  "lat": 51.7632714,
  "lon": 7.8857893
},
{
  "type": "node",
  "id": 3145841629,
  "lat": 51.7633252,
  "lon": 7.8858998
},
{
  "type": "node",
  "id": 3145841630,
  "lat": 51.7633289,
  "lon": 7.8860185
},
{
  "type": "node",
  "id": 3118047576,
  "lat": 51.7585298,
  "lon": 7.9027942
},
{
  "type": "node",
  "id": 3118047577,
  "lat": 51.7585308,
  "lon": 7.9028067
},
{
  "type": "node",
  "id": 3118047580,
  "lat": 51.7585371,
  "lon": 7.9028832
},
{
  "type": "node",
  "id": 3118047581,
  "lat": 51.7585388,
  "lon": 7.9027922
},
{
  "type": "node",
  "id": 3118047607,
  "lat": 51.7586090,
  "lon": 7.9028682
},
{
  "type": "node",
  "id": 3118047608,
  "lat": 51.7586102,
  "lon": 7.9027464
},
{
  "type": "node",
  "id": 3118047612,
  "lat": 51.7586126,
  "lon": 7.9027768
},
{
  "type": "node",
  "id": 3118047625,
  "lat": 51.7586444,
  "lon": 7.9028608
},
{
  "type": "node",
  "id": 3118047627,
  "lat": 51.7586482,
  "lon": 7.9027250
},
{
  "type": "node",
  "id": 3118047629,
  "lat": 51.7586493,
  "lon": 7.9027382
},
{
  "type": "node",
  "id": 3118047640,
  "lat": 51.7586792,
  "lon": 7.9027185
},
{
  "type": "node",
  "id": 3118047641,
  "lat": 51.7586818,
  "lon": 7.9027511
},
{
  "type": "node",
  "id": 3118047651,
  "lat": 51.7587093,
  "lon": 7.9027453
},
{
  "type": "node",
  "id": 3118047653,
  "lat": 51.7587174,
  "lon": 7.9028453
},
{
  "type": "node",
  "id": 370856605,
  "lat": 51.7637595,
  "lon": 7.8858749
},
{
  "type": "node",
  "id": 370856610,
  "lat": 51.7636263,
  "lon": 7.8859932
},
{
  "type": "node",
  "id": 2684789500,
  "lat": 51.7636632,
  "lon": 7.8857461
},
{
  "type": "node",
  "id": 3024420959,
  "lat": 51.8762508,
  "lon": 7.5655666
},
{
  "type": "node",
  "id": 3024420960,
  "lat": 51.8762717,
  "lon": 7.5653859
},
{
  "type": "node",
  "id": 3024420963,
  "lat": 51.8762888,
  "lon": 7.5653958
},
{
  "type": "node",
  "id": 3024420964,
  "lat": 51.8763034,
  "lon": 7.5652436
},
{
  "type": "node",
  "id": 3024420966,
  "lat": 51.8763205,
  "lon": 7.5652535
},
{
  "type": "node",
  "id": 3024420968,
  "lat": 51.8763218,
  "lon": 7.5652098
},
{
  "type": "node",
  "id": 3024420969,
  "lat": 51.8763285,
  "lon": 7.5652176
},
{
  "type": "node",
  "id": 3024420970,
  "lat": 51.8763309,
  "lon": 7.5651688
},
{
  "type": "node",
  "id": 3024420971,
  "lat": 51.8763325,
  "lon": 7.5656416
},
{
  "type": "node",
  "id": 3024420972,
  "lat": 51.8763369,
  "lon": 7.5651758
},
{
  "type": "node",
  "id": 3024420973,
  "lat": 51.8763379,
  "lon": 7.5656173
},
{
  "type": "node",
  "id": 3024420974,
  "lat": 51.8763401,
  "lon": 7.5651279
},
{
  "type": "node",
  "id": 3024420975,
  "lat": 51.8763461,
  "lon": 7.5651348
},
{
  "type": "node",
  "id": 3024420976,
  "lat": 51.8763492,
  "lon": 7.5650872
},
{
  "type": "node",
  "id": 3024420978,
  "lat": 51.8763552,
  "lon": 7.5650941
},
{
  "type": "node",
  "id": 3024420979,
  "lat": 51.8763582,
  "lon": 7.5650462
},
{
  "type": "node",
  "id": 3024420981,
  "lat": 51.8763643,
  "lon": 7.5650533
},
{
  "type": "node",
  "id": 3024420982,
  "lat": 51.8763749,
  "lon": 7.5650088
},
{
  "type": "node",
  "id": 3024420983,
  "lat": 51.8763805,
  "lon": 7.5656695
},
{
  "type": "node",
  "id": 3024420984,
  "lat": 51.8763856,
  "lon": 7.5650150
},
{
  "type": "node",
  "id": 3024420986,
  "lat": 51.8763952,
  "lon": 7.5649721
},
{
  "type": "node",
  "id": 3024420990,
  "lat": 51.8764091,
  "lon": 7.5655412
},
{
  "type": "node",
  "id": 3024420997,
  "lat": 51.8764357,
  "lon": 7.5655567
},
{
  "type": "node",
  "id": 3024420998,
  "lat": 51.8764360,
  "lon": 7.5654184
},
{
  "type": "node",
  "id": 3024421001,
  "lat": 51.8764406,
  "lon": 7.5653976
},
{
  "type": "node",
  "id": 3024421003,
  "lat": 51.8764499,
  "lon": 7.5653564
},
{
  "type": "node",
  "id": 3024421004,
  "lat": 51.8764510,
  "lon": 7.5654037
},
{
  "type": "node",
  "id": 3024421005,
  "lat": 51.8764602,
  "lon": 7.5653624
},
{
  "type": "node",
  "id": 3024421007,
  "lat": 51.8764630,
  "lon": 7.5654341
},
{
  "type": "node",
  "id": 3024421013,
  "lat": 51.8765194,
  "lon": 7.5650443
},
{
  "type": "node",
  "id": 3997834923,
  "lat": 51.8778958,
  "lon": 7.6494670
},
{
  "type": "node",
  "id": 3997834928,
  "lat": 51.8779374,
  "lon": 7.6493296
},
{
  "type": "node",
  "id": 3997834934,
  "lat": 51.8779673,
  "lon": 7.6495236
},
{
  "type": "node",
  "id": 3997834936,
  "lat": 51.8779999,
  "lon": 7.6494145
},
{
  "type": "node",
  "id": 3997834938,
  "lat": 51.8780001,
  "lon": 7.6494150
},
{
  "type": "node",
  "id": 3997834943,
  "lat": 51.8780085,
  "lon": 7.6493868
},
{
  "type": "node",
  "id": 4202929593,
  "lat": 51.9028437,
  "lon": 7.6535897
},
{
  "type": "node",
  "id": 4202929594,
  "lat": 51.9028919,
  "lon": 7.6538785
},
{
  "type": "node",
  "id": 4202929595,
  "lat": 51.9030000,
  "lon": 7.6538310
},
{
  "type": "node",
  "id": 4202929596,
  "lat": 51.9029999,
  "lon": 7.6538309
},
{
  "type": "node",
  "id": 4202929610,
  "lat": 51.9033525,
  "lon": 7.6536050
},
{
  "type": "node",
  "id": 4202929611,
  "lat": 51.9033636,
  "lon": 7.6536710
},
{
  "type": "node",
  "id": 4202929612,
  "lat": 51.9033999,
  "lon": 7.6535838
},
{
  "type": "node",
  "id": 4202929613,
  "lat": 51.9034000,
  "lon": 7.6535839
},
{
  "type": "node",
  "id": 4202929615,
  "lat": 51.9034673,
  "lon": 7.6535543
},
{
  "type": "node",
  "id": 4202929616,
  "lat": 51.9034783,
  "lon": 7.6536193
},
{
  "type": "node",
  "id": 4202929617,
  "lat": 51.9036277,
  "lon": 7.6532446
},
{
  "type": "node",
  "id": 4202929618,
  "lat": 51.9036761,
  "lon": 7.6535321
},
{
  "type": "node",
  "id": 4679851700,
  "lat": 51.8352466,
  "lon": 7.6803847
},
{
  "type": "node",
  "id": 4679851701,
  "lat": 51.8353014,
  "lon": 7.6805391
},
{
  "type": "node",
  "id": 4679851702,
  "lat": 51.8354780,
  "lon": 7.6804570
},
{
  "type": "node",
  "id": 4679851703,
  "lat": 51.8354170,
  "lon": 7.6805497
},
{
  "type": "node",
  "id": 4679851706,
  "lat": 51.8353704,
  "lon": 7.6804811
},
{
  "type": "node",
  "id": 4679851707,
  "lat": 51.8353453,
  "lon": 7.6805206
},
{
  "type": "node",
  "id": 4679851708,
  "lat": 51.8353159,
  "lon": 7.6805634
},
{
  "type": "node",
  "id": 4679851709,
  "lat": 51.8352262,
  "lon": 7.6804144
},
{
  "type": "node",
  "id": 4679851710,
  "lat": 51.8353433,
  "lon": 7.6802384
},
{
  "type": "node",
  "id": 2862976931,
  "lat": 51.9176451,
  "lon": 7.7295555
},
{
  "type": "node",
  "id": 2862976932,
  "lat": 51.9176489,
  "lon": 7.7297342
},
{
  "type": "node",
  "id": 2862976941,
  "lat": 51.9177187,
  "lon": 7.7295522
},
{
  "type": "node",
  "id": 2862976943,
  "lat": 51.9177211,
  "lon": 7.7296695
},
{
  "type": "node",
  "id": 2862976944,
  "lat": 51.9177222,
  "lon": 7.7297308
},
{
  "type": "node",
  "id": 2862976949,
  "lat": 51.9177463,
  "lon": 7.7295512
},
{
  "type": "node",
  "id": 2862976950,
  "lat": 51.9177480,
  "lon": 7.7296518
},
{
  "type": "node",
  "id": 2862976953,
  "lat": 51.9177505,
  "lon": 7.7296513
},
{
  "type": "node",
  "id": 2862976954,
  "lat": 51.9177509,
  "lon": 7.7296683
},
{
  "type": "node",
  "id": 3059722505,
  "lat": 51.9470000,
  "lon": 7.5879149
},
{
  "type": "node",
  "id": 3059722506,
  "lat": 51.9470131,
  "lon": 7.5880078
},
{
  "type": "node",
  "id": 3059722507,
  "lat": 51.9470132,
  "lon": 7.5879996
},
{
  "type": "node",
  "id": 3059722509,
  "lat": 51.9470143,
  "lon": 7.5878625
},
{
  "type": "node",
  "id": 3059722511,
  "lat": 51.9470200,
  "lon": 7.5880000
},
{
  "type": "node",
  "id": 3059722512,
  "lat": 51.9470275,
  "lon": 7.5879296
},
{
  "type": "node",
  "id": 3059722513,
  "lat": 51.9470345,
  "lon": 7.5878126
},
{
  "type": "node",
  "id": 3059722514,
  "lat": 51.9470541,
  "lon": 7.5877796
},
{
  "type": "node",
  "id": 3059722515,
  "lat": 51.9470625,
  "lon": 7.5880096
},
{
  "type": "node",
  "id": 3059722516,
  "lat": 51.9470669,
  "lon": 7.5880599
},
{
  "type": "node",
  "id": 3059722517,
  "lat": 51.9470789,
  "lon": 7.5881068
},
{
  "type": "node",
  "id": 3059722518,
  "lat": 51.9470818,
  "lon": 7.5877456
},
{
  "type": "node",
  "id": 3059722519,
  "lat": 51.9470980,
  "lon": 7.5881471
},
{
  "type": "node",
  "id": 3059722520,
  "lat": 51.9471153,
  "lon": 7.5877187
},
{
  "type": "node",
  "id": 3059722521,
  "lat": 51.9471228,
  "lon": 7.5881780
},
{
  "type": "node",
  "id": 3950434980,
  "lat": 51.9470236,
  "lon": 7.5879662
},
{
  "type": "node",
  "id": 3059722523,
  "lat": 51.9471422,
  "lon": 7.5877058
},
{
  "type": "node",
  "id": 3059722525,
  "lat": 51.9471517,
  "lon": 7.5881974
},
{
  "type": "node",
  "id": 3059722529,
  "lat": 51.9471775,
  "lon": 7.5876994
},
{
  "type": "node",
  "id": 3059722531,
  "lat": 51.9471828,
  "lon": 7.5882040
},
{
  "type": "node",
  "id": 3059723835,
  "lat": 51.9472066,
  "lon": 7.5877021
},
{
  "type": "node",
  "id": 3059723836,
  "lat": 51.9472138,
  "lon": 7.5881974
},
{
  "type": "node",
  "id": 3059723839,
  "lat": 51.9472428,
  "lon": 7.5881780
},
{
  "type": "node",
  "id": 3059723847,
  "lat": 51.9472677,
  "lon": 7.5881472
},
{
  "type": "node",
  "id": 3059723848,
  "lat": 51.9472683,
  "lon": 7.5878720
},
{
  "type": "node",
  "id": 3059723850,
  "lat": 51.9472868,
  "lon": 7.5881069
},
{
  "type": "node",
  "id": 3059723851,
  "lat": 51.9472873,
  "lon": 7.5879124
},
{
  "type": "node",
  "id": 3059723852,
  "lat": 51.9472876,
  "lon": 7.5878460
},
{
  "type": "node",
  "id": 3059723855,
  "lat": 51.9472989,
  "lon": 7.5880601
},
{
  "type": "node",
  "id": 3059723856,
  "lat": 51.9472992,
  "lon": 7.5879594
},
{
  "type": "node",
  "id": 3059723858,
  "lat": 51.9473031,
  "lon": 7.5880097
},
{
  "type": "node",
  "id": 3059723859,
  "lat": 51.9473056,
  "lon": 7.5878255
},
{
  "type": "node",
  "id": 3059723860,
  "lat": 51.9473122,
  "lon": 7.5878194
},
{
  "type": "node",
  "id": 3059723862,
  "lat": 51.9473176,
  "lon": 7.5878375
},
{
  "type": "node",
  "id": 3059723866,
  "lat": 51.9473528,
  "lon": 7.5877871
},
{
  "type": "node",
  "id": 3059723868,
  "lat": 51.9473583,
  "lon": 7.5878054
},
{
  "type": "node",
  "id": 3059723870,
  "lat": 51.9473621,
  "lon": 7.5877816
},
{
  "type": "node",
  "id": 3059723872,
  "lat": 51.9473675,
  "lon": 7.5878022
},
{
  "type": "node",
  "id": 3059723875,
  "lat": 51.9473772,
  "lon": 7.5878202
},
{
  "type": "node",
  "id": 3059723878,
  "lat": 51.9473908,
  "lon": 7.5878341
},
{
  "type": "node",
  "id": 3059723883,
  "lat": 51.9474072,
  "lon": 7.5878431
},
{
  "type": "node",
  "id": 3059723887,
  "lat": 51.9474254,
  "lon": 7.5878463
},
{
  "type": "node",
  "id": 3059723888,
  "lat": 51.9474438,
  "lon": 7.5878435
},
{
  "type": "node",
  "id": 3059723889,
  "lat": 51.9474612,
  "lon": 7.5878351
},
{
  "type": "node",
  "id": 3059723890,
  "lat": 51.9474763,
  "lon": 7.5878215
},
{
  "type": "node",
  "id": 3059723891,
  "lat": 51.9474879,
  "lon": 7.5878038
},
{
  "type": "node",
  "id": 3059723892,
  "lat": 51.9474951,
  "lon": 7.5877833
},
{
  "type": "node",
  "id": 3059723893,
  "lat": 51.9474979,
  "lon": 7.5877616
},
{
  "type": "node",
  "id": 3059723894,
  "lat": 51.9475195,
  "lon": 7.5877689
},
{
  "type": "node",
  "id": 3059723895,
  "lat": 51.9475417,
  "lon": 7.5877794
},
{
  "type": "node",
  "id": 3059723896,
  "lat": 51.9475582,
  "lon": 7.5871951
},
{
  "type": "node",
  "id": 3059723897,
  "lat": 51.9475633,
  "lon": 7.5877928
},
{
  "type": "node",
  "id": 3059723900,
  "lat": 51.9475853,
  "lon": 7.5878106
},
{
  "type": "node",
  "id": 3059723901,
  "lat": 51.9475991,
  "lon": 7.5878237
},
{
  "type": "node",
  "id": 3059723904,
  "lat": 51.9476181,
  "lon": 7.5878447
},
{
  "type": "node",
  "id": 3059723910,
  "lat": 51.9476426,
  "lon": 7.5878777
},
{
  "type": "node",
  "id": 3059724163,
  "lat": 51.9479035,
  "lon": 7.5875008
},
{
  "type": "node",
  "id": 3059724164,
  "lat": 51.9479048,
  "lon": 7.5874361
},
{
  "type": "node",
  "id": 3412721745,
  "lat": 51.9473401,
  "lon": 7.5878198
},
{
  "type": "node",
  "id": 3643273630,
  "lat": 51.9472727,
  "lon": 7.5881366
},
{
  "type": "node",
  "id": 3643273634,
  "lat": 51.9472908,
  "lon": 7.5880914
},
{
  "type": "node",
  "id": 3644827984,
  "lat": 51.9474458,
  "lon": 7.5873572
},
{
  "type": "node",
  "id": 3644827985,
  "lat": 51.9474558,
  "lon": 7.5873428
},
{
  "type": "node",
  "id": 2560168362,
  "lat": 51.9490882,
  "lon": 7.5907596
},
{
  "type": "node",
  "id": 2560168366,
  "lat": 51.9491332,
  "lon": 7.5919249
},
{
  "type": "node",
  "id": 2560168367,
  "lat": 51.9491427,
  "lon": 7.5907973
},
{
  "type": "node",
  "id": 2560168368,
  "lat": 51.9491451,
  "lon": 7.5918797
},
{
  "type": "node",
  "id": 2560168369,
  "lat": 51.9492391,
  "lon": 7.5919980
},
{
  "type": "node",
  "id": 2560168370,
  "lat": 51.9492654,
  "lon": 7.5907155
},
{
  "type": "node",
  "id": 2560168371,
  "lat": 51.9493397,
  "lon": 7.5904346
},
{
  "type": "node",
  "id": 2560168372,
  "lat": 51.9494868,
  "lon": 7.5906305
},
{
  "type": "node",
  "id": 2560168373,
  "lat": 51.9495078,
  "lon": 7.5905504
},
{
  "type": "node",
  "id": 2560168374,
  "lat": 51.9495573,
  "lon": 7.5917903
},
{
  "type": "node",
  "id": 2560168375,
  "lat": 51.9496091,
  "lon": 7.5918261
},
{
  "type": "node",
  "id": 2560168377,
  "lat": 51.9497243,
  "lon": 7.5908422
},
{
  "type": "node",
  "id": 2560168378,
  "lat": 51.9497350,
  "lon": 7.5908014
},
{
  "type": "node",
  "id": 2560168379,
  "lat": 51.9497475,
  "lon": 7.5912973
},
{
  "type": "node",
  "id": 2560168380,
  "lat": 51.9497764,
  "lon": 7.5913168
},
{
  "type": "node",
  "id": 2560168382,
  "lat": 51.9498720,
  "lon": 7.5909433
},
{
  "type": "node",
  "id": 2560170945,
  "lat": 51.9489949,
  "lon": 7.5911129
},
{
  "type": "node",
  "id": 2560170947,
  "lat": 51.9490513,
  "lon": 7.5908993
},
{
  "type": "node",
  "id": 2560170952,
  "lat": 51.9491451,
  "lon": 7.5918795
},
{
  "type": "node",
  "id": 2560170953,
  "lat": 51.9491658,
  "lon": 7.5918010
},
{
  "type": "node",
  "id": 3413149390,
  "lat": 51.9496286,
  "lon": 7.5907238
},
{
  "type": "node",
  "id": 3471555690,
  "lat": 51.9492021,
  "lon": 7.5907571
},
{
  "type": "node",
  "id": 3643097207,
  "lat": 51.9490719,
  "lon": 7.5908212
},
{
  "type": "node",
  "id": 3643097225,
  "lat": 51.9492516,
  "lon": 7.5907246
},
{
  "type": "node",
  "id": 3643097227,
  "lat": 51.9492829,
  "lon": 7.5919694
},
{
  "type": "node",
  "id": 3643097251,
  "lat": 51.9494267,
  "lon": 7.5918756
},
{
  "type": "node",
  "id": 3643097264,
  "lat": 51.9495084,
  "lon": 7.5918222
},
{
  "type": "node",
  "id": 3643097273,
  "lat": 51.9495433,
  "lon": 7.5917994
},
{
  "type": "node",
  "id": 3643097287,
  "lat": 51.9496299,
  "lon": 7.5917486
},
{
  "type": "node",
  "id": 3643097292,
  "lat": 51.9496516,
  "lon": 7.5916675
},
{
  "type": "node",
  "id": 3643097297,
  "lat": 51.9496631,
  "lon": 7.5907489
},
{
  "type": "node",
  "id": 3643097300,
  "lat": 51.9496800,
  "lon": 7.5915614
},
{
  "type": "node",
  "id": 3643097322,
  "lat": 51.9497877,
  "lon": 7.5908866
},
{
  "type": "node",
  "id": 987602540,
  "lat": 51.9497145,
  "lon": 7.5980299
},
{
  "type": "node",
  "id": 987602541,
  "lat": 51.9497463,
  "lon": 7.5978341
},
{
  "type": "node",
  "id": 987602556,
  "lat": 51.9498250,
  "lon": 7.5977758
},
{
  "type": "node",
  "id": 987602561,
  "lat": 51.9496850,
  "lon": 7.5980384
},
{
  "type": "node",
  "id": 987602582,
  "lat": 51.9500924,
  "lon": 7.5978683
},
{
  "type": "node",
  "id": 994863083,
  "lat": 51.9493768,
  "lon": 7.5985468
},
{
  "type": "node",
  "id": 994863085,
  "lat": 51.9507476,
  "lon": 7.5996399
},
{
  "type": "node",
  "id": 994863086,
  "lat": 51.9510698,
  "lon": 7.5992777
},
{
  "type": "node",
  "id": 994863091,
  "lat": 51.9499672,
  "lon": 7.5976627
},
{
  "type": "node",
  "id": 994863092,
  "lat": 51.9499708,
  "lon": 7.6006635
},
{
  "type": "node",
  "id": 994863094,
  "lat": 51.9496999,
  "lon": 7.5980463
},
{
  "type": "node",
  "id": 994863097,
  "lat": 51.9498875,
  "lon": 7.5977026
},
{
  "type": "node",
  "id": 994863098,
  "lat": 51.9490407,
  "lon": 7.5988081
},
{
  "type": "node",
  "id": 994863107,
  "lat": 51.9496556,
  "lon": 7.5981890
},
{
  "type": "node",
  "id": 994863111,
  "lat": 51.9501229,
  "lon": 7.5979092
},
{
  "type": "node",
  "id": 1108431254,
  "lat": 51.9490974,
  "lon": 7.5987195
},
{
  "type": "node",
  "id": 1118524550,
  "lat": 51.9504351,
  "lon": 7.6001261
},
{
  "type": "node",
  "id": 1118524553,
  "lat": 51.9503422,
  "lon": 7.6001551
},
{
  "type": "node",
  "id": 1118524555,
  "lat": 51.9503717,
  "lon": 7.6001439
},
{
  "type": "node",
  "id": 1243852849,
  "lat": 51.9491915,
  "lon": 7.5990867
},
{
  "type": "node",
  "id": 1243852864,
  "lat": 51.9493173,
  "lon": 7.5993834
},
{
  "type": "node",
  "id": 2352376878,
  "lat": 51.9500629,
  "lon": 7.5977271
},
{
  "type": "node",
  "id": 3646662860,
  "lat": 51.9496896,
  "lon": 7.5979393
},
{
  "type": "node",
  "id": 3646662861,
  "lat": 51.9496973,
  "lon": 7.5978930
},
{
  "type": "node",
  "id": 3646662863,
  "lat": 51.9497135,
  "lon": 7.5978522
},
{
  "type": "node",
  "id": 3646662879,
  "lat": 51.9497793,
  "lon": 7.5977999
},
{
  "type": "node",
  "id": 3646662937,
  "lat": 51.9500203,
  "lon": 7.5976884
},
{
  "type": "node",
  "id": 3646662950,
  "lat": 51.9500842,
  "lon": 7.5977962
},
{
  "type": "node",
  "id": 3646662977,
  "lat": 51.9502021,
  "lon": 7.5978342
},
{
  "type": "node",
  "id": 3646662988,
  "lat": 51.9502449,
  "lon": 7.5978055
},
{
  "type": "node",
  "id": 3646663016,
  "lat": 51.9503585,
  "lon": 7.5978181
},
{
  "type": "node",
  "id": 3647359969,
  "lat": 51.9492930,
  "lon": 7.5985913
},
{
  "type": "node",
  "id": 3647359977,
  "lat": 51.9495007,
  "lon": 7.5997402
},
{
  "type": "node",
  "id": 3647359984,
  "lat": 51.9496969,
  "lon": 7.5980717
},
{
  "type": "node",
  "id": 3647359989,
  "lat": 51.9500455,
  "lon": 7.6005770
},
{
  "type": "node",
  "id": 3647363114,
  "lat": 51.9505853,
  "lon": 7.5982785
},
{
  "type": "node",
  "id": 3647363115,
  "lat": 51.9506045,
  "lon": 7.5983216
},
{
  "type": "node",
  "id": 3647363132,
  "lat": 51.9508530,
  "lon": 7.5995674
},
{
  "type": "node",
  "id": 3647460222,
  "lat": 51.9492107,
  "lon": 7.5986452
},
{
  "type": "node",
  "id": 3647460256,
  "lat": 51.9496090,
  "lon": 7.5982304
},
{
  "type": "node",
  "id": 3647460264,
  "lat": 51.9496398,
  "lon": 7.5982030
},
{
  "type": "node",
  "id": 3647460271,
  "lat": 51.9496632,
  "lon": 7.5981672
},
{
  "type": "node",
  "id": 3647460500,
  "lat": 51.9505212,
  "lon": 7.6000007
},
{
  "type": "node",
  "id": 3651190466,
  "lat": 51.9510407,
  "lon": 7.5992162
},
{
  "type": "node",
  "id": 3651190467,
  "lat": 51.9510526,
  "lon": 7.5992395
},
{
  "type": "node",
  "id": 2588763205,
  "lat": 51.9601062,
  "lon": 7.6262850
},
{
  "type": "node",
  "id": 2588763206,
  "lat": 51.9601063,
  "lon": 7.6262818
},
{
  "type": "node",
  "id": 2588763207,
  "lat": 51.9601095,
  "lon": 7.6264826
},
{
  "type": "node",
  "id": 1117617545,
  "lat": 51.9608739,
  "lon": 7.6246429
},
{
  "type": "node",
  "id": 1194528222,
  "lat": 51.9606999,
  "lon": 7.6245522
},
{
  "type": "node",
  "id": 1194528249,
  "lat": 51.9617055,
  "lon": 7.6239756
},
{
  "type": "node",
  "id": 1194528271,
  "lat": 51.9610103,
  "lon": 7.6240663
},
{
  "type": "node",
  "id": 1194528423,
  "lat": 51.9617190,
  "lon": 7.6245773
},
{
  "type": "node",
  "id": 1194528480,
  "lat": 51.9610703,
  "lon": 7.6237204
},
{
  "type": "node",
  "id": 1194528529,
  "lat": 51.9607622,
  "lon": 7.6240711
},
{
  "type": "node",
  "id": 1194528681,
  "lat": 51.9609221,
  "lon": 7.6242820
},
{
  "type": "node",
  "id": 2389507090,
  "lat": 51.9617949,
  "lon": 7.6242388
},
{
  "type": "node",
  "id": 2578309179,
  "lat": 51.9616927,
  "lon": 7.6248976
},
{
  "type": "node",
  "id": 2578309180,
  "lat": 51.9616931,
  "lon": 7.6248885
},
{
  "type": "node",
  "id": 2578309181,
  "lat": 51.9616931,
  "lon": 7.6249063
},
{
  "type": "node",
  "id": 2578309183,
  "lat": 51.9616954,
  "lon": 7.6248766
},
{
  "type": "node",
  "id": 2578309184,
  "lat": 51.9616954,
  "lon": 7.6249184
},
{
  "type": "node",
  "id": 2578309185,
  "lat": 51.9616997,
  "lon": 7.6248659
},
{
  "type": "node",
  "id": 2578309186,
  "lat": 51.9616998,
  "lon": 7.6249293
},
{
  "type": "node",
  "id": 2578309189,
  "lat": 51.9617061,
  "lon": 7.6248564
},
{
  "type": "node",
  "id": 2578309190,
  "lat": 51.9617063,
  "lon": 7.6249389
},
{
  "type": "node",
  "id": 2578309191,
  "lat": 51.9617091,
  "lon": 7.6247982
},
{
  "type": "node",
  "id": 2578309192,
  "lat": 51.9617092,
  "lon": 7.6247397
},
{
  "type": "node",
  "id": 2578309193,
  "lat": 51.9617098,
  "lon": 7.6247295
},
{
  "type": "node",
  "id": 2578309194,
  "lat": 51.9617124,
  "lon": 7.6249434
},
{
  "type": "node",
  "id": 2578309195,
  "lat": 51.9617126,
  "lon": 7.6247987
},
{
  "type": "node",
  "id": 2578309196,
  "lat": 51.9617132,
  "lon": 7.6246704
},
{
  "type": "node",
  "id": 2578309198,
  "lat": 51.9617137,
  "lon": 7.6246605
},
{
  "type": "node",
  "id": 2578309199,
  "lat": 51.9617156,
  "lon": 7.6247406
},
{
  "type": "node",
  "id": 2578309200,
  "lat": 51.9617161,
  "lon": 7.6247304
},
{
  "type": "node",
  "id": 2578309201,
  "lat": 51.9617163,
  "lon": 7.6249453
},
{
  "type": "node",
  "id": 2578309203,
  "lat": 51.9617192,
  "lon": 7.6246714
},
{
  "type": "node",
  "id": 2578309204,
  "lat": 51.9617197,
  "lon": 7.6246614
},
{
  "type": "node",
  "id": 2578309205,
  "lat": 51.9617227,
  "lon": 7.6249735
},
{
  "type": "node",
  "id": 2578309207,
  "lat": 51.9617239,
  "lon": 7.6249469
},
{
  "type": "node",
  "id": 2578309225,
  "lat": 51.9617864,
  "lon": 7.6244182
},
{
  "type": "node",
  "id": 2578309228,
  "lat": 51.9617960,
  "lon": 7.6249824
},
{
  "type": "node",
  "id": 2578309229,
  "lat": 51.9617962,
  "lon": 7.6249791
},
{
  "type": "node",
  "id": 2578309238,
  "lat": 51.9618389,
  "lon": 7.6240242
},
{
  "type": "node",
  "id": 2578309245,
  "lat": 51.9618937,
  "lon": 7.6250831
},
{
  "type": "node",
  "id": 2578309246,
  "lat": 51.9618980,
  "lon": 7.6249915
},
{
  "type": "node",
  "id": 2578309256,
  "lat": 51.9619354,
  "lon": 7.6244340
},
{
  "type": "node",
  "id": 2578309257,
  "lat": 51.9619367,
  "lon": 7.6244166
},
{
  "type": "node",
  "id": 2578309264,
  "lat": 51.9619775,
  "lon": 7.6250945
},
{
  "type": "node",
  "id": 2578309265,
  "lat": 51.9619786,
  "lon": 7.6250786
},
{
  "type": "node",
  "id": 2578309269,
  "lat": 51.9620519,
  "lon": 7.6250922
},
{
  "type": "node",
  "id": 2578309270,
  "lat": 51.9620566,
  "lon": 7.6248969
},
{
  "type": "node",
  "id": 2578309271,
  "lat": 51.9620614,
  "lon": 7.6248976
},
{
  "type": "node",
  "id": 2578309273,
  "lat": 51.9620621,
  "lon": 7.6247841
},
{
  "type": "node",
  "id": 2578309274,
  "lat": 51.9620654,
  "lon": 7.6247138
},
{
  "type": "node",
  "id": 2578309275,
  "lat": 51.9620669,
  "lon": 7.6247848
},
{
  "type": "node",
  "id": 2578309276,
  "lat": 51.9620704,
  "lon": 7.6247145
},
{
  "type": "node",
  "id": 2578309277,
  "lat": 51.9620710,
  "lon": 7.6245993
},
{
  "type": "node",
  "id": 2578309278,
  "lat": 51.9620760,
  "lon": 7.6246000
},
{
  "type": "node",
  "id": 2578309279,
  "lat": 51.9620841,
  "lon": 7.6244330
},
{
  "type": "node",
  "id": 2578382819,
  "lat": 51.9634610,
  "lon": 7.6256980
},
{
  "type": "node",
  "id": 2578382830,
  "lat": 51.9634689,
  "lon": 7.6259496
},
{
  "type": "node",
  "id": 2578382837,
  "lat": 51.9634832,
  "lon": 7.6259484
},
{
  "type": "node",
  "id": 2578382839,
  "lat": 51.9634834,
  "lon": 7.6259523
},
{
  "type": "node",
  "id": 2578382885,
  "lat": 51.9635295,
  "lon": 7.6259466
},
{
  "type": "node",
  "id": 2578382887,
  "lat": 51.9635296,
  "lon": 7.6259486
},
{
  "type": "node",
  "id": 2578382889,
  "lat": 51.9635322,
  "lon": 7.6259462
},
{
  "type": "node",
  "id": 2578382892,
  "lat": 51.9635324,
  "lon": 7.6259541
},
{
  "type": "node",
  "id": 2578382930,
  "lat": 51.9636691,
  "lon": 7.6256824
},
{
  "type": "node",
  "id": 2578382932,
  "lat": 51.9636695,
  "lon": 7.6256969
},
{
  "type": "node",
  "id": 2578382934,
  "lat": 51.9636768,
  "lon": 7.6259283
},
{
  "type": "node",
  "id": 2578382946,
  "lat": 51.9636772,
  "lon": 7.6259428
},
{
  "type": "node",
  "id": 2578382947,
  "lat": 51.9636785,
  "lon": 7.6256962
},
{
  "type": "node",
  "id": 2578382951,
  "lat": 51.9636852,
  "lon": 7.6259276
},
{
  "type": "node",
  "id": 2578493688,
  "lat": 51.9613485,
  "lon": 7.6236472
},
{
  "type": "node",
  "id": 2578493689,
  "lat": 51.9613502,
  "lon": 7.6235843
},
{
  "type": "node",
  "id": 2578493691,
  "lat": 51.9613539,
  "lon": 7.6234611
},
{
  "type": "node",
  "id": 2578493692,
  "lat": 51.9613585,
  "lon": 7.6232401
},
{
  "type": "node",
  "id": 2578493693,
  "lat": 51.9613585,
  "lon": 7.6232469
},
{
  "type": "node",
  "id": 2578493695,
  "lat": 51.9613603,
  "lon": 7.6232474
},
{
  "type": "node",
  "id": 2578493696,
  "lat": 51.9613628,
  "lon": 7.6230499
},
{
  "type": "node",
  "id": 2578493697,
  "lat": 51.9613631,
  "lon": 7.6230436
},
{
  "type": "node",
  "id": 2578493706,
  "lat": 51.9614085,
  "lon": 7.6235518
},
{
  "type": "node",
  "id": 2578493708,
  "lat": 51.9614213,
  "lon": 7.6232578
},
{
  "type": "node",
  "id": 2578493709,
  "lat": 51.9614258,
  "lon": 7.6236741
},
{
  "type": "node",
  "id": 2578493710,
  "lat": 51.9614299,
  "lon": 7.6235537
},
{
  "type": "node",
  "id": 2578493711,
  "lat": 51.9614385,
  "lon": 7.6230796
},
{
  "type": "node",
  "id": 2578493712,
  "lat": 51.9614397,
  "lon": 7.6230526
},
{
  "type": "node",
  "id": 2578493713,
  "lat": 51.9614694,
  "lon": 7.6232622
},
{
  "type": "node",
  "id": 2578493714,
  "lat": 51.9614695,
  "lon": 7.6232654
},
{
  "type": "node",
  "id": 2578493715,
  "lat": 51.9614812,
  "lon": 7.6230846
},
{
  "type": "node",
  "id": 2578493716,
  "lat": 51.9614815,
  "lon": 7.6230815
},
{
  "type": "node",
  "id": 2578493719,
  "lat": 51.9615330,
  "lon": 7.6232712
},
{
  "type": "node",
  "id": 2578493720,
  "lat": 51.9615333,
  "lon": 7.6232681
},
{
  "type": "node",
  "id": 2578493723,
  "lat": 51.9615438,
  "lon": 7.6237154
},
{
  "type": "node",
  "id": 2578493724,
  "lat": 51.9615460,
  "lon": 7.6230891
},
{
  "type": "node",
  "id": 2578493725,
  "lat": 51.9615460,
  "lon": 7.6230921
},
{
  "type": "node",
  "id": 2578493726,
  "lat": 51.9615490,
  "lon": 7.6235673
},
{
  "type": "node",
  "id": 2578493728,
  "lat": 51.9615676,
  "lon": 7.6235690
},
{
  "type": "node",
  "id": 2578493731,
  "lat": 51.9615781,
  "lon": 7.6232722
},
{
  "type": "node",
  "id": 2578493733,
  "lat": 51.9615888,
  "lon": 7.6230971
},
{
  "type": "node",
  "id": 2578493734,
  "lat": 51.9615900,
  "lon": 7.6230701
},
{
  "type": "node",
  "id": 2578493747,
  "lat": 51.9616291,
  "lon": 7.6237452
},
{
  "type": "node",
  "id": 2578493773,
  "lat": 51.9616505,
  "lon": 7.6232793
},
{
  "type": "node",
  "id": 2578493776,
  "lat": 51.9616540,
  "lon": 7.6232798
},
{
  "type": "node",
  "id": 2578493779,
  "lat": 51.9616630,
  "lon": 7.6230788
},
{
  "type": "node",
  "id": 2588763209,
  "lat": 51.9603124,
  "lon": 7.6264762
},
{
  "type": "node",
  "id": 2588763210,
  "lat": 51.9603159,
  "lon": 7.6264761
},
{
  "type": "node",
  "id": 2588763211,
  "lat": 51.9603179,
  "lon": 7.6264261
},
{
  "type": "node",
  "id": 2588763212,
  "lat": 51.9603200,
  "lon": 7.6264265
},
{
  "type": "node",
  "id": 2588763215,
  "lat": 51.9603249,
  "lon": 7.6262759
},
{
  "type": "node",
  "id": 2588763216,
  "lat": 51.9603252,
  "lon": 7.6262830
},
{
  "type": "node",
  "id": 2588763217,
  "lat": 51.9603286,
  "lon": 7.6262834
},
{
  "type": "node",
  "id": 2645697211,
  "lat": 51.9620113,
  "lon": 7.6242651
},
{
  "type": "node",
  "id": 2649689820,
  "lat": 51.9613702,
  "lon": 7.6241849
},
{
  "type": "node",
  "id": 2649689824,
  "lat": 51.9610802,
  "lon": 7.6240763
},
{
  "type": "node",
  "id": 2649689826,
  "lat": 51.9611111,
  "lon": 7.6238843
},
{
  "type": "node",
  "id": 2649689828,
  "lat": 51.9613979,
  "lon": 7.6239939
},
{
  "type": "node",
  "id": 4715707893,
  "lat": 51.9619588,
  "lon": 7.6241390
},
{
  "type": "node",
  "id": 4715707915,
  "lat": 51.9620012,
  "lon": 7.6241795
},
{
  "type": "node",
  "id": 4715707916,
  "lat": 51.9620323,
  "lon": 7.6242677
},
{
  "type": "node",
  "id": 4715707919,
  "lat": 51.9620141,
  "lon": 7.6241919
},
{
  "type": "node",
  "id": 4715707920,
  "lat": 51.9620449,
  "lon": 7.6242692
},
{
  "type": "node",
  "id": 4924352699,
  "lat": 51.9621022,
  "lon": 7.6242762
},
{
  "type": "node",
  "id": 2591789537,
  "lat": 51.9576913,
  "lon": 7.6312775
},
{
  "type": "node",
  "id": 2591789555,
  "lat": 51.9577809,
  "lon": 7.6314440
},
{
  "type": "node",
  "id": 2591789556,
  "lat": 51.9577930,
  "lon": 7.6310778
},
{
  "type": "node",
  "id": 2591789557,
  "lat": 51.9577941,
  "lon": 7.6314180
},
{
  "type": "node",
  "id": 2591789558,
  "lat": 51.9578047,
  "lon": 7.6314323
},
{
  "type": "node",
  "id": 2591789561,
  "lat": 51.9578258,
  "lon": 7.6311217
},
{
  "type": "node",
  "id": 2591789562,
  "lat": 51.9578294,
  "lon": 7.6313488
},
{
  "type": "node",
  "id": 2591789563,
  "lat": 51.9578315,
  "lon": 7.6311104
},
{
  "type": "node",
  "id": 2591789564,
  "lat": 51.9578319,
  "lon": 7.6313534
},
{
  "type": "node",
  "id": 2591789565,
  "lat": 51.9578321,
  "lon": 7.6313785
},
{
  "type": "node",
  "id": 2591789566,
  "lat": 51.9578333,
  "lon": 7.6313577
},
{
  "type": "node",
  "id": 2591789568,
  "lat": 51.9578337,
  "lon": 7.6313727
},
{
  "type": "node",
  "id": 2591789569,
  "lat": 51.9578344,
  "lon": 7.6313655
},
{
  "type": "node",
  "id": 2591789572,
  "lat": 51.9578630,
  "lon": 7.6311712
},
{
  "type": "node",
  "id": 2591789574,
  "lat": 51.9578687,
  "lon": 7.6311600
},
{
  "type": "node",
  "id": 2591789577,
  "lat": 51.9578968,
  "lon": 7.6312163
},
{
  "type": "node",
  "id": 3973443003,
  "lat": 51.9576884,
  "lon": 7.6311885
},
{
  "type": "node",
  "id": 3973443004,
  "lat": 51.9576886,
  "lon": 7.6312024
},
{
  "type": "node",
  "id": 3973443005,
  "lat": 51.9576937,
  "lon": 7.6312084
},
{
  "type": "node",
  "id": 3973443006,
  "lat": 51.9576993,
  "lon": 7.6313310
},
{
  "type": "node",
  "id": 3973443007,
  "lat": 51.9576997,
  "lon": 7.6312071
},
{
  "type": "node",
  "id": 3973443008,
  "lat": 51.9577023,
  "lon": 7.6313453
},
{
  "type": "node",
  "id": 3973443009,
  "lat": 51.9577029,
  "lon": 7.6312013
},
{
  "type": "node",
  "id": 3973443010,
  "lat": 51.9577077,
  "lon": 7.6313562
},
{
  "type": "node",
  "id": 3973443011,
  "lat": 51.9577119,
  "lon": 7.6313049
},
{
  "type": "node",
  "id": 3973443013,
  "lat": 51.9577152,
  "lon": 7.6313659
},
{
  "type": "node",
  "id": 3973443015,
  "lat": 51.9577183,
  "lon": 7.6312244
},
{
  "type": "node",
  "id": 3973443016,
  "lat": 51.9577242,
  "lon": 7.6313712
},
{
  "type": "node",
  "id": 3973443017,
  "lat": 51.9577282,
  "lon": 7.6313736
},
{
  "type": "node",
  "id": 3973443018,
  "lat": 51.9577403,
  "lon": 7.6310894
},
{
  "type": "node",
  "id": 3973443019,
  "lat": 51.9577472,
  "lon": 7.6310892
},
{
  "type": "node",
  "id": 3973443020,
  "lat": 51.9577479,
  "lon": 7.6311164
},
{
  "type": "node",
  "id": 3973443021,
  "lat": 51.9577519,
  "lon": 7.6311082
},
{
  "type": "node",
  "id": 3973443023,
  "lat": 51.9577523,
  "lon": 7.6310971
},
{
  "type": "node",
  "id": 3973443025,
  "lat": 51.9577632,
  "lon": 7.6311364
},
{
  "type": "node",
  "id": 2590696775,
  "lat": 51.9606110,
  "lon": 7.6330591
},
{
  "type": "node",
  "id": 2590696777,
  "lat": 51.9606121,
  "lon": 7.6330050
},
{
  "type": "node",
  "id": 2590696778,
  "lat": 51.9607845,
  "lon": 7.6328406
},
{
  "type": "node",
  "id": 2590696779,
  "lat": 51.9608057,
  "lon": 7.6333118
},
{
  "type": "node",
  "id": 2590696780,
  "lat": 51.9608062,
  "lon": 7.6333113
},
{
  "type": "node",
  "id": 2590696781,
  "lat": 51.9608077,
  "lon": 7.6333131
},
{
  "type": "node",
  "id": 2590696782,
  "lat": 51.9608120,
  "lon": 7.6333045
},
{
  "type": "node",
  "id": 2590696783,
  "lat": 51.9608186,
  "lon": 7.6332828
},
{
  "type": "node",
  "id": 2590696785,
  "lat": 51.9608225,
  "lon": 7.6333179
},
{
  "type": "node",
  "id": 2590696786,
  "lat": 51.9608228,
  "lon": 7.6333242
},
{
  "type": "node",
  "id": 2590696787,
  "lat": 51.9608243,
  "lon": 7.6333306
},
{
  "type": "node",
  "id": 2590696788,
  "lat": 51.9608245,
  "lon": 7.6333057
},
{
  "type": "node",
  "id": 2590696789,
  "lat": 51.9608267,
  "lon": 7.6333362
},
{
  "type": "node",
  "id": 2590696790,
  "lat": 51.9608282,
  "lon": 7.6332944
},
{
  "type": "node",
  "id": 2590696792,
  "lat": 51.9608297,
  "lon": 7.6333399
},
{
  "type": "node",
  "id": 2590696793,
  "lat": 51.9608329,
  "lon": 7.6333427
},
{
  "type": "node",
  "id": 2590696794,
  "lat": 51.9608368,
  "lon": 7.6333439
},
{
  "type": "node",
  "id": 2590696795,
  "lat": 51.9608407,
  "lon": 7.6333435
},
{
  "type": "node",
  "id": 2590696796,
  "lat": 51.9608442,
  "lon": 7.6333420
},
{
  "type": "node",
  "id": 2590696797,
  "lat": 51.9608476,
  "lon": 7.6333388
},
{
  "type": "node",
  "id": 2590696798,
  "lat": 51.9608502,
  "lon": 7.6333350
},
{
  "type": "node",
  "id": 2590696799,
  "lat": 51.9608534,
  "lon": 7.6333692
},
{
  "type": "node",
  "id": 2590696801,
  "lat": 51.9608536,
  "lon": 7.6333253
},
{
  "type": "node",
  "id": 2590696802,
  "lat": 51.9608623,
  "lon": 7.6333799
},
{
  "type": "node",
  "id": 2590696803,
  "lat": 51.9608626,
  "lon": 7.6333686
},
{
  "type": "node",
  "id": 2590696804,
  "lat": 51.9608634,
  "lon": 7.6333372
},
{
  "type": "node",
  "id": 2590696805,
  "lat": 51.9608985,
  "lon": 7.6333710
},
{
  "type": "node",
  "id": 2590696806,
  "lat": 51.9608988,
  "lon": 7.6333612
},
{
  "type": "node",
  "id": 2590696808,
  "lat": 51.9609003,
  "lon": 7.6331500
},
{
  "type": "node",
  "id": 3111236461,
  "lat": 51.9661289,
  "lon": 7.6465219
},
{
  "type": "node",
  "id": 3111236462,
  "lat": 51.9661614,
  "lon": 7.6467146
},
{
  "type": "node",
  "id": 3111236463,
  "lat": 51.9663543,
  "lon": 7.6466308
},
{
  "type": "node",
  "id": 3111236464,
  "lat": 51.9663225,
  "lon": 7.6464383
},
{
  "type": "node",
  "id": 3359298377,
  "lat": 51.9661841,
  "lon": 7.6464880
},
{
  "type": "node",
  "id": 3359298378,
  "lat": 51.9661856,
  "lon": 7.6464967
},
{
  "type": "node",
  "id": 3359298379,
  "lat": 51.9662192,
  "lon": 7.6466889
},
{
  "type": "node",
  "id": 3359298380,
  "lat": 51.9662216,
  "lon": 7.6467031
},
{
  "type": "node",
  "id": 3359298381,
  "lat": 51.9662343,
  "lon": 7.6466988
},
{
  "type": "node",
  "id": 3359298382,
  "lat": 51.9662554,
  "lon": 7.6466972
},
{
  "type": "node",
  "id": 3359298383,
  "lat": 51.9662632,
  "lon": 7.6464529
},
{
  "type": "node",
  "id": 3359298384,
  "lat": 51.9662650,
  "lon": 7.6464638
},
{
  "type": "node",
  "id": 3359298385,
  "lat": 51.9662718,
  "lon": 7.6466912
},
{
  "type": "node",
  "id": 3359298386,
  "lat": 51.9662949,
  "lon": 7.6466571
},
{
  "type": "node",
  "id": 3359298387,
  "lat": 51.9662970,
  "lon": 7.6466696
},
{
  "type": "node",
  "id": 3359298388,
  "lat": 51.9663243,
  "lon": 7.6464487
},
{
  "type": "node",
  "id": 3359298389,
  "lat": 51.9663419,
  "lon": 7.6464409
},
{
  "type": "node",
  "id": 3359298390,
  "lat": 51.9663520,
  "lon": 7.6466176
},
{
  "type": "node",
  "id": 3359298391,
  "lat": 51.9663545,
  "lon": 7.6465160
},
{
  "type": "node",
  "id": 3359298392,
  "lat": 51.9663670,
  "lon": 7.6465105
},
{
  "type": "node",
  "id": 3359301193,
  "lat": 51.9663827,
  "lon": 7.6466040
},
{
  "type": "node",
  "id": 2571595771,
  "lat": 51.9854424,
  "lon": 7.5511910
},
{
  "type": "node",
  "id": 2571595776,
  "lat": 51.9854811,
  "lon": 7.5510132
},
{
  "type": "node",
  "id": 2571595789,
  "lat": 51.9856768,
  "lon": 7.5513249
},
{
  "type": "node",
  "id": 2571595794,
  "lat": 51.9857153,
  "lon": 7.5511483
},
{
  "type": "node",
  "id": 3319141135,
  "lat": 51.9311431,
  "lon": 7.6660512
},
{
  "type": "node",
  "id": 3319141144,
  "lat": 51.9312017,
  "lon": 7.6658123
},
{
  "type": "node",
  "id": 3319141149,
  "lat": 51.9312368,
  "lon": 7.6661105
},
{
  "type": "node",
  "id": 3319141150,
  "lat": 51.9312603,
  "lon": 7.6658982
},
{
  "type": "node",
  "id": 3319141151,
  "lat": 51.9312706,
  "lon": 7.6658556
},
{
  "type": "node",
  "id": 3319141152,
  "lat": 51.9312845,
  "lon": 7.6659137
},
{
  "type": "node",
  "id": 3433622659,
  "lat": 51.9309525,
  "lon": 7.6658047
},
{
  "type": "node",
  "id": 3433622663,
  "lat": 51.9309741,
  "lon": 7.6657074
},
{
  "type": "node",
  "id": 3433622679,
  "lat": 51.9310346,
  "lon": 7.6658405
},
{
  "type": "node",
  "id": 3433622684,
  "lat": 51.9310402,
  "lon": 7.6655642
},
{
  "type": "node",
  "id": 3433622915,
  "lat": 51.9311181,
  "lon": 7.6654184
},
{
  "type": "node",
  "id": 3433622974,
  "lat": 51.9311889,
  "lon": 7.6654199
},
{
  "type": "node",
  "id": 1508932215,
  "lat": 51.9442766,
  "lon": 7.6704223
},
{
  "type": "node",
  "id": 1706860106,
  "lat": 51.9443288,
  "lon": 7.6694121
},
{
  "type": "node",
  "id": 1910508803,
  "lat": 51.9440286,
  "lon": 7.6695669
},
{
  "type": "node",
  "id": 1910508821,
  "lat": 51.9440116,
  "lon": 7.6698160
},
{
  "type": "node",
  "id": 1910508880,
  "lat": 51.9443337,
  "lon": 7.6703733
},
{
  "type": "node",
  "id": 1910509147,
  "lat": 51.9444279,
  "lon": 7.6706212
},
{
  "type": "node",
  "id": 1910509174,
  "lat": 51.9441660,
  "lon": 7.6701461
},
{
  "type": "node",
  "id": 1910509201,
  "lat": 51.9441105,
  "lon": 7.6701867
},
{
  "type": "node",
  "id": 1910509225,
  "lat": 51.9445109,
  "lon": 7.6705517
},
{
  "type": "node",
  "id": 1916835269,
  "lat": 51.9444429,
  "lon": 7.6699744
},
{
  "type": "node",
  "id": 1916835273,
  "lat": 51.9446000,
  "lon": 7.6704848
},
{
  "type": "node",
  "id": 1916835275,
  "lat": 51.9445026,
  "lon": 7.6699266
},
{
  "type": "node",
  "id": 3416357666,
  "lat": 51.9229228,
  "lon": 7.7010414
},
{
  "type": "node",
  "id": 3416357667,
  "lat": 51.9229271,
  "lon": 7.7011551
},
{
  "type": "node",
  "id": 3416357693,
  "lat": 51.9230630,
  "lon": 7.7010275
},
{
  "type": "node",
  "id": 3416357694,
  "lat": 51.9230673,
  "lon": 7.7011412
},
{
  "type": "node",
  "id": 2609845095,
  "lat": 51.9198196,
  "lon": 7.8326079
},
{
  "type": "node",
  "id": 2609845113,
  "lat": 51.9198616,
  "lon": 7.8324794
},
{
  "type": "node",
  "id": 3222067426,
  "lat": 51.9199737,
  "lon": 7.8325901
},
{
  "type": "node",
  "id": 3222067427,
  "lat": 51.9198666,
  "lon": 7.8328871
},
{
  "type": "node",
  "id": 3222067428,
  "lat": 51.9197599,
  "lon": 7.8327906
},
{
  "type": "node",
  "id": 2619931587,
  "lat": 51.8731680,
  "lon": 7.9141491
},
{
  "type": "node",
  "id": 2619931591,
  "lat": 51.8731819,
  "lon": 7.9140427
},
{
  "type": "node",
  "id": 2619931603,
  "lat": 51.8732452,
  "lon": 7.9143261
},
{
  "type": "node",
  "id": 2619931609,
  "lat": 51.8732657,
  "lon": 7.9141836
},
{
  "type": "node",
  "id": 2619931623,
  "lat": 51.8733211,
  "lon": 7.9143531
},
{
  "type": "node",
  "id": 2619931627,
  "lat": 51.8733548,
  "lon": 7.9141046
},
{
  "type": "node",
  "id": 2650387643,
  "lat": 51.9832776,
  "lon": 7.7855752
},
{
  "type": "node",
  "id": 2650387679,
  "lat": 51.9832849,
  "lon": 7.7856483
},
{
  "type": "node",
  "id": 2650387716,
  "lat": 51.9832930,
  "lon": 7.7855556
},
{
  "type": "node",
  "id": 2650387756,
  "lat": 51.9833029,
  "lon": 7.7856273
},
{
  "type": "node",
  "id": 2650387841,
  "lat": 51.9833294,
  "lon": 7.7855093
},
{
  "type": "node",
  "id": 2650387868,
  "lat": 51.9833349,
  "lon": 7.7855028
},
{
  "type": "node",
  "id": 2650388170,
  "lat": 51.9834146,
  "lon": 7.7856671
},
{
  "type": "node",
  "id": 2650387806,
  "lat": 51.9833181,
  "lon": 7.7857543
},
{
  "type": "node",
  "id": 2650387826,
  "lat": 51.9833233,
  "lon": 7.7857501
},
{
  "type": "node",
  "id": 2650387829,
  "lat": 51.9833250,
  "lon": 7.7857741
},
{
  "type": "node",
  "id": 2650387835,
  "lat": 51.9833262,
  "lon": 7.7857772
},
{
  "type": "node",
  "id": 2650387839,
  "lat": 51.9833289,
  "lon": 7.7857694
},
{
  "type": "node",
  "id": 2650387997,
  "lat": 51.9833683,
  "lon": 7.7857257
},
{
  "type": "node",
  "id": 2618986006,
  "lat": 51.9525362,
  "lon": 7.9908574
},
{
  "type": "node",
  "id": 2618986052,
  "lat": 51.9525705,
  "lon": 7.9910296
},
{
  "type": "node",
  "id": 2618986102,
  "lat": 51.9526227,
  "lon": 7.9908029
},
{
  "type": "node",
  "id": 2618986109,
  "lat": 51.9526247,
  "lon": 7.9908134
},
{
  "type": "node",
  "id": 2618986194,
  "lat": 51.9526784,
  "lon": 7.9907751
},
{
  "type": "node",
  "id": 2618986218,
  "lat": 51.9526804,
  "lon": 7.9907855
},
{
  "type": "node",
  "id": 2618986456,
  "lat": 51.9527603,
  "lon": 7.9907455
},
{
  "type": "node",
  "id": 2618986457,
  "lat": 51.9527617,
  "lon": 7.9907473
},
{
  "type": "node",
  "id": 2618986458,
  "lat": 51.9527624,
  "lon": 7.9907549
},
{
  "type": "node",
  "id": 2618986471,
  "lat": 51.9527786,
  "lon": 7.9909249
},
{
  "type": "node",
  "id": 2650979025,
  "lat": 52.0929926,
  "lon": 7.6107441
},
{
  "type": "node",
  "id": 2650979030,
  "lat": 52.0929982,
  "lon": 7.6107661
},
{
  "type": "node",
  "id": 2650979047,
  "lat": 52.0930018,
  "lon": 7.6107793
},
{
  "type": "node",
  "id": 2650979110,
  "lat": 52.0930176,
  "lon": 7.6108293
},
{
  "type": "node",
  "id": 2650979203,
  "lat": 52.0930489,
  "lon": 7.6107036
},
{
  "type": "node",
  "id": 2650979260,
  "lat": 52.0930724,
  "lon": 7.6107902
},
{
  "type": "node",
  "id": 861724145,
  "lat": 52.1267308,
  "lon": 7.6152522
},
{
  "type": "node",
  "id": 861724159,
  "lat": 52.1273661,
  "lon": 7.6152743
},
{
  "type": "node",
  "id": 861724133,
  "lat": 52.1268743,
  "lon": 7.6169777
},
{
  "type": "node",
  "id": 861724136,
  "lat": 52.1264278,
  "lon": 7.6169755
},
{
  "type": "node",
  "id": 861724153,
  "lat": 52.1271461,
  "lon": 7.6169447
},
{
  "type": "node",
  "id": 990275063,
  "lat": 52.2198666,
  "lon": 7.8116034
},
{
  "type": "node",
  "id": 996601144,
  "lat": 52.2198762,
  "lon": 7.8116276
},
{
  "type": "node",
  "id": 996601243,
  "lat": 52.2198287,
  "lon": 7.8114915
},
{
  "type": "node",
  "id": 996601289,
  "lat": 52.2197614,
  "lon": 7.8117146
},
{
  "type": "node",
  "id": 996601309,
  "lat": 52.2197165,
  "lon": 7.8115762
},
{
  "type": "node",
  "id": 983495544,
  "lat": 52.2193827,
  "lon": 7.8134030
},
{
  "type": "node",
  "id": 983495622,
  "lat": 52.2191812,
  "lon": 7.8132738
},
{
  "type": "node",
  "id": 983495824,
  "lat": 52.2193359,
  "lon": 7.8135978
},
{
  "type": "node",
  "id": 983495998,
  "lat": 52.2191343,
  "lon": 7.8134686
},
{
  "type": "way",
  "id": 103453956,
  "nodes": [
    1194528423,
    1194528681,
    1117617545,
    1194528222,
    1194528529,
    1194528271,
    1194528480,
    1194528249,
    2578309238,
    4715707893,
    4715707915,
    4715707919,
    4924352699,
    4715707920,
    4715707916,
    2645697211,
    2389507090,
    2578309225,
    2578309256,
    2578309257,
    2578309279,
    2578309278,
    2578309277,
    2578309274,
    2578309276,
    2578309275,
    2578309273,
    2578309270,
    2578309271,
    2578309269,
    2578309265,
    2578309264,
    2578309245,
    2578309246,
    2578309229,
    2578309228,
    2578309205,
    2578309207,
    2578309201,
    2578309194,
    2578309190,
    2578309186,
    2578309184,
    2578309181,
    2578309179,
    2578309180,
    2578309183,
    2578309185,
    2578309189,
    2578309191,
    2578309195,
    2578309199,
    2578309192,
    2578309193,
    2578309200,
    2578309203,
    2578309196,
    2578309198,
    2578309204,
    1194528423
  ]
},
{
  "type": "way",
  "id": 259541535,
  "nodes": [
    2649689820,
    2649689824,
    2649689826,
    2649689828,
    2649689820
  ]
}

  ]
}
