{
  "version": 0.6,
  "generator": "Overpass API 0.7.55.9 ab41fea6",
  "osm3s": {
    "timestamp_osm_base": "2020-02-14T11:24:02Z",
    "copyright": "The data included in this document is from www.openstreetmap.org. The data is made available under ODbL."
  },
  "elements": [

{
  "type": "node",
  "id": 83483337,
  "lat": 49.1976369,
  "lon": 16.6081832,
  "tags": {
    "name": "Místodržitelský palác",
    "name:es": "Palacio del Gobernador",
    "old_name": "Augustiniánský klášter",
    "source": "cuzk:km",
    "tourism": "museum",
    "wikidata": "Q12039262",
    "wikipedia": "cs:Místodržitelský palác (Brno)"
  }
},
{
  "type": "node",
  "id": 259569506,
  "lat": 48.7411344,
  "lon": 16.7567039,
  "tags": {
    "addr:city": "Valtice",
    "addr:housenumber": "8",
    "addr:postcode": "69142",
    "addr:street": "nám. Svobody",
    "name": "Nár. zemědělské muzeum",
    "tourism": "museum"
  }
},
{
  "type": "node",
  "id": 297078170,
  "lat": 49.1939474,
  "lon": 16.5998374,
  "tags": {
    "fee": "yes",
    "name": "Kasematy",
    "opening_hours": "Apr-Sep Mo-Su 09:00-17:00; Oct-Mar Tu-Su 09:00-17:00",
    "tourism": "museum",
    "website": "https://www.spilberk.cz/spilberk/historie-hradu/historie/"
  }
},
{
  "type": "node",
  "id": 374215287,
  "lat": 49.1912999,
  "lon": 16.5937953,
  "tags": {
    "name": "Mendelovo muzeum",
    "tourism": "museum",
    "wikidata": "Q6816571",
    "wikipedia": "cs:Mendelovo muzeum Masarykovy univerzity"
  }
},
{
  "type": "node",
  "id": 393178583,
  "lat": 49.1913943,
  "lon": 16.6073709,
  "tags": {
    "name": "Diecézní muzeum Petrov",
    "tourism": "museum",
    "wikidata": "Q22915130"
  }
},
{
  "type": "node",
  "id": 393178584,
  "lat": 49.1912156,
  "lon": 16.6083292,
  "tags": {
    "name": "Biskupský dvůr",
    "name:de": "Bischofshof",
    "tourism": "museum",
    "wikidata": "Q11152361",
    "wikipedia": "cs:Biskupský dvůr (Brno)"
  }
},
{
  "type": "node",
  "id": 423188490,
  "lat": 48.6971810,
  "lon": 16.6802655,
  "tags": {
    "addr:city": "Herrenbaumgarten",
    "addr:country": "AT",
    "addr:housenumber": "9",
    "addr:postcode": "2171",
    "addr:street": "Poysbrunner Straße",
    "email": "info@nonseum.at",
    "name": "Nonseum",
    "operator": "Verein zur Verwertung von Gedankenüberschüssen",
    "phone": "+43 2555 2737",
    "tourism": "museum",
    "website": "www.nonseum.at",
    "wikidata": "Q1369348",
    "wikipedia": "de:Nonseum"
  }
},
{
  "type": "node",
  "id": 428740723,
  "lat": 49.2005278,
  "lon": 16.6233879,
  "tags": {
    "addr:city": "Brno",
    "addr:housenumber": "67",
    "addr:postcode": "60200",
    "addr:street": "Bratislavská",
    "contact:website": "http://www.rommuz.cz",
    "name": "Muzeum romské kultury",
    "opening_hours": "Mo off; Tu-Fr 10:00-18:00; Sa off; Su 10:00-18:00",
    "source": "cuzk:km",
    "source:position": "cuzk_km",
    "tourism": "museum",
    "wikidata": "Q1570294"
  }
},
{
  "type": "node",
  "id": 463552817,
  "lat": 49.1921153,
  "lon": 16.5671639,
  "tags": {
    "dog": "no",
    "name": "Anthropos",
    "opening_hours": "Tu-Fr 09:00-18:00; Sa-Su 10:00-18:00",
    "tourism": "museum",
    "wheelchair": "yes",
    "wikidata": "Q4414992",
    "wikipedia": "cs:Anthropos"
  }
},
{
  "type": "node",
  "id": 494332733,
  "lat": 49.1969751,
  "lon": 16.5729077,
  "tags": {
    "architect": "Ernst Wiesner",
    "contact:email": "vila@npu.cz",
    "contact:phone": "+420 778545993",
    "contact:website": "http://www.vilastiassni.cz",
    "name": "Vila Stiassny",
    "old_name": "Vládní vila",
    "opening_hours": "Oct 1-May 31: Fr-Su 10:00-16:00; Jun 1-Sep 30: Fr-Su 10:00-17:00",
    "start_date": "1929",
    "tourism": "museum",
    "wikidata": "Q9374731",
    "wikipedia": "cs:Vila Stiassni"
  }
},
{
  "type": "node",
  "id": 583816850,
  "lat": 48.8879920,
  "lon": 16.6436987,
  "tags": {
    "charge": "40 CZK/person; 20 CZK/discount; 90 CZK/family",
    "fee": "yes",
    "name": "Život pod Pálavou",
    "opening_hours": "Apr,Oct Sa,Su 09:00-16:00; May-Jun Tu-Su 09:00-18:00; Jul-Aug 09:00-18:00; Mo-Su 12:00-12:30 off",
    "tourism": "museum",
    "url": "http://www.rmm.cz/czech/expozice.html#vestonice"
  }
},
{
  "type": "node",
  "id": 647885009,
  "lat": 49.1917517,
  "lon": 16.6085842,
  "tags": {
    "name": "Moravské zemské muzeum",
    "name:de": "Mährisches Landesmuseum",
    "short_name": "MZM",
    "source": "cuzk:km",
    "tourism": "museum",
    "wikidata": "Q1348579"
  }
},
{
  "type": "node",
  "id": 647885052,
  "lat": 49.1954179,
  "lon": 16.6091422,
  "tags": {
    "addr:city": "Brno",
    "addr:housenumber": "1",
    "addr:postcode": "60200",
    "addr:street": "Kobližná",
    "name": "Etnografický ústav MZM",
    "source": "cuzk:km",
    "tourism": "museum"
  }
},
{
  "type": "node",
  "id": 1108261220,
  "lat": 48.7575454,
  "lon": 16.8899729,
  "tags": {
    "name": "Galerie 99",
    "tourism": "museum"
  }
},
{
  "type": "node",
  "id": 1191308431,
  "lat": 48.9890168,
  "lon": 16.7879129,
  "tags": {
    "addr:conscriptionnumber": "57",
    "addr:country": "CZ",
    "addr:housenumber": "57",
    "addr:place": "Diváky",
    "addr:postcode": "69171",
    "is_in": "Diváky, Jihomoravský kraj, CZ",
    "name": "Památník Bratři Mrštíků",
    "source": "Local knowledge",
    "tourism": "museum"
  }
},
{
  "type": "node",
  "id": 1191431871,
  "lat": 48.9327175,
  "lon": 16.8905113,
  "tags": {
    "addr:conscriptionnumber": "135",
    "addr:country": "CZ",
    "addr:housenumber": "135",
    "addr:place": "Kobylí",
    "addr:postcode": "69110",
    "name": "Muzeum obce Kobylí",
    "opening_hours": "Tu-Su 10:00-17:00",
    "ref:ruian:addr": "26958121",
    "tourism": "museum"
  }
},
{
  "type": "node",
  "id": 1319871254,
  "lat": 49.0904103,
  "lon": 16.6155404,
  "tags": {
    "name": "Památník písemnictví na Moravě",
    "source": "survey",
    "tourism": "museum"
  }
},
{
  "type": "node",
  "id": 1511582322,
  "lat": 48.8066711,
  "lon": 16.6392524,
  "tags": {
    "name": "Dietrichsteinská hrobka",
    "tourism": "museum",
    "website": "http://www.mikulov.cz/turistika/pamatky-a-prohlidkove-objekty/dietrichsteinska-hrobka/"
  }
},
{
  "type": "node",
  "id": 1562022454,
  "lat": 48.9367211,
  "lon": 16.1808944,
  "tags": {
    "name": "Hasičské",
    "tourism": "museum"
  }
},
{
  "type": "node",
  "id": 1575218497,
  "lat": 48.6430462,
  "lon": 16.9030860,
  "tags": {
    "name": "Kulturzentrum",
    "tourism": "museum"
  }
},
{
  "type": "node",
  "id": 1787026257,
  "lat": 49.1961305,
  "lon": 16.6052577,
  "tags": {
    "name": "Galerie Ars",
    "opening_hours": "Tu-Sa 12:00-18:00; Su 13:00-18:00",
    "tourism": "museum",
    "website": "http://www.galerie-ars.cz/"
  }
},
{
  "type": "node",
  "id": 2276109679,
  "lat": 49.1933886,
  "lon": 16.6118998,
  "tags": {
    "addr:city": "Brno",
    "addr:housenumber": "1",
    "addr:postcode": "60200",
    "addr:street": "Josefská",
    "name": "Galerie MATHIAS - akad.malíř Josef Minařík",
    "tourism": "museum"
  }
},
{
  "type": "node",
  "id": 2363245675,
  "lat": 49.0009550,
  "lon": 17.0310038,
  "tags": {
    "addr:conscriptionnumber": "44",
    "addr:country": "CZ",
    "addr:housenumber": "44",
    "addr:place": "Stavěšice",
    "addr:postcode": "69638",
    "name": "Sál a muzeum obce",
    "operator": "Obec Stavěšice",
    "ref:ruian:addr": "13548344",
    "tourism": "museum"
  }
},
{
  "type": "node",
  "id": 2424684008,
  "lat": 48.9675450,
  "lon": 16.8611252,
  "tags": {
    "name": "Muzeum generálporučíka Františka Peřiny",
    "tourism": "museum",
    "website": "http://www.morkuvky.cz/muzeum-fr-periny/d-1024/p1=1042"
  }
},
{
  "type": "node",
  "id": 2562938228,
  "lat": 48.6492613,
  "lon": 16.6297249,
  "tags": {
    "name": "Weinviertler Bauernmuseum",
    "operator": "Johann Deutner",
    "phone": "0664 4858372",
    "tourism": "museum"
  }
},
{
  "type": "node",
  "id": 2940672491,
  "lat": 48.8167961,
  "lon": 16.6399415,
  "tags": {
    "description": "Kolekce kamenů z různých hornin s popisky",
    "name": "Geopark",
    "tourism": "museum"
  }
},
{
  "type": "node",
  "id": 3075683846,
  "lat": 48.6971551,
  "lon": 16.6799874,
  "tags": {
    "addr:city": "Herrenbaumgarten",
    "addr:country": "AT",
    "addr:housenumber": "9",
    "addr:postcode": "2171",
    "addr:street": "Poysbrunner Straße",
    "email": "info@nonseum.at",
    "name": "Küchenmuseum",
    "operator": "Dorfmuseumsverein Herrenbaumgarten",
    "phone": "+43 2555 2737",
    "tourism": "museum",
    "website": "www.nonseum.at"
  }
},
{
  "type": "node",
  "id": 3075684594,
  "lat": 48.6972922,
  "lon": 16.6802238,
  "tags": {
    "addr:city": "Herrenbaumgarten",
    "addr:country": "AT",
    "addr:housenumber": "9",
    "addr:postcode": "2171",
    "addr:street": "Poysbrunner Straße",
    "email": "info@nonseum.at",
    "name": "Vermischte Warenhandlung",
    "operator": "Dorfmuseumsverein Herrenbaumgarten",
    "phone": "+43 2555 2737",
    "tourism": "museum",
    "website": "www.nonseum.at"
  }
},
{
  "type": "node",
  "id": 3125747175,
  "lat": 48.8435162,
  "lon": 16.6446268,
  "tags": {
    "name": "Coffee Museum",
    "tourism": "museum",
    "website": "http://www.cafefara.cz"
  }
},
{
  "type": "node",
  "id": 3188359949,
  "lat": 48.7409213,
  "lon": 16.7570460,
  "tags": {
    "name": "Museum of agriculture",
    "note": "přesná pozice???",
    "tourism": "museum"
  }
},
{
  "type": "node",
  "id": 3188359951,
  "lat": 48.7410363,
  "lon": 16.7563701,
  "tags": {
    "addr:city": "Valtice",
    "addr:housenumber": "4",
    "addr:postcode": "69142",
    "addr:street": "nám. Svobody",
    "email": "ladarakovska@seznam.cz",
    "name": "Městské muzeum",
    "opening_hours": "May-Oct: Th-Su 13:00-17:00",
    "phone": "+420 728 578 719",
    "tourism": "museum",
    "website": "https://muzeum.webnode.cz/"
  }
},
{
  "type": "node",
  "id": 3216524564,
  "lat": 48.7585644,
  "lon": 16.8817697,
  "tags": {
    "name": "Lichtenštejnský dům",
    "tourism": "museum"
  }
},
{
  "type": "node",
  "id": 3563086193,
  "lat": 48.7573284,
  "lon": 16.6490712,
  "tags": {
    "name": "Traktorium",
    "tourism": "museum"
  }
},
{
  "type": "node",
  "id": 3667914627,
  "lat": 48.8063921,
  "lon": 16.6390688,
  "tags": {
    "name": "Tajemné sklepení",
    "opening_hours": "Jul-Aug Mo-Su 10:00-17:00; May-Jun Mo-Su 13:00-15:00",
    "tourism": "museum",
    "website": "http://www.tajemnesklepeni.estranky.cz/"
  }
},
{
  "type": "node",
  "id": 3702390342,
  "lat": 48.8622575,
  "lon": 17.0248601,
  "tags": {
    "name": "Muzeum Slovácká chalupa",
    "opening_hours": "Su 15:30-17:30",
    "tourism": "museum"
  }
},
{
  "type": "node",
  "id": 3809797016,
  "lat": 48.7198374,
  "lon": 16.3862884,
  "tags": {
    "addr:city": "Laa an der Thaya",
    "addr:housenumber": "4",
    "addr:postcode": "2136",
    "addr:street": "Bürgerspitalgasse",
    "museum": "local",
    "name": "Kutschenmuseum Laa/Thaya",
    "operator": "Wolfgang Satzer",
    "tourism": "museum",
    "website": "http://www.kutschenmuseum-laa.at/"
  }
},
{
  "type": "node",
  "id": 3858998077,
  "lat": 49.1963449,
  "lon": 16.6079588,
  "tags": {
    "email": "kostnice@ticbrno.cz",
    "name": "Brněnská kostnice",
    "name:en": "Brno Ossuary",
    "official_name": "Kostnice u svatého Jakuba",
    "opening_hours": "Tu-Su 09:30-18:00",
    "phone": "+420 515 919 793",
    "tourism": "museum",
    "website": "https://ticbrno.cz/cs/podzemi/kostnice-u-sv-jakuba",
    "website:cs": "https://ticbrno.cz/cs/podzemi/kostnice-u-sv-jakuba",
    "website:en": "https://ticbrno.cz/en/underground/ossuary-underneath-the-church-of-st-james",
    "wheelchair": "no",
    "wikidata": "Q4971773",
    "wikipedia": "cs:Brněnská kostnice"
  }
},
{
  "type": "node",
  "id": 3969471460,
  "lat": 48.8003219,
  "lon": 16.8017930,
  "tags": {
    "name": "Muzeum hraček Lednice",
    "tourism": "museum",
    "website": "http://muzeum-hracek-lednice.cz/"
  }
},
{
  "type": "node",
  "id": 4240996352,
  "lat": 49.1940217,
  "lon": 16.6042865,
  "tags": {
    "charge": "150 CZK/person",
    "fee": "yes",
    "layer": "-1",
    "name": "10-Z",
    "opening_hours": "Tu-Su 11:30-18:15",
    "tourism": "museum",
    "website": "http://10-z.cz"
  }
},
{
  "type": "node",
  "id": 4295036108,
  "lat": 48.8771962,
  "lon": 16.6747336,
  "tags": {
    "addr:city": "Pavlov",
    "addr:housenumber": "264",
    "addr:postcode": "69201",
    "addr:street": "23. dubna",
    "contact:facebook": "https://www.facebook.com/archeoparkpavlov/",
    "contact:instagram": "https://www.instagram.com/archeopark_pavlov/",
    "email": "archeopark@rmm.cz",
    "name": "Archeopark Pavlov",
    "opening_hours": "Apr,Oct: Fr-Su 09:00-16:00; May,Jun,Sep: Tu-Su 09:00-17:00; Jul,Aug: Mo-Su 09:00-18:00",
    "operator": "Regionální muzeum v Mikulově",
    "operator:type": "public",
    "phone": "+420 519 322 126",
    "reservation": "yes",
    "stroller": "yes",
    "tourism": "museum",
    "website": "http://www.archeoparkpavlov.cz/",
    "wheelchair": "yes",
    "wikidata": "Q44850942",
    "wikipedia": "cs:Archeopark Pavlov"
  }
},
{
  "type": "node",
  "id": 4514278444,
  "lat": 48.7367055,
  "lon": 16.7543448,
  "tags": {
    "name": "Zabi Sklep",
    "name:en": "Frog Cellar",
    "opening_hours": "Apr-Nov 10:00-18:00",
    "tourism": "museum"
  }
},
{
  "type": "node",
  "id": 4689652297,
  "lat": 49.1934188,
  "lon": 16.6212429,
  "tags": {
    "level": "3",
    "name": "Klub modelářů železnic Brno I",
    "operator": "Modelářský klub svazu modelářů České republiky, klub modelářů železnic Brno I",
    "tourism": "museum",
    "website": "https://kmz-brno.cz/",
    "wheelchair": "no"
  }
},
{
  "type": "node",
  "id": 4973883701,
  "lat": 49.0399023,
  "lon": 16.7700076,
  "tags": {
    "name": "Kovárna",
    "source": "survey",
    "tourism": "museum",
    "website": "http://www.technicalmuseum.cz/pamatky/kovarna-tesanech/"
  }
},
{
  "type": "node",
  "id": 5483269858,
  "lat": 49.1918607,
  "lon": 16.6084743,
  "tags": {
    "name": "Dětské muzeum",
    "tourism": "museum"
  }
},
{
  "type": "node",
  "id": 5715734995,
  "lat": 49.1913705,
  "lon": 16.5938273,
  "tags": {
    "name": "Muzeum starbrněnského opatství",
    "tourism": "museum"
  }
},
{
  "type": "node",
  "id": 5777196928,
  "lat": 48.7210830,
  "lon": 16.3840868,
  "tags": {
    "addr:city": "Laa an der Thaya",
    "addr:housenumber": "17",
    "addr:postcode": "2136",
    "addr:street": "Stadtplatz",
    "museum": "local",
    "name": "Südmährermuseum Laa",
    "tourism": "museum",
    "website": "http://www.suedmaehrischesheimatmuseum.at/"
  }
},
{
  "type": "node",
  "id": 5782875265,
  "lat": 48.7258984,
  "lon": 16.3866955,
  "tags": {
    "addr:city": "Laa an der Thaya",
    "addr:housenumber": "23",
    "addr:postcode": "2136",
    "addr:street": "Burgplatz",
    "name": "Biermuseum",
    "tourism": "museum"
  }
},
{
  "type": "node",
  "id": 5815492654,
  "lat": 48.6674897,
  "lon": 16.6217145,
  "tags": {
    "name": "Traktormuseum",
    "tourism": "museum"
  }
},
{
  "type": "node",
  "id": 6172901790,
  "lat": 49.0491540,
  "lon": 16.3138548,
  "tags": {
    "addr:city": "Moravský Krumlov",
    "addr:housenumber": "40",
    "addr:postcode": "67201",
    "addr:street": "náměstí T. G. Masaryka",
    "email": "muzeum@meksmk.cz",
    "name": "Městské muzeum a galerie Knížecí dům",
    "opening_hours": "Mo-Fr 07:00-15:30",
    "phone": "+420 515 224 289",
    "tourism": "museum",
    "website": "www.meksmk.cz"
  }
},
{
  "type": "node",
  "id": 6172905543,
  "lat": 49.0202481,
  "lon": 16.3765478,
  "tags": {
    "addr:city": "Vedrovice",
    "addr:housenumber": "327",
    "addr:postcode": "671 75",
    "addr:street": "Vedrovice",
    "email": "info@muzeumvedrovice.cz",
    "name": "Muzeum a informační centrum Vedrovice",
    "phone": "+420 607 026 631",
    "tourism": "museum",
    "website": "www.muzeumvedrovice.cz"
  }
},
{
  "type": "node",
  "id": 6352951731,
  "lat": 49.1911142,
  "lon": 16.6098606,
  "tags": {
    "charge": "80 CZK/adult",
    "contact:website": "http://hrobka.kapucini.cz",
    "fee": "yes",
    "historic": "tomb",
    "name": "Kapucínská hrobka",
    "name:en": "Capuchin Crypt in Brno",
    "opening_hours": "Apr-Oct Mo-Sa 09:00-12:00,13:00-18:00; Apr-Oct Su 11:00-17:00; Nov-Mar Mo-Sa 10:00-16:00; Nov-Mar Su 11:00-16:30",
    "payment:visa": "yes",
    "tomb": "crypt",
    "tourism": "museum",
    "wheelchair": "no"
  }
},
{
  "type": "node",
  "id": 7050623114,
  "lat": 49.1942937,
  "lon": 16.5989953,
  "tags": {
    "fee": "yes",
    "name": "Stálé expozice hradu Špilberk",
    "opening_hours": "Tu-Su 09:00-17:00",
    "tourism": "museum"
  }
},
{
  "type": "node",
  "id": 7158235861,
  "lat": 49.1914003,
  "lon": 16.6082760,
  "tags": {
    "entrance": "main",
    "name": "Mendelianum",
    "tourism": "museum",
    "website": "http://www.mendelianum.cz/"
  }
},
{
  "type": "way",
  "id": 29239092,
  "nodes": [
    387804350,
    387804347,
    321592936,
    321592940,
    387804343,
    387804344,
    387804345,
    387804346,
    321592943,
    321592945,
    321592947,
    321592949,
    387804348,
    387804349,
    387804350
  ],
  "tags": {
    "building": "civic",
    "building:levels": "2",
    "building:ruian:type": "5",
    "name": "Wanieck gallery",
    "ref:ruian:building": "26261391",
    "source": "cuzk:ruian",
    "tourism": "museum"
  }
},
{
  "type": "way",
  "id": 32539504,
  "nodes": [
    365937139,
    365937138,
    3792440939,
    365937137,
    3792440941,
    365937135,
    3792440944,
    365937134,
    365937126,
    365937133,
    365937131,
    365937129,
    365937127,
    365937125,
    365937122,
    365937121,
    365937120,
    365937119,
    365937118,
    365937117,
    365937139
  ],
  "tags": {
    "building": "civic",
    "building:ruian:type": "5",
    "description": "dům ředitele Varhanické školy",
    "name": "Památník Leoše Janáčka",
    "ref:ruian:building": "47930543",
    "source": "cuzk:ruian",
    "tourism": "museum",
    "url": "www.mzm.cz/pamatnik-leose-janacka/",
    "wikidata": "Q29043056"
  }
},
{
  "type": "way",
  "id": 39018396,
  "nodes": [
    465195906,
    465195905,
    465195904,
    465195903,
    465195902,
    465195901,
    465195900,
    465195899,
    465195898,
    465195897,
    3978575027,
    3978575025,
    465195896,
    465195895,
    3978574984,
    3978574982,
    465195894,
    465195893,
    465195892,
    465195891,
    3978574953,
    3978574954,
    465195890,
    465195889,
    465195906
  ],
  "tags": {
    "building": "civic",
    "building:levels": "3",
    "building:ruian:type": "5",
    "name": "Dům umění města Brna",
    "old_name": "Künstlerhaus",
    "ref:ruian:building": "18948642",
    "source": "cuzk:ruian",
    "tourism": "museum",
    "wikidata": "Q1272757"
  }
},
{
  "type": "way",
  "id": 49999689,
  "nodes": [
    5314668459,
    635069425,
    2285940433,
    635069428,
    2285940432,
    635069426,
    635069446,
    635069447,
    635069448,
    370762016,
    635069404,
    5314668454,
    5314668453,
    5314668452,
    5314668451,
    5314668450,
    5314668449,
    5314668448,
    5314668447,
    5314668446,
    5314668445,
    5314668444,
    5314668443,
    5314668442,
    5314668441,
    5314668440,
    5314668439,
    635069419,
    635069390,
    635069391,
    635069402,
    635069401,
    635069398,
    5314668438,
    410847262,
    5314668437,
    635069454,
    5314668436,
    5314668435,
    5314668458,
    2285940434,
    5314668459
  ],
  "tags": {
    "building": "yes",
    "building:levels": "2",
    "building:ruian:type": "19",
    "name": "Dům pánů z Kunštátu",
    "ref:ruian:building": "18946372",
    "source": "cuzk:ruian",
    "tourism": "museum",
    "wikidata": "Q11863360",
    "wikipedia": "cs:Dům pánů z Kunštátu"
  }
},
{
  "type": "way",
  "id": 50171113,
  "nodes": [
    637788533,
    637788536,
    637788535,
    637788522,
    637788521,
    637788520,
    5314668000,
    637788512,
    637788514,
    637788515,
    637788517,
    637788519,
    861828306,
    861828308,
    637788528,
    637788529,
    637788531,
    637788533
  ],
  "tags": {
    "building": "civic",
    "building:levels": "1",
    "building:ruian:type": "15",
    "name": "Uměleckoprůmyslové muzeum",
    "ref:ruian:building": "18947794",
    "source": "cuzk:ruian",
    "tourism": "museum",
    "wikidata": "Q11878249",
    "wikipedia": "cs:Uměleckoprůmyslové muzeum (Brno)"
  }
},
{
  "type": "way",
  "id": 50312541,
  "nodes": [
    639223005,
    639222765,
    663483142,
    639222770,
    639222774,
    639223007,
    639222999,
    663483143,
    639223005
  ],
  "tags": {
    "barrier": "sally_port",
    "building": "yes",
    "heritage": "yes",
    "historic": "city_gate",
    "image": "https://commons.wikimedia.org/wiki/File:Brno_Menin_Gate-01.jpg",
    "name": "Měnínská brána",
    "operator": "Muzeum města Brna",
    "source": "cuzk:km",
    "tourism": "museum",
    "wikidata": "Q12039319",
    "wikipedia": "cs:Měnínská brána"
  }
},
{
  "type": "way",
  "id": 73309608,
  "nodes": [
    869539720,
    869535029,
    869535706,
    870157176,
    870157258,
    869540715,
    872504000,
    869536383,
    870157291,
    869539720
  ],
  "tags": {
    "building": "residential",
    "building:levels": "1",
    "building:ruian:type": "3",
    "name": "Vodní mlýn ve Slupi",
    "operator": "Technické muzeum v Brně",
    "ref:ruian:building": "10832017",
    "source": "cuzk:ruian",
    "tourism": "museum",
    "website": "http://www.technicalmuseum.cz/pamatky/vodni-mlyn-ve-slupi/",
    "wikipedia": "cs:Vodní mlýn ve Slupi"
  }
},
{
  "type": "way",
  "id": 84163492,
  "nodes": [
    979090676,
    979090665,
    979090738,
    979090730,
    3899089984,
    3899089980,
    3899089983,
    979090726,
    3899089985,
    979090719,
    979090714,
    3899089988,
    3899089987,
    3899089989,
    3899089990,
    3899089993,
    3899089992,
    3899089997,
    979090704,
    3899089995,
    3899089996,
    979090721,
    979090686,
    979090718,
    979090705,
    979090702,
    979090690,
    979090683,
    979090676
  ],
  "tags": {
    "amenity": "place_of_worship",
    "building": "church",
    "building:levels": "1",
    "building:ruian:type": "5",
    "contact:phone": "+420 727 914 223",
    "email": "synagoga@rmm.cz",
    "name": "Horní synagoga",
    "opening_hours": "Apr,Oct,Nov Mo-Su 09:00-12:00,13:00-16:00; May,Jun,Sep Tu-Su 09:00-12:00,13:00-17:00; Jul,Aug Mo-Su 09:00-12:00,13:00-18:00",
    "ref:ruian:building": "15203590",
    "religion": "jewish",
    "source": "cuzk:ruian",
    "tourism": "museum"
  }
},
{
  "type": "way",
  "id": 94121682,
  "nodes": [
    1094082907,
    1094082467,
    1094083535,
    1094083940,
    1094082907
  ],
  "tags": {
    "building:part": "yes",
    "name": "Muzeum Brněnska",
    "source": "cuzk:km;uhul:ortofoto",
    "tourism": "museum"
  }
},
{
  "type": "way",
  "id": 98104242,
  "nodes": [
    1135331959,
    1135332026,
    1135332219,
    1135331926,
    1135332308,
    1135332342,
    1135332289,
    1135332314,
    1135331916,
    1135331941,
    1135332192,
    1135332317,
    1135331899,
    1135332066,
    1135331980,
    1135331889,
    1135332068,
    1135332051,
    1135332097,
    1135331959
  ],
  "tags": {
    "castle_type": "stately",
    "castle_type:de": "schloss",
    "historic": "castle",
    "name": "Schloss Loosdorf",
    "note": "Zinnfiguren-Museum",
    "tourism": "museum",
    "visit": "booking",
    "visit:de": "Voranmeldung",
    "website": "www.schloss-loosdorf.at"
  }
},
{
  "type": "way",
  "id": 106904616,
  "nodes": [
    1229258742,
    1229258737,
    1229258755,
    1229258764,
    1229258756,
    1229258739,
    4114948270,
    4114948269,
    5166399776,
    4114948271,
    4114948272,
    1229258766,
    1229258758,
    1229258742
  ],
  "tags": {
    "addr:conscriptionnumber": "200",
    "addr:housenumber": "200",
    "addr:place": "Prace",
    "addr:postcode": "66458",
    "building": "museum",
    "building:levels": "1",
    "building:ruian:type": "3",
    "email": "mohyla-miru@muzeumbrnenska.cz",
    "information": "office",
    "name": "Mohyla míru",
    "name:cs": "Mohyla míru",
    "name:de": "Grabhügel des Friedens",
    "name:en": "Museum of Brno (Battle of Austerlitz 1805)",
    "operator": "Muzeum Brněnska",
    "ref:ruian:addr": "24145301",
    "ref:ruian:building": "23759399",
    "source": "survey",
    "toilets": "yes",
    "toilets:wheelchair": "designated",
    "tourism": "museum",
    "wheelchair": "yes"
  }
},
{
  "type": "way",
  "id": 107231622,
  "nodes": [
    1232856745,
    1232856747,
    1232856748,
    1232856752,
    1232856754,
    1232856756,
    1232856745
  ],
  "tags": {
    "building": "yes",
    "tourism": "museum"
  }
},
{
  "type": "way",
  "id": 107416010,
  "nodes": [
    1234579387,
    1234579300,
    1234579426,
    7191817991,
    7191730170,
    1234579734,
    1224467646,
    1224468011,
    1224468463,
    1234579387
  ],
  "tags": {
    "name": "Muzeum MHD",
    "source": "bing",
    "tourism": "museum"
  }
},
{
  "type": "way",
  "id": 114513047,
  "nodes": [
    1297044689,
    1297044690,
    1297044691,
    1297044692,
    1297044689
  ],
  "tags": {
    "building": "yes",
    "fee": "yes",
    "name": "Erdstallmuseum",
    "tourism": "museum",
    "website": "kulturamkapellenberg.grosskrut.at"
  }
},
{
  "type": "way",
  "id": 121016174,
  "nodes": [
    1355484379,
    1355484268,
    1355484361,
    1355484293,
    1355484379
  ],
  "tags": {
    "building": "yes",
    "name": "Dorfgalerie Hauskirchen",
    "tourism": "museum",
    "wheelchair": "yes"
  }
},
{
  "type": "way",
  "id": 134519857,
  "nodes": [
    1478951275,
    4462062608,
    4462062607,
    4462062614,
    4462062615,
    1478951274,
    1478951276,
    4462062616,
    4462062617,
    4462062610,
    4462062609,
    4462062603,
    4462062604,
    1478979093,
    4462062600,
    4462062598,
    4462062599,
    1478951273,
    1478951275
  ],
  "tags": {
    "building": "yes",
    "name": "Dorfkeller",
    "tourism": "museum",
    "wheelchair": "yes"
  }
},
{
  "type": "way",
  "id": 134522039,
  "nodes": [
    1478989645,
    1478989636,
    1478989647,
    1478989641,
    1478989645
  ],
  "tags": {
    "building": "yes",
    "name": "Hanfmuseum",
    "tourism": "museum",
    "wheelchair": "limited"
  }
},
{
  "type": "way",
  "id": 137866714,
  "nodes": [
    1511801765,
    1511801740,
    1511801736,
    1511801733,
    1511801730,
    1511801688,
    1511801706,
    1511801685,
    1511801700,
    1511801671,
    1511801670,
    1511801655,
    1511801668,
    1511801709,
    1511801689,
    1511801714,
    1511801715,
    1511801764,
    1511801754,
    1511801766,
    1511801774,
    1511801783,
    1511801787,
    1511801831,
    1511801817,
    1511801837,
    1511801830,
    1511801800,
    1511801789,
    1511801762,
    1511801765
  ],
  "tags": {
    "building": "yes",
    "source": "cuzk:km",
    "tourism": "museum"
  }
},
{
  "type": "way",
  "id": 192700375,
  "nodes": [
    2032391565,
    2032391534,
    2032391533,
    2032391532,
    2032391529,
    2032391525,
    2032391530,
    2032391515,
    2032391531,
    2032391542,
    2032391552,
    2032391558,
    2032391563,
    2032391561,
    2032391565
  ],
  "tags": {
    "building": "yes",
    "name": "Muzeum železné opony",
    "source": "cuzk:km",
    "tourism": "museum",
    "website": "http://www.muzeumopony.cz/"
  }
},
{
  "type": "way",
  "id": 229073401,
  "nodes": [
    2377100908,
    2377100907,
    2377100912,
    2377100911,
    2377100913,
    2377100914,
    2377100917,
    2377100918,
    2377100908
  ],
  "tags": {
    "addr:city": "Wilfersdorf",
    "addr:country": "AT",
    "addr:housenumber": "1",
    "addr:postcode": "2193",
    "addr:street": "Hauptstraße",
    "building": "yes",
    "castle_type": "stately",
    "castle_type:de": "schloss",
    "historic": "castle",
    "image": "File:Schloss Wilfersdorf.JPG",
    "name": "Liechtenstein Schloss Wilfersdorf",
    "tourism": "museum",
    "website": "http://www.liechtenstein-schloss-wilfersdorf.at",
    "wikidata": "Q2244188",
    "wikipedia": "de:Schloss Wilfersdorf"
  }
},
{
  "type": "way",
  "id": 233551068,
  "nodes": [
    3910575009,
    3910575006,
    3910575001,
    3910574972,
    3910574970,
    3910574971,
    3910574969,
    3910574975,
    3910574976,
    3910574982,
    3910574983,
    3910575000,
    3910574993,
    2419192954,
    3910575009
  ],
  "tags": {
    "building": "public",
    "building:levels": "2",
    "building:ruian:type": "19",
    "name": "Zetor Gallery",
    "opening_hours": "Mo-Sa 10:00-17:00",
    "phone": "+420 734 416 006",
    "ref:ruian:building": "19252081",
    "source": "cuzk:ruian",
    "start_date": "2013-06-12",
    "tourism": "museum",
    "website": "http://www.zetorgallery.cz/"
  }
},
{
  "type": "way",
  "id": 242922817,
  "nodes": [
    2503640991,
    2503640999,
    2503640998,
    4264708416,
    4264708423,
    1184404279,
    4264708428,
    1184404282,
    1184404242,
    1184404244,
    1184404250,
    2207009498,
    1184404295,
    1184404332,
    1184404331,
    1184404330,
    1184404329,
    1184404326,
    4264708465,
    2503641012,
    2503641016,
    2503641007,
    2503641000,
    2503640991
  ],
  "tags": {
    "name": "Museum für Urgeschichte",
    "tourism": "museum",
    "website": "http://www.mamuz.at/"
  }
},
{
  "type": "way",
  "id": 342492120,
  "nodes": [
    3494854816,
    3494854817,
    3494854809,
    3494854810,
    3518099370,
    3494854816
  ],
  "tags": {
    "addr:city": "Poysdorf",
    "addr:country": "AT",
    "addr:housenumber": "9",
    "addr:postcode": "2170",
    "addr:street": "Brünner Straße",
    "at_bev:addr_date": "2019-04-01",
    "building": "yes",
    "name": "Heimatmuseum Poysdorf",
    "old_name": "Bürgerspital",
    "start_date": "1657",
    "tourism": "museum",
    "wikidata": "Q1299473",
    "wikipedia": "de:Ehemaliges Bürgerspital (Poysdorf)"
  }
},
{
  "type": "way",
  "id": 345119249,
  "nodes": [
    3518099382,
    3518099374,
    3518099371,
    3518099381,
    3518099382
  ],
  "tags": {
    "addr:city": "Poysdorf",
    "addr:country": "AT",
    "addr:housenumber": "28",
    "addr:postcode": "2170",
    "addr:street": "Brünner Straße",
    "building": "yes",
    "name": "Vino Versum Poysdorf",
    "opening_hours": "Mo-Su 09:00-18:00",
    "phone": "+43 2552 20371",
    "tourism": "museum",
    "website": "https://www.poysdorf.at/vino-versum.html",
    "wikidata": "Q15852972",
    "wikipedia": "de:Vino Versum Poysdorf"
  }
},
{
  "type": "way",
  "id": 351891975,
  "nodes": [
    3576944766,
    3576945018,
    3576944763,
    3576944709,
    3576944766
  ],
  "tags": {
    "addr:city": "Břeclav",
    "addr:postcode": "69002",
    "addr:street": "Sady 28. října",
    "building": "yes",
    "email": "velo.fata@seznam.cz",
    "museum": "bicycle",
    "name": "Velo pavilon",
    "opening_hours": "Mo-Fr 09:00-17:00; Sa 09:00-12:00",
    "operator": "Velo - Faťa",
    "phone": "+420 777 595 502",
    "ref:ruian:building": "50449800",
    "source": "cuzk:ruian",
    "tourism": "museum",
    "website": "https://breclav.eu/kultura/kultura/cyklomuzeum"
  }
},
{
  "type": "way",
  "id": 455756017,
  "nodes": [
    4521136385,
    4521136386,
    4521136387,
    4521136388,
    4521136385
  ],
  "tags": {
    "addr:city": "Fallbach",
    "addr:country": "AT",
    "addr:housenumber": "123",
    "addr:place": "Hagendorf",
    "addr:postcode": "2133",
    "building": "yes",
    "name": "Drechsler Museum",
    "tourism": "museum"
  }
},
{
  "type": "relation",
  "id": 407316,
  "members": [
    {
      "type": "way",
      "ref": 50171128,
      "role": "inner"
    },
    {
      "type": "way",
      "ref": 50171124,
      "role": "inner"
    },
    {
      "type": "way",
      "ref": 50171106,
      "role": "outer"
    }
  ],
  "tags": {
    "addr:housenumber": "18",
    "addr:street": "Husova",
    "building": "yes",
    "name": "Pražákův palác - Moravian Gallery",
    "name:en": "Pražák Palace",
    "old_name": "Obecní dům",
    "opening_hours": "We-Th,Sa-Su 10:00-18:00; Fr 10:00-19:00",
    "phone": "+420532169 111",
    "source": "uhul:ortofoto",
    "tourism": "museum",
    "type": "multipolygon",
    "website": "http://www.moravska-galerie.cz",
    "wikidata": "Q12046954",
    "wikipedia": "cs:Pražákův palác"
  }
},
{
  "type": "relation",
  "id": 1424218,
  "members": [
    {
      "type": "way",
      "ref": 99500883,
      "role": "inner"
    },
    {
      "type": "way",
      "ref": 99500951,
      "role": "outer"
    }
  ],
  "tags": {
    "building": "yes",
    "historic": "castle",
    "name": "zámek Ždánice - Vrbasovo muzeum",
    "source": "cuzk:km;knowledge",
    "tourism": "museum",
    "type": "multipolygon"
  }
},
{
  "type": "node",
  "id": 1135331889,
  "lat": 48.6506016,
  "lon": 16.4494325
},
{
  "type": "node",
  "id": 1135331980,
  "lat": 48.6505130,
  "lon": 16.4493172
},
{
  "type": "node",
  "id": 1135332051,
  "lat": 48.6506406,
  "lon": 16.4494057
},
{
  "type": "node",
  "id": 1135332066,
  "lat": 48.6505786,
  "lon": 16.4486923
},
{
  "type": "node",
  "id": 1135332068,
  "lat": 48.6506300,
  "lon": 16.4494460
},
{
  "type": "node",
  "id": 1135332317,
  "lat": 48.6506619,
  "lon": 16.4487539
},
{
  "type": "node",
  "id": 1135331899,
  "lat": 48.6506654,
  "lon": 16.4487218
},
{
  "type": "node",
  "id": 1135331916,
  "lat": 48.6511438,
  "lon": 16.4489122
},
{
  "type": "node",
  "id": 1135331941,
  "lat": 48.6510502,
  "lon": 16.4488739
},
{
  "type": "node",
  "id": 1135331959,
  "lat": 48.6508231,
  "lon": 16.4495157
},
{
  "type": "node",
  "id": 1135332026,
  "lat": 48.6507806,
  "lon": 16.4495291
},
{
  "type": "node",
  "id": 1135332097,
  "lat": 48.6507369,
  "lon": 16.4494638
},
{
  "type": "node",
  "id": 1135332192,
  "lat": 48.6510446,
  "lon": 16.4489015
},
{
  "type": "node",
  "id": 1135332289,
  "lat": 48.6510606,
  "lon": 16.4492207
},
{
  "type": "node",
  "id": 1135332308,
  "lat": 48.6509914,
  "lon": 16.4493226
},
{
  "type": "node",
  "id": 1135332314,
  "lat": 48.6510393,
  "lon": 16.4492019
},
{
  "type": "node",
  "id": 1135332342,
  "lat": 48.6510127,
  "lon": 16.4493360
},
{
  "type": "node",
  "id": 1135331926,
  "lat": 48.6508922,
  "lon": 16.4496015
},
{
  "type": "node",
  "id": 1135332219,
  "lat": 48.6507877,
  "lon": 16.4496203
},
{
  "type": "node",
  "id": 4521136385,
  "lat": 48.6679641,
  "lon": 16.4384726
},
{
  "type": "node",
  "id": 4521136386,
  "lat": 48.6679894,
  "lon": 16.4385651
},
{
  "type": "node",
  "id": 4521136387,
  "lat": 48.6679168,
  "lon": 16.4386114
},
{
  "type": "node",
  "id": 4521136388,
  "lat": 48.6678906,
  "lon": 16.4385168
},
{
  "type": "node",
  "id": 1184404242,
  "lat": 48.5891127,
  "lon": 16.4908727
},
{
  "type": "node",
  "id": 1184404244,
  "lat": 48.5891409,
  "lon": 16.4910401
},
{
  "type": "node",
  "id": 1184404250,
  "lat": 48.5891691,
  "lon": 16.4912552
},
{
  "type": "node",
  "id": 1184404279,
  "lat": 48.5888038,
  "lon": 16.4908967
},
{
  "type": "node",
  "id": 1184404282,
  "lat": 48.5888981,
  "lon": 16.4909613
},
{
  "type": "node",
  "id": 1184404295,
  "lat": 48.5892222,
  "lon": 16.4912957
},
{
  "type": "node",
  "id": 1184404326,
  "lat": 48.5893117,
  "lon": 16.4917154
},
{
  "type": "node",
  "id": 1184404329,
  "lat": 48.5893148,
  "lon": 16.4915499
},
{
  "type": "node",
  "id": 1184404330,
  "lat": 48.5892615,
  "lon": 16.4915510
},
{
  "type": "node",
  "id": 1184404331,
  "lat": 48.5892618,
  "lon": 16.4913832
},
{
  "type": "node",
  "id": 1184404332,
  "lat": 48.5892218,
  "lon": 16.4913823
},
{
  "type": "node",
  "id": 2207009498,
  "lat": 48.5891750,
  "lon": 16.4912945
},
{
  "type": "node",
  "id": 2503640991,
  "lat": 48.5903966,
  "lon": 16.4902986
},
{
  "type": "node",
  "id": 2503640998,
  "lat": 48.5887542,
  "lon": 16.4903992
},
{
  "type": "node",
  "id": 2503640999,
  "lat": 48.5888413,
  "lon": 16.4903035
},
{
  "type": "node",
  "id": 2503641000,
  "lat": 48.5903169,
  "lon": 16.4906546
},
{
  "type": "node",
  "id": 2503641007,
  "lat": 48.5901063,
  "lon": 16.4914771
},
{
  "type": "node",
  "id": 2503641012,
  "lat": 48.5894210,
  "lon": 16.4922825
},
{
  "type": "node",
  "id": 2503641016,
  "lat": 48.5898020,
  "lon": 16.4922650
},
{
  "type": "node",
  "id": 4264708416,
  "lat": 48.5886822,
  "lon": 16.4907109
},
{
  "type": "node",
  "id": 4264708423,
  "lat": 48.5888216,
  "lon": 16.4907642
},
{
  "type": "node",
  "id": 4264708428,
  "lat": 48.5889024,
  "lon": 16.4909396
},
{
  "type": "node",
  "id": 4264708465,
  "lat": 48.5894163,
  "lon": 16.4921406
},
{
  "type": "node",
  "id": 2377100907,
  "lat": 48.5850663,
  "lon": 16.6459241
},
{
  "type": "node",
  "id": 2377100908,
  "lat": 48.5850690,
  "lon": 16.6460592
},
{
  "type": "node",
  "id": 2377100911,
  "lat": 48.5852216,
  "lon": 16.6458896
},
{
  "type": "node",
  "id": 2377100912,
  "lat": 48.5852221,
  "lon": 16.6459171
},
{
  "type": "node",
  "id": 2377100913,
  "lat": 48.5852823,
  "lon": 16.6458869
},
{
  "type": "node",
  "id": 2377100914,
  "lat": 48.5852827,
  "lon": 16.6459101
},
{
  "type": "node",
  "id": 2377100917,
  "lat": 48.5854409,
  "lon": 16.6459030
},
{
  "type": "node",
  "id": 2377100918,
  "lat": 48.5854436,
  "lon": 16.6460424
},
{
  "type": "node",
  "id": 1355484268,
  "lat": 48.6127082,
  "lon": 16.7570864
},
{
  "type": "node",
  "id": 1355484293,
  "lat": 48.6126673,
  "lon": 16.7568348
},
{
  "type": "node",
  "id": 1355484361,
  "lat": 48.6127518,
  "lon": 16.7570466
},
{
  "type": "node",
  "id": 1355484379,
  "lat": 48.6126237,
  "lon": 16.7568746
},
{
  "type": "node",
  "id": 1297044689,
  "lat": 48.6367751,
  "lon": 16.7456740
},
{
  "type": "node",
  "id": 1297044690,
  "lat": 48.6367261,
  "lon": 16.7457902
},
{
  "type": "node",
  "id": 1297044691,
  "lat": 48.6366719,
  "lon": 16.7457301
},
{
  "type": "node",
  "id": 1297044692,
  "lat": 48.6367208,
  "lon": 16.7456159
},
{
  "type": "node",
  "id": 869535029,
  "lat": 48.7835458,
  "lon": 16.2001902
},
{
  "type": "node",
  "id": 869535706,
  "lat": 48.7835548,
  "lon": 16.2002059
},
{
  "type": "node",
  "id": 869539720,
  "lat": 48.7834423,
  "lon": 16.2001605
},
{
  "type": "node",
  "id": 870157176,
  "lat": 48.7835489,
  "lon": 16.2002542
},
{
  "type": "node",
  "id": 870157291,
  "lat": 48.7834364,
  "lon": 16.2002107
},
{
  "type": "node",
  "id": 869536383,
  "lat": 48.7833711,
  "lon": 16.2007668
},
{
  "type": "node",
  "id": 869540715,
  "lat": 48.7834782,
  "lon": 16.2008325
},
{
  "type": "node",
  "id": 870157258,
  "lat": 48.7834828,
  "lon": 16.2007951
},
{
  "type": "node",
  "id": 872504000,
  "lat": 48.7833672,
  "lon": 16.2008002
},
{
  "type": "node",
  "id": 1478951273,
  "lat": 48.7022269,
  "lon": 16.3621631
},
{
  "type": "node",
  "id": 1478951274,
  "lat": 48.7024079,
  "lon": 16.3620850
},
{
  "type": "node",
  "id": 1478951275,
  "lat": 48.7022260,
  "lon": 16.3620809
},
{
  "type": "node",
  "id": 1478951276,
  "lat": 48.7024088,
  "lon": 16.3621680
},
{
  "type": "node",
  "id": 1478979093,
  "lat": 48.7022824,
  "lon": 16.3621708
},
{
  "type": "node",
  "id": 1478989636,
  "lat": 48.7010358,
  "lon": 16.3628618
},
{
  "type": "node",
  "id": 1478989641,
  "lat": 48.7009706,
  "lon": 16.3630103
},
{
  "type": "node",
  "id": 1478989645,
  "lat": 48.7010600,
  "lon": 16.3629128
},
{
  "type": "node",
  "id": 1478989647,
  "lat": 48.7009464,
  "lon": 16.3629593
},
{
  "type": "node",
  "id": 4462062598,
  "lat": 48.7022675,
  "lon": 16.3621504
},
{
  "type": "node",
  "id": 4462062599,
  "lat": 48.7022677,
  "lon": 16.3621620
},
{
  "type": "node",
  "id": 4462062600,
  "lat": 48.7022821,
  "lon": 16.3621500
},
{
  "type": "node",
  "id": 4462062603,
  "lat": 48.7023226,
  "lon": 16.3621584
},
{
  "type": "node",
  "id": 4462062604,
  "lat": 48.7023227,
  "lon": 16.3621697
},
{
  "type": "node",
  "id": 4462062607,
  "lat": 48.7023324,
  "lon": 16.3620295
},
{
  "type": "node",
  "id": 4462062608,
  "lat": 48.7023329,
  "lon": 16.3620781
},
{
  "type": "node",
  "id": 4462062609,
  "lat": 48.7023340,
  "lon": 16.3621581
},
{
  "type": "node",
  "id": 4462062610,
  "lat": 48.7023343,
  "lon": 16.3621816
},
{
  "type": "node",
  "id": 4462062614,
  "lat": 48.7023777,
  "lon": 16.3620283
},
{
  "type": "node",
  "id": 4462062615,
  "lat": 48.7023783,
  "lon": 16.3620858
},
{
  "type": "node",
  "id": 4462062616,
  "lat": 48.7023777,
  "lon": 16.3621689
},
{
  "type": "node",
  "id": 4462062617,
  "lat": 48.7023778,
  "lon": 16.3621805
},
{
  "type": "node",
  "id": 3494854809,
  "lat": 48.6713779,
  "lon": 16.6289790
},
{
  "type": "node",
  "id": 3494854810,
  "lat": 48.6714045,
  "lon": 16.6291102
},
{
  "type": "node",
  "id": 3494854816,
  "lat": 48.6711631,
  "lon": 16.6291100
},
{
  "type": "node",
  "id": 3494854817,
  "lat": 48.6711573,
  "lon": 16.6290816
},
{
  "type": "node",
  "id": 3518099370,
  "lat": 48.6711841,
  "lon": 16.6292127
},
{
  "type": "node",
  "id": 3518099371,
  "lat": 48.6712359,
  "lon": 16.6296061
},
{
  "type": "node",
  "id": 3518099374,
  "lat": 48.6712626,
  "lon": 16.6297364
},
{
  "type": "node",
  "id": 3518099381,
  "lat": 48.6714019,
  "lon": 16.6295280
},
{
  "type": "node",
  "id": 3518099382,
  "lat": 48.6714287,
  "lon": 16.6296583
},
{
  "type": "node",
  "id": 1232856745,
  "lat": 48.7242128,
  "lon": 16.5789838
},
{
  "type": "node",
  "id": 1232856747,
  "lat": 48.7241812,
  "lon": 16.5789471
},
{
  "type": "node",
  "id": 1232856748,
  "lat": 48.7241704,
  "lon": 16.5789685
},
{
  "type": "node",
  "id": 1232856752,
  "lat": 48.7241587,
  "lon": 16.5789916
},
{
  "type": "node",
  "id": 1232856754,
  "lat": 48.7241904,
  "lon": 16.5790283
},
{
  "type": "node",
  "id": 1232856756,
  "lat": 48.7242011,
  "lon": 16.5790071
},
{
  "type": "node",
  "id": 2032391515,
  "lat": 48.7386080,
  "lon": 16.7330060
},
{
  "type": "node",
  "id": 2032391525,
  "lat": 48.7386150,
  "lon": 16.7331260
},
{
  "type": "node",
  "id": 2032391529,
  "lat": 48.7386240,
  "lon": 16.7331610
},
{
  "type": "node",
  "id": 2032391530,
  "lat": 48.7386351,
  "lon": 16.7331051
},
{
  "type": "node",
  "id": 2032391531,
  "lat": 48.7386400,
  "lon": 16.7329860
},
{
  "type": "node",
  "id": 2032391532,
  "lat": 48.7386475,
  "lon": 16.7331487
},
{
  "type": "node",
  "id": 2032391533,
  "lat": 48.7386500,
  "lon": 16.7331590
},
{
  "type": "node",
  "id": 2032391534,
  "lat": 48.7386650,
  "lon": 16.7332160
},
{
  "type": "node",
  "id": 2032391542,
  "lat": 48.7387090,
  "lon": 16.7329510
},
{
  "type": "node",
  "id": 2032391552,
  "lat": 48.7387400,
  "lon": 16.7330700
},
{
  "type": "node",
  "id": 2032391558,
  "lat": 48.7387510,
  "lon": 16.7330650
},
{
  "type": "node",
  "id": 2032391561,
  "lat": 48.7387550,
  "lon": 16.7331110
},
{
  "type": "node",
  "id": 2032391563,
  "lat": 48.7387630,
  "lon": 16.7331080
},
{
  "type": "node",
  "id": 2032391565,
  "lat": 48.7387640,
  "lon": 16.7331560
},
{
  "type": "node",
  "id": 979090665,
  "lat": 48.8076640,
  "lon": 16.6361974
},
{
  "type": "node",
  "id": 979090676,
  "lat": 48.8076843,
  "lon": 16.6361999
},
{
  "type": "node",
  "id": 979090683,
  "lat": 48.8076847,
  "lon": 16.6361935
},
{
  "type": "node",
  "id": 979090686,
  "lat": 48.8077715,
  "lon": 16.6361742
},
{
  "type": "node",
  "id": 979090690,
  "lat": 48.8077165,
  "lon": 16.6361976
},
{
  "type": "node",
  "id": 979090702,
  "lat": 48.8077209,
  "lon": 16.6362049
},
{
  "type": "node",
  "id": 979090704,
  "lat": 48.8077453,
  "lon": 16.6359219
},
{
  "type": "node",
  "id": 979090705,
  "lat": 48.8077603,
  "lon": 16.6362011
},
{
  "type": "node",
  "id": 979090714,
  "lat": 48.8077153,
  "lon": 16.6359102
},
{
  "type": "node",
  "id": 979090718,
  "lat": 48.8077597,
  "lon": 16.6361757
},
{
  "type": "node",
  "id": 979090719,
  "lat": 48.8077156,
  "lon": 16.6359523
},
{
  "type": "node",
  "id": 979090721,
  "lat": 48.8077721,
  "lon": 16.6359515
},
{
  "type": "node",
  "id": 979090726,
  "lat": 48.8076064,
  "lon": 16.6359477
},
{
  "type": "node",
  "id": 979090730,
  "lat": 48.8076175,
  "lon": 16.6361850
},
{
  "type": "node",
  "id": 979090738,
  "lat": 48.8076643,
  "lon": 16.6361909
},
{
  "type": "node",
  "id": 3899089980,
  "lat": 48.8075417,
  "lon": 16.6360883
},
{
  "type": "node",
  "id": 3899089983,
  "lat": 48.8075881,
  "lon": 16.6360039
},
{
  "type": "node",
  "id": 3899089984,
  "lat": 48.8076147,
  "lon": 16.6361732
},
{
  "type": "node",
  "id": 3899089985,
  "lat": 48.8076364,
  "lon": 16.6359532
},
{
  "type": "node",
  "id": 3899089987,
  "lat": 48.8077099,
  "lon": 16.6358759
},
{
  "type": "node",
  "id": 3899089988,
  "lat": 48.8077123,
  "lon": 16.6359100
},
{
  "type": "node",
  "id": 3899089989,
  "lat": 48.8077179,
  "lon": 16.6358746
},
{
  "type": "node",
  "id": 3899089990,
  "lat": 48.8077184,
  "lon": 16.6358838
},
{
  "type": "node",
  "id": 3899089992,
  "lat": 48.8077382,
  "lon": 16.6358747
},
{
  "type": "node",
  "id": 3899089993,
  "lat": 48.8077382,
  "lon": 16.6358824
},
{
  "type": "node",
  "id": 3899089995,
  "lat": 48.8077417,
  "lon": 16.6359220
},
{
  "type": "node",
  "id": 3899089996,
  "lat": 48.8077426,
  "lon": 16.6359534
},
{
  "type": "node",
  "id": 3899089997,
  "lat": 48.8077474,
  "lon": 16.6358746
},
{
  "type": "node",
  "id": 1511801655,
  "lat": 48.8097280,
  "lon": 16.6367136
},
{
  "type": "node",
  "id": 1511801668,
  "lat": 48.8097575,
  "lon": 16.6366072
},
{
  "type": "node",
  "id": 1511801670,
  "lat": 48.8097610,
  "lon": 16.6367347
},
{
  "type": "node",
  "id": 1511801671,
  "lat": 48.8097640,
  "lon": 16.6367242
},
{
  "type": "node",
  "id": 1511801685,
  "lat": 48.8097871,
  "lon": 16.6367712
},
{
  "type": "node",
  "id": 1511801688,
  "lat": 48.8097926,
  "lon": 16.6368011
},
{
  "type": "node",
  "id": 1511801689,
  "lat": 48.8097944,
  "lon": 16.6366635
},
{
  "type": "node",
  "id": 1511801700,
  "lat": 48.8097946,
  "lon": 16.6367439
},
{
  "type": "node",
  "id": 1511801706,
  "lat": 48.8097988,
  "lon": 16.6367787
},
{
  "type": "node",
  "id": 1511801709,
  "lat": 48.8098021,
  "lon": 16.6366358
},
{
  "type": "node",
  "id": 1511801714,
  "lat": 48.8098125,
  "lon": 16.6366751
},
{
  "type": "node",
  "id": 1511801715,
  "lat": 48.8098212,
  "lon": 16.6366439
},
{
  "type": "node",
  "id": 1511801730,
  "lat": 48.8098283,
  "lon": 16.6368239
},
{
  "type": "node",
  "id": 1511801733,
  "lat": 48.8098339,
  "lon": 16.6368038
},
{
  "type": "node",
  "id": 1511801736,
  "lat": 48.8098473,
  "lon": 16.6368123
},
{
  "type": "node",
  "id": 1511801740,
  "lat": 48.8098552,
  "lon": 16.6367837
},
{
  "type": "node",
  "id": 1511801754,
  "lat": 48.8098728,
  "lon": 16.6367148
},
{
  "type": "node",
  "id": 1511801762,
  "lat": 48.8098806,
  "lon": 16.6368135
},
{
  "type": "node",
  "id": 1511801764,
  "lat": 48.8098817,
  "lon": 16.6366826
},
{
  "type": "node",
  "id": 1511801765,
  "lat": 48.8098838,
  "lon": 16.6368020
},
{
  "type": "node",
  "id": 1511801766,
  "lat": 48.8098947,
  "lon": 16.6367288
},
{
  "type": "node",
  "id": 1511801774,
  "lat": 48.8098988,
  "lon": 16.6367141
},
{
  "type": "node",
  "id": 1511801783,
  "lat": 48.8099080,
  "lon": 16.6367200
},
{
  "type": "node",
  "id": 1511801787,
  "lat": 48.8099105,
  "lon": 16.6367110
},
{
  "type": "node",
  "id": 1511801789,
  "lat": 48.8099165,
  "lon": 16.6368365
},
{
  "type": "node",
  "id": 1511801800,
  "lat": 48.8099198,
  "lon": 16.6368242
},
{
  "type": "node",
  "id": 1511801817,
  "lat": 48.8099389,
  "lon": 16.6367609
},
{
  "type": "node",
  "id": 1511801830,
  "lat": 48.8099443,
  "lon": 16.6368398
},
{
  "type": "node",
  "id": 1511801831,
  "lat": 48.8099464,
  "lon": 16.6367340
},
{
  "type": "node",
  "id": 1511801837,
  "lat": 48.8099621,
  "lon": 16.6367757
},
{
  "type": "node",
  "id": 370762016,
  "lat": 49.1931654,
  "lon": 16.6065152
},
{
  "type": "node",
  "id": 410847262,
  "lat": 49.1932467,
  "lon": 16.6064405
},
{
  "type": "node",
  "id": 635069390,
  "lat": 49.1928990,
  "lon": 16.6065087
},
{
  "type": "node",
  "id": 635069391,
  "lat": 49.1929851,
  "lon": 16.6064410
},
{
  "type": "node",
  "id": 635069398,
  "lat": 49.1931640,
  "lon": 16.6062828
},
{
  "type": "node",
  "id": 635069401,
  "lat": 49.1930288,
  "lon": 16.6064138
},
{
  "type": "node",
  "id": 635069402,
  "lat": 49.1930265,
  "lon": 16.6064088
},
{
  "type": "node",
  "id": 635069404,
  "lat": 49.1931334,
  "lon": 16.6064351
},
{
  "type": "node",
  "id": 635069419,
  "lat": 49.1929278,
  "lon": 16.6066093
},
{
  "type": "node",
  "id": 635069426,
  "lat": 49.1929522,
  "lon": 16.6067527
},
{
  "type": "node",
  "id": 635069428,
  "lat": 49.1929261,
  "lon": 16.6067693
},
{
  "type": "node",
  "id": 635069446,
  "lat": 49.1931509,
  "lon": 16.6066079
},
{
  "type": "node",
  "id": 635069447,
  "lat": 49.1931468,
  "lon": 16.6065965
},
{
  "type": "node",
  "id": 635069448,
  "lat": 49.1931862,
  "lon": 16.6065674
},
{
  "type": "node",
  "id": 635069454,
  "lat": 49.1933096,
  "lon": 16.6065919
},
{
  "type": "node",
  "id": 637788512,
  "lat": 49.1941234,
  "lon": 16.6046375
},
{
  "type": "node",
  "id": 637788514,
  "lat": 49.1942155,
  "lon": 16.6046046
},
{
  "type": "node",
  "id": 637788515,
  "lat": 49.1942163,
  "lon": 16.6046089
},
{
  "type": "node",
  "id": 637788517,
  "lat": 49.1942805,
  "lon": 16.6045874
},
{
  "type": "node",
  "id": 637788519,
  "lat": 49.1942795,
  "lon": 16.6045810
},
{
  "type": "node",
  "id": 637788520,
  "lat": 49.1941974,
  "lon": 16.6051266
},
{
  "type": "node",
  "id": 637788521,
  "lat": 49.1942805,
  "lon": 16.6050971
},
{
  "type": "node",
  "id": 637788522,
  "lat": 49.1942825,
  "lon": 16.6051139
},
{
  "type": "node",
  "id": 637788528,
  "lat": 49.1943815,
  "lon": 16.6045521
},
{
  "type": "node",
  "id": 637788529,
  "lat": 49.1943803,
  "lon": 16.6045463
},
{
  "type": "node",
  "id": 637788531,
  "lat": 49.1944719,
  "lon": 16.6045157
},
{
  "type": "node",
  "id": 637788533,
  "lat": 49.1945468,
  "lon": 16.6050022
},
{
  "type": "node",
  "id": 637788535,
  "lat": 49.1944649,
  "lon": 16.6050468
},
{
  "type": "node",
  "id": 637788536,
  "lat": 49.1944624,
  "lon": 16.6050327
},
{
  "type": "node",
  "id": 861828306,
  "lat": 49.1943161,
  "lon": 16.6045683
},
{
  "type": "node",
  "id": 861828308,
  "lat": 49.1943171,
  "lon": 16.6045741
},
{
  "type": "node",
  "id": 2285940432,
  "lat": 49.1929401,
  "lon": 16.6067596
},
{
  "type": "node",
  "id": 5314668000,
  "lat": 49.1941600,
  "lon": 16.6048796
},
{
  "type": "node",
  "id": 5314668435,
  "lat": 49.1932402,
  "lon": 16.6066604
},
{
  "type": "node",
  "id": 5314668436,
  "lat": 49.1933032,
  "lon": 16.6065992
},
{
  "type": "node",
  "id": 5314668437,
  "lat": 49.1932690,
  "lon": 16.6064883
},
{
  "type": "node",
  "id": 5314668438,
  "lat": 49.1931715,
  "lon": 16.6062795
},
{
  "type": "node",
  "id": 5314668439,
  "lat": 49.1929798,
  "lon": 16.6065665
},
{
  "type": "node",
  "id": 5314668440,
  "lat": 49.1929832,
  "lon": 16.6065748
},
{
  "type": "node",
  "id": 5314668441,
  "lat": 49.1929872,
  "lon": 16.6065704
},
{
  "type": "node",
  "id": 5314668442,
  "lat": 49.1929842,
  "lon": 16.6065621
},
{
  "type": "node",
  "id": 5314668443,
  "lat": 49.1930360,
  "lon": 16.6065179
},
{
  "type": "node",
  "id": 5314668444,
  "lat": 49.1930394,
  "lon": 16.6065262
},
{
  "type": "node",
  "id": 5314668445,
  "lat": 49.1930430,
  "lon": 16.6065231
},
{
  "type": "node",
  "id": 5314668446,
  "lat": 49.1930402,
  "lon": 16.6065143
},
{
  "type": "node",
  "id": 5314668447,
  "lat": 49.1930552,
  "lon": 16.6065021
},
{
  "type": "node",
  "id": 5314668448,
  "lat": 49.1930582,
  "lon": 16.6065097
},
{
  "type": "node",
  "id": 5314668449,
  "lat": 49.1930625,
  "lon": 16.6065056
},
{
  "type": "node",
  "id": 5314668450,
  "lat": 49.1930598,
  "lon": 16.6064981
},
{
  "type": "node",
  "id": 5314668451,
  "lat": 49.1930761,
  "lon": 16.6064836
},
{
  "type": "node",
  "id": 5314668452,
  "lat": 49.1930792,
  "lon": 16.6064908
},
{
  "type": "node",
  "id": 5314668453,
  "lat": 49.1930836,
  "lon": 16.6064870
},
{
  "type": "node",
  "id": 5314668454,
  "lat": 49.1930813,
  "lon": 16.6064798
},
{
  "type": "node",
  "id": 5314668458,
  "lat": 49.1931846,
  "lon": 16.6067145
},
{
  "type": "node",
  "id": 321592936,
  "lat": 49.1876666,
  "lon": 16.6157292
},
{
  "type": "node",
  "id": 321592940,
  "lat": 49.1876819,
  "lon": 16.6158361
},
{
  "type": "node",
  "id": 321592943,
  "lat": 49.1873824,
  "lon": 16.6164136
},
{
  "type": "node",
  "id": 321592945,
  "lat": 49.1868212,
  "lon": 16.6166059
},
{
  "type": "node",
  "id": 321592947,
  "lat": 49.1867482,
  "lon": 16.6161284
},
{
  "type": "node",
  "id": 321592949,
  "lat": 49.1867763,
  "lon": 16.6160359
},
{
  "type": "node",
  "id": 387804343,
  "lat": 49.1876552,
  "lon": 16.6159190
},
{
  "type": "node",
  "id": 387804344,
  "lat": 49.1875154,
  "lon": 16.6162119
},
{
  "type": "node",
  "id": 387804345,
  "lat": 49.1874192,
  "lon": 16.6162484
},
{
  "type": "node",
  "id": 387804346,
  "lat": 49.1874283,
  "lon": 16.6163171
},
{
  "type": "node",
  "id": 387804347,
  "lat": 49.1870937,
  "lon": 16.6159271
},
{
  "type": "node",
  "id": 387804348,
  "lat": 49.1870016,
  "lon": 16.6159590
},
{
  "type": "node",
  "id": 387804349,
  "lat": 49.1869996,
  "lon": 16.6159396
},
{
  "type": "node",
  "id": 387804350,
  "lat": 49.1870904,
  "lon": 16.6159088
},
{
  "type": "node",
  "id": 635069425,
  "lat": 49.1929504,
  "lon": 16.6068591
},
{
  "type": "node",
  "id": 639222765,
  "lat": 49.1941899,
  "lon": 16.6126917
},
{
  "type": "node",
  "id": 639222770,
  "lat": 49.1942750,
  "lon": 16.6125963
},
{
  "type": "node",
  "id": 639222774,
  "lat": 49.1943354,
  "lon": 16.6126062
},
{
  "type": "node",
  "id": 639222999,
  "lat": 49.1943162,
  "lon": 16.6127203
},
{
  "type": "node",
  "id": 639223005,
  "lat": 49.1942439,
  "lon": 16.6127997
},
{
  "type": "node",
  "id": 639223007,
  "lat": 49.1943349,
  "lon": 16.6127251
},
{
  "type": "node",
  "id": 663483142,
  "lat": 49.1942279,
  "lon": 16.6126487
},
{
  "type": "node",
  "id": 663483143,
  "lat": 49.1942808,
  "lon": 16.6127578
},
{
  "type": "node",
  "id": 2285940433,
  "lat": 49.1929419,
  "lon": 16.6068261
},
{
  "type": "node",
  "id": 2285940434,
  "lat": 49.1929704,
  "lon": 16.6068570
},
{
  "type": "node",
  "id": 5314668459,
  "lat": 49.1929532,
  "lon": 16.6068685
},
{
  "type": "node",
  "id": 1229258737,
  "lat": 49.1281047,
  "lon": 16.7632260
},
{
  "type": "node",
  "id": 1229258739,
  "lat": 49.1278632,
  "lon": 16.7626844
},
{
  "type": "node",
  "id": 1229258742,
  "lat": 49.1281514,
  "lon": 16.7630609
},
{
  "type": "node",
  "id": 1229258755,
  "lat": 49.1279463,
  "lon": 16.7631291
},
{
  "type": "node",
  "id": 1229258756,
  "lat": 49.1278177,
  "lon": 16.7628512
},
{
  "type": "node",
  "id": 1229258758,
  "lat": 49.1282179,
  "lon": 16.7631028
},
{
  "type": "node",
  "id": 1229258764,
  "lat": 49.1279923,
  "lon": 16.7629609
},
{
  "type": "node",
  "id": 1229258766,
  "lat": 49.1282635,
  "lon": 16.7629354
},
{
  "type": "node",
  "id": 4114948269,
  "lat": 49.1279151,
  "lon": 16.7627282
},
{
  "type": "node",
  "id": 4114948270,
  "lat": 49.1279177,
  "lon": 16.7627186
},
{
  "type": "node",
  "id": 4114948271,
  "lat": 49.1282051,
  "lon": 16.7629114
},
{
  "type": "node",
  "id": 4114948272,
  "lat": 49.1282081,
  "lon": 16.7629005
},
{
  "type": "node",
  "id": 5166399776,
  "lat": 49.1280617,
  "lon": 16.7628208
},
{
  "type": "node",
  "id": 1094082467,
  "lat": 49.1693847,
  "lon": 16.7270720
},
{
  "type": "node",
  "id": 1094082907,
  "lat": 49.1693226,
  "lon": 16.7269555
},
{
  "type": "node",
  "id": 1094083535,
  "lat": 49.1692319,
  "lon": 16.7272859
},
{
  "type": "node",
  "id": 1094083940,
  "lat": 49.1691586,
  "lon": 16.7271686
},
{
  "type": "node",
  "id": 637788505,
  "lat": 49.1953304,
  "lon": 16.6042154
},
{
  "type": "node",
  "id": 637788570,
  "lat": 49.1954018,
  "lon": 16.6046984
},
{
  "type": "node",
  "id": 637788655,
  "lat": 49.1955474,
  "lon": 16.6041402
},
{
  "type": "node",
  "id": 637788659,
  "lat": 49.1955481,
  "lon": 16.6041446
},
{
  "type": "node",
  "id": 637788660,
  "lat": 49.1954919,
  "lon": 16.6043901
},
{
  "type": "node",
  "id": 637788662,
  "lat": 49.1954514,
  "lon": 16.6044038
},
{
  "type": "node",
  "id": 637788664,
  "lat": 49.1954437,
  "lon": 16.6043509
},
{
  "type": "node",
  "id": 637788666,
  "lat": 49.1954843,
  "lon": 16.6043372
},
{
  "type": "node",
  "id": 637788751,
  "lat": 49.1956188,
  "lon": 16.6046233
},
{
  "type": "node",
  "id": 637788756,
  "lat": 49.1954796,
  "lon": 16.6045412
},
{
  "type": "node",
  "id": 637788757,
  "lat": 49.1954714,
  "lon": 16.6044975
},
{
  "type": "node",
  "id": 637788758,
  "lat": 49.1954961,
  "lon": 16.6044867
},
{
  "type": "node",
  "id": 637788759,
  "lat": 49.1955042,
  "lon": 16.6045304
},
{
  "type": "node",
  "id": 3202765546,
  "lat": 49.1953658,
  "lon": 16.6044552
},
{
  "type": "node",
  "id": 3202765550,
  "lat": 49.1956058,
  "lon": 16.6045343
},
{
  "type": "node",
  "id": 3205806821,
  "lat": 49.1955838,
  "lon": 16.6043863
},
{
  "type": "node",
  "id": 365937117,
  "lat": 49.2015264,
  "lon": 16.6026503
},
{
  "type": "node",
  "id": 365937118,
  "lat": 49.2014920,
  "lon": 16.6026925
},
{
  "type": "node",
  "id": 365937119,
  "lat": 49.2014954,
  "lon": 16.6027008
},
{
  "type": "node",
  "id": 365937120,
  "lat": 49.2014488,
  "lon": 16.6027572
},
{
  "type": "node",
  "id": 365937121,
  "lat": 49.2015313,
  "lon": 16.6029149
},
{
  "type": "node",
  "id": 365937122,
  "lat": 49.2015762,
  "lon": 16.6028634
},
{
  "type": "node",
  "id": 365937125,
  "lat": 49.2015421,
  "lon": 16.6027948
},
{
  "type": "node",
  "id": 365937126,
  "lat": 49.2015599,
  "lon": 16.6026962
},
{
  "type": "node",
  "id": 365937127,
  "lat": 49.2015711,
  "lon": 16.6027619
},
{
  "type": "node",
  "id": 365937129,
  "lat": 49.2015768,
  "lon": 16.6027543
},
{
  "type": "node",
  "id": 365937131,
  "lat": 49.2015566,
  "lon": 16.6027125
},
{
  "type": "node",
  "id": 365937133,
  "lat": 49.2015587,
  "lon": 16.6027061
},
{
  "type": "node",
  "id": 365937134,
  "lat": 49.2015593,
  "lon": 16.6026898
},
{
  "type": "node",
  "id": 365937135,
  "lat": 49.2015555,
  "lon": 16.6026778
},
{
  "type": "node",
  "id": 365937137,
  "lat": 49.2015504,
  "lon": 16.6026711
},
{
  "type": "node",
  "id": 365937138,
  "lat": 49.2015400,
  "lon": 16.6026668
},
{
  "type": "node",
  "id": 365937139,
  "lat": 49.2015353,
  "lon": 16.6026680
},
{
  "type": "node",
  "id": 3792440939,
  "lat": 49.2015475,
  "lon": 16.6026689
},
{
  "type": "node",
  "id": 3792440941,
  "lat": 49.2015530,
  "lon": 16.6026739
},
{
  "type": "node",
  "id": 3792440944,
  "lat": 49.2015581,
  "lon": 16.6026833
},
{
  "type": "node",
  "id": 465195889,
  "lat": 49.1963203,
  "lon": 16.6143648
},
{
  "type": "node",
  "id": 465195890,
  "lat": 49.1961888,
  "lon": 16.6144748
},
{
  "type": "node",
  "id": 465195891,
  "lat": 49.1962293,
  "lon": 16.6145909
},
{
  "type": "node",
  "id": 465195892,
  "lat": 49.1961488,
  "lon": 16.6146631
},
{
  "type": "node",
  "id": 465195893,
  "lat": 49.1962297,
  "lon": 16.6148764
},
{
  "type": "node",
  "id": 465195894,
  "lat": 49.1963112,
  "lon": 16.6148038
},
{
  "type": "node",
  "id": 465195895,
  "lat": 49.1963566,
  "lon": 16.6149169
},
{
  "type": "node",
  "id": 465195896,
  "lat": 49.1964869,
  "lon": 16.6148013
},
{
  "type": "node",
  "id": 465195897,
  "lat": 49.1964339,
  "lon": 16.6146512
},
{
  "type": "node",
  "id": 465195898,
  "lat": 49.1964703,
  "lon": 16.6146173
},
{
  "type": "node",
  "id": 465195899,
  "lat": 49.1964634,
  "lon": 16.6145983
},
{
  "type": "node",
  "id": 465195900,
  "lat": 49.1964944,
  "lon": 16.6145685
},
{
  "type": "node",
  "id": 465195901,
  "lat": 49.1964541,
  "lon": 16.6144658
},
{
  "type": "node",
  "id": 465195902,
  "lat": 49.1964236,
  "lon": 16.6144939
},
{
  "type": "node",
  "id": 465195903,
  "lat": 49.1964151,
  "lon": 16.6144720
},
{
  "type": "node",
  "id": 465195904,
  "lat": 49.1963783,
  "lon": 16.6145065
},
{
  "type": "node",
  "id": 465195905,
  "lat": 49.1963279,
  "lon": 16.6143740
},
{
  "type": "node",
  "id": 465195906,
  "lat": 49.1963249,
  "lon": 16.6143767
},
{
  "type": "node",
  "id": 3978574953,
  "lat": 49.1961904,
  "lon": 16.6144880
},
{
  "type": "node",
  "id": 3978574954,
  "lat": 49.1961923,
  "lon": 16.6144859
},
{
  "type": "node",
  "id": 3978574982,
  "lat": 49.1963504,
  "lon": 16.6149076
},
{
  "type": "node",
  "id": 3978574984,
  "lat": 49.1963527,
  "lon": 16.6149061
},
{
  "type": "node",
  "id": 3978575025,
  "lat": 49.1964834,
  "lon": 16.6147889
},
{
  "type": "node",
  "id": 3978575027,
  "lat": 49.1964853,
  "lon": 16.6147869
},
{
  "type": "node",
  "id": 2419192954,
  "lat": 49.1996221,
  "lon": 16.6717154
},
{
  "type": "node",
  "id": 3910574969,
  "lat": 49.1990107,
  "lon": 16.6721434
},
{
  "type": "node",
  "id": 3910574970,
  "lat": 49.1990144,
  "lon": 16.6721737
},
{
  "type": "node",
  "id": 3910574971,
  "lat": 49.1990181,
  "lon": 16.6721713
},
{
  "type": "node",
  "id": 3910574972,
  "lat": 49.1990443,
  "lon": 16.6722864
},
{
  "type": "node",
  "id": 3910574975,
  "lat": 49.1990565,
  "lon": 16.6721149
},
{
  "type": "node",
  "id": 3910574976,
  "lat": 49.1990629,
  "lon": 16.6721397
},
{
  "type": "node",
  "id": 3910574982,
  "lat": 49.1991651,
  "lon": 16.6720778
},
{
  "type": "node",
  "id": 3910574983,
  "lat": 49.1991658,
  "lon": 16.6720803
},
{
  "type": "node",
  "id": 3910574993,
  "lat": 49.1993869,
  "lon": 16.6718573
},
{
  "type": "node",
  "id": 3910575000,
  "lat": 49.1994058,
  "lon": 16.6719352
},
{
  "type": "node",
  "id": 3910575001,
  "lat": 49.1994487,
  "lon": 16.6720444
},
{
  "type": "node",
  "id": 3910575006,
  "lat": 49.1996029,
  "lon": 16.6719565
},
{
  "type": "node",
  "id": 3910575009,
  "lat": 49.1996727,
  "lon": 16.6719137
},
{
  "type": "node",
  "id": 1224467646,
  "lat": 49.1995501,
  "lon": 16.6940381
},
{
  "type": "node",
  "id": 1224468011,
  "lat": 49.1998488,
  "lon": 16.6938136
},
{
  "type": "node",
  "id": 1234579426,
  "lat": 49.1988486,
  "lon": 16.6949921
},
{
  "type": "node",
  "id": 1234579734,
  "lat": 49.1987882,
  "lon": 16.6942888
},
{
  "type": "node",
  "id": 7191730170,
  "lat": 49.1987952,
  "lon": 16.6944234
},
{
  "type": "node",
  "id": 7191817991,
  "lat": 49.1987996,
  "lon": 16.6944838
},
{
  "type": "node",
  "id": 1224468463,
  "lat": 49.2011803,
  "lon": 16.6935737
},
{
  "type": "node",
  "id": 1234579300,
  "lat": 49.2014421,
  "lon": 16.6943837
},
{
  "type": "node",
  "id": 1234579387,
  "lat": 49.2013523,
  "lon": 16.6935625
},
{
  "type": "node",
  "id": 3576944709,
  "lat": 48.7544888,
  "lon": 16.8911482
},
{
  "type": "node",
  "id": 3576944763,
  "lat": 48.7545894,
  "lon": 16.8914211
},
{
  "type": "node",
  "id": 3576944766,
  "lat": 48.7545914,
  "lon": 16.8910621
},
{
  "type": "node",
  "id": 3576945018,
  "lat": 48.7546917,
  "lon": 16.8913354
},
{
  "type": "node",
  "id": 1150908351,
  "lat": 49.0652140,
  "lon": 17.0249650
},
{
  "type": "node",
  "id": 1150908536,
  "lat": 49.0648780,
  "lon": 17.0250440
},
{
  "type": "node",
  "id": 1150908693,
  "lat": 49.0649560,
  "lon": 17.0256780
},
{
  "type": "node",
  "id": 1150908766,
  "lat": 49.0648560,
  "lon": 17.0251230
},
{
  "type": "node",
  "id": 1150908840,
  "lat": 49.0647980,
  "lon": 17.0251840
},
{
  "type": "node",
  "id": 1150909007,
  "lat": 49.0648830,
  "lon": 17.0253380
},
{
  "type": "node",
  "id": 1150909125,
  "lat": 49.0649560,
  "lon": 17.0256300
},
{
  "type": "node",
  "id": 1150909191,
  "lat": 49.0649090,
  "lon": 17.0250960
},
{
  "type": "node",
  "id": 1150909286,
  "lat": 49.0650360,
  "lon": 17.0254500
},
{
  "type": "node",
  "id": 1150909297,
  "lat": 49.0649140,
  "lon": 17.0256700
},
{
  "type": "node",
  "id": 1150909349,
  "lat": 49.0648660,
  "lon": 17.0250800
},
{
  "type": "node",
  "id": 1150909365,
  "lat": 49.0653390,
  "lon": 17.0254110
},
{
  "type": "node",
  "id": 1150909380,
  "lat": 49.0653100,
  "lon": 17.0254710
},
{
  "type": "node",
  "id": 1150909422,
  "lat": 49.0647930,
  "lon": 17.0251510
},
{
  "type": "node",
  "id": 1150909494,
  "lat": 49.0652230,
  "lon": 17.0249230
},
{
  "type": "node",
  "id": 1150909562,
  "lat": 49.0648340,
  "lon": 17.0251700
},
{
  "type": "node",
  "id": 1150909696,
  "lat": 49.0648880,
  "lon": 17.0254480
},
{
  "type": "node",
  "id": 1150909780,
  "lat": 49.0648350,
  "lon": 17.0251090
},
{
  "type": "node",
  "id": 1150909882,
  "lat": 49.0651510,
  "lon": 17.0251450
},
{
  "type": "node",
  "id": 1150910008,
  "lat": 49.0649810,
  "lon": 17.0256950
},
{
  "type": "node",
  "id": 1150910055,
  "lat": 49.0648630,
  "lon": 17.0253530
},
{
  "type": "node",
  "id": 1150910129,
  "lat": 49.0653190,
  "lon": 17.0254200
},
{
  "type": "node",
  "id": 1150910144,
  "lat": 49.0649510,
  "lon": 17.0256510
},
{
  "type": "node",
  "id": 1150910227,
  "lat": 49.0649010,
  "lon": 17.0250640
},
{
  "type": "node",
  "id": 1150910338,
  "lat": 49.0652030,
  "lon": 17.0253530
},
{
  "type": "node",
  "id": 1150910353,
  "lat": 49.0649230,
  "lon": 17.0256880
},
{
  "type": "node",
  "id": 1150910425,
  "lat": 49.0648750,
  "lon": 17.0251160
},
{
  "type": "node",
  "id": 1150910471,
  "lat": 49.0653330,
  "lon": 17.0254850
},
{
  "type": "node",
  "id": 1150910518,
  "lat": 49.0647880,
  "lon": 17.0251680
},
{
  "type": "node",
  "id": 1150910635,
  "lat": 49.0651930,
  "lon": 17.0248990
},
{
  "type": "node",
  "id": 1150910740,
  "lat": 49.0648440,
  "lon": 17.0251790
},
{
  "type": "node",
  "id": 1150910833,
  "lat": 49.0649090,
  "lon": 17.0254360
},
{
  "type": "node",
  "id": 1150910884,
  "lat": 49.0651790,
  "lon": 17.0249380
},
{
  "type": "node",
  "id": 1150910962,
  "lat": 49.0649850,
  "lon": 17.0252430
},
{
  "type": "node",
  "id": 1150910976,
  "lat": 49.0649190,
  "lon": 17.0256560
},
{
  "type": "node",
  "id": 1150911037,
  "lat": 49.0653460,
  "lon": 17.0254500
},
{
  "type": "node",
  "id": 1150911058,
  "lat": 49.0649910,
  "lon": 17.0256540
},
{
  "type": "node",
  "id": 1150911097,
  "lat": 49.0648240,
  "lon": 17.0251450
},
{
  "type": "node",
  "id": 2501741610,
  "lat": 49.0651572,
  "lon": 17.0255587
},
{
  "type": "way",
  "id": 50171106,
  "nodes": [
    637788751,
    637788570,
    3202765546,
    637788505,
    637788655,
    637788659,
    3205806821,
    3202765550,
    637788751
  ]
},
{
  "type": "way",
  "id": 50171124,
  "nodes": [
    637788660,
    637788662,
    637788664,
    637788666,
    637788660
  ]
},
{
  "type": "way",
  "id": 50171128,
  "nodes": [
    637788756,
    637788757,
    637788758,
    637788759,
    637788756
  ]
},
{
  "type": "way",
  "id": 99500883,
  "nodes": [
    1150910338,
    1150909286,
    1150910962,
    1150909882,
    1150910338
  ]
},
{
  "type": "way",
  "id": 99500951,
  "nodes": [
    1150910471,
    1150909380,
    2501741610,
    1150911058,
    1150910008,
    1150908693,
    1150910353,
    1150909297,
    1150910976,
    1150910144,
    1150909125,
    1150910833,
    1150909696,
    1150910055,
    1150909007,
    1150910740,
    1150909562,
    1150908840,
    1150910518,
    1150909422,
    1150911097,
    1150909780,
    1150908766,
    1150910425,
    1150909349,
    1150908536,
    1150910227,
    1150909191,
    1150910884,
    1150910635,
    1150909494,
    1150908351,
    1150910129,
    1150909365,
    1150911037,
    1150910471
  ]
}

  ]
}
