{
  "version": 0.6,
  "generator": "Overpass API 0.7.55.1011 6c2efc30",
  "osm3s": {
    "timestamp_osm_base": "2020-02-14T09:21:02Z",
    "copyright": "The data included in this document is from www.openstreetmap.org. The data is made available under ODbL."
  },
  "elements": [

{
  "type": "node",
  "id": 417508210,
  "lat": 51.5613590,
  "lon": -3.0275888,
  "tags": {
    "name": "Tredegar House",
    "name:cy": "Tŷ Tredegar",
    "note": "Country Park and house tours",
    "tourism": "museum"
  }
},
{
  "type": "node",
  "id": 448353187,
  "lat": 51.3496471,
  "lon": -2.9739021,
  "tags": {
    "name": "Lambretta Museum",
    "note": "Is this still open?  There are still signposts directing pedestrians to it.",
    "tourism": "museum"
  }
},
{
  "type": "node",
  "id": 470249073,
  "lat": 51.5856720,
  "lon": -2.9937626,
  "tags": {
    "addr:city": "Newport",
    "addr:postcode": "NP20 1PA",
    "addr:street": "John Frost Square",
    "name": "City Museum and Art Gallery",
    "note": "In library building",
    "opening_hours": "Tu-Sa 09:30-17:00 Su 09:30-16:00",
    "operator": "Newport City Council",
    "operator:type": "public",
    "phone": "+44 1633 656656",
    "tourism": "museum",
    "website": "http://www.newport.gov.uk/heritage/Homepage.aspx",
    "wikidata": "Q15262183",
    "wikipedia": "en:Newport Museum"
  }
},
{
  "type": "node",
  "id": 470292585,
  "lat": 51.6101155,
  "lon": -2.9553441,
  "tags": {
    "addr:city": "Newport",
    "addr:country": "GB",
    "addr:postcode": "NP18 1AE",
    "addr:street": "High Street",
    "addr:suburb": "Caerleon",
    "alt_name": "National Roman Legion Museum",
    "name": "Roman Legionary Museum Caerleon",
    "name:ar": "متحف الفيلق الروماني",
    "name:cy": "Amgueddfa'r Lleng Rufeinig Caerlion",
    "name:de": "Römisches Legionsmuseum Caerleon",
    "name:en": "Roman Legionary Museum Caerleon",
    "name:fr": "Musée légionnaire romain Caerleon",
    "name:ru": "Музей римского легионера Карлеон",
    "note": "alt_name is from the little plaque; main name (cy & en) from the larger sign.",
    "phone": "+44 1633 423134",
    "source": "photograph",
    "tourism": "museum",
    "wikidata": "Q6978140",
    "wikipedia": "en:National Roman Legion Museum"
  }
},
{
  "type": "node",
  "id": 474832927,
  "lat": 51.2871519,
  "lon": -2.8175893,
  "tags": {
    "HE_ref": "1059142",
    "historic": "house",
    "listed_status": "Grade II*",
    "name": "King John's Hunting Lodge;King John's Hunting Lodge (Axbridge Museum)",
    "operator": "National Trust",
    "tourism": "museum",
    "website": "https://www.nationaltrust.org.uk/king-johns-hunting-lodge",
    "wikidata": "Q15238528",
    "wikimedia_commons": "Category:King John's Hunting Lodge, Axbridge"
  }
},
{
  "type": "node",
  "id": 631131235,
  "lat": 51.1509896,
  "lon": -3.1590220,
  "tags": {
    "name": "Nether Stowey Library",
    "tourism": "museum"
  }
},
{
  "type": "node",
  "id": 691368104,
  "lat": 51.2953269,
  "lon": -2.8919346,
  "tags": {
    "name": "Webbington Farm",
    "source": "OS OpenData StreetView",
    "tourism": "museum"
  }
},
{
  "type": "node",
  "id": 762724371,
  "lat": 51.2201233,
  "lon": -2.9755792,
  "tags": {
    "tourism": "museum"
  }
},
{
  "type": "node",
  "id": 937201526,
  "lat": 51.6101809,
  "lon": -2.9540734,
  "tags": {
    "fee": "no",
    "historic": "archaeological_site",
    "name": "Caerleon Roman Fortress Baths",
    "name:cy": "Baddonau Caer Rufeinig Caerllion",
    "name:en": "Caerleon Roman Fortress Baths",
    "opening_hours": "Apr-Oct 09:30-17:00; Nov-Mar Mo-Sa 09:30-17:00; Nov-Mar Su 11:00-16:00; Dec 24-26 off; Jan 1 off",
    "tourism": "museum",
    "wikidata": "Q16897072"
  }
},
{
  "type": "node",
  "id": 993679935,
  "lat": 51.4134826,
  "lon": -3.1838803,
  "tags": {
    "name": "Cosmeston Medieval Village",
    "tourism": "museum"
  }
},
{
  "type": "node",
  "id": 1393630622,
  "lat": 51.2820640,
  "lon": -2.7662445,
  "tags": {
    "name": "Cheddar Man and the Cannibals",
    "tourism": "museum"
  }
},
{
  "type": "node",
  "id": 2072355717,
  "lat": 51.7298597,
  "lon": -3.1336153,
  "tags": {
    "source": "OS_OpenData_StreetView",
    "tourism": "museum"
  }
},
{
  "type": "node",
  "id": 2072355943,
  "lat": 51.7298198,
  "lon": -3.1362545,
  "tags": {
    "source": "OS_OpenData_StreetView",
    "tourism": "museum"
  }
},
{
  "type": "node",
  "id": 2072372821,
  "lat": 51.7167267,
  "lon": -3.2356227,
  "tags": {
    "source": "OS_OpenData_StreetView",
    "tourism": "museum"
  }
},
{
  "type": "node",
  "id": 2189847774,
  "lat": 51.5610724,
  "lon": -3.2701374,
  "tags": {
    "name": "nantgarw China Works Museum",
    "tourism": "museum"
  }
},
{
  "type": "node",
  "id": 5308248821,
  "lat": 51.1809008,
  "lon": -3.3309049,
  "tags": {
    "addr:street": "Anchor Street",
    "name": "Watchet Radio Museum",
    "opening_hours": "Mo-Fr 09:00-17:00",
    "tourism": "museum"
  }
},
{
  "type": "node",
  "id": 6773182809,
  "lat": 51.1617262,
  "lon": -3.3687925,
  "tags": {
    "addr:city": "Watchet",
    "addr:country": "GB",
    "addr:county": "Somerset",
    "addr:housename": "The Railway Station",
    "addr:postcode": "TA23 0PP",
    "addr:street": "Station Road",
    "addr:village": "Washford",
    "name": "Somerset & Dorset Railway Trust Museum",
    "opening_hours": "August-September Mo-Su 11:00-16:00",
    "operator": "Somerset & Dorset Railway Trust",
    "railway": "museum",
    "tourism": "museum",
    "website": "http://www.sdrt.org/"
  }
},
{
  "type": "node",
  "id": 6993059699,
  "lat": 51.4800136,
  "lon": -3.1772339,
  "tags": {
    "addr:city": "Cardiff",
    "addr:housename": "Old Library",
    "addr:postcode": "CF10 1BH",
    "addr:street": "The Hayes",
    "name": "Cardiff Story Museum",
    "tourism": "museum"
  }
},
{
  "type": "node",
  "id": 7070709865,
  "lat": 51.7036641,
  "lon": -3.0396628,
  "tags": {
    "addr:city": "Pontypool",
    "addr:housename": "Park Buildings",
    "addr:postcode": "NP4 6JH",
    "addr:street": "Park Road",
    "email": "pontypoolmuseum@hotmail.com",
    "fee": "yes",
    "name": "Amgueddfa Pont-y-pŵl",
    "name:cy": "Amgueddfa Pont-y-pŵl",
    "name:en": "Pontypool Museum",
    "opening_hours": "Tu-Th 10:00-16:00 Sa-Su 13:00-16:00",
    "phone": "+44 1495 752036",
    "source": "Bing",
    "tourism": "museum",
    "website": "http://www.pontypoolmuseum.org.uk/",
    "wikipedia": "en:Pontypool Museum"
  }
},
{
  "type": "way",
  "id": 22821244,
  "nodes": [
    245555355,
    245555356,
    245555357,
    245555358,
    703697206,
    703697053,
    245555359,
    703697054,
    703697055,
    3237795026,
    703697056,
    245555360,
    703697057,
    245555361,
    3237795025,
    245555362,
    703704809,
    703704810,
    703704811,
    703704813,
    245555355
  ],
  "tags": {
    "area": "yes",
    "building": "yes",
    "name": "Amgueddfa Genedlaethol Caerdydd / National Museum Cardiff",
    "name:cy": "Amgueddfa Genedlaethol Caerdydd",
    "name:en": "National Museum Cardiff",
    "old_name:en": "National Museum of Wales, Cardiff",
    "operator": "National Museum Wales",
    "tourism": "museum",
    "wheelchair": "yes"
  }
},
{
  "type": "way",
  "id": 88200129,
  "nodes": [
    291891477,
    291891476,
    1024793060,
    1117460296,
    1117460390,
    1117460312,
    1117460405,
    1117460329,
    1117460422,
    1117460341,
    1117460437,
    1117460370,
    1117460392,
    1024792959,
    1117460284,
    1024792922,
    1024793049,
    1024793085,
    1024793160,
    4857752955,
    1024792884,
    1024792920,
    1024793009,
    1024793024,
    1024793011,
    1024793119,
    1024793066,
    1024793177,
    1024793165,
    1024793063,
    1024792887,
    1024793052,
    1024793045,
    1024792886,
    1024793007,
    1024792986,
    1024792926,
    1024793069,
    1024792934,
    298418508,
    298418507,
    1024792938,
    298418849,
    298418822,
    298418821,
    1117563854,
    559980554,
    1117563720,
    1117563823,
    1117564071,
    1117563727,
    298418820,
    298418848,
    298418818,
    1117564033,
    298418846,
    298418520,
    298418518,
    298418517,
    298418515,
    5682118429,
    5682118427,
    5682118428,
    5682118424,
    291891477
  ],
  "tags": {
    "name": "Saint Fagans National History Museum",
    "old_name": "Saint Fagans - Museum of Welsh Life",
    "tourism": "museum",
    "wikipedia": "en:St Fagans National History Museum"
  }
},
{
  "type": "way",
  "id": 107947405,
  "nodes": [
    5996050599,
    1239541718,
    1239541738,
    1239541674,
    1706093219,
    1706092894,
    1706092897,
    1239541709,
    1239541707,
    1239541704,
    5996050599
  ],
  "tags": {
    "addr:postcode": "BS24 8PP",
    "building": "yes",
    "name": "Helicopter Museum",
    "note": "History of Weston Airport",
    "tourism": "museum",
    "wikidata": "Q7739330",
    "wikipedia": "en:The Helicopter Museum (Weston)"
  }
},
{
  "type": "way",
  "id": 166695215,
  "nodes": [
    1781465467,
    1781465469,
    1781465460,
    1781465464,
    1781465470,
    1781465466,
    1781465463,
    1781465462,
    1781465465,
    1781465468,
    1781465467
  ],
  "tags": {
    "amenity": "cafe",
    "building": "yes",
    "historic": "farm",
    "name": "Llanyrafon Manor Rural Heritage Centre",
    "tourism": "museum"
  }
},
{
  "type": "way",
  "id": 166854936,
  "nodes": [
    1782783881,
    1782783882,
    1782783877,
    1782783883,
    1782783879,
    1782783897,
    1782783887,
    1782783890,
    1782783884,
    1782783886,
    1782783889,
    1782783885,
    1782783881
  ],
  "tags": {
    "tourism": "museum"
  }
},
{
  "type": "way",
  "id": 170628759,
  "nodes": [
    1817905331,
    6231240560,
    1817905326,
    1817905330,
    1817905329,
    1817905313,
    1817905324,
    1817905331
  ],
  "tags": {
    "building": "yes",
    "building:levels": "2",
    "name": "Watchet Boat Museum",
    "roof:shape": "gabled",
    "tourism": "museum",
    "wikidata": "Q7973126"
  }
},
{
  "type": "way",
  "id": 274155031,
  "nodes": [
    2789255331,
    2789255347,
    2789255344,
    2789255343,
    5376596962,
    2789255340,
    2789255334,
    2789255336,
    2789255338,
    2789255337,
    2789255341,
    5376557551,
    5376557550,
    2789255342,
    2789255339,
    2789255331
  ],
  "tags": {
    "addr:postcode": "CF46 6ER",
    "building": "yes",
    "name": "Llancaiach-fawr",
    "source": "https://www.britishlistedbuildings.co.uk/wa-13562-llancaiach-fawr-gelligaer",
    "tourism": "museum",
    "website": "https://www.britishlistedbuildings.co.uk/wa-13562-llancaiach-fawr-gelligaer",
    "wikidata": "Q11135409"
  }
},
{
  "type": "way",
  "id": 296713812,
  "nodes": [
    3005237761,
    3005237762,
    3005237763,
    3005237764,
    3005237761
  ],
  "tags": {
    "building": "yes",
    "name": "Watchet Museum",
    "tourism": "museum"
  }
},
{
  "type": "way",
  "id": 365838668,
  "nodes": [
    3698428828,
    3698428827,
    3698428830,
    3698428829,
    3698428831,
    3698428832,
    3698428835,
    3698428836,
    3698428833,
    3698428834,
    3698428837,
    3698428838,
    3698428828
  ],
  "tags": {
    "addr:housename": "Clevedon Story Heritage Centre",
    "addr:housenumber": "4",
    "building": "yes",
    "name": "Clevedon Pier Shop",
    "tourism": "museum"
  }
},
{
  "type": "way",
  "id": 372264781,
  "nodes": [
    3758202938,
    3758202937,
    3758202951,
    3758202936,
    3758202941,
    3758202934,
    3758202939,
    3758202938
  ],
  "tags": {
    "name": "Sandford Station Railway Heritage Centre",
    "tourism": "museum",
    "website": "http://sandfordstation.co.uk/"
  }
},
{
  "type": "way",
  "id": 530863749,
  "nodes": [
    5153998750,
    5153998751,
    5153998752,
    5153998753,
    5153998750
  ],
  "tags": {
    "building": "yes",
    "description": "The CTPG is a charity created in 1992, we have leased an ex-Western Welsh Depot in Barry since 2008 to store our collection of buses and associated memorabilia.",
    "email": "info@ctpg.co.uk",
    "name": "The Bus Depot Barry",
    "opening_hours": "Fr-Sa 10:00-16:00",
    "operator": "Cardiff Transport Preservation Group",
    "tourism": "museum",
    "website": "www.ctpg.co.uk",
    "wheelchair": "yes"
  }
},
{
  "type": "way",
  "id": 618045787,
  "nodes": [
    5842067308,
    5842067309,
    5842067310,
    5842067311,
    5842067308
  ],
  "tags": {
    "attraction": "historic",
    "building": "yes",
    "building:levels": "1",
    "heritage": "yes",
    "name": "Nash Point Fog Horn",
    "seamark:fog_signal:category": "horn",
    "seamark:type": "building",
    "tourism": "museum",
    "wikidata": "Q29495576"
  }
},
{
  "type": "way",
  "id": 639386100,
  "nodes": [
    6024848098,
    6024848097,
    6024848096,
    6024848095,
    6024848094,
    6024848093,
    6024848092,
    6024848091,
    6024848090,
    6024848089,
    6024848088,
    6024848087,
    6024848086,
    6024848085,
    6024847884,
    6024847883,
    6024847882,
    6024847881,
    6024847880,
    6024847879,
    6024847878,
    6024847877,
    6024847876,
    6024847875,
    6024847874,
    6024847873,
    6024847872,
    6024847871,
    6024847870,
    6024847869,
    6024847868,
    6024847867,
    6024847866,
    6024847865,
    6024848098
  ],
  "tags": {
    "HE_ref": "1320936",
    "addr:postcode": "BS40 7UN",
    "building": "yes",
    "fee": "no",
    "listed_status": "Grade II*",
    "man_made": "pumping_station",
    "name": "Blagdon Pumping Station & Visitor Centre",
    "tourism": "museum",
    "wikidata": "Q26263502"
  }
},
{
  "type": "way",
  "id": 692084796,
  "nodes": [
    6496388757,
    6496388758,
    6496388759,
    6496388762,
    6496388761,
    6496388760,
    6496388757
  ],
  "tags": {
    "amenity": "cafe",
    "building": "yes",
    "name": "Oakham Treasures",
    "tourism": "museum"
  }
},
{
  "type": "way",
  "id": 749032586,
  "nodes": [
    7004557325,
    7004557326,
    7004557327,
    7004557328,
    7004557329,
    7004557330,
    7004557331,
    7004557333,
    7004557332,
    7004557325
  ],
  "tags": {
    "addr:city": "Trehafod",
    "addr:housename": "Lewis Merthyr Colliery",
    "addr:postcode": "CF37 2NP",
    "addr:street": "Coed Cae Road",
    "building": "yes",
    "name": "Rhondda Heritage Park",
    "phone": "+44 1443 682036",
    "tourism": "museum",
    "website": "http://tourism.rctcbc.gov.uk/en/attractions/rhondda-herita",
    "wikidata": "Q7321396",
    "wikipedia": "en:Rhondda Heritage Park"
  }
},
{
  "type": "way",
  "id": 753576329,
  "nodes": [
    7040926688,
    7040926687,
    7040926686,
    7040926685,
    7040915384,
    7040915383,
    7040915382,
    7040915381,
    7040915380,
    7040915379,
    7040915378,
    7040915377,
    7040915376,
    7040915375,
    7040926688
  ],
  "tags": {
    "building": "yes",
    "fixme": "check",
    "name": "Weston Museum",
    "tourism": "museum"
  }
},
{
  "type": "node",
  "id": 5842067308,
  "lat": 51.4009753,
  "lon": -3.5543319
},
{
  "type": "node",
  "id": 5842067309,
  "lat": 51.4009602,
  "lon": -3.5541898
},
{
  "type": "node",
  "id": 5842067310,
  "lat": 51.4008448,
  "lon": -3.5542059
},
{
  "type": "node",
  "id": 5842067311,
  "lat": 51.4008565,
  "lon": -3.5543373
},
{
  "type": "node",
  "id": 7004557325,
  "lat": 51.6108018,
  "lon": -3.3898579
},
{
  "type": "node",
  "id": 7004557326,
  "lat": 51.6101789,
  "lon": -3.3896594
},
{
  "type": "node",
  "id": 7004557327,
  "lat": 51.6103754,
  "lon": -3.3885061
},
{
  "type": "node",
  "id": 7004557332,
  "lat": 51.6110533,
  "lon": -3.3882647
},
{
  "type": "node",
  "id": 7004557328,
  "lat": 51.6104820,
  "lon": -3.3874546
},
{
  "type": "node",
  "id": 7004557329,
  "lat": 51.6102422,
  "lon": -3.3864944
},
{
  "type": "node",
  "id": 7004557330,
  "lat": 51.6107485,
  "lon": -3.3861243
},
{
  "type": "node",
  "id": 7004557331,
  "lat": 51.6108451,
  "lon": -3.3864676
},
{
  "type": "node",
  "id": 7004557333,
  "lat": 51.6110159,
  "lon": -3.3873393
},
{
  "type": "node",
  "id": 1817905313,
  "lat": 51.1806164,
  "lon": -3.3298377
},
{
  "type": "node",
  "id": 1817905324,
  "lat": 51.1806716,
  "lon": -3.3299349
},
{
  "type": "node",
  "id": 1817905326,
  "lat": 51.1807147,
  "lon": -3.3296299
},
{
  "type": "node",
  "id": 1817905329,
  "lat": 51.1806460,
  "lon": -3.3297948
},
{
  "type": "node",
  "id": 1817905330,
  "lat": 51.1806255,
  "lon": -3.3297587
},
{
  "type": "node",
  "id": 1817905331,
  "lat": 51.1807904,
  "lon": -3.3297632
},
{
  "type": "node",
  "id": 3005237761,
  "lat": 51.1826891,
  "lon": -3.3306790
},
{
  "type": "node",
  "id": 3005237762,
  "lat": 51.1826310,
  "lon": -3.3304705
},
{
  "type": "node",
  "id": 3005237763,
  "lat": 51.1825764,
  "lon": -3.3305092
},
{
  "type": "node",
  "id": 3005237764,
  "lat": 51.1826346,
  "lon": -3.3307177
},
{
  "type": "node",
  "id": 6231240560,
  "lat": 51.1807255,
  "lon": -3.3296488
},
{
  "type": "node",
  "id": 7040915381,
  "lat": 51.3489226,
  "lon": -2.9753695
},
{
  "type": "node",
  "id": 7040915382,
  "lat": 51.3489392,
  "lon": -2.9753685
},
{
  "type": "node",
  "id": 7040915383,
  "lat": 51.3489406,
  "lon": -2.9754257
},
{
  "type": "node",
  "id": 7040915384,
  "lat": 51.3489871,
  "lon": -2.9754227
},
{
  "type": "node",
  "id": 7040926685,
  "lat": 51.3489866,
  "lon": -2.9754039
},
{
  "type": "node",
  "id": 7040926686,
  "lat": 51.3490446,
  "lon": -2.9754001
},
{
  "type": "node",
  "id": 7040926687,
  "lat": 51.3490463,
  "lon": -2.9754689
},
{
  "type": "node",
  "id": 7040926688,
  "lat": 51.3491249,
  "lon": -2.9754637
},
{
  "type": "node",
  "id": 7040915375,
  "lat": 51.3491101,
  "lon": -2.9748846
},
{
  "type": "node",
  "id": 7040915376,
  "lat": 51.3489207,
  "lon": -2.9748970
},
{
  "type": "node",
  "id": 7040915377,
  "lat": 51.3489041,
  "lon": -2.9751408
},
{
  "type": "node",
  "id": 7040915378,
  "lat": 51.3489306,
  "lon": -2.9751391
},
{
  "type": "node",
  "id": 7040915379,
  "lat": 51.3489327,
  "lon": -2.9752197
},
{
  "type": "node",
  "id": 7040915380,
  "lat": 51.3489188,
  "lon": -2.9752206
},
{
  "type": "node",
  "id": 5153998750,
  "lat": 51.4022213,
  "lon": -3.2762445
},
{
  "type": "node",
  "id": 5153998751,
  "lat": 51.4025208,
  "lon": -3.2753004
},
{
  "type": "node",
  "id": 5153998752,
  "lat": 51.4023100,
  "lon": -3.2750563
},
{
  "type": "node",
  "id": 5153998753,
  "lat": 51.4020590,
  "lon": -3.2761211
},
{
  "type": "node",
  "id": 1024792884,
  "lat": 51.4834709,
  "lon": -3.2794512
},
{
  "type": "node",
  "id": 1024792920,
  "lat": 51.4837048,
  "lon": -3.2799608
},
{
  "type": "node",
  "id": 1024792922,
  "lat": 51.4846969,
  "lon": -3.2768280
},
{
  "type": "node",
  "id": 1024793009,
  "lat": 51.4840522,
  "lon": -3.2804865
},
{
  "type": "node",
  "id": 1024793011,
  "lat": 51.4850176,
  "lon": -3.2810176
},
{
  "type": "node",
  "id": 1024793024,
  "lat": 51.4844531,
  "lon": -3.2808191
},
{
  "type": "node",
  "id": 1024793049,
  "lat": 51.4840589,
  "lon": -3.2778526
},
{
  "type": "node",
  "id": 1024793066,
  "lat": 51.4870252,
  "lon": -3.2816184
},
{
  "type": "node",
  "id": 1024793085,
  "lat": 51.4835979,
  "lon": -3.2786250
},
{
  "type": "node",
  "id": 1024793119,
  "lat": 51.4857024,
  "lon": -3.2812375
},
{
  "type": "node",
  "id": 1024793160,
  "lat": 51.4834643,
  "lon": -3.2790864
},
{
  "type": "node",
  "id": 1024793177,
  "lat": 51.4879004,
  "lon": -3.2819134
},
{
  "type": "node",
  "id": 4857752955,
  "lat": 51.4834692,
  "lon": -3.2793573
},
{
  "type": "node",
  "id": 1024792886,
  "lat": 51.4902085,
  "lon": -3.2814521
},
{
  "type": "node",
  "id": 1024792887,
  "lat": 51.4900749,
  "lon": -3.2823211
},
{
  "type": "node",
  "id": 1024792926,
  "lat": 51.4896373,
  "lon": -3.2786894
},
{
  "type": "node",
  "id": 1024792986,
  "lat": 51.4900014,
  "lon": -3.2802236
},
{
  "type": "node",
  "id": 1024793007,
  "lat": 51.4901450,
  "lon": -3.2809746
},
{
  "type": "node",
  "id": 1024793045,
  "lat": 51.4901985,
  "lon": -3.2818330
},
{
  "type": "node",
  "id": 1024793052,
  "lat": 51.4901684,
  "lon": -3.2820958
},
{
  "type": "node",
  "id": 1024793063,
  "lat": 51.4898377,
  "lon": -3.2824391
},
{
  "type": "node",
  "id": 1024793069,
  "lat": 51.4891196,
  "lon": -3.2768870
},
{
  "type": "node",
  "id": 1024793165,
  "lat": 51.4889526,
  "lon": -3.2821655
},
{
  "type": "node",
  "id": 291891476,
  "lat": 51.4859500,
  "lon": -3.2737726
},
{
  "type": "node",
  "id": 291891477,
  "lat": 51.4859525,
  "lon": -3.2718601
},
{
  "type": "node",
  "id": 298418515,
  "lat": 51.4857227,
  "lon": -3.2708476
},
{
  "type": "node",
  "id": 1024792934,
  "lat": 51.4876926,
  "lon": -3.2715977
},
{
  "type": "node",
  "id": 1024792959,
  "lat": 51.4850756,
  "lon": -3.2756435
},
{
  "type": "node",
  "id": 1024793060,
  "lat": 51.4859348,
  "lon": -3.2737997
},
{
  "type": "node",
  "id": 1117460284,
  "lat": 51.4852949,
  "lon": -3.2761258
},
{
  "type": "node",
  "id": 1117460296,
  "lat": 51.4856982,
  "lon": -3.2737097
},
{
  "type": "node",
  "id": 1117460312,
  "lat": 51.4853504,
  "lon": -3.2735098
},
{
  "type": "node",
  "id": 1117460329,
  "lat": 51.4850319,
  "lon": -3.2734118
},
{
  "type": "node",
  "id": 1117460341,
  "lat": 51.4849501,
  "lon": -3.2745562
},
{
  "type": "node",
  "id": 1117460370,
  "lat": 51.4847899,
  "lon": -3.2749683
},
{
  "type": "node",
  "id": 1117460390,
  "lat": 51.4855481,
  "lon": -3.2735608
},
{
  "type": "node",
  "id": 1117460392,
  "lat": 51.4849302,
  "lon": -3.2753000
},
{
  "type": "node",
  "id": 1117460405,
  "lat": 51.4852186,
  "lon": -3.2734197
},
{
  "type": "node",
  "id": 1117460422,
  "lat": 51.4850465,
  "lon": -3.2741741
},
{
  "type": "node",
  "id": 1117460437,
  "lat": 51.4847736,
  "lon": -3.2749299
},
{
  "type": "node",
  "id": 5682118424,
  "lat": 51.4858250,
  "lon": -3.2717281
},
{
  "type": "node",
  "id": 5682118427,
  "lat": 51.4854329,
  "lon": -3.2713800
},
{
  "type": "node",
  "id": 5682118428,
  "lat": 51.4857910,
  "lon": -3.2718142
},
{
  "type": "node",
  "id": 5682118429,
  "lat": 51.4856611,
  "lon": -3.2708252
},
{
  "type": "node",
  "id": 298418517,
  "lat": 51.4858798,
  "lon": -3.2699441
},
{
  "type": "node",
  "id": 298418518,
  "lat": 51.4860152,
  "lon": -3.2694964
},
{
  "type": "node",
  "id": 298418520,
  "lat": 51.4860591,
  "lon": -3.2689012
},
{
  "type": "node",
  "id": 298418818,
  "lat": 51.4863479,
  "lon": -3.2677372
},
{
  "type": "node",
  "id": 298418820,
  "lat": 51.4865284,
  "lon": -3.2676159
},
{
  "type": "node",
  "id": 298418821,
  "lat": 51.4876197,
  "lon": -3.2685063
},
{
  "type": "node",
  "id": 298418822,
  "lat": 51.4882985,
  "lon": -3.2687638
},
{
  "type": "node",
  "id": 298418846,
  "lat": 51.4862905,
  "lon": -3.2684104
},
{
  "type": "node",
  "id": 298418848,
  "lat": 51.4863997,
  "lon": -3.2676279
},
{
  "type": "node",
  "id": 298418849,
  "lat": 51.4881916,
  "lon": -3.2693990
},
{
  "type": "node",
  "id": 559980554,
  "lat": 51.4871543,
  "lon": -3.2679847
},
{
  "type": "node",
  "id": 1024792938,
  "lat": 51.4881928,
  "lon": -3.2694615
},
{
  "type": "node",
  "id": 1117563720,
  "lat": 51.4870353,
  "lon": -3.2678583
},
{
  "type": "node",
  "id": 1117563727,
  "lat": 51.4865700,
  "lon": -3.2676424
},
{
  "type": "node",
  "id": 1117563823,
  "lat": 51.4868739,
  "lon": -3.2677344
},
{
  "type": "node",
  "id": 1117563854,
  "lat": 51.4872608,
  "lon": -3.2681041
},
{
  "type": "node",
  "id": 1117564033,
  "lat": 51.4863136,
  "lon": -3.2680661
},
{
  "type": "node",
  "id": 1117564071,
  "lat": 51.4868281,
  "lon": -3.2677205
},
{
  "type": "node",
  "id": 298418508,
  "lat": 51.4889024,
  "lon": -3.2720597
},
{
  "type": "node",
  "id": 298418507,
  "lat": 51.4891482,
  "lon": -3.2697337
},
{
  "type": "node",
  "id": 245555355,
  "lat": 51.4861125,
  "lon": -3.1785238
},
{
  "type": "node",
  "id": 245555356,
  "lat": 51.4852940,
  "lon": -3.1775260
},
{
  "type": "node",
  "id": 245555357,
  "lat": 51.4857332,
  "lon": -3.1765728
},
{
  "type": "node",
  "id": 245555358,
  "lat": 51.4861499,
  "lon": -3.1770791
},
{
  "type": "node",
  "id": 245555359,
  "lat": 51.4862484,
  "lon": -3.1770603
},
{
  "type": "node",
  "id": 245555360,
  "lat": 51.4864204,
  "lon": -3.1772293
},
{
  "type": "node",
  "id": 245555361,
  "lat": 51.4864004,
  "lon": -3.1774063
},
{
  "type": "node",
  "id": 245555362,
  "lat": 51.4865524,
  "lon": -3.1776289
},
{
  "type": "node",
  "id": 703697053,
  "lat": 51.4862117,
  "lon": -3.1770871
},
{
  "type": "node",
  "id": 703697054,
  "lat": 51.4862985,
  "lon": -3.1770657
},
{
  "type": "node",
  "id": 703697055,
  "lat": 51.4863461,
  "lon": -3.1770925
},
{
  "type": "node",
  "id": 703697056,
  "lat": 51.4863920,
  "lon": -3.1771461
},
{
  "type": "node",
  "id": 703697057,
  "lat": 51.4864238,
  "lon": -3.1773205
},
{
  "type": "node",
  "id": 703697206,
  "lat": 51.4861833,
  "lon": -3.1771220
},
{
  "type": "node",
  "id": 703704809,
  "lat": 51.4864359,
  "lon": -3.1778575
},
{
  "type": "node",
  "id": 703704810,
  "lat": 51.4862952,
  "lon": -3.1776960
},
{
  "type": "node",
  "id": 703704811,
  "lat": 51.4861064,
  "lon": -3.1780930
},
{
  "type": "node",
  "id": 703704813,
  "lat": 51.4862384,
  "lon": -3.1782700
},
{
  "type": "node",
  "id": 3237795025,
  "lat": 51.4864420,
  "lon": -3.1775031
},
{
  "type": "node",
  "id": 3237795026,
  "lat": 51.4863707,
  "lon": -3.1771133
},
{
  "type": "node",
  "id": 1239541674,
  "lat": 51.3393479,
  "lon": -2.9315187
},
{
  "type": "node",
  "id": 1239541704,
  "lat": 51.3392247,
  "lon": -2.9319155
},
{
  "type": "node",
  "id": 1239541707,
  "lat": 51.3389009,
  "lon": -2.9316612
},
{
  "type": "node",
  "id": 1239541709,
  "lat": 51.3392618,
  "lon": -2.9304837
},
{
  "type": "node",
  "id": 1239541718,
  "lat": 51.3392967,
  "lon": -2.9319337
},
{
  "type": "node",
  "id": 1239541738,
  "lat": 51.3394091,
  "lon": -2.9315668
},
{
  "type": "node",
  "id": 1706092894,
  "lat": 51.3393839,
  "lon": -2.9305714
},
{
  "type": "node",
  "id": 1706092897,
  "lat": 51.3393030,
  "lon": -2.9305122
},
{
  "type": "node",
  "id": 1706093219,
  "lat": 51.3395623,
  "lon": -2.9307239
},
{
  "type": "node",
  "id": 5996050599,
  "lat": 51.3392342,
  "lon": -2.9318847
},
{
  "type": "node",
  "id": 3758202934,
  "lat": 51.3319922,
  "lon": -2.8393365
},
{
  "type": "node",
  "id": 3758202936,
  "lat": 51.3321133,
  "lon": -2.8392817
},
{
  "type": "node",
  "id": 3758202937,
  "lat": 51.3320468,
  "lon": -2.8393478
},
{
  "type": "node",
  "id": 3758202938,
  "lat": 51.3320450,
  "lon": -2.8393773
},
{
  "type": "node",
  "id": 3758202939,
  "lat": 51.3319908,
  "lon": -2.8393642
},
{
  "type": "node",
  "id": 3758202941,
  "lat": 51.3320028,
  "lon": -2.8392545
},
{
  "type": "node",
  "id": 3758202951,
  "lat": 51.3321052,
  "lon": -2.8393599
},
{
  "type": "node",
  "id": 6024847865,
  "lat": 51.3371570,
  "lon": -2.7149302
},
{
  "type": "node",
  "id": 6024847866,
  "lat": 51.3371478,
  "lon": -2.7149303
},
{
  "type": "node",
  "id": 6024847867,
  "lat": 51.3371483,
  "lon": -2.7151054
},
{
  "type": "node",
  "id": 6024847868,
  "lat": 51.3369790,
  "lon": -2.7151066
},
{
  "type": "node",
  "id": 6024847869,
  "lat": 51.3369791,
  "lon": -2.7151236
},
{
  "type": "node",
  "id": 6024847870,
  "lat": 51.3369468,
  "lon": -2.7151239
},
{
  "type": "node",
  "id": 6024847871,
  "lat": 51.3369467,
  "lon": -2.7150826
},
{
  "type": "node",
  "id": 6024847872,
  "lat": 51.3368675,
  "lon": -2.7150831
},
{
  "type": "node",
  "id": 6024847873,
  "lat": 51.3368677,
  "lon": -2.7151548
},
{
  "type": "node",
  "id": 6024847874,
  "lat": 51.3368392,
  "lon": -2.7151550
},
{
  "type": "node",
  "id": 6024847875,
  "lat": 51.3368390,
  "lon": -2.7150831
},
{
  "type": "node",
  "id": 6024847876,
  "lat": 51.3367237,
  "lon": -2.7150839
},
{
  "type": "node",
  "id": 6024847877,
  "lat": 51.3367237,
  "lon": -2.7151067
},
{
  "type": "node",
  "id": 6024847878,
  "lat": 51.3365517,
  "lon": -2.7151079
},
{
  "type": "node",
  "id": 6024847879,
  "lat": 51.3365513,
  "lon": -2.7149530
},
{
  "type": "node",
  "id": 6024847880,
  "lat": 51.3365383,
  "lon": -2.7149531
},
{
  "type": "node",
  "id": 6024847881,
  "lat": 51.3365379,
  "lon": -2.7148147
},
{
  "type": "node",
  "id": 6024847882,
  "lat": 51.3366587,
  "lon": -2.7148138
},
{
  "type": "node",
  "id": 6024847883,
  "lat": 51.3366580,
  "lon": -2.7145476
},
{
  "type": "node",
  "id": 6024847884,
  "lat": 51.3367689,
  "lon": -2.7145467
},
{
  "type": "node",
  "id": 6024848085,
  "lat": 51.3367697,
  "lon": -2.7148108
},
{
  "type": "node",
  "id": 6024848086,
  "lat": 51.3368137,
  "lon": -2.7148104
},
{
  "type": "node",
  "id": 6024848087,
  "lat": 51.3368133,
  "lon": -2.7146521
},
{
  "type": "node",
  "id": 6024848088,
  "lat": 51.3368743,
  "lon": -2.7146517
},
{
  "type": "node",
  "id": 6024848089,
  "lat": 51.3368747,
  "lon": -2.7148074
},
{
  "type": "node",
  "id": 6024848090,
  "lat": 51.3369192,
  "lon": -2.7148071
},
{
  "type": "node",
  "id": 6024848091,
  "lat": 51.3369190,
  "lon": -2.7147466
},
{
  "type": "node",
  "id": 6024848092,
  "lat": 51.3369411,
  "lon": -2.7147465
},
{
  "type": "node",
  "id": 6024848093,
  "lat": 51.3369408,
  "lon": -2.7146486
},
{
  "type": "node",
  "id": 6024848094,
  "lat": 51.3369249,
  "lon": -2.7146487
},
{
  "type": "node",
  "id": 6024848095,
  "lat": 51.3369246,
  "lon": -2.7145441
},
{
  "type": "node",
  "id": 6024848096,
  "lat": 51.3370337,
  "lon": -2.7145433
},
{
  "type": "node",
  "id": 6024848097,
  "lat": 51.3370345,
  "lon": -2.7148107
},
{
  "type": "node",
  "id": 6024848098,
  "lat": 51.3371567,
  "lon": -2.7148098
},
{
  "type": "node",
  "id": 3698428827,
  "lat": 51.4407581,
  "lon": -2.8611573
},
{
  "type": "node",
  "id": 3698428828,
  "lat": 51.4407688,
  "lon": -2.8613018
},
{
  "type": "node",
  "id": 3698428829,
  "lat": 51.4407752,
  "lon": -2.8610681
},
{
  "type": "node",
  "id": 3698428830,
  "lat": 51.4407814,
  "lon": -2.8611529
},
{
  "type": "node",
  "id": 3698428831,
  "lat": 51.4408202,
  "lon": -2.8610595
},
{
  "type": "node",
  "id": 3698428832,
  "lat": 51.4408213,
  "lon": -2.8610751
},
{
  "type": "node",
  "id": 3698428833,
  "lat": 51.4408377,
  "lon": -2.8611347
},
{
  "type": "node",
  "id": 3698428834,
  "lat": 51.4408387,
  "lon": -2.8611483
},
{
  "type": "node",
  "id": 3698428835,
  "lat": 51.4408441,
  "lon": -2.8610708
},
{
  "type": "node",
  "id": 3698428836,
  "lat": 51.4408487,
  "lon": -2.8611327
},
{
  "type": "node",
  "id": 3698428837,
  "lat": 51.4408636,
  "lon": -2.8611436
},
{
  "type": "node",
  "id": 3698428838,
  "lat": 51.4408738,
  "lon": -2.8612819
},
{
  "type": "node",
  "id": 6496388757,
  "lat": 51.4657583,
  "lon": -2.7169659
},
{
  "type": "node",
  "id": 6496388758,
  "lat": 51.4657084,
  "lon": -2.7172612
},
{
  "type": "node",
  "id": 6496388759,
  "lat": 51.4657867,
  "lon": -2.7172953
},
{
  "type": "node",
  "id": 6496388760,
  "lat": 51.4656387,
  "lon": -2.7169139
},
{
  "type": "node",
  "id": 6496388761,
  "lat": 51.4656593,
  "lon": -2.7167919
},
{
  "type": "node",
  "id": 6496388762,
  "lat": 51.4658572,
  "lon": -2.7168780
},
{
  "type": "node",
  "id": 2789255331,
  "lat": 51.6614551,
  "lon": -3.2828350
},
{
  "type": "node",
  "id": 2789255334,
  "lat": 51.6612653,
  "lon": -3.2830250
},
{
  "type": "node",
  "id": 2789255336,
  "lat": 51.6612577,
  "lon": -3.2830632
},
{
  "type": "node",
  "id": 2789255337,
  "lat": 51.6613763,
  "lon": -3.2830208
},
{
  "type": "node",
  "id": 2789255338,
  "lat": 51.6613577,
  "lon": -3.2831148
},
{
  "type": "node",
  "id": 2789255339,
  "lat": 51.6614334,
  "lon": -3.2829442
},
{
  "type": "node",
  "id": 2789255340,
  "lat": 51.6612303,
  "lon": -3.2830070
},
{
  "type": "node",
  "id": 2789255341,
  "lat": 51.6613548,
  "lon": -3.2830097
},
{
  "type": "node",
  "id": 2789255342,
  "lat": 51.6613898,
  "lon": -3.2829217
},
{
  "type": "node",
  "id": 2789255343,
  "lat": 51.6612459,
  "lon": -3.2829285
},
{
  "type": "node",
  "id": 2789255344,
  "lat": 51.6612786,
  "lon": -3.2829454
},
{
  "type": "node",
  "id": 2789255347,
  "lat": 51.6613150,
  "lon": -3.2827625
},
{
  "type": "node",
  "id": 5376557550,
  "lat": 51.6613852,
  "lon": -3.2829447
},
{
  "type": "node",
  "id": 5376557551,
  "lat": 51.6613694,
  "lon": -3.2829365
},
{
  "type": "node",
  "id": 5376596962,
  "lat": 51.6612391,
  "lon": -3.2829626
},
{
  "type": "node",
  "id": 1782783877,
  "lat": 51.6455152,
  "lon": -3.0080430
},
{
  "type": "node",
  "id": 1782783879,
  "lat": 51.6454841,
  "lon": -3.0079838
},
{
  "type": "node",
  "id": 1782783881,
  "lat": 51.6455563,
  "lon": -3.0080422
},
{
  "type": "node",
  "id": 1782783882,
  "lat": 51.6455195,
  "lon": -3.0080224
},
{
  "type": "node",
  "id": 1782783883,
  "lat": 51.6454762,
  "lon": -3.0080219
},
{
  "type": "node",
  "id": 1782783884,
  "lat": 51.6455057,
  "lon": -3.0078623
},
{
  "type": "node",
  "id": 1782783885,
  "lat": 51.6455788,
  "lon": -3.0079342
},
{
  "type": "node",
  "id": 1782783886,
  "lat": 51.6455499,
  "lon": -3.0078862
},
{
  "type": "node",
  "id": 1782783887,
  "lat": 51.6454520,
  "lon": -3.0078634
},
{
  "type": "node",
  "id": 1782783889,
  "lat": 51.6455438,
  "lon": -3.0079153
},
{
  "type": "node",
  "id": 1782783890,
  "lat": 51.6455001,
  "lon": -3.0078894
},
{
  "type": "node",
  "id": 1782783897,
  "lat": 51.6454327,
  "lon": -3.0079560
},
{
  "type": "node",
  "id": 1781465460,
  "lat": 51.6458360,
  "lon": -3.0084724
},
{
  "type": "node",
  "id": 1781465462,
  "lat": 51.6456821,
  "lon": -3.0083357
},
{
  "type": "node",
  "id": 1781465463,
  "lat": 51.6457065,
  "lon": -3.0082347
},
{
  "type": "node",
  "id": 1781465464,
  "lat": 51.6458935,
  "lon": -3.0082344
},
{
  "type": "node",
  "id": 1781465465,
  "lat": 51.6457357,
  "lon": -3.0083693
},
{
  "type": "node",
  "id": 1781465466,
  "lat": 51.6457688,
  "lon": -3.0082738
},
{
  "type": "node",
  "id": 1781465467,
  "lat": 51.6457444,
  "lon": -3.0085876
},
{
  "type": "node",
  "id": 1781465468,
  "lat": 51.6456910,
  "lon": -3.0085541
},
{
  "type": "node",
  "id": 1781465469,
  "lat": 51.6457806,
  "lon": -3.0084377
},
{
  "type": "node",
  "id": 1781465470,
  "lat": 51.6457935,
  "lon": -3.0081716
}

  ]
}
