{
  "version": 0.6,
  "generator": "Overpass API 0.7.55.1011 6c2efc30",
  "osm3s": {
    "timestamp_osm_base": "2020-02-14T18:32:02Z",
    "copyright": "The data included in this document is from www.openstreetmap.org. The data is made available under ODbL."
  },
  "elements": [

{
  "type": "node",
  "id": 325705511,
  "lat": 45.8171563,
  "lon": 15.9722497,
  "tags": {
    "addr:housenumber": "1",
    "addr:postcode": "10000",
    "addr:street": "Ulica Dmitrija Demetra",
    "email": "hpm@hpm.hr",
    "name": "Prirodoslovni muzej",
    "name:en": "Museum Natural History",
    "opening_hours": "Tu-We,Fr 10:00-17:00; Th 10:00-20:00; Sa 10:00-19:00; Su 10:00-13:00",
    "phone": "+38514851700",
    "tourism": "museum",
    "website": "http://www.hpm.hr/",
    "wheelchair": "yes",
    "wikidata": "Q8366704"
  }
},
{
  "type": "node",
  "id": 419207577,
  "lat": 45.8109402,
  "lon": 15.9772994,
  "tags": {
    "addr:housenumber": "19",
    "addr:postcode": "10000",
    "addr:street": "Trg Nikole Šubića Zrinskog",
    "email": "amz@amz.hr",
    "name": "Arheološki muzej",
    "opening_hours": "Tu-We,Fr-Sa 10:00-18:00; Th 10:00-20:00; Su 10:00-13:00",
    "phone": "+38514873101",
    "tourism": "museum",
    "website": "http://www.amz.hr/",
    "wheelchair": "no",
    "wikidata": "Q2986831",
    "wikipedia": "hr:Arheološki muzej u Zagrebu"
  }
},
{
  "type": "node",
  "id": 987835234,
  "lat": 45.8213219,
  "lon": 15.9679146,
  "tags": {
    "addr:housenumber": "63",
    "addr:postcode": "10000",
    "addr:street": "Ulica Vladimira Nazora",
    "name": "Lovački muzej",
    "opening_hours": "We, Fr-Sa 08:00-13:00; Tu, Th 12:00-17:00",
    "phone": "+38514876567",
    "tourism": "museum",
    "website": "http://www.hls.com.hr/"
  }
},
{
  "type": "node",
  "id": 990288980,
  "lat": 45.8124886,
  "lon": 15.9775051,
  "tags": {
    "addr:city": "Zagreb",
    "addr:country": "HR",
    "addr:housenumber": "2",
    "addr:postcode": "10000",
    "addr:street": "Praška ulica",
    "email": "hrvatski.sportski.muzej@zg.t-com.hr",
    "name": "Hrvatski športski muzej",
    "opening_hours": "Mo-Fr 08:00-16:00",
    "phone": "+38514833483",
    "tourism": "museum",
    "website": "https://sportski-muzej.hr/"
  }
},
{
  "type": "node",
  "id": 1366258327,
  "lat": 45.8709016,
  "lon": 15.8045578,
  "tags": {
    "name": "Galerija Skurjeni",
    "tourism": "museum"
  }
},
{
  "type": "node",
  "id": 1368295156,
  "lat": 45.8644925,
  "lon": 15.7700029,
  "tags": {
    "name": "Muzej Brdovec",
    "tourism": "museum"
  }
},
{
  "type": "node",
  "id": 1396431169,
  "lat": 45.8149694,
  "lon": 15.9735299,
  "tags": {
    "addr:city": "Zagreb",
    "addr:housenumber": "2",
    "addr:postcode": "10000",
    "addr:street": "Ulica svetog Ćirila i Metoda",
    "email": "info@brokenships.com",
    "internet_access": "wlan",
    "name": "Muzej prekinutih veza",
    "name:de": "Museum der zerbrochenen Beziehungen",
    "name:en": "Museum of Broken Relationships",
    "name:fr": "Musée des relations rompues",
    "name:uk": "Музей розлучень",
    "opening_hours": "Jun-Sep Mo-Su 09:00-22:30, Oct-May Mo-Su 09:00-21:00",
    "phone": "+38514851021",
    "tourism": "museum",
    "website": "https://brokenships.com/",
    "wheelchair": "limited",
    "wikidata": "Q1954595",
    "wikipedia": "en:Museum of Broken Relationships"
  }
},
{
  "type": "node",
  "id": 1655222511,
  "lat": 45.9847747,
  "lon": 16.0166145,
  "tags": {
    "name": "Muzej seljačkih buna",
    "tourism": "museum",
    "website": "http://www.mdc.hr/msb"
  }
},
{
  "type": "node",
  "id": 1711392385,
  "lat": 45.8124669,
  "lon": 15.9814336,
  "tags": {
    "addr:housenumber": "13",
    "addr:postcode": "10000",
    "addr:street": "Ulica Nikole Jurišića",
    "email": "htmuzej@t.ht.hr",
    "name": "HT muzej",
    "opening_hours": "Mo-We,Fr 10:00-14:00; Th 10:00-18:00",
    "phone": "+38514911589",
    "tourism": "museum"
  }
},
{
  "type": "node",
  "id": 1711395378,
  "lat": 45.8083972,
  "lon": 15.9691482,
  "tags": {
    "addr:housenumber": "14",
    "addr:postcode": "10000",
    "addr:street": "Trg Antuna, Ivana i Vladimira Mažuranića",
    "email": "EMZ@emz.hr",
    "name": "Etnografski muzej",
    "opening_hours": "Tu-Fr 10:00-18:00; Sa-Su 10:00-13:00",
    "phone": "+38514826220",
    "tourism": "museum",
    "website": "http://www.emz.hr/",
    "wheelchair": "no",
    "wikidata": "Q502157"
  }
},
{
  "type": "node",
  "id": 1711410842,
  "lat": 45.8160204,
  "lon": 15.9723414,
  "tags": {
    "addr:housenumber": "9",
    "addr:postcode": "10000",
    "addr:street": "Ulica Antuna Gustava Matoša",
    "email": "hismus@hismus.hr",
    "name": "Hrvatski povijesni muzej",
    "opening_hours": "Mo-Fr 10:00-18:00; Sa-Su 10:00-13:00",
    "phone": "+38514851900",
    "tourism": "museum",
    "website": "http://www.hismus.hr/",
    "wikidata": "Q2353812"
  }
},
{
  "type": "node",
  "id": 1711410885,
  "lat": 45.8150278,
  "lon": 15.9746427,
  "tags": {
    "addr:housenumber": "4",
    "addr:postcode": "10000",
    "addr:street": "Jezuitski trg",
    "name": "Galerija Klovićevi dvori",
    "name:ko": "클로비체비 드보리 갤러리",
    "opening_hours": "Tu-Su 11:00-19:00",
    "tourism": "museum",
    "website": "http://gkd.hr/",
    "wikidata": "Q6421422"
  }
},
{
  "type": "node",
  "id": 1714660379,
  "lat": 46.0814566,
  "lon": 15.9092302,
  "tags": {
    "tourism": "museum"
  }
},
{
  "type": "node",
  "id": 1718635555,
  "lat": 45.8063595,
  "lon": 15.9838758,
  "tags": {
    "addr:housenumber": "80",
    "addr:postcode": "10000",
    "addr:street": "Ulica Janka Draškovića",
    "email": "info@tifoloskimuzej.hr",
    "name": "Tiflološki muzej",
    "opening_hours": "Mo-We,Fr 10:00-17:00; Th 10:00-20:00",
    "phone": "+38514811102",
    "tourism": "museum",
    "website": "http://www.tifloloskimuzej.hr/"
  }
},
{
  "type": "node",
  "id": 2399756610,
  "lat": 45.5485470,
  "lon": 15.8105547,
  "tags": {
    "name": "zavičajni muzej Donja kupčina",
    "tourism": "museum"
  }
},
{
  "type": "node",
  "id": 2470850726,
  "lat": 45.8087854,
  "lon": 15.9986474,
  "tags": {
    "addr:city": "Zagreb",
    "addr:country": "HR",
    "addr:housenumber": "48",
    "addr:postcode": "10000",
    "addr:street": "Ulica kneza Ljudevita Posavskog",
    "name": "Muzej automobila Ferdinand Budicki",
    "opening_hours": "Mo-Su 10:00-19:00",
    "phone": "+385992290161",
    "tourism": "museum",
    "website": "http://www.otk-ferdinandbudicki.hr/"
  }
},
{
  "type": "node",
  "id": 2750011731,
  "lat": 45.8092347,
  "lon": 15.9710610,
  "tags": {
    "addr:housenumber": "4",
    "addr:postcode": "10000",
    "addr:street": "Trg Republike Hrvatske",
    "email": "hsm@hsmuzej.hr",
    "name": "Hrvatski školski muzej",
    "name:ko": "크로아티아 학교 박물관",
    "opening_hours": "Tu-We,Fr 10:00-17:00; Th 10:00-20:00; Sa 09:00-14:00",
    "phone": "+38514855716",
    "tourism": "museum",
    "website": "http://www.hsmuzej.hr/index.asp"
  }
},
{
  "type": "node",
  "id": 2884714406,
  "lat": 45.8091324,
  "lon": 15.9775482,
  "tags": {
    "addr:housenumber": "1",
    "addr:street": "Ulica Andrije Hebranga",
    "email": "moderna-galerija@zg.t-com.hr",
    "name": "Moderna galerija",
    "opening_hours": "Tu-Fr 11:00-19:00; Sa-Su 11:00-14:00",
    "phone": "+38516041040",
    "tourism": "museum",
    "website": "https://www.moderna-galerija.hr/",
    "wikidata": "Q2350879"
  }
},
{
  "type": "node",
  "id": 3190084478,
  "lat": 45.8143537,
  "lon": 15.9790800,
  "tags": {
    "addr:housenumber": "31",
    "addr:postcode": "10000",
    "addr:street": "Kaptol",
    "email": "muzejstepinac@zg-nadbiskupija.hr",
    "name": "Muzej blaženog Alojzija Stepinca",
    "opening_hours": "Tu-Fr 08:00-17:00; Sa 09:00-13:00",
    "phone": "+38514894879",
    "tourism": "museum"
  }
},
{
  "type": "node",
  "id": 3617997605,
  "lat": 45.8130592,
  "lon": 15.9664694,
  "tags": {
    "addr:postcode": "10000",
    "email": "info@muzejiluzija.hr",
    "name": "Muzej Iluzija",
    "name:en": "Museum of ilusions",
    "opening_hours": "Mo-Su 09:00-22:00",
    "phone": "+38517999609",
    "tourism": "museum",
    "website": "https://muzejiluzija.com/"
  }
},
{
  "type": "node",
  "id": 3919451273,
  "lat": 45.8013218,
  "lon": 15.9839810,
  "tags": {
    "addr:housenumber": "47",
    "addr:postcode": "10000",
    "addr:street": "Ulica grada Vukovara",
    "name": "Hrvatski željeznički muzej",
    "phone": "+38513782862",
    "start": "1991",
    "tourism": "museum",
    "website": "http://muzej.hzinfra.hr/",
    "wikidata": "Q725066"
  }
},
{
  "type": "node",
  "id": 4162680828,
  "lat": 45.8030640,
  "lon": 15.9635730,
  "tags": {
    "addr:postcode": "10000",
    "email": "info@drazenpetrovic.net",
    "name": "Muzejsko-memorijalni centar Dražen Petrović",
    "opening_hours": "Mo-Fr 10:00-17:00; Sa 10:00-14:00",
    "phone": "+38514843146",
    "tourism": "museum",
    "website": "http://www.drazenpetrovic.net/"
  }
},
{
  "type": "node",
  "id": 4202221914,
  "lat": 45.8153802,
  "lon": 15.9732804,
  "tags": {
    "addr:postcode": "10000",
    "email": "info@hmnu.hr",
    "name": "Hrvatski muzej naivne umjetnosti",
    "opening_hours": "Mo-Sa 10:00-18:00; Su 10:00-13:00",
    "phone": "+38514851911",
    "tourism": "museum",
    "website": "http://www.hmnu.hr/",
    "wikidata": "Q5187140"
  }
},
{
  "type": "node",
  "id": 4281766192,
  "lat": 45.8090793,
  "lon": 15.9785844,
  "tags": {
    "email": "sgallery@hazu.hr",
    "name": "Strossmayerova galerija starih majstora",
    "opening_hours": "Tu 10:00-19:00; We-Fr 10:00-16:00; Sa-Su 10:00-13:00",
    "phone": "+38514895117",
    "tourism": "museum",
    "website": "http://info.hazu.hr/hr/o-akademiji/jedinice/strossmayerova_galerija_starih_majstora/",
    "wikidata": "Q1258421"
  }
},
{
  "type": "node",
  "id": 4281766193,
  "lat": 45.8221083,
  "lon": 15.9774209,
  "tags": {
    "addr:housenumber": "2",
    "addr:postcode": "10000",
    "addr:street": "Medvedgradska ulica",
    "email": "gliptoteka@hazu.hr",
    "name": "Gliptoteka HAZU",
    "opening_hours": "Tu-Fr 11:00-19:00; Sa-Su 10:00-14:00",
    "phone": "+38514686050",
    "tourism": "museum",
    "website": "http://gliptoteka.mdc.hr/"
  }
},
{
  "type": "node",
  "id": 4281766490,
  "lat": 45.8136353,
  "lon": 15.9765650,
  "tags": {
    "addr:housenumber": "3",
    "addr:postcode": "10000",
    "addr:street": "Trg bana Josipa Jelačića",
    "name": "Muzej gljiva",
    "opening_hours": "Mo-Fr 10:00-17:00",
    "phone": "+38516383420",
    "tourism": "museum"
  }
},
{
  "type": "node",
  "id": 4281801489,
  "lat": 45.8143495,
  "lon": 15.9758733,
  "tags": {
    "addr:postcode": "10000",
    "email": "tortureum@gmail.com",
    "name": "Tortureum - Muzej torture",
    "opening_hours": "Mo-Su 11:00-19:00",
    "phone": "+38516459803",
    "tourism": "museum",
    "website": "http://www.tortureum.com/"
  }
},
{
  "type": "node",
  "id": 5037767915,
  "lat": 45.8011347,
  "lon": 15.7078824,
  "tags": {
    "name": "Samoborski muzej",
    "tourism": "museum",
    "website": "https://www.samobor.hr/muzej"
  }
},
{
  "type": "node",
  "id": 5554885440,
  "lat": 45.9018656,
  "lon": 15.5925849,
  "tags": {
    "contact:email": "vodnik@pmb.si",
    "contact:phone": "+386 7 4660517",
    "name": "Posavski muzej Brežice",
    "opening_hours": "Nov-Feb Tu-Sa 8:00-16:00,Su,PH 13:00-16:00; Mar-May,Sep-Oct Tu-Sa 10:00-18:00,Su,PH 14:00-18:00; Jun-Aug Mo-Sa 10:00-20:00,Su,PH 14:00-20:00; Jan 1,Nov 1,Dec 24-26,31 off",
    "tourism": "museum",
    "website": "https://www.pmb.si"
  }
},
{
  "type": "node",
  "id": 6553122285,
  "lat": 45.8161624,
  "lon": 15.9756960,
  "tags": {
    "name": "Zagreb 80's museum",
    "tourism": "museum"
  }
},
{
  "type": "node",
  "id": 6713054210,
  "lat": 45.8146362,
  "lon": 15.9732722,
  "tags": {
    "charge": "20 HRK/adult; 10 HRK/child",
    "fee": "yes",
    "name": "Kula Lotršćak",
    "opening_hours": "Mo-Fr 09:00-21:00; Sa,Su 10:00-21:00",
    "tourism": "museum",
    "website": "http://gkd.hr/kula-lotrscak/"
  }
},
{
  "type": "node",
  "id": 7057619585,
  "lat": 45.8126752,
  "lon": 15.9717070,
  "tags": {
    "name:en": "Backo mini express",
    "tourism": "museum"
  }
},
{
  "type": "way",
  "id": 29233452,
  "nodes": [
    321539747,
    321539748,
    321539749,
    3357452404,
    2002565737,
    321539750,
    5557572936,
    5557572419,
    321539751,
    3357452405,
    321539752,
    321539753,
    1722066424,
    1722066435,
    6371654250,
    3357452403,
    3357452402,
    321539747
  ],
  "tags": {
    "addr:city": "Zagreb",
    "addr:housenumber": "18",
    "addr:postcode": "10000",
    "addr:street": "Savska cesta",
    "architect:wikidata": "Q4494378",
    "building": "yes",
    "email": "info@tehnicki-muzej.hr",
    "heritage": "3",
    "heritage:operator": "uzkb",
    "name": "Tehnički muzej Nikola Tesla",
    "opening_hours": "Tu-Fr 09:00-17:00; Sa-Su 09:00-13:00",
    "phone": "+38514844050",
    "ref:hr:uzkb": "Z-2133",
    "tourism": "museum",
    "website": "http://www.tehnicki-muzej.hr/"
  }
},
{
  "type": "way",
  "id": 29354977,
  "nodes": [
    322893731,
    322893734,
    2859799283,
    2859799298,
    2859799297,
    3694937085,
    2859800929,
    322893744,
    322893751,
    322893754,
    2859801000,
    2859800940,
    2859800944,
    2859800904,
    2859800902,
    322893731
  ],
  "tags": {
    "addr:housenumber": "10",
    "addr:postcode": "10000",
    "addr:street": "Trg Republike Hrvatske",
    "building:levels": "3",
    "building:part": "yes",
    "email": "muo@muo.hr",
    "name": "Muzej za umjetnost i obrt",
    "opening_hours": "Tu-Sa 11:00-20:00; Su 10:00-14:00",
    "phone": "+ 38514882111",
    "tourism": "museum",
    "website": "https://www.muo.hr/",
    "wheelchair": "limited",
    "wikidata": "Q406652"
  }
},
{
  "type": "way",
  "id": 30453995,
  "nodes": [
    336135033,
    3646667853,
    336135034,
    2461575022,
    2462236399,
    2461575018,
    2461575023,
    2461575019,
    336135036,
    3065511295,
    2461575015,
    2461575020,
    2461575017,
    2461575021,
    336135033
  ],
  "tags": {
    "addr:city": "Zagreb",
    "addr:housenumber": "17",
    "addr:postcode": "10010",
    "addr:street": "Avenija Dubrovnik",
    "alt_name": "MSU",
    "building": "yes",
    "height": "28",
    "name": "Muzej suvremene umjetnosti",
    "name:en": "Museum of Contemporary Art",
    "opening_hours": "Tu-Su,Su 11:00-18:00; Sa 11:00-20:00",
    "tourism": "museum",
    "website": "http://www.msu.hr/",
    "wheelchair": "yes",
    "wikidata": "Q3503103",
    "wikipedia": "en:Museum of Contemporary Art, Zagreb"
  }
},
{
  "type": "way",
  "id": 113041575,
  "nodes": [
    1283159729,
    1283159765,
    1283159749,
    1283159804,
    1283159729
  ],
  "tags": {
    "building": "yes",
    "building:levels": "2",
    "name": "Muzej Turopolja",
    "roof:shape": "hipped",
    "tourism": "museum"
  }
},
{
  "type": "way",
  "id": 113422819,
  "nodes": [
    1286206210,
    1286206189,
    1286206195,
    1286206187,
    1286206210
  ],
  "tags": {
    "building": "yes",
    "name": "Muzej Turopolja",
    "roof:material": "roof_tiles",
    "roof:shape": "gabled",
    "tourism": "museum"
  }
},
{
  "type": "way",
  "id": 122448832,
  "nodes": [
    1368295168,
    1368295155,
    1368295137,
    1368295126,
    1368295168
  ],
  "tags": {
    "tourism": "museum"
  }
},
{
  "type": "way",
  "id": 131409817,
  "nodes": [
    1446281742,
    1446281797,
    1446281815,
    1446281814,
    1446281806,
    1446281784,
    1446281749,
    1446281734,
    1446281730,
    1446281723,
    1446281722,
    1446281726,
    1446281732,
    1446281742
  ],
  "tags": {
    "name": "Staro Selo \"Kumrovec\"",
    "tourism": "museum"
  }
},
{
  "type": "way",
  "id": 137117928,
  "nodes": [
    1504040415,
    1504040156,
    1504040447,
    1504040246,
    1504039847,
    1504039517,
    1504040403,
    1504039534,
    1504039537,
    1504039399,
    1504039372,
    1504039903,
    1504040415
  ],
  "tags": {
    "addr:housenumber": "37",
    "addr:postcode": "10000",
    "addr:street": "Ulica Ivana Gorana Kovačića",
    "building": "yes",
    "building:levels": "2",
    "email": "hma@hazu.hr",
    "name": "Hrvatski muzej arhitekture",
    "name:en": "Croatian Architecture Museum",
    "opening_hours": "Mo-We, Fr 10:00-16:00; Th 10:00-19:00",
    "phone": "+38514834551",
    "roof:material": "roof_tiles",
    "roof:shape": "gabled",
    "tourism": "museum",
    "website": "http://info.hazu.hr/hr/o-akademiji/jedinice/hrvatski_muzej_arhitekture/"
  }
},
{
  "type": "way",
  "id": 226514059,
  "nodes": [
    2353090365,
    2353090366,
    2353090367,
    2353090368,
    2353090365
  ],
  "tags": {
    "addr:city": "Sveti Ivan Zelina",
    "addr:postcode": "10380",
    "building": "yes",
    "name": "Muzej Sveti Ivan Zelina",
    "tourism": "museum"
  }
},
{
  "type": "way",
  "id": 242164729,
  "nodes": [
    2496838290,
    2496838292,
    2496838294,
    2496838296,
    2496838298,
    2496838300,
    2496838302,
    2496838304,
    2496838290
  ],
  "tags": {
    "addr:housenumber": "10",
    "addr:street": "Trg Antuna Mihanovića",
    "building": "yes",
    "name": "Galerija Antuna Augustinčića",
    "tourism": "museum"
  }
},
{
  "type": "way",
  "id": 248806370,
  "nodes": [
    2555422560,
    2555422518,
    2555422517,
    2555422514,
    2555422529,
    2555422530,
    2555422540,
    2555422539,
    2555422552,
    2555422553,
    2941145901,
    2941145902,
    2555422556,
    2555422559,
    2555422560
  ],
  "tags": {
    "addr:city": "Zagreb",
    "addr:housenumber": "14",
    "addr:postcode": "10000",
    "addr:street": "Trg Ivana, Antuna i Vladimira Mažuranića",
    "architect:wikidata": "Q7938107",
    "building": "yes",
    "name": "Etnografski muzej",
    "roof:material": "roof_tiles",
    "roof:shape": "gabled",
    "tourism": "museum"
  }
},
{
  "type": "way",
  "id": 272805462,
  "nodes": [
    2777234292,
    2970785908,
    2970785909,
    2777234300,
    2970785906,
    2777234298,
    2777234302,
    2970785904,
    2777234292
  ],
  "tags": {
    "addr:housenumber": "8",
    "addr:street": "Mletačka ulica",
    "architect:wikidata": "Q1266191",
    "fee": "yes",
    "heritage": "3",
    "heritage:operator": "uzkb",
    "name": "Atelijer Meštrović",
    "opening_hours": "Tu-Fr 10:00-18:00; Sa-Su 10:00-14:00",
    "ref:hr:uzkb": "Z-0191",
    "tourism": "museum",
    "website": "http://www.mdc.hr/mestrovic/atelijer/index-en.htm",
    "wheelchair": "no"
  }
},
{
  "type": "way",
  "id": 295713931,
  "nodes": [
    2994658384,
    2994658389,
    2994658380,
    2994658378,
    2994658384
  ],
  "tags": {
    "addr:city": "Samobor",
    "addr:housenumber": "7",
    "addr:postcode": "10430",
    "addr:street": "Jurjevska",
    "building": "commercial",
    "height": "10",
    "name": "Muzej Marton",
    "roof:height": "3",
    "roof:material": "roof_tiles",
    "roof:shape": "gabled",
    "tourism": "museum"
  }
},
{
  "type": "way",
  "id": 392439336,
  "nodes": [
    4281801689,
    3956586849,
    3956586867,
    3956586868,
    3956586869,
    3956586870,
    3956586881,
    3956586880,
    3956586891,
    3956586890,
    3956586902,
    3956586901,
    3956586904,
    1551848992,
    3956586903,
    3956586898,
    3956586897,
    3956586886,
    3956586885,
    3956586877,
    3956586876,
    1551848976,
    1551848978,
    3956586865,
    3956586866,
    3956586844,
    3956586846,
    3956586838,
    3956586839,
    4281801689
  ],
  "tags": {
    "addr:housenumber": "22",
    "addr:postcode": "10000",
    "addr:street": "Trg kralja Tomislava",
    "amenity": "arts_centre",
    "architect:wikidata": "Q572063;Q358140",
    "building": "yes",
    "email": "info@umjetnicki-paviljon.hr",
    "heritage": "3",
    "heritage:operator": "uzkb",
    "name": "Umjetnički paviljon",
    "name:de": "Kunstpavillon Zagreb",
    "opening_hours": "Tu-Th,Sa-Su 11:00-20:00; Fr 11:00-21:00",
    "ref:hr:uzkb": "Z-0222",
    "roof:material": "roof_tiles",
    "roof:shape": "gabled",
    "start_date": "1897..1898",
    "tourism": "museum",
    "website": "https://www.umjetnicki-paviljon.hr/",
    "wheelchair": "no",
    "wikidata": "Q391613",
    "wikipedia": "hr:Umjetnički paviljon"
  }
},
{
  "type": "way",
  "id": 564281701,
  "nodes": [
    5437131717,
    5437131716,
    5437131715,
    5437131714,
    5617594288,
    5617594287,
    5437131717
  ],
  "tags": {
    "addr:city": "Jastrebarsko",
    "addr:housenumber": "1",
    "addr:postcode": "10450",
    "addr:street": "Ulica Vladka Mačeka",
    "building": "yes",
    "email": "muzej@czk-jastrebarsko.hr",
    "name": "Gradski muzej i galerija Jastrebarsko",
    "note": "http://www.tzgj.hr/hr/sto_vidjeti/gradski_muzej_i_galerija.html",
    "opening_hours": "Mo-Tu 10:00-14:00; We-Th 14:00-18:00; Fr 10:00-14:00",
    "phone": "+385 1 6283991",
    "roof:material": "roof_tiles",
    "roof:shape": "gabled",
    "tourism": "museum",
    "website": "http://www.czk-jastrebarsko.hr/index/index.php/kultura/muzej"
  }
},
{
  "type": "way",
  "id": 618782388,
  "nodes": [
    719442904,
    719442928,
    322802522,
    2856943177,
    2856943137,
    2856943135,
    2856943114,
    2856943116,
    2856937389,
    2856937390,
    719442931,
    719442934,
    2856943117,
    2856943118,
    2856943113,
    2856943115,
    2856943119,
    2856943120,
    2856943131,
    2856943129,
    2856943144,
    2856943142,
    2856943127,
    2856943125,
    719442904
  ],
  "tags": {
    "building": "yes",
    "building:part": "yes",
    "email": "mimara@mimara.hr",
    "name": "Muzej Mimara",
    "opening_hours": "Tu,We,Fr,Sa 10:00-17:00; Th 10:00-19:00; Su 10:00-14:00",
    "phone": "01/4828-100",
    "tourism": "museum",
    "website": "http://www.mimara.hr/",
    "wheelchair": "no",
    "wikidata": "Q1936046"
  }
},
{
  "type": "relation",
  "id": 1396624,
  "members": [
    {
      "type": "way",
      "ref": 97066001,
      "role": "outer"
    },
    {
      "type": "way",
      "ref": 97066002,
      "role": "inner"
    }
  ],
  "tags": {
    "building": "yes",
    "heritage": "3",
    "heritage:operator": "uzkb",
    "name": "Muzej grada Zagreba",
    "name:en": "Zagreb City Museum",
    "ref:hr:uzkb": "Z-0194",
    "tourism": "museum",
    "type": "multipolygon",
    "wikidata": "Q2618426"
  }
},
{
  "type": "node",
  "id": 5437131714,
  "lat": 45.6748075,
  "lon": 15.6531317
},
{
  "type": "node",
  "id": 5437131715,
  "lat": 45.6747292,
  "lon": 15.6533494
},
{
  "type": "node",
  "id": 5437131716,
  "lat": 45.6745405,
  "lon": 15.6532104
},
{
  "type": "node",
  "id": 5437131717,
  "lat": 45.6745793,
  "lon": 15.6531026
},
{
  "type": "node",
  "id": 5617594287,
  "lat": 45.6746893,
  "lon": 15.6531837
},
{
  "type": "node",
  "id": 5617594288,
  "lat": 45.6747289,
  "lon": 15.6530738
},
{
  "type": "node",
  "id": 1283159729,
  "lat": 45.7140326,
  "lon": 16.0759173
},
{
  "type": "node",
  "id": 1283159749,
  "lat": 45.7142214,
  "lon": 16.0762287
},
{
  "type": "node",
  "id": 1283159765,
  "lat": 45.7142709,
  "lon": 16.0760670
},
{
  "type": "node",
  "id": 1283159804,
  "lat": 45.7139831,
  "lon": 16.0760789
},
{
  "type": "node",
  "id": 2994658378,
  "lat": 45.8005490,
  "lon": 15.7091437
},
{
  "type": "node",
  "id": 2994658380,
  "lat": 45.8005990,
  "lon": 15.7093510
},
{
  "type": "node",
  "id": 2994658384,
  "lat": 45.8006506,
  "lon": 15.7090932
},
{
  "type": "node",
  "id": 2994658389,
  "lat": 45.8007006,
  "lon": 15.7093005
},
{
  "type": "node",
  "id": 1368295126,
  "lat": 45.8644594,
  "lon": 15.7697183
},
{
  "type": "node",
  "id": 1368295137,
  "lat": 45.8643810,
  "lon": 15.7699705
},
{
  "type": "node",
  "id": 1368295155,
  "lat": 45.8645155,
  "lon": 15.7700509
},
{
  "type": "node",
  "id": 1368295168,
  "lat": 45.8645827,
  "lon": 15.7698095
},
{
  "type": "node",
  "id": 1446281722,
  "lat": 46.0753432,
  "lon": 15.6772787
},
{
  "type": "node",
  "id": 1446281723,
  "lat": 46.0753803,
  "lon": 15.6767258
},
{
  "type": "node",
  "id": 1446281726,
  "lat": 46.0756834,
  "lon": 15.6774615
},
{
  "type": "node",
  "id": 1446281730,
  "lat": 46.0757049,
  "lon": 15.6768220
},
{
  "type": "node",
  "id": 1446281732,
  "lat": 46.0758195,
  "lon": 15.6784513
},
{
  "type": "node",
  "id": 1446281734,
  "lat": 46.0757524,
  "lon": 15.6766443
},
{
  "type": "node",
  "id": 1446281742,
  "lat": 46.0760150,
  "lon": 15.6783931
},
{
  "type": "node",
  "id": 1446281749,
  "lat": 46.0760847,
  "lon": 15.6765636
},
{
  "type": "node",
  "id": 1446281784,
  "lat": 46.0764474,
  "lon": 15.6764895
},
{
  "type": "node",
  "id": 1446281797,
  "lat": 46.0767165,
  "lon": 15.6780768
},
{
  "type": "node",
  "id": 1446281806,
  "lat": 46.0768185,
  "lon": 15.6763245
},
{
  "type": "node",
  "id": 1446281814,
  "lat": 46.0770103,
  "lon": 15.6762844
},
{
  "type": "node",
  "id": 1446281815,
  "lat": 46.0772763,
  "lon": 15.6772609
},
{
  "type": "node",
  "id": 2496838290,
  "lat": 46.0508328,
  "lon": 15.7421164
},
{
  "type": "node",
  "id": 2496838292,
  "lat": 46.0507293,
  "lon": 15.7421170
},
{
  "type": "node",
  "id": 2496838294,
  "lat": 46.0507295,
  "lon": 15.7421764
},
{
  "type": "node",
  "id": 2496838296,
  "lat": 46.0506404,
  "lon": 15.7421769
},
{
  "type": "node",
  "id": 2496838298,
  "lat": 46.0506403,
  "lon": 15.7421225
},
{
  "type": "node",
  "id": 2496838300,
  "lat": 46.0505539,
  "lon": 15.7421231
},
{
  "type": "node",
  "id": 2496838302,
  "lat": 46.0505545,
  "lon": 15.7423512
},
{
  "type": "node",
  "id": 2496838304,
  "lat": 46.0508334,
  "lon": 15.7423495
},
{
  "type": "node",
  "id": 336135033,
  "lat": 45.7784085,
  "lon": 15.9824672
},
{
  "type": "node",
  "id": 336135034,
  "lat": 45.7783800,
  "lon": 15.9812922
},
{
  "type": "node",
  "id": 336135036,
  "lat": 45.7792183,
  "lon": 15.9812504
},
{
  "type": "node",
  "id": 2461575015,
  "lat": 45.7791247,
  "lon": 15.9824284
},
{
  "type": "node",
  "id": 2461575017,
  "lat": 45.7788739,
  "lon": 15.9824420
},
{
  "type": "node",
  "id": 2461575018,
  "lat": 45.7788455,
  "lon": 15.9812690
},
{
  "type": "node",
  "id": 2461575019,
  "lat": 45.7790963,
  "lon": 15.9812565
},
{
  "type": "node",
  "id": 2461575020,
  "lat": 45.7789647,
  "lon": 15.9824371
},
{
  "type": "node",
  "id": 2461575021,
  "lat": 45.7785937,
  "lon": 15.9824572
},
{
  "type": "node",
  "id": 2461575022,
  "lat": 45.7785652,
  "lon": 15.9812830
},
{
  "type": "node",
  "id": 2461575023,
  "lat": 45.7789362,
  "lon": 15.9812645
},
{
  "type": "node",
  "id": 2462236399,
  "lat": 45.7786732,
  "lon": 15.9812776
},
{
  "type": "node",
  "id": 3065511295,
  "lat": 45.7792466,
  "lon": 15.9824218
},
{
  "type": "node",
  "id": 3646667853,
  "lat": 45.7783900,
  "lon": 15.9817056
},
{
  "type": "node",
  "id": 321539747,
  "lat": 45.8034591,
  "lon": 15.9638698
},
{
  "type": "node",
  "id": 321539748,
  "lat": 45.8034984,
  "lon": 15.9634299
},
{
  "type": "node",
  "id": 321539749,
  "lat": 45.8038836,
  "lon": 15.9635211
},
{
  "type": "node",
  "id": 321539750,
  "lat": 45.8045366,
  "lon": 15.9638803
},
{
  "type": "node",
  "id": 321539753,
  "lat": 45.8041366,
  "lon": 15.9642120
},
{
  "type": "node",
  "id": 1722066424,
  "lat": 45.8039745,
  "lon": 15.9641323
},
{
  "type": "node",
  "id": 1722066435,
  "lat": 45.8037427,
  "lon": 15.9640321
},
{
  "type": "node",
  "id": 2002565737,
  "lat": 45.8042332,
  "lon": 15.9636767
},
{
  "type": "node",
  "id": 3357452402,
  "lat": 45.8035152,
  "lon": 15.9638805
},
{
  "type": "node",
  "id": 3357452403,
  "lat": 45.8035077,
  "lon": 15.9639798
},
{
  "type": "node",
  "id": 3357452404,
  "lat": 45.8040369,
  "lon": 15.9635801
},
{
  "type": "node",
  "id": 5557572419,
  "lat": 45.8043841,
  "lon": 15.9643430
},
{
  "type": "node",
  "id": 5557572936,
  "lat": 45.8044909,
  "lon": 15.9640189
},
{
  "type": "node",
  "id": 6371654250,
  "lat": 45.8036714,
  "lon": 15.9640162
},
{
  "type": "node",
  "id": 321539751,
  "lat": 45.8041060,
  "lon": 15.9652210
},
{
  "type": "node",
  "id": 321539752,
  "lat": 45.8038806,
  "lon": 15.9650174
},
{
  "type": "node",
  "id": 3357452405,
  "lat": 45.8038700,
  "lon": 15.9650554
},
{
  "type": "node",
  "id": 322802522,
  "lat": 45.8086683,
  "lon": 15.9670898
},
{
  "type": "node",
  "id": 322893731,
  "lat": 45.8092583,
  "lon": 15.9684825
},
{
  "type": "node",
  "id": 322893734,
  "lat": 45.8092524,
  "lon": 15.9686538
},
{
  "type": "node",
  "id": 322893744,
  "lat": 45.8094407,
  "lon": 15.9686904
},
{
  "type": "node",
  "id": 322893751,
  "lat": 45.8095448,
  "lon": 15.9686977
},
{
  "type": "node",
  "id": 322893754,
  "lat": 45.8095502,
  "lon": 15.9685398
},
{
  "type": "node",
  "id": 719442904,
  "lat": 45.8083558,
  "lon": 15.9668821
},
{
  "type": "node",
  "id": 719442928,
  "lat": 45.8083445,
  "lon": 15.9670431
},
{
  "type": "node",
  "id": 719442931,
  "lat": 45.8080412,
  "lon": 15.9670036
},
{
  "type": "node",
  "id": 719442934,
  "lat": 45.8080528,
  "lon": 15.9668382
},
{
  "type": "node",
  "id": 2555422514,
  "lat": 45.8081431,
  "lon": 15.9688232
},
{
  "type": "node",
  "id": 2555422517,
  "lat": 45.8081480,
  "lon": 15.9690200
},
{
  "type": "node",
  "id": 2555422518,
  "lat": 45.8081486,
  "lon": 15.9691334
},
{
  "type": "node",
  "id": 2555422529,
  "lat": 45.8082231,
  "lon": 15.9688200
},
{
  "type": "node",
  "id": 2555422530,
  "lat": 45.8082256,
  "lon": 15.9689498
},
{
  "type": "node",
  "id": 2555422539,
  "lat": 45.8083032,
  "lon": 15.9688552
},
{
  "type": "node",
  "id": 2555422540,
  "lat": 45.8083049,
  "lon": 15.9689467
},
{
  "type": "node",
  "id": 2555422552,
  "lat": 45.8083894,
  "lon": 15.9688518
},
{
  "type": "node",
  "id": 2555422553,
  "lat": 45.8083912,
  "lon": 15.9689456
},
{
  "type": "node",
  "id": 2555422556,
  "lat": 45.8085556,
  "lon": 15.9688505
},
{
  "type": "node",
  "id": 2555422559,
  "lat": 45.8085576,
  "lon": 15.9689390
},
{
  "type": "node",
  "id": 2555422560,
  "lat": 45.8085646,
  "lon": 15.9691245
},
{
  "type": "node",
  "id": 2856937389,
  "lat": 45.8077053,
  "lon": 15.9671583
},
{
  "type": "node",
  "id": 2856937390,
  "lat": 45.8077254,
  "lon": 15.9669560
},
{
  "type": "node",
  "id": 2856943113,
  "lat": 45.8080407,
  "lon": 15.9666880
},
{
  "type": "node",
  "id": 2856943114,
  "lat": 45.8080519,
  "lon": 15.9672545
},
{
  "type": "node",
  "id": 2856943115,
  "lat": 45.8080539,
  "lon": 15.9664996
},
{
  "type": "node",
  "id": 2856943116,
  "lat": 45.8080551,
  "lon": 15.9672088
},
{
  "type": "node",
  "id": 2856943117,
  "lat": 45.8081607,
  "lon": 15.9668537
},
{
  "type": "node",
  "id": 2856943118,
  "lat": 45.8081710,
  "lon": 15.9667069
},
{
  "type": "node",
  "id": 2856943119,
  "lat": 45.8081786,
  "lon": 15.9665176
},
{
  "type": "node",
  "id": 2856943120,
  "lat": 45.8081857,
  "lon": 15.9664174
},
{
  "type": "node",
  "id": 2856943125,
  "lat": 45.8082546,
  "lon": 15.9668675
},
{
  "type": "node",
  "id": 2856943127,
  "lat": 45.8082651,
  "lon": 15.9667179
},
{
  "type": "node",
  "id": 2856943129,
  "lat": 45.8082799,
  "lon": 15.9665307
},
{
  "type": "node",
  "id": 2856943131,
  "lat": 45.8082869,
  "lon": 15.9664320
},
{
  "type": "node",
  "id": 2856943135,
  "lat": 45.8083171,
  "lon": 15.9672928
},
{
  "type": "node",
  "id": 2856943137,
  "lat": 45.8083205,
  "lon": 15.9672444
},
{
  "type": "node",
  "id": 2856943142,
  "lat": 45.8083828,
  "lon": 15.9667349
},
{
  "type": "node",
  "id": 2856943144,
  "lat": 45.8083959,
  "lon": 15.9665474
},
{
  "type": "node",
  "id": 2856943177,
  "lat": 45.8086555,
  "lon": 15.9672928
},
{
  "type": "node",
  "id": 2859799283,
  "lat": 45.8092517,
  "lon": 15.9686747
},
{
  "type": "node",
  "id": 2859799297,
  "lat": 45.8093429,
  "lon": 15.9686990
},
{
  "type": "node",
  "id": 2859799298,
  "lat": 45.8093435,
  "lon": 15.9686811
},
{
  "type": "node",
  "id": 2859800902,
  "lat": 45.8093553,
  "lon": 15.9684894
},
{
  "type": "node",
  "id": 2859800904,
  "lat": 45.8093601,
  "lon": 15.9683486
},
{
  "type": "node",
  "id": 2859800929,
  "lat": 45.8094402,
  "lon": 15.9687058
},
{
  "type": "node",
  "id": 2859800940,
  "lat": 45.8094552,
  "lon": 15.9684729
},
{
  "type": "node",
  "id": 2859800944,
  "lat": 45.8094592,
  "lon": 15.9683556
},
{
  "type": "node",
  "id": 2859801000,
  "lat": 45.8095523,
  "lon": 15.9684797
},
{
  "type": "node",
  "id": 2941145901,
  "lat": 45.8084601,
  "lon": 15.9689422
},
{
  "type": "node",
  "id": 2941145902,
  "lat": 45.8084601,
  "lon": 15.9688528
},
{
  "type": "node",
  "id": 3694937085,
  "lat": 45.8093931,
  "lon": 15.9687013
},
{
  "type": "node",
  "id": 1551848976,
  "lat": 45.8070254,
  "lon": 15.9782861
},
{
  "type": "node",
  "id": 1551848978,
  "lat": 45.8070294,
  "lon": 15.9785127
},
{
  "type": "node",
  "id": 1551848992,
  "lat": 45.8072189,
  "lon": 15.9786353
},
{
  "type": "node",
  "id": 3956586838,
  "lat": 45.8069477,
  "lon": 15.9785669
},
{
  "type": "node",
  "id": 3956586839,
  "lat": 45.8069504,
  "lon": 15.9787178
},
{
  "type": "node",
  "id": 3956586844,
  "lat": 45.8069615,
  "lon": 15.9785469
},
{
  "type": "node",
  "id": 3956586846,
  "lat": 45.8069618,
  "lon": 15.9785664
},
{
  "type": "node",
  "id": 3956586849,
  "lat": 45.8069648,
  "lon": 15.9787360
},
{
  "type": "node",
  "id": 3956586865,
  "lat": 45.8070145,
  "lon": 15.9785133
},
{
  "type": "node",
  "id": 3956586866,
  "lat": 45.8070150,
  "lon": 15.9785449
},
{
  "type": "node",
  "id": 3956586867,
  "lat": 45.8070185,
  "lon": 15.9787341
},
{
  "type": "node",
  "id": 3956586868,
  "lat": 45.8070191,
  "lon": 15.9787658
},
{
  "type": "node",
  "id": 3956586869,
  "lat": 45.8070340,
  "lon": 15.9787653
},
{
  "type": "node",
  "id": 3956586870,
  "lat": 45.8070377,
  "lon": 15.9789721
},
{
  "type": "node",
  "id": 3956586876,
  "lat": 45.8071364,
  "lon": 15.9782821
},
{
  "type": "node",
  "id": 3956586877,
  "lat": 45.8071404,
  "lon": 15.9785087
},
{
  "type": "node",
  "id": 3956586880,
  "lat": 45.8071450,
  "lon": 15.9787613
},
{
  "type": "node",
  "id": 3956586881,
  "lat": 45.8071486,
  "lon": 15.9789681
},
{
  "type": "node",
  "id": 3956586885,
  "lat": 45.8071567,
  "lon": 15.9785081
},
{
  "type": "node",
  "id": 3956586886,
  "lat": 45.8071570,
  "lon": 15.9785242
},
{
  "type": "node",
  "id": 3956586890,
  "lat": 45.8071610,
  "lon": 15.9787475
},
{
  "type": "node",
  "id": 3956586891,
  "lat": 45.8071612,
  "lon": 15.9787607
},
{
  "type": "node",
  "id": 3956586897,
  "lat": 45.8072064,
  "lon": 15.9785224
},
{
  "type": "node",
  "id": 3956586898,
  "lat": 45.8072072,
  "lon": 15.9785670
},
{
  "type": "node",
  "id": 3956586901,
  "lat": 45.8072096,
  "lon": 15.9787001
},
{
  "type": "node",
  "id": 3956586902,
  "lat": 45.8072104,
  "lon": 15.9787457
},
{
  "type": "node",
  "id": 3956586903,
  "lat": 45.8072177,
  "lon": 15.9785666
},
{
  "type": "node",
  "id": 3956586904,
  "lat": 45.8072200,
  "lon": 15.9786998
},
{
  "type": "node",
  "id": 4281801689,
  "lat": 45.8069645,
  "lon": 15.9787173
},
{
  "type": "node",
  "id": 1124604922,
  "lat": 45.8188907,
  "lon": 15.9752017
},
{
  "type": "node",
  "id": 1124604923,
  "lat": 45.8182164,
  "lon": 15.9747258
},
{
  "type": "node",
  "id": 1124604924,
  "lat": 45.8185230,
  "lon": 15.9751089
},
{
  "type": "node",
  "id": 1124604925,
  "lat": 45.8187760,
  "lon": 15.9749411
},
{
  "type": "node",
  "id": 1124604926,
  "lat": 45.8185116,
  "lon": 15.9748597
},
{
  "type": "node",
  "id": 1124604928,
  "lat": 45.8187794,
  "lon": 15.9752978
},
{
  "type": "node",
  "id": 1124604929,
  "lat": 45.8186149,
  "lon": 15.9747457
},
{
  "type": "node",
  "id": 1124604931,
  "lat": 45.8186421,
  "lon": 15.9753564
},
{
  "type": "node",
  "id": 1124604933,
  "lat": 45.8186444,
  "lon": 15.9751528
},
{
  "type": "node",
  "id": 1124604934,
  "lat": 45.8183176,
  "lon": 15.9748590
},
{
  "type": "node",
  "id": 1124604953,
  "lat": 45.8188665,
  "lon": 15.9750249
},
{
  "type": "node",
  "id": 1124604955,
  "lat": 45.8187420,
  "lon": 15.9751284
},
{
  "type": "node",
  "id": 1124604957,
  "lat": 45.8186987,
  "lon": 15.9750192
},
{
  "type": "node",
  "id": 1124604964,
  "lat": 45.8183176,
  "lon": 15.9750763
},
{
  "type": "node",
  "id": 1124604966,
  "lat": 45.8189450,
  "lon": 15.9751281
},
{
  "type": "node",
  "id": 1124604967,
  "lat": 45.8182120,
  "lon": 15.9751887
},
{
  "type": "node",
  "id": 2777234292,
  "lat": 45.8174081,
  "lon": 15.9733442
},
{
  "type": "node",
  "id": 2777234298,
  "lat": 45.8171520,
  "lon": 15.9735869
},
{
  "type": "node",
  "id": 2777234300,
  "lat": 45.8171698,
  "lon": 15.9733143
},
{
  "type": "node",
  "id": 2777234302,
  "lat": 45.8173889,
  "lon": 15.9736146
},
{
  "type": "node",
  "id": 2970785904,
  "lat": 45.8174005,
  "lon": 15.9734678
},
{
  "type": "node",
  "id": 2970785906,
  "lat": 45.8171652,
  "lon": 15.9733706
},
{
  "type": "node",
  "id": 2970785908,
  "lat": 45.8172601,
  "lon": 15.9733255
},
{
  "type": "node",
  "id": 2970785909,
  "lat": 45.8172146,
  "lon": 15.9733192
},
{
  "type": "node",
  "id": 3037775219,
  "lat": 45.8188385,
  "lon": 15.9750421
},
{
  "type": "node",
  "id": 1504039372,
  "lat": 45.8210928,
  "lon": 15.9685129
},
{
  "type": "node",
  "id": 1504039399,
  "lat": 45.8211120,
  "lon": 15.9685155
},
{
  "type": "node",
  "id": 1504039517,
  "lat": 45.8209724,
  "lon": 15.9688166
},
{
  "type": "node",
  "id": 1504039534,
  "lat": 45.8210763,
  "lon": 15.9687243
},
{
  "type": "node",
  "id": 1504039537,
  "lat": 45.8210981,
  "lon": 15.9687273
},
{
  "type": "node",
  "id": 1504039847,
  "lat": 45.8209794,
  "lon": 15.9687098
},
{
  "type": "node",
  "id": 1504039903,
  "lat": 45.8211007,
  "lon": 15.9683931
},
{
  "type": "node",
  "id": 1504040156,
  "lat": 45.8209873,
  "lon": 15.9684964
},
{
  "type": "node",
  "id": 1504040246,
  "lat": 45.8208792,
  "lon": 15.9686963
},
{
  "type": "node",
  "id": 1504040403,
  "lat": 45.8210694,
  "lon": 15.9688297
},
{
  "type": "node",
  "id": 1504040415,
  "lat": 45.8209950,
  "lon": 15.9683789
},
{
  "type": "node",
  "id": 1504040447,
  "lat": 45.8208931,
  "lon": 15.9684837
},
{
  "type": "node",
  "id": 1286206187,
  "lat": 45.7738484,
  "lon": 16.1164918
},
{
  "type": "node",
  "id": 1286206189,
  "lat": 45.7737872,
  "lon": 16.1166529
},
{
  "type": "node",
  "id": 1286206195,
  "lat": 45.7738486,
  "lon": 16.1166528
},
{
  "type": "node",
  "id": 1286206210,
  "lat": 45.7737870,
  "lon": 16.1164920
},
{
  "type": "node",
  "id": 2353090365,
  "lat": 45.9592245,
  "lon": 16.2427237
},
{
  "type": "node",
  "id": 2353090366,
  "lat": 45.9590949,
  "lon": 16.2426324
},
{
  "type": "node",
  "id": 2353090367,
  "lat": 45.9589829,
  "lon": 16.2429613
},
{
  "type": "node",
  "id": 2353090368,
  "lat": 45.9591125,
  "lon": 16.2430527
},
{
  "type": "way",
  "id": 97066001,
  "nodes": [
    1124604953,
    1124604966,
    1124604922,
    1124604928,
    1124604931,
    1124604967,
    1124604923,
    1124604929,
    1124604933,
    1124604955,
    1124604957,
    1124604925,
    3037775219,
    1124604953
  ]
},
{
  "type": "way",
  "id": 97066002,
  "nodes": [
    1124604964,
    1124604924,
    1124604926,
    1124604934,
    1124604964
  ]
}

  ]
}
