{
  "version": 0.6,
  "generator": "Overpass API 0.7.55.9 ab41fea6",
  "osm3s": {
    "timestamp_osm_base": "2020-02-14T17:34:02Z",
    "copyright": "The data included in this document is from www.openstreetmap.org. The data is made available under ODbL."
  },
  "elements": [

{
  "type": "node",
  "id": 412252040,
  "lat": 60.4640237,
  "lon": 15.5725131,
  "tags": {
    "designation": "Torsångs motormuseum",
    "name": "Motormuseum",
    "shop": "kiosk",
    "tourism": "museum"
  }
},
{
  "type": "node",
  "id": 705609245,
  "lat": 60.1498929,
  "lon": 16.1675739,
  "tags": {
    "name": "Myntmuseet",
    "tourism": "museum"
  }
},
{
  "type": "node",
  "id": 705946192,
  "lat": 60.4961162,
  "lon": 15.4383025,
  "tags": {
    "addr:city": "Borlänge",
    "addr:country": "SE",
    "addr:housenumber": "2",
    "addr:street": "Gammelgårdsvägen",
    "description": "En av Sveriges största hembygdsgårdar med 35 byggnader och tusentals föremål.",
    "loc_name": "Gammelgården",
    "name": "Tunabygdens Gammelgård",
    "old_name": "Gammalgården",
    "phone": "+46-243-211024",
    "source": "local_knowledge",
    "tourism": "museum",
    "website": "http://www.tunahembygd.se"
  }
},
{
  "type": "node",
  "id": 731413659,
  "lat": 60.4881598,
  "lon": 15.4305918,
  "tags": {
    "name": "2047 Science Center",
    "old_name": "Framtidsmuseet",
    "tourism": "museum",
    "website": "https://www.framtidsmuseet.se"
  }
},
{
  "type": "node",
  "id": 882184962,
  "lat": 60.1483326,
  "lon": 16.1647584,
  "tags": {
    "name": "Jularbomuseet",
    "tourism": "museum"
  }
},
{
  "type": "node",
  "id": 1265804260,
  "lat": 60.4029964,
  "lon": 15.5936511,
  "tags": {
    "addr:city": "Gustafs",
    "addr:country": "SE",
    "addr:housenumber": "34",
    "addr:postcode": "783 50",
    "addr:street": "Morbyvägen",
    "alt_name": "Lundgrens Kulturcentrum",
    "description": "Gustafs mötesplats för näringsliv, kultur och industrihistoria",
    "historic": "yes",
    "loc_name": "Lundgrens",
    "name": "Lundgrens Industrimuseum",
    "source": "local_knowledge;Ekonomiska kartan",
    "tourism": "museum",
    "website": "http://www.lundgrens.nu"
  }
},
{
  "type": "node",
  "id": 1617039583,
  "lat": 60.6058983,
  "lon": 15.6280242,
  "tags": {
    "name": "Dalarnas Museum",
    "tourism": "museum",
    "wikidata": "Q10466069",
    "wikimedia_commons": "Category:Dalarnas_museum_och_konsthallen",
    "wikipedia": "sv:Dalarnas museum"
  }
},
{
  "type": "node",
  "id": 1623302290,
  "lat": 60.4848920,
  "lon": 15.4312103,
  "tags": {
    "name": "Jussi Björlings museum",
    "tourism": "museum",
    "website": "https://www.borlange.se/uppleva-och-gora/kultur/konst/jussi-bjorling/",
    "wikidata": "Q10541528",
    "wikipedia": "sv:Jussi Björlingmuseet"
  }
},
{
  "type": "node",
  "id": 1623302294,
  "lat": 60.4841572,
  "lon": 15.4301434,
  "tags": {
    "addr:city": "Borlänge",
    "addr:country": "SE",
    "addr:housenumber": "13",
    "addr:postcode": "784 33",
    "addr:street": "Borganäsvägen",
    "name": "Geologiska museet",
    "name:en": "Geological museum",
    "name:sv": "Geologiska museet",
    "phone": "+46-243-211092",
    "tourism": "museum",
    "website": "http://www.geologiskamuseet.se"
  }
},
{
  "type": "node",
  "id": 1711520774,
  "lat": 60.4659431,
  "lon": 15.5735450,
  "tags": {
    "name": "Torsångs hembygdsgård",
    "tourism": "museum",
    "website": "http://www.torsangshbf.se"
  }
},
{
  "type": "node",
  "id": 1833042053,
  "lat": 60.3450458,
  "lon": 15.7607585,
  "tags": {
    "amenity": "cinema",
    "name": "Säters Biografmuseum",
    "tourism": "museum"
  }
},
{
  "type": "node",
  "id": 2379092429,
  "lat": 60.4537690,
  "lon": 16.0402741,
  "tags": {
    "name": "Modellkammaren",
    "tourism": "museum"
  }
},
{
  "type": "node",
  "id": 2460595776,
  "lat": 60.2809462,
  "lon": 15.9920808,
  "tags": {
    "addr:country": "SE",
    "addr:housenumber": "4",
    "addr:postcode": "776 30",
    "addr:street": "Garpgatan",
    "name": "Hedemora MC-museum",
    "phone": "+46-225-14375",
    "tourism": "museum"
  }
},
{
  "type": "node",
  "id": 2988697467,
  "lat": 60.4656438,
  "lon": 15.5728171,
  "tags": {
    "building": "yes",
    "description": "Trösklada",
    "ele": "117.585922",
    "source": "survey",
    "tourism": "museum"
  }
},
{
  "type": "node",
  "id": 3592780354,
  "lat": 60.3932076,
  "lon": 16.0081429,
  "tags": {
    "name": "Husby gammelgård",
    "tourism": "museum"
  }
},
{
  "type": "node",
  "id": 3633639899,
  "lat": 60.3430490,
  "lon": 15.7536731,
  "tags": {
    "alt_name": "Säters Hembygdsmuseum",
    "name": "Åsgårdarna",
    "tourism": "museum"
  }
},
{
  "type": "node",
  "id": 3712528152,
  "lat": 60.0811241,
  "lon": 15.9460702,
  "tags": {
    "name": "Norbergs gruvmuseum",
    "tourism": "museum"
  }
},
{
  "type": "node",
  "id": 3717482227,
  "lat": 60.6210020,
  "lon": 15.6654850,
  "tags": {
    "name": "Lugnets skidmuseum",
    "tourism": "museum"
  }
},
{
  "type": "node",
  "id": 4027409225,
  "lat": 60.2933338,
  "lon": 15.8274313,
  "tags": {
    "name": "Bruksmuseum",
    "tourism": "museum",
    "website": "http://bruksmuseum.se"
  }
},
{
  "type": "node",
  "id": 4430286495,
  "lat": 60.0636512,
  "lon": 15.9244492,
  "tags": {
    "name": "Elvisboden",
    "tourism": "museum"
  }
},
{
  "type": "node",
  "id": 4955589095,
  "lat": 60.6506033,
  "lon": 15.7777033,
  "tags": {
    "name": "Stora Hyttnäs",
    "tourism": "museum",
    "wheelchair": "no"
  }
},
{
  "type": "node",
  "id": 6539025494,
  "lat": 60.4870364,
  "lon": 15.4343819,
  "tags": {
    "addr:city": "Borlänge",
    "addr:housenumber": "1",
    "addr:street": "Sveatorget",
    "name": "Borlänge Modern",
    "tourism": "museum"
  }
},
{
  "type": "way",
  "id": 35302211,
  "nodes": [
    413699404,
    5594905127,
    413699405,
    5594905126,
    5594905130,
    5594905129,
    5594905128,
    413699408,
    5594905121,
    413699409,
    5594905123,
    5594905122,
    5594905124,
    5594905125,
    413699404
  ],
  "tags": {
    "alt_name": "Ornäsloftet",
    "building": "yes",
    "building:colour": "#76211E",
    "building:levels": "2",
    "building:material": "wood",
    "height": "8.16",
    "name": "Ornässtugan",
    "roof:height": "3.00",
    "roof:material": "wood",
    "roof:shape": "gabled",
    "source": "survey",
    "tourism": "museum"
  }
},
{
  "type": "way",
  "id": 87819711,
  "nodes": [
    1020942257,
    1033057119,
    1020942141,
    5657297963,
    2969265800,
    5657297961,
    1020942909,
    1020942393,
    2969303539,
    5657297962,
    2969303536,
    5657297964,
    1020942257
  ],
  "tags": {
    "building": "yes",
    "name": "Gruvmuseet",
    "name:en": "Mine museum",
    "opening_hours": "Sa,Su 10:00-15:00",
    "source": "Bing",
    "tourism": "museum",
    "wikidata": "Q10509210",
    "wikipedia": "sv:Gruvmuseet, Falu koppargruva"
  }
},
{
  "type": "way",
  "id": 87819732,
  "nodes": [
    1020941837,
    1020941849,
    1020941732,
    1020942697,
    1020941837
  ],
  "tags": {
    "building": "yes",
    "building:levels": "2",
    "building:material": "#801818",
    "building:material_1": "wood",
    "name": "Linslageriet",
    "name:en": "Exhibition on mining ropes",
    "roof:material": "roof_tiles",
    "roof:shape": "gabled",
    "source": "Bing",
    "tourism": "museum"
  }
},
{
  "type": "way",
  "id": 92434217,
  "nodes": [
    1073089863,
    1073089806,
    1073089841,
    1073089826,
    1073089867,
    1073089843,
    1073089873,
    1073089817,
    1073089834,
    1073089851,
    1073089863
  ],
  "tags": {
    "building": "yes",
    "name": "Idrottsmuseum",
    "source": "Bing",
    "tourism": "museum"
  }
},
{
  "type": "way",
  "id": 102722126,
  "nodes": [
    1186400619,
    1186400622,
    1186400620,
    1186400618,
    1186400619
  ],
  "tags": {
    "addr:city": "Falun",
    "addr:country": "SE",
    "addr:housenumber": "12",
    "addr:street": "Kaserngården",
    "building": "yes",
    "source": "Bing",
    "tourism": "museum",
    "website": "http://www.dalregementetsmuseer.se/02_Falun/fln_museet/fln_museet001.htm"
  }
},
{
  "type": "way",
  "id": 151573405,
  "nodes": [
    1644001248,
    1644001246,
    1644001245,
    1644001247,
    1644001248
  ],
  "tags": {
    "building": "yes",
    "name": "Garpenbergs Gruvkapell",
    "source": "Knowledge",
    "tourism": "museum"
  }
},
{
  "type": "way",
  "id": 160961557,
  "nodes": [
    1729270248,
    1729270270,
    1729270242,
    1729270262,
    1729270248
  ],
  "tags": {
    "building": "yes",
    "name": "Lokstallet",
    "source": "Bing",
    "tourism": "museum"
  }
},
{
  "type": "way",
  "id": 168165427,
  "nodes": [
    1794605278,
    1794605274,
    1794605248,
    1794605253,
    1794605278
  ],
  "tags": {
    "building": "yes",
    "name": "Polhemsmuséet",
    "tourism": "museum"
  }
},
{
  "type": "way",
  "id": 229289349,
  "nodes": [
    2379092722,
    2379092740,
    2379092739,
    2378980798,
    2379092722
  ],
  "tags": {
    "addr:city": "Långshyttan",
    "addr:country": "SE",
    "addr:housenumber": "2",
    "addr:postcode": "770 70",
    "addr:street": "Storgatan",
    "building": "yes",
    "email": "info@brukshistoriska.se",
    "name": "Bengtsgården",
    "operator": "Långshyttans brukshistoriska förening",
    "tourism": "museum"
  }
},
{
  "type": "way",
  "id": 229708284,
  "nodes": [
    2382686038,
    2382686032,
    2382686023,
    2382686013,
    2382686005,
    2382686010,
    2382685999,
    2382686000,
    2382686011,
    5576260151,
    2382686020,
    2382686026,
    2382686033,
    2382686040,
    2382686046,
    2382686065,
    2382686052,
    2382686044,
    2382686038
  ],
  "tags": {
    "name": "Nya Lapphyttan",
    "source": "bing",
    "tourism": "museum"
  }
},
{
  "type": "way",
  "id": 229987118,
  "nodes": [
    2385223842,
    5610720860,
    5610720862,
    2385223847,
    2385223852,
    5610720863,
    5610720861,
    2385223855,
    2385223842
  ],
  "tags": {
    "addr:city": "Säter",
    "addr:country": "SE",
    "addr:housename": "21A",
    "addr:housenumber": "16",
    "addr:street": "Länsvägen",
    "building": "yes",
    "building:part": "yes",
    "name": "Mentalvårdsmuseet",
    "source": "Bing",
    "tourism": "museum"
  }
},
{
  "type": "way",
  "id": 252860416,
  "nodes": [
    2588819341,
    2588819342,
    2588819348,
    2588819346,
    2588819344,
    2588819341
  ],
  "tags": {
    "building": "yes",
    "name": "Klosters museum",
    "tourism": "museum"
  }
},
{
  "type": "way",
  "id": 525130417,
  "nodes": [
    5109127967,
    5109127970,
    5109127968,
    5109127976,
    5109127975,
    5109127973,
    5109127974,
    5109127971,
    5109127972,
    5109127969,
    5109127967
  ],
  "tags": {
    "addr:city": "Långshyttan",
    "addr:country": "SE",
    "addr:housenumber": "1",
    "addr:postcode": "770 70",
    "addr:street": "Gamla Bruksgatan",
    "building": "yes",
    "description": "Hytta, kvadratisk, 9.5x9.5 m st (N-S). Fornlämning, Husby 140:1. http://kulturarvsdata.se/raa/fmi/html/10235601400001",
    "name": "Mulltimmerhyttan",
    "operator": "Långshyttans brukshistoriska förening",
    "tourism": "museum",
    "website": "http://www.brukshistoriska.se"
  }
},
{
  "type": "node",
  "id": 1729270248,
  "lat": 60.1390033,
  "lon": 15.4157826
},
{
  "type": "node",
  "id": 1729270270,
  "lat": 60.1390823,
  "lon": 15.4159905
},
{
  "type": "node",
  "id": 1729270242,
  "lat": 60.1392151,
  "lon": 15.4157868
},
{
  "type": "node",
  "id": 1729270262,
  "lat": 60.1391360,
  "lon": 15.4155790
},
{
  "type": "node",
  "id": 2382685999,
  "lat": 60.0591865,
  "lon": 15.9063948
},
{
  "type": "node",
  "id": 2382686000,
  "lat": 60.0592123,
  "lon": 15.9062006
},
{
  "type": "node",
  "id": 2382686005,
  "lat": 60.0592802,
  "lon": 15.9071975
},
{
  "type": "node",
  "id": 2382686010,
  "lat": 60.0593286,
  "lon": 15.9070875
},
{
  "type": "node",
  "id": 2382686011,
  "lat": 60.0593545,
  "lon": 15.9060581
},
{
  "type": "node",
  "id": 2382686013,
  "lat": 60.0593868,
  "lon": 15.9075601
},
{
  "type": "node",
  "id": 2382686020,
  "lat": 60.0594966,
  "lon": 15.9063754
},
{
  "type": "node",
  "id": 2382686023,
  "lat": 60.0595386,
  "lon": 15.9081233
},
{
  "type": "node",
  "id": 2382686026,
  "lat": 60.0595645,
  "lon": 15.9068933
},
{
  "type": "node",
  "id": 2382686032,
  "lat": 60.0596743,
  "lon": 15.9084081
},
{
  "type": "node",
  "id": 2382686033,
  "lat": 60.0596970,
  "lon": 15.9073270
},
{
  "type": "node",
  "id": 2382686038,
  "lat": 60.0597971,
  "lon": 15.9086865
},
{
  "type": "node",
  "id": 2382686040,
  "lat": 60.0598908,
  "lon": 15.9074630
},
{
  "type": "node",
  "id": 2382686044,
  "lat": 60.0599522,
  "lon": 15.9085894
},
{
  "type": "node",
  "id": 2382686046,
  "lat": 60.0599878,
  "lon": 15.9078902
},
{
  "type": "node",
  "id": 2382686052,
  "lat": 60.0600653,
  "lon": 15.9084275
},
{
  "type": "node",
  "id": 2382686065,
  "lat": 60.0601622,
  "lon": 15.9082074
},
{
  "type": "node",
  "id": 5576260151,
  "lat": 60.0593894,
  "lon": 15.9061359
},
{
  "type": "node",
  "id": 2385223842,
  "lat": 60.3420037,
  "lon": 15.7116871
},
{
  "type": "node",
  "id": 2385223847,
  "lat": 60.3421839,
  "lon": 15.7119471
},
{
  "type": "node",
  "id": 2385223852,
  "lat": 60.3422603,
  "lon": 15.7117308
},
{
  "type": "node",
  "id": 2385223855,
  "lat": 60.3420801,
  "lon": 15.7114708
},
{
  "type": "node",
  "id": 5610720860,
  "lat": 60.3420567,
  "lon": 15.7117636
},
{
  "type": "node",
  "id": 5610720861,
  "lat": 60.3421330,
  "lon": 15.7115472
},
{
  "type": "node",
  "id": 5610720862,
  "lat": 60.3421268,
  "lon": 15.7118647
},
{
  "type": "node",
  "id": 5610720863,
  "lat": 60.3422034,
  "lon": 15.7116488
},
{
  "type": "node",
  "id": 413699404,
  "lat": 60.5069372,
  "lon": 15.5528385
},
{
  "type": "node",
  "id": 413699405,
  "lat": 60.5069425,
  "lon": 15.5530147
},
{
  "type": "node",
  "id": 413699408,
  "lat": 60.5071710,
  "lon": 15.5529866
},
{
  "type": "node",
  "id": 413699409,
  "lat": 60.5071657,
  "lon": 15.5528099
},
{
  "type": "node",
  "id": 5594905121,
  "lat": 60.5071685,
  "lon": 15.5529042
},
{
  "type": "node",
  "id": 5594905122,
  "lat": 60.5070410,
  "lon": 15.5528005
},
{
  "type": "node",
  "id": 5594905123,
  "lat": 60.5070417,
  "lon": 15.5528251
},
{
  "type": "node",
  "id": 5594905124,
  "lat": 60.5070130,
  "lon": 15.5528040
},
{
  "type": "node",
  "id": 5594905125,
  "lat": 60.5070138,
  "lon": 15.5528291
},
{
  "type": "node",
  "id": 5594905126,
  "lat": 60.5070535,
  "lon": 15.5530011
},
{
  "type": "node",
  "id": 5594905127,
  "lat": 60.5069401,
  "lon": 15.5529337
},
{
  "type": "node",
  "id": 5594905128,
  "lat": 60.5070877,
  "lon": 15.5529969
},
{
  "type": "node",
  "id": 5594905129,
  "lat": 60.5070871,
  "lon": 15.5530209
},
{
  "type": "node",
  "id": 5594905130,
  "lat": 60.5070743,
  "lon": 15.5530212
},
{
  "type": "node",
  "id": 1020941732,
  "lat": 60.6010999,
  "lon": 15.6169809
},
{
  "type": "node",
  "id": 1020941837,
  "lat": 60.6009415,
  "lon": 15.6167860
},
{
  "type": "node",
  "id": 1020941849,
  "lat": 60.6010204,
  "lon": 15.6166949
},
{
  "type": "node",
  "id": 1020942141,
  "lat": 60.6000386,
  "lon": 15.6166864
},
{
  "type": "node",
  "id": 1020942257,
  "lat": 60.6000927,
  "lon": 15.6168802
},
{
  "type": "node",
  "id": 1020942393,
  "lat": 60.6004180,
  "lon": 15.6165029
},
{
  "type": "node",
  "id": 1020942697,
  "lat": 60.6010210,
  "lon": 15.6170720
},
{
  "type": "node",
  "id": 1020942909,
  "lat": 60.6003638,
  "lon": 15.6163090
},
{
  "type": "node",
  "id": 1033057119,
  "lat": 60.6000832,
  "lon": 15.6168456
},
{
  "type": "node",
  "id": 2969265800,
  "lat": 60.6002002,
  "lon": 15.6164988
},
{
  "type": "node",
  "id": 2969303536,
  "lat": 60.6002570,
  "lon": 15.6166896
},
{
  "type": "node",
  "id": 2969303539,
  "lat": 60.6003832,
  "lon": 15.6165432
},
{
  "type": "node",
  "id": 5657297961,
  "lat": 60.6002343,
  "lon": 15.6164592
},
{
  "type": "node",
  "id": 5657297962,
  "lat": 60.6002875,
  "lon": 15.6166542
},
{
  "type": "node",
  "id": 5657297963,
  "lat": 60.6001644,
  "lon": 15.6165403
},
{
  "type": "node",
  "id": 5657297964,
  "lat": 60.6002145,
  "lon": 15.6167401
},
{
  "type": "node",
  "id": 1186400618,
  "lat": 60.6045846,
  "lon": 15.6525134
},
{
  "type": "node",
  "id": 1186400619,
  "lat": 60.6044898,
  "lon": 15.6526851
},
{
  "type": "node",
  "id": 1186400620,
  "lat": 60.6046399,
  "lon": 15.6526341
},
{
  "type": "node",
  "id": 1186400622,
  "lat": 60.6045438,
  "lon": 15.6528031
},
{
  "type": "node",
  "id": 1073089806,
  "lat": 60.6203683,
  "lon": 15.6551367
},
{
  "type": "node",
  "id": 1073089817,
  "lat": 60.6198763,
  "lon": 15.6552466
},
{
  "type": "node",
  "id": 1073089826,
  "lat": 60.6203328,
  "lon": 15.6552306
},
{
  "type": "node",
  "id": 1073089834,
  "lat": 60.6198868,
  "lon": 15.6551367
},
{
  "type": "node",
  "id": 1073089841,
  "lat": 60.6203565,
  "lon": 15.6552413
},
{
  "type": "node",
  "id": 1073089843,
  "lat": 60.6201052,
  "lon": 15.6552708
},
{
  "type": "node",
  "id": 1073089851,
  "lat": 60.6198723,
  "lon": 15.6551233
},
{
  "type": "node",
  "id": 1073089863,
  "lat": 60.6198894,
  "lon": 15.6549489
},
{
  "type": "node",
  "id": 1073089867,
  "lat": 60.6203144,
  "lon": 15.6553593
},
{
  "type": "node",
  "id": 1073089873,
  "lat": 60.6199513,
  "lon": 15.6552735
},
{
  "type": "node",
  "id": 1644001245,
  "lat": 60.3079065,
  "lon": 16.1867057
},
{
  "type": "node",
  "id": 1644001246,
  "lat": 60.3079570,
  "lon": 16.1868349
},
{
  "type": "node",
  "id": 1644001247,
  "lat": 60.3079786,
  "lon": 16.1865910
},
{
  "type": "node",
  "id": 1644001248,
  "lat": 60.3080290,
  "lon": 16.1867201
},
{
  "type": "node",
  "id": 2588819341,
  "lat": 60.3719481,
  "lon": 16.1618200
},
{
  "type": "node",
  "id": 2588819342,
  "lat": 60.3719994,
  "lon": 16.1616240
},
{
  "type": "node",
  "id": 2588819344,
  "lat": 60.3721573,
  "lon": 16.1620441
},
{
  "type": "node",
  "id": 2588819346,
  "lat": 60.3721932,
  "lon": 16.1620826
},
{
  "type": "node",
  "id": 2588819348,
  "lat": 60.3722445,
  "lon": 16.1618865
},
{
  "type": "node",
  "id": 2378980798,
  "lat": 60.4520609,
  "lon": 16.0366345
},
{
  "type": "node",
  "id": 2379092722,
  "lat": 60.4520681,
  "lon": 16.0364416
},
{
  "type": "node",
  "id": 2379092739,
  "lat": 60.4522164,
  "lon": 16.0366583
},
{
  "type": "node",
  "id": 2379092740,
  "lat": 60.4522235,
  "lon": 16.0364653
},
{
  "type": "node",
  "id": 5109127967,
  "lat": 60.4528067,
  "lon": 16.0370837
},
{
  "type": "node",
  "id": 5109127968,
  "lat": 60.4524669,
  "lon": 16.0374101
},
{
  "type": "node",
  "id": 5109127969,
  "lat": 60.4527969,
  "lon": 16.0372995
},
{
  "type": "node",
  "id": 5109127970,
  "lat": 60.4524845,
  "lon": 16.0370233
},
{
  "type": "node",
  "id": 5109127971,
  "lat": 60.4526739,
  "lon": 16.0374172
},
{
  "type": "node",
  "id": 5109127972,
  "lat": 60.4526803,
  "lon": 16.0372776
},
{
  "type": "node",
  "id": 5109127973,
  "lat": 60.4525867,
  "lon": 16.0376112
},
{
  "type": "node",
  "id": 5109127974,
  "lat": 60.4525962,
  "lon": 16.0374027
},
{
  "type": "node",
  "id": 5109127975,
  "lat": 60.4525626,
  "lon": 16.0376067
},
{
  "type": "node",
  "id": 5109127976,
  "lat": 60.4525707,
  "lon": 16.0374295
},
{
  "type": "node",
  "id": 1794605248,
  "lat": 60.4316412,
  "lon": 16.2093248
},
{
  "type": "node",
  "id": 1794605253,
  "lat": 60.4316786,
  "lon": 16.2091230
},
{
  "type": "node",
  "id": 1794605274,
  "lat": 60.4318024,
  "lon": 16.2094472
},
{
  "type": "node",
  "id": 1794605278,
  "lat": 60.4318397,
  "lon": 16.2092455
}

  ]
}
