{
  "version": 0.6,
  "generator": "Overpass API 0.7.55.9 ab41fea6",
  "osm3s": {
    "timestamp_osm_base": "2020-02-14T09:50:02Z",
    "copyright": "The data included in this document is from www.openstreetmap.org. The data is made available under ODbL."
  },
  "elements": [

{
  "type": "node",
  "id": 264587717,
  "lat": 52.2231871,
  "lon": -2.8510386,
  "tags": {
    "name": "Eardisland Dovecote",
    "tourism": "museum"
  }
},
{
  "type": "node",
  "id": 279265231,
  "lat": 52.6201018,
  "lon": -2.4529165,
  "tags": {
    "addr:city": "Coalport",
    "addr:postcode": "TF8 7HT",
    "addr:street": "Coalport High Street",
    "name": "Tar Tunnel",
    "tourism": "museum",
    "website": "http://www.ironbridge.org.uk/our-attractions/tar-tunnel/",
    "wikidata": "Q7685001",
    "wikipedia": "en:Tar Tunnel"
  }
},
{
  "type": "node",
  "id": 428908187,
  "lat": 52.5606600,
  "lon": -3.1489510,
  "tags": {
    "name": "The Old Bell Museum",
    "tourism": "museum"
  }
},
{
  "type": "node",
  "id": 453184639,
  "lat": 52.6236390,
  "lon": -2.4647145,
  "tags": {
    "addr:city": "Jackfield",
    "addr:postcode": "TF8 7LJ",
    "addr:street": "Church Road",
    "name": "Jackfield Tile Museum",
    "operator": "Ironbridge Gorge Museum Trust",
    "phone": "+44 1952 433424",
    "tourism": "museum",
    "website": "http://www.ironbridge.co.uk/our_attractions/jackfield_tile_museum/",
    "wikidata": "Q6116147",
    "wikipedia": "en:Jackfield Tile Museum"
  }
},
{
  "type": "node",
  "id": 761171045,
  "lat": 52.6298110,
  "lon": -2.4511390,
  "tags": {
    "addr:city": "Madeley",
    "addr:postcode": "TF7 5DU",
    "addr:street": "Legges Way",
    "museum": "living_history",
    "name": "Blists Hill Victorian Town",
    "phone": "+44 1952 433424",
    "tourism": "museum",
    "website": "http://www.ironbridge.org.uk/our-attractions/blists-hill-victorian-town/",
    "wikidata": "Q4926919",
    "wikipedia": "en:Blists Hill Victorian Town"
  }
},
{
  "type": "node",
  "id": 793067766,
  "lat": 52.4943265,
  "lon": -2.9981043,
  "tags": {
    "addr:city": "Bishop's Castle",
    "addr:housename": "The House on Crutches Museum",
    "addr:postcode": "SY9 5BN",
    "addr:street": "High Street",
    "name": "The House on Crutches Museum",
    "opening_hours": "May-Oct: Sa,Su 13:30-17:00",
    "operator": "The House on Crutches Museum Collection Trust",
    "source": "local_knowledge",
    "tourism": "museum"
  }
},
{
  "type": "node",
  "id": 828759304,
  "lat": 52.3756257,
  "lon": -2.3152010,
  "tags": {
    "name": "Bewdley Museum",
    "tourism": "museum",
    "wikidata": "Q18974884"
  }
},
{
  "type": "node",
  "id": 849570174,
  "lat": 52.4214238,
  "lon": -3.0296656,
  "tags": {
    "addr:street": "The Square",
    "name": "Town Hall (museum)",
    "operator": "Clun Town Council",
    "source": "survey",
    "tourism": "museum"
  }
},
{
  "type": "node",
  "id": 918775088,
  "lat": 52.5370062,
  "lon": -2.4203876,
  "tags": {
    "name": "Northgate Museum",
    "operator": "Bridgnorth and District Historical Society",
    "source": "survey",
    "tourism": "museum",
    "website": "http://www.bridgnorthmuseum.org.uk/"
  }
},
{
  "type": "node",
  "id": 1347091812,
  "lat": 52.6301498,
  "lon": -2.4935905,
  "tags": {
    "addr:city": "Ironbridge",
    "addr:postcode": "TF8 7NJ",
    "addr:street": "The Wharfage",
    "name": "The Merrythought Teddy Bear Shop & Museum",
    "phone": "+44 1952 433044",
    "shop": "gift",
    "tourism": "museum",
    "website": "https://www.merrythought.co.uk/"
  }
},
{
  "type": "node",
  "id": 2126925768,
  "lat": 52.7046103,
  "lon": -2.7466695,
  "tags": {
    "name": "Coleham Pumping Station",
    "source": "OS_OpenData_StreetView",
    "tourism": "museum",
    "wikidata": "Q5142960"
  }
},
{
  "type": "node",
  "id": 2872830274,
  "lat": 52.4398273,
  "lon": -2.8334066,
  "tags": {
    "addr:street": "Market Street",
    "name": "Land of Lost Content",
    "tourism": "museum"
  }
},
{
  "type": "node",
  "id": 2982291422,
  "lat": 52.6170596,
  "lon": -2.4863892,
  "tags": {
    "addr:city": "Broseley",
    "addr:postcode": "TF12 5LX",
    "addr:street": "Duke Street",
    "name": "Broseley Pipeworks",
    "phone": "+44 1952 433424",
    "tourism": "museum",
    "website": "http://www.ironbridge.org.uk/our-attractions/broseley-pipeworks/",
    "wikidata": "Q18386043",
    "wikipedia": "en:Broseley Pipeworks"
  }
},
{
  "type": "node",
  "id": 2986098520,
  "lat": 52.3088494,
  "lon": -2.5956459,
  "tags": {
    "name": "Tenbury Museum",
    "tourism": "museum",
    "wikidata": "Q7699532"
  }
},
{
  "type": "node",
  "id": 2993711836,
  "lat": 52.3693402,
  "lon": -2.7170937,
  "tags": {
    "addr:street": "The Parkway",
    "name": "Exhibitions (Ludlow Museum)",
    "tourism": "museum"
  }
},
{
  "type": "node",
  "id": 4814438871,
  "lat": 52.3366821,
  "lon": -2.2791337,
  "tags": {
    "name": "Canal Heritage Room",
    "tourism": "museum"
  }
},
{
  "type": "node",
  "id": 5621495281,
  "lat": 52.5607246,
  "lon": -3.1484469,
  "tags": {
    "name": "Cloverlands Model Car Collection",
    "tourism": "museum"
  }
},
{
  "type": "node",
  "id": 5636612378,
  "lat": 52.3392101,
  "lon": -2.2419459,
  "tags": {
    "name": "Worcestershire County Museum",
    "tourism": "museum"
  }
},
{
  "type": "way",
  "id": 40433288,
  "nodes": [
    489501946,
    489501961,
    2482374860,
    2482374858,
    2482374850,
    2482374852,
    2482374844,
    2482374842,
    2482374831,
    2482374835,
    489501966,
    489501969,
    2482374838,
    2482374840,
    2482374848,
    2482374846,
    2482374854,
    2482374856,
    2482374862,
    489501946
  ],
  "tags": {
    "building": "yes",
    "name": "Kidderminster Railway Museum",
    "operator": "Kidderminster Railway Museum",
    "source": "survey;Bing",
    "tourism": "museum"
  }
},
{
  "type": "way",
  "id": 57044788,
  "nodes": [
    712338205,
    712338189,
    712338217,
    6249199999,
    712338184,
    712338213,
    712338181,
    712338212,
    712338176,
    6249198970,
    712338205
  ],
  "tags": {
    "building": "museum",
    "name": "RAF Cosford Visitor Centre",
    "source": "OS_OpenData_StreetView",
    "tourism": "museum"
  }
},
{
  "type": "way",
  "id": 57044995,
  "nodes": [
    712352020,
    712352004,
    712352018,
    712351999,
    712352012,
    712352029,
    712352016,
    712352032,
    712352023,
    712352009,
    712352007,
    712352005,
    712352010,
    712352026,
    347026354,
    6249200023,
    6249200024,
    712352011,
    712352015,
    6249200025,
    6249200026,
    712352031,
    712352020
  ],
  "tags": {
    "name": "RAF Museum Cosford",
    "source": "visual survey;OS_OpenData_StreetView",
    "tourism": "museum",
    "url": "http://www.rafmuseum.org.uk/cosford/"
  }
},
{
  "type": "way",
  "id": 59663228,
  "nodes": [
    740166346,
    740166405,
    740166328,
    740166353,
    740166379,
    740166399,
    740166340,
    740166361,
    740166348,
    740166334,
    740166407,
    740166375,
    740166350,
    740166383,
    740166321,
    740166402,
    740166332,
    740166382,
    740166318,
    740166343,
    740166371,
    740166388,
    740166331,
    740166394,
    740166346
  ],
  "tags": {
    "addr:city": "Coalbrookdale",
    "addr:postcode": "TF8 7DQ",
    "addr:street": "Wellington Road",
    "building": "yes",
    "is_in": "Ironbridge, Telford, Shropshire, England, United Kingdom",
    "name": "Enginuity",
    "phone": "+44 1952 433424",
    "source": "OS_OpenData_StreetView",
    "tourism": "museum",
    "website": "http://www.ironbridge.org.uk/our-attractions/enginuity/",
    "wikipedia": "en:Enginuity"
  }
},
{
  "type": "way",
  "id": 59663229,
  "nodes": [
    278009243,
    740166400,
    740166372,
    4012876683,
    4012876682,
    740166354,
    740166319,
    740166389,
    278009243
  ],
  "tags": {
    "addr:city": "Coalbrookdale",
    "addr:postcode": "TF8 7DQ",
    "addr:street": "Wellington Road",
    "building": "yes",
    "name": "Coalbrookdale Museum of Iron",
    "phone": "+44 1952 433424",
    "source": "OS_OpenData_StreetView",
    "tourism": "museum",
    "website": "http://www.ironbridge.org.uk/our-attractions/coalbrookdale-museum-of-iron/",
    "wikidata": "Q5137850",
    "wikipedia": "en:Coalbrookdale Museum of Iron"
  }
},
{
  "type": "way",
  "id": 60473765,
  "nodes": [
    754019212,
    754019192,
    754019208,
    754019197,
    754019212
  ],
  "tags": {
    "addr:city": "Ironbridge",
    "addr:postcode": "TF8 7NH",
    "addr:street": "The Wharfage",
    "building": "yes",
    "name": "Museum Of The Gorge",
    "phone": "+44 1952 433424",
    "source": "OS_OpenData_StreetView",
    "tourism": "museum",
    "website": "http://www.ironbridge.org.uk/our-attractions/museum-of-the-gorge/",
    "wikipedia": "en:Museum of the Gorge, Ironbridge"
  }
},
{
  "type": "way",
  "id": 60577128,
  "nodes": [
    757021168,
    6438830311,
    757021175,
    757021210,
    757021181,
    757021260,
    6438830340,
    757021214,
    6438830339,
    757021164,
    757021283,
    757021168
  ],
  "tags": {
    "building": "yes",
    "name": "The Engine House",
    "operator": "Severn Valley Railway",
    "tourism": "museum",
    "wikidata": "Q7732208"
  }
},
{
  "type": "way",
  "id": 60784435,
  "nodes": [
    760767742,
    2580203113,
    760767770,
    760767747,
    760767892,
    2580203115,
    760767824,
    760767791,
    760767742
  ],
  "tags": {
    "addr:city": "Coalport",
    "addr:postcode": "TF8 7HT",
    "addr:street": "Coalport High Street",
    "building": "yes",
    "name": "Coalport China Museum",
    "phone": "+44 1952 433424",
    "source": "OS_OpenData_StreetView",
    "tourism": "museum",
    "website": "http://www.ironbridge.org.uk/our-attractions/coalport-china-museum/",
    "wheelchair": "yes",
    "wikidata": "Q5138023",
    "wikipedia": "en:Coalport China Museum"
  }
},
{
  "type": "way",
  "id": 112509388,
  "nodes": [
    2456283359,
    2456283362,
    1278566370,
    1278566185,
    1278565706,
    1278566129,
    1278566337,
    1278566284,
    2456283359
  ],
  "tags": {
    "addr:city": "Ludlow",
    "addr:housename": "The Buttercross",
    "addr:street": "The Buttercross",
    "building": "yes",
    "name": "The Buttercross (Ludlow Museum)",
    "tourism": "museum"
  }
},
{
  "type": "way",
  "id": 160126362,
  "nodes": [
    1722028302,
    1722028359,
    1722028304,
    1722028316,
    1722028292,
    1722028353,
    1722028326,
    1722028332,
    1722028302
  ],
  "tags": {
    "building": "yes",
    "name": "Much Wenlock Museum",
    "source": "Bing",
    "tourism": "museum"
  }
},
{
  "type": "way",
  "id": 292438382,
  "nodes": [
    2959874108,
    2959913863,
    2959913862,
    2959913860,
    2959913861,
    2959874107,
    2959874108
  ],
  "tags": {
    "name": "Leominster Museum",
    "source": "OS_OpenData_StreetView",
    "tourism": "museum",
    "wikidata": "Q17342652",
    "wikipedia": "en:Leominster Museum"
  }
},
{
  "type": "way",
  "id": 318459440,
  "nodes": [
    3248633023,
    3248633020,
    720637605,
    3248633022,
    3248633025,
    3248633029,
    3248633032,
    3248633038,
    3248633039,
    3248633041,
    3248633042,
    3248633040,
    3248633036,
    720637637,
    3248633049,
    3248633051,
    3248633053,
    3248633054,
    3248633056,
    3248633055,
    720637667,
    3248633052,
    3248633050,
    720637644,
    3248633047,
    3248633045,
    3248633044,
    3248633021,
    3248633006,
    3248633018,
    3248633028,
    3248633026,
    3248633023
  ],
  "tags": {
    "building": "yes",
    "name": "Shropshire Regimental Museum",
    "source": "OS_Opendata_StreetView;local knowledge",
    "tourism": "museum",
    "website": "http://www.shropshireregimentalmuseum.co.uk/"
  }
},
{
  "type": "way",
  "id": 386554913,
  "nodes": [
    3898929017,
    3898929018,
    3898929019,
    3898929020,
    3898929017
  ],
  "tags": {
    "building": "yes",
    "name": "Wroxeter Roman City Museum",
    "tourism": "museum"
  }
},
{
  "type": "way",
  "id": 398544734,
  "nodes": [
    4012940747,
    4012940748,
    4012940749,
    4012940750,
    4012940747
  ],
  "tags": {
    "addr:city": "Coalbrookdale",
    "addr:postcode": "TF8 7EW",
    "addr:street": "Darby Road",
    "building": "yes",
    "name": "The Darby Houses",
    "phone": "+44 1952 433424",
    "tourism": "museum",
    "website": "http://www.ironbridge.org.uk/our-attractions/darby-houses/",
    "wikidata": "Q7368204",
    "wikipedia": "en:Darby Houses"
  }
},
{
  "type": "way",
  "id": 427556897,
  "nodes": [
    4267594871,
    4267594870,
    3165830446,
    3165830452,
    4267594872,
    4267594873,
    4267594874,
    4267594871
  ],
  "tags": {
    "building": "yes",
    "name": "Museum of Carpet",
    "tourism": "museum",
    "website": "http://www.carpetmuseum.co.uk/"
  }
},
{
  "type": "way",
  "id": 474029992,
  "nodes": [
    2758507146,
    4680538881,
    4680538880,
    4680538879,
    4680538878,
    1708425941,
    4677391567,
    4680538877,
    4680538874,
    292305098,
    292304875,
    4680538873,
    4680538872,
    4680538884,
    4680538882,
    2758507146
  ],
  "tags": {
    "addr:city": "Shrewsbury",
    "addr:street": "The Square",
    "building": "yes",
    "name": "Shrewsbury Museum (The Music Hall)",
    "operator": "Shropshire Council",
    "tourism": "museum",
    "wikidata": "Q6941532"
  }
},
{
  "type": "way",
  "id": 612010568,
  "nodes": [
    5793860420,
    5793860421,
    5793860422,
    5793860423,
    5793860420
  ],
  "tags": {
    "addr:city": "Ironbridge",
    "addr:postcode": "TF8 7JP",
    "addr:street": "Ladywood",
    "building": "tollhouse",
    "building:levels": "2",
    "name": "The Iron Bridge Tollhouse",
    "note": "tourism information has moved from here",
    "phone": "+44 1952 433424",
    "tourism": "museum",
    "website": "http://www.ironbridge.org.uk/our-attractions/the-iron-bridge-and-tollhouse/",
    "wheelchair": "limited"
  }
},
{
  "type": "way",
  "id": 612016480,
  "nodes": [
    1252615772,
    5793895609,
    5793895610,
    5793895611,
    1252615772
  ],
  "tags": {
    "building": "yes",
    "name": "Museum of Steel Sculpture",
    "tourism": "museum"
  }
},
{
  "type": "way",
  "id": 639096924,
  "nodes": [
    6022537471,
    6022537472,
    6022537473,
    6022537470,
    6022537471
  ],
  "tags": {
    "building": "yes",
    "name": "Ditherington Flax Mill",
    "note": "video & displays",
    "operator": "Friends of Ditherington Flax Mill",
    "tourism": "museum"
  }
},
{
  "type": "way",
  "id": 651223471,
  "nodes": [
    6107188919,
    6107188918,
    6107188917,
    6107188916,
    6107188919
  ],
  "tags": {
    "building": "yes",
    "name": "Battle of Shrewsbury Exhibition",
    "tourism": "museum"
  }
},
{
  "type": "node",
  "id": 2959874107,
  "lat": 52.2258818,
  "lon": -2.7374905
},
{
  "type": "node",
  "id": 2959874108,
  "lat": 52.2258891,
  "lon": -2.7374010
},
{
  "type": "node",
  "id": 2959913860,
  "lat": 52.2259455,
  "lon": -2.7376347
},
{
  "type": "node",
  "id": 2959913861,
  "lat": 52.2259560,
  "lon": -2.7375067
},
{
  "type": "node",
  "id": 2959913862,
  "lat": 52.2260219,
  "lon": -2.7376513
},
{
  "type": "node",
  "id": 2959913863,
  "lat": 52.2260396,
  "lon": -2.7374339
},
{
  "type": "node",
  "id": 1278565706,
  "lat": 52.3677604,
  "lon": -2.7190511
},
{
  "type": "node",
  "id": 1278566129,
  "lat": 52.3677439,
  "lon": -2.7190444
},
{
  "type": "node",
  "id": 1278566185,
  "lat": 52.3677684,
  "lon": -2.7189981
},
{
  "type": "node",
  "id": 1278566284,
  "lat": 52.3677477,
  "lon": -2.7191343
},
{
  "type": "node",
  "id": 1278566337,
  "lat": 52.3677313,
  "lon": -2.7191276
},
{
  "type": "node",
  "id": 1278566370,
  "lat": 52.3678323,
  "lon": -2.7190241
},
{
  "type": "node",
  "id": 2456283359,
  "lat": 52.3677385,
  "lon": -2.7191953
},
{
  "type": "node",
  "id": 2456283362,
  "lat": 52.3678019,
  "lon": -2.7192244
},
{
  "type": "node",
  "id": 757021164,
  "lat": 52.4421750,
  "lon": -2.3704949
},
{
  "type": "node",
  "id": 757021168,
  "lat": 52.4430539,
  "lon": -2.3708813
},
{
  "type": "node",
  "id": 757021175,
  "lat": 52.4430694,
  "lon": -2.3707151
},
{
  "type": "node",
  "id": 757021181,
  "lat": 52.4428459,
  "lon": -2.3703420
},
{
  "type": "node",
  "id": 757021210,
  "lat": 52.4430786,
  "lon": -2.3706275
},
{
  "type": "node",
  "id": 757021214,
  "lat": 52.4422911,
  "lon": -2.3702401
},
{
  "type": "node",
  "id": 757021260,
  "lat": 52.4427869,
  "lon": -2.3704026
},
{
  "type": "node",
  "id": 757021283,
  "lat": 52.4426853,
  "lon": -2.3707696
},
{
  "type": "node",
  "id": 6438830311,
  "lat": 52.4430631,
  "lon": -2.3707833
},
{
  "type": "node",
  "id": 6438830339,
  "lat": 52.4422398,
  "lon": -2.3702092
},
{
  "type": "node",
  "id": 6438830340,
  "lat": 52.4423087,
  "lon": -2.3701604
},
{
  "type": "node",
  "id": 3165830446,
  "lat": 52.3845895,
  "lon": -2.2458059
},
{
  "type": "node",
  "id": 3165830452,
  "lat": 52.3848245,
  "lon": -2.2454019
},
{
  "type": "node",
  "id": 4267594870,
  "lat": 52.3845414,
  "lon": -2.2458885
},
{
  "type": "node",
  "id": 4267594871,
  "lat": 52.3846077,
  "lon": -2.2459921
},
{
  "type": "node",
  "id": 4267594872,
  "lat": 52.3848469,
  "lon": -2.2454369
},
{
  "type": "node",
  "id": 4267594873,
  "lat": 52.3851153,
  "lon": -2.2449756
},
{
  "type": "node",
  "id": 4267594874,
  "lat": 52.3851592,
  "lon": -2.2450442
},
{
  "type": "node",
  "id": 489501946,
  "lat": 52.3843111,
  "lon": -2.2402319
},
{
  "type": "node",
  "id": 489501961,
  "lat": 52.3842885,
  "lon": -2.2400928
},
{
  "type": "node",
  "id": 489501966,
  "lat": 52.3840159,
  "lon": -2.2402177
},
{
  "type": "node",
  "id": 489501969,
  "lat": 52.3840390,
  "lon": -2.2403601
},
{
  "type": "node",
  "id": 2482374831,
  "lat": 52.3840503,
  "lon": -2.2401545
},
{
  "type": "node",
  "id": 2482374835,
  "lat": 52.3840576,
  "lon": -2.2401995
},
{
  "type": "node",
  "id": 2482374838,
  "lat": 52.3840773,
  "lon": -2.2403434
},
{
  "type": "node",
  "id": 2482374840,
  "lat": 52.3840844,
  "lon": -2.2403869
},
{
  "type": "node",
  "id": 2482374842,
  "lat": 52.3841204,
  "lon": -2.2401239
},
{
  "type": "node",
  "id": 2482374844,
  "lat": 52.3841268,
  "lon": -2.2401631
},
{
  "type": "node",
  "id": 2482374846,
  "lat": 52.3841511,
  "lon": -2.2403065
},
{
  "type": "node",
  "id": 2482374848,
  "lat": 52.3841589,
  "lon": -2.2403545
},
{
  "type": "node",
  "id": 2482374850,
  "lat": 52.3841816,
  "lon": -2.2400878
},
{
  "type": "node",
  "id": 2482374852,
  "lat": 52.3841894,
  "lon": -2.2401358
},
{
  "type": "node",
  "id": 2482374854,
  "lat": 52.3842088,
  "lon": -2.2402813
},
{
  "type": "node",
  "id": 2482374856,
  "lat": 52.3842165,
  "lon": -2.2403287
},
{
  "type": "node",
  "id": 2482374858,
  "lat": 52.3842526,
  "lon": -2.2400569
},
{
  "type": "node",
  "id": 2482374860,
  "lat": 52.3842604,
  "lon": -2.2401051
},
{
  "type": "node",
  "id": 2482374862,
  "lat": 52.3843195,
  "lon": -2.2402838
},
{
  "type": "node",
  "id": 1722028292,
  "lat": 52.5959445,
  "lon": -2.5573164
},
{
  "type": "node",
  "id": 1722028302,
  "lat": 52.5960277,
  "lon": -2.5575377
},
{
  "type": "node",
  "id": 1722028304,
  "lat": 52.5959987,
  "lon": -2.5572755
},
{
  "type": "node",
  "id": 1722028316,
  "lat": 52.5959857,
  "lon": -2.5573391
},
{
  "type": "node",
  "id": 1722028326,
  "lat": 52.5959791,
  "lon": -2.5574149
},
{
  "type": "node",
  "id": 1722028332,
  "lat": 52.5959615,
  "lon": -2.5575012
},
{
  "type": "node",
  "id": 1722028353,
  "lat": 52.5959299,
  "lon": -2.5573877
},
{
  "type": "node",
  "id": 1722028359,
  "lat": 52.5960728,
  "lon": -2.5573164
},
{
  "type": "node",
  "id": 292304875,
  "lat": 52.7069641,
  "lon": -2.7547465
},
{
  "type": "node",
  "id": 292305098,
  "lat": 52.7069407,
  "lon": -2.7547570
},
{
  "type": "node",
  "id": 1708425941,
  "lat": 52.7070681,
  "lon": -2.7551423
},
{
  "type": "node",
  "id": 2758507146,
  "lat": 52.7072476,
  "lon": -2.7549087
},
{
  "type": "node",
  "id": 4677391567,
  "lat": 52.7070789,
  "lon": -2.7552078
},
{
  "type": "node",
  "id": 4680538872,
  "lat": 52.7072116,
  "lon": -2.7546351
},
{
  "type": "node",
  "id": 4680538873,
  "lat": 52.7070908,
  "lon": -2.7546894
},
{
  "type": "node",
  "id": 4680538874,
  "lat": 52.7067817,
  "lon": -2.7548286
},
{
  "type": "node",
  "id": 4680538877,
  "lat": 52.7068606,
  "lon": -2.7553061
},
{
  "type": "node",
  "id": 4680538878,
  "lat": 52.7070944,
  "lon": -2.7551305
},
{
  "type": "node",
  "id": 4680538879,
  "lat": 52.7070807,
  "lon": -2.7550474
},
{
  "type": "node",
  "id": 4680538880,
  "lat": 52.7072308,
  "lon": -2.7549799
},
{
  "type": "node",
  "id": 4680538881,
  "lat": 52.7072574,
  "lon": -2.7549679
},
{
  "type": "node",
  "id": 4680538882,
  "lat": 52.7072562,
  "lon": -2.7549049
},
{
  "type": "node",
  "id": 4680538884,
  "lat": 52.7072397,
  "lon": -2.7548091
},
{
  "type": "node",
  "id": 720637605,
  "lat": 52.7111572,
  "lon": -2.7501240
},
{
  "type": "node",
  "id": 720637637,
  "lat": 52.7113114,
  "lon": -2.7497942
},
{
  "type": "node",
  "id": 720637644,
  "lat": 52.7113160,
  "lon": -2.7496757
},
{
  "type": "node",
  "id": 720637667,
  "lat": 52.7113562,
  "lon": -2.7496985
},
{
  "type": "node",
  "id": 3248633006,
  "lat": 52.7111156,
  "lon": -2.7499944
},
{
  "type": "node",
  "id": 3248633018,
  "lat": 52.7111527,
  "lon": -2.7500321
},
{
  "type": "node",
  "id": 3248633020,
  "lat": 52.7111573,
  "lon": -2.7501009
},
{
  "type": "node",
  "id": 3248633021,
  "lat": 52.7111589,
  "lon": -2.7498779
},
{
  "type": "node",
  "id": 3248633022,
  "lat": 52.7111625,
  "lon": -2.7501454
},
{
  "type": "node",
  "id": 3248633023,
  "lat": 52.7111628,
  "lon": -2.7500797
},
{
  "type": "node",
  "id": 3248633025,
  "lat": 52.7111723,
  "lon": -2.7501618
},
{
  "type": "node",
  "id": 3248633026,
  "lat": 52.7111727,
  "lon": -2.7500635
},
{
  "type": "node",
  "id": 3248633028,
  "lat": 52.7111794,
  "lon": -2.7500591
},
{
  "type": "node",
  "id": 3248633029,
  "lat": 52.7111851,
  "lon": -2.7501708
},
{
  "type": "node",
  "id": 3248633032,
  "lat": 52.7111991,
  "lon": -2.7501710
},
{
  "type": "node",
  "id": 3248633036,
  "lat": 52.7112114,
  "lon": -2.7500632
},
{
  "type": "node",
  "id": 3248633038,
  "lat": 52.7112121,
  "lon": -2.7501623
},
{
  "type": "node",
  "id": 3248633039,
  "lat": 52.7112220,
  "lon": -2.7501461
},
{
  "type": "node",
  "id": 3248633040,
  "lat": 52.7112223,
  "lon": -2.7500804
},
{
  "type": "node",
  "id": 3248633041,
  "lat": 52.7112275,
  "lon": -2.7501249
},
{
  "type": "node",
  "id": 3248633042,
  "lat": 52.7112276,
  "lon": -2.7501018
},
{
  "type": "node",
  "id": 3248633044,
  "lat": 52.7112410,
  "lon": -2.7496571
},
{
  "type": "node",
  "id": 3248633045,
  "lat": 52.7112501,
  "lon": -2.7496328
},
{
  "type": "node",
  "id": 3248633047,
  "lat": 52.7113029,
  "lon": -2.7496863
},
{
  "type": "node",
  "id": 3248633049,
  "lat": 52.7113207,
  "lon": -2.7497994
},
{
  "type": "node",
  "id": 3248633050,
  "lat": 52.7113309,
  "lon": -2.7496742
},
{
  "type": "node",
  "id": 3248633051,
  "lat": 52.7113356,
  "lon": -2.7497979
},
{
  "type": "node",
  "id": 3248633052,
  "lat": 52.7113450,
  "lon": -2.7496822
},
{
  "type": "node",
  "id": 3248633053,
  "lat": 52.7113490,
  "lon": -2.7497870
},
{
  "type": "node",
  "id": 3248633054,
  "lat": 52.7113589,
  "lon": -2.7497685
},
{
  "type": "node",
  "id": 3248633055,
  "lat": 52.7113628,
  "lon": -2.7497206
},
{
  "type": "node",
  "id": 3248633056,
  "lat": 52.7113637,
  "lon": -2.7497452
},
{
  "type": "node",
  "id": 6022537470,
  "lat": 52.7193425,
  "lon": -2.7442757
},
{
  "type": "node",
  "id": 6022537471,
  "lat": 52.7193636,
  "lon": -2.7442077
},
{
  "type": "node",
  "id": 6022537472,
  "lat": 52.7194269,
  "lon": -2.7442667
},
{
  "type": "node",
  "id": 6022537473,
  "lat": 52.7193976,
  "lon": -2.7443532
},
{
  "type": "node",
  "id": 3898929017,
  "lat": 52.6746557,
  "lon": -2.6444844
},
{
  "type": "node",
  "id": 3898929018,
  "lat": 52.6747602,
  "lon": -2.6444370
},
{
  "type": "node",
  "id": 3898929019,
  "lat": 52.6747028,
  "lon": -2.6440930
},
{
  "type": "node",
  "id": 3898929020,
  "lat": 52.6745982,
  "lon": -2.6441405
},
{
  "type": "node",
  "id": 6107188916,
  "lat": 52.7525136,
  "lon": -2.7205777
},
{
  "type": "node",
  "id": 6107188917,
  "lat": 52.7524503,
  "lon": -2.7202048
},
{
  "type": "node",
  "id": 6107188918,
  "lat": 52.7524900,
  "lon": -2.7201864
},
{
  "type": "node",
  "id": 6107188919,
  "lat": 52.7525533,
  "lon": -2.7205592
},
{
  "type": "node",
  "id": 5793860420,
  "lat": 52.6268399,
  "lon": -2.4856847
},
{
  "type": "node",
  "id": 5793860421,
  "lat": 52.6268498,
  "lon": -2.4857623
},
{
  "type": "node",
  "id": 5793860422,
  "lat": 52.6269421,
  "lon": -2.4857305
},
{
  "type": "node",
  "id": 5793860423,
  "lat": 52.6269322,
  "lon": -2.4856529
},
{
  "type": "node",
  "id": 754019192,
  "lat": 52.6296309,
  "lon": -2.4923412
},
{
  "type": "node",
  "id": 754019197,
  "lat": 52.6293618,
  "lon": -2.4921640
},
{
  "type": "node",
  "id": 754019208,
  "lat": 52.6294865,
  "lon": -2.4920144
},
{
  "type": "node",
  "id": 754019212,
  "lat": 52.6295061,
  "lon": -2.4924908
},
{
  "type": "node",
  "id": 278009243,
  "lat": 52.6397440,
  "lon": -2.4919818
},
{
  "type": "node",
  "id": 740166318,
  "lat": 52.6381073,
  "lon": -2.4926537
},
{
  "type": "node",
  "id": 740166319,
  "lat": 52.6392162,
  "lon": -2.4927111
},
{
  "type": "node",
  "id": 740166321,
  "lat": 52.6386974,
  "lon": -2.4927607
},
{
  "type": "node",
  "id": 740166328,
  "lat": 52.6379674,
  "lon": -2.4917973
},
{
  "type": "node",
  "id": 740166331,
  "lat": 52.6378589,
  "lon": -2.4921705
},
{
  "type": "node",
  "id": 740166332,
  "lat": 52.6385175,
  "lon": -2.4928855
},
{
  "type": "node",
  "id": 740166334,
  "lat": 52.6390298,
  "lon": -2.4927416
},
{
  "type": "node",
  "id": 740166340,
  "lat": 52.6380701,
  "lon": -2.4918424
},
{
  "type": "node",
  "id": 740166343,
  "lat": 52.6379140,
  "lon": -2.4925010
},
{
  "type": "node",
  "id": 740166346,
  "lat": 52.6379370,
  "lon": -2.4921504
},
{
  "type": "node",
  "id": 740166348,
  "lat": 52.6385966,
  "lon": -2.4926138
},
{
  "type": "node",
  "id": 740166350,
  "lat": 52.6387177,
  "lon": -2.4932747
},
{
  "type": "node",
  "id": 740166353,
  "lat": 52.6379212,
  "lon": -2.4917608
},
{
  "type": "node",
  "id": 740166354,
  "lat": 52.6391978,
  "lon": -2.4925593
},
{
  "type": "node",
  "id": 740166361,
  "lat": 52.6386807,
  "lon": -2.4923247
},
{
  "type": "node",
  "id": 740166371,
  "lat": 52.6379498,
  "lon": -2.4923779
},
{
  "type": "node",
  "id": 740166372,
  "lat": 52.6393508,
  "lon": -2.4924519
},
{
  "type": "node",
  "id": 740166375,
  "lat": 52.6387413,
  "lon": -2.4930576
},
{
  "type": "node",
  "id": 740166379,
  "lat": 52.6379549,
  "lon": -2.4916450
},
{
  "type": "node",
  "id": 740166382,
  "lat": 52.6381291,
  "lon": -2.4925787
},
{
  "type": "node",
  "id": 740166383,
  "lat": 52.6386439,
  "lon": -2.4932529
},
{
  "type": "node",
  "id": 740166388,
  "lat": 52.6378268,
  "lon": -2.4922808
},
{
  "type": "node",
  "id": 740166389,
  "lat": 52.6397901,
  "lon": -2.4925850
},
{
  "type": "node",
  "id": 740166394,
  "lat": 52.6379176,
  "lon": -2.4922169
},
{
  "type": "node",
  "id": 740166399,
  "lat": 52.6380952,
  "lon": -2.4917559
},
{
  "type": "node",
  "id": 740166400,
  "lat": 52.6393202,
  "lon": -2.4920698
},
{
  "type": "node",
  "id": 740166402,
  "lat": 52.6385652,
  "lon": -2.4927216
},
{
  "type": "node",
  "id": 740166405,
  "lat": 52.6378782,
  "lon": -2.4921040
},
{
  "type": "node",
  "id": 740166407,
  "lat": 52.6389875,
  "lon": -2.4931303
},
{
  "type": "node",
  "id": 4012876682,
  "lat": 52.6392743,
  "lon": -2.4925430
},
{
  "type": "node",
  "id": 4012876683,
  "lat": 52.6392658,
  "lon": -2.4924706
},
{
  "type": "node",
  "id": 4012940747,
  "lat": 52.6412289,
  "lon": -2.4937713
},
{
  "type": "node",
  "id": 4012940748,
  "lat": 52.6412387,
  "lon": -2.4939590
},
{
  "type": "node",
  "id": 4012940749,
  "lat": 52.6410922,
  "lon": -2.4939671
},
{
  "type": "node",
  "id": 4012940750,
  "lat": 52.6410873,
  "lon": -2.4937874
},
{
  "type": "node",
  "id": 1252615772,
  "lat": 52.6425884,
  "lon": -2.4843408
},
{
  "type": "node",
  "id": 5793895609,
  "lat": 52.6424941,
  "lon": -2.4846541
},
{
  "type": "node",
  "id": 5793895610,
  "lat": 52.6424154,
  "lon": -2.4845898
},
{
  "type": "node",
  "id": 5793895611,
  "lat": 52.6425096,
  "lon": -2.4842764
},
{
  "type": "node",
  "id": 760767742,
  "lat": 52.6189104,
  "lon": -2.4511167
},
{
  "type": "node",
  "id": 760767791,
  "lat": 52.6188825,
  "lon": -2.4511502
},
{
  "type": "node",
  "id": 760767824,
  "lat": 52.6188404,
  "lon": -2.4512009
},
{
  "type": "node",
  "id": 760767892,
  "lat": 52.6188294,
  "lon": -2.4513080
},
{
  "type": "node",
  "id": 2580203115,
  "lat": 52.6188675,
  "lon": -2.4512621
},
{
  "type": "node",
  "id": 760767747,
  "lat": 52.6186955,
  "lon": -2.4510061
},
{
  "type": "node",
  "id": 760767770,
  "lat": 52.6188037,
  "lon": -2.4508759
},
{
  "type": "node",
  "id": 2580203113,
  "lat": 52.6188410,
  "lon": -2.4509601
},
{
  "type": "node",
  "id": 347026354,
  "lat": 52.6428586,
  "lon": -2.3139024
},
{
  "type": "node",
  "id": 712338176,
  "lat": 52.6453663,
  "lon": -2.3160665
},
{
  "type": "node",
  "id": 712338181,
  "lat": 52.6451767,
  "lon": -2.3158015
},
{
  "type": "node",
  "id": 712338184,
  "lat": 52.6455383,
  "lon": -2.3151818
},
{
  "type": "node",
  "id": 712338189,
  "lat": 52.6455254,
  "lon": -2.3155484
},
{
  "type": "node",
  "id": 712338205,
  "lat": 52.6455959,
  "lon": -2.3158921
},
{
  "type": "node",
  "id": 712338212,
  "lat": 52.6452718,
  "lon": -2.3157290
},
{
  "type": "node",
  "id": 712338213,
  "lat": 52.6450961,
  "lon": -2.3155096
},
{
  "type": "node",
  "id": 712338217,
  "lat": 52.6455997,
  "lon": -2.3154728
},
{
  "type": "node",
  "id": 712351999,
  "lat": 52.6460950,
  "lon": -2.3181865
},
{
  "type": "node",
  "id": 712352004,
  "lat": 52.6454951,
  "lon": -2.3184458
},
{
  "type": "node",
  "id": 712352011,
  "lat": 52.6436462,
  "lon": -2.3144143
},
{
  "type": "node",
  "id": 712352012,
  "lat": 52.6461536,
  "lon": -2.3180539
},
{
  "type": "node",
  "id": 712352015,
  "lat": 52.6440897,
  "lon": -2.3152277
},
{
  "type": "node",
  "id": 712352016,
  "lat": 52.6458480,
  "lon": -2.3141637
},
{
  "type": "node",
  "id": 712352018,
  "lat": 52.6457365,
  "lon": -2.3182227
},
{
  "type": "node",
  "id": 712352020,
  "lat": 52.6444671,
  "lon": -2.3192944
},
{
  "type": "node",
  "id": 712352029,
  "lat": 52.6460489,
  "lon": -2.3160333
},
{
  "type": "node",
  "id": 712352031,
  "lat": 52.6440630,
  "lon": -2.3182748
},
{
  "type": "node",
  "id": 6249198970,
  "lat": 52.6454851,
  "lon": -2.3159802
},
{
  "type": "node",
  "id": 6249199999,
  "lat": 52.6455440,
  "lon": -2.3152031
},
{
  "type": "node",
  "id": 6249200023,
  "lat": 52.6432620,
  "lon": -2.3145425
},
{
  "type": "node",
  "id": 6249200024,
  "lat": 52.6434850,
  "lon": -2.3141858
},
{
  "type": "node",
  "id": 6249200025,
  "lat": 52.6439748,
  "lon": -2.3170263
},
{
  "type": "node",
  "id": 6249200026,
  "lat": 52.6437372,
  "lon": -2.3172596
},
{
  "type": "node",
  "id": 712352005,
  "lat": 52.6446661,
  "lon": -2.3122323
},
{
  "type": "node",
  "id": 712352007,
  "lat": 52.6448687,
  "lon": -2.3120610
},
{
  "type": "node",
  "id": 712352009,
  "lat": 52.6450634,
  "lon": -2.3127116
},
{
  "type": "node",
  "id": 712352010,
  "lat": 52.6445515,
  "lon": -2.3118914
},
{
  "type": "node",
  "id": 712352023,
  "lat": 52.6453670,
  "lon": -2.3124221
},
{
  "type": "node",
  "id": 712352026,
  "lat": 52.6435085,
  "lon": -2.3128925
},
{
  "type": "node",
  "id": 712352032,
  "lat": 52.6456106,
  "lon": -2.3122660
}

  ]
}
