{
  "version": 0.6,
  "generator": "Overpass API 0.7.55.9 ab41fea6",
  "osm3s": {
    "timestamp_osm_base": "2020-02-14T15:20:02Z",
    "copyright": "The data included in this document is from www.openstreetmap.org. The data is made available under ODbL."
  },
  "elements": [

{
  "type": "node",
  "id": 311871873,
  "lat": 41.1135223,
  "lon": 16.4858170,
  "tags": {
    "addr:city": "Ruvo di Puglia",
    "addr:housenumber": "35",
    "addr:postcode": "70037",
    "addr:street": "Piazza G. Bovio",
    "email": "pm-pug.museoruvo@beniculturali.it",
    "name": "Museo archeologico nazionale Jatta",
    "opening_hours": "Mo-Fr 08:30-13:30; Sa 14:30-19:30; Su [1,3] 08:30-13:30; Su [2,4] off",
    "phone": "+ 39 080 3612848",
    "tourism": "museum",
    "website": "https://musei.puglia.beniculturali.it/musei/museo-archeologico-nazionale-jatta/",
    "wikidata": "Q3867701",
    "wikipedia": "it:Museo archeologico nazionale Jatta"
  }
},
{
  "type": "node",
  "id": 1824011767,
  "lat": 40.8650041,
  "lon": 16.5812298,
  "tags": {
    "name": "Centro Visita Uomo di Altamura",
    "tourism": "museum"
  }
},
{
  "type": "node",
  "id": 2229592221,
  "lat": 40.6661178,
  "lon": 16.6122514,
  "tags": {
    "addr:city": "Matera",
    "addr:postcode": "75100",
    "addr:street": "Via San Giacomo",
    "name": "Musma",
    "operator": "Fondazione Zetema",
    "phone": "+39 3669357768",
    "tourism": "museum",
    "website": "www.musma.it",
    "wikidata": "Q3841681",
    "wikipedia": "it:MUSMA"
  }
},
{
  "type": "node",
  "id": 2508530819,
  "lat": 40.6009179,
  "lon": 16.5416235,
  "tags": {
    "addr:city": "Miglionico",
    "addr:housenumber": "Km 560 uscita Diga San Giuliano",
    "addr:postcode": "75010",
    "addr:street": "Strada Statale Appia",
    "name": "Centro visite - Museo naturalistico riserva naturale orientata Oasi San Giuliano",
    "name:en": "Visit center - naturalistic museum",
    "opening_hours": "10:00-19:00",
    "phone": "+39 324 9517937",
    "tourism": "museum",
    "website": "https://www.facebook.com/oasisangiuliano?ref=hl",
    "wheelchair": "yes"
  }
},
{
  "type": "node",
  "id": 3103273454,
  "lat": 40.6664729,
  "lon": 16.6121200,
  "tags": {
    "addr:city": "Matera",
    "addr:housenumber": "9",
    "addr:postcode": "75100",
    "addr:street": "Recinto Cavone",
    "email": "fainoha@fondoambiente.it",
    "name": "Casa Noha",
    "opening_hours": "We-Mo 10:00-18:00",
    "operator": "FAI Fondo Ambiente Italiano",
    "phone": "+390835 335452",
    "tourism": "museum",
    "website": "http://www.visitfai.it/dimore/casanoha/",
    "wheelchair": "limited"
  }
},
{
  "type": "node",
  "id": 3103274392,
  "lat": 40.6683446,
  "lon": 16.6109532,
  "tags": {
    "name": "La Casa di Ortega",
    "operator": "Fondazione Zetema",
    "tourism": "museum",
    "website": "http://www.zetema.org/attivita/89-attivita/142-la-casa-di-ortega-la-bottega-delle-arti-applicate"
  }
},
{
  "type": "node",
  "id": 3898480126,
  "lat": 40.9654464,
  "lon": 16.0947411,
  "tags": {
    "addr:city": "Spinazzola",
    "addr:country": "IT",
    "addr:housenumber": "163",
    "addr:postcode": "76014",
    "addr:province": "Barletta-Andria-Trani",
    "addr:street": "Corso Umberto I",
    "name": "Museo \"R. De Cesare\"",
    "tourism": "museum"
  }
},
{
  "type": "node",
  "id": 4191642965,
  "lat": 40.6662210,
  "lon": 16.6125347,
  "tags": {
    "name": "Palazzo Pomarici",
    "tourism": "museum"
  }
},
{
  "type": "node",
  "id": 4191642967,
  "lat": 40.6666208,
  "lon": 16.6115141,
  "tags": {
    "name": "Palazzo dell'Arcivescovado",
    "tourism": "museum"
  }
},
{
  "type": "node",
  "id": 4207927874,
  "lat": 40.6638505,
  "lon": 16.6109120,
  "tags": {
    "tourism": "museum"
  }
},
{
  "type": "node",
  "id": 4900039767,
  "lat": 40.9650154,
  "lon": 16.0948983,
  "tags": {
    "name": "Centro del gusto",
    "tourism": "museum"
  }
},
{
  "type": "node",
  "id": 5171955034,
  "lat": 41.1162481,
  "lon": 16.4848059,
  "tags": {
    "name": "Museo dela casa cultura",
    "tourism": "museum"
  }
},
{
  "type": "node",
  "id": 5200368522,
  "lat": 40.7402679,
  "lon": 16.2466273,
  "tags": {
    "tourism": "museum"
  }
},
{
  "type": "node",
  "id": 6053178460,
  "lat": 41.0231723,
  "lon": 16.4301805,
  "tags": {
    "description": "Contiene documenti, reperti e oggetti d'epoca che testimoniano la complessità della realizzazione dell'Acquedotto Pugliese. Per visitare il piccolo museo contattare il sig. Franco Caprio al 3405738421",
    "name": "Piccolo Museo dell'Acquedotto",
    "operator": "Acquedotto Pugliese",
    "tourism": "museum"
  }
},
{
  "type": "node",
  "id": 6518360313,
  "lat": 40.6630349,
  "lon": 16.6101663,
  "tags": {
    "addr:city": "Matera",
    "addr:housenumber": "1",
    "addr:postcode": "75100",
    "addr:street": "Piazzetta Pascoli",
    "email": "pm-bas.museolanfranchi@beniculturali.it",
    "museum": "art",
    "name": "Museo Nazionale d'arte medievale e moderna della Basilicata",
    "opening_hours": "Mo-Su 09:00-20:00; We 11:00-20:00",
    "operator": "MIBACT",
    "operator:type": "public",
    "phone": "+39 0835 256211",
    "tourism": "museum",
    "website": "https://musei.basilicata.beniculturali.it/musei/?mid=70&nome=museo-nazionale-darte-medievale-e-moderna-della-basilicata-palazzo-lanfranchi"
  }
},
{
  "type": "node",
  "id": 6602521780,
  "lat": 40.6677505,
  "lon": 16.6068417,
  "tags": {
    "name": "Ipogeo MateraSum",
    "tourism": "museum",
    "website": "https://www.wikimatera.it/cosa-vedere-a-matera/matera-sotterranea-gioielli-nelle-viscere-della-terra/materasum-citta-sotterranea/"
  }
},
{
  "type": "node",
  "id": 7178693352,
  "lat": 40.6233028,
  "lon": 16.1444216,
  "tags": {
    "access": "yes",
    "addr:city": "Tricarico",
    "addr:housenumber": "2",
    "addr:postcode": "75019",
    "addr:street": "Via Veneto",
    "email": "pm-bas.museotricarico@beniculturali.it",
    "museum": "archaeological",
    "name": "Palazzo Ducale di Tricarico",
    "opening_hours": "Tu-Sa 09:00-13:00; Su-Mo off",
    "operator": "MIBACT",
    "operator:type": "public",
    "phone": "+39 0835 726268",
    "tourism": "museum",
    "website": "http://musei.beniculturali.it/musei?mid=1352&nome=palazzo-ducale"
  }
},
{
  "type": "way",
  "id": 234566547,
  "nodes": [
    2428090461,
    2428090465,
    2428090467,
    2428090477,
    2428090469,
    2428090459,
    2428090463,
    2428090475,
    2428090473,
    2428090457,
    2428090471,
    2428090461
  ],
  "tags": {
    "name": "Museo Archeologico",
    "tourism": "museum"
  }
},
{
  "type": "way",
  "id": 243609821,
  "nodes": [
    2509959803,
    2509959750,
    2509959713,
    2509959660,
    2509959625,
    2509959677,
    2509959803
  ],
  "tags": {
    "addr:city": "Matera",
    "addr:housenumber": "24",
    "addr:postcode": "75100",
    "addr:street": "Via Ridola",
    "email": "pm-bas.museoridola@beniculturali.it",
    "museum": "archaeological",
    "name": "Museo Archeologico Nazionale Domenico Ridola",
    "opening_hours": "Mo 14:00-20:00; Tu-Su 09:00-20:00",
    "operator": "MIBACT",
    "operator:type": "public",
    "phone": "+39 0835 310058",
    "source": "http://dati.comune.matera.it/dataset/mappa-matera-con-civici-solo-dei-sassi",
    "tourism": "museum",
    "website": "http://musei.beniculturali.it/musei?mid=69&nome=museo-archeologico-nazionale-domenico-ridola",
    "wheelchair": "yes",
    "wheelchair:description": "Accessibile in carrozzina tramite ingresso al civico 24, previo citofono",
    "wikidata": "Q3867699",
    "wikipedia": "it:Museo archeologico nazionale Domenico Ridola"
  }
},
{
  "type": "way",
  "id": 244637689,
  "nodes": [
    2519335596,
    2519335613,
    2519335626,
    2519335606,
    2519335584,
    2519335596
  ],
  "tags": {
    "addr:city": "Matera",
    "addr:housenumber": "60",
    "addr:postcode": "75100",
    "addr:street": "Via San Giovanni Vecchio",
    "building": "yes",
    "building:colour": "#d6bd94",
    "building:material": "stone",
    "description": "Il Museo Laboratorio della Civiltà Contadina è un museo etno-antropologico di Matera, ed è situato nell'antico rione dei Sassi. Il Museo è stato realizzato da Donato Cascione ed è gestito dall'omonima associazione culturale (ONLUS).",
    "email": "info@museolaboratorio.it",
    "name": "Museo Laboratorio della Civiltà Contadina",
    "opening_hours": "09:00-13:00,16:00-19:00",
    "operator": "Associazione Culturale Museo Laboratorio della Civiltà Contadina ONLUS",
    "phone": "+390835344057",
    "roof:colour": "#c9be93",
    "roof:material": "roof_tiles",
    "tourism": "museum",
    "website": "https://museolaboratorio.it",
    "wikidata": "Q3867565",
    "wikipedia": "it:Museo-laboratorio della civiltà contadina"
  }
},
{
  "type": "way",
  "id": 244741856,
  "nodes": [
    2520204561,
    2520204589,
    2520204625,
    2520204623,
    2520204609,
    2520204605,
    2520204585,
    2520204584,
    2520204554,
    2520204549,
    2520204484,
    2520204496,
    2520204533,
    2520204561
  ],
  "tags": {
    "building": "yes",
    "building:colour": "#d6bd94",
    "building:material": "stone",
    "name": "Casa Grotta nei Sassi",
    "roof:colour": "#c9be93",
    "roof:material": "roof_tiles",
    "tourism": "museum",
    "wikipedia": "it:Sassi di Matera"
  }
},
{
  "type": "way",
  "id": 362833998,
  "nodes": [
    3670815598,
    4128659606,
    4128658875,
    3670815601,
    3670815605,
    4128659000,
    3670815606,
    3670815607,
    3670815608,
    4128659642,
    3670815609,
    3670815610,
    3670815611,
    3670815598
  ],
  "tags": {
    "addr:city": "Gravina in Puglia",
    "addr:housenumber": "20",
    "addr:postcode": "70024",
    "addr:street": "Via Museo",
    "building": "yes",
    "building:levels": "3",
    "name": "Museo e Biblioteca Ettore Pomarici Santomasi",
    "source": "http://fondazionesantomasi.it/",
    "tourism": "museum",
    "website": "http://fondazionesantomasi.it/"
  }
},
{
  "type": "relation",
  "id": 3474467,
  "members": [
    {
      "type": "way",
      "ref": 244742352,
      "role": "inner"
    },
    {
      "type": "way",
      "ref": 242358949,
      "role": "outer"
    }
  ],
  "tags": {
    "addr:city": "Matera",
    "addr:housename": "Palazzo Lanfranchi - Museo Nazionale d'Arte Medievale e Moderna della Basilicata",
    "addr:housenumber": "1",
    "addr:postcode": "75100",
    "addr:street": "Piazza Pascoli",
    "building": "yes",
    "building:levels": "3",
    "email": "ufficiostampa.artibasilicata@beniculturali.it",
    "name": "Palazzo Lanfranchi",
    "operator": "SOPRINTENDENZA PER I BENI STORICI, ARTISTICI ED ETNOANTROPOLOGICI DELLA BASILICATA",
    "phone": "+39 0835 256211",
    "tourism": "museum",
    "type": "multipolygon",
    "website": "http://www.artibasilicata.beniculturali.it",
    "wikidata": "Q3890317",
    "wikipedia": "it:Palazzo Lanfranchi (Matera)"
  }
},
{
  "type": "node",
  "id": 2498459674,
  "lat": 40.6625066,
  "lon": 16.6107114
},
{
  "type": "node",
  "id": 2498459675,
  "lat": 40.6625571,
  "lon": 16.6104057
},
{
  "type": "node",
  "id": 2498459677,
  "lat": 40.6626522,
  "lon": 16.6105310
},
{
  "type": "node",
  "id": 2498459678,
  "lat": 40.6626841,
  "lon": 16.6102868
},
{
  "type": "node",
  "id": 2498459679,
  "lat": 40.6627083,
  "lon": 16.6109795
},
{
  "type": "node",
  "id": 2498459680,
  "lat": 40.6627572,
  "lon": 16.6103984
},
{
  "type": "node",
  "id": 2498459686,
  "lat": 40.6630430,
  "lon": 16.6100369
},
{
  "type": "node",
  "id": 2498459687,
  "lat": 40.6630633,
  "lon": 16.6105564
},
{
  "type": "node",
  "id": 2498459688,
  "lat": 40.6630864,
  "lon": 16.6103839
},
{
  "type": "node",
  "id": 2498459689,
  "lat": 40.6631123,
  "lon": 16.6104260
},
{
  "type": "node",
  "id": 2498459690,
  "lat": 40.6632050,
  "lon": 16.6102497
},
{
  "type": "node",
  "id": 2506015756,
  "lat": 40.6625969,
  "lon": 16.6105995
},
{
  "type": "node",
  "id": 2509959625,
  "lat": 40.6637327,
  "lon": 16.6092025
},
{
  "type": "node",
  "id": 2509959660,
  "lat": 40.6637901,
  "lon": 16.6091578
},
{
  "type": "node",
  "id": 2509959677,
  "lat": 40.6638144,
  "lon": 16.6093902
},
{
  "type": "node",
  "id": 2509959713,
  "lat": 40.6638617,
  "lon": 16.6091024
},
{
  "type": "node",
  "id": 2509959750,
  "lat": 40.6639200,
  "lon": 16.6090573
},
{
  "type": "node",
  "id": 2509959803,
  "lat": 40.6640041,
  "lon": 16.6092462
},
{
  "type": "node",
  "id": 2519335584,
  "lat": 40.6675204,
  "lon": 16.6098801
},
{
  "type": "node",
  "id": 2519335596,
  "lat": 40.6675911,
  "lon": 16.6097254
},
{
  "type": "node",
  "id": 2519335606,
  "lat": 40.6676133,
  "lon": 16.6099642
},
{
  "type": "node",
  "id": 2519335613,
  "lat": 40.6676234,
  "lon": 16.6097522
},
{
  "type": "node",
  "id": 2519335626,
  "lat": 40.6676470,
  "lon": 16.6097717
},
{
  "type": "node",
  "id": 2520204484,
  "lat": 40.6637790,
  "lon": 16.6123941
},
{
  "type": "node",
  "id": 2520204496,
  "lat": 40.6637842,
  "lon": 16.6123569
},
{
  "type": "node",
  "id": 2520204533,
  "lat": 40.6638170,
  "lon": 16.6123511
},
{
  "type": "node",
  "id": 2520204549,
  "lat": 40.6638390,
  "lon": 16.6124099
},
{
  "type": "node",
  "id": 2520204554,
  "lat": 40.6638461,
  "lon": 16.6123769
},
{
  "type": "node",
  "id": 2520204561,
  "lat": 40.6638531,
  "lon": 16.6123541
},
{
  "type": "node",
  "id": 2520204584,
  "lat": 40.6638775,
  "lon": 16.6123820
},
{
  "type": "node",
  "id": 2520204585,
  "lat": 40.6638776,
  "lon": 16.6124258
},
{
  "type": "node",
  "id": 2520204589,
  "lat": 40.6638829,
  "lon": 16.6123763
},
{
  "type": "node",
  "id": 2520204605,
  "lat": 40.6638956,
  "lon": 16.6124313
},
{
  "type": "node",
  "id": 2520204609,
  "lat": 40.6638963,
  "lon": 16.6124255
},
{
  "type": "node",
  "id": 2520204623,
  "lat": 40.6639117,
  "lon": 16.6124222
},
{
  "type": "node",
  "id": 2520204625,
  "lat": 40.6639133,
  "lon": 16.6124216
},
{
  "type": "node",
  "id": 2520210254,
  "lat": 40.6628324,
  "lon": 16.6104282
},
{
  "type": "node",
  "id": 2520210349,
  "lat": 40.6628922,
  "lon": 16.6105118
},
{
  "type": "node",
  "id": 2520210389,
  "lat": 40.6629215,
  "lon": 16.6103142
},
{
  "type": "node",
  "id": 2520210507,
  "lat": 40.6629822,
  "lon": 16.6103996
},
{
  "type": "node",
  "id": 3670815598,
  "lat": 40.8186686,
  "lon": 16.4149673
},
{
  "type": "node",
  "id": 3670815601,
  "lat": 40.8184692,
  "lon": 16.4150164
},
{
  "type": "node",
  "id": 3670815605,
  "lat": 40.8185249,
  "lon": 16.4152684
},
{
  "type": "node",
  "id": 3670815606,
  "lat": 40.8185632,
  "lon": 16.4152707
},
{
  "type": "node",
  "id": 3670815607,
  "lat": 40.8186209,
  "lon": 16.4152950
},
{
  "type": "node",
  "id": 3670815608,
  "lat": 40.8186222,
  "lon": 16.4152892
},
{
  "type": "node",
  "id": 3670815609,
  "lat": 40.8186524,
  "lon": 16.4152325
},
{
  "type": "node",
  "id": 3670815610,
  "lat": 40.8186824,
  "lon": 16.4151804
},
{
  "type": "node",
  "id": 3670815611,
  "lat": 40.8186981,
  "lon": 16.4150610
},
{
  "type": "node",
  "id": 4128658875,
  "lat": 40.8184961,
  "lon": 16.4148682
},
{
  "type": "node",
  "id": 4128659000,
  "lat": 40.8185272,
  "lon": 16.4152706
},
{
  "type": "node",
  "id": 4128659606,
  "lat": 40.8186136,
  "lon": 16.4149074
},
{
  "type": "node",
  "id": 4128659642,
  "lat": 40.8186262,
  "lon": 16.4152911
},
{
  "type": "node",
  "id": 2428090457,
  "lat": 40.8275813,
  "lon": 16.5596284
},
{
  "type": "node",
  "id": 2428090459,
  "lat": 40.8271429,
  "lon": 16.5584375
},
{
  "type": "node",
  "id": 2428090461,
  "lat": 40.8272262,
  "lon": 16.5575685
},
{
  "type": "node",
  "id": 2428090463,
  "lat": 40.8271226,
  "lon": 16.5589042
},
{
  "type": "node",
  "id": 2428090465,
  "lat": 40.8271876,
  "lon": 16.5577242
},
{
  "type": "node",
  "id": 2428090467,
  "lat": 40.8271166,
  "lon": 16.5579628
},
{
  "type": "node",
  "id": 2428090469,
  "lat": 40.8272018,
  "lon": 16.5582284
},
{
  "type": "node",
  "id": 2428090471,
  "lat": 40.8279121,
  "lon": 16.5585824
},
{
  "type": "node",
  "id": 2428090473,
  "lat": 40.8272201,
  "lon": 16.5594192
},
{
  "type": "node",
  "id": 2428090475,
  "lat": 40.8272769,
  "lon": 16.5589579
},
{
  "type": "node",
  "id": 2428090477,
  "lat": 40.8270597,
  "lon": 16.5581130
},
{
  "type": "way",
  "id": 242358949,
  "nodes": [
    2498459690,
    2498459686,
    2498459680,
    2498459678,
    2498459675,
    2498459677,
    2506015756,
    2498459674,
    2498459679,
    2498459687,
    2498459689,
    2498459688,
    2498459690
  ]
},
{
  "type": "way",
  "id": 244742352,
  "nodes": [
    2520210254,
    2520210349,
    2520210507,
    2520210389,
    2520210254
  ]
}

  ]
}
