{
  "version": 0.6,
  "generator": "Overpass API 0.7.55.9 ab41fea6",
  "osm3s": {
    "timestamp_osm_base": "2020-02-14T09:18:02Z",
    "copyright": "The data included in this document is from www.openstreetmap.org. The data is made available under ODbL."
  },
  "elements": [

{
  "type": "node",
  "id": 11221599,
  "lat": 53.1926053,
  "lon": -2.8995717,
  "tags": {
    "amenity": "camera_obscura",
    "historic": "tower",
    "name": "Water Tower",
    "tourism": "museum",
    "wikidata": "Q1521978",
    "wikipedia": "en:Water Tower, Chester"
  }
},
{
  "type": "node",
  "id": 26651103,
  "lat": 53.2879390,
  "lon": -2.8920313,
  "tags": {
    "name": "National Waterways Museum Ellesmere Port",
    "note": "former name 'The Boat Museum'",
    "tourism": "museum",
    "website": "https://www.nwm.org.uk/ellesmere/"
  }
},
{
  "type": "node",
  "id": 30655533,
  "lat": 53.4425013,
  "lon": -3.0407374,
  "tags": {
    "tourism": "museum"
  }
},
{
  "type": "node",
  "id": 34848694,
  "lat": 53.4098342,
  "lon": -2.9818017,
  "tags": {
    "name": "World Museum Liverpool",
    "tourism": "museum",
    "website": "http://www.liverpoolmuseums.org.uk/wml/",
    "wheelchair": "yes"
  }
},
{
  "type": "node",
  "id": 107682851,
  "lat": 53.3992203,
  "lon": -2.9919439,
  "tags": {
    "name": "The Beatles Story",
    "name:ko": "비틀즈 스토리",
    "phone": "+44 151 709 1963",
    "tourism": "museum",
    "website": "https://www.beatlesstory.com/"
  }
},
{
  "type": "node",
  "id": 119834293,
  "lat": 53.3548877,
  "lon": -2.9981886,
  "tags": {
    "name": "Port Sunlight Museum",
    "old_name": "Sunlight Vision Museum and visitors centre",
    "operator": "Port Sunlight Village Trust",
    "tourism": "museum"
  }
},
{
  "type": "node",
  "id": 295092454,
  "lat": 53.0656494,
  "lon": -2.5208804,
  "tags": {
    "name": "Nantwich Museum",
    "opening_hours": "Tu-Sa 10:30-16:30",
    "tourism": "museum",
    "website": "nantwichmuseum.org.uk",
    "wikidata": "Q6964392",
    "wikipedia": "en:Nantwich Museum"
  }
},
{
  "type": "node",
  "id": 308388176,
  "lat": 53.0271479,
  "lon": -3.0065449,
  "tags": {
    "name": "Erddig Hall",
    "operator": "National Trust",
    "toilets:wheelchair": "yes",
    "tourism": "museum",
    "website": "https://www.nationaltrust.org.uk/erddig",
    "wheelchair": "yes",
    "wikidata": "Q5385260",
    "wikipedia": "en:Erddig"
  }
},
{
  "type": "node",
  "id": 348172568,
  "lat": 53.3990781,
  "lon": -2.9931396,
  "tags": {
    "name": "BugWorld Experience",
    "tourism": "museum",
    "website": "http://www.bugworldexperience.co.uk/"
  }
},
{
  "type": "node",
  "id": 457920772,
  "lat": 53.2541161,
  "lon": -2.5137490,
  "tags": {
    "addr:city": "Northwich",
    "addr:housenumber": "162",
    "addr:postcode": "CW9 8AB",
    "addr:street": "London Road",
    "name": "Weaver Hall Museum & Workhouse",
    "opening_hours": "Tu-Fr 10:00-17:00,Sa-Su 14:00-17:00",
    "operator": "West Cheshire Museums",
    "tourism": "museum",
    "website": "http://weaverhall.westcheshiremuseums.co.uk/"
  }
},
{
  "type": "node",
  "id": 497700557,
  "lat": 53.0471440,
  "lon": -2.9981283,
  "tags": {
    "name": "County Museum",
    "tourism": "museum"
  }
},
{
  "type": "node",
  "id": 583482002,
  "lat": 53.1872566,
  "lon": -2.8923868,
  "tags": {
    "addr:city": "Chester",
    "addr:housenumber": "27",
    "addr:postcode": "CH1 2DD",
    "addr:street": "Grosvenor Street",
    "fhrs:id": "923727",
    "name": "Grosvenor Museum",
    "tourism": "museum"
  }
},
{
  "type": "node",
  "id": 681275566,
  "lat": 53.4046640,
  "lon": -2.9971249,
  "tags": {
    "name": "The Beatles Story",
    "tourism": "museum"
  }
},
{
  "type": "node",
  "id": 684441691,
  "lat": 53.1669879,
  "lon": -3.1430934,
  "tags": {
    "tourism": "museum"
  }
},
{
  "type": "node",
  "id": 813013213,
  "lat": 53.2880694,
  "lon": -2.8933044,
  "tags": {
    "name": "National Waterways Museum Ellesmere Port",
    "note": "former name 'The Boat Museum'",
    "tourism": "museum",
    "website": "https://www.nwm.org.uk/ellesmere/"
  }
},
{
  "type": "node",
  "id": 883131583,
  "lat": 53.1886975,
  "lon": -2.8905862,
  "tags": {
    "name": "Chester a life story",
    "tourism": "museum"
  }
},
{
  "type": "node",
  "id": 999636326,
  "lat": 53.4022159,
  "lon": -2.9643277,
  "tags": {
    "description": "By appointment only",
    "name": "Garstang Museum",
    "tourism": "museum",
    "website": "http://www.liv.ac.uk/sace/garstang-museum/index.htm"
  }
},
{
  "type": "node",
  "id": 1000473126,
  "lat": 53.4061370,
  "lon": -2.9661563,
  "tags": {
    "name": "Victoria Gallery & Museum",
    "tourism": "museum",
    "website": "http://www.liv.ac.uk/vgm/",
    "wikidata": "Q7926720",
    "wikipedia": "en:Victoria Gallery & Museum"
  }
},
{
  "type": "node",
  "id": 1193723864,
  "lat": 52.9837348,
  "lon": -3.1832645,
  "tags": {
    "addr:city": "Llangollen",
    "addr:postcode": "LL20 8EE",
    "addr:street": "Pentre Felin",
    "alt_name": "Langollen Motor and Motorcycle Museum",
    "name": "Llangollen Motor Museum",
    "tourism": "museum",
    "website": "http://www.llangollenmotormuseum.co.uk",
    "wikidata": "Q6661487"
  }
},
{
  "type": "node",
  "id": 1309027201,
  "lat": 53.4012117,
  "lon": -2.9932201,
  "tags": {
    "name": "International Slavery Museum",
    "note": "Here as of 2011-05-30 on the 3rd floor. Due to be moved over to the former Dock Traffic Office/Granada Studios.",
    "opening_hours": "Mo-Su 10:00-17:00",
    "phone": "+44 1514784499",
    "source": "survey;visit",
    "tourism": "museum",
    "website": "http://www.liverpoolmuseums.org.uk/ism/",
    "wheelchair": "yes",
    "wikidata": "Q6053221",
    "wikipedia": "en:International Slavery Museum"
  }
},
{
  "type": "node",
  "id": 1309027202,
  "lat": 53.4013379,
  "lon": -2.9927496,
  "tags": {
    "name": "Merseyside Maritime Museum",
    "source": "survey;visit",
    "tourism": "museum",
    "wheelchair": "yes",
    "wikidata": "Q12061716",
    "wikipedia": "en:Merseyside Maritime Museum"
  }
},
{
  "type": "node",
  "id": 2093722936,
  "lat": 53.2281366,
  "lon": -2.7453051,
  "tags": {
    "building:architecture": "art_deco",
    "disused:man_made": "water_works",
    "name": "Mouldsworth Motor Museum (Now Closed)",
    "tourism": "museum"
  }
},
{
  "type": "node",
  "id": 2439296551,
  "lat": 53.4094132,
  "lon": -3.0162469,
  "tags": {
    "name": "Spaceport",
    "tourism": "museum"
  }
},
{
  "type": "node",
  "id": 2606269071,
  "lat": 53.3963162,
  "lon": -3.0191490,
  "tags": {
    "name": "Transport Museum",
    "tourism": "museum"
  }
},
{
  "type": "node",
  "id": 4069631719,
  "lat": 53.4302124,
  "lon": -2.9619309,
  "tags": {
    "name": "LFC Museum",
    "tourism": "museum"
  }
},
{
  "type": "node",
  "id": 4156354593,
  "lat": 52.9699206,
  "lon": -2.6833117,
  "tags": {
    "name": "Heritage Centre",
    "tourism": "museum"
  }
},
{
  "type": "node",
  "id": 4696462092,
  "lat": 53.4501298,
  "lon": -2.7347159,
  "tags": {
    "name": "World of Glass",
    "tourism": "museum"
  }
},
{
  "type": "node",
  "id": 4713198209,
  "lat": 53.4147669,
  "lon": -2.7644934,
  "tags": {
    "tourism": "museum"
  }
},
{
  "type": "node",
  "id": 5199837321,
  "lat": 53.4061095,
  "lon": -2.9661804,
  "tags": {
    "name": "Victoria",
    "opening_hours": "Mo-Su 09:00-18:00",
    "tourism": "museum"
  }
},
{
  "type": "node",
  "id": 5382500853,
  "lat": 53.3615076,
  "lon": -2.6026001,
  "tags": {
    "name": "Bicycle Museum",
    "tourism": "museum"
  }
},
{
  "type": "node",
  "id": 5871728885,
  "lat": 53.3997802,
  "lon": -2.9736539,
  "tags": {
    "addr:housenumber": "59",
    "addr:street": "Rodney Street",
    "name": "The Hardmans' House",
    "operator": "The National Trust",
    "tourism": "museum"
  }
},
{
  "type": "node",
  "id": 6557940690,
  "lat": 53.1892330,
  "lon": -2.8921381,
  "tags": {
    "addr:street": "Pierpont Lane",
    "name": "Dewa Roman Experience",
    "opening_hours": "Mo-Su 10:00-17:00",
    "tourism": "museum",
    "website": "https://www.dewaromanexperience.co.uk/"
  }
},
{
  "type": "node",
  "id": 6621463385,
  "lat": 53.4075021,
  "lon": -2.9932392,
  "tags": {
    "addr:housenumber": "1-3",
    "addr:postcode": "L2 8SZ",
    "addr:street": "Rumford Street",
    "name": "Western Approaches",
    "phone": "0151 227 2008",
    "tourism": "museum",
    "website": "http://www.westernapproaches.org.uk/"
  }
},
{
  "type": "way",
  "id": 43105096,
  "nodes": [
    540036145,
    540036139,
    540036146,
    540036143,
    540036145
  ],
  "tags": {
    "name": "Tarporley Fire Brigade Museum",
    "tourism": "museum"
  }
},
{
  "type": "way",
  "id": 84758669,
  "nodes": [
    6113483242,
    6113483248,
    984402797,
    1676134429,
    1676134418,
    984402798,
    6113483273,
    6113483264,
    984402799,
    1676134177,
    1676134263,
    6113483251,
    1676134150,
    984402800,
    1676134291,
    1676134335,
    6113483234,
    6113483237,
    984402801,
    6113483266,
    6113483242
  ],
  "tags": {
    "building": "yes",
    "building:part": "no",
    "name": "Museum of Liverpool",
    "name:ko": "리버풀 박물관",
    "toilets:wheelchair": "yes",
    "tourism": "museum",
    "website": "http://www.liverpoolmuseums.org.uk/mol/",
    "wheelchair": "yes",
    "wikipedia": "en:Museum of Liverpool"
  }
},
{
  "type": "way",
  "id": 86939187,
  "nodes": [
    1011401057,
    1560875062,
    1560875488,
    1560875731,
    1560875651,
    1560875332,
    1560875322,
    1560875577,
    1011401105,
    1560875600,
    1057707281,
    1560875337,
    1560875220,
    1011401123,
    1011401054,
    1560875458,
    1011401068,
    1057707021,
    1057707777,
    1560875523,
    1057707572,
    1560875518,
    1057707308,
    1560875548,
    1560875450,
    1560875614,
    1560875389,
    1011401104,
    1011401118,
    1560875136,
    1560875161,
    1560875583,
    1560875234,
    6611066239,
    1560875869,
    1011401032,
    1011401066,
    1011401099,
    1560875838,
    1057707396,
    1560875628,
    1560875086,
    1057707209,
    1057707098,
    1057707454,
    1057707759,
    1560875209,
    1560875769,
    1011401057
  ],
  "tags": {
    "name": "Crewe Heritage Centre",
    "tourism": "museum",
    "website": "http://creweheritagecentre.org"
  }
},
{
  "type": "way",
  "id": 103636624,
  "nodes": [
    1196649698,
    1196649667,
    1196649733,
    1196649691,
    1196649669,
    1196649687,
    1196649735,
    1196649734,
    1196649700,
    1196649704,
    1196649666,
    1196649736,
    1196649682,
    1196649676,
    1196649742,
    1196649714,
    1196649674,
    1196649717,
    1196649698
  ],
  "tags": {
    "addr:city": "LLangollen",
    "addr:street": "Parade Street",
    "building": "yes",
    "name": "Llangollen Museum",
    "tourism": "museum",
    "website": "http://www.llangollenmuseum.org.uk"
  }
},
{
  "type": "way",
  "id": 105588052,
  "nodes": [
    531541578,
    531541590,
    1215887869,
    531541622,
    1215887870,
    3687371225,
    1215887871,
    531541629,
    1215887872,
    531541578
  ],
  "tags": {
    "addr:postcode": "WA8 0DF",
    "addr:street": "Mersey Road",
    "building": "yes",
    "fhrs:id": "79337",
    "name": "Catalyst Museum",
    "tourism": "museum",
    "website": "www.catalyst.org.uk",
    "wikidata": "Q1050293"
  }
},
{
  "type": "way",
  "id": 117808716,
  "nodes": [
    1326284294,
    5579257489,
    2828947269,
    5578926121,
    2828947271,
    2828947264,
    2828947265,
    5578926123,
    2828947266,
    2828947267,
    2828947268,
    1326284295,
    1326284294
  ],
  "tags": {
    "building": "yes",
    "name": "Cheshire Military Museum",
    "tourism": "museum"
  }
},
{
  "type": "way",
  "id": 120714852,
  "nodes": [
    1352783853,
    1352783850,
    1352783821,
    1352783921,
    1352783853
  ],
  "tags": {
    "addr:city": "Llangollen",
    "addr:postcode": "LL20 8AW",
    "addr:street": "Butlers Hill",
    "building": "yes",
    "name": "Plas Newydd",
    "source": "Bing",
    "tourism": "museum",
    "website": "https://www.denbighshire.gov.uk/en/visitor/places-to-visit/museums-and-historic-houses/plas-newydd.aspx",
    "wikidata": "Q7201722"
  }
},
{
  "type": "way",
  "id": 204875328,
  "nodes": [
    2148527661,
    2148527676,
    2148527711,
    2148527719,
    2148527661
  ],
  "tags": {
    "name": "North West Museum of Road Transport",
    "tourism": "museum"
  }
},
{
  "type": "way",
  "id": 254831407,
  "nodes": [
    2606269759,
    2606269821,
    2606269858,
    2606269854,
    2606269848,
    2606269844,
    2606269835,
    2606269827,
    2606269843,
    2606269812,
    2606269806,
    2606269801,
    2606269759
  ],
  "tags": {
    "building": "yes",
    "name": "Shore Road Pumping Station",
    "tourism": "museum"
  }
},
{
  "type": "way",
  "id": 254831413,
  "nodes": [
    2606269698,
    2606269689,
    2606269676,
    2606269677,
    2606269655,
    2606269652,
    2606269647,
    2606269661,
    2606269674,
    2606269681,
    2606269679,
    2606269687,
    2606269705,
    2606269716,
    2606269732,
    2606269746,
    2606269751,
    2606269747,
    2606269761,
    2606269750,
    2606269722,
    2606269703,
    2606269725,
    2606269713,
    2606269696,
    2606269686,
    2606269707,
    2606269698
  ],
  "tags": {
    "building": "yes",
    "name": "U-Boat Story",
    "tourism": "museum"
  }
},
{
  "type": "way",
  "id": 298904021,
  "nodes": [
    3028704293,
    3028704294,
    3028704295,
    3028704296,
    3028704293
  ],
  "tags": {
    "building": "yes",
    "name": "Rainhill Railway Museum",
    "tourism": "museum"
  }
},
{
  "type": "way",
  "id": 333513434,
  "nodes": [
    3406309341,
    3406309328,
    3406309407,
    3406307867,
    3406309341
  ],
  "tags": {
    "HE_ref": "1279389",
    "building": "tower",
    "denomination": "anglican",
    "historic": "ruins",
    "listed_status": "Grade II*",
    "name": "St. Chad's Church Tower",
    "note": "only the tower remains of this former anglican church",
    "religion": "christian",
    "tourism": "museum",
    "website": "http://www.wybunbury.org.uk/"
  }
},
{
  "type": "way",
  "id": 337982474,
  "nodes": [
    3450513278,
    3450513280,
    3450513279,
    3450513284,
    3450513273,
    3450513282,
    3450513275,
    3450513281,
    3450513276,
    3450513274,
    3450513283,
    3450513278
  ],
  "tags": {
    "name": "Bersham Heritage Centre",
    "tourism": "museum",
    "website": "http://www.wrexham.gov.uk/english/heritage/bersham_heritage.htm"
  }
},
{
  "type": "way",
  "id": 406852936,
  "nodes": [
    4089087284,
    4089087285,
    4089087286,
    4089087287,
    4089087288,
    4089087290,
    4089087258,
    4089087291,
    4089087284
  ],
  "tags": {
    "building": "yes",
    "name": "Stretton Water Mill",
    "tourism": "museum"
  }
},
{
  "type": "way",
  "id": 461929587,
  "nodes": [
    4573631622,
    4573631623,
    4573631624,
    4573631625,
    4573631622
  ],
  "tags": {
    "building": "yes",
    "tourism": "museum"
  }
},
{
  "type": "way",
  "id": 468762079,
  "nodes": [
    4632324348,
    4632324349,
    4632324350,
    4632324351,
    4632324352,
    4632324353,
    4632324354,
    4632324355,
    4632324356,
    4632324357,
    4632324358,
    4632324359,
    4632324360,
    4632324361,
    4632324362,
    4632324348
  ],
  "tags": {
    "addr:city": "Liverpool",
    "addr:postcode": "L18 8BX",
    "addr:street": "Mossley Hill Road",
    "building": "yes",
    "name": "Sudley House",
    "tourism": "museum",
    "website": "http://www.liverpoolmuseums.org.uk/sudley/",
    "wikidata": "Q1290927",
    "wikipedia": "en:Sudley House"
  }
},
{
  "type": "way",
  "id": 525047712,
  "nodes": [
    5108436908,
    5108436909,
    5108436910,
    5108436911,
    5108436912,
    5108436913,
    5108436914,
    5108436915,
    5108436916,
    5108436917,
    5108436919,
    5108436920,
    5108437621,
    5108437622,
    5108436918,
    5108437623,
    5108436908
  ],
  "tags": {
    "addr:city": "Northwich",
    "addr:housenumber": "162",
    "addr:postcode": "CW9 8AB",
    "addr:street": "London Road",
    "building": "yes",
    "name": "Weaver Hall Museum & Workhouse",
    "opening_hours": "Tu-Fr 10:00-17:00,Sa-Su 14:00-17:00",
    "operator": "West Cheshire Museums",
    "tourism": "museum"
  }
},
{
  "type": "way",
  "id": 562300370,
  "nodes": [
    5420878138,
    5420878140,
    5420878141,
    5420878139,
    5420878138
  ],
  "tags": {
    "building": "yes",
    "listed_status": "Grade II",
    "name": "Warrington Museum & Art Gallery",
    "tourism": "museum",
    "wheelchair": "yes",
    "wikidata": "Q7970731"
  }
},
{
  "type": "way",
  "id": 591898736,
  "nodes": [
    5650315250,
    5650315251,
    5650315252,
    5650315253,
    5650315254,
    5650315255,
    1231437440,
    5650315250
  ],
  "tags": {
    "building": "yes",
    "name": "Techniquest Glyndwr",
    "tourism": "museum"
  }
},
{
  "type": "way",
  "id": 663461157,
  "nodes": [
    6210043866,
    6210050411,
    6210050442,
    6210050422,
    6210050425,
    6210050409,
    6210050419,
    6210043866
  ],
  "tags": {
    "addr:postcode": "WA7 1SX",
    "building": "museum",
    "name": "Norton Priory",
    "tourism": "museum"
  }
},
{
  "type": "way",
  "id": 684756584,
  "nodes": [
    6415941261,
    6415941262,
    6415941263,
    6415941264,
    6415941261
  ],
  "tags": {
    "building": "yes",
    "name": "Heritage Centre",
    "tourism": "museum"
  }
},
{
  "type": "relation",
  "id": 2080077,
  "members": [
    {
      "type": "way",
      "ref": 154726282,
      "role": "outer"
    },
    {
      "type": "way",
      "ref": 154726296,
      "role": "inner"
    },
    {
      "type": "way",
      "ref": 154726292,
      "role": "inner"
    }
  ],
  "tags": {
    "building": "public",
    "name": "Williamson Art Gallery & Museum",
    "tourism": "museum",
    "type": "multipolygon"
  }
},
{
  "type": "relation",
  "id": 5991659,
  "members": [
    {
      "type": "way",
      "ref": 290836228,
      "role": "outer"
    },
    {
      "type": "way",
      "ref": 290835409,
      "role": "outer"
    }
  ],
  "tags": {
    "name": "Abbey Farm Museum",
    "tourism": "museum",
    "type": "site"
  }
},
{
  "type": "node",
  "id": 4573631622,
  "lat": 52.9319189,
  "lon": -3.1873177
},
{
  "type": "node",
  "id": 4573631623,
  "lat": 52.9318671,
  "lon": -3.1872518
},
{
  "type": "node",
  "id": 4573631624,
  "lat": 52.9317652,
  "lon": -3.1874722
},
{
  "type": "node",
  "id": 4573631625,
  "lat": 52.9318170,
  "lon": -3.1875381
},
{
  "type": "node",
  "id": 1352783821,
  "lat": 52.9670647,
  "lon": -3.1654554
},
{
  "type": "node",
  "id": 1352783850,
  "lat": 52.9671805,
  "lon": -3.1656617
},
{
  "type": "node",
  "id": 1352783853,
  "lat": 52.9672225,
  "lon": -3.1655968
},
{
  "type": "node",
  "id": 1352783921,
  "lat": 52.9671066,
  "lon": -3.1653905
},
{
  "type": "node",
  "id": 1196649666,
  "lat": 52.9704542,
  "lon": -3.1709700
},
{
  "type": "node",
  "id": 1196649667,
  "lat": 52.9705804,
  "lon": -3.1710351
},
{
  "type": "node",
  "id": 1196649669,
  "lat": 52.9705378,
  "lon": -3.1711203
},
{
  "type": "node",
  "id": 1196649674,
  "lat": 52.9705644,
  "lon": -3.1709427
},
{
  "type": "node",
  "id": 1196649676,
  "lat": 52.9705010,
  "lon": -3.1709081
},
{
  "type": "node",
  "id": 1196649682,
  "lat": 52.9704796,
  "lon": -3.1709224
},
{
  "type": "node",
  "id": 1196649687,
  "lat": 52.9705083,
  "lon": -3.1711267
},
{
  "type": "node",
  "id": 1196649691,
  "lat": 52.9705578,
  "lon": -3.1711009
},
{
  "type": "node",
  "id": 1196649698,
  "lat": 52.9705803,
  "lon": -3.1709967
},
{
  "type": "node",
  "id": 1196649700,
  "lat": 52.9704503,
  "lon": -3.1710455
},
{
  "type": "node",
  "id": 1196649704,
  "lat": 52.9704482,
  "lon": -3.1710072
},
{
  "type": "node",
  "id": 1196649714,
  "lat": 52.9705462,
  "lon": -3.1709190
},
{
  "type": "node",
  "id": 1196649717,
  "lat": 52.9705766,
  "lon": -3.1709754
},
{
  "type": "node",
  "id": 1196649733,
  "lat": 52.9705726,
  "lon": -3.1710713
},
{
  "type": "node",
  "id": 1196649734,
  "lat": 52.9704671,
  "lon": -3.1710941
},
{
  "type": "node",
  "id": 1196649735,
  "lat": 52.9704860,
  "lon": -3.1711164
},
{
  "type": "node",
  "id": 1196649736,
  "lat": 52.9704674,
  "lon": -3.1709385
},
{
  "type": "node",
  "id": 1196649742,
  "lat": 52.9705242,
  "lon": -3.1709069
},
{
  "type": "node",
  "id": 3450513273,
  "lat": 53.0350911,
  "lon": -3.0285307
},
{
  "type": "node",
  "id": 3450513275,
  "lat": 53.0352234,
  "lon": -3.0279030
},
{
  "type": "node",
  "id": 3450513278,
  "lat": 53.0355266,
  "lon": -3.0282249
},
{
  "type": "node",
  "id": 3450513279,
  "lat": 53.0353879,
  "lon": -3.0288794
},
{
  "type": "node",
  "id": 3450513280,
  "lat": 53.0354492,
  "lon": -3.0287721
},
{
  "type": "node",
  "id": 3450513282,
  "lat": 53.0352171,
  "lon": -3.0282002
},
{
  "type": "node",
  "id": 3450513283,
  "lat": 53.0355589,
  "lon": -3.0279567
},
{
  "type": "node",
  "id": 3450513284,
  "lat": 53.0351266,
  "lon": -3.0287506
},
{
  "type": "node",
  "id": 3450513274,
  "lat": 53.0356137,
  "lon": -3.0272003
},
{
  "type": "node",
  "id": 3450513276,
  "lat": 53.0356073,
  "lon": -3.0269321
},
{
  "type": "node",
  "id": 3450513281,
  "lat": 53.0354494,
  "lon": -3.0267787
},
{
  "type": "node",
  "id": 1231437440,
  "lat": 53.0462572,
  "lon": -2.9921136
},
{
  "type": "node",
  "id": 5650315250,
  "lat": 53.0465253,
  "lon": -2.9921694
},
{
  "type": "node",
  "id": 5650315251,
  "lat": 53.0465297,
  "lon": -2.9920090
},
{
  "type": "node",
  "id": 5650315252,
  "lat": 53.0466136,
  "lon": -2.9920144
},
{
  "type": "node",
  "id": 5650315253,
  "lat": 53.0466071,
  "lon": -2.9918481
},
{
  "type": "node",
  "id": 5650315254,
  "lat": 53.0461911,
  "lon": -2.9917676
},
{
  "type": "node",
  "id": 5650315255,
  "lat": 53.0461886,
  "lon": -2.9920987
},
{
  "type": "node",
  "id": 4089087258,
  "lat": 53.0715435,
  "lon": -2.8156406
},
{
  "type": "node",
  "id": 4089087284,
  "lat": 53.0715664,
  "lon": -2.8157393
},
{
  "type": "node",
  "id": 4089087285,
  "lat": 53.0716377,
  "lon": -2.8156633
},
{
  "type": "node",
  "id": 4089087286,
  "lat": 53.0715726,
  "lon": -2.8154941
},
{
  "type": "node",
  "id": 4089087287,
  "lat": 53.0715199,
  "lon": -2.8155503
},
{
  "type": "node",
  "id": 4089087288,
  "lat": 53.0715369,
  "lon": -2.8155946
},
{
  "type": "node",
  "id": 4089087290,
  "lat": 53.0715305,
  "lon": -2.8156067
},
{
  "type": "node",
  "id": 4089087291,
  "lat": 53.0715328,
  "lon": -2.8156520
},
{
  "type": "node",
  "id": 1326284294,
  "lat": 53.1864952,
  "lon": -2.8923268
},
{
  "type": "node",
  "id": 1326284295,
  "lat": 53.1863557,
  "lon": -2.8918064
},
{
  "type": "node",
  "id": 2828947264,
  "lat": 53.1865249,
  "lon": -2.8918617
},
{
  "type": "node",
  "id": 2828947265,
  "lat": 53.1866639,
  "lon": -2.8917580
},
{
  "type": "node",
  "id": 2828947266,
  "lat": 53.1866340,
  "lon": -2.8916376
},
{
  "type": "node",
  "id": 2828947267,
  "lat": 53.1864946,
  "lon": -2.8917314
},
{
  "type": "node",
  "id": 2828947268,
  "lat": 53.1864894,
  "lon": -2.8917136
},
{
  "type": "node",
  "id": 2828947269,
  "lat": 53.1866929,
  "lon": -2.8921792
},
{
  "type": "node",
  "id": 2828947271,
  "lat": 53.1865924,
  "lon": -2.8921132
},
{
  "type": "node",
  "id": 5578926121,
  "lat": 53.1866614,
  "lon": -2.8920617
},
{
  "type": "node",
  "id": 5578926123,
  "lat": 53.1866389,
  "lon": -2.8916527
},
{
  "type": "node",
  "id": 5579257489,
  "lat": 53.1865897,
  "lon": -2.8922562
},
{
  "type": "node",
  "id": 540036139,
  "lat": 53.1576460,
  "lon": -2.6675810
},
{
  "type": "node",
  "id": 540036143,
  "lat": 53.1577721,
  "lon": -2.6674167
},
{
  "type": "node",
  "id": 540036145,
  "lat": 53.1577214,
  "lon": -2.6676308
},
{
  "type": "node",
  "id": 540036146,
  "lat": 53.1576967,
  "lon": -2.6673670
},
{
  "type": "node",
  "id": 3406307867,
  "lat": 53.0453015,
  "lon": -2.4489735
},
{
  "type": "node",
  "id": 3406309328,
  "lat": 53.0452344,
  "lon": -2.4488507
},
{
  "type": "node",
  "id": 3406309341,
  "lat": 53.0452352,
  "lon": -2.4489747
},
{
  "type": "node",
  "id": 3406309407,
  "lat": 53.0453007,
  "lon": -2.4488495
},
{
  "type": "node",
  "id": 1057707098,
  "lat": 53.0945211,
  "lon": -2.4393843
},
{
  "type": "node",
  "id": 1057707209,
  "lat": 53.0945451,
  "lon": -2.4390612
},
{
  "type": "node",
  "id": 1057707396,
  "lat": 53.0942795,
  "lon": -2.4386086
},
{
  "type": "node",
  "id": 1057707454,
  "lat": 53.0943760,
  "lon": -2.4394300
},
{
  "type": "node",
  "id": 1057707759,
  "lat": 53.0942444,
  "lon": -2.4393977
},
{
  "type": "node",
  "id": 1560875086,
  "lat": 53.0943596,
  "lon": -2.4387581
},
{
  "type": "node",
  "id": 1560875209,
  "lat": 53.0940636,
  "lon": -2.4384628
},
{
  "type": "node",
  "id": 1560875628,
  "lat": 53.0942952,
  "lon": -2.4386379
},
{
  "type": "node",
  "id": 1560875838,
  "lat": 53.0942305,
  "lon": -2.4383599
},
{
  "type": "node",
  "id": 1011401054,
  "lat": 53.0923842,
  "lon": -2.4347447
},
{
  "type": "node",
  "id": 1011401057,
  "lat": 53.0937504,
  "lon": -2.4373173
},
{
  "type": "node",
  "id": 1011401066,
  "lat": 53.0939508,
  "lon": -2.4368632
},
{
  "type": "node",
  "id": 1011401068,
  "lat": 53.0937203,
  "lon": -2.4354046
},
{
  "type": "node",
  "id": 1011401105,
  "lat": 53.0932204,
  "lon": -2.4359336
},
{
  "type": "node",
  "id": 1011401123,
  "lat": 53.0923705,
  "lon": -2.4348738
},
{
  "type": "node",
  "id": 1057707281,
  "lat": 53.0929426,
  "lon": -2.4354724
},
{
  "type": "node",
  "id": 1560875062,
  "lat": 53.0936273,
  "lon": -2.4370071
},
{
  "type": "node",
  "id": 1560875220,
  "lat": 53.0927498,
  "lon": -2.4352334
},
{
  "type": "node",
  "id": 1560875322,
  "lat": 53.0934818,
  "lon": -2.4365257
},
{
  "type": "node",
  "id": 1560875332,
  "lat": 53.0935650,
  "lon": -2.4367087
},
{
  "type": "node",
  "id": 1560875337,
  "lat": 53.0928467,
  "lon": -2.4353426
},
{
  "type": "node",
  "id": 1560875458,
  "lat": 53.0935540,
  "lon": -2.4353249
},
{
  "type": "node",
  "id": 1560875488,
  "lat": 53.0936040,
  "lon": -2.4369416
},
{
  "type": "node",
  "id": 1560875577,
  "lat": 53.0933562,
  "lon": -2.4362050
},
{
  "type": "node",
  "id": 1560875600,
  "lat": 53.0930512,
  "lon": -2.4356443
},
{
  "type": "node",
  "id": 1560875651,
  "lat": 53.0936483,
  "lon": -2.4368317
},
{
  "type": "node",
  "id": 1560875731,
  "lat": 53.0936677,
  "lon": -2.4368863
},
{
  "type": "node",
  "id": 1560875769,
  "lat": 53.0939081,
  "lon": -2.4378463
},
{
  "type": "node",
  "id": 1011401032,
  "lat": 53.0942943,
  "lon": -2.4360096
},
{
  "type": "node",
  "id": 1011401099,
  "lat": 53.0940655,
  "lon": -2.4375213
},
{
  "type": "node",
  "id": 1011401104,
  "lat": 53.0953952,
  "lon": -2.4365756
},
{
  "type": "node",
  "id": 1011401118,
  "lat": 53.0952909,
  "lon": -2.4364798
},
{
  "type": "node",
  "id": 1057707021,
  "lat": 53.0940309,
  "lon": -2.4355608
},
{
  "type": "node",
  "id": 1057707308,
  "lat": 53.0959005,
  "lon": -2.4366410
},
{
  "type": "node",
  "id": 1057707572,
  "lat": 53.0945937,
  "lon": -2.4358872
},
{
  "type": "node",
  "id": 1057707777,
  "lat": 53.0942956,
  "lon": -2.4357083
},
{
  "type": "node",
  "id": 1560875136,
  "lat": 53.0950259,
  "lon": -2.4362894
},
{
  "type": "node",
  "id": 1560875161,
  "lat": 53.0948369,
  "lon": -2.4361546
},
{
  "type": "node",
  "id": 1560875234,
  "lat": 53.0946716,
  "lon": -2.4360775
},
{
  "type": "node",
  "id": 1560875389,
  "lat": 53.0955062,
  "lon": -2.4365805
},
{
  "type": "node",
  "id": 1560875450,
  "lat": 53.0955999,
  "lon": -2.4366170
},
{
  "type": "node",
  "id": 1560875518,
  "lat": 53.0957472,
  "lon": -2.4365469
},
{
  "type": "node",
  "id": 1560875523,
  "lat": 53.0944397,
  "lon": -2.4357865
},
{
  "type": "node",
  "id": 1560875548,
  "lat": 53.0958748,
  "lon": -2.4367561
},
{
  "type": "node",
  "id": 1560875583,
  "lat": 53.0947328,
  "lon": -2.4360909
},
{
  "type": "node",
  "id": 1560875614,
  "lat": 53.0955456,
  "lon": -2.4365878
},
{
  "type": "node",
  "id": 1560875869,
  "lat": 53.0943642,
  "lon": -2.4359581
},
{
  "type": "node",
  "id": 6611066239,
  "lat": 53.0945298,
  "lon": -2.4360332
},
{
  "type": "node",
  "id": 5108436908,
  "lat": 53.2538890,
  "lon": -2.5137188
},
{
  "type": "node",
  "id": 5108436909,
  "lat": 53.2539134,
  "lon": -2.5139666
},
{
  "type": "node",
  "id": 5108436910,
  "lat": 53.2539917,
  "lon": -2.5139471
},
{
  "type": "node",
  "id": 5108436911,
  "lat": 53.2539822,
  "lon": -2.5138391
},
{
  "type": "node",
  "id": 5108436912,
  "lat": 53.2540220,
  "lon": -2.5138308
},
{
  "type": "node",
  "id": 5108436913,
  "lat": 53.2540254,
  "lon": -2.5138622
},
{
  "type": "node",
  "id": 5108436914,
  "lat": 53.2540691,
  "lon": -2.5138525
},
{
  "type": "node",
  "id": 5108436915,
  "lat": 53.2540649,
  "lon": -2.5138138
},
{
  "type": "node",
  "id": 5108436916,
  "lat": 53.2541764,
  "lon": -2.5137907
},
{
  "type": "node",
  "id": 5108436917,
  "lat": 53.2541976,
  "lon": -2.5140053
},
{
  "type": "node",
  "id": 5108436918,
  "lat": 53.2543894,
  "lon": -2.5137295
},
{
  "type": "node",
  "id": 5108436919,
  "lat": 53.2542550,
  "lon": -2.5139910
},
{
  "type": "node",
  "id": 5108436920,
  "lat": 53.2542396,
  "lon": -2.5138275
},
{
  "type": "node",
  "id": 5108437621,
  "lat": 53.2542790,
  "lon": -2.5138192
},
{
  "type": "node",
  "id": 5108437622,
  "lat": 53.2542728,
  "lon": -2.5137558
},
{
  "type": "node",
  "id": 5108437623,
  "lat": 53.2543795,
  "lon": -2.5136109
},
{
  "type": "node",
  "id": 2943495646,
  "lat": 53.2869188,
  "lon": -3.2086100
},
{
  "type": "node",
  "id": 2943495656,
  "lat": 53.2869379,
  "lon": -3.2088365
},
{
  "type": "node",
  "id": 2943495708,
  "lat": 53.2869960,
  "lon": -3.2085917
},
{
  "type": "node",
  "id": 2943495725,
  "lat": 53.2870152,
  "lon": -3.2088183
},
{
  "type": "node",
  "id": 2943495740,
  "lat": 53.2870303,
  "lon": -3.2088173
},
{
  "type": "node",
  "id": 2943495751,
  "lat": 53.2870384,
  "lon": -3.2088846
},
{
  "type": "node",
  "id": 2943495869,
  "lat": 53.2871520,
  "lon": -3.2087761
},
{
  "type": "node",
  "id": 2943495879,
  "lat": 53.2871602,
  "lon": -3.2088435
},
{
  "type": "node",
  "id": 1672194185,
  "lat": 53.3845666,
  "lon": -3.0401118
},
{
  "type": "node",
  "id": 1672194195,
  "lat": 53.3846910,
  "lon": -3.0395745
},
{
  "type": "node",
  "id": 1672194200,
  "lat": 53.3847509,
  "lon": -3.0400677
},
{
  "type": "node",
  "id": 1672194207,
  "lat": 53.3848251,
  "lon": -3.0403351
},
{
  "type": "node",
  "id": 1672194209,
  "lat": 53.3848077,
  "lon": -3.0398029
},
{
  "type": "node",
  "id": 1672194210,
  "lat": 53.3848361,
  "lon": -3.0402873
},
{
  "type": "node",
  "id": 1672194232,
  "lat": 53.3848925,
  "lon": -3.0401531
},
{
  "type": "node",
  "id": 1672194239,
  "lat": 53.3849034,
  "lon": -3.0398606
},
{
  "type": "node",
  "id": 1672194245,
  "lat": 53.3848955,
  "lon": -3.0398977
},
{
  "type": "node",
  "id": 1672194250,
  "lat": 53.3849219,
  "lon": -3.0399137
},
{
  "type": "node",
  "id": 1672194254,
  "lat": 53.3849414,
  "lon": -3.0399254
},
{
  "type": "node",
  "id": 1672194259,
  "lat": 53.3849595,
  "lon": -3.0404226
},
{
  "type": "node",
  "id": 1672194264,
  "lat": 53.3849558,
  "lon": -3.0397679
},
{
  "type": "node",
  "id": 1672194267,
  "lat": 53.3849601,
  "lon": -3.0397491
},
{
  "type": "node",
  "id": 1672194272,
  "lat": 53.3849707,
  "lon": -3.0403745
},
{
  "type": "node",
  "id": 1672194297,
  "lat": 53.3850119,
  "lon": -3.0401945
},
{
  "type": "node",
  "id": 1672194298,
  "lat": 53.3850618,
  "lon": -3.0399801
},
{
  "type": "node",
  "id": 1672194300,
  "lat": 53.3850576,
  "lon": -3.0402244
},
{
  "type": "node",
  "id": 1672194301,
  "lat": 53.3850682,
  "lon": -3.0399843
},
{
  "type": "node",
  "id": 1672194304,
  "lat": 53.3850730,
  "lon": -3.0399635
},
{
  "type": "node",
  "id": 1672194307,
  "lat": 53.3850989,
  "lon": -3.0404580
},
{
  "type": "node",
  "id": 1672194313,
  "lat": 53.3851124,
  "lon": -3.0399892
},
{
  "type": "node",
  "id": 1672194322,
  "lat": 53.3851747,
  "lon": -3.0401309
},
{
  "type": "node",
  "id": 1672194325,
  "lat": 53.3852140,
  "lon": -3.0399822
},
{
  "type": "node",
  "id": 1672194342,
  "lat": 53.3851967,
  "lon": -3.0400359
},
{
  "type": "node",
  "id": 1672194345,
  "lat": 53.3852009,
  "lon": -3.0400387
},
{
  "type": "node",
  "id": 1672194349,
  "lat": 53.3852242,
  "lon": -3.0399384
},
{
  "type": "node",
  "id": 2419205326,
  "lat": 53.3846292,
  "lon": -3.0398414
},
{
  "type": "node",
  "id": 2419205459,
  "lat": 53.3847629,
  "lon": -3.0396423
},
{
  "type": "node",
  "id": 2419205465,
  "lat": 53.3847672,
  "lon": -3.0396240
},
{
  "type": "node",
  "id": 2419205490,
  "lat": 53.3848294,
  "lon": -3.0396856
},
{
  "type": "node",
  "id": 2419205630,
  "lat": 53.3851003,
  "lon": -3.0398577
},
{
  "type": "node",
  "id": 2419205632,
  "lat": 53.3851038,
  "lon": -3.0398426
},
{
  "type": "node",
  "id": 4315088573,
  "lat": 53.3848986,
  "lon": -3.0403829
},
{
  "type": "node",
  "id": 2606269647,
  "lat": 53.3949664,
  "lon": -3.0095848
},
{
  "type": "node",
  "id": 2606269652,
  "lat": 53.3949992,
  "lon": -3.0095773
},
{
  "type": "node",
  "id": 2606269655,
  "lat": 53.3950089,
  "lon": -3.0095255
},
{
  "type": "node",
  "id": 2606269661,
  "lat": 53.3950204,
  "lon": -3.0094156
},
{
  "type": "node",
  "id": 2606269674,
  "lat": 53.3950584,
  "lon": -3.0094091
},
{
  "type": "node",
  "id": 2606269676,
  "lat": 53.3950609,
  "lon": -3.0096549
},
{
  "type": "node",
  "id": 2606269677,
  "lat": 53.3950622,
  "lon": -3.0095137
},
{
  "type": "node",
  "id": 2606269679,
  "lat": 53.3950693,
  "lon": -3.0093186
},
{
  "type": "node",
  "id": 2606269681,
  "lat": 53.3950744,
  "lon": -3.0093455
},
{
  "type": "node",
  "id": 2606269686,
  "lat": 53.3950879,
  "lon": -3.0096193
},
{
  "type": "node",
  "id": 2606269687,
  "lat": 53.3950905,
  "lon": -3.0092248
},
{
  "type": "node",
  "id": 2606269689,
  "lat": 53.3950976,
  "lon": -3.0097045
},
{
  "type": "node",
  "id": 2606269696,
  "lat": 53.3951246,
  "lon": -3.0094867
},
{
  "type": "node",
  "id": 2606269698,
  "lat": 53.3951310,
  "lon": -3.0097228
},
{
  "type": "node",
  "id": 2606269703,
  "lat": 53.3951400,
  "lon": -3.0094102
},
{
  "type": "node",
  "id": 2606269705,
  "lat": 53.3951406,
  "lon": -3.0092711
},
{
  "type": "node",
  "id": 2606269707,
  "lat": 53.3951496,
  "lon": -3.0096614
},
{
  "type": "node",
  "id": 2606269713,
  "lat": 53.3951766,
  "lon": -3.0095234
},
{
  "type": "node",
  "id": 2606269716,
  "lat": 53.3951831,
  "lon": -3.0091310
},
{
  "type": "node",
  "id": 2606269722,
  "lat": 53.3951927,
  "lon": -3.0091946
},
{
  "type": "node",
  "id": 2606269725,
  "lat": 53.3951933,
  "lon": -3.0094479
},
{
  "type": "node",
  "id": 2606269732,
  "lat": 53.3952126,
  "lon": -3.0090846
},
{
  "type": "node",
  "id": 2606269746,
  "lat": 53.3952533,
  "lon": -3.0090720
},
{
  "type": "node",
  "id": 2606269747,
  "lat": 53.3952538,
  "lon": -3.0091202
},
{
  "type": "node",
  "id": 2606269750,
  "lat": 53.3952583,
  "lon": -3.0092356
},
{
  "type": "node",
  "id": 2606269751,
  "lat": 53.3952595,
  "lon": -3.0090908
},
{
  "type": "node",
  "id": 2606269759,
  "lat": 53.3952786,
  "lon": -3.0128779
},
{
  "type": "node",
  "id": 2606269761,
  "lat": 53.3952846,
  "lon": -3.0091450
},
{
  "type": "node",
  "id": 2606269801,
  "lat": 53.3953658,
  "lon": -3.0129435
},
{
  "type": "node",
  "id": 2606269806,
  "lat": 53.3953795,
  "lon": -3.0129023
},
{
  "type": "node",
  "id": 2606269812,
  "lat": 53.3953995,
  "lon": -3.0129145
},
{
  "type": "node",
  "id": 2606269821,
  "lat": 53.3954277,
  "lon": -3.0123870
},
{
  "type": "node",
  "id": 2606269827,
  "lat": 53.3954567,
  "lon": -3.0126218
},
{
  "type": "node",
  "id": 2606269835,
  "lat": 53.3954876,
  "lon": -3.0125227
},
{
  "type": "node",
  "id": 2606269843,
  "lat": 53.3955113,
  "lon": -3.0127194
},
{
  "type": "node",
  "id": 2606269844,
  "lat": 53.3955131,
  "lon": -3.0125380
},
{
  "type": "node",
  "id": 2606269848,
  "lat": 53.3955195,
  "lon": -3.0125044
},
{
  "type": "node",
  "id": 2606269854,
  "lat": 53.3955358,
  "lon": -3.0125151
},
{
  "type": "node",
  "id": 2606269858,
  "lat": 53.3955440,
  "lon": -3.0124709
},
{
  "type": "node",
  "id": 984402797,
  "lat": 53.4034483,
  "lon": -2.9958335
},
{
  "type": "node",
  "id": 984402798,
  "lat": 53.4030506,
  "lon": -2.9953598
},
{
  "type": "node",
  "id": 984402799,
  "lat": 53.4025130,
  "lon": -2.9950047
},
{
  "type": "node",
  "id": 984402800,
  "lat": 53.4023551,
  "lon": -2.9957724
},
{
  "type": "node",
  "id": 984402801,
  "lat": 53.4033714,
  "lon": -2.9961722
},
{
  "type": "node",
  "id": 1676134150,
  "lat": 53.4024519,
  "lon": -2.9953812
},
{
  "type": "node",
  "id": 1676134177,
  "lat": 53.4024927,
  "lon": -2.9950999
},
{
  "type": "node",
  "id": 1676134263,
  "lat": 53.4025520,
  "lon": -2.9951814
},
{
  "type": "node",
  "id": 1676134291,
  "lat": 53.4027281,
  "lon": -2.9957931
},
{
  "type": "node",
  "id": 1676134335,
  "lat": 53.4028675,
  "lon": -2.9958549
},
{
  "type": "node",
  "id": 1676134418,
  "lat": 53.4031915,
  "lon": -2.9954250
},
{
  "type": "node",
  "id": 1676134429,
  "lat": 53.4035369,
  "lon": -2.9954423
},
{
  "type": "node",
  "id": 6113483234,
  "lat": 53.4031118,
  "lon": -2.9960102
},
{
  "type": "node",
  "id": 6113483237,
  "lat": 53.4032025,
  "lon": -2.9960693
},
{
  "type": "node",
  "id": 6113483242,
  "lat": 53.4033633,
  "lon": -2.9959902
},
{
  "type": "node",
  "id": 6113483248,
  "lat": 53.4033897,
  "lon": -2.9958297
},
{
  "type": "node",
  "id": 6113483251,
  "lat": 53.4025318,
  "lon": -2.9953853
},
{
  "type": "node",
  "id": 6113483264,
  "lat": 53.4027088,
  "lon": -2.9951336
},
{
  "type": "node",
  "id": 6113483266,
  "lat": 53.4034051,
  "lon": -2.9960379
},
{
  "type": "node",
  "id": 6113483273,
  "lat": 53.4028348,
  "lon": -2.9952095
},
{
  "type": "node",
  "id": 4632324348,
  "lat": 53.3736520,
  "lon": -2.9218241
},
{
  "type": "node",
  "id": 4632324349,
  "lat": 53.3735391,
  "lon": -2.9217932
},
{
  "type": "node",
  "id": 4632324350,
  "lat": 53.3735573,
  "lon": -2.9216067
},
{
  "type": "node",
  "id": 4632324351,
  "lat": 53.3735119,
  "lon": -2.9215942
},
{
  "type": "node",
  "id": 4632324352,
  "lat": 53.3734926,
  "lon": -2.9216184
},
{
  "type": "node",
  "id": 4632324353,
  "lat": 53.3734638,
  "lon": -2.9216345
},
{
  "type": "node",
  "id": 4632324354,
  "lat": 53.3734430,
  "lon": -2.9216184
},
{
  "type": "node",
  "id": 4632324355,
  "lat": 53.3734334,
  "lon": -2.9215942
},
{
  "type": "node",
  "id": 4632324356,
  "lat": 53.3734398,
  "lon": -2.9215433
},
{
  "type": "node",
  "id": 4632324357,
  "lat": 53.3734590,
  "lon": -2.9215164
},
{
  "type": "node",
  "id": 4632324358,
  "lat": 53.3734862,
  "lon": -2.9215352
},
{
  "type": "node",
  "id": 4632324359,
  "lat": 53.3734982,
  "lon": -2.9214131
},
{
  "type": "node",
  "id": 4632324360,
  "lat": 53.3734822,
  "lon": -2.9214087
},
{
  "type": "node",
  "id": 4632324361,
  "lat": 53.3735104,
  "lon": -2.9211198
},
{
  "type": "node",
  "id": 4632324362,
  "lat": 53.3737152,
  "lon": -2.9211760
},
{
  "type": "node",
  "id": 531541578,
  "lat": 53.3516002,
  "lon": -2.7337500
},
{
  "type": "node",
  "id": 531541590,
  "lat": 53.3515393,
  "lon": -2.7334496
},
{
  "type": "node",
  "id": 531541622,
  "lat": 53.3519716,
  "lon": -2.7334281
},
{
  "type": "node",
  "id": 531541629,
  "lat": 53.3518755,
  "lon": -2.7337285
},
{
  "type": "node",
  "id": 1215887869,
  "lat": 53.3517283,
  "lon": -2.7333638
},
{
  "type": "node",
  "id": 1215887870,
  "lat": 53.3521253,
  "lon": -2.7335676
},
{
  "type": "node",
  "id": 1215887871,
  "lat": 53.3520485,
  "lon": -2.7338573
},
{
  "type": "node",
  "id": 1215887872,
  "lat": 53.3517475,
  "lon": -2.7337178
},
{
  "type": "node",
  "id": 3687371225,
  "lat": 53.3520579,
  "lon": -2.7338217
},
{
  "type": "node",
  "id": 3028704293,
  "lat": 53.4148984,
  "lon": -2.7644210
},
{
  "type": "node",
  "id": 3028704294,
  "lat": 53.4148941,
  "lon": -2.7643846
},
{
  "type": "node",
  "id": 3028704295,
  "lat": 53.4147358,
  "lon": -2.7644647
},
{
  "type": "node",
  "id": 3028704296,
  "lat": 53.4147401,
  "lon": -2.7644974
},
{
  "type": "node",
  "id": 2148527661,
  "lat": 53.4541322,
  "lon": -2.7326346
},
{
  "type": "node",
  "id": 2148527676,
  "lat": 53.4544101,
  "lon": -2.7324952
},
{
  "type": "node",
  "id": 2148527711,
  "lat": 53.4540651,
  "lon": -2.7307786
},
{
  "type": "node",
  "id": 2148527719,
  "lat": 53.4538415,
  "lon": -2.7311165
},
{
  "type": "node",
  "id": 6210043866,
  "lat": 53.3423849,
  "lon": -2.6805139
},
{
  "type": "node",
  "id": 6210050411,
  "lat": 53.3421738,
  "lon": -2.6804280
},
{
  "type": "node",
  "id": 6210050442,
  "lat": 53.3421354,
  "lon": -2.6805605
},
{
  "type": "node",
  "id": 6210050409,
  "lat": 53.3422123,
  "lon": -2.6800670
},
{
  "type": "node",
  "id": 6210050419,
  "lat": 53.3424554,
  "lon": -2.6801276
},
{
  "type": "node",
  "id": 6210050422,
  "lat": 53.3420713,
  "lon": -2.6802778
},
{
  "type": "node",
  "id": 6210050425,
  "lat": 53.3421738,
  "lon": -2.6802778
},
{
  "type": "node",
  "id": 5420878138,
  "lat": 53.3871932,
  "lon": -2.5960480
},
{
  "type": "node",
  "id": 5420878139,
  "lat": 53.3869533,
  "lon": -2.5960002
},
{
  "type": "node",
  "id": 5420878140,
  "lat": 53.3872124,
  "lon": -2.5957760
},
{
  "type": "node",
  "id": 5420878141,
  "lat": 53.3869728,
  "lon": -2.5957275
},
{
  "type": "node",
  "id": 6415941261,
  "lat": 53.3812451,
  "lon": -2.4794828
},
{
  "type": "node",
  "id": 6415941262,
  "lat": 53.3811324,
  "lon": -2.4794910
},
{
  "type": "node",
  "id": 6415941263,
  "lat": 53.3811293,
  "lon": -2.4793719
},
{
  "type": "node",
  "id": 6415941264,
  "lat": 53.3812420,
  "lon": -2.4793636
},
{
  "type": "way",
  "id": 290835409,
  "nodes": [
    2943495751,
    2943495879,
    2943495869,
    2943495740,
    2943495751
  ]
},
{
  "type": "way",
  "id": 290836228,
  "nodes": [
    2943495725,
    2943495708,
    2943495646,
    2943495656,
    2943495725
  ]
},
{
  "type": "way",
  "id": 154726282,
  "nodes": [
    1672194185,
    2419205326,
    1672194195,
    2419205465,
    2419205459,
    2419205490,
    1672194264,
    1672194267,
    2419205632,
    2419205630,
    1672194349,
    1672194325,
    1672194345,
    1672194342,
    1672194322,
    1672194307,
    1672194272,
    1672194259,
    4315088573,
    1672194207,
    1672194210,
    1672194185
  ]
},
{
  "type": "way",
  "id": 154726292,
  "nodes": [
    1672194297,
    1672194298,
    1672194301,
    1672194304,
    1672194313,
    1672194300,
    1672194297
  ]
},
{
  "type": "way",
  "id": 154726296,
  "nodes": [
    1672194200,
    1672194209,
    1672194239,
    1672194245,
    1672194250,
    1672194254,
    1672194232,
    1672194200
  ]
}

  ]
}
