{
  "version": 0.6,
  "generator": "Overpass API 0.7.55.9 ab41fea6",
  "osm3s": {
    "timestamp_osm_base": "2020-02-14T10:38:02Z",
    "copyright": "The data included in this document is from www.openstreetmap.org. The data is made available under ODbL."
  },
  "elements": [

{
  "type": "node",
  "id": 27147696,
  "lat": 52.0213587,
  "lon": 8.9162915,
  "tags": {
    "name": "Weserrenaissance-Museum",
    "tourism": "museum",
    "wheelchair": "limited",
    "wikidata": "Q2563882"
  }
},
{
  "type": "node",
  "id": 60602955,
  "lat": 52.3135974,
  "lon": 9.3566514,
  "tags": {
    "name": "Heimatmuseum Rodenberg",
    "tourism": "museum"
  }
},
{
  "type": "node",
  "id": 269119656,
  "lat": 52.1662544,
  "lon": 9.1047815,
  "tags": {
    "name": "Industriemuseeum Unterer Eisenhammer",
    "tourism": "museum",
    "website": "http://www.heimatverein-exten.de/index.php/museumsstandorte/industriemuseum-unterer-eisenhammer",
    "wheelchair": "no"
  }
},
{
  "type": "node",
  "id": 309845832,
  "lat": 52.0104946,
  "lon": 8.7062099,
  "tags": {
    "name": "Heimathof",
    "tourism": "museum"
  }
},
{
  "type": "node",
  "id": 431679753,
  "lat": 52.4375004,
  "lon": 9.2147705,
  "tags": {
    "FIXME": "bitte tracken und mit Namen versehen.",
    "name": "Historische Badeanlagen",
    "tourism": "museum"
  }
},
{
  "type": "node",
  "id": 455117967,
  "lat": 52.1368305,
  "lon": 8.5578263,
  "tags": {
    "addr:city": "Enger",
    "addr:country": "DE",
    "addr:housenumber": "4",
    "addr:postcode": "32130",
    "addr:street": "Hasenpatt",
    "name": "Gerberei Museum Enger",
    "tourism": "museum",
    "wikidata": "Q76634584"
  }
},
{
  "type": "node",
  "id": 457361970,
  "lat": 52.5686981,
  "lon": 9.0224929,
  "tags": {
    "name": "Meyersieksche Wasser-Mühle",
    "tourism": "museum"
  }
},
{
  "type": "node",
  "id": 484261821,
  "lat": 52.1706738,
  "lon": 8.7646718,
  "tags": {
    "name": "Freilichtmuseum",
    "tourism": "museum",
    "wheelchair": "yes"
  }
},
{
  "type": "node",
  "id": 499040266,
  "lat": 52.1206917,
  "lon": 9.0058031,
  "tags": {
    "contact:fax": "+49 5264 644100",
    "contact:phone": "+49 5264 6440",
    "contact:website": "http://www.museumsverein-kalletal.de/index_2.htm",
    "name": "Wald- und Forstmuseum",
    "opening_hours": "Sa 13:00-18:00; Su,PH 10:00-18:00; Nov 02-easter -2 days off",
    "tourism": "museum",
    "wikidata": "Q2541027"
  }
},
{
  "type": "node",
  "id": 690116811,
  "lat": 52.2703250,
  "lon": 9.1279504,
  "tags": {
    "name": "Stadtmuseum",
    "tourism": "museum"
  }
},
{
  "type": "node",
  "id": 737892916,
  "lat": 52.4651365,
  "lon": 9.0601984,
  "tags": {
    "addr:city": "Petershagen",
    "addr:housenumber": "9",
    "addr:postcode": "32469",
    "addr:street": "Am Mühlenbach",
    "email": "info@heringsfaengermuseum.de",
    "name": "Heringsfängermuseum Heimsen",
    "note": "Öffnungszeiten unter:\nhttps://www.heringsfaengermuseum.de/index.php/museum/oeffnungszeiten.html",
    "phone": "+49 5768 941855",
    "tourism": "museum",
    "website": "https://www.heringsfaengermuseum.de/",
    "wikidata": "Q1609990",
    "wikipedia:de": "Heringsfängermuseum Heimsen"
  }
},
{
  "type": "node",
  "id": 797405451,
  "lat": 52.0257683,
  "lon": 8.7790293,
  "tags": {
    "addr:city": "Lage",
    "addr:country": "DE",
    "addr:housenumber": "77",
    "addr:postcode": "32791",
    "addr:street": "Sprikernheide",
    "name": "Ziegelei Lage",
    "opening_hours": "Tu-Su 10:00-18:00; Mo off",
    "operator": "Landschaftsverband Westfalen-Lippe",
    "tourism": "museum",
    "wheelchair": "yes",
    "wikidata": "Q198593"
  }
},
{
  "type": "node",
  "id": 999108316,
  "lat": 52.2314660,
  "lon": 9.2798929,
  "tags": {
    "name": "Heimatmuseum Auetal",
    "tourism": "museum",
    "wikidata": "Q76635659"
  }
},
{
  "type": "node",
  "id": 1379049615,
  "lat": 52.2370162,
  "lon": 8.8378960,
  "tags": {
    "name": "Dehmere Heimatstube",
    "opening_hours": "\"nach Vereinbarung\"",
    "tourism": "museum"
  }
},
{
  "type": "node",
  "id": 1583333894,
  "lat": 52.2879637,
  "lon": 8.9138594,
  "tags": {
    "name": "Mindener Museum",
    "opening_hours": "Tu-Su 12:00-18:00",
    "toilets:wheelchair": "no",
    "tourism": "museum",
    "wheelchair": "limited",
    "wikidata": "Q1936389"
  }
},
{
  "type": "node",
  "id": 1585706418,
  "lat": 52.1907060,
  "lon": 8.7920376,
  "tags": {
    "heritage": "8",
    "heritage:operator": "UntereDenkmalbehörde",
    "historic": "farm",
    "leisure": "park",
    "name": "Museumshof",
    "ref_heritage": "Bad Oeynhausen Nr. 94",
    "tourism": "museum",
    "wheelchair": "limited",
    "wikidata": "Q1743995",
    "wikipedia": "de:Museumshof Bad Oeynhausen"
  }
},
{
  "type": "node",
  "id": 1644485558,
  "lat": 52.4151726,
  "lon": 9.0126984,
  "tags": {
    "addr:housenumber": "4",
    "addr:street": "Im Grund",
    "amenity": "cafe",
    "email": "info@windheimno2.de",
    "name": "Haus Windheim No.2",
    "phone": "+49 5705  958580",
    "tourism": "museum",
    "website": "http://www.windheimno2.de/"
  }
},
{
  "type": "node",
  "id": 1754282850,
  "lat": 52.3426589,
  "lon": 8.6729880,
  "tags": {
    "name": "Brammeyer´s Scheune",
    "tourism": "museum"
  }
},
{
  "type": "node",
  "id": 1760079610,
  "lat": 52.3400730,
  "lon": 8.6937403,
  "tags": {
    "name": "Storchennest",
    "tourism": "museum"
  }
},
{
  "type": "node",
  "id": 1760229365,
  "lat": 52.4374571,
  "lon": 9.3487191,
  "tags": {
    "name": "Bergbau Museum Schacht Weser",
    "operator": "Bergmannsverein Hagenburg",
    "tourism": "museum"
  }
},
{
  "type": "node",
  "id": 1838343760,
  "lat": 52.1157383,
  "lon": 8.6690277,
  "tags": {
    "name": "Schau zur Herforder Münzgeschichte",
    "tourism": "museum",
    "wheelchair": "yes"
  }
},
{
  "type": "node",
  "id": 1838343762,
  "lat": 52.1160918,
  "lon": 8.6695730,
  "tags": {
    "description": "Gedenk-, Dokumentations- und Begegnungsstätte",
    "name": "Zellentrakt",
    "tourism": "museum",
    "website": "http://www.zellentrakt.de/",
    "wheelchair": "yes"
  }
},
{
  "type": "node",
  "id": 2017157757,
  "lat": 52.1370028,
  "lon": 8.8589860,
  "tags": {
    "addr:city": "Vlotho",
    "addr:country": "DE",
    "addr:housenumber": "3",
    "addr:postcode": "32602",
    "addr:street": "Seebruchstraße",
    "addr:suburb": "Valdorf",
    "fixme": "location and housenumber likely incorrect, Hammerschmiede should have been below the small lake down the valley NW if housenumber 2",
    "name": "Hammerschmiede Gnuse",
    "tourism": "museum",
    "wikidata": "Q1384152"
  }
},
{
  "type": "node",
  "id": 2178525850,
  "lat": 52.1709260,
  "lon": 8.8633688,
  "tags": {
    "addr:city": "Vlotho",
    "addr:country": "DE",
    "addr:housenumber": "53",
    "addr:postcode": "32602",
    "addr:street": "Lange Straße",
    "name": "Heimatstube",
    "tourism": "museum"
  }
},
{
  "type": "node",
  "id": 2312546536,
  "lat": 52.4550371,
  "lon": 9.3527847,
  "tags": {
    "name": "Fischer- und Webermuseum",
    "opening_hours": "May-Oct Tu-Su 13:00-17:00; Mar,Apr,Nov Sa,Su,Ph 13:00-17:00",
    "source": "http://steinhudermuseen.wordpress.com/",
    "tourism": "museum",
    "wheelchair": "yes"
  }
},
{
  "type": "node",
  "id": 2347614943,
  "lat": 52.1673846,
  "lon": 8.6150488,
  "tags": {
    "addr:city": "Hiddenhausen",
    "addr:housenumber": "16",
    "addr:postcode": "32120",
    "addr:street": "Maschstraße",
    "name": "Holzhandwerksmuseum I",
    "source": "local knowledge",
    "tourism": "museum",
    "website": "http://www.holzhandwerksmuseum-hiddenhausen.de/",
    "wheelchair": "no"
  }
},
{
  "type": "node",
  "id": 2348268706,
  "lat": 52.1677136,
  "lon": 8.6151400,
  "tags": {
    "name": "Holzhandwerksmuseum II",
    "tourism": "museum",
    "wheelchair": "no"
  }
},
{
  "type": "node",
  "id": 2386277633,
  "lat": 52.2314866,
  "lon": 8.6683444,
  "tags": {
    "addr:city": "Kirchlengern",
    "addr:housenumber": "188",
    "addr:postcode": "32278",
    "addr:street": "Häverstraße",
    "name": "Feuerwehrmuseum Kirchlengern",
    "phone": "+49 5223 73792",
    "tourism": "museum",
    "website": "https://feuerwehrmuseum-kirchlengern.jimdo.com/"
  }
},
{
  "type": "node",
  "id": 2407765253,
  "lat": 52.2957300,
  "lon": 8.6178463,
  "tags": {
    "addr:city": "Lübbecke",
    "addr:postcode": "32312",
    "addr:street": "Berliner Straße",
    "name": "Brauereimuseum Barre's Brauwelt",
    "tourism": "museum"
  }
},
{
  "type": "node",
  "id": 2628454451,
  "lat": 52.2768428,
  "lon": 8.4018221,
  "tags": {
    "addr:city": "Melle",
    "addr:housenumber": "5",
    "addr:postcode": "49328",
    "addr:street": "Am Bergsiek",
    "addr:suburb": "Buer",
    "contact:website": "http://www.traktorenmuseum-mb.de/",
    "name": "Traktorenmuseum Melle-Buer / Meesdorf",
    "operator": "Traktoren und historische Landmaschinen-Verein Grönegau-Buer e.V",
    "tourism": "museum"
  }
},
{
  "type": "node",
  "id": 2995590733,
  "lat": 52.4091979,
  "lon": 8.9745061,
  "tags": {
    "addr:city": "Petershagen",
    "addr:housenumber": "12",
    "addr:postcode": "32469",
    "addr:street": "Schraderweg",
    "name": "Herrenhaus Schrader, Industriemuseum Gernheim",
    "phone": "+49 5707 93110",
    "tourism": "museum",
    "website": "https://www.lwl.org/LWL/Kultur/wim/portal/S/gernheim/ort/",
    "wheelchair": "limited"
  }
},
{
  "type": "node",
  "id": 2995659634,
  "lat": 52.4100545,
  "lon": 8.9749689,
  "tags": {
    "addr:city": "Petershagen",
    "addr:country": "DE",
    "addr:housenumber": "13",
    "addr:postcode": "32469",
    "addr:street": "Gernheim",
    "name": "Glasturm, LWL-Industriemuseum - Glashütte Gernheim",
    "phone": "+49 5707 9311 0",
    "tourism": "museum",
    "website": "https://www.lwl.org/LWL/Kultur/wim/portal/S/gernheim/ort/",
    "wheelchair": "limited"
  }
},
{
  "type": "node",
  "id": 2995676633,
  "lat": 52.4098688,
  "lon": 8.9730067,
  "tags": {
    "addr:city": "Petershagen",
    "addr:country": "DE",
    "addr:housenumber": "2",
    "addr:postcode": "32469",
    "addr:street": "Gernheim",
    "name": "Korbflechterei, LWL-Industriemuseum - Glashütte Gernheim",
    "tourism": "museum",
    "wheelchair": "limited"
  }
},
{
  "type": "node",
  "id": 2995766738,
  "lat": 52.4101373,
  "lon": 8.9731210,
  "tags": {
    "addr:city": "Petershagen",
    "addr:country": "DE",
    "addr:housenumber": "40",
    "addr:postcode": "32469",
    "addr:street": "Ovenstädter Straße",
    "name": "Eingang/Museumsshop, LWL-Industriemuseum - Glashütte Gernheim",
    "opening_hours": "Tu-Su,PH 10:00-18:00",
    "operator": "LWL-Industriemuseum Westfälisches Industriemuseum für Industriekultur Grubenweg 5 · 44388 Dortmund",
    "phone": "+49 5707 93110",
    "tourism": "museum",
    "website": "https://www.lwl.org/industriemuseum/",
    "wheelchair": "limited"
  }
},
{
  "type": "node",
  "id": 3048941838,
  "lat": 52.4477615,
  "lon": 9.1085822,
  "tags": {
    "designation": "Web- und Textilmuseum",
    "name": "Web- und Textilmuseum",
    "source": "http://www.bws-loccum.de/web_u_textil.php",
    "tourism": "museum"
  }
},
{
  "type": "node",
  "id": 3206450487,
  "lat": 52.4098450,
  "lon": 8.9739031,
  "tags": {
    "addr:city": "Petershagen",
    "addr:country": "DE",
    "addr:housenumber": "12",
    "addr:postcode": "32469",
    "addr:street": "Gernheim",
    "name": "LWL-Industriemuseum Glashütte Gernheim",
    "phone": "+49 5707 93110",
    "tourism": "museum",
    "website": "https://www.lwl.org/LWL/Kultur/wim/portal/S/gernheim/ort/",
    "wheelchair": "limited"
  }
},
{
  "type": "node",
  "id": 3364423164,
  "lat": 52.1705664,
  "lon": 9.0974742,
  "tags": {
    "name": "Heimatstube Exten",
    "tourism": "museum",
    "wikidata": "Q1595677",
    "wikipedia:de": "Heimatstube Exten"
  }
},
{
  "type": "node",
  "id": 3637207611,
  "lat": 52.4170989,
  "lon": 9.0132265,
  "tags": {
    "tourism": "museum"
  }
},
{
  "type": "node",
  "id": 4413120769,
  "lat": 52.3329175,
  "lon": 8.7476156,
  "tags": {
    "addr:city": "Hille",
    "addr:country": "DE",
    "addr:housenumber": "12",
    "addr:postcode": "32479",
    "addr:street": "Eickhorster Straße",
    "contact:website": "http://www.sinnenpark-hille.de/",
    "name": "Sinnenpark Hille",
    "operator": "Ev.-luth. Kirchengemeinde Hille",
    "tourism": "museum"
  }
},
{
  "type": "node",
  "id": 4866660165,
  "lat": 52.3115780,
  "lon": 8.8830230,
  "tags": {
    "addr:city": "Minden",
    "addr:country": "DE",
    "addr:housenumber": "131",
    "addr:postcode": "32425",
    "addr:street": "Zähringerallee",
    "contact:email": "info@bibelcenter-minden.de",
    "contact:phone": "+49 571 38698191",
    "contact:website": "http://www.bibelcenter-minden.de/",
    "fee": "no",
    "name": "BibelCenter Minden",
    "opening_hours": "Th 16:00-20:00; Sa 10:00-15:00",
    "operator": "BibelCenter Minden e.V.",
    "religion": "christian",
    "tourism": "museum"
  }
},
{
  "type": "node",
  "id": 5227833624,
  "lat": 52.3213141,
  "lon": 8.7782626,
  "tags": {
    "contact:website": "http://www.muehle-suedhemmern.de/",
    "name": "Heimatstube im Müllerhaus",
    "operator": "Heimatverein Südhemmern e.V.",
    "tourism": "museum"
  }
},
{
  "type": "node",
  "id": 5473361245,
  "lat": 52.2728702,
  "lon": 8.6730586,
  "tags": {
    "addr:city": "Hüllhorst",
    "addr:housenumber": "3",
    "addr:postcode": "32609",
    "addr:street": "Schnathorster Straße",
    "name": "Heimat-Museum",
    "tourism": "museum",
    "wikidata": "Q76634723"
  }
},
{
  "type": "node",
  "id": 7020199819,
  "lat": 52.5111324,
  "lon": 9.0745110,
  "tags": {
    "name": "Heimatmuseum",
    "tourism": "museum"
  }
},
{
  "type": "node",
  "id": 7159263686,
  "lat": 52.0102623,
  "lon": 8.8363569,
  "tags": {
    "addr:postcode": "32657",
    "name": "Auto-Museum \"der kleine Lemgoer\"",
    "name:en": "Car-Museum \"der kleine Lemgoer\"",
    "phone": "+49 5261 78160",
    "tourism": "museum"
  }
},
{
  "type": "way",
  "id": 24930550,
  "nodes": [
    1848816980,
    2031189279,
    1848816978,
    2031189265,
    2031189253,
    2031189235,
    2031189233,
    1848816975,
    1848816976,
    270917841,
    1848816977,
    2031189261,
    270917842,
    270917843,
    1848816979,
    270917844,
    270917845,
    270917846,
    1848816981,
    1848816983,
    1848816985,
    1848816987,
    1848816995,
    270917847,
    270917848,
    1848816999,
    1848817001,
    270917849,
    1848817003,
    270917850,
    270917851,
    1848817009,
    1848817008,
    270917852,
    270917853,
    1848817006,
    1848817010,
    1848817012,
    270917856,
    1848817013,
    270917857,
    270917858,
    2031189434,
    1848817018,
    1848817021,
    270917859,
    2031189460,
    2031189456,
    2031189449,
    2031189453,
    270917861,
    2393838724,
    2031189432,
    2031189417,
    2031189392,
    2031189308,
    1848816992,
    1848816993,
    1848816980
  ],
  "tags": {
    "addr:city": "Herford",
    "addr:country": "DE",
    "addr:housenumber": "2-10",
    "addr:postcode": "32052",
    "addr:street": "Goebenstraße",
    "alt_name": "Möbel ART ambiente",
    "artist_name": "Frank Gehry",
    "building": "yes",
    "building:colour": "#C49983",
    "building:parts": "vertical",
    "contact:fax": "+49 5221 994430-18",
    "contact:phone": "+49 5221 994430-0",
    "contact:website": "http://marta-herford.de",
    "name": "Marta Herford",
    "opening_hours": "Tu-Su,PH 11:00-18:00",
    "phone": "+49 5221 9944300",
    "roof:colour": "white",
    "toilets:wheelchair": "yes",
    "tourism": "museum",
    "website": "https://marta-herford.de/",
    "wheelchair": "yes",
    "wikidata": "Q459531",
    "wikipedia": "de:MARTa"
  }
},
{
  "type": "way",
  "id": 25182257,
  "nodes": [
    2580283619,
    2580283614,
    2580283617,
    2580283620,
    2580283619
  ],
  "tags": {
    "building": "yes",
    "fixme:wikipedia": "wikipedia tag links to a list article, not an article about this specific object. It would be better to fix it, or to rename \"wikipedia\" to \"related:wikipedia\"",
    "height": "6 m",
    "historic": "archaeological_site",
    "image": "File:Lemgo Brake Ölmühle.jpg",
    "man_made": "watermill",
    "name": "Ölmühle mit Wasserrad",
    "note": "ehemalige Ölmühle,kann besichtigt werden, angetrieben durch hölzernes Wasserad",
    "tourism": "museum",
    "watermill:disused": "yes",
    "wheelchair": "no",
    "wikipedia": "de:Liste der Baudenkmäler in Lemgo"
  }
},
{
  "type": "way",
  "id": 25212475,
  "nodes": [
    274907657,
    602232231,
    3692966404,
    274907658,
    274907659,
    274907665,
    1638822436,
    1458124867,
    602232246,
    274907660,
    274907661,
    1638822502,
    1638822488,
    274907662,
    274905871,
    274905870,
    274905881,
    1458124844,
    1458124870,
    274907657
  ],
  "tags": {
    "landuse": "industrial",
    "name": "LWL-Industriemuseum Ziegeleimuseum in Lage",
    "phone": "+49 5232 9490-0",
    "tourism": "museum",
    "website": "https://www.lwl.org/LWL/Kultur/wim/portal/S/lage/ort/",
    "wheelchair": "yes"
  }
},
{
  "type": "way",
  "id": 29227034,
  "nodes": [
    321464378,
    581835322,
    418257064,
    321464380,
    418257062,
    321464384,
    321464386,
    321464388,
    7139942402,
    321464378
  ],
  "tags": {
    "name": "Deutsches Tabak- und Zigarrenmuseum",
    "opening_hours": "Tu-Fr 14:00-18:00, Sa-Su 11:00-18:00",
    "toilets:wheelchair": "yes",
    "tourism": "museum",
    "wheelchair": "yes",
    "wikidata": "Q1206029"
  }
},
{
  "type": "way",
  "id": 35998850,
  "nodes": [
    420786855,
    2516698583,
    2516698572,
    2516698559,
    2516698563,
    2516698558,
    2516698557,
    2516698555,
    2516698556,
    420786856,
    420786857,
    420786858,
    420786855
  ],
  "tags": {
    "addr:city": "Minden",
    "addr:country": "DE",
    "addr:housename": "Defensionskaserne",
    "addr:housenumber": "12",
    "addr:postcode": "32423",
    "addr:street": "Simeonsplatz",
    "building": "yes",
    "building:levels": "3",
    "building:material": "stone",
    "height": "17",
    "historic": "yes",
    "name": "Preußen-Museum",
    "roof:material": "metal",
    "roof:shape": "flat",
    "tourism": "museum",
    "wheelchair": "yes",
    "wikidata": "Q2109125"
  }
},
{
  "type": "way",
  "id": 37577031,
  "nodes": [
    440414615,
    3814406625,
    3814406622,
    3814406621,
    440414598,
    440414600,
    440414605,
    440414606,
    440414608,
    3814406595,
    3814406600,
    440414610,
    440414612,
    3814406630,
    3814406633,
    3814406636,
    3814406634,
    440414615
  ],
  "tags": {
    "addr:city": "Espelkamp",
    "addr:country": "DE",
    "addr:housenumber": "23",
    "addr:postcode": "32339",
    "addr:street": "General-Bishop-Straße",
    "building": "yes",
    "name": "Teppichmuseum",
    "operator": "Teppich - Tönsmann",
    "phone": "+49 5772 4004",
    "tourism": "museum",
    "website": "https://www.teppich-toensmann.de/",
    "wikidata": "Q1713953",
    "wikipedia:de": "Teppichmuseum Tönsmann"
  }
},
{
  "type": "way",
  "id": 37656108,
  "nodes": [
    441398732,
    441398733,
    5375160103,
    5375160105,
    5375160104,
    5375160106,
    5375160107,
    4210530256,
    4210530258,
    4210530257,
    4210530264,
    441398734,
    441398738,
    441398732
  ],
  "tags": {
    "building": "yes",
    "name": "Eulenburg",
    "tourism": "museum",
    "wheelchair": "limited"
  }
},
{
  "type": "way",
  "id": 38070620,
  "nodes": [
    447786410,
    1520168329,
    447786411,
    1520168315,
    1520168313,
    447786412,
    1520168309,
    1520168298,
    447786413,
    1520168300,
    447786414,
    447786416,
    447786410
  ],
  "tags": {
    "addr:city": "Bad Oeynhausen",
    "addr:country": "DE",
    "addr:housenumber": "3",
    "addr:postcode": "32545",
    "addr:street": "Am Kurpark",
    "building": "public",
    "description": "Villa",
    "heritage": "8",
    "heritage:operator": "UntereDenkmalbehörde",
    "name": "Deutsche Märchen- und Wesersagenmuseum",
    "opening_hours": "We-Su 10:00-12:00,14:00-17:00; Mo-Tu off",
    "ref_heritage": "Bad Oeynhausen Nr. 72",
    "tourism": "museum",
    "website": "http://maerchenmuseum.blogspot.com/",
    "wheelchair": "no",
    "wikidata": "Q1205854",
    "wikipedia:de": "Deutsches Märchen- und Wesersagenmuseum"
  }
},
{
  "type": "way",
  "id": 38279956,
  "nodes": [
    451670525,
    451670527,
    451670528,
    451670529,
    3565455054,
    450893540,
    451670525
  ],
  "tags": {
    "building": "yes",
    "name": "Terra phänomenales",
    "tourism": "museum",
    "website": "https://www.pottspark-minden.de/terra_phaenomenalis/"
  }
},
{
  "type": "way",
  "id": 45652265,
  "nodes": [
    581835313,
    581835315,
    581835317,
    581835318,
    321464378,
    581835322,
    581835324,
    581835313
  ],
  "tags": {
    "name": "Dobergmuseum - Geologisches Museum OWL",
    "toilets:wheelchair": "yes",
    "tourism": "museum",
    "wheelchair": "yes"
  }
},
{
  "type": "way",
  "id": 47120881,
  "nodes": [
    3430488066,
    3430488067,
    3430488052,
    3430487782,
    3430488002,
    3430488005,
    3430488010,
    3430488006,
    3430488011,
    3430488014,
    3430488015,
    3430488027,
    3430488028,
    3430488030,
    3430488024,
    3430488296,
    3430488295,
    3430488294,
    3430488091,
    3430488072,
    3430488066
  ],
  "tags": {
    "addr:city": "Lübbecke",
    "addr:country": "DE",
    "addr:housenumber": "3",
    "addr:postcode": "32312",
    "addr:street": "Am Markt",
    "alt_name": "Mediothek Lübbecke; Städtisches Museum",
    "amenity": "library",
    "building": "yes",
    "email": "mediothek@luebbecke.de",
    "historic": "yes",
    "name": "Kultur- und Medienzentrum Lübbecke",
    "old_name": "Altes Rathaus",
    "opening_hours": "Tu 10:00-20:00; We 11:00-18:00; Th-Fr 11:00-13:00, 14:30-18:00",
    "operator": "Stadt Lübbecke",
    "phone": "+49-5741-276401",
    "ref:isil": "DE-787",
    "tourism": "museum",
    "website": "http://www.luebbecke.de/mediothek",
    "wikidata": "Q28733543"
  }
},
{
  "type": "way",
  "id": 52755644,
  "nodes": [
    669509160,
    4869483515,
    4869483514,
    669509157,
    4869483516,
    4869483517,
    669509156,
    669509154,
    669509160
  ],
  "tags": {
    "addr:city": "Hille",
    "addr:housenumber": "71",
    "addr:postcode": "32479",
    "addr:street": "Mindener Straße",
    "building": "yes",
    "name": "Alte Brennerei",
    "name:en": "Old distillery",
    "tourism": "museum",
    "website": "https://www.altebrennereihille.de/",
    "wheelchair": "no"
  }
},
{
  "type": "way",
  "id": 82424006,
  "nodes": [
    959449481,
    959450172,
    959449655,
    959449449,
    959450092,
    959449596,
    959449481
  ],
  "tags": {
    "building": "yes",
    "description": "Vierständerbau",
    "heritage": "8",
    "heritage:operator": "UntereDenkmalbehörde",
    "name": "Rehmer Heimathaus",
    "ref_heritage": "Bad Oeynhausen Nr. 107",
    "tourism": "museum",
    "website": "http://www.rehmer-heimatverein.de"
  }
},
{
  "type": "way",
  "id": 87254245,
  "nodes": [
    1014548200,
    428734867,
    428734868,
    428734869,
    1014548045,
    428734863,
    428734864,
    428734865,
    1014548200
  ],
  "tags": {
    "addr:city": "Porta Westfalica",
    "addr:housenumber": "396",
    "addr:postcode": "32457",
    "addr:street": "Rintelner Straße",
    "building": "yes",
    "name": "Besucherbergwerk Kleinenbremen",
    "tourism": "museum",
    "website": "http://www.bergwerk-kleinenbremen.de",
    "wheelchair": "limited",
    "wikidata": "Q830722",
    "wikipedia:de": "Besucherbergwerk Kleinenbremen"
  }
},
{
  "type": "way",
  "id": 119022601,
  "nodes": [
    1338055567,
    4796665873,
    1338055814,
    1338055705,
    1338055591,
    1338055567
  ],
  "tags": {
    "addr:housenumber": "16",
    "addr:postcode": "31547",
    "addr:street": "Hagenburger Straße",
    "building": "public",
    "name": "Ökologische Schutzstation Steinhuder Meer (ÖSSM)",
    "operator": "Ökologische Schutzstation Steinhuder Meer e.V.",
    "tourism": "museum",
    "webcam": "https://www.oessm.org/blog/livecams/schleiereule/",
    "website": "https://www.oessm.org"
  }
},
{
  "type": "way",
  "id": 120342329,
  "nodes": [
    3430381644,
    3430381442,
    3430381250,
    3430381458,
    3430381644
  ],
  "tags": {
    "addr:city": "Kirchlengern",
    "addr:country": "DE",
    "addr:housenumber": "49",
    "addr:postcode": "32278",
    "addr:street": "Rehmerloher Straße",
    "building": "yes",
    "name": "Bauernbad Rehmerloh",
    "tourism": "museum"
  }
},
{
  "type": "way",
  "id": 151346796,
  "nodes": [
    2625170096,
    2625170113,
    2625170060,
    2625169831,
    2625169834,
    2625169803,
    2625169864,
    2625169836,
    2625169896,
    2625169935,
    2625169964,
    2625170111,
    2625170170,
    2625170096
  ],
  "tags": {
    "addr:city": "Vlotho",
    "addr:country": "DE",
    "addr:housenumber": "136",
    "addr:postcode": "32602",
    "addr:street": "Lange Straße",
    "building": "yes",
    "tourism": "museum"
  }
},
{
  "type": "way",
  "id": 155500593,
  "nodes": [
    3476146604,
    3476146602,
    3476146598,
    3476146599,
    3476146595,
    3476146593,
    3476146586,
    3476146575,
    3476146582,
    3476146581,
    3476146589,
    3476146590,
    3476146592,
    3476146591,
    3476146596,
    3476146608,
    3476146604
  ],
  "tags": {
    "addr:city": "Löhne",
    "addr:housenumber": "300",
    "addr:postcode": "32584",
    "addr:street": "Alter Postweg",
    "building": "yes",
    "name": "Heimatmuseum Löhne",
    "tourism": "museum"
  }
},
{
  "type": "way",
  "id": 170261009,
  "nodes": [
    1814108420,
    1814108428,
    2393838707,
    2393838713,
    2393838718,
    2393838715,
    1814108431,
    2393838709,
    2393838711,
    2393838705,
    2393838703,
    1814108414,
    2393838697,
    2393838695,
    2393838691,
    2393838693,
    1814108403,
    1814108412,
    1814108406,
    2393838689,
    2393838687,
    1814108402,
    1838355838,
    1838355843,
    1838355825,
    1838355840,
    1838355835,
    1838355841,
    1814108401,
    1838355845,
    1838355846,
    1838355847,
    1814108409,
    1838355848,
    1838355849,
    1814108423,
    1814108425,
    2393838699,
    2393838701,
    1814108417,
    1838355850,
    1814108420
  ],
  "tags": {
    "addr:city": "Herford",
    "addr:country": "DE",
    "addr:housenumber": "2",
    "addr:postcode": "32052",
    "addr:street": "Deichtorwall",
    "building": "yes",
    "building:colour": "grey",
    "description": "Städtisches Museum; Stuckzierfassade; 1874; Oesterlen-Anbau des Städtischen Museums; Oesterlen-Anbau des Städtischen Museums; 1973–1975",
    "email": "poeppelmannhaus@herford.de",
    "height": "4",
    "heritage": "8",
    "heritage:operator": "UntereDenkmalbehörde",
    "name": "Daniel-Pöppelmann-Haus",
    "network": "BaudenkmälerHerford",
    "note": "Denkmalnummer 53,472",
    "opening_hours": "Tu-Sa 14:00-18:00; Su 11:00-18:00; Mo off",
    "phone": "+49 5221 189 689",
    "roof:colour": "grey",
    "roof:lines": "no",
    "roof:shape": "flat",
    "toilets:wheelchair": "no",
    "tourism": "museum",
    "website": "http://www.poeppelmannhaus.herford.de/",
    "wheelchair": "limited",
    "wheelchair:description": "Der Museumskomplex liegt erhöht auf den Resten eines ehemaligen Rondells der Stadtbefestigung; die Steigung beträgt 6,4 %. Das Gebäude verfügt über einen Fahrstuhl. Da keine Behindertentoilette vorhanden, ungeeignet für längeren Aufenthalt.",
    "wikidata": "Q1159841",
    "wikipedia": "de:Liste der Baudenkmäler in Herford#53"
  }
},
{
  "type": "way",
  "id": 174007552,
  "nodes": [
    1847503493,
    1847503494,
    4155657093,
    1847503492,
    1847503490,
    1847503493
  ],
  "tags": {
    "addr:city": "Hiddenhausen",
    "addr:country": "DE",
    "addr:housenumber": "60",
    "addr:postcode": "32120",
    "addr:street": "Blumenstraße",
    "building": "yes",
    "name": "Museumsschule Hiddenhausen",
    "phone": "+49 5221 964 352",
    "tourism": "museum"
  }
},
{
  "type": "way",
  "id": 174007554,
  "nodes": [
    1847503495,
    1847503496,
    4155657090,
    4155657089,
    1847503475,
    1847503495
  ],
  "tags": {
    "leisure": "park",
    "name": "Museumsschule Hiddenhausen",
    "tourism": "museum"
  }
},
{
  "type": "way",
  "id": 182457039,
  "nodes": [
    1928091477,
    1928091465,
    1928091469,
    3454459863,
    4379468463,
    4379468464,
    1928091480,
    1928091477
  ],
  "tags": {
    "addr:city": "Enger",
    "addr:country": "DE",
    "addr:housenumber": "54",
    "addr:postcode": "32130",
    "addr:street": "Bahnhofstraße",
    "building": "yes",
    "name": "Kleinbahn Museum",
    "tourism": "museum"
  }
},
{
  "type": "way",
  "id": 191766026,
  "nodes": [
    3430375059,
    3430375056,
    3430374945,
    3430374947,
    3430374952,
    3430375016,
    3430375215,
    3430375059
  ],
  "tags": {
    "addr:city": "Kirchlengern",
    "addr:country": "DE",
    "addr:housenumber": "27",
    "addr:postcode": "32278",
    "addr:street": "Am Herrenhaus",
    "building": "yes",
    "name": "Herrenhaus",
    "tourism": "museum"
  }
},
{
  "type": "way",
  "id": 191780892,
  "nodes": [
    3430377298,
    3430377118,
    3430377178,
    3430377194,
    3430377206,
    3430377264,
    3430377254,
    3430377341,
    3430377340,
    3430377328,
    3430377298
  ],
  "tags": {
    "addr:city": "Kirchlengern",
    "addr:country": "DE",
    "addr:housenumber": "15",
    "addr:postcode": "32278",
    "addr:street": "An der Stiftskirche",
    "building": "yes",
    "name": "Rauchfang",
    "tourism": "museum"
  }
},
{
  "type": "way",
  "id": 194368987,
  "nodes": [
    2048868726,
    2048868699,
    2048868711,
    2048868723,
    2048868718,
    2048868737,
    2048868726
  ],
  "tags": {
    "addr:city": "Enger",
    "addr:country": "DE",
    "addr:housenumber": "10",
    "addr:postcode": "32130",
    "addr:street": "Kirchplatz",
    "building": "yes",
    "fax": "+49-5224-910996",
    "name": "Widukind Museum",
    "phone": "+49 5224 910995",
    "toilets:wheelchair": "yes",
    "tourism": "museum",
    "website": "http://www.widukind-museum-enger.de/",
    "wheelchair": "yes",
    "wheelchair:description": "Rampe am Eingang"
  }
},
{
  "type": "way",
  "id": 207559653,
  "nodes": [
    2158120129,
    2158120131,
    2158120143,
    2578966834,
    2578966860,
    2857642314,
    2857642313,
    2578966438,
    2178211929,
    2178211928,
    2178211930,
    2178211931,
    2158120151,
    2158120128,
    2158120129
  ],
  "tags": {
    "name": "Museum Hexenbürgermeisterhaus",
    "tourism": "museum",
    "wikidata": "Q1616741"
  }
},
{
  "type": "way",
  "id": 233868774,
  "nodes": [
    2421922517,
    2421922579,
    2421922570,
    2421922550,
    2421922517
  ],
  "tags": {
    "building": "yes",
    "name": "Deutsches Stuhlmuseum, Eimbeckhausen",
    "tourism": "museum"
  }
},
{
  "type": "way",
  "id": 234018006,
  "nodes": [
    5988151995,
    5988151994,
    5988151993,
    2423238537,
    2423238511,
    2423238514,
    2423238516,
    5988151992,
    5988151995
  ],
  "tags": {
    "building": "yes",
    "name": "Amts- und Fleckenmuseum",
    "tourism": "museum"
  }
},
{
  "type": "way",
  "id": 237144055,
  "nodes": [
    2450888782,
    2450888784,
    2450888787,
    2450888790,
    2450888782
  ],
  "tags": {
    "building": "yes",
    "name": "Heimatmuseum",
    "tourism": "museum"
  }
},
{
  "type": "way",
  "id": 249986662,
  "nodes": [
    2565149525,
    2565149528,
    2565149521,
    2565149530,
    2565149516,
    2565149507,
    2565149509,
    2565149503,
    2565149513,
    2565149517,
    2565149512,
    2565149515,
    2565149526,
    2565149523,
    2565149518,
    2565149510,
    2565149514,
    2565149511,
    2565149520,
    2565149525
  ],
  "tags": {
    "addr:city": "Bad Münder am Deister",
    "addr:housenumber": "2",
    "addr:postcode": "31848",
    "addr:street": "Südstraße",
    "building": "commercial",
    "description": "Besuch nur auf Anfrage möglich",
    "name": "Filmwelt Center",
    "opening_hours": "off",
    "source": "bing",
    "tourism": "museum",
    "website": "https://filmwelt-center.com/"
  }
},
{
  "type": "way",
  "id": 251774077,
  "nodes": [
    2579500931,
    2579500862,
    2579500858,
    2579500812,
    2579500810,
    2579500633,
    2579500644,
    2579500562,
    2579500597,
    2579500782,
    2579500772,
    2579500784,
    2579500796,
    2707228759,
    2579500873,
    2579500869,
    2579500956,
    2579500982,
    2579501118,
    2579501103,
    2579500922,
    2579500931
  ],
  "tags": {
    "addr:city": "Lemgo",
    "addr:country": "DE",
    "addr:housenumber": "36",
    "addr:postcode": "32657",
    "addr:street": "Hamelner Straße",
    "building": "house",
    "contact:phone": "+49 5261 667695",
    "contact:website": "http://junkerhaus.de",
    "name": "Museum Junkerhaus Lemgo",
    "opening_hours": "Apr 01-Oct 31 Tu-Su 10:00-17:00, Nov 01-Mar 31 Fr-Su 11:00-15:00",
    "tourism": "museum",
    "wheelchair": "limited",
    "wheelchair:description": "Obere Etagen des Junkerhauses nur per Treppe erreichbar",
    "wikidata": "Q1713629"
  }
},
{
  "type": "way",
  "id": 284632982,
  "nodes": [
    2883550921,
    2883550922,
    4838727286,
    4838727280,
    2883550923,
    2883550924,
    2883550925,
    2883550926,
    2883550921
  ],
  "tags": {
    "addr:housenumber": "1",
    "addr:street": "Schloßallee",
    "building": "yes",
    "building:levels": "2",
    "name": "Deutsches Automatenmuseum",
    "opening_hours": "Tu-Fr 10:00-17:00; Sa,Su,PH 11:00-18:00",
    "operator": "Gauselmann AG",
    "phone": "+49 5743 9318222",
    "ref": "5",
    "tourism": "museum",
    "website": "https://www.deutsches-automatenmuseum.de/",
    "wheelchair": "yes",
    "wikidata": "Q15633625",
    "wikipedia:de": "Deutsches Automatenmuseum"
  }
},
{
  "type": "way",
  "id": 294844104,
  "nodes": [
    2984658512,
    2984658501,
    2984658502,
    2984658505,
    2984658508,
    2984658513,
    2984658516,
    2984658517,
    2984658512
  ],
  "tags": {
    "amenity": "place_of_worship",
    "building": "chapel",
    "deanery": "Evangelischer Kirchenkreis Lübbecke",
    "denomination": "lutheran",
    "diocese": "Evangelische Kirche von Westfalen",
    "name": "Alte Klus",
    "parish": "Evangelisch-Lutherische Kirchengemeinde Isenstedt-Frotheim",
    "religion": "christian",
    "service_times": "Sa[1] 17:00",
    "tourism": "museum",
    "website": "https://www.isenstedt-frotheim.de/",
    "wikipedia": "de:Kluskapelle Frotheim"
  }
},
{
  "type": "way",
  "id": 297707486,
  "nodes": [
    3016078115,
    3016078118,
    3016078117,
    3016078116,
    3016078115
  ],
  "tags": {
    "addr:city": "Bad Nenndorf",
    "addr:housenumber": "3",
    "addr:postcode": "31542",
    "addr:street": "Agnes-Miegel-Platz",
    "building": "yes",
    "email": "info@agnes-miegel-gesellschaft.de",
    "name": "Agnes-Miegel-Haus",
    "opening_hours": "Mi 15-17, So 10-12",
    "operator": "Agnes-Miegel-Gesellschaft e.V.",
    "phone": "+49 5723 917317",
    "tourism": "museum",
    "website": "http://www.agnes-miegel-gesellschaft.de/",
    "wikidata": "Q394429",
    "wikipedia:de": "Agnes-Miegel-Haus"
  }
},
{
  "type": "way",
  "id": 351436962,
  "nodes": [
    3572007083,
    3572007071,
    6870136343,
    3572007064,
    3572007059,
    3572007057,
    3572007055,
    1670014363,
    3572007051,
    4630512287,
    3572007050,
    3572007052,
    3572007070,
    3572007074,
    3572007077,
    3572007078,
    3572007086,
    1286581124,
    1286581122,
    4630512232,
    1286581117,
    1286581084,
    3137229462,
    3572007082,
    3572007083
  ],
  "tags": {
    "contact:phone": "+49 5771 2282",
    "contact:website": "http://www.museumshof-rahden.de",
    "name": "Museumshof Rahden",
    "opening_hours": "Tu-Sa 13:00-18:00; Su 10:00-18:00; Mo off",
    "tourism": "museum",
    "wheelchair": "limited",
    "wikidata": "Q1954829",
    "wikipedia": "de:Museumshof Rahden"
  }
},
{
  "type": "way",
  "id": 443067578,
  "nodes": [
    498289217,
    4407061743,
    4407061739,
    4407061734,
    498289217
  ],
  "tags": {
    "addr:city": "Petershagen",
    "addr:country": "DE",
    "addr:housenumber": "7",
    "addr:postcode": "32469",
    "addr:street": "Goebenstraße",
    "building": "synagogue",
    "contact:email": "info@synagoge-petershagen.de",
    "contact:website": "http://www.synagoge-petershagen.de/",
    "disused:amenity": "place_of_worship",
    "heritage": "5",
    "historic": "yes",
    "name": "Alte Synagoge",
    "opening_hours": "Apr-Sep Tu-Sa 11:00-15:00; Su 16:00-18:00",
    "religion": "jewish",
    "tourism": "museum",
    "wheelchair": "no",
    "wikipedia": "de:Synagoge (Petershagen)"
  }
},
{
  "type": "way",
  "id": 447155509,
  "nodes": [
    3643277200,
    4443377617,
    4443377618,
    4443377619,
    4443377620,
    4443377621,
    4443377622,
    4443377623,
    4443377624,
    4443377625,
    4443377626,
    4443377627,
    4443377628,
    4443377629,
    4443377630,
    4443377631,
    4443377632,
    4443377688,
    4443377633,
    4443377634,
    4443377635,
    4443377700,
    4443377636,
    4443377637,
    4443377638,
    4443377639,
    4443377640,
    4443377641,
    4443377642,
    4443377643,
    4443377644,
    4443377645,
    4443377646,
    5375334835,
    4443377647,
    4443377648,
    4443377649,
    4443377650,
    4443377651,
    3643277200
  ],
  "tags": {
    "addr:city": "Bückeburg",
    "addr:country": "DE",
    "addr:housenumber": "6",
    "addr:postcode": "31675",
    "addr:street": "Sablé-Platz",
    "building": "yes",
    "fee": "yes",
    "name": "Hubschraubermuseum",
    "opening_hours": "Mo-Su,PH 10:00-17:00",
    "phone": "+49 5722 5533",
    "toilets:wheelchair": "yes",
    "tourism": "museum",
    "website": "http://www.hubschraubermuseum.de/",
    "wheelchair": "yes",
    "wikidata": "Q1195080",
    "wikipedia": "de:Hubschraubermuseum Bückeburg"
  }
},
{
  "type": "way",
  "id": 448325375,
  "nodes": [
    4453483694,
    5375356995,
    4453483695,
    4453483696,
    4453483697,
    4453483694
  ],
  "tags": {
    "addr:city": "Bückeburg",
    "addr:housenumber": "22",
    "addr:postcode": "31675",
    "addr:street": "Lange Straße",
    "building": "yes",
    "information": "Eintritt frei",
    "name": "Schaumburg-Lippisches Landesmuseum",
    "opening_hours": "Mi-So 13:00-17:00",
    "tourism": "museum"
  }
},
{
  "type": "way",
  "id": 467568611,
  "nodes": [
    4621747509,
    4621747508,
    4621747488,
    4621747479,
    4621747507,
    4621747506,
    4621747509
  ],
  "tags": {
    "addr:housenumber": "12",
    "addr:postcode": "32351",
    "addr:street": "Propsteiweg",
    "building": "yes",
    "name": "Heimathaus",
    "start_date": "1714",
    "tourism": "museum"
  }
},
{
  "type": "way",
  "id": 509451983,
  "nodes": [
    4986780955,
    4986780959,
    4986780956,
    4986780961,
    4986780962,
    4986780957,
    4986780958,
    4986780955
  ],
  "tags": {
    "museum": "history",
    "name": "Handwerkermuseum",
    "tourism": "museum"
  }
},
{
  "type": "way",
  "id": 590967075,
  "nodes": [
    5641447494,
    5641447493,
    5641447492,
    5641447491,
    5641447494
  ],
  "tags": {
    "name": "Industriemuseeum Oberer Eisenhammer",
    "tourism": "museum",
    "website": "http://www.heimatverein-exten.de/index.php/museumsstandorte/oberer-eisenhammer",
    "wheelchair": "no"
  }
},
{
  "type": "way",
  "id": 602248487,
  "nodes": [
    5721196702,
    5721196700,
    5721196698,
    5721196696,
    5721196694,
    5721196693,
    5721196692,
    5721196691,
    5721196689,
    5721196688,
    5721196687,
    5721196686,
    5721196685,
    5721196088,
    5721196684,
    5721196682,
    5721196680,
    5721196678,
    5721196676,
    5721196675,
    5721196674,
    5721196673,
    5721196672,
    5721196671,
    5721196670,
    5721196669,
    5721196668,
    5721196667,
    5721196666,
    5721196665,
    5721196664,
    5721196663,
    5721196662,
    5721196661,
    5721196660,
    5721196659,
    5721196657,
    5721196655,
    5721196653,
    5721196651,
    5721196650,
    5721196649,
    5721196648,
    5721196702
  ],
  "tags": {
    "addr:city": "Wagenfeld",
    "addr:country": "DE",
    "addr:housenumber": "11",
    "addr:postcode": "49419",
    "addr:street": "Auf dem Sande",
    "addr:suburb": "Ströhen",
    "amenity": "arts_centre",
    "building": "yes",
    "contact:email": "info@moorwelten.de",
    "contact:phone": "+49 5774 9978220",
    "contact:website": "http://www.moorwelten.de/",
    "name": "MOORWELTEN",
    "operator": "Europäisches Fachzentrum Moor und Klima GmbH",
    "tourism": "museum",
    "wheelchair": "yes"
  }
},
{
  "type": "way",
  "id": 625840817,
  "nodes": [
    5908864857,
    5908864858,
    5908864859,
    5908864860,
    5908864857
  ],
  "tags": {
    "addr:city": "Obernkirchen",
    "addr:housenumber": "5",
    "addr:postcode": "31683",
    "addr:street": "Kirchplatz",
    "building": "yes",
    "email": "info@museum-obernkirchen.de",
    "name": "Berg- und Stadtmuseum",
    "phone": "+49 5724 9716000",
    "tourism": "museum",
    "website": "http://www.museum-obernkirchen.de/",
    "wikidata": "Q76636413"
  }
},
{
  "type": "relation",
  "id": 7567566,
  "members": [
    {
      "type": "way",
      "ref": 524003000,
      "role": "outer"
    },
    {
      "type": "way",
      "ref": 525662785,
      "role": "inner"
    }
  ],
  "tags": {
    "addr:city": "Bückeburg",
    "addr:housenumber": "1",
    "addr:postcode": "31675",
    "addr:street": "Schlossplatz",
    "building": "yes",
    "historic": "castle",
    "name": "Schloss Bückeburg",
    "tourism": "museum",
    "type": "multipolygon",
    "website": "https://www.schloss-bueckeburg.de/",
    "wikidata": "Q1530171",
    "wikipedia": "de:Schloss Bückeburg"
  }
},
{
  "type": "node",
  "id": 274905870,
  "lat": 52.0249510,
  "lon": 8.7791819
},
{
  "type": "node",
  "id": 274905871,
  "lat": 52.0251115,
  "lon": 8.7796426
},
{
  "type": "node",
  "id": 274905881,
  "lat": 52.0243854,
  "lon": 8.7797210
},
{
  "type": "node",
  "id": 274907657,
  "lat": 52.0240651,
  "lon": 8.7777351
},
{
  "type": "node",
  "id": 274907658,
  "lat": 52.0248486,
  "lon": 8.7769420
},
{
  "type": "node",
  "id": 274907659,
  "lat": 52.0251833,
  "lon": 8.7777593
},
{
  "type": "node",
  "id": 274907662,
  "lat": 52.0252166,
  "lon": 8.7799193
},
{
  "type": "node",
  "id": 274907665,
  "lat": 52.0253885,
  "lon": 8.7775438
},
{
  "type": "node",
  "id": 602232231,
  "lat": 52.0247420,
  "lon": 8.7770462
},
{
  "type": "node",
  "id": 1458124844,
  "lat": 52.0240861,
  "lon": 8.7789194
},
{
  "type": "node",
  "id": 1458124870,
  "lat": 52.0243775,
  "lon": 8.7786006
},
{
  "type": "node",
  "id": 1638822436,
  "lat": 52.0254247,
  "lon": 8.7776819
},
{
  "type": "node",
  "id": 3692966404,
  "lat": 52.0247780,
  "lon": 8.7770133
},
{
  "type": "node",
  "id": 2158120128,
  "lat": 52.0250361,
  "lon": 8.8995261
},
{
  "type": "node",
  "id": 2158120129,
  "lat": 52.0251595,
  "lon": 8.8995809
},
{
  "type": "node",
  "id": 2158120131,
  "lat": 52.0251945,
  "lon": 8.8992917
},
{
  "type": "node",
  "id": 2158120143,
  "lat": 52.0252071,
  "lon": 8.8990387
},
{
  "type": "node",
  "id": 2158120151,
  "lat": 52.0249441,
  "lon": 8.8994857
},
{
  "type": "node",
  "id": 2178211928,
  "lat": 52.0250168,
  "lon": 8.8988594
},
{
  "type": "node",
  "id": 2178211929,
  "lat": 52.0250600,
  "lon": 8.8988712
},
{
  "type": "node",
  "id": 2178211930,
  "lat": 52.0249343,
  "lon": 8.8990281
},
{
  "type": "node",
  "id": 2178211931,
  "lat": 52.0248659,
  "lon": 8.8994445
},
{
  "type": "node",
  "id": 2578966438,
  "lat": 52.0250675,
  "lon": 8.8988538
},
{
  "type": "node",
  "id": 2578966834,
  "lat": 52.0252038,
  "lon": 8.8989580
},
{
  "type": "node",
  "id": 2578966860,
  "lat": 52.0252024,
  "lon": 8.8988960
},
{
  "type": "node",
  "id": 2857642313,
  "lat": 52.0251265,
  "lon": 8.8988723
},
{
  "type": "node",
  "id": 2857642314,
  "lat": 52.0251883,
  "lon": 8.8988916
},
{
  "type": "node",
  "id": 2579500562,
  "lat": 52.0256649,
  "lon": 8.9176237
},
{
  "type": "node",
  "id": 2579500597,
  "lat": 52.0256802,
  "lon": 8.9177350
},
{
  "type": "node",
  "id": 2579500633,
  "lat": 52.0257094,
  "lon": 8.9175487
},
{
  "type": "node",
  "id": 2579500644,
  "lat": 52.0257171,
  "lon": 8.9176049
},
{
  "type": "node",
  "id": 2580283614,
  "lat": 52.0217037,
  "lon": 8.9141602
},
{
  "type": "node",
  "id": 2580283617,
  "lat": 52.0217224,
  "lon": 8.9143579
},
{
  "type": "node",
  "id": 2580283619,
  "lat": 52.0217884,
  "lon": 8.9141390
},
{
  "type": "node",
  "id": 2580283620,
  "lat": 52.0218071,
  "lon": 8.9143368
},
{
  "type": "node",
  "id": 1928091465,
  "lat": 52.1372106,
  "lon": 8.5545612
},
{
  "type": "node",
  "id": 1928091469,
  "lat": 52.1372205,
  "lon": 8.5548594
},
{
  "type": "node",
  "id": 1928091477,
  "lat": 52.1374162,
  "lon": 8.5545379
},
{
  "type": "node",
  "id": 1928091480,
  "lat": 52.1374295,
  "lon": 8.5548333
},
{
  "type": "node",
  "id": 3454459863,
  "lat": 52.1372542,
  "lon": 8.5548551
},
{
  "type": "node",
  "id": 4379468463,
  "lat": 52.1372896,
  "lon": 8.5548507
},
{
  "type": "node",
  "id": 4379468464,
  "lat": 52.1373230,
  "lon": 8.5548465
},
{
  "type": "node",
  "id": 2048868699,
  "lat": 52.1396970,
  "lon": 8.5593205
},
{
  "type": "node",
  "id": 2048868711,
  "lat": 52.1397435,
  "lon": 8.5595308
},
{
  "type": "node",
  "id": 2048868718,
  "lat": 52.1397720,
  "lon": 8.5594804
},
{
  "type": "node",
  "id": 2048868723,
  "lat": 52.1397786,
  "lon": 8.5595102
},
{
  "type": "node",
  "id": 2048868726,
  "lat": 52.1398205,
  "lon": 8.5592480
},
{
  "type": "node",
  "id": 2048868737,
  "lat": 52.1398604,
  "lon": 8.5594285
},
{
  "type": "node",
  "id": 321464378,
  "lat": 52.1952377,
  "lon": 8.5811008
},
{
  "type": "node",
  "id": 321464380,
  "lat": 52.1954001,
  "lon": 8.5821242
},
{
  "type": "node",
  "id": 321464384,
  "lat": 52.1956886,
  "lon": 8.5819230
},
{
  "type": "node",
  "id": 321464386,
  "lat": 52.1956822,
  "lon": 8.5815699
},
{
  "type": "node",
  "id": 321464388,
  "lat": 52.1957365,
  "lon": 8.5809772
},
{
  "type": "node",
  "id": 418257062,
  "lat": 52.1955171,
  "lon": 8.5821084
},
{
  "type": "node",
  "id": 418257064,
  "lat": 52.1952865,
  "lon": 8.5814401
},
{
  "type": "node",
  "id": 581835313,
  "lat": 52.1954000,
  "lon": 8.5821242
},
{
  "type": "node",
  "id": 581835315,
  "lat": 52.1952889,
  "lon": 8.5821631
},
{
  "type": "node",
  "id": 581835317,
  "lat": 52.1949844,
  "lon": 8.5822029
},
{
  "type": "node",
  "id": 581835318,
  "lat": 52.1949469,
  "lon": 8.5811729
},
{
  "type": "node",
  "id": 581835322,
  "lat": 52.1952289,
  "lon": 8.5814206
},
{
  "type": "node",
  "id": 581835324,
  "lat": 52.1952864,
  "lon": 8.5814403
},
{
  "type": "node",
  "id": 7139942402,
  "lat": 52.1954949,
  "lon": 8.5810369
},
{
  "type": "node",
  "id": 1814108401,
  "lat": 52.1150044,
  "lon": 8.6631602
},
{
  "type": "node",
  "id": 1814108402,
  "lat": 52.1150162,
  "lon": 8.6634090
},
{
  "type": "node",
  "id": 1814108403,
  "lat": 52.1151857,
  "lon": 8.6634606
},
{
  "type": "node",
  "id": 1814108406,
  "lat": 52.1152110,
  "lon": 8.6633241
},
{
  "type": "node",
  "id": 1814108409,
  "lat": 52.1152326,
  "lon": 8.6631248
},
{
  "type": "node",
  "id": 1814108412,
  "lat": 52.1152376,
  "lon": 8.6634238
},
{
  "type": "node",
  "id": 1814108414,
  "lat": 52.1152554,
  "lon": 8.6637270
},
{
  "type": "node",
  "id": 1814108417,
  "lat": 52.1152590,
  "lon": 8.6632906
},
{
  "type": "node",
  "id": 1814108420,
  "lat": 52.1152856,
  "lon": 8.6633898
},
{
  "type": "node",
  "id": 1814108423,
  "lat": 52.1153008,
  "lon": 8.6631431
},
{
  "type": "node",
  "id": 1814108425,
  "lat": 52.1153155,
  "lon": 8.6631978
},
{
  "type": "node",
  "id": 1814108428,
  "lat": 52.1153427,
  "lon": 8.6633493
},
{
  "type": "node",
  "id": 1814108431,
  "lat": 52.1154128,
  "lon": 8.6636176
},
{
  "type": "node",
  "id": 1838355825,
  "lat": 52.1150022,
  "lon": 8.6632873
},
{
  "type": "node",
  "id": 1838355835,
  "lat": 52.1150037,
  "lon": 8.6632206
},
{
  "type": "node",
  "id": 1838355838,
  "lat": 52.1150016,
  "lon": 8.6633542
},
{
  "type": "node",
  "id": 1838355840,
  "lat": 52.1150184,
  "lon": 8.6632759
},
{
  "type": "node",
  "id": 1838355841,
  "lat": 52.1150178,
  "lon": 8.6632106
},
{
  "type": "node",
  "id": 1838355843,
  "lat": 52.1150172,
  "lon": 8.6633431
},
{
  "type": "node",
  "id": 1838355845,
  "lat": 52.1151861,
  "lon": 8.6630314
},
{
  "type": "node",
  "id": 1838355846,
  "lat": 52.1151997,
  "lon": 8.6630823
},
{
  "type": "node",
  "id": 1838355847,
  "lat": 52.1152179,
  "lon": 8.6630695
},
{
  "type": "node",
  "id": 1838355848,
  "lat": 52.1152505,
  "lon": 8.6631122
},
{
  "type": "node",
  "id": 1838355849,
  "lat": 52.1152654,
  "lon": 8.6631682
},
{
  "type": "node",
  "id": 1838355850,
  "lat": 52.1152632,
  "lon": 8.6633061
},
{
  "type": "node",
  "id": 2393838687,
  "lat": 52.1150588,
  "lon": 8.6633788
},
{
  "type": "node",
  "id": 2393838689,
  "lat": 52.1150708,
  "lon": 8.6634235
},
{
  "type": "node",
  "id": 2393838691,
  "lat": 52.1151957,
  "lon": 8.6635362
},
{
  "type": "node",
  "id": 2393838693,
  "lat": 52.1152043,
  "lon": 8.6635301
},
{
  "type": "node",
  "id": 2393838695,
  "lat": 52.1152281,
  "lon": 8.6636574
},
{
  "type": "node",
  "id": 2393838697,
  "lat": 52.1152354,
  "lon": 8.6636522
},
{
  "type": "node",
  "id": 2393838699,
  "lat": 52.1153017,
  "lon": 8.6632076
},
{
  "type": "node",
  "id": 2393838701,
  "lat": 52.1153135,
  "lon": 8.6632519
},
{
  "type": "node",
  "id": 2393838703,
  "lat": 52.1153167,
  "lon": 8.6636835
},
{
  "type": "node",
  "id": 2393838705,
  "lat": 52.1153234,
  "lon": 8.6637086
},
{
  "type": "node",
  "id": 2393838707,
  "lat": 52.1153621,
  "lon": 8.6634218
},
{
  "type": "node",
  "id": 2393838709,
  "lat": 52.1153634,
  "lon": 8.6636526
},
{
  "type": "node",
  "id": 2393838711,
  "lat": 52.1153696,
  "lon": 8.6636758
},
{
  "type": "node",
  "id": 2393838713,
  "lat": 52.1153705,
  "lon": 8.6634158
},
{
  "type": "node",
  "id": 2393838715,
  "lat": 52.1153931,
  "lon": 8.6635438
},
{
  "type": "node",
  "id": 2393838718,
  "lat": 52.1154028,
  "lon": 8.6635370
},
{
  "type": "node",
  "id": 270917841,
  "lat": 52.1206775,
  "lon": 8.6682023
},
{
  "type": "node",
  "id": 270917842,
  "lat": 52.1207268,
  "lon": 8.6680382
},
{
  "type": "node",
  "id": 270917843,
  "lat": 52.1207397,
  "lon": 8.6679796
},
{
  "type": "node",
  "id": 270917844,
  "lat": 52.1207412,
  "lon": 8.6678812
},
{
  "type": "node",
  "id": 270917845,
  "lat": 52.1207531,
  "lon": 8.6678378
},
{
  "type": "node",
  "id": 270917846,
  "lat": 52.1208190,
  "lon": 8.6678894
},
{
  "type": "node",
  "id": 270917847,
  "lat": 52.1209563,
  "lon": 8.6677690
},
{
  "type": "node",
  "id": 270917848,
  "lat": 52.1209576,
  "lon": 8.6678318
},
{
  "type": "node",
  "id": 270917849,
  "lat": 52.1210718,
  "lon": 8.6678639
},
{
  "type": "node",
  "id": 270917850,
  "lat": 52.1211166,
  "lon": 8.6679453
},
{
  "type": "node",
  "id": 270917851,
  "lat": 52.1212096,
  "lon": 8.6680171
},
{
  "type": "node",
  "id": 270917852,
  "lat": 52.1211067,
  "lon": 8.6682356
},
{
  "type": "node",
  "id": 270917853,
  "lat": 52.1210900,
  "lon": 8.6683133
},
{
  "type": "node",
  "id": 270917856,
  "lat": 52.1212306,
  "lon": 8.6682922
},
{
  "type": "node",
  "id": 270917857,
  "lat": 52.1212619,
  "lon": 8.6681500
},
{
  "type": "node",
  "id": 270917858,
  "lat": 52.1212673,
  "lon": 8.6680825
},
{
  "type": "node",
  "id": 270917859,
  "lat": 52.1214316,
  "lon": 8.6681314
},
{
  "type": "node",
  "id": 270917861,
  "lat": 52.1213267,
  "lon": 8.6686093
},
{
  "type": "node",
  "id": 1848816975,
  "lat": 52.1205936,
  "lon": 8.6684396
},
{
  "type": "node",
  "id": 1848816976,
  "lat": 52.1206881,
  "lon": 8.6683119
},
{
  "type": "node",
  "id": 1848816977,
  "lat": 52.1206887,
  "lon": 8.6681219
},
{
  "type": "node",
  "id": 1848816978,
  "lat": 52.1207665,
  "lon": 8.6686555
},
{
  "type": "node",
  "id": 1848816979,
  "lat": 52.1207467,
  "lon": 8.6679421
},
{
  "type": "node",
  "id": 1848816980,
  "lat": 52.1208632,
  "lon": 8.6685897
},
{
  "type": "node",
  "id": 1848816981,
  "lat": 52.1208185,
  "lon": 8.6678627
},
{
  "type": "node",
  "id": 1848816983,
  "lat": 52.1208208,
  "lon": 8.6677898
},
{
  "type": "node",
  "id": 1848816985,
  "lat": 52.1208222,
  "lon": 8.6677390
},
{
  "type": "node",
  "id": 1848816987,
  "lat": 52.1208336,
  "lon": 8.6677384
},
{
  "type": "node",
  "id": 1848816992,
  "lat": 52.1209167,
  "lon": 8.6686919
},
{
  "type": "node",
  "id": 1848816993,
  "lat": 52.1208488,
  "lon": 8.6686436
},
{
  "type": "node",
  "id": 1848816995,
  "lat": 52.1209037,
  "lon": 8.6677487
},
{
  "type": "node",
  "id": 1848816999,
  "lat": 52.1209898,
  "lon": 8.6678342
},
{
  "type": "node",
  "id": 1848817001,
  "lat": 52.1210359,
  "lon": 8.6678366
},
{
  "type": "node",
  "id": 1848817003,
  "lat": 52.1210604,
  "lon": 8.6679145
},
{
  "type": "node",
  "id": 1848817006,
  "lat": 52.1211395,
  "lon": 8.6683454
},
{
  "type": "node",
  "id": 1848817008,
  "lat": 52.1211353,
  "lon": 8.6682527
},
{
  "type": "node",
  "id": 1848817009,
  "lat": 52.1211782,
  "lon": 8.6681364
},
{
  "type": "node",
  "id": 1848817010,
  "lat": 52.1211765,
  "lon": 8.6683747
},
{
  "type": "node",
  "id": 1848817012,
  "lat": 52.1211987,
  "lon": 8.6683953
},
{
  "type": "node",
  "id": 1848817013,
  "lat": 52.1212534,
  "lon": 8.6682066
},
{
  "type": "node",
  "id": 1848817018,
  "lat": 52.1213328,
  "lon": 8.6681038
},
{
  "type": "node",
  "id": 1848817021,
  "lat": 52.1214055,
  "lon": 8.6681154
},
{
  "type": "node",
  "id": 2031189233,
  "lat": 52.1206317,
  "lon": 8.6685016
},
{
  "type": "node",
  "id": 2031189235,
  "lat": 52.1206349,
  "lon": 8.6685337
},
{
  "type": "node",
  "id": 2031189253,
  "lat": 52.1206822,
  "lon": 8.6685696
},
{
  "type": "node",
  "id": 2031189261,
  "lat": 52.1207098,
  "lon": 8.6680279
},
{
  "type": "node",
  "id": 2031189265,
  "lat": 52.1207342,
  "lon": 8.6686133
},
{
  "type": "node",
  "id": 2031189279,
  "lat": 52.1208091,
  "lon": 8.6686043
},
{
  "type": "node",
  "id": 2031189308,
  "lat": 52.1209031,
  "lon": 8.6687427
},
{
  "type": "node",
  "id": 2031189392,
  "lat": 52.1211757,
  "lon": 8.6689361
},
{
  "type": "node",
  "id": 2031189417,
  "lat": 52.1212291,
  "lon": 8.6689740
},
{
  "type": "node",
  "id": 2031189432,
  "lat": 52.1212769,
  "lon": 8.6687952
},
{
  "type": "node",
  "id": 2031189434,
  "lat": 52.1213010,
  "lon": 8.6680908
},
{
  "type": "node",
  "id": 2031189449,
  "lat": 52.1213638,
  "lon": 8.6684703
},
{
  "type": "node",
  "id": 2031189453,
  "lat": 52.1213646,
  "lon": 8.6684675
},
{
  "type": "node",
  "id": 2031189456,
  "lat": 52.1213861,
  "lon": 8.6683655
},
{
  "type": "node",
  "id": 2031189460,
  "lat": 52.1214098,
  "lon": 8.6682384
},
{
  "type": "node",
  "id": 2393838724,
  "lat": 52.1213012,
  "lon": 8.6687045
},
{
  "type": "node",
  "id": 274907660,
  "lat": 52.0263023,
  "lon": 8.7775450
},
{
  "type": "node",
  "id": 274907661,
  "lat": 52.0262733,
  "lon": 8.7790117
},
{
  "type": "node",
  "id": 602232246,
  "lat": 52.0261624,
  "lon": 8.7775318
},
{
  "type": "node",
  "id": 1458124867,
  "lat": 52.0259322,
  "lon": 8.7775605
},
{
  "type": "node",
  "id": 1638822488,
  "lat": 52.0257794,
  "lon": 8.7793893
},
{
  "type": "node",
  "id": 1638822502,
  "lat": 52.0258302,
  "lon": 8.7794222
},
{
  "type": "node",
  "id": 1847503475,
  "lat": 52.1530649,
  "lon": 8.6667773
},
{
  "type": "node",
  "id": 1847503490,
  "lat": 52.1531894,
  "lon": 8.6672457
},
{
  "type": "node",
  "id": 1847503492,
  "lat": 52.1532234,
  "lon": 8.6674179
},
{
  "type": "node",
  "id": 1847503493,
  "lat": 52.1533130,
  "lon": 8.6671808
},
{
  "type": "node",
  "id": 1847503494,
  "lat": 52.1533470,
  "lon": 8.6673530
},
{
  "type": "node",
  "id": 1847503495,
  "lat": 52.1532859,
  "lon": 8.6667338
},
{
  "type": "node",
  "id": 1847503496,
  "lat": 52.1534121,
  "lon": 8.6677510
},
{
  "type": "node",
  "id": 4155657089,
  "lat": 52.1531888,
  "lon": 8.6676903
},
{
  "type": "node",
  "id": 4155657090,
  "lat": 52.1531976,
  "lon": 8.6677543
},
{
  "type": "node",
  "id": 4155657093,
  "lat": 52.1532767,
  "lon": 8.6673899
},
{
  "type": "node",
  "id": 3476146575,
  "lat": 52.1775777,
  "lon": 8.7273226
},
{
  "type": "node",
  "id": 3476146581,
  "lat": 52.1776495,
  "lon": 8.7275319
},
{
  "type": "node",
  "id": 3476146582,
  "lat": 52.1776522,
  "lon": 8.7275292
},
{
  "type": "node",
  "id": 3476146586,
  "lat": 52.1776710,
  "lon": 8.7272340
},
{
  "type": "node",
  "id": 3476146589,
  "lat": 52.1776968,
  "lon": 8.7276632
},
{
  "type": "node",
  "id": 3476146590,
  "lat": 52.1777006,
  "lon": 8.7276597
},
{
  "type": "node",
  "id": 3476146591,
  "lat": 52.1777205,
  "lon": 8.7277288
},
{
  "type": "node",
  "id": 3476146592,
  "lat": 52.1777243,
  "lon": 8.7277252
},
{
  "type": "node",
  "id": 3476146593,
  "lat": 52.1777457,
  "lon": 8.7274405
},
{
  "type": "node",
  "id": 3476146595,
  "lat": 52.1777580,
  "lon": 8.7274288
},
{
  "type": "node",
  "id": 3476146596,
  "lat": 52.1777675,
  "lon": 8.7278593
},
{
  "type": "node",
  "id": 3476146598,
  "lat": 52.1778030,
  "lon": 8.7275626
},
{
  "type": "node",
  "id": 3476146599,
  "lat": 52.1778054,
  "lon": 8.7275603
},
{
  "type": "node",
  "id": 3476146602,
  "lat": 52.1778268,
  "lon": 8.7276278
},
{
  "type": "node",
  "id": 3476146604,
  "lat": 52.1778290,
  "lon": 8.7276256
},
{
  "type": "node",
  "id": 3476146608,
  "lat": 52.1778759,
  "lon": 8.7277560
},
{
  "type": "node",
  "id": 447786410,
  "lat": 52.2037543,
  "lon": 8.7959977
},
{
  "type": "node",
  "id": 447786411,
  "lat": 52.2037619,
  "lon": 8.7962937
},
{
  "type": "node",
  "id": 447786412,
  "lat": 52.2037151,
  "lon": 8.7963295
},
{
  "type": "node",
  "id": 447786413,
  "lat": 52.2036402,
  "lon": 8.7960778
},
{
  "type": "node",
  "id": 447786414,
  "lat": 52.2036584,
  "lon": 8.7960404
},
{
  "type": "node",
  "id": 447786416,
  "lat": 52.2036644,
  "lon": 8.7960627
},
{
  "type": "node",
  "id": 1520168298,
  "lat": 52.2036352,
  "lon": 8.7960814
},
{
  "type": "node",
  "id": 1520168300,
  "lat": 52.2036347,
  "lon": 8.7960575
},
{
  "type": "node",
  "id": 1520168309,
  "lat": 52.2037046,
  "lon": 8.7963371
},
{
  "type": "node",
  "id": 1520168313,
  "lat": 52.2037175,
  "lon": 8.7963385
},
{
  "type": "node",
  "id": 1520168315,
  "lat": 52.2037648,
  "lon": 8.7963043
},
{
  "type": "node",
  "id": 1520168329,
  "lat": 52.2038227,
  "lon": 8.7962497
},
{
  "type": "node",
  "id": 4621747479,
  "lat": 52.3740153,
  "lon": 8.4543965
},
{
  "type": "node",
  "id": 4621747488,
  "lat": 52.3740030,
  "lon": 8.4543401
},
{
  "type": "node",
  "id": 4621747506,
  "lat": 52.3741558,
  "lon": 8.4545459
},
{
  "type": "node",
  "id": 4621747507,
  "lat": 52.3740600,
  "lon": 8.4545997
},
{
  "type": "node",
  "id": 4621747508,
  "lat": 52.3740019,
  "lon": 8.4543353
},
{
  "type": "node",
  "id": 4621747509,
  "lat": 52.3740972,
  "lon": 8.4542813
},
{
  "type": "node",
  "id": 2883550921,
  "lat": 52.3442081,
  "lon": 8.5762934
},
{
  "type": "node",
  "id": 2883550922,
  "lat": 52.3441935,
  "lon": 8.5758241
},
{
  "type": "node",
  "id": 2883550923,
  "lat": 52.3443133,
  "lon": 8.5758141
},
{
  "type": "node",
  "id": 2883550924,
  "lat": 52.3443233,
  "lon": 8.5761379
},
{
  "type": "node",
  "id": 2883550925,
  "lat": 52.3445373,
  "lon": 8.5761200
},
{
  "type": "node",
  "id": 2883550926,
  "lat": 52.3445418,
  "lon": 8.5762656
},
{
  "type": "node",
  "id": 4838727280,
  "lat": 52.3442714,
  "lon": 8.5758176
},
{
  "type": "node",
  "id": 4838727286,
  "lat": 52.3442434,
  "lon": 8.5758199
},
{
  "type": "node",
  "id": 1286581084,
  "lat": 52.4379793,
  "lon": 8.5975388
},
{
  "type": "node",
  "id": 1286581117,
  "lat": 52.4380479,
  "lon": 8.5975420
},
{
  "type": "node",
  "id": 1286581122,
  "lat": 52.4380506,
  "lon": 8.5973571
},
{
  "type": "node",
  "id": 1286581124,
  "lat": 52.4379721,
  "lon": 8.5973534
},
{
  "type": "node",
  "id": 1670014363,
  "lat": 52.4368850,
  "lon": 8.5975525
},
{
  "type": "node",
  "id": 3137229462,
  "lat": 52.4379779,
  "lon": 8.5976368
},
{
  "type": "node",
  "id": 3572007050,
  "lat": 52.4365663,
  "lon": 8.5956146
},
{
  "type": "node",
  "id": 3572007051,
  "lat": 52.4366880,
  "lon": 8.5975317
},
{
  "type": "node",
  "id": 3572007052,
  "lat": 52.4371209,
  "lon": 8.5956931
},
{
  "type": "node",
  "id": 3572007055,
  "lat": 52.4372453,
  "lon": 8.5975840
},
{
  "type": "node",
  "id": 3572007057,
  "lat": 52.4372701,
  "lon": 8.5976142
},
{
  "type": "node",
  "id": 3572007059,
  "lat": 52.4372823,
  "lon": 8.5976663
},
{
  "type": "node",
  "id": 3572007070,
  "lat": 52.4375221,
  "lon": 8.5956927
},
{
  "type": "node",
  "id": 3572007074,
  "lat": 52.4375933,
  "lon": 8.5966986
},
{
  "type": "node",
  "id": 3572007077,
  "lat": 52.4377481,
  "lon": 8.5966726
},
{
  "type": "node",
  "id": 3572007078,
  "lat": 52.4378050,
  "lon": 8.5966623
},
{
  "type": "node",
  "id": 3572007082,
  "lat": 52.4379411,
  "lon": 8.5976351
},
{
  "type": "node",
  "id": 3572007083,
  "lat": 52.4379412,
  "lon": 8.5977648
},
{
  "type": "node",
  "id": 3572007086,
  "lat": 52.4379884,
  "lon": 8.5966649
},
{
  "type": "node",
  "id": 4630512232,
  "lat": 52.4380498,
  "lon": 8.5974112
},
{
  "type": "node",
  "id": 4630512287,
  "lat": 52.4366757,
  "lon": 8.5973330
},
{
  "type": "node",
  "id": 3430374945,
  "lat": 52.2400669,
  "lon": 8.6277108
},
{
  "type": "node",
  "id": 3430374947,
  "lat": 52.2400679,
  "lon": 8.6277175
},
{
  "type": "node",
  "id": 3430374952,
  "lat": 52.2400699,
  "lon": 8.6277167
},
{
  "type": "node",
  "id": 3430375016,
  "lat": 52.2401158,
  "lon": 8.6280526
},
{
  "type": "node",
  "id": 3430375056,
  "lat": 52.2401545,
  "lon": 8.6276823
},
{
  "type": "node",
  "id": 3430375059,
  "lat": 52.2401553,
  "lon": 8.6276822
},
{
  "type": "node",
  "id": 3430375215,
  "lat": 52.2402010,
  "lon": 8.6280220
},
{
  "type": "node",
  "id": 3430377118,
  "lat": 52.2410259,
  "lon": 8.6292154
},
{
  "type": "node",
  "id": 3430377178,
  "lat": 52.2410623,
  "lon": 8.6294091
},
{
  "type": "node",
  "id": 3430377194,
  "lat": 52.2410679,
  "lon": 8.6294063
},
{
  "type": "node",
  "id": 3430377206,
  "lat": 52.2410748,
  "lon": 8.6294445
},
{
  "type": "node",
  "id": 3430377254,
  "lat": 52.2411038,
  "lon": 8.6293893
},
{
  "type": "node",
  "id": 3430377264,
  "lat": 52.2411107,
  "lon": 8.6294272
},
{
  "type": "node",
  "id": 3430377298,
  "lat": 52.2411343,
  "lon": 8.6291614
},
{
  "type": "node",
  "id": 3430377328,
  "lat": 52.2411605,
  "lon": 8.6293002
},
{
  "type": "node",
  "id": 3430377340,
  "lat": 52.2411703,
  "lon": 8.6293521
},
{
  "type": "node",
  "id": 3430377341,
  "lat": 52.2411710,
  "lon": 8.6293570
},
{
  "type": "node",
  "id": 3430381250,
  "lat": 52.2433218,
  "lon": 8.6461189
},
{
  "type": "node",
  "id": 3430381442,
  "lat": 52.2433814,
  "lon": 8.6460002
},
{
  "type": "node",
  "id": 3430381458,
  "lat": 52.2433927,
  "lon": 8.6462136
},
{
  "type": "node",
  "id": 3430381644,
  "lat": 52.2434524,
  "lon": 8.6460949
},
{
  "type": "node",
  "id": 3430487782,
  "lat": 52.3029016,
  "lon": 8.6176895
},
{
  "type": "node",
  "id": 3430488002,
  "lat": 52.3029421,
  "lon": 8.6178925
},
{
  "type": "node",
  "id": 3430488005,
  "lat": 52.3029462,
  "lon": 8.6178903
},
{
  "type": "node",
  "id": 3430488052,
  "lat": 52.3030662,
  "lon": 8.6176041
},
{
  "type": "node",
  "id": 3430488066,
  "lat": 52.3031008,
  "lon": 8.6178080
},
{
  "type": "node",
  "id": 3430488067,
  "lat": 52.3031065,
  "lon": 8.6178050
},
{
  "type": "node",
  "id": 3430488072,
  "lat": 52.3031113,
  "lon": 8.6178600
},
{
  "type": "node",
  "id": 3430488091,
  "lat": 52.3031531,
  "lon": 8.6178383
},
{
  "type": "node",
  "id": 3430488294,
  "lat": 52.3031623,
  "lon": 8.6178847
},
{
  "type": "node",
  "id": 3430488295,
  "lat": 52.3031669,
  "lon": 8.6178823
},
{
  "type": "node",
  "id": 3430488296,
  "lat": 52.3031725,
  "lon": 8.6179103
},
{
  "type": "node",
  "id": 3430488006,
  "lat": 52.3029564,
  "lon": 8.6179967
},
{
  "type": "node",
  "id": 3430488010,
  "lat": 52.3029666,
  "lon": 8.6179910
},
{
  "type": "node",
  "id": 3430488011,
  "lat": 52.3029672,
  "lon": 8.6180490
},
{
  "type": "node",
  "id": 3430488014,
  "lat": 52.3029738,
  "lon": 8.6180455
},
{
  "type": "node",
  "id": 3430488015,
  "lat": 52.3029744,
  "lon": 8.6180485
},
{
  "type": "node",
  "id": 3430488024,
  "lat": 52.3030055,
  "lon": 8.6179990
},
{
  "type": "node",
  "id": 3430488027,
  "lat": 52.3030103,
  "lon": 8.6180292
},
{
  "type": "node",
  "id": 3430488028,
  "lat": 52.3030109,
  "lon": 8.6180313
},
{
  "type": "node",
  "id": 3430488030,
  "lat": 52.3030121,
  "lon": 8.6180306
},
{
  "type": "node",
  "id": 669509154,
  "lat": 52.3371608,
  "lon": 8.7448900
},
{
  "type": "node",
  "id": 669509156,
  "lat": 52.3369353,
  "lon": 8.7446878
},
{
  "type": "node",
  "id": 669509157,
  "lat": 52.3369784,
  "lon": 8.7446203
},
{
  "type": "node",
  "id": 669509160,
  "lat": 52.3371882,
  "lon": 8.7448084
},
{
  "type": "node",
  "id": 4869483514,
  "lat": 52.3370727,
  "lon": 8.7447178
},
{
  "type": "node",
  "id": 4869483515,
  "lat": 52.3370745,
  "lon": 8.7447112
},
{
  "type": "node",
  "id": 4869483516,
  "lat": 52.3369602,
  "lon": 8.7446749
},
{
  "type": "node",
  "id": 4869483517,
  "lat": 52.3369443,
  "lon": 8.7446607
},
{
  "type": "node",
  "id": 440414598,
  "lat": 52.3872606,
  "lon": 8.6279080
},
{
  "type": "node",
  "id": 440414600,
  "lat": 52.3872048,
  "lon": 8.6274761
},
{
  "type": "node",
  "id": 440414605,
  "lat": 52.3870020,
  "lon": 8.6275475
},
{
  "type": "node",
  "id": 440414606,
  "lat": 52.3870756,
  "lon": 8.6281158
},
{
  "type": "node",
  "id": 440414608,
  "lat": 52.3872073,
  "lon": 8.6280702
},
{
  "type": "node",
  "id": 440414610,
  "lat": 52.3872296,
  "lon": 8.6281307
},
{
  "type": "node",
  "id": 440414612,
  "lat": 52.3872907,
  "lon": 8.6281092
},
{
  "type": "node",
  "id": 440414615,
  "lat": 52.3873253,
  "lon": 8.6279306
},
{
  "type": "node",
  "id": 3814406595,
  "lat": 52.3872132,
  "lon": 8.6281144
},
{
  "type": "node",
  "id": 3814406600,
  "lat": 52.3872262,
  "lon": 8.6281091
},
{
  "type": "node",
  "id": 3814406621,
  "lat": 52.3872829,
  "lon": 8.6279002
},
{
  "type": "node",
  "id": 3814406622,
  "lat": 52.3872866,
  "lon": 8.6278985
},
{
  "type": "node",
  "id": 3814406625,
  "lat": 52.3872925,
  "lon": 8.6279419
},
{
  "type": "node",
  "id": 3814406630,
  "lat": 52.3873142,
  "lon": 8.6280887
},
{
  "type": "node",
  "id": 3814406633,
  "lat": 52.3873313,
  "lon": 8.6280550
},
{
  "type": "node",
  "id": 3814406634,
  "lat": 52.3873373,
  "lon": 8.6279697
},
{
  "type": "node",
  "id": 3814406636,
  "lat": 52.3873394,
  "lon": 8.6280133
},
{
  "type": "node",
  "id": 2984658501,
  "lat": 52.3593056,
  "lon": 8.6677258
},
{
  "type": "node",
  "id": 2984658502,
  "lat": 52.3593158,
  "lon": 8.6679066
},
{
  "type": "node",
  "id": 2984658505,
  "lat": 52.3593396,
  "lon": 8.6679209
},
{
  "type": "node",
  "id": 2984658508,
  "lat": 52.3593564,
  "lon": 8.6679189
},
{
  "type": "node",
  "id": 2984658512,
  "lat": 52.3593727,
  "lon": 8.6677157
},
{
  "type": "node",
  "id": 2984658513,
  "lat": 52.3593727,
  "lon": 8.6679089
},
{
  "type": "node",
  "id": 2984658516,
  "lat": 52.3593796,
  "lon": 8.6678936
},
{
  "type": "node",
  "id": 2984658517,
  "lat": 52.3593812,
  "lon": 8.6678676
},
{
  "type": "node",
  "id": 3572007064,
  "lat": 52.4373895,
  "lon": 8.5984984
},
{
  "type": "node",
  "id": 3572007071,
  "lat": 52.4379854,
  "lon": 8.5983953
},
{
  "type": "node",
  "id": 6870136343,
  "lat": 52.4376131,
  "lon": 8.5984597
},
{
  "type": "node",
  "id": 2579500772,
  "lat": 52.0258019,
  "lon": 8.9176153
},
{
  "type": "node",
  "id": 2579500782,
  "lat": 52.0258118,
  "lon": 8.9176874
},
{
  "type": "node",
  "id": 2579500784,
  "lat": 52.0258182,
  "lon": 8.9176094
},
{
  "type": "node",
  "id": 2579500796,
  "lat": 52.0258234,
  "lon": 8.9176469
},
{
  "type": "node",
  "id": 2579500810,
  "lat": 52.0258403,
  "lon": 8.9175014
},
{
  "type": "node",
  "id": 2579500812,
  "lat": 52.0258412,
  "lon": 8.9175079
},
{
  "type": "node",
  "id": 2579500858,
  "lat": 52.0258838,
  "lon": 8.9174925
},
{
  "type": "node",
  "id": 2579500862,
  "lat": 52.0258930,
  "lon": 8.9175600
},
{
  "type": "node",
  "id": 2579500869,
  "lat": 52.0258963,
  "lon": 8.9175850
},
{
  "type": "node",
  "id": 2579500873,
  "lat": 52.0259010,
  "lon": 8.9176189
},
{
  "type": "node",
  "id": 2579500922,
  "lat": 52.0259259,
  "lon": 8.9174885
},
{
  "type": "node",
  "id": 2579500931,
  "lat": 52.0259336,
  "lon": 8.9175453
},
{
  "type": "node",
  "id": 2579500956,
  "lat": 52.0259370,
  "lon": 8.9175702
},
{
  "type": "node",
  "id": 2579500982,
  "lat": 52.0259449,
  "lon": 8.9176271
},
{
  "type": "node",
  "id": 2579501103,
  "lat": 52.0260115,
  "lon": 8.9174581
},
{
  "type": "node",
  "id": 2579501118,
  "lat": 52.0260303,
  "lon": 8.9175968
},
{
  "type": "node",
  "id": 2707228759,
  "lat": 52.0258591,
  "lon": 8.9176340
},
{
  "type": "node",
  "id": 2625169803,
  "lat": 52.1658826,
  "lon": 8.8592787
},
{
  "type": "node",
  "id": 2625169831,
  "lat": 52.1659068,
  "lon": 8.8592393
},
{
  "type": "node",
  "id": 2625169834,
  "lat": 52.1659079,
  "lon": 8.8592412
},
{
  "type": "node",
  "id": 2625169836,
  "lat": 52.1659092,
  "lon": 8.8593484
},
{
  "type": "node",
  "id": 2625169864,
  "lat": 52.1659165,
  "lon": 8.8593372
},
{
  "type": "node",
  "id": 2625169896,
  "lat": 52.1659323,
  "lon": 8.8593916
},
{
  "type": "node",
  "id": 2625169935,
  "lat": 52.1659654,
  "lon": 8.8593405
},
{
  "type": "node",
  "id": 2625169964,
  "lat": 52.1659823,
  "lon": 8.8593697
},
{
  "type": "node",
  "id": 2625170060,
  "lat": 52.1660363,
  "lon": 8.8590423
},
{
  "type": "node",
  "id": 2625170096,
  "lat": 52.1660575,
  "lon": 8.8590980
},
{
  "type": "node",
  "id": 2625170111,
  "lat": 52.1660634,
  "lon": 8.8592466
},
{
  "type": "node",
  "id": 2625170113,
  "lat": 52.1660641,
  "lon": 8.8590883
},
{
  "type": "node",
  "id": 2625170170,
  "lat": 52.1661057,
  "lon": 8.8591821
},
{
  "type": "node",
  "id": 959449449,
  "lat": 52.2161213,
  "lon": 8.8256915
},
{
  "type": "node",
  "id": 959449481,
  "lat": 52.2161658,
  "lon": 8.8253340
},
{
  "type": "node",
  "id": 959449596,
  "lat": 52.2159914,
  "lon": 8.8253799
},
{
  "type": "node",
  "id": 959449655,
  "lat": 52.2161069,
  "lon": 8.8255463
},
{
  "type": "node",
  "id": 959450092,
  "lat": 52.2160247,
  "lon": 8.8257170
},
{
  "type": "node",
  "id": 959450172,
  "lat": 52.2161847,
  "lon": 8.8255258
},
{
  "type": "node",
  "id": 5641447491,
  "lat": 52.1614039,
  "lon": 9.1079262
},
{
  "type": "node",
  "id": 5641447492,
  "lat": 52.1614072,
  "lon": 9.1080523
},
{
  "type": "node",
  "id": 5641447493,
  "lat": 52.1615109,
  "lon": 9.1080442
},
{
  "type": "node",
  "id": 5641447494,
  "lat": 52.1615076,
  "lon": 9.1079208
},
{
  "type": "node",
  "id": 428734863,
  "lat": 52.2298497,
  "lon": 9.0406259
},
{
  "type": "node",
  "id": 428734864,
  "lat": 52.2298935,
  "lon": 9.0408920
},
{
  "type": "node",
  "id": 428734865,
  "lat": 52.2295007,
  "lon": 9.0410678
},
{
  "type": "node",
  "id": 428734867,
  "lat": 52.2293966,
  "lon": 9.0409037
},
{
  "type": "node",
  "id": 428734868,
  "lat": 52.2293450,
  "lon": 9.0405163
},
{
  "type": "node",
  "id": 428734869,
  "lat": 52.2294612,
  "lon": 9.0404725
},
{
  "type": "node",
  "id": 1014548045,
  "lat": 52.2294998,
  "lon": 9.0407801
},
{
  "type": "node",
  "id": 1014548200,
  "lat": 52.2294690,
  "lon": 9.0408788
},
{
  "type": "node",
  "id": 441398732,
  "lat": 52.1846048,
  "lon": 9.0773435
},
{
  "type": "node",
  "id": 441398733,
  "lat": 52.1847643,
  "lon": 9.0774219
},
{
  "type": "node",
  "id": 441398734,
  "lat": 52.1847995,
  "lon": 9.0772645
},
{
  "type": "node",
  "id": 441398738,
  "lat": 52.1846307,
  "lon": 9.0771917
},
{
  "type": "node",
  "id": 4210530256,
  "lat": 52.1848740,
  "lon": 9.0773610
},
{
  "type": "node",
  "id": 4210530257,
  "lat": 52.1848575,
  "lon": 9.0772132
},
{
  "type": "node",
  "id": 4210530258,
  "lat": 52.1848805,
  "lon": 9.0772871
},
{
  "type": "node",
  "id": 4210530264,
  "lat": 52.1848176,
  "lon": 9.0772646
},
{
  "type": "node",
  "id": 5375160103,
  "lat": 52.1848028,
  "lon": 9.0773956
},
{
  "type": "node",
  "id": 5375160104,
  "lat": 52.1848203,
  "lon": 9.0774823
},
{
  "type": "node",
  "id": 5375160105,
  "lat": 52.1848042,
  "lon": 9.0774352
},
{
  "type": "node",
  "id": 5375160106,
  "lat": 52.1848464,
  "lon": 9.0774644
},
{
  "type": "node",
  "id": 5375160107,
  "lat": 52.1848531,
  "lon": 9.0774392
},
{
  "type": "node",
  "id": 450893540,
  "lat": 52.2634232,
  "lon": 8.8401730
},
{
  "type": "node",
  "id": 451670525,
  "lat": 52.2635741,
  "lon": 8.8402137
},
{
  "type": "node",
  "id": 451670527,
  "lat": 52.2636123,
  "lon": 8.8398011
},
{
  "type": "node",
  "id": 451670528,
  "lat": 52.2632100,
  "lon": 8.8397014
},
{
  "type": "node",
  "id": 451670529,
  "lat": 52.2631761,
  "lon": 8.8400668
},
{
  "type": "node",
  "id": 3565455054,
  "lat": 52.2634281,
  "lon": 8.8401292
},
{
  "type": "node",
  "id": 420786855,
  "lat": 52.2840298,
  "lon": 8.9087553
},
{
  "type": "node",
  "id": 420786856,
  "lat": 52.2831674,
  "lon": 8.9090328
},
{
  "type": "node",
  "id": 420786857,
  "lat": 52.2831326,
  "lon": 8.9087446
},
{
  "type": "node",
  "id": 420786858,
  "lat": 52.2839950,
  "lon": 8.9084669
},
{
  "type": "node",
  "id": 2516698555,
  "lat": 52.2832761,
  "lon": 8.9089888
},
{
  "type": "node",
  "id": 2516698556,
  "lat": 52.2832771,
  "lon": 8.9089974
},
{
  "type": "node",
  "id": 2516698557,
  "lat": 52.2835111,
  "lon": 8.9089131
},
{
  "type": "node",
  "id": 2516698558,
  "lat": 52.2835121,
  "lon": 8.9089220
},
{
  "type": "node",
  "id": 2516698559,
  "lat": 52.2836815,
  "lon": 8.9088590
},
{
  "type": "node",
  "id": 2516698563,
  "lat": 52.2836825,
  "lon": 8.9088671
},
{
  "type": "node",
  "id": 2516698572,
  "lat": 52.2839172,
  "lon": 8.9087831
},
{
  "type": "node",
  "id": 2516698583,
  "lat": 52.2839182,
  "lon": 8.9087913
},
{
  "type": "node",
  "id": 498289217,
  "lat": 52.3774302,
  "lon": 8.9700202
},
{
  "type": "node",
  "id": 4407061734,
  "lat": 52.3773829,
  "lon": 8.9699042
},
{
  "type": "node",
  "id": 4407061739,
  "lat": 52.3774411,
  "lon": 8.9698424
},
{
  "type": "node",
  "id": 4407061743,
  "lat": 52.3774881,
  "lon": 8.9699579
},
{
  "type": "node",
  "id": 1098331418,
  "lat": 52.2587347,
  "lon": 9.0436575
},
{
  "type": "node",
  "id": 1098331420,
  "lat": 52.2592413,
  "lon": 9.0433737
},
{
  "type": "node",
  "id": 1098331437,
  "lat": 52.2589128,
  "lon": 9.0435139
},
{
  "type": "node",
  "id": 1098331452,
  "lat": 52.2587423,
  "lon": 9.0433673
},
{
  "type": "node",
  "id": 1098331454,
  "lat": 52.2593221,
  "lon": 9.0435174
},
{
  "type": "node",
  "id": 1098331472,
  "lat": 52.2586448,
  "lon": 9.0434277
},
{
  "type": "node",
  "id": 1098331513,
  "lat": 52.2587159,
  "lon": 9.0436443
},
{
  "type": "node",
  "id": 1098331538,
  "lat": 52.2587378,
  "lon": 9.0436879
},
{
  "type": "node",
  "id": 1098331540,
  "lat": 52.2592655,
  "lon": 9.0433515
},
{
  "type": "node",
  "id": 1098331550,
  "lat": 52.2586661,
  "lon": 9.0433893
},
{
  "type": "node",
  "id": 1098331559,
  "lat": 52.2591997,
  "lon": 9.0432520
},
{
  "type": "node",
  "id": 1098331567,
  "lat": 52.2587569,
  "lon": 9.0437337
},
{
  "type": "node",
  "id": 1098331568,
  "lat": 52.2588353,
  "lon": 9.0436622
},
{
  "type": "node",
  "id": 1098331574,
  "lat": 52.2586551,
  "lon": 9.0436728
},
{
  "type": "node",
  "id": 1098331584,
  "lat": 52.2585506,
  "lon": 9.0432904
},
{
  "type": "node",
  "id": 1098331586,
  "lat": 52.2585626,
  "lon": 9.0439111
},
{
  "type": "node",
  "id": 1098331594,
  "lat": 52.2588230,
  "lon": 9.0432281
},
{
  "type": "node",
  "id": 1098331604,
  "lat": 52.2587020,
  "lon": 9.0436640
},
{
  "type": "node",
  "id": 5100507324,
  "lat": 52.2591024,
  "lon": 9.0437243
},
{
  "type": "node",
  "id": 5100507325,
  "lat": 52.2588644,
  "lon": 9.0439381
},
{
  "type": "node",
  "id": 5100507499,
  "lat": 52.2592733,
  "lon": 9.0435625
},
{
  "type": "node",
  "id": 1098331481,
  "lat": 52.2586406,
  "lon": 9.0441391
},
{
  "type": "node",
  "id": 3643277200,
  "lat": 52.2612745,
  "lon": 9.0461880
},
{
  "type": "node",
  "id": 4443377617,
  "lat": 52.2614423,
  "lon": 9.0462312
},
{
  "type": "node",
  "id": 4443377618,
  "lat": 52.2614299,
  "lon": 9.0463795
},
{
  "type": "node",
  "id": 4443377619,
  "lat": 52.2614840,
  "lon": 9.0463917
},
{
  "type": "node",
  "id": 4443377620,
  "lat": 52.2614604,
  "lon": 9.0466464
},
{
  "type": "node",
  "id": 4443377621,
  "lat": 52.2613878,
  "lon": 9.0466286
},
{
  "type": "node",
  "id": 4443377622,
  "lat": 52.2613721,
  "lon": 9.0467848
},
{
  "type": "node",
  "id": 4443377623,
  "lat": 52.2614011,
  "lon": 9.0467947
},
{
  "type": "node",
  "id": 4443377624,
  "lat": 52.2614084,
  "lon": 9.0467413
},
{
  "type": "node",
  "id": 4443377625,
  "lat": 52.2614713,
  "lon": 9.0467630
},
{
  "type": "node",
  "id": 4443377626,
  "lat": 52.2614665,
  "lon": 9.0468125
},
{
  "type": "node",
  "id": 4443377627,
  "lat": 52.2615125,
  "lon": 9.0468283
},
{
  "type": "node",
  "id": 4443377628,
  "lat": 52.2614725,
  "lon": 9.0472553
},
{
  "type": "node",
  "id": 4443377629,
  "lat": 52.2616238,
  "lon": 9.0472988
},
{
  "type": "node",
  "id": 4443377630,
  "lat": 52.2616141,
  "lon": 9.0474096
},
{
  "type": "node",
  "id": 4443377633,
  "lat": 52.2615754,
  "lon": 9.0476350
},
{
  "type": "node",
  "id": 4443377634,
  "lat": 52.2615815,
  "lon": 9.0475895
},
{
  "type": "node",
  "id": 4443377635,
  "lat": 52.2613527,
  "lon": 9.0475143
},
{
  "type": "node",
  "id": 4443377636,
  "lat": 52.2613382,
  "lon": 9.0476607
},
{
  "type": "node",
  "id": 4443377637,
  "lat": 52.2612293,
  "lon": 9.0476251
},
{
  "type": "node",
  "id": 4443377638,
  "lat": 52.2612366,
  "lon": 9.0475697
},
{
  "type": "node",
  "id": 4443377639,
  "lat": 52.2612099,
  "lon": 9.0475598
},
{
  "type": "node",
  "id": 4443377640,
  "lat": 52.2612220,
  "lon": 9.0474669
},
{
  "type": "node",
  "id": 4443377641,
  "lat": 52.2611983,
  "lon": 9.0474587
},
{
  "type": "node",
  "id": 4443377642,
  "lat": 52.2612281,
  "lon": 9.0472099
},
{
  "type": "node",
  "id": 4443377643,
  "lat": 52.2613213,
  "lon": 9.0472395
},
{
  "type": "node",
  "id": 4443377644,
  "lat": 52.2613455,
  "lon": 9.0469805
},
{
  "type": "node",
  "id": 4443377645,
  "lat": 52.2613128,
  "lon": 9.0469687
},
{
  "type": "node",
  "id": 4443377646,
  "lat": 52.2613467,
  "lon": 9.0466365
},
{
  "type": "node",
  "id": 4443377647,
  "lat": 52.2612983,
  "lon": 9.0466207
},
{
  "type": "node",
  "id": 4443377648,
  "lat": 52.2613022,
  "lon": 9.0465804
},
{
  "type": "node",
  "id": 4443377649,
  "lat": 52.2612520,
  "lon": 9.0465674
},
{
  "type": "node",
  "id": 4443377650,
  "lat": 52.2612668,
  "lon": 9.0464289
},
{
  "type": "node",
  "id": 4443377651,
  "lat": 52.2612523,
  "lon": 9.0464230
},
{
  "type": "node",
  "id": 4443377700,
  "lat": 52.2613406,
  "lon": 9.0476368
},
{
  "type": "node",
  "id": 4453483694,
  "lat": 52.2602409,
  "lon": 9.0476491
},
{
  "type": "node",
  "id": 4453483695,
  "lat": 52.2600425,
  "lon": 9.0476250
},
{
  "type": "node",
  "id": 4453483696,
  "lat": 52.2600513,
  "lon": 9.0474319
},
{
  "type": "node",
  "id": 4453483697,
  "lat": 52.2602496,
  "lon": 9.0474560
},
{
  "type": "node",
  "id": 5375334835,
  "lat": 52.2613306,
  "lon": 9.0466312
},
{
  "type": "node",
  "id": 5375356995,
  "lat": 52.2601677,
  "lon": 9.0476402
},
{
  "type": "node",
  "id": 4443377631,
  "lat": 52.2617523,
  "lon": 9.0474495
},
{
  "type": "node",
  "id": 4443377632,
  "lat": 52.2617252,
  "lon": 9.0476840
},
{
  "type": "node",
  "id": 4443377688,
  "lat": 52.2617047,
  "lon": 9.0476780
},
{
  "type": "node",
  "id": 5908864857,
  "lat": 52.2704481,
  "lon": 9.1277354
},
{
  "type": "node",
  "id": 5908864858,
  "lat": 52.2704246,
  "lon": 9.1280838
},
{
  "type": "node",
  "id": 5908864859,
  "lat": 52.2703030,
  "lon": 9.1280619
},
{
  "type": "node",
  "id": 5908864860,
  "lat": 52.2703265,
  "lon": 9.1277135
},
{
  "type": "node",
  "id": 2565149503,
  "lat": 52.2053357,
  "lon": 9.3909330
},
{
  "type": "node",
  "id": 2565149507,
  "lat": 52.2054104,
  "lon": 9.3912174
},
{
  "type": "node",
  "id": 2565149509,
  "lat": 52.2054527,
  "lon": 9.3911591
},
{
  "type": "node",
  "id": 2565149510,
  "lat": 52.2054858,
  "lon": 9.3904615
},
{
  "type": "node",
  "id": 2565149511,
  "lat": 52.2054912,
  "lon": 9.3903122
},
{
  "type": "node",
  "id": 2565149512,
  "lat": 52.2054926,
  "lon": 9.3910398
},
{
  "type": "node",
  "id": 2565149513,
  "lat": 52.2055038,
  "lon": 9.3907016
},
{
  "type": "node",
  "id": 2565149514,
  "lat": 52.2055341,
  "lon": 9.3903950
},
{
  "type": "node",
  "id": 2565149515,
  "lat": 52.2055391,
  "lon": 9.3911297
},
{
  "type": "node",
  "id": 2565149517,
  "lat": 52.2056013,
  "lon": 9.3908901
},
{
  "type": "node",
  "id": 2565149518,
  "lat": 52.2056433,
  "lon": 9.3907660
},
{
  "type": "node",
  "id": 2565149520,
  "lat": 52.2057038,
  "lon": 9.3900195
},
{
  "type": "node",
  "id": 2565149521,
  "lat": 52.2057912,
  "lon": 9.3900945
},
{
  "type": "node",
  "id": 2565149523,
  "lat": 52.2058330,
  "lon": 9.3905048
},
{
  "type": "node",
  "id": 2565149525,
  "lat": 52.2058651,
  "lon": 9.3897973
},
{
  "type": "node",
  "id": 2565149526,
  "lat": 52.2058995,
  "lon": 9.3906333
},
{
  "type": "node",
  "id": 2565149528,
  "lat": 52.2059242,
  "lon": 9.3899114
},
{
  "type": "node",
  "id": 2565149530,
  "lat": 52.2061052,
  "lon": 9.3907016
},
{
  "type": "node",
  "id": 4986780955,
  "lat": 52.2077074,
  "lon": 9.3911152
},
{
  "type": "node",
  "id": 4986780956,
  "lat": 52.2076257,
  "lon": 9.3909886
},
{
  "type": "node",
  "id": 4986780957,
  "lat": 52.2078146,
  "lon": 9.3906641
},
{
  "type": "node",
  "id": 4986780958,
  "lat": 52.2078963,
  "lon": 9.3907907
},
{
  "type": "node",
  "id": 4986780959,
  "lat": 52.2076665,
  "lon": 9.3910519
},
{
  "type": "node",
  "id": 4986780961,
  "lat": 52.2077281,
  "lon": 9.3908127
},
{
  "type": "node",
  "id": 4986780962,
  "lat": 52.2078064,
  "lon": 9.3906781
},
{
  "type": "node",
  "id": 2565149516,
  "lat": 52.2055436,
  "lon": 9.3914750
},
{
  "type": "node",
  "id": 2423238511,
  "lat": 52.2747631,
  "lon": 9.3680761
},
{
  "type": "node",
  "id": 2423238514,
  "lat": 52.2747373,
  "lon": 9.3679140
},
{
  "type": "node",
  "id": 2423238516,
  "lat": 52.2748687,
  "lon": 9.3678582
},
{
  "type": "node",
  "id": 2423238537,
  "lat": 52.2748944,
  "lon": 9.3680203
},
{
  "type": "node",
  "id": 5988151992,
  "lat": 52.2748809,
  "lon": 9.3679352
},
{
  "type": "node",
  "id": 5988151993,
  "lat": 52.2748921,
  "lon": 9.3680058
},
{
  "type": "node",
  "id": 5988151994,
  "lat": 52.2749647,
  "lon": 9.3679491
},
{
  "type": "node",
  "id": 5988151995,
  "lat": 52.2749458,
  "lon": 9.3678845
},
{
  "type": "node",
  "id": 2421922517,
  "lat": 52.2359768,
  "lon": 9.4106404
},
{
  "type": "node",
  "id": 2421922550,
  "lat": 52.2358107,
  "lon": 9.4106660
},
{
  "type": "node",
  "id": 2421922570,
  "lat": 52.2357739,
  "lon": 9.4100307
},
{
  "type": "node",
  "id": 2421922579,
  "lat": 52.2359400,
  "lon": 9.4100051
},
{
  "type": "node",
  "id": 3016078115,
  "lat": 52.3322574,
  "lon": 9.3741661
},
{
  "type": "node",
  "id": 3016078116,
  "lat": 52.3321527,
  "lon": 9.3741580
},
{
  "type": "node",
  "id": 3016078117,
  "lat": 52.3321489,
  "lon": 9.3742887
},
{
  "type": "node",
  "id": 3016078118,
  "lat": 52.3322536,
  "lon": 9.3742967
},
{
  "type": "node",
  "id": 1338055567,
  "lat": 52.4425648,
  "lon": 9.2575231
},
{
  "type": "node",
  "id": 1338055591,
  "lat": 52.4427653,
  "lon": 9.2574517
},
{
  "type": "node",
  "id": 1338055705,
  "lat": 52.4427392,
  "lon": 9.2572545
},
{
  "type": "node",
  "id": 1338055814,
  "lat": 52.4427063,
  "lon": 9.2572662
},
{
  "type": "node",
  "id": 4796665873,
  "lat": 52.4425387,
  "lon": 9.2573259
},
{
  "type": "node",
  "id": 5721196088,
  "lat": 52.5480353,
  "lon": 8.6756157
},
{
  "type": "node",
  "id": 5721196648,
  "lat": 52.5480384,
  "lon": 8.6753110
},
{
  "type": "node",
  "id": 5721196649,
  "lat": 52.5479736,
  "lon": 8.6753430
},
{
  "type": "node",
  "id": 5721196650,
  "lat": 52.5479611,
  "lon": 8.6753373
},
{
  "type": "node",
  "id": 5721196651,
  "lat": 52.5479480,
  "lon": 8.6753024
},
{
  "type": "node",
  "id": 5721196653,
  "lat": 52.5479655,
  "lon": 8.6752847
},
{
  "type": "node",
  "id": 5721196655,
  "lat": 52.5479064,
  "lon": 8.6751279
},
{
  "type": "node",
  "id": 5721196657,
  "lat": 52.5478961,
  "lon": 8.6751091
},
{
  "type": "node",
  "id": 5721196659,
  "lat": 52.5478749,
  "lon": 8.6750900
},
{
  "type": "node",
  "id": 5721196660,
  "lat": 52.5478520,
  "lon": 8.6750861
},
{
  "type": "node",
  "id": 5721196661,
  "lat": 52.5478288,
  "lon": 8.6750976
},
{
  "type": "node",
  "id": 5721196662,
  "lat": 52.5478094,
  "lon": 8.6751250
},
{
  "type": "node",
  "id": 5721196663,
  "lat": 52.5478004,
  "lon": 8.6751535
},
{
  "type": "node",
  "id": 5721196664,
  "lat": 52.5477977,
  "lon": 8.6751773
},
{
  "type": "node",
  "id": 5721196665,
  "lat": 52.5477993,
  "lon": 8.6752069
},
{
  "type": "node",
  "id": 5721196666,
  "lat": 52.5478049,
  "lon": 8.6752305
},
{
  "type": "node",
  "id": 5721196667,
  "lat": 52.5478641,
  "lon": 8.6753874
},
{
  "type": "node",
  "id": 5721196668,
  "lat": 52.5478816,
  "lon": 8.6753697
},
{
  "type": "node",
  "id": 5721196669,
  "lat": 52.5478947,
  "lon": 8.6754044
},
{
  "type": "node",
  "id": 5721196670,
  "lat": 52.5478925,
  "lon": 8.6754261
},
{
  "type": "node",
  "id": 5721196671,
  "lat": 52.5478464,
  "lon": 8.6755066
},
{
  "type": "node",
  "id": 5721196672,
  "lat": 52.5478386,
  "lon": 8.6754944
},
{
  "type": "node",
  "id": 5721196673,
  "lat": 52.5477144,
  "lon": 8.6757107
},
{
  "type": "node",
  "id": 5721196674,
  "lat": 52.5477998,
  "lon": 8.6758425
},
{
  "type": "node",
  "id": 5721196675,
  "lat": 52.5479239,
  "lon": 8.6756262
},
{
  "type": "node",
  "id": 5721196676,
  "lat": 52.5479179,
  "lon": 8.6756170
},
{
  "type": "node",
  "id": 5721196678,
  "lat": 52.5479379,
  "lon": 8.6755820
},
{
  "type": "node",
  "id": 5721196680,
  "lat": 52.5479561,
  "lon": 8.6756210
},
{
  "type": "node",
  "id": 5721196682,
  "lat": 52.5479811,
  "lon": 8.6756410
},
{
  "type": "node",
  "id": 5721196684,
  "lat": 52.5480104,
  "lon": 8.6756395
},
{
  "type": "node",
  "id": 5721196685,
  "lat": 52.5480488,
  "lon": 8.6755840
},
{
  "type": "node",
  "id": 5721196686,
  "lat": 52.5480533,
  "lon": 8.6755505
},
{
  "type": "node",
  "id": 5721196687,
  "lat": 52.5480503,
  "lon": 8.6755144
},
{
  "type": "node",
  "id": 5721196688,
  "lat": 52.5480385,
  "lon": 8.6754789
},
{
  "type": "node",
  "id": 5721196689,
  "lat": 52.5480666,
  "lon": 8.6754650
},
{
  "type": "node",
  "id": 5721196691,
  "lat": 52.5480690,
  "lon": 8.6754782
},
{
  "type": "node",
  "id": 5721196692,
  "lat": 52.5481179,
  "lon": 8.6754541
},
{
  "type": "node",
  "id": 5721196693,
  "lat": 52.5481153,
  "lon": 8.6754400
},
{
  "type": "node",
  "id": 5721196694,
  "lat": 52.5481904,
  "lon": 8.6754030
},
{
  "type": "node",
  "id": 5721196696,
  "lat": 52.5481930,
  "lon": 8.6754171
},
{
  "type": "node",
  "id": 5721196698,
  "lat": 52.5482415,
  "lon": 8.6753931
},
{
  "type": "node",
  "id": 5721196700,
  "lat": 52.5482077,
  "lon": 8.6752091
},
{
  "type": "node",
  "id": 5721196702,
  "lat": 52.5480353,
  "lon": 8.6752943
},
{
  "type": "node",
  "id": 2450888782,
  "lat": 52.4746816,
  "lon": 9.2297067
},
{
  "type": "node",
  "id": 2450888784,
  "lat": 52.4746532,
  "lon": 9.2299651
},
{
  "type": "node",
  "id": 2450888787,
  "lat": 52.4745591,
  "lon": 9.2299372
},
{
  "type": "node",
  "id": 2450888790,
  "lat": 52.4745875,
  "lon": 9.2296788
},
{
  "type": "way",
  "id": 524003000,
  "nodes": [
    1098331454,
    1098331540,
    1098331420,
    1098331559,
    1098331437,
    1098331594,
    1098331584,
    1098331586,
    1098331481,
    5100507325,
    5100507324,
    5100507499,
    1098331454
  ]
},
{
  "type": "way",
  "id": 525662785,
  "nodes": [
    1098331568,
    1098331567,
    1098331538,
    1098331418,
    1098331513,
    1098331604,
    1098331574,
    1098331472,
    1098331550,
    1098331452,
    1098331568
  ]
}

  ]
}
