{
  "version": 0.6,
  "generator": "Overpass API 0.7.55.1011 6c2efc30",
  "osm3s": {
    "timestamp_osm_base": "2020-02-14T09:44:02Z",
    "copyright": "The data included in this document is from www.openstreetmap.org. The data is made available under ODbL."
  },
  "elements": [

{
  "type": "node",
  "id": 20834051,
  "lat": 52.6594502,
  "lon": -1.1250805,
  "tags": {
    "name": "Belgrave Hall Museum",
    "tourism": "museum",
    "wikidata": "Q4882681"
  }
},
{
  "type": "node",
  "id": 256506319,
  "lat": 52.7997811,
  "lon": -1.4559112,
  "tags": {
    "addr:postcode": "DE73 7JF",
    "name": "Calke Abbey",
    "operator": "National Trust",
    "tourism": "museum",
    "website": "https://www.nationaltrust.org.uk/calke-abbey"
  }
},
{
  "type": "node",
  "id": 385581413,
  "lat": 52.4998532,
  "lon": -0.9824349,
  "tags": {
    "name": "Foxton Inclined Plane Trust Museum",
    "tourism": "museum"
  }
},
{
  "type": "node",
  "id": 773712764,
  "lat": 52.7646417,
  "lon": -0.8808856,
  "tags": {
    "addr:postcode": "LE13 1RB",
    "addr:street": "Thorpe End",
    "name": "Melton Carnegie Museum",
    "tourism": "museum",
    "website": "http://www.leics.gov.uk/meltonmuseum",
    "wheelchair": "yes",
    "wikidata": "Q6813780"
  }
},
{
  "type": "node",
  "id": 986706944,
  "lat": 52.7325456,
  "lon": -1.1466070,
  "tags": {
    "tourism": "museum"
  }
},
{
  "type": "node",
  "id": 1465522045,
  "lat": 52.7705794,
  "lon": -1.2105233,
  "tags": {
    "name": "Charnwood Museum",
    "tourism": "museum",
    "wheelchair": "yes",
    "wikidata": "Q5086581"
  }
},
{
  "type": "node",
  "id": 2720034154,
  "lat": 52.8911210,
  "lon": -1.1517718,
  "tags": {
    "addr:postcode": "NG11 6HE",
    "addr:street": "Chapel Street",
    "fhrs:id": "266350",
    "name": "Ruddington Framework Knitters Museum",
    "source": "survey",
    "source:addr": "Food Hygiene Open Data",
    "tourism": "museum",
    "website": "https://www.frameworkknittersmuseum.org.uk/"
  }
},
{
  "type": "node",
  "id": 2868432125,
  "lat": 52.4366902,
  "lon": -1.2084563,
  "tags": {
    "addr:postcode": "LE17 4HX",
    "addr:street": "Main Street",
    "name": "Cotesbach Educational Trust",
    "tourism": "museum",
    "website": "http://cotesbachschoolhouse.org.uk/"
  }
},
{
  "type": "node",
  "id": 2929160455,
  "lat": 52.4787159,
  "lon": -0.9204808,
  "tags": {
    "tourism": "museum"
  }
},
{
  "type": "node",
  "id": 3669369602,
  "lat": 52.8920587,
  "lon": -1.1508094,
  "tags": {
    "name": "The Village Museum",
    "source": "survey",
    "tourism": "museum",
    "website": "http://ruddington-museum.org.uk/"
  }
},
{
  "type": "node",
  "id": 3683815621,
  "lat": 52.3710519,
  "lon": -1.2643459,
  "tags": {
    "addr:city": "Rugby",
    "addr:country": "GB",
    "addr:housenumber": "5",
    "addr:postcode": "CV21 3BY",
    "addr:street": "St Matthews Street",
    "name": "webb ellis museum",
    "source:addr": "interpolation;FHRS Open Data",
    "tourism": "museum"
  }
},
{
  "type": "node",
  "id": 5827481055,
  "lat": 52.7732033,
  "lon": -1.1987972,
  "tags": {
    "addr:city": "Loughborough",
    "addr:country": "GB",
    "addr:postcode": "LE11 1AR",
    "addr:street": "Freehold Street",
    "name": "John Taylor Bellfoundry Museum",
    "opening_hours": "\"appointment only\"",
    "source": "survey",
    "source:addr": "website",
    "tourism": "museum",
    "website": "http://taylorbells.co.uk/visiting/"
  }
},
{
  "type": "node",
  "id": 6813068344,
  "lat": 52.7486605,
  "lon": -1.4703398,
  "tags": {
    "name": "Ashby de la Zouch Museum",
    "tourism": "museum"
  }
},
{
  "type": "way",
  "id": 23303791,
  "nodes": [
    252270912,
    1102740424,
    1102740394,
    1102740408,
    5151981987,
    1102740266,
    1102740392,
    5151981989,
    1102740421,
    1102740410,
    1102740308,
    252270913,
    252270914,
    1102740384,
    1102740335,
    1102740430,
    1102740451,
    1102740398,
    1102740272,
    1102740311,
    1102740435,
    1102740466,
    1102740415,
    1102740443,
    1102740366,
    3537219134,
    252270915,
    1102740297,
    252270912
  ],
  "tags": {
    "building": "arts_centre",
    "museum": "art_gallery",
    "name": "Djanogly Arts Gallery",
    "source:area": "Bing",
    "tourism": "museum"
  }
},
{
  "type": "way",
  "id": 23303792,
  "nodes": [
    252270916,
    1102740277,
    1102740433,
    252270917,
    1102740418,
    1102740346,
    1102740447,
    252394025,
    1102740388,
    1102740275,
    252270918,
    1102740392,
    1102740266,
    1102740302,
    252270920,
    1102740290,
    1102740444,
    252270921,
    1102740315,
    1102740260,
    1102740459,
    1102740403,
    252270916
  ],
  "tags": {
    "building": "arts_centre",
    "name": "Nottingham Museum of archaeology",
    "source:area": "Bing",
    "tourism": "museum"
  }
},
{
  "type": "way",
  "id": 23340072,
  "nodes": [
    3632438840,
    1271117771,
    252733149,
    252733150,
    1271117696,
    1271117678,
    2247707335,
    1271117728,
    1271117759,
    1271117711,
    6171965342,
    3632437788,
    252733151,
    1271035448,
    3632437971,
    1271117673,
    3632438770,
    3632438972,
    3632438889,
    3632438887,
    6171965248,
    3632438865,
    3632438802,
    3632438827,
    2247707364,
    3632438840
  ],
  "tags": {
    "FIXME": "hardstanding, builing(s) and perhaps notable exhibits",
    "addr:locality": "Castle Donington",
    "addr:postcode": "DE74 2PR",
    "addr:street": "Hill Top",
    "fhrs:id": "430236",
    "name": "East Midlands Aeropark",
    "source:addr:postcode": "OS Opendata Codepoint",
    "tourism": "museum",
    "website": "http://www.eastmidlandsaeropark.org",
    "wikipedia": "en:East Midlands Aeropark"
  }
},
{
  "type": "way",
  "id": 29421953,
  "nodes": [
    982577206,
    1430517958,
    982577238,
    1430501212,
    1430501253,
    982577192,
    982577239,
    324255693,
    982577712,
    982577699,
    982577697,
    324261701,
    982577696,
    982603285,
    982603282,
    324261703,
    324261705,
    982577206
  ],
  "tags": {
    "addr:postcode": "NG11 6NX",
    "addr:street": "Mere Way",
    "name": "Nottinghamshire Transport Heritage Centre",
    "source:addr": "FHRS Open Data",
    "tourism": "museum",
    "website": "http://www.gcrn.co.uk/",
    "wikidata": "Q5598945",
    "wikipedia": "en:Great Central Railway (Nottingham)"
  }
},
{
  "type": "way",
  "id": 58607093,
  "nodes": [
    726223015,
    726223018,
    726223021,
    726223024,
    726223015
  ],
  "tags": {
    "building": "yes",
    "name": "The Old Rectory Museum",
    "opening_hours": "Apr-Oct: Sa 10:00-16:00",
    "source": "Bing",
    "tourism": "museum"
  }
},
{
  "type": "way",
  "id": 89673799,
  "nodes": [
    1039248339,
    1039248340,
    1039248342,
    1039248344,
    6058359976,
    6058359954,
    6058359970,
    6058359944,
    6058359973,
    6058359966,
    1039248339
  ],
  "tags": {
    "building": "yes",
    "name": "New Walk Museum",
    "source": "os_opendata_streetview",
    "tourism": "museum",
    "wikidata": "Q7012302",
    "wikipedia": "en:New Walk Museum"
  }
},
{
  "type": "way",
  "id": 101330070,
  "nodes": [
    1169893232,
    1169893190,
    1169893180,
    1169893647,
    1169893589,
    1169893294,
    1169893622,
    1169893619,
    1169893232
  ],
  "tags": {
    "building": "yes",
    "name": "Rutland County Museum",
    "tourism": "museum",
    "wikidata": "Q15273877"
  }
},
{
  "type": "way",
  "id": 105957321,
  "nodes": [
    1220022633,
    1220022616,
    1220022609,
    3914951330,
    1220022582,
    1220022633
  ],
  "tags": {
    "HE_ref": "1088364",
    "addr:postcode": "DE72 2GA",
    "addr:street": "London Road",
    "building": "industrial",
    "listed_status": "Grade II",
    "name": "Shardlow Heritage Centre",
    "source:addr:postcode": "OS Opendata Codepoint",
    "source:listed_status": "Historic England",
    "tourism": "museum"
  }
},
{
  "type": "way",
  "id": 116628619,
  "nodes": [
    1314354515,
    5268858395,
    1314354799,
    5268858385,
    5268858384,
    5268858382,
    5268858381,
    5268858383,
    1314354835,
    1314354472,
    4979768891,
    4979768892,
    5268858387,
    1314354400,
    1314354399,
    1314354515
  ],
  "tags": {
    "addr:housename": "Weir Cottages",
    "addr:postcode": "NG9 1LZ",
    "addr:street": "Canal Side",
    "addr:unit": "2-3",
    "building": "yes",
    "fhrs:id": "997869",
    "name": "Canalside Heritage Centre",
    "note": "Heritage Centre Opened in July 2017",
    "source": "Bing",
    "tourism": "museum",
    "website": "https://canalsideheritagecentre.org.uk/"
  }
},
{
  "type": "way",
  "id": 117060069,
  "nodes": [
    1318717599,
    1318717600,
    1814425286,
    1814425296,
    4163847506,
    1318717597,
    664516421,
    664516414,
    5586847739,
    1818876749,
    1318717599
  ],
  "tags": {
    "building": "yes",
    "name": "Newarke Houses Museum",
    "tourism": "museum",
    "wikidata": "Q4328344"
  }
},
{
  "type": "way",
  "id": 148117471,
  "nodes": [
    1612188290,
    1612188295,
    1612188335,
    1612188459,
    1612188297,
    1612188317,
    1612188256,
    1612188228,
    1612188184,
    1612188126,
    1612188083,
    1612188214,
    1612188093,
    1612188290
  ],
  "tags": {
    "building": "yes",
    "name": "Nuneaton Museum and Art Gallery",
    "source": "survey; Bing",
    "tourism": "museum",
    "wikidata": "Q7069802"
  }
},
{
  "type": "way",
  "id": 210140560,
  "nodes": [
    2202607152,
    2202607019,
    2202607120,
    2202607276,
    2202607255,
    3069843293,
    2202607152
  ],
  "tags": {
    "addr:city": "Leicester",
    "addr:country": "GB",
    "addr:housename": "National Space Centre",
    "addr:postcode": "LE4 5NS",
    "addr:street": "Exploration Drive",
    "name": "National Space Centre",
    "phone": "0845 605 2001",
    "tourism": "museum",
    "website": "https://www.spacecentre.co.uk/",
    "wikidata": "Q3873189",
    "wikipedia": "en:National Space Centre"
  }
},
{
  "type": "way",
  "id": 210813005,
  "nodes": [
    2208526279,
    2208526292,
    2208526255,
    2208526251,
    2208526277,
    2208526275,
    2208526269,
    2208526265,
    2208526253,
    2208526248,
    2208526267,
    2208526263,
    2208526246,
    2208526245,
    2208526250,
    2208526234,
    2208526232,
    2208526243,
    2208526236,
    2208526240,
    2208526238,
    2208526271,
    2208526273,
    2208526279
  ],
  "tags": {
    "addr:postcode": "CV13 0AD",
    "building": "visitor_centre",
    "name": "Bosworth Field Visitor Centre",
    "phone": "+44 1455 290429",
    "tourism": "museum"
  }
},
{
  "type": "way",
  "id": 231328754,
  "nodes": [
    2397218423,
    2397218424,
    2397218425,
    2397218426,
    2397218423
  ],
  "tags": {
    "building": "yes",
    "name": "British Gas Museum",
    "tourism": "museum"
  }
},
{
  "type": "way",
  "id": 231939580,
  "nodes": [
    2402609325,
    2402609317,
    2402609310,
    2402609311,
    2402609319,
    2402609318,
    2402609324,
    2402609325
  ],
  "tags": {
    "building": "yes",
    "name": "Hinckley and District Museum",
    "tourism": "museum"
  }
},
{
  "type": "way",
  "id": 253384540,
  "nodes": [
    2593145871,
    2593145869,
    2593145867,
    2593145870,
    2593145871
  ],
  "tags": {
    "building": "industrial",
    "name": "Moira Furnace",
    "source": "Bing",
    "tourism": "museum",
    "wikidata": "Q6894714"
  }
},
{
  "type": "way",
  "id": 255100146,
  "nodes": [
    2608455478,
    2608455479,
    2608455480,
    2608455464,
    2608455478
  ],
  "tags": {
    "building": "yes",
    "name": "Harrington Aviation Museum",
    "tourism": "museum",
    "website": "https://harringtonmuseum.org.uk/"
  }
},
{
  "type": "way",
  "id": 288207413,
  "nodes": [
    2917579109,
    2917579106,
    4867739024,
    2917579108,
    2917579107,
    2917579103,
    2917579110,
    2917579105,
    2917579104,
    2917579109
  ],
  "tags": {
    "addr:city": "Cottesmore",
    "addr:country": "GB",
    "addr:postcode": "LE15 7FF",
    "addr:street": "Ashwell Road",
    "alt_name": "Rutland Railway Museum",
    "email": "curator@rocks-by-rail.org",
    "name": "Rocks by Rail",
    "source": "visit and brochure",
    "tourism": "museum",
    "website": "http://www.rocks-by-rail.org/",
    "wikidata": "Q7383497"
  }
},
{
  "type": "way",
  "id": 288913261,
  "nodes": [
    2924673514,
    2924673524,
    2924673509,
    2924673529,
    2924673514
  ],
  "tags": {
    "building": "yes",
    "name": "Workshop",
    "tourism": "museum"
  }
},
{
  "type": "way",
  "id": 302717390,
  "nodes": [
    3069843318,
    3069843292,
    3069843297,
    3069843301,
    3069843305,
    3069843286,
    3069843288,
    3069843290,
    3069843307,
    3069843309,
    3069843311,
    3069843313,
    3069843320,
    3069843323,
    3069843325,
    3069843328,
    3069843260,
    3069843261,
    3069843263,
    3069843267,
    3069843318
  ],
  "tags": {
    "long_name": "Abbey Pumping Station Museum of Science & Technology",
    "name": "Abbey Pumping Station",
    "tourism": "museum",
    "wikidata": "Q4664048"
  }
},
{
  "type": "way",
  "id": 315070039,
  "nodes": [
    3211577004,
    3211577005,
    3211576997,
    5438160714,
    5438160710,
    5438160709,
    3211577003,
    3211576999,
    3211577000,
    3211577001,
    3211577004
  ],
  "tags": {
    "name": "Jewry Wall Museum",
    "tourism": "museum"
  }
},
{
  "type": "way",
  "id": 369870588,
  "nodes": [
    3736153546,
    3736153561,
    3736153560,
    3736153562,
    3736153597,
    3736153545,
    3736153568,
    3736153584,
    3736153553,
    3736153548,
    3736153551,
    3736153557,
    3736153570,
    3736153546
  ],
  "tags": {
    "leisure": "park",
    "name": "Donington-le-Heath Manor House",
    "operator": "Leicestershire County Council",
    "source": "local_knowledge",
    "tourism": "museum"
  }
},
{
  "type": "way",
  "id": 378131232,
  "nodes": [
    3815478016,
    3815478019,
    3815478020,
    3815478021,
    3815478022,
    3815478023,
    3815478017,
    3815478016
  ],
  "tags": {
    "building": "yes",
    "name": "Desborough Heritage Centre",
    "tourism": "museum"
  }
},
{
  "type": "way",
  "id": 486668993,
  "nodes": [
    4792463044,
    1196637370,
    1196636641,
    1196636518,
    1270714925,
    4084108353,
    4792463044
  ],
  "tags": {
    "addr:postcode": "DE74 2DA",
    "addr:street": "High Street",
    "building": "yes",
    "name": "Kegworth Museum",
    "source": "survey",
    "source:addr:postcode": "OS Opendata Codepoint",
    "tourism": "museum",
    "website": "https://www.kegworthmuseum.org.uk/"
  }
},
{
  "type": "way",
  "id": 549965751,
  "nodes": [
    5312450662,
    5312450663,
    5312450664,
    5312450665,
    5312450666,
    5312450667,
    5312450668,
    5312450669,
    5312450670,
    5312450671,
    5312450672,
    5312450673,
    5312450674,
    5312450675,
    5312450676,
    5312450677,
    5312450678,
    5312450679,
    5312450680,
    5312450681,
    5312450662
  ],
  "tags": {
    "addr:city": "Swadlincote",
    "addr:housename": "23",
    "addr:postcode": "DE11 9DG",
    "addr:street": "West Street",
    "building": "yes",
    "email": "info@sharpespotterymuseum.org.uk",
    "name": "Sharpe's Pottery Museum",
    "opening_hours": "Mo-Sa 10:00-16:30",
    "phone": "+44 1283222600",
    "tourism": "museum",
    "website": "https://www.sharpespotterymuseum.org.uk/"
  }
},
{
  "type": "way",
  "id": 654964168,
  "nodes": [
    6137021402,
    1296653357,
    6137021403,
    6137021404,
    6184956167,
    6184956165,
    6184956166,
    6184956168,
    6137021405,
    6137021402
  ],
  "tags": {
    "HE_ref": "1100312",
    "addr:housename": "The Stone House",
    "addr:housenumber": "4",
    "addr:locality": "Castle Donington",
    "addr:postcode": "DE74 2JA",
    "addr:street": "Apiary Gate",
    "building": "yes",
    "listed_status": "Grade II",
    "name": "Castle Donington Museum",
    "source:addr": "website",
    "source:listed_status": "Historic England",
    "tourism": "museum",
    "website": "http://www.castledoningtonmuseum.org.uk/"
  }
},
{
  "type": "node",
  "id": 2608455464,
  "lat": 52.4029295,
  "lon": -0.8724937
},
{
  "type": "node",
  "id": 2608455478,
  "lat": 52.4038782,
  "lon": -0.8740141
},
{
  "type": "node",
  "id": 2608455479,
  "lat": 52.4040011,
  "lon": -0.8710802
},
{
  "type": "node",
  "id": 2608455480,
  "lat": 52.4033784,
  "lon": -0.8709834
},
{
  "type": "node",
  "id": 3815478016,
  "lat": 52.4435735,
  "lon": -0.8184998
},
{
  "type": "node",
  "id": 3815478017,
  "lat": 52.4436258,
  "lon": -0.8185849
},
{
  "type": "node",
  "id": 3815478019,
  "lat": 52.4434711,
  "lon": -0.8187032
},
{
  "type": "node",
  "id": 3815478020,
  "lat": 52.4436768,
  "lon": -0.8190452
},
{
  "type": "node",
  "id": 3815478021,
  "lat": 52.4437467,
  "lon": -0.8189267
},
{
  "type": "node",
  "id": 3815478022,
  "lat": 52.4436600,
  "lon": -0.8187836
},
{
  "type": "node",
  "id": 3815478023,
  "lat": 52.4437066,
  "lon": -0.8187059
},
{
  "type": "node",
  "id": 1612188083,
  "lat": 52.5200689,
  "lon": -1.4660379
},
{
  "type": "node",
  "id": 1612188093,
  "lat": 52.5200750,
  "lon": -1.4661572
},
{
  "type": "node",
  "id": 1612188126,
  "lat": 52.5200789,
  "lon": -1.4659850
},
{
  "type": "node",
  "id": 1612188184,
  "lat": 52.5200888,
  "lon": -1.4659330
},
{
  "type": "node",
  "id": 1612188214,
  "lat": 52.5200951,
  "lon": -1.4660514
},
{
  "type": "node",
  "id": 1612188228,
  "lat": 52.5201149,
  "lon": -1.4659464
},
{
  "type": "node",
  "id": 1612188256,
  "lat": 52.5201329,
  "lon": -1.4658519
},
{
  "type": "node",
  "id": 1612188290,
  "lat": 52.5202848,
  "lon": -1.4662649
},
{
  "type": "node",
  "id": 1612188295,
  "lat": 52.5203029,
  "lon": -1.4661696
},
{
  "type": "node",
  "id": 1612188297,
  "lat": 52.5203239,
  "lon": -1.4660597
},
{
  "type": "node",
  "id": 1612188317,
  "lat": 52.5203429,
  "lon": -1.4659597
},
{
  "type": "node",
  "id": 1612188335,
  "lat": 52.5203588,
  "lon": -1.4661983
},
{
  "type": "node",
  "id": 1612188459,
  "lat": 52.5203797,
  "lon": -1.4660883
},
{
  "type": "node",
  "id": 2402609310,
  "lat": 52.5432334,
  "lon": -1.3738346
},
{
  "type": "node",
  "id": 2402609311,
  "lat": 52.5432356,
  "lon": -1.3739274
},
{
  "type": "node",
  "id": 2402609317,
  "lat": 52.5433294,
  "lon": -1.3738285
},
{
  "type": "node",
  "id": 2402609318,
  "lat": 52.5433315,
  "lon": -1.3739171
},
{
  "type": "node",
  "id": 2402609319,
  "lat": 52.5433316,
  "lon": -1.3739213
},
{
  "type": "node",
  "id": 2402609324,
  "lat": 52.5434266,
  "lon": -1.3739221
},
{
  "type": "node",
  "id": 2402609325,
  "lat": 52.5434283,
  "lon": -1.3738337
},
{
  "type": "node",
  "id": 2208526232,
  "lat": 52.5964570,
  "lon": -1.4058393
},
{
  "type": "node",
  "id": 2208526234,
  "lat": 52.5964871,
  "lon": -1.4056985
},
{
  "type": "node",
  "id": 2208526236,
  "lat": 52.5965969,
  "lon": -1.4061071
},
{
  "type": "node",
  "id": 2208526238,
  "lat": 52.5966060,
  "lon": -1.4062145
},
{
  "type": "node",
  "id": 2208526240,
  "lat": 52.5966254,
  "lon": -1.4061236
},
{
  "type": "node",
  "id": 2208526243,
  "lat": 52.5966324,
  "lon": -1.4059408
},
{
  "type": "node",
  "id": 2208526245,
  "lat": 52.5966657,
  "lon": -1.4061644
},
{
  "type": "node",
  "id": 2208526246,
  "lat": 52.5967057,
  "lon": -1.4061876
},
{
  "type": "node",
  "id": 2208526248,
  "lat": 52.5967280,
  "lon": -1.4060188
},
{
  "type": "node",
  "id": 2208526250,
  "lat": 52.5967346,
  "lon": -1.4058417
},
{
  "type": "node",
  "id": 2208526251,
  "lat": 52.5967433,
  "lon": -1.4055165
},
{
  "type": "node",
  "id": 2208526253,
  "lat": 52.5967618,
  "lon": -1.4058608
},
{
  "type": "node",
  "id": 2208526255,
  "lat": 52.5967755,
  "lon": -1.4053658
},
{
  "type": "node",
  "id": 2208526263,
  "lat": 52.5968109,
  "lon": -1.4062485
},
{
  "type": "node",
  "id": 2208526265,
  "lat": 52.5968143,
  "lon": -1.4058911
},
{
  "type": "node",
  "id": 2208526267,
  "lat": 52.5968454,
  "lon": -1.4060868
},
{
  "type": "node",
  "id": 2208526269,
  "lat": 52.5968493,
  "lon": -1.4057273
},
{
  "type": "node",
  "id": 2208526271,
  "lat": 52.5968508,
  "lon": -1.4063562
},
{
  "type": "node",
  "id": 2208526273,
  "lat": 52.5969350,
  "lon": -1.4059621
},
{
  "type": "node",
  "id": 2208526275,
  "lat": 52.5969479,
  "lon": -1.4057843
},
{
  "type": "node",
  "id": 2208526277,
  "lat": 52.5969763,
  "lon": -1.4056513
},
{
  "type": "node",
  "id": 2208526279,
  "lat": 52.5970009,
  "lon": -1.4060002
},
{
  "type": "node",
  "id": 2208526292,
  "lat": 52.5970967,
  "lon": -1.4055516
},
{
  "type": "node",
  "id": 2593145867,
  "lat": 52.7328586,
  "lon": -1.5357895
},
{
  "type": "node",
  "id": 2593145869,
  "lat": 52.7329269,
  "lon": -1.5357032
},
{
  "type": "node",
  "id": 2593145870,
  "lat": 52.7329960,
  "lon": -1.5360857
},
{
  "type": "node",
  "id": 2593145871,
  "lat": 52.7330642,
  "lon": -1.5359993
},
{
  "type": "node",
  "id": 5312450667,
  "lat": 52.7728138,
  "lon": -1.5593090
},
{
  "type": "node",
  "id": 5312450668,
  "lat": 52.7728166,
  "lon": -1.5592902
},
{
  "type": "node",
  "id": 5312450669,
  "lat": 52.7728052,
  "lon": -1.5592835
},
{
  "type": "node",
  "id": 5312450670,
  "lat": 52.7727955,
  "lon": -1.5592661
},
{
  "type": "node",
  "id": 5312450671,
  "lat": 52.7727882,
  "lon": -1.5592473
},
{
  "type": "node",
  "id": 5312450672,
  "lat": 52.7727850,
  "lon": -1.5592326
},
{
  "type": "node",
  "id": 5312450673,
  "lat": 52.7726633,
  "lon": -1.5591709
},
{
  "type": "node",
  "id": 5312450674,
  "lat": 52.7726357,
  "lon": -1.5592782
},
{
  "type": "node",
  "id": 5312450675,
  "lat": 52.7725748,
  "lon": -1.5592460
},
{
  "type": "node",
  "id": 5312450676,
  "lat": 52.7726284,
  "lon": -1.5589778
},
{
  "type": "node",
  "id": 5312450677,
  "lat": 52.7727655,
  "lon": -1.5590515
},
{
  "type": "node",
  "id": 5312450678,
  "lat": 52.7727963,
  "lon": -1.5589107
},
{
  "type": "node",
  "id": 5312450679,
  "lat": 52.7728539,
  "lon": -1.5589483
},
{
  "type": "node",
  "id": 5312450680,
  "lat": 52.7728158,
  "lon": -1.5591360
},
{
  "type": "node",
  "id": 5312450662,
  "lat": 52.7729452,
  "lon": -1.5590649
},
{
  "type": "node",
  "id": 5312450663,
  "lat": 52.7729322,
  "lon": -1.5590193
},
{
  "type": "node",
  "id": 5312450664,
  "lat": 52.7729679,
  "lon": -1.5589845
},
{
  "type": "node",
  "id": 5312450665,
  "lat": 52.7730182,
  "lon": -1.5590220
},
{
  "type": "node",
  "id": 5312450666,
  "lat": 52.7729127,
  "lon": -1.5593761
},
{
  "type": "node",
  "id": 5312450681,
  "lat": 52.7729067,
  "lon": -1.5592004
},
{
  "type": "node",
  "id": 3736153545,
  "lat": 52.7105301,
  "lon": -1.3789372
},
{
  "type": "node",
  "id": 3736153546,
  "lat": 52.7093406,
  "lon": -1.3796855
},
{
  "type": "node",
  "id": 3736153548,
  "lat": 52.7100930,
  "lon": -1.3800530
},
{
  "type": "node",
  "id": 3736153551,
  "lat": 52.7097939,
  "lon": -1.3799253
},
{
  "type": "node",
  "id": 3736153553,
  "lat": 52.7101840,
  "lon": -1.3799779
},
{
  "type": "node",
  "id": 3736153557,
  "lat": 52.7095339,
  "lon": -1.3798143
},
{
  "type": "node",
  "id": 3736153560,
  "lat": 52.7096948,
  "lon": -1.3787762
},
{
  "type": "node",
  "id": 3736153561,
  "lat": 52.7096250,
  "lon": -1.3789318
},
{
  "type": "node",
  "id": 3736153562,
  "lat": 52.7099353,
  "lon": -1.3781942
},
{
  "type": "node",
  "id": 3736153568,
  "lat": 52.7104995,
  "lon": -1.3791055
},
{
  "type": "node",
  "id": 3736153570,
  "lat": 52.7095158,
  "lon": -1.3798022
},
{
  "type": "node",
  "id": 3736153584,
  "lat": 52.7105222,
  "lon": -1.3791645
},
{
  "type": "node",
  "id": 3736153597,
  "lat": 52.7106132,
  "lon": -1.3787487
},
{
  "type": "node",
  "id": 252733149,
  "lat": 52.8336329,
  "lon": -1.3461117
},
{
  "type": "node",
  "id": 252733150,
  "lat": 52.8337504,
  "lon": -1.3453122
},
{
  "type": "node",
  "id": 1271035448,
  "lat": 52.8324045,
  "lon": -1.3450408
},
{
  "type": "node",
  "id": 1271117673,
  "lat": 52.8323478,
  "lon": -1.3469512
},
{
  "type": "node",
  "id": 1271117678,
  "lat": 52.8329276,
  "lon": -1.3451022
},
{
  "type": "node",
  "id": 1271117696,
  "lat": 52.8334237,
  "lon": -1.3447211
},
{
  "type": "node",
  "id": 1271117711,
  "lat": 52.8328632,
  "lon": -1.3437175
},
{
  "type": "node",
  "id": 1271117728,
  "lat": 52.8328168,
  "lon": -1.3443613
},
{
  "type": "node",
  "id": 1271117759,
  "lat": 52.8328233,
  "lon": -1.3440855
},
{
  "type": "node",
  "id": 1271117771,
  "lat": 52.8329498,
  "lon": -1.3468775
},
{
  "type": "node",
  "id": 2247707335,
  "lat": 52.8327644,
  "lon": -1.3444193
},
{
  "type": "node",
  "id": 2247707364,
  "lat": 52.8329271,
  "lon": -1.3472193
},
{
  "type": "node",
  "id": 3632437971,
  "lat": 52.8323915,
  "lon": -1.3454738
},
{
  "type": "node",
  "id": 3632438770,
  "lat": 52.8323391,
  "lon": -1.3474218
},
{
  "type": "node",
  "id": 3632438802,
  "lat": 52.8328908,
  "lon": -1.3474616
},
{
  "type": "node",
  "id": 3632438827,
  "lat": 52.8329211,
  "lon": -1.3474627
},
{
  "type": "node",
  "id": 3632438840,
  "lat": 52.8329328,
  "lon": -1.3469909
},
{
  "type": "node",
  "id": 3632438865,
  "lat": 52.8325407,
  "lon": -1.3474366
},
{
  "type": "node",
  "id": 3632438887,
  "lat": 52.8324953,
  "lon": -1.3474335
},
{
  "type": "node",
  "id": 3632438889,
  "lat": 52.8324479,
  "lon": -1.3474290
},
{
  "type": "node",
  "id": 3632438972,
  "lat": 52.8323623,
  "lon": -1.3474230
},
{
  "type": "node",
  "id": 6171965248,
  "lat": 52.8325168,
  "lon": -1.3474350
},
{
  "type": "node",
  "id": 252733151,
  "lat": 52.8324324,
  "lon": -1.3429601
},
{
  "type": "node",
  "id": 3632437788,
  "lat": 52.8324695,
  "lon": -1.3430268
},
{
  "type": "node",
  "id": 6171965342,
  "lat": 52.8325059,
  "lon": -1.3430923
},
{
  "type": "node",
  "id": 1296653357,
  "lat": 52.8412538,
  "lon": -1.3387175
},
{
  "type": "node",
  "id": 6137021402,
  "lat": 52.8412728,
  "lon": -1.3387630
},
{
  "type": "node",
  "id": 6137021403,
  "lat": 52.8411788,
  "lon": -1.3385353
},
{
  "type": "node",
  "id": 6137021404,
  "lat": 52.8411269,
  "lon": -1.3385940
},
{
  "type": "node",
  "id": 6137021405,
  "lat": 52.8412199,
  "lon": -1.3388229
},
{
  "type": "node",
  "id": 6184956165,
  "lat": 52.8411241,
  "lon": -1.3386959
},
{
  "type": "node",
  "id": 6184956166,
  "lat": 52.8411449,
  "lon": -1.3387461
},
{
  "type": "node",
  "id": 6184956167,
  "lat": 52.8411547,
  "lon": -1.3386613
},
{
  "type": "node",
  "id": 6184956168,
  "lat": 52.8411744,
  "lon": -1.3387127
},
{
  "type": "node",
  "id": 1196636518,
  "lat": 52.8358596,
  "lon": -1.2833565
},
{
  "type": "node",
  "id": 1196636641,
  "lat": 52.8359136,
  "lon": -1.2833520
},
{
  "type": "node",
  "id": 1196637370,
  "lat": 52.8359179,
  "lon": -1.2834911
},
{
  "type": "node",
  "id": 1270714925,
  "lat": 52.8358616,
  "lon": -1.2834238
},
{
  "type": "node",
  "id": 4084108353,
  "lat": 52.8358665,
  "lon": -1.2835826
},
{
  "type": "node",
  "id": 4792463044,
  "lat": 52.8359206,
  "lon": -1.2835781
},
{
  "type": "node",
  "id": 2397218423,
  "lat": 52.6165410,
  "lon": -1.1420902
},
{
  "type": "node",
  "id": 2397218424,
  "lat": 52.6166266,
  "lon": -1.1420354
},
{
  "type": "node",
  "id": 2397218425,
  "lat": 52.6165478,
  "lon": -1.1417013
},
{
  "type": "node",
  "id": 2397218426,
  "lat": 52.6164621,
  "lon": -1.1417562
},
{
  "type": "node",
  "id": 1039248342,
  "lat": 52.6286780,
  "lon": -1.1276794
},
{
  "type": "node",
  "id": 3211576997,
  "lat": 52.6346893,
  "lon": -1.1412009
},
{
  "type": "node",
  "id": 3211576999,
  "lat": 52.6352265,
  "lon": -1.1422738
},
{
  "type": "node",
  "id": 3211577000,
  "lat": 52.6350935,
  "lon": -1.1421373
},
{
  "type": "node",
  "id": 3211577001,
  "lat": 52.6345140,
  "lon": -1.1416893
},
{
  "type": "node",
  "id": 3211577004,
  "lat": 52.6343963,
  "lon": -1.1415898
},
{
  "type": "node",
  "id": 3211577005,
  "lat": 52.6345363,
  "lon": -1.1414155
},
{
  "type": "node",
  "id": 5438160709,
  "lat": 52.6351654,
  "lon": -1.1411400
},
{
  "type": "node",
  "id": 5438160710,
  "lat": 52.6349773,
  "lon": -1.1409934
},
{
  "type": "node",
  "id": 5438160714,
  "lat": 52.6348024,
  "lon": -1.1409006
},
{
  "type": "node",
  "id": 3211577003,
  "lat": 52.6354010,
  "lon": -1.1413276
},
{
  "type": "node",
  "id": 664516414,
  "lat": 52.6316241,
  "lon": -1.1388010
},
{
  "type": "node",
  "id": 664516421,
  "lat": 52.6316762,
  "lon": -1.1386759
},
{
  "type": "node",
  "id": 1318717597,
  "lat": 52.6317381,
  "lon": -1.1387383
},
{
  "type": "node",
  "id": 1318717599,
  "lat": 52.6314607,
  "lon": -1.1394155
},
{
  "type": "node",
  "id": 1318717600,
  "lat": 52.6315851,
  "lon": -1.1395545
},
{
  "type": "node",
  "id": 1814425286,
  "lat": 52.6316979,
  "lon": -1.1392818
},
{
  "type": "node",
  "id": 1814425296,
  "lat": 52.6317405,
  "lon": -1.1391750
},
{
  "type": "node",
  "id": 1818876749,
  "lat": 52.6315978,
  "lon": -1.1390825
},
{
  "type": "node",
  "id": 4163847506,
  "lat": 52.6318627,
  "lon": -1.1388761
},
{
  "type": "node",
  "id": 5586847739,
  "lat": 52.6316869,
  "lon": -1.1388639
},
{
  "type": "node",
  "id": 1039248339,
  "lat": 52.6292178,
  "lon": -1.1281604
},
{
  "type": "node",
  "id": 1039248340,
  "lat": 52.6289252,
  "lon": -1.1284241
},
{
  "type": "node",
  "id": 1039248344,
  "lat": 52.6289611,
  "lon": -1.1274244
},
{
  "type": "node",
  "id": 6058359944,
  "lat": 52.6291298,
  "lon": -1.1278286
},
{
  "type": "node",
  "id": 6058359954,
  "lat": 52.6290951,
  "lon": -1.1277241
},
{
  "type": "node",
  "id": 6058359966,
  "lat": 52.6291455,
  "lon": -1.1279426
},
{
  "type": "node",
  "id": 6058359970,
  "lat": 52.6291132,
  "lon": -1.1277788
},
{
  "type": "node",
  "id": 6058359973,
  "lat": 52.6291625,
  "lon": -1.1279273
},
{
  "type": "node",
  "id": 6058359976,
  "lat": 52.6290685,
  "lon": -1.1277480
},
{
  "type": "node",
  "id": 2202607019,
  "lat": 52.6531555,
  "lon": -1.1325093
},
{
  "type": "node",
  "id": 2202607120,
  "lat": 52.6537423,
  "lon": -1.1312248
},
{
  "type": "node",
  "id": 2202607152,
  "lat": 52.6538041,
  "lon": -1.1333426
},
{
  "type": "node",
  "id": 2202607255,
  "lat": 52.6542844,
  "lon": -1.1321704
},
{
  "type": "node",
  "id": 2202607276,
  "lat": 52.6543317,
  "lon": -1.1319646
},
{
  "type": "node",
  "id": 3069843260,
  "lat": 52.6543959,
  "lon": -1.1303474
},
{
  "type": "node",
  "id": 3069843261,
  "lat": 52.6542267,
  "lon": -1.1306612
},
{
  "type": "node",
  "id": 3069843263,
  "lat": 52.6541323,
  "lon": -1.1307685
},
{
  "type": "node",
  "id": 3069843267,
  "lat": 52.6539908,
  "lon": -1.1309053
},
{
  "type": "node",
  "id": 3069843286,
  "lat": 52.6546449,
  "lon": -1.1317716
},
{
  "type": "node",
  "id": 3069843292,
  "lat": 52.6542674,
  "lon": -1.1316617
},
{
  "type": "node",
  "id": 3069843293,
  "lat": 52.6539982,
  "lon": -1.1328689
},
{
  "type": "node",
  "id": 3069843297,
  "lat": 52.6544089,
  "lon": -1.1318092
},
{
  "type": "node",
  "id": 3069843301,
  "lat": 52.6544376,
  "lon": -1.1318443
},
{
  "type": "node",
  "id": 3069843305,
  "lat": 52.6545041,
  "lon": -1.1318764
},
{
  "type": "node",
  "id": 3069843318,
  "lat": 52.6538085,
  "lon": -1.1311225
},
{
  "type": "node",
  "id": 3069843325,
  "lat": 52.6546237,
  "lon": -1.1300201
},
{
  "type": "node",
  "id": 3069843328,
  "lat": 52.6545228,
  "lon": -1.1300926
},
{
  "type": "node",
  "id": 3069843288,
  "lat": 52.6551248,
  "lon": -1.1315115
},
{
  "type": "node",
  "id": 3069843290,
  "lat": 52.6557195,
  "lon": -1.1312300
},
{
  "type": "node",
  "id": 3069843307,
  "lat": 52.6556646,
  "lon": -1.1309501
},
{
  "type": "node",
  "id": 3069843309,
  "lat": 52.6555088,
  "lon": -1.1302240
},
{
  "type": "node",
  "id": 3069843311,
  "lat": 52.6554022,
  "lon": -1.1298325
},
{
  "type": "node",
  "id": 3069843313,
  "lat": 52.6553575,
  "lon": -1.1296822
},
{
  "type": "node",
  "id": 3069843320,
  "lat": 52.6552290,
  "lon": -1.1296768
},
{
  "type": "node",
  "id": 3069843323,
  "lat": 52.6550256,
  "lon": -1.1297573
},
{
  "type": "node",
  "id": 726223015,
  "lat": 52.7750718,
  "lon": -1.2051659
},
{
  "type": "node",
  "id": 726223018,
  "lat": 52.7750052,
  "lon": -1.2050380
},
{
  "type": "node",
  "id": 726223021,
  "lat": 52.7749625,
  "lon": -1.2050988
},
{
  "type": "node",
  "id": 726223024,
  "lat": 52.7750290,
  "lon": -1.2052267
},
{
  "type": "node",
  "id": 1220022582,
  "lat": 52.8682818,
  "lon": -1.3454309
},
{
  "type": "node",
  "id": 1220022609,
  "lat": 52.8682084,
  "lon": -1.3454474
},
{
  "type": "node",
  "id": 1220022616,
  "lat": 52.8681811,
  "lon": -1.3451168
},
{
  "type": "node",
  "id": 1220022633,
  "lat": 52.8682546,
  "lon": -1.3451003
},
{
  "type": "node",
  "id": 3914951330,
  "lat": 52.8682451,
  "lon": -1.3454392
},
{
  "type": "node",
  "id": 1314354399,
  "lat": 52.9127638,
  "lon": -1.2047425
},
{
  "type": "node",
  "id": 1314354400,
  "lat": 52.9127424,
  "lon": -1.2047868
},
{
  "type": "node",
  "id": 1314354472,
  "lat": 52.9126330,
  "lon": -1.2045594
},
{
  "type": "node",
  "id": 1314354515,
  "lat": 52.9127784,
  "lon": -1.2047619
},
{
  "type": "node",
  "id": 1314354799,
  "lat": 52.9128099,
  "lon": -1.2046968
},
{
  "type": "node",
  "id": 1314354835,
  "lat": 52.9126617,
  "lon": -1.2045000
},
{
  "type": "node",
  "id": 4979768891,
  "lat": 52.9126860,
  "lon": -1.2046298
},
{
  "type": "node",
  "id": 4979768892,
  "lat": 52.9126618,
  "lon": -1.2046799
},
{
  "type": "node",
  "id": 5268858381,
  "lat": 52.9127356,
  "lon": -1.2045981
},
{
  "type": "node",
  "id": 5268858382,
  "lat": 52.9127448,
  "lon": -1.2046103
},
{
  "type": "node",
  "id": 5268858383,
  "lat": 52.9127130,
  "lon": -1.2045681
},
{
  "type": "node",
  "id": 5268858384,
  "lat": 52.9127708,
  "lon": -1.2046448
},
{
  "type": "node",
  "id": 5268858385,
  "lat": 52.9128025,
  "lon": -1.2046870
},
{
  "type": "node",
  "id": 5268858387,
  "lat": 52.9126999,
  "lon": -1.2047305
},
{
  "type": "node",
  "id": 5268858395,
  "lat": 52.9128002,
  "lon": -1.2047168
},
{
  "type": "node",
  "id": 252270912,
  "lat": 52.9384560,
  "lon": -1.1879299
},
{
  "type": "node",
  "id": 252270913,
  "lat": 52.9385922,
  "lon": -1.1876392
},
{
  "type": "node",
  "id": 252270914,
  "lat": 52.9382140,
  "lon": -1.1871448
},
{
  "type": "node",
  "id": 252270915,
  "lat": 52.9380736,
  "lon": -1.1874494
},
{
  "type": "node",
  "id": 252270916,
  "lat": 52.9387391,
  "lon": -1.1879627
},
{
  "type": "node",
  "id": 252270917,
  "lat": 52.9387528,
  "lon": -1.1878408
},
{
  "type": "node",
  "id": 252270918,
  "lat": 52.9386030,
  "lon": -1.1878100
},
{
  "type": "node",
  "id": 252270920,
  "lat": 52.9385602,
  "lon": -1.1879527
},
{
  "type": "node",
  "id": 252270921,
  "lat": 52.9386234,
  "lon": -1.1880892
},
{
  "type": "node",
  "id": 252394025,
  "lat": 52.9386822,
  "lon": -1.1877940
},
{
  "type": "node",
  "id": 1102740260,
  "lat": 52.9386846,
  "lon": -1.1880811
},
{
  "type": "node",
  "id": 1102740266,
  "lat": 52.9385678,
  "lon": -1.1878755
},
{
  "type": "node",
  "id": 1102740272,
  "lat": 52.9381170,
  "lon": -1.1872639
},
{
  "type": "node",
  "id": 1102740275,
  "lat": 52.9386184,
  "lon": -1.1877965
},
{
  "type": "node",
  "id": 1102740277,
  "lat": 52.9387370,
  "lon": -1.1879161
},
{
  "type": "node",
  "id": 1102740290,
  "lat": 52.9385660,
  "lon": -1.1880068
},
{
  "type": "node",
  "id": 1102740297,
  "lat": 52.9381214,
  "lon": -1.1875058
},
{
  "type": "node",
  "id": 1102740302,
  "lat": 52.9385625,
  "lon": -1.1878997
},
{
  "type": "node",
  "id": 1102740308,
  "lat": 52.9385677,
  "lon": -1.1876940
},
{
  "type": "node",
  "id": 1102740311,
  "lat": 52.9381111,
  "lon": -1.1872788
},
{
  "type": "node",
  "id": 1102740315,
  "lat": 52.9386538,
  "lon": -1.1880946
},
{
  "type": "node",
  "id": 1102740335,
  "lat": 52.9381647,
  "lon": -1.1872310
},
{
  "type": "node",
  "id": 1102740346,
  "lat": 52.9387143,
  "lon": -1.1877733
},
{
  "type": "node",
  "id": 1102740366,
  "lat": 52.9381183,
  "lon": -1.1873525
},
{
  "type": "node",
  "id": 1102740384,
  "lat": 52.9381725,
  "lon": -1.1872372
},
{
  "type": "node",
  "id": 1102740388,
  "lat": 52.9386492,
  "lon": -1.1877917
},
{
  "type": "node",
  "id": 1102740392,
  "lat": 52.9385898,
  "lon": -1.1878202
},
{
  "type": "node",
  "id": 1102740394,
  "lat": 52.9385035,
  "lon": -1.1878947
},
{
  "type": "node",
  "id": 1102740398,
  "lat": 52.9381237,
  "lon": -1.1872555
},
{
  "type": "node",
  "id": 1102740403,
  "lat": 52.9387320,
  "lon": -1.1880116
},
{
  "type": "node",
  "id": 1102740408,
  "lat": 52.9385324,
  "lon": -1.1878337
},
{
  "type": "node",
  "id": 1102740410,
  "lat": 52.9385854,
  "lon": -1.1877164
},
{
  "type": "node",
  "id": 1102740415,
  "lat": 52.9381185,
  "lon": -1.1873255
},
{
  "type": "node",
  "id": 1102740418,
  "lat": 52.9387405,
  "lon": -1.1878100
},
{
  "type": "node",
  "id": 1102740421,
  "lat": 52.9385567,
  "lon": -1.1877788
},
{
  "type": "node",
  "id": 1102740424,
  "lat": 52.9384858,
  "lon": -1.1878708
},
{
  "type": "node",
  "id": 1102740430,
  "lat": 52.9381512,
  "lon": -1.1872575
},
{
  "type": "node",
  "id": 1102740433,
  "lat": 52.9387248,
  "lon": -1.1878804
},
{
  "type": "node",
  "id": 1102740435,
  "lat": 52.9381104,
  "lon": -1.1872962
},
{
  "type": "node",
  "id": 1102740443,
  "lat": 52.9381116,
  "lon": -1.1873429
},
{
  "type": "node",
  "id": 1102740444,
  "lat": 52.9385904,
  "lon": -1.1880618
},
{
  "type": "node",
  "id": 1102740447,
  "lat": 52.9386916,
  "lon": -1.1877492
},
{
  "type": "node",
  "id": 1102740451,
  "lat": 52.9381363,
  "lon": -1.1872515
},
{
  "type": "node",
  "id": 1102740459,
  "lat": 52.9387048,
  "lon": -1.1880710
},
{
  "type": "node",
  "id": 1102740466,
  "lat": 52.9381132,
  "lon": -1.1873120
},
{
  "type": "node",
  "id": 3537219134,
  "lat": 52.9381028,
  "lon": -1.1873823
},
{
  "type": "node",
  "id": 5151981987,
  "lat": 52.9385519,
  "lon": -1.1878567
},
{
  "type": "node",
  "id": 5151981989,
  "lat": 52.9385747,
  "lon": -1.1878013
},
{
  "type": "node",
  "id": 324261703,
  "lat": 52.8847172,
  "lon": -1.1512178
},
{
  "type": "node",
  "id": 324261705,
  "lat": 52.8849142,
  "lon": -1.1511537
},
{
  "type": "node",
  "id": 982577206,
  "lat": 52.8854199,
  "lon": -1.1500179
},
{
  "type": "node",
  "id": 982577238,
  "lat": 52.8856989,
  "lon": -1.1493114
},
{
  "type": "node",
  "id": 982603282,
  "lat": 52.8845992,
  "lon": -1.1504815
},
{
  "type": "node",
  "id": 982603285,
  "lat": 52.8845877,
  "lon": -1.1502622
},
{
  "type": "node",
  "id": 1430517958,
  "lat": 52.8855372,
  "lon": -1.1497419
},
{
  "type": "node",
  "id": 324255693,
  "lat": 52.8849369,
  "lon": -1.1450488
},
{
  "type": "node",
  "id": 324261701,
  "lat": 52.8844399,
  "lon": -1.1457840
},
{
  "type": "node",
  "id": 982577192,
  "lat": 52.8853405,
  "lon": -1.1449519
},
{
  "type": "node",
  "id": 982577239,
  "lat": 52.8849968,
  "lon": -1.1450337
},
{
  "type": "node",
  "id": 982577696,
  "lat": 52.8843389,
  "lon": -1.1458179
},
{
  "type": "node",
  "id": 982577697,
  "lat": 52.8844481,
  "lon": -1.1456681
},
{
  "type": "node",
  "id": 982577699,
  "lat": 52.8849315,
  "lon": -1.1456428
},
{
  "type": "node",
  "id": 982577712,
  "lat": 52.8848918,
  "lon": -1.1450691
},
{
  "type": "node",
  "id": 1430501212,
  "lat": 52.8853549,
  "lon": -1.1449942
},
{
  "type": "node",
  "id": 1430501253,
  "lat": 52.8853519,
  "lon": -1.1449702
},
{
  "type": "node",
  "id": 1169893190,
  "lat": 52.6676694,
  "lon": -0.7252694
},
{
  "type": "node",
  "id": 1169893232,
  "lat": 52.6676580,
  "lon": -0.7255134
},
{
  "type": "node",
  "id": 1169893294,
  "lat": 52.6677663,
  "lon": -0.7255582
},
{
  "type": "node",
  "id": 1169893589,
  "lat": 52.6679599,
  "lon": -0.7255856
},
{
  "type": "node",
  "id": 1169893619,
  "lat": 52.6676157,
  "lon": -0.7255027
},
{
  "type": "node",
  "id": 1169893622,
  "lat": 52.6676157,
  "lon": -0.7255349
},
{
  "type": "node",
  "id": 1169893180,
  "lat": 52.6680939,
  "lon": -0.7253525
},
{
  "type": "node",
  "id": 1169893647,
  "lat": 52.6680809,
  "lon": -0.7256046
},
{
  "type": "node",
  "id": 2917579104,
  "lat": 52.7200039,
  "lon": -0.6976901
},
{
  "type": "node",
  "id": 2917579105,
  "lat": 52.7199196,
  "lon": -0.6980131
},
{
  "type": "node",
  "id": 2917579103,
  "lat": 52.7126655,
  "lon": -0.6902078
},
{
  "type": "node",
  "id": 2917579107,
  "lat": 52.7124966,
  "lon": -0.6889096
},
{
  "type": "node",
  "id": 2917579108,
  "lat": 52.7124706,
  "lon": -0.6885234
},
{
  "type": "node",
  "id": 4867739024,
  "lat": 52.7135874,
  "lon": -0.6884781
},
{
  "type": "node",
  "id": 2917579106,
  "lat": 52.7143229,
  "lon": -0.6884483
},
{
  "type": "node",
  "id": 2917579109,
  "lat": 52.7153498,
  "lon": -0.6901327
},
{
  "type": "node",
  "id": 2917579110,
  "lat": 52.7153554,
  "lon": -0.6907233
},
{
  "type": "node",
  "id": 2924673509,
  "lat": 52.7147994,
  "lon": -0.6897733
},
{
  "type": "node",
  "id": 2924673514,
  "lat": 52.7150388,
  "lon": -0.6901525
},
{
  "type": "node",
  "id": 2924673524,
  "lat": 52.7150740,
  "lon": -0.6900613
},
{
  "type": "node",
  "id": 2924673529,
  "lat": 52.7147643,
  "lon": -0.6898645
}

  ]
}
