{
  "version": 0.6,
  "generator": "Overpass API 0.7.55.9 ab41fea6",
  "osm3s": {
    "timestamp_osm_base": "2020-02-14T14:27:02Z",
    "copyright": "The data included in this document is from www.openstreetmap.org. The data is made available under ODbL."
  },
  "elements": [

{
  "type": "node",
  "id": 2634652011,
  "lat": 44.1499350,
  "lon": 28.6230870,
  "tags": {
    "SIRUTA:code": "60428",
    "addr:city": "Constanța",
    "addr:housenumber": "1-3",
    "addr:postcode": "900008",
    "addr:street": "Prelungirea Liliacului",
    "codul_entității_muzeale": "7510110.0",
    "email": "muzeulmilitarconstanta@yahoo.com; scurtucostin@yahoo.com",
    "fax": "0241/674.359",
    "name": "Muzeul Militar Național \"Regele Ferdinand I\". Filiala Constanța",
    "name:en": "\"King Ferdinand I\" National Military Museum. Constanta Branch",
    "opening_hours": "08:00-16:00; Mo closed",
    "phone": "0241/674.359; 0241/618.154",
    "source": "INP",
    "source:link": "http://date.gov.ro/dataset/ghidul-muzeelor-din-romania",
    "start_date": "1985",
    "tourism": "museum",
    "tourism_survey": "05.12.2013 11:30:25"
  }
},
{
  "type": "node",
  "id": 2634652021,
  "lat": 44.2468778,
  "lon": 28.2681220,
  "tags": {
    "SIRUTA:code": "60856",
    "addr:city": "Medgidia",
    "addr:housenumber": "1",
    "addr:postcode": "905600",
    "addr:street": "Aleea Trandafirilor",
    "codul_entității_muzeale": "7.0265051E7",
    "description:ro": "Muzeul a fiintat intre 1964-1975 intr-o cladire improprie, in 1975 inaugurandu-se actuala cladire, avand un spatiu generos, adecvat.",
    "name": "Muzeul de Artă \"Lucian Grigorescu\"",
    "name:en": "\"Lucian Grigorescu\" Art Museum",
    "opening_hours": "9:00-17:00; Mo,Tu closed",
    "phone": "0241/814.393",
    "source": "INP",
    "source:link": "http://date.gov.ro/dataset/ghidul-muzeelor-din-romania",
    "start_date": "1964",
    "tourism": "museum",
    "tourism_survey": "06.11.2013 12:58:43",
    "website": "http://grigorescu.artmuseum.ro/"
  }
},
{
  "type": "node",
  "id": 2634652207,
  "lat": 44.2065440,
  "lon": 28.6425810,
  "tags": {
    "SIRUTA:code": "60428",
    "addr:city": "Constanța",
    "addr:housenumber": "255",
    "addr:postcode": "900552",
    "addr:street": "Bulevardul Mamaia",
    "codul_entității_muzeale": "6927105.0",
    "email": "office@delfinariu.ro",
    "fax": "0241/481.236",
    "leisure": "garden",
    "man_made": "telescope",
    "museum_type": "Natural Sciences - Obseratory",
    "name:en": "Astronomic Observatory",
    "name:ro": "Observatorul Astronomic",
    "opening_hours": "9:00-20:00 Apr-Sep; 9:00-16:00 Oct-Mar",
    "phone": "0241/481.237; 0241/481.230",
    "source": "INP",
    "source:link": "http://date.gov.ro/dataset/ghidul-muzeelor-din-romania",
    "start_date": "1969",
    "tourism": "museum",
    "tourism_survey": "04.12.2013 15:18:41"
  }
},
{
  "type": "node",
  "id": 2634652504,
  "lat": 44.2455370,
  "lon": 28.2707260,
  "tags": {
    "LMI": "CT-II-m-A-02904",
    "SIRUTA:code": "60856",
    "addr:city": "Medgidia",
    "addr:housenumber": "20",
    "addr:postcode": "905600",
    "addr:street": "Strada Decebal",
    "codul_entității_muzeale": "6.301770011E9",
    "name": "Colecția Muzeală a Geamiei Medgidia",
    "name:en": "Museum Collection of the Mosque",
    "opening_hours": "unknown",
    "source": "INP",
    "source:link": "http://date.gov.ro/dataset/ghidul-muzeelor-din-romania",
    "tourism": "museum",
    "tourism_survey": "06.12.2013 13:19:24"
  }
},
{
  "type": "node",
  "id": 2634652527,
  "lat": 44.1613910,
  "lon": 28.6576000,
  "tags": {
    "SIRUTA:code": "60428",
    "addr:city": "Constanța",
    "addr:postcode": "900900",
    "addr:street": "incinta Port, Dana 0",
    "codul_entității_muzeale": "6927200.0",
    "email": "gvarsami@constantza-port.ro",
    "name": "Muzeul Portului Constanța",
    "name:en": "Museum of Constanta Harbour",
    "phone": "0241/602.590; 0241/601.267",
    "source": "INP",
    "source:link": "http://date.gov.ro/dataset/ghidul-muzeelor-din-romania",
    "start_date": "1996",
    "tourism": "museum",
    "tourism_survey": "29.10.2013 12:36:26"
  }
},
{
  "type": "node",
  "id": 2634652669,
  "lat": 44.1942270,
  "lon": 28.6307420,
  "tags": {
    "SIRUTA:code": "60428",
    "addr:city": "Constanța",
    "addr:housenumber": "53",
    "addr:street": "Strada Bogdan Petriceicu Hașdeu",
    "codul_entității_muzeale": "650640.0",
    "email": "udttmr@yahoo.com",
    "fax": "0241/52.13.17",
    "name": "Punct Muzeal al Uniunii Democrate a Tătarilor Turco-Musulmani din România",
    "name:en": "Museum of the Romanian Democratic Union of Turkish-Muslim Tartars",
    "opening_hours": "unknown",
    "phone": "024/ 61.66. 43, 021/ 52. 01. 86",
    "source": "INP",
    "source:link": "http://date.gov.ro/dataset/ghidul-muzeelor-din-romania",
    "tourism": "museum",
    "tourism_survey": "13.02.2013 20:23:22"
  }
},
{
  "type": "node",
  "id": 2634652677,
  "lat": 44.2055160,
  "lon": 28.6427610,
  "tags": {
    "SIRUTA:code": "60428",
    "addr:city": "Constanța",
    "addr:housenumber": "255",
    "addr:postcode": "900552",
    "addr:street": "Bulevardul Mamaia",
    "codul_entității_muzeale": "6927103.0",
    "description:en": "The Museum of the Sea functioned between 1971 and 1976 in a special building on the casino sea wall. Later the entire collection moved.",
    "description:ro": "Muzeul Marii a functionat intre 1971 - 1976 intr-un local special amenajat situat pe faleza Cazinoului, in casa Farului Genovez, pe str. Remus Opreanu. Dupa preluarea acestui spatiu de catre comandamentul marinei militare, intreaga colectie a fost mutata",
    "email": "muzeulmarii@delfinariu.ro",
    "fax": "0241/481.236",
    "leisure": "garden",
    "museum_type": "Natural Sciences - Zoology",
    "name": "Muzeul Mării",
    "name:en": "Museum of the Sea",
    "opening_hours": "closed",
    "phone": "0241/481.230",
    "source": "INP",
    "source:link": "http://date.gov.ro/dataset/ghidul-muzeelor-din-romania",
    "start_date": "1971",
    "tourism": "museum",
    "tourism_survey": "09.07.2012 11:02:04",
    "website": "http://www.delfinariu.ro/"
  }
},
{
  "type": "node",
  "id": 2634652876,
  "lat": 44.2068630,
  "lon": 28.6429300,
  "tags": {
    "SIRUTA:code": "60428",
    "addr:city": "Constanța",
    "addr:housenumber": "255",
    "addr:postcode": "900552",
    "addr:street": "Bulevardul Mamaia",
    "codul_entității_muzeale": "6927104.0",
    "description:en": "In the planetarium cupola, having 100 seats, performances are held. In 1971 the planetarium was extended by an astronomic observatory.",
    "description:ro": "in cupola Planetariului, cu o capacitate de 100 locuri, se sustin spectacole cu subiecte astronomice si cosmice. in anul 1971 Planetariul s-a extins prin construirea observatorului astronomic dotat cu un telescop de 120 mm si o statie de observatii solar",
    "email": "planetariu@delfinariu.ro",
    "fax": "0241/481.236",
    "leisure": "garden",
    "man_made": "telescope",
    "museum_type": "Natural Sciences - Obseratory",
    "name:en": "Planetarium",
    "name:ro": "Planetariul",
    "opening_hours": "9:00-21:00 Apr-Sep; 9:00-16:00 Oct-Mar",
    "phone": "0241/481.237; 0241/481.230",
    "source": "INP",
    "source:link": "http://date.gov.ro/dataset/ghidul-muzeelor-din-romania",
    "start_date": "1969",
    "tourism": "museum",
    "tourism_survey": "09.07.2012 11:02:02",
    "website": "http://www.delfinariu.ro/"
  }
},
{
  "type": "node",
  "id": 2634652936,
  "lat": 44.3671850,
  "lon": 28.4614090,
  "tags": {
    "SIRUTA:code": "62208",
    "addr:city": "Mihail Kogălniceanu",
    "codul_entității_muzeale": "651610.0",
    "fixme": "Adresa muzeului este de fapt adresa localitati, trebuie cautat manual unde este adresa corecta",
    "name": "Muzeul etnografic al aromanilor \"Gheorghe Celea\"",
    "name:en": "The \"Gheorghe Celea\" Aromanian Ethnographic Museum",
    "opening_hours": "unknown",
    "source": "INP",
    "source:link": "http://date.gov.ro/dataset/ghidul-muzeelor-din-romania",
    "start_date": "2006",
    "tourism": "museum",
    "tourism_survey": "13.08.2013 14:48:18"
  }
},
{
  "type": "node",
  "id": 2634653096,
  "lat": 44.0667032,
  "lon": 28.2300113,
  "tags": {
    "SIRUTA:code": "61327",
    "addr:city": "Cobadin",
    "addr:housenumber": "30",
    "addr:postcode": "907065",
    "addr:postcode:source": "Date de la Poșta Română, publicate sub Licența pentru Guvernare Deschisă v1.0 la http://date.gov.ro/organization/posta-romana",
    "addr:street": "Strada Izvor",
    "codul_entității_muzeale": "7170100.0",
    "email": "fundatiaomenia@yahoo.com",
    "fixme": "Adresa muzeului este de fapt adresa localitati, trebuie cautat manual unde este adresa corecta",
    "name": "Casa Tătărească „Zulfie Totay” din Cadrul Fundației Insanlik - Omenia",
    "name:en": "Zulfie Totay Tartar House",
    "opening_hours": "unknown",
    "phone": "0726 227449",
    "source": "INP",
    "source:link": "http://date.gov.ro/dataset/ghidul-muzeelor-din-romania",
    "start_date": "2006",
    "tourism": "museum",
    "tourism_survey": "07.08.2013 15:24:04"
  }
},
{
  "type": "node",
  "id": 6551718795,
  "lat": 44.1734130,
  "lon": 28.6596560,
  "tags": {
    "addr:postcode": "900745",
    "description:en": "It is an architectural monument of the city, the main Muslim edifice. It was built by the Romanian state in 1910. It was designed by the great Romanian inventor, engineer Gogu Constantinescu, and carried out by architect Victor Stefanescu. The building...",
    "description:ro": "Moscheea este monument de arhitectura si principalul edificiu al cultului musulman din Constanta. A fost construita de statul roman in anul 1910. Proiectul moscheei apartine marelui inventator roman ing. Gogu Constantinescu, iar executia arhitectului V...",
    "foundation_date": "1910",
    "name": "Colectia Moscheii Carol I",
    "name:en": "The Mosque of Constanta",
    "opening_hours": "9:00 - 18:00 (vara)",
    "phone": "(+40) 241611390",
    "ref:codul_entitații_muzeale": "6301000002",
    "reviewed": "no",
    "tourism": "museum"
  }
},
{
  "type": "way",
  "id": 24786295,
  "nodes": [
    269310823,
    269310824,
    269310825,
    269310826,
    269310823
  ],
  "tags": {
    "LMI": "CT-II-m-A-02831",
    "SIRUTA:code": "60428",
    "addr:city": "Constanța",
    "addr:country": "RO",
    "addr:housenumber": "12",
    "addr:postcode": "900745",
    "addr:street": "Piața Ovidiu",
    "building": "yes",
    "codul_entității_muzeale": "6926500.0",
    "description:en": "The first attempts at founding a museum at Constanta date from the first half of the last century. However, only after having won the independence, ancient vestiges became a matter of interest for the Romanian Academy and the city administration. Remus O",
    "description:ro": "Primele preocupari pentru infiintarea unui muzeu la Constanta dateaza din prima jumatate a secolului trecut, insa abia dupa cucerirea independentei vestigiile antice intra in atentia Academiei Romane si a edililor locali. Remus Opreanu, primul prefect ro",
    "email": "minaconstanta@gmail.com",
    "fax": "0241/618.763",
    "name": "Muzeul de Istorie Națională și Arheologie",
    "name:en": "National History and Archaeology Museum",
    "opening_hours": "Apr-Sep 8:00-20:00; Oct-Mar 9:00-17:00; Mo,Tu closed",
    "phone": "0241/618.763; 0241/614.562; 034-140.873.9; 034-140.878.3",
    "source": "INP",
    "source:link": "http://date.gov.ro/dataset/ghidul-muzeelor-din-romania",
    "start_date": "1879",
    "subject": "history",
    "tourism": "museum",
    "tourism_survey": "11.12.2013 14:05:50",
    "website": "http://www.minac.ro"
  }
},
{
  "type": "way",
  "id": 106434440,
  "nodes": [
    1224519983,
    1224519985,
    3872635398,
    1224519975,
    1224520023,
    3872635399,
    1224519983
  ],
  "tags": {
    "SIRUTA:code": "60428",
    "addr:city": "Constanța",
    "addr:country": "RO",
    "addr:housenumber": "1",
    "addr:postcode": "900735",
    "addr:street": "Bulevardul Regina Elisabeta",
    "building": "yes",
    "codul_entității_muzeale": "6927101.0",
    "email": "acvariu@delfinariu.ro",
    "fax": "241/481.236",
    "leisure": "garden",
    "museum_type": "Natural Sciences - Aquaria",
    "name": "Acvariul Constanța",
    "name:en": "The Aquarium of Constanta",
    "opening_hours": "Apr-Sep 9:00-21:00; Oct-Mar 9:00-16:00",
    "phone": "0241/611.277; 0241/481.461",
    "source": "INP",
    "source:link": "http://date.gov.ro/dataset/ghidul-muzeelor-din-romania",
    "start_date": "1958",
    "tourism": "museum",
    "tourism_survey": "09.07.2012 11:01:57",
    "website": "http://www.delfinariu.ro/"
  }
},
{
  "type": "way",
  "id": 135725895,
  "nodes": [
    1490150870,
    6130297072,
    6130297073,
    6130297078,
    6130297079,
    6130297080,
    6130297081,
    6130297082,
    6130297083,
    6130297084,
    6130299585,
    6130299586,
    6130299587,
    1490150969,
    1490150866,
    1490150589,
    1490150998,
    6130299596,
    6130297077,
    6130297076,
    1490150975,
    1490150896,
    1490150658,
    1490150854,
    1490150629,
    1490150536,
    1490150967,
    1490150878,
    6130297075,
    6130297074,
    6130299591,
    1490150535,
    1490150734,
    1490150604,
    1490150870
  ],
  "tags": {
    "LMI": "CT-II-m-A-02859",
    "SIRUTA:code": "60428",
    "addr:city": "Constanța",
    "addr:housenumber": "53",
    "addr:postcode": "900725",
    "addr:street": "Strada Traian",
    "building": "yes",
    "building:levels": "2",
    "codul_entității_muzeale": "7511100.0",
    "description:ro": "Primul Muzeu al Marinei s-a infiintat la 25 octombrie 1965 in orasul Mangalia. in anul 1969, prin HCM nr. 1127 din 29 mai, publicata in Buletinul Oficial al RSR Nr. 63 din 2 iunie 1969, Muzeul a fost declarat institutie de interes republican, categoria I",
    "email": "naval.museum@yahoo.com",
    "fax": "0241/619.035",
    "heritage": "2",
    "heritage:operator": "lmi",
    "historic": "heritage",
    "name": "Muzeul Marinei Române",
    "name:en": "Museum of the Romanian Navy",
    "opening_hours": "We-Sa 09:00-17:00; Mo closed",
    "phone": "0241/619.035;0341- 803.301",
    "ref:RO:lmi": "CT-II-m-A-02859",
    "source": "INP",
    "source:link": "http://date.gov.ro/dataset/ghidul-muzeelor-din-romania",
    "start_date": "1969",
    "subject": "naval;history",
    "tourism": "museum",
    "tourism_survey": "10.12.2013 11:44:17",
    "website": "https://www.navy.ro/cultura/muzee/mmr/index_mmr.php"
  }
},
{
  "type": "way",
  "id": 135848518,
  "nodes": [
    1491156309,
    1491156035,
    1491156229,
    2634652189,
    1491156253,
    1491156059,
    1491156181,
    1491156040,
    1491155996,
    1491156155,
    1491156029,
    1491156309
  ],
  "tags": {
    "LMI": "CT-II-m-A-02852",
    "SIRUTA:code": "60428",
    "addr:city": "Constanța",
    "addr:housenumber": "82-84",
    "addr:postcode": "900657",
    "addr:street": "Bulevardul Tomis",
    "building": "yes",
    "codul_entității_muzeale": "7026500.0",
    "description:en": "Founded on the basis of the painting and sculpture collection from the picture gallery of the Constanta City Hall, the museum was further enriched by works transferred from the National Art Museum and acquisitions and donations from M. Bunescu, I. Jalea,",
    "description:ro": "infiintat pe baza colectiei de pictura si sculptura, provenita de la Pinacoteca Primariei orasului Constanta, muzeul s-a imbogatit cu lucrari transferate de la Muzeul National de Arta si prin achizitii si donatii facute de Dr. Gh. Vintila, Cristea Grosu,",
    "email": "arta@cjc.ro",
    "fax": "0241/617.012",
    "levels": "2",
    "name": "Muzeul de Artă",
    "name:en": "Art Museum",
    "opening_hours": "9:00-20:00 Apr-Sep; 9:00-17:00 Oct-Mar; Mo,Tu closed",
    "phone": "0241/617.012",
    "source": "INP",
    "source:link": "http://date.gov.ro/dataset/ghidul-muzeelor-din-romania",
    "start_date": "1961",
    "tourism": "museum",
    "tourism_survey": "05.12.2013 11:37:35"
  }
},
{
  "type": "way",
  "id": 268853325,
  "nodes": [
    2741654575,
    2741654576,
    2741654577,
    2741654578,
    2741654579,
    2741654580,
    2741654575
  ],
  "tags": {
    "SIRUTA:code": "60428",
    "addr:city": "Constanța",
    "addr:housenumber": "26",
    "addr:postcode": "900732",
    "addr:street": "Strada Arhiepiscopiei",
    "building": "yes",
    "codul_entității_muzeale": "7026501.0",
    "description:en": "It was founded on the basis of the artist's donations.",
    "description:ro": "Donatia Ion Jalea 1968",
    "name": "Muzeul de Sculptură „Ion Jalea”",
    "name:en": "\"Ion Jalea\" Sculpture Museum",
    "opening_hours": "9:00-17:00; Mo,Tu closed",
    "phone": "0241/618.602",
    "source": "INP",
    "source:link": "http://date.gov.ro/dataset/ghidul-muzeelor-din-romania",
    "start_date": "1968",
    "subject": "arts",
    "tourism": "museum",
    "tourism_survey": "29.10.2013 13:34:01"
  }
},
{
  "type": "way",
  "id": 268855576,
  "nodes": [
    2741678029,
    3873443014,
    3873443012,
    2741678030,
    2741678036,
    3873443013,
    3873443011,
    3873443015,
    2741678040,
    2741678031,
    2741678032,
    3873443018,
    3873443019,
    3873443017,
    3873443016,
    2741678034,
    2741678035,
    2741678029
  ],
  "tags": {
    "LMI": "CT-II-m-A-02850",
    "SIRUTA:code": "60428",
    "addr:city": "Constanța",
    "addr:country": "RO",
    "addr:housenumber": "32",
    "addr:postcode": "900742",
    "addr:street": "Bulevardul Tomis",
    "building": "yes",
    "codul_entității_muzeale": "7026504.0",
    "description:en": "In 1975 the folk art collection was founded within the Art Museum of Constanta, and in 1980 it became a section of its own. Since 1985 the acquisitions have been oriented towards the other ethnographic areas. Since 1990 it has been a fully independent in",
    "description:ro": "in 1975 se constituie colectia de arta populara in cadrul Muzeului de Arta Constanta, iar in 1980 capata statut de sectie. incepand din 1985 are loc o orientare a achizitiilor spre celelalte zone etnografice. Din 1990 este institutie cu personalitate jur",
    "email": "muzeuetno@yahoo.com",
    "fax": "0241/616.133",
    "heritage": "2",
    "heritage:operator": "lmi",
    "name": "Muzeul de Artă Populară",
    "name:en": "Folk Art Museum",
    "opening_hours": "Apr-Sep 9:00-20:00;Oct-Mar 9:00-17:00",
    "phone": "0241/616.133",
    "ref:RO:lmi": "CT-II-m-A-02850",
    "source": "INP",
    "source:link": "http://date.gov.ro/dataset/ghidul-muzeelor-din-romania",
    "start_date": "1896",
    "tourism": "museum",
    "tourism_survey": "10.04.2012 15:13:25"
  }
},
{
  "type": "way",
  "id": 272823081,
  "nodes": [
    2777409992,
    2777410015,
    2777410037,
    2777410023,
    2777410035,
    2777410031,
    2777410033,
    2777410013,
    2777409992
  ],
  "tags": {
    "SIRUTA:code": "60428",
    "addr:city": "Constanța",
    "addr:housenumber": "12",
    "addr:postcode": "900745",
    "addr:street": "Piața Ovidiu",
    "building": "yes",
    "codul_entității_muzeale": "6926501.0",
    "description:en": "The mosaic pavement building lies on terrace B. Only 850 sq.m. of the pavement has been preserved. Terrace A represents the ancient place of dwelling, while terrace C constitutes the storehouse floor (11 vaulted ceiling rooms). On the same storey, close",
    "description:ro": "Edificiul cu paviment de mozaic se afla pe terasa B. Din paviment s-a pastrat o portiune de 850 mp. Terasa A reprezinta nivelul de locuire antic, iar terasa C o constituie nivelul incaperilor magazii (11 incaperi cu tavan boltit). La acelasi nivel, in co",
    "fax": "0241/618.763",
    "heritage": "2",
    "heritage:operator": "lmi",
    "historic": "ruins",
    "name": "Edificiul Roman cu Mozaic",
    "name:en": "Roman Agora Museum",
    "opening_hours": "Apr-Sep 8:00-20:00; Oct-Mar 9:00-17:00",
    "phone": "0241/614.562; 0241/618.763; 034-140.873.9; 034-140.878.3",
    "ref:RO:lmi": "CT-I-m-A-02553.05",
    "source": "INP",
    "source:link": "http://date.gov.ro/dataset/ghidul-muzeelor-din-romania",
    "start_date": "1967",
    "tourism": "museum",
    "tourism_survey": "30.11.2011 13:43:21",
    "wikidata": "Q12727357",
    "wikipedia": "ro:Edificiul roman cu mozaic din Constanța"
  }
},
{
  "type": "way",
  "id": 454824115,
  "nodes": [
    4513266774,
    4513266771,
    4513266772,
    4513266773,
    4513266774
  ],
  "tags": {
    "addr:city": "Constanța",
    "addr:housenumber": "25",
    "addr:street": "Strada Titus Cergău",
    "building": "yes",
    "building:levels": "1",
    "height": "6",
    "name": "Cenusa's Villa",
    "tourism": "museum"
  }
},
{
  "type": "node",
  "id": 4513266771,
  "lat": 44.1862023,
  "lon": 28.6129064
},
{
  "type": "node",
  "id": 4513266772,
  "lat": 44.1860773,
  "lon": 28.6128046
},
{
  "type": "node",
  "id": 4513266773,
  "lat": 44.1861205,
  "lon": 28.6127014
},
{
  "type": "node",
  "id": 4513266774,
  "lat": 44.1862455,
  "lon": 28.6128033
},
{
  "type": "node",
  "id": 1490150604,
  "lat": 44.1745437,
  "lon": 28.6480245
},
{
  "type": "node",
  "id": 1490150535,
  "lat": 44.1746808,
  "lon": 28.6481075
},
{
  "type": "node",
  "id": 1490150536,
  "lat": 44.1746572,
  "lon": 28.6483315
},
{
  "type": "node",
  "id": 1490150589,
  "lat": 44.1746804,
  "lon": 28.6489010
},
{
  "type": "node",
  "id": 1490150629,
  "lat": 44.1745825,
  "lon": 28.6483552
},
{
  "type": "node",
  "id": 1490150658,
  "lat": 44.1747171,
  "lon": 28.6486919
},
{
  "type": "node",
  "id": 1490150734,
  "lat": 44.1745634,
  "lon": 28.6481447
},
{
  "type": "node",
  "id": 1490150854,
  "lat": 44.1746415,
  "lon": 28.6487159
},
{
  "type": "node",
  "id": 1490150866,
  "lat": 44.1747052,
  "lon": 28.6490525
},
{
  "type": "node",
  "id": 1490150870,
  "lat": 44.1747725,
  "lon": 28.6479518
},
{
  "type": "node",
  "id": 1490150878,
  "lat": 44.1747557,
  "lon": 28.6483719
},
{
  "type": "node",
  "id": 1490150896,
  "lat": 44.1747052,
  "lon": 28.6486192
},
{
  "type": "node",
  "id": 1490150967,
  "lat": 44.1746684,
  "lon": 28.6483997
},
{
  "type": "node",
  "id": 1490150969,
  "lat": 44.1749505,
  "lon": 28.6489734
},
{
  "type": "node",
  "id": 1490150975,
  "lat": 44.1747828,
  "lon": 28.6485946
},
{
  "type": "node",
  "id": 1490150998,
  "lat": 44.1747863,
  "lon": 28.6488673
},
{
  "type": "node",
  "id": 1491155996,
  "lat": 44.1791341,
  "lon": 28.6517642
},
{
  "type": "node",
  "id": 1491156029,
  "lat": 44.1793339,
  "lon": 28.6516711
},
{
  "type": "node",
  "id": 1491156035,
  "lat": 44.1790968,
  "lon": 28.6514222
},
{
  "type": "node",
  "id": 1491156040,
  "lat": 44.1788051,
  "lon": 28.6520981
},
{
  "type": "node",
  "id": 1491156059,
  "lat": 44.1790687,
  "lon": 28.6516371
},
{
  "type": "node",
  "id": 1491156155,
  "lat": 44.1791715,
  "lon": 28.6518359
},
{
  "type": "node",
  "id": 1491156181,
  "lat": 44.1787391,
  "lon": 28.6519717
},
{
  "type": "node",
  "id": 1491156229,
  "lat": 44.1790815,
  "lon": 28.6513929
},
{
  "type": "node",
  "id": 1491156253,
  "lat": 44.1789898,
  "lon": 28.6514860
},
{
  "type": "node",
  "id": 1491156309,
  "lat": 44.1791668,
  "lon": 28.6513511
},
{
  "type": "node",
  "id": 2634652189,
  "lat": 44.1790184,
  "lon": 28.6514570
},
{
  "type": "node",
  "id": 6130297072,
  "lat": 44.1747868,
  "lon": 28.6480392
},
{
  "type": "node",
  "id": 6130297073,
  "lat": 44.1748072,
  "lon": 28.6480327
},
{
  "type": "node",
  "id": 6130297074,
  "lat": 44.1747045,
  "lon": 28.6482526
},
{
  "type": "node",
  "id": 6130297075,
  "lat": 44.1747347,
  "lon": 28.6482431
},
{
  "type": "node",
  "id": 6130297076,
  "lat": 44.1747988,
  "lon": 28.6486922
},
{
  "type": "node",
  "id": 6130297077,
  "lat": 44.1747597,
  "lon": 28.6487047
},
{
  "type": "node",
  "id": 6130297078,
  "lat": 44.1748305,
  "lon": 28.6481756
},
{
  "type": "node",
  "id": 6130297079,
  "lat": 44.1748178,
  "lon": 28.6481796
},
{
  "type": "node",
  "id": 6130297080,
  "lat": 44.1748503,
  "lon": 28.6483788
},
{
  "type": "node",
  "id": 6130297081,
  "lat": 44.1748632,
  "lon": 28.6483747
},
{
  "type": "node",
  "id": 6130297082,
  "lat": 44.1748855,
  "lon": 28.6485112
},
{
  "type": "node",
  "id": 6130297083,
  "lat": 44.1748742,
  "lon": 28.6485148
},
{
  "type": "node",
  "id": 6130297084,
  "lat": 44.1749045,
  "lon": 28.6487001
},
{
  "type": "node",
  "id": 6130299585,
  "lat": 44.1749168,
  "lon": 28.6486962
},
{
  "type": "node",
  "id": 6130299586,
  "lat": 44.1749443,
  "lon": 28.6488641
},
{
  "type": "node",
  "id": 6130299587,
  "lat": 44.1749339,
  "lon": 28.6488674
},
{
  "type": "node",
  "id": 6130299591,
  "lat": 44.1746880,
  "lon": 28.6481532
},
{
  "type": "node",
  "id": 6130299596,
  "lat": 44.1747828,
  "lon": 28.6488455
},
{
  "type": "node",
  "id": 269310823,
  "lat": 44.1740286,
  "lon": 28.6580473
},
{
  "type": "node",
  "id": 269310824,
  "lat": 44.1736545,
  "lon": 28.6577363
},
{
  "type": "node",
  "id": 269310825,
  "lat": 44.1734866,
  "lon": 28.6581289
},
{
  "type": "node",
  "id": 269310826,
  "lat": 44.1738607,
  "lon": 28.6584399
},
{
  "type": "node",
  "id": 2777409992,
  "lat": 44.1733791,
  "lon": 28.6579620
},
{
  "type": "node",
  "id": 2777410013,
  "lat": 44.1733077,
  "lon": 28.6579030
},
{
  "type": "node",
  "id": 2777410015,
  "lat": 44.1732645,
  "lon": 28.6582316
},
{
  "type": "node",
  "id": 2777410023,
  "lat": 44.1729224,
  "lon": 28.6588259
},
{
  "type": "node",
  "id": 2777410031,
  "lat": 44.1727379,
  "lon": 28.6588551
},
{
  "type": "node",
  "id": 2777410033,
  "lat": 44.1731853,
  "lon": 28.6578019
},
{
  "type": "node",
  "id": 2777410037,
  "lat": 44.1729888,
  "lon": 28.6588807
},
{
  "type": "node",
  "id": 1224519975,
  "lat": 44.1709064,
  "lon": 28.6629456
},
{
  "type": "node",
  "id": 1224519983,
  "lat": 44.1709536,
  "lon": 28.6634717
},
{
  "type": "node",
  "id": 1224519985,
  "lat": 44.1707871,
  "lon": 28.6630337
},
{
  "type": "node",
  "id": 1224520023,
  "lat": 44.1710729,
  "lon": 28.6633836
},
{
  "type": "node",
  "id": 2741654575,
  "lat": 44.1709238,
  "lon": 28.6603782
},
{
  "type": "node",
  "id": 2741654576,
  "lat": 44.1707562,
  "lon": 28.6604211
},
{
  "type": "node",
  "id": 2741654577,
  "lat": 44.1707867,
  "lon": 28.6606527
},
{
  "type": "node",
  "id": 2741654578,
  "lat": 44.1709290,
  "lon": 28.6606163
},
{
  "type": "node",
  "id": 2741654579,
  "lat": 44.1709105,
  "lon": 28.6604758
},
{
  "type": "node",
  "id": 2741654580,
  "lat": 44.1709358,
  "lon": 28.6604694
},
{
  "type": "node",
  "id": 2777410035,
  "lat": 44.1728653,
  "lon": 28.6589603
},
{
  "type": "node",
  "id": 3872635398,
  "lat": 44.1708192,
  "lon": 28.6630100
},
{
  "type": "node",
  "id": 3872635399,
  "lat": 44.1709842,
  "lon": 28.6634491
},
{
  "type": "node",
  "id": 2741678029,
  "lat": 44.1762928,
  "lon": 28.6547574
},
{
  "type": "node",
  "id": 2741678030,
  "lat": 44.1762594,
  "lon": 28.6548536
},
{
  "type": "node",
  "id": 2741678031,
  "lat": 44.1763923,
  "lon": 28.6550768
},
{
  "type": "node",
  "id": 2741678032,
  "lat": 44.1764739,
  "lon": 28.6549626
},
{
  "type": "node",
  "id": 2741678034,
  "lat": 44.1763249,
  "lon": 28.6547540
},
{
  "type": "node",
  "id": 2741678035,
  "lat": 44.1763077,
  "lon": 28.6547780
},
{
  "type": "node",
  "id": 2741678036,
  "lat": 44.1762448,
  "lon": 28.6548741
},
{
  "type": "node",
  "id": 2741678040,
  "lat": 44.1763616,
  "lon": 28.6550343
},
{
  "type": "node",
  "id": 3873443011,
  "lat": 44.1762280,
  "lon": 28.6549440
},
{
  "type": "node",
  "id": 3873443012,
  "lat": 44.1762417,
  "lon": 28.6548290
},
{
  "type": "node",
  "id": 3873443013,
  "lat": 44.1762614,
  "lon": 28.6548972
},
{
  "type": "node",
  "id": 3873443014,
  "lat": 44.1762680,
  "lon": 28.6547921
},
{
  "type": "node",
  "id": 3873443015,
  "lat": 44.1763275,
  "lon": 28.6550821
},
{
  "type": "node",
  "id": 3873443016,
  "lat": 44.1763436,
  "lon": 28.6547799
},
{
  "type": "node",
  "id": 3873443017,
  "lat": 44.1763767,
  "lon": 28.6547335
},
{
  "type": "node",
  "id": 3873443018,
  "lat": 44.1764473,
  "lon": 28.6549256
},
{
  "type": "node",
  "id": 3873443019,
  "lat": 44.1764810,
  "lon": 28.6548783
}

  ]
}
