{
  "version": 0.6,
  "generator": "Overpass API 0.7.55.1011 6c2efc30",
  "osm3s": {
    "timestamp_osm_base": "2020-02-14T14:44:02Z",
    "copyright": "The data included in this document is from www.openstreetmap.org. The data is made available under ODbL."
  },
  "elements": [

{
  "type": "node",
  "id": 255958573,
  "lat": 50.8510351,
  "lon": 2.8854006,
  "tags": {
    "name": "In Flanders Fields",
    "note": "real opening hours, see their site. If someone knows how to tag this, please do.",
    "opening_hours": "Dec 28-Jan 3 Tu-Su 10:00-17:00; Jan 4-18 off; Jan 19-Mar 30 Tu-Su 10:00-17:00",
    "tourism": "museum",
    "website": "http://www.inflandersfields.be",
    "wikidata": "Q2708415",
    "wikipedia": "nl:In Flanders Fields Museum"
  }
},
{
  "type": "node",
  "id": 1095139523,
  "lat": 50.8455251,
  "lon": 2.8892433,
  "tags": {
    "name": "Stedelijk museum",
    "tourism": "museum"
  }
},
{
  "type": "node",
  "id": 1169756382,
  "lat": 51.0081895,
  "lon": 3.6192002,
  "tags": {
    "addr:city": "Sint-Martens-Latem",
    "addr:housename": "Museum Gevaert-Minne",
    "addr:housenumber": "45",
    "addr:postcode": "9830",
    "addr:street": "Kapitteldreef",
    "name": "Museum Gevaert-Minne",
    "tourism": "museum",
    "wikidata": "Q13866173"
  }
},
{
  "type": "node",
  "id": 1174119433,
  "lat": 50.7755175,
  "lon": 3.0340570,
  "tags": {
    "name": "Tabaksmuseum",
    "tourism": "museum",
    "website": "http://www.nationaaltabaksmuseum.be/"
  }
},
{
  "type": "node",
  "id": 1188062050,
  "lat": 50.6635146,
  "lon": 3.6140848,
  "tags": {
    "name": "La Maison du Sucre",
    "tourism": "museum",
    "wikidata": "Q666813",
    "wikipedia": "fr:Frasnes-lez-Anvaing"
  }
},
{
  "type": "node",
  "id": 1263445627,
  "lat": 50.8296692,
  "lon": 3.2699803,
  "tags": {
    "alt_name": "Groeningemuseum Kortrijk",
    "name": "Kortrijk 1302",
    "tourism": "museum",
    "website": "https://www.kortrijk1302.be/",
    "wikidata": "Q2045153",
    "wikipedia": "nl:Kortrijk 1302"
  }
},
{
  "type": "node",
  "id": 1264515775,
  "lat": 50.8305771,
  "lon": 3.2560514,
  "tags": {
    "description": "opening_hours tested with http://openingh.openstreetmap.de/evaluation_tool/#",
    "name": "Texture Kortrijk",
    "old_name": "Nationaal Vlasmuseum",
    "opening_hours": "May-Sep Tu-Su 10:00-18:00; Mo off \"Closed\"; Jan-Apr,Sep-Dec Tu-Su 10:00-17:00; Mo off \"Closed\"; PH off",
    "tourism": "museum",
    "website": "https://www.texturekortrijk.be/"
  }
},
{
  "type": "node",
  "id": 1363635190,
  "lat": 50.9787472,
  "lon": 3.0810021,
  "tags": {
    "addr:housenumber": "24",
    "addr:postcode": "8830",
    "addr:street": "Marktplaats",
    "name": "Oorlogsmuseum",
    "tourism": "museum"
  }
},
{
  "type": "node",
  "id": 1388375116,
  "lat": 51.1156114,
  "lon": 3.2940965,
  "tags": {
    "tourism": "museum"
  }
},
{
  "type": "node",
  "id": 1525100971,
  "lat": 50.6268610,
  "lon": 3.0717035,
  "tags": {
    "addr:city": "Lille",
    "addr:postcode": "59000",
    "name": "Saint-Sauveur - Salle d'exposition",
    "tourism": "museum",
    "wheelchair": "yes"
  }
},
{
  "type": "node",
  "id": 1525113136,
  "lat": 50.6366637,
  "lon": 3.0728035,
  "tags": {
    "addr:city": "Lille",
    "addr:postcode": "59000",
    "addr:street": "Avenue Willy Brandt",
    "description": "Le Tripostal possède le charme des anciens bâtiments industriels et de travail. Initialement consacré au tri du courrier, il a été transformé à l'occasion de Lille 2004 Capitale Européenne de la Culture.",
    "email": "contact@lille3000.com",
    "name": "Le Tripostal",
    "opening_hours": "We,Th,Su 10:00-19:00; Fr,Sa 10:00-20:00; Mo,Tu off",
    "phone": "+33 3 28 52 3000",
    "tourism": "museum",
    "website": "https://www.lille.fr/Nos-equipements/Le-Tripostal"
  }
},
{
  "type": "node",
  "id": 1895321285,
  "lat": 50.6391909,
  "lon": 3.0352871,
  "tags": {
    "addr:city": "Lambersart",
    "addr:postcode": "59130",
    "addr:street": "Avenue du Colysée",
    "description": "Le Colysée, créé en 2004 par l'architecte Pierre-Louis Carlier, doit son nom au \"Colysée Royal",
    "name": "Maison Folie Le Colysée",
    "opening_hours": "We-Sa 13:00-18:00; Su 13:00-19:00",
    "phone": "+33 3 20 00 60 06",
    "tourism": "museum",
    "website": "http://www.lambersart.fr/Tourisme-et-culture/Le-Colysee"
  }
},
{
  "type": "node",
  "id": 1986875259,
  "lat": 50.8497339,
  "lon": 2.8862834,
  "tags": {
    "addr:housenumber": "38",
    "addr:street": "Rijselsestraat",
    "name": "Museum Godhuis Belle",
    "phone": "+32 57 23 92 20",
    "tourism": "museum"
  }
},
{
  "type": "node",
  "id": 1986915119,
  "lat": 50.8502913,
  "lon": 2.8811188,
  "tags": {
    "name": "Onderwijsmuseum",
    "tourism": "museum"
  }
},
{
  "type": "node",
  "id": 2218016122,
  "lat": 50.5656435,
  "lon": 3.4489426,
  "tags": {
    "name": "Musée de la Ville",
    "tourism": "museum"
  }
},
{
  "type": "node",
  "id": 2268074792,
  "lat": 50.7119447,
  "lon": 3.1550369,
  "tags": {
    "addr:city": "Tourcoing",
    "addr:postcode": "59200.0",
    "addr:street": "Message Verlaine 4 bis Avenue de la Marne",
    "description": "Depuis plus de 24 ans, notre association oeuvre dans un lieu de mÃ©moire particulier, un bunker allemand dâÃ©tat-major, Ã  lutter contre lâoubli et contre toute forme de rÃ©visionnisme. Notre parti pris est de rappeler le conflit passÃ© en soulignant",
    "horaires:fr": "Le Musée est ouvert les premier et troisième dimanches de chaque mois de 9h à 18h.",
    "indoor:level": "*",
    "latitude": "50.7119814999",
    "longitude": "3.15495178332",
    "name": "Musée du 5 juin 1944 - Message Verlaine",
    "object_id": "6586.0",
    "opening_hours": "Su[1,3] 09:00-18:00",
    "phone": "+33 3 20 24 25 00",
    "tourism": "museum",
    "type": "Musee",
    "website": "http://www.museedu5juin1944.asso.fr/",
    "wikidata": "Q3330321"
  }
},
{
  "type": "node",
  "id": 2541087406,
  "lat": 50.5561065,
  "lon": 3.0537334,
  "tags": {
    "addr:city": "Seclin",
    "addr:postcode": "59113",
    "addr:street": "Chemin du fort",
    "name": "Fort de Seclin",
    "phone": "+33 3 20 97 14 18",
    "tourism": "museum",
    "website": "http://www.fortseclin.com/",
    "wikidata": "Q1438857"
  }
},
{
  "type": "node",
  "id": 2622590190,
  "lat": 50.6880044,
  "lon": 3.0530171,
  "tags": {
    "name": "Espace Gutenberg",
    "tourism": "museum"
  }
},
{
  "type": "node",
  "id": 2622590194,
  "lat": 50.6862453,
  "lon": 3.0547729,
  "tags": {
    "addr:city": "Wambrechies",
    "addr:postcode": "59118",
    "addr:street": "Avenue de Robersart",
    "description": "Entre féerie et douce nostalgie, ce musée est l'occasion unique de découvrir une collection riche et originale, dans le cadre exceptionnel du Château de Robersart. Laissez-vous guider par le charme désuet et délicat des poupées de porcelaine",
    "email": "contact@musee-du-jouet-ancien.com",
    "fee": "yes",
    "name": "Musée de la Poupée et du Jouet Ancien de Wambrechies",
    "opening_hours": "We,Su 14:00-18:00; PH,SH 14:00-18:00; Dec 25,Jan 01 off",
    "phone": "+33 3 20 39 69 28",
    "tourism": "museum",
    "website": "http://www.musee-du-jouet-ancien.com/",
    "wikidata": "Q3329945",
    "wikipedia": "fr:Musée de la Poupée et du Jouet Ancien de Wambrechies"
  }
},
{
  "type": "node",
  "id": 2680779359,
  "lat": 50.8465456,
  "lon": 2.9435716,
  "tags": {
    "name": "Hooghe Crater Museum",
    "note": "WW1 museum",
    "tourism": "museum",
    "website": "http://www.hoogecrater.com/en/"
  }
},
{
  "type": "node",
  "id": 2739158255,
  "lat": 50.6929967,
  "lon": 3.0881519,
  "tags": {
    "name": "Epace Schumann",
    "tourism": "museum"
  }
},
{
  "type": "node",
  "id": 3168152521,
  "lat": 50.7926667,
  "lon": 3.1230881,
  "tags": {
    "image": "File:Menen - Schippershof 1.jpg",
    "name": "Stadsmuseum 't Schippershof",
    "tourism": "museum",
    "wikidata": "Q2611559"
  }
},
{
  "type": "node",
  "id": 3190447985,
  "lat": 50.7359129,
  "lon": 2.8806079,
  "tags": {
    "fixme": "Position correctly when images are updated",
    "name": "Plugstreet, centre d'interprétation",
    "name:en": "Plugstreet, interpretation centre",
    "name:fr": "Plugstreet, centre d'interprétation",
    "name:nl": "Plugstreet, interpretatiecentrum",
    "tourism": "museum",
    "website": "http://www.plugstreet1418.be/"
  }
},
{
  "type": "node",
  "id": 3514463553,
  "lat": 50.7665563,
  "lon": 3.0023113,
  "tags": {
    "addr:city": "Comines",
    "addr:postcode": "7780",
    "addr:street": "Rue des Arts",
    "name": "Musée de la Rubanerie",
    "tourism": "museum"
  }
},
{
  "type": "node",
  "id": 3517691578,
  "lat": 50.7210916,
  "lon": 3.1575974,
  "tags": {
    "name": "Musée d'histoire locale",
    "tourism": "museum"
  }
},
{
  "type": "node",
  "id": 3700729494,
  "lat": 50.9201682,
  "lon": 3.1291300,
  "tags": {
    "name": "MUZE'UM L",
    "tourism": "museum",
    "website": "http://www.muzeuml.be/"
  }
},
{
  "type": "node",
  "id": 4348389384,
  "lat": 50.8488730,
  "lon": 2.8875416,
  "tags": {
    "name": "Museum Merghelynck",
    "tourism": "museum"
  }
},
{
  "type": "node",
  "id": 4693648391,
  "lat": 50.8464568,
  "lon": 2.9454146,
  "tags": {
    "name": "Openlucht  museum  WO 1",
    "name:nl": "Openlucht  museum  WO 1",
    "tourism": "museum"
  }
},
{
  "type": "node",
  "id": 5058102713,
  "lat": 50.6408753,
  "lon": 3.0693702,
  "tags": {
    "addr:city": "Lille",
    "addr:housenumber": "44",
    "addr:postcode": "59000",
    "addr:street": "Rue des Canonniers",
    "description": "Le Musée des canonniers est un musée lillois installé dans l'ancien couvent des Urbanistes. Le musée présente une collection d'objets relatifs à la Confrérie de Sainte-Barbe et à la défense de la ville de Lille.",
    "email": "museedescanonniers@orange.fr",
    "name": "Musée des canonniers sédentaires de Lille",
    "opening_hours": "Mar-Oct Sa 10:00-18:00;Nov-Feb Sa 10:00-17:00; PH off",
    "phone": "+33 3 20 55 58 90",
    "tourism": "museum",
    "website": "http://museedescanonniers.wix.com/lille",
    "wikidata": "Q3330235"
  }
},
{
  "type": "node",
  "id": 5325785675,
  "lat": 50.6286689,
  "lon": 3.0743084,
  "tags": {
    "addr:city": "Lille",
    "addr:postcode": "59000",
    "fee": "yes",
    "museum": "science",
    "name": "Musée de l'Institut Pasteur de Lille",
    "opening_hours": "Fr-Sa 10:00-12:00, 14:00-17:00",
    "phone": "+33 3 20 87 72 42",
    "tourism": "museum",
    "website": "https://www.pasteur-lille.fr/musee/",
    "wikidata": "Q64061311"
  }
},
{
  "type": "node",
  "id": 5525293582,
  "lat": 50.6908407,
  "lon": 3.1887513,
  "tags": {
    "addr:city": "Roubaix",
    "addr:postcode": "59100.0",
    "addr:street": "14 place Faidherbe",
    "description": "La Condition Publique est un LABORATOIRE CREATIF, lieu de vie, de travail et de diffusion, au croisement entre culture et innovation sociale, urbaine et environnementale. >LIEU DE VIE ET DE PATRIMOINE tirant profit de son architecture exceptionnelle, monu",
    "email": "info@laconditionpublique.com",
    "horaires:fr": "La Condition Publique, sa rue couverte, sa VerriÃ¨re et ses toits-terrasses sont en accÃ¨s libre: mer > sam 12:00 â 19:00 La Billetterie et lâaccueil sont ouverts : mer > sam 13:00 â 19:00",
    "latitude": "50.6908406922",
    "longitude": "3.18875132148",
    "name": "La Condition Publique, Maison Folie",
    "object_id": "5398.0",
    "opening_hours": "We-Sa 13:00-19:00 open \"Billeterie et accueil",
    "phone": "+33 3 28 33 48 33",
    "tourism": "museum",
    "type": "Fabrique culturelle",
    "website": "http://www.laconditionpublique.com/"
  }
},
{
  "type": "node",
  "id": 5525293583,
  "lat": 50.6374483,
  "lon": 3.1451637,
  "tags": {
    "addr:city": "Villeneuve-d'Ascq",
    "addr:postcode": "59650",
    "addr:street": "Rue Albert Samain",
    "description": "Dans un cadre authentique, le musée décrit la vie dans et autour des moulins. On y découvre l'évolution des technologies de fonctionnement et des énergies utilisées, de la main de l'homme à l'électricité, en passant par la vapeur.",
    "name": "Musée des Moulins",
    "opening_hours": "Mo-Fr 10:00-12:00,14:00-17:00",
    "phone": "+33 3 20 05 49 34",
    "tourism": "museum",
    "website": "http://asso.nordnet.fr/aramnord/",
    "wikidata": "Q3330263"
  }
},
{
  "type": "node",
  "id": 5525293585,
  "lat": 50.6225692,
  "lon": 3.0676225,
  "tags": {
    "amenity": "arts_centre",
    "contact:housenumber": "2",
    "contact:street": "Rue de Fontenoy",
    "description": "Le Flow est l'équipement de la Ville de Lille 100% dédié aux Cultures Urbaines. Tout y est mis en oeuvre pour favoriser la professionnalisation et la création des artistes Hip-Hop.",
    "email": "flow@mairie-lille.fr",
    "name": "Flow-Centre Eurorégional Des Cultures Urbaines",
    "opening_hours": "Mo-Th 14:00-20:00; Sa-Su 14:00-18:00",
    "phone": "+33 3 62 14 59 52",
    "tourism": "museum",
    "website": "https://flow.lille.fr/"
  }
},
{
  "type": "node",
  "id": 5525293586,
  "lat": 50.7648180,
  "lon": 3.0170280,
  "tags": {
    "addr:city": "Comines",
    "addr:postcode": "59560",
    "addr:street": "rue Kléber Loquet",
    "description": "L'appellation \"musiques amplifiées",
    "email": "regie@ville-comines.fr",
    "horaires:fr": "Lundi, jeudi et vendredi : 10h - 12h et 14h - 22h // Mardi et mercredi : 10h - 12h et 14h - 20h // Samedi : 13h - 19h",
    "latitude": "50.764817995",
    "longitude": "3.01702802441",
    "name": "Le Nautilys",
    "object_id": "5676.0",
    "opening_hours": "Mo,Th,Fr 10:00-12:00,14:00-22:00; Tu,We 10:00-12:00,14:00-20:00; Sa 13:00-19:00",
    "phone": "+33 3 20 74 37 40",
    "tourism": "museum",
    "type": "Fabrique culturelle",
    "website": "https://www.ville-comines.fr/vivre-comines/equipement-nautilys.html"
  }
},
{
  "type": "node",
  "id": 5525293587,
  "lat": 50.6306211,
  "lon": 3.0697166,
  "tags": {
    "addr:city": "Lille",
    "addr:postcode": "59000",
    "addr:street": "Place Augustin Laurent",
    "description": "Inscrit au patrimoine mondial de l'UNESCO, le beffroi de l'Hôtel de Ville domine Lille du haut de ses 104 mètres ! Une fois les 100 premières marches gravies, montez en ascenseur (ou à pied pour les plus courageux) jusqu'au sommet du beffroi...",
    "name": "Beffroi de Lille",
    "opening_hours": "10:00-13:00,14:00-17:00",
    "phone": "+33 8 91 56 20 04",
    "tourism": "museum",
    "website": "https://www.lilletourism.com/visite-libre-du-beffroi-de-l-hotel-de-ville.html"
  }
},
{
  "type": "node",
  "id": 5525293589,
  "lat": 50.6830469,
  "lon": 3.1959052,
  "tags": {
    "addr:city": "Roubaix",
    "addr:postcode": "59100.0",
    "addr:street": "29 Avenue Julien Lagache",
    "description": "La Manufacture est un musée atelier dédié à la mémoire de l'industrie textile de Roubaix et environs. Au bruit des machines, les visiteurs sont plongés dans l'univers des usines textiles.",
    "email": "contact@lamanufacture-roubaix.fr",
    "horaires:fr": "Tous les jours sauf lundi 14h-15h-16h-17h",
    "latitude": "50.6830468909",
    "longitude": "3.19590523089",
    "name": "La manufacture - Musée de la mémoire et de la création textile",
    "object_id": "5714.0",
    "phone": "+33 3 20 20 98 92",
    "tourism": "museum",
    "type": "Musee",
    "website": "http://www.lamanufacture-roubaix.fr",
    "wikidata": "Q64052728"
  }
},
{
  "type": "node",
  "id": 5525293590,
  "lat": 50.7000523,
  "lon": 3.1546769,
  "tags": {
    "addr:city": "Tourcoing",
    "addr:postcode": "59200.0",
    "addr:street": "22 rue du Fresnoy",
    "description": "Le Fresnoy - Studio national des arts contemporains est né de la volonté du ministère de la Culture et de la Communication d'implanter dans le nord de la France, un établissement supérieur d'enseignement artistique d'un type nouveau",
    "email": "lmenard@lefresnoy.net",
    "horaires:fr": "Mercredi, jeudi, dimanche, 01 novembre : de 14h00 à 19h00 Vendredi, samedi, 11 novembre : de 14h00 à 20h00",
    "latitude": "50.7000523105",
    "longitude": "3.15467689068",
    "name": "Le Fresnoy - Studio National Des Arts Contemporains",
    "object_id": "5629.0",
    "opening_hours": "We,Th,Su 14:00-19:00; Fr,Sa 14:00-20:00; Nov 01 14:00-19:00; Nov 11 14:00-20:00",
    "phone": "+33 3 20 28 38 04",
    "tourism": "museum",
    "type": "AUTRE",
    "website": "https://www.lefresnoy.net/fr"
  }
},
{
  "type": "node",
  "id": 5525293591,
  "lat": 50.5759033,
  "lon": 3.0176033,
  "tags": {
    "addr:city": "Noyelles-lès-Seclin",
    "addr:postcode": "59139",
    "addr:street": "Hôtel Echevinal",
    "name": "Le Petit Musée",
    "phone": "+33 3 20 90 01 75",
    "tourism": "museum",
    "website": "http://www.ville-noyelles-les-seclin.fr/Decouvrir-la-Ville/Histoire-et-patrimoine/Le-Petit-Musee"
  }
},
{
  "type": "node",
  "id": 5525293592,
  "lat": 50.6813914,
  "lon": 3.2362829,
  "tags": {
    "addr:city": "LEERS",
    "addr:postcode": "59115.0",
    "addr:street": "Espace culturel 49 rue du Maréchal Leclerc",
    "description": "Le musée d'histoire locale Guy Haquette vous invite à faire un retour dans le passé de la commune. Ce dernier abrite près d'un millier de pièces. Il s'est constitué uniquement à partir de dons et aborde différents thèmes : l'archéologie, l'histoire, ...",
    "email": "contact@leershistorique.com",
    "latitude": "50.6813914112",
    "longitude": "3.23628293931",
    "name": "Musée d'Histoire Locale Guy Haquette",
    "object_id": "805.0",
    "opening_hours:description:fr": "Permanences chaque mois (sauf juillet et aoÃ»t) le 1er samedi de 14 h 30 Ã  16 h 30 et le vendredi sur rendez-vous.",
    "phone": "+33 3 20 83 88 26",
    "tourism": "museum",
    "type": "Musee",
    "website": "https://www.ville-leers.fr/Temps-libre/Culture"
  }
},
{
  "type": "node",
  "id": 5525293593,
  "lat": 50.7220436,
  "lon": 3.1595233,
  "tags": {
    "addr:city": "Tourcoing",
    "addr:housenumber": "11",
    "addr:postcode": "59200.0",
    "addr:street": "Rue de Tournai",
    "description": "Le clocher de Saint-Christophe est un monument historique (16Ã¨me siÃ¨cle) et le lieu idÃ©al pour une dÃ©couverte panoramique de la ville. Il abrite lâun des plus importants carillons de France : 62 cloches. Attention : Armez-vous de courage pour gravir",
    "latitude": "50.7220368244",
    "longitude": "3.15953781559",
    "name": "Musée du Carillon",
    "object_id": "239.0",
    "phone": "+33 3 20 23 37 00",
    "tourism": "museum",
    "type": "Musee",
    "website": "https://www.tourcoing.fr/Mes-loisirs/Culture/Patrimoine/Musee-du-Carillon"
  }
},
{
  "type": "node",
  "id": 5525293594,
  "lat": 50.7206697,
  "lon": 3.1631846,
  "tags": {
    "addr:city": "Tourcoing",
    "addr:housenumber": "100",
    "addr:postcode": "59200",
    "addr:street": "Rue de Tournai",
    "amenity": "arts_centre",
    "description": "Spectacles, concerts, expositions, lectures, débats, BD, rencontres avec des écrivains, visites avec les artistes invités, ateliers d'écriture et d'arts plastiques, ou visites guidées à thème",
    "name": "Maison Folie Hospice d’Havré",
    "opening_hours": "13:30-18:00; Tu off; PH off",
    "operator": "Ville de Tourcoing",
    "phone": "+33 3 59 63 43 53",
    "ref": "1711.0",
    "tourism": "museum",
    "website": "https://www.tourcoing.fr/Mes-loisirs/Culture/Maison-Folie-Hospice-d-Havre"
  }
},
{
  "type": "node",
  "id": 5525505223,
  "lat": 50.6874715,
  "lon": 2.8825915,
  "tags": {
    "addr:city": "Armentières",
    "addr:postcode": "59280",
    "addr:street": "4 place Saint Vaast",
    "description": "Scène conventionnée danse et théâtre (et musique aussi !), le Vivat mène un projet artistique emblématique mettant en avant l'accompagnement des artistes et des publics. NOTRE MÉTIER Nous stimulons et diffusons la création artistique chorégraphique",
    "email": "contact@levivat.net",
    "name": "Le Vivat",
    "opening_hours": "Tu-Fr 13:00-18:00; Sa 14:00-18:00; SH Tu-Fr 13:00-18:00; SH Sa off",
    "phone": "+33 3 20 77 18 77",
    "tourism": "museum",
    "website": "http://www.levivat.net/"
  }
},
{
  "type": "node",
  "id": 5525505224,
  "lat": 50.6753370,
  "lon": 3.0912106,
  "tags": {
    "addr:city": "Marcq-en-Barœul",
    "addr:postcode": "59700",
    "addr:street": "25 rue Raymond Derain",
    "description": "Le musée vous présente deux siècles de télécommunications: télégraphe, téléphone et radio de 1791 à nos jours. La visite est guidée par un membre de l'association.",
    "email": "musee.telecom.5962@wanadoo.fr",
    "name": "Musée des télécommunications et de la radio",
    "opening_hours": "We,Th,Su 15:00-17:00",
    "phone": "+33 3 20 72 30 28",
    "tourism": "museum",
    "website": "http://museetelecom5962.fr/museetelecom5962/accueil.html"
  }
},
{
  "type": "node",
  "id": 5525538037,
  "lat": 50.6244555,
  "lon": 3.0481165,
  "tags": {
    "addr:city": "Lille",
    "addr:postcode": "59000",
    "addr:street": "Rue des Sarrazins",
    "amenity": "arts_centre",
    "description": "La maison Folie Wazemmes est un équipement culturel pluridisciplinaire de la Ville de Lille, né à l'occasion de Lille 2004 Capitale européenne de la culture.",
    "email": "mfwazemmes@mairie-lille.fr",
    "name": "Maison Folie de Lille Wazemmes",
    "opening_hours": "We-Di 14:00-19:00",
    "phone": "+33 3 20 78 20 23",
    "tourism": "museum",
    "website": "https://maisonsfolie.lille.fr/",
    "wikidata": "Q2310474",
    "wikipedia": "fr:Maison folie de Wazemmes"
  }
},
{
  "type": "node",
  "id": 5525538038,
  "lat": 50.6256049,
  "lon": 3.0512566,
  "tags": {
    "addr:city": "Lille",
    "addr:postcode": "59000",
    "addr:street": "4 rue des Sarrazins",
    "description": "Le Centre d'Arts plastiques et visuels est le centre d'art de la ville de Lille qui offre aux enfants, adolescents et adultes de nos communes une formation exigeante tant pour l'initiation que pour le perfectionnement de leur pratique artistique dans plus",
    "name": "Centre d'Arts Plastiques Et Visuels - Wazemmes",
    "phone": "+33 3 20 54 71 84",
    "tourism": "museum",
    "website": "https://www.lille.fr/Centre-d-Arts-plastiques-et-visuels"
  }
},
{
  "type": "node",
  "id": 5525557114,
  "lat": 50.5893738,
  "lon": 3.0759425,
  "tags": {
    "addr:city": "Faches-Thumesnil",
    "addr:postcode": "59155.0",
    "addr:street": "16 rue Kleber",
    "description": "Le Centre Musical les Arcades propose une programmation diversifiée de grande qualité, largement ouverte sur les musiques du monde, le jazz, le jeune public et l'accompagnement d'artistes régionaux.",
    "email": "arcades@ville-fachesthumesnil.fr",
    "name": "Les Arcades",
    "opening_hours": "Mo,Tu,Th,Fr 14:00-18:00; We 09:00-12:00,14:00-18:00; PH off",
    "phone": "+33 3 20 62 96 96",
    "tourism": "museum",
    "website": "https://www.ville-fachesthumesnil.fr/Temps-libre/Centre-Musical-Les-Arcades"
  }
},
{
  "type": "node",
  "id": 5525557115,
  "lat": 50.6788776,
  "lon": 2.8465079,
  "tags": {
    "addr:city": "Erquinghem-Lys",
    "addr:postcode": "59193",
    "addr:street": "rue de l'issue",
    "description": "Le musée permet de présenter les travaux de l'association Erquinghem-lys et son histoire de manière quasi permanente.",
    "name": "Musée de la cité d'Ercan",
    "tourism": "museum",
    "website": "https://www.ville-erquinghem-lys.fr/fr/accueil/son_histoire/son_musee"
  }
},
{
  "type": "node",
  "id": 5525557118,
  "lat": 50.6407758,
  "lon": 2.9917582,
  "tags": {
    "addr:city": "Lomme",
    "addr:postcode": "59160",
    "addr:street": "33 place Beaulieu",
    "email": "accueilmaisonfolie@mairie-lomme.fr",
    "name": "Maison Folie Beaulieu",
    "phone": "+33 3 20 22 93 66",
    "tourism": "museum",
    "website": "https://www.ville-lomme.fr/Culture-et-loisirs/Maison-Folie-Beaulieu"
  }
},
{
  "type": "node",
  "id": 5525557119,
  "lat": 50.6322117,
  "lon": 3.0275373,
  "tags": {
    "addr:city": "Lille",
    "addr:postcode": "59000",
    "addr:street": "Lieu d'exposition",
    "description": "L'Espace Edouard Pignon, lieu d'exposition municipal animé par le CABB (Comité d'Animation des Bois-Blancs)",
    "name": "espace Pignon;Salle Édouard Pignon",
    "opening_hours": "15:00-18:00",
    "phone": "+33 3 20 93 88 20",
    "tourism": "museum",
    "website": "http://cabb3.over-blog.org/"
  }
},
{
  "type": "node",
  "id": 5525557120,
  "lat": 50.6925858,
  "lon": 3.0876665,
  "tags": {
    "addr:city": "Bondues",
    "addr:postcode": "59910",
    "addr:street": "Fort de Bondues, Avenue du General de Gaulle",
    "description": "Présenté dans le fort de Bondues, ce musée retrace l'histoire de la Résistance dans la région. Il a été ouvert en souvenir de 68 résistants fusillés dans ce fort en 1943 et 1944.",
    "email": "mbondues@mairie-bondues.fr",
    "name": "Musée de la résistance de Bondues",
    "opening_hours": "Sep-Jun: 14:00-16:30; Sep-Jun: Sa[1,3] 14:30-18:00; Sep-Jun: Su[1,3] 14:30-18:00; Jul-Aug: 14:00-18:00; Jul-Aug: Sa-Su off; Tu off; PH off",
    "phone": "+33 3 20 25 94 95",
    "tourism": "museum",
    "website": "https://www.ville-bondues.fr/musee/",
    "wikidata": "Q3330069"
  }
},
{
  "type": "node",
  "id": 5748869821,
  "lat": 50.7037398,
  "lon": 3.3422451,
  "tags": {
    "addr:city": "Warcoing",
    "addr:postcode": "7740",
    "addr:street": "Rue Royale",
    "name": "Musée Jules Jooris",
    "operator": "Commune de Pecq",
    "tourism": "museum"
  }
},
{
  "type": "node",
  "id": 5854495022,
  "lat": 51.1435751,
  "lon": 3.2953392,
  "tags": {
    "name": "Museumschip Tordino",
    "tourism": "museum",
    "website": "http://www.museumschip.be/",
    "wikidata": "Q56245118"
  }
},
{
  "type": "node",
  "id": 5859225643,
  "lat": 50.8722381,
  "lon": 2.9885603,
  "tags": {
    "name": "underground war hospital",
    "tourism": "museum"
  }
},
{
  "type": "node",
  "id": 6111374298,
  "lat": 50.9469476,
  "lon": 3.1254806,
  "tags": {
    "addr:housenumber": "20",
    "addr:street": "Henri Horriestraat",
    "alt_name": "Figaro",
    "name": "Kappersmuseum",
    "tourism": "museum"
  }
},
{
  "type": "node",
  "id": 7063914648,
  "lat": 50.8559288,
  "lon": 3.3098530,
  "tags": {
    "addr:city": "Harelbeke",
    "addr:housenumber": "55",
    "addr:postcode": "8530",
    "addr:street": "Marktstraat",
    "name": "Stedelijk Museum Peter Benoit",
    "tourism": "museum"
  }
},
{
  "type": "way",
  "id": 37126000,
  "nodes": [
    432342335,
    432342336,
    432342337,
    432342338,
    432342339,
    432342341,
    432342342,
    432342343,
    432342344,
    432342345,
    432342346,
    432342347,
    432342348,
    432342349,
    432342335
  ],
  "tags": {
    "building": "yes",
    "name": "Musée de la Vie Rurale",
    "source": "cadastre-dgi-fr source : Direction Générale des Impôts - Cadastre ; mise à jour : 2009",
    "tourism": "museum"
  }
},
{
  "type": "way",
  "id": 37659060,
  "nodes": [
    441427708,
    441427711,
    1725932014,
    1725932020,
    1725932044,
    1725932099,
    1725932122,
    1725932236,
    441427713,
    441427715,
    441427717,
    441427719,
    441427721,
    441427723,
    429632202,
    441427725,
    441427708
  ],
  "tags": {
    "CRNPDC:adresse2": "143 rue Colbert",
    "CRNPDC:codepostal": "59650",
    "CRNPDC:commune": "VILLENEUVE-D'ASCQ",
    "CRNPDC:insee": "59009",
    "CRNPDC:raisonsociale": "MUSÉE de PLEIN AIR",
    "access": "private",
    "addr:city": "Villeneuve-d'Ascq",
    "addr:postcode": "59650.0",
    "addr:street": "143 Rue Colbert",
    "area": "yes",
    "barrier": "gate",
    "description": "Au coeur du Val de Marque, un village reconstruit vous invite Ã  dÃ©couvrir l'architecture rurale des XVIIÃ¨me, XVIIIÃ¨me et XIXÃ¨me siÃ¨cles... Bienvenue au MusÃ©e de Plein Air !",
    "email": "museedepleinair@lillemetropole.fr",
    "horaires:fr": "En 2017, le Musée de Plein Air est ouvert du 1er avril au 5 novembre.",
    "indoor:level": "*",
    "latitude": "50.6243834101",
    "leisure": "park",
    "longitude": "3.18153182582",
    "name": "Musée de Plein Air",
    "object_id": "22439.0",
    "operator": "Métropole Européenne de Lille (MEL)",
    "phone": "+33 3 20 63 11 25",
    "source": "cadastre-dgi-fr source : Direction Générale des Impôts - Cadastre. Mise à jour : 2009",
    "tourism": "museum",
    "type": "Musee de plein air",
    "website": "http://www.enlm.fr/home/musee-de-plein-air.html"
  }
},
{
  "type": "way",
  "id": 38354578,
  "nodes": [
    453050617,
    453050603,
    453050631,
    453050618,
    453050619,
    453050620,
    453050621,
    453050622,
    453050623,
    453050624,
    453050625,
    931829612,
    453050626,
    453050606,
    931823113,
    931839030,
    453050607,
    931825293,
    453050608,
    931847790,
    453050609,
    453050610,
    453050611,
    453050612,
    453050627,
    931831079,
    453050628,
    453050617
  ],
  "tags": {
    "CRNPDC:adresse2": "23 rue de l'espérance",
    "CRNPDC:codepostal": "59100",
    "CRNPDC:commune": "ROUBAIX",
    "CRNPDC:insee": "59512",
    "CRNPDC:raisonsociale": "ROUBAIX - LA PISCINE - MUSÉE d'ART et d'INDUSTRIE ANDRÉ DILIGENT",
    "addr:city": "Roubaix",
    "addr:housenumber": "23",
    "addr:postcode": "59100",
    "addr:street": "Rue de l'Espérance",
    "alt_name": "Musée d'Art et d'Industrie André Diligent",
    "description": "Ancienne piscine municipale de Roubaix construite par Albert Baert entre 1927 et 1932 dans un style art déco, et réhabilitée en musée en 2001 par Jean-Paul Philippon.",
    "email": "lapiscine.musee@ville-roubaix.fr",
    "horaires:fr": "Du mardi au jeudi, de 11h à 18h Le vendredi, de 11h à 20h00 Le week-end, de 13h à 18h00",
    "indoor:level": "*",
    "museum": "art",
    "name": "La Piscine",
    "object_id": "1433.0",
    "opening_hours": "Tu-Th 11:00-18:00; Fr 11:00-20:00; Sa,Su 13:00-18:00",
    "phone": "+33 3 20 69 23 61",
    "source": "cadastre-dgi-fr source : Direction Générale des Impôts - Cadastre;mise à jour : 2009",
    "start_date": "2001",
    "subject": "art",
    "tourism": "museum",
    "website": "https://www.roubaix-lapiscine.com/",
    "wheelchair": "yes",
    "wikidata": "Q1955748",
    "wikipedia": "fr:La Piscine (musée)"
  }
},
{
  "type": "way",
  "id": 41065833,
  "nodes": [
    500611099,
    500611101,
    500611103,
    500611104,
    500611106,
    500611108,
    500611109,
    500611111,
    500611113,
    500611114,
    500611116,
    500611118,
    500611120,
    500611121,
    500611123,
    500611125,
    500611126,
    500611131,
    500611132,
    500611134,
    500611135,
    500611137,
    500611139,
    500611140,
    500611142,
    500611143,
    500611145,
    500611146,
    500611148,
    500611150,
    500611152,
    500611059,
    500611061,
    500611062,
    500611064,
    500611066,
    500611067,
    500611069,
    500611071,
    500611073,
    6602764270,
    500611074,
    500611099
  ],
  "tags": {
    "addr:city": "Lille",
    "addr:housenumber": "19",
    "addr:postcode": "59000",
    "addr:street": "Rue de Bruxelles",
    "building": "civic",
    "description": "Dès l'entrée, vous quittez le quotidien et oubliez la ville.",
    "email": "contact-mhnl@mairie-lille.fr",
    "museum": "nature",
    "name": "Musée d'Histoire Naturelle et de Géologie",
    "opening_hours": "Mo-Fr 09:30-17:00; Sa,Su,PH 10:00-18:00; Tu off; Jan 01,May 01,Jul 14,Nov 01,Nov 11 off",
    "phone": "+33 3 28 55 30 80",
    "short_name": "Musée d'histoire naturelle de Lille",
    "source": "cadastre-dgi-fr source : Direction Générale des Impôts - Cadastre;mise à jour : 2009;MEL",
    "subject": "nature",
    "tourism": "museum",
    "website": "http://mhn.lille.fr/",
    "wheelchair": "limited",
    "wikidata": "Q3329688",
    "wikipedia": "fr:Musée d'histoire naturelle de Lille"
  }
},
{
  "type": "way",
  "id": 55213583,
  "nodes": [
    694075397,
    694075398,
    694075399,
    694075400,
    694075402,
    694075403,
    694075404,
    694075405,
    694075406,
    694075407,
    694075409,
    694075410,
    694075411,
    694075412,
    694075413,
    694075414,
    694075416,
    694075417,
    694075418,
    694075419,
    694075420,
    694075421,
    694075422,
    694075423,
    694075425,
    694075426,
    694075427,
    694075428,
    694075429,
    694075430,
    694075432,
    694075433,
    694075434,
    694075397
  ],
  "tags": {
    "building": "yes",
    "name": "Musée des Beaux-Arts",
    "tourism": "museum"
  }
},
{
  "type": "way",
  "id": 77462069,
  "nodes": [
    911740789,
    911744211,
    911748208,
    911737113,
    911736857,
    911752510,
    911738577,
    911747544,
    911739438,
    911756410,
    911752055,
    911755804,
    911738520,
    911754776,
    911737005,
    911743911,
    911752293,
    911738439,
    911744611,
    911737852,
    911742660,
    911738290,
    911740513,
    911743653,
    911754125,
    911745616,
    911740789
  ],
  "tags": {
    "addr:city": "Villeneuve-d'Ascq",
    "addr:housenumber": "268",
    "addr:postcode": "59650",
    "addr:street": "Rue Jules Guesde",
    "amenity": "arts_centre",
    "building": "yes",
    "description": "Fabrique culturelle ouverte à l'occasion de Lille 2004, capitale européenne de la culture, la Ferme d'en Haut propose concerts, théâtre, expositions, spectacles pour le jeune public et depuis récemment des ateliers autour du développement durable.",
    "email": "lafermedenhaut@villeneuvedascq.fr",
    "name": "La Ferme d'en Haut, Maison Folie",
    "phone": "+33 3 20 61 01 46",
    "source": "cadastre-dgi-fr source : Direction Générale des Impôts - Cadastre. Mise à jour : 2009",
    "tourism": "museum",
    "website": "https://www.villeneuvedascq.fr/ferme_haut.html"
  }
},
{
  "type": "way",
  "id": 77538767,
  "nodes": [
    912396728,
    912613641,
    912483939,
    912598433,
    912583133,
    912210571,
    912588644,
    912590224,
    912464062,
    912234803,
    912331797,
    912396728
  ],
  "tags": {
    "addr:city": "Tourcoing",
    "addr:housenumber": "2",
    "addr:postcode": "59200",
    "addr:street": "Rue Paul Doumer",
    "building": "yes",
    "description": "Grâce à un accrochage renouvelé tous les 18 mois, le musée crée un dialogue permanent entre sa collection permanente et des oeuvres du XXème siècle. Les arts vivants (danse, musique, théâtre) et les plasticiens sont également les bienvenus dans",
    "email": "museebeauxarts@ville-tourcoing.fr",
    "museum": "art",
    "name": "Musée des Beaux-Arts Eugène Leroy",
    "opening_hours": "13:00-18:00; Tu off; PH off",
    "phone": "+33 3 20 28 91 60",
    "source": "cadastre-dgi-fr source : Direction Générale des Impôts - Cadastre. Mise à jour : 2010",
    "subject": "art",
    "tourism": "museum",
    "website": "http://www.muba-tourcoing.fr/",
    "wikidata": "Q3273318"
  }
},
{
  "type": "way",
  "id": 77544723,
  "nodes": [
    5525505222,
    912311858,
    912411793,
    912424188,
    912441682,
    912427275,
    912538187,
    912314660,
    912605178,
    912148957,
    912322904,
    912147565,
    912378545,
    912614225,
    912511754,
    912500168,
    912466426,
    912339640,
    912153243,
    912135851,
    912350525,
    5981849954,
    912398753,
    5525505222
  ],
  "tags": {
    "addr:city": "Tourcoing",
    "addr:housenumber": "9",
    "addr:postcode": "59200",
    "addr:street": "Rue Gabriel Péri",
    "alt_name": "IMA Tourcoing",
    "building": "yes",
    "charge": "3€/2€",
    "description": "Intégralement repensé et réaménagé en 2012, le musée de l'IMA invite le visiteur à découvrir autrement le monde arabe.",
    "email": "accueil@ima-tourcoing.fr",
    "fee": "yes",
    "horaires:fr": "Mardi : 10h-18h Mercredi : 10h-18h Jeudi : 10h-18h Vendredi : 10h-18h Samedi : 10h-19h Dimanche : 10h-19h Jours fÃ©riÃ©s : 10h-19h. L'IMA est annuellement fermé le 1er mai.",
    "latitude": "50.7252624695",
    "longitude": "3.15825205517",
    "name": "Institut du Monde Arabe",
    "object_id": "23756.0",
    "opening_hours": "Tu-Fr 08:00-18:00; Sa-Su 10:00-19:00; PH 10:00-19:00; Mo off; May 01 off",
    "phone": "+33 3 28 35 04 00",
    "source": "cadastre-dgi-fr source : Direction Générale des Impôts - Cadastre. Mise à jour : 2010",
    "tourism": "museum",
    "website": "https://ima-tourcoing.fr/"
  }
},
{
  "type": "way",
  "id": 77892718,
  "nodes": [
    915563551,
    915554085,
    915573331,
    915577656,
    915567694,
    915561629,
    915560143,
    915573693,
    915565207,
    915563551
  ],
  "tags": {
    "addr:city": "Villeneuve-d'Ascq",
    "addr:postcode": "59650",
    "addr:street": "12 carrière Delporte rue Pasteur",
    "description": "Le musée du Terroir retrace la vie rurale et domestique des habitants du Nord de la France au début du XXe siècle. Dans le cadre typique dâune ancienne ferme à cour carrée, le musée du Terroir vous permet de plonger dans la vie quotidienne au XXe",
    "name": "Musée du Terroir",
    "phone": "+33 3 20 91 87 57",
    "source": "cadastre-dgi-fr source : Direction Générale des Impôts - Cadastre. Mise à jour : 2010",
    "tourism": "museum",
    "website": "https://www.villeneuvedascq.fr/musee_du_terroir_.html"
  }
},
{
  "type": "way",
  "id": 78706456,
  "nodes": [
    922799018,
    5820768939,
    922803252,
    922808505,
    922798800,
    922808571,
    922805753,
    922805012,
    922805048,
    922805323,
    922806246,
    922808242,
    922798807,
    922799453,
    922801118,
    922802198,
    922802172,
    922806373,
    922807234,
    922800948,
    922801721,
    922807541,
    922803053,
    922807657,
    922799664,
    922803912,
    922800200,
    922803376,
    922805387,
    922803850,
    922800175,
    922799407,
    922800537,
    922808454,
    922806509,
    922807655,
    1777977312,
    922804372,
    922803705,
    922801176,
    922807750,
    922802065,
    922799018
  ],
  "tags": {
    "building": "yes",
    "name": "Archives Nationales du Monde du Travail",
    "office": "foundation",
    "operator": "Ministère de la Culture",
    "phone": "+33 3 20 65 38 00",
    "source": "cadastre-dgi-fr source : Direction Générale des Impôts - Cadastre. Mise à jour : 2010",
    "tourism": "museum",
    "website": "http://www.archivesnationales.culture.gouv.fr/camt/",
    "wikidata": "Q2860557",
    "wikipedia": "fr:Archives nationales du monde du travail"
  }
},
{
  "type": "way",
  "id": 79049625,
  "nodes": [
    923954491,
    923957888,
    923955954,
    923961009,
    923958680,
    923956981,
    923952705,
    923959322,
    923957658,
    923955186,
    923956662,
    2895206829,
    923953096,
    923955550,
    923959766,
    923954491
  ],
  "tags": {
    "addr:city": "Villeneuve-d'Ascq",
    "addr:postcode": "59650",
    "addr:street": "1 place de l'Hotel de ville",
    "building": "yes",
    "email": "accueil-forumdessciences@lenord.fr",
    "fax": "+33320193637",
    "museum": "science",
    "name": "Forum départemental des Sciences",
    "opening_hours": "Tu-Fr 10:00-17:30; Sa,Su 14:30-18:30",
    "phone": "+33320193636",
    "source": "cadastre-dgi-fr source : Direction Générale des Impôts - Cadastre. Mise à jour : 2010",
    "subject": "science",
    "tourism": "museum",
    "website": "http://www.forumdepartementaldessciences.fr/"
  }
},
{
  "type": "way",
  "id": 79064743,
  "nodes": [
    924045443,
    924049922,
    924050903,
    924045852,
    924055899,
    924047272,
    924045443
  ],
  "tags": {
    "addr:city": "Villeneuve-d'Ascq",
    "addr:postcode": "59650",
    "addr:street": "79 rue Mangin",
    "building": "yes",
    "description": "Le Mémorial Ascq 1944 évoque le massacre de 86 civils par des soldats de la 12ème division SS Hitlerjugend, dans la nuit du 1er au 2 avril 1944. Il assume le devoir de mémoire envers les massacrés et replace l'événement dans l'histoire.",
    "horaires:fr": "Du lundi au vendredi de janvier à décembre pour les groupes sur réservation. Pour les visiteurs individuels: ouverture les jours fériés et ouverture le 1er dimanche par mois de 14h30 à 17h30. Fermeture annuelle durant le mois d'août et les vacanc",
    "indoor:level": "*",
    "latitude": "50.6212442334",
    "longitude": "3.16776721485",
    "name": "MEMORIAL ASCQ 1944",
    "object_id": "32.0",
    "phone": "+33 3 20 91 87 57",
    "source": "cadastre-dgi-fr source : Direction Générale des Impôts - Cadastre. Mise à jour : 2009",
    "tourism": "museum",
    "type": "Mémorial",
    "website": "https://www.villeneuvedascq.fr/memorial_ascq_1944_.html"
  }
},
{
  "type": "way",
  "id": 84451082,
  "nodes": [
    981310148,
    981321624,
    981322331,
    981328493,
    1706026371,
    981328704,
    981316885,
    981307952,
    981322654,
    981304203,
    981320706,
    981315712,
    981329285,
    981308703,
    981329117,
    981313340,
    981329892,
    981330506,
    981301986,
    981325146,
    981315576,
    981300218,
    981318113,
    981305383,
    981310148
  ],
  "tags": {
    "addr:city": "Lille",
    "addr:postcode": "59000",
    "addr:street": "9 Rue Princesse",
    "architect": "maître d'oeuvre inconnu",
    "building": "yes",
    "description": "Charles de Gaulle est né à Lille le 22 novembre 1890, dans la maison de ses grands-parents maternels, au 9 rue Princesse. Rachetée par la Fondation Charles de Gaulle en 1992, cette maison est transformée en musée.",
    "email": "maisondegaulle@lenord.fr",
    "heritage": "2",
    "mhs:inscription_date": "1990-11-22",
    "name": "Maison natale de Charles de Gaulle",
    "opening_hours": "We-Sa 10:00-12:00,14:00-17:00; Su 13:30-18:00",
    "phone": "+33 3 59 73 00 30",
    "ref:mhs": "IA59000390",
    "source": "cadastre-dgi-fr source : Direction Générale des Impôts - Cadastre. Mise à jour : 2010",
    "start_date:fr": "3e quart 19e siècle",
    "tourism": "museum",
    "website": "https://lenord.fr/jcms/prd2_171856/la-maison-charles-de-gaulle",
    "wikidata": "Q3280225",
    "wikipedia": "fr:Maison natale de Charles de Gaulle"
  }
},
{
  "type": "way",
  "id": 84696650,
  "nodes": [
    502637073,
    983822758,
    2691238396,
    502637077,
    502637075,
    502637073
  ],
  "tags": {
    "addr:city": "Lille",
    "addr:postcode": "59000",
    "name": "Ecomusée des Écoles Publiques de Lille",
    "tourism": "museum"
  }
},
{
  "type": "way",
  "id": 85286611,
  "nodes": [
    988803934,
    988757551,
    988840391,
    6937911259,
    6937911260,
    6937911261,
    988838193,
    6937911262,
    6939733022,
    988825858,
    988872345,
    988878094,
    988769814,
    6937911253,
    6937911252,
    6937911254,
    6937911250,
    6937911255,
    6937911256,
    6937911251,
    6937911257,
    6937911263,
    6937911265,
    6937911264,
    6937911266,
    6937911258,
    988799311,
    988815533,
    988757241,
    988749567,
    6937934556,
    988779150,
    988816429,
    6937934555,
    6937955174,
    988807545,
    988759521,
    988760290,
    988803934
  ],
  "tags": {
    "addr:city": "Croix",
    "addr:housenumber": "60",
    "addr:postcode": "59170",
    "addr:street": "Avenue John Fitzgerald Kennedy",
    "building": "yes",
    "heritage": "2",
    "heritage:operator": "mhs",
    "name": "Villa Cavrois",
    "opening_hours": "Tu-Su 10:00-18:00; Jan 01,May 01,Dec 25 off",
    "ref:mhs": "PA00107443",
    "source": "cadastre-dgi-fr source : Direction Générale des Impôts - Cadastre. Mise à jour : 2010",
    "tourism": "museum",
    "wikidata": "Q518747",
    "wikipedia": "fr:Villa Cavrois"
  }
},
{
  "type": "way",
  "id": 85293364,
  "nodes": [
    988806821,
    988756404,
    988808753,
    988772834,
    988856795,
    988806821
  ],
  "tags": {
    "addr:city": "Croix",
    "addr:housenumber": "60",
    "addr:postcode": "59170",
    "addr:street": "Avenue John Fitzgerald Kennedy",
    "building": "yes",
    "building:levels": "1",
    "height": "3",
    "name": "Guichet de la villa Carvois",
    "opening_hours": "Tu-Su 10:00-18:00",
    "phone": "+33 3 20 73 47 12",
    "source": "cadastre-dgi-fr source : Direction Générale des Impôts - Cadastre. Mise à jour : 2010",
    "tourism": "museum"
  }
},
{
  "type": "way",
  "id": 85423255,
  "nodes": [
    990282648,
    5966468138,
    5966468137,
    5966468136,
    5966468135,
    5966468134,
    5966468139,
    990282642,
    5966468133,
    5966468132,
    3786064196,
    5966468130,
    5966468131,
    990282597,
    5966468129,
    5966468118,
    5966468119,
    5966468120,
    5966468121,
    5966468122,
    5966468123,
    5966468124,
    5966468125,
    5966468126,
    5966468127,
    5966468128,
    5966468117,
    5966468116,
    5966468114,
    5966468115,
    5966468113,
    5966468112,
    5966468111,
    990282578,
    5966468110,
    990282648
  ],
  "tags": {
    "addr:housenumber": "5-5A",
    "addr:street": "Ieperstraat",
    "building": "yes",
    "local_name": "Kasteel van Zonnebeke",
    "name": "Memorial Museum Passchendaele 1917",
    "tourism": "museum",
    "wikidata": "Q20084147"
  }
},
{
  "type": "way",
  "id": 87999978,
  "nodes": [
    1022913632,
    1022913280,
    1022913509,
    1022913225,
    1022913357,
    1022913443,
    5903564113,
    5903564112,
    5903564111,
    5903564114,
    3188187316,
    3188187315,
    1022913609,
    1022913319,
    5903564101,
    5903564102,
    1022913531,
    5903564103,
    3188187321,
    1022913576,
    5903564104,
    1022913211,
    5903564105,
    3188187320,
    5903564106,
    1022913669,
    1022913286,
    1022913331,
    5903564108,
    5903564107,
    5903564109,
    5903564110,
    1022913632
  ],
  "tags": {
    "addr:housenumber": "48A",
    "addr:street": "'s Graventafelstraat",
    "amenity": "cafe",
    "building": "manufacture",
    "name": "De Oude Kaasmakerij",
    "tourism": "museum",
    "website": "https://www.deoudekaasmakerij.be/"
  }
},
{
  "type": "way",
  "id": 95067484,
  "nodes": [
    912085889,
    912098605,
    912102669,
    6657823308,
    912102185,
    912103930,
    912104231,
    912103019,
    912084967,
    912091664,
    912095892,
    912091678,
    912098074,
    912092240,
    912093428,
    912090111,
    6973977960,
    6973977962,
    6973977963,
    912095554,
    912093482,
    912091107,
    912093020,
    912095903,
    912096966,
    912095634,
    912099099,
    912099448,
    912101849,
    6657823311,
    912085889
  ],
  "tags": {
    "amenity": "arts_centre",
    "contact:phone": "+33 3 20 95 08 82",
    "contact:website": "https://maisonsfolie.lille.fr/",
    "description": "La maison Folie Moulins est un équipement culturel pluridisciplinaire de la Ville de Lille, né à l'occasion de Lille 2004 Capitale européenne de la culture. Nichée au cœur du quartier populaire de Moulins.",
    "name": "Maison Folie de Lille Moulins",
    "opening_hours": "We-Su 14:00-19:00",
    "tourism": "museum"
  }
},
{
  "type": "way",
  "id": 96386454,
  "nodes": [
    1116995339,
    1116995386,
    1116995322,
    1116995340,
    1116995392,
    1116995393,
    1116995339
  ],
  "tags": {
    "building": "yes",
    "name": "Eperon d'Or",
    "note": "2014-11-24 : restauratie en herbestemming van Eperon d'Or tot het nationaal schoen- en borstelmuseum",
    "tourism": "museum",
    "wikidata": "Q27897937"
  }
},
{
  "type": "way",
  "id": 107231088,
  "nodes": [
    1232854438,
    1232854377,
    1232854829,
    5212963894,
    1232854766,
    5212963923,
    5212963864,
    1231571075,
    1232854394,
    1232854438
  ],
  "tags": {
    "building": "yes",
    "source:geometry:date": "2016/08/29",
    "source:geometry:ref": "Gbg/5274194",
    "tourism": "museum"
  }
},
{
  "type": "way",
  "id": 107231089,
  "nodes": [
    1231570778,
    2536910112,
    1232854485,
    1232854822,
    1232854754,
    1231571212,
    1231570778
  ],
  "tags": {
    "building": "yes",
    "source:geometry:date": "2010/11/25",
    "source:geometry:ref": "Gbg/2584749",
    "tourism": "museum"
  }
},
{
  "type": "way",
  "id": 108153673,
  "nodes": [
    1241260052,
    1241259969,
    1241259929,
    1241260080,
    5547554945,
    1241260043,
    1241259987,
    5547554936,
    1241259943,
    1241260052
  ],
  "tags": {
    "building": "yes",
    "tourism": "museum"
  }
},
{
  "type": "way",
  "id": 129572039,
  "nodes": [
    5617767547,
    5617767549,
    6133523428,
    6133523423,
    6133523424,
    6133523426,
    6133523425,
    6133523427,
    1429326825,
    5871065708,
    2283156525,
    6133523445,
    2283156527,
    5904459540,
    6133523444,
    6133523443,
    6133523442,
    6133523441,
    6133523434,
    6133523433,
    6133523435,
    6133523436,
    6133523437,
    6133523438,
    6133523439,
    6133523440,
    661138751,
    2283156528,
    5286572533,
    2283156526,
    5904459539,
    1429326827,
    1429326819,
    5617767550,
    5617767547
  ],
  "tags": {
    "addr:city": "Roeselare",
    "addr:housenumber": "15",
    "addr:postcode": "8800",
    "addr:street": "Polenplein",
    "building": "yes",
    "name": "KOERS, Museum van de Wielersport",
    "operator": "Stad Roeselare",
    "tourism": "museum",
    "wikidata": "Q1966865"
  }
},
{
  "type": "way",
  "id": 142984616,
  "nodes": [
    1564474710,
    2101995554,
    2101995572,
    2101995564,
    3184300819,
    1564474710
  ],
  "tags": {
    "building": "yes",
    "name": "Tyne Cot Visitors Centre",
    "tourism": "museum"
  }
},
{
  "type": "way",
  "id": 143178308,
  "nodes": [
    1566622523,
    1566622494,
    1566622792,
    1566622541,
    1566622576,
    1566622616,
    1566622894,
    1566622454,
    1566622252,
    1566622632,
    4409321892,
    1566622523
  ],
  "tags": {
    "addr:city": "Zillebeke",
    "addr:country": "BE",
    "addr:housenumber": "26",
    "addr:postcode": "8902",
    "addr:street": "Canadalaan",
    "building": "yes",
    "email": "hill62@skynet.be",
    "image": "https://commons.wikimedia.org/wiki/File:Canadian_Memorial_Hill_62_-_Inscription_Side_-_Redvers.jpg",
    "name": "Hill 62 Sanctuary Wood Museum",
    "opening_hours": "Mo-Su 09:00-18:00; Dec 30-Jan 30 off",
    "phone": "+32 57 46 63 73",
    "tourism": "museum",
    "url": "https://inventaris.onroerenderfgoed.be/woi/relict/771",
    "wikidata": "Q5762033",
    "wikipedia": "nl:Hill 62",
    "wikipedia:de": "Hill 62",
    "wikipedia:en": "Hill 62 Memorial"
  }
},
{
  "type": "way",
  "id": 152835085,
  "nodes": [
    366573078,
    1656129186,
    1656129213,
    366573081,
    1656129231,
    366573083,
    7172103312,
    366573084,
    1656129299,
    1656129335,
    1656129291,
    1656129272,
    6596468172,
    6596468173,
    1656129253,
    1656129255,
    1656129264,
    1656129365,
    1656129317,
    1656129337,
    1656129356,
    1656129282,
    1656129258,
    1656129245,
    366573100,
    6596468175,
    6596468174,
    1656129228,
    6596468176,
    6596468177,
    6596468178,
    6596468179,
    6596468180,
    6596468181,
    6596468182,
    6596468183,
    6596468185,
    6596468186,
    6596468187,
    6596468184,
    6596468188,
    6596468191,
    6596468190,
    6596468189,
    6596468192,
    6596468194,
    6596468195,
    6596468193,
    6596468196,
    6596468199,
    6596468198,
    6596468197,
    6596468200,
    6596468203,
    6596468202,
    6596468201,
    6596468204,
    6596468207,
    6596468206,
    6596468205,
    6596468208,
    6596468211,
    6596468210,
    6596468209,
    1656129195,
    1656129208,
    6596468212,
    6596468215,
    6596468214,
    6596468213,
    1656129183,
    1656129181,
    6596468216,
    6596468219,
    6596468218,
    6596468217,
    6596468220,
    6596468221,
    1656129152,
    6596468222,
    6596468225,
    6596468224,
    6596468223,
    6596468226,
    6596468229,
    6596468228,
    6596468227,
    6596468231,
    6596468233,
    6596468232,
    6596468230,
    1656129076,
    1656129099,
    6596468234,
    6596468235,
    6596468238,
    6596468237,
    6596468239,
    6596468236,
    1656129040,
    6596468241,
    6596468243,
    6596468242,
    6596468240,
    6596468244,
    6596468245,
    1656129029,
    6596468247,
    6596468248,
    6596468249,
    6596468246,
    6596468250,
    6596468253,
    6596468252,
    6596468251,
    6596468254,
    6596468256,
    6596468257,
    6596468255,
    1656129013,
    6596468259,
    6596468260,
    6596468261,
    6596468258,
    1656129028,
    1656129022,
    6596468262,
    6596468263,
    6596468264,
    6596468267,
    6596468266,
    6596468265,
    1656129048,
    1656129055,
    6596468268,
    6596468270,
    6596468271,
    6596468269,
    6596468272,
    6596468273,
    6596468274,
    6596468275,
    6596468276,
    6596468277,
    6596468278,
    6596468279,
    6596468280,
    6596468281,
    6596468282,
    6596468283,
    6596468284,
    6596468285,
    6596468286,
    6596468288,
    6596468289,
    6596468287,
    6596468290,
    6596468291,
    6596468292,
    6596468293,
    6596468294,
    6596468295,
    6596468296,
    6596468297,
    6596468298,
    6596468299,
    6596468300,
    6596468301,
    1656129104,
    6596468304,
    6596468303,
    6596468305,
    6596468302,
    1656129061,
    1656129068,
    366573119,
    366573120,
    1656129078,
    1656129082,
    1656129106,
    1656129112,
    1656129133,
    1656129118,
    1656129126,
    1656129158,
    6596468306,
    6596468307,
    1656129138,
    1656129162,
    1656129172,
    366573149,
    366573152,
    1656129203,
    366573078
  ],
  "tags": {
    "addr:city": "Lille",
    "addr:postcode": "59000",
    "addr:street": "Place de la Republique",
    "alt_name": "Musée des Beaux Arts",
    "architect": "Bérard (maître de l'oeuvre);Delmas (maître de l'oeuvre)",
    "building": "civic",
    "description": "Le Palais des Beaux-Arts est l'un des premiers musées de France. Il propose un panorama complet de l'art en Europe de l'antiquité au XXe siècle avec des collections internationalement reconnues, des chefs-d'oeuvre de Bouts, Donatello, Rubens, Goya, Chagal",
    "heritage": "3",
    "mhs:inscription_date": "1975-10-29",
    "name": "Palais des Beaux-Arts",
    "name:uk": "Палац витончених мистецтв",
    "noaddress": "yes",
    "opening_hours": "Mo 14:00-18:00; We-Su 10:00-18:00; Tu off; Jan 01,May 01,Jul 14,Nov 01,Dec 25 off",
    "phone": "+33 3 20 06 78 00",
    "ref:mhs": "PA00107719",
    "source": "cadastre-dgi-fr source : Direction Générale des Impôts - Cadastre;mise à jour : 2008",
    "start_date:fr": "4e quart 19e siècle",
    "tourism": "museum",
    "website": "http://www.pba-lille.fr",
    "wheelchair": "yes",
    "wikidata": "Q2628596",
    "wikipedia": "fr:Palais des beaux-arts de Lille"
  }
},
{
  "type": "way",
  "id": 153320966,
  "nodes": [
    1660310681,
    1660310669,
    1660310691,
    1660310685,
    1660310659,
    1660310643,
    1660310613,
    1660310603,
    1660310703,
    1660310700,
    1660310549,
    2569844611,
    1660310392,
    2569844604,
    2569844603,
    2569844602,
    2569844601,
    2569844600,
    2569844599,
    2569844598,
    1660310629,
    1660310622,
    1660310507,
    2569844597,
    2569844596,
    2569844595,
    2569844594,
    2569844593,
    2569844592,
    2569844591,
    2569844590,
    2569844589,
    2569844588,
    2569844587,
    2569844586,
    2569844585,
    2569844584,
    2569844583,
    2569844582,
    2569844581,
    2569844580,
    2569844579,
    2569844578,
    2569844577,
    2569844576,
    2569844575,
    2569844574,
    1660310522,
    1660310385,
    2569844573,
    2569844572,
    2569844571,
    1660310298,
    1660310306,
    1660310254,
    1660310263,
    1660310183,
    1660310192,
    1660310165,
    1660310178,
    1660310196,
    1660310207,
    1660310216,
    1660310220,
    1660310239,
    1660310248,
    1660310322,
    2588172503,
    1660310334,
    1660310265,
    1660310274,
    1660310291,
    1660310286,
    1660310234,
    908123010,
    908111576,
    1660310278,
    1660310312,
    1660310321,
    1660310426,
    1660310413,
    1660310435,
    1660310445,
    1660310681
  ],
  "tags": {
    "addr:city": "Villeneuve-d'Ascq",
    "addr:housename": "LaM",
    "addr:housenumber": "1",
    "addr:postcode": "59650",
    "addr:street": "Allée du Musée",
    "alt_name": "LaM",
    "building": "yes",
    "description": "Avec plus de 6500 oeuvres et trois collections dont un ensemble unique d'art brut, le LaM est le seul musée en Europe à présenter simultanément les principales composantes de l'art des XXe et XXIe siècles.",
    "email": "info@musee-lam.fr",
    "museum": "art",
    "name": "LaM Lille Métropole - Musée d'Art Moderne, d'Art Comptemporain et d'Art Brut",
    "opening_hours": "10:00-18:00; Mo off; Jan 01,May 01,Dec 25 off",
    "phone": "+33 3 20 19 68 68",
    "source": "cadastre-dgi-fr source : Direction Générale des Impôts - Cadastre;mise à jour : 2008",
    "subject": "art",
    "toilets:wheelchair": "yes",
    "tourism": "museum",
    "website": "http://www.musee-lam.fr/",
    "wheelchair": "yes",
    "wikipedia": "fr:Lille Métropole Musée d'art moderne, d'art contemporain et d'art brut"
  }
},
{
  "type": "way",
  "id": 167286189,
  "nodes": [
    1786934500,
    4651089725,
    4651089726,
    1786934503,
    1786934521,
    1786934517,
    1786934523,
    1786934498,
    1786934511,
    4651089727,
    4651089728,
    1786934506,
    1786934507,
    4651089729,
    1786934524,
    4651089730,
    1786934510,
    1786934514,
    1786934522,
    1786934505,
    1786934508,
    1786934519,
    1786934513,
    4651089721,
    4651089722,
    1786934512,
    1786934527,
    4651089723,
    4651089724,
    1786934516,
    1786934500
  ],
  "tags": {
    "addr:housenumber": "3-5",
    "addr:street": "Lucien Matthyslaan",
    "building": "yes",
    "name": "Museum van Deinze en de Leiestreek",
    "tourism": "museum",
    "wikidata": "Q2215500"
  }
},
{
  "type": "way",
  "id": 174593977,
  "nodes": [
    1852613318,
    1852613320,
    1852613327,
    1852613326,
    1852613329,
    1852613328,
    1852613325,
    1852613323,
    1852613322,
    1852613318
  ],
  "tags": {
    "addr:housenumber": "234",
    "addr:street": "Dikkebusstraat",
    "amenity": "pub",
    "building": "yes",
    "name": "'t Folk",
    "tourism": "museum"
  }
},
{
  "type": "way",
  "id": 193058303,
  "nodes": [
    2035911366,
    2035911421,
    2035911434,
    2035911456,
    2035911404,
    2035911366
  ],
  "tags": {
    "access": "no",
    "building": "yes",
    "heritage": "3",
    "heritage:operator": "mhs",
    "mhs:inscription_date": "1999-12-31",
    "name": "Ancienne malterie de la distillerie Claeyssens",
    "ref:mhs": "PA59000041",
    "source": "data.gouv.fr:Ministère de la Culture - 08/2011",
    "source:heritage": "data.gouv.fr:Ministère de la Culture - 04/2015",
    "tourism": "museum",
    "wikidata": "Q22979778",
    "wikipedia": "fr:Ancienne malterie de la distillerie Claeyssens"
  }
},
{
  "type": "way",
  "id": 274531774,
  "nodes": [
    2925300382,
    6835597573,
    6835597574,
    6835597575,
    6835597576,
    6835597577,
    2925300379,
    6835604886,
    2925300376,
    2925300372,
    6835597578,
    2925300363,
    2792374588,
    2792374600,
    2792374598,
    4409338057,
    2699869477,
    2699869480,
    4409338184,
    4409338058,
    2925300382
  ],
  "tags": {
    "access": "customers",
    "addr:city": "Wijtschate",
    "addr:housenumber": "2",
    "addr:postcode": "8953",
    "addr:street": "Voormezelestraat",
    "email": "toerisme@heuvelland.be",
    "historic": "battlefield",
    "landuse": "grass",
    "museum": "open_air",
    "museum_type": "provincial",
    "name:de": "Bayernwald Gräben",
    "name:en": "Bayernwald Trenches",
    "name:fr": "Tranchées du Bayernwald",
    "name:nl": "Bayernwald-loopgraven",
    "operator": "Tourism Heuvelland",
    "phone": "+32 57 45 04 55",
    "surface": "grass",
    "tourism": "attraction",
    "website": "https://www.toerismeheuvelland.be/en/bayernwald-bayern-wood"
  }
},
{
  "type": "way",
  "id": 308469605,
  "nodes": [
    1020493075,
    3137521488,
    3137521489,
    3137521490,
    3137521491,
    3137521492,
    3137521493,
    3137521494,
    3137521495,
    1020493002,
    1020493075
  ],
  "tags": {
    "addr:city": "Tournai",
    "addr:housenumber": "9",
    "addr:postcode": "7500",
    "addr:street": "Place Reine Astrid",
    "building": "yes",
    "name": "Musée de la Tapisserie",
    "note": "Horaire d'hiver, du 1er novembre au 31 mars De 10h à 12h et de 14h à 17h Fermeture hebdomadaire les mardi et dimanche matin Horaire d'été, du 1er avril au 31 octobre De 10h à 12h30 et de 13h30 à 17h30 Fermeture hebdomadaire le mardi",
    "opening_hours": "10:00-12:00,14:00-17:00; Su 14:00-17:00; Apr 1-Oct 31 10:00-12:30,13:30-17:30; Tu off",
    "phone": "+32 69 84 20 73",
    "tourism": "museum",
    "website": "http://www.tamat.be/",
    "wikipedia": "fr:Musée de la Tapisserie de Tournai"
  }
},
{
  "type": "way",
  "id": 313133092,
  "nodes": [
    3190447998,
    3190448000,
    3190447999,
    3190447997,
    3190447998
  ],
  "tags": {
    "building": "bunker",
    "name": "Le Musée « Blockhaus Pionnier 14-18 »",
    "name:en": "The « 14-18 Pioneer Blockhouse » Museum",
    "name:fr": "Le Musée « Blockhaus Pionnier 14-18 »",
    "tourism": "museum",
    "website": "http://www.villedecomines-warneton.be/tourisme/a-visiter/musees/le-musee-ab-blockhaus-pionnier-14-18-bb"
  }
},
{
  "type": "way",
  "id": 321379952,
  "nodes": [
    3281212884,
    3281212889,
    3281212898,
    3281212893,
    3281212884
  ],
  "tags": {
    "addr:housenumber": "19",
    "addr:street": "Place Bara",
    "building": "yes",
    "name": "ancien Hôtel de Ville d'Antoing",
    "tourism": "museum"
  }
},
{
  "type": "way",
  "id": 363804350,
  "nodes": [
    3679306233,
    3679324626,
    3679324627,
    3679324628,
    3679306227,
    3679306233
  ],
  "tags": {
    "addr:city": "Nazareth",
    "addr:housenumber": "16",
    "addr:postcode": "9810",
    "addr:street": "Drapstraat",
    "building": "yes",
    "building:levels": "3",
    "name": "Het Burgerlijk Godshuis - Oorlogsmuseum",
    "source": "http://www.erfgoedbankleieschelde.be/erfgoed/2575-het-burgerlijk-godshuis-van-nazareth",
    "tourism": "museum",
    "website": "https://www.nazareth.be/website/165-www/2526-www/2529-www.html"
  }
},
{
  "type": "way",
  "id": 374340080,
  "nodes": [
    3777169614,
    3777169615,
    3777169616,
    3777169617,
    3777176317,
    3777169614
  ],
  "tags": {
    "building": "yes",
    "name": "Mostaard Wostyn",
    "tourism": "museum"
  }
},
{
  "type": "way",
  "id": 379419114,
  "nodes": [
    3827182806,
    3827182808,
    3827182807,
    3827182809,
    3827182811,
    3827182813,
    3827182814,
    3827182815,
    3827182816,
    3827182812,
    3827182810,
    3827182805,
    3827182806
  ],
  "tags": {
    "building": "yes",
    "email": "info@crvv.be",
    "name": "Centrum Ronde Van Vlaanderen",
    "phone": "+32 55 33 99 33",
    "tourism": "museum",
    "website": "https://www.crvv.be/",
    "wikidata": "Q1812082"
  }
},
{
  "type": "way",
  "id": 405891188,
  "nodes": [
    4080304207,
    4080304208,
    4080304209,
    4080304267,
    4080304210,
    4080304211,
    4080304212,
    4080304213,
    4080304214,
    4080309009,
    4080304215,
    4080304275,
    4080304216,
    4080304207
  ],
  "tags": {
    "building": "yes",
    "name": "Archeologisch Site museum",
    "tourism": "museum",
    "wikidata": "Q66005063"
  }
},
{
  "type": "way",
  "id": 442906542,
  "nodes": [
    4405562256,
    4405562225,
    4405562226,
    4405562257,
    4405574554,
    4405574551,
    4405562258,
    4405574553,
    4405562259,
    4405562241,
    4405562242,
    4405562249,
    4405562250,
    4405562260,
    4405562261,
    4405562256
  ],
  "tags": {
    "building": "no",
    "name": "Roger Raveelmuseum",
    "tourism": "museum",
    "website": "http://www.rogerraveelmuseum.be/website-default/1-www.html"
  }
},
{
  "type": "way",
  "id": 459398375,
  "nodes": [
    4552562822,
    4552562823,
    4552562824,
    4552562825,
    4552562822
  ],
  "tags": {
    "building": "yes",
    "tourism": "museum"
  }
},
{
  "type": "way",
  "id": 535044807,
  "nodes": [
    5187336306,
    5187336307,
    1013392700,
    5187336308,
    5187336309,
    5187336310,
    5187336311,
    6761518546,
    5187336312,
    6761518521,
    6761519222,
    6761519216,
    5717996970,
    5187336306
  ],
  "tags": {
    "addr:city": "Tournai",
    "addr:postcode": "7500",
    "addr:street": "Rue Saint-Martin",
    "addr:unit": "52",
    "building": "yes",
    "name": "Musée d'histoire naturelle et vivarium",
    "phone": "+32 69 33 23 43",
    "tourism": "museum",
    "wikidata": "Q3329684",
    "wikipedia": "fr:Musée d'histoire naturelle de Tournai"
  }
},
{
  "type": "way",
  "id": 538681072,
  "nodes": [
    5213710190,
    5213710191,
    5213710192,
    5213710193,
    5213710194,
    5213710195,
    5213710196,
    5213710197,
    5213710198,
    5213710199,
    5213710190
  ],
  "tags": {
    "addr:housenumber": "25",
    "addr:street": "Stijn Streuvelsstraat",
    "alt_name": "Streuvelshuis en schrijversresidentie",
    "building": "yes",
    "name": "Het Lijsternest",
    "tourism": "museum",
    "website": "https://inventaris.onroerenderfgoed.be/erfgoedobjecten/81586"
  }
},
{
  "type": "way",
  "id": 591310024,
  "nodes": [
    5645279532,
    5645279534,
    6959965271,
    5645279537,
    5645279538,
    6959965272,
    6959965273,
    6959965274,
    5645279532
  ],
  "tags": {
    "addr:city": "Deerlijk",
    "addr:housenumber": "8",
    "addr:postcode": "8540",
    "addr:street": "René De Clercqstraat",
    "building": "yes",
    "name": "Museum René De Clercq",
    "opening_hours": "su 14:30-18:00",
    "operator": "Deerlijk",
    "tourism": "museum"
  }
},
{
  "type": "way",
  "id": 601739225,
  "nodes": [
    5717996945,
    5717996946,
    5717996947,
    5717996948,
    5717996945
  ],
  "tags": {
    "building": "yes",
    "tourism": "museum"
  }
},
{
  "type": "way",
  "id": 606305492,
  "nodes": [
    5748869822,
    5748869823,
    5748869824,
    5748869825,
    5748869822
  ],
  "tags": {
    "addr:street": "Rue Royale",
    "building": "yes",
    "name": "Musée Jules Jooris",
    "operator": "Commune de Pecq",
    "tourism": "museum"
  }
},
{
  "type": "way",
  "id": 621566237,
  "nodes": [
    5525557116,
    5871746828,
    5871746829,
    5871746993,
    5871746830,
    5871746831,
    5871746832,
    5871746833,
    5871746834,
    5871746835,
    5871746836,
    5871746837,
    5871746838,
    5871746839,
    5871746840,
    5871746841,
    5871746842,
    5871746846,
    5871746843,
    5871746844,
    5525557116
  ],
  "tags": {
    "addr:city": "Villeneuve-d'Ascq",
    "addr:postcode": "59650",
    "addr:street": "Rue Carpeaux",
    "alt_name": "Asnapio",
    "charge": "4€;2€",
    "description": "Le Parc archéologique Asnapio propose des reconstitutions d'habitats du Paléolithique supérieur au Moyen Âge. Le parc s'inspire de fouilles du Nord de la France et sert de champ d'expérimentation archéologique",
    "email": "asnapio@villeneuvedascq.fr",
    "fee": "yes",
    "historic": "archaeological_site",
    "name": "Parc Archéologique Asnapio",
    "phone": "+33 3 20 47 21 99",
    "tourism": "museum",
    "website": "https://www.villeneuvedascq.fr/asnapio.html",
    "wikidata": "Q3363946",
    "wikipedia": "fr:Parc archéologique Asnapio"
  }
},
{
  "type": "way",
  "id": 700725714,
  "nodes": [
    6580421881,
    6580421882,
    6582308806,
    6582308805,
    6582308808,
    6582308807,
    6580421883,
    6580421884,
    6582308810,
    6582308809,
    6580422985,
    6580422986,
    6580422987,
    6580422988,
    6580421881
  ],
  "tags": {
    "addr:city": "Deurle",
    "addr:housenumber": "1",
    "addr:postcode": "9831",
    "addr:street": "Gustaaf De Smetlaan",
    "building": "yes",
    "name": "Museum Gust De Smet",
    "tourism": "museum",
    "wikidata": "Q47472486"
  }
},
{
  "type": "way",
  "id": 700727883,
  "nodes": [
    6580443699,
    6582308977,
    6582308975,
    6582308976,
    6582308973,
    6582308974,
    6582308969,
    6582308971,
    6582308970,
    6582308972,
    6580443700,
    6582308968,
    6582308967,
    6580443701,
    6580443702,
    6580443703,
    6580443704,
    6580443705,
    6580443706,
    6580443707,
    6582308963,
    6580443708,
    6582308966,
    6582308964,
    6582308965,
    6580443709,
    6580443710,
    6582308962,
    6582308960,
    6582308961,
    6580443711,
    6580443712,
    6582308959,
    6580443713,
    6580443714,
    6580443715,
    6582308992,
    6580443716,
    6582308991,
    6582308990,
    6580443717,
    6582308989,
    6582308978,
    6582308979,
    6580443718,
    6582308988,
    6582308980,
    6582308987,
    6582308981,
    6582308986,
    6582308982,
    6582308985,
    6582308983,
    6582308984,
    6580443699
  ],
  "tags": {
    "addr:city": "Deurle",
    "addr:housenumber": "14",
    "addr:postcode": "9831",
    "addr:street": "Museumlaan",
    "building": "yes",
    "name": "Museum Mw. J. Dhondt-Dhaenens",
    "tourism": "museum"
  }
},
{
  "type": "way",
  "id": 721980848,
  "nodes": [
    6772528078,
    6772528124,
    6772523601,
    6772528129,
    6772528002,
    6772528220,
    6772527902,
    6772527930,
    6772528239,
    6772528056,
    6772528067,
    6772523618,
    6772527983,
    6772528244,
    6772528023,
    6772528309,
    6772527919,
    6772528048,
    6772528279,
    6772528027,
    6772528078
  ],
  "tags": {
    "building": "yes",
    "name": "Musée d'archéologie",
    "tourism": "museum"
  }
},
{
  "type": "way",
  "id": 723499187,
  "nodes": [
    6785840640,
    6785840641,
    6785840642,
    6785840643,
    6785840644,
    6785840645,
    6785840646,
    6785840647,
    6785840648,
    6952215253,
    6785840649,
    6785840650,
    6785840651,
    6785840652,
    6785840639,
    6785840653,
    6785840654,
    6785840655,
    6785840656,
    6952246442,
    6785840657,
    6785840658,
    6785840659,
    6785840660,
    6785840661,
    6785840662,
    6785840663,
    6785840664,
    5187328107,
    6785840680,
    6785840665,
    6785840666,
    6785840667,
    6785840668,
    6785840669,
    6785840640
  ],
  "tags": {
    "building": "yes",
    "name": "Musée du Folklore (Maison Tournaisienne)",
    "tourism": "museum"
  }
},
{
  "type": "way",
  "id": 723499188,
  "nodes": [
    6785840670,
    6785840671,
    6785840662,
    6785840661,
    6785840660,
    6785840659,
    6785840658,
    6785840672,
    6785840673,
    6785840674,
    6785840675,
    6785840676,
    6785840670
  ],
  "tags": {
    "building": "yes",
    "name": "Maison de la Marionnette",
    "tourism": "museum"
  }
},
{
  "type": "way",
  "id": 729335314,
  "nodes": [
    6832808268,
    6832808269,
    6832808254,
    6832808255,
    6942588725,
    6832808252,
    6832808264,
    6832808257,
    6832808260,
    6942588974,
    6832808256,
    6832808261,
    6832808246,
    6832808259,
    6832808250,
    6832808247,
    6832808251,
    6832808262,
    6832808266,
    6832808263,
    6832808268
  ],
  "tags": {
    "addr:housenumber": "59",
    "addr:street": "Rue Roc Saint-Nicaise",
    "building": "yes",
    "museum": "history;military",
    "museum_type": "municipial",
    "name": "Musée d'histoire Militaire",
    "toilets": "yes",
    "tourism": "museum",
    "wheelchair": "limited"
  }
},
{
  "type": "way",
  "id": 750056982,
  "nodes": [
    7013745653,
    7013745654,
    7013745655,
    7013745656,
    7013745657,
    7013745653
  ],
  "tags": {
    "building": "yes",
    "name": "Ploegstreet",
    "tourism": "museum"
  }
},
{
  "type": "way",
  "id": 756311967,
  "nodes": [
    7063914647,
    7063914646,
    7063914633,
    7063914634,
    7063914645,
    7063914635,
    7063914639,
    6997598768,
    6997598769,
    7063914636,
    7064306269,
    7063914637,
    7063914638,
    7063914647
  ],
  "tags": {
    "addr:city": "Harelbeke",
    "addr:housenumber": "55-57",
    "addr:postcode": "8530",
    "addr:street": "Marktstraat",
    "building": "yes",
    "tourism": "museum"
  }
},
{
  "type": "relation",
  "id": 1180948,
  "members": [
    {
      "type": "way",
      "ref": 77892718,
      "role": "outer"
    },
    {
      "type": "way",
      "ref": 77892706,
      "role": "inner"
    }
  ],
  "tags": {
    "building": "yes",
    "name": "Musée du Terroir",
    "source": "cadastre-dgi-fr source : Direction Générale des Impôts - Cadastre. Mise à jour : 2009",
    "tourism": "museum",
    "type": "multipolygon"
  }
},
{
  "type": "relation",
  "id": 1201879,
  "members": [
    {
      "type": "way",
      "ref": 79831129,
      "role": "inner"
    },
    {
      "type": "way",
      "ref": 38354577,
      "role": "outer"
    }
  ],
  "tags": {
    "building": "yes",
    "tourism": "museum",
    "type": "multipolygon"
  }
},
{
  "type": "relation",
  "id": 2642840,
  "members": [
    {
      "type": "way",
      "ref": 48290041,
      "role": "inner"
    },
    {
      "type": "way",
      "ref": 48290034,
      "role": "inner"
    },
    {
      "type": "way",
      "ref": 48290036,
      "role": "outer"
    }
  ],
  "tags": {
    "building": "yes",
    "heritage": "2",
    "heritage:operator": "mhs",
    "mhs:inscription_date": "1923-04-14",
    "museum": "history",
    "name": "Musée de l'Hospice Comtesse",
    "opening_hours": "Mo 14:00-18:00; We-Su 10:00-18:00; Sep Su[1] off; Sep Su[1] +1 day off; Sep Su[1] -1 day off; Tu off; Jan 01, May 01, Jul 14, Aug 15, Nov 01, Dec 25 off",
    "phone": "+33 3 28 36 84 00",
    "ref:mhs": "PA00107586",
    "source": "cadastre-dgi-fr source : Direction Générale des Impôts - Cadastre. Mise à jour : 2010",
    "start_date:fr": "2e moitié 15e siècle;2e moitié 17e siècle;1ère moitié 18e siècle",
    "subject": "history",
    "tourism": "museum",
    "type": "multipolygon",
    "website": "https://www.lille.fr/Le-Musee-de-l-Hospice-Comtesse",
    "wikidata": "Q3140928",
    "wikipedia": "fr:Hospice Comtesse"
  }
},
{
  "type": "relation",
  "id": 6487540,
  "members": [
    {
      "type": "way",
      "ref": 436992128,
      "role": "outer"
    },
    {
      "type": "way",
      "ref": 436992127,
      "role": "inner"
    }
  ],
  "tags": {
    "building": "yes",
    "name": "Hoge Mote",
    "tourism": "museum",
    "type": "multipolygon"
  }
},
{
  "type": "node",
  "id": 1852613318,
  "lat": 50.7672801,
  "lon": 2.7812693
},
{
  "type": "node",
  "id": 1852613320,
  "lat": 50.7673850,
  "lon": 2.7815778
},
{
  "type": "node",
  "id": 7013745653,
  "lat": 50.7376811,
  "lon": 2.8801598
},
{
  "type": "node",
  "id": 7013745654,
  "lat": 50.7377867,
  "lon": 2.8815405
},
{
  "type": "node",
  "id": 7013745655,
  "lat": 50.7367592,
  "lon": 2.8817150
},
{
  "type": "node",
  "id": 7013745656,
  "lat": 50.7365576,
  "lon": 2.8815481
},
{
  "type": "node",
  "id": 7013745657,
  "lat": 50.7365576,
  "lon": 2.8802964
},
{
  "type": "node",
  "id": 432342335,
  "lat": 50.5573664,
  "lon": 3.1331076
},
{
  "type": "node",
  "id": 432342336,
  "lat": 50.5571199,
  "lon": 3.1332230
},
{
  "type": "node",
  "id": 432342337,
  "lat": 50.5571351,
  "lon": 3.1333062
},
{
  "type": "node",
  "id": 432342338,
  "lat": 50.5571489,
  "lon": 3.1332998
},
{
  "type": "node",
  "id": 432342339,
  "lat": 50.5571612,
  "lon": 3.1333647
},
{
  "type": "node",
  "id": 432342341,
  "lat": 50.5571697,
  "lon": 3.1333607
},
{
  "type": "node",
  "id": 432342342,
  "lat": 50.5571789,
  "lon": 3.1334073
},
{
  "type": "node",
  "id": 432342343,
  "lat": 50.5571576,
  "lon": 3.1334177
},
{
  "type": "node",
  "id": 432342344,
  "lat": 50.5571704,
  "lon": 3.1334893
},
{
  "type": "node",
  "id": 432342345,
  "lat": 50.5570161,
  "lon": 3.1335639
},
{
  "type": "node",
  "id": 432342346,
  "lat": 50.5570436,
  "lon": 3.1337178
},
{
  "type": "node",
  "id": 432342347,
  "lat": 50.5572011,
  "lon": 3.1336424
},
{
  "type": "node",
  "id": 432342348,
  "lat": 50.5572046,
  "lon": 3.1336591
},
{
  "type": "node",
  "id": 432342349,
  "lat": 50.5574344,
  "lon": 3.1335260
},
{
  "type": "node",
  "id": 500611061,
  "lat": 50.6269728,
  "lon": 3.0666984
},
{
  "type": "node",
  "id": 500611062,
  "lat": 50.6269771,
  "lon": 3.0666987
},
{
  "type": "node",
  "id": 500611064,
  "lat": 50.6269756,
  "lon": 3.0665561
},
{
  "type": "node",
  "id": 500611066,
  "lat": 50.6269641,
  "lon": 3.0665561
},
{
  "type": "node",
  "id": 500611067,
  "lat": 50.6269476,
  "lon": 3.0665305
},
{
  "type": "node",
  "id": 500611069,
  "lat": 50.6269471,
  "lon": 3.0665086
},
{
  "type": "node",
  "id": 500611071,
  "lat": 50.6268677,
  "lon": 3.0665144
},
{
  "type": "node",
  "id": 500611073,
  "lat": 50.6268670,
  "lon": 3.0665268
},
{
  "type": "node",
  "id": 500611074,
  "lat": 50.6263491,
  "lon": 3.0665431
},
{
  "type": "node",
  "id": 500611099,
  "lat": 50.6263536,
  "lon": 3.0667293
},
{
  "type": "node",
  "id": 500611101,
  "lat": 50.6265780,
  "lon": 3.0667202
},
{
  "type": "node",
  "id": 500611103,
  "lat": 50.6265787,
  "lon": 3.0667720
},
{
  "type": "node",
  "id": 500611104,
  "lat": 50.6264657,
  "lon": 3.0667754
},
{
  "type": "node",
  "id": 500611106,
  "lat": 50.6264690,
  "lon": 3.0669464
},
{
  "type": "node",
  "id": 500611108,
  "lat": 50.6265669,
  "lon": 3.0669428
},
{
  "type": "node",
  "id": 500611132,
  "lat": 50.6267261,
  "lon": 3.0669396
},
{
  "type": "node",
  "id": 500611134,
  "lat": 50.6266704,
  "lon": 3.0669402
},
{
  "type": "node",
  "id": 500611135,
  "lat": 50.6266672,
  "lon": 3.0667696
},
{
  "type": "node",
  "id": 500611137,
  "lat": 50.6266502,
  "lon": 3.0667696
},
{
  "type": "node",
  "id": 500611139,
  "lat": 50.6266501,
  "lon": 3.0667186
},
{
  "type": "node",
  "id": 500611140,
  "lat": 50.6266890,
  "lon": 3.0667169
},
{
  "type": "node",
  "id": 500611142,
  "lat": 50.6266906,
  "lon": 3.0668947
},
{
  "type": "node",
  "id": 500611143,
  "lat": 50.6267447,
  "lon": 3.0668937
},
{
  "type": "node",
  "id": 500611145,
  "lat": 50.6267453,
  "lon": 3.0669509
},
{
  "type": "node",
  "id": 500611146,
  "lat": 50.6268524,
  "lon": 3.0669492
},
{
  "type": "node",
  "id": 500611148,
  "lat": 50.6268521,
  "lon": 3.0668956
},
{
  "type": "node",
  "id": 500611150,
  "lat": 50.6268690,
  "lon": 3.0668955
},
{
  "type": "node",
  "id": 6602764270,
  "lat": 50.6266248,
  "lon": 3.0665348
},
{
  "type": "node",
  "id": 366573078,
  "lat": 50.6305781,
  "lon": 3.0622303
},
{
  "type": "node",
  "id": 366573081,
  "lat": 50.6308127,
  "lon": 3.0625509
},
{
  "type": "node",
  "id": 366573083,
  "lat": 50.6308344,
  "lon": 3.0625452
},
{
  "type": "node",
  "id": 366573084,
  "lat": 50.6309508,
  "lon": 3.0627028
},
{
  "type": "node",
  "id": 366573100,
  "lat": 50.6308761,
  "lon": 3.0630118
},
{
  "type": "node",
  "id": 366573119,
  "lat": 50.6302902,
  "lon": 3.0621381
},
{
  "type": "node",
  "id": 366573120,
  "lat": 50.6302785,
  "lon": 3.0621213
},
{
  "type": "node",
  "id": 366573149,
  "lat": 50.6304627,
  "lon": 3.0620349
},
{
  "type": "node",
  "id": 366573152,
  "lat": 50.6305790,
  "lon": 3.0621945
},
{
  "type": "node",
  "id": 1656129013,
  "lat": 50.6299487,
  "lon": 3.0629989
},
{
  "type": "node",
  "id": 1656129022,
  "lat": 50.6299781,
  "lon": 3.0629242
},
{
  "type": "node",
  "id": 1656129028,
  "lat": 50.6299847,
  "lon": 3.0629330
},
{
  "type": "node",
  "id": 1656129029,
  "lat": 50.6300482,
  "lon": 3.0631351
},
{
  "type": "node",
  "id": 1656129040,
  "lat": 50.6300697,
  "lon": 3.0631175
},
{
  "type": "node",
  "id": 1656129048,
  "lat": 50.6300730,
  "lon": 3.0627173
},
{
  "type": "node",
  "id": 1656129055,
  "lat": 50.6300858,
  "lon": 3.0627348
},
{
  "type": "node",
  "id": 1656129061,
  "lat": 50.6302794,
  "lon": 3.0621989
},
{
  "type": "node",
  "id": 1656129068,
  "lat": 50.6302936,
  "lon": 3.0621738
},
{
  "type": "node",
  "id": 1656129076,
  "lat": 50.6303192,
  "lon": 3.0635024
},
{
  "type": "node",
  "id": 1656129078,
  "lat": 50.6303181,
  "lon": 3.0620504
},
{
  "type": "node",
  "id": 1656129082,
  "lat": 50.6303297,
  "lon": 3.0620676
},
{
  "type": "node",
  "id": 1656129099,
  "lat": 50.6303233,
  "lon": 3.0634951
},
{
  "type": "node",
  "id": 1656129104,
  "lat": 50.6303245,
  "lon": 3.0622815
},
{
  "type": "node",
  "id": 1656129106,
  "lat": 50.6303531,
  "lon": 3.0620657
},
{
  "type": "node",
  "id": 1656129112,
  "lat": 50.6303684,
  "lon": 3.0620394
},
{
  "type": "node",
  "id": 1656129118,
  "lat": 50.6304021,
  "lon": 3.0621207
},
{
  "type": "node",
  "id": 1656129126,
  "lat": 50.6304121,
  "lon": 3.0621347
},
{
  "type": "node",
  "id": 1656129133,
  "lat": 50.6304132,
  "lon": 3.0621003
},
{
  "type": "node",
  "id": 1656129138,
  "lat": 50.6304218,
  "lon": 3.0620801
},
{
  "type": "node",
  "id": 1656129152,
  "lat": 50.6304197,
  "lon": 3.0636401
},
{
  "type": "node",
  "id": 1656129158,
  "lat": 50.6304310,
  "lon": 3.0621004
},
{
  "type": "node",
  "id": 1656129162,
  "lat": 50.6304420,
  "lon": 3.0620429
},
{
  "type": "node",
  "id": 1656129172,
  "lat": 50.6304510,
  "lon": 3.0620557
},
{
  "type": "node",
  "id": 1656129181,
  "lat": 50.6304666,
  "lon": 3.0635734
},
{
  "type": "node",
  "id": 1656129183,
  "lat": 50.6304797,
  "lon": 3.0635912
},
{
  "type": "node",
  "id": 1656129186,
  "lat": 50.6305594,
  "lon": 3.0622655
},
{
  "type": "node",
  "id": 1656129195,
  "lat": 50.6305671,
  "lon": 3.0633876
},
{
  "type": "node",
  "id": 1656129203,
  "lat": 50.6305674,
  "lon": 3.0622155
},
{
  "type": "node",
  "id": 1656129208,
  "lat": 50.6305810,
  "lon": 3.0634065
},
{
  "type": "node",
  "id": 1656129213,
  "lat": 50.6307938,
  "lon": 3.0625861
},
{
  "type": "node",
  "id": 1656129228,
  "lat": 50.6308304,
  "lon": 3.0629158
},
{
  "type": "node",
  "id": 1656129231,
  "lat": 50.6308233,
  "lon": 3.0625654
},
{
  "type": "node",
  "id": 1656129245,
  "lat": 50.6308883,
  "lon": 3.0629896
},
{
  "type": "node",
  "id": 1656129253,
  "lat": 50.6308978,
  "lon": 3.0627984
},
{
  "type": "node",
  "id": 1656129255,
  "lat": 50.6309056,
  "lon": 3.0628092
},
{
  "type": "node",
  "id": 1656129258,
  "lat": 50.6309114,
  "lon": 3.0629866
},
{
  "type": "node",
  "id": 1656129264,
  "lat": 50.6309157,
  "lon": 3.0627908
},
{
  "type": "node",
  "id": 1656129272,
  "lat": 50.6309216,
  "lon": 3.0627659
},
{
  "type": "node",
  "id": 1656129282,
  "lat": 50.6309217,
  "lon": 3.0630007
},
{
  "type": "node",
  "id": 1656129291,
  "lat": 50.6309283,
  "lon": 3.0627747
},
{
  "type": "node",
  "id": 1656129299,
  "lat": 50.6309389,
  "lon": 3.0627240
},
{
  "type": "node",
  "id": 1656129317,
  "lat": 50.6309492,
  "lon": 3.0628793
},
{
  "type": "node",
  "id": 1656129335,
  "lat": 50.6309487,
  "lon": 3.0627375
},
{
  "type": "node",
  "id": 1656129337,
  "lat": 50.6309494,
  "lon": 3.0629138
},
{
  "type": "node",
  "id": 1656129356,
  "lat": 50.6309609,
  "lon": 3.0629296
},
{
  "type": "node",
  "id": 1656129365,
  "lat": 50.6309629,
  "lon": 3.0628549
},
{
  "type": "node",
  "id": 6596468172,
  "lat": 50.6309185,
  "lon": 3.0627719
},
{
  "type": "node",
  "id": 6596468173,
  "lat": 50.6309152,
  "lon": 3.0627669
},
{
  "type": "node",
  "id": 6596468174,
  "lat": 50.6308414,
  "lon": 3.0629305
},
{
  "type": "node",
  "id": 6596468175,
  "lat": 50.6308305,
  "lon": 3.0629505
},
{
  "type": "node",
  "id": 6596468176,
  "lat": 50.6308120,
  "lon": 3.0629496
},
{
  "type": "node",
  "id": 6596468177,
  "lat": 50.6308164,
  "lon": 3.0629551
},
{
  "type": "node",
  "id": 6596468178,
  "lat": 50.6308138,
  "lon": 3.0629601
},
{
  "type": "node",
  "id": 6596468179,
  "lat": 50.6308200,
  "lon": 3.0629687
},
{
  "type": "node",
  "id": 6596468180,
  "lat": 50.6307982,
  "lon": 3.0630083
},
{
  "type": "node",
  "id": 6596468181,
  "lat": 50.6307914,
  "lon": 3.0629990
},
{
  "type": "node",
  "id": 6596468182,
  "lat": 50.6307895,
  "lon": 3.0630026
},
{
  "type": "node",
  "id": 6596468183,
  "lat": 50.6307832,
  "lon": 3.0629945
},
{
  "type": "node",
  "id": 6596468184,
  "lat": 50.6307627,
  "lon": 3.0630314
},
{
  "type": "node",
  "id": 6596468185,
  "lat": 50.6307809,
  "lon": 3.0629987
},
{
  "type": "node",
  "id": 6596468186,
  "lat": 50.6307770,
  "lon": 3.0629934
},
{
  "type": "node",
  "id": 6596468187,
  "lat": 50.6307589,
  "lon": 3.0630266
},
{
  "type": "node",
  "id": 6596468188,
  "lat": 50.6307487,
  "lon": 3.0630574
},
{
  "type": "node",
  "id": 6596468189,
  "lat": 50.6307301,
  "lon": 3.0630912
},
{
  "type": "node",
  "id": 6596468190,
  "lat": 50.6307261,
  "lon": 3.0630863
},
{
  "type": "node",
  "id": 6596468191,
  "lat": 50.6307448,
  "lon": 3.0630518
},
{
  "type": "node",
  "id": 6596468192,
  "lat": 50.6307160,
  "lon": 3.0631168
},
{
  "type": "node",
  "id": 6596468193,
  "lat": 50.6306988,
  "lon": 3.0631481
},
{
  "type": "node",
  "id": 6596468194,
  "lat": 50.6307118,
  "lon": 3.0631113
},
{
  "type": "node",
  "id": 6596468195,
  "lat": 50.6306949,
  "lon": 3.0631423
},
{
  "type": "node",
  "id": 6596468196,
  "lat": 50.6306838,
  "lon": 3.0631754
},
{
  "type": "node",
  "id": 6596468197,
  "lat": 50.6306673,
  "lon": 3.0632051
},
{
  "type": "node",
  "id": 6596468198,
  "lat": 50.6306634,
  "lon": 3.0632003
},
{
  "type": "node",
  "id": 6596468199,
  "lat": 50.6306796,
  "lon": 3.0631699
},
{
  "type": "node",
  "id": 6596468200,
  "lat": 50.6306519,
  "lon": 3.0632334
},
{
  "type": "node",
  "id": 6596468201,
  "lat": 50.6306345,
  "lon": 3.0632656
},
{
  "type": "node",
  "id": 6596468202,
  "lat": 50.6306300,
  "lon": 3.0632596
},
{
  "type": "node",
  "id": 6596468203,
  "lat": 50.6306472,
  "lon": 3.0632274
},
{
  "type": "node",
  "id": 6596468204,
  "lat": 50.6306197,
  "lon": 3.0632925
},
{
  "type": "node",
  "id": 6596468205,
  "lat": 50.6306012,
  "lon": 3.0633259
},
{
  "type": "node",
  "id": 6596468206,
  "lat": 50.6305967,
  "lon": 3.0633201
},
{
  "type": "node",
  "id": 6596468207,
  "lat": 50.6306151,
  "lon": 3.0632867
},
{
  "type": "node",
  "id": 6596468208,
  "lat": 50.6305883,
  "lon": 3.0633494
},
{
  "type": "node",
  "id": 6596468209,
  "lat": 50.6305717,
  "lon": 3.0633793
},
{
  "type": "node",
  "id": 6596468210,
  "lat": 50.6305675,
  "lon": 3.0633736
},
{
  "type": "node",
  "id": 6596468211,
  "lat": 50.6305840,
  "lon": 3.0633434
},
{
  "type": "node",
  "id": 6596468212,
  "lat": 50.6305417,
  "lon": 3.0634790
},
{
  "type": "node",
  "id": 6596468213,
  "lat": 50.6305176,
  "lon": 3.0635213
},
{
  "type": "node",
  "id": 6596468214,
  "lat": 50.6305146,
  "lon": 3.0635172
},
{
  "type": "node",
  "id": 6596468215,
  "lat": 50.6305379,
  "lon": 3.0634743
},
{
  "type": "node",
  "id": 6596468216,
  "lat": 50.6304613,
  "lon": 3.0635834
},
{
  "type": "node",
  "id": 6596468217,
  "lat": 50.6304423,
  "lon": 3.0636128
},
{
  "type": "node",
  "id": 6596468218,
  "lat": 50.6304379,
  "lon": 3.0636068
},
{
  "type": "node",
  "id": 6596468219,
  "lat": 50.6304550,
  "lon": 3.0635750
},
{
  "type": "node",
  "id": 6596468220,
  "lat": 50.6304277,
  "lon": 3.0636395
},
{
  "type": "node",
  "id": 6596468221,
  "lat": 50.6304230,
  "lon": 3.0636333
},
{
  "type": "node",
  "id": 6596468222,
  "lat": 50.6304026,
  "lon": 3.0636170
},
{
  "type": "node",
  "id": 6596468223,
  "lat": 50.6303951,
  "lon": 3.0636059
},
{
  "type": "node",
  "id": 6596468224,
  "lat": 50.6303988,
  "lon": 3.0635985
},
{
  "type": "node",
  "id": 6596468225,
  "lat": 50.6304070,
  "lon": 3.0636092
},
{
  "type": "node",
  "id": 6596468226,
  "lat": 50.6303792,
  "lon": 3.0635846
},
{
  "type": "node",
  "id": 6596468227,
  "lat": 50.6303587,
  "lon": 3.0635567
},
{
  "type": "node",
  "id": 6596468228,
  "lat": 50.6303626,
  "lon": 3.0635496
},
{
  "type": "node",
  "id": 6596468229,
  "lat": 50.6303835,
  "lon": 3.0635772
},
{
  "type": "node",
  "id": 6596468230,
  "lat": 50.6303353,
  "lon": 3.0635237
},
{
  "type": "node",
  "id": 6596468231,
  "lat": 50.6303430,
  "lon": 3.0635355
},
{
  "type": "node",
  "id": 6596468232,
  "lat": 50.6303387,
  "lon": 3.0635170
},
{
  "type": "node",
  "id": 6596468233,
  "lat": 50.6303472,
  "lon": 3.0635286
},
{
  "type": "node",
  "id": 6596468234,
  "lat": 50.6303189,
  "lon": 3.0634894
},
{
  "type": "node",
  "id": 6596468235,
  "lat": 50.6303290,
  "lon": 3.0634708
},
{
  "type": "node",
  "id": 6596468236,
  "lat": 50.6303274,
  "lon": 3.0634642
},
{
  "type": "node",
  "id": 6596468237,
  "lat": 50.6303377,
  "lon": 3.0634689
},
{
  "type": "node",
  "id": 6596468238,
  "lat": 50.6303334,
  "lon": 3.0634763
},
{
  "type": "node",
  "id": 6596468239,
  "lat": 50.6303304,
  "lon": 3.0634591
},
{
  "type": "node",
  "id": 6596468240,
  "lat": 50.6300675,
  "lon": 3.0631161
},
{
  "type": "node",
  "id": 6596468241,
  "lat": 50.6300736,
  "lon": 3.0631110
},
{
  "type": "node",
  "id": 6596468242,
  "lat": 50.6300628,
  "lon": 3.0631100
},
{
  "type": "node",
  "id": 6596468243,
  "lat": 50.6300670,
  "lon": 3.0631023
},
{
  "type": "node",
  "id": 6596468244,
  "lat": 50.6300578,
  "lon": 3.0631335
},
{
  "type": "node",
  "id": 6596468245,
  "lat": 50.6300528,
  "lon": 3.0631270
},
{
  "type": "node",
  "id": 6596468246,
  "lat": 50.6300240,
  "lon": 3.0631020
},
{
  "type": "node",
  "id": 6596468247,
  "lat": 50.6300326,
  "lon": 3.0631141
},
{
  "type": "node",
  "id": 6596468248,
  "lat": 50.6300359,
  "lon": 3.0631085
},
{
  "type": "node",
  "id": 6596468249,
  "lat": 50.6300271,
  "lon": 3.0630962
},
{
  "type": "node",
  "id": 6596468250,
  "lat": 50.6300090,
  "lon": 3.0630817
},
{
  "type": "node",
  "id": 6596468251,
  "lat": 50.6299872,
  "lon": 3.0630514
},
{
  "type": "node",
  "id": 6596468252,
  "lat": 50.6299905,
  "lon": 3.0630461
},
{
  "type": "node",
  "id": 6596468253,
  "lat": 50.6300124,
  "lon": 3.0630757
},
{
  "type": "node",
  "id": 6596468254,
  "lat": 50.6299725,
  "lon": 3.0630314
},
{
  "type": "node",
  "id": 6596468255,
  "lat": 50.6299641,
  "lon": 3.0630197
},
{
  "type": "node",
  "id": 6596468256,
  "lat": 50.6299753,
  "lon": 3.0630257
},
{
  "type": "node",
  "id": 6596468257,
  "lat": 50.6299671,
  "lon": 3.0630143
},
{
  "type": "node",
  "id": 6596468258,
  "lat": 50.6299657,
  "lon": 3.0629676
},
{
  "type": "node",
  "id": 6596468259,
  "lat": 50.6299527,
  "lon": 3.0629915
},
{
  "type": "node",
  "id": 6596468260,
  "lat": 50.6299486,
  "lon": 3.0629856
},
{
  "type": "node",
  "id": 6596468261,
  "lat": 50.6299619,
  "lon": 3.0629622
},
{
  "type": "node",
  "id": 6596468262,
  "lat": 50.6299825,
  "lon": 3.0629163
},
{
  "type": "node",
  "id": 6596468263,
  "lat": 50.6299712,
  "lon": 3.0629008
},
{
  "type": "node",
  "id": 6596468264,
  "lat": 50.6300096,
  "lon": 3.0628313
},
{
  "type": "node",
  "id": 6596468265,
  "lat": 50.6300353,
  "lon": 3.0627851
},
{
  "type": "node",
  "id": 6596468266,
  "lat": 50.6300378,
  "lon": 3.0627887
},
{
  "type": "node",
  "id": 6596468267,
  "lat": 50.6300120,
  "lon": 3.0628350
},
{
  "type": "node",
  "id": 6596468268,
  "lat": 50.6300909,
  "lon": 3.0627259
},
{
  "type": "node",
  "id": 6596468269,
  "lat": 50.6301094,
  "lon": 3.0626927
},
{
  "type": "node",
  "id": 6596468270,
  "lat": 50.6300953,
  "lon": 3.0627320
},
{
  "type": "node",
  "id": 6596468271,
  "lat": 50.6301138,
  "lon": 3.0626984
},
{
  "type": "node",
  "id": 6596468272,
  "lat": 50.6301231,
  "lon": 3.0626673
},
{
  "type": "node",
  "id": 6596468273,
  "lat": 50.6301275,
  "lon": 3.0626732
},
{
  "type": "node",
  "id": 6596468274,
  "lat": 50.6301455,
  "lon": 3.0626402
},
{
  "type": "node",
  "id": 6596468275,
  "lat": 50.6301412,
  "lon": 3.0626341
},
{
  "type": "node",
  "id": 6596468276,
  "lat": 50.6301543,
  "lon": 3.0626104
},
{
  "type": "node",
  "id": 6596468277,
  "lat": 50.6301590,
  "lon": 3.0626166
},
{
  "type": "node",
  "id": 6596468278,
  "lat": 50.6301774,
  "lon": 3.0625837
},
{
  "type": "node",
  "id": 6596468279,
  "lat": 50.6301727,
  "lon": 3.0625771
},
{
  "type": "node",
  "id": 6596468280,
  "lat": 50.6301871,
  "lon": 3.0625507
},
{
  "type": "node",
  "id": 6596468281,
  "lat": 50.6301917,
  "lon": 3.0625572
},
{
  "type": "node",
  "id": 6596468282,
  "lat": 50.6302100,
  "lon": 3.0625235
},
{
  "type": "node",
  "id": 6596468283,
  "lat": 50.6302056,
  "lon": 3.0625177
},
{
  "type": "node",
  "id": 6596468284,
  "lat": 50.6302193,
  "lon": 3.0624925
},
{
  "type": "node",
  "id": 6596468285,
  "lat": 50.6302238,
  "lon": 3.0624991
},
{
  "type": "node",
  "id": 6596468286,
  "lat": 50.6302420,
  "lon": 3.0624662
},
{
  "type": "node",
  "id": 6596468287,
  "lat": 50.6302548,
  "lon": 3.0624426
},
{
  "type": "node",
  "id": 6596468288,
  "lat": 50.6302373,
  "lon": 3.0624600
},
{
  "type": "node",
  "id": 6596468289,
  "lat": 50.6302501,
  "lon": 3.0624367
},
{
  "type": "node",
  "id": 6596468290,
  "lat": 50.6302743,
  "lon": 3.0624072
},
{
  "type": "node",
  "id": 6596468291,
  "lat": 50.6302698,
  "lon": 3.0624004
},
{
  "type": "node",
  "id": 6596468292,
  "lat": 50.6302835,
  "lon": 3.0623755
},
{
  "type": "node",
  "id": 6596468293,
  "lat": 50.6302884,
  "lon": 3.0623821
},
{
  "type": "node",
  "id": 6596468294,
  "lat": 50.6303054,
  "lon": 3.0623507
},
{
  "type": "node",
  "id": 6596468295,
  "lat": 50.6303009,
  "lon": 3.0623439
},
{
  "type": "node",
  "id": 6596468296,
  "lat": 50.6303049,
  "lon": 3.0623373
},
{
  "type": "node",
  "id": 6596468297,
  "lat": 50.6302994,
  "lon": 3.0623298
},
{
  "type": "node",
  "id": 6596468298,
  "lat": 50.6303020,
  "lon": 3.0623252
},
{
  "type": "node",
  "id": 6596468299,
  "lat": 50.6302949,
  "lon": 3.0623147
},
{
  "type": "node",
  "id": 6596468300,
  "lat": 50.6303144,
  "lon": 3.0622793
},
{
  "type": "node",
  "id": 6596468301,
  "lat": 50.6303208,
  "lon": 3.0622877
},
{
  "type": "node",
  "id": 6596468302,
  "lat": 50.6303240,
  "lon": 3.0622597
},
{
  "type": "node",
  "id": 6596468303,
  "lat": 50.6303457,
  "lon": 3.0622548
},
{
  "type": "node",
  "id": 6596468304,
  "lat": 50.6303282,
  "lon": 3.0622868
},
{
  "type": "node",
  "id": 6596468305,
  "lat": 50.6303351,
  "lon": 3.0622398
},
{
  "type": "node",
  "id": 6596468306,
  "lat": 50.6304279,
  "lon": 3.0620958
},
{
  "type": "node",
  "id": 6596468307,
  "lat": 50.6304303,
  "lon": 3.0620912
},
{
  "type": "node",
  "id": 7172103312,
  "lat": 50.6308922,
  "lon": 3.0626235
},
{
  "type": "node",
  "id": 912084967,
  "lat": 50.6231821,
  "lon": 3.0682450
},
{
  "type": "node",
  "id": 912085889,
  "lat": 50.6230402,
  "lon": 3.0677089
},
{
  "type": "node",
  "id": 912090111,
  "lat": 50.6226778,
  "lon": 3.0681050
},
{
  "type": "node",
  "id": 912091107,
  "lat": 50.6228158,
  "lon": 3.0680177
},
{
  "type": "node",
  "id": 912091664,
  "lat": 50.6232623,
  "lon": 3.0683084
},
{
  "type": "node",
  "id": 912091678,
  "lat": 50.6232606,
  "lon": 3.0683433
},
{
  "type": "node",
  "id": 912092240,
  "lat": 50.6231863,
  "lon": 3.0686037
},
{
  "type": "node",
  "id": 912093020,
  "lat": 50.6228353,
  "lon": 3.0679538
},
{
  "type": "node",
  "id": 912093428,
  "lat": 50.6230613,
  "lon": 3.0684813
},
{
  "type": "node",
  "id": 912093482,
  "lat": 50.6227718,
  "lon": 3.0679717
},
{
  "type": "node",
  "id": 912095554,
  "lat": 50.6227311,
  "lon": 3.0680260
},
{
  "type": "node",
  "id": 912095634,
  "lat": 50.6229136,
  "lon": 3.0680062
},
{
  "type": "node",
  "id": 912095892,
  "lat": 50.6232522,
  "lon": 3.0683348
},
{
  "type": "node",
  "id": 912095903,
  "lat": 50.6228495,
  "lon": 3.0679639
},
{
  "type": "node",
  "id": 912096966,
  "lat": 50.6228733,
  "lon": 3.0679798
},
{
  "type": "node",
  "id": 912098074,
  "lat": 50.6232795,
  "lon": 3.0683612
},
{
  "type": "node",
  "id": 912098605,
  "lat": 50.6230749,
  "lon": 3.0677286
},
{
  "type": "node",
  "id": 912099099,
  "lat": 50.6229391,
  "lon": 3.0679147
},
{
  "type": "node",
  "id": 912099448,
  "lat": 50.6229406,
  "lon": 3.0679092
},
{
  "type": "node",
  "id": 912101849,
  "lat": 50.6230020,
  "lon": 3.0676888
},
{
  "type": "node",
  "id": 912102185,
  "lat": 50.6232206,
  "lon": 3.0678094
},
{
  "type": "node",
  "id": 912102669,
  "lat": 50.6231001,
  "lon": 3.0677425
},
{
  "type": "node",
  "id": 912103019,
  "lat": 50.6230984,
  "lon": 3.0681795
},
{
  "type": "node",
  "id": 912103930,
  "lat": 50.6231371,
  "lon": 3.0680614
},
{
  "type": "node",
  "id": 912104231,
  "lat": 50.6231189,
  "lon": 3.0681173
},
{
  "type": "node",
  "id": 6657823308,
  "lat": 50.6231660,
  "lon": 3.0677793
},
{
  "type": "node",
  "id": 6657823311,
  "lat": 50.6230221,
  "lon": 3.0676994
},
{
  "type": "node",
  "id": 6973977960,
  "lat": 50.6225816,
  "lon": 3.0679467
},
{
  "type": "node",
  "id": 6973977962,
  "lat": 50.6226333,
  "lon": 3.0678697
},
{
  "type": "node",
  "id": 6973977963,
  "lat": 50.6226699,
  "lon": 3.0679282
},
{
  "type": "node",
  "id": 500611059,
  "lat": 50.6269752,
  "lon": 3.0672590
},
{
  "type": "node",
  "id": 500611109,
  "lat": 50.6265736,
  "lon": 3.0672685
},
{
  "type": "node",
  "id": 500611111,
  "lat": 50.6265753,
  "lon": 3.0672682
},
{
  "type": "node",
  "id": 500611113,
  "lat": 50.6265753,
  "lon": 3.0672734
},
{
  "type": "node",
  "id": 500611114,
  "lat": 50.6266769,
  "lon": 3.0672686
},
{
  "type": "node",
  "id": 500611116,
  "lat": 50.6266769,
  "lon": 3.0672657
},
{
  "type": "node",
  "id": 500611118,
  "lat": 50.6268407,
  "lon": 3.0672617
},
{
  "type": "node",
  "id": 500611120,
  "lat": 50.6268403,
  "lon": 3.0671712
},
{
  "type": "node",
  "id": 500611121,
  "lat": 50.6268213,
  "lon": 3.0671709
},
{
  "type": "node",
  "id": 500611123,
  "lat": 50.6268209,
  "lon": 3.0671147
},
{
  "type": "node",
  "id": 500611125,
  "lat": 50.6267523,
  "lon": 3.0671154
},
{
  "type": "node",
  "id": 500611126,
  "lat": 50.6267524,
  "lon": 3.0671653
},
{
  "type": "node",
  "id": 500611131,
  "lat": 50.6267288,
  "lon": 3.0671656
},
{
  "type": "node",
  "id": 500611152,
  "lat": 50.6268695,
  "lon": 3.0672613
},
{
  "type": "node",
  "id": 502637073,
  "lat": 50.6297683,
  "lon": 3.0726646
},
{
  "type": "node",
  "id": 502637075,
  "lat": 50.6293539,
  "lon": 3.0729895
},
{
  "type": "node",
  "id": 502637077,
  "lat": 50.6293892,
  "lon": 3.0730952
},
{
  "type": "node",
  "id": 983822758,
  "lat": 50.6297910,
  "lon": 3.0727786
},
{
  "type": "node",
  "id": 2691238396,
  "lat": 50.6296184,
  "lon": 3.0729152
},
{
  "type": "node",
  "id": 613550930,
  "lat": 50.6410595,
  "lon": 3.0629039
},
{
  "type": "node",
  "id": 613550933,
  "lat": 50.6410367,
  "lon": 3.0629583
},
{
  "type": "node",
  "id": 613550936,
  "lat": 50.6409746,
  "lon": 3.0631076
},
{
  "type": "node",
  "id": 613550944,
  "lat": 50.6410065,
  "lon": 3.0630311
},
{
  "type": "node",
  "id": 613550951,
  "lat": 50.6411230,
  "lon": 3.0627514
},
{
  "type": "node",
  "id": 613550954,
  "lat": 50.6410955,
  "lon": 3.0628172
},
{
  "type": "node",
  "id": 613550956,
  "lat": 50.6414490,
  "lon": 3.0630912
},
{
  "type": "node",
  "id": 613550957,
  "lat": 50.6412003,
  "lon": 3.0627110
},
{
  "type": "node",
  "id": 613550959,
  "lat": 50.6412128,
  "lon": 3.0628876
},
{
  "type": "node",
  "id": 613550960,
  "lat": 50.6413098,
  "lon": 3.0629746
},
{
  "type": "node",
  "id": 613550962,
  "lat": 50.6412970,
  "lon": 3.0629793
},
{
  "type": "node",
  "id": 613550965,
  "lat": 50.6412935,
  "lon": 3.0630002
},
{
  "type": "node",
  "id": 613550968,
  "lat": 50.6413069,
  "lon": 3.0630009
},
{
  "type": "node",
  "id": 613550970,
  "lat": 50.6411684,
  "lon": 3.0626824
},
{
  "type": "node",
  "id": 613550971,
  "lat": 50.6411492,
  "lon": 3.0626880
},
{
  "type": "node",
  "id": 613550977,
  "lat": 50.6409169,
  "lon": 3.0632678
},
{
  "type": "node",
  "id": 613550981,
  "lat": 50.6410446,
  "lon": 3.0636177
},
{
  "type": "node",
  "id": 613550984,
  "lat": 50.6410182,
  "lon": 3.0636986
},
{
  "type": "node",
  "id": 613550987,
  "lat": 50.6409798,
  "lon": 3.0636675
},
{
  "type": "node",
  "id": 613550988,
  "lat": 50.6409517,
  "lon": 3.0637514
},
{
  "type": "node",
  "id": 613550989,
  "lat": 50.6410913,
  "lon": 3.0636564
},
{
  "type": "node",
  "id": 613550990,
  "lat": 50.6410031,
  "lon": 3.0633849
},
{
  "type": "node",
  "id": 613550996,
  "lat": 50.6412115,
  "lon": 3.0637619
},
{
  "type": "node",
  "id": 613550999,
  "lat": 50.6414444,
  "lon": 3.0633478
},
{
  "type": "node",
  "id": 613551001,
  "lat": 50.6414567,
  "lon": 3.0633382
},
{
  "type": "node",
  "id": 613551002,
  "lat": 50.6414511,
  "lon": 3.0633180
},
{
  "type": "node",
  "id": 613551004,
  "lat": 50.6414501,
  "lon": 3.0632843
},
{
  "type": "node",
  "id": 613551006,
  "lat": 50.6414200,
  "lon": 3.0631531
},
{
  "type": "node",
  "id": 613551009,
  "lat": 50.6414047,
  "lon": 3.0631410
},
{
  "type": "node",
  "id": 613551011,
  "lat": 50.6413373,
  "lon": 3.0636839
},
{
  "type": "node",
  "id": 613551013,
  "lat": 50.6412422,
  "lon": 3.0635216
},
{
  "type": "node",
  "id": 613551020,
  "lat": 50.6410370,
  "lon": 3.0638231
},
{
  "type": "node",
  "id": 613551033,
  "lat": 50.6411824,
  "lon": 3.0638228
},
{
  "type": "node",
  "id": 613551045,
  "lat": 50.6413118,
  "lon": 3.0638965
},
{
  "type": "node",
  "id": 613551047,
  "lat": 50.6413198,
  "lon": 3.0638346
},
{
  "type": "node",
  "id": 613551049,
  "lat": 50.6415034,
  "lon": 3.0638709
},
{
  "type": "node",
  "id": 613551050,
  "lat": 50.6415905,
  "lon": 3.0636539
},
{
  "type": "node",
  "id": 613551051,
  "lat": 50.6415180,
  "lon": 3.0636335
},
{
  "type": "node",
  "id": 613551052,
  "lat": 50.6415092,
  "lon": 3.0637195
},
{
  "type": "node",
  "id": 613551053,
  "lat": 50.6415510,
  "lon": 3.0638803
},
{
  "type": "node",
  "id": 2303986979,
  "lat": 50.6409253,
  "lon": 3.0632401
},
{
  "type": "node",
  "id": 2303986990,
  "lat": 50.6409874,
  "lon": 3.0630771
},
{
  "type": "node",
  "id": 2303986998,
  "lat": 50.6410169,
  "lon": 3.0630063
},
{
  "type": "node",
  "id": 2303987010,
  "lat": 50.6410451,
  "lon": 3.0629387
},
{
  "type": "node",
  "id": 2303987021,
  "lat": 50.6410751,
  "lon": 3.0628665
},
{
  "type": "node",
  "id": 2303987032,
  "lat": 50.6411050,
  "lon": 3.0627943
},
{
  "type": "node",
  "id": 2303987059,
  "lat": 50.6411331,
  "lon": 3.0627269
},
{
  "type": "node",
  "id": 4135147768,
  "lat": 50.6412157,
  "lon": 3.0639437
},
{
  "type": "node",
  "id": 4135147769,
  "lat": 50.6412104,
  "lon": 3.0639560
},
{
  "type": "node",
  "id": 4135147770,
  "lat": 50.6411518,
  "lon": 3.0638929
},
{
  "type": "node",
  "id": 4430089621,
  "lat": 50.6408600,
  "lon": 3.0634542
},
{
  "type": "node",
  "id": 4430089626,
  "lat": 50.6412672,
  "lon": 3.0639411
},
{
  "type": "node",
  "id": 4430089630,
  "lat": 50.6412015,
  "lon": 3.0638348
},
{
  "type": "node",
  "id": 4430089631,
  "lat": 50.6412599,
  "lon": 3.0639428
},
{
  "type": "node",
  "id": 6544471169,
  "lat": 50.6409415,
  "lon": 3.0631872
},
{
  "type": "node",
  "id": 6574122643,
  "lat": 50.6411983,
  "lon": 3.0627144
},
{
  "type": "node",
  "id": 6574122653,
  "lat": 50.6412599,
  "lon": 3.0639558
},
{
  "type": "node",
  "id": 6574122654,
  "lat": 50.6412667,
  "lon": 3.0639554
},
{
  "type": "node",
  "id": 6574122658,
  "lat": 50.6413091,
  "lon": 3.0629777
},
{
  "type": "node",
  "id": 6574122659,
  "lat": 50.6412134,
  "lon": 3.0635129
},
{
  "type": "node",
  "id": 6574122660,
  "lat": 50.6412067,
  "lon": 3.0635653
},
{
  "type": "node",
  "id": 981300218,
  "lat": 50.6459310,
  "lon": 3.0586492
},
{
  "type": "node",
  "id": 981301986,
  "lat": 50.6458021,
  "lon": 3.0587429
},
{
  "type": "node",
  "id": 981304203,
  "lat": 50.6457598,
  "lon": 3.0587028
},
{
  "type": "node",
  "id": 981305383,
  "lat": 50.6458653,
  "lon": 3.0587757
},
{
  "type": "node",
  "id": 981307952,
  "lat": 50.6457921,
  "lon": 3.0586669
},
{
  "type": "node",
  "id": 981308703,
  "lat": 50.6456989,
  "lon": 3.0589645
},
{
  "type": "node",
  "id": 981310148,
  "lat": 50.6458826,
  "lon": 3.0588338
},
{
  "type": "node",
  "id": 981313340,
  "lat": 50.6457468,
  "lon": 3.0589276
},
{
  "type": "node",
  "id": 981315576,
  "lat": 50.6458045,
  "lon": 3.0587408
},
{
  "type": "node",
  "id": 981315712,
  "lat": 50.6456565,
  "lon": 3.0588252
},
{
  "type": "node",
  "id": 981316885,
  "lat": 50.6458242,
  "lon": 3.0586435
},
{
  "type": "node",
  "id": 981318113,
  "lat": 50.6459496,
  "lon": 3.0587125
},
{
  "type": "node",
  "id": 981320706,
  "lat": 50.6456454,
  "lon": 3.0587881
},
{
  "type": "node",
  "id": 981321624,
  "lat": 50.6458802,
  "lon": 3.0588359
},
{
  "type": "node",
  "id": 981322331,
  "lat": 50.6459088,
  "lon": 3.0589320
},
{
  "type": "node",
  "id": 981322654,
  "lat": 50.6457630,
  "lon": 3.0586891
},
{
  "type": "node",
  "id": 981325146,
  "lat": 50.6458033,
  "lon": 3.0587419
},
{
  "type": "node",
  "id": 981328493,
  "lat": 50.6460244,
  "lon": 3.0588498
},
{
  "type": "node",
  "id": 981328704,
  "lat": 50.6459363,
  "lon": 3.0585616
},
{
  "type": "node",
  "id": 981329117,
  "lat": 50.6457234,
  "lon": 3.0589455
},
{
  "type": "node",
  "id": 981329285,
  "lat": 50.6456671,
  "lon": 3.0588599
},
{
  "type": "node",
  "id": 981329892,
  "lat": 50.6457889,
  "lon": 3.0588963
},
{
  "type": "node",
  "id": 981330506,
  "lat": 50.6457541,
  "lon": 3.0587777
},
{
  "type": "node",
  "id": 1706026371,
  "lat": 50.6459822,
  "lon": 3.0587119
},
{
  "type": "node",
  "id": 923952705,
  "lat": 50.6205947,
  "lon": 3.1326232
},
{
  "type": "node",
  "id": 923953096,
  "lat": 50.6202676,
  "lon": 3.1329652
},
{
  "type": "node",
  "id": 923954491,
  "lat": 50.6205511,
  "lon": 3.1331515
},
{
  "type": "node",
  "id": 923955186,
  "lat": 50.6205035,
  "lon": 3.1327353
},
{
  "type": "node",
  "id": 923955550,
  "lat": 50.6202548,
  "lon": 3.1329701
},
{
  "type": "node",
  "id": 923955954,
  "lat": 50.6205872,
  "lon": 3.1331166
},
{
  "type": "node",
  "id": 923956662,
  "lat": 50.6202510,
  "lon": 3.1328024
},
{
  "type": "node",
  "id": 923956981,
  "lat": 50.6206635,
  "lon": 3.1326277
},
{
  "type": "node",
  "id": 923957658,
  "lat": 50.6205055,
  "lon": 3.1327467
},
{
  "type": "node",
  "id": 923957888,
  "lat": 50.6205471,
  "lon": 3.1331265
},
{
  "type": "node",
  "id": 923958680,
  "lat": 50.6207145,
  "lon": 3.1331075
},
{
  "type": "node",
  "id": 923959322,
  "lat": 50.6205926,
  "lon": 3.1327250
},
{
  "type": "node",
  "id": 923959766,
  "lat": 50.6202545,
  "lon": 3.1332098
},
{
  "type": "node",
  "id": 923961009,
  "lat": 50.6205837,
  "lon": 3.1331453
},
{
  "type": "node",
  "id": 2895206829,
  "lat": 50.6202573,
  "lon": 3.1328637
},
{
  "type": "node",
  "id": 911736857,
  "lat": 50.6385962,
  "lon": 3.1302390
},
{
  "type": "node",
  "id": 911737005,
  "lat": 50.6385052,
  "lon": 3.1301906
},
{
  "type": "node",
  "id": 911737113,
  "lat": 50.6385844,
  "lon": 3.1301679
},
{
  "type": "node",
  "id": 911737852,
  "lat": 50.6385394,
  "lon": 3.1305884
},
{
  "type": "node",
  "id": 911738290,
  "lat": 50.6387378,
  "lon": 3.1306904
},
{
  "type": "node",
  "id": 911738439,
  "lat": 50.6385196,
  "lon": 3.1306028
},
{
  "type": "node",
  "id": 911738520,
  "lat": 50.6385645,
  "lon": 3.1302541
},
{
  "type": "node",
  "id": 911738577,
  "lat": 50.6388789,
  "lon": 3.1302137
},
{
  "type": "node",
  "id": 911739438,
  "lat": 50.6387423,
  "lon": 3.1306285
},
{
  "type": "node",
  "id": 911740513,
  "lat": 50.6389215,
  "lon": 3.1306272
},
{
  "type": "node",
  "id": 911740789,
  "lat": 50.6386399,
  "lon": 3.1300863
},
{
  "type": "node",
  "id": 911742660,
  "lat": 50.6387318,
  "lon": 3.1307106
},
{
  "type": "node",
  "id": 911743653,
  "lat": 50.6389260,
  "lon": 3.1301094
},
{
  "type": "node",
  "id": 911743911,
  "lat": 50.6385320,
  "lon": 3.1305183
},
{
  "type": "node",
  "id": 911744211,
  "lat": 50.6386444,
  "lon": 3.1301188
},
{
  "type": "node",
  "id": 911744611,
  "lat": 50.6385389,
  "lon": 3.1306012
},
{
  "type": "node",
  "id": 911745616,
  "lat": 50.6386805,
  "lon": 3.1300703
},
{
  "type": "node",
  "id": 911747544,
  "lat": 50.6388745,
  "lon": 3.1305794
},
{
  "type": "node",
  "id": 911748208,
  "lat": 50.6385800,
  "lon": 3.1301433
},
{
  "type": "node",
  "id": 911752055,
  "lat": 50.6385850,
  "lon": 3.1305404
},
{
  "type": "node",
  "id": 911752293,
  "lat": 50.6385142,
  "lon": 3.1305223
},
{
  "type": "node",
  "id": 911752510,
  "lat": 50.6386784,
  "lon": 3.1302031
},
{
  "type": "node",
  "id": 911754125,
  "lat": 50.6386845,
  "lon": 3.1300983
},
{
  "type": "node",
  "id": 911754776,
  "lat": 50.6385542,
  "lon": 3.1301812
},
{
  "type": "node",
  "id": 911755804,
  "lat": 50.6385596,
  "lon": 3.1302551
},
{
  "type": "node",
  "id": 911756410,
  "lat": 50.6386206,
  "lon": 3.1305534
},
{
  "type": "node",
  "id": 3190447997,
  "lat": 50.7665954,
  "lon": 3.0021041
},
{
  "type": "node",
  "id": 3190447998,
  "lat": 50.7666490,
  "lon": 3.0020434
},
{
  "type": "node",
  "id": 3190447999,
  "lat": 50.7666498,
  "lon": 3.0022240
},
{
  "type": "node",
  "id": 3190448000,
  "lat": 50.7667034,
  "lon": 3.0021633
},
{
  "type": "node",
  "id": 2035911366,
  "lat": 50.6876504,
  "lon": 3.0527506
},
{
  "type": "node",
  "id": 2035911404,
  "lat": 50.6877064,
  "lon": 3.0526926
},
{
  "type": "node",
  "id": 2035911421,
  "lat": 50.6877264,
  "lon": 3.0529436
},
{
  "type": "node",
  "id": 2035911434,
  "lat": 50.6877544,
  "lon": 3.0530426
},
{
  "type": "node",
  "id": 2035911456,
  "lat": 50.6878184,
  "lon": 3.0529826
},
{
  "type": "node",
  "id": 924045443,
  "lat": 50.6212336,
  "lon": 3.1676339
},
{
  "type": "node",
  "id": 924045852,
  "lat": 50.6211970,
  "lon": 3.1679503
},
{
  "type": "node",
  "id": 924047272,
  "lat": 50.6213058,
  "lon": 3.1676403
},
{
  "type": "node",
  "id": 924049922,
  "lat": 50.6212305,
  "lon": 3.1677051
},
{
  "type": "node",
  "id": 924050903,
  "lat": 50.6212077,
  "lon": 3.1677031
},
{
  "type": "node",
  "id": 924055899,
  "lat": 50.6212920,
  "lon": 3.1679587
},
{
  "type": "node",
  "id": 915549405,
  "lat": 50.6277408,
  "lon": 3.1521486
},
{
  "type": "node",
  "id": 915550628,
  "lat": 50.6278640,
  "lon": 3.1518330
},
{
  "type": "node",
  "id": 915553624,
  "lat": 50.6279263,
  "lon": 3.1522437
},
{
  "type": "node",
  "id": 915553847,
  "lat": 50.6278130,
  "lon": 3.1517984
},
{
  "type": "node",
  "id": 915554085,
  "lat": 50.6278082,
  "lon": 3.1517186
},
{
  "type": "node",
  "id": 915555105,
  "lat": 50.6279150,
  "lon": 3.1518227
},
{
  "type": "node",
  "id": 915560143,
  "lat": 50.6278159,
  "lon": 3.1522795
},
{
  "type": "node",
  "id": 915563291,
  "lat": 50.6278749,
  "lon": 3.1517943
},
{
  "type": "node",
  "id": 915563551,
  "lat": 50.6278345,
  "lon": 3.1516463
},
{
  "type": "node",
  "id": 915565207,
  "lat": 50.6281218,
  "lon": 3.1518571
},
{
  "type": "node",
  "id": 915567694,
  "lat": 50.6276788,
  "lon": 3.1522380
},
{
  "type": "node",
  "id": 915567997,
  "lat": 50.6279688,
  "lon": 3.1519002
},
{
  "type": "node",
  "id": 915570723,
  "lat": 50.6279803,
  "lon": 3.1518622
},
{
  "type": "node",
  "id": 915572444,
  "lat": 50.6280277,
  "lon": 3.1518961
},
{
  "type": "node",
  "id": 915573289,
  "lat": 50.6279055,
  "lon": 3.1518527
},
{
  "type": "node",
  "id": 915573331,
  "lat": 50.6278037,
  "lon": 3.1517309
},
{
  "type": "node",
  "id": 915577656,
  "lat": 50.6277869,
  "lon": 3.1517216
},
{
  "type": "node",
  "id": 915561629,
  "lat": 50.6278099,
  "lon": 3.1523059
},
{
  "type": "node",
  "id": 915573693,
  "lat": 50.6279702,
  "lon": 3.1523604
},
{
  "type": "node",
  "id": 5871746832,
  "lat": 50.6363670,
  "lon": 3.1577920
},
{
  "type": "node",
  "id": 5871746833,
  "lat": 50.6360675,
  "lon": 3.1574917
},
{
  "type": "node",
  "id": 5871746834,
  "lat": 50.6358184,
  "lon": 3.1571267
},
{
  "type": "node",
  "id": 5871746835,
  "lat": 50.6355646,
  "lon": 3.1568287
},
{
  "type": "node",
  "id": 5871746836,
  "lat": 50.6353756,
  "lon": 3.1566082
},
{
  "type": "node",
  "id": 5871746837,
  "lat": 50.6352954,
  "lon": 3.1563837
},
{
  "type": "node",
  "id": 5871746838,
  "lat": 50.6352928,
  "lon": 3.1560571
},
{
  "type": "node",
  "id": 5871746839,
  "lat": 50.6356087,
  "lon": 3.1557836
},
{
  "type": "node",
  "id": 5871746840,
  "lat": 50.6357588,
  "lon": 3.1559387
},
{
  "type": "node",
  "id": 5871746841,
  "lat": 50.6361238,
  "lon": 3.1557432
},
{
  "type": "node",
  "id": 441427708,
  "lat": 50.6228285,
  "lon": 3.1827325
},
{
  "type": "node",
  "id": 441427711,
  "lat": 50.6230914,
  "lon": 3.1814645
},
{
  "type": "node",
  "id": 1725932014,
  "lat": 50.6223882,
  "lon": 3.1803523
},
{
  "type": "node",
  "id": 1725932044,
  "lat": 50.6238982,
  "lon": 3.1782947
},
{
  "type": "node",
  "id": 1725932099,
  "lat": 50.6242633,
  "lon": 3.1778152
},
{
  "type": "node",
  "id": 429632202,
  "lat": 50.6258297,
  "lon": 3.1838766
},
{
  "type": "node",
  "id": 441427713,
  "lat": 50.6249999,
  "lon": 3.1799952
},
{
  "type": "node",
  "id": 441427715,
  "lat": 50.6250864,
  "lon": 3.1800731
},
{
  "type": "node",
  "id": 441427717,
  "lat": 50.6254902,
  "lon": 3.1821053
},
{
  "type": "node",
  "id": 441427719,
  "lat": 50.6256209,
  "lon": 3.1824442
},
{
  "type": "node",
  "id": 441427721,
  "lat": 50.6257350,
  "lon": 3.1828512
},
{
  "type": "node",
  "id": 441427723,
  "lat": 50.6257971,
  "lon": 3.1836150
},
{
  "type": "node",
  "id": 441427725,
  "lat": 50.6258946,
  "lon": 3.1843963
},
{
  "type": "node",
  "id": 1725932020,
  "lat": 50.6236604,
  "lon": 3.1788352
},
{
  "type": "node",
  "id": 1725932122,
  "lat": 50.6244458,
  "lon": 3.1792014
},
{
  "type": "node",
  "id": 1725932236,
  "lat": 50.6249076,
  "lon": 3.1799861
},
{
  "type": "node",
  "id": 908111576,
  "lat": 50.6373814,
  "lon": 3.1496335
},
{
  "type": "node",
  "id": 908123010,
  "lat": 50.6373013,
  "lon": 3.1496318
},
{
  "type": "node",
  "id": 1660310165,
  "lat": 50.6372209,
  "lon": 3.1510606
},
{
  "type": "node",
  "id": 1660310178,
  "lat": 50.6372222,
  "lon": 3.1508834
},
{
  "type": "node",
  "id": 1660310183,
  "lat": 50.6372463,
  "lon": 3.1512164
},
{
  "type": "node",
  "id": 1660310192,
  "lat": 50.6372473,
  "lon": 3.1510611
},
{
  "type": "node",
  "id": 1660310196,
  "lat": 50.6372481,
  "lon": 3.1508839
},
{
  "type": "node",
  "id": 1660310207,
  "lat": 50.6372485,
  "lon": 3.1508341
},
{
  "type": "node",
  "id": 1660310216,
  "lat": 50.6372896,
  "lon": 3.1508349
},
{
  "type": "node",
  "id": 1660310220,
  "lat": 50.6372910,
  "lon": 3.1506601
},
{
  "type": "node",
  "id": 1660310234,
  "lat": 50.6372981,
  "lon": 3.1499993
},
{
  "type": "node",
  "id": 1660310239,
  "lat": 50.6373225,
  "lon": 3.1506607
},
{
  "type": "node",
  "id": 1660310248,
  "lat": 50.6373234,
  "lon": 3.1505488
},
{
  "type": "node",
  "id": 1660310254,
  "lat": 50.6373573,
  "lon": 3.1511769
},
{
  "type": "node",
  "id": 1660310263,
  "lat": 50.6373570,
  "lon": 3.1512182
},
{
  "type": "node",
  "id": 1660310265,
  "lat": 50.6373657,
  "lon": 3.1501765
},
{
  "type": "node",
  "id": 1660310274,
  "lat": 50.6373666,
  "lon": 3.1500636
},
{
  "type": "node",
  "id": 1660310278,
  "lat": 50.6373805,
  "lon": 3.1497320
},
{
  "type": "node",
  "id": 1660310286,
  "lat": 50.6373956,
  "lon": 3.1500014
},
{
  "type": "node",
  "id": 1660310291,
  "lat": 50.6373951,
  "lon": 3.1500642
},
{
  "type": "node",
  "id": 1660310298,
  "lat": 50.6374235,
  "lon": 3.1513352
},
{
  "type": "node",
  "id": 1660310306,
  "lat": 50.6374246,
  "lon": 3.1511780
},
{
  "type": "node",
  "id": 1660310312,
  "lat": 50.6374480,
  "lon": 3.1497334
},
{
  "type": "node",
  "id": 1660310321,
  "lat": 50.6374499,
  "lon": 3.1495120
},
{
  "type": "node",
  "id": 1660310322,
  "lat": 50.6374610,
  "lon": 3.1505517
},
{
  "type": "node",
  "id": 1660310334,
  "lat": 50.6374642,
  "lon": 3.1501786
},
{
  "type": "node",
  "id": 1660310385,
  "lat": 50.6375270,
  "lon": 3.1514635
},
{
  "type": "node",
  "id": 1660310392,
  "lat": 50.6378411,
  "lon": 3.1501480
},
{
  "type": "node",
  "id": 1660310413,
  "lat": 50.6375356,
  "lon": 3.1495546
},
{
  "type": "node",
  "id": 1660310426,
  "lat": 50.6375360,
  "lon": 3.1495138
},
{
  "type": "node",
  "id": 1660310435,
  "lat": 50.6375681,
  "lon": 3.1495552
},
{
  "type": "node",
  "id": 1660310445,
  "lat": 50.6375684,
  "lon": 3.1495137
},
{
  "type": "node",
  "id": 1660310507,
  "lat": 50.6377185,
  "lon": 3.1516795
},
{
  "type": "node",
  "id": 1660310522,
  "lat": 50.6374901,
  "lon": 3.1514524
},
{
  "type": "node",
  "id": 1660310549,
  "lat": 50.6378160,
  "lon": 3.1501219
},
{
  "type": "node",
  "id": 1660310603,
  "lat": 50.6377839,
  "lon": 3.1498928
},
{
  "type": "node",
  "id": 1660310613,
  "lat": 50.6377841,
  "lon": 3.1498672
},
{
  "type": "node",
  "id": 1660310622,
  "lat": 50.6379324,
  "lon": 3.1507392
},
{
  "type": "node",
  "id": 1660310629,
  "lat": 50.6379312,
  "lon": 3.1505778
},
{
  "type": "node",
  "id": 1660310643,
  "lat": 50.6378128,
  "lon": 3.1498677
},
{
  "type": "node",
  "id": 1660310659,
  "lat": 50.6378132,
  "lon": 3.1498071
},
{
  "type": "node",
  "id": 1660310669,
  "lat": 50.6378149,
  "lon": 3.1497364
},
{
  "type": "node",
  "id": 1660310681,
  "lat": 50.6378165,
  "lon": 3.1495182
},
{
  "type": "node",
  "id": 1660310685,
  "lat": 50.6378580,
  "lon": 3.1498079
},
{
  "type": "node",
  "id": 1660310691,
  "lat": 50.6378585,
  "lon": 3.1497372
},
{
  "type": "node",
  "id": 1660310700,
  "lat": 50.6378851,
  "lon": 3.1501228
},
{
  "type": "node",
  "id": 1660310703,
  "lat": 50.6378864,
  "lon": 3.1498943
},
{
  "type": "node",
  "id": 2569844571,
  "lat": 50.6374921,
  "lon": 3.1513363
},
{
  "type": "node",
  "id": 2569844572,
  "lat": 50.6374924,
  "lon": 3.1512842
},
{
  "type": "node",
  "id": 2569844573,
  "lat": 50.6375281,
  "lon": 3.1512847
},
{
  "type": "node",
  "id": 2569844574,
  "lat": 50.6373631,
  "lon": 3.1514931
},
{
  "type": "node",
  "id": 2569844575,
  "lat": 50.6373383,
  "lon": 3.1514290
},
{
  "type": "node",
  "id": 2569844576,
  "lat": 50.6372948,
  "lon": 3.1514504
},
{
  "type": "node",
  "id": 2569844577,
  "lat": 50.6373193,
  "lon": 3.1515742
},
{
  "type": "node",
  "id": 2569844578,
  "lat": 50.6373566,
  "lon": 3.1515988
},
{
  "type": "node",
  "id": 2569844579,
  "lat": 50.6373866,
  "lon": 3.1515856
},
{
  "type": "node",
  "id": 2569844580,
  "lat": 50.6373688,
  "lon": 3.1516120
},
{
  "type": "node",
  "id": 2569844581,
  "lat": 50.6373126,
  "lon": 3.1516385
},
{
  "type": "node",
  "id": 2569844582,
  "lat": 50.6373334,
  "lon": 3.1517477
},
{
  "type": "node",
  "id": 2569844583,
  "lat": 50.6373429,
  "lon": 3.1517507
},
{
  "type": "node",
  "id": 2569844584,
  "lat": 50.6374099,
  "lon": 3.1517242
},
{
  "type": "node",
  "id": 2569844585,
  "lat": 50.6373973,
  "lon": 3.1517597
},
{
  "type": "node",
  "id": 2569844586,
  "lat": 50.6373281,
  "lon": 3.1517910
},
{
  "type": "node",
  "id": 2569844587,
  "lat": 50.6373466,
  "lon": 3.1518923
},
{
  "type": "node",
  "id": 2569844588,
  "lat": 50.6373916,
  "lon": 3.1518719
},
{
  "type": "node",
  "id": 2569844589,
  "lat": 50.6374122,
  "lon": 3.1518479
},
{
  "type": "node",
  "id": 2569844590,
  "lat": 50.6374297,
  "lon": 3.1518659
},
{
  "type": "node",
  "id": 2569844591,
  "lat": 50.6374670,
  "lon": 3.1518737
},
{
  "type": "node",
  "id": 2569844592,
  "lat": 50.6374290,
  "lon": 3.1519192
},
{
  "type": "node",
  "id": 2569844593,
  "lat": 50.6374596,
  "lon": 3.1519827
},
{
  "type": "node",
  "id": 2569844594,
  "lat": 50.6375015,
  "lon": 3.1519645
},
{
  "type": "node",
  "id": 2569844595,
  "lat": 50.6375442,
  "lon": 3.1519183
},
{
  "type": "node",
  "id": 2569844596,
  "lat": 50.6375640,
  "lon": 3.1518402
},
{
  "type": "node",
  "id": 2569844597,
  "lat": 50.6376268,
  "lon": 3.1518072
},
{
  "type": "node",
  "id": 2569844598,
  "lat": 50.6379185,
  "lon": 3.1505780
},
{
  "type": "node",
  "id": 2569844599,
  "lat": 50.6379162,
  "lon": 3.1504017
},
{
  "type": "node",
  "id": 2569844600,
  "lat": 50.6378698,
  "lon": 3.1504036
},
{
  "type": "node",
  "id": 2569844601,
  "lat": 50.6378624,
  "lon": 3.1503860
},
{
  "type": "node",
  "id": 2569844602,
  "lat": 50.6378646,
  "lon": 3.1504205
},
{
  "type": "node",
  "id": 2569844603,
  "lat": 50.6378455,
  "lon": 3.1504199
},
{
  "type": "node",
  "id": 2569844604,
  "lat": 50.6378483,
  "lon": 3.1502109
},
{
  "type": "node",
  "id": 2569844611,
  "lat": 50.6378159,
  "lon": 3.1501476
},
{
  "type": "node",
  "id": 2588172503,
  "lat": 50.6374625,
  "lon": 3.1503825
},
{
  "type": "node",
  "id": 5525557116,
  "lat": 50.6371285,
  "lon": 3.1564286
},
{
  "type": "node",
  "id": 5871746828,
  "lat": 50.6370483,
  "lon": 3.1576900
},
{
  "type": "node",
  "id": 5871746829,
  "lat": 50.6371544,
  "lon": 3.1581187
},
{
  "type": "node",
  "id": 5871746830,
  "lat": 50.6367712,
  "lon": 3.1582738
},
{
  "type": "node",
  "id": 5871746831,
  "lat": 50.6366185,
  "lon": 3.1578207
},
{
  "type": "node",
  "id": 5871746842,
  "lat": 50.6364890,
  "lon": 3.1560204
},
{
  "type": "node",
  "id": 5871746843,
  "lat": 50.6366800,
  "lon": 3.1560569
},
{
  "type": "node",
  "id": 5871746844,
  "lat": 50.6368411,
  "lon": 3.1562000
},
{
  "type": "node",
  "id": 5871746846,
  "lat": 50.6365891,
  "lon": 3.1560395
},
{
  "type": "node",
  "id": 5871746993,
  "lat": 50.6370180,
  "lon": 3.1582933
},
{
  "type": "node",
  "id": 988749567,
  "lat": 50.6668633,
  "lon": 3.1643668
},
{
  "type": "node",
  "id": 988756404,
  "lat": 50.6668153,
  "lon": 3.1631963
},
{
  "type": "node",
  "id": 988757241,
  "lat": 50.6667782,
  "lon": 3.1644399
},
{
  "type": "node",
  "id": 988757551,
  "lat": 50.6665966,
  "lon": 3.1638838
},
{
  "type": "node",
  "id": 988759521,
  "lat": 50.6667524,
  "lon": 3.1639725
},
{
  "type": "node",
  "id": 988760290,
  "lat": 50.6666410,
  "lon": 3.1636326
},
{
  "type": "node",
  "id": 988769814,
  "lat": 50.6666678,
  "lon": 3.1641849
},
{
  "type": "node",
  "id": 988772834,
  "lat": 50.6667685,
  "lon": 3.1630184
},
{
  "type": "node",
  "id": 988779150,
  "lat": 50.6668113,
  "lon": 3.1641470
},
{
  "type": "node",
  "id": 988799311,
  "lat": 50.6667003,
  "lon": 3.1642389
},
{
  "type": "node",
  "id": 988803934,
  "lat": 50.6665359,
  "lon": 3.1637178
},
{
  "type": "node",
  "id": 988806821,
  "lat": 50.6666862,
  "lon": 3.1630204
},
{
  "type": "node",
  "id": 988807545,
  "lat": 50.6667638,
  "lon": 3.1639657
},
{
  "type": "node",
  "id": 988808753,
  "lat": 50.6668496,
  "lon": 3.1631306
},
{
  "type": "node",
  "id": 988815533,
  "lat": 50.6667074,
  "lon": 3.1642360
},
{
  "type": "node",
  "id": 988816429,
  "lat": 50.6667938,
  "lon": 3.1640890
},
{
  "type": "node",
  "id": 988825858,
  "lat": 50.6666497,
  "lon": 3.1640437
},
{
  "type": "node",
  "id": 988838193,
  "lat": 50.6665994,
  "lon": 3.1639109
},
{
  "type": "node",
  "id": 988840391,
  "lat": 50.6665884,
  "lon": 3.1638896
},
{
  "type": "node",
  "id": 988856795,
  "lat": 50.6667198,
  "lon": 3.1629595
},
{
  "type": "node",
  "id": 988872345,
  "lat": 50.6666537,
  "lon": 3.1640570
},
{
  "type": "node",
  "id": 988878094,
  "lat": 50.6666303,
  "lon": 3.1640771
},
{
  "type": "node",
  "id": 6937911250,
  "lat": 50.6666700,
  "lon": 3.1642038
},
{
  "type": "node",
  "id": 6937911251,
  "lat": 50.6666738,
  "lon": 3.1642136
},
{
  "type": "node",
  "id": 6937911252,
  "lat": 50.6666699,
  "lon": 3.1641938
},
{
  "type": "node",
  "id": 6937911253,
  "lat": 50.6666695,
  "lon": 3.1641895
},
{
  "type": "node",
  "id": 6937911254,
  "lat": 50.6666696,
  "lon": 3.1641984
},
{
  "type": "node",
  "id": 6937911255,
  "lat": 50.6666710,
  "lon": 3.1642090
},
{
  "type": "node",
  "id": 6937911256,
  "lat": 50.6666724,
  "lon": 3.1642113
},
{
  "type": "node",
  "id": 6937911257,
  "lat": 50.6666756,
  "lon": 3.1642160
},
{
  "type": "node",
  "id": 6937911258,
  "lat": 50.6666914,
  "lon": 3.1642152
},
{
  "type": "node",
  "id": 6937911259,
  "lat": 50.6665847,
  "lon": 3.1638997
},
{
  "type": "node",
  "id": 6937911260,
  "lat": 50.6665869,
  "lon": 3.1639112
},
{
  "type": "node",
  "id": 6937911261,
  "lat": 50.6665918,
  "lon": 3.1639163
},
{
  "type": "node",
  "id": 6937911262,
  "lat": 50.6666036,
  "lon": 3.1639076
},
{
  "type": "node",
  "id": 6937911263,
  "lat": 50.6666780,
  "lon": 3.1642181
},
{
  "type": "node",
  "id": 6937911264,
  "lat": 50.6666838,
  "lon": 3.1642186
},
{
  "type": "node",
  "id": 6937911265,
  "lat": 50.6666809,
  "lon": 3.1642181
},
{
  "type": "node",
  "id": 6937911266,
  "lat": 50.6666875,
  "lon": 3.1642172
},
{
  "type": "node",
  "id": 6937934555,
  "lat": 50.6667997,
  "lon": 3.1640795
},
{
  "type": "node",
  "id": 6937934556,
  "lat": 50.6667930,
  "lon": 3.1641660
},
{
  "type": "node",
  "id": 6937955174,
  "lat": 50.6667831,
  "lon": 3.1640278
},
{
  "type": "node",
  "id": 6939733022,
  "lat": 50.6666064,
  "lon": 3.1639159
},
{
  "type": "node",
  "id": 453050602,
  "lat": 50.6930460,
  "lon": 3.1677886
},
{
  "type": "node",
  "id": 453050603,
  "lat": 50.6930013,
  "lon": 3.1680535
},
{
  "type": "node",
  "id": 453050604,
  "lat": 50.6925559,
  "lon": 3.1678585
},
{
  "type": "node",
  "id": 453050605,
  "lat": 50.6924733,
  "lon": 3.1682119
},
{
  "type": "node",
  "id": 453050606,
  "lat": 50.6919035,
  "lon": 3.1678145
},
{
  "type": "node",
  "id": 453050607,
  "lat": 50.6921198,
  "lon": 3.1669496
},
{
  "type": "node",
  "id": 453050608,
  "lat": 50.6922752,
  "lon": 3.1670699
},
{
  "type": "node",
  "id": 453050609,
  "lat": 50.6925467,
  "lon": 3.1672074
},
{
  "type": "node",
  "id": 453050610,
  "lat": 50.6926320,
  "lon": 3.1666689
},
{
  "type": "node",
  "id": 453050611,
  "lat": 50.6927068,
  "lon": 3.1667024
},
{
  "type": "node",
  "id": 453050612,
  "lat": 50.6926188,
  "lon": 3.1672461
},
{
  "type": "node",
  "id": 453050613,
  "lat": 50.6927134,
  "lon": 3.1672952
},
{
  "type": "node",
  "id": 453050614,
  "lat": 50.6927264,
  "lon": 3.1672378
},
{
  "type": "node",
  "id": 453050615,
  "lat": 50.6927606,
  "lon": 3.1672612
},
{
  "type": "node",
  "id": 453050616,
  "lat": 50.6926915,
  "lon": 3.1676562
},
{
  "type": "node",
  "id": 453050617,
  "lat": 50.6931256,
  "lon": 3.1672871
},
{
  "type": "node",
  "id": 453050618,
  "lat": 50.6929160,
  "lon": 3.1685723
},
{
  "type": "node",
  "id": 453050619,
  "lat": 50.6925774,
  "lon": 3.1684323
},
{
  "type": "node",
  "id": 453050620,
  "lat": 50.6924827,
  "lon": 3.1688348
},
{
  "type": "node",
  "id": 453050621,
  "lat": 50.6924148,
  "lon": 3.1690513
},
{
  "type": "node",
  "id": 453050622,
  "lat": 50.6921449,
  "lon": 3.1688942
},
{
  "type": "node",
  "id": 453050623,
  "lat": 50.6922038,
  "lon": 3.1685708
},
{
  "type": "node",
  "id": 453050624,
  "lat": 50.6921115,
  "lon": 3.1685257
},
{
  "type": "node",
  "id": 453050625,
  "lat": 50.6921287,
  "lon": 3.1684411
},
{
  "type": "node",
  "id": 453050626,
  "lat": 50.6922154,
  "lon": 3.1680342
},
{
  "type": "node",
  "id": 453050627,
  "lat": 50.6926921,
  "lon": 3.1672830
},
{
  "type": "node",
  "id": 453050628,
  "lat": 50.6927145,
  "lon": 3.1671319
},
{
  "type": "node",
  "id": 453050631,
  "lat": 50.6929546,
  "lon": 3.1683376
},
{
  "type": "node",
  "id": 931823113,
  "lat": 50.6919593,
  "lon": 3.1676050
},
{
  "type": "node",
  "id": 931825293,
  "lat": 50.6921943,
  "lon": 3.1670073
},
{
  "type": "node",
  "id": 931826720,
  "lat": 50.6924365,
  "lon": 3.1676386
},
{
  "type": "node",
  "id": 931826919,
  "lat": 50.6923366,
  "lon": 3.1675719
},
{
  "type": "node",
  "id": 931827034,
  "lat": 50.6924612,
  "lon": 3.1672720
},
{
  "type": "node",
  "id": 931827721,
  "lat": 50.6923277,
  "lon": 3.1676059
},
{
  "type": "node",
  "id": 931829612,
  "lat": 50.6921984,
  "lon": 3.1681096
},
{
  "type": "node",
  "id": 931831079,
  "lat": 50.6927077,
  "lon": 3.1671845
},
{
  "type": "node",
  "id": 931831350,
  "lat": 50.6921752,
  "lon": 3.1671162
},
{
  "type": "node",
  "id": 931833675,
  "lat": 50.6923933,
  "lon": 3.1676097
},
{
  "type": "node",
  "id": 931839030,
  "lat": 50.6919880,
  "lon": 3.1674822
},
{
  "type": "node",
  "id": 931840316,
  "lat": 50.6921062,
  "lon": 3.1674552
},
{
  "type": "node",
  "id": 931842795,
  "lat": 50.6920940,
  "lon": 3.1674092
},
{
  "type": "node",
  "id": 931847421,
  "lat": 50.6922056,
  "lon": 3.1670982
},
{
  "type": "node",
  "id": 931847790,
  "lat": 50.6923221,
  "lon": 3.1670911
},
{
  "type": "node",
  "id": 931849508,
  "lat": 50.6924737,
  "lon": 3.1673216
},
{
  "type": "node",
  "id": 931850656,
  "lat": 50.6921502,
  "lon": 3.1674456
},
{
  "type": "node",
  "id": 931851462,
  "lat": 50.6921413,
  "lon": 3.1674792
},
{
  "type": "node",
  "id": 931856066,
  "lat": 50.6925158,
  "lon": 3.1673505
},
{
  "type": "node",
  "id": 931858585,
  "lat": 50.6923629,
  "lon": 3.1676308
},
{
  "type": "node",
  "id": 922798807,
  "lat": 50.6897114,
  "lon": 3.1782956
},
{
  "type": "node",
  "id": 922799453,
  "lat": 50.6897141,
  "lon": 3.1782757
},
{
  "type": "node",
  "id": 922800948,
  "lat": 50.6897002,
  "lon": 3.1783057
},
{
  "type": "node",
  "id": 922801118,
  "lat": 50.6897080,
  "lon": 3.1782584
},
{
  "type": "node",
  "id": 922801721,
  "lat": 50.6896740,
  "lon": 3.1783291
},
{
  "type": "node",
  "id": 922802172,
  "lat": 50.6896829,
  "lon": 3.1782636
},
{
  "type": "node",
  "id": 922802198,
  "lat": 50.6896957,
  "lon": 3.1782522
},
{
  "type": "node",
  "id": 922805012,
  "lat": 50.6897761,
  "lon": 3.1781326
},
{
  "type": "node",
  "id": 922805048,
  "lat": 50.6897739,
  "lon": 3.1781711
},
{
  "type": "node",
  "id": 922805323,
  "lat": 50.6897923,
  "lon": 3.1782238
},
{
  "type": "node",
  "id": 922805753,
  "lat": 50.6897956,
  "lon": 3.1781177
},
{
  "type": "node",
  "id": 922806246,
  "lat": 50.6897829,
  "lon": 3.1782317
},
{
  "type": "node",
  "id": 922806373,
  "lat": 50.6896807,
  "lon": 3.1782809
},
{
  "type": "node",
  "id": 922807234,
  "lat": 50.6896874,
  "lon": 3.1782995
},
{
  "type": "node",
  "id": 922808242,
  "lat": 50.6897367,
  "lon": 3.1782722
},
{
  "type": "node",
  "id": 922808571,
  "lat": 50.6898158,
  "lon": 3.1781381
},
{
  "type": "node",
  "id": 922798800,
  "lat": 50.6899501,
  "lon": 3.1785176
},
{
  "type": "node",
  "id": 922799018,
  "lat": 50.6901210,
  "lon": 3.1788831
},
{
  "type": "node",
  "id": 922799407,
  "lat": 50.6903268,
  "lon": 3.1797285
},
{
  "type": "node",
  "id": 922799664,
  "lat": 50.6899267,
  "lon": 3.1790526
},
{
  "type": "node",
  "id": 922800175,
  "lat": 50.6902404,
  "lon": 3.1798038
},
{
  "type": "node",
  "id": 922800200,
  "lat": 50.6900533,
  "lon": 3.1794099
},
{
  "type": "node",
  "id": 922800537,
  "lat": 50.6903669,
  "lon": 3.1798405
},
{
  "type": "node",
  "id": 922801176,
  "lat": 50.6902314,
  "lon": 3.1792059
},
{
  "type": "node",
  "id": 922802065,
  "lat": 50.6900879,
  "lon": 3.1789126
},
{
  "type": "node",
  "id": 922803053,
  "lat": 50.6898925,
  "lon": 3.1789353
},
{
  "type": "node",
  "id": 922803252,
  "lat": 50.6900770,
  "lon": 3.1787560
},
{
  "type": "node",
  "id": 922803376,
  "lat": 50.6901443,
  "lon": 3.1796699
},
{
  "type": "node",
  "id": 922803705,
  "lat": 50.6902426,
  "lon": 3.1792373
},
{
  "type": "node",
  "id": 922803850,
  "lat": 50.6902799,
  "lon": 3.1799149
},
{
  "type": "node",
  "id": 922803912,
  "lat": 50.6899641,
  "lon": 3.1791571
},
{
  "type": "node",
  "id": 922804372,
  "lat": 50.6902444,
  "lon": 3.1792355
},
{
  "type": "node",
  "id": 922805387,
  "lat": 50.6902436,
  "lon": 3.1799466
},
{
  "type": "node",
  "id": 922806509,
  "lat": 50.6902426,
  "lon": 3.1793518
},
{
  "type": "node",
  "id": 922807541,
  "lat": 50.6898879,
  "lon": 3.1789392
},
{
  "type": "node",
  "id": 922807655,
  "lat": 50.6902749,
  "lon": 3.1793236
},
{
  "type": "node",
  "id": 922807657,
  "lat": 50.6899310,
  "lon": 3.1790486
},
{
  "type": "node",
  "id": 922807750,
  "lat": 50.6902007,
  "lon": 3.1792332
},
{
  "type": "node",
  "id": 922808454,
  "lat": 50.6904024,
  "lon": 3.1798097
},
{
  "type": "node",
  "id": 922808505,
  "lat": 50.6900433,
  "lon": 3.1787859
},
{
  "type": "node",
  "id": 1777977312,
  "lat": 50.6902743,
  "lon": 3.1793179
},
{
  "type": "node",
  "id": 5820768939,
  "lat": 50.6900991,
  "lon": 3.1788179
},
{
  "type": "node",
  "id": 912135851,
  "lat": 50.7251630,
  "lon": 3.1583455
},
{
  "type": "node",
  "id": 912147565,
  "lat": 50.7252853,
  "lon": 3.1579275
},
{
  "type": "node",
  "id": 912148957,
  "lat": 50.7253779,
  "lon": 3.1579565
},
{
  "type": "node",
  "id": 912153243,
  "lat": 50.7250504,
  "lon": 3.1582067
},
{
  "type": "node",
  "id": 912311858,
  "lat": 50.7253647,
  "lon": 3.1585861
},
{
  "type": "node",
  "id": 912314660,
  "lat": 50.7254439,
  "lon": 3.1580103
},
{
  "type": "node",
  "id": 912322904,
  "lat": 50.7253524,
  "lon": 3.1580084
},
{
  "type": "node",
  "id": 912339640,
  "lat": 50.7250380,
  "lon": 3.1582311
},
{
  "type": "node",
  "id": 912350525,
  "lat": 50.7251521,
  "lon": 3.1583674
},
{
  "type": "node",
  "id": 912378545,
  "lat": 50.7252137,
  "lon": 3.1578414
},
{
  "type": "node",
  "id": 912398753,
  "lat": 50.7252412,
  "lon": 3.1584754
},
{
  "type": "node",
  "id": 912411793,
  "lat": 50.7253535,
  "lon": 3.1586105
},
{
  "type": "node",
  "id": 912424188,
  "lat": 50.7254038,
  "lon": 3.1586716
},
{
  "type": "node",
  "id": 912427275,
  "lat": 50.7254465,
  "lon": 3.1580379
},
{
  "type": "node",
  "id": 912441682,
  "lat": 50.7256076,
  "lon": 3.1581841
},
{
  "type": "node",
  "id": 912466426,
  "lat": 50.7250041,
  "lon": 3.1581904
},
{
  "type": "node",
  "id": 912500168,
  "lat": 50.7251314,
  "lon": 3.1579322
},
{
  "type": "node",
  "id": 912511754,
  "lat": 50.7252089,
  "lon": 3.1577748
},
{
  "type": "node",
  "id": 912538187,
  "lat": 50.7254532,
  "lon": 3.1580207
},
{
  "type": "node",
  "id": 912605178,
  "lat": 50.7254364,
  "lon": 3.1580259
},
{
  "type": "node",
  "id": 912614225,
  "lat": 50.7252321,
  "lon": 3.1578030
},
{
  "type": "node",
  "id": 5525505222,
  "lat": 50.7252525,
  "lon": 3.1584510
},
{
  "type": "node",
  "id": 5981849954,
  "lat": 50.7251967,
  "lon": 3.1584214
},
{
  "type": "node",
  "id": 912210571,
  "lat": 50.7233553,
  "lon": 3.1618335
},
{
  "type": "node",
  "id": 912234803,
  "lat": 50.7231229,
  "lon": 3.1621398
},
{
  "type": "node",
  "id": 912331797,
  "lat": 50.7232821,
  "lon": 3.1623323
},
{
  "type": "node",
  "id": 912396728,
  "lat": 50.7233446,
  "lon": 3.1622149
},
{
  "type": "node",
  "id": 912464062,
  "lat": 50.7229406,
  "lon": 3.1619185
},
{
  "type": "node",
  "id": 912483939,
  "lat": 50.7235317,
  "lon": 3.1622593
},
{
  "type": "node",
  "id": 912583133,
  "lat": 50.7236041,
  "lon": 3.1620389
},
{
  "type": "node",
  "id": 912588644,
  "lat": 50.7231020,
  "lon": 3.1616261
},
{
  "type": "node",
  "id": 912590224,
  "lat": 50.7230754,
  "lon": 3.1616379
},
{
  "type": "node",
  "id": 912598433,
  "lat": 50.7235662,
  "lon": 3.1621548
},
{
  "type": "node",
  "id": 912613641,
  "lat": 50.7234867,
  "lon": 3.1623965
},
{
  "type": "node",
  "id": 5748869822,
  "lat": 50.7038374,
  "lon": 3.3422619
},
{
  "type": "node",
  "id": 5748869823,
  "lat": 50.7037271,
  "lon": 3.3420911
},
{
  "type": "node",
  "id": 5748869824,
  "lat": 50.7036253,
  "lon": 3.3422418
},
{
  "type": "node",
  "id": 5748869825,
  "lat": 50.7037335,
  "lon": 3.3424092
},
{
  "type": "node",
  "id": 1852613322,
  "lat": 50.7674968,
  "lon": 2.7809869
},
{
  "type": "node",
  "id": 1852613323,
  "lat": 50.7675176,
  "lon": 2.7810221
},
{
  "type": "node",
  "id": 1852613325,
  "lat": 50.7675503,
  "lon": 2.7809845
},
{
  "type": "node",
  "id": 1852613326,
  "lat": 50.7675666,
  "lon": 2.7813270
},
{
  "type": "node",
  "id": 1852613327,
  "lat": 50.7675780,
  "lon": 2.7813588
},
{
  "type": "node",
  "id": 1852613328,
  "lat": 50.7676022,
  "lon": 2.7810408
},
{
  "type": "node",
  "id": 1852613329,
  "lat": 50.7676259,
  "lon": 2.7812590
},
{
  "type": "node",
  "id": 2699869480,
  "lat": 50.8013642,
  "lon": 2.8766781
},
{
  "type": "node",
  "id": 4409338184,
  "lat": 50.8015161,
  "lon": 2.8769434
},
{
  "type": "node",
  "id": 2699869477,
  "lat": 50.8009527,
  "lon": 2.8771162
},
{
  "type": "node",
  "id": 2792374588,
  "lat": 50.8016630,
  "lon": 2.8781261
},
{
  "type": "node",
  "id": 2792374598,
  "lat": 50.8014874,
  "lon": 2.8783638
},
{
  "type": "node",
  "id": 2792374600,
  "lat": 50.8016063,
  "lon": 2.8782300
},
{
  "type": "node",
  "id": 2925300363,
  "lat": 50.8017009,
  "lon": 2.8780764
},
{
  "type": "node",
  "id": 2925300372,
  "lat": 50.8018008,
  "lon": 2.8779633
},
{
  "type": "node",
  "id": 2925300376,
  "lat": 50.8018736,
  "lon": 2.8778814
},
{
  "type": "node",
  "id": 2925300379,
  "lat": 50.8019047,
  "lon": 2.8778297
},
{
  "type": "node",
  "id": 2925300382,
  "lat": 50.8018439,
  "lon": 2.8775185
},
{
  "type": "node",
  "id": 4409338057,
  "lat": 50.8011854,
  "lon": 2.8777686
},
{
  "type": "node",
  "id": 4409338058,
  "lat": 50.8016609,
  "lon": 2.8771953
},
{
  "type": "node",
  "id": 6835597573,
  "lat": 50.8018826,
  "lon": 2.8775993
},
{
  "type": "node",
  "id": 6835597574,
  "lat": 50.8019000,
  "lon": 2.8776515
},
{
  "type": "node",
  "id": 6835597575,
  "lat": 50.8019129,
  "lon": 2.8776937
},
{
  "type": "node",
  "id": 6835597576,
  "lat": 50.8019168,
  "lon": 2.8777483
},
{
  "type": "node",
  "id": 6835597577,
  "lat": 50.8019129,
  "lon": 2.8777930
},
{
  "type": "node",
  "id": 6835597578,
  "lat": 50.8017487,
  "lon": 2.8780245
},
{
  "type": "node",
  "id": 6835604886,
  "lat": 50.8018785,
  "lon": 2.8778732
},
{
  "type": "node",
  "id": 4552562822,
  "lat": 50.8889786,
  "lon": 2.8771450
},
{
  "type": "node",
  "id": 4552562823,
  "lat": 50.8891477,
  "lon": 2.8771085
},
{
  "type": "node",
  "id": 4552562824,
  "lat": 50.8891587,
  "lon": 2.8772369
},
{
  "type": "node",
  "id": 4552562825,
  "lat": 50.8889896,
  "lon": 2.8772734
},
{
  "type": "node",
  "id": 1566622252,
  "lat": 50.8367521,
  "lon": 2.9459397
},
{
  "type": "node",
  "id": 1566622454,
  "lat": 50.8367943,
  "lon": 2.9458872
},
{
  "type": "node",
  "id": 1566622494,
  "lat": 50.8366865,
  "lon": 2.9461919
},
{
  "type": "node",
  "id": 1566622523,
  "lat": 50.8365999,
  "lon": 2.9460172
},
{
  "type": "node",
  "id": 1566622541,
  "lat": 50.8367211,
  "lon": 2.9461990
},
{
  "type": "node",
  "id": 1566622576,
  "lat": 50.8368381,
  "lon": 2.9460536
},
{
  "type": "node",
  "id": 1566622616,
  "lat": 50.8368206,
  "lon": 2.9460183
},
{
  "type": "node",
  "id": 1566622632,
  "lat": 50.8367178,
  "lon": 2.9458706
},
{
  "type": "node",
  "id": 1566622792,
  "lat": 50.8367057,
  "lon": 2.9461680
},
{
  "type": "node",
  "id": 1566622894,
  "lat": 50.8368445,
  "lon": 2.9459886
},
{
  "type": "node",
  "id": 4409321892,
  "lat": 50.8366855,
  "lon": 2.9459108
},
{
  "type": "node",
  "id": 990282648,
  "lat": 50.8707892,
  "lon": 2.9884236
},
{
  "type": "node",
  "id": 990282578,
  "lat": 50.8705910,
  "lon": 2.9886555
},
{
  "type": "node",
  "id": 990282597,
  "lat": 50.8706950,
  "lon": 2.9888804
},
{
  "type": "node",
  "id": 990282642,
  "lat": 50.8708780,
  "lon": 2.9886700
},
{
  "type": "node",
  "id": 3786064196,
  "lat": 50.8708080,
  "lon": 2.9888178
},
{
  "type": "node",
  "id": 5966468110,
  "lat": 50.8705909,
  "lon": 2.9886530
},
{
  "type": "node",
  "id": 5966468111,
  "lat": 50.8705803,
  "lon": 2.9886672
},
{
  "type": "node",
  "id": 5966468112,
  "lat": 50.8705777,
  "lon": 2.9886671
},
{
  "type": "node",
  "id": 5966468113,
  "lat": 50.8705746,
  "lon": 2.9886708
},
{
  "type": "node",
  "id": 5966468114,
  "lat": 50.8705904,
  "lon": 2.9886925
},
{
  "type": "node",
  "id": 5966468115,
  "lat": 50.8705865,
  "lon": 2.9886971
},
{
  "type": "node",
  "id": 5966468116,
  "lat": 50.8705899,
  "lon": 2.9886899
},
{
  "type": "node",
  "id": 5966468117,
  "lat": 50.8706016,
  "lon": 2.9886759
},
{
  "type": "node",
  "id": 5966468118,
  "lat": 50.8706326,
  "lon": 2.9887830
},
{
  "type": "node",
  "id": 5966468119,
  "lat": 50.8706325,
  "lon": 2.9887858
},
{
  "type": "node",
  "id": 5966468120,
  "lat": 50.8706132,
  "lon": 2.9888073
},
{
  "type": "node",
  "id": 5966468121,
  "lat": 50.8706120,
  "lon": 2.9888055
},
{
  "type": "node",
  "id": 5966468122,
  "lat": 50.8706108,
  "lon": 2.9888065
},
{
  "type": "node",
  "id": 5966468123,
  "lat": 50.8705973,
  "lon": 2.9887770
},
{
  "type": "node",
  "id": 5966468124,
  "lat": 50.8705989,
  "lon": 2.9887753
},
{
  "type": "node",
  "id": 5966468125,
  "lat": 50.8705980,
  "lon": 2.9887736
},
{
  "type": "node",
  "id": 5966468126,
  "lat": 50.8706188,
  "lon": 2.9887491
},
{
  "type": "node",
  "id": 5966468127,
  "lat": 50.8706141,
  "lon": 2.9887387
},
{
  "type": "node",
  "id": 5966468128,
  "lat": 50.8706248,
  "lon": 2.9887262
},
{
  "type": "node",
  "id": 5966468129,
  "lat": 50.8706446,
  "lon": 2.9887692
},
{
  "type": "node",
  "id": 5966468130,
  "lat": 50.8707892,
  "lon": 2.9888393
},
{
  "type": "node",
  "id": 5966468131,
  "lat": 50.8707689,
  "lon": 2.9887951
},
{
  "type": "node",
  "id": 5966468132,
  "lat": 50.8708265,
  "lon": 2.9887964
},
{
  "type": "node",
  "id": 5966468133,
  "lat": 50.8708059,
  "lon": 2.9887525
},
{
  "type": "node",
  "id": 5966468134,
  "lat": 50.8708223,
  "lon": 2.9885116
},
{
  "type": "node",
  "id": 5966468135,
  "lat": 50.8708025,
  "lon": 2.9884688
},
{
  "type": "node",
  "id": 5966468136,
  "lat": 50.8707914,
  "lon": 2.9884812
},
{
  "type": "node",
  "id": 5966468137,
  "lat": 50.8707850,
  "lon": 2.9884677
},
{
  "type": "node",
  "id": 5966468138,
  "lat": 50.8708011,
  "lon": 2.9884488
},
{
  "type": "node",
  "id": 5966468139,
  "lat": 50.8708108,
  "lon": 2.9885248
},
{
  "type": "node",
  "id": 1022913211,
  "lat": 50.8930439,
  "lon": 2.9858577
},
{
  "type": "node",
  "id": 1022913225,
  "lat": 50.8928653,
  "lon": 2.9855491
},
{
  "type": "node",
  "id": 1022913280,
  "lat": 50.8928883,
  "lon": 2.9854930
},
{
  "type": "node",
  "id": 1022913286,
  "lat": 50.8929953,
  "lon": 2.9857534
},
{
  "type": "node",
  "id": 1022913319,
  "lat": 50.8930430,
  "lon": 2.9859744
},
{
  "type": "node",
  "id": 1022913331,
  "lat": 50.8930957,
  "lon": 2.9856736
},
{
  "type": "node",
  "id": 1022913357,
  "lat": 50.8928586,
  "lon": 2.9855293
},
{
  "type": "node",
  "id": 1022913443,
  "lat": 50.8927772,
  "lon": 2.9856229
},
{
  "type": "node",
  "id": 1022913509,
  "lat": 50.8928976,
  "lon": 2.9855238
},
{
  "type": "node",
  "id": 1022913531,
  "lat": 50.8930197,
  "lon": 2.9859308
},
{
  "type": "node",
  "id": 1022913576,
  "lat": 50.8930453,
  "lon": 2.9858954
},
{
  "type": "node",
  "id": 1022913609,
  "lat": 50.8929358,
  "lon": 2.9860606
},
{
  "type": "node",
  "id": 1022913632,
  "lat": 50.8929973,
  "lon": 2.9853633
},
{
  "type": "node",
  "id": 1022913669,
  "lat": 50.8930195,
  "lon": 2.9858280
},
{
  "type": "node",
  "id": 3188187315,
  "lat": 50.8928623,
  "lon": 2.9858296
},
{
  "type": "node",
  "id": 3188187316,
  "lat": 50.8928718,
  "lon": 2.9858210
},
{
  "type": "node",
  "id": 3188187320,
  "lat": 50.8930335,
  "lon": 2.9858380
},
{
  "type": "node",
  "id": 3188187321,
  "lat": 50.8930384,
  "lon": 2.9859134
},
{
  "type": "node",
  "id": 5903564101,
  "lat": 50.8930290,
  "lon": 2.9859427
},
{
  "type": "node",
  "id": 5903564102,
  "lat": 50.8930256,
  "lon": 2.9859464
},
{
  "type": "node",
  "id": 5903564103,
  "lat": 50.8930294,
  "lon": 2.9859248
},
{
  "type": "node",
  "id": 5903564104,
  "lat": 50.8930456,
  "lon": 2.9858713
},
{
  "type": "node",
  "id": 5903564105,
  "lat": 50.8930393,
  "lon": 2.9858453
},
{
  "type": "node",
  "id": 5903564106,
  "lat": 50.8930275,
  "lon": 2.9858322
},
{
  "type": "node",
  "id": 5903564107,
  "lat": 50.8930642,
  "lon": 2.9856128
},
{
  "type": "node",
  "id": 5903564108,
  "lat": 50.8930742,
  "lon": 2.9856051
},
{
  "type": "node",
  "id": 5903564109,
  "lat": 50.8930176,
  "lon": 2.9854668
},
{
  "type": "node",
  "id": 5903564110,
  "lat": 50.8930276,
  "lon": 2.9854589
},
{
  "type": "node",
  "id": 5903564111,
  "lat": 50.8928130,
  "lon": 2.9856807
},
{
  "type": "node",
  "id": 5903564112,
  "lat": 50.8928051,
  "lon": 2.9856639
},
{
  "type": "node",
  "id": 5903564113,
  "lat": 50.8927994,
  "lon": 2.9856700
},
{
  "type": "node",
  "id": 5903564114,
  "lat": 50.8928090,
  "lon": 2.9856855
},
{
  "type": "node",
  "id": 1564474710,
  "lat": 50.8885751,
  "lon": 3.0002434
},
{
  "type": "node",
  "id": 2101995554,
  "lat": 50.8885008,
  "lon": 3.0002713
},
{
  "type": "node",
  "id": 2101995564,
  "lat": 50.8883684,
  "lon": 3.0001436
},
{
  "type": "node",
  "id": 2101995572,
  "lat": 50.8883941,
  "lon": 3.0003098
},
{
  "type": "node",
  "id": 3184300819,
  "lat": 50.8885511,
  "lon": 3.0000747
},
{
  "type": "node",
  "id": 1429326819,
  "lat": 50.9439130,
  "lon": 3.1275636
},
{
  "type": "node",
  "id": 1429326825,
  "lat": 50.9443695,
  "lon": 3.1270265
},
{
  "type": "node",
  "id": 1429326827,
  "lat": 50.9443981,
  "lon": 3.1271809
},
{
  "type": "node",
  "id": 2283156525,
  "lat": 50.9443602,
  "lon": 3.1269677
},
{
  "type": "node",
  "id": 2283156526,
  "lat": 50.9444068,
  "lon": 3.1272262
},
{
  "type": "node",
  "id": 5617767547,
  "lat": 50.9438568,
  "lon": 3.1274247
},
{
  "type": "node",
  "id": 5617767549,
  "lat": 50.9438792,
  "lon": 3.1274103
},
{
  "type": "node",
  "id": 5617767550,
  "lat": 50.9438578,
  "lon": 3.1275680
},
{
  "type": "node",
  "id": 5871065708,
  "lat": 50.9443657,
  "lon": 3.1270027
},
{
  "type": "node",
  "id": 5904459539,
  "lat": 50.9444031,
  "lon": 3.1272051
},
{
  "type": "node",
  "id": 6133523423,
  "lat": 50.9442240,
  "lon": 3.1271228
},
{
  "type": "node",
  "id": 6133523424,
  "lat": 50.9442316,
  "lon": 3.1271018
},
{
  "type": "node",
  "id": 6133523425,
  "lat": 50.9442693,
  "lon": 3.1270878
},
{
  "type": "node",
  "id": 6133523426,
  "lat": 50.9442620,
  "lon": 3.1270837
},
{
  "type": "node",
  "id": 6133523427,
  "lat": 50.9442730,
  "lon": 3.1271009
},
{
  "type": "node",
  "id": 6133523428,
  "lat": 50.9442277,
  "lon": 3.1271347
},
{
  "type": "node",
  "id": 661138751,
  "lat": 50.9444758,
  "lon": 3.1271491
},
{
  "type": "node",
  "id": 2283156527,
  "lat": 50.9444418,
  "lon": 3.1269310
},
{
  "type": "node",
  "id": 2283156528,
  "lat": 50.9444789,
  "lon": 3.1271694
},
{
  "type": "node",
  "id": 5286572533,
  "lat": 50.9444560,
  "lon": 3.1271874
},
{
  "type": "node",
  "id": 5904459540,
  "lat": 50.9444473,
  "lon": 3.1269628
},
{
  "type": "node",
  "id": 6133523433,
  "lat": 50.9444706,
  "lon": 3.1270831
},
{
  "type": "node",
  "id": 6133523434,
  "lat": 50.9444692,
  "lon": 3.1270833
},
{
  "type": "node",
  "id": 6133523435,
  "lat": 50.9444726,
  "lon": 3.1270947
},
{
  "type": "node",
  "id": 6133523436,
  "lat": 50.9444713,
  "lon": 3.1270952
},
{
  "type": "node",
  "id": 6133523437,
  "lat": 50.9444725,
  "lon": 3.1271011
},
{
  "type": "node",
  "id": 6133523438,
  "lat": 50.9444705,
  "lon": 3.1271020
},
{
  "type": "node",
  "id": 6133523439,
  "lat": 50.9444727,
  "lon": 3.1271140
},
{
  "type": "node",
  "id": 6133523440,
  "lat": 50.9444695,
  "lon": 3.1271154
},
{
  "type": "node",
  "id": 6133523441,
  "lat": 50.9444578,
  "lon": 3.1270047
},
{
  "type": "node",
  "id": 6133523442,
  "lat": 50.9444566,
  "lon": 3.1270049
},
{
  "type": "node",
  "id": 6133523443,
  "lat": 50.9444557,
  "lon": 3.1269987
},
{
  "type": "node",
  "id": 6133523444,
  "lat": 50.9444536,
  "lon": 3.1269993
},
{
  "type": "node",
  "id": 6133523445,
  "lat": 50.9444399,
  "lon": 3.1269317
},
{
  "type": "node",
  "id": 1241259929,
  "lat": 50.8327708,
  "lon": 3.2690849
},
{
  "type": "node",
  "id": 1241259943,
  "lat": 50.8329967,
  "lon": 3.2688080
},
{
  "type": "node",
  "id": 1241259969,
  "lat": 50.8327591,
  "lon": 3.2689538
},
{
  "type": "node",
  "id": 1241260043,
  "lat": 50.8326684,
  "lon": 3.2696165
},
{
  "type": "node",
  "id": 1241260052,
  "lat": 50.8329503,
  "lon": 3.2686941
},
{
  "type": "node",
  "id": 1241260080,
  "lat": 50.8326339,
  "lon": 3.2693079
},
{
  "type": "node",
  "id": 5547554945,
  "lat": 50.8326587,
  "lon": 3.2695299
},
{
  "type": "node",
  "id": 1241259987,
  "lat": 50.8330761,
  "lon": 3.2694880
},
{
  "type": "node",
  "id": 5547554936,
  "lat": 50.8330500,
  "lon": 3.2692865
},
{
  "type": "node",
  "id": 6997598768,
  "lat": 50.8554827,
  "lon": 3.3102292
},
{
  "type": "node",
  "id": 6997598769,
  "lat": 50.8556091,
  "lon": 3.3104168
},
{
  "type": "node",
  "id": 7063914633,
  "lat": 50.8558212,
  "lon": 3.3098991
},
{
  "type": "node",
  "id": 7063914634,
  "lat": 50.8558349,
  "lon": 3.3099155
},
{
  "type": "node",
  "id": 7063914635,
  "lat": 50.8557140,
  "lon": 3.3101265
},
{
  "type": "node",
  "id": 7063914636,
  "lat": 50.8557367,
  "lon": 3.3101960
},
{
  "type": "node",
  "id": 7063914637,
  "lat": 50.8558764,
  "lon": 3.3099611
},
{
  "type": "node",
  "id": 7063914638,
  "lat": 50.8558850,
  "lon": 3.3099715
},
{
  "type": "node",
  "id": 7063914639,
  "lat": 50.8556239,
  "lon": 3.3099974
},
{
  "type": "node",
  "id": 7063914645,
  "lat": 50.8558016,
  "lon": 3.3099736
},
{
  "type": "node",
  "id": 7063914646,
  "lat": 50.8558815,
  "lon": 3.3097791
},
{
  "type": "node",
  "id": 7063914647,
  "lat": 50.8559450,
  "lon": 3.3098591
},
{
  "type": "node",
  "id": 7064306269,
  "lat": 50.8558492,
  "lon": 3.3100105
},
{
  "type": "node",
  "id": 5645279532,
  "lat": 50.8523930,
  "lon": 3.3551050
},
{
  "type": "node",
  "id": 5645279534,
  "lat": 50.8524059,
  "lon": 3.3552188
},
{
  "type": "node",
  "id": 5645279537,
  "lat": 50.8523179,
  "lon": 3.3551177
},
{
  "type": "node",
  "id": 5645279538,
  "lat": 50.8523456,
  "lon": 3.3551115
},
{
  "type": "node",
  "id": 6959965271,
  "lat": 50.8523301,
  "lon": 3.3552343
},
{
  "type": "node",
  "id": 6959965272,
  "lat": 50.8523454,
  "lon": 3.3551039
},
{
  "type": "node",
  "id": 6959965273,
  "lat": 50.8523721,
  "lon": 3.3550961
},
{
  "type": "node",
  "id": 6959965274,
  "lat": 50.8523726,
  "lon": 3.3551058
},
{
  "type": "node",
  "id": 1116995322,
  "lat": 50.9214858,
  "lon": 3.2120702
},
{
  "type": "node",
  "id": 1116995339,
  "lat": 50.9215746,
  "lon": 3.2117499
},
{
  "type": "node",
  "id": 1116995340,
  "lat": 50.9215767,
  "lon": 3.2121336
},
{
  "type": "node",
  "id": 1116995386,
  "lat": 50.9214858,
  "lon": 3.2116937
},
{
  "type": "node",
  "id": 1116995392,
  "lat": 50.9216418,
  "lon": 3.2118999
},
{
  "type": "node",
  "id": 1116995393,
  "lat": 50.9216655,
  "lon": 3.2118133
},
{
  "type": "node",
  "id": 4080304207,
  "lat": 51.0308620,
  "lon": 2.9604266
},
{
  "type": "node",
  "id": 4080304208,
  "lat": 51.0307004,
  "lon": 2.9605665
},
{
  "type": "node",
  "id": 4080304209,
  "lat": 51.0306966,
  "lon": 2.9605554
},
{
  "type": "node",
  "id": 4080304210,
  "lat": 51.0306325,
  "lon": 2.9606109
},
{
  "type": "node",
  "id": 4080304211,
  "lat": 51.0307861,
  "lon": 2.9610592
},
{
  "type": "node",
  "id": 4080304212,
  "lat": 51.0308351,
  "lon": 2.9610168
},
{
  "type": "node",
  "id": 4080304213,
  "lat": 51.0308222,
  "lon": 2.9609790
},
{
  "type": "node",
  "id": 4080304214,
  "lat": 51.0308460,
  "lon": 2.9609583
},
{
  "type": "node",
  "id": 4080304215,
  "lat": 51.0307415,
  "lon": 2.9606534
},
{
  "type": "node",
  "id": 4080304216,
  "lat": 51.0308959,
  "lon": 2.9605196
},
{
  "type": "node",
  "id": 4080304267,
  "lat": 51.0306394,
  "lon": 2.9606049
},
{
  "type": "node",
  "id": 4080304275,
  "lat": 51.0307737,
  "lon": 2.9606255
},
{
  "type": "node",
  "id": 4080309009,
  "lat": 51.0308054,
  "lon": 2.9608397
},
{
  "type": "node",
  "id": 3777169614,
  "lat": 51.0645122,
  "lon": 3.1036304
},
{
  "type": "node",
  "id": 3777169615,
  "lat": 51.0644308,
  "lon": 3.1037016
},
{
  "type": "node",
  "id": 3777169616,
  "lat": 51.0644618,
  "lon": 3.1038115
},
{
  "type": "node",
  "id": 3777169617,
  "lat": 51.0645454,
  "lon": 3.1037371
},
{
  "type": "node",
  "id": 3777176317,
  "lat": 51.0645360,
  "lon": 3.1037070
},
{
  "type": "node",
  "id": 1231571075,
  "lat": 51.1145862,
  "lon": 3.2952028
},
{
  "type": "node",
  "id": 1231571212,
  "lat": 51.1144784,
  "lon": 3.2941821
},
{
  "type": "node",
  "id": 1232854377,
  "lat": 51.1146396,
  "lon": 3.2950863
},
{
  "type": "node",
  "id": 1232854394,
  "lat": 51.1145351,
  "lon": 3.2947073
},
{
  "type": "node",
  "id": 1232854438,
  "lat": 51.1145965,
  "lon": 3.2946882
},
{
  "type": "node",
  "id": 1232854485,
  "lat": 51.1145511,
  "lon": 3.2942474
},
{
  "type": "node",
  "id": 1232854754,
  "lat": 51.1145253,
  "lon": 3.2946262
},
{
  "type": "node",
  "id": 1232854822,
  "lat": 51.1145881,
  "lon": 3.2946118
},
{
  "type": "node",
  "id": 1231570778,
  "lat": 51.1155569,
  "lon": 3.2934392
},
{
  "type": "node",
  "id": 1232854766,
  "lat": 51.1155336,
  "lon": 3.2949199
},
{
  "type": "node",
  "id": 1232854829,
  "lat": 51.1154957,
  "lon": 3.2948658
},
{
  "type": "node",
  "id": 2536910112,
  "lat": 51.1155811,
  "lon": 3.2935314
},
{
  "type": "node",
  "id": 5212963864,
  "lat": 51.1152170,
  "lon": 3.2950394
},
{
  "type": "node",
  "id": 5212963894,
  "lat": 51.1155010,
  "lon": 3.2949271
},
{
  "type": "node",
  "id": 5212963923,
  "lat": 51.1155349,
  "lon": 3.2949571
},
{
  "type": "node",
  "id": 694075397,
  "lat": 50.6027143,
  "lon": 3.3854560
},
{
  "type": "node",
  "id": 694075398,
  "lat": 50.6028595,
  "lon": 3.3854442
},
{
  "type": "node",
  "id": 694075399,
  "lat": 50.6028893,
  "lon": 3.3854940
},
{
  "type": "node",
  "id": 694075400,
  "lat": 50.6028912,
  "lon": 3.3855730
},
{
  "type": "node",
  "id": 694075402,
  "lat": 50.6028762,
  "lon": 3.3856198
},
{
  "type": "node",
  "id": 694075403,
  "lat": 50.6027180,
  "lon": 3.3856403
},
{
  "type": "node",
  "id": 694075404,
  "lat": 50.6027273,
  "lon": 3.3856959
},
{
  "type": "node",
  "id": 694075405,
  "lat": 50.6026752,
  "lon": 3.3857866
},
{
  "type": "node",
  "id": 694075406,
  "lat": 50.6025970,
  "lon": 3.3858363
},
{
  "type": "node",
  "id": 694075407,
  "lat": 50.6025634,
  "lon": 3.3858129
},
{
  "type": "node",
  "id": 694075409,
  "lat": 50.6024890,
  "lon": 3.3860089
},
{
  "type": "node",
  "id": 694075410,
  "lat": 50.6024350,
  "lon": 3.3860206
},
{
  "type": "node",
  "id": 694075411,
  "lat": 50.6023997,
  "lon": 3.3859826
},
{
  "type": "node",
  "id": 694075412,
  "lat": 50.6023773,
  "lon": 3.3859182
},
{
  "type": "node",
  "id": 694075413,
  "lat": 50.6024443,
  "lon": 3.3857222
},
{
  "type": "node",
  "id": 694075414,
  "lat": 50.6023754,
  "lon": 3.3855349
},
{
  "type": "node",
  "id": 694075416,
  "lat": 50.6022898,
  "lon": 3.3855408
},
{
  "type": "node",
  "id": 694075417,
  "lat": 50.6022637,
  "lon": 3.3854911
},
{
  "type": "node",
  "id": 694075418,
  "lat": 50.6022619,
  "lon": 3.3854150
},
{
  "type": "node",
  "id": 694075419,
  "lat": 50.6022861,
  "lon": 3.3853682
},
{
  "type": "node",
  "id": 694075420,
  "lat": 50.6023605,
  "lon": 3.3853624
},
{
  "type": "node",
  "id": 694075421,
  "lat": 50.6023847,
  "lon": 3.3853068
},
{
  "type": "node",
  "id": 694075422,
  "lat": 50.6023214,
  "lon": 3.3851546
},
{
  "type": "node",
  "id": 694075423,
  "lat": 50.6023289,
  "lon": 3.3850961
},
{
  "type": "node",
  "id": 694075425,
  "lat": 50.6023754,
  "lon": 3.3850493
},
{
  "type": "node",
  "id": 694075426,
  "lat": 50.6024183,
  "lon": 3.3850493
},
{
  "type": "node",
  "id": 694075427,
  "lat": 50.6024852,
  "lon": 3.3851722
},
{
  "type": "node",
  "id": 694075428,
  "lat": 50.6025281,
  "lon": 3.3851751
},
{
  "type": "node",
  "id": 694075429,
  "lat": 50.6025654,
  "lon": 3.3850873
},
{
  "type": "node",
  "id": 694075430,
  "lat": 50.6026063,
  "lon": 3.3850785
},
{
  "type": "node",
  "id": 694075432,
  "lat": 50.6026547,
  "lon": 3.3851341
},
{
  "type": "node",
  "id": 694075433,
  "lat": 50.6026603,
  "lon": 3.3851751
},
{
  "type": "node",
  "id": 694075434,
  "lat": 50.6026286,
  "lon": 3.3852629
},
{
  "type": "node",
  "id": 1013392700,
  "lat": 50.6033360,
  "lon": 3.3872776
},
{
  "type": "node",
  "id": 5187336306,
  "lat": 50.6034325,
  "lon": 3.3870335
},
{
  "type": "node",
  "id": 5187336307,
  "lat": 50.6032971,
  "lon": 3.3871810
},
{
  "type": "node",
  "id": 5187336308,
  "lat": 50.6033795,
  "lon": 3.3872317
},
{
  "type": "node",
  "id": 5187336309,
  "lat": 50.6036118,
  "lon": 3.3877717
},
{
  "type": "node",
  "id": 5717996970,
  "lat": 50.6034746,
  "lon": 3.3871277
},
{
  "type": "node",
  "id": 6761518521,
  "lat": 50.6035924,
  "lon": 3.3873898
},
{
  "type": "node",
  "id": 6761519216,
  "lat": 50.6034988,
  "lon": 3.3871815
},
{
  "type": "node",
  "id": 6761519222,
  "lat": 50.6035405,
  "lon": 3.3872742
},
{
  "type": "node",
  "id": 3137521495,
  "lat": 50.6041626,
  "lon": 3.3881134
},
{
  "type": "node",
  "id": 5187328107,
  "lat": 50.6050833,
  "lon": 3.3864188
},
{
  "type": "node",
  "id": 5187336310,
  "lat": 50.6036636,
  "lon": 3.3878768
},
{
  "type": "node",
  "id": 5187336311,
  "lat": 50.6037557,
  "lon": 3.3877895
},
{
  "type": "node",
  "id": 5187336312,
  "lat": 50.6036969,
  "lon": 3.3876225
},
{
  "type": "node",
  "id": 5717996945,
  "lat": 50.6037649,
  "lon": 3.3860964
},
{
  "type": "node",
  "id": 5717996946,
  "lat": 50.6036968,
  "lon": 3.3862224
},
{
  "type": "node",
  "id": 5717996947,
  "lat": 50.6037904,
  "lon": 3.3863351
},
{
  "type": "node",
  "id": 5717996948,
  "lat": 50.6038543,
  "lon": 3.3861923
},
{
  "type": "node",
  "id": 6761518546,
  "lat": 50.6037452,
  "lon": 3.3877597
},
{
  "type": "node",
  "id": 6772523601,
  "lat": 50.6080097,
  "lon": 3.3833523
},
{
  "type": "node",
  "id": 6772523618,
  "lat": 50.6080502,
  "lon": 3.3836646
},
{
  "type": "node",
  "id": 6772527902,
  "lat": 50.6080889,
  "lon": 3.3837180
},
{
  "type": "node",
  "id": 6772527919,
  "lat": 50.6079940,
  "lon": 3.3833001
},
{
  "type": "node",
  "id": 6772527930,
  "lat": 50.6080358,
  "lon": 3.3838258
},
{
  "type": "node",
  "id": 6772527983,
  "lat": 50.6078239,
  "lon": 3.3833133
},
{
  "type": "node",
  "id": 6772528002,
  "lat": 50.6081083,
  "lon": 3.3835237
},
{
  "type": "node",
  "id": 6772528023,
  "lat": 50.6079755,
  "lon": 3.3833213
},
{
  "type": "node",
  "id": 6772528027,
  "lat": 50.6080132,
  "lon": 3.3833111
},
{
  "type": "node",
  "id": 6772528048,
  "lat": 50.6080014,
  "lon": 3.3832997
},
{
  "type": "node",
  "id": 6772528056,
  "lat": 50.6080202,
  "lon": 3.3837666
},
{
  "type": "node",
  "id": 6772528067,
  "lat": 50.6080096,
  "lon": 3.3837555
},
{
  "type": "node",
  "id": 6772528078,
  "lat": 50.6080142,
  "lon": 3.3833144
},
{
  "type": "node",
  "id": 6772528124,
  "lat": 50.6080177,
  "lon": 3.3833422
},
{
  "type": "node",
  "id": 6772528129,
  "lat": 50.6080026,
  "lon": 3.3833602
},
{
  "type": "node",
  "id": 6772528220,
  "lat": 50.6081517,
  "lon": 3.3835959
},
{
  "type": "node",
  "id": 6772528239,
  "lat": 50.6080100,
  "lon": 3.3837867
},
{
  "type": "node",
  "id": 6772528244,
  "lat": 50.6078933,
  "lon": 3.3831981
},
{
  "type": "node",
  "id": 6772528279,
  "lat": 50.6080069,
  "lon": 3.3833027
},
{
  "type": "node",
  "id": 6772528309,
  "lat": 50.6079849,
  "lon": 3.3833006
},
{
  "type": "node",
  "id": 6785840639,
  "lat": 50.6050465,
  "lon": 3.3864926
},
{
  "type": "node",
  "id": 6785840640,
  "lat": 50.6054142,
  "lon": 3.3866191
},
{
  "type": "node",
  "id": 6785840641,
  "lat": 50.6053544,
  "lon": 3.3867172
},
{
  "type": "node",
  "id": 6785840642,
  "lat": 50.6053295,
  "lon": 3.3866821
},
{
  "type": "node",
  "id": 6785840643,
  "lat": 50.6053227,
  "lon": 3.3866915
},
{
  "type": "node",
  "id": 6785840644,
  "lat": 50.6052741,
  "lon": 3.3866218
},
{
  "type": "node",
  "id": 6785840645,
  "lat": 50.6052580,
  "lon": 3.3866560
},
{
  "type": "node",
  "id": 6785840646,
  "lat": 50.6052614,
  "lon": 3.3866600
},
{
  "type": "node",
  "id": 6785840647,
  "lat": 50.6052014,
  "lon": 3.3867820
},
{
  "type": "node",
  "id": 6785840648,
  "lat": 50.6051950,
  "lon": 3.3867753
},
{
  "type": "node",
  "id": 6785840649,
  "lat": 50.6050516,
  "lon": 3.3865956
},
{
  "type": "node",
  "id": 6785840650,
  "lat": 50.6050737,
  "lon": 3.3865406
},
{
  "type": "node",
  "id": 6785840651,
  "lat": 50.6050788,
  "lon": 3.3865453
},
{
  "type": "node",
  "id": 6785840652,
  "lat": 50.6050835,
  "lon": 3.3865366
},
{
  "type": "node",
  "id": 6785840653,
  "lat": 50.6050226,
  "lon": 3.3864642
},
{
  "type": "node",
  "id": 6785840654,
  "lat": 50.6050452,
  "lon": 3.3864220
},
{
  "type": "node",
  "id": 6785840655,
  "lat": 50.6050405,
  "lon": 3.3864119
},
{
  "type": "node",
  "id": 6785840656,
  "lat": 50.6049390,
  "lon": 3.3865930
},
{
  "type": "node",
  "id": 6785840657,
  "lat": 50.6048575,
  "lon": 3.3864575
},
{
  "type": "node",
  "id": 6785840658,
  "lat": 50.6048984,
  "lon": 3.3863951
},
{
  "type": "node",
  "id": 6785840659,
  "lat": 50.6049171,
  "lon": 3.3864206
},
{
  "type": "node",
  "id": 6785840660,
  "lat": 50.6049537,
  "lon": 3.3863556
},
{
  "type": "node",
  "id": 6785840661,
  "lat": 50.6049882,
  "lon": 3.3863998
},
{
  "type": "node",
  "id": 6785840662,
  "lat": 50.6050307,
  "lon": 3.3863292
},
{
  "type": "node",
  "id": 6785840663,
  "lat": 50.6050639,
  "lon": 3.3863750
},
{
  "type": "node",
  "id": 6785840664,
  "lat": 50.6050585,
  "lon": 3.3863849
},
{
  "type": "node",
  "id": 6785840665,
  "lat": 50.6051188,
  "lon": 3.3864655
},
{
  "type": "node",
  "id": 6785840666,
  "lat": 50.6051792,
  "lon": 3.3865366
},
{
  "type": "node",
  "id": 6785840667,
  "lat": 50.6052282,
  "lon": 3.3864126
},
{
  "type": "node",
  "id": 6785840668,
  "lat": 50.6052814,
  "lon": 3.3864676
},
{
  "type": "node",
  "id": 6785840669,
  "lat": 50.6053299,
  "lon": 3.3865178
},
{
  "type": "node",
  "id": 6785840670,
  "lat": 50.6049399,
  "lon": 3.3861958
},
{
  "type": "node",
  "id": 6785840671,
  "lat": 50.6050327,
  "lon": 3.3863259
},
{
  "type": "node",
  "id": 6785840672,
  "lat": 50.6048633,
  "lon": 3.3863346
},
{
  "type": "node",
  "id": 6785840673,
  "lat": 50.6048561,
  "lon": 3.3863473
},
{
  "type": "node",
  "id": 6785840674,
  "lat": 50.6047548,
  "lon": 3.3862058
},
{
  "type": "node",
  "id": 6785840675,
  "lat": 50.6048408,
  "lon": 3.3860422
},
{
  "type": "node",
  "id": 6785840676,
  "lat": 50.6049446,
  "lon": 3.3861857
},
{
  "type": "node",
  "id": 6785840680,
  "lat": 50.6050998,
  "lon": 3.3864405
},
{
  "type": "node",
  "id": 6832808246,
  "lat": 50.6045036,
  "lon": 3.3845190
},
{
  "type": "node",
  "id": 6832808247,
  "lat": 50.6044383,
  "lon": 3.3845575
},
{
  "type": "node",
  "id": 6832808250,
  "lat": 50.6044498,
  "lon": 3.3845418
},
{
  "type": "node",
  "id": 6832808251,
  "lat": 50.6044687,
  "lon": 3.3846203
},
{
  "type": "node",
  "id": 6832808252,
  "lat": 50.6044538,
  "lon": 3.3848236
},
{
  "type": "node",
  "id": 6832808254,
  "lat": 50.6044987,
  "lon": 3.3850442
},
{
  "type": "node",
  "id": 6832808255,
  "lat": 50.6045335,
  "lon": 3.3849892
},
{
  "type": "node",
  "id": 6832808256,
  "lat": 50.6045574,
  "lon": 3.3846329
},
{
  "type": "node",
  "id": 6832808257,
  "lat": 50.6044667,
  "lon": 3.3847522
},
{
  "type": "node",
  "id": 6832808259,
  "lat": 50.6044608,
  "lon": 3.3845622
},
{
  "type": "node",
  "id": 6832808260,
  "lat": 50.6045111,
  "lon": 3.3846917
},
{
  "type": "node",
  "id": 6832808261,
  "lat": 50.6045246,
  "lon": 3.3845614
},
{
  "type": "node",
  "id": 6832808262,
  "lat": 50.6043920,
  "lon": 3.3847074
},
{
  "type": "node",
  "id": 6832808263,
  "lat": 50.6041502,
  "lon": 3.3846980
},
{
  "type": "node",
  "id": 6832808264,
  "lat": 50.6044827,
  "lon": 3.3847867
},
{
  "type": "node",
  "id": 6832808266,
  "lat": 50.6042948,
  "lon": 3.3845096
},
{
  "type": "node",
  "id": 6832808268,
  "lat": 50.6042076,
  "lon": 3.3848001
},
{
  "type": "node",
  "id": 6832808269,
  "lat": 50.6043142,
  "lon": 3.3846603
},
{
  "type": "node",
  "id": 6942588725,
  "lat": 50.6044818,
  "lon": 3.3848817
},
{
  "type": "node",
  "id": 6942588974,
  "lat": 50.6045349,
  "lon": 3.3846615
},
{
  "type": "node",
  "id": 6952215253,
  "lat": 50.6051478,
  "lon": 3.3867161
},
{
  "type": "node",
  "id": 6952246442,
  "lat": 50.6048675,
  "lon": 3.3864741
},
{
  "type": "node",
  "id": 1020493002,
  "lat": 50.6040050,
  "lon": 3.3882724
},
{
  "type": "node",
  "id": 1020493075,
  "lat": 50.6041899,
  "lon": 3.3886901
},
{
  "type": "node",
  "id": 3137521488,
  "lat": 50.6045171,
  "lon": 3.3883435
},
{
  "type": "node",
  "id": 3137521489,
  "lat": 50.6044695,
  "lon": 3.3882294
},
{
  "type": "node",
  "id": 3137521490,
  "lat": 50.6044340,
  "lon": 3.3882537
},
{
  "type": "node",
  "id": 3137521491,
  "lat": 50.6044187,
  "lon": 3.3882651
},
{
  "type": "node",
  "id": 3137521492,
  "lat": 50.6044101,
  "lon": 3.3882587
},
{
  "type": "node",
  "id": 3137521493,
  "lat": 50.6043992,
  "lon": 3.3882453
},
{
  "type": "node",
  "id": 3137521494,
  "lat": 50.6042718,
  "lon": 3.3883948
},
{
  "type": "node",
  "id": 3281212884,
  "lat": 50.5655375,
  "lon": 3.4488324
},
{
  "type": "node",
  "id": 3281212889,
  "lat": 50.5656208,
  "lon": 3.4490384
},
{
  "type": "node",
  "id": 3281212893,
  "lat": 50.5656829,
  "lon": 3.4486868
},
{
  "type": "node",
  "id": 3281212898,
  "lat": 50.5657661,
  "lon": 3.4488928
},
{
  "type": "node",
  "id": 4348250797,
  "lat": 50.7491562,
  "lon": 3.6018485
},
{
  "type": "node",
  "id": 4348250798,
  "lat": 50.7492533,
  "lon": 3.6024895
},
{
  "type": "node",
  "id": 4348250799,
  "lat": 50.7492535,
  "lon": 3.6019651
},
{
  "type": "node",
  "id": 4348250800,
  "lat": 50.7493092,
  "lon": 3.6023389
},
{
  "type": "node",
  "id": 4348250801,
  "lat": 50.7494202,
  "lon": 3.6018206
},
{
  "type": "node",
  "id": 4348250802,
  "lat": 50.7494336,
  "lon": 3.6019312
},
{
  "type": "node",
  "id": 4348250803,
  "lat": 50.7494760,
  "lon": 3.6022851
},
{
  "type": "node",
  "id": 4348250804,
  "lat": 50.7494831,
  "lon": 3.6018109
},
{
  "type": "node",
  "id": 4348250805,
  "lat": 50.7495096,
  "lon": 3.6020477
},
{
  "type": "node",
  "id": 4348250806,
  "lat": 50.7495109,
  "lon": 3.6022792
},
{
  "type": "node",
  "id": 4348250807,
  "lat": 50.7495234,
  "lon": 3.6023913
},
{
  "type": "node",
  "id": 4348250808,
  "lat": 50.7495425,
  "lon": 3.6021706
},
{
  "type": "node",
  "id": 4348250809,
  "lat": 50.7495533,
  "lon": 3.6022674
},
{
  "type": "node",
  "id": 4348250810,
  "lat": 50.7496016,
  "lon": 3.6020221
},
{
  "type": "node",
  "id": 4348250811,
  "lat": 50.7496158,
  "lon": 3.6021502
},
{
  "type": "node",
  "id": 5213710190,
  "lat": 50.8149010,
  "lon": 3.4385432
},
{
  "type": "node",
  "id": 5213710191,
  "lat": 50.8150016,
  "lon": 3.4386966
},
{
  "type": "node",
  "id": 5213710192,
  "lat": 50.8149440,
  "lon": 3.4387914
},
{
  "type": "node",
  "id": 5213710193,
  "lat": 50.8149655,
  "lon": 3.4388243
},
{
  "type": "node",
  "id": 5213710194,
  "lat": 50.8149266,
  "lon": 3.4388884
},
{
  "type": "node",
  "id": 5213710195,
  "lat": 50.8148623,
  "lon": 3.4387905
},
{
  "type": "node",
  "id": 5213710196,
  "lat": 50.8148874,
  "lon": 3.4387492
},
{
  "type": "node",
  "id": 5213710197,
  "lat": 50.8148641,
  "lon": 3.4387137
},
{
  "type": "node",
  "id": 5213710198,
  "lat": 50.8148571,
  "lon": 3.4387252
},
{
  "type": "node",
  "id": 5213710199,
  "lat": 50.8148224,
  "lon": 3.4386724
},
{
  "type": "node",
  "id": 4405562225,
  "lat": 50.9606512,
  "lon": 3.4847763
},
{
  "type": "node",
  "id": 4405562226,
  "lat": 50.9607011,
  "lon": 3.4849292
},
{
  "type": "node",
  "id": 4405562241,
  "lat": 50.9598775,
  "lon": 3.4852511
},
{
  "type": "node",
  "id": 4405562242,
  "lat": 50.9598656,
  "lon": 3.4850459
},
{
  "type": "node",
  "id": 4405562249,
  "lat": 50.9598462,
  "lon": 3.4848166
},
{
  "type": "node",
  "id": 4405562250,
  "lat": 50.9600278,
  "lon": 3.4847361
},
{
  "type": "node",
  "id": 4405562256,
  "lat": 50.9605946,
  "lon": 3.4846060
},
{
  "type": "node",
  "id": 4405562257,
  "lat": 50.9607543,
  "lon": 3.4850794
},
{
  "type": "node",
  "id": 4405562258,
  "lat": 50.9602032,
  "lon": 3.4856549
},
{
  "type": "node",
  "id": 4405562259,
  "lat": 50.9598893,
  "lon": 3.4853973
},
{
  "type": "node",
  "id": 4405562260,
  "lat": 50.9601089,
  "lon": 3.4847079
},
{
  "type": "node",
  "id": 4405562261,
  "lat": 50.9602373,
  "lon": 3.4849145
},
{
  "type": "node",
  "id": 4405574551,
  "lat": 50.9608026,
  "lon": 3.4853652
},
{
  "type": "node",
  "id": 4405574553,
  "lat": 50.9601564,
  "lon": 3.4853660
},
{
  "type": "node",
  "id": 4405574554,
  "lat": 50.9608346,
  "lon": 3.4853498
},
{
  "type": "node",
  "id": 3827182805,
  "lat": 50.8417685,
  "lon": 3.6031112
},
{
  "type": "node",
  "id": 3827182806,
  "lat": 50.8418049,
  "lon": 3.6030080
},
{
  "type": "node",
  "id": 3827182807,
  "lat": 50.8419734,
  "lon": 3.6026532
},
{
  "type": "node",
  "id": 3827182808,
  "lat": 50.8419736,
  "lon": 3.6031533
},
{
  "type": "node",
  "id": 3827182809,
  "lat": 50.8421002,
  "lon": 3.6025851
},
{
  "type": "node",
  "id": 3827182810,
  "lat": 50.8421243,
  "lon": 3.6034504
},
{
  "type": "node",
  "id": 3827182811,
  "lat": 50.8421385,
  "lon": 3.6027585
},
{
  "type": "node",
  "id": 3827182812,
  "lat": 50.8421544,
  "lon": 3.6033658
},
{
  "type": "node",
  "id": 3827182813,
  "lat": 50.8421550,
  "lon": 3.6027610
},
{
  "type": "node",
  "id": 3827182814,
  "lat": 50.8421568,
  "lon": 3.6032146
},
{
  "type": "node",
  "id": 3827182815,
  "lat": 50.8421693,
  "lon": 3.6032140
},
{
  "type": "node",
  "id": 3827182816,
  "lat": 50.8421830,
  "lon": 3.6033868
},
{
  "type": "node",
  "id": 3679306227,
  "lat": 50.9594727,
  "lon": 3.5997596
},
{
  "type": "node",
  "id": 3679306233,
  "lat": 50.9594492,
  "lon": 3.5999913
},
{
  "type": "node",
  "id": 3679324626,
  "lat": 50.9594371,
  "lon": 3.6001151
},
{
  "type": "node",
  "id": 3679324627,
  "lat": 50.9595692,
  "lon": 3.6001524
},
{
  "type": "node",
  "id": 3679324628,
  "lat": 50.9596067,
  "lon": 3.5997958
},
{
  "type": "node",
  "id": 1786934498,
  "lat": 50.9813526,
  "lon": 3.5254754
},
{
  "type": "node",
  "id": 1786934500,
  "lat": 50.9816390,
  "lon": 3.5250008
},
{
  "type": "node",
  "id": 1786934503,
  "lat": 50.9816233,
  "lon": 3.5251929
},
{
  "type": "node",
  "id": 1786934505,
  "lat": 50.9809430,
  "lon": 3.5254043
},
{
  "type": "node",
  "id": 1786934506,
  "lat": 50.9814152,
  "lon": 3.5256543
},
{
  "type": "node",
  "id": 1786934507,
  "lat": 50.9813944,
  "lon": 3.5256516
},
{
  "type": "node",
  "id": 1786934508,
  "lat": 50.9810111,
  "lon": 3.5254161
},
{
  "type": "node",
  "id": 1786934510,
  "lat": 50.9809711,
  "lon": 3.5257853
},
{
  "type": "node",
  "id": 1786934511,
  "lat": 50.9813362,
  "lon": 3.5254730
},
{
  "type": "node",
  "id": 1786934512,
  "lat": 50.9811664,
  "lon": 3.5251021
},
{
  "type": "node",
  "id": 1786934513,
  "lat": 50.9811653,
  "lon": 3.5252725
},
{
  "type": "node",
  "id": 1786934514,
  "lat": 50.9809830,
  "lon": 3.5255931
},
{
  "type": "node",
  "id": 1786934516,
  "lat": 50.9812838,
  "lon": 3.5249504
},
{
  "type": "node",
  "id": 1786934517,
  "lat": 50.9815046,
  "lon": 3.5253463
},
{
  "type": "node",
  "id": 1786934519,
  "lat": 50.9810199,
  "lon": 3.5252487
},
{
  "type": "node",
  "id": 1786934521,
  "lat": 50.9815165,
  "lon": 3.5251771
},
{
  "type": "node",
  "id": 1786934522,
  "lat": 50.9809315,
  "lon": 3.5255832
},
{
  "type": "node",
  "id": 1786934523,
  "lat": 50.9813621,
  "lon": 3.5253240
},
{
  "type": "node",
  "id": 1786934524,
  "lat": 50.9813563,
  "lon": 3.5258241
},
{
  "type": "node",
  "id": 1786934527,
  "lat": 50.9812827,
  "lon": 3.5251190
},
{
  "type": "node",
  "id": 4651089721,
  "lat": 50.9811707,
  "lon": 3.5251881
},
{
  "type": "node",
  "id": 4651089722,
  "lat": 50.9811627,
  "lon": 3.5251881
},
{
  "type": "node",
  "id": 4651089723,
  "lat": 50.9812898,
  "lon": 3.5250332
},
{
  "type": "node",
  "id": 4651089724,
  "lat": 50.9812801,
  "lon": 3.5250326
},
{
  "type": "node",
  "id": 4651089725,
  "lat": 50.9816368,
  "lon": 3.5250527
},
{
  "type": "node",
  "id": 4651089726,
  "lat": 50.9816326,
  "lon": 3.5250527
},
{
  "type": "node",
  "id": 4651089727,
  "lat": 50.9813314,
  "lon": 3.5255544
},
{
  "type": "node",
  "id": 4651089728,
  "lat": 50.9814201,
  "lon": 3.5255668
},
{
  "type": "node",
  "id": 4651089729,
  "lat": 50.9813867,
  "lon": 3.5258271
},
{
  "type": "node",
  "id": 4651089730,
  "lat": 50.9813552,
  "lon": 3.5258461
},
{
  "type": "node",
  "id": 6580421881,
  "lat": 51.0096903,
  "lon": 3.6033799
},
{
  "type": "node",
  "id": 6580421882,
  "lat": 51.0097188,
  "lon": 3.6034695
},
{
  "type": "node",
  "id": 6580421883,
  "lat": 51.0095907,
  "lon": 3.6035740
},
{
  "type": "node",
  "id": 6580421884,
  "lat": 51.0095647,
  "lon": 3.6034938
},
{
  "type": "node",
  "id": 6580422985,
  "lat": 51.0095560,
  "lon": 3.6034648
},
{
  "type": "node",
  "id": 6580422986,
  "lat": 51.0096073,
  "lon": 3.6034240
},
{
  "type": "node",
  "id": 6580422987,
  "lat": 51.0096587,
  "lon": 3.6033823
},
{
  "type": "node",
  "id": 6580422988,
  "lat": 51.0096647,
  "lon": 3.6034006
},
{
  "type": "node",
  "id": 6580443712,
  "lat": 51.0099304,
  "lon": 3.5984456
},
{
  "type": "node",
  "id": 6580443713,
  "lat": 51.0099208,
  "lon": 3.5984465
},
{
  "type": "node",
  "id": 6582308805,
  "lat": 51.0096397,
  "lon": 3.6035537
},
{
  "type": "node",
  "id": 6582308806,
  "lat": 51.0096378,
  "lon": 3.6035357
},
{
  "type": "node",
  "id": 6582308807,
  "lat": 51.0096114,
  "lon": 3.6035561
},
{
  "type": "node",
  "id": 6582308808,
  "lat": 51.0096201,
  "lon": 3.6035692
},
{
  "type": "node",
  "id": 6582308809,
  "lat": 51.0095578,
  "lon": 3.6034697
},
{
  "type": "node",
  "id": 6582308810,
  "lat": 51.0095696,
  "lon": 3.6034894
},
{
  "type": "node",
  "id": 6582308959,
  "lat": 51.0099259,
  "lon": 3.5984389
},
{
  "type": "node",
  "id": 6580443704,
  "lat": 51.0101560,
  "lon": 3.5978913
},
{
  "type": "node",
  "id": 6580443699,
  "lat": 51.0104061,
  "lon": 3.5982201
},
{
  "type": "node",
  "id": 6580443700,
  "lat": 51.0102522,
  "lon": 3.5979549
},
{
  "type": "node",
  "id": 6580443701,
  "lat": 51.0102174,
  "lon": 3.5980152
},
{
  "type": "node",
  "id": 6580443702,
  "lat": 51.0101981,
  "lon": 3.5979840
},
{
  "type": "node",
  "id": 6580443703,
  "lat": 51.0102051,
  "lon": 3.5979728
},
{
  "type": "node",
  "id": 6580443705,
  "lat": 51.0100724,
  "lon": 3.5980194
},
{
  "type": "node",
  "id": 6580443706,
  "lat": 51.0101216,
  "lon": 3.5981002
},
{
  "type": "node",
  "id": 6580443707,
  "lat": 51.0101463,
  "lon": 3.5980645
},
{
  "type": "node",
  "id": 6580443708,
  "lat": 51.0101491,
  "lon": 3.5981018
},
{
  "type": "node",
  "id": 6580443709,
  "lat": 51.0100824,
  "lon": 3.5982029
},
{
  "type": "node",
  "id": 6580443710,
  "lat": 51.0100889,
  "lon": 3.5982148
},
{
  "type": "node",
  "id": 6580443711,
  "lat": 51.0100058,
  "lon": 3.5983303
},
{
  "type": "node",
  "id": 6580443714,
  "lat": 51.0100788,
  "lon": 3.5987080
},
{
  "type": "node",
  "id": 6580443715,
  "lat": 51.0101619,
  "lon": 3.5985810
},
{
  "type": "node",
  "id": 6580443716,
  "lat": 51.0101736,
  "lon": 3.5985263
},
{
  "type": "node",
  "id": 6580443717,
  "lat": 51.0102054,
  "lon": 3.5984770
},
{
  "type": "node",
  "id": 6580443718,
  "lat": 51.0102484,
  "lon": 3.5984674
},
{
  "type": "node",
  "id": 6582308960,
  "lat": 51.0100079,
  "lon": 3.5983200
},
{
  "type": "node",
  "id": 6582308961,
  "lat": 51.0100042,
  "lon": 3.5983252
},
{
  "type": "node",
  "id": 6582308962,
  "lat": 51.0100137,
  "lon": 3.5983291
},
{
  "type": "node",
  "id": 6582308963,
  "lat": 51.0101594,
  "lon": 3.5980855
},
{
  "type": "node",
  "id": 6582308964,
  "lat": 51.0101222,
  "lon": 3.5981534
},
{
  "type": "node",
  "id": 6582308965,
  "lat": 51.0101191,
  "lon": 3.5981482
},
{
  "type": "node",
  "id": 6582308966,
  "lat": 51.0101526,
  "lon": 3.5981068
},
{
  "type": "node",
  "id": 6582308967,
  "lat": 51.0102217,
  "lon": 3.5980097
},
{
  "type": "node",
  "id": 6582308968,
  "lat": 51.0102194,
  "lon": 3.5980044
},
{
  "type": "node",
  "id": 6582308969,
  "lat": 51.0103166,
  "lon": 3.5980570
},
{
  "type": "node",
  "id": 6582308970,
  "lat": 51.0102830,
  "lon": 3.5980138
},
{
  "type": "node",
  "id": 6582308971,
  "lat": 51.0103132,
  "lon": 3.5980636
},
{
  "type": "node",
  "id": 6582308972,
  "lat": 51.0102853,
  "lon": 3.5980088
},
{
  "type": "node",
  "id": 6582308973,
  "lat": 51.0103448,
  "lon": 3.5981137
},
{
  "type": "node",
  "id": 6582308974,
  "lat": 51.0103475,
  "lon": 3.5981087
},
{
  "type": "node",
  "id": 6582308975,
  "lat": 51.0103801,
  "lon": 3.5981664
},
{
  "type": "node",
  "id": 6582308976,
  "lat": 51.0103784,
  "lon": 3.5981695
},
{
  "type": "node",
  "id": 6582308977,
  "lat": 51.0104094,
  "lon": 3.5982141
},
{
  "type": "node",
  "id": 6582308978,
  "lat": 51.0102410,
  "lon": 3.5984634
},
{
  "type": "node",
  "id": 6582308979,
  "lat": 51.0102433,
  "lon": 3.5984601
},
{
  "type": "node",
  "id": 6582308980,
  "lat": 51.0102753,
  "lon": 3.5984136
},
{
  "type": "node",
  "id": 6582308981,
  "lat": 51.0103112,
  "lon": 3.5983672
},
{
  "type": "node",
  "id": 6582308982,
  "lat": 51.0103420,
  "lon": 3.5983145
},
{
  "type": "node",
  "id": 6582308983,
  "lat": 51.0103795,
  "lon": 3.5982663
},
{
  "type": "node",
  "id": 6582308984,
  "lat": 51.0104078,
  "lon": 3.5982231
},
{
  "type": "node",
  "id": 6582308985,
  "lat": 51.0103763,
  "lon": 3.5982617
},
{
  "type": "node",
  "id": 6582308986,
  "lat": 51.0103436,
  "lon": 3.5983185
},
{
  "type": "node",
  "id": 6582308987,
  "lat": 51.0103084,
  "lon": 3.5983632
},
{
  "type": "node",
  "id": 6582308988,
  "lat": 51.0102789,
  "lon": 3.5984205
},
{
  "type": "node",
  "id": 6582308989,
  "lat": 51.0102285,
  "lon": 3.5984426
},
{
  "type": "node",
  "id": 6582308990,
  "lat": 51.0102106,
  "lon": 3.5984865
},
{
  "type": "node",
  "id": 6582308991,
  "lat": 51.0101795,
  "lon": 3.5985351
},
{
  "type": "node",
  "id": 6582308992,
  "lat": 51.0101501,
  "lon": 3.5985616
},
{
  "type": "way",
  "id": 48290034,
  "nodes": [
    613551051,
    613550999,
    613551001,
    613551002,
    613551004,
    613551006,
    613551009,
    613551011,
    613551052,
    613551051
  ]
},
{
  "type": "way",
  "id": 48290036,
  "nodes": [
    613550970,
    6574122643,
    613550957,
    613550956,
    613551050,
    613551053,
    613551049,
    613551047,
    613551045,
    4430089626,
    6574122654,
    6574122653,
    4430089631,
    4135147768,
    4135147769,
    4135147770,
    613551033,
    4430089630,
    613550996,
    613550989,
    613551020,
    613550988,
    613550987,
    613550984,
    613550981,
    4430089621,
    613550977,
    2303986979,
    6544471169,
    613550936,
    2303986990,
    613550944,
    2303986998,
    613550933,
    2303987010,
    613550930,
    2303987021,
    613550954,
    2303987032,
    613550951,
    2303987059,
    613550971,
    613550970
  ]
},
{
  "type": "way",
  "id": 48290041,
  "nodes": [
    613551013,
    6574122659,
    6574122660,
    613550990,
    613550959,
    613550960,
    6574122658,
    613550962,
    613550965,
    613550968,
    613551013
  ]
},
{
  "type": "way",
  "id": 77892706,
  "nodes": [
    915570723,
    915572444,
    915553624,
    915549405,
    915553847,
    915550628,
    915563291,
    915555105,
    915573289,
    915567997,
    915570723
  ]
},
{
  "type": "way",
  "id": 77892718,
  "nodes": [
    915563551,
    915554085,
    915573331,
    915577656,
    915567694,
    915561629,
    915560143,
    915573693,
    915565207,
    915563551
  ]
},
{
  "type": "way",
  "id": 38354577,
  "nodes": [
    453050602,
    453050603,
    453050604,
    453050605,
    453050626,
    453050606,
    931823113,
    931839030,
    453050607,
    931825293,
    453050608,
    931847790,
    453050609,
    453050610,
    453050611,
    453050612,
    453050627,
    453050613,
    453050614,
    453050615,
    453050616,
    453050602
  ]
},
{
  "type": "way",
  "id": 79831129,
  "nodes": [
    931849508,
    931856066,
    931826720,
    931833675,
    931858585,
    931827721,
    931826919,
    931850656,
    931851462,
    931840316,
    931842795,
    931831350,
    931847421,
    931827034,
    931849508
  ]
},
{
  "type": "way",
  "id": 436992127,
  "nodes": [
    4348250802,
    4348250799,
    4348250800,
    4348250803,
    4348250802
  ]
},
{
  "type": "way",
  "id": 436992128,
  "nodes": [
    4348250801,
    4348250804,
    4348250805,
    4348250810,
    4348250811,
    4348250808,
    4348250809,
    4348250806,
    4348250807,
    4348250798,
    4348250797,
    4348250801
  ]
}

  ]
}
