{
  "version": 0.6,
  "generator": "Overpass API 0.7.55.9 ab41fea6",
  "osm3s": {
    "timestamp_osm_base": "2020-02-14T17:59:02Z",
    "copyright": "The data included in this document is from www.openstreetmap.org. The data is made available under ODbL."
  },
  "elements": [

{
  "type": "node",
  "id": 260838508,
  "lat": 60.3196234,
  "lon": 5.3294555,
  "tags": {
    "addr:city": "Paradis",
    "addr:housenumber": "65",
    "addr:postcode": "5232",
    "addr:street": "Troldhaugvegen",
    "charge": "100",
    "description": "Tidligere bolig til komponisten Edvard Grieg",
    "description:en": "Former residence of composer Edvard Grieg",
    "email": "info@troldhaugen.com",
    "fee": "yes",
    "loc_name": "Troldhaugen",
    "name": "Edvard Grieg Museum Troldhaugen",
    "opening_hours": "Jan-Apr: Mo-Su 10:00-16:00; May-Sep: Mo-Su 09:00-18:00; Oct-Dec: Mo-Su 10:00-16:00",
    "operator": "Kode",
    "phone": "+47 55 92 29 92",
    "subject": "history",
    "tourism": "museum",
    "website": "http://www.griegmuseum.no/",
    "wheelchair": "limited",
    "wikidata": "Q1291307",
    "wikipedia": "no:Edvard Grieg Museum Troldhaugen"
  }
},
{
  "type": "node",
  "id": 260842854,
  "lat": 60.3429097,
  "lon": 5.3367469,
  "tags": {
    "addr:city": "Paradis",
    "addr:housenumber": "10",
    "addr:postcode": "5230",
    "addr:street": "Gamlehaugvegen",
    "charge": "80 NOK",
    "description": "Tidligere bolig til statsminister Christian Michelsen",
    "description:en": "Former residence of prime minister Christian Michelsen",
    "email": "gamlehaugen@museumvest.no",
    "fee": "yes",
    "name": "Gamlehaugen",
    "operator": "Museum Vest",
    "phone": "+47 53 00 61 15",
    "subject": "history",
    "tourism": "museum",
    "website": "https://gamlehaugen.museumvest.no/",
    "wikidata": "Q2722290",
    "wikipedia": "no:Gamlehaugen"
  }
},
{
  "type": "node",
  "id": 260861791,
  "lat": 60.3855504,
  "lon": 5.3319939,
  "tags": {
    "name": "Veteran bensinstasjon",
    "name:en": "Veteran petrol station",
    "source": "local_knowledge",
    "tourism": "museum"
  }
},
{
  "type": "node",
  "id": 272396591,
  "lat": 60.4179425,
  "lon": 5.3111420,
  "tags": {
    "addr:city": "Bergen",
    "addr:housenumber": "4",
    "addr:postcode": "5042",
    "addr:street": "Elsesro",
    "charge": "100 NOK",
    "email": "gamle.bergen@bymuseet.no",
    "fee": "yes",
    "name": "Gamle Bergen",
    "name:en": "Old Bergen",
    "opening_hours": "May 12-Sep 8 09:00-16:00; May 17 closed",
    "operator": "Bymuseet i Bergen",
    "phone": "+47 479 79 576",
    "subject": "history",
    "tourism": "museum",
    "website": "https://www.bymuseet.no/?vis=79",
    "wheelchair": "limited",
    "wikidata": "Q4027116",
    "wikipedia": "no:Gamle Bergen Museum"
  }
},
{
  "type": "node",
  "id": 277647641,
  "lat": 60.5187467,
  "lon": 5.2757144,
  "tags": {
    "description:no": "Serverdighet: nedlagt kystfort",
    "historic": "fort",
    "name": "Tellevik kystfort",
    "old_name": "HKB 36./977 Tellevik",
    "operator": "Tellevik Kystfort Museum",
    "tourism": "museum",
    "website": "https://m.facebook.com/Tellevik.Kystfort/?locale2=nb_NO",
    "wikidata": "Q19392108",
    "wikipedia": "no:Tellevik kystfort"
  }
},
{
  "type": "node",
  "id": 280813058,
  "lat": 60.2700787,
  "lon": 5.3265330,
  "tags": {
    "addr:city": "Fana",
    "addr:housenumber": "24",
    "addr:postcode": "5244",
    "addr:street": "Hordnesvegen",
    "charge": "80 NOK",
    "email": "hordamuseet@bymuseet.no",
    "fee": "yes",
    "name": "Hordamuseet",
    "operator": "Bymuseet i Bergen",
    "phone": "+47 479 79580",
    "subject": "history",
    "tourism": "museum",
    "website": "https://www.bymuseet.no/?vis=249",
    "wheelchair": "yes",
    "wikidata": "Q11975824",
    "wikipedia": "no:Hordamuseet"
  }
},
{
  "type": "node",
  "id": 282881187,
  "lat": 60.3914357,
  "lon": 5.3326221,
  "tags": {
    "addr:city": "Bergen",
    "addr:housenumber": "59",
    "addr:postcode": "5017",
    "addr:street": "Kong Oscars gate",
    "charge": "80 NOK",
    "email": "lepramuseet@bymuseet.no",
    "fee": "yes",
    "name": "Bergen Lepramuseum",
    "name:en": "Bergen Leprosy Museum",
    "operator": "Bymuseet i Bergen",
    "phone": "481 62 678",
    "subject": "history",
    "tourism": "museum",
    "website": "https://www.bymuseet.no/?vis=80",
    "wikidata": "Q11983764",
    "wikipedia": "no:Lepramuseet"
  }
},
{
  "type": "node",
  "id": 365795900,
  "lat": 60.5095450,
  "lon": 5.4362046,
  "tags": {
    "name": "Ole Bulls hjem",
    "name:en": "Ole Bull's home",
    "tourism": "museum",
    "wikidata": "Q318385",
    "wikipedia": "no:Ole Bull"
  }
},
{
  "type": "node",
  "id": 1349751347,
  "lat": 60.4021820,
  "lon": 5.1891776,
  "tags": {
    "name": "Det Røde Hus",
    "opening_hours": "Tu,Th 13:00-17:00; Sa 11:00-15:00",
    "tourism": "museum"
  }
},
{
  "type": "node",
  "id": 1652908165,
  "lat": 60.3255501,
  "lon": 5.0837091,
  "tags": {
    "addr:city": "Fjell",
    "addr:postcode": "5357",
    "addr:street": "Festningsvegen",
    "charge": "80 NOK",
    "email": "fjell@museumvest.no",
    "fee": "yes",
    "historic": "fort",
    "name": "Fjell festning",
    "name:en": "Fjell fortress",
    "old_name": "MKB 11./504 Fjell \"Donner Felix\"",
    "opening_hours": "Tu-Su 11:00-16:00",
    "operator": "Museum Vest",
    "phone": "480 61 039",
    "subject": "history",
    "tourism": "museum",
    "website": "https://fjellfestning.museumvest.no/",
    "wheelchair": "yes",
    "wikidata": "Q328452",
    "wikipedia": "no:Fjell festning"
  }
},
{
  "type": "node",
  "id": 1652908365,
  "lat": 60.5078458,
  "lon": 5.2712865,
  "tags": {
    "addr:city": "Salhus",
    "addr:housenumber": "201",
    "addr:postcode": "5107",
    "addr:street": "Salhusvegen",
    "charge": "90 NOK",
    "fee": "yes",
    "name": "Norsk Trikotasjemuseum",
    "name:en": "The Norwegian Knitting Industry Museum",
    "operator": "Museumssenteret i Hordaland",
    "phone": "+47 55251081",
    "tourism": "museum",
    "website": "http://www.muho.no/salhus-trikotasjefabrikk/",
    "wheelchair": "yes"
  }
},
{
  "type": "node",
  "id": 2413638951,
  "lat": 60.4467264,
  "lon": 5.4701190,
  "tags": {
    "addr:city": "Garnes",
    "addr:housenumber": "8",
    "addr:postcode": "5264",
    "addr:street": "Tunesvegen",
    "email": "gvb@njk.no",
    "name": "Museet Gamle Vossebanen",
    "phone": "+47 55 91 77 80",
    "tourism": "museum",
    "website": "http://www.njk.no/tourist-information/the-old-voss-steam-railway-museum"
  }
},
{
  "type": "node",
  "id": 3930803587,
  "lat": 60.4079437,
  "lon": 5.3220675,
  "tags": {
    "addr:city": "Bergen",
    "addr:floor": "0",
    "addr:housenumber": "23",
    "addr:postcode": "5035",
    "addr:street": "Sandviksbodene",
    "charge": "80 NOK",
    "email": "fiskeri@museumvest.no",
    "fee": "yes",
    "name": "Norges Fiskerimuseum",
    "opening_hours": "Mo-Su 10:00-18:00; Mo-Su 10:00-17:00",
    "operator": "Museum Vest",
    "phone": "53 00 61 60",
    "tourism": "museum",
    "website": "https://fiskerimuseum.museumvest.no/",
    "wikidata": "Q11992032",
    "wikipedia": "no:Norges Fiskerimuseum"
  }
},
{
  "type": "node",
  "id": 3930886464,
  "lat": 60.3943326,
  "lon": 5.3306178,
  "tags": {
    "addr:city": "Bergen",
    "addr:floor": "0",
    "addr:housenumber": "38",
    "addr:postcode": "5018",
    "addr:street": "Lille Øvregaten",
    "alt_name": "Holbergmuseet",
    "charge": "80 NOK",
    "email": "skolemuseet@bymuseet.no",
    "fee": "yes",
    "name": "Bergen skolemuseum",
    "old_name": "Den gamle latinskole",
    "opening_hours": "Mo-Fr 08:00-21:00; Sa 09:00-20:00; Su 11:00-22:00",
    "operator": "Bymuseet i Bergen",
    "phone": "+47 479 79582",
    "tourism": "museum",
    "website": "https://www.bymuseet.no/?vis=57",
    "wikidata": "Q18647773",
    "wikipedia": "no:Bergen Skolemuseum"
  }
},
{
  "type": "node",
  "id": 3935489349,
  "lat": 60.5836557,
  "lon": 5.3655324,
  "tags": {
    "addr:city": "Hjelmås",
    "addr:housenumber": "259",
    "addr:postcode": "5915",
    "addr:street": "Leknesvegen",
    "email": "hifa@ull.no",
    "name": "Hillesvåg Ullvarefabrikk",
    "network": "Economusée",
    "opening_hours": "Mo-We 09:00-16:00; Th 09:00-19:00; Fr 09:00-16:00; Sa-Su 10:00-14:00",
    "operator": "Hillesvåg Ullvarefabrikk AS",
    "shop": "knitting",
    "start_date": "1898",
    "tourism": "museum",
    "website": "https://www.ull.no/"
  }
},
{
  "type": "node",
  "id": 3962157782,
  "lat": 60.3838410,
  "lon": 5.3209329,
  "tags": {
    "addr:city": "Bergen",
    "addr:housenumber": "23",
    "addr:postcode": "5006",
    "addr:street": "Thormøhlens gate",
    "charge": "50 NOK",
    "email": "jogr@online.no",
    "fee": "yes",
    "level": "0",
    "loc_name": "Trikkehallen",
    "name": "Bergens Tekniske Museum",
    "name:en": "Bergen Technical Museum",
    "opening_hours": "Apr 23-Jun 25: Su 13:00-15:00; Aug 20-Nov 12 Su 13:00-15:00",
    "phone": "+4795078360",
    "subject": "technical",
    "tourism": "museum",
    "website": "http://www.bergenstekniskemuseum.no/",
    "wikidata": "Q15941267",
    "wikipedia": "no:Bergens Tekniske Museum"
  }
},
{
  "type": "node",
  "id": 3962157783,
  "lat": 60.3947425,
  "lon": 5.3197676,
  "tags": {
    "fee": "no",
    "name": "Buekorpsmuseet",
    "opening_hours": "Sa-Su 12:00-15:00",
    "phone": "+47909 71 447",
    "subject": "history",
    "tourism": "museum",
    "website": "https://buekorps.webs.com/",
    "wheelchair": "no",
    "wikidata": "Q4985365",
    "wikipedia": "no:Buekorpsmuseet"
  }
},
{
  "type": "node",
  "id": 4385728275,
  "lat": 60.3843312,
  "lon": 5.3305578,
  "tags": {
    "level": "0",
    "name": "Fysikk Museum",
    "opening_hours": "\"on demand\"",
    "operator": "Universitetet i Bergen",
    "tourism": "museum"
  }
},
{
  "type": "node",
  "id": 4397226055,
  "lat": 60.4486361,
  "lon": 5.2167363,
  "tags": {
    "addr:city": "Erdal",
    "addr:housenumber": "59",
    "addr:postcode": "5306",
    "addr:street": "Grensedalen",
    "alt_name": "Bergen Kringkaster",
    "email": "post@bergenkringkaster.no",
    "name": "Radiomuseet",
    "phone": "+4790764111",
    "tourism": "museum",
    "website": "https://www.bergenkringkaster.no/"
  }
},
{
  "type": "node",
  "id": 5411776746,
  "lat": 60.3646440,
  "lon": 5.3710385,
  "tags": {
    "name": "Sofus Madsen Skulpturmuseum",
    "tourism": "museum",
    "wikidata": "Q48687993",
    "wikipedia": "no:Sofus Madsen Skulpturmuseum"
  }
},
{
  "type": "node",
  "id": 6046431801,
  "lat": 60.4604406,
  "lon": 5.4382405,
  "tags": {
    "addr:city": "Ytre Arna",
    "addr:housenumber": "1",
    "addr:postcode": "5265",
    "addr:street": "Ivar Aasgaards veg",
    "charge": "50 NOK",
    "email": "post@ytrearnamuseum.no",
    "fee": "yes",
    "name": "Ytre Arna museum",
    "opening_hours": "Mo off; Tu-Su 12:00-15:00",
    "phone": "+47 975 69 518",
    "tourism": "museum",
    "website": "http://www.ytrearnamuseum.no/"
  }
},
{
  "type": "node",
  "id": 6046431802,
  "lat": 60.4606879,
  "lon": 5.4382539,
  "tags": {
    "addr:city": "Ytre Arna",
    "addr:housenumber": "1",
    "addr:postcode": "5265",
    "addr:street": "Ivar Aasgaards veg",
    "email": "oleana@oleana.no",
    "name": "Oleana Économusée",
    "opening_hours": "Mo-Fr 09:00-15:00; Sa 11:00-15:00",
    "shop": "clothes",
    "tourism": "museum",
    "website": "https://oleana.no"
  }
},
{
  "type": "node",
  "id": 6454389302,
  "lat": 60.3754856,
  "lon": 5.4762176,
  "tags": {
    "name": "Espeland fangeleir",
    "tourism": "museum"
  }
},
{
  "type": "node",
  "id": 6505338685,
  "lat": 60.3959404,
  "lon": 5.3259297,
  "tags": {
    "addr:housenumber": "1A",
    "addr:postcode": "5003",
    "addr:street": "Finnegårdsgaten",
    "name": "Hanseatisk museum",
    "name:en": "Hanseatic Museum",
    "tourism": "museum"
  }
},
{
  "type": "node",
  "id": 6637134320,
  "lat": 60.1200371,
  "lon": 5.2052135,
  "tags": {
    "name": "Hufthamartunet",
    "tourism": "museum"
  }
},
{
  "type": "node",
  "id": 6637134326,
  "lat": 60.1299804,
  "lon": 5.0914714,
  "tags": {
    "name": "Kystmuseet Bakkasund",
    "tourism": "museum"
  }
},
{
  "type": "node",
  "id": 6637134342,
  "lat": 60.5024385,
  "lon": 5.5448651,
  "tags": {
    "name": "Osterøy Museum",
    "tourism": "museum"
  }
},
{
  "type": "node",
  "id": 6637134343,
  "lat": 60.4394095,
  "lon": 5.5756991,
  "tags": {
    "name": "Havråtunet",
    "tourism": "museum"
  }
},
{
  "type": "node",
  "id": 6637134350,
  "lat": 60.3925239,
  "lon": 5.3270203,
  "tags": {
    "name": "Brannmuseet",
    "tourism": "museum"
  }
},
{
  "type": "node",
  "id": 6683027895,
  "lat": 60.3897118,
  "lon": 5.3265231,
  "tags": {
    "addr:housenumber": "5",
    "addr:street": "Rasmus Meyers allé",
    "name": "Bergen Kunsthall",
    "opening_hours": "Mo-We, Fr-Su 11:00-17:00; Th 11:00-20:00",
    "phone": "94015050",
    "tourism": "museum",
    "website": "www.kunsthall.no"
  }
},
{
  "type": "way",
  "id": 194707083,
  "nodes": [
    332251678,
    4086516311,
    332251675,
    332251676,
    6130237970,
    6130237969,
    6130237968,
    6130237971,
    332251677,
    2052104653,
    2052104654,
    2052104655,
    2052104656,
    2052104657,
    2052104659,
    2052104660,
    4097718939,
    2052104661,
    2052104663,
    2052104665,
    2052104668,
    2052104667,
    2052104666,
    2052104664,
    2052104662,
    332251678
  ],
  "tags": {
    "addr:city": "Bergen",
    "addr:housenumber": "51",
    "addr:postcode": "5006",
    "addr:street": "Thormøhlens gate",
    "alt_name": "Vitensenteret;Bergen Vitensenter",
    "building": "yes",
    "description": "Science museum / activity centre",
    "name": "VilVite",
    "opening_hours": "Tu-Fr 09:00-15:00; Sa-Su 10:00-17:00",
    "tourism": "museum",
    "website": "https://www.vilvite.no/",
    "wheelchair": "yes",
    "wikidata": "Q11118693",
    "wikipedia": "no:VilVite"
  }
},
{
  "type": "way",
  "id": 227753014,
  "nodes": [
    2364156453,
    2364156454,
    6046432206,
    6046432205,
    6046432204,
    6046432203,
    6046432207,
    2364156455,
    6637134310,
    6637134308,
    6637134309,
    6637134311,
    2364156456,
    2364156453
  ],
  "tags": {
    "addr:city": "Godvik",
    "addr:housenumber": "150",
    "addr:postcode": "5179",
    "addr:street": "Alvøveien",
    "building": "yes",
    "charge": "80 NOK",
    "email": "alvoen.hovedbygning@bymuseet.no",
    "fee": "yes",
    "name": "Alvøen hovedbygning",
    "operator": "Bymuseet i Bergen",
    "phone": "47 97 95 81",
    "subject": "history",
    "tourism": "museum",
    "website": "https://www.bymuseet.no/?vis=101",
    "wikidata": "Q1770110",
    "wikipedia": "no:Alvøen"
  }
},
{
  "type": "way",
  "id": 242988140,
  "nodes": [
    2504241519,
    2504241523,
    2504241527,
    4029680693,
    2504241531,
    2504241533,
    2504241537,
    2504241538,
    2504241541,
    2504241542,
    2504241547,
    2504241552,
    2504241550,
    2504241551,
    2504241544,
    2504241548,
    2504241535,
    2504241532,
    2504241526,
    2504241525,
    2504241522,
    1652908334,
    2504241518,
    2504241517,
    2504241515,
    2504241514,
    2504241519
  ],
  "tags": {
    "building": "yes",
    "charge": "70 NOK",
    "email": "nordsjofartmuseet@museumvest.no",
    "fee": "yes",
    "name": "Nordsjøfartmuseet",
    "name:en": "The North Sea Traffic Museum",
    "operator": "Museum Vest",
    "phone": "+47 56 327440",
    "subject": "history",
    "toilets:wheelchair": "yes",
    "tourism": "museum",
    "website": "https://nordsjofartsmuseum.museumvest.no/",
    "wheelchair": "yes",
    "wheelchair:description": "Museum 2'nd world war",
    "wikidata": "Q19383365",
    "wikipedia": "no:Nordsjøfartmuseet"
  }
},
{
  "type": "way",
  "id": 252559011,
  "nodes": [
    2585925035,
    2585925036,
    2585925037,
    2585925038,
    2585925039,
    4280812184,
    4280812183,
    2585925040,
    2585925041,
    4280812203,
    4280812204,
    2585925035
  ],
  "tags": {
    "building": "yes",
    "name": "Siljustøl museum",
    "operator": "KODE Bergen",
    "tourism": "museum",
    "wikidata": "Q472172",
    "wikipedia": "en:Harald Sæverud"
  }
},
{
  "type": "way",
  "id": 331274533,
  "nodes": [
    3383342678,
    4184049715,
    3383342646,
    3383342640,
    4836682967,
    3383342637,
    3383342632,
    1652908055,
    3383342638,
    3383342661,
    3383342658,
    3383342672,
    3383342673,
    3383342675,
    3383342677,
    3383342676,
    3383342678
  ],
  "tags": {
    "addr:city": "Bergen",
    "addr:housenumber": "3",
    "addr:postcode": "5835",
    "addr:street": "Dreggsallmenningen",
    "building": "yes",
    "charge": "90 NOK",
    "contact:website": "http://www.bymuseet.no/?vis=77",
    "email": "bryggens.museum@bymuseet.no",
    "fee": "yes",
    "name": "Bryggens museum",
    "operator": "Bymuseet i Bergen",
    "phone": "+47 55 308030",
    "subject": "history",
    "tourism": "museum",
    "website": "http://www.bymuseet.no/?vis=77",
    "wheelchair": "yes",
    "wikidata": "Q4980773",
    "wikipedia": "no:Bryggens Museum"
  }
},
{
  "type": "way",
  "id": 337887565,
  "nodes": [
    3449522448,
    3449522231,
    3449522201,
    3449522134,
    3449522131,
    3449522117,
    3449521672,
    3449521675,
    3449522096,
    3449522183,
    3449522291,
    3449522397,
    3449522538,
    3449522562,
    3449522570,
    3449522587,
    3449522486,
    3449522448
  ],
  "tags": {
    "name": "Vestlandske sætermuseum",
    "tourism": "museum"
  }
},
{
  "type": "way",
  "id": 357248866,
  "nodes": [
    3625699919,
    3625699918,
    3625699920,
    3625699917,
    4042704550,
    4042704549,
    4042704551,
    4042704553,
    4042704554,
    4042704555,
    3625699923,
    3625699924,
    3625699925,
    3118586832,
    1286847255,
    3625699926,
    3625699919
  ],
  "tags": {
    "addr:city": "Lysekloster",
    "addr:housenumber": "15",
    "addr:postcode": "5215",
    "addr:street": "Søvikvegen",
    "alt_name": "Ole Bulls villa",
    "building": "yes",
    "name": "Museet Lysøen",
    "name:fr": "Villa d'Ole Bull",
    "opening_hours": "May 18-Aug 31 Mo-Su 11:00-16:00; Sep Su 11:00-16:00",
    "tourism": "museum"
  }
},
{
  "type": "way",
  "id": 414852054,
  "nodes": [
    4159910535,
    1652908220,
    4159910548,
    4159910550,
    4159910547,
    4159910549,
    4159910545,
    4159910543,
    4159910536,
    4159910535
  ],
  "tags": {
    "addr:city": "Herdla",
    "addr:housenumber": "2",
    "addr:postcode": "5302",
    "addr:street": "Lyngneset",
    "building": "yes",
    "charge": "50 NOK",
    "email": "post@museumvest.no",
    "fee": "yes",
    "name": "Herdla museum",
    "operator": "Museum Vest",
    "phone": "99 38 73 94",
    "tourism": "museum",
    "website": "http://www.museumvest.no/index.php?action=static&id=2",
    "wheelchair": "yes"
  }
},
{
  "type": "way",
  "id": 489603440,
  "nodes": [
    4818322085,
    4818322084,
    4818322083,
    4818322082,
    4818322081,
    4818322080,
    4818322079,
    4818322078,
    4818322085
  ],
  "tags": {
    "building": "bunker",
    "bunker_type": "gun_emplacement",
    "gun_emplacement_type": "antiaircraft",
    "military": "bunker",
    "name": "Laksevåg Kulturhistoriske Forening",
    "old_name": "Flak und Luftschützbunkeren",
    "tourism": "museum",
    "website": "http://www.lamus.no/"
  }
},
{
  "type": "way",
  "id": 493515087,
  "nodes": [
    4854240009,
    4854240008,
    4854240007,
    4854240006,
    4854240005,
    4854240004,
    4854240003,
    4854240002,
    4854240001,
    4854240000,
    4854239999,
    4854239998,
    4854239997,
    4854239996,
    4854239995,
    4854239994,
    4854239993,
    4854239992,
    4854239991,
    4854240009
  ],
  "tags": {
    "amenity": "cafe",
    "building": "service",
    "level": "1",
    "name": "Kanontårnet",
    "opening_hours": "Tu-Su 11:00-16:00",
    "tourism": "museum"
  }
},
{
  "type": "way",
  "id": 495889854,
  "nodes": [
    4876124254,
    4878478905,
    4876124276,
    4878478906,
    4878478907,
    4876124275,
    4878478914,
    4878478861,
    4876123518,
    4878478862,
    4876124255,
    4876124258,
    4876124253,
    4876124266,
    4876124256,
    4876124257,
    4876124254
  ],
  "tags": {
    "access": "permissive",
    "building": "bunker",
    "bunker_type": "medical",
    "description": "Regelbau 638",
    "max_level": "0",
    "military": "bunker",
    "min_level": "-1",
    "name": "Sanitetsbunker",
    "tourism": "museum"
  }
},
{
  "type": "relation",
  "id": 6207246,
  "members": [
    {
      "type": "way",
      "ref": 164326712,
      "role": "outer"
    },
    {
      "type": "way",
      "ref": 721112996,
      "role": "outer"
    },
    {
      "type": "way",
      "ref": 417611105,
      "role": "outer"
    }
  ],
  "tags": {
    "addr:city": "Bergen",
    "addr:housenumber": "10",
    "addr:postcode": "5007",
    "addr:street": "Haakon Shetelings plass",
    "building": "civic",
    "building:colour": "#f0dc82",
    "image": "https://images.mapillary.com/8OFEePyMgl6bjTuBUrIRVA/thumb-2048.jpg",
    "mapillary": "https://www.mapillary.com/map/im/8OFEePyMgl6bjTuBUrIRVA",
    "name": "De kulturhistoriske samlinger",
    "name:en": "The Cultural History Collections",
    "name:nb": "De kulturhistoriske samlinger",
    "name:nn": "Dei kulturhistoriske samlingane",
    "roof:colour": "black",
    "tourism": "museum",
    "type": "multipolygon",
    "wheelchair": "yes",
    "wikidata": "Q28791365"
  }
},
{
  "type": "relation",
  "id": 6207247,
  "members": [
    {
      "type": "way",
      "ref": 419311417,
      "role": "outer"
    },
    {
      "type": "way",
      "ref": 417740542,
      "role": "outer"
    },
    {
      "type": "way",
      "ref": 417792007,
      "role": "outer"
    },
    {
      "type": "way",
      "ref": 417792012,
      "role": "outer"
    },
    {
      "type": "way",
      "ref": 159646135,
      "role": "outer"
    },
    {
      "type": "way",
      "ref": 417792003,
      "role": "outer"
    },
    {
      "type": "way",
      "ref": 417792013,
      "role": "outer"
    },
    {
      "type": "way",
      "ref": 417792008,
      "role": "outer"
    },
    {
      "type": "way",
      "ref": 417792006,
      "role": "outer"
    },
    {
      "type": "way",
      "ref": 417611069,
      "role": "outer"
    },
    {
      "type": "way",
      "ref": 417792000,
      "role": "outer"
    },
    {
      "type": "way",
      "ref": 417791998,
      "role": "outer"
    }
  ],
  "tags": {
    "addr:city": "Bergen",
    "addr:housenumber": "3",
    "addr:postcode": "5007",
    "addr:street": "Muséplassen",
    "building": "civic",
    "charge": "60",
    "fee": "yes",
    "name": "De naturhistoriske samlinger",
    "name:en": "The Natural History Collections",
    "name:nb": "De naturhistoriske samlinger",
    "name:nn": "Dei naturhistoriske samlingane",
    "opening_hours": "\"closed\"",
    "tourism": "museum",
    "type": "multipolygon",
    "website": "https://www.uib.no/universitetsmuseet/naturhistorie/de-naturhistoriske-samlinger",
    "wikidata": "Q11990981",
    "wikipedia": "no:De naturhistoriske samlinger (Bergen)"
  }
},
{
  "type": "relation",
  "id": 6637364,
  "members": [
    {
      "type": "way",
      "ref": 446708442,
      "role": "outer"
    },
    {
      "type": "way",
      "ref": 446708437,
      "role": "outer"
    },
    {
      "type": "way",
      "ref": 446708441,
      "role": "outer"
    },
    {
      "type": "way",
      "ref": 353357937,
      "role": "outer"
    },
    {
      "type": "way",
      "ref": 446708440,
      "role": "outer"
    },
    {
      "type": "way",
      "ref": 446708435,
      "role": "outer"
    },
    {
      "type": "way",
      "ref": 446708439,
      "role": "outer"
    }
  ],
  "tags": {
    "addr:city": "Bergen",
    "addr:housenumber": "15",
    "addr:postcode": "5003",
    "addr:street": "Dreggsallmenningen",
    "amenity": "place_of_worship",
    "architect": "ukjent/Chr. Christie (1863-76)",
    "building": "church",
    "building:material": "stone",
    "capacity": "240",
    "charge": "50 NOK",
    "deanery": "Bergen Domprosti",
    "denomination": "lutheran",
    "diocese": "Bjørgvin",
    "email": "maria.kirken@kirken.no",
    "fee": "yes",
    "image": "https://www.kirkebyggdatabasen.no/KBDBweb/getPublicImage.aspx?vedleggId=8B9B8904-BE3E-4218-8B49-784B5B56909A",
    "kirkelige": "fellesråd",
    "name": "Mariakirken",
    "name:en": "St Mary's Church",
    "note": "Soknekirke",
    "opening_hours": "May-Sep 09:00-16:00; Oct-Apr 12:00-14:00",
    "operator": "Bergen kirkelige fellesråd",
    "parish": "Bergen domkirke",
    "phone": "+47 55597175",
    "religion": "christian",
    "start_date": "1140",
    "toilets": "no",
    "tourism": "museum",
    "type": "multipolygon",
    "wikidata": "Q571683",
    "wikipedia": "no:Mariakirken i Bergen"
  }
},
{
  "type": "relation",
  "id": 7165671,
  "members": [
    {
      "type": "way",
      "ref": 488104896,
      "role": "outer"
    },
    {
      "type": "way",
      "ref": 364189559,
      "role": "outer"
    },
    {
      "type": "way",
      "ref": 487618612,
      "role": "outer"
    }
  ],
  "tags": {
    "addr:city": "Bergen",
    "addr:postcode": "5003",
    "addr:street": "Bergenhus",
    "alt_name": "Magasinbygget",
    "building": "yes",
    "building:levels": "3",
    "fee": "no",
    "name": "Bergenhus Festningsmuseum",
    "roof:colour": "grey",
    "roof:shape": "hipped",
    "tourism": "museum",
    "type": "multipolygon",
    "website": "http://forsvaretsmuseer.no/nor/Bergenhus",
    "wheelchair": "yes"
  }
},
{
  "type": "relation",
  "id": 7165686,
  "members": [
    {
      "type": "way",
      "ref": 487618658,
      "role": "outer"
    },
    {
      "type": "way",
      "ref": 487821164,
      "role": "outer"
    },
    {
      "type": "way",
      "ref": 487821162,
      "role": "outer"
    },
    {
      "type": "way",
      "ref": 487618644,
      "role": "outer"
    },
    {
      "type": "way",
      "ref": 26249100,
      "role": "outer"
    }
  ],
  "tags": {
    "addr:city": "Bergen",
    "addr:postcode": "5835",
    "building": "yes",
    "building:levels": "3",
    "charge": "80",
    "email": "bryggens.museum@bymuseet.no",
    "fee": "yes",
    "name": "Håkonshallen",
    "name:en": "Haakon's Hall",
    "operator": "Bymuseet i Bergen",
    "phone": "+47 47 97 95 77",
    "roof:shape": "gabled",
    "subject": "history",
    "tourism": "museum",
    "type": "multipolygon",
    "website": "https://www.bymuseet.no/vaare-museer/haakonshallen/",
    "wheelchair": "no",
    "wikidata": "Q1783355",
    "wikipedia": "no:Håkonshallen"
  }
},
{
  "type": "relation",
  "id": 7165688,
  "members": [
    {
      "type": "way",
      "ref": 487618640,
      "role": "outer"
    },
    {
      "type": "way",
      "ref": 26249099,
      "role": "outer"
    },
    {
      "type": "way",
      "ref": 487618662,
      "role": "outer"
    }
  ],
  "tags": {
    "addr:city": "Bergen",
    "addr:postcode": "5835",
    "building": "yes",
    "building:levels": "6",
    "building:material": "stone",
    "charge": "80 NOK",
    "email": "bryggens.museum@bymuseet.no",
    "fee": "yes",
    "name": "Rosenkrantztårnet",
    "name:en": "Rosenkrantz Tower",
    "operator": "Bymuseet i Bergen",
    "phone": "+47 47 97 95 78",
    "roof:shape": "gabled",
    "subject": "history",
    "tourism": "museum",
    "type": "multipolygon",
    "website": "https://www.bymuseet.no/en/museums/the-rosenkrantz-tower/",
    "wheelchair": "no",
    "wikidata": "Q3356362",
    "wikipedia": "no:Rosenkrantztårnet"
  }
},
{
  "type": "relation",
  "id": 7233107,
  "members": [
    {
      "type": "way",
      "ref": 492577848,
      "role": "inner"
    },
    {
      "type": "way",
      "ref": 159650596,
      "role": "outer"
    }
  ],
  "tags": {
    "addr:city": "Bergen",
    "addr:floor": "0",
    "addr:housenumber": "15",
    "addr:postcode": "5007",
    "addr:street": "Haakon Shetelings plass",
    "building": "civic",
    "charge": "70 NOK",
    "fee": "yes",
    "name": "Bergen Sjøfartsmuseum",
    "phone": "55 54 96 00",
    "tourism": "museum",
    "type": "multipolygon",
    "website": "http://www.bsj.uib.no/wordpress/",
    "wheelchair": "yes",
    "wikidata": "Q3091564",
    "wikipedia": "no:Bergens Sjøfartsmuseum"
  }
},
{
  "type": "relation",
  "id": 8902128,
  "members": [
    {
      "type": "way",
      "ref": 642193191,
      "role": "outer"
    },
    {
      "type": "way",
      "ref": 642193193,
      "role": "outer"
    },
    {
      "type": "way",
      "ref": 642193190,
      "role": "outer"
    },
    {
      "type": "way",
      "ref": 642193192,
      "role": "outer"
    }
  ],
  "tags": {
    "addr:city": "Laksevåg",
    "addr:housenumber": "29",
    "addr:postcode": "5160",
    "addr:street": "Alléen",
    "charge": "80 NOK",
    "email": "damsgard.hovedgard@bymuseet.no",
    "fee": "yes",
    "name": "Damsgård hovedgård",
    "name:en": "Damsgård Manor",
    "operator": "Bymuseet i Bergen",
    "phone": "+47 47 97 95 84",
    "subject": "history",
    "tourism": "museum",
    "type": "multipolygon",
    "website": "https://www.bymuseet.no/?vis=82",
    "wikidata": "Q5212972",
    "wikipedia": "no:Damsgård hovedgård"
  }
},
{
  "type": "relation",
  "id": 8902129,
  "members": [
    {
      "type": "way",
      "ref": 642193199,
      "role": "outer"
    }
  ],
  "tags": {
    "charge": "60",
    "fee": "yes",
    "name": "Fantoft stavkirke",
    "opening_hours": "May-Sep 10:30-18:00; May 17 off",
    "tourism": "museum",
    "type": "multipolygon"
  }
},
{
  "type": "relation",
  "id": 8902130,
  "members": [
    {
      "type": "way",
      "ref": 642193244,
      "role": "outer"
    },
    {
      "type": "way",
      "ref": 642193246,
      "role": "outer"
    },
    {
      "type": "way",
      "ref": 719637466,
      "role": "outer"
    },
    {
      "type": "way",
      "ref": 719637465,
      "role": "outer"
    },
    {
      "type": "way",
      "ref": 642193235,
      "role": "outer"
    },
    {
      "type": "way",
      "ref": 642193245,
      "role": "outer"
    }
  ],
  "tags": {
    "name": "Schøtstuene",
    "operator": "Museum Vest",
    "tourism": "museum",
    "type": "multipolygon",
    "website": "http://schøtstuene.no/",
    "wikidata": "Q5651003",
    "wikipedia": "no:Det Hanseatiske Museum og Schøtstuene"
  }
},
{
  "type": "node",
  "id": 1652908334,
  "lat": 60.2543488,
  "lon": 4.9890438
},
{
  "type": "node",
  "id": 2504241514,
  "lat": 60.2542801,
  "lon": 4.9895834
},
{
  "type": "node",
  "id": 2504241515,
  "lat": 60.2542993,
  "lon": 4.9894726
},
{
  "type": "node",
  "id": 2504241517,
  "lat": 60.2543152,
  "lon": 4.9893718
},
{
  "type": "node",
  "id": 2504241518,
  "lat": 60.2543317,
  "lon": 4.9892222
},
{
  "type": "node",
  "id": 2504241519,
  "lat": 60.2543317,
  "lon": 4.9896266
},
{
  "type": "node",
  "id": 2504241522,
  "lat": 60.2543647,
  "lon": 4.9888632
},
{
  "type": "node",
  "id": 2504241523,
  "lat": 60.2543691,
  "lon": 4.9895091
},
{
  "type": "node",
  "id": 2504241525,
  "lat": 60.2543768,
  "lon": 4.9887369
},
{
  "type": "node",
  "id": 2504241526,
  "lat": 60.2543796,
  "lon": 4.9886017
},
{
  "type": "node",
  "id": 2504241527,
  "lat": 60.2543911,
  "lon": 4.9893917
},
{
  "type": "node",
  "id": 2504241531,
  "lat": 60.2544208,
  "lon": 4.9892122
},
{
  "type": "node",
  "id": 2504241532,
  "lat": 60.2544274,
  "lon": 4.9886051
},
{
  "type": "node",
  "id": 2504241533,
  "lat": 60.2544274,
  "lon": 4.9891568
},
{
  "type": "node",
  "id": 2504241535,
  "lat": 60.2544329,
  "lon": 4.9886704
},
{
  "type": "node",
  "id": 2504241537,
  "lat": 60.2544681,
  "lon": 4.9891745
},
{
  "type": "node",
  "id": 2504241538,
  "lat": 60.2544703,
  "lon": 4.9891624
},
{
  "type": "node",
  "id": 2504241541,
  "lat": 60.2544906,
  "lon": 4.9891790
},
{
  "type": "node",
  "id": 2504241542,
  "lat": 60.2544977,
  "lon": 4.9891579
},
{
  "type": "node",
  "id": 2504241544,
  "lat": 60.2545285,
  "lon": 4.9887081
},
{
  "type": "node",
  "id": 2504241547,
  "lat": 60.2545362,
  "lon": 4.9892244
},
{
  "type": "node",
  "id": 2504241548,
  "lat": 60.2545384,
  "lon": 4.9886627
},
{
  "type": "node",
  "id": 2504241550,
  "lat": 60.2545796,
  "lon": 4.9889175
},
{
  "type": "node",
  "id": 2504241551,
  "lat": 60.2546159,
  "lon": 4.9888266
},
{
  "type": "node",
  "id": 2504241552,
  "lat": 60.2546379,
  "lon": 4.9890183
},
{
  "type": "node",
  "id": 4029680693,
  "lat": 60.2544065,
  "lon": 4.9892964
},
{
  "type": "node",
  "id": 1652908220,
  "lat": 60.5670319,
  "lon": 4.9572682
},
{
  "type": "node",
  "id": 4159910535,
  "lat": 60.5668887,
  "lon": 4.9574446
},
{
  "type": "node",
  "id": 4159910536,
  "lat": 60.5669370,
  "lon": 4.9576011
},
{
  "type": "node",
  "id": 4159910543,
  "lat": 60.5670430,
  "lon": 4.9574697
},
{
  "type": "node",
  "id": 4159910545,
  "lat": 60.5670519,
  "lon": 4.9574994
},
{
  "type": "node",
  "id": 4159910547,
  "lat": 60.5670802,
  "lon": 4.9574253
},
{
  "type": "node",
  "id": 4159910548,
  "lat": 60.5670816,
  "lon": 4.9572593
},
{
  "type": "node",
  "id": 4159910549,
  "lat": 60.5670882,
  "lon": 4.9574544
},
{
  "type": "node",
  "id": 4159910550,
  "lat": 60.5671058,
  "lon": 4.9573499
},
{
  "type": "node",
  "id": 4854239991,
  "lat": 60.3253660,
  "lon": 5.0818295
},
{
  "type": "node",
  "id": 4854239992,
  "lat": 60.3253764,
  "lon": 5.0818632
},
{
  "type": "node",
  "id": 4854239993,
  "lat": 60.3253809,
  "lon": 5.0819019
},
{
  "type": "node",
  "id": 4854239994,
  "lat": 60.3253789,
  "lon": 5.0819414
},
{
  "type": "node",
  "id": 4854239995,
  "lat": 60.3253706,
  "lon": 5.0819775
},
{
  "type": "node",
  "id": 4854239996,
  "lat": 60.3253570,
  "lon": 5.0820062
},
{
  "type": "node",
  "id": 4854239997,
  "lat": 60.3253395,
  "lon": 5.0820244
},
{
  "type": "node",
  "id": 4854239998,
  "lat": 60.3253201,
  "lon": 5.0820302
},
{
  "type": "node",
  "id": 4854239999,
  "lat": 60.3253007,
  "lon": 5.0820229
},
{
  "type": "node",
  "id": 4854240000,
  "lat": 60.3252836,
  "lon": 5.0820033
},
{
  "type": "node",
  "id": 4854240001,
  "lat": 60.3252706,
  "lon": 5.0819735
},
{
  "type": "node",
  "id": 4854240002,
  "lat": 60.3252631,
  "lon": 5.0819368
},
{
  "type": "node",
  "id": 4854240003,
  "lat": 60.3252618,
  "lon": 5.0818972
},
{
  "type": "node",
  "id": 4854240004,
  "lat": 60.3252670,
  "lon": 5.0818589
},
{
  "type": "node",
  "id": 4854240005,
  "lat": 60.3252781,
  "lon": 5.0818260
},
{
  "type": "node",
  "id": 4854240006,
  "lat": 60.3252938,
  "lon": 5.0818023
},
{
  "type": "node",
  "id": 4854240007,
  "lat": 60.3253126,
  "lon": 5.0817901
},
{
  "type": "node",
  "id": 4854240008,
  "lat": 60.3253322,
  "lon": 5.0817909
},
{
  "type": "node",
  "id": 4854240009,
  "lat": 60.3253507,
  "lon": 5.0818045
},
{
  "type": "node",
  "id": 4876123518,
  "lat": 60.3251968,
  "lon": 5.0890337
},
{
  "type": "node",
  "id": 4876124253,
  "lat": 60.3251963,
  "lon": 5.0889827
},
{
  "type": "node",
  "id": 4876124254,
  "lat": 60.3250475,
  "lon": 5.0890338
},
{
  "type": "node",
  "id": 4876124255,
  "lat": 60.3252092,
  "lon": 5.0890339
},
{
  "type": "node",
  "id": 4876124256,
  "lat": 60.3251877,
  "lon": 5.0887800
},
{
  "type": "node",
  "id": 4876124257,
  "lat": 60.3250469,
  "lon": 5.0887795
},
{
  "type": "node",
  "id": 4876124258,
  "lat": 60.3252098,
  "lon": 5.0889972
},
{
  "type": "node",
  "id": 4876124266,
  "lat": 60.3251881,
  "lon": 5.0889806
},
{
  "type": "node",
  "id": 4876124275,
  "lat": 60.3251585,
  "lon": 5.0890329
},
{
  "type": "node",
  "id": 4876124276,
  "lat": 60.3250768,
  "lon": 5.0890336
},
{
  "type": "node",
  "id": 4878478861,
  "lat": 60.3251941,
  "lon": 5.0890336
},
{
  "type": "node",
  "id": 4878478862,
  "lat": 60.3251993,
  "lon": 5.0890337
},
{
  "type": "node",
  "id": 4878478905,
  "lat": 60.3250693,
  "lon": 5.0890337
},
{
  "type": "node",
  "id": 4878478906,
  "lat": 60.3250836,
  "lon": 5.0890335
},
{
  "type": "node",
  "id": 4878478907,
  "lat": 60.3251518,
  "lon": 5.0890330
},
{
  "type": "node",
  "id": 4878478914,
  "lat": 60.3251664,
  "lon": 5.0890331
},
{
  "type": "node",
  "id": 2364156453,
  "lat": 60.3524108,
  "lon": 5.1899850
},
{
  "type": "node",
  "id": 2364156454,
  "lat": 60.3524638,
  "lon": 5.1903808
},
{
  "type": "node",
  "id": 2364156455,
  "lat": 60.3523425,
  "lon": 5.1904462
},
{
  "type": "node",
  "id": 2364156456,
  "lat": 60.3522896,
  "lon": 5.1900513
},
{
  "type": "node",
  "id": 6046432205,
  "lat": 60.3524336,
  "lon": 5.1904387
},
{
  "type": "node",
  "id": 6046432206,
  "lat": 60.3524285,
  "lon": 5.1904001
},
{
  "type": "node",
  "id": 6637134308,
  "lat": 60.3523883,
  "lon": 5.1902924
},
{
  "type": "node",
  "id": 6637134309,
  "lat": 60.3523674,
  "lon": 5.1901335
},
{
  "type": "node",
  "id": 6637134310,
  "lat": 60.3523264,
  "lon": 5.1903260
},
{
  "type": "node",
  "id": 6637134311,
  "lat": 60.3523050,
  "lon": 5.1901663
},
{
  "type": "node",
  "id": 6046432203,
  "lat": 60.3523743,
  "lon": 5.1905321
},
{
  "type": "node",
  "id": 6046432204,
  "lat": 60.3523667,
  "lon": 5.1904754
},
{
  "type": "node",
  "id": 6046432207,
  "lat": 60.3523554,
  "lon": 5.1905425
},
{
  "type": "node",
  "id": 2585925035,
  "lat": 60.2941198,
  "lon": 5.3079561
},
{
  "type": "node",
  "id": 2585925036,
  "lat": 60.2940561,
  "lon": 5.3078795
},
{
  "type": "node",
  "id": 2585925037,
  "lat": 60.2940119,
  "lon": 5.3080343
},
{
  "type": "node",
  "id": 2585925038,
  "lat": 60.2938394,
  "lon": 5.3080475
},
{
  "type": "node",
  "id": 2585925039,
  "lat": 60.2938446,
  "lon": 5.3082372
},
{
  "type": "node",
  "id": 2585925040,
  "lat": 60.2941046,
  "lon": 5.3082292
},
{
  "type": "node",
  "id": 2585925041,
  "lat": 60.2941015,
  "lon": 5.3081213
},
{
  "type": "node",
  "id": 4280812183,
  "lat": 60.2939689,
  "lon": 5.3082390
},
{
  "type": "node",
  "id": 4280812184,
  "lat": 60.2939695,
  "lon": 5.3082214
},
{
  "type": "node",
  "id": 4280812203,
  "lat": 60.2940884,
  "lon": 5.3081200
},
{
  "type": "node",
  "id": 4280812204,
  "lat": 60.2940894,
  "lon": 5.3080642
},
{
  "type": "node",
  "id": 1286847255,
  "lat": 60.2110355,
  "lon": 5.3688174
},
{
  "type": "node",
  "id": 3118586832,
  "lat": 60.2110561,
  "lon": 5.3688324
},
{
  "type": "node",
  "id": 3625699917,
  "lat": 60.2109046,
  "lon": 5.3689918
},
{
  "type": "node",
  "id": 3625699918,
  "lat": 60.2109019,
  "lon": 5.3687320
},
{
  "type": "node",
  "id": 3625699919,
  "lat": 60.2109283,
  "lon": 5.3685849
},
{
  "type": "node",
  "id": 3625699920,
  "lat": 60.2109455,
  "lon": 5.3687636
},
{
  "type": "node",
  "id": 3625699923,
  "lat": 60.2110000,
  "lon": 5.3690236
},
{
  "type": "node",
  "id": 3625699924,
  "lat": 60.2110199,
  "lon": 5.3689147
},
{
  "type": "node",
  "id": 3625699925,
  "lat": 60.2110391,
  "lon": 5.3689271
},
{
  "type": "node",
  "id": 3625699926,
  "lat": 60.2110600,
  "lon": 5.3686805
},
{
  "type": "node",
  "id": 4042704549,
  "lat": 60.2109615,
  "lon": 5.3690660
},
{
  "type": "node",
  "id": 4042704550,
  "lat": 60.2109665,
  "lon": 5.3690328
},
{
  "type": "node",
  "id": 4042704551,
  "lat": 60.2109693,
  "lon": 5.3690936
},
{
  "type": "node",
  "id": 4042704553,
  "lat": 60.2109849,
  "lon": 5.3691061
},
{
  "type": "node",
  "id": 4042704554,
  "lat": 60.2110013,
  "lon": 5.3690917
},
{
  "type": "node",
  "id": 4042704555,
  "lat": 60.2110063,
  "lon": 5.3690629
},
{
  "type": "node",
  "id": 3449522117,
  "lat": 60.2550926,
  "lon": 5.3608267
},
{
  "type": "node",
  "id": 3449522131,
  "lat": 60.2552128,
  "lon": 5.3607997
},
{
  "type": "node",
  "id": 3449522134,
  "lat": 60.2552429,
  "lon": 5.3602947
},
{
  "type": "node",
  "id": 3449522201,
  "lat": 60.2557140,
  "lon": 5.3590489
},
{
  "type": "node",
  "id": 3449522231,
  "lat": 60.2558576,
  "lon": 5.3588940
},
{
  "type": "node",
  "id": 3449522448,
  "lat": 60.2565926,
  "lon": 5.3603890
},
{
  "type": "node",
  "id": 3449522486,
  "lat": 60.2567505,
  "lon": 5.3606684
},
{
  "type": "node",
  "id": 3449521672,
  "lat": 60.2546282,
  "lon": 5.3625169
},
{
  "type": "node",
  "id": 3449521675,
  "lat": 60.2546682,
  "lon": 5.3629075
},
{
  "type": "node",
  "id": 3449522096,
  "lat": 60.2548386,
  "lon": 5.3632374
},
{
  "type": "node",
  "id": 3449522183,
  "lat": 60.2556071,
  "lon": 5.3630219
},
{
  "type": "node",
  "id": 3449522291,
  "lat": 60.2563118,
  "lon": 5.3624434
},
{
  "type": "node",
  "id": 3449522397,
  "lat": 60.2563454,
  "lon": 5.3624159
},
{
  "type": "node",
  "id": 3449522538,
  "lat": 60.2569242,
  "lon": 5.3628772
},
{
  "type": "node",
  "id": 3449522562,
  "lat": 60.2570411,
  "lon": 5.3621667
},
{
  "type": "node",
  "id": 3449522570,
  "lat": 60.2571263,
  "lon": 5.3619243
},
{
  "type": "node",
  "id": 3449522587,
  "lat": 60.2572633,
  "lon": 5.3609782
},
{
  "type": "node",
  "id": 4818322085,
  "lat": 60.3849441,
  "lon": 5.3018375
},
{
  "type": "node",
  "id": 6046431890,
  "lat": 60.3833731,
  "lon": 5.3014538
},
{
  "type": "node",
  "id": 6046431891,
  "lat": 60.3830397,
  "lon": 5.3015752
},
{
  "type": "node",
  "id": 6046431916,
  "lat": 60.3833638,
  "lon": 5.3018114
},
{
  "type": "node",
  "id": 386180491,
  "lat": 60.3830656,
  "lon": 5.3019883
},
{
  "type": "node",
  "id": 4818322078,
  "lat": 60.3847793,
  "lon": 5.3018930
},
{
  "type": "node",
  "id": 4818322079,
  "lat": 60.3848063,
  "lon": 5.3022213
},
{
  "type": "node",
  "id": 4818322080,
  "lat": 60.3849681,
  "lon": 5.3021669
},
{
  "type": "node",
  "id": 4818322081,
  "lat": 60.3849584,
  "lon": 5.3020484
},
{
  "type": "node",
  "id": 4818322082,
  "lat": 60.3849727,
  "lon": 5.3020435
},
{
  "type": "node",
  "id": 4818322083,
  "lat": 60.3849660,
  "lon": 5.3019618
},
{
  "type": "node",
  "id": 4818322084,
  "lat": 60.3849546,
  "lon": 5.3019657
},
{
  "type": "node",
  "id": 6046431887,
  "lat": 60.3830816,
  "lon": 5.3021528
},
{
  "type": "node",
  "id": 6046431888,
  "lat": 60.3833817,
  "lon": 5.3021009
},
{
  "type": "node",
  "id": 6046431889,
  "lat": 60.3833736,
  "lon": 5.3020476
},
{
  "type": "node",
  "id": 6046431892,
  "lat": 60.3830748,
  "lon": 5.3019887
},
{
  "type": "node",
  "id": 6046431893,
  "lat": 60.3834032,
  "lon": 5.3027393
},
{
  "type": "node",
  "id": 6046431894,
  "lat": 60.3832783,
  "lon": 5.3027574
},
{
  "type": "node",
  "id": 6046431895,
  "lat": 60.3831279,
  "lon": 5.3027540
},
{
  "type": "node",
  "id": 6046431896,
  "lat": 60.3831130,
  "lon": 5.3025234
},
{
  "type": "node",
  "id": 6046431904,
  "lat": 60.3830871,
  "lon": 5.3022840
},
{
  "type": "node",
  "id": 6046431907,
  "lat": 60.3833654,
  "lon": 5.3019209
},
{
  "type": "node",
  "id": 6046431910,
  "lat": 60.3833854,
  "lon": 5.3022301
},
{
  "type": "node",
  "id": 6046431913,
  "lat": 60.3833708,
  "lon": 5.3019195
},
{
  "type": "node",
  "id": 1717641801,
  "lat": 60.3875179,
  "lon": 5.3214068
},
{
  "type": "node",
  "id": 1717641815,
  "lat": 60.3876405,
  "lon": 5.3209120
},
{
  "type": "node",
  "id": 1717641819,
  "lat": 60.3876881,
  "lon": 5.3213189
},
{
  "type": "node",
  "id": 1717641820,
  "lat": 60.3876946,
  "lon": 5.3207121
},
{
  "type": "node",
  "id": 1717641826,
  "lat": 60.3877568,
  "lon": 5.3210475
},
{
  "type": "node",
  "id": 1717641832,
  "lat": 60.3877923,
  "lon": 5.3214947
},
{
  "type": "node",
  "id": 1717641839,
  "lat": 60.3878793,
  "lon": 5.3211766
},
{
  "type": "node",
  "id": 1717641840,
  "lat": 60.3879327,
  "lon": 5.3212357
},
{
  "type": "node",
  "id": 1717641841,
  "lat": 60.3879868,
  "lon": 5.3210358
},
{
  "type": "node",
  "id": 1717670689,
  "lat": 60.3866021,
  "lon": 5.3192661
},
{
  "type": "node",
  "id": 1717670692,
  "lat": 60.3867586,
  "lon": 5.3187192
},
{
  "type": "node",
  "id": 1717670694,
  "lat": 60.3867812,
  "lon": 5.3195292
},
{
  "type": "node",
  "id": 1717670696,
  "lat": 60.3867905,
  "lon": 5.3194870
},
{
  "type": "node",
  "id": 1717670697,
  "lat": 60.3868212,
  "lon": 5.3185005
},
{
  "type": "node",
  "id": 1717670700,
  "lat": 60.3868600,
  "lon": 5.3195343
},
{
  "type": "node",
  "id": 1717670721,
  "lat": 60.3869256,
  "lon": 5.3193064
},
{
  "type": "node",
  "id": 1717670724,
  "lat": 60.3869660,
  "lon": 5.3193491
},
{
  "type": "node",
  "id": 1717670726,
  "lat": 60.3869701,
  "lon": 5.3191478
},
{
  "type": "node",
  "id": 1717670730,
  "lat": 60.3869872,
  "lon": 5.3192710
},
{
  "type": "node",
  "id": 1717670732,
  "lat": 60.3870085,
  "lon": 5.3190095
},
{
  "type": "node",
  "id": 1717670733,
  "lat": 60.3870089,
  "lon": 5.3191926
},
{
  "type": "node",
  "id": 1717670735,
  "lat": 60.3872798,
  "lon": 5.3193275
},
{
  "type": "node",
  "id": 1717670736,
  "lat": 60.3873418,
  "lon": 5.3191107
},
{
  "type": "node",
  "id": 1717737301,
  "lat": 60.3875082,
  "lon": 5.3214672
},
{
  "type": "node",
  "id": 1717737306,
  "lat": 60.3875448,
  "lon": 5.3213320
},
{
  "type": "node",
  "id": 1717737309,
  "lat": 60.3875776,
  "lon": 5.3212907
},
{
  "type": "node",
  "id": 1717737313,
  "lat": 60.3876153,
  "lon": 5.3212739
},
{
  "type": "node",
  "id": 1717737315,
  "lat": 60.3876536,
  "lon": 5.3212837
},
{
  "type": "node",
  "id": 1759654871,
  "lat": 60.3866930,
  "lon": 5.3203140
},
{
  "type": "node",
  "id": 1759654872,
  "lat": 60.3867252,
  "lon": 5.3201691
},
{
  "type": "node",
  "id": 1759654873,
  "lat": 60.3867488,
  "lon": 5.3200178
},
{
  "type": "node",
  "id": 1759654874,
  "lat": 60.3867643,
  "lon": 5.3198509
},
{
  "type": "node",
  "id": 1759654875,
  "lat": 60.3867612,
  "lon": 5.3196665
},
{
  "type": "node",
  "id": 1759654877,
  "lat": 60.3868491,
  "lon": 5.3202595
},
{
  "type": "node",
  "id": 1759654878,
  "lat": 60.3868735,
  "lon": 5.3201296
},
{
  "type": "node",
  "id": 1759654879,
  "lat": 60.3868923,
  "lon": 5.3199792
},
{
  "type": "node",
  "id": 1759654880,
  "lat": 60.3869010,
  "lon": 5.3198153
},
{
  "type": "node",
  "id": 1759654881,
  "lat": 60.3869048,
  "lon": 5.3195408
},
{
  "type": "node",
  "id": 1759654882,
  "lat": 60.3869605,
  "lon": 5.3208016
},
{
  "type": "node",
  "id": 1759654883,
  "lat": 60.3870432,
  "lon": 5.3205935
},
{
  "type": "node",
  "id": 2051134404,
  "lat": 60.3869019,
  "lon": 5.3197493
},
{
  "type": "node",
  "id": 2051134405,
  "lat": 60.3869890,
  "lon": 5.3207328
},
{
  "type": "node",
  "id": 3930803588,
  "lat": 60.3867642,
  "lon": 5.3195284
},
{
  "type": "node",
  "id": 4181285222,
  "lat": 60.3868979,
  "lon": 5.3203435
},
{
  "type": "node",
  "id": 4182749819,
  "lat": 60.3877467,
  "lon": 5.3210357
},
{
  "type": "node",
  "id": 4183884538,
  "lat": 60.3869161,
  "lon": 5.3193374
},
{
  "type": "node",
  "id": 4183884541,
  "lat": 60.3869926,
  "lon": 5.3190649
},
{
  "type": "node",
  "id": 4183884573,
  "lat": 60.3866240,
  "lon": 5.3192918
},
{
  "type": "node",
  "id": 4189330433,
  "lat": 60.3868061,
  "lon": 5.3205202
},
{
  "type": "node",
  "id": 4845722811,
  "lat": 60.3868521,
  "lon": 5.3187345
},
{
  "type": "node",
  "id": 4845722812,
  "lat": 60.3867360,
  "lon": 5.3191347
},
{
  "type": "node",
  "id": 4845722813,
  "lat": 60.3868481,
  "lon": 5.3192679
},
{
  "type": "node",
  "id": 4845722814,
  "lat": 60.3869642,
  "lon": 5.3188677
},
{
  "type": "node",
  "id": 5154859425,
  "lat": 60.3869082,
  "lon": 5.3188011
},
{
  "type": "node",
  "id": 5154859427,
  "lat": 60.3868870,
  "lon": 5.3191339
},
{
  "type": "node",
  "id": 5154859428,
  "lat": 60.3867763,
  "lon": 5.3189958
},
{
  "type": "node",
  "id": 5154859429,
  "lat": 60.3869292,
  "lon": 5.3189882
},
{
  "type": "node",
  "id": 5154859430,
  "lat": 60.3868182,
  "lon": 5.3188512
},
{
  "type": "node",
  "id": 5469451937,
  "lat": 60.3872658,
  "lon": 5.3190216
},
{
  "type": "node",
  "id": 6765861197,
  "lat": 60.3869029,
  "lon": 5.3196774
},
{
  "type": "node",
  "id": 6765861198,
  "lat": 60.3867570,
  "lon": 5.3197975
},
{
  "type": "node",
  "id": 6765861199,
  "lat": 60.3867671,
  "lon": 5.3197982
},
{
  "type": "node",
  "id": 332251675,
  "lat": 60.3810461,
  "lon": 5.3283900
},
{
  "type": "node",
  "id": 332251676,
  "lat": 60.3808776,
  "lon": 5.3289591
},
{
  "type": "node",
  "id": 332251677,
  "lat": 60.3815759,
  "lon": 5.3298061
},
{
  "type": "node",
  "id": 2052104653,
  "lat": 60.3815989,
  "lon": 5.3297280
},
{
  "type": "node",
  "id": 4086516311,
  "lat": 60.3811006,
  "lon": 5.3284563
},
{
  "type": "node",
  "id": 6130237968,
  "lat": 60.3812695,
  "lon": 5.3295583
},
{
  "type": "node",
  "id": 6130237969,
  "lat": 60.3811115,
  "lon": 5.3293667
},
{
  "type": "node",
  "id": 6130237970,
  "lat": 60.3811385,
  "lon": 5.3292756
},
{
  "type": "node",
  "id": 6130237971,
  "lat": 60.3812965,
  "lon": 5.3294672
},
{
  "type": "node",
  "id": 1717641790,
  "lat": 60.3873207,
  "lon": 5.3220939
},
{
  "type": "node",
  "id": 1717641791,
  "lat": 60.3873747,
  "lon": 5.3218940
},
{
  "type": "node",
  "id": 1717641792,
  "lat": 60.3874962,
  "lon": 5.3220285
},
{
  "type": "node",
  "id": 1717641808,
  "lat": 60.3875800,
  "lon": 5.3217186
},
{
  "type": "node",
  "id": 1717641811,
  "lat": 60.3876129,
  "lon": 5.3224176
},
{
  "type": "node",
  "id": 1717641812,
  "lat": 60.3876129,
  "lon": 5.3221578
},
{
  "type": "node",
  "id": 1717641817,
  "lat": 60.3876670,
  "lon": 5.3222177
},
{
  "type": "node",
  "id": 1717641822,
  "lat": 60.3877111,
  "lon": 5.3217984
},
{
  "type": "node",
  "id": 1717641824,
  "lat": 60.3877416,
  "lon": 5.3218325
},
{
  "type": "node",
  "id": 1717641828,
  "lat": 60.3877849,
  "lon": 5.3216739
},
{
  "type": "node",
  "id": 1717641838,
  "lat": 60.3878241,
  "lon": 5.3215303
},
{
  "type": "node",
  "id": 1717737303,
  "lat": 60.3875087,
  "lon": 5.3215454
},
{
  "type": "node",
  "id": 1717737305,
  "lat": 60.3875220,
  "lon": 5.3216187
},
{
  "type": "node",
  "id": 1717737307,
  "lat": 60.3875468,
  "lon": 5.3216788
},
{
  "type": "node",
  "id": 4182299304,
  "lat": 60.3874676,
  "lon": 5.3222567
},
{
  "type": "node",
  "id": 4182299315,
  "lat": 60.3875048,
  "lon": 5.3219969
},
{
  "type": "node",
  "id": 4182299342,
  "lat": 60.3875704,
  "lon": 5.3217543
},
{
  "type": "node",
  "id": 4185450170,
  "lat": 60.3873975,
  "lon": 5.3219192
},
{
  "type": "node",
  "id": 4185452594,
  "lat": 60.3876494,
  "lon": 5.3222818
},
{
  "type": "node",
  "id": 4185452596,
  "lat": 60.3876650,
  "lon": 5.3222261
},
{
  "type": "node",
  "id": 332251678,
  "lat": 60.3817444,
  "lon": 5.3292375
},
{
  "type": "node",
  "id": 2052104654,
  "lat": 60.3816169,
  "lon": 5.3297547
},
{
  "type": "node",
  "id": 2052104655,
  "lat": 60.3816356,
  "lon": 5.3298001
},
{
  "type": "node",
  "id": 2052104656,
  "lat": 60.3816649,
  "lon": 5.3298141
},
{
  "type": "node",
  "id": 2052104657,
  "lat": 60.3816876,
  "lon": 5.3298008
},
{
  "type": "node",
  "id": 2052104659,
  "lat": 60.3817110,
  "lon": 5.3297680
},
{
  "type": "node",
  "id": 2052104660,
  "lat": 60.3817218,
  "lon": 5.3297280
},
{
  "type": "node",
  "id": 2052104661,
  "lat": 60.3817524,
  "lon": 5.3297280
},
{
  "type": "node",
  "id": 2052104662,
  "lat": 60.3817824,
  "lon": 5.3292852
},
{
  "type": "node",
  "id": 2052104663,
  "lat": 60.3817914,
  "lon": 5.3296989
},
{
  "type": "node",
  "id": 2052104664,
  "lat": 60.3818058,
  "lon": 5.3293240
},
{
  "type": "node",
  "id": 2052104665,
  "lat": 60.3818225,
  "lon": 5.3296406
},
{
  "type": "node",
  "id": 2052104666,
  "lat": 60.3818273,
  "lon": 5.3293956
},
{
  "type": "node",
  "id": 2052104667,
  "lat": 60.3818399,
  "lon": 5.3294538
},
{
  "type": "node",
  "id": 2052104668,
  "lat": 60.3818417,
  "lon": 5.3295436
},
{
  "type": "node",
  "id": 4097718939,
  "lat": 60.3817319,
  "lon": 5.3297280
},
{
  "type": "node",
  "id": 287464530,
  "lat": 60.3991244,
  "lon": 5.3183906
},
{
  "type": "node",
  "id": 287464532,
  "lat": 60.3990747,
  "lon": 5.3185312
},
{
  "type": "node",
  "id": 287464536,
  "lat": 60.3995145,
  "lon": 5.3175275
},
{
  "type": "node",
  "id": 287464538,
  "lat": 60.3996077,
  "lon": 5.3177460
},
{
  "type": "node",
  "id": 287464539,
  "lat": 60.3998535,
  "lon": 5.3173164
},
{
  "type": "node",
  "id": 287464541,
  "lat": 60.3997603,
  "lon": 5.3170978
},
{
  "type": "node",
  "id": 1744165984,
  "lat": 60.3990533,
  "lon": 5.3181845
},
{
  "type": "node",
  "id": 3682527459,
  "lat": 60.3990976,
  "lon": 5.3184694
},
{
  "type": "node",
  "id": 3682527514,
  "lat": 60.3996150,
  "lon": 5.3177333
},
{
  "type": "node",
  "id": 3682527518,
  "lat": 60.3996651,
  "lon": 5.3176457
},
{
  "type": "node",
  "id": 3682527523,
  "lat": 60.3990789,
  "lon": 5.3182393
},
{
  "type": "node",
  "id": 3682528933,
  "lat": 60.3990138,
  "lon": 5.3181091
},
{
  "type": "node",
  "id": 3682528935,
  "lat": 60.3989363,
  "lon": 5.3183389
},
{
  "type": "node",
  "id": 3682528983,
  "lat": 60.3996936,
  "lon": 5.3212641
},
{
  "type": "node",
  "id": 3682528984,
  "lat": 60.3998888,
  "lon": 5.3214070
},
{
  "type": "node",
  "id": 3800536999,
  "lat": 60.3998850,
  "lon": 5.3214282
},
{
  "type": "node",
  "id": 4802321438,
  "lat": 60.3995604,
  "lon": 5.3176341
},
{
  "type": "node",
  "id": 4802321439,
  "lat": 60.3995217,
  "lon": 5.3175432
},
{
  "type": "node",
  "id": 4802321452,
  "lat": 60.3990884,
  "lon": 5.3184943
},
{
  "type": "node",
  "id": 6166485131,
  "lat": 60.3997936,
  "lon": 5.3213373
},
{
  "type": "node",
  "id": 1652908055,
  "lat": 60.3982102,
  "lon": 5.3227011
},
{
  "type": "node",
  "id": 2475286454,
  "lat": 60.3985360,
  "lon": 5.3237215
},
{
  "type": "node",
  "id": 3383342632,
  "lat": 60.3981628,
  "lon": 5.3226553
},
{
  "type": "node",
  "id": 3383342637,
  "lat": 60.3981910,
  "lon": 5.3225358
},
{
  "type": "node",
  "id": 3383342638,
  "lat": 60.3981942,
  "lon": 5.3227689
},
{
  "type": "node",
  "id": 3383342640,
  "lat": 60.3982085,
  "lon": 5.3225528
},
{
  "type": "node",
  "id": 3383342644,
  "lat": 60.3982248,
  "lon": 5.3238349
},
{
  "type": "node",
  "id": 3383342646,
  "lat": 60.3982270,
  "lon": 5.3224742
},
{
  "type": "node",
  "id": 3383342658,
  "lat": 60.3983496,
  "lon": 5.3229801
},
{
  "type": "node",
  "id": 3383342660,
  "lat": 60.3983622,
  "lon": 5.3240655
},
{
  "type": "node",
  "id": 3383342661,
  "lat": 60.3983613,
  "lon": 5.3229306
},
{
  "type": "node",
  "id": 3383342672,
  "lat": 60.3985001,
  "lon": 5.3231257
},
{
  "type": "node",
  "id": 3383342673,
  "lat": 60.3985267,
  "lon": 5.3230126
},
{
  "type": "node",
  "id": 3383342675,
  "lat": 60.3985617,
  "lon": 5.3230465
},
{
  "type": "node",
  "id": 3383342676,
  "lat": 60.3985702,
  "lon": 5.3229138
},
{
  "type": "node",
  "id": 3383342677,
  "lat": 60.3985888,
  "lon": 5.3229317
},
{
  "type": "node",
  "id": 3383342678,
  "lat": 60.3985909,
  "lon": 5.3228261
},
{
  "type": "node",
  "id": 3591356771,
  "lat": 60.3988044,
  "lon": 5.3237661
},
{
  "type": "node",
  "id": 3591356772,
  "lat": 60.3988329,
  "lon": 5.3232169
},
{
  "type": "node",
  "id": 3591356773,
  "lat": 60.3988508,
  "lon": 5.3230772
},
{
  "type": "node",
  "id": 3591356774,
  "lat": 60.3988454,
  "lon": 5.3232235
},
{
  "type": "node",
  "id": 3591356775,
  "lat": 60.3988998,
  "lon": 5.3238162
},
{
  "type": "node",
  "id": 3591356776,
  "lat": 60.3989802,
  "lon": 5.3234155
},
{
  "type": "node",
  "id": 3591356777,
  "lat": 60.3989956,
  "lon": 5.3232954
},
{
  "type": "node",
  "id": 3591356778,
  "lat": 60.3990232,
  "lon": 5.3231677
},
{
  "type": "node",
  "id": 3682528982,
  "lat": 60.3996421,
  "lon": 5.3215526
},
{
  "type": "node",
  "id": 3682528985,
  "lat": 60.3998373,
  "lon": 5.3216955
},
{
  "type": "node",
  "id": 3800536997,
  "lat": 60.3998401,
  "lon": 5.3216798
},
{
  "type": "node",
  "id": 4184049715,
  "lat": 60.3985316,
  "lon": 5.3227688
},
{
  "type": "node",
  "id": 4439437817,
  "lat": 60.3987887,
  "lon": 5.3236652
},
{
  "type": "node",
  "id": 4439437818,
  "lat": 60.3988111,
  "lon": 5.3234908
},
{
  "type": "node",
  "id": 4439437819,
  "lat": 60.3988155,
  "lon": 5.3236793
},
{
  "type": "node",
  "id": 4439437821,
  "lat": 60.3988415,
  "lon": 5.3232541
},
{
  "type": "node",
  "id": 4439437824,
  "lat": 60.3989060,
  "lon": 5.3231142
},
{
  "type": "node",
  "id": 4439437825,
  "lat": 60.3989070,
  "lon": 5.3231067
},
{
  "type": "node",
  "id": 4439437826,
  "lat": 60.3989323,
  "lon": 5.3235544
},
{
  "type": "node",
  "id": 4439437827,
  "lat": 60.3989363,
  "lon": 5.3231310
},
{
  "type": "node",
  "id": 4439437829,
  "lat": 60.3989605,
  "lon": 5.3235692
},
{
  "type": "node",
  "id": 4439437830,
  "lat": 60.3989649,
  "lon": 5.3231469
},
{
  "type": "node",
  "id": 4439437831,
  "lat": 60.3989661,
  "lon": 5.3231377
},
{
  "type": "node",
  "id": 4439437833,
  "lat": 60.3990061,
  "lon": 5.3233010
},
{
  "type": "node",
  "id": 4836682967,
  "lat": 60.3982005,
  "lon": 5.3225450
},
{
  "type": "node",
  "id": 5264497096,
  "lat": 60.3988707,
  "lon": 5.3238009
},
{
  "type": "node",
  "id": 5387266956,
  "lat": 60.3989094,
  "lon": 5.3237414
},
{
  "type": "node",
  "id": 5387266957,
  "lat": 60.3989120,
  "lon": 5.3237427
},
{
  "type": "node",
  "id": 5387266958,
  "lat": 60.3989106,
  "lon": 5.3237236
},
{
  "type": "node",
  "id": 5387266960,
  "lat": 60.3989142,
  "lon": 5.3237255
},
{
  "type": "node",
  "id": 5387266961,
  "lat": 60.3990043,
  "lon": 5.3232661
},
{
  "type": "node",
  "id": 5387266962,
  "lat": 60.3990126,
  "lon": 5.3232016
},
{
  "type": "node",
  "id": 5387266963,
  "lat": 60.3990102,
  "lon": 5.3232692
},
{
  "type": "node",
  "id": 5387266964,
  "lat": 60.3990185,
  "lon": 5.3232047
},
{
  "type": "node",
  "id": 5387266965,
  "lat": 60.3990050,
  "lon": 5.3231667
},
{
  "type": "node",
  "id": 5387266966,
  "lat": 60.3989811,
  "lon": 5.3231542
},
{
  "type": "node",
  "id": 5387266967,
  "lat": 60.3989822,
  "lon": 5.3231461
},
{
  "type": "node",
  "id": 5387266968,
  "lat": 60.3990060,
  "lon": 5.3231587
},
{
  "type": "node",
  "id": 5387266969,
  "lat": 60.3988917,
  "lon": 5.3231086
},
{
  "type": "node",
  "id": 5387266970,
  "lat": 60.3988677,
  "lon": 5.3230960
},
{
  "type": "node",
  "id": 5387266971,
  "lat": 60.3988929,
  "lon": 5.3230993
},
{
  "type": "node",
  "id": 5387266972,
  "lat": 60.3988689,
  "lon": 5.3230867
},
{
  "type": "node",
  "id": 5387266973,
  "lat": 60.3988519,
  "lon": 5.3231128
},
{
  "type": "node",
  "id": 5387266974,
  "lat": 60.3988433,
  "lon": 5.3231803
},
{
  "type": "node",
  "id": 5387266975,
  "lat": 60.3988379,
  "lon": 5.3231775
},
{
  "type": "node",
  "id": 5387266976,
  "lat": 60.3988466,
  "lon": 5.3231100
},
{
  "type": "node",
  "id": 6046428932,
  "lat": 60.3985813,
  "lon": 5.3233454
},
{
  "type": "node",
  "id": 6046428934,
  "lat": 60.3984124,
  "lon": 5.3231938
},
{
  "type": "node",
  "id": 6046432142,
  "lat": 60.3982051,
  "lon": 5.3238054
},
{
  "type": "node",
  "id": 6046432144,
  "lat": 60.3984008,
  "lon": 5.3241648
},
{
  "type": "node",
  "id": 6046432146,
  "lat": 60.3984939,
  "lon": 5.3239435
},
{
  "type": "node",
  "id": 6046432151,
  "lat": 60.3983286,
  "lon": 5.3234553
},
{
  "type": "node",
  "id": 6046432159,
  "lat": 60.3985532,
  "lon": 5.3235961
},
{
  "type": "node",
  "id": 6046432166,
  "lat": 60.3984575,
  "lon": 5.3240468
},
{
  "type": "node",
  "id": 6046432258,
  "lat": 60.3985171,
  "lon": 5.3238449
},
{
  "type": "node",
  "id": 6046432264,
  "lat": 60.3985213,
  "lon": 5.3238213
},
{
  "type": "node",
  "id": 6755477127,
  "lat": 60.3985074,
  "lon": 5.3238860
},
{
  "type": "node",
  "id": 6755477128,
  "lat": 60.3985220,
  "lon": 5.3238168
},
{
  "type": "node",
  "id": 6757772831,
  "lat": 60.3987991,
  "lon": 5.3236707
},
{
  "type": "node",
  "id": 6046431137,
  "lat": 60.3394563,
  "lon": 5.3533004
},
{
  "type": "node",
  "id": 6046431139,
  "lat": 60.3394465,
  "lon": 5.3533445
},
{
  "type": "node",
  "id": 6046431140,
  "lat": 60.3394332,
  "lon": 5.3533988
},
{
  "type": "node",
  "id": 6046431141,
  "lat": 60.3394180,
  "lon": 5.3534485
},
{
  "type": "node",
  "id": 6046431142,
  "lat": 60.3393838,
  "lon": 5.3534974
},
{
  "type": "node",
  "id": 6046431143,
  "lat": 60.3393549,
  "lon": 5.3535122
},
{
  "type": "node",
  "id": 6046431144,
  "lat": 60.3393237,
  "lon": 5.3535095
},
{
  "type": "node",
  "id": 6046431145,
  "lat": 60.3392829,
  "lon": 5.3534713
},
{
  "type": "node",
  "id": 6046431146,
  "lat": 60.3392786,
  "lon": 5.3534760
},
{
  "type": "node",
  "id": 6046431147,
  "lat": 60.3392657,
  "lon": 5.3534733
},
{
  "type": "node",
  "id": 6046431148,
  "lat": 60.3392544,
  "lon": 5.3534652
},
{
  "type": "node",
  "id": 6046431149,
  "lat": 60.3392451,
  "lon": 5.3534552
},
{
  "type": "node",
  "id": 6046431150,
  "lat": 60.3392358,
  "lon": 5.3534243
},
{
  "type": "node",
  "id": 6046431151,
  "lat": 60.3392039,
  "lon": 5.3533888
},
{
  "type": "node",
  "id": 6046431152,
  "lat": 60.3392862,
  "lon": 5.3530186
},
{
  "type": "node",
  "id": 6046431153,
  "lat": 60.3394628,
  "lon": 5.3532708
},
{
  "type": "way",
  "id": 642193191,
  "nodes": [
    6046431910,
    6046431888,
    6046431889,
    6046431907,
    6046431913,
    6046431916
  ]
},
{
  "type": "way",
  "id": 642193192,
  "nodes": [
    6046431892,
    386180491,
    6046431891,
    6046431890,
    6046431916
  ]
},
{
  "type": "way",
  "id": 642193190,
  "nodes": [
    6046431892,
    6046431887,
    6046431904
  ]
},
{
  "type": "way",
  "id": 642193193,
  "nodes": [
    6046431904,
    6046431896,
    6046431895,
    6046431894,
    6046431893,
    6046431910
  ]
},
{
  "type": "way",
  "id": 159646135,
  "nodes": [
    1717641819,
    1717737315,
    1717737313,
    1717737309,
    1717737306,
    1717641801,
    1717737301,
    1717737303,
    1717737305,
    1717737307,
    1717641808
  ]
},
{
  "type": "way",
  "id": 417611069,
  "nodes": [
    1717641822,
    1717641824,
    1717641828,
    1717641838,
    1717641832
  ]
},
{
  "type": "way",
  "id": 159650596,
  "nodes": [
    1717670721,
    4183884538,
    1717670700,
    1717670694,
    1717670696,
    4183884573,
    1717670689,
    1717670692,
    1717670697,
    5469451937,
    1717670736,
    1717670735,
    1717670732,
    4183884541,
    1717670726,
    1717670733,
    1717670730,
    1717670724,
    1717670721
  ]
},
{
  "type": "way",
  "id": 164326712,
  "nodes": [
    2051134404,
    6765861197
  ]
},
{
  "type": "way",
  "id": 417611105,
  "nodes": [
    2051134405,
    1759654883,
    4181285222,
    1759654877,
    1759654878,
    1759654879,
    1759654880,
    2051134404
  ]
},
{
  "type": "way",
  "id": 417792003,
  "nodes": [
    1717641826,
    1717641819
  ]
},
{
  "type": "way",
  "id": 417792006,
  "nodes": [
    1717641832,
    1717641839
  ]
},
{
  "type": "way",
  "id": 417792008,
  "nodes": [
    1717641839,
    1717641840,
    1717641841
  ]
},
{
  "type": "way",
  "id": 417792013,
  "nodes": [
    1717641841,
    1717641820,
    1717641815,
    4182749819,
    1717641826
  ]
},
{
  "type": "way",
  "id": 492577848,
  "nodes": [
    4845722814,
    5154859429,
    5154859427,
    4845722813,
    4845722812,
    5154859428,
    5154859430,
    4845722811,
    5154859425,
    4845722814
  ]
},
{
  "type": "way",
  "id": 721112996,
  "nodes": [
    6765861197,
    1759654881,
    1717670700,
    1717670694,
    3930803588,
    1759654875,
    6765861198,
    6765861199,
    1759654874,
    1759654873,
    1759654872,
    1759654871,
    4189330433,
    1759654882,
    2051134405
  ]
},
{
  "type": "way",
  "id": 417740542,
  "nodes": [
    1717641790,
    4182299304,
    1717641811,
    4185452594
  ]
},
{
  "type": "way",
  "id": 417791998,
  "nodes": [
    1717641817,
    1717641812
  ]
},
{
  "type": "way",
  "id": 417792000,
  "nodes": [
    1717641812,
    1717641822
  ]
},
{
  "type": "way",
  "id": 417792007,
  "nodes": [
    1717641792,
    4185450170,
    1717641791,
    1717641790
  ]
},
{
  "type": "way",
  "id": 417792012,
  "nodes": [
    1717641808,
    4182299342,
    4182299315,
    1717641792
  ]
},
{
  "type": "way",
  "id": 419311417,
  "nodes": [
    4185452594,
    4185452596,
    1717641817
  ]
},
{
  "type": "way",
  "id": 364189559,
  "nodes": [
    3800536999,
    3682528984,
    6166485131,
    3682528983,
    3682528982,
    3682528985
  ]
},
{
  "type": "way",
  "id": 487618612,
  "nodes": [
    3800536997,
    3800536999
  ]
},
{
  "type": "way",
  "id": 26249099,
  "nodes": [
    1744165984,
    3682527523,
    287464530,
    3682527459
  ]
},
{
  "type": "way",
  "id": 26249100,
  "nodes": [
    3682527518,
    287464539,
    287464541,
    287464536
  ]
},
{
  "type": "way",
  "id": 487618640,
  "nodes": [
    3682527459,
    4802321452,
    287464532,
    3682528935,
    3682528933
  ]
},
{
  "type": "way",
  "id": 487618644,
  "nodes": [
    287464536,
    4802321439
  ]
},
{
  "type": "way",
  "id": 487618658,
  "nodes": [
    3682527514,
    3682527518
  ]
},
{
  "type": "way",
  "id": 487618662,
  "nodes": [
    3682528933,
    1744165984
  ]
},
{
  "type": "way",
  "id": 487821162,
  "nodes": [
    4802321439,
    4802321438
  ]
},
{
  "type": "way",
  "id": 487821164,
  "nodes": [
    4802321438,
    287464538,
    3682527514
  ]
},
{
  "type": "way",
  "id": 353357937,
  "nodes": [
    3591356777,
    3591356776,
    4439437829,
    4439437826
  ]
},
{
  "type": "way",
  "id": 446708435,
  "nodes": [
    4439437819,
    6757772831,
    4439437817,
    4439437818
  ]
},
{
  "type": "way",
  "id": 446708437,
  "nodes": [
    4439437824,
    4439437827,
    4439437830
  ]
},
{
  "type": "way",
  "id": 446708439,
  "nodes": [
    4439437818,
    4439437821,
    3591356774
  ]
},
{
  "type": "way",
  "id": 446708440,
  "nodes": [
    4439437826,
    5387266958,
    5387266960,
    5387266957,
    5387266956,
    3591356775,
    5264497096,
    3591356771,
    4439437819
  ]
},
{
  "type": "way",
  "id": 446708441,
  "nodes": [
    4439437830,
    4439437831,
    5387266967,
    5387266966,
    5387266965,
    5387266968,
    3591356778,
    5387266964,
    5387266962,
    5387266961,
    5387266963,
    4439437833,
    3591356777
  ]
},
{
  "type": "way",
  "id": 446708442,
  "nodes": [
    3591356774,
    3591356772,
    5387266975,
    5387266974,
    5387266973,
    5387266976,
    3591356773,
    5387266972,
    5387266970,
    5387266969,
    5387266971,
    4439437825,
    4439437824
  ]
},
{
  "type": "way",
  "id": 488104896,
  "nodes": [
    3682528985,
    3800536997
  ]
},
{
  "type": "way",
  "id": 642193235,
  "nodes": [
    3383342660,
    6046432144,
    6046432166,
    6046432146,
    6755477127
  ]
},
{
  "type": "way",
  "id": 642193244,
  "nodes": [
    6046428934,
    6046432151,
    6046432142,
    3383342644
  ]
},
{
  "type": "way",
  "id": 642193245,
  "nodes": [
    3383342660,
    3383342644
  ]
},
{
  "type": "way",
  "id": 642193246,
  "nodes": [
    6046428932,
    6046428934
  ]
},
{
  "type": "way",
  "id": 719637465,
  "nodes": [
    6755477127,
    6046432258,
    6046432264,
    6755477128
  ]
},
{
  "type": "way",
  "id": 719637466,
  "nodes": [
    6755477128,
    2475286454,
    6046432159,
    6046428932
  ]
},
{
  "type": "way",
  "id": 642193199,
  "nodes": [
    6046431153,
    6046431152,
    6046431151,
    6046431150,
    6046431149,
    6046431148,
    6046431147,
    6046431146,
    6046431145,
    6046431144,
    6046431143,
    6046431142,
    6046431141,
    6046431140,
    6046431139,
    6046431137,
    6046431153
  ]
}

  ]
}
