{
  "version": 0.6,
  "generator": "Overpass API 0.7.55.1011 6c2efc30",
  "osm3s": {
    "timestamp_osm_base": "2020-02-14T15:51:02Z",
    "copyright": "The data included in this document is from www.openstreetmap.org. The data is made available under ODbL."
  },
  "elements": [

{
  "type": "node",
  "id": 259949328,
  "lat": 48.3132523,
  "lon": 18.0881342,
  "tags": {
    "is_in": "Nitra",
    "name": "Ponitrianske múzeum",
    "tourism": "museum",
    "wheelchair": "no",
    "wikidata": "Q22670201",
    "wikipedia": "sk:Ponitrianske múzeum"
  }
},
{
  "type": "node",
  "id": 527474302,
  "lat": 48.5546944,
  "lon": 17.9705363,
  "tags": {
    "name": "Múzeum",
    "tourism": "museum"
  }
},
{
  "type": "node",
  "id": 537094109,
  "lat": 48.5755372,
  "lon": 18.0565738,
  "tags": {
    "name": "Archeologické múzeum Veľkej Moravy",
    "tourism": "museum"
  }
},
{
  "type": "node",
  "id": 601112348,
  "lat": 48.4300205,
  "lon": 17.8048064,
  "tags": {
    "name": "Vlastivedné múzeum",
    "tourism": "museum"
  }
},
{
  "type": "node",
  "id": 1426866970,
  "lat": 48.4194730,
  "lon": 17.7968378,
  "tags": {
    "name": "Hvezdáreň a planetárium v Hlohovci",
    "tourism": "museum"
  }
},
{
  "type": "node",
  "id": 1737160274,
  "lat": 48.3022400,
  "lon": 18.1147680,
  "tags": {
    "addr:city": "Nitra",
    "addr:country": "SK",
    "addr:housenumber": "94",
    "addr:street": "Dlhá",
    "addr:streetnumber": "94",
    "is_in": "Nitra",
    "name": "Slovenské poľnohospodárske múzeum",
    "opening_hours": "Mo-Th 09:00-17:00; Fr 09:00-15:00",
    "tourism": "museum",
    "website": "http://spmnitra.sk/",
    "wikidata": "Q22583428"
  }
},
{
  "type": "node",
  "id": 1826040502,
  "lat": 48.3825217,
  "lon": 18.3964940,
  "tags": {
    "name": "Mestské múzeum Zlaté Moravce",
    "opening_hours": "Mo 09:00-15:00; Tu-Fr 09:00-11:30,12:00-17:00; Sa,Su 13:00-17:00 \"na objednávku/on appointment\"",
    "tourism": "museum",
    "website": "http://www.muzeumnitra.sk/mestske_muzeum_v_zlatych_moravciach.html"
  }
},
{
  "type": "node",
  "id": 1992812025,
  "lat": 48.2864995,
  "lon": 17.7379942,
  "tags": {
    "name": "Mestské múzeum",
    "tourism": "museum"
  }
},
{
  "type": "node",
  "id": 2249124773,
  "lat": 48.3686263,
  "lon": 17.8987782,
  "tags": {
    "name": "Múzeum Rišňovce, M. I. Kutuzova",
    "tourism": "museum"
  }
},
{
  "type": "node",
  "id": 3048129532,
  "lat": 48.2480851,
  "lon": 18.5289576,
  "tags": {
    "name": "Vojenská technika 2.sv.vojny",
    "tourism": "museum"
  }
},
{
  "type": "node",
  "id": 3062844883,
  "lat": 48.2433997,
  "lon": 17.6943242,
  "tags": {
    "name": "Múzeum",
    "tourism": "museum"
  }
},
{
  "type": "node",
  "id": 3591468571,
  "lat": 48.2390439,
  "lon": 18.1191350,
  "tags": {
    "name": "Štátny archív",
    "tourism": "museum"
  }
},
{
  "type": "node",
  "id": 4082449403,
  "lat": 48.3753786,
  "lon": 18.2299983,
  "tags": {
    "name": "Múzeum rodu Forgách",
    "tourism": "museum"
  }
},
{
  "type": "node",
  "id": 4960666694,
  "lat": 48.4186971,
  "lon": 18.4122571,
  "tags": {
    "name": "Národopisné múzeum Topoľčianky",
    "opening_hours": "\"dohodou/on appointment\"",
    "tourism": "museum"
  }
},
{
  "type": "node",
  "id": 5058265191,
  "lat": 48.3745633,
  "lon": 18.2253591,
  "tags": {
    "email": "v.libant@gmail.com",
    "name": "Tribečské múzeum minerálov",
    "phone": "+421 948 099 555",
    "tourism": "museum",
    "website": "http://www.mineralium.sk/"
  }
},
{
  "type": "way",
  "id": 34446671,
  "nodes": [
    396561604,
    767714031,
    767694574,
    767677501,
    7020953165,
    396561467,
    396561641,
    396561604
  ],
  "tags": {
    "addr:city": "Šaľa",
    "addr:housenumber": "4",
    "addr:street": "Štúrova",
    "addr:streetnumber": "4",
    "name": "Dom ľudového bývania",
    "opening_hours": "Tu-Sa 09:00-12:00,12:30-17:00",
    "tourism": "museum",
    "website": "http://www.domludovehobyvania.sk/"
  }
},
{
  "type": "way",
  "id": 58798020,
  "nodes": [
    728675102,
    728673690,
    728672815,
    728671968,
    728675102
  ],
  "tags": {
    "addr:city": "Kalná nad Hronom",
    "addr:conscriptionnumber": "324",
    "addr:country": "SK",
    "addr:housenumber": "324",
    "addr:place": "Kalná nad Hronom",
    "building": "yes",
    "import": "budovy201004",
    "name": "Dom bojovej slávy",
    "opening_hours": "Tu-Su 14:00-18:00",
    "source": "kapor2",
    "source:conscriptionnumber": "kapor2",
    "tourism": "museum"
  }
},
{
  "type": "way",
  "id": 59156167,
  "nodes": [
    733595757,
    733604242,
    733619205,
    733626044,
    733602577,
    733610003,
    733617666,
    733624382,
    733631099,
    733598385,
    733595757
  ],
  "tags": {
    "addr:city": "Galanta",
    "addr:conscriptionnumber": "750",
    "addr:country": "SK",
    "addr:housenumber": "750/16",
    "addr:street": "Školská",
    "addr:streetnumber": "16",
    "building": "yes",
    "import": "budovy201004",
    "name": "Múzeum historických vozidiel",
    "operator": "Veteran car club Galanta",
    "source": "kapor2",
    "tourism": "museum"
  }
},
{
  "type": "way",
  "id": 59156497,
  "nodes": [
    733621358,
    733628270,
    733614579,
    733621742,
    733628622,
    733635532,
    733595109,
    733603123,
    733610071,
    733618208,
    733638400,
    733621358
  ],
  "tags": {
    "addr:city": "Galanta",
    "addr:conscriptionnumber": "976",
    "addr:country": "SK",
    "addr:housenumber": "976/8",
    "addr:street": "Hlavná",
    "addr:streetnumber": "8",
    "building": "yes",
    "import": "budovy201004",
    "name": "Vlastivedné múzeum Galanta",
    "opening_hours": "Mo-Fr 09:00-17:00; Sa 13:00-17:00",
    "short_name": "VMGA",
    "source": "kapor2",
    "tourism": "museum",
    "url": "http://www.muzeum.sk/?obj=muzeum&ix=vmga"
  }
},
{
  "type": "way",
  "id": 59157067,
  "nodes": [
    733618499,
    733625204,
    733631830,
    733618922,
    733625755,
    733632521,
    733637776,
    733599933,
    733607334,
    733615016,
    733622023,
    733607805,
    5131823384,
    733618499
  ],
  "tags": {
    "addr:city": "Galanta",
    "addr:conscriptionnumber": "1578",
    "addr:country": "SK",
    "addr:housenumber": "1578/9",
    "addr:street": "Esterházyovcov",
    "addr:streetnumber": "9",
    "building": "yes",
    "building:levels": "2",
    "castle_type": "manor",
    "charge": "1EUR",
    "fee": "yes",
    "historic": "castle",
    "import": "budovy201004",
    "name": "Renesančný kaštieľ",
    "opening_hours": "Tu-Fr 09:00-17:00; Sa 14:00-18:00",
    "operator": "Mestské kultúrne stredisko v Galante",
    "roof:levels": "1",
    "roof:shape": "mansard",
    "source": "kapor2",
    "tourism": "museum"
  }
},
{
  "type": "way",
  "id": 61125676,
  "nodes": [
    764651452,
    764653309,
    764646476,
    764685552,
    764679860,
    764670021,
    764672095,
    764661274,
    764655885,
    764650074,
    764642933,
    764683054,
    764676559,
    764669839,
    764658532,
    764651452
  ],
  "tags": {
    "addr:city": "Topoľčany",
    "addr:country": "SK",
    "addr:housenumber": "291",
    "addr:postcode": "95501",
    "addr:street": "Krušovská",
    "addr:streetnumber": "291",
    "building": "yes",
    "building:levels": "2",
    "contact:email": "office@tribecskemuzeum.sk",
    "import": "budovy201004",
    "name": "Tribečské múzeum v Topoľčanoch",
    "source": "kapor2",
    "tourism": "museum"
  }
},
{
  "type": "way",
  "id": 64755495,
  "nodes": [
    794440284,
    794447718,
    794443420,
    794457551,
    794452033,
    794461226,
    794454423,
    794438337,
    794473275,
    794440492,
    794434233,
    794450139,
    794440284
  ],
  "tags": {
    "amenity": "place_of_worship",
    "building": "synagogue",
    "import": "budovy201004",
    "name": "Mestské Múzeum Šurany - Synagóga",
    "opening_hours": "Mo 09:00-12:00; We 09:00-16:00; Fr 09:00-17:00",
    "operator": "Mestské múzeum Šurany",
    "religion": "jewish",
    "source": "kapor2",
    "tourism": "museum",
    "wikidata": "Q21695481",
    "wikipedia": "de:Synagoge (Šurany)"
  }
},
{
  "type": "way",
  "id": 105623148,
  "nodes": [
    1216331480,
    1216331305,
    1216331429,
    1216331336,
    1216331554,
    1216331407,
    1216331843,
    1216331386,
    1216331799,
    1216331794,
    1216331878,
    1216331451,
    1216331882,
    1216331834,
    1216331480
  ],
  "tags": {
    "building": "yes",
    "is_in": "Nitra",
    "name": "Diecézne múzeum",
    "name:cs": "Diecézní muzeum",
    "name:en": "The Museum of Nitra Diocese",
    "source": "kapor2",
    "tourism": "museum",
    "wikidata": "Q22670199",
    "wikipedia": "sk:Diecézne múzeum v Nitre"
  }
},
{
  "type": "way",
  "id": 170869177,
  "nodes": [
    1820086044,
    1820085842,
    1820086137,
    1820086113,
    1820085940,
    1820086086,
    1820086077,
    1820086422,
    1820085705,
    1820086061,
    1820086035,
    1820086096,
    1820086240,
    1820086339,
    1820086044
  ],
  "tags": {
    "addr:city": "Topoľčianky",
    "addr:housenumber": "68",
    "addr:street": "Hlavná",
    "addr:streetnumber": "68",
    "building": "yes",
    "name": "Hipologické múzeum národného žrebčína",
    "opening_hours": "Mo-Fr 08:00-16:00",
    "tourism": "museum",
    "url": "http://www.muzeum.sk/?obj=muzeum&ix=hipom"
  }
},
{
  "type": "way",
  "id": 251688487,
  "nodes": [
    2578711346,
    2578711340,
    6324731281,
    2578711319,
    2578711316,
    6324731280,
    6324731279,
    6324731278,
    6324731277,
    6324731276,
    6324731275,
    6324731274,
    6324731273,
    2578711289,
    2578711291,
    2578711302,
    2578711310,
    2578711322,
    2578711327,
    2578711329,
    2578711330,
    2578711346
  ],
  "tags": {
    "addr:city": "Oponice",
    "addr:conscriptionnumber": "133",
    "addr:country": "SK",
    "addr:housenumber": "133",
    "addr:place": "Oponice",
    "building": "yes",
    "name": "Apponyiho poľovnícke múzeum",
    "source": "kapor2",
    "source:conscriptionnumber": "kapor2",
    "tourism": "museum",
    "website": "https://apponyihomuzeum.webnode.sk/"
  }
},
{
  "type": "way",
  "id": 600285224,
  "nodes": [
    5708491517,
    7093611805,
    5708491518,
    6452391399,
    6452391403,
    6815712728,
    6815712731,
    6452391426,
    6452391425,
    5708491520,
    5708491517
  ],
  "tags": {
    "addr:city": "Sereď",
    "addr:conscriptionnumber": "1005",
    "addr:housenumber": "1005/54",
    "addr:street": "Kasárenská",
    "addr:streetnumber": "54",
    "charge": "5 EUR",
    "fee": "yes",
    "name": "Múzeum holokaustu",
    "name:en": "Holocaust Museum",
    "opening_hours": "Sep-Jun Mo-Th 08:00-15:00; Sep-Jun Su 09:00-16:00; Jul-Aug Mo-Th 09:00-16:00; Jul-Aug Su 09:00-16:00",
    "operator": "Slovenské národné múzeum",
    "tourism": "museum",
    "website": "https://www.muzeum.sk/muzeum-holokaustu-v-seredi-snm.html"
  }
},
{
  "type": "node",
  "id": 733595109,
  "lat": 48.1909898,
  "lon": 17.7317111
},
{
  "type": "node",
  "id": 733603123,
  "lat": 48.1912038,
  "lon": 17.7315097
},
{
  "type": "node",
  "id": 733610071,
  "lat": 48.1912978,
  "lon": 17.7314257
},
{
  "type": "node",
  "id": 733614579,
  "lat": 48.1912494,
  "lon": 17.7315911
},
{
  "type": "node",
  "id": 733618208,
  "lat": 48.1913849,
  "lon": 17.7316280
},
{
  "type": "node",
  "id": 733621358,
  "lat": 48.1910499,
  "lon": 17.7318504
},
{
  "type": "node",
  "id": 733621742,
  "lat": 48.1912283,
  "lon": 17.7316118
},
{
  "type": "node",
  "id": 733628270,
  "lat": 48.1912692,
  "lon": 17.7316340
},
{
  "type": "node",
  "id": 733628622,
  "lat": 48.1912244,
  "lon": 17.7316049
},
{
  "type": "node",
  "id": 733635532,
  "lat": 48.1910257,
  "lon": 17.7317965
},
{
  "type": "node",
  "id": 733638400,
  "lat": 48.1910852,
  "lon": 17.7319292
},
{
  "type": "node",
  "id": 733599933,
  "lat": 48.1952163,
  "lon": 17.7330694
},
{
  "type": "node",
  "id": 733607334,
  "lat": 48.1952239,
  "lon": 17.7330633
},
{
  "type": "node",
  "id": 733607805,
  "lat": 48.1952876,
  "lon": 17.7332528
},
{
  "type": "node",
  "id": 733615016,
  "lat": 48.1952320,
  "lon": 17.7330857
},
{
  "type": "node",
  "id": 733618499,
  "lat": 48.1950674,
  "lon": 17.7334516
},
{
  "type": "node",
  "id": 733618922,
  "lat": 48.1950201,
  "lon": 17.7331811
},
{
  "type": "node",
  "id": 733622023,
  "lat": 48.1952246,
  "lon": 17.7330910
},
{
  "type": "node",
  "id": 733625204,
  "lat": 48.1949939,
  "lon": 17.7332507
},
{
  "type": "node",
  "id": 733625755,
  "lat": 48.1950320,
  "lon": 17.7331711
},
{
  "type": "node",
  "id": 733631830,
  "lat": 48.1950335,
  "lon": 17.7332148
},
{
  "type": "node",
  "id": 733632521,
  "lat": 48.1950453,
  "lon": 17.7332046
},
{
  "type": "node",
  "id": 733637776,
  "lat": 48.1952110,
  "lon": 17.7330558
},
{
  "type": "node",
  "id": 5131823384,
  "lat": 48.1951822,
  "lon": 17.7333480
},
{
  "type": "node",
  "id": 733595757,
  "lat": 48.1921244,
  "lon": 17.7386838
},
{
  "type": "node",
  "id": 733598385,
  "lat": 48.1921234,
  "lon": 17.7386866
},
{
  "type": "node",
  "id": 733602577,
  "lat": 48.1923979,
  "lon": 17.7389076
},
{
  "type": "node",
  "id": 733604242,
  "lat": 48.1921849,
  "lon": 17.7386044
},
{
  "type": "node",
  "id": 733610003,
  "lat": 48.1923844,
  "lon": 17.7389263
},
{
  "type": "node",
  "id": 733617666,
  "lat": 48.1924660,
  "lon": 17.7390577
},
{
  "type": "node",
  "id": 733619205,
  "lat": 48.1922653,
  "lon": 17.7387351
},
{
  "type": "node",
  "id": 733624382,
  "lat": 48.1924078,
  "lon": 17.7391392
},
{
  "type": "node",
  "id": 733626044,
  "lat": 48.1922789,
  "lon": 17.7387171
},
{
  "type": "node",
  "id": 733631099,
  "lat": 48.1924058,
  "lon": 17.7391411
},
{
  "type": "node",
  "id": 396561467,
  "lat": 48.1525077,
  "lon": 17.8741094
},
{
  "type": "node",
  "id": 396561604,
  "lat": 48.1522464,
  "lon": 17.8738553
},
{
  "type": "node",
  "id": 396561641,
  "lat": 48.1524301,
  "lon": 17.8742007
},
{
  "type": "node",
  "id": 767677501,
  "lat": 48.1524680,
  "lon": 17.8740373
},
{
  "type": "node",
  "id": 767694574,
  "lat": 48.1523170,
  "lon": 17.8737277
},
{
  "type": "node",
  "id": 767714031,
  "lat": 48.1522793,
  "lon": 17.8737754
},
{
  "type": "node",
  "id": 7020953165,
  "lat": 48.1524798,
  "lon": 17.8740587
},
{
  "type": "node",
  "id": 794434233,
  "lat": 48.0879688,
  "lon": 18.1887158
},
{
  "type": "node",
  "id": 794438337,
  "lat": 48.0880140,
  "lon": 18.1887180
},
{
  "type": "node",
  "id": 794440284,
  "lat": 48.0880322,
  "lon": 18.1883724
},
{
  "type": "node",
  "id": 794440492,
  "lat": 48.0879832,
  "lon": 18.1887111
},
{
  "type": "node",
  "id": 794443420,
  "lat": 48.0880516,
  "lon": 18.1886858
},
{
  "type": "node",
  "id": 794447718,
  "lat": 48.0880803,
  "lon": 18.1886745
},
{
  "type": "node",
  "id": 794450139,
  "lat": 48.0879184,
  "lon": 18.1884130
},
{
  "type": "node",
  "id": 794452033,
  "lat": 48.0880394,
  "lon": 18.1887092
},
{
  "type": "node",
  "id": 794454423,
  "lat": 48.0880138,
  "lon": 18.1887142
},
{
  "type": "node",
  "id": 794457551,
  "lat": 48.0880549,
  "lon": 18.1887030
},
{
  "type": "node",
  "id": 794461226,
  "lat": 48.0880392,
  "lon": 18.1887054
},
{
  "type": "node",
  "id": 794473275,
  "lat": 48.0879864,
  "lon": 18.1887283
},
{
  "type": "node",
  "id": 728671968,
  "lat": 48.2016575,
  "lon": 18.5241879
},
{
  "type": "node",
  "id": 728672815,
  "lat": 48.2016665,
  "lon": 18.5240847
},
{
  "type": "node",
  "id": 728673690,
  "lat": 48.2015571,
  "lon": 18.5240654
},
{
  "type": "node",
  "id": 728675102,
  "lat": 48.2015492,
  "lon": 18.5241666
},
{
  "type": "node",
  "id": 5708491517,
  "lat": 48.2899125,
  "lon": 17.7242424
},
{
  "type": "node",
  "id": 5708491518,
  "lat": 48.2882504,
  "lon": 17.7232959
},
{
  "type": "node",
  "id": 5708491520,
  "lat": 48.2896776,
  "lon": 17.7253294
},
{
  "type": "node",
  "id": 6452391399,
  "lat": 48.2882376,
  "lon": 17.7233486
},
{
  "type": "node",
  "id": 6452391403,
  "lat": 48.2882281,
  "lon": 17.7233895
},
{
  "type": "node",
  "id": 6452391425,
  "lat": 48.2879766,
  "lon": 17.7244576
},
{
  "type": "node",
  "id": 6452391426,
  "lat": 48.2879889,
  "lon": 17.7243917
},
{
  "type": "node",
  "id": 6815712728,
  "lat": 48.2881782,
  "lon": 17.7235986
},
{
  "type": "node",
  "id": 6815712731,
  "lat": 48.2880230,
  "lon": 17.7242487
},
{
  "type": "node",
  "id": 7093611805,
  "lat": 48.2897736,
  "lon": 17.7241236
},
{
  "type": "node",
  "id": 1216331305,
  "lat": 48.3180543,
  "lon": 18.0863247
},
{
  "type": "node",
  "id": 1216331336,
  "lat": 48.3180306,
  "lon": 18.0866688
},
{
  "type": "node",
  "id": 1216331386,
  "lat": 48.3180124,
  "lon": 18.0867430
},
{
  "type": "node",
  "id": 1216331407,
  "lat": 48.3180324,
  "lon": 18.0867370
},
{
  "type": "node",
  "id": 1216331429,
  "lat": 48.3180363,
  "lon": 18.0866693
},
{
  "type": "node",
  "id": 1216331451,
  "lat": 48.3179700,
  "lon": 18.0866933
},
{
  "type": "node",
  "id": 1216331480,
  "lat": 48.3179998,
  "lon": 18.0863183
},
{
  "type": "node",
  "id": 1216331554,
  "lat": 48.3180289,
  "lon": 18.0867367
},
{
  "type": "node",
  "id": 1216331794,
  "lat": 48.3179763,
  "lon": 18.0867038
},
{
  "type": "node",
  "id": 1216331799,
  "lat": 48.3179873,
  "lon": 18.0867396
},
{
  "type": "node",
  "id": 1216331834,
  "lat": 48.3179895,
  "lon": 18.0863168
},
{
  "type": "node",
  "id": 1216331843,
  "lat": 48.3180317,
  "lon": 18.0867465
},
{
  "type": "node",
  "id": 1216331878,
  "lat": 48.3179568,
  "lon": 18.0867002
},
{
  "type": "node",
  "id": 1216331882,
  "lat": 48.3179888,
  "lon": 18.0863246
},
{
  "type": "node",
  "id": 1820085705,
  "lat": 48.4165802,
  "lon": 18.4110931
},
{
  "type": "node",
  "id": 1820085842,
  "lat": 48.4169932,
  "lon": 18.4108276
},
{
  "type": "node",
  "id": 1820085940,
  "lat": 48.4165357,
  "lon": 18.4110288
},
{
  "type": "node",
  "id": 1820086035,
  "lat": 48.4167173,
  "lon": 18.4108330
},
{
  "type": "node",
  "id": 1820086044,
  "lat": 48.4170502,
  "lon": 18.4108759
},
{
  "type": "node",
  "id": 1820086061,
  "lat": 48.4165980,
  "lon": 18.4111039
},
{
  "type": "node",
  "id": 1820086077,
  "lat": 48.4165250,
  "lon": 18.4110958
},
{
  "type": "node",
  "id": 1820086086,
  "lat": 48.4165481,
  "lon": 18.4110449
},
{
  "type": "node",
  "id": 1820086096,
  "lat": 48.4168490,
  "lon": 18.4109564
},
{
  "type": "node",
  "id": 1820086113,
  "lat": 48.4167475,
  "lon": 18.4105513
},
{
  "type": "node",
  "id": 1820086137,
  "lat": 48.4170057,
  "lon": 18.4107954
},
{
  "type": "node",
  "id": 1820086240,
  "lat": 48.4168686,
  "lon": 18.4109081
},
{
  "type": "node",
  "id": 1820086339,
  "lat": 48.4169862,
  "lon": 18.4110176
},
{
  "type": "node",
  "id": 1820086422,
  "lat": 48.4165588,
  "lon": 18.4111387
},
{
  "type": "node",
  "id": 2578711289,
  "lat": 48.4704258,
  "lon": 18.1455149
},
{
  "type": "node",
  "id": 2578711291,
  "lat": 48.4704345,
  "lon": 18.1454501
},
{
  "type": "node",
  "id": 2578711302,
  "lat": 48.4704792,
  "lon": 18.1454629
},
{
  "type": "node",
  "id": 2578711310,
  "lat": 48.4705011,
  "lon": 18.1453155
},
{
  "type": "node",
  "id": 2578711316,
  "lat": 48.4705415,
  "lon": 18.1455625
},
{
  "type": "node",
  "id": 2578711319,
  "lat": 48.4705463,
  "lon": 18.1455284
},
{
  "type": "node",
  "id": 2578711322,
  "lat": 48.4705414,
  "lon": 18.1453287
},
{
  "type": "node",
  "id": 2578711327,
  "lat": 48.4705488,
  "lon": 18.1453202
},
{
  "type": "node",
  "id": 2578711329,
  "lat": 48.4705556,
  "lon": 18.1453218
},
{
  "type": "node",
  "id": 2578711330,
  "lat": 48.4705608,
  "lon": 18.1453334
},
{
  "type": "node",
  "id": 2578711340,
  "lat": 48.4706084,
  "lon": 18.1455120
},
{
  "type": "node",
  "id": 2578711346,
  "lat": 48.4706311,
  "lon": 18.1453593
},
{
  "type": "node",
  "id": 6324731273,
  "lat": 48.4704209,
  "lon": 18.1455462
},
{
  "type": "node",
  "id": 6324731274,
  "lat": 48.4705164,
  "lon": 18.1455773
},
{
  "type": "node",
  "id": 6324731275,
  "lat": 48.4705213,
  "lon": 18.1455850
},
{
  "type": "node",
  "id": 6324731276,
  "lat": 48.4705332,
  "lon": 18.1456146
},
{
  "type": "node",
  "id": 6324731277,
  "lat": 48.4705389,
  "lon": 18.1456158
},
{
  "type": "node",
  "id": 6324731278,
  "lat": 48.4705454,
  "lon": 18.1456112
},
{
  "type": "node",
  "id": 6324731279,
  "lat": 48.4705493,
  "lon": 18.1456006
},
{
  "type": "node",
  "id": 6324731280,
  "lat": 48.4705497,
  "lon": 18.1455873
},
{
  "type": "node",
  "id": 6324731281,
  "lat": 48.4706036,
  "lon": 18.1455454
},
{
  "type": "node",
  "id": 764642933,
  "lat": 48.5574253,
  "lon": 18.1754936
},
{
  "type": "node",
  "id": 764646476,
  "lat": 48.5574141,
  "lon": 18.1752434
},
{
  "type": "node",
  "id": 764650074,
  "lat": 48.5574216,
  "lon": 18.1755085
},
{
  "type": "node",
  "id": 764651452,
  "lat": 48.5573070,
  "lon": 18.1752647
},
{
  "type": "node",
  "id": 764653309,
  "lat": 48.5573320,
  "lon": 18.1751891
},
{
  "type": "node",
  "id": 764655885,
  "lat": 48.5574756,
  "lon": 18.1755439
},
{
  "type": "node",
  "id": 764658532,
  "lat": 48.5571837,
  "lon": 18.1751819
},
{
  "type": "node",
  "id": 764661274,
  "lat": 48.5575178,
  "lon": 18.1753968
},
{
  "type": "node",
  "id": 764669839,
  "lat": 48.5571462,
  "lon": 18.1753322
},
{
  "type": "node",
  "id": 764670021,
  "lat": 48.5574275,
  "lon": 18.1753182
},
{
  "type": "node",
  "id": 764672095,
  "lat": 48.5574219,
  "lon": 18.1753389
},
{
  "type": "node",
  "id": 764676559,
  "lat": 48.5572036,
  "lon": 18.1753693
},
{
  "type": "node",
  "id": 764679860,
  "lat": 48.5574415,
  "lon": 18.1752679
},
{
  "type": "node",
  "id": 764683054,
  "lat": 48.5572072,
  "lon": 18.1753539
},
{
  "type": "node",
  "id": 764685552,
  "lat": 48.5574122,
  "lon": 18.1752497
}

  ]
}
