{
  "version": 0.6,
  "generator": "Overpass API 0.7.55.1011 6c2efc30",
  "osm3s": {
    "timestamp_osm_base": "2020-02-14T13:34:02Z",
    "copyright": "The data included in this document is from www.openstreetmap.org. The data is made available under ODbL."
  },
  "elements": [

{
  "type": "node",
  "id": 26751679,
  "lat": 39.7976470,
  "lon": 2.6914234,
  "tags": {
    "addr:city": "Porto de Soller",
    "name": "Museu de la Mar",
    "tourism": "museum",
    "website": "http://a-soller.tiscalibiz.com/museudelamar/presentacio/c_index.html",
    "wikidata": "Q17043323"
  }
},
{
  "type": "node",
  "id": 268923760,
  "lat": 39.6212427,
  "lon": 2.7468095,
  "tags": {
    "name": "Museu del fang",
    "tourism": "museum"
  }
},
{
  "type": "node",
  "id": 497114358,
  "lat": 39.5699225,
  "lon": 2.6358680,
  "tags": {
    "man_made": "windmill",
    "name": "Molí d'en Garleta",
    "name:de": "Museu dels Molins (Molí d'en Garleta)",
    "tourism": "museum"
  }
},
{
  "type": "node",
  "id": 683852640,
  "lat": 39.7511966,
  "lon": 2.6292773,
  "tags": {
    "email": "info@sonmarroig.com",
    "name": "Son Marroig",
    "tourism": "museum",
    "website": "http://www.sonmarroig.com/"
  }
},
{
  "type": "node",
  "id": 685534931,
  "lat": 39.7641742,
  "lon": 2.7093066,
  "tags": {
    "name": "Museu Balear de Ciències Naturals",
    "opening_hours": "Tu-Sa 10:00-18:00; Su 10:00-14:00",
    "tourism": "museum",
    "website": "www.museucienciesnaturals.org",
    "wikidata": "Q17043315"
  }
},
{
  "type": "node",
  "id": 1107334462,
  "lat": 39.7667625,
  "lon": 2.7133780,
  "tags": {
    "name": "Casa de Cultura",
    "tourism": "museum"
  }
},
{
  "type": "node",
  "id": 1141912785,
  "lat": 39.7533227,
  "lon": 2.6473984,
  "tags": {
    "name": "Robert Graves",
    "tourism": "museum",
    "website": "http://www.lacasaderobertgraves.com"
  }
},
{
  "type": "node",
  "id": 1167810713,
  "lat": 39.7104912,
  "lon": 2.6256036,
  "tags": {
    "name": "Casa natal de Santa Catalina Thomàs",
    "tourism": "museum"
  }
},
{
  "type": "node",
  "id": 1167810715,
  "lat": 39.7100094,
  "lon": 2.6222395,
  "tags": {
    "name": "Coll Bardolet",
    "tourism": "museum"
  }
},
{
  "type": "node",
  "id": 1169667799,
  "lat": 39.7465574,
  "lon": 2.6479489,
  "tags": {
    "name": "Museu Arqueològic",
    "name:es": "museo arqueológico",
    "tourism": "museum"
  }
},
{
  "type": "node",
  "id": 1429685512,
  "lat": 39.5108191,
  "lon": 2.5344437,
  "tags": {
    "name": "House of Katmandu",
    "tourism": "museum"
  }
},
{
  "type": "node",
  "id": 1712596833,
  "lat": 39.8228130,
  "lon": 2.8844187,
  "tags": {
    "level": "1",
    "opening_hours": "summer 10:00-18:00",
    "tourism": "museum"
  }
},
{
  "type": "node",
  "id": 1862699465,
  "lat": 39.5717987,
  "lon": 2.9871462,
  "tags": {
    "name": "Museu Arqueològic de Son Fornés",
    "tourism": "museum",
    "wikidata": "Q20968892"
  }
},
{
  "type": "node",
  "id": 2078816849,
  "lat": 39.6434021,
  "lon": 3.0106273,
  "tags": {
    "name": "Museu / Taller Ricado Gagó",
    "tourism": "museum"
  }
},
{
  "type": "node",
  "id": 3125470651,
  "lat": 39.5721439,
  "lon": 2.6520342,
  "tags": {
    "addr:city": "Palma de Mallorca",
    "addr:housenumber": "11",
    "addr:postcode": "07002",
    "addr:street": "carrer de Sant Miquel",
    "name": "Fundació Joan March",
    "tourism": "museum",
    "wheelchair": "limited"
  }
},
{
  "type": "node",
  "id": 3739699850,
  "lat": 39.6865625,
  "lon": 2.8452788,
  "tags": {
    "name": "Llorenç Villalonga",
    "tourism": "museum",
    "wikidata": "Q17578639"
  }
},
{
  "type": "node",
  "id": 3739699851,
  "lat": 39.5980757,
  "lon": 3.0373718,
  "tags": {
    "name": "Pare Rafel Ginard",
    "tourism": "museum"
  }
},
{
  "type": "node",
  "id": 3781277875,
  "lat": 39.5276292,
  "lon": 2.9260693,
  "tags": {
    "tourism": "museum",
    "wheelchair": "yes"
  }
},
{
  "type": "node",
  "id": 3840569239,
  "lat": 39.7092137,
  "lon": 2.6224681,
  "tags": {
    "name": "Frederic Chopin",
    "tourism": "museum"
  }
},
{
  "type": "node",
  "id": 5810778753,
  "lat": 39.5092694,
  "lon": 2.7510470,
  "tags": {
    "tourism": "museum"
  }
},
{
  "type": "node",
  "id": 6113562590,
  "lat": 39.7087643,
  "lon": 2.6216096,
  "tags": {
    "contact:website": "http://www.cartujadevalldemossa.com/es/index.html",
    "name": "Reial Cartoixa",
    "name:ca": "Cartoixa de Valldemossa",
    "name:de": "Kartause von Valldemossa",
    "name:en": "Valldemossa Charterhouse",
    "name:es": "Cartuja de Valldemosa",
    "name:it": "Certosa di Valldemossa",
    "tourism": "museum",
    "website": "https://www.cartoixadevalldemossa.com/",
    "wikipedia": "es:Cartuja de Valldemosa"
  }
},
{
  "type": "node",
  "id": 6539444079,
  "lat": 39.7678508,
  "lon": 2.7181559,
  "tags": {
    "name": "Museo Modernista",
    "tourism": "museum"
  }
},
{
  "type": "node",
  "id": 6906768287,
  "lat": 39.6690968,
  "lon": 2.5585552,
  "tags": {
    "addr:postcode": "07190",
    "addr:street": "Ctra Banyalbufar, Km 1.5",
    "name": "La Granja",
    "opening_hours": "Mo-Su 10:00-18:00",
    "phone": "+34 971 61 00 32",
    "tourism": "museum",
    "website": "http://lagranja.net"
  }
},
{
  "type": "way",
  "id": 52646678,
  "nodes": [
    668558226,
    5661619853,
    5661619852,
    668558223,
    668558218,
    6694661509,
    668558216,
    668558217,
    668558221,
    668558220,
    4271575116,
    668558219,
    4271575114,
    668558225,
    668558224,
    5661619855,
    5661619854,
    668558226
  ],
  "tags": {
    "addr:housename": "Son Marroig",
    "addr:housenumber": "Cr, 13",
    "addr:postcode": "07179",
    "addr:street": "Diseminado Valldemossa",
    "building": "house",
    "name": "Son Marroig",
    "opening_hours": "Mo-Sa 09:30-14:00, 15:30-18:00",
    "phone": "+34 971 63 91 58",
    "tourism": "museum",
    "website": "http://sonmarroig.com",
    "wikidata": "Q2300784"
  }
},
{
  "type": "way",
  "id": 73039791,
  "nodes": [
    866859771,
    866859780,
    7017666770,
    7017677840,
    866859810,
    7017677813,
    866859815,
    1481413404,
    7017666780,
    7017677854,
    7017677814,
    7017666776,
    7017677849,
    7017677810,
    7017666774,
    7017677845,
    7017677805,
    866859771
  ],
  "tags": {
    "building": "yes",
    "name": "Fundación Bartolomé March Servera",
    "source": "ideib.cat",
    "tourism": "museum"
  }
},
{
  "type": "way",
  "id": 73043459,
  "nodes": [
    866918742,
    866918764,
    866918793,
    866918722,
    866918772,
    866918797,
    866918832,
    866918860,
    866918737,
    3950079515,
    866918742
  ],
  "tags": {
    "addr:housenumber": "3",
    "addr:postcode": "07001",
    "addr:street": "plaça d'en Weyler",
    "alt_name": "CaixaFòrum",
    "architect": "Lluís Domènech i Montaner",
    "building": "yes",
    "heritage": "3",
    "heritage:operator": "Consell de Mallorca",
    "historic": "yes",
    "listed_status": "Béns d'Interès Cultural",
    "name": "Gran Hotel",
    "name:ca": "Gran Hotel CaixaForum",
    "name:en": "Gran Hotel CaixaForum",
    "name:es": "Gran Hotel CaixaForum",
    "opening_hours": "Mo-Sa 10:00-20:00; Su 11:00-14:00",
    "operator": "Fundació La Caixa",
    "phone": "+34 971 17 85 00",
    "start_date": "1903",
    "tourism": "museum",
    "website": "http://obrasociallacaixa.org",
    "wikidata": "Q3780261",
    "wikipedia": "en:Gran Hotel (Palma)"
  }
},
{
  "type": "way",
  "id": 86259184,
  "nodes": [
    1001307003,
    1001307157,
    1001307136,
    1001307108,
    1001307082,
    1001306980,
    1001307003
  ],
  "tags": {
    "building": "yes",
    "fixme": "the name is generic",
    "name": "Museu",
    "natural": "heath",
    "tourism": "museum"
  }
},
{
  "type": "way",
  "id": 123761462,
  "nodes": [
    1379057765,
    1379057763,
    1379057754,
    1840232094,
    1379057736,
    1379057737,
    1379057742,
    1379057743,
    1379057755,
    1379057765
  ],
  "tags": {
    "building": "yes",
    "name": "Museu de Mallorca",
    "name:ca": "Museu de Mallorca",
    "name:es": "Museo de Mallorca",
    "source": "ideib WMS layer;cadastre;survey",
    "tourism": "museum",
    "website": "http://www.museudemallorca.es",
    "wikidata": "Q9047027"
  }
},
{
  "type": "way",
  "id": 126968888,
  "nodes": [
    1406136315,
    1406136312,
    1406136311,
    1406136309,
    1406136319,
    1406136327,
    1406136329,
    1406136332,
    1406136334,
    1406136335,
    1406136342,
    1406136343,
    1406136344,
    1406136317,
    251801511,
    1406136302,
    1406136299,
    1406136315
  ],
  "tags": {
    "building": "yes",
    "description": "Museu d'Art Contemporani de Palma",
    "name": "es Baluard",
    "name:ca": "Es Baluard Museu dArt Modern i Contemporani de Palma",
    "name:de": "Es Baluard Museu dArt Modern i Contemporani de Palma",
    "name:en": "Es Baluard Museu dArt Modern i Contemporani de Palma",
    "name:es": "Es Baluard Museu dArt Modern i Contemporani de Palma",
    "operator": "Ajuntament de Palma;Govern de les Illes Balears;Consell de Mallorca;Fundació Art Serra",
    "toilets:wheelchair": "yes",
    "tourism": "museum",
    "website": "http://www.esbaluard.org",
    "wheelchair": "yes",
    "wikidata": "Q357917"
  }
},
{
  "type": "way",
  "id": 304606737,
  "nodes": [
    3091744863,
    3091746265,
    3199969684,
    3091746266,
    3091746267,
    3199969672,
    3091746268,
    3091746269,
    3199969697,
    3091746270,
    3199969703,
    3091744863
  ],
  "tags": {
    "building": "yes",
    "height": "8.5",
    "name": "Ca s'Apotecari",
    "smoking": "outside",
    "tourism": "museum"
  }
},
{
  "type": "way",
  "id": 335231238,
  "nodes": [
    3423477709,
    3423477727,
    3423477763,
    3423477755,
    3423477705,
    3423477709
  ],
  "tags": {
    "building": "yes",
    "name": "Museu del Calçat i de la Pell",
    "source": "survey;Bing WMS",
    "tourism": "museum"
  }
},
{
  "type": "way",
  "id": 356979941,
  "nodes": [
    3623777452,
    3623777450,
    3623777454,
    3623777451,
    3623777446,
    3623777448,
    3623777452
  ],
  "tags": {
    "access": "yes",
    "building": "yes",
    "fee": "no",
    "historic": "yes",
    "name": "Convent de Sant Bonaventura",
    "tourism": "museum"
  }
},
{
  "type": "way",
  "id": 384811169,
  "nodes": [
    3881662515,
    3881662516,
    3881662517,
    3881662518,
    3881662515
  ],
  "tags": {
    "building": "yes",
    "name": "Museu d'arts decoratives",
    "tourism": "museum",
    "website": "https://www.museodeartesdecorativas.com/"
  }
},
{
  "type": "way",
  "id": 417857862,
  "nodes": [
    4183345593,
    4183345594,
    4183345595,
    4183345596,
    4183345597,
    4183345598,
    4183345599,
    4183345600,
    4183345601,
    4183345602,
    4183345593
  ],
  "tags": {
    "building": "yes",
    "name": "Kreković",
    "tourism": "museum"
  }
},
{
  "type": "way",
  "id": 436729646,
  "nodes": [
    4346041708,
    4346041709,
    4346041710,
    4346041711,
    4346041712,
    4346041713,
    4346041714,
    4346041708
  ],
  "tags": {
    "building": "yes",
    "tourism": "museum"
  }
},
{
  "type": "way",
  "id": 530305742,
  "nodes": [
    5149757257,
    5149757258,
    5149757259,
    5149757260,
    5149757257
  ],
  "tags": {
    "building": "yes",
    "name": "Liedtke",
    "tourism": "museum"
  }
},
{
  "type": "way",
  "id": 661283150,
  "nodes": [
    6190948250,
    6190948251,
    6190948252,
    6190961143,
    6190961144,
    6190948253,
    6190948254,
    6190948255,
    6190948256,
    6190948257,
    6190948258,
    6190948259,
    6190948260,
    6190948261,
    6190948262,
    6190948263,
    6190948280,
    6190948264,
    6190948265,
    6190948266,
    6190948267,
    6190948268,
    6190948269,
    6190948270,
    6190948271,
    6190951997,
    6190948272,
    6190948273,
    6190948274,
    6190948275,
    6190948276,
    6190952003,
    6665067696,
    6665067697,
    6665067700,
    6665067701,
    6665067704,
    6665067705,
    6665067703,
    6665067702,
    6665067699,
    6665067698,
    6190952002,
    6190952001,
    6190948278,
    6665067715,
    6665067716,
    6190952000,
    6190951999,
    6190951998,
    6190948279,
    6190948250
  ],
  "tags": {
    "addr:city": "Palma",
    "addr:housenumber": "29",
    "addr:postcode": "07015",
    "addr:street": "Carrer de Saridakis",
    "name": "Fundació Pilar i Joan Miró a Mallorca",
    "opening_hours": "Tu-Su 10:00-17:00",
    "tourism": "museum",
    "tourism_1": "museum",
    "website": "https://miromallorca.com/",
    "wikidata": "Q949576"
  }
},
{
  "type": "relation",
  "id": 2424201,
  "members": [
    {
      "type": "way",
      "ref": 123725957,
      "role": "outer"
    },
    {
      "type": "way",
      "ref": 181767876,
      "role": "inner"
    }
  ],
  "tags": {
    "building": "yes",
    "name": "Museu Diocesà",
    "tourism": "museum",
    "type": "multipolygon"
  }
},
{
  "type": "relation",
  "id": 2885399,
  "members": [
    {
      "type": "way",
      "ref": 49003246,
      "role": "outer"
    },
    {
      "type": "way",
      "ref": 217841139,
      "role": "inner"
    }
  ],
  "tags": {
    "building": "yes",
    "fee": "no",
    "heritage": "3",
    "heritage:operator": "Consell de Mallorca",
    "historic": "castle",
    "name": "Museu Històric Militar",
    "name:en": "Museum of Military History",
    "name:es": "Museo Histórico Militar Castillo de San Carlos",
    "tourism": "museum",
    "type": "multipolygon",
    "website": "http://www.museomilitarsancarlos.com"
  }
},
{
  "type": "node",
  "id": 5149757257,
  "lat": 39.5327934,
  "lon": 2.3722273
},
{
  "type": "node",
  "id": 5149757258,
  "lat": 39.5328132,
  "lon": 2.3723677
},
{
  "type": "node",
  "id": 5149757260,
  "lat": 39.5326142,
  "lon": 2.3722699
},
{
  "type": "node",
  "id": 5149757259,
  "lat": 39.5326340,
  "lon": 2.3724102
},
{
  "type": "node",
  "id": 621996340,
  "lat": 39.5458642,
  "lon": 2.6229984
},
{
  "type": "node",
  "id": 621996341,
  "lat": 39.5460340,
  "lon": 2.6229869
},
{
  "type": "node",
  "id": 621996342,
  "lat": 39.5463457,
  "lon": 2.6227350
},
{
  "type": "node",
  "id": 621996343,
  "lat": 39.5465365,
  "lon": 2.6225778
},
{
  "type": "node",
  "id": 621996344,
  "lat": 39.5465267,
  "lon": 2.6229155
},
{
  "type": "node",
  "id": 621996345,
  "lat": 39.5460329,
  "lon": 2.6228008
},
{
  "type": "node",
  "id": 621996349,
  "lat": 39.5467007,
  "lon": 2.6229226
},
{
  "type": "node",
  "id": 621996350,
  "lat": 39.5459171,
  "lon": 2.6231572
},
{
  "type": "node",
  "id": 621996352,
  "lat": 39.5466580,
  "lon": 2.6231537
},
{
  "type": "node",
  "id": 621996353,
  "lat": 39.5466081,
  "lon": 2.6233583
},
{
  "type": "node",
  "id": 621996355,
  "lat": 39.5463253,
  "lon": 2.6236584
},
{
  "type": "node",
  "id": 621996356,
  "lat": 39.5463714,
  "lon": 2.6237345
},
{
  "type": "node",
  "id": 621996358,
  "lat": 39.5462828,
  "lon": 2.6238879
},
{
  "type": "node",
  "id": 621996359,
  "lat": 39.5461968,
  "lon": 2.6236579
},
{
  "type": "node",
  "id": 621996361,
  "lat": 39.5462245,
  "lon": 2.6236435
},
{
  "type": "node",
  "id": 621996362,
  "lat": 39.5459698,
  "lon": 2.6231304
},
{
  "type": "node",
  "id": 621996364,
  "lat": 39.5460906,
  "lon": 2.6234170
},
{
  "type": "node",
  "id": 621996365,
  "lat": 39.5460396,
  "lon": 2.6233012
},
{
  "type": "node",
  "id": 621996366,
  "lat": 39.5466595,
  "lon": 2.6234199
},
{
  "type": "node",
  "id": 621996367,
  "lat": 39.5468315,
  "lon": 2.6233090
},
{
  "type": "node",
  "id": 2270865625,
  "lat": 39.5459744,
  "lon": 2.6228368
},
{
  "type": "node",
  "id": 2270865627,
  "lat": 39.5459656,
  "lon": 2.6229416
},
{
  "type": "node",
  "id": 2270865631,
  "lat": 39.5459919,
  "lon": 2.6230135
},
{
  "type": "node",
  "id": 2270865637,
  "lat": 39.5460863,
  "lon": 2.6229466
},
{
  "type": "node",
  "id": 2270865666,
  "lat": 39.5462241,
  "lon": 2.6228878
},
{
  "type": "node",
  "id": 2270865670,
  "lat": 39.5462722,
  "lon": 2.6230405
},
{
  "type": "node",
  "id": 2270865674,
  "lat": 39.5463704,
  "lon": 2.6228255
},
{
  "type": "node",
  "id": 2271035356,
  "lat": 39.5460157,
  "lon": 2.6232273
},
{
  "type": "node",
  "id": 2271035358,
  "lat": 39.5460106,
  "lon": 2.6232471
},
{
  "type": "node",
  "id": 2271035360,
  "lat": 39.5460126,
  "lon": 2.6232709
},
{
  "type": "node",
  "id": 2271035362,
  "lat": 39.5460228,
  "lon": 2.6232934
},
{
  "type": "node",
  "id": 2271035364,
  "lat": 39.5460626,
  "lon": 2.6232934
},
{
  "type": "node",
  "id": 2271035366,
  "lat": 39.5460870,
  "lon": 2.6233449
},
{
  "type": "node",
  "id": 2271035368,
  "lat": 39.5460769,
  "lon": 2.6233833
},
{
  "type": "node",
  "id": 2271035370,
  "lat": 39.5461156,
  "lon": 2.6234229
},
{
  "type": "node",
  "id": 2271035372,
  "lat": 39.5466333,
  "lon": 2.6229088
},
{
  "type": "node",
  "id": 2271035374,
  "lat": 39.5466272,
  "lon": 2.6229431
},
{
  "type": "node",
  "id": 2271035379,
  "lat": 39.5466333,
  "lon": 2.6231493
},
{
  "type": "node",
  "id": 2271035381,
  "lat": 39.5466588,
  "lon": 2.6230079
},
{
  "type": "node",
  "id": 2271035383,
  "lat": 39.5466812,
  "lon": 2.6230119
},
{
  "type": "node",
  "id": 2271428737,
  "lat": 39.5461188,
  "lon": 2.6231174
},
{
  "type": "node",
  "id": 2271428738,
  "lat": 39.5461650,
  "lon": 2.6231361
},
{
  "type": "node",
  "id": 2271428739,
  "lat": 39.5463160,
  "lon": 2.6234655
},
{
  "type": "node",
  "id": 2271428740,
  "lat": 39.5464238,
  "lon": 2.6231461
},
{
  "type": "node",
  "id": 2271428741,
  "lat": 39.5464372,
  "lon": 2.6231012
},
{
  "type": "node",
  "id": 2271428742,
  "lat": 39.5464305,
  "lon": 2.6231623
},
{
  "type": "node",
  "id": 2271428743,
  "lat": 39.5464623,
  "lon": 2.6229465
},
{
  "type": "node",
  "id": 2271428745,
  "lat": 39.5464632,
  "lon": 2.6231074
},
{
  "type": "node",
  "id": 2271428746,
  "lat": 39.5464719,
  "lon": 2.6231361
},
{
  "type": "node",
  "id": 2271428747,
  "lat": 39.5464700,
  "lon": 2.6231673
},
{
  "type": "node",
  "id": 2271428748,
  "lat": 39.5464902,
  "lon": 2.6229527
},
{
  "type": "node",
  "id": 2271428749,
  "lat": 39.5465844,
  "lon": 2.6231723
},
{
  "type": "node",
  "id": 6190948250,
  "lat": 39.5551350,
  "lon": 2.6091825
},
{
  "type": "node",
  "id": 6190948251,
  "lat": 39.5545398,
  "lon": 2.6093577
},
{
  "type": "node",
  "id": 6190948252,
  "lat": 39.5545210,
  "lon": 2.6094316
},
{
  "type": "node",
  "id": 6190948253,
  "lat": 39.5544896,
  "lon": 2.6096910
},
{
  "type": "node",
  "id": 6190948254,
  "lat": 39.5544885,
  "lon": 2.6098005
},
{
  "type": "node",
  "id": 6190948255,
  "lat": 39.5545273,
  "lon": 2.6099756
},
{
  "type": "node",
  "id": 6190948256,
  "lat": 39.5545351,
  "lon": 2.6100834
},
{
  "type": "node",
  "id": 6190948257,
  "lat": 39.5545194,
  "lon": 2.6102648
},
{
  "type": "node",
  "id": 6190948258,
  "lat": 39.5545052,
  "lon": 2.6104404
},
{
  "type": "node",
  "id": 6190948259,
  "lat": 39.5544958,
  "lon": 2.6105367
},
{
  "type": "node",
  "id": 6190948260,
  "lat": 39.5544921,
  "lon": 2.6106248
},
{
  "type": "node",
  "id": 6190948261,
  "lat": 39.5545005,
  "lon": 2.6107482
},
{
  "type": "node",
  "id": 6190948262,
  "lat": 39.5545132,
  "lon": 2.6107734
},
{
  "type": "node",
  "id": 6190948263,
  "lat": 39.5545263,
  "lon": 2.6107646
},
{
  "type": "node",
  "id": 6190948264,
  "lat": 39.5551730,
  "lon": 2.6100264
},
{
  "type": "node",
  "id": 6190948265,
  "lat": 39.5551510,
  "lon": 2.6099878
},
{
  "type": "node",
  "id": 6190948266,
  "lat": 39.5550758,
  "lon": 2.6100183
},
{
  "type": "node",
  "id": 6190948267,
  "lat": 39.5550711,
  "lon": 2.6099614
},
{
  "type": "node",
  "id": 6190948268,
  "lat": 39.5550915,
  "lon": 2.6097459
},
{
  "type": "node",
  "id": 6190948269,
  "lat": 39.5551119,
  "lon": 2.6096057
},
{
  "type": "node",
  "id": 6190948270,
  "lat": 39.5551322,
  "lon": 2.6094410
},
{
  "type": "node",
  "id": 6190948271,
  "lat": 39.5552263,
  "lon": 2.6092987
},
{
  "type": "node",
  "id": 6190948272,
  "lat": 39.5553046,
  "lon": 2.6092438
},
{
  "type": "node",
  "id": 6190948273,
  "lat": 39.5553501,
  "lon": 2.6091829
},
{
  "type": "node",
  "id": 6190948274,
  "lat": 39.5553767,
  "lon": 2.6090955
},
{
  "type": "node",
  "id": 6190948275,
  "lat": 39.5553689,
  "lon": 2.6090020
},
{
  "type": "node",
  "id": 6190948276,
  "lat": 39.5553501,
  "lon": 2.6089410
},
{
  "type": "node",
  "id": 6190948278,
  "lat": 39.5552124,
  "lon": 2.6086128
},
{
  "type": "node",
  "id": 6190948279,
  "lat": 39.5551400,
  "lon": 2.6090985
},
{
  "type": "node",
  "id": 6190948280,
  "lat": 39.5551062,
  "lon": 2.6101053
},
{
  "type": "node",
  "id": 6190951997,
  "lat": 39.5552910,
  "lon": 2.6092534
},
{
  "type": "node",
  "id": 6190951998,
  "lat": 39.5551439,
  "lon": 2.6090335
},
{
  "type": "node",
  "id": 6190951999,
  "lat": 39.5551533,
  "lon": 2.6089614
},
{
  "type": "node",
  "id": 6190952000,
  "lat": 39.5551557,
  "lon": 2.6089143
},
{
  "type": "node",
  "id": 6190952001,
  "lat": 39.5553132,
  "lon": 2.6085609
},
{
  "type": "node",
  "id": 6190952002,
  "lat": 39.5554085,
  "lon": 2.6085627
},
{
  "type": "node",
  "id": 6190952003,
  "lat": 39.5553290,
  "lon": 2.6088243
},
{
  "type": "node",
  "id": 6190961143,
  "lat": 39.5545097,
  "lon": 2.6095016
},
{
  "type": "node",
  "id": 6190961144,
  "lat": 39.5544977,
  "lon": 2.6095791
},
{
  "type": "node",
  "id": 6665067696,
  "lat": 39.5553188,
  "lon": 2.6087814
},
{
  "type": "node",
  "id": 6665067697,
  "lat": 39.5553736,
  "lon": 2.6086908
},
{
  "type": "node",
  "id": 6665067698,
  "lat": 39.5554477,
  "lon": 2.6086210
},
{
  "type": "node",
  "id": 6665067699,
  "lat": 39.5555651,
  "lon": 2.6087467
},
{
  "type": "node",
  "id": 6665067700,
  "lat": 39.5554160,
  "lon": 2.6086445
},
{
  "type": "node",
  "id": 6665067701,
  "lat": 39.5557527,
  "lon": 2.6090407
},
{
  "type": "node",
  "id": 6665067702,
  "lat": 39.5558589,
  "lon": 2.6085407
},
{
  "type": "node",
  "id": 6665067703,
  "lat": 39.5561236,
  "lon": 2.6089377
},
{
  "type": "node",
  "id": 6665067704,
  "lat": 39.5557737,
  "lon": 2.6090252
},
{
  "type": "node",
  "id": 6665067705,
  "lat": 39.5559042,
  "lon": 2.6091673
},
{
  "type": "node",
  "id": 6665067715,
  "lat": 39.5551778,
  "lon": 2.6086668
},
{
  "type": "node",
  "id": 6665067716,
  "lat": 39.5551569,
  "lon": 2.6088254
},
{
  "type": "node",
  "id": 251801511,
  "lat": 39.5699320,
  "lon": 2.6405588
},
{
  "type": "node",
  "id": 1406136299,
  "lat": 39.5698068,
  "lon": 2.6406079
},
{
  "type": "node",
  "id": 1406136302,
  "lat": 39.5698149,
  "lon": 2.6404451
},
{
  "type": "node",
  "id": 1406136312,
  "lat": 39.5699611,
  "lon": 2.6408688
},
{
  "type": "node",
  "id": 1406136315,
  "lat": 39.5699687,
  "lon": 2.6407503
},
{
  "type": "node",
  "id": 1406136317,
  "lat": 39.5699713,
  "lon": 2.6405952
},
{
  "type": "node",
  "id": 866859771,
  "lat": 39.5687667,
  "lon": 2.6470798
},
{
  "type": "node",
  "id": 866859780,
  "lat": 39.5686945,
  "lon": 2.6470715
},
{
  "type": "node",
  "id": 866859810,
  "lat": 39.5685507,
  "lon": 2.6473969
},
{
  "type": "node",
  "id": 1406136309,
  "lat": 39.5699222,
  "lon": 2.6412725
},
{
  "type": "node",
  "id": 1406136311,
  "lat": 39.5699307,
  "lon": 2.6411913
},
{
  "type": "node",
  "id": 1406136319,
  "lat": 39.5700388,
  "lon": 2.6412813
},
{
  "type": "node",
  "id": 1406136327,
  "lat": 39.5702977,
  "lon": 2.6413335
},
{
  "type": "node",
  "id": 1406136329,
  "lat": 39.5703133,
  "lon": 2.6413366
},
{
  "type": "node",
  "id": 1406136332,
  "lat": 39.5704156,
  "lon": 2.6413598
},
{
  "type": "node",
  "id": 1406136334,
  "lat": 39.5704425,
  "lon": 2.6413676
},
{
  "type": "node",
  "id": 1406136335,
  "lat": 39.5705551,
  "lon": 2.6414001
},
{
  "type": "node",
  "id": 1406136342,
  "lat": 39.5705617,
  "lon": 2.6414419
},
{
  "type": "node",
  "id": 1406136343,
  "lat": 39.5706494,
  "lon": 2.6414588
},
{
  "type": "node",
  "id": 1406136344,
  "lat": 39.5707014,
  "lon": 2.6412704
},
{
  "type": "node",
  "id": 7017666770,
  "lat": 39.5685551,
  "lon": 2.6473630
},
{
  "type": "node",
  "id": 7017666774,
  "lat": 39.5689155,
  "lon": 2.6476308
},
{
  "type": "node",
  "id": 7017666776,
  "lat": 39.5689306,
  "lon": 2.6476370
},
{
  "type": "node",
  "id": 7017677805,
  "lat": 39.5688944,
  "lon": 2.6475192
},
{
  "type": "node",
  "id": 7017677810,
  "lat": 39.5689228,
  "lon": 2.6476298
},
{
  "type": "node",
  "id": 7017677840,
  "lat": 39.5685643,
  "lon": 2.6473705
},
{
  "type": "node",
  "id": 7017677845,
  "lat": 39.5688845,
  "lon": 2.6475251
},
{
  "type": "node",
  "id": 7017677849,
  "lat": 39.5689259,
  "lon": 2.6476395
},
{
  "type": "node",
  "id": 1378793399,
  "lat": 39.5666039,
  "lon": 2.6494870
},
{
  "type": "node",
  "id": 1378793400,
  "lat": 39.5667687,
  "lon": 2.6490046
},
{
  "type": "node",
  "id": 1378793401,
  "lat": 39.5668820,
  "lon": 2.6490804
},
{
  "type": "node",
  "id": 1378793402,
  "lat": 39.5669068,
  "lon": 2.6490166
},
{
  "type": "node",
  "id": 1378793404,
  "lat": 39.5669477,
  "lon": 2.6491246
},
{
  "type": "node",
  "id": 1378793406,
  "lat": 39.5670086,
  "lon": 2.6497276
},
{
  "type": "node",
  "id": 1378793415,
  "lat": 39.5670418,
  "lon": 2.6491884
},
{
  "type": "node",
  "id": 1378793418,
  "lat": 39.5671930,
  "lon": 2.6493167
},
{
  "type": "node",
  "id": 1379057736,
  "lat": 39.5668072,
  "lon": 2.6509216
},
{
  "type": "node",
  "id": 1379057737,
  "lat": 39.5668586,
  "lon": 2.6506850
},
{
  "type": "node",
  "id": 1379057738,
  "lat": 39.5668350,
  "lon": 2.6489664
},
{
  "type": "node",
  "id": 1379057742,
  "lat": 39.5668707,
  "lon": 2.6506915
},
{
  "type": "node",
  "id": 1379057743,
  "lat": 39.5668842,
  "lon": 2.6505759
},
{
  "type": "node",
  "id": 1379057754,
  "lat": 39.5670673,
  "lon": 2.6511637
},
{
  "type": "node",
  "id": 1379057755,
  "lat": 39.5671160,
  "lon": 2.6506178
},
{
  "type": "node",
  "id": 1379057763,
  "lat": 39.5671763,
  "lon": 2.6509169
},
{
  "type": "node",
  "id": 1379057765,
  "lat": 39.5672558,
  "lon": 2.6507399
},
{
  "type": "node",
  "id": 1840232094,
  "lat": 39.5669050,
  "lon": 2.6509881
},
{
  "type": "node",
  "id": 1921982940,
  "lat": 39.5666613,
  "lon": 2.6495000
},
{
  "type": "node",
  "id": 1921982941,
  "lat": 39.5667847,
  "lon": 2.6490163
},
{
  "type": "node",
  "id": 1921982960,
  "lat": 39.5667830,
  "lon": 2.6493569
},
{
  "type": "node",
  "id": 1921982961,
  "lat": 39.5668118,
  "lon": 2.6489499
},
{
  "type": "node",
  "id": 1921982962,
  "lat": 39.5668463,
  "lon": 2.6491713
},
{
  "type": "node",
  "id": 1921982964,
  "lat": 39.5669540,
  "lon": 2.6495010
},
{
  "type": "node",
  "id": 1921982965,
  "lat": 39.5669977,
  "lon": 2.6492771
},
{
  "type": "node",
  "id": 1921982966,
  "lat": 39.5670405,
  "lon": 2.6493121
},
{
  "type": "node",
  "id": 4491449729,
  "lat": 39.5670236,
  "lon": 2.6496989
},
{
  "type": "node",
  "id": 6896080478,
  "lat": 39.5668714,
  "lon": 2.6496255
},
{
  "type": "node",
  "id": 6896080479,
  "lat": 39.5668585,
  "lon": 2.6496624
},
{
  "type": "node",
  "id": 6896080480,
  "lat": 39.5666894,
  "lon": 2.6495082
},
{
  "type": "node",
  "id": 6896080481,
  "lat": 39.5666595,
  "lon": 2.6495451
},
{
  "type": "node",
  "id": 6896080482,
  "lat": 39.5666744,
  "lon": 2.6495524
},
{
  "type": "node",
  "id": 6896080483,
  "lat": 39.5667944,
  "lon": 2.6495739
},
{
  "type": "node",
  "id": 6896080484,
  "lat": 39.5668972,
  "lon": 2.6496866
},
{
  "type": "node",
  "id": 6896110029,
  "lat": 39.5668900,
  "lon": 2.6494505
},
{
  "type": "node",
  "id": 6896110030,
  "lat": 39.5666284,
  "lon": 2.6493841
},
{
  "type": "node",
  "id": 6896128085,
  "lat": 39.5669102,
  "lon": 2.6496571
},
{
  "type": "node",
  "id": 6896683039,
  "lat": 39.5668745,
  "lon": 2.6496724
},
{
  "type": "node",
  "id": 6896683040,
  "lat": 39.5668575,
  "lon": 2.6496162
},
{
  "type": "node",
  "id": 6896683046,
  "lat": 39.5669871,
  "lon": 2.6497122
},
{
  "type": "node",
  "id": 7017677794,
  "lat": 39.5666065,
  "lon": 2.6494876
},
{
  "type": "node",
  "id": 866859815,
  "lat": 39.5687071,
  "lon": 2.6479140
},
{
  "type": "node",
  "id": 866918722,
  "lat": 39.5719058,
  "lon": 2.6500078
},
{
  "type": "node",
  "id": 866918737,
  "lat": 39.5716511,
  "lon": 2.6502490
},
{
  "type": "node",
  "id": 866918742,
  "lat": 39.5716457,
  "lon": 2.6499379
},
{
  "type": "node",
  "id": 866918764,
  "lat": 39.5719435,
  "lon": 2.6498575
},
{
  "type": "node",
  "id": 866918772,
  "lat": 39.5719125,
  "lon": 2.6501511
},
{
  "type": "node",
  "id": 866918793,
  "lat": 39.5719327,
  "lon": 2.6500043
},
{
  "type": "node",
  "id": 866918797,
  "lat": 39.5719287,
  "lon": 2.6501651
},
{
  "type": "node",
  "id": 866918832,
  "lat": 39.5719246,
  "lon": 2.6502490
},
{
  "type": "node",
  "id": 866918860,
  "lat": 39.5718047,
  "lon": 2.6502630
},
{
  "type": "node",
  "id": 1481413404,
  "lat": 39.5689657,
  "lon": 2.6477843
},
{
  "type": "node",
  "id": 3950079515,
  "lat": 39.5716482,
  "lon": 2.6500209
},
{
  "type": "node",
  "id": 7017666780,
  "lat": 39.5689683,
  "lon": 2.6477830
},
{
  "type": "node",
  "id": 7017677813,
  "lat": 39.5686331,
  "lon": 2.6476729
},
{
  "type": "node",
  "id": 7017677814,
  "lat": 39.5689691,
  "lon": 2.6477657
},
{
  "type": "node",
  "id": 7017677854,
  "lat": 39.5689648,
  "lon": 2.6477683
},
{
  "type": "node",
  "id": 4183345595,
  "lat": 39.5673279,
  "lon": 2.6666475
},
{
  "type": "node",
  "id": 4183345596,
  "lat": 39.5673530,
  "lon": 2.6664137
},
{
  "type": "node",
  "id": 4183345593,
  "lat": 39.5678437,
  "lon": 2.6661869
},
{
  "type": "node",
  "id": 4183345594,
  "lat": 39.5677855,
  "lon": 2.6667300
},
{
  "type": "node",
  "id": 4183345597,
  "lat": 39.5674800,
  "lon": 2.6664366
},
{
  "type": "node",
  "id": 4183345598,
  "lat": 39.5675003,
  "lon": 2.6662477
},
{
  "type": "node",
  "id": 4183345599,
  "lat": 39.5673761,
  "lon": 2.6662253
},
{
  "type": "node",
  "id": 4183345600,
  "lat": 39.5674004,
  "lon": 2.6659992
},
{
  "type": "node",
  "id": 4183345601,
  "lat": 39.5677773,
  "lon": 2.6660672
},
{
  "type": "node",
  "id": 4183345602,
  "lat": 39.5677659,
  "lon": 2.6661729
},
{
  "type": "node",
  "id": 3881662515,
  "lat": 39.6040240,
  "lon": 2.6531100
},
{
  "type": "node",
  "id": 3881662516,
  "lat": 39.6039855,
  "lon": 2.6535049
},
{
  "type": "node",
  "id": 3881662517,
  "lat": 39.6036955,
  "lon": 2.6534573
},
{
  "type": "node",
  "id": 3881662518,
  "lat": 39.6037341,
  "lon": 2.6530623
},
{
  "type": "node",
  "id": 4346041708,
  "lat": 39.5198856,
  "lon": 2.7506408
},
{
  "type": "node",
  "id": 4346041709,
  "lat": 39.5198116,
  "lon": 2.7505976
},
{
  "type": "node",
  "id": 4346041710,
  "lat": 39.5196431,
  "lon": 2.7511473
},
{
  "type": "node",
  "id": 4346041711,
  "lat": 39.5199912,
  "lon": 2.7518123
},
{
  "type": "node",
  "id": 4346041712,
  "lat": 39.5201116,
  "lon": 2.7517163
},
{
  "type": "node",
  "id": 4346041713,
  "lat": 39.5197912,
  "lon": 2.7511329
},
{
  "type": "node",
  "id": 4346041714,
  "lat": 39.5197356,
  "lon": 2.7511065
},
{
  "type": "node",
  "id": 3623777446,
  "lat": 39.4909857,
  "lon": 2.8952009
},
{
  "type": "node",
  "id": 3623777448,
  "lat": 39.4911603,
  "lon": 2.8947995
},
{
  "type": "node",
  "id": 3623777450,
  "lat": 39.4913946,
  "lon": 2.8950318
},
{
  "type": "node",
  "id": 3623777451,
  "lat": 39.4913993,
  "lon": 2.8954964
},
{
  "type": "node",
  "id": 3623777452,
  "lat": 39.4914150,
  "lon": 2.8949849
},
{
  "type": "node",
  "id": 3623777454,
  "lat": 39.4915487,
  "lon": 2.8951459
},
{
  "type": "node",
  "id": 3091744863,
  "lat": 39.6473593,
  "lon": 2.7782237
},
{
  "type": "node",
  "id": 3091746265,
  "lat": 39.6472706,
  "lon": 2.7783299
},
{
  "type": "node",
  "id": 3091746266,
  "lat": 39.6471655,
  "lon": 2.7782236
},
{
  "type": "node",
  "id": 3091746267,
  "lat": 39.6471216,
  "lon": 2.7781375
},
{
  "type": "node",
  "id": 3091746268,
  "lat": 39.6471867,
  "lon": 2.7781585
},
{
  "type": "node",
  "id": 3091746269,
  "lat": 39.6472405,
  "lon": 2.7781174
},
{
  "type": "node",
  "id": 3091746270,
  "lat": 39.6472891,
  "lon": 2.7780878
},
{
  "type": "node",
  "id": 3199969672,
  "lat": 39.6471555,
  "lon": 2.7781042
},
{
  "type": "node",
  "id": 3199969684,
  "lat": 39.6472016,
  "lon": 2.7781956
},
{
  "type": "node",
  "id": 3199969697,
  "lat": 39.6472467,
  "lon": 2.7781298
},
{
  "type": "node",
  "id": 3199969703,
  "lat": 39.6472959,
  "lon": 2.7781014
},
{
  "type": "node",
  "id": 668558216,
  "lat": 39.7511228,
  "lon": 2.6293839
},
{
  "type": "node",
  "id": 668558217,
  "lat": 39.7512559,
  "lon": 2.6293066
},
{
  "type": "node",
  "id": 668558218,
  "lat": 39.7510130,
  "lon": 2.6290906
},
{
  "type": "node",
  "id": 668558219,
  "lat": 39.7511482,
  "lon": 2.6291405
},
{
  "type": "node",
  "id": 668558220,
  "lat": 39.7511875,
  "lon": 2.6292483
},
{
  "type": "node",
  "id": 668558221,
  "lat": 39.7512272,
  "lon": 2.6292270
},
{
  "type": "node",
  "id": 668558223,
  "lat": 39.7513760,
  "lon": 2.6288710
},
{
  "type": "node",
  "id": 668558224,
  "lat": 39.7513591,
  "lon": 2.6291617
},
{
  "type": "node",
  "id": 668558225,
  "lat": 39.7513217,
  "lon": 2.6290439
},
{
  "type": "node",
  "id": 668558226,
  "lat": 39.7514591,
  "lon": 2.6291740
},
{
  "type": "node",
  "id": 4271575114,
  "lat": 39.7512287,
  "lon": 2.6290924
},
{
  "type": "node",
  "id": 4271575116,
  "lat": 39.7511733,
  "lon": 2.6292176
},
{
  "type": "node",
  "id": 5661619852,
  "lat": 39.7514299,
  "lon": 2.6290275
},
{
  "type": "node",
  "id": 5661619853,
  "lat": 39.7514124,
  "lon": 2.6290382
},
{
  "type": "node",
  "id": 5661619854,
  "lat": 39.7513567,
  "lon": 2.6292381
},
{
  "type": "node",
  "id": 5661619855,
  "lat": 39.7513381,
  "lon": 2.6291791
},
{
  "type": "node",
  "id": 6694661509,
  "lat": 39.7510799,
  "lon": 2.6292692
},
{
  "type": "node",
  "id": 3423477705,
  "lat": 39.7152934,
  "lon": 2.9070794
},
{
  "type": "node",
  "id": 3423477709,
  "lat": 39.7153764,
  "lon": 2.9069594
},
{
  "type": "node",
  "id": 3423477727,
  "lat": 39.7156513,
  "lon": 2.9072812
},
{
  "type": "node",
  "id": 3423477755,
  "lat": 39.7158338,
  "lon": 2.9077120
},
{
  "type": "node",
  "id": 3423477763,
  "lat": 39.7159169,
  "lon": 2.9075920
},
{
  "type": "node",
  "id": 1001306980,
  "lat": 39.5178568,
  "lon": 3.0228665
},
{
  "type": "node",
  "id": 1001307003,
  "lat": 39.5179592,
  "lon": 3.0228306
},
{
  "type": "node",
  "id": 1001307082,
  "lat": 39.5178900,
  "lon": 3.0230258
},
{
  "type": "node",
  "id": 1001307108,
  "lat": 39.5179452,
  "lon": 3.0230064
},
{
  "type": "node",
  "id": 1001307136,
  "lat": 39.5179557,
  "lon": 3.0230570
},
{
  "type": "node",
  "id": 1001307157,
  "lat": 39.5180030,
  "lon": 3.0230404
},
{
  "type": "way",
  "id": 49003246,
  "nodes": [
    621996342,
    621996343,
    621996344,
    2271035374,
    2271035372,
    621996349,
    2271035383,
    2271035381,
    2271035379,
    621996352,
    621996367,
    621996366,
    621996353,
    621996355,
    621996356,
    621996358,
    621996359,
    621996361,
    2271035370,
    621996364,
    2271035368,
    2271035366,
    2271035364,
    621996365,
    2271035362,
    2271035360,
    2271035358,
    2271035356,
    621996362,
    621996350,
    621996340,
    2270865627,
    2270865631,
    621996341,
    2270865625,
    621996345,
    2270865637,
    2270865666,
    2270865674,
    621996342
  ]
},
{
  "type": "way",
  "id": 217841139,
  "nodes": [
    2271428749,
    2271428739,
    2271428738,
    2271428737,
    2270865670,
    2271428743,
    2271428748,
    2271428745,
    2271428741,
    2271428740,
    2271428742,
    2271428747,
    2271428746,
    2271428749
  ]
},
{
  "type": "way",
  "id": 123725957,
  "nodes": [
    1378793418,
    4491449729,
    1378793406,
    6896683046,
    6896128085,
    6896080484,
    6896683039,
    6896080479,
    6896080478,
    6896683040,
    6896080483,
    6896080480,
    6896080482,
    6896080481,
    1921982940,
    7017677794,
    1378793399,
    6896110030,
    1378793400,
    1921982941,
    1921982961,
    1379057738,
    1378793402,
    1378793401,
    1378793404,
    1378793415,
    1378793418
  ]
},
{
  "type": "way",
  "id": 181767876,
  "nodes": [
    1921982966,
    1921982964,
    6896110029,
    1921982960,
    1921982962,
    1921982965,
    1921982966
  ]
}

  ]
}
