{
  "version": 0.6,
  "generator": "Overpass API 0.7.55.9 ab41fea6",
  "osm3s": {
    "timestamp_osm_base": "2020-02-14T17:07:02Z",
    "copyright": "The data included in this document is from www.openstreetmap.org. The data is made available under ODbL."
  },
  "elements": [

{
  "type": "node",
  "id": 865237157,
  "lat": 46.5378841,
  "lon": 30.6277491,
  "tags": {
    "name": "Катакомби (Музей партизанської слави)",
    "name:de": "Katakomben (Museum des Kampfes der Partisanen im 2.WK)",
    "name:en": "Catacombs (Museum of Partisan Glory)",
    "name:ru": "Катакомбы (Музей партизанской славы)",
    "tourism": "museum"
  }
},
{
  "type": "node",
  "id": 2381109894,
  "lat": 46.4876099,
  "lon": 30.7311211,
  "tags": {
    "name": "Палеонтологический музей",
    "name:ru": "Палеонтологический музей",
    "name:uk": "Палеонтологічний музей",
    "tourism": "museum"
  }
},
{
  "type": "node",
  "id": 2388597845,
  "lat": 46.4863083,
  "lon": 30.7389522,
  "tags": {
    "name": "Музей Контрабанды",
    "name:ru": "Музей Контрабанды",
    "name:uk": "Музей Контрабанди",
    "opening_hours": "Mo-Su 11:00-20:00",
    "tourism": "museum"
  }
},
{
  "type": "node",
  "id": 3077696347,
  "lat": 46.5376838,
  "lon": 30.6262301,
  "tags": {
    "entrance": "yes",
    "name": "Вхід до Катакомб",
    "name:de": "Zugang zu den Katakomben",
    "name:en": "Entrance to the Catacombs",
    "name:ru": "Вход в Катакомбы",
    "name:uk": "Вхід до Катакомб",
    "tourism": "museum"
  }
},
{
  "type": "node",
  "id": 3738000759,
  "lat": 46.4598798,
  "lon": 30.7491163,
  "tags": {
    "addr:housenumber": "4е",
    "addr:street": "Шевченка проспект",
    "email": "office@muzeynauki.com",
    "name": "Музей цікавої науки",
    "name:en": "Museum of Interesting Science",
    "name:ru": "Музей интересной науки",
    "opening_hours": "Su-Th 10:00-21:00; Fr-Sa 10:00-22:00",
    "phone": "+380487972111",
    "tourism": "museum",
    "website": "http://min.od.ua/"
  }
},
{
  "type": "node",
  "id": 3899135573,
  "lat": 46.4800983,
  "lon": 30.7301858,
  "tags": {
    "name": "Музей історії євреїв \"Мігдаль-Шорашим\"",
    "name:ru": "Музей истории евреев \"Мигдаль-Шорашим\"",
    "tourism": "museum"
  }
},
{
  "type": "node",
  "id": 3906733250,
  "lat": 46.4841799,
  "lon": 30.7407022,
  "tags": {
    "name": "Музей воскових фігур \"У баби Уті\"",
    "name:en": "U Baby Uti",
    "name:ru": "Музей восковых фигур \"У бабы Ути\"",
    "tourism": "museum"
  }
},
{
  "type": "node",
  "id": 3906733251,
  "lat": 46.4863059,
  "lon": 30.7428186,
  "tags": {
    "name": "Музей воскових фігур",
    "name:ru": "Музей восковых фигур",
    "tourism": "museum"
  }
},
{
  "type": "node",
  "id": 3906733252,
  "lat": 46.4781544,
  "lon": 30.7429719,
  "tags": {
    "name": "Музей історії органів внутрішніх справ",
    "name:ru": "Музей истории органов внутренних дел",
    "tourism": "museum"
  }
},
{
  "type": "node",
  "id": 3906733254,
  "lat": 46.4825190,
  "lon": 30.7374725,
  "tags": {
    "name": "Одеський музей нумізматики",
    "name:en": "Odessa Numismatics Museum",
    "name:ru": "Одесский музей нумизматики",
    "tourism": "museum",
    "wikidata": "Q7077716",
    "wikipedia": "uk:Одеський музей нумізматики"
  }
},
{
  "type": "node",
  "id": 3906733256,
  "lat": 46.4852409,
  "lon": 30.7379323,
  "tags": {
    "name": "Степова Україна",
    "name:en": "Stepova Ukraina",
    "name:ru": "Степная Украина",
    "tourism": "museum"
  }
},
{
  "type": "node",
  "id": 3906797644,
  "lat": 46.4823381,
  "lon": 30.7364581,
  "tags": {
    "name": "Музей \"Філікі Етерія\"",
    "name:ru": "Музей \"Филики Этерия\"",
    "tourism": "museum"
  }
},
{
  "type": "node",
  "id": 3906797645,
  "lat": 46.4784037,
  "lon": 30.7446086,
  "tags": {
    "email": "museumbleschunov@gmail.com",
    "facebook": "https://m.facebook.com/bleschunov",
    "internet_access": "wlan",
    "name": "Музей приватних коллекцій ім. О. В. Блещунова",
    "name:en": "Odessa Bleschunov Municipal Museum of Personal Collections",
    "name:ru": "Музей личных коллекций им. А. В. Блещунова",
    "opening_hours": "Th-Tu 10:30-17:30",
    "phone": "+38 0487221081",
    "tourism": "museum",
    "website": "http://www.omlk.com.ua"
  }
},
{
  "type": "node",
  "id": 3906797646,
  "lat": 46.4785028,
  "lon": 30.7457154,
  "tags": {
    "name": "Музей спортивної слави ім. чемпіонки Олімпійських ігор Юлії Рябчинської",
    "name:ru": "Музей спортивной славы им. чемпионки Олимпийских игр Юлии Рябчинской",
    "tourism": "museum"
  }
},
{
  "type": "node",
  "id": 3906797647,
  "lat": 46.4847350,
  "lon": 30.7456211,
  "tags": {
    "name": "Музей ім. Ф. П. Деволана",
    "name:ru": "Музей им. Ф. П. Деволана",
    "tourism": "museum",
    "wheelchair": "yes"
  }
},
{
  "type": "node",
  "id": 3906919398,
  "lat": 46.4842781,
  "lon": 30.7267977,
  "tags": {
    "name": "Музей історії звуку Василя Пінчука",
    "name:ru": "Музей истории звука Василия Пинчука",
    "opening_hours": "Mo-Sa 12:00-17:15",
    "tourism": "museum"
  }
},
{
  "type": "node",
  "id": 3907455192,
  "lat": 46.4722842,
  "lon": 30.7420006,
  "tags": {
    "addr:postcode": "65012",
    "addr:street": "Велика Арнаутська вулиця",
    "name": "Одеський будинок-музей М. К. Реріха",
    "name:pl": "Muzeum-dom Mikołaja Roericha",
    "name:ru": "Одесский дом-музей Н. К. Рериха",
    "opening_hours": "10:00-18:00",
    "phone": "+380 48 715 5858",
    "tourism": "museum",
    "website": "http://www.odessa-roerich-house.od.ua/"
  }
},
{
  "type": "node",
  "id": 3908487459,
  "lat": 46.4715692,
  "lon": 30.7318093,
  "tags": {
    "name": "Музей Холокосту пам'яті жертв фашизму",
    "name:ru": "Музей Холокоста памяти жертв фашизма",
    "tourism": "museum",
    "wikidata": "Q25381286",
    "wikipedia": "uk:Музей Голокосту — жертв фашизму (Одеса)"
  }
},
{
  "type": "node",
  "id": 3908754195,
  "lat": 46.4604992,
  "lon": 30.7043627,
  "tags": {
    "name": "Музей коньячної справи ім. М. Л. Шустова",
    "name:ru": "Музей коньячного дела им. М. Л. Шустова",
    "tourism": "museum"
  }
},
{
  "type": "node",
  "id": 3923664384,
  "lat": 46.4549034,
  "lon": 30.7607484,
  "tags": {
    "name": "Музей В. П. Філатова",
    "name:ru": "Музей В. П. Филатова",
    "tourism": "museum"
  }
},
{
  "type": "node",
  "id": 3923664385,
  "lat": 46.4603267,
  "lon": 30.7572111,
  "tags": {
    "name": "Музей Одеської кіностудії",
    "name:en": "Odessa Film Studio Museum",
    "name:ru": "Музей Одесской киностудии",
    "tourism": "museum"
  }
},
{
  "type": "node",
  "id": 3995728852,
  "lat": 46.4841360,
  "lon": 30.7398557,
  "tags": {
    "name": "Музей шоколада",
    "name:en": "Museum of Chocolate",
    "name:ru": "Музей шоколада",
    "opening_hours": "11:00-20:00",
    "tourism": "museum"
  }
},
{
  "type": "node",
  "id": 4344215873,
  "lat": 46.4901404,
  "lon": 30.7371358,
  "tags": {
    "layer": "-1",
    "name": "Музей вогню",
    "name:ru": "Музей огня",
    "name:uk": "Музей вогню",
    "tourism": "museum",
    "wheelchair": "no"
  }
},
{
  "type": "node",
  "id": 4350833549,
  "lat": 46.4740574,
  "lon": 30.7129053,
  "tags": {
    "man_made": "mineshaft",
    "name": "Таємниці підземної Одеси",
    "name:it": "I segreti di Odessa sotterranea",
    "name:ru": "Тайны подземной Одессы",
    "tourism": "museum"
  }
},
{
  "type": "node",
  "id": 6241969114,
  "lat": 46.4591657,
  "lon": 30.7140572,
  "tags": {
    "name": "Філіал музею історії КП \"Одесміськелектротранс\"",
    "operator": "КП \"Одесміськелектротранс\"",
    "tourism": "museum"
  }
},
{
  "type": "node",
  "id": 6735886148,
  "lat": 46.4753489,
  "lon": 30.7273275,
  "tags": {
    "image": "https://upload.wikimedia.org/wikipedia/commons/f/f7/Apartment-Museum-Utesov-3.jpg",
    "name": "Музей-квартира Леонида Утёсова",
    "name:en": "The Apartment-Museum of Leonid Utesov",
    "name:ru": "Музей-квартира Леонида Утёсова",
    "name:uk": "Музей-квартира Леоніда Утьосова",
    "opening_hours": "Mo-Tu 11:00-17:00; Th-Su 11:00-17:00; We off",
    "tourism": "museum",
    "wikipedia": "ru:Утёсов, Леонид Осипович"
  }
},
{
  "type": "node",
  "id": 7024310256,
  "lat": 46.4780192,
  "lon": 30.7458370,
  "tags": {
    "name": "\"Катакомби Одеси\"",
    "tourism": "museum"
  }
},
{
  "type": "node",
  "id": 7028817045,
  "lat": 46.3726391,
  "lon": 30.7182530,
  "tags": {
    "name": "Музей героїчної оборони Одеси",
    "tourism": "museum"
  }
},
{
  "type": "node",
  "id": 7040325006,
  "lat": 46.4642665,
  "lon": 30.7518516,
  "tags": {
    "name": "Військово-історичний музей",
    "phone": "+38048 704 7151",
    "tourism": "museum"
  }
},
{
  "type": "way",
  "id": 38046973,
  "nodes": [
    447134662,
    447134665,
    447134667,
    447134669,
    447134662
  ],
  "tags": {
    "building": "yes",
    "name": "Музей \"Християнська Одеса\"",
    "name:ru": "Музей \"Христианская Одесса\"",
    "tourism": "museum"
  }
},
{
  "type": "way",
  "id": 38187423,
  "nodes": [
    449713516,
    4359370994,
    449714124,
    4381465004,
    1751042294,
    1751042353,
    3902355713,
    4381465007,
    449714134,
    1751042425,
    1751042421,
    1751042400,
    1751042398,
    1751042407,
    3902355729,
    3902355734,
    1751042456,
    449713516
  ],
  "tags": {
    "building": "yes",
    "building:levels": "3",
    "name": "Музей західного та східного мистецтва",
    "name:ru": "Одесский музей западного и восточного искусства",
    "opening_hours": "Th-Tu 10:00-18:00",
    "phone": "+380487246746",
    "tourism": "museum",
    "website": "http://museum.odessa.ua",
    "wikidata": "Q12130550",
    "wikipedia": "uk:Музей західного і східного мистецтва"
  }
},
{
  "type": "way",
  "id": 160116249,
  "nodes": [
    1721877988,
    4625318491,
    4625318489,
    1721878013,
    1721878263,
    4625318490,
    1750183271,
    1721877962,
    2365392628,
    3903490668,
    2365392629,
    1721878235,
    2365392632,
    1721877995,
    4227523208,
    4227523209,
    1721878151,
    4227523210,
    1721878226,
    4227523211,
    1721878112,
    4227523212,
    4227523213,
    1721878225,
    4227523214,
    1721878034,
    1721877988
  ],
  "tags": {
    "addr:housenumber": "4",
    "addr:postcode": "65026",
    "addr:street": "Ланжеронівська вулиця",
    "building": "yes",
    "building:levels": "2",
    "height": "15",
    "name": "Археологічний музей",
    "name:de": "Archäologisches Museum",
    "name:en": "Odessa Archeological Museum",
    "name:ja": "オデッサ考古学博物館",
    "name:pl": "Muzeum Archeologiczne",
    "name:ru": "Археологический музей",
    "name:uk": "Археологічний музей",
    "opening_hours": "Mo-Su 10:00-17:00",
    "phone": "+380487226302",
    "tourism": "museum",
    "website": "http://www.archaeology.odessa.ua",
    "wikidata": "Q7077703",
    "wikipedia": "uk:Одеський археологічний музей"
  }
},
{
  "type": "way",
  "id": 160116271,
  "nodes": [
    1721878013,
    1721878258,
    2365390078,
    2365390085,
    2365390089,
    2365390091,
    2365390092,
    2365390094,
    2365390096,
    2365390095,
    2365390093,
    1721878216,
    2365390080,
    2365390086,
    2365390088,
    2365390087,
    2365390084,
    2365390082,
    2365390076,
    2365390074,
    2365390073,
    1721878213,
    2365390072,
    2365390071,
    2365390070,
    2365390067,
    2365390065,
    2365390064,
    2365390066,
    2365390068,
    1721878007,
    3903490665,
    1721878263,
    1721878013
  ],
  "tags": {
    "addr:housenumber": "2",
    "addr:postcode": "65026",
    "addr:street": "Ланжеронівська вулиця",
    "building": "yes",
    "building:levels": "2",
    "name": "Літературний музей",
    "name:de": "Literaturmuseum",
    "name:en": "Museum of Literature",
    "name:pl": "Muzeum Literatury",
    "name:ru": "Литературный музей",
    "name:uk": "Літературний музей",
    "opening_hours": "Mo-Su 10:00-17:00",
    "phone": "+380487223370",
    "tourism": "museum",
    "website": "http://www.museum-literature.odessa.ua",
    "wikidata": "Q4331444",
    "wikipedia": "uk:Державний літературний музей (Одеса)"
  }
},
{
  "type": "way",
  "id": 161034628,
  "nodes": [
    1730389059,
    1730389879,
    1730389753,
    3931434811,
    1730389059
  ],
  "tags": {
    "addr:housenumber": "6",
    "addr:postcode": "65014",
    "addr:street": "Чорноморська вулиця",
    "building": "yes",
    "image": "https://commons.wikimedia.org/wiki/Category:Konstantin_Paustovsky#/media/File:Museum-Odessa-2.jpg",
    "name": "Меморіальний музей К.Г. Паустовського",
    "name:ru": "Мемориальный музей К. Г. Паустовского",
    "tourism": "museum",
    "wikidata": "Q368812",
    "wikimedia_commons": "Category:Konstantin Paustovsky",
    "wikipedia:ru": "Паустовский, Константин Георгиевич"
  }
},
{
  "type": "way",
  "id": 233445738,
  "nodes": [
    2418333605,
    2418333604,
    2418333589,
    3908487479,
    2418333590,
    2418333605
  ],
  "tags": {
    "addr:housenumber": "1",
    "addr:postcode": "65007",
    "building": "yes",
    "name": "Музей історії Одесміськелектротрансу",
    "name:ru": "Музей истории Одесгорэлектротранса",
    "tourism": "museum"
  }
},
{
  "type": "way",
  "id": 261814383,
  "nodes": [
    2674423012,
    2674423022,
    2674423016,
    2674423019,
    5155878730,
    2674423009,
    2674423005,
    2674423003,
    2674422997,
    2674423012
  ],
  "tags": {
    "building": "yes",
    "historic": "fort",
    "name": "Стаціонарна батарея берегової оборони № 411",
    "tourism": "museum"
  }
},
{
  "type": "way",
  "id": 386807719,
  "nodes": [
    2440638512,
    2440638509,
    2440638510,
    1730340637,
    1730340634,
    1730340463,
    1730340727,
    3901526549,
    2440638511,
    2440638512
  ],
  "tags": {
    "name": "Військово-історичний музей Південного оперативного командування",
    "name:ru": "Военно-исторический музей Южного оперативного командования",
    "tourism": "museum"
  }
},
{
  "type": "way",
  "id": 386827558,
  "nodes": [
    1721877959,
    1721878251,
    3675354713,
    3901849690,
    3675354714,
    3901849695,
    3901849697,
    3901849703,
    5494693657,
    4381465099,
    5494693626,
    1722084095,
    1722084075,
    3901849729,
    1722084102,
    3901849727,
    3901849726,
    3901849723,
    1721878120,
    1721877931,
    3902356015,
    3902355989,
    1721877959
  ],
  "tags": {
    "name": "Історико-краєзнавчий музей",
    "name:ru": "Историко-краеведческий музей",
    "tourism": "museum",
    "website": "http://www.history.odessa.ua",
    "wikidata": "Q15159013",
    "wikipedia": "ru:Одесский историко-краеведческий музей"
  }
},
{
  "type": "way",
  "id": 387009956,
  "nodes": [
    2365390068,
    1721878007,
    3903490664,
    3903490663,
    3903490662,
    3902355863,
    3903490666,
    3902355910,
    3903490671,
    2365390064,
    2365390066,
    2365390068
  ],
  "tags": {
    "leisure": "garden",
    "name": "\"Сад скульптур\" Літературного музея",
    "name:ru": "\"Сад скульптур\" Литературного музея",
    "tourism": "museum"
  }
},
{
  "type": "way",
  "id": 387384447,
  "nodes": [
    3906854015,
    3906854013,
    3906854014,
    3906854016,
    3906854018,
    3906854020,
    3906854022,
    3906854024,
    3906854026,
    3906854028,
    3906854027,
    3906854025,
    3906854023,
    3906854021,
    3906854019,
    3906854017,
    3906854015
  ],
  "tags": {
    "building": "yes",
    "building:levels": "2",
    "name": "Порохова вежа",
    "tourism": "museum"
  }
},
{
  "type": "way",
  "id": 474077243,
  "nodes": [
    4681001226,
    5979585403,
    5979585400,
    5979585401,
    5979585402,
    4681001227,
    4681001236,
    4681001261,
    4681001228,
    3898520637,
    5490227221,
    4681001226
  ],
  "tags": {
    "addr:housenumber": "9",
    "addr:postcode": "65003",
    "building": "yes",
    "building:levels": "1",
    "museum": "history",
    "name": "Музей Історії розвитку Українського козацтва",
    "name:en": "Museum of Ukrainian Cossack",
    "name:ru": "Музей истории развития Украинского казачества",
    "opening_hours": "Mo-Fr 10:00-14:30",
    "phone": "+38 (050) 510–92–86",
    "tourism": "museum",
    "website": "https://cossacksmuseu.jimdo.com/"
  }
},
{
  "type": "relation",
  "id": 4681624,
  "members": [
    {
      "type": "way",
      "ref": 38173849,
      "role": "outer"
    },
    {
      "type": "way",
      "ref": 333405132,
      "role": "inner"
    }
  ],
  "tags": {
    "addr:housenumber": "13",
    "addr:street": "Пушкінська вулиця",
    "building": "yes",
    "building:levels": "2",
    "name": "Музей А. С. Пушкіна",
    "name:ru": "Музей А. С. Пушкина",
    "tourism": "museum",
    "type": "multipolygon"
  }
},
{
  "type": "node",
  "id": 2674422997,
  "lat": 46.3724557,
  "lon": 30.7182167
},
{
  "type": "node",
  "id": 2674423003,
  "lat": 46.3725258,
  "lon": 30.7183544
},
{
  "type": "node",
  "id": 2674423005,
  "lat": 46.3725688,
  "lon": 30.7183084
},
{
  "type": "node",
  "id": 2674423009,
  "lat": 46.3725971,
  "lon": 30.7183641
},
{
  "type": "node",
  "id": 2674423012,
  "lat": 46.3726527,
  "lon": 30.7180061
},
{
  "type": "node",
  "id": 2674423016,
  "lat": 46.3726787,
  "lon": 30.7181909
},
{
  "type": "node",
  "id": 2674423019,
  "lat": 46.3727071,
  "lon": 30.7182466
},
{
  "type": "node",
  "id": 2674423022,
  "lat": 46.3727228,
  "lon": 30.7181439
},
{
  "type": "node",
  "id": 5155878730,
  "lat": 46.3726659,
  "lon": 30.7182906
},
{
  "type": "node",
  "id": 2418333589,
  "lat": 46.4660201,
  "lon": 30.7354411
},
{
  "type": "node",
  "id": 2418333590,
  "lat": 46.4660283,
  "lon": 30.7353093
},
{
  "type": "node",
  "id": 2418333604,
  "lat": 46.4661934,
  "lon": 30.7354637
},
{
  "type": "node",
  "id": 2418333605,
  "lat": 46.4662015,
  "lon": 30.7353328
},
{
  "type": "node",
  "id": 3908487479,
  "lat": 46.4660223,
  "lon": 30.7354037
},
{
  "type": "node",
  "id": 1730340463,
  "lat": 46.4643360,
  "lon": 30.7517861
},
{
  "type": "node",
  "id": 1730340634,
  "lat": 46.4644334,
  "lon": 30.7517955
},
{
  "type": "node",
  "id": 1730340637,
  "lat": 46.4644259,
  "lon": 30.7519330
},
{
  "type": "node",
  "id": 1730340727,
  "lat": 46.4643478,
  "lon": 30.7515690
},
{
  "type": "node",
  "id": 2440638509,
  "lat": 46.4641381,
  "lon": 30.7522429
},
{
  "type": "node",
  "id": 2440638510,
  "lat": 46.4644139,
  "lon": 30.7522559
},
{
  "type": "node",
  "id": 2440638511,
  "lat": 46.4644170,
  "lon": 30.7509373
},
{
  "type": "node",
  "id": 2440638512,
  "lat": 46.4642193,
  "lon": 30.7509083
},
{
  "type": "node",
  "id": 3901526549,
  "lat": 46.4643889,
  "lon": 30.7515740
},
{
  "type": "node",
  "id": 1721877931,
  "lat": 46.4863680,
  "lon": 30.7358290
},
{
  "type": "node",
  "id": 1721877959,
  "lat": 46.4860749,
  "lon": 30.7357918
},
{
  "type": "node",
  "id": 1721878120,
  "lat": 46.4863795,
  "lon": 30.7355310
},
{
  "type": "node",
  "id": 1721878251,
  "lat": 46.4860895,
  "lon": 30.7355837
},
{
  "type": "node",
  "id": 1722084075,
  "lat": 46.4864174,
  "lon": 30.7350708
},
{
  "type": "node",
  "id": 1722084095,
  "lat": 46.4864234,
  "lon": 30.7349708
},
{
  "type": "node",
  "id": 1722084102,
  "lat": 46.4864087,
  "lon": 30.7352397
},
{
  "type": "node",
  "id": 3675354713,
  "lat": 46.4860929,
  "lon": 30.7355374
},
{
  "type": "node",
  "id": 3675354714,
  "lat": 46.4861041,
  "lon": 30.7353089
},
{
  "type": "node",
  "id": 3901849690,
  "lat": 46.4860956,
  "lon": 30.7354830
},
{
  "type": "node",
  "id": 3901849695,
  "lat": 46.4861357,
  "lon": 30.7350354
},
{
  "type": "node",
  "id": 3901849697,
  "lat": 46.4861417,
  "lon": 30.7349342
},
{
  "type": "node",
  "id": 3901849703,
  "lat": 46.4861899,
  "lon": 30.7349402
},
{
  "type": "node",
  "id": 3901849723,
  "lat": 46.4863813,
  "lon": 30.7354906
},
{
  "type": "node",
  "id": 3901849726,
  "lat": 46.4864022,
  "lon": 30.7353256
},
{
  "type": "node",
  "id": 3901849727,
  "lat": 46.4864069,
  "lon": 30.7352479
},
{
  "type": "node",
  "id": 3901849729,
  "lat": 46.4864132,
  "lon": 30.7351412
},
{
  "type": "node",
  "id": 3902355989,
  "lat": 46.4860639,
  "lon": 30.7359685
},
{
  "type": "node",
  "id": 3902356015,
  "lat": 46.4863516,
  "lon": 30.7360114
},
{
  "type": "node",
  "id": 4381465099,
  "lat": 46.4863611,
  "lon": 30.7349617
},
{
  "type": "node",
  "id": 5494693626,
  "lat": 46.4863969,
  "lon": 30.7349669
},
{
  "type": "node",
  "id": 5494693657,
  "lat": 46.4862173,
  "lon": 30.7349436
},
{
  "type": "node",
  "id": 449533521,
  "lat": 46.4814484,
  "lon": 30.7429099
},
{
  "type": "node",
  "id": 4381451578,
  "lat": 46.4815968,
  "lon": 30.7429353
},
{
  "type": "node",
  "id": 449533520,
  "lat": 46.4814216,
  "lon": 30.7432438
},
{
  "type": "node",
  "id": 449533678,
  "lat": 46.4817678,
  "lon": 30.7429645
},
{
  "type": "node",
  "id": 449713516,
  "lat": 46.4828944,
  "lon": 30.7431414
},
{
  "type": "node",
  "id": 449714124,
  "lat": 46.4824578,
  "lon": 30.7430666
},
{
  "type": "node",
  "id": 449714134,
  "lat": 46.4826038,
  "lon": 30.7433864
},
{
  "type": "node",
  "id": 1721877962,
  "lat": 46.4849849,
  "lon": 30.7438173
},
{
  "type": "node",
  "id": 1721877988,
  "lat": 46.4851567,
  "lon": 30.7441695
},
{
  "type": "node",
  "id": 1721877995,
  "lat": 46.4851707,
  "lon": 30.7439333
},
{
  "type": "node",
  "id": 1721878007,
  "lat": 46.4848499,
  "lon": 30.7446963
},
{
  "type": "node",
  "id": 1721878013,
  "lat": 46.4849423,
  "lon": 30.7442934
},
{
  "type": "node",
  "id": 1721878034,
  "lat": 46.4851606,
  "lon": 30.7440987
},
{
  "type": "node",
  "id": 1721878112,
  "lat": 46.4852241,
  "lon": 30.7440508
},
{
  "type": "node",
  "id": 1721878151,
  "lat": 46.4852123,
  "lon": 30.7439578
},
{
  "type": "node",
  "id": 1721878213,
  "lat": 46.4851545,
  "lon": 30.7450151
},
{
  "type": "node",
  "id": 1721878216,
  "lat": 46.4852845,
  "lon": 30.7447624
},
{
  "type": "node",
  "id": 1721878225,
  "lat": 46.4851962,
  "lon": 30.7440923
},
{
  "type": "node",
  "id": 1721878226,
  "lat": 46.4852283,
  "lon": 30.7440027
},
{
  "type": "node",
  "id": 1721878235,
  "lat": 46.4851077,
  "lon": 30.7438384
},
{
  "type": "node",
  "id": 1721878258,
  "lat": 46.4849489,
  "lon": 30.7444004
},
{
  "type": "node",
  "id": 1721878263,
  "lat": 46.4848639,
  "lon": 30.7442842
},
{
  "type": "node",
  "id": 1750183271,
  "lat": 46.4848975,
  "lon": 30.7437947
},
{
  "type": "node",
  "id": 1751042294,
  "lat": 46.4824167,
  "lon": 30.7436719
},
{
  "type": "node",
  "id": 1751042353,
  "lat": 46.4825474,
  "lon": 30.7436866
},
{
  "type": "node",
  "id": 1751042398,
  "lat": 46.4827720,
  "lon": 30.7436424
},
{
  "type": "node",
  "id": 1751042400,
  "lat": 46.4827825,
  "lon": 30.7435046
},
{
  "type": "node",
  "id": 1751042407,
  "lat": 46.4827984,
  "lon": 30.7436467
},
{
  "type": "node",
  "id": 1751042421,
  "lat": 46.4828117,
  "lon": 30.7435093
},
{
  "type": "node",
  "id": 1751042425,
  "lat": 46.4828184,
  "lon": 30.7434211
},
{
  "type": "node",
  "id": 1751042456,
  "lat": 46.4828511,
  "lon": 30.7436797
},
{
  "type": "node",
  "id": 2365390064,
  "lat": 46.4850908,
  "lon": 30.7450061
},
{
  "type": "node",
  "id": 2365390065,
  "lat": 46.4850935,
  "lon": 30.7450288
},
{
  "type": "node",
  "id": 2365390066,
  "lat": 46.4850947,
  "lon": 30.7449806
},
{
  "type": "node",
  "id": 2365390067,
  "lat": 46.4851066,
  "lon": 30.7450478
},
{
  "type": "node",
  "id": 2365390068,
  "lat": 46.4851071,
  "lon": 30.7449622
},
{
  "type": "node",
  "id": 2365390070,
  "lat": 46.4851249,
  "lon": 30.7450539
},
{
  "type": "node",
  "id": 2365390071,
  "lat": 46.4851428,
  "lon": 30.7450457
},
{
  "type": "node",
  "id": 2365390072,
  "lat": 46.4851529,
  "lon": 30.7450313
},
{
  "type": "node",
  "id": 2365390073,
  "lat": 46.4851953,
  "lon": 30.7449406
},
{
  "type": "node",
  "id": 2365390074,
  "lat": 46.4852082,
  "lon": 30.7449550
},
{
  "type": "node",
  "id": 2365390076,
  "lat": 46.4852240,
  "lon": 30.7449565
},
{
  "type": "node",
  "id": 2365390078,
  "lat": 46.4852394,
  "lon": 30.7446997
},
{
  "type": "node",
  "id": 2365390080,
  "lat": 46.4852408,
  "lon": 30.7448428
},
{
  "type": "node",
  "id": 2365390082,
  "lat": 46.4852416,
  "lon": 30.7449507
},
{
  "type": "node",
  "id": 2365390084,
  "lat": 46.4852512,
  "lon": 30.7449284
},
{
  "type": "node",
  "id": 2365390085,
  "lat": 46.4852530,
  "lon": 30.7446860
},
{
  "type": "node",
  "id": 2365390086,
  "lat": 46.4852557,
  "lon": 30.7448604
},
{
  "type": "node",
  "id": 2365390087,
  "lat": 46.4852609,
  "lon": 30.7449086
},
{
  "type": "node",
  "id": 2365390088,
  "lat": 46.4852612,
  "lon": 30.7448856
},
{
  "type": "node",
  "id": 2365390089,
  "lat": 46.4852641,
  "lon": 30.7446802
},
{
  "type": "node",
  "id": 2365390091,
  "lat": 46.4852780,
  "lon": 30.7446842
},
{
  "type": "node",
  "id": 2365390092,
  "lat": 46.4852896,
  "lon": 30.7446946
},
{
  "type": "node",
  "id": 2365390093,
  "lat": 46.4852953,
  "lon": 30.7447594
},
{
  "type": "node",
  "id": 2365390094,
  "lat": 46.4853000,
  "lon": 30.7447097
},
{
  "type": "node",
  "id": 2365390095,
  "lat": 46.4853025,
  "lon": 30.7447453
},
{
  "type": "node",
  "id": 2365390096,
  "lat": 46.4853028,
  "lon": 30.7447313
},
{
  "type": "node",
  "id": 2365392628,
  "lat": 46.4849866,
  "lon": 30.7437621
},
{
  "type": "node",
  "id": 2365392629,
  "lat": 46.4851111,
  "lon": 30.7437768
},
{
  "type": "node",
  "id": 2365392632,
  "lat": 46.4851756,
  "lon": 30.7438513
},
{
  "type": "node",
  "id": 3352003740,
  "lat": 46.4815132,
  "lon": 30.7432599
},
{
  "type": "node",
  "id": 3405192802,
  "lat": 46.4815129,
  "lon": 30.7431729
},
{
  "type": "node",
  "id": 3405192803,
  "lat": 46.4815206,
  "lon": 30.7430769
},
{
  "type": "node",
  "id": 3405192804,
  "lat": 46.4816712,
  "lon": 30.7431997
},
{
  "type": "node",
  "id": 3405192805,
  "lat": 46.4816789,
  "lon": 30.7431037
},
{
  "type": "node",
  "id": 3405192806,
  "lat": 46.4817399,
  "lon": 30.7432998
},
{
  "type": "node",
  "id": 3902355713,
  "lat": 46.4825804,
  "lon": 30.7436914
},
{
  "type": "node",
  "id": 3902355729,
  "lat": 46.4827925,
  "lon": 30.7437225
},
{
  "type": "node",
  "id": 3902355734,
  "lat": 46.4828476,
  "lon": 30.7437306
},
{
  "type": "node",
  "id": 3902355863,
  "lat": 46.4847415,
  "lon": 30.7451914
},
{
  "type": "node",
  "id": 3902355910,
  "lat": 46.4849626,
  "lon": 30.7454825
},
{
  "type": "node",
  "id": 3903490662,
  "lat": 46.4847633,
  "lon": 30.7450264
},
{
  "type": "node",
  "id": 3903490663,
  "lat": 46.4848003,
  "lon": 30.7447464
},
{
  "type": "node",
  "id": 3903490664,
  "lat": 46.4848397,
  "lon": 30.7447134
},
{
  "type": "node",
  "id": 3903490665,
  "lat": 46.4848568,
  "lon": 30.7445481
},
{
  "type": "node",
  "id": 3903490666,
  "lat": 46.4849287,
  "lon": 30.7454378
},
{
  "type": "node",
  "id": 3903490668,
  "lat": 46.4850472,
  "lon": 30.7437705
},
{
  "type": "node",
  "id": 3903490671,
  "lat": 46.4850807,
  "lon": 30.7453068
},
{
  "type": "node",
  "id": 4227523208,
  "lat": 46.4851859,
  "lon": 30.7439359
},
{
  "type": "node",
  "id": 4227523209,
  "lat": 46.4852001,
  "lon": 30.7439443
},
{
  "type": "node",
  "id": 4227523210,
  "lat": 46.4852227,
  "lon": 30.7439785
},
{
  "type": "node",
  "id": 4227523211,
  "lat": 46.4852287,
  "lon": 30.7440272
},
{
  "type": "node",
  "id": 4227523212,
  "lat": 46.4852172,
  "lon": 30.7440677
},
{
  "type": "node",
  "id": 4227523213,
  "lat": 46.4852077,
  "lon": 30.7440818
},
{
  "type": "node",
  "id": 4227523214,
  "lat": 46.4851787,
  "lon": 30.7440996
},
{
  "type": "node",
  "id": 4345180118,
  "lat": 46.4816687,
  "lon": 30.7432873
},
{
  "type": "node",
  "id": 4359370994,
  "lat": 46.4826866,
  "lon": 30.7431078
},
{
  "type": "node",
  "id": 4381451574,
  "lat": 46.4815778,
  "lon": 30.7432713
},
{
  "type": "node",
  "id": 4381451575,
  "lat": 46.4815836,
  "lon": 30.7431849
},
{
  "type": "node",
  "id": 4381451577,
  "lat": 46.4815887,
  "lon": 30.7430884
},
{
  "type": "node",
  "id": 4381465004,
  "lat": 46.4824285,
  "lon": 30.7434979
},
{
  "type": "node",
  "id": 4381465007,
  "lat": 46.4825940,
  "lon": 30.7435135
},
{
  "type": "node",
  "id": 4625318489,
  "lat": 46.4849453,
  "lon": 30.7442447
},
{
  "type": "node",
  "id": 4625318490,
  "lat": 46.4848673,
  "lon": 30.7442346
},
{
  "type": "node",
  "id": 4625318491,
  "lat": 46.4849523,
  "lon": 30.7441332
},
{
  "type": "node",
  "id": 1730389059,
  "lat": 46.4737459,
  "lon": 30.7601625
},
{
  "type": "node",
  "id": 1730389753,
  "lat": 46.4735452,
  "lon": 30.7599578
},
{
  "type": "node",
  "id": 1730389879,
  "lat": 46.4735294,
  "lon": 30.7601289
},
{
  "type": "node",
  "id": 3931434811,
  "lat": 46.4737586,
  "lon": 30.7599908
},
{
  "type": "node",
  "id": 447134662,
  "lat": 46.4760985,
  "lon": 30.7511583
},
{
  "type": "node",
  "id": 447134665,
  "lat": 46.4760705,
  "lon": 30.7515587
},
{
  "type": "node",
  "id": 447134667,
  "lat": 46.4759312,
  "lon": 30.7515382
},
{
  "type": "node",
  "id": 447134669,
  "lat": 46.4759592,
  "lon": 30.7511378
},
{
  "type": "node",
  "id": 3906854013,
  "lat": 46.4825991,
  "lon": 30.7545533
},
{
  "type": "node",
  "id": 3906854014,
  "lat": 46.4825943,
  "lon": 30.7545769
},
{
  "type": "node",
  "id": 3906854015,
  "lat": 46.4826098,
  "lon": 30.7545342
},
{
  "type": "node",
  "id": 3906854016,
  "lat": 46.4825962,
  "lon": 30.7546014
},
{
  "type": "node",
  "id": 3906854017,
  "lat": 46.4826244,
  "lon": 30.7545227
},
{
  "type": "node",
  "id": 3906854018,
  "lat": 46.4826044,
  "lon": 30.7546229
},
{
  "type": "node",
  "id": 3906854019,
  "lat": 46.4826410,
  "lon": 30.7545201
},
{
  "type": "node",
  "id": 3906854020,
  "lat": 46.4826177,
  "lon": 30.7546381
},
{
  "type": "node",
  "id": 3906854021,
  "lat": 46.4826570,
  "lon": 30.7545267
},
{
  "type": "node",
  "id": 3906854022,
  "lat": 46.4826340,
  "lon": 30.7546449
},
{
  "type": "node",
  "id": 3906854023,
  "lat": 46.4826700,
  "lon": 30.7545418
},
{
  "type": "node",
  "id": 3906854024,
  "lat": 46.4826507,
  "lon": 30.7546420
},
{
  "type": "node",
  "id": 3906854025,
  "lat": 46.4826782,
  "lon": 30.7545627
},
{
  "type": "node",
  "id": 3906854026,
  "lat": 46.4826653,
  "lon": 30.7546299
},
{
  "type": "node",
  "id": 3906854027,
  "lat": 46.4826802,
  "lon": 30.7545870
},
{
  "type": "node",
  "id": 3906854028,
  "lat": 46.4826757,
  "lon": 30.7546106
},
{
  "type": "node",
  "id": 3898520637,
  "lat": 46.4994460,
  "lon": 30.7237532
},
{
  "type": "node",
  "id": 4681001226,
  "lat": 46.4995496,
  "lon": 30.7237949
},
{
  "type": "node",
  "id": 4681001227,
  "lat": 46.4995754,
  "lon": 30.7236585
},
{
  "type": "node",
  "id": 4681001228,
  "lat": 46.4994613,
  "lon": 30.7236747
},
{
  "type": "node",
  "id": 4681001236,
  "lat": 46.4995253,
  "lon": 30.7236385
},
{
  "type": "node",
  "id": 4681001261,
  "lat": 46.4994732,
  "lon": 30.7236191
},
{
  "type": "node",
  "id": 5490227221,
  "lat": 46.4995254,
  "lon": 30.7237858
},
{
  "type": "node",
  "id": 5979585400,
  "lat": 46.4995677,
  "lon": 30.7237664
},
{
  "type": "node",
  "id": 5979585401,
  "lat": 46.4995767,
  "lon": 30.7237208
},
{
  "type": "node",
  "id": 5979585402,
  "lat": 46.4995647,
  "lon": 30.7237157
},
{
  "type": "node",
  "id": 5979585403,
  "lat": 46.4995563,
  "lon": 30.7237616
},
{
  "type": "way",
  "id": 333405132,
  "nodes": [
    3405192802,
    3405192803,
    4381451577,
    3405192805,
    3405192804,
    4381451575,
    3405192802
  ]
},
{
  "type": "way",
  "id": 38173849,
  "nodes": [
    449533520,
    449533521,
    4381451578,
    449533678,
    3405192806,
    4345180118,
    4381451574,
    3352003740,
    449533520
  ]
}

  ]
}
