{
  "version": 0.6,
  "generator": "Overpass API 0.7.55.1011 6c2efc30",
  "osm3s": {
    "timestamp_osm_base": "2020-02-14T14:17:02Z",
    "copyright": "The data included in this document is from www.openstreetmap.org. The data is made available under ODbL."
  },
  "elements": [

{
  "type": "node",
  "id": 34050685,
  "lat": 51.6553270,
  "lon": 5.6067994,
  "tags": {
    "addr:city": "Uden",
    "addr:housenumber": "25",
    "addr:postcode": "5401PB",
    "addr:street": "Veghelsedijk",
    "name": "Museum Voor Religieuze Kunst",
    "opening_hours": "Tu-Su 11:00-17:00",
    "source": "BAG",
    "source:date": "2014-08-20",
    "tourism": "museum",
    "website": "http://museumvoorreligieuzekunst.nl/",
    "wikidata": "Q2112422"
  }
},
{
  "type": "node",
  "id": 34050707,
  "lat": 51.8915630,
  "lon": 5.4247327,
  "tags": {
    "name": "Museum Sacrum",
    "tourism": "museum"
  }
},
{
  "type": "node",
  "id": 34050716,
  "lat": 51.9666215,
  "lon": 5.7887193,
  "tags": {
    "name": "Museum Voor Natuur-en Wildbeheer",
    "opening_hours": "Tu-Su 11:00-17:00",
    "tourism": "museum"
  }
},
{
  "type": "node",
  "id": 271180737,
  "lat": 52.0613875,
  "lon": 5.8977933,
  "tags": {
    "addr:housenumber": "10",
    "addr:postcode": "6816 SW",
    "addr:street": "Hoenderloseweg",
    "created_by": "JOSM",
    "name": "Museum Vliegbasis Deelen",
    "name:en": "Museum Airbase Deelen",
    "tourism": "museum",
    "website": "http://www.museumvlbdeelen.nl"
  }
},
{
  "type": "node",
  "id": 298989447,
  "lat": 51.7847528,
  "lon": 5.9329093,
  "tags": {
    "addr:housenumber": "4",
    "addr:postcode": "6561 KR",
    "addr:street": "Wylerbaan",
    "email": "info@bevrijdingsmuseum.nl",
    "name": "Nationaal Bevrijdingsmuseum 1944-1945",
    "name:es": "Museo Nacional de La Liberación 1944-1945",
    "name:nl": "Nationaal Bevrijdingsmuseum 1944-1945",
    "opening_hours": "Mo-Sa 10:00-17:00; Su 12:00-17:00",
    "phone": "+31243974404",
    "tourism": "museum",
    "website": "https://www.bevrijdingsmuseum.nl/"
  }
},
{
  "type": "node",
  "id": 426930795,
  "lat": 51.6752485,
  "lon": 6.1616964,
  "tags": {
    "tourism": "museum",
    "wheelchair": "yes"
  }
},
{
  "type": "node",
  "id": 429260470,
  "lat": 52.0982168,
  "lon": 5.8292453,
  "tags": {
    "name": "Museonder",
    "name:zh": "地下生態博物館",
    "tourism": "museum",
    "wheelchair": "yes"
  }
},
{
  "type": "node",
  "id": 441939904,
  "lat": 51.9888468,
  "lon": 5.9014500,
  "tags": {
    "email": "info@watermuseum.nl",
    "name": "Het Nederland Watermuseum",
    "opening_hours": "Tu-Su 11:00-17:00",
    "phone": "+31264452548",
    "toilets:wheelchair": "yes",
    "tourism": "museum",
    "twitter": "https://twitter.com/watermuseum",
    "website": "https://www.watermuseum.nl/",
    "wheelchair": "yes"
  }
},
{
  "type": "node",
  "id": 475914982,
  "lat": 52.0142741,
  "lon": 6.1382031,
  "tags": {
    "name": "Fotografica Museum",
    "tourism": "museum"
  }
},
{
  "type": "node",
  "id": 475951994,
  "lat": 51.9172359,
  "lon": 6.0701012,
  "tags": {
    "name": "De Panoven",
    "tourism": "museum"
  }
},
{
  "type": "node",
  "id": 560087470,
  "lat": 52.0985849,
  "lon": 5.7726516,
  "tags": {
    "addr:city": "Otterlo",
    "addr:housenumber": "12",
    "addr:postcode": "6731BH",
    "addr:street": "Eikenzoom",
    "name": "Nederlands Tegelmuseum",
    "tourism": "museum",
    "website": "http://www.nederlandstegelmuseum.nl"
  }
},
{
  "type": "node",
  "id": 622047131,
  "lat": 51.7002648,
  "lon": 5.9723863,
  "tags": {
    "name": "De Crypte",
    "tourism": "museum",
    "wikidata": "Q2333459",
    "wikipedia": "nl:De Crypte"
  }
},
{
  "type": "node",
  "id": 648046389,
  "lat": 51.6035926,
  "lon": 5.6719398,
  "tags": {
    "addr:city": "Boekel",
    "addr:housenumber": "22",
    "addr:postcode": "5427BG",
    "addr:street": "Sint Janplein",
    "name": "Heemkundekring Sint Achten op Boeckel",
    "source": "BAG",
    "source:date": "2014-05-07",
    "tourism": "museum",
    "website": "http://www.heemkundeboekel.nl/"
  }
},
{
  "type": "node",
  "id": 683249006,
  "lat": 51.7712388,
  "lon": 6.2877878,
  "tags": {
    "addr:city": "Kalkar",
    "addr:country": "DE",
    "addr:housenumber": "22",
    "addr:postcode": "47546",
    "addr:street": "Köstersdick",
    "addr:suburb": "Wissel",
    "contact:website": "http://www.stiftsmuseum-wissel.de/",
    "fee": "yes",
    "lastcheck": "2016-05-26",
    "name": "Stiftsmuseum",
    "opening_hours": "Sa,Su 14:00-17:00",
    "start_date": "1997",
    "tourism": "museum"
  }
},
{
  "type": "node",
  "id": 1011849972,
  "lat": 51.9029734,
  "lon": 6.2537801,
  "tags": {
    "dhm_id": "476",
    "man_made": "horse mill",
    "mdb_id": "1220",
    "name": "De Rosmolen",
    "source": "wikipedia",
    "tourism": "museum",
    "wikidata": "Q2641579",
    "wikipedia": "nl:Rosmolen Zeddam"
  }
},
{
  "type": "node",
  "id": 1021084732,
  "lat": 51.9034266,
  "lon": 6.2517528,
  "tags": {
    "name": "Boerderij de Gildekaot",
    "tourism": "museum"
  }
},
{
  "type": "node",
  "id": 1234843098,
  "lat": 51.8338649,
  "lon": 6.2419366,
  "tags": {
    "name": "Plakatmuseum am Niederrhein PAN",
    "tourism": "museum",
    "wheelchair": "yes",
    "wikidata": "Q76634574"
  }
},
{
  "type": "node",
  "id": 1696747400,
  "lat": 51.8322843,
  "lon": 5.5910439,
  "tags": {
    "name": "Stoomgemaal de Tuut",
    "tourism": "museum"
  }
},
{
  "type": "node",
  "id": 1756976821,
  "lat": 52.0406972,
  "lon": 5.4182928,
  "tags": {
    "name": "Valkenheide",
    "tourism": "museum"
  }
},
{
  "type": "node",
  "id": 1774502351,
  "lat": 51.7805541,
  "lon": 5.8514660,
  "tags": {
    "addr:city": "Malden",
    "addr:housenumber": "12",
    "addr:postcode": "6581AC",
    "addr:street": "Kerkplein",
    "email": "info@demuse.nl",
    "name": "Arcordeon museum 'de Muse'",
    "name:en": "De Muse",
    "name:nl": "De Muse",
    "opening_hours": "We-Su 12:00-17:00",
    "phone": "+31243584196",
    "source": "BAG",
    "source:date": "2014-07-27",
    "tourism": "museum",
    "website": "https://www.demuse.nl/",
    "wikidata": "Q22809741",
    "wikipedia": "nl:Accordeonmuseum De Muse"
  }
},
{
  "type": "node",
  "id": 1805036781,
  "lat": 51.8085061,
  "lon": 5.7275988,
  "tags": {
    "addr:housenumber": "9",
    "addr:postcode": "6602 DA",
    "addr:street": "Kasteellaan",
    "historic": "castle",
    "name": "Museum Kasteel Wijchen",
    "phone": "+31246424744",
    "tourism": "museum"
  }
},
{
  "type": "node",
  "id": 1956838488,
  "lat": 51.5705789,
  "lon": 5.9566223,
  "tags": {
    "addr:city": "Overloon",
    "addr:housenumber": "1",
    "addr:postcode": "5825AM",
    "addr:street": "Museumpark",
    "email": "info@oorlogsmuseum.nl",
    "name": "Oorlogsmuseum Overloon",
    "opening_hours": "Mo-Fr 10:00-17:00; Sa-Su 11:00-17:00",
    "phone": "+31478641250",
    "source": "BAG",
    "source:date": "2014-03-24",
    "tourism": "museum",
    "website": "https://www.oorlogsmuseum.nl",
    "wheelchair": "yes"
  }
},
{
  "type": "node",
  "id": 2139202286,
  "lat": 52.0072896,
  "lon": 6.1551338,
  "tags": {
    "addr:city": "Doesburg",
    "addr:housenumber": "1",
    "addr:postcode": "6982DV",
    "addr:street": "Parallelweg Den Helder",
    "email": "fructus@stipte.nl",
    "name": "Museum & Museumtuin 't Olde Ras",
    "phone": "+31651268802",
    "source": "BAG;local knowledge",
    "source:date": "2014-02-11",
    "tourism": "museum",
    "website": "http://www.tolderas.nl/"
  }
},
{
  "type": "node",
  "id": 2207920765,
  "lat": 51.9647760,
  "lon": 5.6656816,
  "tags": {
    "name": "De Casteelse Poort",
    "tourism": "museum",
    "wikidata": "Q2546552",
    "wikipedia": "nl:De Casteelse Poort"
  }
},
{
  "type": "node",
  "id": 2208540214,
  "lat": 52.0148363,
  "lon": 6.1336657,
  "tags": {
    "addr:city": "Doesburg",
    "addr:housenumber": "9-11-13",
    "addr:postcode": "6981 BJ",
    "addr:street": "Roggestraat",
    "name": "Museum de Roode Tooren",
    "phone": "+31313474265",
    "tourism": "museum",
    "website": "www.deroodetooren.nl",
    "wheelchair": "no"
  }
},
{
  "type": "node",
  "id": 2214697642,
  "lat": 51.8486048,
  "lon": 5.8700109,
  "tags": {
    "addr:city": "Nijmegen",
    "addr:housenumber": "107",
    "addr:postcode": "6511XR",
    "addr:street": "Waalkade",
    "name": "Velorama",
    "source": "BAG",
    "source:date": "2014-05-07",
    "tourism": "museum",
    "website": "https://www.velorama.nl/",
    "wheelchair": "no",
    "wikidata": "Q484899"
  }
},
{
  "type": "node",
  "id": 2266771694,
  "lat": 52.0430490,
  "lon": 5.6680500,
  "tags": {
    "name": "Historisch Museum Ede",
    "tourism": "museum",
    "wikidata": "Q7476442",
    "wikipedia": "nl:Historisch Museum Ede"
  }
},
{
  "type": "node",
  "id": 2342142528,
  "lat": 52.0145931,
  "lon": 6.1366712,
  "tags": {
    "name": "Mosterdmuseum / Mosterdfabriek",
    "tourism": "museum"
  }
},
{
  "type": "node",
  "id": 2588206323,
  "lat": 51.7877855,
  "lon": 5.3389488,
  "tags": {
    "addr:city": "Alem",
    "addr:housenumber": "12",
    "addr:postcode": "5335LL",
    "addr:street": "Sint Odradastraat",
    "name": "Nederlands Dakpannenmuseum",
    "source": "BAG",
    "source:date": "2014-03-24",
    "tourism": "museum",
    "website": "http://www.dakpannencollectiemombers.nl/"
  }
},
{
  "type": "node",
  "id": 2696984114,
  "lat": 51.9119331,
  "lon": 5.3367800,
  "tags": {
    "addr:city": "Buren",
    "addr:housenumber": "9",
    "addr:postcode": "4116BR",
    "addr:street": "Weeshuiswal",
    "name": "Museum der Koninklijke Marechaussee",
    "note": "Staat bij wikipedia als nog niet aangemaakt http://nl.wikipedia.org/wiki/Lijst_van_musea_in_Nederland",
    "opening_hours": "Mo-Su 12:30-16:30",
    "source": "http://www.marechausseemuseum.nl/?show=page&id=60",
    "tourism": "museum",
    "website": "https://www.marechausseemuseum.nl/",
    "wheelchair": "limited"
  }
},
{
  "type": "node",
  "id": 2722377981,
  "lat": 51.9768278,
  "lon": 5.9162676,
  "tags": {
    "addr:city": "Arnhem",
    "addr:housenumber": "4",
    "addr:postcode": "6828KZ",
    "addr:street": "Remisestraat",
    "name": "Trolley-Busmuseum",
    "source": "BAG",
    "source:date": "2014-02-11",
    "tourism": "museum"
  }
},
{
  "type": "node",
  "id": 2725649569,
  "lat": 51.9813254,
  "lon": 5.9036539,
  "tags": {
    "addr:city": "Arnhem",
    "addr:housenumber": "4A",
    "addr:postcode": "6811JX",
    "addr:street": "Oude Oeverstraat",
    "name": "Historische Kelders Arnhem",
    "source": "BAG",
    "source:date": "2014-02-11",
    "tourism": "museum",
    "wheelchair": "no"
  }
},
{
  "type": "node",
  "id": 2731898979,
  "lat": 52.0152270,
  "lon": 6.1346847,
  "tags": {
    "addr:city": "Doesburg",
    "addr:housenumber": "1",
    "addr:postcode": "6981CP",
    "addr:street": "Gasthuisstraat",
    "name": "Lalique Museum",
    "source": "BAG",
    "source:date": "2014-02-11",
    "tourism": "museum",
    "website": "https://www.musee-lalique.nl"
  }
},
{
  "type": "node",
  "id": 2731905646,
  "lat": 52.0145779,
  "lon": 6.1363928,
  "tags": {
    "addr:city": "Doesburg",
    "addr:housenumber": "19",
    "addr:postcode": "6981CV",
    "addr:street": "Boekholtstraat",
    "fee": "Yes",
    "name": "Museum De Maurits 1940-1945",
    "phone": "+31 313 479 088",
    "source": "BAG",
    "source:date": "2014-02-11",
    "tourism": "museum",
    "website": "https://www.bezoek-doesburg.nl/locaties/2836788418/museum-de-maurits-1940-1945"
  }
},
{
  "type": "node",
  "id": 2760789733,
  "lat": 51.6613580,
  "lon": 5.3914227,
  "tags": {
    "addr:city": "Den Dungen",
    "addr:housenumber": "70",
    "addr:postcode": "5275JD",
    "addr:street": "Spurkstraat",
    "name": "Museum 't Brabants Leven",
    "opening_hours": "Apr 01-Oct 31 Mo-Sa",
    "source": "BAG",
    "source:date": "2014-03-24",
    "tourism": "museum",
    "website": "http://www.brabantsleven.nl/",
    "wheelchair": "yes"
  }
},
{
  "type": "node",
  "id": 2761137781,
  "lat": 51.9976189,
  "lon": 5.6750930,
  "tags": {
    "addr:city": "Bennekom",
    "addr:housenumber": "1",
    "addr:postcode": "6721VA",
    "addr:street": "Kerkstraat",
    "name": "Kijk & Luistermuseum",
    "source": "BAG",
    "source:date": "2014-03-24",
    "tourism": "museum"
  }
},
{
  "type": "node",
  "id": 2766615287,
  "lat": 52.0839981,
  "lon": 5.6209098,
  "tags": {
    "addr:city": "Lunteren",
    "addr:housenumber": "55",
    "addr:postcode": "6741AB",
    "addr:street": "Dorpsstraat",
    "email": "museum@oudlunteren.nl",
    "name": "Museum Oud-Lunteren",
    "opening_hours": "Tu-Sa 13:30-16:30",
    "phone": "+31318486254",
    "source": "BAG",
    "source:date": "2014-03-24",
    "tourism": "museum",
    "website": "http://www.oudlunteren.nl"
  }
},
{
  "type": "node",
  "id": 2768973930,
  "lat": 52.0315386,
  "lon": 5.9016011,
  "tags": {
    "addr:city": "Arnhem",
    "addr:housenumber": "5D-31",
    "addr:postcode": "6816TW",
    "addr:street": "Clement van Maasdijklaan",
    "name": "Museum Grenadiers en Jagers",
    "opening_hours": "Apr 01-Oct 31: Th 10:00-16:00; PH off",
    "operator": "Defensie",
    "source": "BAG",
    "source:date": "2014-03-24",
    "tourism": "museum"
  }
},
{
  "type": "node",
  "id": 2769017668,
  "lat": 52.0042060,
  "lon": 5.8845626,
  "tags": {
    "addr:city": "Arnhem",
    "addr:housenumber": "5A",
    "addr:postcode": "6816RM",
    "addr:street": "Kemperbergerweg",
    "email": "info@mountainbikemuseum.nl",
    "name": "Mountainbike museum",
    "phone": "+31 26 8482077",
    "source": "BAG",
    "source:date": "2014-03-24",
    "subject": "Mountainbiking",
    "tourism": "museum",
    "website": "https://www.mountainbikemuseum.nl/"
  }
},
{
  "type": "node",
  "id": 2770097005,
  "lat": 51.7691834,
  "lon": 5.3409871,
  "tags": {
    "addr:city": "Kerkdriel",
    "addr:housenumber": "38",
    "addr:postcode": "5331CR",
    "addr:street": "Teisterbandstraat",
    "name": "Driels Museum",
    "source": "BAG",
    "source:date": "2014-03-24",
    "tourism": "museum",
    "wikidata": "Q13574438",
    "wikipedia": "nl:Driels Museum"
  }
},
{
  "type": "node",
  "id": 2776001517,
  "lat": 52.0273734,
  "lon": 5.5594110,
  "tags": {
    "addr:city": "Veenendaal",
    "addr:housenumber": "76",
    "addr:postcode": "3901TP",
    "addr:street": "Kees Stipplein",
    "email": "info@museumveenendaal.nl",
    "name": "Museum Veenendaal",
    "opening_hours": "Tu-Sa 10:00-17:00",
    "phone": "+31318550010",
    "source": "BAG",
    "source:date": "2014-03-24",
    "tourism": "museum",
    "website": "https://www.museumveenendaal.nl/"
  }
},
{
  "type": "node",
  "id": 2799441673,
  "lat": 51.9986645,
  "lon": 5.4614842,
  "tags": {
    "addr:city": "Amerongen",
    "addr:housenumber": "46",
    "addr:postcode": "3958CD",
    "addr:street": "Burgemeester Jonkheer H. van den Boschstraat",
    "name": "Tabaksteeltmuseum",
    "source": "BAG",
    "source:date": "2014-03-24",
    "tourism": "museum"
  }
},
{
  "type": "node",
  "id": 2801537670,
  "lat": 51.7222368,
  "lon": 5.9511034,
  "tags": {
    "addr:city": "Milsbeek",
    "addr:housenumber": "22",
    "addr:postcode": "6596AB",
    "addr:street": "Rijksweg",
    "name": "potterie jacobsladder",
    "source": "BAG",
    "source:date": "2014-03-24",
    "tourism": "museum",
    "website": "http://www.deoudepottenbakkerij.nl/"
  }
},
{
  "type": "node",
  "id": 2803709534,
  "lat": 51.7856668,
  "lon": 5.9364370,
  "tags": {
    "addr:city": "Groesbeek",
    "addr:housenumber": "4",
    "addr:postcode": "6561KR",
    "addr:street": "Wylerbaan",
    "name": "Nationaal Bevrijdingsmuseum 1944-1945",
    "name:en": "Netherlands National Liberation Museum 1944 - 1945",
    "source": "BAG",
    "source:date": "2014-03-24",
    "tourism": "museum",
    "website": "https://www.bevrijdingsmuseum.nl/",
    "wikidata": "Q1869397"
  }
},
{
  "type": "node",
  "id": 2804195634,
  "lat": 51.8234821,
  "lon": 5.9367006,
  "tags": {
    "addr:city": "Beek",
    "addr:housenumber": "178a",
    "addr:postcode": "6573DG",
    "addr:street": "Rijksstraatweg",
    "name": "Landschapsmuseum",
    "opening_hours": "Apr-Oct: We 10:00-17:00, Apr-Oct: Su 10:00-17:00",
    "operator": "Vereniging Nederlands Cultuurlandschap",
    "operator:type": "public",
    "source": "BAG",
    "source:date": "2014-03-24",
    "tourism": "museum",
    "website": "https://www.nederlandscultuurlandschap.nl/landschapmuseum/"
  }
},
{
  "type": "node",
  "id": 2815047906,
  "lat": 51.5956034,
  "lon": 5.6311887,
  "tags": {
    "addr:city": "Erp",
    "addr:housenumber": "7",
    "addr:postcode": "5469NK",
    "addr:street": "Hoek",
    "description": "private collection of enamel, call in advance to visit",
    "name": "Het Kleine Aadal",
    "phone": "+31622494803",
    "source": "BAG",
    "source:date": "2014-03-24",
    "tourism": "museum"
  }
},
{
  "type": "node",
  "id": 2847225079,
  "lat": 51.8419459,
  "lon": 5.8782106,
  "tags": {
    "addr:city": "Nijmegen",
    "addr:housenumber": "45",
    "addr:postcode": "6522GB",
    "addr:street": "Museum Kamstraat",
    "name": "Gelders Archeologisch Centrum G.M. Kam",
    "opening_hours": "Tu-Th 13:30-16:30",
    "operator": "Museum Het Valkhof",
    "source": "BAG",
    "source:date": "2014-05-07",
    "tourism": "museum"
  }
},
{
  "type": "node",
  "id": 2847404682,
  "lat": 51.8486222,
  "lon": 5.8695104,
  "tags": {
    "addr:city": "Nijmegen",
    "addr:housenumber": "83",
    "addr:postcode": "6511XR",
    "addr:street": "Waalkade",
    "name": "de Bastei",
    "source": "BAG",
    "source:date": "2014-05-07",
    "tourism": "museum",
    "website": "https://www.debastei.nl/nl/over-ons/contact"
  }
},
{
  "type": "node",
  "id": 2858682397,
  "lat": 51.7292397,
  "lon": 5.8833233,
  "tags": {
    "addr:city": "Cuijk",
    "addr:housenumber": "1",
    "addr:postcode": "5431EM",
    "addr:street": "Castellum",
    "name": "Museum Ceuclum",
    "source": "BAG",
    "source:date": "2014-05-07",
    "tourism": "museum",
    "website": "http://www.museumceuclum.nl",
    "wikipedia": "nl:Museum Ceuclum"
  }
},
{
  "type": "node",
  "id": 2858688702,
  "lat": 51.7300334,
  "lon": 5.8826656,
  "tags": {
    "addr:city": "Cuijk",
    "addr:housenumber": "14",
    "addr:postcode": "5431DS",
    "addr:street": "Kerkstraat",
    "name": "FotoArchiefDienst Cuijk",
    "source": "BAG",
    "source:date": "2014-05-07",
    "tourism": "museum",
    "website": "http://fotoarchiefdienst.nl/"
  }
},
{
  "type": "node",
  "id": 2861800641,
  "lat": 51.5983207,
  "lon": 5.6847367,
  "tags": {
    "addr:city": "Boekel",
    "addr:housenumber": "22",
    "addr:postcode": "5427SL",
    "addr:street": "Mezenlaan",
    "museum": "nature",
    "name": "De Perekker",
    "source": "BAG",
    "source:date": "2014-05-07",
    "tourism": "museum"
  }
},
{
  "type": "node",
  "id": 2861802272,
  "lat": 51.5864663,
  "lon": 5.7097840,
  "tags": {
    "addr:city": "Boekel",
    "addr:housenumber": "45",
    "addr:postcode": "5427EL",
    "addr:street": "Daniël de Brouwerstraat",
    "name": "De Kluis",
    "source": "BAG",
    "source:date": "2014-05-07",
    "tourism": "museum",
    "website": "https://dekluis.weebly.com/"
  }
},
{
  "type": "node",
  "id": 2928035212,
  "lat": 51.8015614,
  "lon": 5.4641133,
  "tags": {
    "addr:city": "Lithoijen",
    "addr:housenumber": "8",
    "addr:postcode": "5396PH",
    "addr:street": "Prelaat van de Bergplein",
    "name": "Remigiusmuseum",
    "source": "BAG",
    "source:date": "2014-06-22",
    "tourism": "museum"
  }
},
{
  "type": "node",
  "id": 2953599027,
  "lat": 51.8670361,
  "lon": 5.8560491,
  "tags": {
    "addr:city": "Lent",
    "addr:housenumber": "11",
    "addr:postcode": "6663 AA",
    "addr:street": "Griftdijk Noord",
    "name": "Historische Tuin Lent",
    "opening_hours": "Mo,We,Fr 10:00-13:00; Sa 11:00-16:00",
    "phone": "+31243232418",
    "source": "BAG",
    "source:date": "2014-07-08",
    "tourism": "museum"
  }
},
{
  "type": "node",
  "id": 2973289466,
  "lat": 51.8816364,
  "lon": 5.5174361,
  "tags": {
    "addr:city": "Beneden-Leeuwen",
    "addr:housenumber": "3",
    "addr:postcode": "6658EE",
    "addr:street": "Pastoor Zijlmansstraat",
    "name": "Museum Tweestromenland",
    "source": "BAG",
    "source:date": "2014-07-21",
    "tourism": "museum"
  }
},
{
  "type": "node",
  "id": 3013232504,
  "lat": 51.9875286,
  "lon": 5.6663886,
  "tags": {
    "museum": "nature",
    "name": "ISRIC World Soil Museum",
    "tourism": "museum"
  }
},
{
  "type": "node",
  "id": 3014235942,
  "lat": 51.9664703,
  "lon": 5.6766715,
  "tags": {
    "name": "Het Depot",
    "tourism": "museum"
  }
},
{
  "type": "node",
  "id": 3014235943,
  "lat": 51.9683265,
  "lon": 5.6754447,
  "tags": {
    "addr:city": "Wageningen",
    "addr:housenumber": "4",
    "addr:postcode": "6703 BD",
    "addr:street": "Arboretumlaan",
    "email": "beeldengalerij@hetdepot.nl",
    "fax": "0031 (0)317 467 738",
    "name": "Het Depot",
    "opening_hours": "Th-Su 11:00-17:00",
    "phone": "0031 (0)317 467 720",
    "tourism": "museum",
    "website": "https://www.hetdepot.nl/",
    "wikidata": "Q21004657",
    "wikipedia": "nl:Beeldengalerij Het Depot"
  }
},
{
  "type": "node",
  "id": 3015167971,
  "lat": 51.9667044,
  "lon": 5.7887970,
  "tags": {
    "addr:city": "Doorwerth",
    "addr:housenumber": "2B",
    "addr:postcode": "6865ND",
    "addr:street": "Fonteinallee",
    "fee": "MJK_free",
    "name": "Nederlands Jachtmuseum",
    "opening_hours": "Tu-Su 11:00-17:00",
    "source": "BAG",
    "source:date": "2014-08-13",
    "tourism": "museum"
  }
},
{
  "type": "node",
  "id": 3015426195,
  "lat": 51.9876806,
  "lon": 5.8327516,
  "tags": {
    "addr:city": "Oosterbeek",
    "addr:housenumber": "232",
    "addr:postcode": "6862AZ",
    "addr:street": "Utrechtseweg",
    "email": "info@airbornemuseum.nl",
    "name": "Airborne Museum 'Hartenstein'",
    "opening_hours": "Mo-Su 10:00-17:00",
    "phone": "+31263337710",
    "source": "BAG;local knowledge",
    "source:date": "2014-08-13",
    "tourism": "museum",
    "website": "https://www.airbornemuseum.nl/",
    "wikidata": "Q408081",
    "wikipedia": "nl:Airborne Museum"
  }
},
{
  "type": "node",
  "id": 3015431297,
  "lat": 51.9846772,
  "lon": 5.8369972,
  "tags": {
    "name": "Tafelberg",
    "tourism": "museum"
  }
},
{
  "type": "node",
  "id": 3016954151,
  "lat": 51.9606484,
  "lon": 5.7533419,
  "tags": {
    "addr:city": "Heteren",
    "addr:housenumber": "36",
    "addr:postcode": "6666AL",
    "addr:street": "Onze Lieve Vrouwestraat",
    "name": "Betuws Oorlogsmuseum \"The Island\" 1944-1945",
    "source": "BAG",
    "source:date": "2014-08-14",
    "tourism": "museum",
    "wikidata": "Q4775794",
    "wikipedia": "nl:Betuws Oorlogsmuseum \"The Island\" 1944-1945"
  }
},
{
  "type": "node",
  "id": 3019081645,
  "lat": 51.8864658,
  "lon": 5.4397772,
  "tags": {
    "addr:housenumber": "48",
    "addr:postcode": "4001 LJ",
    "addr:street": "Plein",
    "email": "info@museumtiel.nl",
    "name": "Flipje en Streekmuseum Tiel",
    "name:en": "Flipje en Streekmuseum",
    "name:nl": "Flipje en Streekmuseum",
    "opening_hours": "Tu-Fr 13:30-17:00; Sa-Su 13:30-16:30",
    "phone": "+31344614416",
    "tourism": "museum",
    "website": "https://www.streekmuseumtiel.nl/",
    "wikidata": "Q13636575",
    "wikipedia": "nl:Flipje & Streekmuseum"
  }
},
{
  "type": "node",
  "id": 3166218195,
  "lat": 51.6153288,
  "lon": 5.5303399,
  "tags": {
    "addr:city": "Veghel",
    "addr:housenumber": "8",
    "addr:postcode": "5462EH",
    "addr:street": "Verlengde Noordkade",
    "name": "SIEMei",
    "official_name": "Stichting Industrieel Erfgoed Meierij",
    "source": "BAG",
    "source:date": "2016-09-22",
    "tourism": "museum",
    "website": "https://siemei.nl"
  }
},
{
  "type": "node",
  "id": 3172945311,
  "lat": 52.1320969,
  "lon": 5.6023418,
  "tags": {
    "name": "Nederlands Pluimveemuseum",
    "tourism": "museum"
  }
},
{
  "type": "node",
  "id": 3249439145,
  "lat": 51.8146812,
  "lon": 5.8897583,
  "tags": {
    "addr:housenumber": "2",
    "addr:postcode": "6564 BL",
    "addr:street": "Profetenlaan",
    "email": "info@museumparkorientalis.nl",
    "name": "Museumpark Orientalis",
    "opening_hours": "Tu-Su 11:00-17:00",
    "phone": "+31243823110",
    "tourism": "museum",
    "website": "https://www.museumparkorientalis.nl/"
  }
},
{
  "type": "node",
  "id": 3297456695,
  "lat": 51.7574062,
  "lon": 5.7386757,
  "tags": {
    "name": "Graafs Museum",
    "tourism": "museum",
    "website": "https://www.graafsmuseum.nl/"
  }
},
{
  "type": "node",
  "id": 3675245006,
  "lat": 51.9661418,
  "lon": 5.7304913,
  "tags": {
    "name": "Gelderse Smalspoor Stichting",
    "tourism": "museum"
  }
},
{
  "type": "node",
  "id": 4307164590,
  "lat": 51.7792841,
  "lon": 6.1274734,
  "tags": {
    "addr:housenumber": "3",
    "addr:postcode": "47533",
    "addr:street": "Siegertstraße",
    "email": "info@klever-schuhmuseum.de",
    "name": "Schuhmuseum",
    "opening_hours": "Su 14:00-17:00",
    "tourism": "museum",
    "website": "http://www.klever-schuhmuseum.de"
  }
},
{
  "type": "node",
  "id": 4327051894,
  "lat": 51.7643842,
  "lon": 5.7875023,
  "tags": {
    "addr:city": "Overasselt",
    "addr:housenumber": "5",
    "addr:postcode": "6611KA",
    "addr:street": "Kasteelsestraat",
    "contact:email": "museumdelagehof@gmail.com",
    "contact:phone": "+31 24 6221680",
    "contact:website": "http://museum.buurderijdelagehof.nl/",
    "name": "De Lage Hof",
    "opening_hours": "We-Su 13:00-17:00",
    "tourism": "museum"
  }
},
{
  "type": "node",
  "id": 4534465495,
  "lat": 51.9951529,
  "lon": 5.9502320,
  "tags": {
    "addr:housenumber": "147",
    "addr:postcode": "6824MB",
    "addr:street": "Velperweg",
    "email": "loket.bronbeek@mindef.nl",
    "internet_access": "wlan",
    "name": "Museum Bronbeek en Koninklijk tehuis voor Militairen",
    "name:nl": "Museum en Koninklijk tehuis voor Militairen",
    "opening_hours": "Tu-Su 10:00-17:00",
    "phone": "026-3763555",
    "tourism": "museum",
    "website": "https://www.defensie.nl/onderwerpen/bronbeek",
    "wikidata": "Q1948006",
    "wikipedia": "en:Bronbeek"
  }
},
{
  "type": "node",
  "id": 4537330590,
  "lat": 51.9984420,
  "lon": 5.9714645,
  "tags": {
    "addr:city": "Velp",
    "addr:housenumber": "32",
    "addr:postcode": "6881JG",
    "addr:street": "Parkstraat",
    "name": "Gelders Geologisch Museum",
    "name:en": "Gelders Geologisch Museum",
    "name:nl": "Gelders Geologisch Museum",
    "opening_hours": "Tu-Su 12:00-17:00",
    "phone": "026-3642996",
    "source": "local knowledge;streetlevel imagery",
    "source:date": "2018-09-22",
    "tourism": "museum",
    "website": "https://www.geologischmuseum.nl/"
  }
},
{
  "type": "node",
  "id": 4550005089,
  "lat": 51.8249106,
  "lon": 5.8618556,
  "tags": {
    "addr:housenumber": "21",
    "addr:postcode": "6525 EZ",
    "addr:street": "Geert Grooteplein Noord",
    "name": "Anatomisch en Pathologisch Museum",
    "opening_hours": "Mo-Th 09:00-17:00; Fr 10:00-14:00",
    "phone": "+31243613301",
    "tourism": "museum"
  }
},
{
  "type": "node",
  "id": 4681642690,
  "lat": 51.8450639,
  "lon": 5.8638275,
  "tags": {
    "addr:city": "Nijmegen",
    "addr:housenumber": "6B",
    "addr:postcode": "6511LH",
    "addr:street": "Ziekerstraat",
    "name": "MuZIEum",
    "opening_hours": "Mo 12:00-17:00, Tu-Fr 09:30-17:00, Sa-Su 11:00-18:00",
    "phone": "024-322 16 81",
    "tourism": "museum",
    "website": "https://muzieum.nl/",
    "wikidata": "Q1951586"
  }
},
{
  "type": "node",
  "id": 5628154105,
  "lat": 51.9252502,
  "lon": 6.0747538,
  "tags": {
    "name": "Liemers Museum",
    "tourism": "museum",
    "website": "http://www.liemersmuseum.nl"
  }
},
{
  "type": "node",
  "id": 5695450821,
  "lat": 51.9809234,
  "lon": 5.9065521,
  "tags": {
    "addr:housenumber": "40",
    "addr:postcode": "6811EM",
    "addr:street": "Weverstraat",
    "email": "info@collectiedegroen.nl",
    "name": "Collectie de Groen",
    "name:en": "De Groen Fine Art Collection",
    "opening_hours": "We-Su 11:00-18:00",
    "phone": "+31263033455",
    "tourism": "museum",
    "website": "https://www.collectiedegroen.nl/"
  }
},
{
  "type": "node",
  "id": 5931381655,
  "lat": 52.0779037,
  "lon": 5.4621738,
  "tags": {
    "name": "Educatief Centrum Grebbelinie",
    "opening_hours": "May-Sep Tu,We,Fr,Sa 10:30-15:00",
    "tourism": "museum",
    "website": "http://www.grebbelinieinhetvizier.nl"
  }
},
{
  "type": "node",
  "id": 5977994288,
  "lat": 51.8974347,
  "lon": 6.0441461,
  "tags": {
    "addr:city": "Pannerden",
    "addr:housenumber": "42",
    "addr:postcode": "6911KL",
    "addr:street": "Deukerdijk",
    "historic": "technical_monument",
    "name": "Gemaal Oude Rijn",
    "tourism": "museum",
    "website": "http://www.gemaalouderijn.nl"
  }
},
{
  "type": "node",
  "id": 6170700944,
  "lat": 51.9861153,
  "lon": 5.9230833,
  "tags": {
    "email": "info@wijnmuseum.nl",
    "name": "Nederlands Wijnmuseum",
    "opening_hours": "Sa 10:00-17:00",
    "phone": "+31264424042",
    "tourism": "museum",
    "website": "https://www.robbersenvandenhoogen.nl/wijnmuseum",
    "wikidata": "Q2632983"
  }
},
{
  "type": "node",
  "id": 6611907046,
  "lat": 51.7869323,
  "lon": 6.1389587,
  "tags": {
    "name": "Schwanenturm",
    "tourism": "museum"
  }
},
{
  "type": "node",
  "id": 7116631794,
  "lat": 51.6760816,
  "lon": 6.1585057,
  "tags": {
    "name": "Karnevalsmuseum im Steintor",
    "opening_hours": "Su 15:00-17:00",
    "operator": "Gocher Karnevals e.V.",
    "tourism": "museum"
  }
},
{
  "type": "way",
  "id": 51018698,
  "nodes": [
    2737252364,
    5184105342,
    650477495,
    5184091006,
    5184104648,
    650477485,
    2737252102,
    2737252104,
    650477488,
    650477492,
    2737252364
  ],
  "tags": {
    "building": "yes",
    "name": "Nederlands Elektriciteits Museum",
    "opening_hours": "Sa 10:00-17:00; Su 12:00-17:00",
    "ref:bag": "200100000713321",
    "source": "BAG",
    "source:date": "2017-10-23",
    "start_date": "2003",
    "tourism": "museum"
  }
},
{
  "type": "way",
  "id": 51914235,
  "nodes": [
    662324276,
    662324277,
    2768975158,
    2768975141,
    2768975134,
    2768975133,
    662324100,
    662324101,
    2768975085,
    2768975083,
    2768975086,
    2768975084,
    2768975078,
    2768975072,
    662324102,
    2768975143,
    662324103,
    662324276
  ],
  "tags": {
    "addr:housenumber": "780",
    "addr:postcode": "6816 RX",
    "addr:street": "Kemperbergerweg",
    "building": "house",
    "name": "Arnhems Oorlogsmuseum 40 - 45",
    "name:en": "Arnhem War Museum 40 - 45",
    "opening_hours": "Tu-Su 10:00-17:00",
    "phone": "026 442 0958",
    "ref:bag": "202100000252343",
    "source": "BAG",
    "source:date": "2014-03-24",
    "start_date": "1930",
    "tourism": "museum",
    "website": "http://www.arnhemsoorlogsmuseum.com",
    "wikidata": "Q2784427",
    "wikipedia": "nl:Arnhems Oorlogsmuseum 40-45"
  }
},
{
  "type": "way",
  "id": 51914319,
  "nodes": [
    5792924995,
    5792924994,
    5792924993,
    5792924992,
    5792924991,
    5792924990,
    5792924989,
    5792924988,
    5792924987,
    662324531,
    5792924986,
    5792924985,
    662324529,
    5792924984,
    5792924983,
    662324530,
    5792924982,
    5792924981,
    5792924980,
    5792924979,
    5792924978,
    5792924977,
    5792924976,
    662324516,
    5792924975,
    5792924974,
    5792924973,
    662324517,
    662324514,
    5792924972,
    5792924971,
    662324519,
    662324510,
    662324522,
    662324515,
    662324521,
    662324513,
    662324512,
    662324511,
    662324520,
    662324518,
    662324532,
    5792924970,
    662324533,
    5792924969,
    5792924968,
    5792924967,
    5792924966,
    5792924965,
    5792924964,
    5792924963,
    5792924962,
    5792924961,
    5792924960,
    5792924959,
    5792924958,
    5792924957,
    5792924956,
    5792924955,
    5792924954,
    5792924953,
    5792924752,
    662324507,
    5792924751,
    662324508,
    662324509,
    5792924750,
    662324542,
    5792924749,
    5792924748,
    5792924747,
    5792924995
  ],
  "tags": {
    "addr:city": "Arnhem",
    "addr:country": "NL",
    "addr:housenumber": "87",
    "addr:postcode": "6812 AA",
    "addr:street": "Utrechtseweg",
    "building": "industrial",
    "email": "info@museumarnhem.nl",
    "name": "Museum Arnhem",
    "opening_hours": "closed",
    "phone": "+31 26 3031400",
    "ref:bag": "202100000236579",
    "source": "BAG",
    "source:date": "2018-07-08",
    "start_date": "1755",
    "tourism": "museum",
    "website": "https://www.museumarnhem.nl/",
    "wheelchair": "limited",
    "wikidata": "Q2114028"
  }
},
{
  "type": "way",
  "id": 57732576,
  "nodes": [
    2577578995,
    2577578996,
    2577578998,
    2577578997,
    2577579001,
    2577579002,
    2577579007,
    2577579005,
    2577579013,
    2577579014,
    2577579017,
    2577579021,
    2577579052,
    2577579058,
    2577579090,
    2577579079,
    2577579121,
    2577579091,
    2577579015,
    2577578984,
    2577579037,
    2577579032,
    2577579027,
    2577578999,
    2577579009,
    2577579000,
    2577578925,
    2577578882,
    2577578883,
    2577578711,
    2577578712,
    2577578650,
    2577578673,
    2577578695,
    2577578724,
    2577578723,
    2577578728,
    2577578722,
    2577578717,
    2577578708,
    2577578710,
    2577578676,
    2577578674,
    2577578669,
    2577578680,
    2577578681,
    2577578709,
    2577578689,
    2577578647,
    2577578648,
    2577578643,
    2577578639,
    2577578638,
    2577578641,
    2577578610,
    2577578597,
    2577578596,
    2577578593,
    2577578600,
    2577578601,
    2577578615,
    2577578613,
    2577578679,
    2577578682,
    2577578720,
    2577578718,
    2577578725,
    2577578734,
    2577578732,
    2577578779,
    2577578788,
    2577578825,
    2577578821,
    2577578855,
    2577578857,
    2577578864,
    2577578858,
    2577578861,
    2577578860,
    2577578867,
    2577578868,
    2577578870,
    2577578869,
    2577578876,
    2577578878,
    2577578880,
    2577578879,
    2577578888,
    2577578890,
    2577578892,
    2577578891,
    2577578900,
    2577578905,
    2577578913,
    2577578910,
    2577578923,
    2577578926,
    2577578928,
    2577578930,
    2577578939,
    2577578933,
    2577578950,
    2577578952,
    2577578953,
    2577578954,
    2577578956,
    2577578955,
    2577578962,
    2577578963,
    2577578967,
    2577578964,
    2577578965,
    2577578961,
    2577578969,
    2577578970,
    2577578974,
    2577578971,
    2577578973,
    2577578966,
    2577578978,
    2577578980,
    2577578982,
    2577578981,
    2577578987,
    2577578988,
    2577578990,
    2577578989,
    2577578995
  ],
  "tags": {
    "addr:city": "Kleve",
    "addr:housenumber": "41, 41a",
    "addr:postcode": "47533",
    "addr:street": "Tiergartenstraße",
    "building": "yes",
    "name": "Museum Kurhaus",
    "toilets:wheelchair": "yes",
    "tourism": "museum",
    "website": "https://www.museumkurhaus.de/",
    "wheelchair": "yes",
    "wheelchair:description": "Barrierefreier Seiteneingang. Aufzug am Eingang mit 87 cm Breite (bis Keller). Die Toilette befindet sich im Kellergeschoß und bietet ausreichend Platz. Es sind Haltegriffe vorhanden,  WC ist 52 cm hoch. Waschbecken 86 cm Höhe, Spiegel auf 134 cm Höhe.",
    "wikidata": "Q1954460",
    "wikipedia": "de:Museum Kurhaus Kleve"
  }
},
{
  "type": "way",
  "id": 109084185,
  "nodes": [
    1249872792,
    1249872191,
    1741977083,
    1249871982,
    1249872773,
    2514855413,
    1249871922,
    2514855399,
    2514855401,
    2514855403,
    2514855407,
    1249872265,
    2514855405,
    2514855411,
    2514855409,
    2514855416,
    1249872792
  ],
  "tags": {
    "addr:city": "Kleve",
    "addr:country": "DE",
    "addr:housenumber": "1",
    "addr:postcode": "47533",
    "addr:street": "Koekkoekplatz",
    "building": "yes",
    "name": "Haus Koekkoek",
    "toilets:wheelchair": "no",
    "tourism": "museum",
    "website": "http://www.koekkoek-haus.de",
    "wheelchair": "no",
    "wikidata": "Q1590279",
    "wikipedia": "de:B.C. Koekkoek-Haus"
  }
},
{
  "type": "way",
  "id": 163405293,
  "nodes": [
    2603705883,
    2603705727,
    2603705723,
    2603705710,
    2603705695,
    2603705706,
    2603705620,
    2603705599,
    2603705579,
    2603705604,
    2603705539,
    2603705742,
    2603705743,
    2603705828,
    2603705883
  ],
  "tags": {
    "addr:city": "Goch",
    "addr:country": "DE",
    "addr:housenumber": "9",
    "addr:postcode": "47574",
    "addr:street": "Kastellstraße",
    "building": "yes",
    "name": "Museum Goch",
    "tourism": "museum",
    "wikidata": "Q1954438"
  }
},
{
  "type": "way",
  "id": 176018114,
  "nodes": [
    1865767640,
    1865767635,
    1865767637,
    1865767636,
    1865767638,
    1865767639,
    1865767641,
    1865767642,
    1865767643,
    1865767644,
    1865767645,
    1865767650,
    1865767652,
    1865767655,
    1865767658,
    1865767665,
    1865767664,
    1865767662,
    1865767661,
    1865767660,
    1865767663,
    1865767659,
    1865767657,
    1865767656,
    1865767654,
    1865767651,
    1865767653,
    1865767647,
    1865767648,
    1865767649,
    1865767646,
    1865767640
  ],
  "tags": {
    "name": "Viller Mühle",
    "tourism": "museum",
    "wikidata": "Q2526201",
    "wikipedia": "de:Viller Mühle"
  }
},
{
  "type": "way",
  "id": 183883618,
  "nodes": [
    1943006765,
    1943006767,
    1943006763,
    1943006758,
    1943006741,
    1943006737,
    1943006733,
    1943006731,
    1943006727,
    1943006729,
    1943006725,
    1943006723,
    1943006720,
    1943006721,
    1943006755,
    1943006757,
    1943006765
  ],
  "tags": {
    "name": "Afrika Museum",
    "opening_hours": "Mo-Fr 10:00-17:00; Sa,Su 11:00-17:00",
    "tourism": "museum",
    "website": "https://www.afrikamuseum.nl/",
    "wikidata": "Q2470853",
    "wikipedia": "nl:Afrika Museum"
  }
},
{
  "type": "way",
  "id": 237237143,
  "nodes": [
    2602406051,
    2602405955,
    2602405859,
    2602405780,
    2602405903,
    2602405863,
    2602405915,
    2602406051
  ],
  "tags": {
    "building": "yes",
    "name": "Rheinmuseum",
    "tourism": "museum",
    "wheelchair": "limited",
    "wikidata": "Q61718175"
  }
},
{
  "type": "way",
  "id": 240441361,
  "nodes": [
    2603581693,
    2603581245,
    2603581228,
    2603581096,
    2603580997,
    2603581155,
    2603581222,
    2603581589,
    2603581599,
    2603581667,
    2603581673,
    2603581693
  ],
  "tags": {
    "addr:city": "Kranenburg",
    "addr:country": "DE",
    "addr:housenumber": "9",
    "addr:postcode": "47559",
    "addr:street": "Mühlenstraße",
    "building": "yes",
    "name": "Katharinenhof",
    "tourism": "museum",
    "wikidata": "Q1736071",
    "wikipedia": "de:Katharinenhof Kranenburg"
  }
},
{
  "type": "way",
  "id": 245832951,
  "nodes": [
    2529442418,
    2529442419,
    2529442403,
    2529442389,
    2529442366,
    2529442126,
    2529441864,
    2529441793,
    2529441752,
    2529441748,
    2529441829,
    2529441854,
    2529442020,
    2529441897,
    2529662767,
    2529441983,
    2529441979,
    2529442024,
    2529442001,
    2529441990,
    2529442123,
    2529442150,
    2529442181,
    2529442211,
    2529442390,
    2529442410,
    2529442418
  ],
  "tags": {
    "museum": "art",
    "name": "Museum Schloss Moyland",
    "opening_hours": "Apr 1-Sep 30 Tu-Fr 11:00-18:00; Apr 1-Sep 30 Sa-Su 10:00-18:00; Oct 1-Mar 31 Tu-Su 11:00-17:00",
    "operator": "Stiftung Museum Schloss Moyland Sammlung van der Grinten Joseph Beuys Archiv des Landes Nordrhein-Westfalen",
    "ref:isil": "DE-MUS-458513",
    "tourism": "museum"
  }
},
{
  "type": "way",
  "id": 254445601,
  "nodes": [
    2602404206,
    2602404107,
    2602404058,
    2602404025,
    2602404014,
    2602404009,
    2602404095,
    2602404196,
    2602404206
  ],
  "tags": {
    "addr:city": "Emmerich am Rhein",
    "addr:country": "DE",
    "addr:housenumber": "9",
    "addr:postcode": "46446",
    "addr:street": "Steinstraße",
    "building": "house",
    "name": "Manni's kleines Museum",
    "operator": "Manni Otten",
    "tourism": "museum",
    "website": "http://herbi4000.de/niederrhein/manni/"
  }
},
{
  "type": "way",
  "id": 265484293,
  "nodes": [
    2711404628,
    2711408043,
    2711404635,
    2711408040,
    2711404632,
    2711404637,
    2711408045,
    2711404634,
    2711408048,
    2711404608,
    2711404628
  ],
  "tags": {
    "building": "yes",
    "name": "ijzertijd boerderij",
    "note": "reconstruction",
    "opening_hours": "24/7",
    "tourism": "museum"
  }
},
{
  "type": "way",
  "id": 268904994,
  "nodes": [
    2742015090,
    2742015091,
    2742015096,
    2742015097,
    2742015103,
    2742015102,
    2742015105,
    2742015104,
    2742015101,
    2742015100,
    2742015098,
    931985255,
    931995543,
    2742015092,
    2742015090
  ],
  "tags": {
    "addr:housenumber": "12a",
    "addr:postcode": "5236BE",
    "addr:street": "Krommenhoek",
    "building": "yes",
    "man_made": "pumping_station",
    "name": "Museumgemaal Caners",
    "ref:bag": "796100000234095",
    "source": "BAG",
    "source:date": "2018-11-27",
    "start_date": "1990",
    "tourism": "museum",
    "website": "https://www.aaenmaas.nl/informatie_op_maat/burgers/burgers/excursies/museumgemaal_caners",
    "wikipedia": "nl:Museumgemaal Caners"
  }
},
{
  "type": "way",
  "id": 268905200,
  "nodes": [
    2742015036,
    2742015037,
    2742015035,
    2742015041,
    2742015015,
    2742015013,
    2742015011,
    2742015010,
    2742015036
  ],
  "tags": {
    "building": "yes",
    "man_made": "pumping_station",
    "name": "Museum Hertogsgemaal",
    "official_name": "Archeologisch en Paleontologisch Museum Hertogsgemaal",
    "ref:bag": "0796100000273854",
    "source": "BAG",
    "source:date": "2019-11-12",
    "start_date": "1940",
    "tourism": "museum",
    "website": "http://museumhertogsgemaal.nl/",
    "wikipedia": "nl:Museum Hertogsgemaal"
  }
},
{
  "type": "way",
  "id": 277280868,
  "nodes": [
    2818035378,
    2818035380,
    2818035376,
    2818035392,
    2818035150,
    2818036343,
    2818036301,
    2818035197,
    2818035177,
    2818035378
  ],
  "tags": {
    "building": "yes",
    "name": "Museum Buren en Oranje",
    "ref:bag": "214100000015138",
    "source": "BAG",
    "source:date": "2014-03-24",
    "start_date": "1966",
    "tourism": "museum"
  }
},
{
  "type": "way",
  "id": 280668989,
  "nodes": [
    2847404715,
    994574609,
    994573933,
    994568583,
    994569915,
    994548066,
    994567667,
    994548221,
    994571245,
    2847406073,
    2847406069,
    2847404715
  ],
  "tags": {
    "addr:city": "Nijmegen",
    "addr:housenumber": "59",
    "addr:postcode": "6511TB",
    "addr:street": "Kelfkensbos",
    "building": "yes",
    "name": "Museum Het Valkhof",
    "ref:bag": "268100000045512",
    "source": "BAG",
    "source:date": "2014-05-07",
    "start_date": "1999",
    "tourism": "museum",
    "website": "https://www.museumhetvalkhof.nl/",
    "wheelchair": "yes",
    "wikidata": "Q1127079",
    "wikipedia": "nl:Museum Het Valkhof"
  }
},
{
  "type": "way",
  "id": 280670373,
  "nodes": [
    2847419818,
    2847419814,
    2847419817,
    2847419811,
    2847419808,
    2847419807,
    2847419812,
    2847419815,
    2847419810,
    2847419813,
    2847419819,
    2847419611,
    2847419816,
    2847419609,
    2847419614,
    2847419619,
    2847419613,
    2847419616,
    2847419622,
    2847419623,
    2847419617,
    2847419620,
    2847419629,
    2847419632,
    2847419624,
    2847419627,
    2847419634,
    2847419637,
    2847419633,
    2847419635,
    2847419638,
    2847419643,
    2847419641,
    2847419644,
    2847419648,
    2847419683,
    2847419691,
    2847419693,
    2847419686,
    2847419681,
    2847419687,
    2847419684,
    2847419679,
    2847419676,
    2847419680,
    2847419678,
    2847419674,
    2847419672,
    2847419675,
    2847419673,
    2847419669,
    2847419665,
    2847419671,
    2847419670,
    2847419663,
    2847419659,
    2847419664,
    2847419662,
    2847419657,
    2847419653,
    2847419660,
    2847419656,
    2847419651,
    2847419649,
    2847419652,
    2847419650,
    2847419645,
    2847419630,
    2847419631,
    2847419628,
    2847419626,
    2847419612,
    2847419818
  ],
  "tags": {
    "addr:city": "Nijmegen",
    "addr:housename": "Mariënburgkapel",
    "addr:housenumber": "26",
    "addr:postcode": "6511PS",
    "addr:street": "Mariënburg",
    "building": "yes",
    "email": "info@huisvandenijmeegsegeschiedenis.nl",
    "name": "Huis van de Nijmeegse Geschiedenis",
    "opening_hours": "Tu-Sa 11:00-17:00",
    "operator": "Gemeente Nijmegen",
    "phone": "+31-24-3293699",
    "ref:bag": "268100000002938",
    "source": "BAG",
    "source:date": "2014-05-07",
    "start_date": "1431",
    "tourism": "museum",
    "website": "https://www.huisvandenijmeegsegeschiedenis.nl/",
    "wheelchair": "yes",
    "wikidata": "Q2681653"
  }
},
{
  "type": "way",
  "id": 281132594,
  "nodes": [
    2851265098,
    2851265106,
    6452480482,
    3900378126,
    3900378127,
    2851265182,
    2851265183,
    2851265178,
    2851265175,
    2851265165,
    2851265164,
    2851263163,
    2851265156,
    2851265153,
    2851265131,
    2851265133,
    2851265098
  ],
  "tags": {
    "addr:city": "Wijk bij Duurstede",
    "addr:housenumber": "42",
    "addr:postcode": "3961AL",
    "addr:street": "Muntstraat",
    "building": "yes",
    "name": "Museum Dorestad",
    "opening_hours": "Tu-Su 13:30-17:00",
    "ref:bag": "352100000012262",
    "source": "BAG",
    "source:date": "2019-05-06",
    "start_date": "1900",
    "tourism": "museum",
    "website": "http://www.museumdorestad.nl/"
  }
},
{
  "type": "way",
  "id": 281929073,
  "nodes": [
    2858914107,
    2858913603,
    2858911794,
    2858911793,
    2858911799,
    2858911779,
    2858913612,
    2858913527,
    2858913539,
    2858913626,
    2858913560,
    2858913578,
    2858913589,
    2858913591,
    2858913583,
    2858913831,
    2858914107
  ],
  "tags": {
    "building": "industrial",
    "contact:email": "info@mea-vota.info",
    "contact:phone": "+31 6 24642651",
    "contact:website": "http://www.mea-vota.info/",
    "museum": "agriculture",
    "name": "Mea Vota",
    "opening_hours": "Sa 13:00-17:00",
    "ref:bag": "1705100000026466",
    "source": "BAG",
    "source:date": "2014-05-07",
    "start_date": "2009",
    "tourism": "museum"
  }
},
{
  "type": "way",
  "id": 289641256,
  "nodes": [
    2931754853,
    2931754841,
    2931754778,
    2931752415,
    2931752164,
    2931752148,
    2931750761,
    2931750779,
    2931750760,
    2931750965,
    2931750939,
    2931750744,
    2931750959,
    2931753253,
    2931752468,
    2931752480,
    2931754222,
    2931754209,
    2931754720,
    2931754724,
    2931754757,
    2931754786,
    2931754853
  ],
  "tags": {
    "building": "commercial",
    "name": "Museum Jan Cunen centrum",
    "ref:bag": "828100001486175",
    "source": "BAG",
    "source:date": "2014-06-23",
    "start_date": "1850",
    "tourism": "museum"
  }
},
{
  "type": "way",
  "id": 297652366,
  "nodes": [
    6988309527,
    6988309570,
    6988321107,
    3015467778,
    3015467841,
    3015467840,
    3015467867,
    3015467875,
    3015467873,
    3015467883,
    3015467886,
    3015467887,
    3015467884,
    3015467878,
    3015467879,
    3015467865,
    3015467880,
    3015467866,
    3015467856,
    3015467869,
    3015467823,
    3015467811,
    3015467857,
    3015467821,
    3015467817,
    3015467791,
    3015467855,
    3015467790,
    3015467780,
    3015467777,
    3015467779,
    3015467774,
    3015467764,
    3015467758,
    3015467759,
    3015467775,
    3015467776,
    3015467770,
    3015467766,
    6988321220,
    6988310101,
    6988307918,
    6988309527
  ],
  "tags": {
    "building": "yes",
    "ref:bag": "0274100000000407",
    "source": "BAG",
    "source:date": "2020-02-01",
    "start_date": "1895",
    "tourism": "museum"
  }
},
{
  "type": "way",
  "id": 365824330,
  "nodes": [
    662510755,
    662510752,
    662510753,
    3698307899,
    662510740,
    2722891950,
    662510755
  ],
  "tags": {
    "building": "yes",
    "building:levels": "2",
    "name": "Slag om Arnhem",
    "name:en": "Battle of Arnhem",
    "ref:bag": "202100000236578",
    "roof:shape": "flat",
    "source": "BAG",
    "source:date": "2014-02-11",
    "start_date": "1970",
    "tourism": "museum"
  }
},
{
  "type": "way",
  "id": 386935023,
  "nodes": [
    735796282,
    735825631,
    735782468,
    735809835,
    735840279,
    735869191,
    735802249,
    735895809,
    735800853,
    735831009,
    735848899,
    735896389,
    3902860114,
    735786738,
    735885482,
    735865551,
    735836979,
    735891492,
    735872750,
    735844421,
    735815281,
    2156120330,
    2156120337,
    2156120349,
    2156120350,
    2156120347,
    2156120345,
    2156120336,
    2156120313,
    735867221,
    2156120291,
    3902860113,
    735838842,
    735852017,
    735821869,
    735793479,
    735885050,
    735786103,
    735814601,
    735843699,
    735799188,
    735829509,
    735779568,
    735880624,
    735857706,
    735839410,
    735808402,
    735781534,
    735882330,
    735817766,
    735788926,
    735887160,
    735867904,
    735877570,
    735852788,
    735827930,
    735797790,
    3902860102,
    3902860103,
    3902860109,
    735796282
  ],
  "tags": {
    "addr:city": "Arnhem",
    "addr:country": "NL",
    "addr:housenumber": "4",
    "addr:postcode": "6816 SG",
    "addr:street": "Hoeferlaan",
    "email": "info@openluchtmuseum.nl",
    "fax": "+31 26 3576147",
    "museum": "open_air",
    "name": "Nederlands Openluchtmuseum",
    "phone": "+31 26 3576111",
    "toilets:wheelchair": "yes",
    "tourism": "museum",
    "website": "https://openluchtmuseum.nl/",
    "wheelchair": "limited",
    "wikidata": "Q674449",
    "wikipedia": "nl:Nederlands Openluchtmuseum"
  }
},
{
  "type": "way",
  "id": 504508983,
  "nodes": [
    4946580958,
    4946571807,
    4946571806,
    4946580959,
    4946580960,
    4946580961,
    4946580962,
    4946580963,
    4946580964,
    4948405095,
    4946571808,
    4946580965,
    4946580966,
    4946580967,
    4946580968,
    4946580969,
    4946580970,
    4743615948,
    4743615956,
    970398006,
    970371588,
    970389702,
    970407405,
    970426859,
    970429058,
    970391342,
    4743463013,
    4743463921,
    970379044,
    970376783,
    2579567503,
    970413876,
    970412030,
    970384130,
    970415051,
    970387461,
    4743463923,
    4946580971,
    3004990557,
    4946571797,
    4946571790,
    4946580972,
    4946580973,
    4946580958
  ],
  "tags": {
    "name": "Boerenbondsmuseum",
    "tourism": "museum",
    "website": "https://www.boerenbondsmuseum.nl",
    "wikipedia": "nl:Boerenbondsmuseum"
  }
},
{
  "type": "way",
  "id": 627031849,
  "nodes": [
    5919373856,
    5919373857,
    5919373858,
    5919373859,
    5919373860,
    5919373861,
    5919373862,
    5919373863,
    5919373864,
    5919373865,
    5919373866,
    5919373867,
    5919373868,
    5919373869,
    5919373870,
    5919373871,
    5919373872,
    5919373873,
    5919373874,
    5919373875,
    5919373876,
    5919373877,
    5919373856
  ],
  "tags": {
    "building": "yes",
    "name": "Airborne at the bridge",
    "ref:bag": "202100000253373",
    "source": "BAG;Survey",
    "source:date": "2014-02-11",
    "start_date": "1999",
    "tourism": "museum"
  }
},
{
  "type": "relation",
  "id": 3629288,
  "members": [
    {
      "type": "way",
      "ref": 271882222,
      "role": "outer"
    },
    {
      "type": "way",
      "ref": 271882224,
      "role": "inner"
    }
  ],
  "tags": {
    "building": "yes",
    "name": "Kröller-Müller Museum",
    "name:es": "Museo Kröller-Müller",
    "name:fr": "Musée Kröller-Müller",
    "ref:bag": "228100000019793",
    "source": "BAG",
    "source:date": "2014-03-24",
    "start_date": "1937",
    "tourism": "museum",
    "type": "multipolygon",
    "wikidata": "Q1051928",
    "wikipedia": "nl:Kröller-Müller Museum"
  }
},
{
  "type": "node",
  "id": 970384130,
  "lat": 51.5639482,
  "lon": 5.6683657
},
{
  "type": "node",
  "id": 970387461,
  "lat": 51.5644575,
  "lon": 5.6683031
},
{
  "type": "node",
  "id": 970415051,
  "lat": 51.5641414,
  "lon": 5.6680416
},
{
  "type": "node",
  "id": 3004990557,
  "lat": 51.5649169,
  "lon": 5.6688267
},
{
  "type": "node",
  "id": 4743463923,
  "lat": 51.5644200,
  "lon": 5.6684507
},
{
  "type": "node",
  "id": 4946580971,
  "lat": 51.5645509,
  "lon": 5.6683964
},
{
  "type": "node",
  "id": 970371588,
  "lat": 51.5642960,
  "lon": 5.6698117
},
{
  "type": "node",
  "id": 970376783,
  "lat": 51.5628439,
  "lon": 5.6706933
},
{
  "type": "node",
  "id": 970379044,
  "lat": 51.5628764,
  "lon": 5.6706929
},
{
  "type": "node",
  "id": 970389702,
  "lat": 51.5641093,
  "lon": 5.6703558
},
{
  "type": "node",
  "id": 970391342,
  "lat": 51.5630705,
  "lon": 5.6707227
},
{
  "type": "node",
  "id": 970398006,
  "lat": 51.5643144,
  "lon": 5.6697579
},
{
  "type": "node",
  "id": 970407405,
  "lat": 51.5640994,
  "lon": 5.6703855
},
{
  "type": "node",
  "id": 970412030,
  "lat": 51.5625916,
  "lon": 5.6703543
},
{
  "type": "node",
  "id": 970413876,
  "lat": 51.5628182,
  "lon": 5.6706452
},
{
  "type": "node",
  "id": 970426859,
  "lat": 51.5638934,
  "lon": 5.6709879
},
{
  "type": "node",
  "id": 970429058,
  "lat": 51.5632221,
  "lon": 5.6707715
},
{
  "type": "node",
  "id": 2579567503,
  "lat": 51.5628032,
  "lon": 5.6706743
},
{
  "type": "node",
  "id": 4743463013,
  "lat": 51.5630414,
  "lon": 5.6707516
},
{
  "type": "node",
  "id": 4743463921,
  "lat": 51.5629609,
  "lon": 5.6707380
},
{
  "type": "node",
  "id": 4743615948,
  "lat": 51.5645229,
  "lon": 5.6696195
},
{
  "type": "node",
  "id": 4743615956,
  "lat": 51.5644602,
  "lon": 5.6698687
},
{
  "type": "node",
  "id": 4946571790,
  "lat": 51.5652718,
  "lon": 5.6694350
},
{
  "type": "node",
  "id": 4946571797,
  "lat": 51.5652977,
  "lon": 5.6693029
},
{
  "type": "node",
  "id": 4946571806,
  "lat": 51.5655764,
  "lon": 5.6702034
},
{
  "type": "node",
  "id": 4946571807,
  "lat": 51.5656501,
  "lon": 5.6701179
},
{
  "type": "node",
  "id": 4946571808,
  "lat": 51.5651518,
  "lon": 5.6697393
},
{
  "type": "node",
  "id": 4946580958,
  "lat": 51.5657814,
  "lon": 5.6699756
},
{
  "type": "node",
  "id": 4946580959,
  "lat": 51.5653963,
  "lon": 5.6705952
},
{
  "type": "node",
  "id": 4946580960,
  "lat": 51.5650911,
  "lon": 5.6703001
},
{
  "type": "node",
  "id": 4946580961,
  "lat": 51.5650795,
  "lon": 5.6702197
},
{
  "type": "node",
  "id": 4946580962,
  "lat": 51.5651028,
  "lon": 5.6701097
},
{
  "type": "node",
  "id": 4946580963,
  "lat": 51.5651282,
  "lon": 5.6700418
},
{
  "type": "node",
  "id": 4946580964,
  "lat": 51.5651402,
  "lon": 5.6699165
},
{
  "type": "node",
  "id": 4946580965,
  "lat": 51.5651095,
  "lon": 5.6696993
},
{
  "type": "node",
  "id": 4946580966,
  "lat": 51.5650767,
  "lon": 5.6698361
},
{
  "type": "node",
  "id": 4946580967,
  "lat": 51.5648666,
  "lon": 5.6696108
},
{
  "type": "node",
  "id": 4946580968,
  "lat": 51.5646715,
  "lon": 5.6694874
},
{
  "type": "node",
  "id": 4946580969,
  "lat": 51.5646548,
  "lon": 5.6695384
},
{
  "type": "node",
  "id": 4946580970,
  "lat": 51.5645596,
  "lon": 5.6694901
},
{
  "type": "node",
  "id": 4946580972,
  "lat": 51.5653645,
  "lon": 5.6694027
},
{
  "type": "node",
  "id": 4946580973,
  "lat": 51.5655749,
  "lon": 5.6696723
},
{
  "type": "node",
  "id": 4948405095,
  "lat": 51.5651379,
  "lon": 5.6698812
},
{
  "type": "node",
  "id": 931985255,
  "lat": 51.7518214,
  "lon": 5.3508881
},
{
  "type": "node",
  "id": 931995543,
  "lat": 51.7517034,
  "lon": 5.3508823
},
{
  "type": "node",
  "id": 2742015010,
  "lat": 51.7511941,
  "lon": 5.3506418
},
{
  "type": "node",
  "id": 2742015011,
  "lat": 51.7511945,
  "lon": 5.3506452
},
{
  "type": "node",
  "id": 2742015013,
  "lat": 51.7511974,
  "lon": 5.3506443
},
{
  "type": "node",
  "id": 2742015015,
  "lat": 51.7512171,
  "lon": 5.3508225
},
{
  "type": "node",
  "id": 2742015035,
  "lat": 51.7513041,
  "lon": 5.3506142
},
{
  "type": "node",
  "id": 2742015036,
  "lat": 51.7513066,
  "lon": 5.3506099
},
{
  "type": "node",
  "id": 2742015037,
  "lat": 51.7513070,
  "lon": 5.3506133
},
{
  "type": "node",
  "id": 2742015041,
  "lat": 51.7513235,
  "lon": 5.3507920
},
{
  "type": "node",
  "id": 2742015090,
  "lat": 51.7516987,
  "lon": 5.3508889
},
{
  "type": "node",
  "id": 2742015091,
  "lat": 51.7517026,
  "lon": 5.3507268
},
{
  "type": "node",
  "id": 2742015092,
  "lat": 51.7517032,
  "lon": 5.3508892
},
{
  "type": "node",
  "id": 2742015096,
  "lat": 51.7517987,
  "lon": 5.3507327
},
{
  "type": "node",
  "id": 2742015097,
  "lat": 51.7517996,
  "lon": 5.3507027
},
{
  "type": "node",
  "id": 2742015098,
  "lat": 51.7518213,
  "lon": 5.3508953
},
{
  "type": "node",
  "id": 2742015100,
  "lat": 51.7518258,
  "lon": 5.3508955
},
{
  "type": "node",
  "id": 2742015101,
  "lat": 51.7518281,
  "lon": 5.3507736
},
{
  "type": "node",
  "id": 2742015102,
  "lat": 51.7518288,
  "lon": 5.3507501
},
{
  "type": "node",
  "id": 2742015103,
  "lat": 51.7518302,
  "lon": 5.3507040
},
{
  "type": "node",
  "id": 2742015104,
  "lat": 51.7518394,
  "lon": 5.3507741
},
{
  "type": "node",
  "id": 2742015105,
  "lat": 51.7518401,
  "lon": 5.3507506
},
{
  "type": "node",
  "id": 2818035150,
  "lat": 51.9110884,
  "lon": 5.3337903
},
{
  "type": "node",
  "id": 2818035177,
  "lat": 51.9111217,
  "lon": 5.3340504
},
{
  "type": "node",
  "id": 2818035197,
  "lat": 51.9111406,
  "lon": 5.3340025
},
{
  "type": "node",
  "id": 2818035376,
  "lat": 51.9110237,
  "lon": 5.3339561
},
{
  "type": "node",
  "id": 2818035378,
  "lat": 51.9110246,
  "lon": 5.3339590
},
{
  "type": "node",
  "id": 2818035380,
  "lat": 51.9110255,
  "lon": 5.3339575
},
{
  "type": "node",
  "id": 2818035392,
  "lat": 51.9110426,
  "lon": 5.3339067
},
{
  "type": "node",
  "id": 2818036301,
  "lat": 51.9111442,
  "lon": 5.3340068
},
{
  "type": "node",
  "id": 2818036343,
  "lat": 51.9111873,
  "lon": 5.3338934
},
{
  "type": "node",
  "id": 2851263163,
  "lat": 51.9705785,
  "lon": 5.3450479
},
{
  "type": "node",
  "id": 2851265098,
  "lat": 51.9705147,
  "lon": 5.3449065
},
{
  "type": "node",
  "id": 2851265106,
  "lat": 51.9705199,
  "lon": 5.3449009
},
{
  "type": "node",
  "id": 2851265131,
  "lat": 51.9705398,
  "lon": 5.3449624
},
{
  "type": "node",
  "id": 2851265133,
  "lat": 51.9705403,
  "lon": 5.3449619
},
{
  "type": "node",
  "id": 2851265153,
  "lat": 51.9705523,
  "lon": 5.3449910
},
{
  "type": "node",
  "id": 2851265156,
  "lat": 51.9705527,
  "lon": 5.3449904
},
{
  "type": "node",
  "id": 2851265164,
  "lat": 51.9706442,
  "lon": 5.3449755
},
{
  "type": "node",
  "id": 2851265165,
  "lat": 51.9706451,
  "lon": 5.3449775
},
{
  "type": "node",
  "id": 2851265175,
  "lat": 51.9706518,
  "lon": 5.3449677
},
{
  "type": "node",
  "id": 2851265178,
  "lat": 51.9706527,
  "lon": 5.3449715
},
{
  "type": "node",
  "id": 2851265182,
  "lat": 51.9706558,
  "lon": 5.3449655
},
{
  "type": "node",
  "id": 2851265183,
  "lat": 51.9706572,
  "lon": 5.3449687
},
{
  "type": "node",
  "id": 3900378126,
  "lat": 51.9706131,
  "lon": 5.3447937
},
{
  "type": "node",
  "id": 3900378127,
  "lat": 51.9706790,
  "lon": 5.3449399
},
{
  "type": "node",
  "id": 6452480482,
  "lat": 51.9706120,
  "lon": 5.3447913
},
{
  "type": "node",
  "id": 2931750744,
  "lat": 51.7653037,
  "lon": 5.5264298
},
{
  "type": "node",
  "id": 2931750760,
  "lat": 51.7653136,
  "lon": 5.5264657
},
{
  "type": "node",
  "id": 2931750761,
  "lat": 51.7653145,
  "lon": 5.5264954
},
{
  "type": "node",
  "id": 2931750779,
  "lat": 51.7653222,
  "lon": 5.5264879
},
{
  "type": "node",
  "id": 2931750939,
  "lat": 51.7652728,
  "lon": 5.5264608
},
{
  "type": "node",
  "id": 2931750959,
  "lat": 51.7652824,
  "lon": 5.5263744
},
{
  "type": "node",
  "id": 2931750965,
  "lat": 51.7652855,
  "lon": 5.5264937
},
{
  "type": "node",
  "id": 2931752148,
  "lat": 51.7653500,
  "lon": 5.5265879
},
{
  "type": "node",
  "id": 2931752164,
  "lat": 51.7653561,
  "lon": 5.5265820
},
{
  "type": "node",
  "id": 2931752415,
  "lat": 51.7653807,
  "lon": 5.5266459
},
{
  "type": "node",
  "id": 2931752468,
  "lat": 51.7654461,
  "lon": 5.5262792
},
{
  "type": "node",
  "id": 2931752480,
  "lat": 51.7654504,
  "lon": 5.5262747
},
{
  "type": "node",
  "id": 2931753253,
  "lat": 51.7654266,
  "lon": 5.5262294
},
{
  "type": "node",
  "id": 2931754209,
  "lat": 51.7654711,
  "lon": 5.5263556
},
{
  "type": "node",
  "id": 2931754222,
  "lat": 51.7654788,
  "lon": 5.5263480
},
{
  "type": "node",
  "id": 2931754720,
  "lat": 51.7654975,
  "lon": 5.5264242
},
{
  "type": "node",
  "id": 2931754724,
  "lat": 51.7655002,
  "lon": 5.5264218
},
{
  "type": "node",
  "id": 2931754757,
  "lat": 51.7655226,
  "lon": 5.5264301
},
{
  "type": "node",
  "id": 2931754778,
  "lat": 51.7655308,
  "lon": 5.5264962
},
{
  "type": "node",
  "id": 2931754786,
  "lat": 51.7655351,
  "lon": 5.5264638
},
{
  "type": "node",
  "id": 2931754841,
  "lat": 51.7655403,
  "lon": 5.5264997
},
{
  "type": "node",
  "id": 2931754853,
  "lat": 51.7655452,
  "lon": 5.5264677
},
{
  "type": "node",
  "id": 994548066,
  "lat": 51.8467215,
  "lon": 5.8712366
},
{
  "type": "node",
  "id": 994548221,
  "lat": 51.8468044,
  "lon": 5.8713218
},
{
  "type": "node",
  "id": 994567667,
  "lat": 51.8468115,
  "lon": 5.8712867
},
{
  "type": "node",
  "id": 994568583,
  "lat": 51.8466797,
  "lon": 5.8712134
},
{
  "type": "node",
  "id": 994569915,
  "lat": 51.8467222,
  "lon": 5.8712361
},
{
  "type": "node",
  "id": 994571245,
  "lat": 51.8469440,
  "lon": 5.8714008
},
{
  "type": "node",
  "id": 994573933,
  "lat": 51.8466855,
  "lon": 5.8711910
},
{
  "type": "node",
  "id": 994574609,
  "lat": 51.8463157,
  "lon": 5.8709808
},
{
  "type": "node",
  "id": 2847404715,
  "lat": 51.8462099,
  "lon": 5.8714662
},
{
  "type": "node",
  "id": 2847406069,
  "lat": 51.8468501,
  "lon": 5.8718301
},
{
  "type": "node",
  "id": 2847406073,
  "lat": 51.8469859,
  "lon": 5.8714245
},
{
  "type": "node",
  "id": 2847419609,
  "lat": 51.8451313,
  "lon": 5.8664835
},
{
  "type": "node",
  "id": 2847419611,
  "lat": 51.8451388,
  "lon": 5.8665034
},
{
  "type": "node",
  "id": 2847419612,
  "lat": 51.8451391,
  "lon": 5.8666689
},
{
  "type": "node",
  "id": 2847419613,
  "lat": 51.8451395,
  "lon": 5.8664433
},
{
  "type": "node",
  "id": 2847419614,
  "lat": 51.8451420,
  "lon": 5.8664896
},
{
  "type": "node",
  "id": 2847419616,
  "lat": 51.8451431,
  "lon": 5.8664260
},
{
  "type": "node",
  "id": 2847419617,
  "lat": 51.8451435,
  "lon": 5.8663918
},
{
  "type": "node",
  "id": 2847419619,
  "lat": 51.8451505,
  "lon": 5.8664494
},
{
  "type": "node",
  "id": 2847419620,
  "lat": 51.8451512,
  "lon": 5.8663561
},
{
  "type": "node",
  "id": 2847419622,
  "lat": 51.8451543,
  "lon": 5.8664322
},
{
  "type": "node",
  "id": 2847419623,
  "lat": 51.8451608,
  "lon": 5.8664014
},
{
  "type": "node",
  "id": 2847419624,
  "lat": 51.8451624,
  "lon": 5.8663298
},
{
  "type": "node",
  "id": 2847419626,
  "lat": 51.8451651,
  "lon": 5.8666838
},
{
  "type": "node",
  "id": 2847419627,
  "lat": 51.8451653,
  "lon": 5.8663163
},
{
  "type": "node",
  "id": 2847419628,
  "lat": 51.8451658,
  "lon": 5.8667042
},
{
  "type": "node",
  "id": 2847419629,
  "lat": 51.8451688,
  "lon": 5.8663658
},
{
  "type": "node",
  "id": 2847419630,
  "lat": 51.8451743,
  "lon": 5.8666839
},
{
  "type": "node",
  "id": 2847419631,
  "lat": 51.8451749,
  "lon": 5.8667031
},
{
  "type": "node",
  "id": 2847419632,
  "lat": 51.8451750,
  "lon": 5.8663368
},
{
  "type": "node",
  "id": 2847419633,
  "lat": 51.8451757,
  "lon": 5.8662728
},
{
  "type": "node",
  "id": 2847419634,
  "lat": 51.8451769,
  "lon": 5.8663228
},
{
  "type": "node",
  "id": 2847419635,
  "lat": 51.8451788,
  "lon": 5.8662581
},
{
  "type": "node",
  "id": 2847419637,
  "lat": 51.8451863,
  "lon": 5.8662787
},
{
  "type": "node",
  "id": 2847419638,
  "lat": 51.8451886,
  "lon": 5.8662635
},
{
  "type": "node",
  "id": 2847419641,
  "lat": 51.8451914,
  "lon": 5.8661934
},
{
  "type": "node",
  "id": 2847419643,
  "lat": 51.8451988,
  "lon": 5.8662155
},
{
  "type": "node",
  "id": 2847419644,
  "lat": 51.8451992,
  "lon": 5.8661889
},
{
  "type": "node",
  "id": 2847419645,
  "lat": 51.8452005,
  "lon": 5.8666628
},
{
  "type": "node",
  "id": 2847419648,
  "lat": 51.8452066,
  "lon": 5.8662092
},
{
  "type": "node",
  "id": 2847419649,
  "lat": 51.8452078,
  "lon": 5.8666536
},
{
  "type": "node",
  "id": 2847419650,
  "lat": 51.8452103,
  "lon": 5.8666787
},
{
  "type": "node",
  "id": 2847419651,
  "lat": 51.8452160,
  "lon": 5.8666160
},
{
  "type": "node",
  "id": 2847419652,
  "lat": 51.8452168,
  "lon": 5.8666683
},
{
  "type": "node",
  "id": 2847419653,
  "lat": 51.8452186,
  "lon": 5.8666005
},
{
  "type": "node",
  "id": 2847419656,
  "lat": 51.8452273,
  "lon": 5.8666224
},
{
  "type": "node",
  "id": 2847419657,
  "lat": 51.8452279,
  "lon": 5.8665583
},
{
  "type": "node",
  "id": 2847419659,
  "lat": 51.8452302,
  "lon": 5.8665442
},
{
  "type": "node",
  "id": 2847419660,
  "lat": 51.8452306,
  "lon": 5.8666074
},
{
  "type": "node",
  "id": 2847419662,
  "lat": 51.8452390,
  "lon": 5.8665646
},
{
  "type": "node",
  "id": 2847419663,
  "lat": 51.8452398,
  "lon": 5.8665006
},
{
  "type": "node",
  "id": 2847419664,
  "lat": 51.8452420,
  "lon": 5.8665509
},
{
  "type": "node",
  "id": 2847419665,
  "lat": 51.8452426,
  "lon": 5.8664869
},
{
  "type": "node",
  "id": 2847419669,
  "lat": 51.8452515,
  "lon": 5.8664465
},
{
  "type": "node",
  "id": 2847419670,
  "lat": 51.8452516,
  "lon": 5.8665074
},
{
  "type": "node",
  "id": 2847419671,
  "lat": 51.8452545,
  "lon": 5.8664938
},
{
  "type": "node",
  "id": 2847419672,
  "lat": 51.8452554,
  "lon": 5.8664305
},
{
  "type": "node",
  "id": 2847419673,
  "lat": 51.8452631,
  "lon": 5.8664532
},
{
  "type": "node",
  "id": 2847419674,
  "lat": 51.8452646,
  "lon": 5.8663887
},
{
  "type": "node",
  "id": 2847419675,
  "lat": 51.8452667,
  "lon": 5.8664370
},
{
  "type": "node",
  "id": 2847419676,
  "lat": 51.8452674,
  "lon": 5.8663755
},
{
  "type": "node",
  "id": 2847419678,
  "lat": 51.8452762,
  "lon": 5.8663954
},
{
  "type": "node",
  "id": 2847419679,
  "lat": 51.8452767,
  "lon": 5.8663332
},
{
  "type": "node",
  "id": 2847419680,
  "lat": 51.8452791,
  "lon": 5.8663822
},
{
  "type": "node",
  "id": 2847419681,
  "lat": 51.8452794,
  "lon": 5.8663174
},
{
  "type": "node",
  "id": 2847419683,
  "lat": 51.8452858,
  "lon": 5.8662537
},
{
  "type": "node",
  "id": 2847419684,
  "lat": 51.8452875,
  "lon": 5.8663394
},
{
  "type": "node",
  "id": 2847419686,
  "lat": 51.8452901,
  "lon": 5.8662688
},
{
  "type": "node",
  "id": 2847419687,
  "lat": 51.8452908,
  "lon": 5.8663240
},
{
  "type": "node",
  "id": 2847419691,
  "lat": 51.8452989,
  "lon": 5.8662470
},
{
  "type": "node",
  "id": 2847419693,
  "lat": 51.8453025,
  "lon": 5.8662587
},
{
  "type": "node",
  "id": 2847419807,
  "lat": 51.8451042,
  "lon": 5.8666002
},
{
  "type": "node",
  "id": 2847419808,
  "lat": 51.8451049,
  "lon": 5.8666192
},
{
  "type": "node",
  "id": 2847419810,
  "lat": 51.8451148,
  "lon": 5.8665540
},
{
  "type": "node",
  "id": 2847419811,
  "lat": 51.8451170,
  "lon": 5.8666184
},
{
  "type": "node",
  "id": 2847419812,
  "lat": 51.8451172,
  "lon": 5.8665991
},
{
  "type": "node",
  "id": 2847419813,
  "lat": 51.8451184,
  "lon": 5.8665375
},
{
  "type": "node",
  "id": 2847419814,
  "lat": 51.8451219,
  "lon": 5.8666726
},
{
  "type": "node",
  "id": 2847419815,
  "lat": 51.8451258,
  "lon": 5.8665602
},
{
  "type": "node",
  "id": 2847419816,
  "lat": 51.8451282,
  "lon": 5.8664973
},
{
  "type": "node",
  "id": 2847419817,
  "lat": 51.8451289,
  "lon": 5.8666613
},
{
  "type": "node",
  "id": 2847419818,
  "lat": 51.8451293,
  "lon": 5.8666846
},
{
  "type": "node",
  "id": 2847419819,
  "lat": 51.8451299,
  "lon": 5.8665441
},
{
  "type": "node",
  "id": 3015467758,
  "lat": 51.9876029,
  "lon": 5.8326127
},
{
  "type": "node",
  "id": 3015467759,
  "lat": 51.9876219,
  "lon": 5.8326067
},
{
  "type": "node",
  "id": 3015467764,
  "lat": 51.9876099,
  "lon": 5.8326702
},
{
  "type": "node",
  "id": 3015467766,
  "lat": 51.9876249,
  "lon": 5.8325919
},
{
  "type": "node",
  "id": 3015467770,
  "lat": 51.9876243,
  "lon": 5.8325920
},
{
  "type": "node",
  "id": 3015467774,
  "lat": 51.9876259,
  "lon": 5.8326651
},
{
  "type": "node",
  "id": 3015467775,
  "lat": 51.9876201,
  "lon": 5.8325916
},
{
  "type": "node",
  "id": 3015467776,
  "lat": 51.9876241,
  "lon": 5.8325903
},
{
  "type": "node",
  "id": 3015467778,
  "lat": 51.9876929,
  "lon": 5.8325702
},
{
  "type": "node",
  "id": 3015467840,
  "lat": 51.9877422,
  "lon": 5.8325526
},
{
  "type": "node",
  "id": 3015467841,
  "lat": 51.9877424,
  "lon": 5.8325544
},
{
  "type": "node",
  "id": 3015467867,
  "lat": 51.9877461,
  "lon": 5.8325514
},
{
  "type": "node",
  "id": 3015467873,
  "lat": 51.9877459,
  "lon": 5.8325582
},
{
  "type": "node",
  "id": 3015467875,
  "lat": 51.9877469,
  "lon": 5.8325578
},
{
  "type": "node",
  "id": 3015467883,
  "lat": 51.9877543,
  "lon": 5.8326287
},
{
  "type": "node",
  "id": 3015467884,
  "lat": 51.9877854,
  "lon": 5.8326928
},
{
  "type": "node",
  "id": 3015467886,
  "lat": 51.9877585,
  "lon": 5.8326274
},
{
  "type": "node",
  "id": 3015467887,
  "lat": 51.9877803,
  "lon": 5.8326512
},
{
  "type": "node",
  "id": 6988307918,
  "lat": 51.9875936,
  "lon": 5.8324013
},
{
  "type": "node",
  "id": 6988309527,
  "lat": 51.9877328,
  "lon": 5.8323580
},
{
  "type": "node",
  "id": 6988309570,
  "lat": 51.9877478,
  "lon": 5.8324826
},
{
  "type": "node",
  "id": 6988310101,
  "lat": 51.9876111,
  "lon": 5.8325508
},
{
  "type": "node",
  "id": 6988321107,
  "lat": 51.9876850,
  "lon": 5.8325025
},
{
  "type": "node",
  "id": 6988321220,
  "lat": 51.9876198,
  "lon": 5.8325480
},
{
  "type": "node",
  "id": 3015467777,
  "lat": 51.9876236,
  "lon": 5.8327818
},
{
  "type": "node",
  "id": 3015467779,
  "lat": 51.9876396,
  "lon": 5.8327768
},
{
  "type": "node",
  "id": 3015467780,
  "lat": 51.9876305,
  "lon": 5.8328392
},
{
  "type": "node",
  "id": 3015467790,
  "lat": 51.9876505,
  "lon": 5.8328325
},
{
  "type": "node",
  "id": 3015467791,
  "lat": 51.9876501,
  "lon": 5.8328416
},
{
  "type": "node",
  "id": 3015467811,
  "lat": 51.9876950,
  "lon": 5.8328317
},
{
  "type": "node",
  "id": 3015467817,
  "lat": 51.9876509,
  "lon": 5.8328483
},
{
  "type": "node",
  "id": 3015467821,
  "lat": 51.9876551,
  "lon": 5.8328468
},
{
  "type": "node",
  "id": 3015467823,
  "lat": 51.9877035,
  "lon": 5.8329056
},
{
  "type": "node",
  "id": 3015467855,
  "lat": 51.9876512,
  "lon": 5.8328412
},
{
  "type": "node",
  "id": 3015467856,
  "lat": 51.9877716,
  "lon": 5.8328094
},
{
  "type": "node",
  "id": 3015467857,
  "lat": 51.9876549,
  "lon": 5.8328451
},
{
  "type": "node",
  "id": 3015467865,
  "lat": 51.9877750,
  "lon": 5.8328004
},
{
  "type": "node",
  "id": 3015467866,
  "lat": 51.9877770,
  "lon": 5.8328077
},
{
  "type": "node",
  "id": 3015467869,
  "lat": 51.9877805,
  "lon": 5.8328808
},
{
  "type": "node",
  "id": 3015467878,
  "lat": 51.9877707,
  "lon": 5.8327277
},
{
  "type": "node",
  "id": 3015467879,
  "lat": 51.9877664,
  "lon": 5.8327291
},
{
  "type": "node",
  "id": 3015467880,
  "lat": 51.9877760,
  "lon": 5.8328001
},
{
  "type": "node",
  "id": 2711404608,
  "lat": 52.1075863,
  "lon": 5.6665258
},
{
  "type": "node",
  "id": 2711404628,
  "lat": 52.1076125,
  "lon": 5.6663571
},
{
  "type": "node",
  "id": 2711404632,
  "lat": 52.1075648,
  "lon": 5.6663408
},
{
  "type": "node",
  "id": 2711404634,
  "lat": 52.1075584,
  "lon": 5.6665672
},
{
  "type": "node",
  "id": 2711404635,
  "lat": 52.1075966,
  "lon": 5.6663021
},
{
  "type": "node",
  "id": 2711404637,
  "lat": 52.1075368,
  "lon": 5.6665176
},
{
  "type": "node",
  "id": 2711408040,
  "lat": 52.1075834,
  "lon": 5.6662995
},
{
  "type": "node",
  "id": 2711408043,
  "lat": 52.1076108,
  "lon": 5.6663197
},
{
  "type": "node",
  "id": 2711408045,
  "lat": 52.1075420,
  "lon": 5.6665513
},
{
  "type": "node",
  "id": 2711408048,
  "lat": 52.1075743,
  "lon": 5.6665542
},
{
  "type": "node",
  "id": 662324102,
  "lat": 52.0268794,
  "lon": 5.8719641
},
{
  "type": "node",
  "id": 662324103,
  "lat": 52.0269702,
  "lon": 5.8719273
},
{
  "type": "node",
  "id": 2768975072,
  "lat": 52.0267303,
  "lon": 5.8719976
},
{
  "type": "node",
  "id": 2768975143,
  "lat": 52.0268780,
  "lon": 5.8719480
},
{
  "type": "node",
  "id": 757381253,
  "lat": 52.0953434,
  "lon": 5.8183370
},
{
  "type": "node",
  "id": 757381534,
  "lat": 52.0966686,
  "lon": 5.8177037
},
{
  "type": "node",
  "id": 757382862,
  "lat": 52.0957680,
  "lon": 5.8172220
},
{
  "type": "node",
  "id": 757383978,
  "lat": 52.0951841,
  "lon": 5.8183403
},
{
  "type": "node",
  "id": 757384345,
  "lat": 52.0948457,
  "lon": 5.8188124
},
{
  "type": "node",
  "id": 757384643,
  "lat": 52.0956557,
  "lon": 5.8167505
},
{
  "type": "node",
  "id": 757385013,
  "lat": 52.0965670,
  "lon": 5.8173196
},
{
  "type": "node",
  "id": 757385546,
  "lat": 52.0956433,
  "lon": 5.8181344
},
{
  "type": "node",
  "id": 757385819,
  "lat": 52.0954538,
  "lon": 5.8160804
},
{
  "type": "node",
  "id": 757386967,
  "lat": 52.0955886,
  "lon": 5.8183456
},
{
  "type": "node",
  "id": 757387268,
  "lat": 52.0960402,
  "lon": 5.8177717
},
{
  "type": "node",
  "id": 757388806,
  "lat": 52.0960776,
  "lon": 5.8179100
},
{
  "type": "node",
  "id": 757389127,
  "lat": 52.0955763,
  "lon": 5.8164679
},
{
  "type": "node",
  "id": 757390167,
  "lat": 52.0951452,
  "lon": 5.8190156
},
{
  "type": "node",
  "id": 757390994,
  "lat": 52.0954208,
  "lon": 5.8159554
},
{
  "type": "node",
  "id": 757392472,
  "lat": 52.0957851,
  "lon": 5.8179709
},
{
  "type": "node",
  "id": 757392951,
  "lat": 52.0964861,
  "lon": 5.8178351
},
{
  "type": "node",
  "id": 757394253,
  "lat": 52.0962603,
  "lon": 5.8177826
},
{
  "type": "node",
  "id": 757395194,
  "lat": 52.0951366,
  "lon": 5.8181656
},
{
  "type": "node",
  "id": 757395741,
  "lat": 52.0957817,
  "lon": 5.8178918
},
{
  "type": "node",
  "id": 757396163,
  "lat": 52.0957062,
  "lon": 5.8171088
},
{
  "type": "node",
  "id": 757396494,
  "lat": 52.0950530,
  "lon": 5.8174912
},
{
  "type": "node",
  "id": 757396572,
  "lat": 52.0964914,
  "lon": 5.8170353
},
{
  "type": "node",
  "id": 757398082,
  "lat": 52.0952512,
  "lon": 5.8161544
},
{
  "type": "node",
  "id": 757399120,
  "lat": 52.0961799,
  "lon": 5.8176056
},
{
  "type": "node",
  "id": 757399654,
  "lat": 52.0965763,
  "lon": 5.8174367
},
{
  "type": "node",
  "id": 757399881,
  "lat": 52.0953846,
  "lon": 5.8184924
},
{
  "type": "node",
  "id": 757401792,
  "lat": 52.0956917,
  "lon": 5.8175611
},
{
  "type": "node",
  "id": 757403025,
  "lat": 52.0949396,
  "lon": 5.8191631
},
{
  "type": "node",
  "id": 757403686,
  "lat": 52.0956388,
  "lon": 5.8166876
},
{
  "type": "node",
  "id": 757404075,
  "lat": 52.0965488,
  "lon": 5.8173326
},
{
  "type": "node",
  "id": 757404599,
  "lat": 52.0949437,
  "lon": 5.8185694
},
{
  "type": "node",
  "id": 757405043,
  "lat": 52.0955592,
  "lon": 5.8164056
},
{
  "type": "node",
  "id": 757406149,
  "lat": 52.0967355,
  "lon": 5.8174487
},
{
  "type": "node",
  "id": 757406397,
  "lat": 52.0955786,
  "lon": 5.8183073
},
{
  "type": "node",
  "id": 757408287,
  "lat": 52.0957211,
  "lon": 5.8172511
},
{
  "type": "node",
  "id": 757408652,
  "lat": 52.0956715,
  "lon": 5.8166631
},
{
  "type": "node",
  "id": 757409723,
  "lat": 52.0950696,
  "lon": 5.8185342
},
{
  "type": "node",
  "id": 757410162,
  "lat": 52.0952340,
  "lon": 5.8160894
},
{
  "type": "node",
  "id": 757410532,
  "lat": 52.0961516,
  "lon": 5.8175028
},
{
  "type": "node",
  "id": 757411037,
  "lat": 52.0956690,
  "lon": 5.8182420
},
{
  "type": "node",
  "id": 757411312,
  "lat": 52.0954298,
  "lon": 5.8160975
},
{
  "type": "node",
  "id": 757412862,
  "lat": 52.0962892,
  "lon": 5.8178902
},
{
  "type": "node",
  "id": 757414596,
  "lat": 52.0956118,
  "lon": 5.8164422
},
{
  "type": "node",
  "id": 757416120,
  "lat": 52.0950010,
  "lon": 5.8184727
},
{
  "type": "node",
  "id": 757417001,
  "lat": 52.0963869,
  "lon": 5.8174582
},
{
  "type": "node",
  "id": 757417663,
  "lat": 52.0967095,
  "lon": 5.8173397
},
{
  "type": "node",
  "id": 757418024,
  "lat": 52.0957108,
  "lon": 5.8180853
},
{
  "type": "node",
  "id": 757418426,
  "lat": 52.0964669,
  "lon": 5.8177627
},
{
  "type": "node",
  "id": 757420099,
  "lat": 52.0957867,
  "lon": 5.8174931
},
{
  "type": "node",
  "id": 757421789,
  "lat": 52.0952186,
  "lon": 5.8181067
},
{
  "type": "node",
  "id": 757422147,
  "lat": 52.0961394,
  "lon": 5.8176345
},
{
  "type": "node",
  "id": 757422434,
  "lat": 52.0957329,
  "lon": 5.8170903
},
{
  "type": "node",
  "id": 757422711,
  "lat": 52.0948863,
  "lon": 5.8176109
},
{
  "type": "node",
  "id": 757422789,
  "lat": 52.0963076,
  "lon": 5.8171682
},
{
  "type": "node",
  "id": 757423300,
  "lat": 52.0949823,
  "lon": 5.8187142
},
{
  "type": "node",
  "id": 757423674,
  "lat": 52.0955213,
  "lon": 5.8164327
},
{
  "type": "node",
  "id": 757424366,
  "lat": 52.0969259,
  "lon": 5.8173125
},
{
  "type": "node",
  "id": 2768150153,
  "lat": 52.0948166,
  "lon": 5.8173512
},
{
  "type": "node",
  "id": 2768150164,
  "lat": 52.0949815,
  "lon": 5.8172323
},
{
  "type": "node",
  "id": 2768150170,
  "lat": 52.0950035,
  "lon": 5.8173163
},
{
  "type": "node",
  "id": 2768150174,
  "lat": 52.0950136,
  "lon": 5.8185205
},
{
  "type": "node",
  "id": 2768150178,
  "lat": 52.0950515,
  "lon": 5.8186703
},
{
  "type": "node",
  "id": 2768150184,
  "lat": 52.0950973,
  "lon": 5.8186382
},
{
  "type": "node",
  "id": 2768150192,
  "lat": 52.0951394,
  "lon": 5.8172188
},
{
  "type": "node",
  "id": 2768150196,
  "lat": 52.0951494,
  "lon": 5.8172556
},
{
  "type": "node",
  "id": 2768150198,
  "lat": 52.0951680,
  "lon": 5.8173244
},
{
  "type": "node",
  "id": 2768150199,
  "lat": 52.0951820,
  "lon": 5.8172337
},
{
  "type": "node",
  "id": 2768150219,
  "lat": 52.0951997,
  "lon": 5.8173031
},
{
  "type": "node",
  "id": 2768150238,
  "lat": 52.0952047,
  "lon": 5.8161878
},
{
  "type": "node",
  "id": 2768150297,
  "lat": 52.0952596,
  "lon": 5.8163919
},
{
  "type": "node",
  "id": 2768150298,
  "lat": 52.0953285,
  "lon": 5.8166461
},
{
  "type": "node",
  "id": 2768150300,
  "lat": 52.0953327,
  "lon": 5.8163405
},
{
  "type": "node",
  "id": 2768150303,
  "lat": 52.0953437,
  "lon": 5.8175929
},
{
  "type": "node",
  "id": 2768150304,
  "lat": 52.0953467,
  "lon": 5.8165569
},
{
  "type": "node",
  "id": 2768150305,
  "lat": 52.0953582,
  "lon": 5.8175239
},
{
  "type": "node",
  "id": 2768150306,
  "lat": 52.0953619,
  "lon": 5.8180412
},
{
  "type": "node",
  "id": 2768150307,
  "lat": 52.0953633,
  "lon": 5.8166203
},
{
  "type": "node",
  "id": 2768150308,
  "lat": 52.0953661,
  "lon": 5.8181137
},
{
  "type": "node",
  "id": 2768150309,
  "lat": 52.0953792,
  "lon": 5.8177256
},
{
  "type": "node",
  "id": 2768150310,
  "lat": 52.0953844,
  "lon": 5.8165305
},
{
  "type": "node",
  "id": 2768150312,
  "lat": 52.0953880,
  "lon": 5.8168703
},
{
  "type": "node",
  "id": 2768150313,
  "lat": 52.0954024,
  "lon": 5.8182578
},
{
  "type": "node",
  "id": 2768150314,
  "lat": 52.0954172,
  "lon": 5.8174746
},
{
  "type": "node",
  "id": 2768150315,
  "lat": 52.0954185,
  "lon": 5.8174805
},
{
  "type": "node",
  "id": 2768150316,
  "lat": 52.0954197,
  "lon": 5.8177484
},
{
  "type": "node",
  "id": 2768150318,
  "lat": 52.0954231,
  "lon": 5.8168450
},
{
  "type": "node",
  "id": 2768150320,
  "lat": 52.0954395,
  "lon": 5.8169076
},
{
  "type": "node",
  "id": 2768150321,
  "lat": 52.0954514,
  "lon": 5.8171284
},
{
  "type": "node",
  "id": 2768150323,
  "lat": 52.0954596,
  "lon": 5.8180516
},
{
  "type": "node",
  "id": 2768150324,
  "lat": 52.0954802,
  "lon": 5.8168788
},
{
  "type": "node",
  "id": 2768150325,
  "lat": 52.0954959,
  "lon": 5.8181957
},
{
  "type": "node",
  "id": 2768150327,
  "lat": 52.0955254,
  "lon": 5.8173979
},
{
  "type": "node",
  "id": 2768150328,
  "lat": 52.0955317,
  "lon": 5.8170708
},
{
  "type": "node",
  "id": 2768150332,
  "lat": 52.0955835,
  "lon": 5.8177963
},
{
  "type": "node",
  "id": 2768150333,
  "lat": 52.0955877,
  "lon": 5.8176160
},
{
  "type": "node",
  "id": 2768150335,
  "lat": 52.0955933,
  "lon": 5.8176386
},
{
  "type": "node",
  "id": 2768150336,
  "lat": 52.0956025,
  "lon": 5.8178684
},
{
  "type": "node",
  "id": 2768150338,
  "lat": 52.0956175,
  "lon": 5.8167791
},
{
  "type": "node",
  "id": 2768150342,
  "lat": 52.0956605,
  "lon": 5.8175651
},
{
  "type": "node",
  "id": 2768150346,
  "lat": 52.0956968,
  "lon": 5.8177167
},
{
  "type": "node",
  "id": 2768150347,
  "lat": 52.0956971,
  "lon": 5.8180346
},
{
  "type": "node",
  "id": 2768150354,
  "lat": 52.0957817,
  "lon": 5.8179572
},
{
  "type": "node",
  "id": 2768150400,
  "lat": 52.0961113,
  "lon": 5.8175311
},
{
  "type": "node",
  "id": 2768150457,
  "lat": 52.0966974,
  "lon": 5.8178107
},
{
  "type": "node",
  "id": 2768150478,
  "lat": 52.0967899,
  "lon": 5.8174095
},
{
  "type": "node",
  "id": 2768150485,
  "lat": 52.0968658,
  "lon": 5.8176900
},
{
  "type": "node",
  "id": 2768150491,
  "lat": 52.0970018,
  "lon": 5.8175930
},
{
  "type": "node",
  "id": 3512288762,
  "lat": 52.0960655,
  "lon": 5.8178639
},
{
  "type": "node",
  "id": 3512288840,
  "lat": 52.0967560,
  "lon": 5.8177687
},
{
  "type": "node",
  "id": 1865767635,
  "lat": 51.7020704,
  "lon": 6.0507572
},
{
  "type": "node",
  "id": 1865767636,
  "lat": 51.7021147,
  "lon": 6.0508847
},
{
  "type": "node",
  "id": 1865767637,
  "lat": 51.7021230,
  "lon": 6.0507842
},
{
  "type": "node",
  "id": 1865767638,
  "lat": 51.7021290,
  "lon": 6.0509909
},
{
  "type": "node",
  "id": 1865767639,
  "lat": 51.7021805,
  "lon": 6.0512729
},
{
  "type": "node",
  "id": 1865767640,
  "lat": 51.7022092,
  "lon": 6.0498765
},
{
  "type": "node",
  "id": 1865767641,
  "lat": 51.7022475,
  "lon": 6.0514370
},
{
  "type": "node",
  "id": 1865767642,
  "lat": 51.7022798,
  "lon": 6.0515607
},
{
  "type": "node",
  "id": 1865767643,
  "lat": 51.7023050,
  "lon": 6.0516958
},
{
  "type": "node",
  "id": 1865767644,
  "lat": 51.7023588,
  "lon": 6.0520589
},
{
  "type": "node",
  "id": 1865767645,
  "lat": 51.7023696,
  "lon": 6.0523409
},
{
  "type": "node",
  "id": 1865767646,
  "lat": 51.7025527,
  "lon": 6.0499943
},
{
  "type": "node",
  "id": 1865767647,
  "lat": 51.7025587,
  "lon": 6.0504154
},
{
  "type": "node",
  "id": 1865767648,
  "lat": 51.7025707,
  "lon": 6.0501701
},
{
  "type": "node",
  "id": 1865767649,
  "lat": 51.7025743,
  "lon": 6.0500735
},
{
  "type": "node",
  "id": 1865767650,
  "lat": 51.7026401,
  "lon": 6.0523390
},
{
  "type": "node",
  "id": 1865767651,
  "lat": 51.7026880,
  "lon": 6.0505872
},
{
  "type": "node",
  "id": 1865767652,
  "lat": 51.7026952,
  "lon": 6.0523467
},
{
  "type": "node",
  "id": 1865767653,
  "lat": 51.7026976,
  "lon": 6.0504752
},
{
  "type": "node",
  "id": 1865767654,
  "lat": 51.7027000,
  "lon": 6.0507282
},
{
  "type": "node",
  "id": 1865767655,
  "lat": 51.7027167,
  "lon": 6.0524529
},
{
  "type": "node",
  "id": 1865767656,
  "lat": 51.7027191,
  "lon": 6.0508094
},
{
  "type": "node",
  "id": 1865767657,
  "lat": 51.7028125,
  "lon": 6.0509117
},
{
  "type": "node",
  "id": 1865767658,
  "lat": 51.7028352,
  "lon": 6.0521150
},
{
  "type": "node",
  "id": 1865767659,
  "lat": 51.7028723,
  "lon": 6.0509291
},
{
  "type": "node",
  "id": 1865767660,
  "lat": 51.7029034,
  "lon": 6.0512304
},
{
  "type": "node",
  "id": 1865767661,
  "lat": 51.7029034,
  "lon": 6.0512922
},
{
  "type": "node",
  "id": 1865767662,
  "lat": 51.7029082,
  "lon": 6.0513540
},
{
  "type": "node",
  "id": 1865767663,
  "lat": 51.7029334,
  "lon": 6.0509117
},
{
  "type": "node",
  "id": 1865767664,
  "lat": 51.7029585,
  "lon": 6.0514486
},
{
  "type": "node",
  "id": 1865767665,
  "lat": 51.7030411,
  "lon": 6.0515722
},
{
  "type": "node",
  "id": 1943006720,
  "lat": 51.8105824,
  "lon": 5.9093742
},
{
  "type": "node",
  "id": 1943006721,
  "lat": 51.8106176,
  "lon": 5.9081901
},
{
  "type": "node",
  "id": 1943006723,
  "lat": 51.8113764,
  "lon": 5.9094149
},
{
  "type": "node",
  "id": 1943006725,
  "lat": 51.8113877,
  "lon": 5.9103141
},
{
  "type": "node",
  "id": 1943006727,
  "lat": 51.8118699,
  "lon": 5.9097679
},
{
  "type": "node",
  "id": 1943006729,
  "lat": 51.8118747,
  "lon": 5.9103388
},
{
  "type": "node",
  "id": 1943006731,
  "lat": 51.8121526,
  "lon": 5.9097655
},
{
  "type": "node",
  "id": 1943006733,
  "lat": 51.8121577,
  "lon": 5.9094892
},
{
  "type": "node",
  "id": 1943006737,
  "lat": 51.8122852,
  "lon": 5.9094810
},
{
  "type": "node",
  "id": 1943006741,
  "lat": 51.8124510,
  "lon": 5.9098604
},
{
  "type": "node",
  "id": 1943006755,
  "lat": 51.8129252,
  "lon": 5.9081365
},
{
  "type": "node",
  "id": 1943006757,
  "lat": 51.8130533,
  "lon": 5.9083156
},
{
  "type": "node",
  "id": 1943006758,
  "lat": 51.8131369,
  "lon": 5.9100006
},
{
  "type": "node",
  "id": 1943006763,
  "lat": 51.8133485,
  "lon": 5.9104172
},
{
  "type": "node",
  "id": 1943006765,
  "lat": 51.8139426,
  "lon": 5.9082354
},
{
  "type": "node",
  "id": 1943006767,
  "lat": 51.8140012,
  "lon": 5.9103388
},
{
  "type": "node",
  "id": 2603580997,
  "lat": 51.7887214,
  "lon": 6.0077927
},
{
  "type": "node",
  "id": 2603581096,
  "lat": 51.7887335,
  "lon": 6.0077183
},
{
  "type": "node",
  "id": 2603581155,
  "lat": 51.7887405,
  "lon": 6.0078006
},
{
  "type": "node",
  "id": 2603581222,
  "lat": 51.7887479,
  "lon": 6.0077618
},
{
  "type": "node",
  "id": 2603581228,
  "lat": 51.7887493,
  "lon": 6.0077250
},
{
  "type": "node",
  "id": 2603581245,
  "lat": 51.7887605,
  "lon": 6.0076477
},
{
  "type": "node",
  "id": 2603581589,
  "lat": 51.7889042,
  "lon": 6.0078229
},
{
  "type": "node",
  "id": 2603581599,
  "lat": 51.7889066,
  "lon": 6.0078052
},
{
  "type": "node",
  "id": 2603581667,
  "lat": 51.7889378,
  "lon": 6.0078162
},
{
  "type": "node",
  "id": 2603581673,
  "lat": 51.7889405,
  "lon": 6.0077973
},
{
  "type": "node",
  "id": 2603581693,
  "lat": 51.7889511,
  "lon": 6.0077196
},
{
  "type": "node",
  "id": 2603705539,
  "lat": 51.6751882,
  "lon": 6.1619111
},
{
  "type": "node",
  "id": 2603705579,
  "lat": 51.6752105,
  "lon": 6.1617110
},
{
  "type": "node",
  "id": 2603705599,
  "lat": 51.6752234,
  "lon": 6.1616470
},
{
  "type": "node",
  "id": 2603705604,
  "lat": 51.6752270,
  "lon": 6.1617197
},
{
  "type": "node",
  "id": 2603705620,
  "lat": 51.6752398,
  "lon": 6.1616556
},
{
  "type": "node",
  "id": 2603705695,
  "lat": 51.6752653,
  "lon": 6.1614922
},
{
  "type": "node",
  "id": 2603705706,
  "lat": 51.6752720,
  "lon": 6.1614959
},
{
  "type": "node",
  "id": 2603705710,
  "lat": 51.6752762,
  "lon": 6.1614360
},
{
  "type": "node",
  "id": 2603705723,
  "lat": 51.6752834,
  "lon": 6.1614398
},
{
  "type": "node",
  "id": 2603705727,
  "lat": 51.6752874,
  "lon": 6.1614196
},
{
  "type": "node",
  "id": 2603705742,
  "lat": 51.6752982,
  "lon": 6.1619689
},
{
  "type": "node",
  "id": 2603705743,
  "lat": 51.6752993,
  "lon": 6.1619641
},
{
  "type": "node",
  "id": 2603705828,
  "lat": 51.6753514,
  "lon": 6.1617048
},
{
  "type": "node",
  "id": 2603705883,
  "lat": 51.6753972,
  "lon": 6.1614765
},
{
  "type": "node",
  "id": 2577578593,
  "lat": 51.7952950,
  "lon": 6.1258575
},
{
  "type": "node",
  "id": 2577578596,
  "lat": 51.7952993,
  "lon": 6.1258475
},
{
  "type": "node",
  "id": 2577578597,
  "lat": 51.7953004,
  "lon": 6.1258487
},
{
  "type": "node",
  "id": 2577578600,
  "lat": 51.7953010,
  "lon": 6.1258643
},
{
  "type": "node",
  "id": 2577578601,
  "lat": 51.7953016,
  "lon": 6.1258629
},
{
  "type": "node",
  "id": 2577578610,
  "lat": 51.7953235,
  "lon": 6.1257952
},
{
  "type": "node",
  "id": 2577578613,
  "lat": 51.7953255,
  "lon": 6.1258919
},
{
  "type": "node",
  "id": 2577578615,
  "lat": 51.7953259,
  "lon": 6.1258902
},
{
  "type": "node",
  "id": 2577578638,
  "lat": 51.7953496,
  "lon": 6.1257315
},
{
  "type": "node",
  "id": 2577578639,
  "lat": 51.7953499,
  "lon": 6.1257311
},
{
  "type": "node",
  "id": 2577578641,
  "lat": 51.7953507,
  "lon": 6.1257327
},
{
  "type": "node",
  "id": 2577578643,
  "lat": 51.7953540,
  "lon": 6.1257216
},
{
  "type": "node",
  "id": 2577578647,
  "lat": 51.7953594,
  "lon": 6.1257300
},
{
  "type": "node",
  "id": 2577578648,
  "lat": 51.7953600,
  "lon": 6.1257284
},
{
  "type": "node",
  "id": 2577578650,
  "lat": 51.7953617,
  "lon": 6.1256041
},
{
  "type": "node",
  "id": 2577578669,
  "lat": 51.7953942,
  "lon": 6.1257208
},
{
  "type": "node",
  "id": 2577578673,
  "lat": 51.7953978,
  "lon": 6.1256446
},
{
  "type": "node",
  "id": 2577578674,
  "lat": 51.7953984,
  "lon": 6.1257110
},
{
  "type": "node",
  "id": 2577578676,
  "lat": 51.7953993,
  "lon": 6.1257120
},
{
  "type": "node",
  "id": 2577578679,
  "lat": 51.7953999,
  "lon": 6.1259759
},
{
  "type": "node",
  "id": 2577578680,
  "lat": 51.7954002,
  "lon": 6.1257275
},
{
  "type": "node",
  "id": 2577578681,
  "lat": 51.7954007,
  "lon": 6.1257267
},
{
  "type": "node",
  "id": 2577578682,
  "lat": 51.7954007,
  "lon": 6.1259746
},
{
  "type": "node",
  "id": 2577578689,
  "lat": 51.7954050,
  "lon": 6.1257815
},
{
  "type": "node",
  "id": 2577578695,
  "lat": 51.7954098,
  "lon": 6.1256170
},
{
  "type": "node",
  "id": 2577578708,
  "lat": 51.7954195,
  "lon": 6.1256619
},
{
  "type": "node",
  "id": 2577578709,
  "lat": 51.7954198,
  "lon": 6.1257482
},
{
  "type": "node",
  "id": 2577578710,
  "lat": 51.7954205,
  "lon": 6.1256630
},
{
  "type": "node",
  "id": 2577578711,
  "lat": 51.7954210,
  "lon": 6.1254650
},
{
  "type": "node",
  "id": 2577578712,
  "lat": 51.7954212,
  "lon": 6.1254661
},
{
  "type": "node",
  "id": 2577578717,
  "lat": 51.7954232,
  "lon": 6.1256533
},
{
  "type": "node",
  "id": 2577578718,
  "lat": 51.7954243,
  "lon": 6.1260034
},
{
  "type": "node",
  "id": 2577578720,
  "lat": 51.7954250,
  "lon": 6.1260020
},
{
  "type": "node",
  "id": 2577578722,
  "lat": 51.7954277,
  "lon": 6.1256584
},
{
  "type": "node",
  "id": 2577578723,
  "lat": 51.7954294,
  "lon": 6.1256426
},
{
  "type": "node",
  "id": 2577578724,
  "lat": 51.7954303,
  "lon": 6.1256402
},
{
  "type": "node",
  "id": 2577578725,
  "lat": 51.7954305,
  "lon": 6.1260103
},
{
  "type": "node",
  "id": 2577578728,
  "lat": 51.7954329,
  "lon": 6.1256467
},
{
  "type": "node",
  "id": 2577578732,
  "lat": 51.7954337,
  "lon": 6.1259994
},
{
  "type": "node",
  "id": 2577578734,
  "lat": 51.7954345,
  "lon": 6.1260009
},
{
  "type": "node",
  "id": 2577578779,
  "lat": 51.7954848,
  "lon": 6.1258802
},
{
  "type": "node",
  "id": 2577578788,
  "lat": 51.7954902,
  "lon": 6.1258858
},
{
  "type": "node",
  "id": 2577578821,
  "lat": 51.7955377,
  "lon": 6.1257582
},
{
  "type": "node",
  "id": 2577578825,
  "lat": 51.7955428,
  "lon": 6.1257644
},
{
  "type": "node",
  "id": 2577578855,
  "lat": 51.7955891,
  "lon": 6.1256398
},
{
  "type": "node",
  "id": 2577578857,
  "lat": 51.7955902,
  "lon": 6.1256409
},
{
  "type": "node",
  "id": 2577578858,
  "lat": 51.7955907,
  "lon": 6.1256264
},
{
  "type": "node",
  "id": 2577578860,
  "lat": 51.7955922,
  "lon": 6.1256202
},
{
  "type": "node",
  "id": 2577578861,
  "lat": 51.7955931,
  "lon": 6.1256211
},
{
  "type": "node",
  "id": 2577578864,
  "lat": 51.7955946,
  "lon": 6.1256307
},
{
  "type": "node",
  "id": 2577578867,
  "lat": 51.7956044,
  "lon": 6.1255918
},
{
  "type": "node",
  "id": 2577578868,
  "lat": 51.7956053,
  "lon": 6.1255927
},
{
  "type": "node",
  "id": 2577578869,
  "lat": 51.7956067,
  "lon": 6.1255864
},
{
  "type": "node",
  "id": 2577578870,
  "lat": 51.7956074,
  "lon": 6.1255878
},
{
  "type": "node",
  "id": 2577578876,
  "lat": 51.7956191,
  "lon": 6.1255578
},
{
  "type": "node",
  "id": 2577578878,
  "lat": 51.7956199,
  "lon": 6.1255587
},
{
  "type": "node",
  "id": 2577578879,
  "lat": 51.7956213,
  "lon": 6.1255526
},
{
  "type": "node",
  "id": 2577578880,
  "lat": 51.7956222,
  "lon": 6.1255538
},
{
  "type": "node",
  "id": 2577578882,
  "lat": 51.7956226,
  "lon": 6.1249947
},
{
  "type": "node",
  "id": 2577578883,
  "lat": 51.7956233,
  "lon": 6.1249954
},
{
  "type": "node",
  "id": 2577578888,
  "lat": 51.7956337,
  "lon": 6.1255240
},
{
  "type": "node",
  "id": 2577578890,
  "lat": 51.7956346,
  "lon": 6.1255249
},
{
  "type": "node",
  "id": 2577578891,
  "lat": 51.7956359,
  "lon": 6.1255188
},
{
  "type": "node",
  "id": 2577578892,
  "lat": 51.7956367,
  "lon": 6.1255199
},
{
  "type": "node",
  "id": 2577578900,
  "lat": 51.7956482,
  "lon": 6.1254904
},
{
  "type": "node",
  "id": 2577578905,
  "lat": 51.7956491,
  "lon": 6.1254911
},
{
  "type": "node",
  "id": 2577578910,
  "lat": 51.7956505,
  "lon": 6.1254849
},
{
  "type": "node",
  "id": 2577578913,
  "lat": 51.7956513,
  "lon": 6.1254860
},
{
  "type": "node",
  "id": 2577578923,
  "lat": 51.7956628,
  "lon": 6.1254565
},
{
  "type": "node",
  "id": 2577578925,
  "lat": 51.7956638,
  "lon": 6.1248989
},
{
  "type": "node",
  "id": 2577578926,
  "lat": 51.7956669,
  "lon": 6.1254612
},
{
  "type": "node",
  "id": 2577578928,
  "lat": 51.7956675,
  "lon": 6.1254601
},
{
  "type": "node",
  "id": 2577578930,
  "lat": 51.7956684,
  "lon": 6.1254610
},
{
  "type": "node",
  "id": 2577578933,
  "lat": 51.7956698,
  "lon": 6.1254550
},
{
  "type": "node",
  "id": 2577578939,
  "lat": 51.7956707,
  "lon": 6.1254559
},
{
  "type": "node",
  "id": 2577578950,
  "lat": 51.7956744,
  "lon": 6.1254446
},
{
  "type": "node",
  "id": 2577578952,
  "lat": 51.7956774,
  "lon": 6.1254477
},
{
  "type": "node",
  "id": 2577578953,
  "lat": 51.7956780,
  "lon": 6.1254467
},
{
  "type": "node",
  "id": 2577578954,
  "lat": 51.7956789,
  "lon": 6.1254475
},
{
  "type": "node",
  "id": 2577578955,
  "lat": 51.7956802,
  "lon": 6.1254413
},
{
  "type": "node",
  "id": 2577578956,
  "lat": 51.7956810,
  "lon": 6.1254423
},
{
  "type": "node",
  "id": 2577578961,
  "lat": 51.7956977,
  "lon": 6.1253900
},
{
  "type": "node",
  "id": 2577578962,
  "lat": 51.7956977,
  "lon": 6.1253996
},
{
  "type": "node",
  "id": 2577578963,
  "lat": 51.7956986,
  "lon": 6.1254005
},
{
  "type": "node",
  "id": 2577578964,
  "lat": 51.7956999,
  "lon": 6.1253944
},
{
  "type": "node",
  "id": 2577578965,
  "lat": 51.7957005,
  "lon": 6.1253932
},
{
  "type": "node",
  "id": 2577578966,
  "lat": 51.7957006,
  "lon": 6.1253683
},
{
  "type": "node",
  "id": 2577578967,
  "lat": 51.7957009,
  "lon": 6.1253953
},
{
  "type": "node",
  "id": 2577578969,
  "lat": 51.7957022,
  "lon": 6.1253796
},
{
  "type": "node",
  "id": 2577578970,
  "lat": 51.7957031,
  "lon": 6.1253805
},
{
  "type": "node",
  "id": 2577578971,
  "lat": 51.7957045,
  "lon": 6.1253745
},
{
  "type": "node",
  "id": 2577578973,
  "lat": 51.7957049,
  "lon": 6.1253731
},
{
  "type": "node",
  "id": 2577578974,
  "lat": 51.7957053,
  "lon": 6.1253754
},
{
  "type": "node",
  "id": 2577578978,
  "lat": 51.7957130,
  "lon": 6.1253398
},
{
  "type": "node",
  "id": 2577578980,
  "lat": 51.7957140,
  "lon": 6.1253405
},
{
  "type": "node",
  "id": 2577578981,
  "lat": 51.7957153,
  "lon": 6.1253345
},
{
  "type": "node",
  "id": 2577578982,
  "lat": 51.7957162,
  "lon": 6.1253355
},
{
  "type": "node",
  "id": 2577578984,
  "lat": 51.7957245,
  "lon": 6.1247785
},
{
  "type": "node",
  "id": 2577578987,
  "lat": 51.7957278,
  "lon": 6.1253058
},
{
  "type": "node",
  "id": 2577578988,
  "lat": 51.7957287,
  "lon": 6.1253067
},
{
  "type": "node",
  "id": 2577578989,
  "lat": 51.7957300,
  "lon": 6.1253006
},
{
  "type": "node",
  "id": 2577578990,
  "lat": 51.7957309,
  "lon": 6.1253015
},
{
  "type": "node",
  "id": 2577578995,
  "lat": 51.7957426,
  "lon": 6.1252716
},
{
  "type": "node",
  "id": 2577578996,
  "lat": 51.7957435,
  "lon": 6.1252725
},
{
  "type": "node",
  "id": 2577578997,
  "lat": 51.7957449,
  "lon": 6.1252665
},
{
  "type": "node",
  "id": 2577578998,
  "lat": 51.7957457,
  "lon": 6.1252675
},
{
  "type": "node",
  "id": 2577578999,
  "lat": 51.7957510,
  "lon": 6.1249758
},
{
  "type": "node",
  "id": 2577579000,
  "lat": 51.7957564,
  "lon": 6.1250025
},
{
  "type": "node",
  "id": 2577579001,
  "lat": 51.7957573,
  "lon": 6.1252378
},
{
  "type": "node",
  "id": 2577579002,
  "lat": 51.7957582,
  "lon": 6.1252388
},
{
  "type": "node",
  "id": 2577579005,
  "lat": 51.7957596,
  "lon": 6.1252325
},
{
  "type": "node",
  "id": 2577579007,
  "lat": 51.7957604,
  "lon": 6.1252336
},
{
  "type": "node",
  "id": 2577579009,
  "lat": 51.7957623,
  "lon": 6.1249888
},
{
  "type": "node",
  "id": 2577579013,
  "lat": 51.7957720,
  "lon": 6.1252040
},
{
  "type": "node",
  "id": 2577579014,
  "lat": 51.7957728,
  "lon": 6.1252050
},
{
  "type": "node",
  "id": 2577579015,
  "lat": 51.7957746,
  "lon": 6.1246621
},
{
  "type": "node",
  "id": 2577579017,
  "lat": 51.7957753,
  "lon": 6.1251995
},
{
  "type": "node",
  "id": 2577579021,
  "lat": 51.7957780,
  "lon": 6.1252026
},
{
  "type": "node",
  "id": 2577579027,
  "lat": 51.7957937,
  "lon": 6.1248768
},
{
  "type": "node",
  "id": 2577579032,
  "lat": 51.7958049,
  "lon": 6.1248902
},
{
  "type": "node",
  "id": 2577579037,
  "lat": 51.7958117,
  "lon": 6.1248752
},
{
  "type": "node",
  "id": 2577579052,
  "lat": 51.7958351,
  "lon": 6.1250707
},
{
  "type": "node",
  "id": 2577579058,
  "lat": 51.7958465,
  "lon": 6.1250840
},
{
  "type": "node",
  "id": 2577579079,
  "lat": 51.7958778,
  "lon": 6.1249721
},
{
  "type": "node",
  "id": 2577579090,
  "lat": 51.7958895,
  "lon": 6.1249852
},
{
  "type": "node",
  "id": 2577579091,
  "lat": 51.7958915,
  "lon": 6.1247916
},
{
  "type": "node",
  "id": 2577579121,
  "lat": 51.7959350,
  "lon": 6.1248400
},
{
  "type": "node",
  "id": 1249871922,
  "lat": 51.7898367,
  "lon": 6.1379719
},
{
  "type": "node",
  "id": 1249872265,
  "lat": 51.7898117,
  "lon": 6.1378631
},
{
  "type": "node",
  "id": 2514855399,
  "lat": 51.7897839,
  "lon": 6.1379021
},
{
  "type": "node",
  "id": 2514855401,
  "lat": 51.7897884,
  "lon": 6.1378832
},
{
  "type": "node",
  "id": 2514855403,
  "lat": 51.7897951,
  "lon": 6.1378721
},
{
  "type": "node",
  "id": 2514855405,
  "lat": 51.7897963,
  "lon": 6.1378311
},
{
  "type": "node",
  "id": 2514855407,
  "lat": 51.7898030,
  "lon": 6.1378648
},
{
  "type": "node",
  "id": 2514855409,
  "lat": 51.7898269,
  "lon": 6.1377480
},
{
  "type": "node",
  "id": 1249871982,
  "lat": 51.7899239,
  "lon": 6.1378674
},
{
  "type": "node",
  "id": 1249872191,
  "lat": 51.7900455,
  "lon": 6.1377203
},
{
  "type": "node",
  "id": 1249872773,
  "lat": 51.7898661,
  "lon": 6.1379411
},
{
  "type": "node",
  "id": 1249872792,
  "lat": 51.7899710,
  "lon": 6.1375659
},
{
  "type": "node",
  "id": 1741977083,
  "lat": 51.7899260,
  "lon": 6.1378733
},
{
  "type": "node",
  "id": 2514855411,
  "lat": 51.7898407,
  "lon": 6.1377752
},
{
  "type": "node",
  "id": 2514855413,
  "lat": 51.7898640,
  "lon": 6.1379371
},
{
  "type": "node",
  "id": 2514855416,
  "lat": 51.7899149,
  "lon": 6.1376390
},
{
  "type": "node",
  "id": 2529441748,
  "lat": 51.7534374,
  "lon": 6.2374838
},
{
  "type": "node",
  "id": 2529441752,
  "lat": 51.7534704,
  "lon": 6.2373734
},
{
  "type": "node",
  "id": 2529441793,
  "lat": 51.7537262,
  "lon": 6.2368937
},
{
  "type": "node",
  "id": 2529441829,
  "lat": 51.7539713,
  "lon": 6.2382434
},
{
  "type": "node",
  "id": 2529441854,
  "lat": 51.7542134,
  "lon": 6.2386041
},
{
  "type": "node",
  "id": 2529441864,
  "lat": 51.7542601,
  "lon": 6.2359075
},
{
  "type": "node",
  "id": 2529442126,
  "lat": 51.7548988,
  "lon": 6.2347195
},
{
  "type": "node",
  "id": 2529442366,
  "lat": 51.7555635,
  "lon": 6.2334820
},
{
  "type": "node",
  "id": 2529442389,
  "lat": 51.7559925,
  "lon": 6.2341998
},
{
  "type": "node",
  "id": 2529442390,
  "lat": 51.7560007,
  "lon": 6.2382111
},
{
  "type": "node",
  "id": 2529442403,
  "lat": 51.7566665,
  "lon": 6.2353135
},
{
  "type": "node",
  "id": 2529442410,
  "lat": 51.7568869,
  "lon": 6.2368194
},
{
  "type": "node",
  "id": 2529442418,
  "lat": 51.7571874,
  "lon": 6.2363492
},
{
  "type": "node",
  "id": 2529442419,
  "lat": 51.7571980,
  "lon": 6.2362254
},
{
  "type": "node",
  "id": 2529441897,
  "lat": 51.7543968,
  "lon": 6.2397303
},
{
  "type": "node",
  "id": 2529441979,
  "lat": 51.7545747,
  "lon": 6.2401168
},
{
  "type": "node",
  "id": 2529441983,
  "lat": 51.7545853,
  "lon": 6.2400673
},
{
  "type": "node",
  "id": 2529441990,
  "lat": 51.7545900,
  "lon": 6.2399740
},
{
  "type": "node",
  "id": 2529442001,
  "lat": 51.7546195,
  "lon": 6.2400330
},
{
  "type": "node",
  "id": 2529442020,
  "lat": 51.7546537,
  "lon": 6.2392867
},
{
  "type": "node",
  "id": 2529442024,
  "lat": 51.7546666,
  "lon": 6.2400483
},
{
  "type": "node",
  "id": 2529442123,
  "lat": 51.7548788,
  "lon": 6.2394752
},
{
  "type": "node",
  "id": 2529442150,
  "lat": 51.7550061,
  "lon": 6.2396618
},
{
  "type": "node",
  "id": 2529442181,
  "lat": 51.7550391,
  "lon": 6.2396732
},
{
  "type": "node",
  "id": 2529442211,
  "lat": 51.7550827,
  "lon": 6.2396523
},
{
  "type": "node",
  "id": 2529662767,
  "lat": 51.7544944,
  "lon": 6.2399049
},
{
  "type": "node",
  "id": 2858911779,
  "lat": 51.9297001,
  "lon": 5.9398914
},
{
  "type": "node",
  "id": 2858911793,
  "lat": 51.9297165,
  "lon": 5.9399484
},
{
  "type": "node",
  "id": 2858911794,
  "lat": 51.9297184,
  "lon": 5.9399515
},
{
  "type": "node",
  "id": 2858911799,
  "lat": 51.9297259,
  "lon": 5.9399329
},
{
  "type": "node",
  "id": 2858913527,
  "lat": 51.9297738,
  "lon": 5.9398544
},
{
  "type": "node",
  "id": 2858913539,
  "lat": 51.9297927,
  "lon": 5.9398237
},
{
  "type": "node",
  "id": 2858913560,
  "lat": 51.9298152,
  "lon": 5.9397035
},
{
  "type": "node",
  "id": 2858913578,
  "lat": 51.9298401,
  "lon": 5.9397444
},
{
  "type": "node",
  "id": 2858913583,
  "lat": 51.9298419,
  "lon": 5.9397479
},
{
  "type": "node",
  "id": 2858913589,
  "lat": 51.9298495,
  "lon": 5.9397290
},
{
  "type": "node",
  "id": 2858913591,
  "lat": 51.9298514,
  "lon": 5.9397321
},
{
  "type": "node",
  "id": 2858913603,
  "lat": 51.9297279,
  "lon": 5.9399360
},
{
  "type": "node",
  "id": 2858913612,
  "lat": 51.9297483,
  "lon": 5.9398127
},
{
  "type": "node",
  "id": 2858913626,
  "lat": 51.9297669,
  "lon": 5.9397822
},
{
  "type": "node",
  "id": 2858913831,
  "lat": 51.9300341,
  "lon": 5.9400557
},
{
  "type": "node",
  "id": 2858914107,
  "lat": 51.9299193,
  "lon": 5.9402426
},
{
  "type": "node",
  "id": 662324511,
  "lat": 51.9852476,
  "lon": 5.8916510
},
{
  "type": "node",
  "id": 662324513,
  "lat": 51.9847772,
  "lon": 5.8915441
},
{
  "type": "node",
  "id": 662324515,
  "lat": 51.9855784,
  "lon": 5.8915401
},
{
  "type": "node",
  "id": 662324521,
  "lat": 51.9855460,
  "lon": 5.8912864
},
{
  "type": "node",
  "id": 662324522,
  "lat": 51.9853679,
  "lon": 5.8916107
},
{
  "type": "node",
  "id": 662324507,
  "lat": 51.9852334,
  "lon": 5.8925651
},
{
  "type": "node",
  "id": 662324508,
  "lat": 51.9851827,
  "lon": 5.8926784
},
{
  "type": "node",
  "id": 662324509,
  "lat": 51.9851832,
  "lon": 5.8926790
},
{
  "type": "node",
  "id": 662324510,
  "lat": 51.9853876,
  "lon": 5.8916911
},
{
  "type": "node",
  "id": 662324512,
  "lat": 51.9848096,
  "lon": 5.8917978
},
{
  "type": "node",
  "id": 662324514,
  "lat": 51.9854545,
  "lon": 5.8919635
},
{
  "type": "node",
  "id": 662324516,
  "lat": 51.9855095,
  "lon": 5.8920798
},
{
  "type": "node",
  "id": 662324517,
  "lat": 51.9854786,
  "lon": 5.8919479
},
{
  "type": "node",
  "id": 662324518,
  "lat": 51.9852772,
  "lon": 5.8920695
},
{
  "type": "node",
  "id": 662324519,
  "lat": 51.9853909,
  "lon": 5.8916889
},
{
  "type": "node",
  "id": 662324520,
  "lat": 51.9853403,
  "lon": 5.8920288
},
{
  "type": "node",
  "id": 662324529,
  "lat": 51.9854334,
  "lon": 5.8924495
},
{
  "type": "node",
  "id": 662324530,
  "lat": 51.9854891,
  "lon": 5.8923410
},
{
  "type": "node",
  "id": 662324531,
  "lat": 51.9854236,
  "lon": 5.8924439
},
{
  "type": "node",
  "id": 662324532,
  "lat": 51.9852618,
  "lon": 5.8922397
},
{
  "type": "node",
  "id": 662324533,
  "lat": 51.9853449,
  "lon": 5.8923460
},
{
  "type": "node",
  "id": 662324542,
  "lat": 51.9852434,
  "lon": 5.8927635
},
{
  "type": "node",
  "id": 5792924747,
  "lat": 51.9852996,
  "lon": 5.8926499
},
{
  "type": "node",
  "id": 5792924748,
  "lat": 51.9852461,
  "lon": 5.8927595
},
{
  "type": "node",
  "id": 5792924749,
  "lat": 51.9852456,
  "lon": 5.8927589
},
{
  "type": "node",
  "id": 5792924750,
  "lat": 51.9851810,
  "lon": 5.8926836
},
{
  "type": "node",
  "id": 5792924751,
  "lat": 51.9852362,
  "lon": 5.8925688
},
{
  "type": "node",
  "id": 5792924752,
  "lat": 51.9852500,
  "lon": 5.8925310
},
{
  "type": "node",
  "id": 5792924953,
  "lat": 51.9852498,
  "lon": 5.8925307
},
{
  "type": "node",
  "id": 5792924954,
  "lat": 51.9852526,
  "lon": 5.8925250
},
{
  "type": "node",
  "id": 5792924955,
  "lat": 51.9852523,
  "lon": 5.8925246
},
{
  "type": "node",
  "id": 5792924956,
  "lat": 51.9852530,
  "lon": 5.8925231
},
{
  "type": "node",
  "id": 5792924957,
  "lat": 51.9852518,
  "lon": 5.8925215
},
{
  "type": "node",
  "id": 5792924958,
  "lat": 51.9852550,
  "lon": 5.8925149
},
{
  "type": "node",
  "id": 5792924959,
  "lat": 51.9852562,
  "lon": 5.8925164
},
{
  "type": "node",
  "id": 5792924960,
  "lat": 51.9852680,
  "lon": 5.8924922
},
{
  "type": "node",
  "id": 5792924961,
  "lat": 51.9852668,
  "lon": 5.8924907
},
{
  "type": "node",
  "id": 5792924962,
  "lat": 51.9852701,
  "lon": 5.8924841
},
{
  "type": "node",
  "id": 5792924963,
  "lat": 51.9852713,
  "lon": 5.8924856
},
{
  "type": "node",
  "id": 5792924964,
  "lat": 51.9852720,
  "lon": 5.8924841
},
{
  "type": "node",
  "id": 5792924965,
  "lat": 51.9852723,
  "lon": 5.8924846
},
{
  "type": "node",
  "id": 5792924966,
  "lat": 51.9852751,
  "lon": 5.8924789
},
{
  "type": "node",
  "id": 5792924967,
  "lat": 51.9852753,
  "lon": 5.8924791
},
{
  "type": "node",
  "id": 5792924968,
  "lat": 51.9852920,
  "lon": 5.8924450
},
{
  "type": "node",
  "id": 5792924969,
  "lat": 51.9852948,
  "lon": 5.8924486
},
{
  "type": "node",
  "id": 5792924970,
  "lat": 51.9853372,
  "lon": 5.8923362
},
{
  "type": "node",
  "id": 5792924971,
  "lat": 51.9854267,
  "lon": 5.8918345
},
{
  "type": "node",
  "id": 5792924972,
  "lat": 51.9854233,
  "lon": 5.8918366
},
{
  "type": "node",
  "id": 5792924973,
  "lat": 51.9854940,
  "lon": 5.8920103
},
{
  "type": "node",
  "id": 5792924974,
  "lat": 51.9854960,
  "lon": 5.8920090
},
{
  "type": "node",
  "id": 5792924975,
  "lat": 51.9855129,
  "lon": 5.8920777
},
{
  "type": "node",
  "id": 5792924976,
  "lat": 51.9855063,
  "lon": 5.8921158
},
{
  "type": "node",
  "id": 5792924977,
  "lat": 51.9855129,
  "lon": 5.8921242
},
{
  "type": "node",
  "id": 5792924978,
  "lat": 51.9855124,
  "lon": 5.8921254
},
{
  "type": "node",
  "id": 5792924979,
  "lat": 51.9854970,
  "lon": 5.8922961
},
{
  "type": "node",
  "id": 5792924980,
  "lat": 51.9854974,
  "lon": 5.8922965
},
{
  "type": "node",
  "id": 5792924981,
  "lat": 51.9854895,
  "lon": 5.8923015
},
{
  "type": "node",
  "id": 5792924982,
  "lat": 51.9854863,
  "lon": 5.8923374
},
{
  "type": "node",
  "id": 5792924983,
  "lat": 51.9854608,
  "lon": 5.8923991
},
{
  "type": "node",
  "id": 5792924984,
  "lat": 51.9854591,
  "lon": 5.8923969
},
{
  "type": "node",
  "id": 5792924985,
  "lat": 51.9854272,
  "lon": 5.8924416
},
{
  "type": "node",
  "id": 5792924986,
  "lat": 51.9854263,
  "lon": 5.8924435
},
{
  "type": "node",
  "id": 5792924987,
  "lat": 51.9854124,
  "lon": 5.8924295
},
{
  "type": "node",
  "id": 5792924988,
  "lat": 51.9854120,
  "lon": 5.8924251
},
{
  "type": "node",
  "id": 5792924989,
  "lat": 51.9854129,
  "lon": 5.8924233
},
{
  "type": "node",
  "id": 5792924990,
  "lat": 51.9854112,
  "lon": 5.8924211
},
{
  "type": "node",
  "id": 5792924991,
  "lat": 51.9854083,
  "lon": 5.8924270
},
{
  "type": "node",
  "id": 5792924992,
  "lat": 51.9853728,
  "lon": 5.8924999
},
{
  "type": "node",
  "id": 5792924993,
  "lat": 51.9853582,
  "lon": 5.8925297
},
{
  "type": "node",
  "id": 5792924994,
  "lat": 51.9853610,
  "lon": 5.8925333
},
{
  "type": "node",
  "id": 5792924995,
  "lat": 51.9853024,
  "lon": 5.8926535
},
{
  "type": "node",
  "id": 5919373856,
  "lat": 51.9764471,
  "lon": 5.9093582
},
{
  "type": "node",
  "id": 5919373857,
  "lat": 51.9764397,
  "lon": 5.9094049
},
{
  "type": "node",
  "id": 5919373858,
  "lat": 51.9764350,
  "lon": 5.9094030
},
{
  "type": "node",
  "id": 5919373859,
  "lat": 51.9764421,
  "lon": 5.9093585
},
{
  "type": "node",
  "id": 5919373860,
  "lat": 51.9764238,
  "lon": 5.9093540
},
{
  "type": "node",
  "id": 5919373861,
  "lat": 51.9764045,
  "lon": 5.9093448
},
{
  "type": "node",
  "id": 5919373862,
  "lat": 51.9763881,
  "lon": 5.9093272
},
{
  "type": "node",
  "id": 5919373863,
  "lat": 51.9763760,
  "lon": 5.9093018
},
{
  "type": "node",
  "id": 5919373864,
  "lat": 51.9763661,
  "lon": 5.9092740
},
{
  "type": "node",
  "id": 5919373865,
  "lat": 51.9763643,
  "lon": 5.9092418
},
{
  "type": "node",
  "id": 5919373866,
  "lat": 51.9763651,
  "lon": 5.9092085
},
{
  "type": "node",
  "id": 5919373867,
  "lat": 51.9763711,
  "lon": 5.9091768
},
{
  "type": "node",
  "id": 5919373868,
  "lat": 51.9763806,
  "lon": 5.9091482
},
{
  "type": "node",
  "id": 5919373869,
  "lat": 51.9763930,
  "lon": 5.9091224
},
{
  "type": "node",
  "id": 5919373870,
  "lat": 51.9764069,
  "lon": 5.9090998
},
{
  "type": "node",
  "id": 5919373871,
  "lat": 51.9764238,
  "lon": 5.9090814
},
{
  "type": "node",
  "id": 5919373872,
  "lat": 51.9764422,
  "lon": 5.9091253
},
{
  "type": "node",
  "id": 5919373873,
  "lat": 51.9764306,
  "lon": 5.9091390
},
{
  "type": "node",
  "id": 5919373874,
  "lat": 51.9764769,
  "lon": 5.9091701
},
{
  "type": "node",
  "id": 5919373875,
  "lat": 51.9764560,
  "lon": 5.9093020
},
{
  "type": "node",
  "id": 5919373876,
  "lat": 51.9764585,
  "lon": 5.9093015
},
{
  "type": "node",
  "id": 5919373877,
  "lat": 51.9764624,
  "lon": 5.9093544
},
{
  "type": "node",
  "id": 662510740,
  "lat": 51.9760608,
  "lon": 5.9119702
},
{
  "type": "node",
  "id": 662510752,
  "lat": 51.9759898,
  "lon": 5.9123915
},
{
  "type": "node",
  "id": 662510753,
  "lat": 51.9759260,
  "lon": 5.9123273
},
{
  "type": "node",
  "id": 662510755,
  "lat": 51.9761232,
  "lon": 5.9120352
},
{
  "type": "node",
  "id": 2722891950,
  "lat": 51.9760652,
  "lon": 5.9119745
},
{
  "type": "node",
  "id": 3698307899,
  "lat": 51.9760130,
  "lon": 5.9120967
},
{
  "type": "node",
  "id": 735848899,
  "lat": 52.0124098,
  "lon": 5.9046561
},
{
  "type": "node",
  "id": 735896389,
  "lat": 52.0124601,
  "lon": 5.9046378
},
{
  "type": "node",
  "id": 735781534,
  "lat": 52.0078170,
  "lon": 5.9063868
},
{
  "type": "node",
  "id": 735782468,
  "lat": 52.0106163,
  "lon": 5.9056923
},
{
  "type": "node",
  "id": 735788926,
  "lat": 52.0079878,
  "lon": 5.9060668
},
{
  "type": "node",
  "id": 735796282,
  "lat": 52.0103046,
  "lon": 5.9057390
},
{
  "type": "node",
  "id": 735797790,
  "lat": 52.0088984,
  "lon": 5.9059462
},
{
  "type": "node",
  "id": 735800853,
  "lat": 52.0113438,
  "lon": 5.9050517
},
{
  "type": "node",
  "id": 735802249,
  "lat": 52.0112804,
  "lon": 5.9050883
},
{
  "type": "node",
  "id": 735808402,
  "lat": 52.0077842,
  "lon": 5.9064998
},
{
  "type": "node",
  "id": 735809835,
  "lat": 52.0107481,
  "lon": 5.9056031
},
{
  "type": "node",
  "id": 735817766,
  "lat": 52.0079499,
  "lon": 5.9061141
},
{
  "type": "node",
  "id": 735825631,
  "lat": 52.0105091,
  "lon": 5.9057266
},
{
  "type": "node",
  "id": 735827930,
  "lat": 52.0087641,
  "lon": 5.9059565
},
{
  "type": "node",
  "id": 735831009,
  "lat": 52.0118364,
  "lon": 5.9048760
},
{
  "type": "node",
  "id": 735839410,
  "lat": 52.0077197,
  "lon": 5.9066089
},
{
  "type": "node",
  "id": 735840279,
  "lat": 52.0110821,
  "lon": 5.9052696
},
{
  "type": "node",
  "id": 735852788,
  "lat": 52.0087188,
  "lon": 5.9059599
},
{
  "type": "node",
  "id": 735857706,
  "lat": 52.0078082,
  "lon": 5.9084376
},
{
  "type": "node",
  "id": 735867904,
  "lat": 52.0081681,
  "lon": 5.9060056
},
{
  "type": "node",
  "id": 735869191,
  "lat": 52.0112632,
  "lon": 5.9050981
},
{
  "type": "node",
  "id": 735877570,
  "lat": 52.0081917,
  "lon": 5.9059997
},
{
  "type": "node",
  "id": 735880624,
  "lat": 52.0079050,
  "lon": 5.9101651
},
{
  "type": "node",
  "id": 735882330,
  "lat": 52.0079307,
  "lon": 5.9062054
},
{
  "type": "node",
  "id": 735887160,
  "lat": 52.0080281,
  "lon": 5.9060399
},
{
  "type": "node",
  "id": 735895809,
  "lat": 52.0113331,
  "lon": 5.9050579
},
{
  "type": "node",
  "id": 3902860102,
  "lat": 52.0093475,
  "lon": 5.9059148
},
{
  "type": "node",
  "id": 3902860103,
  "lat": 52.0096238,
  "lon": 5.9058620
},
{
  "type": "node",
  "id": 3902860109,
  "lat": 52.0100176,
  "lon": 5.9058106
},
{
  "type": "node",
  "id": 735779568,
  "lat": 52.0079985,
  "lon": 5.9120939
},
{
  "type": "node",
  "id": 735786103,
  "lat": 52.0092997,
  "lon": 5.9150505
},
{
  "type": "node",
  "id": 735793479,
  "lat": 52.0095317,
  "lon": 5.9151830
},
{
  "type": "node",
  "id": 735799188,
  "lat": 52.0080573,
  "lon": 5.9131755
},
{
  "type": "node",
  "id": 735814601,
  "lat": 52.0084203,
  "lon": 5.9145350
},
{
  "type": "node",
  "id": 735821869,
  "lat": 52.0101718,
  "lon": 5.9155599
},
{
  "type": "node",
  "id": 735829509,
  "lat": 52.0080154,
  "lon": 5.9123741
},
{
  "type": "node",
  "id": 735838842,
  "lat": 52.0119354,
  "lon": 5.9165869
},
{
  "type": "node",
  "id": 735843699,
  "lat": 52.0081250,
  "lon": 5.9143658
},
{
  "type": "node",
  "id": 735852017,
  "lat": 52.0110330,
  "lon": 5.9160633
},
{
  "type": "node",
  "id": 735885050,
  "lat": 52.0094883,
  "lon": 5.9151481
},
{
  "type": "node",
  "id": 735786738,
  "lat": 52.0134516,
  "lon": 5.9042751
},
{
  "type": "node",
  "id": 735865551,
  "lat": 52.0134836,
  "lon": 5.9047095
},
{
  "type": "node",
  "id": 735885482,
  "lat": 52.0134635,
  "lon": 5.9042989
},
{
  "type": "node",
  "id": 3902860114,
  "lat": 52.0134319,
  "lon": 5.9042823
},
{
  "type": "node",
  "id": 735815281,
  "lat": 52.0134569,
  "lon": 5.9096840
},
{
  "type": "node",
  "id": 735836979,
  "lat": 52.0135457,
  "lon": 5.9061268
},
{
  "type": "node",
  "id": 735844421,
  "lat": 52.0134444,
  "lon": 5.9094680
},
{
  "type": "node",
  "id": 735872750,
  "lat": 52.0136906,
  "lon": 5.9094354
},
{
  "type": "node",
  "id": 735891492,
  "lat": 52.0136415,
  "lon": 5.9083990
},
{
  "type": "node",
  "id": 2156120330,
  "lat": 52.0134627,
  "lon": 5.9097710
},
{
  "type": "node",
  "id": 2156120337,
  "lat": 52.0134932,
  "lon": 5.9102407
},
{
  "type": "node",
  "id": 735867221,
  "lat": 52.0128857,
  "lon": 5.9171391
},
{
  "type": "node",
  "id": 2156120291,
  "lat": 52.0128867,
  "lon": 5.9171672
},
{
  "type": "node",
  "id": 2156120313,
  "lat": 52.0131866,
  "lon": 5.9151164
},
{
  "type": "node",
  "id": 2156120336,
  "lat": 52.0134928,
  "lon": 5.9131041
},
{
  "type": "node",
  "id": 2156120345,
  "lat": 52.0135830,
  "lon": 5.9125107
},
{
  "type": "node",
  "id": 2156120347,
  "lat": 52.0135957,
  "lon": 5.9123768
},
{
  "type": "node",
  "id": 2156120349,
  "lat": 52.0136053,
  "lon": 5.9118698
},
{
  "type": "node",
  "id": 2156120350,
  "lat": 52.0136236,
  "lon": 5.9121718
},
{
  "type": "node",
  "id": 3902860113,
  "lat": 52.0128647,
  "lon": 5.9171537
},
{
  "type": "node",
  "id": 2602405780,
  "lat": 51.8311674,
  "lon": 6.2372494
},
{
  "type": "node",
  "id": 2602405859,
  "lat": 51.8312243,
  "lon": 6.2371603
},
{
  "type": "node",
  "id": 2602405863,
  "lat": 51.8312330,
  "lon": 6.2374799
},
{
  "type": "node",
  "id": 2602405903,
  "lat": 51.8312687,
  "lon": 6.2374239
},
{
  "type": "node",
  "id": 2602405915,
  "lat": 51.8312898,
  "lon": 6.2375744
},
{
  "type": "node",
  "id": 2602405955,
  "lat": 51.8313212,
  "lon": 6.2373221
},
{
  "type": "node",
  "id": 2602406051,
  "lat": 51.8313838,
  "lon": 6.2374268
},
{
  "type": "node",
  "id": 2602404009,
  "lat": 51.8301818,
  "lon": 6.2410698
},
{
  "type": "node",
  "id": 2602404014,
  "lat": 51.8301861,
  "lon": 6.2410358
},
{
  "type": "node",
  "id": 2602404025,
  "lat": 51.8301938,
  "lon": 6.2409772
},
{
  "type": "node",
  "id": 2602404058,
  "lat": 51.8302129,
  "lon": 6.2409858
},
{
  "type": "node",
  "id": 2602404095,
  "lat": 51.8302407,
  "lon": 6.2410916
},
{
  "type": "node",
  "id": 2602404107,
  "lat": 51.8302491,
  "lon": 6.2410042
},
{
  "type": "node",
  "id": 2602404196,
  "lat": 51.8303237,
  "lon": 6.2411227
},
{
  "type": "node",
  "id": 2602404206,
  "lat": 51.8303319,
  "lon": 6.2410460
},
{
  "type": "node",
  "id": 662324100,
  "lat": 52.0268443,
  "lon": 5.8721680
},
{
  "type": "node",
  "id": 662324101,
  "lat": 52.0268012,
  "lon": 5.8721779
},
{
  "type": "node",
  "id": 662324276,
  "lat": 52.0270105,
  "lon": 5.8723986
},
{
  "type": "node",
  "id": 662324277,
  "lat": 52.0269540,
  "lon": 5.8724113
},
{
  "type": "node",
  "id": 2768975078,
  "lat": 52.0267425,
  "lon": 5.8721034
},
{
  "type": "node",
  "id": 2768975083,
  "lat": 52.0267619,
  "lon": 5.8721347
},
{
  "type": "node",
  "id": 2768975084,
  "lat": 52.0267640,
  "lon": 5.8720969
},
{
  "type": "node",
  "id": 2768975085,
  "lat": 52.0267678,
  "lon": 5.8721855
},
{
  "type": "node",
  "id": 2768975086,
  "lat": 52.0267681,
  "lon": 5.8721328
},
{
  "type": "node",
  "id": 2768975133,
  "lat": 52.0268580,
  "lon": 5.8723271
},
{
  "type": "node",
  "id": 2768975134,
  "lat": 52.0268615,
  "lon": 5.8723263
},
{
  "type": "node",
  "id": 2768975141,
  "lat": 52.0268743,
  "lon": 5.8724743
},
{
  "type": "node",
  "id": 2768975158,
  "lat": 52.0269578,
  "lon": 5.8724553
},
{
  "type": "node",
  "id": 650477485,
  "lat": 52.1182692,
  "lon": 5.8801927
},
{
  "type": "node",
  "id": 650477488,
  "lat": 52.1181851,
  "lon": 5.8801881
},
{
  "type": "node",
  "id": 650477492,
  "lat": 52.1181877,
  "lon": 5.8800396
},
{
  "type": "node",
  "id": 650477495,
  "lat": 52.1182756,
  "lon": 5.8801397
},
{
  "type": "node",
  "id": 2737252102,
  "lat": 52.1182410,
  "lon": 5.8801906
},
{
  "type": "node",
  "id": 2737252104,
  "lat": 52.1182410,
  "lon": 5.8801921
},
{
  "type": "node",
  "id": 2737252364,
  "lat": 52.1182857,
  "lon": 5.8800474
},
{
  "type": "node",
  "id": 5184091006,
  "lat": 52.1182740,
  "lon": 5.8801951
},
{
  "type": "node",
  "id": 5184104648,
  "lat": 52.1182691,
  "lon": 5.8801947
},
{
  "type": "node",
  "id": 5184105342,
  "lat": 52.1182831,
  "lon": 5.8801403
},
{
  "type": "way",
  "id": 271882222,
  "nodes": [
    757390994,
    757385819,
    757411312,
    757423674,
    757405043,
    757389127,
    757414596,
    757408652,
    757403686,
    757384643,
    2768150338,
    757396163,
    757422434,
    757382862,
    757408287,
    757420099,
    757401792,
    757395741,
    757422147,
    2768150400,
    757410532,
    757399120,
    757417001,
    757422789,
    757396572,
    757385013,
    757404075,
    757399654,
    757417663,
    757406149,
    2768150478,
    757424366,
    2768150491,
    2768150485,
    3512288840,
    2768150457,
    757381534,
    757392951,
    757418426,
    757412862,
    757394253,
    757388806,
    3512288762,
    757387268,
    2768150354,
    757392472,
    2768150347,
    757418024,
    757385546,
    757411037,
    757406397,
    757386967,
    757399881,
    757381253,
    757409723,
    2768150184,
    2768150178,
    757390167,
    757403025,
    757384345,
    757423300,
    757404599,
    2768150174,
    757416120,
    757383978,
    757395194,
    757421789,
    757396494,
    757422711,
    2768150153,
    2768150164,
    2768150170,
    2768150192,
    2768150196,
    2768150199,
    2768150219,
    2768150198,
    2768150306,
    2768150336,
    2768150332,
    2768150346,
    2768150342,
    2768150333,
    2768150335,
    2768150316,
    2768150309,
    2768150303,
    2768150305,
    2768150315,
    2768150314,
    2768150327,
    2768150321,
    2768150328,
    2768150324,
    2768150320,
    2768150318,
    2768150312,
    2768150298,
    2768150307,
    2768150304,
    2768150310,
    2768150300,
    2768150297,
    2768150238,
    757398082,
    757410162,
    757390994
  ]
},
{
  "type": "way",
  "id": 271882224,
  "nodes": [
    2768150323,
    2768150308,
    2768150313,
    2768150325,
    2768150323
  ]
}

  ]
}
