{
  "version": 0.6,
  "generator": "Overpass API 0.7.55.1011 6c2efc30",
  "osm3s": {
    "timestamp_osm_base": "2020-02-14T15:18:02Z",
    "copyright": "The data included in this document is from www.openstreetmap.org. The data is made available under ODbL."
  },
  "elements": [

{
  "type": "node",
  "id": 253798809,
  "lat": 45.5301151,
  "lon": 11.5466979,
  "tags": {
    "name": "Museo del Risorgimento e della Resistenza",
    "tourism": "museum",
    "wikidata": "Q3867928",
    "wikipedia": "it:Museo del Risorgimento e della Resistenza (Vicenza)"
  }
},
{
  "type": "node",
  "id": 256189695,
  "lat": 45.5502298,
  "lon": 11.5468069,
  "tags": {
    "name": "Gallerie di palazzo Leoni Montanari",
    "tourism": "museum",
    "wikidata": "Q3757774",
    "wikipedia": "it:Gallerie di palazzo Leoni Montanari"
  }
},
{
  "type": "node",
  "id": 282515683,
  "lat": 45.5470386,
  "lon": 11.5465924,
  "tags": {
    "name": "Basilica Palladiana",
    "name:it": "Basilica Palladiana",
    "name:lt": "Paladijo bazilika",
    "name:zh": "维琴察大会堂",
    "tourism": "museum",
    "wikidata": "Q284719",
    "wikipedia": "it:Basilica Palladiana"
  }
},
{
  "type": "node",
  "id": 420308411,
  "lat": 45.6809272,
  "lon": 11.3775020,
  "tags": {
    "email": "museodellegno@libero.it",
    "fee": "no",
    "name": "Museo etnografico del legno",
    "opening_hours": "Su 15:30-18:30",
    "phone": "+390445519735",
    "tourism": "museum",
    "website": "http://www.museodellegno.org/"
  }
},
{
  "type": "node",
  "id": 611720447,
  "lat": 45.8325493,
  "lon": 12.0313492,
  "tags": {
    "addr:city": "Cornuda",
    "addr:housenumber": "3",
    "addr:street": "Via Canapificio",
    "facebook": "https://it-it.facebook.com/tipoteca/",
    "name": "Tipoteca italiana Fondazione - Museo della Stampa e del Design Tipografico",
    "opening_hours": "Mo-Sa 09:00-13:00, 14:00-18:00; PH off",
    "operator": "Tipoteca italiana Fondazione",
    "phone": "+39 0423 86338",
    "tourism": "museum",
    "website": "http://www.tipoteca.it/"
  }
},
{
  "type": "node",
  "id": 805334457,
  "lat": 45.8625203,
  "lon": 11.6137828,
  "tags": {
    "name": "Museo della Grande Guerra 15 - 18 di Sasso",
    "tourism": "museum"
  }
},
{
  "type": "node",
  "id": 937854386,
  "lat": 45.8970004,
  "lon": 11.8064156,
  "tags": {
    "name": "Centro di educazione ambientale Valpore",
    "tourism": "museum"
  }
},
{
  "type": "node",
  "id": 1397259492,
  "lat": 45.8388304,
  "lon": 11.4995448,
  "tags": {
    "name": "Museo dell'acqua",
    "tourism": "museum"
  }
},
{
  "type": "node",
  "id": 1403159191,
  "lat": 45.8554749,
  "lon": 11.8822442,
  "tags": {
    "name": "Museo Archeologico",
    "tourism": "museum"
  }
},
{
  "type": "node",
  "id": 1420838426,
  "lat": 45.7675730,
  "lon": 11.7306876,
  "tags": {
    "name": "Museo Degli Alpini",
    "tourism": "museum"
  }
},
{
  "type": "node",
  "id": 1421185926,
  "lat": 45.7676337,
  "lon": 11.7321691,
  "tags": {
    "addr:housenumber": "6",
    "addr:street": "Via Gamba",
    "name": "Museo della Grappa Poli",
    "opening_hours": "09:00-19:30",
    "shop": "alcohol",
    "tourism": "museum",
    "website": "http://www.poligrappa.com/"
  }
},
{
  "type": "node",
  "id": 1421185933,
  "lat": 45.7664681,
  "lon": 11.7352335,
  "tags": {
    "name": "Museo Civico",
    "tourism": "museum",
    "wikidata": "Q21196206",
    "wikipedia": "it:Museo civico (Bassano del Grappa)"
  }
},
{
  "type": "node",
  "id": 1421185934,
  "lat": 45.7662893,
  "lon": 11.7314984,
  "tags": {
    "name": "Museo della Ceramica",
    "opening_hours": "Tu-Sa 09:00-13:00, 15:00-18:00; Su 10:30-13:00, 15:00-18:00; PH 10:30-13:00, 15:00-18:00; Jan 1 off; Easter off; Dec 25 off",
    "tourism": "museum",
    "wikidata": "Q21196203",
    "wikipedia": "it:Museo della ceramica (Bassano del Grappa)"
  }
},
{
  "type": "node",
  "id": 1421417217,
  "lat": 45.8499576,
  "lon": 11.8388499,
  "tags": {
    "name": "Museo Botanico",
    "tourism": "museum"
  }
},
{
  "type": "node",
  "id": 1421791028,
  "lat": 45.7785779,
  "lon": 12.0574307,
  "tags": {
    "addr:city": "Montebelluna",
    "addr:housenumber": "51",
    "addr:postcode": "31044",
    "addr:street": "Via Piave",
    "name": "Museo di Storia Naturale e Archeologia",
    "tourism": "museum"
  }
},
{
  "type": "node",
  "id": 1426449427,
  "lat": 45.7883571,
  "lon": 11.7491419,
  "tags": {
    "name": "Museo Dell'automobile Bonfanti",
    "tourism": "museum"
  }
},
{
  "type": "node",
  "id": 1453806495,
  "lat": 45.7902471,
  "lon": 11.8353440,
  "tags": {
    "name": "Museo Barchessa Villa Rubelli",
    "tourism": "museum"
  }
},
{
  "type": "node",
  "id": 1546251996,
  "lat": 45.8019884,
  "lon": 11.9133076,
  "tags": {
    "name": "Museo Civico",
    "tourism": "museum"
  }
},
{
  "type": "node",
  "id": 1646641654,
  "lat": 45.7659773,
  "lon": 11.7314823,
  "tags": {
    "name": "Urban Center",
    "tourism": "museum"
  }
},
{
  "type": "node",
  "id": 1654190081,
  "lat": 45.7245411,
  "lon": 11.6791407,
  "tags": {
    "name": "Museo della Ceramica",
    "tourism": "museum"
  }
},
{
  "type": "node",
  "id": 1773663084,
  "lat": 45.7661994,
  "lon": 11.7313446,
  "tags": {
    "name": "Museo della stampa Remondini",
    "opening_hours": "Tu-Sa 09:00-13:00,15:00-18:00; Su 10:30-13:00,15:00-18:00; PH 10:30-13:00,15:00-18:00; Jan 1 off; easter off; Dec 25 off",
    "tourism": "museum",
    "wikidata": "Q21196218",
    "wikipedia": "it:Museo della stampa Remondini"
  }
},
{
  "type": "node",
  "id": 1923688326,
  "lat": 45.7374342,
  "lon": 11.3897101,
  "tags": {
    "name": "Museo archeologico dell'Alto vicentino",
    "tourism": "museum",
    "wikidata": "Q20009249",
    "wikipedia": "it:Museo archeologico dell'Alto vicentino"
  }
},
{
  "type": "node",
  "id": 2390590492,
  "lat": 45.8637040,
  "lon": 11.3997781,
  "tags": {
    "name": "Museo storico Grande Guerra 15-18",
    "tourism": "museum"
  }
},
{
  "type": "node",
  "id": 2442180515,
  "lat": 45.6709665,
  "lon": 11.9269877,
  "tags": {
    "name": "Casa Giorgione",
    "tourism": "museum",
    "wikidata": "Q3661110",
    "wikipedia": "it:Casa Giorgione"
  }
},
{
  "type": "node",
  "id": 2612019093,
  "lat": 45.5492216,
  "lon": 11.5492702,
  "tags": {
    "addr:city": "Vicenza",
    "addr:postcode": "36100",
    "addr:street": "Piazza Giacomo Matteotti",
    "name": "Museo Civico di Palazzo Chiericati",
    "name:it": "Museo Civico",
    "name:zh": "维琴察市立博物馆",
    "opening_hours": "Tu-Su 09:00-17:00",
    "tourism": "museum",
    "wheelchair": "yes"
  }
},
{
  "type": "node",
  "id": 2647335571,
  "lat": 45.5498558,
  "lon": 11.5474593,
  "tags": {
    "name": "Museo Naturalistico Archeologico",
    "tourism": "museum",
    "wikidata": "Q3868408",
    "wikipedia": "it:Museo naturalistico archeologico (Vicenza)"
  }
},
{
  "type": "node",
  "id": 2666301250,
  "lat": 45.7451620,
  "lon": 11.5349678,
  "tags": {
    "addr:city": "Lugo di Vicenza",
    "addr:housename": "Museo dei Fossili \"Pierluigi Malinverni\"",
    "addr:housenumber": "44",
    "addr:postcode": "36030",
    "addr:street": "Via Palladio",
    "name": "Museo dei Fossili di Lonedo",
    "phone": "+39 0445 860561",
    "tourism": "museum"
  }
},
{
  "type": "node",
  "id": 2761628204,
  "lat": 45.5343328,
  "lon": 11.9696013,
  "tags": {
    "addr:city": "Borgoricco",
    "addr:housenumber": "12",
    "addr:postcode": "35010",
    "addr:street": "Viale Europa",
    "name": "Museo della Centuriazione Romana",
    "opening_hours": "Mo: Closed / Tu: 09:00-12:30 / We: 09:00-12:30/15:00-18:00 / Th: 09:00-12:30 / Fr: 09:00-12:30/15:00-18:00 / Sa: 09:00-12:30/15:00-18:30 / Su: 10:00-12:00/15:00-18:30",
    "operator": "Comune di Borgoricco",
    "tourism": "museum",
    "website": "https://www.museodellacenturiazione.it/",
    "wikipedia": "it:Museo della centuriazione romana (Borgoricco)"
  }
},
{
  "type": "node",
  "id": 3053299167,
  "lat": 45.9189990,
  "lon": 11.7302167,
  "tags": {
    "tourism": "museum"
  }
},
{
  "type": "node",
  "id": 3067049761,
  "lat": 45.9643761,
  "lon": 11.7605838,
  "tags": {
    "name": "Casa Maddalozzo",
    "tourism": "museum"
  }
},
{
  "type": "node",
  "id": 3135456847,
  "lat": 45.6599187,
  "lon": 11.4036509,
  "tags": {
    "name": "Casa Bianca",
    "tourism": "museum"
  }
},
{
  "type": "node",
  "id": 3135457572,
  "lat": 45.6558506,
  "lon": 11.4079290,
  "tags": {
    "name": "Della serica e della laterizia",
    "tourism": "museum"
  }
},
{
  "type": "node",
  "id": 3281938438,
  "lat": 45.7139643,
  "lon": 11.3549979,
  "tags": {
    "name": "Spazio espositivo Lanificio Conte",
    "tourism": "museum",
    "website": "http://www.museialtovicentino.it/musei/patrimonio-industriale/283-spazio-espositivo-lanificio-conte.html"
  }
},
{
  "type": "node",
  "id": 3358724593,
  "lat": 45.5457892,
  "lon": 11.5434547,
  "tags": {
    "name": "Museo diocesano",
    "tourism": "museum",
    "wikidata": "Q3868298",
    "wikipedia": "it:Museo diocesano (Vicenza)"
  }
},
{
  "type": "node",
  "id": 3461322079,
  "lat": 45.9156608,
  "lon": 11.9197409,
  "tags": {
    "name": "Museo civico e territoriale",
    "tourism": "museum"
  }
},
{
  "type": "node",
  "id": 3812442648,
  "lat": 45.6715684,
  "lon": 11.9274925,
  "tags": {
    "name": "Ingresso Torre Civica",
    "opening_hours": "Sa 11:00-13:00,15:00-20:00; Su 10:00-13:00,15:00-20:00",
    "phone": "+39 0423 735626",
    "tourism": "museum",
    "website": "https://www.facebook.com/torrecivicacastelfranco"
  }
},
{
  "type": "node",
  "id": 3814452454,
  "lat": 45.7619364,
  "lon": 11.4607836,
  "tags": {
    "addr:city": "Chiuppano",
    "addr:street": "Piazza Serragli",
    "name": "Museo della Grande Guerra",
    "source": "Associazione Fanti",
    "tourism": "museum",
    "wheelchair": "yes"
  }
},
{
  "type": "node",
  "id": 4510169735,
  "lat": 45.8961118,
  "lon": 11.6306992,
  "tags": {
    "addr:city": "Foza",
    "addr:housenumber": "2",
    "addr:postcode": "61010",
    "addr:street": "Via Roma",
    "name": "Museo di Foza",
    "phone": "+39 0424 443641",
    "tourism": "museum",
    "website": "http://www.museodifoza.it"
  }
},
{
  "type": "node",
  "id": 5554842284,
  "lat": 45.8248147,
  "lon": 12.2079660,
  "tags": {
    "name": "Museo \"Battaglia del Solstizio\"",
    "tourism": "museum"
  }
},
{
  "type": "node",
  "id": 6172365904,
  "lat": 45.9786040,
  "lon": 11.9637806,
  "tags": {
    "addr:housenumber": "18",
    "addr:street": "Via Piazza Caorera",
    "name": "Museo del Piave",
    "opening_hours": "Su 09:00-12:00, 15:00-18:00; Sa 15:00-18:00",
    "phone": "+390439789009",
    "tourism": "museum",
    "website": "http://www.museodelpiavevincenzocolognese.it"
  }
},
{
  "type": "node",
  "id": 6520406767,
  "lat": 45.7177734,
  "lon": 11.3592219,
  "tags": {
    "addr:city": "Schio",
    "addr:housenumber": "19",
    "addr:postcode": "36015",
    "addr:street": "Via Baratto",
    "name": "Museo dei Treni in miniatura",
    "opening_hours": "Fr 21:00-23:00",
    "tourism": "museum",
    "website": "http://www.fermodellistialtovicentino.it"
  }
},
{
  "type": "node",
  "id": 6824884157,
  "lat": 45.7778076,
  "lon": 11.7315684,
  "tags": {
    "addr:city": "Bassano del Grappa",
    "addr:housenumber": "19",
    "addr:postcode": "36061",
    "addr:street": "Via Cà Erizzo",
    "name": "Museo Hemingway e della Grande Guerra",
    "tourism": "museum"
  }
},
{
  "type": "way",
  "id": 59385039,
  "nodes": [
    736499866,
    736501469,
    736498341,
    736503038,
    736502037,
    736497750,
    736502594,
    736501554,
    736499866
  ],
  "tags": {
    "building": "yes",
    "name": "Caserma Milano",
    "source": "Regione_del_Veneto_LR28_16.7.1976_Formazione_CTR_auth_39164-5700-1100_23.01.2009",
    "tourism": "museum"
  }
},
{
  "type": "way",
  "id": 123876034,
  "nodes": [
    1379917767,
    1379917950,
    1379917381,
    1379917346,
    1379917317,
    1379917297,
    1379917314,
    1379917413,
    1379917377,
    1379917557,
    1379917570,
    1379917571,
    1379917593,
    1379917624,
    1379917629,
    1379917745,
    1379917755,
    1379917767
  ],
  "tags": {
    "building": "yes",
    "name": "Museo Le Carceri",
    "tourism": "museum"
  }
},
{
  "type": "way",
  "id": 126466425,
  "nodes": [
    1401861464,
    1401861438,
    1401861373,
    1401861397,
    1401861464
  ],
  "tags": {
    "building": "yes",
    "name": "Museo 1915-18 - Ex stazione ferroviaria Società Veneta",
    "tourism": "museum"
  }
},
{
  "type": "way",
  "id": 145928363,
  "nodes": [
    1592444150,
    1592443681,
    1592440104,
    1592440096,
    1592444150
  ],
  "tags": {
    "building": "yes",
    "name": "Palazzo Bonaguro Naturalistico",
    "tourism": "museum",
    "wikipedia": "it:Palazzo Bonaguro"
  }
},
{
  "type": "way",
  "id": 149057889,
  "nodes": [
    1620839721,
    1620840138,
    1620840495,
    1620840820,
    1620840306,
    1620840554,
    1620840636,
    1620839998,
    1620838743,
    1620839721
  ],
  "tags": {
    "building": "yes",
    "name": "Museo Civico",
    "tourism": "museum"
  }
},
{
  "type": "way",
  "id": 149501012,
  "nodes": [
    1624642793,
    1624643009,
    1624643056,
    1624643172,
    5159870360,
    1624643380,
    1624643267,
    1624643310,
    1624642951,
    1624642793
  ],
  "tags": {
    "addr:city": "Pedavena",
    "addr:postcode": "32034",
    "addr:street": "Piazza I Novembre",
    "building": "civic",
    "building:levels": "2",
    "description": "Centro visitatori del Parco Nazionale Dolomiti Bellunesi",
    "email": "prolocopedavena@libero.it",
    "name": "Centro visitatori \"Il sasso nello stagno\"",
    "phone": "+39 0439 301943",
    "ranger_station": "Centro visitatori del Parco Nazionale Dolomiti Bellunesi",
    "tourism": "museum"
  }
},
{
  "type": "way",
  "id": 158961097,
  "nodes": [
    1710713727,
    1710713839,
    1710713885,
    1710713814,
    1710713861,
    1710714014,
    1710713984,
    1710714005,
    1710713982,
    1710714036,
    1710713999,
    1710713900,
    1710713858,
    1710713887,
    1710713856,
    1710714034,
    1710714104,
    1710714084,
    1710714241,
    1710714175,
    1710714215,
    1710714257,
    1710714345,
    1710714584,
    1710714368,
    1710713975,
    1710713980,
    1710714017,
    1710713933,
    1710713800,
    1710713884,
    1710714289,
    1710714060,
    1710713450,
    1710713442,
    1710713425,
    1710713354,
    1710713321,
    1710713316,
    1710713305,
    1710713314,
    1710713320,
    1710713352,
    1710713343,
    1710713525,
    1710713520,
    1710713658,
    1710713645,
    1710713637,
    1710713622,
    1710713641,
    1710713636,
    1710713683,
    1710713694,
    1710713727
  ],
  "tags": {
    "addr:housenumber": "74",
    "addr:street": "Via Canova",
    "building": "yes",
    "email": "comunicazione@museocanova.it",
    "name": "Gypsoteca Canova",
    "opening_hours": "Tu-Sa 09:30-18:00; Su 09:30-19:00",
    "phone": "+39 0423 544323",
    "tourism": "museum",
    "website": "https://www.museocanova.it"
  }
},
{
  "type": "way",
  "id": 167982102,
  "nodes": [
    2020386910,
    2020386903,
    1793013231,
    7158868141,
    2020386904,
    1793013229,
    1793013205,
    1793013268,
    1793013225,
    1793013214,
    1793013217,
    1793013240,
    1793013262,
    1795136758,
    1793013202,
    7158868142,
    2020386910
  ],
  "tags": {
    "addr:housenumber": "78",
    "addr:postcode": "36050",
    "addr:street": "Via San Benedetto",
    "building": "yes",
    "name": "Villa Mezzalira",
    "tourism": "museum"
  }
},
{
  "type": "way",
  "id": 175913956,
  "nodes": [
    1864731978,
    1864731960,
    1864731959,
    1864731967,
    1864731978
  ],
  "tags": {
    "building": "farm_auxiliary",
    "name": "Ecomuseo del Ghertele",
    "tourism": "museum"
  }
},
{
  "type": "way",
  "id": 183087287,
  "nodes": [
    1934439943,
    1934439824,
    1934439942,
    3461304028,
    1934440008,
    1934439999,
    1934440023,
    1934439943
  ],
  "tags": {
    "building": "yes",
    "tourism": "museum"
  }
},
{
  "type": "way",
  "id": 183151054,
  "nodes": [
    1935115919,
    1935115915,
    1935115914,
    1935116105,
    1935116120,
    1935115919
  ],
  "tags": {
    "building": "yes",
    "name": "Museo di Speleologia",
    "tourism": "museum"
  }
},
{
  "type": "way",
  "id": 243724142,
  "nodes": [
    2510969169,
    6847517959,
    2510969215,
    2510969200,
    2510969149,
    2510969169
  ],
  "tags": {
    "building": "yes",
    "name": "Museo delle Bregonze",
    "tourism": "museum"
  }
},
{
  "type": "way",
  "id": 243862506,
  "nodes": [
    2512181387,
    2512181426,
    2512181466,
    2512181417,
    2512181387
  ],
  "tags": {
    "building": "yes",
    "name": "Museo Ornithologico",
    "tourism": "museum"
  }
},
{
  "type": "way",
  "id": 244733799,
  "nodes": [
    2520182343,
    2520182341,
    2520182205,
    2520182173,
    2520182248,
    2520182234,
    2520182505,
    3152357873,
    2520182604,
    2520182573,
    2520182603,
    2520182544,
    2520182508,
    2520182448,
    2520182343
  ],
  "tags": {
    "building": "church",
    "denomination": "catholic",
    "name": "Chiesetta di San Marco",
    "religion": "christian",
    "tourism": "museum"
  }
},
{
  "type": "way",
  "id": 255930419,
  "nodes": [
    2616422399,
    2616422104,
    2616422054,
    2616421490,
    2616421498,
    2616421921,
    2616422053,
    2616422069,
    2616422266,
    2616422248,
    2616422399
  ],
  "tags": {
    "addr:city": "Schio",
    "addr:housenumber": "44",
    "addr:postcode": "36015",
    "addr:street": "Via Fratelli Pasini",
    "building": "yes",
    "historic": "yes",
    "name": "Palazzo Fogazzaro",
    "tourism": "museum",
    "wheelchair": "yes",
    "wikipedia": "it:Palazzo Fogazzaro"
  }
},
{
  "type": "way",
  "id": 258807593,
  "nodes": [
    2641295067,
    2641295112,
    2641295076,
    2641295049,
    2641295051,
    2641295056,
    2641295063,
    2641294960,
    2641294943,
    2641294925,
    2641294923,
    2641294998,
    2641294984,
    2641295061,
    2641295067
  ],
  "tags": {
    "building": "industrial",
    "historic": "watermill",
    "name": "Antico Maglio Tamiello di Breganze",
    "note": "this is a working watermill",
    "toilets:wheelchair": "yes",
    "tourism": "museum",
    "website": "http://www.museomagliobreganze.it",
    "wheelchair": "limited"
  }
},
{
  "type": "way",
  "id": 258809960,
  "nodes": [
    2641311172,
    2641311124,
    2641311163,
    2641311134,
    2641311542,
    2641311748,
    2641311172
  ],
  "tags": {
    "building": "yes",
    "name": "Antica Officina Radin",
    "phone": "+39 0445 873170",
    "tourism": "museum"
  }
},
{
  "type": "way",
  "id": 268415548,
  "nodes": [
    2737525086,
    2737525087,
    2737525078,
    4343210413,
    2737525058,
    2737525092,
    2737525091,
    2737525264,
    2737525265,
    2737525300,
    4343210417,
    4343211648,
    4343211647,
    4343210419,
    2737525255,
    2737525253,
    2737525251,
    2737525247,
    2737525238,
    2737525230,
    2737525146,
    2737525140,
    2737525128,
    2737525112,
    2737525086
  ],
  "tags": {
    "building": "church",
    "historic": "memorial",
    "name": "Antica pieve dei Santi Giacomo e Cristoforo",
    "tourism": "museum"
  }
},
{
  "type": "way",
  "id": 299963889,
  "nodes": [
    3040722552,
    3040722553,
    3040722554,
    3040722555,
    3040722556,
    3040722557,
    3040722558,
    3040722559,
    3040722560,
    3040722561,
    3040722562,
    3040722563,
    3040722564,
    3040722565,
    3040722566,
    3040722567,
    3040722568,
    3040722569,
    3040722570,
    3040722571,
    3040722572,
    3040722573,
    3040722552
  ],
  "tags": {
    "building": "yes",
    "name": "Centro Permanente della Flora e Fauna Alpina - Castello Tesino",
    "operator": "Comune Castello Tesino",
    "tourism": "museum",
    "wheelchair": "yes"
  }
},
{
  "type": "way",
  "id": 454455028,
  "nodes": [
    4510162314,
    4510162322,
    4510162323,
    4510162315,
    4510162314
  ],
  "tags": {
    "building": "yes",
    "tourism": "museum"
  }
},
{
  "type": "node",
  "id": 2616421490,
  "lat": 45.7129292,
  "lon": 11.3562614
},
{
  "type": "node",
  "id": 2616421498,
  "lat": 45.7129300,
  "lon": 11.3562587
},
{
  "type": "node",
  "id": 2616421921,
  "lat": 45.7130429,
  "lon": 11.3559772
},
{
  "type": "node",
  "id": 2616422053,
  "lat": 45.7130996,
  "lon": 11.3560235
},
{
  "type": "node",
  "id": 2616422054,
  "lat": 45.7130999,
  "lon": 11.3564051
},
{
  "type": "node",
  "id": 2616422069,
  "lat": 45.7131055,
  "lon": 11.3560084
},
{
  "type": "node",
  "id": 2616422104,
  "lat": 45.7131124,
  "lon": 11.3564158
},
{
  "type": "node",
  "id": 2616422248,
  "lat": 45.7131706,
  "lon": 11.3560851
},
{
  "type": "node",
  "id": 2616422266,
  "lat": 45.7131777,
  "lon": 11.3560673
},
{
  "type": "node",
  "id": 2616422399,
  "lat": 45.7132266,
  "lon": 11.3561309
},
{
  "type": "node",
  "id": 2641294923,
  "lat": 45.7007717,
  "lon": 11.5533274
},
{
  "type": "node",
  "id": 2641294925,
  "lat": 45.7007755,
  "lon": 11.5533477
},
{
  "type": "node",
  "id": 2641294943,
  "lat": 45.7007935,
  "lon": 11.5534445
},
{
  "type": "node",
  "id": 2641294960,
  "lat": 45.7008174,
  "lon": 11.5535721
},
{
  "type": "node",
  "id": 2641294984,
  "lat": 45.7008628,
  "lon": 11.5532235
},
{
  "type": "node",
  "id": 2641294998,
  "lat": 45.7008750,
  "lon": 11.5532862
},
{
  "type": "node",
  "id": 2641295049,
  "lat": 45.7009285,
  "lon": 11.5533544
},
{
  "type": "node",
  "id": 2641295051,
  "lat": 45.7009374,
  "lon": 11.5534004
},
{
  "type": "node",
  "id": 2641295056,
  "lat": 45.7009421,
  "lon": 11.5533987
},
{
  "type": "node",
  "id": 2641295061,
  "lat": 45.7009632,
  "lon": 11.5531835
},
{
  "type": "node",
  "id": 2641295063,
  "lat": 45.7009655,
  "lon": 11.5535186
},
{
  "type": "node",
  "id": 2641295067,
  "lat": 45.7009757,
  "lon": 11.5532477
},
{
  "type": "node",
  "id": 2641295076,
  "lat": 45.7009859,
  "lon": 11.5533316
},
{
  "type": "node",
  "id": 2641295112,
  "lat": 45.7009904,
  "lon": 11.5533297
},
{
  "type": "node",
  "id": 2641311124,
  "lat": 45.7083481,
  "lon": 11.5551518
},
{
  "type": "node",
  "id": 2641311134,
  "lat": 45.7083539,
  "lon": 11.5550837
},
{
  "type": "node",
  "id": 2641311163,
  "lat": 45.7083699,
  "lon": 11.5551391
},
{
  "type": "node",
  "id": 2641311172,
  "lat": 45.7083770,
  "lon": 11.5552528
},
{
  "type": "node",
  "id": 2641311542,
  "lat": 45.7085065,
  "lon": 11.5549946
},
{
  "type": "node",
  "id": 2641311748,
  "lat": 45.7085524,
  "lon": 11.5551545
},
{
  "type": "node",
  "id": 1793013202,
  "lat": 45.6498805,
  "lon": 11.6486188
},
{
  "type": "node",
  "id": 1793013205,
  "lat": 45.6495953,
  "lon": 11.6500371
},
{
  "type": "node",
  "id": 1793013214,
  "lat": 45.6495056,
  "lon": 11.6503930
},
{
  "type": "node",
  "id": 1793013217,
  "lat": 45.6495766,
  "lon": 11.6503985
},
{
  "type": "node",
  "id": 1793013225,
  "lat": 45.6495214,
  "lon": 11.6499739
},
{
  "type": "node",
  "id": 1793013229,
  "lat": 45.6496733,
  "lon": 11.6500431
},
{
  "type": "node",
  "id": 1793013231,
  "lat": 45.6497201,
  "lon": 11.6488065
},
{
  "type": "node",
  "id": 1793013240,
  "lat": 45.6495787,
  "lon": 11.6503418
},
{
  "type": "node",
  "id": 1793013262,
  "lat": 45.6498138,
  "lon": 11.6503600
},
{
  "type": "node",
  "id": 1793013268,
  "lat": 45.6495975,
  "lon": 11.6499798
},
{
  "type": "node",
  "id": 1795136758,
  "lat": 45.6498580,
  "lon": 11.6491908
},
{
  "type": "node",
  "id": 2020386903,
  "lat": 45.6494120,
  "lon": 11.6487827
},
{
  "type": "node",
  "id": 2020386904,
  "lat": 45.6496918,
  "lon": 11.6495550
},
{
  "type": "node",
  "id": 2020386910,
  "lat": 45.6494196,
  "lon": 11.6485816
},
{
  "type": "node",
  "id": 7158868141,
  "lat": 45.6497174,
  "lon": 11.6488814
},
{
  "type": "node",
  "id": 7158868142,
  "lat": 45.6497835,
  "lon": 11.6486118
},
{
  "type": "node",
  "id": 2510969149,
  "lat": 45.7521797,
  "lon": 11.4883123
},
{
  "type": "node",
  "id": 2510969169,
  "lat": 45.7522064,
  "lon": 11.4882298
},
{
  "type": "node",
  "id": 2510969200,
  "lat": 45.7523067,
  "lon": 11.4883965
},
{
  "type": "node",
  "id": 2510969215,
  "lat": 45.7523335,
  "lon": 11.4883140
},
{
  "type": "node",
  "id": 6847517959,
  "lat": 45.7522396,
  "lon": 11.4882518
},
{
  "type": "node",
  "id": 1401861373,
  "lat": 45.8674094,
  "lon": 11.4775074
},
{
  "type": "node",
  "id": 1401861397,
  "lat": 45.8674691,
  "lon": 11.4773937
},
{
  "type": "node",
  "id": 1401861438,
  "lat": 45.8675553,
  "lon": 11.4776640
},
{
  "type": "node",
  "id": 1401861464,
  "lat": 45.8676149,
  "lon": 11.4775503
},
{
  "type": "node",
  "id": 1379917297,
  "lat": 45.8715345,
  "lon": 11.5114253
},
{
  "type": "node",
  "id": 1379917314,
  "lat": 45.8715400,
  "lon": 11.5114219
},
{
  "type": "node",
  "id": 1379917317,
  "lat": 45.8715414,
  "lon": 11.5114483
},
{
  "type": "node",
  "id": 1379917346,
  "lat": 45.8715560,
  "lon": 11.5114962
},
{
  "type": "node",
  "id": 1379917377,
  "lat": 45.8715704,
  "lon": 11.5113287
},
{
  "type": "node",
  "id": 1379917381,
  "lat": 45.8715722,
  "lon": 11.5115504
},
{
  "type": "node",
  "id": 1379917413,
  "lat": 45.8715892,
  "lon": 11.5113916
},
{
  "type": "node",
  "id": 1379917557,
  "lat": 45.8716663,
  "lon": 11.5112695
},
{
  "type": "node",
  "id": 1379917570,
  "lat": 45.8716711,
  "lon": 11.5112665
},
{
  "type": "node",
  "id": 1379917571,
  "lat": 45.8716717,
  "lon": 11.5112662
},
{
  "type": "node",
  "id": 1379917593,
  "lat": 45.8716785,
  "lon": 11.5112889
},
{
  "type": "node",
  "id": 1379917624,
  "lat": 45.8716929,
  "lon": 11.5113366
},
{
  "type": "node",
  "id": 1379917629,
  "lat": 45.8716942,
  "lon": 11.5113357
},
{
  "type": "node",
  "id": 1379917745,
  "lat": 45.8717458,
  "lon": 11.5113038
},
{
  "type": "node",
  "id": 1379917755,
  "lat": 45.8717490,
  "lon": 11.5113019
},
{
  "type": "node",
  "id": 1379917767,
  "lat": 45.8717520,
  "lon": 11.5113001
},
{
  "type": "node",
  "id": 1379917950,
  "lat": 45.8717874,
  "lon": 11.5114175
},
{
  "type": "node",
  "id": 1864731959,
  "lat": 45.9418364,
  "lon": 11.4368462
},
{
  "type": "node",
  "id": 1864731960,
  "lat": 45.9418756,
  "lon": 11.4369244
},
{
  "type": "node",
  "id": 1864731967,
  "lat": 45.9420186,
  "lon": 11.4366713
},
{
  "type": "node",
  "id": 1864731978,
  "lat": 45.9420580,
  "lon": 11.4367499
},
{
  "type": "node",
  "id": 2520182173,
  "lat": 45.7462326,
  "lon": 11.6574395
},
{
  "type": "node",
  "id": 2520182205,
  "lat": 45.7462630,
  "lon": 11.6575413
},
{
  "type": "node",
  "id": 2520182234,
  "lat": 45.7462814,
  "lon": 11.6573945
},
{
  "type": "node",
  "id": 2520182248,
  "lat": 45.7462866,
  "lon": 11.6574067
},
{
  "type": "node",
  "id": 2520182341,
  "lat": 45.7463144,
  "lon": 11.6575101
},
{
  "type": "node",
  "id": 2520182343,
  "lat": 45.7463178,
  "lon": 11.6575218
},
{
  "type": "node",
  "id": 2520182448,
  "lat": 45.7463738,
  "lon": 11.6574897
},
{
  "type": "node",
  "id": 2520182505,
  "lat": 45.7464117,
  "lon": 11.6573121
},
{
  "type": "node",
  "id": 2520182508,
  "lat": 45.7464126,
  "lon": 11.6574675
},
{
  "type": "node",
  "id": 2520182544,
  "lat": 45.7464260,
  "lon": 11.6575125
},
{
  "type": "node",
  "id": 2520182573,
  "lat": 45.7464374,
  "lon": 11.6574537
},
{
  "type": "node",
  "id": 2520182603,
  "lat": 45.7464505,
  "lon": 11.6574976
},
{
  "type": "node",
  "id": 2520182604,
  "lat": 45.7464513,
  "lon": 11.6574452
},
{
  "type": "node",
  "id": 3152357873,
  "lat": 45.7464295,
  "lon": 11.6573721
},
{
  "type": "node",
  "id": 2512181387,
  "lat": 45.7496334,
  "lon": 11.6511996
},
{
  "type": "node",
  "id": 2512181417,
  "lat": 45.7496777,
  "lon": 11.6513302
},
{
  "type": "node",
  "id": 2512181426,
  "lat": 45.7496968,
  "lon": 11.6511559
},
{
  "type": "node",
  "id": 2512181466,
  "lat": 45.7497409,
  "lon": 11.6512867
},
{
  "type": "node",
  "id": 1592440096,
  "lat": 45.7673673,
  "lon": 11.7281065
},
{
  "type": "node",
  "id": 1592440104,
  "lat": 45.7673457,
  "lon": 11.7285313
},
{
  "type": "node",
  "id": 1592443681,
  "lat": 45.7674951,
  "lon": 11.7285513
},
{
  "type": "node",
  "id": 1592444150,
  "lat": 45.7675186,
  "lon": 11.7281238
},
{
  "type": "node",
  "id": 4510162314,
  "lat": 45.8961592,
  "lon": 11.6305863
},
{
  "type": "node",
  "id": 4510162315,
  "lat": 45.8961944,
  "lon": 11.6307139
},
{
  "type": "node",
  "id": 4510162322,
  "lat": 45.8960156,
  "lon": 11.6306070
},
{
  "type": "node",
  "id": 4510162323,
  "lat": 45.8960324,
  "lon": 11.6307639
},
{
  "type": "node",
  "id": 1935115914,
  "lat": 45.8459501,
  "lon": 11.6678603
},
{
  "type": "node",
  "id": 1935115915,
  "lat": 45.8459503,
  "lon": 11.6678627
},
{
  "type": "node",
  "id": 1935115919,
  "lat": 45.8459601,
  "lon": 11.6679831
},
{
  "type": "node",
  "id": 1935116105,
  "lat": 45.8461942,
  "lon": 11.6678194
},
{
  "type": "node",
  "id": 1935116120,
  "lat": 45.8462043,
  "lon": 11.6679422
},
{
  "type": "node",
  "id": 2737525058,
  "lat": 46.0161172,
  "lon": 11.6338233
},
{
  "type": "node",
  "id": 2737525078,
  "lat": 46.0161438,
  "lon": 11.6335111
},
{
  "type": "node",
  "id": 2737525086,
  "lat": 46.0161567,
  "lon": 11.6334832
},
{
  "type": "node",
  "id": 2737525087,
  "lat": 46.0161591,
  "lon": 11.6335129
},
{
  "type": "node",
  "id": 2737525091,
  "lat": 46.0161558,
  "lon": 11.6338464
},
{
  "type": "node",
  "id": 2737525092,
  "lat": 46.0161562,
  "lon": 11.6338330
},
{
  "type": "node",
  "id": 2737525112,
  "lat": 46.0161856,
  "lon": 11.6334807
},
{
  "type": "node",
  "id": 2737525128,
  "lat": 46.0161927,
  "lon": 11.6334640
},
{
  "type": "node",
  "id": 2737525140,
  "lat": 46.0162034,
  "lon": 11.6334515
},
{
  "type": "node",
  "id": 2737525146,
  "lat": 46.0162162,
  "lon": 11.6334446
},
{
  "type": "node",
  "id": 2737525230,
  "lat": 46.0162299,
  "lon": 11.6334442
},
{
  "type": "node",
  "id": 2737525238,
  "lat": 46.0162429,
  "lon": 11.6334502
},
{
  "type": "node",
  "id": 2737525247,
  "lat": 46.0162538,
  "lon": 11.6334620
},
{
  "type": "node",
  "id": 2737525251,
  "lat": 46.0162616,
  "lon": 11.6334782
},
{
  "type": "node",
  "id": 2737525253,
  "lat": 46.0162652,
  "lon": 11.6334973
},
{
  "type": "node",
  "id": 2737525255,
  "lat": 46.0162677,
  "lon": 11.6335631
},
{
  "type": "node",
  "id": 2737525264,
  "lat": 46.0162582,
  "lon": 11.6338563
},
{
  "type": "node",
  "id": 2737525265,
  "lat": 46.0162590,
  "lon": 11.6338421
},
{
  "type": "node",
  "id": 2737525300,
  "lat": 46.0162886,
  "lon": 11.6338398
},
{
  "type": "node",
  "id": 4343210413,
  "lat": 46.0161432,
  "lon": 11.6335881
},
{
  "type": "node",
  "id": 4343210417,
  "lat": 46.0162878,
  "lon": 11.6338273
},
{
  "type": "node",
  "id": 4343210419,
  "lat": 46.0163073,
  "lon": 11.6335589
},
{
  "type": "node",
  "id": 4343211647,
  "lat": 46.0163210,
  "lon": 11.6336814
},
{
  "type": "node",
  "id": 4343211648,
  "lat": 46.0163223,
  "lon": 11.6338310
},
{
  "type": "node",
  "id": 3040722552,
  "lat": 46.0566384,
  "lon": 11.6298817
},
{
  "type": "node",
  "id": 3040722553,
  "lat": 46.0566603,
  "lon": 11.6300666
},
{
  "type": "node",
  "id": 3040722554,
  "lat": 46.0566318,
  "lon": 11.6300737
},
{
  "type": "node",
  "id": 3040722555,
  "lat": 46.0566350,
  "lon": 11.6301006
},
{
  "type": "node",
  "id": 3040722556,
  "lat": 46.0565028,
  "lon": 11.6301334
},
{
  "type": "node",
  "id": 3040722557,
  "lat": 46.0565073,
  "lon": 11.6301712
},
{
  "type": "node",
  "id": 3040722558,
  "lat": 46.0564718,
  "lon": 11.6301801
},
{
  "type": "node",
  "id": 3040722559,
  "lat": 46.0564789,
  "lon": 11.6302396
},
{
  "type": "node",
  "id": 3040722560,
  "lat": 46.0563621,
  "lon": 11.6302688
},
{
  "type": "node",
  "id": 3040722561,
  "lat": 46.0563567,
  "lon": 11.6302237
},
{
  "type": "node",
  "id": 3040722562,
  "lat": 46.0563068,
  "lon": 11.6302362
},
{
  "type": "node",
  "id": 3040722563,
  "lat": 46.0563000,
  "lon": 11.6301795
},
{
  "type": "node",
  "id": 3040722564,
  "lat": 46.0562152,
  "lon": 11.6302008
},
{
  "type": "node",
  "id": 3040722565,
  "lat": 46.0561934,
  "lon": 11.6300210
},
{
  "type": "node",
  "id": 3040722566,
  "lat": 46.0562729,
  "lon": 11.6300010
},
{
  "type": "node",
  "id": 3040722567,
  "lat": 46.0562652,
  "lon": 11.6299376
},
{
  "type": "node",
  "id": 3040722568,
  "lat": 46.0563052,
  "lon": 11.6299275
},
{
  "type": "node",
  "id": 3040722569,
  "lat": 46.0562982,
  "lon": 11.6298699
},
{
  "type": "node",
  "id": 3040722570,
  "lat": 46.0564147,
  "lon": 11.6298405
},
{
  "type": "node",
  "id": 3040722571,
  "lat": 46.0564225,
  "lon": 11.6299041
},
{
  "type": "node",
  "id": 3040722572,
  "lat": 46.0564620,
  "lon": 11.6298941
},
{
  "type": "node",
  "id": 3040722573,
  "lat": 46.0564712,
  "lon": 11.6299228
},
{
  "type": "node",
  "id": 736497750,
  "lat": 45.8728505,
  "lon": 11.8009077
},
{
  "type": "node",
  "id": 736498341,
  "lat": 45.8728753,
  "lon": 11.8012508
},
{
  "type": "node",
  "id": 736499866,
  "lat": 45.8727753,
  "lon": 11.8010285
},
{
  "type": "node",
  "id": 736501469,
  "lat": 45.8728368,
  "lon": 11.8012743
},
{
  "type": "node",
  "id": 736501554,
  "lat": 45.8728244,
  "lon": 11.8010049
},
{
  "type": "node",
  "id": 736502037,
  "lat": 45.8729274,
  "lon": 11.8012494
},
{
  "type": "node",
  "id": 736502594,
  "lat": 45.8728214,
  "lon": 11.8009145
},
{
  "type": "node",
  "id": 736503038,
  "lat": 45.8728798,
  "lon": 11.8012795
},
{
  "type": "node",
  "id": 1710713305,
  "lat": 45.8539686,
  "lon": 11.8815475
},
{
  "type": "node",
  "id": 1710713314,
  "lat": 45.8539703,
  "lon": 11.8815268
},
{
  "type": "node",
  "id": 1710713316,
  "lat": 45.8539721,
  "lon": 11.8815678
},
{
  "type": "node",
  "id": 1710713320,
  "lat": 45.8539770,
  "lon": 11.8815082
},
{
  "type": "node",
  "id": 1710713321,
  "lat": 45.8539789,
  "lon": 11.8815829
},
{
  "type": "node",
  "id": 1710713343,
  "lat": 45.8539820,
  "lon": 11.8814689
},
{
  "type": "node",
  "id": 1710713352,
  "lat": 45.8539877,
  "lon": 11.8814940
},
{
  "type": "node",
  "id": 1710713354,
  "lat": 45.8539885,
  "lon": 11.8815943
},
{
  "type": "node",
  "id": 1710713425,
  "lat": 45.8540000,
  "lon": 11.8816011
},
{
  "type": "node",
  "id": 1710713442,
  "lat": 45.8540125,
  "lon": 11.8816026
},
{
  "type": "node",
  "id": 1710713450,
  "lat": 45.8540184,
  "lon": 11.8816286
},
{
  "type": "node",
  "id": 1710713520,
  "lat": 45.8540765,
  "lon": 11.8813620
},
{
  "type": "node",
  "id": 1710713525,
  "lat": 45.8540862,
  "lon": 11.8814163
},
{
  "type": "node",
  "id": 1710713622,
  "lat": 45.8542046,
  "lon": 11.8812073
},
{
  "type": "node",
  "id": 1710713636,
  "lat": 45.8542128,
  "lon": 11.8811713
},
{
  "type": "node",
  "id": 1710713637,
  "lat": 45.8542159,
  "lon": 11.8812529
},
{
  "type": "node",
  "id": 1710713641,
  "lat": 45.8542192,
  "lon": 11.8811993
},
{
  "type": "node",
  "id": 1710713645,
  "lat": 45.8542266,
  "lon": 11.8812483
},
{
  "type": "node",
  "id": 1710713658,
  "lat": 45.8542305,
  "lon": 11.8812692
},
{
  "type": "node",
  "id": 1710713683,
  "lat": 45.8542430,
  "lon": 11.8811620
},
{
  "type": "node",
  "id": 1710713694,
  "lat": 45.8542486,
  "lon": 11.8811831
},
{
  "type": "node",
  "id": 1710713727,
  "lat": 45.8542616,
  "lon": 11.8811785
},
{
  "type": "node",
  "id": 1710713814,
  "lat": 45.8543153,
  "lon": 11.8812288
},
{
  "type": "node",
  "id": 1710713839,
  "lat": 45.8543244,
  "lon": 11.8811192
},
{
  "type": "node",
  "id": 1710713856,
  "lat": 45.8543384,
  "lon": 11.8809701
},
{
  "type": "node",
  "id": 1710713858,
  "lat": 45.8543408,
  "lon": 11.8810657
},
{
  "type": "node",
  "id": 1710713861,
  "lat": 45.8543420,
  "lon": 11.8813580
},
{
  "type": "node",
  "id": 1710713885,
  "lat": 45.8543601,
  "lon": 11.8811857
},
{
  "type": "node",
  "id": 1710713887,
  "lat": 45.8543636,
  "lon": 11.8810401
},
{
  "type": "node",
  "id": 1710713900,
  "lat": 45.8543667,
  "lon": 11.8811369
},
{
  "type": "node",
  "id": 1710713982,
  "lat": 45.8544187,
  "lon": 11.8811929
},
{
  "type": "node",
  "id": 1710713984,
  "lat": 45.8544203,
  "lon": 11.8812616
},
{
  "type": "node",
  "id": 1710713999,
  "lat": 45.8544262,
  "lon": 11.8810880
},
{
  "type": "node",
  "id": 1710714005,
  "lat": 45.8544325,
  "lon": 11.8812547
},
{
  "type": "node",
  "id": 1710714014,
  "lat": 45.8544325,
  "lon": 11.8813073
},
{
  "type": "node",
  "id": 1710714034,
  "lat": 45.8544453,
  "lon": 11.8808890
},
{
  "type": "node",
  "id": 1710714036,
  "lat": 45.8544464,
  "lon": 11.8811836
},
{
  "type": "node",
  "id": 1710714060,
  "lat": 45.8544569,
  "lon": 11.8813986
},
{
  "type": "node",
  "id": 1710714084,
  "lat": 45.8544695,
  "lon": 11.8809822
},
{
  "type": "node",
  "id": 1710714104,
  "lat": 45.8544744,
  "lon": 11.8809764
},
{
  "type": "node",
  "id": 1710714175,
  "lat": 45.8544969,
  "lon": 11.8811745
},
{
  "type": "node",
  "id": 1710714215,
  "lat": 45.8545066,
  "lon": 11.8812142
},
{
  "type": "node",
  "id": 1710714241,
  "lat": 45.8545181,
  "lon": 11.8811640
},
{
  "type": "node",
  "id": 1710714257,
  "lat": 45.8545237,
  "lon": 11.8812002
},
{
  "type": "node",
  "id": 1710714345,
  "lat": 45.8545568,
  "lon": 11.8814462
},
{
  "type": "node",
  "id": 1710713800,
  "lat": 45.8543266,
  "lon": 11.8819067
},
{
  "type": "node",
  "id": 1710713884,
  "lat": 45.8543584,
  "lon": 11.8818346
},
{
  "type": "node",
  "id": 1710713933,
  "lat": 45.8543936,
  "lon": 11.8820510
},
{
  "type": "node",
  "id": 1710713975,
  "lat": 45.8544055,
  "lon": 11.8819164
},
{
  "type": "node",
  "id": 1710713980,
  "lat": 45.8544127,
  "lon": 11.8819607
},
{
  "type": "node",
  "id": 1710714017,
  "lat": 45.8544441,
  "lon": 11.8819828
},
{
  "type": "node",
  "id": 1710714289,
  "lat": 45.8545402,
  "lon": 11.8816883
},
{
  "type": "node",
  "id": 1710714368,
  "lat": 45.8545668,
  "lon": 11.8817631
},
{
  "type": "node",
  "id": 1710714584,
  "lat": 45.8546418,
  "lon": 11.8817144
},
{
  "type": "node",
  "id": 1934439824,
  "lat": 45.9157491,
  "lon": 11.9198494
},
{
  "type": "node",
  "id": 1934439942,
  "lat": 45.9158580,
  "lon": 11.9197335
},
{
  "type": "node",
  "id": 1934439943,
  "lat": 45.9158581,
  "lon": 11.9200600
},
{
  "type": "node",
  "id": 1934439999,
  "lat": 45.9159275,
  "lon": 11.9199072
},
{
  "type": "node",
  "id": 1934440008,
  "lat": 45.9159406,
  "lon": 11.9198932
},
{
  "type": "node",
  "id": 1934440023,
  "lat": 45.9159539,
  "lon": 11.9199582
},
{
  "type": "node",
  "id": 3461304028,
  "lat": 45.9159295,
  "lon": 11.9198718
},
{
  "type": "node",
  "id": 1624642793,
  "lat": 46.0400949,
  "lon": 11.8792960
},
{
  "type": "node",
  "id": 1624642951,
  "lat": 46.0401527,
  "lon": 11.8795279
},
{
  "type": "node",
  "id": 1624643009,
  "lat": 46.0401693,
  "lon": 11.8792579
},
{
  "type": "node",
  "id": 1624643056,
  "lat": 46.0401764,
  "lon": 11.8792885
},
{
  "type": "node",
  "id": 1624643172,
  "lat": 46.0401967,
  "lon": 11.8792770
},
{
  "type": "node",
  "id": 1624643267,
  "lat": 46.0402203,
  "lon": 11.8794592
},
{
  "type": "node",
  "id": 1624643310,
  "lat": 46.0402276,
  "lon": 11.8794897
},
{
  "type": "node",
  "id": 1624643380,
  "lat": 46.0402396,
  "lon": 11.8794489
},
{
  "type": "node",
  "id": 5159870360,
  "lat": 46.0402182,
  "lon": 11.8793656
},
{
  "type": "node",
  "id": 1620838743,
  "lat": 46.0188000,
  "lon": 11.9122551
},
{
  "type": "node",
  "id": 1620839721,
  "lat": 46.0189212,
  "lon": 11.9121082
},
{
  "type": "node",
  "id": 1620839998,
  "lat": 46.0189754,
  "lon": 11.9125535
},
{
  "type": "node",
  "id": 1620840138,
  "lat": 46.0190043,
  "lon": 11.9122496
},
{
  "type": "node",
  "id": 1620840306,
  "lat": 46.0190383,
  "lon": 11.9123492
},
{
  "type": "node",
  "id": 1620840495,
  "lat": 46.0190676,
  "lon": 11.9121727
},
{
  "type": "node",
  "id": 1620840554,
  "lat": 46.0190757,
  "lon": 11.9124129
},
{
  "type": "node",
  "id": 1620840636,
  "lat": 46.0190822,
  "lon": 11.9124240
},
{
  "type": "node",
  "id": 1620840820,
  "lat": 46.0191162,
  "lon": 11.9122553
}

  ]
}
