{
  "version": 0.6,
  "generator": "Overpass API 0.7.55.9 ab41fea6",
  "osm3s": {
    "timestamp_osm_base": "2020-02-14T18:02:02Z",
    "copyright": "The data included in this document is from www.openstreetmap.org. The data is made available under ODbL."
  },
  "elements": [

{
  "type": "node",
  "id": 177561376,
  "lat": 63.4291205,
  "lon": 10.3869859,
  "tags": {
    "name": "Det Kongelige Norske Videnskabers Selskab",
    "tourism": "museum"
  }
},
{
  "type": "node",
  "id": 199409849,
  "lat": 63.4474289,
  "lon": 10.4540535,
  "tags": {
    "alt_name": "Ringve museum",
    "name": "Ringve Musikkmuseum",
    "operator": "Norges teknisk-naturvitenskapelige universitet;Vitenskapsmuseet",
    "tourism": "museum",
    "wikidata": "Q960829"
  }
},
{
  "type": "node",
  "id": 252037605,
  "lat": 63.4280814,
  "lon": 10.5345804,
  "tags": {
    "created_by": "JOSM",
    "name": "Ranheim bydelsmuseum",
    "tourism": "museum"
  }
},
{
  "type": "node",
  "id": 370515110,
  "lat": 63.4264039,
  "lon": 10.3929981,
  "tags": {
    "name": "Det jødiske museum",
    "tourism": "museum",
    "wikidata": "Q4570423"
  }
},
{
  "type": "node",
  "id": 370515113,
  "lat": 63.4258053,
  "lon": 10.3952871,
  "tags": {
    "addr:city": "Trondheim",
    "addr:housenumber": "1D",
    "addr:postcode": "7013",
    "addr:street": "Kongsgårdsgata",
    "name": "Rustkammeret",
    "tourism": "museum",
    "wheelchair": "yes",
    "wikidata": "Q9071301",
    "wikipedia": "no:Rustkammeret"
  }
},
{
  "type": "node",
  "id": 370515115,
  "lat": 63.4260630,
  "lon": 10.3967428,
  "tags": {
    "name": "Museet i Erkebispegården",
    "tourism": "museum",
    "wheelchair": "yes"
  }
},
{
  "type": "node",
  "id": 370515120,
  "lat": 63.4298553,
  "lon": 10.3783578,
  "tags": {
    "name": "Justismuseet",
    "old_name": "Norsk rettsmuseum",
    "tourism": "museum",
    "website": "https://www.justismuseet.no/",
    "wheelchair": "no",
    "wikidata": "Q15643755",
    "wikipedia": "en:Norwegian National Museum of Justice"
  }
},
{
  "type": "node",
  "id": 370515130,
  "lat": 63.4273199,
  "lon": 10.3914013,
  "tags": {
    "name": "Norsk Døvemuseum",
    "opening_hours": "Th-Fr 11:00-15:00; Sa 12:00-16:00",
    "tourism": "museum",
    "website": "https://norsk-dovemuseum.no/",
    "wikidata": "Q7053425",
    "wikipedia": "en:Norsk Døvemuseum"
  }
},
{
  "type": "node",
  "id": 441599205,
  "lat": 63.4283550,
  "lon": 10.3860845,
  "tags": {
    "name": "Middelalderutstilling",
    "tourism": "museum"
  }
},
{
  "type": "node",
  "id": 442640322,
  "lat": 63.4290323,
  "lon": 10.3865593,
  "tags": {
    "name": "NTNU Vitenskapsmuseet",
    "name:en": "The NTNU Museum of Natural History and Archaeology",
    "operator": "Norges teknisk-naturvitenskapelige universitet",
    "tourism": "museum",
    "wikidata": "Q1770886",
    "wikipedia": "en:NTNU Museum of Natural History and Archaeology"
  }
},
{
  "type": "node",
  "id": 696730945,
  "lat": 63.4301039,
  "lon": 10.4008926,
  "tags": {
    "name": "Vitensenteret",
    "opening_hours": "10:00-17:00;Sa-Su 10:00-11:00off;Aug21-Jun15 Mo-Fr 16:00+off;SH10:00-17:00;easter-6day - easter-3day 10:00-17:00;easter-3day - easter 11:00-17:00;easter,easter+1day off;easter+39day 11:00-17:00;easter+49day,easter+50day off;Dec24-26,31 off;May1,17 off",
    "tourism": "museum",
    "website": "https://vitensenteret.com/",
    "wikidata": "Q3330279",
    "wikipedia": "en:Trondheim Science Museum"
  }
},
{
  "type": "node",
  "id": 755830480,
  "lat": 63.4540182,
  "lon": 10.9574080,
  "tags": {
    "name": "Stjørdal museum Værnes",
    "phone": "+47 74 82 70 21",
    "tourism": "museum",
    "website": "https://stjordalmuseum.no/"
  }
},
{
  "type": "node",
  "id": 773542625,
  "lat": 63.4079440,
  "lon": 10.7995731,
  "tags": {
    "name": "Nygaardsvoldsmuseet",
    "tourism": "museum"
  }
},
{
  "type": "node",
  "id": 950526831,
  "lat": 63.5759882,
  "lon": 10.6244674,
  "tags": {
    "tourism": "museum"
  }
},
{
  "type": "node",
  "id": 1281452510,
  "lat": 63.4131741,
  "lon": 10.6518245,
  "tags": {
    "name": "Fjølstadtrøa Museum",
    "note": "approximate location",
    "tourism": "museum"
  }
},
{
  "type": "node",
  "id": 1430965958,
  "lat": 63.3509503,
  "lon": 10.7724347,
  "tags": {
    "name": "Mostadmark Jernverk",
    "tourism": "museum"
  }
},
{
  "type": "node",
  "id": 2302950336,
  "lat": 63.4262997,
  "lon": 10.3953193,
  "tags": {
    "name": "Riksregalieutstillingen",
    "tourism": "museum",
    "wheelchair": "yes",
    "wikidata": "Q11997852",
    "wikipedia": "no:Riksregalieutstillingen"
  }
},
{
  "type": "node",
  "id": 4128276513,
  "lat": 63.2409671,
  "lon": 10.8284077,
  "tags": {
    "addr:city": "Selbu",
    "addr:housenumber": "827",
    "addr:postcode": "7580",
    "addr:street": "Sjøbygdvegen",
    "email": "janerik@norskradiomuseum.no",
    "name": "Norsk Radio og Fjernsynsmuseum",
    "operator": "Jan Erik Steen",
    "phone": "+47 92 25 32 61",
    "tourism": "museum",
    "website": "https://norskradio-tv-museum.no/"
  }
},
{
  "type": "node",
  "id": 5720751077,
  "lat": 63.2162386,
  "lon": 11.0405829,
  "tags": {
    "name": "Selbu Bygdemuseum",
    "opening_hours": "Jun 24-Aug 26 11:00-17:00",
    "tourism": "museum",
    "website": "https://www.selbu.kommune.no/enheter/bygdemuseum/"
  }
},
{
  "type": "node",
  "id": 6566656414,
  "lat": 63.5678304,
  "lon": 10.7036903,
  "tags": {
    "name": "Frosta bygdemuseum",
    "tourism": "museum",
    "website": "https://www.frosta.kommune.no/kultur-idrett-og-fritid/kultur/Sider/museum.aspx"
  }
},
{
  "type": "node",
  "id": 6574340149,
  "lat": 63.4268561,
  "lon": 10.4105522,
  "tags": {
    "name": "Donjon Kristiansten",
    "opening_hours": "May-Sep Mo-Sa 10:00-16:00; May-Sep Su 12:00-16:00",
    "tourism": "museum",
    "wheelchair": "no"
  }
},
{
  "type": "node",
  "id": 6621328198,
  "lat": 63.2735729,
  "lon": 11.0781149,
  "tags": {
    "name": "Granby gård",
    "tourism": "museum"
  }
},
{
  "type": "node",
  "id": 6621328205,
  "lat": 63.4344488,
  "lon": 10.4067369,
  "tags": {
    "name": "SDS Hansteen",
    "tourism": "museum"
  }
},
{
  "type": "node",
  "id": 6621328215,
  "lat": 63.7756567,
  "lon": 11.0900134,
  "tags": {
    "name": "Ytterøy bygdetun",
    "tourism": "museum"
  }
},
{
  "type": "way",
  "id": 87313159,
  "nodes": [
    1015157124,
    1015157113,
    181324924,
    1015157109,
    1015157126,
    1015157132,
    1015157120,
    181324923,
    3194845921,
    1036377525,
    1015157124
  ],
  "tags": {
    "building": "public",
    "building:levels": "2",
    "name": "Stiftsgården",
    "note": "Royal residence",
    "opening_hours": "Mo-Sa 10:00-16:00; Su 12:00-16:00; Aug 21-May 31 off; Jun 19-23 off",
    "tourism": "museum",
    "website": "https://nkim.no/stiftsgarden",
    "wheelchair": "no",
    "wikidata": "Q1536981",
    "wikipedia": "en:Stiftsgården"
  }
},
{
  "type": "way",
  "id": 89233421,
  "nodes": [
    1035635926,
    1035634958,
    1035635972,
    1035635696,
    1035633675,
    1035635836,
    1035634509,
    2413537885,
    1035634083,
    1035635926
  ],
  "tags": {
    "addr:city": "Trondheim",
    "addr:housenumber": "1 b",
    "addr:street": "Vognhallvegen",
    "building": "yes",
    "name": "Sporveismuseet",
    "name:en": "Trondheim Tramway Museum",
    "name:no": "Sporveismuseet",
    "name:ru": "Трамвайный музей Тронхейма",
    "tourism": "museum",
    "website": "http://sporveishistoriskforening.no/museet/",
    "wikidata": "Q15615024"
  }
},
{
  "type": "way",
  "id": 89482686,
  "nodes": [
    1037661797,
    1037661828,
    1037661723,
    3250282080,
    1037661799,
    1037661797
  ],
  "tags": {
    "addr:city": "Trondheim",
    "addr:housenumber": "75",
    "addr:postcode": "7010",
    "addr:street": "Kjøpmannsgata",
    "building": "yes",
    "name": "Trondhjems Sjøfartsmuseum",
    "opening_hours": "Mo-Fr 09:00-14:00; Sa,Su 12:00-16:00; Sep 1-May 31 Mo,Sa off",
    "tourism": "museum",
    "website": "https://www.trondheim.no/trondhjems-sjofartsmuseum",
    "wikidata": "Q5370267"
  }
},
{
  "type": "way",
  "id": 89507501,
  "nodes": [
    1037837400,
    1037837396,
    1037837444,
    1037837424,
    1037837400
  ],
  "tags": {
    "building": "public",
    "name": "Nordenfjeldske Kunstindustrimuseum",
    "opening_hours": "Tu,We,Fr,Sa 10:00-16:00; Th 12:00-19:00; Su 12:00-16:00",
    "tourism": "museum",
    "wheelchair": "limited",
    "wikidata": "Q3330724",
    "wikipedia": "no:Nordenfjeldske Kunstindustrimuseum"
  }
},
{
  "type": "way",
  "id": 89508072,
  "nodes": [
    1037841818,
    1037841813,
    1037841811,
    1037841826,
    1037841818
  ],
  "tags": {
    "building": "yes",
    "name": "Trondheim Kunstmuseum Bispegata",
    "opening_hours": "We 12:00-20:00; Th-Su 12:00-16:00",
    "tourism": "museum",
    "website": "https://trondheimkunstmuseum.no/",
    "wikidata": "Q12007630",
    "wikipedia": "en:Trondheim Kunstmuseum"
  }
},
{
  "type": "way",
  "id": 104018578,
  "nodes": [
    1200435605,
    1200435606,
    1200435607,
    1200435603,
    1200435605
  ],
  "tags": {
    "addr:city": "Trondheim",
    "addr:housenumber": "14",
    "addr:postcode": "7010",
    "addr:street": "Brattørkaia",
    "building": "yes",
    "name": "Rockheim",
    "tourism": "museum",
    "website": "https://rockheim.no/",
    "wheelchair": "yes",
    "wikidata": "Q15689742",
    "wikipedia": "no:Rockheim"
  }
},
{
  "type": "way",
  "id": 170162091,
  "nodes": [
    1813151257,
    1813151249,
    1813151327,
    1813151318,
    6170557292,
    1879192625,
    6175765266,
    1879192665,
    6170557293,
    6175765280,
    1879192675,
    1813151350,
    1879192688,
    6166911876,
    1879192700,
    6166911879,
    1813151201,
    6166911883,
    1879192767,
    6166912104,
    6166524788,
    1813151314,
    6166524774,
    6166524775,
    1813151246,
    1879192942,
    6166524126,
    6166524125,
    1813151329,
    1813151277,
    1813151338,
    1879193096,
    1879193108,
    1879193111,
    1813151331,
    1879193115,
    1879193112,
    6161535428,
    1813151345,
    6161535161,
    1813151290,
    6161535097,
    6167249181,
    1813228045,
    6166912163,
    280516965,
    245379701,
    1813151296,
    1879192931,
    1879192921,
    1879192896,
    1879192886,
    245395422,
    6167249052,
    6167249075,
    245395421,
    1879192696,
    245395433,
    1813151371,
    1813151364,
    1813151321,
    1813151366,
    1813151289,
    1813151287,
    1813151288,
    1813151253,
    1813151323,
    1879192534,
    1167255641,
    1813151234,
    1813151241,
    1813151238,
    1813151365,
    1813151261,
    1813151368,
    1167255686,
    1167255724,
    1167255756,
    1167255746,
    1167255770,
    1879192648,
    1167255793,
    1167255637,
    1879192538,
    1167255669,
    1813151203,
    1813151206,
    1813151211,
    1813151300,
    1813151295,
    1813151315,
    6166911842,
    1813151362,
    1813151257
  ],
  "tags": {
    "name": "Sverresborg Trøndelag Folkemuseum",
    "tourism": "museum",
    "website": "https://www.sverresborg.no/",
    "wikidata": "Q6516903"
  }
},
{
  "type": "way",
  "id": 255367273,
  "nodes": [
    2610615125,
    2610615118,
    2610615121,
    2610615123,
    2610615122,
    2610615120,
    2610615125
  ],
  "tags": {
    "name": "Prestegårdsfjøset",
    "tourism": "museum"
  }
},
{
  "type": "way",
  "id": 255367803,
  "nodes": [
    2610616438,
    2610616440,
    2610616437,
    2610616445,
    2610616443,
    2610616444,
    2610616441,
    2610616442,
    2610616439,
    2610616438
  ],
  "tags": {
    "name": "Grande Landhandemuseum",
    "tourism": "museum"
  }
},
{
  "type": "relation",
  "id": 2966876,
  "members": [
    {
      "type": "way",
      "ref": 223611889,
      "role": "outer"
    },
    {
      "type": "way",
      "ref": 223611910,
      "role": "inner"
    }
  ],
  "tags": {
    "building": "yes",
    "name": "Falstadsenteret",
    "tourism": "museum",
    "type": "multipolygon",
    "wikidata": "Q11968437"
  }
},
{
  "type": "node",
  "id": 1035633675,
  "lat": 63.3977289,
  "lon": 10.3587560
},
{
  "type": "node",
  "id": 1035634083,
  "lat": 63.3977436,
  "lon": 10.3577761
},
{
  "type": "node",
  "id": 1035634509,
  "lat": 63.3978197,
  "lon": 10.3585018
},
{
  "type": "node",
  "id": 1035634958,
  "lat": 63.3979115,
  "lon": 10.3581444
},
{
  "type": "node",
  "id": 1035635696,
  "lat": 63.3979329,
  "lon": 10.3586494
},
{
  "type": "node",
  "id": 1035635836,
  "lat": 63.3977084,
  "lon": 10.3585600
},
{
  "type": "node",
  "id": 1035635926,
  "lat": 63.3978662,
  "lon": 10.3577120
},
{
  "type": "node",
  "id": 1035635972,
  "lat": 63.3978817,
  "lon": 10.3581600
},
{
  "type": "node",
  "id": 2413537885,
  "lat": 63.3978097,
  "lon": 10.3584070
},
{
  "type": "node",
  "id": 1813151201,
  "lat": 63.4190744,
  "lon": 10.3545767
},
{
  "type": "node",
  "id": 1813151249,
  "lat": 63.4177339,
  "lon": 10.3538775
},
{
  "type": "node",
  "id": 1813151257,
  "lat": 63.4176651,
  "lon": 10.3539614
},
{
  "type": "node",
  "id": 1813151327,
  "lat": 63.4185031,
  "lon": 10.3541905
},
{
  "type": "node",
  "id": 245379701,
  "lat": 63.4204644,
  "lon": 10.3590068
},
{
  "type": "node",
  "id": 280516965,
  "lat": 63.4204634,
  "lon": 10.3589415
},
{
  "type": "node",
  "id": 1167255637,
  "lat": 63.4183955,
  "lon": 10.3579848
},
{
  "type": "node",
  "id": 1167255669,
  "lat": 63.4173020,
  "lon": 10.3575776
},
{
  "type": "node",
  "id": 1167255686,
  "lat": 63.4183704,
  "lon": 10.3600889
},
{
  "type": "node",
  "id": 1167255724,
  "lat": 63.4181858,
  "lon": 10.3597722
},
{
  "type": "node",
  "id": 1167255746,
  "lat": 63.4183791,
  "lon": 10.3593986
},
{
  "type": "node",
  "id": 1167255756,
  "lat": 63.4182180,
  "lon": 10.3594437
},
{
  "type": "node",
  "id": 1167255770,
  "lat": 63.4186947,
  "lon": 10.3595339
},
{
  "type": "node",
  "id": 1167255793,
  "lat": 63.4186604,
  "lon": 10.3581504
},
{
  "type": "node",
  "id": 1813151203,
  "lat": 63.4172609,
  "lon": 10.3573193
},
{
  "type": "node",
  "id": 1813151206,
  "lat": 63.4172405,
  "lon": 10.3571194
},
{
  "type": "node",
  "id": 1813151211,
  "lat": 63.4172285,
  "lon": 10.3568659
},
{
  "type": "node",
  "id": 1813151238,
  "lat": 63.4179841,
  "lon": 10.3611519
},
{
  "type": "node",
  "id": 1813151246,
  "lat": 63.4207447,
  "lon": 10.3561781
},
{
  "type": "node",
  "id": 1813151261,
  "lat": 63.4181147,
  "lon": 10.3605465
},
{
  "type": "node",
  "id": 1813151277,
  "lat": 63.4215703,
  "lon": 10.3568446
},
{
  "type": "node",
  "id": 1813151290,
  "lat": 63.4220425,
  "lon": 10.3589647
},
{
  "type": "node",
  "id": 1813151295,
  "lat": 63.4172557,
  "lon": 10.3562519
},
{
  "type": "node",
  "id": 1813151296,
  "lat": 63.4204857,
  "lon": 10.3594959
},
{
  "type": "node",
  "id": 1813151300,
  "lat": 63.4172258,
  "lon": 10.3566705
},
{
  "type": "node",
  "id": 1813151314,
  "lat": 63.4206691,
  "lon": 10.3560290
},
{
  "type": "node",
  "id": 1813151315,
  "lat": 63.4172890,
  "lon": 10.3558796
},
{
  "type": "node",
  "id": 1813151318,
  "lat": 63.4184345,
  "lon": 10.3548229
},
{
  "type": "node",
  "id": 1813151329,
  "lat": 63.4211011,
  "lon": 10.3565025
},
{
  "type": "node",
  "id": 1813151331,
  "lat": 63.4223713,
  "lon": 10.3575674
},
{
  "type": "node",
  "id": 1813151338,
  "lat": 63.4219437,
  "lon": 10.3571857
},
{
  "type": "node",
  "id": 1813151345,
  "lat": 63.4221366,
  "lon": 10.3587756
},
{
  "type": "node",
  "id": 1813151350,
  "lat": 63.4189037,
  "lon": 10.3551035
},
{
  "type": "node",
  "id": 1813151362,
  "lat": 63.4175244,
  "lon": 10.3548185
},
{
  "type": "node",
  "id": 1813151365,
  "lat": 63.4179996,
  "lon": 10.3609292
},
{
  "type": "node",
  "id": 1813151368,
  "lat": 63.4182334,
  "lon": 10.3604129
},
{
  "type": "node",
  "id": 1813228045,
  "lat": 63.4215456,
  "lon": 10.3589748
},
{
  "type": "node",
  "id": 1879192538,
  "lat": 63.4176482,
  "lon": 10.3577187
},
{
  "type": "node",
  "id": 1879192625,
  "lat": 63.4185968,
  "lon": 10.3550461
},
{
  "type": "node",
  "id": 1879192648,
  "lat": 63.4187465,
  "lon": 10.3585929
},
{
  "type": "node",
  "id": 1879192665,
  "lat": 63.4188059,
  "lon": 10.3551772
},
{
  "type": "node",
  "id": 1879192675,
  "lat": 63.4188845,
  "lon": 10.3550920
},
{
  "type": "node",
  "id": 1879192688,
  "lat": 63.4189293,
  "lon": 10.3549038
},
{
  "type": "node",
  "id": 1879192700,
  "lat": 63.4190060,
  "lon": 10.3547312
},
{
  "type": "node",
  "id": 1879192767,
  "lat": 63.4195022,
  "lon": 10.3549663
},
{
  "type": "node",
  "id": 1879192931,
  "lat": 63.4203940,
  "lon": 10.3612129
},
{
  "type": "node",
  "id": 1879192942,
  "lat": 63.4207676,
  "lon": 10.3562009
},
{
  "type": "node",
  "id": 1879193096,
  "lat": 63.4220545,
  "lon": 10.3572814
},
{
  "type": "node",
  "id": 1879193108,
  "lat": 63.4222027,
  "lon": 10.3574131
},
{
  "type": "node",
  "id": 1879193111,
  "lat": 63.4222455,
  "lon": 10.3574539
},
{
  "type": "node",
  "id": 1879193112,
  "lat": 63.4222504,
  "lon": 10.3582828
},
{
  "type": "node",
  "id": 1879193115,
  "lat": 63.4223862,
  "lon": 10.3576826
},
{
  "type": "node",
  "id": 6161535097,
  "lat": 63.4219418,
  "lon": 10.3589667
},
{
  "type": "node",
  "id": 6161535161,
  "lat": 63.4221269,
  "lon": 10.3588106
},
{
  "type": "node",
  "id": 6161535428,
  "lat": 63.4221434,
  "lon": 10.3587525
},
{
  "type": "node",
  "id": 6166524125,
  "lat": 63.4208335,
  "lon": 10.3562660
},
{
  "type": "node",
  "id": 6166524126,
  "lat": 63.4207875,
  "lon": 10.3562206
},
{
  "type": "node",
  "id": 6166524774,
  "lat": 63.4206988,
  "lon": 10.3560962
},
{
  "type": "node",
  "id": 6166524775,
  "lat": 63.4206946,
  "lon": 10.3561264
},
{
  "type": "node",
  "id": 6166524788,
  "lat": 63.4198682,
  "lon": 10.3552996
},
{
  "type": "node",
  "id": 6166911842,
  "lat": 63.4173905,
  "lon": 10.3554263
},
{
  "type": "node",
  "id": 6166911876,
  "lat": 63.4189934,
  "lon": 10.3547597
},
{
  "type": "node",
  "id": 6166911879,
  "lat": 63.4190177,
  "lon": 10.3547048
},
{
  "type": "node",
  "id": 6166911883,
  "lat": 63.4194489,
  "lon": 10.3549144
},
{
  "type": "node",
  "id": 6166912104,
  "lat": 63.4195160,
  "lon": 10.3549789
},
{
  "type": "node",
  "id": 6166912163,
  "lat": 63.4213808,
  "lon": 10.3589722
},
{
  "type": "node",
  "id": 6167249181,
  "lat": 63.4216529,
  "lon": 10.3589726
},
{
  "type": "node",
  "id": 6170557292,
  "lat": 63.4186114,
  "lon": 10.3549287
},
{
  "type": "node",
  "id": 6170557293,
  "lat": 63.4188212,
  "lon": 10.3550441
},
{
  "type": "node",
  "id": 6175765266,
  "lat": 63.4186608,
  "lon": 10.3550863
},
{
  "type": "node",
  "id": 6175765280,
  "lat": 63.4188703,
  "lon": 10.3550812
},
{
  "type": "node",
  "id": 245395421,
  "lat": 63.4192371,
  "lon": 10.3622137
},
{
  "type": "node",
  "id": 245395422,
  "lat": 63.4202093,
  "lon": 10.3629739
},
{
  "type": "node",
  "id": 245395433,
  "lat": 63.4189511,
  "lon": 10.3641851
},
{
  "type": "node",
  "id": 1167255641,
  "lat": 63.4175365,
  "lon": 10.3625996
},
{
  "type": "node",
  "id": 1813151234,
  "lat": 63.4178311,
  "lon": 10.3617932
},
{
  "type": "node",
  "id": 1813151241,
  "lat": 63.4179314,
  "lon": 10.3613839
},
{
  "type": "node",
  "id": 1813151253,
  "lat": 63.4178556,
  "lon": 10.3643372
},
{
  "type": "node",
  "id": 1813151287,
  "lat": 63.4183612,
  "lon": 10.3635846
},
{
  "type": "node",
  "id": 1813151288,
  "lat": 63.4183111,
  "lon": 10.3636867
},
{
  "type": "node",
  "id": 1813151289,
  "lat": 63.4184164,
  "lon": 10.3635739
},
{
  "type": "node",
  "id": 1813151321,
  "lat": 63.4185263,
  "lon": 10.3635841
},
{
  "type": "node",
  "id": 1813151323,
  "lat": 63.4175525,
  "lon": 10.3638939
},
{
  "type": "node",
  "id": 1813151364,
  "lat": 63.4185823,
  "lon": 10.3636426
},
{
  "type": "node",
  "id": 1813151366,
  "lat": 63.4184788,
  "lon": 10.3635739
},
{
  "type": "node",
  "id": 1813151371,
  "lat": 63.4186372,
  "lon": 10.3637295
},
{
  "type": "node",
  "id": 1879192534,
  "lat": 63.4175155,
  "lon": 10.3631939
},
{
  "type": "node",
  "id": 1879192696,
  "lat": 63.4189829,
  "lon": 10.3639691
},
{
  "type": "node",
  "id": 1879192886,
  "lat": 63.4202384,
  "lon": 10.3624466
},
{
  "type": "node",
  "id": 1879192896,
  "lat": 63.4202727,
  "lon": 10.3620635
},
{
  "type": "node",
  "id": 1879192921,
  "lat": 63.4203368,
  "lon": 10.3616667
},
{
  "type": "node",
  "id": 6167249052,
  "lat": 63.4201891,
  "lon": 10.3629584
},
{
  "type": "node",
  "id": 6167249075,
  "lat": 63.4196418,
  "lon": 10.3625381
},
{
  "type": "node",
  "id": 1037837396,
  "lat": 63.4285826,
  "lon": 10.3965074
},
{
  "type": "node",
  "id": 1037837400,
  "lat": 63.4288380,
  "lon": 10.3963481
},
{
  "type": "node",
  "id": 1037837424,
  "lat": 63.4288310,
  "lon": 10.3970703
},
{
  "type": "node",
  "id": 1037837444,
  "lat": 63.4286114,
  "lon": 10.3971078
},
{
  "type": "node",
  "id": 1037841811,
  "lat": 63.4272490,
  "lon": 10.3948634
},
{
  "type": "node",
  "id": 1037841813,
  "lat": 63.4272272,
  "lon": 10.3942113
},
{
  "type": "node",
  "id": 1037841818,
  "lat": 63.4274720,
  "lon": 10.3941704
},
{
  "type": "node",
  "id": 1037841826,
  "lat": 63.4274938,
  "lon": 10.3948225
},
{
  "type": "node",
  "id": 181324923,
  "lat": 63.4313647,
  "lon": 10.3957792
},
{
  "type": "node",
  "id": 181324924,
  "lat": 63.4318856,
  "lon": 10.3955711
},
{
  "type": "node",
  "id": 1015157109,
  "lat": 63.4317959,
  "lon": 10.3956139
},
{
  "type": "node",
  "id": 1015157113,
  "lat": 63.4318032,
  "lon": 10.3946920
},
{
  "type": "node",
  "id": 1015157120,
  "lat": 63.4314558,
  "lon": 10.3957447
},
{
  "type": "node",
  "id": 1015157124,
  "lat": 63.4312849,
  "lon": 10.3949043
},
{
  "type": "node",
  "id": 1015157126,
  "lat": 63.4317440,
  "lon": 10.3950527
},
{
  "type": "node",
  "id": 1015157132,
  "lat": 63.4314046,
  "lon": 10.3951977
},
{
  "type": "node",
  "id": 1036377525,
  "lat": 63.4313270,
  "lon": 10.3953720
},
{
  "type": "node",
  "id": 3194845921,
  "lat": 63.4313304,
  "lon": 10.3954307
},
{
  "type": "node",
  "id": 1037661723,
  "lat": 63.4346327,
  "lon": 10.4051704
},
{
  "type": "node",
  "id": 1037661797,
  "lat": 63.4344315,
  "lon": 10.4053477
},
{
  "type": "node",
  "id": 1037661799,
  "lat": 63.4344828,
  "lon": 10.4050439
},
{
  "type": "node",
  "id": 1037661828,
  "lat": 63.4345814,
  "lon": 10.4054742
},
{
  "type": "node",
  "id": 3250282080,
  "lat": 63.4344975,
  "lon": 10.4050563
},
{
  "type": "node",
  "id": 1200435603,
  "lat": 63.4388752,
  "lon": 10.4011648
},
{
  "type": "node",
  "id": 1200435605,
  "lat": 63.4389910,
  "lon": 10.4014461
},
{
  "type": "node",
  "id": 1200435606,
  "lat": 63.4385769,
  "lon": 10.4022989
},
{
  "type": "node",
  "id": 1200435607,
  "lat": 63.4384611,
  "lon": 10.4020177
},
{
  "type": "node",
  "id": 2610616437,
  "lat": 63.6718148,
  "lon": 10.6228674
},
{
  "type": "node",
  "id": 2610616438,
  "lat": 63.6719136,
  "lon": 10.6224195
},
{
  "type": "node",
  "id": 2610616439,
  "lat": 63.6719224,
  "lon": 10.6223987
},
{
  "type": "node",
  "id": 2610616440,
  "lat": 63.6717595,
  "lon": 10.6225704
},
{
  "type": "node",
  "id": 2610616441,
  "lat": 63.6719112,
  "lon": 10.6226931
},
{
  "type": "node",
  "id": 2610616442,
  "lat": 63.6719707,
  "lon": 10.6226368
},
{
  "type": "node",
  "id": 2610616443,
  "lat": 63.6718374,
  "lon": 10.6226582
},
{
  "type": "node",
  "id": 2610616444,
  "lat": 63.6718957,
  "lon": 10.6226073
},
{
  "type": "node",
  "id": 2610616445,
  "lat": 63.6718653,
  "lon": 10.6228172
},
{
  "type": "node",
  "id": 2610615118,
  "lat": 63.6788172,
  "lon": 10.6331834
},
{
  "type": "node",
  "id": 2610615120,
  "lat": 63.6789592,
  "lon": 10.6335782
},
{
  "type": "node",
  "id": 2610615121,
  "lat": 63.6787101,
  "lon": 10.6337627
},
{
  "type": "node",
  "id": 2610615122,
  "lat": 63.6788552,
  "lon": 10.6335052
},
{
  "type": "node",
  "id": 2610615123,
  "lat": 63.6787903,
  "lon": 10.6338464
},
{
  "type": "node",
  "id": 2610615125,
  "lat": 63.6790051,
  "lon": 10.6333443
},
{
  "type": "node",
  "id": 2324934067,
  "lat": 63.6911514,
  "lon": 11.0414363
},
{
  "type": "node",
  "id": 2324934070,
  "lat": 63.6912650,
  "lon": 11.0415711
},
{
  "type": "node",
  "id": 2324934071,
  "lat": 63.6912720,
  "lon": 11.0421311
},
{
  "type": "node",
  "id": 2324934073,
  "lat": 63.6913154,
  "lon": 11.0418590
},
{
  "type": "node",
  "id": 2324934076,
  "lat": 63.6915203,
  "lon": 11.0413439
},
{
  "type": "node",
  "id": 2324934078,
  "lat": 63.6915589,
  "lon": 11.0410744
},
{
  "type": "node",
  "id": 2324934079,
  "lat": 63.6915683,
  "lon": 11.0416292
},
{
  "type": "node",
  "id": 2324934082,
  "lat": 63.6916795,
  "lon": 11.0417560
},
{
  "type": "way",
  "id": 223611889,
  "nodes": [
    2324934078,
    2324934082,
    2324934071,
    2324934067,
    2324934078
  ]
},
{
  "type": "way",
  "id": 223611910,
  "nodes": [
    2324934076,
    2324934079,
    2324934073,
    2324934070,
    2324934076
  ]
}

  ]
}
