{
  "version": 0.6,
  "generator": "Overpass API 0.7.55.9 ab41fea6",
  "osm3s": {
    "timestamp_osm_base": "2020-02-14T10:31:02Z",
    "copyright": "The data included in this document is from www.openstreetmap.org. The data is made available under ODbL."
  },
  "elements": [

{
  "type": "node",
  "id": 78452013,
  "lat": 52.9184212,
  "lon": 9.2277826,
  "tags": {
    "name": "Domherrenhaus",
    "tourism": "museum"
  }
},
{
  "type": "node",
  "id": 252735131,
  "lat": 53.1817280,
  "lon": 8.6510915,
  "tags": {
    "addr:city": "Bremen",
    "addr:housenumber": "3-5",
    "addr:postcode": "28757",
    "addr:street": "Im Dorfe",
    "museum": "history",
    "name": "Museum Schloss Schönebeck",
    "opening_hours": "Tu,We,Sa,Su 15:00-17:00; Su 10:30-13:00",
    "tourism": "museum",
    "website": "https://museum-schloss-schoenebeck.de/",
    "wikidata": "Q76633427"
  }
},
{
  "type": "node",
  "id": 286176954,
  "lat": 53.0755570,
  "lon": 8.6575763,
  "tags": {
    "man_made": "watermill",
    "name": "Museumsmühle Hasbergen",
    "tourism": "museum",
    "website": "https://www.delmenhorst.de/kultur-bildung/muehle/index.php",
    "wheelchair": "no",
    "wikidata": "Q76635903"
  }
},
{
  "type": "node",
  "id": 289903622,
  "lat": 52.9402812,
  "lon": 8.8230786,
  "tags": {
    "addr:city": "Syke",
    "man_made": "watermill",
    "name": "Wassermühle Barrien",
    "opening_hours": "Su[3] 14:00-17:00",
    "tourism": "museum",
    "website": "http://www.wassermuehle-barrien.de/"
  }
},
{
  "type": "node",
  "id": 415788802,
  "lat": 52.8036126,
  "lon": 8.6374261,
  "tags": {
    "name": "Museum der Strohverarbeitung",
    "tourism": "museum",
    "wikidata": "Q996623"
  }
},
{
  "type": "node",
  "id": 416473077,
  "lat": 53.0966122,
  "lon": 8.7713971,
  "tags": {
    "addr:city": "Bremen",
    "addr:country": "DE",
    "addr:housenumber": "1",
    "addr:postcode": "28217",
    "addr:street": "Am Speicher XI",
    "contact:fax": "+49 421 3038284",
    "contact:phone": "+49 421 3038279",
    "museum": "history",
    "name": "Hafenmuseum Speicher XI",
    "opening_hours": "Tu-Su 11:00-18:00; Mo off",
    "tourism": "museum",
    "website": "https://www.hafenmuseum-speicherelf.de/",
    "wheelchair": "yes",
    "wikidata": "Q1567953",
    "wikipedia": "de:Hafenmuseum (Bremen)"
  }
},
{
  "type": "node",
  "id": 454654464,
  "lat": 53.1251278,
  "lon": 8.9791797,
  "tags": {
    "name": "Binneboom-Museum",
    "opening_hours": "Su 14:00-18:00",
    "phone": "+49 421 273731",
    "tourism": "museum"
  }
},
{
  "type": "node",
  "id": 458708802,
  "lat": 53.2196901,
  "lon": 8.9278027,
  "tags": {
    "addr:city": "Worpswede",
    "addr:country": "DE",
    "addr:housenumber": "5",
    "addr:postcode": "27726",
    "addr:street": "Lindenallee",
    "contact:email": "info@grosse-kunstschau.de",
    "contact:fax": "+49 4792 310757",
    "contact:phone": "+49 4792 1302",
    "contact:website": "http://www.grosse-kunstschau.de",
    "name": "Große Kunstschau Worpswede",
    "opening_hours": "Mar-Oct Mo-Su 10:00-18:00",
    "toilets:wheelchair": "yes",
    "tourism": "museum",
    "wheelchair": "yes",
    "wheelchair:description": "Eingangstüren manuell zu öffnen - das ist beschwerlich. Toilette nicht gekennzeichnet und von den Angestellten zweckentfremdet.",
    "wikidata": "Q63726068"
  }
},
{
  "type": "node",
  "id": 461968015,
  "lat": 53.0660606,
  "lon": 8.8603000,
  "tags": {
    "addr:city": "Bremen",
    "addr:country": "DE",
    "addr:housenumber": "61-63",
    "addr:postcode": "28207",
    "addr:street": "Auf der Hohwisch",
    "alt_name": "Schulgeschichtliche Sammlung Bremen",
    "email": "schulmuseum@bildung.bremen.de",
    "fax": "+49 421 69623310",
    "fee": "EUR 1.5-3.0",
    "image": "http://www.schulmuseum-bremen.de/images/bild_00.jpg",
    "museum": "history",
    "name": "Schulmuseum Bremen",
    "opening_hours": "Mo,Tu,Fr 09:00-14:00; We,Th 09:00-16:00",
    "operator": "Schulmuseum Bremen e.V.",
    "phone": "+49 421 6962330",
    "tourism": "museum",
    "website": "http://www.schulmuseum-bremen.de/",
    "wheelchair": "no",
    "wikidata": "Q15845273",
    "wikipedia": "de:Schulmuseum Bremen"
  }
},
{
  "type": "node",
  "id": 464736868,
  "lat": 53.2244717,
  "lon": 8.8100926,
  "tags": {
    "name": "Museum für Schifffahrt und Torfabbau",
    "tourism": "museum"
  }
},
{
  "type": "node",
  "id": 464736869,
  "lat": 53.2236958,
  "lon": 8.8100067,
  "tags": {
    "name": "Norddeutsches Vogelmuseum",
    "tourism": "museum",
    "wheelchair": "no",
    "wheelchair:description": "Außenbereich und Scheune erreichbar. Museum leider nicht"
  }
},
{
  "type": "node",
  "id": 495555234,
  "lat": 53.1743129,
  "lon": 8.5677537,
  "tags": {
    "name": "Oldtimermuseum",
    "tourism": "museum"
  }
},
{
  "type": "node",
  "id": 539552910,
  "lat": 52.8977419,
  "lon": 8.4332919,
  "tags": {
    "addr:city": "Wildeshausen",
    "addr:housenumber": "13",
    "addr:postcode": "27793",
    "addr:street": "Bahnhofstraße",
    "name": "Druckereimuseum",
    "tourism": "museum",
    "wheelchair": "no"
  }
},
{
  "type": "node",
  "id": 539553051,
  "lat": 52.8971507,
  "lon": 8.4397531,
  "tags": {
    "name": "Dampfkornbranntweinbrennereimuseum",
    "tourism": "museum",
    "website": "http://www.brennerei-museum-wildeshausen.de/",
    "wheelchair": "no",
    "wikidata": "Q1158815",
    "wikipedia": "de:Dampfkornbranntweinbrennereimuseum"
  }
},
{
  "type": "node",
  "id": 600871851,
  "lat": 53.1688806,
  "lon": 8.6238851,
  "tags": {
    "addr:city": "Bremen",
    "addr:country": "DE",
    "addr:housenumber": "30",
    "addr:postcode": "28757",
    "addr:street": "Alte Hafenstraße",
    "contact:fax": "+49 421 2476147",
    "contact:phone": "+49 421 663665",
    "museum": "art",
    "name": "Overbeck-Museum",
    "opening_hours": "Tu-Su 11:00-18:00; Mo off",
    "opening_hours:url": "http://www.overbeck-museum.de/Das_Museum/seiten--1/index.html",
    "operator": "Kultur Büro Bremen Nord gGmbH",
    "tourism": "museum",
    "website": "http://www.overbeck-museum.de",
    "wheelchair": "yes",
    "wikidata": "Q2042287",
    "wikipedia": "de:Overbeck-Museum"
  }
},
{
  "type": "node",
  "id": 615851183,
  "lat": 53.0751840,
  "lon": 8.8060576,
  "tags": {
    "addr:city": "Bremen",
    "addr:country": "DE",
    "addr:housenumber": "6-10",
    "addr:postcode": "28195",
    "addr:street": "Böttcherstraße",
    "museum": "art",
    "name": "Paula-Modersohn-Becker-Museum",
    "opening_hours": "Tu-Su 11:00-18:00; Mo off",
    "opening_hours:url": "http://www.museen-boettcherstrasse.de/",
    "tourism": "museum",
    "website": "https://www.museen-boettcherstrasse.de/museen/paula-modersohn-becker-museum/",
    "wheelchair": "no",
    "wikidata": "Q318983",
    "wikipedia": "de:Paula Modersohn-Becker Museum"
  }
},
{
  "type": "node",
  "id": 619504806,
  "lat": 53.1866528,
  "lon": 8.5967254,
  "tags": {
    "name": "Beckedorfer Schmiedemuseum",
    "tourism": "museum",
    "wikidata": "Q63763852"
  }
},
{
  "type": "node",
  "id": 690335130,
  "lat": 53.0658809,
  "lon": 8.8067038,
  "tags": {
    "addr:city": "Bremen",
    "addr:housenumber": "112",
    "addr:postcode": "28201",
    "addr:street": "Buntentorsteinweg",
    "amenity": "arts_centre",
    "museum": "art",
    "name": "Städtische Galerie Bremen",
    "old_name": "Städtische Galerie im Buntentor",
    "opening_hours": "Tu-Sa 12:00-18:00; Su 11:00-18:00; Mo off",
    "tourism": "museum",
    "website": "https://www.staedtischegalerie-bremen.de/"
  }
},
{
  "type": "node",
  "id": 828163472,
  "lat": 53.0753304,
  "lon": 8.8096627,
  "tags": {
    "addr:city": "Bremen",
    "addr:country": "DE",
    "addr:housenumber": "10-12",
    "addr:postcode": "28195",
    "addr:street": "Sandstraße",
    "contact:website": "http://www.stpetridom.de/",
    "indoor": "yes",
    "level": "0;1",
    "museum": "history",
    "name": "Dom-Museum",
    "official_name": "Dom-Museum Bremen im St.Petri-Dom",
    "opening_hours": "Mo-Fr 10:00-16:45; Sa 10:00-13:30; Su 14:00-16:45",
    "opening_hours:url": "http://www.stpetridom.de/index.php?id=44&L=",
    "operator": "Stiftung Bremer Dom",
    "start_date": "1987",
    "tourism": "museum",
    "wheelchair": "limited",
    "wikidata": "Q1236491",
    "wikipedia": "de:Dom-Museum (Bremen)"
  }
},
{
  "type": "node",
  "id": 828163474,
  "lat": 53.0832065,
  "lon": 8.8097313,
  "tags": {
    "addr:city": "Bremen",
    "addr:country": "DE",
    "addr:housenumber": "27",
    "addr:postcode": "28195",
    "addr:street": "Breitenweg",
    "amenity": "arts_centre",
    "contact:website": "http://www.uebersee-museum.de/",
    "disabled": "yes",
    "name": "Übermaxx",
    "tourism": "museum",
    "wheelchair": "yes",
    "wikidata": "Q333527",
    "wikipedia": "de:Überseemuseum"
  }
},
{
  "type": "node",
  "id": 950974507,
  "lat": 53.0754770,
  "lon": 8.8102387,
  "tags": {
    "addr:city": "Bremen",
    "addr:country": "DE",
    "addr:housenumber": "4;5",
    "addr:postcode": "28195",
    "addr:street": "Sandstraße",
    "museum": "science",
    "name": "Haus der Wissenschaft",
    "tourism": "museum",
    "website": "https://www.hausderwissenschaft.de/",
    "wheelchair": "yes"
  }
},
{
  "type": "node",
  "id": 956651083,
  "lat": 52.8652347,
  "lon": 8.8292794,
  "tags": {
    "addr:housenumber": "20",
    "addr:street": "Henstedter Straße",
    "description": "Henstedt wie es früher war",
    "name": "Das kleine Dorfmuseum",
    "opening_hours": "May-Oct Su[1] 15:00-18:00 || \"und nach Vereinbarung\"",
    "tourism": "museum",
    "website": "http://kleines-dorfmuseum.de/"
  }
},
{
  "type": "node",
  "id": 987740381,
  "lat": 53.1545839,
  "lon": 8.9269031,
  "tags": {
    "name": "Schulmuseum",
    "tourism": "museum",
    "wheelchair": "yes"
  }
},
{
  "type": "node",
  "id": 1012903623,
  "lat": 53.1174556,
  "lon": 9.2299743,
  "tags": {
    "name": "Heimathaus",
    "tourism": "museum"
  }
},
{
  "type": "node",
  "id": 1184474195,
  "lat": 53.1067276,
  "lon": 8.8450050,
  "tags": {
    "addr:city": "Bremen",
    "addr:country": "DE",
    "addr:housenumber": "1a",
    "addr:street": "Wiener Straße",
    "alt_name": "Universum Bremen",
    "email": "info@universum-bremen.de",
    "internet_access": "wlan",
    "museum": "science;children",
    "name": "Universum",
    "name:en": "Science Center",
    "opening_hours": "Mo-Fr 09:00-18:00; Sa-Su 10:00-18:00",
    "phone": "+49 421 33460",
    "toilets:wheelchair": "yes",
    "tourism": "museum",
    "website": "https://universum-bremen.de/",
    "wheelchair": "yes",
    "wikidata": "Q882811",
    "wikipedia": "de:Universum Bremen"
  }
},
{
  "type": "node",
  "id": 1300137644,
  "lat": 53.1763954,
  "lon": 8.9883854,
  "tags": {
    "name": "Findorffhof",
    "tourism": "museum",
    "wheelchair": "limited",
    "wikidata": "Q76636103"
  }
},
{
  "type": "node",
  "id": 1759737089,
  "lat": 53.0749968,
  "lon": 8.8057864,
  "tags": {
    "addr:city": "Bremen",
    "addr:country": "DE",
    "addr:housenumber": "6",
    "addr:postcode": "28195",
    "addr:street": "Böttcherstraße",
    "museum": "art",
    "name": "Ludwig Roselius Museum",
    "opening_hours": "Tu-Su 11:00-18:00; Mo off",
    "opening_hours:url": "http://www.museen-boettcherstrasse.de/",
    "tourism": "museum",
    "website": "https://www.museen-boettcherstrasse.de/museen/ludwig-roselius-museum/",
    "wikidata": "Q1954717",
    "wikipedia": "de:Ludwig Roselius Museum"
  }
},
{
  "type": "node",
  "id": 1918496214,
  "lat": 53.0669996,
  "lon": 8.8388711,
  "tags": {
    "addr:city": "Bremen",
    "addr:country": "DE",
    "addr:housenumber": "1c",
    "addr:postcode": "28205",
    "addr:street": "Franz-Böhmert-Straße",
    "museum": "sport",
    "name": "Wuseum",
    "opening_hours": "Mo-Su 10:00-17:45",
    "operator": "SV Werder Bremen",
    "tourism": "museum",
    "wheelchair": "yes",
    "wikidata": "Q63790373"
  }
},
{
  "type": "node",
  "id": 1973215498,
  "lat": 53.0725816,
  "lon": 8.8095605,
  "tags": {
    "addr:city": "Bremen",
    "addr:country": "DE",
    "addr:housenumber": "10",
    "addr:postcode": "28195",
    "addr:street": "Wüstestätte",
    "museum": "children",
    "name": "Bremer Geschichtenhaus",
    "opening_hours": "Mo 12:00-18:00; Tu-Su 11:00-18:00",
    "operator": "bras e.V.",
    "phone": "+49 421 3362651",
    "toilets:wheelchair": "yes",
    "tourism": "museum",
    "website": "https://www.bremer-geschichtenhaus.de/",
    "wheelchair": "no",
    "wikidata": "Q907621",
    "wikipedia": "de:Bremer Geschichtenhaus"
  }
},
{
  "type": "node",
  "id": 2141100441,
  "lat": 53.1129276,
  "lon": 9.0835972,
  "tags": {
    "name": "Otto-Modersohn-Museum",
    "opening_hours": "Mo-Fr 10:00-18:00; Dec 24,25,31 off",
    "tourism": "museum",
    "website": "https://modersohn-museum.de/"
  }
},
{
  "type": "node",
  "id": 2292366405,
  "lat": 53.0613187,
  "lon": 8.8680219,
  "tags": {
    "alt_name": "Museum für Netztechnik Bremen/Bremerhaven (Die Adern der Stadt)",
    "email": "info@adern-der-stadt.de",
    "fax": "+49 421 69 68 83 63",
    "museum": "technology",
    "name": "Museum für Netztechnik",
    "opening_hours": "We 15:00-17:00",
    "operator": "swb; Die Adern der Stadt e.V.",
    "tourism": "museum",
    "website": "http://www.adern-der-stadt.de/",
    "wikidata": "Q64441872"
  }
},
{
  "type": "node",
  "id": 2362568231,
  "lat": 53.0887136,
  "lon": 8.8062675,
  "tags": {
    "addr:city": "Bremen",
    "addr:housenumber": "22;24",
    "addr:postcode": "28215",
    "addr:street": "Findorffstraße",
    "museum": "technology",
    "name": "Bremer Rundfunkmuseum",
    "opening_hours": "Tu-Fr 10:00-15:00; Su 10:00-15:00; PH off",
    "operator": "Bremer Rundfunkmuseum e.V.",
    "tourism": "museum",
    "website": "https://www.bremer-rundfunkmuseum.de/",
    "wikidata": "Q907818",
    "wikipedia": "de:Bremer Rundfunkmuseum"
  }
},
{
  "type": "node",
  "id": 2520454175,
  "lat": 53.0924136,
  "lon": 8.8640052,
  "tags": {
    "addr:city": "Bremen",
    "addr:country": "DE",
    "addr:housenumber": "240",
    "addr:postcode": "28213",
    "addr:street": "Schwachhauser Heerstraße",
    "alt_name": "Bremer Landesmuseum für Kunst und Kulturgeschichte",
    "contact:fax": "+49 421 69960066",
    "contact:phone": "+49 421 6996000",
    "contact:website": "https://www.focke-museum.de/",
    "museum": "history",
    "name": "Focke-Museum",
    "opening_hours": "Tu 10:00-21:00; We-Su 10:00-17:00",
    "tourism": "museum",
    "wikidata": "Q1434990",
    "wikipedia": "de:Focke-Museum"
  }
},
{
  "type": "node",
  "id": 2520454180,
  "lat": 53.0766394,
  "lon": 8.7987956,
  "tags": {
    "addr:city": "Bremen",
    "addr:country": "DE",
    "addr:housenumber": "21",
    "addr:postcode": "28199",
    "addr:street": "Teerhof",
    "museum": "art",
    "name": "Gesellschaft für Aktuelle Kunst",
    "opening_hours": "Tu-Su 11:00-18:00; Th 11:00-20:00; Mo off",
    "operator": "Gesellschaft für Aktuelle Kunst e.V.",
    "short_name": "GAK",
    "tourism": "museum",
    "website": "http://www.gak-bremen.de/",
    "wheelchair": "no"
  }
},
{
  "type": "node",
  "id": 2520454181,
  "lat": 53.0657082,
  "lon": 8.9378318,
  "tags": {
    "museum": "science",
    "name": "Krankenhaus-Museum",
    "opening_hours": "We-Su 11:00-18:00",
    "opening_hours:url": "http://www.krankenhausmuseum.de/anfahrt/index.php",
    "operator": "KulturAmbulanz",
    "tourism": "museum",
    "website": "http://www.krankenhausmuseum.de/"
  }
},
{
  "type": "node",
  "id": 2520454182,
  "lat": 53.0765093,
  "lon": 8.7987674,
  "tags": {
    "addr:city": "Bremen",
    "addr:country": "DE",
    "addr:housenumber": "20",
    "addr:postcode": "28199",
    "addr:street": "Teerhof",
    "alt_name": "Weserburg - Museum für moderne Kunst",
    "contact:website": "http://www.weserburg.de",
    "email": "info@weserburg.de",
    "internet_access": "wlan",
    "museum": "art",
    "name": "Weserburg Museum für moderne Kunst",
    "opening_hours": "Tu-Su 11:00-18:00",
    "operator": "Stiftung Neues Museum Weserburg",
    "start_date": "1991",
    "tourism": "museum",
    "wheelchair": "yes",
    "wikidata": "Q2563859",
    "wikipedia": "de:Weserburg Museum für moderne Kunst"
  }
},
{
  "type": "node",
  "id": 2520454195,
  "lat": 53.0730468,
  "lon": 8.8090221,
  "tags": {
    "addr:city": "Bremen",
    "addr:country": "DE",
    "addr:housenumber": "24",
    "addr:postcode": "28195",
    "addr:street": "Schnoor",
    "description": "Spielzeugmuseum im Schnoor",
    "museum": "children",
    "name": "Trotzdem",
    "opening_hours": "Mo-Fr 11:00-18:30; Sa 11:00-18:00",
    "phone": "+49 421 320382",
    "tourism": "museum"
  }
},
{
  "type": "node",
  "id": 2579876213,
  "lat": 52.8274934,
  "lon": 8.9929288,
  "tags": {
    "addr:housenumber": "1",
    "addr:street": "Bahnhof",
    "name": "DEV Kleinbahnmuseum",
    "operator": "Deutscher Eisenbahn-Verein e.V.",
    "phone": "+49 4252 9300 0",
    "tourism": "museum",
    "website": "http://www.museumseisenbahn.de",
    "wheelchair": "limited"
  }
},
{
  "type": "node",
  "id": 2579876214,
  "lat": 52.8274092,
  "lon": 8.9948922,
  "tags": {
    "name": "Altes Gaswerk",
    "tourism": "museum"
  }
},
{
  "type": "node",
  "id": 2736009192,
  "lat": 53.1679025,
  "lon": 8.7101009,
  "tags": {
    "addr:city": "Bremen",
    "addr:housenumber": "46",
    "addr:postcode": "28719",
    "addr:street": "Stader Landstraße",
    "description": "Hauswirtschaftmuseum zum Mitmachen für Kinder und Zigarrenausstellung",
    "email": "zigarrenfabrik@bras-bremen.de",
    "museum": "history",
    "name": "Köksch un Qualm",
    "opening_hours": "Th 14:00-18:00",
    "opening_hours:description": "Außerdem nach Vereinbarung geöffnet",
    "operator": "bras e.V.",
    "phone": "+49 421 636958 66",
    "toilets:wheelchair": "yes",
    "tourism": "museum",
    "website": "https://www.koeksch-un-qualm.de/",
    "wheelchair": "yes",
    "wikidata": "Q63762867"
  }
},
{
  "type": "node",
  "id": 2941927643,
  "lat": 53.0904302,
  "lon": 8.7747339,
  "tags": {
    "addr:city": "Bremen",
    "addr:country": "DE",
    "addr:housenumber": "20",
    "addr:postcode": "28217",
    "addr:street": "Konsul-Smidt-Straße",
    "alt_name": "Mobileum im Schuppen 1",
    "description": "Bremer Automobilgeschichte",
    "fixme": "lage",
    "museum": "technology",
    "name": "Mobileum",
    "tourism": "museum",
    "website": "http://schuppeneins.de/?page_id=169"
  }
},
{
  "type": "node",
  "id": 2991627733,
  "lat": 53.0782750,
  "lon": 8.7918090,
  "tags": {
    "addr:city": "Bremen",
    "addr:country": "DE",
    "name": "Becks Brewery Tour",
    "opening_hours": "\"Montag - Samstag (außer an Feiertagen) Anmelden erforderlich\"",
    "tourism": "museum",
    "wheelchair": "no"
  }
},
{
  "type": "node",
  "id": 3098308721,
  "lat": 53.3525910,
  "lon": 8.6391569,
  "tags": {
    "addr:housename": "Burg zu Hagen",
    "addr:housenumber": "1",
    "addr:place": "Hagen",
    "addr:postcode": "27628",
    "addr:street": "Burgallee",
    "fee": "yes",
    "opening_hours": "May-Sep Tu-Fr 9:00-12:00, 15:00-18:00; Sa-Su 10:00-18:00; PH 10:00-18:00; Oct-Apr Tu-Fr 9:00-12:00, 15:00-17:00; Sa-Su 10:00+; Mo off",
    "tourism": "museum"
  }
},
{
  "type": "node",
  "id": 3308675441,
  "lat": 53.0803601,
  "lon": 8.8158501,
  "tags": {
    "name": "Focke-Windkanal",
    "opening_hours": "Su[1] 12:00-17:00",
    "tourism": "museum",
    "website": "http://www.focke-windkanal.de/",
    "wheelchair": "no",
    "wikidata": "Q1434988",
    "wikipedia": "de:Focke-Windkanal"
  }
},
{
  "type": "node",
  "id": 3308675443,
  "lat": 53.1126653,
  "lon": 8.8063003,
  "tags": {
    "addr:city": "Bremen",
    "addr:country": "DE",
    "addr:housenumber": "5a",
    "addr:postcode": "28219",
    "addr:street": "Behrensweg",
    "description": "Kleinmuseum zur Geschichte der Bremer Kaisenhäuser",
    "museum": "local_history",
    "name": "Kaisenhaus-Museum",
    "tourism": "museum",
    "website": "http://www.kaisenhaus.de/"
  }
},
{
  "type": "node",
  "id": 3309385380,
  "lat": 53.1050458,
  "lon": 8.8038894,
  "tags": {
    "addr:city": "Bremen",
    "addr:housenumber": "12",
    "addr:postcode": "28219",
    "addr:street": "Salzburger Straße",
    "museum": "technology",
    "name": "Altes Pumpwerk",
    "opening_hours": "Mo[1] 16:00-19:00",
    "phone": "+49 421 9881111",
    "tourism": "museum",
    "website": "https://www.hansewasser.de/wir-als-unternehmen/engagement-und-verantwortung/altes-pumpwerk.html",
    "wikidata": "Q439325"
  }
},
{
  "type": "node",
  "id": 3573988019,
  "lat": 53.0294063,
  "lon": 8.8514538,
  "tags": {
    "name": "Dat lüttje Museum",
    "opening_hours": "We, Su 14:00-17:00",
    "operator": "Arbeitskreis Arster Geschichte(n) e. V.",
    "phone": "+49 421 829136",
    "tourism": "museum",
    "website": "http://www.arster-geschichte.de/",
    "wheelchair": "limited"
  }
},
{
  "type": "node",
  "id": 3648572135,
  "lat": 52.9227252,
  "lon": 9.2349946,
  "tags": {
    "contact:website": "http://www.dpm-verden.de/",
    "name": "Deutsches Pferdemuseum",
    "tourism": "museum",
    "wikidata": "Q1205883"
  }
},
{
  "type": "node",
  "id": 4219382001,
  "lat": 53.0882061,
  "lon": 8.9253964,
  "tags": {
    "museum": "apis mellifera",
    "tourism": "museum",
    "website": "http://www.bremer-imker.de/bilder-und-videos/bau-des-bienenspeichers/"
  }
},
{
  "type": "node",
  "id": 4365332309,
  "lat": 53.2207912,
  "lon": 8.9306509,
  "tags": {
    "addr:city": "Worpswede",
    "addr:country": "DE",
    "addr:housenumber": "1",
    "addr:postcode": "27726",
    "addr:street": "Bergstraße",
    "contact:email": "krohn@worpswede-touristik.de",
    "contact:fax": "+49 4792 9878920",
    "contact:phone": "+49 4792 9878919",
    "contact:website": "http://www.galerie-altes-rathaus-worpswede.de",
    "fee": "no",
    "name": "Galerie Altes Rathaus",
    "opening_hours": "Nov-Mar Tu-Fr 14:00-17:00; Nov-Mar Sa,Su 11:00-17:00; Apr-Oct Tu-Fr 14:00-18:00; Apr-Oct Sa-Su 11:00-17:00",
    "operator": "Gemeinde Worpswede",
    "tourism": "museum",
    "wheelchair": "no"
  }
},
{
  "type": "way",
  "id": 25769322,
  "nodes": [
    281060391,
    2336883760,
    2336883759,
    281060392,
    281060393,
    281060394,
    281060395,
    281060398,
    281060391
  ],
  "tags": {
    "alt_name": "Nordwestdeutsches Museum für IndustrieKultur",
    "building": "yes",
    "historic": "heritage",
    "name": "Fabrikmuseum Nordwolle",
    "old_name": "Turbinenhaus",
    "tourism": "museum",
    "website": "http://www.fabrikmuseum.de/",
    "wikidata": "Q76635906",
    "wikipedia": "de:Norddeutsche Wollkämmerei & Kammgarnspinnerei"
  }
},
{
  "type": "way",
  "id": 25769324,
  "nodes": [
    281060412,
    281060413,
    281060414,
    281060415,
    281060412
  ],
  "tags": {
    "building": "yes",
    "name": "Stadtmuseum Delmenhorst",
    "tourism": "museum",
    "wikidata": "Q76635907"
  }
},
{
  "type": "way",
  "id": 55474061,
  "nodes": [
    697162546,
    5853788994,
    5853788993,
    5853788992,
    5853788991,
    5853788990,
    697162547,
    697162548,
    697162549,
    697162550,
    697162551,
    697162552,
    697162553,
    5853788995,
    697162546
  ],
  "tags": {
    "addr:city": "Elsfleth",
    "addr:country": "DE",
    "addr:housenumber": "14",
    "addr:postcode": "26931",
    "addr:street": "Weserstraße",
    "building": "public",
    "email": "info@schiffahrtsmuseum-unterweser.de",
    "fax": "+49 4401 5266",
    "name": "Schifffahrtsmuseum der oldenburgischen Unterweser - Haus Elsfleth",
    "opening_hours": "Apr-Oct: Tu-Su 10:00-17:00, Nov-Mar: Tu-Sa 11:00-17:00, Nov-Mar: Su 10:00-17:00",
    "phone": "+49 4401 6791",
    "tourism": "museum",
    "website": "https://www.schiffahrtsmuseum-unterweser.de/HausElsfleth/index.php"
  }
},
{
  "type": "way",
  "id": 112509786,
  "nodes": [
    1278570504,
    1278570502,
    1278570518,
    1278570505,
    1278570522,
    1278570508,
    1278570504
  ],
  "tags": {
    "addr:city": "Worpswede",
    "addr:housenumber": "19",
    "addr:postcode": "27726",
    "addr:street": "Hembergstraße",
    "building": "yes",
    "email": "info@museum-modersohn.de",
    "name": "Museum am Modersohn-Haus",
    "opening_hours": "Mo-Su 10:00-18:00",
    "source": "bing",
    "tourism": "museum",
    "website": "https://www.museum-modersohn.de/",
    "wikidata": "Q63726112"
  }
},
{
  "type": "way",
  "id": 128416192,
  "nodes": [
    1419294235,
    4995525182,
    1419294216,
    1419294214,
    1419294210,
    1419294212,
    1419294205,
    1419294207,
    1419294219,
    1419294220,
    1419294221,
    1419294223,
    1419294228,
    1419294226,
    1419294236,
    4995525180,
    4995525183,
    1419294235
  ],
  "tags": {
    "building": "yes",
    "name": "Heinrich-Vogeler-Museum",
    "opening_hours": "Mo-Su 10:00-18:00; Dec 25 off; Dec 24 off; Dec 31 off; Dec 26 12:00-18:00; Jan 01 12:00-18:00",
    "tourism": "museum",
    "website": "http://www.worpswede-museen.de/barkenhoff/barkenhoff.html",
    "wheelchair": "limited",
    "wheelchair:description": "Nur das Erdgeschoss rollstuhlgerecht."
  }
},
{
  "type": "way",
  "id": 133164279,
  "nodes": [
    1465196622,
    1465196644,
    1465196628,
    1465196615,
    1465196622
  ],
  "tags": {
    "addr:city": "Harpstedt",
    "addr:housenumber": "3",
    "addr:postcode": "27243",
    "addr:street": "Am Bahnhof",
    "building": "yes",
    "email": "info@dhef.de",
    "name": "Museumseisenbahn \"Jan Harpstedt\"",
    "phone": "+49 4244 2380",
    "tourism": "museum",
    "website": "www.jan-harpstedt.de"
  }
},
{
  "type": "way",
  "id": 161529403,
  "nodes": [
    1735061269,
    1735061252,
    1735061249,
    1735061251,
    1735061247,
    1735061236,
    1735061245,
    2313743765,
    2313743764,
    6460032377,
    2313743762,
    2313743759,
    1735061211,
    1735061208,
    1735061206,
    1735061209,
    1735061202,
    1735061221,
    1735061219,
    1735061197,
    1735061189,
    1735061185,
    1735061183,
    1735061181,
    1735061187,
    1735061179,
    1735061176,
    1735061172,
    1735061174,
    1735061151,
    1735061170,
    1735061150,
    1735061149,
    1735061147,
    1735061125,
    1735061121,
    1735061118,
    1735061117,
    1735061106,
    1735061107,
    1735061092,
    1735061100,
    1735061049,
    1735061059,
    1735061052,
    1735061054,
    1735061060,
    1735061061,
    1735061056,
    1735061062,
    1735061063,
    1735061064,
    1735061076,
    1735061081,
    1735061077,
    1735061078,
    1735061084,
    1735061086,
    1735061083,
    1735061088,
    1735061096,
    1735061105,
    1735061090,
    1735061145,
    5967288303,
    1735061112,
    1735061126,
    1735061132,
    1735061139,
    1735061130,
    1735061137,
    1735061141,
    1735061143,
    1735061129,
    1735061193,
    1735061200,
    1735061204,
    1735061195,
    1735061215,
    1735061217,
    1735061223,
    1735061228,
    1735061231,
    1735061225,
    1735061230,
    5182252875,
    5182252876,
    1735061269
  ],
  "tags": {
    "3dr:type": "0.0",
    "addr:city": "Bremen",
    "addr:country": "DE",
    "addr:postcode": "28777",
    "addr:street": "Rekumer Siel",
    "alt_name": "U-Boot-Bunker Farge",
    "building": "yes",
    "building:parts": "vertical",
    "bunker_type": "submarine_pen",
    "description": "Kulturdenkmal, siehe http://wiki.openstreetmap.org/wiki/Bremen/Kulturdenkm%C3%A4ler",
    "email": "mail@bunkervalentin.de",
    "height": "22",
    "heritage": "4",
    "heritage:operator": "lfd",
    "historic": "heritage",
    "image": "http://www.denkort-bunker-valentin.de/fileadmin/templates/grafik/logo.png",
    "layer": "1",
    "lfd:criteria": "ED",
    "location": "overground",
    "military": "bunker",
    "name": "U-Boot-Bunker Valentin",
    "name:en": "Valentin submarine pens",
    "name:es": "Refugio para submarinos de Valentin",
    "name:pl": "Bunkier okrętów podwodnych Valentin",
    "name:ru": "Valentin (бункер)",
    "opening_hours": "Tu-Su 10:00-16:00; Sa off; PH off",
    "operator": "Landeszentrale für politische Bildung",
    "phone": "+49 421 69 67 36 70",
    "ref:lfd": "1736",
    "ruins": "yes",
    "source": "LfD Bremen",
    "tourism": "museum",
    "website": "https://www.denkort-bunker-valentin.de/",
    "wikidata": "Q466256",
    "wikipedia": "de:U-Boot-Bunker Valentin"
  }
},
{
  "type": "way",
  "id": 164861752,
  "nodes": [
    1764565953,
    1764565954,
    1764565947,
    1764565941,
    1764565931,
    1764565930,
    1764565940,
    1764565939,
    1764565937,
    1764565936,
    1764565938,
    1764565935,
    1764565951,
    1764565949,
    1764565970,
    1764565974,
    1764565983,
    1764565984,
    1764565985,
    1764565986,
    1764565987,
    1764565989,
    1764565991,
    1764565993,
    1764565994,
    1764565996,
    1764565998,
    1764565999,
    1764566001,
    1764566002,
    1764566004,
    1764566005,
    1764566007,
    1764566009,
    1764566011,
    1764566021,
    1764566023,
    1764566024,
    1764566025,
    1764566026,
    1764566027,
    1764566028,
    1764566029,
    1764566030,
    1764566031,
    1764566032,
    1764566033,
    1764566034,
    1764566035,
    1764566036,
    1764566037,
    1764566038,
    1764566040,
    1764566042,
    1764566043,
    1764566052,
    1764566054,
    1764566056,
    1764566058,
    1764566059,
    1764566061,
    1764566063,
    1764566065,
    1764566067,
    1764566068,
    1764566070,
    1764566072,
    1764566074,
    1764566075,
    1764566076,
    1764566078,
    1764566080,
    1764566084,
    1764566087,
    1764566089,
    1764566092,
    1764566096,
    1764566098,
    1764566101,
    1764566103,
    1764566106,
    1764566110,
    1764566111,
    1764566116,
    1764566123,
    1764566124,
    1764566125,
    1764566126,
    1764566113,
    1764566115,
    1764566108,
    1764566104,
    1764566099,
    1764566094,
    1764566091,
    1764566085,
    1764566081,
    1764566079,
    1764566077,
    1764566127,
    1764566128,
    1764566129,
    1764566130,
    1764566134,
    1764566136,
    1764566131,
    1764566132,
    1764565953
  ],
  "tags": {
    "addr:city": "Bremen",
    "addr:country": "DE",
    "addr:housenumber": "4",
    "addr:postcode": "28203",
    "addr:street": "Goetheplatz",
    "building": "yes",
    "description": "Kulturdenkmal, siehe http://wiki.openstreetmap.org/wiki/Bremen/Kulturdenkm%C3%A4ler",
    "heritage": "4",
    "heritage:operator": "lfd",
    "lfd:criteria": "ED",
    "name": "Villa Ichon",
    "phone": "+49 421 327961",
    "ref:lfd": "0451",
    "source": "LfD Bremen",
    "tourism": "museum",
    "url": "http://denkmalpflege.bremen.de/sixcms/detail.php?template=20_denkmal_wrapper_d&obj=00000451",
    "website": "https://www.villa-ichon.de/",
    "wheelchair": "no",
    "wikidata": "Q2525314",
    "wikipedia": "de:Villa Ichon"
  }
},
{
  "type": "way",
  "id": 164952281,
  "nodes": [
    1765429560,
    1765429555,
    1765429548,
    1765429551,
    1765429543,
    1765429544,
    1765429542,
    1765429511,
    1765429510,
    1765429539,
    1765429553,
    1765429560
  ],
  "tags": {
    "addr:city": "Bremen",
    "addr:country": "DE",
    "addr:housename": "Schifferhaus",
    "addr:housenumber": "15",
    "addr:postcode": "28195",
    "addr:street": "Stavendamm",
    "building": "yes",
    "description": "Kulturdenkmal, siehe http://wiki.openstreetmap.org/wiki/Bremen/Kulturdenkm%C3%A4ler",
    "heritage": "4",
    "heritage:operator": "lfd",
    "lfd:criteria": "ED",
    "name": "Schifferhaus",
    "ref:lfd": "1373",
    "source": "LfD Bremen",
    "tourism": "museum",
    "url": "http://denkmalpflege.bremen.de/sixcms/detail.php?template=20_denkmal_wrapper_d&obj=00001373",
    "wikidata": "Q828561",
    "wikipedia": "de:Schifferhaus"
  }
},
{
  "type": "way",
  "id": 179368368,
  "nodes": [
    1897201529,
    1897201531,
    1897201549,
    1897201546,
    1897201529
  ],
  "tags": {
    "addr:city": "Worpswede",
    "addr:housenumber": "35",
    "addr:postcode": "27726",
    "addr:street": "Im Schluh",
    "building": "yes",
    "name": "Haus im Schluh",
    "toilets:wheelchair": "no",
    "tourism": "museum",
    "website": "http://www.haus-im-schluh.de/",
    "wheelchair": "limited",
    "wheelchair:description": "Haupthaus über separat zu öffnenden Seiteneingang rollstuhlgerecht. Nebenhaus nicht rollstuhlgerecht.",
    "wikidata": "Q63725953"
  }
},
{
  "type": "way",
  "id": 192090314,
  "nodes": [
    2026495566,
    2026495565,
    2026495563,
    2026495564,
    2026495566
  ],
  "tags": {
    "addr:city": "Schwanewede",
    "addr:housenumber": "122",
    "addr:street": "An der Kaserne",
    "building": "yes",
    "name": "dokumentations- und lernort baracke wilhelmine",
    "tourism": "museum",
    "wikidata": "Q56007",
    "wikipedia": "de:Baracke Wilhelmine"
  }
},
{
  "type": "way",
  "id": 192685359,
  "nodes": [
    1765355327,
    1765355280,
    3195014104,
    1499455898,
    3195014102,
    1499455907,
    3195014094,
    2032323762,
    1499455920,
    1765355241,
    1765355228,
    1765355227,
    1765355226,
    3195014070,
    1765355221,
    3775199084,
    1765355212,
    3195014065,
    1765355217,
    1765355219,
    1765355215,
    1765355224,
    1765355223,
    3195014067,
    206235506,
    3195014074,
    206235505,
    1765355249,
    1765355277,
    1765355286,
    1765355291,
    2616069283,
    1765355304,
    1765355307,
    1765355309,
    2032323784,
    1765355316,
    1765355317,
    1765355313,
    1765355314,
    1765355310,
    1765355327
  ],
  "tags": {
    "addr:city": "Bremen",
    "addr:country": "DE",
    "addr:housename": "Kunsthalle Bremen",
    "addr:housenumber": "207",
    "addr:postcode": "28195",
    "addr:street": "Am Wall",
    "building": "museum",
    "building:colour": "beige",
    "building:parts": "vertical",
    "contact:email": "info@kunsthalle-bremen.de",
    "contact:phone": "+49 421 32908 0",
    "museum": "art",
    "name": "Kunsthalle Bremen",
    "opening_hours": "Tu 10:00-21:00; We-Sa 10:00-18:00; Mo off",
    "roof:colour": "grey",
    "toilets:wheelchair": "yes",
    "tourism": "museum",
    "website": "https://www.kunsthalle-bremen.de/",
    "wheelchair": "yes",
    "wikidata": "Q693591",
    "wikipedia": "de:Kunsthalle Bremen"
  }
},
{
  "type": "way",
  "id": 197249837,
  "nodes": [
    2075244954,
    2075244957,
    2075244955,
    2075244951,
    2075244954
  ],
  "tags": {
    "building": "yes",
    "name": "Freiradmuseum",
    "opening_hours": "\"auf Nachfrage\"",
    "subject": "bikes",
    "tourism": "museum"
  }
},
{
  "type": "way",
  "id": 199801618,
  "nodes": [
    2098003757,
    2098003837,
    2098003810,
    2098003752,
    2098003757
  ],
  "tags": {
    "addr:city": "Ottersberg",
    "addr:country": "DE",
    "addr:housenumber": "2",
    "addr:postcode": "28870",
    "addr:street": "Kirchstraße",
    "building": "yes",
    "his:1768-:building": "yes",
    "name": "Heimathaus Irmintraut",
    "start_date": "1768",
    "tourism": "museum"
  }
},
{
  "type": "way",
  "id": 232815458,
  "nodes": [
    2411319919,
    2411319923,
    2411319921,
    2411319917,
    2411383131,
    2411319915,
    2411319919
  ],
  "tags": {
    "building": "yes",
    "contact:phone": "+49 4408 6829",
    "contact:website": "http://www.klosterhude.de/html/museum.html",
    "name": "Klostermuseum",
    "opening_hours": "Sa,Su 15:00-17:00",
    "operator": "Freunde des Klosters Hude e.V.",
    "tourism": "museum"
  }
},
{
  "type": "way",
  "id": 244772287,
  "nodes": [
    2520454192,
    2520454190,
    1765355266,
    1765355257,
    1765355251,
    1765355245,
    1765355236,
    1765355238,
    2520454187,
    1500913641,
    275957424,
    275957423,
    2520454184,
    2520454183,
    2520454185,
    2520454186,
    275957422,
    1500913626,
    1500913633,
    275957421,
    1765355253,
    1765355254,
    1765355276,
    1765355275,
    1765355274,
    1765355273,
    1765355272,
    2520454191,
    2520454192
  ],
  "tags": {
    "addr:city": "Bremen",
    "addr:country": "DE",
    "addr:housenumber": "208",
    "addr:postcode": "28195",
    "addr:street": "Am Wall",
    "alt_name": "Bildhauermuseum",
    "building": "public",
    "contact:website": "http://www.marcks.de/",
    "museum": "art",
    "name": "Gerhard-Marcks-Haus",
    "opening_hours": "Tu-Su 10:00-18:00; Tu 10:00-21:00",
    "toilets:wheelchair": "yes",
    "tourism": "museum",
    "wheelchair": "yes",
    "wikidata": "Q1511196",
    "wikipedia": "de:Gerhard-Marcks-Haus"
  }
},
{
  "type": "way",
  "id": 247135794,
  "nodes": [
    2540729538,
    2540729539,
    1751627850,
    1751627860,
    2540729548,
    2540729547,
    2540729566,
    2540729567,
    1751627888,
    2540729594,
    2540729595,
    1751627892,
    1751627896,
    1751627895,
    3772485011,
    1751627906,
    1751627904,
    1751627907,
    1751627909,
    1751627912,
    1751627911,
    2540729614,
    2540729618,
    2540729625,
    2540729623,
    1751627939,
    1751627941,
    1751627942,
    1751627943,
    1751627944,
    1751627940,
    1751627938,
    1751627937,
    1751627933,
    1751627936,
    1751627927,
    1751627917,
    1751627919,
    1751627903,
    2379691990,
    1751627901,
    2540729605,
    2540729600,
    2540729581,
    2540729590,
    1751627886,
    1751627885,
    1751627882,
    1751627883,
    1751627874,
    1751627872,
    1751627864,
    1751627862,
    1751627852,
    2540729538
  ],
  "tags": {
    "addr:city": "Bremen",
    "addr:country": "DE",
    "addr:housenumber": "13",
    "addr:postcode": "28195",
    "addr:street": "Bahnhofsplatz",
    "building": "yes",
    "building:colour": "#e3bfa9",
    "building:levels": "3",
    "contact:phone": "+49 421 160380",
    "contact:website": "http://www.uebersee-museum.de/",
    "disabled": "yes",
    "height": "20",
    "museum": "science",
    "name": "Überseemuseum",
    "opening_hours": "Tu-Fr 09:00-18:00; Sa,Su 10:00-18:00; Mo off; SH Tu-Su 10:00-18:00",
    "opening_hours:url": "http://www.uebersee-museum.de/adresse-oeffnungszeiten/",
    "roof:colour": "white",
    "tourism": "museum",
    "wheelchair": "yes",
    "wheelchair:description": "seitlich rechts Eingang mit Aufzug",
    "wikipedia": "de:Übersee-Museum"
  }
},
{
  "type": "way",
  "id": 250563936,
  "nodes": [
    1406896662,
    5523508675,
    1453288760,
    1453288673,
    2871558204,
    1452569595,
    1453288767,
    2569903247,
    2569903118,
    2569903109,
    1406896643,
    1406896709,
    2569902920,
    1406896662
  ],
  "tags": {
    "addr:city": "Bremen",
    "addr:housenumber": "40",
    "addr:postcode": "28359",
    "addr:street": "Deliusweg",
    "description": "Naturerlebniszentrum",
    "museum": "science",
    "name": "Botanika",
    "opening_hours": "Mo-Fr 09:00-18:00, Sa,Su 10:00-18:00",
    "operator": "botanika GmbH",
    "payment:cash": "yes",
    "phone": "+49 421 427066 65",
    "source:operator": "wikipedia",
    "tourism": "museum",
    "website": "https://www.botanika-bremen.de/",
    "wheelchair": "yes",
    "wikidata": "Q894629",
    "wikipedia": "de:Botanika"
  }
},
{
  "type": "way",
  "id": 287938106,
  "nodes": [
    2914943701,
    2914929004,
    2914928609,
    2914943801,
    2914943701
  ],
  "tags": {
    "name": "Kutschenmuseum",
    "tourism": "museum"
  }
},
{
  "type": "way",
  "id": 289826156,
  "nodes": [
    2933609945,
    2933610144,
    2933610052,
    3705551283,
    3705551284,
    3705551285,
    3705551286,
    3705551287,
    4365372391,
    2933609983,
    3705551282,
    3705551281,
    3705551280,
    2933610151,
    2933610141,
    2933609945
  ],
  "tags": {
    "addr:city": "Worpswede",
    "addr:country": "DE",
    "addr:housenumber": "17",
    "addr:postcode": "27726",
    "addr:street": "Bergstraße",
    "building": "yes",
    "name": "Worpsweder Kunsthalle",
    "operator": "Worpsweder Kunststiftung Friedrich Netzel",
    "phone": "+4947921277",
    "tourism": "museum",
    "wheelchair": "no",
    "wikidata": "Q55439681"
  }
},
{
  "type": "way",
  "id": 301659170,
  "nodes": [
    3057439725,
    3057885554,
    3057439726,
    3057439723,
    3057439724,
    3057439720,
    3057439719,
    3057439721,
    3057439722,
    3057439725
  ],
  "tags": {
    "building": "yes",
    "name": "Landmaschinenmuseum",
    "operator": "Heimatverein Neu Sankt Jürgen e.V.",
    "tourism": "museum"
  }
},
{
  "type": "way",
  "id": 314801572,
  "nodes": [
    1760028125,
    1760028130,
    1760028132,
    3208480659,
    3208480657,
    3208480658,
    2176238443,
    3781944671,
    1760028026,
    3781944670,
    3775799149,
    2334336473,
    1760028024,
    1760028105,
    3775199099,
    1760028125
  ],
  "tags": {
    "building:part:old_name": "Kohlenkeller",
    "indoor": "room",
    "level": "-1",
    "museum": "history",
    "name": "Bleikeller",
    "opening_hours": "Apr-Oct: We-Fr 10:00-16:45; Apr-Oct: Sa 10:00-13:45; Apr-Oct: Su 12:00-16:45; Jun-Sep: Mo-Fr 10:00-17:45; Jun-Sep: Su 12:00-17:45; Jul-Aug: Mo-Fr 10:00-16:45",
    "opening_hours:url": "http://www.stpetridom.de/index.php?id=51&L=",
    "tourism": "museum",
    "wheelchair": "no",
    "wikipedia": "de:Bleikeller"
  }
},
{
  "type": "way",
  "id": 314801618,
  "nodes": [
    1831400596,
    1831400597,
    2286232914,
    2286232917,
    1831400598,
    1831400599,
    1831400604,
    1831400603,
    1831400602,
    1831400600,
    1831400594,
    1831400595,
    1831400596
  ],
  "tags": {
    "addr:city": "Bremen",
    "addr:country": "DE",
    "addr:housenumber": "18-20",
    "addr:postcode": "28203",
    "addr:street": "Köpkenstraße",
    "building": "yes",
    "name": "Tischlereimuseum",
    "operator": "Förderverein Tischlereimuseum Bremen e.V.",
    "tourism": "museum",
    "website": "http://www.tischlerei-museum-bremen.de/",
    "wikidata": "Q63719144"
  }
},
{
  "type": "way",
  "id": 329761239,
  "nodes": [
    3366885597,
    207200507,
    207200510,
    3366885593,
    3366885592,
    3366885598,
    3366885597
  ],
  "tags": {
    "addr:housenumber": "45",
    "addr:street": "Schloßparkstraße",
    "museum": "technology",
    "name": "Das Depot",
    "opening_hours": "Su[2] 11:00-17:00",
    "operator": "Freunde der Bremer Straßenbahn e.V.",
    "phone": "+49 421 55967642",
    "tourism": "museum",
    "website": "https://www.fdbs.net/",
    "wikidata": "Q12336729"
  }
},
{
  "type": "way",
  "id": 334340740,
  "nodes": [
    2176573949,
    2176573947,
    3774243550,
    3412905707,
    4123885127,
    2176573946,
    3774243547,
    3774243965,
    2176573948,
    3774243978,
    3774243980,
    3774243982,
    3774243984,
    3414513354,
    2176573949
  ],
  "tags": {
    "description": "Galerie der Luft- und Raumfahrt",
    "indoor": "room",
    "layer": "2",
    "level": "2",
    "museum": "technology",
    "name": "Bremenhalle",
    "opening_hours": "10:00-18:00; Dec 24-26,31 off; Jan 1 off",
    "tourism": "museum",
    "website": "http://www.bremenflug.de/"
  }
},
{
  "type": "way",
  "id": 647019508,
  "nodes": [
    6077406951,
    6077406952,
    6077406953,
    6077406954,
    6077406951
  ],
  "tags": {
    "building": "yes",
    "name": "Kaffeemühlenmuseum",
    "opening_hours": "Su 13:00-15:00",
    "operator": "Harald Sawatzki",
    "phone": "+4947466816",
    "tourism": "museum"
  }
},
{
  "type": "way",
  "id": 759424103,
  "nodes": [
    7093661145,
    7093661143,
    568395149,
    7093661142,
    7093661141,
    28096295,
    6488784699,
    6488784700,
    6488784701,
    7093661145
  ],
  "tags": {
    "addr:housenumber": "65",
    "addr:street": "Herrlichkeit",
    "name": "Kreismuseum Syke",
    "opening_hours": "Nov 01-Mar 31 Tu-Fr 14:00-17:00; Nov 01-Mar 31 Sa,PH 14:00-17:00; Nov 01-Mar 31 Su 11:00-17:00; Apr 01-Oct 31 Tu-Fr 14:00-17:00; Apr 01-Oct 31 Sa,PH 14:00-18:00; Apr 01-Oct 31 Su 10:00-18:00; Mo off",
    "phone": "+49 4242 2527",
    "tourism": "museum",
    "website": "http://www.kreismuseum-syke.de/",
    "wheelchair": "limited",
    "wikidata": "Q1787729"
  }
},
{
  "type": "relation",
  "id": 19427,
  "members": [
    {
      "type": "way",
      "ref": 164944574,
      "role": "outer"
    },
    {
      "type": "way",
      "ref": 164944575,
      "role": "inner"
    }
  ],
  "tags": {
    "addr:city": "Bremen",
    "addr:country": "DE",
    "addr:housenumber": "209",
    "addr:postcode": "28195",
    "addr:street": "Am Wall",
    "alt_name": "Wilhelm Wagenfeld-Haus;Wilhelm-Wagenfeld-Haus",
    "building": "public",
    "contact:website": "http://www.wwh-bremen.de/",
    "description": "Kulturdenkmal, siehe http://wiki.openstreetmap.org/wiki/Bremen/Kulturdenkm%C3%A4ler",
    "height": "10",
    "heritage": "4",
    "heritage:operator": "lfd",
    "lfd:criteria": "ED",
    "museum": "art",
    "name": "Wilhelm Wagenfeld Haus",
    "opening_hours": "Tu 15:00-21:00; We-Su 10:00-18:00",
    "ref:lfd": "0085",
    "source": "LfD Bremen",
    "tourism": "museum",
    "type": "multipolygon",
    "url": "http://denkmalpflege.bremen.de/sixcms/detail.php?template=20_denkmal_wrapper_d&obj=00000085",
    "wheelchair": "limited",
    "wheelchair:description": "An der linken Seite des Hauses ist eine Rampe.",
    "wikidata": "Q2571567",
    "wikipedia": "de:Wilhelm-Wagenfeld-Haus"
  }
},
{
  "type": "relation",
  "id": 2407278,
  "members": [
    {
      "type": "way",
      "ref": 27147961,
      "role": "outer"
    },
    {
      "type": "way",
      "ref": 180423023,
      "role": "inner"
    },
    {
      "type": "way",
      "ref": 27147966,
      "role": "inner"
    },
    {
      "type": "way",
      "ref": 180423024,
      "role": "inner"
    }
  ],
  "tags": {
    "addr:city": "Bremen",
    "addr:country": "DE",
    "addr:housenumber": "240",
    "addr:postcode": "28213",
    "addr:street": "Schwachhauser Heerstraße",
    "building": "yes",
    "description": "Kulturdenkmal, siehe http://wiki.openstreetmap.org/wiki/Bremen/Kulturdenkm%C3%A4ler",
    "heritage": "4",
    "heritage:operator": "lfd",
    "name": "Haupthaus",
    "ref:lfd": "3976,T002",
    "tourism": "museum",
    "type": "multipolygon",
    "website": "http://denkmalpflege.bremen.de/sixcms/detail.php?template=20_denkmal_wrapper_d&obj=00003976,T002",
    "wikidata": "Q63532863",
    "wikipedia": "de:Liste der Kulturdenkmäler in Schwachhausen#3976,T002"
  }
},
{
  "type": "relation",
  "id": 2979110,
  "members": [
    {
      "type": "way",
      "ref": 180593398,
      "role": ""
    },
    {
      "type": "way",
      "ref": 162009144,
      "role": ""
    },
    {
      "type": "way",
      "ref": 162241224,
      "role": ""
    },
    {
      "type": "way",
      "ref": 207930941,
      "role": ""
    },
    {
      "type": "way",
      "ref": 224223746,
      "role": ""
    },
    {
      "type": "way",
      "ref": 180423473,
      "role": ""
    },
    {
      "type": "way",
      "ref": 27147961,
      "role": ""
    },
    {
      "type": "way",
      "ref": 180423472,
      "role": ""
    },
    {
      "type": "way",
      "ref": 162241218,
      "role": ""
    },
    {
      "type": "way",
      "ref": 207930409,
      "role": ""
    },
    {
      "type": "way",
      "ref": 31310779,
      "role": ""
    },
    {
      "type": "way",
      "ref": 224223747,
      "role": ""
    }
  ],
  "tags": {
    "alt_name": "Bremer Landesmuseum für Kunst und Kulturgeschichte",
    "name": "Focke-Museum",
    "site": "museum",
    "tourism": "museum",
    "type": "site",
    "website": "https://www.focke-museum.de/",
    "wikidata": "Q1434990",
    "wikipedia": "de:Focke-Museum"
  }
},
{
  "type": "node",
  "id": 2075244951,
  "lat": 52.8187962,
  "lon": 8.4848588
},
{
  "type": "node",
  "id": 2075244954,
  "lat": 52.8188124,
  "lon": 8.4847708
},
{
  "type": "node",
  "id": 2075244955,
  "lat": 52.8188455,
  "lon": 8.4848838
},
{
  "type": "node",
  "id": 2075244957,
  "lat": 52.8188617,
  "lon": 8.4847957
},
{
  "type": "node",
  "id": 1465196615,
  "lat": 52.9107944,
  "lon": 8.5998991
},
{
  "type": "node",
  "id": 1465196622,
  "lat": 52.9108773,
  "lon": 8.5998112
},
{
  "type": "node",
  "id": 1465196628,
  "lat": 52.9109287,
  "lon": 8.6002472
},
{
  "type": "node",
  "id": 1465196644,
  "lat": 52.9110116,
  "lon": 8.6001593
},
{
  "type": "node",
  "id": 281060392,
  "lat": 53.0545087,
  "lon": 8.6391482
},
{
  "type": "node",
  "id": 281060393,
  "lat": 53.0543475,
  "lon": 8.6391846
},
{
  "type": "node",
  "id": 281060394,
  "lat": 53.0543285,
  "lon": 8.6389505
},
{
  "type": "node",
  "id": 281060395,
  "lat": 53.0546238,
  "lon": 8.6388839
},
{
  "type": "node",
  "id": 281060412,
  "lat": 53.0545376,
  "lon": 8.6381811
},
{
  "type": "node",
  "id": 281060413,
  "lat": 53.0545638,
  "lon": 8.6384897
},
{
  "type": "node",
  "id": 281060414,
  "lat": 53.0543359,
  "lon": 8.6385432
},
{
  "type": "node",
  "id": 281060415,
  "lat": 53.0543097,
  "lon": 8.6382346
},
{
  "type": "node",
  "id": 2336883759,
  "lat": 53.0545185,
  "lon": 8.6392685
},
{
  "type": "node",
  "id": 2336883760,
  "lat": 53.0545788,
  "lon": 8.6392549
},
{
  "type": "node",
  "id": 281060391,
  "lat": 53.0546876,
  "lon": 8.6405893
},
{
  "type": "node",
  "id": 281060398,
  "lat": 53.0547615,
  "lon": 8.6405726
},
{
  "type": "node",
  "id": 2176573946,
  "lat": 53.0516538,
  "lon": 8.7864047
},
{
  "type": "node",
  "id": 2176573947,
  "lat": 53.0517761,
  "lon": 8.7866217
},
{
  "type": "node",
  "id": 2176573948,
  "lat": 53.0519946,
  "lon": 8.7858733
},
{
  "type": "node",
  "id": 2176573949,
  "lat": 53.0521169,
  "lon": 8.7860903
},
{
  "type": "node",
  "id": 3412905707,
  "lat": 53.0516661,
  "lon": 8.7864264
},
{
  "type": "node",
  "id": 3414513354,
  "lat": 53.0521008,
  "lon": 8.7860617
},
{
  "type": "node",
  "id": 3774243547,
  "lat": 53.0517287,
  "lon": 8.7862879
},
{
  "type": "node",
  "id": 3774243550,
  "lat": 53.0517611,
  "lon": 8.7865950
},
{
  "type": "node",
  "id": 3774243965,
  "lat": 53.0519175,
  "lon": 8.7859936
},
{
  "type": "node",
  "id": 3774243978,
  "lat": 53.0520321,
  "lon": 8.7859398
},
{
  "type": "node",
  "id": 3774243980,
  "lat": 53.0520467,
  "lon": 8.7859658
},
{
  "type": "node",
  "id": 3774243982,
  "lat": 53.0520632,
  "lon": 8.7859950
},
{
  "type": "node",
  "id": 3774243984,
  "lat": 53.0520762,
  "lon": 8.7860181
},
{
  "type": "node",
  "id": 4123885127,
  "lat": 53.0516635,
  "lon": 8.7864217
},
{
  "type": "node",
  "id": 2411319915,
  "lat": 53.1171285,
  "lon": 8.4485965
},
{
  "type": "node",
  "id": 2411319917,
  "lat": 53.1171551,
  "lon": 8.4489416
},
{
  "type": "node",
  "id": 2411319919,
  "lat": 53.1172395,
  "lon": 8.4485727
},
{
  "type": "node",
  "id": 2411319921,
  "lat": 53.1172529,
  "lon": 8.4489207
},
{
  "type": "node",
  "id": 2411319923,
  "lat": 53.1172661,
  "lon": 8.4489179
},
{
  "type": "node",
  "id": 2411383131,
  "lat": 53.1171315,
  "lon": 8.4486350
},
{
  "type": "node",
  "id": 697162546,
  "lat": 53.2375252,
  "lon": 8.4647300
},
{
  "type": "node",
  "id": 697162547,
  "lat": 53.2375300,
  "lon": 8.4644674
},
{
  "type": "node",
  "id": 697162548,
  "lat": 53.2376363,
  "lon": 8.4644894
},
{
  "type": "node",
  "id": 697162549,
  "lat": 53.2376181,
  "lon": 8.4647350
},
{
  "type": "node",
  "id": 697162550,
  "lat": 53.2376580,
  "lon": 8.4647432
},
{
  "type": "node",
  "id": 697162551,
  "lat": 53.2376410,
  "lon": 8.4649734
},
{
  "type": "node",
  "id": 697162552,
  "lat": 53.2375614,
  "lon": 8.4649570
},
{
  "type": "node",
  "id": 697162553,
  "lat": 53.2375751,
  "lon": 8.4647718
},
{
  "type": "node",
  "id": 5853788990,
  "lat": 53.2375243,
  "lon": 8.4645419
},
{
  "type": "node",
  "id": 5853788991,
  "lat": 53.2375108,
  "lon": 8.4645481
},
{
  "type": "node",
  "id": 5853788992,
  "lat": 53.2375072,
  "lon": 8.4646114
},
{
  "type": "node",
  "id": 5853788993,
  "lat": 53.2375181,
  "lon": 8.4646233
},
{
  "type": "node",
  "id": 5853788994,
  "lat": 53.2375103,
  "lon": 8.4647269
},
{
  "type": "node",
  "id": 5853788995,
  "lat": 53.2375229,
  "lon": 8.4647610
},
{
  "type": "node",
  "id": 1735061049,
  "lat": 53.2164994,
  "lon": 8.5061858
},
{
  "type": "node",
  "id": 1735061052,
  "lat": 53.2165791,
  "lon": 8.5056487
},
{
  "type": "node",
  "id": 1735061054,
  "lat": 53.2165909,
  "lon": 8.5055866
},
{
  "type": "node",
  "id": 1735061056,
  "lat": 53.2165971,
  "lon": 8.5055511
},
{
  "type": "node",
  "id": 1735061059,
  "lat": 53.2165997,
  "lon": 8.5056597
},
{
  "type": "node",
  "id": 1735061060,
  "lat": 53.2166116,
  "lon": 8.5055976
},
{
  "type": "node",
  "id": 1735061061,
  "lat": 53.2166183,
  "lon": 8.5055624
},
{
  "type": "node",
  "id": 1735061062,
  "lat": 53.2166383,
  "lon": 8.5053345
},
{
  "type": "node",
  "id": 1735061063,
  "lat": 53.2166599,
  "lon": 8.5053459
},
{
  "type": "node",
  "id": 1735061064,
  "lat": 53.2166772,
  "lon": 8.5052548
},
{
  "type": "node",
  "id": 1735061076,
  "lat": 53.2166843,
  "lon": 8.5052586
},
{
  "type": "node",
  "id": 1735061077,
  "lat": 53.2166955,
  "lon": 8.5051626
},
{
  "type": "node",
  "id": 1735061078,
  "lat": 53.2166982,
  "lon": 8.5051481
},
{
  "type": "node",
  "id": 1735061081,
  "lat": 53.2167019,
  "lon": 8.5051660
},
{
  "type": "node",
  "id": 1735061083,
  "lat": 53.2167038,
  "lon": 8.5051194
},
{
  "type": "node",
  "id": 1735061084,
  "lat": 53.2167048,
  "lon": 8.5051516
},
{
  "type": "node",
  "id": 1735061086,
  "lat": 53.2167103,
  "lon": 8.5051229
},
{
  "type": "node",
  "id": 1735061088,
  "lat": 53.2167106,
  "lon": 8.5050838
},
{
  "type": "node",
  "id": 1735061090,
  "lat": 53.2167165,
  "lon": 8.5050556
},
{
  "type": "node",
  "id": 1735061092,
  "lat": 53.2167191,
  "lon": 8.5063421
},
{
  "type": "node",
  "id": 1735061096,
  "lat": 53.2167217,
  "lon": 8.5050897
},
{
  "type": "node",
  "id": 1735061100,
  "lat": 53.2167259,
  "lon": 8.5063062
},
{
  "type": "node",
  "id": 1735061105,
  "lat": 53.2167271,
  "lon": 8.5050612
},
{
  "type": "node",
  "id": 1735061106,
  "lat": 53.2167287,
  "lon": 8.5063668
},
{
  "type": "node",
  "id": 1735061107,
  "lat": 53.2167321,
  "lon": 8.5063490
},
{
  "type": "node",
  "id": 1735061112,
  "lat": 53.2167779,
  "lon": 8.5039967
},
{
  "type": "node",
  "id": 1735061117,
  "lat": 53.2168227,
  "lon": 8.5064168
},
{
  "type": "node",
  "id": 1735061118,
  "lat": 53.2168261,
  "lon": 8.5063989
},
{
  "type": "node",
  "id": 1735061121,
  "lat": 53.2168394,
  "lon": 8.5064060
},
{
  "type": "node",
  "id": 1735061125,
  "lat": 53.2168463,
  "lon": 8.5063702
},
{
  "type": "node",
  "id": 1735061126,
  "lat": 53.2168530,
  "lon": 8.5036031
},
{
  "type": "node",
  "id": 1735061129,
  "lat": 53.2168692,
  "lon": 8.5035265
},
{
  "type": "node",
  "id": 1735061130,
  "lat": 53.2168830,
  "lon": 8.5035767
},
{
  "type": "node",
  "id": 1735061132,
  "lat": 53.2168832,
  "lon": 8.5036192
},
{
  "type": "node",
  "id": 1735061137,
  "lat": 53.2168876,
  "lon": 8.5035526
},
{
  "type": "node",
  "id": 1735061139,
  "lat": 53.2168906,
  "lon": 8.5035808
},
{
  "type": "node",
  "id": 1735061141,
  "lat": 53.2168956,
  "lon": 8.5035569
},
{
  "type": "node",
  "id": 1735061143,
  "lat": 53.2168984,
  "lon": 8.5035420
},
{
  "type": "node",
  "id": 1735061145,
  "lat": 53.2169054,
  "lon": 8.5040645
},
{
  "type": "node",
  "id": 1735061147,
  "lat": 53.2170732,
  "lon": 8.5064908
},
{
  "type": "node",
  "id": 1735061149,
  "lat": 53.2171011,
  "lon": 8.5063444
},
{
  "type": "node",
  "id": 1735061150,
  "lat": 53.2171228,
  "lon": 8.5063559
},
{
  "type": "node",
  "id": 1735061151,
  "lat": 53.2172177,
  "lon": 8.5057624
},
{
  "type": "node",
  "id": 1735061170,
  "lat": 53.2172343,
  "lon": 8.5057713
},
{
  "type": "node",
  "id": 1735061172,
  "lat": 53.2172446,
  "lon": 8.5055577
},
{
  "type": "node",
  "id": 1735061174,
  "lat": 53.2172556,
  "lon": 8.5055636
},
{
  "type": "node",
  "id": 1735061176,
  "lat": 53.2172624,
  "lon": 8.5054645
},
{
  "type": "node",
  "id": 1735061179,
  "lat": 53.2172693,
  "lon": 8.5054682
},
{
  "type": "node",
  "id": 1735061181,
  "lat": 53.2172732,
  "lon": 8.5053842
},
{
  "type": "node",
  "id": 1735061183,
  "lat": 53.2172765,
  "lon": 8.5053667
},
{
  "type": "node",
  "id": 1735061185,
  "lat": 53.2172787,
  "lon": 8.5053554
},
{
  "type": "node",
  "id": 1735061187,
  "lat": 53.2172842,
  "lon": 8.5053900
},
{
  "type": "node",
  "id": 1735061189,
  "lat": 53.2172896,
  "lon": 8.5053612
},
{
  "type": "node",
  "id": 1735061193,
  "lat": 53.2173005,
  "lon": 8.5012645
},
{
  "type": "node",
  "id": 1735061195,
  "lat": 53.2173163,
  "lon": 8.5011878
},
{
  "type": "node",
  "id": 1735061197,
  "lat": 53.2173185,
  "lon": 8.5052100
},
{
  "type": "node",
  "id": 1735061200,
  "lat": 53.2173312,
  "lon": 8.5012808
},
{
  "type": "node",
  "id": 1735061202,
  "lat": 53.2173400,
  "lon": 8.5050986
},
{
  "type": "node",
  "id": 1735061204,
  "lat": 53.2173459,
  "lon": 8.5012036
},
{
  "type": "node",
  "id": 1735061206,
  "lat": 53.2173476,
  "lon": 8.5050223
},
{
  "type": "node",
  "id": 1735061208,
  "lat": 53.2173531,
  "lon": 8.5049935
},
{
  "type": "node",
  "id": 1735061209,
  "lat": 53.2173539,
  "lon": 8.5050257
},
{
  "type": "node",
  "id": 1735061211,
  "lat": 53.2173605,
  "lon": 8.5049974
},
{
  "type": "node",
  "id": 1735061215,
  "lat": 53.2173833,
  "lon": 8.5008362
},
{
  "type": "node",
  "id": 1735061217,
  "lat": 53.2174139,
  "lon": 8.5006758
},
{
  "type": "node",
  "id": 1735061219,
  "lat": 53.2174292,
  "lon": 8.5052689
},
{
  "type": "node",
  "id": 1735061221,
  "lat": 53.2174505,
  "lon": 8.5051574
},
{
  "type": "node",
  "id": 1735061223,
  "lat": 53.2175004,
  "lon": 8.5002221
},
{
  "type": "node",
  "id": 1735061225,
  "lat": 53.2175156,
  "lon": 8.5001448
},
{
  "type": "node",
  "id": 1735061228,
  "lat": 53.2175310,
  "lon": 8.5002384
},
{
  "type": "node",
  "id": 1735061230,
  "lat": 53.2175353,
  "lon": 8.5000412
},
{
  "type": "node",
  "id": 1735061231,
  "lat": 53.2175458,
  "lon": 8.5001608
},
{
  "type": "node",
  "id": 1735061236,
  "lat": 53.2177489,
  "lon": 8.5029363
},
{
  "type": "node",
  "id": 1735061245,
  "lat": 53.2177530,
  "lon": 8.5029385
},
{
  "type": "node",
  "id": 1735061247,
  "lat": 53.2177546,
  "lon": 8.5029064
},
{
  "type": "node",
  "id": 1735061249,
  "lat": 53.2178362,
  "lon": 8.5030065
},
{
  "type": "node",
  "id": 1735061251,
  "lat": 53.2178460,
  "lon": 8.5029550
},
{
  "type": "node",
  "id": 1735061252,
  "lat": 53.2178800,
  "lon": 8.5030298
},
{
  "type": "node",
  "id": 1735061269,
  "lat": 53.2183656,
  "lon": 8.5004826
},
{
  "type": "node",
  "id": 2313743759,
  "lat": 53.2173870,
  "lon": 8.5048581
},
{
  "type": "node",
  "id": 2313743762,
  "lat": 53.2174497,
  "lon": 8.5045292
},
{
  "type": "node",
  "id": 2313743764,
  "lat": 53.2176048,
  "lon": 8.5037156
},
{
  "type": "node",
  "id": 2313743765,
  "lat": 53.2176727,
  "lon": 8.5033598
},
{
  "type": "node",
  "id": 5182252875,
  "lat": 53.2182304,
  "lon": 8.5004108
},
{
  "type": "node",
  "id": 5182252876,
  "lat": 53.2183218,
  "lon": 8.5004594
},
{
  "type": "node",
  "id": 5967288303,
  "lat": 53.2168524,
  "lon": 8.5040349
},
{
  "type": "node",
  "id": 6460032377,
  "lat": 53.2175723,
  "lon": 8.5038859
},
{
  "type": "node",
  "id": 2026495563,
  "lat": 53.2234217,
  "lon": 8.5426402
},
{
  "type": "node",
  "id": 2026495564,
  "lat": 53.2234391,
  "lon": 8.5418800
},
{
  "type": "node",
  "id": 2026495565,
  "lat": 53.2235456,
  "lon": 8.5426481
},
{
  "type": "node",
  "id": 2026495566,
  "lat": 53.2235630,
  "lon": 8.5418879
},
{
  "type": "node",
  "id": 28096295,
  "lat": 52.9213031,
  "lon": 8.8262051
},
{
  "type": "node",
  "id": 568395149,
  "lat": 52.9209143,
  "lon": 8.8275763
},
{
  "type": "node",
  "id": 6488784699,
  "lat": 52.9211324,
  "lon": 8.8256541
},
{
  "type": "node",
  "id": 6488784700,
  "lat": 52.9205783,
  "lon": 8.8260001
},
{
  "type": "node",
  "id": 6488784701,
  "lat": 52.9202151,
  "lon": 8.8264951
},
{
  "type": "node",
  "id": 7093661141,
  "lat": 52.9215210,
  "lon": 8.8271738
},
{
  "type": "node",
  "id": 7093661142,
  "lat": 52.9211326,
  "lon": 8.8274583
},
{
  "type": "node",
  "id": 7093661143,
  "lat": 52.9206636,
  "lon": 8.8276541
},
{
  "type": "node",
  "id": 7093661145,
  "lat": 52.9201532,
  "lon": 8.8265816
},
{
  "type": "node",
  "id": 206235505,
  "lat": 53.0726888,
  "lon": 8.8140508
},
{
  "type": "node",
  "id": 206235506,
  "lat": 53.0724951,
  "lon": 8.8139197
},
{
  "type": "node",
  "id": 275957421,
  "lat": 53.0727281,
  "lon": 8.8144993
},
{
  "type": "node",
  "id": 275957422,
  "lat": 53.0726067,
  "lon": 8.8143794
},
{
  "type": "node",
  "id": 1499455898,
  "lat": 53.0729450,
  "lon": 8.8130023
},
{
  "type": "node",
  "id": 1499455907,
  "lat": 53.0727511,
  "lon": 8.8128709
},
{
  "type": "node",
  "id": 1499455920,
  "lat": 53.0726905,
  "lon": 8.8131189
},
{
  "type": "node",
  "id": 1500913626,
  "lat": 53.0727089,
  "lon": 8.8144597
},
{
  "type": "node",
  "id": 1500913633,
  "lat": 53.0727032,
  "lon": 8.8144798
},
{
  "type": "node",
  "id": 1765355212,
  "lat": 53.0725145,
  "lon": 8.8134092
},
{
  "type": "node",
  "id": 1765355215,
  "lat": 53.0725041,
  "lon": 8.8135668
},
{
  "type": "node",
  "id": 1765355217,
  "lat": 53.0725144,
  "lon": 8.8134509
},
{
  "type": "node",
  "id": 1765355219,
  "lat": 53.0725299,
  "lon": 8.8134613
},
{
  "type": "node",
  "id": 1765355221,
  "lat": 53.0725605,
  "lon": 8.8132212
},
{
  "type": "node",
  "id": 1765355223,
  "lat": 53.0725655,
  "lon": 8.8136316
},
{
  "type": "node",
  "id": 1765355224,
  "lat": 53.0725704,
  "lon": 8.8136117
},
{
  "type": "node",
  "id": 1765355226,
  "lat": 53.0725776,
  "lon": 8.8131926
},
{
  "type": "node",
  "id": 1765355227,
  "lat": 53.0725927,
  "lon": 8.8132028
},
{
  "type": "node",
  "id": 1765355228,
  "lat": 53.0726194,
  "lon": 8.8130937
},
{
  "type": "node",
  "id": 1765355241,
  "lat": 53.0726857,
  "lon": 8.8131386
},
{
  "type": "node",
  "id": 1765355249,
  "lat": 53.0727308,
  "lon": 8.8138792
},
{
  "type": "node",
  "id": 1765355253,
  "lat": 53.0727301,
  "lon": 8.8144922
},
{
  "type": "node",
  "id": 1765355254,
  "lat": 53.0727418,
  "lon": 8.8144511
},
{
  "type": "node",
  "id": 1765355276,
  "lat": 53.0728275,
  "lon": 8.8145185
},
{
  "type": "node",
  "id": 1765355277,
  "lat": 53.0728590,
  "lon": 8.8139660
},
{
  "type": "node",
  "id": 1765355280,
  "lat": 53.0728928,
  "lon": 8.8132161
},
{
  "type": "node",
  "id": 1765355286,
  "lat": 53.0729181,
  "lon": 8.8137241
},
{
  "type": "node",
  "id": 1765355291,
  "lat": 53.0729401,
  "lon": 8.8137390
},
{
  "type": "node",
  "id": 1765355304,
  "lat": 53.0729445,
  "lon": 8.8137207
},
{
  "type": "node",
  "id": 1765355307,
  "lat": 53.0729539,
  "lon": 8.8137270
},
{
  "type": "node",
  "id": 1765355309,
  "lat": 53.0729571,
  "lon": 8.8137139
},
{
  "type": "node",
  "id": 1765355310,
  "lat": 53.0729608,
  "lon": 8.8135490
},
{
  "type": "node",
  "id": 1765355313,
  "lat": 53.0729799,
  "lon": 8.8135759
},
{
  "type": "node",
  "id": 1765355314,
  "lat": 53.0729829,
  "lon": 8.8135639
},
{
  "type": "node",
  "id": 1765355316,
  "lat": 53.0729859,
  "lon": 8.8135959
},
{
  "type": "node",
  "id": 1765355317,
  "lat": 53.0729892,
  "lon": 8.8135822
},
{
  "type": "node",
  "id": 1765355327,
  "lat": 53.0730210,
  "lon": 8.8133029
},
{
  "type": "node",
  "id": 1765429510,
  "lat": 53.0731367,
  "lon": 8.8085901
},
{
  "type": "node",
  "id": 1765429511,
  "lat": 53.0731374,
  "lon": 8.8086579
},
{
  "type": "node",
  "id": 1765429539,
  "lat": 53.0732286,
  "lon": 8.8085917
},
{
  "type": "node",
  "id": 1765429542,
  "lat": 53.0732302,
  "lon": 8.8086577
},
{
  "type": "node",
  "id": 1765429543,
  "lat": 53.0732304,
  "lon": 8.8086349
},
{
  "type": "node",
  "id": 1765429544,
  "lat": 53.0732308,
  "lon": 8.8086440
},
{
  "type": "node",
  "id": 1765429548,
  "lat": 53.0732378,
  "lon": 8.8086572
},
{
  "type": "node",
  "id": 1765429551,
  "lat": 53.0732403,
  "lon": 8.8086391
},
{
  "type": "node",
  "id": 1765429553,
  "lat": 53.0732405,
  "lon": 8.8085900
},
{
  "type": "node",
  "id": 1765429555,
  "lat": 53.0732444,
  "lon": 8.8086590
},
{
  "type": "node",
  "id": 1765429560,
  "lat": 53.0732588,
  "lon": 8.8085875
},
{
  "type": "node",
  "id": 2032323762,
  "lat": 53.0727022,
  "lon": 8.8130710
},
{
  "type": "node",
  "id": 2032323784,
  "lat": 53.0729718,
  "lon": 8.8136537
},
{
  "type": "node",
  "id": 2520454185,
  "lat": 53.0725689,
  "lon": 8.8144059
},
{
  "type": "node",
  "id": 2520454186,
  "lat": 53.0725937,
  "lon": 8.8144254
},
{
  "type": "node",
  "id": 2616069283,
  "lat": 53.0729423,
  "lon": 8.8137298
},
{
  "type": "node",
  "id": 3195014065,
  "lat": 53.0725232,
  "lon": 8.8134151
},
{
  "type": "node",
  "id": 3195014067,
  "lat": 53.0725371,
  "lon": 8.8137481
},
{
  "type": "node",
  "id": 3195014070,
  "lat": 53.0725691,
  "lon": 8.8132271
},
{
  "type": "node",
  "id": 3195014074,
  "lat": 53.0725923,
  "lon": 8.8139855
},
{
  "type": "node",
  "id": 3195014094,
  "lat": 53.0727137,
  "lon": 8.8130237
},
{
  "type": "node",
  "id": 3195014102,
  "lat": 53.0728488,
  "lon": 8.8129371
},
{
  "type": "node",
  "id": 3195014104,
  "lat": 53.0729077,
  "lon": 8.8131550
},
{
  "type": "node",
  "id": 3775199084,
  "lat": 53.0725374,
  "lon": 8.8133158
},
{
  "type": "node",
  "id": 275957423,
  "lat": 53.0725172,
  "lon": 8.8146998
},
{
  "type": "node",
  "id": 275957424,
  "lat": 53.0726194,
  "lon": 8.8147801
},
{
  "type": "node",
  "id": 1500913641,
  "lat": 53.0726260,
  "lon": 8.8147568
},
{
  "type": "node",
  "id": 1764565930,
  "lat": 53.0720725,
  "lon": 8.8149416
},
{
  "type": "node",
  "id": 1764565931,
  "lat": 53.0720745,
  "lon": 8.8150010
},
{
  "type": "node",
  "id": 1764565935,
  "lat": 53.0720854,
  "lon": 8.8147671
},
{
  "type": "node",
  "id": 1764565936,
  "lat": 53.0720864,
  "lon": 8.8148266
},
{
  "type": "node",
  "id": 1764565937,
  "lat": 53.0720871,
  "lon": 8.8148535
},
{
  "type": "node",
  "id": 1764565938,
  "lat": 53.0720873,
  "lon": 8.8148251
},
{
  "type": "node",
  "id": 1764565939,
  "lat": 53.0720942,
  "lon": 8.8148640
},
{
  "type": "node",
  "id": 1764565940,
  "lat": 53.0720970,
  "lon": 8.8149396
},
{
  "type": "node",
  "id": 1764565941,
  "lat": 53.0721006,
  "lon": 8.8149990
},
{
  "type": "node",
  "id": 1764565947,
  "lat": 53.0721007,
  "lon": 8.8149946
},
{
  "type": "node",
  "id": 1764565949,
  "lat": 53.0721185,
  "lon": 8.8147626
},
{
  "type": "node",
  "id": 1764565951,
  "lat": 53.0721185,
  "lon": 8.8147645
},
{
  "type": "node",
  "id": 1764565953,
  "lat": 53.0721313,
  "lon": 8.8149887
},
{
  "type": "node",
  "id": 1764565954,
  "lat": 53.0721314,
  "lon": 8.8149913
},
{
  "type": "node",
  "id": 1764565970,
  "lat": 53.0721775,
  "lon": 8.8147582
},
{
  "type": "node",
  "id": 1764565974,
  "lat": 53.0721789,
  "lon": 8.8147949
},
{
  "type": "node",
  "id": 1764565983,
  "lat": 53.0721983,
  "lon": 8.8147929
},
{
  "type": "node",
  "id": 1764565984,
  "lat": 53.0721984,
  "lon": 8.8147975
},
{
  "type": "node",
  "id": 1764565985,
  "lat": 53.0721987,
  "lon": 8.8147972
},
{
  "type": "node",
  "id": 1764565986,
  "lat": 53.0721991,
  "lon": 8.8147967
},
{
  "type": "node",
  "id": 1764565987,
  "lat": 53.0721996,
  "lon": 8.8147962
},
{
  "type": "node",
  "id": 1764565989,
  "lat": 53.0722001,
  "lon": 8.8147957
},
{
  "type": "node",
  "id": 1764565991,
  "lat": 53.0722006,
  "lon": 8.8147952
},
{
  "type": "node",
  "id": 1764565993,
  "lat": 53.0722012,
  "lon": 8.8147948
},
{
  "type": "node",
  "id": 1764565994,
  "lat": 53.0722017,
  "lon": 8.8147943
},
{
  "type": "node",
  "id": 1764565996,
  "lat": 53.0722022,
  "lon": 8.8147940
},
{
  "type": "node",
  "id": 1764565998,
  "lat": 53.0722028,
  "lon": 8.8147936
},
{
  "type": "node",
  "id": 1764565999,
  "lat": 53.0722033,
  "lon": 8.8147933
},
{
  "type": "node",
  "id": 1764566001,
  "lat": 53.0722039,
  "lon": 8.8147930
},
{
  "type": "node",
  "id": 1764566002,
  "lat": 53.0722044,
  "lon": 8.8147928
},
{
  "type": "node",
  "id": 1764566004,
  "lat": 53.0722050,
  "lon": 8.8147925
},
{
  "type": "node",
  "id": 1764566005,
  "lat": 53.0722056,
  "lon": 8.8147924
},
{
  "type": "node",
  "id": 1764566007,
  "lat": 53.0722061,
  "lon": 8.8147922
},
{
  "type": "node",
  "id": 1764566009,
  "lat": 53.0722067,
  "lon": 8.8147921
},
{
  "type": "node",
  "id": 1764566011,
  "lat": 53.0722073,
  "lon": 8.8147920
},
{
  "type": "node",
  "id": 1764566021,
  "lat": 53.0722079,
  "lon": 8.8147919
},
{
  "type": "node",
  "id": 1764566023,
  "lat": 53.0722084,
  "lon": 8.8147919
},
{
  "type": "node",
  "id": 1764566024,
  "lat": 53.0722090,
  "lon": 8.8147919
},
{
  "type": "node",
  "id": 1764566025,
  "lat": 53.0722091,
  "lon": 8.8147919
},
{
  "type": "node",
  "id": 1764566026,
  "lat": 53.0722096,
  "lon": 8.8147920
},
{
  "type": "node",
  "id": 1764566027,
  "lat": 53.0722102,
  "lon": 8.8147921
},
{
  "type": "node",
  "id": 1764566028,
  "lat": 53.0722108,
  "lon": 8.8147922
},
{
  "type": "node",
  "id": 1764566029,
  "lat": 53.0722114,
  "lon": 8.8147923
},
{
  "type": "node",
  "id": 1764566030,
  "lat": 53.0722119,
  "lon": 8.8147925
},
{
  "type": "node",
  "id": 1764566031,
  "lat": 53.0722125,
  "lon": 8.8147927
},
{
  "type": "node",
  "id": 1764566032,
  "lat": 53.0722131,
  "lon": 8.8147930
},
{
  "type": "node",
  "id": 1764566033,
  "lat": 53.0722136,
  "lon": 8.8147933
},
{
  "type": "node",
  "id": 1764566034,
  "lat": 53.0722142,
  "lon": 8.8147936
},
{
  "type": "node",
  "id": 1764566035,
  "lat": 53.0722147,
  "lon": 8.8147939
},
{
  "type": "node",
  "id": 1764566036,
  "lat": 53.0722152,
  "lon": 8.8147943
},
{
  "type": "node",
  "id": 1764566037,
  "lat": 53.0722158,
  "lon": 8.8147947
},
{
  "type": "node",
  "id": 1764566038,
  "lat": 53.0722163,
  "lon": 8.8147951
},
{
  "type": "node",
  "id": 1764566040,
  "lat": 53.0722168,
  "lon": 8.8147956
},
{
  "type": "node",
  "id": 1764566042,
  "lat": 53.0722173,
  "lon": 8.8147961
},
{
  "type": "node",
  "id": 1764566043,
  "lat": 53.0722178,
  "lon": 8.8147966
},
{
  "type": "node",
  "id": 1764566052,
  "lat": 53.0722183,
  "lon": 8.8147972
},
{
  "type": "node",
  "id": 1764566054,
  "lat": 53.0722187,
  "lon": 8.8147977
},
{
  "type": "node",
  "id": 1764566056,
  "lat": 53.0722192,
  "lon": 8.8147983
},
{
  "type": "node",
  "id": 1764566058,
  "lat": 53.0722195,
  "lon": 8.8147988
},
{
  "type": "node",
  "id": 1764566059,
  "lat": 53.0722196,
  "lon": 8.8147989
},
{
  "type": "node",
  "id": 1764566061,
  "lat": 53.0722200,
  "lon": 8.8147995
},
{
  "type": "node",
  "id": 1764566063,
  "lat": 53.0722204,
  "lon": 8.8148002
},
{
  "type": "node",
  "id": 1764566065,
  "lat": 53.0722208,
  "lon": 8.8148008
},
{
  "type": "node",
  "id": 1764566067,
  "lat": 53.0722212,
  "lon": 8.8148015
},
{
  "type": "node",
  "id": 1764566068,
  "lat": 53.0722216,
  "lon": 8.8148022
},
{
  "type": "node",
  "id": 1764566070,
  "lat": 53.0722219,
  "lon": 8.8148030
},
{
  "type": "node",
  "id": 1764566072,
  "lat": 53.0722223,
  "lon": 8.8148037
},
{
  "type": "node",
  "id": 1764566074,
  "lat": 53.0722226,
  "lon": 8.8148045
},
{
  "type": "node",
  "id": 1764566075,
  "lat": 53.0722229,
  "lon": 8.8148053
},
{
  "type": "node",
  "id": 1764566076,
  "lat": 53.0722232,
  "lon": 8.8148061
},
{
  "type": "node",
  "id": 1764566077,
  "lat": 53.0722234,
  "lon": 8.8148339
},
{
  "type": "node",
  "id": 1764566078,
  "lat": 53.0722235,
  "lon": 8.8148069
},
{
  "type": "node",
  "id": 1764566079,
  "lat": 53.0722235,
  "lon": 8.8148336
},
{
  "type": "node",
  "id": 1764566080,
  "lat": 53.0722238,
  "lon": 8.8148078
},
{
  "type": "node",
  "id": 1764566081,
  "lat": 53.0722238,
  "lon": 8.8148323
},
{
  "type": "node",
  "id": 1764566084,
  "lat": 53.0722240,
  "lon": 8.8148086
},
{
  "type": "node",
  "id": 1764566085,
  "lat": 53.0722241,
  "lon": 8.8148311
},
{
  "type": "node",
  "id": 1764566087,
  "lat": 53.0722242,
  "lon": 8.8148095
},
{
  "type": "node",
  "id": 1764566089,
  "lat": 53.0722244,
  "lon": 8.8148104
},
{
  "type": "node",
  "id": 1764566091,
  "lat": 53.0722244,
  "lon": 8.8148297
},
{
  "type": "node",
  "id": 1764566092,
  "lat": 53.0722246,
  "lon": 8.8148113
},
{
  "type": "node",
  "id": 1764566094,
  "lat": 53.0722246,
  "lon": 8.8148284
},
{
  "type": "node",
  "id": 1764566096,
  "lat": 53.0722248,
  "lon": 8.8148122
},
{
  "type": "node",
  "id": 1764566098,
  "lat": 53.0722248,
  "lon": 8.8148124
},
{
  "type": "node",
  "id": 1764566099,
  "lat": 53.0722248,
  "lon": 8.8148271
},
{
  "type": "node",
  "id": 1764566101,
  "lat": 53.0722249,
  "lon": 8.8148130
},
{
  "type": "node",
  "id": 1764566103,
  "lat": 53.0722250,
  "lon": 8.8148139
},
{
  "type": "node",
  "id": 1764566104,
  "lat": 53.0722250,
  "lon": 8.8148257
},
{
  "type": "node",
  "id": 1764566106,
  "lat": 53.0722252,
  "lon": 8.8148148
},
{
  "type": "node",
  "id": 1764566108,
  "lat": 53.0722252,
  "lon": 8.8148243
},
{
  "type": "node",
  "id": 1764566110,
  "lat": 53.0722253,
  "lon": 8.8148158
},
{
  "type": "node",
  "id": 1764566111,
  "lat": 53.0722253,
  "lon": 8.8148167
},
{
  "type": "node",
  "id": 1764566113,
  "lat": 53.0722253,
  "lon": 8.8148225
},
{
  "type": "node",
  "id": 1764566115,
  "lat": 53.0722253,
  "lon": 8.8148234
},
{
  "type": "node",
  "id": 1764566116,
  "lat": 53.0722254,
  "lon": 8.8148177
},
{
  "type": "node",
  "id": 1764566123,
  "lat": 53.0722254,
  "lon": 8.8148186
},
{
  "type": "node",
  "id": 1764566124,
  "lat": 53.0722254,
  "lon": 8.8148196
},
{
  "type": "node",
  "id": 1764566125,
  "lat": 53.0722254,
  "lon": 8.8148206
},
{
  "type": "node",
  "id": 1764566126,
  "lat": 53.0722254,
  "lon": 8.8148215
},
{
  "type": "node",
  "id": 1764566127,
  "lat": 53.0722260,
  "lon": 8.8148336
},
{
  "type": "node",
  "id": 1764566128,
  "lat": 53.0722273,
  "lon": 8.8148655
},
{
  "type": "node",
  "id": 1764566129,
  "lat": 53.0722373,
  "lon": 8.8148645
},
{
  "type": "node",
  "id": 1764566130,
  "lat": 53.0722379,
  "lon": 8.8148806
},
{
  "type": "node",
  "id": 1764566131,
  "lat": 53.0722394,
  "lon": 8.8149217
},
{
  "type": "node",
  "id": 1764566132,
  "lat": 53.0722416,
  "lon": 8.8149781
},
{
  "type": "node",
  "id": 1764566134,
  "lat": 53.0722438,
  "lon": 8.8148901
},
{
  "type": "node",
  "id": 1764566136,
  "lat": 53.0722445,
  "lon": 8.8149118
},
{
  "type": "node",
  "id": 1765355236,
  "lat": 53.0726402,
  "lon": 8.8148094
},
{
  "type": "node",
  "id": 1765355238,
  "lat": 53.0726461,
  "lon": 8.8147884
},
{
  "type": "node",
  "id": 1765355245,
  "lat": 53.0727207,
  "lon": 8.8148726
},
{
  "type": "node",
  "id": 1765355251,
  "lat": 53.0727260,
  "lon": 8.8148767
},
{
  "type": "node",
  "id": 1765355257,
  "lat": 53.0727514,
  "lon": 8.8147872
},
{
  "type": "node",
  "id": 1765355266,
  "lat": 53.0727537,
  "lon": 8.8147790
},
{
  "type": "node",
  "id": 1765355272,
  "lat": 53.0727983,
  "lon": 8.8146217
},
{
  "type": "node",
  "id": 1765355273,
  "lat": 53.0728000,
  "lon": 8.8146158
},
{
  "type": "node",
  "id": 1765355274,
  "lat": 53.0728011,
  "lon": 8.8146117
},
{
  "type": "node",
  "id": 1765355275,
  "lat": 53.0728023,
  "lon": 8.8146077
},
{
  "type": "node",
  "id": 1765355282,
  "lat": 53.0728902,
  "lon": 8.8150062
},
{
  "type": "node",
  "id": 1765355284,
  "lat": 53.0729011,
  "lon": 8.8148891
},
{
  "type": "node",
  "id": 1765355287,
  "lat": 53.0729165,
  "lon": 8.8149132
},
{
  "type": "node",
  "id": 1765355289,
  "lat": 53.0729193,
  "lon": 8.8149035
},
{
  "type": "node",
  "id": 1765355308,
  "lat": 53.0729441,
  "lon": 8.8147373
},
{
  "type": "node",
  "id": 1765355311,
  "lat": 53.0729624,
  "lon": 8.8147516
},
{
  "type": "node",
  "id": 1765355312,
  "lat": 53.0729651,
  "lon": 8.8147421
},
{
  "type": "node",
  "id": 1765355315,
  "lat": 53.0729755,
  "lon": 8.8150732
},
{
  "type": "node",
  "id": 1765355318,
  "lat": 53.0729838,
  "lon": 8.8150810
},
{
  "type": "node",
  "id": 1765355319,
  "lat": 53.0729841,
  "lon": 8.8150799
},
{
  "type": "node",
  "id": 1765355320,
  "lat": 53.0729915,
  "lon": 8.8146487
},
{
  "type": "node",
  "id": 1765355321,
  "lat": 53.0729932,
  "lon": 8.8146501
},
{
  "type": "node",
  "id": 1765355322,
  "lat": 53.0729983,
  "lon": 8.8150924
},
{
  "type": "node",
  "id": 1765355323,
  "lat": 53.0730032,
  "lon": 8.8149755
},
{
  "type": "node",
  "id": 1765355325,
  "lat": 53.0730056,
  "lon": 8.8150667
},
{
  "type": "node",
  "id": 1765355340,
  "lat": 53.0730472,
  "lon": 8.8150993
},
{
  "type": "node",
  "id": 1765355343,
  "lat": 53.0730495,
  "lon": 8.8148121
},
{
  "type": "node",
  "id": 1765355345,
  "lat": 53.0730768,
  "lon": 8.8147157
},
{
  "type": "node",
  "id": 1765355347,
  "lat": 53.0730802,
  "lon": 8.8147040
},
{
  "type": "node",
  "id": 1765355349,
  "lat": 53.0730957,
  "lon": 8.8151374
},
{
  "type": "node",
  "id": 1765355351,
  "lat": 53.0731160,
  "lon": 8.8150641
},
{
  "type": "node",
  "id": 1765355352,
  "lat": 53.0731233,
  "lon": 8.8150385
},
{
  "type": "node",
  "id": 1765355353,
  "lat": 53.0731341,
  "lon": 8.8147791
},
{
  "type": "node",
  "id": 1765355354,
  "lat": 53.0731345,
  "lon": 8.8149467
},
{
  "type": "node",
  "id": 1765355355,
  "lat": 53.0731368,
  "lon": 8.8151697
},
{
  "type": "node",
  "id": 1765355356,
  "lat": 53.0731372,
  "lon": 8.8151700
},
{
  "type": "node",
  "id": 1765355357,
  "lat": 53.0731376,
  "lon": 8.8147912
},
{
  "type": "node",
  "id": 1765355358,
  "lat": 53.0731398,
  "lon": 8.8147836
},
{
  "type": "node",
  "id": 1765355359,
  "lat": 53.0731404,
  "lon": 8.8151725
},
{
  "type": "node",
  "id": 1765355360,
  "lat": 53.0731417,
  "lon": 8.8147523
},
{
  "type": "node",
  "id": 1765355361,
  "lat": 53.0731435,
  "lon": 8.8149149
},
{
  "type": "node",
  "id": 1765355362,
  "lat": 53.0731466,
  "lon": 8.8149562
},
{
  "type": "node",
  "id": 1765355363,
  "lat": 53.0731562,
  "lon": 8.8149248
},
{
  "type": "node",
  "id": 1765355364,
  "lat": 53.0731629,
  "lon": 8.8149012
},
{
  "type": "node",
  "id": 1765355365,
  "lat": 53.0731692,
  "lon": 8.8150709
},
{
  "type": "node",
  "id": 1765355369,
  "lat": 53.0731994,
  "lon": 8.8149616
},
{
  "type": "node",
  "id": 1765355371,
  "lat": 53.0732074,
  "lon": 8.8149679
},
{
  "type": "node",
  "id": 1765355373,
  "lat": 53.0732277,
  "lon": 8.8148619
},
{
  "type": "node",
  "id": 1765355374,
  "lat": 53.0732971,
  "lon": 8.8151714
},
{
  "type": "node",
  "id": 1765355376,
  "lat": 53.0732988,
  "lon": 8.8151727
},
{
  "type": "node",
  "id": 1765355378,
  "lat": 53.0732995,
  "lon": 8.8151703
},
{
  "type": "node",
  "id": 1765355380,
  "lat": 53.0733296,
  "lon": 8.8150642
},
{
  "type": "node",
  "id": 1765355382,
  "lat": 53.0733297,
  "lon": 8.8150639
},
{
  "type": "node",
  "id": 1831400594,
  "lat": 53.0714362,
  "lon": 8.8192015
},
{
  "type": "node",
  "id": 1831400595,
  "lat": 53.0714546,
  "lon": 8.8191223
},
{
  "type": "node",
  "id": 1831400596,
  "lat": 53.0714672,
  "lon": 8.8191299
},
{
  "type": "node",
  "id": 1831400597,
  "lat": 53.0714757,
  "lon": 8.8190939
},
{
  "type": "node",
  "id": 1831400598,
  "lat": 53.0714841,
  "lon": 8.8190589
},
{
  "type": "node",
  "id": 1831400599,
  "lat": 53.0715793,
  "lon": 8.8191165
},
{
  "type": "node",
  "id": 1831400600,
  "lat": 53.0716417,
  "lon": 8.8193351
},
{
  "type": "node",
  "id": 1831400602,
  "lat": 53.0716582,
  "lon": 8.8192555
},
{
  "type": "node",
  "id": 1831400603,
  "lat": 53.0716636,
  "lon": 8.8192489
},
{
  "type": "node",
  "id": 1831400604,
  "lat": 53.0716789,
  "lon": 8.8191783
},
{
  "type": "node",
  "id": 2286232914,
  "lat": 53.0714329,
  "lon": 8.8190637
},
{
  "type": "node",
  "id": 2286232917,
  "lat": 53.0714379,
  "lon": 8.8190302
},
{
  "type": "node",
  "id": 2520454183,
  "lat": 53.0725037,
  "lon": 8.8146356
},
{
  "type": "node",
  "id": 2520454184,
  "lat": 53.0725296,
  "lon": 8.8146559
},
{
  "type": "node",
  "id": 2520454187,
  "lat": 53.0726498,
  "lon": 8.8147755
},
{
  "type": "node",
  "id": 2520454190,
  "lat": 53.0727703,
  "lon": 8.8147921
},
{
  "type": "node",
  "id": 2520454191,
  "lat": 53.0727962,
  "lon": 8.8146291
},
{
  "type": "node",
  "id": 2520454192,
  "lat": 53.0728128,
  "lon": 8.8146421
},
{
  "type": "node",
  "id": 207200507,
  "lat": 53.0618738,
  "lon": 8.8997779
},
{
  "type": "node",
  "id": 3366885597,
  "lat": 53.0616790,
  "lon": 8.8997793
},
{
  "type": "node",
  "id": 207200510,
  "lat": 53.0618756,
  "lon": 8.9004394
},
{
  "type": "node",
  "id": 3366885592,
  "lat": 53.0614725,
  "lon": 8.9000284
},
{
  "type": "node",
  "id": 3366885593,
  "lat": 53.0614736,
  "lon": 8.9004424
},
{
  "type": "node",
  "id": 3366885598,
  "lat": 53.0616796,
  "lon": 8.9000268
},
{
  "type": "node",
  "id": 1760028024,
  "lat": 53.0752561,
  "lon": 8.8087399
},
{
  "type": "node",
  "id": 1760028026,
  "lat": 53.0752609,
  "lon": 8.8086803
},
{
  "type": "node",
  "id": 1760028105,
  "lat": 53.0753219,
  "lon": 8.8087542
},
{
  "type": "node",
  "id": 1760028125,
  "lat": 53.0753322,
  "lon": 8.8087565
},
{
  "type": "node",
  "id": 1760028130,
  "lat": 53.0753344,
  "lon": 8.8087570
},
{
  "type": "node",
  "id": 1760028132,
  "lat": 53.0753350,
  "lon": 8.8087483
},
{
  "type": "node",
  "id": 2176238443,
  "lat": 53.0752643,
  "lon": 8.8086382
},
{
  "type": "node",
  "id": 2334336473,
  "lat": 53.0752568,
  "lon": 8.8087314
},
{
  "type": "node",
  "id": 3208480657,
  "lat": 53.0753041,
  "lon": 8.8087185
},
{
  "type": "node",
  "id": 3208480658,
  "lat": 53.0753090,
  "lon": 8.8086471
},
{
  "type": "node",
  "id": 3208480659,
  "lat": 53.0753366,
  "lon": 8.8087247
},
{
  "type": "node",
  "id": 3775199099,
  "lat": 53.0753275,
  "lon": 8.8087555
},
{
  "type": "node",
  "id": 3775799149,
  "lat": 53.0752570,
  "lon": 8.8087293
},
{
  "type": "node",
  "id": 3781944670,
  "lat": 53.0752590,
  "lon": 8.8087042
},
{
  "type": "node",
  "id": 3781944671,
  "lat": 53.0752624,
  "lon": 8.8086617
},
{
  "type": "node",
  "id": 1751627850,
  "lat": 53.0828927,
  "lon": 8.8110908
},
{
  "type": "node",
  "id": 1751627852,
  "lat": 53.0829329,
  "lon": 8.8110025
},
{
  "type": "node",
  "id": 1751627860,
  "lat": 53.0829416,
  "lon": 8.8111522
},
{
  "type": "node",
  "id": 1751627862,
  "lat": 53.0829793,
  "lon": 8.8109049
},
{
  "type": "node",
  "id": 1751627864,
  "lat": 53.0829849,
  "lon": 8.8109123
},
{
  "type": "node",
  "id": 1751627872,
  "lat": 53.0830739,
  "lon": 8.8107252
},
{
  "type": "node",
  "id": 1751627874,
  "lat": 53.0830768,
  "lon": 8.8107289
},
{
  "type": "node",
  "id": 1751627882,
  "lat": 53.0831234,
  "lon": 8.8106245
},
{
  "type": "node",
  "id": 1751627883,
  "lat": 53.0831254,
  "lon": 8.8106271
},
{
  "type": "node",
  "id": 1751627885,
  "lat": 53.0831668,
  "lon": 8.8105333
},
{
  "type": "node",
  "id": 1751627886,
  "lat": 53.0831688,
  "lon": 8.8105358
},
{
  "type": "node",
  "id": 1751627888,
  "lat": 53.0832042,
  "lon": 8.8114976
},
{
  "type": "node",
  "id": 1751627892,
  "lat": 53.0832466,
  "lon": 8.8114124
},
{
  "type": "node",
  "id": 1751627895,
  "lat": 53.0832875,
  "lon": 8.8113076
},
{
  "type": "node",
  "id": 1751627896,
  "lat": 53.0832932,
  "lon": 8.8113149
},
{
  "type": "node",
  "id": 1751627901,
  "lat": 53.0833162,
  "lon": 8.8102228
},
{
  "type": "node",
  "id": 1751627903,
  "lat": 53.0833301,
  "lon": 8.8101938
},
{
  "type": "node",
  "id": 1751627904,
  "lat": 53.0833739,
  "lon": 8.8111172
},
{
  "type": "node",
  "id": 1751627906,
  "lat": 53.0833767,
  "lon": 8.8111211
},
{
  "type": "node",
  "id": 1751627907,
  "lat": 53.0834221,
  "lon": 8.8110153
},
{
  "type": "node",
  "id": 1751627909,
  "lat": 53.0834240,
  "lon": 8.8110179
},
{
  "type": "node",
  "id": 1751627911,
  "lat": 53.0834656,
  "lon": 8.8109240
},
{
  "type": "node",
  "id": 1751627912,
  "lat": 53.0834675,
  "lon": 8.8109266
},
{
  "type": "node",
  "id": 1751627917,
  "lat": 53.0835321,
  "lon": 8.8097504
},
{
  "type": "node",
  "id": 1751627919,
  "lat": 53.0835377,
  "lon": 8.8097578
},
{
  "type": "node",
  "id": 1751627927,
  "lat": 53.0835795,
  "lon": 8.8096505
},
{
  "type": "node",
  "id": 1751627933,
  "lat": 53.0836350,
  "lon": 8.8097389
},
{
  "type": "node",
  "id": 1751627936,
  "lat": 53.0836396,
  "lon": 8.8097293
},
{
  "type": "node",
  "id": 1751627937,
  "lat": 53.0838245,
  "lon": 8.8099869
},
{
  "type": "node",
  "id": 1751627938,
  "lat": 53.0838290,
  "lon": 8.8099776
},
{
  "type": "node",
  "id": 1751627939,
  "lat": 53.0838360,
  "lon": 8.8101491
},
{
  "type": "node",
  "id": 1751627940,
  "lat": 53.0838415,
  "lon": 8.8099940
},
{
  "type": "node",
  "id": 1751627941,
  "lat": 53.0838416,
  "lon": 8.8101563
},
{
  "type": "node",
  "id": 1751627942,
  "lat": 53.0838565,
  "lon": 8.8101250
},
{
  "type": "node",
  "id": 1751627943,
  "lat": 53.0838738,
  "lon": 8.8100885
},
{
  "type": "node",
  "id": 1751627944,
  "lat": 53.0838891,
  "lon": 8.8100564
},
{
  "type": "node",
  "id": 2379691990,
  "lat": 53.0833271,
  "lon": 8.8102001
},
{
  "type": "node",
  "id": 2540729538,
  "lat": 53.0829314,
  "lon": 8.8110059
},
{
  "type": "node",
  "id": 2540729539,
  "lat": 53.0829324,
  "lon": 8.8110073
},
{
  "type": "node",
  "id": 2540729547,
  "lat": 53.0829769,
  "lon": 8.8112437
},
{
  "type": "node",
  "id": 2540729548,
  "lat": 53.0829902,
  "lon": 8.8112156
},
{
  "type": "node",
  "id": 2540729566,
  "lat": 53.0830936,
  "lon": 8.8113972
},
{
  "type": "node",
  "id": 2540729567,
  "lat": 53.0831072,
  "lon": 8.8113687
},
{
  "type": "node",
  "id": 2540729581,
  "lat": 53.0831752,
  "lon": 8.8103898
},
{
  "type": "node",
  "id": 2540729590,
  "lat": 53.0832140,
  "lon": 8.8104410
},
{
  "type": "node",
  "id": 2540729594,
  "lat": 53.0832441,
  "lon": 8.8114142
},
{
  "type": "node",
  "id": 2540729595,
  "lat": 53.0832451,
  "lon": 8.8114156
},
{
  "type": "node",
  "id": 2540729600,
  "lat": 53.0832770,
  "lon": 8.8101753
},
{
  "type": "node",
  "id": 2540729605,
  "lat": 53.0833150,
  "lon": 8.8102253
},
{
  "type": "node",
  "id": 2540729614,
  "lat": 53.0835101,
  "lon": 8.8108304
},
{
  "type": "node",
  "id": 2540729618,
  "lat": 53.0835430,
  "lon": 8.8108737
},
{
  "type": "node",
  "id": 2540729623,
  "lat": 53.0836130,
  "lon": 8.8106173
},
{
  "type": "node",
  "id": 2540729625,
  "lat": 53.0836448,
  "lon": 8.8106592
},
{
  "type": "node",
  "id": 3772485011,
  "lat": 53.0833000,
  "lon": 8.8112815
},
{
  "type": "node",
  "id": 295275624,
  "lat": 53.0923371,
  "lon": 8.8640109
},
{
  "type": "node",
  "id": 297863787,
  "lat": 53.0928531,
  "lon": 8.8641330
},
{
  "type": "node",
  "id": 297863789,
  "lat": 53.0926506,
  "lon": 8.8639693
},
{
  "type": "node",
  "id": 297863790,
  "lat": 53.0926979,
  "lon": 8.8635358
},
{
  "type": "node",
  "id": 297863791,
  "lat": 53.0925460,
  "lon": 8.8640164
},
{
  "type": "node",
  "id": 297863792,
  "lat": 53.0925128,
  "lon": 8.8633848
},
{
  "type": "node",
  "id": 297863793,
  "lat": 53.0923767,
  "lon": 8.8638784
},
{
  "type": "node",
  "id": 297863794,
  "lat": 53.0924827,
  "lon": 8.8642853
},
{
  "type": "node",
  "id": 297863795,
  "lat": 53.0925315,
  "lon": 8.8640674
},
{
  "type": "node",
  "id": 297863796,
  "lat": 53.0928946,
  "lon": 8.8644512
},
{
  "type": "node",
  "id": 297863797,
  "lat": 53.0928240,
  "lon": 8.8643030
},
{
  "type": "node",
  "id": 297863798,
  "lat": 53.0923205,
  "lon": 8.8640663
},
{
  "type": "node",
  "id": 297863799,
  "lat": 53.0923859,
  "lon": 8.8642059
},
{
  "type": "node",
  "id": 297863800,
  "lat": 53.0924364,
  "lon": 8.8642206
},
{
  "type": "node",
  "id": 297863801,
  "lat": 53.0924334,
  "lon": 8.8642450
},
{
  "type": "node",
  "id": 297863802,
  "lat": 53.0924847,
  "lon": 8.8642617
},
{
  "type": "node",
  "id": 297863803,
  "lat": 53.0929274,
  "lon": 8.8641897
},
{
  "type": "node",
  "id": 297863804,
  "lat": 53.0928650,
  "lon": 8.8641657
},
{
  "type": "node",
  "id": 297863805,
  "lat": 53.0922990,
  "lon": 8.8642473
},
{
  "type": "node",
  "id": 297863806,
  "lat": 53.0922465,
  "lon": 8.8640730
},
{
  "type": "node",
  "id": 297863807,
  "lat": 53.0922311,
  "lon": 8.8641909
},
{
  "type": "node",
  "id": 297863808,
  "lat": 53.0923817,
  "lon": 8.8642412
},
{
  "type": "node",
  "id": 297863810,
  "lat": 53.0927565,
  "lon": 8.8653184
},
{
  "type": "node",
  "id": 297863811,
  "lat": 53.0924192,
  "lon": 8.8651964
},
{
  "type": "node",
  "id": 297863812,
  "lat": 53.0927765,
  "lon": 8.8651648
},
{
  "type": "node",
  "id": 297863813,
  "lat": 53.0924398,
  "lon": 8.8650379
},
{
  "type": "node",
  "id": 297863814,
  "lat": 53.0926548,
  "lon": 8.8651200
},
{
  "type": "node",
  "id": 297863815,
  "lat": 53.0927436,
  "lon": 8.8651529
},
{
  "type": "node",
  "id": 297863816,
  "lat": 53.0928377,
  "lon": 8.8644314
},
{
  "type": "node",
  "id": 297863817,
  "lat": 53.0927490,
  "lon": 8.8643981
},
{
  "type": "node",
  "id": 297863818,
  "lat": 53.0925585,
  "lon": 8.8650851
},
{
  "type": "node",
  "id": 297863819,
  "lat": 53.0924912,
  "lon": 8.8650565
},
{
  "type": "node",
  "id": 297863820,
  "lat": 53.0926529,
  "lon": 8.8643624
},
{
  "type": "node",
  "id": 297863821,
  "lat": 53.0925846,
  "lon": 8.8643410
},
{
  "type": "node",
  "id": 297863822,
  "lat": 53.0926895,
  "lon": 8.8648536
},
{
  "type": "node",
  "id": 297863823,
  "lat": 53.0926785,
  "lon": 8.8649383
},
{
  "type": "node",
  "id": 297863824,
  "lat": 53.0925930,
  "lon": 8.8648207
},
{
  "type": "node",
  "id": 297863825,
  "lat": 53.0925820,
  "lon": 8.8649047
},
{
  "type": "node",
  "id": 297863826,
  "lat": 53.0925340,
  "lon": 8.8643032
},
{
  "type": "node",
  "id": 297863827,
  "lat": 53.0925322,
  "lon": 8.8643248
},
{
  "type": "node",
  "id": 297863828,
  "lat": 53.0926715,
  "lon": 8.8639862
},
{
  "type": "node",
  "id": 297863829,
  "lat": 53.0926906,
  "lon": 8.8640016
},
{
  "type": "node",
  "id": 297863830,
  "lat": 53.0926252,
  "lon": 8.8641389
},
{
  "type": "node",
  "id": 297863831,
  "lat": 53.0926453,
  "lon": 8.8641560
},
{
  "type": "node",
  "id": 297863834,
  "lat": 53.0928378,
  "lon": 8.8641207
},
{
  "type": "node",
  "id": 297863835,
  "lat": 53.0928143,
  "lon": 8.8641017
},
{
  "type": "node",
  "id": 297863836,
  "lat": 53.0928146,
  "lon": 8.8642934
},
{
  "type": "node",
  "id": 297863837,
  "lat": 53.0927912,
  "lon": 8.8642769
},
{
  "type": "node",
  "id": 348405764,
  "lat": 53.0917396,
  "lon": 8.8636464
},
{
  "type": "node",
  "id": 348405765,
  "lat": 53.0915990,
  "lon": 8.8635632
},
{
  "type": "node",
  "id": 348405766,
  "lat": 53.0911435,
  "lon": 8.8634002
},
{
  "type": "node",
  "id": 348405767,
  "lat": 53.0904552,
  "lon": 8.8631737
},
{
  "type": "node",
  "id": 348405769,
  "lat": 53.0906137,
  "lon": 8.8641872
},
{
  "type": "node",
  "id": 348405772,
  "lat": 53.0907757,
  "lon": 8.8651656
},
{
  "type": "node",
  "id": 348405773,
  "lat": 53.0908412,
  "lon": 8.8655526
},
{
  "type": "node",
  "id": 348405774,
  "lat": 53.0911056,
  "lon": 8.8654574
},
{
  "type": "node",
  "id": 348405775,
  "lat": 53.0913942,
  "lon": 8.8651999
},
{
  "type": "node",
  "id": 348405776,
  "lat": 53.0916790,
  "lon": 8.8649425
},
{
  "type": "node",
  "id": 348405777,
  "lat": 53.0918671,
  "lon": 8.8645671
},
{
  "type": "node",
  "id": 348405780,
  "lat": 53.0918117,
  "lon": 8.8637150
},
{
  "type": "node",
  "id": 1741635121,
  "lat": 53.0913924,
  "lon": 8.8643246
},
{
  "type": "node",
  "id": 1741635122,
  "lat": 53.0914659,
  "lon": 8.8641330
},
{
  "type": "node",
  "id": 1741635123,
  "lat": 53.0914941,
  "lon": 8.8641628
},
{
  "type": "node",
  "id": 1741635124,
  "lat": 53.0915481,
  "lon": 8.8644871
},
{
  "type": "node",
  "id": 1741635125,
  "lat": 53.0915501,
  "lon": 8.8644817
},
{
  "type": "node",
  "id": 1741635126,
  "lat": 53.0915691,
  "lon": 8.8644325
},
{
  "type": "node",
  "id": 1741635127,
  "lat": 53.0915698,
  "lon": 8.8639611
},
{
  "type": "node",
  "id": 1741635128,
  "lat": 53.0915706,
  "lon": 8.8639619
},
{
  "type": "node",
  "id": 1741635129,
  "lat": 53.0915771,
  "lon": 8.8639423
},
{
  "type": "node",
  "id": 1741635130,
  "lat": 53.0915863,
  "lon": 8.8642590
},
{
  "type": "node",
  "id": 1741635145,
  "lat": 53.0916217,
  "lon": 8.8642955
},
{
  "type": "node",
  "id": 1741635148,
  "lat": 53.0916639,
  "lon": 8.8640589
},
{
  "type": "node",
  "id": 1741635150,
  "lat": 53.0916655,
  "lon": 8.8640604
},
{
  "type": "node",
  "id": 1741635152,
  "lat": 53.0916728,
  "lon": 8.8640409
},
{
  "type": "node",
  "id": 1741635155,
  "lat": 53.0927441,
  "lon": 8.8661456
},
{
  "type": "node",
  "id": 1741635156,
  "lat": 53.0927685,
  "lon": 8.8659352
},
{
  "type": "node",
  "id": 1741635158,
  "lat": 53.0929985,
  "lon": 8.8662337
},
{
  "type": "node",
  "id": 1741635161,
  "lat": 53.0930234,
  "lon": 8.8660348
},
{
  "type": "node",
  "id": 1903360256,
  "lat": 53.0923212,
  "lon": 8.8665125
},
{
  "type": "node",
  "id": 1903360265,
  "lat": 53.0928590,
  "lon": 8.8664233
},
{
  "type": "node",
  "id": 1903360269,
  "lat": 53.0930362,
  "lon": 8.8663928
},
{
  "type": "node",
  "id": 1903360273,
  "lat": 53.0932360,
  "lon": 8.8662866
},
{
  "type": "node",
  "id": 1903366759,
  "lat": 53.0929300,
  "lon": 8.8649853
},
{
  "type": "node",
  "id": 1903366761,
  "lat": 53.0931014,
  "lon": 8.8641248
},
{
  "type": "node",
  "id": 1903366762,
  "lat": 53.0931220,
  "lon": 8.8657964
},
{
  "type": "node",
  "id": 1903366763,
  "lat": 53.0931981,
  "lon": 8.8659101
},
{
  "type": "node",
  "id": 1908659803,
  "lat": 53.0923694,
  "lon": 8.8638724
},
{
  "type": "node",
  "id": 1908659805,
  "lat": 53.0925545,
  "lon": 8.8640234
},
{
  "type": "node",
  "id": 1908659806,
  "lat": 53.0926844,
  "lon": 8.8641893
},
{
  "type": "node",
  "id": 1908659808,
  "lat": 53.0926911,
  "lon": 8.8641777
},
{
  "type": "node",
  "id": 1908659810,
  "lat": 53.0926980,
  "lon": 8.8641696
},
{
  "type": "node",
  "id": 1908659812,
  "lat": 53.0927110,
  "lon": 8.8641686
},
{
  "type": "node",
  "id": 1908659814,
  "lat": 53.0927196,
  "lon": 8.8641739
},
{
  "type": "node",
  "id": 1908659815,
  "lat": 53.0927271,
  "lon": 8.8641845
},
{
  "type": "node",
  "id": 1908659817,
  "lat": 53.0927312,
  "lon": 8.8642267
},
{
  "type": "node",
  "id": 1908659826,
  "lat": 53.0927317,
  "lon": 8.8641979
},
{
  "type": "node",
  "id": 1908659827,
  "lat": 53.0927332,
  "lon": 8.8642138
},
{
  "type": "node",
  "id": 1908663262,
  "lat": 53.0920845,
  "lon": 8.8646815
},
{
  "type": "node",
  "id": 1908663264,
  "lat": 53.0921188,
  "lon": 8.8647681
},
{
  "type": "node",
  "id": 1908663265,
  "lat": 53.0921270,
  "lon": 8.8646349
},
{
  "type": "node",
  "id": 1908663269,
  "lat": 53.0921612,
  "lon": 8.8647215
},
{
  "type": "node",
  "id": 1908663273,
  "lat": 53.0926559,
  "lon": 8.8652820
},
{
  "type": "node",
  "id": 1908663278,
  "lat": 53.0927564,
  "lon": 8.8660391
},
{
  "type": "node",
  "id": 1908663281,
  "lat": 53.0930597,
  "lon": 8.8659509
},
{
  "type": "node",
  "id": 1908663282,
  "lat": 53.0930716,
  "lon": 8.8658298
},
{
  "type": "node",
  "id": 1908663285,
  "lat": 53.0931192,
  "lon": 8.8659672
},
{
  "type": "node",
  "id": 1908663288,
  "lat": 53.0931312,
  "lon": 8.8658462
},
{
  "type": "node",
  "id": 1910133661,
  "lat": 53.0919926,
  "lon": 8.8643407
},
{
  "type": "node",
  "id": 1910133663,
  "lat": 53.0920017,
  "lon": 8.8639329
},
{
  "type": "node",
  "id": 1910133665,
  "lat": 53.0920174,
  "lon": 8.8638394
},
{
  "type": "node",
  "id": 1910133668,
  "lat": 53.0920220,
  "lon": 8.8646435
},
{
  "type": "node",
  "id": 1910133670,
  "lat": 53.0920906,
  "lon": 8.8635771
},
{
  "type": "node",
  "id": 1910133672,
  "lat": 53.0921684,
  "lon": 8.8650377
},
{
  "type": "node",
  "id": 1910133674,
  "lat": 53.0922842,
  "lon": 8.8654726
},
{
  "type": "node",
  "id": 1910133676,
  "lat": 53.0923054,
  "lon": 8.8659098
},
{
  "type": "node",
  "id": 1910133678,
  "lat": 53.0925282,
  "lon": 8.8629507
},
{
  "type": "node",
  "id": 1910133680,
  "lat": 53.0931574,
  "lon": 8.8638917
},
{
  "type": "node",
  "id": 2181815831,
  "lat": 53.0923217,
  "lon": 8.8659537
},
{
  "type": "node",
  "id": 2181815834,
  "lat": 53.0923366,
  "lon": 8.8663090
},
{
  "type": "node",
  "id": 2181815841,
  "lat": 53.0924028,
  "lon": 8.8659442
},
{
  "type": "node",
  "id": 2181815847,
  "lat": 53.0924177,
  "lon": 8.8662996
},
{
  "type": "node",
  "id": 2181833315,
  "lat": 53.0916844,
  "lon": 8.8643587
},
{
  "type": "node",
  "id": 2181833316,
  "lat": 53.0917392,
  "lon": 8.8641174
},
{
  "type": "node",
  "id": 2181833317,
  "lat": 53.0917598,
  "lon": 8.8641304
},
{
  "type": "node",
  "id": 2181833318,
  "lat": 53.0917739,
  "lon": 8.8644150
},
{
  "type": "node",
  "id": 2181833319,
  "lat": 53.0917905,
  "lon": 8.8639952
},
{
  "type": "node",
  "id": 2181833320,
  "lat": 53.0918594,
  "lon": 8.8640386
},
{
  "type": "node",
  "id": 2181833325,
  "lat": 53.0931968,
  "lon": 8.8663001
},
{
  "type": "node",
  "id": 2330455765,
  "lat": 53.0916678,
  "lon": 8.8644898
},
{
  "type": "node",
  "id": 2330455768,
  "lat": 53.0916923,
  "lon": 8.8644280
},
{
  "type": "node",
  "id": 2330455769,
  "lat": 53.0917241,
  "lon": 8.8644629
},
{
  "type": "node",
  "id": 2330455770,
  "lat": 53.0917354,
  "lon": 8.8645638
},
{
  "type": "node",
  "id": 2330455771,
  "lat": 53.0917362,
  "lon": 8.8644324
},
{
  "type": "node",
  "id": 2330455772,
  "lat": 53.0917718,
  "lon": 8.8644715
},
{
  "type": "node",
  "id": 3307279768,
  "lat": 53.0905273,
  "lon": 8.8631336
},
{
  "type": "node",
  "id": 3307279769,
  "lat": 53.0906244,
  "lon": 8.8631473
},
{
  "type": "node",
  "id": 3307279794,
  "lat": 53.0913501,
  "lon": 8.8634494
},
{
  "type": "node",
  "id": 3307279839,
  "lat": 53.0919037,
  "lon": 8.8638308
},
{
  "type": "node",
  "id": 3307279841,
  "lat": 53.0919211,
  "lon": 8.8644524
},
{
  "type": "node",
  "id": 3307279844,
  "lat": 53.0919366,
  "lon": 8.8638962
},
{
  "type": "node",
  "id": 3307279845,
  "lat": 53.0919413,
  "lon": 8.8639394
},
{
  "type": "node",
  "id": 3307279847,
  "lat": 53.0919576,
  "lon": 8.8640861
},
{
  "type": "node",
  "id": 3307279848,
  "lat": 53.0919594,
  "lon": 8.8642518
},
{
  "type": "node",
  "id": 6149338387,
  "lat": 53.0923925,
  "lon": 8.8642078
},
{
  "type": "node",
  "id": 6454018630,
  "lat": 53.0927476,
  "lon": 8.8636367
},
{
  "type": "node",
  "id": 6454018631,
  "lat": 53.0929501,
  "lon": 8.8638004
},
{
  "type": "node",
  "id": 6456381511,
  "lat": 53.0928141,
  "lon": 8.8641024
},
{
  "type": "node",
  "id": 6456381512,
  "lat": 53.0926904,
  "lon": 8.8640023
},
{
  "type": "node",
  "id": 1406896643,
  "lat": 53.0934398,
  "lon": 8.8835453
},
{
  "type": "node",
  "id": 1406896662,
  "lat": 53.0930419,
  "lon": 8.8840371
},
{
  "type": "node",
  "id": 1406896709,
  "lat": 53.0930865,
  "lon": 8.8835394
},
{
  "type": "node",
  "id": 2569902920,
  "lat": 53.0930377,
  "lon": 8.8835391
},
{
  "type": "node",
  "id": 2569903109,
  "lat": 53.0934892,
  "lon": 8.8836162
},
{
  "type": "node",
  "id": 2569903118,
  "lat": 53.0935646,
  "lon": 8.8837032
},
{
  "type": "node",
  "id": 2569903247,
  "lat": 53.0939578,
  "lon": 8.8836915
},
{
  "type": "node",
  "id": 5523508675,
  "lat": 53.0930444,
  "lon": 8.8845248
},
{
  "type": "node",
  "id": 1452569595,
  "lat": 53.0934753,
  "lon": 8.8883543
},
{
  "type": "node",
  "id": 1453288673,
  "lat": 53.0930993,
  "lon": 8.8885314
},
{
  "type": "node",
  "id": 1453288760,
  "lat": 53.0930570,
  "lon": 8.8869352
},
{
  "type": "node",
  "id": 1453288767,
  "lat": 53.0939872,
  "lon": 8.8879908
},
{
  "type": "node",
  "id": 2871558204,
  "lat": 53.0933371,
  "lon": 8.8884331
},
{
  "type": "node",
  "id": 2914928609,
  "lat": 53.1393278,
  "lon": 8.8942447
},
{
  "type": "node",
  "id": 2914929004,
  "lat": 53.1391584,
  "lon": 8.8937454
},
{
  "type": "node",
  "id": 2914943701,
  "lat": 53.1392263,
  "lon": 8.8936814
},
{
  "type": "node",
  "id": 2914943801,
  "lat": 53.1393957,
  "lon": 8.8941807
},
{
  "type": "node",
  "id": 1739524484,
  "lat": 53.0863143,
  "lon": 8.9360072
},
{
  "type": "node",
  "id": 1739524485,
  "lat": 53.0863152,
  "lon": 8.9359955
},
{
  "type": "node",
  "id": 1739524486,
  "lat": 53.0863168,
  "lon": 8.9360097
},
{
  "type": "node",
  "id": 1739524487,
  "lat": 53.0863171,
  "lon": 8.9359960
},
{
  "type": "node",
  "id": 1739524488,
  "lat": 53.0863217,
  "lon": 8.9360570
},
{
  "type": "node",
  "id": 1739524489,
  "lat": 53.0863231,
  "lon": 8.9360551
},
{
  "type": "node",
  "id": 1739524490,
  "lat": 53.0863276,
  "lon": 8.9360707
},
{
  "type": "node",
  "id": 1739524491,
  "lat": 53.0863299,
  "lon": 8.9360699
},
{
  "type": "node",
  "id": 1739524492,
  "lat": 53.0863324,
  "lon": 8.9359535
},
{
  "type": "node",
  "id": 1739524493,
  "lat": 53.0863338,
  "lon": 8.9359556
},
{
  "type": "node",
  "id": 1739524494,
  "lat": 53.0863396,
  "lon": 8.9359444
},
{
  "type": "node",
  "id": 1739524495,
  "lat": 53.0863407,
  "lon": 8.9359464
},
{
  "type": "node",
  "id": 1739524496,
  "lat": 53.0863513,
  "lon": 8.9360947
},
{
  "type": "node",
  "id": 1739524497,
  "lat": 53.0863519,
  "lon": 8.9360989
},
{
  "type": "node",
  "id": 1739524498,
  "lat": 53.0863622,
  "lon": 8.9360960
},
{
  "type": "node",
  "id": 1739524499,
  "lat": 53.0863623,
  "lon": 8.9361005
},
{
  "type": "node",
  "id": 1739524500,
  "lat": 53.0863678,
  "lon": 8.9359368
},
{
  "type": "node",
  "id": 1739524501,
  "lat": 53.0863683,
  "lon": 8.9359339
},
{
  "type": "node",
  "id": 1739524502,
  "lat": 53.0863760,
  "lon": 8.9359379
},
{
  "type": "node",
  "id": 1739524503,
  "lat": 53.0863764,
  "lon": 8.9359358
},
{
  "type": "node",
  "id": 1739524504,
  "lat": 53.0863898,
  "lon": 8.9360846
},
{
  "type": "node",
  "id": 1739524505,
  "lat": 53.0863906,
  "lon": 8.9360870
},
{
  "type": "node",
  "id": 1739524506,
  "lat": 53.0863970,
  "lon": 8.9360753
},
{
  "type": "node",
  "id": 1739524507,
  "lat": 53.0863978,
  "lon": 8.9360778
},
{
  "type": "node",
  "id": 1739524508,
  "lat": 53.0863980,
  "lon": 8.9359636
},
{
  "type": "node",
  "id": 1739524509,
  "lat": 53.0863993,
  "lon": 8.9359627
},
{
  "type": "node",
  "id": 1739524510,
  "lat": 53.0864043,
  "lon": 8.9359762
},
{
  "type": "node",
  "id": 1739524511,
  "lat": 53.0864051,
  "lon": 8.9359822
},
{
  "type": "node",
  "id": 1739524512,
  "lat": 53.0864054,
  "lon": 8.9359728
},
{
  "type": "node",
  "id": 1739524513,
  "lat": 53.0864123,
  "lon": 8.9360340
},
{
  "type": "node",
  "id": 1419294205,
  "lat": 53.2154876,
  "lon": 8.9317274
},
{
  "type": "node",
  "id": 1419294207,
  "lat": 53.2154907,
  "lon": 8.9316629
},
{
  "type": "node",
  "id": 1419294210,
  "lat": 53.2154863,
  "lon": 8.9322843
},
{
  "type": "node",
  "id": 1419294212,
  "lat": 53.2155048,
  "lon": 8.9317296
},
{
  "type": "node",
  "id": 1419294214,
  "lat": 53.2155297,
  "lon": 8.9322873
},
{
  "type": "node",
  "id": 1419294216,
  "lat": 53.2155474,
  "lon": 8.9317987
},
{
  "type": "node",
  "id": 1419294219,
  "lat": 53.2155899,
  "lon": 8.9316760
},
{
  "type": "node",
  "id": 1419294220,
  "lat": 53.2155907,
  "lon": 8.9316590
},
{
  "type": "node",
  "id": 1419294221,
  "lat": 53.2156319,
  "lon": 8.9316644
},
{
  "type": "node",
  "id": 1419294223,
  "lat": 53.2156336,
  "lon": 8.9316291
},
{
  "type": "node",
  "id": 1419294226,
  "lat": 53.2156750,
  "lon": 8.9316738
},
{
  "type": "node",
  "id": 1419294228,
  "lat": 53.2156768,
  "lon": 8.9316348
},
{
  "type": "node",
  "id": 1419294235,
  "lat": 53.2157082,
  "lon": 8.9318120
},
{
  "type": "node",
  "id": 1419294236,
  "lat": 53.2157136,
  "lon": 8.9316789
},
{
  "type": "node",
  "id": 4995525180,
  "lat": 53.2157123,
  "lon": 8.9317110
},
{
  "type": "node",
  "id": 4995525182,
  "lat": 53.2156388,
  "lon": 8.9318063
},
{
  "type": "node",
  "id": 4995525183,
  "lat": 53.2157091,
  "lon": 8.9317888
},
{
  "type": "node",
  "id": 2933609945,
  "lat": 53.2209789,
  "lon": 8.9256066
},
{
  "type": "node",
  "id": 2933609983,
  "lat": 53.2210185,
  "lon": 8.9253290
},
{
  "type": "node",
  "id": 2933610052,
  "lat": 53.2208572,
  "lon": 8.9253292
},
{
  "type": "node",
  "id": 2933610141,
  "lat": 53.2209801,
  "lon": 8.9254859
},
{
  "type": "node",
  "id": 2933610144,
  "lat": 53.2208545,
  "lon": 8.9256031
},
{
  "type": "node",
  "id": 2933610151,
  "lat": 53.2210174,
  "lon": 8.9254869
},
{
  "type": "node",
  "id": 3705551280,
  "lat": 53.2210337,
  "lon": 8.9254508
},
{
  "type": "node",
  "id": 3705551281,
  "lat": 53.2210434,
  "lon": 8.9254028
},
{
  "type": "node",
  "id": 3705551282,
  "lat": 53.2210327,
  "lon": 8.9253574
},
{
  "type": "node",
  "id": 3705551283,
  "lat": 53.2209839,
  "lon": 8.9253327
},
{
  "type": "node",
  "id": 3705551284,
  "lat": 53.2209841,
  "lon": 8.9253092
},
{
  "type": "node",
  "id": 3705551285,
  "lat": 53.2209951,
  "lon": 8.9253096
},
{
  "type": "node",
  "id": 3705551286,
  "lat": 53.2209957,
  "lon": 8.9252526
},
{
  "type": "node",
  "id": 3705551287,
  "lat": 53.2210193,
  "lon": 8.9252533
},
{
  "type": "node",
  "id": 4365372391,
  "lat": 53.2210187,
  "lon": 8.9253118
},
{
  "type": "node",
  "id": 1278570502,
  "lat": 53.2217309,
  "lon": 8.9308818
},
{
  "type": "node",
  "id": 1278570504,
  "lat": 53.2216092,
  "lon": 8.9307501
},
{
  "type": "node",
  "id": 1278570505,
  "lat": 53.2216322,
  "lon": 8.9310128
},
{
  "type": "node",
  "id": 1278570508,
  "lat": 53.2215561,
  "lon": 8.9308860
},
{
  "type": "node",
  "id": 1278570518,
  "lat": 53.2217282,
  "lon": 8.9311393
},
{
  "type": "node",
  "id": 1278570522,
  "lat": 53.2215578,
  "lon": 8.9309992
},
{
  "type": "node",
  "id": 1897201529,
  "lat": 53.2237555,
  "lon": 8.9334500
},
{
  "type": "node",
  "id": 1897201531,
  "lat": 53.2237933,
  "lon": 8.9335893
},
{
  "type": "node",
  "id": 1897201546,
  "lat": 53.2239553,
  "lon": 8.9332990
},
{
  "type": "node",
  "id": 1897201549,
  "lat": 53.2239931,
  "lon": 8.9334384
},
{
  "type": "node",
  "id": 3057439719,
  "lat": 53.2557295,
  "lon": 8.9786862
},
{
  "type": "node",
  "id": 3057439720,
  "lat": 53.2557329,
  "lon": 8.9789209
},
{
  "type": "node",
  "id": 3057439721,
  "lat": 53.2557825,
  "lon": 8.9786840
},
{
  "type": "node",
  "id": 3057439722,
  "lat": 53.2557830,
  "lon": 8.9787154
},
{
  "type": "node",
  "id": 3057439723,
  "lat": 53.2557830,
  "lon": 8.9788608
},
{
  "type": "node",
  "id": 3057439724,
  "lat": 53.2557838,
  "lon": 8.9789189
},
{
  "type": "node",
  "id": 3057439725,
  "lat": 53.2559422,
  "lon": 8.9787089
},
{
  "type": "node",
  "id": 3057439726,
  "lat": 53.2559443,
  "lon": 8.9788542
},
{
  "type": "node",
  "id": 3057885554,
  "lat": 53.2559431,
  "lon": 8.9787720
},
{
  "type": "node",
  "id": 2098003752,
  "lat": 53.1160428,
  "lon": 9.0577562
},
{
  "type": "node",
  "id": 2098003757,
  "lat": 53.1159217,
  "lon": 9.0578598
},
{
  "type": "node",
  "id": 2098003810,
  "lat": 53.1161639,
  "lon": 9.0581490
},
{
  "type": "node",
  "id": 2098003837,
  "lat": 53.1160428,
  "lon": 9.0582526
},
{
  "type": "node",
  "id": 6077406951,
  "lat": 53.3670149,
  "lon": 8.6917707
},
{
  "type": "node",
  "id": 6077406952,
  "lat": 53.3669625,
  "lon": 8.6917876
},
{
  "type": "node",
  "id": 6077406953,
  "lat": 53.3669788,
  "lon": 8.6919287
},
{
  "type": "node",
  "id": 6077406954,
  "lat": 53.3670312,
  "lon": 8.6919117
},
{
  "type": "way",
  "id": 164944574,
  "nodes": [
    1765355374,
    1765355365,
    1765355359,
    1765355356,
    1765355355,
    1765355349,
    1765355340,
    1765355325,
    1765355322,
    1765355318,
    1765355319,
    1765355315,
    1765355282,
    1765355287,
    1765355289,
    1765355284,
    1765355308,
    1765355311,
    1765355312,
    1765355320,
    1765355321,
    1765355345,
    1765355347,
    1765355360,
    1765355353,
    1765355358,
    1765355357,
    1765355373,
    1765355369,
    1765355371,
    1765355382,
    1765355380,
    1765355378,
    1765355376,
    1765355374
  ]
},
{
  "type": "way",
  "id": 164944575,
  "nodes": [
    1765355364,
    1765355343,
    1765355323,
    1765355351,
    1765355352,
    1765355362,
    1765355354,
    1765355361,
    1765355363,
    1765355364
  ]
},
{
  "type": "way",
  "id": 27147961,
  "nodes": [
    297863836,
    297863834,
    297863787,
    297863789,
    297863828,
    297863830,
    297863795,
    297863791,
    1908659805,
    297863790,
    297863792,
    1908659803,
    297863793,
    295275624,
    297863798,
    297863806,
    297863807,
    297863805,
    297863808,
    297863799,
    6149338387,
    297863800,
    297863801,
    297863802,
    297863794,
    297863826,
    297863827,
    297863821,
    297863819,
    297863813,
    297863811,
    1908663273,
    297863810,
    297863812,
    297863815,
    297863816,
    297863796,
    297863803,
    297863804,
    297863797,
    297863836
  ]
},
{
  "type": "way",
  "id": 27147966,
  "nodes": [
    297863820,
    297863817,
    297863822,
    297863824,
    297863820
  ]
},
{
  "type": "way",
  "id": 31310779,
  "nodes": [
    348405764,
    348405780,
    3307279839,
    3307279844,
    3307279845,
    3307279847,
    3307279848,
    3307279841,
    348405777,
    348405776,
    348405775,
    348405774,
    348405773,
    348405772,
    348405769,
    348405767,
    3307279768,
    3307279769,
    348405766,
    3307279794,
    348405765,
    348405764
  ]
},
{
  "type": "way",
  "id": 162241218,
  "nodes": [
    1741635161,
    1741635158,
    1741635155,
    1908663278,
    1741635156,
    1741635161
  ]
},
{
  "type": "way",
  "id": 162241224,
  "nodes": [
    1741635125,
    1741635124,
    1741635121,
    1741635122,
    1741635123,
    1741635128,
    1741635127,
    1741635129,
    1741635152,
    1741635150,
    1741635148,
    1741635130,
    1741635145,
    1741635126,
    1741635125
  ]
},
{
  "type": "way",
  "id": 180423023,
  "nodes": [
    6456381512,
    6456381511,
    297863837,
    1908659817,
    1908659827,
    1908659826,
    1908659815,
    1908659814,
    1908659812,
    1908659810,
    1908659808,
    1908659806,
    297863831,
    6456381512
  ]
},
{
  "type": "way",
  "id": 180423024,
  "nodes": [
    297863823,
    297863814,
    297863818,
    297863825,
    297863823
  ]
},
{
  "type": "way",
  "id": 180423472,
  "nodes": [
    1908663282,
    1908663281,
    1908663285,
    1908663288,
    1908663282
  ]
},
{
  "type": "way",
  "id": 180423473,
  "nodes": [
    1908663269,
    1908663264,
    1908663262,
    1908663265,
    1908663269
  ]
},
{
  "type": "way",
  "id": 180593398,
  "nodes": [
    1903360273,
    2181833325,
    1903360269,
    1903360265,
    1903360256,
    1910133676,
    1910133674,
    1910133672,
    1910133668,
    1910133661,
    1910133663,
    1910133665,
    1910133670,
    1910133678,
    1910133680,
    1903366761,
    1903366759,
    1903366762,
    1903366763,
    1903360273
  ]
},
{
  "type": "way",
  "id": 207930409,
  "nodes": [
    2181815841,
    2181815831,
    2181815834,
    2181815847,
    2181815841
  ]
},
{
  "type": "way",
  "id": 207930941,
  "nodes": [
    2181833319,
    2181833320,
    2181833318,
    2181833315,
    2181833316,
    2181833317,
    2181833319
  ]
},
{
  "type": "way",
  "id": 224223746,
  "nodes": [
    2330455768,
    2330455765,
    2330455770,
    2330455772,
    2330455771,
    2330455769,
    2330455768
  ]
},
{
  "type": "way",
  "id": 224223747,
  "nodes": [
    297863789,
    297863828,
    297863829,
    297863835,
    297863834,
    297863787,
    6454018631,
    6454018630,
    297863789
  ]
},
{
  "type": "way",
  "id": 162009144,
  "nodes": [
    1739524513,
    1739524506,
    1739524507,
    1739524505,
    1739524504,
    1739524498,
    1739524499,
    1739524497,
    1739524496,
    1739524491,
    1739524490,
    1739524488,
    1739524489,
    1739524486,
    1739524484,
    1739524485,
    1739524487,
    1739524493,
    1739524492,
    1739524494,
    1739524495,
    1739524500,
    1739524501,
    1739524503,
    1739524502,
    1739524508,
    1739524509,
    1739524512,
    1739524510,
    1739524511,
    1739524513
  ]
}

  ]
}
