{
  "version": 0.6,
  "generator": "Overpass API 0.7.55.9 ab41fea6",
  "osm3s": {
    "timestamp_osm_base": "2020-02-14T14:58:01Z",
    "copyright": "The data included in this document is from www.openstreetmap.org. The data is made available under ODbL."
  },
  "elements": [

{
  "type": "node",
  "id": 304246334,
  "lat": 45.8120880,
  "lon": 8.7183676,
  "tags": {
    "addr:city": "Biandronno",
    "addr:street": "Via Marconi",
    "description": "L’isola è il più antico abitato preistorico palafitticolo dell’Arco Alpino inserito nel Patrimonio mondiale UNESCO.",
    "email": "info@isolinovirginia.it",
    "name": "Museo Civico Preistorico dell'Isolino Virginia",
    "opening_hours": "Apr-Nov: Sa-Su 10:00-12:30, 14:00-18:00",
    "phone": "+39 392 9742089",
    "tourism": "museum",
    "website": "https://www.comune.varese.it/museo-civico-preistorico"
  }
},
{
  "type": "node",
  "id": 317248781,
  "lat": 45.8894284,
  "lon": 8.7914721,
  "tags": {
    "name": "Museo della Cultura Rurale Prealpina",
    "tourism": "museum"
  }
},
{
  "type": "node",
  "id": 319602939,
  "lat": 45.8603137,
  "lon": 8.7924422,
  "tags": {
    "addr:city": "Varese",
    "addr:postcode": "21100",
    "addr:street": "Piazzetta del Monastero",
    "email": "info@museobaroffio.it",
    "name": "Museo Baroffio",
    "opening_hours": "Mar-Nov: We-Fr 14:00-18:00; Sa-Su-PH 10:00-18:00; Dec 8-Jan 8 open",
    "phone": "+39 0332 212042",
    "tourism": "museum",
    "website": "http://www.museobaroffio.it/",
    "wikidata": "Q3867575",
    "wikipedia": "it:Museo Baroffio e del Sacro Monte"
  }
},
{
  "type": "node",
  "id": 357606436,
  "lat": 45.8274397,
  "lon": 9.3374053,
  "tags": {
    "description": "Esposizione permanente di presepi e diorami ricavata nei locali sottostanti la chiesa della Madonna di Fatima.",
    "name": "Museo del Presepio",
    "start_date": "2007",
    "tourism": "museum"
  }
},
{
  "type": "node",
  "id": 369931341,
  "lat": 45.8754694,
  "lon": 8.6785212,
  "tags": {
    "name": "Museo Salvini",
    "tourism": "museum"
  }
},
{
  "type": "node",
  "id": 711171842,
  "lat": 45.6542822,
  "lon": 8.7978851,
  "tags": {
    "addr:city": "Gallarate",
    "addr:country": "IT",
    "addr:housenumber": "1",
    "addr:postcode": "21013",
    "addr:street": "Via Egidio De Magri",
    "email": "info@museomaga.it",
    "name": "Museo Arte Gallarate (MAGA)",
    "opening_hours": "Tu-Fr 10:00-13:00,14:30-18:30; Sa-Su 11:00-19:00; Mo off",
    "phone": "+39 0331 706011",
    "start_date": "1966",
    "toilets:wheelchair": "yes",
    "tourism": "museum",
    "website": "http://www.museomaga.it/",
    "wheelchair": "yes",
    "wheelchair:description": "porta di ingresso non automatizzata",
    "wikidata": "Q3867743",
    "wikipedia": "it:Museo arte Gallarate"
  }
},
{
  "type": "node",
  "id": 714813531,
  "lat": 45.6009585,
  "lon": 8.9132828,
  "tags": {
    "addr:city": "Legnano",
    "addr:country": "IT",
    "addr:housenumber": "225",
    "addr:postcode": "20025",
    "addr:street": "Corso Giuseppe Garibaldi",
    "name": "Museo Civico Guido Sutermeister",
    "tourism": "museum",
    "wikidata": "Q3867779",
    "wikipedia": "it:Museo civico Guido Sutermeister"
  }
},
{
  "type": "node",
  "id": 731323722,
  "lat": 45.8157742,
  "lon": 8.8228025,
  "tags": {
    "addr:city": "Varese",
    "addr:country": "IT",
    "addr:housenumber": "4",
    "addr:postcode": "21100",
    "addr:street": "Piazza della Motta",
    "contact:website": "http://www.varesecultura.it/index.php/luoghi/50-musei/musei-civici/musei-civici-di-villa-mirabello-sezione-risorgimentale",
    "email": "museoarcheologico.mirabello@comune.varese.it",
    "name": "Civici Musei di Villa Mirabello, Archeologico e Risorgimentale",
    "note": "Ho aggiunto un secondo sito specifico dell'ala risorgimentale. Se inutile , lo si cancelli.",
    "opening_hours": "Tu-Su 09:30-12:30,14:00-18:00; Mo off; Jan 1,6, Easter, May 1, Nov 1, Dec 24,31 14:00-18:00, Dec 25 off",
    "operator": "Comune di Varese",
    "phone": "+39 0332 255485",
    "start_date": "1871",
    "tourism": "museum",
    "website": "http://www.cspa-va.it/museo-archeologico.html",
    "wikidata": "Q16335817",
    "wikipedia": "it:Museo civico archeologico di Villa Mirabello"
  }
},
{
  "type": "node",
  "id": 813256078,
  "lat": 45.9829951,
  "lon": 8.9189687,
  "tags": {
    "addr:city": "Collina d'Oro",
    "addr:housenumber": "2",
    "addr:postcode": "6926",
    "addr:street": "Ra Cürta",
    "email": "info@hessemontagnola.ch",
    "name": "Museo Hermann Hesse",
    "operator": "Fondazione Hermann Hesse Montagnola",
    "phone": "+41 91 993 37 70",
    "tourism": "museum",
    "website": "http://www.hessemontagnola.ch"
  }
},
{
  "type": "node",
  "id": 836762609,
  "lat": 46.0250760,
  "lon": 8.8345878,
  "tags": {
    "name": "Museo del boscaiolo",
    "tourism": "museum"
  }
},
{
  "type": "node",
  "id": 1209741522,
  "lat": 46.0308843,
  "lon": 9.2079026,
  "tags": {
    "email": "info@museovalsanagra.it",
    "fax": "+39 0344 30247",
    "fee": "no",
    "name": "Museo Etnografico e Naturalistico Val Sanagra",
    "opening_hours": "Jan-Dec Su[-1] 10:00-12:30,14:30-17:30; May-Sep Su[2] 10:00-12:30,14:30-17:30",
    "operator": "Associazione \"Storia, natura e vita\" di Grandola ed Uniti",
    "phone": "+39 0344 32115",
    "tourism": "museum",
    "website": "www.museovalsanagra.it"
  }
},
{
  "type": "node",
  "id": 1305753485,
  "lat": 45.8028057,
  "lon": 9.0953434,
  "tags": {
    "addr:city": "Como",
    "addr:housenumber": "9",
    "addr:postcode": "22100",
    "addr:street": "Via Castelnuovo",
    "email": "info@museosetacomo.com",
    "name": "Museo della Seta",
    "opening_hours": "Tu-Su 10:00-18:00",
    "phone": "+39 031 303180",
    "tourism": "museum",
    "website": "https://www.museosetacomo.com/",
    "wikidata": "Q3868248",
    "wikipedia": "it:Museo didattico della Seta di Como"
  }
},
{
  "type": "node",
  "id": 1380471412,
  "lat": 45.9959609,
  "lon": 9.3320863,
  "tags": {
    "name": "Museo delle Grigne",
    "operator": "Comune di Esino Lario",
    "source": "Local_Konowledge",
    "toilets:wheelchair": "yes",
    "tourism": "museum",
    "website": "https://www.museodellegrigne.it/",
    "wheelchair": "yes",
    "wikidata": "Q3868123",
    "wikipedia": "it:Museo delle Grigne"
  }
},
{
  "type": "node",
  "id": 1558406762,
  "lat": 45.5465325,
  "lon": 9.1724075,
  "tags": {
    "addr:city": "Cormano",
    "addr:country": "IT",
    "addr:housenumber": "3",
    "addr:postcode": "20032",
    "addr:street": "Via Gianni Rodari",
    "email": "museodelgiocattolo@tin.it",
    "name": "Museo del Giocattolo e del Bambino",
    "opening_hours": "Sa-Su, PH 14:30-18:00; Mo-Fr \"su prenotazione\"",
    "phone": "+39 340 1509192",
    "tourism": "museum",
    "website": "http://www.museodelgiocattolo.it/mi/home_mi.html"
  }
},
{
  "type": "node",
  "id": 1617213379,
  "lat": 45.8735523,
  "lon": 9.0666007,
  "tags": {
    "fee": "no",
    "name": "Piccolo Museo Storico del Bisbino",
    "opening_hours": "Sa-Su 10:00-17:00",
    "operator": "Associazione amici del Bisbino",
    "source": "survey",
    "start_date": "2010-08-15",
    "tourism": "museum"
  }
},
{
  "type": "node",
  "id": 1740776770,
  "lat": 45.8255433,
  "lon": 9.3684602,
  "tags": {
    "addr:city": "Galbiate",
    "addr:country": "IT",
    "addr:postcode": "23851",
    "addr:street": "frazione Camporeso",
    "email": "meab@parcobarro.it",
    "name": "Museo etnografico dell'Alta Brianza",
    "opening_hours": "Tu-We 09:00-12:30, Fr 09:00-12:30, Sa-Su 09:00-12:30,14:00-18:00; Dec 25 off, Jan 01 off, easter off",
    "operator": "Consorzio Parco Monte Barro",
    "phone": "+39 0341 240193",
    "tourism": "museum",
    "website": "http://meab.parcobarro.it/"
  }
},
{
  "type": "node",
  "id": 1752589082,
  "lat": 45.7556071,
  "lon": 8.8660856,
  "tags": {
    "name": "Museo Civico Palazzo Branda Castiglioni",
    "opening_hours": "Tu-Sa 09:00-12:00,15:00-18:00; Su 10:30-12:30,15:00-18:00",
    "tourism": "museum"
  }
},
{
  "type": "node",
  "id": 1770421615,
  "lat": 45.6385236,
  "lon": 8.9657622,
  "tags": {
    "name": "Museo della Carrozza Equestre",
    "tourism": "museum"
  }
},
{
  "type": "node",
  "id": 1843726597,
  "lat": 45.8589842,
  "lon": 8.7941922,
  "tags": {
    "addr:city": "Varese",
    "addr:housenumber": "5",
    "addr:postcode": "21100",
    "addr:street": "Via Beata Giuliana",
    "description": "La collezione di Lodovico Pogliaghi comprendente preziosi reperti archeologici egizi, etruschi e di epoca greco-romana, pitture e sculture databili tra il Rinascimento e l’epoca barocca...",
    "email": "info@casamuseopogliaghi.it",
    "name": "Casa Museo Lodovico Pogliaghi",
    "opening_hours": "Mar 16-Nov 15: Sa,Su,PH 10:00-18:00; Jun-Aug: Fr 18:30-22:30",
    "phone": "+39 328 8377206",
    "tourism": "museum",
    "website": "http://www.casamuseopogliaghi.it"
  }
},
{
  "type": "node",
  "id": 1868380621,
  "lat": 45.8472512,
  "lon": 9.3949067,
  "tags": {
    "name": "Isola Viscontea",
    "tourism": "museum"
  }
},
{
  "type": "node",
  "id": 1975852590,
  "lat": 45.8256858,
  "lon": 9.3785136,
  "tags": {
    "description": "Sezione staccata: l'uccellagione e la caccia",
    "email": "meab@parcobarro.it",
    "name": "Museo etnografico dell'Alta Brianza",
    "opening_hours": "\"Visita su appuntamento\"",
    "phone": "+39 0341 240193",
    "tourism": "museum",
    "website": "http://meab.parcobarro.it/"
  }
},
{
  "type": "node",
  "id": 1987800197,
  "lat": 45.8533540,
  "lon": 9.2971520,
  "tags": {
    "fee": "no",
    "name": "Centro visitatori Riserva Naturale Sasso Malascarpa",
    "opening_hours": "Mo-Su 09:00-19:00",
    "tourism": "museum"
  }
},
{
  "type": "node",
  "id": 1987800198,
  "lat": 45.8534406,
  "lon": 9.2972376,
  "tags": {
    "description": "nella Cà di Alp è stata ricostruita l'originale casa rurale.",
    "level": "0",
    "name": "Cà di Alp",
    "tourism": "museum"
  }
},
{
  "type": "node",
  "id": 1999714492,
  "lat": 45.5576536,
  "lon": 9.0467202,
  "tags": {
    "addr:city": "Arese",
    "addr:postcode": "20020",
    "addr:street": "Viale Alfa Romeo",
    "name": "Museo Storico Alfa Romeo",
    "opening_hours": "Mo-Su 10:00-18:00; Tu off; Th 10:00-22:00",
    "tourism": "museum"
  }
},
{
  "type": "node",
  "id": 2163189834,
  "lat": 45.8350392,
  "lon": 8.8038364,
  "tags": {
    "name": "Museo F. Bertoni",
    "tourism": "museum"
  }
},
{
  "type": "node",
  "id": 2241821230,
  "lat": 45.9770920,
  "lon": 8.9470208,
  "tags": {
    "fee": "no",
    "name": "Museo San Salvatore",
    "opening_hours": "We-Su 10:00-12:00,13:00-15:00",
    "tourism": "museum",
    "wikidata": "Q27487051"
  }
},
{
  "type": "node",
  "id": 2245493468,
  "lat": 45.6794703,
  "lon": 9.1189880,
  "tags": {
    "name": "museo civico",
    "tourism": "museum"
  }
},
{
  "type": "node",
  "id": 2254435302,
  "lat": 45.8905471,
  "lon": 8.9528985,
  "tags": {
    "addr:city": "Meride",
    "addr:country": "CH",
    "addr:housenumber": "9",
    "addr:postcode": "6866",
    "addr:street": "Via Bernardo Peyer",
    "description": "ll Museo dei fossili del Monte San Giorgio, ristrutturato dall’architetto ticinese Mario Botta, è stato inaugurato nel 2012. Mostra una raccolta di fossili di animali e piante degli eccezionali giacimenti, oggi iscritti nel Patrimonio mondiale dell'UNESCO",
    "email": "info@montesangiorgio.org",
    "name": "Museo dei fossili del Monte San Giorgio",
    "opening_hours": "Tu-Su 09:00-17:00",
    "operator": "Fondazione del Monte San Giorgio",
    "payment:cards": "yes",
    "payment:cash": "yes",
    "payment:credit_cards": "yes",
    "payment:debit_cards": "yes",
    "payment:visa": "yes",
    "phone": "+41 91 640 00 80",
    "source": "survey and website",
    "tourism": "museum",
    "website": "http://www.montesangiorgio.org",
    "wheelchair": "yes",
    "wikidata": "Q27485115",
    "wikipedia": "it:Museo dei fossili del Monte San Giorgio"
  }
},
{
  "type": "node",
  "id": 2287019902,
  "lat": 45.6107400,
  "lon": 8.8701834,
  "tags": {
    "addr:city": "Busto Arsizio",
    "addr:housenumber": "29",
    "addr:postcode": "21052",
    "addr:street": "Via Andrea Costa",
    "name": "Museo delle arti di palazzo Bandera",
    "tourism": "museum",
    "wikidata": "Q3868128",
    "wikipedia": "it:Museo delle arti di palazzo Bandera"
  }
},
{
  "type": "node",
  "id": 2362304289,
  "lat": 45.5827476,
  "lon": 9.2746049,
  "tags": {
    "addr:city": "Monza",
    "addr:country": "IT",
    "addr:housenumber": "4",
    "addr:postcode": "20900",
    "addr:street": "Via Regina Teodolinda",
    "email": "info@museicivicimonza.it",
    "fee": "yes",
    "name": "Musei Civici di Monza",
    "opening_hours": "Jun-Sep: Mo-Tu off; We 15:00-18:00; Th 15:00-18:00; 20:00-23:00; Fr-Sa-Su 10:00-13:00; 15:00-18:00; Oct-May: Mo-Tu off; We 10:00-13:00; 15:00-18:00; Th 15:00-18:00; Fr-Sa-Su 10:00-13:00; 15:00-18:00",
    "phone": "+39 039 2307126",
    "tourism": "museum",
    "website": "http://www.museicivicimonza.it/"
  }
},
{
  "type": "node",
  "id": 2372503515,
  "lat": 45.5834790,
  "lon": 9.2797274,
  "tags": {
    "addr:city": "Monza",
    "addr:country": "IT",
    "addr:housenumber": "2",
    "addr:postcode": "20900",
    "addr:street": "Piazza Santa Margherita",
    "name": "Museo Talamoni",
    "opening_hours": "Tu-Fr 10:00-11:30,16:00-18:30",
    "phone": "+39 039 322833",
    "tourism": "museum"
  }
},
{
  "type": "node",
  "id": 2398269112,
  "lat": 45.6869107,
  "lon": 8.7339941,
  "tags": {
    "addr:city": "Arsago Seprio",
    "addr:postcode": "21010",
    "addr:street": "Viale Rinaldo Vanoni",
    "name": "Civico Museo Archeologico",
    "tourism": "museum"
  }
},
{
  "type": "node",
  "id": 2521648565,
  "lat": 45.5135671,
  "lon": 9.2040168,
  "tags": {
    "addr:city": "Milano",
    "addr:country": "IT",
    "addr:housenumber": "121",
    "addr:postcode": "20126",
    "addr:street": "Viale Fulvio Testi",
    "email": "mic@cinetecamilano.it",
    "name": "Museo Interattivo del Cinema",
    "opening_hours": "Tu-Th 15:00-19:00; Fr 15:00-21:00; Sa,Su 15:00-19:00; Mo off",
    "operator": "Fondazione Cineteca Italiana",
    "phone": "+39 02 87242114",
    "tourism": "museum",
    "website": "http://mic.cinetecamilano.it"
  }
},
{
  "type": "node",
  "id": 2525792612,
  "lat": 45.8288944,
  "lon": 8.8027347,
  "tags": {
    "addr:city": "Varese",
    "addr:housenumber": "42",
    "addr:postcode": "21100",
    "addr:street": "Via Cola di Rienzo",
    "email": "musei.masnago@comune.varese.it",
    "name": "Museo d'arte moderna e contemporanea",
    "opening_hours": "Tu-Su 09:30-12:30,14.00-18.00; Mo off; Jan 1,6, Easter, May 1, Nov 1, Dec 24,31 14:00-18:00, Dec 25 off",
    "operator": "Comune di Varese",
    "phone": "+39 0332 820409",
    "tourism": "museum",
    "website": "http://www.varesecultura.it/index.php/luoghi/16-musei/musei-civici/museo-d-arte-moderna-e-contemporanea"
  }
},
{
  "type": "node",
  "id": 2525794521,
  "lat": 45.8203155,
  "lon": 8.8252645,
  "tags": {
    "name": "Sala Veratti",
    "operator": "Comune di Varese",
    "tourism": "museum"
  }
},
{
  "type": "node",
  "id": 2526577466,
  "lat": 45.8309778,
  "lon": 9.3715157,
  "tags": {
    "name": "Museo Archeologico",
    "tourism": "museum"
  }
},
{
  "type": "node",
  "id": 2550567324,
  "lat": 45.5617364,
  "lon": 9.2167502,
  "tags": {
    "name": "Centro culturale J.Lombardini",
    "tourism": "museum"
  }
},
{
  "type": "node",
  "id": 2559309707,
  "lat": 45.9454718,
  "lon": 9.1904731,
  "tags": {
    "name": "Museo Storico della Nautica e Motonautica Eugenio Molinari",
    "tourism": "museum"
  }
},
{
  "type": "node",
  "id": 2571246694,
  "lat": 45.6634217,
  "lon": 8.7927511,
  "tags": {
    "addr:city": "Gallarate",
    "addr:country": "IT",
    "addr:housenumber": "4",
    "addr:postcode": "21013",
    "addr:street": "Via del Borgo Antico",
    "email": "info@studipatri.it",
    "name": "Museo della Società Gallaratese per gli Studi Patri",
    "phone": "+39 0331 795092",
    "tourism": "museum",
    "website": "http://www.studipatri.it/",
    "wheelchair": "no"
  }
},
{
  "type": "node",
  "id": 2806612393,
  "lat": 45.5292605,
  "lon": 9.1367680,
  "tags": {
    "addr:city": "Novate Milanese",
    "addr:housenumber": "13",
    "addr:street": "Largo Angelo Testori",
    "contact:email": "info@casatestori.it",
    "contact:phone": "+39 02 36586877",
    "contact:website": "https://www.casatestori.it",
    "name": "Casa Testori",
    "operator": "Casa Testori Associazione Culturale",
    "tourism": "museum",
    "wheelchair": "limited"
  }
},
{
  "type": "node",
  "id": 2832396573,
  "lat": 46.0918024,
  "lon": 9.1129842,
  "tags": {
    "name": "Museo della valle",
    "tourism": "museum",
    "website": "http://www.valcavargna.com/?q=mdv"
  }
},
{
  "type": "node",
  "id": 2870732795,
  "lat": 45.8894228,
  "lon": 8.7901579,
  "tags": {
    "addr:city": "Brinzio",
    "addr:housenumber": "10",
    "addr:postcode": "21030",
    "addr:street": "Via Monte Grappa",
    "name": "Butega dur farée",
    "note": "antica bottega del maniscalco del paese",
    "tourism": "museum"
  }
},
{
  "type": "node",
  "id": 2917627312,
  "lat": 45.8087019,
  "lon": 9.0862056,
  "tags": {
    "addr:city": "Como",
    "addr:country": "IT",
    "addr:housenumber": "1",
    "addr:postcode": "22100",
    "addr:street": "Piazza Medaglie d'Oro",
    "email": "musei.civici@comune.como.it",
    "name": "Museo archeologico Paolo Giovio",
    "opening_hours": "Tu-Su 10:00-18:00; Mo off; Jan 1, Jan 6, Nov 1, Dec 25-26 off",
    "phone": "+39 031 252550",
    "tourism": "museum",
    "website": "http://visitcomo.eu/it/scoprire/musei/museo-archeologico/index.html",
    "wikidata": "Q3867664",
    "wikipedia": "it:Museo archeologico Paolo Giovio"
  }
},
{
  "type": "node",
  "id": 2917627801,
  "lat": 45.8084272,
  "lon": 9.0861858,
  "tags": {
    "addr:city": "Como",
    "addr:housenumber": "1",
    "addr:postcode": "22100",
    "addr:street": "Piazza Medaglie d'Oro",
    "email": "musei.civici@comune.como.it",
    "name": "Museo storico Giuseppe Garibaldi",
    "opening_hours": "Tu-Su 10:00-18:00; Mo off; Jan 1, Jan 6, Nov 1, Dec 25-26 off",
    "phone": "+39 031 252550",
    "tourism": "museum",
    "website": "http://visitcomo.eu/it/scoprire/musei/museo-storico/index.html",
    "wikidata": "Q3868468",
    "wikipedia": "it:Museo storico Giuseppe Garibaldi"
  }
},
{
  "type": "node",
  "id": 2940793417,
  "lat": 45.5739561,
  "lon": 8.9246735,
  "tags": {
    "addr:city": "Canegrate",
    "addr:housenumber": "2",
    "addr:postcode": "20010",
    "addr:street": "Piazza Unità d'Italia",
    "fee": "no",
    "name": "Museo archeologico \"Ferrante Rittatore Vonwiller\"",
    "tourism": "museum",
    "wheelchair": "yes",
    "wikidata": "Q26678364"
  }
},
{
  "type": "node",
  "id": 2948098082,
  "lat": 45.5857633,
  "lon": 9.2783972,
  "tags": {
    "addr:city": "Monza",
    "addr:country": "IT",
    "addr:housenumber": "11",
    "addr:postcode": "20900",
    "addr:street": "Vicolo Scuole",
    "name": "Museo Mulino Colombo",
    "source": "survey",
    "tourism": "museum",
    "website": "http://www.memb.it/",
    "wikidata": "Q3867008",
    "wikipedia": "it:Mulino Colombo"
  }
},
{
  "type": "node",
  "id": 3042512522,
  "lat": 45.7546155,
  "lon": 8.8663377,
  "tags": {
    "name": "Museo Arte Plastica",
    "tourism": "museum"
  }
},
{
  "type": "node",
  "id": 3077368568,
  "lat": 45.8726217,
  "lon": 8.9879446,
  "tags": {
    "addr:city": "Mendrisio",
    "addr:country": "CH",
    "addr:postcode": "6850",
    "addr:street": "Piazza San Giovanni",
    "name": "Museo D'arte Mendrisio",
    "source": "website and survey",
    "tourism": "museum",
    "website": "http://www.mendrisio.ch/museo/",
    "wikidata": "Q27485112"
  }
},
{
  "type": "node",
  "id": 3083605084,
  "lat": 45.6135692,
  "lon": 8.8517126,
  "tags": {
    "addr:city": "Busto Arsizio",
    "addr:housenumber": "3",
    "addr:postcode": "21052",
    "addr:street": "Piazza Vittorio Emanuele II",
    "email": "museibusto@comune.bustoarsizio.va.it",
    "fee": "no",
    "name": "Civiche raccolte d'arte di palazzo Marliani-Cicogna",
    "opening_hours": "Tu,We,Th 14:30-18:00; Fr 09:30-13:00, 14:30-18:00; Sa 14:30-18:30; Su 15:00-18:30; Mo off",
    "phone": "+39 0331 390351",
    "tourism": "museum",
    "website": "https://www.comune.bustoarsizio.va.it/index.php/visita-busto/museopalazzomarlianicicogna/il-museo-e-la-sua-storia-cicogna",
    "wheelchair": "limited",
    "wikidata": "Q3678766",
    "wikipedia": "it:Civiche raccolte d'arte di palazzo Marliani-Cicogna"
  }
},
{
  "type": "node",
  "id": 3223231796,
  "lat": 45.8517871,
  "lon": 9.3984030,
  "tags": {
    "name": "Civico museo manzoniano",
    "tourism": "museum",
    "wikidata": "Q3678773",
    "wikipedia": "it:Civico museo manzoniano"
  }
},
{
  "type": "node",
  "id": 3267434936,
  "lat": 45.8639988,
  "lon": 8.9500771,
  "tags": {
    "addr:city": "Ligornetto",
    "addr:country": "CH",
    "addr:postcode": "6853",
    "addr:street": "Largo Vincenzo Vela",
    "name": "Museo Vincenzo Vela",
    "phone": "+41 58 481 30 44",
    "tourism": "museum",
    "website": "https://www.museo-vela.ch/",
    "wikidata": "Q3867651",
    "wikipedia": "it:Museo Vincenzo Vela"
  }
},
{
  "type": "node",
  "id": 3267434937,
  "lat": 45.8717356,
  "lon": 8.9688686,
  "tags": {
    "addr:city": "Rancate",
    "addr:country": "CH",
    "addr:postcode": "6862",
    "name": "Pinacoteca cantonale Giovanni Züst",
    "phone": "+41 91 816 47 91",
    "tourism": "museum",
    "website": "http://www.ti.ch/zuest",
    "wikidata": "Q3905095",
    "wikipedia": "it:Pinacoteca cantonale Giovanni Züst"
  }
},
{
  "type": "node",
  "id": 3323252267,
  "lat": 45.8369309,
  "lon": 9.0267156,
  "tags": {
    "addr:city": "Chiasso",
    "addr:country": "CH",
    "addr:housenumber": "6",
    "addr:postcode": "6830",
    "addr:street": "Via Dante Alighieri",
    "name": "m.a.x. museo",
    "opening_hours": "Th-Su 10:00-12:00,15:00-18:00; Mo off",
    "operator": "Centro culturale Chiasso - Comune di Chiasso",
    "phone": "+41 91 690 11 50",
    "source": "website and survey",
    "tourism": "museum",
    "website": "http://www.maxmuseo.ch",
    "wikidata": "Q16574566",
    "wikipedia": "it:M.a.x.museo"
  }
},
{
  "type": "node",
  "id": 3323252272,
  "lat": 45.8371006,
  "lon": 9.0270546,
  "tags": {
    "addr:city": "Chiasso",
    "addr:housenumber": "4",
    "addr:postcode": "6830",
    "addr:street": "Via Dante Alighieri",
    "name": "Spazio officina",
    "operator": "Centro culturale Chiasso - Comune di Chiasso",
    "tourism": "museum",
    "wikidata": "Q16574566",
    "wikipedia": "it:M.a.x.museo"
  }
},
{
  "type": "node",
  "id": 3328234456,
  "lat": 45.5289955,
  "lon": 9.2234812,
  "tags": {
    "addr:city": "Sesto San Giovanni",
    "addr:country": "IT",
    "addr:housenumber": "1",
    "addr:postcode": "20099",
    "addr:street": "Via Luigi Granelli",
    "name": "Archivio Giovanni Sacchi",
    "phone": "+39 02 36682271",
    "tourism": "museum",
    "website": "www.archiviosacchi.it"
  }
},
{
  "type": "node",
  "id": 3338354831,
  "lat": 45.9963219,
  "lon": 8.9465890,
  "tags": {
    "name": "Museo d'Arte",
    "tourism": "museum",
    "website": "http://www.mdam.ch",
    "wikidata": "Q3329637"
  }
},
{
  "type": "node",
  "id": 3404229693,
  "lat": 45.6160324,
  "lon": 8.8464046,
  "tags": {
    "addr:city": "Busto Arsizio",
    "addr:housenumber": "2",
    "addr:postcode": "21052",
    "addr:street": "Via Luigi Galvani",
    "alt_name": "Museo della Scherma",
    "fee": "no",
    "name": "Agorà della Scherma",
    "tourism": "museum",
    "wheelchair": "yes",
    "wikidata": "Q21076223",
    "wikipedia": "it:Agorà della Scherma"
  }
},
{
  "type": "node",
  "id": 3758964483,
  "lat": 46.0058981,
  "lon": 8.9565451,
  "tags": {
    "name": "fondazione Filippo Ciani",
    "tourism": "museum"
  }
},
{
  "type": "node",
  "id": 3758964728,
  "lat": 45.6120284,
  "lon": 9.3710021,
  "tags": {
    "addr:city": "Vimercate",
    "addr:country": "IT",
    "addr:housenumber": "53",
    "addr:postcode": "20871",
    "addr:street": "Via Vittorio Emanuele II",
    "alt_name": "Museo del Territorio Vimercatese",
    "name": "MUST",
    "opening_hours": "We,Th 10:00-13:00; Fr-Su 10:00-13:00,15:00-19:00",
    "phone": "+39 039 6659488",
    "start_date": "2010",
    "tourism": "museum",
    "website": "http://www.museomust.it/",
    "wikidata": "Q3867978",
    "wikipedia": "it:Museo del territorio vimercatese"
  }
},
{
  "type": "node",
  "id": 3810549825,
  "lat": 45.5713569,
  "lon": 9.0265401,
  "tags": {
    "name": "Villa Visconti Borromeo Arese Litta",
    "tourism": "museum"
  }
},
{
  "type": "node",
  "id": 3816747721,
  "lat": 45.8800485,
  "lon": 8.6753116,
  "tags": {
    "addr:city": "Gemonio",
    "addr:country": "IT",
    "addr:housenumber": "11",
    "addr:postcode": "21036",
    "addr:street": "Via Marsala",
    "name": "Museo Civico Floriano Bodini",
    "phone": "+39 0332 604276",
    "source": "http://www.amicimuseobodini.com/",
    "tourism": "museum"
  }
},
{
  "type": "node",
  "id": 4076044033,
  "lat": 45.8906002,
  "lon": 8.9515798,
  "tags": {
    "addr:city": "Meride",
    "addr:country": "CH",
    "addr:housenumber": "2",
    "addr:street": "Via Bernardo Peyer",
    "name": "Museo d'Arte Sacra di Meride - Estensione Scalmegna",
    "tourism": "museum",
    "website": "http://museoartesacrameride.ch"
  }
},
{
  "type": "node",
  "id": 4076044034,
  "lat": 45.8901860,
  "lon": 8.9535764,
  "tags": {
    "addr:city": "Meride",
    "addr:country": "CH",
    "addr:housenumber": "2",
    "addr:street": "Piazza Mastri di Meride",
    "name": "Museo d'Arte Sacra di Meride",
    "tourism": "museum",
    "website": "http://museoartesacrameride.ch",
    "wikidata": "Q56876231"
  }
},
{
  "type": "node",
  "id": 4209053408,
  "lat": 45.8897316,
  "lon": 8.8897511,
  "tags": {
    "addr:housenumber": "5",
    "addr:street": "Via Pietro Prestini",
    "email": "museodibesano@tiscali.it",
    "name": "Museo civico dei fossili di Besano",
    "phone": "+39 349 2182498",
    "tourism": "museum",
    "wikidata": "Q3867804",
    "wikipedia": "it:Museo civico dei fossili di Besano"
  }
},
{
  "type": "node",
  "id": 4271193714,
  "lat": 45.7579490,
  "lon": 8.8646689,
  "tags": {
    "email": "info@museocollegiata.it",
    "name": "Museo della Collegiata",
    "opening_hours": "Tu-Su 10:00-13:00,15:00-18:00",
    "operator": "Parrocchia della Beata Vergine del Rosario",
    "phone": "+39 0331 858903",
    "tourism": "museum",
    "website": "http://www.museocollegiata.it/"
  }
},
{
  "type": "node",
  "id": 4315493742,
  "lat": 45.7789127,
  "lon": 8.8214421,
  "tags": {
    "addr:city": "Gazzada Schianno",
    "addr:country": "IT",
    "addr:housenumber": "17/19",
    "addr:postcode": "21045",
    "addr:street": "Via Guido Cagnola",
    "name": "Museo di Villa Cagnola",
    "start_date": "1946",
    "tourism": "museum",
    "wikidata": "Q16336129",
    "wikipedia": "it:Museo di Villa Cagnola"
  }
},
{
  "type": "node",
  "id": 4481609536,
  "lat": 45.9747501,
  "lon": 9.2462046,
  "tags": {
    "addr:city": "Bellagio",
    "name": "Museo degli Strumenti per la Navigazione",
    "phone": "031 950 309",
    "tourism": "museum",
    "website": "http://www.bellagiomuseo.com/"
  }
},
{
  "type": "node",
  "id": 4558296999,
  "lat": 45.6036651,
  "lon": 9.3002832,
  "tags": {
    "addr:city": "Villasanta",
    "addr:country": "IT",
    "addr:housenumber": "5",
    "addr:postcode": "20854",
    "addr:street": "Piazza Martiri di Belfiore",
    "name": "Museo d'Arte Sacra",
    "tourism": "museum"
  }
},
{
  "type": "node",
  "id": 4568622840,
  "lat": 45.9471441,
  "lon": 9.4682111,
  "tags": {
    "alt_name": "Museo Medardo Rosso",
    "email": "museo@medardorosso.org",
    "name": "Casa Gipsoteca di Medardo Rosso",
    "tourism": "museum",
    "website": "http://www.medardorosso.org/"
  }
},
{
  "type": "node",
  "id": 4587674241,
  "lat": 45.6150975,
  "lon": 8.8466040,
  "tags": {
    "fee": "no",
    "name": "Museo storico del ciclismo bustese",
    "tourism": "museum",
    "wikidata": "Q64896957"
  }
},
{
  "type": "node",
  "id": 4607776584,
  "lat": 45.8153886,
  "lon": 9.2158969,
  "tags": {
    "addr:city": "Erba",
    "addr:country": "IT",
    "addr:housenumber": "23",
    "addr:place": "Crevenna",
    "addr:postcode": "22036",
    "addr:street": "Via Ugo Foscolo",
    "email": "museoerba@libero.it",
    "fax": "031 - 3355341",
    "name": "Civico Museo di Erba",
    "opening_hours": "Tu 9:00-12:00,We,Fr 14:30-18:00",
    "operator": "Comune di Erba",
    "phone": "031 - 3355341",
    "tourism": "museum",
    "website": "http://www.comune.erba.co.it/html/monumenti/citta/monumenti/museo.html"
  }
},
{
  "type": "node",
  "id": 4901640737,
  "lat": 45.6113604,
  "lon": 8.9049338,
  "tags": {
    "addr:city": "Castellanza",
    "addr:country": "IT",
    "addr:housenumber": "2",
    "addr:postcode": "21053",
    "addr:street": "Via San Carlo",
    "name": "Museo didattico archeologico San Carlo",
    "tourism": "museum",
    "wikidata": "Q30148192"
  }
},
{
  "type": "node",
  "id": 4907188588,
  "lat": 45.5556900,
  "lon": 8.9476132,
  "tags": {
    "addr:city": "Parabiago",
    "addr:country": "IT",
    "addr:housenumber": "11",
    "addr:postcode": "20015",
    "addr:street": "Via Giovanni Randaccio",
    "name": "Museo Carla Musazzi",
    "tourism": "museum",
    "wikidata": "Q27992729"
  }
},
{
  "type": "node",
  "id": 5126049341,
  "lat": 45.5838351,
  "lon": 9.2758042,
  "tags": {
    "addr:city": "Monza",
    "addr:country": "IT",
    "addr:housenumber": "2",
    "addr:postcode": "20900",
    "addr:street": "Via Lambro",
    "email": "info@museoduomomonza.it",
    "fax": "+39 039 2300349",
    "fee": "yes",
    "level": "-1",
    "name": "Museo del Duomo",
    "opening_hours": "Tu-Su 09:00-18:00",
    "phone": "+39 039 326383",
    "tourism": "museum",
    "website": "http://www.museoduomomonza.it/Pages/",
    "wikidata": "Q3868346",
    "wikipedia": "it:Museo e tesoro del duomo di Monza"
  }
},
{
  "type": "node",
  "id": 5146174371,
  "lat": 45.8931202,
  "lon": 9.3879193,
  "tags": {
    "name": "Casa Museo di Villa Gerosa",
    "tourism": "museum",
    "website": "http://www.sistemamuseale.provincia.lecco.it/index.php/musei-naturalistico-scientifici/casa-museo-villa-gerosa-piani-resinelli"
  }
},
{
  "type": "node",
  "id": 5204142503,
  "lat": 45.5308160,
  "lon": 9.1889688,
  "tags": {
    "name": "Zambon",
    "tourism": "museum"
  }
},
{
  "type": "node",
  "id": 5270173062,
  "lat": 45.9274763,
  "lon": 9.0451370,
  "tags": {
    "fee": "no",
    "mapillary": "wlLMil8Nj9YdmCQQBxTIrA",
    "name": "Museo della Guardia di Finanza e del Contrabbando",
    "official_name": "Piccolo Museo della Guardia di Finanza e del Contrabbando \"Burlanda e Sfrüsaduu\"",
    "start_date": "2002",
    "tourism": "museum"
  }
},
{
  "type": "node",
  "id": 5288159522,
  "lat": 45.8374961,
  "lon": 9.0730563,
  "tags": {
    "name": "Museo di Villa Bernasconi",
    "tourism": "museum",
    "website": "https://www.villabernasconi.eu/",
    "wheelchair": "yes"
  }
},
{
  "type": "node",
  "id": 5295393110,
  "lat": 45.8534645,
  "lon": 9.2973381,
  "tags": {
    "level": "1",
    "name": "Museo degli Alpeggi",
    "tourism": "museum"
  }
},
{
  "type": "node",
  "id": 5496084732,
  "lat": 45.7349434,
  "lon": 8.9080053,
  "tags": {
    "addr:city": "Venegono Inferiore",
    "addr:housenumber": "32",
    "addr:postcode": "21040",
    "addr:street": "Via Pio XI",
    "name": "Museo di Storia Naturale \"A. Stoppani\"",
    "operator": "Seminario Arcivescovile di Milano",
    "tourism": "museum",
    "wheelchair": "yes"
  }
},
{
  "type": "node",
  "id": 5632167500,
  "lat": 45.7302057,
  "lon": 9.3434791,
  "tags": {
    "addr:city": "Sirtori",
    "addr:housenumber": "39",
    "addr:postcode": "23839",
    "addr:street": "Via Belvedere",
    "name": "Museo dei 3 tetti",
    "phone": "+39 039 955936",
    "tourism": "museum",
    "website": "http://museo3tetti.it",
    "website_1": "http://www.giorgiorivaopere.it"
  }
},
{
  "type": "node",
  "id": 5731931927,
  "lat": 45.5589916,
  "lon": 8.9456794,
  "tags": {
    "addr:city": "Parabiago",
    "addr:country": "IT",
    "addr:housenumber": "20",
    "addr:postcode": "20015",
    "addr:street": "Via Don A. Galeazzi",
    "name": "Officina Rancilio 1926",
    "opening_hours": "Mo-Fr 09:00-13:00",
    "start_date": "2010",
    "tourism": "museum",
    "website": "http://www.officinarancilio1926.com/",
    "wikidata": "Q16337402",
    "wikipedia": "it:Officina Rancilio 1926"
  }
},
{
  "type": "node",
  "id": 5957023291,
  "lat": 45.8511910,
  "lon": 8.9392328,
  "tags": {
    "name": "Museo della civiltà contadina del Mendrisiotto",
    "tourism": "museum",
    "wikidata": "Q27488998"
  }
},
{
  "type": "node",
  "id": 5965904240,
  "lat": 45.8423523,
  "lon": 9.0044951,
  "tags": {
    "name": "Museo del caffè",
    "tourism": "museum",
    "wikidata": "Q27479712"
  }
},
{
  "type": "node",
  "id": 5965908625,
  "lat": 45.8630442,
  "lon": 8.9542439,
  "tags": {
    "name": "Casa Pessina",
    "tourism": "museum",
    "wikidata": "Q56876201"
  }
},
{
  "type": "node",
  "id": 5965913549,
  "lat": 45.8983451,
  "lon": 9.0462151,
  "tags": {
    "name": "Museo etnografico della Valle di Muggio",
    "tourism": "museum"
  }
},
{
  "type": "node",
  "id": 5965929923,
  "lat": 46.0114300,
  "lon": 8.9978622,
  "tags": {
    "name": "Museo Wilhelm Schmid",
    "tourism": "museum",
    "wikidata": "Q27484989"
  }
},
{
  "type": "node",
  "id": 5965945611,
  "lat": 46.0721605,
  "lon": 8.9501419,
  "tags": {
    "name": "Museo del Bigorio",
    "tourism": "museum",
    "wikidata": "Q27479959"
  }
},
{
  "type": "node",
  "id": 5965978762,
  "lat": 45.9019974,
  "lon": 8.9713776,
  "tags": {
    "name": "Museo degli oggetti del passato",
    "tourism": "museum",
    "wikidata": "Q56876362"
  }
},
{
  "type": "node",
  "id": 5965986502,
  "lat": 46.0705861,
  "lon": 8.9638829,
  "tags": {
    "name": "Casa museo Luigi Rossi",
    "tourism": "museum",
    "wikidata": "Q56877185"
  }
},
{
  "type": "node",
  "id": 5965986555,
  "lat": 45.9840868,
  "lon": 8.9426295,
  "tags": {
    "name": "Museo Mario Bernasconi",
    "tourism": "museum",
    "wikidata": "Q27484986"
  }
},
{
  "type": "node",
  "id": 5965986807,
  "lat": 45.9742581,
  "lon": 8.8762078,
  "tags": {
    "alt_name": "Museo della fotografia",
    "name": "Museo della fotografia di Caslano",
    "tourism": "museum",
    "wikidata": "Q56876312"
  }
},
{
  "type": "node",
  "id": 5965992588,
  "lat": 46.0015431,
  "lon": 8.9772637,
  "tags": {
    "name": "Museo Rainis e Aspazija",
    "tourism": "museum",
    "wikidata": "Q56876366"
  }
},
{
  "type": "node",
  "id": 5966021029,
  "lat": 45.9907545,
  "lon": 8.8391153,
  "tags": {
    "name": "Museo della grappa",
    "tourism": "museum",
    "wikidata": "Q56876315"
  }
},
{
  "type": "node",
  "id": 5966027663,
  "lat": 45.9679036,
  "lon": 8.8585190,
  "tags": {
    "name": "Museo della ferrovia Lugano-Ponte Tresa",
    "tourism": "museum",
    "wikidata": "Q27478267"
  }
},
{
  "type": "node",
  "id": 5966110695,
  "lat": 46.0034131,
  "lon": 8.8107372,
  "tags": {
    "name": "Piccolo Museo di Sessa e Monteggio",
    "tourism": "museum",
    "wikidata": "Q56876620"
  }
},
{
  "type": "node",
  "id": 5966126052,
  "lat": 46.0261922,
  "lon": 8.9525801,
  "tags": {
    "name": "Museo Villa Pia",
    "tourism": "museum",
    "wikidata": "Q56876370"
  }
},
{
  "type": "node",
  "id": 5966152456,
  "lat": 46.0264477,
  "lon": 8.9740492,
  "tags": {
    "name": "Memorial Room Clay Regazzoni",
    "tourism": "museum",
    "wikidata": "Q56876225"
  }
},
{
  "type": "node",
  "id": 5966155401,
  "lat": 45.9726898,
  "lon": 8.8826837,
  "tags": {
    "name": "Museo Sergio Maina",
    "tourism": "museum",
    "wikidata": "Q56876368"
  }
},
{
  "type": "node",
  "id": 5966164221,
  "lat": 45.9882661,
  "lon": 8.9276910,
  "tags": {
    "name": "Museo di Arte Sacra di Gentilino",
    "tourism": "museum",
    "wikidata": "Q56876330"
  }
},
{
  "type": "node",
  "id": 5966165780,
  "lat": 46.0280224,
  "lon": 8.9693908,
  "tags": {
    "name": "Museo della Tipografia Renato Fontana",
    "tourism": "museum",
    "wikidata": "Q56876320"
  }
},
{
  "type": "node",
  "id": 5980969228,
  "lat": 46.0041406,
  "lon": 8.9606307,
  "tags": {
    "name": "Museo cantonale di storia natuale",
    "tourism": "museum"
  }
},
{
  "type": "node",
  "id": 6171461888,
  "lat": 45.9180236,
  "lon": 9.3190469,
  "tags": {
    "name": "L'Antica Officina",
    "tourism": "museum"
  }
},
{
  "type": "node",
  "id": 6423577435,
  "lat": 45.7007374,
  "lon": 9.2472762,
  "tags": {
    "addr:city": "Briosco",
    "addr:housenumber": "3",
    "addr:postcode": "20836",
    "addr:street": "Via Col del Freyus",
    "description": "Un piccolo, ma molto significativo, nucleo di opere esposte all’interno è costituito dalle sculture di quegli autori che, per primi in Italia, intrapresero la rivoluzione dell’astrazione in scultura.",
    "email": "info@rossiniartsite.com",
    "name": "Rossini Art Site",
    "opening_hours": "Apr-May-Jun-Sep-Oct-:Th-Fr-Sa-Su 10:30-18:30; Jul-Aug: Su 10:30-18:30; Aug 11-18 off",
    "phone": "+39 0362 827761",
    "tourism": "museum",
    "website": "http://www.rossiniartsite.com"
  }
},
{
  "type": "node",
  "id": 6423743236,
  "lat": 45.8073313,
  "lon": 9.0832806,
  "tags": {
    "addr:city": "Como",
    "addr:housenumber": "84",
    "addr:postcode": "22100",
    "addr:street": "Via Armando Diaz",
    "email": "musei.civici@comune.como.it",
    "name": "Pinacoteca Civica",
    "opening_hours": "Tu-Su 10:00-18:00; Mo off; Jan 1, Jan 6, Nov 1, Dec 25-26 off",
    "phone": "+39 031 269869",
    "tourism": "museum",
    "website": "http://visitcomo.eu/it/scoprire/musei/pinacoteca-civica/index.html",
    "wheelchair": "yes"
  }
},
{
  "type": "node",
  "id": 6423807641,
  "lat": 46.0214005,
  "lon": 9.0333362,
  "tags": {
    "addr:city": "Valsolda",
    "addr:housenumber": "14",
    "addr:postcode": "22010",
    "addr:street": "Via Fogazzaro",
    "email": "faifogazzaro@fondoambiente.it",
    "name": "Villa Fogazzaro Roi",
    "opening_hours": "We,Th,Fr,Sa,Su 10:00-18:00; PH Mo,Tu 10:00-18:00; Dec 2- Mar 15 off",
    "phone": "+39 335 7275054",
    "tourism": "museum",
    "website": "https://www.fondoambiente.it/luoghi/villa-fogazzaro-roi"
  }
},
{
  "type": "node",
  "id": 6424853356,
  "lat": 45.5178050,
  "lon": 9.1893394,
  "tags": {
    "addr:city": "Milano",
    "addr:housenumber": "8",
    "addr:postcode": "20162",
    "addr:street": "Via Giovanni Terruggia",
    "contact:email": "galleria@villaclerici.it",
    "contact:fax": "+39 02 66103051",
    "contact:phone": "+39 02 64700662",
    "contact:website": "http://www.villaclerici.it/galleria-darte-sacra-dei-contemporanei/",
    "name": "Galleria d'Arte Sacra dei Contemporanei",
    "opening_hours": "Th 15:00-20:00; Fr 15:00-18:00; Sa-Su 10:00-18:00",
    "ref:vatin": "IT06040940154",
    "short_name": "GASC",
    "tourism": "museum"
  }
},
{
  "type": "node",
  "id": 6432767564,
  "lat": 45.5707409,
  "lon": 8.9573765,
  "tags": {
    "name": "Crespi Museum",
    "tourism": "museum"
  }
},
{
  "type": "node",
  "id": 6441337817,
  "lat": 45.8441500,
  "lon": 8.8148559,
  "tags": {
    "addr:city": "Varese",
    "addr:housenumber": "46",
    "addr:postcode": "21100",
    "addr:street": "Viale Giambattista Vico",
    "email": "info@museocastiglioni.it",
    "name": "Museo Castiglioni",
    "opening_hours": "Th-Su 10:00-13:00, 14:00-18:00; Mo-We off",
    "phone": "+39 0332 1692429",
    "tourism": "museum",
    "website": "http://museocastiglioni.it"
  }
},
{
  "type": "node",
  "id": 6445359162,
  "lat": 45.7129763,
  "lon": 8.9009508,
  "tags": {
    "addr:city": "Tradate",
    "addr:country": "IT",
    "addr:housenumber": "25/B",
    "addr:postcode": "21049",
    "addr:street": "Via Giacomo Bianchi",
    "email": "fisogni@museo-fisogni.org",
    "name": "Museo Fisogni",
    "phone": "+39 335 6777118",
    "tourism": "museum",
    "website": "http://www.museo-fisogni.org/",
    "wikidata": "Q21328979",
    "wikipedia": "it:Museo Fisogni"
  }
},
{
  "type": "node",
  "id": 6455927608,
  "lat": 45.8595809,
  "lon": 9.3976931,
  "tags": {
    "addr:city": "Lecco",
    "addr:housenumber": "32",
    "addr:postcode": "23900",
    "addr:street": "Corso Giacomo Matteotti",
    "email": "segreteria.meseo@comune.lecco.it",
    "name": "Museo Archeologico Storico Storia Naturale",
    "opening_hours": "Tu-Fr 09:00-14:30; Sa,Su,10:00-18:30; Mo off; Easter+, Apr 25, Aug 15 open",
    "phone": "+39 0341 286078",
    "tourism": "museum",
    "website": "http://www.museilecco.org/oraritariffe.htm"
  }
},
{
  "type": "node",
  "id": 6574732431,
  "lat": 46.0342285,
  "lon": 9.3304127,
  "tags": {
    "addr:city": "Vendrogno",
    "addr:housenumber": "1",
    "addr:street": "Via Parrocchiale",
    "mapillary": "jxISfx7pSRkLKEFaNgjiaw",
    "name": "Museo del Latte e della Storia della Muggiasca",
    "phone": "+39 333 3823413",
    "tourism": "museum",
    "website": "http://www.muu-vendrogno.it/"
  }
},
{
  "type": "node",
  "id": 6776748235,
  "lat": 46.0432621,
  "lon": 9.3025827,
  "tags": {
    "museum": "music;history",
    "museum_type": "municipial",
    "name": "La Cà dei radio vecc",
    "tourism": "museum"
  }
},
{
  "type": "way",
  "id": 30626355,
  "nodes": [
    338741751,
    2529802241,
    2529802239,
    2529802240,
    2529802242,
    338741752,
    338741753,
    338741754,
    338741751
  ],
  "tags": {
    "addr:city": "Como",
    "addr:postcode": "22100",
    "addr:street": "Viale Guglielmo Marconi",
    "building": "public",
    "email": "musei.civici@comune.como.it",
    "name": "Tempio Voltiano",
    "name:fr": "Temple de Volta",
    "name:it": "Tempio Voltiano",
    "opening_hours": "Tu-Su 10:00-18:00; Mo off; Jan 1, Jan 6, Nov 1, Dec 25-26 off",
    "phone": "+39 031 574705",
    "source": "ricalco dalla CTR al tratto",
    "tourism": "museum",
    "website": "http://visitcomo.eu/it/scoprire/musei/tempio-voltiano/index.html",
    "wikidata": "Q3517634",
    "wikipedia": "it:Tempio Voltiano"
  }
},
{
  "type": "way",
  "id": 39244148,
  "nodes": [
    470212868,
    3763137287,
    470212869,
    2936810705,
    470212870,
    470212871,
    470212868
  ],
  "tags": {
    "building": "yes",
    "tourism": "museum"
  }
},
{
  "type": "way",
  "id": 39265748,
  "nodes": [
    470494832,
    470494833,
    470494834,
    470494836,
    470494832
  ],
  "tags": {
    "addr:city": "Tremezzina",
    "addr:country": "IT",
    "addr:housename": "Villa Carlotta",
    "addr:housenumber": "2",
    "addr:place": "Tremezzo",
    "addr:postcode": "22019",
    "addr:street": "Via Regina",
    "building": "villa",
    "email": "museo@villacarlotta.it",
    "fax": "+39 0344 43689",
    "historic": "villa",
    "name": "Villa Carlotta",
    "opening_hours": "22 Mar-29 Sep: 09:00-19:30; 30 Sep-27Oct: 09:0-18:30; 28 Oct-3 Nov: 10:00-17:00; 2019 Dec 6-7-8: 10:00-17:00",
    "phone": "+39 0344 40405",
    "source": "PCN ortofoto a colori 2006, CTR al tratto",
    "start_date": "late C17",
    "tourism": "museum",
    "website": "http://www.villacarlotta.it",
    "wheelchair": "no",
    "wikidata": "Q533156",
    "wikipedia": "it:Villa Carlotta"
  }
},
{
  "type": "way",
  "id": 56323419,
  "nodes": [
    706688179,
    706688181,
    706688183,
    706688211,
    706688217,
    706688221,
    706688224,
    706688229,
    706688179
  ],
  "tags": {
    "addr:city": "Morbio Inferiore",
    "addr:country": "CH",
    "addr:postcode": "6834",
    "building": "yes",
    "name": "La Saceba",
    "operator": "Fondazione Parco delle Gole della Breggia",
    "tourism": "museum",
    "website": "https://www.parcobreggia.ch/node/140",
    "wikipedia": "it:Parco delle gole della Breggia#La Saceba e il Percorso del Cemento"
  }
},
{
  "type": "way",
  "id": 68810349,
  "nodes": [
    826760990,
    826760900,
    826761141,
    826760935,
    826761000,
    826761232,
    826760990
  ],
  "tags": {
    "building": "yes",
    "layer": "1",
    "name": "Museo Doganale Svizzero",
    "tourism": "museum",
    "wikidata": "Q1725173"
  }
},
{
  "type": "way",
  "id": 71834564,
  "nodes": [
    853677874,
    853677795,
    853678474,
    853678352,
    853678230,
    853677874
  ],
  "tags": {
    "addr:city": "Magreglio",
    "addr:housenumber": "4",
    "addr:postcode": "22030",
    "addr:street": "Via Gino Bartali",
    "building": "yes",
    "email": "info@museodelghisallo.it",
    "name": "Museo del Ciclismo Madonna Del Ghisallo",
    "opening_hours": "Mar[Sa 1]-Oct[Do -1]: Mo-Sa 09:30-17:30; Nov-Feb off",
    "phone": "+39 031 965885",
    "tourism": "museum",
    "website": "https://www.museodelghisallo.it/it/"
  }
},
{
  "type": "way",
  "id": 96255563,
  "nodes": [
    1115729604,
    3416262942,
    3416262943,
    1128573662,
    3416262945,
    1115729627,
    3404223013,
    3404223016,
    1115729635,
    3416262940,
    3845880060,
    1115729604
  ],
  "tags": {
    "addr:city": "Busto Arsizio",
    "addr:housenumber": "6",
    "addr:postcode": "21052",
    "addr:street": "Via Alessandro Volta",
    "alt_name": "Museo del tessile",
    "building": "yes",
    "building:height": "8",
    "email": "museibusto@comune.bustoarsizio.va.it",
    "fee": "no",
    "name": "Museo del tessile e della tradizione industriale bustese",
    "opening_hours": "Tu,We,Th 14:30-18:00; Fr 09:30-13:00, 14:30-18:00; Sa 14:30-18:30; Su 15:00-18:30",
    "phone": "+39 0331 390351",
    "tourism": "museum",
    "website": "https://www.comune.bustoarsizio.va.it/index.php/visita-busto/museo-del-tessile",
    "wheelchair": "yes",
    "wikipedia": "it:Museo del tessile e della tradizione industriale di Busto Arsizio"
  }
},
{
  "type": "way",
  "id": 109012649,
  "nodes": [
    1249271216,
    1249271113,
    1249271308,
    1249271520,
    1249271216
  ],
  "tags": {
    "alt_name": "Torre di Maggiana",
    "historic": "tower",
    "man_made": "tower",
    "mapillary": "Vj8jLr4xD7dAcXsOoX-k3w",
    "name": "Torre del Barbarossa",
    "opening_hours": "\"by appointment\"",
    "operator": "Gruppo Amici di Maggiana",
    "source": "PCN ortofoto_colore 2006 - autorizzazione 10687/TRI, survey",
    "start_date": "before 1158",
    "tourism": "museum",
    "tower:type": "observation"
  }
},
{
  "type": "way",
  "id": 109733832,
  "nodes": [
    1255393161,
    1255393119,
    1255393128,
    1255393136,
    1255393161
  ],
  "tags": {
    "addr:city": "Saronno",
    "addr:housenumber": "9",
    "addr:postcode": "21047",
    "addr:street": "Via Felice Carcano",
    "building": "yes",
    "email": "info@museogianetti.it",
    "name": "Museo della Ceramica G.Gianetti",
    "opening_hours": "Tu,Th 15:00-18:00; Sa 15:00-19:00",
    "phone": "+39 02 9602383",
    "tourism": "museum",
    "website": "http://www.museogianetti.it/"
  }
},
{
  "type": "way",
  "id": 109754751,
  "nodes": [
    1255565678,
    4478866645,
    2937000308,
    2937000307,
    1255565971,
    1255566046,
    1255565852,
    6263533326,
    6263533325,
    1255565678
  ],
  "tags": {
    "addr:city": "Varenna",
    "addr:housenumber": "4",
    "addr:postcode": "23829",
    "addr:street": "Viale Giovanni Polvani",
    "building": "yes",
    "description": "Villa Monastero è una delle principali attrattive del territorio per la sua posizione strategica; la Casa Museo  è interamente accessibile al pubblico con il suo percorso espositivo che si sviluppa in 14 sale. Per orari di apertura contattare il museo.",
    "email": "villa.monastero@provincia.lecco.it",
    "name": "Villa Monastero",
    "phone": "+39 0341 295450",
    "tourism": "museum",
    "website": "http://www.villamonastero.eu/"
  }
},
{
  "type": "way",
  "id": 113041871,
  "nodes": [
    1283165788,
    1283165661,
    1283165855,
    1283165899,
    1283165699,
    1283165745,
    1283165788
  ],
  "tags": {
    "building": "yes",
    "name": "Casa dei Presepi",
    "tourism": "museum"
  }
},
{
  "type": "way",
  "id": 128121985,
  "nodes": [
    1416531830,
    1416531836,
    1416532183,
    1416531839,
    1416531830
  ],
  "tags": {
    "tourism": "museum"
  }
},
{
  "type": "way",
  "id": 139146135,
  "nodes": [
    4035737275,
    1524947738,
    1524947736,
    1524947727,
    1524947725,
    1524947702,
    1524947696,
    1524947599,
    1524947361,
    2078952107,
    2078952111,
    1524947548,
    1524947546,
    1524947537,
    2078952096,
    2078952093,
    3936229227,
    3936229226,
    3936229225,
    3936229213,
    4550838781,
    1546870712,
    1524947402,
    1524947405,
    1524947437,
    1524947441,
    2486499386,
    4035737276,
    4035737275
  ],
  "tags": {
    "addr:city": "Somma Lombardo",
    "addr:country": "IT",
    "addr:housenumber": "15",
    "addr:postcode": "21019",
    "addr:street": "Via per Tornavento",
    "description": "Parco e museo del volo \"Volandia\" Malpensa",
    "email": "info@volandia.it",
    "name": "Volandia",
    "note": "Area ex officine aeronautiche Caproni",
    "opening_hours": "Tu-Su 10:00-18:00; May-Sep: Su,PH 10:00-19:00",
    "phone": "+39 0331 230642",
    "tourism": "museum",
    "website": "http://www.volandia.it",
    "wikidata": "Q4016080",
    "wikipedia": "it:Volandia"
  }
},
{
  "type": "way",
  "id": 140202334,
  "nodes": [
    1536017686,
    1536017684,
    1536017687,
    1536017688,
    1536017689,
    1536017686
  ],
  "tags": {
    "addr:city": "Cormano",
    "addr:country": "IT",
    "addr:housenumber": "33",
    "addr:postcode": "20032",
    "addr:street": "Via Fabio Filzi",
    "email": "info@museodellecomunicazioni.org",
    "name": "Museo delle Comunicazioni Lucia e Francesca",
    "opening_hours": "\"su prenotazione\"",
    "operator": "Fondazione Museo delle Comunicazioni",
    "phone": "+39 335 8405192",
    "source": "survey",
    "start_date": "1995",
    "tourism": "museum",
    "website": "http://www.museodellecomunicazioni.org"
  }
},
{
  "type": "way",
  "id": 140736214,
  "nodes": [
    1541223866,
    1541223865,
    1541223868,
    1541223867,
    1541223869,
    1541223871,
    1541223874,
    1541223886,
    1541223866
  ],
  "tags": {
    "building": "yes",
    "name": "Museo Artisti Viggiutesi",
    "tourism": "museum"
  }
},
{
  "type": "way",
  "id": 140736216,
  "nodes": [
    1541223864,
    1541223861,
    1541223862,
    1541223850,
    1541223849,
    1541223848,
    1541223847,
    1541223846,
    1541223845,
    1541223851,
    1541223858,
    1541223863,
    1541223864
  ],
  "tags": {
    "building": "yes",
    "name": "Museo Enrico Butti",
    "tourism": "museum",
    "wikipedia": "it:Museo Enrico Butti"
  }
},
{
  "type": "way",
  "id": 172595000,
  "nodes": [
    1834844496,
    3942384178,
    3942384180,
    3942384179,
    3942384177,
    1834844494,
    1834844490,
    1834844493,
    1834844496
  ],
  "tags": {
    "addr:city": "Caslano",
    "addr:street": "Via Rompada",
    "building": "yes",
    "fee": "fee: 3€/1€",
    "name": "Museo del Cioccolato Alprose",
    "name:en": "Alprose Chocolate Museum",
    "name:it": "Museo del Cioccolato Alprose",
    "opening_hours": "Mo-Fr 09:00-17:30; Sa-Su 09:00-16:30",
    "tourism": "museum",
    "website": "http://www.alprose.ch/",
    "wikidata": "Q56876232"
  }
},
{
  "type": "way",
  "id": 176009481,
  "nodes": [
    1865693321,
    1865693325,
    1865693319,
    1865693337,
    1865693334,
    1865693335,
    1865693323,
    1865693333,
    1865693329,
    1865693314,
    1865693307,
    1865693294,
    1865693317,
    1865693309,
    1865693292,
    1865693288,
    1865693286,
    1865693321
  ],
  "tags": {
    "building": "yes",
    "name": "Museo della motocicletta Frera",
    "tourism": "museum"
  }
},
{
  "type": "way",
  "id": 186808701,
  "nodes": [
    1975572722,
    1975572724,
    1975572710,
    1975572708,
    1975572722
  ],
  "tags": {
    "building": "yes",
    "name": "Galleria Civica",
    "tourism": "museum"
  }
},
{
  "type": "way",
  "id": 195463174,
  "nodes": [
    2059147667,
    2059147666,
    2059147668,
    2059147669,
    2059147667
  ],
  "tags": {
    "building": "civic",
    "name": "Museo Piero Gauli",
    "tourism": "museum",
    "website": "http://cultura.provincia.como.it/cultura/sistemamuseale/nScheda.asp?CODICE=MC073&CDIT=SM53&Sapere=Yes"
  }
},
{
  "type": "way",
  "id": 196602310,
  "nodes": [
    2069165596,
    2069165597,
    3331957859,
    2069165595,
    2069165589,
    4125344054,
    4125344056,
    4125343774,
    4125343776,
    2069165596
  ],
  "tags": {
    "building": "public",
    "email": "galleria@campari.com",
    "fee": "no",
    "name": "Galleria Campari",
    "opening_hours": "Tu-Fr 10:00-13:00,14:00-18:30; We off",
    "phone": "+39 02 62251",
    "tourism": "museum"
  }
},
{
  "type": "way",
  "id": 219468375,
  "nodes": [
    2286186131,
    2286186130,
    2286186134,
    2286186133,
    2286186131
  ],
  "tags": {
    "addr:housename": "Villa Heleneum",
    "addr:housenumber": "26",
    "addr:postcode": "6976",
    "addr:street": "Via Cortivo",
    "building": "public",
    "name": "Museo delle Culture",
    "tourism": "museum",
    "wikidata": "Q665206"
  }
},
{
  "type": "way",
  "id": 223393149,
  "nodes": [
    2322955966,
    2322955968,
    2329334865,
    2322955970,
    2322955974,
    2322955977,
    2322955972,
    2322955973,
    2322955975,
    2322955976,
    2322955971,
    2322955969,
    2322955967,
    2440652142,
    2440652141,
    2332328921,
    2322955966
  ],
  "tags": {
    "building": "place_of_worship",
    "historic": "yes",
    "name": "Museo di Arte Sacra di San Michele Arcangelo",
    "tourism": "museum",
    "wikidata": "Q3868205",
    "wikipedia": "it:Museo di arte sacra di San Michele Arcangelo"
  }
},
{
  "type": "way",
  "id": 235127799,
  "nodes": [
    2432179689,
    2432179713,
    2432179640,
    2432179724,
    2432179689
  ],
  "tags": {
    "building": "public",
    "name": "Casa Pasquée",
    "tourism": "museum"
  }
},
{
  "type": "way",
  "id": 238360362,
  "nodes": [
    2462018064,
    2462018062,
    2462018060,
    2462018058,
    3025589536,
    3025589537,
    2462018059,
    2462018061,
    2462018063,
    2462018069,
    2462018066,
    2462018065,
    2462018064
  ],
  "tags": {
    "addr:city": "Mendrisio",
    "addr:country": "CH",
    "addr:housenumber": "24",
    "addr:postcode": "6850",
    "addr:street": "Via Stefano Franscini",
    "building": "yes",
    "name": "Galleria Baumgartner",
    "tourism": "museum",
    "website": "http://www.gb-trains.ch",
    "wikidata": "Q27485108"
  }
},
{
  "type": "way",
  "id": 259338174,
  "nodes": [
    2647337541,
    2647337543,
    5239748092,
    5239748093,
    2647337547,
    6111731588,
    2647337563,
    2647337565,
    4163685931,
    6111731587,
    2647337541
  ],
  "tags": {
    "amenity": "theatre",
    "architect": "Ivano Gianola",
    "building": "yes",
    "fitting_room": "yes",
    "name": "LAC - Lugano Arte e Cultura",
    "opening_date": "2015",
    "toilets:wheelchair": "yes",
    "tourism": "museum",
    "wardrobe": "yes",
    "website": "https://www.luganolac.ch",
    "wheelchair": "yes",
    "wikidata": "Q26986943"
  }
},
{
  "type": "way",
  "id": 288158922,
  "nodes": [
    2917076115,
    2917075949,
    2917075952,
    2917075869,
    2917075859,
    2917075856,
    2917075833,
    2917076249,
    2917076253,
    2917076199,
    2917076251,
    2917076254,
    2917076206,
    2917076136,
    2917076115
  ],
  "tags": {
    "addr:city": "Abbadia Lariana",
    "addr:postcode": "23821",
    "addr:street": "Via Nazionale",
    "building": "yes",
    "name": "Civico Museo Setificio Monti",
    "operator": "comune di Abbadia",
    "tourism": "museum"
  }
},
{
  "type": "way",
  "id": 290159147,
  "nodes": [
    2936959002,
    2936959008,
    2936958905,
    2936959007,
    2936958904,
    2936958902,
    2936958903,
    2936959006,
    2936959005,
    2936959301,
    2936959004,
    2936959001,
    2936958901,
    2936959003,
    2936959002
  ],
  "tags": {
    "addr:city": "Varenna",
    "addr:housenumber": "4",
    "addr:postcode": "23829",
    "addr:street": "Viale Giovanni Polvani",
    "building": "yes",
    "name": "Villa Monastero",
    "tourism": "museum",
    "website": "http://www.villamonastero.eu",
    "wikipedia": "it:Villa Monastero"
  }
},
{
  "type": "way",
  "id": 292791431,
  "nodes": [
    2963304951,
    2963304952,
    2963294974,
    2962400053,
    2962400054,
    2962400055,
    2962400056,
    2962400057,
    2962400041,
    2962400042,
    3422785544,
    2962400044,
    2962400045,
    2962400046,
    2962400047,
    2962400048,
    2962400049,
    2962400050,
    2963304951
  ],
  "tags": {
    "area": "yes",
    "building": "yes",
    "name": "Museo delle Grigne",
    "operator": "Comune di Esino Lario",
    "phone": "+39 334 15 81 114",
    "toilets:wheelchair": "yes",
    "tourism": "museum",
    "website": "https://www.museodellegrigne.it/",
    "wheelchair": "yes",
    "wikidata": "Q3868123",
    "wikipedia": "it:Museo delle Grigne"
  }
},
{
  "type": "way",
  "id": 303382441,
  "nodes": [
    3077368569,
    3077368570,
    3077368571,
    3077368572,
    3077368573,
    3077368574,
    3077368569
  ],
  "tags": {
    "building": "yes",
    "name": "Casa Croci",
    "tourism": "museum"
  }
},
{
  "type": "way",
  "id": 304114479,
  "nodes": [
    3086361570,
    5136155325,
    3086361571,
    3086361572,
    3086361573,
    3086361570
  ],
  "tags": {
    "building": "yes",
    "description": "In questo edificio annesso al Mulino di Bruzella è allestita la mostra curata dall'arch. Thomas Meyer \"Dal mulino alla cartiera, una ricerca sull'arte di macinare e sulle macchine idrauliche della Breggia.",
    "mapillary": "2V3RGlOzAxiQx1yTzo0epA",
    "name": "Dal mulino alla cartiera, esposizione",
    "operator": "Museo etnografico della Valle di Muggio",
    "source": "Bing",
    "tourism": "museum",
    "website": "http://www.mevm.ch/esposizioni/esposizione-mulini/"
  }
},
{
  "type": "way",
  "id": 304420368,
  "nodes": [
    3089542939,
    3089542940,
    3089542941,
    3089542942,
    3089542943,
    3089542944,
    3089542945,
    3089542939
  ],
  "tags": {
    "addr:city": "Cabbio",
    "addr:country": "CH",
    "addr:postcode": "6838",
    "building": "yes",
    "name": "Museo della Valle di Muggio",
    "phone": "+41 91 690 20 38",
    "source": "Bing",
    "tourism": "museum",
    "website": "http://www.mevm.ch",
    "wikidata": "Q3868364",
    "wikipedia": "it:Museo etnografico della Valle di Muggio"
  }
},
{
  "type": "way",
  "id": 304793933,
  "nodes": [
    3306593181,
    3093942623,
    3093942616,
    3093942605,
    3093945235,
    3093945257,
    3093945262,
    3093945260,
    3093945245,
    3093942624,
    3306593181
  ],
  "tags": {
    "building": "yes",
    "tourism": "museum"
  }
},
{
  "type": "way",
  "id": 309730156,
  "nodes": [
    3150604168,
    3150613305,
    3150608958,
    3150608956,
    3150613810,
    3150613813,
    3150604168
  ],
  "tags": {
    "addr:city": "Biassono",
    "addr:country": "IT",
    "addr:housenumber": "1",
    "addr:postcode": "20853",
    "addr:street": "Via San Martino",
    "building": "public",
    "email": "info@museobiassono.it",
    "name": "Museo Civico di Biassono",
    "opening_hours": "Fr 09:30-12:00,15:00-18:30; Sa 15:00-19:00",
    "phone": "+39 039 2201077",
    "tourism": "museum",
    "website": "http://www.museobiassono.it/"
  }
},
{
  "type": "way",
  "id": 313091478,
  "nodes": [
    3190111495,
    3190111418,
    3190111409,
    3190109656,
    3190111273,
    3190111292,
    3190111204,
    3190111196,
    3190110625,
    3190111183,
    3190111197,
    3190111260,
    3190111266,
    3190111404,
    3190111497,
    3190111519,
    3190111495
  ],
  "tags": {
    "building": "yes",
    "name": "Casa Museo",
    "tourism": "museum"
  }
},
{
  "type": "way",
  "id": 314836872,
  "nodes": [
    3208792604,
    3208792605,
    3208792606,
    3208792607,
    3208792604
  ],
  "tags": {
    "addr:city": "Saronno",
    "addr:country": "IT",
    "addr:housenumber": "6",
    "addr:postcode": "21047",
    "addr:street": "Via Don Angelo Griffanti",
    "building": "museum",
    "email": "museo.industrie@teletu.it",
    "name": "MILS Museo delle Industrie e del Lavoro Saronnese",
    "opening_hours": "Tu 15:00-17:00; Th 14:30-16:00; Sa 15:00-18:00; Su 09:00-12:00, 14:30-18:30; Dec 24-Jan 6, Easter -2, Easter +1, Aug off",
    "phone": "+39 02 9607459",
    "start_date": "1998",
    "tourism": "museum",
    "website": "http://www.museomils.it/",
    "wikidata": "Q16580608",
    "wikipedia": "it:Museo delle industrie e del lavoro del Saronnese"
  }
},
{
  "type": "way",
  "id": 316215231,
  "nodes": [
    3223257899,
    3223258167,
    3223258168,
    3223257570,
    3223257794,
    3223258170,
    3223257571,
    3223258169,
    3223257900,
    3223257569,
    3223257898,
    3223257897,
    3223257568,
    3223257896,
    3223257895,
    3223257566,
    3223257479,
    3223257894,
    4225131879,
    3223257565,
    3223257480,
    3223257567,
    3223257899
  ],
  "tags": {
    "addr:city": "Lissone",
    "addr:country": "IT",
    "addr:housenumber": "6",
    "addr:postcode": "20851",
    "addr:street": "Viale Elisa Ancona",
    "building": "museum",
    "building:levels": "2",
    "email": "museo@comune.lissone.mb.it",
    "fax": "+39 039 461523",
    "name": "Museo d'Arte Contemporanea",
    "opening_hours": "We,Fr 10:00-13:00; Th 16:00-23:00; Sa,Su 10:00-12:00,15:00-19:00",
    "phone": "+39 039 2145174",
    "start_date": "2002",
    "tourism": "museum",
    "wikidata": "Q3867849",
    "wikipedia": "it:Museo d'arte contemporanea (Lissone)"
  }
},
{
  "type": "way",
  "id": 323700532,
  "nodes": [
    3304794904,
    3304794910,
    3304794916,
    3304794926,
    3304794940,
    3304794921,
    3322026888,
    3304794904
  ],
  "tags": {
    "building": "yes",
    "name": "Casa Rurale di Carcente",
    "operator": "Aris Provatas",
    "phone": "+39 345 2461159",
    "tourism": "museum"
  }
},
{
  "type": "way",
  "id": 334207326,
  "nodes": [
    3413099759,
    4073595399,
    3413099760,
    3413099761,
    3413099762,
    3413099763,
    4073594979,
    4073594978,
    3413097682,
    3413097681,
    3413099759
  ],
  "tags": {
    "building": "yes",
    "name": "Museo ornitologico Luigi Scanagatta",
    "tourism": "museum",
    "wikipedia": "it:Museo ornitologico Luigi Scanagatta"
  }
},
{
  "type": "way",
  "id": 343737449,
  "nodes": [
    3505439836,
    3505439837,
    3505439838,
    3505439839,
    3505439840,
    3505439841,
    3505439836
  ],
  "tags": {
    "building": "yes",
    "name": "Museo del maglio",
    "tourism": "museum"
  }
},
{
  "type": "way",
  "id": 353459809,
  "nodes": [
    3592382712,
    3592393406,
    3592391918,
    3592382711,
    3592392615,
    3592382708,
    3592382710,
    3592392616,
    3592391916,
    3592382707,
    3592382709,
    3592391917,
    3592382712
  ],
  "tags": {
    "addr:city": "Samarate",
    "addr:country": "IT",
    "addr:housenumber": "510",
    "addr:place": "Cascina Costa",
    "addr:postcode": "21017",
    "addr:street": "Viale Giovanni Agusta",
    "building": "public",
    "email": "info@museoagusta.it",
    "name": "Museo Agusta",
    "opening_hours": "Tu,We 14:00-18:00; Su 09:30-12:30,14:00-18:00",
    "phone": "+39 0331 229348",
    "tourism": "museum",
    "website": "http://www.museoagusta.it/",
    "wpt_symbol": "Museum"
  }
},
{
  "type": "way",
  "id": 385854354,
  "nodes": [
    3891906075,
    3891906076,
    3891906077,
    3891906078,
    3891906079,
    3891906080,
    3891906081,
    3891906082,
    3891906075
  ],
  "tags": {
    "addr:city": "Agno",
    "addr:country": "CH",
    "addr:postcode": "6982",
    "building": "yes",
    "name": "Museo Plebano",
    "tourism": "museum",
    "website": "http://www.museoplebano.ch/it/",
    "wikidata": "Q27478270"
  }
},
{
  "type": "way",
  "id": 389625231,
  "nodes": [
    3927925510,
    3927925511,
    3927925512,
    3927925513,
    3927925510
  ],
  "tags": {
    "addr:city": "Curio",
    "addr:postcode": "6986",
    "building": "yes",
    "email": "musmalc@bluewin.ch",
    "name": "Museo del Malcantone",
    "phone": "+41 91 606 31 72",
    "tourism": "museum",
    "website": "http://www.museodelmalcantone.ch/",
    "wikidata": "Q3867915"
  }
},
{
  "type": "way",
  "id": 404529425,
  "nodes": [
    4068096834,
    4068096835,
    4068096836,
    4068096837,
    4068096838,
    4068096839,
    4068096840,
    4068096841,
    4068096842,
    4068096843,
    4068096844,
    4068096845,
    4068096846,
    4068095349,
    4068096834
  ],
  "tags": {
    "name": "Parco Museo Pagani",
    "tourism": "museum"
  }
},
{
  "type": "way",
  "id": 443727189,
  "nodes": [
    4412754047,
    4412754048,
    4412754049,
    4412754050,
    4412754047
  ],
  "tags": {
    "addr:city": "Caslano",
    "building": "yes",
    "name": "Museo della Pesca",
    "tourism": "museum",
    "wikidata": "Q3868103"
  }
},
{
  "type": "way",
  "id": 466535607,
  "nodes": [
    4613153836,
    4613153837,
    6419446549,
    4613153838,
    4613153839,
    4613153841,
    4613153842,
    4613153843,
    4565192203,
    4613153844,
    4613153846,
    4613153836
  ],
  "tags": {
    "building": "yes",
    "name": "Museo Antiquarium dell'Isola Comacina",
    "operator": "Comune di Tremezzina",
    "tourism": "museum",
    "website": "https://isola-comacina.it/"
  }
},
{
  "type": "way",
  "id": 495720068,
  "nodes": [
    4874507054,
    4874507053,
    4874507052,
    4874507051,
    4874507054
  ],
  "tags": {
    "building": "yes",
    "name": "Museo delle Acque Italo Svizzere",
    "operator": "ETVilloresi",
    "tourism": "museum"
  }
},
{
  "type": "way",
  "id": 516690916,
  "nodes": [
    4622460944,
    5043583115,
    5043583116,
    5043583117,
    4622460944
  ],
  "tags": {
    "building": "yes",
    "name": "Dal tam-tam alla radio digitale",
    "note": "Open on request. Call +41 91 960 73 72 (schools) Call +41 91 960 19 79 (groups/individuals)",
    "operator": "Comune di Savosa",
    "tourism": "museum"
  }
},
{
  "type": "way",
  "id": 551135170,
  "nodes": [
    5322647384,
    5322647383,
    5322647382,
    5322647379,
    5322647381,
    5323970066,
    5322647376,
    5322647372,
    5322647375,
    5322647373,
    5322647374,
    5322647377,
    5322647384
  ],
  "tags": {
    "building": "yes",
    "historic": "villa",
    "name": "Villa Pozzi",
    "source": "DbTR - Ingombro al suolo corpo edificato",
    "tourism": "museum"
  }
},
{
  "type": "way",
  "id": 568314266,
  "nodes": [
    5467725153,
    5467725152,
    5467725151,
    5467725150,
    5467725153
  ],
  "tags": {
    "building": "yes",
    "name": "Ecomuseo Lago di Annone",
    "tourism": "museum"
  }
},
{
  "type": "way",
  "id": 584426089,
  "nodes": [
    5586503865,
    5586503866,
    5586503867,
    5586503868,
    5586503869,
    5586503870,
    5586503871,
    5586503872,
    5586503865
  ],
  "tags": {
    "building": "yes",
    "name": "Museo della Pipa",
    "tourism": "museum"
  }
},
{
  "type": "way",
  "id": 608402851,
  "nodes": [
    5764114612,
    5764114609,
    5764130698,
    5764114606,
    5764114607,
    5764224872,
    5764224873,
    5764114612
  ],
  "tags": {
    "building": "public",
    "tourism": "museum"
  }
},
{
  "type": "way",
  "id": 608867864,
  "nodes": [
    5767637453,
    5767637454,
    5767637455,
    5767637456,
    5767637457,
    5767637453
  ],
  "tags": {
    "building": "yes",
    "name": "La Maschera",
    "tourism": "museum"
  }
},
{
  "type": "relation",
  "id": 1715403,
  "members": [
    {
      "type": "node",
      "ref": 1402808308,
      "role": ""
    },
    {
      "type": "node",
      "ref": 1402808217,
      "role": ""
    },
    {
      "type": "node",
      "ref": 4936190108,
      "role": ""
    },
    {
      "type": "node",
      "ref": 1402808203,
      "role": ""
    },
    {
      "type": "node",
      "ref": 1402808212,
      "role": ""
    },
    {
      "type": "node",
      "ref": 1402808205,
      "role": ""
    },
    {
      "type": "node",
      "ref": 3818834783,
      "role": ""
    },
    {
      "type": "node",
      "ref": 1402808604,
      "role": ""
    },
    {
      "type": "node",
      "ref": 3892208284,
      "role": ""
    }
  ],
  "tags": {
    "name": "Museo di Arte Contemporanea di Morterone",
    "start_date": "1988",
    "tourism": "museum",
    "type": "site"
  }
},
{
  "type": "relation",
  "id": 2319973,
  "members": [
    {
      "type": "way",
      "ref": 173769301,
      "role": "outer"
    },
    {
      "type": "way",
      "ref": 173769439,
      "role": "inner"
    }
  ],
  "tags": {
    "building": "yes",
    "name": "Monastero di Cairate",
    "tourism": "museum",
    "type": "multipolygon"
  }
},
{
  "type": "relation",
  "id": 2623405,
  "members": [
    {
      "type": "node",
      "ref": 2053549035,
      "role": "sign"
    },
    {
      "type": "node",
      "ref": 2053033077,
      "role": "intersection"
    },
    {
      "type": "node",
      "ref": 2053549033,
      "role": "to"
    }
  ],
  "tags": {
    "colour:arrow": "white",
    "colour:back": "brown",
    "colour:text": "white",
    "destination": "MUSEO ETNOGRAFICO",
    "distance": "0.2",
    "tourism": "museum",
    "type": "destination_sign"
  }
},
{
  "type": "relation",
  "id": 2623407,
  "members": [
    {
      "type": "node",
      "ref": 2053549035,
      "role": "sign"
    },
    {
      "type": "node",
      "ref": 2053033077,
      "role": "intersection"
    },
    {
      "type": "node",
      "ref": 2053549033,
      "role": "to"
    }
  ],
  "tags": {
    "colour:arrow": "white",
    "colour:back": "brown",
    "colour:text": "white",
    "destination": "PICCOLO MUSEO DELLA GUARDIA DI FINANZA E DEL CONTRABBANDO",
    "tourism": "museum",
    "type": "destination_sign"
  }
},
{
  "type": "relation",
  "id": 2626038,
  "members": [
    {
      "type": "node",
      "ref": 314992909,
      "role": "intersection"
    },
    {
      "type": "node",
      "ref": 2055981118,
      "role": "to"
    },
    {
      "type": "node",
      "ref": 2056180011,
      "role": "sign"
    }
  ],
  "tags": {
    "colour:arrow": "white",
    "colour:back": "brown",
    "colour:text": "white",
    "destination": "MUSEO PIERO GAULI",
    "tourism": "museum",
    "type": "destination_sign"
  }
},
{
  "type": "relation",
  "id": 3933144,
  "members": [
    {
      "type": "way",
      "ref": 295732626,
      "role": "outer"
    },
    {
      "type": "way",
      "ref": 295732624,
      "role": "inner"
    }
  ],
  "tags": {
    "addr:city": "Garlate",
    "addr:housenumber": "490",
    "addr:postcode": "23852",
    "addr:street": "Via Statale",
    "building": "yes",
    "email": "info@museosetagarlate.it",
    "name": "Museo della Seta Abegg",
    "opening_hours": "Jun 1-Sep 30: Sa 14:30-18:30; Su 09:30-12:30; 14:30-18:30; Oct 1-May 31: Sa 14:30-17:30; Su 09:30-12:30; 14:30-17:30; Mo-Sa 09:00-12:30 \"by appointment\"; Jan 1, Easter, May 1, Aug, Nov 1, Dec 25,26,31 off; Jan 6, Easter+1, Apr 25, Dec 8: 14:30-17:30; ",
    "phone": "+39 331 9960890",
    "tourism": "museum",
    "type": "multipolygon",
    "website": "http://www.museosetagarlate.it"
  }
},
{
  "type": "node",
  "id": 1524947402,
  "lat": 45.6282823,
  "lon": 8.7064514
},
{
  "type": "node",
  "id": 1524947405,
  "lat": 45.6283155,
  "lon": 8.7065912
},
{
  "type": "node",
  "id": 1524947437,
  "lat": 45.6291777,
  "lon": 8.7079390
},
{
  "type": "node",
  "id": 1524947441,
  "lat": 45.6293185,
  "lon": 8.7080231
},
{
  "type": "node",
  "id": 1546870712,
  "lat": 45.6282396,
  "lon": 8.7064560
},
{
  "type": "node",
  "id": 3936229213,
  "lat": 45.6283147,
  "lon": 8.7059795
},
{
  "type": "node",
  "id": 4550838781,
  "lat": 45.6282751,
  "lon": 8.7062308
},
{
  "type": "node",
  "id": 4874507051,
  "lat": 45.6692492,
  "lon": 8.6807069
},
{
  "type": "node",
  "id": 4874507052,
  "lat": 45.6691358,
  "lon": 8.6809135
},
{
  "type": "node",
  "id": 4874507053,
  "lat": 45.6690710,
  "lon": 8.6808407
},
{
  "type": "node",
  "id": 4874507054,
  "lat": 45.6691843,
  "lon": 8.6806340
},
{
  "type": "node",
  "id": 1524947361,
  "lat": 45.6307477,
  "lon": 8.7058903
},
{
  "type": "node",
  "id": 1524947537,
  "lat": 45.6305412,
  "lon": 8.7059947
},
{
  "type": "node",
  "id": 1524947546,
  "lat": 45.6306300,
  "lon": 8.7059849
},
{
  "type": "node",
  "id": 1524947548,
  "lat": 45.6307133,
  "lon": 8.7059722
},
{
  "type": "node",
  "id": 1524947599,
  "lat": 45.6309804,
  "lon": 8.7058720
},
{
  "type": "node",
  "id": 1524947696,
  "lat": 45.6322463,
  "lon": 8.7057121
},
{
  "type": "node",
  "id": 1524947702,
  "lat": 45.6323089,
  "lon": 8.7057039
},
{
  "type": "node",
  "id": 1524947725,
  "lat": 45.6325649,
  "lon": 8.7056825
},
{
  "type": "node",
  "id": 1524947727,
  "lat": 45.6325651,
  "lon": 8.7057348
},
{
  "type": "node",
  "id": 1524947736,
  "lat": 45.6326303,
  "lon": 8.7066384
},
{
  "type": "node",
  "id": 1524947738,
  "lat": 45.6326640,
  "lon": 8.7071064
},
{
  "type": "node",
  "id": 2078952093,
  "lat": 45.6305351,
  "lon": 8.7059094
},
{
  "type": "node",
  "id": 2078952096,
  "lat": 45.6305375,
  "lon": 8.7059424
},
{
  "type": "node",
  "id": 2078952107,
  "lat": 45.6307064,
  "lon": 8.7058939
},
{
  "type": "node",
  "id": 2078952111,
  "lat": 45.6307084,
  "lon": 8.7059164
},
{
  "type": "node",
  "id": 2486499386,
  "lat": 45.6305727,
  "lon": 8.7084660
},
{
  "type": "node",
  "id": 3936229225,
  "lat": 45.6300619,
  "lon": 8.7057455
},
{
  "type": "node",
  "id": 3936229226,
  "lat": 45.6300752,
  "lon": 8.7058955
},
{
  "type": "node",
  "id": 3936229227,
  "lat": 45.6300773,
  "lon": 8.7059824
},
{
  "type": "node",
  "id": 4035737275,
  "lat": 45.6327780,
  "lon": 8.7082666
},
{
  "type": "node",
  "id": 4035737276,
  "lat": 45.6313877,
  "lon": 8.7086169
},
{
  "type": "node",
  "id": 3592382707,
  "lat": 45.6316566,
  "lon": 8.7476990
},
{
  "type": "node",
  "id": 3592382708,
  "lat": 45.6317295,
  "lon": 8.7481313
},
{
  "type": "node",
  "id": 3592382709,
  "lat": 45.6318125,
  "lon": 8.7476861
},
{
  "type": "node",
  "id": 3592382710,
  "lat": 45.6318660,
  "lon": 8.7481200
},
{
  "type": "node",
  "id": 3592382711,
  "lat": 45.6319363,
  "lon": 8.7482104
},
{
  "type": "node",
  "id": 3592382712,
  "lat": 45.6320267,
  "lon": 8.7476944
},
{
  "type": "node",
  "id": 3592391916,
  "lat": 45.6316649,
  "lon": 8.7479042
},
{
  "type": "node",
  "id": 3592391917,
  "lat": 45.6318136,
  "lon": 8.7477121
},
{
  "type": "node",
  "id": 3592391918,
  "lat": 45.6319224,
  "lon": 8.7478683
},
{
  "type": "node",
  "id": 3592392615,
  "lat": 45.6317334,
  "lon": 8.7482273
},
{
  "type": "node",
  "id": 3592392616,
  "lat": 45.6318566,
  "lon": 8.7478883
},
{
  "type": "node",
  "id": 3592393406,
  "lat": 45.6320333,
  "lon": 8.7478591
},
{
  "type": "node",
  "id": 1115729604,
  "lat": 45.6146711,
  "lon": 8.8465988
},
{
  "type": "node",
  "id": 1115729627,
  "lat": 45.6149819,
  "lon": 8.8470820
},
{
  "type": "node",
  "id": 1115729635,
  "lat": 45.6149093,
  "lon": 8.8465318
},
{
  "type": "node",
  "id": 1128573662,
  "lat": 45.6147450,
  "lon": 8.8471456
},
{
  "type": "node",
  "id": 2322955966,
  "lat": 45.6123872,
  "lon": 8.8455530
},
{
  "type": "node",
  "id": 2322955967,
  "lat": 45.6124804,
  "lon": 8.8459638
},
{
  "type": "node",
  "id": 2322955968,
  "lat": 45.6122479,
  "lon": 8.8456176
},
{
  "type": "node",
  "id": 2322955969,
  "lat": 45.6124464,
  "lon": 8.8459795
},
{
  "type": "node",
  "id": 2322955970,
  "lat": 45.6122835,
  "lon": 8.8457746
},
{
  "type": "node",
  "id": 2322955971,
  "lat": 45.6124949,
  "lon": 8.8461931
},
{
  "type": "node",
  "id": 2322955972,
  "lat": 45.6123365,
  "lon": 8.8460076
},
{
  "type": "node",
  "id": 2322955973,
  "lat": 45.6123539,
  "lon": 8.8460844
},
{
  "type": "node",
  "id": 2322955974,
  "lat": 45.6123125,
  "lon": 8.8457612
},
{
  "type": "node",
  "id": 2322955975,
  "lat": 45.6123056,
  "lon": 8.8461068
},
{
  "type": "node",
  "id": 2322955976,
  "lat": 45.6123414,
  "lon": 8.8462643
},
{
  "type": "node",
  "id": 2322955977,
  "lat": 45.6123654,
  "lon": 8.8459942
},
{
  "type": "node",
  "id": 2329334865,
  "lat": 45.6122524,
  "lon": 8.8456376
},
{
  "type": "node",
  "id": 2332328921,
  "lat": 45.6124059,
  "lon": 8.8456353
},
{
  "type": "node",
  "id": 2440652141,
  "lat": 45.6124518,
  "lon": 8.8458377
},
{
  "type": "node",
  "id": 2440652142,
  "lat": 45.6124630,
  "lon": 8.8458869
},
{
  "type": "node",
  "id": 3404223013,
  "lat": 45.6149752,
  "lon": 8.8470304
},
{
  "type": "node",
  "id": 3404223016,
  "lat": 45.6149168,
  "lon": 8.8465858
},
{
  "type": "node",
  "id": 3416262940,
  "lat": 45.6147390,
  "lon": 8.8465797
},
{
  "type": "node",
  "id": 3416262942,
  "lat": 45.6146843,
  "lon": 8.8466967
},
{
  "type": "node",
  "id": 3416262943,
  "lat": 45.6147327,
  "lon": 8.8470425
},
{
  "type": "node",
  "id": 3416262945,
  "lat": 45.6148079,
  "lon": 8.8471287
},
{
  "type": "node",
  "id": 3845880060,
  "lat": 45.6146800,
  "lon": 8.8465963
},
{
  "type": "node",
  "id": 4068095349,
  "lat": 45.6187649,
  "lon": 8.9219563
},
{
  "type": "node",
  "id": 4068096834,
  "lat": 45.6188699,
  "lon": 8.9224196
},
{
  "type": "node",
  "id": 4068096835,
  "lat": 45.6176607,
  "lon": 8.9231941
},
{
  "type": "node",
  "id": 4068096836,
  "lat": 45.6170270,
  "lon": 8.9218775
},
{
  "type": "node",
  "id": 4068096837,
  "lat": 45.6184851,
  "lon": 8.9207945
},
{
  "type": "node",
  "id": 4068096838,
  "lat": 45.6190544,
  "lon": 8.9203769
},
{
  "type": "node",
  "id": 4068096839,
  "lat": 45.6192599,
  "lon": 8.9207096
},
{
  "type": "node",
  "id": 4068096840,
  "lat": 45.6192896,
  "lon": 8.9208051
},
{
  "type": "node",
  "id": 4068096841,
  "lat": 45.6192797,
  "lon": 8.9209078
},
{
  "type": "node",
  "id": 4068096842,
  "lat": 45.6192302,
  "lon": 8.9209715
},
{
  "type": "node",
  "id": 4068096843,
  "lat": 45.6187672,
  "lon": 8.9212900
},
{
  "type": "node",
  "id": 4068096844,
  "lat": 45.6186495,
  "lon": 8.9213876
},
{
  "type": "node",
  "id": 4068096845,
  "lat": 45.6186256,
  "lon": 8.9215449
},
{
  "type": "node",
  "id": 4068096846,
  "lat": 45.6187225,
  "lon": 8.9219792
},
{
  "type": "node",
  "id": 1845257691,
  "lat": 45.6917162,
  "lon": 8.8732329
},
{
  "type": "node",
  "id": 1845257696,
  "lat": 45.6919026,
  "lon": 8.8733710
},
{
  "type": "node",
  "id": 1845257700,
  "lat": 45.6920609,
  "lon": 8.8733386
},
{
  "type": "node",
  "id": 1845257701,
  "lat": 45.6920825,
  "lon": 8.8735547
},
{
  "type": "node",
  "id": 1845257702,
  "lat": 45.6920854,
  "lon": 8.8731532
},
{
  "type": "node",
  "id": 1845257705,
  "lat": 45.6921630,
  "lon": 8.8731365
},
{
  "type": "node",
  "id": 1845257706,
  "lat": 45.6921879,
  "lon": 8.8731311
},
{
  "type": "node",
  "id": 1845257707,
  "lat": 45.6922129,
  "lon": 8.8733685
},
{
  "type": "node",
  "id": 1845257694,
  "lat": 45.6917807,
  "lon": 8.8738453
},
{
  "type": "node",
  "id": 1845257697,
  "lat": 45.6919241,
  "lon": 8.8735871
},
{
  "type": "node",
  "id": 1845257708,
  "lat": 45.6922524,
  "lon": 8.8737436
},
{
  "type": "node",
  "id": 1865693286,
  "lat": 45.7117092,
  "lon": 8.9103780
},
{
  "type": "node",
  "id": 1865693288,
  "lat": 45.7117180,
  "lon": 8.9104390
},
{
  "type": "node",
  "id": 1865693292,
  "lat": 45.7118772,
  "lon": 8.9107066
},
{
  "type": "node",
  "id": 1865693294,
  "lat": 45.7118910,
  "lon": 8.9108934
},
{
  "type": "node",
  "id": 1865693307,
  "lat": 45.7119391,
  "lon": 8.9109674
},
{
  "type": "node",
  "id": 1865693309,
  "lat": 45.7119525,
  "lon": 8.9106060
},
{
  "type": "node",
  "id": 1865693314,
  "lat": 45.7119941,
  "lon": 8.9108887
},
{
  "type": "node",
  "id": 1865693317,
  "lat": 45.7120277,
  "lon": 8.9107228
},
{
  "type": "node",
  "id": 1865693319,
  "lat": 45.7120366,
  "lon": 8.9100734
},
{
  "type": "node",
  "id": 1865693321,
  "lat": 45.7120632,
  "lon": 8.9099287
},
{
  "type": "node",
  "id": 1865693323,
  "lat": 45.7120827,
  "lon": 8.9108734
},
{
  "type": "node",
  "id": 1865693325,
  "lat": 45.7121058,
  "lon": 8.9100049
},
{
  "type": "node",
  "id": 1865693329,
  "lat": 45.7121537,
  "lon": 8.9110715
},
{
  "type": "node",
  "id": 1865693333,
  "lat": 45.7121856,
  "lon": 8.9110080
},
{
  "type": "node",
  "id": 1865693334,
  "lat": 45.7122424,
  "lon": 8.9105509
},
{
  "type": "node",
  "id": 1865693335,
  "lat": 45.7122796,
  "lon": 8.9106118
},
{
  "type": "node",
  "id": 1865693337,
  "lat": 45.7122938,
  "lon": 8.9104874
},
{
  "type": "node",
  "id": 3208792604,
  "lat": 45.6286447,
  "lon": 9.0291727
},
{
  "type": "node",
  "id": 3208792605,
  "lat": 45.6284612,
  "lon": 9.0291727
},
{
  "type": "node",
  "id": 3208792606,
  "lat": 45.6284551,
  "lon": 9.0295982
},
{
  "type": "node",
  "id": 3208792607,
  "lat": 45.6286691,
  "lon": 9.0296012
},
{
  "type": "node",
  "id": 1255393119,
  "lat": 45.6250834,
  "lon": 9.0328218
},
{
  "type": "node",
  "id": 1255393128,
  "lat": 45.6249276,
  "lon": 9.0328021
},
{
  "type": "node",
  "id": 1255393136,
  "lat": 45.6249403,
  "lon": 9.0325956
},
{
  "type": "node",
  "id": 1255393161,
  "lat": 45.6250961,
  "lon": 9.0326153
},
{
  "type": "node",
  "id": 1536017684,
  "lat": 45.5433403,
  "lon": 9.1612220
},
{
  "type": "node",
  "id": 1536017686,
  "lat": 45.5433593,
  "lon": 9.1613563
},
{
  "type": "node",
  "id": 1536017687,
  "lat": 45.5439769,
  "lon": 9.1610810
},
{
  "type": "node",
  "id": 1536017688,
  "lat": 45.5440316,
  "lon": 9.1611388
},
{
  "type": "node",
  "id": 1536017689,
  "lat": 45.5440566,
  "lon": 9.1614021
},
{
  "type": "node",
  "id": 2069165589,
  "lat": 45.5389483,
  "lon": 9.2354938
},
{
  "type": "node",
  "id": 2069165595,
  "lat": 45.5390717,
  "lon": 9.2352303
},
{
  "type": "node",
  "id": 2069165596,
  "lat": 45.5393032,
  "lon": 9.2357413
},
{
  "type": "node",
  "id": 2069165597,
  "lat": 45.5393971,
  "lon": 9.2355407
},
{
  "type": "node",
  "id": 3331957859,
  "lat": 45.5393519,
  "lon": 9.2354976
},
{
  "type": "node",
  "id": 4125343774,
  "lat": 45.5392247,
  "lon": 9.2356664
},
{
  "type": "node",
  "id": 4125343776,
  "lat": 45.5392569,
  "lon": 9.2356971
},
{
  "type": "node",
  "id": 4125344054,
  "lat": 45.5390596,
  "lon": 9.2356000
},
{
  "type": "node",
  "id": 4125344056,
  "lat": 45.5391952,
  "lon": 9.2357294
},
{
  "type": "node",
  "id": 3223257479,
  "lat": 45.6066036,
  "lon": 9.2352393
},
{
  "type": "node",
  "id": 3223257480,
  "lat": 45.6066243,
  "lon": 9.2353500
},
{
  "type": "node",
  "id": 3223257565,
  "lat": 45.6065598,
  "lon": 9.2353824
},
{
  "type": "node",
  "id": 3223257566,
  "lat": 45.6066095,
  "lon": 9.2352144
},
{
  "type": "node",
  "id": 3223257567,
  "lat": 45.6066305,
  "lon": 9.2353754
},
{
  "type": "node",
  "id": 3223257568,
  "lat": 45.6066858,
  "lon": 9.2351666
},
{
  "type": "node",
  "id": 3223257569,
  "lat": 45.6067326,
  "lon": 9.2351360
},
{
  "type": "node",
  "id": 3223257570,
  "lat": 45.6068504,
  "lon": 9.2353254
},
{
  "type": "node",
  "id": 3223257571,
  "lat": 45.6068839,
  "lon": 9.2351934
},
{
  "type": "node",
  "id": 3223257794,
  "lat": 45.6068732,
  "lon": 9.2352737
},
{
  "type": "node",
  "id": 3223257894,
  "lat": 45.6065333,
  "lon": 9.2352746
},
{
  "type": "node",
  "id": 3223257895,
  "lat": 45.6066296,
  "lon": 9.2351838
},
{
  "type": "node",
  "id": 3223257896,
  "lat": 45.6066590,
  "lon": 9.2351742
},
{
  "type": "node",
  "id": 3223257897,
  "lat": 45.6067166,
  "lon": 9.2351761
},
{
  "type": "node",
  "id": 3223257898,
  "lat": 45.6067407,
  "lon": 9.2351628
},
{
  "type": "node",
  "id": 3223257899,
  "lat": 45.6067615,
  "lon": 9.2353096
},
{
  "type": "node",
  "id": 3223257900,
  "lat": 45.6068330,
  "lon": 9.2350843
},
{
  "type": "node",
  "id": 3223258167,
  "lat": 45.6067955,
  "lon": 9.2353311
},
{
  "type": "node",
  "id": 3223258168,
  "lat": 45.6068250,
  "lon": 9.2353331
},
{
  "type": "node",
  "id": 3223258169,
  "lat": 45.6068651,
  "lon": 9.2351991
},
{
  "type": "node",
  "id": 3223258170,
  "lat": 45.6068839,
  "lon": 9.2352393
},
{
  "type": "node",
  "id": 4225131879,
  "lat": 45.6065454,
  "lon": 9.2353237
},
{
  "type": "node",
  "id": 3150604168,
  "lat": 45.6306294,
  "lon": 9.2743502
},
{
  "type": "node",
  "id": 3150608956,
  "lat": 45.6303057,
  "lon": 9.2743363
},
{
  "type": "node",
  "id": 3150608958,
  "lat": 45.6303363,
  "lon": 9.2745797
},
{
  "type": "node",
  "id": 3150613305,
  "lat": 45.6306567,
  "lon": 9.2744489
},
{
  "type": "node",
  "id": 3150613810,
  "lat": 45.6303803,
  "lon": 9.2743115
},
{
  "type": "node",
  "id": 3150613813,
  "lat": 45.6304040,
  "lon": 9.2744415
},
{
  "type": "node",
  "id": 5586503865,
  "lat": 45.8340811,
  "lon": 8.6490591
},
{
  "type": "node",
  "id": 5586503866,
  "lat": 45.8338978,
  "lon": 8.6491818
},
{
  "type": "node",
  "id": 5586503867,
  "lat": 45.8339771,
  "lon": 8.6494257
},
{
  "type": "node",
  "id": 5586503868,
  "lat": 45.8340093,
  "lon": 8.6494042
},
{
  "type": "node",
  "id": 5586503869,
  "lat": 45.8340260,
  "lon": 8.6494555
},
{
  "type": "node",
  "id": 5586503870,
  "lat": 45.8340448,
  "lon": 8.6494429
},
{
  "type": "node",
  "id": 5586503871,
  "lat": 45.8341879,
  "lon": 8.6498829
},
{
  "type": "node",
  "id": 5586503872,
  "lat": 45.8343201,
  "lon": 8.6497944
},
{
  "type": "node",
  "id": 1541223845,
  "lat": 45.8688735,
  "lon": 8.9073722
},
{
  "type": "node",
  "id": 1541223846,
  "lat": 45.8688833,
  "lon": 8.9076138
},
{
  "type": "node",
  "id": 1541223847,
  "lat": 45.8689090,
  "lon": 8.9076116
},
{
  "type": "node",
  "id": 1541223848,
  "lat": 45.8689109,
  "lon": 8.9076597
},
{
  "type": "node",
  "id": 1541223849,
  "lat": 45.8689681,
  "lon": 8.9076549
},
{
  "type": "node",
  "id": 1541223850,
  "lat": 45.8689715,
  "lon": 8.9077378
},
{
  "type": "node",
  "id": 1541223851,
  "lat": 45.8690225,
  "lon": 8.9073597
},
{
  "type": "node",
  "id": 1541223858,
  "lat": 45.8690256,
  "lon": 8.9074361
},
{
  "type": "node",
  "id": 1541223861,
  "lat": 45.8690410,
  "lon": 8.9076152
},
{
  "type": "node",
  "id": 1541223862,
  "lat": 45.8690457,
  "lon": 8.9077316
},
{
  "type": "node",
  "id": 1541223863,
  "lat": 45.8690730,
  "lon": 8.9074321
},
{
  "type": "node",
  "id": 1541223864,
  "lat": 45.8690803,
  "lon": 8.9076119
},
{
  "type": "node",
  "id": 1541223865,
  "lat": 45.8691177,
  "lon": 8.9073033
},
{
  "type": "node",
  "id": 1541223866,
  "lat": 45.8691215,
  "lon": 8.9073859
},
{
  "type": "node",
  "id": 1541223867,
  "lat": 45.8691799,
  "lon": 8.9072369
},
{
  "type": "node",
  "id": 1541223868,
  "lat": 45.8691826,
  "lon": 8.9072971
},
{
  "type": "node",
  "id": 1541223869,
  "lat": 45.8692479,
  "lon": 8.9072304
},
{
  "type": "node",
  "id": 1541223871,
  "lat": 45.8692504,
  "lon": 8.9072861
},
{
  "type": "node",
  "id": 1541223874,
  "lat": 45.8693284,
  "lon": 8.9072787
},
{
  "type": "node",
  "id": 1541223886,
  "lat": 45.8693324,
  "lon": 8.9073658
},
{
  "type": "node",
  "id": 3505439836,
  "lat": 45.9268408,
  "lon": 8.8201159
},
{
  "type": "node",
  "id": 3505439837,
  "lat": 45.9267774,
  "lon": 8.8202902
},
{
  "type": "node",
  "id": 3505439838,
  "lat": 45.9266934,
  "lon": 8.8203492
},
{
  "type": "node",
  "id": 3505439839,
  "lat": 45.9266524,
  "lon": 8.8202500
},
{
  "type": "node",
  "id": 3505439840,
  "lat": 45.9267028,
  "lon": 8.8202205
},
{
  "type": "node",
  "id": 3505439841,
  "lat": 45.9267662,
  "lon": 8.8200595
},
{
  "type": "node",
  "id": 706688179,
  "lat": 45.8562159,
  "lon": 9.0129087
},
{
  "type": "node",
  "id": 706688181,
  "lat": 45.8554750,
  "lon": 9.0121778
},
{
  "type": "node",
  "id": 706688183,
  "lat": 45.8553519,
  "lon": 9.0124349
},
{
  "type": "node",
  "id": 706688211,
  "lat": 45.8555448,
  "lon": 9.0126252
},
{
  "type": "node",
  "id": 706688217,
  "lat": 45.8553869,
  "lon": 9.0129552
},
{
  "type": "node",
  "id": 706688221,
  "lat": 45.8555472,
  "lon": 9.0131134
},
{
  "type": "node",
  "id": 706688224,
  "lat": 45.8556902,
  "lon": 9.0128144
},
{
  "type": "node",
  "id": 706688229,
  "lat": 45.8560780,
  "lon": 9.0131969
},
{
  "type": "node",
  "id": 2462018058,
  "lat": 45.8705304,
  "lon": 8.9813972
},
{
  "type": "node",
  "id": 2462018059,
  "lat": 45.8705256,
  "lon": 8.9812134
},
{
  "type": "node",
  "id": 2462018060,
  "lat": 45.8705715,
  "lon": 8.9814200
},
{
  "type": "node",
  "id": 2462018061,
  "lat": 45.8705406,
  "lon": 8.9811944
},
{
  "type": "node",
  "id": 2462018062,
  "lat": 45.8706070,
  "lon": 8.9814039
},
{
  "type": "node",
  "id": 2462018063,
  "lat": 45.8706107,
  "lon": 8.9810786
},
{
  "type": "node",
  "id": 2462018064,
  "lat": 45.8706374,
  "lon": 8.9813530
},
{
  "type": "node",
  "id": 2462018065,
  "lat": 45.8706524,
  "lon": 8.9813340
},
{
  "type": "node",
  "id": 2462018066,
  "lat": 45.8709455,
  "lon": 8.9816999
},
{
  "type": "node",
  "id": 2462018069,
  "lat": 45.8710156,
  "lon": 8.9815841
},
{
  "type": "node",
  "id": 3025589536,
  "lat": 45.8704987,
  "lon": 8.9813463
},
{
  "type": "node",
  "id": 3025589537,
  "lat": 45.8705015,
  "lon": 8.9812779
},
{
  "type": "node",
  "id": 3077368569,
  "lat": 45.8716795,
  "lon": 8.9858194
},
{
  "type": "node",
  "id": 3077368570,
  "lat": 45.8716393,
  "lon": 8.9858140
},
{
  "type": "node",
  "id": 3077368571,
  "lat": 45.8715992,
  "lon": 8.9858972
},
{
  "type": "node",
  "id": 3077368572,
  "lat": 45.8716113,
  "lon": 8.9859361
},
{
  "type": "node",
  "id": 3077368573,
  "lat": 45.8716870,
  "lon": 8.9859401
},
{
  "type": "node",
  "id": 3077368574,
  "lat": 45.8717019,
  "lon": 8.9858878
},
{
  "type": "node",
  "id": 338741751,
  "lat": 45.8147290,
  "lon": 9.0751688
},
{
  "type": "node",
  "id": 338741752,
  "lat": 45.8147825,
  "lon": 9.0754064
},
{
  "type": "node",
  "id": 338741753,
  "lat": 45.8149350,
  "lon": 9.0753368
},
{
  "type": "node",
  "id": 338741754,
  "lat": 45.8148823,
  "lon": 9.0750989
},
{
  "type": "node",
  "id": 2529802239,
  "lat": 45.8147027,
  "lon": 9.0752568
},
{
  "type": "node",
  "id": 2529802240,
  "lat": 45.8147281,
  "lon": 9.0753712
},
{
  "type": "node",
  "id": 2529802241,
  "lat": 45.8147443,
  "lon": 9.0752378
},
{
  "type": "node",
  "id": 2529802242,
  "lat": 45.8147704,
  "lon": 9.0753519
},
{
  "type": "node",
  "id": 3086361570,
  "lat": 45.8887045,
  "lon": 9.0413973
},
{
  "type": "node",
  "id": 3086361571,
  "lat": 45.8887030,
  "lon": 9.0413029
},
{
  "type": "node",
  "id": 3086361572,
  "lat": 45.8886153,
  "lon": 9.0413057
},
{
  "type": "node",
  "id": 3086361573,
  "lat": 45.8886168,
  "lon": 9.0414001
},
{
  "type": "node",
  "id": 5136155325,
  "lat": 45.8887041,
  "lon": 9.0413739
},
{
  "type": "node",
  "id": 3089542939,
  "lat": 45.8965546,
  "lon": 9.0457266
},
{
  "type": "node",
  "id": 3089542940,
  "lat": 45.8963614,
  "lon": 9.0458057
},
{
  "type": "node",
  "id": 3089542941,
  "lat": 45.8963633,
  "lon": 9.0459036
},
{
  "type": "node",
  "id": 3089542942,
  "lat": 45.8964305,
  "lon": 9.0458889
},
{
  "type": "node",
  "id": 3089542943,
  "lat": 45.8965052,
  "lon": 9.0458567
},
{
  "type": "node",
  "id": 3089542944,
  "lat": 45.8965014,
  "lon": 9.0458446
},
{
  "type": "node",
  "id": 3089542945,
  "lat": 45.8965724,
  "lon": 9.0457896
},
{
  "type": "node",
  "id": 5767637453,
  "lat": 45.9266168,
  "lon": 9.1007197
},
{
  "type": "node",
  "id": 5767637454,
  "lat": 45.9265272,
  "lon": 9.1007009
},
{
  "type": "node",
  "id": 5767637455,
  "lat": 45.9265142,
  "lon": 9.1008269
},
{
  "type": "node",
  "id": 5767637456,
  "lat": 45.9266056,
  "lon": 9.1008404
},
{
  "type": "node",
  "id": 5767637457,
  "lat": 45.9266131,
  "lon": 9.1007572
},
{
  "type": "node",
  "id": 4412754047,
  "lat": 45.9673545,
  "lon": 8.8837985
},
{
  "type": "node",
  "id": 4412754048,
  "lat": 45.9672135,
  "lon": 8.8838942
},
{
  "type": "node",
  "id": 4412754049,
  "lat": 45.9671600,
  "lon": 8.8837310
},
{
  "type": "node",
  "id": 4412754050,
  "lat": 45.9673010,
  "lon": 8.8836352
},
{
  "type": "node",
  "id": 1834844490,
  "lat": 45.9739147,
  "lon": 8.8724255
},
{
  "type": "node",
  "id": 1834844493,
  "lat": 45.9740337,
  "lon": 8.8725716
},
{
  "type": "node",
  "id": 1834844494,
  "lat": 45.9740909,
  "lon": 8.8721297
},
{
  "type": "node",
  "id": 1834844496,
  "lat": 45.9742061,
  "lon": 8.8722754
},
{
  "type": "node",
  "id": 3942384177,
  "lat": 45.9741024,
  "lon": 8.8721439
},
{
  "type": "node",
  "id": 3942384178,
  "lat": 45.9741351,
  "lon": 8.8721880
},
{
  "type": "node",
  "id": 3942384179,
  "lat": 45.9741405,
  "lon": 8.8720799
},
{
  "type": "node",
  "id": 3942384180,
  "lat": 45.9741745,
  "lon": 8.8721218
},
{
  "type": "node",
  "id": 1416531830,
  "lat": 46.0171057,
  "lon": 8.8580342
},
{
  "type": "node",
  "id": 1416531836,
  "lat": 46.0170707,
  "lon": 8.8581172
},
{
  "type": "node",
  "id": 1416531839,
  "lat": 46.0171767,
  "lon": 8.8580961
},
{
  "type": "node",
  "id": 1416532183,
  "lat": 46.0171417,
  "lon": 8.8581791
},
{
  "type": "node",
  "id": 3927925510,
  "lat": 46.0028563,
  "lon": 8.8615251
},
{
  "type": "node",
  "id": 3927925511,
  "lat": 46.0027299,
  "lon": 8.8618980
},
{
  "type": "node",
  "id": 3927925512,
  "lat": 46.0026213,
  "lon": 8.8618307
},
{
  "type": "node",
  "id": 3927925513,
  "lat": 46.0027451,
  "lon": 8.8614468
},
{
  "type": "node",
  "id": 3891906075,
  "lat": 45.9977115,
  "lon": 8.8974687
},
{
  "type": "node",
  "id": 3891906076,
  "lat": 45.9976622,
  "lon": 8.8976564
},
{
  "type": "node",
  "id": 3891906077,
  "lat": 45.9976063,
  "lon": 8.8976310
},
{
  "type": "node",
  "id": 3891906078,
  "lat": 45.9976156,
  "lon": 8.8975894
},
{
  "type": "node",
  "id": 3891906079,
  "lat": 45.9975746,
  "lon": 8.8975773
},
{
  "type": "node",
  "id": 3891906080,
  "lat": 45.9975951,
  "lon": 8.8974861
},
{
  "type": "node",
  "id": 3891906081,
  "lat": 45.9976258,
  "lon": 8.8974995
},
{
  "type": "node",
  "id": 3891906082,
  "lat": 45.9976407,
  "lon": 8.8974378
},
{
  "type": "node",
  "id": 1975572708,
  "lat": 45.9697734,
  "lon": 8.9706148
},
{
  "type": "node",
  "id": 1975572710,
  "lat": 45.9697797,
  "lon": 8.9708443
},
{
  "type": "node",
  "id": 1975572722,
  "lat": 45.9699186,
  "lon": 8.9706065
},
{
  "type": "node",
  "id": 1975572724,
  "lat": 45.9699249,
  "lon": 8.9708360
},
{
  "type": "node",
  "id": 2647337541,
  "lat": 46.0000091,
  "lon": 8.9482076
},
{
  "type": "node",
  "id": 2647337543,
  "lat": 45.9999349,
  "lon": 8.9476810
},
{
  "type": "node",
  "id": 2647337547,
  "lat": 45.9989204,
  "lon": 8.9478897
},
{
  "type": "node",
  "id": 2647337563,
  "lat": 45.9991167,
  "lon": 8.9492958
},
{
  "type": "node",
  "id": 2647337565,
  "lat": 45.9992230,
  "lon": 8.9490726
},
{
  "type": "node",
  "id": 4163685931,
  "lat": 45.9991370,
  "lon": 8.9484622
},
{
  "type": "node",
  "id": 5239748092,
  "lat": 45.9994798,
  "lon": 8.9478139
},
{
  "type": "node",
  "id": 5239748093,
  "lat": 45.9994680,
  "lon": 8.9477298
},
{
  "type": "node",
  "id": 6111731587,
  "lat": 45.9993476,
  "lon": 8.9484007
},
{
  "type": "node",
  "id": 6111731588,
  "lat": 45.9990960,
  "lon": 8.9491473
},
{
  "type": "node",
  "id": 3093942605,
  "lat": 46.0042499,
  "lon": 8.9534033
},
{
  "type": "node",
  "id": 3093942616,
  "lat": 46.0042716,
  "lon": 8.9535496
},
{
  "type": "node",
  "id": 3093942623,
  "lat": 46.0042746,
  "lon": 8.9535703
},
{
  "type": "node",
  "id": 3093942624,
  "lat": 46.0043848,
  "lon": 8.9534195
},
{
  "type": "node",
  "id": 3093945235,
  "lat": 46.0042969,
  "lon": 8.9533753
},
{
  "type": "node",
  "id": 3093945245,
  "lat": 46.0043659,
  "lon": 8.9533343
},
{
  "type": "node",
  "id": 3093945257,
  "lat": 46.0043104,
  "lon": 8.9534601
},
{
  "type": "node",
  "id": 3093945260,
  "lat": 46.0043170,
  "lon": 8.9533634
},
{
  "type": "node",
  "id": 3093945262,
  "lat": 46.0043361,
  "lon": 8.9534496
},
{
  "type": "node",
  "id": 3306593181,
  "lat": 46.0044088,
  "lon": 8.9535274
},
{
  "type": "node",
  "id": 2432179640,
  "lat": 46.0107938,
  "lon": 8.9428262
},
{
  "type": "node",
  "id": 2432179689,
  "lat": 46.0108747,
  "lon": 8.9426686
},
{
  "type": "node",
  "id": 2432179713,
  "lat": 46.0107997,
  "lon": 8.9426630
},
{
  "type": "node",
  "id": 2432179724,
  "lat": 46.0108689,
  "lon": 8.9428318
},
{
  "type": "node",
  "id": 4622460944,
  "lat": 46.0191137,
  "lon": 8.9412748
},
{
  "type": "node",
  "id": 5043583115,
  "lat": 46.0190707,
  "lon": 8.9412362
},
{
  "type": "node",
  "id": 5043583116,
  "lat": 46.0191152,
  "lon": 8.9411369
},
{
  "type": "node",
  "id": 5043583117,
  "lat": 46.0191591,
  "lon": 8.9411700
},
{
  "type": "node",
  "id": 2286186130,
  "lat": 46.0005827,
  "lon": 8.9827752
},
{
  "type": "node",
  "id": 2286186131,
  "lat": 46.0007140,
  "lon": 8.9827256
},
{
  "type": "node",
  "id": 2286186133,
  "lat": 46.0007606,
  "lon": 8.9829723
},
{
  "type": "node",
  "id": 2286186134,
  "lat": 46.0006348,
  "lon": 8.9830300
},
{
  "type": "node",
  "id": 314992909,
  "lat": 45.9850397,
  "lon": 9.0523119
},
{
  "type": "node",
  "id": 2055981118,
  "lat": 45.9850503,
  "lon": 9.0523652
},
{
  "type": "node",
  "id": 2056180011,
  "lat": 45.9850974,
  "lon": 9.0524157
},
{
  "type": "node",
  "id": 2053033077,
  "lat": 45.9441745,
  "lon": 9.0763209
},
{
  "type": "node",
  "id": 2053549033,
  "lat": 45.9440932,
  "lon": 9.0763569
},
{
  "type": "node",
  "id": 2053549035,
  "lat": 45.9441452,
  "lon": 9.0763548
},
{
  "type": "node",
  "id": 826760900,
  "lat": 45.9993452,
  "lon": 9.0211799
},
{
  "type": "node",
  "id": 826760935,
  "lat": 45.9992106,
  "lon": 9.0211435
},
{
  "type": "node",
  "id": 826760990,
  "lat": 45.9992744,
  "lon": 9.0209432
},
{
  "type": "node",
  "id": 826761000,
  "lat": 45.9992659,
  "lon": 9.0211092
},
{
  "type": "node",
  "id": 826761141,
  "lat": 45.9992409,
  "lon": 9.0212446
},
{
  "type": "node",
  "id": 826761232,
  "lat": 45.9992254,
  "lon": 9.0209736
},
{
  "type": "node",
  "id": 2059147666,
  "lat": 45.9986052,
  "lon": 9.0682180
},
{
  "type": "node",
  "id": 2059147667,
  "lat": 45.9986341,
  "lon": 9.0681052
},
{
  "type": "node",
  "id": 2059147668,
  "lat": 45.9987381,
  "lon": 9.0682917
},
{
  "type": "node",
  "id": 2059147669,
  "lat": 45.9987661,
  "lon": 9.0681765
},
{
  "type": "node",
  "id": 4565192203,
  "lat": 45.9674704,
  "lon": 9.1808280
},
{
  "type": "node",
  "id": 4613153836,
  "lat": 45.9674380,
  "lon": 9.1807716
},
{
  "type": "node",
  "id": 4613153837,
  "lat": 45.9674179,
  "lon": 9.1807687
},
{
  "type": "node",
  "id": 4613153838,
  "lat": 45.9674028,
  "lon": 9.1808720
},
{
  "type": "node",
  "id": 4613153839,
  "lat": 45.9673960,
  "lon": 9.1810734
},
{
  "type": "node",
  "id": 4613153841,
  "lat": 45.9674816,
  "lon": 9.1810995
},
{
  "type": "node",
  "id": 4613153842,
  "lat": 45.9674881,
  "lon": 9.1808557
},
{
  "type": "node",
  "id": 4613153843,
  "lat": 45.9674697,
  "lon": 9.1808526
},
{
  "type": "node",
  "id": 4613153844,
  "lat": 45.9674708,
  "lon": 9.1807993
},
{
  "type": "node",
  "id": 4613153846,
  "lat": 45.9674364,
  "lon": 9.1807943
},
{
  "type": "node",
  "id": 6419446549,
  "lat": 45.9674154,
  "lon": 9.1808018
},
{
  "type": "node",
  "id": 1283165661,
  "lat": 45.9835663,
  "lon": 9.2044634
},
{
  "type": "node",
  "id": 1283165699,
  "lat": 45.9834034,
  "lon": 9.2044948
},
{
  "type": "node",
  "id": 1283165745,
  "lat": 45.9834283,
  "lon": 9.2043191
},
{
  "type": "node",
  "id": 1283165788,
  "lat": 45.9835728,
  "lon": 9.2043342
},
{
  "type": "node",
  "id": 1283165855,
  "lat": 45.9835280,
  "lon": 9.2044594
},
{
  "type": "node",
  "id": 1283165899,
  "lat": 45.9835227,
  "lon": 9.2044878
},
{
  "type": "node",
  "id": 5467725150,
  "lat": 45.8163770,
  "lon": 9.3224190
},
{
  "type": "node",
  "id": 5467725151,
  "lat": 45.8163089,
  "lon": 9.3225722
},
{
  "type": "node",
  "id": 5467725152,
  "lat": 45.8162045,
  "lon": 9.3224767
},
{
  "type": "node",
  "id": 5467725153,
  "lat": 45.8162725,
  "lon": 9.3223235
},
{
  "type": "node",
  "id": 2994812134,
  "lat": 45.8063118,
  "lon": 9.4042915
},
{
  "type": "node",
  "id": 2994812433,
  "lat": 45.8063836,
  "lon": 9.4035180
},
{
  "type": "node",
  "id": 2994812135,
  "lat": 45.8064608,
  "lon": 9.4036628
},
{
  "type": "node",
  "id": 2994812234,
  "lat": 45.8066673,
  "lon": 9.4035722
},
{
  "type": "node",
  "id": 2994812336,
  "lat": 45.8065956,
  "lon": 9.4043456
},
{
  "type": "node",
  "id": 2994812434,
  "lat": 45.8064127,
  "lon": 9.4041807
},
{
  "type": "node",
  "id": 2994812435,
  "lat": 45.8065184,
  "lon": 9.4042009
},
{
  "type": "node",
  "id": 2994812436,
  "lat": 45.8065664,
  "lon": 9.4036829
},
{
  "type": "node",
  "id": 853677795,
  "lat": 45.9238457,
  "lon": 9.2682371
},
{
  "type": "node",
  "id": 853677874,
  "lat": 45.9237948,
  "lon": 9.2680906
},
{
  "type": "node",
  "id": 853678230,
  "lat": 45.9239554,
  "lon": 9.2679688
},
{
  "type": "node",
  "id": 853678352,
  "lat": 45.9241278,
  "lon": 9.2683194
},
{
  "type": "node",
  "id": 853678474,
  "lat": 45.9239302,
  "lon": 9.2684796
},
{
  "type": "node",
  "id": 2917075833,
  "lat": 45.9000276,
  "lon": 9.3323009
},
{
  "type": "node",
  "id": 2917076199,
  "lat": 45.9002311,
  "lon": 9.3322643
},
{
  "type": "node",
  "id": 2917076249,
  "lat": 45.9002383,
  "lon": 9.3322390
},
{
  "type": "node",
  "id": 2917076251,
  "lat": 45.9002394,
  "lon": 9.3323221
},
{
  "type": "node",
  "id": 2917076253,
  "lat": 45.9002415,
  "lon": 9.3322613
},
{
  "type": "node",
  "id": 1249271113,
  "lat": 45.9165314,
  "lon": 9.3309364
},
{
  "type": "node",
  "id": 1249271216,
  "lat": 45.9165811,
  "lon": 9.3309380
},
{
  "type": "node",
  "id": 1249271308,
  "lat": 45.9165302,
  "lon": 9.3310129
},
{
  "type": "node",
  "id": 1249271520,
  "lat": 45.9165800,
  "lon": 9.3310145
},
{
  "type": "node",
  "id": 2917075856,
  "lat": 45.9000412,
  "lon": 9.3323957
},
{
  "type": "node",
  "id": 2917075859,
  "lat": 45.9000441,
  "lon": 9.3324162
},
{
  "type": "node",
  "id": 2917075869,
  "lat": 45.9000523,
  "lon": 9.3324137
},
{
  "type": "node",
  "id": 2917075949,
  "lat": 45.9001160,
  "lon": 9.3323768
},
{
  "type": "node",
  "id": 2917075952,
  "lat": 45.9001179,
  "lon": 9.3323945
},
{
  "type": "node",
  "id": 2917076115,
  "lat": 45.9001678,
  "lon": 9.3323615
},
{
  "type": "node",
  "id": 2917076136,
  "lat": 45.9001821,
  "lon": 9.3323571
},
{
  "type": "node",
  "id": 2917076206,
  "lat": 45.9002360,
  "lon": 9.3323407
},
{
  "type": "node",
  "id": 2917076254,
  "lat": 45.9002418,
  "lon": 9.3323389
},
{
  "type": "node",
  "id": 1402808212,
  "lat": 45.8736410,
  "lon": 9.4830127
},
{
  "type": "node",
  "id": 1402808217,
  "lat": 45.8736560,
  "lon": 9.4830014
},
{
  "type": "node",
  "id": 1402808308,
  "lat": 45.8738658,
  "lon": 9.4828810
},
{
  "type": "node",
  "id": 3818834783,
  "lat": 45.8734426,
  "lon": 9.4819455
},
{
  "type": "node",
  "id": 4936190108,
  "lat": 45.8737729,
  "lon": 9.4829003
},
{
  "type": "node",
  "id": 1402808203,
  "lat": 45.8736255,
  "lon": 9.4830826
},
{
  "type": "node",
  "id": 1402808205,
  "lat": 45.8737092,
  "lon": 9.4856999
},
{
  "type": "node",
  "id": 3892208284,
  "lat": 45.8848533,
  "lon": 9.4789085
},
{
  "type": "node",
  "id": 1402808604,
  "lat": 45.8899073,
  "lon": 9.4770083
},
{
  "type": "node",
  "id": 5764114606,
  "lat": 45.8569684,
  "lon": 9.5251406
},
{
  "type": "node",
  "id": 5764114607,
  "lat": 45.8569306,
  "lon": 9.5250006
},
{
  "type": "node",
  "id": 5764114609,
  "lat": 45.8570760,
  "lon": 9.5250749
},
{
  "type": "node",
  "id": 5764114612,
  "lat": 45.8570407,
  "lon": 9.5249394
},
{
  "type": "node",
  "id": 5764130698,
  "lat": 45.8570090,
  "lon": 9.5251123
},
{
  "type": "node",
  "id": 5764224872,
  "lat": 45.8569587,
  "lon": 9.5249850
},
{
  "type": "node",
  "id": 5764224873,
  "lat": 45.8570048,
  "lon": 9.5249594
},
{
  "type": "node",
  "id": 3190109656,
  "lat": 45.9320208,
  "lon": 9.4862689
},
{
  "type": "node",
  "id": 3190110625,
  "lat": 45.9319167,
  "lon": 9.4861600
},
{
  "type": "node",
  "id": 3190111183,
  "lat": 45.9319409,
  "lon": 9.4860589
},
{
  "type": "node",
  "id": 3190111196,
  "lat": 45.9319467,
  "lon": 9.4861802
},
{
  "type": "node",
  "id": 3190111197,
  "lat": 45.9319478,
  "lon": 9.4860303
},
{
  "type": "node",
  "id": 3190111204,
  "lat": 45.9319535,
  "lon": 9.4861658
},
{
  "type": "node",
  "id": 3190111260,
  "lat": 45.9319802,
  "lon": 9.4860462
},
{
  "type": "node",
  "id": 3190111266,
  "lat": 45.9319822,
  "lon": 9.4860480
},
{
  "type": "node",
  "id": 3190111273,
  "lat": 45.9319901,
  "lon": 9.4862316
},
{
  "type": "node",
  "id": 3190111292,
  "lat": 45.9320002,
  "lon": 9.4862057
},
{
  "type": "node",
  "id": 3190111404,
  "lat": 45.9320429,
  "lon": 9.4860992
},
{
  "type": "node",
  "id": 3190111409,
  "lat": 45.9320458,
  "lon": 9.4862151
},
{
  "type": "node",
  "id": 3190111418,
  "lat": 45.9320501,
  "lon": 9.4862192
},
{
  "type": "node",
  "id": 3190111495,
  "lat": 45.9320682,
  "lon": 9.4861779
},
{
  "type": "node",
  "id": 3190111497,
  "lat": 45.9320696,
  "lon": 9.4861269
},
{
  "type": "node",
  "id": 3190111519,
  "lat": 45.9320840,
  "lon": 9.4861416
},
{
  "type": "node",
  "id": 470212868,
  "lat": 45.9794021,
  "lon": 9.2535866
},
{
  "type": "node",
  "id": 470212869,
  "lat": 45.9793339,
  "lon": 9.2535381
},
{
  "type": "node",
  "id": 3763137287,
  "lat": 45.9793656,
  "lon": 9.2535607
},
{
  "type": "node",
  "id": 470494832,
  "lat": 45.9863818,
  "lon": 9.2305433
},
{
  "type": "node",
  "id": 470494833,
  "lat": 45.9862328,
  "lon": 9.2306706
},
{
  "type": "node",
  "id": 470494834,
  "lat": 45.9864214,
  "lon": 9.2311279
},
{
  "type": "node",
  "id": 470494836,
  "lat": 45.9865705,
  "lon": 9.2310006
},
{
  "type": "node",
  "id": 470212870,
  "lat": 45.9792258,
  "lon": 9.2538518
},
{
  "type": "node",
  "id": 470212871,
  "lat": 45.9792945,
  "lon": 9.2539006
},
{
  "type": "node",
  "id": 2936810705,
  "lat": 45.9792387,
  "lon": 9.2538157
},
{
  "type": "node",
  "id": 1255565678,
  "lat": 46.0093251,
  "lon": 9.2853690
},
{
  "type": "node",
  "id": 1255565852,
  "lat": 46.0093029,
  "lon": 9.2857048
},
{
  "type": "node",
  "id": 1255565971,
  "lat": 46.0091963,
  "lon": 9.2855213
},
{
  "type": "node",
  "id": 1255566046,
  "lat": 46.0091580,
  "lon": 9.2856798
},
{
  "type": "node",
  "id": 2937000307,
  "lat": 46.0092147,
  "lon": 9.2854886
},
{
  "type": "node",
  "id": 2937000308,
  "lat": 46.0092340,
  "lon": 9.2854928
},
{
  "type": "node",
  "id": 4478866645,
  "lat": 46.0092629,
  "lon": 9.2853562
},
{
  "type": "node",
  "id": 6263533325,
  "lat": 46.0093241,
  "lon": 9.2853849
},
{
  "type": "node",
  "id": 6263533326,
  "lat": 46.0093133,
  "lon": 9.2855475
},
{
  "type": "node",
  "id": 2936958901,
  "lat": 46.0073893,
  "lon": 9.2882134
},
{
  "type": "node",
  "id": 2936958902,
  "lat": 46.0077866,
  "lon": 9.2880203
},
{
  "type": "node",
  "id": 2936958903,
  "lat": 46.0078080,
  "lon": 9.2880617
},
{
  "type": "node",
  "id": 2936958904,
  "lat": 46.0078239,
  "lon": 9.2879803
},
{
  "type": "node",
  "id": 2936958905,
  "lat": 46.0078764,
  "lon": 9.2878316
},
{
  "type": "node",
  "id": 2936959001,
  "lat": 46.0074570,
  "lon": 9.2883443
},
{
  "type": "node",
  "id": 2936959002,
  "lat": 46.0076202,
  "lon": 9.2879289
},
{
  "type": "node",
  "id": 2936959003,
  "lat": 46.0076324,
  "lon": 9.2879525
},
{
  "type": "node",
  "id": 2936959004,
  "lat": 46.0076922,
  "lon": 9.2880920
},
{
  "type": "node",
  "id": 2936959005,
  "lat": 46.0077183,
  "lon": 9.2880844
},
{
  "type": "node",
  "id": 2936959006,
  "lat": 46.0077428,
  "lon": 9.2881316
},
{
  "type": "node",
  "id": 2936959007,
  "lat": 46.0077931,
  "lon": 9.2879209
},
{
  "type": "node",
  "id": 2936959008,
  "lat": 46.0078173,
  "lon": 9.2877174
},
{
  "type": "node",
  "id": 2936959301,
  "lat": 46.0076990,
  "lon": 9.2881051
},
{
  "type": "node",
  "id": 3413097681,
  "lat": 46.0096386,
  "lon": 9.2844062
},
{
  "type": "node",
  "id": 3413097682,
  "lat": 46.0095984,
  "lon": 9.2844602
},
{
  "type": "node",
  "id": 3413099759,
  "lat": 46.0096862,
  "lon": 9.2843424
},
{
  "type": "node",
  "id": 3413099760,
  "lat": 46.0097451,
  "lon": 9.2844341
},
{
  "type": "node",
  "id": 3413099761,
  "lat": 46.0097177,
  "lon": 9.2844704
},
{
  "type": "node",
  "id": 3413099762,
  "lat": 46.0097818,
  "lon": 9.2845712
},
{
  "type": "node",
  "id": 3413099763,
  "lat": 46.0097037,
  "lon": 9.2846740
},
{
  "type": "node",
  "id": 4073594978,
  "lat": 46.0095790,
  "lon": 9.2844862
},
{
  "type": "node",
  "id": 4073594979,
  "lat": 46.0096749,
  "lon": 9.2846344
},
{
  "type": "node",
  "id": 4073595399,
  "lat": 46.0097150,
  "lon": 9.2843868
},
{
  "type": "node",
  "id": 2962400041,
  "lat": 45.9960151,
  "lon": 9.3325190
},
{
  "type": "node",
  "id": 2962400042,
  "lat": 45.9960504,
  "lon": 9.3325542
},
{
  "type": "node",
  "id": 2962400044,
  "lat": 45.9960729,
  "lon": 9.3325726
},
{
  "type": "node",
  "id": 2962400045,
  "lat": 45.9961141,
  "lon": 9.3326097
},
{
  "type": "node",
  "id": 2962400046,
  "lat": 45.9961382,
  "lon": 9.3325542
},
{
  "type": "node",
  "id": 2962400047,
  "lat": 45.9961553,
  "lon": 9.3325526
},
{
  "type": "node",
  "id": 2962400048,
  "lat": 45.9961542,
  "lon": 9.3325295
},
{
  "type": "node",
  "id": 2962400049,
  "lat": 45.9961811,
  "lon": 9.3324725
},
{
  "type": "node",
  "id": 2962400050,
  "lat": 45.9961474,
  "lon": 9.3324397
},
{
  "type": "node",
  "id": 2962400053,
  "lat": 45.9961176,
  "lon": 9.3324154
},
{
  "type": "node",
  "id": 2962400054,
  "lat": 45.9960813,
  "lon": 9.3323799
},
{
  "type": "node",
  "id": 2962400055,
  "lat": 45.9960558,
  "lon": 9.3324340
},
{
  "type": "node",
  "id": 2962400056,
  "lat": 45.9960402,
  "lon": 9.3324359
},
{
  "type": "node",
  "id": 2962400057,
  "lat": 45.9960419,
  "lon": 9.3324633
},
{
  "type": "node",
  "id": 2963294974,
  "lat": 45.9961272,
  "lon": 9.3323952
},
{
  "type": "node",
  "id": 2963304951,
  "lat": 45.9961550,
  "lon": 9.3324230
},
{
  "type": "node",
  "id": 2963304952,
  "lat": 45.9961507,
  "lon": 9.3324184
},
{
  "type": "node",
  "id": 3422785544,
  "lat": 45.9960561,
  "lon": 9.3325770
},
{
  "type": "node",
  "id": 3304794904,
  "lat": 46.0588530,
  "lon": 9.2465690
},
{
  "type": "node",
  "id": 3304794910,
  "lat": 46.0588860,
  "lon": 9.2465040
},
{
  "type": "node",
  "id": 3304794916,
  "lat": 46.0589220,
  "lon": 9.2465420
},
{
  "type": "node",
  "id": 3304794921,
  "lat": 46.0589310,
  "lon": 9.2466500
},
{
  "type": "node",
  "id": 3304794926,
  "lat": 46.0589400,
  "lon": 9.2465070
},
{
  "type": "node",
  "id": 3304794940,
  "lat": 46.0589820,
  "lon": 9.2465510
},
{
  "type": "node",
  "id": 3322026888,
  "lat": 46.0589034,
  "lon": 9.2466214
},
{
  "type": "node",
  "id": 5322647376,
  "lat": 45.9492740,
  "lon": 9.4437220
},
{
  "type": "node",
  "id": 5322647377,
  "lat": 45.9491150,
  "lon": 9.4437100
},
{
  "type": "node",
  "id": 5322647379,
  "lat": 45.9492170,
  "lon": 9.4436750
},
{
  "type": "node",
  "id": 5322647381,
  "lat": 45.9492250,
  "lon": 9.4436610
},
{
  "type": "node",
  "id": 5322647382,
  "lat": 45.9492040,
  "lon": 9.4436600
},
{
  "type": "node",
  "id": 5322647383,
  "lat": 45.9492030,
  "lon": 9.4436580
},
{
  "type": "node",
  "id": 5322647384,
  "lat": 45.9491830,
  "lon": 9.4436330
},
{
  "type": "node",
  "id": 5323970066,
  "lat": 45.9492600,
  "lon": 9.4437046
},
{
  "type": "node",
  "id": 5322647372,
  "lat": 45.9491970,
  "lon": 9.4438850
},
{
  "type": "node",
  "id": 5322647373,
  "lat": 45.9490190,
  "lon": 9.4438650
},
{
  "type": "node",
  "id": 5322647374,
  "lat": 45.9489920,
  "lon": 9.4437990
},
{
  "type": "node",
  "id": 5322647375,
  "lat": 45.9491230,
  "lon": 9.4437780
},
{
  "type": "way",
  "id": 173769301,
  "nodes": [
    1845257706,
    1845257705,
    1845257702,
    1845257691,
    1845257694,
    1845257708,
    1845257707,
    1845257706
  ]
},
{
  "type": "way",
  "id": 173769439,
  "nodes": [
    1845257700,
    1845257701,
    1845257697,
    1845257696,
    1845257700
  ]
},
{
  "type": "way",
  "id": 295732626,
  "nodes": [
    2994812234,
    2994812336,
    2994812134,
    2994812433,
    2994812234
  ]
},
{
  "type": "way",
  "id": 295732624,
  "nodes": [
    2994812436,
    2994812435,
    2994812434,
    2994812135,
    2994812436
  ]
}

  ]
}
