{
  "version": 0.6,
  "generator": "Overpass API 0.7.55.1011 6c2efc30",
  "osm3s": {
    "timestamp_osm_base": "2020-02-14T17:00:01Z",
    "copyright": "The data included in this document is from www.openstreetmap.org. The data is made available under ODbL."
  },
  "elements": [

{
  "type": "node",
  "id": 256565775,
  "lat": 50.4486880,
  "lon": 30.4605075,
  "tags": {
    "addr:housenumber": "37, корп. 6",
    "name": "Державний політехнічний музей",
    "opening_hours": "Mo-Fr 09:00-16:30",
    "phone": "+380 44 406-8517",
    "tourism": "museum",
    "website": "https://museum.kpi.ua/"
  }
},
{
  "type": "node",
  "id": 305556276,
  "lat": 50.4439803,
  "lon": 30.5155488,
  "tags": {
    "name": "Київський літературно-меморіальний музей-квартира М. Бажана",
    "name:ru": "Киевский литературно-мемориальный музей-квартира Н. Бажана",
    "toilets:wheelchair": "no",
    "tourism": "museum",
    "wheelchair": "yes",
    "wikipedia": "uk:Київський літературно-меморіальний музей-квартира Миколи Бажана"
  }
},
{
  "type": "node",
  "id": 306529540,
  "lat": 50.4322344,
  "lon": 30.5576847,
  "tags": {
    "description": "Национальный центр народной культуры",
    "description:en": "The national center of folk culture “Ivan Honchar Museum”",
    "name": "Музей Івана Гончара",
    "name:en": "Ivan Honchar Museum",
    "name:pl": "Muzeum Iwana Gonczara",
    "name:ru": "Музей Ивана Гончара",
    "name:uk": "Музей Івана Гончара",
    "opening_hours": "Tu-Su 10:00-18:00",
    "tourism": "museum",
    "website": "https://honchar.org.ua/",
    "wikidata": "Q3398437"
  }
},
{
  "type": "node",
  "id": 479281293,
  "lat": 50.5895686,
  "lon": 30.4944645,
  "tags": {
    "name": "Музей гончарства",
    "opening_hours": "Mo-Sa 10:00-17:00",
    "tourism": "museum"
  }
},
{
  "type": "node",
  "id": 512006445,
  "lat": 50.4362115,
  "lon": 30.5365205,
  "tags": {
    "addr:housenumber": "22",
    "addr:street": "Рибальська вулиця",
    "description": "Free of charge (безкоштовно)",
    "name": "Музей історії туалету",
    "name:ru": "Музей истории туалета",
    "name:uk": "Музей історії туалету",
    "opening_hours": "Mo-Su 10:00-17:00",
    "phone": "+380445319400",
    "tourism": "museum",
    "wikidata": "Q4306351"
  }
},
{
  "type": "node",
  "id": 538245545,
  "lat": 50.4349231,
  "lon": 30.5540135,
  "tags": {
    "addr:housenumber": "10-12",
    "addr:postcode": "01010",
    "addr:street": "Лаврська вулиця",
    "description": "Національний культурно-мистецький і музейний комплекс «Мистецький Арсенал»",
    "description:en": "National Cultural-Art and Museum Complex «Mystetskyi Arsenal»",
    "internet_access": "wlan",
    "name": "Мистецький арсенал",
    "name:en": "Mystetskyi Arsenal",
    "name:ru": "Мыстецкий арсенал",
    "name:uk": "Мистецький арсенал",
    "opening_hours": "Th-Su 11:00-20:00",
    "payment:cash": "yes",
    "payment:coins": "yes",
    "payment:credit_cards": "yes",
    "payment:debit_cards": "yes",
    "payment:discover_card": "yes",
    "payment:mastercard": "yes",
    "payment:visa": "yes",
    "payment:visa_electron": "yes",
    "phone": "+380442885225",
    "toilets:wheelchair": "yes",
    "tourism": "museum",
    "website": "https://artarsenal.in.ua/",
    "wheelchair": "yes",
    "wikidata": "Q3398656",
    "wikipedia": "uk:Мистецький арсенал"
  }
},
{
  "type": "node",
  "id": 873809346,
  "lat": 50.5833516,
  "lon": 30.4889248,
  "tags": {
    "name": "Краєзнавчий музей",
    "name:uk": "Краєзнавчий музей",
    "tourism": "museum"
  }
},
{
  "type": "node",
  "id": 912006903,
  "lat": 50.4488926,
  "lon": 30.5810439,
  "tags": {
    "addr:city": "Київ",
    "addr:housenumber": "9В",
    "addr:street": "Броварський проспект",
    "name": "Київ в мініатюрі",
    "name:en": "Kyiv in miniature",
    "name:ru": "Украина в миниатюре",
    "name:uk": "Україна в мініатюрі",
    "opening_hours": "10:00 - 19:00",
    "tourism": "museum",
    "website": "http://minikiev.kiev.ua"
  }
},
{
  "type": "node",
  "id": 1360792797,
  "lat": 50.5200922,
  "lon": 30.2438515,
  "tags": {
    "addr:housenumber": "2а",
    "addr:street": "Шевченка вулиця",
    "tourism": "museum"
  }
},
{
  "type": "node",
  "id": 1502836056,
  "lat": 50.4471057,
  "lon": 30.5053936,
  "tags": {
    "name": "Національний музей медицини",
    "name:en": "Museum of Medicine",
    "name:ru": "Национальный музей медицины",
    "name:uk": "Національний музей медицини",
    "official_name": "Національний музей медицини України",
    "official_name:ru": "Национальный музей медицины Украины",
    "opening_hours": "Mo-Sa 10:00-17:30",
    "phone": "+38 044 234-15-74",
    "tourism": "museum",
    "website": "http://nmmu.org/",
    "wikidata": "Q3398646"
  }
},
{
  "type": "node",
  "id": 1670886531,
  "lat": 50.6246955,
  "lon": 30.4198709,
  "tags": {
    "addr:housenumber": "67",
    "addr:street": "Ватутіна вулиця",
    "name": "Музей-заповідник «Битва за Київ у 1943 році»",
    "tourism": "museum",
    "website": "http://battle-kyiv.org.ua/",
    "wikidata": "Q12100452"
  }
},
{
  "type": "node",
  "id": 1764261395,
  "lat": 50.4343960,
  "lon": 30.5571827,
  "tags": {
    "name": "Музей українського народного декоративного мистецтва",
    "name:de": "Museum der ukrainischen Volkskunst",
    "name:en": "The National Folk Decorative Art Museum",
    "name:ru": "Национальный музей украинского народного декоративного искусства",
    "name:uk": "Музей українського народного декоративного мистецтва",
    "tourism": "museum",
    "wikidata": "Q1139126",
    "wikipedia": "uk:Музей українського народного декоративного мистецтва"
  }
},
{
  "type": "node",
  "id": 1986608633,
  "lat": 50.4559426,
  "lon": 30.4030769,
  "tags": {
    "name": "Музей боевой и трудовой славы завода станков-автоматов",
    "tourism": "museum"
  }
},
{
  "type": "node",
  "id": 2021360710,
  "lat": 50.4357704,
  "lon": 30.5576790,
  "tags": {
    "name": "Музей історичних коштовностей України",
    "name:de": "Museum für historische Kostbarkeiten der Ukraine",
    "name:en": "Museum of Historical Treasures of Ukraine",
    "name:ru": "Музей исторических драгоценностей Украини",
    "name:uk": "Музей історичних коштовностей України",
    "tourism": "museum",
    "website": "http://miku.org.ua/filiali_miku.html",
    "wikidata": "Q3400166",
    "wikipedia": "uk:Музей історичних коштовностей України"
  }
},
{
  "type": "node",
  "id": 2162422600,
  "lat": 50.4398231,
  "lon": 30.5204188,
  "tags": {
    "name": "Київський міський Будинок природи",
    "name:ru": "Киевский городской дом природы",
    "name:uk": "Київський міський Будинок природи",
    "tourism": "museum",
    "website": "www.dom-prirody.com.ua"
  }
},
{
  "type": "node",
  "id": 2430585650,
  "lat": 50.4483307,
  "lon": 30.4610567,
  "tags": {
    "name": "Музей НТУУ «КПІ», відділ авіації і космонавтики ім. І.І. Сікорського",
    "name:ru": "Музей НТУУ «КПИ», отдел авиации и космонавтики им. И.И. Сикорского",
    "tourism": "museum"
  }
},
{
  "type": "node",
  "id": 2479728108,
  "lat": 50.3938410,
  "lon": 30.5049933,
  "tags": {
    "name": "Музей політичних репресій",
    "name:en": "Political repressions museum",
    "name:ru": "Музей политических репрессий",
    "name:uk": "Музей політичних репресій",
    "tourism": "museum"
  }
},
{
  "type": "node",
  "id": 2699615702,
  "lat": 50.6142583,
  "lon": 30.4745584,
  "tags": {
    "tourism": "museum"
  }
},
{
  "type": "node",
  "id": 2801998533,
  "lat": 50.4663064,
  "lon": 30.5173857,
  "tags": {
    "addr:housenumber": "1",
    "addr:street": "Хорива провулок",
    "name": "Український Національний Музей «Чорнобиль»",
    "name:en": "Ukrainian National Museum \"Chornobyl\"",
    "name:ja": "チェルノブイリ博物館",
    "name:lv": "Ukrainas nacionālais muzejs «Černobiļa»",
    "name:ru": "Украинский Национальний Музей «Чорнобыль»",
    "name:uk": "Український Національний Музей «Чорнобиль»",
    "opening_hours": "Mo-Sa 10:00-18:00; Su off",
    "tourism": "museum",
    "website": "http://chornobylmuseum.kiev.ua",
    "wikidata": "Q2664327",
    "wikipedia": "uk:Національний музей «Чорнобиль»"
  }
},
{
  "type": "node",
  "id": 2881370088,
  "lat": 50.4340804,
  "lon": 30.5296546,
  "tags": {
    "addr:housenumber": "24а",
    "addr:street": "Госпітальна вулиця",
    "name": "Каса музею \"Київська фортеця\"",
    "name:ru": "Касса музея \"Киевская крепость\"",
    "name:uk": "Каса музею \"Київська фортеця\"",
    "opening_hours": "Mo-Su 10:00-17:00",
    "tourism": "museum"
  }
},
{
  "type": "node",
  "id": 3261855391,
  "lat": 50.4454808,
  "lon": 30.5150775,
  "tags": {
    "name": "Національний науково-природничий музей",
    "name:ru": "Национальный научно-природоведческий музей",
    "opening_hours": "We-Fr 10:00-17:00, Sa-Su 11:00-18:00, mo-tu off",
    "tourism": "museum",
    "website": "http://www.museumkiev.org",
    "wikidata": "Q3398677"
  }
},
{
  "type": "node",
  "id": 3534376704,
  "lat": 50.4443658,
  "lon": 30.5390314,
  "tags": {
    "addr:housenumber": "30/1",
    "addr:street": "Михайла Грушевського вулиця",
    "contact:website": "http://nvimu.com.ua/",
    "name": "Війсково-історичний музей України",
    "name:ru": "Военно-исторический музей Украины",
    "name:uk": "Війсково-історичний музей України",
    "official_name": "Національний війсково-історичний музей України",
    "opening_hours": "Tu-Su 10:00-18:00",
    "phone": "+38(044) 253-27-50",
    "tourism": "museum",
    "website": "http://www.nvimu.com.ua/",
    "wheelchair": "limited",
    "wikidata": "Q3399776",
    "wikipedia": "uk:Національний військово-історичний музей України"
  }
},
{
  "type": "node",
  "id": 3719600974,
  "lat": 50.4580678,
  "lon": 30.5190656,
  "tags": {
    "name": "Міський музей духовні скарби України",
    "name:ko": "박물관 옥상에 전망대",
    "name:ru": "Городской музей духовных сокровищ Украины",
    "tourism": "museum",
    "wikidata": "Q3399806"
  }
},
{
  "type": "node",
  "id": 3776842434,
  "lat": 50.4597208,
  "lon": 30.5121356,
  "tags": {
    "name": "Галерея \"ВИСОЦЬКИЙ\"",
    "opening_hours": "11:00-18:00",
    "phone": "+380443840386",
    "short_name": "ВИСОЦЬКИЙ",
    "tourism": "museum",
    "website": "http://vysotsky-gallery.org"
  }
},
{
  "type": "node",
  "id": 3808440206,
  "lat": 50.3808613,
  "lon": 30.4592482,
  "tags": {
    "name": "Музей пам'яті Блаженнішого митрополита Володимира",
    "tourism": "museum"
  }
},
{
  "type": "node",
  "id": 4024312592,
  "lat": 50.4619403,
  "lon": 30.5173215,
  "tags": {
    "addr:country": "UA",
    "addr:housenumber": "2-Б",
    "fax": "+38 44 425 52 62",
    "name": "Музей однієї вулиці",
    "name:de": "Eine-Straße-Museum",
    "name:en": "One Street Museum",
    "name:ru": "Музей одной улицы",
    "name:uk": "Музей однієї вулиці",
    "opening_hours": "Tu-Su 12:00-18:00",
    "phone": "+38 44 425 03 98",
    "tourism": "museum",
    "website": "http://onestreet.kiev.ua/",
    "wheelchair": "yes",
    "wikidata": "Q2642379"
  }
},
{
  "type": "node",
  "id": 4086598231,
  "lat": 50.1955456,
  "lon": 30.3165146,
  "tags": {
    "name": "Музей військової техніки",
    "tourism": "museum"
  }
},
{
  "type": "node",
  "id": 4125581291,
  "lat": 50.4341558,
  "lon": 30.5288030,
  "tags": {
    "addr:housenumber": "24а",
    "addr:street": "Госпітальна вулиця",
    "name": "Київська фортеця (адміністрація музею)",
    "name:ru": "Киевская крепость (администрация музея)",
    "opening_hours": "Mo-Su 10:00-18:00",
    "tourism": "museum"
  }
},
{
  "type": "node",
  "id": 4254094265,
  "lat": 50.4721000,
  "lon": 30.4982089,
  "tags": {
    "name": "Музей сучасного мистецтва України",
    "tourism": "museum"
  }
},
{
  "type": "node",
  "id": 4433104289,
  "lat": 50.5875950,
  "lon": 30.4875781,
  "tags": {
    "name": "Вишгородський історичний музей",
    "name:uk": "Вишгородський історичний музей",
    "tourism": "museum"
  }
},
{
  "type": "node",
  "id": 4452484773,
  "lat": 50.4465172,
  "lon": 30.0477508,
  "tags": {
    "name": "Музей \"Подільська хата\"",
    "tourism": "museum"
  }
},
{
  "type": "node",
  "id": 4452484774,
  "lat": 50.4464575,
  "lon": 30.0482685,
  "tags": {
    "name": "Музей \"Слобожанська хата\"",
    "tourism": "museum"
  }
},
{
  "type": "node",
  "id": 4466031401,
  "lat": 50.5729008,
  "lon": 30.0976846,
  "tags": {
    "addr:housenumber": "1",
    "addr:street": "Технікумівська вулиця",
    "description": "Експозиції музею: народні костюми усіх областей, писанки усіх регіонів, вироби народних майстрів",
    "internet_access": "wlan",
    "name": "Музей українського костюма та української писанки",
    "opening_hours": "Mo-Th 08:00-17:00; Fr 08:00-16:00",
    "operator": "Державна установа «Науково-методичний центр інформаційно-аналітичного забезпечення діяльності вищих навчальних закладів «Агроосвіта»",
    "phone": "+380457741295",
    "tourism": "museum"
  }
},
{
  "type": "node",
  "id": 4473954398,
  "lat": 50.4599034,
  "lon": 30.5116109,
  "tags": {
    "addr:postcode": "04071",
    "internet_access": "wlan",
    "name:en": "Bereznitsky Aesthetics Gallery",
    "tourism": "museum"
  }
},
{
  "type": "node",
  "id": 4554027547,
  "lat": 50.3474725,
  "lon": 30.9598354,
  "tags": {
    "tourism": "museum"
  }
},
{
  "type": "node",
  "id": 4663248903,
  "lat": 50.4435328,
  "lon": 30.5337927,
  "tags": {
    "addr:housenumber": "16",
    "addr:street": "Липська вулиця",
    "name": "Аукціон ARSANI",
    "name:en": "ARSANI Auction house",
    "name:ru": "Аукцион ARSANI",
    "name:uk": "Аукціон ARSANI",
    "opening_hours": "Mo-Su 10:00-18:00",
    "phone": "057 780 5777",
    "tourism": "museum",
    "website": "http://www.arsani.ua"
  }
},
{
  "type": "node",
  "id": 4755050122,
  "lat": 50.4500115,
  "lon": 30.4161611,
  "tags": {
    "name": "Історичний Експозиційно-реставраційний Центр КП \"Київпастранс\"",
    "note": "Виставкова територія - це територія всього Центру.",
    "operator": "КП \"Київпастранс\"",
    "tourism": "museum",
    "website": "https://www.facebook.com/kievtransportmuseum/"
  }
},
{
  "type": "node",
  "id": 4774942315,
  "lat": 50.4499520,
  "lon": 30.5063638,
  "tags": {
    "addr:city": "Київ",
    "addr:housenumber": "45-в",
    "addr:street": "Олеся Гончара вулиця",
    "description": "Музей темноты",
    "name": "Три після опівночі",
    "name:ru": "Три после полуночи",
    "name:uk": "Три після опівночі",
    "opening_hours": "12:00-22:00",
    "operator": "03:00",
    "tourism": "museum"
  }
},
{
  "type": "node",
  "id": 4798176922,
  "lat": 50.6247077,
  "lon": 30.4575541,
  "tags": {
    "name": "Музей ретро автомобілів",
    "name:uk": "Музей ретро автомобілів",
    "tourism": "museum"
  }
},
{
  "type": "node",
  "id": 4886320041,
  "lat": 50.4577899,
  "lon": 30.5008945,
  "tags": {
    "addr:housenumber": "9",
    "addr:street": "Кудрявська вулиця",
    "name": "Київський музей Пушкіна",
    "name:en": "Alexandr Pushkin Museum",
    "opening_hours": "Mo-Su 10:00-17:00",
    "phone": "+380442724206",
    "tourism": "museum"
  }
},
{
  "type": "node",
  "id": 4912371119,
  "lat": 50.4671755,
  "lon": 30.5866646,
  "tags": {
    "addr:housenumber": "112",
    "addr:street": "Євгена Маланюка вулиця",
    "name": "Музей непотрібних речей",
    "opening_hours": "Mo-Fr 09:00-18:00",
    "phone": "+38 044 517 39 63",
    "tourism": "museum",
    "wikidata": "Q3399758",
    "wikipedia": "uk:Музей вторсировини"
  }
},
{
  "type": "node",
  "id": 4934717821,
  "lat": 50.4213509,
  "lon": 30.5669298,
  "tags": {
    "name": "Червоний двір",
    "name:ru": "Красный двор",
    "tourism": "museum"
  }
},
{
  "type": "node",
  "id": 5202891421,
  "lat": 50.3875047,
  "lon": 30.4797114,
  "tags": {
    "addr:postcode": "03022",
    "description": "Директор музею – доктор геологічних наук, професор Нестеровський Віктор Антонович",
    "email": "nesterovski@univ.kiev.ua",
    "name": "Геологічний музей ННІ \"Інститут геології\"",
    "name:en": "Geological museum of Institute of Geology",
    "name:ru": "Геологический музей УНИ \"Институт геологии\"",
    "opening_hours": "Mo-Fr 10:00-16:00",
    "phone": "(044) 259-70-33",
    "tourism": "museum",
    "website": "http://www.geol.univ.kiev.ua/ua/museum/"
  }
},
{
  "type": "node",
  "id": 5319800088,
  "lat": 50.4361063,
  "lon": 30.5097762,
  "tags": {
    "name": "Software and Computer Museum",
    "opening_hours": "mo-fr 10:00-20:00; sa 11:00-18:00; su off",
    "tourism": "museum"
  }
},
{
  "type": "node",
  "id": 5441093022,
  "lat": 50.4873827,
  "lon": 30.4940681,
  "tags": {
    "name": "Експериментаніум",
    "opening_hours": "Tu-Fr 09:30-19:00; Sa-Su 10:00-20:00",
    "tourism": "museum"
  }
},
{
  "type": "node",
  "id": 5825114154,
  "lat": 50.4484734,
  "lon": 30.5292001,
  "tags": {
    "name": "Національний музей Революції Гідності",
    "name:en": "National Dignity Revolution Museum",
    "name:ru": "Национальный музей Революции Достоинства",
    "name:uk": "Національний музей Революції Гідності",
    "phone": "+380442225016",
    "tourism": "museum",
    "website": "http://maidanmuseum.org"
  }
},
{
  "type": "node",
  "id": 6200189486,
  "lat": 50.4654453,
  "lon": 30.5139594,
  "tags": {
    "name:en": "Bursa Gallery",
    "tourism": "museum"
  }
},
{
  "type": "node",
  "id": 6200190885,
  "lat": 50.4682653,
  "lon": 30.5121336,
  "tags": {
    "name:en": "Dymchuk Gallery",
    "tourism": "museum"
  }
},
{
  "type": "node",
  "id": 6200190886,
  "lat": 50.4542337,
  "lon": 30.5226796,
  "tags": {
    "level": "0",
    "name": "Щербенко арт центр",
    "name:en": "Shcherbenko Art Centre",
    "opening_hours": "Tu-sa 11:00-20:00",
    "tourism": "museum"
  }
},
{
  "type": "node",
  "id": 6200190985,
  "lat": 50.4516546,
  "lon": 30.5108764,
  "tags": {
    "name:en": "The Naked room",
    "tourism": "museum"
  }
},
{
  "type": "node",
  "id": 6461444855,
  "lat": 50.4400789,
  "lon": 30.5484447,
  "tags": {
    "description": "музей історичного костюма та стілю",
    "name": "Victoria Museum",
    "opening_hours": "Tu-Sa 11:00-19:00;Su-Mo off",
    "tourism": "museum",
    "wheelchair": "no"
  }
},
{
  "type": "node",
  "id": 6773250729,
  "lat": 50.4265169,
  "lon": 30.5622465,
  "tags": {
    "contact:phone": "+38 099 0150452",
    "name": "Музей «Становлення української нації»",
    "name:en": "Museum \"Making of the Ukrainian Nation\"",
    "name:ru": "Музей «Становление украинской нации»",
    "name:uk": "Музей «Становлення української нації»",
    "opening_hours": "Mo-Su 09:00-20:00",
    "source": "local knowledge",
    "start_date": "2019-08-03",
    "toilets": "yes",
    "tourism": "museum",
    "website": "http://www.museumsun.org/",
    "wheelchair": "yes"
  }
},
{
  "type": "node",
  "id": 6830585209,
  "lat": 50.4667730,
  "lon": 30.5214015,
  "tags": {
    "changing_table": "no",
    "layer": "2",
    "museum": "archaeological",
    "museum_type": "regional",
    "name": "Філіал Музею археології",
    "tourism": "museum",
    "wheelchair": "no"
  }
},
{
  "type": "node",
  "id": 6916255954,
  "lat": 50.4501251,
  "lon": 30.5258305,
  "tags": {
    "museum": "maritime",
    "name": "Музей медуз",
    "name:en": "Museum of jellyfish",
    "tourism": "museum"
  }
},
{
  "type": "node",
  "id": 7027176207,
  "lat": 50.4401746,
  "lon": 30.4868870,
  "tags": {
    "name": "Музей залізничного транспорту",
    "tourism": "museum"
  }
},
{
  "type": "node",
  "id": 7104304264,
  "lat": 50.4290361,
  "lon": 30.5599296,
  "tags": {
    "addr:housenumber": "33",
    "name": "На чужих війнах",
    "name:en": "In Foreign Wars",
    "official_name": "Національний музей історії України у Другій світовій війні",
    "old_name": "Музей пам'яті та слави воїнів-інтернаціоналістів",
    "opening_hours": "We-Su 10:00-18:00; Mo-Tu off",
    "phone": "+38 (044) 285-94-57",
    "tourism": "museum",
    "website": "https://warmuseum.kiev.ua/"
  }
},
{
  "type": "node",
  "id": 7119162787,
  "lat": 50.4448764,
  "lon": 30.5427654,
  "tags": {
    "internet_access": "wlan",
    "name:en": "\"Gamma\" Modern Ukrainian Art Gallery of Author's Works",
    "name:ru": "Галерея мастеров современного искусства \"Гамма\"",
    "tourism": "museum",
    "website": "https://gamma-gallery.com/"
  }
},
{
  "type": "way",
  "id": 23678093,
  "nodes": [
    256385975,
    256385976,
    1706767290,
    1706767289,
    1706767291,
    1706767292,
    256385977,
    256385978,
    3531727435,
    256385975
  ],
  "tags": {
    "addr:housenumber": "8",
    "addr:street": "Кловський узвіз",
    "building": "yes",
    "building:levels": "5",
    "name": "Музей Іграшок",
    "name:ru": "Музей Игрушек",
    "source": "Kaart Ground Survey 2017",
    "tourism": "museum",
    "wikidata": "Q3398590"
  }
},
{
  "type": "way",
  "id": 23680023,
  "nodes": [
    256408124,
    256408125,
    256408126,
    256408127,
    256408128,
    256408129,
    256408130,
    256696971,
    256408124
  ],
  "tags": {
    "addr:housenumber": "40б",
    "addr:street": "Московська вулиця",
    "building": "yes",
    "building:levels": "2",
    "name": "Музей культурної спадщини",
    "name:ru": "Музей культурного наследия",
    "tourism": "museum"
  }
},
{
  "type": "way",
  "id": 27829799,
  "nodes": [
    305555191,
    305555192,
    305555193,
    305555194,
    1472492583,
    1472492591,
    1472492598,
    1472492584,
    305555195,
    305555196,
    305555191
  ],
  "tags": {
    "addr:housenumber": "12",
    "addr:street": "Тараса Шевченка бульвар",
    "building": "yes",
    "building:levels": "2",
    "ele": "170.76",
    "name": "Національний музей Тараса Шевченка",
    "name:de": "Taras-Schewtschenko-Nationalmuseum",
    "name:en": "Taras Shevchenko National Museum",
    "name:ru": "Национальный музей Тараса Шевченко",
    "name:uk": "Національний музей Тараса Шевченка",
    "opening_hours": "Tu-Su 10:00-18:00",
    "tourism": "museum",
    "wheelchair": "yes",
    "wikidata": "Q12132920"
  }
},
{
  "type": "way",
  "id": 27829825,
  "nodes": [
    305555410,
    305555411,
    305555412,
    3976562757,
    305555413,
    305555414,
    1502836135,
    1502836138,
    305555415,
    358427647,
    358427648,
    305555410
  ],
  "tags": {
    "addr:housenumber": "11",
    "addr:street": "Богдана Хмельницького вулиця",
    "building": "yes",
    "building:levels": "2",
    "contact:website": "http://museumlit.org.ua/",
    "ele": "168.36",
    "name": "Національний музей літератури України",
    "name:de": "Nationales Literaturmuseum der Ukraine",
    "name:en": "National Museum of Literature in Ukraine",
    "name:ru": "Национальный музей литературы Украины",
    "tourism": "museum",
    "wikidata": "Q11043224",
    "wikipedia": "uk:Національний музей літератури України"
  }
},
{
  "type": "way",
  "id": 27830130,
  "nodes": [
    305558322,
    305558323,
    1568021113,
    1568021108,
    5026994428,
    5026994491,
    5026994490,
    5026994489,
    5026994488,
    5026994487,
    3541551462,
    5026994486,
    5026994485,
    5026994484,
    5026994483,
    5026994482,
    5026994469,
    1568021105,
    1568021110,
    2667681171,
    1568021115,
    305558326,
    1568021129,
    5026994466,
    5026994467,
    1568021130,
    5026994470,
    5026994478,
    1568021133,
    5026994479,
    5026994480,
    5026994481,
    3541551476,
    5026994473,
    5026994474,
    5026994475,
    5026994476,
    5026994477,
    5026994471,
    3541551477,
    1568021134,
    1568021131,
    1568021132,
    5026994472,
    1568021118,
    305558322
  ],
  "tags": {
    "building": "yes",
    "historic": "city_gate",
    "name": "Золоті ворота",
    "name:de": "Goldenes Tor",
    "name:en": "Golden Gate",
    "name:fr": "Porte dorée",
    "name:ko": "골든게이트",
    "name:pl": "Złota Brama",
    "name:ru": "Золотые ворота",
    "name:uk": "Золоті ворота",
    "roof:colour": "brown",
    "roof:material": "wood",
    "tourism": "museum",
    "wikidata": "Q1427503",
    "wikipedia": "uk:Золоті ворота (Київ)"
  }
},
{
  "type": "way",
  "id": 27830573,
  "nodes": [
    305562610,
    305562611,
    305562612,
    305562613,
    1493560183,
    305562610
  ],
  "tags": {
    "addr:housenumber": "1б",
    "addr:street": "Михайла Грушевського вулиця",
    "building": "yes",
    "tourism": "museum"
  }
},
{
  "type": "way",
  "id": 31835025,
  "nodes": [
    356493179,
    356493180,
    356493181,
    356493182,
    356493179
  ],
  "tags": {
    "amenity": "place_of_worship",
    "building": "yes",
    "name": "Кирилівська церква",
    "name:en": "The St. Cyril's Church Museum",
    "name:fr": "Monastère Saint-Cyrille-de-Dorogojitch",
    "name:pl": "Monaster św. Cyryla w Kijowie",
    "name:ru": "Кирилловская церковь",
    "name:uk": "Кирилівська церква",
    "religion": "christian",
    "tourism": "museum",
    "website": "http://nzsk.org.ua",
    "wikidata": "Q2660180",
    "wikipedia": "uk:Кирилівська церква"
  }
},
{
  "type": "way",
  "id": 36777911,
  "nodes": [
    427595931,
    427595932,
    427595933,
    1289564470,
    1533817289,
    1533817287,
    1289564487,
    427595924,
    427595931
  ],
  "tags": {
    "addr:housenumber": "6",
    "building": "yes",
    "name": "Музей історії податкової служби в Україні",
    "name:ru": "Музей истории налоговой службы в Украине",
    "tourism": "museum"
  }
},
{
  "type": "way",
  "id": 40070360,
  "nodes": [
    482223731,
    482223732,
    482223733,
    482223734,
    482223731
  ],
  "tags": {
    "tourism": "museum"
  }
},
{
  "type": "way",
  "id": 45355909,
  "nodes": [
    576600084,
    3614603976,
    3614603975,
    576600091,
    3614603972,
    3614603974,
    3614603973,
    576600133,
    2299951716,
    576600084
  ],
  "tags": {
    "addr:housenumber": "6/8",
    "alt_name": "Петровский домик",
    "building": "yes",
    "building:levels": "2",
    "name": "Будинок Петра І",
    "name:ru": "Дом Петра I",
    "tourism": "museum",
    "wikidata": "Q3398600",
    "wikipedia": "uk:Будинок Петра I (Київ)"
  }
},
{
  "type": "way",
  "id": 45489938,
  "nodes": [
    579638459,
    579638600,
    579638501,
    579638533,
    579638459
  ],
  "tags": {
    "addr:housenumber": "121",
    "addr:postcode": "02000",
    "addr:street": "Велика Васильківська вулиця",
    "building": "yes",
    "building:levels": "2",
    "name": "будинок-музей Марії Заньковецької",
    "name:ru": "дом-музей Марии Заньковецкой",
    "name:uk": "будинок-музей Марії Заньковецької",
    "opening_hours": "Tu-Su 10:00-17:00",
    "phone": "0445295732",
    "tourism": "museum"
  }
},
{
  "type": "way",
  "id": 45513929,
  "nodes": [
    580005485,
    580005468,
    580005469,
    580005486,
    1651078331,
    1651078312,
    1651078340,
    1651078337,
    580005485
  ],
  "tags": {
    "addr:housenumber": "16б",
    "building": "yes",
    "building:levels": "2",
    "designation": "Museum",
    "name": "Музей гетьманства",
    "name:de": "Hetman-Museum",
    "name:ru": "Музей гетманства",
    "tourism": "museum",
    "website": "http://www.getman-museum.kiev.ua/",
    "wikidata": "Q12130545"
  }
},
{
  "type": "way",
  "id": 45565567,
  "nodes": [
    581035482,
    581035484,
    581035486,
    581035496,
    581035488,
    581035482
  ],
  "tags": {
    "addr:city": "Київ",
    "addr:housenumber": "2",
    "addr:street": "Григорія Сковороди вулиця",
    "building": "yes",
    "building:levels": "2",
    "name": "Музей Національного університету «Києво-Могилянська академія»",
    "opening_hours": "Mo-Fr 09:00-18:00",
    "tourism": "museum",
    "website": "https://www.ukma.edu.ua/index.php/about-us/istoriya-akademiji/muzei-naukma",
    "wikidata": "Q12124013",
    "wikipedia": "uk:Музей НаУКМА"
  }
},
{
  "type": "way",
  "id": 45588159,
  "nodes": [
    581287070,
    581287067,
    581287066,
    581287064,
    1723933598,
    1723933599,
    1723933601,
    1723933600,
    581287070
  ],
  "tags": {
    "addr:housenumber": "2",
    "building": "yes",
    "name": "Поштова станція",
    "name:de": "Poststation",
    "name:ru": "Почтовая станция",
    "tourism": "museum",
    "wikidata": "Q7216730",
    "wikipedia": "uk:Поштовий будинок"
  }
},
{
  "type": "way",
  "id": 45895488,
  "nodes": [
    585049832,
    4093561378,
    582823923,
    582823885,
    585050047,
    4093561377,
    585050038,
    585049780,
    585049797,
    585049832
  ],
  "tags": {
    "addr:housenumber": "15",
    "addr:street": "Терещенківська вулиця",
    "building": "yes",
    "building:levels": "2",
    "name": "Музей мистецтв ім. Ханенків",
    "name:de": "Museum der westlichen und orientalischen Kunst Kiew",
    "name:en": "Museum of Western and Oriental Art",
    "name:ru": "Музей искусств им. Богдана и Варвары Ханенко",
    "name:uk": "Музей мистецтв ім. Ханенків",
    "official_name": "Національний музей мистецтв імені Богдана та Варвари Ханенків",
    "tourism": "museum",
    "wikidata": "Q1428076",
    "wikipedia": "uk:Терещенківська вулиця"
  }
},
{
  "type": "way",
  "id": 62805191,
  "nodes": [
    782136771,
    782137574,
    2121575615,
    782136885,
    782137306,
    782136566,
    782136847,
    782137260,
    782137751,
    782137057,
    782137474,
    782136751,
    782137193,
    782137666,
    782136693,
    782137167,
    782137630,
    782136771
  ],
  "tags": {
    "addr:housenumber": "6",
    "addr:postcode": "01001",
    "addr:street": "Михайла Грушевського вулиця",
    "building": "yes",
    "building:levels": "3",
    "email": "info@namu.kiev.ua",
    "name": "Національний художній музей України",
    "name:de": "Nationales Kunstmuseum der Ukraine",
    "name:en": "National Art Museum of Ukraine",
    "name:ru": "Национальный художественный музей Украины",
    "opening_hours": "Su, We-Th 10:00-17:00; Fr 12:00-19:00; Sa 11:00-18:00",
    "phone": "+380442781357",
    "tourism": "museum",
    "website": "http://namu.kiev.ua",
    "wheelchair": "no",
    "wikidata": "Q1189277"
  }
},
{
  "type": "way",
  "id": 62818443,
  "nodes": [
    782242486,
    782242453,
    256211651,
    782242377,
    782242448,
    256211650,
    782242394,
    782242354,
    256211649,
    256211648,
    256211647,
    782242470,
    782242415,
    782242357,
    782242482,
    782242420,
    782242373,
    782242491,
    782242442,
    782242380,
    782242349,
    782242458,
    782242386,
    782242475,
    782242369,
    782242435,
    782242345,
    782242365,
    782242425,
    782242333,
    782242384,
    256211652,
    782242486
  ],
  "tags": {
    "addr:housenumber": "2",
    "addr:street": "Володимирська вулиця",
    "building": "yes",
    "building:levels": "4",
    "name": "Національний музей історії України",
    "name:de": "Nationalmuseum der Geschichte der Ukraine",
    "name:en": "National Museum of History of Ukraine",
    "name:ru": "Национальный музей истории Украины",
    "phone": "+38 44 2784864",
    "tourism": "museum",
    "website": "https://nmiu.com.ua/",
    "wikidata": "Q2084457",
    "wikipedia": "uk:Національний музей історії України"
  }
},
{
  "type": "way",
  "id": 81065379,
  "nodes": [
    944960815,
    944960668,
    944960447,
    944960710,
    944960815
  ],
  "tags": {
    "building": "yes",
    "building:levels": "5",
    "historic": "monument",
    "name": "Меморіал пам'яті жертв голодоморів в Україні",
    "name:de": "Mahnmal für die Opfer des Holodomor in der Ukraine",
    "name:en": "Memorial to the Holodomor Victims",
    "name:pl": "Pomnik Ofiar Głodomoru",
    "name:ru": "Мемориал памяти жертв голодоморов на Украине",
    "name:uk": "Меморіал пам'яті жертв голодоморів в Україні",
    "tourism": "museum",
    "wikidata": "Q3406883",
    "wikipedia": "uk:Національний музей «Меморіал жертв Голодомору»"
  }
},
{
  "type": "way",
  "id": 81247761,
  "nodes": [
    946622949,
    946606781,
    946606162,
    946623095,
    946623459,
    2016463451,
    2016463453,
    2016463447,
    2016463449,
    946606330,
    946607542,
    946622548,
    946622949
  ],
  "tags": {
    "addr:housenumber": "9 к9",
    "building": "yes",
    "name": "Музей книги та друкарства України",
    "name:en": "Museum of Books and Printing of Ukraine",
    "name:ru": "Музей книги и книгопечатания Украины",
    "name:uk": "Музей книги та друкарства України",
    "tourism": "museum",
    "wikidata": "Q2093830",
    "wikipedia": "uk:Музей книги та друкарства України"
  }
},
{
  "type": "way",
  "id": 100290284,
  "nodes": [
    2973609903,
    2973609904,
    2973609905,
    2973609906,
    1159208997,
    1159208458,
    1159209045,
    1159208904,
    1159208729,
    2973609899,
    2973609900,
    2973609901,
    2973609902,
    1159208534,
    1159209127,
    1159208552,
    1159209150,
    1159208844,
    1159208701,
    2973609903
  ],
  "tags": {
    "historic": "monument",
    "layer": "1",
    "name": "Чаша \"Вогонь Слави\"",
    "name:de": "Ruhmesfeuer",
    "name:en": "Fire of Glory",
    "name:ru": "чаша \"Огонь Славы\"",
    "name:uk": "Чаша \"Вогонь Слави\"",
    "tourism": "museum"
  }
},
{
  "type": "way",
  "id": 104438089,
  "nodes": [
    1205011561,
    1205012083,
    1205010276,
    1205006180,
    1205012556,
    1205007990,
    1205012993,
    1205013840,
    1205011561
  ],
  "tags": {
    "addr:housenumber": "91",
    "addr:street": "Київський Шлях вулиця",
    "building": "yes",
    "name": "Історичний музей",
    "name:ru": "Исторический музей",
    "name:uk": "Історичний музей",
    "tourism": "museum"
  }
},
{
  "type": "way",
  "id": 113141278,
  "nodes": [
    1283964898,
    1283964943,
    1283964894,
    1283964910,
    1283964898
  ],
  "tags": {
    "addr:housenumber": "13",
    "addr:street": "Андріївський узвіз",
    "building": "yes",
    "name": "Музей Михайла Булгакова",
    "name:en": "Bulgakov Museum",
    "name:ru": "Музей Михаила Булгакова",
    "name:uk": "Музей Михайла Булгакова",
    "tourism": "museum",
    "wheelchair": "limited",
    "wikidata": "Q2502803"
  }
},
{
  "type": "way",
  "id": 113142362,
  "nodes": [
    1283968024,
    1283968042,
    1283968065,
    1283968077,
    1283968049,
    1283968071,
    1283968043,
    1283968030,
    1283968055,
    1283968021,
    1283968024
  ],
  "tags": {
    "addr:housenumber": "21",
    "building": "yes",
    "name": "Музей-майстерня Івана Кавалерідзе",
    "name:ru": "Музей-мастерская И. Кавалеридзе",
    "name:uk": "Музей-майстерня Івана Кавалерідзе",
    "tourism": "museum",
    "wikidata": "Q3399799",
    "wikipedia": "uk:Музей-майстерня Івана Кавалерідзе"
  }
},
{
  "type": "way",
  "id": 114182805,
  "nodes": [
    1293736949,
    1293736688,
    5961799082,
    1293736983,
    1293736533,
    1297626785,
    1293736496,
    1572488674,
    1572488677,
    1293736579,
    1293736949
  ],
  "tags": {
    "name": "Будинок-музей Т. Шевченка",
    "name:de": "Museum von Taras Schewtschenko",
    "name:ru": "Дом-музей Тараса Шевченко",
    "official_name": "Літературно-меморіальний будинок-музей Тараса Шевченка",
    "tourism": "museum",
    "wikidata": "Q12119960",
    "wikipedia": "uk:Літературно-меморіальний будинок-музей Тараса Шевченка"
  }
},
{
  "type": "way",
  "id": 136112264,
  "nodes": [
    1493560134,
    1493560133,
    2750673115,
    2750673117,
    2750673118,
    2750673119,
    2750673120,
    2750673121,
    1493560142,
    1493560153,
    1493560165,
    1493560166,
    2750673122,
    2750673124,
    2750673125,
    2750673126,
    2750673127,
    1493560163,
    1493560151,
    1493560134
  ],
  "tags": {
    "addr:housenumber": "1в",
    "addr:street": "Михайла Грушевського вулиця",
    "building": "yes",
    "name": "Музей води",
    "name:de": "Wassermuseum",
    "name:en": "Water Museum",
    "name:ru": "Музей воды",
    "name:uk": "Музей води",
    "opening_hours": "We-Fr 10:00-16:00; Sa-Su 10:00-17:00",
    "phone": "0442795333",
    "tourism": "museum",
    "wikidata": "Q2339097",
    "wikipedia": "uk:Водно-інформаційний центр"
  }
},
{
  "type": "way",
  "id": 140011513,
  "nodes": [
    1534182541,
    1534182530,
    1534182536,
    1534182544,
    1534182541
  ],
  "tags": {
    "addr:city": "Київ",
    "addr:housenumber": "93",
    "addr:street": "Саксаганського вулиця",
    "building": "yes",
    "building:levels": "2",
    "name": "Музей Михайла Старицького",
    "name:ru": "Музей Михаила Старицкого",
    "opening_hours": "We-Mo 10:00-17:00",
    "roof:shape": "gabled",
    "tourism": "museum",
    "website": "https://mvduk.kiev.ua/"
  }
},
{
  "type": "way",
  "id": 140011515,
  "nodes": [
    1534182532,
    1534182526,
    1534182535,
    1534182537,
    1534182531,
    1534182540,
    1534182532
  ],
  "tags": {
    "addr:city": "Київ",
    "addr:housenumber": "95",
    "addr:street": "Саксаганського вулиця",
    "building": "yes",
    "name": "Музей Миколи Лисенка",
    "name:ru": "Музей Николая Лысенко",
    "tourism": "museum",
    "website": "https://mvduk.kiev.ua/"
  }
},
{
  "type": "way",
  "id": 140011517,
  "nodes": [
    1534182546,
    1534182545,
    1534182547,
    1534182549,
    1534182546
  ],
  "tags": {
    "addr:city": "Київ",
    "addr:housenumber": "97",
    "addr:street": "Саксаганського вулиця",
    "building": "yes",
    "building:levels": "2",
    "name": "Музей Лесі Українки",
    "name:ru": "Музей Леси Украинки",
    "opening_hours": "We-Mo 10:00-17:00",
    "tourism": "museum",
    "website": "https://mvduk.kiev.ua/"
  }
},
{
  "type": "way",
  "id": 147249485,
  "nodes": [
    7104202077,
    1604761193,
    1604761134,
    1604761132,
    1604761130,
    1604761131,
    7104202077
  ],
  "tags": {
    "addr:housenumber": "6",
    "addr:street": "Маршала Малиновського вулиця",
    "building": "yes",
    "name": "Музей пожежної справи",
    "name:en": "Firefighting museum",
    "name:ru": "Музей пожарного дела",
    "name:uk": "Музей пожежної справи",
    "phone": "+380 44 419 8726",
    "tourism": "museum"
  }
},
{
  "type": "way",
  "id": 152206456,
  "nodes": [
    1650408831,
    1823392903,
    1650408813,
    1650408817,
    1650408823,
    1650408826,
    1650408828,
    1650408830,
    1650408831
  ],
  "tags": {
    "building": "yes",
    "name": "Косий капонір",
    "name:ru": "Косой капонир",
    "tourism": "museum"
  }
},
{
  "type": "way",
  "id": 153019503,
  "nodes": [
    414950946,
    1657688746,
    1657688749,
    1657688741,
    1657688743,
    1657688736,
    1657688716,
    1657688713,
    414950945,
    414950946
  ],
  "tags": {
    "addr:housenumber": "6",
    "addr:street": "Гагаріна вулиця",
    "building": "yes",
    "name": "Краєзнавчий музей",
    "name:en": "Museum of local lore",
    "name:ru": "Краеведческий музей",
    "tourism": "museum",
    "wheelchair": "yes"
  }
},
{
  "type": "way",
  "id": 157061648,
  "nodes": [
    1693009249,
    1693009263,
    4043613506,
    1693009257,
    2667681069,
    2667681068,
    1693009246,
    1693009248,
    1693009244,
    1693009249
  ],
  "tags": {
    "addr:housenumber": "7",
    "addr:street": "Богдана Хмельницького вулиця",
    "building": "yes",
    "building:levels": "3",
    "name": "Музей історії Києва",
    "name:de": "Museum der Geschichte von Kiew",
    "name:en": "Museum of Kyiv History",
    "name:ru": "Музей истории Киева",
    "name:uk": "Музей історії Києва",
    "opening_hours": "mo 11:00-16:00, tu-su 11:00-19:00",
    "tourism": "museum",
    "wheelchair": "no",
    "wikidata": "Q3398672",
    "wikipedia": "uk:Музей історії Києва"
  }
},
{
  "type": "way",
  "id": 158427185,
  "nodes": [
    1706201809,
    1706201803,
    1789653263,
    1789653260,
    1789653257,
    1789653255,
    1789653253,
    1706201786,
    1706201796,
    6855912076,
    1706201809
  ],
  "tags": {
    "building": "yes",
    "contact:email": "info@warmuseum.kiev.ua",
    "contact:phone": "+38 044 2859452",
    "contact:website": "http://warmuseum.kiev.ua",
    "layer": "-1",
    "name": "Національний музей історії України у Другій Світовій війні",
    "name:en": "National museum of the history of Ukraine in the Second World war",
    "opening_hours": "Mo-Su 10:00-18:00",
    "tourism": "museum",
    "wheelchair": "limited",
    "wikipedia": "uk:Національний музей історії України у Другій світовій війні"
  }
},
{
  "type": "way",
  "id": 167573689,
  "nodes": [
    1789686409,
    1789686403,
    1789707962,
    1789686396,
    1789686392,
    1789686393,
    1789707901,
    1789707912,
    1789707941,
    1789707947,
    1789707953,
    1789707960,
    1789686398,
    1789686400,
    1789686407,
    1789686405,
    1789686409
  ],
  "tags": {
    "fee": "yes",
    "museum": "open_air",
    "name": "Виставка бойової техніки та озброєння Другої світової війни",
    "opening_hours": "Mo-Su 10:00-18:00",
    "tourism": "museum",
    "wheelchair": "yes"
  }
},
{
  "type": "way",
  "id": 191058848,
  "nodes": [
    946608186,
    2016450546,
    2016450541,
    2016450521,
    2016450519,
    946608089,
    946623570,
    946608186
  ],
  "tags": {
    "addr:housenumber": "9 к26",
    "building": "yes",
    "name": "Музей театрального, музичного та кіномистецтва України",
    "name:de": "Museum für Theater, Musik und Kino in der Ukraine",
    "name:en": "Museum of Theatre, Music and Cinema of Ukraine",
    "tourism": "museum",
    "website": "http://www.tmf-museum.kiev.ua"
  }
},
{
  "type": "way",
  "id": 232485738,
  "nodes": [
    2408324559,
    2408324560,
    2408324561,
    2408324562,
    2408324563,
    2408324564,
    2408324565,
    2408324566,
    2408324567,
    2408324568,
    2408324569,
    2408324559
  ],
  "tags": {
    "landuse": "railway",
    "name": "Виставка історичних локомотивів та вагонів",
    "name:en": "The Historical Locomotives and Cars Exhibition",
    "name:ru": "Выставка исторических локомотивов и вагонов",
    "name:uk": "Виставка історичних локомотивів та вагонів",
    "opening_hours": "Mo-Su 08:00-12:00,13:00-20:00",
    "tourism": "museum",
    "wikidata": "Q4306356",
    "wikipedia": "uk:Виставка рухомого складу історичних локомотивів та вагонів (Київ)"
  }
},
{
  "type": "way",
  "id": 264780166,
  "nodes": [
    2704274679,
    2704274678,
    2704274681,
    2704274682,
    2704274679
  ],
  "tags": {
    "addr:housenumber": "5",
    "addr:street": "Вишгородська вулиця",
    "building": "yes",
    "name": "Хата на Пріорці",
    "name:ru": "Хата на Приорке",
    "tourism": "museum",
    "wikidata": "Q11048551",
    "wikipedia": "uk:Хата на Пріорці"
  }
},
{
  "type": "way",
  "id": 305585057,
  "nodes": [
    2583986231,
    2583986230,
    1207104888,
    1207104903,
    1207104955,
    2583986238,
    2583986237,
    2583986236,
    2583986235,
    2583986234,
    2583986233,
    2583986232,
    2583986231
  ],
  "tags": {
    "building": "yes",
    "building:parts": "vertical",
    "name": "Музей партизанської слави",
    "name:ru": "Музей партизанской славы",
    "tourism": "museum"
  }
},
{
  "type": "way",
  "id": 329912718,
  "nodes": [
    3368571732,
    3368571733,
    3368571736,
    3368571735,
    3368571732
  ],
  "tags": {
    "building": "yes",
    "name": "Музей історії розвитку меліорації і водного господарства Ірпінського міжрайонного управління водного господарства",
    "name:ru": "Музей истории развития мелиорации и водного хозяйства Ирпенского межрайонного управления водного хозяйства",
    "tourism": "museum"
  }
},
{
  "type": "way",
  "id": 360487593,
  "nodes": [
    3650273160,
    3650273161,
    5638472298,
    5638472301,
    5638472302,
    4030899732,
    3650273163,
    3650273160
  ],
  "tags": {
    "building": "yes",
    "building:levels": "2",
    "description": "експозиція історичних костюмів та обладунків",
    "name": "Терем Ярослава",
    "tourism": "museum"
  }
},
{
  "type": "way",
  "id": 400539995,
  "nodes": [
    4030900226,
    4030900612,
    5638472304,
    4030900229,
    4030900418,
    5638472303,
    4030900226
  ],
  "tags": {
    "building": "yes",
    "building:levels": "2",
    "name": "Ярославові ворота",
    "tourism": "museum"
  }
},
{
  "type": "way",
  "id": 400540031,
  "nodes": [
    4030900238,
    5642515589,
    4030900794,
    4030900471,
    5642515590,
    4030900284,
    4030900238
  ],
  "tags": {
    "building": "roof",
    "description": "Музей суднобудування часів Київської Русі. Лодія \"Князь Володимир\" IX-XI ст.",
    "name": "Музей Суднобудування Київської Русі",
    "tourism": "museum"
  }
},
{
  "type": "way",
  "id": 480173180,
  "nodes": [
    4731900131,
    4731900130,
    1557256373,
    4731900128,
    4731900127,
    4731900129,
    4731900131
  ],
  "tags": {
    "addr:city": "Боярка",
    "addr:housenumber": "51",
    "building": "yes",
    "contact:website": "http://www.rbkm.com.ua",
    "name": "Боярський краєзнавчий музей",
    "tourism": "museum"
  }
},
{
  "type": "way",
  "id": 529083577,
  "nodes": [
    5140351168,
    5140351167,
    5140351164,
    5763141268,
    5140351163,
    5140351166,
    5140351165,
    5140351168
  ],
  "tags": {
    "building": "yes",
    "name": "Музей історії ГАО НАН України",
    "name:ru": "Музей истории ГАО НАН Украины",
    "tourism": "museum"
  }
},
{
  "type": "relation",
  "id": 1151978,
  "members": [
    {
      "type": "way",
      "ref": 91242454,
      "role": "outer"
    },
    {
      "type": "way",
      "ref": 704153727,
      "role": "outer"
    }
  ],
  "tags": {
    "addr:housenumber": "1",
    "addr:street": "Медова вулиця",
    "area": "yes",
    "name": "Державний музей авіації",
    "name:de": "Nationales Luftfahrtmuseum",
    "name:en": "Ukraine State Aviation Museum",
    "name:ru": "Государственный музей авиации Украины",
    "name:uk": "Державний музей авіації",
    "tourism": "museum",
    "type": "multipolygon",
    "website": "http://aviamuseum.com.ua/",
    "wikidata": "Q913880",
    "wikipedia": "uk:Державний музей авіації України"
  }
},
{
  "type": "relation",
  "id": 1223621,
  "members": [
    {
      "type": "way",
      "ref": 45895027,
      "role": "outer"
    },
    {
      "type": "way",
      "ref": 81247793,
      "role": "inner"
    }
  ],
  "tags": {
    "building": "yes",
    "name": "Центральный музей пограничных войск",
    "tourism": "museum",
    "type": "multipolygon"
  }
},
{
  "type": "relation",
  "id": 1462889,
  "members": [
    {
      "type": "way",
      "ref": 26992050,
      "role": "outer"
    },
    {
      "type": "way",
      "ref": 103131977,
      "role": "outer"
    },
    {
      "type": "way",
      "ref": 145034532,
      "role": "outer"
    },
    {
      "type": "way",
      "ref": 145034522,
      "role": "outer"
    }
  ],
  "tags": {
    "leisure": "park",
    "name": "Національний музей народної архітектури та побуту України",
    "name:de": "Museum für Volksarchitektur und Sitten der Ukraine",
    "name:en": "Museum of Folk Architecture and Life of Ukraine",
    "name:ja": "ウクライナ建築民俗博物館",
    "name:ru": "Музей народной архитектуры и быта Украины",
    "name:uk": "Національний музей народної архітектури та побуту України",
    "official_name": "Національний музей народної архітектури та побуту України",
    "tourism": "museum",
    "type": "multipolygon",
    "website": "pyrohiv.com.ua",
    "wikidata": "Q1857990",
    "wikipedia": "uk:Національний музей народної архітектури та побуту України"
  }
},
{
  "type": "relation",
  "id": 5012711,
  "members": [
    {
      "type": "way",
      "ref": 343785794,
      "role": "outer"
    },
    {
      "type": "way",
      "ref": 118190488,
      "role": "outer"
    },
    {
      "type": "way",
      "ref": 343785796,
      "role": "outer"
    },
    {
      "type": "way",
      "ref": 343785798,
      "role": "outer"
    }
  ],
  "tags": {
    "addr:housenumber": "24",
    "historic": "monastery",
    "name": "Софія Київська",
    "name:cs": "Chrám svaté Sofie",
    "name:de": "Sophienkathedrale",
    "name:en": "Saint Sophia Cathedral",
    "name:es": "Catedral de Santa Sofía de Kiev",
    "name:fr": "Cathédrale Sainte-Sophie de Kiev",
    "name:hu": "Szent Szófia székesegyház",
    "name:it": "Cattedrale di Santa Sofia",
    "name:ja": "聖ソフィア大聖堂",
    "name:pl": "Sobór Mądrości Bożej",
    "name:ro": "Catedrala Sfanta Sofia",
    "name:ru": "Софийский собор",
    "name:sv": "Sofiakatedralen",
    "name:tr": "Hagia Szophia",
    "name:uk": "Софія Київська",
    "tourism": "museum",
    "type": "multipolygon",
    "website": "www.nzsk.org.ua"
  }
},
{
  "type": "node",
  "id": 1557256373,
  "lat": 50.3139015,
  "lon": 30.2953723
},
{
  "type": "node",
  "id": 4731900127,
  "lat": 50.3139979,
  "lon": 30.2952880
},
{
  "type": "node",
  "id": 4731900128,
  "lat": 50.3139732,
  "lon": 30.2954083
},
{
  "type": "node",
  "id": 4731900129,
  "lat": 50.3140623,
  "lon": 30.2953203
},
{
  "type": "node",
  "id": 4731900130,
  "lat": 50.3138789,
  "lon": 30.2954826
},
{
  "type": "node",
  "id": 4731900131,
  "lat": 50.3140151,
  "lon": 30.2955510
},
{
  "type": "node",
  "id": 3650273161,
  "lat": 50.1448708,
  "lon": 30.4712315
},
{
  "type": "node",
  "id": 3650273163,
  "lat": 50.1447875,
  "lon": 30.4709629
},
{
  "type": "node",
  "id": 4030899732,
  "lat": 50.1447319,
  "lon": 30.4710546
},
{
  "type": "node",
  "id": 4030900238,
  "lat": 50.1448438,
  "lon": 30.4736484
},
{
  "type": "node",
  "id": 4030900284,
  "lat": 50.1447952,
  "lon": 30.4734243
},
{
  "type": "node",
  "id": 4030900471,
  "lat": 50.1447308,
  "lon": 30.4734584
},
{
  "type": "node",
  "id": 4030900794,
  "lat": 50.1447795,
  "lon": 30.4736825
},
{
  "type": "node",
  "id": 5638472298,
  "lat": 50.1448651,
  "lon": 30.4712229
},
{
  "type": "node",
  "id": 5638472301,
  "lat": 50.1447848,
  "lon": 30.4711043
},
{
  "type": "node",
  "id": 5638472302,
  "lat": 50.1447757,
  "lon": 30.4711193
},
{
  "type": "node",
  "id": 5642515589,
  "lat": 50.1448114,
  "lon": 30.4736656
},
{
  "type": "node",
  "id": 5642515590,
  "lat": 50.1447486,
  "lon": 30.4734490
},
{
  "type": "node",
  "id": 3650273160,
  "lat": 50.1449174,
  "lon": 30.4711547
},
{
  "type": "node",
  "id": 4030900226,
  "lat": 50.1451577,
  "lon": 30.4724671
},
{
  "type": "node",
  "id": 4030900229,
  "lat": 50.1452077,
  "lon": 30.4725081
},
{
  "type": "node",
  "id": 4030900418,
  "lat": 50.1452060,
  "lon": 30.4724626
},
{
  "type": "node",
  "id": 4030900612,
  "lat": 50.1451595,
  "lon": 30.4725126
},
{
  "type": "node",
  "id": 5638472303,
  "lat": 50.1451841,
  "lon": 30.4724647
},
{
  "type": "node",
  "id": 5638472304,
  "lat": 50.1451858,
  "lon": 30.4725101
},
{
  "type": "node",
  "id": 1205006180,
  "lat": 50.3472458,
  "lon": 30.9576618
},
{
  "type": "node",
  "id": 1205007990,
  "lat": 50.3473760,
  "lon": 30.9577805
},
{
  "type": "node",
  "id": 1205010276,
  "lat": 50.3472284,
  "lon": 30.9576255
},
{
  "type": "node",
  "id": 1205011561,
  "lat": 50.3471814,
  "lon": 30.9577374
},
{
  "type": "node",
  "id": 1205012083,
  "lat": 50.3471641,
  "lon": 30.9577011
},
{
  "type": "node",
  "id": 1205012556,
  "lat": 50.3472927,
  "lon": 30.9576066
},
{
  "type": "node",
  "id": 1205012993,
  "lat": 50.3472151,
  "lon": 30.9579696
},
{
  "type": "node",
  "id": 1205013840,
  "lat": 50.3471319,
  "lon": 30.9577957
},
{
  "type": "node",
  "id": 3368571732,
  "lat": 50.4453568,
  "lon": 30.2252411
},
{
  "type": "node",
  "id": 3368571733,
  "lat": 50.4453786,
  "lon": 30.2255702
},
{
  "type": "node",
  "id": 3368571735,
  "lat": 50.4455051,
  "lon": 30.2252168
},
{
  "type": "node",
  "id": 3368571736,
  "lat": 50.4455269,
  "lon": 30.2255460
},
{
  "type": "node",
  "id": 290725345,
  "lat": 50.3533692,
  "lon": 30.5042396
},
{
  "type": "node",
  "id": 295856151,
  "lat": 50.3532581,
  "lon": 30.5042439
},
{
  "type": "node",
  "id": 295856153,
  "lat": 50.3523475,
  "lon": 30.5052698
},
{
  "type": "node",
  "id": 295856154,
  "lat": 50.3492577,
  "lon": 30.5041242
},
{
  "type": "node",
  "id": 295856175,
  "lat": 50.3534096,
  "lon": 30.5042668
},
{
  "type": "node",
  "id": 295856193,
  "lat": 50.3526936,
  "lon": 30.5053532
},
{
  "type": "node",
  "id": 301974777,
  "lat": 50.3532139,
  "lon": 30.5047553
},
{
  "type": "node",
  "id": 1190900974,
  "lat": 50.3505268,
  "lon": 30.5054523
},
{
  "type": "node",
  "id": 1190901010,
  "lat": 50.3531424,
  "lon": 30.5049988
},
{
  "type": "node",
  "id": 1190901260,
  "lat": 50.3528737,
  "lon": 30.5053197
},
{
  "type": "node",
  "id": 1190901446,
  "lat": 50.3530208,
  "lon": 30.5051968
},
{
  "type": "node",
  "id": 1190901564,
  "lat": 50.3491387,
  "lon": 30.5049477
},
{
  "type": "node",
  "id": 295856155,
  "lat": 50.3486718,
  "lon": 30.5109778
},
{
  "type": "node",
  "id": 295856156,
  "lat": 50.3502950,
  "lon": 30.5131066
},
{
  "type": "node",
  "id": 1190900995,
  "lat": 50.3520528,
  "lon": 30.5126915
},
{
  "type": "node",
  "id": 1190901053,
  "lat": 50.3499532,
  "lon": 30.5129415
},
{
  "type": "node",
  "id": 1190901083,
  "lat": 50.3486028,
  "lon": 30.5114705
},
{
  "type": "node",
  "id": 1190901108,
  "lat": 50.3487607,
  "lon": 30.5109257
},
{
  "type": "node",
  "id": 1190901153,
  "lat": 50.3512093,
  "lon": 30.5130912
},
{
  "type": "node",
  "id": 1190901229,
  "lat": 50.3490419,
  "lon": 30.5093590
},
{
  "type": "node",
  "id": 1190901256,
  "lat": 50.3524756,
  "lon": 30.5125589
},
{
  "type": "node",
  "id": 1190901301,
  "lat": 50.3504047,
  "lon": 30.5125116
},
{
  "type": "node",
  "id": 1190901342,
  "lat": 50.3485320,
  "lon": 30.5115059
},
{
  "type": "node",
  "id": 1190901433,
  "lat": 50.3517628,
  "lon": 30.5133668
},
{
  "type": "node",
  "id": 1190901538,
  "lat": 50.3489731,
  "lon": 30.5093639
},
{
  "type": "node",
  "id": 1190901539,
  "lat": 50.3539732,
  "lon": 30.5131542
},
{
  "type": "node",
  "id": 1190901560,
  "lat": 50.3527715,
  "lon": 30.5119757
},
{
  "type": "node",
  "id": 1190901593,
  "lat": 50.3508287,
  "lon": 30.5128215
},
{
  "type": "node",
  "id": 1190901618,
  "lat": 50.3483548,
  "lon": 30.5123642
},
{
  "type": "node",
  "id": 1584108156,
  "lat": 50.3512988,
  "lon": 30.5133151
},
{
  "type": "node",
  "id": 1584108169,
  "lat": 50.3514969,
  "lon": 30.5135140
},
{
  "type": "node",
  "id": 1584108238,
  "lat": 50.3539606,
  "lon": 30.5132561
},
{
  "type": "node",
  "id": 1584986971,
  "lat": 50.3535323,
  "lon": 30.5127347
},
{
  "type": "node",
  "id": 1584986985,
  "lat": 50.3536051,
  "lon": 30.5127554
},
{
  "type": "node",
  "id": 1584987016,
  "lat": 50.3539273,
  "lon": 30.5134185
},
{
  "type": "node",
  "id": 2254521722,
  "lat": 50.3513473,
  "lon": 30.5133638
},
{
  "type": "node",
  "id": 2254521742,
  "lat": 50.3518755,
  "lon": 30.5131044
},
{
  "type": "node",
  "id": 2254521765,
  "lat": 50.3519799,
  "lon": 30.5128613
},
{
  "type": "node",
  "id": 1584108349,
  "lat": 50.3566502,
  "lon": 30.5041690
},
{
  "type": "node",
  "id": 1725541022,
  "lat": 50.3566153,
  "lon": 30.5043786
},
{
  "type": "node",
  "id": 295856201,
  "lat": 50.3551975,
  "lon": 30.5112847
},
{
  "type": "node",
  "id": 301974521,
  "lat": 50.3554545,
  "lon": 30.5099189
},
{
  "type": "node",
  "id": 1190901132,
  "lat": 50.3573366,
  "lon": 30.5130402
},
{
  "type": "node",
  "id": 1584987034,
  "lat": 50.3558784,
  "lon": 30.5117251
},
{
  "type": "node",
  "id": 1584987041,
  "lat": 50.3564543,
  "lon": 30.5123327
},
{
  "type": "node",
  "id": 5140351163,
  "lat": 50.3644521,
  "lon": 30.4956506
},
{
  "type": "node",
  "id": 5140351164,
  "lat": 50.3644951,
  "lon": 30.4955885
},
{
  "type": "node",
  "id": 5140351165,
  "lat": 50.3644141,
  "lon": 30.4958341
},
{
  "type": "node",
  "id": 5140351166,
  "lat": 50.3644930,
  "lon": 30.4957203
},
{
  "type": "node",
  "id": 5140351167,
  "lat": 50.3644549,
  "lon": 30.4955200
},
{
  "type": "node",
  "id": 5140351168,
  "lat": 50.3643330,
  "lon": 30.4956959
},
{
  "type": "node",
  "id": 5763141268,
  "lat": 50.3644601,
  "lon": 30.4956391
},
{
  "type": "node",
  "id": 885292147,
  "lat": 50.4065980,
  "lon": 30.4570108
},
{
  "type": "node",
  "id": 885292153,
  "lat": 50.4051314,
  "lon": 30.4578031
},
{
  "type": "node",
  "id": 885292192,
  "lat": 50.4062105,
  "lon": 30.4564166
},
{
  "type": "node",
  "id": 6611767474,
  "lat": 50.4050439,
  "lon": 30.4584634
},
{
  "type": "node",
  "id": 6611767479,
  "lat": 50.4056430,
  "lon": 30.4571587
},
{
  "type": "node",
  "id": 6859782156,
  "lat": 50.4050522,
  "lon": 30.4588050
},
{
  "type": "node",
  "id": 6860878925,
  "lat": 50.4050353,
  "lon": 30.4591081
},
{
  "type": "node",
  "id": 885292139,
  "lat": 50.4072180,
  "lon": 30.4560583
},
{
  "type": "node",
  "id": 885292157,
  "lat": 50.4078573,
  "lon": 30.4553592
},
{
  "type": "node",
  "id": 885292163,
  "lat": 50.4074408,
  "lon": 30.4563724
},
{
  "type": "node",
  "id": 1059128354,
  "lat": 50.4079819,
  "lon": 30.4553675
},
{
  "type": "node",
  "id": 1683129104,
  "lat": 50.4073243,
  "lon": 30.4598789
},
{
  "type": "node",
  "id": 1683129105,
  "lat": 50.4073697,
  "lon": 30.4589539
},
{
  "type": "node",
  "id": 1683129110,
  "lat": 50.4076021,
  "lon": 30.4587326
},
{
  "type": "node",
  "id": 1683129111,
  "lat": 50.4078279,
  "lon": 30.4586821
},
{
  "type": "node",
  "id": 6859782163,
  "lat": 50.4075125,
  "lon": 30.4587527
},
{
  "type": "node",
  "id": 6859782164,
  "lat": 50.4075282,
  "lon": 30.4604746
},
{
  "type": "node",
  "id": 6859782169,
  "lat": 50.4073470,
  "lon": 30.4594164
},
{
  "type": "node",
  "id": 6860878903,
  "lat": 50.4073509,
  "lon": 30.4593368
},
{
  "type": "node",
  "id": 6860878906,
  "lat": 50.4073537,
  "lon": 30.4592800
},
{
  "type": "node",
  "id": 6863300824,
  "lat": 50.4076600,
  "lon": 30.4604831
},
{
  "type": "node",
  "id": 6863300852,
  "lat": 50.4079144,
  "lon": 30.4568226
},
{
  "type": "node",
  "id": 885292141,
  "lat": 50.4044539,
  "lon": 30.4629922
},
{
  "type": "node",
  "id": 885292142,
  "lat": 50.4050003,
  "lon": 30.4660758
},
{
  "type": "node",
  "id": 885292179,
  "lat": 50.4048233,
  "lon": 30.4625749
},
{
  "type": "node",
  "id": 1059128344,
  "lat": 50.4057427,
  "lon": 30.4651405
},
{
  "type": "node",
  "id": 1683135513,
  "lat": 50.4047499,
  "lon": 30.4626523
},
{
  "type": "node",
  "id": 2441575320,
  "lat": 50.4055049,
  "lon": 30.4659053
},
{
  "type": "node",
  "id": 5641983437,
  "lat": 50.4062062,
  "lon": 30.4640296
},
{
  "type": "node",
  "id": 5659552787,
  "lat": 50.4059640,
  "lon": 30.4645760
},
{
  "type": "node",
  "id": 5688645195,
  "lat": 50.4047093,
  "lon": 30.4626952
},
{
  "type": "node",
  "id": 6611767473,
  "lat": 50.4047959,
  "lon": 30.4626023
},
{
  "type": "node",
  "id": 6611768829,
  "lat": 50.4055710,
  "lon": 30.4656967
},
{
  "type": "node",
  "id": 6859782155,
  "lat": 50.4044809,
  "lon": 30.4629469
},
{
  "type": "node",
  "id": 6863300819,
  "lat": 50.4060074,
  "lon": 30.4644365
},
{
  "type": "node",
  "id": 6863300822,
  "lat": 50.4063615,
  "lon": 30.4637697
},
{
  "type": "node",
  "id": 6863300823,
  "lat": 50.4064592,
  "lon": 30.4635490
},
{
  "type": "node",
  "id": 1059128340,
  "lat": 50.4075803,
  "lon": 30.4613111
},
{
  "type": "node",
  "id": 5641983438,
  "lat": 50.4072958,
  "lon": 30.4621219
},
{
  "type": "node",
  "id": 5659552788,
  "lat": 50.4071860,
  "lon": 30.4623385
},
{
  "type": "node",
  "id": 2408324562,
  "lat": 50.4394136,
  "lon": 30.4871207
},
{
  "type": "node",
  "id": 2408324563,
  "lat": 50.4393247,
  "lon": 30.4872156
},
{
  "type": "node",
  "id": 2408324559,
  "lat": 50.4402959,
  "lon": 30.4869432
},
{
  "type": "node",
  "id": 2408324560,
  "lat": 50.4401341,
  "lon": 30.4865947
},
{
  "type": "node",
  "id": 2408324561,
  "lat": 50.4399702,
  "lon": 30.4866631
},
{
  "type": "node",
  "id": 2408324565,
  "lat": 50.4398914,
  "lon": 30.4871809
},
{
  "type": "node",
  "id": 2408324566,
  "lat": 50.4400325,
  "lon": 30.4870734
},
{
  "type": "node",
  "id": 2408324567,
  "lat": 50.4402212,
  "lon": 30.4868878
},
{
  "type": "node",
  "id": 2408324568,
  "lat": 50.4402731,
  "lon": 30.4869725
},
{
  "type": "node",
  "id": 2408324569,
  "lat": 50.4402847,
  "lon": 30.4869572
},
{
  "type": "node",
  "id": 2408324564,
  "lat": 50.4395035,
  "lon": 30.4875261
},
{
  "type": "node",
  "id": 1534182526,
  "lat": 50.4394597,
  "lon": 30.5006988
},
{
  "type": "node",
  "id": 1534182530,
  "lat": 50.4395578,
  "lon": 30.5013006
},
{
  "type": "node",
  "id": 1534182531,
  "lat": 50.4395897,
  "lon": 30.5007958
},
{
  "type": "node",
  "id": 1534182532,
  "lat": 50.4395909,
  "lon": 30.5005121
},
{
  "type": "node",
  "id": 1534182535,
  "lat": 50.4395991,
  "lon": 30.5009403
},
{
  "type": "node",
  "id": 1534182536,
  "lat": 50.4396284,
  "lon": 30.5014350
},
{
  "type": "node",
  "id": 1534182537,
  "lat": 50.4396397,
  "lon": 30.5008825
},
{
  "type": "node",
  "id": 1534182540,
  "lat": 50.4396802,
  "lon": 30.5006668
},
{
  "type": "node",
  "id": 1534182541,
  "lat": 50.4397022,
  "lon": 30.5011135
},
{
  "type": "node",
  "id": 1534182544,
  "lat": 50.4397728,
  "lon": 30.5012479
},
{
  "type": "node",
  "id": 1534182545,
  "lat": 50.4398401,
  "lon": 30.5008463
},
{
  "type": "node",
  "id": 1534182546,
  "lat": 50.4399263,
  "lon": 30.5010109
},
{
  "type": "node",
  "id": 1534182547,
  "lat": 50.4399873,
  "lon": 30.5006565
},
{
  "type": "node",
  "id": 1534182549,
  "lat": 50.4400734,
  "lon": 30.5008211
},
{
  "type": "node",
  "id": 305558322,
  "lat": 50.4488587,
  "lon": 30.5131424
},
{
  "type": "node",
  "id": 305558323,
  "lat": 50.4488195,
  "lon": 30.5131237
},
{
  "type": "node",
  "id": 305558326,
  "lat": 50.4487872,
  "lon": 30.5135083
},
{
  "type": "node",
  "id": 1329743298,
  "lat": 50.4521081,
  "lon": 30.5125034
},
{
  "type": "node",
  "id": 1329743323,
  "lat": 50.4517446,
  "lon": 30.5134658
},
{
  "type": "node",
  "id": 1329743327,
  "lat": 50.4520621,
  "lon": 30.5125716
},
{
  "type": "node",
  "id": 1329743335,
  "lat": 50.4520036,
  "lon": 30.5125549
},
{
  "type": "node",
  "id": 1329743343,
  "lat": 50.4528803,
  "lon": 30.5124203
},
{
  "type": "node",
  "id": 1329743357,
  "lat": 50.4523559,
  "lon": 30.5119580
},
{
  "type": "node",
  "id": 1329743364,
  "lat": 50.4521399,
  "lon": 30.5123474
},
{
  "type": "node",
  "id": 1329743371,
  "lat": 50.4522367,
  "lon": 30.5121857
},
{
  "type": "node",
  "id": 1329743403,
  "lat": 50.4521526,
  "lon": 30.5124376
},
{
  "type": "node",
  "id": 1568021105,
  "lat": 50.4486847,
  "lon": 30.5134588
},
{
  "type": "node",
  "id": 1568021108,
  "lat": 50.4487474,
  "lon": 30.5131324
},
{
  "type": "node",
  "id": 1568021110,
  "lat": 50.4487472,
  "lon": 30.5134893
},
{
  "type": "node",
  "id": 1568021113,
  "lat": 50.4488118,
  "lon": 30.5131626
},
{
  "type": "node",
  "id": 1568021115,
  "lat": 50.4487794,
  "lon": 30.5135483
},
{
  "type": "node",
  "id": 1568021118,
  "lat": 50.4488513,
  "lon": 30.5131809
},
{
  "type": "node",
  "id": 1568021129,
  "lat": 50.4488455,
  "lon": 30.5135367
},
{
  "type": "node",
  "id": 1568021131,
  "lat": 50.4489532,
  "lon": 30.5132302
},
{
  "type": "node",
  "id": 1568021132,
  "lat": 50.4489212,
  "lon": 30.5132144
},
{
  "type": "node",
  "id": 1568021133,
  "lat": 50.4489344,
  "lon": 30.5134407
},
{
  "type": "node",
  "id": 1568021134,
  "lat": 50.4489735,
  "lon": 30.5132404
},
{
  "type": "node",
  "id": 2667681171,
  "lat": 50.4487395,
  "lon": 30.5135289
},
{
  "type": "node",
  "id": 3541551462,
  "lat": 50.4487157,
  "lon": 30.5132977
},
{
  "type": "node",
  "id": 3541551476,
  "lat": 50.4489419,
  "lon": 30.5134017
},
{
  "type": "node",
  "id": 3541551477,
  "lat": 50.4489595,
  "lon": 30.5133113
},
{
  "type": "node",
  "id": 5026994428,
  "lat": 50.4487295,
  "lon": 30.5132242
},
{
  "type": "node",
  "id": 5026994466,
  "lat": 50.4488582,
  "lon": 30.5135426
},
{
  "type": "node",
  "id": 5026994467,
  "lat": 50.4488903,
  "lon": 30.5135569
},
{
  "type": "node",
  "id": 5026994469,
  "lat": 50.4487025,
  "lon": 30.5133677
},
{
  "type": "node",
  "id": 5026994470,
  "lat": 50.4489279,
  "lon": 30.5134749
},
{
  "type": "node",
  "id": 5026994471,
  "lat": 50.4489556,
  "lon": 30.5133306
},
{
  "type": "node",
  "id": 5026994472,
  "lat": 50.4489104,
  "lon": 30.5132091
},
{
  "type": "node",
  "id": 5026994473,
  "lat": 50.4489430,
  "lon": 30.5133962
},
{
  "type": "node",
  "id": 5026994474,
  "lat": 50.4489452,
  "lon": 30.5133848
},
{
  "type": "node",
  "id": 5026994475,
  "lat": 50.4489470,
  "lon": 30.5133754
},
{
  "type": "node",
  "id": 5026994476,
  "lat": 50.4489492,
  "lon": 30.5133639
},
{
  "type": "node",
  "id": 5026994477,
  "lat": 50.4489510,
  "lon": 30.5133549
},
{
  "type": "node",
  "id": 5026994478,
  "lat": 50.4489326,
  "lon": 30.5134504
},
{
  "type": "node",
  "id": 5026994479,
  "lat": 50.4489366,
  "lon": 30.5134293
},
{
  "type": "node",
  "id": 5026994480,
  "lat": 50.4489387,
  "lon": 30.5134188
},
{
  "type": "node",
  "id": 5026994481,
  "lat": 50.4489409,
  "lon": 30.5134071
},
{
  "type": "node",
  "id": 5026994482,
  "lat": 50.4487070,
  "lon": 30.5133436
},
{
  "type": "node",
  "id": 5026994483,
  "lat": 50.4487085,
  "lon": 30.5133357
},
{
  "type": "node",
  "id": 5026994484,
  "lat": 50.4487108,
  "lon": 30.5133238
},
{
  "type": "node",
  "id": 5026994485,
  "lat": 50.4487125,
  "lon": 30.5133144
},
{
  "type": "node",
  "id": 5026994486,
  "lat": 50.4487147,
  "lon": 30.5133028
},
{
  "type": "node",
  "id": 5026994487,
  "lat": 50.4487168,
  "lon": 30.5132919
},
{
  "type": "node",
  "id": 5026994488,
  "lat": 50.4487190,
  "lon": 30.5132802
},
{
  "type": "node",
  "id": 5026994489,
  "lat": 50.4487207,
  "lon": 30.5132708
},
{
  "type": "node",
  "id": 5026994490,
  "lat": 50.4487230,
  "lon": 30.5132587
},
{
  "type": "node",
  "id": 5026994491,
  "lat": 50.4487249,
  "lon": 30.5132487
},
{
  "type": "node",
  "id": 295856194,
  "lat": 50.3530495,
  "lon": 30.5190330
},
{
  "type": "node",
  "id": 1190901061,
  "lat": 50.3530071,
  "lon": 30.5178922
},
{
  "type": "node",
  "id": 1190901111,
  "lat": 50.3537490,
  "lon": 30.5136576
},
{
  "type": "node",
  "id": 1190901306,
  "lat": 50.3531588,
  "lon": 30.5170323
},
{
  "type": "node",
  "id": 1190901370,
  "lat": 50.3533713,
  "lon": 30.5143051
},
{
  "type": "node",
  "id": 1190901639,
  "lat": 50.3537377,
  "lon": 30.5153446
},
{
  "type": "node",
  "id": 1583820705,
  "lat": 50.3529215,
  "lon": 30.5186752
},
{
  "type": "node",
  "id": 1584108194,
  "lat": 50.3535036,
  "lon": 30.5151459
},
{
  "type": "node",
  "id": 1584108195,
  "lat": 50.3535632,
  "lon": 30.5139161
},
{
  "type": "node",
  "id": 1584108201,
  "lat": 50.3536765,
  "lon": 30.5146621
},
{
  "type": "node",
  "id": 1584986997,
  "lat": 50.3536541,
  "lon": 30.5138342
},
{
  "type": "node",
  "id": 3732914982,
  "lat": 50.3524095,
  "lon": 30.5199125
},
{
  "type": "node",
  "id": 4116577027,
  "lat": 50.3530009,
  "lon": 30.5188972
},
{
  "type": "node",
  "id": 295856158,
  "lat": 50.3518914,
  "lon": 30.5206245
},
{
  "type": "node",
  "id": 295856159,
  "lat": 50.3541110,
  "lon": 30.5224886
},
{
  "type": "node",
  "id": 4116577031,
  "lat": 50.3523426,
  "lon": 30.5210034
},
{
  "type": "node",
  "id": 295856163,
  "lat": 50.3609657,
  "lon": 30.5174975
},
{
  "type": "node",
  "id": 295856197,
  "lat": 50.3602075,
  "lon": 30.5153830
},
{
  "type": "node",
  "id": 295856198,
  "lat": 50.3587051,
  "lon": 30.5140425
},
{
  "type": "node",
  "id": 2400091575,
  "lat": 50.3605491,
  "lon": 30.5189923
},
{
  "type": "node",
  "id": 5573154622,
  "lat": 50.3607142,
  "lon": 30.5184001
},
{
  "type": "node",
  "id": 295856160,
  "lat": 50.3579564,
  "lon": 30.5234477
},
{
  "type": "node",
  "id": 295856161,
  "lat": 50.3590851,
  "lon": 30.5225952
},
{
  "type": "node",
  "id": 295856195,
  "lat": 50.3598836,
  "lon": 30.5213803
},
{
  "type": "node",
  "id": 1190901529,
  "lat": 50.3577696,
  "lon": 30.5233962
},
{
  "type": "node",
  "id": 1584108465,
  "lat": 50.3594817,
  "lon": 30.5222069
},
{
  "type": "node",
  "id": 3610381730,
  "lat": 50.3599638,
  "lon": 30.5210924
},
{
  "type": "node",
  "id": 4116577036,
  "lat": 50.3596733,
  "lon": 30.5218128
},
{
  "type": "node",
  "id": 295856196,
  "lat": 50.3611660,
  "lon": 30.5162350
},
{
  "type": "node",
  "id": 579638459,
  "lat": 50.4182125,
  "lon": 30.5232628
},
{
  "type": "node",
  "id": 579638501,
  "lat": 50.4181179,
  "lon": 30.5235809
},
{
  "type": "node",
  "id": 579638533,
  "lat": 50.4182740,
  "lon": 30.5234628
},
{
  "type": "node",
  "id": 579638600,
  "lat": 50.4180564,
  "lon": 30.5233810
},
{
  "type": "node",
  "id": 1706201786,
  "lat": 50.4266878,
  "lon": 30.5637208
},
{
  "type": "node",
  "id": 1650408813,
  "lat": 50.4328761,
  "lon": 30.5263162
},
{
  "type": "node",
  "id": 1650408817,
  "lat": 50.4329067,
  "lon": 30.5259441
},
{
  "type": "node",
  "id": 1650408823,
  "lat": 50.4329455,
  "lon": 30.5258799
},
{
  "type": "node",
  "id": 1650408826,
  "lat": 50.4330007,
  "lon": 30.5258543
},
{
  "type": "node",
  "id": 1650408828,
  "lat": 50.4330538,
  "lon": 30.5258639
},
{
  "type": "node",
  "id": 1650408830,
  "lat": 50.4330988,
  "lon": 30.5259249
},
{
  "type": "node",
  "id": 1650408831,
  "lat": 50.4331704,
  "lon": 30.5262989
},
{
  "type": "node",
  "id": 1823392903,
  "lat": 50.4330232,
  "lon": 30.5263867
},
{
  "type": "node",
  "id": 305555191,
  "lat": 50.4436918,
  "lon": 30.5153605
},
{
  "type": "node",
  "id": 305555192,
  "lat": 50.4433667,
  "lon": 30.5152437
},
{
  "type": "node",
  "id": 305555193,
  "lat": 50.4432486,
  "lon": 30.5160540
},
{
  "type": "node",
  "id": 305555194,
  "lat": 50.4433846,
  "lon": 30.5161028
},
{
  "type": "node",
  "id": 305555195,
  "lat": 50.4436288,
  "lon": 30.5157932
},
{
  "type": "node",
  "id": 305555196,
  "lat": 50.4436572,
  "lon": 30.5155977
},
{
  "type": "node",
  "id": 305555410,
  "lat": 50.4448876,
  "lon": 30.5160395
},
{
  "type": "node",
  "id": 305555411,
  "lat": 50.4449161,
  "lon": 30.5158665
},
{
  "type": "node",
  "id": 305555412,
  "lat": 50.4454139,
  "lon": 30.5160692
},
{
  "type": "node",
  "id": 305555413,
  "lat": 50.4453230,
  "lon": 30.5166200
},
{
  "type": "node",
  "id": 305555414,
  "lat": 50.4451462,
  "lon": 30.5165481
},
{
  "type": "node",
  "id": 305555415,
  "lat": 50.4452217,
  "lon": 30.5162419
},
{
  "type": "node",
  "id": 358427647,
  "lat": 50.4451530,
  "lon": 30.5162139
},
{
  "type": "node",
  "id": 358427648,
  "lat": 50.4451632,
  "lon": 30.5161518
},
{
  "type": "node",
  "id": 582823885,
  "lat": 50.4410395,
  "lon": 30.5145774
},
{
  "type": "node",
  "id": 582823923,
  "lat": 50.4410823,
  "lon": 30.5143341
},
{
  "type": "node",
  "id": 585049780,
  "lat": 50.4412396,
  "lon": 30.5146603
},
{
  "type": "node",
  "id": 585049797,
  "lat": 50.4412970,
  "lon": 30.5146849
},
{
  "type": "node",
  "id": 585049832,
  "lat": 50.4413391,
  "lon": 30.5144454
},
{
  "type": "node",
  "id": 585050038,
  "lat": 50.4412030,
  "lon": 30.5148706
},
{
  "type": "node",
  "id": 585050047,
  "lat": 50.4410039,
  "lon": 30.5147798
},
{
  "type": "node",
  "id": 1472492583,
  "lat": 50.4434053,
  "lon": 30.5159611
},
{
  "type": "node",
  "id": 1472492584,
  "lat": 50.4436086,
  "lon": 30.5159317
},
{
  "type": "node",
  "id": 1472492591,
  "lat": 50.4434670,
  "lon": 30.5159833
},
{
  "type": "node",
  "id": 1472492598,
  "lat": 50.4435944,
  "lon": 30.5160291
},
{
  "type": "node",
  "id": 1502836135,
  "lat": 50.4451656,
  "lon": 30.5164310
},
{
  "type": "node",
  "id": 1502836138,
  "lat": 50.4451889,
  "lon": 30.5164405
},
{
  "type": "node",
  "id": 1693009244,
  "lat": 50.4449775,
  "lon": 30.5177932
},
{
  "type": "node",
  "id": 1693009246,
  "lat": 50.4449429,
  "lon": 30.5178856
},
{
  "type": "node",
  "id": 1693009248,
  "lat": 50.4449595,
  "lon": 30.5177859
},
{
  "type": "node",
  "id": 1693009249,
  "lat": 50.4450748,
  "lon": 30.5172040
},
{
  "type": "node",
  "id": 1693009257,
  "lat": 50.4451382,
  "lon": 30.5178069
},
{
  "type": "node",
  "id": 1693009263,
  "lat": 50.4452275,
  "lon": 30.5172661
},
{
  "type": "node",
  "id": 2667681068,
  "lat": 50.4450870,
  "lon": 30.5179443
},
{
  "type": "node",
  "id": 2667681069,
  "lat": 50.4451115,
  "lon": 30.5177960
},
{
  "type": "node",
  "id": 3976562757,
  "lat": 50.4453827,
  "lon": 30.5162582
},
{
  "type": "node",
  "id": 4043613506,
  "lat": 50.4451547,
  "lon": 30.5177064
},
{
  "type": "node",
  "id": 4093561377,
  "lat": 50.4410295,
  "lon": 30.5147915
},
{
  "type": "node",
  "id": 4093561378,
  "lat": 50.4411073,
  "lon": 30.5143449
},
{
  "type": "node",
  "id": 305560995,
  "lat": 50.4528244,
  "lon": 30.5154670
},
{
  "type": "node",
  "id": 1329743305,
  "lat": 50.4525705,
  "lon": 30.5157888
},
{
  "type": "node",
  "id": 1329743306,
  "lat": 50.4517847,
  "lon": 30.5138484
},
{
  "type": "node",
  "id": 1329743312,
  "lat": 50.4520378,
  "lon": 30.5154496
},
{
  "type": "node",
  "id": 1329743321,
  "lat": 50.4524294,
  "lon": 30.5158169
},
{
  "type": "node",
  "id": 1329743330,
  "lat": 50.4519107,
  "lon": 30.5154163
},
{
  "type": "node",
  "id": 1329743333,
  "lat": 50.4517168,
  "lon": 30.5138226
},
{
  "type": "node",
  "id": 1329743336,
  "lat": 50.4519974,
  "lon": 30.5154131
},
{
  "type": "node",
  "id": 1329743339,
  "lat": 50.4519569,
  "lon": 30.5153766
},
{
  "type": "node",
  "id": 1329743353,
  "lat": 50.4518424,
  "lon": 30.5146108
},
{
  "type": "node",
  "id": 1329743356,
  "lat": 50.4518790,
  "lon": 30.5153877
},
{
  "type": "node",
  "id": 1568021130,
  "lat": 50.4489108,
  "lon": 30.5135668
},
{
  "type": "node",
  "id": 3506121767,
  "lat": 50.4519338,
  "lon": 30.5153965
},
{
  "type": "node",
  "id": 3506121898,
  "lat": 50.4520679,
  "lon": 30.5155354
},
{
  "type": "node",
  "id": 3506121918,
  "lat": 50.4525248,
  "lon": 30.5158325
},
{
  "type": "node",
  "id": 3506121936,
  "lat": 50.4526992,
  "lon": 30.5156652
},
{
  "type": "node",
  "id": 3506121937,
  "lat": 50.4527594,
  "lon": 30.5156075
},
{
  "type": "node",
  "id": 3506121939,
  "lat": 50.4528032,
  "lon": 30.5155654
},
{
  "type": "node",
  "id": 4252688388,
  "lat": 50.4528469,
  "lon": 30.5154372
},
{
  "type": "node",
  "id": 4252688790,
  "lat": 50.4528495,
  "lon": 30.5154439
},
{
  "type": "node",
  "id": 4319468999,
  "lat": 50.4515683,
  "lon": 30.5151198
},
{
  "type": "node",
  "id": 4319469000,
  "lat": 50.4515843,
  "lon": 30.5150157
},
{
  "type": "node",
  "id": 4319469001,
  "lat": 50.4516895,
  "lon": 30.5150130
},
{
  "type": "node",
  "id": 4319469005,
  "lat": 50.4518392,
  "lon": 30.5138657
},
{
  "type": "node",
  "id": 4319469014,
  "lat": 50.4518247,
  "lon": 30.5146564
},
{
  "type": "node",
  "id": 4319469015,
  "lat": 50.4518420,
  "lon": 30.5145225
},
{
  "type": "node",
  "id": 4321594241,
  "lat": 50.4515897,
  "lon": 30.5149775
},
{
  "type": "node",
  "id": 4321594242,
  "lat": 50.4516056,
  "lon": 30.5151312
},
{
  "type": "node",
  "id": 4489962866,
  "lat": 50.4528857,
  "lon": 30.5154016
},
{
  "type": "node",
  "id": 4489962867,
  "lat": 50.4528674,
  "lon": 30.5154183
},
{
  "type": "node",
  "id": 4489962868,
  "lat": 50.4528697,
  "lon": 30.5154239
},
{
  "type": "node",
  "id": 4489962869,
  "lat": 50.4528881,
  "lon": 30.5154074
},
{
  "type": "node",
  "id": 1293736496,
  "lat": 50.4511815,
  "lon": 30.5208110
},
{
  "type": "node",
  "id": 1293736533,
  "lat": 50.4510034,
  "lon": 30.5207685
},
{
  "type": "node",
  "id": 1293736579,
  "lat": 50.4512596,
  "lon": 30.5201793
},
{
  "type": "node",
  "id": 1293736688,
  "lat": 50.4510055,
  "lon": 30.5202874
},
{
  "type": "node",
  "id": 1293736949,
  "lat": 50.4510116,
  "lon": 30.5201623
},
{
  "type": "node",
  "id": 1293736983,
  "lat": 50.4510051,
  "lon": 30.5204241
},
{
  "type": "node",
  "id": 1297626785,
  "lat": 50.4511611,
  "lon": 30.5208097
},
{
  "type": "node",
  "id": 1572488674,
  "lat": 50.4512339,
  "lon": 30.5205471
},
{
  "type": "node",
  "id": 1572488677,
  "lat": 50.4512565,
  "lon": 30.5204124
},
{
  "type": "node",
  "id": 5961799082,
  "lat": 50.4510054,
  "lon": 30.5203181
},
{
  "type": "node",
  "id": 256385975,
  "lat": 50.4406831,
  "lon": 30.5381004
},
{
  "type": "node",
  "id": 256385976,
  "lat": 50.4407048,
  "lon": 30.5377567
},
{
  "type": "node",
  "id": 256385977,
  "lat": 50.4412161,
  "lon": 30.5378362
},
{
  "type": "node",
  "id": 256385978,
  "lat": 50.4411944,
  "lon": 30.5381800
},
{
  "type": "node",
  "id": 1706767289,
  "lat": 50.4407992,
  "lon": 30.5379399
},
{
  "type": "node",
  "id": 1706767290,
  "lat": 50.4408098,
  "lon": 30.5377730
},
{
  "type": "node",
  "id": 1706767291,
  "lat": 50.4410951,
  "lon": 30.5379859
},
{
  "type": "node",
  "id": 1706767292,
  "lat": 50.4411056,
  "lon": 30.5378190
},
{
  "type": "node",
  "id": 3531727435,
  "lat": 50.4409388,
  "lon": 30.5381402
},
{
  "type": "node",
  "id": 782136566,
  "lat": 50.4496460,
  "lon": 30.5309486
},
{
  "type": "node",
  "id": 782136693,
  "lat": 50.4493375,
  "lon": 30.5305412
},
{
  "type": "node",
  "id": 782136751,
  "lat": 50.4491034,
  "lon": 30.5307232
},
{
  "type": "node",
  "id": 782136771,
  "lat": 50.4494771,
  "lon": 30.5305614
},
{
  "type": "node",
  "id": 782136847,
  "lat": 50.4495598,
  "lon": 30.5310417
},
{
  "type": "node",
  "id": 782136885,
  "lat": 50.4496088,
  "lon": 30.5307213
},
{
  "type": "node",
  "id": 782137057,
  "lat": 50.4494209,
  "lon": 30.5311787
},
{
  "type": "node",
  "id": 782137167,
  "lat": 50.4493163,
  "lon": 30.5304928
},
{
  "type": "node",
  "id": 782137193,
  "lat": 50.4491878,
  "lon": 30.5306321
},
{
  "type": "node",
  "id": 782137260,
  "lat": 50.4495384,
  "lon": 30.5309928
},
{
  "type": "node",
  "id": 782137306,
  "lat": 50.4495665,
  "lon": 30.5307670
},
{
  "type": "node",
  "id": 782137474,
  "lat": 50.4493407,
  "lon": 30.5312653
},
{
  "type": "node",
  "id": 782137574,
  "lat": 50.4495190,
  "lon": 30.5305161
},
{
  "type": "node",
  "id": 782137630,
  "lat": 50.4494051,
  "lon": 30.5303969
},
{
  "type": "node",
  "id": 782137666,
  "lat": 50.4492088,
  "lon": 30.5306801
},
{
  "type": "node",
  "id": 782137751,
  "lat": 50.4494034,
  "lon": 30.5311386
},
{
  "type": "node",
  "id": 1493560133,
  "lat": 50.4526488,
  "lon": 30.5314800
},
{
  "type": "node",
  "id": 1493560134,
  "lat": 50.4526721,
  "lon": 30.5314768
},
{
  "type": "node",
  "id": 1493560142,
  "lat": 50.4526281,
  "lon": 30.5316813
},
{
  "type": "node",
  "id": 1493560151,
  "lat": 50.4526947,
  "lon": 30.5314856
},
{
  "type": "node",
  "id": 1493560153,
  "lat": 50.4526496,
  "lon": 30.5316958
},
{
  "type": "node",
  "id": 1493560163,
  "lat": 50.4527143,
  "lon": 30.5315055
},
{
  "type": "node",
  "id": 1493560165,
  "lat": 50.4526728,
  "lon": 30.5316987
},
{
  "type": "node",
  "id": 1493560166,
  "lat": 50.4526954,
  "lon": 30.5316895
},
{
  "type": "node",
  "id": 2121575615,
  "lat": 50.4495629,
  "lon": 30.5306164
},
{
  "type": "node",
  "id": 2750673115,
  "lat": 50.4526275,
  "lon": 30.5314949
},
{
  "type": "node",
  "id": 2750673117,
  "lat": 50.4526104,
  "lon": 30.5315199
},
{
  "type": "node",
  "id": 2750673118,
  "lat": 50.4525994,
  "lon": 30.5315522
},
{
  "type": "node",
  "id": 2750673119,
  "lat": 50.4525957,
  "lon": 30.5315884
},
{
  "type": "node",
  "id": 2750673120,
  "lat": 50.4525997,
  "lon": 30.5316245
},
{
  "type": "node",
  "id": 2750673121,
  "lat": 50.4526109,
  "lon": 30.5316566
},
{
  "type": "node",
  "id": 2750673122,
  "lat": 50.4527149,
  "lon": 30.5316693
},
{
  "type": "node",
  "id": 2750673124,
  "lat": 50.4527291,
  "lon": 30.5316402
},
{
  "type": "node",
  "id": 2750673125,
  "lat": 50.4527365,
  "lon": 30.5316055
},
{
  "type": "node",
  "id": 2750673126,
  "lat": 50.4527364,
  "lon": 30.5315689
},
{
  "type": "node",
  "id": 2750673127,
  "lat": 50.4527287,
  "lon": 30.5315343
},
{
  "type": "node",
  "id": 256408124,
  "lat": 50.4340824,
  "lon": 30.5446353
},
{
  "type": "node",
  "id": 256408125,
  "lat": 50.4340768,
  "lon": 30.5448975
},
{
  "type": "node",
  "id": 256408126,
  "lat": 50.4342370,
  "lon": 30.5449060
},
{
  "type": "node",
  "id": 256408127,
  "lat": 50.4342385,
  "lon": 30.5448339
},
{
  "type": "node",
  "id": 256408128,
  "lat": 50.4343250,
  "lon": 30.5448384
},
{
  "type": "node",
  "id": 256408129,
  "lat": 50.4343320,
  "lon": 30.5445110
},
{
  "type": "node",
  "id": 256408130,
  "lat": 50.4342388,
  "lon": 30.5445060
},
{
  "type": "node",
  "id": 256696971,
  "lat": 50.4342358,
  "lon": 30.5446435
},
{
  "type": "node",
  "id": 584996681,
  "lat": 50.4314929,
  "lon": 30.5564190
},
{
  "type": "node",
  "id": 584996685,
  "lat": 50.4311922,
  "lon": 30.5567087
},
{
  "type": "node",
  "id": 584996689,
  "lat": 50.4314724,
  "lon": 30.5574114
},
{
  "type": "node",
  "id": 584996691,
  "lat": 50.4317628,
  "lon": 30.5571217
},
{
  "type": "node",
  "id": 946605452,
  "lat": 50.4315092,
  "lon": 30.5571720
},
{
  "type": "node",
  "id": 946606537,
  "lat": 50.4313706,
  "lon": 30.5568172
},
{
  "type": "node",
  "id": 946607751,
  "lat": 50.4314544,
  "lon": 30.5567365
},
{
  "type": "node",
  "id": 946622804,
  "lat": 50.4315931,
  "lon": 30.5570912
},
{
  "type": "node",
  "id": 1159208458,
  "lat": 50.4285262,
  "lon": 30.5640773
},
{
  "type": "node",
  "id": 1159208534,
  "lat": 50.4284743,
  "lon": 30.5642512
},
{
  "type": "node",
  "id": 1159208552,
  "lat": 50.4284387,
  "lon": 30.5642192
},
{
  "type": "node",
  "id": 1159208701,
  "lat": 50.4284254,
  "lon": 30.5641272
},
{
  "type": "node",
  "id": 1159208729,
  "lat": 50.4285490,
  "lon": 30.5641645
},
{
  "type": "node",
  "id": 1159208844,
  "lat": 50.4284232,
  "lon": 30.5641596
},
{
  "type": "node",
  "id": 1159208904,
  "lat": 50.4285478,
  "lon": 30.5641320
},
{
  "type": "node",
  "id": 1159208997,
  "lat": 50.4285082,
  "lon": 30.5640610
},
{
  "type": "node",
  "id": 1159209045,
  "lat": 50.4285399,
  "lon": 30.5641018
},
{
  "type": "node",
  "id": 1159209127,
  "lat": 50.4284548,
  "lon": 30.5642398
},
{
  "type": "node",
  "id": 1159209150,
  "lat": 50.4284278,
  "lon": 30.5641914
},
{
  "type": "node",
  "id": 1706201796,
  "lat": 50.4268133,
  "lon": 30.5639832
},
{
  "type": "node",
  "id": 1706201803,
  "lat": 50.4268970,
  "lon": 30.5634742
},
{
  "type": "node",
  "id": 1706201809,
  "lat": 50.4270225,
  "lon": 30.5637366
},
{
  "type": "node",
  "id": 1789653253,
  "lat": 50.4267584,
  "lon": 30.5636375
},
{
  "type": "node",
  "id": 1789653255,
  "lat": 50.4267754,
  "lon": 30.5636175
},
{
  "type": "node",
  "id": 1789653257,
  "lat": 50.4267933,
  "lon": 30.5635964
},
{
  "type": "node",
  "id": 1789653260,
  "lat": 50.4268135,
  "lon": 30.5635726
},
{
  "type": "node",
  "id": 1789653263,
  "lat": 50.4268311,
  "lon": 30.5635492
},
{
  "type": "node",
  "id": 1789686392,
  "lat": 50.4279889,
  "lon": 30.5611143
},
{
  "type": "node",
  "id": 1789686393,
  "lat": 50.4280060,
  "lon": 30.5611975
},
{
  "type": "node",
  "id": 1789686396,
  "lat": 50.4280268,
  "lon": 30.5610280
},
{
  "type": "node",
  "id": 1789686398,
  "lat": 50.4282598,
  "lon": 30.5619648
},
{
  "type": "node",
  "id": 1789686400,
  "lat": 50.4283053,
  "lon": 30.5619618
},
{
  "type": "node",
  "id": 1789686403,
  "lat": 50.4284246,
  "lon": 30.5606831
},
{
  "type": "node",
  "id": 1789686405,
  "lat": 50.4286046,
  "lon": 30.5613998
},
{
  "type": "node",
  "id": 1789686407,
  "lat": 50.4286757,
  "lon": 30.5615868
},
{
  "type": "node",
  "id": 1789686409,
  "lat": 50.4286918,
  "lon": 30.5613016
},
{
  "type": "node",
  "id": 1789707901,
  "lat": 50.4280259,
  "lon": 30.5612577
},
{
  "type": "node",
  "id": 1789707912,
  "lat": 50.4280524,
  "lon": 30.5613378
},
{
  "type": "node",
  "id": 1789707941,
  "lat": 50.4281416,
  "lon": 30.5616075
},
{
  "type": "node",
  "id": 1789707947,
  "lat": 50.4281811,
  "lon": 30.5617270
},
{
  "type": "node",
  "id": 1789707953,
  "lat": 50.4282147,
  "lon": 30.5618285
},
{
  "type": "node",
  "id": 1789707960,
  "lat": 50.4282441,
  "lon": 30.5619172
},
{
  "type": "node",
  "id": 1789707962,
  "lat": 50.4282443,
  "lon": 30.5608394
},
{
  "type": "node",
  "id": 2973609899,
  "lat": 50.4285434,
  "lon": 30.5641959
},
{
  "type": "node",
  "id": 2973609900,
  "lat": 50.4285316,
  "lon": 30.5642228
},
{
  "type": "node",
  "id": 2973609901,
  "lat": 50.4285149,
  "lon": 30.5642422
},
{
  "type": "node",
  "id": 2973609902,
  "lat": 50.4284951,
  "lon": 30.5642520
},
{
  "type": "node",
  "id": 2973609903,
  "lat": 50.4284343,
  "lon": 30.5640977
},
{
  "type": "node",
  "id": 2973609904,
  "lat": 50.4284487,
  "lon": 30.5640742
},
{
  "type": "node",
  "id": 2973609905,
  "lat": 50.4284672,
  "lon": 30.5640594
},
{
  "type": "node",
  "id": 2973609906,
  "lat": 50.4284878,
  "lon": 30.5640549
},
{
  "type": "node",
  "id": 6855912076,
  "lat": 50.4269171,
  "lon": 30.5638609
},
{
  "type": "node",
  "id": 944960447,
  "lat": 50.4382036,
  "lon": 30.5541375
},
{
  "type": "node",
  "id": 944960668,
  "lat": 50.4382687,
  "lon": 30.5540891
},
{
  "type": "node",
  "id": 944960710,
  "lat": 50.4381721,
  "lon": 30.5540329
},
{
  "type": "node",
  "id": 944960815,
  "lat": 50.4382372,
  "lon": 30.5539845
},
{
  "type": "node",
  "id": 946606162,
  "lat": 50.4356218,
  "lon": 30.5584430
},
{
  "type": "node",
  "id": 946606330,
  "lat": 50.4353748,
  "lon": 30.5588521
},
{
  "type": "node",
  "id": 946606781,
  "lat": 50.4356574,
  "lon": 30.5585652
},
{
  "type": "node",
  "id": 946607542,
  "lat": 50.4352750,
  "lon": 30.5584902
},
{
  "type": "node",
  "id": 946608089,
  "lat": 50.4350248,
  "lon": 30.5546209
},
{
  "type": "node",
  "id": 946608186,
  "lat": 50.4351834,
  "lon": 30.5548107
},
{
  "type": "node",
  "id": 946622548,
  "lat": 50.4356267,
  "lon": 30.5581687
},
{
  "type": "node",
  "id": 946622949,
  "lat": 50.4357773,
  "lon": 30.5584653
},
{
  "type": "node",
  "id": 946623095,
  "lat": 50.4355056,
  "lon": 30.5585321
},
{
  "type": "node",
  "id": 946623459,
  "lat": 50.4355335,
  "lon": 30.5586377
},
{
  "type": "node",
  "id": 946623570,
  "lat": 50.4350897,
  "lon": 30.5548752
},
{
  "type": "node",
  "id": 2016450519,
  "lat": 50.4350927,
  "lon": 30.5545783
},
{
  "type": "node",
  "id": 2016450521,
  "lat": 50.4351080,
  "lon": 30.5546364
},
{
  "type": "node",
  "id": 2016450541,
  "lat": 50.4353932,
  "lon": 30.5544437
},
{
  "type": "node",
  "id": 2016450546,
  "lat": 50.4354492,
  "lon": 30.5546151
},
{
  "type": "node",
  "id": 2016463447,
  "lat": 50.4354427,
  "lon": 30.5587678
},
{
  "type": "node",
  "id": 2016463449,
  "lat": 50.4354460,
  "lon": 30.5588044
},
{
  "type": "node",
  "id": 2016463451,
  "lat": 50.4354793,
  "lon": 30.5586772
},
{
  "type": "node",
  "id": 2016463453,
  "lat": 50.4354926,
  "lon": 30.5587347
},
{
  "type": "node",
  "id": 2704274678,
  "lat": 50.4970679,
  "lon": 30.4553538
},
{
  "type": "node",
  "id": 2704274679,
  "lat": 50.4971253,
  "lon": 30.4552741
},
{
  "type": "node",
  "id": 2704274681,
  "lat": 50.4971450,
  "lon": 30.4554911
},
{
  "type": "node",
  "id": 2704274682,
  "lat": 50.4972025,
  "lon": 30.4554113
},
{
  "type": "node",
  "id": 427595924,
  "lat": 50.4560651,
  "lon": 30.5066717
},
{
  "type": "node",
  "id": 427595931,
  "lat": 50.4559042,
  "lon": 30.5065755
},
{
  "type": "node",
  "id": 1289564470,
  "lat": 50.4562280,
  "lon": 30.5068827
},
{
  "type": "node",
  "id": 1289564487,
  "lat": 50.4560376,
  "lon": 30.5066909
},
{
  "type": "node",
  "id": 1533817287,
  "lat": 50.4560760,
  "lon": 30.5067271
},
{
  "type": "node",
  "id": 1533817289,
  "lat": 50.4561204,
  "lon": 30.5067660
},
{
  "type": "node",
  "id": 427595932,
  "lat": 50.4558143,
  "lon": 30.5071008
},
{
  "type": "node",
  "id": 427595933,
  "lat": 50.4559245,
  "lon": 30.5072215
},
{
  "type": "node",
  "id": 648544356,
  "lat": 50.4531647,
  "lon": 30.5125320
},
{
  "type": "node",
  "id": 648544357,
  "lat": 50.4532378,
  "lon": 30.5127050
},
{
  "type": "node",
  "id": 648544381,
  "lat": 50.4537917,
  "lon": 30.5126161
},
{
  "type": "node",
  "id": 648544382,
  "lat": 50.4536828,
  "lon": 30.5127872
},
{
  "type": "node",
  "id": 648544402,
  "lat": 50.4541713,
  "lon": 30.5131909
},
{
  "type": "node",
  "id": 1329743319,
  "lat": 50.4530010,
  "lon": 30.5123615
},
{
  "type": "node",
  "id": 1329743328,
  "lat": 50.4529328,
  "lon": 30.5123615
},
{
  "type": "node",
  "id": 1329743342,
  "lat": 50.4533029,
  "lon": 30.5128421
},
{
  "type": "node",
  "id": 1329743351,
  "lat": 50.4531168,
  "lon": 30.5124751
},
{
  "type": "node",
  "id": 1329743376,
  "lat": 50.4534745,
  "lon": 30.5126732
},
{
  "type": "node",
  "id": 1590034125,
  "lat": 50.4535830,
  "lon": 30.5129161
},
{
  "type": "node",
  "id": 356493179,
  "lat": 50.4836861,
  "lon": 30.4721118
},
{
  "type": "node",
  "id": 356493180,
  "lat": 50.4835127,
  "lon": 30.4718459
},
{
  "type": "node",
  "id": 356493181,
  "lat": 50.4833607,
  "lon": 30.4720908
},
{
  "type": "node",
  "id": 356493182,
  "lat": 50.4835341,
  "lon": 30.4723566
},
{
  "type": "node",
  "id": 1604761130,
  "lat": 50.5014066,
  "lon": 30.4900500
},
{
  "type": "node",
  "id": 1604761131,
  "lat": 50.5014598,
  "lon": 30.4899053
},
{
  "type": "node",
  "id": 1604761132,
  "lat": 50.5014611,
  "lon": 30.4901132
},
{
  "type": "node",
  "id": 1604761134,
  "lat": 50.5014624,
  "lon": 30.4902335
},
{
  "type": "node",
  "id": 1604761193,
  "lat": 50.5015700,
  "lon": 30.4902457
},
{
  "type": "node",
  "id": 7104202077,
  "lat": 50.5015700,
  "lon": 30.4899073
},
{
  "type": "node",
  "id": 256211647,
  "lat": 50.4583135,
  "lon": 30.5164864
},
{
  "type": "node",
  "id": 256211648,
  "lat": 50.4582801,
  "lon": 30.5166370
},
{
  "type": "node",
  "id": 256211649,
  "lat": 50.4584092,
  "lon": 30.5166996
},
{
  "type": "node",
  "id": 256211650,
  "lat": 50.4584580,
  "lon": 30.5165127
},
{
  "type": "node",
  "id": 256211651,
  "lat": 50.4585741,
  "lon": 30.5164518
},
{
  "type": "node",
  "id": 256211652,
  "lat": 50.4584695,
  "lon": 30.5162245
},
{
  "type": "node",
  "id": 305560996,
  "lat": 50.4529886,
  "lon": 30.5153123
},
{
  "type": "node",
  "id": 782242333,
  "lat": 50.4585047,
  "lon": 30.5161610
},
{
  "type": "node",
  "id": 782242345,
  "lat": 50.4584934,
  "lon": 30.5160472
},
{
  "type": "node",
  "id": 782242349,
  "lat": 50.4583574,
  "lon": 30.5159099
},
{
  "type": "node",
  "id": 782242354,
  "lat": 50.4584751,
  "lon": 30.5165687
},
{
  "type": "node",
  "id": 782242357,
  "lat": 50.4581277,
  "lon": 30.5158486
},
{
  "type": "node",
  "id": 782242365,
  "lat": 50.4585046,
  "lon": 30.5160788
},
{
  "type": "node",
  "id": 782242369,
  "lat": 50.4584482,
  "lon": 30.5160036
},
{
  "type": "node",
  "id": 782242373,
  "lat": 50.4582162,
  "lon": 30.5159297
},
{
  "type": "node",
  "id": 782242377,
  "lat": 50.4585120,
  "lon": 30.5165104
},
{
  "type": "node",
  "id": 782242380,
  "lat": 50.4582985,
  "lon": 30.5157874
},
{
  "type": "node",
  "id": 782242384,
  "lat": 50.4584891,
  "lon": 30.5162007
},
{
  "type": "node",
  "id": 782242386,
  "lat": 50.4583872,
  "lon": 30.5160267
},
{
  "type": "node",
  "id": 782242394,
  "lat": 50.4584572,
  "lon": 30.5165664
},
{
  "type": "node",
  "id": 782242415,
  "lat": 50.4580776,
  "lon": 30.5160680
},
{
  "type": "node",
  "id": 782242420,
  "lat": 50.4581846,
  "lon": 30.5159091
},
{
  "type": "node",
  "id": 782242425,
  "lat": 50.4585091,
  "lon": 30.5161284
},
{
  "type": "node",
  "id": 782242435,
  "lat": 50.4584748,
  "lon": 30.5160205
},
{
  "type": "node",
  "id": 782242442,
  "lat": 50.4582394,
  "lon": 30.5158530
},
{
  "type": "node",
  "id": 782242448,
  "lat": 50.4584979,
  "lon": 30.5164714
},
{
  "type": "node",
  "id": 782242453,
  "lat": 50.4585265,
  "lon": 30.5163177
},
{
  "type": "node",
  "id": 782242458,
  "lat": 50.4583453,
  "lon": 30.5159253
},
{
  "type": "node",
  "id": 782242470,
  "lat": 50.4581783,
  "lon": 30.5161160
},
{
  "type": "node",
  "id": 782242475,
  "lat": 50.4584133,
  "lon": 30.5160059
},
{
  "type": "node",
  "id": 782242482,
  "lat": 50.4581904,
  "lon": 30.5158825
},
{
  "type": "node",
  "id": 782242486,
  "lat": 50.4585127,
  "lon": 30.5163290
},
{
  "type": "node",
  "id": 782242491,
  "lat": 50.4582563,
  "lon": 30.5158891
},
{
  "type": "node",
  "id": 1329743297,
  "lat": 50.4537737,
  "lon": 30.5143846
},
{
  "type": "node",
  "id": 1329743303,
  "lat": 50.4534656,
  "lon": 30.5147263
},
{
  "type": "node",
  "id": 1329743307,
  "lat": 50.4529042,
  "lon": 30.5153846
},
{
  "type": "node",
  "id": 1329743360,
  "lat": 50.4542611,
  "lon": 30.5138986
},
{
  "type": "node",
  "id": 1329743391,
  "lat": 50.4536997,
  "lon": 30.5142597
},
{
  "type": "node",
  "id": 1590034129,
  "lat": 50.4544625,
  "lon": 30.5136194
},
{
  "type": "node",
  "id": 3506121944,
  "lat": 50.4530406,
  "lon": 30.5153312
},
{
  "type": "node",
  "id": 3506121947,
  "lat": 50.4533422,
  "lon": 30.5151940
},
{
  "type": "node",
  "id": 3506121949,
  "lat": 50.4533574,
  "lon": 30.5151633
},
{
  "type": "node",
  "id": 3506121954,
  "lat": 50.4535078,
  "lon": 30.5146422
},
{
  "type": "node",
  "id": 4252688872,
  "lat": 50.4529625,
  "lon": 30.5153306
},
{
  "type": "node",
  "id": 4252688874,
  "lat": 50.4529642,
  "lon": 30.5153349
},
{
  "type": "node",
  "id": 4489962846,
  "lat": 50.4529469,
  "lon": 30.5153451
},
{
  "type": "node",
  "id": 4489962847,
  "lat": 50.4529237,
  "lon": 30.5153665
},
{
  "type": "node",
  "id": 4489962848,
  "lat": 50.4529487,
  "lon": 30.5153498
},
{
  "type": "node",
  "id": 4489962849,
  "lat": 50.4529255,
  "lon": 30.5153713
},
{
  "type": "node",
  "id": 6333409370,
  "lat": 50.4534249,
  "lon": 30.5149811
},
{
  "type": "node",
  "id": 581287064,
  "lat": 50.4592821,
  "lon": 30.5256463
},
{
  "type": "node",
  "id": 581287066,
  "lat": 50.4591948,
  "lon": 30.5257898
},
{
  "type": "node",
  "id": 581287067,
  "lat": 50.4593582,
  "lon": 30.5260350
},
{
  "type": "node",
  "id": 581287070,
  "lat": 50.4594462,
  "lon": 30.5258903
},
{
  "type": "node",
  "id": 1723933598,
  "lat": 50.4593398,
  "lon": 30.5257328
},
{
  "type": "node",
  "id": 1723933599,
  "lat": 50.4593740,
  "lon": 30.5256766
},
{
  "type": "node",
  "id": 1723933600,
  "lat": 50.4593951,
  "lon": 30.5258136
},
{
  "type": "node",
  "id": 1723933601,
  "lat": 50.4594286,
  "lon": 30.5257585
},
{
  "type": "node",
  "id": 576600084,
  "lat": 50.4655262,
  "lon": 30.5145348
},
{
  "type": "node",
  "id": 576600091,
  "lat": 50.4654033,
  "lon": 30.5144998
},
{
  "type": "node",
  "id": 576600133,
  "lat": 50.4654194,
  "lon": 30.5147730
},
{
  "type": "node",
  "id": 1283964894,
  "lat": 50.4605992,
  "lon": 30.5147756
},
{
  "type": "node",
  "id": 1283964898,
  "lat": 50.4608001,
  "lon": 30.5148835
},
{
  "type": "node",
  "id": 1283964910,
  "lat": 50.4606964,
  "lon": 30.5146833
},
{
  "type": "node",
  "id": 1283964943,
  "lat": 50.4606890,
  "lon": 30.5149754
},
{
  "type": "node",
  "id": 1283968021,
  "lat": 50.4598952,
  "lon": 30.5170067
},
{
  "type": "node",
  "id": 1283968024,
  "lat": 50.4599247,
  "lon": 30.5169505
},
{
  "type": "node",
  "id": 1283968030,
  "lat": 50.4598508,
  "lon": 30.5170353
},
{
  "type": "node",
  "id": 1283968042,
  "lat": 50.4598036,
  "lon": 30.5167936
},
{
  "type": "node",
  "id": 1283968043,
  "lat": 50.4598812,
  "lon": 30.5170747
},
{
  "type": "node",
  "id": 1283968049,
  "lat": 50.4596551,
  "lon": 30.5171415
},
{
  "type": "node",
  "id": 1283968055,
  "lat": 50.4598777,
  "lon": 30.5169840
},
{
  "type": "node",
  "id": 1283968065,
  "lat": 50.4597533,
  "lon": 30.5168895
},
{
  "type": "node",
  "id": 1283968071,
  "lat": 50.4597688,
  "lon": 30.5172888
},
{
  "type": "node",
  "id": 1283968077,
  "lat": 50.4597736,
  "lon": 30.5169157
},
{
  "type": "node",
  "id": 2299951716,
  "lat": 50.4655392,
  "lon": 30.5147556
},
{
  "type": "node",
  "id": 3614603972,
  "lat": 50.4654094,
  "lon": 30.5146033
},
{
  "type": "node",
  "id": 3614603973,
  "lat": 50.4654123,
  "lon": 30.5146524
},
{
  "type": "node",
  "id": 3614603974,
  "lat": 50.4654258,
  "lon": 30.5146317
},
{
  "type": "node",
  "id": 3614603975,
  "lat": 50.4654721,
  "lon": 30.5144897
},
{
  "type": "node",
  "id": 3614603976,
  "lat": 50.4654752,
  "lon": 30.5145422
},
{
  "type": "node",
  "id": 581035482,
  "lat": 50.4655394,
  "lon": 30.5201570
},
{
  "type": "node",
  "id": 581035484,
  "lat": 50.4656977,
  "lon": 30.5205331
},
{
  "type": "node",
  "id": 581035486,
  "lat": 50.4656127,
  "lon": 30.5206228
},
{
  "type": "node",
  "id": 581035488,
  "lat": 50.4654527,
  "lon": 30.5202484
},
{
  "type": "node",
  "id": 581035496,
  "lat": 50.4654945,
  "lon": 30.5203464
},
{
  "type": "node",
  "id": 305562610,
  "lat": 50.4532841,
  "lon": 30.5306837
},
{
  "type": "node",
  "id": 305562611,
  "lat": 50.4531032,
  "lon": 30.5304462
},
{
  "type": "node",
  "id": 305562612,
  "lat": 50.4529619,
  "lon": 30.5307116
},
{
  "type": "node",
  "id": 305562613,
  "lat": 50.4531428,
  "lon": 30.5309491
},
{
  "type": "node",
  "id": 1493560183,
  "lat": 50.4532031,
  "lon": 30.5308359
},
{
  "type": "node",
  "id": 580005468,
  "lat": 50.4670742,
  "lon": 30.5206861
},
{
  "type": "node",
  "id": 580005469,
  "lat": 50.4670093,
  "lon": 30.5204589
},
{
  "type": "node",
  "id": 580005485,
  "lat": 50.4671909,
  "lon": 30.5206039
},
{
  "type": "node",
  "id": 580005486,
  "lat": 50.4671261,
  "lon": 30.5203766
},
{
  "type": "node",
  "id": 1651078312,
  "lat": 50.4671725,
  "lon": 30.5204293
},
{
  "type": "node",
  "id": 1651078331,
  "lat": 50.4671464,
  "lon": 30.5204477
},
{
  "type": "node",
  "id": 1651078337,
  "lat": 50.4671686,
  "lon": 30.5205256
},
{
  "type": "node",
  "id": 1651078340,
  "lat": 50.4671947,
  "lon": 30.5205072
},
{
  "type": "node",
  "id": 482223731,
  "lat": 50.5895530,
  "lon": 30.4948135
},
{
  "type": "node",
  "id": 482223732,
  "lat": 50.5894565,
  "lon": 30.4943159
},
{
  "type": "node",
  "id": 482223733,
  "lat": 50.5897399,
  "lon": 30.4940278
},
{
  "type": "node",
  "id": 482223734,
  "lat": 50.5899886,
  "lon": 30.4945617
},
{
  "type": "node",
  "id": 1207104888,
  "lat": 50.4171159,
  "lon": 30.6666180
},
{
  "type": "node",
  "id": 1207104903,
  "lat": 50.4170188,
  "lon": 30.6667793
},
{
  "type": "node",
  "id": 1207104955,
  "lat": 50.4169412,
  "lon": 30.6666642
},
{
  "type": "node",
  "id": 2583986230,
  "lat": 50.4170777,
  "lon": 30.6665614
},
{
  "type": "node",
  "id": 2583986231,
  "lat": 50.4171498,
  "lon": 30.6664485
},
{
  "type": "node",
  "id": 2583986232,
  "lat": 50.4170497,
  "lon": 30.6662923
},
{
  "type": "node",
  "id": 2583986233,
  "lat": 50.4170125,
  "lon": 30.6663486
},
{
  "type": "node",
  "id": 2583986234,
  "lat": 50.4169869,
  "lon": 30.6663174
},
{
  "type": "node",
  "id": 2583986235,
  "lat": 50.4169390,
  "lon": 30.6663308
},
{
  "type": "node",
  "id": 2583986236,
  "lat": 50.4168859,
  "lon": 30.6664277
},
{
  "type": "node",
  "id": 2583986237,
  "lat": 50.4168834,
  "lon": 30.6665117
},
{
  "type": "node",
  "id": 2583986238,
  "lat": 50.4169621,
  "lon": 30.6666295
},
{
  "type": "node",
  "id": 414950945,
  "lat": 50.5132150,
  "lon": 30.7862897
},
{
  "type": "node",
  "id": 414950946,
  "lat": 50.5133921,
  "lon": 30.7859875
},
{
  "type": "node",
  "id": 1657688713,
  "lat": 50.5132524,
  "lon": 30.7863439
},
{
  "type": "node",
  "id": 1657688716,
  "lat": 50.5133288,
  "lon": 30.7862135
},
{
  "type": "node",
  "id": 1657688736,
  "lat": 50.5133465,
  "lon": 30.7862392
},
{
  "type": "node",
  "id": 1657688741,
  "lat": 50.5133744,
  "lon": 30.7861199
},
{
  "type": "node",
  "id": 1657688743,
  "lat": 50.5133971,
  "lon": 30.7861528
},
{
  "type": "node",
  "id": 1657688746,
  "lat": 50.5134241,
  "lon": 30.7859328
},
{
  "type": "node",
  "id": 1657688749,
  "lat": 50.5134565,
  "lon": 30.7859798
},
{
  "type": "way",
  "id": 26992050,
  "nodes": [
    295856175,
    290725345,
    295856151,
    301974777,
    1190901010,
    1190901446,
    1190901260,
    295856193,
    295856153,
    295856154,
    1190901564,
    1190900974,
    1190901229,
    1190901538,
    1190901108,
    295856155,
    1190901083,
    1190901342,
    1190901618,
    1190901053,
    295856156,
    1190901301,
    1190901593,
    1190901153,
    1584108156,
    2254521722,
    1584108169,
    1190901433,
    2254521742,
    2254521765,
    1190900995,
    1190901256,
    1190901560,
    1584986971,
    1584986985,
    1190901539,
    1584108238,
    1584987016,
    1190901111,
    1584986997,
    1584108195,
    1190901370,
    1584108201,
    1584108194,
    1190901639,
    1190901306,
    1190901061,
    1583820705,
    4116577027,
    295856194,
    3732914982,
    295856158,
    4116577031,
    295856159,
    1190901529
  ]
},
{
  "type": "way",
  "id": 103131977,
  "nodes": [
    1584987041,
    1190901132,
    295856198,
    295856197,
    295856196,
    295856163,
    5573154622,
    2400091575,
    3610381730,
    295856195,
    4116577036,
    1584108465,
    295856161,
    295856160,
    1190901529
  ]
},
{
  "type": "way",
  "id": 145034522,
  "nodes": [
    301974521,
    1725541022,
    1584108349,
    295856175
  ]
},
{
  "type": "way",
  "id": 145034532,
  "nodes": [
    1584987041,
    1584987034,
    295856201,
    301974521
  ]
},
{
  "type": "way",
  "id": 91242454,
  "nodes": [
    1059128354,
    6863300852,
    1683129111,
    1683129110,
    6859782163,
    1683129105,
    6860878906,
    6860878903,
    6859782169,
    1683129104,
    6859782164,
    6863300824,
    1059128340,
    5641983438,
    5659552788,
    6863300823,
    6863300822,
    5641983437,
    6863300819,
    5659552787,
    1059128344,
    6611768829,
    2441575320,
    885292142
  ]
},
{
  "type": "way",
  "id": 704153727,
  "nodes": [
    885292142,
    885292141,
    6859782155,
    5688645195,
    1683135513,
    6611767473,
    885292179,
    6860878925,
    6859782156,
    6611767474,
    885292153,
    6611767479,
    885292192,
    885292147,
    885292139,
    885292163,
    885292157,
    1059128354
  ]
},
{
  "type": "way",
  "id": 343785798,
  "nodes": [
    305560996,
    3506121944,
    3506121947,
    3506121949,
    6333409370,
    1329743303,
    3506121954,
    1329743391,
    1329743297,
    1329743360,
    1590034129,
    648544402,
    648544381,
    648544382,
    1590034125,
    1329743376,
    1329743342,
    648544357,
    648544356,
    1329743351,
    1329743319,
    1329743328,
    1329743343,
    1329743357,
    1329743371,
    1329743364,
    1329743403,
    1329743298,
    1329743327,
    1329743335,
    1329743323,
    1329743333,
    1329743306,
    4319469005,
    4319469015,
    1329743353
  ]
},
{
  "type": "way",
  "id": 343785796,
  "nodes": [
    305560995,
    4252688790,
    4252688388,
    4489962867,
    4489962868,
    4489962869,
    4489962866,
    1329743307,
    4489962847,
    4489962849,
    4489962848,
    4489962846,
    4252688872,
    4252688874,
    305560996
  ]
},
{
  "type": "way",
  "id": 118190488,
  "nodes": [
    1329743305,
    3506121936,
    3506121937,
    3506121939,
    305560995
  ]
},
{
  "type": "way",
  "id": 343785794,
  "nodes": [
    1329743353,
    4319469014,
    4319469001,
    4321594241,
    4319469000,
    4319468999,
    4321594242,
    1329743356,
    1329743330,
    3506121767,
    1329743339,
    1329743336,
    1329743312,
    3506121898,
    1329743321,
    3506121918,
    1329743305
  ]
},
{
  "type": "way",
  "id": 45895027,
  "nodes": [
    584996681,
    584996685,
    584996689,
    584996691,
    584996681
  ]
},
{
  "type": "way",
  "id": 81247793,
  "nodes": [
    946606537,
    946607751,
    946622804,
    946605452,
    946606537
  ]
}

  ]
}
