{
  "version": 0.6,
  "generator": "Overpass API 0.7.55.9 ab41fea6",
  "osm3s": {
    "timestamp_osm_base": "2020-02-14T18:51:02Z",
    "copyright": "The data included in this document is from www.openstreetmap.org. The data is made available under ODbL."
  },
  "elements": [

{
  "type": "node",
  "id": 2634651858,
  "lat": 46.0711560,
  "lon": 20.6263037,
  "tags": {
    "LMI": "TM-II-m-A-06287",
    "SIRUTA:code": "155537",
    "addr:city": "Sânnicolau Mare",
    "addr:housenumber": "14",
    "addr:postcode": "305600",
    "addr:street": "Strada Republicii",
    "codul_entității_muzeale": "7074700.0",
    "contact:email": "casa_cultura@sannicolau-mare.ro",
    "contact:phone": "0256/370.042",
    "contact:website": "http://www.muzeulbanatului.ro",
    "name": "Expoziția Memorială Béla Bartók",
    "name:en": "Béla Bartók Memorial Exhibition",
    "name:hu": "Bartók Béla Emlékkiállítás",
    "opening_hours": "Mo-Fr 08:00-16:00;PH closed",
    "source": "INP",
    "source:link": "http://date.gov.ro/dataset/ghidul-muzeelor-din-romania",
    "start_date": "1981",
    "tourism": "museum",
    "tourism_survey": "17.10.2013 12:46:21"
  }
},
{
  "type": "node",
  "id": 2634651913,
  "lat": 45.7866163,
  "lon": 20.7178909,
  "tags": {
    "SIRUTA:code": "155500",
    "addr:city": "Jimbolia",
    "addr:housenumber": "1",
    "addr:postcode": "305400",
    "addr:street": "Strada Doctor Karl Diel",
    "codul_entității_muzeale": "5.1620000209E10",
    "historic": "memorial",
    "name": "Casa Memorială \"dr. Karl Diel\"",
    "name:en": "\"Dr. Karl Diel\" Memorial House",
    "opening_hours": "Mo-Fr 10:00-16:00",
    "phone": "0256/360.770; 0256/360.455; 0721050105",
    "source": "INP",
    "source:link": "http://date.gov.ro/dataset/ghidul-muzeelor-din-romania",
    "start_date": "2000",
    "tourism": "museum",
    "tourism_survey": "07.10.2013 12:45:24"
  }
},
{
  "type": "node",
  "id": 2634651932,
  "lat": 45.7940399,
  "lon": 20.7167068,
  "tags": {
    "SIRUTA:code": "155500",
    "addr:city": "Jimbolia",
    "addr:housenumber": "9",
    "addr:postcode": "305400",
    "addr:street": "Strada Liviu Rebreanu",
    "codul_entității_muzeale": "5.162000021E10",
    "email": "secretar@jimbolia.ro",
    "museum_type": "Science and Technology",
    "name": "Muzeul Pompierilor \"Florian\"",
    "name:en": "\"Florian\" Firefighters' Museum",
    "opening_hours": "8:00-20:00",
    "phone": "0256/360.312",
    "source": "INP",
    "source:link": "http://date.gov.ro/dataset/ghidul-muzeelor-din-romania",
    "start_date": "1992",
    "tourism": "museum",
    "tourism_survey": "30.11.2011 13:43:21"
  }
},
{
  "type": "node",
  "id": 2634652076,
  "lat": 45.8717520,
  "lon": 20.8018720,
  "tags": {
    "LMI": "TM-II-m-A-06246",
    "SIRUTA:code": "157460",
    "addr:city": "Lenauheim",
    "addr:housenumber": "542",
    "addr:postcode": "307240",
    "codul_entității_muzeale": "6973504.0",
    "description:ro": "Muzeul este organizat in casa in care s-a nascut poetul.",
    "email": "lenauheim@mail.dnttm.ro",
    "fax": "0256/381.775",
    "historic": "memorial",
    "name": "Casa Memorială \"Nikolaus Lenau\"",
    "name:en": "\"Nikolaus Lenau\" Memorial House",
    "opening_hours": "8:00-16:00",
    "phone": "0256/360.428",
    "source": "INP",
    "source:link": "http://date.gov.ro/dataset/ghidul-muzeelor-din-romania",
    "start_date": "1930",
    "tourism": "museum",
    "tourism_survey": "22.08.2012 12:44:08"
  }
},
{
  "type": "node",
  "id": 2634652110,
  "lat": 45.7895257,
  "lon": 20.7249154,
  "tags": {
    "SIRUTA:code": "155500",
    "addr:city": "Jimbolia",
    "addr:housenumber": "35",
    "addr:postcode": "305400",
    "addr:street": "Strada Lorena",
    "codul_entității_muzeale": "6973600.0",
    "email": "muzeul_presei@yahoo.de",
    "fax": "0256/361.463",
    "name": "Muzeul Presei \"Sever Bocu\"",
    "name:en": "\"Sever Bocu\" Press Museum",
    "opening_hours": "Mo-Fr 8:00-16:00",
    "phone": "0256/361.463",
    "source": "INP",
    "source:link": "http://date.gov.ro/dataset/ghidul-muzeelor-din-romania",
    "start_date": "2007",
    "tourism": "museum",
    "tourism_survey": "12.05.2013 20:13:17",
    "website": "http://www.muzeulpresei.go.ro/contact.htm"
  }
},
{
  "type": "node",
  "id": 2634652163,
  "lat": 45.7917820,
  "lon": 20.7189350,
  "tags": {
    "SIRUTA:code": "155500",
    "addr:city": "Jimbolia",
    "addr:housenumber": "102",
    "addr:postcode": "305400",
    "addr:street": "Strada Tudor Vladimirescu",
    "codul_entității_muzeale": "7073900.0",
    "description:ro": "Expozitia este deschisa in atelierul pictorului.",
    "fixme": "Adresa muzeului este de fapt adresa strazi, trebuie cautat manual unde este adresa corecta",
    "historic": "memorial",
    "name": "Casa Memorială Stefan Jäger",
    "name:en": "Stefan Jäger Memorial House",
    "opening_hours": "Mo,We 14:00-19:00;Th 17:00-19:00;Fr 14:00-17:00;Su closed",
    "phone": "0256/360.770;0256/360.764",
    "source": "INP",
    "source:link": "http://date.gov.ro/dataset/ghidul-muzeelor-din-romania",
    "start_date": "1971",
    "tourism": "museum",
    "tourism_survey": "22.08.2012 13:01:42",
    "website": "http://www.muzeulbanatului.ro"
  }
},
{
  "type": "node",
  "id": 2634652285,
  "lat": 45.9337030,
  "lon": 20.5263380,
  "tags": {
    "SIRUTA:code": "158868",
    "addr:city": "Teremia Mare",
    "addr:postcode": "307405",
    "addr:street": "nr. 74, in cadrul Centrului Cultural Teremia Mare",
    "codul_entității_muzeale": "7174400.0",
    "fixme": "Adresa muzeului este de fapt adresa localitati, trebuie cautat manual unde este adresa corecta",
    "name": "Centrul Cultural Teremia Mare",
    "name:en": "Cultural Centre of Teremia Mare",
    "opening_hours": "Mo-Fr 8:00-16:30",
    "phone": "0256/380.003",
    "source": "INP",
    "source:link": "http://date.gov.ro/dataset/ghidul-muzeelor-din-romania",
    "start_date": "1983",
    "tourism": "museum",
    "tourism_survey": "26.11.2013 13:50:45"
  }
},
{
  "type": "node",
  "id": 2634652525,
  "lat": 46.0474640,
  "lon": 20.4808660,
  "tags": {
    "SIRUTA:code": "156721",
    "addr:city": "Dudeștii Vechi",
    "addr:housenumber": "236",
    "codul_entității_muzeale": "650300.0",
    "email": "valentinusdv@yahoo.com",
    "fax": "0256490697",
    "museum_type": "Ethnography,",
    "name": "Muzeul Minoritatii Bulgare din Romania",
    "name:en": "Museum of Bulgarian Community",
    "opening_hours": "Mo-Fr 9:00-16:00",
    "phone": "0733804581; 0731333506",
    "source": "INP",
    "source:link": "http://date.gov.ro/dataset/ghidul-muzeelor-din-romania",
    "start_date": "2004",
    "tourism": "museum",
    "tourism_survey": "12.05.2013 20:38:24"
  }
},
{
  "type": "node",
  "id": 2634652536,
  "lat": 45.9359190,
  "lon": 20.5280100,
  "tags": {
    "SIRUTA:code": "158868",
    "addr:city": "Teremia Mare",
    "addr:postcode": "307405",
    "codul_entității_muzeale": "7174800.0",
    "fixme": "Adresa muzeului este de fapt adresa localitati, trebuie cautat manual unde este adresa corecta",
    "name": "Muzeul Pompierilor",
    "name:en": "Museum of Firemen",
    "opening_hours": "8:00-16:30",
    "phone": "0256/380.003",
    "source": "INP",
    "source:link": "http://date.gov.ro/dataset/ghidul-muzeelor-din-romania",
    "tourism": "museum",
    "tourism_survey": "24.07.2013 11:15:55"
  }
},
{
  "type": "node",
  "id": 2703103944,
  "lat": 45.7994397,
  "lon": 20.7187076,
  "tags": {
    "addr:housenumber": "1",
    "addr:street": "Bulevardul Republici",
    "description": "În curtea muzeului sunt expuse utilaje, scule, instrumente de semnalizare folosite la lucrările de întreținere a infrastructurii feroviare.",
    "name": "Muzeul Căilor Ferate",
    "phone": "0040720945783",
    "start_date": "2007",
    "tourism": "museum",
    "website": "http://www.memoriabanatului.ro/index.php?page=surse-memoriale/detalii-fisa&type=photos&code=26"
  }
},
{
  "type": "node",
  "id": 3497012698,
  "lat": 45.7077802,
  "lon": 20.2971630,
  "tags": {
    "addr:city": "Novo Miloševo",
    "addr:postcode": "23273",
    "addr:street": "Maršala Tita",
    "name": "Žitni magacin",
    "tourism": "museum"
  }
},
{
  "type": "node",
  "id": 3497014248,
  "lat": 45.7076178,
  "lon": 20.2977750,
  "tags": {
    "addr:city": "Novo Miloševo",
    "addr:postcode": "23273",
    "addr:street": "Maršala Tita",
    "name": "Muzej \"Kotarka\"",
    "tourism": "museum"
  }
},
{
  "type": "node",
  "id": 3497021540,
  "lat": 45.7287147,
  "lon": 20.3054879,
  "tags": {
    "addr:city": "Novo Miloševo",
    "addr:housenumber": "56",
    "addr:postcode": "23273",
    "addr:street": "Arkadija Popova",
    "name": "Музеј старих машина \"Жеравица\"",
    "name:sr": "Музеј старих машина \"Жеравица\"",
    "name:sr-Latn": "Muzej starih mašina \"Žeravica\"",
    "opening_hours": "Radno vreme je od 8 do 16 časova.",
    "phone": "+381 (0)23 781 909",
    "tourism": "museum"
  }
},
{
  "type": "node",
  "id": 4648748896,
  "lat": 45.8736474,
  "lon": 20.8012390,
  "tags": {
    "tourism": "museum"
  }
},
{
  "type": "node",
  "id": 5301703522,
  "lat": 45.8297080,
  "lon": 20.4881095,
  "tags": {
    "addr:postcode": "23300",
    "addr:street": "Стевана Сремца",
    "name": "Muzej Terra",
    "name:en": "Terra Museum",
    "opening_hours": "Tu-Sa 09:00-17:00",
    "tourism": "museum"
  }
},
{
  "type": "node",
  "id": 5614758824,
  "lat": 45.9310009,
  "lon": 20.0926546,
  "tags": {
    "addr:housenumber": "4",
    "addr:street": "Стевана Сремца",
    "name": "Родна кућа Стевана Сремца",
    "name:en": "Birth house of Stevan Sremac",
    "name:sr": "Родна кућа Стевана Сремца",
    "name:sr-Latn": "Rodna kuća Stevana Sremca",
    "phone": "+381 (0)24 817 055",
    "tourism": "museum",
    "website": "http://www.stevansremac.org.rs"
  }
},
{
  "type": "way",
  "id": 61917713,
  "nodes": [
    771776497,
    771776512,
    771776514,
    771776549,
    771776518,
    771776535,
    771776527,
    771776577,
    771776507,
    771776545,
    771776569,
    771776536,
    771776543,
    771776565,
    771776516,
    769867900,
    771776547,
    771776531,
    769867869,
    771776563,
    771776573,
    771776529,
    771776572,
    771776533,
    771776523,
    771776551,
    771776541,
    771776540,
    771776557,
    771776561,
    771776538,
    771776559,
    771776502,
    771776509,
    771776525,
    771776505,
    771776506,
    771776553,
    771776520,
    771776497
  ],
  "tags": {
    "building": "yes",
    "name": "Градски музеј",
    "tourism": "museum"
  }
},
{
  "type": "way",
  "id": 342739322,
  "nodes": [
    3497003597,
    3497003598,
    3497003599,
    3497003600,
    3497003597
  ],
  "tags": {
    "addr:city": "Novo Miloševo",
    "addr:postcode": "23273",
    "addr:street": "Marsala Tita",
    "building": "yes",
    "name": "Житни магацин и Котарка",
    "name:sr": "Житни магацин и Котарка",
    "name:sr-Latn": "Žitni magacin i Kotarka",
    "tourism": "museum"
  }
},
{
  "type": "way",
  "id": 651039368,
  "nodes": [
    6105877594,
    6105877595,
    6105877596,
    6105877597,
    6105877594
  ],
  "tags": {
    "addr:city": "Kikinda",
    "addr:housenumber": "21",
    "addr:street": "Трг српских добровољаца",
    "building": "yes",
    "description": "Непокретно културно добро Републике Србије.",
    "name": "Народни музеј Кикинда (Зграда великокикиндског диштрикта)",
    "name:sr": "Народни музеј Кикинда (Зграда великокикиндског диштрикта)",
    "name:sr-Latn": "Narodni muzej Kikinda (Zgrada velikokikindskog dištrikta) / Narodni muzej Kikinda (Zgrada velikokikindskog dištrikta)",
    "opening_hours": "10:00-22:00",
    "tourism": "museum"
  }
},
{
  "type": "node",
  "id": 769867869,
  "lat": 45.9318682,
  "lon": 20.0895786
},
{
  "type": "node",
  "id": 769867900,
  "lat": 45.9317034,
  "lon": 20.0895118
},
{
  "type": "node",
  "id": 771776497,
  "lat": 45.9317887,
  "lon": 20.0898463
},
{
  "type": "node",
  "id": 771776502,
  "lat": 45.9319766,
  "lon": 20.0899932
},
{
  "type": "node",
  "id": 771776505,
  "lat": 45.9318505,
  "lon": 20.0900727
},
{
  "type": "node",
  "id": 771776506,
  "lat": 45.9318305,
  "lon": 20.0899931
},
{
  "type": "node",
  "id": 771776507,
  "lat": 45.9317563,
  "lon": 20.0897415
},
{
  "type": "node",
  "id": 771776509,
  "lat": 45.9319644,
  "lon": 20.0900009
},
{
  "type": "node",
  "id": 771776512,
  "lat": 45.9317735,
  "lon": 20.0897847
},
{
  "type": "node",
  "id": 771776514,
  "lat": 45.9317686,
  "lon": 20.0897872
},
{
  "type": "node",
  "id": 771776516,
  "lat": 45.9317052,
  "lon": 20.0895181
},
{
  "type": "node",
  "id": 771776518,
  "lat": 45.9317706,
  "lon": 20.0897747
},
{
  "type": "node",
  "id": 771776520,
  "lat": 45.9317920,
  "lon": 20.0898445
},
{
  "type": "node",
  "id": 771776523,
  "lat": 45.9319287,
  "lon": 20.0895712
},
{
  "type": "node",
  "id": 771776525,
  "lat": 45.9319332,
  "lon": 20.0900205
},
{
  "type": "node",
  "id": 771776527,
  "lat": 45.9317623,
  "lon": 20.0897436
},
{
  "type": "node",
  "id": 771776529,
  "lat": 45.9318967,
  "lon": 20.0895249
},
{
  "type": "node",
  "id": 771776531,
  "lat": 45.9318224,
  "lon": 20.0896009
},
{
  "type": "node",
  "id": 771776533,
  "lat": 45.9319222,
  "lon": 20.0895704
},
{
  "type": "node",
  "id": 771776535,
  "lat": 45.9317694,
  "lon": 20.0897702
},
{
  "type": "node",
  "id": 771776536,
  "lat": 45.9317418,
  "lon": 20.0896676
},
{
  "type": "node",
  "id": 771776538,
  "lat": 45.9318925,
  "lon": 20.0896711
},
{
  "type": "node",
  "id": 771776540,
  "lat": 45.9319473,
  "lon": 20.0896348
},
{
  "type": "node",
  "id": 771776541,
  "lat": 45.9319481,
  "lon": 20.0896261
},
{
  "type": "node",
  "id": 771776543,
  "lat": 45.9317449,
  "lon": 20.0896659
},
{
  "type": "node",
  "id": 771776545,
  "lat": 45.9317535,
  "lon": 20.0897308
},
{
  "type": "node",
  "id": 771776547,
  "lat": 45.9317868,
  "lon": 20.0894672
},
{
  "type": "node",
  "id": 771776549,
  "lat": 45.9317658,
  "lon": 20.0897773
},
{
  "type": "node",
  "id": 771776551,
  "lat": 45.9319342,
  "lon": 20.0895770
},
{
  "type": "node",
  "id": 771776553,
  "lat": 45.9318339,
  "lon": 20.0899913
},
{
  "type": "node",
  "id": 771776557,
  "lat": 45.9319442,
  "lon": 20.0896418
},
{
  "type": "node",
  "id": 771776559,
  "lat": 45.9318999,
  "lon": 20.0896995
},
{
  "type": "node",
  "id": 771776561,
  "lat": 45.9319394,
  "lon": 20.0896459
},
{
  "type": "node",
  "id": 771776563,
  "lat": 45.9318720,
  "lon": 20.0895775
},
{
  "type": "node",
  "id": 771776565,
  "lat": 45.9317065,
  "lon": 20.0895173
},
{
  "type": "node",
  "id": 771776569,
  "lat": 45.9317583,
  "lon": 20.0897283
},
{
  "type": "node",
  "id": 771776572,
  "lat": 45.9319102,
  "lon": 20.0895764
},
{
  "type": "node",
  "id": 771776573,
  "lat": 45.9318632,
  "lon": 20.0895426
},
{
  "type": "node",
  "id": 771776577,
  "lat": 45.9317611,
  "lon": 20.0897389
},
{
  "type": "node",
  "id": 3497003597,
  "lat": 45.7075152,
  "lon": 20.2969060
},
{
  "type": "node",
  "id": 3497003598,
  "lat": 45.7080452,
  "lon": 20.2972732
},
{
  "type": "node",
  "id": 3497003599,
  "lat": 45.7076264,
  "lon": 20.2985462
},
{
  "type": "node",
  "id": 3497003600,
  "lat": 45.7070964,
  "lon": 20.2981790
},
{
  "type": "node",
  "id": 6105877594,
  "lat": 45.8301387,
  "lon": 20.4648111
},
{
  "type": "node",
  "id": 6105877595,
  "lat": 45.8305917,
  "lon": 20.4642267
},
{
  "type": "node",
  "id": 6105877596,
  "lat": 45.8309488,
  "lon": 20.4647969
},
{
  "type": "node",
  "id": 6105877597,
  "lat": 45.8304958,
  "lon": 20.4653813
}

  ]
}
