{
  "version": 0.6,
  "generator": "Overpass API 0.7.55.1011 6c2efc30",
  "osm3s": {
    "timestamp_osm_base": "2020-02-14T14:56:02Z",
    "copyright": "The data included in this document is from www.openstreetmap.org. The data is made available under ODbL."
  },
  "elements": [

{
  "type": "node",
  "id": 213470889,
  "lat": 43.7219053,
  "lon": 10.5228048,
  "tags": {
    "addr:city": "Calci",
    "addr:housenumber": "79",
    "addr:postcode": "56011",
    "addr:street": "via Roma",
    "facebook": "https://www.facebook.com/museostorianaturalepisa/",
    "name": "Museo di storia naturale dell'Università di Pisa",
    "opening_hours": "Oct-May Mo-Sa 09:00-19:00; Oct-May Su 09:00-20:00; Jun-Sep 10:00-20:00",
    "operator": "Università di Pisa",
    "phone": "+39 050 2212970",
    "toilets:wheelchair": "yes",
    "tourism": "museum",
    "website": "https://www.msn.unipi.it/it/",
    "wheelchair": "limited",
    "wikidata": "Q17099134",
    "wikipedia": "it:Museo di storia naturale dell'Università di Pisa"
  }
},
{
  "type": "node",
  "id": 258881425,
  "lat": 43.7146178,
  "lon": 10.4074063,
  "tags": {
    "addr:city": "Pisa",
    "addr:housenumber": "1",
    "addr:postcode": "56126",
    "addr:street": "Piazza San Matteo in Soarta",
    "name": "Museo Nazionale di San Matteo",
    "opening_hours": "Tu-Sa 08:30-19:30; Su 08:30-13:30; Dec 25 off; Jan 1 off",
    "phone": "+39 050 541865",
    "tourism": "museum",
    "website": "http://www.polomusealetoscana.beniculturali.it/index.php?it/204/pisa-museo-nazionale-di-san-matteo",
    "wikidata": "Q1081881",
    "wikipedia": "it:Museo nazionale di San Matteo"
  }
},
{
  "type": "node",
  "id": 274254526,
  "lat": 43.7166770,
  "lon": 10.3903671,
  "tags": {
    "name": "Museo degli Strumenti per il Calcolo",
    "old_name": "Vecchi macelli",
    "tourism": "museum",
    "wikidata": "Q3868418",
    "wikipedia": "it:Museo nazionale degli strumenti per il calcolo"
  }
},
{
  "type": "node",
  "id": 335577875,
  "lat": 43.6604069,
  "lon": 10.6327912,
  "tags": {
    "name": "Museo Piaggio \"Giovanni Alberto Agnelli\"",
    "tourism": "museum",
    "wheelchair": "limited"
  }
},
{
  "type": "node",
  "id": 1724400758,
  "lat": 43.5475294,
  "lon": 10.7207573,
  "tags": {
    "name": "Pinacoteca",
    "tourism": "museum"
  }
},
{
  "type": "node",
  "id": 1725130162,
  "lat": 43.5438056,
  "lon": 10.3133897,
  "tags": {
    "addr:city": "Livorno",
    "addr:country": "IT",
    "addr:housenumber": "38",
    "addr:postcode": "57126",
    "addr:street": "Via Roma",
    "name": "Casa natale di Amedeo Modigliani",
    "name:pl": "Dom urodzin Amedeo Modiglianiego",
    "tourism": "museum",
    "wikidata": "Q3661344",
    "wikipedia": "it:Casa natale di Amedeo Modigliani"
  }
},
{
  "type": "node",
  "id": 2451989120,
  "lat": 43.8070349,
  "lon": 10.4189208,
  "tags": {
    "name": "Fondazione Cerratelli",
    "tourism": "museum",
    "website": "http://www.fondazionecerratelli.it/"
  }
},
{
  "type": "node",
  "id": 2484015718,
  "lat": 43.5538081,
  "lon": 10.3179673,
  "tags": {
    "name": "Museo diocesano \"Leonello Barsotti\"",
    "tourism": "museum",
    "wikidata": "Q3868301",
    "wikipedia": "it:Museo diocesano Leonello Barsotti"
  }
},
{
  "type": "node",
  "id": 2484023248,
  "lat": 43.5478339,
  "lon": 10.3200960,
  "tags": {
    "name": "Museo ebraico Yeshivà Marini",
    "tourism": "museum",
    "wikidata": "Q3868350",
    "wikipedia": "it:Museo ebraico Yeshivà Marini"
  }
},
{
  "type": "node",
  "id": 2484106662,
  "lat": 43.4926024,
  "lon": 10.3501451,
  "tags": {
    "name": "Galleria degli Ex Voto del Santuario di Montenero",
    "tourism": "museum",
    "wikidata": "Q3949801",
    "wikipedia": "it:Santuario della Madonna delle Grazie (Livorno)"
  }
},
{
  "type": "node",
  "id": 2536650913,
  "lat": 43.4125097,
  "lon": 10.5752901,
  "tags": {
    "addr:city": "Castellina Marittima",
    "addr:housename": "Ex Palazzo Opera Pia\" Massimino Carrai",
    "addr:housenumber": "1",
    "addr:postcode": "56040",
    "addr:street": "piazza Cavour",
    "name": "Ecomuseo dell'alabastro",
    "tourism": "museum"
  }
},
{
  "type": "node",
  "id": 2607786585,
  "lat": 43.7138408,
  "lon": 10.4052141,
  "tags": {
    "addr:city": "Pisa",
    "addr:housename": "Palazzo Lanfranchi",
    "addr:housenumber": "9",
    "addr:postcode": "56125",
    "addr:street": "Lungarno Galileo Galilei",
    "name": "Museo della Grafica",
    "operator": "Università di Pisa",
    "operator:type": "public",
    "operator:wikidata": "Q645663",
    "phone": "+39 050 2216060",
    "tourism": "museum",
    "website": "http://www.museodellagrafica.unipi.it/",
    "wikidata": "Q55379304"
  }
},
{
  "type": "node",
  "id": 2661363561,
  "lat": 43.7839687,
  "lon": 10.4207318,
  "tags": {
    "addr:city": "Rigoli",
    "addr:housenumber": "3",
    "addr:street": "Via Alcide De Gasperi",
    "name": "Museo Radico",
    "phone": "+39 349 7274045",
    "tourism": "museum",
    "website": "https://www.radico.it/",
    "wheelchair": "yes"
  }
},
{
  "type": "node",
  "id": 2731142282,
  "lat": 43.7183779,
  "lon": 10.3972442,
  "tags": {
    "addr:city": "Pisa",
    "addr:housenumber": "26",
    "addr:postcode": "56126",
    "addr:street": "Via Santa Maria",
    "name": "Domus Galilaeana",
    "tourism": "museum",
    "website": "http://www.domusgalilaeana.it/",
    "wikidata": "Q3035643",
    "wikipedia": "it:Domus Galilaeana"
  }
},
{
  "type": "node",
  "id": 4278027476,
  "lat": 43.4047424,
  "lon": 10.4751529,
  "tags": {
    "addr:housenumber": "10",
    "addr:street": "Via del Torrione",
    "description": "Entrata secondaria",
    "name": "Museo Civico Archeologico Palazzo Bombardieri",
    "phone": "+39 0586 724288",
    "tourism": "museum",
    "website": "http://www.comune.rosignano.livorno.it/"
  }
},
{
  "type": "node",
  "id": 4278037603,
  "lat": 43.4046098,
  "lon": 10.4748714,
  "tags": {
    "addr:housenumber": "24",
    "addr:street": "Via del Castello",
    "description": "Entrata principale",
    "name": "Museo Civico Archeologico Palazzo Bombardieri",
    "phone": "+39 586724288",
    "tourism": "museum",
    "website": "http://www.comune.rosignano.livorno.it/",
    "wikidata": "Q947238",
    "wikipedia": "it:Museo civico archeologico (Rosignano Marittimo)"
  }
},
{
  "type": "node",
  "id": 5186127047,
  "lat": 43.6639063,
  "lon": 10.6367651,
  "tags": {
    "name": "PALP Palazzo Pretorio Pontedera",
    "tourism": "museum"
  }
},
{
  "type": "node",
  "id": 5701981131,
  "lat": 43.7146260,
  "lon": 10.3923716,
  "tags": {
    "addr:city": "Pisa",
    "addr:housenumber": "16",
    "addr:postcode": "56125",
    "addr:street": "Lungarno Ranieri Simonelli",
    "description": "Sono esposte sette imbarcazioni di epoca romana, databili tra il III secolo a.C. e il VII secolo d.C., di cui quattro integre. Inoltre sono esposti numerosisimi reperti.",
    "email": "info@navidipisa.it",
    "name": "Museo delle navi antiche di Pisa",
    "opening_hours": "We 14:30-18:30; Fr, Sa, Su 10:30-18:30",
    "phone": "+39 050 8057880",
    "tourism": "museum",
    "website": "https://www.navidipisa.it/",
    "wikidata": "Q3328411",
    "wikipedia": "it:Museo delle navi antiche di Pisa"
  }
},
{
  "type": "node",
  "id": 5891109325,
  "lat": 43.7092182,
  "lon": 10.6194065,
  "tags": {
    "name": "Museo della Storia Antica del territorio di Bientina",
    "tourism": "museum",
    "wikidata": "Q25402901",
    "wikipedia": "it:Museo della Storia Antica del territorio di Bientina"
  }
},
{
  "type": "node",
  "id": 5926529784,
  "lat": 43.5549563,
  "lon": 10.3063090,
  "tags": {
    "addr:postcode": "57123",
    "addr:street": "Piazza del Luogo Pio",
    "contact:email": "museodellacittà@comune.livorno.it",
    "contact:phone": "+39 0586 824551",
    "museum": "local",
    "museum_type": "municipal",
    "name": "Museo della città",
    "opening_hours": "Tu-Su 10:00-19:00;PH off",
    "operator": "Comune di Livorno",
    "tourism": "museum",
    "wikidata": "Q54869375",
    "wikipedia": "it:Museo della città (Livorno)"
  }
},
{
  "type": "node",
  "id": 5981903478,
  "lat": 43.5294377,
  "lon": 10.3060857,
  "tags": {
    "level": "-1",
    "name": "Cripta di San Jacopo",
    "tourism": "museum"
  }
},
{
  "type": "node",
  "id": 6229691115,
  "lat": 43.7165057,
  "lon": 10.3904761,
  "tags": {
    "name": "Museo degli Strumenti di Fisica",
    "tourism": "museum",
    "wikidata": "Q60869245"
  }
},
{
  "type": "node",
  "id": 6229709332,
  "lat": 43.7175753,
  "lon": 10.4044398,
  "tags": {
    "name": "Gipsoteca di Arte Antica",
    "tourism": "museum",
    "wikidata": "Q60870374"
  }
},
{
  "type": "node",
  "id": 6274473845,
  "lat": 43.7164001,
  "lon": 10.3969905,
  "tags": {
    "addr:city": "Pisa",
    "addr:housenumber": "46",
    "addr:postcode": "56126",
    "addr:street": "Lungarno Antonio Pacinotti",
    "email": "pm-tos.museopalazzoreale@beniculturali.it",
    "name": "Museo Nazionale di Palazzo Reale",
    "opening_hours": "We-Mo 09:00-14:00; Tu off; Jan 1 off; Dec 25 off",
    "operator": "MiBAC - Polo museale della Toscana",
    "operator:type": "public",
    "phone": "+39 050 926573",
    "tourism": "museum",
    "website": "http://polomusealetoscana.beniculturali.it/index.php?it/202/pisa-museo-nazionale-di-palazzo-reale",
    "wikidata": "Q966515",
    "wikipedia": "it:Museo nazionale di palazzo Reale"
  }
},
{
  "type": "node",
  "id": 6634733690,
  "lat": 43.4022703,
  "lon": 10.4083485,
  "tags": {
    "addr:city": "Rosignano Marittimo",
    "addr:housenumber": "8",
    "addr:postcode": "57016",
    "addr:street": "Via del Museo",
    "description": "Il Museo è gestito dal Comune di Rosignano Marittimo.",
    "email": "museo@comune.rosignano.livorno.it",
    "name": "Museo archeologico nazionale di Castiglioncello",
    "opening_hours": "Apr 21-Jun 30: Sa 16:30-18:30; Su, PH 10:30-12:30; Jul 2-Sep 8: Tu-Su 17:30-20:00",
    "operator": "MIBAC",
    "operator:type": "public",
    "phone": "+39 0586 724288",
    "tourism": "museum",
    "website": "http://www.polomusealetoscana.beniculturali.it/index.php?it/210/rosignano-marittimo-li-museo-archeologico-nazionale-di-castiglioncello"
  }
},
{
  "type": "way",
  "id": 77501692,
  "nodes": [
    912137991,
    912137993,
    912137995,
    3569338700,
    912137996,
    912137991
  ],
  "tags": {
    "building": "yes",
    "name": "Museo Civico Giovanni Fattori",
    "tourism": "museum",
    "wikipedia": "it:Museo civico Giovanni Fattori"
  }
},
{
  "type": "way",
  "id": 173180965,
  "nodes": [
    1840089096,
    4070587995,
    1840089094,
    1840089089,
    1840089092,
    4070588005,
    1840089096
  ],
  "tags": {
    "building": "yes",
    "historic": "villa",
    "name": "Villa Medicea di Coltano",
    "tourism": "museum",
    "wikidata": "Q3558670",
    "wikipedia": "it:Villa medicea di Coltano"
  }
},
{
  "type": "way",
  "id": 232481785,
  "nodes": [
    2408295124,
    2408295093,
    2408295187,
    2408295143,
    2408295216,
    2408295198,
    2408295173,
    2408295124
  ],
  "tags": {
    "addr:housenumber": "71",
    "addr:street": "Via Giuseppe Mazzini",
    "building": "yes",
    "name": "Domus Mazziniana",
    "tourism": "museum",
    "website": "http://www.domusmazziniana.it/",
    "wikidata": "Q3713392",
    "wikipedia": "it:Domus Mazziniana"
  }
},
{
  "type": "way",
  "id": 423453046,
  "nodes": [
    4230574156,
    4230584415,
    4230584411,
    4230584417,
    4230584418,
    4230584403,
    4230584425,
    4230584408,
    4230584406,
    4230584421,
    4230585798,
    4230574150,
    4230586296,
    4230574158,
    4230574162,
    4230574165,
    4230574166,
    4230574163,
    4230574156
  ],
  "tags": {
    "alt_name": "Fornace Coccapani",
    "building": "yes",
    "name": "Museo delle ceramiche",
    "tourism": "museum",
    "wikidata": "Q25400346",
    "wikipedia": "it:Fornace Coccapani"
  }
},
{
  "type": "way",
  "id": 457412748,
  "nodes": [
    4535647747,
    4535647748,
    4535647749,
    4535647750,
    4535647751,
    4535647752,
    4535647753,
    4535647754,
    4535647755,
    4535647756,
    4535647757,
    4535647747
  ],
  "tags": {
    "building": "yes",
    "name": "Museo Civico Archeologico di Cecina",
    "tourism": "museum",
    "wikidata": "Q3329458",
    "wikipedia": "fr:Musée archéologique de la Villa Guerrazzi",
    "wikipedia:it": "Museo comunale archeologico La Cinquantina"
  }
},
{
  "type": "way",
  "id": 546333990,
  "nodes": [
    5279614833,
    5279614850,
    4963300928,
    5279614834,
    5279614835,
    5279614836,
    3069298610,
    5279614837,
    4963300926,
    5279614838,
    5279614839,
    5279614840,
    5279614841,
    5279614842,
    5279614843,
    5279614844,
    5279614851,
    1754167960,
    5279614853,
    5279614857,
    5279614854,
    5279614833
  ],
  "tags": {
    "building": "yes",
    "building:levels": "2",
    "building:material": "plaster",
    "name": "Museo dell'Opera del Duomo",
    "name:he": "מגדל פיזה",
    "roof:material": "roof_tiles",
    "roof:shape": "hipped",
    "tourism": "museum",
    "wikidata": "Q3328407",
    "wikipedia": "it:Museo dell'Opera del Duomo (Pisa)"
  }
},
{
  "type": "way",
  "id": 701045438,
  "nodes": [
    1216772668,
    1216772579,
    2443312842,
    1216772644,
    6583744445,
    1216772620,
    1216772672,
    2443312840,
    1216772582,
    1305606037,
    2443312841,
    1305606006,
    1216772602,
    1216772668
  ],
  "tags": {
    "addr:street": "Piazza del Duomo",
    "building": "yes",
    "building:levels": "2",
    "name": "Museo delle Sinopie",
    "operator": "Opera della Primaziale Pisana",
    "operator:type": "religious",
    "operator:wikidata": "Q3883875",
    "operator:wikipedia": "it:Opera della Primaziale Pisana",
    "tourism": "museum",
    "wheelchair": "yes",
    "wikidata": "Q3328416",
    "wikipedia": "it:Museo delle sinopie"
  }
},
{
  "type": "way",
  "id": 712406726,
  "nodes": [
    6698190469,
    6698206996,
    6698211665,
    6698197565,
    6698202340,
    6698218843,
    6698192936,
    6698209465,
    6698175976,
    6698200135,
    6698204796,
    6698190469
  ],
  "tags": {
    "building": "yes",
    "building:levels": "2",
    "height": "6.51",
    "name": "Castello dei Vicari e Museo civico F. Baldinucci",
    "tourism": "museum",
    "website": "http://www.castellodilari.it"
  }
},
{
  "type": "way",
  "id": 712580040,
  "nodes": [
    6699702885,
    6699697143,
    6699697142,
    6699702911,
    6699702910,
    6699702909,
    6699702907,
    6699702883,
    6699702882,
    6699702881,
    6699702885
  ],
  "tags": {
    "building": "yes",
    "height": "7.99",
    "name": "Museo del lavoro e della civiltà rurale",
    "tourism": "museum",
    "wikidata": "Q16336134",
    "wikipedia": "it:Museo del lavoro e della civiltà rurale"
  }
},
{
  "type": "relation",
  "id": 2052528,
  "members": [
    {
      "type": "way",
      "ref": 625298981,
      "role": "outer"
    },
    {
      "type": "way",
      "ref": 152025206,
      "role": "outer"
    },
    {
      "type": "way",
      "ref": 151878515,
      "role": "outer"
    },
    {
      "type": "way",
      "ref": 152025203,
      "role": "outer"
    },
    {
      "type": "way",
      "ref": 151878520,
      "role": "inner"
    },
    {
      "type": "way",
      "ref": 151878517,
      "role": "inner"
    },
    {
      "type": "way",
      "ref": 151878518,
      "role": "inner"
    },
    {
      "type": "way",
      "ref": 151878516,
      "role": "inner"
    },
    {
      "type": "way",
      "ref": 151878519,
      "role": "inner"
    },
    {
      "type": "way",
      "ref": 151878522,
      "role": "inner"
    },
    {
      "type": "way",
      "ref": 151878523,
      "role": "inner"
    },
    {
      "type": "way",
      "ref": 151878525,
      "role": "inner"
    },
    {
      "type": "way",
      "ref": 152022691,
      "role": "inner"
    },
    {
      "type": "way",
      "ref": 152022697,
      "role": "inner"
    },
    {
      "type": "way",
      "ref": 152022693,
      "role": "inner"
    },
    {
      "type": "way",
      "ref": 152022699,
      "role": "inner"
    },
    {
      "type": "way",
      "ref": 152022701,
      "role": "inner"
    },
    {
      "type": "way",
      "ref": 152022696,
      "role": "inner"
    },
    {
      "type": "way",
      "ref": 152022700,
      "role": "inner"
    },
    {
      "type": "way",
      "ref": 152022698,
      "role": "inner"
    },
    {
      "type": "way",
      "ref": 152022694,
      "role": "inner"
    },
    {
      "type": "way",
      "ref": 152022695,
      "role": "inner"
    },
    {
      "type": "way",
      "ref": 152022692,
      "role": "inner"
    },
    {
      "type": "way",
      "ref": 152022690,
      "role": "inner"
    },
    {
      "type": "way",
      "ref": 151878524,
      "role": "inner"
    },
    {
      "type": "way",
      "ref": 625298987,
      "role": "inner"
    }
  ],
  "tags": {
    "addr:city": "Calci",
    "addr:housenumber": "79",
    "addr:postcode": "56011",
    "addr:street": "Via Roma",
    "building": "yes",
    "description": "L'ingresso è consentito solo negli orari indicati. ",
    "email": "pm-tos.certosadicalci@beniculturali.it",
    "name": "Museo Nazionale della Certosa Monumentale di Calci",
    "note": "Ho sostituito il tag perché il luogo ha una denominazione ufficiale.",
    "opening_hours": "Tu-Sa, Su[1] 09:00-18:00; Su [2, 3, 4, 5] 09:00-12:30; Mo off; Jan 1 off; Dec 25 off",
    "phone": "+39 050 938430",
    "tourism": "museum",
    "type": "multipolygon",
    "website": "http://polomusealetoscana.beniculturali.it/index.php?it/180/calci-pi-museo-nazionale-della-certosa-monumentale-di-calci",
    "wikidata": "Q3665206",
    "wikipedia": "it:Certosa di Pisa"
  }
},
{
  "type": "relation",
  "id": 2088453,
  "members": [
    {
      "type": "way",
      "ref": 155541819,
      "role": "outer"
    },
    {
      "type": "way",
      "ref": 607065350,
      "role": "outer"
    },
    {
      "type": "way",
      "ref": 146665920,
      "role": "inner"
    },
    {
      "type": "way",
      "ref": 146665798,
      "role": "inner"
    }
  ],
  "tags": {
    "name": "Museo Storia Naturale del Mediterraneo",
    "tourism": "museum",
    "type": "multipolygon",
    "wikidata": "Q3868243",
    "wikipedia": "it:Museo di storia naturale del Mediterraneo"
  }
},
{
  "type": "node",
  "id": 912137991,
  "lat": 43.5354190,
  "lon": 10.3056665
},
{
  "type": "node",
  "id": 912137993,
  "lat": 43.5352450,
  "lon": 10.3057822
},
{
  "type": "node",
  "id": 912137995,
  "lat": 43.5353721,
  "lon": 10.3060930
},
{
  "type": "node",
  "id": 912137996,
  "lat": 43.5355360,
  "lon": 10.3059615
},
{
  "type": "node",
  "id": 3569338700,
  "lat": 43.5354522,
  "lon": 10.3060344
},
{
  "type": "node",
  "id": 1091480566,
  "lat": 43.5357342,
  "lon": 10.3122109
},
{
  "type": "node",
  "id": 1599308154,
  "lat": 43.5356226,
  "lon": 10.3131514
},
{
  "type": "node",
  "id": 1599308161,
  "lat": 43.5356515,
  "lon": 10.3132636
},
{
  "type": "node",
  "id": 1599308163,
  "lat": 43.5357053,
  "lon": 10.3132372
},
{
  "type": "node",
  "id": 1599308166,
  "lat": 43.5357307,
  "lon": 10.3133356
},
{
  "type": "node",
  "id": 1599308189,
  "lat": 43.5357381,
  "lon": 10.3139272
},
{
  "type": "node",
  "id": 1599308191,
  "lat": 43.5357458,
  "lon": 10.3130910
},
{
  "type": "node",
  "id": 1599308192,
  "lat": 43.5357520,
  "lon": 10.3131149
},
{
  "type": "node",
  "id": 1599308194,
  "lat": 43.5357883,
  "lon": 10.3130971
},
{
  "type": "node",
  "id": 1599308197,
  "lat": 43.5357945,
  "lon": 10.3131211
},
{
  "type": "node",
  "id": 1599308199,
  "lat": 43.5358271,
  "lon": 10.3140779
},
{
  "type": "node",
  "id": 1599308205,
  "lat": 43.5358394,
  "lon": 10.3130991
},
{
  "type": "node",
  "id": 1599308228,
  "lat": 43.5358813,
  "lon": 10.3132616
},
{
  "type": "node",
  "id": 1599308234,
  "lat": 43.5359163,
  "lon": 10.3139777
},
{
  "type": "node",
  "id": 1599308238,
  "lat": 43.5359400,
  "lon": 10.3129444
},
{
  "type": "node",
  "id": 1599308239,
  "lat": 43.5359466,
  "lon": 10.3129129
},
{
  "type": "node",
  "id": 1599308241,
  "lat": 43.5359691,
  "lon": 10.3129283
},
{
  "type": "node",
  "id": 1599308256,
  "lat": 43.5359778,
  "lon": 10.3128975
},
{
  "type": "node",
  "id": 1599308261,
  "lat": 43.5359933,
  "lon": 10.3129150
},
{
  "type": "node",
  "id": 1599308265,
  "lat": 43.5360022,
  "lon": 10.3128855
},
{
  "type": "node",
  "id": 1599308267,
  "lat": 43.5360024,
  "lon": 10.3131727
},
{
  "type": "node",
  "id": 1599308274,
  "lat": 43.5360169,
  "lon": 10.3129020
},
{
  "type": "node",
  "id": 1599308291,
  "lat": 43.5360249,
  "lon": 10.3128743
},
{
  "type": "node",
  "id": 1599308296,
  "lat": 43.5360270,
  "lon": 10.3131847
},
{
  "type": "node",
  "id": 1599308301,
  "lat": 43.5360352,
  "lon": 10.3131547
},
{
  "type": "node",
  "id": 1599308312,
  "lat": 43.5360420,
  "lon": 10.3128881
},
{
  "type": "node",
  "id": 1599308323,
  "lat": 43.5360473,
  "lon": 10.3128632
},
{
  "type": "node",
  "id": 1599308358,
  "lat": 43.5360580,
  "lon": 10.3131661
},
{
  "type": "node",
  "id": 1599308361,
  "lat": 43.5360649,
  "lon": 10.3128754
},
{
  "type": "node",
  "id": 1599308363,
  "lat": 43.5360670,
  "lon": 10.3131373
},
{
  "type": "node",
  "id": 1599308365,
  "lat": 43.5360730,
  "lon": 10.3128505
},
{
  "type": "node",
  "id": 1599308372,
  "lat": 43.5360838,
  "lon": 10.3131494
},
{
  "type": "node",
  "id": 1599308390,
  "lat": 43.5360901,
  "lon": 10.3131246
},
{
  "type": "node",
  "id": 1599308395,
  "lat": 43.5360908,
  "lon": 10.3128611
},
{
  "type": "node",
  "id": 1599308404,
  "lat": 43.5360965,
  "lon": 10.3128389
},
{
  "type": "node",
  "id": 1599308421,
  "lat": 43.5361061,
  "lon": 10.3131376
},
{
  "type": "node",
  "id": 1599308423,
  "lat": 43.5361116,
  "lon": 10.3131128
},
{
  "type": "node",
  "id": 1599308425,
  "lat": 43.5361147,
  "lon": 10.3128479
},
{
  "type": "node",
  "id": 1599308444,
  "lat": 43.5361212,
  "lon": 10.3128739
},
{
  "type": "node",
  "id": 1599308456,
  "lat": 43.5361281,
  "lon": 10.3131250
},
{
  "type": "node",
  "id": 1599308460,
  "lat": 43.5361325,
  "lon": 10.3131014
},
{
  "type": "node",
  "id": 1599308469,
  "lat": 43.5361364,
  "lon": 10.3128639
},
{
  "type": "node",
  "id": 1599308481,
  "lat": 43.5361489,
  "lon": 10.3131112
},
{
  "type": "node",
  "id": 1599308483,
  "lat": 43.5361516,
  "lon": 10.3129748
},
{
  "type": "node",
  "id": 1599308488,
  "lat": 43.5361536,
  "lon": 10.3130898
},
{
  "type": "node",
  "id": 1599308519,
  "lat": 43.5361675,
  "lon": 10.3129659
},
{
  "type": "node",
  "id": 1599308525,
  "lat": 43.5361714,
  "lon": 10.3130994
},
{
  "type": "node",
  "id": 1599308536,
  "lat": 43.5361778,
  "lon": 10.3130766
},
{
  "type": "node",
  "id": 1600478736,
  "lat": 43.5351327,
  "lon": 10.3132045
},
{
  "type": "node",
  "id": 1600478865,
  "lat": 43.5352300,
  "lon": 10.3131543
},
{
  "type": "node",
  "id": 1600478906,
  "lat": 43.5352560,
  "lon": 10.3132148
},
{
  "type": "node",
  "id": 1600479084,
  "lat": 43.5353387,
  "lon": 10.3132684
},
{
  "type": "node",
  "id": 1600479479,
  "lat": 43.5355187,
  "lon": 10.3128354
},
{
  "type": "node",
  "id": 1679356866,
  "lat": 43.5351469,
  "lon": 10.3132136
},
{
  "type": "node",
  "id": 1679356870,
  "lat": 43.5352118,
  "lon": 10.3132136
},
{
  "type": "node",
  "id": 1679356872,
  "lat": 43.5352184,
  "lon": 10.3120134
},
{
  "type": "node",
  "id": 1679356875,
  "lat": 43.5352842,
  "lon": 10.3130319
},
{
  "type": "node",
  "id": 1679356876,
  "lat": 43.5353082,
  "lon": 10.3131023
},
{
  "type": "node",
  "id": 1679356878,
  "lat": 43.5353663,
  "lon": 10.3132950
},
{
  "type": "node",
  "id": 1679356880,
  "lat": 43.5353989,
  "lon": 10.3132827
},
{
  "type": "node",
  "id": 1679356882,
  "lat": 43.5354129,
  "lon": 10.3132875
},
{
  "type": "node",
  "id": 1679356884,
  "lat": 43.5354245,
  "lon": 10.3133785
},
{
  "type": "node",
  "id": 1679356886,
  "lat": 43.5354300,
  "lon": 10.3133159
},
{
  "type": "node",
  "id": 1679356888,
  "lat": 43.5354346,
  "lon": 10.3133582
},
{
  "type": "node",
  "id": 1679356889,
  "lat": 43.5354688,
  "lon": 10.3134364
},
{
  "type": "node",
  "id": 1679356905,
  "lat": 43.5354894,
  "lon": 10.3134787
},
{
  "type": "node",
  "id": 1679356907,
  "lat": 43.5355220,
  "lon": 10.3135537
},
{
  "type": "node",
  "id": 1679356909,
  "lat": 43.5355367,
  "lon": 10.3128843
},
{
  "type": "node",
  "id": 1679356911,
  "lat": 43.5355464,
  "lon": 10.3136227
},
{
  "type": "node",
  "id": 1679356913,
  "lat": 43.5355604,
  "lon": 10.3136618
},
{
  "type": "node",
  "id": 1679356917,
  "lat": 43.5355868,
  "lon": 10.3136538
},
{
  "type": "node",
  "id": 1679356919,
  "lat": 43.5355981,
  "lon": 10.3137068
},
{
  "type": "node",
  "id": 1679356922,
  "lat": 43.5356066,
  "lon": 10.3136902
},
{
  "type": "node",
  "id": 1679356924,
  "lat": 43.5356066,
  "lon": 10.3137309
},
{
  "type": "node",
  "id": 1679356927,
  "lat": 43.5356136,
  "lon": 10.3118164
},
{
  "type": "node",
  "id": 1679356930,
  "lat": 43.5356198,
  "lon": 10.3137497
},
{
  "type": "node",
  "id": 1679356933,
  "lat": 43.5357033,
  "lon": 10.3138819
},
{
  "type": "node",
  "id": 1679356936,
  "lat": 43.5359389,
  "lon": 10.3128821
},
{
  "type": "node",
  "id": 1679356939,
  "lat": 43.5360306,
  "lon": 10.3138959
},
{
  "type": "node",
  "id": 1679356941,
  "lat": 43.5361334,
  "lon": 10.3138402
},
{
  "type": "node",
  "id": 1679356942,
  "lat": 43.5361750,
  "lon": 10.3127621
},
{
  "type": "node",
  "id": 1679356950,
  "lat": 43.5363369,
  "lon": 10.3137427
},
{
  "type": "node",
  "id": 1679386929,
  "lat": 43.5354208,
  "lon": 10.3133006
},
{
  "type": "node",
  "id": 4535647747,
  "lat": 43.3187182,
  "lon": 10.4985491
},
{
  "type": "node",
  "id": 4535647748,
  "lat": 43.3187675,
  "lon": 10.4984967
},
{
  "type": "node",
  "id": 4535647749,
  "lat": 43.3185815,
  "lon": 10.4981054
},
{
  "type": "node",
  "id": 4535647750,
  "lat": 43.3183573,
  "lon": 10.4976864
},
{
  "type": "node",
  "id": 4535647751,
  "lat": 43.3183349,
  "lon": 10.4977141
},
{
  "type": "node",
  "id": 4535647752,
  "lat": 43.3183775,
  "lon": 10.4978127
},
{
  "type": "node",
  "id": 4535647753,
  "lat": 43.3183371,
  "lon": 10.4978466
},
{
  "type": "node",
  "id": 4535647754,
  "lat": 43.3184134,
  "lon": 10.4980006
},
{
  "type": "node",
  "id": 4535647755,
  "lat": 43.3184380,
  "lon": 10.4979698
},
{
  "type": "node",
  "id": 4535647756,
  "lat": 43.3185299,
  "lon": 10.4981424
},
{
  "type": "node",
  "id": 4535647757,
  "lat": 43.3185097,
  "lon": 10.4981639
},
{
  "type": "node",
  "id": 6698175976,
  "lat": 43.5659302,
  "lon": 10.5923017
},
{
  "type": "node",
  "id": 6698190469,
  "lat": 43.5658747,
  "lon": 10.5920741
},
{
  "type": "node",
  "id": 6698192936,
  "lat": 43.5663178,
  "lon": 10.5920000
},
{
  "type": "node",
  "id": 6698197565,
  "lat": 43.5662349,
  "lon": 10.5921002
},
{
  "type": "node",
  "id": 6698200135,
  "lat": 43.5658820,
  "lon": 10.5922490
},
{
  "type": "node",
  "id": 6698202340,
  "lat": 43.5662270,
  "lon": 10.5920206
},
{
  "type": "node",
  "id": 6698204796,
  "lat": 43.5658576,
  "lon": 10.5921121
},
{
  "type": "node",
  "id": 6698206996,
  "lat": 43.5659966,
  "lon": 10.5920341
},
{
  "type": "node",
  "id": 6698209465,
  "lat": 43.5663685,
  "lon": 10.5921436
},
{
  "type": "node",
  "id": 6698211665,
  "lat": 43.5660210,
  "lon": 10.5921733
},
{
  "type": "node",
  "id": 6698218843,
  "lat": 43.5662402,
  "lon": 10.5919390
},
{
  "type": "node",
  "id": 6699702881,
  "lat": 43.6270938,
  "lon": 10.7151105
},
{
  "type": "node",
  "id": 6699702882,
  "lat": 43.6270575,
  "lon": 10.7150613
},
{
  "type": "node",
  "id": 6699702883,
  "lat": 43.6270227,
  "lon": 10.7151104
},
{
  "type": "node",
  "id": 6699702885,
  "lat": 43.6270788,
  "lon": 10.7151317
},
{
  "type": "node",
  "id": 6699697142,
  "lat": 43.6270463,
  "lon": 10.7153244
},
{
  "type": "node",
  "id": 6699697143,
  "lat": 43.6271322,
  "lon": 10.7152055
},
{
  "type": "node",
  "id": 6699702907,
  "lat": 43.6269752,
  "lon": 10.7151749
},
{
  "type": "node",
  "id": 6699702909,
  "lat": 43.6269385,
  "lon": 10.7152259
},
{
  "type": "node",
  "id": 6699702910,
  "lat": 43.6269758,
  "lon": 10.7152770
},
{
  "type": "node",
  "id": 6699702911,
  "lat": 43.6269938,
  "lon": 10.7152519
},
{
  "type": "node",
  "id": 1840089089,
  "lat": 43.6394681,
  "lon": 10.3947303
},
{
  "type": "node",
  "id": 1840089092,
  "lat": 43.6396252,
  "lon": 10.3946248
},
{
  "type": "node",
  "id": 1840089094,
  "lat": 43.6393139,
  "lon": 10.3942917
},
{
  "type": "node",
  "id": 1840089096,
  "lat": 43.6394708,
  "lon": 10.3941863
},
{
  "type": "node",
  "id": 4070587995,
  "lat": 43.6394370,
  "lon": 10.3942090
},
{
  "type": "node",
  "id": 4070588005,
  "lat": 43.6395543,
  "lon": 10.3944234
},
{
  "type": "node",
  "id": 2408295093,
  "lat": 43.7115933,
  "lon": 10.3984243
},
{
  "type": "node",
  "id": 2408295124,
  "lat": 43.7116555,
  "lon": 10.3982049
},
{
  "type": "node",
  "id": 2408295143,
  "lat": 43.7114734,
  "lon": 10.3985054
},
{
  "type": "node",
  "id": 2408295173,
  "lat": 43.7115251,
  "lon": 10.3981377
},
{
  "type": "node",
  "id": 2408295187,
  "lat": 43.7115573,
  "lon": 10.3985510
},
{
  "type": "node",
  "id": 2408295198,
  "lat": 43.7114794,
  "lon": 10.3983077
},
{
  "type": "node",
  "id": 2408295216,
  "lat": 43.7115228,
  "lon": 10.3983313
},
{
  "type": "node",
  "id": 1216772579,
  "lat": 43.7222083,
  "lon": 10.3957096
},
{
  "type": "node",
  "id": 1216772602,
  "lat": 43.7222481,
  "lon": 10.3953366
},
{
  "type": "node",
  "id": 1216772668,
  "lat": 43.7222342,
  "lon": 10.3954718
},
{
  "type": "node",
  "id": 1305606006,
  "lat": 43.7223395,
  "lon": 10.3945147
},
{
  "type": "node",
  "id": 2443312842,
  "lat": 43.7221961,
  "lon": 10.3958362
},
{
  "type": "node",
  "id": 1216772582,
  "lat": 43.7225013,
  "lon": 10.3944761
},
{
  "type": "node",
  "id": 1216772620,
  "lat": 43.7225839,
  "lon": 10.3942186
},
{
  "type": "node",
  "id": 1216772644,
  "lat": 43.7223888,
  "lon": 10.3958747
},
{
  "type": "node",
  "id": 1216772672,
  "lat": 43.7224450,
  "lon": 10.3941899
},
{
  "type": "node",
  "id": 1305606037,
  "lat": 43.7224941,
  "lon": 10.3945424
},
{
  "type": "node",
  "id": 1754167960,
  "lat": 43.7224819,
  "lon": 10.3974256
},
{
  "type": "node",
  "id": 2443312840,
  "lat": 43.7224160,
  "lon": 10.3944608
},
{
  "type": "node",
  "id": 2443312841,
  "lat": 43.7224109,
  "lon": 10.3945267
},
{
  "type": "node",
  "id": 3069298610,
  "lat": 43.7228354,
  "lon": 10.3972231
},
{
  "type": "node",
  "id": 4963300926,
  "lat": 43.7228435,
  "lon": 10.3972820
},
{
  "type": "node",
  "id": 4963300928,
  "lat": 43.7226372,
  "lon": 10.3967635
},
{
  "type": "node",
  "id": 5279614833,
  "lat": 43.7224901,
  "lon": 10.3967588
},
{
  "type": "node",
  "id": 5279614834,
  "lat": 43.7226262,
  "lon": 10.3972491
},
{
  "type": "node",
  "id": 5279614835,
  "lat": 43.7228023,
  "lon": 10.3972702
},
{
  "type": "node",
  "id": 5279614836,
  "lat": 43.7228045,
  "lon": 10.3972209
},
{
  "type": "node",
  "id": 5279614837,
  "lat": 43.7228351,
  "lon": 10.3972809
},
{
  "type": "node",
  "id": 5279614838,
  "lat": 43.7229234,
  "lon": 10.3972917
},
{
  "type": "node",
  "id": 5279614839,
  "lat": 43.7229201,
  "lon": 10.3973364
},
{
  "type": "node",
  "id": 5279614840,
  "lat": 43.7229379,
  "lon": 10.3973379
},
{
  "type": "node",
  "id": 5279614841,
  "lat": 43.7229340,
  "lon": 10.3974381
},
{
  "type": "node",
  "id": 5279614842,
  "lat": 43.7229112,
  "lon": 10.3974365
},
{
  "type": "node",
  "id": 5279614843,
  "lat": 43.7229075,
  "lon": 10.3974911
},
{
  "type": "node",
  "id": 5279614844,
  "lat": 43.7228293,
  "lon": 10.3974817
},
{
  "type": "node",
  "id": 5279614850,
  "lat": 43.7225523,
  "lon": 10.3967608
},
{
  "type": "node",
  "id": 5279614851,
  "lat": 43.7225695,
  "lon": 10.3974397
},
{
  "type": "node",
  "id": 5279614853,
  "lat": 43.7224838,
  "lon": 10.3972685
},
{
  "type": "node",
  "id": 5279614854,
  "lat": 43.7224891,
  "lon": 10.3968372
},
{
  "type": "node",
  "id": 5279614857,
  "lat": 43.7224876,
  "lon": 10.3969609
},
{
  "type": "node",
  "id": 6583744445,
  "lat": 43.7224919,
  "lon": 10.3949992
},
{
  "type": "node",
  "id": 1647184075,
  "lat": 43.7212598,
  "lon": 10.5230348
},
{
  "type": "node",
  "id": 1647184076,
  "lat": 43.7212725,
  "lon": 10.5234790
},
{
  "type": "node",
  "id": 1647184078,
  "lat": 43.7212805,
  "lon": 10.5233207
},
{
  "type": "node",
  "id": 1647184079,
  "lat": 43.7212853,
  "lon": 10.5237011
},
{
  "type": "node",
  "id": 1647184080,
  "lat": 43.7212964,
  "lon": 10.5234746
},
{
  "type": "node",
  "id": 1647184081,
  "lat": 43.7213043,
  "lon": 10.5239342
},
{
  "type": "node",
  "id": 1647184082,
  "lat": 43.7213059,
  "lon": 10.5237473
},
{
  "type": "node",
  "id": 1647184083,
  "lat": 43.7213107,
  "lon": 10.5236945
},
{
  "type": "node",
  "id": 1647184085,
  "lat": 43.7213218,
  "lon": 10.5239056
},
{
  "type": "node",
  "id": 1647184086,
  "lat": 43.7213552,
  "lon": 10.5237407
},
{
  "type": "node",
  "id": 1647184087,
  "lat": 43.7213552,
  "lon": 10.5237671
},
{
  "type": "node",
  "id": 1647184088,
  "lat": 43.7213663,
  "lon": 10.5241277
},
{
  "type": "node",
  "id": 1647184089,
  "lat": 43.7213742,
  "lon": 10.5242310
},
{
  "type": "node",
  "id": 1647184090,
  "lat": 43.7213917,
  "lon": 10.5234768
},
{
  "type": "node",
  "id": 1647184091,
  "lat": 43.7213917,
  "lon": 10.5239276
},
{
  "type": "node",
  "id": 1647184092,
  "lat": 43.7214013,
  "lon": 10.5236439
},
{
  "type": "node",
  "id": 1647184093,
  "lat": 43.7214187,
  "lon": 10.5239056
},
{
  "type": "node",
  "id": 1647184095,
  "lat": 43.7214187,
  "lon": 10.5241211
},
{
  "type": "node",
  "id": 1647184097,
  "lat": 43.7214235,
  "lon": 10.5239518
},
{
  "type": "node",
  "id": 1647184098,
  "lat": 43.7214315,
  "lon": 10.5240705
},
{
  "type": "node",
  "id": 1647184099,
  "lat": 43.7214330,
  "lon": 10.5242179
},
{
  "type": "node",
  "id": 1647184100,
  "lat": 43.7214426,
  "lon": 10.5241959
},
{
  "type": "node",
  "id": 1647184101,
  "lat": 43.7214553,
  "lon": 10.5242508
},
{
  "type": "node",
  "id": 1647184103,
  "lat": 43.7214664,
  "lon": 10.5243916
},
{
  "type": "node",
  "id": 1647184105,
  "lat": 43.7214998,
  "lon": 10.5234724
},
{
  "type": "node",
  "id": 1647184107,
  "lat": 43.7215077,
  "lon": 10.5236307
},
{
  "type": "node",
  "id": 1647184110,
  "lat": 43.7215157,
  "lon": 10.5250578
},
{
  "type": "node",
  "id": 1647184112,
  "lat": 43.7215205,
  "lon": 10.5237341
},
{
  "type": "node",
  "id": 1647184115,
  "lat": 43.7215332,
  "lon": 10.5239386
},
{
  "type": "node",
  "id": 1647184119,
  "lat": 43.7215491,
  "lon": 10.5240551
},
{
  "type": "node",
  "id": 1647184121,
  "lat": 43.7215538,
  "lon": 10.5241101
},
{
  "type": "node",
  "id": 1647184123,
  "lat": 43.7215649,
  "lon": 10.5242420
},
{
  "type": "node",
  "id": 1647184126,
  "lat": 43.7215681,
  "lon": 10.5243344
},
{
  "type": "node",
  "id": 1647184128,
  "lat": 43.7216079,
  "lon": 10.5241167
},
{
  "type": "node",
  "id": 1647184130,
  "lat": 43.7216110,
  "lon": 10.5241761
},
{
  "type": "node",
  "id": 1647184132,
  "lat": 43.7216206,
  "lon": 10.5243872
},
{
  "type": "node",
  "id": 1647184135,
  "lat": 43.7216222,
  "lon": 10.5243344
},
{
  "type": "node",
  "id": 1647184137,
  "lat": 43.7216565,
  "lon": 10.5237975
},
{
  "type": "node",
  "id": 1647184139,
  "lat": 43.7217080,
  "lon": 10.5246818
},
{
  "type": "node",
  "id": 1647184141,
  "lat": 43.7217318,
  "lon": 10.5234504
},
{
  "type": "node",
  "id": 1647184143,
  "lat": 43.7217408,
  "lon": 10.5236043
},
{
  "type": "node",
  "id": 1647184145,
  "lat": 43.7218211,
  "lon": 10.5227343
},
{
  "type": "node",
  "id": 1647184147,
  "lat": 43.7218319,
  "lon": 10.5234438
},
{
  "type": "node",
  "id": 1647184149,
  "lat": 43.7218367,
  "lon": 10.5235978
},
{
  "type": "node",
  "id": 1647184151,
  "lat": 43.7219190,
  "lon": 10.5229034
},
{
  "type": "node",
  "id": 1647184153,
  "lat": 43.7220274,
  "lon": 10.5234108
},
{
  "type": "node",
  "id": 1647184155,
  "lat": 43.7220369,
  "lon": 10.5235890
},
{
  "type": "node",
  "id": 1647184156,
  "lat": 43.7220894,
  "lon": 10.5237539
},
{
  "type": "node",
  "id": 1647184157,
  "lat": 43.7221196,
  "lon": 10.5234064
},
{
  "type": "node",
  "id": 1647184158,
  "lat": 43.7221227,
  "lon": 10.5235824
},
{
  "type": "node",
  "id": 1647184160,
  "lat": 43.7221291,
  "lon": 10.5246413
},
{
  "type": "node",
  "id": 1647184161,
  "lat": 43.7222102,
  "lon": 10.5234218
},
{
  "type": "node",
  "id": 1647184162,
  "lat": 43.7222149,
  "lon": 10.5235626
},
{
  "type": "node",
  "id": 1647184163,
  "lat": 43.7222308,
  "lon": 10.5234196
},
{
  "type": "node",
  "id": 1647184164,
  "lat": 43.7222324,
  "lon": 10.5233955
},
{
  "type": "node",
  "id": 1647184165,
  "lat": 43.7222753,
  "lon": 10.5226478
},
{
  "type": "node",
  "id": 1647184166,
  "lat": 43.7222753,
  "lon": 10.5227094
},
{
  "type": "node",
  "id": 1647184167,
  "lat": 43.7223309,
  "lon": 10.5236835
},
{
  "type": "node",
  "id": 1648548581,
  "lat": 43.7217244,
  "lon": 10.5250225
},
{
  "type": "node",
  "id": 1648548584,
  "lat": 43.7221876,
  "lon": 10.5240704
},
{
  "type": "node",
  "id": 1648548586,
  "lat": 43.7222594,
  "lon": 10.5245988
},
{
  "type": "node",
  "id": 1648548587,
  "lat": 43.7222225,
  "lon": 10.5238558
},
{
  "type": "node",
  "id": 1648548589,
  "lat": 43.7219880,
  "lon": 10.5249984
},
{
  "type": "node",
  "id": 1648548592,
  "lat": 43.7215732,
  "lon": 10.5244432
},
{
  "type": "node",
  "id": 1648548600,
  "lat": 43.7216274,
  "lon": 10.5245371
},
{
  "type": "node",
  "id": 1648548602,
  "lat": 43.7216429,
  "lon": 10.5249287
},
{
  "type": "node",
  "id": 1648548605,
  "lat": 43.7221760,
  "lon": 10.5238612
},
{
  "type": "node",
  "id": 1648548607,
  "lat": 43.7223466,
  "lon": 10.5245156
},
{
  "type": "node",
  "id": 1648548609,
  "lat": 43.7221917,
  "lon": 10.5242614
},
{
  "type": "node",
  "id": 1648548614,
  "lat": 43.7222535,
  "lon": 10.5243815
},
{
  "type": "node",
  "id": 1648548615,
  "lat": 43.7214898,
  "lon": 10.5245934
},
{
  "type": "node",
  "id": 1648548616,
  "lat": 43.7221993,
  "lon": 10.5248911
},
{
  "type": "node",
  "id": 1648548617,
  "lat": 43.7222425,
  "lon": 10.5241783
},
{
  "type": "node",
  "id": 1648548618,
  "lat": 43.7215809,
  "lon": 10.5246470
},
{
  "type": "node",
  "id": 1648548620,
  "lat": 43.7216371,
  "lon": 10.5247865
},
{
  "type": "node",
  "id": 1648548622,
  "lat": 43.7223427,
  "lon": 10.5243761
},
{
  "type": "node",
  "id": 1648548624,
  "lat": 43.7222455,
  "lon": 10.5242575
},
{
  "type": "node",
  "id": 1648548626,
  "lat": 43.7220597,
  "lon": 10.5248509
},
{
  "type": "node",
  "id": 1648548628,
  "lat": 43.7222206,
  "lon": 10.5237592
},
{
  "type": "node",
  "id": 1648548630,
  "lat": 43.7215848,
  "lon": 10.5247382
},
{
  "type": "node",
  "id": 1648548639,
  "lat": 43.7214917,
  "lon": 10.5246578
},
{
  "type": "node",
  "id": 1648548640,
  "lat": 43.7222109,
  "lon": 10.5246900
},
{
  "type": "node",
  "id": 1648548641,
  "lat": 43.7220267,
  "lon": 10.5249823
},
{
  "type": "node",
  "id": 1648548642,
  "lat": 43.7219046,
  "lon": 10.5247865
},
{
  "type": "node",
  "id": 1648548643,
  "lat": 43.7215925,
  "lon": 10.5248670
},
{
  "type": "node",
  "id": 1648548644,
  "lat": 43.7222031,
  "lon": 10.5244620
},
{
  "type": "node",
  "id": 1648548646,
  "lat": 43.7221275,
  "lon": 10.5248482
},
{
  "type": "node",
  "id": 1648548647,
  "lat": 43.7222070,
  "lon": 10.5245263
},
{
  "type": "node",
  "id": 1648548648,
  "lat": 43.7216352,
  "lon": 10.5247382
},
{
  "type": "node",
  "id": 1648548658,
  "lat": 43.7222613,
  "lon": 10.5246792
},
{
  "type": "node",
  "id": 1648548660,
  "lat": 43.7222691,
  "lon": 10.5248831
},
{
  "type": "node",
  "id": 1648548662,
  "lat": 43.7223291,
  "lon": 10.5239631
},
{
  "type": "node",
  "id": 1648548665,
  "lat": 43.7221938,
  "lon": 10.5243166
},
{
  "type": "node",
  "id": 1648548666,
  "lat": 43.7221896,
  "lon": 10.5241186
},
{
  "type": "node",
  "id": 1648548667,
  "lat": 43.7218213,
  "lon": 10.5248723
},
{
  "type": "node",
  "id": 1648548668,
  "lat": 43.7220519,
  "lon": 10.5247811
},
{
  "type": "node",
  "id": 1648548669,
  "lat": 43.7217476,
  "lon": 10.5247964
},
{
  "type": "node",
  "id": 1648548670,
  "lat": 43.7217108,
  "lon": 10.5248026
},
{
  "type": "node",
  "id": 1648548671,
  "lat": 43.7216313,
  "lon": 10.5245800
},
{
  "type": "node",
  "id": 1648548676,
  "lat": 43.7215324,
  "lon": 10.5250386
},
{
  "type": "node",
  "id": 1648548678,
  "lat": 43.7223405,
  "lon": 10.5243060
},
{
  "type": "node",
  "id": 1648548680,
  "lat": 43.7223350,
  "lon": 10.5241026
},
{
  "type": "node",
  "id": 1648548682,
  "lat": 43.7223233,
  "lon": 10.5239067
},
{
  "type": "node",
  "id": 1648548684,
  "lat": 43.7215150,
  "lon": 10.5248777
},
{
  "type": "node",
  "id": 1648548686,
  "lat": 43.7219744,
  "lon": 10.5248589
},
{
  "type": "node",
  "id": 1648548688,
  "lat": 43.7215034,
  "lon": 10.5247972
},
{
  "type": "node",
  "id": 1648548690,
  "lat": 43.7216488,
  "lon": 10.5250279
},
{
  "type": "node",
  "id": 1648548692,
  "lat": 43.7214724,
  "lon": 10.5244539
},
{
  "type": "node",
  "id": 1648548694,
  "lat": 43.7223354,
  "lon": 10.5241716
},
{
  "type": "node",
  "id": 1648548695,
  "lat": 43.7222109,
  "lon": 10.5247356
},
{
  "type": "node",
  "id": 1648548698,
  "lat": 43.7222303,
  "lon": 10.5240623
},
{
  "type": "node",
  "id": 1648548700,
  "lat": 43.7223543,
  "lon": 10.5245853
},
{
  "type": "node",
  "id": 1648548702,
  "lat": 43.7218717,
  "lon": 10.5250065
},
{
  "type": "node",
  "id": 1648548704,
  "lat": 43.7217554,
  "lon": 10.5248804
},
{
  "type": "node",
  "id": 1648548706,
  "lat": 43.7222535,
  "lon": 10.5244620
},
{
  "type": "node",
  "id": 1648548708,
  "lat": 43.7215751,
  "lon": 10.5245317
},
{
  "type": "node",
  "id": 1648548710,
  "lat": 43.7221314,
  "lon": 10.5249796
},
{
  "type": "node",
  "id": 1648548712,
  "lat": 43.7218252,
  "lon": 10.5250118
},
{
  "type": "node",
  "id": 1648548714,
  "lat": 43.7215964,
  "lon": 10.5249260
},
{
  "type": "node",
  "id": 1648548716,
  "lat": 43.7218581,
  "lon": 10.5247892
},
{
  "type": "node",
  "id": 1648548719,
  "lat": 43.7222671,
  "lon": 10.5247946
},
{
  "type": "node",
  "id": 1648548720,
  "lat": 43.7220151,
  "lon": 10.5247865
},
{
  "type": "node",
  "id": 1648548721,
  "lat": 43.7222303,
  "lon": 10.5239711
},
{
  "type": "node",
  "id": 1648548722,
  "lat": 43.7219104,
  "lon": 10.5248670
},
{
  "type": "node",
  "id": 1648548724,
  "lat": 43.7223175,
  "lon": 10.5237539
},
{
  "type": "node",
  "id": 1648548726,
  "lat": 43.7221760,
  "lon": 10.5239175
},
{
  "type": "node",
  "id": 1648548728,
  "lat": 43.7222012,
  "lon": 10.5249850
},
{
  "type": "node",
  "id": 1648568412,
  "lat": 43.7212333,
  "lon": 10.5229331
},
{
  "type": "node",
  "id": 5545744575,
  "lat": 43.7218804,
  "lon": 10.5237741
},
{
  "type": "node",
  "id": 5545744576,
  "lat": 43.7219240,
  "lon": 10.5246637
},
{
  "type": "node",
  "id": 5545744577,
  "lat": 43.7221090,
  "lon": 10.5241938
},
{
  "type": "node",
  "id": 5545744578,
  "lat": 43.7216819,
  "lon": 10.5242394
},
{
  "type": "node",
  "id": 5659163535,
  "lat": 43.7212516,
  "lon": 10.5229285
},
{
  "type": "node",
  "id": 5659163536,
  "lat": 43.7212458,
  "lon": 10.5228676
},
{
  "type": "node",
  "id": 5904165509,
  "lat": 43.7216078,
  "lon": 10.5232958
},
{
  "type": "node",
  "id": 5904165525,
  "lat": 43.7218660,
  "lon": 10.5229028
},
{
  "type": "node",
  "id": 5904165529,
  "lat": 43.7221630,
  "lon": 10.5226694
},
{
  "type": "node",
  "id": 5904165530,
  "lat": 43.7218697,
  "lon": 10.5227220
},
{
  "type": "node",
  "id": 5904165533,
  "lat": 43.7223392,
  "lon": 10.5236829
},
{
  "type": "node",
  "id": 5904165534,
  "lat": 43.7223348,
  "lon": 10.5235553
},
{
  "type": "node",
  "id": 5904165535,
  "lat": 43.7223367,
  "lon": 10.5233898
},
{
  "type": "node",
  "id": 5904165536,
  "lat": 43.7223543,
  "lon": 10.5235541
},
{
  "type": "node",
  "id": 5904165537,
  "lat": 43.7222235,
  "lon": 10.5234204
},
{
  "type": "node",
  "id": 5904165538,
  "lat": 43.7222186,
  "lon": 10.5232492
},
{
  "type": "node",
  "id": 5904165539,
  "lat": 43.7222423,
  "lon": 10.5233950
},
{
  "type": "node",
  "id": 1647184168,
  "lat": 43.7223643,
  "lon": 10.5226984
},
{
  "type": "node",
  "id": 1647184169,
  "lat": 43.7223707,
  "lon": 10.5228105
},
{
  "type": "node",
  "id": 1647184170,
  "lat": 43.7223834,
  "lon": 10.5249875
},
{
  "type": "node",
  "id": 1647184171,
  "lat": 43.7225121,
  "lon": 10.5233801
},
{
  "type": "node",
  "id": 1647184172,
  "lat": 43.7225090,
  "lon": 10.5229388
},
{
  "type": "node",
  "id": 1647184173,
  "lat": 43.7225169,
  "lon": 10.5234174
},
{
  "type": "node",
  "id": 1647184174,
  "lat": 43.7225216,
  "lon": 10.5232261
},
{
  "type": "node",
  "id": 1647184176,
  "lat": 43.7225550,
  "lon": 10.5234152
},
{
  "type": "node",
  "id": 1647184177,
  "lat": 43.7225741,
  "lon": 10.5235406
},
{
  "type": "node",
  "id": 1647184178,
  "lat": 43.7225900,
  "lon": 10.5236659
},
{
  "type": "node",
  "id": 1647184179,
  "lat": 43.7226106,
  "lon": 10.5228105
},
{
  "type": "node",
  "id": 1647184180,
  "lat": 43.7226360,
  "lon": 10.5232613
},
{
  "type": "node",
  "id": 1647184181,
  "lat": 43.7227362,
  "lon": 10.5248160
},
{
  "type": "node",
  "id": 1647184182,
  "lat": 43.7228283,
  "lon": 10.5227863
},
{
  "type": "node",
  "id": 1647184183,
  "lat": 43.7228315,
  "lon": 10.5247940
},
{
  "type": "node",
  "id": 1647184184,
  "lat": 43.7228426,
  "lon": 10.5232398
},
{
  "type": "node",
  "id": 1648548598,
  "lat": 43.7223699,
  "lon": 10.5249716
},
{
  "type": "node",
  "id": 1648548645,
  "lat": 43.7223582,
  "lon": 10.5247248
},
{
  "type": "node",
  "id": 1648548730,
  "lat": 43.7223602,
  "lon": 10.5247892
},
{
  "type": "node",
  "id": 4230574150,
  "lat": 43.6844915,
  "lon": 10.6140533
},
{
  "type": "node",
  "id": 4230574156,
  "lat": 43.6844864,
  "lon": 10.6138057
},
{
  "type": "node",
  "id": 4230574158,
  "lat": 43.6845194,
  "lon": 10.6139701
},
{
  "type": "node",
  "id": 4230574162,
  "lat": 43.6845386,
  "lon": 10.6139824
},
{
  "type": "node",
  "id": 4230574163,
  "lat": 43.6845626,
  "lon": 10.6138545
},
{
  "type": "node",
  "id": 4230574165,
  "lat": 43.6845573,
  "lon": 10.6139263
},
{
  "type": "node",
  "id": 4230574166,
  "lat": 43.6845419,
  "lon": 10.6139164
},
{
  "type": "node",
  "id": 4230584403,
  "lat": 43.6844257,
  "lon": 10.6140059
},
{
  "type": "node",
  "id": 4230584406,
  "lat": 43.6844670,
  "lon": 10.6140669
},
{
  "type": "node",
  "id": 4230584408,
  "lat": 43.6844365,
  "lon": 10.6140470
},
{
  "type": "node",
  "id": 4230584411,
  "lat": 43.6844279,
  "lon": 10.6138460
},
{
  "type": "node",
  "id": 4230584415,
  "lat": 43.6844649,
  "lon": 10.6138697
},
{
  "type": "node",
  "id": 4230584417,
  "lat": 43.6844063,
  "lon": 10.6139106
},
{
  "type": "node",
  "id": 4230584418,
  "lat": 43.6843831,
  "lon": 10.6139778
},
{
  "type": "node",
  "id": 4230584421,
  "lat": 43.6844832,
  "lon": 10.6140775
},
{
  "type": "node",
  "id": 4230584425,
  "lat": 43.6844162,
  "lon": 10.6140335
},
{
  "type": "node",
  "id": 4230585798,
  "lat": 43.6844890,
  "lon": 10.6140607
},
{
  "type": "node",
  "id": 4230586296,
  "lat": 43.6845094,
  "lon": 10.6139998
},
{
  "type": "way",
  "id": 146665798,
  "nodes": [
    1599308154,
    1599308161,
    1599308163,
    1599308166,
    1599308228,
    1599308205,
    1599308197,
    1599308194,
    1599308192,
    1599308191,
    1599308154
  ]
},
{
  "type": "way",
  "id": 146665920,
  "nodes": [
    1599308404,
    1599308395,
    1599308365,
    1599308361,
    1599308323,
    1599308312,
    1599308291,
    1599308274,
    1599308265,
    1599308261,
    1599308256,
    1599308241,
    1599308239,
    1599308238,
    1599308267,
    1599308296,
    1599308301,
    1599308358,
    1599308363,
    1599308372,
    1599308390,
    1599308421,
    1599308423,
    1599308456,
    1599308460,
    1599308481,
    1599308488,
    1599308525,
    1599308536,
    1599308483,
    1599308519,
    1599308469,
    1599308444,
    1599308425,
    1599308404
  ]
},
{
  "type": "way",
  "id": 155541819,
  "nodes": [
    1600479479,
    1679356909,
    1679356875,
    1679356876,
    1600478865,
    1600478736,
    1679356866,
    1679356870,
    1600478906,
    1600479084,
    1679356878,
    1679356880,
    1679356882,
    1679386929,
    1679356886,
    1679356888,
    1679356884,
    1679356889,
    1679356905,
    1679356907,
    1679356911,
    1679356913,
    1679356917,
    1679356922,
    1679356919,
    1679356924,
    1679356930,
    1679356933,
    1599308189,
    1599308199,
    1599308234,
    1679356939,
    1679356941,
    1679356950,
    1679356942,
    1679356936
  ]
},
{
  "type": "way",
  "id": 607065350,
  "nodes": [
    1679356936,
    1091480566,
    1679356927,
    1679356872,
    1600479479
  ]
},
{
  "type": "way",
  "id": 151878516,
  "nodes": [
    1647184147,
    1647184141,
    1647184143,
    1647184149,
    1647184147
  ]
},
{
  "type": "way",
  "id": 151878517,
  "nodes": [
    1647184156,
    5545744575,
    1647184137,
    5545744578,
    1647184139,
    5545744576,
    1647184160,
    5545744577,
    1647184156
  ]
},
{
  "type": "way",
  "id": 151878518,
  "nodes": [
    1647184157,
    1647184153,
    1647184155,
    1647184158,
    1647184157
  ]
},
{
  "type": "way",
  "id": 151878519,
  "nodes": [
    1647184105,
    1647184090,
    1647184092,
    1647184107,
    1647184105
  ]
},
{
  "type": "way",
  "id": 151878522,
  "nodes": [
    1647184123,
    1647184126,
    1647184135,
    1647184132,
    1647184103,
    1647184101,
    1647184123
  ]
},
{
  "type": "way",
  "id": 151878523,
  "nodes": [
    1647184100,
    1647184098,
    1647184119,
    1647184121,
    1647184128,
    1647184130,
    1647184100
  ]
},
{
  "type": "way",
  "id": 151878525,
  "nodes": [
    1647184115,
    1647184097,
    1647184093,
    1647184085,
    1647184082,
    1647184086,
    1647184087,
    1647184112,
    1647184115
  ]
},
{
  "type": "way",
  "id": 152022690,
  "nodes": [
    1648548662,
    1648548680,
    1648548666,
    1648548584,
    1648548698,
    1648548721,
    1648548662
  ]
},
{
  "type": "way",
  "id": 152022691,
  "nodes": [
    1648548724,
    1648548628,
    1648548587,
    1648548605,
    1648548726,
    1648548682,
    1648548724
  ]
},
{
  "type": "way",
  "id": 152022692,
  "nodes": [
    1648548694,
    1648548678,
    1648548665,
    1648548609,
    1648548624,
    1648548617,
    1648548694
  ]
},
{
  "type": "way",
  "id": 152022693,
  "nodes": [
    1648548639,
    1648548688,
    1648548620,
    1648548648,
    1648548630,
    1648548618,
    1648548639
  ]
},
{
  "type": "way",
  "id": 152022695,
  "nodes": [
    1648548622,
    1648548607,
    1648548647,
    1648548644,
    1648548706,
    1648548614,
    1648548622
  ]
},
{
  "type": "way",
  "id": 152022696,
  "nodes": [
    1648548686,
    1648548722,
    1648548642,
    1648548716,
    1648548702,
    1648548589,
    1648548686
  ]
},
{
  "type": "way",
  "id": 152022697,
  "nodes": [
    1648548592,
    1648548708,
    1648548600,
    1648548671,
    1648548615,
    1648548692,
    1648548592
  ]
},
{
  "type": "way",
  "id": 152022699,
  "nodes": [
    1648548643,
    1648548684,
    1648548676,
    1648548690,
    1648548602,
    1648548714,
    1648548643
  ]
},
{
  "type": "way",
  "id": 152022700,
  "nodes": [
    1648548668,
    1648548720,
    1648548641,
    1648548710,
    1648548646,
    1648548626,
    1648548668
  ]
},
{
  "type": "way",
  "id": 152022701,
  "nodes": [
    1648548669,
    1648548704,
    1648548667,
    1648548712,
    1648548581,
    1648548670,
    1648548669
  ]
},
{
  "type": "way",
  "id": 625298981,
  "nodes": [
    5904165530,
    1647184145,
    5659163536,
    5659163535,
    1648568412
  ]
},
{
  "type": "way",
  "id": 625298987,
  "nodes": [
    5904165534,
    1647184162,
    1647184161,
    5904165537
  ]
},
{
  "type": "way",
  "id": 151878520,
  "nodes": [
    1647184174,
    1647184172,
    1647184151,
    5904165525,
    1647184075,
    1647184078,
    5904165509,
    5904165538,
    1647184174
  ]
},
{
  "type": "way",
  "id": 151878524,
  "nodes": [
    5904165537,
    1647184163,
    1647184164,
    5904165539,
    5904165535,
    1647184171,
    1647184173,
    1647184176,
    1647184177,
    5904165536,
    5904165534
  ]
},
{
  "type": "way",
  "id": 152022694,
  "nodes": [
    1648548700,
    1648548645,
    1648548695,
    1648548640,
    1648548658,
    1648548586,
    1648548700
  ]
},
{
  "type": "way",
  "id": 152022698,
  "nodes": [
    1648548730,
    1648548719,
    1648548660,
    1648548616,
    1648548728,
    1648548598,
    1648548730
  ]
},
{
  "type": "way",
  "id": 152025203,
  "nodes": [
    1648568412,
    1647184076,
    1647184080,
    1647184083,
    1647184079,
    1647184081,
    1647184091,
    1647184095,
    1647184088,
    1647184089,
    1647184099,
    1647184110,
    1647184170,
    1647184167,
    5904165533,
    1647184178,
    1647184181,
    1647184183,
    1647184180,
    1647184184,
    1647184182
  ]
},
{
  "type": "way",
  "id": 152025206,
  "nodes": [
    1647184168,
    1647184166,
    1647184165,
    5904165529,
    5904165530
  ]
},
{
  "type": "way",
  "id": 151878515,
  "nodes": [
    1647184182,
    1647184179,
    1647184169,
    1647184168
  ]
}

  ]
}
