{
  "version": 0.6,
  "generator": "Overpass API 0.7.55.1011 6c2efc30",
  "osm3s": {
    "timestamp_osm_base": "2020-02-14T15:14:02Z",
    "copyright": "The data included in this document is from www.openstreetmap.org. The data is made available under ODbL."
  },
  "elements": [

{
  "type": "node",
  "id": 246443715,
  "lat": 45.0595602,
  "lon": 7.6970035,
  "tags": {
    "addr:city": "Torino",
    "addr:housenumber": "7",
    "addr:postcode": "10131",
    "addr:street": "Piazzale Monte dei Cappuccini",
    "description": "Per aperture e chiusure straordinarie e durante le festività contattare il museo.",
    "email": "posta@museomontagna.org",
    "name": "Museo Nazionale della Montagna Duca degli Abruzzi",
    "opening_hours": "Tu-Su 10:00-18:00; Mo off",
    "phone": "+39 011 6604104",
    "tourism": "museum",
    "website": "http://www.museomontagna.org/it/home/index.php",
    "wheelchair": "limited",
    "wikidata": "Q1707242",
    "wikipedia": "it:Museo nazionale della montagna"
  }
},
{
  "type": "node",
  "id": 246516587,
  "lat": 45.0684350,
  "lon": 7.6843506,
  "tags": {
    "addr:city": "Torino",
    "addr:housenumber": "6",
    "addr:postcode": "10123",
    "addr:street": "Via Accademia delle Scienze",
    "email": "info@museoegizio.it",
    "name": "Museo Egizio",
    "name:en": "Egyptian Museum",
    "name:ru": "Египетский музей",
    "name:zh": "埃及博物馆",
    "opening_hours": "Tu-Su 09:00-18:30; Dec 25 off; Mo 09:00-14:00",
    "phone": "+39 011 4406903",
    "tourism": "museum",
    "website": "https://museoegizio.it/",
    "wheelchair": "yes",
    "wikidata": "Q19877",
    "wikipedia": "it:Museo egizio (Torino)"
  }
},
{
  "type": "node",
  "id": 246516619,
  "lat": 45.0741490,
  "lon": 7.6860379,
  "tags": {
    "addr:city": "Torino",
    "addr:housename": "Manica Nuova di Palazzo Reale",
    "addr:housenumber": "86",
    "addr:postcode": "10122",
    "addr:street": "Via Venti Settembre",
    "email": "mr-to@beniculturali.it",
    "name": "Galleria Sabauda",
    "opening_hours": "Tu-Su 10:00-18:00; Mo off",
    "phone": "+39 011 5211106",
    "tourism": "museum",
    "website": "http://www.galleriasabauda.beniculturali.it/",
    "wikidata": "Q2245152",
    "wikipedia": "it:Galleria Sabauda"
  }
},
{
  "type": "node",
  "id": 246643344,
  "lat": 45.0688417,
  "lon": 7.6858864,
  "tags": {
    "addr:city": "Torino",
    "addr:housenumber": "5",
    "addr:postcode": "10123",
    "addr:street": "Via Accademia delle Scienze",
    "email": "info@museorisorgimentotorino.it",
    "name": "Museo nazionale del Risorgimento italiano",
    "opening_hours": "Tu-Su 10:00-17:00; Mo off",
    "phone": "+39 011 5621147",
    "tourism": "museum",
    "website": "http://www.museorisorgimentotorino.it/",
    "wheelchair": "yes",
    "wikidata": "Q1062079",
    "wikipedia": "it:Museo nazionale del Risorgimento italiano"
  }
},
{
  "type": "node",
  "id": 248771289,
  "lat": 45.0721817,
  "lon": 7.6865120,
  "tags": {
    "addr:city": "Torino",
    "addr:housenumber": "191",
    "addr:postcode": "10122",
    "addr:street": "Piazza Castello",
    "email": "mr-to.info@beniculturali.it",
    "level": "0",
    "name": "Armeria Reale",
    "opening_hours": "Tu-Su 08:30-18:00; Mo off",
    "phone": "+39 011 19560449",
    "tourism": "museum",
    "website": "https://www.museireali.beniculturali.it",
    "wheelchair": "yes",
    "wikidata": "Q3623078",
    "wikipedia": "it:Armeria Reale"
  }
},
{
  "type": "node",
  "id": 550537282,
  "lat": 45.0680648,
  "lon": 7.9327998,
  "tags": {
    "name": "Museo del Gesso",
    "tourism": "museum"
  }
},
{
  "type": "node",
  "id": 553002525,
  "lat": 45.0879019,
  "lon": 7.3854682,
  "tags": {
    "addr:city": "Avigliana",
    "addr:country": "IT",
    "addr:housenumber": "38",
    "addr:postcode": "10051",
    "addr:street": "Via Galiniè",
    "email": "info@dinamitificionobel.it",
    "fax": "+39 011 5500399",
    "name": "Museo del Dinamitificio Nobel",
    "phone": "+39 011 9327447",
    "tourism": "museum",
    "website": "http://www.dinamitificionobel.it"
  }
},
{
  "type": "node",
  "id": 1222968263,
  "lat": 45.0457983,
  "lon": 7.6798725,
  "tags": {
    "name": "Centro Storico Fiat",
    "tourism": "museum",
    "wikidata": "Q5761509",
    "wikipedia": "it:Centro storico Fiat"
  }
},
{
  "type": "node",
  "id": 1333701144,
  "lat": 45.0646287,
  "lon": 7.6886914,
  "tags": {
    "addr:city": "Torino",
    "addr:country": "IT",
    "addr:housenumber": "36",
    "addr:street": "Via Giovanni Giolitti",
    "email": "internet.mrsn@regione.piemonte.it",
    "name": "Museo Regionale di Scienze Naturali",
    "phone": "+39 800 329329",
    "tourism": "museum",
    "website": "http://www.regione.piemonte.it/museoscienzenaturali/",
    "wheelchair": "yes",
    "wikidata": "Q3328399",
    "wikipedia": "it:Museo regionale di scienze naturali (Torino)"
  }
},
{
  "type": "node",
  "id": 1494126722,
  "lat": 45.3344646,
  "lon": 7.7195444,
  "tags": {
    "name": "Galleria della Locomozione Storica",
    "tourism": "museum"
  }
},
{
  "type": "node",
  "id": 1628071063,
  "lat": 45.0746443,
  "lon": 7.6802540,
  "tags": {
    "addr:city": "Torino",
    "addr:housenumber": "11",
    "addr:postcode": "10122",
    "addr:street": "Via San Domenico",
    "email": "mao@fondazionetorinomusei.it",
    "name": "MAO Museo di Arte Orientale",
    "opening_hours": "Tu-Fr 10:00-18:00; Sa-Su 11:00-19:00; Mo off",
    "phone": "+39 011 4436932",
    "tourism": "museum",
    "website": "https://www.maotorino.it/it",
    "wheelchair": "yes",
    "wikidata": "Q3867873",
    "wikipedia": "it:Museo d'arte orientale (Torino)"
  }
},
{
  "type": "node",
  "id": 2026479832,
  "lat": 45.0691058,
  "lon": 7.6929702,
  "tags": {
    "addr:city": "Torino",
    "addr:housenumber": "20",
    "addr:postcode": "10124",
    "addr:street": "Via Montebello",
    "description": "Per aperture e chiusure straordinarie e durante le festività contattare il museo.",
    "email": "info@museocinema.it",
    "entrance": "main",
    "fee": "yes",
    "name": "Museo Nazionale del Cinema",
    "name:en": "National Cinema Museum",
    "name:es": "Museo Nacional del Cine",
    "name:fr": "Musée national du cinéma",
    "name:zh": "国家电影博物馆",
    "opening_hours": "Mo,We,Th,Fr,Su 09:00-20:00; Sa 09:00-23:00; Tu off",
    "phone": "+39 011 8138563",
    "tourism": "museum",
    "website": "http://www.museocinema.it/it",
    "wheelchair": "yes",
    "wikidata": "Q19874",
    "wikipedia": "it:Museo nazionale del cinema"
  }
},
{
  "type": "node",
  "id": 2026479833,
  "lat": 45.0685004,
  "lon": 7.6917665,
  "tags": {
    "addr:city": "Torino",
    "addr:country": "IT",
    "addr:housenumber": "16",
    "addr:postcode": "10124",
    "addr:street": "Via Giuseppe Verdi",
    "contact:email": "museoradiotv@rai.it",
    "contact:fax": "+39 011 8128933",
    "contact:website": "http://www.museoradiotv.rai.it",
    "fee": "no",
    "name": "Museo della Radio e della Televisione",
    "opening_hours": "Mo-Fr 09:30-19:00; Sa,Su,PH off",
    "phone": "+39 011 8104360",
    "tourism": "museum",
    "wheelchair": "yes",
    "wikidata": "Q55372377"
  }
},
{
  "type": "node",
  "id": 2112401213,
  "lat": 45.0621492,
  "lon": 7.6428309,
  "tags": {
    "tourism": "museum"
  }
},
{
  "type": "node",
  "id": 2177769729,
  "lat": 45.0708701,
  "lon": 7.6854650,
  "tags": {
    "addr:city": "Torino",
    "addr:postcode": "10122",
    "addr:street": "Piazza Castello",
    "description": "Il Museo Civico d’Arte Antica raccoglie oltre 60.000 opere che testimoniano la ricchezza e la complessità di dieci secoli di produzione artistica italiana ed europea; fu sede del Senato Subalpino.",
    "email": "palazzomadama@fondazionetorinomusei.it",
    "name": "Museo Civico d'Arte Antica",
    "opening_hours": "Mo-Su 10:00-18:00; Tu off",
    "phone": "+39 011 4433501",
    "tourism": "museum",
    "website": "https://www.palazzomadamatorino.it/it",
    "wheelchair": "yes",
    "wikidata": "Q3819018",
    "wikipedia": "it:Museo civico d'arte antica"
  }
},
{
  "type": "node",
  "id": 2321842592,
  "lat": 45.1359313,
  "lon": 7.6235460,
  "tags": {
    "addr:city": "Venaria Reale",
    "addr:postcode": "10078",
    "description": "Gli orari variano a seconda delle stagioni e delle modalità di visita.",
    "email": "prenotazioni@lavenariareale.it",
    "name": "La Venaria Reale",
    "opening_hours": "Tu-Fr 09:00-17:00; Sa,Su,PH 09:00-18:30; Mo off",
    "phone": "+39 011 4992333",
    "source": "GPS",
    "tourism": "museum",
    "website": "http://www.lavenaria.it/it"
  }
},
{
  "type": "node",
  "id": 2323039604,
  "lat": 45.0041390,
  "lon": 8.0082872,
  "tags": {
    "name": "Museo di Mamma Margherita",
    "tourism": "museum"
  }
},
{
  "type": "node",
  "id": 2427018633,
  "lat": 44.8860183,
  "lon": 7.3354000,
  "tags": {
    "addr:city": "Pinerolo",
    "addr:housenumber": "5",
    "addr:postcode": "10064",
    "addr:street": "Via Giovanni Giolitti",
    "email": "direzionemuseocav@cmeto.esercito.difesa.it",
    "name": "Museo storico della Cavalleria",
    "opening_hours": "Tu,Th 09:00-11:30, 14:00-16:00; Su 10:00-12:00, 15:00-18:00; Jan 1,6, Easter, Easter+1, Apr 25, May 1, Jun 2, Aug 15, Nov 1, Dec 8,25,26,31 off",
    "phone": "+39 0121 376344",
    "tourism": "museum",
    "website": "http://www.museocavalleria.it"
  }
},
{
  "type": "node",
  "id": 2942678049,
  "lat": 45.3354699,
  "lon": 7.7963112,
  "tags": {
    "name": "Nossi Rais",
    "tourism": "museum"
  }
},
{
  "type": "node",
  "id": 2981060587,
  "lat": 45.0494947,
  "lon": 7.6804523,
  "tags": {
    "addr:city": "Torino",
    "addr:housenumber": "52",
    "addr:postcode": "10126",
    "addr:street": "Corso Massimo D'Azeglio",
    "email": "museo.anatomia(@)unito.it",
    "name": "Museo di anatomia umana Luigi Rolando",
    "opening_hours": "Mo-Sa 10:00-18:00; Su off",
    "phone": "+39 011 6707797",
    "tourism": "museum",
    "website": "http://museoanatomia.unito.it/index.php/it/#",
    "wikidata": "Q3868188",
    "wikipedia": "it:Museo di anatomia umana Luigi Rolando"
  }
},
{
  "type": "node",
  "id": 3149307429,
  "lat": 45.0677506,
  "lon": 7.6353194,
  "tags": {
    "tourism": "museum"
  }
},
{
  "type": "node",
  "id": 3290056358,
  "lat": 44.9085635,
  "lon": 7.6763590,
  "tags": {
    "addr:city": "Carignano",
    "addr:housenumber": "13",
    "addr:street": "Via Frichieri",
    "name": "Museo civico",
    "tourism": "museum"
  }
},
{
  "type": "node",
  "id": 3338687283,
  "lat": 45.0814772,
  "lon": 7.6548353,
  "tags": {
    "addr:city": "Torino",
    "addr:housenumber": "7/C",
    "addr:postcode": "10143",
    "addr:street": "Via Rocciamelone",
    "name": "MAU - Museo d'Arte Urbana",
    "tourism": "museum",
    "website": "http://www.museoarteurbana.it/"
  }
},
{
  "type": "node",
  "id": 3349838584,
  "lat": 45.0719164,
  "lon": 7.7052668,
  "tags": {
    "name": "Museo scolastico della scuola primaria Ludovico Antonio Muratori",
    "phone": "+39 011 889166",
    "ramp:wheelchair": "yes",
    "toilets:wheelchair": "yes",
    "tourism": "museum",
    "website": "http://www.comune.torino.it/museiscuola/propostemusei/toeprov/cronoprogramma-di-progetto-2.shtml",
    "wheelchair": "yes"
  }
},
{
  "type": "node",
  "id": 4029540930,
  "lat": 44.7680176,
  "lon": 7.6786407,
  "tags": {
    "addr:street": "Piazza Giovanni Andrea Burzio",
    "name": "Racconigi città di seta",
    "tourism": "museum",
    "website": "http://racconigicittadiseta.it/wp/il-museo"
  }
},
{
  "type": "node",
  "id": 4029548526,
  "lat": 44.8421724,
  "lon": 7.7008076,
  "tags": {
    "addr:city": "Carmagnola",
    "addr:housenumber": "20",
    "addr:postcode": "10022",
    "addr:street": "Via Crissolo",
    "email": "musei@comune.carmagnola.to.it",
    "name": "Museo della cultura e della lavorazione della Canapa",
    "opening_hours": "Apr-Oct: Sa-Su 15:00-18:00; Su [2] 10:00-12:00, 15:00-18:00; Jul-Aug off",
    "phone": "+39 011 9721491",
    "tourism": "museum",
    "website": "https://www.comune.carmagnola.to.it/it-it/vivere-il-comune/cosa-vedere/ecomuseo-della-cultura-della-lavorazione-della-canapa-18181-1-204015c4e0afdc06123f26648ee76f5a"
  }
},
{
  "type": "node",
  "id": 4029549590,
  "lat": 44.8460820,
  "lon": 7.7086725,
  "tags": {
    "addr:city": "Carmagnola",
    "addr:housenumber": "188",
    "addr:postcode": "10022",
    "addr:street": "Via San Francesco di Sales",
    "email": "museo.carmagnola@gmail.com",
    "name": "Museo civico di storia naturale",
    "opening_hours": "Tu-We 09:00-12:30; Th 09:00-12:30; 15:00-18:00; Sa-Su 15:00-18:00; Mo-Fr off; Aug off",
    "phone": "+39 011 0240083",
    "tourism": "museum",
    "website": "https://www.comune.carmagnola.to.it/Musei",
    "wheelchair": "limited"
  }
},
{
  "type": "node",
  "id": 4029705026,
  "lat": 44.8471152,
  "lon": 7.7202863,
  "tags": {
    "addr:city": "Carmagnola",
    "addr:housenumber": "1",
    "addr:postcode": "10022",
    "addr:street": "Piazza Mazzini",
    "email": "musei@comune.carmagnola.to.it",
    "name": "Museo civico navale",
    "opening_hours": "Apr-Oct: Sa-Su 15:00-18:00; Su[2] 10:00-12:00, 15:00-18:00; Jul-Aug off",
    "phone": "+39 011 9721492",
    "tourism": "museum",
    "website": "http://www.comune.carmagnola.to.it/ComSchedaTem.asp?Id=21492",
    "wikidata": "Q55371838"
  }
},
{
  "type": "node",
  "id": 4067344493,
  "lat": 45.0790069,
  "lon": 7.6964530,
  "tags": {
    "addr:city": "Torino",
    "addr:housenumber": "15/C",
    "addr:postcode": "10152",
    "addr:street": "Corso Verona",
    "name": "Temporary Museum",
    "tourism": "museum"
  }
},
{
  "type": "node",
  "id": 4201161691,
  "lat": 45.0597599,
  "lon": 7.5809996,
  "tags": {
    "addr:city": "Grugliasco",
    "addr:housenumber": "87",
    "addr:postcode": "10095",
    "addr:street": "Via La Salle",
    "description": "Il Museo del Grande Torino e della Leggenda Granata espone ai visitatori svariati cimeli del Torino FC attraverso visite guidate da volontari che vi narreranno la storia di una grande società spesso legata alle vicende storiche dell'Italia. ",
    "email": "info@museodeltoro.it",
    "name": "Museo del Grande Torino e della Leggenda Granata",
    "opening_hours": "Sa 14:00-19:00; Su 10:00-19:00",
    "phone": "+39 333 985 9488",
    "tourism": "museum",
    "website": "www.museodeltoro.it"
  }
},
{
  "type": "node",
  "id": 4219719436,
  "lat": 45.0497552,
  "lon": 7.6797632,
  "tags": {
    "addr:city": "Torino",
    "addr:housenumber": "15",
    "addr:postcode": "10126",
    "addr:street": "Via Pietro Giuria",
    "email": "museo.lombroso@unito.it",
    "name": "Museo di antropologia criminale Lombroso",
    "opening_hours": "Mo-Sa 10:00-18:00; Su off",
    "phone": "+39 011 6708195",
    "tourism": "museum",
    "website": "http://museolombroso.unito.it/index.php/it/",
    "wikidata": "Q3868193",
    "wikipedia": "it:Museo di antropologia criminale"
  }
},
{
  "type": "node",
  "id": 4397157196,
  "lat": 45.0642368,
  "lon": 7.6907554,
  "tags": {
    "addr:city": "Torino",
    "addr:housenumber": "18",
    "addr:postcode": "10123",
    "addr:street": "Via delle Rosine",
    "email": "camera@camera.to",
    "name": "Camera - Centro Italiano per la fotografia",
    "opening_hours": "Mo-We-Fr-Sa-Su 11:00-19:00; Th 11:00-21:00; Tu off",
    "phone": "+39 011 0881150",
    "tourism": "museum",
    "website": "http://camera.to/"
  }
},
{
  "type": "node",
  "id": 4456002089,
  "lat": 45.1099020,
  "lon": 7.6429119,
  "tags": {
    "name": "J Juventus Museo",
    "name:de": "J Juventus Museo",
    "name:en": "J Juventus Museum",
    "name:it": "J Juventus Museo",
    "tourism": "museum"
  }
},
{
  "type": "node",
  "id": 4473067105,
  "lat": 44.9698421,
  "lon": 7.7655990,
  "tags": {
    "name": "Museo Pininfarina",
    "operator": "Pininfarina S.p.A.",
    "tourism": "museum"
  }
},
{
  "type": "node",
  "id": 4572133130,
  "lat": 45.0710163,
  "lon": 7.6732162,
  "tags": {
    "name": "Museo storico nazionale dell'artiglieria",
    "tourism": "museum",
    "wikidata": "Q712943",
    "wikipedia": "it:Museo storico nazionale dell'artiglieria"
  }
},
{
  "type": "node",
  "id": 4732591999,
  "lat": 45.0920254,
  "lon": 7.6855952,
  "tags": {
    "addr:city": "Torino",
    "addr:housenumber": "114",
    "addr:postcode": "10155",
    "addr:street": "Via Francesco Cigna",
    "email": "info@museofico.it",
    "name": "Museo Ettore Fico",
    "opening_hours": "We-Fr 14:00-19:00; Sa-Su 11:00-19:00",
    "phone": "+39 011 853065",
    "toilets:wheelchair": "yes",
    "tourism": "museum",
    "website": "http://www.museofico.it",
    "wheelchair": "yes",
    "wheelchair:description": "È presente un solo bagno disabili al piano terra"
  }
},
{
  "type": "node",
  "id": 4882134722,
  "lat": 44.8927917,
  "lon": 7.3325075,
  "tags": {
    "addr:city": "Pinerolo",
    "addr:country": "IT",
    "addr:housenumber": "61/63",
    "addr:postcode": "10064",
    "addr:street": "Viale della Rimembranza",
    "email": "fungifungi@gmail.com",
    "name": "Civico Museo Didattico di Scienze Naturali Mario Strani",
    "opening_hours": "Su 10:30-12:00; 15:30-18:00",
    "phone": "+39 334 2516039",
    "tourism": "museum",
    "website": "https://www.museomariostrani.com/"
  }
},
{
  "type": "node",
  "id": 4908362221,
  "lat": 45.0761401,
  "lon": 7.6765791,
  "tags": {
    "addr:city": "Torino",
    "addr:housenumber": "28",
    "addr:postcode": "10122",
    "addr:street": "Via San Domenico",
    "description": "Per aperture e chiusure straordinarie e durante le festività contattare il museo.",
    "email": "museo@sindone.org",
    "name": "Museo Della Sindone",
    "name:en": "Museum of the Shroud",
    "opening_hours": "Mo-Su 09:00-12:00, 15:00-19:00; Su[-1] 09:00-19:00",
    "tourism": "museum",
    "website": "www.sindone.org",
    "wikidata": "Q3868052",
    "wikipedia": "it:Museo della Sindone"
  }
},
{
  "type": "node",
  "id": 4969818596,
  "lat": 44.8864113,
  "lon": 7.3276226,
  "tags": {
    "addr:city": "Pinerolo",
    "addr:country": "IT",
    "addr:housenumber": "4",
    "addr:postcode": "10064",
    "addr:street": "Largo d'Andrade",
    "email": "segreteria@cesmap.it",
    "name": "Casa del Senato",
    "opening_hours": "Su 10:30-12:00, 15:30-18:00",
    "phone": "+39 0121 374505",
    "tourism": "museum",
    "website": "http://www.comune.pinerolo.to.it/web/index.php/servizi/aree-tematiche/arte-e-cultura/33-musei/85-casa-del-senato"
  }
},
{
  "type": "node",
  "id": 4969818597,
  "lat": 44.8857797,
  "lon": 7.3346570,
  "tags": {
    "addr:city": "Pinerolo",
    "addr:country": "IT",
    "addr:housenumber": "1",
    "addr:postcode": "10064",
    "addr:street": "Viale Giovanni Giolitti",
    "email": "cesmap@cesmap.it",
    "name": "Museo civico di Archeologia e Antropologia",
    "opening_hours": "Su 10:30-12:00, 15:30-18:00",
    "operator": "CeSMAP",
    "phone": "+39 0121 794382",
    "tourism": "museum",
    "website": "http://www.comune.pinerolo.to.it/web/index.php/servizi/aree-tematiche/arte-e-cultura/33-musei/84-museo-civico-di-archeologia-e-antropologia",
    "wikipedia": "it:Museo civico di Archeologia e Antropologia, Pinerolo."
  }
},
{
  "type": "node",
  "id": 5035358632,
  "lat": 44.9928824,
  "lon": 7.6712365,
  "tags": {
    "name": "MuPIN - Museo piemontese dell'informatica",
    "tourism": "museum",
    "website": "http://www.mupin.it/",
    "wikipedia": "it:Museo piemontese dell'informatica"
  }
},
{
  "type": "node",
  "id": 5118375281,
  "lat": 45.0105505,
  "lon": 7.7983753,
  "tags": {
    "addr:city": "Chieri",
    "addr:housenumber": "14",
    "addr:postcode": "10023",
    "addr:street": "Strada Pecetto",
    "name": "Museo di Storia Naturale di Chieri",
    "tourism": "museum"
  }
},
{
  "type": "node",
  "id": 5171950042,
  "lat": 45.0678568,
  "lon": 7.6848802,
  "tags": {
    "addr:city": "Torino",
    "addr:housenumber": "5",
    "addr:postcode": "10123",
    "addr:street": "Via Maria Vittoria",
    "email": "miaao.museo@gmail.com",
    "name": "MIAAO Museo Internazionale di Arte Applicata Oggi",
    "phone": "+39 011 5611161",
    "tourism": "museum",
    "website": "https://miaao.jimdo.com",
    "wikidata": "Q3841323",
    "wikipedia": "it:MIAAO"
  }
},
{
  "type": "node",
  "id": 5389727891,
  "lat": 45.1370601,
  "lon": 7.7801990,
  "tags": {
    "addr:city": "Settimo Torinese",
    "addr:housenumber": "36",
    "addr:postcode": "10036",
    "addr:street": "Via Ludovico Ariosto",
    "email": "info@ecomuseodelfreidano.it",
    "name": "Ecomuseo del Freidano",
    "opening_hours": "Jan-Apr: Su 15:00-18:00; May-Oct Su 15:00-19:00; Nov-Dec Su 15:00-18:00",
    "phone": "+39 011 8028534",
    "tourism": "museum",
    "website": "http://www.ecomuseodelfreidano.it/index.php"
  }
},
{
  "type": "node",
  "id": 5482049568,
  "lat": 45.0494452,
  "lon": 7.6795823,
  "tags": {
    "addr:city": "Torino",
    "addr:housenumber": "15",
    "addr:postcode": "10126",
    "addr:street": "Via Pietro Giuria",
    "description": "La collezione del museo è la straordinaria esposizione pomologica costituita da centinaia di varietà di mele, pere, pesche, albicocche, susine, uve…",
    "email": "info-museodellafrutta@comune.torino.it",
    "name": "Museo della Frutta",
    "opening_hours": "Mo-Sa 10:00-18:00; Su off",
    "phone": "+39 011 6708195",
    "tourism": "museum",
    "website": "http://www.museodellafrutta.it",
    "wikidata": "Q27961083"
  }
},
{
  "type": "node",
  "id": 5484383490,
  "lat": 44.9428779,
  "lon": 7.9382236,
  "tags": {
    "addr:city": "Villanova d'Asti",
    "addr:housenumber": "8",
    "addr:postcode": "14019",
    "addr:street": "piazza Supponito",
    "description": "Museo diffuso del Lavoro e del Territorio",
    "email": "palazzorichettacoala@gmail.com",
    "name": "Museo dell'Industria e della Tradizione",
    "tourism": "museum"
  }
},
{
  "type": "node",
  "id": 6216455863,
  "lat": 44.9862271,
  "lon": 7.8692204,
  "tags": {
    "addr:city": "Riva Presso Chieri",
    "addr:housenumber": "4",
    "addr:postcode": "10020",
    "addr:street": "Piazza della Parrocchia",
    "email": "info@museopaesaggiosonoro.it",
    "name": "Museo del Paesaggio Sonoro",
    "opening_hours": "Mar-Oct: Su 15:00-19:00",
    "phone": "+39 011 5211788",
    "tourism": "museum",
    "website": "http://www.museopaesaggiosonoro.org/"
  }
},
{
  "type": "node",
  "id": 6418784183,
  "lat": 44.8456460,
  "lon": 7.7190060,
  "tags": {
    "addr:city": "Carmagnola",
    "addr:housenumber": "17",
    "addr:postcode": "10022",
    "addr:street": "Piazza Sant'Agostino",
    "description": "La sede della galleria è ubicata a palazzo Lomellini. Gli orari di apertura variano a seconda delle mostre ospitate: è consigliato rivolgersi direttamente all'ente.",
    "email": "musei@comune.carmagnola.to.it",
    "name": "Galleria Civica Arte Contemporanea",
    "phone": "+39 011 9724238",
    "tourism": "museum",
    "website": "https://www.comune.carmagnola.to.it/it-it/vivere-il-comune/cosa-vedere/galleria-civica-d-arte-contemporanea-palazzo-lomellini-2565-1-8d834ad4274f1241024c7362c607d8a9"
  }
},
{
  "type": "node",
  "id": 6422388352,
  "lat": 45.1071106,
  "lon": 7.6914997,
  "tags": {
    "addr:city": "Torino",
    "addr:housenumber": "49 bis",
    "addr:postcode": "10148",
    "addr:street": "Via Guglielmo Reiss Romoli",
    "email": "info@mufant.it",
    "name": "MUFANT - Museo del Fantastico e della Fantascienza",
    "opening_hours": "Th-Fr-Sa-Su 15:30-19:00",
    "phone": "+39 349 8171960",
    "tourism": "museum",
    "website": "http://www.mufant.it"
  }
},
{
  "type": "node",
  "id": 6425716569,
  "lat": 45.1465066,
  "lon": 7.5990486,
  "tags": {
    "addr:city": "Venaria Reale",
    "description": "Si consiglia la consultazione del sito per conoscere gli orari differenti a seconda delle stagioni e delle modalità di visita.",
    "email": "prenotazioni@lavenariareale.it",
    "name": "Appartamenti Reali",
    "opening_hours": "Mo off; Tu-Fr 10:00-16:00; Sa-Su-PH 10:00-16:30",
    "operator": "La Venaria Reale",
    "phone": "+39 011 4992333",
    "tourism": "museum",
    "website": "http://www.lavenaria.it/it/esplora/castello-mandria/gli-appartamenti-reali"
  }
},
{
  "type": "node",
  "id": 6425777001,
  "lat": 45.0485750,
  "lon": 7.6844869,
  "tags": {
    "addr:city": "Torino",
    "addr:housenumber": "107",
    "addr:postcode": "10126",
    "addr:street": "Viale Virgilio",
    "description": "La Rocca costituisce la parte museale ed è la riproduzione fedele di una dimora fortificata signorile del Quattrocento. Visitandone gli ambienti si compie un viaggio immaginario nella vita del tardo-medioevo.",
    "email": "prenotazioni@arteintorino.it",
    "name": "Rocca Medievale",
    "opening_hours": "Tu-Su 09:30-19:00",
    "phone": "+39 011 5211788",
    "tourism": "museum",
    "website": "https://www.arteintorino.com/musei/borgo-medievale/la-rocca/"
  }
},
{
  "type": "node",
  "id": 6427206452,
  "lat": 44.9656012,
  "lon": 7.8409471,
  "tags": {
    "addr:city": "Pessione",
    "addr:housenumber": "2",
    "addr:postcode": "10023",
    "addr:street": "Piazza Luigi Rossi",
    "description": "Il suo straordinario patrimonio è formato da oltre 600 pezzi, che dall’antico mondo greco-latino arrivano sino alla metà del secolo scorso: oltre 2000 anni di storia del vino, con testimonianze di bellezza e valore assoluti.",
    "email": "casamartini@bacardi.com",
    "name": "Museo Martini",
    "opening_hours": "Mo-Fr 09:00-18:00; Sa-Su 10:00-18:00; Jan 1, Aug week 32-34, Dec 25-26 off",
    "phone": "+39 011 94191",
    "tourism": "museum",
    "website": "www.visitcasamartini.com"
  }
},
{
  "type": "node",
  "id": 6427216533,
  "lat": 44.9492094,
  "lon": 7.7737349,
  "tags": {
    "addr:city": "Santena",
    "addr:housenumber": "2",
    "addr:postcode": "10026",
    "addr:street": "Piazza Visconti Venosta",
    "email": "info@fondazionecavour.it",
    "name": "Fondazione Cavour",
    "opening_hours": "Su 10:30-11:30,15:00-17:00",
    "phone": "+39 011 597373",
    "tourism": "museum",
    "website": "http://www.fondazionecavour.it"
  }
},
{
  "type": "node",
  "id": 6427237210,
  "lat": 45.0696601,
  "lon": 7.5102969,
  "tags": {
    "addr:city": "Rivoli",
    "addr:housenumber": "1",
    "addr:postcode": "10098",
    "addr:street": "Piazzale Mafalda di Savoia",
    "email": "info@castellodirivoli.org",
    "name": "Museo d'Arte Contemporanea",
    "opening_hours": "Tu-Fr 10:00-17:00; Sa-Su 10:00-19:00; Mo, Jan 1, Dec 25 off",
    "phone": "+39 011 9565222",
    "tourism": "museum",
    "website": "https://www.castellodirivoli.org"
  }
},
{
  "type": "node",
  "id": 6429789789,
  "lat": 45.0979138,
  "lon": 7.5258729,
  "tags": {
    "addr:city": "Alpignano",
    "addr:housenumber": "2",
    "addr:postcode": "10091",
    "addr:street": "Via Giacomo Matteotti",
    "email": "ecomuseo.cruto.alpignano@gmail.com",
    "name": "Ecomuseo Sogno di Luce - A. Cruto",
    "opening_hours": "Th, Su[1] 15:00-18:00",
    "phone": "+39 370 1352596",
    "tourism": "museum",
    "website": "ecomuseo.comune.alpignano.to.it"
  }
},
{
  "type": "node",
  "id": 6429836285,
  "lat": 45.1116678,
  "lon": 7.6348912,
  "tags": {
    "addr:city": "Torino",
    "addr:housenumber": "175",
    "addr:postcode": "10151",
    "addr:street": "Via Druento",
    "email": "juventus.museum@juventus.com",
    "name": "Juventus Museum",
    "opening_hours": "Apr-Sep: Mo,We,Th,Fr 10:30-19:00; Oct-Mar: Mo,We,Th,Fr 10:30-18:00; Sa,Su,PH 10:30-19:30; Tu off",
    "phone": "+39 899 999897",
    "tourism": "museum",
    "website": "https://www.juventus.com/it//tickets/stadium-museum/juventus-museum-tickets.php"
  }
},
{
  "type": "node",
  "id": 6430727044,
  "lat": 44.8861920,
  "lon": 7.3342339,
  "tags": {
    "addr:city": "Pinerolo",
    "addr:housenumber": "8",
    "addr:postcode": "10064",
    "addr:street": "Piazza Vittorio Veneto",
    "description": "Il MUSEP raccoglie un'ampia documentazione di cultura popolare delle campagne del pinerolese e delle vallate alpine",
    "email": "info@museoetnograficodelpinerolese.it",
    "name": "MUSEP Museo Civico Etnografico del Pinerolese",
    "opening_hours": "Su 10:30-12:00, 15:30-18:00",
    "phone": "+39 0121 374505",
    "tourism": "museum",
    "website": "https://museoetnograficodelpinerolese.it"
  }
},
{
  "type": "node",
  "id": 6431480861,
  "lat": 45.0673849,
  "lon": 7.6895042,
  "tags": {
    "addr:city": "Torino",
    "addr:housenumber": "8",
    "addr:postcode": "10123",
    "addr:street": "Via Accademia Albertina",
    "email": "pinacoteca.albertina@coopculture.it",
    "fee": "yes",
    "name": "Pinacoteca Albertina",
    "opening_hours": "Mo-Su 10:00-17:30",
    "phone": "+39 011 0897370",
    "tourism": "museum",
    "website": "http://www.pinacotecalbertina.it"
  }
},
{
  "type": "node",
  "id": 6432595959,
  "lat": 44.9762001,
  "lon": 7.7869191,
  "tags": {
    "addr:city": "Cambiano",
    "addr:housenumber": "50",
    "addr:postcode": "10020",
    "addr:street": "Via Camporelle",
    "description": "Su prenotazione tutti i mesi dell’anno; in occasione di eventi comunicati nella sezione eventi del sito",
    "email": "info@munlabtorino.it",
    "name": "Munlab Ecomuseo dell'Argilla",
    "opening_hours": "May 3-Oct 27: Su 15:30-19:30; Aug off",
    "phone": "+39 011 9441439",
    "tourism": "museum",
    "website": "http://www.munlabtorino.it/#!/home"
  }
},
{
  "type": "node",
  "id": 6432637423,
  "lat": 45.0747568,
  "lon": 7.6786131,
  "tags": {
    "addr:city": "Torino",
    "addr:housenumber": "7/A",
    "addr:postcode": "10122",
    "addr:street": "Via delle Orfane",
    "description": "Il museo si trova all'interno di Palazzo Barolo, dimora nobiliare barocca ricca di opere d'arte e visitabile dal pubblico.",
    "email": "info@palazzobarolo.it",
    "name": "MUSLI Museo della Scuola e del Libro per l’Infanzia",
    "opening_hours": "Tu-Fr 10:00-12:30, 15:00-17:30; Sa,Su,15:00-18:30; Mo off; Jan 1, Aug 13-19, Dec 24, 25, 31 off",
    "phone": "+39 011 2636111",
    "tourism": "museum",
    "website": "http://www.operabarolo.it/it/p-60/palazzo-barolo/museo-della-scuola-e-del-libro-per-infanzia-musli"
  }
},
{
  "type": "node",
  "id": 6432836094,
  "lat": 45.0692057,
  "lon": 7.6854483,
  "tags": {
    "addr:city": "Torino",
    "addr:housenumber": "5",
    "addr:postcode": "10123",
    "addr:street": "Via Accademia delle Scienze",
    "email": "pm-pie.palazzocarignano@beniculturali.it",
    "name": "Palazzo Carignano",
    "note": "Ho creato il tag Museo per inserire le informazioni per i visitatori. ",
    "opening_hours": "Tu-Su 08:00-17:00; Mo off",
    "phone": "+39  011 5641791",
    "tourism": "museum",
    "website": "http://polomusealepiemonte.beniculturali.it/index.php/musei-e-luoghi-della-cultura/palazzo-carignano/"
  }
},
{
  "type": "node",
  "id": 6432876415,
  "lat": 44.8466394,
  "lon": 7.7205450,
  "tags": {
    "addr:city": "Carmagnola",
    "addr:housenumber": "12",
    "addr:postcode": "10022",
    "addr:street": "Via Santorre di Santarosa",
    "description": "Il museo conserva al suo interno incisioni, matrici tipografiche e calcografiche, libri e documenti antichi, collezioni di manifesti devozionali illustrati, torchi e materiali di provenienze diverse che testimoniano cinquecento anni di lavoro.",
    "email": "centrostudicarma@libero.it",
    "name": "Museo Tipografico Rondani",
    "opening_hours": "Apr-Oct: Sa-Su 15:00-18:00; Jul-Aug off",
    "phone": "+39 011 9715582",
    "tourism": "museum",
    "website": "https://museotipograficorondani.it"
  }
},
{
  "type": "node",
  "id": 6432887576,
  "lat": 45.0737156,
  "lon": 7.6782475,
  "tags": {
    "addr:city": "Torino",
    "addr:housenumber": "22",
    "addr:postcode": "10122",
    "addr:street": "Via Giuseppe Garibaldi",
    "description": "ll Museo Storico Reale Mutua è frutto di una selezione del materiale documentale più rappresentativo custodito nell’archivio della Compagnia torinese.  Il percorso di visita del Museo comprende otto sale a piano terra.",
    "email": "museostorico@realemutua.it",
    "fee": "no",
    "name": "Museo Storico Reale Mutua",
    "opening_hours": "Tu,Th 16:00-17:30; Sa[1,3] 14:30-18:00; Su[1,3] 10:00-17:30; Mo-Th 09:00-13:00 \"by appointment\"",
    "phone": "+39 011 4312320",
    "tourism": "museum",
    "website": "https://www.realemutua.it/scopri-reale-mutua/il-museo-storico"
  }
},
{
  "type": "node",
  "id": 6433557653,
  "lat": 44.8865867,
  "lon": 7.3299177,
  "tags": {
    "addr:city": "Pinerolo",
    "addr:housenumber": "19",
    "addr:postcode": "10064",
    "addr:street": "Via Silvio Pellico",
    "email": "societageneraleoperaia.1848@dag.it",
    "name": "Museo del Mutuo Soccorso",
    "opening_hours": "Su 15:00-18:30",
    "phone": "+39 0121 375012",
    "tourism": "museum",
    "website": "http://www.museodelmutuosoccorso.it"
  }
},
{
  "type": "node",
  "id": 6433579166,
  "lat": 44.9337466,
  "lon": 7.3513620,
  "tags": {
    "addr:city": "Frossasco",
    "addr:housenumber": "1",
    "addr:postcode": "10060",
    "addr:street": "Piazza Donatori di Sangue",
    "email": "info@museoemigrazionepiemontese.org",
    "fee": "no",
    "name": "Museo dell'Emigrazione dei Piemontesi nel mondo",
    "opening_hours": "Fr,Sa,Su 10:00-13:00,15:00-18:00",
    "phone": "+39 371 1165506",
    "tourism": "museum",
    "website": "http://www.museoemigrazionepiemontese.org"
  }
},
{
  "type": "node",
  "id": 6433756035,
  "lat": 45.1021750,
  "lon": 7.2866611,
  "tags": {
    "addr:city": "Vaie",
    "addr:housenumber": "4",
    "addr:postcode": "10050",
    "addr:street": "Via San Pancrazio",
    "email": "info@museopreistoriavaie.it",
    "name": "Museo Laboratorio della Preistoria",
    "opening_hours": "Feb 1- Nov 30: 14:30-16:30, Su,PH 10:00-12:00, 14:30-16:30; Easter off",
    "phone": "+39 339 8274420",
    "tourism": "museum",
    "website": "http://www.museopreistoriavaie.it/it/home"
  }
},
{
  "type": "node",
  "id": 6433764792,
  "lat": 45.0799662,
  "lon": 7.6650130,
  "tags": {
    "addr:city": "Torino",
    "addr:housenumber": "31",
    "addr:postcode": "10144",
    "addr:street": "Via San Donato",
    "email": "info@museofaadibruno.it",
    "name": "Museo Faà Di Bruno",
    "opening_hours": "Mo,We,Fr 09:00-12:00",
    "phone": "+39 011 489145",
    "tourism": "museum",
    "website": "www.museofaadibruno.it"
  }
},
{
  "type": "node",
  "id": 6433935512,
  "lat": 45.0541718,
  "lon": 7.7020450,
  "tags": {
    "addr:city": "Torino",
    "addr:housenumber": "37",
    "addr:postcode": "10131",
    "addr:street": "Viale Enrico Thovez",
    "name": "Museo di Storia Naturale di Valsalice",
    "phone": "+39 011 6300611",
    "tourism": "museum",
    "website": "www.liceovalsalice.it"
  }
},
{
  "type": "node",
  "id": 6433944342,
  "lat": 45.0734486,
  "lon": 7.6852415,
  "tags": {
    "addr:city": "Torino",
    "addr:housenumber": "14",
    "addr:postcode": "10122",
    "addr:street": "Via Porta Palatina",
    "description": "Il Museo, dedicato all’arte sacra, ha sede nella chiesa inferiore della cattedrale di San Giovanni Battista. L'esposizione delle opere è organizzata per aree tematiche.",
    "email": "arte@diocesi.torino.it",
    "name": "Museo Diocesano di Torino",
    "opening_hours": "We 14:00-18:00; Fr-Su 10:00-18:00",
    "phone": "+39 011 5156408",
    "tourism": "museum",
    "website": "http://www.museodiocesanotorino.it"
  }
},
{
  "type": "node",
  "id": 6433974757,
  "lat": 45.0758188,
  "lon": 7.6741997,
  "tags": {
    "addr:city": "Torino",
    "addr:housenumber": "4/A",
    "addr:postcode": "10122",
    "addr:street": "Corso Valdocco",
    "description": "La storia e i valori della Resistenza, momento fondante della nostra Repubblica democratica, sono proposti al pubblico attraverso un allestimento originale e interattivo.",
    "email": "info@museodiffusotorino.it",
    "name": "Museo Diffuso della Resistenza, della Deportazione, della Guerra, dei Diritti e della Libertà",
    "opening_hours": "Tu,We,Fr,Sa,Su 10:00-18:00; Th 14:00-22:00; Mo off",
    "phone": "+39 011 01120788",
    "tourism": "museum",
    "website": "https://www.museodiffusotorino.it/Home"
  }
},
{
  "type": "node",
  "id": 6434268049,
  "lat": 45.0719481,
  "lon": 7.6801480,
  "tags": {
    "addr:city": "Torino",
    "addr:housenumber": "8a",
    "addr:postcode": "10122",
    "addr:street": "Via San Francesco d'Assisi",
    "description": "Il Museo è pensato come un luogo dove poter approfondire le tematiche del risparmio. L’ultima sala ospita una collezione di oltre 1500 salvadanai (esposti a rotazione) provenienti da tutto il mondo, di epoche, forme, materiali, dimensioni diverse.",
    "email": "info@museodelrisparmio.it",
    "fee": "yes",
    "name": "Museo del Risparmio",
    "opening_hours": "Mo-Su 10:00-19:00; Tu off",
    "phone": "+39 800 167619",
    "tourism": "museum",
    "website": "http://www.museodelrisparmio.it"
  }
},
{
  "type": "node",
  "id": 6435420518,
  "lat": 45.0663916,
  "lon": 7.6932729,
  "tags": {
    "addr:city": "Torino",
    "addr:housenumber": "55",
    "addr:postcode": "10124",
    "addr:street": "Via Po",
    "email": "info@fondazioneaccorsi-ometto.it",
    "name": "Museo Accorsi Ometto",
    "opening_hours": "Tu-Fr 10:00-13:00, 14:00-18:00; Sa,Su,PH 10:00-13:00,14:00-19:00; Mo off",
    "phone": "+39 011 837688",
    "tourism": "museum",
    "website": "http://www.fondazioneaccorsi-ometto.it/it/"
  }
},
{
  "type": "node",
  "id": 6436718725,
  "lat": 45.1330857,
  "lon": 7.6266121,
  "tags": {
    "addr:city": "Venaria Reale",
    "addr:housenumber": "18",
    "addr:postcode": "10078",
    "addr:street": "Via XX Settembre",
    "description": "Gli interventi dal vivo dei ricercatori e degli storici dell'arte consentono ai visitatori di apprendere le avanzate tecniche di intervento e di indagine adottate sui monumenti.",
    "email": "info@centrorestaurovenaria.it",
    "name": "Centro Conservazione e Restauro La Venaria Reale",
    "opening_hours": "Sa 10:00-11:30, 14:00-15:30",
    "phone": "+39 011 4993011",
    "tourism": "museum",
    "website": "https://www.centrorestaurovenaria.it/it/"
  }
},
{
  "type": "node",
  "id": 6464687515,
  "lat": 45.1070470,
  "lon": 7.6911008,
  "tags": {
    "addr:city": "Torino",
    "addr:housenumber": "49 bis",
    "addr:postcode": "10148",
    "addr:street": "Via Guglielmo Reiss Romoli",
    "email": "info@mupin.it",
    "name": "MUPIN - Museo Piemontese dell’Informatica",
    "phone": "+39 350 031 9477",
    "tourism": "museum",
    "website": "http://http://www.mupin.it"
  }
},
{
  "type": "node",
  "id": 6482273991,
  "lat": 45.0104763,
  "lon": 7.8229677,
  "tags": {
    "name": "Museo del Tessile",
    "operator": "Fondazione Chierese per il Tessile e il Museo del Tessile",
    "tourism": "museum",
    "website": "https://www.fondazionetessilchieri.com/"
  }
},
{
  "type": "node",
  "id": 6602224197,
  "lat": 44.9566521,
  "lon": 7.3236393,
  "tags": {
    "name": "Adolfo Serafino",
    "tourism": "museum"
  }
},
{
  "type": "node",
  "id": 6759284412,
  "lat": 45.1779747,
  "lon": 7.3822577,
  "tags": {
    "description": "Aperto tutte le domeniche dal 25 aprile all'8 settembre, 10.00 - 18.00.Ingresso gratuito. Visite guidate su prenotazione a pagamento",
    "fee": "no",
    "name": "Ecomuseo della Resistenza del Colle del Lys",
    "tourism": "museum",
    "wheelchair": "no"
  }
},
{
  "type": "node",
  "id": 6827190585,
  "lat": 45.0684350,
  "lon": 7.6843506,
  "tags": {
    "addr:city": "Torino",
    "addr:housenumber": "6",
    "addr:postcode": "10123",
    "addr:street": "Via Accademia delle Scienze",
    "email": "info@museoegizio.it",
    "level": "-1",
    "name": "Museo Egizio",
    "name:en": "Egyptian Museum",
    "name:ru": "Египетский музей",
    "name:zh": "埃及博物馆",
    "opening_hours": "Tu-Su 09:00-18:30; Dec 25 off; Mo 09:00-14:00",
    "phone": "+39 011 4406903",
    "tourism": "museum",
    "website": "https://museoegizio.it/",
    "wheelchair": "yes",
    "wikidata": "Q19877"
  }
},
{
  "type": "node",
  "id": 6851449212,
  "lat": 45.0687464,
  "lon": 7.6841979,
  "tags": {
    "historic": "tomb",
    "level": "0",
    "tomb": "sarcophagus",
    "tourism": "museum"
  }
},
{
  "type": "node",
  "id": 6851507887,
  "lat": 45.0688361,
  "lon": 7.6840332,
  "tags": {
    "level": "0",
    "tourism": "museum"
  }
},
{
  "type": "way",
  "id": 59175313,
  "nodes": [
    733870744,
    2957021686,
    733870592,
    733870423,
    733870744
  ],
  "tags": {
    "addr:city": "Rivoli",
    "addr:postcode": "10098",
    "building": "yes",
    "fee": "yes",
    "name": "Museo d'arte contemporanea",
    "tourism": "museum"
  }
},
{
  "type": "way",
  "id": 84014797,
  "nodes": [
    977506635,
    977508282,
    977507606,
    977508140,
    977506635
  ],
  "tags": {
    "addr:city": "Viù",
    "addr:postcode": "10070",
    "addr:street": "SP197 del Colle del Lis",
    "email": "info@colledellys.it",
    "name": "Ecomuseo della Resistenza",
    "opening_hours": "Apr 25-Sep 8: Su 10:00-18:00",
    "phone": "+39 339 6187375",
    "tourism": "museum",
    "website": "http://www.colledellys.it"
  }
},
{
  "type": "way",
  "id": 96139133,
  "nodes": [
    1113972049,
    1113972061,
    1113972087,
    1113972174,
    1113972083,
    1113972030,
    1113972053,
    1113972085,
    1113972088,
    1113972075,
    1113972050,
    1113972058,
    1113972055,
    1113972077,
    1113972057,
    1113972081,
    1113972106,
    1113972049
  ],
  "tags": {
    "addr:city": "Torino",
    "addr:housenumber": "90",
    "addr:postcode": "10144",
    "addr:street": "Corso Umbria",
    "building": "yes",
    "email": "info@acomeambiente.org",
    "name": "A come Ambiente",
    "opening_hours": "Sa-Su 14:00 -19:00",
    "phone": "+39 011 0702535",
    "tourism": "museum",
    "website": "http://www.museoambiente.org/",
    "wikidata": "Q55377143"
  }
},
{
  "type": "way",
  "id": 96185130,
  "nodes": [
    1114771309,
    1114770999,
    1114770936,
    1114771334,
    1114771189,
    1114771143,
    1114771055,
    1114770884,
    1114771282,
    1114771133,
    1114770983,
    1114770915,
    1114771330,
    1114771179,
    1114771043,
    1114770975,
    1114771364,
    1114771239,
    1114771093,
    1114771018,
    1114770910,
    5622497860,
    5622497866,
    5622497861,
    5622497862,
    5622497879,
    5622497863,
    5622497880,
    1114771278,
    5622497864,
    5622497865,
    1114771309
  ],
  "tags": {
    "addr:city": "Torino",
    "addr:housenumber": "40",
    "addr:postcode": "10126",
    "addr:street": "Corso Unità d'Italia",
    "building": "yes",
    "email": "info@museoauto.it",
    "name": "MAUTO Museo Nazionale dell'Automobile",
    "opening_hours": "Mo 10:00-14:00; Tu-Su 10:00-19:00",
    "phone": "+39 011 677666",
    "tourism": "museum",
    "website": "http://www.museoauto.it/website/it",
    "wikidata": "Q2836365",
    "wikipedia": "it:Museo dell'automobile di Torino"
  }
},
{
  "type": "way",
  "id": 108444147,
  "nodes": [
    1244292209,
    1244292218,
    1244292212,
    1244292215,
    1244292211,
    1244292207,
    1780623645,
    1244292208,
    1719223352,
    1719223350,
    1719223354,
    1719223356,
    1244292213,
    1244292214,
    1244292219,
    1244292210,
    1719223361,
    1719223358,
    1719223363,
    1719223365,
    1244292217,
    1244292209
  ],
  "tags": {
    "building": "yes",
    "name": "Officine Grandi Riparazioni",
    "tourism": "museum",
    "wikidata": "Q16583604",
    "wikipedia": "it:Officina Grandi Riparazioni di Torino"
  }
},
{
  "type": "way",
  "id": 113734601,
  "nodes": [
    1289322561,
    1289322516,
    1289322531,
    1289322559,
    1289322576,
    1289322508,
    1289322527,
    1289322553,
    1289322564,
    1289322578,
    1289322518,
    1289322541,
    1289322561
  ],
  "tags": {
    "building": "public",
    "name": "Museo di Antichità",
    "tourism": "museum",
    "website": "http://museoarcheologico.piemonte.beniculturali.it/",
    "wikidata": "Q3868190",
    "wikipedia": "it:Museo di antichità"
  }
},
{
  "type": "way",
  "id": 123180294,
  "nodes": [
    1374502212,
    1374502182,
    1374502185,
    1374502180,
    1374502177,
    1374502159,
    1374502156,
    1374502148,
    1374502143,
    1374502145,
    1374502155,
    1374502157,
    1374502164,
    1374502181,
    1374502195,
    1374502179,
    1374502183,
    1374502165,
    1374502158,
    1374502162,
    1374502244,
    1374502235,
    1374502245,
    1374502238,
    1374502251,
    1374502246,
    1374502227,
    1374502220,
    1374502216,
    1374502209,
    1374502219,
    1374502241,
    1374502248,
    1374502253,
    1374502256,
    1374502276,
    1374502279,
    2572059351,
    1374502258,
    1374502198,
    1374502232,
    1374502224,
    1374502229,
    1374502212
  ],
  "tags": {
    "alt_name": "GAM",
    "building": "yes",
    "email": "gam@fondazionetorinomusei.it",
    "name": "Galleria civica d'Arte Moderna e Contemporanea",
    "opening_hours": "Tu-Su 10:00-18:00; Mo off",
    "phone": "+39 011 4429518",
    "tourism": "museum",
    "website": "https://www.gamtorino.it/it",
    "wikidata": "Q3757708",
    "wikipedia": "it:Galleria civica d'arte moderna e contemporanea"
  }
},
{
  "type": "way",
  "id": 140291012,
  "nodes": [
    1537134782,
    1537135101,
    1537135625,
    1537135525,
    1537135433,
    1537135405,
    1537135388,
    1537135363,
    1537135357,
    1537135315,
    1537135145,
    1537134870,
    1537134847,
    1537134506,
    1537134498,
    1537134416,
    1537134334,
    1537134319,
    1537134082,
    1537134074,
    1537134072,
    1537134047,
    1537134045,
    1537134075,
    1537134007,
    1537133964,
    1537133962,
    1537133959,
    1537133943,
    1537133953,
    1537133843,
    1537133835,
    1537133832,
    1537133825,
    1537133762,
    1537133787,
    1537133784,
    1537133782,
    1537133785,
    1537133821,
    1537133801,
    1537133834,
    1537133845,
    1537133941,
    1537133900,
    1537133869,
    1537133864,
    1537133973,
    1537133999,
    1537134005,
    1537134284,
    1537134323,
    1537134401,
    1537134458,
    1537134776,
    1537135153,
    1537135150,
    1537135155,
    1537135158,
    1537135193,
    1537135195,
    1537135202,
    1537135205,
    1537135244,
    1537135288,
    1537135360,
    1537135404,
    1537134942,
    1537134848,
    1537134782
  ],
  "tags": {
    "addr:city": "Nichelino",
    "addr:housenumber": "7",
    "addr:postcode": "10042",
    "addr:street": "Piazza Principe Amedeo",
    "email": "biglietteria.stupinigi@ordinemauriziano.it",
    "fee": "yes",
    "name": "Palazzina di Caccia Stupinigi",
    "opening_hours": "Tu-Fr 14:30-17:00; Sa-Su-PH 10:00-18:00; Mo off",
    "phone": "+39 011 6200634",
    "tourism": "museum",
    "website": "http://www.ordinemauriziano.it/palazzina-di-caccia-stupinigi"
  }
},
{
  "type": "way",
  "id": 178326609,
  "nodes": [
    1886884601,
    1886884615,
    1886884597,
    4205395109,
    4205395106,
    4205395103,
    4205395105,
    4205395107,
    4205395104,
    4205395108,
    1886884585,
    1886884581,
    1886884580,
    1886884611,
    1886884610,
    1886884620,
    1886884639,
    1886884627,
    1886884625,
    1886884630,
    1886884618,
    1886884601
  ],
  "tags": {
    "building": "yes",
    "name": "Collezione civica d'arte di Palazzo Vittone",
    "tourism": "museum",
    "wikipedia": "it:Collezione civica d'arte di Palazzo Vittone"
  }
},
{
  "type": "way",
  "id": 189366133,
  "nodes": [
    2000036455,
    6508545675,
    6508545674,
    2000036440,
    2000036489,
    2000036504,
    2000036435,
    2000036427,
    2000036452,
    2000036449,
    2552715677,
    2000036448,
    2000036442,
    4803554071,
    2000036485,
    2000036455
  ],
  "tags": {
    "addr:city": "Pino Torinese",
    "addr:housenumber": "30",
    "addr:postcode": "10025",
    "addr:street": "Via Osservatorio",
    "building": "yes",
    "email": "info@planetarioditorino.it",
    "name": "Infini TO - Planetario e Museo dell'Astronomia e dello Spazio",
    "opening_hours": "Tu-Fr 09:30-15:30; Sa,Su,PH 14:30-19:30; Mo off",
    "phone": "+39 011 8118740",
    "tourism": "museum",
    "website": "http://www.planetarioditorino.it/infinito/",
    "wikidata": "Q3868019",
    "wikipedia": "it:Museo dell'astronomia e Planetario di Torino"
  }
},
{
  "type": "way",
  "id": 211697355,
  "nodes": [
    2216683000,
    2216683001,
    2216682984,
    2216682983,
    2216682992,
    2216682988,
    2216683000
  ],
  "tags": {
    "name": "Museo vita contadina",
    "tourism": "museum"
  }
},
{
  "type": "way",
  "id": 211700829,
  "nodes": [
    2216725120,
    2216725128,
    2216725117,
    2216725111,
    2216725099,
    2216725107,
    2216725086,
    2216725079,
    2216725084,
    2216725081,
    2216725089,
    2216725094,
    2216725105,
    2216725101,
    2216725113,
    2216725120
  ],
  "tags": {
    "addr:city": "Castelnuovo Don Bosco",
    "addr:housenumber": "30",
    "addr:postcode": "14022",
    "addr:street": "Cammino di don bosco",
    "email": "museo@colledonbosco.it",
    "name": "Museo etnologico missionario",
    "opening_hours": "Tu-Sa 10:00-12:00, 14:30-18:00; Su 10:30-12:30-14:30-18:00; Mo, Jan 1,6, Easter, Aug 15, Nov 1, Dec 8,25,26 off",
    "phone": "+39 011 9877229",
    "tourism": "museum",
    "website": "https://www.memcolledonbosco.it"
  }
},
{
  "type": "way",
  "id": 261444477,
  "nodes": [
    2670611731,
    2670611733,
    2670611734,
    2670611736,
    2670611738,
    2670611740,
    2670611742,
    2670611743,
    2670611745,
    2670611747,
    2670611748,
    2670611750,
    2670611752,
    2670611754,
    2670611755,
    2670611757,
    2670611759,
    2670611761,
    2670611731
  ],
  "tags": {
    "addr:city": "Frossasco",
    "addr:housenumber": "42/A",
    "addr:postcode": "10060",
    "addr:street": "Via Principe Amedeo",
    "building": "yes",
    "description": "Il Museo è temporaneamente chiuso",
    "email": "info@museodelgusto.it",
    "name": "Argal - Museo del Gusto",
    "phone": "+39 0121 352398",
    "tourism": "museum",
    "website": "http://www.museodelgusto.it"
  }
},
{
  "type": "way",
  "id": 264766419,
  "nodes": [
    2704141294,
    2704141293,
    2704141290,
    2704141291,
    2704141296,
    2704141298,
    2704141294
  ],
  "tags": {
    "building": "yes",
    "name": "La Ramassa - Dalla saggina alla scopa",
    "tourism": "museum"
  }
},
{
  "type": "way",
  "id": 291426373,
  "nodes": [
    2948945161,
    2948944376,
    2948944377,
    3343912565,
    3343912563,
    2948945161
  ],
  "tags": {
    "addr:city": "Rivoli",
    "addr:housenumber": "8",
    "addr:postcode": "10098",
    "addr:street": "Via Fratelli Piol",
    "building": "yes",
    "email": "conteverde@copatitalia.it",
    "name": "Casa del Conte Verde",
    "opening_hours": "Tu-Fr 15:00-19:00, Sa,Su 10:00-13:00,16:00-19:00",
    "phone": "+39 011 9563020",
    "tourism": "museum",
    "wikidata": "Q55390753"
  }
},
{
  "type": "way",
  "id": 295060511,
  "nodes": [
    2987337073,
    2987337070,
    2987337071,
    2987337078,
    2987337073
  ],
  "tags": {
    "addr:city": "Pianezza",
    "addr:housenumber": "2",
    "addr:postcode": "10044",
    "addr:street": "Via al Borgo",
    "building": "yes",
    "name": "Villa Casalegno",
    "tourism": "museum"
  }
},
{
  "type": "way",
  "id": 397514864,
  "nodes": [
    4003054369,
    4003054370,
    4003054371,
    4003054372,
    4003054369
  ],
  "tags": {
    "addr:city": "Torino",
    "addr:housenumber": "3",
    "addr:postcode": "10138",
    "addr:street": "Via Paolo Borsellino",
    "building:levels": "2",
    "contact:website": "http://www.museolenuove.it",
    "email": "segreteria@museolenuove.it",
    "name": "Museo del carcere Le Nuove",
    "opening_hours": "Mo-Sa 15:00; Su 15:00,17:00; Su[2,4] 09:00, 15:00, 17:00; Jan 1, Easter, Easter+1, Aug 15, Dec 24,25,26,31 off",
    "phone": "+39 011 7604881",
    "tourism": "museum",
    "wikidata": "Q3867939",
    "wikipedia": "it:Museo del carcere Le Nuove"
  }
},
{
  "type": "way",
  "id": 397713487,
  "nodes": [
    4004915994,
    4004915995,
    4004915996,
    4004915997,
    4004915994
  ],
  "tags": {
    "building": "yes",
    "name": "Eco museo",
    "tourism": "museum"
  }
},
{
  "type": "way",
  "id": 435784636,
  "nodes": [
    4336785975,
    4336785976,
    4336785977,
    4336785978,
    4336785975
  ],
  "tags": {
    "addr:city": "Torino",
    "addr:housenumber": "7/A",
    "addr:postcode": "10121",
    "addr:street": "Via Francesco Giuseppe Guicciardini",
    "building": "yes",
    "email": "info@museopietromicca.it",
    "name": "Museo Pietro Micca",
    "opening_hours": "Tu-Su 10:00 -18:00; Mo off",
    "phone": "+39 011 546317",
    "tourism": "museum",
    "website": "http://www.museopietromicca.it/",
    "wikidata": "Q3867631",
    "wikipedia": "it:Museo Pietro Micca"
  }
},
{
  "type": "way",
  "id": 467737044,
  "nodes": [
    4623341673,
    4623341674,
    4623341675,
    4623341676,
    4623341677,
    4623341678,
    4623341673
  ],
  "tags": {
    "building": "yes",
    "contact:email": "info@aureasigna.org",
    "contact:website": "http://www.officinadellascrittura.it",
    "name": "Officina della Scrittura",
    "opening_hours": "Mo-Tu, Th-Fr 09:00-18:00; Sa-Su 10:00-19:00",
    "tourism": "museum"
  }
},
{
  "type": "way",
  "id": 531271023,
  "nodes": [
    5157309973,
    5157309979,
    5157309980,
    5157309974,
    5157309975,
    5157309976,
    5157309977,
    5157309978,
    5157309973
  ],
  "tags": {
    "addr:city": "Chieri",
    "addr:housenumber": "2",
    "addr:postcode": "10023",
    "addr:street": "Via Imbiancheria",
    "building": "public",
    "building:levels": "2",
    "name": "IMBIANCHERIA DEL VAJRO",
    "smoking": "outside",
    "tourism": "museum",
    "website": "https://www.fondazionetessilchieri.com/imbiancheriadelvajro/"
  }
},
{
  "type": "way",
  "id": 699862529,
  "nodes": [
    6572216280,
    6572216281,
    6572216282,
    6572216283,
    6572216280
  ],
  "tags": {
    "building": "yes",
    "name": "Museo delle Contadinerie",
    "tourism": "museum"
  }
},
{
  "type": "way",
  "id": 761582364,
  "nodes": [
    7115542476,
    7115542477,
    7115542478,
    7115542479,
    7115542475,
    7115542476
  ],
  "tags": {
    "building": "yes",
    "name": "Museo Lavazza",
    "operator": "Lavazza S.p.A",
    "tourism": "museum",
    "wikidata": "Q60840190",
    "wikipedia": "it:Museo Lavazza"
  }
},
{
  "type": "relation",
  "id": 1681502,
  "members": [
    {
      "type": "way",
      "ref": 122885008,
      "role": "outer"
    },
    {
      "type": "way",
      "ref": 122885009,
      "role": "inner"
    }
  ],
  "tags": {
    "alt_name": "Parco d'Arte Vivente",
    "building": "museum",
    "email": "info@parcoartevivente.it",
    "name": "PAV Parco Arte Vivente",
    "opening_hours": "We-Fr 13:00-18:00; Sa,Su 12:00-19:00; Mo off; Jan 1, May 1, Dec 25 off",
    "phone": "+39 011 3182235",
    "short_name": "PAV",
    "tourism": "museum",
    "type": "multipolygon",
    "website": "http://www.parcoartevivente.it",
    "wheelchair": "yes",
    "wikidata": "Q3895374"
  }
},
{
  "type": "relation",
  "id": 2615654,
  "members": [
    {
      "type": "way",
      "ref": 194281283,
      "role": "outer"
    },
    {
      "type": "way",
      "ref": 194281288,
      "role": "inner"
    },
    {
      "type": "way",
      "ref": 194281296,
      "role": "inner"
    },
    {
      "type": "way",
      "ref": 194281298,
      "role": "inner"
    },
    {
      "type": "way",
      "ref": 194281299,
      "role": "inner"
    }
  ],
  "tags": {
    "addr:city": "Torino",
    "addr:postcode": "10123",
    "addr:street": "Via Giovanni Giolitti",
    "building": "yes",
    "description": "Una bella notizia: il museo riaprirà gradualmente da gennaio 2019. I primi spazi saranno gli uffici e la biblioteca, nei mesi successivi le sale. I lavori porteranno una migliore fruizione dei reperti custoditi e nuovi allestimenti.",
    "name": "Museo Regionale di Scienze Naturali",
    "tourism": "museum",
    "type": "multipolygon"
  }
},
{
  "type": "node",
  "id": 1886884620,
  "lat": 44.8873109,
  "lon": 7.3334759
},
{
  "type": "node",
  "id": 1886884580,
  "lat": 44.8867045,
  "lon": 7.3338307
},
{
  "type": "node",
  "id": 1886884581,
  "lat": 44.8867513,
  "lon": 7.3339952
},
{
  "type": "node",
  "id": 1886884585,
  "lat": 44.8869584,
  "lon": 7.3338779
},
{
  "type": "node",
  "id": 1886884597,
  "lat": 44.8870785,
  "lon": 7.3343095
},
{
  "type": "node",
  "id": 1886884601,
  "lat": 44.8871102,
  "lon": 7.3337920
},
{
  "type": "node",
  "id": 1886884610,
  "lat": 44.8872013,
  "lon": 7.3335380
},
{
  "type": "node",
  "id": 1886884611,
  "lat": 44.8872041,
  "lon": 7.3335475
},
{
  "type": "node",
  "id": 1886884615,
  "lat": 44.8872325,
  "lon": 7.3342222
},
{
  "type": "node",
  "id": 1886884618,
  "lat": 44.8872487,
  "lon": 7.3337135
},
{
  "type": "node",
  "id": 1886884625,
  "lat": 44.8873260,
  "lon": 7.3343698
},
{
  "type": "node",
  "id": 1886884627,
  "lat": 44.8873773,
  "lon": 7.3345502
},
{
  "type": "node",
  "id": 1886884630,
  "lat": 44.8874202,
  "lon": 7.3343164
},
{
  "type": "node",
  "id": 1886884639,
  "lat": 44.8875833,
  "lon": 7.3344334
},
{
  "type": "node",
  "id": 4205395103,
  "lat": 44.8869133,
  "lon": 7.3345772
},
{
  "type": "node",
  "id": 4205395104,
  "lat": 44.8868480,
  "lon": 7.3340657
},
{
  "type": "node",
  "id": 4205395105,
  "lat": 44.8868806,
  "lon": 7.3344621
},
{
  "type": "node",
  "id": 4205395106,
  "lat": 44.8869323,
  "lon": 7.3346441
},
{
  "type": "node",
  "id": 4205395107,
  "lat": 44.8869496,
  "lon": 7.3344230
},
{
  "type": "node",
  "id": 4205395108,
  "lat": 44.8869891,
  "lon": 7.3339857
},
{
  "type": "node",
  "id": 4205395109,
  "lat": 44.8871402,
  "lon": 7.3345263
},
{
  "type": "node",
  "id": 4004915994,
  "lat": 45.0524485,
  "lon": 7.2954595
},
{
  "type": "node",
  "id": 4004915995,
  "lat": 45.0523793,
  "lon": 7.2954434
},
{
  "type": "node",
  "id": 4004915996,
  "lat": 45.0523253,
  "lon": 7.2958431
},
{
  "type": "node",
  "id": 4004915997,
  "lat": 45.0523935,
  "lon": 7.2958578
},
{
  "type": "node",
  "id": 2670611731,
  "lat": 44.9343372,
  "lon": 7.3495326
},
{
  "type": "node",
  "id": 2670611733,
  "lat": 44.9343281,
  "lon": 7.3496164
},
{
  "type": "node",
  "id": 2670611734,
  "lat": 44.9343707,
  "lon": 7.3496185
},
{
  "type": "node",
  "id": 2670611736,
  "lat": 44.9343570,
  "lon": 7.3497603
},
{
  "type": "node",
  "id": 2670611738,
  "lat": 44.9343311,
  "lon": 7.3497517
},
{
  "type": "node",
  "id": 2670611740,
  "lat": 44.9343281,
  "lon": 7.3498463
},
{
  "type": "node",
  "id": 2670611742,
  "lat": 44.9342794,
  "lon": 7.3498377
},
{
  "type": "node",
  "id": 2670611743,
  "lat": 44.9342505,
  "lon": 7.3498742
},
{
  "type": "node",
  "id": 2670611745,
  "lat": 44.9342383,
  "lon": 7.3498699
},
{
  "type": "node",
  "id": 2670611747,
  "lat": 44.9342398,
  "lon": 7.3499301
},
{
  "type": "node",
  "id": 2670611748,
  "lat": 44.9341029,
  "lon": 7.3499236
},
{
  "type": "node",
  "id": 2670611750,
  "lat": 44.9340938,
  "lon": 7.3501858
},
{
  "type": "node",
  "id": 2670611752,
  "lat": 44.9340056,
  "lon": 7.3501836
},
{
  "type": "node",
  "id": 2670611754,
  "lat": 44.9340345,
  "lon": 7.3497131
},
{
  "type": "node",
  "id": 2670611755,
  "lat": 44.9342125,
  "lon": 7.3497324
},
{
  "type": "node",
  "id": 2670611757,
  "lat": 44.9342140,
  "lon": 7.3496679
},
{
  "type": "node",
  "id": 2670611759,
  "lat": 44.9340862,
  "lon": 7.3496465
},
{
  "type": "node",
  "id": 2670611761,
  "lat": 44.9340999,
  "lon": 7.3495154
},
{
  "type": "node",
  "id": 733870423,
  "lat": 45.0689328,
  "lon": 7.5082573
},
{
  "type": "node",
  "id": 733870592,
  "lat": 45.0693399,
  "lon": 7.5099456
},
{
  "type": "node",
  "id": 733870744,
  "lat": 45.0690904,
  "lon": 7.5081810
},
{
  "type": "node",
  "id": 2957021686,
  "lat": 45.0694929,
  "lon": 7.5098561
},
{
  "type": "node",
  "id": 2948944376,
  "lat": 45.0712693,
  "lon": 7.5144764
},
{
  "type": "node",
  "id": 2948944377,
  "lat": 45.0712816,
  "lon": 7.5146684
},
{
  "type": "node",
  "id": 2948945161,
  "lat": 45.0712853,
  "lon": 7.5144750
},
{
  "type": "node",
  "id": 3343912563,
  "lat": 45.0714018,
  "lon": 7.5144697
},
{
  "type": "node",
  "id": 3343912565,
  "lat": 45.0714185,
  "lon": 7.5146644
},
{
  "type": "node",
  "id": 2987337070,
  "lat": 45.0976693,
  "lon": 7.5478714
},
{
  "type": "node",
  "id": 2987337071,
  "lat": 45.0976826,
  "lon": 7.5480926
},
{
  "type": "node",
  "id": 2987337073,
  "lat": 45.0977545,
  "lon": 7.5478620
},
{
  "type": "node",
  "id": 2987337078,
  "lat": 45.0977668,
  "lon": 7.5480846
},
{
  "type": "node",
  "id": 977506635,
  "lat": 45.1780938,
  "lon": 7.3819552
},
{
  "type": "node",
  "id": 977507606,
  "lat": 45.1779874,
  "lon": 7.3822651
},
{
  "type": "node",
  "id": 977508140,
  "lat": 45.1779264,
  "lon": 7.3821690
},
{
  "type": "node",
  "id": 977508282,
  "lat": 45.1781548,
  "lon": 7.3820513
},
{
  "type": "node",
  "id": 1537133762,
  "lat": 44.9948108,
  "lon": 7.6054728
},
{
  "type": "node",
  "id": 1537133782,
  "lat": 44.9948226,
  "lon": 7.6055413
},
{
  "type": "node",
  "id": 1537133784,
  "lat": 44.9948252,
  "lon": 7.6055064
},
{
  "type": "node",
  "id": 1537133785,
  "lat": 44.9948338,
  "lon": 7.6055691
},
{
  "type": "node",
  "id": 1537133787,
  "lat": 44.9948342,
  "lon": 7.6054923
},
{
  "type": "node",
  "id": 1537133801,
  "lat": 44.9948441,
  "lon": 7.6056152
},
{
  "type": "node",
  "id": 1537133821,
  "lat": 44.9948480,
  "lon": 7.6055755
},
{
  "type": "node",
  "id": 1537133825,
  "lat": 44.9948703,
  "lon": 7.6053565
},
{
  "type": "node",
  "id": 1537133832,
  "lat": 44.9949231,
  "lon": 7.6054058
},
{
  "type": "node",
  "id": 1537133834,
  "lat": 44.9949330,
  "lon": 7.6056255
},
{
  "type": "node",
  "id": 1537133835,
  "lat": 44.9949446,
  "lon": 7.6054086
},
{
  "type": "node",
  "id": 1537133843,
  "lat": 44.9949529,
  "lon": 7.6054337
},
{
  "type": "node",
  "id": 1537133845,
  "lat": 44.9949883,
  "lon": 7.6058308
},
{
  "type": "node",
  "id": 1537133864,
  "lat": 44.9950059,
  "lon": 7.6055128
},
{
  "type": "node",
  "id": 1537133869,
  "lat": 44.9950608,
  "lon": 7.6057141
},
{
  "type": "node",
  "id": 1537133900,
  "lat": 44.9951331,
  "lon": 7.6056817
},
{
  "type": "node",
  "id": 1537133941,
  "lat": 44.9951535,
  "lon": 7.6057652
},
{
  "type": "node",
  "id": 1537133943,
  "lat": 44.9951552,
  "lon": 7.6052854
},
{
  "type": "node",
  "id": 1537133953,
  "lat": 44.9951638,
  "lon": 7.6053178
},
{
  "type": "node",
  "id": 1537133959,
  "lat": 44.9951774,
  "lon": 7.6052558
},
{
  "type": "node",
  "id": 1537133962,
  "lat": 44.9951796,
  "lon": 7.6052377
},
{
  "type": "node",
  "id": 1537133964,
  "lat": 44.9951841,
  "lon": 7.6052015
},
{
  "type": "node",
  "id": 1537133973,
  "lat": 44.9951902,
  "lon": 7.6054173
},
{
  "type": "node",
  "id": 1537133999,
  "lat": 44.9951992,
  "lon": 7.6054453
},
{
  "type": "node",
  "id": 1537134005,
  "lat": 44.9952052,
  "lon": 7.6054656
},
{
  "type": "node",
  "id": 1537134007,
  "lat": 44.9952176,
  "lon": 7.6049135
},
{
  "type": "node",
  "id": 1537134045,
  "lat": 44.9952580,
  "lon": 7.6052092
},
{
  "type": "node",
  "id": 1537134047,
  "lat": 44.9952626,
  "lon": 7.6052733
},
{
  "type": "node",
  "id": 1537134072,
  "lat": 44.9952738,
  "lon": 7.6053091
},
{
  "type": "node",
  "id": 1537134074,
  "lat": 44.9952806,
  "lon": 7.6053292
},
{
  "type": "node",
  "id": 1537134075,
  "lat": 44.9952896,
  "lon": 7.6049285
},
{
  "type": "node",
  "id": 1537134082,
  "lat": 44.9952928,
  "lon": 7.6053449
},
{
  "type": "node",
  "id": 1537134284,
  "lat": 44.9955675,
  "lon": 7.6058601
},
{
  "type": "node",
  "id": 1537134319,
  "lat": 44.9956047,
  "lon": 7.6056943
},
{
  "type": "node",
  "id": 1537134323,
  "lat": 44.9956081,
  "lon": 7.6058887
},
{
  "type": "node",
  "id": 1537134334,
  "lat": 44.9956342,
  "lon": 7.6057142
},
{
  "type": "node",
  "id": 1537134401,
  "lat": 44.9956562,
  "lon": 7.6058888
},
{
  "type": "node",
  "id": 1537134416,
  "lat": 44.9956712,
  "lon": 7.6057205
},
{
  "type": "node",
  "id": 1537134458,
  "lat": 44.9956842,
  "lon": 7.6058882
},
{
  "type": "node",
  "id": 1537134498,
  "lat": 44.9957030,
  "lon": 7.6057173
},
{
  "type": "node",
  "id": 1537134506,
  "lat": 44.9957106,
  "lon": 7.6057470
},
{
  "type": "node",
  "id": 1537134776,
  "lat": 44.9958701,
  "lon": 7.6057955
},
{
  "type": "node",
  "id": 1537134782,
  "lat": 44.9958905,
  "lon": 7.6067405
},
{
  "type": "node",
  "id": 1537134847,
  "lat": 44.9959402,
  "lon": 7.6056334
},
{
  "type": "node",
  "id": 1537134848,
  "lat": 44.9959415,
  "lon": 7.6066419
},
{
  "type": "node",
  "id": 1537134870,
  "lat": 44.9959596,
  "lon": 7.6057336
},
{
  "type": "node",
  "id": 1537134942,
  "lat": 44.9960207,
  "lon": 7.6067344
},
{
  "type": "node",
  "id": 1537135101,
  "lat": 44.9960736,
  "lon": 7.6069421
},
{
  "type": "node",
  "id": 1537135145,
  "lat": 44.9961067,
  "lon": 7.6059026
},
{
  "type": "node",
  "id": 1537135150,
  "lat": 44.9961107,
  "lon": 7.6060795
},
{
  "type": "node",
  "id": 1537135153,
  "lat": 44.9961108,
  "lon": 7.6060485
},
{
  "type": "node",
  "id": 1537135155,
  "lat": 44.9961118,
  "lon": 7.6061096
},
{
  "type": "node",
  "id": 1537135158,
  "lat": 44.9961143,
  "lon": 7.6061401
},
{
  "type": "node",
  "id": 1537135193,
  "lat": 44.9961199,
  "lon": 7.6061668
},
{
  "type": "node",
  "id": 1537135195,
  "lat": 44.9961281,
  "lon": 7.6061950
},
{
  "type": "node",
  "id": 1537135202,
  "lat": 44.9961364,
  "lon": 7.6062161
},
{
  "type": "node",
  "id": 1537135205,
  "lat": 44.9961450,
  "lon": 7.6062341
},
{
  "type": "node",
  "id": 1537135244,
  "lat": 44.9961639,
  "lon": 7.6062685
},
{
  "type": "node",
  "id": 1537135288,
  "lat": 44.9961898,
  "lon": 7.6063082
},
{
  "type": "node",
  "id": 1537135315,
  "lat": 44.9961959,
  "lon": 7.6059076
},
{
  "type": "node",
  "id": 1537135357,
  "lat": 44.9962064,
  "lon": 7.6059870
},
{
  "type": "node",
  "id": 1537135360,
  "lat": 44.9962080,
  "lon": 7.6063281
},
{
  "type": "node",
  "id": 1537135363,
  "lat": 44.9962119,
  "lon": 7.6060409
},
{
  "type": "node",
  "id": 1537135388,
  "lat": 44.9962232,
  "lon": 7.6061090
},
{
  "type": "node",
  "id": 1537135404,
  "lat": 44.9962373,
  "lon": 7.6063518
},
{
  "type": "node",
  "id": 1537135405,
  "lat": 44.9962397,
  "lon": 7.6061555
},
{
  "type": "node",
  "id": 1537135433,
  "lat": 44.9962598,
  "lon": 7.6061921
},
{
  "type": "node",
  "id": 1537135525,
  "lat": 44.9962963,
  "lon": 7.6062332
},
{
  "type": "node",
  "id": 1537135625,
  "lat": 44.9963972,
  "lon": 7.6063396
},
{
  "type": "node",
  "id": 1114770884,
  "lat": 45.0317972,
  "lon": 7.6741402
},
{
  "type": "node",
  "id": 1114770910,
  "lat": 45.0315030,
  "lon": 7.6730783
},
{
  "type": "node",
  "id": 1114770915,
  "lat": 45.0321940,
  "lon": 7.6740789
},
{
  "type": "node",
  "id": 1114770936,
  "lat": 45.0313938,
  "lon": 7.6737816
},
{
  "type": "node",
  "id": 1114770975,
  "lat": 45.0322923,
  "lon": 7.6730592
},
{
  "type": "node",
  "id": 1114770999,
  "lat": 45.0313071,
  "lon": 7.6736873
},
{
  "type": "node",
  "id": 1114771018,
  "lat": 45.0319393,
  "lon": 7.6726469
},
{
  "type": "node",
  "id": 1114771043,
  "lat": 45.0323984,
  "lon": 7.6731080
},
{
  "type": "node",
  "id": 1114771055,
  "lat": 45.0317061,
  "lon": 7.6740724
},
{
  "type": "node",
  "id": 1114771093,
  "lat": 45.0319974,
  "lon": 7.6727475
},
{
  "type": "node",
  "id": 1114771143,
  "lat": 45.0316126,
  "lon": 7.6739965
},
{
  "type": "node",
  "id": 1114771179,
  "lat": 45.0324912,
  "lon": 7.6731537
},
{
  "type": "node",
  "id": 1114771189,
  "lat": 45.0315772,
  "lon": 7.6739656
},
{
  "type": "node",
  "id": 1114771239,
  "lat": 45.0320791,
  "lon": 7.6728627
},
{
  "type": "node",
  "id": 1114771278,
  "lat": 45.0313783,
  "lon": 7.6732876
},
{
  "type": "node",
  "id": 1114771282,
  "lat": 45.0319006,
  "lon": 7.6742062
},
{
  "type": "node",
  "id": 1114771309,
  "lat": 45.0312213,
  "lon": 7.6735693
},
{
  "type": "node",
  "id": 1114771330,
  "lat": 45.0323007,
  "lon": 7.6741732
},
{
  "type": "node",
  "id": 1114771334,
  "lat": 45.0314838,
  "lon": 7.6738665
},
{
  "type": "node",
  "id": 1114771364,
  "lat": 45.0321864,
  "lon": 7.6729715
},
{
  "type": "node",
  "id": 5622497860,
  "lat": 45.0314858,
  "lon": 7.6734318
},
{
  "type": "node",
  "id": 5622497861,
  "lat": 45.0314292,
  "lon": 7.6733723
},
{
  "type": "node",
  "id": 5622497862,
  "lat": 45.0314160,
  "lon": 7.6732969
},
{
  "type": "node",
  "id": 5622497863,
  "lat": 45.0313975,
  "lon": 7.6732773
},
{
  "type": "node",
  "id": 5622497864,
  "lat": 45.0312287,
  "lon": 7.6735285
},
{
  "type": "node",
  "id": 5622497865,
  "lat": 45.0312203,
  "lon": 7.6735471
},
{
  "type": "node",
  "id": 5622497866,
  "lat": 45.0314487,
  "lon": 7.6733928
},
{
  "type": "node",
  "id": 5622497879,
  "lat": 45.0314088,
  "lon": 7.6732819
},
{
  "type": "node",
  "id": 5622497880,
  "lat": 45.0313883,
  "lon": 7.6732796
},
{
  "type": "node",
  "id": 1114770983,
  "lat": 45.0321407,
  "lon": 7.6743336
},
{
  "type": "node",
  "id": 1114771133,
  "lat": 45.0320006,
  "lon": 7.6742676
},
{
  "type": "node",
  "id": 1371723332,
  "lat": 45.0431064,
  "lon": 7.6643987
},
{
  "type": "node",
  "id": 1371723333,
  "lat": 45.0431087,
  "lon": 7.6645722
},
{
  "type": "node",
  "id": 1371723348,
  "lat": 45.0431983,
  "lon": 7.6644637
},
{
  "type": "node",
  "id": 1371723350,
  "lat": 45.0432007,
  "lon": 7.6645212
},
{
  "type": "node",
  "id": 1371723351,
  "lat": 45.0432133,
  "lon": 7.6642651
},
{
  "type": "node",
  "id": 1371723353,
  "lat": 45.0432165,
  "lon": 7.6647180
},
{
  "type": "node",
  "id": 1371723358,
  "lat": 45.0432498,
  "lon": 7.6643831
},
{
  "type": "node",
  "id": 1371723359,
  "lat": 45.0432545,
  "lon": 7.6645963
},
{
  "type": "node",
  "id": 1371723367,
  "lat": 45.0432936,
  "lon": 7.6643809
},
{
  "type": "node",
  "id": 1371723368,
  "lat": 45.0432959,
  "lon": 7.6645952
},
{
  "type": "node",
  "id": 1371723376,
  "lat": 45.0433474,
  "lon": 7.6644538
},
{
  "type": "node",
  "id": 1371723377,
  "lat": 45.0433487,
  "lon": 7.6645173
},
{
  "type": "node",
  "id": 1371723378,
  "lat": 45.0433507,
  "lon": 7.6642573
},
{
  "type": "node",
  "id": 1371723380,
  "lat": 45.0433983,
  "lon": 7.6647048
},
{
  "type": "node",
  "id": 1371723381,
  "lat": 45.0434046,
  "lon": 7.6646407
},
{
  "type": "node",
  "id": 1371723382,
  "lat": 45.0434202,
  "lon": 7.6646197
},
{
  "type": "node",
  "id": 1371723383,
  "lat": 45.0434225,
  "lon": 7.6646650
},
{
  "type": "node",
  "id": 1371723384,
  "lat": 45.0434280,
  "lon": 7.6644584
},
{
  "type": "node",
  "id": 1371723386,
  "lat": 45.0434288,
  "lon": 7.6645103
},
{
  "type": "node",
  "id": 1371723387,
  "lat": 45.0434452,
  "lon": 7.6646572
},
{
  "type": "node",
  "id": 1371723388,
  "lat": 45.0434819,
  "lon": 7.6644275
},
{
  "type": "node",
  "id": 1371723389,
  "lat": 45.0434819,
  "lon": 7.6644562
},
{
  "type": "node",
  "id": 1371723390,
  "lat": 45.0435123,
  "lon": 7.6645103
},
{
  "type": "node",
  "id": 1371723391,
  "lat": 45.0435146,
  "lon": 7.6645578
},
{
  "type": "node",
  "id": 2630362271,
  "lat": 45.0434284,
  "lon": 7.6644823
},
{
  "type": "node",
  "id": 1244292208,
  "lat": 45.0656200,
  "lon": 7.6604817
},
{
  "type": "node",
  "id": 1719223350,
  "lat": 45.0657288,
  "lon": 7.6606651
},
{
  "type": "node",
  "id": 1719223352,
  "lat": 45.0657589,
  "lon": 7.6605788
},
{
  "type": "node",
  "id": 1780623645,
  "lat": 45.0656702,
  "lon": 7.6603403
},
{
  "type": "node",
  "id": 1374502143,
  "lat": 45.0643918,
  "lon": 7.6696607
},
{
  "type": "node",
  "id": 1374502145,
  "lat": 45.0643943,
  "lon": 7.6696303
},
{
  "type": "node",
  "id": 1374502148,
  "lat": 45.0643998,
  "lon": 7.6696988
},
{
  "type": "node",
  "id": 1374502155,
  "lat": 45.0644057,
  "lon": 7.6695957
},
{
  "type": "node",
  "id": 1374502156,
  "lat": 45.0644202,
  "lon": 7.6697263
},
{
  "type": "node",
  "id": 1374502157,
  "lat": 45.0644257,
  "lon": 7.6695766
},
{
  "type": "node",
  "id": 1374502158,
  "lat": 45.0644347,
  "lon": 7.6693061
},
{
  "type": "node",
  "id": 1374502159,
  "lat": 45.0644481,
  "lon": 7.6697433
},
{
  "type": "node",
  "id": 1374502162,
  "lat": 45.0644542,
  "lon": 7.6692443
},
{
  "type": "node",
  "id": 1374502164,
  "lat": 45.0644546,
  "lon": 7.6695646
},
{
  "type": "node",
  "id": 1374502165,
  "lat": 45.0644621,
  "lon": 7.6693372
},
{
  "type": "node",
  "id": 1374502177,
  "lat": 45.0644696,
  "lon": 7.6697482
},
{
  "type": "node",
  "id": 1374502179,
  "lat": 45.0644811,
  "lon": 7.6695194
},
{
  "type": "node",
  "id": 1374502180,
  "lat": 45.0644811,
  "lon": 7.6697398
},
{
  "type": "node",
  "id": 1374502181,
  "lat": 45.0644893,
  "lon": 7.6695760
},
{
  "type": "node",
  "id": 1374502182,
  "lat": 45.0644914,
  "lon": 7.6698194
},
{
  "type": "node",
  "id": 1374502183,
  "lat": 45.0644950,
  "lon": 7.6694735
},
{
  "type": "node",
  "id": 1374502185,
  "lat": 45.0645000,
  "lon": 7.6697871
},
{
  "type": "node",
  "id": 1374502195,
  "lat": 45.0645255,
  "lon": 7.6695547
},
{
  "type": "node",
  "id": 1374502198,
  "lat": 45.0646554,
  "lon": 7.6694944
},
{
  "type": "node",
  "id": 1374502209,
  "lat": 45.0646883,
  "lon": 7.6685991
},
{
  "type": "node",
  "id": 1374502212,
  "lat": 45.0646953,
  "lon": 7.6699619
},
{
  "type": "node",
  "id": 1374502216,
  "lat": 45.0646959,
  "lon": 7.6686353
},
{
  "type": "node",
  "id": 1374502219,
  "lat": 45.0647042,
  "lon": 7.6685532
},
{
  "type": "node",
  "id": 1374502220,
  "lat": 45.0647207,
  "lon": 7.6686231
},
{
  "type": "node",
  "id": 1374502224,
  "lat": 45.0647255,
  "lon": 7.6698866
},
{
  "type": "node",
  "id": 1374502227,
  "lat": 45.0647272,
  "lon": 7.6686563
},
{
  "type": "node",
  "id": 1374502229,
  "lat": 45.0647382,
  "lon": 7.6699424
},
{
  "type": "node",
  "id": 1374502232,
  "lat": 45.0647426,
  "lon": 7.6698789
},
{
  "type": "node",
  "id": 1374502235,
  "lat": 45.0647586,
  "lon": 7.6690245
},
{
  "type": "node",
  "id": 1374502238,
  "lat": 45.0647660,
  "lon": 7.6689051
},
{
  "type": "node",
  "id": 1374502241,
  "lat": 45.0647719,
  "lon": 7.6685106
},
{
  "type": "node",
  "id": 1374502244,
  "lat": 45.0647752,
  "lon": 7.6690972
},
{
  "type": "node",
  "id": 1374502245,
  "lat": 45.0647900,
  "lon": 7.6690101
},
{
  "type": "node",
  "id": 1374502246,
  "lat": 45.0647985,
  "lon": 7.6686245
},
{
  "type": "node",
  "id": 1374502248,
  "lat": 45.0648259,
  "lon": 7.6684859
},
{
  "type": "node",
  "id": 1374502251,
  "lat": 45.0648531,
  "lon": 7.6688652
},
{
  "type": "node",
  "id": 1374502253,
  "lat": 45.0650393,
  "lon": 7.6686274
},
{
  "type": "node",
  "id": 1374502256,
  "lat": 45.0651074,
  "lon": 7.6689400
},
{
  "type": "node",
  "id": 1374502258,
  "lat": 45.0651188,
  "lon": 7.6692819
},
{
  "type": "node",
  "id": 1374502276,
  "lat": 45.0652231,
  "lon": 7.6688895
},
{
  "type": "node",
  "id": 1374502279,
  "lat": 45.0652361,
  "lon": 7.6689492
},
{
  "type": "node",
  "id": 2572059351,
  "lat": 45.0651500,
  "lon": 7.6691933
},
{
  "type": "node",
  "id": 1244292207,
  "lat": 45.0663500,
  "lon": 7.6583889
},
{
  "type": "node",
  "id": 1244292209,
  "lat": 45.0674727,
  "lon": 7.6591856
},
{
  "type": "node",
  "id": 1244292210,
  "lat": 45.0663376,
  "lon": 7.6609802
},
{
  "type": "node",
  "id": 1244292211,
  "lat": 45.0667637,
  "lon": 7.6586782
},
{
  "type": "node",
  "id": 1244292212,
  "lat": 45.0668423,
  "lon": 7.6595321
},
{
  "type": "node",
  "id": 1244292213,
  "lat": 45.0660288,
  "lon": 7.6607652
},
{
  "type": "node",
  "id": 1244292214,
  "lat": 45.0664068,
  "lon": 7.6596771
},
{
  "type": "node",
  "id": 1244292215,
  "lat": 45.0665397,
  "lon": 7.6593205
},
{
  "type": "node",
  "id": 1244292218,
  "lat": 45.0670631,
  "lon": 7.6588992
},
{
  "type": "node",
  "id": 1244292219,
  "lat": 45.0667156,
  "lon": 7.6598921
},
{
  "type": "node",
  "id": 1719223354,
  "lat": 45.0658506,
  "lon": 7.6607503
},
{
  "type": "node",
  "id": 1719223356,
  "lat": 45.0658806,
  "lon": 7.6606642
},
{
  "type": "node",
  "id": 1719223358,
  "lat": 45.0664340,
  "lon": 7.6611570
},
{
  "type": "node",
  "id": 1719223361,
  "lat": 45.0664654,
  "lon": 7.6610669
},
{
  "type": "node",
  "id": 4003054369,
  "lat": 45.0692515,
  "lon": 7.6598164
},
{
  "type": "node",
  "id": 4003054370,
  "lat": 45.0678194,
  "lon": 7.6587865
},
{
  "type": "node",
  "id": 4003054371,
  "lat": 45.0670010,
  "lon": 7.6611575
},
{
  "type": "node",
  "id": 1244292217,
  "lat": 45.0667489,
  "lon": 7.6612606
},
{
  "type": "node",
  "id": 1719223363,
  "lat": 45.0665840,
  "lon": 7.6612619
},
{
  "type": "node",
  "id": 1719223365,
  "lat": 45.0666167,
  "lon": 7.6611681
},
{
  "type": "node",
  "id": 4003054372,
  "lat": 45.0684256,
  "lon": 7.6621660
},
{
  "type": "node",
  "id": 4336785975,
  "lat": 45.0721505,
  "lon": 7.6686716
},
{
  "type": "node",
  "id": 4336785976,
  "lat": 45.0719192,
  "lon": 7.6684956
},
{
  "type": "node",
  "id": 4336785977,
  "lat": 45.0719635,
  "lon": 7.6683787
},
{
  "type": "node",
  "id": 4336785978,
  "lat": 45.0721949,
  "lon": 7.6685547
},
{
  "type": "node",
  "id": 2017932934,
  "lat": 45.0636566,
  "lon": 7.6880444
},
{
  "type": "node",
  "id": 2017932936,
  "lat": 45.0637083,
  "lon": 7.6879032
},
{
  "type": "node",
  "id": 2048050373,
  "lat": 45.0634929,
  "lon": 7.6887512
},
{
  "type": "node",
  "id": 2048050376,
  "lat": 45.0635616,
  "lon": 7.6885581
},
{
  "type": "node",
  "id": 2048050379,
  "lat": 45.0637526,
  "lon": 7.6881170
},
{
  "type": "node",
  "id": 2048050380,
  "lat": 45.0637638,
  "lon": 7.6881725
},
{
  "type": "node",
  "id": 2048050381,
  "lat": 45.0637776,
  "lon": 7.6887122
},
{
  "type": "node",
  "id": 2048050382,
  "lat": 45.0637919,
  "lon": 7.6879623
},
{
  "type": "node",
  "id": 2048050383,
  "lat": 45.0637975,
  "lon": 7.6882439
},
{
  "type": "node",
  "id": 2048050384,
  "lat": 45.0638035,
  "lon": 7.6880047
},
{
  "type": "node",
  "id": 2048050385,
  "lat": 45.0638059,
  "lon": 7.6883668
},
{
  "type": "node",
  "id": 2048050386,
  "lat": 45.0638451,
  "lon": 7.6882597
},
{
  "type": "node",
  "id": 2048050387,
  "lat": 45.0638563,
  "lon": 7.6883747
},
{
  "type": "node",
  "id": 2048050388,
  "lat": 45.0638591,
  "lon": 7.6879742
},
{
  "type": "node",
  "id": 2048050389,
  "lat": 45.0638355,
  "lon": 7.6887620
},
{
  "type": "node",
  "id": 2048050390,
  "lat": 45.0638983,
  "lon": 7.6882566
},
{
  "type": "node",
  "id": 2048050391,
  "lat": 45.0639095,
  "lon": 7.6879901
},
{
  "type": "node",
  "id": 2048050392,
  "lat": 45.0639314,
  "lon": 7.6882802
},
{
  "type": "node",
  "id": 2048050393,
  "lat": 45.0639431,
  "lon": 7.6880337
},
{
  "type": "node",
  "id": 2048050394,
  "lat": 45.0639454,
  "lon": 7.6875765
},
{
  "type": "node",
  "id": 2048050395,
  "lat": 45.0639627,
  "lon": 7.6880892
},
{
  "type": "node",
  "id": 2048050396,
  "lat": 45.0639963,
  "lon": 7.6881132
},
{
  "type": "node",
  "id": 2048050397,
  "lat": 45.0640091,
  "lon": 7.6873976
},
{
  "type": "node",
  "id": 2048050398,
  "lat": 45.0639839,
  "lon": 7.6883275
},
{
  "type": "node",
  "id": 2048050399,
  "lat": 45.0640342,
  "lon": 7.6889056
},
{
  "type": "node",
  "id": 2048050400,
  "lat": 45.0640506,
  "lon": 7.6881586
},
{
  "type": "node",
  "id": 2048050402,
  "lat": 45.0641384,
  "lon": 7.6877142
},
{
  "type": "node",
  "id": 2048050403,
  "lat": 45.0641426,
  "lon": 7.6890057
},
{
  "type": "node",
  "id": 2048050404,
  "lat": 45.0641827,
  "lon": 7.6884690
},
{
  "type": "node",
  "id": 2048050405,
  "lat": 45.0641743,
  "lon": 7.6878010
},
{
  "type": "node",
  "id": 2048050407,
  "lat": 45.0642192,
  "lon": 7.6882772
},
{
  "type": "node",
  "id": 2048050408,
  "lat": 45.0642396,
  "lon": 7.6882190
},
{
  "type": "node",
  "id": 2048050410,
  "lat": 45.0642824,
  "lon": 7.6885935
},
{
  "type": "node",
  "id": 2048050411,
  "lat": 45.0642867,
  "lon": 7.6882520
},
{
  "type": "node",
  "id": 2048050413,
  "lat": 45.0643172,
  "lon": 7.6886171
},
{
  "type": "node",
  "id": 2048050414,
  "lat": 45.0643326,
  "lon": 7.6885716
},
{
  "type": "node",
  "id": 2048050415,
  "lat": 45.0643473,
  "lon": 7.6891448
},
{
  "type": "node",
  "id": 2048050416,
  "lat": 45.0643834,
  "lon": 7.6883315
},
{
  "type": "node",
  "id": 2048050418,
  "lat": 45.0643941,
  "lon": 7.6879449
},
{
  "type": "node",
  "id": 2048050419,
  "lat": 45.0643960,
  "lon": 7.6884168
},
{
  "type": "node",
  "id": 2048050420,
  "lat": 45.0644121,
  "lon": 7.6894070
},
{
  "type": "node",
  "id": 2048050421,
  "lat": 45.0644176,
  "lon": 7.6883557
},
{
  "type": "node",
  "id": 2048050423,
  "lat": 45.0644952,
  "lon": 7.6880151
},
{
  "type": "node",
  "id": 2048050425,
  "lat": 45.0645025,
  "lon": 7.6886871
},
{
  "type": "node",
  "id": 2048050426,
  "lat": 45.0645691,
  "lon": 7.6885393
},
{
  "type": "node",
  "id": 2048050427,
  "lat": 45.0647025,
  "lon": 7.6881618
},
{
  "type": "node",
  "id": 2048050432,
  "lat": 45.0649008,
  "lon": 7.6880339
},
{
  "type": "node",
  "id": 5941324651,
  "lat": 45.0646724,
  "lon": 7.6886755
},
{
  "type": "node",
  "id": 5941324668,
  "lat": 45.0647906,
  "lon": 7.6883433
},
{
  "type": "node",
  "id": 5941325197,
  "lat": 45.0646296,
  "lon": 7.6887958
},
{
  "type": "node",
  "id": 1289322541,
  "lat": 45.0751133,
  "lon": 7.6871747
},
{
  "type": "node",
  "id": 1289322561,
  "lat": 45.0751955,
  "lon": 7.6872302
},
{
  "type": "node",
  "id": 1289322508,
  "lat": 45.0748466,
  "lon": 7.6882317
},
{
  "type": "node",
  "id": 1289322516,
  "lat": 45.0749958,
  "lon": 7.6878228
},
{
  "type": "node",
  "id": 1289322518,
  "lat": 45.0745616,
  "lon": 7.6888119
},
{
  "type": "node",
  "id": 1289322527,
  "lat": 45.0748282,
  "lon": 7.6882192
},
{
  "type": "node",
  "id": 1289322531,
  "lat": 45.0749710,
  "lon": 7.6878061
},
{
  "type": "node",
  "id": 1289322553,
  "lat": 45.0748148,
  "lon": 7.6882591
},
{
  "type": "node",
  "id": 1289322559,
  "lat": 45.0749611,
  "lon": 7.6878353
},
{
  "type": "node",
  "id": 1289322564,
  "lat": 45.0748404,
  "lon": 7.6882765
},
{
  "type": "node",
  "id": 1289322576,
  "lat": 45.0749766,
  "lon": 7.6878458
},
{
  "type": "node",
  "id": 1289322578,
  "lat": 45.0746417,
  "lon": 7.6888660
},
{
  "type": "node",
  "id": 1113972030,
  "lat": 45.0899262,
  "lon": 7.6639142
},
{
  "type": "node",
  "id": 1113972049,
  "lat": 45.0901448,
  "lon": 7.6636639
},
{
  "type": "node",
  "id": 1113972050,
  "lat": 45.0900277,
  "lon": 7.6638284
},
{
  "type": "node",
  "id": 1113972053,
  "lat": 45.0899376,
  "lon": 7.6639213
},
{
  "type": "node",
  "id": 1113972055,
  "lat": 45.0900961,
  "lon": 7.6637441
},
{
  "type": "node",
  "id": 1113972057,
  "lat": 45.0901884,
  "lon": 7.6637315
},
{
  "type": "node",
  "id": 1113972058,
  "lat": 45.0900183,
  "lon": 7.6638056
},
{
  "type": "node",
  "id": 1113972061,
  "lat": 45.0901172,
  "lon": 7.6635938
},
{
  "type": "node",
  "id": 1113972075,
  "lat": 45.0900234,
  "lon": 7.6638532
},
{
  "type": "node",
  "id": 1113972077,
  "lat": 45.0901829,
  "lon": 7.6637694
},
{
  "type": "node",
  "id": 1113972081,
  "lat": 45.0903619,
  "lon": 7.6637822
},
{
  "type": "node",
  "id": 1113972083,
  "lat": 45.0899143,
  "lon": 7.6638898
},
{
  "type": "node",
  "id": 1113972085,
  "lat": 45.0899585,
  "lon": 7.6639174
},
{
  "type": "node",
  "id": 1113972087,
  "lat": 45.0897892,
  "lon": 7.6638533
},
{
  "type": "node",
  "id": 1113972088,
  "lat": 45.0900119,
  "lon": 7.6638752
},
{
  "type": "node",
  "id": 1113972106,
  "lat": 45.0903696,
  "lon": 7.6637296
},
{
  "type": "node",
  "id": 1113972174,
  "lat": 45.0898299,
  "lon": 7.6639565
},
{
  "type": "node",
  "id": 7115542475,
  "lat": 45.0802930,
  "lon": 7.6916611
},
{
  "type": "node",
  "id": 7115542476,
  "lat": 45.0805078,
  "lon": 7.6921456
},
{
  "type": "node",
  "id": 7115542477,
  "lat": 45.0807406,
  "lon": 7.6919203
},
{
  "type": "node",
  "id": 7115542478,
  "lat": 45.0805362,
  "lon": 7.6914551
},
{
  "type": "node",
  "id": 7115542479,
  "lat": 45.0803167,
  "lon": 7.6916612
},
{
  "type": "node",
  "id": 2000036435,
  "lat": 45.0396098,
  "lon": 7.7616476
},
{
  "type": "node",
  "id": 2000036440,
  "lat": 45.0394919,
  "lon": 7.7622045
},
{
  "type": "node",
  "id": 2000036452,
  "lat": 45.0396250,
  "lon": 7.7617334
},
{
  "type": "node",
  "id": 2000036489,
  "lat": 45.0394406,
  "lon": 7.7617115
},
{
  "type": "node",
  "id": 2000036504,
  "lat": 45.0395381,
  "lon": 7.7616530
},
{
  "type": "node",
  "id": 6508545674,
  "lat": 45.0395497,
  "lon": 7.7621835
},
{
  "type": "node",
  "id": 6508545675,
  "lat": 45.0396090,
  "lon": 7.7621600
},
{
  "type": "node",
  "id": 2000036427,
  "lat": 45.0396439,
  "lon": 7.7616905
},
{
  "type": "node",
  "id": 2000036442,
  "lat": 45.0396977,
  "lon": 7.7618803
},
{
  "type": "node",
  "id": 2000036448,
  "lat": 45.0396632,
  "lon": 7.7619158
},
{
  "type": "node",
  "id": 2000036449,
  "lat": 45.0396534,
  "lon": 7.7617951
},
{
  "type": "node",
  "id": 2000036455,
  "lat": 45.0396496,
  "lon": 7.7621331
},
{
  "type": "node",
  "id": 2000036485,
  "lat": 45.0396878,
  "lon": 7.7620419
},
{
  "type": "node",
  "id": 2552715677,
  "lat": 45.0396578,
  "lon": 7.7618494
},
{
  "type": "node",
  "id": 4803554071,
  "lat": 45.0396995,
  "lon": 7.7619466
},
{
  "type": "node",
  "id": 6572216280,
  "lat": 45.0495295,
  "lon": 7.8037253
},
{
  "type": "node",
  "id": 6572216281,
  "lat": 45.0494492,
  "lon": 7.8036625
},
{
  "type": "node",
  "id": 6572216282,
  "lat": 45.0493880,
  "lon": 7.8038189
},
{
  "type": "node",
  "id": 6572216283,
  "lat": 45.0494684,
  "lon": 7.8038818
},
{
  "type": "node",
  "id": 5157309973,
  "lat": 45.0171455,
  "lon": 7.8121972
},
{
  "type": "node",
  "id": 5157309974,
  "lat": 45.0170705,
  "lon": 7.8119944
},
{
  "type": "node",
  "id": 5157309975,
  "lat": 45.0168104,
  "lon": 7.8123912
},
{
  "type": "node",
  "id": 5157309976,
  "lat": 45.0168734,
  "lon": 7.8124737
},
{
  "type": "node",
  "id": 5157309977,
  "lat": 45.0170031,
  "lon": 7.8122757
},
{
  "type": "node",
  "id": 5157309978,
  "lat": 45.0170520,
  "lon": 7.8123398
},
{
  "type": "node",
  "id": 5157309979,
  "lat": 45.0172207,
  "lon": 7.8122958
},
{
  "type": "node",
  "id": 5157309980,
  "lat": 45.0172575,
  "lon": 7.8122397
},
{
  "type": "node",
  "id": 4623341673,
  "lat": 45.1135075,
  "lon": 7.7331075
},
{
  "type": "node",
  "id": 4623341674,
  "lat": 45.1131020,
  "lon": 7.7336401
},
{
  "type": "node",
  "id": 4623341675,
  "lat": 45.1131901,
  "lon": 7.7337622
},
{
  "type": "node",
  "id": 4623341676,
  "lat": 45.1134672,
  "lon": 7.7333913
},
{
  "type": "node",
  "id": 4623341677,
  "lat": 45.1134945,
  "lon": 7.7334322
},
{
  "type": "node",
  "id": 4623341678,
  "lat": 45.1136157,
  "lon": 7.7332698
},
{
  "type": "node",
  "id": 2704141290,
  "lat": 45.2725327,
  "lon": 7.8228288
},
{
  "type": "node",
  "id": 2704141291,
  "lat": 45.2725006,
  "lon": 7.8227886
},
{
  "type": "node",
  "id": 2704141293,
  "lat": 45.2726082,
  "lon": 7.8228771
},
{
  "type": "node",
  "id": 2704141294,
  "lat": 45.2726460,
  "lon": 7.8228154
},
{
  "type": "node",
  "id": 2704141296,
  "lat": 45.2725138,
  "lon": 7.8227295
},
{
  "type": "node",
  "id": 2704141298,
  "lat": 45.2725425,
  "lon": 7.8226770
},
{
  "type": "node",
  "id": 2216725079,
  "lat": 45.0081031,
  "lon": 7.9878696
},
{
  "type": "node",
  "id": 2216725081,
  "lat": 45.0081331,
  "lon": 7.9880197
},
{
  "type": "node",
  "id": 2216725084,
  "lat": 45.0081763,
  "lon": 7.9879519
},
{
  "type": "node",
  "id": 2216725086,
  "lat": 45.0081857,
  "lon": 7.9876889
},
{
  "type": "node",
  "id": 2216725089,
  "lat": 45.0081914,
  "lon": 7.9880781
},
{
  "type": "node",
  "id": 2216725094,
  "lat": 45.0082111,
  "lon": 7.9880369
},
{
  "type": "node",
  "id": 2216725099,
  "lat": 45.0082900,
  "lon": 7.9878563
},
{
  "type": "node",
  "id": 2216725101,
  "lat": 45.0082900,
  "lon": 7.9881844
},
{
  "type": "node",
  "id": 2216725105,
  "lat": 45.0083078,
  "lon": 7.9881432
},
{
  "type": "node",
  "id": 2216725107,
  "lat": 45.0083097,
  "lon": 7.9878124
},
{
  "type": "node",
  "id": 2216725111,
  "lat": 45.0083886,
  "lon": 7.9879559
},
{
  "type": "node",
  "id": 2216725113,
  "lat": 45.0083989,
  "lon": 7.9882946
},
{
  "type": "node",
  "id": 2216725117,
  "lat": 45.0084111,
  "lon": 7.9879187
},
{
  "type": "node",
  "id": 2216725120,
  "lat": 45.0084156,
  "lon": 7.9882689
},
{
  "type": "node",
  "id": 2216725128,
  "lat": 45.0085272,
  "lon": 7.9880547
},
{
  "type": "node",
  "id": 2216682983,
  "lat": 45.0100696,
  "lon": 7.9909717
},
{
  "type": "node",
  "id": 2216682984,
  "lat": 45.0100829,
  "lon": 7.9910675
},
{
  "type": "node",
  "id": 2216682988,
  "lat": 45.0101360,
  "lon": 7.9907726
},
{
  "type": "node",
  "id": 2216682992,
  "lat": 45.0101613,
  "lon": 7.9909360
},
{
  "type": "node",
  "id": 2216683000,
  "lat": 45.0102277,
  "lon": 7.9907369
},
{
  "type": "node",
  "id": 2216683001,
  "lat": 45.0102689,
  "lon": 7.9909961
},
{
  "type": "way",
  "id": 122885008,
  "nodes": [
    1371723390,
    1371723391,
    1371723387,
    1371723382,
    1371723381,
    1371723383,
    1371723380,
    1371723353,
    1371723333,
    1371723332,
    1371723351,
    1371723378,
    1371723388,
    1371723389,
    1371723384,
    2630362271,
    1371723386,
    1371723390
  ]
},
{
  "type": "way",
  "id": 122885009,
  "nodes": [
    1371723376,
    1371723377,
    1371723368,
    1371723359,
    1371723350,
    1371723348,
    1371723358,
    1371723367,
    1371723376
  ]
},
{
  "type": "way",
  "id": 194281283,
  "nodes": [
    2048050376,
    2048050381,
    2048050392,
    2048050390,
    2048050387,
    2048050385,
    2048050386,
    2048050383,
    2048050380,
    2048050379,
    2017932934,
    2017932936,
    2048050382,
    2048050384,
    2048050388,
    2048050391,
    2048050393,
    2048050395,
    2048050396,
    2048050402,
    2048050394,
    2048050397,
    2048050432,
    5941324668,
    5941324651,
    5941325197,
    2048050420,
    2048050373,
    2048050376
  ]
},
{
  "type": "way",
  "id": 194281288,
  "nodes": [
    2048050404,
    2048050399,
    2048050389,
    2048050398,
    2048050404
  ]
},
{
  "type": "way",
  "id": 194281296,
  "nodes": [
    2048050425,
    2048050415,
    2048050403,
    2048050410,
    2048050413,
    2048050414,
    2048050425
  ]
},
{
  "type": "way",
  "id": 194281298,
  "nodes": [
    2048050427,
    2048050426,
    2048050419,
    2048050421,
    2048050416,
    2048050423,
    2048050427
  ]
},
{
  "type": "way",
  "id": 194281299,
  "nodes": [
    2048050418,
    2048050411,
    2048050408,
    2048050407,
    2048050400,
    2048050405,
    2048050418
  ]
}

  ]
}
