{
  "version": 0.6,
  "generator": "Overpass API 0.7.55.1011 6c2efc30",
  "osm3s": {
    "timestamp_osm_base": "2020-02-14T18:41:02Z",
    "copyright": "The data included in this document is from www.openstreetmap.org. The data is made available under ODbL."
  },
  "elements": [

{
  "type": "node",
  "id": 325183408,
  "lat": 54.6829936,
  "lon": 25.2914731,
  "tags": {
    "addr:city": "Vilnius",
    "addr:contact": "yes",
    "addr:housenumber": "8",
    "addr:postcode": "01124",
    "addr:street": "Šv. Mykolo g.",
    "email": "info@ambergallery.lt",
    "name": "Gintaro galerija-muziejus",
    "name:be": "Галерэя-музей бурштыну",
    "name:en": "Amber Museum-Gallery",
    "name:lt": "Gintaro galerija-muziejus",
    "name:pl": "Muzeum-galeria bursztynu",
    "name:ru": "Музей-галерея янтаря",
    "opening_hours": "Mo-Su 10:00-19:00",
    "phone": "+37052623092",
    "tourism": "museum",
    "website": "http://www.ambergallery.lt"
  }
},
{
  "type": "node",
  "id": 325183533,
  "lat": 54.6833738,
  "lon": 25.2916966,
  "tags": {
    "addr:city": "Vilnius",
    "addr:contact": "yes",
    "addr:housenumber": "11",
    "addr:postcode": "01124",
    "addr:street": "Bernardinų g.",
    "alt_name": "Adomas Mickevičius (Adam Mickiewicz) Memorial Apartment",
    "description": "A. Mickevičiaus muziejus yra įsikūręs memorialiniame poeto bute, kuriame jis dirbo prie kūrinio „Gražina“. Muziejuje yra renkama, saugoma, tyrinėjama ir aktualizuojama sukaupta medžiaga, susijusi su A. Mickevičiaus kūryba ir veikla.",
    "email": "rimantas.salna@mb.vu.lt",
    "image": "http://www.bendrukeliu.lt/site/gallery/190/mickeviciaus-muziejus.jpg",
    "museum_type": "departmental",
    "name": "Adomo Mickevičiaus memorialinis muziejus",
    "name:be": "Мемарыяльны музей Адама Міцкевіча",
    "name:en": "Adam Mickiewicz Memorial Apartment",
    "name:lt": "Adomo Mickevičiaus memorialinis muziejus",
    "name:pl": "Muzeum pamiątkowe Adama Mickiewicza",
    "name:ru": "Мемориальный музей-квартира Адама Мицкевича",
    "official_name": "Vilniaus universiteto bibliotekos Adomo Mickevičiaus muziejus",
    "opening_hours": "Tu-Fr 10:00-17:00; Sa-Su 10:00-14:00",
    "phone": "+370852791879",
    "tourism": "museum",
    "website": "http://www.bendrukeliu.lt/lt/a-mickeviciaus-memorialinis-muziejus.htm"
  }
},
{
  "type": "node",
  "id": 427910141,
  "lat": 54.6880230,
  "lon": 25.2706894,
  "tags": {
    "addr:city": "Vilnius",
    "addr:housenumber": "2A",
    "addr:postcode": "01113",
    "addr:street": "Aukų g.",
    "alt_name": "KGB Museum",
    "description": "Former Soviet NKVD and KGB prison, 1940 - 1991.",
    "email": "muziejus@genocid.lt",
    "image": "https://upload.wikimedia.org/wikipedia/commons/d/d2/Lietuvos_apeliacinis_teismas._2006-08-10.jpg",
    "museum_type": "departmental",
    "name": "Genocido aukų muziejus",
    "name:be": "Музей ахвяр генацыду",
    "name:ca": "Museu de les víctimes del genocidi",
    "name:de": "Museum der Opfer des Genozids",
    "name:en": "The Museum of Genocide Victims",
    "name:es": "Museo de las víctimas del genocidio",
    "name:he": "המוזיאון לקורבנות השואה",
    "name:lt": "Genocido aukų muziejus",
    "name:pl": "Muzeum Ofiar Ludobójstwa",
    "name:ru": "Музей жертв геноцида",
    "name:zh": "大屠殺受害者博物館",
    "opening_hours": "We-Sa 10:00-18:00; Su 10:00-17:00",
    "tourism": "museum",
    "website": "http://genocid.lt/muziejus/",
    "wikidata": "Q323860",
    "wikipedia": "lt:Okupacijų ir laisvės kovų muziejus"
  }
},
{
  "type": "node",
  "id": 748146971,
  "lat": 54.7726123,
  "lon": 24.8141954,
  "tags": {
    "addr:city": "Vievis",
    "addr:contact": "yes",
    "addr:housenumber": "14",
    "addr:postcode": "21372",
    "addr:street": "Kauno g.",
    "description": "Muziejuje sukaupta daug muziejinę vertę turinčių eksponatų, pradedant nuo Romos imperijos laikų iki šių dienų. Eksponuojami senieji Lietuvos žemėlapiai, nuotraukų albumai, sukaupta daug knygų, žurnalų apie kelių tiesimą.",
    "email": "keliu.muziejus@automagistrale.lt",
    "image": "https://upload.wikimedia.org/wikipedia/commons/6/6e/Vievis%2C_keli%C5%B3_muziejus%2C_eksponatai.JPG",
    "museum_type": "departmental",
    "name": "Lietuvos kelių muziejus",
    "official_name": "Kelių muziejus",
    "opening_hours": "Mo-Fr 8:00-17:00",
    "phone": "+370 528 26 913",
    "tourism": "museum",
    "website": "https://www.muziejai.lt/Elektrenai/Keliu_muziejus.htm",
    "wikidata": "Q12857435",
    "wikipedia": "lt:Lietuvos kelių muziejus"
  }
},
{
  "type": "node",
  "id": 836234960,
  "lat": 54.6770904,
  "lon": 25.2738379,
  "tags": {
    "addr:city": "Vilnius",
    "addr:contact": "yes",
    "addr:housenumber": "15",
    "addr:postcode": "03215",
    "addr:street": "Mindaugo g.",
    "name": "Lietuvos geležinkelių muziejus",
    "name:en": "Railway Museum of Lithuania",
    "name:lt": "Lietuvos geležinkelių muziejus",
    "name:pl": "Muzeum kolei litewskich",
    "name:ru": "Литовский железнодорожный музей",
    "tourism": "museum"
  }
},
{
  "type": "node",
  "id": 836234983,
  "lat": 54.6771752,
  "lon": 25.2770533,
  "tags": {
    "addr2:housenumber": "2",
    "addr2:street": "Aguonų g.",
    "addr:city": "Vilnius",
    "addr:contact": "yes",
    "addr:housenumber": "10",
    "addr:postcode": "01141",
    "addr:street": "Naugarduko g.",
    "museum_type": "republican",
    "name": "Tolerancijos centras",
    "name:en": "Tolerance Center",
    "name:lt": "Tolerancijos centras",
    "name:pl": "Centrum tolerancji",
    "name:ru": "Центр Толерантности",
    "operator": "Valstybinis Vilniaus Gaono žydų muziejus",
    "phone": "+370 5 231 2357",
    "tourism": "museum",
    "website": "http://www.jmuseum.lt",
    "wikidata": "Q3013998"
  }
},
{
  "type": "node",
  "id": 948810622,
  "lat": 54.6828102,
  "lon": 25.2922394,
  "tags": {
    "addr:city": "Vilnius",
    "addr:contact": "yes",
    "addr:housenumber": "9",
    "addr:street": "Maironio g.",
    "name": "Bažnytinio paveldo muziejus",
    "name:be": "Музей касцёльнай спадчыны",
    "name:en": "Musem of the church legacy",
    "name:lt": "Bažnytinio paveldo muziejus",
    "name:pl": "Muzeum Dziedzictwa Sakralnego",
    "name:ru": "Музей костельного наследия",
    "name:uk": "Музей костьольної спадщини",
    "tourism": "museum"
  }
},
{
  "type": "node",
  "id": 1468772543,
  "lat": 54.8855872,
  "lon": 24.8538172,
  "tags": {
    "addr:city": "Kernavė",
    "addr:housenumber": "4A",
    "addr:postcode": "19172",
    "addr:street": "Kerniaus g.",
    "description": "Valstybinių švenčių dienomis muziejus nedirba.",
    "email": "direkcija@kernave.org",
    "museum_type": "republican",
    "name": "Kernavės archeologijos ir istorijos muziejus",
    "official_name": "Valstybinio Kernavės kultūrinio rezervato direkcija / Kernavės archeologinės vietovės muziejus",
    "opening_hours_text": "trečiadienį - sekmadienį 10-18 val. (birželio - rugpjučio mėn.), antradienį - šeštadienį 10-18 val. (balandžio - gegužės, rugsėjo - spalio mėn.), 10-16 val. (lapkričio - kovo mėn.).",
    "phone": "+370 382 47 371",
    "tourism": "museum",
    "website": "http://www.kernave.org"
  }
},
{
  "type": "node",
  "id": 1657380102,
  "lat": 54.6831727,
  "lon": 25.2318922,
  "tags": {
    "addr:city": "Vilnius",
    "addr:contact": "yes",
    "addr:housenumber": "110",
    "addr:street": "M. K. Čiurlionio g.",
    "image": "http://www.botanikos-sodas.vu.lt/images/lt/vingis2.jpg",
    "name": "Vilniaus universiteto Botanikos sodas (Vingio skyrius)",
    "name:lt": "Vilniaus universiteto Botanikos sodas (Vingio skyrius)",
    "name:pl": "Ogród botaniczny uniwersytetu wileńskiego",
    "name:ru": "Ботанический сад Вильнюсского университета",
    "tourism": "museum",
    "website": "https://www.botanikos-sodas.vu.lt/lt/skyriai/vingio-skyrius"
  }
},
{
  "type": "node",
  "id": 1660654788,
  "lat": 54.6813187,
  "lon": 25.2809898,
  "tags": {
    "addr:city": "Vilnius",
    "addr:contact": "yes",
    "addr:housenumber": "41",
    "addr:postcode": "01119",
    "addr:street": "Vilniaus g.",
    "email": "ltmkm@takas.lt",
    "image": "http://www.ltmkm.lt/images/thumbnail/?id=279;w=1496;h=700;",
    "museum_type": "republican",
    "name": "Lietuvos teatro, muzikos ir kino muziejus",
    "name:en": "Lithuanian Museum of Theater, Music and Cinema",
    "name:lt": "Lietuvos teatro, muzikos ir kino muziejus",
    "name:pl": "Litewskie muzeum teatru, muzyki i kina",
    "name:ru": "Литовский музей театра, музыки и кино",
    "opening_hours": "Tu-Fr 11:00-18:00; Sa 11:00-16:00",
    "phone": "+370 5 262 2406",
    "tourism": "museum",
    "website": "http://www.ltmkm.lt"
  }
},
{
  "type": "node",
  "id": 1660667767,
  "lat": 54.6699673,
  "lon": 25.2837975,
  "tags": {
    "addr:city": "Vilnius",
    "addr:contact": "yes",
    "addr:housenumber": "16",
    "addr:postcode": "01047",
    "addr:street": "Geležinkelio g.",
    "email": "muziejus@litrail.lt",
    "image": "http://www.muziejai.lt/vilnius/images2011/gelezinkeliu_muziejus.jpg",
    "museum_type": "departmental",
    "name": "Geležinkelių muziejus",
    "name:be": "Чыгуначны музей",
    "name:de": "Eisenbahnmuseum",
    "name:en": "Railway Museum",
    "name:lt": "Geležinkelių muziejus",
    "name:pl": "Muzeum Kolejnictwa w Wilnie",
    "name:ru": "Литовский железнодорожный музей",
    "opening_hours": "Tu-Fr 9:00-17:00; Sa 9:00-16:00",
    "phone": "+370852693741",
    "tourism": "museum",
    "website": "https://www.muziejai.lt/vilnius/gelezinkeliu_muziejus.htm",
    "wheelchair": "yes"
  }
},
{
  "type": "node",
  "id": 1885116687,
  "lat": 54.6865081,
  "lon": 25.2824605,
  "tags": {
    "addr:city": "Vilnius",
    "addr:contact": "yes",
    "addr:housenumber": "8",
    "addr:postcode": "01121",
    "addr:street": "Gedimino pr.",
    "alt_name": "Pinigų muziejus",
    "email": "muziejus@lb.lt",
    "image": "http://www.lb.lt/lb_pinigu_muziejus/n508/logo.jpg",
    "museum_type": "departmental",
    "name": "Lietuvos banko Pinigų muziejus",
    "name:be": "Музей грошай Банка Літвы",
    "name:de": "Geldmuseum",
    "name:en": "Bank of Lithuania Money Museum",
    "name:lt": "Lietuvos banko Pinigų muziejus",
    "name:pl": "Muzeum Pieniądza Banku Litewskiego",
    "opening_hours": "Mo-Fr 09:00-17:00",
    "phone": "+370 5 268 0334",
    "tourism": "museum",
    "website": "http://www.pinigumuziejus.lt/",
    "wikipedia": "lt:Lietuvos banko Pinigų muziejus"
  }
},
{
  "type": "node",
  "id": 2335224199,
  "lat": 54.6849327,
  "lon": 25.2917184,
  "tags": {
    "addr:city": "Vilnius",
    "addr:contact": "yes",
    "addr:housenumber": "2",
    "addr:postcode": "01124",
    "addr:street": "Šiltadaržio g.",
    "email": "info@zaislumuziejus.lt",
    "museum_type": "institutional",
    "name": "Žaislų muziejus",
    "name:be": "Музей цацак",
    "name:en": "Toy museum",
    "name:lt": "Žaislų muziejus",
    "name:pl": "Muzeum zabawek",
    "name:ru": "Музей игрушек",
    "opening_hours": "We-Fr 15:00-20:00; Sa-Su 11:00-16:00",
    "phone": "+370 604 00 449",
    "tourism": "museum",
    "website": "http://www.zaislumuziejus.lt/"
  }
},
{
  "type": "node",
  "id": 2518588159,
  "lat": 54.6809190,
  "lon": 25.2976703,
  "tags": {
    "addr:city": "Vilnius",
    "addr:contact": "yes",
    "addr:housenumber": "26",
    "addr:street": "Užupio g.",
    "email": "info@vilniauskalviai.lt",
    "museum_type": "private",
    "name": "Užupio kalvystės galerija-muziejus",
    "opening_hours": "Tu-Fr 10:30-18:30; Sa 10:30-16:30",
    "phone": "+370 5 215 3757",
    "tourism": "museum",
    "website": "https://muziejai.lt/Vilnius/kalvystes_gal_muz.htm"
  }
},
{
  "type": "node",
  "id": 2811970427,
  "lat": 54.6783185,
  "lon": 25.2849288,
  "tags": {
    "addr:city": "Vilnius",
    "addr:contact": "yes",
    "addr:housenumber": "6",
    "addr:street": "Vokiečių g.",
    "name": "Iliuzijų muziejus",
    "opening_hours": "Mo-Fr 10:00-21:00",
    "tourism": "museum",
    "website": "http://www.vilnil.lt"
  }
},
{
  "type": "node",
  "id": 3238450913,
  "lat": 54.5401403,
  "lon": 25.6511087,
  "tags": {
    "museum_type": "republican",
    "name": "Medininkų pilis",
    "name:be": "Медніцкі замак",
    "name:lt": "Medininkų pilis",
    "name:pl": "Zamek w Miednikach Królewskich",
    "opening_hours": "Apr-Oct We-Su 10:00-18:00; Nov-Mar We-Su 09:00-17:00",
    "phone": "+370 5 250 5595",
    "tourism": "museum",
    "website": "https://muziejai.lt/Trakai/traku_muziejus.htm",
    "wheelchair": "yes"
  }
},
{
  "type": "node",
  "id": 3254847269,
  "lat": 54.6807280,
  "lon": 25.2901090,
  "tags": {
    "addr:city": "Vilnius",
    "addr:contact": "yes",
    "addr:housenumber": "5",
    "addr:postcode": "01126",
    "addr:street": "Bokšto g.",
    "email": "muziejus@ldm.lt",
    "museum_type": "national",
    "name": "Lietuvos dailės muziejus",
    "name:be": "Літоўскі мастацкі музей",
    "name:en": "Lithuanian art museum",
    "name:lt": "Lietuvos dailės muziejus",
    "name:pl": "Litewskie muzeum sztuki",
    "name:ru": "Литовский художественный музей",
    "phone": "+370852628030",
    "tourism": "museum",
    "website": "https://www.ldm.lt/",
    "wikidata": "Q1865041"
  }
},
{
  "type": "node",
  "id": 3259752814,
  "lat": 54.6783500,
  "lon": 25.2878320,
  "tags": {
    "addr:city": "Vilnius",
    "addr:contact": "yes",
    "addr:housenumber": "26",
    "addr:postcode": "01128",
    "addr:street": "Didžioji g.",
    "description": "Lankytojai priimami tik iš anksto susitarus telefonu (8 ~ 5) 279 16 44",
    "email": "k.varnelio.muziejus@lnm.lt",
    "museum_type": "national",
    "name": "Kazio Varnelio namai-muziejus",
    "opening_hours": "Tu-Sa 10:00-16:00",
    "phone": "+370 5 279 1644",
    "tourism": "museum",
    "website": "http://www.lnm.lt"
  }
},
{
  "type": "node",
  "id": 3259759997,
  "lat": 54.6823210,
  "lon": 25.2892650,
  "tags": {
    "addr:city": "Vilnius",
    "addr:contact": "yes",
    "addr:housenumber": "26",
    "addr:postcode": "01128",
    "addr:street": "Didžioji g.",
    "email": "signataru.namai@lnm.lt",
    "museum_type": "national",
    "name": "Signatarų namai",
    "name:en": "House of the Signatories",
    "name:lt": "Signatarų namai",
    "name:pl": "Dom Sygnatariuszy",
    "opening_hours": "Tu-Sa 10:00-17:00",
    "phone": "+370 5 231 4437",
    "tourism": "museum",
    "website": "http://www.lnm.lt/signataru-namai/"
  }
},
{
  "type": "node",
  "id": 3352633875,
  "lat": 54.6456619,
  "lon": 24.9363370,
  "tags": {
    "addr:city": "Trakai",
    "addr:housenumber": "4",
    "addr:postcode": "21104",
    "addr:street": "Kęstučio g.",
    "email": "info@trakaimuziejus.lt",
    "museum_type": "republican",
    "name": "Trakų istorijos muziejus",
    "name:lt": "Trakų istorijos muziejus",
    "name:pl": "Trockie muzeum historii",
    "phone": "+370 528 53 941",
    "tourism": "museum",
    "website": "http://www.trakaimuziejus.lt"
  }
},
{
  "type": "node",
  "id": 3459082435,
  "lat": 54.6860314,
  "lon": 25.2719770,
  "tags": {
    "addr:city": "Vilnius",
    "addr:contact": "yes",
    "addr:housenumber": "10",
    "addr:postcode": "01114",
    "addr:street": "Tauro g.",
    "email": "info.putino@vilniausmuziejai.lt",
    "museum_type": "municipal",
    "name": "Vinco Mykolaičio Putino memorialinis butas-muziejus",
    "opening_hours": "Tu-Sa 10:00-17:00",
    "phone": "+370 5 262 4480",
    "tourism": "museum",
    "website": "http://www.vilniausmuziejai.lt/putinas/apie_muzieju.php"
  }
},
{
  "type": "node",
  "id": 3459084024,
  "lat": 54.6861066,
  "lon": 25.2719721,
  "tags": {
    "addr:city": "Vilnius",
    "addr:contact": "yes",
    "addr:housenumber": "10",
    "addr:postcode": "01114",
    "addr:street": "Tauro g.",
    "description": "Ekskursijos užsakomos tel. (8 ~ 5) 2620148",
    "email": "kreve@takas.lt",
    "museum_type": "municipal",
    "name": "Vinco Krėvės-Mickevičiaus memorialinis muziejus",
    "opening_hours": "Tu-Sa 10:00-17:00",
    "phone": "+370 5 262 0148",
    "tourism": "museum",
    "website": "http://www.vilniausmuziejai.lt/kreve/kreve.htm"
  }
},
{
  "type": "node",
  "id": 3461138847,
  "lat": 54.6897360,
  "lon": 25.2772890,
  "tags": {
    "addr:city": "Vilnius",
    "addr:contact": "yes",
    "addr:housenumber": "12",
    "addr:postcode": "01104",
    "addr:street": "A. Goštauto g.",
    "contact:mobile": "+370 678 83 655",
    "email": "info.grinceviciutes@vilniausmuziejai.lt",
    "museum_type": "municipal",
    "name": "B. Grincevičiutės memorialinis butas-muziejus Beatričės namai",
    "phone": "+370 5 261 7422",
    "tourism": "museum",
    "website": "http://beatricesnamai.lt"
  }
},
{
  "type": "node",
  "id": 3461184791,
  "lat": 54.8466150,
  "lon": 25.4649940,
  "tags": {
    "addr:city": "Nemenčinė",
    "addr:housenumber": "14",
    "addr:postcode": "15168",
    "addr:street": "Švenčionių g.",
    "email": "mew.vkem@gmail.com",
    "museum_type": "municipal",
    "name": "Vilniaus krašto etnografijos muziejus",
    "opening_hours": "We-Sa 11:00-17:00; Su 11:00-15:00",
    "phone": "+370 5 237 1382",
    "tourism": "museum",
    "website": "https://muziejai.lt/Vilnius/Vilniaus_krasto_muziejus.htm"
  }
},
{
  "type": "node",
  "id": 3464835097,
  "lat": 54.6861591,
  "lon": 25.2734254,
  "tags": {
    "addr:city": "Vilnius",
    "addr:contact": "yes",
    "addr:housenumber": "34",
    "addr:postcode": "01114",
    "addr:street": "Pamėnkalnio g.",
    "email": "vmmd@vilniausmuziejai.lt",
    "museum_type": "municipal",
    "name": "Vilniaus memorialinių muziejų direkcija",
    "opening_hours": "Mo-Fr 10:00-18:00",
    "phone": "+370 5 262 8525",
    "tourism": "museum",
    "website": "http://www.vilniausmuziejai.lt/direkcija.php"
  }
},
{
  "type": "node",
  "id": 3472732637,
  "lat": 54.6861422,
  "lon": 25.2734855,
  "tags": {
    "addr:city": "Vilnius",
    "addr:contact": "yes",
    "addr:housenumber": "34",
    "addr:postcode": "01114",
    "addr:street": "Pamėnkalnio g.",
    "contact:mobile": "+370 678 83 665",
    "email": "info.venclovos@vilniausmuziejai.lt",
    "museum_type": "municipal",
    "name": "Venclovų namai-muziejus",
    "opening_hours": "Mo-Fr 10:00-17:00",
    "phone": "+370 5 262 8525",
    "tourism": "museum",
    "website": "http://www.vilniausmuziejai.lt/venclova/index.htm"
  }
},
{
  "type": "node",
  "id": 3488363281,
  "lat": 54.6814620,
  "lon": 25.2893860,
  "tags": {
    "addr:city": "Vilnius",
    "addr:contact": "yes",
    "addr:housenumber": "40",
    "addr:postcode": "01123",
    "addr:street": "Pilies g.",
    "email": "slapeliumuziejus@gmail.com",
    "museum_type": "municipal",
    "name": "Marijos ir Jurgio Šlapelių namas-muziejus",
    "name:en": "Marija and Jurgis Šapelis home museum",
    "name:lt": "Marijos ir Jurgio Šlapelių namas-muziejus",
    "name:pl": "Dom-muzeum Marii i Jurgisa Šlapelisów",
    "opening_hours": "We-Su 11:00-16:00",
    "phone": "+370 5 261 0771",
    "tourism": "museum",
    "website": "https://muziejai.lt/Vilnius/Slapeliu_muziejus.htm"
  }
},
{
  "type": "node",
  "id": 3498880020,
  "lat": 54.6834335,
  "lon": 25.2940182,
  "tags": {
    "addr:city": "Vilnius",
    "addr:contact": "yes",
    "addr:housenumber": "6",
    "addr:postcode": "01124",
    "addr:street": "Maironio g.",
    "email": "muziejus@vda.lt",
    "museum_type": "departmental",
    "name": "Vilniaus dailės akademijos muziejus",
    "name:be": "Музей Віленскай мастацкай акадэміі",
    "name:lt": "Vilniaus dailės akademijos muziejus",
    "name:pl": "Muzeum akademii sztuk pięknych w Wilnie",
    "name:ru": "Музей Вильнюсской художественной академии",
    "opening_hours": "Tu-Sa 12:00-18:00",
    "phone": "+370852100136",
    "tourism": "museum",
    "website": "https://www.vda.lt/lt/muziejus",
    "wikidata": "Q16476382",
    "wikipedia": "lt:Vilniaus dailės akademijos muziejus"
  }
},
{
  "type": "node",
  "id": 3498940776,
  "lat": 54.8308756,
  "lon": 25.3516217,
  "tags": {
    "addr:city": "Joneikiškės",
    "addr:contact": "yes",
    "addr:housenumber": "300",
    "addr:street": "Europos Parko g.",
    "email": "hq@europosparkas.lt",
    "museum_type": "institutional",
    "name": "Europos centro muziejus Europos parkas",
    "name:lt": "Europos centro muziejus Europos parkas",
    "name:ru": "Парк Европы",
    "phone": "+370 5 237 7077",
    "tourism": "museum",
    "website": "http://www.europosparkas.lt",
    "wikidata": "Q1265098",
    "wikipedia": "lt:Europos parkas"
  }
},
{
  "type": "node",
  "id": 3512258776,
  "lat": 54.6907930,
  "lon": 25.2766890,
  "tags": {
    "addr:city": "Vilnius",
    "addr:contact": "yes",
    "addr:housenumber": "2",
    "addr:postcode": "01104",
    "addr:street": "A. Goštauto g.",
    "description": "Muziejus lankomas tik iš anksto susitarus telefonu",
    "email": "liuciva@gmail.com",
    "museum_type": "departmental",
    "name": "Stasio Vainiūno namai-muziejus",
    "phone": "+37069990035",
    "tourism": "museum",
    "website": "https://muziejai.lt/Vilnius/vainiuno_muz.htm"
  }
},
{
  "type": "node",
  "id": 3512299556,
  "lat": 54.6954480,
  "lon": 25.3043830,
  "tags": {
    "addr:city": "Vilnius",
    "addr:contact": "yes",
    "addr:housenumber": "5",
    "addr:postcode": "10308",
    "addr:street": "P. Vileišio g.",
    "description": "Muziejų galima aplankyti kiekvieną darbo dieną iš anksto susitarus telefonu arba elektroniniu paštu.",
    "email": "lituanistika@lki.lt",
    "museum_type": "departmental",
    "name": "Kalbos muziejus",
    "name:lt": "Kalbos muziejus",
    "name:pl": "Muzeum języków",
    "phone": "+370 5 263 8112",
    "tourism": "museum",
    "website": "http://lki.lt/"
  }
},
{
  "type": "node",
  "id": 3512322130,
  "lat": 54.7217840,
  "lon": 25.3315040,
  "tags": {
    "addr:city": "Vilnius",
    "addr:contact": "yes",
    "addr:housenumber": "9",
    "addr:postcode": "10222",
    "addr:street": "Saulėtekio al.",
    "description": "III korpusas 405 auditorija. Muziejus lankomas iš anksto susitarus. Kreiptis į Bendrosios fizikos ir spektroskopijos katedrą (410 kambarys) 9-13 val. Tel. (8 ~ 5) 236 60 40",
    "email": "liudvikas.kimtys@ff.vu.lt",
    "museum_type": "departmental",
    "name": "Vilniaus universiteto Fizikos muziejus",
    "phone": "+370852366040",
    "tourism": "museum",
    "website": "https://muziejai.lt/Vilnius/Fizikos_muz.htm"
  }
},
{
  "type": "node",
  "id": 3512342301,
  "lat": 54.6698610,
  "lon": 25.2566100,
  "tags": {
    "addr:city": "Vilnius",
    "addr:contact": "yes",
    "addr:housenumber": "10",
    "addr:postcode": "03142",
    "addr:street": "Skroblų g.",
    "email": "info@labiblioteka.lt",
    "museum_type": "departmental",
    "name": "Lietuvos aklųjų istorijos muziejus",
    "phone": "+370 5 215 0615",
    "tourism": "museum",
    "website": "http://muziejai.lt/Vilnius/akluju_muziejus.htm"
  }
},
{
  "type": "node",
  "id": 3529939318,
  "lat": 54.6778530,
  "lon": 25.2683550,
  "tags": {
    "addr:city": "Vilnius",
    "addr:contact": "yes",
    "addr:housenumber": "13",
    "addr:postcode": "03223",
    "addr:street": "T. Ševčenkos g.",
    "email": "poskiene@geo.lt",
    "museum_type": "departmental",
    "name": "Mineralų muziejus",
    "opening_hours": "Mo 13:00-17:00; Tu 11:00-15:00; We 11:00-15:00; Th 10:00-14:00; Fr 13:00-17:00",
    "phone": "+370 5 210 4716",
    "tourism": "museum",
    "website": "https://www.muziejai.lt/Muziejus.lt.asp?Db_kodas=3151&meniu=0"
  }
},
{
  "type": "node",
  "id": 3529939319,
  "lat": 54.7450710,
  "lon": 25.2792400,
  "tags": {
    "addr:city": "Vilnius",
    "addr:contact": "yes",
    "addr:housenumber": "25",
    "addr:postcode": "08420",
    "addr:street": "Jeruzalės g.",
    "email": "arvydas.pranevicius@cust.lt",
    "museum_type": "departmental",
    "name": "Muitinės muziejus",
    "phone": "+370 5 279 6346",
    "tourism": "museum",
    "website": "https://www.lrmuitine.lt/web/guest/apiemus/muziejus"
  }
},
{
  "type": "node",
  "id": 3529939320,
  "lat": 54.7592950,
  "lon": 25.2664720,
  "tags": {
    "addr:city": "Vilnius",
    "addr:contact": "yes",
    "addr:housenumber": "14",
    "addr:street": "Jono Kairiūkščio g.",
    "email": "alvyde.brazinskiene@mil.lt",
    "museum_type": "departmental",
    "name": "Pirmojo pėstininkų didžiojo Lietuvos kunigaikščio Gedimino pulko štabo bataliono Gediminaičių muziejus",
    "phone": "+370 5 278 5151",
    "tourism": "museum",
    "website": "http://kariuomene.kam.lt/lt/kariuomenes_struktura/gedimino_stabo_batalionas/muziejus_1835.html"
  }
},
{
  "type": "node",
  "id": 3529939323,
  "lat": 54.6751310,
  "lon": 25.2735505,
  "tags": {
    "addr:city": "Vilnius",
    "addr:contact": "yes",
    "addr:housenumber": "24",
    "addr:postcode": "03225",
    "addr:street": "Naugarduko g.",
    "description": "lankytojai priimami iš anksto susitarus tel.: (8 ~ 5) 233 22 28, (8 ~ 5) 233 60 22",
    "email": "vita.verikaite@maf.vu.lt",
    "museum_type": "departmental",
    "name": "Vilniaus universiteto Lietuvos matematikų muziejus",
    "name:lt": "Vilniaus universiteto Lietuvos matematikų muziejus",
    "name:ru": "Музей литовской математики Вильнюсского университета",
    "phone": "+370852193082",
    "tourism": "museum",
    "website": "http://www.matmuziejus.mif.vu.lt/"
  }
},
{
  "type": "node",
  "id": 3529939324,
  "lat": 54.6825205,
  "lon": 25.2597092,
  "tags": {
    "addr:city": "Vilnius",
    "addr:contact": "yes",
    "addr:housenumber": "21",
    "addr:postcode": "03101",
    "addr:street": "M. K. Čiurlionio g.",
    "museum_type": "departmental",
    "name": "Vilniaus universiteto Medicinos fakulteto medicinos istorijos muziejus",
    "opening_hours": "Mo-Fr 8:00-17:00",
    "phone": "+370 5 239 8743",
    "tourism": "museum",
    "website": "https://muziejai.lt/Vilnius/VU_medicinos_ist.htm"
  }
},
{
  "type": "node",
  "id": 3571601993,
  "lat": 54.7039450,
  "lon": 25.3131190,
  "tags": {
    "addr:city": "Vilnius",
    "addr:contact": "yes",
    "addr:housenumber": "5A",
    "addr:postcode": "10322",
    "addr:street": "Šilo g.",
    "description": "Lankytojai priimami tik iš anksto susitarus pirmadieniais - penktadieniais 13-15 val.",
    "email": "egle.trataite@mil.lt",
    "museum_type": "departmental",
    "name": "Generolo Jono Žemaičio Lietuvos karo akademijos muziejus",
    "phone": "+370 5 210 3513",
    "tourism": "museum",
    "website": "http://www.lka.lt/index.php/lt/115286/"
  }
},
{
  "type": "node",
  "id": 3571601997,
  "lat": 54.6776730,
  "lon": 25.2499740,
  "tags": {
    "addr:city": "Vilnius",
    "addr:contact": "yes",
    "addr:housenumber": "49",
    "addr:postcode": "03123",
    "addr:street": "S. Konarskio g.",
    "email": "raiimp@lrt.lt",
    "museum_type": "departmental",
    "name": "Lietuvos radijo ir televizijos muziejus",
    "name:lt": "Lietuvos radijo ir televizijos muziejus",
    "name:pl": "Litewskie muzeum radia i telewizji",
    "name:ru": "Литовский музей радио и телевидения",
    "opening_hours": "Mo-Th 10:00-17:00; Fr 10:00-15:45",
    "phone": "+370852363214",
    "tourism": "museum",
    "website": "https://apie.lrt.lt/apsilankykite/muziejus"
  }
},
{
  "type": "node",
  "id": 3571602001,
  "lat": 54.6981260,
  "lon": 25.3027670,
  "tags": {
    "addr:city": "Vilnius",
    "addr:contact": "yes",
    "addr:housenumber": "1F",
    "addr:postcode": "09101",
    "addr:street": "Žirmūnų g.",
    "contact:phone": "+370 5 275 1223",
    "description": "Tuskulėnų dvaras dirba trečiadieniais - šeštadieniais 10-18 val.; pirmad., antrad., sekmad. nedirba; koplyčia kolumbariumas dirba pirmadieniais - antradieniais 9 - 16 val., trečiadieniais - šeštadieniais 10 - 18 val., sekmadieniais 10 - 17 val.",
    "email": "tuskulenai@genocid.lt",
    "museum_type": "departmental",
    "name": "Tuskulėnų rimties parko memorialinis kompleksas",
    "phone": "+370 5 275 0704",
    "tourism": "museum",
    "website": "http://genocid.lt/tuskulenai"
  }
},
{
  "type": "node",
  "id": 3571602002,
  "lat": 54.6825110,
  "lon": 25.2603098,
  "tags": {
    "addr:city": "Vilnius",
    "addr:contact": "yes",
    "addr:housenumber": "21",
    "addr:postcode": "03101",
    "addr:street": "M. K. Čiurlionio g.",
    "description": "231 kab. muziejus lankomas tik iš anksto susitarus telefonu",
    "email": "eugenija.rudnickaite@gf.vu.lt",
    "museum_type": "departmental",
    "name": "Vilniaus universiteto Geologijos muziejus",
    "phone": "+370 5 239 8277",
    "tourism": "museum",
    "website": "https://muziejai.lt/Vilnius/Geologijos_muz.htm"
  }
},
{
  "type": "node",
  "id": 3571602003,
  "lat": 54.6825101,
  "lon": 25.2610467,
  "tags": {
    "addr:city": "Vilnius",
    "addr:contact": "yes",
    "addr:housenumber": "21",
    "addr:postcode": "03101",
    "addr:street": "M. K. Čiurlionio g.",
    "description": "III aukštas, 327 kab. Muziejų aplankyti galima tik iš anksto susitarus tel. (8 ~ 5) 239 82 69, mob. tel. 8 614 588 15.",
    "email": "grita.skujiene@gf.vu.lt",
    "museum_type": "departmental",
    "name": "Vilniaus universiteto Zoologijos muziejus",
    "phone": "+370 5 239 8269",
    "tourism": "museum",
    "website": "https://muziejai.lt/Vilnius/Zoologijos_muz.htm"
  }
},
{
  "type": "node",
  "id": 3629146556,
  "lat": 54.6926300,
  "lon": 25.2643356,
  "tags": {
    "addr:city": "Vilnius",
    "addr:contact": "yes",
    "addr:housenumber": "14",
    "addr:postcode": "01109",
    "addr:street": "Gynėjų g.",
    "email": "info@mekas.lt",
    "museum_type": "institutional",
    "name": "Jono Meko vizualiųjų menų centras",
    "opening_hours": "Tu-Fr 12:00-18:00; Sa 12:00-16:00",
    "phone": "+370 615 21 599",
    "tourism": "museum",
    "website": "http://mekas.lt/"
  }
},
{
  "type": "node",
  "id": 3629146557,
  "lat": 54.6823180,
  "lon": 25.2906340,
  "tags": {
    "addr:city": "Vilnius",
    "addr:contact": "yes",
    "addr:housenumber": "8",
    "addr:postcode": "01125",
    "addr:street": "Literatų g.",
    "email": "info@mmcentras.lt",
    "museum_type": "institutional",
    "name": "Modernaus meno centras",
    "name:en": "Modern art center",
    "name:lt": "Modernaus meno centras",
    "name:pl": "Centrum Sztuki Współczesnej",
    "phone": "+370 5 231 2350",
    "tourism": "museum",
    "website": "http://www.mmcentras.lt",
    "wikidata": "Q16464897",
    "wikipedia": "lt:MO muziejus"
  }
},
{
  "type": "node",
  "id": 3629146558,
  "lat": 54.6530100,
  "lon": 25.1509380,
  "tags": {
    "addr:city": "Vilnius",
    "addr:contact": "yes",
    "addr:housenumber": "2",
    "addr:postcode": "02300",
    "addr:street": "Kirtimų g.",
    "description": "Dėl ekspozicijos apžiūros tartis telefonu 8 699 19037",
    "museum_type": "institutional",
    "name": "Stasio Brundzos automobilių ir transporto muziejus",
    "name:lt": "Stasio Brundzos automobilių ir transporto muziejus",
    "name:pl": "Muzeum motoryzacji i transportu Stasysa Brundzy",
    "official_name": "Viešoji įstaiga Stasio Brundzos automobilių ir transporto muziejus",
    "phone": "+37069919037",
    "tourism": "museum",
    "website": "https://muziejai.lt/Vilnius/automobiliu_muziejus.htm"
  }
},
{
  "type": "node",
  "id": 3629190465,
  "lat": 54.6537115,
  "lon": 24.9181557,
  "tags": {
    "addr:city": "Trakai",
    "addr:housenumber": "93A",
    "addr:postcode": "21104",
    "addr:street": "Karaimų g.",
    "email": "museum@academia.lt",
    "museum_type": "institutional",
    "name": "Irklavimo muziejus",
    "name:en": "Rowing museum",
    "name:fr": "Musée de l'aviron",
    "name:lt": "Irklavimo muziejus",
    "name:pl": "Muzeum wioślarstwa",
    "opening_hours": "11:00-20:00",
    "phone": "+370 698 13 777",
    "tourism": "museum",
    "website": "http://www.academia.lt"
  }
},
{
  "type": "node",
  "id": 3629190466,
  "lat": 54.6733810,
  "lon": 25.2786330,
  "tags": {
    "addr:city": "Vilnius",
    "addr:contact": "yes",
    "addr:housenumber": "25",
    "addr:street": "Raugyklos g.",
    "museum_type": "institutional",
    "name": "Ivano Luckevičiaus vardo gudų muziejus",
    "phone": "+37052161052",
    "tourism": "museum"
  }
},
{
  "type": "node",
  "id": 3629190475,
  "lat": 54.6797020,
  "lon": 25.2866140,
  "tags": {
    "addr:city": "Vilnius",
    "addr:contact": "yes",
    "addr:housenumber": "6",
    "addr:street": "Stiklių g.",
    "contact:mobile": "+370 698 34 103",
    "email": "info@stainedglass.lt",
    "museum_type": "private",
    "name": "Vitražo manufaktūros galerija-dirbtuvės",
    "name:en": "Stain glass manufacture gallery-workshop",
    "name:lt": "Vitražo manufaktūros galerija-dirbtuvės",
    "name:pl": "Galeria-pracownia manufaktury witraży",
    "phone": "+370 5 212 1202",
    "tourism": "museum",
    "website": "http://www.stainedglass.lt"
  }
},
{
  "type": "node",
  "id": 3689128580,
  "lat": 54.6981140,
  "lon": 25.3149080,
  "tags": {
    "addr:city": "Vilnius",
    "addr:contact": "yes",
    "addr:housenumber": "8",
    "addr:postcode": "10311",
    "addr:street": "Kuosų g.",
    "description": "muziejų galima aplankyti iš anksto susitarus telefonu (8 ~ 5) 234 16 86",
    "museum_type": "public",
    "name": "Kompozitoriaus Antano Budriūno kambarys",
    "phone": "+370 5 234 1686",
    "tourism": "museum",
    "website": "https://muziejai.lt/Vilnius/kompozitoriaus_budriuno_kambarys.htm"
  }
},
{
  "type": "node",
  "id": 3765354477,
  "lat": 54.6710077,
  "lon": 25.2861196,
  "tags": {
    "addr:city": "Vilnius",
    "addr:contact": "yes",
    "addr:housenumber": "16",
    "addr:postcode": "02100",
    "addr:street": "Geležinkelio g.",
    "name": "Lietuvos geležinkelių muziejus",
    "name:be": "Чыгуначны музей",
    "name:de": "Litauisches Eisenbahnmuseum",
    "name:en": "Lithuanian Railway Museum",
    "name:lt": "Lietuvos geležinkelių muziejus",
    "name:pl": "Litewskie Muzeum Kolejnictwa",
    "name:ru": "Литовский железнодорожный музей",
    "phone": "+370 5 269 3741",
    "tourism": "museum",
    "website": "http://www.litrail.lt/muziejus-veikla",
    "wikidata": "Q15925128",
    "wikipedia": "lt:Geležinkelių muziejus"
  }
},
{
  "type": "node",
  "id": 3778110211,
  "lat": 54.6456968,
  "lon": 24.9364073,
  "tags": {
    "addr:city": "Trakai",
    "addr:housenumber": "4",
    "addr:postcode": "21104",
    "addr:street": "Kęstučio g.",
    "museum_type": "republican",
    "name": "Sakralinio meno ekspozicija",
    "name:lt": "Sakralinio meno ekspozicija",
    "name:pl": "Wystawa sztuki sakralnej",
    "opening_hours": "We-Su 10:00-18:00",
    "phone": "+370 528 53 941",
    "tourism": "museum",
    "website": "http://www.trakaimuziejus.lt"
  }
},
{
  "type": "node",
  "id": 4140128929,
  "lat": 54.7224152,
  "lon": 25.3258726,
  "tags": {
    "name": "Vilniaus universiteto Zoologijos muziejus",
    "tourism": "museum",
    "website": "http://www.zool.gf.vu.lt/"
  }
},
{
  "type": "node",
  "id": 4196636053,
  "lat": 54.6826056,
  "lon": 25.2839358,
  "tags": {
    "description": "Tu-Fr - for group visitors, Sa-Su - for individual visitors",
    "email": "vpc@prezidentas.lt",
    "name": "Valstybės pažinimo centras",
    "name:be": "Цэнтр грамадзянскай адукацыі",
    "name:en": "The Centre for Civil Education",
    "name:lt": "Valstybės pažinimo centras",
    "name:pl": "Centrum Edukacji Obywatelskiej",
    "name:ru": "Центр гражданского образования",
    "opening_hours": "Tu-Fr 09:00-16:00; Sa,Su 11:00-17:00",
    "phone": "+370 706 64094",
    "tourism": "museum",
    "website": "http://www.pazinkvalstybe.lt/",
    "wheelchair": "yes"
  }
},
{
  "type": "node",
  "id": 4260300589,
  "lat": 54.6813477,
  "lon": 25.2910168,
  "tags": {
    "addr:city": "Vilnius",
    "addr:contact": "yes",
    "addr:housenumber": "3",
    "addr:street": "Latako g.",
    "name": "Vilniaus grafikos meno centras",
    "opening_hours": "Mo-Fr 11:00-18:00; Sa 11:00-15:00",
    "phone": "+37052611995",
    "tourism": "museum",
    "website": "http://www.graphic.lt"
  }
},
{
  "type": "node",
  "id": 4873889258,
  "lat": 54.6520810,
  "lon": 24.9330854,
  "tags": {
    "image": "http://www.trakaimuziejus.lt/uploads/images/Gallery/pilies-ekspozicija/DSC_0083_sm.jpg",
    "name": "Trakų salos pilies ekspozicija",
    "name:lt": "Trakų salos pilies ekspozicija",
    "name:pl": "Wystawa Zamku na Wyspie w Trokach",
    "tourism": "museum",
    "website": "http://www.trakaimuziejus.lt/pilies-ekspozicija"
  }
},
{
  "type": "node",
  "id": 4883109953,
  "lat": 54.8902368,
  "lon": 25.0630626,
  "tags": {
    "addr:city": "Klonėnai",
    "addr:contact": "yes",
    "addr:housenumber": "1",
    "addr:nostreet": "yes",
    "addr:place": "Klonėnai",
    "image": "http://www.entafarma.lt/private/uploads/images/articlespages/ekspozicija.jpg",
    "name": "Farmacijos muziejus",
    "tourism": "museum",
    "website": "https://www.entafarma.lt/farmacijos-muziejus"
  }
},
{
  "type": "node",
  "id": 4887474956,
  "lat": 54.6990010,
  "lon": 25.3138626,
  "tags": {
    "addr:city": "Vilnius",
    "addr:contact": "yes",
    "addr:housenumber": "15",
    "addr:street": "L. Sapiegos g.",
    "description": "Čia galima dalyvauti edukacinėje programoje, pažinti teismus, jų istoriją ir teisėjo profesiją ar tiesiog atvykti ir savo mokiniams ar studentams unikalioje tarpukario laikų teismo posėdžių salėje vesti pamoką ar skaityti paskaitą!",
    "email": "komunikacija@teismai.lt",
    "image": "http://www.teismai.lt/data/public/thumbnails/2016/01/resize_400x400_ds_5811.jpg",
    "name": "Teismų ekspozicija",
    "name:en": "Court exposition",
    "name:lt": "Teismų ekspozicija",
    "name:pl": "Wystawa sądów",
    "phone": "+370 5 251 4120",
    "tourism": "museum",
    "website": "https://www.teismai.lt/lt/visuomenei/teismu-ekspozicija/1752"
  }
},
{
  "type": "node",
  "id": 4893316274,
  "lat": 54.6783323,
  "lon": 25.2853245,
  "tags": {
    "addr:city": "Vilnius",
    "addr:contact": "yes",
    "addr:housenumber": "4",
    "addr:street": "Vokiečių g.",
    "description": "Čia vos per 15 minučių nukeliausite laiku į praeitį ir susipažinsite su ryškiausiais Vilniaus istorijos įvykiais iš arti.",
    "name": "Nemuziejus",
    "opening_hours": "Tu-Su 11:00-20:00",
    "phone": "+370 601 44 711",
    "tourism": "museum",
    "website": "http://nemuziejus.lt/"
  }
},
{
  "type": "node",
  "id": 5107229119,
  "lat": 54.6738628,
  "lon": 25.3254738,
  "tags": {
    "addr:city": "Vilnius",
    "addr:contact": "yes",
    "addr:housenumber": "124",
    "addr:postcode": "11345",
    "addr:street": "Subačiaus g.",
    "email": "info.puskino@vilniausmuziejai.lt",
    "museum_type": "municipal",
    "name": "Literatūrinis Aleksandro Puškino muziejus",
    "name:en": "Literary museum of A.Pushkin",
    "name:lt": "Literatūrinis Aleksandro Puškino muziejus",
    "name:pl": "Muzeum literackie Aleksandra Puszkina",
    "name:ru": "Литературный музей А.С.Пушкина",
    "opening_hours": "We-Su 10:00-17:00",
    "phone": "+370 5 260 0415",
    "tourism": "museum",
    "website": "http://www.vilniausmuziejai.lt/a_puskinas/index.htm"
  }
},
{
  "type": "node",
  "id": 5594198883,
  "lat": 54.6983911,
  "lon": 25.2574798,
  "tags": {
    "description": "Dėl apsilankymo tartis iš anksto telefonu (8 ~ 5) 271 99 52.",
    "name": "Policijos muziejus",
    "phone": "+370 5 271 9952",
    "tourism": "museum"
  }
},
{
  "type": "node",
  "id": 5649497180,
  "lat": 54.6967659,
  "lon": 25.3018811,
  "tags": {
    "addr:city": "Vilnius",
    "addr:contact": "yes",
    "addr:housenumber": "1N",
    "addr:street": "Žirmūnų g.",
    "email": "tuskulenai@genocid.lt",
    "name": "Ekspozicija „Tuskulėnų dvaro paslaptys“",
    "opening_hours": "We-Sa 10:00-18:00; Su 10:00-17:00",
    "phone": "+370 5 275 2547",
    "tourism": "museum",
    "website": "http://genocid.lt/tuskulenai/lt/1453/a/"
  }
},
{
  "type": "node",
  "id": 5674924977,
  "lat": 54.6757362,
  "lon": 25.2886565,
  "tags": {
    "addr:city": "Vilnius",
    "addr:contact": "yes",
    "addr:housenumber": "9",
    "addr:street": "Aušros Vartų g.",
    "description": "1996 metais Vilniuje, UAB „Amber“ skulptūrų kolekcijos pagrindu, buvo įkurtas Gintaro skulptūrų muziejus, vienintelis tokio pobūdžio muziejus pasaulyje.",
    "image": "http://www.ambergift.lt/wp-content/uploads/gintaro-muziejus1-600x425.png",
    "name": "Gintaro muziejus",
    "opening_hours": "Mo-Fr 10:00-18:00; Sa 10:00-15:00",
    "phone": "+370-5-2121988",
    "tourism": "museum",
    "website": "https://www.ambergift.lt/kategorija/muziejus/"
  }
},
{
  "type": "node",
  "id": 5732518667,
  "lat": 54.5511751,
  "lon": 25.6670532,
  "tags": {
    "addr:city": "Medininkai",
    "addr:housenumber": "11",
    "addr:street": "Pasieniečių g.",
    "email": "pasienieciu.muziejus@vsat.vrm.lt",
    "facebook": "https://www.facebook.com/Pasienieciumuziejus/",
    "name": "Pasieniečių muziejus",
    "opening_hours": "Mo-Th 08:00-16:00, Fr 08:00-15:00",
    "phone": "+370 5 2198265",
    "tourism": "museum",
    "website": "http://pasienietis.lt/?p=144"
  }
},
{
  "type": "node",
  "id": 5884068295,
  "lat": 54.6817345,
  "lon": 25.2991171,
  "tags": {
    "addr:city": "Vilnius",
    "addr:contact": "yes",
    "addr:housenumber": "40",
    "addr:street": "Užupio g.",
    "description": "Lietuvos meno pažinimo centras",
    "name": "Tartle",
    "phone": "+370 5 2681888",
    "tourism": "museum",
    "website": "https://www.tartle.lt/lt/apie_mus.html"
  }
},
{
  "type": "node",
  "id": 6435315520,
  "lat": 54.8839978,
  "lon": 24.8472306,
  "tags": {
    "description": "Atkurtas miesto fragmentas. Tai piliakalnių papėdėje, Pajautos slėnyje, gyvenusių miestelėnų trijų kiemų mokslinė rekonstrukcija.",
    "full_name": "XIII - XIV a. Kernavės amatininkų kiemų rekonstrukcija",
    "image": "https://places.openmap.lt/pic/kernaves_rekonstrukcija.jpg",
    "name": "Amatininkų kiemų rekonstrukcija",
    "tourism": "museum"
  }
},
{
  "type": "node",
  "id": 6449265034,
  "lat": 54.6829231,
  "lon": 25.2957845,
  "tags": {
    "name": "Vandentiekio istorijos muziejus",
    "tourism": "museum",
    "website": "http://www.vilniusgo.lt/2018/10/04/vandentiekio-istorijos-muziejus/"
  }
},
{
  "type": "node",
  "id": 6709682853,
  "lat": 54.6438418,
  "lon": 24.9348166,
  "tags": {
    "name": "Šokolado skulptūrų muziejus",
    "name:en": "Chocolate sculpture museum",
    "name:lt": "Šokolado skulptūrų muziejus",
    "tourism": "museum"
  }
},
{
  "type": "way",
  "id": 24569542,
  "nodes": [
    267130015,
    267130016,
    267130017,
    267130018,
    475218081,
    267130019,
    1053910061,
    267130022,
    267130015
  ],
  "tags": {
    "addr:city": "Vilnius",
    "addr:housenumber": "5",
    "addr:street": "Arsenalo g.",
    "building": "yes",
    "email": "pilis@lnm.lt",
    "height": "20",
    "historic": "castle",
    "image": "http://www.vilnius-tourism.lt/wp-content/uploads/2011/09/gera-013.jpg",
    "man_made": "tower",
    "museum_type": "national",
    "name": "Gedimino pilis",
    "name:be": "Вежа Гедыміна",
    "name:de": "Gediminas-Turm",
    "name:en": "Gediminas Tower",
    "name:lt": "Gedimino pilis",
    "name:pl": "Wieża Giedymina",
    "name:ru": "Башня Гедимина",
    "name:uk": "Вежа Гедиміна",
    "opening_hours": "May 1-Sep 30 10:00-19:00; Oct 1-Apr 30 10:00-17:00",
    "phone": "+370 5 261 7453",
    "tourism": "museum",
    "website": "http://www.lnm.lt",
    "wikidata": "Q1497616",
    "wikipedia": "lt:Gedimino pilis",
    "wikipedia:en": "Gediminas Tower"
  }
},
{
  "type": "way",
  "id": 24569949,
  "nodes": [
    267134082,
    267134086,
    2551064222,
    267134095,
    267134096,
    2551064221,
    267134097,
    267134098,
    267134099,
    2551064220,
    2551064219,
    267134100,
    267134101,
    2551064218,
    267134082
  ],
  "tags": {
    "addr:city": "Vilnius",
    "addr:country": "LT",
    "addr:housenumber": "22",
    "addr:postcode": "08105",
    "addr:street": "Konstitucijos pr.",
    "building": "civic",
    "email": "info@ndg.lt",
    "name": "Nacionalinė dailės galerija",
    "name:en": "National Art Gallery",
    "name:lt": "Nacionalinė dailės galerija",
    "name:ru": "Национальная художественная галерея",
    "note": "Informacija apie ekskursijas ir išankstinis užsakymas tel. (8 5) 219 5961.",
    "opening_hours": "Tu-Sa 11:00-19:00; Th 12:00-20:00; Su 11:00-17:00",
    "phone": "+370 5 219 59 60",
    "tourism": "museum",
    "website": "http://www.ndg.lt/lt.aspx"
  }
},
{
  "type": "way",
  "id": 24570269,
  "nodes": [
    5193556940,
    5193556941,
    5193556614,
    5193556942,
    5193556927,
    5193556943,
    5193556928,
    5193556929,
    5193556930,
    5193556931,
    5193556933,
    5193556934,
    5193556935,
    5193556936,
    5193556618,
    5193556617,
    5193556615,
    5193556616,
    5193556619,
    5193556620,
    5193556921,
    5193556922,
    5193556923,
    5193556924,
    5193556612,
    5193556610,
    5193556611,
    5193556925,
    5193556937,
    5193556613,
    5193556938,
    5193556939,
    5193556940
  ],
  "tags": {
    "addr:city": "Vilnius",
    "addr:housenumber": "2",
    "addr:street": "Vokiečių g.",
    "building": "yes",
    "building:levels": "3",
    "name": "Šiuolaikinio meno centras",
    "name:de": "Zentrum zeitgenössischer Kunst",
    "name:en": "Contemporary Art Center",
    "name:lt": "Šiuolaikinio meno centras",
    "tourism": "museum",
    "website": "http://www.cac.lt/",
    "wikidata": "Q20504412",
    "wikipedia": "lt:Šiuolaikinio meno centras"
  }
},
{
  "type": "way",
  "id": 24598347,
  "nodes": [
    267400489,
    267400490,
    267400492,
    267400493,
    267400494,
    267400495,
    1132347681,
    267400496,
    31442138,
    267400489
  ],
  "tags": {
    "addr:city": "Vilnius",
    "addr:housenumber": "1",
    "addr:postcode": "01143",
    "addr:street": "Arsenalo g.",
    "building": "yes",
    "building:colour": "#F5DEB3",
    "building:height": "13",
    "email": "informacija@lnm.lt",
    "image": "http://www.lnm.lt/wp-content/uploads/2015/10/Naujasis-arsenalas.jpg",
    "name": "Lietuvos nacionalinis muziejus",
    "name:be": "Нацыянальны музей Літвы",
    "name:de": "Litauisches Nationalmuseum",
    "name:en": "National Museum of Lithuania",
    "name:lt": "Lietuvos nacionalinis muziejus",
    "name:pl": "Litewskie muzeum narodowe",
    "name:ru": "Национальный музей Литвы",
    "name:uk": "Національний музей Литви",
    "opening_hours": "Tu-Su 10:00-18:00",
    "phone": "+370 (5) 262 94 26",
    "roof:colour": "#9f390c",
    "roof:shape": "hipped",
    "tourism": "museum",
    "website": "http://www.lnm.lt",
    "wikidata": "Q1790447",
    "wikipedia": "lt:Lietuvos nacionalinis muziejus"
  }
},
{
  "type": "way",
  "id": 25963398,
  "nodes": [
    283240824,
    283240825,
    2358970437,
    2358970438,
    2358970435,
    2358970434,
    283240826,
    283240827,
    283240824
  ],
  "tags": {
    "addr:city": "Vilnius",
    "addr:housenumber": "1",
    "addr:postcode": "01104",
    "addr:street": "A. Goštauto g.",
    "building": "yes",
    "email": "kasiuliomuziejus@ldm.lt",
    "museum_type": "national",
    "name": "Vytauto Kasiulio dailės muziejus",
    "opening_hours": "Tu-Sa 11:00-18:00; Su 12:00-17:00",
    "phone": "+370 5 261 6764",
    "tourism": "museum",
    "website": "https://www.ldm.lt/vkdm/"
  }
},
{
  "type": "way",
  "id": 25963535,
  "nodes": [
    2352012338,
    283241818,
    283241836,
    283241827,
    2352012338
  ],
  "tags": {
    "addr:city": "Vilnius",
    "addr:housenumber": "17",
    "addr:street": "Pylimo g.",
    "building": "yes",
    "int_name": "MO Museum",
    "name": "MO muziejus",
    "name:en": "MO Museum",
    "name:lt": "MO muziejus",
    "old_name": "Modernaus meno centras",
    "toilets:wheelchair": "yes",
    "tourism": "museum",
    "website": "https://mo.lt/",
    "wheelchair": "yes",
    "wikidata": "Q16464897",
    "wikipedia": "lt:MO muziejus"
  }
},
{
  "type": "way",
  "id": 26282687,
  "nodes": [
    287894594,
    2811332851,
    2811332853,
    2811332855,
    2811332856,
    1199318056,
    2811333304,
    287894596,
    287894597,
    4730906829,
    287894598,
    287894599,
    287894600,
    287894601,
    1199318246,
    1199318090,
    287894602,
    287894603,
    287894604,
    1199318436,
    4730906851,
    287894605,
    287894606,
    287894607,
    2811332850,
    287894594
  ],
  "tags": {
    "addr:city": "Vilnius",
    "addr:housenumber": "20",
    "addr:postcode": "01126",
    "addr:street": "Bokšto g.",
    "building": "yes",
    "image": "http://www.muziejai.lt/vilnius/Vilniausimages/basteja_am.jpg",
    "name": "Vilniaus gynybinės sienos Bastėja",
    "name:lt": "Vilniaus gynybinės sienos Bastėja",
    "name:ru": "Артиллерийский бастион городской оборонительной стены",
    "opening_hours": "Tu-Su 10:00-18:00",
    "phone": "+370 (5) 261 21 49",
    "ref:lt:kpd": "25164",
    "tourism": "museum",
    "website": "https://www.muziejai.lt/vilnius/basteja.htm",
    "wikidata": "Q12677539",
    "wikipedia": "lt:Vilniaus gynybinės sienos bastėja"
  }
},
{
  "type": "way",
  "id": 29493645,
  "nodes": [
    325111745,
    325111746,
    1038489904,
    325111747,
    325111749,
    1276006995,
    325111750,
    325111752,
    768894235,
    768894222,
    325111753,
    325111754,
    325111756,
    325111757,
    325111745
  ],
  "tags": {
    "addr:city": "Vilnius",
    "addr:housenumber": "24",
    "addr:postcode": "01119",
    "addr:street": "Vilniaus g.",
    "building": "public",
    "image": "https://www.ldm.lt/wp-content/uploads/2015/11/RRMmpc-287x161.jpg",
    "museum_type": "national",
    "name": "Radvilų rūmų muziejus",
    "name:be": "Палац Радзівілаў (музей)",
    "name:en": "Museum of the Radvilas Palace",
    "name:lt": "Radvilų rūmų muziejus",
    "name:lv": "Radzivilu pils (muzejs)",
    "name:pl": "Pałac Radziwiłłłów (muzeum)",
    "name:ru": "Музей дворца Радзивиллов",
    "opening_hours": "Tu-Sa 11:00-18:00; Su 12:00-17:00",
    "phone": "+370 5 262 0981",
    "roof:shape": "gabled",
    "tourism": "museum",
    "website": "https://www.ldm.lt/rrm/"
  }
},
{
  "type": "way",
  "id": 52710379,
  "nodes": [
    5173974962,
    5173974963,
    2086215831,
    267137985,
    2086215823,
    267137986,
    2467295936,
    2086215821,
    267137988,
    3608397243,
    3608397245,
    3608397246,
    3608397244,
    2086215833,
    5173974962
  ],
  "tags": {
    "addr:city": "Vilnius",
    "addr:housenumber": "3",
    "addr:postcode": "01143",
    "addr:street": "Arsenalo g.",
    "building": "yes",
    "building:colour": "#F5DEB3",
    "email": "informacija@lnm.lt",
    "image": "http://www.lnm.lt/wp-content/uploads/2015/10/Senasis-arsenalas.jpg",
    "name": "Senasis arsenalas",
    "name:be": "Стары арсенал",
    "name:de": "Altes Arsenal",
    "name:en": "The Old Arsenal",
    "name:lt": "Senasis arsenalas",
    "name:pl": "Stary arsenał",
    "name:ru": "Старый арсенал",
    "name:uk": "Старий Арсенал",
    "opening_hours": "Tu-Su 10:00-18:00",
    "phone": "+370 (5) 262 94 26",
    "roof:colour": "#9f390c",
    "roof:shape": "hipped",
    "tourism": "museum",
    "website": "http://www.lnm.lt/senasis-arsenalas/"
  }
},
{
  "type": "way",
  "id": 52710380,
  "nodes": [
    5173974963,
    5173974962,
    5173974957,
    5173974958,
    5173974961,
    5173974953,
    5173974954,
    5173974955,
    5173974956,
    5173974959,
    5173974960,
    5173974963
  ],
  "tags": {
    "addr:city": "Vilnius",
    "addr:housenumber": "3A",
    "addr:postcode": "01100",
    "addr:street": "Arsenalo g.",
    "building": "yes",
    "email": "tdm@zebra.lt",
    "image": "https://www.ldm.lt/wp-content/uploads/2015/11/TDM-287x161.jpg",
    "museum_type": "national",
    "name": "Taikomosios dailės muziejus",
    "name:be": "Музей прыкладнога мастацтва",
    "name:de": "Museum für angewandte Kunst",
    "name:en": "Museum of Applied Art",
    "name:lt": "Taikomosios dailės muziejus",
    "name:pl": "Muzeum Sztuki Stosowanej",
    "name:ru": "Музей прикладного искусства",
    "opening_hours": "Tu-Sa 11:00-18:00; Su 11:00-16:00",
    "phone": "+370852628080",
    "roof:colour": "#696969",
    "tourism": "museum",
    "website": "https://www.ldm.lt/tdm/",
    "wikidata": "Q12674518",
    "wikipedia": "lt:Taikomosios dailės ir dizaino muziejus"
  }
},
{
  "type": "way",
  "id": 52710382,
  "nodes": [
    5158965891,
    5161337192,
    5161337191,
    5159275505,
    5159275512,
    5159275507,
    5158965908,
    5158965877,
    3647035963,
    5158965878,
    5158965910,
    5158965911,
    5158965879,
    5158965880,
    5160067133,
    5174573586,
    5174573585,
    5174573580,
    5164283875,
    5164283877,
    5174573579,
    5174573578,
    5174573577,
    5174573576,
    5160068769,
    5163335496,
    5160068768,
    5160068775,
    5159275727,
    5159275730,
    5163311237,
    5164277171,
    5164277169,
    5164277170,
    5159275510,
    5159275511,
    5159275723,
    5165780346,
    5160103757,
    5158965889,
    5158965888,
    5158965884,
    5158965887,
    5160090330,
    5158965882,
    5158965890,
    5158965896,
    5158965891
  ],
  "tags": {
    "addr:city": "Vilnius",
    "addr:housenumber": "3",
    "addr:postcode": "01143",
    "addr:street": "Katedros a.",
    "alt_name": "Žemutinė pilis",
    "alt_name:de": "Untere Burg",
    "alt_name:pl": "Zamek Dolny",
    "building": "yes",
    "email": "info@valdovurumai.lt",
    "height": "10",
    "historic": "castle",
    "image": "http://media.valdovurumai.lt/images/e3dd14d5c9dced1c8861bb680c36a550_lg.jpg",
    "museum_type": "national",
    "name": "Valdovų rūmai",
    "name:af": "Grootvorstepaleis van Litaue",
    "name:be": "Ніжні замак",
    "name:de": "Großfürstliches Schloss",
    "name:en": "Palace of the Grand Dukes of Lithuania",
    "name:lt": "Valdovų rūmai",
    "name:pl": "Pałac Władców",
    "name:ru": "Дворец Великих князей Литовских",
    "official_name": "Lietuvos Didžiosios Kunigaikštystės valdovų rūmai Vilniaus žemutinėje pilyje",
    "opening_hours": "Tu-Fr 11:00-18:00; Sa-Su 11:00-16:00",
    "phone": "+370 5 212 7476",
    "roof:colour": "#696969",
    "source": "extrapolation",
    "tourism": "museum",
    "website": "https://www.valdovurumai.lt/",
    "wheelchair": "yes",
    "wikidata": "Q1284847",
    "wikipedia": "lt:Lietuvos didžiųjų kunigaikščių rūmai"
  }
},
{
  "type": "way",
  "id": 55575813,
  "nodes": [
    698533357,
    698533368,
    2806064035,
    2675276368,
    698533367,
    698533364,
    698533365,
    698533350,
    698533351,
    698533352,
    698533346,
    698533347,
    698533348,
    698533355,
    2675276348,
    2675276346,
    2675276342,
    698533356,
    3415517233,
    698533357
  ],
  "tags": {
    "addr:city": "Vilnius",
    "addr:contact": "yes",
    "addr:housenumber": "21A",
    "addr:street": "Olandų g.",
    "barrier": "fence",
    "landuse": "military",
    "museum_type": "republican",
    "name": "Vytauto Didžiojo karo muziejus Karo technikos Vilniaus skyrius",
    "official_name": "Karo technikos Vilniaus skyrius",
    "opening_hours": "Tu-Sa 10:00-17:00",
    "phone": "+37052619606",
    "tourism": "museum",
    "website": "http://kariuomene.kam.lt/lt/kariuomenes_atributika/karo_istorija/vytauto_didziojo_karo_muziejus/vilniaus_skyrius.html"
  }
},
{
  "type": "way",
  "id": 61980371,
  "nodes": [
    772783949,
    1282818736,
    772783945,
    772783948,
    772783942,
    772783934,
    772783953,
    772825874,
    3251897668,
    772783928,
    772783946,
    772783938,
    772783931,
    772783935,
    1282818839,
    1282818264,
    1282818602,
    772783937,
    3251897670,
    772783940,
    772783933,
    772783951,
    772825877,
    772783943,
    3506514292,
    772783949
  ],
  "tags": {
    "addr:city": "Vilnius",
    "addr:housenumber": "4",
    "addr:postcode": "01128",
    "addr:street": "Didžioji g.",
    "building": "yes",
    "building:colour": "#F6E5D6",
    "email": "galerija@ldm.lt",
    "image": "https://www.ldm.lt/wp-content/uploads/2015/11/VPG-287x161.jpg",
    "museum_type": "national",
    "name": "Vilniaus paveikslų galerija",
    "name:be": "Віленская карцінная галерэя",
    "name:en": "Vilnius Picture Gallery",
    "name:lt": "Vilniaus paveikslų galerija",
    "name:pl": "Wileńska galeria obrazów",
    "name:ru": "Вильнюсская картинная галерея",
    "opening_hours": "Tu-Sa 11:00-18:00; Su 12:00-17:00",
    "phone": "+370852120841",
    "roof:colour": "grey",
    "roof:shape": "hipped",
    "tourism": "museum",
    "website": "https://www.ldm.lt/vpg/"
  }
},
{
  "type": "way",
  "id": 68586429,
  "nodes": [
    824657116,
    5400699067,
    908502952,
    824657111,
    824657119,
    824657116
  ],
  "tags": {
    "addr:city": "Vilnius",
    "addr:housenumber": "2",
    "addr:postcode": "09312",
    "addr:street": "Rinktinės g.",
    "building": "yes",
    "building:levels": "4",
    "email": "info@emuziejus.lt",
    "internet_access": "wlan",
    "museum_type": "institutional",
    "name": "Energetikos ir technikos muziejus",
    "name:be": "Музей энергетыкі і тэхнікі",
    "name:lt": "Energetikos ir technikos muziejus",
    "name:ru": "Музей энергетики и техники",
    "opening_hours": "Tu-Sa 10:00-17:00; Th 10:00-19:00",
    "phone": "+37052782085",
    "tourism": "museum",
    "website": "http://www.emuziejus.lt/",
    "wikidata": "Q5377018"
  }
},
{
  "type": "way",
  "id": 106948400,
  "nodes": [
    1229701140,
    1229703418,
    1229700936,
    1229701329,
    1229701140
  ],
  "tags": {
    "addr:city": "Trakai",
    "addr:housenumber": "22",
    "addr:postcode": "21104",
    "addr:street": "Karaimų g.",
    "building": "yes",
    "museum_type": "republican",
    "name": "Karaimų etnografinė paroda",
    "official_name": "S. Šapšalo karaimų tautos muziejus",
    "opening_hours": "We-Su 10:00-18:00",
    "phone": "+370 528 55 286",
    "tourism": "museum",
    "url": "http://www.seniejitrakai.lt/place-lt-54/",
    "website": "http://www.trakaimuziejus.lt/"
  }
},
{
  "type": "way",
  "id": 109579330,
  "nodes": [
    1254052940,
    1254052924,
    1254052943,
    1254052934,
    1254052929,
    1254052933,
    1254052927,
    1254052937,
    1254052921,
    1254052923,
    1254052918,
    1254052917,
    1254052940
  ],
  "tags": {
    "building": "yes",
    "description": "Statytas XVI a. Jį valdė Radvilos, Sapiegos, Chodkevičiai, Oginskiai. Jie kūrėsi XVIII a., bet iki XIX a. pr. dvaro rūmai buvo mediniai. 1828 m. dvarą nusipirko Mykolas Tiškevičius, kuris ir buvo iki šiol išlikusių statinių iniciatorius (1840–1856 m.).",
    "historic": "manor",
    "image": "https://upload.wikimedia.org/wikipedia/commons/b/bc/Nemezis_Manor.jpg",
    "name": "Nemėžio dvaras",
    "name:lt": "Nemėžio dvaras",
    "name:pl": "Dworek w Niemieży",
    "ref:lt:kpd": "904",
    "tourism": "museum",
    "wikidata": "Q12666704",
    "wikipedia": "lt:Nemėžio dvaras"
  }
},
{
  "type": "way",
  "id": 157595371,
  "nodes": [
    1698398978,
    1698398967,
    1698398932,
    1698398953,
    1698398959,
    1698398965,
    1698398978
  ],
  "tags": {
    "building": "yes",
    "email": "hq@europosparkas.lt",
    "man_made": "watermill",
    "museum_type": "institutional",
    "name": "Liubavo dvaro malūnas-muziejus",
    "phone": "+370 5 237 7077",
    "ref:lt:kpd": "33084",
    "tourism": "museum",
    "website": "http://www.liubavas.lt/",
    "wikidata": "Q12663710",
    "wikipedia": "lt:Liubavo dvaras"
  }
},
{
  "type": "way",
  "id": 225924068,
  "nodes": [
    2347599934,
    2347599930,
    3348320733,
    2347599932,
    2347599934
  ],
  "tags": {
    "addr:city": "Vilnius",
    "addr:housenumber": "15",
    "addr:postcode": "02243",
    "addr:street": "Agrastų g.",
    "building": "yes",
    "building:levels": "2",
    "email": "zigmas.knope@gmail.com",
    "mapillary": "poSFsqPaqPM9u6NHV8ziQQ",
    "museum_type": "republican",
    "name": "Panerių memorialinis muziejus",
    "name:en": "Panierai memorial museum",
    "name:lt": "Panerių memorialinis muziejus",
    "name:pl": "Muzeum pamięci w Ponarach",
    "opening_hours": "Tu-Su 9:00-17:00",
    "phone": "+37068081278",
    "tourism": "museum",
    "website": "http://www.jmuseum.lt"
  }
},
{
  "type": "way",
  "id": 230033328,
  "nodes": [
    2385599710,
    2385599713,
    2385599714,
    2385599711,
    2385599710
  ],
  "tags": {
    "addr:city": "Bareikiškės",
    "addr:housenumber": "5",
    "addr:street": "Vladislavo Sirokomlės g.",
    "building": "yes",
    "email": "helena.muzeum@gmail.com",
    "museum_type": "municipal",
    "name": "Vladislavo Sirokomlės muziejus",
    "opening_hours": "We-Fr 11:00-17:00; Sa-Su 11:00-14:00",
    "phone": "+370 5 243 6402",
    "tourism": "museum",
    "website": "http://tic.vrsa.lt"
  }
},
{
  "type": "way",
  "id": 230033484,
  "nodes": [
    2385602440,
    2385602436,
    2385602438,
    2385602433,
    2385602440
  ],
  "tags": {
    "name": "Memorialas tremtiniams",
    "tourism": "museum"
  }
},
{
  "type": "way",
  "id": 251350604,
  "nodes": [
    2575833104,
    2575833105,
    2575833106,
    5407038946,
    2575833108,
    2575833109,
    2575833110,
    2575833111,
    2575833112,
    2575833113,
    2575833104
  ],
  "tags": {
    "addr:city": "Vievis",
    "addr:housenumber": "2",
    "addr:postcode": "21371",
    "addr:street": "Taikos g.",
    "building": "yes",
    "email": "vytautas.puronas@lgt.lt",
    "museum_type": "republican",
    "name": "Žemės gelmių informacijos centras",
    "name:en": "Underground Information Center",
    "name:lt": "Žemės gelmių informacijos centras",
    "opening_hours": "Mo-Fr 8:00-17:00",
    "operator": "Lietuvos geologijos tarnyba",
    "phone": "+370 528 26 492",
    "tourism": "museum",
    "website": "https://www.lgt.lt",
    "wikidata": "Q16458850",
    "wikipedia": "lt:Lietuvos geologijos muziejus"
  }
},
{
  "type": "way",
  "id": 572986085,
  "nodes": [
    5504459982,
    5504459981,
    2788683117,
    6928280067,
    2352303714,
    5504459982
  ],
  "tags": {
    "addr:city": "Vilnius",
    "addr:housenumber": "12",
    "addr:street": "Pamėnkalnio g.",
    "building": "yes",
    "email": "jewishmuseum@jmuseum.lt",
    "mapillary": "nFq_BcxWxCTGmrrdqd96HA",
    "museum_type": "republican",
    "name": "Žydų muziejus",
    "name:be": "Музей Габрэйскі",
    "name:en": "Jewish Museum",
    "name:lt": "Žydų muziejus",
    "name:pl": "Muzeum żydowskie",
    "name:ru": "Еврейский музей",
    "official_name": "Holokausto ekspozicija",
    "official_name:en": "Holocaust Exposition",
    "official_name:lt": "Holokausto ekspozicija",
    "opening_hours": "Mo-Fr 09:00-17:00; Su 09:00-16:00; Su 10:00-16:00",
    "operator": "Valstybinis Vilniaus Gaono žydų muziejus",
    "phone": "+370852620730",
    "tourism": "museum",
    "website": "http://www.jmuseum.lt"
  }
},
{
  "type": "way",
  "id": 602701168,
  "nodes": [
    2906196858,
    5723840430,
    5723840433,
    5723840432,
    5723840431,
    5723840436,
    5723840435,
    5723840434,
    2906196858
  ],
  "tags": {
    "addr:city": "Maišiagala",
    "addr:housenumber": "5",
    "addr:street": "Šv. Antano g.",
    "building": "house",
    "name": "Kunigo Prelato Juzefo Obrembskio muziejus",
    "opening_hours": "We-Fr 08:00-17:00; Sa-Su 08:00-15:45",
    "operator": "Vilniaus krašto etnografinis muziejus",
    "tourism": "museum"
  }
},
{
  "type": "node",
  "id": 1229701140,
  "lat": 54.6470954,
  "lon": 24.9330337
},
{
  "type": "node",
  "id": 1229701329,
  "lat": 54.6471532,
  "lon": 24.9332099
},
{
  "type": "node",
  "id": 1229703418,
  "lat": 54.6471919,
  "lon": 24.9329391
},
{
  "type": "node",
  "id": 1229700936,
  "lat": 54.6472497,
  "lon": 24.9331153
},
{
  "type": "node",
  "id": 2347599930,
  "lat": 54.6263218,
  "lon": 25.1611338
},
{
  "type": "node",
  "id": 2347599932,
  "lat": 54.6263522,
  "lon": 25.1609312
},
{
  "type": "node",
  "id": 2347599934,
  "lat": 54.6263947,
  "lon": 25.1610644
},
{
  "type": "node",
  "id": 3348320733,
  "lat": 54.6262793,
  "lon": 25.1610005
},
{
  "type": "node",
  "id": 2575833104,
  "lat": 54.7748118,
  "lon": 24.8154263
},
{
  "type": "node",
  "id": 2575833105,
  "lat": 54.7746664,
  "lon": 24.8159493
},
{
  "type": "node",
  "id": 2575833106,
  "lat": 54.7743978,
  "lon": 24.8157248
},
{
  "type": "node",
  "id": 2575833108,
  "lat": 54.7743022,
  "lon": 24.8158216
},
{
  "type": "node",
  "id": 2575833109,
  "lat": 54.7743295,
  "lon": 24.8157231
},
{
  "type": "node",
  "id": 2575833110,
  "lat": 54.7742745,
  "lon": 24.8156771
},
{
  "type": "node",
  "id": 2575833111,
  "lat": 54.7744676,
  "lon": 24.8149824
},
{
  "type": "node",
  "id": 2575833112,
  "lat": 54.7745518,
  "lon": 24.8150527
},
{
  "type": "node",
  "id": 2575833113,
  "lat": 54.7745166,
  "lon": 24.8151795
},
{
  "type": "node",
  "id": 5407038946,
  "lat": 54.7743579,
  "lon": 24.8158682
},
{
  "type": "node",
  "id": 2906196858,
  "lat": 54.8691663,
  "lon": 25.0658011
},
{
  "type": "node",
  "id": 5723840430,
  "lat": 54.8692192,
  "lon": 25.0657540
},
{
  "type": "node",
  "id": 5723840431,
  "lat": 54.8692544,
  "lon": 25.0657227
},
{
  "type": "node",
  "id": 5723840432,
  "lat": 54.8692494,
  "lon": 25.0657054
},
{
  "type": "node",
  "id": 5723840433,
  "lat": 54.8692141,
  "lon": 25.0657368
},
{
  "type": "node",
  "id": 5723840434,
  "lat": 54.8692120,
  "lon": 25.0659562
},
{
  "type": "node",
  "id": 5723840435,
  "lat": 54.8693370,
  "lon": 25.0658449
},
{
  "type": "node",
  "id": 5723840436,
  "lat": 54.8692913,
  "lon": 25.0656898
},
{
  "type": "node",
  "id": 1254052917,
  "lat": 54.6377442,
  "lon": 25.3699778
},
{
  "type": "node",
  "id": 1254052918,
  "lat": 54.6377734,
  "lon": 25.3700146
},
{
  "type": "node",
  "id": 1254052921,
  "lat": 54.6376755,
  "lon": 25.3701302
},
{
  "type": "node",
  "id": 1254052923,
  "lat": 54.6377074,
  "lon": 25.3701704
},
{
  "type": "node",
  "id": 1254052924,
  "lat": 54.6376773,
  "lon": 25.3696723
},
{
  "type": "node",
  "id": 1254052927,
  "lat": 54.6374867,
  "lon": 25.3701360
},
{
  "type": "node",
  "id": 1254052929,
  "lat": 54.6375310,
  "lon": 25.3699476
},
{
  "type": "node",
  "id": 1254052933,
  "lat": 54.6375541,
  "lon": 25.3699768
},
{
  "type": "node",
  "id": 1254052934,
  "lat": 54.6375959,
  "lon": 25.3697943
},
{
  "type": "node",
  "id": 1254052937,
  "lat": 54.6376081,
  "lon": 25.3702895
},
{
  "type": "node",
  "id": 1254052940,
  "lat": 54.6378052,
  "lon": 25.3698339
},
{
  "type": "node",
  "id": 1254052943,
  "lat": 54.6376153,
  "lon": 25.3698188
},
{
  "type": "node",
  "id": 267134082,
  "lat": 54.6969219,
  "lon": 25.2696983
},
{
  "type": "node",
  "id": 267134086,
  "lat": 54.6974000,
  "lon": 25.2701443
},
{
  "type": "node",
  "id": 267134099,
  "lat": 54.6965672,
  "lon": 25.2706687
},
{
  "type": "node",
  "id": 267134100,
  "lat": 54.6966212,
  "lon": 25.2704721
},
{
  "type": "node",
  "id": 267134101,
  "lat": 54.6966789,
  "lon": 25.2702867
},
{
  "type": "node",
  "id": 2551064218,
  "lat": 54.6967251,
  "lon": 25.2703298
},
{
  "type": "node",
  "id": 2551064219,
  "lat": 54.6965975,
  "lon": 25.2704501
},
{
  "type": "node",
  "id": 2551064220,
  "lat": 54.6965379,
  "lon": 25.2706414
},
{
  "type": "node",
  "id": 283241827,
  "lat": 54.6794252,
  "lon": 25.2770093
},
{
  "type": "node",
  "id": 2352012338,
  "lat": 54.6791207,
  "lon": 25.2771605
},
{
  "type": "node",
  "id": 283241818,
  "lat": 54.6792593,
  "lon": 25.2780165
},
{
  "type": "node",
  "id": 283241836,
  "lat": 54.6795639,
  "lon": 25.2778654
},
{
  "type": "node",
  "id": 2352303714,
  "lat": 54.6849697,
  "lon": 25.2747026
},
{
  "type": "node",
  "id": 2788683117,
  "lat": 54.6850922,
  "lon": 25.2744464
},
{
  "type": "node",
  "id": 5504459981,
  "lat": 54.6850310,
  "lon": 25.2743590
},
{
  "type": "node",
  "id": 5504459982,
  "lat": 54.6849086,
  "lon": 25.2746151
},
{
  "type": "node",
  "id": 6928280067,
  "lat": 54.6850800,
  "lon": 25.2744718
},
{
  "type": "node",
  "id": 325111745,
  "lat": 54.6836763,
  "lon": 25.2796697
},
{
  "type": "node",
  "id": 325111746,
  "lat": 54.6838361,
  "lon": 25.2795532
},
{
  "type": "node",
  "id": 325111747,
  "lat": 54.6841369,
  "lon": 25.2807874
},
{
  "type": "node",
  "id": 325111749,
  "lat": 54.6840378,
  "lon": 25.2808596
},
{
  "type": "node",
  "id": 325111750,
  "lat": 54.6839474,
  "lon": 25.2804887
},
{
  "type": "node",
  "id": 325111752,
  "lat": 54.6838892,
  "lon": 25.2805312
},
{
  "type": "node",
  "id": 325111753,
  "lat": 54.6838210,
  "lon": 25.2802516
},
{
  "type": "node",
  "id": 325111754,
  "lat": 54.6838523,
  "lon": 25.2802289
},
{
  "type": "node",
  "id": 325111756,
  "lat": 54.6837789,
  "lon": 25.2799279
},
{
  "type": "node",
  "id": 325111757,
  "lat": 54.6837452,
  "lon": 25.2799525
},
{
  "type": "node",
  "id": 768894222,
  "lat": 54.6838368,
  "lon": 25.2803163
},
{
  "type": "node",
  "id": 768894235,
  "lat": 54.6838788,
  "lon": 25.2804885
},
{
  "type": "node",
  "id": 1038489904,
  "lat": 54.6839086,
  "lon": 25.2798503
},
{
  "type": "node",
  "id": 1276006995,
  "lat": 54.6840096,
  "lon": 25.2807441
},
{
  "type": "node",
  "id": 5193556610,
  "lat": 54.6782550,
  "lon": 25.2852343
},
{
  "type": "node",
  "id": 5193556611,
  "lat": 54.6783694,
  "lon": 25.2853428
},
{
  "type": "node",
  "id": 5193556612,
  "lat": 54.6781853,
  "lon": 25.2854712
},
{
  "type": "node",
  "id": 5193556613,
  "lat": 54.6782188,
  "lon": 25.2857655
},
{
  "type": "node",
  "id": 5193556614,
  "lat": 54.6780339,
  "lon": 25.2861809
},
{
  "type": "node",
  "id": 5193556615,
  "lat": 54.6778343,
  "lon": 25.2854135
},
{
  "type": "node",
  "id": 5193556616,
  "lat": 54.6777782,
  "lon": 25.2853640
},
{
  "type": "node",
  "id": 5193556617,
  "lat": 54.6776978,
  "lon": 25.2858767
},
{
  "type": "node",
  "id": 5193556618,
  "lat": 54.6777462,
  "lon": 25.2859195
},
{
  "type": "node",
  "id": 5193556619,
  "lat": 54.6778114,
  "lon": 25.2852511
},
{
  "type": "node",
  "id": 5193556620,
  "lat": 54.6778479,
  "lon": 25.2852833
},
{
  "type": "node",
  "id": 5193556921,
  "lat": 54.6778762,
  "lon": 25.2851873
},
{
  "type": "node",
  "id": 5193556922,
  "lat": 54.6778870,
  "lon": 25.2851507
},
{
  "type": "node",
  "id": 5193556923,
  "lat": 54.6779525,
  "lon": 25.2852081
},
{
  "type": "node",
  "id": 5193556924,
  "lat": 54.6779387,
  "lon": 25.2852551
},
{
  "type": "node",
  "id": 5193556925,
  "lat": 54.6783028,
  "lon": 25.2855736
},
{
  "type": "node",
  "id": 5193556927,
  "lat": 54.6779088,
  "lon": 25.2862309
},
{
  "type": "node",
  "id": 5193556928,
  "lat": 54.6779278,
  "lon": 25.2863214
},
{
  "type": "node",
  "id": 5193556929,
  "lat": 54.6778807,
  "lon": 25.2864339
},
{
  "type": "node",
  "id": 5193556930,
  "lat": 54.6778375,
  "lon": 25.2864176
},
{
  "type": "node",
  "id": 5193556931,
  "lat": 54.6778220,
  "lon": 25.2864464
},
{
  "type": "node",
  "id": 5193556933,
  "lat": 54.6776773,
  "lon": 25.2862197
},
{
  "type": "node",
  "id": 5193556934,
  "lat": 54.6776939,
  "lon": 25.2861632
},
{
  "type": "node",
  "id": 5193556935,
  "lat": 54.6776784,
  "lon": 25.2861495
},
{
  "type": "node",
  "id": 5193556936,
  "lat": 54.6777082,
  "lon": 25.2860486
},
{
  "type": "node",
  "id": 5193556937,
  "lat": 54.6782404,
  "lon": 25.2857846
},
{
  "type": "node",
  "id": 5193556938,
  "lat": 54.6781801,
  "lon": 25.2858962
},
{
  "type": "node",
  "id": 5193556939,
  "lat": 54.6781567,
  "lon": 25.2858755
},
{
  "type": "node",
  "id": 5193556940,
  "lat": 54.6781100,
  "lon": 25.2860334
},
{
  "type": "node",
  "id": 5193556941,
  "lat": 54.6780843,
  "lon": 25.2860107
},
{
  "type": "node",
  "id": 5193556942,
  "lat": 54.6779465,
  "lon": 25.2861035
},
{
  "type": "node",
  "id": 5193556943,
  "lat": 54.6779039,
  "lon": 25.2862477
},
{
  "type": "node",
  "id": 287894594,
  "lat": 54.6770612,
  "lon": 25.2927337
},
{
  "type": "node",
  "id": 287894596,
  "lat": 54.6771537,
  "lon": 25.2925979
},
{
  "type": "node",
  "id": 287894597,
  "lat": 54.6771650,
  "lon": 25.2926017
},
{
  "type": "node",
  "id": 287894598,
  "lat": 54.6771883,
  "lon": 25.2924324
},
{
  "type": "node",
  "id": 287894599,
  "lat": 54.6777350,
  "lon": 25.2924487
},
{
  "type": "node",
  "id": 287894600,
  "lat": 54.6777351,
  "lon": 25.2924094
},
{
  "type": "node",
  "id": 287894601,
  "lat": 54.6771922,
  "lon": 25.2923919
},
{
  "type": "node",
  "id": 287894602,
  "lat": 54.6770957,
  "lon": 25.2923585
},
{
  "type": "node",
  "id": 287894603,
  "lat": 54.6764332,
  "lon": 25.2920283
},
{
  "type": "node",
  "id": 287894604,
  "lat": 54.6764336,
  "lon": 25.2920936
},
{
  "type": "node",
  "id": 287894605,
  "lat": 54.6770869,
  "lon": 25.2923896
},
{
  "type": "node",
  "id": 287894606,
  "lat": 54.6770653,
  "lon": 25.2925488
},
{
  "type": "node",
  "id": 287894607,
  "lat": 54.6770849,
  "lon": 25.2925599
},
{
  "type": "node",
  "id": 1199318056,
  "lat": 54.6771233,
  "lon": 25.2927604
},
{
  "type": "node",
  "id": 1199318090,
  "lat": 54.6771121,
  "lon": 25.2923509
},
{
  "type": "node",
  "id": 1199318246,
  "lat": 54.6771775,
  "lon": 25.2923758
},
{
  "type": "node",
  "id": 1199318436,
  "lat": 54.6764726,
  "lon": 25.2920771
},
{
  "type": "node",
  "id": 2811332850,
  "lat": 54.6770599,
  "lon": 25.2927173
},
{
  "type": "node",
  "id": 2811332851,
  "lat": 54.6770711,
  "lon": 25.2927531
},
{
  "type": "node",
  "id": 2811332853,
  "lat": 54.6770822,
  "lon": 25.2927641
},
{
  "type": "node",
  "id": 2811332855,
  "lat": 54.6770926,
  "lon": 25.2927693
},
{
  "type": "node",
  "id": 2811332856,
  "lat": 54.6771103,
  "lon": 25.2927714
},
{
  "type": "node",
  "id": 2811333304,
  "lat": 54.6771299,
  "lon": 25.2927494
},
{
  "type": "node",
  "id": 4730906829,
  "lat": 54.6771698,
  "lon": 25.2925668
},
{
  "type": "node",
  "id": 4730906851,
  "lat": 54.6769441,
  "lon": 25.2923170
},
{
  "type": "node",
  "id": 772783928,
  "lat": 54.6804864,
  "lon": 25.2889082
},
{
  "type": "node",
  "id": 772783931,
  "lat": 54.6803836,
  "lon": 25.2895920
},
{
  "type": "node",
  "id": 772783933,
  "lat": 54.6807459,
  "lon": 25.2888002
},
{
  "type": "node",
  "id": 772783934,
  "lat": 54.6805819,
  "lon": 25.2895239
},
{
  "type": "node",
  "id": 772783935,
  "lat": 54.6803581,
  "lon": 25.2893248
},
{
  "type": "node",
  "id": 772783937,
  "lat": 54.6804210,
  "lon": 25.2886078
},
{
  "type": "node",
  "id": 772783938,
  "lat": 54.6804131,
  "lon": 25.2895781
},
{
  "type": "node",
  "id": 772783940,
  "lat": 54.6806549,
  "lon": 25.2887387
},
{
  "type": "node",
  "id": 772783942,
  "lat": 54.6806132,
  "lon": 25.2898383
},
{
  "type": "node",
  "id": 772783943,
  "lat": 54.6807288,
  "lon": 25.2896575
},
{
  "type": "node",
  "id": 772783945,
  "lat": 54.6807445,
  "lon": 25.2899588
},
{
  "type": "node",
  "id": 772783946,
  "lat": 54.6804505,
  "lon": 25.2894167
},
{
  "type": "node",
  "id": 772783948,
  "lat": 54.6807208,
  "lon": 25.2898127
},
{
  "type": "node",
  "id": 772783949,
  "lat": 54.6808348,
  "lon": 25.2898071
},
{
  "type": "node",
  "id": 772783951,
  "lat": 54.6807055,
  "lon": 25.2890210
},
{
  "type": "node",
  "id": 772783953,
  "lat": 54.6805692,
  "lon": 25.2895191
},
{
  "type": "node",
  "id": 772825874,
  "lat": 54.6806099,
  "lon": 25.2889813
},
{
  "type": "node",
  "id": 772825877,
  "lat": 54.6807278,
  "lon": 25.2892946
},
{
  "type": "node",
  "id": 1282818264,
  "lat": 54.6803648,
  "lon": 25.2890826
},
{
  "type": "node",
  "id": 1282818602,
  "lat": 54.6803758,
  "lon": 25.2889050
},
{
  "type": "node",
  "id": 1282818736,
  "lat": 54.6808146,
  "lon": 25.2899016
},
{
  "type": "node",
  "id": 1282818839,
  "lat": 54.6803611,
  "lon": 25.2891853
},
{
  "type": "node",
  "id": 3251897668,
  "lat": 54.6805386,
  "lon": 25.2889391
},
{
  "type": "node",
  "id": 3251897670,
  "lat": 54.6805708,
  "lon": 25.2886916
},
{
  "type": "node",
  "id": 3506514292,
  "lat": 54.6808404,
  "lon": 25.2897546
},
{
  "type": "node",
  "id": 3647035963,
  "lat": 54.6856643,
  "lon": 25.2888054
},
{
  "type": "node",
  "id": 5158965877,
  "lat": 54.6856536,
  "lon": 25.2887502
},
{
  "type": "node",
  "id": 5158965878,
  "lat": 54.6856748,
  "lon": 25.2888626
},
{
  "type": "node",
  "id": 5158965879,
  "lat": 54.6857032,
  "lon": 25.2890156
},
{
  "type": "node",
  "id": 5158965880,
  "lat": 54.6857243,
  "lon": 25.2891274
},
{
  "type": "node",
  "id": 5158965884,
  "lat": 54.6863970,
  "lon": 25.2891513
},
{
  "type": "node",
  "id": 5158965887,
  "lat": 54.6864713,
  "lon": 25.2891713
},
{
  "type": "node",
  "id": 5158965888,
  "lat": 54.6864022,
  "lon": 25.2890933
},
{
  "type": "node",
  "id": 5158965889,
  "lat": 54.6863572,
  "lon": 25.2890812
},
{
  "type": "node",
  "id": 5158965908,
  "lat": 54.6856955,
  "lon": 25.2887265
},
{
  "type": "node",
  "id": 5158965910,
  "lat": 54.6857157,
  "lon": 25.2888395
},
{
  "type": "node",
  "id": 5158965911,
  "lat": 54.6857432,
  "lon": 25.2889931
},
{
  "type": "node",
  "id": 5159275505,
  "lat": 54.6857526,
  "lon": 25.2883995
},
{
  "type": "node",
  "id": 5159275507,
  "lat": 54.6856674,
  "lon": 25.2885671
},
{
  "type": "node",
  "id": 5159275510,
  "lat": 54.6859175,
  "lon": 25.2887020
},
{
  "type": "node",
  "id": 5159275511,
  "lat": 54.6858996,
  "lon": 25.2886017
},
{
  "type": "node",
  "id": 5159275512,
  "lat": 54.6857563,
  "lon": 25.2885203
},
{
  "type": "node",
  "id": 5159275723,
  "lat": 54.6860807,
  "lon": 25.2885850
},
{
  "type": "node",
  "id": 5159275727,
  "lat": 54.6860329,
  "lon": 25.2891986
},
{
  "type": "node",
  "id": 5159275730,
  "lat": 54.6860099,
  "lon": 25.2892110
},
{
  "type": "node",
  "id": 5160067133,
  "lat": 54.6857633,
  "lon": 25.2891053
},
{
  "type": "node",
  "id": 5160068768,
  "lat": 54.6862259,
  "lon": 25.2892641
},
{
  "type": "node",
  "id": 5160068769,
  "lat": 54.6863819,
  "lon": 25.2892759
},
{
  "type": "node",
  "id": 5160068775,
  "lat": 54.6860567,
  "lon": 25.2893302
},
{
  "type": "node",
  "id": 5160103757,
  "lat": 54.6863982,
  "lon": 25.2886267
},
{
  "type": "node",
  "id": 5161337191,
  "lat": 54.6860740,
  "lon": 25.2883698
},
{
  "type": "node",
  "id": 5161337192,
  "lat": 54.6861728,
  "lon": 25.2883712
},
{
  "type": "node",
  "id": 5163311237,
  "lat": 54.6859855,
  "lon": 25.2890768
},
{
  "type": "node",
  "id": 5163335496,
  "lat": 54.6862345,
  "lon": 25.2893380
},
{
  "type": "node",
  "id": 5164277169,
  "lat": 54.6859724,
  "lon": 25.2887804
},
{
  "type": "node",
  "id": 5164277170,
  "lat": 54.6859354,
  "lon": 25.2888006
},
{
  "type": "node",
  "id": 5164277171,
  "lat": 54.6860225,
  "lon": 25.2890564
},
{
  "type": "node",
  "id": 5164283875,
  "lat": 54.6861180,
  "lon": 25.2897087
},
{
  "type": "node",
  "id": 5164283877,
  "lat": 54.6861830,
  "lon": 25.2896783
},
{
  "type": "node",
  "id": 5165780346,
  "lat": 54.6861566,
  "lon": 25.2885735
},
{
  "type": "node",
  "id": 5174573576,
  "lat": 54.6864254,
  "lon": 25.2895849
},
{
  "type": "node",
  "id": 5174573577,
  "lat": 54.6862469,
  "lon": 25.2896601
},
{
  "type": "node",
  "id": 5174573578,
  "lat": 54.6862350,
  "lon": 25.2895861
},
{
  "type": "node",
  "id": 5174573579,
  "lat": 54.6861730,
  "lon": 25.2896158
},
{
  "type": "node",
  "id": 5174573580,
  "lat": 54.6861080,
  "lon": 25.2896461
},
{
  "type": "node",
  "id": 5174573585,
  "lat": 54.6860897,
  "lon": 25.2896546
},
{
  "type": "node",
  "id": 5174573586,
  "lat": 54.6858799,
  "lon": 25.2897529
},
{
  "type": "node",
  "id": 283240824,
  "lat": 54.6901585,
  "lon": 25.2779648
},
{
  "type": "node",
  "id": 283240825,
  "lat": 54.6903145,
  "lon": 25.2780493
},
{
  "type": "node",
  "id": 283240826,
  "lat": 54.6902083,
  "lon": 25.2786307
},
{
  "type": "node",
  "id": 283240827,
  "lat": 54.6900531,
  "lon": 25.2785467
},
{
  "type": "node",
  "id": 2358970434,
  "lat": 54.6902437,
  "lon": 25.2784353
},
{
  "type": "node",
  "id": 2358970435,
  "lat": 54.6902598,
  "lon": 25.2784440
},
{
  "type": "node",
  "id": 2358970437,
  "lat": 54.6902791,
  "lon": 25.2782446
},
{
  "type": "node",
  "id": 2358970438,
  "lat": 54.6902944,
  "lon": 25.2782528
},
{
  "type": "node",
  "id": 267134095,
  "lat": 54.6965272,
  "lon": 25.2713164
},
{
  "type": "node",
  "id": 267134096,
  "lat": 54.6965829,
  "lon": 25.2711376
},
{
  "type": "node",
  "id": 267134097,
  "lat": 54.6965393,
  "lon": 25.2708545
},
{
  "type": "node",
  "id": 267134098,
  "lat": 54.6965161,
  "lon": 25.2708329
},
{
  "type": "node",
  "id": 2551064221,
  "lat": 54.6964808,
  "lon": 25.2710423
},
{
  "type": "node",
  "id": 2551064222,
  "lat": 54.6969204,
  "lon": 25.2716833
},
{
  "type": "node",
  "id": 31442138,
  "lat": 54.6878892,
  "lon": 25.2896130
},
{
  "type": "node",
  "id": 267400489,
  "lat": 54.6874044,
  "lon": 25.2891726
},
{
  "type": "node",
  "id": 267400490,
  "lat": 54.6874230,
  "lon": 25.2891295
},
{
  "type": "node",
  "id": 267400492,
  "lat": 54.6872981,
  "lon": 25.2889680
},
{
  "type": "node",
  "id": 267400493,
  "lat": 54.6872731,
  "lon": 25.2890257
},
{
  "type": "node",
  "id": 267400494,
  "lat": 54.6869121,
  "lon": 25.2885218
},
{
  "type": "node",
  "id": 267400495,
  "lat": 54.6868144,
  "lon": 25.2886694
},
{
  "type": "node",
  "id": 267400496,
  "lat": 54.6877896,
  "lon": 25.2897771
},
{
  "type": "node",
  "id": 824657111,
  "lat": 54.6906488,
  "lon": 25.2878460
},
{
  "type": "node",
  "id": 824657116,
  "lat": 54.6903441,
  "lon": 25.2879035
},
{
  "type": "node",
  "id": 824657119,
  "lat": 54.6904901,
  "lon": 25.2881397
},
{
  "type": "node",
  "id": 908502952,
  "lat": 54.6905526,
  "lon": 25.2876904
},
{
  "type": "node",
  "id": 1132347681,
  "lat": 54.6873082,
  "lon": 25.2892353
},
{
  "type": "node",
  "id": 5158965882,
  "lat": 54.6866959,
  "lon": 25.2889216
},
{
  "type": "node",
  "id": 5158965890,
  "lat": 54.6865417,
  "lon": 25.2888731
},
{
  "type": "node",
  "id": 5158965891,
  "lat": 54.6865761,
  "lon": 25.2884683
},
{
  "type": "node",
  "id": 5158965896,
  "lat": 54.6865600,
  "lon": 25.2886703
},
{
  "type": "node",
  "id": 5160090330,
  "lat": 54.6866627,
  "lon": 25.2892348
},
{
  "type": "node",
  "id": 5400699067,
  "lat": 54.6905028,
  "lon": 25.2876099
},
{
  "type": "node",
  "id": 267130015,
  "lat": 54.6867097,
  "lon": 25.2906155
},
{
  "type": "node",
  "id": 267130016,
  "lat": 54.6866964,
  "lon": 25.2907026
},
{
  "type": "node",
  "id": 267130017,
  "lat": 54.6867228,
  "lon": 25.2907747
},
{
  "type": "node",
  "id": 267130018,
  "lat": 54.6867712,
  "lon": 25.2907923
},
{
  "type": "node",
  "id": 267130019,
  "lat": 54.6868221,
  "lon": 25.2906721
},
{
  "type": "node",
  "id": 267130022,
  "lat": 54.6867455,
  "lon": 25.2905773
},
{
  "type": "node",
  "id": 267137985,
  "lat": 54.6879198,
  "lon": 25.2906967
},
{
  "type": "node",
  "id": 267137986,
  "lat": 54.6875291,
  "lon": 25.2909435
},
{
  "type": "node",
  "id": 267137988,
  "lat": 54.6879763,
  "lon": 25.2904010
},
{
  "type": "node",
  "id": 475218081,
  "lat": 54.6868116,
  "lon": 25.2907460
},
{
  "type": "node",
  "id": 1053910061,
  "lat": 54.6867936,
  "lon": 25.2905924
},
{
  "type": "node",
  "id": 2086215821,
  "lat": 54.6878374,
  "lon": 25.2904887
},
{
  "type": "node",
  "id": 2086215823,
  "lat": 54.6878858,
  "lon": 25.2907182
},
{
  "type": "node",
  "id": 2086215831,
  "lat": 54.6881166,
  "lon": 25.2916293
},
{
  "type": "node",
  "id": 2086215833,
  "lat": 54.6882132,
  "lon": 25.2915683
},
{
  "type": "node",
  "id": 2467295936,
  "lat": 54.6874807,
  "lon": 25.2907139
},
{
  "type": "node",
  "id": 3608397243,
  "lat": 54.6881797,
  "lon": 25.2913651
},
{
  "type": "node",
  "id": 3608397244,
  "lat": 54.6881956,
  "lon": 25.2914847
},
{
  "type": "node",
  "id": 3608397245,
  "lat": 54.6881973,
  "lon": 25.2913540
},
{
  "type": "node",
  "id": 3608397246,
  "lat": 54.6882214,
  "lon": 25.2914684
},
{
  "type": "node",
  "id": 5173974953,
  "lat": 54.6884254,
  "lon": 25.2922614
},
{
  "type": "node",
  "id": 5173974954,
  "lat": 54.6884455,
  "lon": 25.2923570
},
{
  "type": "node",
  "id": 5173974955,
  "lat": 54.6877721,
  "lon": 25.2927820
},
{
  "type": "node",
  "id": 5173974956,
  "lat": 54.6877362,
  "lon": 25.2926115
},
{
  "type": "node",
  "id": 5173974957,
  "lat": 54.6883740,
  "lon": 25.2917593
},
{
  "type": "node",
  "id": 5173974958,
  "lat": 54.6884588,
  "lon": 25.2921610
},
{
  "type": "node",
  "id": 5173974959,
  "lat": 54.6878156,
  "lon": 25.2925614
},
{
  "type": "node",
  "id": 5173974960,
  "lat": 54.6877319,
  "lon": 25.2921648
},
{
  "type": "node",
  "id": 5173974961,
  "lat": 54.6884107,
  "lon": 25.2921910
},
{
  "type": "node",
  "id": 5173974962,
  "lat": 54.6882677,
  "lon": 25.2918265
},
{
  "type": "node",
  "id": 5173974963,
  "lat": 54.6881711,
  "lon": 25.2918875
},
{
  "type": "node",
  "id": 698533346,
  "lat": 54.6884513,
  "lon": 25.3029671
},
{
  "type": "node",
  "id": 698533347,
  "lat": 54.6882768,
  "lon": 25.3025915
},
{
  "type": "node",
  "id": 698533348,
  "lat": 54.6884959,
  "lon": 25.3019778
},
{
  "type": "node",
  "id": 698533355,
  "lat": 54.6888740,
  "lon": 25.3016386
},
{
  "type": "node",
  "id": 698533356,
  "lat": 54.6904439,
  "lon": 25.3019186
},
{
  "type": "node",
  "id": 698533357,
  "lat": 54.6911929,
  "lon": 25.3028584
},
{
  "type": "node",
  "id": 2675276342,
  "lat": 54.6902030,
  "lon": 25.3018470
},
{
  "type": "node",
  "id": 2675276346,
  "lat": 54.6900373,
  "lon": 25.3017623
},
{
  "type": "node",
  "id": 2675276348,
  "lat": 54.6897022,
  "lon": 25.3026481
},
{
  "type": "node",
  "id": 3415517233,
  "lat": 54.6907545,
  "lon": 25.3023083
},
{
  "type": "node",
  "id": 698533350,
  "lat": 54.6898238,
  "lon": 25.3041119
},
{
  "type": "node",
  "id": 698533351,
  "lat": 54.6893549,
  "lon": 25.3040889
},
{
  "type": "node",
  "id": 698533352,
  "lat": 54.6890843,
  "lon": 25.3040735
},
{
  "type": "node",
  "id": 698533364,
  "lat": 54.6902736,
  "lon": 25.3042061
},
{
  "type": "node",
  "id": 698533365,
  "lat": 54.6900155,
  "lon": 25.3041388
},
{
  "type": "node",
  "id": 698533367,
  "lat": 54.6904994,
  "lon": 25.3042820
},
{
  "type": "node",
  "id": 698533368,
  "lat": 54.6907096,
  "lon": 25.3041653
},
{
  "type": "node",
  "id": 2675276368,
  "lat": 54.6905685,
  "lon": 25.3040781
},
{
  "type": "node",
  "id": 2806064035,
  "lat": 54.6905850,
  "lon": 25.3040275
},
{
  "type": "node",
  "id": 2385599710,
  "lat": 54.6164862,
  "lon": 25.4631540
},
{
  "type": "node",
  "id": 2385599711,
  "lat": 54.6163778,
  "lon": 25.4634618
},
{
  "type": "node",
  "id": 2385599713,
  "lat": 54.6164002,
  "lon": 25.4630637
},
{
  "type": "node",
  "id": 2385599714,
  "lat": 54.6162918,
  "lon": 25.4633715
},
{
  "type": "node",
  "id": 2385602433,
  "lat": 54.6935173,
  "lon": 25.4102094
},
{
  "type": "node",
  "id": 2385602436,
  "lat": 54.6934044,
  "lon": 25.4096511
},
{
  "type": "node",
  "id": 2385602438,
  "lat": 54.6934613,
  "lon": 25.4102260
},
{
  "type": "node",
  "id": 2385602440,
  "lat": 54.6934604,
  "lon": 25.4096345
},
{
  "type": "node",
  "id": 1698398932,
  "lat": 54.8505724,
  "lon": 25.3415062
},
{
  "type": "node",
  "id": 1698398953,
  "lat": 54.8505767,
  "lon": 25.3414135
},
{
  "type": "node",
  "id": 1698398959,
  "lat": 54.8506411,
  "lon": 25.3414225
},
{
  "type": "node",
  "id": 1698398965,
  "lat": 54.8506493,
  "lon": 25.3412452
},
{
  "type": "node",
  "id": 1698398967,
  "lat": 54.8507282,
  "lon": 25.3415279
},
{
  "type": "node",
  "id": 1698398978,
  "lat": 54.8507407,
  "lon": 25.3412579
}

  ]
}
