{
  "version": 0.6,
  "generator": "Overpass API 0.7.55.1011 6c2efc30",
  "osm3s": {
    "timestamp_osm_base": "2020-02-14T14:23:02Z",
    "copyright": "The data included in this document is from www.openstreetmap.org. The data is made available under ODbL."
  },
  "elements": [

{
  "type": "node",
  "id": 2184219101,
  "lat": 47.0415140,
  "lon": 27.5141062,
  "tags": {
    "name": "Muzeul Satului",
    "tourism": "museum"
  }
},
{
  "type": "node",
  "id": 2634651840,
  "lat": 47.1864920,
  "lon": 27.5578620,
  "tags": {
    "SIRUTA:code": "95079",
    "addr:city": "Iași",
    "addr:housenumber": "7-9",
    "addr:postcode": "700487",
    "addr:street": "Strada Dumbrava Roșie",
    "codul_entității_muzeale": "7412200.0",
    "email": "gbot.is@uaic.ro",
    "fax": "0232/201.385",
    "leisure": "garden",
    "museum_type": "Natural Sciences - Botanics",
    "name": "Grădina Botanică \"Anastasie Fatu\"",
    "name:en": "\"Anastasie Fatu\" Botanic Garden",
    "opening_hours": "9:00-20:00",
    "phone": "0232/201.373",
    "source": "INP",
    "source:link": "http://date.gov.ro/dataset/ghidul-muzeelor-din-romania",
    "start_date": "1965",
    "tourism": "museum",
    "tourism_survey": "07.12.2011 14:35:07",
    "website": "http://botanica.uaic.ro/index.htm"
  }
},
{
  "type": "node",
  "id": 2634651898,
  "lat": 47.4422928,
  "lon": 27.5506368,
  "tags": {
    "SIRUTA:code": "99628",
    "addr:city": "Trifești",
    "addr:postcode": "707521",
    "codul_entității_muzeale": "7147100.0",
    "description:en": "In 1807 Dinu Negruzzi (the father of writer Constantin Negruzzi) received on his marriage to Sofia Hermeziu, as dowry, the estate of Trifestii Vechi (a locality later named Hermeziu, and since 1967 Lunca Prut). Here were born: Constantin (Costache) Negru",
    "description:ro": "in anul 1807 Dinu Negruzzi (tatal scriitorului Constantin Negruzzi) a primit la casatoria sa cu Sofia Hermeziu, ca zestre, mosia Trifestii Vechi (localitate care apoi s-a numit Hermeziu si, din 1967, Lunca Prut). Aici s-au nascut: postelnicul Constantin",
    "historic": "memorial",
    "name": "Muzeul \"Costache Negruzzi\"",
    "name:en": "\"Costache Negruzzi\" Memorial House",
    "opening_hours": "10:00-17:00; Mo closed",
    "phone": "0232/298.155",
    "source": "INP",
    "source:link": "http://date.gov.ro/dataset/ghidul-muzeelor-din-romania",
    "start_date": "1995",
    "tourism": "museum",
    "tourism_survey": "04.10.2013 11:26:42",
    "website": "http://www.muzeulliteraturiiiasi.ro"
  }
},
{
  "type": "node",
  "id": 2634651921,
  "lat": 46.9190850,
  "lon": 27.6845860,
  "tags": {
    "SIRUTA:code": "166244",
    "addr:city": "Tăcuta",
    "addr:postcode": "737515",
    "codul_entității_muzeale": "7178900.0",
    "name": "Colecția \"Elena și Costel Rotaru\"",
    "name:en": "\"Elena and Costel Rotaru\" Collection",
    "opening_hours": "13:00-20:00",
    "phone": "0235/349.135",
    "source": "INP",
    "source:link": "http://date.gov.ro/dataset/ghidul-muzeelor-din-romania",
    "start_date": "1984",
    "tourism": "museum",
    "tourism_survey": "28.08.2013 13:01:43"
  }
},
{
  "type": "node",
  "id": 2634651925,
  "lat": 46.8743330,
  "lon": 27.6815354,
  "tags": {
    "LMI": "VS-II-a-B-06795",
    "SIRUTA:code": "163299",
    "addr:city": "Emil Racoviță",
    "addr:postcode": "737163",
    "codul_entității_muzeale": "6977504.0",
    "description:ro": "Organizata in casa in care s-a nascut Emil Racovita.",
    "fixme": "Adresa muzeului este de fapt adresa localitati, trebuie cautat manual unde este adresa corecta",
    "historic": "memorial",
    "name": "Casa Memorială \"Emil Racoviță\"",
    "name:en": "\"Emil Racovita\" Memorial House",
    "opening_hours": "9:00-17:00",
    "phone": "0235/311.626; 0235/341.428; 0235/341.419",
    "source": "INP",
    "source:link": "http://date.gov.ro/dataset/ghidul-muzeelor-din-romania",
    "start_date": "1964",
    "tourism": "museum",
    "tourism_survey": "06.09.2013 10:52:51"
  }
},
{
  "type": "node",
  "id": 2634651949,
  "lat": 47.1749483,
  "lon": 27.5782917,
  "tags": {
    "SIRUTA:code": "95079",
    "addr:city": "Iași",
    "addr:housenumber": "7",
    "addr:postcode": "700108",
    "addr:street": "Strada Dimitrie Ralet",
    "codul_entității_muzeale": "6.9465062E7",
    "fixme": "location",
    "name": "Casa Memorială \"George Topârceanu\"",
    "name:en": "\"George Toparceanu\" Memorial House",
    "opening_hours": "10:00-17:00; Mo closed",
    "phone": "0747499407",
    "source": "INP",
    "source:link": "http://date.gov.ro/dataset/ghidul-muzeelor-din-romania",
    "start_date": "1985",
    "tourism": "museum",
    "tourism_survey": "04.10.2013 11:26:44",
    "website": "http://www.muzeulliteraturiiiasi.ro"
  }
},
{
  "type": "node",
  "id": 2634652033,
  "lat": 47.1677770,
  "lon": 27.5870989,
  "tags": {
    "SIRUTA:code": "95079",
    "addr:city": "Iași",
    "addr:housenumber": "5",
    "addr:postcode": "700115",
    "addr:street": "Strada Rece",
    "codul_entității_muzeale": "6946512.0",
    "description:en": "The museum is organized in the house where the poet lived and wrote between 1934 and 1957 (the \"Sonet Villa\"). The exhibition rooms belonged after the poet's death to his wife who left them in her will for a memorial exhibition. Three of the rooms - the",
    "description:ro": "Muzeul este organizat in casa in care a locuit si a scris poetul, in perioada 1934 - 1957 (\"Vila Sonet\"). Camerele amenajate expozitional au apartinut, dupa moartea poetului, sotiei acestuia, care le-a lasat prin testament in vederea amenajarii expozitie",
    "name": "Muzeul \"Mihai Codreanu\"",
    "name:en": "\"Mihai Codreanu\" Museum",
    "opening_hours": "10:00-17:00; Mo closed",
    "phone": "0747499401",
    "source": "INP",
    "source:link": "http://date.gov.ro/dataset/ghidul-muzeelor-din-romania",
    "start_date": "1970",
    "tourism": "museum",
    "tourism_survey": "04.10.2013 11:26:46",
    "website": "http://www.muzeulliteraturiiiasi.ro"
  }
},
{
  "type": "node",
  "id": 2634652049,
  "lat": 47.1734300,
  "lon": 27.5805470,
  "tags": {
    "LMI": "IS-II-m-B-03919",
    "SIRUTA:code": "95079",
    "addr:city": "Iași",
    "addr:housenumber": "11",
    "addr:postcode": "700454",
    "addr:street": "Strada Mihail Kogălniceanu",
    "codul_entității_muzeale": "6946509.0",
    "email": "contact@muzeul-moldova.ro; muzeukogalniceanuiasi@gmail.com",
    "fax": "0232/218.383",
    "museum_type": "Historical Personalities",
    "name": "Muzeul Memorial \"Mihail Kogălniceanu\"",
    "name:en": "\"Mihail Kogalniceanu\" Memorial Museum",
    "opening_hours": "11:00-17:00; Mo closed",
    "phone": "0232/258.422",
    "source": "INP",
    "source:link": "http://date.gov.ro/dataset/ghidul-muzeelor-din-romania",
    "start_date": "1975",
    "tourism": "museum",
    "tourism_survey": "20.07.2012 13:35:06",
    "website": "http://www.muzeul-moldova.ro; http://www.palatulculturii.ro"
  }
},
{
  "type": "node",
  "id": 2634652052,
  "lat": 47.1965890,
  "lon": 27.5543650,
  "tags": {
    "SIRUTA:code": "95079",
    "addr:city": "Iași",
    "addr:housenumber": "12",
    "addr:postcode": "700489",
    "addr:street": "Aleea Mihail Sadoveanu",
    "alt_name": "Casa Mihail Sadoveanu",
    "codul_entității_muzeale": "6946510.0",
    "description:en": "The seven rooms of the museum have been organized as follows: documents on the history of the house and the personalities who lived there; the writer's school years and his debut; documents, works of art, personal belongings, the writer's early books; th",
    "description:ro": "Cele sapte incaperi ale muzeului au fost amenajate astfel: documente privind istoricul casei si a personalitatilor care au locuit-o; anii de scoala si debutul scriitorului; documente, lucrari de arta, obiecte personale privind familia, cartile de inceput",
    "name": "Muzeul \"Mihail Sadoveanu\"",
    "name:en": "\"Mihail Sadoveanu\" Museum",
    "opening_hours": "10:00-17:00; Mo closed",
    "phone": "0747499408",
    "source": "INP",
    "source:link": "http://date.gov.ro/dataset/ghidul-muzeelor-din-romania",
    "start_date": "1980",
    "tourism": "museum",
    "tourism_survey": "04.10.2013 11:27:08",
    "website": "http://www.muzeulliteraturiiiasi.ro",
    "wikipedia:ro": "Casa Memorială „Mihail Sadoveanu” din Iași"
  }
},
{
  "type": "node",
  "id": 2634652054,
  "lat": 47.1575620,
  "lon": 27.5868093,
  "tags": {
    "SIRUTA:code": "95079",
    "addr:city": "Iași",
    "addr:housenumber": "1",
    "addr:postcode": "700028",
    "addr:street": "Piața Ștefan cel Mare și Sfânt",
    "amenity": "clock",
    "codul_entității_muzeale": "6946500.0",
    "email": "contact@muzeul-moldova.ro",
    "fax": "0232/218.383",
    "name": "Complexul Muzeal Național \"Moldova\"",
    "name:en": "\"Moldavia\" National Museum Complex",
    "opening_hours": "closed",
    "phone": "0232/218.383",
    "source": "INP",
    "source:link": "http://date.gov.ro/dataset/ghidul-muzeelor-din-romania",
    "start_date": "1955",
    "tourism": "museum",
    "tourism_survey": "10.12.2013 14:14:16",
    "website": "http://www.muzeul-moldova.ro; http://www.palatulculturii.ro",
    "wikidata": "Q18539167"
  }
},
{
  "type": "node",
  "id": 2634652066,
  "lat": 47.1716430,
  "lon": 27.5781570,
  "tags": {
    "SIRUTA:code": "95079",
    "addr:city": "Iași",
    "addr:housenumber": "22A",
    "addr:postcode": "700110",
    "addr:street": "Strada Nicolae Gane",
    "codul_entității_muzeale": "6.9465064E7",
    "name": "Muzeul \"Nicolae Gane\"",
    "name:en": "\"Nicolae Gane\" Museum",
    "opening_hours": "closed",
    "phone": "0747499404",
    "source": "INP",
    "source:link": "http://date.gov.ro/dataset/ghidul-muzeelor-din-romania",
    "start_date": "1993",
    "tourism": "museum",
    "tourism_survey": "04.10.2013 11:27:01",
    "website": "http://www.muzeulliteraturiiiasi.ro"
  }
},
{
  "type": "node",
  "id": 2634652080,
  "lat": 47.1590520,
  "lon": 27.5982780,
  "tags": {
    "SIRUTA:code": "95079",
    "addr:city": "Iași",
    "addr:housenumber": "4",
    "addr:postcode": "700400",
    "addr:street": "Strada Otilia Cazimir",
    "codul_entității_muzeale": "6946515.0",
    "description:en": "It was organized in the poetess' house and it faithfully renders the original environment. The exhibits are displayed in two rooms and a hall.",
    "description:ro": "Organizata in casa scriitoarei, reuseste sa redea in chip autentic mediul in care aceasta a trait si a creat. Obiectele sunt expuse in doua camere si un hol.",
    "name": "Muzeul \"Otilia Cazimir\"",
    "name:en": "\"Otilia Cazimir\" Museum",
    "opening_hours": "10:00-17:00; Mo closed",
    "phone": "0747499402",
    "source": "INP",
    "source:link": "http://date.gov.ro/dataset/ghidul-muzeelor-din-romania",
    "start_date": "1972",
    "tourism": "museum",
    "tourism_survey": "04.10.2013 11:26:49",
    "website": "http://www.muzeulliteraturiiiasi.ro"
  }
},
{
  "type": "node",
  "id": 2634652095,
  "lat": 47.1726692,
  "lon": 27.5804777,
  "tags": {
    "LMI": "IS-II-m-B-03918",
    "SIRUTA:code": "95079",
    "addr:city": "Iași",
    "addr:housenumber": "7B",
    "addr:postcode": "700454",
    "addr:street": "Strada Mihail Kogălniceanu",
    "codul_entității_muzeale": "6.9465041E7",
    "description:en": "The museum has been founded on the basis of donations. The building was donated in 1971, and the furniture, books, documents, and decorations in 1974 by Florica Magheru, a relative of Petru Poni's. Other donations were made by family descendants or stude",
    "description:ro": "Muzeul este constituit pe baza unor donatii - cladirea, in 1971, si mobilier, carti, documente, decoratii etc. donate in 1974 de Florica Magheru, nepoata lui Petru Poni, la care s-au adaugat donatii facute de descendenti ai familiilor sau studenti ai per",
    "email": "contact@muzeul-moldova.ro",
    "fax": "0232/218.383",
    "name": "Muzeul Memorial \"Poni - Cernătescu\"",
    "name:en": "\"Poni - Cernatescu\" Memorial Museum",
    "opening_hours": "10:00-17:00; Mo closed",
    "phone": "0232/267.759",
    "source": "INP",
    "source:link": "http://date.gov.ro/dataset/ghidul-muzeelor-din-romania",
    "start_date": "1991",
    "tourism": "museum",
    "tourism_survey": "09.10.2012 22:11:41",
    "website": "http://www.muzeul-moldova.ro; http://www.palatulculturii.ro",
    "wikidata": "Q18549576"
  }
},
{
  "type": "node",
  "id": 2634652117,
  "lat": 47.1590085,
  "lon": 27.5868044,
  "tags": {
    "LMI": "IS-II-m-A-03963",
    "SIRUTA:code": "95079",
    "addr:city": "Iași",
    "addr:housenumber": "54",
    "addr:postcode": "700019",
    "addr:street": "Strada Anastasie Panu",
    "codul_entității_muzeale": "6946507.0",
    "description:en": "The two rooms on the ground floor and the one on the upper floor house an exhibition illustrating the development of Romanian literature from the oldest times to 1830, including the historical one.",
    "description:ro": "in cele doua incaperi de la parter si una de la etaj a fost organizata o expozitie ilustrativa pentru dezvoltarea literaturii romane din cele mai vechi timpuri si pana in anul 1830, inclusiv cea cu caracter istoric.",
    "name": "Casa Mitropolitului Dosoftei",
    "name:en": "\"St. Hierarch Dosoftei\" the Metropolitan",
    "opening_hours": "10:00-17:00; Mo closed",
    "phone": "0747499403",
    "source": "INP",
    "source:link": "http://date.gov.ro/dataset/ghidul-muzeelor-din-romania",
    "start_date": "1970",
    "tourism": "museum",
    "tourism_survey": "04.10.2013 11:26:55",
    "website": "http://www.muzeulliteraturiiiasi.ro"
  }
},
{
  "type": "node",
  "id": 2634652133,
  "lat": 47.1789620,
  "lon": 27.5671780,
  "tags": {
    "LMI": "IS-II-m-B-03701",
    "SIRUTA:code": "95079",
    "addr:city": "Iași",
    "addr:postcode": "700054",
    "addr:street": "Parcul Copou",
    "codul_entității_muzeale": "6946508.0",
    "description:en": "The collection item illustrate the evolution of the drama phenomenon from its beginning to this day, namely the main moments in the history of drama and the contribution of the great personalities to its development (Gh. Asachi, V. Alecsandri, Matei Mill",
    "description:ro": "Muzeul prezinta evolutia fenomenului teatral de la primele sale manifestari pana in contemporaneitate, ilustrand principalele momente din istoria teatrului si contributia marilor personalitati la dezvoltarea acestuia (Gh. Asachi, V. Alecsandri, Matei Mil",
    "name": "Colecția Muzeală \"Istoria Teatrului Românesc\"",
    "name:en": "\"The History of Romanian Theatre\" Museum Collection",
    "opening_hours": "10:00-17:00; Mo closed",
    "phone": "0747.499.406",
    "source": "INP",
    "source:link": "http://date.gov.ro/dataset/ghidul-muzeelor-din-romania",
    "start_date": "1976",
    "tourism": "museum",
    "tourism_survey": "04.10.2013 11:26:53",
    "website": "http://www.muzeulliteraturiiiasi.ro"
  }
},
{
  "type": "node",
  "id": 2634652139,
  "lat": 47.1595890,
  "lon": 27.5843430,
  "tags": {
    "SIRUTA:code": "95079",
    "addr:city": "Iași",
    "addr:housenumber": "28",
    "addr:postcode": "700064",
    "addr:street": "Bulevardul Ștefan cel Mare și Sfânt",
    "codul_entității_muzeale": "5.1620000128E10",
    "name": "Colecția Muzeală a Bisericii „Trei Ierarhi”",
    "name:en": "\"Three Hierarchs\" Church Museum Collection",
    "phone": "+40232 216 349",
    "source": "INP",
    "source:link": "http://date.gov.ro/dataset/ghidul-muzeelor-din-romania",
    "tourism": "museum",
    "tourism_survey": "13.09.2013 10:57:53"
  }
},
{
  "type": "node",
  "id": 2634652165,
  "lat": 47.1573661,
  "lon": 27.5863786,
  "tags": {
    "SIRUTA:code": "95079",
    "addr:city": "Iași",
    "addr:housenumber": "1",
    "addr:postcode": "700028",
    "addr:street": "Piața Ștefan cel Mare și Sfânt",
    "codul_entității_muzeale": "6946504.0",
    "description:en": "The museum was founded as a single section, the energy one. In 1966 the sound recording and rendering section was opened.",
    "description:ro": "Muzeul a fost infiintat cu o singura sectie, cea energetica. in 1966, se deschide sectia \"inregistrarea si redarea sunetului\".",
    "email": "contact@muzeul-moldova.ro;relatii_publice@muzeul-moldova.ro",
    "fax": "0232/218.383",
    "museum_type": "Science and Technology",
    "name": "Muzeul Științei și Tehnicii \"Ștefan Procopiu\"",
    "name:en": "\"Ștefan Procopiu\" Museum of Science and Technology",
    "opening_hours": "closed",
    "phone": "0232/275.979 (int. 145)",
    "source": "INP",
    "source:link": "http://date.gov.ro/dataset/ghidul-muzeelor-din-romania",
    "start_date": "1955",
    "tourism": "museum",
    "tourism_survey": "05.12.2013 11:37:35",
    "website": "http://www.muzeul-moldova.ro;http://www.palatulculturii.ro",
    "wikidata": "Q18544249",
    "wikipedia": "ro:Muzeul Științei și Tehnicii „Ștefan Procopiu”"
  }
},
{
  "type": "node",
  "id": 2634652204,
  "lat": 47.1575851,
  "lon": 27.5875663,
  "tags": {
    "SIRUTA:code": "95079",
    "addr:city": "Iași",
    "addr:housenumber": "1",
    "addr:postcode": "700028",
    "addr:street": "Piața Ștefan cel Mare și Sfânt",
    "codul_entității_muzeale": "6946503.0",
    "description:en": "Founded in 1860, it functioned as part of the Mihail Academy. Since 1957 it moved to the Palace of Culture and became a section of the Iasi museum complex.",
    "description:ro": "infiintat in 1860, a functionat in cadrul Academiei Mihailene. Din 1957, mutat in sediul Palatului Culturii, devine sectie a Complexului muzeistic Iasi.",
    "email": "contact@muzeul-moldova.ro si relatii_publice@muzeul-moldova.ro",
    "fax": "0232/218.383",
    "name": "Muzeul de Artă",
    "name:en": "Art Museum",
    "opening_hours": "closed",
    "phone": "0232/275.979 (int. 166)",
    "source": "INP",
    "source:link": "http://date.gov.ro/dataset/ghidul-muzeelor-din-romania",
    "start_date": "1860",
    "tourism": "museum",
    "tourism_survey": "10.12.2013 14:14:06",
    "website": "http://www.muzeul-moldova.ro;http://www.palatulculturii.ro",
    "wikidata": "Q18540862",
    "wikipedia": "ro:Muzeul de Artă din Iași"
  }
},
{
  "type": "node",
  "id": 2634652313,
  "lat": 47.1572421,
  "lon": 27.5862447,
  "tags": {
    "SIRUTA:code": "95079",
    "addr:city": "Iași",
    "addr:housenumber": "1",
    "addr:postcode": "700028",
    "addr:street": "Piața Ștefan cel Mare și Sfânt",
    "codul_entității_muzeale": "6946502.0",
    "description:en": "At first it was founded as part of the Ethnography Department of the University of Iasi by Ion Chelcea. Most exhibits are old, often over 100 years. Since 1954 the museum has functioned in the Palace of Culture.",
    "description:ro": "infiintat initial pe langa Catedra de etnografie a Universitatii din Iasi, de catre Ion Chelcea. Majoritatea exponatelor sunt vechi, varsta lor depasind, adesea, 100 de ani. Din anul 1954, muzeul este mutat in Palatul Culturii.",
    "email": "contact@muzeul-moldova.ro;relatii_publice@muzeul-moldova.ro",
    "fax": "0232/218.383",
    "name": "Muzeul Etnografic al Moldovei",
    "name:en": "Ethnographic Museum of Moldavia",
    "opening_hours": "closed",
    "phone": "0232/275.979 (int.144)",
    "source": "INP",
    "source:link": "http://date.gov.ro/dataset/ghidul-muzeelor-din-romania",
    "start_date": "1943",
    "tourism": "museum",
    "tourism_survey": "10.12.2013 14:14:08",
    "website": "http://www.muzeul-moldova.ro;http://www.palatulculturii.ro",
    "wikidata": "Q18542233",
    "wikipedia": "ro:Muzeul Etnografic al Moldovei"
  }
},
{
  "type": "node",
  "id": 2634652389,
  "lat": 47.1462892,
  "lon": 27.5689660,
  "tags": {
    "SIRUTA:code": "95079",
    "addr:city": "Iași",
    "addr:housenumber": "4",
    "addr:postcode": "700616",
    "addr:street": "Strada Mănăstirii",
    "codul_entității_muzeale": "5.1620000125E10",
    "name": "Colecția Muzeală a Mănăstirii Galata",
    "name:en": "Galata Monastery Museum Collection",
    "opening_hours": "unknown",
    "shop": "religion",
    "source": "INP",
    "source:link": "http://date.gov.ro/dataset/ghidul-muzeelor-din-romania",
    "tourism": "museum",
    "tourism_survey": "16.09.2013 13:58:07",
    "website": "https://www.crestinortodox.ro/manastiri/manastirea-galata-117609.html"
  }
},
{
  "type": "node",
  "id": 2634652394,
  "lat": 47.1648400,
  "lon": 27.5894020,
  "tags": {
    "SIRUTA:code": "95079",
    "addr:city": "Iași",
    "addr:housenumber": "51",
    "addr:postcode": "700038",
    "addr:street": "Strada Cuza Vodă",
    "codul_entității_muzeale": "5.1620000126E10",
    "name": "Colecția Mănăstirii Golia",
    "name:en": "Golia Monastery Collection",
    "opening_hours": "unknown",
    "source": "INP",
    "source:link": "http://date.gov.ro/dataset/ghidul-muzeelor-din-romania",
    "tourism": "museum",
    "tourism_survey": "13.09.2013 10:57:53",
    "website": "http://www.golia.ro"
  }
},
{
  "type": "node",
  "id": 2634652411,
  "lat": 47.1575567,
  "lon": 27.5872264,
  "tags": {
    "SIRUTA:code": "95079",
    "addr:city": "Iași",
    "addr:housenumber": "1",
    "addr:postcode": "700028",
    "addr:street": "Piața Ștefan cel Mare și Sfânt",
    "codul_entității_muzeale": "6946501.0",
    "description:en": "The museum is situated on the ground floor of the Palace of Culture and is a continuation of the Museum of Antiquities, founded by Orest Tafrali, in 1916. The section of ancient history has two subsidiaries: the Cucuteni museum and the Dacian fortress of",
    "description:ro": "Muzeul este situat la parterul Palatului Culturii si este continuatorul Muzeului de Antichitati, infiintat de Orest Tafrali, in 1916, pe langa Universitatea iesana. Sectia de istorie veche are doua filiale: muzeul de la Cucuteni si cetatea dacica de al C",
    "email": "contact@muzeul-moldova.ro;relatii_publice@muzeul-moldova.ro",
    "fax": "0232/218.383",
    "name": "Muzeul de Istorie a Moldovei",
    "name:en": "History Museum of Moldavia",
    "opening_hours": "closed",
    "operator": "Complexul Muzeal Național Moldova",
    "phone": "0232/275.979 (int.122)",
    "source": "INP",
    "source:link": "http://date.gov.ro/dataset/ghidul-muzeelor-din-romania",
    "start_date": "1916",
    "tourism": "museum",
    "tourism_survey": "10.12.2013 14:14:12",
    "website": "http://www.muzeul-moldova.ro;http://www.palatulculturii.ro",
    "wikidata": "Q25458818",
    "wikipedia": "ro:Muzeul de Istorie a Moldovei"
  }
},
{
  "type": "node",
  "id": 2634652456,
  "lat": 47.1634780,
  "lon": 27.5943020,
  "tags": {
    "SIRUTA:code": "95079",
    "addr:city": "Iași",
    "addr:housenumber": "15",
    "addr:postcode": "700398",
    "addr:postcode:source": "Date de la Poșta Română, publicate sub Licența pentru Guvernare Deschisă v1.0 la http://date.gov.ro/organization/posta-romana",
    "addr:street": "Strada Elena Doamna",
    "codul_entității_muzeale": "650910.0",
    "name": "Muzeul Comunității Evreilor",
    "name:en": "Jewish Community Museum",
    "opening_hours": "unknown",
    "phone": "0232-313711",
    "source": "INP",
    "source:link": "http://date.gov.ro/dataset/ghidul-muzeelor-din-romania",
    "tourism": "museum",
    "tourism_survey": "27.11.2012 13:22:10"
  }
},
{
  "type": "node",
  "id": 2634652503,
  "lat": 47.1616010,
  "lon": 27.5820820,
  "tags": {
    "SIRUTA:code": "95079",
    "addr:city": "Iași",
    "addr:housenumber": "16",
    "addr:postcode": "700064",
    "addr:street": "Bulevardul Ștefan cel Mare și Sfânt",
    "codul_entității_muzeale": "5.1620000127E10",
    "name": "Colecția Muzeală a Mitropoliei Moldovei și Bucovinei",
    "name:en": "Museum Collection of the Metropolitan Seat of Moldova and Bukovina",
    "source": "INP",
    "source:link": "http://date.gov.ro/dataset/ghidul-muzeelor-din-romania",
    "start_date": "1930",
    "tourism": "museum",
    "tourism_survey": "17.09.2013 10:19:18"
  }
},
{
  "type": "node",
  "id": 2634652550,
  "lat": 47.1720480,
  "lon": 27.5762570,
  "tags": {
    "LMI": "IS-IV-m-B-04358",
    "SIRUTA:code": "95079",
    "addr:city": "Iași",
    "addr:housenumber": "4",
    "addr:postcode": "700110",
    "addr:street": "Strada Vasile Pogor",
    "codul_entității_muzeale": "6946506.0",
    "description:en": "It was founded in the house, a historic monument, belonging to the literary society of \"Junimea\", where Vasile Pogor and Mihai Eminescu once lived. First it functioned as a section of literature belonging to the Iasi museum complex. It became an institut",
    "description:ro": "infiintat in casa, monument istoric, apartinand Societatii literare \"Junimea\", unde au locuit Vasile Pogor si Mihai Eminescu. A functionat mai intai ca sectie de literatura in cadrul Complexului Muzeistic Iasi. Devine institutie de sine statatoare la 1 o",
    "email": "muzeul_lit_iasi@hotmail.com",
    "fax": "0232/213.210",
    "name": "Muzeul Literaturii Române",
    "name:en": "Museum of Romanian Literature",
    "opening_hours": "10:00-17:00; Mo closed",
    "phone": "0232/213.210",
    "source": "INP",
    "source:link": "http://date.gov.ro/dataset/ghidul-muzeelor-din-romania",
    "start_date": "1971",
    "tourism": "museum",
    "tourism_survey": "04.10.2013 11:27:04",
    "website": "http://www.muzeulliteraturiiiasi.ro"
  }
},
{
  "type": "node",
  "id": 2634652679,
  "lat": 47.1674230,
  "lon": 27.5791460,
  "tags": {
    "LMI": "IS-II-m-A-03930",
    "SIRUTA:code": "95079",
    "addr:city": "Iași",
    "addr:housenumber": "14",
    "addr:postcode": "700057",
    "addr:street": "Strada Alexandru Lăpușneanu",
    "codul_entității_muzeale": "6946505.0",
    "description:en": "It opened in 1959, on the occasion of the one hundred year anniversary of the Unification.",
    "description:ro": "Deschis pentru public in anul 1959, cu ocazia sarbatoririi centenarului Unirii.",
    "email": "contact@muzeul-moldova.ro; relatii_publice@muzeul-moldova.ro",
    "fax": "0232/218.383",
    "name": "Muzeul Unirii",
    "name:en": "Museum of the Union",
    "opening_hours": "10:00-17:00; Mo closed",
    "phone": "0232/314.614",
    "source": "INP",
    "source:link": "http://date.gov.ro/dataset/ghidul-muzeelor-din-romania",
    "start_date": "1959",
    "tourism": "museum",
    "tourism_survey": "10.12.2013 14:18:19",
    "website": "http://www.muzeul-moldova.ro; http://www.palatulculturii.ro"
  }
},
{
  "type": "node",
  "id": 2634652794,
  "lat": 47.1761320,
  "lon": 27.5682770,
  "tags": {
    "SIRUTA:code": "0",
    "addr:city": "Iași",
    "addr:housenumber": "12",
    "addr:postcode": "700460",
    "addr:street": "Strada Titu Maiorescu",
    "codul_entității_muzeale": "808030.0",
    "email": "muzeul@uaic.ro",
    "name": "Muzeul Universității „Al. I. Cuza”",
    "phone": "0232/20.11.02, 0232/20.24.51",
    "source": "INP",
    "source:link": "http://date.gov.ro/dataset/ghidul-muzeelor-din-romania",
    "tourism": "museum",
    "tourism_survey": "04.12.2013 15:32:36",
    "website": "http://www.muzeul.uaic.ro/ro.html"
  }
},
{
  "type": "node",
  "id": 2634652849,
  "lat": 47.1669080,
  "lon": 27.5842300,
  "tags": {
    "LMI": "IS-II-m-B-03917",
    "SIRUTA:code": "95079",
    "addr:city": "Iași",
    "addr:housenumber": "16",
    "addr:postcode": "700101",
    "addr:street": "Bulevardul Independenței",
    "codul_entității_muzeale": "7412100.0",
    "email": "grigore@uaic.ro",
    "museum_type": "Natural Sciences - Geology, Zoology",
    "name": "Muzeul de Istorie Naturală",
    "name:en": "Natural History Museum",
    "opening_hours": "Tu,Th,Sa 08:00-15:00; We,Fr,Su 09:00-16:00; Mo closed",
    "phone": "0232/201.339",
    "source": "INP",
    "source:link": "http://date.gov.ro/dataset/ghidul-muzeelor-din-romania",
    "tourism": "museum",
    "tourism_survey": "10.07.2012 16:44:53",
    "website": "http://www.bio.uaic.ro/muzeu/muzeu.html"
  }
},
{
  "type": "node",
  "id": 5712016122,
  "lat": 47.1757209,
  "lon": 27.5799076,
  "tags": {
    "name": "Muzeul George Topirceanu",
    "tourism": "museum"
  }
},
{
  "type": "way",
  "id": 50462546,
  "nodes": [
    641868673,
    641868679,
    641868682,
    641868687,
    641868673
  ],
  "tags": {
    "addr:city": "Iași",
    "addr:country": "RO",
    "building": "yes",
    "name": "Casa Dosoftei",
    "tourism": "museum"
  }
},
{
  "type": "way",
  "id": 61040734,
  "nodes": [
    764042851,
    2168681227,
    2168681228,
    2168681233,
    2168681225,
    764042852,
    764042853,
    2168681226,
    2168681230,
    2168681234,
    2168681229,
    764042854,
    2168681236,
    2168681235,
    2168681232,
    2168681231,
    764042851
  ],
  "tags": {
    "addr:city": "Iași",
    "addr:housenumber": "12",
    "addr:postcode": "700460",
    "addr:postcode:source": "Date de la Poșta Română, publicate sub Licența pentru Guvernare Deschisă v1.0 la http://date.gov.ro/organization/posta-romana",
    "addr:street": "Strada Titu Maiorescu",
    "building": "yes",
    "name": "Muzeul Universității Al I Cuza",
    "tourism": "museum",
    "website": "http://www.muzeul.uaic.ro/"
  }
},
{
  "type": "way",
  "id": 109229424,
  "nodes": [
    1251041789,
    1251041790,
    1251041791,
    2168656767,
    2168656758,
    1251041792,
    1251041793,
    1251041794,
    1251041795,
    1251041796,
    1251041797,
    2168656742,
    2168656757,
    2168656746,
    2168656755,
    2168656750,
    2168656741,
    2168656743,
    2168656752,
    1251041798,
    1251041800,
    1251041801,
    1251041802,
    1251041803,
    1251041789
  ],
  "tags": {
    "addr:city": "Iași",
    "addr:street": "Parcul Copou",
    "building": "yes",
    "name": "Muzeul Mihai Eminescu",
    "tourism": "museum",
    "wikidata": "Q18544236"
  }
},
{
  "type": "way",
  "id": 172619603,
  "nodes": [
    1835073195,
    1835073193,
    1835073191,
    1835073190,
    1835073192,
    1835073196,
    1835073199,
    1835073198,
    1835073194,
    1835073195
  ],
  "tags": {
    "name": "Poiana cu Statui",
    "tourism": "museum"
  }
},
{
  "type": "way",
  "id": 188565584,
  "nodes": [
    1991981375,
    2165163408,
    2165163308,
    2165163318,
    2165163305,
    1991981361,
    1991981362,
    1991981377,
    1991981375
  ],
  "tags": {
    "addr:city": "Iași",
    "addr:country": "RO",
    "addr:housename": "Casa Vasile Pogor",
    "addr:housenumber": "4",
    "addr:street": "Strada Vasile Pogor",
    "building": "yes",
    "museum": "person",
    "name": "Muzeul Literaturii Iași",
    "start_date": "1850",
    "tourism": "museum",
    "website": "http://www.muzeulliteraturiiiasi.ro"
  }
},
{
  "type": "way",
  "id": 197148106,
  "nodes": [
    2074404710,
    2074404694,
    2074404731,
    2074404695,
    2074404680,
    2074404725,
    2074404667,
    2074404656,
    2074404668,
    2074404737,
    2074404718,
    2074404710
  ],
  "tags": {
    "addr:city": "Iași",
    "addr:housename": "Casa Cantacuzino",
    "addr:street": "Strada Alexandru Lăpușneanu",
    "building": "yes",
    "is_in:city": "Iași",
    "name": "Muzeul Unirii",
    "opening_hours": "We-Sa 10:00-17:00",
    "start_date": "early C19",
    "tourism": "museum",
    "website": "http://www.palatulculturii.ro/muzeuunirii.htm"
  }
},
{
  "type": "way",
  "id": 203496032,
  "nodes": [
    2135105701,
    2135105735,
    2135105742,
    2135105723,
    2135105716,
    2135105727,
    2135105719,
    2135105696,
    2135105721,
    2135105730,
    2135105708,
    2135105724,
    2135105689,
    2135105745,
    2135105687,
    2135105728,
    2135105718,
    2135105699,
    2135105701
  ],
  "tags": {
    "addr:city": "Iași",
    "addr:housenumber": "11",
    "addr:postcode": "700301",
    "addr:street": "Strada Dorobanți",
    "building": "yes",
    "description": "In aceasta casa locuieste pictorita ieseana Ofelia Hutul, care a expus in Muzeul Luvru din Paris, Franta.",
    "inscription": "Casa Pictor Ofelia Hutul (n. 1957)",
    "name": "Casa Pictor Ofelia Hutul",
    "tourism": "museum"
  }
},
{
  "type": "way",
  "id": 204002462,
  "nodes": [
    2140147222,
    2140147211,
    2140147204,
    2140147252,
    2140147225,
    2140147215,
    2140147236,
    2140147202,
    2140147247,
    2140147220,
    2140147213,
    2140147258,
    2140147245,
    2140147229,
    2140147256,
    2140147238,
    2140147222
  ],
  "tags": {
    "addr:housenumber": "15",
    "addr:postcode": "700115",
    "addr:street": "Strada Rece",
    "building": "yes",
    "name": "Vila Sonet - Muzeul Mihai Codreanu",
    "tourism": "museum"
  }
},
{
  "type": "way",
  "id": 204002759,
  "nodes": [
    2140150192,
    2140150186,
    2140150189,
    2140150195,
    2140150188,
    2140150185,
    2140150190,
    2140150183,
    2140150197,
    2140150184,
    2140150194,
    2140150191,
    2140150187,
    2140150193,
    2140150182,
    2140150196,
    2140150192
  ],
  "tags": {
    "building": "yes",
    "name": "Muzeul de Istorie Naturală",
    "tourism": "museum"
  }
},
{
  "type": "way",
  "id": 206525141,
  "nodes": [
    2165362745,
    2165362697,
    2165362720,
    2165362763,
    2165362692,
    2165362772,
    2165362768,
    2165362729,
    2165362728,
    2165362766,
    2165362724,
    2165362736,
    2165362769,
    2165362663,
    2165362745
  ],
  "tags": {
    "building": "yes",
    "tourism": "museum"
  }
},
{
  "type": "way",
  "id": 206538172,
  "nodes": [
    2165507540,
    2165507578,
    2165507562,
    2165507569,
    2165507582,
    2165507524,
    2165507513,
    2165507510,
    2165507539,
    2165507512,
    2165507519,
    2165507520,
    2165507540
  ],
  "tags": {
    "addr:city": "Iași",
    "addr:housename": "Muzeul Poni-Cernătescu",
    "addr:housenumber": "7B",
    "addr:postcode": "700454",
    "addr:street": "Strada Mihail Kogălniceanu",
    "building": "yes",
    "name": "Muzeul Poni-Cernatescu",
    "tourism": "museum"
  }
},
{
  "type": "way",
  "id": 206574095,
  "nodes": [
    2165934321,
    2165934470,
    2165934507,
    2165934387,
    2165934426,
    2165934450,
    2165934391,
    2165934561,
    2165934474,
    2165934444,
    2165934440,
    2165934329,
    2165934456,
    2165934546,
    2165934321
  ],
  "tags": {
    "addr:city": "Iași",
    "addr:housenumber": "3",
    "addr:postcode": "700400",
    "addr:postcode:source": "Date de la Poșta Română, publicate sub Licența pentru Guvernare Deschisă v1.0 la http://date.gov.ro/organization/posta-romana",
    "addr:street": "Strada Zmeu",
    "building": "yes",
    "name": "Muzeul Municipal Iași",
    "tourism": "museum"
  }
},
{
  "type": "way",
  "id": 207115999,
  "nodes": [
    2172534442,
    2172534292,
    2172534533,
    2172534199,
    2172534246,
    2172534131,
    2172534354,
    2172534173,
    2172534442
  ],
  "tags": {
    "addr:city": "Iași",
    "addr:housename": "Muzeul Memorial „Mihail Kogălniceanu”",
    "addr:housenumber": "11",
    "addr:postcode": "700454",
    "addr:street": "Strada Mihail Kogălniceanu",
    "building": "yes",
    "name": "Muzeul Mihail Kogălniceanu",
    "tourism": "museum"
  }
},
{
  "type": "way",
  "id": 207184257,
  "nodes": [
    2173408390,
    2173408347,
    2173408312,
    2173408338,
    2173408356,
    2173408335,
    2173408374,
    2173408313,
    2173408390
  ],
  "tags": {
    "addr:city": "Iași",
    "addr:housenumber": "7",
    "addr:postcode": "700108",
    "addr:postcode:source": "Date de la Poșta Română, publicate sub Licența pentru Guvernare Deschisă v1.0 la http://date.gov.ro/organization/posta-romana",
    "addr:street": "Strada Dimitrie Ralet",
    "building": "yes",
    "name": "Muzeul George Topârceanu",
    "tourism": "museum"
  }
},
{
  "type": "way",
  "id": 208481052,
  "nodes": [
    2187685939,
    2187685967,
    2187685960,
    2187685966,
    2187685939
  ],
  "tags": {
    "building": "yes",
    "name": "Muzeul Ion Creanga",
    "tourism": "museum"
  }
},
{
  "type": "way",
  "id": 209635969,
  "nodes": [
    2198260699,
    2198260794,
    2198260631,
    2752720791,
    2752720789,
    2198260715,
    2198260699
  ],
  "tags": {
    "SIRUTA:code": "95079",
    "addr:city": "Iași",
    "addr:housenumber": "4",
    "addr:postcode": "700118",
    "addr:postcode:source": "Date de la Poșta Română, publicate sub Licența pentru Guvernare Deschisă v1.0 la http://date.gov.ro/organization/posta-romana",
    "addr:street": "Strada Simion Bărnuțiu",
    "building": "yes",
    "codul_entității_muzeale": "6946513.0",
    "description:en": "It was opened as a memorial museum on the 15th of April 1918 with original exhibits belonging to Ion Creanga. In 1968 was opened a documentary exhibition regarding the life and activity of the writer, and in 1989 the documentary exhibition was organized",
    "description:ro": "A fost deschisa ca muzeu memorial in 15.04.1918, cu exponate originale apartinand lui Ion Creanga. in 1968 s-a deschis o expozitie documentara privind viata si activitatea scriitorului, iar in 1989 s-a amenajat expozitia documentara intr-o cladire specia",
    "name": "Bojdeuca Ion Creangă",
    "opening_hours": "10:00-17:00;Mo closed",
    "phone": "0747499488",
    "start_date": "1918",
    "tourism": "museum",
    "wikidata": "Q12722849",
    "wikipedia": "ro:Bojdeuca lui Ion Creangă"
  }
},
{
  "type": "way",
  "id": 215084224,
  "nodes": [
    2245026383,
    2245026367,
    2245026386,
    2245026333,
    2245026327,
    2245026363,
    2245026359,
    2245026361,
    2245026350,
    2245026356,
    2245026336,
    2245026396,
    2245026343,
    2245026383
  ],
  "tags": {
    "building": "yes",
    "tourism": "museum"
  }
},
{
  "type": "way",
  "id": 220320089,
  "nodes": [
    2294539130,
    2294539129,
    2294539128,
    2294539126,
    2294539127,
    2294539125,
    2294539130
  ],
  "tags": {
    "tourism": "museum"
  }
},
{
  "type": "relation",
  "id": 399268,
  "members": [
    {
      "type": "way",
      "ref": 49245267,
      "role": "inner"
    },
    {
      "type": "way",
      "ref": 49245266,
      "role": "inner"
    },
    {
      "type": "way",
      "ref": 173929238,
      "role": "outer"
    }
  ],
  "tags": {
    "addr:city": "Iași",
    "addr:country": "RO",
    "addr:housenumber": "1",
    "addr:street": "Piața Palat",
    "building": "civic",
    "name": "Palatul Culturii",
    "opening_hours": "Tu-Sa 10:00-17:00",
    "start_date": "1925",
    "tourism": "museum",
    "type": "multipolygon",
    "website": "http://www.palatulculturii.ro",
    "wikidata": "Q2522104",
    "wikipedia": "ro:Palatul Culturii din Iași",
    "wikipedia:en": "Palace of Culture (Iași)"
  }
},
{
  "type": "node",
  "id": 2294539125,
  "lat": 46.8744774,
  "lon": 27.6820910
},
{
  "type": "node",
  "id": 2294539126,
  "lat": 46.8743001,
  "lon": 27.6818877
},
{
  "type": "node",
  "id": 2294539127,
  "lat": 46.8743598,
  "lon": 27.6821486
},
{
  "type": "node",
  "id": 2294539128,
  "lat": 46.8742155,
  "lon": 27.6815145
},
{
  "type": "node",
  "id": 2294539129,
  "lat": 46.8741475,
  "lon": 27.6812175
},
{
  "type": "node",
  "id": 2294539130,
  "lat": 46.8742643,
  "lon": 27.6811603
},
{
  "type": "node",
  "id": 1835073190,
  "lat": 46.9858952,
  "lon": 27.5835007
},
{
  "type": "node",
  "id": 1835073192,
  "lat": 46.9852146,
  "lon": 27.5843805
},
{
  "type": "node",
  "id": 1835073196,
  "lat": 46.9852292,
  "lon": 27.5847131
},
{
  "type": "node",
  "id": 1835073199,
  "lat": 46.9855586,
  "lon": 27.5852388
},
{
  "type": "node",
  "id": 1835073191,
  "lat": 46.9866784,
  "lon": 27.5835758
},
{
  "type": "node",
  "id": 1835073193,
  "lat": 46.9870297,
  "lon": 27.5842839
},
{
  "type": "node",
  "id": 1835073194,
  "lat": 46.9869199,
  "lon": 27.5853997
},
{
  "type": "node",
  "id": 1835073195,
  "lat": 46.9870297,
  "lon": 27.5850671
},
{
  "type": "node",
  "id": 1835073198,
  "lat": 46.9864295,
  "lon": 27.5854426
},
{
  "type": "node",
  "id": 764042854,
  "lat": 47.1760655,
  "lon": 27.5681757
},
{
  "type": "node",
  "id": 2168681229,
  "lat": 47.1760851,
  "lon": 27.5682329
},
{
  "type": "node",
  "id": 2168681234,
  "lat": 47.1760745,
  "lon": 27.5682407
},
{
  "type": "node",
  "id": 2168681235,
  "lat": 47.1760925,
  "lon": 27.5681351
},
{
  "type": "node",
  "id": 2168681236,
  "lat": 47.1760982,
  "lon": 27.5681516
},
{
  "type": "node",
  "id": 1991981361,
  "lat": 47.1721885,
  "lon": 27.5763216
},
{
  "type": "node",
  "id": 1991981362,
  "lat": 47.1720452,
  "lon": 27.5764117
},
{
  "type": "node",
  "id": 1991981375,
  "lat": 47.1721190,
  "lon": 27.5760642
},
{
  "type": "node",
  "id": 1991981377,
  "lat": 47.1719712,
  "lon": 27.5761572
},
{
  "type": "node",
  "id": 2165163305,
  "lat": 47.1721557,
  "lon": 27.5762087
},
{
  "type": "node",
  "id": 2165163308,
  "lat": 47.1721752,
  "lon": 27.5761111
},
{
  "type": "node",
  "id": 2165163318,
  "lat": 47.1721962,
  "lon": 27.5761832
},
{
  "type": "node",
  "id": 2165163408,
  "lat": 47.1721392,
  "lon": 27.5761338
},
{
  "type": "node",
  "id": 764042851,
  "lat": 47.1761997,
  "lon": 27.5680747
},
{
  "type": "node",
  "id": 764042852,
  "lat": 47.1762686,
  "lon": 27.5682782
},
{
  "type": "node",
  "id": 764042853,
  "lat": 47.1761335,
  "lon": 27.5683781
},
{
  "type": "node",
  "id": 1251041789,
  "lat": 47.1789820,
  "lon": 27.5669994
},
{
  "type": "node",
  "id": 1251041790,
  "lat": 47.1791223,
  "lon": 27.5668528
},
{
  "type": "node",
  "id": 1251041791,
  "lat": 47.1790560,
  "lon": 27.5667156
},
{
  "type": "node",
  "id": 1251041792,
  "lat": 47.1791288,
  "lon": 27.5665302
},
{
  "type": "node",
  "id": 1251041793,
  "lat": 47.1792317,
  "lon": 27.5667433
},
{
  "type": "node",
  "id": 1251041794,
  "lat": 47.1792977,
  "lon": 27.5666744
},
{
  "type": "node",
  "id": 1251041795,
  "lat": 47.1793587,
  "lon": 27.5668007
},
{
  "type": "node",
  "id": 1251041796,
  "lat": 47.1792374,
  "lon": 27.5669275
},
{
  "type": "node",
  "id": 1251041797,
  "lat": 47.1792537,
  "lon": 27.5669612
},
{
  "type": "node",
  "id": 1251041798,
  "lat": 47.1790822,
  "lon": 27.5671398
},
{
  "type": "node",
  "id": 1251041800,
  "lat": 47.1790578,
  "lon": 27.5670892
},
{
  "type": "node",
  "id": 1251041801,
  "lat": 47.1789536,
  "lon": 27.5671981
},
{
  "type": "node",
  "id": 1251041802,
  "lat": 47.1789145,
  "lon": 27.5671172
},
{
  "type": "node",
  "id": 1251041803,
  "lat": 47.1789972,
  "lon": 27.5670308
},
{
  "type": "node",
  "id": 2168656741,
  "lat": 47.1791730,
  "lon": 27.5672166
},
{
  "type": "node",
  "id": 2168656742,
  "lat": 47.1792088,
  "lon": 27.5670081
},
{
  "type": "node",
  "id": 2168656743,
  "lat": 47.1791718,
  "lon": 27.5671174
},
{
  "type": "node",
  "id": 2168656746,
  "lat": 47.1792747,
  "lon": 27.5670913
},
{
  "type": "node",
  "id": 2168656750,
  "lat": 47.1792377,
  "lon": 27.5672519
},
{
  "type": "node",
  "id": 2168656752,
  "lat": 47.1791490,
  "lon": 27.5670700
},
{
  "type": "node",
  "id": 2168656755,
  "lat": 47.1792787,
  "lon": 27.5671960
},
{
  "type": "node",
  "id": 2168656757,
  "lat": 47.1792314,
  "lon": 27.5670551
},
{
  "type": "node",
  "id": 2168656758,
  "lat": 47.1790646,
  "lon": 27.5665973
},
{
  "type": "node",
  "id": 2168656767,
  "lat": 47.1790997,
  "lon": 27.5666699
},
{
  "type": "node",
  "id": 2168681225,
  "lat": 47.1762484,
  "lon": 27.5682188
},
{
  "type": "node",
  "id": 2168681226,
  "lat": 47.1761151,
  "lon": 27.5683242
},
{
  "type": "node",
  "id": 2168681227,
  "lat": 47.1762188,
  "lon": 27.5681306
},
{
  "type": "node",
  "id": 2168681228,
  "lat": 47.1762276,
  "lon": 27.5681242
},
{
  "type": "node",
  "id": 2168681230,
  "lat": 47.1761055,
  "lon": 27.5683314
},
{
  "type": "node",
  "id": 2168681231,
  "lat": 47.1761799,
  "lon": 27.5680893
},
{
  "type": "node",
  "id": 2168681232,
  "lat": 47.1761748,
  "lon": 27.5680744
},
{
  "type": "node",
  "id": 2168681233,
  "lat": 47.1762576,
  "lon": 27.5682120
},
{
  "type": "node",
  "id": 321205631,
  "lat": 47.1576308,
  "lon": 27.5866765
},
{
  "type": "node",
  "id": 321205632,
  "lat": 47.1576702,
  "lon": 27.5868238
},
{
  "type": "node",
  "id": 321205633,
  "lat": 47.1575908,
  "lon": 27.5868685
},
{
  "type": "node",
  "id": 321205657,
  "lat": 47.1575419,
  "lon": 27.5867267
},
{
  "type": "node",
  "id": 625121834,
  "lat": 47.1572693,
  "lon": 27.5863924
},
{
  "type": "node",
  "id": 625121836,
  "lat": 47.1569835,
  "lon": 27.5865633
},
{
  "type": "node",
  "id": 625121837,
  "lat": 47.1573592,
  "lon": 27.5867177
},
{
  "type": "node",
  "id": 625121838,
  "lat": 47.1570735,
  "lon": 27.5868886
},
{
  "type": "node",
  "id": 625121839,
  "lat": 47.1571706,
  "lon": 27.5872285
},
{
  "type": "node",
  "id": 625121840,
  "lat": 47.1572604,
  "lon": 27.5875497
},
{
  "type": "node",
  "id": 625121841,
  "lat": 47.1574381,
  "lon": 27.5870668
},
{
  "type": "node",
  "id": 625121842,
  "lat": 47.1575279,
  "lon": 27.5873880
},
{
  "type": "node",
  "id": 641868673,
  "lat": 47.1589560,
  "lon": 27.5867604
},
{
  "type": "node",
  "id": 641868679,
  "lat": 47.1590158,
  "lon": 27.5868992
},
{
  "type": "node",
  "id": 641868682,
  "lat": 47.1591015,
  "lon": 27.5868207
},
{
  "type": "node",
  "id": 641868687,
  "lat": 47.1590413,
  "lon": 27.5866786
},
{
  "type": "node",
  "id": 1846757919,
  "lat": 47.1577994,
  "lon": 27.5876484
},
{
  "type": "node",
  "id": 1846757920,
  "lat": 47.1567948,
  "lon": 27.5862951
},
{
  "type": "node",
  "id": 1846757921,
  "lat": 47.1577548,
  "lon": 27.5878612
},
{
  "type": "node",
  "id": 1846757922,
  "lat": 47.1573403,
  "lon": 27.5859727
},
{
  "type": "node",
  "id": 1846757923,
  "lat": 47.1576209,
  "lon": 27.5877547
},
{
  "type": "node",
  "id": 1846757924,
  "lat": 47.1576635,
  "lon": 27.5879140
},
{
  "type": "node",
  "id": 1846757925,
  "lat": 47.1572322,
  "lon": 27.5858597
},
{
  "type": "node",
  "id": 1846757926,
  "lat": 47.1571436,
  "lon": 27.5860934
},
{
  "type": "node",
  "id": 1846757927,
  "lat": 47.1572435,
  "lon": 27.5879730
},
{
  "type": "node",
  "id": 1846757928,
  "lat": 47.1572729,
  "lon": 27.5860117
},
{
  "type": "node",
  "id": 1846757929,
  "lat": 47.1571013,
  "lon": 27.5859354
},
{
  "type": "node",
  "id": 1846757930,
  "lat": 47.1577115,
  "lon": 27.5876993
},
{
  "type": "node",
  "id": 2165934321,
  "lat": 47.1597749,
  "lon": 27.5956344
},
{
  "type": "node",
  "id": 2165934329,
  "lat": 47.1597559,
  "lon": 27.5960912
},
{
  "type": "node",
  "id": 2165934387,
  "lat": 47.1595765,
  "lon": 27.5957194
},
{
  "type": "node",
  "id": 2165934391,
  "lat": 47.1596175,
  "lon": 27.5959130
},
{
  "type": "node",
  "id": 2165934426,
  "lat": 47.1595773,
  "lon": 27.5958172
},
{
  "type": "node",
  "id": 2165934440,
  "lat": 47.1596756,
  "lon": 27.5960926
},
{
  "type": "node",
  "id": 2165934444,
  "lat": 47.1596747,
  "lon": 27.5959767
},
{
  "type": "node",
  "id": 2165934450,
  "lat": 47.1596167,
  "lon": 27.5958165
},
{
  "type": "node",
  "id": 2165934456,
  "lat": 47.1597544,
  "lon": 27.5959093
},
{
  "type": "node",
  "id": 2165934470,
  "lat": 47.1596154,
  "lon": 27.5956372
},
{
  "type": "node",
  "id": 2165934474,
  "lat": 47.1596530,
  "lon": 27.5959771
},
{
  "type": "node",
  "id": 2165934507,
  "lat": 47.1596161,
  "lon": 27.5957187
},
{
  "type": "node",
  "id": 2165934546,
  "lat": 47.1597771,
  "lon": 27.5959089
},
{
  "type": "node",
  "id": 2165934561,
  "lat": 47.1596525,
  "lon": 27.5959124
},
{
  "type": "node",
  "id": 2074404656,
  "lat": 47.1672878,
  "lon": 27.5789882
},
{
  "type": "node",
  "id": 2074404667,
  "lat": 47.1673004,
  "lon": 27.5790499
},
{
  "type": "node",
  "id": 2074404668,
  "lat": 47.1672931,
  "lon": 27.5789641
},
{
  "type": "node",
  "id": 2074404680,
  "lat": 47.1673844,
  "lon": 27.5791920
},
{
  "type": "node",
  "id": 2074404694,
  "lat": 47.1674264,
  "lon": 27.5791169
},
{
  "type": "node",
  "id": 2074404695,
  "lat": 47.1674191,
  "lon": 27.5791920
},
{
  "type": "node",
  "id": 2074404710,
  "lat": 47.1675795,
  "lon": 27.5789909
},
{
  "type": "node",
  "id": 2074404718,
  "lat": 47.1674847,
  "lon": 27.5787280
},
{
  "type": "node",
  "id": 2074404725,
  "lat": 47.1673350,
  "lon": 27.5790794
},
{
  "type": "node",
  "id": 2074404731,
  "lat": 47.1674353,
  "lon": 27.5791599
},
{
  "type": "node",
  "id": 2074404737,
  "lat": 47.1672675,
  "lon": 27.5789077
},
{
  "type": "node",
  "id": 2140150186,
  "lat": 47.1667367,
  "lon": 27.5839626
},
{
  "type": "node",
  "id": 2140150189,
  "lat": 47.1667086,
  "lon": 27.5839410
},
{
  "type": "node",
  "id": 2140150192,
  "lat": 47.1667707,
  "lon": 27.5838668
},
{
  "type": "node",
  "id": 2140150195,
  "lat": 47.1666541,
  "lon": 27.5840943
},
{
  "type": "node",
  "id": 2140150196,
  "lat": 47.1669868,
  "lon": 27.5840328
},
{
  "type": "node",
  "id": 2245026343,
  "lat": 47.1673372,
  "lon": 27.5840832
},
{
  "type": "node",
  "id": 2245026396,
  "lat": 47.1673035,
  "lon": 27.5840626
},
{
  "type": "node",
  "id": 2140147202,
  "lat": 47.1676920,
  "lon": 27.5869927
},
{
  "type": "node",
  "id": 2140147204,
  "lat": 47.1677902,
  "lon": 27.5870167
},
{
  "type": "node",
  "id": 2140147211,
  "lat": 47.1677895,
  "lon": 27.5870423
},
{
  "type": "node",
  "id": 2140147213,
  "lat": 47.1676597,
  "lon": 27.5871125
},
{
  "type": "node",
  "id": 2140147215,
  "lat": 47.1677404,
  "lon": 27.5870453
},
{
  "type": "node",
  "id": 2140147220,
  "lat": 47.1676614,
  "lon": 27.5870403
},
{
  "type": "node",
  "id": 2140147222,
  "lat": 47.1678063,
  "lon": 27.5870431
},
{
  "type": "node",
  "id": 2140147225,
  "lat": 47.1677625,
  "lon": 27.5870464
},
{
  "type": "node",
  "id": 2140147229,
  "lat": 47.1677476,
  "lon": 27.5871842
},
{
  "type": "node",
  "id": 2140147236,
  "lat": 47.1677416,
  "lon": 27.5869953
},
{
  "type": "node",
  "id": 2140147238,
  "lat": 47.1678009,
  "lon": 27.5872639
},
{
  "type": "node",
  "id": 2140147245,
  "lat": 47.1676869,
  "lon": 27.5871810
},
{
  "type": "node",
  "id": 2140147247,
  "lat": 47.1676909,
  "lon": 27.5870419
},
{
  "type": "node",
  "id": 2140147252,
  "lat": 47.1677632,
  "lon": 27.5870153
},
{
  "type": "node",
  "id": 2140147256,
  "lat": 47.1677457,
  "lon": 27.5872610
},
{
  "type": "node",
  "id": 2140147258,
  "lat": 47.1676885,
  "lon": 27.5871140
},
{
  "type": "node",
  "id": 2140150182,
  "lat": 47.1669545,
  "lon": 27.5841237
},
{
  "type": "node",
  "id": 2140150183,
  "lat": 47.1667173,
  "lon": 27.5843293
},
{
  "type": "node",
  "id": 2140150184,
  "lat": 47.1668131,
  "lon": 27.5843189
},
{
  "type": "node",
  "id": 2140150185,
  "lat": 47.1666716,
  "lon": 27.5842236
},
{
  "type": "node",
  "id": 2140150187,
  "lat": 47.1669338,
  "lon": 27.5842838
},
{
  "type": "node",
  "id": 2140150188,
  "lat": 47.1667039,
  "lon": 27.5841326
},
{
  "type": "node",
  "id": 2140150190,
  "lat": 47.1667370,
  "lon": 27.5842738
},
{
  "type": "node",
  "id": 2140150191,
  "lat": 47.1668970,
  "lon": 27.5842556
},
{
  "type": "node",
  "id": 2140150193,
  "lat": 47.1669829,
  "lon": 27.5841455
},
{
  "type": "node",
  "id": 2140150194,
  "lat": 47.1668614,
  "lon": 27.5843560
},
{
  "type": "node",
  "id": 2140150197,
  "lat": 47.1667897,
  "lon": 27.5843849
},
{
  "type": "node",
  "id": 2187685939,
  "lat": 47.1649828,
  "lon": 27.5898633
},
{
  "type": "node",
  "id": 2187685960,
  "lat": 47.1649463,
  "lon": 27.5900940
},
{
  "type": "node",
  "id": 2187685966,
  "lat": 47.1650220,
  "lon": 27.5900618
},
{
  "type": "node",
  "id": 2187685967,
  "lat": 47.1649072,
  "lon": 27.5898955
},
{
  "type": "node",
  "id": 2245026327,
  "lat": 47.1673630,
  "lon": 27.5843770
},
{
  "type": "node",
  "id": 2245026333,
  "lat": 47.1674015,
  "lon": 27.5844005
},
{
  "type": "node",
  "id": 2245026336,
  "lat": 47.1672878,
  "lon": 27.5841181
},
{
  "type": "node",
  "id": 2245026350,
  "lat": 47.1672615,
  "lon": 27.5843172
},
{
  "type": "node",
  "id": 2245026356,
  "lat": 47.1673133,
  "lon": 27.5841337
},
{
  "type": "node",
  "id": 2245026359,
  "lat": 47.1673013,
  "lon": 27.5843974
},
{
  "type": "node",
  "id": 2245026361,
  "lat": 47.1673148,
  "lon": 27.5843497
},
{
  "type": "node",
  "id": 2245026363,
  "lat": 47.1673490,
  "lon": 27.5844266
},
{
  "type": "node",
  "id": 2245026367,
  "lat": 47.1674049,
  "lon": 27.5842997
},
{
  "type": "node",
  "id": 2245026383,
  "lat": 47.1674471,
  "lon": 27.5841503
},
{
  "type": "node",
  "id": 2245026386,
  "lat": 47.1674263,
  "lon": 27.5843128
},
{
  "type": "node",
  "id": 2165362663,
  "lat": 47.1717736,
  "lon": 27.5780814
},
{
  "type": "node",
  "id": 2165362692,
  "lat": 47.1715923,
  "lon": 27.5779626
},
{
  "type": "node",
  "id": 2165362697,
  "lat": 47.1716915,
  "lon": 27.5779982
},
{
  "type": "node",
  "id": 2165362720,
  "lat": 47.1716473,
  "lon": 27.5780052
},
{
  "type": "node",
  "id": 2165362724,
  "lat": 47.1715595,
  "lon": 27.5781732
},
{
  "type": "node",
  "id": 2165362728,
  "lat": 47.1715375,
  "lon": 27.5780636
},
{
  "type": "node",
  "id": 2165362729,
  "lat": 47.1715535,
  "lon": 27.5780606
},
{
  "type": "node",
  "id": 2165362736,
  "lat": 47.1715608,
  "lon": 27.5782382
},
{
  "type": "node",
  "id": 2165362745,
  "lat": 47.1716971,
  "lon": 27.5780877
},
{
  "type": "node",
  "id": 2165362763,
  "lat": 47.1716423,
  "lon": 27.5779526
},
{
  "type": "node",
  "id": 2165362766,
  "lat": 47.1715417,
  "lon": 27.5781733
},
{
  "type": "node",
  "id": 2165362768,
  "lat": 47.1715522,
  "lon": 27.5780215
},
{
  "type": "node",
  "id": 2165362769,
  "lat": 47.1717776,
  "lon": 27.5782206
},
{
  "type": "node",
  "id": 2165362772,
  "lat": 47.1715941,
  "lon": 27.5780145
},
{
  "type": "node",
  "id": 2165507510,
  "lat": 47.1727731,
  "lon": 27.5799471
},
{
  "type": "node",
  "id": 2165507512,
  "lat": 47.1728010,
  "lon": 27.5799012
},
{
  "type": "node",
  "id": 2165507513,
  "lat": 47.1727676,
  "lon": 27.5800389
},
{
  "type": "node",
  "id": 2165507519,
  "lat": 47.1728279,
  "lon": 27.5799046
},
{
  "type": "node",
  "id": 2165507520,
  "lat": 47.1728306,
  "lon": 27.5798586
},
{
  "type": "node",
  "id": 2165507524,
  "lat": 47.1727925,
  "lon": 27.5800421
},
{
  "type": "node",
  "id": 2165507539,
  "lat": 47.1727981,
  "lon": 27.5799503
},
{
  "type": "node",
  "id": 2165507540,
  "lat": 47.1729722,
  "lon": 27.5798766
},
{
  "type": "node",
  "id": 2165507562,
  "lat": 47.1729214,
  "lon": 27.5799440
},
{
  "type": "node",
  "id": 2165507569,
  "lat": 47.1729082,
  "lon": 27.5801690
},
{
  "type": "node",
  "id": 2165507578,
  "lat": 47.1729679,
  "lon": 27.5799500
},
{
  "type": "node",
  "id": 2165507582,
  "lat": 47.1727859,
  "lon": 27.5801534
},
{
  "type": "node",
  "id": 2172534131,
  "lat": 47.1733262,
  "lon": 27.5803053
},
{
  "type": "node",
  "id": 2172534173,
  "lat": 47.1735012,
  "lon": 27.5805564
},
{
  "type": "node",
  "id": 2172534199,
  "lat": 47.1733787,
  "lon": 27.5802714
},
{
  "type": "node",
  "id": 2172534246,
  "lat": 47.1733779,
  "lon": 27.5803078
},
{
  "type": "node",
  "id": 2172534292,
  "lat": 47.1734446,
  "lon": 27.5802230
},
{
  "type": "node",
  "id": 2172534354,
  "lat": 47.1733208,
  "lon": 27.5805477
},
{
  "type": "node",
  "id": 2172534442,
  "lat": 47.1735085,
  "lon": 27.5802261
},
{
  "type": "node",
  "id": 2172534533,
  "lat": 47.1734434,
  "lon": 27.5802745
},
{
  "type": "node",
  "id": 2173408312,
  "lat": 47.1748575,
  "lon": 27.5783300
},
{
  "type": "node",
  "id": 2173408313,
  "lat": 47.1749957,
  "lon": 27.5782958
},
{
  "type": "node",
  "id": 2173408335,
  "lat": 47.1749245,
  "lon": 27.5783101
},
{
  "type": "node",
  "id": 2173408338,
  "lat": 47.1748765,
  "lon": 27.5783156
},
{
  "type": "node",
  "id": 2173408347,
  "lat": 47.1748096,
  "lon": 27.5781932
},
{
  "type": "node",
  "id": 2173408356,
  "lat": 47.1748851,
  "lon": 27.5783400
},
{
  "type": "node",
  "id": 2173408374,
  "lat": 47.1749355,
  "lon": 27.5783414
},
{
  "type": "node",
  "id": 2173408390,
  "lat": 47.1749282,
  "lon": 27.5781033
},
{
  "type": "node",
  "id": 2198260631,
  "lat": 47.1750499,
  "lon": 27.5830411
},
{
  "type": "node",
  "id": 2198260699,
  "lat": 47.1750858,
  "lon": 27.5829206
},
{
  "type": "node",
  "id": 2198260715,
  "lat": 47.1751233,
  "lon": 27.5830173
},
{
  "type": "node",
  "id": 2198260794,
  "lat": 47.1750232,
  "lon": 27.5829777
},
{
  "type": "node",
  "id": 2752720789,
  "lat": 47.1750929,
  "lon": 27.5830461
},
{
  "type": "node",
  "id": 2752720791,
  "lat": 47.1750831,
  "lon": 27.5830109
},
{
  "type": "node",
  "id": 2135105687,
  "lat": 47.1642036,
  "lon": 27.6015869
},
{
  "type": "node",
  "id": 2135105689,
  "lat": 47.1641864,
  "lon": 27.6015574
},
{
  "type": "node",
  "id": 2135105696,
  "lat": 47.1642354,
  "lon": 27.6012351
},
{
  "type": "node",
  "id": 2135105699,
  "lat": 47.1642551,
  "lon": 27.6015597
},
{
  "type": "node",
  "id": 2135105701,
  "lat": 47.1643954,
  "lon": 27.6014620
},
{
  "type": "node",
  "id": 2135105708,
  "lat": 47.1641909,
  "lon": 27.6015014
},
{
  "type": "node",
  "id": 2135105716,
  "lat": 47.1642655,
  "lon": 27.6012132
},
{
  "type": "node",
  "id": 2135105718,
  "lat": 47.1642763,
  "lon": 27.6016254
},
{
  "type": "node",
  "id": 2135105719,
  "lat": 47.1642321,
  "lon": 27.6012080
},
{
  "type": "node",
  "id": 2135105721,
  "lat": 47.1641308,
  "lon": 27.6013224
},
{
  "type": "node",
  "id": 2135105723,
  "lat": 47.1643045,
  "lon": 27.6011757
},
{
  "type": "node",
  "id": 2135105724,
  "lat": 47.1641925,
  "lon": 27.6015209
},
{
  "type": "node",
  "id": 2135105727,
  "lat": 47.1642502,
  "lon": 27.6011885
},
{
  "type": "node",
  "id": 2135105728,
  "lat": 47.1642298,
  "lon": 27.6016325
},
{
  "type": "node",
  "id": 2135105730,
  "lat": 47.1641749,
  "lon": 27.6014523
},
{
  "type": "node",
  "id": 2135105735,
  "lat": 47.1643603,
  "lon": 27.6013050
},
{
  "type": "node",
  "id": 2135105742,
  "lat": 47.1643345,
  "lon": 27.6012671
},
{
  "type": "node",
  "id": 2135105745,
  "lat": 47.1641979,
  "lon": 27.6015766
},
{
  "type": "way",
  "id": 49245266,
  "nodes": [
    625121841,
    625121842,
    625121840,
    625121839,
    625121841
  ]
},
{
  "type": "way",
  "id": 49245267,
  "nodes": [
    625121837,
    625121834,
    625121836,
    625121838,
    625121837
  ]
},
{
  "type": "way",
  "id": 173929238,
  "nodes": [
    1846757922,
    1846757928,
    1846757925,
    1846757929,
    1846757926,
    1846757920,
    1846757927,
    1846757923,
    1846757924,
    1846757921,
    1846757930,
    1846757919,
    321205633,
    321205632,
    321205631,
    321205657,
    1846757922
  ]
}

  ]
}
