{
  "version": 0.6,
  "generator": "Overpass API 0.7.55.1011 6c2efc30",
  "osm3s": {
    "timestamp_osm_base": "2020-02-14T18:40:02Z",
    "copyright": "The data included in this document is from www.openstreetmap.org. The data is made available under ODbL."
  },
  "elements": [

{
  "type": "node",
  "id": 1893060159,
  "lat": 42.6415381,
  "lon": 18.1088482,
  "tags": {
    "name": "War Photo Limited",
    "tourism": "museum"
  }
},
{
  "type": "node",
  "id": 2344407831,
  "lat": 42.6403381,
  "lon": 18.1073517,
  "tags": {
    "name": "Etnografski muzej",
    "name:en": "Etnographic Museum Rupe",
    "opening_hours": "Mo-Su 09:00-16:00",
    "tourism": "museum"
  }
},
{
  "type": "node",
  "id": 2344573772,
  "lat": 42.6418680,
  "lon": 18.1079544,
  "tags": {
    "name": "Klaustar",
    "name:fr": "Cloître",
    "name:ko": "회랑",
    "tourism": "museum"
  }
},
{
  "type": "node",
  "id": 2391967584,
  "lat": 42.7855054,
  "lon": 17.8897173,
  "tags": {
    "name": "Lapidarium",
    "tourism": "museum"
  }
},
{
  "type": "node",
  "id": 2480471256,
  "lat": 42.5831398,
  "lon": 18.2169330,
  "tags": {
    "name": "Bukovac House",
    "tourism": "museum"
  }
},
{
  "type": "node",
  "id": 2897106774,
  "lat": 42.6419455,
  "lon": 18.1114225,
  "tags": {
    "name": "Samostanski muzej",
    "opening_hours": "09:00-18:00",
    "operator": "Dominikanski samostan",
    "tourism": "museum"
  }
},
{
  "type": "node",
  "id": 2941765515,
  "lat": 42.6408475,
  "lon": 18.1080936,
  "tags": {
    "name": "Dom Marina Držića",
    "tourism": "museum"
  }
},
{
  "type": "node",
  "id": 3040735714,
  "lat": 42.6400105,
  "lon": 18.1124559,
  "tags": {
    "name": "Pomorski muzej",
    "name:en": "Maritime Museum",
    "tourism": "museum",
    "wikidata": "Q12640048",
    "wikipedia": "hr:Pomorski muzej u Dubrovniku"
  }
},
{
  "type": "node",
  "id": 3040735718,
  "lat": 42.6396709,
  "lon": 18.1095222,
  "tags": {
    "name": "Natural-History Museum",
    "tourism": "museum"
  }
},
{
  "type": "node",
  "id": 4392333491,
  "lat": 42.6403990,
  "lon": 18.1105466,
  "tags": {
    "name": "Kulturno-povijesni muzej",
    "name:de": "kulturhistorisches Museum",
    "name:en": "Cultural-Historical Museum",
    "name:hr": "Kulturno-povijesni muzej",
    "opening_hours": "Mo-Su 09:00-18:00",
    "phone": "+385020321422",
    "tourism": "museum"
  }
},
{
  "type": "node",
  "id": 5298313629,
  "lat": 42.6499358,
  "lon": 18.1106082,
  "tags": {
    "name": "Muzej domovinskog rata",
    "name:en": "Homeland War Museum",
    "name:ko": "국토 전쟁 박물관",
    "tourism": "museum",
    "wikidata": "Q12637458",
    "wikipedia": "hr:Muzej Domovinskog rata (Dubrovnik)"
  }
},
{
  "type": "node",
  "id": 5370093272,
  "lat": 42.7120543,
  "lon": 18.3473810,
  "tags": {
    "addr:city": "Trebinje",
    "addr:housenumber": "59",
    "addr:street": "Стари Град",
    "email": "muzejhtr@teol.net",
    "name": "Muzej Hercegovine",
    "name:pl": "Muzeum Hercegowiny",
    "opening_hours": "Mo-Fr 08:00-20:00; Sa 10:00-20:00; Su 14:00-20:00",
    "phone": "+387 59 271 060",
    "tourism": "museum",
    "wheelchair": "no"
  }
},
{
  "type": "node",
  "id": 5813516443,
  "lat": 42.6416929,
  "lon": 18.1046945,
  "tags": {
    "addr:street": "Od Tabakarije",
    "name": "Love Stories Museum",
    "tourism": "museum",
    "website": "https://lovestoriesmuseum.com/"
  }
},
{
  "type": "node",
  "id": 6024945653,
  "lat": 42.6418827,
  "lon": 18.1075827,
  "tags": {
    "name": "Old Pharmacy Museum",
    "tourism": "museum"
  }
},
{
  "type": "node",
  "id": 6355957188,
  "lat": 42.6411407,
  "lon": 18.1106833,
  "tags": {
    "name:en": "Friars Minor Franciscan Monastery",
    "name:zh": "聖方濟各修道院",
    "tourism": "museum"
  }
},
{
  "type": "node",
  "id": 6355976985,
  "lat": 42.6400173,
  "lon": 18.1108588,
  "tags": {
    "name:en": "Dulcic Masle Pulitika Gallery",
    "name:zh": "現代藝術博物館",
    "tourism": "museum"
  }
},
{
  "type": "node",
  "id": 7105742769,
  "lat": 42.7112367,
  "lon": 18.3472520,
  "tags": {
    "name": "Muzej Hercegovine",
    "tourism": "museum"
  }
},
{
  "type": "way",
  "id": 349498949,
  "nodes": [
    3553581519,
    3553581520,
    3553581521,
    3553581522,
    3553581519
  ],
  "tags": {
    "addr:city": "Čilipi",
    "addr:housenumber": "49",
    "addr:postcode": "20213",
    "addr:street": "Beroje",
    "building": "yes",
    "name": "Zvičajni muzej Konavla",
    "tourism": "museum",
    "website": "https://www.migk.hr"
  }
},
{
  "type": "node",
  "id": 3553581519,
  "lat": 42.5501052,
  "lon": 18.2850593
},
{
  "type": "node",
  "id": 3553581520,
  "lat": 42.5500560,
  "lon": 18.2851998
},
{
  "type": "node",
  "id": 3553581521,
  "lat": 42.5499813,
  "lon": 18.2851515
},
{
  "type": "node",
  "id": 3553581522,
  "lat": 42.5500301,
  "lon": 18.2850112
}

  ]
}
