{
  "version": 0.6,
  "generator": "Overpass API 0.7.55.9 ab41fea6",
  "osm3s": {
    "timestamp_osm_base": "2020-02-14T17:11:02Z",
    "copyright": "The data included in this document is from www.openstreetmap.org. The data is made available under ODbL."
  },
  "elements": [

{
  "type": "node",
  "id": 107935777,
  "lat": 47.0450591,
  "lon": 15.4383252,
  "tags": {
    "addr:city": "Graz",
    "addr:country": "AT",
    "addr:housenumber": "85",
    "addr:postcode": "8020",
    "addr:street": "Puchstraße",
    "name": "Puchmuseum",
    "opening_hours": "Fr, Sa 13:00-18:00; Su 10:00-18:00; PH off",
    "tourism": "museum",
    "website": "https://www.johannpuchmuseum.at/kontakt/"
  }
},
{
  "type": "node",
  "id": 283344790,
  "lat": 47.2001362,
  "lon": 15.3375596,
  "tags": {
    "addr:city": "Deutschfeistritz",
    "addr:country": "AT",
    "addr:housenumber": "2",
    "addr:postcode": "8121",
    "addr:street": "Rudolf-Klug-Gasse",
    "at_bev:addr_date": "2016-10-02",
    "contact:phone": "+43 3127 42 200",
    "contact:website": "www.sensenwerk.at",
    "name": "Sensenwerk",
    "source": "geoimage.at MaxRes",
    "tourism": "museum"
  }
},
{
  "type": "node",
  "id": 376955000,
  "lat": 46.8965904,
  "lon": 15.2639229,
  "tags": {
    "access": "booking",
    "castle_type": "stately",
    "castle_type:de": "schloss",
    "description": "ehemaliges Augustiner-Chorherrenstift",
    "historic": "castle",
    "museum": "volkskundliche Sammlung",
    "name": "Schloss Stainz",
    "phone": "+43 (0)3463 2772-0",
    "phone:castle": "+43 (0)3463 2308",
    "tourism": "museum",
    "visit": "booking",
    "visit:de": "Voranmeldung",
    "website": "www.schloss.stainz.at",
    "wikidata": "Q872537",
    "wikipedia": "de:Schloss Stainz"
  }
},
{
  "type": "node",
  "id": 441566745,
  "lat": 47.1046840,
  "lon": 15.7116475,
  "tags": {
    "addr:city": "Gleisdorf",
    "addr:country": "AT",
    "addr:housenumber": "1",
    "addr:postcode": "8200",
    "addr:street": "Rathausplatz",
    "contact:email": "museum@gleisdorf.at",
    "name": "Museum im Rathaus",
    "tourism": "museum"
  }
},
{
  "type": "node",
  "id": 492011123,
  "lat": 47.0762864,
  "lon": 15.3924939,
  "tags": {
    "name": "Universalmuseum Joanneum - Lapidarium",
    "tourism": "museum"
  }
},
{
  "type": "node",
  "id": 492011184,
  "lat": 47.0763704,
  "lon": 15.3926306,
  "tags": {
    "name": "Universalmuseum Joanneum - Archäologie",
    "tourism": "museum"
  }
},
{
  "type": "node",
  "id": 492011471,
  "lat": 47.0738175,
  "lon": 15.3916786,
  "tags": {
    "addr:city": "Graz",
    "addr:country": "AT",
    "addr:housenumber": "90",
    "addr:postcode": "8020",
    "addr:street": "Eggenberger Allee",
    "contact:website": "www.welterbe-eggenberg.at",
    "full_name": "Universalmuseum Joanneum - Alte Galerie, Münzkabinett",
    "name": "Alte Galerie, Archäologiemuseum und Münzkabinett",
    "opening_hours": "Tu-Su, Ph 10:00-17:00",
    "toilets:wheelchair": "yes",
    "tourism": "museum",
    "wheelchair": "yes"
  }
},
{
  "type": "node",
  "id": 506737483,
  "lat": 46.7583523,
  "lon": 15.4074119,
  "tags": {
    "addr:city": "Großklein",
    "addr:country": "AT",
    "addr:housenumber": "23",
    "addr:place": "Mantrach",
    "addr:postcode": "8452",
    "at_bev:addr_date": "2018-10-01",
    "name": "Kürbiskernöl Museum",
    "shop": "pumpkin_seed_oil",
    "shop:de": "Kürbiskernöl",
    "tourism": "museum"
  }
},
{
  "type": "node",
  "id": 675902247,
  "lat": 47.0467924,
  "lon": 15.5213663,
  "tags": {
    "addr:city": "Hart bei Graz",
    "addr:country": "AT",
    "addr:housenumber": "17",
    "addr:postcode": "8075",
    "addr:street": "Pachernbergweg",
    "name": "Freunde der Mariazellerbahn",
    "tourism": "museum",
    "url": "http://kaufmann.mariazellerbahn.at/"
  }
},
{
  "type": "node",
  "id": 845705232,
  "lat": 47.0715512,
  "lon": 15.1317947,
  "tags": {
    "name": "Glasmuseum",
    "tourism": "museum"
  }
},
{
  "type": "node",
  "id": 890451541,
  "lat": 47.0777425,
  "lon": 15.4494915,
  "tags": {
    "addr:city": "Graz",
    "addr:country": "AT",
    "addr:housenumber": "3",
    "addr:postcode": "8010",
    "addr:street": "Universitätsplatz",
    "name": "Kriminalmuseum",
    "phone": "+433163806514",
    "tourism": "museum",
    "website": "http://www.uni-graz.at/kriminalmuseum/"
  }
},
{
  "type": "node",
  "id": 924121210,
  "lat": 46.8135092,
  "lon": 15.1968580,
  "tags": {
    "addr:city": "Deutschlandsberg",
    "addr:housenumber": "2",
    "addr:postcode": "8530",
    "addr:street": "Burgplatz",
    "name": "Archeo Norico",
    "tourism": "museum",
    "website": "www.burgmuseum.at"
  }
},
{
  "type": "node",
  "id": 995938131,
  "lat": 47.0716982,
  "lon": 15.4417555,
  "tags": {
    "addr:city": "Graz",
    "addr:country": "AT",
    "addr:housenumber": "2",
    "addr:postcode": "8010",
    "addr:street": "Bürgergasse",
    "contact:phone": "+43 316 8041-890",
    "denomination": "roman_catholic",
    "level": "1",
    "name": "Diözesanmuseum Graz",
    "name:de": "Diözesanmuseum Graz",
    "opening_hours": "Tu-Fr 09:00-17:00; Sa,Su,PH 11:00-17:00",
    "religion": "christian",
    "tourism": "museum",
    "website": "www.dioezesanmuseum.at",
    "wheelchair": "limited",
    "wikidata": "Q1231897"
  }
},
{
  "type": "node",
  "id": 999516246,
  "lat": 47.0698025,
  "lon": 15.4398828,
  "tags": {
    "addr:city": "Graz",
    "addr:country": "AT",
    "addr:housenumber": "16",
    "addr:postcode": "8010",
    "addr:street": "Herrengasse",
    "contact:email": "landeszeughaus@museum-joanneum.at",
    "contact:phone": "+43 316 8017-9810",
    "loc_name": "Zeughaus",
    "name": "Landeszeughaus",
    "name:de": "Landeszeughaus",
    "name:en": "Styrian Armoury",
    "name:zh": "盔甲博物馆",
    "opening_hours": "Apr-Oct Tu-Su,Ph 10:00-17:00; Nov-Mar \"on arrangement\"",
    "operator": "Universalmuseum Joanneum",
    "source": "survey",
    "toilets:wheelchair": "yes",
    "tourism": "museum",
    "website": "https://www.museum-joanneum.at/",
    "wheelchair": "yes",
    "wikidata": "Q484911",
    "wikipedia": "de:Landeszeughaus"
  }
},
{
  "type": "node",
  "id": 1029617830,
  "lat": 47.0726561,
  "lon": 15.4365183,
  "tags": {
    "addr:city": "Graz",
    "addr:country": "AT",
    "addr:housenumber": "18",
    "addr:postcode": "8010",
    "addr:street": "Sackstraße",
    "name": "GrazMuseum",
    "old_name": "Stadtmuseum Graz",
    "source": "survey",
    "tourism": "museum",
    "website": "www.stadtmuseumgraz.at",
    "wikidata": "Q1368160",
    "wikipedia": "de:GrazMuseum"
  }
},
{
  "type": "node",
  "id": 1289256625,
  "lat": 47.1147983,
  "lon": 15.2665549,
  "tags": {
    "addr:city": "Eisbach",
    "addr:postcode": "8112",
    "name": "Kleines Bauernmuseum",
    "tourism": "museum"
  }
},
{
  "type": "node",
  "id": 1688850479,
  "lat": 47.0778208,
  "lon": 15.4291329,
  "tags": {
    "addr:city": "Graz",
    "addr:country": "AT",
    "addr:housenumber": "10",
    "addr:postcode": "8020",
    "addr:street": "Wiener Straße",
    "alt_name": "Museum für Schloss, Schlüssel, Kästchen, Kassetten und Eisenkunstguss",
    "contact:email": "museum@schell-collection.com",
    "contact:fax": "+43 316 715656 38",
    "contact:phone": "+43 316 715656 38",
    "contact:website": "http://www.schell-collection.com/",
    "name": "Schell Collection",
    "opening_hours": "Mo-Fr 08:00-16:00; Sa 09:00-12:00; Su,PH off",
    "operator": "Hanns und Christof Schell",
    "tourism": "museum"
  }
},
{
  "type": "node",
  "id": 1743682229,
  "lat": 46.9169465,
  "lon": 15.4845678,
  "tags": {
    "addr:city": "Werndorf",
    "addr:country": "AT",
    "addr:housenumber": "1",
    "addr:postcode": "8402",
    "addr:street": "Neumühlweg",
    "contact:mobile": "+43 664 2413730",
    "contact:phone": "+43 3135 54261",
    "name": "Fahrradmuseum",
    "source": "survey",
    "tourism": "museum",
    "website": "http://www.steirischemuseen.at/m/Museum/226/Lampl%C2%B4s%20Fahrradmuseum"
  }
},
{
  "type": "node",
  "id": 1826029733,
  "lat": 47.2156241,
  "lon": 15.7531580,
  "tags": {
    "email": "museumsleitung@kulm-keltendorf.at",
    "name": "Keltendorf",
    "tourism": "museum",
    "website": "http://www.kulm-keltendorf.at"
  }
},
{
  "type": "node",
  "id": 1837534428,
  "lat": 47.1033736,
  "lon": 15.4155204,
  "tags": {
    "addr:city": "Graz",
    "addr:country": "AT",
    "addr:housenumber": "16",
    "addr:postcode": "8045",
    "addr:street": "Weinzöttlstraße",
    "full_name": "Universalmuseum Joanneum - Studienzentrum Naturkunde",
    "name": "Studienzentrum Naturkunde",
    "operator": "Universalmuseum Joanneum",
    "tourism": "museum",
    "website": "https://www.museum-joanneum.at/de/botanik"
  }
},
{
  "type": "node",
  "id": 1844495164,
  "lat": 47.2734522,
  "lon": 15.6894616,
  "tags": {
    "name": "Mineralienmuseum",
    "tourism": "museum"
  }
},
{
  "type": "node",
  "id": 1997302613,
  "lat": 47.2162814,
  "lon": 15.3432555,
  "tags": {
    "name": "Höhlenmuseum",
    "tourism": "museum",
    "wheelchair": "no"
  }
},
{
  "type": "node",
  "id": 2481348950,
  "lat": 46.9703455,
  "lon": 15.3439683,
  "tags": {
    "addr:city": "Leboch",
    "addr:country": "AT",
    "addr:housenumber": "8",
    "addr:postcode": "8501",
    "addr:street": "Bahnhofstraße",
    "contact:email": "teml@gkb.at",
    "contact:phone": "+43 3136 62330 547",
    "contact:website": "http://www.stef.at",
    "name": "Eisenbahnmuseum Lieboch",
    "opening_hours": "May 01-Oct 26 We-Su 10:30-17:00",
    "source": "survey",
    "tourism": "museum"
  }
},
{
  "type": "node",
  "id": 2484925381,
  "lat": 47.0707074,
  "lon": 15.4293805,
  "tags": {
    "name": "DruckZeug",
    "tourism": "museum"
  }
},
{
  "type": "node",
  "id": 3208693867,
  "lat": 47.0165073,
  "lon": 15.8209669,
  "tags": {
    "name": "Gsellmanns Weltmaschine",
    "opening_hours": "Mo 9:00-18:00; We-Su 9:00-18:00",
    "tourism": "museum",
    "website": "https://www.weltmaschine.at/",
    "wikipedia": "de:Weltmaschine des Franz Gsellmann"
  }
},
{
  "type": "node",
  "id": 3240930971,
  "lat": 46.8477375,
  "lon": 15.1410644,
  "tags": {
    "addr:country": "AT",
    "addr:postcode": "8530",
    "name": "Bauernhausmuseum Herk",
    "tourism": "museum"
  }
},
{
  "type": "node",
  "id": 3634139112,
  "lat": 47.0736614,
  "lon": 15.4415049,
  "tags": {
    "addr:city": "Graz",
    "addr:country": "AT",
    "addr:housenumber": "4",
    "addr:postcode": "8010",
    "addr:street": "Hartiggasse",
    "contact:mobile": "+43664 435 9311",
    "contact:website": "http://puppenmuseumgraz.at",
    "name": "Grazer Spielzeugmuseum",
    "opening_hours": "Mo, We, Fr 09:30-12:30",
    "operator": "Christine Pichler",
    "tourism": "museum",
    "wheelchair": "no"
  }
},
{
  "type": "node",
  "id": 3696396590,
  "lat": 46.9894554,
  "lon": 15.8352505,
  "tags": {
    "addr:city": "Edelsbach bei Feldbach",
    "addr:housenumber": "15",
    "addr:place": "Edelsbach",
    "addr:postcode": "8332",
    "name": "Österreichisches Brückenbaumuseum",
    "tourism": "museum"
  }
},
{
  "type": "node",
  "id": 4301224957,
  "lat": 47.0725403,
  "lon": 15.4367764,
  "tags": {
    "addr:city": "Graz",
    "addr:country": "AT",
    "addr:housenumber": "18",
    "addr:postcode": "8010",
    "addr:street": "Sackstraße",
    "contact:email": "museumimpalais@museum-joanneum.at",
    "contact:fax": "+43 316 8017-9849",
    "contact:phone": "+43 316 8017-9810",
    "name": "Museum im Palais",
    "opening_hours": "We-Su 10:00-17:00",
    "operator": "Universalmuseum Joanneum",
    "source": "survey",
    "surveillance": "indoor",
    "tourism": "museum",
    "website": "www.museumimpalais.at",
    "wikidata": "Q2047006"
  }
},
{
  "type": "node",
  "id": 4708727489,
  "lat": 46.9353409,
  "lon": 15.4512539,
  "tags": {
    "addr:city": "Wundschuh",
    "addr:housenumber": "21",
    "addr:postcode": "8142",
    "addr:street": "Bachweg",
    "email": "erlebnishof@ehr.at",
    "name": "Erlebnishof Reczek",
    "phone": "+43 3135 53810",
    "tourism": "museum",
    "website": "http://www.ehr.at"
  }
},
{
  "type": "node",
  "id": 4778408924,
  "lat": 47.0717861,
  "lon": 15.4414090,
  "tags": {
    "name:en": "Jesuitenhof",
    "tourism": "museum"
  }
},
{
  "type": "node",
  "id": 5073831256,
  "lat": 46.9915383,
  "lon": 15.2078849,
  "tags": {
    "name": "Heimatmuseum",
    "tourism": "museum"
  }
},
{
  "type": "node",
  "id": 5254162367,
  "lat": 47.0552118,
  "lon": 15.1055464,
  "tags": {
    "addr:city": "Rosental an der Kainach",
    "addr:postcode": "8582",
    "contact:phone": "+43 3142 222 42",
    "description": "Besichtigung täglich nach telefonischer Voranmeldung in der Zeit vom 1. Mai bis 31. Oktober.",
    "name": "Bergbaumuseum Karlschacht",
    "tourism": "museum",
    "website": "https://www.rosental-kainach.at/das-museum/"
  }
},
{
  "type": "node",
  "id": 5573337505,
  "lat": 47.0105837,
  "lon": 15.1033387,
  "tags": {
    "name": "Wöllmißberger Heimatmuseum",
    "phone": "+43 3140 202",
    "tourism": "museum",
    "website": "http://www.st-martin-woellmissberg.at/de-heimatmuseum-127-info.html"
  }
},
{
  "type": "node",
  "id": 6439619909,
  "lat": 47.0305067,
  "lon": 15.1818723,
  "tags": {
    "name": "Burgmuseum",
    "tourism": "museum"
  }
},
{
  "type": "node",
  "id": 6479112076,
  "lat": 47.1018011,
  "lon": 15.1754129,
  "tags": {
    "name": "Kelten- und Römermuseum Södingberg",
    "opening_hours": "Mo,We 07:30-13:00,14:00-18:00",
    "operator": "Gemeindeamt Geistthal-Södingberg",
    "tourism": "museum"
  }
},
{
  "type": "node",
  "id": 6621992071,
  "lat": 47.0736814,
  "lon": 15.3913801,
  "tags": {
    "addr:city": "Graz",
    "addr:country": "AT",
    "addr:housenumber": "90",
    "addr:postcode": "8020",
    "addr:street": "Eggenberger Allee",
    "contact:website": "www.welterbe-eggenberg.at",
    "description": "nur im Rahmen einer Führung zugänglich",
    "name": "Prunkräume",
    "opening_hours": "Tu-Su,Ph 10:00-10:05;11:00-11:05;12:00-12:05;14:00-14:05;15:00-15:05;16:00-16:05",
    "tourism": "museum"
  }
},
{
  "type": "node",
  "id": 7137308378,
  "lat": 46.9469664,
  "lon": 15.1493499,
  "tags": {
    "name": "Museum Waldglashütte",
    "tourism": "museum",
    "website": "https://www.archeonorico.at/index.php/de/das-museum/aussenstelle-museum-waldglashuette"
  }
},
{
  "type": "way",
  "id": 29714856,
  "nodes": [
    327378921,
    278907988,
    327378925,
    327378929,
    327378932,
    327378935,
    327378944,
    327378950,
    327378953,
    327378956,
    327378959,
    327378962,
    327378964,
    327378965,
    327378968,
    327378971,
    327378973,
    327378976,
    327378978,
    4298815425,
    327378980,
    327378982,
    327378985,
    327378987,
    327378996,
    327378998,
    327379002,
    327379007,
    327379010,
    327379021,
    327379024,
    327379027,
    327379031,
    327379033,
    3984110609,
    327379037,
    327379039,
    327379040,
    327379041,
    327379042,
    327379043,
    327379044,
    327379045,
    327379046,
    327379047,
    327379048,
    327379049,
    327379050,
    327379051,
    327379053,
    327379055,
    327379056,
    327379057,
    327379058,
    327379060,
    327379062,
    327379063,
    327379064,
    327379065,
    327379066,
    327378921
  ],
  "tags": {
    "addr:city": "Graz",
    "addr:country": "AT",
    "addr:housenumber": "45",
    "addr:postcode": "8010",
    "addr:street": "Neutorgasse",
    "building": "yes",
    "name": "Universalmuseum Joanneum",
    "opening_hours": "Tu-Su 10:00-17:00",
    "source": "data.graz.gv.at",
    "toilets:wheelchair": "yes",
    "tourism": "museum",
    "website": "https://www.museum-joanneum.at/joanneumsviertel/ihr-besuch",
    "wheelchair": "yes",
    "wikidata": "Q623017",
    "wikipedia": "de:Universalmuseum Joanneum"
  }
},
{
  "type": "way",
  "id": 29714953,
  "nodes": [
    327379393,
    4225723645,
    327379396,
    327379399,
    327379404,
    327379407,
    327379411,
    327379415,
    327379419,
    327379422,
    327379426,
    327379430,
    327379433,
    327379436,
    327379439,
    327379443,
    327379447,
    327379449,
    327379452,
    327379454,
    327379458,
    327379460,
    327379462,
    4225723683,
    4225723667,
    25704404,
    1048265065,
    4225723652,
    1048265067,
    1048265060,
    327379393
  ],
  "tags": {
    "addr:city": "Graz",
    "addr:country": "AT",
    "addr:housenumber": "2",
    "addr:postcode": "8010",
    "addr:street": "Burgring",
    "building": "yes",
    "contact:email": "hd@km-k.at",
    "contact:phone": "+43 316 740 084",
    "height": "8",
    "name": "Haus für Kunst und Medien",
    "old_name": "Künstlerhaus",
    "operator": "Kunstverein Medienturm",
    "source": "survey",
    "start_date": "1952",
    "toilets:wheelchair": "yes",
    "tourism": "museum",
    "website": "https://www.km-k.at/",
    "wheelchair": "yes",
    "wikidata": "Q1308025",
    "wikipedia": "de:Künstlerhaus Graz"
  }
},
{
  "type": "way",
  "id": 30382823,
  "nodes": [
    335315026,
    335315032,
    335315037,
    3212172135,
    335315043,
    3212172131,
    335315026
  ],
  "tags": {
    "building": "yes",
    "name": "Museum Flavia Solva",
    "source": "plan.at 2009,bing",
    "tourism": "museum"
  }
},
{
  "type": "way",
  "id": 30568084,
  "nodes": [
    337787616,
    337787621,
    337787626,
    337787630,
    337787634,
    337787639,
    337787645,
    337787651,
    337787656,
    337787660,
    337787664,
    337787667,
    337787671,
    337787675,
    337787678,
    337787682,
    337787689,
    337787696,
    337787701,
    337787616
  ],
  "tags": {
    "addr:city": "Bärnbach",
    "addr:country": "AT",
    "addr:housenumber": "68",
    "addr:postcode": "8572",
    "addr:street": "Hauptstraße",
    "at_bev:addr_date": "2018-10-01",
    "building": "yes",
    "castle_type": "stately",
    "castle_type:de": "schloss",
    "historic": "castle",
    "name": "Schloss Alt-Kainach",
    "source": "geoimage.at",
    "tourism": "museum",
    "wikidata": "Q1410887",
    "wikipedia": "de:Schloss Alt-Kainach"
  }
},
{
  "type": "way",
  "id": 72095682,
  "nodes": [
    857134584,
    1215873023,
    1215873011,
    857134596,
    2431300512,
    2431300511,
    2431300513,
    4012563868,
    4012563872,
    4012563874,
    4012563875,
    2431300520,
    2431300523,
    1215873014,
    1215873007,
    857134615,
    857134626,
    857134584
  ],
  "tags": {
    "addr:city": "Stubenberg",
    "addr:country": "AT",
    "addr:housenumber": "3",
    "addr:place": "Buchberg",
    "addr:postcode": "8222",
    "building": "yes",
    "name": "Gironcoli Museum",
    "tourism": "museum",
    "website": "www.gironcoli-museum.com"
  }
},
{
  "type": "way",
  "id": 84579399,
  "nodes": [
    982668656,
    1610911650,
    1610911651,
    327380481,
    327380486,
    327380489,
    2123153635,
    327380494,
    327380495,
    1610911653,
    1610911654,
    327380505,
    327380509,
    327380512,
    1610911643,
    327380516,
    1610911648,
    982668698,
    982668651,
    982668687,
    982668629,
    982668616,
    982668671,
    1610911652,
    982668637,
    1610911649,
    982668700,
    1610911647,
    1610911646,
    1610911645,
    1610911631,
    982668656
  ],
  "tags": {
    "addr:city": "Graz",
    "addr:country": "AT",
    "addr:housenumber": "13",
    "addr:postcode": "8010",
    "addr:street": "Paulustorgasse",
    "building": "yes",
    "name": "Volkskundemuseum",
    "opening_hours": "We-Su 14:00-18:00",
    "source": "data.graz.gv.at",
    "start_date": "1602",
    "tourism": "museum",
    "wikidata": "Q2341984",
    "wikipedia": "de:Steirisches Volkskundemuseum"
  }
},
{
  "type": "way",
  "id": 86174340,
  "nodes": [
    1000235276,
    1000235147,
    1000235000,
    1000234874,
    1000234747,
    1000235213,
    1000235068,
    1000234930,
    1000234801,
    1000235265,
    1000235130,
    1000234979,
    1000234857,
    1000235321,
    1494375938,
    1000235199,
    1000235044,
    1000234918,
    1000234776,
    1000234897,
    1000234764,
    1000235231,
    1000235092,
    1000234955,
    1000234819,
    1000235291,
    1000235159,
    1000235007,
    1000234755,
    1000235219,
    1000235076,
    1000234934,
    1000234803,
    1000235267,
    1000235137,
    1000234985,
    1000234861,
    1000235331,
    1000235203,
    1000235058,
    1000234925,
    1000234790,
    1000235258,
    1000235121,
    1533380192,
    1000234971,
    1000234846,
    1000235310,
    1000235180,
    1000235032,
    1000235041,
    1000234760,
    1000234904,
    1000235227,
    1000234891,
    1000235284,
    1000234890,
    1000234967,
    1000235214,
    6450145117,
    6450145116,
    327381017,
    330268150,
    1363862180,
    1000235247,
    1000235125,
    1000235276
  ],
  "tags": {
    "addr:city": "Graz",
    "addr:country": "AT",
    "addr:housenumber": "1",
    "addr:postcode": "8020",
    "addr:street": "Lendkai",
    "amenity": "arts_centre",
    "building": "yes",
    "name": "Kunsthaus",
    "name:de": "Kunsthaus",
    "name:ru": "Кунстхаус",
    "name:zh": "现代美术馆",
    "opening_hours": "Tu-Su 10:00-17:00",
    "source": "survey",
    "toilets:wheelchair": "yes",
    "tourism": "museum",
    "website": "http://www.museum-joanneum.at/de/kunsthaus/",
    "wheelchair": "yes",
    "wikidata": "Q597137",
    "wikipedia": "de:Kunsthaus Graz"
  }
},
{
  "type": "way",
  "id": 87311939,
  "nodes": [
    1015141563,
    1015141595,
    1015141164,
    1015141435,
    1015141563
  ],
  "tags": {
    "addr:city": "Graz",
    "addr:country": "AT",
    "addr:housenumber": "34",
    "addr:postcode": "8010",
    "addr:street": "Friedrichgasse",
    "building": "yes",
    "name": "Kindermuseum FRida & freD",
    "opening_hours": "Fr 09:00-19:00; Mo,We-Th 09:00-17:00; Sa-Su 10:00-17:00",
    "start_date": "2003",
    "tourism": "museum",
    "wheelchair": "yes",
    "wikidata": "Q1456145",
    "wikipedia": "de:Frida und Fred"
  }
},
{
  "type": "way",
  "id": 87311950,
  "nodes": [
    1015141601,
    1015141525,
    1930182851,
    1015141325,
    1015141128,
    1015141542,
    1015141042,
    1015141355,
    1015141073,
    1015141518,
    1015141244,
    1015141601
  ],
  "tags": {
    "addr:city": "Graz",
    "addr:country": "AT",
    "addr:housenumber": "41",
    "addr:postcode": "8010",
    "addr:street": "Friedrichgasse",
    "building": "yes",
    "contact:email": "muwa@muwa.at",
    "contact:website": "http://www.muwa.at/",
    "name": "Museum der Wahrnehmung",
    "opening_hours": "14:00-18:30; Tu off",
    "source": "bing",
    "start_date": "1905",
    "tourism": "museum",
    "wheelchair": "limited",
    "wikidata": "Q1954568",
    "wikipedia": "de:Museum der Wahrnehmung"
  }
},
{
  "type": "way",
  "id": 95500951,
  "nodes": [
    1107432185,
    2947787523,
    1745237858,
    2947787519,
    1107432162,
    1107432166,
    2947773329,
    2947781027,
    1745237919,
    2947781026,
    2947891408,
    2947891407,
    2947891409,
    2947891410,
    1107432105,
    5469169957,
    5469169959,
    5469169958,
    1107432185
  ],
  "tags": {
    "addr:city": "Unterpremstätten",
    "addr:country": "AT",
    "addr:housenumber": "85",
    "addr:postcode": "8141",
    "addr:street": "Thalerhofstraße",
    "contact:phone": "+43 316 8017 9704",
    "contact:website": "www.skulpturenpark.at",
    "layer": "-1",
    "leisure": "park",
    "name": "Österreichischer Skulpturenpark",
    "start_date": "2003",
    "tourism": "museum",
    "wheelchair": "yes",
    "wikidata": "Q113528",
    "wikipedia": "de:Österreichischer Skulpturenpark"
  }
},
{
  "type": "way",
  "id": 128933869,
  "nodes": [
    506731304,
    1423446611,
    1423446660,
    1423446662,
    1423446713,
    1423446706,
    1423446677,
    1423446675,
    1423446672,
    1423446670,
    5469853264,
    1423446656,
    1423446657,
    1423446651,
    1423446654,
    506731304
  ],
  "tags": {
    "addr:city": "Kitzeck im Sausal",
    "addr:country": "AT",
    "addr:housenumber": "15",
    "addr:place": "Steinriegel",
    "addr:postcode": "8442",
    "at_bev:addr_date": "2017-04-07",
    "building": "yes",
    "name": "Weinmuseum",
    "source": "Bing",
    "tourism": "museum"
  }
},
{
  "type": "way",
  "id": 131917219,
  "nodes": [
    1451251273,
    3569805177,
    3569805178,
    3569810599,
    3569805179,
    1451251265,
    1451251268,
    1451251288,
    1451251273
  ],
  "tags": {
    "addr:city": "Leibnitz",
    "addr:country": "AT",
    "addr:housenumber": "9",
    "addr:postcode": "8430",
    "addr:street": "Am Frauenberg",
    "at_bev:addr_date": "2019-10-01",
    "building": "yes",
    "building:levels": "1",
    "name": "Tempelmuseum Frauenberg",
    "source": "geoimage.at",
    "tourism": "museum"
  }
},
{
  "type": "way",
  "id": 131984313,
  "nodes": [
    1452168520,
    4485376835,
    4485376841,
    1452168611,
    1452168365,
    1452168439,
    1452168353,
    1452168520
  ],
  "tags": {
    "addr:city": "Thal",
    "addr:country": "AT",
    "addr:housenumber": "9",
    "addr:postcode": "8051",
    "addr:street": "Linakstraße",
    "building": "yes",
    "contact:facebook": "https://www.facebook.com/Arnold-Schwarzenegger-Museum-Thal-150121248437789/",
    "contact:phone": "+43 316 571947",
    "contact:website": "http://www.arnieslife.com/",
    "name": "Arnold-Schwarzenegger-Museum",
    "opening_hours": "Mar-Oct: Mo-Su 10:00-17:00; Nov-Feb: Mo-Tu off, We-Su 10:00-16:00",
    "tourism": "museum",
    "wheelchair": "no"
  }
},
{
  "type": "way",
  "id": 148064210,
  "nodes": [
    1611760476,
    1611760477,
    1611760475,
    4725925559,
    4725925576,
    1611760474,
    1611760476
  ],
  "tags": {
    "addr:city": "Feldkirchen bei Graz",
    "addr:housenumber": "52",
    "addr:postcode": "8073",
    "addr:street": "Thalerhofstraße",
    "building": "yes",
    "name": "Österreichisches Luftfahrtmuseum",
    "source": "GeoImage.at High-Res",
    "tourism": "museum",
    "wikidata": "Q306671",
    "wikipedia": "de:Österreichisches Luftfahrtmuseum"
  }
},
{
  "type": "way",
  "id": 155541112,
  "nodes": [
    1679333485,
    1679333469,
    1679333410,
    4012563843,
    1679333495,
    4012563852,
    1679333437,
    1679333403,
    1679333436,
    1679333430,
    1679333432,
    1679333501,
    1679333457,
    1679333480,
    4012563845,
    4012563839,
    1679333486,
    1679333453,
    1679333482,
    1679333488,
    1679333440,
    1679333485
  ],
  "tags": {
    "addr:city": "Stubenberg",
    "addr:country": "AT",
    "addr:housenumber": "2",
    "addr:place": "Buchberg",
    "addr:postcode": "8222",
    "building": "yes",
    "tourism": "museum"
  }
},
{
  "type": "way",
  "id": 165600612,
  "nodes": [
    1771466887,
    1771466803,
    1771466716,
    1771466763,
    5932824991,
    1771466806,
    1771466798,
    1771466875,
    1771466887
  ],
  "tags": {
    "addr:city": "Stainz",
    "addr:country": "AT",
    "addr:housenumber": "25",
    "addr:postcode": "8510",
    "addr:street": "Kärntner Straße",
    "at_bev:addr_date": "2018-04-02",
    "building": "yes",
    "contact:phone": "+43 3463 2621",
    "contact:website": "http://www.automobilmuseum-stainz.at/",
    "name": "Automobilemuseum Stainz",
    "tourism": "museum"
  }
},
{
  "type": "way",
  "id": 172392961,
  "nodes": [
    1833007982,
    1833007980,
    1833007975,
    1833007976,
    1833007977,
    1833007978,
    1833007981,
    1833007979,
    1833007982
  ],
  "tags": {
    "building": "yes",
    "name": "Rauchstubenhaus",
    "opening_hours": "We-Su",
    "tourism": "museum"
  }
},
{
  "type": "way",
  "id": 179944983,
  "nodes": [
    1903958846,
    1903958874,
    1903958848,
    1903958840,
    1903958837,
    1903958769,
    1903958756,
    1459018537,
    1903958764,
    1903958760,
    1903958793,
    1903958825,
    1903958846
  ],
  "tags": {
    "addr:city": "Graz",
    "addr:country": "AT",
    "addr:housenumber": "204",
    "addr:postcode": "8044",
    "addr:street": "Mariatroster Straße",
    "barrier": "fence",
    "name": "Tramwaymuseum",
    "source": "GeoImage.at High-Res;survey",
    "tourism": "museum",
    "wikidata": "Q2448625",
    "wikipedia": "de:Tramway Museum Graz"
  }
},
{
  "type": "way",
  "id": 184786686,
  "nodes": [
    1953039006,
    1953039004,
    1953038988,
    1953038992,
    1953039009,
    1953039008,
    1953038999,
    1953038996,
    1953039006
  ],
  "tags": {
    "addr:city": "Stübing",
    "addr:country": "AT",
    "addr:housenumber": "32",
    "addr:place": "Enzenbach",
    "addr:postcode": "8114",
    "at_bev:addr_date": "2016-10-02",
    "building": "yes",
    "contact:email": "service@freilichtmuseum.at",
    "contact:fax": "+43 3124 53700 18",
    "contact:phone": "+43 3124 53700",
    "contact:website": "https://www.freilichtmuseum.at/",
    "contact:youtube": "https://www.youtube.com/channel/UCDoXLL80IrGfjq5OR6Nl_xQ",
    "name": "Österreichisches Freilichtmuseum Stübing",
    "opening_hours": "Mar 23-Oct 31: Mo-Su,PH 09:00-17:00 \"entrance till 16:00\"",
    "operator": "gemeinnnützige Stiftung Österreichisches Freilichtmuseum",
    "source": "geoimage.at MaxRes",
    "tourism": "museum"
  }
},
{
  "type": "way",
  "id": 188857864,
  "nodes": [
    1994951474,
    1994951475,
    1994951473,
    1994951471,
    1994951474
  ],
  "tags": {
    "building": "yes",
    "name": "Historisches Stellwerk",
    "tourism": "museum"
  }
},
{
  "type": "way",
  "id": 203147794,
  "nodes": [
    2131220139,
    4314061231,
    4314061234,
    4314061233,
    4314061232,
    2131220142,
    2131220143,
    2131220141,
    2131220139
  ],
  "tags": {
    "addr:city": "Stainz",
    "addr:country": "AT",
    "addr:housenumber": "58",
    "addr:place": "Rainbach",
    "addr:postcode": "8510",
    "at_bev:addr_date": "2017-10-01",
    "building": "yes",
    "name": "Spielzeugmuseum",
    "tourism": "museum"
  }
},
{
  "type": "way",
  "id": 216049743,
  "nodes": [
    2254312957,
    5932817007,
    2254312997,
    2254313001,
    2254312957
  ],
  "tags": {
    "addr:city": "Stainz",
    "addr:country": "AT",
    "addr:housenumber": "4",
    "addr:postcode": "8510",
    "addr:street": "Brombeerweg",
    "addr:suburb": "Kothvogel",
    "at_bev:addr_date": "2018-04-02",
    "building": "yes",
    "name": "Traktormuseum der Oldtimerfreunde Stainz",
    "source": "geoimage.at",
    "tourism": "museum"
  }
},
{
  "type": "way",
  "id": 224336207,
  "nodes": [
    2331575572,
    2331575574,
    2331575575,
    2331575573,
    2331575572
  ],
  "tags": {
    "name": "Ambrosimuseum",
    "tourism": "museum"
  }
},
{
  "type": "way",
  "id": 242586296,
  "nodes": [
    2500529991,
    2500532713,
    2500532707,
    2500532709,
    2500533953,
    2500533938,
    2500532700,
    1139107484,
    1139107492,
    2500529995,
    2500532681,
    1139107493,
    2500530043,
    2500529979,
    2500530019,
    2500530003,
    1139107332,
    2500529982,
    2500529988,
    2500529998,
    2500530002,
    2500529991
  ],
  "tags": {
    "natural": "grass",
    "tourism": "museum"
  }
},
{
  "type": "way",
  "id": 333553667,
  "nodes": [
    3406857015,
    3406857018,
    3406857016,
    3406857012,
    3406857015
  ],
  "tags": {
    "building": "yes",
    "name": "Oldtimer & Bauernkram",
    "opening_hours": "We-Su 10:00-22:00",
    "operator": "Großschmidt",
    "source": "Geoimage.at MaxRes",
    "tourism": "museum"
  }
},
{
  "type": "relation",
  "id": 2725047,
  "members": [
    {
      "type": "way",
      "ref": 235145009,
      "role": "outer"
    },
    {
      "type": "way",
      "ref": 235145006,
      "role": "outer"
    },
    {
      "type": "way",
      "ref": 235145011,
      "role": "outer"
    },
    {
      "type": "way",
      "ref": 277800379,
      "role": "outer"
    },
    {
      "type": "way",
      "ref": 235145007,
      "role": "outer"
    },
    {
      "type": "way",
      "ref": 235145012,
      "role": "outer"
    },
    {
      "type": "way",
      "ref": 134832372,
      "role": "outer"
    },
    {
      "type": "way",
      "ref": 203063459,
      "role": "outer"
    }
  ],
  "tags": {
    "addr:city": "Stübing",
    "addr:country": "AT",
    "addr:postcode": "8114",
    "contact:email": "service@freilichtmuseum.at",
    "contact:facebook": "https://www.facebook.com/Freilichtmuseum.Stuebing",
    "contact:fax": "+43 3124 53700 18",
    "contact:phone": "+43 3124 53700",
    "contact:website": "https://www.freilichtmuseum.at/",
    "contact:youtube": "https://www.youtube.com/channel/UCDoXLL80IrGfjq5OR6Nl_xQ",
    "name": "Österreichisches Freilichtmuseum Stübing",
    "opening_hours": "Mar 23-Oct 31: Mo-Su,PH 09:00-17:00 \"entrance till 16:00\"",
    "operator": "gemeinnnützige Stiftung Österreichisches Freilichtmuseum",
    "source": "geoimage.at MaxRes",
    "tourism": "museum",
    "type": "multipolygon"
  }
},
{
  "type": "relation",
  "id": 6412287,
  "members": [
    {
      "type": "way",
      "ref": 153173318,
      "role": "outer"
    },
    {
      "type": "way",
      "ref": 431034731,
      "role": "inner"
    }
  ],
  "tags": {
    "building": "yes",
    "name": "Feuerwehrmuseum",
    "tourism": "museum",
    "type": "multipolygon",
    "website": "www.feuerwehrmuseum.at",
    "wikipedia": "de:Liste der denkmalgeschützten Objekte in Groß Sankt Florian"
  }
},
{
  "type": "node",
  "id": 506731304,
  "lat": 46.7824069,
  "lon": 15.4532159
},
{
  "type": "node",
  "id": 1423446611,
  "lat": 46.7824340,
  "lon": 15.4533081
},
{
  "type": "node",
  "id": 1423446651,
  "lat": 46.7825526,
  "lon": 15.4530926
},
{
  "type": "node",
  "id": 1423446654,
  "lat": 46.7825606,
  "lon": 15.4531198
},
{
  "type": "node",
  "id": 1423446656,
  "lat": 46.7825739,
  "lon": 15.4530407
},
{
  "type": "node",
  "id": 1423446657,
  "lat": 46.7825834,
  "lon": 15.4530734
},
{
  "type": "node",
  "id": 1423446660,
  "lat": 46.7825958,
  "lon": 15.4532069
},
{
  "type": "node",
  "id": 1423446662,
  "lat": 46.7826000,
  "lon": 15.4532213
},
{
  "type": "node",
  "id": 1423446670,
  "lat": 46.7826317,
  "lon": 15.4530049
},
{
  "type": "node",
  "id": 1423446672,
  "lat": 46.7826387,
  "lon": 15.4530307
},
{
  "type": "node",
  "id": 1423446675,
  "lat": 46.7826519,
  "lon": 15.4530230
},
{
  "type": "node",
  "id": 1423446677,
  "lat": 46.7826542,
  "lon": 15.4530314
},
{
  "type": "node",
  "id": 1423446706,
  "lat": 46.7827283,
  "lon": 15.4529886
},
{
  "type": "node",
  "id": 1423446713,
  "lat": 46.7827675,
  "lon": 15.4531166
},
{
  "type": "node",
  "id": 5469853264,
  "lat": 46.7826186,
  "lon": 15.4530125
},
{
  "type": "node",
  "id": 1994951471,
  "lat": 46.8188826,
  "lon": 15.2177549
},
{
  "type": "node",
  "id": 1994951473,
  "lat": 46.8189029,
  "lon": 15.2178587
},
{
  "type": "node",
  "id": 1994951474,
  "lat": 46.8189279,
  "lon": 15.2177361
},
{
  "type": "node",
  "id": 1994951475,
  "lat": 46.8189481,
  "lon": 15.2178399
},
{
  "type": "node",
  "id": 2254312957,
  "lat": 46.8749238,
  "lon": 15.2587221
},
{
  "type": "node",
  "id": 2254312997,
  "lat": 46.8754073,
  "lon": 15.2590338
},
{
  "type": "node",
  "id": 2254313001,
  "lat": 46.8754262,
  "lon": 15.2587811
},
{
  "type": "node",
  "id": 5932817007,
  "lat": 46.8749086,
  "lon": 15.2589587
},
{
  "type": "node",
  "id": 2131220139,
  "lat": 46.9045902,
  "lon": 15.1922232
},
{
  "type": "node",
  "id": 2131220141,
  "lat": 46.9046423,
  "lon": 15.1921607
},
{
  "type": "node",
  "id": 2131220142,
  "lat": 46.9047025,
  "lon": 15.1924320
},
{
  "type": "node",
  "id": 2131220143,
  "lat": 46.9047573,
  "lon": 15.1923664
},
{
  "type": "node",
  "id": 4314061231,
  "lat": 46.9046182,
  "lon": 15.1922734
},
{
  "type": "node",
  "id": 4314061232,
  "lat": 46.9046413,
  "lon": 15.1923225
},
{
  "type": "node",
  "id": 4314061233,
  "lat": 46.9046244,
  "lon": 15.1923427
},
{
  "type": "node",
  "id": 4314061234,
  "lat": 46.9045987,
  "lon": 15.1922968
},
{
  "type": "node",
  "id": 1771466716,
  "lat": 46.8897289,
  "lon": 15.2605282
},
{
  "type": "node",
  "id": 1771466763,
  "lat": 46.8900061,
  "lon": 15.2607203
},
{
  "type": "node",
  "id": 1771466798,
  "lat": 46.8901171,
  "lon": 15.2600516
},
{
  "type": "node",
  "id": 1771466803,
  "lat": 46.8899580,
  "lon": 15.2598206
},
{
  "type": "node",
  "id": 1771466806,
  "lat": 46.8900851,
  "lon": 15.2601505
},
{
  "type": "node",
  "id": 1771466875,
  "lat": 46.8900378,
  "lon": 15.2599966
},
{
  "type": "node",
  "id": 1771466887,
  "lat": 46.8900697,
  "lon": 15.2598980
},
{
  "type": "node",
  "id": 5932824991,
  "lat": 46.8901712,
  "lon": 15.2602102
},
{
  "type": "node",
  "id": 1658893662,
  "lat": 46.8231946,
  "lon": 15.3169486
},
{
  "type": "node",
  "id": 1658893666,
  "lat": 46.8232116,
  "lon": 15.3167078
},
{
  "type": "node",
  "id": 1658893669,
  "lat": 46.8233866,
  "lon": 15.3169991
},
{
  "type": "node",
  "id": 1658893671,
  "lat": 46.8234336,
  "lon": 15.3167453
},
{
  "type": "node",
  "id": 3264384533,
  "lat": 46.8231964,
  "lon": 15.3169237
},
{
  "type": "node",
  "id": 4302846931,
  "lat": 46.8234250,
  "lon": 15.3168513
},
{
  "type": "node",
  "id": 4302846932,
  "lat": 46.8233621,
  "lon": 15.3168452
},
{
  "type": "node",
  "id": 4302846933,
  "lat": 46.8233509,
  "lon": 15.3168998
},
{
  "type": "node",
  "id": 4302846934,
  "lat": 46.8232887,
  "lon": 15.3168840
},
{
  "type": "node",
  "id": 4302846935,
  "lat": 46.8232939,
  "lon": 15.3168318
},
{
  "type": "node",
  "id": 4612970816,
  "lat": 46.8233220,
  "lon": 15.3167264
},
{
  "type": "node",
  "id": 1107432162,
  "lat": 46.9790850,
  "lon": 15.4301961
},
{
  "type": "node",
  "id": 1107432185,
  "lat": 46.9771656,
  "lon": 15.4315790
},
{
  "type": "node",
  "id": 1745237858,
  "lat": 46.9783184,
  "lon": 15.4307711
},
{
  "type": "node",
  "id": 1745237919,
  "lat": 46.9794856,
  "lon": 15.4328453
},
{
  "type": "node",
  "id": 2947781026,
  "lat": 46.9794366,
  "lon": 15.4328809
},
{
  "type": "node",
  "id": 2947787519,
  "lat": 46.9783497,
  "lon": 15.4307476
},
{
  "type": "node",
  "id": 2947787523,
  "lat": 46.9782261,
  "lon": 15.4308209
},
{
  "type": "node",
  "id": 2947891407,
  "lat": 46.9789369,
  "lon": 15.4331509
},
{
  "type": "node",
  "id": 2947891408,
  "lat": 46.9789590,
  "lon": 15.4332282
},
{
  "type": "node",
  "id": 2947891409,
  "lat": 46.9787560,
  "lon": 15.4332819
},
{
  "type": "node",
  "id": 2947891410,
  "lat": 46.9787791,
  "lon": 15.4333591
},
{
  "type": "node",
  "id": 5469169958,
  "lat": 46.9770897,
  "lon": 15.4319240
},
{
  "type": "node",
  "id": 5469169959,
  "lat": 46.9773905,
  "lon": 15.4329032
},
{
  "type": "node",
  "id": 1107432105,
  "lat": 46.9779943,
  "lon": 15.4339297
},
{
  "type": "node",
  "id": 5469169957,
  "lat": 46.9777412,
  "lon": 15.4338335
},
{
  "type": "node",
  "id": 1107432166,
  "lat": 46.9798829,
  "lon": 15.4325564
},
{
  "type": "node",
  "id": 2947773329,
  "lat": 46.9798409,
  "lon": 15.4325869
},
{
  "type": "node",
  "id": 2947781027,
  "lat": 46.9795286,
  "lon": 15.4328140
},
{
  "type": "node",
  "id": 1139107332,
  "lat": 46.9859616,
  "lon": 15.4483906
},
{
  "type": "node",
  "id": 2500529979,
  "lat": 46.9860407,
  "lon": 15.4486764
},
{
  "type": "node",
  "id": 2500529982,
  "lat": 46.9859482,
  "lon": 15.4483698
},
{
  "type": "node",
  "id": 2500529988,
  "lat": 46.9860062,
  "lon": 15.4482785
},
{
  "type": "node",
  "id": 2500529998,
  "lat": 46.9860155,
  "lon": 15.4482887
},
{
  "type": "node",
  "id": 2500530003,
  "lat": 46.9858974,
  "lon": 15.4485549
},
{
  "type": "node",
  "id": 2500530019,
  "lat": 46.9860020,
  "lon": 15.4487073
},
{
  "type": "node",
  "id": 1139107484,
  "lat": 46.9872242,
  "lon": 15.4477435
},
{
  "type": "node",
  "id": 1139107492,
  "lat": 46.9873185,
  "lon": 15.4481111
},
{
  "type": "node",
  "id": 1139107493,
  "lat": 46.9860943,
  "lon": 15.4487174
},
{
  "type": "node",
  "id": 1611760474,
  "lat": 46.9865988,
  "lon": 15.4477021
},
{
  "type": "node",
  "id": 1611760475,
  "lat": 46.9866561,
  "lon": 15.4483805
},
{
  "type": "node",
  "id": 1611760476,
  "lat": 46.9868208,
  "lon": 15.4475823
},
{
  "type": "node",
  "id": 1611760477,
  "lat": 46.9869775,
  "lon": 15.4482062
},
{
  "type": "node",
  "id": 2500529991,
  "lat": 46.9862488,
  "lon": 15.4471930
},
{
  "type": "node",
  "id": 2500529995,
  "lat": 46.9861034,
  "lon": 15.4487671
},
{
  "type": "node",
  "id": 2500530002,
  "lat": 46.9861591,
  "lon": 15.4480661
},
{
  "type": "node",
  "id": 2500530043,
  "lat": 46.9860688,
  "lon": 15.4486987
},
{
  "type": "node",
  "id": 2500532681,
  "lat": 46.9860987,
  "lon": 15.4487412
},
{
  "type": "node",
  "id": 2500532700,
  "lat": 46.9874066,
  "lon": 15.4476450
},
{
  "type": "node",
  "id": 2500532707,
  "lat": 46.9872203,
  "lon": 15.4469436
},
{
  "type": "node",
  "id": 2500532709,
  "lat": 46.9872725,
  "lon": 15.4469534
},
{
  "type": "node",
  "id": 2500532713,
  "lat": 46.9871545,
  "lon": 15.4469543
},
{
  "type": "node",
  "id": 2500533938,
  "lat": 46.9874000,
  "lon": 15.4476172
},
{
  "type": "node",
  "id": 2500533953,
  "lat": 46.9873971,
  "lon": 15.4475966
},
{
  "type": "node",
  "id": 4725925559,
  "lat": 46.9865755,
  "lon": 15.4481031
},
{
  "type": "node",
  "id": 4725925576,
  "lat": 46.9866846,
  "lon": 15.4480439
},
{
  "type": "node",
  "id": 1451251265,
  "lat": 46.7740359,
  "lon": 15.5232207
},
{
  "type": "node",
  "id": 1451251268,
  "lat": 46.7740895,
  "lon": 15.5233487
},
{
  "type": "node",
  "id": 1451251273,
  "lat": 46.7741150,
  "lon": 15.5231502
},
{
  "type": "node",
  "id": 1451251288,
  "lat": 46.7741685,
  "lon": 15.5232782
},
{
  "type": "node",
  "id": 3569805177,
  "lat": 46.7740464,
  "lon": 15.5230063
},
{
  "type": "node",
  "id": 3569805178,
  "lat": 46.7740188,
  "lon": 15.5230291
},
{
  "type": "node",
  "id": 3569805179,
  "lat": 46.7740850,
  "lon": 15.5231739
},
{
  "type": "node",
  "id": 3569810599,
  "lat": 46.7740731,
  "lon": 15.5231479
},
{
  "type": "node",
  "id": 335315026,
  "lat": 46.7691637,
  "lon": 15.5688931
},
{
  "type": "node",
  "id": 335315032,
  "lat": 46.7691499,
  "lon": 15.5690139
},
{
  "type": "node",
  "id": 335315037,
  "lat": 46.7688274,
  "lon": 15.5689357
},
{
  "type": "node",
  "id": 335315043,
  "lat": 46.7688410,
  "lon": 15.5688145
},
{
  "type": "node",
  "id": 3212172131,
  "lat": 46.7688679,
  "lon": 15.5688214
},
{
  "type": "node",
  "id": 3212172135,
  "lat": 46.7688341,
  "lon": 15.5688720
},
{
  "type": "node",
  "id": 3406857012,
  "lat": 46.8480418,
  "lon": 15.6064124
},
{
  "type": "node",
  "id": 3406857015,
  "lat": 46.8481678,
  "lon": 15.6062660
},
{
  "type": "node",
  "id": 3406857016,
  "lat": 46.8481605,
  "lon": 15.6066310
},
{
  "type": "node",
  "id": 3406857018,
  "lat": 46.8482866,
  "lon": 15.6064846
},
{
  "type": "node",
  "id": 337787616,
  "lat": 47.0830608,
  "lon": 15.1246654
},
{
  "type": "node",
  "id": 337787621,
  "lat": 47.0830668,
  "lon": 15.1247274
},
{
  "type": "node",
  "id": 337787626,
  "lat": 47.0830158,
  "lon": 15.1247434
},
{
  "type": "node",
  "id": 337787630,
  "lat": 47.0830078,
  "lon": 15.1246834
},
{
  "type": "node",
  "id": 337787634,
  "lat": 47.0829108,
  "lon": 15.1247094
},
{
  "type": "node",
  "id": 337787639,
  "lat": 47.0829238,
  "lon": 15.1247934
},
{
  "type": "node",
  "id": 337787645,
  "lat": 47.0829278,
  "lon": 15.1248194
},
{
  "type": "node",
  "id": 337787651,
  "lat": 47.0829748,
  "lon": 15.1248084
},
{
  "type": "node",
  "id": 337787656,
  "lat": 47.0829888,
  "lon": 15.1248964
},
{
  "type": "node",
  "id": 337787660,
  "lat": 47.0829048,
  "lon": 15.1249264
},
{
  "type": "node",
  "id": 337787664,
  "lat": 47.0829138,
  "lon": 15.1250004
},
{
  "type": "node",
  "id": 337787667,
  "lat": 47.0829418,
  "lon": 15.1249934
},
{
  "type": "node",
  "id": 337787671,
  "lat": 47.0829508,
  "lon": 15.1250574
},
{
  "type": "node",
  "id": 337787675,
  "lat": 47.0830648,
  "lon": 15.1250184
},
{
  "type": "node",
  "id": 337787678,
  "lat": 47.0830768,
  "lon": 15.1250854
},
{
  "type": "node",
  "id": 337787682,
  "lat": 47.0831318,
  "lon": 15.1250684
},
{
  "type": "node",
  "id": 337787689,
  "lat": 47.0831228,
  "lon": 15.1249984
},
{
  "type": "node",
  "id": 337787696,
  "lat": 47.0831718,
  "lon": 15.1249824
},
{
  "type": "node",
  "id": 337787701,
  "lat": 47.0831288,
  "lon": 15.1246494
},
{
  "type": "node",
  "id": 2331575572,
  "lat": 47.0483488,
  "lon": 15.2163970
},
{
  "type": "node",
  "id": 2331575573,
  "lat": 47.0480637,
  "lon": 15.2161073
},
{
  "type": "node",
  "id": 2331575574,
  "lat": 47.0481661,
  "lon": 15.2169012
},
{
  "type": "node",
  "id": 2331575575,
  "lat": 47.0478663,
  "lon": 15.2165794
},
{
  "type": "node",
  "id": 1211876104,
  "lat": 47.1562028,
  "lon": 15.3026069
},
{
  "type": "node",
  "id": 1211876257,
  "lat": 47.1542425,
  "lon": 15.3021059
},
{
  "type": "node",
  "id": 1211876393,
  "lat": 47.1540163,
  "lon": 15.3010373
},
{
  "type": "node",
  "id": 1481709265,
  "lat": 47.1535246,
  "lon": 15.3014026
},
{
  "type": "node",
  "id": 1481709267,
  "lat": 47.1535553,
  "lon": 15.3009168
},
{
  "type": "node",
  "id": 1481709268,
  "lat": 47.1538165,
  "lon": 15.3018771
},
{
  "type": "node",
  "id": 1481709272,
  "lat": 47.1543721,
  "lon": 15.3004825
},
{
  "type": "node",
  "id": 1953038810,
  "lat": 47.1535700,
  "lon": 15.3015748
},
{
  "type": "node",
  "id": 1953038811,
  "lat": 47.1536911,
  "lon": 15.3008415
},
{
  "type": "node",
  "id": 1953038836,
  "lat": 47.1542109,
  "lon": 15.2999302
},
{
  "type": "node",
  "id": 1953038839,
  "lat": 47.1541717,
  "lon": 15.3026184
},
{
  "type": "node",
  "id": 1953038840,
  "lat": 47.1543415,
  "lon": 15.2993051
},
{
  "type": "node",
  "id": 1953038847,
  "lat": 47.1545910,
  "lon": 15.3010614
},
{
  "type": "node",
  "id": 1953038855,
  "lat": 47.1547154,
  "lon": 15.2995724
},
{
  "type": "node",
  "id": 1953038862,
  "lat": 47.1548190,
  "lon": 15.3003485
},
{
  "type": "node",
  "id": 1953038876,
  "lat": 47.1552323,
  "lon": 15.3008241
},
{
  "type": "node",
  "id": 1953038889,
  "lat": 47.1554964,
  "lon": 15.2987553
},
{
  "type": "node",
  "id": 1953038896,
  "lat": 47.1554174,
  "lon": 15.2996081
},
{
  "type": "node",
  "id": 1953038913,
  "lat": 47.1556262,
  "lon": 15.2998937
},
{
  "type": "node",
  "id": 1953038915,
  "lat": 47.1555974,
  "lon": 15.3008726
},
{
  "type": "node",
  "id": 1953038916,
  "lat": 47.1555948,
  "lon": 15.2996085
},
{
  "type": "node",
  "id": 1953038921,
  "lat": 47.1557422,
  "lon": 15.2993304
},
{
  "type": "node",
  "id": 1953038922,
  "lat": 47.1557442,
  "lon": 15.2995777
},
{
  "type": "node",
  "id": 2432300530,
  "lat": 47.1535144,
  "lon": 15.3011654
},
{
  "type": "node",
  "id": 2432300550,
  "lat": 47.1538626,
  "lon": 15.3009206
},
{
  "type": "node",
  "id": 2432300552,
  "lat": 47.1538934,
  "lon": 15.3022123
},
{
  "type": "node",
  "id": 2432300576,
  "lat": 47.1541648,
  "lon": 15.3010938
},
{
  "type": "node",
  "id": 2432300579,
  "lat": 47.1541927,
  "lon": 15.3023910
},
{
  "type": "node",
  "id": 2432300583,
  "lat": 47.1542160,
  "lon": 15.3001674
},
{
  "type": "node",
  "id": 2432300584,
  "lat": 47.1542263,
  "lon": 15.2995649
},
{
  "type": "node",
  "id": 2432300585,
  "lat": 47.1542294,
  "lon": 15.3016626
},
{
  "type": "node",
  "id": 2432300586,
  "lat": 47.1542468,
  "lon": 15.2994030
},
{
  "type": "node",
  "id": 2432300587,
  "lat": 47.1542477,
  "lon": 15.3014622
},
{
  "type": "node",
  "id": 2432300589,
  "lat": 47.1542503,
  "lon": 15.3018322
},
{
  "type": "node",
  "id": 2432300591,
  "lat": 47.1542570,
  "lon": 15.3009583
},
{
  "type": "node",
  "id": 2432300593,
  "lat": 47.1542749,
  "lon": 15.3002503
},
{
  "type": "node",
  "id": 2432300598,
  "lat": 47.1543106,
  "lon": 15.3013119
},
{
  "type": "node",
  "id": 2432300601,
  "lat": 47.1543390,
  "lon": 15.3007624
},
{
  "type": "node",
  "id": 2432300610,
  "lat": 47.1544443,
  "lon": 15.3012811
},
{
  "type": "node",
  "id": 2432300611,
  "lat": 47.1544593,
  "lon": 15.2992712
},
{
  "type": "node",
  "id": 2432300620,
  "lat": 47.1545515,
  "lon": 15.2994595
},
{
  "type": "node",
  "id": 2432300640,
  "lat": 47.1547090,
  "lon": 15.3006606
},
{
  "type": "node",
  "id": 2432300652,
  "lat": 47.1548033,
  "lon": 15.2983714
},
{
  "type": "node",
  "id": 2432300656,
  "lat": 47.1548190,
  "lon": 15.2985795
},
{
  "type": "node",
  "id": 2432300665,
  "lat": 47.1548950,
  "lon": 15.2982943
},
{
  "type": "node",
  "id": 2432300669,
  "lat": 47.1549177,
  "lon": 15.2995423
},
{
  "type": "node",
  "id": 2432300674,
  "lat": 47.1549475,
  "lon": 15.2988069
},
{
  "type": "node",
  "id": 2432300675,
  "lat": 47.1549527,
  "lon": 15.3001365
},
{
  "type": "node",
  "id": 2432300678,
  "lat": 47.1549763,
  "lon": 15.2982943
},
{
  "type": "node",
  "id": 2432300682,
  "lat": 47.1550077,
  "lon": 15.2989687
},
{
  "type": "node",
  "id": 2432300688,
  "lat": 47.1551073,
  "lon": 15.2983598
},
{
  "type": "node",
  "id": 2432300690,
  "lat": 47.1551431,
  "lon": 15.2992975
},
{
  "type": "node",
  "id": 2432300691,
  "lat": 47.1551533,
  "lon": 15.2991469
},
{
  "type": "node",
  "id": 2432300697,
  "lat": 47.1552488,
  "lon": 15.2997858
},
{
  "type": "node",
  "id": 2432300699,
  "lat": 47.1552593,
  "lon": 15.3006105
},
{
  "type": "node",
  "id": 2432300709,
  "lat": 47.1553170,
  "lon": 15.3009458
},
{
  "type": "node",
  "id": 2432300713,
  "lat": 47.1553300,
  "lon": 15.2985293
},
{
  "type": "node",
  "id": 2432300714,
  "lat": 47.1553406,
  "lon": 15.3004525
},
{
  "type": "node",
  "id": 2432300721,
  "lat": 47.1554035,
  "lon": 15.3009882
},
{
  "type": "node",
  "id": 2432300726,
  "lat": 47.1554349,
  "lon": 15.3001673
},
{
  "type": "node",
  "id": 2432300739,
  "lat": 47.1555135,
  "lon": 15.2995507
},
{
  "type": "node",
  "id": 2432300743,
  "lat": 47.1555266,
  "lon": 15.3009921
},
{
  "type": "node",
  "id": 2432300744,
  "lat": 47.1555319,
  "lon": 15.2999168
},
{
  "type": "node",
  "id": 2432300751,
  "lat": 47.1555555,
  "lon": 15.3000710
},
{
  "type": "node",
  "id": 2432300753,
  "lat": 47.1555738,
  "lon": 15.3002714
},
{
  "type": "node",
  "id": 2432300754,
  "lat": 47.1555948,
  "lon": 15.2997742
},
{
  "type": "node",
  "id": 2432300761,
  "lat": 47.1556210,
  "lon": 15.3004949
},
{
  "type": "node",
  "id": 2432300765,
  "lat": 47.1556498,
  "lon": 15.2989341
},
{
  "type": "node",
  "id": 2822597249,
  "lat": 47.1545271,
  "lon": 15.3011572
},
{
  "type": "node",
  "id": 2822597250,
  "lat": 47.1548266,
  "lon": 15.2983462
},
{
  "type": "node",
  "id": 663837172,
  "lat": 47.1550278,
  "lon": 15.3083132
},
{
  "type": "node",
  "id": 663837173,
  "lat": 47.1554776,
  "lon": 15.3073751
},
{
  "type": "node",
  "id": 1211876013,
  "lat": 47.1562788,
  "lon": 15.3032042
},
{
  "type": "node",
  "id": 1211876024,
  "lat": 47.1545572,
  "lon": 15.3046363
},
{
  "type": "node",
  "id": 1211876075,
  "lat": 47.1544050,
  "lon": 15.3038555
},
{
  "type": "node",
  "id": 1211876141,
  "lat": 47.1538783,
  "lon": 15.3027266
},
{
  "type": "node",
  "id": 1211876169,
  "lat": 47.1542189,
  "lon": 15.3032428
},
{
  "type": "node",
  "id": 1211876212,
  "lat": 47.1552462,
  "lon": 15.3036590
},
{
  "type": "node",
  "id": 1211876258,
  "lat": 47.1533756,
  "lon": 15.3042862
},
{
  "type": "node",
  "id": 1211876397,
  "lat": 47.1541105,
  "lon": 15.3064950
},
{
  "type": "node",
  "id": 1311986032,
  "lat": 47.1537243,
  "lon": 15.3050908
},
{
  "type": "node",
  "id": 1481709286,
  "lat": 47.1559360,
  "lon": 15.3079049
},
{
  "type": "node",
  "id": 1481709287,
  "lat": 47.1559624,
  "lon": 15.3071123
},
{
  "type": "node",
  "id": 1481709288,
  "lat": 47.1561376,
  "lon": 15.3082051
},
{
  "type": "node",
  "id": 1481709289,
  "lat": 47.1562727,
  "lon": 15.3089957
},
{
  "type": "node",
  "id": 1953038821,
  "lat": 47.1540381,
  "lon": 15.3059901
},
{
  "type": "node",
  "id": 1953038844,
  "lat": 47.1544458,
  "lon": 15.3073587
},
{
  "type": "node",
  "id": 2432300527,
  "lat": 47.1533863,
  "lon": 15.3040969
},
{
  "type": "node",
  "id": 2432300528,
  "lat": 47.1534453,
  "lon": 15.3044637
},
{
  "type": "node",
  "id": 2432300529,
  "lat": 47.1534909,
  "lon": 15.3037695
},
{
  "type": "node",
  "id": 2432300531,
  "lat": 47.1535660,
  "lon": 15.3048700
},
{
  "type": "node",
  "id": 2432300533,
  "lat": 47.1536572,
  "lon": 15.3035526
},
{
  "type": "node",
  "id": 2432300541,
  "lat": 47.1537679,
  "lon": 15.3032968
},
{
  "type": "node",
  "id": 2432300545,
  "lat": 47.1538182,
  "lon": 15.3030202
},
{
  "type": "node",
  "id": 2432300557,
  "lat": 47.1539389,
  "lon": 15.3055602
},
{
  "type": "node",
  "id": 2432300580,
  "lat": 47.1541963,
  "lon": 15.3069959
},
{
  "type": "node",
  "id": 2432300590,
  "lat": 47.1542503,
  "lon": 15.3035395
},
{
  "type": "node",
  "id": 2432300597,
  "lat": 47.1543080,
  "lon": 15.3037361
},
{
  "type": "node",
  "id": 2432300616,
  "lat": 47.1545255,
  "lon": 15.3038979
},
{
  "type": "node",
  "id": 2432300626,
  "lat": 47.1545832,
  "lon": 15.3049886
},
{
  "type": "node",
  "id": 2432300628,
  "lat": 47.1545910,
  "lon": 15.3044568
},
{
  "type": "node",
  "id": 2432300633,
  "lat": 47.1546618,
  "lon": 15.3051620
},
{
  "type": "node",
  "id": 2432300645,
  "lat": 47.1547194,
  "lon": 15.3054357
},
{
  "type": "node",
  "id": 2432300646,
  "lat": 47.1547354,
  "lon": 15.3078360
},
{
  "type": "node",
  "id": 2432300649,
  "lat": 47.1547588,
  "lon": 15.3042525
},
{
  "type": "node",
  "id": 2432300653,
  "lat": 47.1548059,
  "lon": 15.3037862
},
{
  "type": "node",
  "id": 2432300654,
  "lat": 47.1548086,
  "lon": 15.3058056
},
{
  "type": "node",
  "id": 2432300666,
  "lat": 47.1548977,
  "lon": 15.3037014
},
{
  "type": "node",
  "id": 2432300676,
  "lat": 47.1549527,
  "lon": 15.3041369
},
{
  "type": "node",
  "id": 2432300677,
  "lat": 47.1549684,
  "lon": 15.3061795
},
{
  "type": "node",
  "id": 2432300685,
  "lat": 47.1550444,
  "lon": 15.3037823
},
{
  "type": "node",
  "id": 2432300692,
  "lat": 47.1551833,
  "lon": 15.3039943
},
{
  "type": "node",
  "id": 2432300705,
  "lat": 47.1553094,
  "lon": 15.3088890
},
{
  "type": "node",
  "id": 2432300707,
  "lat": 47.1553144,
  "lon": 15.3070427
},
{
  "type": "node",
  "id": 2432300710,
  "lat": 47.1553170,
  "lon": 15.3035241
},
{
  "type": "node",
  "id": 2432300711,
  "lat": 47.1553222,
  "lon": 15.3040251
},
{
  "type": "node",
  "id": 2432300720,
  "lat": 47.1553904,
  "lon": 15.3033468
},
{
  "type": "node",
  "id": 2432300735,
  "lat": 47.1554899,
  "lon": 15.3038979
},
{
  "type": "node",
  "id": 2432300740,
  "lat": 47.1555135,
  "lon": 15.3032967
},
{
  "type": "node",
  "id": 2432300752,
  "lat": 47.1555696,
  "lon": 15.3074765
},
{
  "type": "node",
  "id": 2432300756,
  "lat": 47.1556053,
  "lon": 15.3036860
},
{
  "type": "node",
  "id": 2432300762,
  "lat": 47.1556367,
  "lon": 15.3032505
},
{
  "type": "node",
  "id": 2432300772,
  "lat": 47.1556970,
  "lon": 15.3074245
},
{
  "type": "node",
  "id": 2432300788,
  "lat": 47.1558049,
  "lon": 15.3072215
},
{
  "type": "node",
  "id": 2432300791,
  "lat": 47.1558254,
  "lon": 15.3030655
},
{
  "type": "node",
  "id": 2432300794,
  "lat": 47.1558686,
  "lon": 15.3070784
},
{
  "type": "node",
  "id": 2432300796,
  "lat": 47.1558752,
  "lon": 15.3034894
},
{
  "type": "node",
  "id": 2432300818,
  "lat": 47.1559429,
  "lon": 15.3080802
},
{
  "type": "node",
  "id": 2432300822,
  "lat": 47.1559518,
  "lon": 15.3073724
},
{
  "type": "node",
  "id": 2432300828,
  "lat": 47.1559800,
  "lon": 15.3028766
},
{
  "type": "node",
  "id": 2432300834,
  "lat": 47.1559942,
  "lon": 15.3072189
},
{
  "type": "node",
  "id": 2432300836,
  "lat": 47.1559960,
  "lon": 15.3082259
},
{
  "type": "node",
  "id": 2432300840,
  "lat": 47.1560062,
  "lon": 15.3033391
},
{
  "type": "node",
  "id": 2432300853,
  "lat": 47.1561006,
  "lon": 15.3032312
},
{
  "type": "node",
  "id": 2432300855,
  "lat": 47.1561032,
  "lon": 15.3026647
},
{
  "type": "node",
  "id": 2432300872,
  "lat": 47.1562080,
  "lon": 15.3032119
},
{
  "type": "node",
  "id": 2432300893,
  "lat": 47.1562703,
  "lon": 15.3081192
},
{
  "type": "node",
  "id": 2432300906,
  "lat": 47.1563050,
  "lon": 15.3027340
},
{
  "type": "node",
  "id": 2432300918,
  "lat": 47.1563233,
  "lon": 15.3029845
},
{
  "type": "node",
  "id": 2432300922,
  "lat": 47.1563469,
  "lon": 15.3086999
},
{
  "type": "node",
  "id": 2432300934,
  "lat": 47.1564047,
  "lon": 15.3081218
},
{
  "type": "node",
  "id": 663837174,
  "lat": 47.1568011,
  "lon": 15.3077260
},
{
  "type": "node",
  "id": 663837175,
  "lat": 47.1569268,
  "lon": 15.3079023
},
{
  "type": "node",
  "id": 663837176,
  "lat": 47.1568741,
  "lon": 15.3080820
},
{
  "type": "node",
  "id": 1953038943,
  "lat": 47.1565197,
  "lon": 15.3080620
},
{
  "type": "node",
  "id": 1953038944,
  "lat": 47.1564640,
  "lon": 15.3085229
},
{
  "type": "node",
  "id": 1953038948,
  "lat": 47.1566708,
  "lon": 15.3076537
},
{
  "type": "node",
  "id": 2432300942,
  "lat": 47.1565480,
  "lon": 15.3078980
},
{
  "type": "node",
  "id": 1452168353,
  "lat": 47.0720677,
  "lon": 15.3626262
},
{
  "type": "node",
  "id": 1452168365,
  "lat": 47.0719200,
  "lon": 15.3626233
},
{
  "type": "node",
  "id": 1452168439,
  "lat": 47.0719541,
  "lon": 15.3626240
},
{
  "type": "node",
  "id": 1452168520,
  "lat": 47.0720658,
  "lon": 15.3628278
},
{
  "type": "node",
  "id": 1452168611,
  "lat": 47.0719182,
  "lon": 15.3628250
},
{
  "type": "node",
  "id": 4485376835,
  "lat": 47.0720471,
  "lon": 15.3628274
},
{
  "type": "node",
  "id": 4485376841,
  "lat": 47.0719320,
  "lon": 15.3628253
},
{
  "type": "node",
  "id": 1015141042,
  "lat": 47.0626351,
  "lon": 15.4374035
},
{
  "type": "node",
  "id": 1015141073,
  "lat": 47.0627122,
  "lon": 15.4375569
},
{
  "type": "node",
  "id": 1015141128,
  "lat": 47.0625288,
  "lon": 15.4375145
},
{
  "type": "node",
  "id": 1015141164,
  "lat": 47.0630669,
  "lon": 15.4360404
},
{
  "type": "node",
  "id": 1015141244,
  "lat": 47.0626111,
  "lon": 15.4376785
},
{
  "type": "node",
  "id": 1015141325,
  "lat": 47.0625127,
  "lon": 15.4375223
},
{
  "type": "node",
  "id": 1015141355,
  "lat": 47.0626938,
  "lon": 15.4374554
},
{
  "type": "node",
  "id": 1015141435,
  "lat": 47.0632440,
  "lon": 15.4360236
},
{
  "type": "node",
  "id": 1015141518,
  "lat": 47.0626695,
  "lon": 15.4376566
},
{
  "type": "node",
  "id": 1015141525,
  "lat": 47.0625412,
  "lon": 15.4376488
},
{
  "type": "node",
  "id": 1015141542,
  "lat": 47.0625632,
  "lon": 15.4374295
},
{
  "type": "node",
  "id": 1015141563,
  "lat": 47.0632614,
  "lon": 15.4364190
},
{
  "type": "node",
  "id": 1015141595,
  "lat": 47.0630307,
  "lon": 15.4364477
},
{
  "type": "node",
  "id": 1015141601,
  "lat": 47.0625573,
  "lon": 15.4376410
},
{
  "type": "node",
  "id": 1930182851,
  "lat": 47.0625266,
  "lon": 15.4375840
},
{
  "type": "node",
  "id": 278907988,
  "lat": 47.0686908,
  "lon": 15.4371306
},
{
  "type": "node",
  "id": 327378921,
  "lat": 47.0685458,
  "lon": 15.4372173
},
{
  "type": "node",
  "id": 327378925,
  "lat": 47.0687198,
  "lon": 15.4372340
},
{
  "type": "node",
  "id": 327378929,
  "lat": 47.0688084,
  "lon": 15.4371808
},
{
  "type": "node",
  "id": 327378932,
  "lat": 47.0688478,
  "lon": 15.4373215
},
{
  "type": "node",
  "id": 327378935,
  "lat": 47.0687701,
  "lon": 15.4373718
},
{
  "type": "node",
  "id": 327378944,
  "lat": 47.0687987,
  "lon": 15.4374993
},
{
  "type": "node",
  "id": 327378950,
  "lat": 47.0688227,
  "lon": 15.4375153
},
{
  "type": "node",
  "id": 327378953,
  "lat": 47.0688087,
  "lon": 15.4375623
},
{
  "type": "node",
  "id": 327378956,
  "lat": 47.0687807,
  "lon": 15.4375473
},
{
  "type": "node",
  "id": 327378959,
  "lat": 47.0687167,
  "lon": 15.4375833
},
{
  "type": "node",
  "id": 327378962,
  "lat": 47.0687117,
  "lon": 15.4375643
},
{
  "type": "node",
  "id": 327378964,
  "lat": 47.0685382,
  "lon": 15.4376714
},
{
  "type": "node",
  "id": 327378965,
  "lat": 47.0685518,
  "lon": 15.4377268
},
{
  "type": "node",
  "id": 327378968,
  "lat": 47.0684477,
  "lon": 15.4377866
},
{
  "type": "node",
  "id": 327378971,
  "lat": 47.0684320,
  "lon": 15.4377279
},
{
  "type": "node",
  "id": 327378973,
  "lat": 47.0681694,
  "lon": 15.4378695
},
{
  "type": "node",
  "id": 327378976,
  "lat": 47.0681037,
  "lon": 15.4376092
},
{
  "type": "node",
  "id": 327378978,
  "lat": 47.0680960,
  "lon": 15.4375982
},
{
  "type": "node",
  "id": 327378980,
  "lat": 47.0680656,
  "lon": 15.4374878
},
{
  "type": "node",
  "id": 327378982,
  "lat": 47.0682162,
  "lon": 15.4374070
},
{
  "type": "node",
  "id": 327378985,
  "lat": 47.0682472,
  "lon": 15.4375172
},
{
  "type": "node",
  "id": 327378987,
  "lat": 47.0682432,
  "lon": 15.4375232
},
{
  "type": "node",
  "id": 327378996,
  "lat": 47.0682682,
  "lon": 15.4375522
},
{
  "type": "node",
  "id": 327378998,
  "lat": 47.0682682,
  "lon": 15.4375582
},
{
  "type": "node",
  "id": 327379002,
  "lat": 47.0682892,
  "lon": 15.4375672
},
{
  "type": "node",
  "id": 327379007,
  "lat": 47.0682902,
  "lon": 15.4375592
},
{
  "type": "node",
  "id": 327379010,
  "lat": 47.0683134,
  "lon": 15.4375642
},
{
  "type": "node",
  "id": 327379021,
  "lat": 47.0683362,
  "lon": 15.4375592
},
{
  "type": "node",
  "id": 327379024,
  "lat": 47.0683572,
  "lon": 15.4375542
},
{
  "type": "node",
  "id": 327379027,
  "lat": 47.0683602,
  "lon": 15.4375592
},
{
  "type": "node",
  "id": 327379031,
  "lat": 47.0683792,
  "lon": 15.4375522
},
{
  "type": "node",
  "id": 327379033,
  "lat": 47.0683792,
  "lon": 15.4375442
},
{
  "type": "node",
  "id": 327379037,
  "lat": 47.0683988,
  "lon": 15.4375104
},
{
  "type": "node",
  "id": 327379039,
  "lat": 47.0683958,
  "lon": 15.4375064
},
{
  "type": "node",
  "id": 327379040,
  "lat": 47.0684108,
  "lon": 15.4374884
},
{
  "type": "node",
  "id": 327379041,
  "lat": 47.0684148,
  "lon": 15.4374964
},
{
  "type": "node",
  "id": 327379042,
  "lat": 47.0684238,
  "lon": 15.4374854
},
{
  "type": "node",
  "id": 327379043,
  "lat": 47.0684423,
  "lon": 15.4374753
},
{
  "type": "node",
  "id": 327379044,
  "lat": 47.0684433,
  "lon": 15.4374663
},
{
  "type": "node",
  "id": 327379045,
  "lat": 47.0684613,
  "lon": 15.4374703
},
{
  "type": "node",
  "id": 327379046,
  "lat": 47.0684603,
  "lon": 15.4374763
},
{
  "type": "node",
  "id": 327379047,
  "lat": 47.0684753,
  "lon": 15.4374843
},
{
  "type": "node",
  "id": 327379048,
  "lat": 47.0684903,
  "lon": 15.4374783
},
{
  "type": "node",
  "id": 327379049,
  "lat": 47.0684913,
  "lon": 15.4374833
},
{
  "type": "node",
  "id": 327379050,
  "lat": 47.0685123,
  "lon": 15.4374713
},
{
  "type": "node",
  "id": 327379051,
  "lat": 47.0685113,
  "lon": 15.4374633
},
{
  "type": "node",
  "id": 327379053,
  "lat": 47.0685313,
  "lon": 15.4374433
},
{
  "type": "node",
  "id": 327379055,
  "lat": 47.0685483,
  "lon": 15.4374303
},
{
  "type": "node",
  "id": 327379056,
  "lat": 47.0685473,
  "lon": 15.4374233
},
{
  "type": "node",
  "id": 327379057,
  "lat": 47.0685623,
  "lon": 15.4373993
},
{
  "type": "node",
  "id": 327379058,
  "lat": 47.0685663,
  "lon": 15.4373993
},
{
  "type": "node",
  "id": 327379060,
  "lat": 47.0685793,
  "lon": 15.4373773
},
{
  "type": "node",
  "id": 327379062,
  "lat": 47.0685793,
  "lon": 15.4373413
},
{
  "type": "node",
  "id": 327379063,
  "lat": 47.0685843,
  "lon": 15.4373403
},
{
  "type": "node",
  "id": 327379064,
  "lat": 47.0685863,
  "lon": 15.4373253
},
{
  "type": "node",
  "id": 327379065,
  "lat": 47.0685803,
  "lon": 15.4373243
},
{
  "type": "node",
  "id": 327379066,
  "lat": 47.0685753,
  "lon": 15.4373273
},
{
  "type": "node",
  "id": 327381017,
  "lat": 47.0709806,
  "lon": 15.4337998
},
{
  "type": "node",
  "id": 330268150,
  "lat": 47.0710516,
  "lon": 15.4337932
},
{
  "type": "node",
  "id": 1000234747,
  "lat": 47.0711082,
  "lon": 15.4341441
},
{
  "type": "node",
  "id": 1000234801,
  "lat": 47.0711387,
  "lon": 15.4340619
},
{
  "type": "node",
  "id": 1000234857,
  "lat": 47.0712283,
  "lon": 15.4340483
},
{
  "type": "node",
  "id": 1000234874,
  "lat": 47.0711132,
  "lon": 15.4341812
},
{
  "type": "node",
  "id": 1000234890,
  "lat": 47.0710798,
  "lon": 15.4343001
},
{
  "type": "node",
  "id": 1000234930,
  "lat": 47.0711245,
  "lon": 15.4340709
},
{
  "type": "node",
  "id": 1000234967,
  "lat": 47.0710788,
  "lon": 15.4343394
},
{
  "type": "node",
  "id": 1000234979,
  "lat": 47.0712099,
  "lon": 15.4340597
},
{
  "type": "node",
  "id": 1000235000,
  "lat": 47.0711238,
  "lon": 15.4342006
},
{
  "type": "node",
  "id": 1000235068,
  "lat": 47.0711149,
  "lon": 15.4340869
},
{
  "type": "node",
  "id": 1000235125,
  "lat": 47.0710894,
  "lon": 15.4342348
},
{
  "type": "node",
  "id": 1000235130,
  "lat": 47.0711883,
  "lon": 15.4340543
},
{
  "type": "node",
  "id": 1000235147,
  "lat": 47.0711408,
  "lon": 15.4342137
},
{
  "type": "node",
  "id": 1000235213,
  "lat": 47.0711089,
  "lon": 15.4341085
},
{
  "type": "node",
  "id": 1000235214,
  "lat": 47.0709810,
  "lon": 15.4343391
},
{
  "type": "node",
  "id": 1000235247,
  "lat": 47.0710925,
  "lon": 15.4340157
},
{
  "type": "node",
  "id": 1000235265,
  "lat": 47.0711649,
  "lon": 15.4340574
},
{
  "type": "node",
  "id": 1000235276,
  "lat": 47.0711615,
  "lon": 15.4342354
},
{
  "type": "node",
  "id": 1000235321,
  "lat": 47.0712424,
  "lon": 15.4340247
},
{
  "type": "node",
  "id": 1363862180,
  "lat": 47.0710910,
  "lon": 15.4337926
},
{
  "type": "node",
  "id": 3984110609,
  "lat": 47.0683905,
  "lon": 15.4375368
},
{
  "type": "node",
  "id": 4298815425,
  "lat": 47.0680753,
  "lon": 15.4375230
},
{
  "type": "node",
  "id": 6450145116,
  "lat": 47.0709827,
  "lon": 15.4340572
},
{
  "type": "node",
  "id": 6450145117,
  "lat": 47.0709816,
  "lon": 15.4341020
},
{
  "type": "node",
  "id": 1000234755,
  "lat": 47.0714562,
  "lon": 15.4337108
},
{
  "type": "node",
  "id": 1000234803,
  "lat": 47.0715322,
  "lon": 15.4336933
},
{
  "type": "node",
  "id": 1000234934,
  "lat": 47.0715117,
  "lon": 15.4336870
},
{
  "type": "node",
  "id": 1000235076,
  "lat": 47.0714931,
  "lon": 15.4336863
},
{
  "type": "node",
  "id": 1000235137,
  "lat": 47.0715699,
  "lon": 15.4337208
},
{
  "type": "node",
  "id": 1000235219,
  "lat": 47.0714752,
  "lon": 15.4336924
},
{
  "type": "node",
  "id": 1000235267,
  "lat": 47.0715516,
  "lon": 15.4337050
},
{
  "type": "node",
  "id": 327380481,
  "lat": 47.0751647,
  "lon": 15.4394825
},
{
  "type": "node",
  "id": 327380486,
  "lat": 47.0751543,
  "lon": 15.4396622
},
{
  "type": "node",
  "id": 327380489,
  "lat": 47.0752025,
  "lon": 15.4396690
},
{
  "type": "node",
  "id": 327380494,
  "lat": 47.0751956,
  "lon": 15.4397887
},
{
  "type": "node",
  "id": 327380495,
  "lat": 47.0751465,
  "lon": 15.4397826
},
{
  "type": "node",
  "id": 327380505,
  "lat": 47.0751476,
  "lon": 15.4400020
},
{
  "type": "node",
  "id": 327380509,
  "lat": 47.0750369,
  "lon": 15.4399882
},
{
  "type": "node",
  "id": 327380512,
  "lat": 47.0750437,
  "lon": 15.4398694
},
{
  "type": "node",
  "id": 327380516,
  "lat": 47.0748566,
  "lon": 15.4398244
},
{
  "type": "node",
  "id": 982668616,
  "lat": 47.0750236,
  "lon": 15.4397700
},
{
  "type": "node",
  "id": 982668629,
  "lat": 47.0750257,
  "lon": 15.4397346
},
{
  "type": "node",
  "id": 982668637,
  "lat": 47.0750803,
  "lon": 15.4396188
},
{
  "type": "node",
  "id": 982668651,
  "lat": 47.0749702,
  "lon": 15.4397615
},
{
  "type": "node",
  "id": 982668656,
  "lat": 47.0748733,
  "lon": 15.4394026
},
{
  "type": "node",
  "id": 982668671,
  "lat": 47.0750521,
  "lon": 15.4397735
},
{
  "type": "node",
  "id": 982668687,
  "lat": 47.0749721,
  "lon": 15.4397279
},
{
  "type": "node",
  "id": 982668698,
  "lat": 47.0748878,
  "lon": 15.4397513
},
{
  "type": "node",
  "id": 982668700,
  "lat": 47.0748988,
  "lon": 15.4395617
},
{
  "type": "node",
  "id": 1000234760,
  "lat": 47.0713846,
  "lon": 15.4342694
},
{
  "type": "node",
  "id": 1000234764,
  "lat": 47.0713194,
  "lon": 15.4339152
},
{
  "type": "node",
  "id": 1000234776,
  "lat": 47.0712942,
  "lon": 15.4339343
},
{
  "type": "node",
  "id": 1000234790,
  "lat": 47.0716248,
  "lon": 15.4340866
},
{
  "type": "node",
  "id": 1000234819,
  "lat": 47.0714015,
  "lon": 15.4338891
},
{
  "type": "node",
  "id": 1000234846,
  "lat": 47.0715834,
  "lon": 15.4342572
},
{
  "type": "node",
  "id": 1000234861,
  "lat": 47.0716004,
  "lon": 15.4337889
},
{
  "type": "node",
  "id": 1000234891,
  "lat": 47.0713734,
  "lon": 15.4343036
},
{
  "type": "node",
  "id": 1000234897,
  "lat": 47.0713007,
  "lon": 15.4339261
},
{
  "type": "node",
  "id": 1000234904,
  "lat": 47.0713864,
  "lon": 15.4342815
},
{
  "type": "node",
  "id": 1000234918,
  "lat": 47.0712827,
  "lon": 15.4339516
},
{
  "type": "node",
  "id": 1000234925,
  "lat": 47.0716250,
  "lon": 15.4340264
},
{
  "type": "node",
  "id": 1000234955,
  "lat": 47.0713882,
  "lon": 15.4339022
},
{
  "type": "node",
  "id": 1000234971,
  "lat": 47.0716006,
  "lon": 15.4342360
},
{
  "type": "node",
  "id": 1000234985,
  "lat": 47.0715898,
  "lon": 15.4337585
},
{
  "type": "node",
  "id": 1000235007,
  "lat": 47.0714249,
  "lon": 15.4337847
},
{
  "type": "node",
  "id": 1000235032,
  "lat": 47.0714715,
  "lon": 15.4342520
},
{
  "type": "node",
  "id": 1000235041,
  "lat": 47.0713803,
  "lon": 15.4342558
},
{
  "type": "node",
  "id": 1000235044,
  "lat": 47.0712740,
  "lon": 15.4339724
},
{
  "type": "node",
  "id": 1000235058,
  "lat": 47.0716228,
  "lon": 15.4339457
},
{
  "type": "node",
  "id": 1000235092,
  "lat": 47.0713694,
  "lon": 15.4339070
},
{
  "type": "node",
  "id": 1000235121,
  "lat": 47.0716133,
  "lon": 15.4342064
},
{
  "type": "node",
  "id": 1000235159,
  "lat": 47.0714148,
  "lon": 15.4338295
},
{
  "type": "node",
  "id": 1000235180,
  "lat": 47.0715311,
  "lon": 15.4342565
},
{
  "type": "node",
  "id": 1000235199,
  "lat": 47.0712559,
  "lon": 15.4339956
},
{
  "type": "node",
  "id": 1000235203,
  "lat": 47.0716173,
  "lon": 15.4338894
},
{
  "type": "node",
  "id": 1000235227,
  "lat": 47.0713807,
  "lon": 15.4342968
},
{
  "type": "node",
  "id": 1000235231,
  "lat": 47.0713470,
  "lon": 15.4339074
},
{
  "type": "node",
  "id": 1000235258,
  "lat": 47.0716215,
  "lon": 15.4341684
},
{
  "type": "node",
  "id": 1000235284,
  "lat": 47.0713627,
  "lon": 15.4343136
},
{
  "type": "node",
  "id": 1000235291,
  "lat": 47.0714085,
  "lon": 15.4338675
},
{
  "type": "node",
  "id": 1000235310,
  "lat": 47.0715646,
  "lon": 15.4342633
},
{
  "type": "node",
  "id": 1000235331,
  "lat": 47.0716108,
  "lon": 15.4338345
},
{
  "type": "node",
  "id": 1494375938,
  "lat": 47.0712507,
  "lon": 15.4340068
},
{
  "type": "node",
  "id": 1533380192,
  "lat": 47.0716072,
  "lon": 15.4342185
},
{
  "type": "node",
  "id": 1610911631,
  "lat": 47.0748711,
  "lon": 15.4394404
},
{
  "type": "node",
  "id": 1610911643,
  "lat": 47.0748550,
  "lon": 15.4398517
},
{
  "type": "node",
  "id": 1610911645,
  "lat": 47.0748916,
  "lon": 15.4394429
},
{
  "type": "node",
  "id": 1610911646,
  "lat": 47.0748866,
  "lon": 15.4395301
},
{
  "type": "node",
  "id": 1610911647,
  "lat": 47.0749005,
  "lon": 15.4395318
},
{
  "type": "node",
  "id": 1610911648,
  "lat": 47.0748834,
  "lon": 15.4398278
},
{
  "type": "node",
  "id": 1610911649,
  "lat": 47.0750587,
  "lon": 15.4395816
},
{
  "type": "node",
  "id": 1610911650,
  "lat": 47.0750851,
  "lon": 15.4394289
},
{
  "type": "node",
  "id": 1610911651,
  "lat": 47.0750826,
  "lon": 15.4394723
},
{
  "type": "node",
  "id": 1610911652,
  "lat": 47.0750740,
  "lon": 15.4397387
},
{
  "type": "node",
  "id": 1610911653,
  "lat": 47.0751395,
  "lon": 15.4398674
},
{
  "type": "node",
  "id": 1610911654,
  "lat": 47.0751553,
  "lon": 15.4398693
},
{
  "type": "node",
  "id": 2123153635,
  "lat": 47.0751984,
  "lon": 15.4397406
},
{
  "type": "node",
  "id": 25704404,
  "lat": 47.0717417,
  "lon": 15.4447832
},
{
  "type": "node",
  "id": 327379393,
  "lat": 47.0716471,
  "lon": 15.4447578
},
{
  "type": "node",
  "id": 327379396,
  "lat": 47.0715861,
  "lon": 15.4446488
},
{
  "type": "node",
  "id": 327379399,
  "lat": 47.0716301,
  "lon": 15.4445988
},
{
  "type": "node",
  "id": 327379404,
  "lat": 47.0716201,
  "lon": 15.4445798
},
{
  "type": "node",
  "id": 327379407,
  "lat": 47.0717311,
  "lon": 15.4444578
},
{
  "type": "node",
  "id": 327379411,
  "lat": 47.0717281,
  "lon": 15.4444528
},
{
  "type": "node",
  "id": 327379415,
  "lat": 47.0717391,
  "lon": 15.4444418
},
{
  "type": "node",
  "id": 327379419,
  "lat": 47.0717411,
  "lon": 15.4444458
},
{
  "type": "node",
  "id": 327379422,
  "lat": 47.0718031,
  "lon": 15.4443768
},
{
  "type": "node",
  "id": 327379426,
  "lat": 47.0718131,
  "lon": 15.4443938
},
{
  "type": "node",
  "id": 327379430,
  "lat": 47.0718671,
  "lon": 15.4443908
},
{
  "type": "node",
  "id": 327379433,
  "lat": 47.0718841,
  "lon": 15.4444118
},
{
  "type": "node",
  "id": 327379436,
  "lat": 47.0718921,
  "lon": 15.4444418
},
{
  "type": "node",
  "id": 327379439,
  "lat": 47.0718931,
  "lon": 15.4444568
},
{
  "type": "node",
  "id": 327379443,
  "lat": 47.0718901,
  "lon": 15.4444838
},
{
  "type": "node",
  "id": 327379447,
  "lat": 47.0718811,
  "lon": 15.4445048
},
{
  "type": "node",
  "id": 327379449,
  "lat": 47.0718751,
  "lon": 15.4445128
},
{
  "type": "node",
  "id": 327379452,
  "lat": 47.0718781,
  "lon": 15.4445208
},
{
  "type": "node",
  "id": 327379454,
  "lat": 47.0718671,
  "lon": 15.4445348
},
{
  "type": "node",
  "id": 327379458,
  "lat": 47.0718741,
  "lon": 15.4445478
},
{
  "type": "node",
  "id": 327379460,
  "lat": 47.0718521,
  "lon": 15.4445708
},
{
  "type": "node",
  "id": 327379462,
  "lat": 47.0718761,
  "lon": 15.4446208
},
{
  "type": "node",
  "id": 1048265060,
  "lat": 47.0716695,
  "lon": 15.4447303
},
{
  "type": "node",
  "id": 1048265065,
  "lat": 47.0717115,
  "lon": 15.4447331
},
{
  "type": "node",
  "id": 1048265067,
  "lat": 47.0716876,
  "lon": 15.4447572
},
{
  "type": "node",
  "id": 4225723645,
  "lat": 47.0716249,
  "lon": 15.4447181
},
{
  "type": "node",
  "id": 4225723652,
  "lat": 47.0716966,
  "lon": 15.4447482
},
{
  "type": "node",
  "id": 4225723667,
  "lat": 47.0717692,
  "lon": 15.4447500
},
{
  "type": "node",
  "id": 4225723683,
  "lat": 47.0718555,
  "lon": 15.4446457
},
{
  "type": "node",
  "id": 1953038900,
  "lat": 47.1554744,
  "lon": 15.3093166
},
{
  "type": "node",
  "id": 1953038933,
  "lat": 47.1560684,
  "lon": 15.3096897
},
{
  "type": "node",
  "id": 2432300775,
  "lat": 47.1557037,
  "lon": 15.3094255
},
{
  "type": "node",
  "id": 2432300868,
  "lat": 47.1561784,
  "lon": 15.3098948
},
{
  "type": "node",
  "id": 2432300910,
  "lat": 47.1563102,
  "lon": 15.3092279
},
{
  "type": "node",
  "id": 2432300932,
  "lat": 47.1563810,
  "lon": 15.3093590
},
{
  "type": "node",
  "id": 2432300936,
  "lat": 47.1564362,
  "lon": 15.3103620
},
{
  "type": "node",
  "id": 359885154,
  "lat": 47.1579677,
  "lon": 15.3147506
},
{
  "type": "node",
  "id": 663837177,
  "lat": 47.1564596,
  "lon": 15.3094784
},
{
  "type": "node",
  "id": 663837181,
  "lat": 47.1584225,
  "lon": 15.3152242
},
{
  "type": "node",
  "id": 1211876071,
  "lat": 47.1585050,
  "lon": 15.3156832
},
{
  "type": "node",
  "id": 1481709294,
  "lat": 47.1569025,
  "lon": 15.3102839
},
{
  "type": "node",
  "id": 1953038946,
  "lat": 47.1565330,
  "lon": 15.3097521
},
{
  "type": "node",
  "id": 1953038947,
  "lat": 47.1566058,
  "lon": 15.3107346
},
{
  "type": "node",
  "id": 1953038954,
  "lat": 47.1568258,
  "lon": 15.3114600
},
{
  "type": "node",
  "id": 1953038963,
  "lat": 47.1574554,
  "lon": 15.3133131
},
{
  "type": "node",
  "id": 1953038965,
  "lat": 47.1573850,
  "lon": 15.3117311
},
{
  "type": "node",
  "id": 1953038969,
  "lat": 47.1576546,
  "lon": 15.3141687
},
{
  "type": "node",
  "id": 1953038970,
  "lat": 47.1576617,
  "lon": 15.3154132
},
{
  "type": "node",
  "id": 1953038971,
  "lat": 47.1576783,
  "lon": 15.3152996
},
{
  "type": "node",
  "id": 1953038972,
  "lat": 47.1576101,
  "lon": 15.3129161
},
{
  "type": "node",
  "id": 1953038974,
  "lat": 47.1578774,
  "lon": 15.3143537
},
{
  "type": "node",
  "id": 1953038979,
  "lat": 47.1578915,
  "lon": 15.3150699
},
{
  "type": "node",
  "id": 1953038984,
  "lat": 47.1578354,
  "lon": 15.3131859
},
{
  "type": "node",
  "id": 1953038988,
  "lat": 47.1580098,
  "lon": 15.3151670
},
{
  "type": "node",
  "id": 1953038990,
  "lat": 47.1580739,
  "lon": 15.3123997
},
{
  "type": "node",
  "id": 1953038991,
  "lat": 47.1580084,
  "lon": 15.3143806
},
{
  "type": "node",
  "id": 1953038992,
  "lat": 47.1580933,
  "lon": 15.3156052
},
{
  "type": "node",
  "id": 1953038993,
  "lat": 47.1580660,
  "lon": 15.3140993
},
{
  "type": "node",
  "id": 1953038996,
  "lat": 47.1581497,
  "lon": 15.3152238
},
{
  "type": "node",
  "id": 1953038999,
  "lat": 47.1581821,
  "lon": 15.3153934
},
{
  "type": "node",
  "id": 1953039003,
  "lat": 47.1582139,
  "lon": 15.3148602
},
{
  "type": "node",
  "id": 1953039004,
  "lat": 47.1582142,
  "lon": 15.3150828
},
{
  "type": "node",
  "id": 1953039006,
  "lat": 47.1582345,
  "lon": 15.3151888
},
{
  "type": "node",
  "id": 1953039008,
  "lat": 47.1582855,
  "lon": 15.3153508
},
{
  "type": "node",
  "id": 1953039009,
  "lat": 47.1583165,
  "lon": 15.3155133
},
{
  "type": "node",
  "id": 1953039010,
  "lat": 47.1583019,
  "lon": 15.3122957
},
{
  "type": "node",
  "id": 1953039011,
  "lat": 47.1583468,
  "lon": 15.3125070
},
{
  "type": "node",
  "id": 1953039016,
  "lat": 47.1585542,
  "lon": 15.3155427
},
{
  "type": "node",
  "id": 2432300948,
  "lat": 47.1566614,
  "lon": 15.3099602
},
{
  "type": "node",
  "id": 2432300972,
  "lat": 47.1568501,
  "lon": 15.3101529
},
{
  "type": "node",
  "id": 2432300987,
  "lat": 47.1570073,
  "lon": 15.3105113
},
{
  "type": "node",
  "id": 2432300995,
  "lat": 47.1570781,
  "lon": 15.3108003
},
{
  "type": "node",
  "id": 2432300997,
  "lat": 47.1571252,
  "lon": 15.3110585
},
{
  "type": "node",
  "id": 2432300999,
  "lat": 47.1572303,
  "lon": 15.3128134
},
{
  "type": "node",
  "id": 2432301001,
  "lat": 47.1572353,
  "lon": 15.3113630
},
{
  "type": "node",
  "id": 2432301007,
  "lat": 47.1573480,
  "lon": 15.3131358
},
{
  "type": "node",
  "id": 2432301018,
  "lat": 47.1574712,
  "lon": 15.3122610
},
{
  "type": "node",
  "id": 2432301023,
  "lat": 47.1574921,
  "lon": 15.3137023
},
{
  "type": "node",
  "id": 2432301025,
  "lat": 47.1575157,
  "lon": 15.3135559
},
{
  "type": "node",
  "id": 2432301032,
  "lat": 47.1575666,
  "lon": 15.3125650
},
{
  "type": "node",
  "id": 2432301035,
  "lat": 47.1575786,
  "lon": 15.3140723
},
{
  "type": "node",
  "id": 2432301048,
  "lat": 47.1576494,
  "lon": 15.3130703
},
{
  "type": "node",
  "id": 2432301057,
  "lat": 47.1577175,
  "lon": 15.3130934
},
{
  "type": "node",
  "id": 2432301061,
  "lat": 47.1577830,
  "lon": 15.3130587
},
{
  "type": "node",
  "id": 2432301062,
  "lat": 47.1577935,
  "lon": 15.3142188
},
{
  "type": "node",
  "id": 2432301065,
  "lat": 47.1578066,
  "lon": 15.3133015
},
{
  "type": "node",
  "id": 2432301077,
  "lat": 47.1578878,
  "lon": 15.3135019
},
{
  "type": "node",
  "id": 2432301080,
  "lat": 47.1579062,
  "lon": 15.3128699
},
{
  "type": "node",
  "id": 2432301093,
  "lat": 47.1579717,
  "lon": 15.3135983
},
{
  "type": "node",
  "id": 2432301096,
  "lat": 47.1579743,
  "lon": 15.3130125
},
{
  "type": "node",
  "id": 2432301100,
  "lat": 47.1579743,
  "lon": 15.3146080
},
{
  "type": "node",
  "id": 2432301109,
  "lat": 47.1580058,
  "lon": 15.3141725
},
{
  "type": "node",
  "id": 2432301113,
  "lat": 47.1580189,
  "lon": 15.3126040
},
{
  "type": "node",
  "id": 2432301119,
  "lat": 47.1580556,
  "lon": 15.3139182
},
{
  "type": "node",
  "id": 2432301122,
  "lat": 47.1580608,
  "lon": 15.3145849
},
{
  "type": "node",
  "id": 2432301138,
  "lat": 47.1581158,
  "lon": 15.3128930
},
{
  "type": "node",
  "id": 2432301143,
  "lat": 47.1581263,
  "lon": 15.3123380
},
{
  "type": "node",
  "id": 2432301166,
  "lat": 47.1582364,
  "lon": 15.3126232
},
{
  "type": "node",
  "id": 2432301179,
  "lat": 47.1583648,
  "lon": 15.3123766
},
{
  "type": "node",
  "id": 359885150,
  "lat": 47.1576408,
  "lon": 15.3158456
},
{
  "type": "node",
  "id": 1459018537,
  "lat": 47.1052964,
  "lon": 15.4889326
},
{
  "type": "node",
  "id": 1903958756,
  "lat": 47.1052853,
  "lon": 15.4889696
},
{
  "type": "node",
  "id": 1903958760,
  "lat": 47.1053173,
  "lon": 15.4888645
},
{
  "type": "node",
  "id": 1903958764,
  "lat": 47.1053070,
  "lon": 15.4888936
},
{
  "type": "node",
  "id": 1903958769,
  "lat": 47.1053420,
  "lon": 15.4892089
},
{
  "type": "node",
  "id": 1903958793,
  "lat": 47.1053531,
  "lon": 15.4887439
},
{
  "type": "node",
  "id": 1903958825,
  "lat": 47.1056535,
  "lon": 15.4885418
},
{
  "type": "node",
  "id": 1903958837,
  "lat": 47.1058380,
  "lon": 15.4893611
},
{
  "type": "node",
  "id": 1903958840,
  "lat": 47.1058701,
  "lon": 15.4893049
},
{
  "type": "node",
  "id": 1903958846,
  "lat": 47.1058960,
  "lon": 15.4886216
},
{
  "type": "node",
  "id": 1903958848,
  "lat": 47.1058972,
  "lon": 15.4892862
},
{
  "type": "node",
  "id": 1903958874,
  "lat": 47.1059404,
  "lon": 15.4892560
},
{
  "type": "node",
  "id": 1833007975,
  "lat": 47.2834387,
  "lon": 15.6725889
},
{
  "type": "node",
  "id": 1833007976,
  "lat": 47.2834710,
  "lon": 15.6724938
},
{
  "type": "node",
  "id": 1833007977,
  "lat": 47.2834901,
  "lon": 15.6725078
},
{
  "type": "node",
  "id": 1833007978,
  "lat": 47.2835152,
  "lon": 15.6724339
},
{
  "type": "node",
  "id": 1833007979,
  "lat": 47.2835441,
  "lon": 15.6725374
},
{
  "type": "node",
  "id": 1833007980,
  "lat": 47.2835637,
  "lon": 15.6726810
},
{
  "type": "node",
  "id": 1833007981,
  "lat": 47.2835664,
  "lon": 15.6724717
},
{
  "type": "node",
  "id": 1833007982,
  "lat": 47.2835987,
  "lon": 15.6725777
},
{
  "type": "node",
  "id": 1679333410,
  "lat": 47.2152941,
  "lon": 15.8128512
},
{
  "type": "node",
  "id": 1679333437,
  "lat": 47.2153376,
  "lon": 15.8132397
},
{
  "type": "node",
  "id": 1679333440,
  "lat": 47.2150875,
  "lon": 15.8127126
},
{
  "type": "node",
  "id": 1679333453,
  "lat": 47.2150960,
  "lon": 15.8130524
},
{
  "type": "node",
  "id": 1679333457,
  "lat": 47.2153147,
  "lon": 15.8133521
},
{
  "type": "node",
  "id": 1679333469,
  "lat": 47.2151968,
  "lon": 15.8127717
},
{
  "type": "node",
  "id": 1679333480,
  "lat": 47.2152018,
  "lon": 15.8131542
},
{
  "type": "node",
  "id": 1679333482,
  "lat": 47.2151243,
  "lon": 15.8129673
},
{
  "type": "node",
  "id": 1679333485,
  "lat": 47.2151578,
  "lon": 15.8128713
},
{
  "type": "node",
  "id": 1679333486,
  "lat": 47.2151932,
  "lon": 15.8131295
},
{
  "type": "node",
  "id": 1679333488,
  "lat": 47.2150338,
  "lon": 15.8127607
},
{
  "type": "node",
  "id": 1679333495,
  "lat": 47.2152477,
  "lon": 15.8130934
},
{
  "type": "node",
  "id": 1679333501,
  "lat": 47.2153039,
  "lon": 15.8134176
},
{
  "type": "node",
  "id": 4012563839,
  "lat": 47.2152074,
  "lon": 15.8130903
},
{
  "type": "node",
  "id": 4012563843,
  "lat": 47.2152181,
  "lon": 15.8130610
},
{
  "type": "node",
  "id": 4012563845,
  "lat": 47.2152310,
  "lon": 15.8131156
},
{
  "type": "node",
  "id": 4012563852,
  "lat": 47.2153354,
  "lon": 15.8132491
},
{
  "type": "node",
  "id": 857134584,
  "lat": 47.2160198,
  "lon": 15.8127150
},
{
  "type": "node",
  "id": 857134596,
  "lat": 47.2161834,
  "lon": 15.8129740
},
{
  "type": "node",
  "id": 857134615,
  "lat": 47.2164908,
  "lon": 15.8129377
},
{
  "type": "node",
  "id": 857134626,
  "lat": 47.2165272,
  "lon": 15.8127524
},
{
  "type": "node",
  "id": 1215873007,
  "lat": 47.2163084,
  "lon": 15.8129198
},
{
  "type": "node",
  "id": 1215873011,
  "lat": 47.2161867,
  "lon": 15.8129137
},
{
  "type": "node",
  "id": 1215873014,
  "lat": 47.2163061,
  "lon": 15.8129803
},
{
  "type": "node",
  "id": 1215873023,
  "lat": 47.2160023,
  "lon": 15.8128943
},
{
  "type": "node",
  "id": 1679333403,
  "lat": 47.2156070,
  "lon": 15.8133767
},
{
  "type": "node",
  "id": 1679333430,
  "lat": 47.2158431,
  "lon": 15.8129357
},
{
  "type": "node",
  "id": 1679333432,
  "lat": 47.2156730,
  "lon": 15.8136026
},
{
  "type": "node",
  "id": 1679333436,
  "lat": 47.2157344,
  "lon": 15.8128761
},
{
  "type": "node",
  "id": 2431300511,
  "lat": 47.2159853,
  "lon": 15.8130957
},
{
  "type": "node",
  "id": 2431300512,
  "lat": 47.2159923,
  "lon": 15.8129519
},
{
  "type": "node",
  "id": 2431300513,
  "lat": 47.2162503,
  "lon": 15.8131218
},
{
  "type": "node",
  "id": 2431300520,
  "lat": 47.2164995,
  "lon": 15.8131499
},
{
  "type": "node",
  "id": 2431300523,
  "lat": 47.2165077,
  "lon": 15.8129996
},
{
  "type": "node",
  "id": 4012563868,
  "lat": 47.2161585,
  "lon": 15.8132453
},
{
  "type": "node",
  "id": 4012563872,
  "lat": 47.2162366,
  "lon": 15.8132949
},
{
  "type": "node",
  "id": 4012563874,
  "lat": 47.2163032,
  "lon": 15.8132985
},
{
  "type": "node",
  "id": 4012563875,
  "lat": 47.2163973,
  "lon": 15.8131386
},
{
  "type": "way",
  "id": 153173318,
  "nodes": [
    1658893671,
    4302846931,
    1658893669,
    1658893662,
    3264384533,
    1658893666,
    4612970816,
    1658893671
  ]
},
{
  "type": "way",
  "id": 431034731,
  "nodes": [
    4302846932,
    4302846933,
    4302846934,
    4302846935,
    4302846932
  ]
},
{
  "type": "way",
  "id": 277800379,
  "nodes": [
    2432300936,
    2432300868,
    1953038933,
    2432300775,
    1953038900,
    2432300705,
    663837172,
    2432300646,
    1953038844,
    2432300580,
    1211876397,
    1953038821,
    2432300557,
    1311986032,
    2432300531,
    2432300528,
    1211876258,
    2432300527,
    2432300529,
    2432300533,
    2432300541,
    2432300545,
    1211876141,
    2432300552,
    1481709268,
    1953038810,
    1481709265,
    2432300530,
    1481709267,
    1953038811,
    2432300550,
    1211876393,
    2432300576,
    2432300591,
    2432300601,
    1481709272,
    2432300593,
    2432300583,
    1953038836,
    2432300584,
    2432300586,
    1953038840,
    2432300611,
    2432300620,
    1953038855,
    2432300669,
    2432300690,
    2432300691,
    2432300682,
    2432300674,
    2432300656,
    2432300652,
    2822597250,
    2432300665,
    2432300678,
    2432300688,
    2432300713,
    1953038889,
    2432300765,
    1953038921,
    1953038922,
    1953038913,
    2432300751,
    2432300753,
    2432300761,
    1953038915,
    2432300743,
    2432300721,
    2432300709,
    1953038876,
    2432300699,
    2432300714,
    2432300726,
    2432300744,
    2432300754,
    1953038916,
    2432300739,
    1953038896,
    2432300697,
    2432300675,
    1953038862,
    2432300640,
    1953038847,
    2822597249,
    2432300610,
    2432300598,
    2432300587,
    2432300585,
    2432300589,
    1211876257,
    2432300579,
    1953038839,
    1211876169,
    2432300590,
    2432300597,
    1211876075,
    2432300616,
    2432300653,
    2432300666,
    2432300685,
    1211876212,
    2432300710,
    2432300720,
    2432300740,
    2432300762,
    2432300791,
    2432300828,
    2432300855,
    1211876104,
    2432300906,
    2432300918,
    1211876013,
    2432300872,
    2432300853,
    2432300840,
    2432300796,
    2432300756,
    2432300735,
    2432300711,
    2432300692,
    2432300676,
    2432300649,
    2432300628,
    1211876024,
    2432300626,
    2432300633,
    2432300645,
    2432300654,
    2432300677,
    2432300707,
    663837173,
    2432300752,
    2432300772,
    2432300788,
    2432300794,
    1481709287,
    2432300834,
    2432300822,
    1481709286,
    2432300818,
    2432300836,
    1481709288,
    2432300893,
    2432300934,
    1953038943,
    2432300942,
    1953038948,
    663837174,
    663837175,
    663837176,
    1953038944,
    2432300922,
    1481709289,
    2432300910,
    2432300932,
    663837177,
    1953038946,
    2432300948,
    2432300972,
    1481709294
  ]
},
{
  "type": "way",
  "id": 134832372,
  "nodes": [
    359885150,
    1953038970,
    1953038971,
    1953038979,
    359885154,
    2432301100,
    1953038974
  ]
},
{
  "type": "way",
  "id": 203063459,
  "nodes": [
    359885150,
    1211876071,
    1953039016,
    663837181
  ]
},
{
  "type": "way",
  "id": 235145007,
  "nodes": [
    2432300999,
    1953038954,
    1953038947,
    2432300936
  ]
},
{
  "type": "way",
  "id": 235145006,
  "nodes": [
    2432301032,
    1953038972,
    2432301048,
    2432301057,
    2432301061,
    2432301080,
    2432301113,
    1953038990,
    2432301143,
    1953039010,
    2432301179,
    1953039011,
    2432301166,
    2432301138,
    2432301096,
    1953038984,
    2432301065,
    2432301077,
    2432301093,
    2432301119,
    1953038993,
    2432301109,
    1953038991
  ]
},
{
  "type": "way",
  "id": 235145009,
  "nodes": [
    1953038991,
    2432301122,
    1953039003,
    663837181
  ]
},
{
  "type": "way",
  "id": 235145011,
  "nodes": [
    1481709294,
    2432300987,
    2432300995,
    2432300997,
    2432301001,
    1953038965,
    2432301018,
    2432301032
  ]
},
{
  "type": "way",
  "id": 235145012,
  "nodes": [
    1953038974,
    2432301062,
    1953038969,
    2432301035,
    2432301023,
    2432301025,
    1953038963,
    2432301007,
    2432300999
  ]
}

  ]
}
