{
  "version": 0.6,
  "generator": "Overpass API 0.7.55.9 ab41fea6",
  "osm3s": {
    "timestamp_osm_base": "2020-02-14T14:55:02Z",
    "copyright": "The data included in this document is from www.openstreetmap.org. The data is made available under ODbL."
  },
  "elements": [

{
  "type": "node",
  "id": 288214313,
  "lat": 44.3414464,
  "lon": 11.0180024,
  "tags": {
    "name": "Museo della castagna",
    "tourism": "museum"
  }
},
{
  "type": "node",
  "id": 290108900,
  "lat": 44.3962323,
  "lon": 10.9501873,
  "tags": {
    "name": "gli ambienti del parco",
    "tourism": "museum"
  }
},
{
  "type": "node",
  "id": 359686533,
  "lat": 44.3550909,
  "lon": 11.7110641,
  "tags": {
    "name": "Museo Archeologico",
    "tourism": "museum"
  }
},
{
  "type": "node",
  "id": 361141712,
  "lat": 44.6403315,
  "lon": 11.1891066,
  "tags": {
    "addr:city": "San Giovanni in Persiceto",
    "addr:housenumber": "163",
    "addr:postcode": "40017",
    "addr:street": "Corso Italia",
    "is_in": "San Giovanni in Persiceto",
    "name": "Museo Archeoambientale",
    "opening_hours": "Su 10:00-12:00, 17:00-19:00; Jul-Aug off",
    "tourism": "museum"
  }
},
{
  "type": "node",
  "id": 366718068,
  "lat": 44.3553684,
  "lon": 11.7123776,
  "tags": {
    "addr:city": "Imola",
    "addr:housenumber": "4",
    "addr:postcode": "40026",
    "addr:street": "Via Gaspare Sacchi",
    "name": "Museo di San Domenico",
    "tourism": "museum",
    "website": "http://museiciviciimola.it/museo-di-san-domenico-imola/",
    "wikidata": "Q27992740"
  }
},
{
  "type": "node",
  "id": 366719133,
  "lat": 44.3549544,
  "lon": 11.7124192,
  "tags": {
    "name": "Museo Giuseppe Scarabelli",
    "tourism": "museum"
  }
},
{
  "type": "node",
  "id": 367773156,
  "lat": 44.5376450,
  "lon": 11.5371958,
  "tags": {
    "name": "Museo dell'ocarina",
    "tourism": "museum"
  }
},
{
  "type": "node",
  "id": 385722937,
  "lat": 44.3549933,
  "lon": 11.7084343,
  "tags": {
    "amenity": "arts_centre",
    "name": "Sala Dell' Annunziata",
    "tourism": "museum"
  }
},
{
  "type": "node",
  "id": 586316851,
  "lat": 44.6284354,
  "lon": 11.2041878,
  "tags": {
    "addr:city": "San Giovanni in Persiceto",
    "addr:housenumber": "15",
    "addr:postcode": "40017",
    "addr:street": "Via Antonio Marzocchi",
    "name": "Laboratorio dell'Insetto",
    "tourism": "museum"
  }
},
{
  "type": "node",
  "id": 655135676,
  "lat": 44.4969637,
  "lon": 11.3526100,
  "tags": {
    "addr:city": "Bologna",
    "addr:housename": "Palazzo Poggi",
    "addr:housenumber": "33",
    "addr:street": "Via Anteo Zamboni",
    "name": "Museo di Palazzo Poggi",
    "opening_hours": "Tu-Fr 10:00-16:00; Sa,Su,PH 10:00-18:00; Jan 01,May 01,Aug 15,Dec 24-25 off",
    "operator": "Università di Bologna",
    "tourism": "museum",
    "wheelchair": "no",
    "wikidata": "Q3868219",
    "wikipedia": "it:Museo di palazzo Poggi"
  }
},
{
  "type": "node",
  "id": 696034970,
  "lat": 44.3651657,
  "lon": 10.9515696,
  "tags": {
    "name": "Museo della tigella",
    "tourism": "museum"
  }
},
{
  "type": "node",
  "id": 724190119,
  "lat": 44.3525819,
  "lon": 11.7118782,
  "tags": {
    "name": "Palazzo Tozzoni",
    "tourism": "museum",
    "wikidata": "Q3891009",
    "wikimedia_commons": "Category:Palazzo_Tozzoni",
    "wikipedia": "it:Palazzo Tozzoni"
  }
},
{
  "type": "node",
  "id": 892827706,
  "lat": 44.7111921,
  "lon": 11.3039407,
  "tags": {
    "name": "MAGI'900 - Museo",
    "tourism": "museum",
    "wikidata": "Q3841198"
  }
},
{
  "type": "node",
  "id": 892828526,
  "lat": 44.7116385,
  "lon": 11.3055818,
  "tags": {
    "name": "Museo della Rocca",
    "tourism": "museum"
  }
},
{
  "type": "node",
  "id": 1356329357,
  "lat": 44.4314086,
  "lon": 11.2676484,
  "tags": {
    "description": "Punto di trasmissione primo esperimento radio G. Marconi",
    "name": "Villa Griffone",
    "tourism": "museum",
    "website": "http://www.fgm.it",
    "wikidata": "Q2525194",
    "wikipedia": "it:Villa Griffone"
  }
},
{
  "type": "node",
  "id": 1625182354,
  "lat": 44.5067948,
  "lon": 11.3493895,
  "tags": {
    "name": "Deposito Collezione Storica ATC",
    "tourism": "museum"
  }
},
{
  "type": "node",
  "id": 1627309137,
  "lat": 44.4881292,
  "lon": 11.3573451,
  "tags": {
    "name": "Museo Carducci",
    "tourism": "museum",
    "wheelchair": "no",
    "wikidata": "Q3661081",
    "wikipedia": "it:Casa Carducci"
  }
},
{
  "type": "node",
  "id": 1667233372,
  "lat": 44.5133757,
  "lon": 11.3503966,
  "tags": {
    "name": "Museo per la Memoria di Ustica",
    "tourism": "museum",
    "wikidata": "Q3328417",
    "wikipedia": "it:Museo per la memoria di Ustica"
  }
},
{
  "type": "node",
  "id": 1701627562,
  "lat": 44.3275941,
  "lon": 11.4040466,
  "tags": {
    "name": "Museo Archeologico Luigi Fantini",
    "tourism": "museum"
  }
},
{
  "type": "node",
  "id": 1704237892,
  "lat": 44.4981949,
  "lon": 11.3554840,
  "tags": {
    "addr:city": "Bologna",
    "addr:country": "IT",
    "addr:district": "San Vitale",
    "addr:housenumber": "1",
    "addr:postcode": "40126",
    "addr:street": "Piazza di Porta San Donato",
    "fee": "no",
    "name": "Museo di Mineralogia \"Luigi Bombicci\"",
    "opening_hours": "Mo-Fr 09:00-13:00; PH,Sa,Su 10:00-18:00; Jan 01 off; May 01 off; Aug 15 off; Dec 24-25 off",
    "operator": "Università di Bologna",
    "source": "Comune di Bologna",
    "tourism": "museum",
    "wheelchair": "yes",
    "wikipedia": "it:Museo di mineralogia \"L. Bombicci\""
  }
},
{
  "type": "node",
  "id": 1704239999,
  "lat": 44.4958974,
  "lon": 11.3479363,
  "tags": {
    "addr:city": "Bologna",
    "addr:country": "IT",
    "addr:district": "San Vitale",
    "addr:housenumber": "1/2",
    "addr:postcode": "40126",
    "addr:street": "Via Valdonica",
    "int_name": "Jewish Museum of Bologna",
    "name": "Museo Ebraico di Bologna",
    "source": "Comune di Bologna",
    "tourism": "museum",
    "wheelchair": "no",
    "wikidata": "Q3868351"
  }
},
{
  "type": "node",
  "id": 1704272301,
  "lat": 44.4968718,
  "lon": 11.3524529,
  "tags": {
    "addr:city": "Bologna",
    "addr:country": "IT",
    "addr:district": "San Vitale",
    "addr:housename": "Palazzo Poggi",
    "addr:housenumber": "33",
    "addr:postcode": "40126",
    "addr:street": "Via Zamboni",
    "name": "Museo Europeo degli Studenti",
    "opening_hours": "We-Fr 10:00-13:00, Sa,Su,PH 10:00-18:00; Jan 01,May 01,Aug 15,Dec 24-25 off",
    "operator": "Università di Bologna",
    "short_name": "MEUS",
    "source": "Comune di Bologna",
    "tourism": "museum",
    "wheelchair": "limited",
    "wikidata": "Q55379176"
  }
},
{
  "type": "node",
  "id": 1704272309,
  "lat": 44.4928659,
  "lon": 11.3502549,
  "tags": {
    "addr:city": "Bologna",
    "addr:country": "IT",
    "addr:district": "San Vitale",
    "addr:housenumber": "34",
    "addr:postcode": "40125",
    "addr:street": "Strada Maggiore",
    "name": "Museo internazionale e biblioteca della musica",
    "source": "Comune di Bologna",
    "tourism": "museum",
    "wikidata": "Q3330623",
    "wikipedia": "it:Museo internazionale e biblioteca della musica"
  }
},
{
  "type": "node",
  "id": 1704278528,
  "lat": 44.4922377,
  "lon": 11.3519345,
  "tags": {
    "addr:city": "Bologna",
    "addr:country": "IT",
    "addr:district": "San Vitale",
    "addr:housenumber": "44",
    "addr:postcode": "40125",
    "addr:street": "Strada Maggiore",
    "name": "Museo civico d'arte industriale Davia Bargellini",
    "source": "Comune di Bologna",
    "tourism": "museum",
    "wikidata": "Q3867807",
    "wikipedia": "it:Museo civico d'arte industriale Davia Bargellini"
  }
},
{
  "type": "node",
  "id": 1704280198,
  "lat": 44.4990152,
  "lon": 11.3549784,
  "tags": {
    "addr:city": "Bologna",
    "addr:country": "IT",
    "addr:district": "San Vitale",
    "addr:housenumber": "48",
    "addr:postcode": "40126",
    "addr:street": "Via Carlo Irnerio",
    "description": "Uno spazio libero e aperto che conserva, espone e cura l’eredità del passato producendo nuovo sapere scientifico, questo il Il Museo delle Cere anatomiche Luigi Cattaneo.",
    "name": "Collezione delle Cere Anatomiche \"Luigi Cattaneo\"",
    "operator": "Università di Bologna",
    "phone": "(051) 2091533",
    "source": "Comune di Bologna",
    "tourism": "museum"
  }
},
{
  "type": "node",
  "id": 1704566220,
  "lat": 44.4892711,
  "lon": 11.3551311,
  "tags": {
    "addr:city": "Bologna",
    "addr:country": "IT",
    "addr:district": "Santo Stefano",
    "addr:housenumber": "36",
    "addr:postcode": "40125",
    "addr:street": "Via Fondazza",
    "name": "Museo Morandi",
    "name:en": "Museo Morandi",
    "name:it": "Museo Morandi",
    "source": "Comune di Bologna",
    "tourism": "museum",
    "wikidata": "Q3867621"
  }
},
{
  "type": "node",
  "id": 1986958491,
  "lat": 44.6591378,
  "lon": 11.1258279,
  "tags": {
    "addr:city": "Sant'Agata Bolognese",
    "addr:country": "IT",
    "addr:housenumber": "12",
    "addr:postcode": "40019",
    "addr:street": "Via Modena",
    "email": "visit@lamborghini.com",
    "name": "Lamborghini",
    "opening_hours": "Mo-Sa 10:00-17:00",
    "phone": "+39 051 6817611",
    "tourism": "museum",
    "website": "https://www.lamborghini.com/",
    "wheelchair": "yes",
    "wikidata": "Q3329238"
  }
},
{
  "type": "node",
  "id": 2012275776,
  "lat": 44.7229401,
  "lon": 11.1459899,
  "tags": {
    "tourism": "museum"
  }
},
{
  "type": "node",
  "id": 2084530114,
  "lat": 44.4925888,
  "lon": 11.3466190,
  "tags": {
    "name": "Museo della Storia di Bologna",
    "tourism": "museum",
    "wikidata": "Q28772011"
  }
},
{
  "type": "node",
  "id": 2084530115,
  "lat": 44.4914312,
  "lon": 11.3461791,
  "tags": {
    "name": "Casa Saraceni",
    "tourism": "museum"
  }
},
{
  "type": "node",
  "id": 2089000043,
  "lat": 44.4967333,
  "lon": 11.3407983,
  "tags": {
    "name": "San Colombano - Collezione Tagliavini",
    "tourism": "museum"
  }
},
{
  "type": "node",
  "id": 2093080236,
  "lat": 44.4420095,
  "lon": 11.4755020,
  "tags": {
    "name": "Mostra - Museo di Claterna",
    "tourism": "museum"
  }
},
{
  "type": "node",
  "id": 2113471121,
  "lat": 44.5378936,
  "lon": 11.5365093,
  "tags": {
    "name": "Museo dei Burattini",
    "tourism": "museum",
    "wikidata": "Q35973428"
  }
},
{
  "type": "node",
  "id": 2150827980,
  "lat": 44.4765546,
  "lon": 11.0092445,
  "tags": {
    "addr:city": "Vignola",
    "addr:housenumber": "3",
    "addr:postcode": "41058",
    "addr:street": "Piazza dei Contrari",
    "name": "Palazzo Barozzi",
    "tourism": "museum",
    "wheelchair": "limited"
  }
},
{
  "type": "node",
  "id": 2372345863,
  "lat": 44.3114418,
  "lon": 11.4602041,
  "tags": {
    "name": "Museo della Resistenza",
    "source": "Bing",
    "tourism": "museum"
  }
},
{
  "type": "node",
  "id": 2517299415,
  "lat": 44.3971106,
  "lon": 11.5904787,
  "tags": {
    "name": "Palazzo Malvasia",
    "tourism": "museum"
  }
},
{
  "type": "node",
  "id": 2628346891,
  "lat": 44.5333630,
  "lon": 11.0238254,
  "tags": {
    "name": "Antiquarium Museo Archeologico",
    "tourism": "museum"
  }
},
{
  "type": "node",
  "id": 2671020159,
  "lat": 44.4966931,
  "lon": 11.3524709,
  "tags": {
    "addr:city": "Bologna",
    "addr:housename": "Palazzo Poggi",
    "addr:housenumber": "33",
    "addr:street": "Via Anteo Zamboni",
    "name": "Museo della Specola",
    "opening_hours": "Tu-Su,PH 10:30+,12:00+,15:30+ \"by appointment\"; Jan 01,May 01,Aug 15,Dec 24-25 off",
    "operator": "Università di Bologna",
    "tourism": "museum",
    "wheelchair": "no",
    "wikidata": "Q3868054",
    "wikipedia": "it:Museo della Specola di Bologna"
  }
},
{
  "type": "node",
  "id": 2823221436,
  "lat": 44.3535999,
  "lon": 11.7103318,
  "tags": {
    "addr:city": "Imola",
    "addr:housenumber": "1",
    "addr:postcode": "40026",
    "addr:street": "Piazza del Duomo",
    "name": "Museo diocesano Pio IX",
    "ref:isil": "IT-BO0623",
    "source": "http://anagrafe.iccu.sbn.it/isil/IT-BO0623",
    "tourism": "museum",
    "wikidata": "Q3868303",
    "wikipedia": "it:Museo diocesano Pio IX"
  }
},
{
  "type": "node",
  "id": 2833535228,
  "lat": 44.3527867,
  "lon": 11.7149706,
  "tags": {
    "addr:city": "Imola",
    "addr:housenumber": "6",
    "addr:postcode": "40026",
    "addr:street": "Piazza Giacomo Matteotti",
    "name": "Palazzo Sersanti",
    "source": "Bing",
    "tourism": "museum"
  }
},
{
  "type": "node",
  "id": 3098726538,
  "lat": 44.6406535,
  "lon": 11.1859034,
  "tags": {
    "addr:city": "San Giovanni in Persiceto",
    "addr:country": "IT",
    "addr:housenumber": "15",
    "addr:postcode": "40017",
    "addr:province": "BO",
    "addr:state": "EMR",
    "addr:street": "Via Guardia Nazionale",
    "email": "info@fisiclab.it",
    "fax": "+39 051 827067",
    "name": "FisicLab - Tecnoscienza",
    "operator": "Museo del Cielo e della Terra",
    "phone": "+39 051 827067",
    "tourism": "museum",
    "website": "http://www.fisiclab.it/"
  }
},
{
  "type": "node",
  "id": 3100479741,
  "lat": 44.4977981,
  "lon": 11.3552642,
  "tags": {
    "addr:city": "Bologna",
    "addr:housenumber": "63",
    "addr:postcode": "40126",
    "addr:street": "Via Zamboni",
    "name": "Museo Geologico Giovanni Capellini",
    "operator": "Università di Bologna",
    "tourism": "museum"
  }
},
{
  "type": "node",
  "id": 3579873796,
  "lat": 44.3545168,
  "lon": 11.7151411,
  "tags": {
    "name": "Palazzo Ginnasi",
    "tourism": "museum"
  }
},
{
  "type": "node",
  "id": 3585248696,
  "lat": 44.6391152,
  "lon": 11.2663650,
  "tags": {
    "addr:city": "Padulle",
    "addr:housenumber": "16",
    "addr:postcode": "40010",
    "addr:street": "Via Zaccarelli",
    "name": "Ecomuseo dell'acqua",
    "opening_hours": "Apr-Sep: Su 15:30-19:00; Oct-Mar: Su 14:30-17:00",
    "tourism": "museum",
    "wikidata": "Q35505954"
  }
},
{
  "type": "node",
  "id": 3736330574,
  "lat": 44.6034155,
  "lon": 11.4171702,
  "tags": {
    "addr:city": "Bentivoglio",
    "addr:country": "IT",
    "addr:housenumber": "35",
    "addr:place": "San Marino di Bentivoglio",
    "addr:postcode": "40010",
    "addr:street": "Via Sammarina",
    "email": "segreteria.museo@cittametropolitana.bo.it",
    "historic": "manor",
    "loc_name": "Villa Smeraldi",
    "name": "Museo della Civiltà Contadina",
    "phone": "+39 051 891050",
    "tourism": "museum",
    "website": "http://www.museociviltacontadina.bo.it/"
  }
},
{
  "type": "node",
  "id": 3790565604,
  "lat": 44.5148474,
  "lon": 11.3593936,
  "tags": {
    "email": "staff@tilt.it",
    "name": "EX Spazio Tilt!",
    "operator": "Tilt!",
    "tourism": "museum",
    "website": "https://www.tilt.it/flipper_pinball/2018/05/game-over/"
  }
},
{
  "type": "node",
  "id": 3812518392,
  "lat": 44.2725004,
  "lon": 11.6030401,
  "tags": {
    "name": "Palazzo Baronale",
    "source": "bing",
    "tourism": "museum"
  }
},
{
  "type": "node",
  "id": 3837282361,
  "lat": 44.4377506,
  "lon": 11.0314775,
  "tags": {
    "addr:city": "Castello di Serravalle",
    "addr:country": "IT",
    "addr:housenumber": "130",
    "addr:postcode": "40050",
    "addr:street": "Via della Rocca",
    "name": "Ecomuseo della Collina e del Vino",
    "tourism": "museum"
  }
},
{
  "type": "node",
  "id": 3914425356,
  "lat": 44.4921009,
  "lon": 11.3464967,
  "tags": {
    "name": "Genus Bononiae",
    "tourism": "museum"
  }
},
{
  "type": "node",
  "id": 3952848995,
  "lat": 44.5009492,
  "lon": 11.3199301,
  "tags": {
    "addr:city": "Bologna",
    "addr:country": "IT",
    "addr:district": "Porto",
    "addr:housenumber": "7/N",
    "addr:postcode": "40131",
    "addr:street": "Via Col Di Lana",
    "email": "info@museopelagalli.com",
    "fax": "+39 051 6491008",
    "name": "Museo della Comunicazione G. Pelagalli \"Mille voci... mille suoni\"",
    "phone": "+39 051 6491008",
    "tourism": "museum",
    "website": "http://www.museopelagalli.com/",
    "wikidata": "Q55360525"
  }
},
{
  "type": "node",
  "id": 4097004530,
  "lat": 44.6285090,
  "lon": 11.2043673,
  "tags": {
    "addr:city": "San Giovanni in Persiceto",
    "addr:housenumber": "16",
    "addr:postcode": "40017",
    "addr:street": "Via Antonio Marzocchi",
    "name": "Centro visite A.R.E. La Bora",
    "tourism": "museum"
  }
},
{
  "type": "node",
  "id": 4143527701,
  "lat": 44.4899426,
  "lon": 11.3344125,
  "tags": {
    "name": "Palazzo Albergati",
    "tourism": "museum"
  }
},
{
  "type": "node",
  "id": 4212296495,
  "lat": 44.7016164,
  "lon": 11.4033915,
  "tags": {
    "name": "Casa Frabboni Museo della Città",
    "opening_hours": "Tu,Su 09:30-12:30; Sa 09:30-12:30,15:00-18:00",
    "tourism": "museum"
  }
},
{
  "type": "node",
  "id": 4234099890,
  "lat": 44.7271156,
  "lon": 11.2904452,
  "tags": {
    "name": "Galleria d'arte moderna Aroldo Bonzagni",
    "tourism": "museum",
    "wheelchair": "yes",
    "wikidata": "Q17631153",
    "wikipedia": "it:Galleria d'arte moderna Aroldo Bonzagni"
  }
},
{
  "type": "node",
  "id": 4412874231,
  "lat": 44.3980673,
  "lon": 10.9524276,
  "tags": {
    "name": "Mostra Naturalistica Gli ambienti del Parco",
    "opening_hours": "Mo-Fr 08:30-20:00, Tu-Su 08:00-15:00; Sa 08:00-12:00",
    "tourism": "museum"
  }
},
{
  "type": "node",
  "id": 4522596635,
  "lat": 44.3592731,
  "lon": 11.6288381,
  "tags": {
    "name": "Museo d'Arte Sacra don Giovanni Paolo",
    "tourism": "museum"
  }
},
{
  "type": "node",
  "id": 4619155203,
  "lat": 44.7281572,
  "lon": 11.2918300,
  "tags": {
    "name": "Pinacoteca San Lorenzo",
    "operator": "Comune di Cento",
    "operator:type": "public",
    "toilets:wheelchair": "no",
    "tourism": "museum",
    "wheelchair": "limited"
  }
},
{
  "type": "node",
  "id": 4711236959,
  "lat": 44.5378352,
  "lon": 11.5367825,
  "tags": {
    "name": "Museo Archeologico e Paleoambientale Elsa Silvestri",
    "tourism": "museum"
  }
},
{
  "type": "node",
  "id": 4762177335,
  "lat": 44.3587068,
  "lon": 11.7236478,
  "tags": {
    "addr:city": "Imola",
    "addr:housenumber": "1B",
    "addr:postcode": "40026",
    "addr:street": "Via Poiano",
    "email": "benito.battilani@alice.it",
    "museum": "transport",
    "name": "Collezione Battilani",
    "opening_hours": "\"by appointment\"",
    "operator": "Benito Battilani",
    "phone": "+39 0542 640961",
    "source": "http://visitareimola.it/portfolio/collezione-battilani/;http://asimusei.it/museo/collezione-benito-battilani/",
    "tourism": "museum",
    "website": "http://www.motorvalley.it/collezioni/collezione-battilani",
    "wheelchair": "yes"
  }
},
{
  "type": "node",
  "id": 4762401320,
  "lat": 44.3545635,
  "lon": 11.7082181,
  "tags": {
    "addr:city": "Imola",
    "addr:housenumber": "23",
    "addr:postcode": "40026",
    "addr:street": "Via Fratelli Bandiera",
    "email": "info@cidra.it",
    "full_name": "Centro Imolese Documentazione Resistenza Antifascista e Storia Contemporanea",
    "name": "CIDRA",
    "phone": "+39 0542 24422",
    "tourism": "museum",
    "website": "https://www.cidra.it/"
  }
},
{
  "type": "node",
  "id": 4778331072,
  "lat": 44.2131250,
  "lon": 11.5044564,
  "tags": {
    "addr:city": "Castel del Rio",
    "addr:housenumber": "1",
    "addr:postcode": "40022",
    "addr:street": "Via Montanara",
    "name": "Museo della Guerra e della Linea Gotica",
    "tourism": "museum",
    "website": "http://www.museodellaguerradicasteldelrio.it/",
    "wikidata": "Q55360609"
  }
},
{
  "type": "node",
  "id": 4815863542,
  "lat": 44.3339043,
  "lon": 11.3817871,
  "tags": {
    "name": "Museo Botroidi",
    "tourism": "museum"
  }
},
{
  "type": "node",
  "id": 4874928932,
  "lat": 44.6076939,
  "lon": 11.3681674,
  "tags": {
    "name": "Museo Ferruccio Lamborghini",
    "tourism": "museum",
    "website": "http://www.museolamborghini.com/"
  }
},
{
  "type": "node",
  "id": 4995664468,
  "lat": 44.4962748,
  "lon": 11.3420561,
  "tags": {
    "addr:street": "Via Alessandro Manzoni",
    "name": "Museo Civico Medievale",
    "tourism": "museum",
    "wikidata": "Q3867844",
    "wikipedia": "it:Museo civico medievale"
  }
},
{
  "type": "node",
  "id": 5119786071,
  "lat": 44.3446236,
  "lon": 11.7148302,
  "tags": {
    "addr:city": "Imola",
    "addr:housenumber": "2",
    "addr:postcode": "40026",
    "addr:street": "Via Fratelli Rosselli",
    "email": "biglietteria@autodromoimola.it",
    "name": "Museo Checco Costa",
    "opening_hours": "Mo,We-Fr 10:00-13:00,14:00-18:00; Sa,PH 10:00-18:00",
    "phone": "+39 0542 655144",
    "tourism": "museum",
    "website": "http://www.autodromoimola.it/museo-checco-costa/"
  }
},
{
  "type": "node",
  "id": 5264787982,
  "lat": 44.4879809,
  "lon": 11.3151918,
  "tags": {
    "name": "Museo della tappezzeria",
    "tourism": "museum",
    "wheelchair": "yes",
    "wheelchair:description": "Si entra dal fronte Saragozza mediante rampa, c'è il campanello per farsi aprire l'ampia porta. All'interno tutti i piani accessibili mediante rampe e ascensore. Per accedere alla terrazza e locale superiore bisogna fare il giro dall'esterno",
    "wikipedia": "it:Museo della tappezzeria"
  }
},
{
  "type": "node",
  "id": 5264787983,
  "lat": 44.5031059,
  "lon": 11.0835126,
  "tags": {
    "addr:city": "Bazzano",
    "name": "Museo civico archeologico Arsenio Crespellani",
    "tourism": "museum",
    "wikidata": "Q3867787",
    "wikipedia": "it:Museo civico archeologico Arsenio Crespellani"
  }
},
{
  "type": "node",
  "id": 5455004214,
  "lat": 44.5887509,
  "lon": 11.0236551,
  "tags": {
    "addr:city": "San Cesario sul Panaro",
    "addr:country": "IT",
    "addr:housenumber": "24",
    "addr:postcode": "41018",
    "addr:street": "Via dell'Industria",
    "name": "Pagani Automobili",
    "operator": "Pagani Automobili S.p.A.",
    "tourism": "museum"
  }
},
{
  "type": "node",
  "id": 5569025202,
  "lat": 44.4697277,
  "lon": 11.3699802,
  "tags": {
    "addr:city": "Bologna",
    "addr:housenumber": "19",
    "addr:postcode": "40141",
    "addr:street": "Via Toscana",
    "name": "Museo storico del Soldatino \"M. Massacesi\"",
    "opening_hours": "Mo-Su 08:30-12:30",
    "phone": "+39 374 3857021",
    "tourism": "museum"
  }
},
{
  "type": "node",
  "id": 5765941061,
  "lat": 44.4962402,
  "lon": 11.3540584,
  "tags": {
    "addr:city": "Bologna",
    "addr:country": "IT",
    "addr:district": "San Vitale",
    "addr:housename": "Collezione di Chimica Giacomo Ciamician",
    "addr:housenumber": "2",
    "addr:postcode": "40126",
    "addr:street": "Via Francesco Selmi",
    "description": "La Raccolta, istituita nel 1983 come “Raccolta Museale G. Ciamician”, comprende numerose apparecchiature usate sia per la ricerca scientifica che come ausilio didattico per gli studenti.",
    "name": "Collezione di Chimica \"Giacomo Ciamician\"",
    "operator": "Università di Bologna",
    "phone": "(051) 2099539",
    "short_name": "Collezione Ciamician",
    "tourism": "museum"
  }
},
{
  "type": "node",
  "id": 5766044953,
  "lat": 44.4960820,
  "lon": 11.3543421,
  "tags": {
    "addr:city": "Bologna",
    "addr:housenumber": "3",
    "addr:postcode": "40126",
    "addr:street": "Via Francesco Selmi",
    "description": "Collezione di oltre 9.00 pezzi anatomici.",
    "name": "Museo di Anatomia Comparata",
    "operator": "Università di Bologna",
    "phone": "+39 051 2094243",
    "tourism": "museum"
  }
},
{
  "type": "node",
  "id": 5766052765,
  "lat": 44.4352475,
  "lon": 11.4853634,
  "tags": {
    "addr:city": "Ozzano dell'Emilia",
    "addr:housenumber": "50",
    "addr:postcode": "40064",
    "addr:street": "Via Tolara di Sopra",
    "addr:unit": "piano terra",
    "description": "La Collezione di Anatomia degli Animali Domestici dell’Università di Bologna nasce nel 1882.",
    "email": "sma.animalidomestici@unibo.it",
    "name": "Collezione di Anatomia degli Animali Domestici",
    "operator": "Università di Bologna",
    "phone": "+39 051 2097952",
    "tourism": "museum"
  }
},
{
  "type": "node",
  "id": 5766063797,
  "lat": 44.4351859,
  "lon": 11.4853387,
  "tags": {
    "addr:city": "Ozzano dell'Emilia",
    "addr:housenumber": "50",
    "addr:postcode": "40064",
    "addr:street": "Via Tolara di Sopra",
    "description": "La raccolta è costituita da preparati a secco, materiali conservati in alcool e scheletri teratologici, insieme a disegni a colori e mirabili modelli in gesso e cera.",
    "email": "sma.anatomiapatologicavet@unibo.it",
    "name": "Collezione di Anatomia Patologica e Teratologia Veterinaria",
    "opening_hours": "Lunedì, mercoledì e venerdì: 9.00 - 13.30  Martedì e giovedì: 9.00 - 16.00",
    "operator": "Università di Bologna",
    "tourism": "museum"
  }
},
{
  "type": "node",
  "id": 5766091963,
  "lat": 44.4993704,
  "lon": 11.3538236,
  "tags": {
    "addr:city": "Bologna",
    "addr:housenumber": "46",
    "addr:postcode": "40126",
    "addr:street": "Via Irnerio",
    "description": "Gli strumenti esposti nelle numerose teche illustrano le principali aree d’indagine della fisica sperimentale del XIX e XX secolo.",
    "email": "sma.fisica@unibo.it",
    "name": "Collezione di Fisica dell’Università di Bologna",
    "operator": "Università di Bologna",
    "tourism": "museum"
  }
},
{
  "type": "node",
  "id": 6586689111,
  "lat": 44.5161234,
  "lon": 11.2684063,
  "tags": {
    "name": "Ducati Museum",
    "tourism": "museum",
    "wikidata": "Q5311241",
    "wikipedia": "it:Museo Ducati"
  }
},
{
  "type": "node",
  "id": 7080221401,
  "lat": 44.4667347,
  "lon": 11.3466061,
  "tags": {
    "name": "Villa Guastavillani",
    "tourism": "museum"
  }
},
{
  "type": "node",
  "id": 7130249785,
  "lat": 44.4949448,
  "lon": 11.3629615,
  "tags": {
    "addr:housenumber": "43",
    "addr:street": "Via Paolo Fabbri",
    "name": "Guccini Casa",
    "tourism": "museum"
  }
},
{
  "type": "node",
  "id": 7130256785,
  "lat": 44.4965547,
  "lon": 11.3345303,
  "tags": {
    "addr:housenumber": "24",
    "addr:street": "Via San Felice",
    "name": "Palazzo Pallavicini",
    "tourism": "museum"
  }
},
{
  "type": "way",
  "id": 136344071,
  "nodes": [
    1495782648,
    1495782703,
    1495782574,
    1495782576,
    1495782648
  ],
  "tags": {
    "addr:city": "Sasso Marconi",
    "addr:housenumber": "8",
    "addr:postcode": "40037",
    "addr:street": "Via Rio Conco",
    "building": "yes",
    "description": "La Casa della Natura è il centro multifunzionale per la divulgazione e la protezione della biodiversità a supporto della gestione dell'Oasi Naturale San Gherardo. ",
    "name": "Casa della Natura",
    "note": "Sono presenti un Punto-Info, una Mostra permanente sull'Oasi, una sala convegni, un laboratorio didattico.",
    "opening_hours": "Il Centro è aperto secondo calendario stagionale",
    "tourism": "museum",
    "website": "http://www.ecosistema.it/sangherardo/2000.htm"
  }
},
{
  "type": "way",
  "id": 139659492,
  "nodes": [
    1530773617,
    1530773598,
    1530773608,
    1530773634,
    1530773663,
    1530773667,
    1530773617
  ],
  "tags": {
    "name": "Museo della Preistoria \"Luigi Donini\"",
    "source": "http://www.museodellapreistoria.it/wordpress/",
    "tourism": "museum",
    "wikidata": "Q55360665"
  }
},
{
  "type": "way",
  "id": 143712558,
  "nodes": [
    1572651276,
    1572651227,
    1572651252,
    1572651308,
    1572651196,
    1572651272,
    1572651285,
    1572651229,
    1572651246,
    1572651263,
    1572651240,
    1572651256,
    1572651224,
    1572651239,
    1572651276
  ],
  "tags": {
    "addr:city": "Bentivoglio",
    "addr:housenumber": "35",
    "addr:postcode": "40010",
    "addr:street": "Via Sammarina",
    "building": "yes",
    "name": "Museo della Civiltà Contadina",
    "tourism": "museum"
  }
},
{
  "type": "way",
  "id": 145144869,
  "nodes": [
    1585856868,
    1585856872,
    1585856883,
    1585856887,
    1585856901,
    1585856891,
    1585856868
  ],
  "tags": {
    "addr:city": "Spilamberto",
    "addr:country": "IT",
    "addr:housenumber": "28",
    "addr:postcode": "41057",
    "addr:street": "Via Francesco Roncati",
    "building": "yes",
    "building:use": "museum",
    "email": "info@museodelbalsamicotradizionale.org",
    "name": "Museo dell'Aceto Balsamico Tradizionale",
    "opening_hours": "Mo off",
    "operator": "Consorteria dell’Aceto Balsamico Tradizionale",
    "phone": "+39 059 781614",
    "tourism": "museum",
    "website": "https://museodelbalsamicotradizionale.org"
  }
},
{
  "type": "way",
  "id": 148844030,
  "nodes": [
    1619058888,
    1619058905,
    1619058904,
    1619058920,
    1619058919,
    1619058932,
    1619058930,
    1619058987,
    1619058981,
    1619058972,
    1619058900,
    1619058897,
    1619058886,
    1619058885,
    1619058870,
    1619058866,
    1619058865,
    1619058861,
    1619058857,
    1619058848,
    1619058846,
    1619058842,
    1619058834,
    1619058832,
    1619058830,
    1619058840,
    1619058844,
    1619058816,
    1619058817,
    1619058819,
    1619058862,
    1619058875,
    1619058887,
    1619058888
  ],
  "tags": {
    "addr:city": "Bologna",
    "addr:street": "Via Parigi",
    "building": "yes",
    "name": "San Colombano",
    "operator": "Genus Bononiae",
    "source": "Regione Emilia Romagna",
    "tourism": "museum",
    "wikidata": "Q3669793",
    "wikipedia": "it:Chiesa di San Colombano (Bologna)"
  }
},
{
  "type": "way",
  "id": 149031766,
  "nodes": [
    1620663042,
    1620663191,
    1620663183,
    1620663247,
    1620663268,
    1620663358,
    1620663284,
    1620663152,
    1620663117,
    1620663071,
    1620663015,
    1620662964,
    1620662970,
    1620662998,
    1620663007,
    1620662995,
    1620663042
  ],
  "tags": {
    "addr:city": "Bologna",
    "addr:street": "Via Alessandro Manzoni",
    "building": "yes",
    "name": "Palazzo Fava",
    "operator": "Genus Bononiae",
    "source": "Regione Emilia Romagna",
    "tourism": "museum",
    "wikidata": "Q24197182",
    "wikipedia": "it:Palazzo Fava"
  }
},
{
  "type": "way",
  "id": 149112165,
  "nodes": [
    1621344275,
    1621344239,
    1621344234,
    1621344232,
    1621344236,
    1621344281,
    1621344306,
    1621344334,
    1621344328,
    1621344305,
    1621344302,
    1621344263,
    1621344262,
    1621344279,
    1621344273,
    1621341064,
    1621344259,
    1621344267,
    1621344265,
    1621344257,
    1621344256,
    1621344295,
    1621344288,
    1621344255,
    1621344258,
    1621344246,
    1621344244,
    1621344217,
    1621344220,
    1621344209,
    1621344212,
    1621344215,
    1621344221,
    1621344224,
    1621344222,
    1621344223,
    1621344229,
    1621344268,
    1621344270,
    1621344272,
    1621344275
  ],
  "tags": {
    "building": "industrial",
    "name": "Patrimonio Industriale",
    "source": "Regione Emilia Romagna",
    "tourism": "museum",
    "wheelchair": "yes"
  }
},
{
  "type": "way",
  "id": 149787771,
  "nodes": [
    1627377583,
    1627377840,
    1627377825,
    1627377783,
    1627377542,
    1627377545,
    1627377478,
    1627377510,
    1627377550,
    1627377530,
    1627377556,
    1627377562,
    1627377583
  ],
  "tags": {
    "addr:city": "Bologna",
    "addr:housenumber": "3",
    "addr:postcode": "40126",
    "addr:street": "Via Francesco Selmi",
    "building": "yes",
    "description": "II primo nucleo della Collezione di Antropologia risale al 1908, quando fu istituita la cattedra di Antropologia nell'Università di Bologna.",
    "email": "sma.antropologia@unibo.it",
    "name": "Collezione di Antropologia",
    "operator": "Università di Bologna",
    "source": "Regione Emilia Romagna;università di bologna",
    "tourism": "museum"
  }
},
{
  "type": "way",
  "id": 150819121,
  "nodes": [
    1636907161,
    1636907350,
    1636907241,
    1636907040,
    1636907161
  ],
  "tags": {
    "building": "yes",
    "name": "MUV - Museo della civiltà Villanoviana",
    "phone": "+39 051 780021",
    "source": "Regione Emilia Romagna",
    "tourism": "museum"
  }
},
{
  "type": "way",
  "id": 150827757,
  "nodes": [
    1636992589,
    1636992737,
    1636992706,
    1636992538,
    1636992589
  ],
  "tags": {
    "building": "yes",
    "source": "Regione Emilia Romagna",
    "tourism": "museum"
  }
},
{
  "type": "way",
  "id": 152388524,
  "nodes": [
    1652075835,
    1652075861,
    1652075908,
    1652075962,
    1652075969,
    1652076010,
    1652076030,
    1652076075,
    1652076084,
    1652076088,
    1652076108,
    1652076137,
    1652076129,
    1652076115,
    1652076060,
    1652075890,
    1652075858,
    1652075769,
    1652075627,
    1652075636,
    1652075832,
    1652075815,
    1652075834,
    1652075835
  ],
  "tags": {
    "addr:city": "Zola Predosa",
    "building": "yes",
    "name": "Cà la Ghironda",
    "source": "Regione Emilia Romagna",
    "tourism": "museum"
  }
},
{
  "type": "way",
  "id": 154393440,
  "nodes": [
    1669395724,
    1669395729,
    1669395727,
    1669395719,
    1669395724
  ],
  "tags": {
    "building": "yes",
    "name": "Ca Croce",
    "source": "Regione Emilia Romagna",
    "tourism": "museum",
    "website": "http://www.comune.bologna.it/iperbole/monumentosabbiuno/"
  }
},
{
  "type": "way",
  "id": 154780831,
  "nodes": [
    1672604269,
    1672604297,
    1672604296,
    1672604306,
    1672604305,
    1672604310,
    1672604309,
    1672604313,
    1672604312,
    1672604302,
    1672604304,
    1672604274,
    1672604275,
    1672604258,
    1672604269
  ],
  "tags": {
    "building": "yes",
    "name": "Museo della Civiltà Contadina dell'Appenino",
    "source": "Regione Emilia Romagna",
    "tourism": "museum"
  }
},
{
  "type": "way",
  "id": 161697861,
  "nodes": [
    1618142612,
    1618142586,
    1618142580,
    1618142598,
    2477780119,
    1618142666,
    1618142687,
    1618142689,
    2477780115,
    1618142716,
    2997986838,
    2998007667,
    2998004562,
    1618142760,
    2998004556,
    1618142714,
    2998004558,
    1618142662,
    1618142612
  ],
  "tags": {
    "addr:city": "Bologna",
    "addr:country": "IT",
    "addr:district": "Porto",
    "addr:housenumber": "14",
    "addr:postcode": "40121",
    "addr:street": "Via Don Giovanni Minzoni",
    "alt_name": "Museo d'Arte Moderna di Bologna",
    "name": "MAMbo",
    "opening_hours": "Tu,We,Fr 12:00-18:00; Th,Sa,Su 12:00-20:00",
    "toilets:wheelchair": "yes",
    "tourism": "museum",
    "wheelchair": "limited",
    "wikidata": "Q3867868",
    "wikipedia": "it:Museo d'arte moderna di Bologna"
  }
},
{
  "type": "way",
  "id": 251848871,
  "nodes": [
    1620694072,
    1620694015,
    1620693962,
    1620693885,
    1620693887,
    1620693833,
    1620693781,
    1620693783,
    1620693832,
    1620693831,
    1620693787,
    1620693727,
    1620693722,
    3236447897,
    1620693720,
    1620694440,
    1620694805,
    1620694895,
    1620694908,
    1620694910,
    1620694924,
    1620695296,
    1620695200,
    1620695123,
    1620695042,
    1620695039,
    1620695077,
    1620695074,
    1620695048,
    1620695020,
    1620695017,
    1620695013,
    1620694837,
    1620694844,
    1620694856,
    1620694861,
    1620694899,
    1620694904,
    1620694911,
    1620694937,
    1620694941,
    1620694915,
    1620694917,
    1620694891,
    1620694884,
    1620694797,
    1620694777,
    1620694799,
    1620694414,
    1620694403,
    1620694467,
    1620694460,
    1620694447,
    1620694446,
    1620694445,
    1620694396,
    1620694376,
    1620694349,
    1620694339,
    1620694277,
    1620694129,
    1620694046,
    1620694068,
    1620694013,
    1620694058,
    1620694048,
    1620694072
  ],
  "tags": {
    "name": "Museo Civico Archeologico",
    "tourism": "museum",
    "wikidata": "Q3867788",
    "wikipedia": "it:Museo civico archeologico (Bologna)"
  }
},
{
  "type": "way",
  "id": 276522409,
  "nodes": [
    2811200461,
    2811200462,
    2811200463,
    2811200464,
    2811200465,
    2811200466,
    2811200467,
    2811200468,
    2811200469,
    2811200470,
    2811200471,
    2811200472,
    2811200461
  ],
  "tags": {
    "addr:city": "Marzabotto",
    "addr:housenumber": "13",
    "addr:postcode": "40043",
    "addr:street": "Via Porrettana Sud",
    "building": "yes",
    "building:levels": "2",
    "email": "pm-ero@beniculturali.it",
    "name": "Museo Nazionale Etrusco \"Pompeo Aria\"",
    "opening_hours": "Tu-Th 09:00-16:00; Fr-Su 11:00-18:30; Mo off",
    "phone": "+39 051 932353",
    "tourism": "museum",
    "website": "http://polomusealeemiliaromagna.beniculturali.it/musei/museo-nazionale-etrusco-pompeo-aria-e-area-archeologica-di-kainua",
    "wikidata": "Q55685968",
    "wikipedia": "it:Museo nazionale etrusco di Marzabotto"
  }
},
{
  "type": "relation",
  "id": 2005837,
  "members": [
    {
      "type": "way",
      "ref": 148753534,
      "role": "outer"
    },
    {
      "type": "way",
      "ref": 148753547,
      "role": "inner"
    }
  ],
  "tags": {
    "addr:city": "Bologna",
    "addr:housenumber": "56",
    "addr:postcode": "40126",
    "addr:street": "Via delle Belle Arti",
    "building": "yes",
    "email": "pm-ero.urp@beniculturali.it",
    "name": "Pinacoteca nazionale di Bologna",
    "opening_hours": "Jul-Aug: Tu, We 08:30-14:00; Th-Su 13:45-19:30; Sep-Jun: Tu-Su, PH 08:30-19:30; Mo off; Jan 1 off; Dec 25 off",
    "phone": "+39 051 4209411",
    "tourism": "museum",
    "type": "multipolygon",
    "website": "http://www.pinacotecabologna.beniculturali.it/it/",
    "wikidata": "Q1103550",
    "wikipedia": "it:Pinacoteca nazionale (Bologna)"
  }
},
{
  "type": "relation",
  "id": 2006913,
  "members": [
    {
      "type": "way",
      "ref": 148833008,
      "role": "outer"
    },
    {
      "type": "way",
      "ref": 148833005,
      "role": "inner"
    },
    {
      "type": "way",
      "ref": 407963403,
      "role": "outer"
    }
  ],
  "tags": {
    "addr:city": "Bologna",
    "addr:housenumber": "42",
    "addr:postcode": "40126",
    "addr:street": "Via Irnerio",
    "building": "yes",
    "description": "Il giardino botanico dell'Università di Bologna, con serre e circa 5000 piante. L'Erbario comprende una collezione di circa centotrentamila piante essiccate. ",
    "email": "sma.ortoerbario@unibo.it",
    "name": "Orto Botanico ed Erbario",
    "operator": "Università di Bologna",
    "source": "Regione Emilia Romagna",
    "tourism": "museum",
    "type": "multipolygon",
    "wikidata": "Q3133893"
  }
},
{
  "type": "relation",
  "id": 2071422,
  "members": [
    {
      "type": "way",
      "ref": 153681550,
      "role": "outer"
    },
    {
      "type": "way",
      "ref": 153681548,
      "role": "inner"
    }
  ],
  "tags": {
    "building": "yes",
    "building:material": "brick",
    "castle_type": "defensive",
    "historic": "castle",
    "historic:civilization": "medieval",
    "name": "Rocca Sforzesca di Dozza",
    "name:en": "Dozza Castle",
    "official_name": "Rocca Malvezzi Campeggi",
    "roof:material": "roof_tiles",
    "roof:shape": "gabled",
    "source": "Regione Emilia Romagna",
    "tourism": "museum",
    "type": "multipolygon",
    "wikidata": "Q25100412",
    "wikimedia_commons": "Category:Rocca Malvezzi Campeggi (Dozza)",
    "wikipedia": "en:Dozza Castle"
  }
},
{
  "type": "relation",
  "id": 2219743,
  "members": [
    {
      "type": "way",
      "ref": 77415112,
      "role": "outer"
    },
    {
      "type": "way",
      "ref": 166524661,
      "role": "inner"
    }
  ],
  "tags": {
    "addr:street": "Via Guercino",
    "building": "yes",
    "denomination": "catholic",
    "name": "Pinacoteca San Lorenzo",
    "tourism": "museum",
    "type": "multipolygon"
  }
},
{
  "type": "node",
  "id": 1672604258,
  "lat": 44.2036407,
  "lon": 11.3160211
},
{
  "type": "node",
  "id": 1672604269,
  "lat": 44.2036456,
  "lon": 11.3158843
},
{
  "type": "node",
  "id": 1672604274,
  "lat": 44.2036677,
  "lon": 11.3161323
},
{
  "type": "node",
  "id": 1672604275,
  "lat": 44.2036717,
  "lon": 11.3160233
},
{
  "type": "node",
  "id": 1672604296,
  "lat": 44.2037115,
  "lon": 11.3159681
},
{
  "type": "node",
  "id": 1672604297,
  "lat": 44.2037144,
  "lon": 11.3158891
},
{
  "type": "node",
  "id": 1672604302,
  "lat": 44.2037329,
  "lon": 11.3161721
},
{
  "type": "node",
  "id": 1672604304,
  "lat": 44.2037341,
  "lon": 11.3161369
},
{
  "type": "node",
  "id": 1672604305,
  "lat": 44.2037378,
  "lon": 11.3160204
},
{
  "type": "node",
  "id": 1672604306,
  "lat": 44.2037396,
  "lon": 11.3159701
},
{
  "type": "node",
  "id": 1672604309,
  "lat": 44.2037972,
  "lon": 11.3160564
},
{
  "type": "node",
  "id": 1672604310,
  "lat": 44.2037983,
  "lon": 11.3160246
},
{
  "type": "node",
  "id": 1672604312,
  "lat": 44.2038160,
  "lon": 11.3161779
},
{
  "type": "node",
  "id": 1672604313,
  "lat": 44.2038204,
  "lon": 11.3160580
},
{
  "type": "node",
  "id": 2811200461,
  "lat": 44.3369605,
  "lon": 11.2038386
},
{
  "type": "node",
  "id": 2811200462,
  "lat": 44.3369577,
  "lon": 11.2040165
},
{
  "type": "node",
  "id": 2811200463,
  "lat": 44.3368276,
  "lon": 11.2040086
},
{
  "type": "node",
  "id": 2811200464,
  "lat": 44.3368290,
  "lon": 11.2039750
},
{
  "type": "node",
  "id": 2811200465,
  "lat": 44.3365405,
  "lon": 11.2039572
},
{
  "type": "node",
  "id": 2811200466,
  "lat": 44.3365193,
  "lon": 11.2042182
},
{
  "type": "node",
  "id": 2811200467,
  "lat": 44.3364472,
  "lon": 11.2042063
},
{
  "type": "node",
  "id": 2811200468,
  "lat": 44.3364854,
  "lon": 11.2038109
},
{
  "type": "node",
  "id": 2811200469,
  "lat": 44.3365490,
  "lon": 11.2038149
},
{
  "type": "node",
  "id": 2811200470,
  "lat": 44.3365476,
  "lon": 11.2038327
},
{
  "type": "node",
  "id": 2811200471,
  "lat": 44.3368276,
  "lon": 11.2038505
},
{
  "type": "node",
  "id": 2811200472,
  "lat": 44.3368290,
  "lon": 11.2038287
},
{
  "type": "node",
  "id": 1669395719,
  "lat": 44.4218138,
  "lon": 11.3154363
},
{
  "type": "node",
  "id": 1669395724,
  "lat": 44.4218581,
  "lon": 11.3152639
},
{
  "type": "node",
  "id": 1669395727,
  "lat": 44.4218754,
  "lon": 11.3154671
},
{
  "type": "node",
  "id": 1669395729,
  "lat": 44.4219199,
  "lon": 11.3152937
},
{
  "type": "node",
  "id": 1495782574,
  "lat": 44.4252133,
  "lon": 11.2880684
},
{
  "type": "node",
  "id": 1495782576,
  "lat": 44.4253075,
  "lon": 11.2881269
},
{
  "type": "node",
  "id": 1495782648,
  "lat": 44.4254119,
  "lon": 11.2877973
},
{
  "type": "node",
  "id": 1495782703,
  "lat": 44.4253177,
  "lon": 11.2877388
},
{
  "type": "node",
  "id": 1530773598,
  "lat": 44.4697355,
  "lon": 11.4003911
},
{
  "type": "node",
  "id": 1530773608,
  "lat": 44.4697067,
  "lon": 11.4004385
},
{
  "type": "node",
  "id": 1530773617,
  "lat": 44.4697814,
  "lon": 11.4004457
},
{
  "type": "node",
  "id": 1530773634,
  "lat": 44.4696705,
  "lon": 11.4003955
},
{
  "type": "node",
  "id": 1530773663,
  "lat": 44.4695572,
  "lon": 11.4005825
},
{
  "type": "node",
  "id": 1530773667,
  "lat": 44.4696394,
  "lon": 11.4006802
},
{
  "type": "node",
  "id": 1663121762,
  "lat": 44.3587428,
  "lon": 11.6276414
},
{
  "type": "node",
  "id": 1663121764,
  "lat": 44.3587475,
  "lon": 11.6274990
},
{
  "type": "node",
  "id": 1663121766,
  "lat": 44.3587549,
  "lon": 11.6277290
},
{
  "type": "node",
  "id": 1663121768,
  "lat": 44.3587637,
  "lon": 11.6277912
},
{
  "type": "node",
  "id": 1663121769,
  "lat": 44.3587652,
  "lon": 11.6274595
},
{
  "type": "node",
  "id": 1663121770,
  "lat": 44.3587661,
  "lon": 11.6274193
},
{
  "type": "node",
  "id": 1663121773,
  "lat": 44.3587676,
  "lon": 11.6276451
},
{
  "type": "node",
  "id": 1663121774,
  "lat": 44.3587677,
  "lon": 11.6277080
},
{
  "type": "node",
  "id": 1663121776,
  "lat": 44.3587709,
  "lon": 11.6274798
},
{
  "type": "node",
  "id": 1663121784,
  "lat": 44.3587730,
  "lon": 11.6273909
},
{
  "type": "node",
  "id": 1663121787,
  "lat": 44.3587809,
  "lon": 11.6274947
},
{
  "type": "node",
  "id": 1663121788,
  "lat": 44.3587858,
  "lon": 11.6273685
},
{
  "type": "node",
  "id": 1663121790,
  "lat": 44.3587896,
  "lon": 11.6276928
},
{
  "type": "node",
  "id": 1663121791,
  "lat": 44.3587890,
  "lon": 11.6277409
},
{
  "type": "node",
  "id": 1663121805,
  "lat": 44.3588130,
  "lon": 11.6273496
},
{
  "type": "node",
  "id": 1663121808,
  "lat": 44.3588163,
  "lon": 11.6277503
},
{
  "type": "node",
  "id": 1663121810,
  "lat": 44.3588195,
  "lon": 11.6277891
},
{
  "type": "node",
  "id": 1663121811,
  "lat": 44.3588831,
  "lon": 11.6277173
},
{
  "type": "node",
  "id": 1663121814,
  "lat": 44.3588745,
  "lon": 11.6277488
},
{
  "type": "node",
  "id": 1663121815,
  "lat": 44.3588733,
  "lon": 11.6277826
},
{
  "type": "node",
  "id": 1663121816,
  "lat": 44.3588671,
  "lon": 11.6276579
},
{
  "type": "node",
  "id": 1663121821,
  "lat": 44.3588640,
  "lon": 11.6272036
},
{
  "type": "node",
  "id": 1663121822,
  "lat": 44.3588797,
  "lon": 11.6278151
},
{
  "type": "node",
  "id": 1663121829,
  "lat": 44.3588768,
  "lon": 11.6272189
},
{
  "type": "node",
  "id": 1663121833,
  "lat": 44.3588987,
  "lon": 11.6271471
},
{
  "type": "node",
  "id": 1663121834,
  "lat": 44.3588930,
  "lon": 11.6278433
},
{
  "type": "node",
  "id": 1663121841,
  "lat": 44.3589287,
  "lon": 11.6271983
},
{
  "type": "node",
  "id": 1663121842,
  "lat": 44.3589346,
  "lon": 11.6278759
},
{
  "type": "node",
  "id": 1663121845,
  "lat": 44.3589341,
  "lon": 11.6271895
},
{
  "type": "node",
  "id": 1663121849,
  "lat": 44.3589400,
  "lon": 11.6275161
},
{
  "type": "node",
  "id": 1663121856,
  "lat": 44.3589804,
  "lon": 11.6278684
},
{
  "type": "node",
  "id": 1663121858,
  "lat": 44.3589675,
  "lon": 11.6275995
},
{
  "type": "node",
  "id": 1663121860,
  "lat": 44.3590126,
  "lon": 11.6277104
},
{
  "type": "node",
  "id": 1663121864,
  "lat": 44.3590256,
  "lon": 11.6277808
},
{
  "type": "node",
  "id": 1663121865,
  "lat": 44.3590235,
  "lon": 11.6277440
},
{
  "type": "node",
  "id": 1663121869,
  "lat": 44.3590099,
  "lon": 11.6272952
},
{
  "type": "node",
  "id": 1663121874,
  "lat": 44.3590194,
  "lon": 11.6274651
},
{
  "type": "node",
  "id": 1663121877,
  "lat": 44.3590267,
  "lon": 11.6272680
},
{
  "type": "node",
  "id": 1663121884,
  "lat": 44.3590470,
  "lon": 11.6275485
},
{
  "type": "node",
  "id": 1663121891,
  "lat": 44.3590971,
  "lon": 11.6273952
},
{
  "type": "node",
  "id": 1663121893,
  "lat": 44.3591255,
  "lon": 11.6275984
},
{
  "type": "node",
  "id": 1663121897,
  "lat": 44.3591123,
  "lon": 11.6273703
},
{
  "type": "node",
  "id": 1663121898,
  "lat": 44.3591365,
  "lon": 11.6276150
},
{
  "type": "node",
  "id": 1663121902,
  "lat": 44.3591431,
  "lon": 11.6275000
},
{
  "type": "node",
  "id": 1663121903,
  "lat": 44.3591507,
  "lon": 11.6276257
},
{
  "type": "node",
  "id": 1663121905,
  "lat": 44.3591585,
  "lon": 11.6274926
},
{
  "type": "node",
  "id": 1663121906,
  "lat": 44.3591667,
  "lon": 11.6276294
},
{
  "type": "node",
  "id": 1663121909,
  "lat": 44.3591747,
  "lon": 11.6274926
},
{
  "type": "node",
  "id": 1663121910,
  "lat": 44.3591826,
  "lon": 11.6276257
},
{
  "type": "node",
  "id": 1663121911,
  "lat": 44.3592029,
  "lon": 11.6275140
},
{
  "type": "node",
  "id": 1663121912,
  "lat": 44.3591901,
  "lon": 11.6275000
},
{
  "type": "node",
  "id": 3826174300,
  "lat": 44.3592078,
  "lon": 11.6275982
},
{
  "type": "node",
  "id": 4518809503,
  "lat": 44.3588721,
  "lon": 11.6272284
},
{
  "type": "node",
  "id": 5088533591,
  "lat": 44.3588127,
  "lon": 11.6276813
},
{
  "type": "node",
  "id": 6037623040,
  "lat": 44.3590187,
  "lon": 11.6278164
},
{
  "type": "node",
  "id": 6037623041,
  "lat": 44.3590035,
  "lon": 11.6278466
},
{
  "type": "node",
  "id": 6037623042,
  "lat": 44.3589587,
  "lon": 11.6278771
},
{
  "type": "node",
  "id": 6037623043,
  "lat": 44.3589120,
  "lon": 11.6278642
},
{
  "type": "node",
  "id": 6037623044,
  "lat": 44.3592117,
  "lon": 11.6275330
},
{
  "type": "node",
  "id": 6037623045,
  "lat": 44.3592157,
  "lon": 11.6275549
},
{
  "type": "node",
  "id": 6037623046,
  "lat": 44.3592143,
  "lon": 11.6275775
},
{
  "type": "node",
  "id": 6037623047,
  "lat": 44.3591969,
  "lon": 11.6276149
},
{
  "type": "node",
  "id": 1585856868,
  "lat": 44.5332696,
  "lon": 11.0226455
},
{
  "type": "node",
  "id": 1585856872,
  "lat": 44.5333017,
  "lon": 11.0224544
},
{
  "type": "node",
  "id": 1585856883,
  "lat": 44.5333422,
  "lon": 11.0224679
},
{
  "type": "node",
  "id": 1585856887,
  "lat": 44.5333585,
  "lon": 11.0223710
},
{
  "type": "node",
  "id": 1585856891,
  "lat": 44.5334109,
  "lon": 11.0226923
},
{
  "type": "node",
  "id": 1585856901,
  "lat": 44.5334594,
  "lon": 11.0224044
},
{
  "type": "node",
  "id": 1652075627,
  "lat": 44.4933198,
  "lon": 11.1885718
},
{
  "type": "node",
  "id": 1652075636,
  "lat": 44.4933293,
  "lon": 11.1884324
},
{
  "type": "node",
  "id": 1652075769,
  "lat": 44.4934476,
  "lon": 11.1885888
},
{
  "type": "node",
  "id": 1652075815,
  "lat": 44.4934843,
  "lon": 11.1883483
},
{
  "type": "node",
  "id": 1652075832,
  "lat": 44.4935207,
  "lon": 11.1884578
},
{
  "type": "node",
  "id": 1652075834,
  "lat": 44.4935370,
  "lon": 11.1883201
},
{
  "type": "node",
  "id": 1652075835,
  "lat": 44.4935379,
  "lon": 11.1881768
},
{
  "type": "node",
  "id": 1652075858,
  "lat": 44.4935698,
  "lon": 11.1886050
},
{
  "type": "node",
  "id": 1652075861,
  "lat": 44.4935720,
  "lon": 11.1881819
},
{
  "type": "node",
  "id": 1652075890,
  "lat": 44.4936102,
  "lon": 11.1885819
},
{
  "type": "node",
  "id": 1652075908,
  "lat": 44.4936257,
  "lon": 11.1881964
},
{
  "type": "node",
  "id": 1652075962,
  "lat": 44.4936604,
  "lon": 11.1882166
},
{
  "type": "node",
  "id": 1652075969,
  "lat": 44.4936859,
  "lon": 11.1882465
},
{
  "type": "node",
  "id": 1652076010,
  "lat": 44.4937236,
  "lon": 11.1882944
},
{
  "type": "node",
  "id": 1652076030,
  "lat": 44.4937461,
  "lon": 11.1883405
},
{
  "type": "node",
  "id": 1652076060,
  "lat": 44.4937620,
  "lon": 11.1887799
},
{
  "type": "node",
  "id": 1652076075,
  "lat": 44.4937675,
  "lon": 11.1883954
},
{
  "type": "node",
  "id": 1652076084,
  "lat": 44.4937774,
  "lon": 11.1884423
},
{
  "type": "node",
  "id": 1652076088,
  "lat": 44.4937826,
  "lon": 11.1885003
},
{
  "type": "node",
  "id": 1652076108,
  "lat": 44.4937827,
  "lon": 11.1885883
},
{
  "type": "node",
  "id": 1652076115,
  "lat": 44.4937862,
  "lon": 11.1887330
},
{
  "type": "node",
  "id": 1652076129,
  "lat": 44.4938053,
  "lon": 11.1886784
},
{
  "type": "node",
  "id": 1652076137,
  "lat": 44.4938203,
  "lon": 11.1886010
},
{
  "type": "node",
  "id": 911180873,
  "lat": 44.7281596,
  "lon": 11.2916383
},
{
  "type": "node",
  "id": 911180885,
  "lat": 44.7282978,
  "lon": 11.2917999
},
{
  "type": "node",
  "id": 911188588,
  "lat": 44.7281127,
  "lon": 11.2916513
},
{
  "type": "node",
  "id": 1779711675,
  "lat": 44.7280264,
  "lon": 11.2918282
},
{
  "type": "node",
  "id": 1779711679,
  "lat": 44.7280489,
  "lon": 11.2917879
},
{
  "type": "node",
  "id": 1779711692,
  "lat": 44.7280861,
  "lon": 11.2918288
},
{
  "type": "node",
  "id": 1779711729,
  "lat": 44.7282869,
  "lon": 11.2918365
},
{
  "type": "node",
  "id": 4731745458,
  "lat": 44.7280078,
  "lon": 11.2918050
},
{
  "type": "node",
  "id": 911180915,
  "lat": 44.7280238,
  "lon": 11.2920982
},
{
  "type": "node",
  "id": 911180952,
  "lat": 44.7279332,
  "lon": 11.2919144
},
{
  "type": "node",
  "id": 911180982,
  "lat": 44.7281359,
  "lon": 11.2920487
},
{
  "type": "node",
  "id": 1779711677,
  "lat": 44.7280423,
  "lon": 11.2920648
},
{
  "type": "node",
  "id": 1779711687,
  "lat": 44.7280636,
  "lon": 11.2918691
},
{
  "type": "node",
  "id": 1779711689,
  "lat": 44.7280677,
  "lon": 11.2921124
},
{
  "type": "node",
  "id": 1779711691,
  "lat": 44.7280687,
  "lon": 11.2921615
},
{
  "type": "node",
  "id": 1779711694,
  "lat": 44.7280888,
  "lon": 11.2921422
},
{
  "type": "node",
  "id": 1779711698,
  "lat": 44.7281290,
  "lon": 11.2920335
},
{
  "type": "node",
  "id": 1779711702,
  "lat": 44.7281628,
  "lon": 11.2920231
},
{
  "type": "node",
  "id": 1779711710,
  "lat": 44.7281988,
  "lon": 11.2920782
},
{
  "type": "node",
  "id": 1779711726,
  "lat": 44.7282495,
  "lon": 11.2918906
},
{
  "type": "node",
  "id": 1779711734,
  "lat": 44.7282920,
  "lon": 11.2919470
},
{
  "type": "node",
  "id": 1620693720,
  "lat": 44.4913885,
  "lon": 11.3431711
},
{
  "type": "node",
  "id": 1620693722,
  "lat": 44.4914047,
  "lon": 11.3434988
},
{
  "type": "node",
  "id": 1620693727,
  "lat": 44.4914267,
  "lon": 11.3434951
},
{
  "type": "node",
  "id": 1620693781,
  "lat": 44.4915237,
  "lon": 11.3434203
},
{
  "type": "node",
  "id": 1620693783,
  "lat": 44.4915252,
  "lon": 11.3434569
},
{
  "type": "node",
  "id": 1620693787,
  "lat": 44.4915312,
  "lon": 11.3434908
},
{
  "type": "node",
  "id": 1620693831,
  "lat": 44.4915635,
  "lon": 11.3434934
},
{
  "type": "node",
  "id": 1620693832,
  "lat": 44.4915644,
  "lon": 11.3434643
},
{
  "type": "node",
  "id": 1620693833,
  "lat": 44.4915654,
  "lon": 11.3434297
},
{
  "type": "node",
  "id": 1620693885,
  "lat": 44.4916187,
  "lon": 11.3434509
},
{
  "type": "node",
  "id": 1620693887,
  "lat": 44.4916196,
  "lon": 11.3434429
},
{
  "type": "node",
  "id": 1620693962,
  "lat": 44.4916847,
  "lon": 11.3434660
},
{
  "type": "node",
  "id": 1620694013,
  "lat": 44.4917444,
  "lon": 11.3438272
},
{
  "type": "node",
  "id": 1620694015,
  "lat": 44.4917462,
  "lon": 11.3434804
},
{
  "type": "node",
  "id": 1620694046,
  "lat": 44.4917616,
  "lon": 11.3439804
},
{
  "type": "node",
  "id": 1620694048,
  "lat": 44.4917636,
  "lon": 11.3436643
},
{
  "type": "node",
  "id": 1620694058,
  "lat": 44.4917703,
  "lon": 11.3436664
},
{
  "type": "node",
  "id": 1620694068,
  "lat": 44.4917770,
  "lon": 11.3438340
},
{
  "type": "node",
  "id": 1620694072,
  "lat": 44.4917817,
  "lon": 11.3434893
},
{
  "type": "node",
  "id": 1620694129,
  "lat": 44.4918366,
  "lon": 11.3439954
},
{
  "type": "node",
  "id": 1620694277,
  "lat": 44.4919510,
  "lon": 11.3440271
},
{
  "type": "node",
  "id": 1620694339,
  "lat": 44.4920327,
  "lon": 11.3440508
},
{
  "type": "node",
  "id": 1620694349,
  "lat": 44.4920469,
  "lon": 11.3439576
},
{
  "type": "node",
  "id": 1620694376,
  "lat": 44.4920774,
  "lon": 11.3439232
},
{
  "type": "node",
  "id": 1620694396,
  "lat": 44.4921071,
  "lon": 11.3437199
},
{
  "type": "node",
  "id": 1620694403,
  "lat": 44.4921229,
  "lon": 11.3435948
},
{
  "type": "node",
  "id": 1620694414,
  "lat": 44.4921326,
  "lon": 11.3435328
},
{
  "type": "node",
  "id": 1620694440,
  "lat": 44.4921544,
  "lon": 11.3433905
},
{
  "type": "node",
  "id": 1620694445,
  "lat": 44.4921710,
  "lon": 11.3437386
},
{
  "type": "node",
  "id": 1620694446,
  "lat": 44.4921726,
  "lon": 11.3436984
},
{
  "type": "node",
  "id": 1620694447,
  "lat": 44.4921741,
  "lon": 11.3436861
},
{
  "type": "node",
  "id": 1620694460,
  "lat": 44.4921818,
  "lon": 11.3436879
},
{
  "type": "node",
  "id": 1620694467,
  "lat": 44.4921947,
  "lon": 11.3436166
},
{
  "type": "node",
  "id": 1620694777,
  "lat": 44.4924601,
  "lon": 11.3437827
},
{
  "type": "node",
  "id": 1620694797,
  "lat": 44.4924748,
  "lon": 11.3437874
},
{
  "type": "node",
  "id": 1620694799,
  "lat": 44.4924785,
  "lon": 11.3436386
},
{
  "type": "node",
  "id": 1620694805,
  "lat": 44.4924915,
  "lon": 11.3434872
},
{
  "type": "node",
  "id": 1620694884,
  "lat": 44.4925877,
  "lon": 11.3438234
},
{
  "type": "node",
  "id": 1620694891,
  "lat": 44.4926087,
  "lon": 11.3436633
},
{
  "type": "node",
  "id": 1620694895,
  "lat": 44.4926264,
  "lon": 11.3435293
},
{
  "type": "node",
  "id": 1620694899,
  "lat": 44.4926394,
  "lon": 11.3439116
},
{
  "type": "node",
  "id": 1620694904,
  "lat": 44.4926498,
  "lon": 11.3438401
},
{
  "type": "node",
  "id": 1620694908,
  "lat": 44.4926507,
  "lon": 11.3435363
},
{
  "type": "node",
  "id": 1620694910,
  "lat": 44.4926515,
  "lon": 11.3435311
},
{
  "type": "node",
  "id": 1620694911,
  "lat": 44.4926551,
  "lon": 11.3438039
},
{
  "type": "node",
  "id": 1620694915,
  "lat": 44.4926695,
  "lon": 11.3437052
},
{
  "type": "node",
  "id": 1620694917,
  "lat": 44.4926734,
  "lon": 11.3436803
},
{
  "type": "node",
  "id": 1620694924,
  "lat": 44.4926917,
  "lon": 11.3435425
},
{
  "type": "node",
  "id": 1620694937,
  "lat": 44.4927263,
  "lon": 11.3438253
},
{
  "type": "node",
  "id": 1620694941,
  "lat": 44.4927418,
  "lon": 11.3437277
},
{
  "type": "node",
  "id": 1620695200,
  "lat": 44.4931138,
  "lon": 11.3441008
},
{
  "type": "node",
  "id": 1620695296,
  "lat": 44.4931826,
  "lon": 11.3436820
},
{
  "type": "node",
  "id": 3236447897,
  "lat": 44.4913896,
  "lon": 11.3431926
},
{
  "type": "node",
  "id": 1620694837,
  "lat": 44.4925125,
  "lon": 11.3447802
},
{
  "type": "node",
  "id": 1620694844,
  "lat": 44.4925211,
  "lon": 11.3447208
},
{
  "type": "node",
  "id": 1620694856,
  "lat": 44.4925458,
  "lon": 11.3445518
},
{
  "type": "node",
  "id": 1620694861,
  "lat": 44.4925526,
  "lon": 11.3445050
},
{
  "type": "node",
  "id": 1620695013,
  "lat": 44.4928393,
  "lon": 11.3448809
},
{
  "type": "node",
  "id": 1620695017,
  "lat": 44.4928502,
  "lon": 11.3448857
},
{
  "type": "node",
  "id": 1620695020,
  "lat": 44.4928531,
  "lon": 11.3448722
},
{
  "type": "node",
  "id": 1620695039,
  "lat": 44.4928966,
  "lon": 11.3445762
},
{
  "type": "node",
  "id": 1620695042,
  "lat": 44.4929012,
  "lon": 11.3445474
},
{
  "type": "node",
  "id": 1620695048,
  "lat": 44.4929174,
  "lon": 11.3448994
},
{
  "type": "node",
  "id": 1620695074,
  "lat": 44.4929675,
  "lon": 11.3446079
},
{
  "type": "node",
  "id": 1620695077,
  "lat": 44.4929689,
  "lon": 11.3445989
},
{
  "type": "node",
  "id": 1620695123,
  "lat": 44.4930301,
  "lon": 11.3445860
},
{
  "type": "node",
  "id": 1619058816,
  "lat": 44.4966939,
  "lon": 11.3408470
},
{
  "type": "node",
  "id": 1619058817,
  "lat": 44.4966944,
  "lon": 11.3408341
},
{
  "type": "node",
  "id": 1619058819,
  "lat": 44.4966975,
  "lon": 11.3407429
},
{
  "type": "node",
  "id": 1619058830,
  "lat": 44.4967102,
  "lon": 11.3410185
},
{
  "type": "node",
  "id": 1619058832,
  "lat": 44.4967122,
  "lon": 11.3410311
},
{
  "type": "node",
  "id": 1619058834,
  "lat": 44.4967150,
  "lon": 11.3410408
},
{
  "type": "node",
  "id": 1619058840,
  "lat": 44.4967198,
  "lon": 11.3410182
},
{
  "type": "node",
  "id": 1619058842,
  "lat": 44.4967247,
  "lon": 11.3410521
},
{
  "type": "node",
  "id": 1619058844,
  "lat": 44.4967259,
  "lon": 11.3408494
},
{
  "type": "node",
  "id": 1619058846,
  "lat": 44.4967340,
  "lon": 11.3410565
},
{
  "type": "node",
  "id": 1619058848,
  "lat": 44.4967453,
  "lon": 11.3410585
},
{
  "type": "node",
  "id": 1619058857,
  "lat": 44.4967564,
  "lon": 11.3410567
},
{
  "type": "node",
  "id": 1619058861,
  "lat": 44.4967671,
  "lon": 11.3410483
},
{
  "type": "node",
  "id": 1619058862,
  "lat": 44.4967718,
  "lon": 11.3407479
},
{
  "type": "node",
  "id": 1619058865,
  "lat": 44.4967746,
  "lon": 11.3410370
},
{
  "type": "node",
  "id": 1619058866,
  "lat": 44.4967795,
  "lon": 11.3410216
},
{
  "type": "node",
  "id": 1619058870,
  "lat": 44.4967796,
  "lon": 11.3409731
},
{
  "type": "node",
  "id": 1619058875,
  "lat": 44.4967875,
  "lon": 11.3405113
},
{
  "type": "node",
  "id": 1619058885,
  "lat": 44.4968048,
  "lon": 11.3409732
},
{
  "type": "node",
  "id": 1619058886,
  "lat": 44.4968055,
  "lon": 11.3409303
},
{
  "type": "node",
  "id": 1619058887,
  "lat": 44.4968179,
  "lon": 11.3405150
},
{
  "type": "node",
  "id": 1619058888,
  "lat": 44.4968187,
  "lon": 11.3405025
},
{
  "type": "node",
  "id": 1619058897,
  "lat": 44.4968280,
  "lon": 11.3409315
},
{
  "type": "node",
  "id": 1619058900,
  "lat": 44.4968363,
  "lon": 11.3407009
},
{
  "type": "node",
  "id": 1619058904,
  "lat": 44.4968446,
  "lon": 11.3405090
},
{
  "type": "node",
  "id": 1619058905,
  "lat": 44.4968450,
  "lon": 11.3405044
},
{
  "type": "node",
  "id": 1619058919,
  "lat": 44.4968845,
  "lon": 11.3405464
},
{
  "type": "node",
  "id": 1619058920,
  "lat": 44.4968853,
  "lon": 11.3405156
},
{
  "type": "node",
  "id": 1619058930,
  "lat": 44.4969124,
  "lon": 11.3406031
},
{
  "type": "node",
  "id": 1619058932,
  "lat": 44.4969139,
  "lon": 11.3405479
},
{
  "type": "node",
  "id": 1619058972,
  "lat": 44.4969533,
  "lon": 11.3407130
},
{
  "type": "node",
  "id": 1619058981,
  "lat": 44.4969567,
  "lon": 11.3406553
},
{
  "type": "node",
  "id": 1619058987,
  "lat": 44.4969602,
  "lon": 11.3406055
},
{
  "type": "node",
  "id": 1620662964,
  "lat": 44.4962248,
  "lon": 11.3424233
},
{
  "type": "node",
  "id": 1620662970,
  "lat": 44.4962279,
  "lon": 11.3424054
},
{
  "type": "node",
  "id": 1620662995,
  "lat": 44.4962316,
  "lon": 11.3423697
},
{
  "type": "node",
  "id": 1620662998,
  "lat": 44.4962357,
  "lon": 11.3424075
},
{
  "type": "node",
  "id": 1620663007,
  "lat": 44.4962400,
  "lon": 11.3423717
},
{
  "type": "node",
  "id": 1620663015,
  "lat": 44.4962442,
  "lon": 11.3424282
},
{
  "type": "node",
  "id": 1620663042,
  "lat": 44.4962538,
  "lon": 11.3422281
},
{
  "type": "node",
  "id": 1620663071,
  "lat": 44.4962680,
  "lon": 11.3424342
},
{
  "type": "node",
  "id": 1620663117,
  "lat": 44.4962861,
  "lon": 11.3424387
},
{
  "type": "node",
  "id": 1620663152,
  "lat": 44.4963066,
  "lon": 11.3424479
},
{
  "type": "node",
  "id": 1620663183,
  "lat": 44.4963237,
  "lon": 11.3423128
},
{
  "type": "node",
  "id": 1620663191,
  "lat": 44.4963328,
  "lon": 11.3422475
},
{
  "type": "node",
  "id": 1620663247,
  "lat": 44.4963601,
  "lon": 11.3423228
},
{
  "type": "node",
  "id": 1620663268,
  "lat": 44.4963703,
  "lon": 11.3422567
},
{
  "type": "node",
  "id": 1620663284,
  "lat": 44.4963843,
  "lon": 11.3424829
},
{
  "type": "node",
  "id": 1620663358,
  "lat": 44.4964226,
  "lon": 11.3422694
},
{
  "type": "node",
  "id": 1618202496,
  "lat": 44.4976969,
  "lon": 11.3535761
},
{
  "type": "node",
  "id": 1618202655,
  "lat": 44.4977704,
  "lon": 11.3530612
},
{
  "type": "node",
  "id": 1618202732,
  "lat": 44.4977959,
  "lon": 11.3530701
},
{
  "type": "node",
  "id": 1618202736,
  "lat": 44.4977989,
  "lon": 11.3535424
},
{
  "type": "node",
  "id": 1618202740,
  "lat": 44.4978002,
  "lon": 11.3528016
},
{
  "type": "node",
  "id": 1618202764,
  "lat": 44.4978123,
  "lon": 11.3529538
},
{
  "type": "node",
  "id": 1618202766,
  "lat": 44.4978124,
  "lon": 11.3529764
},
{
  "type": "node",
  "id": 1618202789,
  "lat": 44.4978142,
  "lon": 11.3529389
},
{
  "type": "node",
  "id": 1618202793,
  "lat": 44.4978161,
  "lon": 11.3529983
},
{
  "type": "node",
  "id": 1618202799,
  "lat": 44.4978177,
  "lon": 11.3529247
},
{
  "type": "node",
  "id": 1618202806,
  "lat": 44.4978205,
  "lon": 11.3530121
},
{
  "type": "node",
  "id": 1618202835,
  "lat": 44.4978257,
  "lon": 11.3529051
},
{
  "type": "node",
  "id": 1618202869,
  "lat": 44.4978296,
  "lon": 11.3530307
},
{
  "type": "node",
  "id": 1618202881,
  "lat": 44.4978366,
  "lon": 11.3528884
},
{
  "type": "node",
  "id": 1618202895,
  "lat": 44.4978416,
  "lon": 11.3530460
},
{
  "type": "node",
  "id": 1618202911,
  "lat": 44.4978499,
  "lon": 11.3528755
},
{
  "type": "node",
  "id": 1618202954,
  "lat": 44.4978598,
  "lon": 11.3528694
},
{
  "type": "node",
  "id": 1618202979,
  "lat": 44.4978606,
  "lon": 11.3530602
},
{
  "type": "node",
  "id": 1618203040,
  "lat": 44.4978743,
  "lon": 11.3531752
},
{
  "type": "node",
  "id": 1618203044,
  "lat": 44.4978755,
  "lon": 11.3528642
},
{
  "type": "node",
  "id": 1618203045,
  "lat": 44.4978764,
  "lon": 11.3530648
},
{
  "type": "node",
  "id": 1618203100,
  "lat": 44.4978855,
  "lon": 11.3531089
},
{
  "type": "node",
  "id": 1618203110,
  "lat": 44.4978917,
  "lon": 11.3528641
},
{
  "type": "node",
  "id": 1618203131,
  "lat": 44.4978928,
  "lon": 11.3530647
},
{
  "type": "node",
  "id": 1618203180,
  "lat": 44.4979023,
  "lon": 11.3528668
},
{
  "type": "node",
  "id": 1618203189,
  "lat": 44.4979034,
  "lon": 11.3530617
},
{
  "type": "node",
  "id": 1618203263,
  "lat": 44.4979174,
  "lon": 11.3528748
},
{
  "type": "node",
  "id": 1618203282,
  "lat": 44.4979184,
  "lon": 11.3530532
},
{
  "type": "node",
  "id": 1618203286,
  "lat": 44.4979192,
  "lon": 11.3528455
},
{
  "type": "node",
  "id": 1618203316,
  "lat": 44.4979308,
  "lon": 11.3528875
},
{
  "type": "node",
  "id": 1618203317,
  "lat": 44.4979317,
  "lon": 11.3530403
},
{
  "type": "node",
  "id": 1618203362,
  "lat": 44.4979419,
  "lon": 11.3529039
},
{
  "type": "node",
  "id": 1618203370,
  "lat": 44.4979426,
  "lon": 11.3530236
},
{
  "type": "node",
  "id": 1618203406,
  "lat": 44.4979501,
  "lon": 11.3529233
},
{
  "type": "node",
  "id": 1618203409,
  "lat": 44.4979505,
  "lon": 11.3530041
},
{
  "type": "node",
  "id": 1618203420,
  "lat": 44.4979550,
  "lon": 11.3529449
},
{
  "type": "node",
  "id": 1618203422,
  "lat": 44.4979552,
  "lon": 11.3529824
},
{
  "type": "node",
  "id": 1618203429,
  "lat": 44.4979563,
  "lon": 11.3529675
},
{
  "type": "node",
  "id": 1618203517,
  "lat": 44.4979853,
  "lon": 11.3529281
},
{
  "type": "node",
  "id": 1618203571,
  "lat": 44.4979939,
  "lon": 11.3528731
},
{
  "type": "node",
  "id": 1618203606,
  "lat": 44.4979991,
  "lon": 11.3536185
},
{
  "type": "node",
  "id": 1618203725,
  "lat": 44.4980177,
  "lon": 11.3531522
},
{
  "type": "node",
  "id": 1618203767,
  "lat": 44.4980289,
  "lon": 11.3530861
},
{
  "type": "node",
  "id": 1618203799,
  "lat": 44.4980353,
  "lon": 11.3537061
},
{
  "type": "node",
  "id": 1618203848,
  "lat": 44.4980518,
  "lon": 11.3529542
},
{
  "type": "node",
  "id": 1618203889,
  "lat": 44.4980706,
  "lon": 11.3532527
},
{
  "type": "node",
  "id": 1618203948,
  "lat": 44.4980837,
  "lon": 11.3531839
},
{
  "type": "node",
  "id": 1618204067,
  "lat": 44.4981296,
  "lon": 11.3531985
},
{
  "type": "node",
  "id": 1618204101,
  "lat": 44.4981376,
  "lon": 11.3532009
},
{
  "type": "node",
  "id": 1618987247,
  "lat": 44.4994715,
  "lon": 11.3526373
},
{
  "type": "node",
  "id": 1618987249,
  "lat": 44.4994868,
  "lon": 11.3524575
},
{
  "type": "node",
  "id": 1618987260,
  "lat": 44.4995070,
  "lon": 11.3525336
},
{
  "type": "node",
  "id": 1618987273,
  "lat": 44.4995419,
  "lon": 11.3526889
},
{
  "type": "node",
  "id": 1618987308,
  "lat": 44.4995777,
  "lon": 11.3525785
},
{
  "type": "node",
  "id": 1618987330,
  "lat": 44.4995944,
  "lon": 11.3527899
},
{
  "type": "node",
  "id": 1618987351,
  "lat": 44.4996338,
  "lon": 11.3526793
},
{
  "type": "node",
  "id": 1618987404,
  "lat": 44.4996683,
  "lon": 11.3525618
},
{
  "type": "node",
  "id": 1627377478,
  "lat": 44.4959206,
  "lon": 11.3542928
},
{
  "type": "node",
  "id": 1627377510,
  "lat": 44.4959366,
  "lon": 11.3542347
},
{
  "type": "node",
  "id": 1627377530,
  "lat": 44.4959642,
  "lon": 11.3542819
},
{
  "type": "node",
  "id": 1627377542,
  "lat": 44.4959673,
  "lon": 11.3543244
},
{
  "type": "node",
  "id": 1627377545,
  "lat": 44.4959699,
  "lon": 11.3543162
},
{
  "type": "node",
  "id": 1627377550,
  "lat": 44.4959720,
  "lon": 11.3542536
},
{
  "type": "node",
  "id": 1627377556,
  "lat": 44.4959823,
  "lon": 11.3542891
},
{
  "type": "node",
  "id": 1627377562,
  "lat": 44.4959982,
  "lon": 11.3542320
},
{
  "type": "node",
  "id": 1627377583,
  "lat": 44.4960089,
  "lon": 11.3541937
},
{
  "type": "node",
  "id": 1627377783,
  "lat": 44.4961904,
  "lon": 11.3544499
},
{
  "type": "node",
  "id": 1627377825,
  "lat": 44.4962175,
  "lon": 11.3543552
},
{
  "type": "node",
  "id": 1627377840,
  "lat": 44.4962272,
  "lon": 11.3543216
},
{
  "type": "node",
  "id": 3325362910,
  "lat": 44.4994246,
  "lon": 11.3526712
},
{
  "type": "node",
  "id": 4099853255,
  "lat": 44.5001719,
  "lon": 11.3528628
},
{
  "type": "node",
  "id": 4099853256,
  "lat": 44.5001858,
  "lon": 11.3531112
},
{
  "type": "node",
  "id": 4099853257,
  "lat": 44.5001068,
  "lon": 11.3531199
},
{
  "type": "node",
  "id": 4099853258,
  "lat": 44.5000929,
  "lon": 11.3528715
},
{
  "type": "node",
  "id": 1618142580,
  "lat": 44.5022503,
  "lon": 11.3373279
},
{
  "type": "node",
  "id": 1618142586,
  "lat": 44.5022625,
  "lon": 11.3373620
},
{
  "type": "node",
  "id": 1618142598,
  "lat": 44.5022905,
  "lon": 11.3371859
},
{
  "type": "node",
  "id": 1618142612,
  "lat": 44.5023055,
  "lon": 11.3373818
},
{
  "type": "node",
  "id": 1618142662,
  "lat": 44.5024282,
  "lon": 11.3374388
},
{
  "type": "node",
  "id": 1618142666,
  "lat": 44.5024452,
  "lon": 11.3366649
},
{
  "type": "node",
  "id": 1618142687,
  "lat": 44.5024869,
  "lon": 11.3365241
},
{
  "type": "node",
  "id": 1618142689,
  "lat": 44.5024910,
  "lon": 11.3365126
},
{
  "type": "node",
  "id": 1618142714,
  "lat": 44.5025649,
  "lon": 11.3375020
},
{
  "type": "node",
  "id": 1618142716,
  "lat": 44.5025853,
  "lon": 11.3363096
},
{
  "type": "node",
  "id": 1618142760,
  "lat": 44.5028338,
  "lon": 11.3362367
},
{
  "type": "node",
  "id": 2477780115,
  "lat": 44.5024949,
  "lon": 11.3364979
},
{
  "type": "node",
  "id": 2477780119,
  "lat": 44.5024158,
  "lon": 11.3367641
},
{
  "type": "node",
  "id": 2997986838,
  "lat": 44.5026569,
  "lon": 11.3361605
},
{
  "type": "node",
  "id": 2998004556,
  "lat": 44.5025723,
  "lon": 11.3374673
},
{
  "type": "node",
  "id": 2998004558,
  "lat": 44.5025472,
  "lon": 11.3374938
},
{
  "type": "node",
  "id": 2998004562,
  "lat": 44.5028134,
  "lon": 11.3362279
},
{
  "type": "node",
  "id": 2998007667,
  "lat": 44.5027775,
  "lon": 11.3362125
},
{
  "type": "node",
  "id": 1621341064,
  "lat": 44.5218451,
  "lon": 11.3345263
},
{
  "type": "node",
  "id": 1621344209,
  "lat": 44.5215595,
  "lon": 11.3348011
},
{
  "type": "node",
  "id": 1621344212,
  "lat": 44.5215853,
  "lon": 11.3346395
},
{
  "type": "node",
  "id": 1621344215,
  "lat": 44.5215909,
  "lon": 11.3346035
},
{
  "type": "node",
  "id": 1621344217,
  "lat": 44.5215924,
  "lon": 11.3348725
},
{
  "type": "node",
  "id": 1621344220,
  "lat": 44.5216015,
  "lon": 11.3348141
},
{
  "type": "node",
  "id": 1621344221,
  "lat": 44.5216037,
  "lon": 11.3346069
},
{
  "type": "node",
  "id": 1621344222,
  "lat": 44.5216097,
  "lon": 11.3344853
},
{
  "type": "node",
  "id": 1621344223,
  "lat": 44.5216160,
  "lon": 11.3344459
},
{
  "type": "node",
  "id": 1621344224,
  "lat": 44.5216219,
  "lon": 11.3344887
},
{
  "type": "node",
  "id": 1621344229,
  "lat": 44.5216415,
  "lon": 11.3342862
},
{
  "type": "node",
  "id": 1621344232,
  "lat": 44.5216702,
  "lon": 11.3341535
},
{
  "type": "node",
  "id": 1621344234,
  "lat": 44.5216775,
  "lon": 11.3341559
},
{
  "type": "node",
  "id": 1621344236,
  "lat": 44.5216878,
  "lon": 11.3340479
},
{
  "type": "node",
  "id": 1621344239,
  "lat": 44.5217101,
  "lon": 11.3341665
},
{
  "type": "node",
  "id": 1621344244,
  "lat": 44.5217350,
  "lon": 11.3349156
},
{
  "type": "node",
  "id": 1621344246,
  "lat": 44.5217441,
  "lon": 11.3348615
},
{
  "type": "node",
  "id": 1621344255,
  "lat": 44.5217969,
  "lon": 11.3349815
},
{
  "type": "node",
  "id": 1621344256,
  "lat": 44.5218023,
  "lon": 11.3348078
},
{
  "type": "node",
  "id": 1621344257,
  "lat": 44.5218070,
  "lon": 11.3347769
},
{
  "type": "node",
  "id": 1621344258,
  "lat": 44.5218126,
  "lon": 11.3348822
},
{
  "type": "node",
  "id": 1621344259,
  "lat": 44.5218182,
  "lon": 11.3347035
},
{
  "type": "node",
  "id": 1621344262,
  "lat": 44.5218555,
  "lon": 11.3344577
},
{
  "type": "node",
  "id": 1621344263,
  "lat": 44.5218604,
  "lon": 11.3344255
},
{
  "type": "node",
  "id": 1621344265,
  "lat": 44.5218667,
  "lon": 11.3347957
},
{
  "type": "node",
  "id": 1621344267,
  "lat": 44.5218782,
  "lon": 11.3347226
},
{
  "type": "node",
  "id": 1621344268,
  "lat": 44.5218891,
  "lon": 11.3343640
},
{
  "type": "node",
  "id": 1621344270,
  "lat": 44.5218964,
  "lon": 11.3343216
},
{
  "type": "node",
  "id": 1621344272,
  "lat": 44.5219030,
  "lon": 11.3342795
},
{
  "type": "node",
  "id": 1621344273,
  "lat": 44.5219065,
  "lon": 11.3345455
},
{
  "type": "node",
  "id": 1621344275,
  "lat": 44.5219102,
  "lon": 11.3342327
},
{
  "type": "node",
  "id": 1621344279,
  "lat": 44.5219177,
  "lon": 11.3344760
},
{
  "type": "node",
  "id": 1621344281,
  "lat": 44.5219277,
  "lon": 11.3341204
},
{
  "type": "node",
  "id": 1621344288,
  "lat": 44.5219799,
  "lon": 11.3350334
},
{
  "type": "node",
  "id": 1621344295,
  "lat": 44.5220054,
  "lon": 11.3348699
},
{
  "type": "node",
  "id": 1621344302,
  "lat": 44.5220668,
  "lon": 11.3344825
},
{
  "type": "node",
  "id": 1621344305,
  "lat": 44.5220963,
  "lon": 11.3342853
},
{
  "type": "node",
  "id": 1621344306,
  "lat": 44.5221126,
  "lon": 11.3341762
},
{
  "type": "node",
  "id": 1621344328,
  "lat": 44.5223496,
  "lon": 11.3343590
},
{
  "type": "node",
  "id": 1621344334,
  "lat": 44.5223646,
  "lon": 11.3342523
},
{
  "type": "node",
  "id": 1636992538,
  "lat": 44.4785498,
  "lon": 11.4029426
},
{
  "type": "node",
  "id": 1636992589,
  "lat": 44.4786236,
  "lon": 11.4027470
},
{
  "type": "node",
  "id": 1636992706,
  "lat": 44.4789018,
  "lon": 11.4031999
},
{
  "type": "node",
  "id": 1636992737,
  "lat": 44.4789758,
  "lon": 11.4030060
},
{
  "type": "node",
  "id": 1636907040,
  "lat": 44.4970640,
  "lon": 11.4279592
},
{
  "type": "node",
  "id": 1636907161,
  "lat": 44.4971253,
  "lon": 11.4277825
},
{
  "type": "node",
  "id": 1636907241,
  "lat": 44.4971627,
  "lon": 11.4280260
},
{
  "type": "node",
  "id": 1636907350,
  "lat": 44.4972240,
  "lon": 11.4278494
},
{
  "type": "node",
  "id": 1572651196,
  "lat": 44.6026720,
  "lon": 11.4156172
},
{
  "type": "node",
  "id": 1572651224,
  "lat": 44.6027923,
  "lon": 11.4153142
},
{
  "type": "node",
  "id": 1572651227,
  "lat": 44.6028343,
  "lon": 11.4156414
},
{
  "type": "node",
  "id": 1572651229,
  "lat": 44.6029107,
  "lon": 11.4160652
},
{
  "type": "node",
  "id": 1572651239,
  "lat": 44.6027044,
  "lon": 11.4155475
},
{
  "type": "node",
  "id": 1572651240,
  "lat": 44.6030501,
  "lon": 11.4157138
},
{
  "type": "node",
  "id": 1572651246,
  "lat": 44.6029508,
  "lon": 11.4161000
},
{
  "type": "node",
  "id": 1572651252,
  "lat": 44.6027923,
  "lon": 11.4157487
},
{
  "type": "node",
  "id": 1572651256,
  "lat": 44.6030998,
  "lon": 11.4155475
},
{
  "type": "node",
  "id": 1572651263,
  "lat": 44.6030902,
  "lon": 11.4157379
},
{
  "type": "node",
  "id": 1572651272,
  "lat": 44.6025708,
  "lon": 11.4159176
},
{
  "type": "node",
  "id": 1572651276,
  "lat": 44.6027274,
  "lon": 11.4155663
},
{
  "type": "node",
  "id": 1572651285,
  "lat": 44.6028782,
  "lon": 11.4161376
},
{
  "type": "node",
  "id": 1572651308,
  "lat": 44.6027866,
  "lon": 11.4156870
},
{
  "type": "way",
  "id": 153681548,
  "nodes": [
    1663121874,
    1663121849,
    1663121858,
    1663121884,
    1663121874
  ]
},
{
  "type": "way",
  "id": 153681550,
  "nodes": [
    1663121833,
    1663121845,
    1663121841,
    1663121869,
    1663121877,
    1663121897,
    1663121891,
    1663121902,
    1663121905,
    1663121909,
    1663121912,
    1663121911,
    6037623044,
    6037623045,
    6037623046,
    3826174300,
    6037623047,
    1663121910,
    1663121906,
    1663121903,
    1663121898,
    1663121893,
    1663121860,
    1663121865,
    1663121864,
    6037623040,
    6037623041,
    1663121856,
    6037623042,
    1663121842,
    6037623043,
    1663121834,
    1663121822,
    1663121815,
    1663121814,
    1663121811,
    1663121816,
    5088533591,
    1663121790,
    1663121791,
    1663121808,
    1663121810,
    1663121768,
    1663121766,
    1663121774,
    1663121773,
    1663121762,
    1663121764,
    1663121787,
    1663121776,
    1663121769,
    1663121770,
    1663121784,
    1663121788,
    1663121805,
    4518809503,
    1663121829,
    1663121821,
    1663121833
  ]
},
{
  "type": "way",
  "id": 77415112,
  "nodes": [
    911180885,
    1779711729,
    1779711726,
    1779711734,
    1779711710,
    1779711702,
    911180982,
    1779711698,
    1779711689,
    1779711694,
    1779711691,
    911180915,
    1779711677,
    911180952,
    4731745458,
    911188588,
    911180873,
    911180885
  ]
},
{
  "type": "way",
  "id": 166524661,
  "nodes": [
    1779711679,
    1779711692,
    1779711687,
    1779711675,
    1779711679
  ]
},
{
  "type": "way",
  "id": 148753534,
  "nodes": [
    1618202740,
    1618203286,
    1618203571,
    1618203517,
    1618203848,
    1618203767,
    1618203725,
    1618203100,
    1618203040,
    1618202736,
    1618203606,
    1618203889,
    1618203948,
    1618204067,
    1618204101,
    1618203799,
    1618202496,
    1618202732,
    1618202655,
    1618202740
  ]
},
{
  "type": "way",
  "id": 148753547,
  "nodes": [
    1618203110,
    1618203044,
    1618202954,
    1618202911,
    1618202881,
    1618202835,
    1618202799,
    1618202789,
    1618202764,
    1618202766,
    1618202793,
    1618202806,
    1618202869,
    1618202895,
    1618202979,
    1618203045,
    1618203131,
    1618203189,
    1618203282,
    1618203317,
    1618203370,
    1618203409,
    1618203422,
    1618203429,
    1618203420,
    1618203406,
    1618203362,
    1618203316,
    1618203263,
    1618203180,
    1618203110
  ]
},
{
  "type": "way",
  "id": 148833005,
  "nodes": [
    1618987260,
    1618987247,
    1618987273,
    1618987308,
    1618987260
  ]
},
{
  "type": "way",
  "id": 148833008,
  "nodes": [
    1618987249,
    1618987404,
    1618987351,
    1618987330,
    3325362910,
    1618987249
  ]
},
{
  "type": "way",
  "id": 407963403,
  "nodes": [
    4099853255,
    4099853256,
    4099853257,
    4099853258,
    4099853255
  ]
}

  ]
}
