{
  "version": 0.6,
  "generator": "Overpass API 0.7.55.9 ab41fea6",
  "osm3s": {
    "timestamp_osm_base": "2020-02-14T19:17:02Z",
    "copyright": "The data included in this document is from www.openstreetmap.org. The data is made available under ODbL."
  },
  "elements": [

{
  "type": "node",
  "id": 703837699,
  "lat": 35.0192268,
  "lon": 33.4233642,
  "tags": {
    "name": "Local Archaeological Museum of Ancient Idalion",
    "opening_hours": "Mo-Fr 08:30-16:00",
    "tourism": "museum"
  }
},
{
  "type": "node",
  "id": 1547483189,
  "lat": 34.9601256,
  "lon": 33.1714662,
  "tags": {
    "name": "Fikardou Rural Museum",
    "name:en": "Fikardou Rural Museum Музей под открытым небом.",
    "opening_hours": "08:00-16:00; Apr 1-Oct 31 off",
    "tourism": "museum"
  }
},
{
  "type": "node",
  "id": 2151133560,
  "lat": 35.3417159,
  "lon": 33.3226775,
  "tags": {
    "name": "Shipwreck museum",
    "name:de": "Schiffswrackmuseum",
    "tourism": "museum",
    "wikidata": "Q2234980",
    "wikipedia": "en:Kyrenia ship"
  }
},
{
  "type": "node",
  "id": 2334116037,
  "lat": 35.1075491,
  "lon": 33.4223003,
  "tags": {
    "name": "Folklor Museum",
    "tourism": "museum"
  }
},
{
  "type": "node",
  "id": 2375208415,
  "lat": 35.1706512,
  "lon": 33.3618260,
  "tags": {
    "name": "'Leventis' Municipal Museum of Nicosia",
    "opening_hours": "Tu-Su 10:00-16:30",
    "tourism": "museum",
    "wikidata": "Q6535231"
  }
},
{
  "type": "node",
  "id": 2400617240,
  "lat": 35.1819604,
  "lon": 33.3777152,
  "tags": {
    "name": "Zampellas",
    "opening_hours": "Mo-Fr 08:30-20:00",
    "operator": "Michael - Lucy Zampellas",
    "tourism": "museum"
  }
},
{
  "type": "node",
  "id": 2598559715,
  "lat": 35.1764028,
  "lon": 33.3585738,
  "tags": {
    "name": "Derviş Paşa Konağı",
    "name:en": "Dervish Pasha Mansion",
    "tourism": "museum",
    "wikidata": "Q21005832"
  }
},
{
  "type": "node",
  "id": 2598568683,
  "lat": 35.1718620,
  "lon": 33.3668470,
  "tags": {
    "name": "Hadjigeorgakis Kornesios Mansion",
    "tourism": "museum",
    "wikidata": "Q5637923",
    "wikipedia": "en:Hadjigeorgakis Kornesios Mansion"
  }
},
{
  "type": "node",
  "id": 2598587785,
  "lat": 35.1766497,
  "lon": 33.3656728,
  "tags": {
    "name": "Medieval Lapidary Museum",
    "tourism": "museum"
  }
},
{
  "type": "node",
  "id": 2598587788,
  "lat": 35.1763287,
  "lon": 33.3653757,
  "tags": {
    "name": "The Eaved House",
    "tourism": "museum"
  }
},
{
  "type": "node",
  "id": 4369751693,
  "lat": 35.1733667,
  "lon": 33.3675372,
  "tags": {
    "name": "Byzantine Museum",
    "opening_hours": "Mo-Fr 09:00-16:00",
    "tourism": "museum"
  }
},
{
  "type": "node",
  "id": 4535621394,
  "lat": 35.1933833,
  "lon": 33.3577907,
  "tags": {
    "addr:housenumber": "56",
    "addr:street": "Sehit Ecvet Yusuf Cad",
    "email": "info@cyprusem.com",
    "name": "Kibris Özel Etnografya Müzesi",
    "name:en": "Private Ethnographic Museum of Cyprus",
    "opening_hours": "Tu-Su 09:00-17:00",
    "operator": "Ergün Pektas",
    "phone": "+903922271785",
    "tourism": "museum",
    "website": "http://www.cyprusem.com"
  }
},
{
  "type": "node",
  "id": 4557557192,
  "lat": 35.1728208,
  "lon": 33.3583736,
  "tags": {
    "name:en": "Motorcycle Museum",
    "tourism": "museum",
    "website": "http://www.agrino.org/motormuseum"
  }
},
{
  "type": "node",
  "id": 4557557193,
  "lat": 35.1728193,
  "lon": 33.3623944,
  "tags": {
    "name:en": "Museum of the history of coinage",
    "name:ru": "Музей истории монет",
    "tourism": "museum"
  }
},
{
  "type": "node",
  "id": 4789949721,
  "lat": 35.1738522,
  "lon": 33.3667796,
  "tags": {
    "addr:housenumber": "19",
    "addr:street": "Apostolou Varnava",
    "name:en": "Nicosia Municipal Arts Centre",
    "tourism": "museum",
    "website": "http://www.nimac.org.cy"
  }
},
{
  "type": "node",
  "id": 5164836980,
  "lat": 35.1734566,
  "lon": 33.3679964,
  "tags": {
    "name": "The Cyprus Folk Art Museum",
    "opening_hours": "Mo 10:00-14:00; Tu-Fr 09:30-16:00; Sa 09:00-13:00",
    "tourism": "museum"
  }
},
{
  "type": "node",
  "id": 5169532000,
  "lat": 35.3418478,
  "lon": 33.3226828,
  "tags": {
    "name": "Archeological exhibition",
    "tourism": "museum"
  }
},
{
  "type": "node",
  "id": 5169540296,
  "lat": 35.3417580,
  "lon": 33.3218681,
  "tags": {
    "name": "A visual introduction exhibition",
    "tourism": "museum"
  }
},
{
  "type": "node",
  "id": 5203530025,
  "lat": 34.8805227,
  "lon": 33.4564980,
  "tags": {
    "internet_access": "wlan",
    "name:el": "Ktima demetriou",
    "tourism": "museum"
  }
},
{
  "type": "node",
  "id": 5293007436,
  "lat": 34.9408516,
  "lon": 33.1919690,
  "tags": {
    "name:ru": "Музей Монастырья",
    "tourism": "museum"
  }
},
{
  "type": "node",
  "id": 5304734921,
  "lat": 35.0635429,
  "lon": 33.5390440,
  "tags": {
    "name:ru": "Музей Kallinikeio",
    "tourism": "museum"
  }
},
{
  "type": "node",
  "id": 5948038962,
  "lat": 35.3415192,
  "lon": 33.3198345,
  "tags": {
    "name": "Cyprus Housr",
    "tourism": "museum"
  }
},
{
  "type": "node",
  "id": 6086719055,
  "lat": 35.1740580,
  "lon": 33.3680904,
  "tags": {
    "fee": "no",
    "name": "The National Struggle Museum",
    "opening_hours": "Mo-Fr 08:00-14:30",
    "tourism": "museum",
    "wheelchair": "yes"
  }
},
{
  "type": "node",
  "id": 6497700287,
  "lat": 34.8729461,
  "lon": 33.2935676,
  "tags": {
    "name:en": "Olive farm",
    "name:ru": "Оливковая ферма",
    "tourism": "museum",
    "website": "http://www.olivaterra.eu"
  }
},
{
  "type": "node",
  "id": 6549028486,
  "lat": 35.1808094,
  "lon": 33.3618923,
  "tags": {
    "name": "Mevleli Museum",
    "tourism": "museum"
  }
},
{
  "type": "node",
  "id": 6939601676,
  "lat": 35.1757898,
  "lon": 33.3687203,
  "tags": {
    "addr:housenumber": "285",
    "addr:street": "Ermou",
    "name:en": "Centre of Visual Arts & Research (CVAR)",
    "tourism": "museum"
  }
},
{
  "type": "way",
  "id": 102189355,
  "nodes": [
    1179377253,
    2147122935,
    2147122936,
    2147122928,
    2147122926,
    2147122925,
    1179377250,
    2320687991,
    2320687990,
    2320687989,
    2320687992,
    1179377255,
    1679960503,
    1179377262,
    1179377248,
    1179377249,
    1179377251,
    1179377260,
    2147122981,
    1179377253
  ],
  "tags": {
    "name": "Bellapais",
    "tourism": "museum"
  }
},
{
  "type": "way",
  "id": 187995127,
  "nodes": [
    1986224191,
    1986224186,
    1986224181,
    1986224183,
    1986224191
  ],
  "tags": {
    "building": "yes",
    "name": "Archeology and Nature Museum",
    "tourism": "museum"
  }
},
{
  "type": "way",
  "id": 255063675,
  "nodes": [
    2608126445,
    2608126454,
    2608126458,
    5941212400,
    5941212401,
    2608126448,
    33756367,
    2608126438,
    5941212293,
    2608126445
  ],
  "tags": {
    "building": "yes",
    "name": "Famagusta Gate",
    "name:ru": "Ворота Фамагусты",
    "tourism": "museum",
    "wikidata": "Q6046232"
  }
},
{
  "type": "way",
  "id": 331964706,
  "nodes": [
    3390681010,
    3390681002,
    3390680643,
    2362924906,
    3390681007,
    3390681010
  ],
  "tags": {
    "addr:housenumber": "1",
    "addr:street": "Mouseiou",
    "building": "yes",
    "name": "Κυπριακό Μουσείο",
    "name:de": "Zypernmuseum",
    "name:en": "Cyprus Museum",
    "name:es": "Museo de Chipre",
    "opening_hours": "Tu-Fr 08:00-18:00; Sa 09:00-17:00; Su 10:00-13:00",
    "tourism": "museum",
    "website": "http://www.mcw.gov.cy/mcw/da/da.nsf",
    "wikidata": "Q1148462"
  }
},
{
  "type": "way",
  "id": 435908852,
  "nodes": [
    4338033216,
    4338033217,
    4338033219,
    4338033220,
    4338033216
  ],
  "tags": {
    "building": "yes",
    "tourism": "museum"
  }
},
{
  "type": "way",
  "id": 505072518,
  "nodes": [
    4951065659,
    5126501936,
    4951065660,
    5126501935,
    4951065661,
    4951065662,
    4951065659
  ],
  "tags": {
    "name": "Cyprus Police Museum",
    "tourism": "museum",
    "wikidata": "Q2684047"
  }
},
{
  "type": "way",
  "id": 505072519,
  "nodes": [
    4951065663,
    4951065664,
    4951065665,
    4951065666,
    4951065663
  ],
  "tags": {
    "building": "yes",
    "name": "RIK Radio Museum",
    "tourism": "museum"
  }
},
{
  "type": "way",
  "id": 658189667,
  "nodes": [
    6163889035,
    6163889036,
    6163889037,
    6163889038,
    6163889035
  ],
  "tags": {
    "building": "yes",
    "tourism": "museum"
  }
},
{
  "type": "way",
  "id": 676391771,
  "nodes": [
    6334206081,
    6334206082,
    6334206083,
    6334206084,
    6334206081
  ],
  "tags": {
    "building": "yes",
    "name": "Barbarlık Müzesi",
    "tourism": "museum"
  }
},
{
  "type": "way",
  "id": 722874787,
  "nodes": [
    6780626589,
    6780626590,
    6780626595,
    6780626591,
    6780626593,
    6780626592,
    6780626589
  ],
  "tags": {
    "building": "no",
    "tourism": "museum"
  }
},
{
  "type": "node",
  "id": 1986224181,
  "lat": 35.2006439,
  "lon": 32.9907735
},
{
  "type": "node",
  "id": 1986224183,
  "lat": 35.2007124,
  "lon": 32.9905348
},
{
  "type": "node",
  "id": 1986224191,
  "lat": 35.2008290,
  "lon": 32.9905850
},
{
  "type": "node",
  "id": 1986224186,
  "lat": 35.2007605,
  "lon": 32.9908236
},
{
  "type": "node",
  "id": 6163889035,
  "lat": 35.2049758,
  "lon": 33.3246257
},
{
  "type": "node",
  "id": 6163889036,
  "lat": 35.2051319,
  "lon": 33.3248093
},
{
  "type": "node",
  "id": 6163889037,
  "lat": 35.2049796,
  "lon": 33.3250033
},
{
  "type": "node",
  "id": 6163889038,
  "lat": 35.2048235,
  "lon": 33.3248197
},
{
  "type": "node",
  "id": 4951065659,
  "lat": 35.1450783,
  "lon": 33.3741630
},
{
  "type": "node",
  "id": 4951065660,
  "lat": 35.1446269,
  "lon": 33.3741510
},
{
  "type": "node",
  "id": 4951065661,
  "lat": 35.1446858,
  "lon": 33.3744508
},
{
  "type": "node",
  "id": 4951065662,
  "lat": 35.1448426,
  "lon": 33.3744665
},
{
  "type": "node",
  "id": 5126501935,
  "lat": 35.1446006,
  "lon": 33.3742212
},
{
  "type": "node",
  "id": 5126501936,
  "lat": 35.1448298,
  "lon": 33.3741219
},
{
  "type": "node",
  "id": 4951065663,
  "lat": 35.1456209,
  "lon": 33.3818043
},
{
  "type": "node",
  "id": 4951065664,
  "lat": 35.1451433,
  "lon": 33.3818347
},
{
  "type": "node",
  "id": 4951065665,
  "lat": 35.1451433,
  "lon": 33.3821685
},
{
  "type": "node",
  "id": 4951065666,
  "lat": 35.1456457,
  "lon": 33.3821760
},
{
  "type": "node",
  "id": 2362924906,
  "lat": 35.1718239,
  "lon": 33.3561253
},
{
  "type": "node",
  "id": 3390680643,
  "lat": 35.1714650,
  "lon": 33.3559625
},
{
  "type": "node",
  "id": 3390681002,
  "lat": 35.1716414,
  "lon": 33.3553800
},
{
  "type": "node",
  "id": 3390681007,
  "lat": 35.1718292,
  "lon": 33.3561079
},
{
  "type": "node",
  "id": 3390681010,
  "lat": 35.1720004,
  "lon": 33.3555427
},
{
  "type": "node",
  "id": 2608126445,
  "lat": 35.1742393,
  "lon": 33.3709034
},
{
  "type": "node",
  "id": 5941212293,
  "lat": 35.1742307,
  "lon": 33.3709224
},
{
  "type": "node",
  "id": 6334206081,
  "lat": 35.1905711,
  "lon": 33.3491862
},
{
  "type": "node",
  "id": 6334206082,
  "lat": 35.1905042,
  "lon": 33.3492638
},
{
  "type": "node",
  "id": 6334206083,
  "lat": 35.1904520,
  "lon": 33.3491963
},
{
  "type": "node",
  "id": 6334206084,
  "lat": 35.1905188,
  "lon": 33.3491188
},
{
  "type": "node",
  "id": 33756367,
  "lat": 35.1741277,
  "lon": 33.3714073
},
{
  "type": "node",
  "id": 2608126438,
  "lat": 35.1740393,
  "lon": 33.3713478
},
{
  "type": "node",
  "id": 2608126448,
  "lat": 35.1742734,
  "lon": 33.3715055
},
{
  "type": "node",
  "id": 2608126454,
  "lat": 35.1743544,
  "lon": 33.3709809
},
{
  "type": "node",
  "id": 2608126458,
  "lat": 35.1744734,
  "lon": 33.3710611
},
{
  "type": "node",
  "id": 5941212400,
  "lat": 35.1744154,
  "lon": 33.3711900
},
{
  "type": "node",
  "id": 5941212401,
  "lat": 35.1743154,
  "lon": 33.3714123
},
{
  "type": "node",
  "id": 6780626589,
  "lat": 35.3438612,
  "lon": 33.2405048
},
{
  "type": "node",
  "id": 6780626590,
  "lat": 35.3435058,
  "lon": 33.2421911
},
{
  "type": "node",
  "id": 6780626591,
  "lat": 35.3443446,
  "lon": 33.2425091
},
{
  "type": "node",
  "id": 6780626592,
  "lat": 35.3446005,
  "lon": 33.2407532
},
{
  "type": "node",
  "id": 6780626593,
  "lat": 35.3443896,
  "lon": 33.2419919
},
{
  "type": "node",
  "id": 6780626595,
  "lat": 35.3438064,
  "lon": 33.2423180
},
{
  "type": "node",
  "id": 4338033219,
  "lat": 35.3401126,
  "lon": 33.3255745
},
{
  "type": "node",
  "id": 4338033220,
  "lat": 35.3402037,
  "lon": 33.3252175
},
{
  "type": "node",
  "id": 4338033216,
  "lat": 35.3408631,
  "lon": 33.3254703
},
{
  "type": "node",
  "id": 4338033217,
  "lat": 35.3407721,
  "lon": 33.3258272
},
{
  "type": "node",
  "id": 1179377250,
  "lat": 35.3070682,
  "lon": 33.3552824
},
{
  "type": "node",
  "id": 1179377253,
  "lat": 35.3075318,
  "lon": 33.3553355
},
{
  "type": "node",
  "id": 1179377255,
  "lat": 35.3070816,
  "lon": 33.3556653
},
{
  "type": "node",
  "id": 1179377262,
  "lat": 35.3072189,
  "lon": 33.3557987
},
{
  "type": "node",
  "id": 1679960503,
  "lat": 35.3072206,
  "lon": 33.3556623
},
{
  "type": "node",
  "id": 2147122925,
  "lat": 35.3072353,
  "lon": 33.3552971
},
{
  "type": "node",
  "id": 2147122926,
  "lat": 35.3072365,
  "lon": 33.3551931
},
{
  "type": "node",
  "id": 2147122928,
  "lat": 35.3072594,
  "lon": 33.3551943
},
{
  "type": "node",
  "id": 2147122935,
  "lat": 35.3072920,
  "lon": 33.3553312
},
{
  "type": "node",
  "id": 2147122936,
  "lat": 35.3072929,
  "lon": 33.3552569
},
{
  "type": "node",
  "id": 2147122981,
  "lat": 35.3075326,
  "lon": 33.3552744
},
{
  "type": "node",
  "id": 2320687989,
  "lat": 35.3070527,
  "lon": 33.3555924
},
{
  "type": "node",
  "id": 2320687990,
  "lat": 35.3070533,
  "lon": 33.3555071
},
{
  "type": "node",
  "id": 2320687991,
  "lat": 35.3070693,
  "lon": 33.3555017
},
{
  "type": "node",
  "id": 2320687992,
  "lat": 35.3070865,
  "lon": 33.3555940
},
{
  "type": "node",
  "id": 1179377248,
  "lat": 35.3075368,
  "lon": 33.3558045
},
{
  "type": "node",
  "id": 1179377249,
  "lat": 35.3075388,
  "lon": 33.3556425
},
{
  "type": "node",
  "id": 1179377251,
  "lat": 35.3076322,
  "lon": 33.3556442
},
{
  "type": "node",
  "id": 1179377260,
  "lat": 35.3076367,
  "lon": 33.3552763
}

  ]
}
