{
  "version": 0.6,
  "generator": "Overpass API 0.7.55.9 ab41fea6",
  "osm3s": {
    "timestamp_osm_base": "2020-02-14T19:09:02Z",
    "copyright": "The data included in this document is from www.openstreetmap.org. The data is made available under ODbL."
  },
  "elements": [

{
  "type": "node",
  "id": 420258946,
  "lat": 42.1499967,
  "lon": 24.7530307,
  "tags": {
    "importance": "Bulgarian 100",
    "name": "Етнографски музей",
    "name:en": "Ethnographic Museum",
    "name:pl": "Muzeum Etnograficzne",
    "name:zh": "人种学博物馆",
    "opening_hours": "Mo-Su 09:00-18:00",
    "tourism": "museum"
  }
},
{
  "type": "node",
  "id": 2151740079,
  "lat": 42.1497595,
  "lon": 24.7533577,
  "tags": {
    "name": "Исторически музей \"Възраждане\"",
    "tourism": "museum"
  }
},
{
  "type": "node",
  "id": 2152916113,
  "lat": 42.1484810,
  "lon": 24.7528428,
  "tags": {
    "name": "Мавлеви хане",
    "tourism": "museum"
  }
},
{
  "type": "node",
  "id": 2152916114,
  "lat": 42.1489567,
  "lon": 24.7522485,
  "tags": {
    "name": "аптека Хипократ",
    "tourism": "museum"
  }
},
{
  "type": "node",
  "id": 2152916118,
  "lat": 42.1473131,
  "lon": 24.7526252,
  "tags": {
    "name": "музей Ламартин",
    "name:en": "Lamartine's Museum",
    "name:pl": "Muzeum Lamartine",
    "tourism": "museum"
  }
},
{
  "type": "node",
  "id": 4490578390,
  "lat": 42.1516807,
  "lon": 24.7451283,
  "tags": {
    "name:en": "Archeological Museum",
    "name:pl": "Muzeum Archeologiczne",
    "tourism": "museum"
  }
},
{
  "type": "node",
  "id": 5282118375,
  "lat": 42.1491120,
  "lon": 24.7428169,
  "tags": {
    "name": "Природонаучен музей - Пловдив",
    "name:pl": "Muzeum Przyrodnicze",
    "opening_hours": "Tu-Su 08:00-17:00;Sa 08:00-12:00",
    "tourism": "museum",
    "website": "http://rnhm.org/"
  }
},
{
  "type": "node",
  "id": 5625002922,
  "lat": 42.1505900,
  "lon": 24.7523670,
  "tags": {
    "addr:housenumber": "5A",
    "addr:postcode": "4000",
    "addr:street": "Д-р Стоян Чомаков",
    "email": "redpony_gallery@abv.bg",
    "name": "Червеното пони",
    "name:en": "Red pony",
    "phone": "00359 888262615",
    "tourism": "museum",
    "website": "http://www.redpony-bg.com"
  }
},
{
  "type": "node",
  "id": 6669995689,
  "lat": 42.0549095,
  "lon": 24.5454771,
  "tags": {
    "name": "Дановото училище",
    "tourism": "museum"
  }
},
{
  "type": "way",
  "id": 98818601,
  "nodes": [
    1143024429,
    1143024178,
    1994264121,
    1143024266,
    1994264125,
    1994264122,
    1994264120,
    1143024194,
    1143024429
  ],
  "tags": {
    "building": "yes",
    "name": "Исторически музей - Пловдив",
    "opening_hours": "Tu-Su 08:00-17:00;Sa 08:00-12:00",
    "tourism": "museum",
    "wheelchair": "yes"
  }
},
{
  "type": "way",
  "id": 103842858,
  "nodes": [
    1198752129,
    1198752254,
    1198752211,
    1198752166,
    5699677869,
    1198752129
  ],
  "tags": {
    "building": "yes",
    "importance": "Bulgarian 100",
    "name": "Исторически музей",
    "name:en": "Perushtitsa — Museum of History",
    "tourism": "museum"
  }
},
{
  "type": "way",
  "id": 145774622,
  "nodes": [
    1591221817,
    4877968000,
    1591221821,
    4877968001,
    4877968002,
    4877968003,
    4877968004,
    4877968005,
    4877967999,
    1591221830,
    4877955349,
    4877955348,
    4877955347,
    4877955339,
    4877955340,
    4877955341,
    4877955342,
    4877955346,
    4877955345,
    4877955343,
    4877955344,
    1591221825,
    1591221817
  ],
  "tags": {
    "addr:street": "бул. Княгиня Мария Луиза",
    "description": "During the construction of an apartment block in Plovdiv in 1988, the ruins of an early Christian church from the middle of the 5th-the end of the 6th centuries were accidentally discovered. The floor of the church was covered with geometrical mosaics.",
    "historic": "archaeological_site",
    "historic:civilization": "ancient_roman",
    "name": "Малката базилика",
    "name:bg": "Малката базилика",
    "name:en": "Small Basilica",
    "tourism": "museum",
    "website": "http://www.romanplovdiv.org",
    "wikidata": "Q16744679"
  }
},
{
  "type": "way",
  "id": 191969950,
  "nodes": [
    2025308692,
    2025308694,
    2025308696,
    2025308693,
    2025308691,
    2025308695,
    2025308690,
    2025308689,
    2025308692
  ],
  "tags": {
    "amenity": "arts_centre",
    "building": "yes",
    "name": "Градска художествена галерия",
    "name:pl": "Miejska galeria sztuki",
    "tourism": "museum"
  }
},
{
  "type": "way",
  "id": 205197311,
  "nodes": [
    2151740067,
    2151740058,
    2151740053,
    2151740062,
    2151740067
  ],
  "tags": {
    "building": "yes",
    "name": "Балабанова къща",
    "tourism": "museum"
  }
},
{
  "type": "way",
  "id": 205197312,
  "nodes": [
    2151740075,
    2151740071,
    2151740072,
    4571565743,
    2151740073,
    4933951787,
    4933951786,
    2151740078,
    2151740075
  ],
  "tags": {
    "building": "yes",
    "craft": "handicraft",
    "name": "Бакалова къща",
    "tourism": "museum"
  }
},
{
  "type": "way",
  "id": 205197318,
  "nodes": [
    2151740055,
    2151740044,
    2151740038,
    4829025003,
    2151740048,
    2151740055
  ],
  "tags": {
    "building": "yes",
    "name": "къща Георгиади",
    "tourism": "museum"
  }
},
{
  "type": "way",
  "id": 205197319,
  "nodes": [
    2151740068,
    2151740065,
    2151740066,
    2151740064,
    2151740063,
    2151740061,
    2151740046,
    2151740052,
    4571565725,
    2151740054,
    2151740057,
    2151740068
  ],
  "tags": {
    "building": "yes",
    "name": "къща Куюмджиоглу",
    "tourism": "museum"
  }
},
{
  "type": "way",
  "id": 205197320,
  "nodes": [
    2151740056,
    2151740042,
    2151740040,
    2151740051,
    2151740056
  ],
  "tags": {
    "addr:housenumber": "3",
    "addr:street": "Цанко Лавренов",
    "building": "yes",
    "name": "къща Недкович",
    "tourism": "museum"
  }
},
{
  "type": "way",
  "id": 205197321,
  "nodes": [
    2151740059,
    2151740049,
    2151740050,
    2151740060,
    2151740059
  ],
  "tags": {
    "building": "yes",
    "name": "къща Хиндлиян",
    "tourism": "museum"
  }
},
{
  "type": "way",
  "id": 205238988,
  "nodes": [
    2152143489,
    2152143497,
    2152143493,
    2152143487,
    2152143489
  ],
  "tags": {
    "addr:street": "Баделема",
    "building": "public",
    "name": "Палеонтологически музей",
    "name:pl": "Muzeum Paleontologiczne",
    "opening_hours": "Tu-Fr 09:00-17:00; Sa 09:-16:00",
    "phone": "+359 331 63 736",
    "tourism": "museum",
    "website": "http://www.nmnhs.com/palaeontological-museum-in-asenovgrad-bg.html",
    "website_1": "http://asmuseum-bg.com/",
    "wikipedia": "bg:Палеонтологичен_музей_(Асеновград)"
  }
},
{
  "type": "way",
  "id": 205315223,
  "nodes": [
    2152915960,
    2152915947,
    2152915941,
    2152915956,
    2152915960
  ],
  "tags": {
    "addr:housenumber": "16",
    "addr:street": "Съборна",
    "building": "yes",
    "name": "Къща д-р Сотир Антониади",
    "tourism": "museum"
  }
},
{
  "type": "way",
  "id": 205315240,
  "nodes": [
    2152915904,
    2152915897,
    2152915882,
    2152915894,
    2152915904
  ],
  "tags": {
    "building": "yes",
    "name": "Читалище Възраждане",
    "tourism": "museum"
  }
},
{
  "type": "way",
  "id": 205315241,
  "nodes": [
    2152916088,
    2152916081,
    2152916073,
    2152916074,
    2152916082,
    2152916085,
    2152916088
  ],
  "tags": {
    "name": "къша Артин Гидиков",
    "tourism": "museum"
  }
},
{
  "type": "way",
  "id": 205315242,
  "nodes": [
    2152915840,
    2152915853,
    2152915848,
    2152915837,
    2152915840
  ],
  "tags": {
    "addr:housenumber": "2",
    "addr:postcode": "4000",
    "addr:street": "ул. \"Митрополит Паисий\"",
    "building": "public",
    "building:levels": "4",
    "email": "hm_plovdiv@mail.bg",
    "importance": "Bulgarian 100",
    "name": "къща Хр. Г. Данов",
    "name:bg": "Регионален Исторически Музей Пловдив",
    "name:en": "History museum of Plovdiv",
    "name:ru": "Региональный Исторический Музей Пловдива",
    "opening_hours": "Mo-Sa 09:00-18:00",
    "phone": "+35932629405",
    "tourism": "museum",
    "website": "http://historymuseumplivdiv.org"
  }
},
{
  "type": "way",
  "id": 205315243,
  "nodes": [
    2152915962,
    2152915970,
    2152915969,
    2152915976,
    2152915975,
    2152915979,
    2152915978,
    2152915966,
    2152915965,
    2152915961,
    2152915962
  ],
  "tags": {
    "building": "yes",
    "name": "къша д-р Страшимиров",
    "tourism": "museum"
  }
},
{
  "type": "way",
  "id": 205315244,
  "nodes": [
    2152915823,
    2152915818,
    2152915820,
    2152915826,
    2152915823
  ],
  "tags": {
    "building": "public",
    "name": "къща Андрей Георгиади",
    "tourism": "museum"
  }
},
{
  "type": "way",
  "id": 205315245,
  "nodes": [
    2152916077,
    2152916072,
    4933951783,
    4933951782,
    4571565777,
    4571565778,
    4571565779,
    4571565780,
    2152916067,
    2152916075,
    2152916077
  ],
  "tags": {
    "building": "yes",
    "name": "къща Атанас Кръстев",
    "tourism": "museum"
  }
},
{
  "type": "way",
  "id": 205315246,
  "nodes": [
    2152915950,
    2152915944,
    2152915945,
    2152915927,
    2152915926,
    2152915919,
    2152915917,
    2152915925,
    2152915924,
    2152915938,
    2152915939,
    2152915948,
    2152915950
  ],
  "tags": {
    "building": "yes",
    "name": "къща Верен Стамболян",
    "tourism": "museum"
  }
},
{
  "type": "way",
  "id": 205315247,
  "nodes": [
    2152915997,
    2152915987,
    2152915985,
    2152915977,
    2152915972,
    2152915984,
    2152915994,
    2152915997
  ],
  "tags": {
    "addr:city": "Пловдив",
    "addr:housenumber": "2",
    "addr:street": "Архитект Христо Пеев",
    "alt_name": "къща Георги Данчов",
    "building": "yes",
    "name": "Данчовата къща",
    "tourism": "museum"
  }
},
{
  "type": "way",
  "id": 205315248,
  "nodes": [
    2152915993,
    2152915983,
    2152915981,
    2152915971,
    2152915967,
    2152915986,
    2152915988,
    2152915991,
    2152915993
  ],
  "tags": {
    "building": "yes",
    "name": "къща Георги Павлити",
    "tourism": "museum"
  }
},
{
  "type": "way",
  "id": 205315250,
  "nodes": [
    4171384321,
    2152916027,
    2152916032,
    4171384322,
    4171384321
  ],
  "tags": {
    "building": "yes",
    "name": "къща Иван Фурнаджиев",
    "tourism": "museum"
  }
},
{
  "type": "way",
  "id": 205315251,
  "nodes": [
    2152915920,
    2152915911,
    2152915922,
    2152915935,
    2152915923,
    2152915929,
    2152915920
  ],
  "tags": {
    "building": "yes",
    "name": "къща Костадин Кафтанджията",
    "tourism": "museum"
  }
},
{
  "type": "way",
  "id": 205315252,
  "nodes": [
    2152916068,
    2152916058,
    2219181177,
    2219181188,
    2219181183,
    2219181172,
    2152916059,
    2152916070,
    2152916068
  ],
  "tags": {
    "addr:city": "Пловдив",
    "addr:postcode": "4000",
    "addr:street": "Артин Гидиков",
    "building": "yes",
    "name": "къща Крикор Месробович",
    "tourism": "museum"
  }
},
{
  "type": "way",
  "id": 205315253,
  "nodes": [
    2152915827,
    2152915821,
    2152915819,
    2152915824,
    2152915827
  ],
  "tags": {
    "building": "public",
    "name": "къща Мавриди",
    "tourism": "museum"
  }
},
{
  "type": "way",
  "id": 205315254,
  "nodes": [
    2152915880,
    2152915881,
    2152915873,
    2152915874,
    2152915867,
    2152915866,
    2152915869,
    2152915868,
    2152915880
  ],
  "tags": {
    "building": "yes",
    "name": "къща Недялко Немски",
    "tourism": "museum"
  }
},
{
  "type": "way",
  "id": 205315255,
  "nodes": [
    2152916060,
    2152916054,
    2152916053,
    4025225267,
    2152916056,
    2152916057,
    2152916060
  ],
  "tags": {
    "building": "yes",
    "name": "къща Ованес Степанян",
    "tourism": "museum"
  }
},
{
  "type": "way",
  "id": 205315256,
  "nodes": [
    2152915963,
    2152915957,
    2152915959,
    2152915955,
    2152915952,
    2152915946,
    2152915933,
    2152915942,
    2152915930,
    2152915953,
    2152915963
  ],
  "tags": {
    "building": "yes",
    "name": "къща Филипос Хишанян",
    "tourism": "museum"
  }
},
{
  "type": "way",
  "id": 205315257,
  "nodes": [
    2152915995,
    2152915968,
    2152915964,
    2152915989,
    2152915995
  ],
  "tags": {
    "addr:housenumber": "18",
    "addr:street": "Съборна",
    "building": "yes",
    "name": "Къща д-р Стоян Чомаков",
    "tourism": "museum"
  }
},
{
  "type": "way",
  "id": 205315258,
  "nodes": [
    2152916043,
    2152916031,
    4571565697,
    2152916030,
    2152916044,
    2152916045,
    2152916042,
    2152916043
  ],
  "tags": {
    "building": "yes",
    "name": "къща х. Власаки Чохаджията",
    "tourism": "museum"
  }
},
{
  "type": "way",
  "id": 205315259,
  "nodes": [
    2152915937,
    2152915912,
    2152915907,
    2152915928,
    2152915931,
    2152915936,
    2152915943,
    2152915934,
    2152915937
  ],
  "tags": {
    "building": "yes",
    "name": "къща х. Драган - Калофереца",
    "tourism": "museum"
  }
},
{
  "type": "way",
  "id": 212012153,
  "nodes": [
    2219199550,
    2219199549,
    2219199546,
    2219199548,
    2219199551,
    2219199529,
    2219199553,
    2219199555,
    2219199550
  ],
  "tags": {
    "building": "yes",
    "name": "Постоянна изложба Енчо Пиронков",
    "tourism": "museum"
  }
},
{
  "type": "way",
  "id": 238833980,
  "nodes": [
    2466335740,
    2466335738,
    2466335741,
    2466335742,
    2466335743,
    2466335744,
    2466335745,
    2466335746,
    2466335747,
    2466335748,
    2466335740
  ],
  "tags": {
    "building": "yes",
    "tourism": "museum"
  }
},
{
  "type": "way",
  "id": 274106691,
  "nodes": [
    2788828711,
    2788828715,
    2788828632,
    2788828599,
    2788828683,
    2788828690,
    2788828711
  ],
  "tags": {
    "building": "yes",
    "importance": "Bulgarian 100",
    "name": "Исторически музей",
    "name:en": "Town Museum of History",
    "tourism": "museum"
  }
},
{
  "type": "way",
  "id": 280402897,
  "nodes": [
    2845180002,
    2845179735,
    2845179764,
    2845179797,
    2845180002
  ],
  "tags": {
    "building": "public",
    "image": "http://commons.wikimedia.org/wiki/File:Museun_Asenova_fortress.jpg",
    "tourism": "museum"
  }
},
{
  "type": "way",
  "id": 313311222,
  "nodes": [
    3192212968,
    3192212971,
    3192212972,
    3192212976,
    3192212975,
    3192212977,
    3192212974,
    3192212973,
    3192212970,
    3192212969,
    3192212967,
    3192212966,
    3192212965,
    3192212963,
    3192212964,
    3192212962,
    4829025012,
    3192212968
  ],
  "tags": {
    "building": "yes",
    "name": "къща д-р Бирдас",
    "name:bg": "къща д-р Бирдас",
    "tourism": "museum"
  }
},
{
  "type": "way",
  "id": 313311223,
  "nodes": [
    3192212985,
    3192212981,
    3192212978,
    4025225229,
    3192212983,
    3192212985
  ],
  "tags": {
    "building": "yes",
    "name": "къща Черноземски",
    "tourism": "museum"
  }
},
{
  "type": "way",
  "id": 313311224,
  "nodes": [
    3192211559,
    3192211558,
    3192211560,
    3192212961,
    4829025721,
    3192211559
  ],
  "tags": {
    "building": "public",
    "name": "Къща Клианти",
    "name:en": "Klianti House",
    "tourism": "museum"
  }
},
{
  "type": "way",
  "id": 378627103,
  "nodes": [
    420258865,
    4933951775,
    4933951774,
    4933951779,
    4933951778,
    4933951777,
    420258865
  ],
  "tags": {
    "historic": "archaeological_site",
    "historic:civilization": "ancient_roman",
    "name": "Римски стадион",
    "name:en": "Roman stadium",
    "tourism": "museum",
    "wheelchair": "limited"
  }
},
{
  "type": "way",
  "id": 397586253,
  "nodes": [
    4003736083,
    4003736080,
    4003736077,
    4003736079,
    4003736083
  ],
  "tags": {
    "building": "public",
    "importance": "Bulgarian 100",
    "name": "Исторически музей",
    "name:en": "Museum of History",
    "tourism": "museum"
  }
},
{
  "type": "way",
  "id": 413092450,
  "nodes": [
    4144208023,
    4144208022,
    5533444026,
    5533442562,
    4144208019,
    4144208018,
    5533444089,
    5533444260,
    4144208023
  ],
  "tags": {
    "building": "public",
    "name": "Етнографски музей",
    "tourism": "museum"
  }
},
{
  "type": "way",
  "id": 416383932,
  "nodes": [
    2152916097,
    4171384466,
    4171384469,
    4933951792,
    2152916100,
    2152916097
  ],
  "tags": {
    "building": "yes",
    "name": "Баятова къща",
    "tourism": "museum"
  }
},
{
  "type": "way",
  "id": 443147419,
  "nodes": [
    4407783134,
    4407783129,
    4407783131,
    4407783125,
    4407783133,
    4407783147,
    4407783141,
    4407783136,
    4407783134
  ],
  "tags": {
    "addr:city": "Пловдив",
    "addr:housename": "Антовата къща",
    "addr:housenumber": "23",
    "addr:street": "Княз Церетелев",
    "building": "public",
    "name": "Антовата къща",
    "tourism": "museum"
  }
},
{
  "type": "way",
  "id": 598941686,
  "nodes": [
    5699677861,
    5699677862,
    5699677863,
    5699677864,
    5699677865,
    5699677866,
    5699677867,
    5699677868,
    5699677861
  ],
  "tags": {
    "building": "yes",
    "name": "Взаимно училище",
    "tourism": "museum"
  }
},
{
  "type": "way",
  "id": 720168982,
  "nodes": [
    4497927056,
    4498022838,
    4498022840,
    6759587274,
    6759587273,
    4498022852,
    6759587272,
    3809168056,
    6759123311,
    6759123298,
    6759589323,
    3809168494,
    6759123299,
    6759589324,
    6759123300,
    4497927056
  ],
  "tags": {
    "name": "Музей на открито „Малтепе”",
    "tourism": "museum"
  }
},
{
  "type": "way",
  "id": 720218893,
  "nodes": [
    6759587275,
    6759589285,
    6759587276,
    6759587277,
    6759587278,
    6759587279,
    6759587284,
    6759587280,
    6759587281,
    6759587282,
    6759589286,
    6759587275
  ],
  "tags": {
    "building": "yes",
    "description": "Експозиционен център; Информационен център; Учебна археология (с керамична пещ); Конфернтна зала; Заседателна зала; Кафе; WC; Технически помещения; Склад.",
    "name": "Музей",
    "tourism": "museum"
  }
},
{
  "type": "relation",
  "id": 2167099,
  "members": [
    {
      "type": "way",
      "ref": 102138820,
      "role": "outer"
    },
    {
      "type": "way",
      "ref": 161815435,
      "role": "inner"
    }
  ],
  "tags": {
    "building": "yes",
    "importance": "Bulgarian 100",
    "name": "Регионален исторически музей",
    "tourism": "museum",
    "type": "multipolygon",
    "wikidata": "Q7156965",
    "wikipedia": "en:Pazardzhik Regional Museum of History"
  }
},
{
  "type": "relation",
  "id": 6485456,
  "members": [
    {
      "type": "way",
      "ref": 204983663,
      "role": "outer"
    },
    {
      "type": "way",
      "ref": 436838163,
      "role": "outer"
    }
  ],
  "tags": {
    "addr:postcode": "4112",
    "name": "Музей на Авиацията",
    "name:de": "Bulgarisches Luftfahrtmuseum",
    "phone": "+359 32/63 66 77",
    "tourism": "museum",
    "type": "multipolygon",
    "website": "http://www.airmuseum-bg.com",
    "wikidata": "Q1004006",
    "wikipedia": "de:Bulgarisches Luftfahrtmuseum"
  }
},
{
  "type": "node",
  "id": 2788828599,
  "lat": 42.0228074,
  "lon": 24.3742751
},
{
  "type": "node",
  "id": 2788828632,
  "lat": 42.0228148,
  "lon": 24.3747576
},
{
  "type": "node",
  "id": 2788828683,
  "lat": 42.0229102,
  "lon": 24.3742722
},
{
  "type": "node",
  "id": 2788828690,
  "lat": 42.0229118,
  "lon": 24.3743772
},
{
  "type": "node",
  "id": 2788828711,
  "lat": 42.0229659,
  "lon": 24.3743757
},
{
  "type": "node",
  "id": 2788828715,
  "lat": 42.0229717,
  "lon": 24.3747532
},
{
  "type": "node",
  "id": 1198752129,
  "lat": 42.0557360,
  "lon": 24.5454652
},
{
  "type": "node",
  "id": 1198752166,
  "lat": 42.0555515,
  "lon": 24.5454436
},
{
  "type": "node",
  "id": 1198752211,
  "lat": 42.0555365,
  "lon": 24.5456756
},
{
  "type": "node",
  "id": 1198752254,
  "lat": 42.0557210,
  "lon": 24.5456972
},
{
  "type": "node",
  "id": 5699677861,
  "lat": 42.0551328,
  "lon": 24.5455234
},
{
  "type": "node",
  "id": 5699677862,
  "lat": 42.0551255,
  "lon": 24.5456587
},
{
  "type": "node",
  "id": 5699677863,
  "lat": 42.0549717,
  "lon": 24.5456436
},
{
  "type": "node",
  "id": 5699677864,
  "lat": 42.0549790,
  "lon": 24.5455080
},
{
  "type": "node",
  "id": 5699677865,
  "lat": 42.0550285,
  "lon": 24.5455128
},
{
  "type": "node",
  "id": 5699677866,
  "lat": 42.0550306,
  "lon": 24.5454744
},
{
  "type": "node",
  "id": 5699677867,
  "lat": 42.0550880,
  "lon": 24.5454800
},
{
  "type": "node",
  "id": 5699677868,
  "lat": 42.0550859,
  "lon": 24.5455188
},
{
  "type": "node",
  "id": 5699677869,
  "lat": 42.0556437,
  "lon": 24.5454544
},
{
  "type": "node",
  "id": 1143024178,
  "lat": 42.1519014,
  "lon": 24.7452143
},
{
  "type": "node",
  "id": 1143024194,
  "lat": 42.1511953,
  "lon": 24.7451497
},
{
  "type": "node",
  "id": 1143024266,
  "lat": 42.1517270,
  "lon": 24.7453484
},
{
  "type": "node",
  "id": 1143024429,
  "lat": 42.1517882,
  "lon": 24.7448378
},
{
  "type": "node",
  "id": 1994264120,
  "lat": 42.1512657,
  "lon": 24.7453803
},
{
  "type": "node",
  "id": 1994264121,
  "lat": 42.1517144,
  "lon": 24.7453132
},
{
  "type": "node",
  "id": 1994264122,
  "lat": 42.1513468,
  "lon": 24.7453367
},
{
  "type": "node",
  "id": 1994264125,
  "lat": 42.1514083,
  "lon": 24.7455282
},
{
  "type": "node",
  "id": 1178841584,
  "lat": 42.1904825,
  "lon": 24.3324494
},
{
  "type": "node",
  "id": 1178841587,
  "lat": 42.1904981,
  "lon": 24.3324946
},
{
  "type": "node",
  "id": 1178841588,
  "lat": 42.1904233,
  "lon": 24.3324487
},
{
  "type": "node",
  "id": 1178841591,
  "lat": 42.1909458,
  "lon": 24.3328880
},
{
  "type": "node",
  "id": 1178841607,
  "lat": 42.1904823,
  "lon": 24.3324945
},
{
  "type": "node",
  "id": 1178841611,
  "lat": 42.1904956,
  "lon": 24.3328828
},
{
  "type": "node",
  "id": 1178841614,
  "lat": 42.1904241,
  "lon": 24.3323154
},
{
  "type": "node",
  "id": 1178841622,
  "lat": 42.1909460,
  "lon": 24.3323215
},
{
  "type": "node",
  "id": 1737707450,
  "lat": 42.1906882,
  "lon": 24.3326708
},
{
  "type": "node",
  "id": 1737707453,
  "lat": 42.1906894,
  "lon": 24.3324928
},
{
  "type": "node",
  "id": 1737707456,
  "lat": 42.1908237,
  "lon": 24.3326724
},
{
  "type": "node",
  "id": 1737707458,
  "lat": 42.1908248,
  "lon": 24.3324944
},
{
  "type": "node",
  "id": 1737707461,
  "lat": 42.1909494,
  "lon": 24.3323215
},
{
  "type": "node",
  "id": 7015255328,
  "lat": 42.1906927,
  "lon": 24.3323185
},
{
  "type": "node",
  "id": 2845179735,
  "lat": 41.9865069,
  "lon": 24.8727485
},
{
  "type": "node",
  "id": 2845179764,
  "lat": 41.9864222,
  "lon": 24.8727936
},
{
  "type": "node",
  "id": 2845179797,
  "lat": 41.9863959,
  "lon": 24.8727040
},
{
  "type": "node",
  "id": 2845180002,
  "lat": 41.9864806,
  "lon": 24.8726589
},
{
  "type": "node",
  "id": 4144208018,
  "lat": 42.0035857,
  "lon": 24.8714300
},
{
  "type": "node",
  "id": 4144208019,
  "lat": 42.0035968,
  "lon": 24.8716457
},
{
  "type": "node",
  "id": 4144208022,
  "lat": 42.0038167,
  "lon": 24.8715742
},
{
  "type": "node",
  "id": 4144208023,
  "lat": 42.0038100,
  "lon": 24.8714455
},
{
  "type": "node",
  "id": 5533442562,
  "lat": 42.0036690,
  "lon": 24.8716390
},
{
  "type": "node",
  "id": 5533444026,
  "lat": 42.0036664,
  "lon": 24.8715882
},
{
  "type": "node",
  "id": 5533444089,
  "lat": 42.0037041,
  "lon": 24.8714190
},
{
  "type": "node",
  "id": 5533444260,
  "lat": 42.0037059,
  "lon": 24.8714552
},
{
  "type": "node",
  "id": 4003736077,
  "lat": 42.0063992,
  "lon": 24.8745628
},
{
  "type": "node",
  "id": 4003736079,
  "lat": 42.0064977,
  "lon": 24.8743051
},
{
  "type": "node",
  "id": 4003736080,
  "lat": 42.0065361,
  "lon": 24.8746576
},
{
  "type": "node",
  "id": 4003736083,
  "lat": 42.0066346,
  "lon": 24.8743999
},
{
  "type": "node",
  "id": 2152143487,
  "lat": 42.0080698,
  "lon": 24.8806047
},
{
  "type": "node",
  "id": 2152143489,
  "lat": 42.0081112,
  "lon": 24.8802235
},
{
  "type": "node",
  "id": 2152143493,
  "lat": 42.0082215,
  "lon": 24.8806346
},
{
  "type": "node",
  "id": 2152143497,
  "lat": 42.0082629,
  "lon": 24.8802534
},
{
  "type": "node",
  "id": 2149622768,
  "lat": 42.0664366,
  "lon": 24.8405245
},
{
  "type": "node",
  "id": 2149622770,
  "lat": 42.0665297,
  "lon": 24.8406808
},
{
  "type": "node",
  "id": 2149622773,
  "lat": 42.0665984,
  "lon": 24.8406885
},
{
  "type": "node",
  "id": 2149622775,
  "lat": 42.0666210,
  "lon": 24.8403451
},
{
  "type": "node",
  "id": 2149622777,
  "lat": 42.0666514,
  "lon": 24.8403182
},
{
  "type": "node",
  "id": 2149622778,
  "lat": 42.0667301,
  "lon": 24.8418457
},
{
  "type": "node",
  "id": 2149622780,
  "lat": 42.0667316,
  "lon": 24.8405747
},
{
  "type": "node",
  "id": 2149622782,
  "lat": 42.0667530,
  "lon": 24.8404358
},
{
  "type": "node",
  "id": 2149622783,
  "lat": 42.0667640,
  "lon": 24.8406127
},
{
  "type": "node",
  "id": 2149622786,
  "lat": 42.0667831,
  "lon": 24.8406345
},
{
  "type": "node",
  "id": 2149622787,
  "lat": 42.0668117,
  "lon": 24.8424918
},
{
  "type": "node",
  "id": 2149622790,
  "lat": 42.0668504,
  "lon": 24.8404377
},
{
  "type": "node",
  "id": 2149622791,
  "lat": 42.0668780,
  "lon": 24.8417913
},
{
  "type": "node",
  "id": 2149622795,
  "lat": 42.0670924,
  "lon": 24.8402256
},
{
  "type": "node",
  "id": 2149622796,
  "lat": 42.0671153,
  "lon": 24.8402683
},
{
  "type": "node",
  "id": 2149622800,
  "lat": 42.0671439,
  "lon": 24.8402989
},
{
  "type": "node",
  "id": 2149622801,
  "lat": 42.0671511,
  "lon": 24.8407675
},
{
  "type": "node",
  "id": 2149622803,
  "lat": 42.0671514,
  "lon": 24.8416631
},
{
  "type": "node",
  "id": 2149622804,
  "lat": 42.0671826,
  "lon": 24.8408813
},
{
  "type": "node",
  "id": 2149622806,
  "lat": 42.0672270,
  "lon": 24.8433270
},
{
  "type": "node",
  "id": 2149622807,
  "lat": 42.0672345,
  "lon": 24.8408628
},
{
  "type": "node",
  "id": 2149622812,
  "lat": 42.0673904,
  "lon": 24.8415583
},
{
  "type": "node",
  "id": 2149622821,
  "lat": 42.0676064,
  "lon": 24.8405457
},
{
  "type": "node",
  "id": 2149622824,
  "lat": 42.0681734,
  "lon": 24.8412247
},
{
  "type": "node",
  "id": 2149622826,
  "lat": 42.0682368,
  "lon": 24.8413878
},
{
  "type": "node",
  "id": 2149622829,
  "lat": 42.0684211,
  "lon": 24.8418842
},
{
  "type": "node",
  "id": 2149622830,
  "lat": 42.0684411,
  "lon": 24.8419190
},
{
  "type": "node",
  "id": 2149622832,
  "lat": 42.0691102,
  "lon": 24.8422633
},
{
  "type": "node",
  "id": 2149622834,
  "lat": 42.0691749,
  "lon": 24.8422317
},
{
  "type": "node",
  "id": 2149622835,
  "lat": 42.0697437,
  "lon": 24.8412692
},
{
  "type": "node",
  "id": 2149622839,
  "lat": 42.0699370,
  "lon": 24.8417913
},
{
  "type": "node",
  "id": 420258865,
  "lat": 42.1475892,
  "lon": 24.7483885
},
{
  "type": "node",
  "id": 2025308689,
  "lat": 42.1483260,
  "lon": 24.7522549
},
{
  "type": "node",
  "id": 2025308690,
  "lat": 42.1482424,
  "lon": 24.7522040
},
{
  "type": "node",
  "id": 2025308691,
  "lat": 42.1481634,
  "lon": 24.7520484
},
{
  "type": "node",
  "id": 2025308692,
  "lat": 42.1482842,
  "lon": 24.7523596
},
{
  "type": "node",
  "id": 2025308693,
  "lat": 42.1481331,
  "lon": 24.7521182
},
{
  "type": "node",
  "id": 2025308694,
  "lat": 42.1480118,
  "lon": 24.7521798
},
{
  "type": "node",
  "id": 2025308695,
  "lat": 42.1482748,
  "lon": 24.7521208
},
{
  "type": "node",
  "id": 2025308696,
  "lat": 42.1480555,
  "lon": 24.7520672
},
{
  "type": "node",
  "id": 2152915818,
  "lat": 42.1472272,
  "lon": 24.7503509
},
{
  "type": "node",
  "id": 2152915819,
  "lat": 42.1472678,
  "lon": 24.7527216
},
{
  "type": "node",
  "id": 2152915820,
  "lat": 42.1472677,
  "lon": 24.7506274
},
{
  "type": "node",
  "id": 2152915821,
  "lat": 42.1472848,
  "lon": 24.7524782
},
{
  "type": "node",
  "id": 2152915823,
  "lat": 42.1473922,
  "lon": 24.7503070
},
{
  "type": "node",
  "id": 2152915824,
  "lat": 42.1474411,
  "lon": 24.7527249
},
{
  "type": "node",
  "id": 2152915826,
  "lat": 42.1474327,
  "lon": 24.7505835
},
{
  "type": "node",
  "id": 2152915827,
  "lat": 42.1474510,
  "lon": 24.7525036
},
{
  "type": "node",
  "id": 2152915837,
  "lat": 42.1476354,
  "lon": 24.7495699
},
{
  "type": "node",
  "id": 2152915840,
  "lat": 42.1477510,
  "lon": 24.7494183
},
{
  "type": "node",
  "id": 2152915848,
  "lat": 42.1477537,
  "lon": 24.7497339
},
{
  "type": "node",
  "id": 2152915853,
  "lat": 42.1478693,
  "lon": 24.7495824
},
{
  "type": "node",
  "id": 2152915882,
  "lat": 42.1484606,
  "lon": 24.7520127
},
{
  "type": "node",
  "id": 2152915894,
  "lat": 42.1485375,
  "lon": 24.7518664
},
{
  "type": "node",
  "id": 2152915897,
  "lat": 42.1485696,
  "lon": 24.7521169
},
{
  "type": "node",
  "id": 2152915904,
  "lat": 42.1486465,
  "lon": 24.7519705
},
{
  "type": "node",
  "id": 2152915911,
  "lat": 42.1487046,
  "lon": 24.7522872
},
{
  "type": "node",
  "id": 2152915920,
  "lat": 42.1488006,
  "lon": 24.7521836
},
{
  "type": "node",
  "id": 2152915922,
  "lat": 42.1488066,
  "lon": 24.7524592
},
{
  "type": "node",
  "id": 2152915923,
  "lat": 42.1488136,
  "lon": 24.7523050
},
{
  "type": "node",
  "id": 2152915929,
  "lat": 42.1488495,
  "lon": 24.7522662
},
{
  "type": "node",
  "id": 2152915930,
  "lat": 42.1488707,
  "lon": 24.7515676
},
{
  "type": "node",
  "id": 2152915933,
  "lat": 42.1488809,
  "lon": 24.7514894
},
{
  "type": "node",
  "id": 2152915935,
  "lat": 42.1488667,
  "lon": 24.7523944
},
{
  "type": "node",
  "id": 2152915941,
  "lat": 42.1488894,
  "lon": 24.7522677
},
{
  "type": "node",
  "id": 2152915942,
  "lat": 42.1489037,
  "lon": 24.7515157
},
{
  "type": "node",
  "id": 2152915946,
  "lat": 42.1489215,
  "lon": 24.7514255
},
{
  "type": "node",
  "id": 2152915947,
  "lat": 42.1489255,
  "lon": 24.7521767
},
{
  "type": "node",
  "id": 2152915952,
  "lat": 42.1489562,
  "lon": 24.7514657
},
{
  "type": "node",
  "id": 2152915953,
  "lat": 42.1489571,
  "lon": 24.7516675
},
{
  "type": "node",
  "id": 2152915955,
  "lat": 42.1489680,
  "lon": 24.7514471
},
{
  "type": "node",
  "id": 2152915956,
  "lat": 42.1489644,
  "lon": 24.7523219
},
{
  "type": "node",
  "id": 2152915957,
  "lat": 42.1490035,
  "lon": 24.7515142
},
{
  "type": "node",
  "id": 2152915959,
  "lat": 42.1490131,
  "lon": 24.7514992
},
{
  "type": "node",
  "id": 2152915960,
  "lat": 42.1490005,
  "lon": 24.7522309
},
{
  "type": "node",
  "id": 2152915963,
  "lat": 42.1490329,
  "lon": 24.7515482
},
{
  "type": "node",
  "id": 2152915964,
  "lat": 42.1490346,
  "lon": 24.7527040
},
{
  "type": "node",
  "id": 2152915968,
  "lat": 42.1490690,
  "lon": 24.7524968
},
{
  "type": "node",
  "id": 2152915989,
  "lat": 42.1492018,
  "lon": 24.7527546
},
{
  "type": "node",
  "id": 2152915995,
  "lat": 42.1492362,
  "lon": 24.7525474
},
{
  "type": "node",
  "id": 2219199529,
  "lat": 42.1487710,
  "lon": 24.7509695
},
{
  "type": "node",
  "id": 2219199546,
  "lat": 42.1488053,
  "lon": 24.7511782
},
{
  "type": "node",
  "id": 2219199548,
  "lat": 42.1487610,
  "lon": 24.7510151
},
{
  "type": "node",
  "id": 2219199549,
  "lat": 42.1489525,
  "lon": 24.7509931
},
{
  "type": "node",
  "id": 2219199550,
  "lat": 42.1488749,
  "lon": 24.7508885
},
{
  "type": "node",
  "id": 2219199551,
  "lat": 42.1487834,
  "lon": 24.7509877
},
{
  "type": "node",
  "id": 2219199553,
  "lat": 42.1488272,
  "lon": 24.7509073
},
{
  "type": "node",
  "id": 2219199555,
  "lat": 42.1488386,
  "lon": 24.7509266
},
{
  "type": "node",
  "id": 3192211558,
  "lat": 42.1474407,
  "lon": 24.7524033
},
{
  "type": "node",
  "id": 3192211559,
  "lat": 42.1474824,
  "lon": 24.7521968
},
{
  "type": "node",
  "id": 3192211560,
  "lat": 42.1475836,
  "lon": 24.7524559
},
{
  "type": "node",
  "id": 3192212961,
  "lat": 42.1476253,
  "lon": 24.7522494
},
{
  "type": "node",
  "id": 3192212962,
  "lat": 42.1487025,
  "lon": 24.7517684
},
{
  "type": "node",
  "id": 3192212963,
  "lat": 42.1487305,
  "lon": 24.7518285
},
{
  "type": "node",
  "id": 3192212964,
  "lat": 42.1487412,
  "lon": 24.7518109
},
{
  "type": "node",
  "id": 3192212965,
  "lat": 42.1487736,
  "lon": 24.7518759
},
{
  "type": "node",
  "id": 3192212966,
  "lat": 42.1487836,
  "lon": 24.7518594
},
{
  "type": "node",
  "id": 3192212967,
  "lat": 42.1487987,
  "lon": 24.7518760
},
{
  "type": "node",
  "id": 3192212968,
  "lat": 42.1488034,
  "lon": 24.7516017
},
{
  "type": "node",
  "id": 3192212969,
  "lat": 42.1488136,
  "lon": 24.7518514
},
{
  "type": "node",
  "id": 3192212970,
  "lat": 42.1488356,
  "lon": 24.7518755
},
{
  "type": "node",
  "id": 3192212971,
  "lat": 42.1488391,
  "lon": 24.7516409
},
{
  "type": "node",
  "id": 3192212972,
  "lat": 42.1488455,
  "lon": 24.7516302
},
{
  "type": "node",
  "id": 3192212973,
  "lat": 42.1488601,
  "lon": 24.7518350
},
{
  "type": "node",
  "id": 3192212974,
  "lat": 42.1488677,
  "lon": 24.7518433
},
{
  "type": "node",
  "id": 3192212975,
  "lat": 42.1488787,
  "lon": 24.7516878
},
{
  "type": "node",
  "id": 3192212976,
  "lat": 42.1488864,
  "lon": 24.7516752
},
{
  "type": "node",
  "id": 3192212977,
  "lat": 42.1489285,
  "lon": 24.7517427
},
{
  "type": "node",
  "id": 4407783125,
  "lat": 42.1467505,
  "lon": 24.7527695
},
{
  "type": "node",
  "id": 4407783129,
  "lat": 42.1467678,
  "lon": 24.7528202
},
{
  "type": "node",
  "id": 4407783131,
  "lat": 42.1467762,
  "lon": 24.7527789
},
{
  "type": "node",
  "id": 4407783133,
  "lat": 42.1467835,
  "lon": 24.7526062
},
{
  "type": "node",
  "id": 4407783134,
  "lat": 42.1468012,
  "lon": 24.7528325
},
{
  "type": "node",
  "id": 4407783136,
  "lat": 42.1468096,
  "lon": 24.7527912
},
{
  "type": "node",
  "id": 4407783141,
  "lat": 42.1468627,
  "lon": 24.7528107
},
{
  "type": "node",
  "id": 4407783147,
  "lat": 42.1468957,
  "lon": 24.7526474
},
{
  "type": "node",
  "id": 4829025012,
  "lat": 42.1487528,
  "lon": 24.7516852
},
{
  "type": "node",
  "id": 4829025721,
  "lat": 42.1476011,
  "lon": 24.7522405
},
{
  "type": "node",
  "id": 4933951774,
  "lat": 42.1474824,
  "lon": 24.7480533
},
{
  "type": "node",
  "id": 4933951775,
  "lat": 42.1474858,
  "lon": 24.7481746
},
{
  "type": "node",
  "id": 4933951777,
  "lat": 42.1480004,
  "lon": 24.7480130
},
{
  "type": "node",
  "id": 4933951778,
  "lat": 42.1480074,
  "lon": 24.7479473
},
{
  "type": "node",
  "id": 4933951779,
  "lat": 42.1478224,
  "lon": 24.7477877
},
{
  "type": "node",
  "id": 1591221817,
  "lat": 42.1461354,
  "lon": 24.7578169
},
{
  "type": "node",
  "id": 1591221821,
  "lat": 42.1463074,
  "lon": 24.7582208
},
{
  "type": "node",
  "id": 1591221825,
  "lat": 42.1464785,
  "lon": 24.7575695
},
{
  "type": "node",
  "id": 1591221830,
  "lat": 42.1467191,
  "lon": 24.7581438
},
{
  "type": "node",
  "id": 2152915866,
  "lat": 42.1483349,
  "lon": 24.7541143
},
{
  "type": "node",
  "id": 2152915867,
  "lat": 42.1483384,
  "lon": 24.7542313
},
{
  "type": "node",
  "id": 2152915868,
  "lat": 42.1483440,
  "lon": 24.7540492
},
{
  "type": "node",
  "id": 2152915869,
  "lat": 42.1483459,
  "lon": 24.7541137
},
{
  "type": "node",
  "id": 2152915873,
  "lat": 42.1484036,
  "lon": 24.7541924
},
{
  "type": "node",
  "id": 2152915874,
  "lat": 42.1484046,
  "lon": 24.7542278
},
{
  "type": "node",
  "id": 2152915880,
  "lat": 42.1484708,
  "lon": 24.7540424
},
{
  "type": "node",
  "id": 2152915881,
  "lat": 42.1484751,
  "lon": 24.7541885
},
{
  "type": "node",
  "id": 2152915907,
  "lat": 42.1486600,
  "lon": 24.7542549
},
{
  "type": "node",
  "id": 2152915912,
  "lat": 42.1486901,
  "lon": 24.7540143
},
{
  "type": "node",
  "id": 2152915917,
  "lat": 42.1488026,
  "lon": 24.7532562
},
{
  "type": "node",
  "id": 2152915919,
  "lat": 42.1488183,
  "lon": 24.7530971
},
{
  "type": "node",
  "id": 2152915924,
  "lat": 42.1488432,
  "lon": 24.7532809
},
{
  "type": "node",
  "id": 2152915925,
  "lat": 42.1488449,
  "lon": 24.7532638
},
{
  "type": "node",
  "id": 2152915926,
  "lat": 42.1488561,
  "lon": 24.7531039
},
{
  "type": "node",
  "id": 2152915927,
  "lat": 42.1488589,
  "lon": 24.7530756
},
{
  "type": "node",
  "id": 2152915928,
  "lat": 42.1488142,
  "lon": 24.7542900
},
{
  "type": "node",
  "id": 2152915931,
  "lat": 42.1488245,
  "lon": 24.7542076
},
{
  "type": "node",
  "id": 2152915934,
  "lat": 42.1488354,
  "lon": 24.7541220
},
{
  "type": "node",
  "id": 2152915936,
  "lat": 42.1488438,
  "lon": 24.7542120
},
{
  "type": "node",
  "id": 2152915937,
  "lat": 42.1488445,
  "lon": 24.7540494
},
{
  "type": "node",
  "id": 2152915938,
  "lat": 42.1489006,
  "lon": 24.7532912
},
{
  "type": "node",
  "id": 2152915939,
  "lat": 42.1489032,
  "lon": 24.7532647
},
{
  "type": "node",
  "id": 2152915943,
  "lat": 42.1488545,
  "lon": 24.7541263
},
{
  "type": "node",
  "id": 2152915944,
  "lat": 42.1489153,
  "lon": 24.7531072
},
{
  "type": "node",
  "id": 2152915945,
  "lat": 42.1489174,
  "lon": 24.7530861
},
{
  "type": "node",
  "id": 2152915948,
  "lat": 42.1489453,
  "lon": 24.7532723
},
{
  "type": "node",
  "id": 2152915950,
  "lat": 42.1489608,
  "lon": 24.7531154
},
{
  "type": "node",
  "id": 2152915961,
  "lat": 42.1490654,
  "lon": 24.7532883
},
{
  "type": "node",
  "id": 2152915962,
  "lat": 42.1490674,
  "lon": 24.7535152
},
{
  "type": "node",
  "id": 2152915965,
  "lat": 42.1490949,
  "lon": 24.7532878
},
{
  "type": "node",
  "id": 2152915966,
  "lat": 42.1490955,
  "lon": 24.7533546
},
{
  "type": "node",
  "id": 2152915967,
  "lat": 42.1490658,
  "lon": 24.7540861
},
{
  "type": "node",
  "id": 2152915969,
  "lat": 42.1491234,
  "lon": 24.7534817
},
{
  "type": "node",
  "id": 2152915970,
  "lat": 42.1491237,
  "lon": 24.7535143
},
{
  "type": "node",
  "id": 2152915971,
  "lat": 42.1490817,
  "lon": 24.7539899
},
{
  "type": "node",
  "id": 2152915972,
  "lat": 42.1490736,
  "lon": 24.7536694
},
{
  "type": "node",
  "id": 2152915975,
  "lat": 42.1491351,
  "lon": 24.7534372
},
{
  "type": "node",
  "id": 2152915976,
  "lat": 42.1491355,
  "lon": 24.7534815
},
{
  "type": "node",
  "id": 2152915977,
  "lat": 42.1490843,
  "lon": 24.7535704
},
{
  "type": "node",
  "id": 2152915978,
  "lat": 42.1491430,
  "lon": 24.7533538
},
{
  "type": "node",
  "id": 2152915979,
  "lat": 42.1491438,
  "lon": 24.7534371
},
{
  "type": "node",
  "id": 2152915981,
  "lat": 42.1491094,
  "lon": 24.7539982
},
{
  "type": "node",
  "id": 2152915983,
  "lat": 42.1491226,
  "lon": 24.7539185
},
{
  "type": "node",
  "id": 2152915984,
  "lat": 42.1491184,
  "lon": 24.7536782
},
{
  "type": "node",
  "id": 2152915985,
  "lat": 42.1491725,
  "lon": 24.7535877
},
{
  "type": "node",
  "id": 2152915986,
  "lat": 42.1491864,
  "lon": 24.7541223
},
{
  "type": "node",
  "id": 2152915987,
  "lat": 42.1491753,
  "lon": 24.7535615
},
{
  "type": "node",
  "id": 2152915988,
  "lat": 42.1491985,
  "lon": 24.7540490
},
{
  "type": "node",
  "id": 2152915991,
  "lat": 42.1492138,
  "lon": 24.7540536
},
{
  "type": "node",
  "id": 2152915993,
  "lat": 42.1492307,
  "lon": 24.7539510
},
{
  "type": "node",
  "id": 2152915994,
  "lat": 42.1492370,
  "lon": 24.7537016
},
{
  "type": "node",
  "id": 2152915997,
  "lat": 42.1492506,
  "lon": 24.7535763
},
{
  "type": "node",
  "id": 2466335738,
  "lat": 42.1463003,
  "lon": 24.7580697
},
{
  "type": "node",
  "id": 2466335740,
  "lat": 42.1463632,
  "lon": 24.7577659
},
{
  "type": "node",
  "id": 2466335741,
  "lat": 42.1463702,
  "lon": 24.7580942
},
{
  "type": "node",
  "id": 2466335742,
  "lat": 42.1463814,
  "lon": 24.7581319
},
{
  "type": "node",
  "id": 2466335743,
  "lat": 42.1463982,
  "lon": 24.7581489
},
{
  "type": "node",
  "id": 2466335744,
  "lat": 42.1464206,
  "lon": 24.7581527
},
{
  "type": "node",
  "id": 2466335745,
  "lat": 42.1464416,
  "lon": 24.7581489
},
{
  "type": "node",
  "id": 2466335746,
  "lat": 42.1464612,
  "lon": 24.7581338
},
{
  "type": "node",
  "id": 2466335747,
  "lat": 42.1465241,
  "lon": 24.7581602
},
{
  "type": "node",
  "id": 2466335748,
  "lat": 42.1466011,
  "lon": 24.7578602
},
{
  "type": "node",
  "id": 4877955339,
  "lat": 42.1465835,
  "lon": 24.7574691
},
{
  "type": "node",
  "id": 4877955340,
  "lat": 42.1465795,
  "lon": 24.7574249
},
{
  "type": "node",
  "id": 4877955341,
  "lat": 42.1465556,
  "lon": 24.7573766
},
{
  "type": "node",
  "id": 4877955342,
  "lat": 42.1465278,
  "lon": 24.7573659
},
{
  "type": "node",
  "id": 4877955343,
  "lat": 42.1464970,
  "lon": 24.7574772
},
{
  "type": "node",
  "id": 4877955344,
  "lat": 42.1464940,
  "lon": 24.7575322
},
{
  "type": "node",
  "id": 4877955345,
  "lat": 42.1464850,
  "lon": 24.7574182
},
{
  "type": "node",
  "id": 4877955346,
  "lat": 42.1464970,
  "lon": 24.7573632
},
{
  "type": "node",
  "id": 4877955347,
  "lat": 42.1465735,
  "lon": 24.7575000
},
{
  "type": "node",
  "id": 4877955348,
  "lat": 42.1466034,
  "lon": 24.7575952
},
{
  "type": "node",
  "id": 4877955349,
  "lat": 42.1468480,
  "lon": 24.7579640
},
{
  "type": "node",
  "id": 4877967999,
  "lat": 42.1466597,
  "lon": 24.7581787
},
{
  "type": "node",
  "id": 4877968000,
  "lat": 42.1462653,
  "lon": 24.7582470
},
{
  "type": "node",
  "id": 4877968001,
  "lat": 42.1463647,
  "lon": 24.7584428
},
{
  "type": "node",
  "id": 4877968002,
  "lat": 42.1465099,
  "lon": 24.7583771
},
{
  "type": "node",
  "id": 4877968003,
  "lat": 42.1464970,
  "lon": 24.7583047
},
{
  "type": "node",
  "id": 4877968004,
  "lat": 42.1466034,
  "lon": 24.7582698
},
{
  "type": "node",
  "id": 4877968005,
  "lat": 42.1465914,
  "lon": 24.7582188
},
{
  "type": "node",
  "id": 2151740049,
  "lat": 42.1498163,
  "lon": 24.7511470
},
{
  "type": "node",
  "id": 2151740050,
  "lat": 42.1498701,
  "lon": 24.7513983
},
{
  "type": "node",
  "id": 2151740053,
  "lat": 42.1498759,
  "lon": 24.7517680
},
{
  "type": "node",
  "id": 2151740058,
  "lat": 42.1499636,
  "lon": 24.7519507
},
{
  "type": "node",
  "id": 2151740059,
  "lat": 42.1499869,
  "lon": 24.7511131
},
{
  "type": "node",
  "id": 2151740060,
  "lat": 42.1500098,
  "lon": 24.7513711
},
{
  "type": "node",
  "id": 2151740062,
  "lat": 42.1500222,
  "lon": 24.7516393
},
{
  "type": "node",
  "id": 2151740067,
  "lat": 42.1501048,
  "lon": 24.7518153
},
{
  "type": "node",
  "id": 2151740071,
  "lat": 42.1508789,
  "lon": 24.7525312
},
{
  "type": "node",
  "id": 2151740072,
  "lat": 42.1508744,
  "lon": 24.7526187
},
{
  "type": "node",
  "id": 2151740073,
  "lat": 42.1508408,
  "lon": 24.7527467
},
{
  "type": "node",
  "id": 2151740075,
  "lat": 42.1509388,
  "lon": 24.7525082
},
{
  "type": "node",
  "id": 2151740078,
  "lat": 42.1509238,
  "lon": 24.7527558
},
{
  "type": "node",
  "id": 2152916027,
  "lat": 42.1496579,
  "lon": 24.7514662
},
{
  "type": "node",
  "id": 2152916030,
  "lat": 42.1497020,
  "lon": 24.7518249
},
{
  "type": "node",
  "id": 2152916031,
  "lat": 42.1497027,
  "lon": 24.7516801
},
{
  "type": "node",
  "id": 2152916032,
  "lat": 42.1497136,
  "lon": 24.7513595
},
{
  "type": "node",
  "id": 2152916042,
  "lat": 42.1498285,
  "lon": 24.7517297
},
{
  "type": "node",
  "id": 2152916043,
  "lat": 42.1498288,
  "lon": 24.7516813
},
{
  "type": "node",
  "id": 2152916044,
  "lat": 42.1498394,
  "lon": 24.7518296
},
{
  "type": "node",
  "id": 2152916045,
  "lat": 42.1498399,
  "lon": 24.7517298
},
{
  "type": "node",
  "id": 2152916053,
  "lat": 42.1501150,
  "lon": 24.7518356
},
{
  "type": "node",
  "id": 2152916054,
  "lat": 42.1501982,
  "lon": 24.7517139
},
{
  "type": "node",
  "id": 2152916056,
  "lat": 42.1502100,
  "lon": 24.7519428
},
{
  "type": "node",
  "id": 2152916057,
  "lat": 42.1502625,
  "lon": 24.7519627
},
{
  "type": "node",
  "id": 2152916058,
  "lat": 42.1503357,
  "lon": 24.7507962
},
{
  "type": "node",
  "id": 2152916059,
  "lat": 42.1503456,
  "lon": 24.7510308
},
{
  "type": "node",
  "id": 2152916060,
  "lat": 42.1502893,
  "lon": 24.7519199
},
{
  "type": "node",
  "id": 2152916067,
  "lat": 42.1504939,
  "lon": 24.7524602
},
{
  "type": "node",
  "id": 2152916068,
  "lat": 42.1504832,
  "lon": 24.7507882
},
{
  "type": "node",
  "id": 2152916070,
  "lat": 42.1504902,
  "lon": 24.7510229
},
{
  "type": "node",
  "id": 2152916072,
  "lat": 42.1505168,
  "lon": 24.7527228
},
{
  "type": "node",
  "id": 2152916073,
  "lat": 42.1504817,
  "lon": 24.7506438
},
{
  "type": "node",
  "id": 2152916074,
  "lat": 42.1505038,
  "lon": 24.7510594
},
{
  "type": "node",
  "id": 2152916075,
  "lat": 42.1506010,
  "lon": 24.7524054
},
{
  "type": "node",
  "id": 2152916077,
  "lat": 42.1506646,
  "lon": 24.7526922
},
{
  "type": "node",
  "id": 2152916081,
  "lat": 42.1506381,
  "lon": 24.7505852
},
{
  "type": "node",
  "id": 2152916082,
  "lat": 42.1506729,
  "lon": 24.7510688
},
{
  "type": "node",
  "id": 2152916085,
  "lat": 42.1507699,
  "lon": 24.7509364
},
{
  "type": "node",
  "id": 2152916088,
  "lat": 42.1508624,
  "lon": 24.7508096
},
{
  "type": "node",
  "id": 2152916097,
  "lat": 42.1509612,
  "lon": 24.7527653
},
{
  "type": "node",
  "id": 2152916100,
  "lat": 42.1509784,
  "lon": 24.7528912
},
{
  "type": "node",
  "id": 2219181172,
  "lat": 42.1503398,
  "lon": 24.7509262
},
{
  "type": "node",
  "id": 2219181177,
  "lat": 42.1503384,
  "lon": 24.7508484
},
{
  "type": "node",
  "id": 2219181183,
  "lat": 42.1502666,
  "lon": 24.7509302
},
{
  "type": "node",
  "id": 2219181188,
  "lat": 42.1502671,
  "lon": 24.7508522
},
{
  "type": "node",
  "id": 4025225267,
  "lat": 42.1501180,
  "lon": 24.7518760
},
{
  "type": "node",
  "id": 4171384321,
  "lat": 42.1497553,
  "lon": 24.7515670
},
{
  "type": "node",
  "id": 4171384322,
  "lat": 42.1498140,
  "lon": 24.7514677
},
{
  "type": "node",
  "id": 4171384466,
  "lat": 42.1508858,
  "lon": 24.7527750
},
{
  "type": "node",
  "id": 4171384469,
  "lat": 42.1508963,
  "lon": 24.7529125
},
{
  "type": "node",
  "id": 4571565697,
  "lat": 42.1497024,
  "lon": 24.7517232
},
{
  "type": "node",
  "id": 4571565743,
  "lat": 42.1508403,
  "lon": 24.7526422
},
{
  "type": "node",
  "id": 4571565777,
  "lat": 42.1505080,
  "lon": 24.7525580
},
{
  "type": "node",
  "id": 4571565778,
  "lat": 42.1504165,
  "lon": 24.7525614
},
{
  "type": "node",
  "id": 4571565779,
  "lat": 42.1504145,
  "lon": 24.7524970
},
{
  "type": "node",
  "id": 4571565780,
  "lat": 42.1504960,
  "lon": 24.7524863
},
{
  "type": "node",
  "id": 4933951782,
  "lat": 42.1505219,
  "lon": 24.7526526
},
{
  "type": "node",
  "id": 4933951783,
  "lat": 42.1505045,
  "lon": 24.7526814
},
{
  "type": "node",
  "id": 4933951786,
  "lat": 42.1508694,
  "lon": 24.7527585
},
{
  "type": "node",
  "id": 4933951787,
  "lat": 42.1508692,
  "lon": 24.7527464
},
{
  "type": "node",
  "id": 4933951792,
  "lat": 42.1509306,
  "lon": 24.7529107
},
{
  "type": "node",
  "id": 2151740038,
  "lat": 42.1497238,
  "lon": 24.7534694
},
{
  "type": "node",
  "id": 2151740040,
  "lat": 42.1497082,
  "lon": 24.7537232
},
{
  "type": "node",
  "id": 2151740042,
  "lat": 42.1497880,
  "lon": 24.7535226
},
{
  "type": "node",
  "id": 2151740044,
  "lat": 42.1498068,
  "lon": 24.7532516
},
{
  "type": "node",
  "id": 2151740046,
  "lat": 42.1497838,
  "lon": 24.7531903
},
{
  "type": "node",
  "id": 2151740048,
  "lat": 42.1498340,
  "lon": 24.7535489
},
{
  "type": "node",
  "id": 2151740051,
  "lat": 42.1498528,
  "lon": 24.7538280
},
{
  "type": "node",
  "id": 2151740052,
  "lat": 42.1498373,
  "lon": 24.7530904
},
{
  "type": "node",
  "id": 2151740054,
  "lat": 42.1499084,
  "lon": 24.7531463
},
{
  "type": "node",
  "id": 2151740055,
  "lat": 42.1499309,
  "lon": 24.7533734
},
{
  "type": "node",
  "id": 2151740056,
  "lat": 42.1499326,
  "lon": 24.7536273
},
{
  "type": "node",
  "id": 2151740057,
  "lat": 42.1499536,
  "lon": 24.7530405
},
{
  "type": "node",
  "id": 2151740061,
  "lat": 42.1500217,
  "lon": 24.7534370
},
{
  "type": "node",
  "id": 2151740063,
  "lat": 42.1500522,
  "lon": 24.7533698
},
{
  "type": "node",
  "id": 2151740064,
  "lat": 42.1500745,
  "lon": 24.7533879
},
{
  "type": "node",
  "id": 2151740065,
  "lat": 42.1500873,
  "lon": 24.7532795
},
{
  "type": "node",
  "id": 2151740066,
  "lat": 42.1501139,
  "lon": 24.7533038
},
{
  "type": "node",
  "id": 2151740068,
  "lat": 42.1501293,
  "lon": 24.7531932
},
{
  "type": "node",
  "id": 3192212978,
  "lat": 42.1497433,
  "lon": 24.7540115
},
{
  "type": "node",
  "id": 3192212981,
  "lat": 42.1498289,
  "lon": 24.7538390
},
{
  "type": "node",
  "id": 3192212983,
  "lat": 42.1498699,
  "lon": 24.7541260
},
{
  "type": "node",
  "id": 3192212985,
  "lat": 42.1499556,
  "lon": 24.7539535
},
{
  "type": "node",
  "id": 4025225229,
  "lat": 42.1497639,
  "lon": 24.7540301
},
{
  "type": "node",
  "id": 4571565725,
  "lat": 42.1498482,
  "lon": 24.7530990
},
{
  "type": "node",
  "id": 4829025003,
  "lat": 42.1497800,
  "lon": 24.7535081
},
{
  "type": "node",
  "id": 3809168056,
  "lat": 42.1735552,
  "lon": 24.9393109
},
{
  "type": "node",
  "id": 4497927056,
  "lat": 42.1743879,
  "lon": 24.9371342
},
{
  "type": "node",
  "id": 4498022838,
  "lat": 42.1744010,
  "lon": 24.9378851
},
{
  "type": "node",
  "id": 4498022840,
  "lat": 42.1743032,
  "lon": 24.9379090
},
{
  "type": "node",
  "id": 4498022852,
  "lat": 42.1736454,
  "lon": 24.9384640
},
{
  "type": "node",
  "id": 6759123298,
  "lat": 42.1755267,
  "lon": 24.9398835
},
{
  "type": "node",
  "id": 6759123311,
  "lat": 42.1743486,
  "lon": 24.9395079
},
{
  "type": "node",
  "id": 6759587272,
  "lat": 42.1735464,
  "lon": 24.9384827
},
{
  "type": "node",
  "id": 6759587273,
  "lat": 42.1737687,
  "lon": 24.9383320
},
{
  "type": "node",
  "id": 6759587274,
  "lat": 42.1741640,
  "lon": 24.9379704
},
{
  "type": "node",
  "id": 6759587279,
  "lat": 42.1755844,
  "lon": 24.9384103
},
{
  "type": "node",
  "id": 6759587280,
  "lat": 42.1756592,
  "lon": 24.9380904
},
{
  "type": "node",
  "id": 6759587281,
  "lat": 42.1756262,
  "lon": 24.9380763
},
{
  "type": "node",
  "id": 6759587282,
  "lat": 42.1756902,
  "lon": 24.9378030
},
{
  "type": "node",
  "id": 6759587284,
  "lat": 42.1756536,
  "lon": 24.9381146
},
{
  "type": "node",
  "id": 3809168494,
  "lat": 42.1759981,
  "lon": 24.9381362
},
{
  "type": "node",
  "id": 6759123299,
  "lat": 42.1761948,
  "lon": 24.9372901
},
{
  "type": "node",
  "id": 6759123300,
  "lat": 42.1758716,
  "lon": 24.9372434
},
{
  "type": "node",
  "id": 6759587275,
  "lat": 42.1758475,
  "lon": 24.9378701
},
{
  "type": "node",
  "id": 6759587276,
  "lat": 42.1757719,
  "lon": 24.9381929
},
{
  "type": "node",
  "id": 6759587277,
  "lat": 42.1757946,
  "lon": 24.9382026
},
{
  "type": "node",
  "id": 6759587278,
  "lat": 42.1757313,
  "lon": 24.9384729
},
{
  "type": "node",
  "id": 6759589285,
  "lat": 42.1757782,
  "lon": 24.9381658
},
{
  "type": "node",
  "id": 6759589286,
  "lat": 42.1758202,
  "lon": 24.9378584
},
{
  "type": "node",
  "id": 6759589323,
  "lat": 42.1758653,
  "lon": 24.9386286
},
{
  "type": "node",
  "id": 6759589324,
  "lat": 42.1761643,
  "lon": 24.9372857
},
{
  "type": "way",
  "id": 102138820,
  "nodes": [
    1178841622,
    7015255328,
    1178841614,
    1178841588,
    1178841584,
    1178841607,
    1178841587,
    1178841611,
    1178841591,
    1737707461,
    1178841622
  ]
},
{
  "type": "way",
  "id": 161815435,
  "nodes": [
    1737707458,
    1737707456,
    1737707450,
    1737707453,
    1737707458
  ]
},
{
  "type": "way",
  "id": 204983663,
  "nodes": [
    2149622832,
    2149622806,
    2149622787,
    2149622778,
    2149622791,
    2149622803,
    2149622812,
    2149622807,
    2149622804,
    2149622801,
    2149622786,
    2149622783,
    2149622780,
    2149622773,
    2149622770,
    2149622768,
    2149622775,
    2149622777,
    2149622782,
    2149622790,
    2149622795,
    2149622796,
    2149622800,
    2149622821,
    2149622824,
    2149622826,
    2149622829,
    2149622830,
    2149622835,
    2149622839,
    2149622834
  ]
},
{
  "type": "way",
  "id": 436838163,
  "nodes": [
    2149622834,
    2149622832
  ]
}

  ]
}
