{
  "version": 0.6,
  "generator": "Overpass API 0.7.55.1011 6c2efc30",
  "osm3s": {
    "timestamp_osm_base": "2020-02-14T10:35:02Z",
    "copyright": "The data included in this document is from www.openstreetmap.org. The data is made available under ODbL."
  },
  "elements": [

{
  "type": "node",
  "id": 25393487,
  "lat": 53.8683189,
  "lon": 10.6857702,
  "tags": {
    "addr:housenumber": "4",
    "addr:street": "Oberer Wehdehof",
    "check_date": "2017-03-23",
    "name": "Buddenbrookhaus",
    "opening_hours": "Mo-Su 10:00-18:00",
    "phone": "+49 451 122 4190",
    "toilets:wheelchair": "yes",
    "tourism": "museum",
    "website": "http://www.buddenbrookhaus.de/",
    "wheelchair": "limited",
    "wheelchair:description": "Alle Etagen sind mit einem Fahrstuhl erreichbar, ob eine Behindertentoilette vorhanden ist, muss telefonisch erfragt werden.",
    "wikidata": "Q315187",
    "wikipedia": "de:Buddenbrookhaus"
  }
},
{
  "type": "node",
  "id": 25393491,
  "lat": 53.8603842,
  "lon": 10.6856317,
  "tags": {
    "dog": "no",
    "lastcheck": "2015-04-23",
    "name": "Museum für Natur und Umwelt",
    "opening_hours": "Tu-Th 09:00-17:00; Sa-Su 10:00-17:00",
    "toilets:wheelchair": "no",
    "tourism": "museum",
    "wheelchair": "limited",
    "wikidata": "Q1360933",
    "wikipedia": "de:Museum für Natur und Umwelt Lübeck"
  }
},
{
  "type": "node",
  "id": 25393497,
  "lat": 53.8713790,
  "lon": 10.6899139,
  "tags": {
    "addr:city": "Lübeck",
    "addr:country": "DE",
    "addr:housenumber": "11",
    "addr:postcode": "23552",
    "addr:street": "Koberg",
    "contact:website": "http://www.heiligen-geist-hospital.de/",
    "name": "Heiligen-Geist-Hospital",
    "tourism": "museum",
    "wheelchair": "limited",
    "wikidata": "Q317608",
    "wikipedia": "de:Heiligen-Geist-Hospital (Lübeck)"
  }
},
{
  "type": "node",
  "id": 283800917,
  "lat": 53.9417554,
  "lon": 10.2564616,
  "tags": {
    "toilets:wheelchair": "no",
    "tourism": "museum",
    "wheelchair": "no"
  }
},
{
  "type": "node",
  "id": 297044410,
  "lat": 53.8693164,
  "lon": 10.6906019,
  "tags": {
    "check_date": "2015-02-26",
    "name": "Günter-Grass-Haus",
    "opening_hours": "Jan-Mar: Tu-Su 11:00-17:00; Apr-Dec: Mo-Su 10:00-17:00",
    "toilets:wheelchair": "yes",
    "tourism": "museum",
    "website": "http://www.grass-haus.de",
    "wheelchair": "limited",
    "wikidata": "Q1560511"
  }
},
{
  "type": "node",
  "id": 312826583,
  "lat": 53.7292824,
  "lon": 10.8234077,
  "tags": {
    "addr:city": "Schlagsdorf",
    "addr:country": "DE",
    "addr:housenumber": "1",
    "addr:postcode": "19217",
    "addr:street": "Neubauernweg",
    "name": "Grenzhus",
    "phone": "+49 38875 20326",
    "tourism": "museum",
    "website": "www.grenzhus.de",
    "wheelchair": "no"
  }
},
{
  "type": "node",
  "id": 315037635,
  "lat": 53.9363602,
  "lon": 10.3140751,
  "tags": {
    "name": "Museum Alt-Segeberger Bürgerhaus",
    "tourism": "museum",
    "wheelchair": "no",
    "wikidata": "Q432989",
    "wikipedia": "de:Alt-Segeberger Bürgerhaus"
  }
},
{
  "type": "node",
  "id": 317340780,
  "lat": 53.9034962,
  "lon": 10.8047243,
  "tags": {
    "check_date": "2015-04-10",
    "email": "geschichtswerkstatt@luebeck.de",
    "fax": "+49 451 301152",
    "name": "Geschichtswerkstatt Herrenwyk",
    "opening_hours": "Fr 14:00-17:00;Sa-Su 10:00-17:00",
    "phone": "+49 451 301152",
    "toilets:wheelchair": "no",
    "tourism": "museum",
    "website": "http://www.luebeck.de/tourismus/kultur/museen/geschichtswerkstatt-herrenwyk/index.html",
    "wheelchair": "limited",
    "wikidata": "Q1662094"
  }
},
{
  "type": "node",
  "id": 334504305,
  "lat": 53.9539539,
  "lon": 10.7300796,
  "tags": {
    "name": "Dorfmuseum",
    "opening_hours": "Tu 14:00-17:00;Su 10:00-12:00",
    "phone": "+49 4504 3470",
    "tourism": "museum"
  }
},
{
  "type": "node",
  "id": 366273044,
  "lat": 53.8719959,
  "lon": 10.6824070,
  "tags": {
    "name": "Museumshafen",
    "tourism": "museum",
    "wheelchair": "yes",
    "wikidata": "Q1954827"
  }
},
{
  "type": "node",
  "id": 386912060,
  "lat": 54.0449174,
  "lon": 10.6744058,
  "tags": {
    "addr:city": "Scharbeutz",
    "addr:country": "DE",
    "addr:housenumber": "23",
    "addr:postcode": "23684",
    "addr:street": "Lindenstraße",
    "addr:suburb": "Pönitz",
    "name": "Museum für Regionalgeschichte",
    "opening_hours": "Tu 15:00-18:00; Su 14:00-18:00; 2018 Dec 12-31 off; 2019 Jan 01-14 off",
    "operator": "Verein für Regionalgeschichte der Gemeinde Scharbeutz und Umgebung e.V.",
    "phone": "+49 4503 73273",
    "tourism": "museum",
    "website": "http://www.museum-poenitz.de",
    "wheelchair": "yes"
  }
},
{
  "type": "node",
  "id": 444329388,
  "lat": 53.6302270,
  "lon": 10.6914415,
  "tags": {
    "name": "Historisches Rathaus Mölln",
    "tourism": "museum",
    "wheelchair": "limited",
    "wheelchair:description": "Es gibt einen Fahrstuhl, alle Räume sind problemlos zu erreichen, ein behindertengerechtes WC ist vorhanden sowie zwei Rampen zum Hereinkommem und die Türen sind breit genug"
  }
},
{
  "type": "node",
  "id": 446219816,
  "lat": 53.8656569,
  "lon": 10.6823308,
  "tags": {
    "name": "TheaterFigurenMuseum",
    "opening_hours": "Mo-Su 10:00-18:00",
    "operator": "TheaterFigurenMuseum gem. GmbH",
    "tourism": "museum",
    "website": "https://www.theaterfigurenmuseum.de/",
    "wheelchair": "no",
    "wikidata": "Q463403"
  }
},
{
  "type": "node",
  "id": 456131782,
  "lat": 53.8661381,
  "lon": 10.6796546,
  "tags": {
    "name": "Holstentormuseum",
    "opening_hours": "Jan-Mar: Tu-Su 11:00-17:00;Apr-Dec: Mo-Su 10:00-18:00",
    "source:addr": "estimation",
    "toilets:wheelchair": "no",
    "tourism": "museum",
    "wheelchair": "no"
  }
},
{
  "type": "node",
  "id": 478780178,
  "lat": 54.1060778,
  "lon": 10.8090179,
  "tags": {
    "name": "Hospital zum heiligen Geist",
    "tourism": "museum"
  }
},
{
  "type": "node",
  "id": 746571203,
  "lat": 53.8924651,
  "lon": 10.3190873,
  "tags": {
    "addr:city": "Traventhal",
    "addr:housenumber": "26",
    "addr:postcode": "23795",
    "addr:street": "Dorfstraße",
    "name": "Land-Museum Gestüt Traventhal e.V.",
    "tourism": "museum",
    "website": "http://www.landgestuet-traventhal.de/"
  }
},
{
  "type": "node",
  "id": 750032749,
  "lat": 53.6555634,
  "lon": 10.3329824,
  "tags": {
    "name": "Stormarnsches Dorfmuseum",
    "tourism": "museum",
    "wikidata": "Q1514834"
  }
},
{
  "type": "node",
  "id": 833297932,
  "lat": 53.6508537,
  "lon": 10.4537959,
  "tags": {
    "name": "Vun Hus un Hoff",
    "tourism": "museum"
  }
},
{
  "type": "node",
  "id": 907125309,
  "lat": 53.8726952,
  "lon": 10.6917633,
  "tags": {
    "access": "private",
    "addr:city": "Lübeck",
    "addr:country": "DE",
    "addr:housenumber": "32",
    "addr:postcode": "23552",
    "addr:street": "Wakenitzmauer",
    "description": "Christian Wesigks privates Pferdekutschenmuseum",
    "name": "Pferdekutschenmuseum",
    "tourism": "museum"
  }
},
{
  "type": "node",
  "id": 982000676,
  "lat": 54.1377280,
  "lon": 10.6206417,
  "tags": {
    "name": "Schlossmuseum",
    "toilets:wheelchair": "yes",
    "tourism": "museum",
    "wheelchair": "no"
  }
},
{
  "type": "node",
  "id": 1264870523,
  "lat": 53.6299706,
  "lon": 10.6917041,
  "tags": {
    "addr:city": "Mölln",
    "addr:housenumber": "2",
    "addr:postcode": "23879",
    "addr:street": "Am Markt",
    "name": "Eulenspiegelmuseum",
    "tourism": "museum",
    "wheelchair": "no",
    "wheelchair:description": "Man kommt garnicht erst herein, weil die Stufe bei dem EIngang zu hoch ist",
    "wikidata": "Q1373796"
  }
},
{
  "type": "node",
  "id": 1460556618,
  "lat": 53.7149137,
  "lon": 11.0037149,
  "tags": {
    "addr:city": "Roggendorf",
    "addr:country": "DE",
    "addr:housenumber": "4",
    "addr:postcode": "19205",
    "addr:street": "Dorfstraße Breesen",
    "name": "Agrarmuseum Breesen",
    "opening_hours": "Mo-We,Fr 09:00-16:30; Sa,Su 14:00-18:00",
    "phone": "+49 38876 201 69",
    "tourism": "museum",
    "wheelchair": "no"
  }
},
{
  "type": "node",
  "id": 1561055494,
  "lat": 53.8453565,
  "lon": 10.9337448,
  "tags": {
    "name": "Volkskundemuseum - Museen des Ratzeburger Landes",
    "name:ru": "Шёнберг",
    "tourism": "museum",
    "wikidata": "Q1265226",
    "wikipedia": "de:Volkskundemuseum in Schönberg"
  }
},
{
  "type": "node",
  "id": 1721493336,
  "lat": 53.9566008,
  "lon": 10.8641369,
  "tags": {
    "email": "info@heimatverein-travemuende.de",
    "fax": "+49 4502 9998095",
    "name": "Seebadmuseum Travemünde",
    "opening_hours": "Tu-Su 11:00-17:00",
    "phone": "+49 4502 9998094",
    "tourism": "museum",
    "website": "https://www.heimatverein-travemuende.de/",
    "wheelchair": "yes"
  }
},
{
  "type": "node",
  "id": 1845561970,
  "lat": 53.7276050,
  "lon": 10.2585326,
  "tags": {
    "name": "Bargteheider Stadtmuseum",
    "tourism": "museum"
  }
},
{
  "type": "node",
  "id": 1894362578,
  "lat": 53.9696685,
  "lon": 11.0434946,
  "tags": {
    "name": "KURIOSES MUSCHEL-MUSEUM",
    "tourism": "museum"
  }
},
{
  "type": "node",
  "id": 1912550569,
  "lat": 53.8721134,
  "lon": 10.6850961,
  "tags": {
    "name": "Museum Stadt Hansestadt Danzig",
    "opening_hours": "Tu 10:00-12:00",
    "tourism": "museum"
  }
},
{
  "type": "node",
  "id": 2328495063,
  "lat": 54.0262238,
  "lon": 10.5937998,
  "tags": {
    "name": "KZ Fürstengrube Todesmarsch Gedenkstätte",
    "tourism": "museum"
  }
},
{
  "type": "node",
  "id": 2639963619,
  "lat": 53.8686020,
  "lon": 10.6804785,
  "tags": {
    "addr:city": "Lübeck",
    "addr:country": "DE",
    "addr:housenumber": "97-98",
    "addr:postcode": "23552",
    "addr:street": "An der Untertrave",
    "name": "Marzipan Museum",
    "opening_hours": "Mo-Sa 11:00-18:00, Su,PH 12:00-18:00",
    "tourism": "museum",
    "website": "http://www.marzipanland.de",
    "wheelchair": "no",
    "wheelchair:description": "Konnten das Museum nicht besichtigen. Mehr als drei bis vier Stufen und kein Fahrstuhl im Hause."
  }
},
{
  "type": "node",
  "id": 2706028600,
  "lat": 53.7010173,
  "lon": 11.1199364,
  "tags": {
    "name": "Museumsanlage",
    "operator": "Stadt Gadebusch",
    "tourism": "museum"
  }
},
{
  "type": "node",
  "id": 2813267589,
  "lat": 53.7948791,
  "lon": 10.7042120,
  "tags": {
    "name": "Dachdeckermuseum",
    "tourism": "museum"
  }
},
{
  "type": "node",
  "id": 2875652927,
  "lat": 53.7247274,
  "lon": 10.8247740,
  "tags": {
    "name": "Grenszhus Außenanlagen",
    "tourism": "museum"
  }
},
{
  "type": "node",
  "id": 3032483633,
  "lat": 53.9606400,
  "lon": 10.8793240,
  "tags": {
    "addr:city": "Lübeck",
    "addr:country": "DE",
    "addr:housenumber": "1",
    "addr:postcode": "23570",
    "addr:street": "Am Leuchtenfeld",
    "addr:suburb": "Travemünde",
    "name": "Alter Leuchtturm Travemünde",
    "opening_hours": "11:00-16:00; Nov-Mar: 13:00-15:00",
    "phone": "+4945028891790",
    "tourism": "museum",
    "website": "http://www.leuchtturm-travemuende.de",
    "wheelchair": "no",
    "wheelchair:description": "alle Räume nur über Stufen erreichbar"
  }
},
{
  "type": "node",
  "id": 3134302541,
  "lat": 54.1375969,
  "lon": 10.6185228,
  "tags": {
    "addr:city": "Eutin",
    "addr:country": "DE",
    "addr:housenumber": "1",
    "addr:postcode": "23701",
    "addr:street": "Schlossplatz",
    "name": "Ostholstein-Museum",
    "tourism": "museum",
    "wheelchair": "yes",
    "wikidata": "Q1552914"
  }
},
{
  "type": "node",
  "id": 3186733630,
  "lat": 53.8277411,
  "lon": 10.7226320,
  "tags": {
    "fixme": "Lage",
    "name": "Bundespolizeimuseum",
    "tourism": "museum"
  }
},
{
  "type": "node",
  "id": 3337105282,
  "lat": 53.8844451,
  "lon": 10.8052205,
  "tags": {
    "name": "Grenzdokumentations-Stätte Lübeck-Schlutup",
    "opening_hours": "Fr-Sa 14:00-17:00; Su 11:00-17:00",
    "operator": "Grenzdokumentations-Stätte Lübeck-Schlutup e.V.",
    "toilets:wheelchair": "no",
    "tourism": "museum",
    "website": "http://www.grenze-luebeck.de/",
    "wheelchair": "limited",
    "wikidata": "Q1545709"
  }
},
{
  "type": "node",
  "id": 3349526493,
  "lat": 53.8079095,
  "lon": 10.3732077,
  "tags": {
    "addr:city": "Bad Oldesloe",
    "addr:housenumber": "32",
    "addr:postcode": "23843",
    "addr:street": "Königstraße",
    "name": "Heimatmuseum",
    "ref:isil": "DE-MUS-009116",
    "tourism": "museum",
    "website": "https://www.heimatmuseum-oldesloe.de/",
    "wheelchair": "no"
  }
},
{
  "type": "node",
  "id": 3551554186,
  "lat": 53.8739975,
  "lon": 10.6895919,
  "tags": {
    "entrance": "main",
    "internet_access": "yes",
    "name": "Europäisches Hansemuseum",
    "opening_hours": "Mo-Su 10:00-18:00; Dec 24 geschlossen",
    "phone": "+49 451 8090990",
    "start_date": "2015-05-30",
    "toilets:wheelchair": "yes",
    "tourism": "museum",
    "website": "http://www.hansemuseum.eu",
    "wheelchair": "yes",
    "wheelchair:note": "limited because not all large doors in the exibition could be opened automatially",
    "wheelchair:note:de": "limited, weil die Türen in der Ausstellung nicht alle automatisch geöffnet werden können",
    "wikidata": "Q14545643",
    "wikipedia": "de:Europäisches Hansemuseum"
  }
},
{
  "type": "node",
  "id": 4421079528,
  "lat": 53.7212829,
  "lon": 10.4836236,
  "tags": {
    "name": "Museum Steinhorst",
    "tourism": "museum",
    "website": "https://www.museum-steinhorst.de/"
  }
},
{
  "type": "node",
  "id": 4802485599,
  "lat": 54.1396528,
  "lon": 10.8188505,
  "tags": {
    "tourism": "museum"
  }
},
{
  "type": "node",
  "id": 5180687935,
  "lat": 54.1044881,
  "lon": 10.8126162,
  "tags": {
    "name": "Fischerei Museum",
    "tourism": "museum"
  }
},
{
  "type": "node",
  "id": 5403825810,
  "lat": 53.9005583,
  "lon": 11.1420957,
  "tags": {
    "addr:city": "Damshagen",
    "addr:hamlet": "Kussow",
    "addr:housenumber": "9",
    "addr:postcode": "23948",
    "addr:street": "Kussower Weg",
    "historic:era": "paleolithic, mesolithic, neolithic",
    "historic:period": "stone-age",
    "museum": "open_air",
    "name": "Steinzeitdorf Kussow",
    "opening_hours": "Apr-Oct 10:00-17:00, Nov-Mar 10:00-15:00",
    "operator": "Steinzeitdorf Kussow e.V.",
    "phone": "+49 3881 715055",
    "phone:DE": "03881 715055",
    "subject": "history",
    "tourism": "museum",
    "website": "http://www.steinzeitdorf-kussow.de",
    "wheelchair": "limited"
  }
},
{
  "type": "node",
  "id": 5626162822,
  "lat": 53.9559100,
  "lon": 10.8777839,
  "tags": {
    "email": "info@ostseestation-priwall.de",
    "museum": "nature",
    "name": "Ostseestation Travemünde",
    "opening_hours": "Tu-Su 11:30-18:00",
    "operator": "Natur und Umwelt-Ostseestation Travemünde e. V.",
    "phone": "+49 4502 308705",
    "toilets:wheelchair": "yes",
    "tourism": "museum",
    "website": "www.ostseestation-travemuende.de",
    "wheelchair": "yes"
  }
},
{
  "type": "node",
  "id": 5826772052,
  "lat": 53.7073068,
  "lon": 11.0786572,
  "tags": {
    "contact:phone": "+49 3886 711196",
    "contact:website": "https://www.rauchhaus-moellin.de/",
    "name": "Rauchhaus Möllin",
    "opening_hours": "Mo-Th \"nach Vereinbarung\"; Fr-Su 11:00-19:00",
    "tourism": "museum"
  }
},
{
  "type": "node",
  "id": 6106216765,
  "lat": 53.8802302,
  "lon": 10.6953862,
  "tags": {
    "addr:city": "Lübeck",
    "addr:country": "DE",
    "addr:housenumber": "4",
    "addr:postcode": "23568",
    "addr:street": "Jerusalemsberg",
    "name": "Brahms-Institut an der Musikhochschule Lübeck",
    "opening_hours": "We,Sa 14:00-18:00",
    "tourism": "museum",
    "wikidata": "Q15204138",
    "wikipedia": "en:Brahms-Institut"
  }
},
{
  "type": "node",
  "id": 6516190231,
  "lat": 53.9152230,
  "lon": 10.9729881,
  "tags": {
    "addr:city": "Dassow",
    "addr:country": "DE",
    "addr:housenumber": "20",
    "addr:postcode": "23942",
    "addr:street": "Travemünder Weg",
    "description": "Fan-Projekt Museum, Eröffnung Ende Juni 2019",
    "email": "info@outpost-one.de",
    "name": "Outpost One",
    "opening_hours": "Th,Fr 15:00-18:00; Sa,Su 11:00-18:00",
    "operator": "Galactic Indoor UG",
    "tourism": "museum",
    "website": "http://outpost-one.de"
  }
},
{
  "type": "node",
  "id": 7051780081,
  "lat": 54.1095663,
  "lon": 10.8161862,
  "tags": {
    "addr:city": "Neustadt in Holstein",
    "addr:postcode": "23730",
    "addr:street": "Kremper Tor",
    "contact:fax": "+49 4561 6191305",
    "contact:phone": "+49 04561 619305",
    "contact:website": "https://www.zeittor-neustadt.de/",
    "name": "zeiTTor - Museum",
    "opening_hours": "Mar 22-Apr 25 \"Bis Ostern: Sa-So 14:00-16:00; ab Ostern: Di-Sa 10:30-17:00, So und Feiertage: 14:00-17:00\"; Apr 26-Oct 31: Tu-Sa 10:30-17:00; Su,PH 14:00-17:00; Nov 01-Mar 22: Sa,Su 14:00-16:00 || \"Nach Vereinbarung\"",
    "tourism": "museum",
    "wheelchair": "limited"
  }
},
{
  "type": "way",
  "id": 41338534,
  "nodes": [
    505400952,
    505400953,
    505400954,
    505400956,
    505400952
  ],
  "tags": {
    "addr:city": "Lütjensee",
    "addr:housenumber": "18",
    "addr:street": "Großenseer Straße",
    "building": "yes",
    "name": "Motorenmuseum",
    "operator": "Motoren - Museum Schleswig Holstein e.V.",
    "tourism": "museum",
    "website": "http://www.motoren-museum.com/"
  }
},
{
  "type": "way",
  "id": 69487380,
  "nodes": [
    500763588,
    870338757,
    831998941,
    831998995,
    2937816452,
    2937816445,
    2937816447,
    831999006,
    500763588
  ],
  "tags": {
    "landuse": "grass",
    "name": "Steinzeitdorf Kussow",
    "tourism": "museum",
    "website": "http://www.steinzeitdorf-kussow.de",
    "wikipedia": "de:Steinzeitdorf Kussow"
  }
},
{
  "type": "way",
  "id": 77043844,
  "nodes": [
    907171645,
    907171653,
    907171627,
    907171667,
    907171655,
    907171688,
    907171689,
    907171656,
    907171645
  ],
  "tags": {
    "leisure": "park",
    "name": "Grenzhus - Außenanlagen",
    "tourism": "museum"
  }
},
{
  "type": "way",
  "id": 87725202,
  "nodes": [
    1020080903,
    1020081076,
    1020080738,
    1020081133,
    1020080903
  ],
  "tags": {
    "addr:city": "Klütz",
    "addr:country": "DE",
    "addr:housenumber": "14",
    "addr:postcode": "23948",
    "addr:street": "Im Thurow",
    "amenity": "arts_centre",
    "building": "yes",
    "name": "Uwe Johnson Haus",
    "opening_hours": "Apr-Oct: Tu-Su 10:00-17:00; Nov-Mar: We-Su 10:00-16:00",
    "phone": "+49 38825 223 87",
    "tourism": "museum",
    "website": "https://literaturhaus-uwe-johnson.de/",
    "wikipedia": "de:Uwe Johnson"
  }
},
{
  "type": "way",
  "id": 92705910,
  "nodes": [
    1075261648,
    3790857735,
    3790857732,
    3790857730,
    1075261676,
    1075262395,
    3790857729,
    3790857734,
    1075261848,
    1075261648
  ],
  "tags": {
    "addr:city": "Ratzeburg",
    "addr:country": "DE",
    "addr:housenumber": "12",
    "addr:postcode": "23909",
    "addr:street": "Domhof",
    "building": "house",
    "description": "ehemaliges Herrenhaus der Domprobstei",
    "name": "Kreismuseum Herzogtum Lauenburg",
    "source": "Bing Sat",
    "tourism": "museum",
    "website": "http://www.kmrz.de/",
    "wheelchair": "no",
    "wheelchair:description": "würde gerne in Veranstaltungen gehen, geht aber nicht!",
    "wikidata": "Q1614098"
  }
},
{
  "type": "way",
  "id": 92705982,
  "nodes": [
    1075261533,
    1075262321,
    1075261727,
    1075262486,
    1075261533
  ],
  "tags": {
    "addr:city": "Ratzeburg",
    "addr:country": "DE",
    "addr:housenumber": "5",
    "addr:postcode": "23909",
    "addr:street": "Domhof",
    "building": "house",
    "name": "A. Paul Weber Museum",
    "source": "Bing Sat",
    "tourism": "museum",
    "website": "https://www.weber-museum.de/",
    "wheelchair": "no",
    "wikidata": "Q76638936"
  }
},
{
  "type": "way",
  "id": 119866260,
  "nodes": [
    1345329294,
    1345329291,
    1345329290,
    1461961623,
    319513295,
    319513298,
    1345329292,
    1345329293,
    1345329294
  ],
  "tags": {
    "addr:street": "Große Burgstraße",
    "building": "yes",
    "building:material": "brick",
    "height": "32",
    "historic": "city_gate",
    "name": "Burgtor",
    "name:pl": "Brama Zamkowa",
    "roof:colour": "#33cc99",
    "roof:height": "8",
    "roof:material": "copper",
    "roof:shape": "pyramidal",
    "source": "HiRes aerial imagery",
    "source:addr": "estimation",
    "tourism": "museum",
    "wikidata": "Q538276",
    "wikipedia": "de:Burgtor (Lübeck)"
  }
},
{
  "type": "way",
  "id": 119866262,
  "nodes": [
    5471623333,
    5239377460,
    319513556,
    319513156,
    7200898619,
    5471623329,
    7200898618,
    5471623333
  ],
  "tags": {
    "addr:street": "Große Burgstraße",
    "building:material": "brick",
    "building:part": "yes",
    "height": "4.3",
    "name": "Burgtor",
    "name:pl": "Brama Zamkowa",
    "source": "HiRes aerial imagery",
    "source:addr": "estimation",
    "tourism": "museum",
    "wikipedia": "de:Burgtor (Lübeck)"
  }
},
{
  "type": "way",
  "id": 124758610,
  "nodes": [
    1387510638,
    5720744916,
    5720744915,
    5720744917,
    5720744918,
    5720744919,
    5720744920,
    5720744914,
    5720744913,
    5720744912,
    5720744911,
    5720744909,
    5720744910,
    1387510630,
    1387510615,
    5720744907,
    5720744905,
    5720744906,
    5720744908,
    5363781875,
    5720744904,
    5720744903,
    5720744902,
    5720744901,
    5720744900,
    5720744899,
    5720744898,
    5363781869,
    5363781870,
    5363781871,
    5720744791,
    5720744790,
    5720744789,
    5720740879,
    5720740878,
    5720740876,
    5720744795,
    5720744793,
    5720744792,
    5720744794,
    5720740875,
    5720740877,
    5363781874,
    5720740881,
    5720740880,
    5363781873,
    5363781872,
    5720740882,
    5720740883,
    5720740884,
    5720744897,
    5720744895,
    5720744894,
    5720744893,
    5720744896,
    5720744892,
    5720744891,
    5363781876,
    5720745224,
    5720745222,
    5720745221,
    5720745223,
    1387510619,
    1387510638
  ],
  "tags": {
    "addr:housenumber": "5",
    "addr:street": "Kirchplatz",
    "building": "yes",
    "name": "Städtisches Museum Grevesmühlen",
    "roof:shape": "gabled",
    "tourism": "museum",
    "website": "http://www.grevesmuehlen.de/Museum.102.0.html"
  }
},
{
  "type": "way",
  "id": 132016641,
  "nodes": [
    1452604183,
    5732081950,
    5732081953,
    5730006285,
    1452604186,
    5730006396,
    1998628049,
    1998628045,
    1998628031,
    1452604181,
    1452604180,
    5730006282,
    5730004957,
    5730006281,
    5730006395,
    1452604173,
    1452604169,
    5732080711,
    5732080716,
    1452604183
  ],
  "tags": {
    "addr:city": "Schönberg",
    "addr:country": "DE",
    "addr:housenumber": "7",
    "addr:postcode": "23923",
    "addr:street": "Johann-Boye-Straße",
    "charge": "3€/person, 2€/child",
    "contact:email": "museumrz@aol.com",
    "contact:phone": "+49 38828 21539",
    "contact:website": "https://www.schoenberger-land.de/Amt-Sch%C3%B6nberger-Land/%C3%B6ffentliche-Einrichtungen/Museum-Sch%C3%B6nberg/Bechelsdorfer-Schulzenhof",
    "fee": "yes",
    "landuse": "farmyard",
    "name": "Freilichtanlage Bechelsdorfer Schulzenhof",
    "opening_hours": "Tu,Sa 13:00-18:00; We,Th 11:00-18:00",
    "tourism": "museum",
    "wikipedia": "de:Volkskundemuseum in Schönberg"
  }
},
{
  "type": "way",
  "id": 132175366,
  "nodes": [
    1454517145,
    3658661245,
    1454517143,
    1454517141,
    3658661244,
    1454517142,
    3658661247,
    4932163471,
    6292899768,
    3658661243,
    1454517149,
    3658661253,
    1454517152,
    3658661252,
    3658661251,
    3658661254,
    3658661250,
    1454517153,
    3658661255,
    1454517154,
    1454517156,
    1454517157,
    3658661249,
    1454517155,
    3658661248,
    1454517151,
    1454517148,
    3658661246,
    1454517147,
    1454517146,
    1454517145
  ],
  "tags": {
    "addr:housenumber": "16",
    "addr:postcode": "23570",
    "addr:street": "Am Priwallhafen",
    "building": "ship",
    "floating": "yes",
    "historic": "ship",
    "museum": "maritime",
    "name": "Museumsschiff Passat",
    "opening_hours": "Mo-Su 10:00-17:00",
    "phone": "+49 4502 5287",
    "tourism": "museum",
    "website": "http://www.ss-passat.com",
    "wheelchair": "no",
    "wikidata": "Q465520",
    "wikipedia": "de:Passat (Schiff, 1911)"
  }
},
{
  "type": "way",
  "id": 147253616,
  "nodes": [
    1604813567,
    1604813576,
    5471760462,
    5473291190,
    5473291189,
    5473291186,
    5473291184,
    5473291185,
    5473291187,
    5473291188,
    5471760447,
    1604813556,
    5473291170,
    1604813565,
    5471760443,
    1604813553,
    1604813532,
    1604813525,
    1604813494,
    1604813491,
    1604813468,
    1604813444,
    1604813464,
    5471760463,
    5471760445,
    1604813438,
    5471760450,
    5471760459,
    5471760458,
    7201063551,
    1604813472,
    5473291163,
    7201063549,
    5473291162,
    5473291167,
    5473291166,
    1604813543,
    5471760456,
    5471760452,
    1604813579,
    5473291169,
    5473291168,
    5473291161,
    5473291160,
    5473291165,
    5473291164,
    5473291157,
    5473291156,
    2402316351,
    1604813567
  ],
  "tags": {
    "addr:city": "Lübeck",
    "addr:country": "DE",
    "addr:housenumber": "27",
    "addr:postcode": "23552",
    "addr:street": "Königstraße",
    "building": "yes",
    "heritage": "yes",
    "image": "http://commons.wikimedia.org/wiki/File:Katharinenkirche1.jpg",
    "name": "Museumskirche Sankt Katharinen",
    "opening_hours": "Th,Fr,Su 12:00-16:00, Sa 11:30-16:00",
    "tourism": "museum",
    "wheelchair": "yes",
    "wikipedia": "de:Katharinenkloster Lübeck"
  }
},
{
  "type": "way",
  "id": 153789584,
  "nodes": [
    1664291524,
    1664291442,
    1664291428,
    1664291426,
    1664291454,
    1664291510,
    1664291524
  ],
  "tags": {
    "addr:city": "Lübeck",
    "addr:country": "DE",
    "addr:housenumber": "21",
    "addr:postcode": "23552",
    "addr:street": "Königstraße",
    "building": "yes",
    "check_date": "2015-02-26",
    "name": "Willy-Brandt-Haus",
    "opening_hours": "Jan-Mar: Tu-Su 11:00-17:00; Apr-Dec: Tu-Su 10:00-18:00",
    "phone": "+49 451 80892560",
    "source": "Aerowest - local Geoserver",
    "tourism": "museum",
    "website": "https://www.willy-brandt.de/haus-luebeck.html",
    "wheelchair": "yes",
    "wheelchair:description": "Rampe auf Anfrage",
    "wikidata": "Q2581800"
  }
},
{
  "type": "way",
  "id": 153789646,
  "nodes": [
    1664291647,
    1664291649,
    1664291661,
    3051399761,
    1664291630,
    1664291627,
    1664291641,
    1664291634,
    1664291632,
    1664291643,
    1664291647
  ],
  "tags": {
    "addr:city": "Lübeck",
    "addr:country": "DE",
    "addr:housenumber": "11",
    "addr:postcode": "23552",
    "addr:street": "Königstraße",
    "building": "yes",
    "contact:email": "behnhaus@luebeck.de",
    "contact:fax": "+49 (0451) 122 4149",
    "contact:phone": "+49 (0451) 122 4148",
    "contact:website": "www.museum-behnhaus-draegerhaus.de",
    "lastcheck": "2015-02-26",
    "name": "Behnhaus Drägerhaus",
    "opening_hours": "Jan-Mar: Tu-Su 11:00-17:00; Apr-Dec: Tu-Su 10:00-17:00",
    "source": "Aerowest - local Geoserver",
    "toilets:wheelchair": "no",
    "tourism": "museum",
    "wheelchair": "limited",
    "wikidata": "Q814533",
    "wikipedia": "de:Behnhaus"
  }
},
{
  "type": "way",
  "id": 181128779,
  "nodes": [
    2927575805,
    2927575806,
    2927575807,
    2927575808,
    1915684871,
    1915684869,
    1915684866,
    1915684864,
    1915684862,
    2927575801,
    2927575802,
    2927575803,
    2927575804,
    1915684861,
    1915684863,
    1915684865,
    439766712,
    1915684868,
    1915684870,
    2927575805
  ],
  "tags": {
    "building": "yes",
    "height": "36",
    "heritage": "yes",
    "historic": "yes",
    "man_made": "water_tower",
    "name": "Naturkundemuseum",
    "old_name": "Wasserturm",
    "tourism": "museum",
    "wikidata": "Q1276750",
    "wikipedia": "de:Wasserturm (Mölln)"
  }
},
{
  "type": "way",
  "id": 189102778,
  "nodes": [
    1997485378,
    5156633364,
    4384158355,
    4384158356,
    1997485393,
    1997485405,
    4384158354,
    1997485374,
    1997485378
  ],
  "tags": {
    "addr:city": "Klütz",
    "addr:housename": "Empfangsgebäude",
    "addr:housenumber": "4",
    "addr:postcode": "23948",
    "addr:street": "Bahnhofstraße",
    "building": "yes",
    "fee": "yes",
    "name": "De Lütt Kaffeebrenner",
    "note": "Fahrpreis: 10€ Erwachsene, Kinder bis 12 Jahre 5€",
    "operator": "Stiftung Deutsche Kleinbahnen",
    "phone": "+49 38825 37165",
    "service_times": "Apr: We,Fr 11:00,12:00,14:00; May,Jun,Sep,Oct: Mo-Fr 11:00,12:00,14:00; Jul-Aug: Mo-Su 11:00,12:00,14:00,15:00",
    "tourism": "museum",
    "wikipedia": "de:Bahnstrecke Grevesmühlen–Klütz"
  }
},
{
  "type": "way",
  "id": 220586786,
  "nodes": [
    2296907297,
    2296907298,
    2296907299,
    2296907300,
    2296907301,
    2296907302,
    2296907297
  ],
  "tags": {
    "addr:city": "Reinfeld",
    "addr:housenumber": "9",
    "addr:postcode": "23858",
    "addr:street": "Neuer Garten",
    "building": "yes",
    "construction_year": "1881",
    "name": "Heimatmuseum Reinfeld",
    "start_date": "1881",
    "tourism": "museum",
    "wheelchair": "yes"
  }
},
{
  "type": "way",
  "id": 310212462,
  "nodes": [
    3156082389,
    3156082369,
    3156082371,
    3156082395,
    3156082389
  ],
  "tags": {
    "addr:city": "Ratzeburg",
    "addr:housenumber": "1",
    "addr:postcode": "23909",
    "addr:street": "Barlachplatz",
    "building": "yes",
    "name": "Ernst Barlach Museum",
    "phone": "+49 4103 918291",
    "source": "Bing Sat",
    "tourism": "museum",
    "website": "http://www.ernst-barlach.de",
    "wheelchair": "no",
    "wikidata": "Q1278415"
  }
},
{
  "type": "way",
  "id": 342158297,
  "nodes": [
    3491879616,
    5926269496,
    5926269495,
    3491879615,
    3491879613,
    3491879614,
    3491879616
  ],
  "tags": {
    "building": "yes",
    "name": "Noctalis – Welt der Fledermäuse",
    "opening_hours": "Mo-Fr 09:00-18:00, Sa-Su 10:00-18:00; Oct-Mar: Mo-Fr 09:00-17:00 || \"an Tagen mit Spätvorstellungen der Karl-May-Spiele bis 19:30 Uhr\"",
    "tourism": "museum",
    "wheelchair": "yes",
    "wikidata": "Q1702529",
    "wikipedia": "de:Noctalis"
  }
},
{
  "type": "way",
  "id": 555845100,
  "nodes": [
    4830245079,
    5362369262,
    5362369261,
    5362369257,
    5362369264,
    5362369260,
    5362369259,
    5362369258,
    4830245079
  ],
  "tags": {
    "addr:city": "Grevesmühlen",
    "addr:housenumber": "1a",
    "addr:street": "Rosa-Luxemburg-Straße",
    "building": "public",
    "name": "Stadtarchiv Grevesmühlen",
    "tourism": "museum",
    "website": "https://www.grevesmuehlen.info/historisches/stadtarchiv/"
  }
},
{
  "type": "relation",
  "id": 1824185,
  "members": [
    {
      "type": "way",
      "ref": 135492210,
      "role": "outer"
    },
    {
      "type": "way",
      "ref": 135492212,
      "role": "inner"
    }
  ],
  "tags": {
    "addr:city": "Lübeck",
    "addr:country": "DE",
    "addr:housenumber": "15",
    "addr:postcode": "23552",
    "addr:street": "Sankt-Annen-Straße",
    "building": "yes",
    "name": "Sankt Annen-Museum",
    "tourism": "museum",
    "type": "multipolygon",
    "wheelchair": "limited",
    "wikidata": "Q18674701",
    "wikipedia": "de:St.-Annen-Kloster Lübeck"
  }
},
{
  "type": "node",
  "id": 505400952,
  "lat": 53.6344489,
  "lon": 10.3586189
},
{
  "type": "node",
  "id": 505400953,
  "lat": 53.6343952,
  "lon": 10.3588185
},
{
  "type": "node",
  "id": 505400954,
  "lat": 53.6341002,
  "lon": 10.3585930
},
{
  "type": "node",
  "id": 505400956,
  "lat": 53.6341538,
  "lon": 10.3583934
},
{
  "type": "node",
  "id": 439766712,
  "lat": 53.6259596,
  "lon": 10.6930986
},
{
  "type": "node",
  "id": 1915684861,
  "lat": 53.6259374,
  "lon": 10.6930390
},
{
  "type": "node",
  "id": 1915684862,
  "lat": 53.6259819,
  "lon": 10.6929598
},
{
  "type": "node",
  "id": 1915684863,
  "lat": 53.6259407,
  "lon": 10.6930627
},
{
  "type": "node",
  "id": 1915684864,
  "lat": 53.6259961,
  "lon": 10.6929642
},
{
  "type": "node",
  "id": 1915684865,
  "lat": 53.6259484,
  "lon": 10.6930833
},
{
  "type": "node",
  "id": 1915684866,
  "lat": 53.6260088,
  "lon": 10.6929762
},
{
  "type": "node",
  "id": 1915684868,
  "lat": 53.6259732,
  "lon": 10.6931070
},
{
  "type": "node",
  "id": 1915684869,
  "lat": 53.6260185,
  "lon": 10.6929944
},
{
  "type": "node",
  "id": 1915684870,
  "lat": 53.6259877,
  "lon": 10.6931074
},
{
  "type": "node",
  "id": 1915684871,
  "lat": 53.6260241,
  "lon": 10.6930170
},
{
  "type": "node",
  "id": 2927575801,
  "lat": 53.6259675,
  "lon": 10.6929635
},
{
  "type": "node",
  "id": 2927575802,
  "lat": 53.6259547,
  "lon": 10.6929748
},
{
  "type": "node",
  "id": 2927575803,
  "lat": 53.6259448,
  "lon": 10.6929925
},
{
  "type": "node",
  "id": 2927575804,
  "lat": 53.6259388,
  "lon": 10.6930147
},
{
  "type": "node",
  "id": 2927575805,
  "lat": 53.6260014,
  "lon": 10.6931000
},
{
  "type": "node",
  "id": 2927575806,
  "lat": 53.6260131,
  "lon": 10.6930853
},
{
  "type": "node",
  "id": 2927575807,
  "lat": 53.6260212,
  "lon": 10.6930651
},
{
  "type": "node",
  "id": 2927575808,
  "lat": 53.6260250,
  "lon": 10.6930414
},
{
  "type": "node",
  "id": 3156082369,
  "lat": 53.6985293,
  "lon": 10.7733464
},
{
  "type": "node",
  "id": 3156082371,
  "lat": 53.6985408,
  "lon": 10.7731037
},
{
  "type": "node",
  "id": 3156082389,
  "lat": 53.6986388,
  "lon": 10.7733612
},
{
  "type": "node",
  "id": 3156082395,
  "lat": 53.6986502,
  "lon": 10.7731185
},
{
  "type": "node",
  "id": 1075261533,
  "lat": 53.7017839,
  "lon": 10.7752735
},
{
  "type": "node",
  "id": 1075261648,
  "lat": 53.7026751,
  "lon": 10.7753504
},
{
  "type": "node",
  "id": 1075261676,
  "lat": 53.7023194,
  "lon": 10.7753420
},
{
  "type": "node",
  "id": 1075261727,
  "lat": 53.7015816,
  "lon": 10.7755112
},
{
  "type": "node",
  "id": 1075261848,
  "lat": 53.7026729,
  "lon": 10.7756038
},
{
  "type": "node",
  "id": 1075262321,
  "lat": 53.7015811,
  "lon": 10.7752745
},
{
  "type": "node",
  "id": 1075262395,
  "lat": 53.7023172,
  "lon": 10.7755954
},
{
  "type": "node",
  "id": 1075262486,
  "lat": 53.7017843,
  "lon": 10.7755102
},
{
  "type": "node",
  "id": 3790857729,
  "lat": 53.7024575,
  "lon": 10.7755987
},
{
  "type": "node",
  "id": 3790857730,
  "lat": 53.7024596,
  "lon": 10.7753453
},
{
  "type": "node",
  "id": 3790857732,
  "lat": 53.7024985,
  "lon": 10.7753466
},
{
  "type": "node",
  "id": 3790857734,
  "lat": 53.7025465,
  "lon": 10.7756008
},
{
  "type": "node",
  "id": 3790857735,
  "lat": 53.7025486,
  "lon": 10.7753474
},
{
  "type": "node",
  "id": 2296907297,
  "lat": 53.8331827,
  "lon": 10.4781434
},
{
  "type": "node",
  "id": 2296907298,
  "lat": 53.8329684,
  "lon": 10.4783249
},
{
  "type": "node",
  "id": 2296907299,
  "lat": 53.8330132,
  "lon": 10.4784768
},
{
  "type": "node",
  "id": 2296907300,
  "lat": 53.8332033,
  "lon": 10.4783159
},
{
  "type": "node",
  "id": 2296907301,
  "lat": 53.8331941,
  "lon": 10.4782849
},
{
  "type": "node",
  "id": 2296907302,
  "lat": 53.8332183,
  "lon": 10.4782643
},
{
  "type": "node",
  "id": 3491879613,
  "lat": 53.9362805,
  "lon": 10.3169044
},
{
  "type": "node",
  "id": 3491879614,
  "lat": 53.9363056,
  "lon": 10.3166818
},
{
  "type": "node",
  "id": 3491879615,
  "lat": 53.9364413,
  "lon": 10.3169568
},
{
  "type": "node",
  "id": 3491879616,
  "lat": 53.9363986,
  "lon": 10.3167121
},
{
  "type": "node",
  "id": 5926269495,
  "lat": 53.9364589,
  "lon": 10.3168007
},
{
  "type": "node",
  "id": 5926269496,
  "lat": 53.9363911,
  "lon": 10.3167786
},
{
  "type": "node",
  "id": 1488220068,
  "lat": 53.8625224,
  "lon": 10.6887776
},
{
  "type": "node",
  "id": 1488220070,
  "lat": 53.8625739,
  "lon": 10.6888840
},
{
  "type": "node",
  "id": 1488220085,
  "lat": 53.8626486,
  "lon": 10.6888890
},
{
  "type": "node",
  "id": 1488220099,
  "lat": 53.8628204,
  "lon": 10.6883610
},
{
  "type": "node",
  "id": 1488220126,
  "lat": 53.8628525,
  "lon": 10.6885953
},
{
  "type": "node",
  "id": 1488220151,
  "lat": 53.8629466,
  "lon": 10.6887941
},
{
  "type": "node",
  "id": 1488220166,
  "lat": 53.8630160,
  "lon": 10.6888358
},
{
  "type": "node",
  "id": 1488220170,
  "lat": 53.8630354,
  "lon": 10.6888042
},
{
  "type": "node",
  "id": 1488248685,
  "lat": 53.8625267,
  "lon": 10.6887864
},
{
  "type": "node",
  "id": 1488248691,
  "lat": 53.8625419,
  "lon": 10.6887504
},
{
  "type": "node",
  "id": 1488248706,
  "lat": 53.8626013,
  "lon": 10.6886673
},
{
  "type": "node",
  "id": 1488248731,
  "lat": 53.8627674,
  "lon": 10.6884351
},
{
  "type": "node",
  "id": 1488220066,
  "lat": 53.8625067,
  "lon": 10.6889764
},
{
  "type": "node",
  "id": 1488220072,
  "lat": 53.8626399,
  "lon": 10.6892549
},
{
  "type": "node",
  "id": 1488220075,
  "lat": 53.8626479,
  "lon": 10.6892423
},
{
  "type": "node",
  "id": 1488220088,
  "lat": 53.8627210,
  "lon": 10.6893879
},
{
  "type": "node",
  "id": 1488220091,
  "lat": 53.8627360,
  "lon": 10.6890612
},
{
  "type": "node",
  "id": 1488220096,
  "lat": 53.8627972,
  "lon": 10.6891765
},
{
  "type": "node",
  "id": 1488220101,
  "lat": 53.8628241,
  "lon": 10.6889308
},
{
  "type": "node",
  "id": 1488220105,
  "lat": 53.8628241,
  "lon": 10.6892297
},
{
  "type": "node",
  "id": 1488220114,
  "lat": 53.8628390,
  "lon": 10.6889587
},
{
  "type": "node",
  "id": 1488248694,
  "lat": 53.8625582,
  "lon": 10.6890840
},
{
  "type": "node",
  "id": 319513156,
  "lat": 53.8738692,
  "lon": 10.6910431
},
{
  "type": "node",
  "id": 319513295,
  "lat": 53.8738434,
  "lon": 10.6912448
},
{
  "type": "node",
  "id": 1345329290,
  "lat": 53.8738616,
  "lon": 10.6911417
},
{
  "type": "node",
  "id": 1345329291,
  "lat": 53.8738719,
  "lon": 10.6910835
},
{
  "type": "node",
  "id": 1461961623,
  "lat": 53.8738520,
  "lon": 10.6911981
},
{
  "type": "node",
  "id": 1604813438,
  "lat": 53.8690183,
  "lon": 10.6899195
},
{
  "type": "node",
  "id": 1604813444,
  "lat": 53.8690402,
  "lon": 10.6901555
},
{
  "type": "node",
  "id": 1604813464,
  "lat": 53.8690575,
  "lon": 10.6900701
},
{
  "type": "node",
  "id": 1604813468,
  "lat": 53.8690605,
  "lon": 10.6902297
},
{
  "type": "node",
  "id": 1604813472,
  "lat": 53.8690614,
  "lon": 10.6897013
},
{
  "type": "node",
  "id": 1604813491,
  "lat": 53.8690834,
  "lon": 10.6902435
},
{
  "type": "node",
  "id": 1604813494,
  "lat": 53.8691044,
  "lon": 10.6902561
},
{
  "type": "node",
  "id": 1604813525,
  "lat": 53.8691482,
  "lon": 10.6902212
},
{
  "type": "node",
  "id": 1604813532,
  "lat": 53.8691651,
  "lon": 10.6901358
},
{
  "type": "node",
  "id": 1604813543,
  "lat": 53.8691795,
  "lon": 10.6891040
},
{
  "type": "node",
  "id": 1604813553,
  "lat": 53.8691881,
  "lon": 10.6901490
},
{
  "type": "node",
  "id": 1604813556,
  "lat": 53.8692324,
  "lon": 10.6900460
},
{
  "type": "node",
  "id": 1604813565,
  "lat": 53.8692445,
  "lon": 10.6901232
},
{
  "type": "node",
  "id": 1604813567,
  "lat": 53.8692811,
  "lon": 10.6897767
},
{
  "type": "node",
  "id": 1604813576,
  "lat": 53.8692979,
  "lon": 10.6897864
},
{
  "type": "node",
  "id": 1604813579,
  "lat": 53.8693779,
  "lon": 10.6892178
},
{
  "type": "node",
  "id": 1664291426,
  "lat": 53.8696536,
  "lon": 10.6897004
},
{
  "type": "node",
  "id": 1664291428,
  "lat": 53.8696569,
  "lon": 10.6896852
},
{
  "type": "node",
  "id": 1664291442,
  "lat": 53.8696807,
  "lon": 10.6893403
},
{
  "type": "node",
  "id": 1664291454,
  "lat": 53.8697100,
  "lon": 10.6897165
},
{
  "type": "node",
  "id": 1664291510,
  "lat": 53.8697755,
  "lon": 10.6897352
},
{
  "type": "node",
  "id": 1664291524,
  "lat": 53.8697872,
  "lon": 10.6893962
},
{
  "type": "node",
  "id": 1664291627,
  "lat": 53.8701635,
  "lon": 10.6897441
},
{
  "type": "node",
  "id": 1664291630,
  "lat": 53.8701705,
  "lon": 10.6895797
},
{
  "type": "node",
  "id": 1664291632,
  "lat": 53.8701917,
  "lon": 10.6900049
},
{
  "type": "node",
  "id": 1664291634,
  "lat": 53.8701971,
  "lon": 10.6899052
},
{
  "type": "node",
  "id": 1664291641,
  "lat": 53.8702050,
  "lon": 10.6897594
},
{
  "type": "node",
  "id": 1664291643,
  "lat": 53.8702278,
  "lon": 10.6900127
},
{
  "type": "node",
  "id": 1664291647,
  "lat": 53.8703054,
  "lon": 10.6900255
},
{
  "type": "node",
  "id": 1664291649,
  "lat": 53.8703084,
  "lon": 10.6899127
},
{
  "type": "node",
  "id": 1664291661,
  "lat": 53.8703139,
  "lon": 10.6896077
},
{
  "type": "node",
  "id": 2402316351,
  "lat": 53.8692993,
  "lon": 10.6896742
},
{
  "type": "node",
  "id": 3051399761,
  "lat": 53.8702406,
  "lon": 10.6895934
},
{
  "type": "node",
  "id": 5471760443,
  "lat": 53.8692095,
  "lon": 10.6901612
},
{
  "type": "node",
  "id": 5471760445,
  "lat": 53.8689895,
  "lon": 10.6899681
},
{
  "type": "node",
  "id": 5471760447,
  "lat": 53.8692436,
  "lon": 10.6899908
},
{
  "type": "node",
  "id": 5471760450,
  "lat": 53.8690289,
  "lon": 10.6898658
},
{
  "type": "node",
  "id": 5471760452,
  "lat": 53.8693504,
  "lon": 10.6892020
},
{
  "type": "node",
  "id": 5471760456,
  "lat": 53.8692415,
  "lon": 10.6891396
},
{
  "type": "node",
  "id": 5471760458,
  "lat": 53.8690596,
  "lon": 10.6897684
},
{
  "type": "node",
  "id": 5471760459,
  "lat": 53.8690387,
  "lon": 10.6898732
},
{
  "type": "node",
  "id": 5471760462,
  "lat": 53.8692766,
  "lon": 10.6898929
},
{
  "type": "node",
  "id": 5471760463,
  "lat": 53.8689943,
  "lon": 10.6900326
},
{
  "type": "node",
  "id": 5473291156,
  "lat": 53.8693067,
  "lon": 10.6896315
},
{
  "type": "node",
  "id": 5473291157,
  "lat": 53.8693090,
  "lon": 10.6896178
},
{
  "type": "node",
  "id": 5473291160,
  "lat": 53.8693389,
  "lon": 10.6894444
},
{
  "type": "node",
  "id": 5473291161,
  "lat": 53.8693412,
  "lon": 10.6894307
},
{
  "type": "node",
  "id": 5473291162,
  "lat": 53.8691198,
  "lon": 10.6894061
},
{
  "type": "node",
  "id": 5473291163,
  "lat": 53.8691171,
  "lon": 10.6894197
},
{
  "type": "node",
  "id": 5473291164,
  "lat": 53.8693229,
  "lon": 10.6895372
},
{
  "type": "node",
  "id": 5473291165,
  "lat": 53.8693253,
  "lon": 10.6895234
},
{
  "type": "node",
  "id": 5473291166,
  "lat": 53.8691562,
  "lon": 10.6892218
},
{
  "type": "node",
  "id": 5473291167,
  "lat": 53.8691535,
  "lon": 10.6892354
},
{
  "type": "node",
  "id": 5473291168,
  "lat": 53.8693552,
  "lon": 10.6893498
},
{
  "type": "node",
  "id": 5473291169,
  "lat": 53.8693575,
  "lon": 10.6893360
},
{
  "type": "node",
  "id": 5473291170,
  "lat": 53.8692297,
  "lon": 10.6900596
},
{
  "type": "node",
  "id": 5473291184,
  "lat": 53.8692702,
  "lon": 10.6900077
},
{
  "type": "node",
  "id": 5473291185,
  "lat": 53.8692622,
  "lon": 10.6900137
},
{
  "type": "node",
  "id": 5473291186,
  "lat": 53.8692736,
  "lon": 10.6899940
},
{
  "type": "node",
  "id": 5473291187,
  "lat": 53.8692540,
  "lon": 10.6900085
},
{
  "type": "node",
  "id": 5473291188,
  "lat": 53.8692504,
  "lon": 10.6899947
},
{
  "type": "node",
  "id": 5473291189,
  "lat": 53.8692704,
  "lon": 10.6899803
},
{
  "type": "node",
  "id": 5473291190,
  "lat": 53.8692605,
  "lon": 10.6899740
},
{
  "type": "node",
  "id": 7200898619,
  "lat": 53.8738780,
  "lon": 10.6910118
},
{
  "type": "node",
  "id": 7201063549,
  "lat": 53.8691185,
  "lon": 10.6894125
},
{
  "type": "node",
  "id": 7201063551,
  "lat": 53.8690718,
  "lon": 10.6897072
},
{
  "type": "node",
  "id": 319513298,
  "lat": 53.8739207,
  "lon": 10.6912843
},
{
  "type": "node",
  "id": 319513556,
  "lat": 53.8739822,
  "lon": 10.6911001
},
{
  "type": "node",
  "id": 1345329292,
  "lat": 53.8739406,
  "lon": 10.6912940
},
{
  "type": "node",
  "id": 1345329293,
  "lat": 53.8739594,
  "lon": 10.6911877
},
{
  "type": "node",
  "id": 1345329294,
  "lat": 53.8739691,
  "lon": 10.6911328
},
{
  "type": "node",
  "id": 5239377460,
  "lat": 53.8739949,
  "lon": 10.6910682
},
{
  "type": "node",
  "id": 5471623329,
  "lat": 53.8738862,
  "lon": 10.6909828
},
{
  "type": "node",
  "id": 5471623333,
  "lat": 53.8740062,
  "lon": 10.6910400
},
{
  "type": "node",
  "id": 7200898618,
  "lat": 53.8739422,
  "lon": 10.6910095
},
{
  "type": "node",
  "id": 907171627,
  "lat": 53.7244534,
  "lon": 10.8240407
},
{
  "type": "node",
  "id": 907171645,
  "lat": 53.7251516,
  "lon": 10.8241819
},
{
  "type": "node",
  "id": 907171653,
  "lat": 53.7248723,
  "lon": 10.8233823
},
{
  "type": "node",
  "id": 907171655,
  "lat": 53.7244720,
  "lon": 10.8246343
},
{
  "type": "node",
  "id": 907171656,
  "lat": 53.7249927,
  "lon": 10.8246400
},
{
  "type": "node",
  "id": 907171667,
  "lat": 53.7246088,
  "lon": 10.8243454
},
{
  "type": "node",
  "id": 907171688,
  "lat": 53.7247561,
  "lon": 10.8253356
},
{
  "type": "node",
  "id": 907171689,
  "lat": 53.7250707,
  "lon": 10.8248786
},
{
  "type": "node",
  "id": 1454517141,
  "lat": 53.9578963,
  "lon": 10.8801910
},
{
  "type": "node",
  "id": 1454517142,
  "lat": 53.9578967,
  "lon": 10.8802923
},
{
  "type": "node",
  "id": 1454517143,
  "lat": 53.9579044,
  "lon": 10.8801655
},
{
  "type": "node",
  "id": 1454517145,
  "lat": 53.9579383,
  "lon": 10.8801414
},
{
  "type": "node",
  "id": 1454517146,
  "lat": 53.9579563,
  "lon": 10.8801531
},
{
  "type": "node",
  "id": 1454517147,
  "lat": 53.9579692,
  "lon": 10.8801757
},
{
  "type": "node",
  "id": 1454517148,
  "lat": 53.9579958,
  "lon": 10.8802901
},
{
  "type": "node",
  "id": 1454517149,
  "lat": 53.9580039,
  "lon": 10.8812993
},
{
  "type": "node",
  "id": 1454517151,
  "lat": 53.9580133,
  "lon": 10.8803804
},
{
  "type": "node",
  "id": 1454517152,
  "lat": 53.9580471,
  "lon": 10.8815017
},
{
  "type": "node",
  "id": 1454517153,
  "lat": 53.9581364,
  "lon": 10.8816383
},
{
  "type": "node",
  "id": 1454517154,
  "lat": 53.9581470,
  "lon": 10.8816045
},
{
  "type": "node",
  "id": 1454517155,
  "lat": 53.9581315,
  "lon": 10.8812532
},
{
  "type": "node",
  "id": 1454517156,
  "lat": 53.9581542,
  "lon": 10.8815454
},
{
  "type": "node",
  "id": 1454517157,
  "lat": 53.9581525,
  "lon": 10.8814740
},
{
  "type": "node",
  "id": 3658661243,
  "lat": 53.9579169,
  "lon": 10.8806154
},
{
  "type": "node",
  "id": 3658661244,
  "lat": 53.9578950,
  "lon": 10.8802434
},
{
  "type": "node",
  "id": 3658661245,
  "lat": 53.9579190,
  "lon": 10.8801494
},
{
  "type": "node",
  "id": 3658661246,
  "lat": 53.9579846,
  "lon": 10.8802281
},
{
  "type": "node",
  "id": 3658661247,
  "lat": 53.9579031,
  "lon": 10.8804176
},
{
  "type": "node",
  "id": 3658661248,
  "lat": 53.9580417,
  "lon": 10.8805688
},
{
  "type": "node",
  "id": 3658661249,
  "lat": 53.9581448,
  "lon": 10.8813625
},
{
  "type": "node",
  "id": 3658661250,
  "lat": 53.9581106,
  "lon": 10.8816495
},
{
  "type": "node",
  "id": 3658661251,
  "lat": 53.9580918,
  "lon": 10.8816334
},
{
  "type": "node",
  "id": 3658661252,
  "lat": 53.9580685,
  "lon": 10.8815811
},
{
  "type": "node",
  "id": 3658661253,
  "lat": 53.9580252,
  "lon": 10.8814099
},
{
  "type": "node",
  "id": 3658661254,
  "lat": 53.9581004,
  "lon": 10.8816435
},
{
  "type": "node",
  "id": 3658661255,
  "lat": 53.9581432,
  "lon": 10.8816238
},
{
  "type": "node",
  "id": 4932163471,
  "lat": 53.9579084,
  "lon": 10.8804974
},
{
  "type": "node",
  "id": 6292899768,
  "lat": 53.9579120,
  "lon": 10.8805474
},
{
  "type": "node",
  "id": 1452604169,
  "lat": 53.8429609,
  "lon": 10.9224779
},
{
  "type": "node",
  "id": 1452604173,
  "lat": 53.8431159,
  "lon": 10.9233537
},
{
  "type": "node",
  "id": 1452604180,
  "lat": 53.8435911,
  "lon": 10.9231278
},
{
  "type": "node",
  "id": 1452604181,
  "lat": 53.8436125,
  "lon": 10.9232569
},
{
  "type": "node",
  "id": 1452604183,
  "lat": 53.8436916,
  "lon": 10.9220917
},
{
  "type": "node",
  "id": 1452604186,
  "lat": 53.8439021,
  "lon": 10.9232119
},
{
  "type": "node",
  "id": 1998628031,
  "lat": 53.8436224,
  "lon": 10.9232519
},
{
  "type": "node",
  "id": 1998628045,
  "lat": 53.8437745,
  "lon": 10.9231766
},
{
  "type": "node",
  "id": 1998628049,
  "lat": 53.8437989,
  "lon": 10.9233181
},
{
  "type": "node",
  "id": 5730004957,
  "lat": 53.8435441,
  "lon": 10.9231354
},
{
  "type": "node",
  "id": 5730006281,
  "lat": 53.8435173,
  "lon": 10.9231397
},
{
  "type": "node",
  "id": 5730006282,
  "lat": 53.8435702,
  "lon": 10.9231312
},
{
  "type": "node",
  "id": 5730006285,
  "lat": 53.8438555,
  "lon": 10.9229605
},
{
  "type": "node",
  "id": 5730006395,
  "lat": 53.8435027,
  "lon": 10.9231420
},
{
  "type": "node",
  "id": 5730006396,
  "lat": 53.8438445,
  "lon": 10.9232969
},
{
  "type": "node",
  "id": 5732080711,
  "lat": 53.8432747,
  "lon": 10.9223120
},
{
  "type": "node",
  "id": 5732080716,
  "lat": 53.8436464,
  "lon": 10.9221156
},
{
  "type": "node",
  "id": 5732081950,
  "lat": 53.8438182,
  "lon": 10.9227594
},
{
  "type": "node",
  "id": 5732081953,
  "lat": 53.8438217,
  "lon": 10.9227782
},
{
  "type": "node",
  "id": 831998995,
  "lat": 53.9011615,
  "lon": 11.1409502
},
{
  "type": "node",
  "id": 831999006,
  "lat": 53.9007458,
  "lon": 11.1394511
},
{
  "type": "node",
  "id": 2937816445,
  "lat": 53.9008458,
  "lon": 11.1402463
},
{
  "type": "node",
  "id": 2937816447,
  "lat": 53.9008591,
  "lon": 11.1396158
},
{
  "type": "node",
  "id": 2937816452,
  "lat": 53.9011728,
  "lon": 11.1405601
},
{
  "type": "node",
  "id": 500763588,
  "lat": 53.9000462,
  "lon": 11.1414854
},
{
  "type": "node",
  "id": 831998941,
  "lat": 53.9004182,
  "lon": 11.1421761
},
{
  "type": "node",
  "id": 870338757,
  "lat": 53.9002351,
  "lon": 11.1417773
},
{
  "type": "node",
  "id": 1387510615,
  "lat": 53.8627458,
  "lon": 11.1841505
},
{
  "type": "node",
  "id": 1387510619,
  "lat": 53.8628036,
  "lon": 11.1838107
},
{
  "type": "node",
  "id": 1387510630,
  "lat": 53.8628421,
  "lon": 11.1841971
},
{
  "type": "node",
  "id": 1387510638,
  "lat": 53.8629006,
  "lon": 11.1838579
},
{
  "type": "node",
  "id": 5363781869,
  "lat": 53.8627085,
  "lon": 11.1840418
},
{
  "type": "node",
  "id": 5363781870,
  "lat": 53.8626770,
  "lon": 11.1840277
},
{
  "type": "node",
  "id": 5363781871,
  "lat": 53.8626662,
  "lon": 11.1840894
},
{
  "type": "node",
  "id": 5363781872,
  "lat": 53.8627254,
  "lon": 11.1837686
},
{
  "type": "node",
  "id": 5363781873,
  "lat": 53.8625307,
  "lon": 11.1839565
},
{
  "type": "node",
  "id": 5363781874,
  "lat": 53.8625879,
  "lon": 11.1840926
},
{
  "type": "node",
  "id": 5363781875,
  "lat": 53.8627649,
  "lon": 11.1840164
},
{
  "type": "node",
  "id": 5363781876,
  "lat": 53.8627712,
  "lon": 11.1839787
},
{
  "type": "node",
  "id": 5720740875,
  "lat": 53.8625742,
  "lon": 11.1840914
},
{
  "type": "node",
  "id": 5720740876,
  "lat": 53.8625763,
  "lon": 11.1840980
},
{
  "type": "node",
  "id": 5720740877,
  "lat": 53.8625830,
  "lon": 11.1840929
},
{
  "type": "node",
  "id": 5720740878,
  "lat": 53.8625857,
  "lon": 11.1840993
},
{
  "type": "node",
  "id": 5720740879,
  "lat": 53.8625982,
  "lon": 11.1841011
},
{
  "type": "node",
  "id": 5720740880,
  "lat": 53.8625320,
  "lon": 11.1839617
},
{
  "type": "node",
  "id": 5720740881,
  "lat": 53.8625552,
  "lon": 11.1839395
},
{
  "type": "node",
  "id": 5720740882,
  "lat": 53.8627344,
  "lon": 11.1837895
},
{
  "type": "node",
  "id": 5720740883,
  "lat": 53.8627429,
  "lon": 11.1838133
},
{
  "type": "node",
  "id": 5720740884,
  "lat": 53.8627309,
  "lon": 11.1838252
},
{
  "type": "node",
  "id": 5720744789,
  "lat": 53.8626139,
  "lon": 11.1841018
},
{
  "type": "node",
  "id": 5720744790,
  "lat": 53.8626278,
  "lon": 11.1840998
},
{
  "type": "node",
  "id": 5720744791,
  "lat": 53.8626451,
  "lon": 11.1840954
},
{
  "type": "node",
  "id": 5720744792,
  "lat": 53.8625582,
  "lon": 11.1840855
},
{
  "type": "node",
  "id": 5720744793,
  "lat": 53.8625602,
  "lon": 11.1840923
},
{
  "type": "node",
  "id": 5720744794,
  "lat": 53.8625660,
  "lon": 11.1840887
},
{
  "type": "node",
  "id": 5720744795,
  "lat": 53.8625680,
  "lon": 11.1840954
},
{
  "type": "node",
  "id": 5720744891,
  "lat": 53.8627561,
  "lon": 11.1839719
},
{
  "type": "node",
  "id": 5720744892,
  "lat": 53.8627718,
  "lon": 11.1839285
},
{
  "type": "node",
  "id": 5720744893,
  "lat": 53.8627540,
  "lon": 11.1838886
},
{
  "type": "node",
  "id": 5720744894,
  "lat": 53.8627528,
  "lon": 11.1838718
},
{
  "type": "node",
  "id": 5720744895,
  "lat": 53.8627506,
  "lon": 11.1838527
},
{
  "type": "node",
  "id": 5720744896,
  "lat": 53.8627536,
  "lon": 11.1839099
},
{
  "type": "node",
  "id": 5720744897,
  "lat": 53.8627422,
  "lon": 11.1838567
},
{
  "type": "node",
  "id": 5720744898,
  "lat": 53.8627065,
  "lon": 11.1840487
},
{
  "type": "node",
  "id": 5720744899,
  "lat": 53.8627093,
  "lon": 11.1840529
},
{
  "type": "node",
  "id": 5720744900,
  "lat": 53.8627219,
  "lon": 11.1840327
},
{
  "type": "node",
  "id": 5720744901,
  "lat": 53.8627302,
  "lon": 11.1840172
},
{
  "type": "node",
  "id": 5720744902,
  "lat": 53.8627367,
  "lon": 11.1840016
},
{
  "type": "node",
  "id": 5720744903,
  "lat": 53.8627437,
  "lon": 11.1840081
},
{
  "type": "node",
  "id": 5720744904,
  "lat": 53.8627467,
  "lon": 11.1839995
},
{
  "type": "node",
  "id": 5720744905,
  "lat": 53.8627405,
  "lon": 11.1841503
},
{
  "type": "node",
  "id": 5720744906,
  "lat": 53.8627419,
  "lon": 11.1841416
},
{
  "type": "node",
  "id": 5720744907,
  "lat": 53.8627452,
  "lon": 11.1841526
},
{
  "type": "node",
  "id": 5720744908,
  "lat": 53.8627435,
  "lon": 11.1841423
},
{
  "type": "node",
  "id": 5720744909,
  "lat": 53.8628466,
  "lon": 11.1842011
},
{
  "type": "node",
  "id": 5720744910,
  "lat": 53.8628420,
  "lon": 11.1841990
},
{
  "type": "node",
  "id": 5720744911,
  "lat": 53.8628482,
  "lon": 11.1841935
},
{
  "type": "node",
  "id": 5720744912,
  "lat": 53.8628467,
  "lon": 11.1841930
},
{
  "type": "node",
  "id": 5720744913,
  "lat": 53.8628680,
  "lon": 11.1840686
},
{
  "type": "node",
  "id": 5720744914,
  "lat": 53.8628729,
  "lon": 11.1840703
},
{
  "type": "node",
  "id": 5720744915,
  "lat": 53.8629057,
  "lon": 11.1838580
},
{
  "type": "node",
  "id": 5720744916,
  "lat": 53.8629011,
  "lon": 11.1838548
},
{
  "type": "node",
  "id": 5720744917,
  "lat": 53.8629046,
  "lon": 11.1838639
},
{
  "type": "node",
  "id": 5720744918,
  "lat": 53.8629030,
  "lon": 11.1838641
},
{
  "type": "node",
  "id": 5720744919,
  "lat": 53.8628822,
  "lon": 11.1839865
},
{
  "type": "node",
  "id": 5720744920,
  "lat": 53.8628872,
  "lon": 11.1839887
},
{
  "type": "node",
  "id": 5720745221,
  "lat": 53.8627994,
  "lon": 11.1838054
},
{
  "type": "node",
  "id": 5720745222,
  "lat": 53.8627978,
  "lon": 11.1838132
},
{
  "type": "node",
  "id": 5720745223,
  "lat": 53.8628041,
  "lon": 11.1838079
},
{
  "type": "node",
  "id": 5720745224,
  "lat": 53.8627995,
  "lon": 11.1838145
},
{
  "type": "node",
  "id": 4830245079,
  "lat": 53.8622395,
  "lon": 11.1898143
},
{
  "type": "node",
  "id": 5362369257,
  "lat": 53.8621660,
  "lon": 11.1896502
},
{
  "type": "node",
  "id": 5362369258,
  "lat": 53.8622535,
  "lon": 11.1896802
},
{
  "type": "node",
  "id": 5362369259,
  "lat": 53.8622705,
  "lon": 11.1896851
},
{
  "type": "node",
  "id": 5362369260,
  "lat": 53.8622849,
  "lon": 11.1895376
},
{
  "type": "node",
  "id": 5362369261,
  "lat": 53.8621214,
  "lon": 11.1896379
},
{
  "type": "node",
  "id": 5362369262,
  "lat": 53.8621076,
  "lon": 11.1897771
},
{
  "type": "node",
  "id": 5362369264,
  "lat": 53.8621795,
  "lon": 11.1895090
},
{
  "type": "node",
  "id": 1997485374,
  "lat": 53.9639419,
  "lon": 11.1618645
},
{
  "type": "node",
  "id": 1997485378,
  "lat": 53.9638215,
  "lon": 11.1619144
},
{
  "type": "node",
  "id": 1997485393,
  "lat": 53.9638238,
  "lon": 11.1617427
},
{
  "type": "node",
  "id": 1997485405,
  "lat": 53.9639188,
  "lon": 11.1617033
},
{
  "type": "node",
  "id": 4384158354,
  "lat": 53.9639339,
  "lon": 11.1618087
},
{
  "type": "node",
  "id": 4384158355,
  "lat": 53.9638055,
  "lon": 11.1618027
},
{
  "type": "node",
  "id": 4384158356,
  "lat": 53.9638309,
  "lon": 11.1617922
},
{
  "type": "node",
  "id": 5156633364,
  "lat": 53.9638103,
  "lon": 11.1618361
},
{
  "type": "node",
  "id": 1020080738,
  "lat": 53.9674139,
  "lon": 11.1653080
},
{
  "type": "node",
  "id": 1020080903,
  "lat": 53.9673862,
  "lon": 11.1650803
},
{
  "type": "node",
  "id": 1020081076,
  "lat": 53.9674672,
  "lon": 11.1651721
},
{
  "type": "node",
  "id": 1020081133,
  "lat": 53.9673328,
  "lon": 11.1652162
},
{
  "type": "way",
  "id": 135492210,
  "nodes": [
    1488220088,
    1488220105,
    1488220096,
    1488220166,
    1488220170,
    1488220099,
    1488248731,
    1488248706,
    1488248691,
    1488220068,
    1488248685,
    1488220070,
    1488220066,
    1488248694,
    1488220072,
    1488220075,
    1488220088
  ]
},
{
  "type": "way",
  "id": 135492212,
  "nodes": [
    1488220091,
    1488220085,
    1488220126,
    1488220151,
    1488220114,
    1488220101,
    1488220091
  ]
}

  ]
}
