{
  "version": 0.6,
  "generator": "Overpass API 0.7.55.1011 6c2efc30",
  "osm3s": {
    "timestamp_osm_base": "2020-02-14T13:40:02Z",
    "copyright": "The data included in this document is from www.openstreetmap.org. The data is made available under ODbL."
  },
  "elements": [

{
  "type": "node",
  "id": 36156871,
  "lat": 43.4633817,
  "lon": -3.7832512,
  "tags": {
    "name": "Museo Marítimo del Cantábrico",
    "opening_hours": "May-Sep: Tu-Su 09:45-18:00;Oct-Apr: Tu-Su 10:00-19:30",
    "tourism": "museum",
    "wikidata": "Q6033504",
    "wikipedia": "es:Museo Marítimo del Cantábrico"
  }
},
{
  "type": "node",
  "id": 134570196,
  "lat": 43.4622640,
  "lon": -3.8040007,
  "tags": {
    "addr:city": "Santander",
    "addr:country": "ES",
    "addr:housename": "Mercado del Este",
    "addr:housenumber": "4",
    "addr:postcode": "39003",
    "addr:street": "Calle de Hernán Cortés",
    "name": "Museo de Prehistoria y Arqueología de Cantabria",
    "tourism": "museum",
    "website": "http://www.museosdecantabria.es/web/museoscantabria/prehistoria/museo/el_museo",
    "wikidata": "Q2364085",
    "wikipedia": "es:Museo de Prehistoria y Arqueología de Cantabria"
  }
},
{
  "type": "node",
  "id": 886592795,
  "lat": 43.3919284,
  "lon": -4.1062736,
  "tags": {
    "name": "Museo del Barquillero",
    "tourism": "museum"
  }
},
{
  "type": "node",
  "id": 1697857461,
  "lat": 43.4815803,
  "lon": -3.5470621,
  "tags": {
    "name": "Casa de las Marismas",
    "tourism": "museum"
  }
},
{
  "type": "node",
  "id": 1788636048,
  "lat": 43.4418279,
  "lon": -3.4628522,
  "tags": {
    "name": "Centro de Visitantes del Parque Natural de las Marismas de Santoña, Victoria y Joyel",
    "tourism": "museum"
  }
},
{
  "type": "node",
  "id": 1910104264,
  "lat": 43.4213789,
  "lon": -3.8540785,
  "tags": {
    "addr:city": "Muriedas",
    "addr:housename": "Museo Etnográfico de Cantabria",
    "addr:postcode": "39600",
    "addr:street": "Calle de los Héroes del Dos de Mayo",
    "alt_name": "Casa Museo y Finca de Velarde",
    "email": "metcan@gobcantabria.es",
    "fax": "+34 942254862",
    "name": "Museo Etnográfico de Cantabria",
    "phone": "+34 942251347",
    "tourism": "museum",
    "website": "http://www.museosdecantabria.com/etnografico",
    "wikidata": "Q2363217",
    "wikipedia": "es:Museo Etnográfico de Cantabria"
  }
},
{
  "type": "node",
  "id": 2390791057,
  "lat": 43.2923945,
  "lon": -3.9654988,
  "tags": {
    "name": "Centro de Interpretación de las Cuevas del Monte del Castillo",
    "tourism": "museum"
  }
},
{
  "type": "node",
  "id": 2390791058,
  "lat": 43.2087815,
  "lon": -3.7026988,
  "tags": {
    "name": "Centro de Interpretación Casa del Pasiego",
    "tourism": "museum"
  }
},
{
  "type": "node",
  "id": 2390791059,
  "lat": 43.4353698,
  "lon": -3.7768836,
  "tags": {
    "name": "Centro de Interpretación de Golf Severiano Ballesteros",
    "tourism": "museum"
  }
},
{
  "type": "node",
  "id": 2390791069,
  "lat": 43.4600520,
  "lon": -3.5451080,
  "tags": {
    "name": "Centro de Tradiciones de Salvador Hedilla",
    "tourism": "museum"
  }
},
{
  "type": "node",
  "id": 2390791072,
  "lat": 43.3143960,
  "lon": -3.9426460,
  "tags": {
    "name": "Centro de interpretación del románico",
    "tourism": "museum"
  }
},
{
  "type": "node",
  "id": 2390791086,
  "lat": 43.4730878,
  "lon": -3.5633989,
  "tags": {
    "name": "Observatorio del Arte de Trasmiera",
    "tourism": "museum"
  }
},
{
  "type": "node",
  "id": 3428437450,
  "lat": 43.1593924,
  "lon": -3.7842720,
  "tags": {
    "addr:city": "Vega de Pas",
    "addr:postcode": "39685",
    "addr:street": "Calle de Campogiro",
    "name": "Museo Etnográfico de las Villas Pasiegas",
    "opening_hours": "Tu-Su 11:00-14:00,16:00-19:00",
    "phone": "+34 942595053",
    "tourism": "museum"
  }
},
{
  "type": "node",
  "id": 3658337091,
  "lat": 43.4705987,
  "lon": -3.7707955,
  "tags": {
    "name": "El Hombre y La Mar",
    "tourism": "museum",
    "website": "https://www.diariodelviajero.com/museos/museo-del-hombre-y-la-mar-en-la-peninsula-de-la-magdalena-santander-un-homenaje-a-la-aventura",
    "wikidata": "Q7936723",
    "wikipedia": "es:Vital Alsar"
  }
},
{
  "type": "node",
  "id": 5763103485,
  "lat": 43.4881350,
  "lon": -3.5986666,
  "tags": {
    "addr:city": "Ajo",
    "addr:street": "Barrio de El Convento",
    "name": "Centro de Interpretación del Camino de Santiago",
    "tourism": "museum"
  }
},
{
  "type": "way",
  "id": 31256017,
  "nodes": [
    347521561,
    347521564,
    347521566,
    347521568,
    347521561
  ],
  "tags": {
    "addr:city": "Valdecilla",
    "addr:country": "ES",
    "addr:housename": "Casa Blanca",
    "addr:housenumber": "9",
    "addr:postcode": "39724",
    "addr:street": "Paseo de Santa Matilde",
    "building": "yes",
    "heritage": "yes",
    "historic": "heritage",
    "loc_name": "Casa Blanca",
    "name": "Museo del Marqués de Valdecilla",
    "opening_hours": "Nov-Apr Fr-Su 10:30-13:30,16:30-19:30; May-Sep Fr-Su 10:30-13:30; Oct Tu-Su 10:30-13:30,16:30-19:30",
    "tourism": "museum"
  }
},
{
  "type": "way",
  "id": 35826095,
  "nodes": [
    418841701,
    418841702,
    418841703,
    418841982,
    418841704,
    418841705,
    418841706,
    418841707,
    418841708,
    418841709,
    418841710,
    418841711,
    418841851,
    418841701
  ],
  "tags": {
    "alt_name": "Museo de Altamira",
    "building": "yes",
    "name": "Museo Nacional y Centro de Investigación de Altamira",
    "name:es": "Museo Nacional y Centro de Investigación de Altamira",
    "tourism": "museum",
    "wikidata": "Q6974445",
    "wikipedia": "es:Museo Nacional y Centro de Investigación de Altamira"
  }
},
{
  "type": "way",
  "id": 39386464,
  "nodes": [
    471916223,
    471916229,
    4580379474,
    4580379473,
    4580379472,
    4580379475,
    4580379471,
    4580379468,
    4580379469,
    4580379470,
    471916230,
    4580379455,
    4580379452,
    4580379476,
    471916223
  ],
  "tags": {
    "building": "yes",
    "name": "Museo de la tortura",
    "source": "WMS Catastro",
    "source:name": "Plano Ayuntamiento de Santillana del Mar OF aprobada el 7-3-2002",
    "tourism": "museum"
  }
},
{
  "type": "way",
  "id": 39386468,
  "nodes": [
    471916278,
    471916280,
    471916283,
    4579722871,
    4579722869,
    4579722870,
    4579722872,
    471916286,
    471916278
  ],
  "tags": {
    "building": "yes",
    "name": "Museo Jesús Otero",
    "source": "WMS Catastro",
    "source:name": "Plano Ayuntamiento de Santillana del Mar OF aprobada el 7-3-2002",
    "tourism": "museum"
  }
},
{
  "type": "way",
  "id": 44448622,
  "nodes": [
    564921510,
    564921511,
    564921514,
    564921512,
    564921510
  ],
  "tags": {
    "building": "yes",
    "name": "Molino de Santa Olaja",
    "tourism": "museum",
    "wikidata": "Q6020968"
  }
},
{
  "type": "way",
  "id": 44674364,
  "nodes": [
    566968423,
    566968425,
    566968427,
    566968430,
    566968423
  ],
  "tags": {
    "amenity": "public_building",
    "name": "Observatorio del arte",
    "tourism": "museum"
  }
},
{
  "type": "way",
  "id": 46984309,
  "nodes": [
    599519613,
    599519625,
    599519622,
    599519614,
    599519613
  ],
  "tags": {
    "name": "Centro de Interpretación del Hombre Pez",
    "tourism": "museum"
  }
},
{
  "type": "way",
  "id": 90027905,
  "nodes": [
    1043509128,
    2470065924,
    2470065925,
    2470065923,
    1043509148,
    1043509125,
    1043509153,
    1043509138,
    1043509158,
    1043509144,
    2470065921,
    1043509128
  ],
  "tags": {
    "building": "yes",
    "name": "Palacete del Embarcadero",
    "postal_code": "39004",
    "tourism": "museum",
    "wikidata": "Q6057544",
    "wikipedia": "es:Palacete del Embarcadero"
  }
},
{
  "type": "way",
  "id": 145526891,
  "nodes": [
    1589407969,
    1589407965,
    1589407959,
    1589407967,
    1589407969
  ],
  "tags": {
    "building": "yes",
    "man_made": "watermill",
    "name": "Molino de Jado",
    "source": "PNOA",
    "source:date": "2007",
    "tourism": "museum"
  }
},
{
  "type": "way",
  "id": 174536808,
  "nodes": [
    1852073104,
    1852073092,
    1852073113,
    1852073107,
    1852073080,
    1852073069,
    1852073019,
    1852073036,
    1852072998,
    1852073031,
    1852073055,
    1852073059,
    1852073104
  ],
  "tags": {
    "alt_name": "Palacio de los Condes de Torrehermosa",
    "building": "yes",
    "name": "Palacio de Elsedo",
    "opening_hours": "Jun-Oct: Mo-Su 10:30-13:45,16:30-20:00",
    "tourism": "museum",
    "wikidata": "Q5407312",
    "wikipedia": "es:Palacio de Elsedo"
  }
},
{
  "type": "way",
  "id": 236749098,
  "nodes": [
    2447317104,
    2447317115,
    2447317096,
    2447317072,
    2447317104
  ],
  "tags": {
    "building": "yes",
    "building:levels": "1",
    "name": "Museo de la Real Fábrica de Artillería de La Cavada",
    "opening_hours": "Oct-May Tu-Fr 11:00-14:00; Oct-May Sa,Su 11:00-14:00,17:00-20:00; Jun-Sep Tu,Su 11:00-14:00,17:00-20:00; Jan 14-Mar 15 off",
    "source": "catastro",
    "source:date": "2013-01",
    "tourism": "museum",
    "wikidata": "Q9047076",
    "wikipedia": "es:Museo de la Real Fábrica de Artillería de La Cavada"
  }
},
{
  "type": "way",
  "id": 295469655,
  "nodes": [
    2992062194,
    2992062192,
    6624602116,
    133200093,
    2992062193,
    2992062194
  ],
  "tags": {
    "addr:city": "Santander",
    "addr:postcode": "39001",
    "addr:street": "Plaza de Pedro Velarde",
    "building": "yes",
    "layer": "-1",
    "name": "Centro de Interpretación de la Muralla Medieval de Santander",
    "tourism": "museum"
  }
},
{
  "type": "way",
  "id": 316846976,
  "nodes": [
    3230311841,
    2087896296,
    3230311842,
    3230311843,
    3371614949,
    2087896282,
    3230311844,
    3230311841
  ],
  "tags": {
    "addr:street": "Calle Espíritu Santo",
    "building": "yes",
    "name": "Centro temático cultural Carlos V",
    "operator": "Asociación cultural \"El Palenque\"",
    "tourism": "museum",
    "website": "https://desembarcodecarlosv.org/"
  }
},
{
  "type": "way",
  "id": 331192434,
  "nodes": [
    3382494011,
    3382493994,
    3382487689,
    3382494007,
    3382494011
  ],
  "tags": {
    "building": "yes",
    "man_made": "watermill",
    "name": "Casa de las Mareas",
    "tourism": "museum"
  }
},
{
  "type": "way",
  "id": 372438884,
  "nodes": [
    3759960907,
    3759960908,
    3759960909,
    3759960910,
    3759960914,
    3759960915,
    3759960911,
    3759960907
  ],
  "tags": {
    "addr:city": "El Astillero",
    "addr:street": "Calle de la Ría de Solía",
    "building": "yes",
    "name": "Parque Digital de Cantabria",
    "tourism": "museum"
  }
},
{
  "type": "way",
  "id": 428194067,
  "nodes": [
    4273315343,
    4273315345,
    4273315346,
    4273315344,
    4273315343
  ],
  "tags": {
    "addr:city": "Liérganes",
    "addr:postcode": "39722",
    "addr:street": "Calle Puente Romano",
    "building": "yes",
    "community_centre:for": "juvenile",
    "name": "Centro de Interpretación de los Puentes Históricos de Cantabria",
    "note": "Antiguo matadero",
    "old_name": "Ermita de San Martín",
    "operator": "Ayuntamiento de Liérganes",
    "tourism": "museum"
  }
},
{
  "type": "way",
  "id": 484343650,
  "nodes": [
    4770874264,
    4770874263,
    4770874262,
    4770874261,
    4770874260,
    4770874259,
    4770874247,
    4770874248,
    4770874258,
    4770874257,
    4770874256,
    4770874255,
    4770874254,
    4770874253,
    4770874252,
    4770874251,
    4770874250,
    4770874249,
    4770874264
  ],
  "tags": {
    "addr:city": "Liérganes",
    "addr:housenumber": "7",
    "addr:postcode": "39722",
    "addr:street": "Camino Real",
    "building": "yes",
    "name": "Ecomuseo-Fluviarium de la Montaña y Cuencas Fluviales Pasiegas",
    "source": "Catastro Inspire",
    "tourism": "museum",
    "website": "http://fnyh.org/centros-de-interpretacion/fluviarium/"
  }
},
{
  "type": "way",
  "id": 578145763,
  "nodes": [
    2390791063,
    5540496227,
    5540496228,
    5540496229,
    2390791063
  ],
  "tags": {
    "building": "yes",
    "name": "Centro de Interpretación de los Antiguos Muelles de Santander",
    "tourism": "museum"
  }
},
{
  "type": "way",
  "id": 639991104,
  "nodes": [
    6029504660,
    6029507092,
    6029507106,
    6029507130,
    6029507105,
    6029504681,
    6029504667,
    6029507099,
    6029507088,
    6029507288,
    6029507306,
    6029507131,
    6029504661,
    6029507122,
    6029507294,
    6029504660
  ],
  "tags": {
    "addr:city": "Los Corrales de Buelna",
    "addr:postcode": "39400",
    "addr:street": "Calle San Fernando",
    "building": "public",
    "building:levels": "3",
    "contact:email": "ciic@loscorralesdebuelna.es",
    "contact:phone": "+34 942 83 12 35",
    "loc_name": "Palacio de Quintana",
    "name": "Centro de Interpretación de la Industria de Cantabria José María Quijano",
    "operator": "Ayuntamiento de Los Corrales de Buelna",
    "short_name": "Museo de la Industria",
    "start_date": "C18",
    "tourism": "museum",
    "website": "https://www.museoindustriacantabria.com"
  }
},
{
  "type": "way",
  "id": 691651956,
  "nodes": [
    6490693791,
    6490693792,
    6490693793,
    6490693794,
    6490693791
  ],
  "tags": {
    "addr:city": "Noja",
    "addr:street": "Calle de las Helgueras",
    "building": "public",
    "name": "Molino de la Aves",
    "phone": "+34 942 63 03 06",
    "tourism": "museum"
  }
},
{
  "type": "way",
  "id": 699049081,
  "nodes": [
    6564448326,
    6564447975,
    6564448113,
    6564448188,
    6564448317,
    6564448086,
    6564448175,
    6564448096,
    6564448160,
    6564448083,
    6564448167,
    6564448668,
    6564448599,
    6564448739,
    6564448724,
    6564448718,
    6564448236,
    6564448523,
    6564448405,
    6564448450,
    6564448533,
    6564448326
  ],
  "tags": {
    "addr:city": "Santander",
    "addr:housenumber": "56D",
    "addr:postcode": "39012",
    "addr:street": "Barrio Corbanera",
    "building": "yes",
    "building:levels": "1",
    "description": "Museo ubicado en la antigua batería de defensa costera de San Pedro del Mar. Acoge de forma permanente la exposición \"Patrimonio Litoral de Cantabria\".",
    "name": "Centro de Interpretación del Litoral La Maruca",
    "opening_hours": "Tu-Sa 09:00-15:00",
    "phone": "+34 618717613",
    "tourism": "museum",
    "website": "https://centrolitoralmaruca.wordpress.com/"
  }
},
{
  "type": "way",
  "id": 708002954,
  "nodes": [
    6652761555,
    6652761551,
    6652761558,
    6652761559,
    6652761585,
    6652761518,
    6652761556,
    6652761566,
    6652761567,
    6652761577,
    6652761578,
    6652761580,
    6652761582,
    6652761588,
    6652761594,
    6652761648,
    6652761645,
    6652761583,
    6652761534,
    6652761535,
    6652761600,
    6652761595,
    6652761547,
    6652761549,
    6652761561,
    6652761569,
    6652761572,
    6652761587,
    6652761625,
    6652761592,
    6652761557,
    6652761609,
    6652761550,
    6652761553,
    6652761616,
    6652761554,
    6652761562,
    6652761699,
    6652761666,
    6652761690,
    6652761622,
    6652761704,
    6652761618,
    6652761529,
    6652761702,
    6652761687,
    6652761607,
    6652761700,
    6652761706,
    6652761661,
    6652761654,
    6652761695,
    6652761555
  ],
  "tags": {
    "building:levels": "3",
    "building:part": "yes",
    "name": "Planetario de la Universidad de Cantabria",
    "tourism": "museum",
    "website": "http://www.unican.es/centros/nautica/servicios/planetario.htm"
  }
},
{
  "type": "way",
  "id": 722197663,
  "nodes": [
    6774380723,
    3676501227,
    3676501226,
    6774380634,
    3370084619,
    3370084620,
    6774380838,
    6774380691,
    6774381140,
    6774380955,
    6774380722,
    6774380696,
    6774381014,
    6774380723
  ],
  "tags": {
    "addr:city": "Santander",
    "addr:country": "ES",
    "addr:housenumber": "4",
    "addr:postcode": "39011",
    "addr:street": "Calle Gravina",
    "alt_name": "MAS",
    "amenity": "library",
    "building": "yes",
    "building:levels": "5",
    "email": "bibliotecas@santander.es",
    "name": "Biblioteca Municipal de Santander",
    "opening_hours": "Mo-Su 10:00-13:30",
    "operator": "Ayuntamiento de Santander",
    "phone": "+34 942203123",
    "tourism": "museum",
    "wikidata": "Q6033887",
    "wikipedia": "es:Biblioteca Municipal de Santander"
  }
},
{
  "type": "way",
  "id": 722197675,
  "nodes": [
    6774381014,
    6774380842,
    6774380883,
    6774381071,
    6774380982,
    6774380792,
    6774380678,
    6774381050,
    6774380869,
    3370089910,
    6774375074,
    6774380688,
    6774380846,
    6774375075,
    6774380743,
    6774375076,
    6774380726,
    6774380771,
    6774380787,
    6774380721,
    6774380723,
    6774381014
  ],
  "tags": {
    "addr:city": "Santander",
    "addr:country": "ES",
    "addr:housenumber": "6",
    "addr:postcode": "39011",
    "addr:street": "Calle del Rubio",
    "alt_name": "Museo de Arte de Santander",
    "building": "yes",
    "building:levels": "5",
    "name": "Museo de Arte Moderno y Contemporáneo de Santander y Cantabria",
    "opening_hours": "Mo-Su 10:00-13:30",
    "phone": "+34 942203120",
    "short_name": "MAS",
    "tourism": "museum",
    "wikidata": "Q6033887",
    "wikipedia": "es:Museo de Arte Moderno y Contemporáneo de Santander y Cantabria"
  }
},
{
  "type": "way",
  "id": 722197704,
  "nodes": [
    6774380672,
    6774380673,
    6774380674,
    6774380704,
    3370085903,
    6774380641,
    3370085904,
    3370085901,
    3370085902,
    6774380672
  ],
  "tags": {
    "addr:city": "Santander",
    "addr:country": "ES",
    "addr:housenumber": "6",
    "addr:postcode": "39001",
    "addr:street": "Calle del Rubio",
    "building": "yes",
    "building:levels": "3",
    "name": "Casa Museo de Menéndez Pelayo",
    "tourism": "museum",
    "wikidata": "Q5728090",
    "wikipedia": "es:Biblioteca y casa-museo de Menéndez Pelayo"
  }
},
{
  "type": "way",
  "id": 722197779,
  "nodes": [
    3370088696,
    3370088693,
    6774380633,
    3370088694,
    3370088695,
    6774380632,
    3370088696
  ],
  "tags": {
    "addr:city": "Santander",
    "addr:country": "ES",
    "addr:housenumber": "6",
    "addr:postcode": "39011",
    "addr:street": "Calle del Rubio",
    "building": "yes",
    "building:levels": "2",
    "name": "Biblioteca de Menéndez Pelayo",
    "note": "Hours researchers: Mo-Fr 09:00-13:00;Tu-Th 16:30-21:00 (closed in the afternoon in July, August and September)",
    "opening_hours": "Mo-Fr 09:30-11:30",
    "phone": "+34 942234534",
    "tourism": "museum",
    "wikidata": "Q5728090",
    "wikipedia": "es:Biblioteca y casa-museo de Menéndez Pelayo"
  }
},
{
  "type": "way",
  "id": 756294194,
  "nodes": [
    7063616578,
    7063616579,
    7063616580,
    7063616581,
    7063616582,
    7063616578
  ],
  "tags": {
    "building": "yes",
    "name": "Casa Los Indianos",
    "tourism": "museum"
  }
},
{
  "type": "relation",
  "id": 6836131,
  "members": [
    {
      "type": "way",
      "ref": 39389331,
      "role": "outer"
    },
    {
      "type": "way",
      "ref": 462867029,
      "role": "inner"
    }
  ],
  "tags": {
    "building": "yes",
    "name": "Museo Regina Coeli y convento de las Clarisas",
    "source:name": "Plano Ayuntamiento de Santillana del Mar OF aprobada el 7-3-2002",
    "tourism": "museum",
    "type": "multipolygon"
  }
},
{
  "type": "node",
  "id": 6029504660,
  "lat": 43.2683859,
  "lon": -4.0619766
},
{
  "type": "node",
  "id": 6029504661,
  "lat": 43.2683084,
  "lon": -4.0619536
},
{
  "type": "node",
  "id": 6029504667,
  "lat": 43.2683628,
  "lon": -4.0617715
},
{
  "type": "node",
  "id": 6029504681,
  "lat": 43.2683959,
  "lon": -4.0617761
},
{
  "type": "node",
  "id": 6029507088,
  "lat": 43.2683071,
  "lon": -4.0618284
},
{
  "type": "node",
  "id": 6029507092,
  "lat": 43.2683914,
  "lon": -4.0619006
},
{
  "type": "node",
  "id": 6029507099,
  "lat": 43.2683117,
  "lon": -4.0617646
},
{
  "type": "node",
  "id": 6029507105,
  "lat": 43.2684000,
  "lon": -4.0617197
},
{
  "type": "node",
  "id": 6029507106,
  "lat": 43.2684541,
  "lon": -4.0619090
},
{
  "type": "node",
  "id": 6029507122,
  "lat": 43.2683138,
  "lon": -4.0619544
},
{
  "type": "node",
  "id": 6029507130,
  "lat": 43.2684672,
  "lon": -4.0617289
},
{
  "type": "node",
  "id": 6029507131,
  "lat": 43.2683166,
  "lon": -4.0618408
},
{
  "type": "node",
  "id": 6029507288,
  "lat": 43.2683227,
  "lon": -4.0618305
},
{
  "type": "node",
  "id": 6029507294,
  "lat": 43.2683128,
  "lon": -4.0619666
},
{
  "type": "node",
  "id": 6029507306,
  "lat": 43.2683219,
  "lon": -4.0618416
},
{
  "type": "node",
  "id": 418841702,
  "lat": 43.3774790,
  "lon": -4.1224056
},
{
  "type": "node",
  "id": 418841703,
  "lat": 43.3776094,
  "lon": -4.1223860
},
{
  "type": "node",
  "id": 418841704,
  "lat": 43.3776094,
  "lon": -4.1225037
},
{
  "type": "node",
  "id": 418841705,
  "lat": 43.3775788,
  "lon": -4.1224981
},
{
  "type": "node",
  "id": 418841706,
  "lat": 43.3775401,
  "lon": -4.1231120
},
{
  "type": "node",
  "id": 418841707,
  "lat": 43.3773669,
  "lon": -4.1230924
},
{
  "type": "node",
  "id": 418841708,
  "lat": 43.3771897,
  "lon": -4.1230532
},
{
  "type": "node",
  "id": 418841709,
  "lat": 43.3772956,
  "lon": -4.1223019
},
{
  "type": "node",
  "id": 418841710,
  "lat": 43.3771713,
  "lon": -4.1222822
},
{
  "type": "node",
  "id": 418841982,
  "lat": 43.3776126,
  "lon": -4.1224443
},
{
  "type": "node",
  "id": 418841701,
  "lat": 43.3775259,
  "lon": -4.1217272
},
{
  "type": "node",
  "id": 418841711,
  "lat": 43.3772100,
  "lon": -4.1216515
},
{
  "type": "node",
  "id": 418841851,
  "lat": 43.3774497,
  "lon": -4.1217106
},
{
  "type": "node",
  "id": 471830351,
  "lat": 43.3884834,
  "lon": -4.1094405
},
{
  "type": "node",
  "id": 471830356,
  "lat": 43.3882256,
  "lon": -4.1096471
},
{
  "type": "node",
  "id": 471944812,
  "lat": 43.3889365,
  "lon": -4.1091403
},
{
  "type": "node",
  "id": 471944813,
  "lat": 43.3885050,
  "lon": -4.1094871
},
{
  "type": "node",
  "id": 886690724,
  "lat": 43.3888218,
  "lon": -4.1092147
},
{
  "type": "node",
  "id": 4581951565,
  "lat": 43.3882419,
  "lon": -4.1097034
},
{
  "type": "node",
  "id": 4581951570,
  "lat": 43.3884355,
  "lon": -4.1093286
},
{
  "type": "node",
  "id": 4581951571,
  "lat": 43.3884685,
  "lon": -4.1092815
},
{
  "type": "node",
  "id": 4581951573,
  "lat": 43.3885607,
  "lon": -4.1091958
},
{
  "type": "node",
  "id": 4581951574,
  "lat": 43.3886835,
  "lon": -4.1091232
},
{
  "type": "node",
  "id": 471830353,
  "lat": 43.3882841,
  "lon": -4.1084665
},
{
  "type": "node",
  "id": 471916223,
  "lat": 43.3911868,
  "lon": -4.1063328
},
{
  "type": "node",
  "id": 471916229,
  "lat": 43.3910426,
  "lon": -4.1062033
},
{
  "type": "node",
  "id": 471916230,
  "lat": 43.3912400,
  "lon": -4.1060897
},
{
  "type": "node",
  "id": 471916278,
  "lat": 43.3917503,
  "lon": -4.1057825
},
{
  "type": "node",
  "id": 471916280,
  "lat": 43.3917275,
  "lon": -4.1055003
},
{
  "type": "node",
  "id": 471916283,
  "lat": 43.3918527,
  "lon": -4.1054812
},
{
  "type": "node",
  "id": 471916286,
  "lat": 43.3918755,
  "lon": -4.1057633
},
{
  "type": "node",
  "id": 471944815,
  "lat": 43.3887830,
  "lon": -4.1087031
},
{
  "type": "node",
  "id": 4579722869,
  "lat": 43.3918117,
  "lon": -4.1055685
},
{
  "type": "node",
  "id": 4579722870,
  "lat": 43.3918215,
  "lon": -4.1056905
},
{
  "type": "node",
  "id": 4579722871,
  "lat": 43.3918591,
  "lon": -4.1055612
},
{
  "type": "node",
  "id": 4579722872,
  "lat": 43.3918690,
  "lon": -4.1056833
},
{
  "type": "node",
  "id": 4580379452,
  "lat": 43.3912607,
  "lon": -4.1061331
},
{
  "type": "node",
  "id": 4580379455,
  "lat": 43.3912414,
  "lon": -4.1060926
},
{
  "type": "node",
  "id": 4580379468,
  "lat": 43.3911662,
  "lon": -4.1061124
},
{
  "type": "node",
  "id": 4580379469,
  "lat": 43.3912103,
  "lon": -4.1060877
},
{
  "type": "node",
  "id": 4580379470,
  "lat": 43.3912150,
  "lon": -4.1061042
},
{
  "type": "node",
  "id": 4580379471,
  "lat": 43.3911712,
  "lon": -4.1061293
},
{
  "type": "node",
  "id": 4580379472,
  "lat": 43.3911169,
  "lon": -4.1061420
},
{
  "type": "node",
  "id": 4580379473,
  "lat": 43.3910529,
  "lon": -4.1061778
},
{
  "type": "node",
  "id": 4580379474,
  "lat": 43.3910585,
  "lon": -4.1061943
},
{
  "type": "node",
  "id": 4580379475,
  "lat": 43.3911204,
  "lon": -4.1061581
},
{
  "type": "node",
  "id": 4580379476,
  "lat": 43.3912877,
  "lon": -4.1061895
},
{
  "type": "node",
  "id": 4581951524,
  "lat": 43.3884897,
  "lon": -4.1085203
},
{
  "type": "node",
  "id": 4581951525,
  "lat": 43.3883864,
  "lon": -4.1085448
},
{
  "type": "node",
  "id": 4581951526,
  "lat": 43.3885695,
  "lon": -4.1086836
},
{
  "type": "node",
  "id": 4581951527,
  "lat": 43.3885882,
  "lon": -4.1087576
},
{
  "type": "node",
  "id": 4581951528,
  "lat": 43.3884549,
  "lon": -4.1088256
},
{
  "type": "node",
  "id": 4581951529,
  "lat": 43.3884926,
  "lon": -4.1085995
},
{
  "type": "node",
  "id": 4581951530,
  "lat": 43.3885338,
  "lon": -4.1086283
},
{
  "type": "node",
  "id": 4581951531,
  "lat": 43.3886887,
  "lon": -4.1084789
},
{
  "type": "node",
  "id": 4581951537,
  "lat": 43.3885179,
  "lon": -4.1084077
},
{
  "type": "node",
  "id": 4581951538,
  "lat": 43.3885792,
  "lon": -4.1084974
},
{
  "type": "node",
  "id": 4581951539,
  "lat": 43.3885855,
  "lon": -4.1084932
},
{
  "type": "node",
  "id": 4581951540,
  "lat": 43.3885978,
  "lon": -4.1084946
},
{
  "type": "node",
  "id": 4581951541,
  "lat": 43.3886024,
  "lon": -4.1085004
},
{
  "type": "node",
  "id": 4581951542,
  "lat": 43.3885919,
  "lon": -4.1084923
},
{
  "type": "node",
  "id": 4581951543,
  "lat": 43.3885742,
  "lon": -4.1085107
},
{
  "type": "node",
  "id": 4581951544,
  "lat": 43.3885738,
  "lon": -4.1085191
},
{
  "type": "node",
  "id": 4581951545,
  "lat": 43.3885754,
  "lon": -4.1085263
},
{
  "type": "node",
  "id": 4581951546,
  "lat": 43.3885793,
  "lon": -4.1085330
},
{
  "type": "node",
  "id": 4581951547,
  "lat": 43.3885758,
  "lon": -4.1085038
},
{
  "type": "node",
  "id": 4581951548,
  "lat": 43.3885842,
  "lon": -4.1085360
},
{
  "type": "node",
  "id": 4581951549,
  "lat": 43.3885391,
  "lon": -4.1085988
},
{
  "type": "node",
  "id": 4581951550,
  "lat": 43.3885323,
  "lon": -4.1085974
},
{
  "type": "node",
  "id": 4581951551,
  "lat": 43.3886062,
  "lon": -4.1085060
},
{
  "type": "node",
  "id": 4581951552,
  "lat": 43.3886416,
  "lon": -4.1085032
},
{
  "type": "node",
  "id": 4581951553,
  "lat": 43.3886378,
  "lon": -4.1084887
},
{
  "type": "node",
  "id": 4581951554,
  "lat": 43.3886960,
  "lon": -4.1086887
},
{
  "type": "node",
  "id": 4581951555,
  "lat": 43.3887036,
  "lon": -4.1086670
},
{
  "type": "node",
  "id": 4581951556,
  "lat": 43.3886755,
  "lon": -4.1086279
},
{
  "type": "node",
  "id": 4581951557,
  "lat": 43.3887279,
  "lon": -4.1086517
},
{
  "type": "node",
  "id": 4581951558,
  "lat": 43.3887685,
  "lon": -4.1087100
},
{
  "type": "node",
  "id": 4581951559,
  "lat": 43.3887533,
  "lon": -4.1086645
},
{
  "type": "node",
  "id": 4581951560,
  "lat": 43.3887413,
  "lon": -4.1085945
},
{
  "type": "node",
  "id": 4581951561,
  "lat": 43.3888151,
  "lon": -4.1088052
},
{
  "type": "node",
  "id": 4581951562,
  "lat": 43.3888350,
  "lon": -4.1087941
},
{
  "type": "node",
  "id": 4581951563,
  "lat": 43.3887073,
  "lon": -4.1084696
},
{
  "type": "node",
  "id": 4581951564,
  "lat": 43.3885276,
  "lon": -4.1084052
},
{
  "type": "node",
  "id": 4581951572,
  "lat": 43.3885090,
  "lon": -4.1090300
},
{
  "type": "node",
  "id": 4581951575,
  "lat": 43.3886318,
  "lon": -4.1089575
},
{
  "type": "node",
  "id": 7063616578,
  "lat": 43.3539049,
  "lon": -3.9509831
},
{
  "type": "node",
  "id": 7063616579,
  "lat": 43.3537959,
  "lon": -3.9510568
},
{
  "type": "node",
  "id": 7063616580,
  "lat": 43.3537004,
  "lon": -3.9508033
},
{
  "type": "node",
  "id": 7063616581,
  "lat": 43.3538057,
  "lon": -3.9507234
},
{
  "type": "node",
  "id": 7063616582,
  "lat": 43.3539096,
  "lon": -3.9509830
},
{
  "type": "node",
  "id": 1852072998,
  "lat": 43.3570394,
  "lon": -3.7963350
},
{
  "type": "node",
  "id": 1852073019,
  "lat": 43.3570734,
  "lon": -3.7962078
},
{
  "type": "node",
  "id": 1852073031,
  "lat": 43.3570537,
  "lon": -3.7964469
},
{
  "type": "node",
  "id": 1852073036,
  "lat": 43.3570882,
  "lon": -3.7963232
},
{
  "type": "node",
  "id": 1852073055,
  "lat": 43.3571016,
  "lon": -3.7964353
},
{
  "type": "node",
  "id": 1852073059,
  "lat": 43.3571223,
  "lon": -3.7965968
},
{
  "type": "node",
  "id": 1852073069,
  "lat": 43.3572522,
  "lon": -3.7961645
},
{
  "type": "node",
  "id": 1852073080,
  "lat": 43.3572675,
  "lon": -3.7962840
},
{
  "type": "node",
  "id": 1852073092,
  "lat": 43.3572751,
  "lon": -3.7964035
},
{
  "type": "node",
  "id": 1852073104,
  "lat": 43.3572945,
  "lon": -3.7965551
},
{
  "type": "node",
  "id": 1852073107,
  "lat": 43.3573079,
  "lon": -3.7962742
},
{
  "type": "node",
  "id": 1852073113,
  "lat": 43.3573230,
  "lon": -3.7963919
},
{
  "type": "node",
  "id": 3759960908,
  "lat": 43.3943655,
  "lon": -3.8226483
},
{
  "type": "node",
  "id": 3759960909,
  "lat": 43.3942849,
  "lon": -3.8221781
},
{
  "type": "node",
  "id": 3759960910,
  "lat": 43.3942303,
  "lon": -3.8218643
},
{
  "type": "node",
  "id": 3759960914,
  "lat": 43.3945131,
  "lon": -3.8217713
},
{
  "type": "node",
  "id": 3759960907,
  "lat": 43.3949300,
  "lon": -3.8224785
},
{
  "type": "node",
  "id": 3759960911,
  "lat": 43.3948014,
  "lon": -3.8216766
},
{
  "type": "node",
  "id": 3759960915,
  "lat": 43.3947315,
  "lon": -3.8216995
},
{
  "type": "node",
  "id": 3370084619,
  "lat": 43.4629984,
  "lon": -3.8125993
},
{
  "type": "node",
  "id": 3370084620,
  "lat": 43.4629600,
  "lon": -3.8128471
},
{
  "type": "node",
  "id": 3370085901,
  "lat": 43.4628964,
  "lon": -3.8128283
},
{
  "type": "node",
  "id": 3370085902,
  "lat": 43.4629232,
  "lon": -3.8126655
},
{
  "type": "node",
  "id": 3370085903,
  "lat": 43.4628341,
  "lon": -3.8126380
},
{
  "type": "node",
  "id": 3370085904,
  "lat": 43.4628073,
  "lon": -3.8128008
},
{
  "type": "node",
  "id": 3370088693,
  "lat": 43.4626247,
  "lon": -3.8127469
},
{
  "type": "node",
  "id": 3370088694,
  "lat": 43.4626616,
  "lon": -3.8125138
},
{
  "type": "node",
  "id": 3370088695,
  "lat": 43.4625129,
  "lon": -3.8124695
},
{
  "type": "node",
  "id": 3370088696,
  "lat": 43.4624760,
  "lon": -3.8127027
},
{
  "type": "node",
  "id": 3370089910,
  "lat": 43.4622657,
  "lon": -3.8123872
},
{
  "type": "node",
  "id": 3676501226,
  "lat": 43.4626958,
  "lon": -3.8125109
},
{
  "type": "node",
  "id": 3676501227,
  "lat": 43.4626991,
  "lon": -3.8124903
},
{
  "type": "node",
  "id": 6774375074,
  "lat": 43.4622723,
  "lon": -3.8123886
},
{
  "type": "node",
  "id": 6774375075,
  "lat": 43.4622783,
  "lon": -3.8124327
},
{
  "type": "node",
  "id": 6774375076,
  "lat": 43.4623756,
  "lon": -3.8124460
},
{
  "type": "node",
  "id": 6774380632,
  "lat": 43.4624976,
  "lon": -3.8125665
},
{
  "type": "node",
  "id": 6774380633,
  "lat": 43.4626448,
  "lon": -3.8126203
},
{
  "type": "node",
  "id": 6774380634,
  "lat": 43.4627685,
  "lon": -3.8125322
},
{
  "type": "node",
  "id": 6774380641,
  "lat": 43.4628238,
  "lon": -3.8127005
},
{
  "type": "node",
  "id": 6774380672,
  "lat": 43.4629194,
  "lon": -3.8126644
},
{
  "type": "node",
  "id": 6774380673,
  "lat": 43.4629247,
  "lon": -3.8126319
},
{
  "type": "node",
  "id": 6774380674,
  "lat": 43.4628433,
  "lon": -3.8126069
},
{
  "type": "node",
  "id": 6774380678,
  "lat": 43.4624916,
  "lon": -3.8123029
},
{
  "type": "node",
  "id": 6774380688,
  "lat": 43.4622713,
  "lon": -3.8124154
},
{
  "type": "node",
  "id": 6774380691,
  "lat": 43.4630801,
  "lon": -3.8126178
},
{
  "type": "node",
  "id": 6774380696,
  "lat": 43.4627134,
  "lon": -3.8123978
},
{
  "type": "node",
  "id": 6774380704,
  "lat": 43.4628380,
  "lon": -3.8126392
},
{
  "type": "node",
  "id": 6774380721,
  "lat": 43.4625291,
  "lon": -3.8124407
},
{
  "type": "node",
  "id": 6774380722,
  "lat": 43.4627145,
  "lon": -3.8123908
},
{
  "type": "node",
  "id": 6774380723,
  "lat": 43.4626154,
  "lon": -3.8124660
},
{
  "type": "node",
  "id": 6774380726,
  "lat": 43.4623825,
  "lon": -3.8124397
},
{
  "type": "node",
  "id": 6774380743,
  "lat": 43.4623737,
  "lon": -3.8124542
},
{
  "type": "node",
  "id": 6774380771,
  "lat": 43.4623863,
  "lon": -3.8124128
},
{
  "type": "node",
  "id": 6774380787,
  "lat": 43.4625288,
  "lon": -3.8124432
},
{
  "type": "node",
  "id": 6774380792,
  "lat": 43.4625000,
  "lon": -3.8122484
},
{
  "type": "node",
  "id": 6774380838,
  "lat": 43.4630390,
  "lon": -3.8128712
},
{
  "type": "node",
  "id": 6774380842,
  "lat": 43.4626329,
  "lon": -3.8123530
},
{
  "type": "node",
  "id": 6774380846,
  "lat": 43.4622764,
  "lon": -3.8124243
},
{
  "type": "node",
  "id": 6774380869,
  "lat": 43.4622645,
  "lon": -3.8122551
},
{
  "type": "node",
  "id": 6774380883,
  "lat": 43.4625603,
  "lon": -3.8123319
},
{
  "type": "node",
  "id": 6774380955,
  "lat": 43.4630680,
  "lon": -3.8125033
},
{
  "type": "node",
  "id": 6774380982,
  "lat": 43.4625700,
  "lon": -3.8122689
},
{
  "type": "node",
  "id": 6774381014,
  "lat": 43.4626297,
  "lon": -3.8123735
},
{
  "type": "node",
  "id": 6774381050,
  "lat": 43.4623223,
  "lon": -3.8122535
},
{
  "type": "node",
  "id": 6774381071,
  "lat": 43.4625616,
  "lon": -3.8123233
},
{
  "type": "node",
  "id": 6774381140,
  "lat": 43.4630515,
  "lon": -3.8126095
},
{
  "type": "node",
  "id": 133200093,
  "lat": 43.4619491,
  "lon": -3.8058661
},
{
  "type": "node",
  "id": 1043509125,
  "lat": 43.4613505,
  "lon": -3.8018035
},
{
  "type": "node",
  "id": 1043509128,
  "lat": 43.4614047,
  "lon": -3.8019844
},
{
  "type": "node",
  "id": 1043509138,
  "lat": 43.4612946,
  "lon": -3.8017553
},
{
  "type": "node",
  "id": 1043509144,
  "lat": 43.4612566,
  "lon": -3.8019379
},
{
  "type": "node",
  "id": 1043509148,
  "lat": 43.4614490,
  "lon": -3.8018859
},
{
  "type": "node",
  "id": 1043509153,
  "lat": 43.4613408,
  "lon": -3.8017416
},
{
  "type": "node",
  "id": 1043509158,
  "lat": 43.4613058,
  "lon": -3.8018263
},
{
  "type": "node",
  "id": 2390791063,
  "lat": 43.4605974,
  "lon": -3.8056233
},
{
  "type": "node",
  "id": 2470065921,
  "lat": 43.4613798,
  "lon": -3.8020409
},
{
  "type": "node",
  "id": 2470065923,
  "lat": 43.4614303,
  "lon": -3.8019282
},
{
  "type": "node",
  "id": 2470065924,
  "lat": 43.4614305,
  "lon": -3.8020060
},
{
  "type": "node",
  "id": 2470065925,
  "lat": 43.4614555,
  "lon": -3.8019492
},
{
  "type": "node",
  "id": 2992062192,
  "lat": 43.4622632,
  "lon": -3.8059120
},
{
  "type": "node",
  "id": 2992062193,
  "lat": 43.4619326,
  "lon": -3.8060708
},
{
  "type": "node",
  "id": 2992062194,
  "lat": 43.4622461,
  "lon": -3.8061170
},
{
  "type": "node",
  "id": 5540496227,
  "lat": 43.4605443,
  "lon": -3.8056099
},
{
  "type": "node",
  "id": 5540496228,
  "lat": 43.4605599,
  "lon": -3.8054916
},
{
  "type": "node",
  "id": 5540496229,
  "lat": 43.4606131,
  "lon": -3.8055049
},
{
  "type": "node",
  "id": 6624602116,
  "lat": 43.4619831,
  "lon": -3.8058702
},
{
  "type": "node",
  "id": 6652761518,
  "lat": 43.4629036,
  "lon": -3.7910587
},
{
  "type": "node",
  "id": 6652761529,
  "lat": 43.4629573,
  "lon": -3.7909591
},
{
  "type": "node",
  "id": 6652761534,
  "lat": 43.4629774,
  "lon": -3.7911227
},
{
  "type": "node",
  "id": 6652761535,
  "lat": 43.4629816,
  "lon": -3.7911210
},
{
  "type": "node",
  "id": 6652761547,
  "lat": 43.4630010,
  "lon": -3.7911066
},
{
  "type": "node",
  "id": 6652761549,
  "lat": 43.4630075,
  "lon": -3.7910984
},
{
  "type": "node",
  "id": 6652761550,
  "lat": 43.4630212,
  "lon": -3.7910192
},
{
  "type": "node",
  "id": 6652761551,
  "lat": 43.4629053,
  "lon": -3.7910167
},
{
  "type": "node",
  "id": 6652761553,
  "lat": 43.4630182,
  "lon": -3.7910078
},
{
  "type": "node",
  "id": 6652761554,
  "lat": 43.4630087,
  "lon": -3.7909874
},
{
  "type": "node",
  "id": 6652761555,
  "lat": 43.4629085,
  "lon": -3.7910055
},
{
  "type": "node",
  "id": 6652761556,
  "lat": 43.4629061,
  "lon": -3.7910704
},
{
  "type": "node",
  "id": 6652761557,
  "lat": 43.4630235,
  "lon": -3.7910371
},
{
  "type": "node",
  "id": 6652761558,
  "lat": 43.4629041,
  "lon": -3.7910226
},
{
  "type": "node",
  "id": 6652761559,
  "lat": 43.4629026,
  "lon": -3.7910346
},
{
  "type": "node",
  "id": 6652761561,
  "lat": 43.4630103,
  "lon": -3.7910937
},
{
  "type": "node",
  "id": 6652761562,
  "lat": 43.4630024,
  "lon": -3.7909789
},
{
  "type": "node",
  "id": 6652761566,
  "lat": 43.4629097,
  "lon": -3.7910815
},
{
  "type": "node",
  "id": 6652761567,
  "lat": 43.4629120,
  "lon": -3.7910868
},
{
  "type": "node",
  "id": 6652761569,
  "lat": 43.4630153,
  "lon": -3.7910838
},
{
  "type": "node",
  "id": 6652761572,
  "lat": 43.4630174,
  "lon": -3.7910784
},
{
  "type": "node",
  "id": 6652761577,
  "lat": 43.4629172,
  "lon": -3.7910965
},
{
  "type": "node",
  "id": 6652761578,
  "lat": 43.4629203,
  "lon": -3.7911008
},
{
  "type": "node",
  "id": 6652761580,
  "lat": 43.4629270,
  "lon": -3.7911088
},
{
  "type": "node",
  "id": 6652761582,
  "lat": 43.4629306,
  "lon": -3.7911122
},
{
  "type": "node",
  "id": 6652761583,
  "lat": 43.4629686,
  "lon": -3.7911247
},
{
  "type": "node",
  "id": 6652761585,
  "lat": 43.4629025,
  "lon": -3.7910467
},
{
  "type": "node",
  "id": 6652761587,
  "lat": 43.4630206,
  "lon": -3.7910671
},
{
  "type": "node",
  "id": 6652761588,
  "lat": 43.4629384,
  "lon": -3.7911179
},
{
  "type": "node",
  "id": 6652761592,
  "lat": 43.4630233,
  "lon": -3.7910493
},
{
  "type": "node",
  "id": 6652761594,
  "lat": 43.4629468,
  "lon": -3.7911221
},
{
  "type": "node",
  "id": 6652761595,
  "lat": 43.4629975,
  "lon": -3.7911102
},
{
  "type": "node",
  "id": 6652761600,
  "lat": 43.4629899,
  "lon": -3.7911164
},
{
  "type": "node",
  "id": 6652761607,
  "lat": 43.4629361,
  "lon": -3.7909674
},
{
  "type": "node",
  "id": 6652761609,
  "lat": 43.4630230,
  "lon": -3.7910311
},
{
  "type": "node",
  "id": 6652761616,
  "lat": 43.4630140,
  "lon": -3.7909971
},
{
  "type": "node",
  "id": 6652761618,
  "lat": 43.4629661,
  "lon": -3.7909589
},
{
  "type": "node",
  "id": 6652761622,
  "lat": 43.4629792,
  "lon": -3.7909618
},
{
  "type": "node",
  "id": 6652761625,
  "lat": 43.4630227,
  "lon": -3.7910553
},
{
  "type": "node",
  "id": 6652761645,
  "lat": 43.4629598,
  "lon": -3.7911250
},
{
  "type": "node",
  "id": 6652761648,
  "lat": 43.4629511,
  "lon": -3.7911235
},
{
  "type": "node",
  "id": 6652761654,
  "lat": 43.4629130,
  "lon": -3.7909950
},
{
  "type": "node",
  "id": 6652761661,
  "lat": 43.4629186,
  "lon": -3.7909855
},
{
  "type": "node",
  "id": 6652761666,
  "lat": 43.4629915,
  "lon": -3.7909686
},
{
  "type": "node",
  "id": 6652761687,
  "lat": 43.4629401,
  "lon": -3.7909649
},
{
  "type": "node",
  "id": 6652761690,
  "lat": 43.4629834,
  "lon": -3.7909637
},
{
  "type": "node",
  "id": 6652761695,
  "lat": 43.4629106,
  "lon": -3.7910001
},
{
  "type": "node",
  "id": 6652761699,
  "lat": 43.4629989,
  "lon": -3.7909750
},
{
  "type": "node",
  "id": 6652761700,
  "lat": 43.4629285,
  "lon": -3.7909736
},
{
  "type": "node",
  "id": 6652761702,
  "lat": 43.4629485,
  "lon": -3.7909611
},
{
  "type": "node",
  "id": 6652761704,
  "lat": 43.4629749,
  "lon": -3.7909604
},
{
  "type": "node",
  "id": 6652761706,
  "lat": 43.4629250,
  "lon": -3.7909771
},
{
  "type": "node",
  "id": 6564447975,
  "lat": 43.4821058,
  "lon": -3.8367370
},
{
  "type": "node",
  "id": 6564448083,
  "lat": 43.4821821,
  "lon": -3.8361945
},
{
  "type": "node",
  "id": 6564448086,
  "lat": 43.4823045,
  "lon": -3.8364197
},
{
  "type": "node",
  "id": 6564448096,
  "lat": 43.4822703,
  "lon": -3.8362924
},
{
  "type": "node",
  "id": 6564448113,
  "lat": 43.4821770,
  "lon": -3.8366642
},
{
  "type": "node",
  "id": 6564448160,
  "lat": 43.4822353,
  "lon": -3.8362445
},
{
  "type": "node",
  "id": 6564448167,
  "lat": 43.4821689,
  "lon": -3.8362144
},
{
  "type": "node",
  "id": 6564448175,
  "lat": 43.4822937,
  "lon": -3.8363467
},
{
  "type": "node",
  "id": 6564448188,
  "lat": 43.4823045,
  "lon": -3.8364549
},
{
  "type": "node",
  "id": 6564448236,
  "lat": 43.4820151,
  "lon": -3.8364980
},
{
  "type": "node",
  "id": 6564448317,
  "lat": 43.4823052,
  "lon": -3.8364473
},
{
  "type": "node",
  "id": 6564448326,
  "lat": 43.4820655,
  "lon": -3.8367344
},
{
  "type": "node",
  "id": 6564448405,
  "lat": 43.4819729,
  "lon": -3.8365042
},
{
  "type": "node",
  "id": 6564448450,
  "lat": 43.4820674,
  "lon": -3.8366696
},
{
  "type": "node",
  "id": 6564448523,
  "lat": 43.4820012,
  "lon": -3.8364736
},
{
  "type": "node",
  "id": 6564448533,
  "lat": 43.4820433,
  "lon": -3.8366955
},
{
  "type": "node",
  "id": 6564448599,
  "lat": 43.4821669,
  "lon": -3.8362722
},
{
  "type": "node",
  "id": 6564448668,
  "lat": 43.4821888,
  "lon": -3.8362394
},
{
  "type": "node",
  "id": 6564448718,
  "lat": 43.4821331,
  "lon": -3.8363207
},
{
  "type": "node",
  "id": 6564448724,
  "lat": 43.4821198,
  "lon": -3.8363040
},
{
  "type": "node",
  "id": 6564448739,
  "lat": 43.4821470,
  "lon": -3.8362472
},
{
  "type": "node",
  "id": 4770874247,
  "lat": 43.3448802,
  "lon": -3.7450990
},
{
  "type": "node",
  "id": 4770874248,
  "lat": 43.3448723,
  "lon": -3.7451062
},
{
  "type": "node",
  "id": 4770874249,
  "lat": 43.3450089,
  "lon": -3.7450969
},
{
  "type": "node",
  "id": 4770874250,
  "lat": 43.3449707,
  "lon": -3.7450957
},
{
  "type": "node",
  "id": 4770874251,
  "lat": 43.3449707,
  "lon": -3.7451490
},
{
  "type": "node",
  "id": 4770874252,
  "lat": 43.3449629,
  "lon": -3.7451506
},
{
  "type": "node",
  "id": 4770874253,
  "lat": 43.3449629,
  "lon": -3.7451987
},
{
  "type": "node",
  "id": 4770874254,
  "lat": 43.3449294,
  "lon": -3.7451979
},
{
  "type": "node",
  "id": 4770874255,
  "lat": 43.3449288,
  "lon": -3.7452095
},
{
  "type": "node",
  "id": 4770874256,
  "lat": 43.3448843,
  "lon": -3.7452095
},
{
  "type": "node",
  "id": 4770874257,
  "lat": 43.3448834,
  "lon": -3.7451964
},
{
  "type": "node",
  "id": 4770874258,
  "lat": 43.3448723,
  "lon": -3.7451960
},
{
  "type": "node",
  "id": 4770874259,
  "lat": 43.3448814,
  "lon": -3.7450305
},
{
  "type": "node",
  "id": 4770874260,
  "lat": 43.3448688,
  "lon": -3.7450299
},
{
  "type": "node",
  "id": 4770874261,
  "lat": 43.3448707,
  "lon": -3.7449395
},
{
  "type": "node",
  "id": 4770874262,
  "lat": 43.3448880,
  "lon": -3.7449387
},
{
  "type": "node",
  "id": 4770874263,
  "lat": 43.3448883,
  "lon": -3.7449084
},
{
  "type": "node",
  "id": 4770874264,
  "lat": 43.3450104,
  "lon": -3.7449096
},
{
  "type": "node",
  "id": 599519613,
  "lat": 43.3426866,
  "lon": -3.7415392
},
{
  "type": "node",
  "id": 599519614,
  "lat": 43.3426136,
  "lon": -3.7415521
},
{
  "type": "node",
  "id": 599519622,
  "lat": 43.3426070,
  "lon": -3.7414811
},
{
  "type": "node",
  "id": 599519625,
  "lat": 43.3426801,
  "lon": -3.7414683
},
{
  "type": "node",
  "id": 4273315343,
  "lat": 43.3433261,
  "lon": -3.7417396
},
{
  "type": "node",
  "id": 4273315344,
  "lat": 43.3433548,
  "lon": -3.7416682
},
{
  "type": "node",
  "id": 4273315345,
  "lat": 43.3434475,
  "lon": -3.7418319
},
{
  "type": "node",
  "id": 4273315346,
  "lat": 43.3434762,
  "lon": -3.7417606
},
{
  "type": "node",
  "id": 2447317072,
  "lat": 43.3477292,
  "lon": -3.7021829
},
{
  "type": "node",
  "id": 2447317096,
  "lat": 43.3477934,
  "lon": -3.7021073
},
{
  "type": "node",
  "id": 2447317104,
  "lat": 43.3478633,
  "lon": -3.7023977
},
{
  "type": "node",
  "id": 2447317115,
  "lat": 43.3479277,
  "lon": -3.7023225
},
{
  "type": "node",
  "id": 347521561,
  "lat": 43.3781411,
  "lon": -3.7319550
},
{
  "type": "node",
  "id": 347521564,
  "lat": 43.3782635,
  "lon": -3.7318400
},
{
  "type": "node",
  "id": 347521566,
  "lat": 43.3781767,
  "lon": -3.7316708
},
{
  "type": "node",
  "id": 347521568,
  "lat": 43.3780541,
  "lon": -3.7317839
},
{
  "type": "node",
  "id": 2087896282,
  "lat": 43.4109871,
  "lon": -3.4096339
},
{
  "type": "node",
  "id": 2087896296,
  "lat": 43.4110384,
  "lon": -3.4096964
},
{
  "type": "node",
  "id": 3230311841,
  "lat": 43.4110723,
  "lon": -3.4096380
},
{
  "type": "node",
  "id": 3230311842,
  "lat": 43.4110223,
  "lon": -3.4097242
},
{
  "type": "node",
  "id": 3230311843,
  "lat": 43.4109688,
  "lon": -3.4096656
},
{
  "type": "node",
  "id": 3230311844,
  "lat": 43.4110187,
  "lon": -3.4095792
},
{
  "type": "node",
  "id": 3371614949,
  "lat": 43.4109748,
  "lon": -3.4096551
},
{
  "type": "node",
  "id": 566968423,
  "lat": 43.4730839,
  "lon": -3.5635974
},
{
  "type": "node",
  "id": 566968425,
  "lat": 43.4729888,
  "lon": -3.5635400
},
{
  "type": "node",
  "id": 566968427,
  "lat": 43.4730718,
  "lon": -3.5632791
},
{
  "type": "node",
  "id": 566968430,
  "lat": 43.4731669,
  "lon": -3.5633365
},
{
  "type": "node",
  "id": 6490693791,
  "lat": 43.4703948,
  "lon": -3.5147155
},
{
  "type": "node",
  "id": 6490693792,
  "lat": 43.4703716,
  "lon": -3.5148011
},
{
  "type": "node",
  "id": 6490693793,
  "lat": 43.4702495,
  "lon": -3.5147384
},
{
  "type": "node",
  "id": 6490693794,
  "lat": 43.4702726,
  "lon": -3.5146528
},
{
  "type": "node",
  "id": 1589407959,
  "lat": 43.4493153,
  "lon": -3.4865653
},
{
  "type": "node",
  "id": 1589407965,
  "lat": 43.4493179,
  "lon": -3.4866459
},
{
  "type": "node",
  "id": 1589407967,
  "lat": 43.4494822,
  "lon": -3.4865589
},
{
  "type": "node",
  "id": 1589407969,
  "lat": 43.4494855,
  "lon": -3.4866379
},
{
  "type": "node",
  "id": 564921510,
  "lat": 43.4862308,
  "lon": -3.5495370
},
{
  "type": "node",
  "id": 564921511,
  "lat": 43.4862734,
  "lon": -3.5494641
},
{
  "type": "node",
  "id": 564921512,
  "lat": 43.4860444,
  "lon": -3.5493306
},
{
  "type": "node",
  "id": 564921514,
  "lat": 43.4860870,
  "lon": -3.5492576
},
{
  "type": "node",
  "id": 3382487689,
  "lat": 43.4828073,
  "lon": -3.5463795
},
{
  "type": "node",
  "id": 3382493994,
  "lat": 43.4828891,
  "lon": -3.5462843
},
{
  "type": "node",
  "id": 3382494007,
  "lat": 43.4830190,
  "lon": -3.5467131
},
{
  "type": "node",
  "id": 3382494011,
  "lat": 43.4831086,
  "lon": -3.5466035
},
{
  "type": "way",
  "id": 39389331,
  "nodes": [
    471944812,
    886690724,
    471944813,
    4581951565,
    471830356,
    471830351,
    4581951570,
    4581951571,
    471830353,
    4581951537,
    4581951564,
    4581951550,
    4581951529,
    4581951524,
    4581951525,
    4581951528,
    4581951527,
    4581951526,
    4581951530,
    4581951549,
    4581951548,
    4581951546,
    4581951545,
    4581951544,
    4581951543,
    4581951547,
    4581951538,
    4581951539,
    4581951542,
    4581951540,
    4581951541,
    4581951551,
    4581951553,
    4581951552,
    4581951531,
    4581951563,
    4581951560,
    4581951556,
    4581951554,
    4581951555,
    4581951557,
    4581951559,
    4581951558,
    471944815,
    4581951561,
    4581951562,
    471944812
  ]
},
{
  "type": "way",
  "id": 462867029,
  "nodes": [
    4581951575,
    4581951574,
    4581951573,
    4581951572,
    4581951575
  ]
}

  ]
}
