{
  "version": 0.6,
  "generator": "Overpass API 0.7.55.9 ab41fea6",
  "osm3s": {
    "timestamp_osm_base": "2020-02-14T18:43:02Z",
    "copyright": "The data included in this document is from www.openstreetmap.org. The data is made available under ODbL."
  },
  "elements": [

{
  "type": "node",
  "id": 287034861,
  "lat": 55.7167672,
  "lon": 21.0997578,
  "tags": {
    "addr:city": "Klaipėda",
    "addr:housenumber": "2",
    "addr:postcode": "93100",
    "addr:street": "Smiltynės g.",
    "email": "ljm@muziejus.lt",
    "image": "https://upload.wikimedia.org/wikipedia/commons/a/a0/Lietuvos_juru_muziejus10.JPG",
    "museum_type": "republican",
    "name": "Lietuvos jūrų muziejus",
    "name:bat-smg": "Lietovuos jūru moziejos",
    "name:cs": "Muzeum moře s delfináriem",
    "name:de": "Litauisches Meeresmuseum",
    "name:en": "Lithuanian Sea Museum",
    "name:et": "Leedu Meremuuseum",
    "name:lt": "Lietuvos jūrų muziejus",
    "name:pl": "Litewskie Muzeum Morza",
    "name:ru": "Литовский морской музей",
    "name:uk": "Морський музей",
    "phone": "+370 46490740",
    "tourism": "museum",
    "website": "https://muziejus.lt/",
    "wheelchair": "limited",
    "wikidata": "Q3491492",
    "wikipedia": "lt:Lietuvos jūrų muziejus"
  }
},
{
  "type": "node",
  "id": 821373724,
  "lat": 55.7059187,
  "lon": 21.1289108,
  "tags": {
    "addr:city": "Klaipėda",
    "addr:housenumber": "4",
    "addr:postcode": "91240",
    "addr:street": "Pilies g.",
    "museum_type": "municipal",
    "name": "Pilies muziejus",
    "opening_hours": "Tu-Sa 10:00-18:00",
    "tourism": "museum",
    "website": "https://www.muziejai.lt/klaipeda/MLietuvos_muziejus.htm"
  }
},
{
  "type": "node",
  "id": 1385355496,
  "lat": 55.9182733,
  "lon": 21.0608511,
  "tags": {
    "addr:city": "Palanga",
    "addr:contact": "yes",
    "addr:housenumber": "24A",
    "addr:street": "J. Basanavičiaus g.",
    "description": "Paslapčių ir magijos kupinas pramogų kompleksas.",
    "email": "iliuzijums@gmail.com",
    "name": "Iliuzijų namai „Eureka“",
    "opening_hours": "Mo-Su 11:00-23:00",
    "phone": "+37068534244",
    "tourism": "museum"
  }
},
{
  "type": "node",
  "id": 2419024345,
  "lat": 55.7140871,
  "lon": 21.1043532,
  "tags": {
    "name": "Etnografinė pajūrio žvejo sodyba",
    "name:en": "Etnographic fisher's house",
    "name:lt": "Etnografinė pajūrio žvejo sodyba",
    "name:ru": "Домик рыбака",
    "name:uk": "Старовинна будівля рибалки",
    "operator": "Lietuvos Jūrų Muziejus",
    "tourism": "museum"
  }
},
{
  "type": "node",
  "id": 2419024346,
  "lat": 55.7130119,
  "lon": 21.1055291,
  "tags": {
    "name": "Žvejybos laivų ekspozicija",
    "name:en": "Fishing Ship Exposition",
    "name:lt": "Žvejybos laivų ekspozicija",
    "name:ru": "Рыбацкие суда",
    "name:uk": "Виставка рибальськіх суден",
    "operator": "Lietuvos Jūrų Muziejus",
    "tourism": "museum"
  }
},
{
  "type": "node",
  "id": 2947150276,
  "lat": 55.9139204,
  "lon": 21.0592137,
  "tags": {
    "addr:city": "Palanga",
    "addr:housenumber": "17",
    "addr:street": "Kęstučio g.",
    "email": "muzmoncio@is.lt",
    "museum_type": "institutional",
    "name": "Antano Mončio namai-muziejus",
    "name:lt": "Antano Mončio namai-muziejus",
    "name:ru": "Дом-музей Антанаса Мончиса",
    "opening_hours": "Sep 16 - May 1 We-Su 11:00-17:00; May 2 - Sep 15 We-Su 14:00-19:00",
    "tourism": "museum",
    "website": "http://www.antanasmoncys.com/lt/"
  }
},
{
  "type": "node",
  "id": 3298538700,
  "lat": 55.9117706,
  "lon": 21.0612432,
  "tags": {
    "addr:city": "Palanga",
    "addr:housenumber": "23A",
    "addr:postcode": "00135",
    "addr:street": "Vytauto g.",
    "museum_type": "national",
    "name": "Dr. Jono Šliūpo memorialinė sodyba",
    "opening_hours": "May 1-Aug 31 Tu-Su 11:00-18:00; Sep 1-Apr 30 Tu-Sa 11:00-17:00",
    "phone": "+370 460 54 559",
    "tourism": "museum",
    "website": "http://www.lnm.lt/jono-sliupo-memorialine-sodyba/"
  }
},
{
  "type": "node",
  "id": 3335902447,
  "lat": 55.5453820,
  "lon": 21.1210610,
  "tags": {
    "addr:city": "Neringa",
    "addr:housenumber": "4",
    "addr:postcode": "93102",
    "addr:street": "Miško g.",
    "email": "pareigis@mail.lt",
    "museum_type": "republican",
    "name": "Juodkrantės aplinkos tyrimų laboratorija",
    "phone": "+370 469 53 151",
    "tourism": "museum",
    "website": "https://www.muziejai.lt/kaunas/ivanausko_muziejus.htm"
  }
},
{
  "type": "node",
  "id": 3453895636,
  "lat": 55.7125510,
  "lon": 21.4032430,
  "tags": {
    "addr:city": "Gargždai",
    "addr:housenumber": "5",
    "addr:postcode": "96136",
    "addr:street": "Sodo g.",
    "email": "gargzdu.muziejus@gmail.com",
    "museum_type": "municipal",
    "name": "Gargždų krašto muziejus",
    "opening_hours": "Tu-Fr 9:00-18:00; Sa 11:00-18:00",
    "phone": "+370 670 37 145",
    "tourism": "museum",
    "website": "https://www.gargzdumuziejus.lt/"
  }
},
{
  "type": "node",
  "id": 3461160140,
  "lat": 55.5174420,
  "lon": 21.2402460,
  "tags": {
    "addr:city": "Dreverna",
    "addr:housenumber": "13",
    "addr:street": "Žvejų g.",
    "email": "gizo.sodyba@klaipedadistrict.lt",
    "museum_type": "municipal",
    "name": "J. Gižo etnografinė sodyba",
    "opening_hours": "Tu-Sa 9:00-18:00",
    "phone": "+370 46 476 301",
    "tourism": "museum",
    "website": "http://www.klaipedadistrict.lt/index.php?lang=LT"
  }
},
{
  "type": "node",
  "id": 3488363272,
  "lat": 55.5851860,
  "lon": 21.3935160,
  "tags": {
    "addr:city": "Agluonėnai",
    "addr:housenumber": "5A",
    "addr:postcode": "96252",
    "addr:street": "Aukštųjų g.",
    "email": "agluonenu.sodyba@gmail.com",
    "museum_type": "municipal",
    "name": "Agluonėnų etnografinė sodyba",
    "opening_hours": "Tu-Fr 10:00-17:00; Sa 10:00-16:00",
    "tourism": "museum",
    "website": "https://www.muziejai.lt/klaipeda/agluonenu_sodyba.htm"
  }
},
{
  "type": "node",
  "id": 3488363283,
  "lat": 55.7174300,
  "lon": 21.1407440,
  "tags": {
    "museum_type": "municipal",
    "name": "Skulptūrų parkas",
    "opening_hours": "0:00-24:00",
    "tourism": "museum",
    "website": "https://www.muziejai.lt/klaipeda/MLietuvos_muziejus.htm"
  }
},
{
  "type": "node",
  "id": 3529939322,
  "lat": 55.9176520,
  "lon": 21.0609630,
  "tags": {
    "addr:city": "Palanga",
    "addr:contact": "yes",
    "addr:housenumber": "21",
    "addr:postcode": "00135",
    "addr:street": "J. Basanavičiaus g.",
    "email": "irena.galdikaite@gmail.com",
    "museum_type": "departmental",
    "name": "Tremties ir rezistencijos muziejus",
    "phone": "+370 460 48 472",
    "tourism": "museum",
    "website": "https://www.palangatic.lt/lankytinos-vietos/tremties-ir-rezistencijos-muziejus/"
  }
},
{
  "type": "node",
  "id": 3629190478,
  "lat": 55.9170266,
  "lon": 21.0835862,
  "tags": {
    "addr:city": "Palanga",
    "addr:housenumber": "8",
    "addr:postcode": "00116",
    "addr:street": "Taikos g.",
    "description": "Lankymas ir pagal susitarimą telefonu",
    "email": "info@sunumuziejus.lt",
    "museum_type": "private",
    "name": "Šunų muziejus",
    "name:lt": "Šunų muziejus",
    "name:ru": "Музей собак",
    "opening_hours": "Tu-Sa 15:00-18:00",
    "phone": "+370 688 18 820",
    "tourism": "museum",
    "website": "http://www.sunumuziejus.lt"
  }
},
{
  "type": "node",
  "id": 4285718644,
  "lat": 55.9068276,
  "lon": 21.0557696,
  "tags": {
    "addr:city": "Palanga",
    "addr:housenumber": "17",
    "addr:postcode": "00101",
    "addr:street": "Vytauto g.",
    "alt_name": "Palangos gintaro muziejus",
    "email": "vilija.pgm@takas.lt",
    "image": "http://www.pgm.lt/Gintaro_muziejus/images2012/PGM_2011.jpg",
    "museum_type": "national",
    "name": "Gintaro muziejus",
    "name:en": "Muzeum of amber",
    "name:lt": "Gintaro muziejus",
    "name:ru": "Музей янтаря",
    "name:uk": "Музей бурштину",
    "opening_hours": "Sep 1-May 31 Tu-Sa 11:00-17:00; Su 11:00-16:00; Jun 1-Aug 31 Tu-Sa 10:00-20:00; Su 10:00-19:00",
    "phone": "+370 460 53 501",
    "toilets:wheelchair": "yes",
    "tourism": "museum",
    "website": "http://www.pgm.lt/",
    "wheelchair": "yes",
    "wheelchair:description": "Nach der Renovierung ist das Museum voll rollstuhlgerecht. Fahrstühle und rollstuhlgerechte WC's (auf jeder Etage) wurden eingebaut. EIntritt für Behinderte und Begleitperson ist kostenlos",
    "wikidata": "Q826824",
    "wikipedia": "lt:Palangos gintaro muziejus"
  }
},
{
  "type": "node",
  "id": 4836387766,
  "lat": 55.8999231,
  "lon": 21.2489077,
  "tags": {
    "addr:city": "Kretinga",
    "addr:contact": "yes",
    "addr:housenumber": "20",
    "addr:postcode": "97104",
    "addr:street": "Vilniaus g.",
    "email": "kretingosmuziejus@takas.lt",
    "image": "https://upload.wikimedia.org/wikipedia/commons/3/3a/Kretinga_palace.jpg",
    "museum_type": "municipal",
    "name": "Kretingos muziejus",
    "phone": "+370 445 77 612",
    "tourism": "museum",
    "website": "http://www.kretingosmuziejus.lt/",
    "wikidata": "Q5620534",
    "wikipedia": "lt:Kretingos muziejus"
  }
},
{
  "type": "node",
  "id": 4864109030,
  "lat": 55.7179104,
  "lon": 21.1346295,
  "tags": {
    "description": "Lankymas iš anksto susitarus",
    "name": "Rezistencijos ir tremties ekspozicija",
    "tourism": "museum",
    "website": "http://www.mlimuziejus.lt/lt/ekspozicijos/rezistencijos-ir-tremties-ekspozicija/"
  }
},
{
  "type": "node",
  "id": 4869568894,
  "lat": 55.5313675,
  "lon": 21.1174849,
  "tags": {
    "addr:city": "Neringa",
    "addr:contact": "yes",
    "addr:housenumber": "13",
    "addr:street": "L. Rėzos g.",
    "description": "„ Vėtrungių Galerijoje“ galite susipažinti su istorinio ir kultūrinio Kuršių marių regiono paveldo dalimi - vėtrungėmis. Galerijoje eksponuojama pagal istorinę medžiagą atkurtų vėtrungių kolekcija.",
    "email": "info@autentic.lt",
    "image": "http://www.autentic.lt/uploads/pics/3_03.jpg",
    "name": "Vėtrungių galerija",
    "phone": "+370 698 27283",
    "tourism": "museum",
    "website": "http://www.autentic.lt/index.php?id=8"
  }
},
{
  "type": "node",
  "id": 4875968533,
  "lat": 55.9208497,
  "lon": 21.0758007,
  "tags": {
    "addr:city": "Palanga",
    "addr:contact": "yes",
    "addr:housenumber": "4",
    "addr:street": "Malūno g.",
    "email": "insektariumas@gmail.com",
    "name": "Insektariumas",
    "opening_hours": "Tu-Su 12:00-18:00",
    "phone": "+37069911822",
    "tourism": "museum",
    "website": "http://www.insektariumas.lt"
  }
},
{
  "type": "node",
  "id": 4889557893,
  "lat": 55.7082748,
  "lon": 21.1101544,
  "tags": {
    "description": "Pastatyta pagal XIX – XX a. pab. Šventosios, Palangos apylinkių pajūrio žvejų sodybas. Etnografinėje pajūrio žvejo sodyboje atkurti visi pajūrio sodybų ūkiniai bei gyvenamieji statiniai.",
    "image": "http://muziejus.lt/sites/jrmz/files/styles/teaser_image/public/sodyba_vidinis4a.jpg",
    "name": "Etnografinė pajūrio žvejo sodyba",
    "tourism": "museum",
    "website": "https://muziejus.lt/lt/paslaugos/etnografine-pajurio-zvejo-sodyba"
  }
},
{
  "type": "node",
  "id": 4970052692,
  "lat": 55.9182212,
  "lon": 21.0558329,
  "tags": {
    "addr:city": "Palanga",
    "addr:housenumber": "34A",
    "addr:street": "Birutės al.",
    "name": "Palangos kurorto muziejus",
    "opening_hours": "10:00-16:30",
    "tourism": "museum"
  }
},
{
  "type": "node",
  "id": 4977232003,
  "lat": 55.8232087,
  "lon": 21.0780140,
  "tags": {
    "image": "http://www.gamtosperlas.lt/lib/manage/upload/muziejus.jpg",
    "name": "Medžioklės trofėjų muziejus",
    "opening_hours": "11:00-19:00",
    "tourism": "museum",
    "website": "http://www.gamtosperlas.lt/lt/medziokles-trofeju-muziejus"
  }
},
{
  "type": "way",
  "id": 98649011,
  "nodes": [
    1141256852,
    1141256851,
    1141256857,
    1141256859,
    1141256844,
    1141256849,
    1141256853,
    1141256858,
    1141256852
  ],
  "tags": {
    "addr:city": "Priekulė",
    "addr:housenumber": "11",
    "addr:postcode": "96340",
    "addr:street": "Vingio g.",
    "building": "house",
    "contact:phone": "+370 46454247",
    "museum_type": "municipal",
    "name": "Ievos Simonaitytės memorialinis muziejus",
    "opening_hours": "Tu-Sa 11:00-18:00",
    "tourism": "museum",
    "website": "https://www.muziejai.lt/klaipeda/simonaitytes_muziejus.htm"
  }
},
{
  "type": "way",
  "id": 103628564,
  "nodes": [
    1196587044,
    1196587002,
    1196587092,
    1196586905,
    1196587044
  ],
  "tags": {
    "addr:city": "Klaipėda",
    "addr:housenumber": "2",
    "addr:postcode": "91246",
    "addr:street": "Šaltkalvių g.",
    "building": "yes",
    "museum_type": "municipal",
    "name": "Kalvystės muziejus",
    "opening_hours": "Tu-Sa 10:00-18:00",
    "tourism": "museum",
    "website": "https://www.muziejai.lt/klaipeda/MLietuvos_muziejus.htm"
  }
},
{
  "type": "way",
  "id": 103687227,
  "nodes": [
    1197068210,
    1197067884,
    1197068240,
    1197068188,
    1197068210
  ],
  "tags": {
    "addr:city": "Neringa",
    "addr:housenumber": "3",
    "addr:postcode": "93101",
    "addr:street": "L. Rėzos g.",
    "building": "yes",
    "email": "miniatiuru.muziejus@zebra.lt",
    "museum_type": "national",
    "name": "Miniatūrų muziejus",
    "opening_hours": "Tu-Sa 11:00-18:00; Su 11:00-16:00; PH off",
    "operator": "Lietuvos dailės muziejus",
    "phone": "+370 469 53 323",
    "tourism": "museum",
    "website": "https://www.ldm.lt/mm/"
  }
},
{
  "type": "way",
  "id": 171808986,
  "nodes": [
    1827842333,
    1827842275,
    1827842233,
    1827842221,
    1827842201,
    1827842219,
    1827842177,
    1827842204,
    1827842228,
    1827842262,
    1827842333
  ],
  "tags": {
    "addr:city": "Klaipėda",
    "addr:housenumber": "12",
    "addr:postcode": "92114",
    "addr:street": "Liepų g.",
    "building": "yes",
    "contact:phone": "+370 46 410 414",
    "email": "laikrodziu.muziejus@muziejus.ldm.lt",
    "name": "Laikrodžių muziejus",
    "name:lt": "Laikrodžių muziejus",
    "name:ru": "Музей часов",
    "opening_hours": "Tu-Sa 12:00-18:00; Su 12:00-17:00",
    "phone": "+370 46 410 413",
    "tourism": "museum",
    "website": "https://www.ldm.lt/lm/",
    "wikidata": "Q15477314",
    "wikipedia": "lt:Klaipėdos laikrodžių muziejus"
  }
},
{
  "type": "way",
  "id": 171990788,
  "nodes": [
    1829471225,
    1829471143,
    1829471220,
    1829471190,
    1829471225
  ],
  "tags": {
    "building": "yes",
    "museum_type": "unknown",
    "name": "Buities rakandų muziejus",
    "tourism": "museum",
    "website": "http://www.vienkiemis.lt/lt/buities-rakandu-muziejus"
  }
},
{
  "type": "way",
  "id": 178310521,
  "nodes": [
    3589238867,
    3589238868,
    3589238869,
    1886742940,
    1886742935,
    1886742929,
    1886742895,
    1886742892,
    1886742893,
    3589238863,
    3589238864,
    3589238865,
    3589238887,
    3589238866,
    1886742919,
    1886742930,
    3589238886,
    5545633289,
    5545633290,
    5545633288,
    5545633287,
    3589238881,
    3589238880,
    3589238879,
    3589238878,
    3589238877,
    3589238876,
    3589238875,
    3589238874,
    3589238873,
    3589238872,
    3589238871,
    3589238870,
    1886742936,
    1886742942,
    1886742945,
    1886742944,
    3589238867
  ],
  "tags": {
    "addr:city": "Klaipėda",
    "addr:housenumber": "2",
    "addr:street": "Priešpilio g.",
    "building": "yes",
    "name": "Klaipėdos pilis",
    "name:de": "Klaipeda Castle",
    "name:en": "Klaipeda Castle",
    "name:lt": "Klaipėdos pilis",
    "name:ru": "Клайпедский замок",
    "tourism": "museum"
  }
},
{
  "type": "way",
  "id": 305725113,
  "nodes": [
    3103920650,
    3103920648,
    7005495020,
    3103920649,
    7005495014,
    3103920651,
    3103920650
  ],
  "tags": {
    "addr:city": "Kretinga",
    "addr:housenumber": "41",
    "addr:street": "Vilniaus g.",
    "building": "yes",
    "building:levels": "2",
    "name": "Etnografijos ekspozicija (vandens malūnas)",
    "roof:orientation": "along",
    "roof:shape": "gabled",
    "tourism": "museum"
  }
},
{
  "type": "way",
  "id": 360669207,
  "nodes": [
    3652253397,
    3652253419,
    3652253398,
    3652253399,
    3652253400,
    3652253401,
    3652253402,
    3652253403,
    3652253404,
    3652253405,
    3652253406,
    3652253407,
    3652253408,
    3652253397
  ],
  "tags": {
    "addr:city": "Klaipėda",
    "addr:housenumber": "2",
    "addr:street": "Didžioji Vandens g.",
    "building": "yes",
    "name": "Parodų rūmai",
    "tourism": "museum"
  }
},
{
  "type": "way",
  "id": 360669208,
  "nodes": [
    3652253397,
    3652253409,
    3652253410,
    3652253411,
    3652253412,
    3652253413,
    3652253414,
    3652253415,
    3652253416,
    3652253417,
    3652253421,
    3652253420,
    3652253418,
    1196586996,
    3652253419,
    3652253397
  ],
  "tags": {
    "addr:city": "Klaipėda",
    "addr:housenumber": "2",
    "addr:postcode": "91246",
    "addr:street": "Didžioji Vandens g.",
    "building": "yes",
    "museum_type": "municipal",
    "name": "Mažosios Lietuvos istorijos muziejus",
    "opening_hours": "Mo-Th 8:00-17:00; Fr 8:00-15:45",
    "phone": "+370 46 410 523",
    "tourism": "museum",
    "website": "https://www.mlimuziejus.lt/index.php"
  }
},
{
  "type": "way",
  "id": 443352275,
  "nodes": [
    4409413993,
    4409413994,
    4409413995,
    4409413996,
    4409413993
  ],
  "tags": {
    "addr:city": "Priekulė",
    "addr:housenumber": "29",
    "addr:postcode": "96341",
    "addr:street": "Klaipėdos g.",
    "building": "yes",
    "image": "https://www.gargzdumuziejus.lt/uploads/images/laisv%C4%97s%20ir%20kov%C5%B3%20muziejus%205.jpg",
    "museum_type": "municipal",
    "name": "Laisvės kovų ir tremties istorijos muziejus",
    "tourism": "museum",
    "website": "https://www.gargzdumuziejus.lt/filialas-laisves-kovu-ir-tremties-istorijos-muziejus/"
  }
},
{
  "type": "node",
  "id": 1197068188,
  "lat": 55.5318999,
  "lon": 21.1177874
},
{
  "type": "node",
  "id": 1197068210,
  "lat": 55.5319164,
  "lon": 21.1174239
},
{
  "type": "node",
  "id": 1197067884,
  "lat": 55.5320218,
  "lon": 21.1174388
},
{
  "type": "node",
  "id": 1197068240,
  "lat": 55.5320053,
  "lon": 21.1178023
},
{
  "type": "node",
  "id": 4409413993,
  "lat": 55.5566967,
  "lon": 21.3171146
},
{
  "type": "node",
  "id": 4409413994,
  "lat": 55.5566375,
  "lon": 21.3169842
},
{
  "type": "node",
  "id": 4409413995,
  "lat": 55.5565595,
  "lon": 21.3170948
},
{
  "type": "node",
  "id": 4409413996,
  "lat": 55.5566188,
  "lon": 21.3172252
},
{
  "type": "node",
  "id": 1141256844,
  "lat": 55.5545274,
  "lon": 21.3226847
},
{
  "type": "node",
  "id": 1141256849,
  "lat": 55.5545242,
  "lon": 21.3227240
},
{
  "type": "node",
  "id": 1141256851,
  "lat": 55.5546128,
  "lon": 21.3225675
},
{
  "type": "node",
  "id": 1141256852,
  "lat": 55.5546054,
  "lon": 21.3226584
},
{
  "type": "node",
  "id": 1141256853,
  "lat": 55.5546069,
  "lon": 21.3227452
},
{
  "type": "node",
  "id": 1141256857,
  "lat": 55.5545286,
  "lon": 21.3225460
},
{
  "type": "node",
  "id": 1141256858,
  "lat": 55.5546138,
  "lon": 21.3226606
},
{
  "type": "node",
  "id": 1141256859,
  "lat": 55.5545175,
  "lon": 21.3226821
},
{
  "type": "node",
  "id": 1886742892,
  "lat": 55.7057368,
  "lon": 21.1278909
},
{
  "type": "node",
  "id": 1886742893,
  "lat": 55.7056986,
  "lon": 21.1279417
},
{
  "type": "node",
  "id": 1886742895,
  "lat": 55.7057823,
  "lon": 21.1278653
},
{
  "type": "node",
  "id": 1886742919,
  "lat": 55.7057098,
  "lon": 21.1283395
},
{
  "type": "node",
  "id": 1886742929,
  "lat": 55.7058301,
  "lon": 21.1278678
},
{
  "type": "node",
  "id": 1886742930,
  "lat": 55.7057521,
  "lon": 21.1283751
},
{
  "type": "node",
  "id": 1886742935,
  "lat": 55.7058746,
  "lon": 21.1278983
},
{
  "type": "node",
  "id": 1886742940,
  "lat": 55.7059110,
  "lon": 21.1279531
},
{
  "type": "node",
  "id": 1886742942,
  "lat": 55.7059109,
  "lon": 21.1283100
},
{
  "type": "node",
  "id": 1886742944,
  "lat": 55.7059197,
  "lon": 21.1282578
},
{
  "type": "node",
  "id": 1886742945,
  "lat": 55.7058882,
  "lon": 21.1283169
},
{
  "type": "node",
  "id": 3589238863,
  "lat": 55.7056720,
  "lon": 21.1280121
},
{
  "type": "node",
  "id": 3589238864,
  "lat": 55.7056600,
  "lon": 21.1280942
},
{
  "type": "node",
  "id": 3589238865,
  "lat": 55.7056563,
  "lon": 21.1281794
},
{
  "type": "node",
  "id": 3589238866,
  "lat": 55.7056775,
  "lon": 21.1282841
},
{
  "type": "node",
  "id": 3589238867,
  "lat": 55.7059391,
  "lon": 21.1281839
},
{
  "type": "node",
  "id": 3589238868,
  "lat": 55.7059442,
  "lon": 21.1281029
},
{
  "type": "node",
  "id": 3589238869,
  "lat": 55.7059345,
  "lon": 21.1280232
},
{
  "type": "node",
  "id": 3589238886,
  "lat": 55.7057120,
  "lon": 21.1283909
},
{
  "type": "node",
  "id": 3589238887,
  "lat": 55.7056608,
  "lon": 21.1282367
},
{
  "type": "node",
  "id": 5545633289,
  "lat": 55.7057577,
  "lon": 21.1287765
},
{
  "type": "node",
  "id": 5545633290,
  "lat": 55.7057421,
  "lon": 21.1287863
},
{
  "type": "node",
  "id": 1196586996,
  "lat": 55.7072219,
  "lon": 21.1347687
},
{
  "type": "node",
  "id": 1886742936,
  "lat": 55.7060393,
  "lon": 21.1293522
},
{
  "type": "node",
  "id": 3589238870,
  "lat": 55.7059806,
  "lon": 21.1293717
},
{
  "type": "node",
  "id": 3589238871,
  "lat": 55.7059872,
  "lon": 21.1294329
},
{
  "type": "node",
  "id": 3589238872,
  "lat": 55.7060050,
  "lon": 21.1294862
},
{
  "type": "node",
  "id": 3589238873,
  "lat": 55.7060128,
  "lon": 21.1295416
},
{
  "type": "node",
  "id": 3589238874,
  "lat": 55.7060083,
  "lon": 21.1295950
},
{
  "type": "node",
  "id": 3589238875,
  "lat": 55.7059938,
  "lon": 21.1296444
},
{
  "type": "node",
  "id": 3589238876,
  "lat": 55.7059693,
  "lon": 21.1296800
},
{
  "type": "node",
  "id": 3589238877,
  "lat": 55.7059426,
  "lon": 21.1296919
},
{
  "type": "node",
  "id": 3589238878,
  "lat": 55.7059147,
  "lon": 21.1296958
},
{
  "type": "node",
  "id": 3589238879,
  "lat": 55.7058902,
  "lon": 21.1296780
},
{
  "type": "node",
  "id": 3589238880,
  "lat": 55.7058680,
  "lon": 21.1296602
},
{
  "type": "node",
  "id": 3589238881,
  "lat": 55.7058412,
  "lon": 21.1296701
},
{
  "type": "node",
  "id": 3652253397,
  "lat": 55.7072315,
  "lon": 21.1343726
},
{
  "type": "node",
  "id": 3652253398,
  "lat": 55.7070389,
  "lon": 21.1347458
},
{
  "type": "node",
  "id": 3652253399,
  "lat": 55.7069775,
  "lon": 21.1346379
},
{
  "type": "node",
  "id": 3652253400,
  "lat": 55.7070157,
  "lon": 21.1345637
},
{
  "type": "node",
  "id": 3652253401,
  "lat": 55.7070035,
  "lon": 21.1345439
},
{
  "type": "node",
  "id": 3652253402,
  "lat": 55.7070035,
  "lon": 21.1344983
},
{
  "type": "node",
  "id": 3652253403,
  "lat": 55.7070286,
  "lon": 21.1344431
},
{
  "type": "node",
  "id": 3652253404,
  "lat": 55.7070265,
  "lon": 21.1343759
},
{
  "type": "node",
  "id": 3652253405,
  "lat": 55.7070597,
  "lon": 21.1343099
},
{
  "type": "node",
  "id": 3652253406,
  "lat": 55.7070658,
  "lon": 21.1342595
},
{
  "type": "node",
  "id": 3652253407,
  "lat": 55.7070989,
  "lon": 21.1341922
},
{
  "type": "node",
  "id": 3652253408,
  "lat": 55.7071219,
  "lon": 21.1341946
},
{
  "type": "node",
  "id": 3652253409,
  "lat": 55.7074057,
  "lon": 21.1346556
},
{
  "type": "node",
  "id": 3652253410,
  "lat": 55.7075617,
  "lon": 21.1349522
},
{
  "type": "node",
  "id": 3652253411,
  "lat": 55.7074191,
  "lon": 21.1351934
},
{
  "type": "node",
  "id": 3652253412,
  "lat": 55.7073801,
  "lon": 21.1351223
},
{
  "type": "node",
  "id": 3652253413,
  "lat": 55.7073879,
  "lon": 21.1351064
},
{
  "type": "node",
  "id": 3652253414,
  "lat": 55.7073656,
  "lon": 21.1350669
},
{
  "type": "node",
  "id": 3652253415,
  "lat": 55.7074146,
  "lon": 21.1349839
},
{
  "type": "node",
  "id": 3652253416,
  "lat": 55.7073467,
  "lon": 21.1348593
},
{
  "type": "node",
  "id": 3652253417,
  "lat": 55.7073266,
  "lon": 21.1348969
},
{
  "type": "node",
  "id": 3652253418,
  "lat": 55.7072571,
  "lon": 21.1348452
},
{
  "type": "node",
  "id": 3652253419,
  "lat": 55.7071165,
  "lon": 21.1345956
},
{
  "type": "node",
  "id": 3652253420,
  "lat": 55.7072843,
  "lon": 21.1348969
},
{
  "type": "node",
  "id": 3652253421,
  "lat": 55.7073053,
  "lon": 21.1348582
},
{
  "type": "node",
  "id": 5545633287,
  "lat": 55.7057755,
  "lon": 21.1289267
},
{
  "type": "node",
  "id": 5545633288,
  "lat": 55.7057577,
  "lon": 21.1289346
},
{
  "type": "node",
  "id": 1196586905,
  "lat": 55.7065960,
  "lon": 21.1372205
},
{
  "type": "node",
  "id": 1196587002,
  "lat": 55.7066477,
  "lon": 21.1369134
},
{
  "type": "node",
  "id": 1196587044,
  "lat": 55.7067056,
  "lon": 21.1370071
},
{
  "type": "node",
  "id": 1196587092,
  "lat": 55.7065381,
  "lon": 21.1371268
},
{
  "type": "node",
  "id": 1827842177,
  "lat": 55.7120535,
  "lon": 21.1338958
},
{
  "type": "node",
  "id": 1827842201,
  "lat": 55.7121334,
  "lon": 21.1342580
},
{
  "type": "node",
  "id": 1827842204,
  "lat": 55.7121291,
  "lon": 21.1338139
},
{
  "type": "node",
  "id": 1827842219,
  "lat": 55.7121660,
  "lon": 21.1342225
},
{
  "type": "node",
  "id": 1827842221,
  "lat": 55.7121679,
  "lon": 21.1343583
},
{
  "type": "node",
  "id": 1827842228,
  "lat": 55.7121893,
  "lon": 21.1339887
},
{
  "type": "node",
  "id": 1827842233,
  "lat": 55.7122009,
  "lon": 21.1343225
},
{
  "type": "node",
  "id": 1827842262,
  "lat": 55.7122233,
  "lon": 21.1339519
},
{
  "type": "node",
  "id": 1827842275,
  "lat": 55.7122400,
  "lon": 21.1344362
},
{
  "type": "node",
  "id": 1827842333,
  "lat": 55.7123492,
  "lon": 21.1343177
},
{
  "type": "node",
  "id": 3103920648,
  "lat": 55.9003439,
  "lon": 21.2475159
},
{
  "type": "node",
  "id": 3103920649,
  "lat": 55.9003639,
  "lon": 21.2473170
},
{
  "type": "node",
  "id": 3103920650,
  "lat": 55.9005440,
  "lon": 21.2475798
},
{
  "type": "node",
  "id": 3103920651,
  "lat": 55.9005640,
  "lon": 21.2473809
},
{
  "type": "node",
  "id": 7005495014,
  "lat": 55.9004728,
  "lon": 21.2473518
},
{
  "type": "node",
  "id": 7005495020,
  "lat": 55.9003524,
  "lon": 21.2474317
},
{
  "type": "node",
  "id": 1829471143,
  "lat": 55.9100789,
  "lon": 21.2496808
},
{
  "type": "node",
  "id": 1829471190,
  "lat": 55.9101637,
  "lon": 21.2494532
},
{
  "type": "node",
  "id": 1829471220,
  "lat": 55.9101644,
  "lon": 21.2496800
},
{
  "type": "node",
  "id": 1829471225,
  "lat": 55.9100782,
  "lon": 21.2494540
}

  ]
}
