{
  "version": 0.6,
  "generator": "Overpass API 0.7.55.1011 6c2efc30",
  "osm3s": {
    "timestamp_osm_base": "2020-02-14T14:30:02Z",
    "copyright": "The data included in this document is from www.openstreetmap.org. The data is made available under ODbL."
  },
  "elements": [

{
  "type": "node",
  "id": 2634651909,
  "lat": 45.5137110,
  "lon": 21.1258460,
  "tags": {
    "SIRUTA:code": "156366",
    "addr:city": "Ciacova",
    "addr:postcode": "307110",
    "codul_entității_muzeale": "650650.0",
    "historic": "memorial",
    "name": "Casa Memorială Dositei Obradovic",
    "name:en": "Dositei Obradovic Memorial House",
    "opening_hours": "unknown",
    "phone": "0752446281",
    "source": "INP",
    "source:link": "http://date.gov.ro/dataset/ghidul-muzeelor-din-romania",
    "tourism": "museum",
    "tourism_survey": "13.02.2013 20:23:35"
  }
},
{
  "type": "node",
  "id": 2634651924,
  "lat": 45.7574231,
  "lon": 21.2282221,
  "tags": {
    "SIRUTA:code": "155252",
    "addr:city": "Timișoara",
    "addr:postcode": "300001",
    "addr:street": "Bega Shopping Center, et. II, Str. Carol Telbisz nr. 3",
    "codul_entității_muzeale": "7074050.0",
    "name": "Muzeul Emil Kindlein",
    "name:en": "Emil Kindlein Museum",
    "source": "INP",
    "source:link": "http://date.gov.ro/dataset/ghidul-muzeelor-din-romania",
    "start_date": "2012",
    "tourism": "museum",
    "tourism_survey": "03.12.2013 15:12:41",
    "website": "http://emilkindleinmuseum.ekm.ro/"
  }
},
{
  "type": "node",
  "id": 2634652001,
  "lat": 45.6456918,
  "lon": 21.5993886,
  "tags": {
    "SIRUTA:code": "155412",
    "addr:city": "Buziaș",
    "addr:housenumber": "16",
    "addr:postcode": "305100",
    "addr:street": "Strada Andrei Șaguna",
    "codul_entității_muzeale": "6973503.0",
    "fixme": "Adresa muzeului este de fapt adresa localitati, trebuie cautat manual unde este adresa corecta",
    "name": "Expoziția de Artă Populară \"Iulia Folea Troceanu\"",
    "name:en": "\"Iulia Folea Troceanu\" Folk Art Exhibition",
    "opening_hours": "9:00-12:30, 16:00-18:00",
    "phone": "0256/321.130",
    "source": "INP",
    "source:link": "http://date.gov.ro/dataset/ghidul-muzeelor-din-romania",
    "start_date": "1969",
    "tourism": "museum",
    "tourism_survey": "06.11.2013 12:49:53",
    "website": "http://www.muzeulbanatului.ro/#"
  }
},
{
  "type": "node",
  "id": 2634652196,
  "lat": 45.7573543,
  "lon": 21.2292917,
  "tags": {
    "LMI": "TM-II-m-A-06174",
    "SIRUTA:code": "155252",
    "addr:city": "Timișoara",
    "addr:housenumber": "1",
    "addr:postcode": "300085",
    "addr:street": "Piața Unirii",
    "codul_entității_muzeale": "6.9735002E7",
    "description:ro": "Sectia de arta s-a constituit in anul 1872 cand a luat fiinta Societatea de istorie si arheologie prin donatia lui Sigismund Ormos.",
    "email": "muzeuldeartatm@clicknet.ro",
    "fax": "0256/491.582",
    "name": "Muzeul de Artă",
    "name:de": "Kunstmuseum",
    "name:en": "Art Museum",
    "name:ro": "Muzeul de Artă",
    "opening_hours": "10:00-18:00;Mo closed",
    "phone": "0256/491.589, 0256/491.592",
    "source": "INP",
    "source:link": "http://date.gov.ro/dataset/ghidul-muzeelor-din-romania",
    "start_date": "1872;2006 (redeschis)",
    "tourism": "museum",
    "tourism_survey": "10.12.2013 15:29:32",
    "website": "http://www.muzeuldeartatm.ro/",
    "wikidata": "Q808559",
    "wikipedia": "ro:Muzeul de Artă din Timișoara"
  }
},
{
  "type": "node",
  "id": 2634652211,
  "lat": 45.7506511,
  "lon": 21.2243336,
  "tags": {
    "LMI": "TM-II-m-A-06138",
    "SIRUTA:code": "155252",
    "addr:city": "Timișoara",
    "addr:housenumber": "1",
    "addr:postcode": "300021",
    "addr:street": "Bulevardul Regele Ferdinand",
    "codul_entității_muzeale": "5.1620000151E10",
    "name": "Colecția Muzeală a Mitropoliei Ortodoxe a Banatului",
    "name:en": "Banat Orthodox Metropolitan Museum Collection",
    "opening_hours": "Mo-Su 9:00-13:00; Su closed",
    "phone": "0264/490.287",
    "source": "INP",
    "source:link": "http://date.gov.ro/dataset/ghidul-muzeelor-din-romania",
    "start_date": "1971",
    "tourism": "museum",
    "tourism_survey": "03.09.2013 15:19:56"
  }
},
{
  "type": "node",
  "id": 2634652378,
  "lat": 45.5134690,
  "lon": 21.1246520,
  "tags": {
    "SIRUTA:code": "156366",
    "addr:city": "Ciacova",
    "addr:housenumber": "42",
    "addr:postcode": "307110",
    "addr:street": "Piața Cetății",
    "codul_entității_muzeale": "7174900.0",
    "fax": "0256/399.600",
    "name": "Expoziția de Etnografie și Artă Populară",
    "name:en": "Ethnography and Folk Art Exhibition",
    "opening_hours": "10:00-15:00 Apr-Sep; 10:00-12:00 Oct-Mar; Sa, Su closed",
    "phone": "0256/399.600",
    "source": "INP",
    "source:link": "http://date.gov.ro/dataset/ghidul-muzeelor-din-romania",
    "start_date": "1986",
    "tourism": "museum",
    "tourism_survey": "30.11.2011 13:43:20"
  }
},
{
  "type": "node",
  "id": 2634652489,
  "lat": 45.7556682,
  "lon": 21.2265979,
  "tags": {
    "LMI": "TM-II-m-B-06117",
    "SIRUTA:code": "155252",
    "addr:city": "Timișoara",
    "addr:housenumber": "5-7",
    "addr:postcode": "300077",
    "addr:street": "Piața Libertății",
    "codul_entității_muzeale": "7510500.0",
    "fax": "0256/201.657",
    "name": "Sala de Tradiții Militare",
    "name:en": "Military Traditions Hall",
    "opening_hours": "unknown",
    "phone": "0256/201.657",
    "source": "INP",
    "source:link": "http://date.gov.ro/dataset/ghidul-muzeelor-din-romania",
    "start_date": "1990",
    "tourism": "museum",
    "tourism_survey": "06.12.2013 13:39:04"
  }
},
{
  "type": "node",
  "id": 2634652516,
  "lat": 45.7530646,
  "lon": 21.2270757,
  "tags": {
    "LMI": "TM-II-m-A-06140",
    "SIRUTA:code": "155252",
    "addr:city": "Timișoara",
    "addr:housenumber": "1",
    "addr:postcode": "300002",
    "addr:street": "Piața Iancu Huniade",
    "codul_entității_muzeale": "6973500.0",
    "contact:email": "muzeul.banatului@yahoo.com",
    "contact:fax": "+40 256 201321",
    "contact:phone": "+40 256 201321;+40 256 491339",
    "contact:website": "http://www.muzeulbanatului.ro",
    "description": "In 1872, a luat fiinta Societatea de Istorie si Arheologie din Timisoara, iar, in 1873, Societatea de stiintele Naturii. in 1882 s-au pus bazele Asociatiei Muzeale iar, dupa 1918, colectiile au fost mutate in Castelul Huniade, actualul sediu muzeal.",
    "name": "Muzeul Banatului",
    "name:en": "Museum of Banat",
    "name:hu": "Bánsági Múzeum",
    "opening_hours": "Tu-Su 10:00-16:00",
    "source": "INP",
    "source:link": "http://date.gov.ro/dataset/ghidul-muzeelor-din-romania",
    "start_date": "1872",
    "tourism": "museum",
    "tourism_survey": "11.12.2013 12:55:38",
    "wikidata": "Q806121",
    "wikipedia": "en:Museum of Banat"
  }
},
{
  "type": "node",
  "id": 2634652517,
  "lat": 45.7531035,
  "lon": 21.2273177,
  "tags": {
    "LMI": "TM-II-m-A-06140",
    "SIRUTA:code": "155252",
    "addr:city": "Timișoara",
    "addr:housenumber": "1",
    "addr:postcode": "300002",
    "addr:street": "Piața Iancu Huniade",
    "codul_entității_muzeale": "6.9735003E7",
    "description:ro": "Anul infiintarii Societatii de stiinte Naturale este 1873 cand s-au pus bazele colectiilor de botanica, zoologie, mineralogie ale viitorului muzeu. in 1954 sectia se muta in cladirea actuala din Piata Huniade.",
    "email": "muzeul.banatului@yahoo.com",
    "fax": "0256/201.321",
    "museum_type": "Natural Sciences - Botanics, Geology",
    "name": "Muzeul Banatului, Secția de Științele Naturii",
    "name:en": "Banat Museum, Natural Sciences Department",
    "opening_hours": "10:00-16:00; Mo closed",
    "phone": "0256/491.339;0256/201.321",
    "source": "INP",
    "source:link": "http://date.gov.ro/dataset/ghidul-muzeelor-din-romania",
    "start_date": "1873",
    "tourism": "museum",
    "tourism_survey": "19.09.2013 12:02:50",
    "website": "http://www.muzeulbanatului.ro"
  }
},
{
  "type": "node",
  "id": 2634652731,
  "lat": 45.6940566,
  "lon": 21.2368790,
  "tags": {
    "SIRUTA:code": "155323",
    "addr:city": "Giroc",
    "codul_entității_muzeale": "7074600.0",
    "email": "mariusmatei03@yahoo.com",
    "fixme": "Adresa muzeului este de fapt adresa localitati, trebuie cautat manual unde este adresa corecta",
    "name": "Colecție Muzeală",
    "name:en": "Museum",
    "opening_hours": "unknown",
    "phone": "0733313581",
    "source": "INP",
    "source:link": "http://date.gov.ro/dataset/ghidul-muzeelor-din-romania",
    "tourism": "museum",
    "tourism_survey": "13.08.2013 14:48:34",
    "website": "http://recomespar.ro/"
  }
},
{
  "type": "node",
  "id": 2634652888,
  "lat": 45.7147350,
  "lon": 20.9013414,
  "tags": {
    "SIRUTA:code": "156286",
    "addr:city": "Cenei",
    "codul_entității_muzeale": "650690.0",
    "fixme": "Adresa muzeului este de fapt adresa localitati, trebuie cautat manual unde este adresa corecta",
    "name": "Colecție Sătească Particulară",
    "name:en": "Private village collection",
    "opening_hours": "unknown",
    "phone": "0256/366368",
    "source": "INP",
    "source:link": "http://date.gov.ro/dataset/ghidul-muzeelor-din-romania",
    "tourism": "museum",
    "tourism_survey": "13.02.2013 20:23:03"
  }
},
{
  "type": "node",
  "id": 2634652901,
  "lat": 45.7564001,
  "lon": 21.2298608,
  "tags": {
    "LMI": "TM-II-m-A-06154",
    "SIRUTA:code": "155252",
    "addr:city": "Timișoara",
    "addr:housenumber": "4",
    "addr:postcode": "300055",
    "addr:street": "Strada Episcop Dr. Augustin Pacha",
    "codul_entității_muzeale": "5.162000015E10",
    "email": "ep_rc_tm@lasting.ro",
    "fax": "0256/490.201",
    "name": "Muzeul Episcopiei Romano-Catolice",
    "name:en": "Roman-Catholic Episcopal Museum",
    "phone": "0256/490.081",
    "source": "INP",
    "source:link": "http://date.gov.ro/dataset/ghidul-muzeelor-din-romania",
    "start_date": "1995",
    "tourism": "museum",
    "tourism_survey": "21.10.2012 16:23:15"
  }
},
{
  "type": "node",
  "id": 2634652914,
  "lat": 45.7579571,
  "lon": 21.2279491,
  "tags": {
    "SIRUTA:code": "155252",
    "addr:city": "Timișoara",
    "addr:housenumber": "4",
    "addr:postcode": "300085",
    "addr:street": "Piața Unirii",
    "codul_entității_muzeale": "6.500010004E9",
    "email": "eparhijatemisvarska@yahoo.com",
    "fax": "0256/204.336;0356-42.90.81",
    "name": "Colecția Muzeală a Episcopiei Ortodoxe Sârbe",
    "name:en": "Serbian Orthodox Bishopric Museum Collection",
    "opening_hours": "Mo-Th 8:30-19:00; Fr 9:00-13:00",
    "phone": "0256/204.336;0356-42.90.81",
    "source": "INP",
    "source:link": "http://date.gov.ro/dataset/ghidul-muzeelor-din-romania",
    "start_date": "1967",
    "tourism": "museum",
    "tourism_survey": "06.12.2013 14:00:41"
  }
},
{
  "type": "node",
  "id": 3523537086,
  "lat": 45.7432619,
  "lon": 21.2243079,
  "tags": {
    "name": "Muzeul Consumatorului Comunist",
    "name:en": "Communist Consumer Museum",
    "tourism": "museum"
  }
},
{
  "type": "node",
  "id": 6877942195,
  "lat": 45.7570612,
  "lon": 21.2325840,
  "tags": {
    "addr:city": "Timișoara",
    "addr:housenumber": "4",
    "addr:postcode": "300062",
    "addr:street": "Strada Martin Luther",
    "name": "Muzeul Național al Banatului",
    "tourism": "museum"
  }
},
{
  "type": "way",
  "id": 27544471,
  "nodes": [
    302367687,
    4641671527,
    302367688,
    2133704265,
    302367689,
    1466764424,
    1466764413,
    302367690,
    6384078333,
    302367687
  ],
  "tags": {
    "SIRUTA:code": "155252",
    "addr:city": "Timișoara",
    "addr:housenumber": "1",
    "addr:postcode": "300136",
    "addr:street": "Aleea Avram Imbroane",
    "area": "yes",
    "codul_entității_muzeale": "6973502.0",
    "description:ro": "Muzeul Satului Banatean a fost infiintat in 1972, sub numele de Rezervatia de Arhitectura si Tehnica Populara ? Padurea Verde, intinzandu-se pe o suprafata de 17,47 ha si cuprinzand gospodarii batranesti si instalatii de tehnica populara din Banat. in 19",
    "email": "msb_tm@yahoo.com",
    "fax": "0256/225.588",
    "is_in:city": "Timișoara",
    "name": "Muzeul Satului Bănățean",
    "name:en": "Banat Village Museum",
    "opening_hours": "Apr-Sep 10:00-18:00; Oct-Mar 10:00-16:00; Mo closed",
    "operator": "Consiliul Județean Timiș",
    "phone": "+40 256 225 588",
    "source": "INP",
    "source:link": "http://date.gov.ro/dataset/ghidul-muzeelor-din-romania",
    "start_date": "1972",
    "tourism": "museum",
    "tourism_survey": "05.12.2013 11:30:16",
    "url": "http://www.msbtm.ro/main.html",
    "website": "http://www.msbtimisoara.ro/",
    "wikipedia": "ro:Muzeul Satului Bănățean",
    "wikipedia:de": "Banater Dorfmuseum"
  }
},
{
  "type": "way",
  "id": 116830336,
  "nodes": [
    1316191566,
    1316191586,
    1316191512,
    1316191610,
    1316191534,
    1316191496,
    1316191538,
    1316191522,
    1316191569,
    1316191546,
    1316191596,
    1316191574,
    1316191566
  ],
  "tags": {
    "building": "yes",
    "name": "Asociația Memorialul Revoluției 16-22 Decembrie 1989",
    "name:de": "Dokumentationszentrum Revolution 1989",
    "name:en": "Revolution Memorial",
    "tourism": "museum"
  }
},
{
  "type": "way",
  "id": 193032540,
  "nodes": [
    2035648714,
    2035648858,
    2035648707,
    2035648748,
    2035648778,
    2035648762,
    2035648867,
    2035648750,
    2035648909,
    2035648674,
    2035648829,
    2035648869,
    4885658088,
    2035648691,
    2035648752,
    2035648730,
    2035648746,
    2035648714
  ],
  "tags": {
    "addr:housenumber": "5",
    "addr:street": "Piața Libertății",
    "building": "yes",
    "name": "Muzeul Armatei",
    "tourism": "museum"
  }
},
{
  "type": "way",
  "id": 528949352,
  "nodes": [
    4452295140,
    6791025500,
    2093966120,
    2093966126,
    4452295153,
    6859710106,
    2093965949,
    6859710107,
    2093965912,
    2093965890,
    2093965871,
    4452295155,
    6859710108,
    6859710110,
    6859710109,
    2093965843,
    4452295152,
    4452295151,
    4452295150,
    4452295149,
    4452295148,
    4452295147,
    4452295146,
    4452295145,
    4452295144,
    4452295143,
    4452295142,
    4452295141,
    4452295140
  ],
  "tags": {
    "addr:city": "Timișoara",
    "addr:housenumber": "83",
    "addr:postcode": "300124",
    "addr:postcode:source": "Date de la Poșta Română, publicate sub Licența pentru Guvernare Deschisă v1.0 la http://date.gov.ro/organization/posta-romana",
    "addr:street": "Bulevardul Take Ionescu",
    "name": "Muzeul de Transport Public Corneliu Mikloși",
    "operator": "STPT",
    "tourism": "museum"
  }
},
{
  "type": "node",
  "id": 2035648707,
  "lat": 45.7548230,
  "lon": 21.2270386
},
{
  "type": "node",
  "id": 2035648714,
  "lat": 45.7548308,
  "lon": 21.2269120
},
{
  "type": "node",
  "id": 2035648746,
  "lat": 45.7551815,
  "lon": 21.2269531
},
{
  "type": "node",
  "id": 2035648748,
  "lat": 45.7550134,
  "lon": 21.2270604
},
{
  "type": "node",
  "id": 2035648858,
  "lat": 45.7548294,
  "lon": 21.2269367
},
{
  "type": "node",
  "id": 1316191496,
  "lat": 45.7598993,
  "lon": 21.2316724
},
{
  "type": "node",
  "id": 1316191512,
  "lat": 45.7602523,
  "lon": 21.2316324
},
{
  "type": "node",
  "id": 1316191522,
  "lat": 45.7600315,
  "lon": 21.2318891
},
{
  "type": "node",
  "id": 1316191534,
  "lat": 45.7601341,
  "lon": 21.2317090
},
{
  "type": "node",
  "id": 1316191538,
  "lat": 45.7598845,
  "lon": 21.2318661
},
{
  "type": "node",
  "id": 1316191546,
  "lat": 45.7603294,
  "lon": 21.2319080
},
{
  "type": "node",
  "id": 1316191566,
  "lat": 45.7604748,
  "lon": 21.2317629
},
{
  "type": "node",
  "id": 1316191569,
  "lat": 45.7600336,
  "lon": 21.2318619
},
{
  "type": "node",
  "id": 1316191574,
  "lat": 45.7604599,
  "lon": 21.2319592
},
{
  "type": "node",
  "id": 1316191586,
  "lat": 45.7602451,
  "lon": 21.2317270
},
{
  "type": "node",
  "id": 1316191596,
  "lat": 45.7603271,
  "lon": 21.2319385
},
{
  "type": "node",
  "id": 1316191610,
  "lat": 45.7601413,
  "lon": 21.2316151
},
{
  "type": "node",
  "id": 2035648674,
  "lat": 45.7548289,
  "lon": 21.2275519
},
{
  "type": "node",
  "id": 2035648691,
  "lat": 45.7551589,
  "lon": 21.2274151
},
{
  "type": "node",
  "id": 2035648730,
  "lat": 45.7551613,
  "lon": 21.2272667
},
{
  "type": "node",
  "id": 2035648750,
  "lat": 45.7549917,
  "lon": 21.2273981
},
{
  "type": "node",
  "id": 2035648752,
  "lat": 45.7551683,
  "lon": 21.2272674
},
{
  "type": "node",
  "id": 2035648762,
  "lat": 45.7549946,
  "lon": 21.2272456
},
{
  "type": "node",
  "id": 2035648778,
  "lat": 45.7550014,
  "lon": 21.2272465
},
{
  "type": "node",
  "id": 2035648829,
  "lat": 45.7548215,
  "lon": 21.2276624
},
{
  "type": "node",
  "id": 2035648867,
  "lat": 45.7549848,
  "lon": 21.2273973
},
{
  "type": "node",
  "id": 2035648869,
  "lat": 45.7551341,
  "lon": 21.2276991
},
{
  "type": "node",
  "id": 2035648909,
  "lat": 45.7549807,
  "lon": 21.2275700
},
{
  "type": "node",
  "id": 4885658088,
  "lat": 45.7551519,
  "lon": 21.2274142
},
{
  "type": "node",
  "id": 2093965843,
  "lat": 45.7624246,
  "lon": 21.2461107
},
{
  "type": "node",
  "id": 2093965871,
  "lat": 45.7625426,
  "lon": 21.2465877
},
{
  "type": "node",
  "id": 2093965890,
  "lat": 45.7626204,
  "lon": 21.2465483
},
{
  "type": "node",
  "id": 2093965912,
  "lat": 45.7626743,
  "lon": 21.2465210
},
{
  "type": "node",
  "id": 2093965949,
  "lat": 45.7627812,
  "lon": 21.2464688
},
{
  "type": "node",
  "id": 2093966120,
  "lat": 45.7633600,
  "lon": 21.2456583
},
{
  "type": "node",
  "id": 2093966126,
  "lat": 45.7634443,
  "lon": 21.2460132
},
{
  "type": "node",
  "id": 4452295140,
  "lat": 45.7632791,
  "lon": 21.2453392
},
{
  "type": "node",
  "id": 4452295141,
  "lat": 45.7631462,
  "lon": 21.2454062
},
{
  "type": "node",
  "id": 4452295142,
  "lat": 45.7630639,
  "lon": 21.2454438
},
{
  "type": "node",
  "id": 4452295143,
  "lat": 45.7629628,
  "lon": 21.2454921
},
{
  "type": "node",
  "id": 4452295144,
  "lat": 45.7628711,
  "lon": 21.2455403
},
{
  "type": "node",
  "id": 4452295145,
  "lat": 45.7627963,
  "lon": 21.2455833
},
{
  "type": "node",
  "id": 4452295146,
  "lat": 45.7627084,
  "lon": 21.2456316
},
{
  "type": "node",
  "id": 4452295147,
  "lat": 45.7626167,
  "lon": 21.2456798
},
{
  "type": "node",
  "id": 4452295148,
  "lat": 45.7625119,
  "lon": 21.2457388
},
{
  "type": "node",
  "id": 4452295149,
  "lat": 45.7624464,
  "lon": 21.2457684
},
{
  "type": "node",
  "id": 4452295150,
  "lat": 45.7624164,
  "lon": 21.2458247
},
{
  "type": "node",
  "id": 4452295151,
  "lat": 45.7624071,
  "lon": 21.2458917
},
{
  "type": "node",
  "id": 4452295152,
  "lat": 45.7624052,
  "lon": 21.2460098
},
{
  "type": "node",
  "id": 4452295153,
  "lat": 45.7628788,
  "lon": 21.2462891
},
{
  "type": "node",
  "id": 4452295155,
  "lat": 45.7625382,
  "lon": 21.2465905
},
{
  "type": "node",
  "id": 6791025500,
  "lat": 45.7633150,
  "lon": 21.2454817
},
{
  "type": "node",
  "id": 6859710106,
  "lat": 45.7629057,
  "lon": 21.2464081
},
{
  "type": "node",
  "id": 6859710107,
  "lat": 45.7627401,
  "lon": 21.2464889
},
{
  "type": "node",
  "id": 6859710108,
  "lat": 45.7625126,
  "lon": 21.2464763
},
{
  "type": "node",
  "id": 6859710109,
  "lat": 45.7624698,
  "lon": 21.2463011
},
{
  "type": "node",
  "id": 6859710110,
  "lat": 45.7624827,
  "lon": 21.2463503
},
{
  "type": "node",
  "id": 302367687,
  "lat": 45.7766576,
  "lon": 21.2649651
},
{
  "type": "node",
  "id": 302367689,
  "lat": 45.7795377,
  "lon": 21.2660195
},
{
  "type": "node",
  "id": 4641671527,
  "lat": 45.7771678,
  "lon": 21.2659398
},
{
  "type": "node",
  "id": 302367688,
  "lat": 45.7781488,
  "lon": 21.2678137
},
{
  "type": "node",
  "id": 2133704265,
  "lat": 45.7791184,
  "lon": 21.2664548
},
{
  "type": "node",
  "id": 302367690,
  "lat": 45.7813569,
  "lon": 21.2601974
},
{
  "type": "node",
  "id": 1466764413,
  "lat": 45.7817946,
  "lon": 21.2609455
},
{
  "type": "node",
  "id": 1466764424,
  "lat": 45.7811463,
  "lon": 21.2628601
},
{
  "type": "node",
  "id": 6384078333,
  "lat": 45.7809222,
  "lon": 21.2606385
}

  ]
}
