{
  "version": 0.6,
  "generator": "Overpass API 0.7.55.9 ab41fea6",
  "osm3s": {
    "timestamp_osm_base": "2020-02-14T15:24:01Z",
    "copyright": "The data included in this document is from www.openstreetmap.org. The data is made available under ODbL."
  },
  "elements": [

{
  "type": "node",
  "id": 668681965,
  "lat": 46.9046013,
  "lon": 17.8066134,
  "tags": {
    "description": "Néprajzi",
    "name": "Udvari Galéria",
    "tourism": "museum"
  }
},
{
  "type": "node",
  "id": 973648874,
  "lat": 47.1942983,
  "lon": 18.4101195,
  "tags": {
    "addr:city": "Székesfehérvár",
    "addr:housenumber": "3",
    "addr:postcode": "8000",
    "addr:street": "Országzászló tér",
    "name": "Szent István Király Múzeum",
    "phone": "+36 22 315583",
    "tourism": "museum",
    "website": "https://szikm.hu/"
  }
},
{
  "type": "node",
  "id": 1491912355,
  "lat": 47.0702727,
  "lon": 18.1688077,
  "tags": {
    "name": "Tájház",
    "tourism": "museum"
  }
},
{
  "type": "node",
  "id": 1538555028,
  "lat": 47.1990394,
  "lon": 18.1378345,
  "tags": {
    "addr:city": "Várpalota",
    "addr:conscriptionnumber": "185/32, 185/33",
    "addr:housenumber": "1",
    "addr:postcode": "8100",
    "addr:street": "Gróf Apponyi Albert liget",
    "email": "trianonmuzeum@trianonmuzeum.hu",
    "email:2": "titkarsag@trianonmuzeum.hu",
    "fee": "felnőtt:1200Ft; gyermek(7-25)nyugdíjas:600Ft; külhoni magyarok:0Ft; Minden hó 3.hétvégéjén díjtalan:18éven aluli gyermek és max.2fő hozzátartozója; Nemzeti ünnepeken díjtalan",
    "name": "Trianon Múzeum",
    "opening_hours": "Tu-Th 10:00-16:00; Fr-Su 09:00-17:00",
    "phone": "+36 88 372-721",
    "tourism": "museum",
    "website": "http://www.trianonmuzeum.hu/",
    "wikidata": "Q1323925",
    "wikipedia": "hu:Trianon Múzeum"
  }
},
{
  "type": "node",
  "id": 1538555081,
  "lat": 47.2009925,
  "lon": 18.1391905,
  "tags": {
    "level": "2",
    "name": "Vegyészeti Múzeum",
    "operator": "Magyar Műszaki és Közlekedési Múzeum",
    "tourism": "museum"
  }
},
{
  "type": "node",
  "id": 1577736062,
  "lat": 47.2034676,
  "lon": 18.1404361,
  "tags": {
    "name": "Tájház",
    "tourism": "museum"
  }
},
{
  "type": "node",
  "id": 1770420734,
  "lat": 46.9050536,
  "lon": 18.0510360,
  "tags": {
    "alt_name": "Tojásmúzeum",
    "name": "Tojásművészeti Kiállítás",
    "tourism": "museum"
  }
},
{
  "type": "node",
  "id": 1771598298,
  "lat": 47.0452475,
  "lon": 17.8879650,
  "tags": {
    "alt_name": "Villa Romana Baláca",
    "description": "Villa Romana Baláca",
    "is_in": "Balácapuszta",
    "name": "Római múzeum",
    "opening_hours": "Tu-Fr 09:00-17:30; Sa,Su 10:00-18:30",
    "operator": "Magyar Nemzeti Múzeum",
    "postal_code": "8248",
    "source": "http://www.balaca.hu/tartalom/fedezzuek-fel-balacat",
    "tourism": "museum",
    "url": "https://www.turabazis.hu/latnivalok_ismerteto_4221",
    "website": "http://www.balaca.hu/"
  }
},
{
  "type": "node",
  "id": 2283890873,
  "lat": 47.1317795,
  "lon": 17.7535862,
  "tags": {
    "name": "Porcelánművészeti Múzeum",
    "tourism": "museum"
  }
},
{
  "type": "node",
  "id": 2287912759,
  "lat": 47.1912509,
  "lon": 18.4088884,
  "tags": {
    "addr:postcode": "8000",
    "addr:street": "Jókai utca",
    "name": "Hetedhét Játékmúzeum",
    "name:en": "Toy Museum",
    "name:it": "Toy",
    "tourism": "museum"
  }
},
{
  "type": "node",
  "id": 2309312213,
  "lat": 47.2041708,
  "lon": 18.2560734,
  "tags": {
    "addr:postcode": "8041",
    "addr:street": "Fő tér",
    "name": "Falumúzeum",
    "tourism": "museum"
  }
},
{
  "type": "node",
  "id": 2310018536,
  "lat": 47.1902245,
  "lon": 18.4109238,
  "tags": {
    "addr:street": "Hősök tere",
    "name": "Óramúzeum",
    "tourism": "museum"
  }
},
{
  "type": "node",
  "id": 2310019935,
  "lat": 47.1931408,
  "lon": 18.4609416,
  "tags": {
    "addr:postcode": "8000",
    "addr:street": "Zombori út",
    "name": "Magyar Műszaki és Közlekedési Múzeum Alumíniumpari Múzeuma",
    "tourism": "museum"
  }
},
{
  "type": "node",
  "id": 2310042617,
  "lat": 47.1979924,
  "lon": 18.4072331,
  "tags": {
    "addr:postcode": "8000",
    "addr:street": "Malom utca",
    "name": "Helyőrségtörténeti Emlékgyűjtemény",
    "tourism": "museum"
  }
},
{
  "type": "node",
  "id": 2310044929,
  "lat": 47.1914676,
  "lon": 18.4095505,
  "tags": {
    "addr:postcode": "8000",
    "addr:street": "Városház tér",
    "name": "Székesfehérvári Egyházmegyei Múzeum",
    "name:it": "Székesfehérvári Egyházmegyei",
    "tourism": "museum"
  }
},
{
  "type": "node",
  "id": 2310063472,
  "lat": 47.1927981,
  "lon": 18.4089577,
  "tags": {
    "addr:postcode": "8000",
    "addr:street": "Fő utca",
    "name": "Szent István Király Múzeum",
    "tourism": "museum"
  }
},
{
  "type": "node",
  "id": 2310063473,
  "lat": 47.1930023,
  "lon": 18.4092393,
  "tags": {
    "addr:city": "Székesfehérvár",
    "addr:postcode": "8000",
    "addr:street": "Fő utca",
    "name": "Fekete Sas Patikamúzeum",
    "tourism": "museum",
    "wikidata": "Q1533548",
    "wikipedia": "hu:Fekete Sas Patikamúzeum"
  }
},
{
  "type": "node",
  "id": 2342698747,
  "lat": 46.7390647,
  "lon": 18.0012703,
  "tags": {
    "name": "Zichy Mihály Emlékmúzeum",
    "opening_hours": "May 01-Oct 31 We-Su 09:00-17:00; Nov 01-Apr 30 Fr-Su 09:00-17:00",
    "tourism": "museum"
  }
},
{
  "type": "node",
  "id": 2406651594,
  "lat": 46.9958094,
  "lon": 18.2447529,
  "tags": {
    "name": "Falumúzeum",
    "tourism": "museum"
  }
},
{
  "type": "node",
  "id": 2910690284,
  "lat": 47.1314875,
  "lon": 17.7537018,
  "tags": {
    "addr:city": "Herend",
    "addr:housenumber": "139",
    "addr:postcode": "8440",
    "addr:street": "Kossuth Lajos utca",
    "name": "Minimanufaktúra",
    "tourism": "museum"
  }
},
{
  "type": "node",
  "id": 2921945410,
  "lat": 46.9152214,
  "lon": 17.8880431,
  "tags": {
    "addr:city": "Tihany",
    "addr:housenumber": "20",
    "addr:postcode": "8237",
    "addr:street": "Batthyány utca",
    "name": "Szabadtéri Néprajzi Múzeum - Skanzen",
    "operator": "Tihanyi Legenda Közhasznú Nonprofit Kft.",
    "tourism": "museum"
  }
},
{
  "type": "node",
  "id": 2968848716,
  "lat": 46.9147109,
  "lon": 17.8884263,
  "tags": {
    "addr:city": "Tihany",
    "addr:housenumber": "17",
    "addr:postcode": "8237",
    "addr:street": "Batthyány utca",
    "name": "Marcipán Múzeum",
    "phone": "+36-30-216-8191",
    "tourism": "museum",
    "website": "http://marcipanhaz.hu/"
  }
},
{
  "type": "node",
  "id": 3239684338,
  "lat": 47.2597433,
  "lon": 18.0341679,
  "tags": {
    "addr:city": "Tés",
    "addr:country": "HU",
    "addr:housenumber": "20",
    "addr:postcode": "8109",
    "addr:street": "Táncsics Mihály utca",
    "name": "Kovácsmúzeum",
    "phone": "+36 88 469-007",
    "tourism": "museum",
    "url": "http://www.tes.hu/turizmus/10-turizmus-programok/19-tesi-szelmalmok",
    "website": "http://www.museum.hu/muzeum/1110/Tesi_Szelmalmok_es_Kovacsmuhely"
  }
},
{
  "type": "node",
  "id": 3306009416,
  "lat": 47.1922799,
  "lon": 18.4084204,
  "tags": {
    "addr:city": "Székesfehérvár",
    "addr:housenumber": "10",
    "addr:postcode": "8000",
    "addr:street": "Oskola utca",
    "name": "Deák Gyűjtemény – Városi Képtár",
    "tourism": "museum",
    "wikidata": "Q904812",
    "wikipedia": "hu:Városi Képtár – Deák Gyűjtemény"
  }
},
{
  "type": "node",
  "id": 3343698080,
  "lat": 47.2113619,
  "lon": 18.4510610,
  "tags": {
    "is_in": "Öreghegy",
    "name": "Festmények-Paintings",
    "name:en": "Paintings",
    "source": "survey",
    "tourism": "museum"
  }
},
{
  "type": "node",
  "id": 3439475645,
  "lat": 47.0952296,
  "lon": 17.9055871,
  "tags": {
    "name": "Várkapu és Vármúzeum",
    "source": "turistautak.hu",
    "source:date": "2012-03-29",
    "tourism": "museum",
    "url": "http://turistautak.hu/poi.php?id=17927"
  }
},
{
  "type": "node",
  "id": 3439631890,
  "lat": 46.9843000,
  "lon": 17.6958330,
  "tags": {
    "contact:phone": "+36 88 264-300",
    "name": "Postamúzeum",
    "source": "turistautak.hu",
    "source:date": "2011-05-26",
    "tourism": "museum",
    "url": "http://turistautak.hu/poi.php?id=47404"
  }
},
{
  "type": "node",
  "id": 3439631913,
  "lat": 46.9702700,
  "lon": 17.7182500,
  "tags": {
    "fixme": "position",
    "name": "Vöröstói Galéria",
    "source": "turistautak.hu",
    "source:date": "2011-05-26",
    "tourism": "museum",
    "url": "http://turistautak.hu/poi.php?id=63671"
  }
},
{
  "type": "node",
  "id": 3441443355,
  "lat": 46.7830480,
  "lon": 17.8760770,
  "tags": {
    "name": "Nezde szabadtéri szoborpark alsó pontja",
    "source": "turistautak.hu",
    "source:date": "2013-08-04",
    "tourism": "museum",
    "url": "http://turistautak.hu/poi.php?id=28736"
  }
},
{
  "type": "node",
  "id": 3441443356,
  "lat": 46.7837750,
  "lon": 17.8809870,
  "tags": {
    "name": "Nezde szabadtéri szoborpark felső pontja",
    "source": "turistautak.hu",
    "source:date": "2013-08-04",
    "tourism": "museum",
    "url": "http://turistautak.hu/poi.php?id=28737"
  }
},
{
  "type": "node",
  "id": 3441443519,
  "lat": 46.8651933,
  "lon": 17.9135767,
  "tags": {
    "name": "Szántódpuszta",
    "opening_hours": "Apr 15-30 08:30-15:00, Sa-Su off; May 01-31 08:30-17:00; Jun 01-Aug 20 08:30-18:00; Aug 21-Sep 30 08:30-17:00; Oct 01-Oct 15 08:30-17:00, Sa-Su off",
    "phone": "+36 84 348946",
    "source": "turistautak.hu",
    "source:date": "2013-04-01",
    "tourism": "museum",
    "url": "http://turistautak.hu/poi.php?id=77256",
    "website": "https://www.szantodpuszta.hu/"
  }
},
{
  "type": "node",
  "id": 3441444495,
  "lat": 46.8678100,
  "lon": 17.9136800,
  "tags": {
    "name": "Ásvány kiállítás",
    "source": "turistautak.hu",
    "source:date": "2012-10-14",
    "tourism": "museum",
    "url": "http://turistautak.hu/poi.php?id=120627"
  }
},
{
  "type": "node",
  "id": 3458341463,
  "lat": 46.9552500,
  "lon": 17.8932330,
  "tags": {
    "description": "\"Ez volt a nemzet csalogányának legkedvesebb fészke\"",
    "name": "Blaha Lujza nyaralója",
    "source": "turistautak.hu",
    "source:date": "2011-05-26",
    "tourism": "museum",
    "url": "http://turistautak.hu/poi.php?id=10113",
    "wheelchair": "no"
  }
},
{
  "type": "node",
  "id": 3458341654,
  "lat": 46.9166830,
  "lon": 17.8887500,
  "tags": {
    "name": "Parasztgazda háza (tájház)",
    "source": "turistautak.hu",
    "source:date": "2012-02-17",
    "tourism": "museum",
    "url": "http://turistautak.hu/poi.php?id=133832"
  }
},
{
  "type": "node",
  "id": 3459826787,
  "lat": 47.0283233,
  "lon": 18.5232551,
  "tags": {
    "name": "Templom- Múzeum",
    "source": "turistautak.hu",
    "source:date": "2012-01-01",
    "tourism": "museum",
    "url": "http://turistautak.hu/poi.php?id=23011"
  }
},
{
  "type": "node",
  "id": 3459826789,
  "lat": 47.2461770,
  "lon": 18.1959650,
  "tags": {
    "name": "Tájház",
    "source": "turistautak.hu",
    "source:date": "2012-03-29",
    "tourism": "museum",
    "url": "http://turistautak.hu/poi.php?id=40902"
  }
},
{
  "type": "node",
  "id": 3459869853,
  "lat": 47.2803670,
  "lon": 17.9047500,
  "tags": {
    "description": "Ányos Pál szülőháza.",
    "name": "Ányos Pál szülőháza",
    "source": "turistautak.hu",
    "source:date": "2012-03-29",
    "tourism": "museum",
    "url": "http://turistautak.hu/poi.php?id=6730"
  }
},
{
  "type": "node",
  "id": 3459883879,
  "lat": 47.2623330,
  "lon": 17.8708830,
  "tags": {
    "addr:housenumber": "10",
    "addr:street": "Rákóczi tér",
    "contact:phone": "+36 88 415422",
    "description": "Reguly Antal emlékkiállítás, a Magas-Bakony helytörténeti, néprajzi, tárgyi emlékei, népi kismesterségek műhelyei",
    "fixme": "resurvey (source was old)",
    "name": "Reguly Antal Múzeum",
    "opening_hours": "Tu-Su 09:00-12:00, 13:00-17:00",
    "source": "turistautak.hu",
    "source:date": "2008-05-17",
    "tourism": "museum",
    "url": "http://turistautak.hu/poi.php?id=42304"
  }
},
{
  "type": "node",
  "id": 3463077436,
  "lat": 47.1855719,
  "lon": 18.4058446,
  "tags": {
    "addr:postcode": "8000",
    "addr:street": "Sziget utca",
    "description": "Bella Italia Múzeum 8000 Székesfehérvár, Sziget u. 17. <A HREF=\"http://www.bellaitaliamuzeum.hu/\">Bella Italia Múzeum</A>",
    "name": "Bella Italia Múzeum",
    "source": "turistautak.hu",
    "source:date": "2011-06-25",
    "tourism": "museum",
    "url": "http://turistautak.hu/poi.php?id=7024"
  }
},
{
  "type": "node",
  "id": 3463077442,
  "lat": 47.1899032,
  "lon": 18.4104022,
  "tags": {
    "addr:postcode": "8000",
    "addr:street": "Arany János utca",
    "description": "Szent István Király Múzeum, Budenz-ház, Ybl-gyűjtemény 8000 Székesfehérvár, Arany János u. 12. <A HREF=\"http://www.szikm.hu/\">Szent István Király Múzeum</A>",
    "name": "Budenz-ház",
    "source": "turistautak.hu",
    "source:date": "2011-06-25",
    "tourism": "museum",
    "url": "http://turistautak.hu/poi.php?id=7036"
  }
},
{
  "type": "node",
  "id": 3463077487,
  "lat": 47.1918830,
  "lon": 18.4116670,
  "tags": {
    "addr:postcode": "8000",
    "addr:street": "Koronázó tér",
    "name": "Középkori romkert",
    "name:it": "Középkori Romkert",
    "source": "turistautak.hu",
    "source:date": "2011-06-25",
    "tourism": "museum",
    "url": "http://turistautak.hu/poi.php?id=4818",
    "wheelchair": "no"
  }
},
{
  "type": "node",
  "id": 3463077620,
  "lat": 47.1904201,
  "lon": 18.4016464,
  "tags": {
    "addr:postcode": "8000",
    "addr:street": "Rác utca",
    "description": "Palotavárosi Skanzen Palotavárosi emlékek, Székesfehérvár-Palotaváros története és néprajza 8000 Székesfehérvár, Rác u. 11. <A HREF=\"http://www.szikm.hu/\">Szent István Király Múzeum</A>",
    "name": "Palotavárosi Skanzen",
    "source": "turistautak.hu",
    "source:date": "2011-06-25",
    "tourism": "museum",
    "url": "http://turistautak.hu/poi.php?id=7119"
  }
},
{
  "type": "node",
  "id": 3463077650,
  "lat": 47.1903481,
  "lon": 18.4017406,
  "tags": {
    "addr:postcode": "8000",
    "addr:street": "Rác utca",
    "description": "Tejipari Emléktár - Tejipari Történeti Gyűjtemény 8000 Székesfehérvár, Rác u. 19.",
    "name": "Tejipari Emléktár",
    "source": "turistautak.hu",
    "source:date": "2011-06-25",
    "tourism": "museum",
    "url": "http://turistautak.hu/poi.php?id=7118"
  }
},
{
  "type": "node",
  "id": 3463077654,
  "lat": 47.2046000,
  "lon": 18.4291330,
  "tags": {
    "addr:postcode": "8000",
    "addr:street": "Szent Flórián körút",
    "description": "Tűzoltó Múzeum 8000 Székesfehérvár, Szent Flórián krt. 2.",
    "name": "Tűzoltó Múzeum",
    "source": "turistautak.hu",
    "source:date": "2011-06-25",
    "tourism": "museum",
    "url": "http://turistautak.hu/poi.php?id=7441"
  }
},
{
  "type": "node",
  "id": 3463077796,
  "lat": 47.1894500,
  "lon": 18.4100170,
  "tags": {
    "addr:postcode": "8000",
    "addr:street": "Megyeház utca",
    "description": "Szent István Király Múzeum, Új Magyar Képtár Szent István Király Múzeum, Fehérvári Babaház 8000 Székesfehérvár, Megyeház u. 17. <A HREF=\"http://www.szikm.hu/\">Szent István Király Múzeum</A>",
    "name": "Új Magyar Képtár, Fehérvári Babaház",
    "source": "turistautak.hu",
    "source:date": "2011-06-25",
    "tourism": "museum",
    "url": "http://turistautak.hu/poi.php?id=7023"
  }
},
{
  "type": "node",
  "id": 3468009942,
  "lat": 46.7509056,
  "lon": 18.0967501,
  "tags": {
    "name": "Rudnay Emlékmúzeum",
    "source": "turistautak.hu",
    "source:date": "2012-10-14",
    "tourism": "museum",
    "url": "http://turistautak.hu/poi.php?id=105773"
  }
},
{
  "type": "node",
  "id": 3470010700,
  "lat": 47.0146500,
  "lon": 17.9531000,
  "tags": {
    "name": "Faluház",
    "source": "turistautak.hu",
    "source:date": "2011-05-26",
    "tourism": "museum",
    "url": "http://turistautak.hu/poi.php?id=50821"
  }
},
{
  "type": "node",
  "id": 3471746475,
  "lat": 47.2049380,
  "lon": 18.1349520,
  "tags": {
    "name": "Helytörténeti Múzeum",
    "source": "turistautak.hu",
    "source:date": "2011-06-25",
    "tourism": "museum",
    "url": "http://turistautak.hu/poi.php?id=40905"
  }
},
{
  "type": "node",
  "id": 3487705471,
  "lat": 47.0503876,
  "lon": 18.2478079,
  "tags": {
    "description": "Füle egyik nevezetessége a sárréti tájház.",
    "name": "Sárréti Tájház",
    "source": "turistautak.hu",
    "source:date": "2011-06-25",
    "tourism": "museum",
    "url": "http://turistautak.hu/poi.php?id=39557"
  }
},
{
  "type": "node",
  "id": 3489663028,
  "lat": 46.8595330,
  "lon": 18.4279830,
  "tags": {
    "description": "lásd a fényképes ismertetőt",
    "name": "Mezőföldi Tájház",
    "source": "turistautak.hu",
    "source:date": "2012-01-01",
    "tourism": "museum",
    "url": "http://turistautak.hu/poi.php?id=1284"
  }
},
{
  "type": "node",
  "id": 3489663031,
  "lat": 46.8259900,
  "lon": 18.2955870,
  "tags": {
    "name": "Népi műemlék lakóház",
    "source": "turistautak.hu",
    "source:date": "2010-12-01",
    "tourism": "museum",
    "url": "http://turistautak.hu/poi.php?id=87856"
  }
},
{
  "type": "node",
  "id": 3562013293,
  "lat": 46.9091660,
  "lon": 17.8881447,
  "tags": {
    "addr:city": "Tihany",
    "addr:housenumber": "67",
    "addr:postcode": "8237",
    "addr:street": "Major utca",
    "email": "levendulahaz@gmail.com",
    "name": "Levendula Ház Látogatóközpont",
    "operator": "Balaton-felvidéki Nemzeti Park Igazgatóság",
    "phone": "+36 87 538 033",
    "tourism": "museum",
    "website": "http://levendulahaz.eu/"
  }
},
{
  "type": "node",
  "id": 3673148098,
  "lat": 46.9567135,
  "lon": 17.8878532,
  "tags": {
    "name": "Rádió TV Múzeum",
    "tourism": "museum"
  }
},
{
  "type": "node",
  "id": 3678787616,
  "lat": 46.8980783,
  "lon": 18.0494462,
  "tags": {
    "name": "Rádiós Hírközlési Múzeum",
    "tourism": "museum"
  }
},
{
  "type": "node",
  "id": 3902229247,
  "lat": 46.8452420,
  "lon": 17.8654866,
  "tags": {
    "addr:city": "Balatonföldvár",
    "addr:housenumber": "50",
    "addr:postcode": "8623",
    "addr:street": "Erzsébet utca",
    "email": "info@bknkft.hu",
    "mapillary": "omETp3RB8MlU2HRa3xjgwg",
    "name": "Hajózástörténeti Látogatóközpont – Kiállítás és Kilátó",
    "name:de": "Besucherzentrum Schifffahrtsgeschichte – Ausstellung und Aussichtsturm",
    "name:en": "Visitor Center of Shipping History – Exhibition and look-out tower",
    "opening_hours": "Sep-Mar: Tu-Su 10:00-17:00; Apr-Aug: Tu-Su 10:00-21:00",
    "operator": "Balatonföldvári Kulturális Szolgáltató és Fenntartó Közhasznú Nonprofit Kft.",
    "operator:addr": "8623 Balafonföldvár, Petőfi Sándor utca 1.",
    "phone": "+36 84 553 088",
    "ref:vatin": "HU24849752",
    "ref:vatin:hu": "24849752-2-14",
    "survey:date": "2019-08-05",
    "toilets:wheelchair": "yes",
    "tourism": "museum",
    "website": "https://balatonfoldvarikilato.hu/",
    "wheelchair": "yes"
  }
},
{
  "type": "node",
  "id": 4126661289,
  "lat": 47.1895729,
  "lon": 18.4099474,
  "tags": {
    "addr:postcode": "8000",
    "addr:street": "Megyeház utca",
    "name": "Várostörténeti Múzeum Székesfehérvár",
    "tourism": "museum"
  }
},
{
  "type": "node",
  "id": 4353599227,
  "lat": 47.2627761,
  "lon": 17.8735390,
  "tags": {
    "name": "Egyháztörténeti kiállítás",
    "tourism": "museum",
    "website": "http://zirciapatsag.hu/latnivalok/egyhaztorteneti-kiallitas"
  }
},
{
  "type": "node",
  "id": 4353599233,
  "lat": 47.2630710,
  "lon": 17.8741399,
  "tags": {
    "addr:city": "Zirc",
    "addr:housenumber": "1",
    "addr:postcode": "8420",
    "addr:street": "Rákóczi tér",
    "name": "Bakonyi Természettudományi Múzeum kiállítása",
    "tourism": "museum",
    "website": "http://bakonymuseum.nhmus.hu/"
  }
},
{
  "type": "node",
  "id": 5007757529,
  "lat": 47.2011682,
  "lon": 18.1392963,
  "tags": {
    "level": "0",
    "name": "Vár- és Helytörténeti Kiállítás",
    "operator": "Thury Vár Nonprofit Kft.",
    "tourism": "museum"
  }
},
{
  "type": "node",
  "id": 5007757795,
  "lat": 47.2010657,
  "lon": 18.1386551,
  "tags": {
    "level": "0",
    "name": "Bányászati Múzeum",
    "tourism": "museum"
  }
},
{
  "type": "node",
  "id": 5781368948,
  "lat": 46.9598009,
  "lon": 17.8714264,
  "tags": {
    "addr:city": "Balatonfüred",
    "addr:housenumber": "32",
    "addr:postcode": "8230",
    "addr:street": "Bajcsy-Zsilinszky utca",
    "name": "Zsidó Kiválóságok Háza",
    "tourism": "museum",
    "website": "https://www.zsidokivalosagok.hu"
  }
},
{
  "type": "node",
  "id": 6168733101,
  "lat": 47.0954690,
  "lon": 17.9046196,
  "tags": {
    "name": "Várbörtön",
    "tourism": "museum"
  }
},
{
  "type": "node",
  "id": 6168769298,
  "lat": 47.0970448,
  "lon": 17.9025784,
  "tags": {
    "name": "Boldog Gizella Főegyházmegyei Gyűjtemény",
    "opening_hours": "May 4-Oct 31 Mo-Su 10:00-18:00",
    "tourism": "museum",
    "website": "http://www.gizellagyujtemeny.hu/"
  }
},
{
  "type": "node",
  "id": 6488864931,
  "lat": 46.9837767,
  "lon": 17.9399201,
  "tags": {
    "addr:city": "Paloznak",
    "addr:country": "HU",
    "addr:housenumber": "6",
    "addr:postcode": "8229",
    "addr:province": "Veszprém megye",
    "addr:street": "Fő utca",
    "name": "Tájház",
    "phone": "+36 (87) 555 006",
    "tourism": "museum",
    "website": "https://www.paloznak.hu"
  }
},
{
  "type": "node",
  "id": 6509954508,
  "lat": 47.2108249,
  "lon": 18.4517634,
  "tags": {
    "addr:city": "Székesfehérvár",
    "addr:housenumber": "54",
    "addr:postcode": "8000",
    "addr:street": "Máriavölgy",
    "architect": "Bory Jenő (1879-1959) szobrászművész és építészmérnök, a Képzőművészeti Főiskola szobrász és a Műszaki Egyetem építész tanára",
    "castle_type": "stately",
    "contact:phone": "+36 22 305 570",
    "facebook": "https://hu-hu.facebook.com/pages/category/Castle/Bory-v%C3%A1r-217718298279673/",
    "historic": "castle",
    "is_in": "Öreghegy",
    "name": "Bory-vár Múzeum",
    "opening_hours": "Mo-Su 09:00-17:00",
    "operator": "Bory-vár Múzeum Alapítvány Székesfehérvár",
    "tourism": "museum",
    "url": "https://turizmus.szekesfehervar.hu/latnivalok/bory-var",
    "website": "http://bory-var.hu/",
    "wikidata": "Q848109",
    "wikipedia": "hu:Bory-vár"
  }
},
{
  "type": "node",
  "id": 6727512768,
  "lat": 47.0946701,
  "lon": 17.8946679,
  "tags": {
    "tourism": "museum"
  }
},
{
  "type": "node",
  "id": 6978265006,
  "lat": 47.0962014,
  "lon": 17.9031702,
  "tags": {
    "addr:city": "Veszprém",
    "addr:country": "HU",
    "addr:housenumber": "29",
    "addr:postcode": "8200",
    "addr:street": "Vár utca",
    "description": "Nyitvatartás május 1. - október 31. kedd - vasárnap 10:00 - 18:00 november 1. - április 30. kedd - vasárnap 10:00-17:00",
    "name": "Tegulárium",
    "operator": "Magyar Építőipari Múzeum",
    "tourism": "museum",
    "url": "https://www.muveszetekhaza.hu/hu/vizit",
    "website": "https://www.muveszetekhaza.hu/hu/tegularium",
    "wheelchair": "yes",
    "wikipedia": "hu:"
  }
},
{
  "type": "way",
  "id": 129317500,
  "nodes": [
    1426990498,
    1426990620,
    1426990650,
    1426990529,
    1426990528,
    1426990524,
    1426990498
  ],
  "tags": {
    "name": "Szabadtéri Néprajzi Múzeum",
    "tourism": "museum"
  }
},
{
  "type": "way",
  "id": 140048145,
  "nodes": [
    1534500298,
    1534500299,
    1534500297,
    1534500296,
    1994165527,
    1534500298
  ],
  "tags": {
    "building": "public",
    "name": "Laczkó Dezső Múzeum",
    "tourism": "museum",
    "wikidata": "Q1127273",
    "wikipedia": "hu:Laczkó Dezső Múzeum"
  }
},
{
  "type": "way",
  "id": 140048146,
  "nodes": [
    1534500293,
    1534500294,
    1534500285,
    1534500282,
    1534500293
  ],
  "tags": {
    "building": "public",
    "name": "Laczkó Dezső Múzeum: Bakonyi Ház",
    "tourism": "museum",
    "wikidata": "Q1127273",
    "wikipedia": "hu:Laczkó Dezső Múzeum"
  }
},
{
  "type": "way",
  "id": 160664238,
  "nodes": [
    3023297713,
    3023297712,
    3023297705,
    3023297698,
    3023297723,
    3023297710,
    3023297695,
    3023297693,
    1727023168,
    3023297689,
    3023297692,
    3023297697,
    3023297694,
    3023297701,
    3023297708,
    3023297714,
    3023297711,
    1727023175,
    3023299938,
    3023299937,
    3023299945,
    3023299942,
    3023297730,
    3023297719,
    3023297729,
    3023297726,
    3023297713
  ],
  "tags": {
    "addr:city": "Dég",
    "addr:housenumber": "11",
    "addr:postcode": "8135",
    "addr:street": "Hunyadi János utca",
    "building": "castle",
    "castle_type": "stately",
    "historic": "castle",
    "name": "Festetics-kastély",
    "source:building": "estimation",
    "tourism": "museum",
    "wikidata": "Q1000910",
    "wikipedia": "hu:Festetics-kastély (Dég)"
  }
},
{
  "type": "way",
  "id": 160716960,
  "nodes": [
    1727557681,
    1728410657,
    1727557684,
    1727557694,
    1727557700,
    1727557697,
    1727557685,
    1727557724,
    1727557726,
    1727557727,
    1727557725,
    1727557723,
    1727557703,
    1727557687,
    1727557683,
    1727557680,
    1727557679,
    1727557658,
    1727557660,
    1727557644,
    1727557639,
    1727557637,
    1727557634,
    1727557640,
    1727557642,
    1727557655,
    1727557646,
    1727557656,
    1727557653,
    1728410650,
    1727557662,
    1727557666,
    1727557668,
    1727557670,
    1727557676,
    1727557677,
    1727557678,
    1727557682,
    1727557681
  ],
  "tags": {
    "addr:city": "Nádasdladány",
    "addr:housenumber": "1",
    "addr:postcode": "8145",
    "addr:street": "Kastélypark",
    "building": "yes",
    "castle_type": "stately",
    "historic": "castle",
    "name": "Nádasdy-kastély",
    "tourism": "museum",
    "wikidata": "Q1220065",
    "wikipedia": "hu:Nádasdy-kastély (Nádasdladány)"
  }
},
{
  "type": "way",
  "id": 191774727,
  "nodes": [
    2023502700,
    2023502762,
    2023502702,
    2023502751,
    2023502717,
    2023502759,
    2023502746,
    2023502694,
    2023502680,
    2023502766,
    2023502742,
    2023502696,
    2023502707,
    2023502700
  ],
  "tags": {
    "building": "industrial",
    "name": "Víziközmű-múzeum",
    "tourism": "museum"
  }
},
{
  "type": "way",
  "id": 193761612,
  "nodes": [
    2042728539,
    2042728548,
    2042728538,
    2042728474,
    2042728571,
    2042728554,
    2042728533,
    2042728542,
    2042728523,
    2042728539
  ],
  "tags": {
    "addr:city": "Veszprém",
    "addr:housenumber": "31",
    "addr:postcode": "8200",
    "addr:street": "Vár utca",
    "building": "public",
    "description": "Érsekségi turisztikai központ",
    "name": "Szaléziánum",
    "tourism": "museum",
    "website": "https://www.szalezianum.hu/"
  }
},
{
  "type": "way",
  "id": 225419011,
  "nodes": [
    2341971230,
    2341971228,
    2341971229,
    2341971232,
    2624813935,
    2341971230
  ],
  "tags": {
    "building": "house",
    "name": "Török-ház",
    "tourism": "museum"
  }
},
{
  "type": "way",
  "id": 279228617,
  "nodes": [
    2834681614,
    2834681618,
    2834681626,
    2834681631,
    2834681647,
    2834681632,
    2834681614
  ],
  "tags": {
    "addr:city": "Vászoly",
    "addr:country": "HU",
    "addr:postcode": "8245",
    "building": "yes",
    "name": "Faluház",
    "source": "Bing;survey",
    "tourism": "museum",
    "wheelchair": "limited"
  }
},
{
  "type": "way",
  "id": 280030185,
  "nodes": [
    2842083906,
    2842083692,
    2842083683,
    2842083700,
    2842083906
  ],
  "tags": {
    "addr:city": "Örvényes",
    "addr:country": "HU",
    "addr:postcode": "8242",
    "building": "yes",
    "name": "Malommúzeum",
    "opening_hours": "May-Sep Tu-Su 09:00-16:00",
    "source": "Bing;survey",
    "tourism": "museum"
  }
},
{
  "type": "way",
  "id": 281419920,
  "nodes": [
    2853694200,
    2853694180,
    2853694401,
    2853694418,
    2853694414,
    2853694419,
    2853694412,
    2853694406,
    2853694200
  ],
  "tags": {
    "addr:city": "Balatonfüred",
    "addr:country": "HU",
    "addr:housenumber": "1",
    "addr:postcode": "8230",
    "addr:street": "Honvéd utca",
    "building": "yes",
    "name": "Jókai Mór Emlékház",
    "phone": "+36 21 2002453",
    "source": "Bing;survey",
    "tourism": "museum",
    "website": "http://vaszaryvilla.hu/index.php/kiallitasok/jokai-mor-emlekhaz"
  }
},
{
  "type": "way",
  "id": 281419973,
  "nodes": [
    2853694196,
    2853694173,
    2853694178,
    2853694184,
    2853694191,
    2853694179,
    2853694190,
    2853694409,
    2853694196
  ],
  "tags": {
    "addr:city": "Balatonfüred",
    "addr:country": "HU",
    "addr:postcode": "8230",
    "alt_name": "Helytörténeti Gyűjtemény",
    "building": "yes",
    "name": "Városi Múzeum",
    "source": "Bing;survey",
    "tourism": "museum"
  }
},
{
  "type": "way",
  "id": 282886748,
  "nodes": [
    2868306251,
    2868312120,
    2863883501,
    2863883386,
    2863883508,
    2868308555,
    2868312117,
    2868306251
  ],
  "tags": {
    "addr:city": "Balatonfüred",
    "addr:country": "HU",
    "addr:postcode": "8230",
    "building": "yes",
    "name": "Arácsi Népház",
    "source": "Bing;survey",
    "tourism": "museum"
  }
},
{
  "type": "way",
  "id": 288901877,
  "nodes": [
    2924560775,
    2924560776,
    2924560777,
    2924560780,
    2924560775
  ],
  "tags": {
    "addr:city": "Tihany",
    "addr:housenumber": "4",
    "addr:postcode": "8237",
    "addr:street": "Visszhang utca",
    "building": "yes",
    "name": "Babamúzeum",
    "tourism": "museum"
  }
},
{
  "type": "way",
  "id": 289247687,
  "nodes": [
    2927929002,
    2927929003,
    5726838772,
    5726838771,
    5726838770,
    5726838769,
    2927929004,
    2927929005,
    2927929002
  ],
  "tags": {
    "addr:city": "Tihany",
    "addr:housenumber": "10",
    "addr:postcode": "8237",
    "addr:street": "Kossuth Lajos utca",
    "building": "yes",
    "name": "KOGART Kiállítások Tihany",
    "phone": "+36-87-538-042",
    "tourism": "museum",
    "website": "http://www.kogarttihany.hu"
  }
},
{
  "type": "way",
  "id": 290746318,
  "nodes": [
    2942488125,
    2942488122,
    2942488123,
    2942488126,
    2942488125
  ],
  "tags": {
    "building": "yes",
    "name": "Hadi múzeum",
    "name:en": "Museum of word wars",
    "ownership": "private",
    "tourism": "museum"
  }
},
{
  "type": "way",
  "id": 295109541,
  "nodes": [
    2987771101,
    2987771642,
    2987770825,
    2987769515,
    2987770761,
    2987771101
  ],
  "tags": {
    "addr:city": "Balatonakali",
    "addr:housenumber": "36",
    "addr:postcode": "8243",
    "addr:street": "Kossuth Lajos utca",
    "building": "yes",
    "name": "Múzeum és szálláshely",
    "phone": "+36 20 2378841",
    "source": "Bing; survey",
    "tourism": "museum"
  }
},
{
  "type": "way",
  "id": 329414572,
  "nodes": [
    3362955235,
    3362955233,
    3362955234,
    3362955237,
    3362955235
  ],
  "tags": {
    "addr:city": "Sárkeresztes",
    "addr:country": "HU",
    "addr:housenumber": "47",
    "addr:postcode": "8051",
    "addr:street": "Kossuth utca",
    "building": "yes",
    "name": "Helytörténeti Gyűjtemény",
    "tourism": "museum"
  }
},
{
  "type": "way",
  "id": 362963871,
  "nodes": [
    3671863160,
    3671863159,
    3671863161,
    3671863162,
    3671863160
  ],
  "tags": {
    "building": "yes",
    "name": "Plul-malom",
    "tourism": "museum"
  }
},
{
  "type": "way",
  "id": 363743793,
  "nodes": [
    3678796838,
    3678796841,
    3678796843,
    3678796842,
    3678796839,
    3678796840,
    3678796838
  ],
  "tags": {
    "building": "yes",
    "name": "Kálmán Imre Múzeum",
    "tourism": "museum",
    "wheelchair": "no"
  }
},
{
  "type": "way",
  "id": 363743796,
  "nodes": [
    3678796836,
    3678796837,
    3678796834,
    3678796832,
    3678796835,
    3678796833,
    3678796836
  ],
  "tags": {
    "building": "yes",
    "name": "Ásványmúzeum",
    "tourism": "museum"
  }
},
{
  "type": "way",
  "id": 363766031,
  "nodes": [
    3678993021,
    3678993022,
    5111409315,
    3678993019,
    3678993021
  ],
  "tags": {
    "addr:city": "Zamárdi",
    "addr:housenumber": "83",
    "addr:postcode": "8621",
    "addr:street": "Fő utca",
    "building": "yes",
    "name": "Tájház",
    "opening_hours": "Jun 01-Aug 31 Tu-Su 10:00-12:00,16:00-18:00",
    "tourism": "museum"
  }
},
{
  "type": "way",
  "id": 438314339,
  "nodes": [
    4360491554,
    4360491551,
    4360491552,
    4360491556,
    4360491554
  ],
  "tags": {
    "building": "yes",
    "name": "Mesterségek háza",
    "tourism": "museum"
  }
},
{
  "type": "way",
  "id": 484450089,
  "nodes": [
    4772020395,
    4772020394,
    4772020393,
    4772020392,
    4772020395
  ],
  "tags": {
    "building": "yes",
    "tourism": "museum"
  }
},
{
  "type": "way",
  "id": 484450100,
  "nodes": [
    4772020637,
    4772020634,
    4772020635,
    4772020636,
    4772020637
  ],
  "tags": {
    "addr:city": "Tés",
    "addr:country": "HU",
    "addr:street": "Táncsics Mihály utca",
    "building": "public",
    "building:levels": "1",
    "height": "3",
    "name": "Tési kovácsmúzeum",
    "tourism": "museum",
    "website": "http://www.museum.hu/muzeum/1110/Tesi_Szelmalmok_es_Kovacsmuhely"
  }
},
{
  "type": "way",
  "id": 487959719,
  "nodes": [
    4803433461,
    4803433462,
    4803433463,
    4803433464,
    4803433461
  ],
  "tags": {
    "addr:city": "Balatonfőkajár",
    "addr:housenumber": "4",
    "addr:postcode": "8164",
    "addr:street": "Táncsics Mihály utca",
    "building": "yes",
    "email": "falumuzeum8164@gmail.com",
    "name": "Falumúzeum",
    "opening_hours": "Sa-Su 10:00-12:00, 14:00-16:00",
    "tourism": "museum"
  }
},
{
  "type": "way",
  "id": 498327648,
  "nodes": [
    4897768211,
    4897768210,
    4897768209,
    4897768208,
    4897768207,
    4897768206,
    4897768205,
    4897768204,
    4897768203,
    4897768202,
    4897768211
  ],
  "tags": {
    "building": "public",
    "name": "Gorsium látogatóközpont",
    "operator": "Szent István Király Múzeum, Székesfehérvár",
    "tourism": "museum"
  }
},
{
  "type": "way",
  "id": 612411898,
  "nodes": [
    5797140560,
    5797140452,
    5797140450,
    5797140449,
    5797140451,
    5797140559,
    5797140556,
    5797140554,
    5797140553,
    5797140555,
    5797140558,
    5797140557,
    5797140447,
    5797140446,
    5797140445,
    5797140448,
    5797140560
  ],
  "tags": {
    "building": "yes",
    "tourism": "museum"
  }
},
{
  "type": "way",
  "id": 659711960,
  "nodes": [
    6176619954,
    6176619953,
    6176619952,
    6176619949,
    6176619948,
    6176619947,
    6176619950,
    6176619951,
    6176619954
  ],
  "tags": {
    "building": "yes",
    "mapillary": "5NOLR__T9PeWQ94sm8DszA",
    "name": "Kulipintyó helytörténeti kiállítás",
    "opening_hours": "Mo-Fr 12:00-18:00",
    "operator": "Balatonföldvár város önkormányzata",
    "tourism": "museum"
  }
},
{
  "type": "way",
  "id": 725176493,
  "nodes": [
    6800276704,
    6800276705,
    6800276706,
    6800276707,
    6800276704
  ],
  "tags": {
    "building": "yes",
    "tourism": "museum"
  }
},
{
  "type": "way",
  "id": 745494927,
  "nodes": [
    6978298716,
    6978298715,
    6978298714,
    6978298713,
    6978298716
  ],
  "tags": {
    "building": "yes",
    "tourism": "museum"
  }
},
{
  "type": "way",
  "id": 759407974,
  "nodes": [
    7093514325,
    7093514327,
    7093514328,
    7093514331,
    7093514332,
    7093514329,
    7093514330,
    7093514326,
    7093514325
  ],
  "tags": {
    "addr:city": "Tab",
    "addr:housenumber": "93",
    "addr:postcode": "8660",
    "addr:street": "Kossuth Lajos utca",
    "building": "yes",
    "name": "Nagy Ferenc Galéria",
    "operator": "Városi Könyvtár, Tab",
    "phone": "+36 84 320 416",
    "tourism": "museum"
  }
},
{
  "type": "relation",
  "id": 5503554,
  "members": [
    {
      "type": "way",
      "ref": 370413607,
      "role": "outer"
    },
    {
      "type": "way",
      "ref": 370413625,
      "role": "outer"
    },
    {
      "type": "way",
      "ref": 370413552,
      "role": "outer"
    },
    {
      "type": "way",
      "ref": 370413624,
      "role": "outer"
    },
    {
      "type": "way",
      "ref": 34107587,
      "role": "outer"
    },
    {
      "type": "way",
      "ref": 370413557,
      "role": "outer"
    }
  ],
  "tags": {
    "alt_name": "Gorsium-Herculia, római kori romváros",
    "description": "Feltárta: Marosi Arnold (1939), Radnóti Aladár (1954), Fitz Jenő (1958). Helyreállítás: Dr. Hajnóczi Gyula Kossuth- és Ybl Miklós-díjas építész, Papp Imre, Istvánfi Gyula építészek.",
    "historic": "archaeological_site",
    "name": "Gorsium",
    "operator": "Szent István Király Múzeum, Székesfehérvár",
    "source": "landsat",
    "tourism": "museum",
    "type": "multipolygon",
    "website": "http://www.gorsium.org/",
    "wikipedia": "hu:Gorsium"
  }
},
{
  "type": "node",
  "id": 7093514325,
  "lat": 46.7287884,
  "lon": 18.0294822
},
{
  "type": "node",
  "id": 7093514326,
  "lat": 46.7288316,
  "lon": 18.0296472
},
{
  "type": "node",
  "id": 7093514327,
  "lat": 46.7288552,
  "lon": 18.0294450
},
{
  "type": "node",
  "id": 7093514328,
  "lat": 46.7288595,
  "lon": 18.0294613
},
{
  "type": "node",
  "id": 7093514329,
  "lat": 46.7288899,
  "lon": 18.0295877
},
{
  "type": "node",
  "id": 7093514330,
  "lat": 46.7288960,
  "lon": 18.0296113
},
{
  "type": "node",
  "id": 7093514331,
  "lat": 46.7289160,
  "lon": 18.0294298
},
{
  "type": "node",
  "id": 7093514332,
  "lat": 46.7289487,
  "lon": 18.0295549
},
{
  "type": "node",
  "id": 2987769515,
  "lat": 46.8810556,
  "lon": 17.7493038
},
{
  "type": "node",
  "id": 2987770761,
  "lat": 46.8810830,
  "lon": 17.7494188
},
{
  "type": "node",
  "id": 2987770825,
  "lat": 46.8812028,
  "lon": 17.7492287
},
{
  "type": "node",
  "id": 2987771101,
  "lat": 46.8812302,
  "lon": 17.7493436
},
{
  "type": "node",
  "id": 2987771642,
  "lat": 46.8812093,
  "lon": 17.7492561
},
{
  "type": "node",
  "id": 1426990498,
  "lat": 46.9835924,
  "lon": 17.6967716
},
{
  "type": "node",
  "id": 1426990524,
  "lat": 46.9837491,
  "lon": 17.6968363
},
{
  "type": "node",
  "id": 1426990528,
  "lat": 46.9837803,
  "lon": 17.6965613
},
{
  "type": "node",
  "id": 1426990529,
  "lat": 46.9837820,
  "lon": 17.6964548
},
{
  "type": "node",
  "id": 1426990620,
  "lat": 46.9836019,
  "lon": 17.6965553
},
{
  "type": "node",
  "id": 1426990650,
  "lat": 46.9836035,
  "lon": 17.6964488
},
{
  "type": "node",
  "id": 2842083683,
  "lat": 46.9164309,
  "lon": 17.8175007
},
{
  "type": "node",
  "id": 2842083692,
  "lat": 46.9164887,
  "lon": 17.8175675
},
{
  "type": "node",
  "id": 2842083700,
  "lat": 46.9165532,
  "lon": 17.8172741
},
{
  "type": "node",
  "id": 2842083906,
  "lat": 46.9166110,
  "lon": 17.8173409
},
{
  "type": "node",
  "id": 2834681614,
  "lat": 46.9407420,
  "lon": 17.7573443
},
{
  "type": "node",
  "id": 2834681618,
  "lat": 46.9407725,
  "lon": 17.7574201
},
{
  "type": "node",
  "id": 2834681626,
  "lat": 46.9408477,
  "lon": 17.7573552
},
{
  "type": "node",
  "id": 2834681631,
  "lat": 46.9408802,
  "lon": 17.7574360
},
{
  "type": "node",
  "id": 2834681632,
  "lat": 46.9408819,
  "lon": 17.7572235
},
{
  "type": "node",
  "id": 2834681647,
  "lat": 46.9409449,
  "lon": 17.7573801
},
{
  "type": "node",
  "id": 4360491551,
  "lat": 46.9409995,
  "lon": 17.7575222
},
{
  "type": "node",
  "id": 4360491552,
  "lat": 46.9410403,
  "lon": 17.7576245
},
{
  "type": "node",
  "id": 4360491554,
  "lat": 46.9410552,
  "lon": 17.7574744
},
{
  "type": "node",
  "id": 4360491556,
  "lat": 46.9410961,
  "lon": 17.7575767
},
{
  "type": "node",
  "id": 5797140445,
  "lat": 46.8321149,
  "lon": 17.8336029
},
{
  "type": "node",
  "id": 5797140446,
  "lat": 46.8320670,
  "lon": 17.8336399
},
{
  "type": "node",
  "id": 5797140447,
  "lat": 46.8320802,
  "lon": 17.8336766
},
{
  "type": "node",
  "id": 5797140448,
  "lat": 46.8321281,
  "lon": 17.8336396
},
{
  "type": "node",
  "id": 5797140449,
  "lat": 46.8322172,
  "lon": 17.8337792
},
{
  "type": "node",
  "id": 5797140450,
  "lat": 46.8321768,
  "lon": 17.8336672
},
{
  "type": "node",
  "id": 5797140451,
  "lat": 46.8322000,
  "lon": 17.8337925
},
{
  "type": "node",
  "id": 5797140452,
  "lat": 46.8321596,
  "lon": 17.8336805
},
{
  "type": "node",
  "id": 5797140553,
  "lat": 46.8321704,
  "lon": 17.8339330
},
{
  "type": "node",
  "id": 5797140554,
  "lat": 46.8322144,
  "lon": 17.8338991
},
{
  "type": "node",
  "id": 5797140555,
  "lat": 46.8321573,
  "lon": 17.8338966
},
{
  "type": "node",
  "id": 5797140556,
  "lat": 46.8322012,
  "lon": 17.8338627
},
{
  "type": "node",
  "id": 5797140557,
  "lat": 46.8320595,
  "lon": 17.8336925
},
{
  "type": "node",
  "id": 5797140558,
  "lat": 46.8321384,
  "lon": 17.8339111
},
{
  "type": "node",
  "id": 5797140559,
  "lat": 46.8322201,
  "lon": 17.8338481
},
{
  "type": "node",
  "id": 5797140560,
  "lat": 46.8321412,
  "lon": 17.8336295
},
{
  "type": "node",
  "id": 6176619947,
  "lat": 46.8490170,
  "lon": 17.8765433
},
{
  "type": "node",
  "id": 6176619948,
  "lat": 46.8490339,
  "lon": 17.8766281
},
{
  "type": "node",
  "id": 6176619949,
  "lat": 46.8489857,
  "lon": 17.8766487
},
{
  "type": "node",
  "id": 6176619950,
  "lat": 46.8489687,
  "lon": 17.8765638
},
{
  "type": "node",
  "id": 6176619951,
  "lat": 46.8489464,
  "lon": 17.8764520
},
{
  "type": "node",
  "id": 6176619952,
  "lat": 46.8490042,
  "lon": 17.8767417
},
{
  "type": "node",
  "id": 6176619953,
  "lat": 46.8491920,
  "lon": 17.8766616
},
{
  "type": "node",
  "id": 6176619954,
  "lat": 46.8491343,
  "lon": 17.8763719
},
{
  "type": "node",
  "id": 3678993019,
  "lat": 46.8757613,
  "lon": 17.9417463
},
{
  "type": "node",
  "id": 3678993021,
  "lat": 46.8760167,
  "lon": 17.9415270
},
{
  "type": "node",
  "id": 3678993022,
  "lat": 46.8760564,
  "lon": 17.9416260
},
{
  "type": "node",
  "id": 5111409315,
  "lat": 46.8758010,
  "lon": 17.9418453
},
{
  "type": "node",
  "id": 2924560775,
  "lat": 46.9159983,
  "lon": 17.8868655
},
{
  "type": "node",
  "id": 2924560776,
  "lat": 46.9159203,
  "lon": 17.8869403
},
{
  "type": "node",
  "id": 2924560777,
  "lat": 46.9160175,
  "lon": 17.8871577
},
{
  "type": "node",
  "id": 2924560780,
  "lat": 46.9160956,
  "lon": 17.8870829
},
{
  "type": "node",
  "id": 2927929002,
  "lat": 46.9147895,
  "lon": 17.8868110
},
{
  "type": "node",
  "id": 2927929003,
  "lat": 46.9147079,
  "lon": 17.8869240
},
{
  "type": "node",
  "id": 2927929004,
  "lat": 46.9148139,
  "lon": 17.8872837
},
{
  "type": "node",
  "id": 2927929005,
  "lat": 46.9149623,
  "lon": 17.8870781
},
{
  "type": "node",
  "id": 5726838769,
  "lat": 46.9147655,
  "lon": 17.8872088
},
{
  "type": "node",
  "id": 5726838770,
  "lat": 46.9148666,
  "lon": 17.8870685
},
{
  "type": "node",
  "id": 5726838771,
  "lat": 46.9147845,
  "lon": 17.8869415
},
{
  "type": "node",
  "id": 5726838772,
  "lat": 46.9147501,
  "lon": 17.8869892
},
{
  "type": "node",
  "id": 2853694173,
  "lat": 46.9548527,
  "lon": 17.8931838
},
{
  "type": "node",
  "id": 2853694178,
  "lat": 46.9548825,
  "lon": 17.8932516
},
{
  "type": "node",
  "id": 2853694179,
  "lat": 46.9549045,
  "lon": 17.8933019
},
{
  "type": "node",
  "id": 2853694180,
  "lat": 46.9549047,
  "lon": 17.8917414
},
{
  "type": "node",
  "id": 2853694184,
  "lat": 46.9549208,
  "lon": 17.8932155
},
{
  "type": "node",
  "id": 2853694190,
  "lat": 46.9549414,
  "lon": 17.8933860
},
{
  "type": "node",
  "id": 2853694191,
  "lat": 46.9549429,
  "lon": 17.8932657
},
{
  "type": "node",
  "id": 2853694196,
  "lat": 46.9549610,
  "lon": 17.8930817
},
{
  "type": "node",
  "id": 2853694200,
  "lat": 46.9549947,
  "lon": 17.8916649
},
{
  "type": "node",
  "id": 2853694401,
  "lat": 46.9550000,
  "lon": 17.8919821
},
{
  "type": "node",
  "id": 2853694406,
  "lat": 46.9550232,
  "lon": 17.8917369
},
{
  "type": "node",
  "id": 2853694409,
  "lat": 46.9550498,
  "lon": 17.8932839
},
{
  "type": "node",
  "id": 2853694412,
  "lat": 46.9550617,
  "lon": 17.8917041
},
{
  "type": "node",
  "id": 2853694414,
  "lat": 46.9550645,
  "lon": 17.8918214
},
{
  "type": "node",
  "id": 2853694418,
  "lat": 46.9550959,
  "lon": 17.8919006
},
{
  "type": "node",
  "id": 2853694419,
  "lat": 46.9550972,
  "lon": 17.8917937
},
{
  "type": "node",
  "id": 2863883386,
  "lat": 46.9716038,
  "lon": 17.8960261
},
{
  "type": "node",
  "id": 2863883501,
  "lat": 46.9716704,
  "lon": 17.8959294
},
{
  "type": "node",
  "id": 2863883508,
  "lat": 46.9717068,
  "lon": 17.8961783
},
{
  "type": "node",
  "id": 2868306251,
  "lat": 46.9715041,
  "lon": 17.8960227
},
{
  "type": "node",
  "id": 2868308555,
  "lat": 46.9716497,
  "lon": 17.8962660
},
{
  "type": "node",
  "id": 2868312117,
  "lat": 46.9714934,
  "lon": 17.8960386
},
{
  "type": "node",
  "id": 2868312120,
  "lat": 46.9716193,
  "lon": 17.8958521
},
{
  "type": "node",
  "id": 3671863159,
  "lat": 46.9832919,
  "lon": 17.9192418
},
{
  "type": "node",
  "id": 3671863160,
  "lat": 46.9833068,
  "lon": 17.9191062
},
{
  "type": "node",
  "id": 3671863161,
  "lat": 46.9834596,
  "lon": 17.9192814
},
{
  "type": "node",
  "id": 3671863162,
  "lat": 46.9834745,
  "lon": 17.9191458
},
{
  "type": "node",
  "id": 2942488122,
  "lat": 46.8887657,
  "lon": 17.9845693
},
{
  "type": "node",
  "id": 2942488123,
  "lat": 46.8887834,
  "lon": 17.9846963
},
{
  "type": "node",
  "id": 2942488125,
  "lat": 46.8891072,
  "lon": 17.9844675
},
{
  "type": "node",
  "id": 2942488126,
  "lat": 46.8891249,
  "lon": 17.9845945
},
{
  "type": "node",
  "id": 3678796832,
  "lat": 46.9063444,
  "lon": 18.0506343
},
{
  "type": "node",
  "id": 3678796833,
  "lat": 46.9063490,
  "lon": 18.0503940
},
{
  "type": "node",
  "id": 3678796834,
  "lat": 46.9063577,
  "lon": 18.0506741
},
{
  "type": "node",
  "id": 3678796835,
  "lat": 46.9064128,
  "lon": 18.0505855
},
{
  "type": "node",
  "id": 3678796836,
  "lat": 46.9064401,
  "lon": 18.0503290
},
{
  "type": "node",
  "id": 3678796837,
  "lat": 46.9065172,
  "lon": 18.0505602
},
{
  "type": "node",
  "id": 3678796838,
  "lat": 46.9068320,
  "lon": 18.0517114
},
{
  "type": "node",
  "id": 3678796839,
  "lat": 46.9068518,
  "lon": 18.0516270
},
{
  "type": "node",
  "id": 3678796840,
  "lat": 46.9068712,
  "lon": 18.0516821
},
{
  "type": "node",
  "id": 3678796841,
  "lat": 46.9068762,
  "lon": 18.0518341
},
{
  "type": "node",
  "id": 3678796842,
  "lat": 46.9069138,
  "lon": 18.0515806
},
{
  "type": "node",
  "id": 3678796843,
  "lat": 46.9069753,
  "lon": 18.0517563
},
{
  "type": "node",
  "id": 1727023168,
  "lat": 46.8741452,
  "lon": 18.4338966
},
{
  "type": "node",
  "id": 1727023175,
  "lat": 46.8745087,
  "lon": 18.4346551
},
{
  "type": "node",
  "id": 3023297689,
  "lat": 46.8742134,
  "lon": 18.4340390
},
{
  "type": "node",
  "id": 3023297692,
  "lat": 46.8742422,
  "lon": 18.4340095
},
{
  "type": "node",
  "id": 3023297693,
  "lat": 46.8742507,
  "lon": 18.4337884
},
{
  "type": "node",
  "id": 3023297694,
  "lat": 46.8742657,
  "lon": 18.4341977
},
{
  "type": "node",
  "id": 3023297695,
  "lat": 46.8742659,
  "lon": 18.4338202
},
{
  "type": "node",
  "id": 3023297697,
  "lat": 46.8743104,
  "lon": 18.4341518
},
{
  "type": "node",
  "id": 3023297698,
  "lat": 46.8743234,
  "lon": 18.4339402
},
{
  "type": "node",
  "id": 3023297701,
  "lat": 46.8743597,
  "lon": 18.4343940
},
{
  "type": "node",
  "id": 3023297705,
  "lat": 46.8743871,
  "lon": 18.4340731
},
{
  "type": "node",
  "id": 3023297708,
  "lat": 46.8744044,
  "lon": 18.4343481
},
{
  "type": "node",
  "id": 3023297710,
  "lat": 46.8744331,
  "lon": 18.4336488
},
{
  "type": "node",
  "id": 3023297711,
  "lat": 46.8744371,
  "lon": 18.4345058
},
{
  "type": "node",
  "id": 3023297712,
  "lat": 46.8744439,
  "lon": 18.4340149
},
{
  "type": "node",
  "id": 3023297713,
  "lat": 46.8744525,
  "lon": 18.4340329
},
{
  "type": "node",
  "id": 3023297714,
  "lat": 46.8744658,
  "lon": 18.4344763
},
{
  "type": "node",
  "id": 3023297719,
  "lat": 46.8744812,
  "lon": 18.4342694
},
{
  "type": "node",
  "id": 3023297723,
  "lat": 46.8744906,
  "lon": 18.4337688
},
{
  "type": "node",
  "id": 3023297726,
  "lat": 46.8745272,
  "lon": 18.4341887
},
{
  "type": "node",
  "id": 3023297729,
  "lat": 46.8745380,
  "lon": 18.4342112
},
{
  "type": "node",
  "id": 3023297730,
  "lat": 46.8745426,
  "lon": 18.4343976
},
{
  "type": "node",
  "id": 3023299937,
  "lat": 46.8745999,
  "lon": 18.4345171
},
{
  "type": "node",
  "id": 3023299938,
  "lat": 46.8746142,
  "lon": 18.4345469
},
{
  "type": "node",
  "id": 3023299942,
  "lat": 46.8747129,
  "lon": 18.4342229
},
{
  "type": "node",
  "id": 3023299945,
  "lat": 46.8747702,
  "lon": 18.4343425
},
{
  "type": "node",
  "id": 2023502680,
  "lat": 47.0966283,
  "lon": 17.8974092
},
{
  "type": "node",
  "id": 2023502694,
  "lat": 47.0966168,
  "lon": 17.8973954
},
{
  "type": "node",
  "id": 2023502696,
  "lat": 47.0966621,
  "lon": 17.8974538
},
{
  "type": "node",
  "id": 2023502700,
  "lat": 47.0965340,
  "lon": 17.8976133
},
{
  "type": "node",
  "id": 2023502702,
  "lat": 47.0965664,
  "lon": 17.8974355
},
{
  "type": "node",
  "id": 2023502707,
  "lat": 47.0966461,
  "lon": 17.8976347
},
{
  "type": "node",
  "id": 2023502717,
  "lat": 47.0965781,
  "lon": 17.8973970
},
{
  "type": "node",
  "id": 2023502742,
  "lat": 47.0966343,
  "lon": 17.8974485
},
{
  "type": "node",
  "id": 2023502746,
  "lat": 47.0966055,
  "lon": 17.8973879
},
{
  "type": "node",
  "id": 2023502751,
  "lat": 47.0965695,
  "lon": 17.8974174
},
{
  "type": "node",
  "id": 2023502759,
  "lat": 47.0965925,
  "lon": 17.8973891
},
{
  "type": "node",
  "id": 2023502762,
  "lat": 47.0965501,
  "lon": 17.8974327
},
{
  "type": "node",
  "id": 2023502766,
  "lat": 47.0966343,
  "lon": 17.8974292
},
{
  "type": "node",
  "id": 2042728474,
  "lat": 47.0964950,
  "lon": 17.9029877
},
{
  "type": "node",
  "id": 2042728523,
  "lat": 47.0966849,
  "lon": 17.9030816
},
{
  "type": "node",
  "id": 2042728533,
  "lat": 47.0965184,
  "lon": 17.9027893
},
{
  "type": "node",
  "id": 2042728538,
  "lat": 47.0965450,
  "lon": 17.9030778
},
{
  "type": "node",
  "id": 2042728539,
  "lat": 47.0965297,
  "lon": 17.9032545
},
{
  "type": "node",
  "id": 2042728542,
  "lat": 47.0965736,
  "lon": 17.9028695
},
{
  "type": "node",
  "id": 2042728548,
  "lat": 47.0964760,
  "lon": 17.9031553
},
{
  "type": "node",
  "id": 2042728554,
  "lat": 47.0963669,
  "lon": 17.9029700
},
{
  "type": "node",
  "id": 2042728571,
  "lat": 47.0964269,
  "lon": 17.9030643
},
{
  "type": "node",
  "id": 6978298713,
  "lat": 47.0971452,
  "lon": 17.9027675
},
{
  "type": "node",
  "id": 6978298714,
  "lat": 47.0971858,
  "lon": 17.9028533
},
{
  "type": "node",
  "id": 6978298715,
  "lat": 47.0972351,
  "lon": 17.9028051
},
{
  "type": "node",
  "id": 6978298716,
  "lat": 47.0972150,
  "lon": 17.9027279
},
{
  "type": "node",
  "id": 1534500282,
  "lat": 47.0899649,
  "lon": 17.9093993
},
{
  "type": "node",
  "id": 1534500285,
  "lat": 47.0900030,
  "lon": 17.9095364
},
{
  "type": "node",
  "id": 1534500293,
  "lat": 47.0901407,
  "lon": 17.9092940
},
{
  "type": "node",
  "id": 1534500294,
  "lat": 47.0901787,
  "lon": 17.9094311
},
{
  "type": "node",
  "id": 1534500296,
  "lat": 47.0903694,
  "lon": 17.9090777
},
{
  "type": "node",
  "id": 1534500297,
  "lat": 47.0904322,
  "lon": 17.9093017
},
{
  "type": "node",
  "id": 1534500298,
  "lat": 47.0906145,
  "lon": 17.9089295
},
{
  "type": "node",
  "id": 1534500299,
  "lat": 47.0906773,
  "lon": 17.9091534
},
{
  "type": "node",
  "id": 1994165527,
  "lat": 47.0904900,
  "lon": 17.9090048
},
{
  "type": "node",
  "id": 2341971228,
  "lat": 46.9941574,
  "lon": 17.9710824
},
{
  "type": "node",
  "id": 2341971229,
  "lat": 46.9941882,
  "lon": 17.9711806
},
{
  "type": "node",
  "id": 2341971230,
  "lat": 46.9942832,
  "lon": 17.9709976
},
{
  "type": "node",
  "id": 2341971232,
  "lat": 46.9943140,
  "lon": 17.9710958
},
{
  "type": "node",
  "id": 2624813935,
  "lat": 46.9942870,
  "lon": 17.9710095
},
{
  "type": "node",
  "id": 4772020392,
  "lat": 47.2595463,
  "lon": 18.0339764
},
{
  "type": "node",
  "id": 4772020393,
  "lat": 47.2595153,
  "lon": 18.0340407
},
{
  "type": "node",
  "id": 4772020394,
  "lat": 47.2595504,
  "lon": 18.0340773
},
{
  "type": "node",
  "id": 4772020395,
  "lat": 47.2595813,
  "lon": 18.0340129
},
{
  "type": "node",
  "id": 4772020634,
  "lat": 47.2597100,
  "lon": 18.0341822
},
{
  "type": "node",
  "id": 4772020635,
  "lat": 47.2596868,
  "lon": 18.0341520
},
{
  "type": "node",
  "id": 4772020636,
  "lat": 47.2597885,
  "lon": 18.0339821
},
{
  "type": "node",
  "id": 4772020637,
  "lat": 47.2598104,
  "lon": 18.0340161
},
{
  "type": "node",
  "id": 4803433461,
  "lat": 47.0197510,
  "lon": 18.2132544
},
{
  "type": "node",
  "id": 4803433462,
  "lat": 47.0198022,
  "lon": 18.2133781
},
{
  "type": "node",
  "id": 4803433463,
  "lat": 47.0196245,
  "lon": 18.2135505
},
{
  "type": "node",
  "id": 4803433464,
  "lat": 47.0195733,
  "lon": 18.2134223
},
{
  "type": "node",
  "id": 1727557634,
  "lat": 47.1341409,
  "lon": 18.2415412
},
{
  "type": "node",
  "id": 1727557637,
  "lat": 47.1341633,
  "lon": 18.2416443
},
{
  "type": "node",
  "id": 1727557639,
  "lat": 47.1341940,
  "lon": 18.2416307
},
{
  "type": "node",
  "id": 1727557640,
  "lat": 47.1341955,
  "lon": 18.2415154
},
{
  "type": "node",
  "id": 1727557642,
  "lat": 47.1342101,
  "lon": 18.2415770
},
{
  "type": "node",
  "id": 1727557644,
  "lat": 47.1342491,
  "lon": 18.2418878
},
{
  "type": "node",
  "id": 1727557646,
  "lat": 47.1342530,
  "lon": 18.2414859
},
{
  "type": "node",
  "id": 1727557653,
  "lat": 47.1342569,
  "lon": 18.2414223
},
{
  "type": "node",
  "id": 1727557655,
  "lat": 47.1342643,
  "lon": 18.2415552
},
{
  "type": "node",
  "id": 1727557656,
  "lat": 47.1342685,
  "lon": 18.2414783
},
{
  "type": "node",
  "id": 1727557658,
  "lat": 47.1343105,
  "lon": 18.2417689
},
{
  "type": "node",
  "id": 1727557660,
  "lat": 47.1343270,
  "lon": 18.2418577
},
{
  "type": "node",
  "id": 1727557662,
  "lat": 47.1343319,
  "lon": 18.2413851
},
{
  "type": "node",
  "id": 1727557666,
  "lat": 47.1343446,
  "lon": 18.2414433
},
{
  "type": "node",
  "id": 1727557668,
  "lat": 47.1343632,
  "lon": 18.2414342
},
{
  "type": "node",
  "id": 1727557670,
  "lat": 47.1343779,
  "lon": 18.2415033
},
{
  "type": "node",
  "id": 1727557676,
  "lat": 47.1344067,
  "lon": 18.2414909
},
{
  "type": "node",
  "id": 1727557677,
  "lat": 47.1344211,
  "lon": 18.2414535
},
{
  "type": "node",
  "id": 1727557678,
  "lat": 47.1344549,
  "lon": 18.2414920
},
{
  "type": "node",
  "id": 1727557679,
  "lat": 47.1344563,
  "lon": 18.2417036
},
{
  "type": "node",
  "id": 1727557680,
  "lat": 47.1344654,
  "lon": 18.2417546
},
{
  "type": "node",
  "id": 1727557681,
  "lat": 47.1345024,
  "lon": 18.2410957
},
{
  "type": "node",
  "id": 1727557682,
  "lat": 47.1345679,
  "lon": 18.2414322
},
{
  "type": "node",
  "id": 1727557683,
  "lat": 47.1346432,
  "lon": 18.2416644
},
{
  "type": "node",
  "id": 1727557684,
  "lat": 47.1346486,
  "lon": 18.2410370
},
{
  "type": "node",
  "id": 1727557685,
  "lat": 47.1346486,
  "lon": 18.2411258
},
{
  "type": "node",
  "id": 1727557687,
  "lat": 47.1346549,
  "lon": 18.2417181
},
{
  "type": "node",
  "id": 1727557694,
  "lat": 47.1346671,
  "lon": 18.2410499
},
{
  "type": "node",
  "id": 1727557697,
  "lat": 47.1346671,
  "lon": 18.2411158
},
{
  "type": "node",
  "id": 1727557700,
  "lat": 47.1346749,
  "lon": 18.2410886
},
{
  "type": "node",
  "id": 1727557703,
  "lat": 47.1347148,
  "lon": 18.2416844
},
{
  "type": "node",
  "id": 1727557723,
  "lat": 47.1347343,
  "lon": 18.2416959
},
{
  "type": "node",
  "id": 1727557724,
  "lat": 47.1347362,
  "lon": 18.2415684
},
{
  "type": "node",
  "id": 1727557725,
  "lat": 47.1347635,
  "lon": 18.2416787
},
{
  "type": "node",
  "id": 1727557726,
  "lat": 47.1347645,
  "lon": 18.2415827
},
{
  "type": "node",
  "id": 1727557727,
  "lat": 47.1347762,
  "lon": 18.2416386
},
{
  "type": "node",
  "id": 1728410650,
  "lat": 47.1342930,
  "lon": 18.2414044
},
{
  "type": "node",
  "id": 1728410657,
  "lat": 47.1345638,
  "lon": 18.2410711
},
{
  "type": "node",
  "id": 390977828,
  "lat": 47.0878027,
  "lon": 18.4221200
},
{
  "type": "node",
  "id": 3280501615,
  "lat": 47.0889807,
  "lon": 18.4186939
},
{
  "type": "node",
  "id": 3280501627,
  "lat": 47.0893051,
  "lon": 18.4195050
},
{
  "type": "node",
  "id": 3280501715,
  "lat": 47.0906350,
  "lon": 18.4169308
},
{
  "type": "node",
  "id": 3741159444,
  "lat": 47.0893153,
  "lon": 18.4183720
},
{
  "type": "node",
  "id": 3741159447,
  "lat": 47.0894063,
  "lon": 18.4193783
},
{
  "type": "node",
  "id": 3741159451,
  "lat": 47.0895951,
  "lon": 18.4192351
},
{
  "type": "node",
  "id": 3741159455,
  "lat": 47.0898481,
  "lon": 18.4180987
},
{
  "type": "node",
  "id": 4897768202,
  "lat": 47.0889041,
  "lon": 18.4215322
},
{
  "type": "node",
  "id": 4897768203,
  "lat": 47.0892201,
  "lon": 18.4209448
},
{
  "type": "node",
  "id": 4897768204,
  "lat": 47.0892456,
  "lon": 18.4209743
},
{
  "type": "node",
  "id": 4897768205,
  "lat": 47.0895579,
  "lon": 18.4207249
},
{
  "type": "node",
  "id": 4897768206,
  "lat": 47.0896072,
  "lon": 18.4208482
},
{
  "type": "node",
  "id": 4897768207,
  "lat": 47.0893881,
  "lon": 18.4210199
},
{
  "type": "node",
  "id": 4897768208,
  "lat": 47.0894410,
  "lon": 18.4211312
},
{
  "type": "node",
  "id": 4897768209,
  "lat": 47.0892474,
  "lon": 18.4212989
},
{
  "type": "node",
  "id": 4897768210,
  "lat": 47.0891963,
  "lon": 18.4212506
},
{
  "type": "node",
  "id": 4897768211,
  "lat": 47.0889991,
  "lon": 18.4216288
},
{
  "type": "node",
  "id": 390977827,
  "lat": 47.0897881,
  "lon": 18.4252678
},
{
  "type": "node",
  "id": 3280501597,
  "lat": 47.0875933,
  "lon": 18.4237987
},
{
  "type": "node",
  "id": 3280501601,
  "lat": 47.0877176,
  "lon": 18.4243670
},
{
  "type": "node",
  "id": 3280501606,
  "lat": 47.0885651,
  "lon": 18.4249220
},
{
  "type": "node",
  "id": 3280501714,
  "lat": 47.0905571,
  "lon": 18.4257654
},
{
  "type": "node",
  "id": 390977823,
  "lat": 47.0919816,
  "lon": 18.4167197
},
{
  "type": "node",
  "id": 390977825,
  "lat": 47.0927651,
  "lon": 18.4205966
},
{
  "type": "node",
  "id": 3280501800,
  "lat": 47.0910919,
  "lon": 18.4175393
},
{
  "type": "node",
  "id": 3280502053,
  "lat": 47.0920636,
  "lon": 18.4184092
},
{
  "type": "node",
  "id": 3280502074,
  "lat": 47.0925179,
  "lon": 18.4180123
},
{
  "type": "node",
  "id": 3280502075,
  "lat": 47.0925351,
  "lon": 18.4190342
},
{
  "type": "node",
  "id": 3741159480,
  "lat": 47.0913395,
  "lon": 18.4173164
},
{
  "type": "node",
  "id": 3280502076,
  "lat": 47.0926329,
  "lon": 18.4222520
},
{
  "type": "node",
  "id": 3362955233,
  "lat": 47.2541163,
  "lon": 18.3469066
},
{
  "type": "node",
  "id": 3362955234,
  "lat": 47.2541605,
  "lon": 18.3469697
},
{
  "type": "node",
  "id": 3362955235,
  "lat": 47.2541816,
  "lon": 18.3468076
},
{
  "type": "node",
  "id": 3362955237,
  "lat": 47.2542257,
  "lon": 18.3468707
},
{
  "type": "node",
  "id": 6800276704,
  "lat": 47.0284046,
  "lon": 18.5232253
},
{
  "type": "node",
  "id": 6800276705,
  "lat": 47.0282785,
  "lon": 18.5233460
},
{
  "type": "node",
  "id": 6800276706,
  "lat": 47.0282474,
  "lon": 18.5232816
},
{
  "type": "node",
  "id": 6800276707,
  "lat": 47.0283717,
  "lon": 18.5231582
},
{
  "type": "way",
  "id": 34107587,
  "nodes": [
    390977828,
    3280501627,
    3280501615,
    3741159444
  ]
},
{
  "type": "way",
  "id": 370413607,
  "nodes": [
    3280501714,
    390977827,
    3280501606,
    3280501601,
    3280501597
  ]
},
{
  "type": "way",
  "id": 370413557,
  "nodes": [
    3280501597,
    390977828
  ]
},
{
  "type": "way",
  "id": 370413624,
  "nodes": [
    3741159444,
    3741159447,
    3741159451,
    3741159455,
    3280501715,
    3280501800,
    3741159480
  ]
},
{
  "type": "way",
  "id": 370413625,
  "nodes": [
    390977823,
    3280502074,
    3280502053,
    3280502075,
    390977825,
    3280502076,
    3280501714
  ]
},
{
  "type": "way",
  "id": 370413552,
  "nodes": [
    3741159480,
    390977823
  ]
}

  ]
}
