{
  "version": 0.6,
  "generator": "Overpass API 0.7.55.1011 6c2efc30",
  "osm3s": {
    "timestamp_osm_base": "2020-02-14T12:59:02Z",
    "copyright": "The data included in this document is from www.openstreetmap.org. The data is made available under ODbL."
  },
  "elements": [

{
  "type": "node",
  "id": 1570971557,
  "lat": 47.2974770,
  "lon": -1.4948517,
  "tags": {
    "addr:street": "Place Aristide Briand",
    "contact:phone": "+33 2 40 68 82 75",
    "name": "Musée Le Temps qui Passe",
    "ref:FR:NantesMetropole": "2636",
    "source": "Nantes Métropole 11/2011",
    "tourism": "museum"
  }
},
{
  "type": "node",
  "id": 1620229100,
  "lat": 47.2109738,
  "lon": -1.5620834,
  "tags": {
    "addr:city": "Nantes",
    "addr:housenumber": "24",
    "addr:postcode": "44000",
    "addr:street": "Quai de la Fosse",
    "name": "Musée de l'Imprimerie",
    "name:en": "Printing Museum",
    "opening_hours": "Mo-Sa 10:00-12:00,14:00-17:30; Jul-Aug Sa off",
    "phone": "+33 2 40732655",
    "source": "survey",
    "tourism": "museum",
    "website": "http://musee-imprimerie.com/",
    "wikipedia": "fr:Liste des musées de Nantes#Musée de l'Imprimerie"
  }
},
{
  "type": "node",
  "id": 1867160441,
  "lat": 47.3420593,
  "lon": -1.1644542,
  "tags": {
    "name": "Musée Joachim du Bellay",
    "tourism": "museum"
  }
},
{
  "type": "node",
  "id": 2069132743,
  "lat": 47.2158179,
  "lon": -1.5497989,
  "tags": {
    "contact:city": "Nantes",
    "contact:country": "FR",
    "contact:housenumber": "4",
    "contact:postcode": "44000",
    "contact:street": "Place Marc Elder",
    "contact:website": "http://www.chateau-nantes.fr",
    "name": "Musée d'histoire de Nantes",
    "toilets:wheelchair": "yes",
    "tourism": "museum",
    "wheelchair": "yes"
  }
},
{
  "type": "node",
  "id": 3774869776,
  "lat": 47.0570111,
  "lon": -1.7249490,
  "tags": {
    "name": "Musée d'art sacré",
    "tourism": "museum"
  }
},
{
  "type": "node",
  "id": 3842660066,
  "lat": 47.2029077,
  "lon": -1.5827179,
  "tags": {
    "addr:city": "Nantes",
    "addr:housenumber": "14",
    "addr:postcode": "44100",
    "addr:street": "Rue Claude Guillon-Verne",
    "name": "Musée des Compagnons du Devoir",
    "opening_hours": "Sa 14:00-18:00",
    "operator": "Union compagnonnique",
    "phone": "+33 2 40 69 30 55",
    "tourism": "museum"
  }
},
{
  "type": "node",
  "id": 4621127944,
  "lat": 47.2450414,
  "lon": -1.6079026,
  "tags": {
    "email": "aeroscope@orange.fr",
    "level": "-1",
    "name": "Le grenier de l'Aviation",
    "opening_hours": "Sa 14:00-18:00",
    "operator": "AÉROSCOPE Nantes-Atlantique",
    "tourism": "museum",
    "website": "https://www.aeroscope.org/",
    "wheelchair": "yes"
  }
},
{
  "type": "node",
  "id": 4734626925,
  "lat": 47.0970181,
  "lon": -1.1863362,
  "tags": {
    "name": "Maison du Mineur et des Énergies",
    "tourism": "museum"
  }
},
{
  "type": "node",
  "id": 6537187284,
  "lat": 47.4613509,
  "lon": -1.2818262,
  "tags": {
    "name": "Au siècle passé",
    "operator": "ARMAT",
    "tourism": "museum"
  }
},
{
  "type": "way",
  "id": 28735810,
  "nodes": [
    616711794,
    616711793,
    315963693,
    616711820,
    3473552424,
    616711805,
    616711804,
    616711819,
    616711817,
    616711818,
    616711816,
    616711815,
    616711813,
    616711812,
    3473552420,
    616711811,
    616711810,
    315963697,
    616711860,
    616711859,
    3473552418,
    616711858,
    616711857,
    616711856,
    616711855,
    616711854,
    3473552413,
    616711853,
    616711852,
    616711851,
    616711850,
    3473552412,
    315963695,
    616711849,
    616711847,
    616711846,
    3473536005,
    616711845,
    616711844,
    616711843,
    616711842,
    616711841,
    616711840,
    616711839,
    616711837,
    616711836,
    3473552169,
    616711825,
    616711824,
    616711823,
    616711822,
    616711821,
    616711835,
    616711834,
    3473552177,
    616711833,
    616711831,
    616711832,
    616711830,
    616711828,
    3473552406,
    616711827,
    616711826,
    616711806,
    616711809,
    616711808,
    616711807,
    616711803,
    616711802,
    616711801,
    616711800,
    616711799,
    3473552411,
    616711798,
    3473552414,
    616711794
  ],
  "tags": {
    "addr:housenumber": "18",
    "addr:street": "Rue Voltaire",
    "alt_name": "Palais Dobrée",
    "building": "yes",
    "building:colour": "#d1bfb1",
    "height": "18 m",
    "historic": "building",
    "name": "Musée Thomas Dobrée",
    "roof:angle": "60",
    "roof:colour": "#caa08a",
    "roof:material": "tile",
    "roof:shape": "gabled",
    "tourism": "museum",
    "wikidata": "Q167248",
    "wikipedia": "fr:Musée départemental Thomas-Dobrée"
  }
},
{
  "type": "way",
  "id": 32488519,
  "nodes": [
    365275978,
    4867950141,
    1853707618,
    4867950291,
    1853707619,
    4867950153,
    365275980,
    4867950292,
    365275982,
    4867950311,
    4867950312,
    4867950288,
    4949161975,
    365275985,
    365275978
  ],
  "tags": {
    "addr:city": "Nantes",
    "addr:housenumber": "3",
    "addr:postcode": "44100",
    "addr:street": "Rue de l'Hermitage",
    "building": "yes",
    "email": "musee-julesverne@nantesmetropole.fr",
    "fax": "+33 2 40 73 28 18",
    "name": "Musée Jules Verne",
    "opening_hours": "Mo-Sa 10:00-12:00,14:00-18:00; Tu off; Jul-Aug Mo-Su 10:00-19:00",
    "phone": "+33 2 40697252",
    "source": "cadastre-dgi-fr source : Direction Générale des Impôts - Cadastre;mise à jour : 2009",
    "tourism": "museum",
    "website": "https://julesverne.nantesmetropole.fr/",
    "wikidata": "Q3329229",
    "wikipedia": "fr:Musée Jules-Verne"
  }
},
{
  "type": "way",
  "id": 64619532,
  "nodes": [
    793805717,
    793795539,
    793777286,
    793783150,
    793792927,
    4592747171,
    793778079,
    793791210,
    793778422,
    793810367,
    793807806,
    793808128,
    793794071,
    793800181,
    793805332,
    793805717
  ],
  "tags": {
    "addr:city": "Bouaye",
    "addr:postcode": "44830",
    "addr:street": "Rue du Lac",
    "building": "yes",
    "name": "Maison du Lac de Grand Lieu",
    "nom": "Maison du Lac",
    "operator": "Conseil départemental de Loire-Atlantique",
    "source": "cadastre-dgi-fr source : Direction Générale des Impôts - Cadastre. Mise à jour : 2010",
    "tourism": "museum"
  }
},
{
  "type": "way",
  "id": 73477781,
  "nodes": [
    870778070,
    870780669,
    4050246891,
    870742333,
    870713713,
    870732015,
    870728034,
    870784063,
    870755889,
    870779580,
    870760088,
    870746303,
    6179017843,
    4408046337,
    4408046336,
    870778070
  ],
  "tags": {
    "building": "yes",
    "name": "La Maison touristique de Passay",
    "source": "cadastre-dgi-fr source : Direction Générale des Impôts - Cadastre. Mise à jour : 2010",
    "tourism": "museum"
  }
},
{
  "type": "way",
  "id": 76083845,
  "nodes": [
    897491087,
    897527249,
    897522587,
    897498472,
    897524215,
    897525677,
    897537603,
    897491087
  ],
  "tags": {
    "building": "yes",
    "name": "Pavillon des Nourrices",
    "source": "cadastre-dgi-fr source : Direction Générale des Impôts - Cadastre. Mise à jour : 2010",
    "tourism": "museum"
  }
},
{
  "type": "way",
  "id": 79384224,
  "nodes": [
    926786605,
    926781717,
    4729296273,
    4729296271,
    4729296269,
    926768858,
    926770611,
    926777978,
    926766977,
    926758196,
    926748993,
    926762047,
    926753475,
    926755695,
    926764533,
    926785455,
    926747192,
    926782582,
    926787664,
    926772610,
    926778352,
    926750578,
    4729296491,
    4729296490,
    4729296288,
    4729296286,
    926760212,
    926743742,
    4729296284,
    926783937,
    926761598,
    926786605
  ],
  "tags": {
    "building": "yes",
    "name": "Musée du Vignoble Nantais",
    "source": "cadastre-dgi-fr source : Direction Générale des Impôts - Cadastre. Mise à jour : 2010",
    "tourism": "museum",
    "wikidata": "Q23727155"
  }
},
{
  "type": "way",
  "id": 80170968,
  "nodes": [
    935120447,
    934998818,
    935095310,
    935007218,
    935129478,
    935034145,
    935045831,
    935159103,
    935085955,
    934996871,
    935019608,
    935120447
  ],
  "tags": {
    "addr:city": "Vallet",
    "addr:housenumber": "6",
    "addr:postcode": "44330",
    "addr:street": "Route d'Ancenis",
    "email": "maisondumuscadet@orange.fr",
    "name": "Maison du Muscadet",
    "phone": "+33 2 40 36 25 95",
    "source": "cadastre-dgi-fr source : Direction Générale des Impôts - Cadastre. Mise à jour : 2010",
    "tourism": "museum",
    "website": "https://www.maisondumuscadet.fr/"
  }
},
{
  "type": "way",
  "id": 97962232,
  "nodes": [
    1133808017,
    1133808024,
    5557007660,
    1133808010,
    5600903589,
    1133808025,
    1133808012,
    1133808022,
    1133808023,
    1133808031,
    1133808027,
    1133808014,
    5557007661,
    1133808021,
    1133808017
  ],
  "tags": {
    "alt_name": "Musée naval Maillé-Brézé",
    "fee": "yes",
    "floating": "yes",
    "heritage": "2",
    "heritage:operator": "mhs",
    "historic": "ship",
    "image": "File:Nantes - Maille Breze (3).jpg",
    "mhs:inscription_date": "1991-10-28",
    "name": "Maillé-Brézé",
    "name:wikidata": "Q2629600",
    "name:wikipedia": "fr:Jean Armand de Maillé",
    "opening_hours": "Mo-Fr 15:00-16:30; We,Sa,Su 14:30-17:30; Mo,Tu,Th,Fr 14:30-17:30; Dec 25,Jan 1 off",
    "operator": "Nantes Marine Tradition",
    "ref": "D627",
    "ref:mhs": "PM44000601",
    "ship:type": "destroyer",
    "start_date": "1955-07-02",
    "tourism": "museum",
    "website": "https://www.maillebreze.com/",
    "wikidata": "Q2103611",
    "wikipedia": "fr:Maillé-Brézé"
  }
},
{
  "type": "way",
  "id": 113844447,
  "nodes": [
    1290625278,
    1290639099,
    5902061223,
    5902061219,
    1290653043,
    1290663504,
    1290671936,
    1290683809,
    1290692166,
    1290628011,
    1290642060,
    1290656667,
    1290667103,
    1290642575,
    1290657387,
    1290667508,
    1290678169,
    1290688113,
    1290621579,
    1290635693,
    1290648272,
    1290623529,
    1290635991,
    1290650183,
    1290663863,
    1290674220,
    1290684060,
    1290692812,
    1290628537,
    5902061218,
    1290684778,
    1290693301,
    1290630322,
    5902061217,
    1290625278
  ],
  "tags": {
    "building": "yes",
    "name": "Espace Saint-Sauveur",
    "source": "cadastre-dgi-fr source : Direction Générale des Impôts - Cadastre. Mise à jour : 2011",
    "tourism": "museum"
  }
},
{
  "type": "way",
  "id": 129160946,
  "nodes": [
    1425615784,
    1425615178,
    1425614999,
    1425615176,
    1425614997,
    1425614640,
    1425614381,
    1425615408,
    1425615412,
    1425615782,
    5965703842,
    1425616047,
    1425616044,
    1425616432,
    1425615784
  ],
  "tags": {
    "building": "yes",
    "email": "musee@mairie-carquefou.fr",
    "fee": "no",
    "name": "Musée de l'Erdre",
    "phone": "+33 2 28 22 24 45",
    "source": "cadastre-dgi-fr source : Direction Générale des Impôts - Cadastre. Mise à jour : 2011",
    "tourism": "museum",
    "website": "https://www.carquefou.fr/musee",
    "wheelchair": "yes"
  }
},
{
  "type": "way",
  "id": 142523574,
  "nodes": [
    1559753249,
    4964404712,
    4964406296,
    1559753232,
    1559753233,
    1559753234,
    1559753248,
    1559753244,
    1559753246,
    1559753251,
    1559753250,
    1559753252,
    1559753253,
    1559753262,
    1559753263,
    1559753274,
    1559753280,
    2920585330,
    2920585331,
    1559753284,
    1559753282,
    3679607286,
    1559753270,
    1559753272,
    2920585328,
    5394657388,
    5394657387,
    4994922300,
    4994922302,
    4994922298,
    4994922267,
    4994922263,
    4994922264,
    4994922265,
    4994922266,
    4994922296,
    4994922295,
    4994922285,
    4994922286,
    4994922287,
    990411257,
    990431638,
    4994922288,
    990402115,
    4994922260,
    990416373,
    990397887,
    4994922261,
    4994922262,
    990427843,
    4994922284,
    4994922280,
    990423079,
    990395751,
    4994922283,
    4994922279,
    4994922282,
    4994922281,
    990399283,
    4994922277,
    4994922276,
    2921526031,
    2921526030,
    4994922278,
    990407192,
    990399164,
    990394669,
    4994922275,
    990417297,
    4994922274,
    990406630,
    4994922272,
    4994922273,
    4994922271,
    4994922294,
    4994922270,
    4994922269,
    4994922268,
    990397552,
    4994922292,
    1559753207,
    1559753213,
    1559753215,
    1559753211,
    4743421116,
    4964406303,
    4964404711,
    4743425122,
    1559753222,
    4743425137,
    1559753249
  ],
  "tags": {
    "name": "Musée d'arts de Nantes",
    "name:en": "Museum of Fine Art of Nantes",
    "name:uk": "Нантський музей образотворчого мистецтва",
    "old_name": "Musée des Beaux Arts",
    "opening_hours": "Mo-Su 11:00-19:00; Tu off; Th 11:00-21:00; Jan 01,May 01,Nov 01,Dec 25 off",
    "phone": "+33 2 51 17 45 00",
    "tourism": "museum",
    "website": "http://museedartsdenantes.fr",
    "wikidata": "Q1783956",
    "wikipedia": "fr:Musée d'Arts de Nantes"
  }
},
{
  "type": "way",
  "id": 454524397,
  "nodes": [
    4510762909,
    4510762910,
    4510762911,
    3258693750,
    4510762909
  ],
  "tags": {
    "addr:city": "Rezé",
    "addr:housenumber": "21",
    "addr:postcode": "44400",
    "addr:street": "Rue Saint-Lupien",
    "building": "civic",
    "email": "lechronographe@nantesmetropole.fr",
    "level": "5",
    "name": "Le Chronographe",
    "opening_date": "2017-01-28",
    "opening_hours": "We-Su 14:00-18:00",
    "operator": "Nantes Métropole",
    "phone": "+33 2 52 10 83 20",
    "start_date": "27/01/2017",
    "tourism": "museum",
    "website": "https://lechronographe.nantesmetropole.fr",
    "wheelchair": "yes"
  }
},
{
  "type": "way",
  "id": 631783700,
  "nodes": [
    766049151,
    5965793513,
    766049280,
    5961906379,
    766049886,
    5965793506,
    5961906322,
    766049151
  ],
  "tags": {
    "building:part": "yes",
    "level": "0;1",
    "name": "Musée LU",
    "official_name": "Musée de la Biscuiterie LU",
    "tourism": "museum"
  }
},
{
  "type": "relation",
  "id": 1162754,
  "members": [
    {
      "type": "way",
      "ref": 143297934,
      "role": "outer"
    },
    {
      "type": "way",
      "ref": 143297936,
      "role": "inner"
    }
  ],
  "tags": {
    "building": "yes",
    "building:levels": "1",
    "building:part": "no",
    "name": "Maison de l'Erdre",
    "opening_hours": "Jan 15-Nov 17 Mo-We,Fr 13:30-18:15; Jan 15-Nov 17 We,Sa,Su 09:30-12:15,14:15-18:15; Nov 18-Jan 14 Mo-We,Fr 13:30-17:15; Nov 18-Jan 14 We,Sa,Su 09:30-12:15,14:15-17:15; PH 09:30-12:15,14:15-18:15",
    "roof:levels": "0",
    "tourism": "museum",
    "type": "multipolygon",
    "wheelchair": "yes"
  }
},
{
  "type": "relation",
  "id": 6742735,
  "members": [
    {
      "type": "way",
      "ref": 142974661,
      "role": "outer"
    },
    {
      "type": "way",
      "ref": 456128145,
      "role": "inner"
    }
  ],
  "tags": {
    "addr:city": "Nantes",
    "addr:housenumber": "12",
    "addr:postcode": "44000",
    "addr:street": "Rue Voltaire",
    "architect": "Gustave Bourgerel",
    "architect:wikidata": "Q28364319",
    "architect:wikipedia": "fr:Gustave Bourgerel",
    "building": "civic",
    "email": "museum-sciences@nantesmetropole.fr",
    "fax": "+33 2 40 41 55 35",
    "historic": "building",
    "name": "Muséum d'Histoire Naturelle",
    "opening_hours": "10:00-18:00; Tu off; Jan 01,May 01,Nov 01,Dec 25 off; Dec 24,Dec 31 10:00-16:00",
    "operator": "Ville de Nantes",
    "phone": "+33 2 40 41 55 00",
    "roof:levels": "1",
    "start_date": "1875-08-19",
    "tourism": "museum",
    "type": "multipolygon",
    "website": "https://museum.nantesmetropole.fr",
    "wheelchair": "yes",
    "wikidata": "Q2398539",
    "wikipedia": "fr:Muséum d'histoire naturelle de Nantes"
  }
},
{
  "type": "node",
  "id": 793777286,
  "lat": 47.1385367,
  "lon": -1.6966677
},
{
  "type": "node",
  "id": 793778079,
  "lat": 47.1385897,
  "lon": -1.6964762
},
{
  "type": "node",
  "id": 793778422,
  "lat": 47.1384808,
  "lon": -1.6962303
},
{
  "type": "node",
  "id": 793783150,
  "lat": 47.1385301,
  "lon": -1.6965669
},
{
  "type": "node",
  "id": 793791210,
  "lat": 47.1384978,
  "lon": -1.6964893
},
{
  "type": "node",
  "id": 793792927,
  "lat": 47.1385951,
  "lon": -1.6965577
},
{
  "type": "node",
  "id": 793794071,
  "lat": 47.1387773,
  "lon": -1.6964512
},
{
  "type": "node",
  "id": 793795539,
  "lat": 47.1386191,
  "lon": -1.6966560
},
{
  "type": "node",
  "id": 793800181,
  "lat": 47.1387097,
  "lon": -1.6964608
},
{
  "type": "node",
  "id": 793805332,
  "lat": 47.1387398,
  "lon": -1.6969183
},
{
  "type": "node",
  "id": 793805717,
  "lat": 47.1386373,
  "lon": -1.6969328
},
{
  "type": "node",
  "id": 793807806,
  "lat": 47.1386052,
  "lon": -1.6963553
},
{
  "type": "node",
  "id": 793808128,
  "lat": 47.1387695,
  "lon": -1.6963320
},
{
  "type": "node",
  "id": 793810367,
  "lat": 47.1385959,
  "lon": -1.6962140
},
{
  "type": "node",
  "id": 4592747171,
  "lat": 47.1385926,
  "lon": -1.6965190
},
{
  "type": "node",
  "id": 1290621579,
  "lat": 46.9379020,
  "lon": -1.5091940
},
{
  "type": "node",
  "id": 1290623529,
  "lat": 46.9379530,
  "lon": -1.5092500
},
{
  "type": "node",
  "id": 1290625278,
  "lat": 46.9376240,
  "lon": -1.5094080
},
{
  "type": "node",
  "id": 1290628011,
  "lat": 46.9377470,
  "lon": -1.5090240
},
{
  "type": "node",
  "id": 1290628537,
  "lat": 46.9377990,
  "lon": -1.5093960
},
{
  "type": "node",
  "id": 1290630322,
  "lat": 46.9377080,
  "lon": -1.5092200
},
{
  "type": "node",
  "id": 1290635693,
  "lat": 46.9379070,
  "lon": -1.5092110
},
{
  "type": "node",
  "id": 1290635991,
  "lat": 46.9379560,
  "lon": -1.5092610
},
{
  "type": "node",
  "id": 1290639099,
  "lat": 46.9375630,
  "lon": -1.5093500
},
{
  "type": "node",
  "id": 1290642060,
  "lat": 46.9377290,
  "lon": -1.5090620
},
{
  "type": "node",
  "id": 1290642575,
  "lat": 46.9377950,
  "lon": -1.5091530
},
{
  "type": "node",
  "id": 1290648272,
  "lat": 46.9379500,
  "lon": -1.5092540
},
{
  "type": "node",
  "id": 1290650183,
  "lat": 46.9379490,
  "lon": -1.5092640
},
{
  "type": "node",
  "id": 1290653043,
  "lat": 46.9376890,
  "lon": -1.5090660
},
{
  "type": "node",
  "id": 1290656667,
  "lat": 46.9377710,
  "lon": -1.5091060
},
{
  "type": "node",
  "id": 1290657387,
  "lat": 46.9377880,
  "lon": -1.5091680
},
{
  "type": "node",
  "id": 1290663504,
  "lat": 46.9376760,
  "lon": -1.5090540
},
{
  "type": "node",
  "id": 1290663863,
  "lat": 46.9379180,
  "lon": -1.5093310
},
{
  "type": "node",
  "id": 1290667103,
  "lat": 46.9377640,
  "lon": -1.5091200
},
{
  "type": "node",
  "id": 1290667508,
  "lat": 46.9378730,
  "lon": -1.5092540
},
{
  "type": "node",
  "id": 1290671936,
  "lat": 46.9376910,
  "lon": -1.5090250
},
{
  "type": "node",
  "id": 1290674220,
  "lat": 46.9379270,
  "lon": -1.5093420
},
{
  "type": "node",
  "id": 1290678169,
  "lat": 46.9378970,
  "lon": -1.5092040
},
{
  "type": "node",
  "id": 1290683809,
  "lat": 46.9377000,
  "lon": -1.5090360
},
{
  "type": "node",
  "id": 1290684060,
  "lat": 46.9378640,
  "lon": -1.5094870
},
{
  "type": "node",
  "id": 1290684778,
  "lat": 46.9378260,
  "lon": -1.5093390
},
{
  "type": "node",
  "id": 1290688113,
  "lat": 46.9378950,
  "lon": -1.5091980
},
{
  "type": "node",
  "id": 1290692166,
  "lat": 46.9377200,
  "lon": -1.5089940
},
{
  "type": "node",
  "id": 1290692812,
  "lat": 46.9377890,
  "lon": -1.5094170
},
{
  "type": "node",
  "id": 1290693301,
  "lat": 46.9377480,
  "lon": -1.5092600
},
{
  "type": "node",
  "id": 5902061217,
  "lat": 46.9376927,
  "lon": -1.5092541
},
{
  "type": "node",
  "id": 5902061218,
  "lat": 46.9378099,
  "lon": -1.5093731
},
{
  "type": "node",
  "id": 5902061219,
  "lat": 46.9376789,
  "lon": -1.5090888
},
{
  "type": "node",
  "id": 5902061223,
  "lat": 46.9375720,
  "lon": -1.5093297
},
{
  "type": "node",
  "id": 897491087,
  "lat": 46.9742477,
  "lon": -1.3132721
},
{
  "type": "node",
  "id": 897498472,
  "lat": 46.9741215,
  "lon": -1.3132365
},
{
  "type": "node",
  "id": 897522587,
  "lat": 46.9741611,
  "lon": -1.3133391
},
{
  "type": "node",
  "id": 897524215,
  "lat": 46.9741827,
  "lon": -1.3131873
},
{
  "type": "node",
  "id": 897525677,
  "lat": 46.9742093,
  "lon": -1.3131652
},
{
  "type": "node",
  "id": 897527249,
  "lat": 46.9741620,
  "lon": -1.3133417
},
{
  "type": "node",
  "id": 897537603,
  "lat": 46.9742182,
  "lon": -1.3131881
},
{
  "type": "node",
  "id": 870713713,
  "lat": 47.0977108,
  "lon": -1.6375257
},
{
  "type": "node",
  "id": 870728034,
  "lat": 47.0977501,
  "lon": -1.6374919
},
{
  "type": "node",
  "id": 870732015,
  "lat": 47.0977151,
  "lon": -1.6374826
},
{
  "type": "node",
  "id": 870742333,
  "lat": 47.0975899,
  "lon": -1.6374953
},
{
  "type": "node",
  "id": 870746303,
  "lat": 47.0977023,
  "lon": -1.6376737
},
{
  "type": "node",
  "id": 870755889,
  "lat": 47.0977269,
  "lon": -1.6376558
},
{
  "type": "node",
  "id": 870760088,
  "lat": 47.0977032,
  "lon": -1.6376662
},
{
  "type": "node",
  "id": 870778070,
  "lat": 47.0975243,
  "lon": -1.6375481
},
{
  "type": "node",
  "id": 870779580,
  "lat": 47.0977246,
  "lon": -1.6376706
},
{
  "type": "node",
  "id": 870780669,
  "lat": 47.0975388,
  "lon": -1.6373999
},
{
  "type": "node",
  "id": 870784063,
  "lat": 47.0977406,
  "lon": -1.6375461
},
{
  "type": "node",
  "id": 4050246891,
  "lat": 47.0975969,
  "lon": -1.6374160
},
{
  "type": "node",
  "id": 4408046336,
  "lat": 47.0975291,
  "lon": -1.6375488
},
{
  "type": "node",
  "id": 4408046337,
  "lat": 47.0975228,
  "lon": -1.6375954
},
{
  "type": "node",
  "id": 6179017843,
  "lat": 47.0975199,
  "lon": -1.6376217
},
{
  "type": "node",
  "id": 365275978,
  "lat": 47.2016010,
  "lon": -1.5774744
},
{
  "type": "node",
  "id": 365275980,
  "lat": 47.2017108,
  "lon": -1.5774058
},
{
  "type": "node",
  "id": 365275982,
  "lat": 47.2016222,
  "lon": -1.5772508
},
{
  "type": "node",
  "id": 365275985,
  "lat": 47.2015346,
  "lon": -1.5773691
},
{
  "type": "node",
  "id": 1853707618,
  "lat": 47.2016462,
  "lon": -1.5774134
},
{
  "type": "node",
  "id": 1853707619,
  "lat": 47.2016722,
  "lon": -1.5774568
},
{
  "type": "node",
  "id": 4867950141,
  "lat": 47.2016108,
  "lon": -1.5774612
},
{
  "type": "node",
  "id": 4867950153,
  "lat": 47.2016925,
  "lon": -1.5774299
},
{
  "type": "node",
  "id": 4867950288,
  "lat": 47.2015452,
  "lon": -1.5773554
},
{
  "type": "node",
  "id": 4867950291,
  "lat": 47.2016573,
  "lon": -1.5774319
},
{
  "type": "node",
  "id": 4867950292,
  "lat": 47.2016585,
  "lon": -1.5773146
},
{
  "type": "node",
  "id": 4867950311,
  "lat": 47.2015533,
  "lon": -1.5773393
},
{
  "type": "node",
  "id": 4867950312,
  "lat": 47.2015552,
  "lon": -1.5773426
},
{
  "type": "node",
  "id": 4949161975,
  "lat": 47.2015439,
  "lon": -1.5773571
},
{
  "type": "node",
  "id": 3258693750,
  "lat": 47.1916222,
  "lon": -1.5646740
},
{
  "type": "node",
  "id": 4510762909,
  "lat": 47.1916101,
  "lon": -1.5648342
},
{
  "type": "node",
  "id": 4510762910,
  "lat": 47.1919770,
  "lon": -1.5648939
},
{
  "type": "node",
  "id": 4510762911,
  "lat": 47.1919891,
  "lon": -1.5647337
},
{
  "type": "node",
  "id": 926743742,
  "lat": 47.1345529,
  "lon": -1.3302428
},
{
  "type": "node",
  "id": 926747192,
  "lat": 47.1346845,
  "lon": -1.3300424
},
{
  "type": "node",
  "id": 926748993,
  "lat": 47.1342794,
  "lon": -1.3299096
},
{
  "type": "node",
  "id": 926750578,
  "lat": 47.1346271,
  "lon": -1.3302064
},
{
  "type": "node",
  "id": 926753475,
  "lat": 47.1342938,
  "lon": -1.3298703
},
{
  "type": "node",
  "id": 926755695,
  "lat": 47.1344062,
  "lon": -1.3297545
},
{
  "type": "node",
  "id": 926758196,
  "lat": 47.1342608,
  "lon": -1.3299288
},
{
  "type": "node",
  "id": 926760212,
  "lat": 47.1345605,
  "lon": -1.3302582
},
{
  "type": "node",
  "id": 926761598,
  "lat": 47.1344718,
  "lon": -1.3302565
},
{
  "type": "node",
  "id": 926762047,
  "lat": 47.1342725,
  "lon": -1.3298963
},
{
  "type": "node",
  "id": 926764533,
  "lat": 47.1344519,
  "lon": -1.3298487
},
{
  "type": "node",
  "id": 926766977,
  "lat": 47.1342949,
  "lon": -1.3299962
},
{
  "type": "node",
  "id": 926768858,
  "lat": 47.1343951,
  "lon": -1.3301065
},
{
  "type": "node",
  "id": 926770611,
  "lat": 47.1344128,
  "lon": -1.3300901
},
{
  "type": "node",
  "id": 926772610,
  "lat": 47.1346331,
  "lon": -1.3301565
},
{
  "type": "node",
  "id": 926777978,
  "lat": 47.1343381,
  "lon": -1.3299521
},
{
  "type": "node",
  "id": 926778352,
  "lat": 47.1346473,
  "lon": -1.3301878
},
{
  "type": "node",
  "id": 926781717,
  "lat": 47.1344446,
  "lon": -1.3302039
},
{
  "type": "node",
  "id": 926782582,
  "lat": 47.1346358,
  "lon": -1.3300912
},
{
  "type": "node",
  "id": 926783937,
  "lat": 47.1344924,
  "lon": -1.3302351
},
{
  "type": "node",
  "id": 926785455,
  "lat": 47.1345444,
  "lon": -1.3297549
},
{
  "type": "node",
  "id": 926786605,
  "lat": 47.1344658,
  "lon": -1.3302460
},
{
  "type": "node",
  "id": 926787664,
  "lat": 47.1346558,
  "lon": -1.3301324
},
{
  "type": "node",
  "id": 4729296269,
  "lat": 47.1344100,
  "lon": -1.3301359
},
{
  "type": "node",
  "id": 4729296271,
  "lat": 47.1344202,
  "lon": -1.3301560
},
{
  "type": "node",
  "id": 4729296273,
  "lat": 47.1344327,
  "lon": -1.3301805
},
{
  "type": "node",
  "id": 4729296284,
  "lat": 47.1345013,
  "lon": -1.3302367
},
{
  "type": "node",
  "id": 4729296286,
  "lat": 47.1345676,
  "lon": -1.3302666
},
{
  "type": "node",
  "id": 4729296288,
  "lat": 47.1345893,
  "lon": -1.3302440
},
{
  "type": "node",
  "id": 4729296490,
  "lat": 47.1346078,
  "lon": -1.3302275
},
{
  "type": "node",
  "id": 4729296491,
  "lat": 47.1346237,
  "lon": -1.3302099
},
{
  "type": "node",
  "id": 934996871,
  "lat": 47.1640463,
  "lon": -1.2682377
},
{
  "type": "node",
  "id": 934998818,
  "lat": 47.1641619,
  "lon": -1.2682811
},
{
  "type": "node",
  "id": 935007218,
  "lat": 47.1642807,
  "lon": -1.2683126
},
{
  "type": "node",
  "id": 935019608,
  "lat": 47.1641204,
  "lon": -1.2682075
},
{
  "type": "node",
  "id": 935034145,
  "lat": 47.1641442,
  "lon": -1.2684211
},
{
  "type": "node",
  "id": 935045831,
  "lat": 47.1641012,
  "lon": -1.2684367
},
{
  "type": "node",
  "id": 935085955,
  "lat": 47.1640580,
  "lon": -1.2683028
},
{
  "type": "node",
  "id": 935095310,
  "lat": 47.1642654,
  "lon": -1.2682372
},
{
  "type": "node",
  "id": 935120447,
  "lat": 47.1641463,
  "lon": -1.2681965
},
{
  "type": "node",
  "id": 935129478,
  "lat": 47.1641357,
  "lon": -1.2683743
},
{
  "type": "node",
  "id": 935159103,
  "lat": 47.1640758,
  "lon": -1.2682962
},
{
  "type": "node",
  "id": 1133808010,
  "lat": 47.2070170,
  "lon": -1.5713298
},
{
  "type": "node",
  "id": 1133808012,
  "lat": 47.2063846,
  "lon": -1.5721926
},
{
  "type": "node",
  "id": 1133808014,
  "lat": 47.2069349,
  "lon": -1.5712431
},
{
  "type": "node",
  "id": 1133808017,
  "lat": 47.2071596,
  "lon": -1.5710505
},
{
  "type": "node",
  "id": 1133808021,
  "lat": 47.2070675,
  "lon": -1.5711117
},
{
  "type": "node",
  "id": 1133808022,
  "lat": 47.2062898,
  "lon": -1.5722785
},
{
  "type": "node",
  "id": 1133808023,
  "lat": 47.2062498,
  "lon": -1.5722141
},
{
  "type": "node",
  "id": 1133808024,
  "lat": 47.2071048,
  "lon": -1.5711841
},
{
  "type": "node",
  "id": 1133808025,
  "lat": 47.2064793,
  "lon": -1.5720746
},
{
  "type": "node",
  "id": 1133808027,
  "lat": 47.2064028,
  "lon": -1.5719620
},
{
  "type": "node",
  "id": 1133808031,
  "lat": 47.2063226,
  "lon": -1.5720800
},
{
  "type": "node",
  "id": 5557007660,
  "lat": 47.2070582,
  "lon": -1.5712675
},
{
  "type": "node",
  "id": 5557007661,
  "lat": 47.2070008,
  "lon": -1.5711730
},
{
  "type": "node",
  "id": 5600903589,
  "lat": 47.2069957,
  "lon": -1.5713667
},
{
  "type": "node",
  "id": 315963693,
  "lat": 47.2127382,
  "lon": -1.5668504
},
{
  "type": "node",
  "id": 616711793,
  "lat": 47.2126731,
  "lon": -1.5668492
},
{
  "type": "node",
  "id": 616711794,
  "lat": 47.2126727,
  "lon": -1.5669027
},
{
  "type": "node",
  "id": 616711798,
  "lat": 47.2126340,
  "lon": -1.5669020
},
{
  "type": "node",
  "id": 616711799,
  "lat": 47.2125860,
  "lon": -1.5666704
},
{
  "type": "node",
  "id": 616711800,
  "lat": 47.2125778,
  "lon": -1.5666633
},
{
  "type": "node",
  "id": 616711801,
  "lat": 47.2125717,
  "lon": -1.5666516
},
{
  "type": "node",
  "id": 616711802,
  "lat": 47.2125719,
  "lon": -1.5666352
},
{
  "type": "node",
  "id": 616711803,
  "lat": 47.2125602,
  "lon": -1.5666349
},
{
  "type": "node",
  "id": 616711804,
  "lat": 47.2126995,
  "lon": -1.5666431
},
{
  "type": "node",
  "id": 616711805,
  "lat": 47.2126985,
  "lon": -1.5667617
},
{
  "type": "node",
  "id": 616711807,
  "lat": 47.2125610,
  "lon": -1.5665415
},
{
  "type": "node",
  "id": 616711808,
  "lat": 47.2125963,
  "lon": -1.5665421
},
{
  "type": "node",
  "id": 616711811,
  "lat": 47.2126963,
  "lon": -1.5664800
},
{
  "type": "node",
  "id": 616711812,
  "lat": 47.2127150,
  "lon": -1.5664931
},
{
  "type": "node",
  "id": 616711813,
  "lat": 47.2127233,
  "lon": -1.5665123
},
{
  "type": "node",
  "id": 616711815,
  "lat": 47.2127268,
  "lon": -1.5665451
},
{
  "type": "node",
  "id": 616711816,
  "lat": 47.2127473,
  "lon": -1.5665455
},
{
  "type": "node",
  "id": 616711817,
  "lat": 47.2127412,
  "lon": -1.5665588
},
{
  "type": "node",
  "id": 616711818,
  "lat": 47.2127472,
  "lon": -1.5665589
},
{
  "type": "node",
  "id": 616711819,
  "lat": 47.2127404,
  "lon": -1.5666438
},
{
  "type": "node",
  "id": 616711820,
  "lat": 47.2127389,
  "lon": -1.5667625
},
{
  "type": "node",
  "id": 3473552411,
  "lat": 47.2125840,
  "lon": -1.5669011
},
{
  "type": "node",
  "id": 3473552414,
  "lat": 47.2126522,
  "lon": -1.5669024
},
{
  "type": "node",
  "id": 3473552420,
  "lat": 47.2127076,
  "lon": -1.5664879
},
{
  "type": "node",
  "id": 3473552424,
  "lat": 47.2127190,
  "lon": -1.5667621
},
{
  "type": "node",
  "id": 315963695,
  "lat": 47.2126277,
  "lon": -1.5660361
},
{
  "type": "node",
  "id": 315963697,
  "lat": 47.2127406,
  "lon": -1.5662499
},
{
  "type": "node",
  "id": 616711806,
  "lat": 47.2125263,
  "lon": -1.5662452
},
{
  "type": "node",
  "id": 616711809,
  "lat": 47.2125988,
  "lon": -1.5662465
},
{
  "type": "node",
  "id": 616711810,
  "lat": 47.2126982,
  "lon": -1.5662491
},
{
  "type": "node",
  "id": 616711821,
  "lat": 47.2124470,
  "lon": -1.5661166
},
{
  "type": "node",
  "id": 616711822,
  "lat": 47.2124470,
  "lon": -1.5661107
},
{
  "type": "node",
  "id": 616711823,
  "lat": 47.2124349,
  "lon": -1.5661104
},
{
  "type": "node",
  "id": 616711824,
  "lat": 47.2124350,
  "lon": -1.5661034
},
{
  "type": "node",
  "id": 616711825,
  "lat": 47.2124386,
  "lon": -1.5661035
},
{
  "type": "node",
  "id": 616711826,
  "lat": 47.2125272,
  "lon": -1.5661468
},
{
  "type": "node",
  "id": 616711827,
  "lat": 47.2125326,
  "lon": -1.5661469
},
{
  "type": "node",
  "id": 616711828,
  "lat": 47.2125329,
  "lon": -1.5661130
},
{
  "type": "node",
  "id": 616711830,
  "lat": 47.2125101,
  "lon": -1.5661126
},
{
  "type": "node",
  "id": 616711831,
  "lat": 47.2124910,
  "lon": -1.5661191
},
{
  "type": "node",
  "id": 616711832,
  "lat": 47.2125100,
  "lon": -1.5661194
},
{
  "type": "node",
  "id": 616711833,
  "lat": 47.2124911,
  "lon": -1.5661120
},
{
  "type": "node",
  "id": 616711834,
  "lat": 47.2124637,
  "lon": -1.5661114
},
{
  "type": "node",
  "id": 616711835,
  "lat": 47.2124637,
  "lon": -1.5661169
},
{
  "type": "node",
  "id": 616711836,
  "lat": 47.2124399,
  "lon": -1.5659588
},
{
  "type": "node",
  "id": 616711837,
  "lat": 47.2124379,
  "lon": -1.5659587
},
{
  "type": "node",
  "id": 616711839,
  "lat": 47.2124380,
  "lon": -1.5659504
},
{
  "type": "node",
  "id": 616711840,
  "lat": 47.2124472,
  "lon": -1.5659505
},
{
  "type": "node",
  "id": 616711841,
  "lat": 47.2124472,
  "lon": -1.5659467
},
{
  "type": "node",
  "id": 616711842,
  "lat": 47.2124660,
  "lon": -1.5659470
},
{
  "type": "node",
  "id": 616711843,
  "lat": 47.2124659,
  "lon": -1.5659556
},
{
  "type": "node",
  "id": 616711844,
  "lat": 47.2124915,
  "lon": -1.5659561
},
{
  "type": "node",
  "id": 616711845,
  "lat": 47.2124915,
  "lon": -1.5659466
},
{
  "type": "node",
  "id": 616711846,
  "lat": 47.2125101,
  "lon": -1.5659469
},
{
  "type": "node",
  "id": 616711847,
  "lat": 47.2125100,
  "lon": -1.5659534
},
{
  "type": "node",
  "id": 616711849,
  "lat": 47.2126289,
  "lon": -1.5659569
},
{
  "type": "node",
  "id": 616711850,
  "lat": 47.2125874,
  "lon": -1.5660354
},
{
  "type": "node",
  "id": 616711851,
  "lat": 47.2125875,
  "lon": -1.5660240
},
{
  "type": "node",
  "id": 616711852,
  "lat": 47.2125679,
  "lon": -1.5660236
},
{
  "type": "node",
  "id": 616711853,
  "lat": 47.2125672,
  "lon": -1.5661086
},
{
  "type": "node",
  "id": 616711854,
  "lat": 47.2126269,
  "lon": -1.5661097
},
{
  "type": "node",
  "id": 616711855,
  "lat": 47.2126270,
  "lon": -1.5661027
},
{
  "type": "node",
  "id": 616711856,
  "lat": 47.2126685,
  "lon": -1.5661035
},
{
  "type": "node",
  "id": 616711857,
  "lat": 47.2126685,
  "lon": -1.5661099
},
{
  "type": "node",
  "id": 616711858,
  "lat": 47.2126944,
  "lon": -1.5661104
},
{
  "type": "node",
  "id": 616711859,
  "lat": 47.2126940,
  "lon": -1.5661509
},
{
  "type": "node",
  "id": 616711860,
  "lat": 47.2127414,
  "lon": -1.5661518
},
{
  "type": "node",
  "id": 1564389553,
  "lat": 47.2123018,
  "lon": -1.5649044
},
{
  "type": "node",
  "id": 1564389554,
  "lat": 47.2123493,
  "lon": -1.5647648
},
{
  "type": "node",
  "id": 1564389555,
  "lat": 47.2124123,
  "lon": -1.5648112
},
{
  "type": "node",
  "id": 1564389557,
  "lat": 47.2124299,
  "lon": -1.5645285
},
{
  "type": "node",
  "id": 1564389559,
  "lat": 47.2124768,
  "lon": -1.5643879
},
{
  "type": "node",
  "id": 1564389561,
  "lat": 47.2124927,
  "lon": -1.5645747
},
{
  "type": "node",
  "id": 1564389568,
  "lat": 47.2126922,
  "lon": -1.5651916
},
{
  "type": "node",
  "id": 1564389569,
  "lat": 47.2127327,
  "lon": -1.5650710
},
{
  "type": "node",
  "id": 1564389571,
  "lat": 47.2127805,
  "lon": -1.5651058
},
{
  "type": "node",
  "id": 1564389574,
  "lat": 47.2128280,
  "lon": -1.5647971
},
{
  "type": "node",
  "id": 1564389575,
  "lat": 47.2128666,
  "lon": -1.5646818
},
{
  "type": "node",
  "id": 1564389577,
  "lat": 47.2128691,
  "lon": -1.5648270
},
{
  "type": "node",
  "id": 3473536005,
  "lat": 47.2125040,
  "lon": -1.5659468
},
{
  "type": "node",
  "id": 3473552169,
  "lat": 47.2124397,
  "lon": -1.5659813
},
{
  "type": "node",
  "id": 3473552177,
  "lat": 47.2124756,
  "lon": -1.5661117
},
{
  "type": "node",
  "id": 3473552406,
  "lat": 47.2125327,
  "lon": -1.5661339
},
{
  "type": "node",
  "id": 3473552412,
  "lat": 47.2126185,
  "lon": -1.5660359
},
{
  "type": "node",
  "id": 3473552413,
  "lat": 47.2126177,
  "lon": -1.5661095
},
{
  "type": "node",
  "id": 3473552418,
  "lat": 47.2126942,
  "lon": -1.5661319
},
{
  "type": "node",
  "id": 3887005297,
  "lat": 47.2127910,
  "lon": -1.5650743
},
{
  "type": "node",
  "id": 3887005298,
  "lat": 47.2127993,
  "lon": -1.5650803
},
{
  "type": "node",
  "id": 3887005299,
  "lat": 47.2128596,
  "lon": -1.5648554
},
{
  "type": "node",
  "id": 3887005300,
  "lat": 47.2128717,
  "lon": -1.5648642
},
{
  "type": "node",
  "id": 4524050786,
  "lat": 47.2124642,
  "lon": -1.5646584
},
{
  "type": "node",
  "id": 4524050787,
  "lat": 47.2124502,
  "lon": -1.5646997
},
{
  "type": "node",
  "id": 4524050788,
  "lat": 47.2124362,
  "lon": -1.5647410
},
{
  "type": "node",
  "id": 4524065095,
  "lat": 47.2127642,
  "lon": -1.5646046
},
{
  "type": "node",
  "id": 4524065096,
  "lat": 47.2125905,
  "lon": -1.5651168
},
{
  "type": "node",
  "id": 4524065097,
  "lat": 47.2126352,
  "lon": -1.5649838
},
{
  "type": "node",
  "id": 4524065098,
  "lat": 47.2127176,
  "lon": -1.5647382
},
{
  "type": "node",
  "id": 4524065099,
  "lat": 47.2126656,
  "lon": -1.5647004
},
{
  "type": "node",
  "id": 4524065100,
  "lat": 47.2125831,
  "lon": -1.5649459
},
{
  "type": "node",
  "id": 990394669,
  "lat": 47.2190928,
  "lon": -1.5482163
},
{
  "type": "node",
  "id": 990395751,
  "lat": 47.2190299,
  "lon": -1.5484236
},
{
  "type": "node",
  "id": 990397552,
  "lat": 47.2191006,
  "lon": -1.5475514
},
{
  "type": "node",
  "id": 990397887,
  "lat": 47.2191600,
  "lon": -1.5484413
},
{
  "type": "node",
  "id": 990399164,
  "lat": 47.2190681,
  "lon": -1.5481987
},
{
  "type": "node",
  "id": 990399283,
  "lat": 47.2190078,
  "lon": -1.5483032
},
{
  "type": "node",
  "id": 990402115,
  "lat": 47.2192163,
  "lon": -1.5484771
},
{
  "type": "node",
  "id": 990406630,
  "lat": 47.2191405,
  "lon": -1.5481573
},
{
  "type": "node",
  "id": 990407192,
  "lat": 47.2190706,
  "lon": -1.5481934
},
{
  "type": "node",
  "id": 990411257,
  "lat": 47.2192373,
  "lon": -1.5484136
},
{
  "type": "node",
  "id": 990416373,
  "lat": 47.2191744,
  "lon": -1.5484459
},
{
  "type": "node",
  "id": 990417297,
  "lat": 47.2191217,
  "lon": -1.5482055
},
{
  "type": "node",
  "id": 990423079,
  "lat": 47.2190113,
  "lon": -1.5484663
},
{
  "type": "node",
  "id": 990427843,
  "lat": 47.2191005,
  "lon": -1.5486223
},
{
  "type": "node",
  "id": 990431638,
  "lat": 47.2192242,
  "lon": -1.5484512
},
{
  "type": "node",
  "id": 1559753207,
  "lat": 47.2191446,
  "lon": -1.5474376
},
{
  "type": "node",
  "id": 1559753211,
  "lat": 47.2192011,
  "lon": -1.5473115
},
{
  "type": "node",
  "id": 1559753213,
  "lat": 47.2191912,
  "lon": -1.5473174
},
{
  "type": "node",
  "id": 1559753215,
  "lat": 47.2191968,
  "lon": -1.5473219
},
{
  "type": "node",
  "id": 1559753222,
  "lat": 47.2192594,
  "lon": -1.5473585
},
{
  "type": "node",
  "id": 1559753232,
  "lat": 47.2193631,
  "lon": -1.5468936
},
{
  "type": "node",
  "id": 1559753233,
  "lat": 47.2193664,
  "lon": -1.5468853
},
{
  "type": "node",
  "id": 1559753234,
  "lat": 47.2193590,
  "lon": -1.5468791
},
{
  "type": "node",
  "id": 1559753244,
  "lat": 47.2194203,
  "lon": -1.5467478
},
{
  "type": "node",
  "id": 1559753246,
  "lat": 47.2194240,
  "lon": -1.5467381
},
{
  "type": "node",
  "id": 1559753248,
  "lat": 47.2194124,
  "lon": -1.5467413
},
{
  "type": "node",
  "id": 1559753249,
  "lat": 47.2194219,
  "lon": -1.5469434
},
{
  "type": "node",
  "id": 1559753250,
  "lat": 47.2194913,
  "lon": -1.5467852
},
{
  "type": "node",
  "id": 1559753251,
  "lat": 47.2194889,
  "lon": -1.5467915
},
{
  "type": "node",
  "id": 1559753252,
  "lat": 47.2196042,
  "lon": -1.5468782
},
{
  "type": "node",
  "id": 1559753253,
  "lat": 47.2196002,
  "lon": -1.5468887
},
{
  "type": "node",
  "id": 1559753262,
  "lat": 47.2196662,
  "lon": -1.5469431
},
{
  "type": "node",
  "id": 1559753263,
  "lat": 47.2196627,
  "lon": -1.5469523
},
{
  "type": "node",
  "id": 1559753270,
  "lat": 47.2198307,
  "lon": -1.5478343
},
{
  "type": "node",
  "id": 1559753272,
  "lat": 47.2198372,
  "lon": -1.5478393
},
{
  "type": "node",
  "id": 1559753274,
  "lat": 47.2199294,
  "lon": -1.5471719
},
{
  "type": "node",
  "id": 1559753280,
  "lat": 47.2199344,
  "lon": -1.5471588
},
{
  "type": "node",
  "id": 1559753282,
  "lat": 47.2199807,
  "lon": -1.5474138
},
{
  "type": "node",
  "id": 1559753284,
  "lat": 47.2199834,
  "lon": -1.5474158
},
{
  "type": "node",
  "id": 2920585328,
  "lat": 47.2197818,
  "lon": -1.5479946
},
{
  "type": "node",
  "id": 2920585330,
  "lat": 47.2200380,
  "lon": -1.5472441
},
{
  "type": "node",
  "id": 2920585331,
  "lat": 47.2200384,
  "lon": -1.5472616
},
{
  "type": "node",
  "id": 2921526030,
  "lat": 47.2190470,
  "lon": -1.5482062
},
{
  "type": "node",
  "id": 2921526031,
  "lat": 47.2190497,
  "lon": -1.5482112
},
{
  "type": "node",
  "id": 3679607286,
  "lat": 47.2199108,
  "lon": -1.5476097
},
{
  "type": "node",
  "id": 4743421116,
  "lat": 47.2192024,
  "lon": -1.5473126
},
{
  "type": "node",
  "id": 4743425122,
  "lat": 47.2192392,
  "lon": -1.5473426
},
{
  "type": "node",
  "id": 4743425137,
  "lat": 47.2193397,
  "lon": -1.5471534
},
{
  "type": "node",
  "id": 4964404711,
  "lat": 47.2192295,
  "lon": -1.5473347
},
{
  "type": "node",
  "id": 4964404712,
  "lat": 47.2193919,
  "lon": -1.5469180
},
{
  "type": "node",
  "id": 4964406296,
  "lat": 47.2193749,
  "lon": -1.5469036
},
{
  "type": "node",
  "id": 4964406303,
  "lat": 47.2192127,
  "lon": -1.5473210
},
{
  "type": "node",
  "id": 4994922260,
  "lat": 47.2192028,
  "lon": -1.5484681
},
{
  "type": "node",
  "id": 4994922261,
  "lat": 47.2191332,
  "lon": -1.5485189
},
{
  "type": "node",
  "id": 4994922262,
  "lat": 47.2191064,
  "lon": -1.5486094
},
{
  "type": "node",
  "id": 4994922263,
  "lat": 47.2194407,
  "lon": -1.5482596
},
{
  "type": "node",
  "id": 4994922264,
  "lat": 47.2193937,
  "lon": -1.5482216
},
{
  "type": "node",
  "id": 4994922265,
  "lat": 47.2193891,
  "lon": -1.5482343
},
{
  "type": "node",
  "id": 4994922266,
  "lat": 47.2193644,
  "lon": -1.5482137
},
{
  "type": "node",
  "id": 4994922267,
  "lat": 47.2194360,
  "lon": -1.5482729
},
{
  "type": "node",
  "id": 4994922268,
  "lat": 47.2194911,
  "lon": -1.5478800
},
{
  "type": "node",
  "id": 4994922269,
  "lat": 47.2193973,
  "lon": -1.5481295
},
{
  "type": "node",
  "id": 4994922270,
  "lat": 47.2190063,
  "lon": -1.5477981
},
{
  "type": "node",
  "id": 4994922271,
  "lat": 47.2191734,
  "lon": -1.5481025
},
{
  "type": "node",
  "id": 4994922272,
  "lat": 47.2191502,
  "lon": -1.5481481
},
{
  "type": "node",
  "id": 4994922273,
  "lat": 47.2191548,
  "lon": -1.5481453
},
{
  "type": "node",
  "id": 4994922274,
  "lat": 47.2191361,
  "lon": -1.5481700
},
{
  "type": "node",
  "id": 4994922275,
  "lat": 47.2191049,
  "lon": -1.5482118
},
{
  "type": "node",
  "id": 4994922276,
  "lat": 47.2190191,
  "lon": -1.5482899
},
{
  "type": "node",
  "id": 4994922277,
  "lat": 47.2190138,
  "lon": -1.5482848
},
{
  "type": "node",
  "id": 4994922278,
  "lat": 47.2190548,
  "lon": -1.5481842
},
{
  "type": "node",
  "id": 4994922279,
  "lat": 47.2190464,
  "lon": -1.5483995
},
{
  "type": "node",
  "id": 4994922280,
  "lat": 47.2189912,
  "lon": -1.5485222
},
{
  "type": "node",
  "id": 4994922281,
  "lat": 47.2190494,
  "lon": -1.5483356
},
{
  "type": "node",
  "id": 4994922282,
  "lat": 47.2190593,
  "lon": -1.5483608
},
{
  "type": "node",
  "id": 4994922283,
  "lat": 47.2190403,
  "lon": -1.5483956
},
{
  "type": "node",
  "id": 4994922284,
  "lat": 47.2189864,
  "lon": -1.5485316
},
{
  "type": "node",
  "id": 4994922285,
  "lat": 47.2193013,
  "lon": -1.5482532
},
{
  "type": "node",
  "id": 4994922286,
  "lat": 47.2192823,
  "lon": -1.5483080
},
{
  "type": "node",
  "id": 4994922287,
  "lat": 47.2192611,
  "lon": -1.5483526
},
{
  "type": "node",
  "id": 4994922288,
  "lat": 47.2192273,
  "lon": -1.5484525
},
{
  "type": "node",
  "id": 4994922292,
  "lat": 47.2191315,
  "lon": -1.5474725
},
{
  "type": "node",
  "id": 4994922294,
  "lat": 47.2189592,
  "lon": -1.5479181
},
{
  "type": "node",
  "id": 4994922295,
  "lat": 47.2193089,
  "lon": -1.5482203
},
{
  "type": "node",
  "id": 4994922296,
  "lat": 47.2193225,
  "lon": -1.5481817
},
{
  "type": "node",
  "id": 4994922298,
  "lat": 47.2195458,
  "lon": -1.5483642
},
{
  "type": "node",
  "id": 4994922300,
  "lat": 47.2196369,
  "lon": -1.5483920
},
{
  "type": "node",
  "id": 4994922302,
  "lat": 47.2195615,
  "lon": -1.5483209
},
{
  "type": "node",
  "id": 5394657387,
  "lat": 47.2197441,
  "lon": -1.5480886
},
{
  "type": "node",
  "id": 5394657388,
  "lat": 47.2197724,
  "lon": -1.5479994
},
{
  "type": "node",
  "id": 1568120966,
  "lat": 47.2260414,
  "lon": -1.5545094
},
{
  "type": "node",
  "id": 1568120980,
  "lat": 47.2260511,
  "lon": -1.5545114
},
{
  "type": "node",
  "id": 1568120981,
  "lat": 47.2260504,
  "lon": -1.5545187
},
{
  "type": "node",
  "id": 1568120983,
  "lat": 47.2260744,
  "lon": -1.5541620
},
{
  "type": "node",
  "id": 1568120984,
  "lat": 47.2260897,
  "lon": -1.5544266
},
{
  "type": "node",
  "id": 1568120987,
  "lat": 47.2261149,
  "lon": -1.5541608
},
{
  "type": "node",
  "id": 1568120988,
  "lat": 47.2261140,
  "lon": -1.5541701
},
{
  "type": "node",
  "id": 1568120990,
  "lat": 47.2261091,
  "lon": -1.5542226
},
{
  "type": "node",
  "id": 1568121001,
  "lat": 47.2261793,
  "lon": -1.5541740
},
{
  "type": "node",
  "id": 1568121005,
  "lat": 47.2261868,
  "lon": -1.5540956
},
{
  "type": "node",
  "id": 1568121007,
  "lat": 47.2262264,
  "lon": -1.5544548
},
{
  "type": "node",
  "id": 1568121008,
  "lat": 47.2262459,
  "lon": -1.5542508
},
{
  "type": "node",
  "id": 1568121009,
  "lat": 47.2262583,
  "lon": -1.5545542
},
{
  "type": "node",
  "id": 1568121010,
  "lat": 47.2262453,
  "lon": -1.5545515
},
{
  "type": "node",
  "id": 1568121011,
  "lat": 47.2262446,
  "lon": -1.5545588
},
{
  "type": "node",
  "id": 1568121012,
  "lat": 47.2262834,
  "lon": -1.5541155
},
{
  "type": "node",
  "id": 1568121013,
  "lat": 47.2262759,
  "lon": -1.5541939
},
{
  "type": "node",
  "id": 1568121014,
  "lat": 47.2262922,
  "lon": -1.5541973
},
{
  "type": "node",
  "id": 2924791840,
  "lat": 47.2260500,
  "lon": -1.5544185
},
{
  "type": "node",
  "id": 2924791841,
  "lat": 47.2260695,
  "lon": -1.5542140
},
{
  "type": "node",
  "id": 2924791849,
  "lat": 47.2262670,
  "lon": -1.5544631
},
{
  "type": "node",
  "id": 2924791851,
  "lat": 47.2262864,
  "lon": -1.5542591
},
{
  "type": "node",
  "id": 4850892126,
  "lat": 47.2260900,
  "lon": -1.5541652
},
{
  "type": "node",
  "id": 4850892146,
  "lat": 47.2262890,
  "lon": -1.5542317
},
{
  "type": "node",
  "id": 1425614381,
  "lat": 47.2996757,
  "lon": -1.5124153
},
{
  "type": "node",
  "id": 1425614640,
  "lat": 47.2996860,
  "lon": -1.5125210
},
{
  "type": "node",
  "id": 1425614997,
  "lat": 47.2997630,
  "lon": -1.5125036
},
{
  "type": "node",
  "id": 1425614999,
  "lat": 47.2997530,
  "lon": -1.5126120
},
{
  "type": "node",
  "id": 1425615176,
  "lat": 47.2997710,
  "lon": -1.5126090
},
{
  "type": "node",
  "id": 1425615178,
  "lat": 47.2997690,
  "lon": -1.5128330
},
{
  "type": "node",
  "id": 1425615408,
  "lat": 47.2998010,
  "lon": -1.5123880
},
{
  "type": "node",
  "id": 1425615412,
  "lat": 47.2998050,
  "lon": -1.5124400
},
{
  "type": "node",
  "id": 1425615782,
  "lat": 47.2998420,
  "lon": -1.5124350
},
{
  "type": "node",
  "id": 1425615784,
  "lat": 47.2998260,
  "lon": -1.5128250
},
{
  "type": "node",
  "id": 1425616044,
  "lat": 47.2998720,
  "lon": -1.5125970
},
{
  "type": "node",
  "id": 1425616047,
  "lat": 47.2998530,
  "lon": -1.5126000
},
{
  "type": "node",
  "id": 1425616432,
  "lat": 47.2998840,
  "lon": -1.5128160
},
{
  "type": "node",
  "id": 5965703842,
  "lat": 47.2998472,
  "lon": -1.5125126
},
{
  "type": "node",
  "id": 766049151,
  "lat": 47.2044345,
  "lon": -1.4029740
},
{
  "type": "node",
  "id": 766049280,
  "lat": 47.2042930,
  "lon": -1.4034171
},
{
  "type": "node",
  "id": 766049886,
  "lat": 47.2042222,
  "lon": -1.4033189
},
{
  "type": "node",
  "id": 5961906322,
  "lat": 47.2043776,
  "lon": -1.4030664
},
{
  "type": "node",
  "id": 5961906379,
  "lat": 47.2042579,
  "lon": -1.4033685
},
{
  "type": "node",
  "id": 5965793506,
  "lat": 47.2042851,
  "lon": -1.4032168
},
{
  "type": "node",
  "id": 5965793513,
  "lat": 47.2045071,
  "lon": -1.4030835
},
{
  "type": "way",
  "id": 142974661,
  "nodes": [
    1564389553,
    1564389554,
    1564389555,
    4524050788,
    4524050787,
    4524050786,
    1564389561,
    1564389557,
    1564389559,
    4524065095,
    1564389575,
    1564389574,
    1564389577,
    3887005299,
    3887005300,
    3887005298,
    3887005297,
    1564389571,
    1564389569,
    1564389568,
    4524065096,
    1564389553
  ]
},
{
  "type": "way",
  "id": 456128145,
  "nodes": [
    4524065100,
    4524065099,
    4524065098,
    4524065097,
    4524065100
  ]
},
{
  "type": "way",
  "id": 143297934,
  "nodes": [
    1568121009,
    1568121010,
    1568121011,
    1568120981,
    1568120980,
    1568120966,
    2924791840,
    2924791841,
    1568120983,
    4850892126,
    1568120988,
    1568120987,
    1568121001,
    1568121005,
    1568121012,
    1568121013,
    1568121014,
    4850892146,
    2924791851,
    2924791849,
    1568121009
  ]
},
{
  "type": "way",
  "id": 143297936,
  "nodes": [
    1568121007,
    1568121008,
    1568120990,
    1568120984,
    1568121007
  ]
}

  ]
}
