{
  "version": 0.6,
  "generator": "Overpass API 0.7.55.1011 6c2efc30",
  "osm3s": {
    "timestamp_osm_base": "2020-02-14T11:27:01Z",
    "copyright": "The data included in this document is from www.openstreetmap.org. The data is made available under ODbL."
  },
  "elements": [

{
  "type": "node",
  "id": 259569506,
  "lat": 48.7411344,
  "lon": 16.7567039,
  "tags": {
    "addr:city": "Valtice",
    "addr:housenumber": "8",
    "addr:postcode": "69142",
    "addr:street": "nám. Svobody",
    "name": "Nár. zemědělské muzeum",
    "tourism": "museum"
  }
},
{
  "type": "node",
  "id": 423188490,
  "lat": 48.6971810,
  "lon": 16.6802655,
  "tags": {
    "addr:city": "Herrenbaumgarten",
    "addr:country": "AT",
    "addr:housenumber": "9",
    "addr:postcode": "2171",
    "addr:street": "Poysbrunner Straße",
    "email": "info@nonseum.at",
    "name": "Nonseum",
    "operator": "Verein zur Verwertung von Gedankenüberschüssen",
    "phone": "+43 2555 2737",
    "tourism": "museum",
    "website": "www.nonseum.at",
    "wikidata": "Q1369348",
    "wikipedia": "de:Nonseum"
  }
},
{
  "type": "node",
  "id": 583816850,
  "lat": 48.8879920,
  "lon": 16.6436987,
  "tags": {
    "charge": "40 CZK/person; 20 CZK/discount; 90 CZK/family",
    "fee": "yes",
    "name": "Život pod Pálavou",
    "opening_hours": "Apr,Oct Sa,Su 09:00-16:00; May-Jun Tu-Su 09:00-18:00; Jul-Aug 09:00-18:00; Mo-Su 12:00-12:30 off",
    "tourism": "museum",
    "url": "http://www.rmm.cz/czech/expozice.html#vestonice"
  }
},
{
  "type": "node",
  "id": 1108261220,
  "lat": 48.7575454,
  "lon": 16.8899729,
  "tags": {
    "name": "Galerie 99",
    "tourism": "museum"
  }
},
{
  "type": "node",
  "id": 1191308431,
  "lat": 48.9890168,
  "lon": 16.7879129,
  "tags": {
    "addr:conscriptionnumber": "57",
    "addr:country": "CZ",
    "addr:housenumber": "57",
    "addr:place": "Diváky",
    "addr:postcode": "69171",
    "is_in": "Diváky, Jihomoravský kraj, CZ",
    "name": "Památník Bratři Mrštíků",
    "source": "Local knowledge",
    "tourism": "museum"
  }
},
{
  "type": "node",
  "id": 1191431871,
  "lat": 48.9327175,
  "lon": 16.8905113,
  "tags": {
    "addr:conscriptionnumber": "135",
    "addr:country": "CZ",
    "addr:housenumber": "135",
    "addr:place": "Kobylí",
    "addr:postcode": "69110",
    "name": "Muzeum obce Kobylí",
    "opening_hours": "Tu-Su 10:00-17:00",
    "ref:ruian:addr": "26958121",
    "tourism": "museum"
  }
},
{
  "type": "node",
  "id": 1319871254,
  "lat": 49.0904103,
  "lon": 16.6155404,
  "tags": {
    "name": "Památník písemnictví na Moravě",
    "source": "survey",
    "tourism": "museum"
  }
},
{
  "type": "node",
  "id": 1511582322,
  "lat": 48.8066711,
  "lon": 16.6392524,
  "tags": {
    "name": "Dietrichsteinská hrobka",
    "tourism": "museum",
    "website": "http://www.mikulov.cz/turistika/pamatky-a-prohlidkove-objekty/dietrichsteinska-hrobka/"
  }
},
{
  "type": "node",
  "id": 1575218497,
  "lat": 48.6430462,
  "lon": 16.9030860,
  "tags": {
    "name": "Kulturzentrum",
    "tourism": "museum"
  }
},
{
  "type": "node",
  "id": 1660694183,
  "lat": 48.8462722,
  "lon": 17.2298703,
  "tags": {
    "name": "Záhorske múzeum",
    "tourism": "museum"
  }
},
{
  "type": "node",
  "id": 1861444783,
  "lat": 48.9600934,
  "lon": 17.1378544,
  "tags": {
    "tourism": "museum"
  }
},
{
  "type": "node",
  "id": 1909809173,
  "lat": 48.9013139,
  "lon": 17.3152111,
  "tags": {
    "contact:phone": "+420 5 18334155",
    "contact:website": "http://www.muzeum-straznice.webnode.cz",
    "name": "Městské muzeum ve Strážnici",
    "opening_hours": "Oct-May Tu-Fr 08:00-11:00, 12:00-15:00; Su 13:00-17:00; Jun, Sep Tu-Fr 08:00-11:00, 12:00-15:00; Sa-Su 13:00-17:00; Jul-Aug Tu-Fr 08:00-11:00, 12:00-17:00; Sa-Su 13:00-17:00",
    "tourism": "museum"
  }
},
{
  "type": "node",
  "id": 2363245675,
  "lat": 49.0009550,
  "lon": 17.0310038,
  "tags": {
    "addr:conscriptionnumber": "44",
    "addr:country": "CZ",
    "addr:housenumber": "44",
    "addr:place": "Stavěšice",
    "addr:postcode": "69638",
    "name": "Sál a muzeum obce",
    "operator": "Obec Stavěšice",
    "ref:ruian:addr": "13548344",
    "tourism": "museum"
  }
},
{
  "type": "node",
  "id": 2371551388,
  "lat": 48.8570102,
  "lon": 17.1213579,
  "tags": {
    "name": "Muzeum naftového dobývání a geologie",
    "tourism": "museum",
    "website": "http://mng.webz.cz/"
  }
},
{
  "type": "node",
  "id": 2424684008,
  "lat": 48.9675450,
  "lon": 16.8611252,
  "tags": {
    "name": "Muzeum generálporučíka Františka Peřiny",
    "tourism": "museum",
    "website": "http://www.morkuvky.cz/muzeum-fr-periny/d-1024/p1=1042"
  }
},
{
  "type": "node",
  "id": 2562938228,
  "lat": 48.6492613,
  "lon": 16.6297249,
  "tags": {
    "name": "Weinviertler Bauernmuseum",
    "operator": "Johann Deutner",
    "phone": "0664 4858372",
    "tourism": "museum"
  }
},
{
  "type": "node",
  "id": 2940672491,
  "lat": 48.8167961,
  "lon": 16.6399415,
  "tags": {
    "description": "Kolekce kamenů z různých hornin s popisky",
    "name": "Geopark",
    "tourism": "museum"
  }
},
{
  "type": "node",
  "id": 2992173321,
  "lat": 48.9253506,
  "lon": 17.1725332,
  "tags": {
    "name": "Muzeum ve Vagónu",
    "tourism": "museum",
    "website": "http://www.ratiskovka.com/"
  }
},
{
  "type": "node",
  "id": 3075683846,
  "lat": 48.6971551,
  "lon": 16.6799874,
  "tags": {
    "addr:city": "Herrenbaumgarten",
    "addr:country": "AT",
    "addr:housenumber": "9",
    "addr:postcode": "2171",
    "addr:street": "Poysbrunner Straße",
    "email": "info@nonseum.at",
    "name": "Küchenmuseum",
    "operator": "Dorfmuseumsverein Herrenbaumgarten",
    "phone": "+43 2555 2737",
    "tourism": "museum",
    "website": "www.nonseum.at"
  }
},
{
  "type": "node",
  "id": 3075684594,
  "lat": 48.6972922,
  "lon": 16.6802238,
  "tags": {
    "addr:city": "Herrenbaumgarten",
    "addr:country": "AT",
    "addr:housenumber": "9",
    "addr:postcode": "2171",
    "addr:street": "Poysbrunner Straße",
    "email": "info@nonseum.at",
    "name": "Vermischte Warenhandlung",
    "operator": "Dorfmuseumsverein Herrenbaumgarten",
    "phone": "+43 2555 2737",
    "tourism": "museum",
    "website": "www.nonseum.at"
  }
},
{
  "type": "node",
  "id": 3125747175,
  "lat": 48.8435162,
  "lon": 16.6446268,
  "tags": {
    "name": "Coffee Museum",
    "tourism": "museum",
    "website": "http://www.cafefara.cz"
  }
},
{
  "type": "node",
  "id": 3188359949,
  "lat": 48.7409213,
  "lon": 16.7570460,
  "tags": {
    "name": "Museum of agriculture",
    "note": "přesná pozice???",
    "tourism": "museum"
  }
},
{
  "type": "node",
  "id": 3188359951,
  "lat": 48.7410363,
  "lon": 16.7563701,
  "tags": {
    "addr:city": "Valtice",
    "addr:housenumber": "4",
    "addr:postcode": "69142",
    "addr:street": "nám. Svobody",
    "email": "ladarakovska@seznam.cz",
    "name": "Městské muzeum",
    "opening_hours": "May-Oct: Th-Su 13:00-17:00",
    "phone": "+420 728 578 719",
    "tourism": "museum",
    "website": "https://muzeum.webnode.cz/"
  }
},
{
  "type": "node",
  "id": 3216524564,
  "lat": 48.7585644,
  "lon": 16.8817697,
  "tags": {
    "name": "Lichtenštejnský dům",
    "tourism": "museum"
  }
},
{
  "type": "node",
  "id": 3563086193,
  "lat": 48.7573284,
  "lon": 16.6490712,
  "tags": {
    "name": "Traktorium",
    "tourism": "museum"
  }
},
{
  "type": "node",
  "id": 3667914627,
  "lat": 48.8063921,
  "lon": 16.6390688,
  "tags": {
    "name": "Tajemné sklepení",
    "opening_hours": "Jul-Aug Mo-Su 10:00-17:00; May-Jun Mo-Su 13:00-15:00",
    "tourism": "museum",
    "website": "http://www.tajemnesklepeni.estranky.cz/"
  }
},
{
  "type": "node",
  "id": 3702390342,
  "lat": 48.8622575,
  "lon": 17.0248601,
  "tags": {
    "name": "Muzeum Slovácká chalupa",
    "opening_hours": "Su 15:30-17:30",
    "tourism": "museum"
  }
},
{
  "type": "node",
  "id": 3969471460,
  "lat": 48.8003219,
  "lon": 16.8017930,
  "tags": {
    "name": "Muzeum hraček Lednice",
    "tourism": "museum",
    "website": "http://muzeum-hracek-lednice.cz/"
  }
},
{
  "type": "node",
  "id": 4295036108,
  "lat": 48.8771962,
  "lon": 16.6747336,
  "tags": {
    "addr:city": "Pavlov",
    "addr:housenumber": "264",
    "addr:postcode": "69201",
    "addr:street": "23. dubna",
    "contact:facebook": "https://www.facebook.com/archeoparkpavlov/",
    "contact:instagram": "https://www.instagram.com/archeopark_pavlov/",
    "email": "archeopark@rmm.cz",
    "name": "Archeopark Pavlov",
    "opening_hours": "Apr,Oct: Fr-Su 09:00-16:00; May,Jun,Sep: Tu-Su 09:00-17:00; Jul,Aug: Mo-Su 09:00-18:00",
    "operator": "Regionální muzeum v Mikulově",
    "operator:type": "public",
    "phone": "+420 519 322 126",
    "reservation": "yes",
    "stroller": "yes",
    "tourism": "museum",
    "website": "http://www.archeoparkpavlov.cz/",
    "wheelchair": "yes",
    "wikidata": "Q44850942",
    "wikipedia": "cs:Archeopark Pavlov"
  }
},
{
  "type": "node",
  "id": 4514278444,
  "lat": 48.7367055,
  "lon": 16.7543448,
  "tags": {
    "name": "Zabi Sklep",
    "name:en": "Frog Cellar",
    "opening_hours": "Apr-Nov 10:00-18:00",
    "tourism": "museum"
  }
},
{
  "type": "node",
  "id": 4973883701,
  "lat": 49.0399023,
  "lon": 16.7700076,
  "tags": {
    "name": "Kovárna",
    "source": "survey",
    "tourism": "museum",
    "website": "http://www.technicalmuseum.cz/pamatky/kovarna-tesanech/"
  }
},
{
  "type": "node",
  "id": 5063649176,
  "lat": 48.8806074,
  "lon": 17.1828371,
  "tags": {
    "name": "Obecní muzeum Rohatec",
    "tourism": "museum"
  }
},
{
  "type": "node",
  "id": 5815492654,
  "lat": 48.6674897,
  "lon": 16.6217145,
  "tags": {
    "name": "Traktormuseum",
    "tourism": "museum"
  }
},
{
  "type": "node",
  "id": 6201182299,
  "lat": 48.9890096,
  "lon": 17.1648845,
  "tags": {
    "description": "Příznivce vojenské historie a techniky nadchne expozice ve vlkošském military muzeu, které nese jméno zdejšího rodáka,armádního generála a ministra obrany exilové vlády v Londýně, Sergěje Jana Ingra.",
    "name": "Military muzeum generála Sergěje Jana Ingra Vlkoš",
    "tourism": "museum"
  }
},
{
  "type": "node",
  "id": 6420332977,
  "lat": 48.9447090,
  "lon": 17.1758590,
  "tags": {
    "tourism": "museum"
  }
},
{
  "type": "way",
  "id": 29239092,
  "nodes": [
    387804350,
    387804347,
    321592936,
    321592940,
    387804343,
    387804344,
    387804345,
    387804346,
    321592943,
    321592945,
    321592947,
    321592949,
    387804348,
    387804349,
    387804350
  ],
  "tags": {
    "building": "civic",
    "building:levels": "2",
    "building:ruian:type": "5",
    "name": "Wanieck gallery",
    "ref:ruian:building": "26261391",
    "source": "cuzk:ruian",
    "tourism": "museum"
  }
},
{
  "type": "way",
  "id": 84163492,
  "nodes": [
    979090676,
    979090665,
    979090738,
    979090730,
    3899089984,
    3899089980,
    3899089983,
    979090726,
    3899089985,
    979090719,
    979090714,
    3899089988,
    3899089987,
    3899089989,
    3899089990,
    3899089993,
    3899089992,
    3899089997,
    979090704,
    3899089995,
    3899089996,
    979090721,
    979090686,
    979090718,
    979090705,
    979090702,
    979090690,
    979090683,
    979090676
  ],
  "tags": {
    "amenity": "place_of_worship",
    "building": "church",
    "building:levels": "1",
    "building:ruian:type": "5",
    "contact:phone": "+420 727 914 223",
    "email": "synagoga@rmm.cz",
    "name": "Horní synagoga",
    "opening_hours": "Apr,Oct,Nov Mo-Su 09:00-12:00,13:00-16:00; May,Jun,Sep Tu-Su 09:00-12:00,13:00-17:00; Jul,Aug Mo-Su 09:00-12:00,13:00-18:00",
    "ref:ruian:building": "15203590",
    "religion": "jewish",
    "source": "cuzk:ruian",
    "tourism": "museum"
  }
},
{
  "type": "way",
  "id": 94121682,
  "nodes": [
    1094082907,
    1094082467,
    1094083535,
    1094083940,
    1094082907
  ],
  "tags": {
    "building:part": "yes",
    "name": "Muzeum Brněnska",
    "source": "cuzk:km;uhul:ortofoto",
    "tourism": "museum"
  }
},
{
  "type": "way",
  "id": 106904616,
  "nodes": [
    1229258742,
    1229258737,
    1229258755,
    1229258764,
    1229258756,
    1229258739,
    4114948270,
    4114948269,
    5166399776,
    4114948271,
    4114948272,
    1229258766,
    1229258758,
    1229258742
  ],
  "tags": {
    "addr:conscriptionnumber": "200",
    "addr:housenumber": "200",
    "addr:place": "Prace",
    "addr:postcode": "66458",
    "building": "museum",
    "building:levels": "1",
    "building:ruian:type": "3",
    "email": "mohyla-miru@muzeumbrnenska.cz",
    "information": "office",
    "name": "Mohyla míru",
    "name:cs": "Mohyla míru",
    "name:de": "Grabhügel des Friedens",
    "name:en": "Museum of Brno (Battle of Austerlitz 1805)",
    "operator": "Muzeum Brněnska",
    "ref:ruian:addr": "24145301",
    "ref:ruian:building": "23759399",
    "source": "survey",
    "toilets": "yes",
    "toilets:wheelchair": "designated",
    "tourism": "museum",
    "wheelchair": "yes"
  }
},
{
  "type": "way",
  "id": 107231622,
  "nodes": [
    1232856745,
    1232856747,
    1232856748,
    1232856752,
    1232856754,
    1232856756,
    1232856745
  ],
  "tags": {
    "building": "yes",
    "tourism": "museum"
  }
},
{
  "type": "way",
  "id": 107416010,
  "nodes": [
    1234579387,
    1234579300,
    1234579426,
    7191817991,
    7191730170,
    1234579734,
    1224467646,
    1224468011,
    1224468463,
    1234579387
  ],
  "tags": {
    "name": "Muzeum MHD",
    "source": "bing",
    "tourism": "museum"
  }
},
{
  "type": "way",
  "id": 114513047,
  "nodes": [
    1297044689,
    1297044690,
    1297044691,
    1297044692,
    1297044689
  ],
  "tags": {
    "building": "yes",
    "fee": "yes",
    "name": "Erdstallmuseum",
    "tourism": "museum",
    "website": "kulturamkapellenberg.grosskrut.at"
  }
},
{
  "type": "way",
  "id": 121016174,
  "nodes": [
    1355484379,
    1355484268,
    1355484361,
    1355484293,
    1355484379
  ],
  "tags": {
    "building": "yes",
    "name": "Dorfgalerie Hauskirchen",
    "tourism": "museum",
    "wheelchair": "yes"
  }
},
{
  "type": "way",
  "id": 137866714,
  "nodes": [
    1511801765,
    1511801740,
    1511801736,
    1511801733,
    1511801730,
    1511801688,
    1511801706,
    1511801685,
    1511801700,
    1511801671,
    1511801670,
    1511801655,
    1511801668,
    1511801709,
    1511801689,
    1511801714,
    1511801715,
    1511801764,
    1511801754,
    1511801766,
    1511801774,
    1511801783,
    1511801787,
    1511801831,
    1511801817,
    1511801837,
    1511801830,
    1511801800,
    1511801789,
    1511801762,
    1511801765
  ],
  "tags": {
    "building": "yes",
    "source": "cuzk:km",
    "tourism": "museum"
  }
},
{
  "type": "way",
  "id": 169580513,
  "nodes": [
    1746580412,
    1746580414,
    1746580408,
    1807473182,
    1807473181,
    1746580404,
    1746580410,
    1746580398,
    1746580412
  ],
  "tags": {
    "building": "yes",
    "name": "museum hohenau an der march",
    "tourism": "museum"
  }
},
{
  "type": "way",
  "id": 170612426,
  "nodes": [
    1817800012,
    1814795325,
    1814795278,
    1814791992,
    1814795238,
    1817800030,
    1817800018,
    370202681,
    370202674,
    1817800034,
    1817800043,
    1817800016,
    1817800015,
    1817800007,
    1476940662,
    1817800011,
    1817800009,
    1817799999,
    1817799970,
    1817799935,
    1817799903,
    1817799878,
    1817799843,
    1817799825,
    2511435626,
    2511435621,
    2511435614,
    1817799818,
    1817799821,
    1817799852,
    1817799866,
    1817799881,
    1817799884,
    1817799912,
    1817799934,
    1817799942,
    1817799958,
    1817799995,
    1817800012
  ],
  "tags": {
    "attraction": "museum",
    "contact:phone": "+420518332173",
    "contact:website": "www.skanzen.nulk.cz",
    "fee:adult": "80",
    "loc_name": "Skanzen",
    "name": "Skanzen Strážnice",
    "official_name": "Skanzen - Muzeum vesnice jihovychodni Moravy",
    "operator": "Narodni ustav lidove kultury",
    "short_name": "Skanzen",
    "tourism": "museum"
  }
},
{
  "type": "way",
  "id": 178066958,
  "nodes": [
    1884457699,
    6509026436,
    1890404033,
    6509026435,
    6509026434,
    1890404031,
    6509026433,
    1884457697,
    6509026432,
    1884457701,
    1884457700,
    6509026431,
    6509026430,
    6509026429,
    6509026428,
    1884457703,
    1884457698,
    1890404025,
    1890404020,
    1890404015,
    1890404022,
    1884457688,
    1890404006,
    1890404004,
    1890404013,
    1890404014,
    1884457694,
    1884457699
  ],
  "tags": {
    "addr:conscriptionnumber": "70",
    "addr:housenumber": "70/13",
    "addr:place": "Kyjov",
    "addr:postcode": "69701",
    "addr:street": "třída Palackého",
    "addr:streetnumber": "13",
    "building": "civic",
    "building:levels": "3",
    "building:ruian:type": "15",
    "designation": "City Museum, renaissance manor house",
    "name": "Vlastivědné muzeum Kyjov",
    "ref:ruian:addr": "13688987",
    "ref:ruian:building": "13599127",
    "source": "cuzk:ruian",
    "start_date": "2019-03-29",
    "tourism": "museum"
  }
},
{
  "type": "way",
  "id": 192700375,
  "nodes": [
    2032391565,
    2032391534,
    2032391533,
    2032391532,
    2032391529,
    2032391525,
    2032391530,
    2032391515,
    2032391531,
    2032391542,
    2032391552,
    2032391558,
    2032391563,
    2032391561,
    2032391565
  ],
  "tags": {
    "building": "yes",
    "name": "Muzeum železné opony",
    "source": "cuzk:km",
    "tourism": "museum",
    "website": "http://www.muzeumopony.cz/"
  }
},
{
  "type": "way",
  "id": 233551068,
  "nodes": [
    3910575009,
    3910575006,
    3910575001,
    3910574972,
    3910574970,
    3910574971,
    3910574969,
    3910574975,
    3910574976,
    3910574982,
    3910574983,
    3910575000,
    3910574993,
    2419192954,
    3910575009
  ],
  "tags": {
    "building": "public",
    "building:levels": "2",
    "building:ruian:type": "19",
    "name": "Zetor Gallery",
    "opening_hours": "Mo-Sa 10:00-17:00",
    "phone": "+420 734 416 006",
    "ref:ruian:building": "19252081",
    "source": "cuzk:ruian",
    "start_date": "2013-06-12",
    "tourism": "museum",
    "website": "http://www.zetorgallery.cz/"
  }
},
{
  "type": "way",
  "id": 249908240,
  "nodes": [
    2564451912,
    2564451910,
    2564451875,
    2564451866,
    2564451897,
    2564451902,
    2564451889,
    2564451891,
    2564451933,
    2564451940,
    2564451920,
    2564451923,
    2564451912
  ],
  "tags": {
    "building": "residential",
    "building:levels": "1",
    "building:ruian:type": "3",
    "name": "Masarykovo Muzeum v Hodoníně",
    "ref:ruian:building": "22813985",
    "source": "cuzk:ruian",
    "tourism": "museum",
    "website": "http://www.masaryk.info/masarykovo-muzeum-hodonin/"
  }
},
{
  "type": "way",
  "id": 331421434,
  "nodes": [
    3384901825,
    3384901830,
    3384901816,
    3384901811,
    6867442601,
    6867442602,
    3384901825
  ],
  "tags": {
    "addr:city": "Kúty",
    "addr:housenumber": "210",
    "addr:postcode": "90801",
    "addr:street": "Bratislavská",
    "building": "yes",
    "email": "pjekne.mjestecko@gmail.com",
    "facebook": "https://www.facebook.com/PjekneMjestecko/",
    "name": "Múzeum a komunitné centrum",
    "operator": "Pjekné mjestečko o.z.",
    "operator:type": "community",
    "phone": "+421908583520",
    "source": "Bing",
    "tourism": "museum",
    "website": "https://kuty.media/pjekne_mjestecko"
  }
},
{
  "type": "way",
  "id": 342492120,
  "nodes": [
    3494854816,
    3494854817,
    3494854809,
    3494854810,
    3518099370,
    3494854816
  ],
  "tags": {
    "addr:city": "Poysdorf",
    "addr:country": "AT",
    "addr:housenumber": "9",
    "addr:postcode": "2170",
    "addr:street": "Brünner Straße",
    "at_bev:addr_date": "2019-04-01",
    "building": "yes",
    "name": "Heimatmuseum Poysdorf",
    "old_name": "Bürgerspital",
    "start_date": "1657",
    "tourism": "museum",
    "wikidata": "Q1299473",
    "wikipedia": "de:Ehemaliges Bürgerspital (Poysdorf)"
  }
},
{
  "type": "way",
  "id": 345119249,
  "nodes": [
    3518099382,
    3518099374,
    3518099371,
    3518099381,
    3518099382
  ],
  "tags": {
    "addr:city": "Poysdorf",
    "addr:country": "AT",
    "addr:housenumber": "28",
    "addr:postcode": "2170",
    "addr:street": "Brünner Straße",
    "building": "yes",
    "name": "Vino Versum Poysdorf",
    "opening_hours": "Mo-Su 09:00-18:00",
    "phone": "+43 2552 20371",
    "tourism": "museum",
    "website": "https://www.poysdorf.at/vino-versum.html",
    "wikidata": "Q15852972",
    "wikipedia": "de:Vino Versum Poysdorf"
  }
},
{
  "type": "way",
  "id": 351891975,
  "nodes": [
    3576944766,
    3576945018,
    3576944763,
    3576944709,
    3576944766
  ],
  "tags": {
    "addr:city": "Břeclav",
    "addr:postcode": "69002",
    "addr:street": "Sady 28. října",
    "building": "yes",
    "email": "velo.fata@seznam.cz",
    "museum": "bicycle",
    "name": "Velo pavilon",
    "opening_hours": "Mo-Fr 09:00-17:00; Sa 09:00-12:00",
    "operator": "Velo - Faťa",
    "phone": "+420 777 595 502",
    "ref:ruian:building": "50449800",
    "source": "cuzk:ruian",
    "tourism": "museum",
    "website": "https://breclav.eu/kultura/kultura/cyklomuzeum"
  }
},
{
  "type": "relation",
  "id": 1424218,
  "members": [
    {
      "type": "way",
      "ref": 99500883,
      "role": "inner"
    },
    {
      "type": "way",
      "ref": 99500951,
      "role": "outer"
    }
  ],
  "tags": {
    "building": "yes",
    "historic": "castle",
    "name": "zámek Ždánice - Vrbasovo muzeum",
    "source": "cuzk:km;knowledge",
    "tourism": "museum",
    "type": "multipolygon"
  }
},
{
  "type": "relation",
  "id": 2954277,
  "members": [
    {
      "type": "node",
      "ref": 2316888448,
      "role": "label"
    },
    {
      "type": "way",
      "ref": 170612426,
      "role": "perimeter"
    },
    {
      "type": "node",
      "ref": 370202678,
      "role": "entrance"
    }
  ],
  "tags": {
    "attraction": "museum",
    "contact:phone": "+420518332173",
    "contact:website": "www.skanzen.nulk.cz",
    "fee:adult": "80 CZK",
    "loc_name": "Skanzen",
    "name": "Skanzen Strážnice",
    "official_name": "Skanzen - Muzeum vesnice jihovychodni Moravy",
    "operator": "Národní ústav lidové kultury",
    "short_name": "Skanzen",
    "site": "museum",
    "tourism": "museum",
    "type": "site"
  }
},
{
  "type": "node",
  "id": 1355484268,
  "lat": 48.6127082,
  "lon": 16.7570864
},
{
  "type": "node",
  "id": 1355484293,
  "lat": 48.6126673,
  "lon": 16.7568348
},
{
  "type": "node",
  "id": 1355484361,
  "lat": 48.6127518,
  "lon": 16.7570466
},
{
  "type": "node",
  "id": 1355484379,
  "lat": 48.6126237,
  "lon": 16.7568746
},
{
  "type": "node",
  "id": 1297044689,
  "lat": 48.6367751,
  "lon": 16.7456740
},
{
  "type": "node",
  "id": 1297044690,
  "lat": 48.6367261,
  "lon": 16.7457902
},
{
  "type": "node",
  "id": 1297044691,
  "lat": 48.6366719,
  "lon": 16.7457301
},
{
  "type": "node",
  "id": 1297044692,
  "lat": 48.6367208,
  "lon": 16.7456159
},
{
  "type": "node",
  "id": 3494854809,
  "lat": 48.6713779,
  "lon": 16.6289790
},
{
  "type": "node",
  "id": 3494854810,
  "lat": 48.6714045,
  "lon": 16.6291102
},
{
  "type": "node",
  "id": 3494854816,
  "lat": 48.6711631,
  "lon": 16.6291100
},
{
  "type": "node",
  "id": 3494854817,
  "lat": 48.6711573,
  "lon": 16.6290816
},
{
  "type": "node",
  "id": 3518099370,
  "lat": 48.6711841,
  "lon": 16.6292127
},
{
  "type": "node",
  "id": 3518099371,
  "lat": 48.6712359,
  "lon": 16.6296061
},
{
  "type": "node",
  "id": 3518099374,
  "lat": 48.6712626,
  "lon": 16.6297364
},
{
  "type": "node",
  "id": 3518099381,
  "lat": 48.6714019,
  "lon": 16.6295280
},
{
  "type": "node",
  "id": 3518099382,
  "lat": 48.6714287,
  "lon": 16.6296583
},
{
  "type": "node",
  "id": 1232856745,
  "lat": 48.7242128,
  "lon": 16.5789838
},
{
  "type": "node",
  "id": 1232856747,
  "lat": 48.7241812,
  "lon": 16.5789471
},
{
  "type": "node",
  "id": 1232856748,
  "lat": 48.7241704,
  "lon": 16.5789685
},
{
  "type": "node",
  "id": 1232856752,
  "lat": 48.7241587,
  "lon": 16.5789916
},
{
  "type": "node",
  "id": 1232856754,
  "lat": 48.7241904,
  "lon": 16.5790283
},
{
  "type": "node",
  "id": 1232856756,
  "lat": 48.7242011,
  "lon": 16.5790071
},
{
  "type": "node",
  "id": 2032391515,
  "lat": 48.7386080,
  "lon": 16.7330060
},
{
  "type": "node",
  "id": 2032391525,
  "lat": 48.7386150,
  "lon": 16.7331260
},
{
  "type": "node",
  "id": 2032391529,
  "lat": 48.7386240,
  "lon": 16.7331610
},
{
  "type": "node",
  "id": 2032391530,
  "lat": 48.7386351,
  "lon": 16.7331051
},
{
  "type": "node",
  "id": 2032391531,
  "lat": 48.7386400,
  "lon": 16.7329860
},
{
  "type": "node",
  "id": 2032391532,
  "lat": 48.7386475,
  "lon": 16.7331487
},
{
  "type": "node",
  "id": 2032391533,
  "lat": 48.7386500,
  "lon": 16.7331590
},
{
  "type": "node",
  "id": 2032391534,
  "lat": 48.7386650,
  "lon": 16.7332160
},
{
  "type": "node",
  "id": 2032391542,
  "lat": 48.7387090,
  "lon": 16.7329510
},
{
  "type": "node",
  "id": 2032391552,
  "lat": 48.7387400,
  "lon": 16.7330700
},
{
  "type": "node",
  "id": 2032391558,
  "lat": 48.7387510,
  "lon": 16.7330650
},
{
  "type": "node",
  "id": 2032391561,
  "lat": 48.7387550,
  "lon": 16.7331110
},
{
  "type": "node",
  "id": 2032391563,
  "lat": 48.7387630,
  "lon": 16.7331080
},
{
  "type": "node",
  "id": 2032391565,
  "lat": 48.7387640,
  "lon": 16.7331560
},
{
  "type": "node",
  "id": 979090665,
  "lat": 48.8076640,
  "lon": 16.6361974
},
{
  "type": "node",
  "id": 979090676,
  "lat": 48.8076843,
  "lon": 16.6361999
},
{
  "type": "node",
  "id": 979090683,
  "lat": 48.8076847,
  "lon": 16.6361935
},
{
  "type": "node",
  "id": 979090686,
  "lat": 48.8077715,
  "lon": 16.6361742
},
{
  "type": "node",
  "id": 979090690,
  "lat": 48.8077165,
  "lon": 16.6361976
},
{
  "type": "node",
  "id": 979090702,
  "lat": 48.8077209,
  "lon": 16.6362049
},
{
  "type": "node",
  "id": 979090704,
  "lat": 48.8077453,
  "lon": 16.6359219
},
{
  "type": "node",
  "id": 979090705,
  "lat": 48.8077603,
  "lon": 16.6362011
},
{
  "type": "node",
  "id": 979090714,
  "lat": 48.8077153,
  "lon": 16.6359102
},
{
  "type": "node",
  "id": 979090718,
  "lat": 48.8077597,
  "lon": 16.6361757
},
{
  "type": "node",
  "id": 979090719,
  "lat": 48.8077156,
  "lon": 16.6359523
},
{
  "type": "node",
  "id": 979090721,
  "lat": 48.8077721,
  "lon": 16.6359515
},
{
  "type": "node",
  "id": 979090726,
  "lat": 48.8076064,
  "lon": 16.6359477
},
{
  "type": "node",
  "id": 979090730,
  "lat": 48.8076175,
  "lon": 16.6361850
},
{
  "type": "node",
  "id": 979090738,
  "lat": 48.8076643,
  "lon": 16.6361909
},
{
  "type": "node",
  "id": 3899089980,
  "lat": 48.8075417,
  "lon": 16.6360883
},
{
  "type": "node",
  "id": 3899089983,
  "lat": 48.8075881,
  "lon": 16.6360039
},
{
  "type": "node",
  "id": 3899089984,
  "lat": 48.8076147,
  "lon": 16.6361732
},
{
  "type": "node",
  "id": 3899089985,
  "lat": 48.8076364,
  "lon": 16.6359532
},
{
  "type": "node",
  "id": 3899089987,
  "lat": 48.8077099,
  "lon": 16.6358759
},
{
  "type": "node",
  "id": 3899089988,
  "lat": 48.8077123,
  "lon": 16.6359100
},
{
  "type": "node",
  "id": 3899089989,
  "lat": 48.8077179,
  "lon": 16.6358746
},
{
  "type": "node",
  "id": 3899089990,
  "lat": 48.8077184,
  "lon": 16.6358838
},
{
  "type": "node",
  "id": 3899089992,
  "lat": 48.8077382,
  "lon": 16.6358747
},
{
  "type": "node",
  "id": 3899089993,
  "lat": 48.8077382,
  "lon": 16.6358824
},
{
  "type": "node",
  "id": 3899089995,
  "lat": 48.8077417,
  "lon": 16.6359220
},
{
  "type": "node",
  "id": 3899089996,
  "lat": 48.8077426,
  "lon": 16.6359534
},
{
  "type": "node",
  "id": 3899089997,
  "lat": 48.8077474,
  "lon": 16.6358746
},
{
  "type": "node",
  "id": 1511801655,
  "lat": 48.8097280,
  "lon": 16.6367136
},
{
  "type": "node",
  "id": 1511801668,
  "lat": 48.8097575,
  "lon": 16.6366072
},
{
  "type": "node",
  "id": 1511801670,
  "lat": 48.8097610,
  "lon": 16.6367347
},
{
  "type": "node",
  "id": 1511801671,
  "lat": 48.8097640,
  "lon": 16.6367242
},
{
  "type": "node",
  "id": 1511801685,
  "lat": 48.8097871,
  "lon": 16.6367712
},
{
  "type": "node",
  "id": 1511801688,
  "lat": 48.8097926,
  "lon": 16.6368011
},
{
  "type": "node",
  "id": 1511801689,
  "lat": 48.8097944,
  "lon": 16.6366635
},
{
  "type": "node",
  "id": 1511801700,
  "lat": 48.8097946,
  "lon": 16.6367439
},
{
  "type": "node",
  "id": 1511801706,
  "lat": 48.8097988,
  "lon": 16.6367787
},
{
  "type": "node",
  "id": 1511801709,
  "lat": 48.8098021,
  "lon": 16.6366358
},
{
  "type": "node",
  "id": 1511801714,
  "lat": 48.8098125,
  "lon": 16.6366751
},
{
  "type": "node",
  "id": 1511801715,
  "lat": 48.8098212,
  "lon": 16.6366439
},
{
  "type": "node",
  "id": 1511801730,
  "lat": 48.8098283,
  "lon": 16.6368239
},
{
  "type": "node",
  "id": 1511801733,
  "lat": 48.8098339,
  "lon": 16.6368038
},
{
  "type": "node",
  "id": 1511801736,
  "lat": 48.8098473,
  "lon": 16.6368123
},
{
  "type": "node",
  "id": 1511801740,
  "lat": 48.8098552,
  "lon": 16.6367837
},
{
  "type": "node",
  "id": 1511801754,
  "lat": 48.8098728,
  "lon": 16.6367148
},
{
  "type": "node",
  "id": 1511801762,
  "lat": 48.8098806,
  "lon": 16.6368135
},
{
  "type": "node",
  "id": 1511801764,
  "lat": 48.8098817,
  "lon": 16.6366826
},
{
  "type": "node",
  "id": 1511801765,
  "lat": 48.8098838,
  "lon": 16.6368020
},
{
  "type": "node",
  "id": 1511801766,
  "lat": 48.8098947,
  "lon": 16.6367288
},
{
  "type": "node",
  "id": 1511801774,
  "lat": 48.8098988,
  "lon": 16.6367141
},
{
  "type": "node",
  "id": 1511801783,
  "lat": 48.8099080,
  "lon": 16.6367200
},
{
  "type": "node",
  "id": 1511801787,
  "lat": 48.8099105,
  "lon": 16.6367110
},
{
  "type": "node",
  "id": 1511801789,
  "lat": 48.8099165,
  "lon": 16.6368365
},
{
  "type": "node",
  "id": 1511801800,
  "lat": 48.8099198,
  "lon": 16.6368242
},
{
  "type": "node",
  "id": 1511801817,
  "lat": 48.8099389,
  "lon": 16.6367609
},
{
  "type": "node",
  "id": 1511801830,
  "lat": 48.8099443,
  "lon": 16.6368398
},
{
  "type": "node",
  "id": 1511801831,
  "lat": 48.8099464,
  "lon": 16.6367340
},
{
  "type": "node",
  "id": 1511801837,
  "lat": 48.8099621,
  "lon": 16.6367757
},
{
  "type": "node",
  "id": 321592936,
  "lat": 49.1876666,
  "lon": 16.6157292
},
{
  "type": "node",
  "id": 321592940,
  "lat": 49.1876819,
  "lon": 16.6158361
},
{
  "type": "node",
  "id": 321592943,
  "lat": 49.1873824,
  "lon": 16.6164136
},
{
  "type": "node",
  "id": 321592945,
  "lat": 49.1868212,
  "lon": 16.6166059
},
{
  "type": "node",
  "id": 321592947,
  "lat": 49.1867482,
  "lon": 16.6161284
},
{
  "type": "node",
  "id": 321592949,
  "lat": 49.1867763,
  "lon": 16.6160359
},
{
  "type": "node",
  "id": 387804343,
  "lat": 49.1876552,
  "lon": 16.6159190
},
{
  "type": "node",
  "id": 387804344,
  "lat": 49.1875154,
  "lon": 16.6162119
},
{
  "type": "node",
  "id": 387804345,
  "lat": 49.1874192,
  "lon": 16.6162484
},
{
  "type": "node",
  "id": 387804346,
  "lat": 49.1874283,
  "lon": 16.6163171
},
{
  "type": "node",
  "id": 387804347,
  "lat": 49.1870937,
  "lon": 16.6159271
},
{
  "type": "node",
  "id": 387804348,
  "lat": 49.1870016,
  "lon": 16.6159590
},
{
  "type": "node",
  "id": 387804349,
  "lat": 49.1869996,
  "lon": 16.6159396
},
{
  "type": "node",
  "id": 387804350,
  "lat": 49.1870904,
  "lon": 16.6159088
},
{
  "type": "node",
  "id": 1229258737,
  "lat": 49.1281047,
  "lon": 16.7632260
},
{
  "type": "node",
  "id": 1229258739,
  "lat": 49.1278632,
  "lon": 16.7626844
},
{
  "type": "node",
  "id": 1229258742,
  "lat": 49.1281514,
  "lon": 16.7630609
},
{
  "type": "node",
  "id": 1229258755,
  "lat": 49.1279463,
  "lon": 16.7631291
},
{
  "type": "node",
  "id": 1229258756,
  "lat": 49.1278177,
  "lon": 16.7628512
},
{
  "type": "node",
  "id": 1229258758,
  "lat": 49.1282179,
  "lon": 16.7631028
},
{
  "type": "node",
  "id": 1229258764,
  "lat": 49.1279923,
  "lon": 16.7629609
},
{
  "type": "node",
  "id": 1229258766,
  "lat": 49.1282635,
  "lon": 16.7629354
},
{
  "type": "node",
  "id": 4114948269,
  "lat": 49.1279151,
  "lon": 16.7627282
},
{
  "type": "node",
  "id": 4114948270,
  "lat": 49.1279177,
  "lon": 16.7627186
},
{
  "type": "node",
  "id": 4114948271,
  "lat": 49.1282051,
  "lon": 16.7629114
},
{
  "type": "node",
  "id": 4114948272,
  "lat": 49.1282081,
  "lon": 16.7629005
},
{
  "type": "node",
  "id": 5166399776,
  "lat": 49.1280617,
  "lon": 16.7628208
},
{
  "type": "node",
  "id": 1094082467,
  "lat": 49.1693847,
  "lon": 16.7270720
},
{
  "type": "node",
  "id": 1094082907,
  "lat": 49.1693226,
  "lon": 16.7269555
},
{
  "type": "node",
  "id": 1094083535,
  "lat": 49.1692319,
  "lon": 16.7272859
},
{
  "type": "node",
  "id": 1094083940,
  "lat": 49.1691586,
  "lon": 16.7271686
},
{
  "type": "node",
  "id": 2419192954,
  "lat": 49.1996221,
  "lon": 16.6717154
},
{
  "type": "node",
  "id": 3910574969,
  "lat": 49.1990107,
  "lon": 16.6721434
},
{
  "type": "node",
  "id": 3910574970,
  "lat": 49.1990144,
  "lon": 16.6721737
},
{
  "type": "node",
  "id": 3910574971,
  "lat": 49.1990181,
  "lon": 16.6721713
},
{
  "type": "node",
  "id": 3910574972,
  "lat": 49.1990443,
  "lon": 16.6722864
},
{
  "type": "node",
  "id": 3910574975,
  "lat": 49.1990565,
  "lon": 16.6721149
},
{
  "type": "node",
  "id": 3910574976,
  "lat": 49.1990629,
  "lon": 16.6721397
},
{
  "type": "node",
  "id": 3910574982,
  "lat": 49.1991651,
  "lon": 16.6720778
},
{
  "type": "node",
  "id": 3910574983,
  "lat": 49.1991658,
  "lon": 16.6720803
},
{
  "type": "node",
  "id": 3910574993,
  "lat": 49.1993869,
  "lon": 16.6718573
},
{
  "type": "node",
  "id": 3910575000,
  "lat": 49.1994058,
  "lon": 16.6719352
},
{
  "type": "node",
  "id": 3910575001,
  "lat": 49.1994487,
  "lon": 16.6720444
},
{
  "type": "node",
  "id": 3910575006,
  "lat": 49.1996029,
  "lon": 16.6719565
},
{
  "type": "node",
  "id": 3910575009,
  "lat": 49.1996727,
  "lon": 16.6719137
},
{
  "type": "node",
  "id": 1224467646,
  "lat": 49.1995501,
  "lon": 16.6940381
},
{
  "type": "node",
  "id": 1224468011,
  "lat": 49.1998488,
  "lon": 16.6938136
},
{
  "type": "node",
  "id": 1234579426,
  "lat": 49.1988486,
  "lon": 16.6949921
},
{
  "type": "node",
  "id": 1234579734,
  "lat": 49.1987882,
  "lon": 16.6942888
},
{
  "type": "node",
  "id": 7191730170,
  "lat": 49.1987952,
  "lon": 16.6944234
},
{
  "type": "node",
  "id": 7191817991,
  "lat": 49.1987996,
  "lon": 16.6944838
},
{
  "type": "node",
  "id": 1224468463,
  "lat": 49.2011803,
  "lon": 16.6935737
},
{
  "type": "node",
  "id": 1234579300,
  "lat": 49.2014421,
  "lon": 16.6943837
},
{
  "type": "node",
  "id": 1234579387,
  "lat": 49.2013523,
  "lon": 16.6935625
},
{
  "type": "node",
  "id": 1746580398,
  "lat": 48.6081797,
  "lon": 16.9101269
},
{
  "type": "node",
  "id": 1746580404,
  "lat": 48.6082823,
  "lon": 16.9102550
},
{
  "type": "node",
  "id": 1746580408,
  "lat": 48.6084132,
  "lon": 16.9108356
},
{
  "type": "node",
  "id": 1746580410,
  "lat": 48.6082022,
  "lon": 16.9102856
},
{
  "type": "node",
  "id": 1746580412,
  "lat": 48.6083256,
  "lon": 16.9100794
},
{
  "type": "node",
  "id": 1746580414,
  "lat": 48.6084537,
  "lon": 16.9108197
},
{
  "type": "node",
  "id": 1807473181,
  "lat": 48.6083730,
  "lon": 16.9107711
},
{
  "type": "node",
  "id": 1807473182,
  "lat": 48.6083995,
  "lon": 16.9107609
},
{
  "type": "node",
  "id": 3384901811,
  "lat": 48.6536553,
  "lon": 17.0133427
},
{
  "type": "node",
  "id": 3384901816,
  "lat": 48.6536836,
  "lon": 17.0133757
},
{
  "type": "node",
  "id": 3384901825,
  "lat": 48.6537309,
  "lon": 17.0131559
},
{
  "type": "node",
  "id": 3384901830,
  "lat": 48.6537714,
  "lon": 17.0132032
},
{
  "type": "node",
  "id": 6867442601,
  "lat": 48.6537020,
  "lon": 17.0132508
},
{
  "type": "node",
  "id": 6867442602,
  "lat": 48.6536898,
  "lon": 17.0132365
},
{
  "type": "node",
  "id": 3576944709,
  "lat": 48.7544888,
  "lon": 16.8911482
},
{
  "type": "node",
  "id": 3576944763,
  "lat": 48.7545894,
  "lon": 16.8914211
},
{
  "type": "node",
  "id": 3576944766,
  "lat": 48.7545914,
  "lon": 16.8910621
},
{
  "type": "node",
  "id": 3576945018,
  "lat": 48.7546917,
  "lon": 16.8913354
},
{
  "type": "node",
  "id": 2564451866,
  "lat": 48.8465370,
  "lon": 17.1271745
},
{
  "type": "node",
  "id": 2564451875,
  "lat": 48.8465986,
  "lon": 17.1274802
},
{
  "type": "node",
  "id": 2564451889,
  "lat": 48.8466852,
  "lon": 17.1272305
},
{
  "type": "node",
  "id": 2564451891,
  "lat": 48.8466991,
  "lon": 17.1273099
},
{
  "type": "node",
  "id": 2564451897,
  "lat": 48.8467346,
  "lon": 17.1270851
},
{
  "type": "node",
  "id": 2564451902,
  "lat": 48.8467559,
  "lon": 17.1272001
},
{
  "type": "node",
  "id": 2564451910,
  "lat": 48.8467848,
  "lon": 17.1273982
},
{
  "type": "node",
  "id": 2564451912,
  "lat": 48.8467891,
  "lon": 17.1274212
},
{
  "type": "node",
  "id": 2564451920,
  "lat": 48.8468091,
  "lon": 17.1273875
},
{
  "type": "node",
  "id": 2564451923,
  "lat": 48.8468133,
  "lon": 17.1274088
},
{
  "type": "node",
  "id": 2564451933,
  "lat": 48.8469097,
  "lon": 17.1272191
},
{
  "type": "node",
  "id": 2564451940,
  "lat": 48.8469327,
  "lon": 17.1273332
},
{
  "type": "node",
  "id": 1150908351,
  "lat": 49.0652140,
  "lon": 17.0249650
},
{
  "type": "node",
  "id": 1150908536,
  "lat": 49.0648780,
  "lon": 17.0250440
},
{
  "type": "node",
  "id": 1150908693,
  "lat": 49.0649560,
  "lon": 17.0256780
},
{
  "type": "node",
  "id": 1150908766,
  "lat": 49.0648560,
  "lon": 17.0251230
},
{
  "type": "node",
  "id": 1150908840,
  "lat": 49.0647980,
  "lon": 17.0251840
},
{
  "type": "node",
  "id": 1150909007,
  "lat": 49.0648830,
  "lon": 17.0253380
},
{
  "type": "node",
  "id": 1150909125,
  "lat": 49.0649560,
  "lon": 17.0256300
},
{
  "type": "node",
  "id": 1150909191,
  "lat": 49.0649090,
  "lon": 17.0250960
},
{
  "type": "node",
  "id": 1150909286,
  "lat": 49.0650360,
  "lon": 17.0254500
},
{
  "type": "node",
  "id": 1150909297,
  "lat": 49.0649140,
  "lon": 17.0256700
},
{
  "type": "node",
  "id": 1150909349,
  "lat": 49.0648660,
  "lon": 17.0250800
},
{
  "type": "node",
  "id": 1150909365,
  "lat": 49.0653390,
  "lon": 17.0254110
},
{
  "type": "node",
  "id": 1150909380,
  "lat": 49.0653100,
  "lon": 17.0254710
},
{
  "type": "node",
  "id": 1150909422,
  "lat": 49.0647930,
  "lon": 17.0251510
},
{
  "type": "node",
  "id": 1150909494,
  "lat": 49.0652230,
  "lon": 17.0249230
},
{
  "type": "node",
  "id": 1150909562,
  "lat": 49.0648340,
  "lon": 17.0251700
},
{
  "type": "node",
  "id": 1150909696,
  "lat": 49.0648880,
  "lon": 17.0254480
},
{
  "type": "node",
  "id": 1150909780,
  "lat": 49.0648350,
  "lon": 17.0251090
},
{
  "type": "node",
  "id": 1150909882,
  "lat": 49.0651510,
  "lon": 17.0251450
},
{
  "type": "node",
  "id": 1150910008,
  "lat": 49.0649810,
  "lon": 17.0256950
},
{
  "type": "node",
  "id": 1150910055,
  "lat": 49.0648630,
  "lon": 17.0253530
},
{
  "type": "node",
  "id": 1150910129,
  "lat": 49.0653190,
  "lon": 17.0254200
},
{
  "type": "node",
  "id": 1150910144,
  "lat": 49.0649510,
  "lon": 17.0256510
},
{
  "type": "node",
  "id": 1150910227,
  "lat": 49.0649010,
  "lon": 17.0250640
},
{
  "type": "node",
  "id": 1150910338,
  "lat": 49.0652030,
  "lon": 17.0253530
},
{
  "type": "node",
  "id": 1150910353,
  "lat": 49.0649230,
  "lon": 17.0256880
},
{
  "type": "node",
  "id": 1150910425,
  "lat": 49.0648750,
  "lon": 17.0251160
},
{
  "type": "node",
  "id": 1150910471,
  "lat": 49.0653330,
  "lon": 17.0254850
},
{
  "type": "node",
  "id": 1150910518,
  "lat": 49.0647880,
  "lon": 17.0251680
},
{
  "type": "node",
  "id": 1150910635,
  "lat": 49.0651930,
  "lon": 17.0248990
},
{
  "type": "node",
  "id": 1150910740,
  "lat": 49.0648440,
  "lon": 17.0251790
},
{
  "type": "node",
  "id": 1150910833,
  "lat": 49.0649090,
  "lon": 17.0254360
},
{
  "type": "node",
  "id": 1150910884,
  "lat": 49.0651790,
  "lon": 17.0249380
},
{
  "type": "node",
  "id": 1150910962,
  "lat": 49.0649850,
  "lon": 17.0252430
},
{
  "type": "node",
  "id": 1150910976,
  "lat": 49.0649190,
  "lon": 17.0256560
},
{
  "type": "node",
  "id": 1150911037,
  "lat": 49.0653460,
  "lon": 17.0254500
},
{
  "type": "node",
  "id": 1150911058,
  "lat": 49.0649910,
  "lon": 17.0256540
},
{
  "type": "node",
  "id": 1150911097,
  "lat": 49.0648240,
  "lon": 17.0251450
},
{
  "type": "node",
  "id": 2501741610,
  "lat": 49.0651572,
  "lon": 17.0255587
},
{
  "type": "node",
  "id": 1884457688,
  "lat": 49.0092250,
  "lon": 17.1285143
},
{
  "type": "node",
  "id": 1884457694,
  "lat": 49.0093128,
  "lon": 17.1284164
},
{
  "type": "node",
  "id": 1884457697,
  "lat": 49.0093710,
  "lon": 17.1285655
},
{
  "type": "node",
  "id": 1884457698,
  "lat": 49.0093832,
  "lon": 17.1288252
},
{
  "type": "node",
  "id": 1884457699,
  "lat": 49.0093838,
  "lon": 17.1285595
},
{
  "type": "node",
  "id": 1884457700,
  "lat": 49.0093886,
  "lon": 17.1286478
},
{
  "type": "node",
  "id": 1884457701,
  "lat": 49.0094010,
  "lon": 17.1286331
},
{
  "type": "node",
  "id": 1884457703,
  "lat": 49.0094392,
  "lon": 17.1287520
},
{
  "type": "node",
  "id": 1890404004,
  "lat": 49.0092283,
  "lon": 17.1284822
},
{
  "type": "node",
  "id": 1890404006,
  "lat": 49.0092349,
  "lon": 17.1285023
},
{
  "type": "node",
  "id": 1890404013,
  "lat": 49.0092680,
  "lon": 17.1284420
},
{
  "type": "node",
  "id": 1890404014,
  "lat": 49.0092734,
  "lon": 17.1284586
},
{
  "type": "node",
  "id": 1890404015,
  "lat": 49.0092765,
  "lon": 17.1286713
},
{
  "type": "node",
  "id": 1890404020,
  "lat": 49.0092914,
  "lon": 17.1287000
},
{
  "type": "node",
  "id": 1890404022,
  "lat": 49.0092945,
  "lon": 17.1286505
},
{
  "type": "node",
  "id": 1890404025,
  "lat": 49.0093094,
  "lon": 17.1286798
},
{
  "type": "node",
  "id": 1890404031,
  "lat": 49.0093775,
  "lon": 17.1285702
},
{
  "type": "node",
  "id": 1890404033,
  "lat": 49.0093827,
  "lon": 17.1285655
},
{
  "type": "node",
  "id": 6509026428,
  "lat": 49.0094136,
  "lon": 17.1286999
},
{
  "type": "node",
  "id": 6509026429,
  "lat": 49.0094134,
  "lon": 17.1286819
},
{
  "type": "node",
  "id": 6509026430,
  "lat": 49.0094110,
  "lon": 17.1286771
},
{
  "type": "node",
  "id": 6509026431,
  "lat": 49.0094054,
  "lon": 17.1286829
},
{
  "type": "node",
  "id": 6509026432,
  "lat": 49.0093694,
  "lon": 17.1285677
},
{
  "type": "node",
  "id": 6509026433,
  "lat": 49.0093755,
  "lon": 17.1285700
},
{
  "type": "node",
  "id": 6509026434,
  "lat": 49.0093796,
  "lon": 17.1285695
},
{
  "type": "node",
  "id": 6509026435,
  "lat": 49.0093813,
  "lon": 17.1285679
},
{
  "type": "node",
  "id": 6509026436,
  "lat": 49.0093836,
  "lon": 17.1285627
},
{
  "type": "node",
  "id": 1817799818,
  "lat": 48.8996644,
  "lon": 17.3050342
},
{
  "type": "node",
  "id": 2511435614,
  "lat": 48.8995554,
  "lon": 17.3051982
},
{
  "type": "node",
  "id": 1817799821,
  "lat": 48.8998691,
  "lon": 17.3049045
},
{
  "type": "node",
  "id": 1817799825,
  "lat": 48.9006373,
  "lon": 17.3070450
},
{
  "type": "node",
  "id": 1817799843,
  "lat": 48.9009483,
  "lon": 17.3078671
},
{
  "type": "node",
  "id": 1817799852,
  "lat": 48.9010158,
  "lon": 17.3047488
},
{
  "type": "node",
  "id": 1817799866,
  "lat": 48.9013843,
  "lon": 17.3046943
},
{
  "type": "node",
  "id": 1817799881,
  "lat": 48.9017135,
  "lon": 17.3044997
},
{
  "type": "node",
  "id": 1817799884,
  "lat": 48.9019125,
  "lon": 17.3042348
},
{
  "type": "node",
  "id": 1817799912,
  "lat": 48.9023723,
  "lon": 17.3032575
},
{
  "type": "node",
  "id": 1817799934,
  "lat": 48.9026812,
  "lon": 17.3051289
},
{
  "type": "node",
  "id": 1817799942,
  "lat": 48.9028245,
  "lon": 17.3062723
},
{
  "type": "node",
  "id": 1817799958,
  "lat": 48.9029374,
  "lon": 17.3067303
},
{
  "type": "node",
  "id": 2511435621,
  "lat": 48.9000811,
  "lon": 17.3059824
},
{
  "type": "node",
  "id": 2511435626,
  "lat": 48.9003769,
  "lon": 17.3064879
},
{
  "type": "node",
  "id": 370202674,
  "lat": 48.9044351,
  "lon": 17.3121462
},
{
  "type": "node",
  "id": 370202678,
  "lat": 48.9043204,
  "lon": 17.3126155
},
{
  "type": "node",
  "id": 370202681,
  "lat": 48.9043354,
  "lon": 17.3120651
},
{
  "type": "node",
  "id": 1476940662,
  "lat": 48.9038118,
  "lon": 17.3122529
},
{
  "type": "node",
  "id": 1814791992,
  "lat": 48.9043491,
  "lon": 17.3110386
},
{
  "type": "node",
  "id": 1814795238,
  "lat": 48.9043905,
  "lon": 17.3115866
},
{
  "type": "node",
  "id": 1814795278,
  "lat": 48.9043406,
  "lon": 17.3109220
},
{
  "type": "node",
  "id": 1814795325,
  "lat": 48.9040010,
  "lon": 17.3099134
},
{
  "type": "node",
  "id": 1817799878,
  "lat": 48.9015369,
  "lon": 17.3094671
},
{
  "type": "node",
  "id": 1817799903,
  "lat": 48.9023040,
  "lon": 17.3109277
},
{
  "type": "node",
  "id": 1817799935,
  "lat": 48.9027382,
  "lon": 17.3115515
},
{
  "type": "node",
  "id": 1817799970,
  "lat": 48.9031821,
  "lon": 17.3121423
},
{
  "type": "node",
  "id": 1817799995,
  "lat": 48.9035346,
  "lon": 17.3085146
},
{
  "type": "node",
  "id": 1817799999,
  "lat": 48.9036283,
  "lon": 17.3121570
},
{
  "type": "node",
  "id": 1817800007,
  "lat": 48.9037224,
  "lon": 17.3125900
},
{
  "type": "node",
  "id": 1817800009,
  "lat": 48.9037305,
  "lon": 17.3120559
},
{
  "type": "node",
  "id": 1817800011,
  "lat": 48.9038342,
  "lon": 17.3121565
},
{
  "type": "node",
  "id": 1817800012,
  "lat": 48.9039801,
  "lon": 17.3098561
},
{
  "type": "node",
  "id": 1817800015,
  "lat": 48.9042447,
  "lon": 17.3130693
},
{
  "type": "node",
  "id": 1817800016,
  "lat": 48.9042844,
  "lon": 17.3129808
},
{
  "type": "node",
  "id": 1817800018,
  "lat": 48.9043146,
  "lon": 17.3119537
},
{
  "type": "node",
  "id": 1817800030,
  "lat": 48.9044036,
  "lon": 17.3117784
},
{
  "type": "node",
  "id": 1817800034,
  "lat": 48.9045202,
  "lon": 17.3122304
},
{
  "type": "node",
  "id": 1817800043,
  "lat": 48.9046028,
  "lon": 17.3123001
},
{
  "type": "node",
  "id": 2316888448,
  "lat": 48.9042591,
  "lon": 17.3124208
},
{
  "type": "way",
  "id": 99500883,
  "nodes": [
    1150910338,
    1150909286,
    1150910962,
    1150909882,
    1150910338
  ]
},
{
  "type": "way",
  "id": 99500951,
  "nodes": [
    1150910471,
    1150909380,
    2501741610,
    1150911058,
    1150910008,
    1150908693,
    1150910353,
    1150909297,
    1150910976,
    1150910144,
    1150909125,
    1150910833,
    1150909696,
    1150910055,
    1150909007,
    1150910740,
    1150909562,
    1150908840,
    1150910518,
    1150909422,
    1150911097,
    1150909780,
    1150908766,
    1150910425,
    1150909349,
    1150908536,
    1150910227,
    1150909191,
    1150910884,
    1150910635,
    1150909494,
    1150908351,
    1150910129,
    1150909365,
    1150911037,
    1150910471
  ]
},
{
  "type": "way",
  "id": 170612426,
  "nodes": [
    1817800012,
    1814795325,
    1814795278,
    1814791992,
    1814795238,
    1817800030,
    1817800018,
    370202681,
    370202674,
    1817800034,
    1817800043,
    1817800016,
    1817800015,
    1817800007,
    1476940662,
    1817800011,
    1817800009,
    1817799999,
    1817799970,
    1817799935,
    1817799903,
    1817799878,
    1817799843,
    1817799825,
    2511435626,
    2511435621,
    2511435614,
    1817799818,
    1817799821,
    1817799852,
    1817799866,
    1817799881,
    1817799884,
    1817799912,
    1817799934,
    1817799942,
    1817799958,
    1817799995,
    1817800012
  ]
}

  ]
}
