{
  "version": 0.6,
  "generator": "Overpass API 0.7.55.9 ab41fea6",
  "osm3s": {
    "timestamp_osm_base": "2020-02-14T15:32:02Z",
    "copyright": "The data included in this document is from www.openstreetmap.org. The data is made available under ODbL."
  },
  "elements": [

{
  "type": "node",
  "id": 1326422952,
  "lat": 46.6306780,
  "lon": 18.6996802,
  "tags": {
    "name": "Falumúzeum",
    "tourism": "museum"
  }
},
{
  "type": "node",
  "id": 1326422957,
  "lat": 46.6356809,
  "lon": 18.7053241,
  "tags": {
    "name": "Pincemúzeum",
    "tourism": "museum"
  }
},
{
  "type": "node",
  "id": 1483308532,
  "lat": 46.1724944,
  "lon": 18.4304186,
  "tags": {
    "description": "1858",
    "name": "Tojás Múzeum",
    "tourism": "museum"
  }
},
{
  "type": "node",
  "id": 1483308591,
  "lat": 46.1731823,
  "lon": 18.4304468,
  "tags": {
    "description": "Szalma-kincstár muzeális gyűjtemény. 27 ország szalmafonó művészete, több száz kultikus, használati és dísztárgy. Tel: 06/72-465-316. Nyitva (márc.15-okt.-31 = 10-18óra), (nov1-márc.14 = 10-15óra)",
    "name": "Szalma-kincstár",
    "tourism": "museum"
  }
},
{
  "type": "node",
  "id": 1684754319,
  "lat": 46.1287791,
  "lon": 18.7912667,
  "tags": {
    "name": "Fekete Gólya Ház",
    "tourism": "museum"
  }
},
{
  "type": "node",
  "id": 1873211054,
  "lat": 46.5715635,
  "lon": 18.9038985,
  "tags": {
    "addr:city": "Uszód",
    "addr:housenumber": "5",
    "addr:postcode": "6332",
    "addr:street": "Batthyány Lajos utca",
    "name": "Benedek Péter Emlékház",
    "tourism": "museum",
    "website": "http://uszod.hu/kultura/benedek-peter/"
  }
},
{
  "type": "node",
  "id": 2403921253,
  "lat": 46.2997172,
  "lon": 18.5307853,
  "tags": {
    "name": "Völgységi Múzeum",
    "tourism": "museum"
  }
},
{
  "type": "node",
  "id": 2923512765,
  "lat": 46.3482432,
  "lon": 18.7072282,
  "tags": {
    "addr:city": "Szekszárd",
    "addr:housenumber": "26",
    "addr:postcode": "7100",
    "addr:street": "Szent István tér",
    "email": "wmmm@terrasoft.hu",
    "name": "Wosinsky Mór Múzeum",
    "opening_hours": "Tu-Su 10:00-17:00",
    "phone": "+36 74 316 222",
    "tourism": "museum",
    "website": "https://wmmm.hu"
  }
},
{
  "type": "node",
  "id": 2974381985,
  "lat": 46.3482974,
  "lon": 18.6976264,
  "tags": {
    "name": "Mézeskalács Múzeum",
    "opening_hours": "Tu-Su 10:00-18:00",
    "tourism": "museum"
  }
},
{
  "type": "node",
  "id": 3042292235,
  "lat": 46.2464329,
  "lon": 19.1424814,
  "tags": {
    "name": "Falumúzeum",
    "tourism": "museum"
  }
},
{
  "type": "node",
  "id": 3073937309,
  "lat": 46.3472242,
  "lon": 18.5941602,
  "tags": {
    "name": "Tájház",
    "tourism": "museum"
  }
},
{
  "type": "node",
  "id": 3413206754,
  "lat": 46.2208800,
  "lon": 18.5293900,
  "tags": {
    "name": "Német tájház",
    "source": "turistautak.hu",
    "tourism": "museum",
    "url": "http://turistautak.hu/poi.php?id=65"
  }
},
{
  "type": "node",
  "id": 3417744902,
  "lat": 46.3504661,
  "lon": 18.6955833,
  "tags": {
    "name": "Babits Mihály Emlékház",
    "source": "turistautak.hu",
    "tourism": "museum",
    "url": "http://turistautak.hu/poi.php?id=43489"
  }
},
{
  "type": "node",
  "id": 3417744955,
  "lat": 46.3486030,
  "lon": 18.7066480,
  "tags": {
    "addr:interpolation": "10",
    "name": "Művészetek Háza",
    "source": "turistautak.hu",
    "tourism": "museum",
    "url": "http://turistautak.hu/poi.php?id=32173"
  }
},
{
  "type": "node",
  "id": 3420245647,
  "lat": 46.2553570,
  "lon": 18.8430120,
  "tags": {
    "name": "Lankóci Vízügyi Kiállítóhely",
    "source": "turistautak.hu",
    "tourism": "museum",
    "url": "http://turistautak.hu/poi.php?id=130018"
  }
},
{
  "type": "node",
  "id": 3420245648,
  "lat": 46.2371640,
  "lon": 18.8570450,
  "tags": {
    "name": "Lassi Halászati Múzeum",
    "source": "turistautak.hu",
    "tourism": "museum",
    "url": "http://turistautak.hu/poi.php?id=81124"
  }
},
{
  "type": "node",
  "id": 3420245666,
  "lat": 46.1999880,
  "lon": 18.8267860,
  "tags": {
    "name": "Vízügyi és Vadászati kiállítás",
    "source": "turistautak.hu",
    "tourism": "museum",
    "url": "http://turistautak.hu/poi.php?id=127754"
  }
},
{
  "type": "node",
  "id": 3446566400,
  "lat": 46.5652830,
  "lon": 18.4675830,
  "tags": {
    "contact:phone": "+36 74 448543",
    "description": "Látogathatóság a gondnoknál előre bejelentkezve kérhető: Szegletes János, Gyönk, Petőfi Sándor utca 311/1.",
    "name": "Német Nemzetiségi Tájház",
    "source": "turistautak.hu",
    "source:date": "2012-10-14",
    "tourism": "museum",
    "url": "http://turistautak.hu/poi.php?id=30723"
  }
},
{
  "type": "node",
  "id": 3452835550,
  "lat": 46.6051450,
  "lon": 18.6010901,
  "tags": {
    "name": "Iskolamúzeum",
    "source": "turistautak.hu",
    "source:date": "2013-08-04",
    "tourism": "museum",
    "url": "http://turistautak.hu/poi.php?id=63214"
  }
},
{
  "type": "node",
  "id": 3452835843,
  "lat": 46.5742911,
  "lon": 18.8495170,
  "tags": {
    "contact:fax": "+36 75 506662",
    "contact:phone": "+36 75 508833;+36 75 507432",
    "name": "Paksi Atomerőmű Tájékoztató- és Látogatóközpont",
    "opening_hours": "Mo-Fr 08:00-15:00; Sa 09:00-13:00; PH off",
    "start_date": "1995",
    "tourism": "museum"
  }
},
{
  "type": "node",
  "id": 3452835846,
  "lat": 46.6182040,
  "lon": 18.8535590,
  "tags": {
    "addr:city": "Paks",
    "addr:housenumber": "2",
    "addr:postcode": "7030",
    "addr:street": "Tolnai út",
    "name": "Paksi Képtár",
    "opening_hours": "Tu-Fr 10:00-18:00; Sa-Su 12:00-18:00",
    "source": "turistautak.hu",
    "source:date": "2015-01-12",
    "tourism": "museum",
    "url": "http://turistautak.hu/poi.php?id=165738"
  }
},
{
  "type": "node",
  "id": 3452835863,
  "lat": 46.6287020,
  "lon": 18.6065980,
  "tags": {
    "name": "Petőfi-ház",
    "source": "turistautak.hu",
    "source:date": "2012-10-14",
    "tourism": "museum",
    "url": "http://turistautak.hu/poi.php?id=37592"
  }
},
{
  "type": "node",
  "id": 3452835899,
  "lat": 46.6258010,
  "lon": 18.6563020,
  "tags": {
    "description": "www.nagydorog.hu",
    "name": "Sipka Múzeum",
    "source": "turistautak.hu",
    "source:date": "2012-01-01",
    "tourism": "museum",
    "url": "http://turistautak.hu/poi.php?id=63210"
  }
},
{
  "type": "node",
  "id": 3452835939,
  "lat": 46.6279270,
  "lon": 18.6584620,
  "tags": {
    "description": "www.nagydorog.hu",
    "name": "Tájház",
    "source": "turistautak.hu",
    "source:date": "2012-01-01",
    "tourism": "museum",
    "url": "http://turistautak.hu/poi.php?id=63209"
  }
},
{
  "type": "node",
  "id": 3458289115,
  "lat": 46.2719280,
  "lon": 18.3833680,
  "tags": {
    "name": "Bányászati Múzeum",
    "opening_hours": "Tu 09:00-11:00; PH closed",
    "source": "turistautak.hu",
    "source:date": "2013-09-17",
    "tourism": "museum",
    "url": "http://turistautak.hu/poi.php?id=159501"
  }
},
{
  "type": "node",
  "id": 3458289150,
  "lat": 46.2670000,
  "lon": 18.3194670,
  "tags": {
    "name": "Istálló Múzeum",
    "source": "turistautak.hu",
    "source:date": "2011-09-08",
    "tourism": "museum",
    "url": "http://turistautak.hu/poi.php?id=121921"
  }
},
{
  "type": "node",
  "id": 3462181538,
  "lat": 46.1252520,
  "lon": 18.7668830,
  "tags": {
    "name": "Tájház",
    "source": "turistautak.hu",
    "source:date": "2011-09-08",
    "tourism": "museum",
    "url": "http://turistautak.hu/poi.php?id=36862"
  }
},
{
  "type": "node",
  "id": 3462181539,
  "lat": 46.1851330,
  "lon": 18.7257670,
  "tags": {
    "description": "A tájházhoz a Művelődési Házban kell szólni először, s onnan jön majd valaki vezetésre. 74-493-690 74-491-861 74-491-863 20/471-9776 20/397-7576 20/265-1229",
    "name": "Tájház",
    "source": "turistautak.hu",
    "source:date": "2011-09-08",
    "tourism": "museum",
    "url": "http://turistautak.hu/poi.php?id=20569"
  }
},
{
  "type": "node",
  "id": 3462187063,
  "lat": 46.3833800,
  "lon": 18.6650600,
  "tags": {
    "description": "Hímzésmúzeum 06 30 959 4029 06 30 229 4293 06 74 315 550",
    "name": "Hímzésmúzeum",
    "source": "turistautak.hu",
    "source:date": "2012-10-14",
    "tourism": "museum",
    "url": "http://turistautak.hu/poi.php?id=32344"
  }
},
{
  "type": "node",
  "id": 3464278608,
  "lat": 46.0974230,
  "lon": 18.4605120,
  "tags": {
    "description": "Magyar Cementlapmúzeum ~privát gyűjtemény~ nyitva megbeszélés alapján (+36)-20-9258550",
    "name": "Cementlap Múzeum",
    "source": "turistautak.hu",
    "source:date": "2011-09-08",
    "tourism": "museum",
    "url": "http://turistautak.hu/poi.php?id=97646"
  }
},
{
  "type": "node",
  "id": 3464278634,
  "lat": 46.1598210,
  "lon": 18.4121420,
  "tags": {
    "name": "Kigyós Sándor kiállítás",
    "source": "turistautak.hu",
    "source:date": "2015-01-12",
    "tourism": "museum",
    "url": "http://turistautak.hu/poi.php?id=149416"
  }
},
{
  "type": "node",
  "id": 3464278661,
  "lat": 46.1479440,
  "lon": 18.4510000,
  "tags": {
    "contact:website": "http://pincegaleria.hu",
    "name": "Nagypalli Pince-Galéria",
    "opening_hours": "Mo-Tu, Th-Su 13:00-17:00",
    "source": "turistautak.hu",
    "source:date": "2011-09-08",
    "tourism": "museum",
    "url": "http://turistautak.hu/poi.php?id=95021"
  }
},
{
  "type": "node",
  "id": 3464278686,
  "lat": 46.1092620,
  "lon": 18.5249560,
  "tags": {
    "name": "Tájház",
    "source": "turistautak.hu",
    "source:date": "2011-09-08",
    "tourism": "museum",
    "url": "http://turistautak.hu/poi.php?id=102405"
  }
},
{
  "type": "node",
  "id": 3464278687,
  "lat": 46.2612690,
  "lon": 18.5019340,
  "tags": {
    "addr:city": "Hidas",
    "addr:housenumber": "111",
    "addr:postcode": "7696",
    "addr:street": "Kossuth Lajos utca",
    "description": "Kossuth u. 111. Lakóház, népi. Tájház.",
    "name": "Tájház",
    "source": "turistautak.hu",
    "source:date": "2013-06-20",
    "tourism": "museum",
    "url": "http://turistautak.hu/poi.php?id=155165"
  }
},
{
  "type": "node",
  "id": 3464291494,
  "lat": 46.0841670,
  "lon": 18.7603830,
  "tags": {
    "description": "Helytörténeti múzeum.",
    "name": "Helytörténeti Múzeum",
    "source": "turistautak.hu",
    "source:date": "2011-09-08",
    "tourism": "museum",
    "url": "http://turistautak.hu/poi.php?id=1296"
  }
},
{
  "type": "node",
  "id": 3468035553,
  "lat": 46.2981890,
  "lon": 18.5246080,
  "tags": {
    "name": "Iskolamúzeum",
    "source": "turistautak.hu",
    "source:date": "2013-11-05",
    "tourism": "museum",
    "url": "http://turistautak.hu/poi.php?id=161802"
  }
},
{
  "type": "node",
  "id": 3468036609,
  "lat": 46.4126320,
  "lon": 18.4565510,
  "tags": {
    "name": "Tájház",
    "source": "turistautak.hu",
    "source:date": "2012-10-14",
    "tourism": "museum",
    "url": "http://turistautak.hu/poi.php?id=120010"
  }
},
{
  "type": "node",
  "id": 3468036610,
  "lat": 46.2981557,
  "lon": 18.5305130,
  "tags": {
    "name": "Tűzoltó Múzeum",
    "source": "turistautak.hu",
    "source:date": "2013-11-05",
    "tourism": "museum",
    "url": "http://turistautak.hu/poi.php?id=161805"
  }
},
{
  "type": "node",
  "id": 3468036618,
  "lat": 46.2568000,
  "lon": 18.4217300,
  "tags": {
    "historic": "memorial",
    "name": "Váraljai Bányász Múzeum és emlékmű",
    "source": "turistautak.hu",
    "source:date": "2015-01-12",
    "tourism": "museum",
    "url": "http://turistautak.hu/poi.php?id=962"
  }
},
{
  "type": "node",
  "id": 3470101962,
  "lat": 46.5275170,
  "lon": 18.9758670,
  "tags": {
    "description": "Viski Károly Múzeum Szent István király út 25 (78) 462-351 Népek, életformák, hagyományok a Kalocsai Sárközben",
    "name": "Viski Károly Múzeum",
    "source": "turistautak.hu",
    "source:date": "2011-06-24",
    "tourism": "museum",
    "url": "http://turistautak.hu/poi.php?id=9831"
  }
},
{
  "type": "node",
  "id": 3487697991,
  "lat": 46.1430170,
  "lon": 18.8794829,
  "tags": {
    "name": "Falumúzeum",
    "source": "turistautak.hu",
    "source:date": "2011-05-24",
    "tourism": "museum",
    "url": "http://turistautak.hu/poi.php?id=118738"
  }
},
{
  "type": "node",
  "id": 3487703991,
  "lat": 46.1826330,
  "lon": 18.9561000,
  "tags": {
    "contact:email": "eber.baja@museum.hu",
    "contact:phone": "+36 79 324216",
    "name": "Éber Emlékház",
    "source": "turistautak.hu",
    "source:date": "2011-06-24",
    "tourism": "museum",
    "url": "http://turistautak.hu/poi.php?id=80001"
  }
},
{
  "type": "node",
  "id": 3488458744,
  "lat": 46.4245230,
  "lon": 18.7911250,
  "tags": {
    "name": "Helytörténeti Múzeum",
    "source": "turistautak.hu",
    "source:date": "2012-01-01",
    "tourism": "museum",
    "url": "http://turistautak.hu/poi.php?id=52920"
  }
},
{
  "type": "node",
  "id": 3488458745,
  "lat": 46.4072480,
  "lon": 18.7561020,
  "tags": {
    "name": "Helytörténeti múzeum",
    "source": "turistautak.hu",
    "source:date": "2012-01-01",
    "tourism": "museum",
    "url": "http://turistautak.hu/poi.php?id=52923"
  }
},
{
  "type": "node",
  "id": 3978192489,
  "lat": 46.1646830,
  "lon": 18.9384670,
  "tags": {
    "name": "Deák Ferenc-zsilip - Vízügyi Múzeum",
    "source": "turistautak.hu",
    "tourism": "museum",
    "url": "http://turistautak.hu/poi.php?id=26639"
  }
},
{
  "type": "node",
  "id": 5070860627,
  "lat": 46.5241602,
  "lon": 18.9814524,
  "tags": {
    "addr:city": "Kalocsa",
    "addr:housenumber": "76",
    "addr:postcode": "6300",
    "addr:street": "Szent István király út",
    "internet_access": "wlan",
    "name": "Schöffer Múzeum Kalocsa",
    "name:hu": "Schöffer Múzeum Kalocsa",
    "phone": "+3678462253",
    "tourism": "museum"
  }
},
{
  "type": "node",
  "id": 6328447303,
  "lat": 46.1278281,
  "lon": 18.5276215,
  "tags": {
    "name": "Templomszoba múzeum",
    "tourism": "museum"
  }
},
{
  "type": "node",
  "id": 6331789546,
  "lat": 46.1202646,
  "lon": 18.6420578,
  "tags": {
    "name": "Bukovinai székely tájház",
    "tourism": "museum"
  }
},
{
  "type": "node",
  "id": 7138505464,
  "lat": 46.3930593,
  "lon": 18.6472743,
  "tags": {
    "addr:city": "Sióagárd",
    "addr:housenumber": "31",
    "addr:postcode": "7171",
    "addr:street": "Zrínyi Miklós utca",
    "museum": "tájház",
    "name": "Tájház",
    "opening_hours": "előzetes bejelentkezés alapján",
    "tourism": "museum",
    "website": "http://www.sioagard.hu/tajhaz.html"
  }
},
{
  "type": "way",
  "id": 148316626,
  "nodes": [
    1614246024,
    1614246031,
    1614246032,
    1614246037,
    1614246038,
    1614246033,
    1614246034,
    1614246025,
    1614246024
  ],
  "tags": {
    "addr:city": "Baja",
    "addr:housename": "Vojnich-kúria",
    "addr:housenumber": "1",
    "addr:postcode": "6500",
    "addr:street": "Arany János utca",
    "building": "yes",
    "name": "Nagy István Képtár",
    "opening_hours": "Mo-Fr 10:00-16:00",
    "phone": "+36 79 325 649",
    "tourism": "museum"
  }
},
{
  "type": "way",
  "id": 158332945,
  "nodes": [
    1705564920,
    1705564915,
    1705564913,
    1705564909,
    1705564911,
    1705564902,
    1705564919,
    1705564917,
    1705564920
  ],
  "tags": {
    "building": "yes",
    "castle_type": "palace",
    "historic": "castle",
    "name": "Érseki palota",
    "tourism": "museum",
    "wikidata": "Q1470941",
    "wikipedia": "hu:Érseki palota (Kalocsa)"
  }
},
{
  "type": "way",
  "id": 249735517,
  "nodes": [
    2563021956,
    2563021957,
    2563021958,
    2563021959,
    2563021956
  ],
  "tags": {
    "addr:city": "Óbánya",
    "addr:housenumber": "68",
    "addr:postcode": "7695",
    "addr:street": "Fő utca",
    "building": "house",
    "building:levels": "1",
    "name": "Fazekas-kiállítás és Helytörténeti Gyűjtemény",
    "note": "Látogatható: előzetes bejelentkezéssel, +36 72 463 494, +36 30 348 42 30",
    "phone": "+36 72 463 494;+36 30 348 42 30",
    "tourism": "museum",
    "wheelchair": "no"
  }
},
{
  "type": "way",
  "id": 310246302,
  "nodes": [
    3156434825,
    3156434823,
    3156434824,
    3156434827,
    3156434825
  ],
  "tags": {
    "building": "yes",
    "historic": "yes",
    "man_made": "watermill",
    "name": "Szent Miklós vízimalom",
    "tourism": "museum"
  }
},
{
  "type": "way",
  "id": 311459806,
  "nodes": [
    3171086316,
    3171086310,
    3171086309,
    3171086315,
    3171086316
  ],
  "tags": {
    "building": "yes",
    "name": "Tájház",
    "tourism": "museum"
  }
},
{
  "type": "way",
  "id": 315171536,
  "nodes": [
    3212663453,
    3212663446,
    3212663445,
    3212663439,
    3212663441,
    3212663436,
    3212663437,
    3212663438,
    3212663440,
    3212663444,
    3212663443,
    3212663454,
    3212663453
  ],
  "tags": {
    "building": "yes",
    "name": "Frigyes Főherceg Őfelsége Pavilonja",
    "tourism": "museum"
  }
},
{
  "type": "way",
  "id": 337008974,
  "nodes": [
    3441038938,
    3441038936,
    3441038931,
    3441038934,
    3441038933,
    3441038935,
    3441038932,
    3441038937,
    3441038938
  ],
  "tags": {
    "building": "yes",
    "name": "Német Nemzetiségi tájház",
    "operator": "Nagymányoki Német Nemzetiségi Önkormányzat",
    "source": "bing",
    "tourism": "museum"
  }
},
{
  "type": "way",
  "id": 374498311,
  "nodes": [
    3778912282,
    3778912271,
    3778908454,
    3778912261,
    3778912266,
    3778912267,
    3778912282
  ],
  "tags": {
    "building": "yes",
    "name": "Paprikamúzeum",
    "toilets:wheelchair": "no",
    "tourism": "museum",
    "wheelchair": "no"
  }
},
{
  "type": "way",
  "id": 377119450,
  "nodes": [
    3804825357,
    3804825358,
    4512081288,
    3804825359,
    3804825360,
    3804825357
  ],
  "tags": {
    "building": "yes",
    "name": "Atomenergetikai Múzeum",
    "operator": "Paksi Atomerömű ZRT.",
    "tourism": "museum",
    "website": "http://muzeum.atomeromu.hu/"
  }
},
{
  "type": "way",
  "id": 395022597,
  "nodes": [
    3979090304,
    3979090305,
    3979090306,
    3979090307,
    3979090308,
    3979090309,
    3979090304
  ],
  "tags": {
    "addr:city": "Paks",
    "addr:housenumber": "2",
    "addr:postcode": "7030",
    "addr:street": "Deák Ferenc utca",
    "building": "yes",
    "name": "Városi Múzeum Paks",
    "opening_hours": "May-Sep: Tu 10:00-16:00; May-Sep: We-Su 10:00-18:00; Oct-Apr: Tu 10:00-16:00; Oct-Apr: We-Su 10:00-17:00",
    "tourism": "museum"
  }
},
{
  "type": "way",
  "id": 401949562,
  "nodes": [
    4043559460,
    4043559461,
    4043559462,
    4043559463,
    4043559464,
    4043559465,
    4043559466,
    4043559467,
    4043559468,
    4043559469,
    4043559470,
    4043559471,
    4043559460
  ],
  "tags": {
    "building": "train_station",
    "description": "https://www.kalohirek.hu/orokseg/ujra-nyitva-kiallitott-relikviak-oroklott-ertekek-a-vasutallomason",
    "name": "Vasúttörténeti emlékhely",
    "operator": "Vasúttörténeti Alapítvány",
    "tourism": "museum"
  }
},
{
  "type": "way",
  "id": 432345760,
  "nodes": [
    4314196797,
    4314196802,
    4314196792,
    4314196087,
    4314196088,
    4314196789,
    4314196790,
    4314196797
  ],
  "tags": {
    "name": "Paprika ház",
    "source": "turistautak.hu",
    "source:date": "2011-06-24",
    "toilets:wheelchair": "no",
    "tourism": "museum",
    "url": "http://turistautak.hu/poi.php?id=9834",
    "wheelchair": "no"
  }
},
{
  "type": "way",
  "id": 467824721,
  "nodes": [
    4624276201,
    4624276202,
    4624276204,
    4624276203,
    4624276201
  ],
  "tags": {
    "building": "yes",
    "name": "Helytörténeti gyűjtemény",
    "tourism": "museum"
  }
},
{
  "type": "way",
  "id": 505292508,
  "nodes": [
    4952630468,
    4952630467,
    4952630466,
    4952630465,
    4952630468
  ],
  "tags": {
    "building": "yes",
    "name": "Első Magyar Jelvénymúzeum",
    "tourism": "museum"
  }
},
{
  "type": "way",
  "id": 505292523,
  "nodes": [
    4952630506,
    4952630505,
    4952630504,
    4952630503,
    4952630506
  ],
  "tags": {
    "building": "yes",
    "mapillary": "RXxY1jsEfMlKee73eLHKjw",
    "name": "Tájház",
    "opening_hours": "Mo 12:00-16:00; Tu,Sa 08:00-12:00",
    "tourism": "museum"
  }
},
{
  "type": "way",
  "id": 505292555,
  "nodes": [
    4952631139,
    4952631136,
    4952631137,
    4952631138,
    4952631139
  ],
  "tags": {
    "building": "yes",
    "name": "Kékfestő műhely",
    "phone": "+ 36 30 691 4033",
    "tourism": "museum",
    "website": "http://www.kekfesto.com/"
  }
},
{
  "type": "way",
  "id": 631816987,
  "nodes": [
    5966020482,
    5966020479,
    5966020480,
    5966020481,
    5966020482
  ],
  "tags": {
    "building": "yes",
    "name": "Heimatmuseum Vemend",
    "tourism": "museum"
  }
},
{
  "type": "way",
  "id": 714717265,
  "nodes": [
    6718160527,
    6718160531,
    6718160530,
    6718160539,
    6718160536,
    6718160529,
    6718160527
  ],
  "tags": {
    "building": "yes",
    "name": "Folk Art House Musuem",
    "tourism": "museum"
  }
},
{
  "type": "relation",
  "id": 5937311,
  "members": [
    {
      "type": "way",
      "ref": 148317951,
      "role": "outer"
    },
    {
      "type": "way",
      "ref": 148317960,
      "role": "inner"
    }
  ],
  "tags": {
    "building": "yes",
    "name": "Türr István Múzeum",
    "tourism": "museum",
    "type": "multipolygon"
  }
},
{
  "type": "node",
  "id": 2563021956,
  "lat": 46.2207663,
  "lon": 18.4109026
},
{
  "type": "node",
  "id": 2563021957,
  "lat": 46.2206290,
  "lon": 18.4107417
},
{
  "type": "node",
  "id": 2563021958,
  "lat": 46.2205854,
  "lon": 18.4108275
},
{
  "type": "node",
  "id": 2563021959,
  "lat": 46.2207246,
  "lon": 18.4109791
},
{
  "type": "node",
  "id": 3156434823,
  "lat": 46.0408671,
  "lon": 18.6769457
},
{
  "type": "node",
  "id": 3156434824,
  "lat": 46.0409413,
  "lon": 18.6768776
},
{
  "type": "node",
  "id": 3156434825,
  "lat": 46.0409792,
  "lon": 18.6771991
},
{
  "type": "node",
  "id": 3156434827,
  "lat": 46.0410534,
  "lon": 18.6771311
},
{
  "type": "node",
  "id": 5966020479,
  "lat": 46.1542330,
  "lon": 18.6198982
},
{
  "type": "node",
  "id": 5966020480,
  "lat": 46.1539005,
  "lon": 18.6193054
},
{
  "type": "node",
  "id": 5966020481,
  "lat": 46.1539672,
  "lon": 18.6192271
},
{
  "type": "node",
  "id": 5966020482,
  "lat": 46.1543016,
  "lon": 18.6198145
},
{
  "type": "node",
  "id": 4624276201,
  "lat": 46.2146070,
  "lon": 18.6426605
},
{
  "type": "node",
  "id": 4624276202,
  "lat": 46.2146650,
  "lon": 18.6425364
},
{
  "type": "node",
  "id": 4624276203,
  "lat": 46.2146686,
  "lon": 18.6427207
},
{
  "type": "node",
  "id": 4624276204,
  "lat": 46.2147266,
  "lon": 18.6425966
},
{
  "type": "node",
  "id": 3441038931,
  "lat": 46.2822329,
  "lon": 18.4631711
},
{
  "type": "node",
  "id": 3441038932,
  "lat": 46.2822444,
  "lon": 18.4633394
},
{
  "type": "node",
  "id": 3441038933,
  "lat": 46.2822445,
  "lon": 18.4632267
},
{
  "type": "node",
  "id": 3441038934,
  "lat": 46.2822506,
  "lon": 18.4631755
},
{
  "type": "node",
  "id": 3441038935,
  "lat": 46.2822573,
  "lon": 18.4632298
},
{
  "type": "node",
  "id": 3441038936,
  "lat": 46.2822613,
  "lon": 18.4629308
},
{
  "type": "node",
  "id": 3441038937,
  "lat": 46.2822909,
  "lon": 18.4633509
},
{
  "type": "node",
  "id": 3441038938,
  "lat": 46.2823382,
  "lon": 18.4629498
},
{
  "type": "node",
  "id": 3212663436,
  "lat": 46.3454558,
  "lon": 18.7857897
},
{
  "type": "node",
  "id": 3212663437,
  "lat": 46.3454580,
  "lon": 18.7859136
},
{
  "type": "node",
  "id": 3212663438,
  "lat": 46.3455345,
  "lon": 18.7859108
},
{
  "type": "node",
  "id": 3212663439,
  "lat": 46.3455353,
  "lon": 18.7857202
},
{
  "type": "node",
  "id": 3212663440,
  "lat": 46.3455357,
  "lon": 18.7859841
},
{
  "type": "node",
  "id": 3212663441,
  "lat": 46.3455364,
  "lon": 18.7857867
},
{
  "type": "node",
  "id": 3212663443,
  "lat": 46.3456134,
  "lon": 18.7859053
},
{
  "type": "node",
  "id": 3212663444,
  "lat": 46.3456147,
  "lon": 18.7859812
},
{
  "type": "node",
  "id": 3212663445,
  "lat": 46.3456156,
  "lon": 18.7857172
},
{
  "type": "node",
  "id": 3212663446,
  "lat": 46.3456169,
  "lon": 18.7857888
},
{
  "type": "node",
  "id": 3212663453,
  "lat": 46.3457030,
  "lon": 18.7857856
},
{
  "type": "node",
  "id": 3212663454,
  "lat": 46.3457051,
  "lon": 18.7859019
},
{
  "type": "node",
  "id": 4952630503,
  "lat": 46.3858316,
  "lon": 18.8259901
},
{
  "type": "node",
  "id": 4952630504,
  "lat": 46.3856752,
  "lon": 18.8261189
},
{
  "type": "node",
  "id": 4952630505,
  "lat": 46.3857111,
  "lon": 18.8262105
},
{
  "type": "node",
  "id": 4952630506,
  "lat": 46.3858675,
  "lon": 18.8260818
},
{
  "type": "node",
  "id": 4952630465,
  "lat": 46.3854436,
  "lon": 18.8320633
},
{
  "type": "node",
  "id": 4952630466,
  "lat": 46.3850578,
  "lon": 18.8316731
},
{
  "type": "node",
  "id": 4952630467,
  "lat": 46.3850108,
  "lon": 18.8317707
},
{
  "type": "node",
  "id": 4952630468,
  "lat": 46.3853966,
  "lon": 18.8321610
},
{
  "type": "node",
  "id": 4952631136,
  "lat": 46.4201223,
  "lon": 18.7904748
},
{
  "type": "node",
  "id": 4952631137,
  "lat": 46.4202906,
  "lon": 18.7908503
},
{
  "type": "node",
  "id": 4952631138,
  "lat": 46.4202173,
  "lon": 18.7909193
},
{
  "type": "node",
  "id": 4952631139,
  "lat": 46.4200491,
  "lon": 18.7905438
},
{
  "type": "node",
  "id": 1614257219,
  "lat": 46.1767084,
  "lon": 18.9518322
},
{
  "type": "node",
  "id": 1614257222,
  "lat": 46.1767682,
  "lon": 18.9524583
},
{
  "type": "node",
  "id": 1614257230,
  "lat": 46.1768193,
  "lon": 18.9519887
},
{
  "type": "node",
  "id": 1614257231,
  "lat": 46.1768568,
  "lon": 18.9523375
},
{
  "type": "node",
  "id": 1614257233,
  "lat": 46.1769849,
  "lon": 18.9519083
},
{
  "type": "node",
  "id": 1614257234,
  "lat": 46.1770238,
  "lon": 18.9522919
},
{
  "type": "node",
  "id": 1614257235,
  "lat": 46.1770992,
  "lon": 18.9516076
},
{
  "type": "node",
  "id": 1614257237,
  "lat": 46.1771874,
  "lon": 18.9523473
},
{
  "type": "node",
  "id": 5181285024,
  "lat": 46.1767921,
  "lon": 18.9517841
},
{
  "type": "node",
  "id": 1614246024,
  "lat": 46.1813390,
  "lon": 18.9525586
},
{
  "type": "node",
  "id": 1614246025,
  "lat": 46.1813460,
  "lon": 18.9529711
},
{
  "type": "node",
  "id": 1614246031,
  "lat": 46.1814636,
  "lon": 18.9525542
},
{
  "type": "node",
  "id": 1614246032,
  "lat": 46.1814670,
  "lon": 18.9527561
},
{
  "type": "node",
  "id": 1614246033,
  "lat": 46.1814686,
  "lon": 18.9528484
},
{
  "type": "node",
  "id": 1614246034,
  "lat": 46.1814706,
  "lon": 18.9529667
},
{
  "type": "node",
  "id": 1614246037,
  "lat": 46.1815089,
  "lon": 18.9527546
},
{
  "type": "node",
  "id": 1614246038,
  "lat": 46.1815105,
  "lon": 18.9528469
},
{
  "type": "node",
  "id": 3171086309,
  "lat": 46.3485890,
  "lon": 19.1194289
},
{
  "type": "node",
  "id": 3171086310,
  "lat": 46.3486315,
  "lon": 19.1195195
},
{
  "type": "node",
  "id": 3171086315,
  "lat": 46.3487846,
  "lon": 19.1192362
},
{
  "type": "node",
  "id": 3171086316,
  "lat": 46.3488271,
  "lon": 19.1193268
},
{
  "type": "node",
  "id": 1705564902,
  "lat": 46.5309917,
  "lon": 18.9721371
},
{
  "type": "node",
  "id": 1705564909,
  "lat": 46.5305648,
  "lon": 18.9725980
},
{
  "type": "node",
  "id": 1705564911,
  "lat": 46.5310429,
  "lon": 18.9723312
},
{
  "type": "node",
  "id": 1705564913,
  "lat": 46.5303731,
  "lon": 18.9718722
},
{
  "type": "node",
  "id": 1705564915,
  "lat": 46.5308707,
  "lon": 18.9715946
},
{
  "type": "node",
  "id": 1705564917,
  "lat": 46.5305804,
  "lon": 18.9720128
},
{
  "type": "node",
  "id": 1705564919,
  "lat": 46.5306618,
  "lon": 18.9723211
},
{
  "type": "node",
  "id": 1705564920,
  "lat": 46.5309297,
  "lon": 18.9718179
},
{
  "type": "node",
  "id": 3778908454,
  "lat": 46.5297029,
  "lon": 18.9743795
},
{
  "type": "node",
  "id": 3778912261,
  "lat": 46.5297963,
  "lon": 18.9744919
},
{
  "type": "node",
  "id": 3778912266,
  "lat": 46.5298982,
  "lon": 18.9743132
},
{
  "type": "node",
  "id": 3778912267,
  "lat": 46.5299089,
  "lon": 18.9743261
},
{
  "type": "node",
  "id": 3778912271,
  "lat": 46.5299392,
  "lon": 18.9739650
},
{
  "type": "node",
  "id": 3778912282,
  "lat": 46.5300434,
  "lon": 18.9740904
},
{
  "type": "node",
  "id": 4314196790,
  "lat": 46.5314894,
  "lon": 18.9789294
},
{
  "type": "node",
  "id": 4314196797,
  "lat": 46.5316001,
  "lon": 18.9788731
},
{
  "type": "node",
  "id": 4314196087,
  "lat": 46.5314377,
  "lon": 18.9795731
},
{
  "type": "node",
  "id": 4314196088,
  "lat": 46.5314478,
  "lon": 18.9794466
},
{
  "type": "node",
  "id": 4314196789,
  "lat": 46.5314527,
  "lon": 18.9793867
},
{
  "type": "node",
  "id": 4314196792,
  "lat": 46.5315392,
  "lon": 18.9795919
},
{
  "type": "node",
  "id": 4314196802,
  "lat": 46.5318012,
  "lon": 18.9797394
},
{
  "type": "node",
  "id": 6718160527,
  "lat": 46.5318188,
  "lon": 18.9829297
},
{
  "type": "node",
  "id": 6718160529,
  "lat": 46.5316472,
  "lon": 18.9829208
},
{
  "type": "node",
  "id": 6718160530,
  "lat": 46.5317178,
  "lon": 18.9830671
},
{
  "type": "node",
  "id": 6718160531,
  "lat": 46.5318153,
  "lon": 18.9830722
},
{
  "type": "node",
  "id": 6718160536,
  "lat": 46.5316388,
  "lon": 18.9832587
},
{
  "type": "node",
  "id": 6718160539,
  "lat": 46.5317130,
  "lon": 18.9832626
},
{
  "type": "node",
  "id": 4043559460,
  "lat": 46.5348217,
  "lon": 18.9945127
},
{
  "type": "node",
  "id": 4043559461,
  "lat": 46.5347408,
  "lon": 18.9944902
},
{
  "type": "node",
  "id": 4043559462,
  "lat": 46.5347202,
  "lon": 18.9946466
},
{
  "type": "node",
  "id": 4043559463,
  "lat": 46.5346914,
  "lon": 18.9946386
},
{
  "type": "node",
  "id": 4043559464,
  "lat": 46.5346739,
  "lon": 18.9947716
},
{
  "type": "node",
  "id": 4043559465,
  "lat": 46.5347020,
  "lon": 18.9947794
},
{
  "type": "node",
  "id": 4043559466,
  "lat": 46.5346830,
  "lon": 18.9949237
},
{
  "type": "node",
  "id": 4043559467,
  "lat": 46.5347635,
  "lon": 18.9949461
},
{
  "type": "node",
  "id": 4043559468,
  "lat": 46.5347820,
  "lon": 18.9948052
},
{
  "type": "node",
  "id": 4043559469,
  "lat": 46.5347906,
  "lon": 18.9948076
},
{
  "type": "node",
  "id": 4043559470,
  "lat": 46.5348092,
  "lon": 18.9946659
},
{
  "type": "node",
  "id": 4043559471,
  "lat": 46.5348018,
  "lon": 18.9946638
},
{
  "type": "node",
  "id": 3804825357,
  "lat": 46.5846664,
  "lon": 18.8507198
},
{
  "type": "node",
  "id": 3804825358,
  "lat": 46.5846645,
  "lon": 18.8503951
},
{
  "type": "node",
  "id": 3804825359,
  "lat": 46.5839954,
  "lon": 18.8504031
},
{
  "type": "node",
  "id": 3804825360,
  "lat": 46.5839972,
  "lon": 18.8507278
},
{
  "type": "node",
  "id": 4512081288,
  "lat": 46.5840255,
  "lon": 18.8504027
},
{
  "type": "node",
  "id": 3979090304,
  "lat": 46.6277932,
  "lon": 18.8669080
},
{
  "type": "node",
  "id": 3979090305,
  "lat": 46.6277845,
  "lon": 18.8668858
},
{
  "type": "node",
  "id": 3979090306,
  "lat": 46.6278484,
  "lon": 18.8668326
},
{
  "type": "node",
  "id": 3979090307,
  "lat": 46.6278072,
  "lon": 18.8667277
},
{
  "type": "node",
  "id": 3979090308,
  "lat": 46.6274333,
  "lon": 18.8670389
},
{
  "type": "node",
  "id": 3979090309,
  "lat": 46.6274832,
  "lon": 18.8671661
},
{
  "type": "way",
  "id": 148317951,
  "nodes": [
    1614257219,
    5181285024,
    1614257235,
    1614257237,
    1614257222,
    1614257219
  ]
},
{
  "type": "way",
  "id": 148317960,
  "nodes": [
    1614257230,
    1614257233,
    1614257234,
    1614257231,
    1614257230
  ]
}

  ]
}
