{
  "version": 0.6,
  "generator": "Overpass API 0.7.55.9 ab41fea6",
  "osm3s": {
    "timestamp_osm_base": "2020-02-14T13:03:01Z",
    "copyright": "The data included in this document is from www.openstreetmap.org. The data is made available under ODbL."
  },
  "elements": [

{
  "type": "node",
  "id": 474658708,
  "lat": 46.1165072,
  "lon": 6.3683091,
  "tags": {
    "name": "Expomusee",
    "tourism": "museum"
  }
},
{
  "type": "node",
  "id": 481408209,
  "lat": 46.1977904,
  "lon": 6.1373069,
  "tags": {
    "addr:city": "Genève",
    "addr:country": "CH",
    "addr:housenumber": "65",
    "addr:postcode": "1205",
    "addr:street": "Boulevard Carl Vogt",
    "name": "MEG: Musée d'Ethnographie de Genève",
    "tourism": "museum",
    "website": "http://www.ville-ge.ch/meg/",
    "wikidata": "Q1955752"
  }
},
{
  "type": "node",
  "id": 861776387,
  "lat": 45.8892832,
  "lon": 6.2403598,
  "tags": {
    "name": "Fondation d'art contemporain Salomon",
    "tourism": "museum"
  }
},
{
  "type": "node",
  "id": 863551301,
  "lat": 45.6938520,
  "lon": 6.4382274,
  "tags": {
    "name": "Ecomusée du Roselais",
    "tourism": "museum"
  }
},
{
  "type": "node",
  "id": 863551310,
  "lat": 45.6946988,
  "lon": 6.4406843,
  "tags": {
    "name": "Ecomusée de la Chaume",
    "tourism": "museum"
  }
},
{
  "type": "node",
  "id": 981690477,
  "lat": 46.1842913,
  "lon": 6.1391515,
  "tags": {
    "addr:city": "Carouge (GE)",
    "addr:housenumber": "2",
    "addr:postcode": "1227",
    "addr:street": "Place de Sardaigne",
    "name": "Musée de Carouge",
    "tourism": "museum",
    "website": "https://www.carouge.ch/musee",
    "wheelchair": "yes"
  }
},
{
  "type": "node",
  "id": 983366077,
  "lat": 46.1982817,
  "lon": 6.1089823,
  "tags": {
    "addr:housenumber": "4",
    "addr:postcode": "1213",
    "addr:street": "Route du Pont-Butin",
    "name": "Musée de l'EAN",
    "name:de": "Arquebusemuseum",
    "name:fr": "Musée des EAN",
    "phone": "+41227923146",
    "tourism": "museum",
    "website": "http://www.arquebuse.ch/gen_pages.php?f=musee_ferme.txt"
  }
},
{
  "type": "node",
  "id": 1447469236,
  "lat": 46.1977280,
  "lon": 6.1508676,
  "tags": {
    "addr:city": "Genève",
    "addr:housenumber": "2",
    "addr:street": "Terrasse de Saint-Victor",
    "description": "Fermé définitivement",
    "name": "Petit-Palais",
    "tourism": "museum",
    "wikidata": "Q25917792"
  }
},
{
  "type": "node",
  "id": 1461102398,
  "lat": 46.1975981,
  "lon": 6.1532892,
  "tags": {
    "FIXME": "Double ?",
    "name": "Fondation Baur",
    "name:en": "Museum of Far Eastern Art",
    "tourism": "museum",
    "website": "http://fondation-baur.ch",
    "wikidata": "Q27481219"
  }
},
{
  "type": "node",
  "id": 1481473698,
  "lat": 46.2075839,
  "lon": 6.1336577,
  "tags": {
    "name": "Musée Voltaire",
    "name:en": "Voltaire Museum",
    "name:fr": "Musée Voltaire",
    "tourism": "museum"
  }
},
{
  "type": "node",
  "id": 1674494758,
  "lat": 45.8956404,
  "lon": 6.0381684,
  "tags": {
    "addr:street": "Route des Gorges du Fier",
    "contact:phone": "+33 4 50 46 23 07",
    "contact:website": "https://www.gorgesdufier.com/fr",
    "name": "Les Gorges du Fier",
    "tourism": "museum"
  }
},
{
  "type": "node",
  "id": 1800522659,
  "lat": 45.7863259,
  "lon": 5.9472147,
  "tags": {
    "tourism": "museum"
  }
},
{
  "type": "node",
  "id": 2021513198,
  "lat": 46.1992863,
  "lon": 6.1376416,
  "tags": {
    "addr:city": "Genève",
    "addr:housenumber": "34",
    "addr:postcode": "1205",
    "addr:street": "Rue des Bains",
    "name": "Mamco: Musée d'art moderne et contemporain",
    "name:en": "Mamco- modern and contemporary art museum",
    "name:fr": "Mamco- musée d'art moderne et contemporain",
    "name:zh": "现当代艺术博物馆",
    "opening_hours": "Tu-Fr 12:00-18:00; Sa-Su 11:00-18:00",
    "phone": "+41 22 320 61 22",
    "source": "survey",
    "tourism": "museum",
    "website": "https://www.mamco.ch/",
    "wikidata": "Q3329535"
  }
},
{
  "type": "node",
  "id": 2021514567,
  "lat": 46.1985076,
  "lon": 6.1373644,
  "tags": {
    "tourism": "museum"
  }
},
{
  "type": "node",
  "id": 2157985977,
  "lat": 46.1976471,
  "lon": 6.1533690,
  "tags": {
    "FIXME": "Double ?",
    "addr:city": "Genève",
    "addr:country": "CH",
    "addr:housenumber": "8",
    "addr:street": "Rue Munier-Romilly",
    "name": "Fondatio Baur",
    "note": "surveyed by Alex-7",
    "source": "survey",
    "survey:date": "2013-02-16",
    "tourism": "museum"
  }
},
{
  "type": "node",
  "id": 2362831289,
  "lat": 46.2013411,
  "lon": 6.1465766,
  "tags": {
    "name": "Espace Rousseau",
    "name:en": "House of Rousseau and Literature",
    "name:zh": "卢梭故居",
    "tourism": "museum"
  }
},
{
  "type": "node",
  "id": 2449282290,
  "lat": 45.8984079,
  "lon": 6.2862835,
  "tags": {
    "addr:city": "Thônes",
    "addr:postcode": "74230",
    "name": "Musée Départemental de la Résistance de Morette",
    "tourism": "museum"
  }
},
{
  "type": "node",
  "id": 2599759698,
  "lat": 45.6501519,
  "lon": 6.1660874,
  "tags": {
    "name": "Maison Faune-Flore",
    "tourism": "museum"
  }
},
{
  "type": "node",
  "id": 3215575817,
  "lat": 45.9591932,
  "lon": 5.8316942,
  "tags": {
    "disused:amenity": "townhall",
    "name": "Musée du Bois",
    "ref:FR:museofile": "M0974",
    "source": "Ministère de la Culture - base Muséofile - 2019",
    "tourism": "museum",
    "wikidata": "Q3330408",
    "wikipedia": "fr:Musée du bois de Seyssel"
  }
},
{
  "type": "node",
  "id": 3436729151,
  "lat": 46.1984004,
  "lon": 6.1382674,
  "tags": {
    "addr:city": "Genève",
    "addr:housenumber": "7",
    "addr:postcode": "1205",
    "addr:street": "Rue des Vieux-Grenadiers",
    "name": "Patek Philippe Museum",
    "name:ru": "Музей Patek Philippe",
    "name:zh": "百达翡丽钟表博物馆",
    "opening_hours": "Tu-Fr 14:00-18:00; Sa 10:00-18:00",
    "phone": "+41 22 8070910",
    "tourism": "museum",
    "website": "http://www.patekmuseum.com/",
    "wikidata": "Q3329302"
  }
},
{
  "type": "node",
  "id": 3640440188,
  "lat": 45.8980426,
  "lon": 6.1233654,
  "tags": {
    "name": "Maison Gallo",
    "tourism": "museum"
  }
},
{
  "type": "node",
  "id": 3659114813,
  "lat": 46.1988648,
  "lon": 6.1375504,
  "tags": {
    "name": "Centre d’Art Contemporain Genève",
    "tourism": "museum",
    "wikidata": "Q683970"
  }
},
{
  "type": "node",
  "id": 4159177394,
  "lat": 46.2022355,
  "lon": 6.1392711,
  "tags": {
    "addr:housenumber": "16",
    "addr:street": "Rue de l'Arquebuse",
    "name": "Next Door Gallery",
    "opening_hours": "We-Sa 13:30-17:30",
    "tourism": "museum"
  }
},
{
  "type": "node",
  "id": 4460540284,
  "lat": 45.8816259,
  "lon": 6.3241566,
  "tags": {
    "tourism": "museum"
  }
},
{
  "type": "node",
  "id": 4673743537,
  "lat": 46.2027105,
  "lon": 6.2491435,
  "tags": {
    "addr:housenumber": "1",
    "addr:street": "Rue du Commerce",
    "contact:mobile": "+33 6 10 57 57 04",
    "contact:phone": "+33 4 50 79 10 61",
    "name": "Musée du Batiment",
    "tourism": "museum"
  }
},
{
  "type": "node",
  "id": 4681396472,
  "lat": 46.2020320,
  "lon": 6.1466978,
  "tags": {
    "addr:city": "Genève",
    "addr:housenumber": "10",
    "addr:postcode": "1204",
    "addr:street": "Rue Jean-Calvin",
    "description": "Arts de l’Antiquité, de l’Afrique, de l’Asie et de l’Océanie",
    "email": "musee@barbier-mueller.ch",
    "name": "Musée Barbier-Mueller",
    "opening_hours": "11:00-17:00",
    "phone": "+41 22 312 02 70",
    "tourism": "museum",
    "website": "http://www.barbier-mueller.ch",
    "wikidata": "Q3329082"
  }
},
{
  "type": "node",
  "id": 4755372834,
  "lat": 46.1991099,
  "lon": 6.1374734,
  "tags": {
    "addr:housenumber": "28",
    "addr:postcode": "1205",
    "addr:street": "Rue des Bains",
    "name": "Centre de la photographie",
    "name:en": "Centre of Photography",
    "name:fr": "Centre de la photographie",
    "tourism": "museum",
    "website": "https://www.centrephotogeneve.ch/"
  }
},
{
  "type": "node",
  "id": 4801464821,
  "lat": 45.7573086,
  "lon": 6.4812590,
  "tags": {
    "addr:city": "Cohennoz",
    "addr:postcode": "73400",
    "addr:street": "Route de Cohennoz",
    "name": "Musée de Cohennoz",
    "tourism": "museum"
  }
},
{
  "type": "node",
  "id": 4891589832,
  "lat": 45.8976377,
  "lon": 6.1268333,
  "tags": {
    "name": "Observatoire régional des lacs alpins",
    "opening_hours": "Jun-Sep: Mo-Su 10:30-18:00;Oct-May: We-Mo 10:00-12:00;Oct-May: We-Mo 14:00-17:00",
    "tourism": "museum",
    "wikidata": "Q3348487",
    "wikipedia": "fr:Observatoire régional des lacs alpins"
  }
},
{
  "type": "node",
  "id": 4891589833,
  "lat": 45.8976583,
  "lon": 6.1260527,
  "tags": {
    "name": "Musée d'art contemporain et d'art régional",
    "opening_hours": "Jun-Sep: Mo-Su 10:30-18:00;Oct-May: We-Mo 10:00-12:00;Oct-May: We-Mo 14:00-17:00",
    "tourism": "museum",
    "wikidata": "Q3329590",
    "wikipedia": "fr:Musée d'Art contemporain et d'Art régional d'Annecy"
  }
},
{
  "type": "node",
  "id": 5475773723,
  "lat": 46.1921228,
  "lon": 6.1548310,
  "tags": {
    "addr:housenumber": "6",
    "addr:postcode": "1206",
    "addr:street": "Avenue Dumas",
    "email": "fondation@nufnuf-art.ch",
    "internet_access": "wlan",
    "name": "nufnuf-art fondation",
    "name:de": "nufnuf-art stiftung",
    "name:en": "nufnuf-art foundation",
    "opening_hours": "Th-Sa 14:00-20:00",
    "phone": "+41786036999",
    "tourism": "museum",
    "website": "http://www.nufnuf-art.ch"
  }
},
{
  "type": "node",
  "id": 5584004125,
  "lat": 46.1456219,
  "lon": 6.4097161,
  "tags": {
    "addr:housenumber": "800",
    "addr:street": "Avenue de Savoie",
    "contact:email": "paysalp@paysalp.fr",
    "contact:phone": "+33 4 50 36 89 18",
    "contact:website": "http://paysalp.fr/",
    "name": "Maison de la Mémoire",
    "tourism": "museum"
  }
},
{
  "type": "node",
  "id": 6049277338,
  "lat": 46.1987829,
  "lon": 6.1369427,
  "tags": {
    "name": "Exploracentre",
    "opening_hours": "We 10:00-18:00, Th-Fr 13:30-16:30, Sa 10:00-18:00, Su 13:00-18:00",
    "tourism": "museum",
    "website": "https://www.exploracentre.ch"
  }
},
{
  "type": "node",
  "id": 6550873780,
  "lat": 45.7194353,
  "lon": 6.4049027,
  "tags": {
    "addr:street": "L'Epignier",
    "fee": "yes",
    "name": "Musée de la taillanderie Busillet",
    "opening_hours": "Jul 14-Aug 15 We-Su 14:00-17:00",
    "phone": "+33 4 79 37 62 07",
    "tourism": "museum",
    "website": "https://www.savoie-mont-blanc.com/offre/fiche/musee-de-la-taillanderie-busillet/82236"
  }
},
{
  "type": "node",
  "id": 7049144505,
  "lat": 45.8988203,
  "lon": 6.0391237,
  "tags": {
    "addr:city": "Lovagny",
    "addr:country": "FR",
    "addr:postcode": "74330",
    "addr:street": "Rue du Château",
    "contact:email": "info@chateaudemontrottier.com",
    "contact:phone": "+33 4 50 46 23 02",
    "contact:website": "http://www.chateaudemontrottier.com/",
    "name": "Musée Léon Marès",
    "name:wikipedia": "fr:Léon Marès",
    "ref:FR:museofile": "M1054",
    "source": "Ministère de la Culture - Muséofile - 09/2019",
    "tourism": "museum"
  }
},
{
  "type": "node",
  "id": 7056652026,
  "lat": 45.8619761,
  "lon": 5.9480724,
  "tags": {
    "tourism": "museum"
  }
},
{
  "type": "way",
  "id": 15256715,
  "nodes": [
    2941479696,
    2941479694,
    2941479693,
    2941479695,
    151180077,
    151180074,
    2941479705,
    1345227542,
    2941479706,
    151180075,
    151180076,
    2941479696
  ],
  "tags": {
    "building": "yes",
    "building:part": "no",
    "name": "Musée Rath",
    "tourism": "museum",
    "wikidata": "Q673396"
  }
},
{
  "type": "way",
  "id": 31026811,
  "nodes": [
    344970039,
    344970040,
    344970041,
    344970042,
    344970039
  ],
  "tags": {
    "building": "yes",
    "name": "Maison du Salève",
    "source": "cadastre-dgi-fr source : Direction Générale des Impôts - Cadastre. Mise à jour : 2009",
    "tourism": "museum"
  }
},
{
  "type": "way",
  "id": 70568938,
  "nodes": [
    842089868,
    842118266,
    842094279,
    842135294,
    842131805,
    842134117,
    842089868
  ],
  "tags": {
    "building": "yes",
    "name": "Cloches Paccard",
    "source": "extraction vectorielle v1 cadastre-dgi-fr source : Direction Générale des Impôts - Cadas. Mise à jour : 2010",
    "tourism": "museum",
    "website": "http://www.paccard.com/musee/"
  }
},
{
  "type": "way",
  "id": 78492660,
  "nodes": [
    921161499,
    2159670056,
    975264600,
    975264711,
    921161386,
    921161290,
    975264541,
    975264671,
    921161622,
    921161276,
    921161400,
    1907673400,
    1907673399,
    921161565,
    1329099405,
    921161617,
    1907673415,
    1907673411,
    921161453,
    945083827,
    945083777,
    945084044,
    921161558,
    921161499
  ],
  "tags": {
    "building": "yes",
    "name": "Muséum d'Histoire Naturelle",
    "name:en": "Natural History Museum",
    "name:fr": "Muséum d'Histoire Naturelle",
    "name:zh": "自然历史博物馆",
    "opening_hours": "Tu-Su 10:00-17:00",
    "tourism": "museum",
    "url": "http://www.ville-ge.ch/mhng/",
    "wheelchair": "yes",
    "wikidata": "Q663025"
  }
},
{
  "type": "way",
  "id": 79211035,
  "nodes": [
    925352163,
    916944864,
    6371799522,
    987426525,
    2162586774,
    925352114,
    987426527,
    2162586806,
    987426528,
    2162586816,
    987426529,
    987426530,
    987426531,
    925352506,
    925352163
  ],
  "tags": {
    "building": "yes",
    "building:levels": "4",
    "name:en": "International Museum of the Reformation",
    "name:fr": "Musée international de la Réforme",
    "name:zh": "国际宗教改革博物馆",
    "tourism": "museum",
    "website": "https://www.musee-reforme.ch",
    "wikidata": "Q584164"
  }
},
{
  "type": "way",
  "id": 79376440,
  "nodes": [
    926743678,
    926741141,
    926742310,
    926745680,
    926743312,
    926746547,
    926746353,
    926743803,
    926741343,
    926744827,
    926745878,
    926743471,
    926743678
  ],
  "tags": {
    "building": "yes",
    "name": "Musée Faure",
    "source": "extraction vectorielle v1 cadastre-dgi-fr source : Direction Générale des Impôts - Cadas. Mise à jour : 2010",
    "tourism": "museum",
    "wikidata": "Q3329161"
  }
},
{
  "type": "way",
  "id": 79393933,
  "nodes": [
    926920557,
    926920828,
    926920566,
    926920862,
    926920907,
    926920868,
    926920865,
    926920553,
    926920557
  ],
  "tags": {
    "addr:city": "Genève",
    "addr:housenumber": "25",
    "addr:street": "Rue des Délices",
    "building": "yes",
    "name": "Musée Voltaire",
    "opening_hours": "Mo-fr 14:00-17:00",
    "tourism": "museum",
    "website": "www.bge-geneve.ch/voltaire"
  }
},
{
  "type": "way",
  "id": 80945331,
  "nodes": [
    943762493,
    943741397,
    943762583,
    943761140,
    943751355,
    943777668,
    943775868,
    943756429,
    943748277,
    943772148,
    943754127,
    943752369,
    943778592,
    943757890,
    943742593,
    943764157,
    943762493
  ],
  "tags": {
    "building": "yes",
    "name": "Maison du Marais et Réserve Naturelle",
    "source": "cadastre-dgi-fr source : Direction Générale des Impôts - Cadastre. Mise à jour : 2010",
    "tourism": "museum"
  }
},
{
  "type": "way",
  "id": 81596620,
  "nodes": [
    4313748863,
    4313748867,
    4313748868,
    950843437,
    4313748863
  ],
  "tags": {
    "addr:city": "Genève",
    "building": "yes",
    "fixme": "approximation from memory",
    "name": "Musée d'ethnographie",
    "tourism": "museum"
  }
},
{
  "type": "way",
  "id": 87603849,
  "nodes": [
    1019012102,
    1019012034,
    1019012051,
    1019012088,
    2166870368,
    1019012109,
    1019012070,
    2166870367,
    1019012048,
    1019012104,
    1019012074,
    2166870376,
    1019132011,
    1019132162,
    1019012041,
    1019012113,
    1019012043,
    1019012077,
    2166870385,
    1019012111,
    1019132574,
    1019012038,
    1019012086,
    1019012129,
    1019012102
  ],
  "tags": {
    "addr:city": "Geneva",
    "addr:country": "CH",
    "addr:housenumber": "6",
    "addr:postcode": "1204",
    "addr:street": "Rue du Puits-Saint-Pierre",
    "building": "yes",
    "name": "Maison Tavel",
    "name:zh": "塔沃馆",
    "tourism": "museum"
  }
},
{
  "type": "way",
  "id": 107979109,
  "nodes": [
    1239811563,
    1239813250,
    1239821654,
    1239824418,
    5938462870,
    1239805973,
    5938462871,
    1239808614,
    1239814780,
    1239816577,
    1239828087,
    1239811563
  ],
  "tags": {
    "building": "yes",
    "contact:email": "resistancedepartementale74@hautesavoie.fr",
    "contact:phone": "+33 4 50 33 21 31",
    "contact:website": "http://www.cheminsdememoire.gouv.fr/fr/memoire-du-maquis-accueil-historique",
    "name": "Mémoire du Maquis",
    "source": "cadastre-dgi-fr source : Direction Générale des Impôts - Cadastre. Mise à jour : 2011",
    "tourism": "museum"
  }
},
{
  "type": "way",
  "id": 132280301,
  "nodes": [
    1455461559,
    2146461252,
    2146461258,
    1455461564,
    2146461266,
    2146461269,
    1455461584,
    2146461279,
    2146461277,
    1455461576,
    2146461263,
    2146461261,
    1455461559
  ],
  "tags": {
    "addr:city": "Conches",
    "addr:housenumber": "7",
    "addr:street": "Chemin Calandrini",
    "building": "yes",
    "name": "Annexe musée d'Ethnographie",
    "tourism": "museum"
  }
},
{
  "type": "way",
  "id": 152123691,
  "nodes": [
    1649513794,
    1649513492,
    1649513238,
    1649513351,
    1649513026,
    1649513010,
    1649512560,
    1649513155,
    1649513370,
    1649513364,
    1649513642,
    1649513655,
    2407240203,
    1649513777,
    1649513749,
    1649513897,
    1649513902,
    1649514066,
    1649514054,
    1649514102,
    1649513794
  ],
  "tags": {
    "building": "yes",
    "contact:email": "maisonjeuxolympiques@wanadoo.fr",
    "contact:fax": "+33 4 79 32 38 75",
    "contact:phone": "+33 4 79 37 75 71",
    "contact:website": "www.maisonjeuxolympiques-albertville.org",
    "name": "Maison des Jeux Olympiques d'Hiver",
    "opening_hours": "Lu : 14:00 - 18:00 / Ma → Sa : 10:00 - 12:00 et 14:00 - 18:00 / Fermé les jours fériés et le Di // Juillet et Août : Lu → Sa 10:00 → 13:00 et 14:00 → 19:00 / Di et jours fériés : 14:00 - 19:00",
    "source": "cadastre-dgi-fr source : Direction Générale des Impôts - Cadastre. Mise à jour : 2012",
    "tourism": "museum",
    "wheelchair": "yes"
  }
},
{
  "type": "way",
  "id": 152123714,
  "nodes": [
    1649472767,
    1649472593,
    1649472001,
    1649472481,
    1649472656,
    1649472846,
    1649473081,
    1649473490,
    1649473221,
    1649473261,
    1649473282,
    1649473433,
    1649473466,
    1649473722,
    1649473206,
    1649473171,
    1649472880,
    1649472953,
    1649472767
  ],
  "tags": {
    "alt_name": "Petit Palais de Conflans",
    "building": "yes",
    "castle_type": "palace",
    "heritage": "2",
    "heritage:operator": "mhs",
    "historic": "castle",
    "mhs:inscription_date": "1904-12-07",
    "name": "Maison Rouge",
    "official_name": "Musée municipal d’Albertville - Conflans",
    "phone": "+33 4 79 37 86 86",
    "ref:FR:museofile": "M1046",
    "ref:mhs": "PA00118181",
    "source": "cadastre-dgi-fr source : Direction Générale des Impôts - Cadastre. Mise à jour : 2012",
    "source:heritage": "data.gouv.fr:Ministère de la Culture - 04/2015",
    "tourism": "museum",
    "website": "http://www.albertville.fr/culture/musee-art-histoire/",
    "wikidata": "Q21592055",
    "wikipedia": "fr:Petit Palais de Conflans"
  }
},
{
  "type": "way",
  "id": 160274753,
  "nodes": [
    1723298740,
    1723298746,
    1723298736,
    1723298738,
    1723298701,
    1723298696,
    1723298690,
    1723298681,
    1723298698,
    1723298695,
    1723298740
  ],
  "tags": {
    "building": "yes",
    "name": "Ecomusée de la combe de Savoie",
    "source": "cadastre-dgi-fr source : Direction Générale des Impôts - Cadastre. Mise à jour : 2012",
    "tourism": "museum",
    "wikidata": "Q21481650"
  }
},
{
  "type": "way",
  "id": 176393682,
  "nodes": [
    1869282894,
    1869282847,
    1869282844,
    1869282879,
    1869282894
  ],
  "tags": {
    "building": "yes",
    "name": "Musée de la Vache et des Alpages",
    "source": "cadastre-dgi-fr source : Direction Générale des Impôts - Cadastre. Mise à jour : 2012",
    "tourism": "museum"
  }
},
{
  "type": "way",
  "id": 179836807,
  "nodes": [
    1902642419,
    1902642393,
    1902642360,
    1902642363,
    1902642290,
    1902642291,
    1902642251,
    1902642248,
    1902642305,
    1902642317,
    1902642383,
    1902642429,
    1902642467,
    1902642567,
    1902642419
  ],
  "tags": {
    "addr:city": "Genève",
    "addr:housenumber": "8",
    "addr:postcode": "1206",
    "addr:street": "Rue Munier-Romilly",
    "building": "yes",
    "name": "Musée des arts d'Extrême-Orient",
    "opening_hours": "Tu-Su 14:00-18:00",
    "operator": "Fondation Baur",
    "tourism": "museum"
  }
},
{
  "type": "way",
  "id": 209748582,
  "nodes": [
    2199394806,
    2199394801,
    2199394790,
    2199394791,
    2199394793,
    2199394806
  ],
  "tags": {
    "building": "yes",
    "name": "Musée des Outils de la Pierre",
    "source": "cadastre-dgi-fr source : Direction Générale des Impôts - Cadastre. Mise à jour : 2013",
    "tourism": "museum",
    "wall": "no"
  }
},
{
  "type": "way",
  "id": 209748669,
  "nodes": [
    2199394820,
    2199394817,
    2199394796,
    2199394795,
    2199394802,
    2199394820
  ],
  "tags": {
    "building": "yes",
    "description": "Avec film \"Vin, tourisme et gastronomie au Pays de Brillat-Savarin\"",
    "name": "Musée des Traditions Vigneronnes",
    "source": "cadastre-dgi-fr source : Direction Générale des Impôts - Cadastre. Mise à jour : 2013",
    "tourism": "museum",
    "wikidata": "Q3330290"
  }
},
{
  "type": "way",
  "id": 210386723,
  "nodes": [
    2204621124,
    2204621113,
    2204621107,
    2204621114,
    2204621124
  ],
  "tags": {
    "building": "yes",
    "name": "Musée du Valromey",
    "source": "cadastre-dgi-fr source : Direction Générale des Impôts - Cadastre. Mise à jour : 2009",
    "tourism": "museum"
  }
},
{
  "type": "way",
  "id": 258587018,
  "nodes": [
    1907183502,
    2639198201,
    2639198187,
    2639198185,
    2639198183,
    2639198169,
    2639198167,
    2639198166,
    2639198164,
    2639198160,
    2639198153,
    2639198139,
    2639198130,
    2639198124,
    2639198121,
    2639198117,
    2639198115,
    2639198116,
    2639198078,
    2639198075,
    2639198069,
    2639198063,
    2639198049,
    2639198048,
    2639198043,
    2639198042,
    2639198036,
    2639198035,
    2639198037,
    2639161584,
    2639161596,
    2639198148,
    2639198190,
    1907183526,
    1907183520,
    1907183516,
    1907183508,
    1907183502
  ],
  "tags": {
    "name": "Fondation Martin Bodmer",
    "opening_hours": "Th-Su 14:00-18:00",
    "tourism": "museum",
    "wikidata": "Q667858",
    "wikipedia": "fr:Fondation Martin Bodmer"
  }
},
{
  "type": "way",
  "id": 328199865,
  "nodes": [
    3350110272,
    3350110273,
    3350111097,
    3350111096,
    3350111114,
    3350111113,
    3350110292,
    3350110285,
    3350110272
  ],
  "tags": {
    "addr:city": "Viuz-en-Sallaz",
    "addr:country": "FR",
    "addr:housenumber": "628",
    "addr:postcode": "74250",
    "addr:street": "Avenue de Savoie",
    "alt_name": "Musée Paysan",
    "building": "public",
    "contact:email": "paysalp@paysalp.fr",
    "contact:phone": "+33 4 50 36 89 18",
    "contact:website": "http://www.paysalp.fr",
    "name": "Écomusée Paysalp",
    "source": "extraction vectorielle v1 cadastre-dgi-fr source : Direction Générale des Impôts - Cadas. Mise à jour : 2010",
    "tourism": "museum"
  }
},
{
  "type": "way",
  "id": 449086141,
  "nodes": [
    4460543631,
    4460543632,
    4460543633,
    4460543634,
    4460543631
  ],
  "tags": {
    "addr:city": "Thônes",
    "addr:postcode": "74230",
    "addr:street": "Route de Montremont",
    "building": "yes",
    "description": "Ouverture aux visiteurs individuels et familles le mercredi de 14h30 à 17h30 départs en visites commentées à 14h45 et 16h15 Ouverture groupes du lundi au vendredi (sur réservation).",
    "name": "Ecomusée Du Bois Et De La Forêt (Scierie des Etouvières)",
    "operator": "Ecomusée Du Bois Et De La Forêt",
    "phone": "+33 4 50 32 18 10",
    "tourism": "museum",
    "website": "http://ecomusee-bois-foret.com/",
    "wheelchair": "yes"
  }
},
{
  "type": "relation",
  "id": 1289171,
  "members": [
    {
      "type": "way",
      "ref": 78263370,
      "role": "outer"
    },
    {
      "type": "way",
      "ref": 86700318,
      "role": "inner"
    }
  ],
  "tags": {
    "addr:city": "Genève",
    "addr:housenumber": "2",
    "addr:postcode": "1205",
    "addr:street": "Rue Charles-Galland",
    "building": "yes",
    "name": "Musée d'Art et d'Histoire",
    "name:be": "Музей мастацтва і гісторыі",
    "name:fr": "Musée d'Art et d'Histoire",
    "name:ru": "Женевский музей искусства и истории",
    "name:zh": "历史艺术博物馆",
    "opening_hours": "Tu-Su 11:00-18:00",
    "operator": "Ville de Genève",
    "tourism": "museum",
    "type": "multipolygon",
    "wikidata": "Q679075",
    "wikipedia": "fr:Musée d'art et d'histoire de Genève"
  }
},
{
  "type": "node",
  "id": 926741141,
  "lat": 45.6925423,
  "lon": 5.9158205
},
{
  "type": "node",
  "id": 926741343,
  "lat": 45.6925619,
  "lon": 5.9159937
},
{
  "type": "node",
  "id": 926742310,
  "lat": 45.6925342,
  "lon": 5.9157988
},
{
  "type": "node",
  "id": 926743312,
  "lat": 45.6924902,
  "lon": 5.9158739
},
{
  "type": "node",
  "id": 926743471,
  "lat": 45.6926149,
  "lon": 5.9158718
},
{
  "type": "node",
  "id": 926743678,
  "lat": 45.6925824,
  "lon": 5.9157873
},
{
  "type": "node",
  "id": 926743803,
  "lat": 45.6925050,
  "lon": 5.9160375
},
{
  "type": "node",
  "id": 926744827,
  "lat": 45.6926553,
  "lon": 5.9159224
},
{
  "type": "node",
  "id": 926745680,
  "lat": 45.6924773,
  "lon": 5.9158405
},
{
  "type": "node",
  "id": 926745878,
  "lat": 45.6926317,
  "lon": 5.9158582
},
{
  "type": "node",
  "id": 926746353,
  "lat": 45.6924514,
  "lon": 5.9159021
},
{
  "type": "node",
  "id": 926746547,
  "lat": 45.6924570,
  "lon": 5.9158977
},
{
  "type": "node",
  "id": 1723298681,
  "lat": 45.6026840,
  "lon": 6.2490140
},
{
  "type": "node",
  "id": 1723298690,
  "lat": 45.6027010,
  "lon": 6.2488140
},
{
  "type": "node",
  "id": 1723298695,
  "lat": 45.6027100,
  "lon": 6.2490770
},
{
  "type": "node",
  "id": 1723298696,
  "lat": 45.6027140,
  "lon": 6.2488160
},
{
  "type": "node",
  "id": 1723298698,
  "lat": 45.6027150,
  "lon": 6.2490190
},
{
  "type": "node",
  "id": 1723298701,
  "lat": 45.6027210,
  "lon": 6.2487330
},
{
  "type": "node",
  "id": 1723298736,
  "lat": 45.6028080,
  "lon": 6.2487910
},
{
  "type": "node",
  "id": 1723298738,
  "lat": 45.6028120,
  "lon": 6.2487460
},
{
  "type": "node",
  "id": 1723298740,
  "lat": 45.6028130,
  "lon": 6.2490930
},
{
  "type": "node",
  "id": 1723298746,
  "lat": 45.6028370,
  "lon": 6.2487970
},
{
  "type": "node",
  "id": 1649512560,
  "lat": 45.6759990,
  "lon": 6.3904820
},
{
  "type": "node",
  "id": 1649513010,
  "lat": 45.6760450,
  "lon": 6.3904300
},
{
  "type": "node",
  "id": 1649513026,
  "lat": 45.6760490,
  "lon": 6.3904390
},
{
  "type": "node",
  "id": 1649513155,
  "lat": 45.6760700,
  "lon": 6.3906000
},
{
  "type": "node",
  "id": 1649513238,
  "lat": 45.6760810,
  "lon": 6.3903240
},
{
  "type": "node",
  "id": 1649513351,
  "lat": 45.6761080,
  "lon": 6.3903700
},
{
  "type": "node",
  "id": 1649513364,
  "lat": 45.6761130,
  "lon": 6.3905430
},
{
  "type": "node",
  "id": 1649513370,
  "lat": 45.6761150,
  "lon": 6.3905470
},
{
  "type": "node",
  "id": 1649513492,
  "lat": 45.6761470,
  "lon": 6.3902430
},
{
  "type": "node",
  "id": 1649513642,
  "lat": 45.6761830,
  "lon": 6.3904580
},
{
  "type": "node",
  "id": 1649513655,
  "lat": 45.6761860,
  "lon": 6.3904620
},
{
  "type": "node",
  "id": 1649513749,
  "lat": 45.6762290,
  "lon": 6.3904020
},
{
  "type": "node",
  "id": 1649513777,
  "lat": 45.6762320,
  "lon": 6.3904060
},
{
  "type": "node",
  "id": 1649513794,
  "lat": 45.6762400,
  "lon": 6.3901290
},
{
  "type": "node",
  "id": 1649513897,
  "lat": 45.6763020,
  "lon": 6.3903120
},
{
  "type": "node",
  "id": 1649513902,
  "lat": 45.6763070,
  "lon": 6.3903190
},
{
  "type": "node",
  "id": 1649514054,
  "lat": 45.6763410,
  "lon": 6.3902630
},
{
  "type": "node",
  "id": 1649514066,
  "lat": 45.6763440,
  "lon": 6.3902690
},
{
  "type": "node",
  "id": 1649514102,
  "lat": 45.6763480,
  "lon": 6.3902530
},
{
  "type": "node",
  "id": 2407240203,
  "lat": 45.6762064,
  "lon": 6.3904371
},
{
  "type": "node",
  "id": 1649472001,
  "lat": 45.6704880,
  "lon": 6.3971700
},
{
  "type": "node",
  "id": 1649472481,
  "lat": 45.6705930,
  "lon": 6.3972690
},
{
  "type": "node",
  "id": 1649472593,
  "lat": 45.6706190,
  "lon": 6.3969370
},
{
  "type": "node",
  "id": 1649472656,
  "lat": 45.6706330,
  "lon": 6.3973060
},
{
  "type": "node",
  "id": 1649472767,
  "lat": 45.6706610,
  "lon": 6.3968550
},
{
  "type": "node",
  "id": 1649472846,
  "lat": 45.6706820,
  "lon": 6.3973520
},
{
  "type": "node",
  "id": 1649472880,
  "lat": 45.6706880,
  "lon": 6.3969170
},
{
  "type": "node",
  "id": 1649472953,
  "lat": 45.6706980,
  "lon": 6.3969010
},
{
  "type": "node",
  "id": 1649473081,
  "lat": 45.6707100,
  "lon": 6.3973770
},
{
  "type": "node",
  "id": 1649473171,
  "lat": 45.6707210,
  "lon": 6.3969570
},
{
  "type": "node",
  "id": 1649473206,
  "lat": 45.6707330,
  "lon": 6.3969390
},
{
  "type": "node",
  "id": 1649473221,
  "lat": 45.6707340,
  "lon": 6.3971540
},
{
  "type": "node",
  "id": 1649473261,
  "lat": 45.6707440,
  "lon": 6.3971380
},
{
  "type": "node",
  "id": 1649473282,
  "lat": 45.6707470,
  "lon": 6.3971420
},
{
  "type": "node",
  "id": 1649473433,
  "lat": 45.6707670,
  "lon": 6.3971110
},
{
  "type": "node",
  "id": 1649473466,
  "lat": 45.6707780,
  "lon": 6.3971280
},
{
  "type": "node",
  "id": 1649473490,
  "lat": 45.6707890,
  "lon": 6.3972220
},
{
  "type": "node",
  "id": 1649473722,
  "lat": 45.6708300,
  "lon": 6.3970490
},
{
  "type": "node",
  "id": 2199394790,
  "lat": 45.8138980,
  "lon": 5.7228260
},
{
  "type": "node",
  "id": 2199394791,
  "lat": 45.8138998,
  "lon": 5.7228321
},
{
  "type": "node",
  "id": 2199394793,
  "lat": 45.8139120,
  "lon": 5.7228730
},
{
  "type": "node",
  "id": 2199394795,
  "lat": 45.8139390,
  "lon": 5.7232950
},
{
  "type": "node",
  "id": 2199394796,
  "lat": 45.8139490,
  "lon": 5.7232600
},
{
  "type": "node",
  "id": 2199394801,
  "lat": 45.8139620,
  "lon": 5.7227880
},
{
  "type": "node",
  "id": 2199394802,
  "lat": 45.8139650,
  "lon": 5.7233880
},
{
  "type": "node",
  "id": 2199394806,
  "lat": 45.8139770,
  "lon": 5.7228340
},
{
  "type": "node",
  "id": 2199394817,
  "lat": 45.8140470,
  "lon": 5.7233120
},
{
  "type": "node",
  "id": 2199394820,
  "lat": 45.8140580,
  "lon": 5.7233370
},
{
  "type": "node",
  "id": 943741397,
  "lat": 45.8325080,
  "lon": 5.7445137
},
{
  "type": "node",
  "id": 943742593,
  "lat": 45.8325241,
  "lon": 5.7444180
},
{
  "type": "node",
  "id": 943748277,
  "lat": 45.8325832,
  "lon": 5.7446109
},
{
  "type": "node",
  "id": 943751355,
  "lat": 45.8325218,
  "lon": 5.7445842
},
{
  "type": "node",
  "id": 943756429,
  "lat": 45.8325535,
  "lon": 5.7445982
},
{
  "type": "node",
  "id": 943757890,
  "lat": 45.8326142,
  "lon": 5.7444573
},
{
  "type": "node",
  "id": 943761140,
  "lat": 45.8324957,
  "lon": 5.7445728
},
{
  "type": "node",
  "id": 943762493,
  "lat": 45.8325095,
  "lon": 5.7445043
},
{
  "type": "node",
  "id": 943762583,
  "lat": 45.8325015,
  "lon": 5.7445435
},
{
  "type": "node",
  "id": 943764157,
  "lat": 45.8325134,
  "lon": 5.7444855
},
{
  "type": "node",
  "id": 943775868,
  "lat": 45.8325417,
  "lon": 5.7446533
},
{
  "type": "node",
  "id": 943777668,
  "lat": 45.8325097,
  "lon": 5.7446392
},
{
  "type": "node",
  "id": 943752369,
  "lat": 45.8326630,
  "lon": 5.7445562
},
{
  "type": "node",
  "id": 943754127,
  "lat": 45.8326790,
  "lon": 5.7445647
},
{
  "type": "node",
  "id": 943772148,
  "lat": 45.8326609,
  "lon": 5.7446437
},
{
  "type": "node",
  "id": 943778592,
  "lat": 45.8326772,
  "lon": 5.7444853
},
{
  "type": "node",
  "id": 2204621107,
  "lat": 45.9295930,
  "lon": 5.7266680
},
{
  "type": "node",
  "id": 2204621113,
  "lat": 45.9296710,
  "lon": 5.7265640
},
{
  "type": "node",
  "id": 2204621114,
  "lat": 45.9297000,
  "lon": 5.7268210
},
{
  "type": "node",
  "id": 2204621124,
  "lat": 45.9297750,
  "lon": 5.7267160
},
{
  "type": "node",
  "id": 842089868,
  "lat": 45.8443055,
  "lon": 6.1509322
},
{
  "type": "node",
  "id": 842094279,
  "lat": 45.8442858,
  "lon": 6.1506116
},
{
  "type": "node",
  "id": 842118266,
  "lat": 45.8444057,
  "lon": 6.1508053
},
{
  "type": "node",
  "id": 842131805,
  "lat": 45.8441260,
  "lon": 6.1508142
},
{
  "type": "node",
  "id": 842134117,
  "lat": 45.8442463,
  "lon": 6.1510070
},
{
  "type": "node",
  "id": 842135294,
  "lat": 45.8441982,
  "lon": 6.1507227
},
{
  "type": "node",
  "id": 1869282844,
  "lat": 46.0171300,
  "lon": 5.9216730
},
{
  "type": "node",
  "id": 1869282847,
  "lat": 46.0171540,
  "lon": 5.9214340
},
{
  "type": "node",
  "id": 1869282879,
  "lat": 46.0172300,
  "lon": 5.9216940
},
{
  "type": "node",
  "id": 1869282894,
  "lat": 46.0172540,
  "lon": 5.9214560
},
{
  "type": "node",
  "id": 344970039,
  "lat": 46.0768057,
  "lon": 6.0975896
},
{
  "type": "node",
  "id": 344970040,
  "lat": 46.0765385,
  "lon": 6.0974991
},
{
  "type": "node",
  "id": 344970041,
  "lat": 46.0765134,
  "lon": 6.0976579
},
{
  "type": "node",
  "id": 344970042,
  "lat": 46.0767753,
  "lon": 6.0977516
},
{
  "type": "node",
  "id": 4460543631,
  "lat": 45.8784665,
  "lon": 6.2975733
},
{
  "type": "node",
  "id": 4460543632,
  "lat": 45.8784020,
  "lon": 6.2976457
},
{
  "type": "node",
  "id": 4460543633,
  "lat": 45.8785300,
  "lon": 6.2978562
},
{
  "type": "node",
  "id": 4460543634,
  "lat": 45.8785962,
  "lon": 6.2977758
},
{
  "type": "node",
  "id": 1239805973,
  "lat": 45.9663355,
  "lon": 6.3320787
},
{
  "type": "node",
  "id": 1239808614,
  "lat": 45.9663765,
  "lon": 6.3321197
},
{
  "type": "node",
  "id": 1239811563,
  "lat": 45.9663525,
  "lon": 6.3318777
},
{
  "type": "node",
  "id": 1239813250,
  "lat": 45.9662685,
  "lon": 6.3319627
},
{
  "type": "node",
  "id": 1239814780,
  "lat": 45.9663995,
  "lon": 6.3321347
},
{
  "type": "node",
  "id": 1239816577,
  "lat": 45.9664235,
  "lon": 6.3321487
},
{
  "type": "node",
  "id": 1239821654,
  "lat": 45.9662865,
  "lon": 6.3319997
},
{
  "type": "node",
  "id": 1239824418,
  "lat": 45.9662985,
  "lon": 6.3320237
},
{
  "type": "node",
  "id": 1239828087,
  "lat": 45.9664675,
  "lon": 6.3320167
},
{
  "type": "node",
  "id": 5938462870,
  "lat": 45.9663151,
  "lon": 6.3320484
},
{
  "type": "node",
  "id": 5938462871,
  "lat": 45.9663718,
  "lon": 6.3321150
},
{
  "type": "node",
  "id": 3350110272,
  "lat": 46.1442210,
  "lon": 6.4096160
},
{
  "type": "node",
  "id": 3350110273,
  "lat": 46.1442230,
  "lon": 6.4097610
},
{
  "type": "node",
  "id": 3350110285,
  "lat": 46.1442720,
  "lon": 6.4096150
},
{
  "type": "node",
  "id": 3350110292,
  "lat": 46.1442900,
  "lon": 6.4096140
},
{
  "type": "node",
  "id": 3350111096,
  "lat": 46.1443010,
  "lon": 6.4098250
},
{
  "type": "node",
  "id": 3350111097,
  "lat": 46.1443020,
  "lon": 6.4097580
},
{
  "type": "node",
  "id": 3350111113,
  "lat": 46.1444000,
  "lon": 6.4096120
},
{
  "type": "node",
  "id": 3350111114,
  "lat": 46.1444010,
  "lon": 6.4098240
},
{
  "type": "node",
  "id": 950843437,
  "lat": 46.1978012,
  "lon": 6.1364513
},
{
  "type": "node",
  "id": 4313748863,
  "lat": 46.1976940,
  "lon": 6.1366433
},
{
  "type": "node",
  "id": 4313748867,
  "lat": 46.1978782,
  "lon": 6.1368319
},
{
  "type": "node",
  "id": 4313748868,
  "lat": 46.1979884,
  "lon": 6.1366443
},
{
  "type": "node",
  "id": 151180074,
  "lat": 46.2018768,
  "lon": 6.1433007
},
{
  "type": "node",
  "id": 151180075,
  "lat": 46.2019339,
  "lon": 6.1435838
},
{
  "type": "node",
  "id": 151180076,
  "lat": 46.2016276,
  "lon": 6.1437129
},
{
  "type": "node",
  "id": 151180077,
  "lat": 46.2015704,
  "lon": 6.1434298
},
{
  "type": "node",
  "id": 1019012034,
  "lat": 46.2014336,
  "lon": 6.1472068
},
{
  "type": "node",
  "id": 1019012038,
  "lat": 46.2015454,
  "lon": 6.1470761
},
{
  "type": "node",
  "id": 1019012041,
  "lat": 46.2014951,
  "lon": 6.1468785
},
{
  "type": "node",
  "id": 1019012043,
  "lat": 46.2016046,
  "lon": 6.1468895
},
{
  "type": "node",
  "id": 1019012048,
  "lat": 46.2013832,
  "lon": 6.1469081
},
{
  "type": "node",
  "id": 1019012051,
  "lat": 46.2014272,
  "lon": 6.1472171
},
{
  "type": "node",
  "id": 1019012070,
  "lat": 46.2014214,
  "lon": 6.1469872
},
{
  "type": "node",
  "id": 1019012074,
  "lat": 46.2014351,
  "lon": 6.1469351
},
{
  "type": "node",
  "id": 1019012077,
  "lat": 46.2016413,
  "lon": 6.1469239
},
{
  "type": "node",
  "id": 1019012086,
  "lat": 46.2015286,
  "lon": 6.1470594
},
{
  "type": "node",
  "id": 1019012088,
  "lat": 46.2013503,
  "lon": 6.1471309
},
{
  "type": "node",
  "id": 1019012102,
  "lat": 46.2014427,
  "lon": 6.1472036
},
{
  "type": "node",
  "id": 1019012104,
  "lat": 46.2014011,
  "lon": 6.1468883
},
{
  "type": "node",
  "id": 1019012109,
  "lat": 46.2013833,
  "lon": 6.1470489
},
{
  "type": "node",
  "id": 1019012111,
  "lat": 46.2015915,
  "lon": 6.1470193
},
{
  "type": "node",
  "id": 1019012113,
  "lat": 46.2015702,
  "lon": 6.1469679
},
{
  "type": "node",
  "id": 1019012129,
  "lat": 46.2014526,
  "lon": 6.1472070
},
{
  "type": "node",
  "id": 1019132011,
  "lat": 46.2014530,
  "lon": 6.1469133
},
{
  "type": "node",
  "id": 1019132162,
  "lat": 46.2014652,
  "lon": 6.1469284
},
{
  "type": "node",
  "id": 1019132574,
  "lat": 46.2015593,
  "lon": 6.1470635
},
{
  "type": "node",
  "id": 1345227542,
  "lat": 46.2019060,
  "lon": 6.1434458
},
{
  "type": "node",
  "id": 2166870367,
  "lat": 46.2013721,
  "lon": 6.1469265
},
{
  "type": "node",
  "id": 2166870368,
  "lat": 46.2013887,
  "lon": 6.1470561
},
{
  "type": "node",
  "id": 2166870376,
  "lat": 46.2014471,
  "lon": 6.1469205
},
{
  "type": "node",
  "id": 2166870385,
  "lat": 46.2015975,
  "lon": 6.1470243
},
{
  "type": "node",
  "id": 2941479693,
  "lat": 46.2015682,
  "lon": 6.1435270
},
{
  "type": "node",
  "id": 2941479694,
  "lat": 46.2015866,
  "lon": 6.1436183
},
{
  "type": "node",
  "id": 2941479695,
  "lat": 46.2015883,
  "lon": 6.1435185
},
{
  "type": "node",
  "id": 2941479696,
  "lat": 46.2016068,
  "lon": 6.1436098
},
{
  "type": "node",
  "id": 2941479705,
  "lat": 46.2018947,
  "lon": 6.1433894
},
{
  "type": "node",
  "id": 2941479706,
  "lat": 46.2019131,
  "lon": 6.1434807
},
{
  "type": "node",
  "id": 919092703,
  "lat": 46.1991275,
  "lon": 6.1515799
},
{
  "type": "node",
  "id": 919092715,
  "lat": 46.1989552,
  "lon": 6.1513317
},
{
  "type": "node",
  "id": 919092717,
  "lat": 46.1987392,
  "lon": 6.1513506
},
{
  "type": "node",
  "id": 919092720,
  "lat": 46.1991499,
  "lon": 6.1507373
},
{
  "type": "node",
  "id": 919092744,
  "lat": 46.1991532,
  "lon": 6.1519627
},
{
  "type": "node",
  "id": 919092757,
  "lat": 46.1991387,
  "lon": 6.1510607
},
{
  "type": "node",
  "id": 919092789,
  "lat": 46.1995884,
  "lon": 6.1513302
},
{
  "type": "node",
  "id": 919092790,
  "lat": 46.1993170,
  "lon": 6.1513042
},
{
  "type": "node",
  "id": 924668377,
  "lat": 46.1993732,
  "lon": 6.1516457
},
{
  "type": "node",
  "id": 973009761,
  "lat": 46.1990821,
  "lon": 6.1518603
},
{
  "type": "node",
  "id": 973009817,
  "lat": 46.1990810,
  "lon": 6.1518326
},
{
  "type": "node",
  "id": 973009927,
  "lat": 46.1995167,
  "lon": 6.1512264
},
{
  "type": "node",
  "id": 973009975,
  "lat": 46.1994907,
  "lon": 6.1512192
},
{
  "type": "node",
  "id": 1902642248,
  "lat": 46.1974488,
  "lon": 6.1534108
},
{
  "type": "node",
  "id": 1902642251,
  "lat": 46.1974522,
  "lon": 6.1534059
},
{
  "type": "node",
  "id": 1902642290,
  "lat": 46.1974796,
  "lon": 6.1533544
},
{
  "type": "node",
  "id": 1902642291,
  "lat": 46.1974830,
  "lon": 6.1533600
},
{
  "type": "node",
  "id": 1902642305,
  "lat": 46.1974913,
  "lon": 6.1534691
},
{
  "type": "node",
  "id": 1902642317,
  "lat": 46.1975075,
  "lon": 6.1534457
},
{
  "type": "node",
  "id": 1902642360,
  "lat": 46.1975412,
  "lon": 6.1532512
},
{
  "type": "node",
  "id": 1902642363,
  "lat": 46.1975430,
  "lon": 6.1532605
},
{
  "type": "node",
  "id": 1902642383,
  "lat": 46.1975656,
  "lon": 6.1535275
},
{
  "type": "node",
  "id": 1902642393,
  "lat": 46.1975674,
  "lon": 6.1532147
},
{
  "type": "node",
  "id": 1902642419,
  "lat": 46.1975797,
  "lon": 6.1532132
},
{
  "type": "node",
  "id": 1902642429,
  "lat": 46.1975876,
  "lon": 6.1534919
},
{
  "type": "node",
  "id": 1902642467,
  "lat": 46.1976053,
  "lon": 6.1535185
},
{
  "type": "node",
  "id": 1902642567,
  "lat": 46.1976973,
  "lon": 6.1533799
},
{
  "type": "node",
  "id": 921161276,
  "lat": 46.1985753,
  "lon": 6.1579807
},
{
  "type": "node",
  "id": 921161290,
  "lat": 46.1993465,
  "lon": 6.1586211
},
{
  "type": "node",
  "id": 921161386,
  "lat": 46.1993559,
  "lon": 6.1591153
},
{
  "type": "node",
  "id": 921161400,
  "lat": 46.1986896,
  "lon": 6.1580337
},
{
  "type": "node",
  "id": 921161453,
  "lat": 46.1987483,
  "lon": 6.1580566
},
{
  "type": "node",
  "id": 921161499,
  "lat": 46.1995313,
  "lon": 6.1591349
},
{
  "type": "node",
  "id": 921161558,
  "lat": 46.1995212,
  "lon": 6.1585088
},
{
  "type": "node",
  "id": 921161565,
  "lat": 46.1987117,
  "lon": 6.1577620
},
{
  "type": "node",
  "id": 921161617,
  "lat": 46.1988381,
  "lon": 6.1578200
},
{
  "type": "node",
  "id": 921161622,
  "lat": 46.1985027,
  "lon": 6.1583081
},
{
  "type": "node",
  "id": 945083777,
  "lat": 46.1993421,
  "lon": 6.1584768
},
{
  "type": "node",
  "id": 945083827,
  "lat": 46.1993719,
  "lon": 6.1583399
},
{
  "type": "node",
  "id": 945084044,
  "lat": 46.1994200,
  "lon": 6.1585122
},
{
  "type": "node",
  "id": 975264541,
  "lat": 46.1993159,
  "lon": 6.1586069
},
{
  "type": "node",
  "id": 975264600,
  "lat": 46.1994323,
  "lon": 6.1591383
},
{
  "type": "node",
  "id": 975264671,
  "lat": 46.1993003,
  "lon": 6.1586773
},
{
  "type": "node",
  "id": 975264711,
  "lat": 46.1994318,
  "lon": 6.1591123
},
{
  "type": "node",
  "id": 1329099405,
  "lat": 46.1987712,
  "lon": 6.1577896
},
{
  "type": "node",
  "id": 1907673399,
  "lat": 46.1986665,
  "lon": 6.1579657
},
{
  "type": "node",
  "id": 1907673400,
  "lat": 46.1987011,
  "lon": 6.1579818
},
{
  "type": "node",
  "id": 1907673411,
  "lat": 46.1987576,
  "lon": 6.1580137
},
{
  "type": "node",
  "id": 1907673415,
  "lat": 46.1987924,
  "lon": 6.1580295
},
{
  "type": "node",
  "id": 2159670056,
  "lat": 46.1994409,
  "lon": 6.1591379
},
{
  "type": "node",
  "id": 916944864,
  "lat": 46.2014069,
  "lon": 6.1481052
},
{
  "type": "node",
  "id": 925352114,
  "lat": 46.2013180,
  "lon": 6.1484463
},
{
  "type": "node",
  "id": 925352163,
  "lat": 46.2016461,
  "lon": 6.1482432
},
{
  "type": "node",
  "id": 925352506,
  "lat": 46.2015534,
  "lon": 6.1485788
},
{
  "type": "node",
  "id": 987426525,
  "lat": 46.2013595,
  "lon": 6.1482768
},
{
  "type": "node",
  "id": 987426527,
  "lat": 46.2013915,
  "lon": 6.1484878
},
{
  "type": "node",
  "id": 987426528,
  "lat": 46.2014484,
  "lon": 6.1483260
},
{
  "type": "node",
  "id": 987426529,
  "lat": 46.2015199,
  "lon": 6.1483817
},
{
  "type": "node",
  "id": 987426530,
  "lat": 46.2015056,
  "lon": 6.1484337
},
{
  "type": "node",
  "id": 987426531,
  "lat": 46.2014776,
  "lon": 6.1485351
},
{
  "type": "node",
  "id": 2162586774,
  "lat": 46.2013147,
  "lon": 6.1484357
},
{
  "type": "node",
  "id": 2162586806,
  "lat": 46.2014326,
  "lon": 6.1483359
},
{
  "type": "node",
  "id": 2162586816,
  "lat": 46.2015112,
  "lon": 6.1483601
},
{
  "type": "node",
  "id": 6371799522,
  "lat": 46.2013938,
  "lon": 6.1481528
},
{
  "type": "node",
  "id": 1455461559,
  "lat": 46.1806610,
  "lon": 6.1771644
},
{
  "type": "node",
  "id": 1455461564,
  "lat": 46.1807276,
  "lon": 6.1769951
},
{
  "type": "node",
  "id": 1455461576,
  "lat": 46.1808249,
  "lon": 6.1772280
},
{
  "type": "node",
  "id": 1455461584,
  "lat": 46.1808800,
  "lon": 6.1770396
},
{
  "type": "node",
  "id": 2146461252,
  "lat": 46.1806914,
  "lon": 6.1770198
},
{
  "type": "node",
  "id": 2146461258,
  "lat": 46.1807198,
  "lon": 6.1770323
},
{
  "type": "node",
  "id": 2146461261,
  "lat": 46.1807550,
  "lon": 6.1772057
},
{
  "type": "node",
  "id": 2146461263,
  "lat": 46.1807566,
  "lon": 6.1771981
},
{
  "type": "node",
  "id": 2146461266,
  "lat": 46.1808256,
  "lon": 6.1770380
},
{
  "type": "node",
  "id": 2146461269,
  "lat": 46.1808299,
  "lon": 6.1770176
},
{
  "type": "node",
  "id": 2146461277,
  "lat": 46.1808519,
  "lon": 6.1770995
},
{
  "type": "node",
  "id": 2146461279,
  "lat": 46.1808661,
  "lon": 6.1771058
},
{
  "type": "node",
  "id": 926920553,
  "lat": 46.2076556,
  "lon": 6.1330510
},
{
  "type": "node",
  "id": 926920557,
  "lat": 46.2076334,
  "lon": 6.1331156
},
{
  "type": "node",
  "id": 926920566,
  "lat": 46.2076195,
  "lon": 6.1333959
},
{
  "type": "node",
  "id": 926920828,
  "lat": 46.2077001,
  "lon": 6.1331683
},
{
  "type": "node",
  "id": 926920862,
  "lat": 46.2075517,
  "lon": 6.1333499
},
{
  "type": "node",
  "id": 926920865,
  "lat": 46.2077720,
  "lon": 6.1331345
},
{
  "type": "node",
  "id": 926920868,
  "lat": 46.2075951,
  "lon": 6.1336323
},
{
  "type": "node",
  "id": 926920907,
  "lat": 46.2074817,
  "lon": 6.1335500
},
{
  "type": "node",
  "id": 2639161584,
  "lat": 46.2148811,
  "lon": 6.1799476
},
{
  "type": "node",
  "id": 1907183502,
  "lat": 46.2155919,
  "lon": 6.1808774
},
{
  "type": "node",
  "id": 1907183508,
  "lat": 46.2156031,
  "lon": 6.1808205
},
{
  "type": "node",
  "id": 1907183516,
  "lat": 46.2156133,
  "lon": 6.1807732
},
{
  "type": "node",
  "id": 1907183520,
  "lat": 46.2156236,
  "lon": 6.1807255
},
{
  "type": "node",
  "id": 1907183526,
  "lat": 46.2156552,
  "lon": 6.1805613
},
{
  "type": "node",
  "id": 2639161596,
  "lat": 46.2151553,
  "lon": 6.1801791
},
{
  "type": "node",
  "id": 2639198035,
  "lat": 46.2147656,
  "lon": 6.1809248
},
{
  "type": "node",
  "id": 2639198036,
  "lat": 46.2147662,
  "lon": 6.1810832
},
{
  "type": "node",
  "id": 2639198037,
  "lat": 46.2147829,
  "lon": 6.1807232
},
{
  "type": "node",
  "id": 2639198042,
  "lat": 46.2148546,
  "lon": 6.1810101
},
{
  "type": "node",
  "id": 2639198043,
  "lat": 46.2148756,
  "lon": 6.1809971
},
{
  "type": "node",
  "id": 2639198048,
  "lat": 46.2149551,
  "lon": 6.1809741
},
{
  "type": "node",
  "id": 2639198049,
  "lat": 46.2149671,
  "lon": 6.1809690
},
{
  "type": "node",
  "id": 2639198063,
  "lat": 46.2149772,
  "lon": 6.1809601
},
{
  "type": "node",
  "id": 2639198069,
  "lat": 46.2149842,
  "lon": 6.1809463
},
{
  "type": "node",
  "id": 2639198075,
  "lat": 46.2149888,
  "lon": 6.1809245
},
{
  "type": "node",
  "id": 2639198078,
  "lat": 46.2149918,
  "lon": 6.1808824
},
{
  "type": "node",
  "id": 2639198115,
  "lat": 46.2150444,
  "lon": 6.1809140
},
{
  "type": "node",
  "id": 2639198116,
  "lat": 46.2150464,
  "lon": 6.1808893
},
{
  "type": "node",
  "id": 2639198117,
  "lat": 46.2150469,
  "lon": 6.1809302
},
{
  "type": "node",
  "id": 2639198121,
  "lat": 46.2150515,
  "lon": 6.1809394
},
{
  "type": "node",
  "id": 2639198124,
  "lat": 46.2150606,
  "lon": 6.1809419
},
{
  "type": "node",
  "id": 2639198130,
  "lat": 46.2151278,
  "lon": 6.1809262
},
{
  "type": "node",
  "id": 2639198139,
  "lat": 46.2151947,
  "lon": 6.1809127
},
{
  "type": "node",
  "id": 2639198148,
  "lat": 46.2152269,
  "lon": 6.1802248
},
{
  "type": "node",
  "id": 2639198153,
  "lat": 46.2152650,
  "lon": 6.1809035
},
{
  "type": "node",
  "id": 2639198160,
  "lat": 46.2153124,
  "lon": 6.1809051
},
{
  "type": "node",
  "id": 2639198164,
  "lat": 46.2153196,
  "lon": 6.1809028
},
{
  "type": "node",
  "id": 2639198166,
  "lat": 46.2153263,
  "lon": 6.1808988
},
{
  "type": "node",
  "id": 2639198167,
  "lat": 46.2153333,
  "lon": 6.1808878
},
{
  "type": "node",
  "id": 2639198169,
  "lat": 46.2153389,
  "lon": 6.1808844
},
{
  "type": "node",
  "id": 2639198183,
  "lat": 46.2153928,
  "lon": 6.1808848
},
{
  "type": "node",
  "id": 2639198185,
  "lat": 46.2153996,
  "lon": 6.1808901
},
{
  "type": "node",
  "id": 2639198187,
  "lat": 46.2154079,
  "lon": 6.1808953
},
{
  "type": "node",
  "id": 2639198190,
  "lat": 46.2154759,
  "lon": 6.1803703
},
{
  "type": "node",
  "id": 2639198201,
  "lat": 46.2155887,
  "lon": 6.1808966
},
{
  "type": "way",
  "id": 78263370,
  "nodes": [
    919092720,
    973009975,
    973009927,
    919092789,
    924668377,
    919092744,
    973009761,
    973009817,
    919092717,
    919092720
  ]
},
{
  "type": "way",
  "id": 86700318,
  "nodes": [
    919092757,
    919092715,
    919092703,
    919092790,
    919092757
  ]
}

  ]
}
