{
  "version": 0.6,
  "generator": "Overpass API 0.7.55.9 ab41fea6",
  "osm3s": {
    "timestamp_osm_base": "2020-02-14T11:21:02Z",
    "copyright": "The data included in this document is from www.openstreetmap.org. The data is made available under ODbL."
  },
  "elements": [

{
  "type": "node",
  "id": 506886363,
  "lat": 48.6868068,
  "lon": 15.7401321,
  "tags": {
    "addr:city": "Sigmundsherberg",
    "addr:country": "AT",
    "addr:housenumber": "1",
    "addr:postcode": "3751",
    "addr:street": "Museumsstraße",
    "at_bev:addr_date": "2017-10-01",
    "museum": "railway",
    "name": "Waldviertler Eisenbahnmuseum Sigmundsherberg",
    "tourism": "museum",
    "website": "http://www.eisenbahnmuseum-waldviertel.at/"
  }
},
{
  "type": "node",
  "id": 926181497,
  "lat": 48.7580826,
  "lon": 15.9516981,
  "tags": {
    "name": "Museum Retz im Bürgerspital",
    "tourism": "museum"
  }
},
{
  "type": "node",
  "id": 1271988863,
  "lat": 48.6451778,
  "lon": 16.0842542,
  "tags": {
    "name": "Bauernmuseum",
    "tourism": "museum",
    "wikidata": "Q811287",
    "wikipedia": "de:Bauernmuseum Kalladorf"
  }
},
{
  "type": "node",
  "id": 1406098718,
  "lat": 48.9366454,
  "lon": 15.7280892,
  "tags": {
    "name": "Veterán - Tatra Bítov",
    "tourism": "museum"
  }
},
{
  "type": "node",
  "id": 1562022454,
  "lat": 48.9367211,
  "lon": 16.1808944,
  "tags": {
    "name": "Hasičské",
    "tourism": "museum"
  }
},
{
  "type": "node",
  "id": 1760534919,
  "lat": 48.8543892,
  "lon": 15.8581863,
  "tags": {
    "name": "Guckkastenmuseum",
    "tourism": "museum"
  }
},
{
  "type": "node",
  "id": 2375804645,
  "lat": 48.6426415,
  "lon": 15.8176595,
  "tags": {
    "addr:city": "Eggenburg",
    "addr:country": "AT",
    "addr:housenumber": "28",
    "addr:postcode": "3730",
    "addr:street": "Hauptplatz",
    "name": "Nostalgiewelt Eggenburg",
    "opening_hours": "Fr-Su 10:00-18:00",
    "phone": "+43 (2984) 3505",
    "tourism": "museum",
    "website": "https://www.nostalgiewelt.at/"
  }
},
{
  "type": "node",
  "id": 2378206268,
  "lat": 48.8945653,
  "lon": 15.8009678,
  "tags": {
    "name": "Muzeum Pohraničního opevnění",
    "tourism": "museum"
  }
},
{
  "type": "node",
  "id": 2597134334,
  "lat": 48.6686351,
  "lon": 15.9670197,
  "tags": {
    "addr:city": "Platt",
    "addr:postcode": "2051",
    "addr:street": "Kellergasse - Leithen-Friedhofssteig",
    "name": "Museum Steinzeitkeller",
    "opening_hours": "Apr 14-Oct 14: Sa,Su,PH 14:00-18:00",
    "payment:Niederösterreich-Card": "yes",
    "payment:cash": "yes",
    "tourism": "museum",
    "website": "https://www.steinzeitkeller.at/",
    "wheelchair": "yes"
  }
},
{
  "type": "node",
  "id": 3127939780,
  "lat": 49.1029527,
  "lon": 16.1892687,
  "tags": {
    "name": "galerie Čertův ocas",
    "tourism": "museum"
  }
},
{
  "type": "node",
  "id": 3768359941,
  "lat": 49.0508276,
  "lon": 15.8088172,
  "tags": {
    "name": "Muzeum Masné krámy",
    "tourism": "museum",
    "website": "http://www.muzeum.mbudejovice.cz/"
  }
},
{
  "type": "node",
  "id": 3768359942,
  "lat": 49.0517144,
  "lon": 15.8088242,
  "tags": {
    "name": "Muzeum řemesel",
    "tourism": "museum",
    "website": "http://www.muzeum.mbudejovice.cz/"
  }
},
{
  "type": "node",
  "id": 3809797016,
  "lat": 48.7198374,
  "lon": 16.3862884,
  "tags": {
    "addr:city": "Laa an der Thaya",
    "addr:housenumber": "4",
    "addr:postcode": "2136",
    "addr:street": "Bürgerspitalgasse",
    "museum": "local",
    "name": "Kutschenmuseum Laa/Thaya",
    "operator": "Wolfgang Satzer",
    "tourism": "museum",
    "website": "http://www.kutschenmuseum-laa.at/"
  }
},
{
  "type": "node",
  "id": 4254884524,
  "lat": 48.7558983,
  "lon": 15.9530027,
  "tags": {
    "name": "Fahrradmuseum Retz",
    "opening_hours": "May-Oct 14:00-17:00",
    "tourism": "museum",
    "website": "http://www.fahrradmuseum-retz.com/"
  }
},
{
  "type": "node",
  "id": 4899852886,
  "lat": 48.7056877,
  "lon": 16.2391314,
  "tags": {
    "museum": "local",
    "name": "Dorfmuseum Zwingendorf",
    "tourism": "museum"
  }
},
{
  "type": "node",
  "id": 4957465534,
  "lat": 48.8556701,
  "lon": 16.0442749,
  "tags": {
    "name": "Pivovar",
    "tourism": "museum"
  }
},
{
  "type": "node",
  "id": 5777196928,
  "lat": 48.7210830,
  "lon": 16.3840868,
  "tags": {
    "addr:city": "Laa an der Thaya",
    "addr:housenumber": "17",
    "addr:postcode": "2136",
    "addr:street": "Stadtplatz",
    "museum": "local",
    "name": "Südmährermuseum Laa",
    "tourism": "museum",
    "website": "http://www.suedmaehrischesheimatmuseum.at/"
  }
},
{
  "type": "node",
  "id": 5782875265,
  "lat": 48.7258984,
  "lon": 16.3866955,
  "tags": {
    "addr:city": "Laa an der Thaya",
    "addr:housenumber": "23",
    "addr:postcode": "2136",
    "addr:street": "Burgplatz",
    "name": "Biermuseum",
    "tourism": "museum"
  }
},
{
  "type": "node",
  "id": 6172901790,
  "lat": 49.0491540,
  "lon": 16.3138548,
  "tags": {
    "addr:city": "Moravský Krumlov",
    "addr:housenumber": "40",
    "addr:postcode": "67201",
    "addr:street": "náměstí T. G. Masaryka",
    "email": "muzeum@meksmk.cz",
    "name": "Městské muzeum a galerie Knížecí dům",
    "opening_hours": "Mo-Fr 07:00-15:30",
    "phone": "+420 515 224 289",
    "tourism": "museum",
    "website": "www.meksmk.cz"
  }
},
{
  "type": "node",
  "id": 6172905543,
  "lat": 49.0202481,
  "lon": 16.3765478,
  "tags": {
    "addr:city": "Vedrovice",
    "addr:housenumber": "327",
    "addr:postcode": "671 75",
    "addr:street": "Vedrovice",
    "email": "info@muzeumvedrovice.cz",
    "name": "Muzeum a informační centrum Vedrovice",
    "phone": "+420 607 026 631",
    "tourism": "museum",
    "website": "www.muzeumvedrovice.cz"
  }
},
{
  "type": "way",
  "id": 50302888,
  "nodes": [
    639131743,
    639131738,
    639131739,
    639131740,
    639131741,
    639131742,
    869336188,
    639131744,
    639131707,
    5418320124,
    639131704,
    639131693,
    639131727,
    639131725,
    5418320123,
    639131743
  ],
  "tags": {
    "building": "civic",
    "building:levels": "1",
    "building:ruian:type": "5",
    "name": "Dům umění",
    "ref:ruian:building": "10921672",
    "source": "cuzk:ruian",
    "tourism": "museum"
  }
},
{
  "type": "way",
  "id": 71804350,
  "nodes": [
    853353403,
    853352571,
    853354921,
    853354292,
    4893355099,
    853352307,
    4893355098,
    853354853,
    853352749,
    853352221,
    853353345,
    853353170,
    853354665,
    853351806,
    4893355097,
    4893355096,
    853355127,
    4893355095,
    853353002,
    853352533,
    4893355094,
    4893355093,
    853353403
  ],
  "tags": {
    "building": "residential",
    "building:flats": "1",
    "building:levels": "1",
    "building:ruian:type": "3",
    "name": "Muzeum motorizmu",
    "opening_hours": "Tu-Su 09:00-17:00",
    "ref:ruian:building": "26194929",
    "source": "cuzk:ruian",
    "start_date": "2007-03-26",
    "tourism": "museum"
  }
},
{
  "type": "way",
  "id": 71804467,
  "nodes": [
    853351930,
    4893353791,
    4893353792,
    853352618,
    853354711,
    853354911,
    853353396,
    4957465540,
    853352803,
    853355084,
    853353555,
    853354221,
    853352950,
    853353125,
    853355270,
    853352492,
    853354568,
    853354799,
    853353259,
    853353747,
    853353674,
    853354424,
    853353062,
    3614636374,
    853353199,
    853351930
  ],
  "tags": {
    "building": "civic",
    "building:flats": "2",
    "building:levels": "2",
    "building:ruian:type": "5",
    "name": "Jihomoravské muzeum; bývalý Minoristský klášter",
    "ref:ruian:building": "10919660",
    "source": "cuzk:ruian",
    "tourism": "museum"
  }
},
{
  "type": "way",
  "id": 73309608,
  "nodes": [
    869539720,
    869535029,
    869535706,
    870157176,
    870157258,
    869540715,
    872504000,
    869536383,
    870157291,
    869539720
  ],
  "tags": {
    "building": "residential",
    "building:levels": "1",
    "building:ruian:type": "3",
    "name": "Vodní mlýn ve Slupi",
    "operator": "Technické muzeum v Brně",
    "ref:ruian:building": "10832017",
    "source": "cuzk:ruian",
    "tourism": "museum",
    "website": "http://www.technicalmuseum.cz/pamatky/vodni-mlyn-ve-slupi/",
    "wikipedia": "cs:Vodní mlýn ve Slupi"
  }
},
{
  "type": "way",
  "id": 75283767,
  "nodes": [
    889037014,
    1953148642,
    889037100,
    889037164,
    889037077,
    6274231525,
    889037138,
    889037125,
    889037218,
    889037014
  ],
  "tags": {
    "building": "civic",
    "building:levels": "1",
    "building:ruian:type": "15",
    "name": "Hradiště sv. Hypolita",
    "ref:ruian:building": "10947876",
    "source": "cuzk:ruian",
    "tourism": "museum",
    "wikidata": "Q1284650",
    "wikipedia": "cs:Hradiště sv. Hypolita"
  }
},
{
  "type": "way",
  "id": 82678436,
  "nodes": [
    5081881551,
    962273112,
    962273633,
    962273999,
    962274148,
    5081881554,
    5081881553,
    5081881552,
    5081881551
  ],
  "tags": {
    "addr:city": "Sigmundsherberg",
    "addr:country": "AT",
    "addr:housenumber": "1",
    "addr:postcode": "3751",
    "addr:street": "Museumsplatz",
    "alt_name": "Oldtimermuseum",
    "building": "yes",
    "full_name": "Kraftfahrzeugmuseum Sigmundsherberg",
    "name": "Kraftfahrzeugmuseum",
    "source": "geoimage.at",
    "tourism": "museum",
    "website": "http://www.kraftfahrzeugmuseum.at/"
  }
},
{
  "type": "way",
  "id": 90054451,
  "nodes": [
    1043787250,
    3782022200,
    3782022202,
    3782022201,
    1043787215,
    1043787221,
    1043787252,
    1043787224,
    3782022191,
    3782022190,
    1043787218,
    1043787250
  ],
  "tags": {
    "building": "yes",
    "building:ruian:type": "19",
    "name": "Přeskačské podzemí",
    "ref:ruian:building": "49878522",
    "source": "cuzk:ruian",
    "tourism": "museum"
  }
},
{
  "type": "way",
  "id": 115606533,
  "nodes": [
    1305664834,
    1305664836,
    1305664838,
    1305664840,
    1305664834
  ],
  "tags": {
    "addr:city": "Hardegg",
    "addr:country": "AT",
    "addr:housenumber": "60",
    "addr:postcode": "2082",
    "addr:state": "Niederösterreich",
    "addr:street": "Hardegg Stadt",
    "building": "yes",
    "name": "ehem. Zollhaus",
    "tourism": "museum"
  }
},
{
  "type": "way",
  "id": 127255627,
  "nodes": [
    1408939234,
    1408939235,
    1408939236,
    1408939238,
    1408939239,
    1408939240,
    1408939241,
    1408939242,
    1408939243,
    1408939244,
    1408939246,
    1408939248,
    1408939250,
    1408939251,
    1408939252,
    1408939253,
    1408939234
  ],
  "tags": {
    "addr:city": "Burgschleinitz-Kühnring",
    "addr:country": "AT",
    "addr:housenumber": "25",
    "addr:place": "Zogelsdorf",
    "addr:postcode": "3730",
    "at_bev:addr_date": "2017-04-07",
    "building": "yes",
    "name": "Steinmetzmuseum",
    "tourism": "museum"
  }
},
{
  "type": "way",
  "id": 127292674,
  "nodes": [
    1409366218,
    1409366219,
    1409366220,
    1409366221,
    1409366222,
    1409366223,
    1409366224,
    1409366225,
    1409366226,
    1409366227,
    1409366218
  ],
  "tags": {
    "alt_name": "Johannessteinbruch",
    "fee": "no",
    "foot": "yes",
    "landuse": "quarry",
    "name": "Freilichtmuseum Johannessteinbruch",
    "opening_hours": "24/7",
    "tourism": "museum"
  }
},
{
  "type": "way",
  "id": 129399395,
  "nodes": [
    1427720917,
    1427720933,
    1427720937,
    1427720929,
    1427720917
  ],
  "tags": {
    "addr:city": "Kleinhöflein",
    "addr:country": "AT",
    "addr:housenumber": "142",
    "addr:postcode": "2074",
    "building": "yes",
    "name": "Eisenbahnmuseum Unter-Retzbach",
    "railway": "museum",
    "tourism": "museum"
  }
},
{
  "type": "way",
  "id": 129529859,
  "nodes": [
    1428937384,
    1428937390,
    1428937405,
    1428937385,
    1428937384
  ],
  "tags": {
    "addr:city": "Eggenburg",
    "addr:housenumber": "1",
    "addr:postcode": "3730",
    "addr:street": "Krahuletz-Platz",
    "building": "yes",
    "name": "Krahuletz-Museum",
    "opening_hours": "Mo-Fr 09:00-17:00; Sa-Su 10:00-17:00",
    "source": "geoimage.at",
    "tourism": "museum"
  }
},
{
  "type": "way",
  "id": 132901963,
  "nodes": [
    1462083624,
    1462083625,
    1462083626,
    1462083627,
    1462083624
  ],
  "tags": {
    "building": "yes",
    "fee": "no",
    "tourism": "museum"
  }
},
{
  "type": "way",
  "id": 132904643,
  "nodes": [
    1462103927,
    1462103928,
    1462103929,
    1462103930,
    6389249559,
    1462103927
  ],
  "tags": {
    "addr:city": "Stronsdorf",
    "addr:country": "AT",
    "addr:housenumber": "9",
    "addr:place": "Stronegg",
    "addr:postcode": "2153",
    "at_bev:addr_date": "2019-04-01",
    "building": "yes",
    "name": "Schauraum Hausberge im Weinviertel",
    "tourism": "museum"
  }
},
{
  "type": "way",
  "id": 134519857,
  "nodes": [
    1478951275,
    4462062608,
    4462062607,
    4462062614,
    4462062615,
    1478951274,
    1478951276,
    4462062616,
    4462062617,
    4462062610,
    4462062609,
    4462062603,
    4462062604,
    1478979093,
    4462062600,
    4462062598,
    4462062599,
    1478951273,
    1478951275
  ],
  "tags": {
    "building": "yes",
    "name": "Dorfkeller",
    "tourism": "museum",
    "wheelchair": "yes"
  }
},
{
  "type": "way",
  "id": 134522039,
  "nodes": [
    1478989645,
    1478989636,
    1478989647,
    1478989641,
    1478989645
  ],
  "tags": {
    "building": "yes",
    "name": "Hanfmuseum",
    "tourism": "museum",
    "wheelchair": "limited"
  }
},
{
  "type": "way",
  "id": 166622894,
  "nodes": [
    1780598545,
    1780598548,
    1780598547,
    1780598546,
    5963812204,
    5963812206,
    5963812207,
    5963812205,
    1780598545
  ],
  "tags": {
    "building": "yes",
    "description": "telefonische Anmeldung erforderlich",
    "name": "Gottfried-von-Einem-Haus",
    "tourism": "museum"
  }
},
{
  "type": "way",
  "id": 184358618,
  "nodes": [
    1948243781,
    1948243793,
    1948243780,
    1948243776,
    1948243795,
    1948243766,
    1948243788,
    1948243797,
    1948243791,
    1948243783,
    1948243787,
    1948243770,
    1948243782,
    1948243794,
    1948243781
  ],
  "tags": {
    "addr:city": "Hollabrunn",
    "addr:housenumber": "2",
    "addr:postcode": "2020",
    "addr:street": "Mühlenring",
    "building": "house",
    "name": "Museum Alte Hofmühle",
    "tourism": "museum",
    "wheelchair": "yes",
    "wikidata": "Q18631070",
    "wikipedia": "de:Stadtmuseum Alte Hofmühle"
  }
},
{
  "type": "way",
  "id": 223418031,
  "nodes": [
    2323155143,
    2323155144,
    2323155142,
    2323155147,
    2323155146,
    2323155145,
    2323155141,
    2323155143
  ],
  "tags": {
    "addr:city": "Sigmundsherberg",
    "addr:country": "AT",
    "addr:housenumber": "8",
    "addr:postcode": "3751",
    "addr:street": "Kleinmeiseldorfer Straße",
    "alt_name": "Sammlung Ehn",
    "building": "yes",
    "full_name": "1. österr. Motorradmuseum",
    "name": "Motorradmuseum",
    "source": "geoimage.at",
    "tourism": "museum",
    "website": "http://www.motorradmuseum.at/"
  }
},
{
  "type": "way",
  "id": 263388324,
  "nodes": [
    2690028559,
    2690028579,
    2690028566,
    2690028587,
    2690028626,
    2690028610,
    2690028618,
    2690028634,
    2690028649,
    2690028713,
    2690028595,
    2690028545,
    2690028506,
    2690028533,
    2690028559
  ],
  "tags": {
    "building": "residential",
    "building:flats": "1",
    "building:levels": "0",
    "building:ruian:type": "3",
    "contact:phone": "+420 724189755",
    "name": "Rodný dům Jana Kubiše",
    "opening_hours": "\"by appointment\"",
    "ref:ruian:building": "18462723",
    "source": "cuzk:ruian",
    "tourism": "museum"
  }
},
{
  "type": "way",
  "id": 358382188,
  "nodes": [
    3633088891,
    3633088857,
    3633088820,
    3633088804,
    3633088867,
    3633088891
  ],
  "tags": {
    "addr:housenumber": "46",
    "addr:street": "Březinova",
    "building": "yes",
    "building:levels": "1",
    "building:ruian:type": "3",
    "name": "Muzeum Otokara Březiny",
    "operator": "Společnost Otokara Březiny",
    "ref:ruian:building": "18648509",
    "source": "cuzk:ruian",
    "tourism": "museum"
  }
},
{
  "type": "way",
  "id": 435025511,
  "nodes": [
    4329610365,
    4329610366,
    4329610364,
    7120427094,
    7120427093,
    7120427095,
    4329610363,
    4329610365
  ],
  "tags": {
    "building": "yes",
    "description": "Perlmuttmanufaktur mit Besichtigungsmöglichkeit",
    "name": "RM Perlmuttdesign GmbH",
    "opening_hours": "Mo-Fr 09:00-12:00,13:00-17:00; Sa 09:00-13:00",
    "tourism": "museum",
    "website": "https://www.perlmutt.at/"
  }
},
{
  "type": "way",
  "id": 455756017,
  "nodes": [
    4521136385,
    4521136386,
    4521136387,
    4521136388,
    4521136385
  ],
  "tags": {
    "addr:city": "Fallbach",
    "addr:country": "AT",
    "addr:housenumber": "123",
    "addr:place": "Hagendorf",
    "addr:postcode": "2133",
    "building": "yes",
    "name": "Drechsler Museum",
    "tourism": "museum"
  }
},
{
  "type": "way",
  "id": 494872460,
  "nodes": [
    4866447385,
    4866447383,
    4866447382,
    4866447388,
    4866447389,
    4866447384,
    4866447385
  ],
  "tags": {
    "addr:city": "Eggenburg",
    "addr:postcode": "3730",
    "addr:street": "Bürgerspitalgasse",
    "building": "yes",
    "name": "Ziegelmuseum",
    "tourism": "museum"
  }
},
{
  "type": "node",
  "id": 1408939248,
  "lat": 48.6178172,
  "lon": 15.8134730
},
{
  "type": "node",
  "id": 1408939250,
  "lat": 48.6178278,
  "lon": 15.8133991
},
{
  "type": "node",
  "id": 1408939251,
  "lat": 48.6178297,
  "lon": 15.8133853
},
{
  "type": "node",
  "id": 1408939234,
  "lat": 48.6180956,
  "lon": 15.8134558
},
{
  "type": "node",
  "id": 1408939235,
  "lat": 48.6180672,
  "lon": 15.8135899
},
{
  "type": "node",
  "id": 1408939236,
  "lat": 48.6180331,
  "lon": 15.8136999
},
{
  "type": "node",
  "id": 1408939238,
  "lat": 48.6179934,
  "lon": 15.8138150
},
{
  "type": "node",
  "id": 1408939239,
  "lat": 48.6179104,
  "lon": 15.8137737
},
{
  "type": "node",
  "id": 1408939240,
  "lat": 48.6178968,
  "lon": 15.8137669
},
{
  "type": "node",
  "id": 1408939241,
  "lat": 48.6179241,
  "lon": 15.8136363
},
{
  "type": "node",
  "id": 1408939242,
  "lat": 48.6179831,
  "lon": 15.8136603
},
{
  "type": "node",
  "id": 1408939243,
  "lat": 48.6180036,
  "lon": 15.8135520
},
{
  "type": "node",
  "id": 1408939244,
  "lat": 48.6179809,
  "lon": 15.8135452
},
{
  "type": "node",
  "id": 1408939246,
  "lat": 48.6179843,
  "lon": 15.8135263
},
{
  "type": "node",
  "id": 1408939252,
  "lat": 48.6179864,
  "lon": 15.8134227
},
{
  "type": "node",
  "id": 1408939253,
  "lat": 48.6180172,
  "lon": 15.8134300
},
{
  "type": "node",
  "id": 1409366218,
  "lat": 48.6201995,
  "lon": 15.8110537
},
{
  "type": "node",
  "id": 1409366219,
  "lat": 48.6202539,
  "lon": 15.8109466
},
{
  "type": "node",
  "id": 1409366220,
  "lat": 48.6202757,
  "lon": 15.8108286
},
{
  "type": "node",
  "id": 1409366221,
  "lat": 48.6202866,
  "lon": 15.8106556
},
{
  "type": "node",
  "id": 1409366222,
  "lat": 48.6201863,
  "lon": 15.8105290
},
{
  "type": "node",
  "id": 1409366223,
  "lat": 48.6200253,
  "lon": 15.8105019
},
{
  "type": "node",
  "id": 1409366224,
  "lat": 48.6198874,
  "lon": 15.8105211
},
{
  "type": "node",
  "id": 1409366225,
  "lat": 48.6198565,
  "lon": 15.8107682
},
{
  "type": "node",
  "id": 1409366226,
  "lat": 48.6199672,
  "lon": 15.8108148
},
{
  "type": "node",
  "id": 1409366227,
  "lat": 48.6201378,
  "lon": 15.8109411
},
{
  "type": "node",
  "id": 1428937384,
  "lat": 48.6396406,
  "lon": 15.8176919
},
{
  "type": "node",
  "id": 1428937385,
  "lat": 48.6396423,
  "lon": 15.8178783
},
{
  "type": "node",
  "id": 1428937390,
  "lat": 48.6399600,
  "lon": 15.8176854
},
{
  "type": "node",
  "id": 1428937405,
  "lat": 48.6399617,
  "lon": 15.8178717
},
{
  "type": "node",
  "id": 4866447382,
  "lat": 48.6422856,
  "lon": 15.8180157
},
{
  "type": "node",
  "id": 4866447383,
  "lat": 48.6423553,
  "lon": 15.8180474
},
{
  "type": "node",
  "id": 4866447384,
  "lat": 48.6423819,
  "lon": 15.8178469
},
{
  "type": "node",
  "id": 4866447385,
  "lat": 48.6423784,
  "lon": 15.8178690
},
{
  "type": "node",
  "id": 4866447388,
  "lat": 48.6423139,
  "lon": 15.8178228
},
{
  "type": "node",
  "id": 4866447389,
  "lat": 48.6423474,
  "lon": 15.8178341
},
{
  "type": "node",
  "id": 1780598545,
  "lat": 48.5868412,
  "lon": 15.8456605
},
{
  "type": "node",
  "id": 1780598546,
  "lat": 48.5867021,
  "lon": 15.8455709
},
{
  "type": "node",
  "id": 1780598547,
  "lat": 48.5866656,
  "lon": 15.8457003
},
{
  "type": "node",
  "id": 1780598548,
  "lat": 48.5868048,
  "lon": 15.8457899
},
{
  "type": "node",
  "id": 5963812204,
  "lat": 48.5867469,
  "lon": 15.8455998
},
{
  "type": "node",
  "id": 5963812205,
  "lat": 48.5867978,
  "lon": 15.8456326
},
{
  "type": "node",
  "id": 5963812206,
  "lat": 48.5867520,
  "lon": 15.8455817
},
{
  "type": "node",
  "id": 5963812207,
  "lat": 48.5868029,
  "lon": 15.8456144
},
{
  "type": "node",
  "id": 962273112,
  "lat": 48.6884854,
  "lon": 15.7340352
},
{
  "type": "node",
  "id": 962273633,
  "lat": 48.6888234,
  "lon": 15.7323354
},
{
  "type": "node",
  "id": 962273999,
  "lat": 48.6890410,
  "lon": 15.7324346
},
{
  "type": "node",
  "id": 962274148,
  "lat": 48.6887027,
  "lon": 15.7341364
},
{
  "type": "node",
  "id": 5081881551,
  "lat": 48.6884976,
  "lon": 15.7340408
},
{
  "type": "node",
  "id": 5081881552,
  "lat": 48.6884898,
  "lon": 15.7340798
},
{
  "type": "node",
  "id": 5081881553,
  "lat": 48.6885460,
  "lon": 15.7341054
},
{
  "type": "node",
  "id": 5081881554,
  "lat": 48.6885534,
  "lon": 15.7340682
},
{
  "type": "node",
  "id": 2323155141,
  "lat": 48.6842229,
  "lon": 15.7466336
},
{
  "type": "node",
  "id": 2323155142,
  "lat": 48.6839269,
  "lon": 15.7459681
},
{
  "type": "node",
  "id": 2323155143,
  "lat": 48.6843149,
  "lon": 15.7463840
},
{
  "type": "node",
  "id": 2323155144,
  "lat": 48.6838873,
  "lon": 15.7461101
},
{
  "type": "node",
  "id": 2323155145,
  "lat": 48.6843291,
  "lon": 15.7467080
},
{
  "type": "node",
  "id": 2323155146,
  "lat": 48.6844186,
  "lon": 15.7464504
},
{
  "type": "node",
  "id": 2323155147,
  "lat": 48.6844582,
  "lon": 15.7463084
},
{
  "type": "node",
  "id": 4329610363,
  "lat": 48.8640657,
  "lon": 15.7999798
},
{
  "type": "node",
  "id": 4329610364,
  "lat": 48.8641821,
  "lon": 15.7994838
},
{
  "type": "node",
  "id": 4329610365,
  "lat": 48.8641970,
  "lon": 15.8000510
},
{
  "type": "node",
  "id": 4329610366,
  "lat": 48.8643133,
  "lon": 15.7995549
},
{
  "type": "node",
  "id": 7120427093,
  "lat": 48.8640960,
  "lon": 15.7995902
},
{
  "type": "node",
  "id": 7120427094,
  "lat": 48.8641278,
  "lon": 15.7994544
},
{
  "type": "node",
  "id": 7120427095,
  "lat": 48.8641502,
  "lon": 15.7996196
},
{
  "type": "node",
  "id": 1305664834,
  "lat": 48.8525925,
  "lon": 15.8622839
},
{
  "type": "node",
  "id": 1305664836,
  "lat": 48.8525437,
  "lon": 15.8622232
},
{
  "type": "node",
  "id": 1305664838,
  "lat": 48.8525082,
  "lon": 15.8622906
},
{
  "type": "node",
  "id": 1305664840,
  "lat": 48.8525585,
  "lon": 15.8623513
},
{
  "type": "node",
  "id": 1948243766,
  "lat": 48.5667482,
  "lon": 16.0838183
},
{
  "type": "node",
  "id": 1948243770,
  "lat": 48.5672176,
  "lon": 16.0838071
},
{
  "type": "node",
  "id": 1948243776,
  "lat": 48.5671839,
  "lon": 16.0838178
},
{
  "type": "node",
  "id": 1948243780,
  "lat": 48.5669215,
  "lon": 16.0834805
},
{
  "type": "node",
  "id": 1948243781,
  "lat": 48.5668236,
  "lon": 16.0836274
},
{
  "type": "node",
  "id": 1948243782,
  "lat": 48.5672549,
  "lon": 16.0837212
},
{
  "type": "node",
  "id": 1948243783,
  "lat": 48.5670526,
  "lon": 16.0843221
},
{
  "type": "node",
  "id": 1948243787,
  "lat": 48.5672833,
  "lon": 16.0838929
},
{
  "type": "node",
  "id": 1948243788,
  "lat": 48.5668158,
  "lon": 16.0836960
},
{
  "type": "node",
  "id": 1948243791,
  "lat": 48.5666811,
  "lon": 16.0838976
},
{
  "type": "node",
  "id": 1948243793,
  "lat": 48.5668402,
  "lon": 16.0836467
},
{
  "type": "node",
  "id": 1948243794,
  "lat": 48.5669585,
  "lon": 16.0833538
},
{
  "type": "node",
  "id": 1948243795,
  "lat": 48.5670117,
  "lon": 16.0841289
},
{
  "type": "node",
  "id": 1948243797,
  "lat": 48.5667961,
  "lon": 16.0836710
},
{
  "type": "node",
  "id": 1462083624,
  "lat": 48.6604045,
  "lon": 16.1416232
},
{
  "type": "node",
  "id": 1462083625,
  "lat": 48.6603835,
  "lon": 16.1415877
},
{
  "type": "node",
  "id": 1462083626,
  "lat": 48.6603271,
  "lon": 16.1416640
},
{
  "type": "node",
  "id": 1462083627,
  "lat": 48.6603481,
  "lon": 16.1416995
},
{
  "type": "node",
  "id": 1462103927,
  "lat": 48.6360708,
  "lon": 16.3093617
},
{
  "type": "node",
  "id": 1462103928,
  "lat": 48.6360144,
  "lon": 16.3092683
},
{
  "type": "node",
  "id": 1462103929,
  "lat": 48.6359784,
  "lon": 16.3093181
},
{
  "type": "node",
  "id": 1462103930,
  "lat": 48.6360348,
  "lon": 16.3094114
},
{
  "type": "node",
  "id": 6389249559,
  "lat": 48.6360353,
  "lon": 16.3094108
},
{
  "type": "node",
  "id": 4521136385,
  "lat": 48.6679641,
  "lon": 16.4384726
},
{
  "type": "node",
  "id": 4521136386,
  "lat": 48.6679894,
  "lon": 16.4385651
},
{
  "type": "node",
  "id": 4521136387,
  "lat": 48.6679168,
  "lon": 16.4386114
},
{
  "type": "node",
  "id": 4521136388,
  "lat": 48.6678906,
  "lon": 16.4385168
},
{
  "type": "node",
  "id": 1427720917,
  "lat": 48.7578383,
  "lon": 16.0029112
},
{
  "type": "node",
  "id": 1427720929,
  "lat": 48.7578064,
  "lon": 16.0030265
},
{
  "type": "node",
  "id": 1427720933,
  "lat": 48.7577292,
  "lon": 16.0028418
},
{
  "type": "node",
  "id": 1427720937,
  "lat": 48.7576973,
  "lon": 16.0029571
},
{
  "type": "node",
  "id": 889037014,
  "lat": 48.8587749,
  "lon": 16.0330964
},
{
  "type": "node",
  "id": 889037077,
  "lat": 48.8590266,
  "lon": 16.0332952
},
{
  "type": "node",
  "id": 889037100,
  "lat": 48.8588976,
  "lon": 16.0331153
},
{
  "type": "node",
  "id": 889037125,
  "lat": 48.8587681,
  "lon": 16.0332143
},
{
  "type": "node",
  "id": 889037138,
  "lat": 48.8587654,
  "lon": 16.0332472
},
{
  "type": "node",
  "id": 889037164,
  "lat": 48.8590366,
  "lon": 16.0331328
},
{
  "type": "node",
  "id": 889037218,
  "lat": 48.8587725,
  "lon": 16.0331209
},
{
  "type": "node",
  "id": 1953148642,
  "lat": 48.8588790,
  "lon": 16.0331110
},
{
  "type": "node",
  "id": 6274231525,
  "lat": 48.8588539,
  "lon": 16.0332655
},
{
  "type": "node",
  "id": 853351806,
  "lat": 48.8543063,
  "lon": 16.0428610
},
{
  "type": "node",
  "id": 853352221,
  "lat": 48.8541955,
  "lon": 16.0427233
},
{
  "type": "node",
  "id": 853352307,
  "lat": 48.8541298,
  "lon": 16.0426329
},
{
  "type": "node",
  "id": 853352533,
  "lat": 48.8541311,
  "lon": 16.0430164
},
{
  "type": "node",
  "id": 853352571,
  "lat": 48.8540240,
  "lon": 16.0428925
},
{
  "type": "node",
  "id": 853352749,
  "lat": 48.8541991,
  "lon": 16.0427154
},
{
  "type": "node",
  "id": 853353002,
  "lat": 48.8541562,
  "lon": 16.0429553
},
{
  "type": "node",
  "id": 853353170,
  "lat": 48.8542461,
  "lon": 16.0427577
},
{
  "type": "node",
  "id": 853353345,
  "lat": 48.8542401,
  "lon": 16.0427706
},
{
  "type": "node",
  "id": 853353403,
  "lat": 48.8540911,
  "lon": 16.0429525
},
{
  "type": "node",
  "id": 853354292,
  "lat": 48.8541205,
  "lon": 16.0426352
},
{
  "type": "node",
  "id": 853354665,
  "lat": 48.8542914,
  "lon": 16.0428077
},
{
  "type": "node",
  "id": 853354853,
  "lat": 48.8541454,
  "lon": 16.0426594
},
{
  "type": "node",
  "id": 853354921,
  "lat": 48.8540104,
  "lon": 16.0428784
},
{
  "type": "node",
  "id": 853355127,
  "lat": 48.8542349,
  "lon": 16.0430339
},
{
  "type": "node",
  "id": 4893355093,
  "lat": 48.8540838,
  "lon": 16.0429697
},
{
  "type": "node",
  "id": 4893355094,
  "lat": 48.8541247,
  "lon": 16.0430089
},
{
  "type": "node",
  "id": 4893355095,
  "lat": 48.8542289,
  "lon": 16.0430287
},
{
  "type": "node",
  "id": 4893355096,
  "lat": 48.8542773,
  "lon": 16.0429197
},
{
  "type": "node",
  "id": 4893355097,
  "lat": 48.8542789,
  "lon": 16.0429209
},
{
  "type": "node",
  "id": 4893355098,
  "lat": 48.8541487,
  "lon": 16.0426514
},
{
  "type": "node",
  "id": 4893355099,
  "lat": 48.8541264,
  "lon": 16.0426409
},
{
  "type": "node",
  "id": 853351930,
  "lat": 48.8567059,
  "lon": 16.0454626
},
{
  "type": "node",
  "id": 853352492,
  "lat": 48.8570708,
  "lon": 16.0454932
},
{
  "type": "node",
  "id": 853352618,
  "lat": 48.8567822,
  "lon": 16.0453049
},
{
  "type": "node",
  "id": 853352803,
  "lat": 48.8569632,
  "lon": 16.0457702
},
{
  "type": "node",
  "id": 853352950,
  "lat": 48.8570029,
  "lon": 16.0455076
},
{
  "type": "node",
  "id": 853353062,
  "lat": 48.8568673,
  "lon": 16.0448635
},
{
  "type": "node",
  "id": 853353125,
  "lat": 48.8570348,
  "lon": 16.0454629
},
{
  "type": "node",
  "id": 853353199,
  "lat": 48.8566106,
  "lon": 16.0453487
},
{
  "type": "node",
  "id": 853353259,
  "lat": 48.8570682,
  "lon": 16.0454167
},
{
  "type": "node",
  "id": 853353396,
  "lat": 48.8570123,
  "lon": 16.0452742
},
{
  "type": "node",
  "id": 853353555,
  "lat": 48.8570592,
  "lon": 16.0456763
},
{
  "type": "node",
  "id": 853353674,
  "lat": 48.8571176,
  "lon": 16.0452038
},
{
  "type": "node",
  "id": 853353747,
  "lat": 48.8571646,
  "lon": 16.0452765
},
{
  "type": "node",
  "id": 853354221,
  "lat": 48.8570944,
  "lon": 16.0456235
},
{
  "type": "node",
  "id": 853354424,
  "lat": 48.8571317,
  "lon": 16.0451811
},
{
  "type": "node",
  "id": 853354568,
  "lat": 48.8570850,
  "lon": 16.0454742
},
{
  "type": "node",
  "id": 853354711,
  "lat": 48.8567711,
  "lon": 16.0452916
},
{
  "type": "node",
  "id": 853354799,
  "lat": 48.8570874,
  "lon": 16.0454505
},
{
  "type": "node",
  "id": 853354911,
  "lat": 48.8568695,
  "lon": 16.0451058
},
{
  "type": "node",
  "id": 853355084,
  "lat": 48.8570361,
  "lon": 16.0456477
},
{
  "type": "node",
  "id": 853355270,
  "lat": 48.8570541,
  "lon": 16.0454954
},
{
  "type": "node",
  "id": 3614636374,
  "lat": 48.8568141,
  "lon": 16.0449640
},
{
  "type": "node",
  "id": 4893353791,
  "lat": 48.8567709,
  "lon": 16.0453341
},
{
  "type": "node",
  "id": 4893353792,
  "lat": 48.8567689,
  "lon": 16.0453311
},
{
  "type": "node",
  "id": 4957465540,
  "lat": 48.8568046,
  "lon": 16.0455791
},
{
  "type": "node",
  "id": 639131693,
  "lat": 48.8540369,
  "lon": 16.0506239
},
{
  "type": "node",
  "id": 639131704,
  "lat": 48.8540754,
  "lon": 16.0507068
},
{
  "type": "node",
  "id": 639131707,
  "lat": 48.8541239,
  "lon": 16.0508397
},
{
  "type": "node",
  "id": 639131725,
  "lat": 48.8542246,
  "lon": 16.0506513
},
{
  "type": "node",
  "id": 639131727,
  "lat": 48.8541727,
  "lon": 16.0504866
},
{
  "type": "node",
  "id": 639131738,
  "lat": 48.8542547,
  "lon": 16.0508741
},
{
  "type": "node",
  "id": 639131739,
  "lat": 48.8542304,
  "lon": 16.0508875
},
{
  "type": "node",
  "id": 639131740,
  "lat": 48.8542205,
  "lon": 16.0508556
},
{
  "type": "node",
  "id": 639131741,
  "lat": 48.8541905,
  "lon": 16.0508744
},
{
  "type": "node",
  "id": 639131742,
  "lat": 48.8542000,
  "lon": 16.0509092
},
{
  "type": "node",
  "id": 639131743,
  "lat": 48.8542586,
  "lon": 16.0508173
},
{
  "type": "node",
  "id": 639131744,
  "lat": 48.8541463,
  "lon": 16.0509398
},
{
  "type": "node",
  "id": 869336188,
  "lat": 48.8541840,
  "lon": 16.0509190
},
{
  "type": "node",
  "id": 5418320123,
  "lat": 48.8542209,
  "lon": 16.0506534
},
{
  "type": "node",
  "id": 5418320124,
  "lat": 48.8541104,
  "lon": 16.0507947
},
{
  "type": "node",
  "id": 869535029,
  "lat": 48.7835458,
  "lon": 16.2001902
},
{
  "type": "node",
  "id": 869535706,
  "lat": 48.7835548,
  "lon": 16.2002059
},
{
  "type": "node",
  "id": 869539720,
  "lat": 48.7834423,
  "lon": 16.2001605
},
{
  "type": "node",
  "id": 870157176,
  "lat": 48.7835489,
  "lon": 16.2002542
},
{
  "type": "node",
  "id": 870157291,
  "lat": 48.7834364,
  "lon": 16.2002107
},
{
  "type": "node",
  "id": 869536383,
  "lat": 48.7833711,
  "lon": 16.2007668
},
{
  "type": "node",
  "id": 869540715,
  "lat": 48.7834782,
  "lon": 16.2008325
},
{
  "type": "node",
  "id": 870157258,
  "lat": 48.7834828,
  "lon": 16.2007951
},
{
  "type": "node",
  "id": 872504000,
  "lat": 48.7833672,
  "lon": 16.2008002
},
{
  "type": "node",
  "id": 1043787218,
  "lat": 49.0130130,
  "lon": 16.1086976
},
{
  "type": "node",
  "id": 1043787250,
  "lat": 49.0130476,
  "lon": 16.1086647
},
{
  "type": "node",
  "id": 3782022200,
  "lat": 49.0130789,
  "lon": 16.1087449
},
{
  "type": "node",
  "id": 1043787215,
  "lat": 49.0130745,
  "lon": 16.1087765
},
{
  "type": "node",
  "id": 1043787221,
  "lat": 49.0130686,
  "lon": 16.1087829
},
{
  "type": "node",
  "id": 1043787224,
  "lat": 49.0130540,
  "lon": 16.1087849
},
{
  "type": "node",
  "id": 1043787252,
  "lat": 49.0130611,
  "lon": 16.1087860
},
{
  "type": "node",
  "id": 3782022190,
  "lat": 49.0130422,
  "lon": 16.1087714
},
{
  "type": "node",
  "id": 3782022191,
  "lat": 49.0130467,
  "lon": 16.1087792
},
{
  "type": "node",
  "id": 3782022201,
  "lat": 49.0130790,
  "lon": 16.1087652
},
{
  "type": "node",
  "id": 3782022202,
  "lat": 49.0130800,
  "lon": 16.1087532
},
{
  "type": "node",
  "id": 1478951273,
  "lat": 48.7022269,
  "lon": 16.3621631
},
{
  "type": "node",
  "id": 1478951274,
  "lat": 48.7024079,
  "lon": 16.3620850
},
{
  "type": "node",
  "id": 1478951275,
  "lat": 48.7022260,
  "lon": 16.3620809
},
{
  "type": "node",
  "id": 1478951276,
  "lat": 48.7024088,
  "lon": 16.3621680
},
{
  "type": "node",
  "id": 1478979093,
  "lat": 48.7022824,
  "lon": 16.3621708
},
{
  "type": "node",
  "id": 1478989636,
  "lat": 48.7010358,
  "lon": 16.3628618
},
{
  "type": "node",
  "id": 1478989641,
  "lat": 48.7009706,
  "lon": 16.3630103
},
{
  "type": "node",
  "id": 1478989645,
  "lat": 48.7010600,
  "lon": 16.3629128
},
{
  "type": "node",
  "id": 1478989647,
  "lat": 48.7009464,
  "lon": 16.3629593
},
{
  "type": "node",
  "id": 4462062598,
  "lat": 48.7022675,
  "lon": 16.3621504
},
{
  "type": "node",
  "id": 4462062599,
  "lat": 48.7022677,
  "lon": 16.3621620
},
{
  "type": "node",
  "id": 4462062600,
  "lat": 48.7022821,
  "lon": 16.3621500
},
{
  "type": "node",
  "id": 4462062603,
  "lat": 48.7023226,
  "lon": 16.3621584
},
{
  "type": "node",
  "id": 4462062604,
  "lat": 48.7023227,
  "lon": 16.3621697
},
{
  "type": "node",
  "id": 4462062607,
  "lat": 48.7023324,
  "lon": 16.3620295
},
{
  "type": "node",
  "id": 4462062608,
  "lat": 48.7023329,
  "lon": 16.3620781
},
{
  "type": "node",
  "id": 4462062609,
  "lat": 48.7023340,
  "lon": 16.3621581
},
{
  "type": "node",
  "id": 4462062610,
  "lat": 48.7023343,
  "lon": 16.3621816
},
{
  "type": "node",
  "id": 4462062614,
  "lat": 48.7023777,
  "lon": 16.3620283
},
{
  "type": "node",
  "id": 4462062615,
  "lat": 48.7023783,
  "lon": 16.3620858
},
{
  "type": "node",
  "id": 4462062616,
  "lat": 48.7023777,
  "lon": 16.3621689
},
{
  "type": "node",
  "id": 4462062617,
  "lat": 48.7023778,
  "lon": 16.3621805
},
{
  "type": "node",
  "id": 3633088804,
  "lat": 49.0965999,
  "lon": 15.8905472
},
{
  "type": "node",
  "id": 3633088820,
  "lat": 49.0966191,
  "lon": 15.8906601
},
{
  "type": "node",
  "id": 3633088857,
  "lat": 49.0966658,
  "lon": 15.8906367
},
{
  "type": "node",
  "id": 3633088867,
  "lat": 49.0966746,
  "lon": 15.8905036
},
{
  "type": "node",
  "id": 3633088891,
  "lat": 49.0966997,
  "lon": 15.8906196
},
{
  "type": "node",
  "id": 2690028506,
  "lat": 49.1543082,
  "lon": 15.9762525
},
{
  "type": "node",
  "id": 2690028533,
  "lat": 49.1543374,
  "lon": 15.9761768
},
{
  "type": "node",
  "id": 2690028545,
  "lat": 49.1543487,
  "lon": 15.9763012
},
{
  "type": "node",
  "id": 2690028559,
  "lat": 49.1543538,
  "lon": 15.9761343
},
{
  "type": "node",
  "id": 2690028566,
  "lat": 49.1543597,
  "lon": 15.9762004
},
{
  "type": "node",
  "id": 2690028579,
  "lat": 49.1543752,
  "lon": 15.9761603
},
{
  "type": "node",
  "id": 2690028587,
  "lat": 49.1543920,
  "lon": 15.9762389
},
{
  "type": "node",
  "id": 2690028595,
  "lat": 49.1543987,
  "lon": 15.9763612
},
{
  "type": "node",
  "id": 2690028610,
  "lat": 49.1544203,
  "lon": 15.9761607
},
{
  "type": "node",
  "id": 2690028618,
  "lat": 49.1544256,
  "lon": 15.9761506
},
{
  "type": "node",
  "id": 2690028626,
  "lat": 49.1544283,
  "lon": 15.9761706
},
{
  "type": "node",
  "id": 2690028634,
  "lat": 49.1544336,
  "lon": 15.9761605
},
{
  "type": "node",
  "id": 2690028649,
  "lat": 49.1544484,
  "lon": 15.9761328
},
{
  "type": "node",
  "id": 2690028713,
  "lat": 49.1544914,
  "lon": 15.9761851
}

  ]
}
