{
  "version": 0.6,
  "generator": "Overpass API 0.7.55.1011 6c2efc30",
  "osm3s": {
    "timestamp_osm_base": "2020-02-14T10:27:02Z",
    "copyright": "The data included in this document is from www.openstreetmap.org. The data is made available under ODbL."
  },
  "elements": [

{
  "type": "node",
  "id": 274181667,
  "lat": 49.9132071,
  "lon": 10.1915199,
  "tags": {
    "name": "Museum für Militär und Zeitgeschichte",
    "opening_hours": "Feb 15-Oct 31 Tu-Su 10:00-18:00; PH 10:00-18:00",
    "phone": "+49 9381 9255",
    "tourism": "museum",
    "website": "http://www.museum-stammheim.de",
    "wikidata": "Q14378634"
  }
},
{
  "type": "node",
  "id": 295955429,
  "lat": 49.4818592,
  "lon": 9.8995428,
  "tags": {
    "name": "Stadtmusem",
    "tourism": "museum",
    "wheelchair": "yes"
  }
},
{
  "type": "node",
  "id": 303550231,
  "lat": 49.7286987,
  "lon": 10.2439568,
  "tags": {
    "addr:city": "Rödelsee",
    "addr:country": "DE",
    "addr:housenumber": "18",
    "addr:street": "An den Kirchen",
    "name": "Elfleinshäusla Dorfmuseum",
    "tourism": "museum"
  }
},
{
  "type": "node",
  "id": 309394763,
  "lat": 49.6673104,
  "lon": 10.2779441,
  "tags": {
    "name": "Kirchenburgmuseum",
    "tourism": "museum"
  }
},
{
  "type": "node",
  "id": 311781505,
  "lat": 49.7899865,
  "lon": 9.9457879,
  "tags": {
    "contact:email": "museum.shalomeuropa@gmx.de",
    "contact:phone": "+49 931 4041441",
    "contact:website": "http://museumshalomeuropa.de",
    "name": "Shalom Europa",
    "opening_hours": "Mo-Th 10:00-16:00;Su,PH 11:00-16:00; SH,Fr,Sa off",
    "tourism": "museum",
    "wheelchair": "limited"
  }
},
{
  "type": "node",
  "id": 316735139,
  "lat": 49.8036298,
  "lon": 9.9295935,
  "tags": {
    "addr:city": "Würzburg",
    "addr:country": "DE",
    "addr:housenumber": "21",
    "addr:postcode": "97080",
    "addr:street": "Ständerbühlstraße",
    "alt_name": "WVV-Archiv",
    "entrance": "yes",
    "name": "Historisches Archiv im Alten Gaswerk",
    "tourism": "museum"
  }
},
{
  "type": "node",
  "id": 409034511,
  "lat": 49.6529794,
  "lon": 10.0249986,
  "tags": {
    "name": "Kartäusermuseum",
    "tourism": "museum",
    "website": "https://museen.bistum-wuerzburg.de/tueckelhausen/index.htm"
  }
},
{
  "type": "node",
  "id": 427738267,
  "lat": 49.7595535,
  "lon": 9.5180228,
  "tags": {
    "name": "Grafschaftsmuseum Wertheim",
    "tourism": "museum",
    "wheelchair": "limited",
    "wheelchair:description": "man kann klingelten",
    "wikidata": "Q1541857"
  }
},
{
  "type": "node",
  "id": 428648117,
  "lat": 49.6212952,
  "lon": 9.6613139,
  "tags": {
    "name": "Tauberfränkisches Landschaftsmuseum",
    "opening_hours": "Tu-Sa 14:00-16:30; Su 10:00-12:00,14:00-16:30",
    "tourism": "museum",
    "wikidata": "Q31836093"
  }
},
{
  "type": "node",
  "id": 451648577,
  "lat": 49.7542335,
  "lon": 10.0267677,
  "tags": {
    "name": "Weinbaumuseum",
    "tourism": "museum"
  }
},
{
  "type": "node",
  "id": 474728999,
  "lat": 49.8032278,
  "lon": 10.1637032,
  "tags": {
    "name": "Kolpingmuseum",
    "tourism": "museum",
    "wheelchair": "no"
  }
},
{
  "type": "node",
  "id": 477362284,
  "lat": 49.7899782,
  "lon": 9.9203284,
  "tags": {
    "name": "Bayerisches Staatsarchiv",
    "tourism": "museum"
  }
},
{
  "type": "node",
  "id": 488599149,
  "lat": 49.7610649,
  "lon": 9.6678595,
  "tags": {
    "addr:city": "Holzkirchhausen",
    "addr:housenumber": "4",
    "addr:postcode": "97264",
    "addr:street": "Hauptstraße",
    "name": "Heimatmuseum",
    "note": "Öffnungszeiten siehe: www.helmstadt-ufr.de",
    "operator": "Museumsverein Holzkirchhausen",
    "tourism": "museum",
    "wikidata": "Q76627874"
  }
},
{
  "type": "node",
  "id": 493787275,
  "lat": 49.6643342,
  "lon": 10.0666514,
  "tags": {
    "name": "Der Schul-Laden. Wie Schule früher war",
    "tourism": "museum"
  }
},
{
  "type": "node",
  "id": 493876671,
  "lat": 49.6657227,
  "lon": 10.0642429,
  "tags": {
    "name": "Trachtenmuseum",
    "name:en": "Costume Museum",
    "tourism": "museum",
    "wikidata": "Q26836734"
  }
},
{
  "type": "node",
  "id": 498289209,
  "lat": 49.6739605,
  "lon": 10.0485520,
  "tags": {
    "name": "Trias-Museum an der Ochsenfurt",
    "tourism": "museum",
    "wikidata": "Q76629007"
  }
},
{
  "type": "node",
  "id": 504453637,
  "lat": 49.5341804,
  "lon": 10.0673466,
  "tags": {
    "name": "Feuerwehrmuseum",
    "tourism": "museum"
  }
},
{
  "type": "node",
  "id": 576578001,
  "lat": 49.6484828,
  "lon": 10.2554068,
  "tags": {
    "name": "Fahrradmuseum",
    "tourism": "museum"
  }
},
{
  "type": "node",
  "id": 598640206,
  "lat": 50.0014370,
  "lon": 10.1991087,
  "tags": {
    "addr:city": "Grafenrheinfeld",
    "addr:country": "DE",
    "addr:housenumber": "9",
    "addr:postcode": "97506",
    "addr:street": "Kirchplatz",
    "name": "Schatzkammer",
    "opening_hours": "\"only open in some days a year and on request\"",
    "tourism": "museum",
    "wikidata": "Q76627747"
  }
},
{
  "type": "node",
  "id": 600115398,
  "lat": 49.6736091,
  "lon": 10.1422570,
  "tags": {
    "addr:city": "Segnitz",
    "addr:country": "DE",
    "addr:housenumber": "3",
    "addr:postcode": "97340",
    "addr:street": "Sulzfelder Straße",
    "name": "Museum Segeum",
    "tourism": "museum"
  }
},
{
  "type": "node",
  "id": 600542677,
  "lat": 49.7939893,
  "lon": 9.6261313,
  "tags": {
    "name": "Papiermühle",
    "tourism": "museum"
  }
},
{
  "type": "node",
  "id": 1160999960,
  "lat": 49.4981683,
  "lon": 10.0898767,
  "tags": {
    "name": "Klostermuseum - Vom Kloster zum Dorf",
    "tourism": "museum"
  }
},
{
  "type": "node",
  "id": 1270153660,
  "lat": 49.7922328,
  "lon": 9.9382657,
  "tags": {
    "fixme": "welche Räume gehören zum Museum",
    "name": "Martin-von-Wagner-Museum",
    "name:zh": "维尔茨堡官邸",
    "tourism": "museum",
    "wheelchair": "yes",
    "wikidata": "Q1903282"
  }
},
{
  "type": "node",
  "id": 1310923417,
  "lat": 49.7355530,
  "lon": 10.1647667,
  "tags": {
    "name": "Archiv - Museum Kitzingen",
    "tourism": "museum"
  }
},
{
  "type": "node",
  "id": 1615510008,
  "lat": 49.7715726,
  "lon": 10.3705741,
  "tags": {
    "name": "Horst-Kaulfuss-Museum",
    "tourism": "museum",
    "website": "http://www.teefuchs.de/",
    "wikidata": "Q76626652"
  }
},
{
  "type": "node",
  "id": 1678944441,
  "lat": 49.9008180,
  "lon": 10.3497247,
  "tags": {
    "name": "Stadtmuseum Gerolzhofen",
    "tourism": "museum"
  }
},
{
  "type": "node",
  "id": 1905444588,
  "lat": 49.8012124,
  "lon": 9.9225774,
  "tags": {
    "addr:city": "Würzburg",
    "addr:country": "DE",
    "addr:housenumber": "1",
    "addr:postcode": "97080",
    "addr:street": "Oskar-Laredo-Platz",
    "email": "museum.kulturspeicher@stadt.wuerzburg.de",
    "fax": "+49 931 3222518",
    "name": "Museum im Kulturspeicher",
    "toilets:wheelchair": "yes",
    "tourism": "museum",
    "website": "http://www.kulturspeicher.de",
    "wheelchair": "yes",
    "wikidata": "Q1954718",
    "wikipedia": "de:Museum im Kulturspeicher"
  }
},
{
  "type": "node",
  "id": 2088994282,
  "lat": 49.8000645,
  "lon": 9.9308514,
  "tags": {
    "addr:city": "Würzburg",
    "addr:housenumber": "8a",
    "addr:postcode": "97070",
    "addr:street": "Röntgenring",
    "contact:email": "roland.weigand@fhws.de",
    "contact:fax": "+49 931 3511 6044",
    "contact:phone": "+49 931 3511 6002",
    "contact:website": "http://wilhelmconradroentgen.de/de/start",
    "name": "Röntgen-Gedächtnisstätte Würzburg",
    "opening_hours": "Mo-Fr 08:00-19:00; Sa 08:00-17:00; Su,PH off",
    "operator": "Röntgen-Kuratorium Würzburg e.V.",
    "tourism": "museum",
    "wheelchair": "no",
    "wheelchair:description": "Zugang nur über Treppen",
    "wikidata": "Q17490365"
  }
},
{
  "type": "node",
  "id": 2149619021,
  "lat": 49.9594211,
  "lon": 9.7653583,
  "tags": {
    "name": "Galerie im Oberen Tor",
    "tourism": "museum"
  }
},
{
  "type": "node",
  "id": 2160968170,
  "lat": 49.8022662,
  "lon": 10.1610983,
  "tags": {
    "tourism": "museum",
    "wheelchair": "limited"
  }
},
{
  "type": "node",
  "id": 2223352417,
  "lat": 49.6679909,
  "lon": 10.1439674,
  "tags": {
    "addr:city": "Marktbreit",
    "addr:country": "DE",
    "addr:housenumber": "2",
    "addr:postcode": "97340",
    "addr:street": "Bachstraße",
    "name": "Malerwinkelhaus",
    "operator": "PD Dr. phil. habil. Simone Michel - von Dungern (Museumsleitung)",
    "phone": "+49 9332 591596",
    "tourism": "museum"
  }
},
{
  "type": "node",
  "id": 2429183271,
  "lat": 49.7650956,
  "lon": 9.5177650,
  "tags": {
    "addr:housenumber": "9",
    "addr:street": "Pfarrgasse",
    "name": "Heimatmuseum \"Prassek-Scheune\"",
    "tourism": "museum",
    "wheelchair": "no"
  }
},
{
  "type": "node",
  "id": 2478860960,
  "lat": 49.6660340,
  "lon": 10.0632938,
  "tags": {
    "name": "Heimatmuseum",
    "opening_hours": "Sa-Su 14:30-16:30; PH 14:30-16:30",
    "tourism": "museum"
  }
},
{
  "type": "node",
  "id": 2509194207,
  "lat": 49.7798073,
  "lon": 9.8781279,
  "tags": {
    "name": "Jüdisches Dokumentationszentrum",
    "note:de": "Öffnung auch nach Vereinbarung; Information Rathaus Markt Höchberg",
    "opening_hours": "Su 14:00-17:00",
    "tourism": "museum"
  }
},
{
  "type": "node",
  "id": 2897224104,
  "lat": 49.5522563,
  "lon": 10.0646419,
  "tags": {
    "name": "Fränkisches Spitalmuseum Aub",
    "tourism": "museum",
    "wikidata": "Q76627042"
  }
},
{
  "type": "node",
  "id": 3372483001,
  "lat": 50.1077460,
  "lon": 9.9327115,
  "tags": {
    "name": "Dorfmuseum",
    "tourism": "museum"
  }
},
{
  "type": "node",
  "id": 3478220299,
  "lat": 49.5081832,
  "lon": 9.9657915,
  "tags": {
    "name": "Weinmuseum",
    "tourism": "museum"
  }
},
{
  "type": "node",
  "id": 4019486990,
  "lat": 49.7391996,
  "lon": 10.1620956,
  "tags": {
    "addr:city": "Kitzingen",
    "addr:housenumber": "26",
    "addr:postcode": "97318",
    "addr:street": "Marktstraße",
    "name": "Conditorei Museum Würzburg",
    "phone": "+49 9321 929435",
    "toilets:wheelchair": "no",
    "tourism": "museum",
    "website": "https://www.conditorei-museum.de/",
    "wheelchair": "no",
    "wikidata": "Q1124528"
  }
},
{
  "type": "node",
  "id": 4021574966,
  "lat": 49.7216741,
  "lon": 10.1852476,
  "tags": {
    "addr:city": "Kitzingen",
    "addr:housenumber": "7",
    "addr:postcode": "97318",
    "addr:street": "An der Sicker",
    "name": "Officina Historica - Druckkunstmuseum",
    "phone": "+49 170 5531691",
    "toilets:wheelchair": "no",
    "tourism": "museum",
    "website": "http://www.officina-historica.de",
    "wheelchair": "no"
  }
},
{
  "type": "node",
  "id": 4241818929,
  "lat": 49.5978839,
  "lon": 9.6932501,
  "tags": {
    "name": "Bauernhof Museum",
    "tourism": "museum"
  }
},
{
  "type": "node",
  "id": 4327185733,
  "lat": 49.7936552,
  "lon": 9.9315874,
  "tags": {
    "addr:city": "Würzburg",
    "addr:postcode": "97070",
    "addr:street": "Kiliansplatz",
    "name": "Museum am Dom",
    "opening_hours": "Tu-Su,PH 08:00-17:00",
    "operator": "Diözöse Würzburg",
    "tourism": "museum",
    "wheelchair": "yes",
    "wikidata": "Q1605655"
  }
},
{
  "type": "node",
  "id": 4497418121,
  "lat": 49.7296832,
  "lon": 9.5264233,
  "tags": {
    "addr:city": "Wertheim-Reicholzheim",
    "addr:housenumber": "9",
    "addr:postcode": "97877",
    "addr:street": "Zum Ottersberg",
    "name": "Thermometermuseum",
    "operator": "UEBE",
    "tourism": "museum",
    "wheelchair": "no"
  }
},
{
  "type": "node",
  "id": 4770923311,
  "lat": 49.7937608,
  "lon": 9.8943647,
  "tags": {
    "contact:email": "sieboldgesellschaft@web.de",
    "contact:fax": "+49 931 6192240",
    "contact:phone": "+49 931 413541",
    "contact:website": "http://siebold-museum.byseum.de",
    "name": "Siebold-Museum",
    "name:jp": "シーボルト·博物館",
    "opening_hours": "Tu-Su 14:30-17:30;Mo off",
    "source": "Bing",
    "tourism": "museum",
    "wheelchair": "no",
    "wikidata": "Q16003211",
    "wikipedia": "de:Siebold-Museum"
  }
},
{
  "type": "node",
  "id": 4787872107,
  "lat": 49.7878962,
  "lon": 9.9711835,
  "tags": {
    "name": "Mind Center",
    "tourism": "museum",
    "website": "http://www.mind.uni-wuerzburg.de/startseite/"
  }
},
{
  "type": "node",
  "id": 4848417563,
  "lat": 49.7894969,
  "lon": 9.9212765,
  "tags": {
    "contact:phone": "+49 931 35517-50",
    "contact:website": "http://www.schloesser.bayern.de/deutsch/schloss/objekte/wu_fest.htm",
    "layer": "1",
    "name": "Fürstenbaumuseum",
    "opening_hours": "Mar 16-Oct 31: Tu-Su,PH 09:00-18:00; Mo off; Nov 1-Mar 15: closed \"Winterruhe\"; Jan 1, Dec 24-Dec 25, Dec 31 off || \"oder wenn wegen Veranstaltung offen\"",
    "tourism": "museum",
    "wikidata": "Q1467075"
  }
},
{
  "type": "node",
  "id": 5633246876,
  "lat": 49.6937499,
  "lon": 9.6019604,
  "tags": {
    "name": "Gamburger Buschermuseum",
    "tourism": "museum",
    "website": "https://gamburg.de/natur-kultur/buscher-museum"
  }
},
{
  "type": "node",
  "id": 5635701462,
  "lat": 49.7031801,
  "lon": 9.6156200,
  "tags": {
    "alt_name": "Pfeiferstube",
    "image": "https://commons.m.wikimedia.org/wiki/File:Tauberfranken_2010_027.jpg",
    "name": "Pfeifermuseum",
    "operator": "Förderverein Niklashausen e.V. ",
    "tourism": "museum"
  }
},
{
  "type": "node",
  "id": 5638027280,
  "lat": 49.7624412,
  "lon": 9.5319788,
  "tags": {
    "name": "Museum \"Schlösschen im Hofgarten\"",
    "tourism": "museum",
    "website": "http://www.schloesschen-wertheim.de"
  }
},
{
  "type": "node",
  "id": 5638049041,
  "lat": 49.7125805,
  "lon": 9.5465391,
  "tags": {
    "description": "Abteilung des Wertheimer GrafschaftsMuseums zeigt ländliches Kulturgut.",
    "name": "Museum für ländliches Kulturgut",
    "operator": "Grafschaftsmuseum Wertheim",
    "tourism": "museum",
    "website": "http://www.grafschaftsmuseum.de"
  }
},
{
  "type": "node",
  "id": 5652972941,
  "lat": 49.6083575,
  "lon": 9.7457111,
  "tags": {
    "name": "Heimatmuseum",
    "tourism": "museum"
  }
},
{
  "type": "node",
  "id": 5656412236,
  "lat": 49.4977179,
  "lon": 10.0907312,
  "tags": {
    "name": "Museum Vom Klosterhof zum Dorf",
    "operator": "Verein Tauberfränkische Volkskultur",
    "tourism": "museum"
  }
},
{
  "type": "node",
  "id": 5656443804,
  "lat": 49.4979019,
  "lon": 10.0827715,
  "tags": {
    "name": "Bäuerliches Gerätemuseum",
    "tourism": "museum"
  }
},
{
  "type": "node",
  "id": 5675723994,
  "lat": 49.6280958,
  "lon": 9.6563463,
  "tags": {
    "name": "VS-Schulmuseum",
    "operator": "Vereinigte Spezialmöbelfabriken GmbH & Co. KG",
    "tourism": "museum",
    "website": "https://www.vs.de/de/schulmuseum/mobile.html",
    "wikidata": "Q29056965",
    "wikipedia": "de:VS-Schulmuseum"
  }
},
{
  "type": "node",
  "id": 6408485451,
  "lat": 49.8050785,
  "lon": 10.2301300,
  "tags": {
    "addr:city": "Münsterschwarzach Abtei",
    "addr:housenumber": "40",
    "addr:postcode": "97359",
    "addr:street": "Schweinfurter Straße",
    "fee": "no",
    "name": "Info-Zentrum",
    "operator": "Abtei Münsterschwarzach",
    "tourism": "museum",
    "wheelchair": "yes"
  }
},
{
  "type": "node",
  "id": 6584228740,
  "lat": 49.5589557,
  "lon": 9.7127965,
  "tags": {
    "name": "Archäoparks DUBRA",
    "tourism": "museum",
    "website": "http://www.dubra.org"
  }
},
{
  "type": "node",
  "id": 7095819022,
  "lat": 49.8672314,
  "lon": 10.2267420,
  "tags": {
    "addr:city": "Volkach",
    "addr:country": "DE",
    "addr:housename": "Barockscheune Volkach",
    "addr:housenumber": "7",
    "addr:postcode": "97332",
    "addr:street": "Weinstraße",
    "name": "Barockscheune Volkach",
    "tourism": "museum",
    "website": "http://www.museum-barockscheune.de",
    "wikidata": "Q59866398",
    "wikipedia": "de:Museum Barockscheune Volkach"
  }
},
{
  "type": "way",
  "id": 20544408,
  "nodes": [
    1019122218,
    2425629059,
    220321726,
    220321712,
    220321717,
    220321721,
    220321732,
    2286120098,
    220321735,
    220321739,
    389182473,
    1019122080,
    1019121820,
    1019121832,
    2425629078,
    1019122218
  ],
  "tags": {
    "building": "yes",
    "contact:email": "Sekretariat@museum-franken.de",
    "contact:fax": "+49 931 2059456",
    "contact:phone": "+49 931 205940",
    "contact:website": "http://www.museum-franken.de/",
    "description": "Museum für Franken & Staatliches Museum für Kunst- und Kulturgeschichte in Würzburg",
    "name": "Museum für Franken & Staatliches Museum für Kunst- und Kulturgeschichte",
    "opening_hours": "Mo off; Tu-Su 10:00-16:00",
    "source": "Bing",
    "toilets:wheelchair": "no",
    "tourism": "museum",
    "wheelchair": "no"
  }
},
{
  "type": "way",
  "id": 29253976,
  "nodes": [
    321723874,
    3725428075,
    3725428074,
    626837090,
    626837091,
    321723876,
    2377238210,
    2377238212,
    2377238208,
    2377238205,
    626837087,
    321723877,
    321723875,
    321723874
  ],
  "tags": {
    "addr:city": "Würzburg",
    "addr:country": "DE",
    "addr:housenumber": "107b",
    "addr:postcode": "97080",
    "addr:street": "Veitshöchheimer Straße",
    "building": "yes",
    "contact:email": "info.wuerzburg@dgeg.de",
    "contact:phone": "+49 9352 604614",
    "contact:website": "http://www.bw-wuerzburg.de",
    "name": "Eisenbahnmuseum Würzburg",
    "operator": "DGEG Deutsche Gesellschaft für Eisenbahngeschichte e.V.",
    "railway": "museum",
    "source": "Bing",
    "tourism": "museum",
    "wikidata": "Q64007240"
  }
},
{
  "type": "way",
  "id": 29502276,
  "nodes": [
    325200583,
    325200584,
    325200585,
    325200587,
    325200583
  ],
  "tags": {
    "abandoned:power": "substation",
    "abandoned:substation": "minor_distribution",
    "addr:city": "Lohr am Main",
    "addr:postcode": "97816",
    "addr:street": "Haaggasse",
    "alt_name": "Trafoturm Lohr am Main",
    "building": "transformer_tower",
    "heritage": "yes",
    "historic": "industrial",
    "image": "https://de.wikipedia.org/wiki/Turmstation#/media/Datei:Isomuseum.jpg",
    "name": "Isolatorenmuseum",
    "opening_hours": "Su[1] 14:00-17:00 || \"Nach Vereinbarung\"",
    "roof:shape": "pyramidal",
    "start_date": "2004-06-20",
    "tourism": "museum",
    "url": "http://www.isolatorenmuseum.de",
    "url2": "http://www.trafoturm.eu/deutschland/bayern/unterfranken/main-spessart/lohr/isolatorenmuseum/",
    "wikidata": "Q20170985",
    "wikipedia": "de:Isolatorenmuseum",
    "year_of_construction": "1919"
  }
},
{
  "type": "way",
  "id": 32038285,
  "nodes": [
    359563927,
    359563935,
    2303937528,
    359563941,
    359563895,
    359563927
  ],
  "tags": {
    "building": "yes",
    "name": "Tauberländer Dorfmusem",
    "tourism": "museum",
    "website": "https://www.tauberlaender-dorfmuseum.de/",
    "wheelchair": "no"
  }
},
{
  "type": "way",
  "id": 35389665,
  "nodes": [
    414997983,
    414997984,
    414997985,
    414997986,
    414997983
  ],
  "tags": {
    "addr:city": "Kitzingen",
    "addr:country": "DE",
    "addr:housename": "Hans-Joachim-Schumacher-Haus",
    "addr:housenumber": "10",
    "addr:postcode": "97318",
    "addr:street": "Rosenstraße",
    "building": "yes",
    "image": "File:Stolpersteinlage Kitzingen Rosenstraße 10.jpg",
    "name": "Deutsches Fastnachtmuseum",
    "phone": "+49 9321 23355",
    "toilets:wheelchair": "yes",
    "tourism": "museum",
    "website": "https://deutsches-fastnachtmuseum.byseum.de/de/home",
    "wheelchair": "yes",
    "wikipedia": "de:Deutsches Fastnachtsmuseum"
  }
},
{
  "type": "way",
  "id": 51357151,
  "nodes": [
    655336300,
    655336301,
    655336295,
    655336294,
    655336300
  ],
  "tags": {
    "building": "yes",
    "name": "Schulmuseum",
    "tourism": "museum"
  }
},
{
  "type": "way",
  "id": 51519840,
  "nodes": [
    658768646,
    660461358,
    660461361,
    660461362,
    660461351,
    658768648,
    658768646
  ],
  "tags": {
    "addr:city": "Lohr a. Main",
    "addr:country": "DE",
    "addr:housenumber": "21",
    "addr:postcode": "97816",
    "addr:street": "Sendelbacher Straße",
    "building": "yes",
    "name": "Städt. Schulmuseum",
    "tourism": "museum"
  }
},
{
  "type": "way",
  "id": 91494113,
  "nodes": [
    1062690424,
    1062690226,
    1062689766,
    1062690574,
    1062689673,
    1062689873,
    1062690424
  ],
  "tags": {
    "building": "yes",
    "name": "Fahrzeug- und Technikmuseum Neuendorf",
    "tourism": "museum",
    "website": "https://zimmermann-unfallinstandsetzung.de/92/fahrzeugmuseum/startseite"
  }
},
{
  "type": "way",
  "id": 92005572,
  "nodes": [
    1068853031,
    1068852809,
    1068852841,
    1068852964,
    1068852641,
    6474975791,
    1068852637,
    3355513603,
    1068853031
  ],
  "tags": {
    "addr:city": "Iphofen",
    "addr:country": "DE",
    "addr:housenumber": "28",
    "addr:postcode": "97346",
    "addr:street": "Maxstraße",
    "building": "yes",
    "name": "Knauf-Museum",
    "tourism": "museum",
    "website": "http://www.knauf-museum.de/",
    "wheelchair": "yes",
    "wikidata": "Q47482339",
    "wikipedia": "de:Knauf-Museum Iphofen"
  }
},
{
  "type": "way",
  "id": 92152107,
  "nodes": [
    1069882202,
    1069882178,
    1069882171,
    1069882199,
    1069882202
  ],
  "tags": {
    "building": "yes",
    "name": "Ortsgeschichtliche Sammlung Schwebheim",
    "tourism": "museum"
  }
},
{
  "type": "way",
  "id": 150798536,
  "nodes": [
    1636742291,
    1636742306,
    1636742314,
    1636742331,
    1636742332,
    1636742323,
    1636742311,
    1636742303,
    1636742291
  ],
  "tags": {
    "name": "Bandkeramikmuseum Schwanfeld",
    "name:ru": "Шванфельд",
    "opening_hours": "Su 14:00-17:30",
    "tourism": "museum",
    "wikidata": "Q21035604",
    "wikipedia": "de:Schwanfeld"
  }
},
{
  "type": "way",
  "id": 172402674,
  "nodes": [
    1833092280,
    1833092282,
    1833092276,
    1833092277,
    1833092285,
    1833092279,
    1833092269,
    1833092268,
    1833092254,
    1833092252,
    1833092248,
    1833092243,
    1833092240,
    1833092238,
    1833092232,
    1833092231,
    1833092234,
    1833092239,
    1833092241,
    1833092237,
    1833092230,
    1833092233,
    1833092274,
    1833092280
  ],
  "tags": {
    "addr:city": "Karlstadt",
    "addr:housenumber": "47 d",
    "addr:postcode": "97753",
    "addr:street": "Ringstraße",
    "building": "yes",
    "name": "Europäisches Klempner- und Kupferschmiedemuseum",
    "opening_hours": "\"nach Anmeldung für Gruppenführungen\"",
    "tourism": "museum",
    "wheelchair": "limited"
  }
},
{
  "type": "way",
  "id": 176684407,
  "nodes": [
    197973438,
    1871616838,
    1871616831,
    1871616820,
    197973438
  ],
  "tags": {
    "addr:city": "Rimpar",
    "addr:housenumber": "1",
    "addr:postcode": "97222",
    "addr:street": "Einsiedel",
    "building": "yes",
    "building:height": "6 m",
    "name": "Walderlebniszentrum Gramschatzer Wald",
    "opening_hours": "Mo-Fr 08:30-16:30; Sa closed; Su 13:00-16:30",
    "source": "gpx",
    "toilets:wheelchair": "yes",
    "tourism": "museum",
    "website": "https://www.gramschatzer-wald.de",
    "wheelchair": "yes"
  }
},
{
  "type": "way",
  "id": 204395599,
  "nodes": [
    2144013765,
    3861579086,
    3837829098,
    5487213758,
    5487212708,
    3837829097,
    2144013758,
    2144013759,
    3936203009,
    3936203033,
    3936203010,
    2144013761,
    3936203036,
    3936203035,
    5487259938,
    3936263253,
    5487259932,
    2144013762,
    5487259939,
    2144013763,
    2144013764,
    3936203051,
    3936203048,
    3936100557,
    2144013770,
    2144013769,
    3936097656,
    1162031320,
    3861579085,
    3937434095,
    1162031451,
    2144013765
  ],
  "tags": {
    "name": "Kirchenburg",
    "tourism": "museum",
    "website": "http://www.eussenheim.de/seite/de/gemeinde/46/-/Historische_Kirchenburg.html"
  }
},
{
  "type": "way",
  "id": 240150702,
  "nodes": [
    2479115317,
    1448624847,
    2479115313,
    2479115312,
    2479115315,
    2479115316,
    6652941262,
    2479115314,
    2479115317
  ],
  "tags": {
    "addr:housenumber": "24",
    "addr:street": "Mühlenstraße",
    "building": "yes",
    "heritage": "yes",
    "historic": "building",
    "image": "File:Wertheim,_Mühlenstraße_24-20161101-001.jpg",
    "last_check": "2019-09-17",
    "name": "Glasmuseum",
    "opening_hours": "Tu-Fr 10:00-17:00; Sa, Su, PH 13:00-18:00; Dec 24, 31 off",
    "tourism": "museum",
    "website": "http://www.glasmuseum-wertheim.de/",
    "wheelchair": "no"
  }
},
{
  "type": "way",
  "id": 253822625,
  "nodes": [
    6052874996,
    2597031923,
    2597031922,
    2597031921,
    6052874994,
    6052874995,
    2597031924,
    6052874992,
    6052874991,
    6052874990,
    6052874993,
    2597031925,
    6052874996
  ],
  "tags": {
    "addr:city": "Gemünden a. Main",
    "addr:housenumber": "2",
    "addr:postcode": "97737",
    "addr:street": "Frankfurter Straße",
    "building": "yes",
    "castle_type": "stately",
    "historic": "castle",
    "name": "Huttenschloss",
    "operator": "Film Foto Ton Musseum",
    "tourism": "museum",
    "wheelchair": "limited"
  }
},
{
  "type": "way",
  "id": 267484080,
  "nodes": [
    2729292535,
    2729292550,
    2729292551,
    2729292552,
    2729292553,
    2729292554,
    2729292536,
    2729292555,
    2729292537,
    2729292556,
    2729292557,
    2729312102,
    2729312101,
    2729312100,
    2729312099,
    2729292558,
    2729292559,
    2729292538,
    2729292560,
    2729292561,
    2729292562,
    2729292563,
    2729292564,
    2729292565,
    2729292566,
    2729292567,
    2729292568,
    2729292569,
    2729312098,
    2729292547,
    2754780298,
    2754780304,
    2754780306,
    2754780308,
    2754780310,
    2754780312,
    2729292571,
    2729292573,
    2729292570,
    2729292572,
    2729292535
  ],
  "tags": {
    "building": "yes",
    "castle_type": "stately",
    "description": "Lohrer Schloss, auch Kurmainzer Schloss genannt",
    "fee": "yes",
    "heritage": "yes",
    "historic": "castle",
    "name": "Spessartmuseum",
    "old_name": "Lohrer Schloss",
    "opening_hours": "Tu-Sa 10:00-16:00;Su,PH 10:00-17:00",
    "operator": "Landkreis MSP",
    "phone": "+49 9353 7932399",
    "toilets:wheelchair": "no",
    "tourism": "museum",
    "wheelchair": "no",
    "wikidata": "Q1321731",
    "wikipedia": "de:Lohrer Schloss"
  }
},
{
  "type": "way",
  "id": 269285506,
  "nodes": [
    2745359243,
    2745359244,
    2745359245,
    2603245413,
    2745359246,
    2745359243
  ],
  "tags": {
    "building": "yes",
    "name": "Kunst und Geist der Gotik",
    "operator": "Stadt Gerolzhofen",
    "tourism": "museum"
  }
},
{
  "type": "way",
  "id": 304636600,
  "nodes": [
    3092100735,
    3092100736,
    3092100737,
    3092100738,
    3092100735
  ],
  "tags": {
    "addr:housenumber": "4",
    "addr:postcode": "97318",
    "addr:street": "Luitpoldstraße",
    "building": "yes",
    "email": "info@deutsches-fastnachtmuseum.de",
    "name": "Deutsches Fastnachtsmuseum",
    "opening_hours": "Tu-Su 13:00-17:00",
    "operator": "Stiftung Kulturzentrum Fasching-Fastnacht-Karneval",
    "phone": "+49 9321 23355",
    "tourism": "museum",
    "website": "https://deutsches-fastnachtmuseum.byseum.de/de/home",
    "wikidata": "Q1205610",
    "wikipedia": "de:Deutsches Fastnachtmuseum"
  }
},
{
  "type": "way",
  "id": 306434250,
  "nodes": [
    3113355094,
    3113355095,
    3113355096,
    3113355097,
    3113355094
  ],
  "tags": {
    "building": "yes",
    "name": "Hammermuseum",
    "operator": "Fa. Kurtz Ersa",
    "tourism": "museum",
    "website": "http://www.hammermuseum.info",
    "wikipedia": "de:Eisenhammer Hasloch"
  }
},
{
  "type": "way",
  "id": 361297843,
  "nodes": [
    3657933937,
    3657933938,
    3657933939,
    3657933940,
    3657933937
  ],
  "tags": {
    "addr:city": "Prichsenstadt",
    "addr:housenumber": "28",
    "addr:postcode": "97357",
    "addr:street": "Schulinstraße",
    "building": "yes",
    "name": "Private Mineralienausstellung",
    "tourism": "museum"
  }
},
{
  "type": "way",
  "id": 381356262,
  "nodes": [
    3845727355,
    3845727356,
    3845727354,
    3130240594,
    6644842631,
    6644842626,
    6644834563,
    6644834562,
    6644834561,
    6644834564,
    3845738857,
    3845727355
  ],
  "tags": {
    "addr:city": "Tauberbischofsheim",
    "addr:housenumber": "4",
    "addr:postcode": "97941",
    "addr:street": "Sonnenplatz",
    "building": "yes",
    "description": "emalige Apotheke und pharmaziehistorisches Museum",
    "heritage": "yes",
    "historic": "building",
    "image": "File:TBB Sonnenplatz-Apotheke.jpg",
    "name": "Museum Sonnenplatz-Apotheke",
    "tourism": "museum",
    "website": "https://www.fraenkisches-weinland.de/poi/museum_sonnenplatz-apotheke-9087",
    "wikidata": "Q28977705",
    "wikipedia": "de:Sonnenplatz-Apotheke"
  }
},
{
  "type": "way",
  "id": 398582937,
  "nodes": [
    4013311385,
    4359425091,
    4013311386,
    4013311387,
    4013311388,
    4013311385
  ],
  "tags": {
    "addr:city": "Schweinfurt",
    "addr:housenumber": "73",
    "addr:postcode": "97424",
    "addr:street": "Ernst-Sachs-Straße",
    "building": "civic",
    "disused:military": "bunker",
    "email": "info@fichtelundsachsbunker.de",
    "historic": "yes",
    "name": "Fichtel-und-Sachs-Bunker",
    "phone": "+49 9341 895 922",
    "ref": "A8",
    "toilets:wheelchair": "no",
    "tourism": "museum",
    "website": "http://www.fichtelundsachsbunker.de",
    "wheelchair": "limited"
  }
},
{
  "type": "way",
  "id": 449570641,
  "nodes": [
    4465200706,
    4465200692,
    4645325867,
    4465200700,
    4465200384,
    4465200706
  ],
  "tags": {
    "addr:housenumber": "28",
    "addr:street": "Goldgasse",
    "building": "synagogue",
    "building:architecture": "neoclassicism",
    "denomination": "ashkenazi",
    "disused:amenity": "place_of_worship",
    "image": "https://commons.wikimedia.org/wiki/File:Arnstein_(Unterfranken),_Goldgasse_28_20170611_002.jpg",
    "name": "Alte Synagoge Arnstein",
    "opening_hours": "Apr-Oct Su 14:00-17:00",
    "operator": "Förderkreis Alte Synagoge Arnstein",
    "phone": "+4993631743",
    "religion": "jewish",
    "tourism": "museum",
    "website": "https://www.alte-synagoge-arnstein.de",
    "wikidata": "Q19309725",
    "wikipedia": "de:Synagoge (Arnstein)"
  }
},
{
  "type": "way",
  "id": 475823064,
  "nodes": [
    4695150523,
    4695150524,
    4695150525,
    4695150526,
    4695150523
  ],
  "tags": {
    "addr:housenumber": "18",
    "addr:street": "Blumenstraße",
    "building": "house",
    "tourism": "museum"
  }
},
{
  "type": "way",
  "id": 500059250,
  "nodes": [
    4912139737,
    4912139736,
    4912139735,
    4912139739,
    4912139737
  ],
  "tags": {
    "addr:city": "Lauda-Königshofen",
    "addr:housenumber": "25",
    "addr:postcode": "97922",
    "addr:street": "Rathausstraße",
    "addr:suburb": "Lauda",
    "building": "yes",
    "heritage": "yes",
    "historic": "building",
    "image": "File:Lauda_Kulturdenkmal_Fachwerkhaus_Heimatmuseum.jpg",
    "name": "Heimatmuseum",
    "tourism": "museum"
  }
},
{
  "type": "relation",
  "id": 3308627,
  "members": [
    {
      "type": "way",
      "ref": 244329338,
      "role": "outer"
    },
    {
      "type": "way",
      "ref": 306110189,
      "role": "inner"
    }
  ],
  "tags": {
    "addr:postcode": "97753",
    "bldam:criteria": "Baudenkmal",
    "building": "yes",
    "building:levels": "3",
    "heritage": "4",
    "historic": "building",
    "name": "Stadtgeschichtliches Museum Karlstadt",
    "ref:BLfD": "D-6-77-148-45",
    "roof:shape": "halfhipped",
    "start_date": "1448",
    "tourism": "museum",
    "type": "multipolygon",
    "wikidata": "Q76628063"
  }
},
{
  "type": "node",
  "id": 359563895,
  "lat": 49.4811145,
  "lon": 9.8976744
},
{
  "type": "node",
  "id": 359563927,
  "lat": 49.4811246,
  "lon": 9.8974822
},
{
  "type": "node",
  "id": 359563935,
  "lat": 49.4808501,
  "lon": 9.8974480
},
{
  "type": "node",
  "id": 359563941,
  "lat": 49.4808401,
  "lon": 9.8976403
},
{
  "type": "node",
  "id": 2303937528,
  "lat": 49.4808459,
  "lon": 9.8975296
},
{
  "type": "node",
  "id": 1448624847,
  "lat": 49.7582054,
  "lon": 9.5177178
},
{
  "type": "node",
  "id": 2479115312,
  "lat": 49.7580909,
  "lon": 9.5175330
},
{
  "type": "node",
  "id": 2479115313,
  "lat": 49.7581646,
  "lon": 9.5177492
},
{
  "type": "node",
  "id": 2479115314,
  "lat": 49.7581808,
  "lon": 9.5175859
},
{
  "type": "node",
  "id": 2479115315,
  "lat": 49.7581813,
  "lon": 9.5174598
},
{
  "type": "node",
  "id": 2479115316,
  "lat": 49.7582075,
  "lon": 9.5175281
},
{
  "type": "node",
  "id": 6652941262,
  "lat": 49.7582195,
  "lon": 9.5175599
},
{
  "type": "node",
  "id": 2479115317,
  "lat": 49.7582210,
  "lon": 9.5177059
},
{
  "type": "node",
  "id": 3113355094,
  "lat": 49.8131922,
  "lon": 9.4929489
},
{
  "type": "node",
  "id": 3113355095,
  "lat": 49.8129729,
  "lon": 9.4932601
},
{
  "type": "node",
  "id": 3113355096,
  "lat": 49.8130365,
  "lon": 9.4933677
},
{
  "type": "node",
  "id": 3113355097,
  "lat": 49.8132558,
  "lon": 9.4930564
},
{
  "type": "node",
  "id": 4695150523,
  "lat": 49.7912017,
  "lon": 9.6106716
},
{
  "type": "node",
  "id": 4695150524,
  "lat": 49.7911062,
  "lon": 9.6104762
},
{
  "type": "node",
  "id": 4695150525,
  "lat": 49.7912428,
  "lon": 9.6103160
},
{
  "type": "node",
  "id": 4695150526,
  "lat": 49.7913383,
  "lon": 9.6105114
},
{
  "type": "node",
  "id": 4912139735,
  "lat": 49.5702268,
  "lon": 9.7023087
},
{
  "type": "node",
  "id": 4912139736,
  "lat": 49.5701344,
  "lon": 9.7023492
},
{
  "type": "node",
  "id": 4912139737,
  "lat": 49.5701622,
  "lon": 9.7025009
},
{
  "type": "node",
  "id": 4912139739,
  "lat": 49.5702547,
  "lon": 9.7024604
},
{
  "type": "node",
  "id": 3130240594,
  "lat": 49.6216065,
  "lon": 9.6585743
},
{
  "type": "node",
  "id": 3845727354,
  "lat": 49.6216079,
  "lon": 9.6585919
},
{
  "type": "node",
  "id": 3845727355,
  "lat": 49.6214594,
  "lon": 9.6587828
},
{
  "type": "node",
  "id": 3845727356,
  "lat": 49.6216216,
  "lon": 9.6587388
},
{
  "type": "node",
  "id": 3845738857,
  "lat": 49.6214480,
  "lon": 9.6586115
},
{
  "type": "node",
  "id": 6644834561,
  "lat": 49.6215317,
  "lon": 9.6585604
},
{
  "type": "node",
  "id": 6644834562,
  "lat": 49.6215463,
  "lon": 9.6585575
},
{
  "type": "node",
  "id": 6644834563,
  "lat": 49.6215491,
  "lon": 9.6585887
},
{
  "type": "node",
  "id": 6644834564,
  "lat": 49.6215344,
  "lon": 9.6585941
},
{
  "type": "node",
  "id": 6644842626,
  "lat": 49.6215707,
  "lon": 9.6585833
},
{
  "type": "node",
  "id": 6644842631,
  "lat": 49.6216023,
  "lon": 9.6585754
},
{
  "type": "node",
  "id": 321723874,
  "lat": 49.8134831,
  "lon": 9.8801384
},
{
  "type": "node",
  "id": 321723875,
  "lat": 49.8131600,
  "lon": 9.8803231
},
{
  "type": "node",
  "id": 321723876,
  "lat": 49.8134412,
  "lon": 9.8798304
},
{
  "type": "node",
  "id": 321723877,
  "lat": 49.8130871,
  "lon": 9.8800328
},
{
  "type": "node",
  "id": 626837087,
  "lat": 49.8131250,
  "lon": 9.8800112
},
{
  "type": "node",
  "id": 626837090,
  "lat": 49.8134254,
  "lon": 9.8799123
},
{
  "type": "node",
  "id": 626837091,
  "lat": 49.8134565,
  "lon": 9.8798946
},
{
  "type": "node",
  "id": 2377238205,
  "lat": 49.8131746,
  "lon": 9.8799828
},
{
  "type": "node",
  "id": 2377238208,
  "lat": 49.8131874,
  "lon": 9.8800369
},
{
  "type": "node",
  "id": 2377238210,
  "lat": 49.8132136,
  "lon": 9.8799605
},
{
  "type": "node",
  "id": 2377238212,
  "lat": 49.8132265,
  "lon": 9.8800146
},
{
  "type": "node",
  "id": 3725428074,
  "lat": 49.8134389,
  "lon": 9.8799646
},
{
  "type": "node",
  "id": 3725428075,
  "lat": 49.8134569,
  "lon": 9.8800357
},
{
  "type": "node",
  "id": 220321712,
  "lat": 49.7894828,
  "lon": 9.9186064
},
{
  "type": "node",
  "id": 220321717,
  "lat": 49.7893378,
  "lon": 9.9185468
},
{
  "type": "node",
  "id": 220321721,
  "lat": 49.7894301,
  "lon": 9.9180077
},
{
  "type": "node",
  "id": 220321726,
  "lat": 49.7896195,
  "lon": 9.9177614
},
{
  "type": "node",
  "id": 220321732,
  "lat": 49.7895199,
  "lon": 9.9175085
},
{
  "type": "node",
  "id": 220321735,
  "lat": 49.7900919,
  "lon": 9.9175044
},
{
  "type": "node",
  "id": 220321739,
  "lat": 49.7901033,
  "lon": 9.9177685
},
{
  "type": "node",
  "id": 389182473,
  "lat": 49.7900693,
  "lon": 9.9177684
},
{
  "type": "node",
  "id": 1019121820,
  "lat": 49.7900464,
  "lon": 9.9180287
},
{
  "type": "node",
  "id": 1019121832,
  "lat": 49.7899545,
  "lon": 9.9180385
},
{
  "type": "node",
  "id": 1019122080,
  "lat": 49.7900442,
  "lon": 9.9177684
},
{
  "type": "node",
  "id": 1019122218,
  "lat": 49.7899437,
  "lon": 9.9177652
},
{
  "type": "node",
  "id": 2286120098,
  "lat": 49.7900501,
  "lon": 9.9175047
},
{
  "type": "node",
  "id": 2425629059,
  "lat": 49.7898810,
  "lon": 9.9177643
},
{
  "type": "node",
  "id": 2425629078,
  "lat": 49.7899488,
  "lon": 9.9178952
},
{
  "type": "node",
  "id": 197973438,
  "lat": 49.9002112,
  "lon": 9.9600242
},
{
  "type": "node",
  "id": 1871616820,
  "lat": 49.9001115,
  "lon": 9.9601106
},
{
  "type": "node",
  "id": 1871616831,
  "lat": 49.9002387,
  "lon": 9.9604642
},
{
  "type": "node",
  "id": 1871616838,
  "lat": 49.9003384,
  "lon": 9.9603778
},
{
  "type": "node",
  "id": 1068852637,
  "lat": 49.7038135,
  "lon": 10.2605886
},
{
  "type": "node",
  "id": 1068852641,
  "lat": 49.7039927,
  "lon": 10.2605711
},
{
  "type": "node",
  "id": 1068852809,
  "lat": 49.7037962,
  "lon": 10.2601514
},
{
  "type": "node",
  "id": 1068852841,
  "lat": 49.7037955,
  "lon": 10.2601453
},
{
  "type": "node",
  "id": 1068852964,
  "lat": 49.7038785,
  "lon": 10.2601168
},
{
  "type": "node",
  "id": 1068853031,
  "lat": 49.7037190,
  "lon": 10.2601754
},
{
  "type": "node",
  "id": 3355513603,
  "lat": 49.7037527,
  "lon": 10.2603220
},
{
  "type": "node",
  "id": 6474975791,
  "lat": 49.7039794,
  "lon": 10.2605724
},
{
  "type": "node",
  "id": 414997983,
  "lat": 49.7370969,
  "lon": 10.1595927
},
{
  "type": "node",
  "id": 414997984,
  "lat": 49.7371623,
  "lon": 10.1597202
},
{
  "type": "node",
  "id": 414997985,
  "lat": 49.7371115,
  "lon": 10.1597820
},
{
  "type": "node",
  "id": 414997986,
  "lat": 49.7370459,
  "lon": 10.1596529
},
{
  "type": "node",
  "id": 3092100735,
  "lat": 49.7374278,
  "lon": 10.1602132
},
{
  "type": "node",
  "id": 3092100736,
  "lat": 49.7373856,
  "lon": 10.1602675
},
{
  "type": "node",
  "id": 3092100737,
  "lat": 49.7372592,
  "lon": 10.1600642
},
{
  "type": "node",
  "id": 3092100738,
  "lat": 49.7373151,
  "lon": 10.1599984
},
{
  "type": "node",
  "id": 1636742291,
  "lat": 49.9193604,
  "lon": 10.1373993
},
{
  "type": "node",
  "id": 1636742303,
  "lat": 49.9193997,
  "lon": 10.1375157
},
{
  "type": "node",
  "id": 1636742306,
  "lat": 49.9194925,
  "lon": 10.1372920
},
{
  "type": "node",
  "id": 1636742311,
  "lat": 49.9195171,
  "lon": 10.1374203
},
{
  "type": "node",
  "id": 1636742314,
  "lat": 49.9195189,
  "lon": 10.1373704
},
{
  "type": "node",
  "id": 1636742323,
  "lat": 49.9195622,
  "lon": 10.1375542
},
{
  "type": "node",
  "id": 1636742331,
  "lat": 49.9197124,
  "lon": 10.1372132
},
{
  "type": "node",
  "id": 1636742332,
  "lat": 49.9197703,
  "lon": 10.1373851
},
{
  "type": "node",
  "id": 3657933937,
  "lat": 49.8171383,
  "lon": 10.3551594
},
{
  "type": "node",
  "id": 3657933938,
  "lat": 49.8170158,
  "lon": 10.3551162
},
{
  "type": "node",
  "id": 3657933939,
  "lat": 49.8169974,
  "lon": 10.3552589
},
{
  "type": "node",
  "id": 3657933940,
  "lat": 49.8171175,
  "lon": 10.3553014
},
{
  "type": "node",
  "id": 2603245413,
  "lat": 49.9014138,
  "lon": 10.3488767
},
{
  "type": "node",
  "id": 2745359243,
  "lat": 49.9014548,
  "lon": 10.3488055
},
{
  "type": "node",
  "id": 2745359244,
  "lat": 49.9014793,
  "lon": 10.3489361
},
{
  "type": "node",
  "id": 2745359245,
  "lat": 49.9014296,
  "lon": 10.3489572
},
{
  "type": "node",
  "id": 2745359246,
  "lat": 49.9014056,
  "lon": 10.3488289
},
{
  "type": "node",
  "id": 655336294,
  "lat": 49.9901116,
  "lon": 9.5846991
},
{
  "type": "node",
  "id": 655336295,
  "lat": 49.9901358,
  "lon": 9.5848464
},
{
  "type": "node",
  "id": 655336300,
  "lat": 49.9902147,
  "lon": 9.5846581
},
{
  "type": "node",
  "id": 655336301,
  "lat": 49.9902389,
  "lon": 9.5848053
},
{
  "type": "node",
  "id": 658768646,
  "lat": 49.9898511,
  "lon": 9.5846886
},
{
  "type": "node",
  "id": 658768648,
  "lat": 49.9897415,
  "lon": 9.5847286
},
{
  "type": "node",
  "id": 660461351,
  "lat": 49.9897737,
  "lon": 9.5849281
},
{
  "type": "node",
  "id": 660461358,
  "lat": 49.9898549,
  "lon": 9.5847127
},
{
  "type": "node",
  "id": 660461361,
  "lat": 49.9898832,
  "lon": 9.5847020
},
{
  "type": "node",
  "id": 660461362,
  "lat": 49.9899114,
  "lon": 9.5848775
},
{
  "type": "node",
  "id": 2729292535,
  "lat": 49.9961717,
  "lon": 9.5730449
},
{
  "type": "node",
  "id": 2729292536,
  "lat": 49.9958053,
  "lon": 9.5729014
},
{
  "type": "node",
  "id": 2729292537,
  "lat": 49.9958104,
  "lon": 9.5729215
},
{
  "type": "node",
  "id": 2729292538,
  "lat": 49.9958048,
  "lon": 9.5730469
},
{
  "type": "node",
  "id": 2729292547,
  "lat": 49.9959295,
  "lon": 9.5731757
},
{
  "type": "node",
  "id": 2729292550,
  "lat": 49.9958242,
  "lon": 9.5726922
},
{
  "type": "node",
  "id": 2729292551,
  "lat": 49.9958053,
  "lon": 9.5727257
},
{
  "type": "node",
  "id": 2729292552,
  "lat": 49.9957897,
  "lon": 9.5727753
},
{
  "type": "node",
  "id": 2729292553,
  "lat": 49.9957742,
  "lon": 9.5728491
},
{
  "type": "node",
  "id": 2729292554,
  "lat": 49.9958087,
  "lon": 9.5728853
},
{
  "type": "node",
  "id": 2729292555,
  "lat": 49.9958053,
  "lon": 9.5729108
},
{
  "type": "node",
  "id": 2729292556,
  "lat": 49.9958163,
  "lon": 9.5729282
},
{
  "type": "node",
  "id": 2729292557,
  "lat": 49.9958270,
  "lon": 9.5729329
},
{
  "type": "node",
  "id": 2729292558,
  "lat": 49.9958086,
  "lon": 9.5730106
},
{
  "type": "node",
  "id": 2729292559,
  "lat": 49.9958035,
  "lon": 9.5730281
},
{
  "type": "node",
  "id": 2729292560,
  "lat": 49.9958102,
  "lon": 9.5730590
},
{
  "type": "node",
  "id": 2729292561,
  "lat": 49.9958175,
  "lon": 9.5730670
},
{
  "type": "node",
  "id": 2729292562,
  "lat": 49.9958288,
  "lon": 9.5730711
},
{
  "type": "node",
  "id": 2729292563,
  "lat": 49.9958443,
  "lon": 9.5730670
},
{
  "type": "node",
  "id": 2729292564,
  "lat": 49.9958510,
  "lon": 9.5730516
},
{
  "type": "node",
  "id": 2729292565,
  "lat": 49.9959066,
  "lon": 9.5731079
},
{
  "type": "node",
  "id": 2729292566,
  "lat": 49.9959001,
  "lon": 9.5731200
},
{
  "type": "node",
  "id": 2729292567,
  "lat": 49.9959001,
  "lon": 9.5731394
},
{
  "type": "node",
  "id": 2729292568,
  "lat": 49.9959035,
  "lon": 9.5731562
},
{
  "type": "node",
  "id": 2729292569,
  "lat": 49.9959126,
  "lon": 9.5731676
},
{
  "type": "node",
  "id": 2729292570,
  "lat": 49.9960960,
  "lon": 9.5731568
},
{
  "type": "node",
  "id": 2729292571,
  "lat": 49.9959768,
  "lon": 9.5731052
},
{
  "type": "node",
  "id": 2729292572,
  "lat": 49.9961492,
  "lon": 9.5732085
},
{
  "type": "node",
  "id": 2729292573,
  "lat": 49.9960027,
  "lon": 9.5730664
},
{
  "type": "node",
  "id": 2729312098,
  "lat": 49.9959221,
  "lon": 9.5731736
},
{
  "type": "node",
  "id": 2729312099,
  "lat": 49.9958195,
  "lon": 9.5730027
},
{
  "type": "node",
  "id": 2729312100,
  "lat": 49.9958281,
  "lon": 9.5729993
},
{
  "type": "node",
  "id": 2729312101,
  "lat": 49.9958561,
  "lon": 9.5729450
},
{
  "type": "node",
  "id": 2729312102,
  "lat": 49.9958376,
  "lon": 9.5729235
},
{
  "type": "node",
  "id": 2754780298,
  "lat": 49.9959389,
  "lon": 9.5731730
},
{
  "type": "node",
  "id": 2754780304,
  "lat": 49.9959471,
  "lon": 9.5731663
},
{
  "type": "node",
  "id": 2754780306,
  "lat": 49.9959535,
  "lon": 9.5731455
},
{
  "type": "node",
  "id": 2754780308,
  "lat": 49.9959553,
  "lon": 9.5731294
},
{
  "type": "node",
  "id": 2754780310,
  "lat": 49.9959527,
  "lon": 9.5731079
},
{
  "type": "node",
  "id": 2754780312,
  "lat": 49.9959604,
  "lon": 9.5730865
},
{
  "type": "node",
  "id": 325200583,
  "lat": 49.9957869,
  "lon": 9.5753356
},
{
  "type": "node",
  "id": 325200584,
  "lat": 49.9957540,
  "lon": 9.5752938
},
{
  "type": "node",
  "id": 325200585,
  "lat": 49.9957276,
  "lon": 9.5753441
},
{
  "type": "node",
  "id": 325200587,
  "lat": 49.9957604,
  "lon": 9.5753859
},
{
  "type": "node",
  "id": 1062689673,
  "lat": 50.0292953,
  "lon": 9.6406355
},
{
  "type": "node",
  "id": 1062689766,
  "lat": 50.0294695,
  "lon": 9.6409084
},
{
  "type": "node",
  "id": 1062689873,
  "lat": 50.0294193,
  "lon": 9.6405417
},
{
  "type": "node",
  "id": 1062690226,
  "lat": 50.0295718,
  "lon": 9.6412363
},
{
  "type": "node",
  "id": 1062690424,
  "lat": 50.0296238,
  "lon": 9.6411970
},
{
  "type": "node",
  "id": 1062690574,
  "lat": 50.0293975,
  "lon": 9.6409629
},
{
  "type": "node",
  "id": 2516593272,
  "lat": 49.9628589,
  "lon": 9.7643403
},
{
  "type": "node",
  "id": 2516593274,
  "lat": 49.9628631,
  "lon": 9.7645415
},
{
  "type": "node",
  "id": 2516593278,
  "lat": 49.9630332,
  "lon": 9.7643591
},
{
  "type": "node",
  "id": 3105364505,
  "lat": 49.9629105,
  "lon": 9.7645309
},
{
  "type": "node",
  "id": 3105364507,
  "lat": 49.9629770,
  "lon": 9.7646797
},
{
  "type": "node",
  "id": 3105364508,
  "lat": 49.9629468,
  "lon": 9.7646811
},
{
  "type": "node",
  "id": 3105364509,
  "lat": 49.9629140,
  "lon": 9.7646824
},
{
  "type": "node",
  "id": 3105364513,
  "lat": 49.9629739,
  "lon": 9.7645336
},
{
  "type": "node",
  "id": 1833092230,
  "lat": 49.9588504,
  "lon": 9.7667512
},
{
  "type": "node",
  "id": 1833092231,
  "lat": 49.9588791,
  "lon": 9.7668942
},
{
  "type": "node",
  "id": 1833092232,
  "lat": 49.9588820,
  "lon": 9.7669129
},
{
  "type": "node",
  "id": 1833092233,
  "lat": 49.9588827,
  "lon": 9.7666336
},
{
  "type": "node",
  "id": 1833092234,
  "lat": 49.9588827,
  "lon": 9.7668739
},
{
  "type": "node",
  "id": 1833092237,
  "lat": 49.9588876,
  "lon": 9.7667821
},
{
  "type": "node",
  "id": 1833092238,
  "lat": 49.9588882,
  "lon": 9.7669297
},
{
  "type": "node",
  "id": 1833092239,
  "lat": 49.9588889,
  "lon": 9.7668622
},
{
  "type": "node",
  "id": 1833092240,
  "lat": 49.9588960,
  "lon": 9.7669444
},
{
  "type": "node",
  "id": 1833092241,
  "lat": 49.9588970,
  "lon": 9.7668521
},
{
  "type": "node",
  "id": 1833092243,
  "lat": 49.9589074,
  "lon": 9.7669540
},
{
  "type": "node",
  "id": 1833092248,
  "lat": 49.9589215,
  "lon": 9.7669591
},
{
  "type": "node",
  "id": 1833092252,
  "lat": 49.9589329,
  "lon": 9.7669586
},
{
  "type": "node",
  "id": 1833092254,
  "lat": 49.9589443,
  "lon": 9.7669520
},
{
  "type": "node",
  "id": 1833092268,
  "lat": 49.9589512,
  "lon": 9.7669408
},
{
  "type": "node",
  "id": 1833092269,
  "lat": 49.9589554,
  "lon": 9.7669231
},
{
  "type": "node",
  "id": 1833092274,
  "lat": 49.9589599,
  "lon": 9.7666246
},
{
  "type": "node",
  "id": 1833092276,
  "lat": 49.9589913,
  "lon": 9.7667730
},
{
  "type": "node",
  "id": 1833092277,
  "lat": 49.9589913,
  "lon": 9.7668247
},
{
  "type": "node",
  "id": 1833092279,
  "lat": 49.9589972,
  "lon": 9.7669216
},
{
  "type": "node",
  "id": 1833092280,
  "lat": 49.9590197,
  "lon": 9.7666143
},
{
  "type": "node",
  "id": 1833092282,
  "lat": 49.9590445,
  "lon": 9.7667694
},
{
  "type": "node",
  "id": 1833092285,
  "lat": 49.9590500,
  "lon": 9.7668501
},
{
  "type": "node",
  "id": 2140650677,
  "lat": 49.9630442,
  "lon": 9.7648803
},
{
  "type": "node",
  "id": 2149740461,
  "lat": 49.9629396,
  "lon": 9.7648962
},
{
  "type": "node",
  "id": 2149740478,
  "lat": 49.9628733,
  "lon": 9.7649066
},
{
  "type": "node",
  "id": 1162031320,
  "lat": 50.0054552,
  "lon": 9.8245503
},
{
  "type": "node",
  "id": 1162031451,
  "lat": 50.0053732,
  "lon": 9.8243318
},
{
  "type": "node",
  "id": 2144013758,
  "lat": 50.0050069,
  "lon": 9.8244595
},
{
  "type": "node",
  "id": 2144013759,
  "lat": 50.0050398,
  "lon": 9.8248241
},
{
  "type": "node",
  "id": 2144013761,
  "lat": 50.0050805,
  "lon": 9.8251380
},
{
  "type": "node",
  "id": 2144013762,
  "lat": 50.0051927,
  "lon": 9.8251810
},
{
  "type": "node",
  "id": 2144013763,
  "lat": 50.0052455,
  "lon": 9.8251157
},
{
  "type": "node",
  "id": 2144013764,
  "lat": 50.0052975,
  "lon": 9.8250697
},
{
  "type": "node",
  "id": 2144013765,
  "lat": 50.0053416,
  "lon": 9.8242475
},
{
  "type": "node",
  "id": 2144013769,
  "lat": 50.0055066,
  "lon": 9.8246761
},
{
  "type": "node",
  "id": 2144013770,
  "lat": 50.0055413,
  "lon": 9.8248459
},
{
  "type": "node",
  "id": 3837829097,
  "lat": 50.0050999,
  "lon": 9.8244003
},
{
  "type": "node",
  "id": 3837829098,
  "lat": 50.0052487,
  "lon": 9.8242999
},
{
  "type": "node",
  "id": 3861579085,
  "lat": 50.0054370,
  "lon": 9.8245018
},
{
  "type": "node",
  "id": 3861579086,
  "lat": 50.0052899,
  "lon": 9.8242721
},
{
  "type": "node",
  "id": 3936097656,
  "lat": 50.0055021,
  "lon": 9.8246545
},
{
  "type": "node",
  "id": 3936100557,
  "lat": 50.0055002,
  "lon": 9.8248936
},
{
  "type": "node",
  "id": 3936203009,
  "lat": 50.0050625,
  "lon": 9.8249797
},
{
  "type": "node",
  "id": 3936203010,
  "lat": 50.0050805,
  "lon": 9.8251155
},
{
  "type": "node",
  "id": 3936203033,
  "lat": 50.0050651,
  "lon": 9.8249990
},
{
  "type": "node",
  "id": 3936203035,
  "lat": 50.0051532,
  "lon": 9.8251238
},
{
  "type": "node",
  "id": 3936203036,
  "lat": 50.0051419,
  "lon": 9.8251260
},
{
  "type": "node",
  "id": 3936203048,
  "lat": 50.0054968,
  "lon": 9.8249034
},
{
  "type": "node",
  "id": 3936203051,
  "lat": 50.0053640,
  "lon": 9.8250581
},
{
  "type": "node",
  "id": 3936263253,
  "lat": 50.0051699,
  "lon": 9.8251713
},
{
  "type": "node",
  "id": 3937434095,
  "lat": 50.0054298,
  "lon": 9.8244822
},
{
  "type": "node",
  "id": 5487212708,
  "lat": 50.0051360,
  "lon": 9.8243763
},
{
  "type": "node",
  "id": 5487213758,
  "lat": 50.0052297,
  "lon": 9.8243122
},
{
  "type": "node",
  "id": 5487259932,
  "lat": 50.0051769,
  "lon": 9.8251742
},
{
  "type": "node",
  "id": 5487259938,
  "lat": 50.0051466,
  "lon": 9.8251613
},
{
  "type": "node",
  "id": 5487259939,
  "lat": 50.0052025,
  "lon": 9.8251253
},
{
  "type": "node",
  "id": 2597031921,
  "lat": 50.0583349,
  "lon": 9.6878469
},
{
  "type": "node",
  "id": 2597031922,
  "lat": 50.0584373,
  "lon": 9.6877405
},
{
  "type": "node",
  "id": 2597031923,
  "lat": 50.0584611,
  "lon": 9.6877963
},
{
  "type": "node",
  "id": 2597031924,
  "lat": 50.0584876,
  "lon": 9.6881638
},
{
  "type": "node",
  "id": 2597031925,
  "lat": 50.0585697,
  "lon": 9.6880785
},
{
  "type": "node",
  "id": 6052874990,
  "lat": 50.0585603,
  "lon": 9.6881298
},
{
  "type": "node",
  "id": 6052874991,
  "lat": 50.0585270,
  "lon": 9.6881644
},
{
  "type": "node",
  "id": 6052874992,
  "lat": 50.0585147,
  "lon": 9.6881357
},
{
  "type": "node",
  "id": 6052874993,
  "lat": 50.0585480,
  "lon": 9.6881011
},
{
  "type": "node",
  "id": 6052874994,
  "lat": 50.0583587,
  "lon": 9.6879027
},
{
  "type": "node",
  "id": 6052874995,
  "lat": 50.0583706,
  "lon": 9.6878904
},
{
  "type": "node",
  "id": 6052874996,
  "lat": 50.0584526,
  "lon": 9.6878051
},
{
  "type": "node",
  "id": 4465200384,
  "lat": 49.9774497,
  "lon": 9.9681155
},
{
  "type": "node",
  "id": 4465200692,
  "lat": 49.9774140,
  "lon": 9.9683173
},
{
  "type": "node",
  "id": 4465200700,
  "lat": 49.9773710,
  "lon": 9.9681718
},
{
  "type": "node",
  "id": 4465200706,
  "lat": 49.9774928,
  "lon": 9.9682612
},
{
  "type": "node",
  "id": 4645325867,
  "lat": 49.9773786,
  "lon": 9.9681976
},
{
  "type": "node",
  "id": 4013311385,
  "lat": 50.0297270,
  "lon": 10.2095029
},
{
  "type": "node",
  "id": 4013311386,
  "lat": 50.0298624,
  "lon": 10.2097425
},
{
  "type": "node",
  "id": 4013311387,
  "lat": 50.0297199,
  "lon": 10.2099377
},
{
  "type": "node",
  "id": 4013311388,
  "lat": 50.0295845,
  "lon": 10.2096981
},
{
  "type": "node",
  "id": 4359425091,
  "lat": 50.0297908,
  "lon": 10.2096157
},
{
  "type": "node",
  "id": 1069882171,
  "lat": 49.9912596,
  "lon": 10.2509285
},
{
  "type": "node",
  "id": 1069882178,
  "lat": 49.9911632,
  "lon": 10.2506572
},
{
  "type": "node",
  "id": 1069882199,
  "lat": 49.9913797,
  "lon": 10.2508106
},
{
  "type": "node",
  "id": 1069882202,
  "lat": 49.9912901,
  "lon": 10.2505573
},
{
  "type": "way",
  "id": 244329338,
  "nodes": [
    2516593274,
    2516593272,
    2516593278,
    2140650677,
    2149740461,
    2149740478,
    2516593274
  ]
},
{
  "type": "way",
  "id": 306110189,
  "nodes": [
    3105364509,
    3105364508,
    3105364507,
    3105364513,
    3105364505,
    3105364509
  ]
}

  ]
}
