{
  "version": 0.6,
  "generator": "Overpass API 0.7.55.1011 6c2efc30",
  "osm3s": {
    "timestamp_osm_base": "2020-02-14T08:47:02Z",
    "copyright": "The data included in this document is from www.openstreetmap.org. The data is made available under ODbL."
  },
  "elements": [

{
  "type": "node",
  "id": 347537287,
  "lat": 50.7950242,
  "lon": -1.1255002,
  "tags": {
    "name": "Gosport Museum",
    "toilets:wheelchair": "yes",
    "tourism": "museum",
    "wheelchair": "limited"
  }
},
{
  "type": "node",
  "id": 452445306,
  "lat": 51.0624556,
  "lon": -1.3205052,
  "tags": {
    "name": "King's Royal Hussars Museum",
    "tourism": "museum"
  }
},
{
  "type": "node",
  "id": 515847667,
  "lat": 50.9681830,
  "lon": -1.3536960,
  "tags": {
    "addr:housenumber": "25",
    "addr:postcode": "SO50 5LF",
    "addr:street": "High Street",
    "fhrs:id": "410066",
    "name": "Eastleigh Museum",
    "source": "survey",
    "source:addr": "FHRS Open Data",
    "tourism": "museum"
  }
},
{
  "type": "node",
  "id": 727693368,
  "lat": 51.2101259,
  "lon": -1.4772992,
  "tags": {
    "name": "Andover Museum of the Iron Age",
    "tourism": "museum"
  }
},
{
  "type": "node",
  "id": 1043977965,
  "lat": 50.8507491,
  "lon": -0.9782606,
  "tags": {
    "name": "The Spring Arts and Heritage Centre",
    "tourism": "museum"
  }
},
{
  "type": "node",
  "id": 1063051509,
  "lat": 51.0635319,
  "lon": -1.3190997,
  "tags": {
    "historic": "city_gate",
    "name": "Westgate Museum",
    "tourism": "museum"
  }
},
{
  "type": "node",
  "id": 1179558191,
  "lat": 51.0623730,
  "lon": -1.3201014,
  "tags": {
    "name": "Gurkha Museum",
    "tourism": "museum"
  }
},
{
  "type": "node",
  "id": 1316959498,
  "lat": 50.8070814,
  "lon": -1.0872401,
  "tags": {
    "addr:housenumber": "393",
    "addr:street": "Old Commercial Road",
    "fee": "yes",
    "name": "Charles Dickens Birthplace Museum",
    "opening_hours": "Fr-Su 10:00-17:30",
    "operator": "Portsmouth City Council",
    "tourism": "museum",
    "website": "http://www.charlesdickensbirthplace.co.uk/",
    "wikidata": "Q17528937"
  }
},
{
  "type": "node",
  "id": 1365282809,
  "lat": 50.8483557,
  "lon": -0.9371426,
  "tags": {
    "name": "Emsworth Museum",
    "tourism": "museum"
  }
},
{
  "type": "node",
  "id": 1965732608,
  "lat": 50.9113171,
  "lon": -1.4823658,
  "tags": {
    "name": "Totton and Eling Heritage Centre",
    "tourism": "museum"
  }
},
{
  "type": "node",
  "id": 2530707595,
  "lat": 50.7887233,
  "lon": -1.0459053,
  "tags": {
    "addr:city": "Southsea",
    "addr:postcode": "PO4 9JF",
    "addr:street": "Henderson Road",
    "name": "Eastney Beam Engine House",
    "phone": "+44 23 92834779",
    "toilets:wheelchair": "no",
    "tourism": "museum",
    "website": "http://www.portsmouthmuseums.co.uk/museum-service/Eastney-Beam-Engine-House",
    "wheelchair": "no",
    "wheelchair:description": "This venue consists of steps to be able to visit the full site. Narrow uneven path to Base of chimney. Limited openings dates, see website.",
    "wikidata": "Q12056883"
  }
},
{
  "type": "node",
  "id": 2573573210,
  "lat": 50.9084008,
  "lon": -1.4049103,
  "tags": {
    "name": "Solent Showcase",
    "tourism": "museum"
  }
},
{
  "type": "node",
  "id": 3051087321,
  "lat": 51.0026354,
  "lon": -0.9368702,
  "tags": {
    "addr:city": "Petersfield",
    "name": "Petersfield Museum",
    "tourism": "museum",
    "wikidata": "Q7178212"
  }
},
{
  "type": "node",
  "id": 3300277780,
  "lat": 50.7314116,
  "lon": -1.1624147,
  "tags": {
    "addr:city": "Ryde",
    "addr:country": "GB",
    "addr:housename": "Royal Victoria Arcade",
    "addr:postcode": "PO33 2LQ",
    "addr:street": "Union Street",
    "name": "Ryde District Heritage Centre",
    "operator": "Historic Ryde Society",
    "phone": "+44 1983 717435",
    "source": "Society volunteer",
    "survey:date": "2020-01-29",
    "tourism": "museum",
    "website": "http://www.historicrydesociety.co.uk/",
    "wheelchair": "limited",
    "wheelchair:description": "Museum is in Arcade's basement. Stairlift at Museum Entrance. A folding wheelchair is available at bottom of stairlift. Steps involved at Arcade's Union St ,(main) and Church Lane, (rear) entrances."
  }
},
{
  "type": "node",
  "id": 4239443433,
  "lat": 50.7259972,
  "lon": -1.1538309,
  "tags": {
    "addr:city": "Ryde",
    "addr:country": "GB",
    "addr:postcode": "PO33 2BE",
    "addr:street": "Park Road",
    "fhrs:id": "765826",
    "name": "Isle of Wight Bus & Coach Museum",
    "phone": "+44 1983 567796",
    "tourism": "museum",
    "website": "https://www.iwbusmuseum.org.uk/"
  }
},
{
  "type": "node",
  "id": 4262075814,
  "lat": 50.7206101,
  "lon": -1.2703064,
  "tags": {
    "name": "Postal Museum",
    "tourism": "museum"
  }
},
{
  "type": "node",
  "id": 4390623749,
  "lat": 50.8240931,
  "lon": -1.4542632,
  "tags": {
    "addr:city": "Beaulieu, Brockenhurst, Hampshire",
    "addr:postcode": "SO42 7ZN",
    "name": "Beaulieu",
    "note": " All of the buildings and attractions around here are part of the Beaulieu tourist attraction.",
    "phone": "+44 1590 612345",
    "tourism": "museum",
    "website": "https://www.beaulieu.co.uk/"
  }
},
{
  "type": "node",
  "id": 4551110445,
  "lat": 50.7604167,
  "lon": -1.2891802,
  "tags": {
    "addr:city": "East Cows",
    "addr:country": "GB",
    "addr:postcode": "PO32 6EZ",
    "addr:street": "Castle Street",
    "fhrs:id": "541829",
    "name": "Classic Boat Museum",
    "tourism": "museum",
    "wikipedia": "en:Classic Boat Museum"
  }
},
{
  "type": "node",
  "id": 4858527712,
  "lat": 50.7636781,
  "lon": -1.2977744,
  "tags": {
    "addr:city": "Cowes",
    "addr:housenumber": "83",
    "addr:postcode": "PO31 7AJ",
    "addr:street": "High Street",
    "name": "Sir Max Aitken Museum",
    "tourism": "museum",
    "website": "http://www.sirmaxaitkenmuseum.org"
  }
},
{
  "type": "node",
  "id": 5152147007,
  "lat": 50.7314268,
  "lon": -1.3048089,
  "tags": {
    "name": "The Wight Military and Heritage Museum",
    "tourism": "museum"
  }
},
{
  "type": "node",
  "id": 5159216460,
  "lat": 50.7305813,
  "lon": -1.1632016,
  "tags": {
    "name": "St Thomas Church (Heritage Centre)",
    "tourism": "museum"
  }
},
{
  "type": "node",
  "id": 6152085895,
  "lat": 50.7996262,
  "lon": -1.1734470,
  "tags": {
    "museum": "living_history",
    "name": "Little Woodham Living History Village",
    "tourism": "museum"
  }
},
{
  "type": "way",
  "id": 22927416,
  "nodes": [
    2709214873,
    3615121610,
    246885910,
    3614959356,
    246885919,
    3614959357,
    246885918,
    3614959370,
    3614959383,
    2468867038,
    246885917,
    3614959388,
    2468867053,
    2468867088,
    3614959385,
    3614959378,
    246885916,
    2468867047,
    246885915,
    3614959373,
    246885914,
    3615121612,
    3614959348,
    3615092866,
    3614959351,
    246885913,
    2468867046,
    3614959342,
    246885912,
    2468867044,
    246885911,
    3614959345,
    2709214868,
    2709214873
  ],
  "tags": {
    "addr:city": "Fareham",
    "addr:housename": "Royal Armouries Museum",
    "addr:postcode": "PO17 6AN",
    "addr:street": "Portsdown Hill Road",
    "alt_name": "Royal Armouries Museum",
    "historic": "fort",
    "name": "Fort Nelson",
    "tourism": "museum",
    "website": "https://www.royalarmouries.org/visit-us/fort-nelson",
    "wikidata": "Q5471742"
  }
},
{
  "type": "way",
  "id": 23490269,
  "nodes": [
    254379747,
    254379748,
    1648686868,
    1648686922,
    1648448612,
    1648709092,
    1648448440,
    254379749,
    1648448497,
    1648448592,
    1648448406,
    1648448469,
    1648708873,
    254379750,
    1648686932,
    1648686893,
    254379747
  ],
  "tags": {
    "building": "yes",
    "name": "Royal Victoria Hospital Museum",
    "operator": "Hampshire County Council",
    "tourism": "museum",
    "wikidata": "Q3145353",
    "wikipedia": "en:Netley Hospital"
  }
},
{
  "type": "way",
  "id": 24774513,
  "nodes": [
    269209828,
    520392812,
    520392813,
    520392814,
    520392815,
    520392817,
    520392819,
    520392821,
    520392823,
    520392826,
    520392837,
    520392839,
    520392844,
    520392846,
    520392848,
    269209831,
    269209821,
    520392855,
    520392857,
    6813933459,
    269209822,
    269209823,
    520392864,
    269209824,
    269209825,
    269209826,
    269209827,
    269209828
  ],
  "tags": {
    "building": "yes",
    "name": "D-Day Museum",
    "tourism": "museum",
    "wikidata": "Q5203249"
  }
},
{
  "type": "way",
  "id": 28082741,
  "nodes": [
    308420768,
    308420769,
    308420770,
    308420772,
    308420768
  ],
  "tags": {
    "building": "yes",
    "name": "Milestones Museum",
    "tourism": "museum",
    "url": "http://www3.hants.gov.uk/milestones",
    "wikidata": "Q15253385",
    "wikipedia": "en:Milestones Museum"
  }
},
{
  "type": "way",
  "id": 29362982,
  "nodes": [
    322987725,
    4311943743,
    4311943744,
    4311943745,
    322987727,
    4311943746,
    4311943747,
    4311943748,
    4311943749,
    322987728,
    322987729,
    322987730,
    322987732,
    322987733,
    4311943750,
    4311943751,
    4311943752,
    4311943753,
    4311943754,
    4311943755,
    4311943756,
    4311943757,
    322987725
  ],
  "tags": {
    "building": "yes",
    "name": "Bursledon Brickworks",
    "tourism": "museum",
    "wikidata": "Q28403339"
  }
},
{
  "type": "way",
  "id": 30665953,
  "nodes": [
    1400218940,
    1400218943,
    5148007795,
    5148007797,
    5148007789,
    5148007790,
    339124476,
    1400219043,
    339124477,
    5148007776,
    339124478,
    5148007775,
    1400218951,
    339128502,
    5148007774,
    5147923149,
    5147923148,
    339128504,
    1400218761,
    1275731226,
    5147923151,
    5147858075,
    5147858047,
    5147923152,
    1275731400,
    5148093525,
    32439770,
    5147858086,
    5147858087,
    1400251645,
    1400251635,
    1400251630,
    1400251624,
    1400251617,
    1400251611,
    1400251607,
    1275731291,
    5147923123,
    5147922887,
    1400218089,
    1275731396,
    1400217932,
    1275731447,
    1400217924,
    1400217929,
    5147923135,
    5148108871,
    1275731557,
    5147922913,
    5148093584,
    5148093583,
    5148093601,
    5148108860,
    5148093585,
    5148093598,
    1275731236,
    5148093592,
    1275731601,
    5148093587,
    1400218516,
    5148108862,
    5148108863,
    5148093586,
    1275731389,
    1400218553,
    5148093590,
    1400218467,
    5148093576,
    5148093575,
    1400218416,
    1400218301,
    1400218295,
    1400218211,
    1400218216,
    255386346,
    255386347,
    1400218110,
    1400218175,
    1400218623,
    5940432204,
    1400218733,
    255386348,
    1275731343,
    1400218788,
    1400218765,
    37578262,
    37578261,
    16830419,
    5148093582,
    1400218395,
    1400218355,
    1400218670,
    1400218786,
    1400218835,
    1400218932,
    5148007773,
    1400218940
  ],
  "tags": {
    "leisure": "park",
    "name": "Osborne House",
    "notes": "Opening hours are for summer 2011, with the house having different opening hours. As the area describes the 'museum', the boundary is the area made accessible to the museum visitor.",
    "opening_hours": "Apr 01-Sep 30 10:00-18:00",
    "operator": "English Heritage",
    "source": "Yahoo& Bing",
    "tourism": "museum",
    "website": "https://www.english-heritage.org.uk/visit/places/osborne-house/",
    "wikidata": "Q565155"
  }
},
{
  "type": "way",
  "id": 31861783,
  "nodes": [
    356728012,
    356728013,
    356728015,
    356728016,
    4021149763,
    4021149765,
    4021149764,
    4021149762,
    356728012
  ],
  "tags": {
    "addr:city": "Southampton",
    "addr:postcode": "SO14 3FR",
    "addr:street": "Albert Road South",
    "building": "yes",
    "email": "aviation@spitfireonline.co.uk",
    "name": "Solent Sky",
    "opening_hours": "Mo-Sa 10:00-17:00; Su 12:00-17:00",
    "phone": "+44 2380 635 830",
    "source": "Yahoo",
    "tourism": "museum",
    "website": "https://www.solentskymuseum.org/",
    "wikidata": "Q7557658"
  }
},
{
  "type": "way",
  "id": 71405894,
  "nodes": [
    849667387,
    849667398,
    849667402,
    849667405,
    849667387
  ],
  "tags": {
    "addr:city": "Portsmouth",
    "addr:postcode": "PO1 2LJ",
    "addr:street": "Museum Road",
    "building": "yes",
    "name": "City Museum",
    "opening_hours": "Tu-Su 10:00-17:00",
    "operator": "Portsmouth Museum Service, Portsmouth City Council",
    "source": "os_opendata_streetview",
    "toilets:wheelchair": "yes",
    "tourism": "museum",
    "website": "http://www.portsmouthcitymuseums.co.uk/",
    "wheelchair": "yes",
    "wikidata": "Q19568980"
  }
},
{
  "type": "way",
  "id": 80364123,
  "nodes": [
    937844337,
    937844308,
    1397155692,
    937844295,
    937844267,
    937844355,
    937844337
  ],
  "tags": {
    "building": "yes",
    "name": "The Buckler's Hard Story Maritime Museum",
    "tourism": "museum"
  }
},
{
  "type": "way",
  "id": 102210217,
  "nodes": [
    1179558088,
    1179558174,
    1179558077,
    452445304,
    1179558088
  ],
  "tags": {
    "building": "yes",
    "name": "Royal Green Jackets Museum",
    "tourism": "museum",
    "wikidata": "Q7374235"
  }
},
{
  "type": "way",
  "id": 102210218,
  "nodes": [
    1179558165,
    1179558100,
    1719479131,
    1179558144,
    1179558176,
    1719479129,
    1179558165
  ],
  "tags": {
    "building": "yes",
    "name": "Serle's House",
    "tourism": "museum",
    "wikidata": "Q17540137"
  }
},
{
  "type": "way",
  "id": 102210219,
  "nodes": [
    1179558208,
    1179558063,
    1179558129,
    1179558110,
    1179558197,
    1179558147,
    1179558139,
    1179558115,
    1179558081,
    1179558193,
    1179558208
  ],
  "tags": {
    "building": "yes",
    "name": "Museum of the Adjutant General's Corps",
    "tourism": "museum"
  }
},
{
  "type": "way",
  "id": 102210227,
  "nodes": [
    1179558215,
    1179558219,
    1179558184,
    1179558059,
    1179558163,
    1179558072,
    1179558095,
    1179558087,
    1179558170,
    1179558078,
    1179558070,
    1179558118,
    1179558099,
    1179558152,
    1179558181,
    1179558194,
    1179558215
  ],
  "tags": {
    "building": "yes",
    "name": "Horse Power The Museum of the King's Royal Hussars, The Gurkha Museum",
    "tourism": "museum"
  }
},
{
  "type": "way",
  "id": 122623981,
  "nodes": [
    1369702615,
    1369702628,
    5450318980,
    5450318981,
    1369702629,
    1369702624,
    1369702625,
    1369702623,
    1369702613,
    1369702618,
    1369702622,
    1369702621,
    1369702615
  ],
  "tags": {
    "building": "yes",
    "name": "Museum of Army Flying",
    "tourism": "museum",
    "wikidata": "Q6940754"
  }
},
{
  "type": "way",
  "id": 126264134,
  "nodes": [
    1400218236,
    1400218267,
    1400218187,
    1400218179,
    1400218236
  ],
  "tags": {
    "building": "yes",
    "name": "Osborne House Swiss Cottage Museum",
    "operator": "English Heritage",
    "tourism": "museum"
  }
},
{
  "type": "way",
  "id": 154894510,
  "nodes": [
    1673553785,
    4817822674,
    4081765223,
    4865387856,
    4081765244,
    1673553767,
    4865387889,
    2305979413,
    4865387884,
    4865378564,
    4865378558,
    4865378557,
    4865378556,
    2305979406,
    2305979411,
    4865381982,
    2305979409,
    4865381950,
    4865381984,
    2305979402,
    2305979425,
    4081765218,
    1673553748,
    4081765217,
    1673553781,
    4081765247,
    4081765256,
    4081765212,
    4081765216,
    1673553740,
    4081765232,
    1673553776,
    1673553774,
    4081765209,
    4081765214,
    4081765257,
    4081765230,
    1383004792,
    1673553746,
    4880488938,
    1383004816,
    4081765215,
    4081765233,
    4081765266,
    4081765254,
    4081765276,
    4081765228,
    4081765249,
    4081765220,
    4874366094,
    4081765246,
    4081765251,
    4081765274,
    4874366099,
    1383004818,
    1673553761,
    1383004812,
    4874366065,
    1383004797,
    4081765210,
    1673553771,
    4865344891,
    4865344890,
    4081765221,
    4081765231,
    1673553783,
    4081765253,
    4081765250,
    4081765275,
    4081765262,
    4817822672,
    1673553785
  ],
  "tags": {
    "name": "Royal Navy Submarine Museum",
    "tourism": "museum",
    "wikidata": "Q5390017"
  }
},
{
  "type": "way",
  "id": 158030965,
  "nodes": [
    1702695012,
    1702694992,
    1702694986,
    1702695004,
    1702695012
  ],
  "tags": {
    "building": "museum",
    "name": "Bishop's Waltham Museum",
    "source": "bing",
    "tourism": "museum"
  }
},
{
  "type": "way",
  "id": 184117645,
  "nodes": [
    1945678444,
    1945678440,
    1945678438,
    1945678441,
    1945678444
  ],
  "tags": {
    "addr:city": "Southampton",
    "addr:housenumber": "58",
    "addr:street": "French Street",
    "building": "yes",
    "name": "Medieval Merchants House",
    "operator": "English Heritage",
    "tourism": "museum",
    "wikidata": "Q6806828"
  }
},
{
  "type": "way",
  "id": 184120201,
  "nodes": [
    1945697874,
    1945697869,
    1945697870,
    1945697868,
    1945697867,
    1945697864,
    1945697863,
    1945697861,
    1945697859,
    1945697858,
    1945697855,
    1945697866,
    1945697865,
    1945697862,
    1945697860,
    1945697856,
    1945697857,
    1945697854,
    1945697853,
    1945697851,
    1945697852,
    1945697848,
    1945697847,
    1945697846,
    1945697845,
    1945697843,
    1945697842,
    1945697850,
    1945697849,
    1945697871,
    1945697873,
    1945697872,
    1945697875,
    1945697876,
    1945697874
  ],
  "tags": {
    "building": "yes",
    "name": "Tudor House Museum",
    "tourism": "museum",
    "website": "https://www.tudorhouseandgarden.com/",
    "wikidata": "Q7569167"
  }
},
{
  "type": "way",
  "id": 191552232,
  "nodes": [
    2021362977,
    2021363001,
    2021362982,
    2021362993,
    2021362985,
    2021362951,
    2021362964,
    2021362976,
    2021362979,
    2021362949,
    2021362994,
    2021362986,
    2021362957,
    2021362972,
    2021363006,
    2021362988,
    2021362966,
    2021362984,
    2021362977
  ],
  "tags": {
    "building": "yes",
    "name": "New Forest Museum",
    "tourism": "museum"
  }
},
{
  "type": "way",
  "id": 196107830,
  "nodes": [
    2064756793,
    2064756794,
    2064756796,
    2064756795,
    6838276135,
    6838276138,
    2064756793
  ],
  "tags": {
    "name": "Romsey Signal Box Project",
    "tourism": "museum"
  }
},
{
  "type": "way",
  "id": 209816108,
  "nodes": [
    2199852388,
    2199852396,
    2199852398,
    2199852387,
    2199852397,
    2199852393,
    2199852395,
    2199852390,
    2199852394,
    2199852388
  ],
  "tags": {
    "name": "West End Museum",
    "opening_hours": "Sa 10:00-16:00",
    "tourism": "museum"
  }
},
{
  "type": "way",
  "id": 217333822,
  "nodes": [
    2266060484,
    1406045972,
    2266060481,
    2266060477,
    2266060475,
    2266060473,
    366137727,
    2266060471,
    2266060479,
    2266060482,
    1406077669,
    2266060484
  ],
  "tags": {
    "name": "Westbury Manor Museum",
    "tourism": "museum",
    "website": "https://www.hants.gov.uk/westbury-manor-museum/",
    "wheelchair": "limited",
    "wikidata": "Q7987206"
  }
},
{
  "type": "way",
  "id": 222795694,
  "nodes": [
    2317372229,
    2317372205,
    2317443934,
    2317372240,
    2317372251,
    2317372241,
    2317372199,
    706635107,
    2317372229
  ],
  "tags": {
    "building": "yes",
    "name": "Winchester City Museum",
    "tourism": "museum",
    "wikidata": "Q26314580"
  }
},
{
  "type": "way",
  "id": 239055486,
  "nodes": [
    2468692107,
    251559300,
    4828665871,
    4828666966,
    4828665870,
    2468691982,
    2468692099,
    2468692116,
    2468692299,
    2468692287,
    2468692322,
    2468692027,
    2468692090,
    2468692108,
    2468692333,
    2468692031,
    2468692283,
    2468692008,
    2468691976,
    2468692112,
    2468692062,
    2468692004,
    2468692335,
    2468692125,
    251559302,
    4827187803,
    4827188401,
    2468692319,
    4827188400,
    4827188399,
    2468692304,
    4827188394,
    4827188395,
    2468691970,
    4827188396,
    2468692268,
    4827188397,
    4827188398,
    2468692311,
    2468692365,
    2468692158,
    2468692047,
    2468692243,
    2468692060,
    2468692076,
    4827187804,
    4827188367,
    2468692030,
    4828667035,
    2468692088,
    4828667036,
    251559303,
    2468692266,
    4828667034,
    2468692046,
    2468692056,
    4828667033,
    4828667032,
    2468691991,
    2468691998,
    2468692134,
    2468692264,
    2468692028,
    2468692342,
    2468692038,
    4828666977,
    4828666978,
    2468692039,
    251559304,
    4828666979,
    4828666980,
    4827188368,
    2468692217,
    2468692228,
    251559305,
    251559306,
    4828731177,
    4828731178,
    251559307,
    4828738173,
    4828738174,
    251559308,
    4828731214,
    251559309,
    4828731212,
    4828731213,
    4828665872,
    251559310,
    4828738177,
    251559311,
    4828738176,
    251559312,
    4828738175,
    251559313,
    251559314,
    4828738178,
    251559315,
    2468691979,
    2468692058,
    2468692104,
    251559316,
    1587179118,
    4828666965,
    4828666964,
    4828666963,
    4828666962,
    1587179115,
    2468692107
  ],
  "tags": {
    "historic": "fort",
    "operator": "English Heritage",
    "tourism": "museum",
    "website": "https://www.english-heritage.org.uk/visit/places/fort-brockhurst/"
  }
},
{
  "type": "way",
  "id": 251061517,
  "nodes": [
    1015843645,
    2573529879,
    2573529820,
    2573529809,
    2573529826,
    2573529818,
    2573529893,
    2576496356,
    2573529867,
    2573529903,
    2573529934,
    2573529831,
    2573529915,
    2573542324,
    2573529825,
    2573529854,
    2573529804,
    2573529882,
    2573529910,
    2573529889,
    2573529855,
    2573529802,
    2573529878,
    2573529833,
    2573529850,
    2573529849,
    2573529852,
    2573529823,
    2573529844,
    2573529869,
    2573529810,
    2573529932,
    2573529803,
    2573529873,
    2573529845,
    2573529892,
    2573529808,
    2573529880,
    2573529887,
    2573529883,
    2573529851,
    2573529885,
    2573529900,
    1015843574,
    2573529875,
    2573529876,
    2573529886,
    2573529830,
    1015843645
  ],
  "tags": {
    "building": "yes",
    "layer": "1",
    "listed_building": "grade_II*",
    "name": "SeaCity Museum",
    "note": "precise shape/reach unknown",
    "opening_hours": "Mo-Su,PH 10:00-17:00",
    "operator": "Southampton City Council",
    "tourism": "museum",
    "website": "https://www.seacitymuseum.co.uk/",
    "wikidata": "Q7439809"
  }
},
{
  "type": "way",
  "id": 293116440,
  "nodes": [
    2966776738,
    2966776736,
    2966776739,
    2966776744,
    2966776737,
    2966776740,
    2966776741,
    2966776743,
    2966776738
  ],
  "tags": {
    "addr:city": "Chawton",
    "addr:housename": "Jane Austen's House Museum",
    "addr:postcode": "GU34 1SD",
    "addr:street": "Winchester Road",
    "alt_name:en": "Jane Austen Museum",
    "building": "yes",
    "fhrs:id": "726611",
    "heritage": "2",
    "heritage:operator": "Historic England",
    "listed_status": "Grade I",
    "name": "Jane Austen's House Museum",
    "name:en": "Jane Austen's House Museum",
    "source": "Bing",
    "start_date": "C18",
    "tourism": "museum",
    "website": "https://www.jane-austens-house-museum.org.uk/",
    "wikidata": "Q3161847",
    "wikipedia": "en:Jane Austen's House Museum"
  }
},
{
  "type": "way",
  "id": 303687511,
  "nodes": [
    364429150,
    364429152,
    364429153,
    364429159,
    3080908841,
    3080908842,
    3100379385,
    2249417407,
    3100379387,
    3100379388,
    2249417419,
    3100379393,
    3100379394,
    2249417415,
    3100379396,
    2249417416,
    3100379400,
    3100379401,
    3100379402,
    3100379404,
    3100379406,
    2249417414,
    2249417423,
    3100379410,
    3100379409,
    2249417404,
    3100379416,
    3100379415,
    3100379414,
    2249417408,
    3100379412,
    2249417412,
    3100379408,
    3100379407,
    2249417418,
    3100379405,
    3100379403,
    2249417424,
    3100379399,
    2249417410,
    3100379395,
    2249417421,
    3100379390,
    2249417422,
    3080908843,
    364429150
  ],
  "tags": {
    "building": "yes",
    "name": "Mary Rose Museum",
    "toilets:wheelchair": "yes",
    "tourism": "museum",
    "website": "https://maryrose.org/",
    "wheelchair": "yes",
    "wheelchair:description": "Entry & Exit powered doors. High counter at till. (No loop) Double entrance lifts between levels, galleries slope along length like the deck. Toilets on top level & outside.",
    "wikipedia": "en:Mary Rose Museum"
  }
},
{
  "type": "way",
  "id": 314318637,
  "nodes": [
    2010522530,
    4881573399,
    4881573398,
    4881573396,
    4881573397,
    4881573400,
    3203677456,
    4881573419,
    3203677452,
    3203677453,
    3203677450,
    4881573418,
    3203677449,
    3203677448,
    3203677451,
    4895033473,
    3203677454,
    4895033474,
    4895033475,
    2010522530
  ],
  "tags": {
    "addr:city": "Alton",
    "addr:postcode": "GU34 1BA",
    "addr:street": "High Street",
    "building": "yes",
    "building:levels": "2",
    "building:material": "brick",
    "fhrs:id": "349011",
    "name": "Curtis Museum",
    "roof:material": "roof_tiles",
    "source": "Bing;survey",
    "source:addr": "FSA Food Hygiene Rating System open data",
    "tourism": "museum",
    "website": "http://www3.hants.gov.uk/curtis-museum.htm",
    "wikidata": "Q5195840"
  }
},
{
  "type": "way",
  "id": 329042232,
  "nodes": [
    3358640706,
    3358640707,
    3358640708,
    3358640709,
    3358640710,
    3358640711,
    3358640712,
    3358640713,
    3358640714,
    3358640715,
    3358640716,
    3358640717,
    3358640718,
    3358640719,
    3358640720,
    3358640721,
    3358640722,
    3358640723,
    3358640724,
    3358640725,
    3358640726,
    3358640727,
    3358640728,
    3358640729,
    3358640730,
    3358640731,
    3358640732,
    3358640733,
    3358640706
  ],
  "tags": {
    "addr:postcode": "GU34 3JH",
    "building": "yes",
    "name": "Gilbert White's House",
    "tourism": "museum",
    "website": "https://gilbertwhiteshouse.org.uk/"
  }
},
{
  "type": "way",
  "id": 361731883,
  "nodes": [
    3661725329,
    3661725330,
    3661725331,
    3661725332,
    3661725329
  ],
  "tags": {
    "building": "yes",
    "name": "Secret Army Exhibition",
    "tourism": "museum"
  }
},
{
  "type": "way",
  "id": 374179295,
  "nodes": [
    3775705137,
    3775705123,
    3775705120,
    3775705110,
    3775705108,
    5170958233,
    5170958238,
    5170958243,
    3775705103,
    3775705127,
    5170934734,
    5170934732,
    5170934731,
    3775705130,
    3775705134,
    3775705137
  ],
  "tags": {
    "building": "yes",
    "man_made": "watermill",
    "name": "City Mill",
    "operator": "National Trust",
    "tourism": "museum",
    "website": "https://www.nationaltrust.org.uk/winchester-city-mill/",
    "wheelchair": "limited",
    "wikidata": "Q8023787"
  }
},
{
  "type": "way",
  "id": 380267319,
  "nodes": [
    3836100458,
    4884482409,
    4884482421,
    4884482423,
    4884482436,
    3836100459,
    4884482437,
    3836100460,
    3836100461,
    3836100462,
    3836100463,
    3836100464,
    3836100465,
    4884482422,
    6402573462,
    4892998898,
    3836100458
  ],
  "tags": {
    "addr:city": "Alton",
    "addr:housenumber": "10-12",
    "addr:postcode": "GU34 2BW",
    "addr:street": "Church Street",
    "building": "yes",
    "fee": "no",
    "fhrs:id": "570309",
    "name": "The Allen Gallery",
    "note": "Ceramics collection, regular art exhibitions, tea room, garden.",
    "opening_hours": "Tu-Sa 10:30-16:30",
    "operator": "Hampshire Cultural Trust",
    "source:addr:housenumber": "FSA Food Hygiene Rating System data",
    "tourism": "museum",
    "website": "http://hampshireculturaltrust.org.uk/allen-gallery"
  }
},
{
  "type": "way",
  "id": 406049174,
  "nodes": [
    3101608942,
    3101608943,
    3101608939,
    3100645757,
    3100642087,
    3100645693,
    3100645648,
    3100645752,
    3100645643,
    3100645723,
    3100645654,
    3100645779,
    3100645714,
    3100645751,
    3100645758,
    3100645780,
    4081728712,
    4081728898,
    4081728902,
    3101594397,
    3101594259,
    3101608940,
    3101608934,
    3101608946,
    3101608942
  ],
  "tags": {
    "name": "Hovercraft Museum",
    "opening_hours": "Sa 10:00-16:00; We 12:00-16:00 \"by appointment\"",
    "tourism": "museum",
    "url": "http://www.hovercraft-museum.org/",
    "wikidata": "Q15226086"
  }
},
{
  "type": "way",
  "id": 406435850,
  "nodes": [
    4085019190,
    4085019207,
    4085019214,
    4085019220,
    13717881,
    4788209443,
    251559870,
    4085002230,
    13717876,
    4737260031,
    4737260035,
    4085002224,
    251559867,
    251559866,
    251559865,
    251559864,
    4085002222,
    251559863,
    4737129614,
    4737260034,
    4737260033,
    4737260032,
    251559861,
    13717872,
    4737129188,
    4737129189,
    4085002217,
    4737129190,
    13717871,
    4085002233,
    2502180357,
    2502180335,
    2502180336,
    2502180330,
    4085019212,
    4085002235,
    4044292078,
    4044292085,
    4085002239,
    4085019190
  ],
  "tags": {
    "name": "Explosion! Museum of Naval Firepower",
    "tourism": "museum",
    "wikidata": "Q5421422"
  }
},
{
  "type": "way",
  "id": 443618951,
  "nodes": [
    850506970,
    4411735179,
    4411735181,
    6806456936,
    4411735182,
    4411735180,
    1319504708,
    1319504740,
    850506972,
    850506973,
    850506975,
    4411735183,
    850506977,
    1319504743,
    1319504739,
    850506978,
    850506979,
    850506969,
    850506970
  ],
  "tags": {
    "addr:housename": "Cumberland House Natural History Museum",
    "addr:street": "Eastern Parade",
    "building": "yes",
    "name": "Cumberland House Natural History Museum",
    "tourism": "museum",
    "website": "http://www.portsmouthnaturalhistory.co.uk/"
  }
},
{
  "type": "way",
  "id": 468915525,
  "nodes": [
    4633679943,
    4904080567,
    4633679944,
    4633679945,
    4633679946,
    4633679943
  ],
  "tags": {
    "building": "yes",
    "tourism": "museum"
  }
},
{
  "type": "way",
  "id": 468915527,
  "nodes": [
    4633679953,
    4904080540,
    4904112977,
    4904112978,
    4904080537,
    4633679954,
    4633679955,
    4633679956,
    4904080541,
    4633679953
  ],
  "tags": {
    "building": "yes",
    "tourism": "museum"
  }
},
{
  "type": "way",
  "id": 469070524,
  "nodes": [
    3100645707,
    3100645705,
    4634807284,
    3100560758,
    3100558824,
    3100645727,
    3100645692,
    3100645681,
    3938139654,
    3938144757,
    3938144758,
    3100645707
  ],
  "tags": {
    "name": "The Diving Museum",
    "tourism": "museum",
    "website": "https://www.divingmuseum.co.uk/"
  }
},
{
  "type": "way",
  "id": 502102951,
  "nodes": [
    4926856893,
    4926856894,
    4926856895,
    4926856896,
    4926856897,
    4926856898,
    4926856899,
    4926856900,
    4926856901,
    4926856902,
    4926856893
  ],
  "tags": {
    "building": "yes",
    "tourism": "museum"
  }
},
{
  "type": "way",
  "id": 539694224,
  "nodes": [
    5221902179,
    5221902180,
    5221902174,
    5221902175,
    5221902182,
    6591168071,
    5221902184,
    5221902181,
    5221902179
  ],
  "tags": {
    "addr:postcode": "RG21 7QD",
    "building": "yes",
    "name": "Willis Museum",
    "tourism": "museum",
    "website": "http://hampshireculturaltrust.org.uk/willis-museum",
    "wheelchair": "yes"
  }
},
{
  "type": "way",
  "id": 666420527,
  "nodes": [
    6239297514,
    6239297513,
    6239297512,
    6239297511,
    6239297514
  ],
  "tags": {
    "addr:city": "Portsmouth",
    "addr:postcode": "PO3 5PJ",
    "addr:street": "Airport Service Road",
    "addr:unit": "Bastion 6",
    "building": "yes",
    "name": "WW1 Remembrance Centre",
    "tourism": "museum",
    "website": "https://ww1remembrancecentre.uk/"
  }
},
{
  "type": "relation",
  "id": 16431,
  "members": [
    {
      "type": "way",
      "ref": 23911233,
      "role": "outer"
    },
    {
      "type": "way",
      "ref": 24788302,
      "role": "inner"
    }
  ],
  "tags": {
    "addr:city": "Southsea",
    "addr:country": "GB",
    "addr:housename": "Southsea Castle",
    "addr:postcode": "PO5 3PA",
    "building": "yes",
    "building:levels": "3",
    "castle_type": "defensive",
    "fee": "yes",
    "historic": "castle",
    "name": "Southsea Castle",
    "name:fr": "Château de Southsea",
    "name:ga": "Caisleán Southsea",
    "name:he": "מצודת סאות'סי",
    "opening_hours": "Apr-Sep 10:00-17:30",
    "source": "Bing",
    "source:2": "https://en.wikipedia.org/wiki/Southsea_Castle#/media/File:Southsea_Castle_-_early_19th_century.png",
    "tourism": "museum",
    "type": "multipolygon",
    "website": "http://www.southseacastle.co.uk/",
    "wikidata": "Q1743815",
    "wikipedia": "en:Southsea Castle"
  }
},
{
  "type": "relation",
  "id": 4119331,
  "members": [
    {
      "type": "way",
      "ref": 303687505,
      "role": "outer"
    },
    {
      "type": "way",
      "ref": 308455520,
      "role": "outer"
    }
  ],
  "tags": {
    "building": "yes",
    "name": "Royal Naval Museum",
    "tourism": "museum",
    "type": "multipolygon",
    "wikidata": "Q3445999"
  }
},
{
  "type": "relation",
  "id": 4119332,
  "members": [
    {
      "type": "way",
      "ref": 32393555,
      "role": "outer"
    },
    {
      "type": "way",
      "ref": 308455515,
      "role": "outer"
    }
  ],
  "tags": {
    "building": "yes",
    "tourism": "museum",
    "type": "multipolygon"
  }
},
{
  "type": "relation",
  "id": 10708265,
  "members": [
    {
      "type": "way",
      "ref": 320795759,
      "role": ""
    },
    {
      "type": "way",
      "ref": 593918324,
      "role": ""
    }
  ],
  "tags": {
    "name": "Gliding Heritage Centre",
    "tourism": "museum",
    "type": "multipolygon"
  }
},
{
  "type": "node",
  "id": 32439770,
  "lat": 50.7499874,
  "lon": -1.2760344
},
{
  "type": "node",
  "id": 339128502,
  "lat": 50.7518430,
  "lon": -1.2718750
},
{
  "type": "node",
  "id": 339128504,
  "lat": 50.7511439,
  "lon": -1.2727413
},
{
  "type": "node",
  "id": 1275731226,
  "lat": 50.7503877,
  "lon": -1.2727837
},
{
  "type": "node",
  "id": 1275731291,
  "lat": 50.7492720,
  "lon": -1.2732253
},
{
  "type": "node",
  "id": 1275731400,
  "lat": 50.7500365,
  "lon": -1.2756820
},
{
  "type": "node",
  "id": 1400218761,
  "lat": 50.7508656,
  "lon": -1.2728189
},
{
  "type": "node",
  "id": 1400218951,
  "lat": 50.7520266,
  "lon": -1.2713987
},
{
  "type": "node",
  "id": 1400251607,
  "lat": 50.7492628,
  "lon": -1.2733816
},
{
  "type": "node",
  "id": 1400251611,
  "lat": 50.7493671,
  "lon": -1.2735623
},
{
  "type": "node",
  "id": 1400251617,
  "lat": 50.7495428,
  "lon": -1.2738965
},
{
  "type": "node",
  "id": 1400251624,
  "lat": 50.7497168,
  "lon": -1.2742598
},
{
  "type": "node",
  "id": 1400251630,
  "lat": 50.7498153,
  "lon": -1.2745101
},
{
  "type": "node",
  "id": 1400251635,
  "lat": 50.7498523,
  "lon": -1.2746424
},
{
  "type": "node",
  "id": 1400251645,
  "lat": 50.7499600,
  "lon": -1.2756084
},
{
  "type": "node",
  "id": 5147858047,
  "lat": 50.7501033,
  "lon": -1.2751726
},
{
  "type": "node",
  "id": 5147858075,
  "lat": 50.7501374,
  "lon": -1.2745971
},
{
  "type": "node",
  "id": 5147858086,
  "lat": 50.7499478,
  "lon": -1.2760167
},
{
  "type": "node",
  "id": 5147858087,
  "lat": 50.7499563,
  "lon": -1.2757391
},
{
  "type": "node",
  "id": 5147922887,
  "lat": 50.7494174,
  "lon": -1.2715521
},
{
  "type": "node",
  "id": 5147923123,
  "lat": 50.7493925,
  "lon": -1.2717997
},
{
  "type": "node",
  "id": 5147923148,
  "lat": 50.7513020,
  "lon": -1.2726679
},
{
  "type": "node",
  "id": 5147923149,
  "lat": 50.7514819,
  "lon": -1.2725043
},
{
  "type": "node",
  "id": 5147923151,
  "lat": 50.7502719,
  "lon": -1.2736248
},
{
  "type": "node",
  "id": 5147923152,
  "lat": 50.7500772,
  "lon": -1.2755245
},
{
  "type": "node",
  "id": 5148007774,
  "lat": 50.7516923,
  "lon": -1.2722677
},
{
  "type": "node",
  "id": 5148093525,
  "lat": 50.7500199,
  "lon": -1.2760475
},
{
  "type": "node",
  "id": 339124476,
  "lat": 50.7524611,
  "lon": -1.2683706
},
{
  "type": "node",
  "id": 339124477,
  "lat": 50.7524717,
  "lon": -1.2692143
},
{
  "type": "node",
  "id": 339124478,
  "lat": 50.7524274,
  "lon": -1.2699571
},
{
  "type": "node",
  "id": 1275731396,
  "lat": 50.7490119,
  "lon": -1.2702018
},
{
  "type": "node",
  "id": 1275731447,
  "lat": 50.7489009,
  "lon": -1.2701479
},
{
  "type": "node",
  "id": 1275731557,
  "lat": 50.7491237,
  "lon": -1.2696061
},
{
  "type": "node",
  "id": 1400217924,
  "lat": 50.7489269,
  "lon": -1.2699954
},
{
  "type": "node",
  "id": 1400217929,
  "lat": 50.7489397,
  "lon": -1.2699204
},
{
  "type": "node",
  "id": 1400217932,
  "lat": 50.7489321,
  "lon": -1.2701632
},
{
  "type": "node",
  "id": 1400218089,
  "lat": 50.7494757,
  "lon": -1.2710950
},
{
  "type": "node",
  "id": 1400218355,
  "lat": 50.7505063,
  "lon": -1.2648706
},
{
  "type": "node",
  "id": 1400218670,
  "lat": 50.7509327,
  "lon": -1.2648457
},
{
  "type": "node",
  "id": 1400218786,
  "lat": 50.7511805,
  "lon": -1.2649439
},
{
  "type": "node",
  "id": 1400218835,
  "lat": 50.7514249,
  "lon": -1.2653475
},
{
  "type": "node",
  "id": 1400218932,
  "lat": 50.7516856,
  "lon": -1.2658339
},
{
  "type": "node",
  "id": 1400218940,
  "lat": 50.7518805,
  "lon": -1.2662612
},
{
  "type": "node",
  "id": 1400218943,
  "lat": 50.7519654,
  "lon": -1.2664949
},
{
  "type": "node",
  "id": 1400219043,
  "lat": 50.7524746,
  "lon": -1.2688873
},
{
  "type": "node",
  "id": 5147922913,
  "lat": 50.7492266,
  "lon": -1.2693675
},
{
  "type": "node",
  "id": 5147923135,
  "lat": 50.7489816,
  "lon": -1.2698573
},
{
  "type": "node",
  "id": 5148007773,
  "lat": 50.7517725,
  "lon": -1.2659913
},
{
  "type": "node",
  "id": 5148007775,
  "lat": 50.7523117,
  "lon": -1.2704672
},
{
  "type": "node",
  "id": 5148007776,
  "lat": 50.7524636,
  "lon": -1.2695324
},
{
  "type": "node",
  "id": 5148007789,
  "lat": 50.7523923,
  "lon": -1.2678722
},
{
  "type": "node",
  "id": 5148007790,
  "lat": 50.7524441,
  "lon": -1.2681095
},
{
  "type": "node",
  "id": 5148007795,
  "lat": 50.7519951,
  "lon": -1.2665794
},
{
  "type": "node",
  "id": 5148007797,
  "lat": 50.7521359,
  "lon": -1.2670104
},
{
  "type": "node",
  "id": 5148093583,
  "lat": 50.7494081,
  "lon": -1.2687037
},
{
  "type": "node",
  "id": 5148093584,
  "lat": 50.7492367,
  "lon": -1.2692119
},
{
  "type": "node",
  "id": 5148093585,
  "lat": 50.7501446,
  "lon": -1.2662293
},
{
  "type": "node",
  "id": 5148093598,
  "lat": 50.7501888,
  "lon": -1.2660134
},
{
  "type": "node",
  "id": 5148093601,
  "lat": 50.7497609,
  "lon": -1.2680016
},
{
  "type": "node",
  "id": 5148108860,
  "lat": 50.7500641,
  "lon": -1.2666012
},
{
  "type": "node",
  "id": 5148108871,
  "lat": 50.7490274,
  "lon": -1.2697870
},
{
  "type": "node",
  "id": 16830419,
  "lat": 50.7506878,
  "lon": -1.2620151
},
{
  "type": "node",
  "id": 37578261,
  "lat": 50.7507630,
  "lon": -1.2602561
},
{
  "type": "node",
  "id": 1275731236,
  "lat": 50.7505316,
  "lon": -1.2645885
},
{
  "type": "node",
  "id": 1275731601,
  "lat": 50.7505935,
  "lon": -1.2637657
},
{
  "type": "node",
  "id": 1400218395,
  "lat": 50.7505625,
  "lon": -1.2646021
},
{
  "type": "node",
  "id": 1400218516,
  "lat": 50.7506359,
  "lon": -1.2619807
},
{
  "type": "node",
  "id": 5148093582,
  "lat": 50.7506114,
  "lon": -1.2642344
},
{
  "type": "node",
  "id": 5148093586,
  "lat": 50.7507123,
  "lon": -1.2602433
},
{
  "type": "node",
  "id": 5148093587,
  "lat": 50.7505791,
  "lon": -1.2636859
},
{
  "type": "node",
  "id": 5148093592,
  "lat": 50.7505759,
  "lon": -1.2642277
},
{
  "type": "node",
  "id": 5148108862,
  "lat": 50.7506490,
  "lon": -1.2616837
},
{
  "type": "node",
  "id": 5148108863,
  "lat": 50.7506715,
  "lon": -1.2611712
},
{
  "type": "node",
  "id": 37578262,
  "lat": 50.7510342,
  "lon": -1.2577188
},
{
  "type": "node",
  "id": 255386346,
  "lat": 50.7494607,
  "lon": -1.2565721
},
{
  "type": "node",
  "id": 255386347,
  "lat": 50.7496143,
  "lon": -1.2558678
},
{
  "type": "node",
  "id": 255386348,
  "lat": 50.7510572,
  "lon": -1.2556564
},
{
  "type": "node",
  "id": 1275731343,
  "lat": 50.7510765,
  "lon": -1.2572189
},
{
  "type": "node",
  "id": 1275731389,
  "lat": 50.7509806,
  "lon": -1.2577003
},
{
  "type": "node",
  "id": 1400218110,
  "lat": 50.7497776,
  "lon": -1.2557626
},
{
  "type": "node",
  "id": 1400218175,
  "lat": 50.7503070,
  "lon": -1.2553656
},
{
  "type": "node",
  "id": 1400218179,
  "lat": 50.7503522,
  "lon": -1.2561428
},
{
  "type": "node",
  "id": 1400218187,
  "lat": 50.7503728,
  "lon": -1.2560121
},
{
  "type": "node",
  "id": 1400218211,
  "lat": 50.7504576,
  "lon": -1.2570658
},
{
  "type": "node",
  "id": 1400218216,
  "lat": 50.7504697,
  "lon": -1.2569830
},
{
  "type": "node",
  "id": 1400218236,
  "lat": 50.7504819,
  "lon": -1.2561938
},
{
  "type": "node",
  "id": 1400218267,
  "lat": 50.7505024,
  "lon": -1.2560631
},
{
  "type": "node",
  "id": 1400218295,
  "lat": 50.7505233,
  "lon": -1.2570904
},
{
  "type": "node",
  "id": 1400218301,
  "lat": 50.7505367,
  "lon": -1.2570070
},
{
  "type": "node",
  "id": 1400218416,
  "lat": 50.7506138,
  "lon": -1.2570450
},
{
  "type": "node",
  "id": 1400218467,
  "lat": 50.7507629,
  "lon": -1.2573162
},
{
  "type": "node",
  "id": 1400218553,
  "lat": 50.7509592,
  "lon": -1.2576073
},
{
  "type": "node",
  "id": 1400218623,
  "lat": 50.7508855,
  "lon": -1.2555927
},
{
  "type": "node",
  "id": 1400218733,
  "lat": 50.7510365,
  "lon": -1.2556520
},
{
  "type": "node",
  "id": 1400218765,
  "lat": 50.7511622,
  "lon": -1.2575618
},
{
  "type": "node",
  "id": 1400218788,
  "lat": 50.7511753,
  "lon": -1.2572515
},
{
  "type": "node",
  "id": 5148093575,
  "lat": 50.7506296,
  "lon": -1.2571319
},
{
  "type": "node",
  "id": 5148093576,
  "lat": 50.7506593,
  "lon": -1.2571876
},
{
  "type": "node",
  "id": 5148093590,
  "lat": 50.7509262,
  "lon": -1.2574908
},
{
  "type": "node",
  "id": 5940432204,
  "lat": 50.7510175,
  "lon": -1.2556445
},
{
  "type": "node",
  "id": 2021362949,
  "lat": 50.8720433,
  "lon": -1.5748274
},
{
  "type": "node",
  "id": 2021362951,
  "lat": 50.8718215,
  "lon": -1.5745337
},
{
  "type": "node",
  "id": 2021362957,
  "lat": 50.8719307,
  "lon": -1.5748059
},
{
  "type": "node",
  "id": 2021362964,
  "lat": 50.8720551,
  "lon": -1.5745283
},
{
  "type": "node",
  "id": 2021362966,
  "lat": 50.8718401,
  "lon": -1.5748089
},
{
  "type": "node",
  "id": 2021362972,
  "lat": 50.8719307,
  "lon": -1.5748274
},
{
  "type": "node",
  "id": 2021362976,
  "lat": 50.8720560,
  "lon": -1.5746436
},
{
  "type": "node",
  "id": 2021362977,
  "lat": 50.8717657,
  "lon": -1.5748354
},
{
  "type": "node",
  "id": 2021362979,
  "lat": 50.8720407,
  "lon": -1.5746450
},
{
  "type": "node",
  "id": 2021362982,
  "lat": 50.8717631,
  "lon": -1.5745162
},
{
  "type": "node",
  "id": 2021362984,
  "lat": 50.8718401,
  "lon": -1.5748327
},
{
  "type": "node",
  "id": 2021362985,
  "lat": 50.8718207,
  "lon": -1.5744908
},
{
  "type": "node",
  "id": 2021362986,
  "lat": 50.8719688,
  "lon": -1.5748059
},
{
  "type": "node",
  "id": 2021362988,
  "lat": 50.8718842,
  "lon": -1.5748076
},
{
  "type": "node",
  "id": 2021362993,
  "lat": 50.8717809,
  "lon": -1.5744921
},
{
  "type": "node",
  "id": 2021362994,
  "lat": 50.8719696,
  "lon": -1.5748301
},
{
  "type": "node",
  "id": 2021363001,
  "lat": 50.8717623,
  "lon": -1.5745431
},
{
  "type": "node",
  "id": 2021363006,
  "lat": 50.8718850,
  "lon": -1.5748290
},
{
  "type": "node",
  "id": 937844267,
  "lat": 50.7979151,
  "lon": -1.4203916
},
{
  "type": "node",
  "id": 937844295,
  "lat": 50.7980018,
  "lon": -1.4203510
},
{
  "type": "node",
  "id": 937844308,
  "lat": 50.7982264,
  "lon": -1.4209090
},
{
  "type": "node",
  "id": 937844337,
  "lat": 50.7982450,
  "lon": -1.4210086
},
{
  "type": "node",
  "id": 937844355,
  "lat": 50.7980477,
  "lon": -1.4211010
},
{
  "type": "node",
  "id": 1397155692,
  "lat": 50.7981158,
  "lon": -1.4209608
},
{
  "type": "node",
  "id": 3661725329,
  "lat": 50.8206442,
  "lon": -1.4515051
},
{
  "type": "node",
  "id": 3661725330,
  "lat": 50.8205782,
  "lon": -1.4514675
},
{
  "type": "node",
  "id": 3661725331,
  "lat": 50.8205053,
  "lon": -1.4518095
},
{
  "type": "node",
  "id": 3661725332,
  "lat": 50.8205765,
  "lon": -1.4518457
},
{
  "type": "node",
  "id": 254379747,
  "lat": 50.8668139,
  "lon": -1.3414355
},
{
  "type": "node",
  "id": 254379748,
  "lat": 50.8666836,
  "lon": -1.3412464
},
{
  "type": "node",
  "id": 254379749,
  "lat": 50.8664774,
  "lon": -1.3417128
},
{
  "type": "node",
  "id": 254379750,
  "lat": 50.8666210,
  "lon": -1.3417692
},
{
  "type": "node",
  "id": 1648448406,
  "lat": 50.8665364,
  "lon": -1.3417935
},
{
  "type": "node",
  "id": 1648448440,
  "lat": 50.8665237,
  "lon": -1.3416282
},
{
  "type": "node",
  "id": 1648448469,
  "lat": 50.8665826,
  "lon": -1.3417135
},
{
  "type": "node",
  "id": 1648448497,
  "lat": 50.8664952,
  "lon": -1.3417352
},
{
  "type": "node",
  "id": 1648448592,
  "lat": 50.8665110,
  "lon": -1.3417576
},
{
  "type": "node",
  "id": 1648448612,
  "lat": 50.8664908,
  "lon": -1.3415753
},
{
  "type": "node",
  "id": 1648686868,
  "lat": 50.8666765,
  "lon": -1.3412586
},
{
  "type": "node",
  "id": 1648686893,
  "lat": 50.8668056,
  "lon": -1.3414499
},
{
  "type": "node",
  "id": 1648686922,
  "lat": 50.8664979,
  "lon": -1.3415627
},
{
  "type": "node",
  "id": 1648686932,
  "lat": 50.8666349,
  "lon": -1.3417452
},
{
  "type": "node",
  "id": 1648708873,
  "lat": 50.8666080,
  "lon": -1.3417504
},
{
  "type": "node",
  "id": 1648709092,
  "lat": 50.8664930,
  "lon": -1.3415788
},
{
  "type": "node",
  "id": 1945678438,
  "lat": 50.8985104,
  "lon": -1.4051974
},
{
  "type": "node",
  "id": 356728012,
  "lat": 50.8978308,
  "lon": -1.3935120
},
{
  "type": "node",
  "id": 356728013,
  "lat": 50.8976715,
  "lon": -1.3933133
},
{
  "type": "node",
  "id": 356728015,
  "lat": 50.8980015,
  "lon": -1.3926483
},
{
  "type": "node",
  "id": 356728016,
  "lat": 50.8981600,
  "lon": -1.3928460
},
{
  "type": "node",
  "id": 4021149762,
  "lat": 50.8979576,
  "lon": -1.3932555
},
{
  "type": "node",
  "id": 4021149763,
  "lat": 50.8979946,
  "lon": -1.3931806
},
{
  "type": "node",
  "id": 4021149764,
  "lat": 50.8980051,
  "lon": -1.3933145
},
{
  "type": "node",
  "id": 4021149765,
  "lat": 50.8980422,
  "lon": -1.3932396
},
{
  "type": "node",
  "id": 1945678440,
  "lat": 50.8985624,
  "lon": -1.4054719
},
{
  "type": "node",
  "id": 1945678441,
  "lat": 50.8985738,
  "lon": -1.4051672
},
{
  "type": "node",
  "id": 1945678444,
  "lat": 50.8986259,
  "lon": -1.4054416
},
{
  "type": "node",
  "id": 1945697842,
  "lat": 50.8993350,
  "lon": -1.4059807
},
{
  "type": "node",
  "id": 1945697843,
  "lat": 50.8993444,
  "lon": -1.4060471
},
{
  "type": "node",
  "id": 1945697845,
  "lat": 50.8993557,
  "lon": -1.4060450
},
{
  "type": "node",
  "id": 1945697846,
  "lat": 50.8993595,
  "lon": -1.4060894
},
{
  "type": "node",
  "id": 1945697847,
  "lat": 50.8993817,
  "lon": -1.4060899
},
{
  "type": "node",
  "id": 1945697848,
  "lat": 50.8993849,
  "lon": -1.4061557
},
{
  "type": "node",
  "id": 1945697849,
  "lat": 50.8994354,
  "lon": -1.4059164
},
{
  "type": "node",
  "id": 1945697850,
  "lat": 50.8994399,
  "lon": -1.4059588
},
{
  "type": "node",
  "id": 1945697851,
  "lat": 50.8994496,
  "lon": -1.4060812
},
{
  "type": "node",
  "id": 1945697852,
  "lat": 50.8994531,
  "lon": -1.4061486
},
{
  "type": "node",
  "id": 1945697853,
  "lat": 50.8994666,
  "lon": -1.4060797
},
{
  "type": "node",
  "id": 1945697854,
  "lat": 50.8994695,
  "lon": -1.4060971
},
{
  "type": "node",
  "id": 1945697855,
  "lat": 50.8994929,
  "lon": -1.4061422
},
{
  "type": "node",
  "id": 1945697856,
  "lat": 50.8994988,
  "lon": -1.4060562
},
{
  "type": "node",
  "id": 1945697857,
  "lat": 50.8995014,
  "lon": -1.4060874
},
{
  "type": "node",
  "id": 1945697858,
  "lat": 50.8995042,
  "lon": -1.4062472
},
{
  "type": "node",
  "id": 1945697859,
  "lat": 50.8995138,
  "lon": -1.4062450
},
{
  "type": "node",
  "id": 1945697860,
  "lat": 50.8995247,
  "lon": -1.4060509
},
{
  "type": "node",
  "id": 1945697861,
  "lat": 50.8995281,
  "lon": -1.4062613
},
{
  "type": "node",
  "id": 1945697862,
  "lat": 50.8995325,
  "lon": -1.4061054
},
{
  "type": "node",
  "id": 1945697863,
  "lat": 50.8995468,
  "lon": -1.4062555
},
{
  "type": "node",
  "id": 1945697864,
  "lat": 50.8995568,
  "lon": -1.4062302
},
{
  "type": "node",
  "id": 1945697865,
  "lat": 50.8995705,
  "lon": -1.4060956
},
{
  "type": "node",
  "id": 1945697866,
  "lat": 50.8995727,
  "lon": -1.4061260
},
{
  "type": "node",
  "id": 1945697867,
  "lat": 50.8995805,
  "lon": -1.4062259
},
{
  "type": "node",
  "id": 1945697868,
  "lat": 50.8995941,
  "lon": -1.4063609
},
{
  "type": "node",
  "id": 1945697869,
  "lat": 50.8995948,
  "lon": -1.4064038
},
{
  "type": "node",
  "id": 1945697870,
  "lat": 50.8995978,
  "lon": -1.4063612
},
{
  "type": "node",
  "id": 1945697871,
  "lat": 50.8996069,
  "lon": -1.4058659
},
{
  "type": "node",
  "id": 1945697872,
  "lat": 50.8996315,
  "lon": -1.4060755
},
{
  "type": "node",
  "id": 1945697873,
  "lat": 50.8996372,
  "lon": -1.4060736
},
{
  "type": "node",
  "id": 1945697874,
  "lat": 50.8996488,
  "lon": -1.4064168
},
{
  "type": "node",
  "id": 1945697875,
  "lat": 50.8996556,
  "lon": -1.4062573
},
{
  "type": "node",
  "id": 1945697876,
  "lat": 50.8996614,
  "lon": -1.4063721
},
{
  "type": "node",
  "id": 1015843574,
  "lat": 50.9079244,
  "lon": -1.4073482
},
{
  "type": "node",
  "id": 1015843645,
  "lat": 50.9076332,
  "lon": -1.4073603
},
{
  "type": "node",
  "id": 2573529802,
  "lat": 50.9084266,
  "lon": -1.4076106
},
{
  "type": "node",
  "id": 2573529803,
  "lat": 50.9086702,
  "lon": -1.4073229
},
{
  "type": "node",
  "id": 2573529804,
  "lat": 50.9083319,
  "lon": -1.4077024
},
{
  "type": "node",
  "id": 2573529808,
  "lat": 50.9084664,
  "lon": -1.4074329
},
{
  "type": "node",
  "id": 2573529809,
  "lat": 50.9076263,
  "lon": -1.4075864
},
{
  "type": "node",
  "id": 2573529810,
  "lat": 50.9087734,
  "lon": -1.4073122
},
{
  "type": "node",
  "id": 2573529818,
  "lat": 50.9076702,
  "lon": -1.4076334
},
{
  "type": "node",
  "id": 2573529820,
  "lat": 50.9076338,
  "lon": -1.4075858
},
{
  "type": "node",
  "id": 2573529823,
  "lat": 50.9086710,
  "lon": -1.4075268
},
{
  "type": "node",
  "id": 2573529825,
  "lat": 50.9081037,
  "lon": -1.4077259
},
{
  "type": "node",
  "id": 2573529826,
  "lat": 50.9076271,
  "lon": -1.4076367
},
{
  "type": "node",
  "id": 2573529830,
  "lat": 50.9076761,
  "lon": -1.4073585
},
{
  "type": "node",
  "id": 2573529831,
  "lat": 50.9079687,
  "lon": -1.4077118
},
{
  "type": "node",
  "id": 2573529833,
  "lat": 50.9084651,
  "lon": -1.4075589
},
{
  "type": "node",
  "id": 2573529844,
  "lat": 50.9086702,
  "lon": -1.4075066
},
{
  "type": "node",
  "id": 2573529845,
  "lat": 50.9085696,
  "lon": -1.4073377
},
{
  "type": "node",
  "id": 2573529849,
  "lat": 50.9085696,
  "lon": -1.4075630
},
{
  "type": "node",
  "id": 2573529850,
  "lat": 50.9084647,
  "lon": -1.4075992
},
{
  "type": "node",
  "id": 2573529851,
  "lat": 50.9081168,
  "lon": -1.4073383
},
{
  "type": "node",
  "id": 2573529852,
  "lat": 50.9085691,
  "lon": -1.4075482
},
{
  "type": "node",
  "id": 2573529854,
  "lat": 50.9081041,
  "lon": -1.4077044
},
{
  "type": "node",
  "id": 2573529855,
  "lat": 50.9083738,
  "lon": -1.4076106
},
{
  "type": "node",
  "id": 2573529867,
  "lat": 50.9077062,
  "lon": -1.4076447
},
{
  "type": "node",
  "id": 2573529869,
  "lat": 50.9087742,
  "lon": -1.4074879
},
{
  "type": "node",
  "id": 2573529873,
  "lat": 50.9085696,
  "lon": -1.4073229
},
{
  "type": "node",
  "id": 2573529875,
  "lat": 50.9077036,
  "lon": -1.4073574
},
{
  "type": "node",
  "id": 2573529876,
  "lat": 50.9077019,
  "lon": -1.4072434
},
{
  "type": "node",
  "id": 2573529878,
  "lat": 50.9084258,
  "lon": -1.4075616
},
{
  "type": "node",
  "id": 2573529879,
  "lat": 50.9076326,
  "lon": -1.4073799
},
{
  "type": "node",
  "id": 2573529880,
  "lat": 50.9084241,
  "lon": -1.4074342
},
{
  "type": "node",
  "id": 2573529882,
  "lat": 50.9083438,
  "lon": -1.4076816
},
{
  "type": "node",
  "id": 2573529883,
  "lat": 50.9082618,
  "lon": -1.4073357
},
{
  "type": "node",
  "id": 2573529885,
  "lat": 50.9081141,
  "lon": -1.4071586
},
{
  "type": "node",
  "id": 2573529886,
  "lat": 50.9076735,
  "lon": -1.4072443
},
{
  "type": "node",
  "id": 2573529887,
  "lat": 50.9084224,
  "lon": -1.4073310
},
{
  "type": "node",
  "id": 2573529889,
  "lat": 50.9083738,
  "lon": -1.4076240
},
{
  "type": "node",
  "id": 2573529892,
  "lat": 50.9084651,
  "lon": -1.4073403
},
{
  "type": "node",
  "id": 2573529893,
  "lat": 50.9076703,
  "lon": -1.4076474
},
{
  "type": "node",
  "id": 2573529900,
  "lat": 50.9079223,
  "lon": -1.4071667
},
{
  "type": "node",
  "id": 2573529903,
  "lat": 50.9077066,
  "lon": -1.4076930
},
{
  "type": "node",
  "id": 2573529910,
  "lat": 50.9083434,
  "lon": -1.4076266
},
{
  "type": "node",
  "id": 2573529915,
  "lat": 50.9079692,
  "lon": -1.4077312
},
{
  "type": "node",
  "id": 2573529932,
  "lat": 50.9086706,
  "lon": -1.4073108
},
{
  "type": "node",
  "id": 2573529934,
  "lat": 50.9077252,
  "lon": -1.4077145
},
{
  "type": "node",
  "id": 2573542324,
  "lat": 50.9080380,
  "lon": -1.4077285
},
{
  "type": "node",
  "id": 2576496356,
  "lat": 50.9076894,
  "lon": -1.4076460
},
{
  "type": "node",
  "id": 322987733,
  "lat": 50.8853087,
  "lon": -1.2905032
},
{
  "type": "node",
  "id": 4311943750,
  "lat": 50.8854055,
  "lon": -1.2904165
},
{
  "type": "node",
  "id": 4311943751,
  "lat": 50.8853654,
  "lon": -1.2903043
},
{
  "type": "node",
  "id": 4311943753,
  "lat": 50.8854230,
  "lon": -1.2901445
},
{
  "type": "node",
  "id": 322987729,
  "lat": 50.8857843,
  "lon": -1.2911947
},
{
  "type": "node",
  "id": 322987725,
  "lat": 50.8858642,
  "lon": -1.2898863
},
{
  "type": "node",
  "id": 322987727,
  "lat": 50.8858267,
  "lon": -1.2905346
},
{
  "type": "node",
  "id": 322987728,
  "lat": 50.8860155,
  "lon": -1.2909874
},
{
  "type": "node",
  "id": 322987730,
  "lat": 50.8856197,
  "lon": -1.2907335
},
{
  "type": "node",
  "id": 322987732,
  "lat": 50.8854463,
  "lon": -1.2908889
},
{
  "type": "node",
  "id": 4311943743,
  "lat": 50.8858792,
  "lon": -1.2899282
},
{
  "type": "node",
  "id": 4311943744,
  "lat": 50.8858966,
  "lon": -1.2899126
},
{
  "type": "node",
  "id": 4311943745,
  "lat": 50.8860485,
  "lon": -1.2903333
},
{
  "type": "node",
  "id": 4311943746,
  "lat": 50.8858558,
  "lon": -1.2906152
},
{
  "type": "node",
  "id": 4311943747,
  "lat": 50.8858663,
  "lon": -1.2906057
},
{
  "type": "node",
  "id": 4311943748,
  "lat": 50.8858872,
  "lon": -1.2906638
},
{
  "type": "node",
  "id": 4311943749,
  "lat": 50.8858968,
  "lon": -1.2906551
},
{
  "type": "node",
  "id": 4311943752,
  "lat": 50.8854522,
  "lon": -1.2902265
},
{
  "type": "node",
  "id": 4311943754,
  "lat": 50.8854459,
  "lon": -1.2901239
},
{
  "type": "node",
  "id": 4311943755,
  "lat": 50.8854676,
  "lon": -1.2901847
},
{
  "type": "node",
  "id": 4311943756,
  "lat": 50.8856041,
  "lon": -1.2900625
},
{
  "type": "node",
  "id": 4311943757,
  "lat": 50.8856194,
  "lon": -1.2901054
},
{
  "type": "node",
  "id": 2199852387,
  "lat": 50.9275940,
  "lon": -1.3378244
},
{
  "type": "node",
  "id": 2199852388,
  "lat": 50.9277306,
  "lon": -1.3379248
},
{
  "type": "node",
  "id": 2199852390,
  "lat": 50.9275162,
  "lon": -1.3382509
},
{
  "type": "node",
  "id": 2199852393,
  "lat": 50.9274398,
  "lon": -1.3379797
},
{
  "type": "node",
  "id": 2199852394,
  "lat": 50.9275939,
  "lon": -1.3381120
},
{
  "type": "node",
  "id": 2199852395,
  "lat": 50.9274432,
  "lon": -1.3380307
},
{
  "type": "node",
  "id": 2199852396,
  "lat": 50.9277077,
  "lon": -1.3378362
},
{
  "type": "node",
  "id": 2199852397,
  "lat": 50.9274525,
  "lon": -1.3379408
},
{
  "type": "node",
  "id": 2199852398,
  "lat": 50.9276472,
  "lon": -1.3378003
},
{
  "type": "node",
  "id": 2064756793,
  "lat": 50.9915685,
  "lon": -1.4908129
},
{
  "type": "node",
  "id": 2064756794,
  "lat": 50.9917445,
  "lon": -1.4907789
},
{
  "type": "node",
  "id": 2064756795,
  "lat": 50.9916805,
  "lon": -1.4913761
},
{
  "type": "node",
  "id": 2064756796,
  "lat": 50.9918913,
  "lon": -1.4913647
},
{
  "type": "node",
  "id": 6838276135,
  "lat": 50.9916413,
  "lon": -1.4911779
},
{
  "type": "node",
  "id": 6838276138,
  "lat": 50.9916126,
  "lon": -1.4910347
},
{
  "type": "node",
  "id": 1369702618,
  "lat": 51.1500700,
  "lon": -1.5730951
},
{
  "type": "node",
  "id": 1369702622,
  "lat": 51.1502517,
  "lon": -1.5729125
},
{
  "type": "node",
  "id": 1369702613,
  "lat": 51.1498727,
  "lon": -1.5725962
},
{
  "type": "node",
  "id": 1369702615,
  "lat": 51.1508337,
  "lon": -1.5721563
},
{
  "type": "node",
  "id": 1369702621,
  "lat": 51.1502033,
  "lon": -1.5727900
},
{
  "type": "node",
  "id": 1369702623,
  "lat": 51.1501840,
  "lon": -1.5722834
},
{
  "type": "node",
  "id": 1369702624,
  "lat": 51.1504028,
  "lon": -1.5719315
},
{
  "type": "node",
  "id": 1369702625,
  "lat": 51.1501467,
  "lon": -1.5721889
},
{
  "type": "node",
  "id": 1369702628,
  "lat": 51.1506223,
  "lon": -1.5716217
},
{
  "type": "node",
  "id": 1369702629,
  "lat": 51.1504409,
  "lon": -1.5720279
},
{
  "type": "node",
  "id": 5450318980,
  "lat": 51.1504824,
  "lon": -1.5717624
},
{
  "type": "node",
  "id": 5450318981,
  "lat": 51.1505457,
  "lon": -1.5719225
},
{
  "type": "node",
  "id": 1179558070,
  "lat": 51.0622707,
  "lon": -1.3200069
},
{
  "type": "node",
  "id": 1179558099,
  "lat": 51.0623205,
  "lon": -1.3200711
},
{
  "type": "node",
  "id": 1179558100,
  "lat": 51.0617819,
  "lon": -1.3182527
},
{
  "type": "node",
  "id": 1179558118,
  "lat": 51.0622877,
  "lon": -1.3200884
},
{
  "type": "node",
  "id": 1179558144,
  "lat": 51.0615977,
  "lon": -1.3183555
},
{
  "type": "node",
  "id": 1179558165,
  "lat": 51.0618205,
  "lon": -1.3184280
},
{
  "type": "node",
  "id": 1179558176,
  "lat": 51.0616372,
  "lon": -1.3185336
},
{
  "type": "node",
  "id": 1719479129,
  "lat": 51.0618186,
  "lon": -1.3184291
},
{
  "type": "node",
  "id": 1719479131,
  "lat": 51.0616718,
  "lon": -1.3183142
},
{
  "type": "node",
  "id": 706635107,
  "lat": 51.0620518,
  "lon": -1.3150502
},
{
  "type": "node",
  "id": 2317372199,
  "lat": 51.0620041,
  "lon": -1.3150718
},
{
  "type": "node",
  "id": 2317372205,
  "lat": 51.0620061,
  "lon": -1.3148094
},
{
  "type": "node",
  "id": 2317372229,
  "lat": 51.0620554,
  "lon": -1.3150360
},
{
  "type": "node",
  "id": 2317372240,
  "lat": 51.0619105,
  "lon": -1.3148609
},
{
  "type": "node",
  "id": 2317372241,
  "lat": 51.0619646,
  "lon": -1.3150898
},
{
  "type": "node",
  "id": 2317372251,
  "lat": 51.0619503,
  "lon": -1.3150784
},
{
  "type": "node",
  "id": 2317443934,
  "lat": 51.0619765,
  "lon": -1.3148280
},
{
  "type": "node",
  "id": 452445304,
  "lat": 51.0631546,
  "lon": -1.3211607
},
{
  "type": "node",
  "id": 1179558059,
  "lat": 51.0624830,
  "lon": -1.3203916
},
{
  "type": "node",
  "id": 1179558063,
  "lat": 51.0634029,
  "lon": -1.3210980
},
{
  "type": "node",
  "id": 1179558072,
  "lat": 51.0624773,
  "lon": -1.3202108
},
{
  "type": "node",
  "id": 1179558077,
  "lat": 51.0627868,
  "lon": -1.3212937
},
{
  "type": "node",
  "id": 1179558078,
  "lat": 51.0624161,
  "lon": -1.3199302
},
{
  "type": "node",
  "id": 1179558081,
  "lat": 51.0633009,
  "lon": -1.3211931
},
{
  "type": "node",
  "id": 1179558087,
  "lat": 51.0623999,
  "lon": -1.3200410
},
{
  "type": "node",
  "id": 1179558088,
  "lat": 51.0631357,
  "lon": -1.3210041
},
{
  "type": "node",
  "id": 1179558095,
  "lat": 51.0624395,
  "lon": -1.3202308
},
{
  "type": "node",
  "id": 1179558110,
  "lat": 51.0633911,
  "lon": -1.3209652
},
{
  "type": "node",
  "id": 1179558115,
  "lat": 51.0632958,
  "lon": -1.3212106
},
{
  "type": "node",
  "id": 1179558129,
  "lat": 51.0633734,
  "lon": -1.3210846
},
{
  "type": "node",
  "id": 1179558139,
  "lat": 51.0632208,
  "lon": -1.3211851
},
{
  "type": "node",
  "id": 1179558147,
  "lat": 51.0631939,
  "lon": -1.3210309
},
{
  "type": "node",
  "id": 1179558152,
  "lat": 51.0624301,
  "lon": -1.3205968
},
{
  "type": "node",
  "id": 1179558163,
  "lat": 51.0625118,
  "lon": -1.3203764
},
{
  "type": "node",
  "id": 1179558170,
  "lat": 51.0624353,
  "lon": -1.3200223
},
{
  "type": "node",
  "id": 1179558174,
  "lat": 51.0627632,
  "lon": -1.3211408
},
{
  "type": "node",
  "id": 1179558181,
  "lat": 51.0624027,
  "lon": -1.3206113
},
{
  "type": "node",
  "id": 1179558184,
  "lat": 51.0625177,
  "lon": -1.3205581
},
{
  "type": "node",
  "id": 1179558193,
  "lat": 51.0633329,
  "lon": -1.3212012
},
{
  "type": "node",
  "id": 1179558194,
  "lat": 51.0624309,
  "lon": -1.3207468
},
{
  "type": "node",
  "id": 1179558197,
  "lat": 51.0632141,
  "lon": -1.3208968
},
{
  "type": "node",
  "id": 1179558208,
  "lat": 51.0633911,
  "lon": -1.3211743
},
{
  "type": "node",
  "id": 1179558215,
  "lat": 51.0625838,
  "lon": -1.3206661
},
{
  "type": "node",
  "id": 1179558219,
  "lat": 51.0625569,
  "lon": -1.3205374
},
{
  "type": "node",
  "id": 3775705103,
  "lat": 51.0610645,
  "lon": -1.3074077
},
{
  "type": "node",
  "id": 3775705108,
  "lat": 51.0610936,
  "lon": -1.3078919
},
{
  "type": "node",
  "id": 3775705110,
  "lat": 51.0611001,
  "lon": -1.3079678
},
{
  "type": "node",
  "id": 3775705120,
  "lat": 51.0611306,
  "lon": -1.3079613
},
{
  "type": "node",
  "id": 3775705123,
  "lat": 51.0611372,
  "lon": -1.3080391
},
{
  "type": "node",
  "id": 3775705127,
  "lat": 51.0611176,
  "lon": -1.3074005
},
{
  "type": "node",
  "id": 3775705130,
  "lat": 51.0611699,
  "lon": -1.3078801
},
{
  "type": "node",
  "id": 3775705134,
  "lat": 51.0612034,
  "lon": -1.3078733
},
{
  "type": "node",
  "id": 3775705137,
  "lat": 51.0612160,
  "lon": -1.3080222
},
{
  "type": "node",
  "id": 5170934731,
  "lat": 51.0611632,
  "lon": -1.3077650
},
{
  "type": "node",
  "id": 5170934732,
  "lat": 51.0611382,
  "lon": -1.3077651
},
{
  "type": "node",
  "id": 5170934734,
  "lat": 51.0611260,
  "lon": -1.3075497
},
{
  "type": "node",
  "id": 5170958233,
  "lat": 51.0610835,
  "lon": -1.3077240
},
{
  "type": "node",
  "id": 5170958238,
  "lat": 51.0610788,
  "lon": -1.3076464
},
{
  "type": "node",
  "id": 5170958243,
  "lat": 51.0610712,
  "lon": -1.3075199
},
{
  "type": "node",
  "id": 3100642087,
  "lat": 50.8084808,
  "lon": -1.2101958
},
{
  "type": "node",
  "id": 3100645643,
  "lat": 50.8078587,
  "lon": -1.2106517
},
{
  "type": "node",
  "id": 3100645648,
  "lat": 50.8082622,
  "lon": -1.2105096
},
{
  "type": "node",
  "id": 3100645654,
  "lat": 50.8076520,
  "lon": -1.2102387
},
{
  "type": "node",
  "id": 3100645693,
  "lat": 50.8082978,
  "lon": -1.2105042
},
{
  "type": "node",
  "id": 3100645714,
  "lat": 50.8075416,
  "lon": -1.2099619
},
{
  "type": "node",
  "id": 3100645723,
  "lat": 50.8077815,
  "lon": -1.2105364
},
{
  "type": "node",
  "id": 3100645751,
  "lat": 50.8074859,
  "lon": -1.2098846
},
{
  "type": "node",
  "id": 3100645752,
  "lat": 50.8080836,
  "lon": -1.2102709
},
{
  "type": "node",
  "id": 3100645757,
  "lat": 50.8085944,
  "lon": -1.2101984
},
{
  "type": "node",
  "id": 3100645758,
  "lat": 50.8074029,
  "lon": -1.2097827
},
{
  "type": "node",
  "id": 3100645779,
  "lat": 50.8075593,
  "lon": -1.2100061
},
{
  "type": "node",
  "id": 3100645780,
  "lat": 50.8072723,
  "lon": -1.2096352
},
{
  "type": "node",
  "id": 3101594259,
  "lat": 50.8083390,
  "lon": -1.2094723
},
{
  "type": "node",
  "id": 3101594397,
  "lat": 50.8080312,
  "lon": -1.2091208
},
{
  "type": "node",
  "id": 3101608934,
  "lat": 50.8085334,
  "lon": -1.2099436
},
{
  "type": "node",
  "id": 3101608939,
  "lat": 50.8086000,
  "lon": -1.2101932
},
{
  "type": "node",
  "id": 3101608940,
  "lat": 50.8084452,
  "lon": -1.2096298
},
{
  "type": "node",
  "id": 3101608942,
  "lat": 50.8086199,
  "lon": -1.2101147
},
{
  "type": "node",
  "id": 3101608943,
  "lat": 50.8086011,
  "lon": -1.2101140
},
{
  "type": "node",
  "id": 3101608946,
  "lat": 50.8085961,
  "lon": -1.2100563
},
{
  "type": "node",
  "id": 4081728712,
  "lat": 50.8074545,
  "lon": -1.2092159
},
{
  "type": "node",
  "id": 4081728898,
  "lat": 50.8076281,
  "lon": -1.2091551
},
{
  "type": "node",
  "id": 4081728902,
  "lat": 50.8077832,
  "lon": -1.2088271
},
{
  "type": "node",
  "id": 3100558824,
  "lat": 50.7865634,
  "lon": -1.1694110
},
{
  "type": "node",
  "id": 3100560758,
  "lat": 50.7865278,
  "lon": -1.1684857
},
{
  "type": "node",
  "id": 3100645681,
  "lat": 50.7868384,
  "lon": -1.1690024
},
{
  "type": "node",
  "id": 3100645692,
  "lat": 50.7868229,
  "lon": -1.1690371
},
{
  "type": "node",
  "id": 3100645705,
  "lat": 50.7867414,
  "lon": -1.1683220
},
{
  "type": "node",
  "id": 3100645707,
  "lat": 50.7869079,
  "lon": -1.1681924
},
{
  "type": "node",
  "id": 3100645727,
  "lat": 50.7868468,
  "lon": -1.1691150
},
{
  "type": "node",
  "id": 3938139654,
  "lat": 50.7867542,
  "lon": -1.1685956
},
{
  "type": "node",
  "id": 3938144757,
  "lat": 50.7869256,
  "lon": -1.1684370
},
{
  "type": "node",
  "id": 3938144758,
  "lat": 50.7869856,
  "lon": -1.1682564
},
{
  "type": "node",
  "id": 4634807284,
  "lat": 50.7866848,
  "lon": -1.1683618
},
{
  "type": "node",
  "id": 251559300,
  "lat": 50.8132075,
  "lon": -1.1557400
},
{
  "type": "node",
  "id": 251559316,
  "lat": 50.8133302,
  "lon": -1.1551877
},
{
  "type": "node",
  "id": 1587179115,
  "lat": 50.8131114,
  "lon": -1.1555843
},
{
  "type": "node",
  "id": 1587179118,
  "lat": 50.8131571,
  "lon": -1.1554440
},
{
  "type": "node",
  "id": 2468692107,
  "lat": 50.8131293,
  "lon": -1.1556258
},
{
  "type": "node",
  "id": 4828666962,
  "lat": 50.8131099,
  "lon": -1.1555526
},
{
  "type": "node",
  "id": 4828666963,
  "lat": 50.8131143,
  "lon": -1.1555228
},
{
  "type": "node",
  "id": 4828666964,
  "lat": 50.8131232,
  "lon": -1.1554986
},
{
  "type": "node",
  "id": 4828666965,
  "lat": 50.8131350,
  "lon": -1.1554771
},
{
  "type": "node",
  "id": 251559302,
  "lat": 50.8153498,
  "lon": -1.1564775
},
{
  "type": "node",
  "id": 251559303,
  "lat": 50.8165681,
  "lon": -1.1552427
},
{
  "type": "node",
  "id": 251559313,
  "lat": 50.8142335,
  "lon": -1.1535590
},
{
  "type": "node",
  "id": 251559314,
  "lat": 50.8142131,
  "lon": -1.1537157
},
{
  "type": "node",
  "id": 251559315,
  "lat": 50.8141887,
  "lon": -1.1538799
},
{
  "type": "node",
  "id": 2468691970,
  "lat": 50.8155600,
  "lon": -1.1562104
},
{
  "type": "node",
  "id": 2468691976,
  "lat": 50.8149453,
  "lon": -1.1567064
},
{
  "type": "node",
  "id": 2468691979,
  "lat": 50.8141804,
  "lon": -1.1539028
},
{
  "type": "node",
  "id": 2468691982,
  "lat": 50.8141321,
  "lon": -1.1570878
},
{
  "type": "node",
  "id": 2468691991,
  "lat": 50.8165499,
  "lon": -1.1544990
},
{
  "type": "node",
  "id": 2468691998,
  "lat": 50.8165422,
  "lon": -1.1543853
},
{
  "type": "node",
  "id": 2468692004,
  "lat": 50.8151918,
  "lon": -1.1564038
},
{
  "type": "node",
  "id": 2468692008,
  "lat": 50.8148670,
  "lon": -1.1567480
},
{
  "type": "node",
  "id": 2468692027,
  "lat": 50.8145807,
  "lon": -1.1568955
},
{
  "type": "node",
  "id": 2468692028,
  "lat": 50.8165274,
  "lon": -1.1537854
},
{
  "type": "node",
  "id": 2468692030,
  "lat": 50.8165254,
  "lon": -1.1553733
},
{
  "type": "node",
  "id": 2468692031,
  "lat": 50.8148029,
  "lon": -1.1567976
},
{
  "type": "node",
  "id": 2468692038,
  "lat": 50.8165252,
  "lon": -1.1537133
},
{
  "type": "node",
  "id": 2468692046,
  "lat": 50.8165504,
  "lon": -1.1546713
},
{
  "type": "node",
  "id": 2468692047,
  "lat": 50.8162119,
  "lon": -1.1556850
},
{
  "type": "node",
  "id": 2468692056,
  "lat": 50.8165444,
  "lon": -1.1546308
},
{
  "type": "node",
  "id": 2468692058,
  "lat": 50.8137269,
  "lon": -1.1545901
},
{
  "type": "node",
  "id": 2468692060,
  "lat": 50.8162895,
  "lon": -1.1556064
},
{
  "type": "node",
  "id": 2468692062,
  "lat": 50.8150477,
  "lon": -1.1565975
},
{
  "type": "node",
  "id": 2468692076,
  "lat": 50.8163101,
  "lon": -1.1555937
},
{
  "type": "node",
  "id": 2468692088,
  "lat": 50.8165616,
  "lon": -1.1553186
},
{
  "type": "node",
  "id": 2468692090,
  "lat": 50.8146516,
  "lon": -1.1568657
},
{
  "type": "node",
  "id": 2468692099,
  "lat": 50.8141728,
  "lon": -1.1570999
},
{
  "type": "node",
  "id": 2468692104,
  "lat": 50.8135525,
  "lon": -1.1548440
},
{
  "type": "node",
  "id": 2468692108,
  "lat": 50.8146756,
  "lon": -1.1568322
},
{
  "type": "node",
  "id": 2468692112,
  "lat": 50.8149934,
  "lon": -1.1566345
},
{
  "type": "node",
  "id": 2468692116,
  "lat": 50.8142115,
  "lon": -1.1570840
},
{
  "type": "node",
  "id": 2468692125,
  "lat": 50.8152892,
  "lon": -1.1564786
},
{
  "type": "node",
  "id": 2468692134,
  "lat": 50.8165422,
  "lon": -1.1543408
},
{
  "type": "node",
  "id": 2468692158,
  "lat": 50.8161946,
  "lon": -1.1557120
},
{
  "type": "node",
  "id": 2468692243,
  "lat": 50.8162375,
  "lon": -1.1556680
},
{
  "type": "node",
  "id": 2468692264,
  "lat": 50.8165434,
  "lon": -1.1542926
},
{
  "type": "node",
  "id": 2468692266,
  "lat": 50.8165659,
  "lon": -1.1551494
},
{
  "type": "node",
  "id": 2468692268,
  "lat": 50.8155794,
  "lon": -1.1561296
},
{
  "type": "node",
  "id": 2468692283,
  "lat": 50.8148328,
  "lon": -1.1567588
},
{
  "type": "node",
  "id": 2468692287,
  "lat": 50.8145124,
  "lon": -1.1569325
},
{
  "type": "node",
  "id": 2468692299,
  "lat": 50.8143152,
  "lon": -1.1570004
},
{
  "type": "node",
  "id": 2468692304,
  "lat": 50.8155133,
  "lon": -1.1563491
},
{
  "type": "node",
  "id": 2468692311,
  "lat": 50.8156658,
  "lon": -1.1560755
},
{
  "type": "node",
  "id": 2468692319,
  "lat": 50.8154488,
  "lon": -1.1564328
},
{
  "type": "node",
  "id": 2468692322,
  "lat": 50.8145429,
  "lon": -1.1568941
},
{
  "type": "node",
  "id": 2468692333,
  "lat": 50.8147139,
  "lon": -1.1568335
},
{
  "type": "node",
  "id": 2468692335,
  "lat": 50.8152366,
  "lon": -1.1564489
},
{
  "type": "node",
  "id": 2468692342,
  "lat": 50.8165200,
  "lon": -1.1537460
},
{
  "type": "node",
  "id": 2468692365,
  "lat": 50.8158987,
  "lon": -1.1559945
},
{
  "type": "node",
  "id": 4827187803,
  "lat": 50.8153781,
  "lon": -1.1564711
},
{
  "type": "node",
  "id": 4827187804,
  "lat": 50.8164111,
  "lon": -1.1554903
},
{
  "type": "node",
  "id": 4827188367,
  "lat": 50.8164772,
  "lon": -1.1554226
},
{
  "type": "node",
  "id": 4827188394,
  "lat": 50.8155366,
  "lon": -1.1562960
},
{
  "type": "node",
  "id": 4827188395,
  "lat": 50.8155522,
  "lon": -1.1562491
},
{
  "type": "node",
  "id": 4827188396,
  "lat": 50.8155691,
  "lon": -1.1561639
},
{
  "type": "node",
  "id": 4827188397,
  "lat": 50.8155944,
  "lon": -1.1561087
},
{
  "type": "node",
  "id": 4827188398,
  "lat": 50.8156172,
  "lon": -1.1560921
},
{
  "type": "node",
  "id": 4827188399,
  "lat": 50.8154952,
  "lon": -1.1563849
},
{
  "type": "node",
  "id": 4827188400,
  "lat": 50.8154720,
  "lon": -1.1564139
},
{
  "type": "node",
  "id": 4827188401,
  "lat": 50.8154186,
  "lon": -1.1564540
},
{
  "type": "node",
  "id": 4828665870,
  "lat": 50.8141015,
  "lon": -1.1570519
},
{
  "type": "node",
  "id": 4828665871,
  "lat": 50.8135236,
  "lon": -1.1562256
},
{
  "type": "node",
  "id": 4828666966,
  "lat": 50.8140619,
  "lon": -1.1569962
},
{
  "type": "node",
  "id": 4828667032,
  "lat": 50.8165484,
  "lon": -1.1545598
},
{
  "type": "node",
  "id": 4828667033,
  "lat": 50.8165432,
  "lon": -1.1546024
},
{
  "type": "node",
  "id": 4828667034,
  "lat": 50.8165545,
  "lon": -1.1547136
},
{
  "type": "node",
  "id": 4828667035,
  "lat": 50.8165502,
  "lon": -1.1553442
},
{
  "type": "node",
  "id": 4828667036,
  "lat": 50.8165660,
  "lon": -1.1552913
},
{
  "type": "node",
  "id": 4828738175,
  "lat": 50.8142500,
  "lon": -1.1534863
},
{
  "type": "node",
  "id": 4828738178,
  "lat": 50.8141996,
  "lon": -1.1538283
},
{
  "type": "node",
  "id": 366137727,
  "lat": 50.8519955,
  "lon": -1.1799927
},
{
  "type": "node",
  "id": 1406045972,
  "lat": 50.8523350,
  "lon": -1.1804903
},
{
  "type": "node",
  "id": 1406077669,
  "lat": 50.8525017,
  "lon": -1.1798985
},
{
  "type": "node",
  "id": 2266060471,
  "lat": 50.8519954,
  "lon": -1.1796955
},
{
  "type": "node",
  "id": 2266060473,
  "lat": 50.8520687,
  "lon": -1.1801417
},
{
  "type": "node",
  "id": 2266060475,
  "lat": 50.8520972,
  "lon": -1.1802597
},
{
  "type": "node",
  "id": 2266060477,
  "lat": 50.8521387,
  "lon": -1.1803778
},
{
  "type": "node",
  "id": 2266060479,
  "lat": 50.8521588,
  "lon": -1.1798050
},
{
  "type": "node",
  "id": 2266060481,
  "lat": 50.8521985,
  "lon": -1.1804576
},
{
  "type": "node",
  "id": 2266060482,
  "lat": 50.8523392,
  "lon": -1.1798717
},
{
  "type": "node",
  "id": 2266060484,
  "lat": 50.8524694,
  "lon": -1.1804966
},
{
  "type": "node",
  "id": 1673553785,
  "lat": 50.7871001,
  "lon": -1.1214958
},
{
  "type": "node",
  "id": 4817822674,
  "lat": 50.7871232,
  "lon": -1.1215279
},
{
  "type": "node",
  "id": 1673553748,
  "lat": 50.7881564,
  "lon": -1.1227385
},
{
  "type": "node",
  "id": 1673553767,
  "lat": 50.7875887,
  "lon": -1.1220793
},
{
  "type": "node",
  "id": 1673553781,
  "lat": 50.7873301,
  "lon": -1.1214859
},
{
  "type": "node",
  "id": 2305979402,
  "lat": 50.7879256,
  "lon": -1.1232583
},
{
  "type": "node",
  "id": 2305979406,
  "lat": 50.7871705,
  "lon": -1.1228810
},
{
  "type": "node",
  "id": 2305979409,
  "lat": 50.7877093,
  "lon": -1.1230265
},
{
  "type": "node",
  "id": 2305979411,
  "lat": 50.7874575,
  "lon": -1.1233189
},
{
  "type": "node",
  "id": 2305979413,
  "lat": 50.7875396,
  "lon": -1.1221946
},
{
  "type": "node",
  "id": 2305979425,
  "lat": 50.7880991,
  "lon": -1.1229630
},
{
  "type": "node",
  "id": 4081765217,
  "lat": 50.7876572,
  "lon": -1.1219816
},
{
  "type": "node",
  "id": 4081765218,
  "lat": 50.7880906,
  "lon": -1.1228429
},
{
  "type": "node",
  "id": 4081765223,
  "lat": 50.7873076,
  "lon": -1.1217846
},
{
  "type": "node",
  "id": 4081765244,
  "lat": 50.7873538,
  "lon": -1.1217051
},
{
  "type": "node",
  "id": 4081765247,
  "lat": 50.7873476,
  "lon": -1.1213601
},
{
  "type": "node",
  "id": 4081765256,
  "lat": 50.7877084,
  "lon": -1.1207407
},
{
  "type": "node",
  "id": 4865378556,
  "lat": 50.7872032,
  "lon": -1.1228263
},
{
  "type": "node",
  "id": 4865378557,
  "lat": 50.7871809,
  "lon": -1.1227918
},
{
  "type": "node",
  "id": 4865378558,
  "lat": 50.7872481,
  "lon": -1.1226828
},
{
  "type": "node",
  "id": 4865378564,
  "lat": 50.7873237,
  "lon": -1.1225562
},
{
  "type": "node",
  "id": 4865381950,
  "lat": 50.7878277,
  "lon": -1.1232132
},
{
  "type": "node",
  "id": 4865381982,
  "lat": 50.7876760,
  "lon": -1.1229746
},
{
  "type": "node",
  "id": 4865381984,
  "lat": 50.7878599,
  "lon": -1.1231614
},
{
  "type": "node",
  "id": 4865387856,
  "lat": 50.7873114,
  "lon": -1.1217750
},
{
  "type": "node",
  "id": 4865387884,
  "lat": 50.7874218,
  "lon": -1.1223876
},
{
  "type": "node",
  "id": 4865387889,
  "lat": 50.7875864,
  "lon": -1.1221182
},
{
  "type": "node",
  "id": 1383004792,
  "lat": 50.7882431,
  "lon": -1.1201726
},
{
  "type": "node",
  "id": 1383004797,
  "lat": 50.7884011,
  "lon": -1.1193332
},
{
  "type": "node",
  "id": 1383004812,
  "lat": 50.7886575,
  "lon": -1.1189141
},
{
  "type": "node",
  "id": 1383004816,
  "lat": 50.7886342,
  "lon": -1.1196011
},
{
  "type": "node",
  "id": 1383004818,
  "lat": 50.7886547,
  "lon": -1.1192056
},
{
  "type": "node",
  "id": 1673553740,
  "lat": 50.7878649,
  "lon": -1.1204648
},
{
  "type": "node",
  "id": 1673553746,
  "lat": 50.7884680,
  "lon": -1.1198979
},
{
  "type": "node",
  "id": 1673553761,
  "lat": 50.7887170,
  "lon": -1.1191178
},
{
  "type": "node",
  "id": 1673553771,
  "lat": 50.7881859,
  "lon": -1.1191456
},
{
  "type": "node",
  "id": 1673553774,
  "lat": 50.7879391,
  "lon": -1.1203274
},
{
  "type": "node",
  "id": 1673553776,
  "lat": 50.7879323,
  "lon": -1.1203194
},
{
  "type": "node",
  "id": 1673553783,
  "lat": 50.7880404,
  "lon": -1.1196073
},
{
  "type": "node",
  "id": 4081765209,
  "lat": 50.7880468,
  "lon": -1.1201214
},
{
  "type": "node",
  "id": 4081765210,
  "lat": 50.7882908,
  "lon": -1.1190511
},
{
  "type": "node",
  "id": 4081765212,
  "lat": 50.7877830,
  "lon": -1.1206007
},
{
  "type": "node",
  "id": 4081765214,
  "lat": 50.7880542,
  "lon": -1.1201313
},
{
  "type": "node",
  "id": 4081765215,
  "lat": 50.7887134,
  "lon": -1.1193913
},
{
  "type": "node",
  "id": 4081765216,
  "lat": 50.7878412,
  "lon": -1.1205902
},
{
  "type": "node",
  "id": 4081765220,
  "lat": 50.7886758,
  "lon": -1.1192188
},
{
  "type": "node",
  "id": 4081765221,
  "lat": 50.7879832,
  "lon": -1.1194848
},
{
  "type": "node",
  "id": 4081765228,
  "lat": 50.7887265,
  "lon": -1.1192148
},
{
  "type": "node",
  "id": 4081765230,
  "lat": 50.7881845,
  "lon": -1.1200299
},
{
  "type": "node",
  "id": 4081765231,
  "lat": 50.7880540,
  "lon": -1.1195829
},
{
  "type": "node",
  "id": 4081765232,
  "lat": 50.7878906,
  "lon": -1.1203967
},
{
  "type": "node",
  "id": 4081765233,
  "lat": 50.7887488,
  "lon": -1.1193510
},
{
  "type": "node",
  "id": 4081765246,
  "lat": 50.7885210,
  "lon": -1.1193753
},
{
  "type": "node",
  "id": 4081765249,
  "lat": 50.7887024,
  "lon": -1.1192090
},
{
  "type": "node",
  "id": 4081765250,
  "lat": 50.7880904,
  "lon": -1.1197885
},
{
  "type": "node",
  "id": 4081765251,
  "lat": 50.7884878,
  "lon": -1.1193218
},
{
  "type": "node",
  "id": 4081765253,
  "lat": 50.7880477,
  "lon": -1.1197334
},
{
  "type": "node",
  "id": 4081765254,
  "lat": 50.7887559,
  "lon": -1.1192690
},
{
  "type": "node",
  "id": 4081765257,
  "lat": 50.7881387,
  "lon": -1.1199688
},
{
  "type": "node",
  "id": 4081765262,
  "lat": 50.7877664,
  "lon": -1.1203442
},
{
  "type": "node",
  "id": 4081765266,
  "lat": 50.7887585,
  "lon": -1.1193096
},
{
  "type": "node",
  "id": 4081765274,
  "lat": 50.7885985,
  "lon": -1.1191307
},
{
  "type": "node",
  "id": 4081765275,
  "lat": 50.7878337,
  "lon": -1.1202126
},
{
  "type": "node",
  "id": 4081765276,
  "lat": 50.7887454,
  "lon": -1.1192356
},
{
  "type": "node",
  "id": 4817822672,
  "lat": 50.7876190,
  "lon": -1.1205990
},
{
  "type": "node",
  "id": 4865344890,
  "lat": 50.7880215,
  "lon": -1.1194243
},
{
  "type": "node",
  "id": 4865344891,
  "lat": 50.7880471,
  "lon": -1.1193822
},
{
  "type": "node",
  "id": 4874366065,
  "lat": 50.7886020,
  "lon": -1.1190049
},
{
  "type": "node",
  "id": 4874366094,
  "lat": 50.7886010,
  "lon": -1.1192945
},
{
  "type": "node",
  "id": 4874366099,
  "lat": 50.7886251,
  "lon": -1.1191662
},
{
  "type": "node",
  "id": 4880488938,
  "lat": 50.7885028,
  "lon": -1.1198358
},
{
  "type": "node",
  "id": 251559304,
  "lat": 50.8164736,
  "lon": -1.1530972
},
{
  "type": "node",
  "id": 251559305,
  "lat": 50.8150246,
  "lon": -1.1533576
},
{
  "type": "node",
  "id": 251559306,
  "lat": 50.8148654,
  "lon": -1.1531908
},
{
  "type": "node",
  "id": 251559307,
  "lat": 50.8147090,
  "lon": -1.1531135
},
{
  "type": "node",
  "id": 251559308,
  "lat": 50.8145958,
  "lon": -1.1531086
},
{
  "type": "node",
  "id": 251559309,
  "lat": 50.8144873,
  "lon": -1.1531258
},
{
  "type": "node",
  "id": 251559310,
  "lat": 50.8143951,
  "lon": -1.1532030
},
{
  "type": "node",
  "id": 251559311,
  "lat": 50.8143327,
  "lon": -1.1532928
},
{
  "type": "node",
  "id": 251559312,
  "lat": 50.8142717,
  "lon": -1.1534217
},
{
  "type": "node",
  "id": 2468692039,
  "lat": 50.8164926,
  "lon": -1.1531199
},
{
  "type": "node",
  "id": 2468692217,
  "lat": 50.8151498,
  "lon": -1.1533609
},
{
  "type": "node",
  "id": 2468692228,
  "lat": 50.8150800,
  "lon": -1.1533612
},
{
  "type": "node",
  "id": 4827188368,
  "lat": 50.8158282,
  "lon": -1.1532141
},
{
  "type": "node",
  "id": 4828665872,
  "lat": 50.8144388,
  "lon": -1.1531576
},
{
  "type": "node",
  "id": 4828666977,
  "lat": 50.8165082,
  "lon": -1.1531763
},
{
  "type": "node",
  "id": 4828666978,
  "lat": 50.8165043,
  "lon": -1.1531458
},
{
  "type": "node",
  "id": 4828666979,
  "lat": 50.8164571,
  "lon": -1.1530905
},
{
  "type": "node",
  "id": 4828666980,
  "lat": 50.8164375,
  "lon": -1.1530908
},
{
  "type": "node",
  "id": 4828731177,
  "lat": 50.8148144,
  "lon": -1.1531552
},
{
  "type": "node",
  "id": 4828731178,
  "lat": 50.8147714,
  "lon": -1.1531374
},
{
  "type": "node",
  "id": 4828731212,
  "lat": 50.8144664,
  "lon": -1.1531350
},
{
  "type": "node",
  "id": 4828731213,
  "lat": 50.8144496,
  "lon": -1.1531476
},
{
  "type": "node",
  "id": 4828731214,
  "lat": 50.8145060,
  "lon": -1.1531219
},
{
  "type": "node",
  "id": 4828738173,
  "lat": 50.8146665,
  "lon": -1.1531060
},
{
  "type": "node",
  "id": 4828738174,
  "lat": 50.8146344,
  "lon": -1.1531053
},
{
  "type": "node",
  "id": 4828738176,
  "lat": 50.8143054,
  "lon": -1.1533410
},
{
  "type": "node",
  "id": 4828738177,
  "lat": 50.8143587,
  "lon": -1.1532479
},
{
  "type": "node",
  "id": 4085019190,
  "lat": 50.8076247,
  "lon": -1.1272360
},
{
  "type": "node",
  "id": 4633679943,
  "lat": 50.7950483,
  "lon": -1.1257173
},
{
  "type": "node",
  "id": 4633679944,
  "lat": 50.7949590,
  "lon": -1.1256814
},
{
  "type": "node",
  "id": 4633679945,
  "lat": 50.7950229,
  "lon": -1.1252830
},
{
  "type": "node",
  "id": 4633679946,
  "lat": 50.7951122,
  "lon": -1.1253188
},
{
  "type": "node",
  "id": 4633679953,
  "lat": 50.7947274,
  "lon": -1.1247345
},
{
  "type": "node",
  "id": 4633679954,
  "lat": 50.7944918,
  "lon": -1.1246245
},
{
  "type": "node",
  "id": 4633679955,
  "lat": 50.7944172,
  "lon": -1.1250000
},
{
  "type": "node",
  "id": 4633679956,
  "lat": 50.7946545,
  "lon": -1.1251127
},
{
  "type": "node",
  "id": 4904080537,
  "lat": 50.7945414,
  "lon": -1.1246476
},
{
  "type": "node",
  "id": 4904080540,
  "lat": 50.7945794,
  "lon": -1.1246654
},
{
  "type": "node",
  "id": 4904080541,
  "lat": 50.7946985,
  "lon": -1.1248842
},
{
  "type": "node",
  "id": 4904080567,
  "lat": 50.7950286,
  "lon": -1.1257094
},
{
  "type": "node",
  "id": 4904112977,
  "lat": 50.7945879,
  "lon": -1.1246160
},
{
  "type": "node",
  "id": 4904112978,
  "lat": 50.7945504,
  "lon": -1.1245988
},
{
  "type": "node",
  "id": 2502180330,
  "lat": 50.8067863,
  "lon": -1.1261406
},
{
  "type": "node",
  "id": 4044292078,
  "lat": 50.8067425,
  "lon": -1.1265406
},
{
  "type": "node",
  "id": 4085019212,
  "lat": 50.8067213,
  "lon": -1.1263026
},
{
  "type": "node",
  "id": 364429317,
  "lat": 50.8001679,
  "lon": -1.1094165
},
{
  "type": "node",
  "id": 3137432381,
  "lat": 50.8001935,
  "lon": -1.1093500
},
{
  "type": "node",
  "id": 364429150,
  "lat": 50.8020452,
  "lon": -1.1092163
},
{
  "type": "node",
  "id": 364429152,
  "lat": 50.8019769,
  "lon": -1.1092367
},
{
  "type": "node",
  "id": 364429153,
  "lat": 50.8019192,
  "lon": -1.1087590
},
{
  "type": "node",
  "id": 364429159,
  "lat": 50.8019899,
  "lon": -1.1087399
},
{
  "type": "node",
  "id": 364429279,
  "lat": 50.8014254,
  "lon": -1.1108868
},
{
  "type": "node",
  "id": 364429281,
  "lat": 50.8012416,
  "lon": -1.1106763
},
{
  "type": "node",
  "id": 364429283,
  "lat": 50.8013718,
  "lon": -1.1103134
},
{
  "type": "node",
  "id": 364429286,
  "lat": 50.8015764,
  "lon": -1.1105100
},
{
  "type": "node",
  "id": 364429309,
  "lat": 50.8006581,
  "lon": -1.1098984
},
{
  "type": "node",
  "id": 364429311,
  "lat": 50.8007341,
  "lon": -1.1097047
},
{
  "type": "node",
  "id": 364429312,
  "lat": 50.8012191,
  "lon": -1.1104404
},
{
  "type": "node",
  "id": 364429314,
  "lat": 50.8002440,
  "lon": -1.1092228
},
{
  "type": "node",
  "id": 364429315,
  "lat": 50.8012961,
  "lon": -1.1102494
},
{
  "type": "node",
  "id": 364429318,
  "lat": 50.8008533,
  "lon": -1.1098020
},
{
  "type": "node",
  "id": 364429320,
  "lat": 50.8007759,
  "lon": -1.1099947
},
{
  "type": "node",
  "id": 2249417404,
  "lat": 50.8024307,
  "lon": -1.1086323
},
{
  "type": "node",
  "id": 2249417407,
  "lat": 50.8020316,
  "lon": -1.1085849
},
{
  "type": "node",
  "id": 2249417408,
  "lat": 50.8023836,
  "lon": -1.1090539
},
{
  "type": "node",
  "id": 2249417410,
  "lat": 50.8021971,
  "lon": -1.1094512
},
{
  "type": "node",
  "id": 2249417412,
  "lat": 50.8023787,
  "lon": -1.1092278
},
{
  "type": "node",
  "id": 2249417414,
  "lat": 50.8023283,
  "lon": -1.1086432
},
{
  "type": "node",
  "id": 2249417415,
  "lat": 50.8021547,
  "lon": -1.1083811
},
{
  "type": "node",
  "id": 2249417416,
  "lat": 50.8022076,
  "lon": -1.1084015
},
{
  "type": "node",
  "id": 2249417418,
  "lat": 50.8023322,
  "lon": -1.1094036
},
{
  "type": "node",
  "id": 2249417419,
  "lat": 50.8020844,
  "lon": -1.1084324
},
{
  "type": "node",
  "id": 2249417421,
  "lat": 50.8021165,
  "lon": -1.1093321
},
{
  "type": "node",
  "id": 2249417422,
  "lat": 50.8020702,
  "lon": -1.1091761
},
{
  "type": "node",
  "id": 2249417423,
  "lat": 50.8023459,
  "lon": -1.1087084
},
{
  "type": "node",
  "id": 2249417424,
  "lat": 50.8022600,
  "lon": -1.1094730
},
{
  "type": "node",
  "id": 3080908835,
  "lat": 50.8007117,
  "lon": -1.1097618
},
{
  "type": "node",
  "id": 3080908837,
  "lat": 50.8008261,
  "lon": -1.1098693
},
{
  "type": "node",
  "id": 3080908841,
  "lat": 50.8019942,
  "lon": -1.1087719
},
{
  "type": "node",
  "id": 3080908842,
  "lat": 50.8020206,
  "lon": -1.1087656
},
{
  "type": "node",
  "id": 3080908843,
  "lat": 50.8020406,
  "lon": -1.1091799
},
{
  "type": "node",
  "id": 3080908846,
  "lat": 50.8008002,
  "lon": -1.1099342
},
{
  "type": "node",
  "id": 3080908847,
  "lat": 50.8006861,
  "lon": -1.1098270
},
{
  "type": "node",
  "id": 3100379385,
  "lat": 50.8020222,
  "lon": -1.1086794
},
{
  "type": "node",
  "id": 3100379387,
  "lat": 50.8020512,
  "lon": -1.1085099
},
{
  "type": "node",
  "id": 3100379388,
  "lat": 50.8020677,
  "lon": -1.1084640
},
{
  "type": "node",
  "id": 3100379390,
  "lat": 50.8020927,
  "lon": -1.1092656
},
{
  "type": "node",
  "id": 3100379393,
  "lat": 50.8021046,
  "lon": -1.1084081
},
{
  "type": "node",
  "id": 3100379394,
  "lat": 50.8021301,
  "lon": -1.1083870
},
{
  "type": "node",
  "id": 3100379395,
  "lat": 50.8021625,
  "lon": -1.1094133
},
{
  "type": "node",
  "id": 3100379396,
  "lat": 50.8021822,
  "lon": -1.1083851
},
{
  "type": "node",
  "id": 3100379399,
  "lat": 50.8022218,
  "lon": -1.1094679
},
{
  "type": "node",
  "id": 3100379400,
  "lat": 50.8022360,
  "lon": -1.1084311
},
{
  "type": "node",
  "id": 3100379401,
  "lat": 50.8022588,
  "lon": -1.1084640
},
{
  "type": "node",
  "id": 3100379402,
  "lat": 50.8022792,
  "lon": -1.1085000
},
{
  "type": "node",
  "id": 3100379403,
  "lat": 50.8022842,
  "lon": -1.1094636
},
{
  "type": "node",
  "id": 3100379404,
  "lat": 50.8022949,
  "lon": -1.1085422
},
{
  "type": "node",
  "id": 3100379405,
  "lat": 50.8023081,
  "lon": -1.1094419
},
{
  "type": "node",
  "id": 3100379406,
  "lat": 50.8023105,
  "lon": -1.1085882
},
{
  "type": "node",
  "id": 3100379407,
  "lat": 50.8023501,
  "lon": -1.1093574
},
{
  "type": "node",
  "id": 3100379408,
  "lat": 50.8023630,
  "lon": -1.1093096
},
{
  "type": "node",
  "id": 3100379409,
  "lat": 50.8023713,
  "lon": -1.1086534
},
{
  "type": "node",
  "id": 3100379410,
  "lat": 50.8023740,
  "lon": -1.1086950
},
{
  "type": "node",
  "id": 3100379412,
  "lat": 50.8023854,
  "lon": -1.1091420
},
{
  "type": "node",
  "id": 3100379414,
  "lat": 50.8024132,
  "lon": -1.1090483
},
{
  "type": "node",
  "id": 3100379415,
  "lat": 50.8024172,
  "lon": -1.1090799
},
{
  "type": "node",
  "id": 3100379416,
  "lat": 50.8024815,
  "lon": -1.1090613
},
{
  "type": "node",
  "id": 3137432382,
  "lat": 50.8012406,
  "lon": -1.1107627
},
{
  "type": "node",
  "id": 3137432383,
  "lat": 50.8012492,
  "lon": -1.1103654
},
{
  "type": "node",
  "id": 3137432384,
  "lat": 50.8012613,
  "lon": -1.1107991
},
{
  "type": "node",
  "id": 3137432386,
  "lat": 50.8012896,
  "lon": -1.1108155
},
{
  "type": "node",
  "id": 3137432387,
  "lat": 50.8013247,
  "lon": -1.1104440
},
{
  "type": "node",
  "id": 3137432388,
  "lat": 50.8013265,
  "lon": -1.1107869
},
{
  "type": "node",
  "id": 3137432389,
  "lat": 50.8015114,
  "lon": -1.1106714
},
{
  "type": "node",
  "id": 5773767001,
  "lat": 50.8012344,
  "lon": -1.1107158
},
{
  "type": "node",
  "id": 5773767004,
  "lat": 50.8014346,
  "lon": -1.1108603
},
{
  "type": "node",
  "id": 5773767005,
  "lat": 50.8015144,
  "lon": -1.1104503
},
{
  "type": "node",
  "id": 5773767009,
  "lat": 50.8015577,
  "lon": -1.1105563
},
{
  "type": "node",
  "id": 5773767010,
  "lat": 50.8013195,
  "lon": -1.1108014
},
{
  "type": "node",
  "id": 5773767013,
  "lat": 50.8013991,
  "lon": -1.1108602
},
{
  "type": "node",
  "id": 5773767015,
  "lat": 50.8013538,
  "lon": -1.1103630
},
{
  "type": "node",
  "id": 5773767017,
  "lat": 50.8013487,
  "lon": -1.1108233
},
{
  "type": "node",
  "id": 5773767018,
  "lat": 50.8013148,
  "lon": -1.1104876
},
{
  "type": "node",
  "id": 5773767019,
  "lat": 50.8013101,
  "lon": -1.1104842
},
{
  "type": "node",
  "id": 5773767021,
  "lat": 50.8013961,
  "lon": -1.1108686
},
{
  "type": "node",
  "id": 5773767022,
  "lat": 50.8014435,
  "lon": -1.1103820
},
{
  "type": "node",
  "id": 5773767023,
  "lat": 50.8013523,
  "lon": -1.1108130
},
{
  "type": "node",
  "id": 5773767024,
  "lat": 50.8015042,
  "lon": -1.1106643
},
{
  "type": "node",
  "id": 13717871,
  "lat": 50.8073348,
  "lon": -1.1256772
},
{
  "type": "node",
  "id": 13717872,
  "lat": 50.8074588,
  "lon": -1.1256761
},
{
  "type": "node",
  "id": 13717876,
  "lat": 50.8081288,
  "lon": -1.1259427
},
{
  "type": "node",
  "id": 13717881,
  "lat": 50.8079825,
  "lon": -1.1265927
},
{
  "type": "node",
  "id": 251559861,
  "lat": 50.8076727,
  "lon": -1.1253853
},
{
  "type": "node",
  "id": 251559863,
  "lat": 50.8078324,
  "lon": -1.1255824
},
{
  "type": "node",
  "id": 251559864,
  "lat": 50.8075939,
  "lon": -1.1256646
},
{
  "type": "node",
  "id": 251559865,
  "lat": 50.8076565,
  "lon": -1.1258906
},
{
  "type": "node",
  "id": 251559866,
  "lat": 50.8078098,
  "lon": -1.1260639
},
{
  "type": "node",
  "id": 251559867,
  "lat": 50.8079486,
  "lon": -1.1260639
},
{
  "type": "node",
  "id": 251559870,
  "lat": 50.8080521,
  "lon": -1.1260510
},
{
  "type": "node",
  "id": 2502180335,
  "lat": 50.8068072,
  "lon": -1.1260613
},
{
  "type": "node",
  "id": 2502180336,
  "lat": 50.8068164,
  "lon": -1.1260713
},
{
  "type": "node",
  "id": 2502180357,
  "lat": 50.8070086,
  "lon": -1.1255985
},
{
  "type": "node",
  "id": 4044292085,
  "lat": 50.8069982,
  "lon": -1.1268255
},
{
  "type": "node",
  "id": 4085002217,
  "lat": 50.8074351,
  "lon": -1.1255405
},
{
  "type": "node",
  "id": 4085002222,
  "lat": 50.8076341,
  "lon": -1.1255904
},
{
  "type": "node",
  "id": 4085002224,
  "lat": 50.8079889,
  "lon": -1.1259629
},
{
  "type": "node",
  "id": 4085002230,
  "lat": 50.8080826,
  "lon": -1.1260573
},
{
  "type": "node",
  "id": 4085002233,
  "lat": 50.8070995,
  "lon": -1.1254044
},
{
  "type": "node",
  "id": 4085002235,
  "lat": 50.8068057,
  "lon": -1.1263939
},
{
  "type": "node",
  "id": 4085002239,
  "lat": 50.8070816,
  "lon": -1.1266380
},
{
  "type": "node",
  "id": 4085019207,
  "lat": 50.8076657,
  "lon": -1.1271413
},
{
  "type": "node",
  "id": 4085019214,
  "lat": 50.8077002,
  "lon": -1.1270433
},
{
  "type": "node",
  "id": 4085019220,
  "lat": 50.8077552,
  "lon": -1.1270939
},
{
  "type": "node",
  "id": 4737129188,
  "lat": 50.8074404,
  "lon": -1.1256347
},
{
  "type": "node",
  "id": 4737129189,
  "lat": 50.8074667,
  "lon": -1.1255990
},
{
  "type": "node",
  "id": 4737129190,
  "lat": 50.8073643,
  "lon": -1.1256362
},
{
  "type": "node",
  "id": 4737129614,
  "lat": 50.8078518,
  "lon": -1.1255770
},
{
  "type": "node",
  "id": 4737260031,
  "lat": 50.8080443,
  "lon": -1.1256385
},
{
  "type": "node",
  "id": 4737260032,
  "lat": 50.8078086,
  "lon": -1.1253719
},
{
  "type": "node",
  "id": 4737260033,
  "lat": 50.8078298,
  "lon": -1.1255583
},
{
  "type": "node",
  "id": 4737260034,
  "lat": 50.8078510,
  "lon": -1.1255603
},
{
  "type": "node",
  "id": 4737260035,
  "lat": 50.8079302,
  "lon": -1.1256642
},
{
  "type": "node",
  "id": 4788209443,
  "lat": 50.8080298,
  "lon": -1.1262243
},
{
  "type": "node",
  "id": 259174093,
  "lat": 50.7779442,
  "lon": -1.0890212
},
{
  "type": "node",
  "id": 259174094,
  "lat": 50.7779318,
  "lon": -1.0886127
},
{
  "type": "node",
  "id": 259174095,
  "lat": 50.7778688,
  "lon": -1.0883837
},
{
  "type": "node",
  "id": 259174096,
  "lat": 50.7781104,
  "lon": -1.0882152
},
{
  "type": "node",
  "id": 259174097,
  "lat": 50.7782456,
  "lon": -1.0883962
},
{
  "type": "node",
  "id": 259174098,
  "lat": 50.7784615,
  "lon": -1.0885351
},
{
  "type": "node",
  "id": 259174100,
  "lat": 50.7783038,
  "lon": -1.0889265
},
{
  "type": "node",
  "id": 259174101,
  "lat": 50.7783661,
  "lon": -1.0891542
},
{
  "type": "node",
  "id": 259174102,
  "lat": 50.7781259,
  "lon": -1.0893191
},
{
  "type": "node",
  "id": 259174103,
  "lat": 50.7780638,
  "lon": -1.0890891
},
{
  "type": "node",
  "id": 259174106,
  "lat": 50.7781728,
  "lon": -1.0884444
},
{
  "type": "node",
  "id": 269209607,
  "lat": 50.7780798,
  "lon": -1.0889791
},
{
  "type": "node",
  "id": 269209608,
  "lat": 50.7781160,
  "lon": -1.0889733
},
{
  "type": "node",
  "id": 269209609,
  "lat": 50.7781577,
  "lon": -1.0891228
},
{
  "type": "node",
  "id": 269209610,
  "lat": 50.7782755,
  "lon": -1.0890418
},
{
  "type": "node",
  "id": 269209611,
  "lat": 50.7782430,
  "lon": -1.0888956
},
{
  "type": "node",
  "id": 269209613,
  "lat": 50.7783034,
  "lon": -1.0888041
},
{
  "type": "node",
  "id": 269209614,
  "lat": 50.7783497,
  "lon": -1.0886115
},
{
  "type": "node",
  "id": 269209615,
  "lat": 50.7782271,
  "lon": -1.0885355
},
{
  "type": "node",
  "id": 269209616,
  "lat": 50.7781447,
  "lon": -1.0885415
},
{
  "type": "node",
  "id": 269209617,
  "lat": 50.7780990,
  "lon": -1.0884007
},
{
  "type": "node",
  "id": 269209618,
  "lat": 50.7779848,
  "lon": -1.0884807
},
{
  "type": "node",
  "id": 269209619,
  "lat": 50.7779975,
  "lon": -1.0887081
},
{
  "type": "node",
  "id": 269209620,
  "lat": 50.7781385,
  "lon": -1.0886122
},
{
  "type": "node",
  "id": 269209621,
  "lat": 50.7782033,
  "lon": -1.0888507
},
{
  "type": "node",
  "id": 269209821,
  "lat": 50.7798848,
  "lon": -1.0898527
},
{
  "type": "node",
  "id": 269209822,
  "lat": 50.7797112,
  "lon": -1.0891317
},
{
  "type": "node",
  "id": 269209823,
  "lat": 50.7796786,
  "lon": -1.0890287
},
{
  "type": "node",
  "id": 269209824,
  "lat": 50.7795646,
  "lon": -1.0890030
},
{
  "type": "node",
  "id": 269209825,
  "lat": 50.7795158,
  "lon": -1.0890545
},
{
  "type": "node",
  "id": 269209826,
  "lat": 50.7794995,
  "lon": -1.0891317
},
{
  "type": "node",
  "id": 269209827,
  "lat": 50.7794995,
  "lon": -1.0892261
},
{
  "type": "node",
  "id": 269209828,
  "lat": 50.7795266,
  "lon": -1.0892862
},
{
  "type": "node",
  "id": 269209831,
  "lat": 50.7797654,
  "lon": -1.0899042
},
{
  "type": "node",
  "id": 418723973,
  "lat": 50.7780013,
  "lon": -1.0885475
},
{
  "type": "node",
  "id": 419059925,
  "lat": 50.7779924,
  "lon": -1.0886875
},
{
  "type": "node",
  "id": 419059927,
  "lat": 50.7780222,
  "lon": -1.0886324
},
{
  "type": "node",
  "id": 419059929,
  "lat": 50.7781851,
  "lon": -1.0885634
},
{
  "type": "node",
  "id": 419059937,
  "lat": 50.7782524,
  "lon": -1.0889565
},
{
  "type": "node",
  "id": 520392458,
  "lat": 50.7783126,
  "lon": -1.0887658
},
{
  "type": "node",
  "id": 520392520,
  "lat": 50.7778760,
  "lon": -1.0888680
},
{
  "type": "node",
  "id": 520392522,
  "lat": 50.7779072,
  "lon": -1.0889778
},
{
  "type": "node",
  "id": 520392534,
  "lat": 50.7783743,
  "lon": -1.0888783
},
{
  "type": "node",
  "id": 520392812,
  "lat": 50.7794887,
  "lon": -1.0893291
},
{
  "type": "node",
  "id": 520392813,
  "lat": 50.7794507,
  "lon": -1.0892948
},
{
  "type": "node",
  "id": 520392814,
  "lat": 50.7794072,
  "lon": -1.0893034
},
{
  "type": "node",
  "id": 520392815,
  "lat": 50.7793747,
  "lon": -1.0893463
},
{
  "type": "node",
  "id": 520392817,
  "lat": 50.7793693,
  "lon": -1.0894150
},
{
  "type": "node",
  "id": 520392819,
  "lat": 50.7793855,
  "lon": -1.0894836
},
{
  "type": "node",
  "id": 520392821,
  "lat": 50.7794290,
  "lon": -1.0895180
},
{
  "type": "node",
  "id": 520392823,
  "lat": 50.7794724,
  "lon": -1.0895094
},
{
  "type": "node",
  "id": 520392826,
  "lat": 50.7795592,
  "lon": -1.0896124
},
{
  "type": "node",
  "id": 520392837,
  "lat": 50.7795321,
  "lon": -1.0896982
},
{
  "type": "node",
  "id": 520392839,
  "lat": 50.7795918,
  "lon": -1.0897583
},
{
  "type": "node",
  "id": 520392844,
  "lat": 50.7796081,
  "lon": -1.0897068
},
{
  "type": "node",
  "id": 520392846,
  "lat": 50.7796678,
  "lon": -1.0897669
},
{
  "type": "node",
  "id": 520392848,
  "lat": 50.7797003,
  "lon": -1.0896725
},
{
  "type": "node",
  "id": 520392855,
  "lat": 50.7798034,
  "lon": -1.0894235
},
{
  "type": "node",
  "id": 520392857,
  "lat": 50.7797654,
  "lon": -1.0894407
},
{
  "type": "node",
  "id": 520392864,
  "lat": 50.7796243,
  "lon": -1.0889944
},
{
  "type": "node",
  "id": 1319464088,
  "lat": 50.7780093,
  "lon": -1.0886459
},
{
  "type": "node",
  "id": 1319464116,
  "lat": 50.7780705,
  "lon": -1.0889410
},
{
  "type": "node",
  "id": 1319464129,
  "lat": 50.7778897,
  "lon": -1.0889389
},
{
  "type": "node",
  "id": 1319464166,
  "lat": 50.7778801,
  "lon": -1.0889013
},
{
  "type": "node",
  "id": 1319464171,
  "lat": 50.7780992,
  "lon": -1.0889817
},
{
  "type": "node",
  "id": 1319464177,
  "lat": 50.7778770,
  "lon": -1.0888178
},
{
  "type": "node",
  "id": 1319464285,
  "lat": 50.7783945,
  "lon": -1.0888100
},
{
  "type": "node",
  "id": 6813933459,
  "lat": 50.7797524,
  "lon": -1.0893664
},
{
  "type": "node",
  "id": 6855737125,
  "lat": 50.7778812,
  "lon": -1.0889062
},
{
  "type": "node",
  "id": 6855737128,
  "lat": 50.7778928,
  "lon": -1.0889473
},
{
  "type": "node",
  "id": 6855737129,
  "lat": 50.7778862,
  "lon": -1.0889274
},
{
  "type": "node",
  "id": 6855737146,
  "lat": 50.7782528,
  "lon": -1.0888427
},
{
  "type": "node",
  "id": 6855737147,
  "lat": 50.7782583,
  "lon": -1.0888355
},
{
  "type": "node",
  "id": 6855737148,
  "lat": 50.7782486,
  "lon": -1.0888525
},
{
  "type": "node",
  "id": 6855737149,
  "lat": 50.7782452,
  "lon": -1.0888748
},
{
  "type": "node",
  "id": 6855737150,
  "lat": 50.7782436,
  "lon": -1.0889150
},
{
  "type": "node",
  "id": 6855737151,
  "lat": 50.7782456,
  "lon": -1.0889306
},
{
  "type": "node",
  "id": 6855737152,
  "lat": 50.7781288,
  "lon": -1.0885115
},
{
  "type": "node",
  "id": 6855737153,
  "lat": 50.7781352,
  "lon": -1.0885256
},
{
  "type": "node",
  "id": 6855737154,
  "lat": 50.7781551,
  "lon": -1.0885522
},
{
  "type": "node",
  "id": 6855737155,
  "lat": 50.7781774,
  "lon": -1.0885633
},
{
  "type": "node",
  "id": 6855737156,
  "lat": 50.7781695,
  "lon": -1.0885611
},
{
  "type": "node",
  "id": 6855737157,
  "lat": 50.7781226,
  "lon": -1.0884894
},
{
  "type": "node",
  "id": 6855737158,
  "lat": 50.7780028,
  "lon": -1.0886567
},
{
  "type": "node",
  "id": 6855737159,
  "lat": 50.7779954,
  "lon": -1.0886828
},
{
  "type": "node",
  "id": 6855737160,
  "lat": 50.7779992,
  "lon": -1.0886657
},
{
  "type": "node",
  "id": 6855737161,
  "lat": 50.7780775,
  "lon": -1.0889681
},
{
  "type": "node",
  "id": 6855737162,
  "lat": 50.7780900,
  "lon": -1.0889802
},
{
  "type": "node",
  "id": 6855737163,
  "lat": 50.7779167,
  "lon": -1.0889926
},
{
  "type": "node",
  "id": 6855737164,
  "lat": 50.7779255,
  "lon": -1.0890037
},
{
  "type": "node",
  "id": 6855737165,
  "lat": 50.7778849,
  "lon": -1.0889230
},
{
  "type": "node",
  "id": 6855737166,
  "lat": 50.7778946,
  "lon": -1.0889522
},
{
  "type": "node",
  "id": 6855737167,
  "lat": 50.7778755,
  "lon": -1.0888417
},
{
  "type": "node",
  "id": 6855737168,
  "lat": 50.7778809,
  "lon": -1.0887915
},
{
  "type": "node",
  "id": 6855737169,
  "lat": 50.7783885,
  "lon": -1.0888371
},
{
  "type": "node",
  "id": 849667387,
  "lat": 50.7917317,
  "lon": -1.0983146
},
{
  "type": "node",
  "id": 849667398,
  "lat": 50.7916370,
  "lon": -1.0983351
},
{
  "type": "node",
  "id": 849667402,
  "lat": 50.7915380,
  "lon": -1.0971921
},
{
  "type": "node",
  "id": 849667405,
  "lat": 50.7916327,
  "lon": -1.0971716
},
{
  "type": "node",
  "id": 850506969,
  "lat": 50.7820590,
  "lon": -1.0704829
},
{
  "type": "node",
  "id": 850506970,
  "lat": 50.7822040,
  "lon": -1.0704534
},
{
  "type": "node",
  "id": 850506972,
  "lat": 50.7821518,
  "lon": -1.0699988
},
{
  "type": "node",
  "id": 850506973,
  "lat": 50.7822336,
  "lon": -1.0699822
},
{
  "type": "node",
  "id": 850506975,
  "lat": 50.7822275,
  "lon": -1.0699072
},
{
  "type": "node",
  "id": 850506977,
  "lat": 50.7820920,
  "lon": -1.0699348
},
{
  "type": "node",
  "id": 850506978,
  "lat": 50.7820785,
  "lon": -1.0702024
},
{
  "type": "node",
  "id": 850506979,
  "lat": 50.7820368,
  "lon": -1.0702109
},
{
  "type": "node",
  "id": 1319504708,
  "lat": 50.7821831,
  "lon": -1.0702004
},
{
  "type": "node",
  "id": 1319504739,
  "lat": 50.7820767,
  "lon": -1.0701794
},
{
  "type": "node",
  "id": 1319504740,
  "lat": 50.7821684,
  "lon": -1.0702034
},
{
  "type": "node",
  "id": 1319504743,
  "lat": 50.7821113,
  "lon": -1.0701723
},
{
  "type": "node",
  "id": 4411735179,
  "lat": 50.7821912,
  "lon": -1.0702958
},
{
  "type": "node",
  "id": 4411735180,
  "lat": 50.7821883,
  "lon": -1.0702644
},
{
  "type": "node",
  "id": 4411735181,
  "lat": 50.7822076,
  "lon": -1.0702925
},
{
  "type": "node",
  "id": 4411735182,
  "lat": 50.7822050,
  "lon": -1.0702610
},
{
  "type": "node",
  "id": 4411735183,
  "lat": 50.7821448,
  "lon": -1.0699234
},
{
  "type": "node",
  "id": 6806456936,
  "lat": 50.7822061,
  "lon": -1.0702742
},
{
  "type": "node",
  "id": 246885918,
  "lat": 50.8605485,
  "lon": -1.1411235
},
{
  "type": "node",
  "id": 246885919,
  "lat": 50.8605818,
  "lon": -1.1408656
},
{
  "type": "node",
  "id": 3614959356,
  "lat": 50.8605083,
  "lon": -1.1407950
},
{
  "type": "node",
  "id": 3614959357,
  "lat": 50.8605374,
  "lon": -1.1409874
},
{
  "type": "node",
  "id": 3614959370,
  "lat": 50.8609215,
  "lon": -1.1407425
},
{
  "type": "node",
  "id": 246885910,
  "lat": 50.8599758,
  "lon": -1.1402840
},
{
  "type": "node",
  "id": 246885911,
  "lat": 50.8603595,
  "lon": -1.1390526
},
{
  "type": "node",
  "id": 246885912,
  "lat": 50.8600952,
  "lon": -1.1386443
},
{
  "type": "node",
  "id": 246885913,
  "lat": 50.8604395,
  "lon": -1.1384111
},
{
  "type": "node",
  "id": 246885914,
  "lat": 50.8603670,
  "lon": -1.1367820
},
{
  "type": "node",
  "id": 246885915,
  "lat": 50.8615098,
  "lon": -1.1372289
},
{
  "type": "node",
  "id": 246885916,
  "lat": 50.8615936,
  "lon": -1.1370095
},
{
  "type": "node",
  "id": 246885917,
  "lat": 50.8620539,
  "lon": -1.1397533
},
{
  "type": "node",
  "id": 2468867038,
  "lat": 50.8620051,
  "lon": -1.1396359
},
{
  "type": "node",
  "id": 2468867044,
  "lat": 50.8603176,
  "lon": -1.1390164
},
{
  "type": "node",
  "id": 2468867046,
  "lat": 50.8603982,
  "lon": -1.1384156
},
{
  "type": "node",
  "id": 2468867047,
  "lat": 50.8615299,
  "lon": -1.1370902
},
{
  "type": "node",
  "id": 2468867053,
  "lat": 50.8621147,
  "lon": -1.1394444
},
{
  "type": "node",
  "id": 2468867088,
  "lat": 50.8620363,
  "lon": -1.1395238
},
{
  "type": "node",
  "id": 2709214868,
  "lat": 50.8602620,
  "lon": -1.1393620
},
{
  "type": "node",
  "id": 2709214873,
  "lat": 50.8601370,
  "lon": -1.1397645
},
{
  "type": "node",
  "id": 3614959342,
  "lat": 50.8600955,
  "lon": -1.1386270
},
{
  "type": "node",
  "id": 3614959345,
  "lat": 50.8602891,
  "lon": -1.1392820
},
{
  "type": "node",
  "id": 3614959348,
  "lat": 50.8604074,
  "lon": -1.1376807
},
{
  "type": "node",
  "id": 3614959351,
  "lat": 50.8604285,
  "lon": -1.1381606
},
{
  "type": "node",
  "id": 3614959373,
  "lat": 50.8614527,
  "lon": -1.1372066
},
{
  "type": "node",
  "id": 3614959378,
  "lat": 50.8616730,
  "lon": -1.1374601
},
{
  "type": "node",
  "id": 3614959383,
  "lat": 50.8618085,
  "lon": -1.1398367
},
{
  "type": "node",
  "id": 3614959385,
  "lat": 50.8619928,
  "lon": -1.1392764
},
{
  "type": "node",
  "id": 3614959388,
  "lat": 50.8621890,
  "lon": -1.1395985
},
{
  "type": "node",
  "id": 3615092866,
  "lat": 50.8604132,
  "lon": -1.1378129
},
{
  "type": "node",
  "id": 3615121610,
  "lat": 50.8600334,
  "lon": -1.1400983
},
{
  "type": "node",
  "id": 3615121612,
  "lat": 50.8603875,
  "lon": -1.1372381
},
{
  "type": "node",
  "id": 6239297511,
  "lat": 50.8319788,
  "lon": -1.0526127
},
{
  "type": "node",
  "id": 6239297512,
  "lat": 50.8319390,
  "lon": -1.0525543
},
{
  "type": "node",
  "id": 6239297513,
  "lat": 50.8317614,
  "lon": -1.0528576
},
{
  "type": "node",
  "id": 6239297514,
  "lat": 50.8318013,
  "lon": -1.0529161
},
{
  "type": "node",
  "id": 1702694986,
  "lat": 50.9534525,
  "lon": -1.2146815
},
{
  "type": "node",
  "id": 1702694992,
  "lat": 50.9535296,
  "lon": -1.2149890
},
{
  "type": "node",
  "id": 1702695004,
  "lat": 50.9535302,
  "lon": -1.2146325
},
{
  "type": "node",
  "id": 1702695012,
  "lat": 50.9536073,
  "lon": -1.2149399
},
{
  "type": "node",
  "id": 3358640706,
  "lat": 51.0978060,
  "lon": -0.9437706
},
{
  "type": "node",
  "id": 3358640733,
  "lat": 51.0977827,
  "lon": -0.9437377
},
{
  "type": "node",
  "id": 2966776736,
  "lat": 51.1330312,
  "lon": -0.9890700
},
{
  "type": "node",
  "id": 2966776737,
  "lat": 51.1331186,
  "lon": -0.9890896
},
{
  "type": "node",
  "id": 2966776738,
  "lat": 51.1331313,
  "lon": -0.9889083
},
{
  "type": "node",
  "id": 2966776739,
  "lat": 51.1331518,
  "lon": -0.9892593
},
{
  "type": "node",
  "id": 2966776740,
  "lat": 51.1331520,
  "lon": -0.9890355
},
{
  "type": "node",
  "id": 2966776741,
  "lat": 51.1331574,
  "lon": -0.9890440
},
{
  "type": "node",
  "id": 2966776743,
  "lat": 51.1331871,
  "lon": -0.9889960
},
{
  "type": "node",
  "id": 2966776744,
  "lat": 51.1331886,
  "lon": -0.9891997
},
{
  "type": "node",
  "id": 3274394542,
  "lat": 51.1851628,
  "lon": -1.0239283
},
{
  "type": "node",
  "id": 3274394543,
  "lat": 51.1849348,
  "lon": -1.0236000
},
{
  "type": "node",
  "id": 3274394544,
  "lat": 51.1851355,
  "lon": -1.0231880
},
{
  "type": "node",
  "id": 3274394545,
  "lat": 51.1853719,
  "lon": -1.0235142
},
{
  "type": "node",
  "id": 5664761746,
  "lat": 51.1850965,
  "lon": -1.0231276
},
{
  "type": "node",
  "id": 5664761747,
  "lat": 51.1848601,
  "lon": -1.0228014
},
{
  "type": "node",
  "id": 5664761748,
  "lat": 51.1846594,
  "lon": -1.0232134
},
{
  "type": "node",
  "id": 5664761749,
  "lat": 51.1848874,
  "lon": -1.0235417
},
{
  "type": "node",
  "id": 2010522530,
  "lat": 51.1500021,
  "lon": -0.9736115
},
{
  "type": "node",
  "id": 3203677448,
  "lat": 51.1497701,
  "lon": -0.9733441
},
{
  "type": "node",
  "id": 3203677449,
  "lat": 51.1498024,
  "lon": -0.9734128
},
{
  "type": "node",
  "id": 3203677450,
  "lat": 51.1498146,
  "lon": -0.9733982
},
{
  "type": "node",
  "id": 3203677451,
  "lat": 51.1498382,
  "lon": -0.9732642
},
{
  "type": "node",
  "id": 3203677452,
  "lat": 51.1498444,
  "lon": -0.9734737
},
{
  "type": "node",
  "id": 3203677453,
  "lat": 51.1498484,
  "lon": -0.9734700
},
{
  "type": "node",
  "id": 3203677454,
  "lat": 51.1498634,
  "lon": -0.9733323
},
{
  "type": "node",
  "id": 3203677456,
  "lat": 51.1499462,
  "lon": -0.9736791
},
{
  "type": "node",
  "id": 3836100458,
  "lat": 51.1504550,
  "lon": -0.9745293
},
{
  "type": "node",
  "id": 3836100459,
  "lat": 51.1503627,
  "lon": -0.9742966
},
{
  "type": "node",
  "id": 3836100460,
  "lat": 51.1503038,
  "lon": -0.9743596
},
{
  "type": "node",
  "id": 3836100461,
  "lat": 51.1503400,
  "lon": -0.9744468
},
{
  "type": "node",
  "id": 3836100462,
  "lat": 51.1503505,
  "lon": -0.9744367
},
{
  "type": "node",
  "id": 3836100463,
  "lat": 51.1503618,
  "lon": -0.9744682
},
{
  "type": "node",
  "id": 3836100464,
  "lat": 51.1502895,
  "lon": -0.9745393
},
{
  "type": "node",
  "id": 3836100465,
  "lat": 51.1503383,
  "lon": -0.9746533
},
{
  "type": "node",
  "id": 4881573396,
  "lat": 51.1499819,
  "lon": -0.9736613
},
{
  "type": "node",
  "id": 4881573397,
  "lat": 51.1499640,
  "lon": -0.9736828
},
{
  "type": "node",
  "id": 4881573398,
  "lat": 51.1499947,
  "lon": -0.9736459
},
{
  "type": "node",
  "id": 4881573399,
  "lat": 51.1499863,
  "lon": -0.9736291
},
{
  "type": "node",
  "id": 4881573400,
  "lat": 51.1499564,
  "lon": -0.9736653
},
{
  "type": "node",
  "id": 4881573418,
  "lat": 51.1498084,
  "lon": -0.9734056
},
{
  "type": "node",
  "id": 4881573419,
  "lat": 51.1498894,
  "lon": -0.9735691
},
{
  "type": "node",
  "id": 4884482409,
  "lat": 51.1504502,
  "lon": -0.9745178
},
{
  "type": "node",
  "id": 4884482421,
  "lat": 51.1504252,
  "lon": -0.9744577
},
{
  "type": "node",
  "id": 4884482422,
  "lat": 51.1504062,
  "lon": -0.9745819
},
{
  "type": "node",
  "id": 4884482423,
  "lat": 51.1503959,
  "lon": -0.9743873
},
{
  "type": "node",
  "id": 4884482436,
  "lat": 51.1503995,
  "lon": -0.9743833
},
{
  "type": "node",
  "id": 4884482437,
  "lat": 51.1503313,
  "lon": -0.9743302
},
{
  "type": "node",
  "id": 4892998898,
  "lat": 51.1504433,
  "lon": -0.9745419
},
{
  "type": "node",
  "id": 4895033473,
  "lat": 51.1498685,
  "lon": -0.9733270
},
{
  "type": "node",
  "id": 4895033474,
  "lat": 51.1498950,
  "lon": -0.9733934
},
{
  "type": "node",
  "id": 4895033475,
  "lat": 51.1498984,
  "lon": -0.9733884
},
{
  "type": "node",
  "id": 6402573462,
  "lat": 51.1504296,
  "lon": -0.9745567
},
{
  "type": "node",
  "id": 3358640707,
  "lat": 51.0978464,
  "lon": -0.9436983
},
{
  "type": "node",
  "id": 3358640708,
  "lat": 51.0977859,
  "lon": -0.9436125
},
{
  "type": "node",
  "id": 3358640709,
  "lat": 51.0978055,
  "lon": -0.9435775
},
{
  "type": "node",
  "id": 3358640710,
  "lat": 51.0977253,
  "lon": -0.9434634
},
{
  "type": "node",
  "id": 3358640711,
  "lat": 51.0977140,
  "lon": -0.9434836
},
{
  "type": "node",
  "id": 3358640712,
  "lat": 51.0976083,
  "lon": -0.9433328
},
{
  "type": "node",
  "id": 3358640713,
  "lat": 51.0975837,
  "lon": -0.9433766
},
{
  "type": "node",
  "id": 3358640714,
  "lat": 51.0974999,
  "lon": -0.9432569
},
{
  "type": "node",
  "id": 3358640715,
  "lat": 51.0975274,
  "lon": -0.9432080
},
{
  "type": "node",
  "id": 3358640716,
  "lat": 51.0974658,
  "lon": -0.9431200
},
{
  "type": "node",
  "id": 3358640717,
  "lat": 51.0974248,
  "lon": -0.9431927
},
{
  "type": "node",
  "id": 3358640718,
  "lat": 51.0974380,
  "lon": -0.9432239
},
{
  "type": "node",
  "id": 3358640719,
  "lat": 51.0974054,
  "lon": -0.9432769
},
{
  "type": "node",
  "id": 3358640720,
  "lat": 51.0973746,
  "lon": -0.9432418
},
{
  "type": "node",
  "id": 3358640721,
  "lat": 51.0973408,
  "lon": -0.9432949
},
{
  "type": "node",
  "id": 3358640722,
  "lat": 51.0974521,
  "lon": -0.9434743
},
{
  "type": "node",
  "id": 3358640723,
  "lat": 51.0974797,
  "lon": -0.9434310
},
{
  "type": "node",
  "id": 3358640724,
  "lat": 51.0975025,
  "lon": -0.9434547
},
{
  "type": "node",
  "id": 3358640725,
  "lat": 51.0975288,
  "lon": -0.9434274
},
{
  "type": "node",
  "id": 3358640726,
  "lat": 51.0976577,
  "lon": -0.9436085
},
{
  "type": "node",
  "id": 3358640727,
  "lat": 51.0976747,
  "lon": -0.9435779
},
{
  "type": "node",
  "id": 3358640728,
  "lat": 51.0977019,
  "lon": -0.9436163
},
{
  "type": "node",
  "id": 3358640729,
  "lat": 51.0976829,
  "lon": -0.9436505
},
{
  "type": "node",
  "id": 3358640730,
  "lat": 51.0977237,
  "lon": -0.9437079
},
{
  "type": "node",
  "id": 3358640731,
  "lat": 51.0977527,
  "lon": -0.9436557
},
{
  "type": "node",
  "id": 3358640732,
  "lat": 51.0977951,
  "lon": -0.9437154
},
{
  "type": "node",
  "id": 4926856893,
  "lat": 51.2284452,
  "lon": -1.3391444
},
{
  "type": "node",
  "id": 4926856894,
  "lat": 51.2284707,
  "lon": -1.3391143
},
{
  "type": "node",
  "id": 4926856895,
  "lat": 51.2284998,
  "lon": -1.3391728
},
{
  "type": "node",
  "id": 4926856896,
  "lat": 51.2285428,
  "lon": -1.3391158
},
{
  "type": "node",
  "id": 4926856897,
  "lat": 51.2285159,
  "lon": -1.3390575
},
{
  "type": "node",
  "id": 4926856898,
  "lat": 51.2285337,
  "lon": -1.3390366
},
{
  "type": "node",
  "id": 4926856899,
  "lat": 51.2283903,
  "lon": -1.3387776
},
{
  "type": "node",
  "id": 4926856900,
  "lat": 51.2283739,
  "lon": -1.3387990
},
{
  "type": "node",
  "id": 4926856901,
  "lat": 51.2283545,
  "lon": -1.3387570
},
{
  "type": "node",
  "id": 4926856902,
  "lat": 51.2282974,
  "lon": -1.3388242
},
{
  "type": "node",
  "id": 308420768,
  "lat": 51.2667054,
  "lon": -1.1120778
},
{
  "type": "node",
  "id": 308420769,
  "lat": 51.2661866,
  "lon": -1.1119423
},
{
  "type": "node",
  "id": 308420770,
  "lat": 51.2663658,
  "lon": -1.1101546
},
{
  "type": "node",
  "id": 308420772,
  "lat": 51.2668909,
  "lon": -1.1102928
},
{
  "type": "node",
  "id": 5221902174,
  "lat": 51.2628364,
  "lon": -1.0869153
},
{
  "type": "node",
  "id": 5221902175,
  "lat": 51.2628277,
  "lon": -1.0870229
},
{
  "type": "node",
  "id": 5221902179,
  "lat": 51.2626526,
  "lon": -1.0871732
},
{
  "type": "node",
  "id": 5221902180,
  "lat": 51.2626645,
  "lon": -1.0868947
},
{
  "type": "node",
  "id": 5221902181,
  "lat": 51.2628170,
  "lon": -1.0871996
},
{
  "type": "node",
  "id": 5221902182,
  "lat": 51.2628224,
  "lon": -1.0870872
},
{
  "type": "node",
  "id": 5221902184,
  "lat": 51.2628181,
  "lon": -1.0871776
},
{
  "type": "node",
  "id": 6591168071,
  "lat": 51.2628193,
  "lon": -1.0871530
},
{
  "type": "way",
  "id": 303687505,
  "nodes": [
    3137432381,
    364429317,
    364429309,
    3080908847,
    3080908846,
    364429320,
    364429312,
    3137432383
  ]
},
{
  "type": "way",
  "id": 308455520,
  "nodes": [
    3137432383,
    364429315,
    364429318,
    3080908837,
    3080908835,
    364429311,
    364429314,
    3137432381
  ]
},
{
  "type": "way",
  "id": 32393555,
  "nodes": [
    3137432389,
    5773767024,
    5773767004,
    364429279,
    5773767013,
    5773767021,
    5773767017,
    5773767023,
    3137432388,
    5773767010,
    3137432386,
    3137432384,
    3137432382,
    5773767001,
    364429281,
    5773767018,
    5773767019,
    3137432387
  ]
},
{
  "type": "way",
  "id": 308455515,
  "nodes": [
    3137432387,
    5773767015,
    364429283,
    5773767022,
    5773767005,
    364429286,
    5773767009,
    3137432389
  ]
},
{
  "type": "way",
  "id": 23911233,
  "nodes": [
    259174098,
    259174097,
    259174106,
    259174096,
    259174095,
    259174094,
    6855737168,
    1319464177,
    6855737167,
    520392520,
    1319464166,
    6855737125,
    6855737165,
    6855737129,
    1319464129,
    6855737128,
    6855737166,
    520392522,
    6855737163,
    6855737164,
    259174093,
    259174103,
    259174102,
    259174101,
    259174100,
    520392534,
    6855737169,
    1319464285,
    259174098
  ]
},
{
  "type": "way",
  "id": 24788302,
  "nodes": [
    269209614,
    520392458,
    269209613,
    6855737147,
    6855737146,
    6855737148,
    6855737149,
    269209611,
    6855737150,
    6855737151,
    419059937,
    269209610,
    269209609,
    269209608,
    1319464171,
    6855737162,
    269209607,
    6855737161,
    1319464116,
    269209621,
    269209620,
    269209619,
    419059925,
    6855737159,
    6855737160,
    6855737158,
    1319464088,
    419059927,
    418723973,
    269209618,
    269209617,
    6855737157,
    6855737152,
    6855737153,
    269209616,
    6855737154,
    6855737156,
    6855737155,
    419059929,
    269209615,
    269209614
  ]
},
{
  "type": "way",
  "id": 320795759,
  "nodes": [
    3274394542,
    3274394543,
    3274394544,
    3274394545,
    3274394542
  ]
},
{
  "type": "way",
  "id": 593918324,
  "nodes": [
    5664761749,
    5664761748,
    5664761747,
    5664761746,
    5664761749
  ]
}

  ]
}
