{
  "version": 0.6,
  "generator": "Overpass API 0.7.55.1011 6c2efc30",
  "osm3s": {
    "timestamp_osm_base": "2020-02-14T11:11:02Z",
    "copyright": "The data included in this document is from www.openstreetmap.org. The data is made available under ODbL."
  },
  "elements": [

{
  "type": "node",
  "id": 611862566,
  "lat": 49.1721699,
  "lon": 17.5152748,
  "tags": {
    "name": "městské muzeum",
    "tourism": "museum"
  }
},
{
  "type": "node",
  "id": 1013756594,
  "lat": 48.9659185,
  "lon": 17.5853197,
  "tags": {
    "addr:city": "Dolní Němčí",
    "addr:conscriptionnumber": "105",
    "addr:country": "CZ",
    "addr:housenumber": "105",
    "addr:postcode": "68762",
    "addr:street": "Rybníky",
    "is_in": ", CZ",
    "name": "Muzeum na Mlýně",
    "note": "Nekonzistence cuzk:km a mvcr:adresa",
    "operator": "Obec Dolní Němčí",
    "source": "cuzk:km",
    "tourism": "museum"
  }
},
{
  "type": "node",
  "id": 1108261220,
  "lat": 48.7575454,
  "lon": 16.8899729,
  "tags": {
    "name": "Galerie 99",
    "tourism": "museum"
  }
},
{
  "type": "node",
  "id": 1191308431,
  "lat": 48.9890168,
  "lon": 16.7879129,
  "tags": {
    "addr:conscriptionnumber": "57",
    "addr:country": "CZ",
    "addr:housenumber": "57",
    "addr:place": "Diváky",
    "addr:postcode": "69171",
    "is_in": "Diváky, Jihomoravský kraj, CZ",
    "name": "Památník Bratři Mrštíků",
    "source": "Local knowledge",
    "tourism": "museum"
  }
},
{
  "type": "node",
  "id": 1191431871,
  "lat": 48.9327175,
  "lon": 16.8905113,
  "tags": {
    "addr:conscriptionnumber": "135",
    "addr:country": "CZ",
    "addr:housenumber": "135",
    "addr:place": "Kobylí",
    "addr:postcode": "69110",
    "name": "Muzeum obce Kobylí",
    "opening_hours": "Tu-Su 10:00-17:00",
    "ref:ruian:addr": "26958121",
    "tourism": "museum"
  }
},
{
  "type": "node",
  "id": 1442993285,
  "lat": 49.0347554,
  "lon": 17.4582387,
  "tags": {
    "name": "Letecké muzeum v Kunovicích",
    "tourism": "museum"
  }
},
{
  "type": "node",
  "id": 1660694183,
  "lat": 48.8462722,
  "lon": 17.2298703,
  "tags": {
    "name": "Záhorske múzeum",
    "tourism": "museum"
  }
},
{
  "type": "node",
  "id": 1861444783,
  "lat": 48.9600934,
  "lon": 17.1378544,
  "tags": {
    "tourism": "museum"
  }
},
{
  "type": "node",
  "id": 1909809173,
  "lat": 48.9013139,
  "lon": 17.3152111,
  "tags": {
    "contact:phone": "+420 5 18334155",
    "contact:website": "http://www.muzeum-straznice.webnode.cz",
    "name": "Městské muzeum ve Strážnici",
    "opening_hours": "Oct-May Tu-Fr 08:00-11:00, 12:00-15:00; Su 13:00-17:00; Jun, Sep Tu-Fr 08:00-11:00, 12:00-15:00; Sa-Su 13:00-17:00; Jul-Aug Tu-Fr 08:00-11:00, 12:00-17:00; Sa-Su 13:00-17:00",
    "tourism": "museum"
  }
},
{
  "type": "node",
  "id": 2363245675,
  "lat": 49.0009550,
  "lon": 17.0310038,
  "tags": {
    "addr:conscriptionnumber": "44",
    "addr:country": "CZ",
    "addr:housenumber": "44",
    "addr:place": "Stavěšice",
    "addr:postcode": "69638",
    "name": "Sál a muzeum obce",
    "operator": "Obec Stavěšice",
    "ref:ruian:addr": "13548344",
    "tourism": "museum"
  }
},
{
  "type": "node",
  "id": 2371551388,
  "lat": 48.8570102,
  "lon": 17.1213579,
  "tags": {
    "name": "Muzeum naftového dobývání a geologie",
    "tourism": "museum",
    "website": "http://mng.webz.cz/"
  }
},
{
  "type": "node",
  "id": 2413670803,
  "lat": 49.2016725,
  "lon": 17.2068697,
  "tags": {
    "name": "Zámek Litenčice",
    "tourism": "museum"
  }
},
{
  "type": "node",
  "id": 2424684008,
  "lat": 48.9675450,
  "lon": 16.8611252,
  "tags": {
    "name": "Muzeum generálporučíka Františka Peřiny",
    "tourism": "museum",
    "website": "http://www.morkuvky.cz/muzeum-fr-periny/d-1024/p1=1042"
  }
},
{
  "type": "node",
  "id": 2784493750,
  "lat": 48.8752529,
  "lon": 17.3604171,
  "tags": {
    "addr:conscriptionnumber": "230",
    "addr:housenumber": "230",
    "addr:place": "Tvarožná Lhota",
    "addr:postcode": "69662",
    "description": "Kromě vinné révy zde pěstují stromy slovácka - oskeruše. Z plodů tohoto vzácného jeřábu zde vyrábí kompot, marmeládu nebo dokonce pálenku. Vše můžete ochutnat a vidět na vlastní oči - oskeruše tu má totiž svoje muzeum, naučnou stezku a dokonce slavnost.",
    "name": "Muzeum oskeruší",
    "ref:ruian:addr": "13582607",
    "tourism": "museum"
  }
},
{
  "type": "node",
  "id": 2915853799,
  "lat": 49.2892798,
  "lon": 17.0542775,
  "tags": {
    "name": "zemědělských strojů Hoštice",
    "source": "survey",
    "tourism": "museum"
  }
},
{
  "type": "node",
  "id": 2992173321,
  "lat": 48.9253506,
  "lon": 17.1725332,
  "tags": {
    "name": "Muzeum ve Vagónu",
    "tourism": "museum",
    "website": "http://www.ratiskovka.com/"
  }
},
{
  "type": "node",
  "id": 3216524564,
  "lat": 48.7585644,
  "lon": 16.8817697,
  "tags": {
    "name": "Lichtenštejnský dům",
    "tourism": "museum"
  }
},
{
  "type": "node",
  "id": 3583151105,
  "lat": 49.0735763,
  "lon": 17.4258902,
  "tags": {
    "name": "Netradiční kovová ZOO",
    "short_name": "Kovozoo",
    "source": "survey",
    "tourism": "museum",
    "website": "https://www.kovozoo.cz/"
  }
},
{
  "type": "node",
  "id": 3618170334,
  "lat": 49.0848447,
  "lon": 17.3364916,
  "tags": {
    "name": "Muzeum Podhradí",
    "tourism": "museum",
    "website": "http://www.buchlovice.cz/cz/muzeum-podhradi"
  }
},
{
  "type": "node",
  "id": 3702390342,
  "lat": 48.8622575,
  "lon": 17.0248601,
  "tags": {
    "name": "Muzeum Slovácká chalupa",
    "opening_hours": "Su 15:30-17:30",
    "tourism": "museum"
  }
},
{
  "type": "node",
  "id": 3748655411,
  "lat": 48.8867292,
  "lon": 17.3969355,
  "tags": {
    "name": "Rodný dům bratří Úprků",
    "tourism": "museum"
  }
},
{
  "type": "node",
  "id": 3969471460,
  "lat": 48.8003219,
  "lon": 16.8017930,
  "tags": {
    "name": "Muzeum hraček Lednice",
    "tourism": "museum",
    "website": "http://muzeum-hracek-lednice.cz/"
  }
},
{
  "type": "node",
  "id": 3983773218,
  "lat": 48.9444950,
  "lon": 17.4669592,
  "tags": {
    "addr:city": "Blatnice pod Svatým Antonínkem",
    "addr:housenumber": "850",
    "addr:postcode": "69671",
    "name": "Muzeum Blatnice",
    "tourism": "museum"
  }
},
{
  "type": "node",
  "id": 4973883701,
  "lat": 49.0399023,
  "lon": 16.7700076,
  "tags": {
    "name": "Kovárna",
    "source": "survey",
    "tourism": "museum",
    "website": "http://www.technicalmuseum.cz/pamatky/kovarna-tesanech/"
  }
},
{
  "type": "node",
  "id": 5001865891,
  "lat": 49.0843026,
  "lon": 17.3423159,
  "tags": {
    "tourism": "museum"
  }
},
{
  "type": "node",
  "id": 5063649176,
  "lat": 48.8806074,
  "lon": 17.1828371,
  "tags": {
    "name": "Obecní muzeum Rohatec",
    "tourism": "museum"
  }
},
{
  "type": "node",
  "id": 5982733261,
  "lat": 49.0803176,
  "lon": 17.4448001,
  "tags": {
    "name": "Isabelia Bonsai museum",
    "tourism": "museum"
  }
},
{
  "type": "node",
  "id": 5982754269,
  "lat": 49.0811556,
  "lon": 17.4323943,
  "tags": {
    "name": "Človíčkova stezka",
    "tourism": "museum"
  }
},
{
  "type": "node",
  "id": 5982884792,
  "lat": 49.0675781,
  "lon": 17.4595362,
  "tags": {
    "name": "Uherské Hradiště - město královské",
    "opening_hours": "Mo,We 08:00-17:00; Tu 08:00-15:30; Th 08:00-15:00; Fr 08:00-14:00",
    "tourism": "museum"
  }
},
{
  "type": "node",
  "id": 5983120784,
  "lat": 49.0398619,
  "lon": 17.4668603,
  "tags": {
    "name": "Památkový domek - lidová architektura",
    "tourism": "museum"
  }
},
{
  "type": "node",
  "id": 6002641817,
  "lat": 49.2779394,
  "lon": 17.1735128,
  "tags": {
    "name": "Muzeum pohraniční stráže a SNB",
    "operator": "František Kotek",
    "phone": "+420 582 388 704",
    "tourism": "museum"
  }
},
{
  "type": "node",
  "id": 6036585757,
  "lat": 49.0718576,
  "lon": 17.4891482,
  "tags": {
    "name": "Muzeum v přírodě Rochus",
    "tourism": "museum"
  }
},
{
  "type": "node",
  "id": 6201182299,
  "lat": 48.9890096,
  "lon": 17.1648845,
  "tags": {
    "description": "Příznivce vojenské historie a techniky nadchne expozice ve vlkošském military muzeu, které nese jméno zdejšího rodáka,armádního generála a ministra obrany exilové vlády v Londýně, Sergěje Jana Ingra.",
    "name": "Military muzeum generála Sergěje Jana Ingra Vlkoš",
    "tourism": "museum"
  }
},
{
  "type": "node",
  "id": 6420332977,
  "lat": 48.9447090,
  "lon": 17.1758590,
  "tags": {
    "tourism": "museum"
  }
},
{
  "type": "way",
  "id": 37741687,
  "nodes": [
    5669846550,
    5669846549,
    5669846548,
    5669846547,
    442675950,
    451838044,
    451838046,
    451838047,
    5669846546,
    5669846545,
    2278805458,
    2278805459,
    451838048,
    442675958,
    442675959,
    5669846544,
    5669846543,
    451838051,
    5669846550
  ],
  "tags": {
    "addr:conscriptionnumber": "179",
    "addr:country": "CZ",
    "addr:housenumber": "179",
    "addr:place": "Uherské Hradiště",
    "addr:postcode": "68601",
    "addr:street": "Smetanovy sady",
    "building": "yes",
    "building:levels": "1",
    "building:ruian:type": "19",
    "name": "Slovácké muzeum",
    "opening_hours": "Mo-Su 09:00-12:00,12:30-17:00",
    "ref:ruian:addr": "25401050",
    "ref:ruian:building": "24929140",
    "source": "cuzk:ruian",
    "start_date": "2001-06-04",
    "tourism": "museum"
  }
},
{
  "type": "way",
  "id": 40674363,
  "nodes": [
    494015891,
    494015892,
    494015895,
    494015897,
    494015899,
    494015901,
    494015903,
    494015904,
    494015907,
    4858131117,
    494015908,
    494015910,
    494015913,
    494015914,
    494015918,
    494015920,
    494015922,
    4858131118,
    494015925,
    494015929,
    494015938,
    494015947,
    494015951,
    494015954,
    494015957,
    494015959,
    494015960,
    494015891
  ],
  "tags": {
    "building": "yes",
    "name": "Slovácké muzeum - galerie",
    "opening_hours": "Mo-Su 09:00-12:00,12:30-17:00",
    "source": "cuzk:km",
    "tourism": "museum"
  }
},
{
  "type": "way",
  "id": 82555501,
  "nodes": [
    960771226,
    5605218715,
    5605218714,
    5605218709,
    5605218708,
    5605218633,
    5605218706,
    5605218707,
    5605218712,
    5605218713,
    5605218716,
    960771247,
    960771232,
    960771226
  ],
  "tags": {
    "building": "civic",
    "building:ruian:type": "5",
    "name": "Památník Velké Moravy",
    "operator": "Slovácké muzeum v Uherském Hradišti",
    "ref:ruian:building": "30680379",
    "source": "cuzk:ruian",
    "toilets:wheelchair": "yes",
    "tourism": "museum",
    "website": "http://www.slovackemuzeum.cz/doc/8/",
    "wheelchair": "yes"
  }
},
{
  "type": "way",
  "id": 94121682,
  "nodes": [
    1094082907,
    1094082467,
    1094083535,
    1094083940,
    1094082907
  ],
  "tags": {
    "building:part": "yes",
    "name": "Muzeum Brněnska",
    "source": "cuzk:km;uhul:ortofoto",
    "tourism": "museum"
  }
},
{
  "type": "way",
  "id": 106904616,
  "nodes": [
    1229258742,
    1229258737,
    1229258755,
    1229258764,
    1229258756,
    1229258739,
    4114948270,
    4114948269,
    5166399776,
    4114948271,
    4114948272,
    1229258766,
    1229258758,
    1229258742
  ],
  "tags": {
    "addr:conscriptionnumber": "200",
    "addr:housenumber": "200",
    "addr:place": "Prace",
    "addr:postcode": "66458",
    "building": "museum",
    "building:levels": "1",
    "building:ruian:type": "3",
    "email": "mohyla-miru@muzeumbrnenska.cz",
    "information": "office",
    "name": "Mohyla míru",
    "name:cs": "Mohyla míru",
    "name:de": "Grabhügel des Friedens",
    "name:en": "Museum of Brno (Battle of Austerlitz 1805)",
    "operator": "Muzeum Brněnska",
    "ref:ruian:addr": "24145301",
    "ref:ruian:building": "23759399",
    "source": "survey",
    "toilets": "yes",
    "toilets:wheelchair": "designated",
    "tourism": "museum",
    "wheelchair": "yes"
  }
},
{
  "type": "way",
  "id": 124092215,
  "nodes": [
    4832367929,
    1382030223,
    1382030205,
    4832367928,
    4832367927,
    1382030156,
    1382030149,
    4832367926,
    1382029941,
    1382029915,
    4832367925,
    1382030160,
    4832367924,
    4832367929
  ],
  "tags": {
    "building": "house",
    "building:flats": "1",
    "building:ruian:type": "7",
    "name": "Rolnický dům č.p. 57",
    "ref:ruian:building": "4650433",
    "source": "cuzk:ruian",
    "tourism": "museum"
  }
},
{
  "type": "way",
  "id": 127636203,
  "nodes": [
    1412196882,
    1412196877,
    1412196841,
    1412196822,
    1412196857,
    1412196876,
    1412196881,
    1412196869,
    1412196803,
    2603361682,
    1412196819,
    1412196854,
    1412196853,
    1412196859,
    1412196856,
    1412196882
  ],
  "tags": {
    "addr:conscriptionnumber": "169",
    "addr:country": "CZ",
    "addr:housenumber": "169",
    "addr:place": "Morkovice",
    "addr:postcode": "76833",
    "addr:street": "Nádražní",
    "building": "yes",
    "name": "Košíkářské muzeum",
    "ref:ruian:addr": "10276262",
    "source": "cuzk:km",
    "tourism": "museum"
  }
},
{
  "type": "way",
  "id": 168213588,
  "nodes": [
    1794999343,
    1794999326,
    1794999377,
    3578315294,
    1794999400,
    3578315611,
    1794999395,
    1794999343
  ],
  "tags": {
    "barrier": "fence",
    "name": "Air Museum",
    "tourism": "museum"
  }
},
{
  "type": "way",
  "id": 170155990,
  "nodes": [
    5297224789,
    1813100978,
    5297224788,
    5297224787,
    5297224786,
    5297224785,
    5297224784,
    5297224783,
    5297224782,
    5297224781,
    5297224780,
    5297224779,
    5297224778,
    1813101102,
    5297224777,
    1435623349,
    1435623348,
    1813101038,
    1813101054,
    1813101064,
    1813100992,
    1813101058,
    1813100959,
    1813101025,
    5297224776,
    5297224775,
    5297224774,
    5297224773,
    5297224789
  ],
  "tags": {
    "building": "civic",
    "building:ruian:type": "5",
    "name": "Muzeum Vyškovska",
    "ref:ruian:building": "25680528",
    "source": "cuzk:ruian",
    "start_date": "2002-03-18",
    "tourism": "museum"
  }
},
{
  "type": "way",
  "id": 170612426,
  "nodes": [
    1817800012,
    1814795325,
    1814795278,
    1814791992,
    1814795238,
    1817800030,
    1817800018,
    370202681,
    370202674,
    1817800034,
    1817800043,
    1817800016,
    1817800015,
    1817800007,
    1476940662,
    1817800011,
    1817800009,
    1817799999,
    1817799970,
    1817799935,
    1817799903,
    1817799878,
    1817799843,
    1817799825,
    2511435626,
    2511435621,
    2511435614,
    1817799818,
    1817799821,
    1817799852,
    1817799866,
    1817799881,
    1817799884,
    1817799912,
    1817799934,
    1817799942,
    1817799958,
    1817799995,
    1817800012
  ],
  "tags": {
    "attraction": "museum",
    "contact:phone": "+420518332173",
    "contact:website": "www.skanzen.nulk.cz",
    "fee:adult": "80",
    "loc_name": "Skanzen",
    "name": "Skanzen Strážnice",
    "official_name": "Skanzen - Muzeum vesnice jihovychodni Moravy",
    "operator": "Narodni ustav lidove kultury",
    "short_name": "Skanzen",
    "tourism": "museum"
  }
},
{
  "type": "way",
  "id": 178066958,
  "nodes": [
    1884457699,
    6509026436,
    1890404033,
    6509026435,
    6509026434,
    1890404031,
    6509026433,
    1884457697,
    6509026432,
    1884457701,
    1884457700,
    6509026431,
    6509026430,
    6509026429,
    6509026428,
    1884457703,
    1884457698,
    1890404025,
    1890404020,
    1890404015,
    1890404022,
    1884457688,
    1890404006,
    1890404004,
    1890404013,
    1890404014,
    1884457694,
    1884457699
  ],
  "tags": {
    "addr:conscriptionnumber": "70",
    "addr:housenumber": "70/13",
    "addr:place": "Kyjov",
    "addr:postcode": "69701",
    "addr:street": "třída Palackého",
    "addr:streetnumber": "13",
    "building": "civic",
    "building:levels": "3",
    "building:ruian:type": "15",
    "designation": "City Museum, renaissance manor house",
    "name": "Vlastivědné muzeum Kyjov",
    "ref:ruian:addr": "13688987",
    "ref:ruian:building": "13599127",
    "source": "cuzk:ruian",
    "start_date": "2019-03-29",
    "tourism": "museum"
  }
},
{
  "type": "way",
  "id": 199106273,
  "nodes": [
    2091479065,
    2091479056,
    2091479054,
    2091479063,
    2091479065
  ],
  "tags": {
    "building": "yes",
    "name": "technické muzeum v Brně - Větrný mlýn v Kuželově",
    "opening_hours": "10:00-12:00,13:00-17:00",
    "source": "cuzk:km",
    "tourism": "museum",
    "website": "http://www.technicalmuseum.cz/kuelov-submenu-pamatky-53",
    "wikidata": "Q1571009",
    "wikipedia": "cs:Kuželov"
  }
},
{
  "type": "way",
  "id": 249908240,
  "nodes": [
    2564451912,
    2564451910,
    2564451875,
    2564451866,
    2564451897,
    2564451902,
    2564451889,
    2564451891,
    2564451933,
    2564451940,
    2564451920,
    2564451923,
    2564451912
  ],
  "tags": {
    "building": "residential",
    "building:levels": "1",
    "building:ruian:type": "3",
    "name": "Masarykovo Muzeum v Hodoníně",
    "ref:ruian:building": "22813985",
    "source": "cuzk:ruian",
    "tourism": "museum",
    "website": "http://www.masaryk.info/masarykovo-muzeum-hodonin/"
  }
},
{
  "type": "way",
  "id": 351891975,
  "nodes": [
    3576944766,
    3576945018,
    3576944763,
    3576944709,
    3576944766
  ],
  "tags": {
    "addr:city": "Břeclav",
    "addr:postcode": "69002",
    "addr:street": "Sady 28. října",
    "building": "yes",
    "email": "velo.fata@seznam.cz",
    "museum": "bicycle",
    "name": "Velo pavilon",
    "opening_hours": "Mo-Fr 09:00-17:00; Sa 09:00-12:00",
    "operator": "Velo - Faťa",
    "phone": "+420 777 595 502",
    "ref:ruian:building": "50449800",
    "source": "cuzk:ruian",
    "tourism": "museum",
    "website": "https://breclav.eu/kultura/kultura/cyklomuzeum"
  }
},
{
  "type": "way",
  "id": 402678838,
  "nodes": [
    4050696489,
    6225807497,
    4050696490,
    6225676425,
    6225676424,
    6225676423,
    4050696491,
    4050696492,
    4050696493,
    4050696489
  ],
  "tags": {
    "barrier": "fence",
    "leisure": "garden",
    "name": "Muzeum lesnictví a myslivosti Chřibů",
    "tourism": "museum"
  }
},
{
  "type": "way",
  "id": 484548631,
  "nodes": [
    4859298276,
    4772964196,
    4859298275,
    4859298274,
    6409698470,
    4859298273,
    4859298272,
    4772964195,
    4859298271,
    4859298270,
    4859298269,
    4859298268,
    4772964200,
    4859298267,
    4859298266,
    6409698469,
    4859298265,
    4859298264,
    4772964199,
    4859298263,
    4859298262,
    4859298261,
    4772964198,
    4859298260,
    4859298259,
    4859298258,
    4859298257,
    4772964197,
    4859298256,
    4859298255,
    4859298276
  ],
  "tags": {
    "building": "yes",
    "building:levels": "3",
    "building:ruian:type": "19",
    "name": "Centrum slováckých tradic",
    "ref:ruian:building": "80317731",
    "source": "cuzk:ruian",
    "start_date": "2015-09-11",
    "tourism": "museum"
  }
},
{
  "type": "relation",
  "id": 1424218,
  "members": [
    {
      "type": "way",
      "ref": 99500883,
      "role": "inner"
    },
    {
      "type": "way",
      "ref": 99500951,
      "role": "outer"
    }
  ],
  "tags": {
    "building": "yes",
    "historic": "castle",
    "name": "zámek Ždánice - Vrbasovo muzeum",
    "source": "cuzk:km;knowledge",
    "tourism": "museum",
    "type": "multipolygon"
  }
},
{
  "type": "relation",
  "id": 2954277,
  "members": [
    {
      "type": "node",
      "ref": 2316888448,
      "role": "label"
    },
    {
      "type": "way",
      "ref": 170612426,
      "role": "perimeter"
    },
    {
      "type": "node",
      "ref": 370202678,
      "role": "entrance"
    }
  ],
  "tags": {
    "attraction": "museum",
    "contact:phone": "+420518332173",
    "contact:website": "www.skanzen.nulk.cz",
    "fee:adult": "80 CZK",
    "loc_name": "Skanzen",
    "name": "Skanzen Strážnice",
    "official_name": "Skanzen - Muzeum vesnice jihovychodni Moravy",
    "operator": "Národní ústav lidové kultury",
    "short_name": "Skanzen",
    "site": "museum",
    "tourism": "museum",
    "type": "site"
  }
},
{
  "type": "node",
  "id": 1229258737,
  "lat": 49.1281047,
  "lon": 16.7632260
},
{
  "type": "node",
  "id": 1229258739,
  "lat": 49.1278632,
  "lon": 16.7626844
},
{
  "type": "node",
  "id": 1229258742,
  "lat": 49.1281514,
  "lon": 16.7630609
},
{
  "type": "node",
  "id": 1229258755,
  "lat": 49.1279463,
  "lon": 16.7631291
},
{
  "type": "node",
  "id": 1229258756,
  "lat": 49.1278177,
  "lon": 16.7628512
},
{
  "type": "node",
  "id": 1229258758,
  "lat": 49.1282179,
  "lon": 16.7631028
},
{
  "type": "node",
  "id": 1229258764,
  "lat": 49.1279923,
  "lon": 16.7629609
},
{
  "type": "node",
  "id": 1229258766,
  "lat": 49.1282635,
  "lon": 16.7629354
},
{
  "type": "node",
  "id": 4114948269,
  "lat": 49.1279151,
  "lon": 16.7627282
},
{
  "type": "node",
  "id": 4114948270,
  "lat": 49.1279177,
  "lon": 16.7627186
},
{
  "type": "node",
  "id": 4114948271,
  "lat": 49.1282051,
  "lon": 16.7629114
},
{
  "type": "node",
  "id": 4114948272,
  "lat": 49.1282081,
  "lon": 16.7629005
},
{
  "type": "node",
  "id": 5166399776,
  "lat": 49.1280617,
  "lon": 16.7628208
},
{
  "type": "node",
  "id": 1094082467,
  "lat": 49.1693847,
  "lon": 16.7270720
},
{
  "type": "node",
  "id": 1094082907,
  "lat": 49.1693226,
  "lon": 16.7269555
},
{
  "type": "node",
  "id": 1094083535,
  "lat": 49.1692319,
  "lon": 16.7272859
},
{
  "type": "node",
  "id": 1094083940,
  "lat": 49.1691586,
  "lon": 16.7271686
},
{
  "type": "node",
  "id": 3576944709,
  "lat": 48.7544888,
  "lon": 16.8911482
},
{
  "type": "node",
  "id": 3576944763,
  "lat": 48.7545894,
  "lon": 16.8914211
},
{
  "type": "node",
  "id": 3576944766,
  "lat": 48.7545914,
  "lon": 16.8910621
},
{
  "type": "node",
  "id": 3576945018,
  "lat": 48.7546917,
  "lon": 16.8913354
},
{
  "type": "node",
  "id": 2564451866,
  "lat": 48.8465370,
  "lon": 17.1271745
},
{
  "type": "node",
  "id": 2564451875,
  "lat": 48.8465986,
  "lon": 17.1274802
},
{
  "type": "node",
  "id": 2564451889,
  "lat": 48.8466852,
  "lon": 17.1272305
},
{
  "type": "node",
  "id": 2564451891,
  "lat": 48.8466991,
  "lon": 17.1273099
},
{
  "type": "node",
  "id": 2564451897,
  "lat": 48.8467346,
  "lon": 17.1270851
},
{
  "type": "node",
  "id": 2564451902,
  "lat": 48.8467559,
  "lon": 17.1272001
},
{
  "type": "node",
  "id": 2564451910,
  "lat": 48.8467848,
  "lon": 17.1273982
},
{
  "type": "node",
  "id": 2564451912,
  "lat": 48.8467891,
  "lon": 17.1274212
},
{
  "type": "node",
  "id": 2564451920,
  "lat": 48.8468091,
  "lon": 17.1273875
},
{
  "type": "node",
  "id": 2564451923,
  "lat": 48.8468133,
  "lon": 17.1274088
},
{
  "type": "node",
  "id": 2564451933,
  "lat": 48.8469097,
  "lon": 17.1272191
},
{
  "type": "node",
  "id": 2564451940,
  "lat": 48.8469327,
  "lon": 17.1273332
},
{
  "type": "node",
  "id": 1150908351,
  "lat": 49.0652140,
  "lon": 17.0249650
},
{
  "type": "node",
  "id": 1150908536,
  "lat": 49.0648780,
  "lon": 17.0250440
},
{
  "type": "node",
  "id": 1150908693,
  "lat": 49.0649560,
  "lon": 17.0256780
},
{
  "type": "node",
  "id": 1150908766,
  "lat": 49.0648560,
  "lon": 17.0251230
},
{
  "type": "node",
  "id": 1150908840,
  "lat": 49.0647980,
  "lon": 17.0251840
},
{
  "type": "node",
  "id": 1150909007,
  "lat": 49.0648830,
  "lon": 17.0253380
},
{
  "type": "node",
  "id": 1150909125,
  "lat": 49.0649560,
  "lon": 17.0256300
},
{
  "type": "node",
  "id": 1150909191,
  "lat": 49.0649090,
  "lon": 17.0250960
},
{
  "type": "node",
  "id": 1150909286,
  "lat": 49.0650360,
  "lon": 17.0254500
},
{
  "type": "node",
  "id": 1150909297,
  "lat": 49.0649140,
  "lon": 17.0256700
},
{
  "type": "node",
  "id": 1150909349,
  "lat": 49.0648660,
  "lon": 17.0250800
},
{
  "type": "node",
  "id": 1150909365,
  "lat": 49.0653390,
  "lon": 17.0254110
},
{
  "type": "node",
  "id": 1150909380,
  "lat": 49.0653100,
  "lon": 17.0254710
},
{
  "type": "node",
  "id": 1150909422,
  "lat": 49.0647930,
  "lon": 17.0251510
},
{
  "type": "node",
  "id": 1150909494,
  "lat": 49.0652230,
  "lon": 17.0249230
},
{
  "type": "node",
  "id": 1150909562,
  "lat": 49.0648340,
  "lon": 17.0251700
},
{
  "type": "node",
  "id": 1150909696,
  "lat": 49.0648880,
  "lon": 17.0254480
},
{
  "type": "node",
  "id": 1150909780,
  "lat": 49.0648350,
  "lon": 17.0251090
},
{
  "type": "node",
  "id": 1150909882,
  "lat": 49.0651510,
  "lon": 17.0251450
},
{
  "type": "node",
  "id": 1150910008,
  "lat": 49.0649810,
  "lon": 17.0256950
},
{
  "type": "node",
  "id": 1150910055,
  "lat": 49.0648630,
  "lon": 17.0253530
},
{
  "type": "node",
  "id": 1150910129,
  "lat": 49.0653190,
  "lon": 17.0254200
},
{
  "type": "node",
  "id": 1150910144,
  "lat": 49.0649510,
  "lon": 17.0256510
},
{
  "type": "node",
  "id": 1150910227,
  "lat": 49.0649010,
  "lon": 17.0250640
},
{
  "type": "node",
  "id": 1150910338,
  "lat": 49.0652030,
  "lon": 17.0253530
},
{
  "type": "node",
  "id": 1150910353,
  "lat": 49.0649230,
  "lon": 17.0256880
},
{
  "type": "node",
  "id": 1150910425,
  "lat": 49.0648750,
  "lon": 17.0251160
},
{
  "type": "node",
  "id": 1150910471,
  "lat": 49.0653330,
  "lon": 17.0254850
},
{
  "type": "node",
  "id": 1150910518,
  "lat": 49.0647880,
  "lon": 17.0251680
},
{
  "type": "node",
  "id": 1150910635,
  "lat": 49.0651930,
  "lon": 17.0248990
},
{
  "type": "node",
  "id": 1150910740,
  "lat": 49.0648440,
  "lon": 17.0251790
},
{
  "type": "node",
  "id": 1150910833,
  "lat": 49.0649090,
  "lon": 17.0254360
},
{
  "type": "node",
  "id": 1150910884,
  "lat": 49.0651790,
  "lon": 17.0249380
},
{
  "type": "node",
  "id": 1150910962,
  "lat": 49.0649850,
  "lon": 17.0252430
},
{
  "type": "node",
  "id": 1150910976,
  "lat": 49.0649190,
  "lon": 17.0256560
},
{
  "type": "node",
  "id": 1150911037,
  "lat": 49.0653460,
  "lon": 17.0254500
},
{
  "type": "node",
  "id": 1150911058,
  "lat": 49.0649910,
  "lon": 17.0256540
},
{
  "type": "node",
  "id": 1150911097,
  "lat": 49.0648240,
  "lon": 17.0251450
},
{
  "type": "node",
  "id": 2501741610,
  "lat": 49.0651572,
  "lon": 17.0255587
},
{
  "type": "node",
  "id": 1884457688,
  "lat": 49.0092250,
  "lon": 17.1285143
},
{
  "type": "node",
  "id": 1884457694,
  "lat": 49.0093128,
  "lon": 17.1284164
},
{
  "type": "node",
  "id": 1884457697,
  "lat": 49.0093710,
  "lon": 17.1285655
},
{
  "type": "node",
  "id": 1884457698,
  "lat": 49.0093832,
  "lon": 17.1288252
},
{
  "type": "node",
  "id": 1884457699,
  "lat": 49.0093838,
  "lon": 17.1285595
},
{
  "type": "node",
  "id": 1884457700,
  "lat": 49.0093886,
  "lon": 17.1286478
},
{
  "type": "node",
  "id": 1884457701,
  "lat": 49.0094010,
  "lon": 17.1286331
},
{
  "type": "node",
  "id": 1884457703,
  "lat": 49.0094392,
  "lon": 17.1287520
},
{
  "type": "node",
  "id": 1890404004,
  "lat": 49.0092283,
  "lon": 17.1284822
},
{
  "type": "node",
  "id": 1890404006,
  "lat": 49.0092349,
  "lon": 17.1285023
},
{
  "type": "node",
  "id": 1890404013,
  "lat": 49.0092680,
  "lon": 17.1284420
},
{
  "type": "node",
  "id": 1890404014,
  "lat": 49.0092734,
  "lon": 17.1284586
},
{
  "type": "node",
  "id": 1890404015,
  "lat": 49.0092765,
  "lon": 17.1286713
},
{
  "type": "node",
  "id": 1890404020,
  "lat": 49.0092914,
  "lon": 17.1287000
},
{
  "type": "node",
  "id": 1890404022,
  "lat": 49.0092945,
  "lon": 17.1286505
},
{
  "type": "node",
  "id": 1890404025,
  "lat": 49.0093094,
  "lon": 17.1286798
},
{
  "type": "node",
  "id": 1890404031,
  "lat": 49.0093775,
  "lon": 17.1285702
},
{
  "type": "node",
  "id": 1890404033,
  "lat": 49.0093827,
  "lon": 17.1285655
},
{
  "type": "node",
  "id": 6509026428,
  "lat": 49.0094136,
  "lon": 17.1286999
},
{
  "type": "node",
  "id": 6509026429,
  "lat": 49.0094134,
  "lon": 17.1286819
},
{
  "type": "node",
  "id": 6509026430,
  "lat": 49.0094110,
  "lon": 17.1286771
},
{
  "type": "node",
  "id": 6509026431,
  "lat": 49.0094054,
  "lon": 17.1286829
},
{
  "type": "node",
  "id": 6509026432,
  "lat": 49.0093694,
  "lon": 17.1285677
},
{
  "type": "node",
  "id": 6509026433,
  "lat": 49.0093755,
  "lon": 17.1285700
},
{
  "type": "node",
  "id": 6509026434,
  "lat": 49.0093796,
  "lon": 17.1285695
},
{
  "type": "node",
  "id": 6509026435,
  "lat": 49.0093813,
  "lon": 17.1285679
},
{
  "type": "node",
  "id": 6509026436,
  "lat": 49.0093836,
  "lon": 17.1285627
},
{
  "type": "node",
  "id": 2091479054,
  "lat": 48.8527279,
  "lon": 17.4960037
},
{
  "type": "node",
  "id": 2091479056,
  "lat": 48.8527449,
  "lon": 17.4960907
},
{
  "type": "node",
  "id": 2091479063,
  "lat": 48.8529159,
  "lon": 17.4959177
},
{
  "type": "node",
  "id": 2091479065,
  "lat": 48.8529339,
  "lon": 17.4959987
},
{
  "type": "node",
  "id": 1817799818,
  "lat": 48.8996644,
  "lon": 17.3050342
},
{
  "type": "node",
  "id": 2511435614,
  "lat": 48.8995554,
  "lon": 17.3051982
},
{
  "type": "node",
  "id": 1817799821,
  "lat": 48.8998691,
  "lon": 17.3049045
},
{
  "type": "node",
  "id": 1817799825,
  "lat": 48.9006373,
  "lon": 17.3070450
},
{
  "type": "node",
  "id": 1817799843,
  "lat": 48.9009483,
  "lon": 17.3078671
},
{
  "type": "node",
  "id": 1817799852,
  "lat": 48.9010158,
  "lon": 17.3047488
},
{
  "type": "node",
  "id": 1817799866,
  "lat": 48.9013843,
  "lon": 17.3046943
},
{
  "type": "node",
  "id": 1817799881,
  "lat": 48.9017135,
  "lon": 17.3044997
},
{
  "type": "node",
  "id": 1817799884,
  "lat": 48.9019125,
  "lon": 17.3042348
},
{
  "type": "node",
  "id": 1817799912,
  "lat": 48.9023723,
  "lon": 17.3032575
},
{
  "type": "node",
  "id": 1817799934,
  "lat": 48.9026812,
  "lon": 17.3051289
},
{
  "type": "node",
  "id": 1817799942,
  "lat": 48.9028245,
  "lon": 17.3062723
},
{
  "type": "node",
  "id": 1817799958,
  "lat": 48.9029374,
  "lon": 17.3067303
},
{
  "type": "node",
  "id": 2511435621,
  "lat": 48.9000811,
  "lon": 17.3059824
},
{
  "type": "node",
  "id": 2511435626,
  "lat": 48.9003769,
  "lon": 17.3064879
},
{
  "type": "node",
  "id": 370202674,
  "lat": 48.9044351,
  "lon": 17.3121462
},
{
  "type": "node",
  "id": 370202678,
  "lat": 48.9043204,
  "lon": 17.3126155
},
{
  "type": "node",
  "id": 370202681,
  "lat": 48.9043354,
  "lon": 17.3120651
},
{
  "type": "node",
  "id": 1476940662,
  "lat": 48.9038118,
  "lon": 17.3122529
},
{
  "type": "node",
  "id": 1814791992,
  "lat": 48.9043491,
  "lon": 17.3110386
},
{
  "type": "node",
  "id": 1814795238,
  "lat": 48.9043905,
  "lon": 17.3115866
},
{
  "type": "node",
  "id": 1814795278,
  "lat": 48.9043406,
  "lon": 17.3109220
},
{
  "type": "node",
  "id": 1814795325,
  "lat": 48.9040010,
  "lon": 17.3099134
},
{
  "type": "node",
  "id": 1817799878,
  "lat": 48.9015369,
  "lon": 17.3094671
},
{
  "type": "node",
  "id": 1817799903,
  "lat": 48.9023040,
  "lon": 17.3109277
},
{
  "type": "node",
  "id": 1817799935,
  "lat": 48.9027382,
  "lon": 17.3115515
},
{
  "type": "node",
  "id": 1817799970,
  "lat": 48.9031821,
  "lon": 17.3121423
},
{
  "type": "node",
  "id": 1817799995,
  "lat": 48.9035346,
  "lon": 17.3085146
},
{
  "type": "node",
  "id": 1817799999,
  "lat": 48.9036283,
  "lon": 17.3121570
},
{
  "type": "node",
  "id": 1817800007,
  "lat": 48.9037224,
  "lon": 17.3125900
},
{
  "type": "node",
  "id": 1817800009,
  "lat": 48.9037305,
  "lon": 17.3120559
},
{
  "type": "node",
  "id": 1817800011,
  "lat": 48.9038342,
  "lon": 17.3121565
},
{
  "type": "node",
  "id": 1817800012,
  "lat": 48.9039801,
  "lon": 17.3098561
},
{
  "type": "node",
  "id": 1817800015,
  "lat": 48.9042447,
  "lon": 17.3130693
},
{
  "type": "node",
  "id": 1817800016,
  "lat": 48.9042844,
  "lon": 17.3129808
},
{
  "type": "node",
  "id": 1817800018,
  "lat": 48.9043146,
  "lon": 17.3119537
},
{
  "type": "node",
  "id": 1817800030,
  "lat": 48.9044036,
  "lon": 17.3117784
},
{
  "type": "node",
  "id": 1817800034,
  "lat": 48.9045202,
  "lon": 17.3122304
},
{
  "type": "node",
  "id": 1817800043,
  "lat": 48.9046028,
  "lon": 17.3123001
},
{
  "type": "node",
  "id": 2316888448,
  "lat": 48.9042591,
  "lon": 17.3124208
},
{
  "type": "node",
  "id": 494015891,
  "lat": 49.0719381,
  "lon": 17.4574902
},
{
  "type": "node",
  "id": 494015892,
  "lat": 49.0719478,
  "lon": 17.4574966
},
{
  "type": "node",
  "id": 494015895,
  "lat": 49.0719436,
  "lon": 17.4575199
},
{
  "type": "node",
  "id": 494015897,
  "lat": 49.0719309,
  "lon": 17.4575133
},
{
  "type": "node",
  "id": 494015899,
  "lat": 49.0718809,
  "lon": 17.4577236
},
{
  "type": "node",
  "id": 494015901,
  "lat": 49.0718906,
  "lon": 17.4577300
},
{
  "type": "node",
  "id": 494015903,
  "lat": 49.0718822,
  "lon": 17.4577681
},
{
  "type": "node",
  "id": 494015904,
  "lat": 49.0718711,
  "lon": 17.4577617
},
{
  "type": "node",
  "id": 494015907,
  "lat": 49.0718397,
  "lon": 17.4578888
},
{
  "type": "node",
  "id": 494015908,
  "lat": 49.0717415,
  "lon": 17.4578339
},
{
  "type": "node",
  "id": 494015910,
  "lat": 49.0717234,
  "lon": 17.4578211
},
{
  "type": "node",
  "id": 494015913,
  "lat": 49.0717331,
  "lon": 17.4577915
},
{
  "type": "node",
  "id": 494015914,
  "lat": 49.0717443,
  "lon": 17.4577978
},
{
  "type": "node",
  "id": 494015918,
  "lat": 49.0717541,
  "lon": 17.4577724
},
{
  "type": "node",
  "id": 494015920,
  "lat": 49.0715408,
  "lon": 17.4576111
},
{
  "type": "node",
  "id": 494015922,
  "lat": 49.0715687,
  "lon": 17.4575114
},
{
  "type": "node",
  "id": 494015925,
  "lat": 49.0716677,
  "lon": 17.4575857
},
{
  "type": "node",
  "id": 494015929,
  "lat": 49.0716732,
  "lon": 17.4575645
},
{
  "type": "node",
  "id": 494015938,
  "lat": 49.0716843,
  "lon": 17.4575602
},
{
  "type": "node",
  "id": 494015947,
  "lat": 49.0716997,
  "lon": 17.4575687
},
{
  "type": "node",
  "id": 494015951,
  "lat": 49.0717039,
  "lon": 17.4575942
},
{
  "type": "node",
  "id": 494015954,
  "lat": 49.0716983,
  "lon": 17.4576090
},
{
  "type": "node",
  "id": 494015957,
  "lat": 49.0717764,
  "lon": 17.4576726
},
{
  "type": "node",
  "id": 494015959,
  "lat": 49.0718376,
  "lon": 17.4574330
},
{
  "type": "node",
  "id": 494015960,
  "lat": 49.0719341,
  "lon": 17.4574968
},
{
  "type": "node",
  "id": 4858131117,
  "lat": 49.0718208,
  "lon": 17.4578782
},
{
  "type": "node",
  "id": 4858131118,
  "lat": 49.0716367,
  "lon": 17.4575624
},
{
  "type": "node",
  "id": 960771226,
  "lat": 49.0785822,
  "lon": 17.4438743
},
{
  "type": "node",
  "id": 960771232,
  "lat": 49.0785272,
  "lon": 17.4435211
},
{
  "type": "node",
  "id": 960771247,
  "lat": 49.0783333,
  "lon": 17.4435900
},
{
  "type": "node",
  "id": 5605218633,
  "lat": 49.0785079,
  "lon": 17.4440342
},
{
  "type": "node",
  "id": 5605218706,
  "lat": 49.0784347,
  "lon": 17.4440605
},
{
  "type": "node",
  "id": 5605218707,
  "lat": 49.0784356,
  "lon": 17.4440702
},
{
  "type": "node",
  "id": 5605218708,
  "lat": 49.0785777,
  "lon": 17.4440092
},
{
  "type": "node",
  "id": 5605218709,
  "lat": 49.0785790,
  "lon": 17.4440223
},
{
  "type": "node",
  "id": 5605218712,
  "lat": 49.0784304,
  "lon": 17.4440726
},
{
  "type": "node",
  "id": 5605218713,
  "lat": 49.0784099,
  "lon": 17.4439321
},
{
  "type": "node",
  "id": 5605218714,
  "lat": 49.0785836,
  "lon": 17.4440209
},
{
  "type": "node",
  "id": 5605218715,
  "lat": 49.0785619,
  "lon": 17.4438784
},
{
  "type": "node",
  "id": 5605218716,
  "lat": 49.0783862,
  "lon": 17.4439388
},
{
  "type": "node",
  "id": 442675950,
  "lat": 49.0672003,
  "lon": 17.4680462
},
{
  "type": "node",
  "id": 442675958,
  "lat": 49.0673316,
  "lon": 17.4677417
},
{
  "type": "node",
  "id": 442675959,
  "lat": 49.0674470,
  "lon": 17.4676175
},
{
  "type": "node",
  "id": 451838044,
  "lat": 49.0671334,
  "lon": 17.4679063
},
{
  "type": "node",
  "id": 451838046,
  "lat": 49.0671895,
  "lon": 17.4678455
},
{
  "type": "node",
  "id": 451838047,
  "lat": 49.0671759,
  "lon": 17.4678192
},
{
  "type": "node",
  "id": 451838048,
  "lat": 49.0672993,
  "lon": 17.4676835
},
{
  "type": "node",
  "id": 451838051,
  "lat": 49.0673954,
  "lon": 17.4670403
},
{
  "type": "node",
  "id": 2278805458,
  "lat": 49.0672767,
  "lon": 17.4677143
},
{
  "type": "node",
  "id": 2278805459,
  "lat": 49.0672747,
  "lon": 17.4677102
},
{
  "type": "node",
  "id": 5669846543,
  "lat": 49.0673983,
  "lon": 17.4670907
},
{
  "type": "node",
  "id": 5669846544,
  "lat": 49.0674189,
  "lon": 17.4670881
},
{
  "type": "node",
  "id": 5669846545,
  "lat": 49.0672458,
  "lon": 17.4677479
},
{
  "type": "node",
  "id": 5669846546,
  "lat": 49.0672438,
  "lon": 17.4677438
},
{
  "type": "node",
  "id": 5669846547,
  "lat": 49.0675279,
  "lon": 17.4676841
},
{
  "type": "node",
  "id": 5669846548,
  "lat": 49.0675285,
  "lon": 17.4675088
},
{
  "type": "node",
  "id": 5669846549,
  "lat": 49.0675173,
  "lon": 17.4675087
},
{
  "type": "node",
  "id": 5669846550,
  "lat": 49.0674922,
  "lon": 17.4670271
},
{
  "type": "node",
  "id": 1382029915,
  "lat": 49.0066149,
  "lon": 17.5831859
},
{
  "type": "node",
  "id": 1382029941,
  "lat": 49.0066364,
  "lon": 17.5832431
},
{
  "type": "node",
  "id": 1382030149,
  "lat": 49.0068203,
  "lon": 17.5830880
},
{
  "type": "node",
  "id": 1382030156,
  "lat": 49.0068217,
  "lon": 17.5830921
},
{
  "type": "node",
  "id": 1382030160,
  "lat": 49.0068289,
  "lon": 17.5830046
},
{
  "type": "node",
  "id": 1382030205,
  "lat": 49.0068719,
  "lon": 17.5830600
},
{
  "type": "node",
  "id": 1382030223,
  "lat": 49.0068864,
  "lon": 17.5830542
},
{
  "type": "node",
  "id": 4832367924,
  "lat": 49.0068137,
  "lon": 17.5829144
},
{
  "type": "node",
  "id": 4832367925,
  "lat": 49.0067261,
  "lon": 17.5830840
},
{
  "type": "node",
  "id": 4832367926,
  "lat": 49.0067113,
  "lon": 17.5831753
},
{
  "type": "node",
  "id": 4832367927,
  "lat": 49.0068223,
  "lon": 17.5830969
},
{
  "type": "node",
  "id": 4832367928,
  "lat": 49.0068727,
  "lon": 17.5830653
},
{
  "type": "node",
  "id": 4832367929,
  "lat": 49.0068612,
  "lon": 17.5828883
},
{
  "type": "node",
  "id": 1435623348,
  "lat": 49.2764634,
  "lon": 16.9976588
},
{
  "type": "node",
  "id": 1435623349,
  "lat": 49.2765305,
  "lon": 16.9975590
},
{
  "type": "node",
  "id": 1813100959,
  "lat": 49.2763983,
  "lon": 16.9970434
},
{
  "type": "node",
  "id": 1813100978,
  "lat": 49.2764582,
  "lon": 16.9967068
},
{
  "type": "node",
  "id": 1813100992,
  "lat": 49.2765997,
  "lon": 16.9972397
},
{
  "type": "node",
  "id": 1813101025,
  "lat": 49.2762946,
  "lon": 16.9968728
},
{
  "type": "node",
  "id": 1813101038,
  "lat": 49.2764613,
  "lon": 16.9976623
},
{
  "type": "node",
  "id": 1813101054,
  "lat": 49.2763911,
  "lon": 16.9976471
},
{
  "type": "node",
  "id": 1813101058,
  "lat": 49.2764405,
  "lon": 16.9969789
},
{
  "type": "node",
  "id": 1813101064,
  "lat": 49.2764010,
  "lon": 16.9975397
},
{
  "type": "node",
  "id": 1813101102,
  "lat": 49.2767339,
  "lon": 16.9971872
},
{
  "type": "node",
  "id": 5297224773,
  "lat": 49.2764025,
  "lon": 16.9967038
},
{
  "type": "node",
  "id": 5297224774,
  "lat": 49.2764128,
  "lon": 16.9967199
},
{
  "type": "node",
  "id": 5297224775,
  "lat": 49.2763265,
  "lon": 16.9968486
},
{
  "type": "node",
  "id": 5297224776,
  "lat": 49.2763188,
  "lon": 16.9968367
},
{
  "type": "node",
  "id": 5297224777,
  "lat": 49.2767560,
  "lon": 16.9972236
},
{
  "type": "node",
  "id": 5297224778,
  "lat": 49.2765168,
  "lon": 16.9968653
},
{
  "type": "node",
  "id": 5297224779,
  "lat": 49.2765222,
  "lon": 16.9968480
},
{
  "type": "node",
  "id": 5297224780,
  "lat": 49.2765228,
  "lon": 16.9968344
},
{
  "type": "node",
  "id": 5297224781,
  "lat": 49.2765214,
  "lon": 16.9968208
},
{
  "type": "node",
  "id": 5297224782,
  "lat": 49.2765180,
  "lon": 16.9968081
},
{
  "type": "node",
  "id": 5297224783,
  "lat": 49.2765127,
  "lon": 16.9967969
},
{
  "type": "node",
  "id": 5297224784,
  "lat": 49.2765058,
  "lon": 16.9967882
},
{
  "type": "node",
  "id": 5297224785,
  "lat": 49.2764977,
  "lon": 16.9967821
},
{
  "type": "node",
  "id": 5297224786,
  "lat": 49.2764888,
  "lon": 16.9967802
},
{
  "type": "node",
  "id": 5297224787,
  "lat": 49.2764799,
  "lon": 16.9967823
},
{
  "type": "node",
  "id": 5297224788,
  "lat": 49.2764447,
  "lon": 16.9967271
},
{
  "type": "node",
  "id": 5297224789,
  "lat": 49.2764300,
  "lon": 16.9966628
},
{
  "type": "node",
  "id": 1794999326,
  "lat": 49.3007289,
  "lon": 17.0235196
},
{
  "type": "node",
  "id": 1794999343,
  "lat": 49.3011838,
  "lon": 17.0213610
},
{
  "type": "node",
  "id": 1794999377,
  "lat": 49.3029012,
  "lon": 17.0249520
},
{
  "type": "node",
  "id": 1794999395,
  "lat": 49.3019485,
  "lon": 17.0220828
},
{
  "type": "node",
  "id": 1794999400,
  "lat": 49.3034436,
  "lon": 17.0234364
},
{
  "type": "node",
  "id": 3578315294,
  "lat": 49.3032930,
  "lon": 17.0238571
},
{
  "type": "node",
  "id": 3578315611,
  "lat": 49.3032559,
  "lon": 17.0232665
},
{
  "type": "node",
  "id": 4050696489,
  "lat": 49.1145246,
  "lon": 17.3012644
},
{
  "type": "node",
  "id": 4050696490,
  "lat": 49.1141725,
  "lon": 17.3014927
},
{
  "type": "node",
  "id": 6225807497,
  "lat": 49.1142643,
  "lon": 17.3014332
},
{
  "type": "node",
  "id": 4050696491,
  "lat": 49.1139708,
  "lon": 17.3016284
},
{
  "type": "node",
  "id": 4050696492,
  "lat": 49.1141696,
  "lon": 17.3022442
},
{
  "type": "node",
  "id": 4050696493,
  "lat": 49.1146859,
  "lon": 17.3019607
},
{
  "type": "node",
  "id": 6225676423,
  "lat": 49.1140569,
  "lon": 17.3015943
},
{
  "type": "node",
  "id": 6225676424,
  "lat": 49.1140701,
  "lon": 17.3016584
},
{
  "type": "node",
  "id": 6225676425,
  "lat": 49.1141926,
  "lon": 17.3015960
},
{
  "type": "node",
  "id": 1412196803,
  "lat": 49.2481646,
  "lon": 17.2078706
},
{
  "type": "node",
  "id": 1412196819,
  "lat": 49.2482584,
  "lon": 17.2076669
},
{
  "type": "node",
  "id": 1412196822,
  "lat": 49.2482625,
  "lon": 17.2079212
},
{
  "type": "node",
  "id": 1412196841,
  "lat": 49.2483019,
  "lon": 17.2078356
},
{
  "type": "node",
  "id": 1412196853,
  "lat": 49.2483294,
  "lon": 17.2077615
},
{
  "type": "node",
  "id": 1412196854,
  "lat": 49.2483349,
  "lon": 17.2077496
},
{
  "type": "node",
  "id": 1412196856,
  "lat": 49.2483323,
  "lon": 17.2078029
},
{
  "type": "node",
  "id": 1412196857,
  "lat": 49.2483408,
  "lon": 17.2080060
},
{
  "type": "node",
  "id": 1412196859,
  "lat": 49.2483441,
  "lon": 17.2077774
},
{
  "type": "node",
  "id": 1412196869,
  "lat": 49.2483487,
  "lon": 17.2080697
},
{
  "type": "node",
  "id": 1412196876,
  "lat": 49.2483688,
  "lon": 17.2079453
},
{
  "type": "node",
  "id": 1412196877,
  "lat": 49.2483740,
  "lon": 17.2079136
},
{
  "type": "node",
  "id": 1412196881,
  "lat": 49.2483936,
  "lon": 17.2079722
},
{
  "type": "node",
  "id": 1412196882,
  "lat": 49.2483942,
  "lon": 17.2078698
},
{
  "type": "node",
  "id": 2603361682,
  "lat": 49.2482005,
  "lon": 17.2077926
},
{
  "type": "node",
  "id": 4772964195,
  "lat": 49.1030053,
  "lon": 17.4087376
},
{
  "type": "node",
  "id": 4772964196,
  "lat": 49.1030185,
  "lon": 17.4089586
},
{
  "type": "node",
  "id": 4772964197,
  "lat": 49.1029705,
  "lon": 17.4092732
},
{
  "type": "node",
  "id": 4772964198,
  "lat": 49.1030935,
  "lon": 17.4093215
},
{
  "type": "node",
  "id": 4772964199,
  "lat": 49.1031630,
  "lon": 17.4089352
},
{
  "type": "node",
  "id": 4772964200,
  "lat": 49.1031486,
  "lon": 17.4087171
},
{
  "type": "node",
  "id": 4859298255,
  "lat": 49.1029744,
  "lon": 17.4092600
},
{
  "type": "node",
  "id": 4859298256,
  "lat": 49.1029726,
  "lon": 17.4092593
},
{
  "type": "node",
  "id": 4859298257,
  "lat": 49.1029797,
  "lon": 17.4092768
},
{
  "type": "node",
  "id": 4859298258,
  "lat": 49.1029801,
  "lon": 17.4092743
},
{
  "type": "node",
  "id": 4859298259,
  "lat": 49.1030850,
  "lon": 17.4093147
},
{
  "type": "node",
  "id": 4859298260,
  "lat": 49.1030845,
  "lon": 17.4093178
},
{
  "type": "node",
  "id": 4859298261,
  "lat": 49.1030958,
  "lon": 17.4093072
},
{
  "type": "node",
  "id": 4859298262,
  "lat": 49.1030909,
  "lon": 17.4093053
},
{
  "type": "node",
  "id": 4859298263,
  "lat": 49.1031521,
  "lon": 17.4089361
},
{
  "type": "node",
  "id": 4859298264,
  "lat": 49.1031624,
  "lon": 17.4089226
},
{
  "type": "node",
  "id": 4859298265,
  "lat": 49.1031586,
  "lon": 17.4089232
},
{
  "type": "node",
  "id": 4859298266,
  "lat": 49.1031463,
  "lon": 17.4087293
},
{
  "type": "node",
  "id": 4859298267,
  "lat": 49.1031494,
  "lon": 17.4087287
},
{
  "type": "node",
  "id": 4859298268,
  "lat": 49.1031413,
  "lon": 17.4087182
},
{
  "type": "node",
  "id": 4859298269,
  "lat": 49.1031416,
  "lon": 17.4087231
},
{
  "type": "node",
  "id": 4859298270,
  "lat": 49.1030137,
  "lon": 17.4087418
},
{
  "type": "node",
  "id": 4859298271,
  "lat": 49.1030135,
  "lon": 17.4087364
},
{
  "type": "node",
  "id": 4859298272,
  "lat": 49.1030062,
  "lon": 17.4087504
},
{
  "type": "node",
  "id": 4859298273,
  "lat": 49.1030096,
  "lon": 17.4087498
},
{
  "type": "node",
  "id": 4859298274,
  "lat": 49.1030222,
  "lon": 17.4089441
},
{
  "type": "node",
  "id": 4859298275,
  "lat": 49.1030176,
  "lon": 17.4089447
},
{
  "type": "node",
  "id": 4859298276,
  "lat": 49.1030248,
  "lon": 17.4089573
},
{
  "type": "node",
  "id": 6409698469,
  "lat": 49.1031480,
  "lon": 17.4087568
},
{
  "type": "node",
  "id": 6409698470,
  "lat": 49.1030111,
  "lon": 17.4087723
},
{
  "type": "way",
  "id": 99500883,
  "nodes": [
    1150910338,
    1150909286,
    1150910962,
    1150909882,
    1150910338
  ]
},
{
  "type": "way",
  "id": 99500951,
  "nodes": [
    1150910471,
    1150909380,
    2501741610,
    1150911058,
    1150910008,
    1150908693,
    1150910353,
    1150909297,
    1150910976,
    1150910144,
    1150909125,
    1150910833,
    1150909696,
    1150910055,
    1150909007,
    1150910740,
    1150909562,
    1150908840,
    1150910518,
    1150909422,
    1150911097,
    1150909780,
    1150908766,
    1150910425,
    1150909349,
    1150908536,
    1150910227,
    1150909191,
    1150910884,
    1150910635,
    1150909494,
    1150908351,
    1150910129,
    1150909365,
    1150911037,
    1150910471
  ]
},
{
  "type": "way",
  "id": 170612426,
  "nodes": [
    1817800012,
    1814795325,
    1814795278,
    1814791992,
    1814795238,
    1817800030,
    1817800018,
    370202681,
    370202674,
    1817800034,
    1817800043,
    1817800016,
    1817800015,
    1817800007,
    1476940662,
    1817800011,
    1817800009,
    1817799999,
    1817799970,
    1817799935,
    1817799903,
    1817799878,
    1817799843,
    1817799825,
    2511435626,
    2511435621,
    2511435614,
    1817799818,
    1817799821,
    1817799852,
    1817799866,
    1817799881,
    1817799884,
    1817799912,
    1817799934,
    1817799942,
    1817799958,
    1817799995,
    1817800012
  ]
}

  ]
}
