{
  "version": 0.6,
  "generator": "Overpass API 0.7.55.9 ab41fea6",
  "osm3s": {
    "timestamp_osm_base": "2020-02-15T13:58:02Z",
    "copyright": "The data included in this document is from www.openstreetmap.org. The data is made available under ODbL."
  },
  "elements": [

{
  "type": "node",
  "id": 26131828,
  "lat": 45.7464306,
  "lon": 4.8359519,
  "tags": {
    "name": "Centre d'Histoire de la Résistance et de la Déportation",
    "phone": "+33 4 78 72 23 11",
    "ref:FR:museofile": "M1034",
    "source": "Ministère de la Culture - base Muséofile - 2019",
    "tourism": "museum",
    "website": "http://www.chrd.lyon.fr",
    "wheelchair": "yes",
    "wikidata": "Q8348"
  }
},
{
  "type": "node",
  "id": 26132177,
  "lat": 45.7499594,
  "lon": 4.8577773,
  "tags": {
    "name": "Musée Africain",
    "phone": "+33 4 78 61 60 98",
    "tourism": "museum",
    "website": "http://www.musee-africain-lyon.org/",
    "wheelchair": "no",
    "wikidata": "Q9494",
    "wikipedia": "fr:Musée africain de Lyon"
  }
},
{
  "type": "node",
  "id": 26132213,
  "lat": 45.7335086,
  "lon": 4.8629827,
  "tags": {
    "name": "Musée urbain Tony Garnier",
    "tourism": "museum",
    "wikidata": "Q3330816"
  }
},
{
  "type": "node",
  "id": 249066761,
  "lat": 45.7305319,
  "lon": 4.7385345,
  "tags": {
    "name": "Centre d'art contemporain du Fort du Bruissin",
    "tourism": "museum"
  }
},
{
  "type": "node",
  "id": 1353763121,
  "lat": 45.9886736,
  "lon": 4.7189195,
  "tags": {
    "name": "Maison du patrimoine de la ville de Villefranche",
    "tourism": "museum"
  }
},
{
  "type": "node",
  "id": 1421012868,
  "lat": 45.7618753,
  "lon": 4.8272985,
  "tags": {
    "name": "Musée Miniature et Cinéma",
    "old_name": "Ancienne Maison des Avocats",
    "opening_hours": "Mo-Fr 10:00-18:30; Sa,Su 10:00-19:00; SH,Mo-Su 10:00-19:00",
    "phone": "+33 4 72002477",
    "tourism": "museum",
    "website": "http://www.mimlyon.com",
    "wikidata": "Q3330257",
    "wikipedia": "fr:Musée des miniatures et décors de cinéma"
  }
},
{
  "type": "node",
  "id": 1460479330,
  "lat": 45.7625393,
  "lon": 4.8727591,
  "tags": {
    "name": "Institut d'art contemporain",
    "name:en": "Institute of Contemporary Art",
    "opening_hours": "we-fr 14:00-18:00, sa-su 13:00-19:00",
    "short_name": "IAC",
    "tourism": "museum",
    "website": "http://i-ac.eu/",
    "wikidata": "Q3151912",
    "wikipedia": "fr:Institut d'art contemporain de Villeurbanne"
  }
},
{
  "type": "node",
  "id": 1563920259,
  "lat": 45.8451623,
  "lon": 4.8370032,
  "tags": {
    "addr:city": "Rochetaillée-sur-Saône",
    "addr:housenumber": "645",
    "addr:postcode": "69270",
    "addr:street": "rue du Musée",
    "charge": "6€",
    "fee": "yes",
    "name": "Musée de l'automobile Henri Malartre",
    "opening_hours": "Jan Sa,Su 10:30-18:00; Feb-Dec Tu-Su 10:30-18:00; Feb-Dec Fr[3] 13:00-18:00; Dec 25,Jan 01 off",
    "payment:cash": "yes",
    "payment:credit_cards": "yes",
    "phone": "+33 4 78 22 18 80",
    "ref:FR:museofile": "M1040",
    "source": "Ministère de la Culture - base Muséofile - 2019, website, local knowledge",
    "tourism": "museum",
    "website": "www.musee-malartre.com/",
    "wheelchair": "limited",
    "wikidata": "Q3329811"
  }
},
{
  "type": "node",
  "id": 1777581773,
  "lat": 45.7566048,
  "lon": 4.8311171,
  "tags": {
    "fixme": "fix name",
    "name": "Fondation Léa et Napoléon Bullukian",
    "opening_hours": "Tu-Fr 14:00-18:30; Sa 13:00-19:00",
    "tourism": "museum",
    "wheelchair": "yes"
  }
},
{
  "type": "node",
  "id": 1789932666,
  "lat": 45.7409879,
  "lon": 4.7367903,
  "tags": {
    "name": "Centre d'initiation à la nature du Grand Moulin",
    "tourism": "museum"
  }
},
{
  "type": "node",
  "id": 2015666834,
  "lat": 45.7000575,
  "lon": 4.8845993,
  "tags": {
    "tourism": "museum"
  }
},
{
  "type": "node",
  "id": 2408586706,
  "lat": 45.7747844,
  "lon": 4.6903230,
  "tags": {
    "email": "museeantoinebrun@ccvl.fr",
    "name": "Musée Antoine Brun",
    "phone": "+33478871551",
    "tourism": "museum"
  }
},
{
  "type": "node",
  "id": 2590579922,
  "lat": 45.7417187,
  "lon": 4.8806183,
  "tags": {
    "name": "Musée Testut-Latarjet",
    "tourism": "museum",
    "wikidata": "Q3329362",
    "wikipedia": "fr:Musée Testut-Latarjet"
  }
},
{
  "type": "node",
  "id": 2590579928,
  "lat": 45.7414332,
  "lon": 4.8805413,
  "tags": {
    "name": "Musée d'histoire de la médecine et de la pharmacie de Lyon",
    "tourism": "museum",
    "wikidata": "Q15402843",
    "wikipedia": "fr:Musée d'histoire de la médecine et de la pharmacie de Lyon"
  }
},
{
  "type": "node",
  "id": 2601095426,
  "lat": 45.8501952,
  "lon": 5.0556450,
  "tags": {
    "alt_name": "Ancien hospice de Montluel et son apothicairerie",
    "name": "Apothicairerie de Montluel",
    "tourism": "museum",
    "wikidata": "Q2845788",
    "wikipedia": "fr:Ancien hospice de Montluel et son apothicairerie"
  }
},
{
  "type": "node",
  "id": 2601095427,
  "lat": 45.8522461,
  "lon": 5.0564136,
  "tags": {
    "name": "Musée d'art et d'histoire locale de Montluel",
    "tourism": "museum",
    "wikidata": "Q3329628",
    "wikipedia": "fr:Musée d'art et d'histoire locale de Montluel"
  }
},
{
  "type": "node",
  "id": 2649845820,
  "lat": 45.9908656,
  "lon": 4.7211731,
  "tags": {
    "contact:phone": "+33 4 74 68 33 70",
    "name": "Musée Paul-Dini",
    "tourism": "museum",
    "website": "http://www.musee-paul-dini.com/",
    "wikidata": "Q16335746"
  }
},
{
  "type": "node",
  "id": 2675390826,
  "lat": 45.5239956,
  "lon": 4.8748576,
  "tags": {
    "addr:city": "Vienne",
    "addr:postcode": "38200",
    "addr:street": "Place de Miremont",
    "name": "Musée des beaux-arts et d'archéologie",
    "phone": "+33 4 74 78 71 04",
    "tourism": "museum",
    "website": "http://www.musees-vienne.fr/",
    "wikidata": "Q3330233"
  }
},
{
  "type": "node",
  "id": 2812916913,
  "lat": 45.7590280,
  "lon": 4.8211073,
  "tags": {
    "addr:city": "Lyon",
    "addr:housenumber": "6",
    "addr:postcode": "69005",
    "addr:street": "Rue de l'Antiquaille",
    "name": "Entrée du musée gallo-romain de Lyon",
    "source": "Grand Lyon - 10/2011",
    "tourism": "museum"
  }
},
{
  "type": "node",
  "id": 3495444181,
  "lat": 45.7088748,
  "lon": 4.5916928,
  "tags": {
    "description": "ouverture: mi-avril à fin octobre : dimanches et jours fériés de 14h à 18h",
    "name": "L'Araire",
    "phone": "+33 4 78810779",
    "source": "knowledge",
    "tourism": "museum",
    "website": "http://www.araire.org/"
  }
},
{
  "type": "node",
  "id": 3822699441,
  "lat": 45.7299317,
  "lon": 4.8280106,
  "tags": {
    "name": "Maison des mathématiques et de l'informatique",
    "opening_hours": "Sa 14:30-16:00,16:15-17:45; We 14:00-15:15,15:30-16:45",
    "tourism": "museum",
    "website": "http://www.mmi-lyon.fr/"
  }
},
{
  "type": "node",
  "id": 3979306157,
  "lat": 45.6443684,
  "lon": 4.4481599,
  "tags": {
    "addr:city": "Pomeys",
    "addr:postcode": "69590",
    "addr:street": "La Neylière",
    "name": "Musée de l'Océanie",
    "tourism": "museum",
    "website": "http://www.musee-oceanie.fr"
  }
},
{
  "type": "node",
  "id": 4003193289,
  "lat": 45.6333214,
  "lon": 4.4549908,
  "tags": {
    "addr:city": "Saint-Symphorien-sur-Coise",
    "addr:postcode": "69590",
    "addr:street": "Rue Henri Petit",
    "name": "Maison des métiers",
    "phone": "+33478486432",
    "tourism": "museum",
    "website": "http://www.maisondesmetiers.fr"
  }
},
{
  "type": "node",
  "id": 4253370505,
  "lat": 45.7212900,
  "lon": 5.2318206,
  "tags": {
    "name": "Minéralogica",
    "tourism": "museum",
    "website": "http://www.mineralogica.com/"
  }
},
{
  "type": "node",
  "id": 4457051377,
  "lat": 45.6536343,
  "lon": 4.9096586,
  "tags": {
    "addr:street": "Rue Nungesser et Coli",
    "contact:email": "guides@ealc.fr",
    "contact:mobile": "+33 7 89 21 22 96",
    "contact:phone": "+33 4 78 90 35 24",
    "contact:website": "http://www.ealc.fr/",
    "name": "Musée de l'Aviation Clément Ader",
    "opening_hours": "Mo, We-Su 14:00-18:00",
    "subject": "aeronautics",
    "tourism": "museum"
  }
},
{
  "type": "node",
  "id": 4485572406,
  "lat": 45.7450881,
  "lon": 4.8706151,
  "tags": {
    "fee": "yes",
    "name": "Institut Lumière",
    "opening_hours": "Tu-Su 10:00-18:30",
    "phone": "+33478781895",
    "tourism": "museum",
    "website": "http://institut-lumiere.org",
    "wikidata": "Q3151766"
  }
},
{
  "type": "node",
  "id": 4603763091,
  "lat": 45.7568424,
  "lon": 4.8433713,
  "tags": {
    "name": "La taverne Gutenberg",
    "opening_hours": "We-Sa 14:00-21:00; Su 14:00-19:00",
    "tourism": "museum",
    "website": "http://www.taverne-gutenberg.com"
  }
},
{
  "type": "node",
  "id": 4885281682,
  "lat": 45.7771060,
  "lon": 4.8336847,
  "tags": {
    "name": "Maison des Canuts",
    "phone": "+33 4 78 28 62 04",
    "tourism": "museum",
    "website": "https://www.maisondescanuts.fr/",
    "wikidata": "Q3279836",
    "wikipedia": "fr:Maison des Canuts"
  }
},
{
  "type": "node",
  "id": 5297358221,
  "lat": 45.7979255,
  "lon": 4.8293795,
  "tags": {
    "addr:housenumber": "1",
    "addr:postcode": "69009",
    "addr:street": "Place Henri Barbusse",
    "name": "Musée Jean Couty",
    "tourism": "museum",
    "wikidata": "Q28973562",
    "wikipedia": "fr:Musée Jean Couty"
  }
},
{
  "type": "node",
  "id": 5830304035,
  "lat": 45.7801248,
  "lon": 4.8353898,
  "tags": {
    "fee": "yes",
    "heritage": "3",
    "heritage:operator": "mhs",
    "mhs:inscription_date": "2013-03-15",
    "name": "Atelier Mattelon",
    "ref:mhs": "PA69000043",
    "source:heritage": "Ministère de la Culture - 07/2018",
    "tourism": "museum",
    "website": "https://www.lyon-france.com/Je-decouvre-Lyon/culture-et-musees/Musees/atelier-de-tissage-mattelon"
  }
},
{
  "type": "node",
  "id": 6005340371,
  "lat": 45.7839828,
  "lon": 4.8078690,
  "tags": {
    "name": "Musée de l’Outillage Jean Butaud",
    "operator": "Confédération des Artisans et des Petites Entreprises du Bâtiment",
    "tourism": "museum"
  }
},
{
  "type": "node",
  "id": 6126712437,
  "lat": 45.7600362,
  "lon": 4.8231111,
  "tags": {
    "name": "Caveau de Saint-Pothin",
    "tourism": "museum"
  }
},
{
  "type": "node",
  "id": 6206054761,
  "lat": 45.7840258,
  "lon": 4.7359961,
  "tags": {
    "name": "Entre'Vue",
    "tourism": "museum"
  }
},
{
  "type": "node",
  "id": 6221619681,
  "lat": 45.7515932,
  "lon": 4.8543123,
  "tags": {
    "description": "Hors horaires pour les groupes sur RDV.",
    "email": "musee.des.moulages@univ-lyon2.fr",
    "fee": "no",
    "name": "Musée des Moulages",
    "opening_hours": "We, Sa 14:00-18:00",
    "operator": "Université Lyon II",
    "phone": "+33 4 87248063",
    "tourism": "museum",
    "wikidata": "Q55598705",
    "wikipedia": "fr:Musée des Moulages (Lyon)"
  }
},
{
  "type": "node",
  "id": 6575800693,
  "lat": 45.7608841,
  "lon": 4.8315623,
  "tags": {
    "name": "Musée des Hospices Civils de Lyon",
    "phone": "+33 7 89 87 01 85;+33 4 72 40 75 74",
    "ref:FR:museofile": "M1039",
    "source": "Ministère de la Culture - base Muséofile - 2019",
    "tourism": "museum",
    "website": "https://www.chu-lyon.fr/fr/musee-des-hcl"
  }
},
{
  "type": "node",
  "id": 6943618299,
  "lat": 45.7596898,
  "lon": 4.8362144,
  "tags": {
    "name": "Cité Internationale de la Gastronomie de Lyon",
    "tourism": "museum",
    "website": "https://citegastronomielyon.fr/"
  }
},
{
  "type": "node",
  "id": 7072949565,
  "lat": 45.8747958,
  "lon": 4.7138475,
  "tags": {
    "addr:housenumber": "1",
    "addr:street": "Allée des Remparts",
    "name": "Musée Chazay d'Azergues",
    "tourism": "museum"
  }
},
{
  "type": "node",
  "id": 7138484294,
  "lat": 45.8144541,
  "lon": 4.7725724,
  "tags": {
    "alt_name": "Musé Manufacture Sève Cacao Collection Chocolat",
    "loc_name": "Musée du chocolat",
    "name": "MUSCO",
    "start_date": "2017",
    "tourism": "museum",
    "wikipedia": "fr: MUSCO"
  }
},
{
  "type": "node",
  "id": 7161092947,
  "lat": 45.6899110,
  "lon": 5.0289877,
  "tags": {
    "name": "Musée de la Photographie Saint-Bonnet-de-Mure",
    "opening_hours": "We 14:30-18:30; Sa 10:00-18:00",
    "tourism": "museum",
    "website": "http://lamaisonphoto.fr/maison-de-la-photographie/"
  }
},
{
  "type": "way",
  "id": 50265723,
  "nodes": [
    638801034,
    638801044,
    638801035,
    638801037,
    638801039,
    638801041,
    638801053,
    2442992182,
    638801034
  ],
  "tags": {
    "alt_name": "Maison Jean Escoffier",
    "building": "yes",
    "heritage": "2",
    "heritage:operator": "mhs",
    "historic": "building",
    "mhs:inscription_date": "1921-11-24",
    "name": "Musée du Vieux Pérouges",
    "phone": "+33 4 74 61 00 88",
    "ref:FR:museofile": "M0970",
    "ref:mhs": "PA00116459",
    "source": "cadastre-dgi-fr source : Direction Générale des Impôts - Cadastre ;mise à jour : 2009;Ministère de la Culture - base Muséofile - 2019",
    "source:heritage": "data.gouv.fr, Ministère de la Culture - 2016",
    "tourism": "museum",
    "website": "www.perouges.org",
    "wikidata": "Q3330404",
    "wikipedia": "fr:Musée du Vieux Pérouges"
  }
},
{
  "type": "way",
  "id": 62271798,
  "nodes": [
    778111805,
    778111770,
    778111966,
    778111847,
    778111817,
    778111800,
    778111630,
    778112006,
    778111494,
    778111744,
    778111773,
    778111478,
    778112040,
    778111805
  ],
  "tags": {
    "alt_name": "Hôtel de la Couronne",
    "building": "yes",
    "contact:website": "http://www.imprimerie.lyon.fr/",
    "heritage": "2",
    "heritage:operator": "mhs",
    "historic": "building",
    "mhs:inscription_date": "1964-09-23",
    "name": "Musée de l'Imprimerie et de la communication graphique",
    "opening_hours": "We-Su 10:30-18:00; Jan 01 off; May 01 off; Nov 01 off; Dec 25 off",
    "opening_hours:url": "http://www.imprimerie.lyon.fr/imprimerie/sections/fr/entete/horaires__acces/",
    "operator": "Ville de Lyon",
    "phone": "+33 4 78 37 65 98",
    "ref:FR:museofile": "M1127",
    "ref:mhs": "PA00117870",
    "tourism": "museum",
    "website": "http://www.imprimerie.lyon.fr/",
    "wikidata": "Q8323",
    "wikipedia": "fr:Musée de l'Imprimerie (Lyon)"
  }
},
{
  "type": "way",
  "id": 62277312,
  "nodes": [
    778138367,
    778138615,
    778136787,
    778137519,
    778138858,
    778137854,
    778139529,
    778137620,
    778136525,
    778138149,
    778137252,
    778138311,
    778139844,
    6679946039,
    778138283,
    778138287,
    778136703,
    778138153,
    778137782,
    778139518,
    778139109,
    778140230,
    778137714,
    778137320,
    6679946042,
    778136524,
    778136974,
    778138008,
    778138364,
    778139930,
    778139909,
    2609630055,
    778138367
  ],
  "tags": {
    "building": "yes",
    "name": "Musée d'Art Contemporain",
    "phone": "+33 4 72 69 17 17",
    "ref:FR:museofile": "M1033",
    "source": "cadastre-dgi-fr source : Direction Générale des Impôts - Cadastre. Mise à jour : 2010",
    "tourism": "museum",
    "website": "http://www.mac-lyon.com/mac/",
    "wheelchair": "yes",
    "wikidata": "Q8330",
    "wikipedia": "fr:Musée d'Art contemporain de Lyon"
  }
},
{
  "type": "way",
  "id": 62348803,
  "nodes": [
    778825449,
    778808470,
    778821460,
    778797268,
    778798426,
    778798745,
    778798347,
    778807504,
    778855716,
    778819561,
    778846950,
    778825512,
    778825449
  ],
  "tags": {
    "name": "Classe musée",
    "source": "cadastre-dgi-fr source : Direction Générale des Impôts - Cadastre. Mise à jour : 2010",
    "tourism": "museum"
  }
},
{
  "type": "way",
  "id": 66674020,
  "nodes": [
    806477683,
    806480173,
    806470288,
    806482354,
    806468603,
    806471538,
    806473552,
    806482516,
    806477028,
    806453536,
    806480997,
    806479469,
    806487476,
    806459573,
    806456414,
    806456590,
    806459353,
    806483632,
    806467499,
    806482465,
    806477683
  ],
  "tags": {
    "building": "yes",
    "name": "Musée de la Blanchisserie",
    "source": "cadastre-dgi-fr source : Direction Générale des Impôts - Cadastre. Mise à jour : 2010",
    "tourism": "museum"
  }
},
{
  "type": "way",
  "id": 82255756,
  "nodes": [
    957886272,
    957886449,
    957886285,
    957886599,
    957886491,
    957886557,
    957886222,
    957886496,
    957886515,
    957886552,
    957886647,
    957886612,
    957886389,
    957886395,
    957886272
  ],
  "tags": {
    "addr:postcode": "69002",
    "building": "yes",
    "name": "Le Rectangle",
    "source": "cadastre-dgi-fr source : Direction Générale des Impôts - Cadastre. Mise à jour : 2010",
    "tourism": "museum"
  }
},
{
  "type": "way",
  "id": 88526510,
  "nodes": [
    1285245030,
    1395390263,
    1028177300,
    1285245023,
    1028177275,
    1028177184,
    6945246776,
    5914739029,
    2810816949,
    4388525949,
    1285245044,
    4388525950,
    4388525948,
    4388525947,
    1395390242,
    1028177265,
    1395390049,
    1395390025,
    4388525943,
    1028177193,
    1285245007,
    1285245050,
    1285245004,
    1285244999,
    1285245006,
    1285245048,
    1285244997,
    1285245005,
    1285245049,
    1285245002,
    1285245028,
    1285244984,
    1285245025,
    1285245030
  ],
  "tags": {
    "alt_name": "Musée Gallo-Romain de Lyon Fourvière",
    "name": "Lugdunum Musée et Théâtres Romains",
    "opening_hours": "Tu-Fr 11:00-18:00; Sa-Su 10:00-18:00",
    "phone": "+33 4 72 38 49 30",
    "ref:FR:museofile": "M1036",
    "tourism": "museum",
    "website": "https://lugdunum.grandlyon.com",
    "wheelchair": "yes",
    "wikidata": "Q509",
    "wikipedia": "fr:Lugdunum (musée)"
  }
},
{
  "type": "way",
  "id": 124653394,
  "nodes": [
    1386771351,
    1386734050,
    1386771400,
    1386733898,
    1386771214,
    1386733888,
    1386733870,
    1386771259,
    1386733903,
    1386771303,
    1386733983,
    1386733994,
    1386771335,
    1386733981,
    1386771351
  ],
  "tags": {
    "building": "yes",
    "name": "Maison des Arts",
    "tourism": "museum",
    "website": "https://www.ville-bron.fr/annuaires/annuaire-des-equipements-culturels/maison-des-arts"
  }
},
{
  "type": "way",
  "id": 125076993,
  "nodes": [
    1390035284,
    1390035014,
    1390035027,
    1390035185,
    1390035189,
    1390035215,
    1390035214,
    1390035288,
    1390035284
  ],
  "tags": {
    "building": "yes",
    "name": "Musée des sapeurs-pompiers de Lyon",
    "phone": "+33 4 72 17 54 54",
    "ref:FR:museofile": "M1128",
    "source": "cadastre-dgi-fr source : Direction Générale des Impôts - Cadastre. Mise à jour : 2011;Ministère de la Culture - base Muséofile - 2019",
    "tourism": "museum",
    "website": "www.museepompiers.com",
    "wikidata": "Q19884277"
  }
},
{
  "type": "way",
  "id": 125690935,
  "nodes": [
    1395391046,
    1395390952,
    1395390954,
    1395390949,
    1395391003,
    1395390987,
    1395390975,
    1395390959,
    1395390818,
    1395390810,
    1395390821,
    1395390819,
    1395390869,
    1395390900,
    1395390981,
    1395391009,
    1395391031,
    1395391042,
    1395391048,
    1395391052,
    1395391044,
    1395391046
  ],
  "tags": {
    "building": "yes",
    "name": "Maison de Pauline Jaricot",
    "source": "cadastre-dgi-fr source : Direction Générale des Impôts - Cadastre. Mise à jour : 2011",
    "tourism": "museum"
  }
},
{
  "type": "way",
  "id": 126571019,
  "nodes": [
    1402805781,
    1402805680,
    1402805682,
    1402805659,
    1402805662,
    1402805568,
    1402805524,
    1402805575,
    1402805595,
    1402805582,
    1402805586,
    1402805590,
    1402805596,
    1402805602,
    1402805604,
    1402805612,
    1402805622,
    1402805627,
    1402805631,
    1402805632,
    1402805629,
    1402805640,
    1402805665,
    1402805664,
    1402805769,
    1402805781
  ],
  "tags": {
    "building": "yes",
    "name": "Musée de sciences biologiques Docteur Mérieux",
    "source": "cadastre-dgi-fr source : Direction Générale des Impôts - Cadastre. Mise à jour : 2011",
    "tourism": "museum",
    "website": "www.musee-docteur-merieux.com",
    "wikidata": "Q18380083"
  }
},
{
  "type": "way",
  "id": 131339005,
  "nodes": [
    1445691952,
    3813255492,
    1445691949,
    1445691948,
    1445691951,
    1445691952
  ],
  "tags": {
    "building": "yes",
    "name": "Musée Gallo-Romain de Saint-Romain-en-Gal",
    "source": "cadastre-dgi-fr source : Direction Générale des Impôts - Cadastre. Mise à jour : 2011",
    "tourism": "museum",
    "wikidata": "Q22968221",
    "wikipedia": "fr:Musée gallo-romain de Saint-Romain-en-Gal"
  }
},
{
  "type": "way",
  "id": 131339006,
  "nodes": [
    1445691945,
    1445691943,
    3813536839,
    3813536840,
    3813536838,
    3813536837,
    3813536836,
    1445691944,
    3379270901,
    1445691942,
    1445691946,
    1445691950,
    3813255470,
    3813255469,
    1445691945
  ],
  "tags": {
    "building": "yes",
    "name": "Musée Gallo-Romain de Saint-Romain-en-Gal",
    "opening_hours": "Tu-Su 10:00-18:00",
    "phone": "+33 4 74 53 74 00",
    "source": "cadastre-dgi-fr source : Direction Générale des Impôts - Cadastre. Mise à jour : 2011",
    "tourism": "museum",
    "website": "http://musee-site.rhone.fr/",
    "wikidata": "Q22968221",
    "wikipedia": "fr:Musée gallo-romain de Saint-Romain-en-Gal"
  }
},
{
  "type": "way",
  "id": 133554699,
  "nodes": [
    1469981200,
    1469981066,
    1469980959,
    1469980967,
    1469980738,
    1469980715,
    1469981180,
    1469981200
  ],
  "tags": {
    "building": "yes",
    "name": "La maison du blanchisseur",
    "source": "cadastre-dgi-fr source : Direction Générale des Impôts - Cadastre. Mise à jour : 2011",
    "tourism": "museum"
  }
},
{
  "type": "way",
  "id": 135880471,
  "nodes": [
    1317726284,
    1317642147,
    1317647527,
    1317710581,
    1317624043,
    1317681377,
    1317726284
  ],
  "tags": {
    "building": "yes",
    "name": "Musée de la Draperie",
    "source": "cadastre-dgi-fr source : Direction Générale des Impôts - Cadastre. Mise à jour : 2011",
    "tourism": "museum",
    "wikidata": "Q3330022",
    "wikipedia": "fr:Musée de la draperie de Vienne"
  }
},
{
  "type": "way",
  "id": 135880564,
  "nodes": [
    1317713263,
    1317627674,
    1326824339,
    1326824342,
    1326824341,
    1326824333,
    1326824331,
    1326824338,
    1326824335,
    1326824326,
    1326824324,
    1326824328,
    1326824327,
    1326824317,
    1326824316,
    1326824323,
    1326824320,
    1326824313,
    1326824315,
    1326824309,
    1326824311,
    1326824303,
    1326824306,
    1326824297,
    1326824300,
    1326824292,
    1326824294,
    1326824289,
    1326824291,
    1326824285,
    1326824287,
    1326824282,
    1326824283,
    1326824280,
    1326824278,
    1326824277,
    1326824275,
    1326824274,
    1326824273,
    1326824271,
    1326824269,
    1326824267,
    1326824265,
    1326824263,
    1326824261,
    1326824259,
    1326824258,
    1326824256,
    1326824254,
    1326823992,
    1326823991,
    1326823990,
    1326823989,
    1326823980,
    1326823979,
    1326823978,
    1326823977,
    1326823976,
    1326823975,
    1326823974,
    1326823972,
    1326823964,
    1326823963,
    1326823962,
    1491460212,
    1317713263
  ],
  "tags": {
    "alt_name": "Ancienne Eglise Saint-Pierre-le-Bas",
    "building": "church",
    "heritage": "2",
    "heritage:operator": "mhs",
    "mhs:inscription_date": "1862",
    "name": "Musée archéologique Saint-Pierre de Vienne",
    "phone": "+33 4 74 85 20 35",
    "ref:mhs": "PA00117326",
    "source:heritage": "data.gouv.fr, Ministère de la Culture - 2016",
    "tourism": "museum",
    "website": "http://www.vienne-tourisme.com/fiche-presentation_patrimoine_culturel-59-FR-U-38AASOR100164-PATRIMOINE.html",
    "wikidata": "Q3584158",
    "wikipedia": "fr:Église Saint-Pierre de Vienne (Isère)"
  }
},
{
  "type": "way",
  "id": 136895959,
  "nodes": [
    1501824172,
    1501824187,
    1501824250,
    1501824254,
    1501824261,
    1501824525,
    1501824548,
    1501824537,
    1501824467,
    1501824435,
    1501824483,
    1501824473,
    1501824513,
    1501824495,
    1501824415,
    1501824407,
    1501824404,
    1501824394,
    1501824339,
    1501824337,
    1501824102,
    1501824115,
    1501823928,
    1501823930,
    1501824172
  ],
  "tags": {
    "building": "yes",
    "name": "Musée de la Mine et de la minéralogie",
    "source": "cadastre-dgi-fr source : Direction Générale des Impôts - Cadastre. Mise à jour : 2011",
    "tourism": "museum"
  }
},
{
  "type": "way",
  "id": 143835284,
  "nodes": [
    1573996587,
    1573996694,
    1573996705,
    1573996588,
    1573995949,
    1573995919,
    1573995933,
    1573996563,
    1573996664,
    1573997505,
    1573997435,
    1573997459,
    1573997438,
    1573997405,
    1573997075,
    1573996421,
    1573996101,
    1573996046,
    1573996587
  ],
  "tags": {
    "building": "yes",
    "name": "Historial du Saint-Curé d'Ars",
    "note": "Musée de Cires Grévin",
    "source": "cadastre-dgi-fr source : Direction Générale des Impôts - Cadastre. Mise à jour : 2012",
    "tourism": "museum",
    "wikidata": "Q3138340"
  }
},
{
  "type": "way",
  "id": 143835295,
  "nodes": [
    1573997826,
    1573997831,
    1573998217,
    1573998214,
    1573998448,
    1573998452,
    1573998370,
    1573998366,
    1573997909,
    1573997906,
    1573997851,
    1573997854,
    5469263194,
    1573998640,
    1573998639,
    1573998562,
    1573998555,
    1573998240,
    1573998235,
    1573998115,
    1573998118,
    1573997826
  ],
  "tags": {
    "amenity": "monastery",
    "building": "convent",
    "community": "BSCM",
    "community:fr": "Bénédictines du Sacré-Cœur de Montmartre",
    "denomination": "catholic",
    "heritage": "3",
    "heritage:operator": "mhs",
    "mhs:inscription_date": "1966",
    "name": "Maison du Saint-Curé-d'Ars",
    "ref:mhs": "PA00116295",
    "religion": "christian",
    "source": "cadastre-dgi-fr source : Direction Générale des Impôts - Cadastre. Mise à jour : 2012",
    "source:heritage": "data.gouv.fr, Ministère de la Culture - 2016",
    "tourism": "museum",
    "wikidata": "Q3402367",
    "wikipedia": "fr:Presbytère du curé d'Ars"
  }
},
{
  "type": "way",
  "id": 188157107,
  "nodes": [
    957899550,
    1603479143,
    957899957,
    957899609,
    957899970,
    957899942,
    957899886,
    957899655,
    957900096,
    957899692,
    957900000,
    957899958,
    957900061,
    957899798,
    957899584,
    957899938,
    957899911,
    957899582,
    957899818,
    957899797,
    957899624,
    957899950,
    957900034,
    957900059,
    957900023,
    957899613,
    957899704,
    957899712,
    957899587,
    957899847,
    957899790,
    957900140,
    957900043,
    957899835,
    1603479139,
    1603479141,
    957900026,
    957899550
  ],
  "tags": {
    "name": "Musée des Tissus et des Arts décoratifs",
    "name:uk": "Музей тканин та декоративно-ужиткового мистецтва",
    "phone": "+33 4 78 38 42 07",
    "ref:FR:museofile": "M1038",
    "source": "Ministère de la Culture - base Muséofile - 2019",
    "tourism": "museum",
    "website": "https://www.museedestissus.fr/",
    "wikidata": "Q3330146",
    "wikipedia": "fr:Musée des Tissus et des Arts décoratifs"
  }
},
{
  "type": "way",
  "id": 190739035,
  "nodes": [
    2013717182,
    2013717161,
    2013717172,
    2013717162,
    2013717170,
    2013717193,
    2013717177,
    2013717179,
    2013717180,
    2013717182
  ],
  "tags": {
    "name": "La Grange Chevrotière",
    "tourism": "museum"
  }
},
{
  "type": "way",
  "id": 229748938,
  "nodes": [
    2383030239,
    3816821784,
    2383030291,
    2383030289,
    2383030267,
    1415389574,
    1415389579,
    2382374525,
    3816821789,
    2378711877,
    2378711878,
    2383030239
  ],
  "tags": {
    "alt_name": "Musée de l'Électricité",
    "name": "Maison d'Ampère",
    "name:en": "Museum of Electricity",
    "tourism": "museum"
  }
},
{
  "type": "way",
  "id": 356957382,
  "nodes": [
    3623600158,
    3623600163,
    3590216602,
    3815928772,
    6055885532,
    3623600168,
    6252561401,
    6055885563,
    6055885579,
    3590712732,
    3623600165,
    3623600161,
    3590216525,
    3623600159,
    3623600158
  ],
  "tags": {
    "addr:city": "Décines-Charpieu",
    "addr:postcode": "69150",
    "addr:street": "Avenue Simone Veil",
    "name": "OL Le Musée",
    "tourism": "museum"
  }
},
{
  "type": "way",
  "id": 440270631,
  "nodes": [
    1135489412,
    4379994011,
    6270805307,
    4379994002,
    6270805308,
    4379994003,
    4379994004,
    4379994010,
    4379994006,
    1135489406,
    1135489405,
    4379994013,
    6270805298,
    1135489404,
    1135489403,
    1135489402,
    3272851124,
    3181869862,
    1135489421,
    1135489420,
    1135489417,
    1135489416,
    6270805313,
    6270805303,
    6270805292,
    6270805304,
    6270805312,
    1135489414,
    1135489413,
    1135489412
  ],
  "tags": {
    "image": "https://commons.wikimedia.org/wiki/File:Musée_des_confluences_février_2014.jpg",
    "name": "Musée des Confluences",
    "opening_hours": "Mo-Fr 11:00-19:00; Th 11:00-22:00; Sa-Su 10:00-19:00",
    "phone": "+33 4 28 38 12 12",
    "ref:FR:museofile": "M7042",
    "start_date": "2014-12-19",
    "tourism": "museum",
    "website": "http://www.museedesconfluences.fr/",
    "wheelchair": "yes",
    "wikidata": "Q8352",
    "wikipedia": "fr:Musée des Confluences"
  }
},
{
  "type": "way",
  "id": 493540665,
  "nodes": [
    1865407926,
    1865407962,
    1865407968,
    977370806,
    977370989,
    977371022,
    977370960,
    977371125,
    977370813,
    1865407993,
    977370847,
    977370856,
    977370819,
    977370937,
    977370816,
    977370966,
    977371008,
    977371017,
    977370908,
    1883877813,
    977370864,
    977370999,
    977371135,
    977370832,
    977370820,
    977371101,
    730804079,
    730804110,
    730804083,
    730804056,
    730804028,
    977371103,
    977370996,
    977371132,
    977370936,
    977370894,
    977371102,
    977371120,
    977370828,
    977371031,
    977371139,
    977371094,
    977371115,
    977370970,
    977371001,
    977371112,
    977370859,
    977371024,
    977370880,
    977370834,
    977371047,
    977371066,
    977371086,
    977370980,
    977370914,
    977370967,
    977370950,
    977371000,
    977370870,
    977370923,
    977370874,
    977371069,
    977371140,
    977370895,
    977370868,
    977370926,
    977371078,
    977371004,
    977370873,
    977370992,
    977370934,
    977370830,
    977370952,
    977371085,
    977370929,
    977370863,
    977371002,
    977370922,
    977370910,
    977370997,
    977370818,
    977370823,
    977371061,
    977370907,
    977370975,
    977371005,
    977370998,
    977371130,
    977370925,
    977370853,
    977371039,
    977370976,
    977370841,
    977371025,
    977370944,
    977371029,
    977370827,
    977371114,
    977370876,
    977370882,
    977370903,
    977370896,
    977371087,
    977371043,
    977370872,
    977370991,
    977370961,
    977370959,
    977370899,
    977370932,
    977371097,
    977370810,
    977370931,
    977370825,
    977370902,
    977371050,
    977371003,
    977370968,
    977371070,
    977371019,
    2636921704,
    977370916,
    977371030,
    977370851,
    977371057,
    977371080,
    977370956,
    977370887,
    977371081,
    977370871,
    730804081,
    730804054,
    730804026,
    730804136,
    730804030,
    730804140,
    730804115,
    730804087,
    730804138,
    730804113,
    1883877875,
    730804085,
    730804058,
    730804089,
    730804062,
    1883877851,
    1883877840,
    1883877825,
    1883877815,
    1883877792,
    1883878048,
    1883878023,
    1883877972,
    1883877927,
    730804034,
    730804145,
    730804060,
    730804032,
    1883877751,
    730804143,
    730804117,
    730804107,
    730804093,
    730804068,
    730804119,
    730804091,
    730804066,
    730804036,
    730804070,
    730804040,
    1603519802,
    730804150,
    730804124,
    730804038,
    730804148,
    730804122,
    730804095,
    730804126,
    730804099,
    730804074,
    730804045,
    730804097,
    730804072,
    1603519831,
    730804042,
    730804152,
    730804049,
    730804156,
    730804130,
    730804104,
    730804154,
    730804128,
    730804102,
    730804076,
    730804106,
    730804080,
    730804053,
    730804025,
    730804078,
    730804051,
    730804158,
    730804133,
    730804027,
    730804137,
    1382813129,
    730804112,
    730804084,
    730804135,
    730804109,
    730804082,
    730804055,
    730804086,
    730804059,
    730804031,
    730804142,
    730804057,
    730804029,
    730804139,
    730804114,
    1603519840,
    730804144,
    730804118,
    730804090,
    730804064,
    730804116,
    730804088,
    730804061,
    730804033,
    730804092,
    730804067,
    1603519846,
    730804037,
    730804147,
    730804063,
    730804035,
    730804146,
    730804120,
    730804149,
    730804123,
    1603519850,
    730804096,
    730804071,
    730804121,
    730804094,
    730804069,
    730804039,
    1603519867,
    730804073,
    730804044,
    730804153,
    730804127,
    730804041,
    1865407939,
    730804151,
    730804125,
    1865408034,
    730804098,
    730804129,
    1865408104,
    1865408175,
    1865407721,
    1865407802,
    730804103,
    730804077,
    730804050,
    730804100,
    730804075,
    730804046,
    1865407863,
    730804155,
    730804052,
    1865407902,
    730804159,
    730804134,
    730804108,
    730804157,
    730804131,
    730804105,
    977370909,
    977370826,
    1865407926
  ],
  "tags": {
    "email": "mba.serviceinterieur@mairie-lyon.fr",
    "name": "Musée des Beaux-Arts de Lyon",
    "opening_hours": "We,Th,Sa-Mo 10:00-18:00, Fr 10:30-18:00",
    "phone": "+33472101740",
    "ref:FR:museofile": "M1031",
    "tourism": "museum",
    "website": "http://www.mba-lyon.fr",
    "wikidata": "Q511",
    "wikipedia": "fr:Musée des Beaux-Arts de Lyon"
  }
},
{
  "type": "way",
  "id": 700244364,
  "nodes": [
    1396218124,
    1396218119,
    1396218138,
    1396218148,
    1396218145,
    1396218200,
    1396218201,
    6575800692,
    1396218239,
    1396218248,
    1396218247,
    1396218249,
    1396218241,
    1396218237,
    1396218235,
    1396218228,
    1396218224,
    1425526653,
    1425526655,
    1396218096,
    1396218067,
    1396218071,
    1396217714,
    1396217708,
    1425526673,
    1425526671,
    6575800691,
    1396217838,
    1396217889,
    1396217911,
    1396217833,
    1396217827,
    1396217816,
    1396217777,
    1396217762,
    1396217764,
    1396217771,
    1396217773,
    1396217780,
    6575800690,
    1396217831,
    2787854839,
    1396217856,
    1396217902,
    1396217910,
    1396217932,
    1396217943,
    1396218124
  ],
  "tags": {
    "alt_name": "Musée d'histoire de Lyon;Musée des arts de la marionnette",
    "heritage": "2",
    "heritage:operator": "mhs",
    "historic": "building",
    "mhs:inscription_date": "1920-10-05",
    "name": "Musées Gadagne",
    "old_name": "Hôtel de Gadagne",
    "opening_hours": "We-Su 10:30-18:30",
    "operator": "Ville de Lyon",
    "phone": "+33 4 78 42 03 61",
    "ref:FR:museofile": "M1032",
    "ref:mhs": "PA00117816",
    "source": "Ministère de la Culture - base Muséofile - 2019",
    "source:heritage": "data.gouv.fr, Ministère de la Culture - 2016",
    "start_date": "C15",
    "tourism": "museum",
    "website": "www.gadagne.musees.lyon.fr",
    "wheelchair": "yes",
    "wikidata": "Q8397",
    "wikipedia": "fr:Musées Gadagne"
  }
},
{
  "type": "way",
  "id": 721137698,
  "nodes": [
    6766032307,
    6766032306,
    6766032305,
    1432125616,
    1432125677,
    1432125706,
    1432125728,
    1432125755,
    1432125782,
    1432125797,
    1432125802,
    1432125815,
    1432125814,
    1432125751,
    6766032304,
    1432125607,
    1432125566,
    1432125344,
    1432125269,
    6766032303,
    6766032302,
    6766032301,
    6766032300,
    6766032299,
    1432124633,
    1432124636,
    6766032298,
    6766032297,
    6766032296,
    6766032295,
    6766032294,
    6766032293,
    6766032292,
    6766032291,
    6766032307
  ],
  "tags": {
    "barrier": "wall",
    "fee": "no",
    "name": "La Demeure du Chaos",
    "name:en": "Abode of Chaos",
    "opening_hours": "Sa-Su 14:00-17:00",
    "source": "Orthophoto Grand Lyon;survey 2019-09",
    "tourism": "museum",
    "website": "http://www.organe.org",
    "wikidata": "Q10143",
    "wikipedia": "fr:Demeure du Chaos"
  }
},
{
  "type": "relation",
  "id": 10338469,
  "members": [
    {
      "type": "way",
      "ref": 136806134,
      "role": ""
    },
    {
      "type": "way",
      "ref": 136798183,
      "role": ""
    }
  ],
  "tags": {
    "amenity": "arts_centre",
    "contact:phone": "+33 4 74 68 33 70",
    "name": "Musée Paul-Dini",
    "ref:FR:museofile": "M1041",
    "source": "cadastre-dgi-fr source : Direction Générale des Impôts - Cadastre. Mise à jour : 2011",
    "tourism": "museum",
    "type": "site",
    "website": "http://www.musee-paul-dini.com/",
    "wikipedia": "fr:Musée Paul-Dini de Villefranche-sur-Saône"
  }
},
{
  "type": "node",
  "id": 1317624043,
  "lat": 45.5146750,
  "lon": 4.8642110
},
{
  "type": "node",
  "id": 1317642147,
  "lat": 45.5150300,
  "lon": 4.8649400
},
{
  "type": "node",
  "id": 1317647527,
  "lat": 45.5151460,
  "lon": 4.8647280
},
{
  "type": "node",
  "id": 1317681377,
  "lat": 45.5145590,
  "lon": 4.8644300
},
{
  "type": "node",
  "id": 1317710581,
  "lat": 45.5148160,
  "lon": 4.8643650
},
{
  "type": "node",
  "id": 1317726284,
  "lat": 45.5147040,
  "lon": 4.8645790
},
{
  "type": "node",
  "id": 1317627674,
  "lat": 45.5227220,
  "lon": 4.8710970
},
{
  "type": "node",
  "id": 1317713263,
  "lat": 45.5227540,
  "lon": 4.8710020
},
{
  "type": "node",
  "id": 1326823962,
  "lat": 45.5227900,
  "lon": 4.8710270
},
{
  "type": "node",
  "id": 1326823963,
  "lat": 45.5228900,
  "lon": 4.8707250
},
{
  "type": "node",
  "id": 1326823964,
  "lat": 45.5229260,
  "lon": 4.8707490
},
{
  "type": "node",
  "id": 1326823972,
  "lat": 45.5229650,
  "lon": 4.8706370
},
{
  "type": "node",
  "id": 1326823974,
  "lat": 45.5229730,
  "lon": 4.8706430
},
{
  "type": "node",
  "id": 1326823975,
  "lat": 45.5229600,
  "lon": 4.8706870
},
{
  "type": "node",
  "id": 1326823976,
  "lat": 45.5230150,
  "lon": 4.8707240
},
{
  "type": "node",
  "id": 1326823977,
  "lat": 45.5230320,
  "lon": 4.8706830
},
{
  "type": "node",
  "id": 1326823978,
  "lat": 45.5230400,
  "lon": 4.8706880
},
{
  "type": "node",
  "id": 1326823979,
  "lat": 45.5230030,
  "lon": 4.8707990
},
{
  "type": "node",
  "id": 1326823980,
  "lat": 45.5230370,
  "lon": 4.8708220
},
{
  "type": "node",
  "id": 1326823989,
  "lat": 45.5229240,
  "lon": 4.8711690
},
{
  "type": "node",
  "id": 1326823990,
  "lat": 45.5229920,
  "lon": 4.8712150
},
{
  "type": "node",
  "id": 1326823991,
  "lat": 45.5229950,
  "lon": 4.8712160
},
{
  "type": "node",
  "id": 1326823992,
  "lat": 45.5229920,
  "lon": 4.8712240
},
{
  "type": "node",
  "id": 1326824254,
  "lat": 45.5229910,
  "lon": 4.8712230
},
{
  "type": "node",
  "id": 1326824256,
  "lat": 45.5229740,
  "lon": 4.8712750
},
{
  "type": "node",
  "id": 1326824258,
  "lat": 45.5229760,
  "lon": 4.8712770
},
{
  "type": "node",
  "id": 1326824259,
  "lat": 45.5229720,
  "lon": 4.8712870
},
{
  "type": "node",
  "id": 1326824261,
  "lat": 45.5229690,
  "lon": 4.8712840
},
{
  "type": "node",
  "id": 1326824263,
  "lat": 45.5229020,
  "lon": 4.8712400
},
{
  "type": "node",
  "id": 1326824265,
  "lat": 45.5228920,
  "lon": 4.8712700
},
{
  "type": "node",
  "id": 1326824267,
  "lat": 45.5228940,
  "lon": 4.8712770
},
{
  "type": "node",
  "id": 1326824269,
  "lat": 45.5228880,
  "lon": 4.8712810
},
{
  "type": "node",
  "id": 1326824271,
  "lat": 45.5228860,
  "lon": 4.8712750
},
{
  "type": "node",
  "id": 1326824273,
  "lat": 45.5228600,
  "lon": 4.8712570
},
{
  "type": "node",
  "id": 1326824274,
  "lat": 45.5228550,
  "lon": 4.8712600
},
{
  "type": "node",
  "id": 1326824275,
  "lat": 45.5228530,
  "lon": 4.8712490
},
{
  "type": "node",
  "id": 1326824277,
  "lat": 45.5228330,
  "lon": 4.8712600
},
{
  "type": "node",
  "id": 1326824278,
  "lat": 45.5228140,
  "lon": 4.8712590
},
{
  "type": "node",
  "id": 1326824280,
  "lat": 45.5227930,
  "lon": 4.8712410
},
{
  "type": "node",
  "id": 1326824282,
  "lat": 45.5227800,
  "lon": 4.8711980
},
{
  "type": "node",
  "id": 1326824283,
  "lat": 45.5227800,
  "lon": 4.8712260
},
{
  "type": "node",
  "id": 1326824285,
  "lat": 45.5227650,
  "lon": 4.8712220
},
{
  "type": "node",
  "id": 1326824287,
  "lat": 45.5227760,
  "lon": 4.8711940
},
{
  "type": "node",
  "id": 1326824289,
  "lat": 45.5227630,
  "lon": 4.8713070
},
{
  "type": "node",
  "id": 1326824291,
  "lat": 45.5227890,
  "lon": 4.8712400
},
{
  "type": "node",
  "id": 1326824292,
  "lat": 45.5227290,
  "lon": 4.8713200
},
{
  "type": "node",
  "id": 1326824294,
  "lat": 45.5227400,
  "lon": 4.8712910
},
{
  "type": "node",
  "id": 1326824297,
  "lat": 45.5227150,
  "lon": 4.8713130
},
{
  "type": "node",
  "id": 1326824300,
  "lat": 45.5227160,
  "lon": 4.8713100
},
{
  "type": "node",
  "id": 1326824303,
  "lat": 45.5226880,
  "lon": 4.8712980
},
{
  "type": "node",
  "id": 1326824306,
  "lat": 45.5226870,
  "lon": 4.8712930
},
{
  "type": "node",
  "id": 1326824309,
  "lat": 45.5226820,
  "lon": 4.8712940
},
{
  "type": "node",
  "id": 1326824311,
  "lat": 45.5226830,
  "lon": 4.8712990
},
{
  "type": "node",
  "id": 1326824313,
  "lat": 45.5226600,
  "lon": 4.8712730
},
{
  "type": "node",
  "id": 1326824315,
  "lat": 45.5226630,
  "lon": 4.8712700
},
{
  "type": "node",
  "id": 1326824316,
  "lat": 45.5226920,
  "lon": 4.8711760
},
{
  "type": "node",
  "id": 1326824317,
  "lat": 45.5226840,
  "lon": 4.8711700
},
{
  "type": "node",
  "id": 1326824320,
  "lat": 45.5226570,
  "lon": 4.8712670
},
{
  "type": "node",
  "id": 1326824323,
  "lat": 45.5226610,
  "lon": 4.8712610
},
{
  "type": "node",
  "id": 1326824324,
  "lat": 45.5226830,
  "lon": 4.8711640
},
{
  "type": "node",
  "id": 1326824326,
  "lat": 45.5226970,
  "lon": 4.8711230
},
{
  "type": "node",
  "id": 1326824327,
  "lat": 45.5226800,
  "lon": 4.8711720
},
{
  "type": "node",
  "id": 1326824328,
  "lat": 45.5226790,
  "lon": 4.8711660
},
{
  "type": "node",
  "id": 1326824331,
  "lat": 45.5227010,
  "lon": 4.8711190
},
{
  "type": "node",
  "id": 1326824333,
  "lat": 45.5227220,
  "lon": 4.8711330
},
{
  "type": "node",
  "id": 1326824335,
  "lat": 45.5226950,
  "lon": 4.8711150
},
{
  "type": "node",
  "id": 1326824338,
  "lat": 45.5227000,
  "lon": 4.8711130
},
{
  "type": "node",
  "id": 1326824339,
  "lat": 45.5227210,
  "lon": 4.8711010
},
{
  "type": "node",
  "id": 1326824341,
  "lat": 45.5227340,
  "lon": 4.8711300
},
{
  "type": "node",
  "id": 1326824342,
  "lat": 45.5227390,
  "lon": 4.8711140
},
{
  "type": "node",
  "id": 1491460212,
  "lat": 45.5227570,
  "lon": 4.8710050
},
{
  "type": "node",
  "id": 1135489402,
  "lat": 45.7332597,
  "lon": 4.8186229
},
{
  "type": "node",
  "id": 1135489403,
  "lat": 45.7329014,
  "lon": 4.8185751
},
{
  "type": "node",
  "id": 1135489404,
  "lat": 45.7327688,
  "lon": 4.8185706
},
{
  "type": "node",
  "id": 1135489405,
  "lat": 45.7319784,
  "lon": 4.8184073
},
{
  "type": "node",
  "id": 1135489406,
  "lat": 45.7319715,
  "lon": 4.8183719
},
{
  "type": "node",
  "id": 1135489412,
  "lat": 45.7320741,
  "lon": 4.8173761
},
{
  "type": "node",
  "id": 1135489413,
  "lat": 45.7323602,
  "lon": 4.8175687
},
{
  "type": "node",
  "id": 1135489414,
  "lat": 45.7324439,
  "lon": 4.8176420
},
{
  "type": "node",
  "id": 1135489416,
  "lat": 45.7325929,
  "lon": 4.8177287
},
{
  "type": "node",
  "id": 1135489417,
  "lat": 45.7328093,
  "lon": 4.8178740
},
{
  "type": "node",
  "id": 1135489420,
  "lat": 45.7330027,
  "lon": 4.8180881
},
{
  "type": "node",
  "id": 1135489421,
  "lat": 45.7333440,
  "lon": 4.8183253
},
{
  "type": "node",
  "id": 3181869862,
  "lat": 45.7333009,
  "lon": 4.8184682
},
{
  "type": "node",
  "id": 3272851124,
  "lat": 45.7332811,
  "lon": 4.8185427
},
{
  "type": "node",
  "id": 4379994002,
  "lat": 45.7319114,
  "lon": 4.8173475
},
{
  "type": "node",
  "id": 4379994003,
  "lat": 45.7319182,
  "lon": 4.8175042
},
{
  "type": "node",
  "id": 4379994004,
  "lat": 45.7319623,
  "lon": 4.8179298
},
{
  "type": "node",
  "id": 4379994006,
  "lat": 45.7319762,
  "lon": 4.8182752
},
{
  "type": "node",
  "id": 4379994010,
  "lat": 45.7320450,
  "lon": 4.8179837
},
{
  "type": "node",
  "id": 4379994011,
  "lat": 45.7320585,
  "lon": 4.8174279
},
{
  "type": "node",
  "id": 4379994013,
  "lat": 45.7325307,
  "lon": 4.8185152
},
{
  "type": "node",
  "id": 6270805292,
  "lat": 45.7325085,
  "lon": 4.8175181
},
{
  "type": "node",
  "id": 6270805298,
  "lat": 45.7327627,
  "lon": 4.8185475
},
{
  "type": "node",
  "id": 6270805303,
  "lat": 45.7325350,
  "lon": 4.8175843
},
{
  "type": "node",
  "id": 6270805304,
  "lat": 45.7324909,
  "lon": 4.8175519
},
{
  "type": "node",
  "id": 6270805307,
  "lat": 45.7319704,
  "lon": 4.8173797
},
{
  "type": "node",
  "id": 6270805308,
  "lat": 45.7319154,
  "lon": 4.8174390
},
{
  "type": "node",
  "id": 6270805312,
  "lat": 45.7324680,
  "lon": 4.8175958
},
{
  "type": "node",
  "id": 6270805313,
  "lat": 45.7325750,
  "lon": 4.8176839
},
{
  "type": "node",
  "id": 1445691942,
  "lat": 45.5288863,
  "lon": 4.8706830
},
{
  "type": "node",
  "id": 1445691943,
  "lat": 45.5289665,
  "lon": 4.8712342
},
{
  "type": "node",
  "id": 1445691944,
  "lat": 45.5287928,
  "lon": 4.8711524
},
{
  "type": "node",
  "id": 1445691945,
  "lat": 45.5290792,
  "lon": 4.8712705
},
{
  "type": "node",
  "id": 1445691946,
  "lat": 45.5291232,
  "lon": 4.8696408
},
{
  "type": "node",
  "id": 1445691948,
  "lat": 45.5293130,
  "lon": 4.8713528
},
{
  "type": "node",
  "id": 1445691949,
  "lat": 45.5293498,
  "lon": 4.8707459
},
{
  "type": "node",
  "id": 1445691950,
  "lat": 45.5294018,
  "lon": 4.8697766
},
{
  "type": "node",
  "id": 1445691951,
  "lat": 45.5298556,
  "lon": 4.8714368
},
{
  "type": "node",
  "id": 1445691952,
  "lat": 45.5298999,
  "lon": 4.8708139
},
{
  "type": "node",
  "id": 3379270901,
  "lat": 45.5288812,
  "lon": 4.8707087
},
{
  "type": "node",
  "id": 3813255469,
  "lat": 45.5291972,
  "lon": 4.8707321
},
{
  "type": "node",
  "id": 3813255470,
  "lat": 45.5292034,
  "lon": 4.8706956
},
{
  "type": "node",
  "id": 3813255492,
  "lat": 45.5294753,
  "lon": 4.8707614
},
{
  "type": "node",
  "id": 3813536836,
  "lat": 45.5288150,
  "lon": 4.8711629
},
{
  "type": "node",
  "id": 3813536837,
  "lat": 45.5289280,
  "lon": 4.8707287
},
{
  "type": "node",
  "id": 3813536838,
  "lat": 45.5289522,
  "lon": 4.8706361
},
{
  "type": "node",
  "id": 3813536839,
  "lat": 45.5290433,
  "lon": 4.8707778
},
{
  "type": "node",
  "id": 3813536840,
  "lat": 45.5290597,
  "lon": 4.8706799
},
{
  "type": "node",
  "id": 778797268,
  "lat": 45.7268127,
  "lon": 4.8774268
},
{
  "type": "node",
  "id": 778798347,
  "lat": 45.7267636,
  "lon": 4.8772161
},
{
  "type": "node",
  "id": 778798426,
  "lat": 45.7267665,
  "lon": 4.8773835
},
{
  "type": "node",
  "id": 778798745,
  "lat": 45.7268198,
  "lon": 4.8772697
},
{
  "type": "node",
  "id": 778807504,
  "lat": 45.7267197,
  "lon": 4.8773107
},
{
  "type": "node",
  "id": 778808470,
  "lat": 45.7268161,
  "lon": 4.8774301
},
{
  "type": "node",
  "id": 778819561,
  "lat": 45.7267220,
  "lon": 4.8773555
},
{
  "type": "node",
  "id": 778821460,
  "lat": 45.7268129,
  "lon": 4.8774271
},
{
  "type": "node",
  "id": 778825449,
  "lat": 45.7267658,
  "lon": 4.8775384
},
{
  "type": "node",
  "id": 778825512,
  "lat": 45.7263211,
  "lon": 4.8771147
},
{
  "type": "node",
  "id": 778846950,
  "lat": 45.7263674,
  "lon": 4.8770266
},
{
  "type": "node",
  "id": 778855716,
  "lat": 45.7267365,
  "lon": 4.8773263
},
{
  "type": "node",
  "id": 1386733870,
  "lat": 45.7319720,
  "lon": 4.8977590
},
{
  "type": "node",
  "id": 1386733888,
  "lat": 45.7320020,
  "lon": 4.8976300
},
{
  "type": "node",
  "id": 1386733898,
  "lat": 45.7320180,
  "lon": 4.8975220
},
{
  "type": "node",
  "id": 1386733903,
  "lat": 45.7320280,
  "lon": 4.8979410
},
{
  "type": "node",
  "id": 1386733981,
  "lat": 45.7321210,
  "lon": 4.8978210
},
{
  "type": "node",
  "id": 1386733983,
  "lat": 45.7321220,
  "lon": 4.8979100
},
{
  "type": "node",
  "id": 1386733994,
  "lat": 45.7321320,
  "lon": 4.8978640
},
{
  "type": "node",
  "id": 1386734050,
  "lat": 45.7321680,
  "lon": 4.8977050
},
{
  "type": "node",
  "id": 1386771214,
  "lat": 45.7319940,
  "lon": 4.8976280
},
{
  "type": "node",
  "id": 1386771259,
  "lat": 45.7320600,
  "lon": 4.8978030
},
{
  "type": "node",
  "id": 1386771303,
  "lat": 45.7321060,
  "lon": 4.8979820
},
{
  "type": "node",
  "id": 1386771335,
  "lat": 45.7321400,
  "lon": 4.8978300
},
{
  "type": "node",
  "id": 1386771351,
  "lat": 45.7321500,
  "lon": 4.8976960
},
{
  "type": "node",
  "id": 1386771400,
  "lat": 45.7321920,
  "lon": 4.8975970
},
{
  "type": "node",
  "id": 1501823928,
  "lat": 45.7928880,
  "lon": 4.6104120
},
{
  "type": "node",
  "id": 1501823930,
  "lat": 45.7928910,
  "lon": 4.6105840
},
{
  "type": "node",
  "id": 1501824102,
  "lat": 45.7930110,
  "lon": 4.6102990
},
{
  "type": "node",
  "id": 1501824115,
  "lat": 45.7930150,
  "lon": 4.6104080
},
{
  "type": "node",
  "id": 1501824172,
  "lat": 45.7930490,
  "lon": 4.6105770
},
{
  "type": "node",
  "id": 1501824187,
  "lat": 45.7930530,
  "lon": 4.6107590
},
{
  "type": "node",
  "id": 1501824250,
  "lat": 45.7930890,
  "lon": 4.6107570
},
{
  "type": "node",
  "id": 1501824254,
  "lat": 45.7930900,
  "lon": 4.6108830
},
{
  "type": "node",
  "id": 1501824261,
  "lat": 45.7930910,
  "lon": 4.6108920
},
{
  "type": "node",
  "id": 1501824337,
  "lat": 45.7931270,
  "lon": 4.6102920
},
{
  "type": "node",
  "id": 1501824339,
  "lat": 45.7931280,
  "lon": 4.6103570
},
{
  "type": "node",
  "id": 1501824394,
  "lat": 45.7931600,
  "lon": 4.6103536
},
{
  "type": "node",
  "id": 1501824404,
  "lat": 45.7931650,
  "lon": 4.6103530
},
{
  "type": "node",
  "id": 1501824407,
  "lat": 45.7931655,
  "lon": 4.6103690
},
{
  "type": "node",
  "id": 1501824415,
  "lat": 45.7931680,
  "lon": 4.6104530
},
{
  "type": "node",
  "id": 1501824435,
  "lat": 45.7931710,
  "lon": 4.6105750
},
{
  "type": "node",
  "id": 1501824467,
  "lat": 45.7931760,
  "lon": 4.6107610
},
{
  "type": "node",
  "id": 1501824473,
  "lat": 45.7931780,
  "lon": 4.6105030
},
{
  "type": "node",
  "id": 1501824483,
  "lat": 45.7931800,
  "lon": 4.6105750
},
{
  "type": "node",
  "id": 1501824495,
  "lat": 45.7931850,
  "lon": 4.6104520
},
{
  "type": "node",
  "id": 1501824513,
  "lat": 45.7931870,
  "lon": 4.6105030
},
{
  "type": "node",
  "id": 1501824525,
  "lat": 45.7931950,
  "lon": 4.6108900
},
{
  "type": "node",
  "id": 1501824537,
  "lat": 45.7931990,
  "lon": 4.6107590
},
{
  "type": "node",
  "id": 1501824548,
  "lat": 45.7932030,
  "lon": 4.6108920
},
{
  "type": "node",
  "id": 1469980715,
  "lat": 45.7512352,
  "lon": 4.7023557
},
{
  "type": "node",
  "id": 1469980738,
  "lat": 45.7512472,
  "lon": 4.7022147
},
{
  "type": "node",
  "id": 1469980959,
  "lat": 45.7512782,
  "lon": 4.7022487
},
{
  "type": "node",
  "id": 1469980967,
  "lat": 45.7512812,
  "lon": 4.7022207
},
{
  "type": "node",
  "id": 1469981066,
  "lat": 45.7513232,
  "lon": 4.7022567
},
{
  "type": "node",
  "id": 1469981180,
  "lat": 45.7513802,
  "lon": 4.7023817
},
{
  "type": "node",
  "id": 1469981200,
  "lat": 45.7513902,
  "lon": 4.7022687
},
{
  "type": "node",
  "id": 1402805524,
  "lat": 45.7831140,
  "lon": 4.7137970
},
{
  "type": "node",
  "id": 1402805568,
  "lat": 45.7831770,
  "lon": 4.7135260
},
{
  "type": "node",
  "id": 1402805575,
  "lat": 45.7831900,
  "lon": 4.7138320
},
{
  "type": "node",
  "id": 1402805582,
  "lat": 45.7832040,
  "lon": 4.7137180
},
{
  "type": "node",
  "id": 1402805586,
  "lat": 45.7832090,
  "lon": 4.7136960
},
{
  "type": "node",
  "id": 1402805590,
  "lat": 45.7832120,
  "lon": 4.7136880
},
{
  "type": "node",
  "id": 1402805595,
  "lat": 45.7832140,
  "lon": 4.7137230
},
{
  "type": "node",
  "id": 1402805596,
  "lat": 45.7832160,
  "lon": 4.7136820
},
{
  "type": "node",
  "id": 1402805602,
  "lat": 45.7832270,
  "lon": 4.7136760
},
{
  "type": "node",
  "id": 1402805604,
  "lat": 45.7832310,
  "lon": 4.7136750
},
{
  "type": "node",
  "id": 1402805612,
  "lat": 45.7832370,
  "lon": 4.7136770
},
{
  "type": "node",
  "id": 1402805622,
  "lat": 45.7832470,
  "lon": 4.7136850
},
{
  "type": "node",
  "id": 1402805627,
  "lat": 45.7832490,
  "lon": 4.7136890
},
{
  "type": "node",
  "id": 1402805629,
  "lat": 45.7832500,
  "lon": 4.7137330
},
{
  "type": "node",
  "id": 1402805631,
  "lat": 45.7832530,
  "lon": 4.7137010
},
{
  "type": "node",
  "id": 1402805632,
  "lat": 45.7832530,
  "lon": 4.7137130
},
{
  "type": "node",
  "id": 1402805640,
  "lat": 45.7832610,
  "lon": 4.7137370
},
{
  "type": "node",
  "id": 1402805659,
  "lat": 45.7832790,
  "lon": 4.7135840
},
{
  "type": "node",
  "id": 1402805662,
  "lat": 45.7832810,
  "lon": 4.7135730
},
{
  "type": "node",
  "id": 1402805664,
  "lat": 45.7832840,
  "lon": 4.7137490
},
{
  "type": "node",
  "id": 1402805665,
  "lat": 45.7832850,
  "lon": 4.7137450
},
{
  "type": "node",
  "id": 1402805680,
  "lat": 45.7833070,
  "lon": 4.7136200
},
{
  "type": "node",
  "id": 1402805682,
  "lat": 45.7833110,
  "lon": 4.7135990
},
{
  "type": "node",
  "id": 1402805769,
  "lat": 45.7834270,
  "lon": 4.7138140
},
{
  "type": "node",
  "id": 1402805781,
  "lat": 45.7834530,
  "lon": 4.7136860
},
{
  "type": "node",
  "id": 806453536,
  "lat": 45.7482355,
  "lon": 4.7221033
},
{
  "type": "node",
  "id": 806456414,
  "lat": 45.7484579,
  "lon": 4.7217783
},
{
  "type": "node",
  "id": 806456590,
  "lat": 45.7484782,
  "lon": 4.7220635
},
{
  "type": "node",
  "id": 806459353,
  "lat": 45.7485575,
  "lon": 4.7220504
},
{
  "type": "node",
  "id": 806459573,
  "lat": 45.7482575,
  "lon": 4.7218124
},
{
  "type": "node",
  "id": 806467499,
  "lat": 45.7485100,
  "lon": 4.7213935
},
{
  "type": "node",
  "id": 806468603,
  "lat": 45.7481353,
  "lon": 4.7214844
},
{
  "type": "node",
  "id": 806470288,
  "lat": 45.7481245,
  "lon": 4.7213666
},
{
  "type": "node",
  "id": 806471538,
  "lat": 45.7481889,
  "lon": 4.7214757
},
{
  "type": "node",
  "id": 806473552,
  "lat": 45.7481907,
  "lon": 4.7214992
},
{
  "type": "node",
  "id": 806477028,
  "lat": 45.7482032,
  "lon": 4.7216674
},
{
  "type": "node",
  "id": 806477683,
  "lat": 45.7481799,
  "lon": 4.7213552
},
{
  "type": "node",
  "id": 806479469,
  "lat": 45.7482739,
  "lon": 4.7219383
},
{
  "type": "node",
  "id": 806480173,
  "lat": 45.7481260,
  "lon": 4.7213664
},
{
  "type": "node",
  "id": 806480997,
  "lat": 45.7482849,
  "lon": 4.7220951
},
{
  "type": "node",
  "id": 806482354,
  "lat": 45.7481341,
  "lon": 4.7214847
},
{
  "type": "node",
  "id": 806482465,
  "lat": 45.7485023,
  "lon": 4.7212850
},
{
  "type": "node",
  "id": 806482516,
  "lat": 45.7481915,
  "lon": 4.7215096
},
{
  "type": "node",
  "id": 806483632,
  "lat": 45.7485272,
  "lon": 4.7216298
},
{
  "type": "node",
  "id": 806487476,
  "lat": 45.7482656,
  "lon": 4.7219392
},
{
  "type": "node",
  "id": 1028177193,
  "lat": 45.7600181,
  "lon": 4.8211719
},
{
  "type": "node",
  "id": 1028177265,
  "lat": 45.7603110,
  "lon": 4.8212130
},
{
  "type": "node",
  "id": 1028177275,
  "lat": 45.7605167,
  "lon": 4.8197823
},
{
  "type": "node",
  "id": 1028177300,
  "lat": 45.7604039,
  "lon": 4.8197554
},
{
  "type": "node",
  "id": 1285244984,
  "lat": 45.7603420,
  "lon": 4.8200420
},
{
  "type": "node",
  "id": 1285244997,
  "lat": 45.7601733,
  "lon": 4.8204125
},
{
  "type": "node",
  "id": 1285244999,
  "lat": 45.7601017,
  "lon": 4.8205240
},
{
  "type": "node",
  "id": 1285245002,
  "lat": 45.7603170,
  "lon": 4.8202290
},
{
  "type": "node",
  "id": 1285245004,
  "lat": 45.7600872,
  "lon": 4.8206951
},
{
  "type": "node",
  "id": 1285245005,
  "lat": 45.7602025,
  "lon": 4.8203802
},
{
  "type": "node",
  "id": 1285245006,
  "lat": 45.7601151,
  "lon": 4.8204880
},
{
  "type": "node",
  "id": 1285245007,
  "lat": 45.7600764,
  "lon": 4.8207937
},
{
  "type": "node",
  "id": 1285245023,
  "lat": 45.7604722,
  "lon": 4.8197702
},
{
  "type": "node",
  "id": 1285245025,
  "lat": 45.7603510,
  "lon": 4.8200380
},
{
  "type": "node",
  "id": 1285245028,
  "lat": 45.7603440,
  "lon": 4.8200770
},
{
  "type": "node",
  "id": 1285245030,
  "lat": 45.7603743,
  "lon": 4.8199035
},
{
  "type": "node",
  "id": 1285245044,
  "lat": 45.7604825,
  "lon": 4.8203235
},
{
  "type": "node",
  "id": 1285245048,
  "lat": 45.7601220,
  "lon": 4.8204689
},
{
  "type": "node",
  "id": 1285245049,
  "lat": 45.7602910,
  "lon": 4.8202579
},
{
  "type": "node",
  "id": 1285245050,
  "lat": 45.7600574,
  "lon": 4.8207495
},
{
  "type": "node",
  "id": 1395390025,
  "lat": 45.7602030,
  "lon": 4.8212040
},
{
  "type": "node",
  "id": 1395390049,
  "lat": 45.7602210,
  "lon": 4.8212050
},
{
  "type": "node",
  "id": 1395390242,
  "lat": 45.7603460,
  "lon": 4.8209280
},
{
  "type": "node",
  "id": 1395390263,
  "lat": 45.7603830,
  "lon": 4.8198530
},
{
  "type": "node",
  "id": 2810816949,
  "lat": 45.7604990,
  "lon": 4.8202075
},
{
  "type": "node",
  "id": 4388525943,
  "lat": 45.7601556,
  "lon": 4.8211980
},
{
  "type": "node",
  "id": 4388525947,
  "lat": 45.7604194,
  "lon": 4.8205060
},
{
  "type": "node",
  "id": 4388525948,
  "lat": 45.7604512,
  "lon": 4.8205176
},
{
  "type": "node",
  "id": 4388525949,
  "lat": 45.7604817,
  "lon": 4.8203091
},
{
  "type": "node",
  "id": 4388525950,
  "lat": 45.7604825,
  "lon": 4.8203352
},
{
  "type": "node",
  "id": 5914739029,
  "lat": 45.7605243,
  "lon": 4.8200620
},
{
  "type": "node",
  "id": 1028177184,
  "lat": 45.7605699,
  "lon": 4.8197970
},
{
  "type": "node",
  "id": 6945246776,
  "lat": 45.7605637,
  "lon": 4.8198344
},
{
  "type": "node",
  "id": 1390035014,
  "lat": 45.7910550,
  "lon": 4.7982370
},
{
  "type": "node",
  "id": 1390035027,
  "lat": 45.7910770,
  "lon": 4.7988240
},
{
  "type": "node",
  "id": 1390035185,
  "lat": 45.7912530,
  "lon": 4.7988130
},
{
  "type": "node",
  "id": 1390035189,
  "lat": 45.7912540,
  "lon": 4.7988440
},
{
  "type": "node",
  "id": 1390035214,
  "lat": 45.7912950,
  "lon": 4.7988100
},
{
  "type": "node",
  "id": 1390035215,
  "lat": 45.7912960,
  "lon": 4.7988410
},
{
  "type": "node",
  "id": 1390035284,
  "lat": 45.7914320,
  "lon": 4.7982100
},
{
  "type": "node",
  "id": 1390035288,
  "lat": 45.7914520,
  "lon": 4.7987980
},
{
  "type": "node",
  "id": 1415389574,
  "lat": 45.8539994,
  "lon": 4.7994744
},
{
  "type": "node",
  "id": 1415389579,
  "lat": 45.8540314,
  "lon": 4.7995644
},
{
  "type": "node",
  "id": 2378711877,
  "lat": 45.8544511,
  "lon": 4.7988421
},
{
  "type": "node",
  "id": 2378711878,
  "lat": 45.8540587,
  "lon": 4.7988155
},
{
  "type": "node",
  "id": 2382374525,
  "lat": 45.8543763,
  "lon": 4.7996041
},
{
  "type": "node",
  "id": 2383030239,
  "lat": 45.8540286,
  "lon": 4.7988204
},
{
  "type": "node",
  "id": 2383030267,
  "lat": 45.8539229,
  "lon": 4.7992665
},
{
  "type": "node",
  "id": 2383030289,
  "lat": 45.8538418,
  "lon": 4.7989491
},
{
  "type": "node",
  "id": 2383030291,
  "lat": 45.8539761,
  "lon": 4.7990242
},
{
  "type": "node",
  "id": 3816821784,
  "lat": 45.8540043,
  "lon": 4.7989148
},
{
  "type": "node",
  "id": 3816821789,
  "lat": 45.8544290,
  "lon": 4.7990921
},
{
  "type": "node",
  "id": 957899550,
  "lat": 45.7532214,
  "lon": 4.8316878
},
{
  "type": "node",
  "id": 957899582,
  "lat": 45.7535972,
  "lon": 4.8310031
},
{
  "type": "node",
  "id": 957899584,
  "lat": 45.7534261,
  "lon": 4.8308938
},
{
  "type": "node",
  "id": 957899587,
  "lat": 45.7538301,
  "lon": 4.8315957
},
{
  "type": "node",
  "id": 957899609,
  "lat": 45.7530128,
  "lon": 4.8315795
},
{
  "type": "node",
  "id": 957899613,
  "lat": 45.7536732,
  "lon": 4.8315142
},
{
  "type": "node",
  "id": 957899624,
  "lat": 45.7535888,
  "lon": 4.8310565
},
{
  "type": "node",
  "id": 957899655,
  "lat": 45.7530403,
  "lon": 4.8311567
},
{
  "type": "node",
  "id": 957899692,
  "lat": 45.7531065,
  "lon": 4.8309344
},
{
  "type": "node",
  "id": 957899704,
  "lat": 45.7537375,
  "lon": 4.8315474
},
{
  "type": "node",
  "id": 957899712,
  "lat": 45.7537674,
  "lon": 4.8315631
},
{
  "type": "node",
  "id": 957899790,
  "lat": 45.7538141,
  "lon": 4.8316589
},
{
  "type": "node",
  "id": 957899797,
  "lat": 45.7535872,
  "lon": 4.8310558
},
{
  "type": "node",
  "id": 957899798,
  "lat": 45.7532396,
  "lon": 4.8307747
},
{
  "type": "node",
  "id": 957899818,
  "lat": 45.7536009,
  "lon": 4.8310053
},
{
  "type": "node",
  "id": 957899835,
  "lat": 45.7537389,
  "lon": 4.8319568
},
{
  "type": "node",
  "id": 957899847,
  "lat": 45.7538238,
  "lon": 4.8316199
},
{
  "type": "node",
  "id": 957899886,
  "lat": 45.7530045,
  "lon": 4.8312838
},
{
  "type": "node",
  "id": 957899911,
  "lat": 45.7535437,
  "lon": 4.8309689
},
{
  "type": "node",
  "id": 957899938,
  "lat": 45.7534907,
  "lon": 4.8309351
},
{
  "type": "node",
  "id": 957899942,
  "lat": 45.7529965,
  "lon": 4.8312797
},
{
  "type": "node",
  "id": 957899950,
  "lat": 45.7535057,
  "lon": 4.8313796
},
{
  "type": "node",
  "id": 957899957,
  "lat": 45.7530540,
  "lon": 4.8316008
},
{
  "type": "node",
  "id": 957899958,
  "lat": 45.7531277,
  "lon": 4.8307965
},
{
  "type": "node",
  "id": 957899970,
  "lat": 45.7529250,
  "lon": 4.8315339
},
{
  "type": "node",
  "id": 957900000,
  "lat": 45.7531359,
  "lon": 4.8308013
},
{
  "type": "node",
  "id": 957900023,
  "lat": 45.7535520,
  "lon": 4.8314512
},
{
  "type": "node",
  "id": 957900026,
  "lat": 45.7533629,
  "lon": 4.8317612
},
{
  "type": "node",
  "id": 957900034,
  "lat": 45.7534949,
  "lon": 4.8314217
},
{
  "type": "node",
  "id": 957900043,
  "lat": 45.7537815,
  "lon": 4.8317877
},
{
  "type": "node",
  "id": 957900059,
  "lat": 45.7535217,
  "lon": 4.8314356
},
{
  "type": "node",
  "id": 957900061,
  "lat": 45.7531599,
  "lon": 4.8307237
},
{
  "type": "node",
  "id": 957900096,
  "lat": 45.7530572,
  "lon": 4.8311666
},
{
  "type": "node",
  "id": 957900140,
  "lat": 45.7538032,
  "lon": 4.8317012
},
{
  "type": "node",
  "id": 1603479139,
  "lat": 45.7536408,
  "lon": 4.8319058
},
{
  "type": "node",
  "id": 1603479141,
  "lat": 45.7535429,
  "lon": 4.8318549
},
{
  "type": "node",
  "id": 1603479143,
  "lat": 45.7531254,
  "lon": 4.8316379
},
{
  "type": "node",
  "id": 957886222,
  "lat": 45.7575242,
  "lon": 4.8309447
},
{
  "type": "node",
  "id": 957886272,
  "lat": 45.7577304,
  "lon": 4.8307047
},
{
  "type": "node",
  "id": 957886285,
  "lat": 45.7575189,
  "lon": 4.8309275
},
{
  "type": "node",
  "id": 957886389,
  "lat": 45.7577087,
  "lon": 4.8307738
},
{
  "type": "node",
  "id": 957886395,
  "lat": 45.7577114,
  "lon": 4.8307725
},
{
  "type": "node",
  "id": 957886449,
  "lat": 45.7576010,
  "lon": 4.8306314
},
{
  "type": "node",
  "id": 957886491,
  "lat": 45.7575198,
  "lon": 4.8309369
},
{
  "type": "node",
  "id": 957886496,
  "lat": 45.7575537,
  "lon": 4.8309597
},
{
  "type": "node",
  "id": 957886515,
  "lat": 45.7575431,
  "lon": 4.8309987
},
{
  "type": "node",
  "id": 957886552,
  "lat": 45.7576341,
  "lon": 4.8310499
},
{
  "type": "node",
  "id": 957886557,
  "lat": 45.7575213,
  "lon": 4.8309406
},
{
  "type": "node",
  "id": 957886599,
  "lat": 45.7575188,
  "lon": 4.8309312
},
{
  "type": "node",
  "id": 957886612,
  "lat": 45.7576433,
  "lon": 4.8310082
},
{
  "type": "node",
  "id": 957886647,
  "lat": 45.7576449,
  "lon": 4.8310118
},
{
  "type": "node",
  "id": 1395390810,
  "lat": 45.7613850,
  "lon": 4.8238560
},
{
  "type": "node",
  "id": 1395390818,
  "lat": 45.7613910,
  "lon": 4.8237850
},
{
  "type": "node",
  "id": 1395390819,
  "lat": 45.7613920,
  "lon": 4.8239450
},
{
  "type": "node",
  "id": 1395390821,
  "lat": 45.7613930,
  "lon": 4.8238580
},
{
  "type": "node",
  "id": 1395390869,
  "lat": 45.7614520,
  "lon": 4.8239560
},
{
  "type": "node",
  "id": 1395390900,
  "lat": 45.7614670,
  "lon": 4.8239570
},
{
  "type": "node",
  "id": 1395390949,
  "lat": 45.7614860,
  "lon": 4.8237380
},
{
  "type": "node",
  "id": 1395390952,
  "lat": 45.7614880,
  "lon": 4.8236960
},
{
  "type": "node",
  "id": 1395390954,
  "lat": 45.7614880,
  "lon": 4.8237020
},
{
  "type": "node",
  "id": 1395390959,
  "lat": 45.7614890,
  "lon": 4.8238030
},
{
  "type": "node",
  "id": 1395390975,
  "lat": 45.7614920,
  "lon": 4.8237810
},
{
  "type": "node",
  "id": 1395390981,
  "lat": 45.7615300,
  "lon": 4.8239680
},
{
  "type": "node",
  "id": 1395390987,
  "lat": 45.7615510,
  "lon": 4.8237930
},
{
  "type": "node",
  "id": 1395391003,
  "lat": 45.7615570,
  "lon": 4.8237340
},
{
  "type": "node",
  "id": 1395391009,
  "lat": 45.7615680,
  "lon": 4.8239830
},
{
  "type": "node",
  "id": 1395391031,
  "lat": 45.7615820,
  "lon": 4.8238950
},
{
  "type": "node",
  "id": 1395391042,
  "lat": 45.7615910,
  "lon": 4.8238340
},
{
  "type": "node",
  "id": 1395391044,
  "lat": 45.7615980,
  "lon": 4.8237780
},
{
  "type": "node",
  "id": 1395391046,
  "lat": 45.7616080,
  "lon": 4.8236910
},
{
  "type": "node",
  "id": 1395391048,
  "lat": 45.7616160,
  "lon": 4.8238410
},
{
  "type": "node",
  "id": 1395391052,
  "lat": 45.7616230,
  "lon": 4.8237840
},
{
  "type": "node",
  "id": 1396217708,
  "lat": 45.7638870,
  "lon": 4.8269000
},
{
  "type": "node",
  "id": 1396217714,
  "lat": 45.7638880,
  "lon": 4.8268820
},
{
  "type": "node",
  "id": 1396217762,
  "lat": 45.7639140,
  "lon": 4.8273200
},
{
  "type": "node",
  "id": 1396217764,
  "lat": 45.7639150,
  "lon": 4.8273410
},
{
  "type": "node",
  "id": 1396217771,
  "lat": 45.7639160,
  "lon": 4.8274080
},
{
  "type": "node",
  "id": 1396217773,
  "lat": 45.7639180,
  "lon": 4.8274690
},
{
  "type": "node",
  "id": 1396217777,
  "lat": 45.7639200,
  "lon": 4.8273180
},
{
  "type": "node",
  "id": 1396217780,
  "lat": 45.7639210,
  "lon": 4.8275570
},
{
  "type": "node",
  "id": 1396217816,
  "lat": 45.7639410,
  "lon": 4.8273110
},
{
  "type": "node",
  "id": 1396217827,
  "lat": 45.7639450,
  "lon": 4.8273070
},
{
  "type": "node",
  "id": 1396217831,
  "lat": 45.7639500,
  "lon": 4.8275530
},
{
  "type": "node",
  "id": 1396217833,
  "lat": 45.7639510,
  "lon": 4.8273070
},
{
  "type": "node",
  "id": 1396217838,
  "lat": 45.7639580,
  "lon": 4.8272030
},
{
  "type": "node",
  "id": 1396217856,
  "lat": 45.7639630,
  "lon": 4.8276670
},
{
  "type": "node",
  "id": 1396217889,
  "lat": 45.7639760,
  "lon": 4.8272540
},
{
  "type": "node",
  "id": 1396217902,
  "lat": 45.7639900,
  "lon": 4.8276610
},
{
  "type": "node",
  "id": 1396217910,
  "lat": 45.7639910,
  "lon": 4.8276720
},
{
  "type": "node",
  "id": 1396217911,
  "lat": 45.7639940,
  "lon": 4.8273080
},
{
  "type": "node",
  "id": 1396217932,
  "lat": 45.7640080,
  "lon": 4.8276700
},
{
  "type": "node",
  "id": 1396217943,
  "lat": 45.7640090,
  "lon": 4.8276790
},
{
  "type": "node",
  "id": 1396218067,
  "lat": 45.7640800,
  "lon": 4.8269200
},
{
  "type": "node",
  "id": 1396218071,
  "lat": 45.7640820,
  "lon": 4.8268880
},
{
  "type": "node",
  "id": 1396218096,
  "lat": 45.7641060,
  "lon": 4.8269200
},
{
  "type": "node",
  "id": 1396218119,
  "lat": 45.7641310,
  "lon": 4.8276740
},
{
  "type": "node",
  "id": 1396218124,
  "lat": 45.7641340,
  "lon": 4.8277200
},
{
  "type": "node",
  "id": 1396218138,
  "lat": 45.7641500,
  "lon": 4.8276720
},
{
  "type": "node",
  "id": 1396218145,
  "lat": 45.7641620,
  "lon": 4.8276400
},
{
  "type": "node",
  "id": 1396218148,
  "lat": 45.7641640,
  "lon": 4.8276520
},
{
  "type": "node",
  "id": 1396218200,
  "lat": 45.7642200,
  "lon": 4.8276400
},
{
  "type": "node",
  "id": 1396218201,
  "lat": 45.7642200,
  "lon": 4.8276680
},
{
  "type": "node",
  "id": 1396218224,
  "lat": 45.7642530,
  "lon": 4.8272750
},
{
  "type": "node",
  "id": 1396218228,
  "lat": 45.7642560,
  "lon": 4.8273150
},
{
  "type": "node",
  "id": 1396218235,
  "lat": 45.7642620,
  "lon": 4.8273920
},
{
  "type": "node",
  "id": 1396218237,
  "lat": 45.7642630,
  "lon": 4.8274050
},
{
  "type": "node",
  "id": 1396218239,
  "lat": 45.7642650,
  "lon": 4.8276880
},
{
  "type": "node",
  "id": 1396218241,
  "lat": 45.7642660,
  "lon": 4.8274890
},
{
  "type": "node",
  "id": 1396218247,
  "lat": 45.7642680,
  "lon": 4.8276650
},
{
  "type": "node",
  "id": 1396218248,
  "lat": 45.7642680,
  "lon": 4.8276890
},
{
  "type": "node",
  "id": 1396218249,
  "lat": 45.7642700,
  "lon": 4.8275250
},
{
  "type": "node",
  "id": 1425526653,
  "lat": 45.7642340,
  "lon": 4.8270666
},
{
  "type": "node",
  "id": 1425526655,
  "lat": 45.7642207,
  "lon": 4.8269211
},
{
  "type": "node",
  "id": 1425526671,
  "lat": 45.7639293,
  "lon": 4.8271389
},
{
  "type": "node",
  "id": 1425526673,
  "lat": 45.7638787,
  "lon": 4.8271058
},
{
  "type": "node",
  "id": 2787854839,
  "lat": 45.7639578,
  "lon": 4.8276218
},
{
  "type": "node",
  "id": 6575800690,
  "lat": 45.7639356,
  "lon": 4.8275550
},
{
  "type": "node",
  "id": 6575800691,
  "lat": 45.7639456,
  "lon": 4.8271637
},
{
  "type": "node",
  "id": 6575800692,
  "lat": 45.7642194,
  "lon": 4.8276850
},
{
  "type": "node",
  "id": 730804026,
  "lat": 45.7664546,
  "lon": 4.8333245
},
{
  "type": "node",
  "id": 730804028,
  "lat": 45.7664631,
  "lon": 4.8334286
},
{
  "type": "node",
  "id": 730804030,
  "lat": 45.7664393,
  "lon": 4.8332032
},
{
  "type": "node",
  "id": 730804032,
  "lat": 45.7670110,
  "lon": 4.8329421
},
{
  "type": "node",
  "id": 730804034,
  "lat": 45.7669977,
  "lon": 4.8329496
},
{
  "type": "node",
  "id": 730804046,
  "lat": 45.7668181,
  "lon": 4.8342784
},
{
  "type": "node",
  "id": 730804050,
  "lat": 45.7668270,
  "lon": 4.8342770
},
{
  "type": "node",
  "id": 730804052,
  "lat": 45.7667311,
  "lon": 4.8343118
},
{
  "type": "node",
  "id": 730804054,
  "lat": 45.7664602,
  "lon": 4.8333810
},
{
  "type": "node",
  "id": 730804056,
  "lat": 45.7665020,
  "lon": 4.8337748
},
{
  "type": "node",
  "id": 730804058,
  "lat": 45.7665130,
  "lon": 4.8330163
},
{
  "type": "node",
  "id": 730804060,
  "lat": 45.7670108,
  "lon": 4.8329376
},
{
  "type": "node",
  "id": 730804062,
  "lat": 45.7665272,
  "lon": 4.8330249
},
{
  "type": "node",
  "id": 730804075,
  "lat": 45.7668183,
  "lon": 4.8342845
},
{
  "type": "node",
  "id": 730804077,
  "lat": 45.7668311,
  "lon": 4.8342766
},
{
  "type": "node",
  "id": 730804079,
  "lat": 45.7665242,
  "lon": 4.8339821
},
{
  "type": "node",
  "id": 730804081,
  "lat": 45.7664581,
  "lon": 4.8333812
},
{
  "type": "node",
  "id": 730804083,
  "lat": 45.7665040,
  "lon": 4.8337956
},
{
  "type": "node",
  "id": 730804085,
  "lat": 45.7665132,
  "lon": 4.8330236
},
{
  "type": "node",
  "id": 730804087,
  "lat": 45.7664185,
  "lon": 4.8330318
},
{
  "type": "node",
  "id": 730804089,
  "lat": 45.7665266,
  "lon": 4.8330149
},
{
  "type": "node",
  "id": 730804100,
  "lat": 45.7668270,
  "lon": 4.8342837
},
{
  "type": "node",
  "id": 730804103,
  "lat": 45.7668305,
  "lon": 4.8342633
},
{
  "type": "node",
  "id": 730804105,
  "lat": 45.7665606,
  "lon": 4.8342930
},
{
  "type": "node",
  "id": 730804108,
  "lat": 45.7665699,
  "lon": 4.8342936
},
{
  "type": "node",
  "id": 730804110,
  "lat": 45.7665073,
  "lon": 4.8338313
},
{
  "type": "node",
  "id": 730804113,
  "lat": 45.7664324,
  "lon": 4.8330359
},
{
  "type": "node",
  "id": 730804115,
  "lat": 45.7664235,
  "lon": 4.8330376
},
{
  "type": "node",
  "id": 730804131,
  "lat": 45.7665605,
  "lon": 4.8343005
},
{
  "type": "node",
  "id": 730804134,
  "lat": 45.7666610,
  "lon": 4.8342973
},
{
  "type": "node",
  "id": 730804136,
  "lat": 45.7664519,
  "lon": 4.8333251
},
{
  "type": "node",
  "id": 730804138,
  "lat": 45.7664318,
  "lon": 4.8330296
},
{
  "type": "node",
  "id": 730804140,
  "lat": 45.7664420,
  "lon": 4.8332025
},
{
  "type": "node",
  "id": 730804145,
  "lat": 45.7669972,
  "lon": 4.8329393
},
{
  "type": "node",
  "id": 730804155,
  "lat": 45.7667299,
  "lon": 4.8342916
},
{
  "type": "node",
  "id": 730804157,
  "lat": 45.7665695,
  "lon": 4.8343004
},
{
  "type": "node",
  "id": 730804159,
  "lat": 45.7666624,
  "lon": 4.8343169
},
{
  "type": "node",
  "id": 778111478,
  "lat": 45.7642735,
  "lon": 4.8348273
},
{
  "type": "node",
  "id": 778111494,
  "lat": 45.7643442,
  "lon": 4.8349375
},
{
  "type": "node",
  "id": 778111630,
  "lat": 45.7642155,
  "lon": 4.8347709
},
{
  "type": "node",
  "id": 778111744,
  "lat": 45.7643477,
  "lon": 4.8349383
},
{
  "type": "node",
  "id": 778111770,
  "lat": 45.7643682,
  "lon": 4.8347120
},
{
  "type": "node",
  "id": 778111773,
  "lat": 45.7643532,
  "lon": 4.8348429
},
{
  "type": "node",
  "id": 778111800,
  "lat": 45.7642391,
  "lon": 4.8346374
},
{
  "type": "node",
  "id": 778111805,
  "lat": 45.7643293,
  "lon": 4.8347184
},
{
  "type": "node",
  "id": 778111817,
  "lat": 45.7642418,
  "lon": 4.8346365
},
{
  "type": "node",
  "id": 778111847,
  "lat": 45.7643618,
  "lon": 4.8345960
},
{
  "type": "node",
  "id": 778111966,
  "lat": 45.7643529,
  "lon": 4.8346838
},
{
  "type": "node",
  "id": 778112006,
  "lat": 45.7641957,
  "lon": 4.8349055
},
{
  "type": "node",
  "id": 778112040,
  "lat": 45.7642864,
  "lon": 4.8347366
},
{
  "type": "node",
  "id": 977370806,
  "lat": 45.7662792,
  "lon": 4.8342733
},
{
  "type": "node",
  "id": 977370810,
  "lat": 45.7662048,
  "lon": 4.8332483
},
{
  "type": "node",
  "id": 977370813,
  "lat": 45.7662610,
  "lon": 4.8342788
},
{
  "type": "node",
  "id": 977370816,
  "lat": 45.7661669,
  "lon": 4.8342575
},
{
  "type": "node",
  "id": 977370818,
  "lat": 45.7662736,
  "lon": 4.8339020
},
{
  "type": "node",
  "id": 977370819,
  "lat": 45.7661626,
  "lon": 4.8342772
},
{
  "type": "node",
  "id": 977370820,
  "lat": 45.7661665,
  "lon": 4.8340572
},
{
  "type": "node",
  "id": 977370823,
  "lat": 45.7662670,
  "lon": 4.8338305
},
{
  "type": "node",
  "id": 977370825,
  "lat": 45.7662134,
  "lon": 4.8332315
},
{
  "type": "node",
  "id": 977370826,
  "lat": 45.7665565,
  "lon": 4.8342889
},
{
  "type": "node",
  "id": 977370827,
  "lat": 45.7661639,
  "lon": 4.8336431
},
{
  "type": "node",
  "id": 977370828,
  "lat": 45.7664094,
  "lon": 4.8335438
},
{
  "type": "node",
  "id": 977370830,
  "lat": 45.7663020,
  "lon": 4.8339558
},
{
  "type": "node",
  "id": 977370832,
  "lat": 45.7661666,
  "lon": 4.8341033
},
{
  "type": "node",
  "id": 977370834,
  "lat": 45.7663802,
  "lon": 4.8337283
},
{
  "type": "node",
  "id": 977370841,
  "lat": 45.7662121,
  "lon": 4.8337165
},
{
  "type": "node",
  "id": 977370847,
  "lat": 45.7661761,
  "lon": 4.8342735
},
{
  "type": "node",
  "id": 977370851,
  "lat": 45.7662815,
  "lon": 4.8330527
},
{
  "type": "node",
  "id": 977370853,
  "lat": 45.7662161,
  "lon": 4.8337472
},
{
  "type": "node",
  "id": 977370856,
  "lat": 45.7661761,
  "lon": 4.8342780
},
{
  "type": "node",
  "id": 977370859,
  "lat": 45.7664431,
  "lon": 4.8336900
},
{
  "type": "node",
  "id": 977370863,
  "lat": 45.7662782,
  "lon": 4.8339388
},
{
  "type": "node",
  "id": 977370864,
  "lat": 45.7661666,
  "lon": 4.8341231
},
{
  "type": "node",
  "id": 977370868,
  "lat": 45.7663590,
  "lon": 4.8339465
},
{
  "type": "node",
  "id": 977370870,
  "lat": 45.7663871,
  "lon": 4.8339017
},
{
  "type": "node",
  "id": 977370871,
  "lat": 45.7663873,
  "lon": 4.8333950
},
{
  "type": "node",
  "id": 977370872,
  "lat": 45.7662260,
  "lon": 4.8333879
},
{
  "type": "node",
  "id": 977370873,
  "lat": 45.7663157,
  "lon": 4.8339620
},
{
  "type": "node",
  "id": 977370874,
  "lat": 45.7663832,
  "lon": 4.8339178
},
{
  "type": "node",
  "id": 977370876,
  "lat": 45.7661979,
  "lon": 4.8336299
},
{
  "type": "node",
  "id": 977370880,
  "lat": 45.7663799,
  "lon": 4.8337242
},
{
  "type": "node",
  "id": 977370882,
  "lat": 45.7661891,
  "lon": 4.8335623
},
{
  "type": "node",
  "id": 977370887,
  "lat": 45.7663456,
  "lon": 4.8333991
},
{
  "type": "node",
  "id": 977370894,
  "lat": 45.7664076,
  "lon": 4.8335255
},
{
  "type": "node",
  "id": 977370895,
  "lat": 45.7663682,
  "lon": 4.8339405
},
{
  "type": "node",
  "id": 977370896,
  "lat": 45.7661801,
  "lon": 4.8334031
},
{
  "type": "node",
  "id": 977370899,
  "lat": 45.7662106,
  "lon": 4.8333196
},
{
  "type": "node",
  "id": 977370902,
  "lat": 45.7662074,
  "lon": 4.8331548
},
{
  "type": "node",
  "id": 977370903,
  "lat": 45.7661954,
  "lon": 4.8335594
},
{
  "type": "node",
  "id": 977370907,
  "lat": 45.7662536,
  "lon": 4.8338149
},
{
  "type": "node",
  "id": 977370908,
  "lat": 45.7661668,
  "lon": 4.8341912
},
{
  "type": "node",
  "id": 977370909,
  "lat": 45.7665563,
  "lon": 4.8342933
},
{
  "type": "node",
  "id": 977370910,
  "lat": 45.7662637,
  "lon": 4.8339221
},
{
  "type": "node",
  "id": 977370914,
  "lat": 45.7663752,
  "lon": 4.8338130
},
{
  "type": "node",
  "id": 977370916,
  "lat": 45.7662733,
  "lon": 4.8330621
},
{
  "type": "node",
  "id": 977370922,
  "lat": 45.7662753,
  "lon": 4.8339198
},
{
  "type": "node",
  "id": 977370923,
  "lat": 45.7663885,
  "lon": 4.8339169
},
{
  "type": "node",
  "id": 977370925,
  "lat": 45.7662197,
  "lon": 4.8337466
},
{
  "type": "node",
  "id": 977370926,
  "lat": 45.7663540,
  "lon": 4.8339526
},
{
  "type": "node",
  "id": 977370929,
  "lat": 45.7662815,
  "lon": 4.8339473
},
{
  "type": "node",
  "id": 977370931,
  "lat": 45.7662041,
  "lon": 4.8332337
},
{
  "type": "node",
  "id": 977370932,
  "lat": 45.7662205,
  "lon": 4.8333171
},
{
  "type": "node",
  "id": 977370934,
  "lat": 45.7663081,
  "lon": 4.8339561
},
{
  "type": "node",
  "id": 977370936,
  "lat": 45.7663996,
  "lon": 4.8334488
},
{
  "type": "node",
  "id": 977370937,
  "lat": 45.7661624,
  "lon": 4.8342573
},
{
  "type": "node",
  "id": 977370944,
  "lat": 45.7661903,
  "lon": 4.8336452
},
{
  "type": "node",
  "id": 977370950,
  "lat": 45.7663945,
  "lon": 4.8338831
},
{
  "type": "node",
  "id": 977370952,
  "lat": 45.7662936,
  "lon": 4.8339575
},
{
  "type": "node",
  "id": 977370956,
  "lat": 45.7663251,
  "lon": 4.8331431
},
{
  "type": "node",
  "id": 977370959,
  "lat": 45.7662113,
  "lon": 4.8333263
},
{
  "type": "node",
  "id": 977370960,
  "lat": 45.7662743,
  "lon": 4.8342841
},
{
  "type": "node",
  "id": 977370961,
  "lat": 45.7662119,
  "lon": 4.8333340
},
{
  "type": "node",
  "id": 977370966,
  "lat": 45.7661669,
  "lon": 4.8342112
},
{
  "type": "node",
  "id": 977370967,
  "lat": 45.7663820,
  "lon": 4.8338856
},
{
  "type": "node",
  "id": 977370968,
  "lat": 45.7662235,
  "lon": 4.8330640
},
{
  "type": "node",
  "id": 977370970,
  "lat": 45.7664400,
  "lon": 4.8336595
},
{
  "type": "node",
  "id": 977370975,
  "lat": 45.7662653,
  "lon": 4.8338139
},
{
  "type": "node",
  "id": 977370976,
  "lat": 45.7662178,
  "lon": 4.8337156
},
{
  "type": "node",
  "id": 977370980,
  "lat": 45.7663876,
  "lon": 4.8338107
},
{
  "type": "node",
  "id": 977370989,
  "lat": 45.7662791,
  "lon": 4.8342778
},
{
  "type": "node",
  "id": 977370991,
  "lat": 45.7662217,
  "lon": 4.8333323
},
{
  "type": "node",
  "id": 977370992,
  "lat": 45.7663108,
  "lon": 4.8339570
},
{
  "type": "node",
  "id": 977370996,
  "lat": 45.7663925,
  "lon": 4.8334418
},
{
  "type": "node",
  "id": 977370997,
  "lat": 45.7662620,
  "lon": 4.8339042
},
{
  "type": "node",
  "id": 977370998,
  "lat": 45.7662509,
  "lon": 4.8337533
},
{
  "type": "node",
  "id": 977370999,
  "lat": 45.7661621,
  "lon": 4.8341233
},
{
  "type": "node",
  "id": 977371000,
  "lat": 45.7663960,
  "lon": 4.8338998
},
{
  "type": "node",
  "id": 977371001,
  "lat": 45.7664430,
  "lon": 4.8336585
},
{
  "type": "node",
  "id": 977371002,
  "lat": 45.7662767,
  "lon": 4.8339320
},
{
  "type": "node",
  "id": 977371003,
  "lat": 45.7662243,
  "lon": 4.8330717
},
{
  "type": "node",
  "id": 977371004,
  "lat": 45.7663460,
  "lon": 4.8339562
},
{
  "type": "node",
  "id": 977371005,
  "lat": 45.7662625,
  "lon": 4.8337523
},
{
  "type": "node",
  "id": 977371008,
  "lat": 45.7661624,
  "lon": 4.8342110
},
{
  "type": "node",
  "id": 977371017,
  "lat": 45.7661623,
  "lon": 4.8341912
},
{
  "type": "node",
  "id": 977371019,
  "lat": 45.7662332,
  "lon": 4.8330701
},
{
  "type": "node",
  "id": 977371022,
  "lat": 45.7662746,
  "lon": 4.8342776
},
{
  "type": "node",
  "id": 977371024,
  "lat": 45.7664444,
  "lon": 4.8337022
},
{
  "type": "node",
  "id": 977371025,
  "lat": 45.7662055,
  "lon": 4.8336427
},
{
  "type": "node",
  "id": 977371029,
  "lat": 45.7661897,
  "lon": 4.8336386
},
{
  "type": "node",
  "id": 977371030,
  "lat": 45.7662726,
  "lon": 4.8330546
},
{
  "type": "node",
  "id": 977371031,
  "lat": 45.7664155,
  "lon": 4.8336031
},
{
  "type": "node",
  "id": 977371039,
  "lat": 45.7662199,
  "lon": 4.8337391
},
{
  "type": "node",
  "id": 977371043,
  "lat": 45.7662162,
  "lon": 4.8333895
},
{
  "type": "node",
  "id": 977371047,
  "lat": 45.7663700,
  "lon": 4.8337317
},
{
  "type": "node",
  "id": 977371050,
  "lat": 45.7662307,
  "lon": 4.8331509
},
{
  "type": "node",
  "id": 977371057,
  "lat": 45.7662823,
  "lon": 4.8330604
},
{
  "type": "node",
  "id": 977371061,
  "lat": 45.7662553,
  "lon": 4.8338328
},
{
  "type": "node",
  "id": 977371066,
  "lat": 45.7663760,
  "lon": 4.8338002
},
{
  "type": "node",
  "id": 977371069,
  "lat": 45.7663760,
  "lon": 4.8339320
},
{
  "type": "node",
  "id": 977371070,
  "lat": 45.7662325,
  "lon": 4.8330624
},
{
  "type": "node",
  "id": 977371078,
  "lat": 45.7663515,
  "lon": 4.8339543
},
{
  "type": "node",
  "id": 977371080,
  "lat": 45.7662894,
  "lon": 4.8331489
},
{
  "type": "node",
  "id": 977371081,
  "lat": 45.7663872,
  "lon": 4.8333910
},
{
  "type": "node",
  "id": 977371085,
  "lat": 45.7662851,
  "lon": 4.8339526
},
{
  "type": "node",
  "id": 977371086,
  "lat": 45.7663865,
  "lon": 4.8337980
},
{
  "type": "node",
  "id": 977371087,
  "lat": 45.7662168,
  "lon": 4.8333972
},
{
  "type": "node",
  "id": 977371094,
  "lat": 45.7664326,
  "lon": 4.8336498
},
{
  "type": "node",
  "id": 977371097,
  "lat": 45.7662146,
  "lon": 4.8332467
},
{
  "type": "node",
  "id": 977371101,
  "lat": 45.7665354,
  "lon": 4.8340779
},
{
  "type": "node",
  "id": 977371102,
  "lat": 45.7664259,
  "lon": 4.8335222
},
{
  "type": "node",
  "id": 977371103,
  "lat": 45.7663982,
  "lon": 4.8334407
},
{
  "type": "node",
  "id": 977371112,
  "lat": 45.7664461,
  "lon": 4.8336890
},
{
  "type": "node",
  "id": 977371114,
  "lat": 45.7661638,
  "lon": 4.8336381
},
{
  "type": "node",
  "id": 977371115,
  "lat": 45.7664389,
  "lon": 4.8336475
},
{
  "type": "node",
  "id": 977371120,
  "lat": 45.7664276,
  "lon": 4.8335403
},
{
  "type": "node",
  "id": 977371125,
  "lat": 45.7662609,
  "lon": 4.8342833
},
{
  "type": "node",
  "id": 977371130,
  "lat": 45.7662503,
  "lon": 4.8337456
},
{
  "type": "node",
  "id": 977371132,
  "lat": 45.7663934,
  "lon": 4.8334502
},
{
  "type": "node",
  "id": 977371135,
  "lat": 45.7661621,
  "lon": 4.8341035
},
{
  "type": "node",
  "id": 977371139,
  "lat": 45.7664275,
  "lon": 4.8335987
},
{
  "type": "node",
  "id": 977371140,
  "lat": 45.7663732,
  "lon": 4.8339359
},
{
  "type": "node",
  "id": 1865407721,
  "lat": 45.7669767,
  "lon": 4.8342421
},
{
  "type": "node",
  "id": 1865407802,
  "lat": 45.7668776,
  "lon": 4.8342565
},
{
  "type": "node",
  "id": 1865407863,
  "lat": 45.7667795,
  "lon": 4.8342842
},
{
  "type": "node",
  "id": 1865407902,
  "lat": 45.7666947,
  "lon": 4.8343145
},
{
  "type": "node",
  "id": 1865407926,
  "lat": 45.7664804,
  "lon": 4.8342846
},
{
  "type": "node",
  "id": 1865407962,
  "lat": 45.7664005,
  "lon": 4.8342801
},
{
  "type": "node",
  "id": 1865407968,
  "lat": 45.7663132,
  "lon": 4.8342752
},
{
  "type": "node",
  "id": 1865407993,
  "lat": 45.7662282,
  "lon": 4.8342768
},
{
  "type": "node",
  "id": 1865408175,
  "lat": 45.7670280,
  "lon": 4.8342346
},
{
  "type": "node",
  "id": 1883877751,
  "lat": 45.7670562,
  "lon": 4.8329360
},
{
  "type": "node",
  "id": 1883877792,
  "lat": 45.7667391,
  "lon": 4.8329910
},
{
  "type": "node",
  "id": 1883877813,
  "lat": 45.7661667,
  "lon": 4.8341621
},
{
  "type": "node",
  "id": 1883877815,
  "lat": 45.7666855,
  "lon": 4.8329996
},
{
  "type": "node",
  "id": 1883877825,
  "lat": 45.7666343,
  "lon": 4.8330078
},
{
  "type": "node",
  "id": 1883877840,
  "lat": 45.7665721,
  "lon": 4.8330177
},
{
  "type": "node",
  "id": 1883877851,
  "lat": 45.7665421,
  "lon": 4.8330225
},
{
  "type": "node",
  "id": 1883877875,
  "lat": 45.7664727,
  "lon": 4.8330298
},
{
  "type": "node",
  "id": 1883877927,
  "lat": 45.7669802,
  "lon": 4.8329524
},
{
  "type": "node",
  "id": 1883877972,
  "lat": 45.7669337,
  "lon": 4.8329598
},
{
  "type": "node",
  "id": 1883878023,
  "lat": 45.7668585,
  "lon": 4.8329719
},
{
  "type": "node",
  "id": 1883878048,
  "lat": 45.7668054,
  "lon": 4.8329804
},
{
  "type": "node",
  "id": 2636921704,
  "lat": 45.7662496,
  "lon": 4.8330668
},
{
  "type": "node",
  "id": 730804025,
  "lat": 45.7671666,
  "lon": 4.8334900
},
{
  "type": "node",
  "id": 730804027,
  "lat": 45.7671840,
  "lon": 4.8335375
},
{
  "type": "node",
  "id": 730804029,
  "lat": 45.7671929,
  "lon": 4.8336920
},
{
  "type": "node",
  "id": 730804031,
  "lat": 45.7671891,
  "lon": 4.8336612
},
{
  "type": "node",
  "id": 730804033,
  "lat": 45.7672036,
  "lon": 4.8338257
},
{
  "type": "node",
  "id": 730804035,
  "lat": 45.7672108,
  "lon": 4.8339218
},
{
  "type": "node",
  "id": 730804036,
  "lat": 45.7671196,
  "lon": 4.8330711
},
{
  "type": "node",
  "id": 730804037,
  "lat": 45.7672090,
  "lon": 4.8339037
},
{
  "type": "node",
  "id": 730804038,
  "lat": 45.7671286,
  "lon": 4.8331538
},
{
  "type": "node",
  "id": 730804039,
  "lat": 45.7672331,
  "lon": 4.8340834
},
{
  "type": "node",
  "id": 730804040,
  "lat": 45.7671173,
  "lon": 4.8330778
},
{
  "type": "node",
  "id": 730804041,
  "lat": 45.7672372,
  "lon": 4.8342100
},
{
  "type": "node",
  "id": 730804042,
  "lat": 45.7671489,
  "lon": 4.8333697
},
{
  "type": "node",
  "id": 730804044,
  "lat": 45.7672492,
  "lon": 4.8341941
},
{
  "type": "node",
  "id": 730804045,
  "lat": 45.7671438,
  "lon": 4.8332916
},
{
  "type": "node",
  "id": 730804049,
  "lat": 45.7671524,
  "lon": 4.8333743
},
{
  "type": "node",
  "id": 730804051,
  "lat": 45.7671733,
  "lon": 4.8335211
},
{
  "type": "node",
  "id": 730804053,
  "lat": 45.7671696,
  "lon": 4.8334894
},
{
  "type": "node",
  "id": 730804055,
  "lat": 45.7671805,
  "lon": 4.8336130
},
{
  "type": "node",
  "id": 730804057,
  "lat": 45.7671896,
  "lon": 4.8336926
},
{
  "type": "node",
  "id": 730804059,
  "lat": 45.7671875,
  "lon": 4.8336441
},
{
  "type": "node",
  "id": 730804061,
  "lat": 45.7672001,
  "lon": 4.8338264
},
{
  "type": "node",
  "id": 730804063,
  "lat": 45.7672140,
  "lon": 4.8339208
},
{
  "type": "node",
  "id": 730804064,
  "lat": 45.7671963,
  "lon": 4.8337610
},
{
  "type": "node",
  "id": 730804066,
  "lat": 45.7671241,
  "lon": 4.8330701
},
{
  "type": "node",
  "id": 730804067,
  "lat": 45.7672024,
  "lon": 4.8338444
},
{
  "type": "node",
  "id": 730804068,
  "lat": 45.7671059,
  "lon": 4.8329408
},
{
  "type": "node",
  "id": 730804069,
  "lat": 45.7672363,
  "lon": 4.8340824
},
{
  "type": "node",
  "id": 730804070,
  "lat": 45.7671202,
  "lon": 4.8330772
},
{
  "type": "node",
  "id": 730804071,
  "lat": 45.7672292,
  "lon": 4.8340586
},
{
  "type": "node",
  "id": 730804072,
  "lat": 45.7671424,
  "lon": 4.8333103
},
{
  "type": "node",
  "id": 730804073,
  "lat": 45.7672456,
  "lon": 4.8341945
},
{
  "type": "node",
  "id": 730804074,
  "lat": 45.7671406,
  "lon": 4.8332923
},
{
  "type": "node",
  "id": 730804076,
  "lat": 45.7671615,
  "lon": 4.8334415
},
{
  "type": "node",
  "id": 730804078,
  "lat": 45.7671700,
  "lon": 4.8335217
},
{
  "type": "node",
  "id": 730804080,
  "lat": 45.7671681,
  "lon": 4.8334719
},
{
  "type": "node",
  "id": 730804082,
  "lat": 45.7671836,
  "lon": 4.8336124
},
{
  "type": "node",
  "id": 730804084,
  "lat": 45.7671909,
  "lon": 4.8335930
},
{
  "type": "node",
  "id": 730804086,
  "lat": 45.7671843,
  "lon": 4.8336446
},
{
  "type": "node",
  "id": 730804088,
  "lat": 45.7671938,
  "lon": 4.8337673
},
{
  "type": "node",
  "id": 730804090,
  "lat": 45.7672006,
  "lon": 4.8337601
},
{
  "type": "node",
  "id": 730804091,
  "lat": 45.7671220,
  "lon": 4.8330522
},
{
  "type": "node",
  "id": 730804092,
  "lat": 45.7672054,
  "lon": 4.8338434
},
{
  "type": "node",
  "id": 730804093,
  "lat": 45.7671093,
  "lon": 4.8329402
},
{
  "type": "node",
  "id": 730804094,
  "lat": 45.7672341,
  "lon": 4.8340648
},
{
  "type": "node",
  "id": 730804095,
  "lat": 45.7671352,
  "lon": 4.8332130
},
{
  "type": "node",
  "id": 730804096,
  "lat": 45.7672261,
  "lon": 4.8340593
},
{
  "type": "node",
  "id": 730804097,
  "lat": 45.7671456,
  "lon": 4.8333097
},
{
  "type": "node",
  "id": 730804098,
  "lat": 45.7671392,
  "lon": 4.8342287
},
{
  "type": "node",
  "id": 730804099,
  "lat": 45.7671338,
  "lon": 4.8332313
},
{
  "type": "node",
  "id": 730804102,
  "lat": 45.7671645,
  "lon": 4.8334411
},
{
  "type": "node",
  "id": 730804104,
  "lat": 45.7671562,
  "lon": 4.8333925
},
{
  "type": "node",
  "id": 730804106,
  "lat": 45.7671646,
  "lon": 4.8334725
},
{
  "type": "node",
  "id": 730804107,
  "lat": 45.7671075,
  "lon": 4.8329215
},
{
  "type": "node",
  "id": 730804109,
  "lat": 45.7671834,
  "lon": 4.8336079
},
{
  "type": "node",
  "id": 730804112,
  "lat": 45.7671791,
  "lon": 4.8335955
},
{
  "type": "node",
  "id": 730804114,
  "lat": 45.7671920,
  "lon": 4.8337109
},
{
  "type": "node",
  "id": 730804116,
  "lat": 45.7671966,
  "lon": 4.8337666
},
{
  "type": "node",
  "id": 730804117,
  "lat": 45.7670947,
  "lon": 4.8329238
},
{
  "type": "node",
  "id": 730804118,
  "lat": 45.7671990,
  "lon": 4.8337412
},
{
  "type": "node",
  "id": 730804119,
  "lat": 45.7671181,
  "lon": 4.8330524
},
{
  "type": "node",
  "id": 730804120,
  "lat": 45.7672208,
  "lon": 4.8339809
},
{
  "type": "node",
  "id": 730804121,
  "lat": 45.7672300,
  "lon": 4.8340657
},
{
  "type": "node",
  "id": 730804122,
  "lat": 45.7671321,
  "lon": 4.8332135
},
{
  "type": "node",
  "id": 730804123,
  "lat": 45.7672194,
  "lon": 4.8339999
},
{
  "type": "node",
  "id": 730804124,
  "lat": 45.7671269,
  "lon": 4.8331356
},
{
  "type": "node",
  "id": 730804125,
  "lat": 45.7671519,
  "lon": 4.8342273
},
{
  "type": "node",
  "id": 730804126,
  "lat": 45.7671370,
  "lon": 4.8332306
},
{
  "type": "node",
  "id": 730804127,
  "lat": 45.7672375,
  "lon": 4.8342150
},
{
  "type": "node",
  "id": 730804128,
  "lat": 45.7671628,
  "lon": 4.8334232
},
{
  "type": "node",
  "id": 730804129,
  "lat": 45.7671389,
  "lon": 4.8342185
},
{
  "type": "node",
  "id": 730804130,
  "lat": 45.7671589,
  "lon": 4.8333919
},
{
  "type": "node",
  "id": 730804133,
  "lat": 45.7671831,
  "lon": 4.8335238
},
{
  "type": "node",
  "id": 730804135,
  "lat": 45.7671922,
  "lon": 4.8336070
},
{
  "type": "node",
  "id": 730804137,
  "lat": 45.7671732,
  "lon": 4.8335398
},
{
  "type": "node",
  "id": 730804139,
  "lat": 45.7671950,
  "lon": 4.8337105
},
{
  "type": "node",
  "id": 730804142,
  "lat": 45.7671863,
  "lon": 4.8336617
},
{
  "type": "node",
  "id": 730804143,
  "lat": 45.7670952,
  "lon": 4.8329291
},
{
  "type": "node",
  "id": 730804144,
  "lat": 45.7671954,
  "lon": 4.8337415
},
{
  "type": "node",
  "id": 730804146,
  "lat": 45.7672176,
  "lon": 4.8339816
},
{
  "type": "node",
  "id": 730804147,
  "lat": 45.7672121,
  "lon": 4.8339033
},
{
  "type": "node",
  "id": 730804148,
  "lat": 45.7671254,
  "lon": 4.8331543
},
{
  "type": "node",
  "id": 730804149,
  "lat": 45.7672224,
  "lon": 4.8339990
},
{
  "type": "node",
  "id": 730804150,
  "lat": 45.7671237,
  "lon": 4.8331360
},
{
  "type": "node",
  "id": 730804151,
  "lat": 45.7671519,
  "lon": 4.8342223
},
{
  "type": "node",
  "id": 730804152,
  "lat": 45.7671521,
  "lon": 4.8333691
},
{
  "type": "node",
  "id": 730804153,
  "lat": 45.7672511,
  "lon": 4.8342134
},
{
  "type": "node",
  "id": 730804154,
  "lat": 45.7671593,
  "lon": 4.8334236
},
{
  "type": "node",
  "id": 730804156,
  "lat": 45.7671574,
  "lon": 4.8333735
},
{
  "type": "node",
  "id": 730804158,
  "lat": 45.7671736,
  "lon": 4.8335253
},
{
  "type": "node",
  "id": 1382813129,
  "lat": 45.7671761,
  "lon": 4.8335667
},
{
  "type": "node",
  "id": 1603519802,
  "lat": 45.7671205,
  "lon": 4.8331067
},
{
  "type": "node",
  "id": 1603519831,
  "lat": 45.7671463,
  "lon": 4.8333458
},
{
  "type": "node",
  "id": 1603519840,
  "lat": 45.7671941,
  "lon": 4.8337294
},
{
  "type": "node",
  "id": 1603519846,
  "lat": 45.7672059,
  "lon": 4.8338759
},
{
  "type": "node",
  "id": 1603519850,
  "lat": 45.7672212,
  "lon": 4.8340157
},
{
  "type": "node",
  "id": 1603519867,
  "lat": 45.7672387,
  "lon": 4.8341335
},
{
  "type": "node",
  "id": 1865407939,
  "lat": 45.7672077,
  "lon": 4.8342143
},
{
  "type": "node",
  "id": 1865408034,
  "lat": 45.7671463,
  "lon": 4.8342279
},
{
  "type": "node",
  "id": 1865408104,
  "lat": 45.7670834,
  "lon": 4.8342266
},
{
  "type": "node",
  "id": 778136524,
  "lat": 45.7842269,
  "lon": 4.8528327
},
{
  "type": "node",
  "id": 778136525,
  "lat": 45.7840796,
  "lon": 4.8522454
},
{
  "type": "node",
  "id": 778136703,
  "lat": 45.7839839,
  "lon": 4.8523264
},
{
  "type": "node",
  "id": 778136787,
  "lat": 45.7841924,
  "lon": 4.8520938
},
{
  "type": "node",
  "id": 778136974,
  "lat": 45.7842440,
  "lon": 4.8528366
},
{
  "type": "node",
  "id": 778137252,
  "lat": 45.7840368,
  "lon": 4.8521822
},
{
  "type": "node",
  "id": 778137320,
  "lat": 45.7842036,
  "lon": 4.8527741
},
{
  "type": "node",
  "id": 778137519,
  "lat": 45.7841529,
  "lon": 4.8521272
},
{
  "type": "node",
  "id": 778137620,
  "lat": 45.7841131,
  "lon": 4.8522170
},
{
  "type": "node",
  "id": 778137714,
  "lat": 45.7841796,
  "lon": 4.8527942
},
{
  "type": "node",
  "id": 778137782,
  "lat": 45.7840099,
  "lon": 4.8524501
},
{
  "type": "node",
  "id": 778137854,
  "lat": 45.7840786,
  "lon": 4.8521313
},
{
  "type": "node",
  "id": 778138008,
  "lat": 45.7842957,
  "lon": 4.8527946
},
{
  "type": "node",
  "id": 778138149,
  "lat": 45.7840554,
  "lon": 4.8521874
},
{
  "type": "node",
  "id": 778138153,
  "lat": 45.7840294,
  "lon": 4.8524341
},
{
  "type": "node",
  "id": 778138283,
  "lat": 45.7840121,
  "lon": 4.8523023
},
{
  "type": "node",
  "id": 778138287,
  "lat": 45.7839849,
  "lon": 4.8523256
},
{
  "type": "node",
  "id": 778138311,
  "lat": 45.7839910,
  "lon": 4.8522211
},
{
  "type": "node",
  "id": 778138364,
  "lat": 45.7842981,
  "lon": 4.8527778
},
{
  "type": "node",
  "id": 778138367,
  "lat": 45.7842523,
  "lon": 4.8520993
},
{
  "type": "node",
  "id": 778138615,
  "lat": 45.7842089,
  "lon": 4.8521358
},
{
  "type": "node",
  "id": 778138858,
  "lat": 45.7841349,
  "lon": 4.8520828
},
{
  "type": "node",
  "id": 778139109,
  "lat": 45.7841348,
  "lon": 4.8526907
},
{
  "type": "node",
  "id": 778139518,
  "lat": 45.7841134,
  "lon": 4.8527083
},
{
  "type": "node",
  "id": 778139529,
  "lat": 45.7840961,
  "lon": 4.8521752
},
{
  "type": "node",
  "id": 778139844,
  "lat": 45.7839880,
  "lon": 4.8522444
},
{
  "type": "node",
  "id": 778139909,
  "lat": 45.7844428,
  "lon": 4.8525751
},
{
  "type": "node",
  "id": 778139930,
  "lat": 45.7842736,
  "lon": 4.8527158
},
{
  "type": "node",
  "id": 778140230,
  "lat": 45.7841376,
  "lon": 4.8526887
},
{
  "type": "node",
  "id": 2609630055,
  "lat": 45.7844005,
  "lon": 4.8524695
},
{
  "type": "node",
  "id": 6679946039,
  "lat": 45.7840029,
  "lon": 4.8522802
},
{
  "type": "node",
  "id": 6679946042,
  "lat": 45.7842103,
  "lon": 4.8527910
},
{
  "type": "node",
  "id": 1432124633,
  "lat": 45.8370440,
  "lon": 4.8254840
},
{
  "type": "node",
  "id": 1432124636,
  "lat": 45.8370470,
  "lon": 4.8254070
},
{
  "type": "node",
  "id": 1432125269,
  "lat": 45.8373730,
  "lon": 4.8257270
},
{
  "type": "node",
  "id": 1432125344,
  "lat": 45.8374230,
  "lon": 4.8257330
},
{
  "type": "node",
  "id": 1432125566,
  "lat": 45.8375630,
  "lon": 4.8257510
},
{
  "type": "node",
  "id": 1432125607,
  "lat": 45.8375730,
  "lon": 4.8258320
},
{
  "type": "node",
  "id": 1432125616,
  "lat": 45.8375731,
  "lon": 4.8267317
},
{
  "type": "node",
  "id": 1432125677,
  "lat": 45.8375856,
  "lon": 4.8267387
},
{
  "type": "node",
  "id": 1432125706,
  "lat": 45.8376017,
  "lon": 4.8267411
},
{
  "type": "node",
  "id": 1432125728,
  "lat": 45.8376183,
  "lon": 4.8267384
},
{
  "type": "node",
  "id": 1432125751,
  "lat": 45.8376310,
  "lon": 4.8263850
},
{
  "type": "node",
  "id": 1432125755,
  "lat": 45.8376329,
  "lon": 4.8267258
},
{
  "type": "node",
  "id": 1432125782,
  "lat": 45.8376438,
  "lon": 4.8267081
},
{
  "type": "node",
  "id": 1432125797,
  "lat": 45.8376511,
  "lon": 4.8266881
},
{
  "type": "node",
  "id": 1432125802,
  "lat": 45.8376541,
  "lon": 4.8266711
},
{
  "type": "node",
  "id": 1432125814,
  "lat": 45.8376540,
  "lon": 4.8264870
},
{
  "type": "node",
  "id": 1432125815,
  "lat": 45.8376560,
  "lon": 4.8266550
},
{
  "type": "node",
  "id": 6766032291,
  "lat": 45.8370343,
  "lon": 4.8268779
},
{
  "type": "node",
  "id": 6766032292,
  "lat": 45.8369922,
  "lon": 4.8268497
},
{
  "type": "node",
  "id": 6766032293,
  "lat": 45.8368848,
  "lon": 4.8267183
},
{
  "type": "node",
  "id": 6766032294,
  "lat": 45.8369549,
  "lon": 4.8266177
},
{
  "type": "node",
  "id": 6766032295,
  "lat": 45.8368820,
  "lon": 4.8255917
},
{
  "type": "node",
  "id": 6766032296,
  "lat": 45.8367605,
  "lon": 4.8255850
},
{
  "type": "node",
  "id": 6766032297,
  "lat": 45.8367615,
  "lon": 4.8253168
},
{
  "type": "node",
  "id": 6766032298,
  "lat": 45.8370184,
  "lon": 4.8253866
},
{
  "type": "node",
  "id": 6766032299,
  "lat": 45.8370455,
  "lon": 4.8255515
},
{
  "type": "node",
  "id": 6766032300,
  "lat": 45.8370651,
  "lon": 4.8255824
},
{
  "type": "node",
  "id": 6766032301,
  "lat": 45.8371277,
  "lon": 4.8256025
},
{
  "type": "node",
  "id": 6766032302,
  "lat": 45.8371670,
  "lon": 4.8256373
},
{
  "type": "node",
  "id": 6766032303,
  "lat": 45.8371800,
  "lon": 4.8257138
},
{
  "type": "node",
  "id": 6766032304,
  "lat": 45.8376024,
  "lon": 4.8262569
},
{
  "type": "node",
  "id": 6766032305,
  "lat": 45.8375071,
  "lon": 4.8267813
},
{
  "type": "node",
  "id": 6766032306,
  "lat": 45.8374314,
  "lon": 4.8268403
},
{
  "type": "node",
  "id": 6766032307,
  "lat": 45.8370791,
  "lon": 4.8268832
},
{
  "type": "node",
  "id": 3590216525,
  "lat": 45.7666813,
  "lon": 4.9823967
},
{
  "type": "node",
  "id": 3590216602,
  "lat": 45.7669185,
  "lon": 4.9827735
},
{
  "type": "node",
  "id": 3590712732,
  "lat": 45.7669530,
  "lon": 4.9824370
},
{
  "type": "node",
  "id": 3623600158,
  "lat": 45.7666136,
  "lon": 4.9826954
},
{
  "type": "node",
  "id": 3623600159,
  "lat": 45.7666482,
  "lon": 4.9825783
},
{
  "type": "node",
  "id": 3623600161,
  "lat": 45.7666877,
  "lon": 4.9823615
},
{
  "type": "node",
  "id": 3623600163,
  "lat": 45.7667772,
  "lon": 4.9827800
},
{
  "type": "node",
  "id": 3623600165,
  "lat": 45.7668511,
  "lon": 4.9823980
},
{
  "type": "node",
  "id": 3815928772,
  "lat": 45.7669578,
  "lon": 4.9827717
},
{
  "type": "node",
  "id": 6055885532,
  "lat": 45.7670058,
  "lon": 4.9827694
},
{
  "type": "node",
  "id": 6055885563,
  "lat": 45.7670550,
  "lon": 4.9824337
},
{
  "type": "node",
  "id": 6055885579,
  "lat": 45.7669692,
  "lon": 4.9824365
},
{
  "type": "node",
  "id": 6252561401,
  "lat": 45.7670766,
  "lon": 4.9824330
},
{
  "type": "node",
  "id": 3623600168,
  "lat": 45.7670832,
  "lon": 4.9827657
},
{
  "type": "node",
  "id": 1500831576,
  "lat": 45.9903490,
  "lon": 4.7215770
},
{
  "type": "node",
  "id": 1500831613,
  "lat": 45.9903610,
  "lon": 4.7209480
},
{
  "type": "node",
  "id": 1500831624,
  "lat": 45.9903650,
  "lon": 4.7208390
},
{
  "type": "node",
  "id": 1500831721,
  "lat": 45.9904030,
  "lon": 4.7208410
},
{
  "type": "node",
  "id": 1500831999,
  "lat": 45.9904630,
  "lon": 4.7208445
},
{
  "type": "node",
  "id": 1500832072,
  "lat": 45.9904771,
  "lon": 4.7208455
},
{
  "type": "node",
  "id": 1500832437,
  "lat": 45.9905370,
  "lon": 4.7208490
},
{
  "type": "node",
  "id": 1500833074,
  "lat": 45.9906030,
  "lon": 4.7215910
},
{
  "type": "node",
  "id": 1500833132,
  "lat": 45.9906220,
  "lon": 4.7208540
},
{
  "type": "node",
  "id": 1500833581,
  "lat": 45.9907560,
  "lon": 4.7212680
},
{
  "type": "node",
  "id": 1500833615,
  "lat": 45.9907690,
  "lon": 4.7207590
},
{
  "type": "node",
  "id": 1500833801,
  "lat": 45.9908240,
  "lon": 4.7207560
},
{
  "type": "node",
  "id": 1500833802,
  "lat": 45.9908240,
  "lon": 4.7207610
},
{
  "type": "node",
  "id": 1500833845,
  "lat": 45.9908370,
  "lon": 4.7212710
},
{
  "type": "node",
  "id": 1500833846,
  "lat": 45.9908370,
  "lon": 4.7212910
},
{
  "type": "node",
  "id": 1500833918,
  "lat": 45.9908530,
  "lon": 4.7207500
},
{
  "type": "node",
  "id": 1500833920,
  "lat": 45.9908530,
  "lon": 4.7207570
},
{
  "type": "node",
  "id": 1500834070,
  "lat": 45.9908810,
  "lon": 4.7212920
},
{
  "type": "node",
  "id": 1500834087,
  "lat": 45.9908830,
  "lon": 4.7212720
},
{
  "type": "node",
  "id": 1500834102,
  "lat": 45.9908850,
  "lon": 4.7207510
},
{
  "type": "node",
  "id": 1500834106,
  "lat": 45.9908850,
  "lon": 4.7207580
},
{
  "type": "node",
  "id": 1500834594,
  "lat": 45.9909200,
  "lon": 4.7207580
},
{
  "type": "node",
  "id": 1500834595,
  "lat": 45.9909200,
  "lon": 4.7207640
},
{
  "type": "node",
  "id": 1500834713,
  "lat": 45.9909630,
  "lon": 4.7212750
},
{
  "type": "node",
  "id": 1500834744,
  "lat": 45.9909770,
  "lon": 4.7207670
},
{
  "type": "node",
  "id": 2649845831,
  "lat": 45.9908593,
  "lon": 4.7212915
},
{
  "type": "node",
  "id": 3112785630,
  "lat": 45.9908690,
  "lon": 4.7207505
},
{
  "type": "node",
  "id": 1573997826,
  "lat": 45.9925100,
  "lon": 4.8227870
},
{
  "type": "node",
  "id": 1573997831,
  "lat": 45.9925110,
  "lon": 4.8228450
},
{
  "type": "node",
  "id": 1573997851,
  "lat": 45.9925110,
  "lon": 4.8228900
},
{
  "type": "node",
  "id": 1573997854,
  "lat": 45.9925110,
  "lon": 4.8229880
},
{
  "type": "node",
  "id": 1573997906,
  "lat": 45.9925210,
  "lon": 4.8228890
},
{
  "type": "node",
  "id": 1573997909,
  "lat": 45.9925210,
  "lon": 4.8229060
},
{
  "type": "node",
  "id": 1573998115,
  "lat": 45.9925490,
  "lon": 4.8227550
},
{
  "type": "node",
  "id": 1573998118,
  "lat": 45.9925508,
  "lon": 4.8227864
},
{
  "type": "node",
  "id": 1573998214,
  "lat": 45.9925920,
  "lon": 4.8228180
},
{
  "type": "node",
  "id": 1573998217,
  "lat": 45.9925930,
  "lon": 4.8228430
},
{
  "type": "node",
  "id": 1573998235,
  "lat": 45.9926005,
  "lon": 4.8227563
},
{
  "type": "node",
  "id": 1573998240,
  "lat": 45.9926000,
  "lon": 4.8227850
},
{
  "type": "node",
  "id": 1573998366,
  "lat": 45.9926270,
  "lon": 4.8228960
},
{
  "type": "node",
  "id": 1573998370,
  "lat": 45.9926280,
  "lon": 4.8228460
},
{
  "type": "node",
  "id": 1573998448,
  "lat": 45.9926580,
  "lon": 4.8228180
},
{
  "type": "node",
  "id": 1573998452,
  "lat": 45.9926590,
  "lon": 4.8228440
},
{
  "type": "node",
  "id": 1573998555,
  "lat": 45.9927100,
  "lon": 4.8227910
},
{
  "type": "node",
  "id": 1573998562,
  "lat": 45.9927110,
  "lon": 4.8228020
},
{
  "type": "node",
  "id": 1573998639,
  "lat": 45.9927510,
  "lon": 4.8228050
},
{
  "type": "node",
  "id": 1573998640,
  "lat": 45.9927520,
  "lon": 4.8229600
},
{
  "type": "node",
  "id": 5469263194,
  "lat": 45.9925507,
  "lon": 4.8229834
},
{
  "type": "node",
  "id": 1573995919,
  "lat": 45.9920780,
  "lon": 4.8245610
},
{
  "type": "node",
  "id": 1573995933,
  "lat": 45.9920780,
  "lon": 4.8245630
},
{
  "type": "node",
  "id": 1573995949,
  "lat": 45.9920840,
  "lon": 4.8244640
},
{
  "type": "node",
  "id": 1573996046,
  "lat": 45.9921260,
  "lon": 4.8242780
},
{
  "type": "node",
  "id": 1573996101,
  "lat": 45.9921500,
  "lon": 4.8241880
},
{
  "type": "node",
  "id": 1573996421,
  "lat": 45.9922230,
  "lon": 4.8241880
},
{
  "type": "node",
  "id": 1573996563,
  "lat": 45.9922530,
  "lon": 4.8244790
},
{
  "type": "node",
  "id": 1573996587,
  "lat": 45.9922600,
  "lon": 4.8242740
},
{
  "type": "node",
  "id": 1573996588,
  "lat": 45.9922610,
  "lon": 4.8243810
},
{
  "type": "node",
  "id": 1573996664,
  "lat": 45.9922800,
  "lon": 4.8244650
},
{
  "type": "node",
  "id": 1573996694,
  "lat": 45.9922870,
  "lon": 4.8242740
},
{
  "type": "node",
  "id": 1573996705,
  "lat": 45.9922890,
  "lon": 4.8243680
},
{
  "type": "node",
  "id": 1573997075,
  "lat": 45.9923720,
  "lon": 4.8241880
},
{
  "type": "node",
  "id": 1573997405,
  "lat": 45.9924360,
  "lon": 4.8241770
},
{
  "type": "node",
  "id": 1573997435,
  "lat": 45.9924450,
  "lon": 4.8242490
},
{
  "type": "node",
  "id": 1573997438,
  "lat": 45.9924460,
  "lon": 4.8241740
},
{
  "type": "node",
  "id": 1573997459,
  "lat": 45.9924520,
  "lon": 4.8242470
},
{
  "type": "node",
  "id": 1573997505,
  "lat": 45.9924590,
  "lon": 4.8243840
},
{
  "type": "node",
  "id": 2013717161,
  "lat": 45.5381590,
  "lon": 5.1566654
},
{
  "type": "node",
  "id": 2013717162,
  "lat": 45.5381135,
  "lon": 5.1565002
},
{
  "type": "node",
  "id": 2013717170,
  "lat": 45.5380616,
  "lon": 5.1563858
},
{
  "type": "node",
  "id": 2013717172,
  "lat": 45.5380932,
  "lon": 5.1565340
},
{
  "type": "node",
  "id": 2013717177,
  "lat": 45.5382153,
  "lon": 5.1562953
},
{
  "type": "node",
  "id": 2013717179,
  "lat": 45.5382398,
  "lon": 5.1563355
},
{
  "type": "node",
  "id": 2013717180,
  "lat": 45.5382172,
  "lon": 5.1563570
},
{
  "type": "node",
  "id": 2013717182,
  "lat": 45.5382980,
  "lon": 5.1565340
},
{
  "type": "node",
  "id": 2013717193,
  "lat": 45.5381928,
  "lon": 5.1562497
},
{
  "type": "node",
  "id": 638801034,
  "lat": 45.9033440,
  "lon": 5.1791250
},
{
  "type": "node",
  "id": 638801035,
  "lat": 45.9033073,
  "lon": 5.1792866
},
{
  "type": "node",
  "id": 638801037,
  "lat": 45.9033122,
  "lon": 5.1792892
},
{
  "type": "node",
  "id": 638801039,
  "lat": 45.9033139,
  "lon": 5.1792828
},
{
  "type": "node",
  "id": 638801041,
  "lat": 45.9034538,
  "lon": 5.1793158
},
{
  "type": "node",
  "id": 638801044,
  "lat": 45.9033239,
  "lon": 5.1792134
},
{
  "type": "node",
  "id": 638801053,
  "lat": 45.9034747,
  "lon": 5.1792075
},
{
  "type": "node",
  "id": 2442992182,
  "lat": 45.9034340,
  "lon": 5.1791696
},
{
  "type": "way",
  "id": 136798183,
  "nodes": [
    1500834713,
    1500834744,
    1500834595,
    1500834594,
    1500834106,
    1500834102,
    3112785630,
    1500833918,
    1500833920,
    1500833801,
    1500833802,
    1500833615,
    1500833581,
    1500833845,
    1500833846,
    2649845831,
    1500834070,
    1500834087,
    1500834713
  ]
},
{
  "type": "way",
  "id": 136806134,
  "nodes": [
    1500831576,
    1500833074,
    1500833132,
    1500832437,
    1500832072,
    1500831999,
    1500831721,
    1500831624,
    1500831613,
    1500831576
  ]
}

  ]
}
