{
  "version": 0.6,
  "generator": "Overpass API 0.7.55.1011 6c2efc30",
  "osm3s": {
    "timestamp_osm_base": "2020-02-14T17:45:02Z",
    "copyright": "The data included in this document is from www.openstreetmap.org. The data is made available under ODbL."
  },
  "elements": [

{
  "type": "node",
  "id": 444368719,
  "lat": 37.9477041,
  "lon": 23.7345297,
  "tags": {
    "tourism": "museum"
  }
},
{
  "type": "node",
  "id": 964641453,
  "lat": 38.0806850,
  "lon": 23.7355646,
  "tags": {
    "name": "Ιστορικό & Λαογραφικό Μουσείο Αχαρνών",
    "name:el": "Ιστορικό & Λαογραφικό Μουσείο Αχαρνών",
    "name:en": "Folk Art Museum of Acharnes",
    "tourism": "museum",
    "website": "http://www.ileamousio.gr/",
    "wikidata": "Q5464412",
    "wikipedia": "el:Ιστορικό και Λαογραφικό Μουσείο Αχαρνών"
  }
},
{
  "type": "node",
  "id": 964641826,
  "lat": 38.0750702,
  "lon": 23.7396929,
  "tags": {
    "name": "Archeological",
    "tourism": "museum"
  }
},
{
  "type": "node",
  "id": 1174611247,
  "lat": 38.0923520,
  "lon": 23.8709776,
  "tags": {
    "alt_name": "Λατομείο Αλούλα",
    "alt_name:el": "Λατομείο Αλούλα",
    "alt_name:en": "Aloula quarry",
    "name": "Ανοιχτό Μουσείο Λατομείου",
    "name:el": "Ανοιχτό Μουσείο Λατομείου",
    "name:en": "Open Quarry Museum",
    "tourism": "museum"
  }
},
{
  "type": "node",
  "id": 1708207953,
  "lat": 37.9311554,
  "lon": 23.7552382,
  "tags": {
    "name": "Μουσείο Εθνικής Αντίστασης",
    "name:el": "Μουσείο Εθνικής Αντίστασης",
    "name:en": "National Resistance Museum",
    "tourism": "museum"
  }
},
{
  "type": "node",
  "id": 2131618195,
  "lat": 38.0252350,
  "lon": 23.7867418,
  "tags": {
    "name": "Καστρίτσειο Μουσείο",
    "tourism": "museum"
  }
},
{
  "type": "node",
  "id": 2131626015,
  "lat": 38.0219031,
  "lon": 23.7681780,
  "tags": {
    "name": "Ίδρυμα \"Κωνσταντίνος Γ. Καραμανλής\"",
    "tourism": "museum",
    "wikidata": "Q20750528"
  }
},
{
  "type": "node",
  "id": 2331153819,
  "lat": 37.9810223,
  "lon": 23.7371157,
  "tags": {
    "tourism": "museum"
  }
},
{
  "type": "node",
  "id": 2495120575,
  "lat": 38.0580120,
  "lon": 23.5506620,
  "tags": {
    "tourism": "museum"
  }
},
{
  "type": "node",
  "id": 3005463590,
  "lat": 37.9887690,
  "lon": 23.7323306,
  "tags": {
    "addr:city": "Αθήνα",
    "addr:housename": "Εθνικό Αρχαιολογικό Μουσείο",
    "addr:housenumber": "1",
    "addr:postcode": "10682",
    "addr:street": "Τοσίτσα",
    "description": "The Epigraphical museum exhibits 13536 inscriptions and is the biggest of its kind in the world. It displays collections of inscriptions from different historic periods of Greece, as well as some Latin and Jewish inscriptions.",
    "email": "ema@culture.gr",
    "name": "Επιγραφικό μουσείο",
    "name:el": "Επιγραφικό μουσείο",
    "name:en": "Epigraphical museum",
    "name:es": "Museo Epigráfico",
    "name:pl": "Muzeum Epigraficzne",
    "name:pt": "Museu Epigráfico",
    "opening_hours": "Tu-Su 08:00-15:00",
    "phone": "+30 210 8232950",
    "source": "http://odysseus.culture.gr/h/1/gh155.jsp?obj_id=3348",
    "tourism": "museum",
    "website": "http://odysseus.culture.gr/h/1/eh151.jsp?obj_id=3348",
    "wheelchair": "yes",
    "wikidata": "Q2732854",
    "wikipedia": "el:Επιγραφικό μουσείο"
  }
},
{
  "type": "node",
  "id": 3266233641,
  "lat": 37.9749129,
  "lon": 23.7242529,
  "tags": {
    "addr:city": "Αθήνα",
    "addr:country": "GR",
    "addr:housename": "Στοά του Αττάλου",
    "addr:housenumber": "24",
    "addr:postcode": "10555",
    "addr:street": "Αδριανού",
    "bibliography": "Camp II J. McK., The Athenian Agora: Excavations in the Heart of Classical Athens, London 1986 Camp II J. Mck, The Athenian Agora. A guide to the Εxcavation and Μuseum 1990 Camp II J. McK, The Athenian Agora, A Short Guide to the Excavations, Excavation",
    "contact:phone": "+30 210 3210185",
    "contact:website": "http://odysseus.culture.gr/h/1/gh151.jsp?obj_id=3290",
    "name": "Μουσείο Αρχαίας Αγοράς Αθηνών",
    "name:el": "Μουσείο Αρχαίας Αγοράς Αθηνών",
    "name:en": "Museum of Ancient Athenian Agora",
    "name:fr": "Musée de l'Agora d'Athènes",
    "name:pl": "Muzeum Starożytnej Agory Ateńskiej",
    "name:pt": "Museu da Ágora",
    "name:zh": "古雅典集市博物馆",
    "note": "Housed in the restored building of the Stoa of Attalos, the exhibition of the Museum contains findings of the American School of Classical Studies in Ancient Agora dating from Neolithic times until the post-Byzantine period and the Ottoman era.",
    "opening_hours": "08:00-15:00",
    "operator": "Α' Εφορεία Προϊστορικών και Κλασικών Αρχαιοτήτων",
    "ticket": "4 euro",
    "tourism": "museum",
    "transport": "Metro (200m from Monastiraki station), Electric Railway (350m from Thisseio station), Bus (150m from Monastiraki station)",
    "wheelchair": "yes"
  }
},
{
  "type": "node",
  "id": 3279145579,
  "lat": 37.9817823,
  "lon": 23.7289548,
  "tags": {
    "addr:city": "Athens",
    "addr:housenumber": "86",
    "addr:postcode": "10232",
    "addr:street": "Aiolou",
    "description:en": "The Art Collection of National Bank of Greece Museum includes about 1300 artworks made by great painters and sculptors of the 19th and 20th century.",
    "name": "Ιδιωτική Συλλογή Έργων Τέχνης Εθνικής Τραπέζης",
    "name:en": "Art Collection of National Bank of Greece",
    "opening_hours": "08:30-15:00",
    "parking": "yes",
    "phone": "+30 210 3341822;+30 210 3341833",
    "projection_room": "yes",
    "source": "http://odysseus.culture.gr/h/1/gh155.jsp?obj_id=3270",
    "souvenir_shop": "yes",
    "toilets": "yes",
    "tourism": "museum",
    "wheelchair": "no"
  }
},
{
  "type": "node",
  "id": 3422656689,
  "lat": 37.9481619,
  "lon": 23.6425872,
  "tags": {
    "access": "permissive",
    "contact:website": "http://www.museum-synt-isap.gr",
    "name": "Μουσείο Ηλεκτρικών Σιδηροδρόμων",
    "name:el": "Μουσείο Ηλεκτρικών Σιδηροδρόμων",
    "name:en": "Electric Railways Museum",
    "opening_hours": "Mo-Fr 09:00-14:00",
    "phone": "+30 21 44141552",
    "tourism": "museum",
    "wikidata": "Q5357472",
    "wikipedia": "el:Μουσείο Ηλεκτρικών Σιδηροδρόμων"
  }
},
{
  "type": "node",
  "id": 3783209910,
  "lat": 37.9332766,
  "lon": 23.6844444,
  "tags": {
    "contact:website": "http://www.averof.mil.gr",
    "fee": "yes",
    "name": "Πλωτό Ναυτικό Μουσείο Θωρηκτό Γεώργιος Αβέρωφ",
    "name:el": "Πλωτό Ναυτικό Μουσείο Θωρηκτό Γεώργιος Αβέρωφ",
    "name:en": "Floating Navy Museum Georgios Averof",
    "opening_hours": "Mo off; Tu-Fr 09:00-14:00; Sa,Su,PH 10:00-17:00",
    "tourism": "museum"
  }
},
{
  "type": "node",
  "id": 3800579734,
  "lat": 37.9723019,
  "lon": 23.7316615,
  "tags": {
    "name": "Παιδικό Μουσείο Αθηνών",
    "name:en": "Hellenic Children's Museum",
    "tourism": "museum"
  }
},
{
  "type": "node",
  "id": 3844131091,
  "lat": 37.9778271,
  "lon": 23.7353855,
  "tags": {
    "addr:city": "Αθήνα",
    "addr:country": "GR",
    "addr:housename": "Ιλίου Μέλαθρον",
    "addr:housenumber": "12",
    "addr:postcode": "10671",
    "addr:street": "Ελευθερίου Βενιζέλου",
    "contact:email": "epnom@culture.gr",
    "contact:fax": "+30 210 3635953",
    "contact:phone": "+30 210 3632057;+30 210 3612834;+30 210 3612872",
    "description": "The Numismatic Museum owns 500.000 acquisitions –mostly coins as well as medals, lead bullae, gems, weights, obeloi and talents- dated from the 14th century BC until today",
    "fee": "yes",
    "name": "Νομισματικό Μουσείο",
    "name:de": "Numismatisches Museum",
    "name:el": "Νομισματικό Μουσείο",
    "name:en": "Numismatic Museum",
    "name:pt": "Museu de Numismática",
    "opening_hours": "Tu-Su 09:00-16:00; Mo off; PH off",
    "operator": "Stavros Niarchos Foundation",
    "source": "http://www.nma.gr",
    "tourism": "museum",
    "wheelchair": "yes",
    "wikidata": "Q658339",
    "wikipedia": "el:Νομισματικό Μουσείο Αθηνών"
  }
},
{
  "type": "node",
  "id": 3912027436,
  "lat": 37.9782437,
  "lon": 23.7136290,
  "tags": {
    "addr:city": "Γκάζι",
    "addr:housenumber": "100",
    "addr:postcode": "118 54",
    "addr:street": "Πειραιώς",
    "contact:phone": "+302103461589",
    "contact:website": "http://www.technopolis-athens.com/",
    "name": "Βιομηχανικό Μουσείο Φωταερίου",
    "name:en": "Industrial Gas Museum",
    "name:pt": "Tecnopolis",
    "opening_hours": "Tu-Su 10:00-18:00",
    "tourism": "museum"
  }
},
{
  "type": "node",
  "id": 3960520131,
  "lat": 37.9733731,
  "lon": 23.7257842,
  "tags": {
    "addr:city": "Αθήνα",
    "addr:housenumber": "22",
    "addr:street": "Πανός",
    "name": "Εκθεση Άνθρωποι και Εργαλεία",
    "name:en": "Man and Tools Exhibition",
    "name:pt": "Museu de Arte Popular Grega",
    "opening_hours": "Mo-Sa 08:00-15:00; Tu off",
    "operator": "YΠΠΟΑ",
    "tourism": "museum",
    "website": "http://www.melt.gr/en/visit/the-museum-at-22-panos-str/"
  }
},
{
  "type": "node",
  "id": 3962479953,
  "lat": 37.9453020,
  "lon": 23.6468125,
  "tags": {
    "addr:city": "Πειραιάς",
    "addr:country": "GR",
    "addr:housenumber": "29",
    "addr:postcode": "185 35",
    "addr:street": "Φίλωνος",
    "contact:email": "pinakothiki@pireasnet.gr",
    "contact:facebook": "https://www.facebook.com/dimotikipinakothikipireas",
    "contact:phone": "+30 210 4101402",
    "description": "Operating from 1957, exposes works of modern Greek painters and after systematic study, documentation and at regular intervals will be posting newer artists, mainly of Piraeus. Also exposed a part of the collection of C. Kastrioti sculptures",
    "name": "Δημοτική Πινακοθήκη Πειραιά",
    "name:el": "Δημοτική Πινακοθήκη Πειραιά",
    "name:en": "Municipal Gallery of Piraeus",
    "note": "distinct node for the Gallery as there are different start_date, purpose and other details, which are not shared with the old post office building, on which is now hosted.",
    "opening_hours": "Tu-Fr 09:00-14:00,17:00-20:00; Sa-Su 10:00-15:00",
    "source": "http://is.gd/MCgrv8",
    "start_date": "1957",
    "tourism": "museum",
    "wheelchair": "no",
    "wikidata": "Q12876094",
    "wikipedia": "el:Δημοτική Πινακοθήκη Πειραιά"
  }
},
{
  "type": "node",
  "id": 4262198430,
  "lat": 37.9749610,
  "lon": 23.7195576,
  "tags": {
    "addr:city": "Αθήνα",
    "addr:housenumber": "37",
    "addr:postcode": "11851",
    "addr:street": "Αποστόλου Παύλου",
    "name": "Μουσείο Ηρακλειδών (Παράρτημα)",
    "name:en": "Herakleidon Museum (Annex)",
    "name:pt": "Museu Herakleidon (Anexo)",
    "opening_hours": "We-Su 10:00-18:00",
    "phone": "+30 21 03461981",
    "tourism": "museum",
    "website": "http://herakleidon-art.gr",
    "wheelchair": "no"
  }
},
{
  "type": "node",
  "id": 4568351771,
  "lat": 37.9661304,
  "lon": 23.7344210,
  "tags": {
    "addr:city": "Αθήνα",
    "addr:housenumber": "2",
    "addr:postcode": "11636",
    "addr:street": "Τιμολέοντος",
    "name": "Μουσείο Γλυπτών & Ομοιωμάτων",
    "name:en": "Museum Sculptures and Effigies",
    "tourism": "museum"
  }
},
{
  "type": "node",
  "id": 4773049839,
  "lat": 38.0047308,
  "lon": 23.7559528,
  "tags": {
    "name:el": "Πάρκο Ελευθερίας",
    "name:en": "Athens Municipality Arts Center, Parko Eleftherias",
    "name:fr": "Athens Municipality Arts Center, Parko Eleftherias",
    "tourism": "museum"
  }
},
{
  "type": "node",
  "id": 4773051728,
  "lat": 38.0017236,
  "lon": 23.7304793,
  "tags": {
    "name": "Διατηρητέο Σταυροπούλου 15",
    "name:fr": "Stavropolou 15",
    "tourism": "museum"
  }
},
{
  "type": "node",
  "id": 4785564674,
  "lat": 37.9352737,
  "lon": 23.7160998,
  "tags": {
    "addr:city": "Νέα Σμύρνη",
    "addr:housenumber": "73",
    "addr:postcode": "17123",
    "addr:street": "Αγνώστων Μαρτύρων",
    "description": "Η Επιτροπή Ποντιακών Μελετών είναι σωματείο επιστημονικό, μη κερδοσκοπικού χαρακτήρα, ιδρύθηκε το 1927 στην Αθήνα. Η Βιβλιοθήκη λειτουργεί από το 1990, περιλαμβάνει 5.000 τίτλους περίπου και συνεχώς ανανεώνεται.",
    "email": "info@epm.gr",
    "name": "Επιτροπή Ποντιακών Μελετών",
    "opening_hours": "10.00-16.00 Monday to Friday",
    "operator": "Filippos",
    "phone": "+30 210 9354333",
    "tourism": "museum",
    "website": "http://epm.gr"
  }
},
{
  "type": "node",
  "id": 4840589548,
  "lat": 37.9944547,
  "lon": 23.7072931,
  "tags": {
    "name": "Ψηφιακό Μουσείο της Ακαδημίας Πλάτωνος",
    "opening_hours": "Tu-Su 09:00-16:00; PH off",
    "phone": "+30 2105142138",
    "tourism": "museum",
    "website": "http://www.plato-academy.gr/museum",
    "wikidata": "Q25535844",
    "wikipedia": "el:Ψηφιακό Μουσείο της Ακαδημίας Πλάτωνος"
  }
},
{
  "type": "node",
  "id": 4970330021,
  "lat": 37.9846553,
  "lon": 23.7199771,
  "tags": {
    "addr:housenumber": "45",
    "addr:street": "Ιάσονος",
    "name:en": "The Breeders Gallery",
    "tourism": "museum"
  }
},
{
  "type": "node",
  "id": 5241071789,
  "lat": 38.1220870,
  "lon": 23.9467187,
  "tags": {
    "name": "Αρχαιολογικό Μουσείο Μαραθώνα",
    "name:pt": "Museu Arqueológico de Maratona",
    "tourism": "museum"
  }
},
{
  "type": "node",
  "id": 5346745736,
  "lat": 37.9361928,
  "lon": 23.6927744,
  "tags": {
    "alt_name:el": "ΜΙΣΠΑ",
    "name": "Μουσείο Ιστορίας Πολεμικής Αεροπορίας",
    "name:el": "Μουσείο Ιστορίας Πολεμικής Αεροπορίας",
    "name:en": "Air Force History Museum",
    "tourism": "museum"
  }
},
{
  "type": "node",
  "id": 5892784116,
  "lat": 37.9678302,
  "lon": 23.7420512,
  "tags": {
    "name:en": "Olympic Torches and Posters",
    "tourism": "museum"
  }
},
{
  "type": "node",
  "id": 5980812063,
  "lat": 37.9791972,
  "lon": 23.7199431,
  "tags": {
    "addr:city": "Αθήνα",
    "addr:housenumber": "31",
    "addr:postcode": "10553",
    "addr:street": "Αγίων Ασωμάτων",
    "name": "Μουσείο Μακρονήσου",
    "name:en": "Makronisos Museum",
    "opening_hours": "Tu-Fr 10:00-13:00; Sa-Su 11:00-14:00",
    "operator": "Π.Ε.Κ.Α.Μ",
    "phone": "2103247820",
    "tourism": "museum",
    "website": "http://www.pekam.org.gr/mouseio-makronhsou.html"
  }
},
{
  "type": "node",
  "id": 5980812064,
  "lat": 37.9791613,
  "lon": 23.7198519,
  "tags": {
    "addr:city": "Αθήνα",
    "addr:housenumber": "31",
    "addr:street": "Αγίων Ασωμάτων",
    "name": "Μουσείο Πολιτικών Εξορίστων Άη Στράτη",
    "tourism": "museum"
  }
},
{
  "type": "node",
  "id": 5984988434,
  "lat": 37.9847149,
  "lon": 23.7257615,
  "tags": {
    "fixme": "location within the building unknown",
    "name": "Μουσείο Παξινού-Μινωτή",
    "opening_hours": "\"on appointment\"",
    "operator": "ΜΙΕΤ",
    "phone": "+30 21 05221420",
    "tourism": "museum"
  }
},
{
  "type": "node",
  "id": 6534260972,
  "lat": 37.9768199,
  "lon": 23.7227625,
  "tags": {
    "addr:city": "Αθήνα",
    "addr:housenumber": "12",
    "addr:postcode": "10555",
    "addr:street": "Άστιγγος",
    "contact:phone": "+302103639627",
    "contact:website": "https://museumofillusions.gr",
    "name": "Μουσείο των ψευδαισθήσεων",
    "name:en": "Museum of Illusions",
    "opening_hours": "10:00-22:00",
    "tourism": "museum"
  }
},
{
  "type": "node",
  "id": 6698853842,
  "lat": 37.9720729,
  "lon": 23.6952715,
  "tags": {
    "addr:housenumber": "2",
    "addr:street": "Δωρίδος",
    "contact:phone": "+30 2103418051",
    "name": "Ιστορικό Αρχείο Πολιτιστικού Ιδρύματος Ομίλου Πειραιώς",
    "opening_hours": "\"by_appointment\"",
    "operator": "Πολιτιστικό Ίδρυμα Ομίλου Πειραιώς",
    "tourism": "museum",
    "website": "http://www.piop.gr/el/istoriko-arxeio.aspx"
  }
},
{
  "type": "way",
  "id": 23183030,
  "nodes": [
    250695457,
    2300143657,
    2300143659,
    2300143660,
    2300143658,
    250695458,
    250695459,
    2300143663,
    2300143662,
    2300143661,
    250695457
  ],
  "tags": {
    "addr:city": "Αθήνα",
    "addr:country": "GR",
    "addr:housenumber": "1",
    "addr:street": "Κουμπάρη",
    "building": "yes",
    "contact:email": "benaki@benaki.gr",
    "contact:fax": "+30 210 3671063",
    "contact:phone": "+30 210 3671000",
    "contact:website": "http://www.benaki.gr/",
    "int_name": "Benaki Museum",
    "internet_access": "wlan",
    "internet_access:fee": "no",
    "name": "Μουσείο Μπενάκη",
    "name:el": "Μουσείο Μπενάκη",
    "name:en": "Benaki Museum",
    "name:es": "Museo Benaki",
    "name:fr": "Musée Benaki",
    "name:it": "museo Benaki",
    "name:pt": "Museu Benaki",
    "name:zh": "贝纳基博物馆",
    "opening_hours": "Mo-Tu off; We,Fr 09:00-17:00; Th,Sa 09:00-24:00; Su 09:00-15:00",
    "operator": "Μουσείο Μπενάκη",
    "tourism": "museum",
    "wikidata": "Q816669",
    "wikipedia": "el:Μουσείο Μπενάκη"
  }
},
{
  "type": "way",
  "id": 32226087,
  "nodes": [
    361384305,
    953082598,
    953082593,
    2043095068,
    361384307,
    2043095087,
    2043095117,
    953082603,
    953082611,
    361384309,
    953082619,
    953082558,
    953082567,
    953082575,
    361384312,
    361384305
  ],
  "tags": {
    "building": "yes",
    "name": "Παλαιό Μουσείο της Ακρόπολης",
    "name:de": "Altes Akropolis-Museum",
    "name:el": "Παλαιό Μουσείο της Ακρόπολης",
    "name:en": "Old Acropolis museum",
    "name:es": "Antiguo Museo de la Acrópolis",
    "name:it": "Vecchio Museo dell'Acropoli",
    "name:zh": "宙斯柱廊",
    "tourism": "museum",
    "wikidata": "Q15263731",
    "wikipedia": "en:Old Acropolis Museum"
  }
},
{
  "type": "way",
  "id": 60438321,
  "nodes": [
    752607447,
    752607448,
    752607449,
    752607450,
    752607447
  ],
  "tags": {
    "addr:city": "Αθήνα",
    "addr:housenumber": "50",
    "addr:postcode": "11528",
    "addr:street": "Βασιλέως Κωνσταντίνου",
    "building": "yes",
    "designation": "ΜΟΥΣΕΙΟ",
    "name": "Εθνική Πινακοθήκη - Μουσείο Αλεξάνδρου Σούτσου",
    "name:en": "National Gallery - Alexandros Soutsos Museum",
    "tourism": "museum",
    "website": "http://www.nationalgallery.gr"
  }
},
{
  "type": "way",
  "id": 70284588,
  "nodes": [
    3253498209,
    3253498210,
    3253498211,
    839087078,
    839087061,
    3253498205,
    839087051,
    3253498199,
    2047151127,
    839087023,
    839086960,
    839087044,
    3253498209
  ],
  "tags": {
    "addr:city": "Αθήνα",
    "addr:housenumber": "15",
    "addr:postcode": "11742",
    "addr:street": "Διονυσίου Αρεοπαγίτου",
    "building": "yes",
    "name": "Μουσείο Ακρόπολης",
    "name:de": "Akropolismuseum",
    "name:el": "Μουσείο Ακρόπολης",
    "name:en": "Acropolis Museum",
    "name:es": "Museo de la Acrópolis",
    "name:fr": "Musée de l'Acropole d'Athènes",
    "name:it": "Museo dell'Acropoli di Atene",
    "name:ko": "아크로폴리스 박물관",
    "name:pl": "Muzeum Akropolu",
    "name:pt": "Museu da Acrópole",
    "name:ru": "Новый музей Акрополя",
    "name:zh": "卫城博物馆",
    "note": "Το Μουσείο Ακρόπολης, από τα σπουδαιότερα στον κόσμο, περιλαμβάνει μοναδικά αριστουργήματα, κυρίως πρωτότυπα έργα της αρχαϊκής και κλασικής ελληνικής τέχνης, που συνδέονται άμεσα με τον ιερό βράχο της αθηναϊκής Ακρόπολης.",
    "opening_hours": "Mo 08:00-16:00; Tu-Th, Sa-Su 08:00-20:00; Fr 08:00-22:00",
    "phone": "+30 21 0900 0900",
    "source": "https://www.theacropolismuseum.gr/",
    "ticket": "5 euro",
    "tourism": "museum",
    "website": "https://www.theacropolismuseum.gr/",
    "wheelchair": "yes",
    "wikidata": "Q421084",
    "wikipedia": "el:Μουσείο Ακρόπολης"
  }
},
{
  "type": "way",
  "id": 132639888,
  "nodes": [
    1458966649,
    1458966682,
    1458966734,
    1458966746,
    1458966772,
    1458966764,
    1458966815,
    1458966786,
    1458966714,
    1458966712,
    1458966686,
    1458966700,
    1458966649
  ],
  "tags": {
    "building": "yes",
    "name": "Μουσείο Αντιδικτατορικής και Εθνικής Αντίστασης",
    "name:el": "Μουσείο Αντιδικτατορικής και Εθνικής Αντίστασης",
    "name:en": "Museum of Anti-Dictatorship and National Resistance",
    "tourism": "museum"
  }
},
{
  "type": "way",
  "id": 132639889,
  "nodes": [
    1458966568,
    1458966594,
    1458966624,
    1458966634,
    1458966654,
    1458966645,
    1458966692,
    1458966655,
    1458966621,
    1458966617,
    1458966595,
    1458966600,
    1458966568
  ],
  "tags": {
    "building": "yes",
    "name": "Κέντρο Τεχνών",
    "name:el": "Κέντρο Τεχνών",
    "name:en": "The Arts Center",
    "tourism": "museum"
  }
},
{
  "type": "way",
  "id": 132639902,
  "nodes": [
    1458966571,
    1458966597,
    1458966563,
    1458966537,
    1458966571
  ],
  "tags": {
    "building": "yes",
    "name": "Μουσείο \"Ελευθέριος Βενιζέλος\"",
    "name:el": "Μουσείο \"Ελευθέριος Βενιζέλος\"",
    "name:en": "\"Eleftherios Venizelos\" Museum",
    "tourism": "museum"
  }
},
{
  "type": "way",
  "id": 132639922,
  "nodes": [
    1458966684,
    1458966639,
    1458966623,
    1458966622,
    1458966602,
    1458966616,
    1458966598,
    1458966643,
    1459420313,
    1459420310,
    1459420315,
    1459420320,
    1458966684
  ],
  "tags": {
    "building": "yes",
    "name": "Κέντρο Τεχνών",
    "name:el": "Κέντρο Τεχνών",
    "name:en": "The Arts Center",
    "tourism": "museum"
  }
},
{
  "type": "way",
  "id": 150049214,
  "nodes": [
    1629855827,
    1629855790,
    1629855739,
    1629855738,
    1629855732,
    1629855737,
    1629855763,
    1629855768,
    1629855757,
    1629855784,
    1629855827
  ],
  "tags": {
    "building": "yes",
    "name": "Αρχαιολογικό μουσείο Ελευσίνος",
    "name:en": "Archaeological Museum of Eleusis",
    "name:it": "Museo archeologico di Eleusi",
    "opening_hours": "8:00-20:00",
    "phone": "+30 210 5546019",
    "source": "http://odysseus.culture.gr/",
    "tourism": "museum",
    "wikidata": "Q3329429"
  }
},
{
  "type": "way",
  "id": 173084777,
  "nodes": [
    1839089309,
    1839089330,
    1839089325,
    1839089324,
    1839089320,
    1839089327,
    1839089326,
    1839089329,
    1839089322,
    1839089323,
    1839089328,
    1839089309
  ],
  "tags": {
    "historic": "ship",
    "name": "Αντιτορπιλικό Βέλος - Μουσείο Αντιδικτατορικού Αγώνα",
    "old_name": "USS Charrette (DD-581)",
    "ref": "D-16",
    "ship:type": "destroyer",
    "start_date": "1942",
    "tourism": "museum",
    "wikipedia": "en:USS Charrette (DD-581)"
  }
},
{
  "type": "way",
  "id": 175877498,
  "nodes": [
    4483647949,
    4483647948,
    2325565902,
    2325565904,
    2325565908,
    2325565906,
    1864364545,
    1864364546,
    4537626966,
    4483647949
  ],
  "tags": {
    "addr:city": "Αθήνα",
    "addr:country": "GR",
    "addr:housenumber": "16",
    "addr:postcode": "11851",
    "addr:street": "Ηρακλειδών",
    "building": "yes",
    "contact:phone": "+302103461981",
    "contact:website": "https://herakleidon.org",
    "description": "Includes presentation of the permanent collections, of MC Escher and Victor Vasarely,literary meetings, book presentations,scientific meetings, company presentations, business conferences and seminars.",
    "name": "Μουσείο Ηρακλειδών",
    "name:en": "Herakleidon Museum",
    "opening_hours": "We-Su 10:00-17:15; Jan 1 off; Easter off; Aug 15 off; Dec 25-26 off",
    "tourism": "museum"
  }
},
{
  "type": "way",
  "id": 177282540,
  "nodes": [
    1877389878,
    1877389881,
    1877389887,
    1877389890,
    1877389893,
    1877389896,
    1877389897,
    1877389885,
    1877389883,
    1877389873,
    1877389870,
    1877389866,
    1877389863,
    1877389860,
    1877389854,
    1877389876,
    1877389878
  ],
  "tags": {
    "addr:city": "Αθήνα",
    "addr:country": "GR",
    "addr:housenumber": "3",
    "addr:street": "Μονής Αστερίου",
    "building": "yes",
    "building:levels": "3",
    "condition": "good",
    "name": "Μουσείο Φρυσίρα",
    "name:el": "Μουσείο Φρυσίρα",
    "name:en": "Frissiras Museum",
    "name:es": "Museo Frissiras",
    "note": "Γενική: €6 Μειωμένη: €3 Άνω των 65 ετών, φοιτητές, μέλη Εικαστικού Επιμελητηρίου Δωρεάν: Φοιτητές Ανωτάτων Σχολών Καλών Τεχνών, μέλη ICOM, AICA, άτομα με ειδικές ανάγκες Ειδική μέριμνα για άτομα με κινητικές δυσκολίες.",
    "opening_hours": "We-Fr 10:00-17:00, Sa-Su 11:00-17:00, Mo-Tu off",
    "phone": "210 3234678",
    "source": "http://www.frissirasmuseum.com/greek/info.aspx",
    "tourism": "museum",
    "website": "http://www.frissirasmuseum.com/",
    "wheelchair": "no"
  }
},
{
  "type": "way",
  "id": 177282541,
  "nodes": [
    1877389930,
    1877389934,
    1877389926,
    1877389921,
    1877389930
  ],
  "tags": {
    "addr:city": "Αθήνα",
    "addr:country": "GR",
    "addr:housenumber": "3",
    "addr:street": "Μονής Αστερίου",
    "building": "yes",
    "description:en": "Modern art museum",
    "name": "Μουσείο Φρυσίρα",
    "name:el": "Μουσείο Φρυσίρα",
    "name:en": "Frissiras Museum",
    "name:es": "Museo Frissiras",
    "tourism": "museum",
    "website": "http://www.frissirasmuseum.com/"
  }
},
{
  "type": "way",
  "id": 193395906,
  "nodes": [
    2039048192,
    2039048199,
    2039048154,
    2039048151,
    2039048192
  ],
  "tags": {
    "addr:city": "Αθήνα",
    "addr:housenumber": "10",
    "addr:postcode": "10558",
    "addr:street": "Αγίας Φιλοθέης",
    "building": "yes",
    "contact:phone": "+30 2103238945",
    "description": "The Museum aims to cover the entire spectrum of modern Greek engraving as well as that of foreign artists who have chosen subjects related to Greece.",
    "fee": "unknown",
    "name": "Μουσείο Χαρακτικής και Γραφικών Τεχνών",
    "name:en": "Museum of Engravings and Graphic Arts",
    "opening_hours": "Mo-Su 08:30-15:00",
    "operator": "Ionian Bank",
    "source": "http://odysseus.culture.gr/h/1/gh151.jsp?obj_id=3432",
    "tourism": "museum"
  }
},
{
  "type": "way",
  "id": 193403370,
  "nodes": [
    2039122935,
    2039122925,
    2039122928,
    2039122938,
    2039122935
  ],
  "tags": {
    "addr:city": "Αθήνα",
    "addr:housenumber": "38",
    "addr:street": "Λεωφόρος Βασιλίσσης Αμαλίας",
    "building": "yes",
    "building:levels": "2",
    "condition": "good",
    "name": "Ιστορικό Υφαντουργείο",
    "name:en": "Weaving History",
    "tourism": "museum"
  }
},
{
  "type": "way",
  "id": 193403372,
  "nodes": [
    2039122931,
    2039122932,
    2039122921,
    2039122918,
    2039122917,
    2039122931
  ],
  "tags": {
    "addr:city": "Αθήνα",
    "addr:housenumber": "38",
    "addr:street": "Λεωφόρος Βασιλίσσης Αμαλίας",
    "building": "yes",
    "building:levels": "2",
    "condition": "good",
    "name": "Ιστορικό Υφαντουργείο",
    "tourism": "museum"
  }
},
{
  "type": "way",
  "id": 193403374,
  "nodes": [
    2039122939,
    2039122931,
    2039122932,
    2039122933,
    2039122935,
    2039122938,
    2039122941,
    2039122939
  ],
  "tags": {
    "addr:city": "Αθήνα",
    "addr:housenumber": "38",
    "addr:street": "Λεωφόρος Βασιλίσσης Αμαλίας",
    "building": "yes",
    "building:levels": "2",
    "condition": "good",
    "name": "Ιστορικό Υφαντουργείο",
    "tourism": "museum"
  }
},
{
  "type": "way",
  "id": 193403375,
  "nodes": [
    2039122926,
    2039122911,
    2039122906,
    2039122909,
    2039122910,
    2039122912,
    2039122914,
    2039122922,
    2039122926
  ],
  "tags": {
    "addr:city": "Αθήνα",
    "addr:housenumber": "38",
    "addr:street": "Λεωφόρος Βασιλίσσης Αμαλίας",
    "building": "yes",
    "building:levels": "2",
    "condition": "good",
    "name": "Ιστορικό Υφαντουργείο",
    "name:en": "Weaving History",
    "tourism": "museum"
  }
},
{
  "type": "way",
  "id": 193421322,
  "nodes": [
    2039331727,
    2039331726,
    2039331743,
    2039331745,
    2039331757,
    2039331752,
    2039331717,
    2039331720,
    2039331727
  ],
  "tags": {
    "addr:city": "Αθήνα",
    "addr:housenumber": "6",
    "addr:postcode": "10558",
    "addr:street": "Αγγελικής Χατζημιχάλη",
    "building": "yes",
    "building:levels": "2",
    "name": "Μουσείο Λαϊκής Τέχνης και Παράδοσης",
    "name:en": "Museum of Folk Art and Tradition",
    "phone": "+30 21 0324 3972",
    "tourism": "museum"
  }
},
{
  "type": "way",
  "id": 194100388,
  "nodes": [
    2046111022,
    2046110986,
    2046111005,
    2046111013,
    2046111029,
    2046111040,
    2046111044,
    2046111066,
    2046111056,
    2046111049,
    2046111036,
    2046111022
  ],
  "tags": {
    "addr:city": "Αθήνα",
    "addr:housenumber": "9",
    "addr:postcode": "105 58",
    "addr:street": "Κόδρου",
    "building": "yes",
    "building:levels": "3",
    "condition": "good",
    "contact:email": "contact@childrensartmuseum.gr",
    "contact:phone": "2103312621 , 2103312750",
    "description": "The Museum of Greek Children’s Art is a pioneering Museum, one of the very few worldwide that exhibits exclusively drawings and three dimensional artworks created by children 5 to 14 years old",
    "fee": "free",
    "name": "Μουσείο Ελληνικής Παιδικής Τέχνης",
    "name:en": "Museum of Greek Children’s Art",
    "opening_hours": "Tu-Sa 10:00-14:00; Su 11:00-14:00; Mo off",
    "other_services": "museum shop",
    "public_transport": "closest Metro stations: Syndagma, Monastiraki, Akropolis",
    "source": "http://www.childrensartmuseum.gr/",
    "tourism": "museum"
  }
},
{
  "type": "way",
  "id": 195162372,
  "nodes": [
    2056474991,
    2056474987,
    2056474988,
    2056474990,
    2056474992,
    2056474991
  ],
  "tags": {
    "addr:city": "Αθήνα",
    "addr:housenumber": "39",
    "addr:postcode": "105 57",
    "addr:street": "Νίκης",
    "building": "yes",
    "building:levels": "2",
    "charge": "Adults 6 euros, students 3 euros Guided tour fees for groups: 50 € (upon arrangement)",
    "condition": "good",
    "contact:email": "info@jewishmuseum.gr",
    "contact:fax": "210 3231577",
    "contact:phone": "210 3225582",
    "description": "The Jewish Museum of Greece was founded with the aim of collecting, studying, preserving, and exhibiting the artifacts that reflect the life, customs, history and traditions of the Greek Jews",
    "fee": "yes",
    "name": "Εβραϊκό Μουσείο Ελλάδος",
    "name:en": "The Jewish Museum of Greece",
    "opening_hours": "Mo-Fr 09:00-14:30; Su 10:00-14:00; Sa off",
    "other_services": "museum shop",
    "public_transport": "Metro station: Syntagma, Bus/Trolley Bus: Those which stop at Syntagma or Filellinon St., Tram: Syntagma",
    "source": "https://www.jewishmuseum.gr/",
    "toilets": "yes",
    "tourism": "museum",
    "website": "https://www.jewishmuseum.gr/",
    "wheelchair": "yes"
  }
},
{
  "type": "way",
  "id": 195209754,
  "nodes": [
    2056818721,
    2056818727,
    2056818704,
    2056818696,
    2056818682,
    2056818690,
    2056818721
  ],
  "tags": {
    "building": "yes",
    "name": "Μουσείο Ελληνικής Λαϊκής Τέχνης",
    "name:el": "Μουσείο Ελληνικής Λαϊκής Τέχνης",
    "name:en": "Greek Folk Art",
    "name:es": "Museo de Arte Folclórico Griego",
    "operator": "Υπουργείο Πολιτισμού και Τουρισμού",
    "tourism": "museum",
    "website": "http://www.melt.gr/"
  }
},
{
  "type": "way",
  "id": 195310545,
  "nodes": [
    2057798939,
    2057798938,
    2057798928,
    2057798923,
    2057798924,
    2057798933,
    2057798935,
    2057798927,
    2057798931,
    2057798941,
    2057798939
  ],
  "tags": {
    "addr:city": "Αθήνα",
    "addr:housenumber": "2",
    "addr:postcode": "11742",
    "addr:street": "Μακρυγιάννη",
    "building": "yes",
    "contact:fax": "+30 210 9239023",
    "contact:phone": "+30 210 9239381",
    "description": "The building was constructed in 1836 by the Bavarian engineer Von Weiler. For a long period it was used as a military hospital and later, as the Gendarmes' Barracks. In 1978 it was offered to the Ministry of Culture and in 1985-87 was repaired.",
    "name": "Κέντρο Μελετών Ακρόπολης",
    "name:el": "Κέντρο Μελετών Ακρόπολης",
    "name:en": "Centre for the Acropolis Studies",
    "name:pl": "Centrum Studiów Akropolu",
    "opening_hours": "08:30-15:00",
    "operator": "1st Ephorate of Prehistoric and Classical Antiquities",
    "saleshop": "yes",
    "source": "http://odysseus.culture.gr/h/1/eh155.jsp?obj_id=3364",
    "start_date": "1985",
    "ticket_desk": "yes",
    "toilets": "yes",
    "tourism": "museum",
    "wheelchair": "yes"
  }
},
{
  "type": "way",
  "id": 197644358,
  "nodes": [
    2078482889,
    4751694916,
    2078482893,
    2078482887,
    2078482881,
    2078482880,
    4751694903,
    2078482889
  ],
  "tags": {
    "addr:city": "Ζωγράφου",
    "addr:country": "GR",
    "addr:housename": "Βίλα Μαρίκας Κοτοπούλη",
    "addr:housenumber": "17",
    "addr:postcode": "15773",
    "addr:street": "Αλέξανδρου Παναγούλη",
    "barrier": "fence",
    "contact:phone": "+30 210 7775950",
    "description": "Artistic collection of Constantine Ioannides.",
    "fee": "yes",
    "name": "Μουσείο Μαρίκας Κοτοπούλη",
    "name:el": "Μουσείο Μαρίκας Κοτοπούλη",
    "name:en": "Marika Kotopouli Museum",
    "opening_hours": "08:30-15:00",
    "operator": "Δήμος Ζωγράφου",
    "source": "http://odysseus.culture.gr/h/1/gh155.jsp?obj_id=3449",
    "tourism": "museum",
    "wheelchair": "yes",
    "wikidata": "Q6763409",
    "wikipedia": "el:Μουσείο Μαρίκας Κοτοπούλη"
  }
},
{
  "type": "way",
  "id": 203229817,
  "nodes": [
    2132551362,
    3924020615,
    2132551365,
    2132110050,
    2132551366,
    2132110001,
    2132109998,
    2132551304,
    2132551313,
    2132551322,
    3924020609,
    2132110000,
    3924020610,
    2132551352,
    2132551354,
    3924020613,
    2132551362
  ],
  "tags": {
    "addr:city": "Πειραιάς",
    "addr:country": "GR",
    "addr:housenumber": "31",
    "addr:postcode": "185 36",
    "addr:street": "Χαριλάου Τρικούπη",
    "building": "yes",
    "contact:email": "kstepka@culture.gr",
    "contact:fax": "+30 210 4518395",
    "contact:phone": "+30 210 4521598",
    "fee": "yes",
    "name": "Αρχαιολογικό Μουσείο Πειραιά",
    "name:de": "Archäologisches Museum Piraeus",
    "name:en": "Archaeological Museum of Piraeus",
    "opening_hours": "08:00-15:00; Mo off",
    "operator": "ΚΣΤ΄ Εφορεία Προϊστορικών και Κλασικών Αρχαιοτήτων",
    "source": "http://odysseus.culture.gr/h/1/gh151.jsp?obj_id=3371",
    "start_date": "1935",
    "tourism": "museum",
    "wheelchair": "yes",
    "wikidata": "Q637040",
    "wikipedia": "el:Αρχαιολογικό Μουσείο Πειραιά"
  }
},
{
  "type": "way",
  "id": 207627734,
  "nodes": [
    2178778448,
    2178778449,
    2178778443,
    2178778446,
    2178778448
  ],
  "tags": {
    "building": "yes",
    "contact:website": "http://www.mfida.gr/",
    "int_name": "Natural History Museum",
    "name": "Μουσείο Φυσικής Ιστορίας Δήμου Αμαρουσίου",
    "tourism": "museum"
  }
},
{
  "type": "way",
  "id": 207950868,
  "nodes": [
    2182162480,
    2182162475,
    2182162455,
    2182162458,
    2182162506,
    2182162514,
    2182162492,
    2182162488,
    2182162480
  ],
  "tags": {
    "access": "by foot from metro station Monastiraki",
    "addr:city": "Αθήνα",
    "addr:country": "GR",
    "addr:housename": "Μουσείο Ιστορίας Πανεπιστημίου Αθηνών",
    "addr:housenumber": "5",
    "addr:place": "Πλάκα",
    "addr:postcode": "10556",
    "addr:street": "Θόλου",
    "alt_name": "Παληό Πανεπιστήμιο",
    "architect": "Σταμάτιος Κλεάνθης;Εδουάρδος Σάουμπερτ",
    "building": "yes",
    "contact:email": "museum@uoa.gr",
    "contact:fax": "+30 210 3689501",
    "contact:phone": "+30 210 3689500",
    "contact:website": "http://history-museum.uoa.gr/",
    "historic": "building",
    "name": "Μουσείο Ιστορίας Πανεπιστημίου Αθηνών",
    "name:el": "Μουσείο Ιστορίας Πανεπιστημίου Αθηνών",
    "name:en": "Athens University History Museum",
    "name:fr": "Musée de l'Histoire de l'Université d'Athènes",
    "note": "The Museums collections include hand-written books, old and rare editions, portraits of University’s professors, manuscripts, letters, diplomas, old scientific instruments of Medicine, Physics, Chemistry and Pharmacology, medallions and various souvenirs",
    "old_name": "Πανεπιστήμιο Αθηνών;Οθώνειο Πανεπιστημίο",
    "opening_hours": "Mo-Fr 09:30-14:30",
    "tourism": "museum",
    "wikipedia": "el:Οικία Κλεάνθη - Σάουμπερτ"
  }
},
{
  "type": "way",
  "id": 217268333,
  "nodes": [
    2265493058,
    2265493065,
    2265493075,
    2265493093,
    2265493086,
    2265493087,
    2265493084,
    2265493078,
    2265493054,
    2265493053,
    2265493058
  ],
  "tags": {
    "addr:city": "Αθήνα",
    "addr:housenumber": "148",
    "addr:postcode": "10553",
    "addr:street": "Ερμού",
    "alt_name:es": "Museo Cerámico",
    "building": "yes",
    "fee:price": "full 2€ and reduced 1€",
    "name": "Μουσείο Κεραμεικού",
    "name:de": "Museum Keramikos",
    "name:en": "Kerameikos Archaeological Museum",
    "name:es": "Museo Arqueológico del Cerámico",
    "name:eu": "Zeramikoaren Arkeologia Museoa",
    "name:fr": "Musée archéologique du Céramique",
    "name:it": "Museo archeologico Ceramico",
    "name:nl": "Kerameikos Museum",
    "name:pt": "Museu Arqueológico de Kerameikos",
    "name:ru": "Археологический музей Керамика",
    "name:uk": "Археологічний музей Керамікосу",
    "note": "The exhibited sculptures were found in the area of Kerameikos and in the area of Kerameikos's cemetery and they are dating from all eras of antiquity.",
    "opening_hours": "Tu-Su 08:00-15:00",
    "phone": "210 3463552",
    "source": "http://odysseus.culture.gr/h/1/gh151.jsp?obj_id=3443",
    "tourism": "museum",
    "wheelchair": "yes",
    "wikidata": "Q2574469",
    "wikipedia": "el:Αρχαιολογικό Μουσείο Κεραμεικού"
  }
},
{
  "type": "way",
  "id": 217342425,
  "nodes": [
    2266148979,
    2266149026,
    2266149075,
    2266149086,
    2266149066,
    2266149050,
    2266149067,
    2266148991,
    2266148969,
    2266148956,
    2266148979
  ],
  "tags": {
    "building": "civic",
    "name": "Γεωργικό Μουσείο",
    "name:ru": "Сельскохозяйственный музей",
    "operator": "Γεωπονικό Πανεπιστήμιο Αθηνών",
    "tourism": "museum"
  }
},
{
  "type": "way",
  "id": 219467101,
  "nodes": [
    2286175714,
    2286175718,
    2286175712,
    3835701962,
    2286175720,
    2286175742,
    2286175797,
    2286175771,
    2286175767,
    2286175763,
    2286175740,
    2286175714
  ],
  "tags": {
    "addr:city": "Αθήνα",
    "addr:housenumber": "4-6",
    "addr:postcode": "105 53",
    "addr:street": "Μελιδώνη",
    "building": "yes",
    "contact:phone": "210-3318491-5",
    "contact:website": "http://www.potterymuseum.gr",
    "name": "Μουσείο Νεώτερης Κεραμεικής",
    "name:en": "Museum of Traditional Pottery",
    "tourism": "museum"
  }
},
{
  "type": "way",
  "id": 219472242,
  "nodes": [
    2286226140,
    2286226131,
    2286226128,
    2286226134,
    2286226125,
    2286226110,
    2286226114,
    2286226117,
    2286226120,
    2286226113,
    2286226105,
    2286226112,
    2286226122,
    2286226126,
    2286226121,
    2286226129,
    2286226132,
    2286226136,
    2286226138,
    2286226127,
    2286226139,
    2286226144,
    2286226145,
    2286226143,
    2286226147,
    2286226153,
    2286226151,
    2286226149,
    2286226148,
    2286226154,
    2286226152,
    2286226150,
    2286226142,
    2286226146,
    2286226140
  ],
  "tags": {
    "addr:city": "Αθήνα",
    "addr:housenumber": "51",
    "addr:postcode": "10553",
    "addr:street": "Παναγή Τσαλδάρη (Πειραιώς)",
    "building": "yes",
    "name": "Παλιά Πινακοθήκη Δήμου Αθηναίων",
    "name:en": "Athens Municipal Gallery",
    "note": "The certain building consists of the offices of the museum and an exhibition space. Exhibitions don't take place very often at this building. Mostly all the exhibitions take place at the New Athens Municipal Gallery.",
    "opening_hours": "Λειτουργεί μόνον όταν υπάρχει έκθεση",
    "phone": "2105202420",
    "phone_1": "2103243023",
    "source": "http://odysseus.culture.gr/h/1/gh151.jsp?obj_id=3254",
    "tourism": "museum",
    "wheelchair": "yes"
  }
},
{
  "type": "way",
  "id": 220890927,
  "nodes": [
    2299689780,
    2299689729,
    2299689727,
    2299689699,
    2299689693,
    2299689701,
    2299689697,
    2299689747,
    2299689750,
    2299689757,
    2299689763,
    2299689776,
    2299689780
  ],
  "tags": {
    "accessibility": "Metro Line 2,3: stations Evangelismos, Syntagma , Buses:Α5, Ε6, Ε7, Χ14, 054, 200, 203, 204, 220, 221, 224, 235, 408, 608, 622, 732, 815, Trolley Buses: 3, 7, 13",
    "addr:city": "Αθήνα",
    "addr:country": "GR",
    "addr:housenumber": "4",
    "addr:postcode": "10674",
    "addr:street": "Νεοφύτου Δούκα",
    "building": "yes",
    "cafeteria": "yes",
    "contact:email": "museum@cycladic.gr",
    "contact:fax": "+30 210 7239382",
    "contact:phone": "+30 210 7228321-3",
    "contact:website": "http://www.cycladic.gr/",
    "name": "Μουσείο Κυκλαδικής Τέχνης",
    "name:de": "Museum für kykladische Kunst",
    "name:el": "Μουσείο Κυκλαδικής Τέχνης",
    "name:en": "Museum of Cycladic Art",
    "name:fr": "Musée d'art cycladique",
    "name:pt": "Museu de Arte Cicládica",
    "name:zh": "基克拉泽斯艺术博物馆",
    "opening_hours": "Mo,We,Fr,Sa 10:00-17:00; Th 10:00-20:00; Su 11:00-17:00; Tu off",
    "operator": "Ίδρυμα Νικολάου Π. Γουλανδρή",
    "parking": "yes",
    "saleshop": "yes",
    "source": "http://odysseus.culture.gr/h/1/gh155.jsp?obj_id=3520",
    "start_date": "1986",
    "ticket_desk": "yes",
    "tickets": "Standard € 7,Reduced € 3,5, Monday € 3,5",
    "toilets:wheelchair": "yes",
    "tourism": "museum",
    "wheelchair": "yes",
    "wikidata": "Q1230253",
    "wikipedia": "el:Μουσείο Κυκλαδικής Τέχνης"
  }
},
{
  "type": "way",
  "id": 220890939,
  "nodes": [
    2299689731,
    2299689733,
    2299689735,
    2299689741,
    2299689743,
    2299689737,
    2299689751,
    2299689759,
    2191433981,
    2191433982,
    2191433977,
    2299689724,
    2299689705,
    2299689703,
    2299689695,
    2299689692,
    2299689686,
    2299689681,
    2299689684,
    2299689688,
    2191433973,
    2191433974,
    2191433979,
    2299689731
  ],
  "tags": {
    "building": "yes",
    "name": "Μέγαρο Σταθάτου",
    "name:el": "Μέγαρο Σταθάτου",
    "name:en": "Stathatos Mansion",
    "name:pt": "Mansão Stathatos",
    "operator": "Μουσείο Κυκλαδικής Τέχνης",
    "start_date": "1895",
    "tourism": "museum",
    "wheelchair": "no",
    "wikipedia": "el:Μέγαρο Σταθάτου"
  }
},
{
  "type": "way",
  "id": 220926060,
  "nodes": [
    2299970103,
    2299970099,
    2299970100,
    2299970101,
    2299970104,
    2299970103
  ],
  "tags": {
    "addr:city": "Αθήνα",
    "addr:country": "GR",
    "addr:housenumber": "9",
    "addr:postcode": "10671",
    "addr:street": "Βασιλίσσης Σοφίας",
    "building": "yes",
    "contact:phone": "+30 210 3611206",
    "contact:website": "http://thf.gr/",
    "name": "Ίδρυμα Εικαστικών Τεχνών και Μουσικής Β&Μ Θεοχαράκη",
    "name:el": "Ίδρυμα Εικαστικών Τεχνών και Μουσικής Β&Μ Θεοχαράκη",
    "name:en": "B&M Theocharakis Foundation for the Fine Arts and Music",
    "note": "This Museum presents the permanent collection works by Spyros Papaloukas, a rich program of events involving large or small-scale exhibitions like concerts, seminars and training courses.",
    "opening_hours": "Fr-We 10:00-18:00, Th 10:00-20:00",
    "tourism": "museum",
    "wheelchair": "yes"
  }
},
{
  "type": "way",
  "id": 220948825,
  "nodes": [
    2300161393,
    2300161405,
    2300161413,
    2300161425,
    2300161416,
    2300161421,
    2300161390,
    2300161375,
    2300161393
  ],
  "tags": {
    "addr:city": "Αθήνα",
    "addr:country": "GR",
    "addr:housenumber": "3",
    "addr:street": "Κριεζώτου",
    "building": "yes",
    "contact:email": "ghika_gallery@benaki.gr",
    "contact:fax": "+30 210 3626266",
    "contact:phone": "+30 210 3615702; +30 210 3630818",
    "contact:website": "http://www.benaki.gr/",
    "name": "Πινακοθήκη Νίκου Χατζηκυριάκου - Γκίκα",
    "name:el": "Πινακοθήκη Νίκου Χατζηκυριάκου - Γκίκα",
    "name:en": "Nikos Hadjikyriakos - Ghika Gallery",
    "name:es": "Pinacoteca Nikos Hatzikyriakos - Ghika",
    "opening_hours": "We-Sa 10:00-18:00; Aug off; Mar 25 off; May 1 off; Aug 15 off; Oct 28 off; Dec 25-26 off; Jan 1 off; Jan 6 off; PH off",
    "operator": "Μουσείο Μπενάκη",
    "tourism": "museum"
  }
},
{
  "type": "way",
  "id": 222371236,
  "nodes": [
    2313444049,
    2313444050,
    2313444048,
    2313444047,
    2313444049
  ],
  "tags": {
    "addr:city": "Αθήνα",
    "addr:postcode": "10674",
    "addr:street": "Ηρώδου Αττικού",
    "building": "yes",
    "name": "Botanic Museum of Athens",
    "note": "Originally was the stand of Queen Olga of Greece. After 1985 it hosts a botanic museum. Today it remains closed to the public,",
    "opening_hours": "closed",
    "operator": "Municipality of Athens",
    "tourism": "museum"
  }
},
{
  "type": "way",
  "id": 223018298,
  "nodes": [
    2319656545,
    2319656546,
    2319656540,
    2319656527,
    2319656529,
    2319656535,
    2319656533,
    2319656536,
    2319656539,
    2319656541,
    2319656543,
    2319656545
  ],
  "tags": {
    "addr:housenumber": "8",
    "addr:street": "Κυρρήστου",
    "building": "yes",
    "name": "Λουτρό των Αέρηδων",
    "tourism": "museum"
  }
},
{
  "type": "way",
  "id": 223175510,
  "nodes": [
    2321031721,
    2321031714,
    2321031713,
    2321031691,
    2321031696,
    2321031721
  ],
  "tags": {
    "addr:city": "Αθήνα",
    "addr:country": "GR",
    "addr:housenumber": "1-3",
    "addr:postcode": "10556",
    "addr:street": "Διογένους",
    "building": "yes",
    "description:en": "About half of the instruments forming the Anoyanakis Collection are on public display. They have been selected on the criterion not only of their aesthetic and decorative value but, in particular, of their ethnological and musicological interest.",
    "elevation": "3",
    "fee": "no",
    "name": "Μουσείο Ελληνικών Λαϊκών Οργάνων",
    "name:de": "Museum für volkstümliche griechische Musikinstrumente",
    "name:en": "Museum of Greek Folk Musical Instruments",
    "opening_hours": "Tu,Th-Su 10:00-14:00; We 12:00-18:00",
    "phone": "+30 210 3250198",
    "source": "http://odysseus.culture.gr/h/1/gh151.jsp?obj_id=3403",
    "tourism": "museum"
  }
},
{
  "type": "way",
  "id": 223176834,
  "nodes": [
    2321050545,
    2321050527,
    2321050515,
    2321050480,
    2321050496,
    2321050492,
    2321050525,
    2321050541,
    2321050517,
    2321050532,
    2321050535,
    2321050545
  ],
  "tags": {
    "addr:housenumber": "96",
    "addr:street": "Αδριανού",
    "building": "yes",
    "name": "Αρχοντικό Μπενιζέλων",
    "tourism": "museum"
  }
},
{
  "type": "way",
  "id": 223325133,
  "nodes": [
    2322332640,
    2322332623,
    2322332619,
    2322332614,
    2322332641,
    2322332656,
    2322332640
  ],
  "tags": {
    "addr:city": "Αθήνα",
    "addr:housenumber": "2",
    "addr:postcode": "10561",
    "addr:street": "Χρήστου Λαδά",
    "building": "yes",
    "name": "MΟΥΣΕΙΟΝ - ΒΙΒΛΙΟΘΗΚΗ ΙΣΤΟΡΙΚΗΣ ΜΝΗΜΗΣ ΕΛ. ΒΕΝΙΧΕΛΟΥ",
    "tourism": "museum"
  }
},
{
  "type": "way",
  "id": 223874917,
  "nodes": [
    2327286081,
    3827663868,
    2327286079,
    3827663867,
    2327286080,
    2327286077,
    2327286083,
    2327286085,
    2327286089,
    2327286095,
    2327286093,
    2327286092,
    2327286088,
    2327286090,
    2327286087,
    2327286084,
    2327286082,
    2327286086,
    2327286081
  ],
  "tags": {
    "addr:city": "Αθήνα",
    "addr:country": "GR",
    "addr:housenumber": "7",
    "addr:place": "Κολωνάκι",
    "addr:postcode": "10671",
    "addr:street": "Δημοκρίτου",
    "building": "yes",
    "contact:phone": "+30 210 3629513",
    "description": "This is a costume museum, which includes collections of some 25,000 items, mainly authentic regional costumes and jewelery of historical Greek area .The purpose of existence is to collect, preserve and finally the promotion of the history of Greek costume",
    "fee": "no",
    "is_closed": "Good Friday, Holy Saturday, Holy Spirit Day, Shrove Monday",
    "name": "Μουσείο Ιστορίας της Ελληνικής Ενδυμασίας",
    "name:en": "Museum of the History of the Greek Costume",
    "opening_hours": "Jan 1 off; Jan Mo-Fr 10:00-14:00; Aug off; Mar 25 off; Jan 1 off; Jan 6 off; Dec 25-26 off; May 1 off; Oct 25 off; PH off",
    "source": "http://odysseus.culture.gr",
    "tourism": "museum",
    "wheelchair": "no"
  }
},
{
  "type": "way",
  "id": 226947348,
  "nodes": [
    2356859317,
    2356859361,
    2356859353,
    2356859297,
    2356859317
  ],
  "tags": {
    "addr:city": "Καισαριανή",
    "addr:postcode": "16121",
    "building": "yes",
    "name": "Μουσείο ΕΑΜικής Εθνικής Αντίστασης",
    "tourism": "museum"
  }
},
{
  "type": "way",
  "id": 232069333,
  "nodes": [
    2404124255,
    2404124244,
    2404124235,
    2404124236,
    2404124238,
    2404124239,
    2404124242,
    2404124254,
    2404124255
  ],
  "tags": {
    "addr:postcode": "15351",
    "building": "yes",
    "building:levels": "3",
    "name": "Πυροσβεστικό Μουσείο",
    "name:el": "Πυροσβεστικό Μουσείο",
    "phone": "+30 21 06663801",
    "tourism": "museum",
    "website": "http://museum.fireservice.gr/"
  }
},
{
  "type": "way",
  "id": 241550163,
  "nodes": [
    2491577793,
    2491577795,
    4856384632,
    2491577797,
    2491577796,
    2491577794,
    4856384631,
    2491577793
  ],
  "tags": {
    "addr:postcode": "11743",
    "addr:street": "Καλλιρόης",
    "building": "yes",
    "contact:email": "protocol@emst.gr",
    "contact:fax": "+30 211 1019111",
    "contact:phone": "+30 211 1019000 99",
    "int_name": "National Museum of Contemporary Art",
    "level": "10",
    "name": "Εθνικό Μουσείο Σύγχρονης Τέχνης",
    "name:de": "EMST Museum für Zeitgenössische Kunst",
    "name:el": "Εθνικό Μουσείο Σύγχρονης Τέχνης",
    "name:en": "National Museum of Contemporary Art",
    "name:fr": "Musée national d'art contemporain",
    "name:nl": "Nationaal Museum voor Moderne Kunst",
    "name:pl": "Muzeum Narodowe Sztuki Współczesnej",
    "opening_hours": "Tu-We,Fr-Su 11:00-19:00; Th 11:00-22:00",
    "short_name": "ΕΜΣΤ",
    "tourism": "museum",
    "website": "http://www.emst.gr",
    "wikipedia": "el:Εθνικό Μουσείο Σύγχρονης Τέχνης"
  }
},
{
  "type": "way",
  "id": 261924932,
  "nodes": [
    2675552721,
    2675552725,
    2675552719,
    2675552723,
    2675552721
  ],
  "tags": {
    "name": "Λαογραφικό Μουσείο Ασπροπύργου",
    "tourism": "museum"
  }
},
{
  "type": "way",
  "id": 265859156,
  "nodes": [
    2714719512,
    2714719509,
    2714719511,
    2714719513,
    2714719512
  ],
  "tags": {
    "addr:city": "Αθήνα",
    "addr:housenumber": "38",
    "addr:street": "Λεωφόρος Βασιλίσσης Αμαλίας",
    "building": "yes",
    "building:levels": "1",
    "condition": "good",
    "name": "Ιστορικό Υφαντουργείο",
    "shape_area": "5.93555505942e-009",
    "shape_leng": "3.21230697708e-004",
    "tourism": "museum",
    "xrhsh_isog": "ISTORIKO_YFANTOYRGEIO",
    "xrhsh_orof": "ISTORIKO_YFANTOYRGEIO"
  }
},
{
  "type": "way",
  "id": 267551016,
  "nodes": [
    2727942515,
    2727942516,
    2729876907,
    2729876909,
    2729876911,
    2729876912,
    2729876915,
    2727876877,
    2727876878,
    2727876879,
    2727876888,
    2729876917,
    2729876918,
    2729876920,
    2729876922,
    2729876924,
    2729876925,
    2727942515
  ],
  "tags": {
    "addr:city": "Αθήνα",
    "addr:housenumber": "12",
    "addr:postcode": "11742",
    "addr:street": "Καλλισπέρη",
    "building": "yes",
    "name": "Ilias Lalaounis Jewelry Museum",
    "name:el": "Μουσείο Κοσμήματος Ηλία Λαλαούνη",
    "name:pl": "Muzeum Biżuterii im. Iliasa Lalaounisa",
    "note": "The Ilias Lalaounis Jewelry Museum exhibits more than 4000 pieces of jewelry and sculptures designed by Ilias Lalaounis during te period 1940-1992, which are inspired from the Greek and many other cultures from prehistoric to modern times.",
    "opening_hours": "08:30-15:00",
    "parking": "yes",
    "phone": "+30 210 9221044",
    "projection_room": "yes",
    "source": "http://odysseus.culture.gr/h/1/gh155.jsp?obj_id=3448",
    "souvenir_shop": "yes",
    "toilets": "yes",
    "tourism": "museum",
    "website": "http://www.lalaounis-jewelrymuseum.gr"
  }
},
{
  "type": "way",
  "id": 273253077,
  "nodes": [
    2781290907,
    2781290908,
    2781290909,
    2781290910,
    2781290911,
    2781290912,
    2781290913,
    2781290914,
    2781290915,
    2781290916,
    2781290907
  ],
  "tags": {
    "building": "yes",
    "name:de": "Tempel der Aphaia",
    "source": "Bing",
    "tourism": "museum"
  }
},
{
  "type": "way",
  "id": 285129067,
  "nodes": [
    2342371673,
    2342371670,
    2342371661,
    2342371668,
    2342371686,
    2342371679,
    2342371673
  ],
  "tags": {
    "addr:city": "Αθήνα",
    "addr:country": "GR",
    "addr:housename": "Μουσείον της Πόλεως των Αθηνών",
    "addr:housenumber": "7",
    "addr:postcode": "10561",
    "addr:street": "Παπαρηγοπούλου",
    "building": "yes",
    "description": "Contains plans of the city from 1842, paintings, sculptures, old books and memorabilia.",
    "name": "Μουσείον της Πόλεως των Αθηνών",
    "name:en": "Museum of the City of Athens",
    "opening_hours": "Mo-Fr 09:00-16:00; Tu off; Sa,Su 10:00-15:00",
    "operator": "Ίδρυμα Βούρου - Ευταξία",
    "tourism": "museum",
    "type": "multipolygon"
  }
},
{
  "type": "way",
  "id": 299059456,
  "nodes": [
    3029929799,
    3029929800,
    3029929801,
    3029929802,
    3029929799
  ],
  "tags": {
    "building": "yes",
    "name": "Μουσείο Δροσίνη",
    "name:el": "Μουσείο Δροσίνη",
    "name:en": "Drossinis Museum",
    "tourism": "museum",
    "website": "https://www.drossinismuseum.gr/",
    "wikipedia": "el:Μουσείο Δροσίνη"
  }
},
{
  "type": "way",
  "id": 302592510,
  "nodes": [
    3068422584,
    4584988660,
    4584988659,
    4584988658,
    4584988657,
    3068422585,
    4584988662,
    4584988661,
    4584988663,
    4584988664,
    3068422584
  ],
  "tags": {
    "building": "yes",
    "name": "Μουσείο Αφής",
    "name:en": "Tactual Museum",
    "operator": "Φάρος Τυφλών της Ελλάδος",
    "tourism": "museum",
    "website": "http://www.tactualmuseum.gr",
    "wheelchair": "yes",
    "wikipedia": "el:Μουσείο Αφής"
  }
},
{
  "type": "way",
  "id": 302682638,
  "nodes": [
    3069301076,
    3069301077,
    3072093445,
    3072093446,
    3069301076
  ],
  "tags": {
    "addr:city": "Κηφισιά",
    "addr:country": "GR",
    "addr:housenumber": "13",
    "addr:postcode": "14562",
    "addr:street": "Λεβίδου",
    "building": "yes",
    "description": "Contains botanical exhibits ,zoological exhibits and geological and paleontological exhibits",
    "name": "Μουσείο Γουλανδρή Φυσικής Ιστορίας",
    "name:el": "Μουσείο Φυσικής Ιστορίας Γουλανδρή",
    "name:en": "Goulandris Natural History Museum",
    "opening_hours": "Tu-Fr 09:00-14:30, Sa-Su 10:00-15:00",
    "phone": "+302108015870",
    "tourism": "museum",
    "website": "https://gnhm.gr/the-museum/",
    "wheelchair": "yes"
  }
},
{
  "type": "way",
  "id": 303804369,
  "nodes": [
    3082436958,
    3082436984,
    3083596831,
    3082436977,
    3083596826,
    3082436949,
    3083596822,
    3083596824,
    3085266892,
    3082436958
  ],
  "tags": {
    "fixme": "Location and name need verification",
    "name": "Μουσείο Πολεμικής Αεροπορίας",
    "name:el": "Μουσείο Πολεμικής Αεροπορίας",
    "name:en": "Hellenic Air Force Museum",
    "source": "wikipedia",
    "tourism": "museum",
    "wikipedia": "el:Ελληνικό Μουσείο Πολεμικής Αεροπορίας"
  }
},
{
  "type": "way",
  "id": 316312689,
  "nodes": [
    3224217790,
    3224217791,
    3224217770,
    3224217784,
    3224217785,
    3224217789,
    3224217781,
    3224217782,
    3224217777,
    3224217788,
    3224217779,
    3224217773,
    3224217787,
    3224217772,
    3224217775,
    3224217771,
    3224217783,
    3224217778,
    3224217780,
    3224217774,
    3224217790
  ],
  "tags": {
    "Transport": "3km from Paloukia, with KTEL bus",
    "addr:city": "Σαλαμίνα (Salamina)",
    "addr:housenumber": "42",
    "addr:postcode": "18 900",
    "addr:street": "Πολυχρόνη Λεμπέση (Polychroni Lempesi)",
    "building": "yes",
    "email": "ams@culture.gr",
    "name": "Archaeological Museum of Salamina",
    "name:el": "Αρχαιολογικό Μουσείο Σαλαμίνας",
    "name:en": "Archaeological Museum of Salamina",
    "note": "Museum collections consist mostly of excavations throughout the island, but also by chance finds and traditions citizens (mainly ceramics and sculpture), from prehistoric times to late antiquity.",
    "opening_hours": "Tu-Su 08:00-15:00",
    "phone": "2104640759, 2104653572",
    "source": "http://odysseus.culture.gr/h/1/gh155.jsp?obj_id=18382, http://www.ktelbus.com/?module=default&pages_id=81&lang=el",
    "ticket": "2 euro",
    "tourism": "museum",
    "wheelchair": "no"
  }
},
{
  "type": "way",
  "id": 316739320,
  "nodes": [
    3228958520,
    3228958521,
    3228958522,
    3228958523,
    3228958524,
    3228958525,
    3228958526,
    3228958527,
    3228958528,
    3228958529,
    3228958530,
    3228958531,
    3228958532,
    3228958533,
    3228958534,
    3228958535,
    3228958536,
    3228958537,
    3228958538,
    3228958539,
    3228958520
  ],
  "tags": {
    "accessibility": "private",
    "addr:city": "Καπανδρίτι",
    "addr:country": "GR",
    "addr:postcode": "190 94",
    "addr:street": "2nd km Kapandriti – Kalamos road",
    "building": "yes",
    "contact:email": "kapandriti@domaine-lazaridi.gr",
    "contact:fax": "+30 22950 52 388",
    "contact:phone": "+30 22950 52213, +30 22950 52214",
    "contact:website": "http://www.domaine-lazaridi.gr/",
    "name": "Μουσείο Οίνου Κώστα Λαζαρίδη",
    "name:en": "Costa Lazaridi Wine Museum",
    "note": "A multitude of exhibits and artifacts from the 17th century until today assisted by modern audio visual means, provide the visitor with comprehensive knowledge on both the story and the production process of wine, spirits and vinegar.",
    "opening_hours": "Mo-Fr 09:00-17:30; Sa-Su 11:00-15:00",
    "operator": "Oenotria Land Costa Lazaridi",
    "saleshop": "yes",
    "source": "http://www.domaine-lazaridi.gr/",
    "toilets": "yes",
    "tourism": "museum"
  }
},
{
  "type": "way",
  "id": 316768543,
  "nodes": [
    3229477052,
    3229477047,
    2517499335,
    3229477041,
    3234207233,
    3234207231,
    4510974947,
    3229477029,
    4510974943,
    3229477030,
    3229477027,
    3229477028,
    4510974942,
    3234207230,
    3234207234,
    3234207235,
    3229477037,
    3234207226,
    3229477039,
    3229477052
  ],
  "tags": {
    "addr:city": "Αθήνα",
    "addr:country": "GR",
    "addr:full": "3ης Σεπτεμβρίου & Ιουλιανού",
    "addr:housename": "Ελληνικό Μουσείο Αυτοκινήτου",
    "addr:postcode": "10433",
    "contact:email": "hmm@charagionis.com",
    "contact:phone": "+30 210 8816187",
    "contact:website": "http://www.hellenicmotormuseum.gr",
    "description": "The Museum enables visitors to learn about the evolution of the car through the history of the wheel",
    "levels": "3",
    "name": "Ελληνικό Μουσείο Αυτοκινήτου",
    "name:el": "Ελληνικό Μουσείο Αυτοκινήτου",
    "name:en": "Hellenic Motor Museum",
    "opening_hours": "Mo-Fr 10:00-17:00; Sa 12:00-20:00; Su 11:00-18:00",
    "short_name": "Ε.Μ.Α.",
    "tourism": "museum",
    "wikidata": "Q1163632",
    "wikipedia": "el:Ελληνικό Μουσείο Αυτοκινήτου"
  }
},
{
  "type": "way",
  "id": 316937719,
  "nodes": [
    3231272061,
    3231272062,
    3231272063,
    3231272064,
    3231272065,
    3231272061
  ],
  "tags": {
    "addr:city": "Μέγαρα",
    "addr:country": "GR",
    "addr:housenumber": "22",
    "addr:postcode": "19100",
    "addr:street": "Γ. Μενιδιάτη",
    "building": "yes",
    "description": "Archaeological findings related to the culture and society of ancient town of Megara",
    "fee": "Full: €2, Reduced: €1",
    "free_admission_days": "27 September, International Tourism Day Sundays in the period between 1 November and 31 March",
    "free_admission_for": "Cultural Card holders, Journalists, Members of Societies and Associations of Friends of Museums and Archaeological Sites throughout Greece, Members of the ICOM-ICOMOS, Persons accompanying blind and disabled, under the age of 18",
    "free_admission_for (2)": "University students and students at Technological Educational Institutes or equivalent schools of Member - States of the European Union and students at Schools of Tourist Guides, The official guests of the Greek government",
    "is_closed": "25 March, 1 May, Easter Sunday, 25 Decembe, 26 December",
    "name": "Αρχαιολογικό Μουσείο Μεγάρων",
    "opening_hours": "Tu-Su 08:00-15:00",
    "phone": "+30 22960 22426",
    "public_transport": "1. Bus lines (regional lines-KTEL) to Megara (from Ag. Asomaton Square, Thiseio).",
    "source": "http://odysseus.culture.gr/h/1/eh155.jsp?obj_id=3473",
    "tourism": "museum",
    "wheelchair": "no"
  }
},
{
  "type": "way",
  "id": 317013390,
  "nodes": [
    3232202185,
    3232202184,
    4762396682,
    3232202179,
    3232202181,
    3232202178,
    3232202180,
    3232202182,
    3232202183,
    3232202185
  ],
  "tags": {
    "addr:city": "Ζωγράφου",
    "addr:country": "GR",
    "addr:housenumber": "38",
    "addr:street": "Ανακρέοντος",
    "building": "yes",
    "contact:phone": "+30 210 7773946",
    "contact:website": "http://www.benaki.gr/",
    "int_name": "Yannis Pappas Studio",
    "name": "Εργαστήριο Γιάννη Παππά",
    "name:el": "Εργαστήριο Γιάννη Παππά",
    "name:en": "Yannis Pappas Studio",
    "name:es": "Taller de Giannis Pappás",
    "opening_hours": "Tu-Su 10:00-14:00; We off; Th off; Sa off; PH off",
    "operator": "Μουσείο Μπενάκη",
    "tourism": "museum"
  }
},
{
  "type": "way",
  "id": 317646820,
  "nodes": [
    3239326453,
    3239326456,
    3239326459,
    3239326460,
    3239330561,
    4505973199,
    4506050840,
    4506050841,
    4506050842,
    3239330563,
    3239330564,
    3239326453
  ],
  "tags": {
    "addr:city": "Αθήνα (Athens)",
    "addr:housenumber": "8",
    "addr:postcode": "10438",
    "addr:street": "Παλαιολόγου Κωνσταντίνου (Paleologou)",
    "building": "yes",
    "name": "Sketch Museum",
    "opening_hours": "Nov-Mar 08:30-15:00",
    "phone": "+30 210 5241492, +30 210 5242140",
    "source": "http://odysseus.culture.gr/h/1/gh155.jsp?obj_id=3501,",
    "tourism": "museum",
    "wheelchair": "no"
  }
},
{
  "type": "way",
  "id": 318587297,
  "nodes": [
    3249863829,
    3249863830,
    3249863831,
    3249863834,
    3249863833,
    3249863845,
    3249863840,
    3249863836,
    3249863835,
    3249863829
  ],
  "tags": {
    "addr:city": "Αθήνα",
    "addr:country": "GR",
    "addr:housename": "Βίλα Ιλίσια",
    "addr:housenumber": "22",
    "addr:postcode": "10675",
    "addr:street": "Λεωφόρος Βασιλίσσης Σοφίας",
    "contact:email": "info.bma@culture.gr",
    "contact:phone": "+30 213 2139500",
    "contact:website": "http://www.byzantinemuseum.gr",
    "description": "The Byzantine and Christian Museum of Athens is one of the major public museums in Greece. Established in 1914 to collect, study, preservation and exhibition of Byzantine and Post-Byzantine cultural heritage in Greece. Educational programs. Ticket:4 €",
    "fee": "yes",
    "name": "Βυζαντινό και Χριστιανικό Μουσείο",
    "name:de": "Byzantinisches und Christliches Museum",
    "name:el": "Βυζαντινό και Χριστιανικό Μουσείο",
    "name:en": "Byzantine and Christian Museum",
    "name:es": "Museo Bizantino",
    "name:fr": "Musée byzantin et chrétien",
    "opening_hours": "Tu-Su 09:00-16:00",
    "source": "http://www.byzantinemuseum.gr/el/info/, http://odysseus.culture.gr/h/1/gh155.jsp?obj_id=3349",
    "tourism": "museum",
    "wheelchair": "limited",
    "wikidata": "Q1018775",
    "wikipedia": "el:Βυζαντινό και Χριστιανικό Μουσείο"
  }
},
{
  "type": "way",
  "id": 318587299,
  "nodes": [
    3249863838,
    3249863853,
    3249863854,
    3249863855,
    3249863850,
    3249863845,
    3249863833,
    3249863834,
    3249863831,
    3249863838
  ],
  "tags": {
    "addr:city": "Αθήνα",
    "addr:housename": "Πολεμικό Μουσείο",
    "addr:housenumber": "2",
    "addr:postcode": "10675",
    "addr:street": "Ριζάρη",
    "contact:email": "info@warmuseum.gr",
    "contact:phone": "+30 210 7252974;+30 210 7252975;+30 210 7252976;+30 210 7244464",
    "contact:website": "http://www.warmuseum.gr",
    "description": "Est. in 1975 in honor of all those who fought for the freedom of the country. Among the activities are the versions, the establishment, maintenance of monuments, heroes, memory space and strengthening institutions in region. Ticket:3 €",
    "fee": "yes",
    "name": "Πολεμικό Μουσείο",
    "name:de": "Kriegsmuseum",
    "name:el": "Πολεμικό Μουσείο",
    "name:en": "War Museum",
    "name:fr": "Musée de la Guerre",
    "name:pt": "Museu da Guerra",
    "opening_hours": "Nov-Mar Mo-Sa 09:00-17:00; Apr-Oct Mo-Sa 09:00-19:00; Su 09:00-15:00; PH 09:00-15:00",
    "operator": "Υπουργείο Εθνικής Άμυνας",
    "operator:en": "Ministry of National Defense",
    "source": "http://www.warmuseum.gr",
    "tourism": "museum",
    "wheelchair": "no",
    "wikidata": "Q1788831",
    "wikipedia": "el:Πολεμικό Μουσείο (Αθήνα)"
  }
},
{
  "type": "way",
  "id": 320122307,
  "nodes": [
    3266192191,
    3266192196,
    3266192185,
    3266192198,
    3266192184,
    3266192193,
    3266192188,
    3266192182,
    3266192192,
    3266192195,
    3266192183,
    3266192189,
    3266192197,
    3266192190,
    3266192186,
    3266192187,
    3266192191
  ],
  "tags": {
    "access": "by personal vehicle",
    "addr:city": "Σπάτα - Αρτέμιδα",
    "addr:postcode": "19004",
    "building": "yes",
    "name": "Μουσείο Νάζιουτζικ - Βυζαντινή συλλογή",
    "name:el": "Βυζαντινή συλλογή κτήματος Νάσιουτζικ",
    "note": "The museum has over 2000 exhibits of meta-Byzantine Greek art and culture including holy iconographies, spiritual objects, religious books etc.",
    "phone": "+30 210 66 32 000",
    "source": "http://www.ktimanasioutzik.gr/main/art-collections",
    "tourism": "museum",
    "wheelchair": "yes"
  }
},
{
  "type": "way",
  "id": 320326932,
  "nodes": [
    3268306438,
    3268306439,
    3268306440,
    3268306441,
    3268306443,
    3268306438
  ],
  "tags": {
    "addr:city": "Παιανία",
    "addr:country": "GR",
    "addr:housenumber": "1",
    "addr:postcode": "19002",
    "addr:street": "Πάροδος Διαδόχου Κωνσταντίνου",
    "building": "yes",
    "building:levels": "1",
    "charge": "Standard entrance fee: 5€ Reduced entrance fee: 3€ (students)",
    "contact:email": "info@vorresmuseum.gr",
    "contact:phone": "+30 210 6642520, +30 210 6644771",
    "description": "The museum which sprawls over six acres, is divided into two main sections: the museum of contemporary Greek art and the folk art museum, both of which house collections that cover at least 2500 years of Greek history.",
    "fee": "yes",
    "name": "Μουσείο Βορρέ",
    "name:en": "Vorres Museum",
    "opening_hours": "Sa-Su 10:00-14:00",
    "opening_hours:note": "Weekdays by appointment only and for groups of twenty (20) persons or more",
    "other_services": "museum shop",
    "parking": "yes",
    "public_transport": "from St.Nomismatokopeio (bus 125 or 308) or D.Plakentias (bus 307) bus stop: 1st Agias Triados - from Koropi (bus 307 or308) bus stop: 2nd Agias Triados",
    "source": "http://www.vorresmuseum.gr/",
    "toilets": "yes",
    "toilets:wheelchair": "yes",
    "tourism": "museum",
    "wheelchair": "yes"
  }
},
{
  "type": "way",
  "id": 320326933,
  "nodes": [
    3268306442,
    3268306443,
    3268306444,
    3268306445,
    3268306442
  ],
  "tags": {
    "addr:city": "Παιανία",
    "addr:country": "GR",
    "addr:housenumber": "1",
    "addr:postcode": "19002",
    "addr:street": "Πάροδος Διαδόχου Κωνσταντίνου",
    "building": "yes",
    "building:levels": "1",
    "charge": "Standard entrance fee: 5€ Reduced entrance fee: 3€ (students)",
    "contact:email": "info@vorresmuseum.gr",
    "contact:phone": "+30 210 6642520, +30 210 6644771",
    "description": "The museum which sprawls over six acres, is divided into two main sections: the museum of contemporary Greek art and the folk art museum, both of which house collections that cover at least 2500 years of Greek history.",
    "fee": "yes",
    "name": "Μουσείο Βορρέ",
    "name:en": "Vorres Museum",
    "opening_hours": "Sa-Su 10:00-14:00",
    "opening_hours:note": "Weekdays by appointment only and for groups of twenty (20) persons or more",
    "other_services": "museum shop",
    "parking": "yes",
    "public_transport": "from St.Nomismatokopeio (bus 125 or 308) or D.Plakentias (bus 307) bus stop: 1st Agias Triados - from Koropi (bus 307 or308) bus stop: 2nd Agias Triados",
    "source": "http://www.vorresmuseum.gr/",
    "toilets": "yes",
    "toilets:wheelchair": "yes",
    "tourism": "museum",
    "wheelchair": "yes"
  }
},
{
  "type": "way",
  "id": 320398494,
  "nodes": [
    3269113734,
    3269113732,
    3269113735,
    4982254077,
    3269113733,
    3269113734
  ],
  "tags": {
    "access": "by buses B12, 719 or 420",
    "addr:city": "Σεπόλια",
    "addr:housenumber": "4",
    "addr:postcode": "10443",
    "addr:street": "Σιώκου",
    "building": "yes",
    "name": "Σιδηροδρομικό Μουσείο Αθηνών",
    "name:el": "Σιδηροδρομικό Μουσείο Αθηνών",
    "name:en": "Railway Museum of Athens",
    "note": "The Railway Museum has many exhibits including old railway engines and cars, locomotives, the old tram of Athens, photographs, train engineering tools, clothes and tickets.",
    "opening_hours": "Tu-Sa 09:00-13:00",
    "operator": "OSE",
    "phone": "+30 210 5126295",
    "source": "http://odysseus.culture.gr/h/1/gh151.jsp?obj_id=3369",
    "tourism": "museum",
    "website": "https://www.ose.gr/en/culture/rail-museums/108-athens-railway-museum",
    "wikipedia": "el:Σιδηροδρομικό Μουσείο (Αθήνα)"
  }
},
{
  "type": "way",
  "id": 320401938,
  "nodes": [
    3269155963,
    3269155969,
    3269155966,
    3269155965,
    3269155962,
    3269155964,
    3269155968,
    3269155961,
    3269155963
  ],
  "tags": {
    "addr:city": "Μαρούσι",
    "addr:country": "GR",
    "addr:housenumber": "27",
    "addr:postcode": "15125",
    "addr:street": "Βορείου Ηπείρου",
    "building": "yes",
    "fee": "no",
    "name": "Σπαθάρειο Μουσείο Θεάτρου Σκιών",
    "name:el": "Σπαθάρειο Μουσείο Θεάτρου Σκιών",
    "name:en": "Spathario Museum of Shadow Theatre",
    "note": "The Museum includes photographs of the Shadow theatre traditional art form. Many Karaghiozis and other handmade painted or black and white figures, including the original Karaghiozis figire made by Eugene Spatharis.",
    "opening_hours": "Mo-Fr 10:00-14:00",
    "operator": "Municipality of Maroussi",
    "phone": "+30 210 80 22 360",
    "source": "http://odysseus.culture.gr/h/1/gh151.jsp?obj_id=3505",
    "tourism": "museum",
    "website": "http://www.karagiozismuseum.gr/index.htm"
  }
},
{
  "type": "way",
  "id": 320405482,
  "nodes": [
    3269194243,
    3269194240,
    3269194241,
    3269194238,
    3269194236,
    3269194235,
    3269194237,
    3269194242,
    3269194244,
    3269194239,
    3269194243
  ],
  "tags": {
    "access": "buses 304,321 from metro station Ethniki Amina",
    "addr:city": "Μαρκόπουλο",
    "building": "yes",
    "name": "Αρχαιολογικό Μουσείο Βραυρώνας",
    "name:el": "Αρχαιολογικό Μουσείο Βραυρώνας",
    "name:en": "Archaeological Museum of Brauron",
    "note": "It consists of five rooms and a patio. The report covers the period from prehistory to the Roman times, the exhibits include pottery miniatures, jewelry, vases, figurines, statues, etc.",
    "opening_hours": "Tu-Su 08:30-15:00",
    "operator": "Β΄ Εφορεία Προϊστορικών και Κλασικών Αρχαιοτήτων",
    "phone": "+30 22990 27020",
    "source": "http://odysseus.culture.gr/h/1/gh151.jsp?obj_id=3359",
    "ticket": "adults 3 euro, students 2 euro",
    "tourism": "museum",
    "website": "http://www.markopoulo-mesogeia.com/aksiotheata/mousio-vravronas.html",
    "wheelchair": "no",
    "wikidata": "Q4785392"
  }
},
{
  "type": "way",
  "id": 320782652,
  "nodes": [
    4776616587,
    3274275891,
    3274275892,
    3274275893,
    3274275890,
    3274275885,
    3274275886,
    3274275889,
    4776616587
  ],
  "tags": {
    "addr:city": "Ζωγράφου",
    "addr:country": "GR",
    "addr:housename": "Μουσείο Γιώργου Γουναρόπουλου",
    "addr:housenumber": "6",
    "addr:place": "Άνω Ιλίσια",
    "addr:postcode": "15771",
    "addr:street": "Γουναροπούλου",
    "alt_name": "G Gounaro",
    "building": "apartments",
    "description": "The old building – the painter's atelier– offers guided tours for students and other visitors who wish to acquaint themselves with G. Gounaro’s painting, while the new building – the Art and Civilization Center – hosts a variety of art exhibitions.",
    "email": "info@gounaropoulos.gr",
    "fee": "no",
    "name": "Μουσείο Γιώργου Γουναρόπουλου",
    "name:el": "Μουσείο Γιώργου Γουναρόπουλου",
    "name:en": "Museum of George Gounaropoulos",
    "opening_hours": "Tu-We 09:00-13:30,17:00-20:00; Th-Sa 09:00-15:00; Jun-Aug Tu-We 09:00-13:30,18:00-21:00; Mo off; Su off",
    "phone": "+30 210 7777601; +30 210 7487657",
    "tourism": "museum",
    "website": "http://www.gounaropoulos.gr",
    "wheelchair": "no"
  }
},
{
  "type": "way",
  "id": 321104684,
  "nodes": [
    2185977296,
    2185977213,
    2185977218,
    2185977233,
    2185977237,
    2185977230,
    2185977240,
    2185977222,
    2185977225,
    2185977242,
    2185977309,
    2185977304,
    2185977270,
    2185977255,
    2185977275,
    2185977303,
    2185977296
  ],
  "tags": {
    "addr:city": "Αθήνα",
    "addr:housenumber": "12",
    "addr:postcode": "10555",
    "addr:street": "Θεωρίας",
    "building": "yes",
    "building:levels": "3",
    "description:en": "promotion of Greek art and culture and supporting actions on less privileged individuals and charitable organizations.",
    "email": "idryma@canellopoulosmuseum.gr",
    "name": "Ίδρυμα Παύλου και Αλεξάνδρας Κανελλοπούλου",
    "name:el": "Ίδρυμα Παύλου και Αλεξάνδρας Κανελλοπούλου",
    "name:en": "Museum of Pavlos and Alexandra Kanellopoulou",
    "opening_hours": "Tu-Su 08:00-15:00; Mo off",
    "phone": "+30 210 3244447",
    "source": "http://odysseus.culture.gr/h/4/gh41.jsp?obj_id=10041",
    "tourism": "museum",
    "website": "http://www.pacanellopoulosfoundation.org",
    "wheelchair": "yes"
  }
},
{
  "type": "way",
  "id": 321114256,
  "nodes": [
    3278317822,
    3278317823,
    4465902204,
    3278317824,
    3278317825,
    3278317826,
    4465902209,
    3278317827,
    3278317822
  ],
  "tags": {
    "addr:city": "Athens",
    "addr:country": "GR",
    "addr:full": "Αγίων Ασωμάτων 22 & Διπύλου 12",
    "addr:housenumber": "22",
    "addr:postcode": "105 53",
    "addr:street": "Αγίων Ασωμάτων",
    "building": "yes",
    "building:levels": "4",
    "description": "Includes a collection of over 8000 samples of ceramic, glass, metalwork, jewelery, woodwork, etc. It also promotes the development of Islamic art in the 19th century.",
    "email": "islamic_collection@benaki.gr",
    "fax": "+30 210 3225550",
    "name": "Μουσείο Μπενάκη Ισλαμικής Τέχνης",
    "name:en": "Benaki's Museum of Islamic Art",
    "name:pt": "Museu Benaki de Arte Islâmica",
    "opening_hours": "Th,Fr,Sa,Su 09:00-17:00",
    "operator": "Μουσείο Μπενάκη",
    "phone": "+30 210 325 1311",
    "source": "http://www.benaki.gr/?lang=gr&id=4020302",
    "tourism": "museum",
    "website": "http://www.benaki.gr/?lang=gr&id=4020302",
    "wheelchair": "yes"
  }
},
{
  "type": "way",
  "id": 321127838,
  "nodes": [
    3278450976,
    3278450977,
    3278450978,
    3278450979,
    3278450980,
    3278450981,
    3278450982,
    3278450983,
    3278450984,
    3278450985,
    3278450986,
    3278450987,
    3278450988,
    3278450990,
    3278450993,
    3278450976
  ],
  "tags": {
    "addr:city": "Βρανάς",
    "addr:housenumber": "114",
    "addr:postcode": "19007",
    "addr:street": "Λ. Πλαταιών",
    "building": "yes",
    "description": "It hosts exhibits such as: Neolithic pottery from the Cave of Panos, Cycladic pottery from the cemetery at Tsepi – Marathon, parts of the Trophy of Marathon Battle, etc.",
    "fax": "+30 22940 55155",
    "name": "Αρχαιολογικό Μουσείο Μαραθώνα",
    "name:el": "Αρχαιολογικό Μουσείο Μαραθώνα",
    "name:en": "Archaeological Museum of Marathon",
    "opening_hours": "Tu-Su 8:30-15:00, Mo off",
    "parking": "yes",
    "phone": "+30 22940 55155",
    "source": "http://odysseus.culture.gr/h/1/gh155.jsp?obj_id",
    "ticket office": "yes",
    "ticket price": "Full admission: 3€ , Reduced admission : 2€, Free admission : students and foreign students , guests over 65 years and families with many children",
    "tourism": "museum",
    "website": "http://site.marathon.gr/arxaiologiko-mouseio.html",
    "wheelchair": "yes"
  }
},
{
  "type": "way",
  "id": 321136142,
  "nodes": [
    3278530780,
    3278530781,
    3278530782,
    3278530783,
    3278530784,
    3278530785,
    3278530786,
    3278530787,
    3278530788,
    3278530789,
    3278530790,
    3278530791,
    3278530792,
    3278530793,
    3278530794,
    3278530795,
    3278530796,
    3278530797,
    3278530798,
    3278530799,
    3278530780
  ],
  "tags": {
    "addr:city": "Κηφισιά",
    "addr:country": "GR",
    "addr:housenumber": "25",
    "addr:postcode": "14564",
    "addr:street": "Πρωτέως",
    "building": "yes",
    "description:en": "Exhibitions about history of greek telecommunication with over than 4500 items.",
    "email": "ote-museum@ote.gr",
    "name": "Μουσείο Τηλεπικοινωνιών ΟΤΕ",
    "name:el": "Μουσείο Τηλεπικοινωνιών ΟΤΕ",
    "name:en": "OTE Telecommunications Museum",
    "opening_hours": "Mo-Fr 08:00-15:00; Sa[1] 09:00-15:00; Su[1] 09:00-15:00",
    "operator": "Οργανισμός Τηλεπικοινωνιών Ελλάδος",
    "phone": "+30 210 6201899;+30 2106201999",
    "source": "https://www.cosmote.gr/cr2010/cr2010_el/moyseio-tilepikoinonion-ote.html",
    "tourism": "museum",
    "website": "https://www.otegroupmuseum.gr/",
    "wheelchair": "yes"
  }
},
{
  "type": "way",
  "id": 321376940,
  "nodes": [
    3281185449,
    3281185450,
    3281185451,
    3281185452,
    3281185453,
    3281185454,
    3281185455,
    3281185456,
    3281185457,
    3281185458,
    3281185449
  ],
  "tags": {
    "addr:city": "Αθήνα",
    "addr:country": "GR",
    "addr:postcode": "10436",
    "addr:street": "Λεωνίδου",
    "building": "yes",
    "description": "New Athens Municipal Gallery presents the permanent collection of the Art Gallery while it hosts and other periodic exhibitions.",
    "name": "Νέα Πινακοθήκη Δήμου Αθηναίων",
    "name:en": "New Athens Municipal Gallery",
    "note": "Accessibility with means of transport: METRO (station METAKSOURGIO ) , trolley 12",
    "opening_hours": "Tu 10:00-21:00; We-Sa 10:00-19:00; Su 10:00-15:00",
    "payment:none": "yes",
    "phone": "210 3243022",
    "source": "https://www.cityofathens.gr/node/668",
    "tourism": "museum",
    "wheelchair": "yes"
  }
},
{
  "type": "way",
  "id": 321388468,
  "nodes": [
    3281305161,
    3281305162,
    3281305163,
    3281305164,
    3281305161
  ],
  "tags": {
    "accessibility": "Mostly with car from the national roads and intercity buses",
    "addr:city": "Βαρνάβας",
    "addr:country": "GR",
    "addr:housenumber": "7",
    "addr:postcode": "19014",
    "addr:street": "Ανδρίτσου",
    "building": "yes",
    "museum_shop": "Sells traditional scarves, pottery and wooden objects, and copies of exhibits.",
    "name": "Διαδραστικό Αγροτικό Λαογραφικό Μουσείο Βαρνάβα",
    "note": "The household was always the center of activities that's why the certain museum mentions all about it. The collection consists of five thousand exhibits, and staff about the hosehold at the old days.",
    "opening_hours": "Mo-Fr 09:00-14:00 , Su 10:00-13:00",
    "phone": "22950 97811 ,22950 97870",
    "tourism": "museum",
    "website": "https://mouseio-psomiou.com/ilmb/",
    "wheelchair": "limited"
  }
},
{
  "type": "way",
  "id": 321390067,
  "nodes": [
    3281305162,
    3281325898,
    3281325899,
    3281305163,
    3281305162
  ],
  "tags": {
    "accessibility": "Mostly with car from the national roads and intercity buses",
    "addr:city": "Βαρνάβας",
    "addr:country": "GR",
    "addr:housenumber": "7",
    "addr:postcode": "19014",
    "addr:street": "Ανδρίτσου",
    "building": "yes",
    "exhibition_center_programs": "yes",
    "museum_shop": "sells copies of embroidered bread and books",
    "name": "Ευρωπαϊκό Μουσείο Άρτου",
    "name:en": "European Bread Museum",
    "note": "Contains 2000 embroidered exhibits and religious bread, agricultural tools and traditional oven.",
    "opening_hours": "Mo-Fr 09:00-14:00, Su 10:00-13:00",
    "phone": "22950 97811, 22950 97870",
    "tourism": "museum",
    "tours": "yes",
    "website": "https://mouseio-psomiou.com/",
    "wheelchair": "limited"
  }
},
{
  "type": "way",
  "id": 329848980,
  "nodes": [
    4727216091,
    3367953609,
    3744860873,
    4727213275,
    4727216091
  ],
  "tags": {
    "addr:city": "Αθήνα",
    "addr:housenumber": "2",
    "addr:postcode": "11635",
    "addr:street": "Φωκιανού",
    "building": "yes",
    "name": "Ταχυδρομικό και Φιλοτελικό Μουσείο",
    "name:el": "Ταχυδρομικό και Φιλοτελικό Μουσείο",
    "name:en": "Postal and Philatelic Museum",
    "notes": "The museum opened in 1978. The collection includes postboxes, sealing machines, postman bags horns and more tools from Postal Offices, telegraphs and telephones.",
    "opening_hours": "8:30-15:00",
    "operator": "Ελληνικά Ταχυδρομεία",
    "phone": "+30 21 0751 9042",
    "source": "postlmuseum.gr",
    "tourism": "museum",
    "wheelchair": "yes"
  }
},
{
  "type": "way",
  "id": 329856184,
  "nodes": [
    3368033093,
    3368033094,
    3368033095,
    3368033096,
    3368033093
  ],
  "tags": {
    "addr:city": "Αθήνα",
    "addr:housenumber": "30",
    "addr:postcode": "14563",
    "addr:street": "Γεωργαντά",
    "building": "yes",
    "description": "Opened to the public in 2004. Consists of multiple archaelogical artifacts found in private property or during the construction pf public works in the northern rural area of Athens.",
    "name": "Αρχαιολογική Συλλογή Κηφισιάς",
    "name:el": "Αρχαιολογική Συλλογή Κηφισιάς",
    "opening_hours": "Tu-Su 08:30-14:30",
    "operator": "Δήμος Κηφισιάς",
    "phone": "+30 210 08085560",
    "source": "http://www.kifissia.gr/main/content/dimos_kifisias/arch_collection.html",
    "tourism": "museum"
  }
},
{
  "type": "way",
  "id": 329861681,
  "nodes": [
    3368089011,
    3368089012,
    3368089013,
    3368089014,
    3368089011
  ],
  "tags": {
    "addr:city": "ΑΤΤΙΚΗ",
    "addr:postcode": "19015",
    "addr:street": "36ο χλμ. Λεωφ. Μαρκοπούλου-Ωρωπού Κάλαμος",
    "building": "yes",
    "name": "Τεχνολογικό Μουσείο ΦΑΕΘΩΝ",
    "name:ru": "Технический музей \"Фаэтон\"",
    "note": "• Το Τ. Μουσείο διαθέτει δωρεάν φορητό ψηφιακό σύστημα αυτόματης ξενάγησης 12 γλωσσών για τους επισκέπτες. • Το Τ. Μουσείο διαθέτει ξεναγό, για ξεναγήσεις σε ομάδες άνω των 15 ατόμων. • Tο Τ.Μουσείο είναι διαπιστευμένο από το Υπ. Παιδείας & Θρησκευμάτων.",
    "opening_hours": "Mo-Fr 09:00-15:00",
    "phone": "22950 39261",
    "source": "http://phaetonmuseum.gr",
    "tourism": "museum"
  }
},
{
  "type": "way",
  "id": 343686265,
  "nodes": [
    3504872508,
    3504872509,
    3504872510,
    3504872511,
    3504872508
  ],
  "tags": {
    "addr:housenumber": "13",
    "addr:street": "Αγίου Δημητρίου",
    "building": "yes",
    "name": "Museum of Greek Gastronomy",
    "tourism": "museum"
  }
},
{
  "type": "way",
  "id": 363624623,
  "nodes": [
    3677953163,
    3677953165,
    3677953156,
    3677953162,
    3677953166,
    3677953157,
    3677953155,
    3677953152,
    3677953151,
    3836217373,
    3677953158,
    3677953161,
    3677953154,
    3677953159,
    3677953164,
    3677953160,
    3677953167,
    3677953153,
    3677953163
  ],
  "tags": {
    "name": "Ελληνικός Κόσμος",
    "toilets:wheelchair": "yes",
    "tourism": "museum",
    "wheelchair": "yes"
  }
},
{
  "type": "way",
  "id": 365713215,
  "nodes": [
    3697138765,
    3697138766,
    2893467587,
    2893467589,
    3697138765
  ],
  "tags": {
    "tourism": "museum"
  }
},
{
  "type": "way",
  "id": 383407579,
  "nodes": [
    4526574877,
    4526587889,
    3866687168,
    4526587886,
    4526587883,
    3866687169,
    4526574876,
    4526574877
  ],
  "tags": {
    "addr:city": "Αθήνα",
    "addr:housenumber": "48",
    "addr:street": "Ιερά Οδός",
    "building": "yes",
    "name": "Ταινιοθήκη Της Ελλάδος",
    "tourism": "museum",
    "website": "http://www.tainiothiki.gr",
    "wheelchair": "yes",
    "wikipedia:el": "Ταινιοθήκη_της_Ελλάδος"
  }
},
{
  "type": "way",
  "id": 388503977,
  "nodes": [
    3916980210,
    2153973241,
    2153973225,
    2153973228,
    3917880295,
    2153973239,
    3917880307,
    3917880316,
    2153973266,
    3917880333,
    2153973298,
    3917880348,
    2153973336,
    3917880361,
    3917880369,
    2153973355,
    3917880383,
    2153973370,
    2153973384,
    3917880388,
    2153973388,
    2153973390,
    2153973395,
    2153973397,
    2153973393,
    2153973398,
    2153973386,
    3916980376,
    3916980373,
    3916980371,
    3916980369,
    3916980368,
    3917880386,
    3916980365,
    3917880379,
    3916980362,
    3917880368,
    3916980360,
    3917880359,
    3916980359,
    3917880349,
    3917880343,
    3917880337,
    3917880331,
    3917880326,
    3917880321,
    3917880315,
    3917880309,
    3916980234,
    3916980210
  ],
  "tags": {
    "addr:city": "Πειραιάς",
    "addr:country": "GR",
    "addr:neighbourhood": "Φρεαττύδα",
    "addr:postcode": "185 37",
    "addr:street": "Ακτή Θεμιστοκλέους",
    "building": "civic",
    "building:levels": "2",
    "contact:email": "nme@ath.forthnet.gr",
    "contact:fax": "+302104512277",
    "description": "The museum displays the evolution of the Greek shipbuilding through the ancient times until the Greek revolution of 1821. It also displays the active role of the Greek navy and merchantile marine in modern history. Ticket 4€, 2€.",
    "layer": "-1",
    "name": "Ναυτικό Μουσείο Ελλάδος",
    "name:el": "Ναυτικό Μουσείο Ελλάδος",
    "name:en": "Maritime Museum of Greece",
    "opening_hours": "Tu-Sa 09:00-14:00; PH off",
    "phone": "+30 210 4516264;+30 210 4286959",
    "source": "http://odysseus.culture.gr/h/1/gh155.jsp?obj_id=3366",
    "start_date": "1949",
    "tourism": "museum",
    "wikidata": "Q3035316",
    "wikipedia": "el:Ναυτικό Μουσείο Ελλάδος"
  }
},
{
  "type": "way",
  "id": 448520748,
  "nodes": [
    4455282124,
    4455282121,
    4455282120,
    4455282107,
    4455282108,
    4455282111,
    4455282124
  ],
  "tags": {
    "building": "yes",
    "name": "Πνευματικό Κέντρο Κωνσταντινοπολιτών",
    "tourism": "museum"
  }
},
{
  "type": "way",
  "id": 449650393,
  "nodes": [
    4465923005,
    4465923007,
    4465923003,
    4465923001,
    4465922999,
    4465922996,
    4465922995,
    4465922992,
    4465922988,
    4465923005
  ],
  "tags": {
    "addr:city": "Αθήνα",
    "addr:housenumber": "5",
    "addr:street": "Λεπενιώτου",
    "building": "yes",
    "tourism": "museum"
  }
},
{
  "type": "way",
  "id": 475536287,
  "nodes": [
    4692716177,
    4692716174,
    4692716175,
    4692716176,
    4692716146,
    4692716177
  ],
  "tags": {
    "addr:city": "Νέα Σμύρνη",
    "addr:housenumber": "87",
    "addr:postcode": "17123",
    "addr:street": "Ελευθερίου Βενιζέλου",
    "building": "yes",
    "name": "Ψηφιακό Μουσείο Νέας Σμύρνης",
    "opening_hours": "Mo-Fr 09:30-15:00, Mo-Tu 18:00-21:00, Sa 10:00-14:00",
    "phone": "+302132025962",
    "tourism": "museum",
    "website": "http://www.smyrnimuseum.gr"
  }
},
{
  "type": "way",
  "id": 599403559,
  "nodes": [
    5702671133,
    5702671134,
    5702671135,
    5702671136,
    5702671133
  ],
  "tags": {
    "building": "yes",
    "name": "Λαογραφικό μουσείο Τανάγρας & Σύλλογος γυναικών \"Ταναγραιές\"",
    "note": "Χρειάζεται επιβεβαίωση. Καταχωρήθηκε κατά προσέγγιση. Πιθανότατα λάθος πλευρά του δρόμου και τοποθεσία.",
    "tourism": "museum"
  }
},
{
  "type": "way",
  "id": 605643693,
  "nodes": [
    5743794371,
    5743794372,
    5743794373,
    5743794374,
    5743794371
  ],
  "tags": {
    "building": "yes",
    "name": "Παλιό αρχαιολογικό μουσείο",
    "tourism": "museum"
  }
},
{
  "type": "way",
  "id": 611981319,
  "nodes": [
    5793612217,
    5793612214,
    5793612212,
    5793612225,
    5793612201,
    5793612199,
    5793612220,
    5793612232,
    5793612202,
    5793615404,
    5793612233,
    5793612228,
    5793612235,
    5793612206,
    5793612210,
    5793612231,
    5793612234,
    5793612227,
    5793612215,
    5793612218,
    5793612217
  ],
  "tags": {
    "addr:housenumber": "14",
    "addr:street": "Ποσειδώνος",
    "building": "museum",
    "name": "Μουσείο Παιχνιδιών Μπενάκη",
    "name:el": "Μουσείο Παιχνιδιών Μπενάκη",
    "name:en": "Benaki Toy Museum",
    "opening_hours": "Th-Su 10:00-18:00",
    "tourism": "museum",
    "website": "https://www.benaki.gr/index.php?option=com_buildings&view=building&id=7&lang=el"
  }
},
{
  "type": "way",
  "id": 679615261,
  "nodes": [
    6363727256,
    6363727257,
    6363727258,
    6363727259,
    6363727256
  ],
  "tags": {
    "building": "yes",
    "name": "Λαογραφικό Μουσείο Νέας Μάκρης",
    "name:en": "Folklore Museum of Nea Makri",
    "phone": "2294097431",
    "tourism": "museum"
  }
},
{
  "type": "relation",
  "id": 2828,
  "members": [
    {
      "type": "way",
      "ref": 10741857,
      "role": "outer"
    },
    {
      "type": "way",
      "ref": 10741858,
      "role": "inner"
    },
    {
      "type": "way",
      "ref": 10741859,
      "role": "inner"
    },
    {
      "type": "way",
      "ref": 10741860,
      "role": "inner"
    },
    {
      "type": "way",
      "ref": 10741861,
      "role": "inner"
    }
  ],
  "tags": {
    "addr:city": "Αθήνα",
    "addr:housenumber": "44",
    "addr:postcode": "10682",
    "addr:street": "28ης Οκτωβρίου",
    "building": "museum",
    "building:levels": "3",
    "description": "The National Archaeological Museum of Athens is the largest archaeological museum in Greece and one of the most important museums in the world devoted to ancient Greek art.",
    "fax": "+30 210 8213573;+30 210 8230800",
    "int_name": "Ethniko Archeologiko Mousio",
    "name": "Εθνικό Αρχαιολογικό Μουσείο",
    "name:de": "Archäologisches Nationalmuseum",
    "name:el": "Εθνικό Αρχαιολογικό Μουσείο",
    "name:en": "National Archaeological Museum",
    "name:es": "Museo Arqueológico Nacional",
    "name:fr": "Musée national d'archéologique",
    "name:ja": "アテネ国立考古学博物館",
    "name:ko": "아테네 국립 고고학 박물관",
    "name:nl": "Nationaal Archeologisch Museum",
    "name:pl": "Narodowe Muzeum Archeologiczne",
    "name:ru": "Национальный Археологический Музей",
    "name:zh": "国家考古博物馆",
    "opening_hours": "Mo 13:00-20:00; Tu-Su 09:00-16:00; Jan 1 off; Mar 25 off; May 1 off; Dec 25-26 off",
    "phone": "+30 213 2144800",
    "source": "http://www.namuseum.gr/index.html",
    "tourism": "museum",
    "type": "multipolygon",
    "website": "http://www.namuseum.gr/index.html",
    "wheelchair": "yes",
    "wikidata": "Q637187",
    "wikipedia": "el:Εθνικό Αρχαιολογικό Μουσείο"
  }
},
{
  "type": "relation",
  "id": 2429041,
  "members": [
    {
      "type": "way",
      "ref": 182372766,
      "role": "outer"
    },
    {
      "type": "way",
      "ref": 217531414,
      "role": "inner"
    }
  ],
  "tags": {
    "addr:housenumber": "138",
    "addr:postcode": "11854",
    "addr:street": "Πειραιώς",
    "building": "civic",
    "fax": "+30 210 3453743",
    "name": "Μουσείο Μπενάκη (Κτήριο Οδού Πειραιώς)",
    "name:ca": "Museu Benaki",
    "name:de": "Benaki-Museum",
    "name:en": "Benaki Museum (Pireos St. Annexe)",
    "name:es": "Museo Benaki",
    "name:fr": "Musée Benaki",
    "name:gl": "Museo Benaki",
    "name:pt": "Museu Benaki",
    "name:ru": "Музей Бенаки",
    "name:uk": "Музей Бенакі",
    "name:zh": "贝纳基博物馆",
    "opening_hours": "Su, Th 10:00-18:00; Fr-Sa 10:00-22:00; Mo-We off",
    "phone": "+30 210 3453111",
    "tourism": "museum",
    "type": "multipolygon",
    "website": "https://www.benaki.gr/",
    "wikidata": "Q816669",
    "wikipedia": "el:Μουσείο Μπενάκη"
  }
},
{
  "type": "relation",
  "id": 6693233,
  "members": [
    {
      "type": "way",
      "ref": 39857610,
      "role": "outer"
    },
    {
      "type": "way",
      "ref": 451636890,
      "role": "inner"
    }
  ],
  "tags": {
    "addr:city": "Παλαιό Φάληρο",
    "addr:housenumber": "387",
    "addr:postcode": "17564",
    "addr:street": "Ανδρέα Συγγρού",
    "amenity": "planetarium;library",
    "building": "yes",
    "building:levels": "3",
    "name": "Ίδρυμα Ευγενίδου;Νέο Ψηφιακό Πλανητάριο",
    "name:el": "Ίδρυμα Ευγενίδου;Νέο Ψηφιακό Πλανητάριο",
    "name:en": "Eugenides Foundation;New Digital Planetarium",
    "opening_hours": "Mo-Th 8:30-20:00, Fr-Sa 8:30-15:30",
    "phone": "+30 21 0946 9600",
    "tourism": "museum",
    "type": "multipolygon",
    "website": "http://www.eugenfound.edu.gr",
    "wheelchair": "yes",
    "wikidata": "Q5418250",
    "wikipedia": "el:Ίδρυμα Ευγενίδου"
  }
},
{
  "type": "relation",
  "id": 10588208,
  "members": [
    {
      "type": "way",
      "ref": 763212827,
      "role": "outer"
    },
    {
      "type": "way",
      "ref": 763212820,
      "role": "outer"
    },
    {
      "type": "way",
      "ref": 763212814,
      "role": "outer"
    },
    {
      "type": "way",
      "ref": 763211246,
      "role": "outer"
    },
    {
      "type": "way",
      "ref": 763212824,
      "role": "outer"
    }
  ],
  "tags": {
    "addr:city": "Αθήνα",
    "addr:country": "GR",
    "addr:housename": "Εθνικό Ιστορικό Μουσείο",
    "addr:housenumber": "13",
    "addr:postcode": "10561",
    "addr:street": "Κολοκοτρώνη",
    "building": "yes",
    "charge": "adults 3 euro, 65+ and students 1.50 euro",
    "contact:email": "info@nhmuseum.gr",
    "contact:fax": "+30 210 3213786",
    "contact:phone": "+30 210 3237617;+30 210 3237315;+30 210 3222266",
    "contact:website": "http://www.nhmuseum.gr/",
    "fee": "yes",
    "free_admission": "Sundays, March 25, May 18 and October 28",
    "name": "Εθνικό Ιστορικό Μουσείο",
    "name:de": "Nationales Geschichtsmuseum",
    "name:el": "Εθνικό Ιστορικό Μουσείο",
    "name:en": "National Historic Museum",
    "name:es": "Museo Histórico Nacional",
    "name:pt": "Museu Histórico",
    "name:ru": "Национальный исторический музей",
    "note": "Αντικείμενό του, η ιστορία του νεότερου Ελληνισμού: η περίοδος της τουρκοκρατίας και φραγκοκρατίας, η επανάσταση του 1821, οι απελευθερωτικοί αγώνες, η δημιουργία του ανεξάρτητου κράτους, η πολιτική, κοινωνική και πνευματική εξέλιξη του Ελληνισμού.",
    "old_name": "Μέγαρο της Παλαιάς Βουλής",
    "opening_hours": "Tu-Su 08:30-14:30",
    "tourism": "museum",
    "type": "multipolygon",
    "wheelchair": "no",
    "wikidata": "Q822101",
    "wikipedia": "el:Εθνικό Ιστορικό Μουσείο"
  }
},
{
  "type": "relation",
  "id": 10617516,
  "members": [
    {
      "type": "way",
      "ref": 765856232,
      "role": "outer"
    }
  ],
  "tags": {
    "name": "Μουσείο Μελέτης Ελληνικού Θεάτρου",
    "name:el": "Μουσείο Μελέτης Ελληνικού Θεάτρου",
    "name:en": "Museum and Study Centre of the Greek Theatre",
    "name:fr": "Musée du théâtre grec",
    "tourism": "museum",
    "wikidata": "Q1584857",
    "wikipedia": "el:Θεατρικό Μουσείο - Κέντρο Μελέτης & Έρευνας Ελληνικού Θεάτρου"
  }
},
{
  "type": "node",
  "id": 5743794371,
  "lat": 37.9624091,
  "lon": 23.4867917
},
{
  "type": "node",
  "id": 5743794372,
  "lat": 37.9624715,
  "lon": 23.4867810
},
{
  "type": "node",
  "id": 5743794373,
  "lat": 37.9624531,
  "lon": 23.4866074
},
{
  "type": "node",
  "id": 5743794374,
  "lat": 37.9623906,
  "lon": 23.4866181
},
{
  "type": "node",
  "id": 3231272061,
  "lat": 37.9973035,
  "lon": 23.3456132
},
{
  "type": "node",
  "id": 3231272062,
  "lat": 37.9972708,
  "lon": 23.3455973
},
{
  "type": "node",
  "id": 3231272063,
  "lat": 37.9972338,
  "lon": 23.3456070
},
{
  "type": "node",
  "id": 3231272064,
  "lat": 37.9971948,
  "lon": 23.3458902
},
{
  "type": "node",
  "id": 3231272065,
  "lat": 37.9972673,
  "lon": 23.3459061
},
{
  "type": "node",
  "id": 2781290907,
  "lat": 37.7538900,
  "lon": 23.5323172
},
{
  "type": "node",
  "id": 2781290908,
  "lat": 37.7539835,
  "lon": 23.5322915
},
{
  "type": "node",
  "id": 2781290909,
  "lat": 37.7540011,
  "lon": 23.5323937
},
{
  "type": "node",
  "id": 2781290910,
  "lat": 37.7540654,
  "lon": 23.5323760
},
{
  "type": "node",
  "id": 2781290911,
  "lat": 37.7540852,
  "lon": 23.5324915
},
{
  "type": "node",
  "id": 2781290912,
  "lat": 37.7541695,
  "lon": 23.5324684
},
{
  "type": "node",
  "id": 2781290913,
  "lat": 37.7541829,
  "lon": 23.5325462
},
{
  "type": "node",
  "id": 2781290914,
  "lat": 37.7540220,
  "lon": 23.5325904
},
{
  "type": "node",
  "id": 2781290915,
  "lat": 37.7540025,
  "lon": 23.5324766
},
{
  "type": "node",
  "id": 2781290916,
  "lat": 37.7539212,
  "lon": 23.5324990
},
{
  "type": "node",
  "id": 3224217770,
  "lat": 37.9636308,
  "lon": 23.4906752
},
{
  "type": "node",
  "id": 3224217771,
  "lat": 37.9633200,
  "lon": 23.4906564
},
{
  "type": "node",
  "id": 3224217772,
  "lat": 37.9634469,
  "lon": 23.4906994
},
{
  "type": "node",
  "id": 3224217773,
  "lat": 37.9634617,
  "lon": 23.4906833
},
{
  "type": "node",
  "id": 3224217774,
  "lat": 37.9634067,
  "lon": 23.4902997
},
{
  "type": "node",
  "id": 3224217775,
  "lat": 37.9633602,
  "lon": 23.4907503
},
{
  "type": "node",
  "id": 3224217777,
  "lat": 37.9635188,
  "lon": 23.4906135
},
{
  "type": "node",
  "id": 3224217778,
  "lat": 37.9632988,
  "lon": 23.4903694
},
{
  "type": "node",
  "id": 3224217779,
  "lat": 37.9634786,
  "lon": 23.4906672
},
{
  "type": "node",
  "id": 3224217780,
  "lat": 37.9633158,
  "lon": 23.4903802
},
{
  "type": "node",
  "id": 3224217781,
  "lat": 37.9635402,
  "lon": 23.4906618
},
{
  "type": "node",
  "id": 3224217782,
  "lat": 37.9635272,
  "lon": 23.4906564
},
{
  "type": "node",
  "id": 3224217783,
  "lat": 37.9632269,
  "lon": 23.4904258
},
{
  "type": "node",
  "id": 3224217784,
  "lat": 37.9636224,
  "lon": 23.4906940
},
{
  "type": "node",
  "id": 3224217785,
  "lat": 37.9636139,
  "lon": 23.4906752
},
{
  "type": "node",
  "id": 3224217787,
  "lat": 37.9634426,
  "lon": 23.4906564
},
{
  "type": "node",
  "id": 3224217788,
  "lat": 37.9634680,
  "lon": 23.4906403
},
{
  "type": "node",
  "id": 3224217789,
  "lat": 37.9635759,
  "lon": 23.4907101
},
{
  "type": "node",
  "id": 3224217790,
  "lat": 37.9634744,
  "lon": 23.4902675
},
{
  "type": "node",
  "id": 3224217791,
  "lat": 37.9635293,
  "lon": 23.4904982
},
{
  "type": "node",
  "id": 2132109998,
  "lat": 37.9370657,
  "lon": 23.6440634
},
{
  "type": "node",
  "id": 2132110000,
  "lat": 37.9371252,
  "lon": 23.6443281
},
{
  "type": "node",
  "id": 2132110001,
  "lat": 37.9370989,
  "lon": 23.6440012
},
{
  "type": "node",
  "id": 2132110050,
  "lat": 37.9374016,
  "lon": 23.6442610
},
{
  "type": "node",
  "id": 2132551304,
  "lat": 37.9369106,
  "lon": 23.6443538
},
{
  "type": "node",
  "id": 2132551313,
  "lat": 37.9369883,
  "lon": 23.6444205
},
{
  "type": "node",
  "id": 2132551322,
  "lat": 37.9370652,
  "lon": 23.6442766
},
{
  "type": "node",
  "id": 2132551352,
  "lat": 37.9371865,
  "lon": 23.6442133
},
{
  "type": "node",
  "id": 2132551354,
  "lat": 37.9371952,
  "lon": 23.6442208
},
{
  "type": "node",
  "id": 2132551362,
  "lat": 37.9373396,
  "lon": 23.6443447
},
{
  "type": "node",
  "id": 2132551365,
  "lat": 37.9373515,
  "lon": 23.6443549
},
{
  "type": "node",
  "id": 2132551366,
  "lat": 37.9373897,
  "lon": 23.6442509
},
{
  "type": "node",
  "id": 3924020609,
  "lat": 37.9371107,
  "lon": 23.6443157
},
{
  "type": "node",
  "id": 3924020610,
  "lat": 37.9371391,
  "lon": 23.6443021
},
{
  "type": "node",
  "id": 3924020613,
  "lat": 37.9372752,
  "lon": 23.6442894
},
{
  "type": "node",
  "id": 3924020615,
  "lat": 37.9373487,
  "lon": 23.6443525
},
{
  "type": "node",
  "id": 2153973225,
  "lat": 37.9321294,
  "lon": 23.6459513
},
{
  "type": "node",
  "id": 2153973228,
  "lat": 37.9321525,
  "lon": 23.6458819
},
{
  "type": "node",
  "id": 2153973239,
  "lat": 37.9322199,
  "lon": 23.6457581
},
{
  "type": "node",
  "id": 2153973241,
  "lat": 37.9322148,
  "lon": 23.6459941
},
{
  "type": "node",
  "id": 2153973266,
  "lat": 37.9323636,
  "lon": 23.6456265
},
{
  "type": "node",
  "id": 2153973298,
  "lat": 37.9324774,
  "lon": 23.6455843
},
{
  "type": "node",
  "id": 2153973336,
  "lat": 37.9325960,
  "lon": 23.6455825
},
{
  "type": "node",
  "id": 2153973355,
  "lat": 37.9327638,
  "lon": 23.6456550
},
{
  "type": "node",
  "id": 2153973370,
  "lat": 37.9328568,
  "lon": 23.6457484
},
{
  "type": "node",
  "id": 2153973384,
  "lat": 37.9328949,
  "lon": 23.6458062
},
{
  "type": "node",
  "id": 2153973386,
  "lat": 37.9329348,
  "lon": 23.6466458
},
{
  "type": "node",
  "id": 2153973388,
  "lat": 37.9329509,
  "lon": 23.6459387
},
{
  "type": "node",
  "id": 2153973390,
  "lat": 37.9329678,
  "lon": 23.6460110
},
{
  "type": "node",
  "id": 2153973393,
  "lat": 37.9329930,
  "lon": 23.6462285
},
{
  "type": "node",
  "id": 2153973395,
  "lat": 37.9329957,
  "lon": 23.6460075
},
{
  "type": "node",
  "id": 2153973397,
  "lat": 37.9330265,
  "lon": 23.6462239
},
{
  "type": "node",
  "id": 2153973398,
  "lat": 37.9330301,
  "lon": 23.6466317
},
{
  "type": "node",
  "id": 3916980210,
  "lat": 37.9322362,
  "lon": 23.6460062
},
{
  "type": "node",
  "id": 3916980234,
  "lat": 37.9322530,
  "lon": 23.6459545
},
{
  "type": "node",
  "id": 3916980359,
  "lat": 37.9325809,
  "lon": 23.6457300
},
{
  "type": "node",
  "id": 3916980360,
  "lat": 37.9326660,
  "lon": 23.6457585
},
{
  "type": "node",
  "id": 3916980362,
  "lat": 37.9327418,
  "lon": 23.6458153
},
{
  "type": "node",
  "id": 3916980365,
  "lat": 37.9328026,
  "lon": 23.6458960
},
{
  "type": "node",
  "id": 3916980368,
  "lat": 37.9328440,
  "lon": 23.6459945
},
{
  "type": "node",
  "id": 3916980369,
  "lat": 37.9328563,
  "lon": 23.6460482
},
{
  "type": "node",
  "id": 3916980371,
  "lat": 37.9328652,
  "lon": 23.6461450
},
{
  "type": "node",
  "id": 3916980373,
  "lat": 37.9328745,
  "lon": 23.6462460
},
{
  "type": "node",
  "id": 3916980376,
  "lat": 37.9329116,
  "lon": 23.6466492
},
{
  "type": "node",
  "id": 3917880295,
  "lat": 37.9321829,
  "lon": 23.6458171
},
{
  "type": "node",
  "id": 3917880307,
  "lat": 37.9322629,
  "lon": 23.6457061
},
{
  "type": "node",
  "id": 3917880309,
  "lat": 37.9322752,
  "lon": 23.6459061
},
{
  "type": "node",
  "id": 3917880315,
  "lat": 37.9323024,
  "lon": 23.6458621
},
{
  "type": "node",
  "id": 3917880316,
  "lat": 37.9323111,
  "lon": 23.6456620
},
{
  "type": "node",
  "id": 3917880321,
  "lat": 37.9323341,
  "lon": 23.6458231
},
{
  "type": "node",
  "id": 3917880326,
  "lat": 37.9323696,
  "lon": 23.6457901
},
{
  "type": "node",
  "id": 3917880331,
  "lat": 37.9324085,
  "lon": 23.6457635
},
{
  "type": "node",
  "id": 3917880333,
  "lat": 37.9324194,
  "lon": 23.6456005
},
{
  "type": "node",
  "id": 3917880337,
  "lat": 37.9324498,
  "lon": 23.6457439
},
{
  "type": "node",
  "id": 3917880343,
  "lat": 37.9324928,
  "lon": 23.6457316
},
{
  "type": "node",
  "id": 3917880348,
  "lat": 37.9325367,
  "lon": 23.6455782
},
{
  "type": "node",
  "id": 3917880349,
  "lat": 37.9325368,
  "lon": 23.6457270
},
{
  "type": "node",
  "id": 3917880359,
  "lat": 37.9326242,
  "lon": 23.6457405
},
{
  "type": "node",
  "id": 3917880361,
  "lat": 37.9326544,
  "lon": 23.6455969
},
{
  "type": "node",
  "id": 3917880368,
  "lat": 37.9327054,
  "lon": 23.6457836
},
{
  "type": "node",
  "id": 3917880369,
  "lat": 37.9327106,
  "lon": 23.6456212
},
{
  "type": "node",
  "id": 3917880379,
  "lat": 37.9327744,
  "lon": 23.6458530
},
{
  "type": "node",
  "id": 3917880383,
  "lat": 37.9328128,
  "lon": 23.6456977
},
{
  "type": "node",
  "id": 3917880386,
  "lat": 37.9328260,
  "lon": 23.6459434
},
{
  "type": "node",
  "id": 3917880388,
  "lat": 37.9329265,
  "lon": 23.6458700
},
{
  "type": "node",
  "id": 1839089309,
  "lat": 37.9344923,
  "lon": 23.6842568
},
{
  "type": "node",
  "id": 1839089320,
  "lat": 37.9344044,
  "lon": 23.6842033
},
{
  "type": "node",
  "id": 1839089324,
  "lat": 37.9345610,
  "lon": 23.6839485
},
{
  "type": "node",
  "id": 1839089325,
  "lat": 37.9345939,
  "lon": 23.6839242
},
{
  "type": "node",
  "id": 1839089327,
  "lat": 37.9342352,
  "lon": 23.6845359
},
{
  "type": "node",
  "id": 1839089328,
  "lat": 37.9343497,
  "lon": 23.6846129
},
{
  "type": "node",
  "id": 1839089330,
  "lat": 37.9345875,
  "lon": 23.6839752
},
{
  "type": "node",
  "id": 1839089322,
  "lat": 37.9341082,
  "lon": 23.6850643
},
{
  "type": "node",
  "id": 1839089323,
  "lat": 37.9341421,
  "lon": 23.6850563
},
{
  "type": "node",
  "id": 1839089326,
  "lat": 37.9340596,
  "lon": 23.6850053
},
{
  "type": "node",
  "id": 1839089329,
  "lat": 37.9340680,
  "lon": 23.6850375
},
{
  "type": "node",
  "id": 5793612199,
  "lat": 37.9297761,
  "lon": 23.6873470
},
{
  "type": "node",
  "id": 5793612201,
  "lat": 37.9297654,
  "lon": 23.6873395
},
{
  "type": "node",
  "id": 5793612202,
  "lat": 37.9297887,
  "lon": 23.6873871
},
{
  "type": "node",
  "id": 5793612206,
  "lat": 37.9298542,
  "lon": 23.6874022
},
{
  "type": "node",
  "id": 5793612210,
  "lat": 37.9298649,
  "lon": 23.6874097
},
{
  "type": "node",
  "id": 5793612212,
  "lat": 37.9297389,
  "lon": 23.6873416
},
{
  "type": "node",
  "id": 5793612214,
  "lat": 37.9297264,
  "lon": 23.6873550
},
{
  "type": "node",
  "id": 5793612215,
  "lat": 37.9298747,
  "lon": 23.6874595
},
{
  "type": "node",
  "id": 5793612217,
  "lat": 37.9296674,
  "lon": 23.6874919
},
{
  "type": "node",
  "id": 5793612218,
  "lat": 37.9298163,
  "lon": 23.6875950
},
{
  "type": "node",
  "id": 5793612220,
  "lat": 37.9297840,
  "lon": 23.6873586
},
{
  "type": "node",
  "id": 5793612225,
  "lat": 37.9297511,
  "lon": 23.6873374
},
{
  "type": "node",
  "id": 5793612227,
  "lat": 37.9298774,
  "lon": 23.6874511
},
{
  "type": "node",
  "id": 5793612228,
  "lat": 37.9298282,
  "lon": 23.6874042
},
{
  "type": "node",
  "id": 5793612231,
  "lat": 37.9298728,
  "lon": 23.6874213
},
{
  "type": "node",
  "id": 5793612232,
  "lat": 37.9297883,
  "lon": 23.6873728
},
{
  "type": "node",
  "id": 5793612233,
  "lat": 37.9298205,
  "lon": 23.6874091
},
{
  "type": "node",
  "id": 5793612234,
  "lat": 37.9298772,
  "lon": 23.6874355
},
{
  "type": "node",
  "id": 5793612235,
  "lat": 37.9298400,
  "lon": 23.6874000
},
{
  "type": "node",
  "id": 5793615404,
  "lat": 37.9298053,
  "lon": 23.6873986
},
{
  "type": "node",
  "id": 477909888,
  "lat": 37.9399379,
  "lon": 23.6962199
},
{
  "type": "node",
  "id": 477909903,
  "lat": 37.9401912,
  "lon": 23.6969996
},
{
  "type": "node",
  "id": 822825899,
  "lat": 37.9401621,
  "lon": 23.6966904
},
{
  "type": "node",
  "id": 822825985,
  "lat": 37.9403012,
  "lon": 23.6968619
},
{
  "type": "node",
  "id": 822826132,
  "lat": 37.9402406,
  "lon": 23.6966000
},
{
  "type": "node",
  "id": 822826333,
  "lat": 37.9401497,
  "lon": 23.6959639
},
{
  "type": "node",
  "id": 3003479504,
  "lat": 37.9404971,
  "lon": 23.6964175
},
{
  "type": "node",
  "id": 3003479505,
  "lat": 37.9402919,
  "lon": 23.6966676
},
{
  "type": "node",
  "id": 3003479509,
  "lat": 37.9404055,
  "lon": 23.6962967
},
{
  "type": "node",
  "id": 3003479510,
  "lat": 37.9398668,
  "lon": 23.6961244
},
{
  "type": "node",
  "id": 3003479512,
  "lat": 37.9398603,
  "lon": 23.6965731
},
{
  "type": "node",
  "id": 3003479513,
  "lat": 37.9396867,
  "lon": 23.6963463
},
{
  "type": "node",
  "id": 3736375187,
  "lat": 37.9399297,
  "lon": 23.6966638
},
{
  "type": "node",
  "id": 3736375188,
  "lat": 37.9403055,
  "lon": 23.6961701
},
{
  "type": "node",
  "id": 4484599406,
  "lat": 37.9401886,
  "lon": 23.6961694
},
{
  "type": "node",
  "id": 4484599407,
  "lat": 37.9401467,
  "lon": 23.6961104
},
{
  "type": "node",
  "id": 4484599408,
  "lat": 37.9400453,
  "lon": 23.6962262
},
{
  "type": "node",
  "id": 4484599409,
  "lat": 37.9400564,
  "lon": 23.6962418
},
{
  "type": "node",
  "id": 4484599410,
  "lat": 37.9400487,
  "lon": 23.6962506
},
{
  "type": "node",
  "id": 4484599411,
  "lat": 37.9400607,
  "lon": 23.6962675
},
{
  "type": "node",
  "id": 4484599412,
  "lat": 37.9400535,
  "lon": 23.6962758
},
{
  "type": "node",
  "id": 4484599413,
  "lat": 37.9400723,
  "lon": 23.6963023
},
{
  "type": "node",
  "id": 3677953151,
  "lat": 37.9626291,
  "lon": 23.6909568
},
{
  "type": "node",
  "id": 3677953152,
  "lat": 37.9626433,
  "lon": 23.6909696
},
{
  "type": "node",
  "id": 3677953153,
  "lat": 37.9627018,
  "lon": 23.6908691
},
{
  "type": "node",
  "id": 3677953154,
  "lat": 37.9626256,
  "lon": 23.6908724
},
{
  "type": "node",
  "id": 3677953155,
  "lat": 37.9626601,
  "lon": 23.6909755
},
{
  "type": "node",
  "id": 3677953156,
  "lat": 37.9627119,
  "lon": 23.6909341
},
{
  "type": "node",
  "id": 3677953157,
  "lat": 37.9626734,
  "lon": 23.6909749
},
{
  "type": "node",
  "id": 3677953158,
  "lat": 37.9626147,
  "lon": 23.6909137
},
{
  "type": "node",
  "id": 3677953159,
  "lat": 37.9626387,
  "lon": 23.6908578
},
{
  "type": "node",
  "id": 3677953160,
  "lat": 37.9626713,
  "lon": 23.6908490
},
{
  "type": "node",
  "id": 3677953161,
  "lat": 37.9626173,
  "lon": 23.6908918
},
{
  "type": "node",
  "id": 3677953162,
  "lat": 37.9627031,
  "lon": 23.6909532
},
{
  "type": "node",
  "id": 3677953163,
  "lat": 37.9627120,
  "lon": 23.6908906
},
{
  "type": "node",
  "id": 3677953164,
  "lat": 37.9626539,
  "lon": 23.6908500
},
{
  "type": "node",
  "id": 3677953165,
  "lat": 37.9627150,
  "lon": 23.6909124
},
{
  "type": "node",
  "id": 3677953166,
  "lat": 37.9626898,
  "lon": 23.6909674
},
{
  "type": "node",
  "id": 3677953167,
  "lat": 37.9626879,
  "lon": 23.6908557
},
{
  "type": "node",
  "id": 3836217373,
  "lat": 37.9626181,
  "lon": 23.6909354
},
{
  "type": "node",
  "id": 3068422584,
  "lat": 37.9455742,
  "lon": 23.7000121
},
{
  "type": "node",
  "id": 3068422585,
  "lat": 37.9453930,
  "lon": 23.6998914
},
{
  "type": "node",
  "id": 4584988657,
  "lat": 37.9454245,
  "lon": 23.6999294
},
{
  "type": "node",
  "id": 4584988658,
  "lat": 37.9454413,
  "lon": 23.6999070
},
{
  "type": "node",
  "id": 4584988659,
  "lat": 37.9455020,
  "lon": 23.6999803
},
{
  "type": "node",
  "id": 4584988660,
  "lat": 37.9455238,
  "lon": 23.6999512
},
{
  "type": "node",
  "id": 4584988661,
  "lat": 37.9454276,
  "lon": 23.7000707
},
{
  "type": "node",
  "id": 4584988662,
  "lat": 37.9453388,
  "lon": 23.6999636
},
{
  "type": "node",
  "id": 4584988663,
  "lat": 37.9454169,
  "lon": 23.7000848
},
{
  "type": "node",
  "id": 4584988664,
  "lat": 37.9454707,
  "lon": 23.7001498
},
{
  "type": "node",
  "id": 4692716146,
  "lat": 37.9425513,
  "lon": 23.7143047
},
{
  "type": "node",
  "id": 4692716174,
  "lat": 37.9426942,
  "lon": 23.7140948
},
{
  "type": "node",
  "id": 4692716175,
  "lat": 37.9426423,
  "lon": 23.7143586
},
{
  "type": "node",
  "id": 4692716176,
  "lat": 37.9425467,
  "lon": 23.7143283
},
{
  "type": "node",
  "id": 4692716177,
  "lat": 37.9425987,
  "lon": 23.7140646
},
{
  "type": "node",
  "id": 1927169535,
  "lat": 37.9740798,
  "lon": 23.7081822
},
{
  "type": "node",
  "id": 1927169539,
  "lat": 37.9742601,
  "lon": 23.7079750
},
{
  "type": "node",
  "id": 1927169544,
  "lat": 37.9744692,
  "lon": 23.7084772
},
{
  "type": "node",
  "id": 1927169548,
  "lat": 37.9744381,
  "lon": 23.7077706
},
{
  "type": "node",
  "id": 1927169552,
  "lat": 37.9746356,
  "lon": 23.7082862
},
{
  "type": "node",
  "id": 1927169553,
  "lat": 37.9745068,
  "lon": 23.7087804
},
{
  "type": "node",
  "id": 2268136118,
  "lat": 37.9743134,
  "lon": 23.7082589
},
{
  "type": "node",
  "id": 2268136119,
  "lat": 37.9744798,
  "lon": 23.7080679
},
{
  "type": "node",
  "id": 2269326097,
  "lat": 37.9746515,
  "lon": 23.7080696
},
{
  "type": "node",
  "id": 2269326098,
  "lat": 37.9746883,
  "lon": 23.7085719
},
{
  "type": "node",
  "id": 839087023,
  "lat": 37.9682791,
  "lon": 23.7278746
},
{
  "type": "node",
  "id": 839087051,
  "lat": 37.9681142,
  "lon": 23.7291160
},
{
  "type": "node",
  "id": 2047151127,
  "lat": 37.9682089,
  "lon": 23.7284033
},
{
  "type": "node",
  "id": 2491577793,
  "lat": 37.9626329,
  "lon": 23.7250564
},
{
  "type": "node",
  "id": 2491577794,
  "lat": 37.9628050,
  "lon": 23.7252754
},
{
  "type": "node",
  "id": 2491577795,
  "lat": 37.9628551,
  "lon": 23.7247755
},
{
  "type": "node",
  "id": 2491577796,
  "lat": 37.9632359,
  "lon": 23.7258227
},
{
  "type": "node",
  "id": 2491577797,
  "lat": 37.9634495,
  "lon": 23.7255357
},
{
  "type": "node",
  "id": 3253498199,
  "lat": 37.9681185,
  "lon": 23.7290836
},
{
  "type": "node",
  "id": 4856384631,
  "lat": 37.9627612,
  "lon": 23.7252195
},
{
  "type": "node",
  "id": 4856384632,
  "lat": 37.9631774,
  "lon": 23.7251877
},
{
  "type": "node",
  "id": 361384305,
  "lat": 37.9712621,
  "lon": 23.7274934
},
{
  "type": "node",
  "id": 361384307,
  "lat": 37.9713714,
  "lon": 23.7281202
},
{
  "type": "node",
  "id": 361384309,
  "lat": 37.9715409,
  "lon": 23.7280524
},
{
  "type": "node",
  "id": 361384312,
  "lat": 37.9714390,
  "lon": 23.7274489
},
{
  "type": "node",
  "id": 839086960,
  "lat": 37.9687253,
  "lon": 23.7280302
},
{
  "type": "node",
  "id": 839087044,
  "lat": 37.9687262,
  "lon": 23.7280505
},
{
  "type": "node",
  "id": 839087061,
  "lat": 37.9687905,
  "lon": 23.7289253
},
{
  "type": "node",
  "id": 839087078,
  "lat": 37.9687310,
  "lon": 23.7284046
},
{
  "type": "node",
  "id": 953082558,
  "lat": 37.9714984,
  "lon": 23.7277288
},
{
  "type": "node",
  "id": 953082567,
  "lat": 37.9714648,
  "lon": 23.7275132
},
{
  "type": "node",
  "id": 953082575,
  "lat": 37.9714496,
  "lon": 23.7275170
},
{
  "type": "node",
  "id": 953082593,
  "lat": 37.9712865,
  "lon": 23.7275764
},
{
  "type": "node",
  "id": 953082598,
  "lat": 37.9712755,
  "lon": 23.7275791
},
{
  "type": "node",
  "id": 953082603,
  "lat": 37.9714726,
  "lon": 23.7280948
},
{
  "type": "node",
  "id": 953082611,
  "lat": 37.9714688,
  "lon": 23.7280705
},
{
  "type": "node",
  "id": 953082619,
  "lat": 37.9714906,
  "lon": 23.7277307
},
{
  "type": "node",
  "id": 2039048151,
  "lat": 37.9740677,
  "lon": 23.7299852
},
{
  "type": "node",
  "id": 2039048154,
  "lat": 37.9740687,
  "lon": 23.7300979
},
{
  "type": "node",
  "id": 2039048192,
  "lat": 37.9741927,
  "lon": 23.7299782
},
{
  "type": "node",
  "id": 2039048199,
  "lat": 37.9742112,
  "lon": 23.7300956
},
{
  "type": "node",
  "id": 2043095068,
  "lat": 37.9713471,
  "lon": 23.7279645
},
{
  "type": "node",
  "id": 2043095087,
  "lat": 37.9713813,
  "lon": 23.7281177
},
{
  "type": "node",
  "id": 2043095117,
  "lat": 37.9714610,
  "lon": 23.7280977
},
{
  "type": "node",
  "id": 2057798923,
  "lat": 37.9692070,
  "lon": 23.7292400
},
{
  "type": "node",
  "id": 2057798924,
  "lat": 37.9692139,
  "lon": 23.7293210
},
{
  "type": "node",
  "id": 2057798927,
  "lat": 37.9692205,
  "lon": 23.7294113
},
{
  "type": "node",
  "id": 2057798928,
  "lat": 37.9692226,
  "lon": 23.7292378
},
{
  "type": "node",
  "id": 2057798931,
  "lat": 37.9692273,
  "lon": 23.7294916
},
{
  "type": "node",
  "id": 2057798933,
  "lat": 37.9692391,
  "lon": 23.7293175
},
{
  "type": "node",
  "id": 2057798935,
  "lat": 37.9692469,
  "lon": 23.7294077
},
{
  "type": "node",
  "id": 2057798938,
  "lat": 37.9692756,
  "lon": 23.7292305
},
{
  "type": "node",
  "id": 2057798939,
  "lat": 37.9692989,
  "lon": 23.7292273
},
{
  "type": "node",
  "id": 2057798941,
  "lat": 37.9693204,
  "lon": 23.7294788
},
{
  "type": "node",
  "id": 2182162455,
  "lat": 37.9730641,
  "lon": 23.7268891
},
{
  "type": "node",
  "id": 2182162458,
  "lat": 37.9730580,
  "lon": 23.7270575
},
{
  "type": "node",
  "id": 2182162475,
  "lat": 37.9731270,
  "lon": 23.7268928
},
{
  "type": "node",
  "id": 2182162480,
  "lat": 37.9731315,
  "lon": 23.7267684
},
{
  "type": "node",
  "id": 2182162488,
  "lat": 37.9731616,
  "lon": 23.7267702
},
{
  "type": "node",
  "id": 2182162492,
  "lat": 37.9731609,
  "lon": 23.7267881
},
{
  "type": "node",
  "id": 2182162506,
  "lat": 37.9732313,
  "lon": 23.7270676
},
{
  "type": "node",
  "id": 2182162514,
  "lat": 37.9732413,
  "lon": 23.7267928
},
{
  "type": "node",
  "id": 2185977213,
  "lat": 37.9728437,
  "lon": 23.7258770
},
{
  "type": "node",
  "id": 2185977218,
  "lat": 37.9728558,
  "lon": 23.7259560
},
{
  "type": "node",
  "id": 2185977222,
  "lat": 37.9728693,
  "lon": 23.7261003
},
{
  "type": "node",
  "id": 2185977225,
  "lat": 37.9728806,
  "lon": 23.7262052
},
{
  "type": "node",
  "id": 2185977230,
  "lat": 37.9728908,
  "lon": 23.7259965
},
{
  "type": "node",
  "id": 2185977233,
  "lat": 37.9728969,
  "lon": 23.7259493
},
{
  "type": "node",
  "id": 2185977237,
  "lat": 37.9729007,
  "lon": 23.7259955
},
{
  "type": "node",
  "id": 2185977240,
  "lat": 37.9729015,
  "lon": 23.7260967
},
{
  "type": "node",
  "id": 2185977242,
  "lat": 37.9729209,
  "lon": 23.7263272
},
{
  "type": "node",
  "id": 2185977255,
  "lat": 37.9729705,
  "lon": 23.7260138
},
{
  "type": "node",
  "id": 2185977270,
  "lat": 37.9729829,
  "lon": 23.7260877
},
{
  "type": "node",
  "id": 2185977275,
  "lat": 37.9729918,
  "lon": 23.7260090
},
{
  "type": "node",
  "id": 2185977296,
  "lat": 37.9730237,
  "lon": 23.7258664
},
{
  "type": "node",
  "id": 2185977303,
  "lat": 37.9730359,
  "lon": 23.7260061
},
{
  "type": "node",
  "id": 2185977304,
  "lat": 37.9730417,
  "lon": 23.7260812
},
{
  "type": "node",
  "id": 2185977309,
  "lat": 37.9730509,
  "lon": 23.7262911
},
{
  "type": "node",
  "id": 2319656527,
  "lat": 37.9738432,
  "lon": 23.7278703
},
{
  "type": "node",
  "id": 2319656529,
  "lat": 37.9738569,
  "lon": 23.7278291
},
{
  "type": "node",
  "id": 2319656533,
  "lat": 37.9738754,
  "lon": 23.7277529
},
{
  "type": "node",
  "id": 2319656535,
  "lat": 37.9738859,
  "lon": 23.7277596
},
{
  "type": "node",
  "id": 2319656536,
  "lat": 37.9738958,
  "lon": 23.7276860
},
{
  "type": "node",
  "id": 2319656539,
  "lat": 37.9739016,
  "lon": 23.7276891
},
{
  "type": "node",
  "id": 2319656540,
  "lat": 37.9739031,
  "lon": 23.7279002
},
{
  "type": "node",
  "id": 2319656541,
  "lat": 37.9739067,
  "lon": 23.7276730
},
{
  "type": "node",
  "id": 2319656543,
  "lat": 37.9739281,
  "lon": 23.7276860
},
{
  "type": "node",
  "id": 2319656545,
  "lat": 37.9739532,
  "lon": 23.7276190
},
{
  "type": "node",
  "id": 2319656546,
  "lat": 37.9739842,
  "lon": 23.7276341
},
{
  "type": "node",
  "id": 2321031691,
  "lat": 37.9743899,
  "lon": 23.7275795
},
{
  "type": "node",
  "id": 2321031696,
  "lat": 37.9744300,
  "lon": 23.7274530
},
{
  "type": "node",
  "id": 2321031713,
  "lat": 37.9745264,
  "lon": 23.7276492
},
{
  "type": "node",
  "id": 2321031714,
  "lat": 37.9745375,
  "lon": 23.7276144
},
{
  "type": "node",
  "id": 2321031721,
  "lat": 37.9745665,
  "lon": 23.7275227
},
{
  "type": "node",
  "id": 2321050480,
  "lat": 37.9740435,
  "lon": 23.7291519
},
{
  "type": "node",
  "id": 2321050492,
  "lat": 37.9740997,
  "lon": 23.7292148
},
{
  "type": "node",
  "id": 2321050496,
  "lat": 37.9741132,
  "lon": 23.7291945
},
{
  "type": "node",
  "id": 2321050515,
  "lat": 37.9741487,
  "lon": 23.7289148
},
{
  "type": "node",
  "id": 2321050517,
  "lat": 37.9741552,
  "lon": 23.7291423
},
{
  "type": "node",
  "id": 2321050525,
  "lat": 37.9741804,
  "lon": 23.7292851
},
{
  "type": "node",
  "id": 2321050527,
  "lat": 37.9741904,
  "lon": 23.7289410
},
{
  "type": "node",
  "id": 2321050532,
  "lat": 37.9741997,
  "lon": 23.7290422
},
{
  "type": "node",
  "id": 2321050535,
  "lat": 37.9742156,
  "lon": 23.7290539
},
{
  "type": "node",
  "id": 2321050541,
  "lat": 37.9742308,
  "lon": 23.7292137
},
{
  "type": "node",
  "id": 2321050545,
  "lat": 37.9742452,
  "lon": 23.7289757
},
{
  "type": "node",
  "id": 2727876877,
  "lat": 37.9694396,
  "lon": 23.7266944
},
{
  "type": "node",
  "id": 2727876878,
  "lat": 37.9694481,
  "lon": 23.7266941
},
{
  "type": "node",
  "id": 2727876879,
  "lat": 37.9694538,
  "lon": 23.7266723
},
{
  "type": "node",
  "id": 2727876888,
  "lat": 37.9694242,
  "lon": 23.7266693
},
{
  "type": "node",
  "id": 2727942515,
  "lat": 37.9692731,
  "lon": 23.7265729
},
{
  "type": "node",
  "id": 2727942516,
  "lat": 37.9691943,
  "lon": 23.7265601
},
{
  "type": "node",
  "id": 2729876907,
  "lat": 37.9691861,
  "lon": 23.7267289
},
{
  "type": "node",
  "id": 2729876909,
  "lat": 37.9693246,
  "lon": 23.7267581
},
{
  "type": "node",
  "id": 2729876911,
  "lat": 37.9693238,
  "lon": 23.7267503
},
{
  "type": "node",
  "id": 2729876912,
  "lat": 37.9693841,
  "lon": 23.7267638
},
{
  "type": "node",
  "id": 2729876915,
  "lat": 37.9694305,
  "lon": 23.7267718
},
{
  "type": "node",
  "id": 2729876917,
  "lat": 37.9693986,
  "lon": 23.7266666
},
{
  "type": "node",
  "id": 2729876918,
  "lat": 37.9693986,
  "lon": 23.7266151
},
{
  "type": "node",
  "id": 2729876920,
  "lat": 37.9693985,
  "lon": 23.7265810
},
{
  "type": "node",
  "id": 2729876922,
  "lat": 37.9693478,
  "lon": 23.7265833
},
{
  "type": "node",
  "id": 2729876924,
  "lat": 37.9693443,
  "lon": 23.7266153
},
{
  "type": "node",
  "id": 2729876925,
  "lat": 37.9692700,
  "lon": 23.7266133
},
{
  "type": "node",
  "id": 3253498205,
  "lat": 37.9684081,
  "lon": 23.7290331
},
{
  "type": "node",
  "id": 3253498209,
  "lat": 37.9689697,
  "lon": 23.7281223
},
{
  "type": "node",
  "id": 3253498210,
  "lat": 37.9689742,
  "lon": 23.7282097
},
{
  "type": "node",
  "id": 3253498211,
  "lat": 37.9689791,
  "lon": 23.7283053
},
{
  "type": "node",
  "id": 1877389854,
  "lat": 37.9719784,
  "lon": 23.7325589
},
{
  "type": "node",
  "id": 1877389860,
  "lat": 37.9720018,
  "lon": 23.7326047
},
{
  "type": "node",
  "id": 1877389863,
  "lat": 37.9720181,
  "lon": 23.7325867
},
{
  "type": "node",
  "id": 1877389866,
  "lat": 37.9720363,
  "lon": 23.7326108
},
{
  "type": "node",
  "id": 1877389870,
  "lat": 37.9720367,
  "lon": 23.7326405
},
{
  "type": "node",
  "id": 1877389873,
  "lat": 37.9720542,
  "lon": 23.7326636
},
{
  "type": "node",
  "id": 1877389876,
  "lat": 37.9720649,
  "lon": 23.7324732
},
{
  "type": "node",
  "id": 1877389878,
  "lat": 37.9720705,
  "lon": 23.7324808
},
{
  "type": "node",
  "id": 1877389881,
  "lat": 37.9720847,
  "lon": 23.7324608
},
{
  "type": "node",
  "id": 1877389883,
  "lat": 37.9720984,
  "lon": 23.7326456
},
{
  "type": "node",
  "id": 1877389885,
  "lat": 37.9721032,
  "lon": 23.7326056
},
{
  "type": "node",
  "id": 1877389887,
  "lat": 37.9721136,
  "lon": 23.7324608
},
{
  "type": "node",
  "id": 1877389890,
  "lat": 37.9721298,
  "lon": 23.7324815
},
{
  "type": "node",
  "id": 1877389893,
  "lat": 37.9721309,
  "lon": 23.7325088
},
{
  "type": "node",
  "id": 1877389896,
  "lat": 37.9721372,
  "lon": 23.7325088
},
{
  "type": "node",
  "id": 1877389897,
  "lat": 37.9721485,
  "lon": 23.7325962
},
{
  "type": "node",
  "id": 1877389921,
  "lat": 37.9722205,
  "lon": 23.7322872
},
{
  "type": "node",
  "id": 1877389926,
  "lat": 37.9722528,
  "lon": 23.7323508
},
{
  "type": "node",
  "id": 1877389930,
  "lat": 37.9722925,
  "lon": 23.7321959
},
{
  "type": "node",
  "id": 1877389934,
  "lat": 37.9723321,
  "lon": 23.7322696
},
{
  "type": "node",
  "id": 2039122906,
  "lat": 37.9712658,
  "lon": 23.7327784
},
{
  "type": "node",
  "id": 2039122909,
  "lat": 37.9713192,
  "lon": 23.7328253
},
{
  "type": "node",
  "id": 2039122910,
  "lat": 37.9713315,
  "lon": 23.7328028
},
{
  "type": "node",
  "id": 2039122911,
  "lat": 37.9713480,
  "lon": 23.7326280
},
{
  "type": "node",
  "id": 2039122912,
  "lat": 37.9713579,
  "lon": 23.7328260
},
{
  "type": "node",
  "id": 2039122914,
  "lat": 37.9713765,
  "lon": 23.7327919
},
{
  "type": "node",
  "id": 2039122917,
  "lat": 37.9714066,
  "lon": 23.7326167
},
{
  "type": "node",
  "id": 2039122918,
  "lat": 37.9714128,
  "lon": 23.7326612
},
{
  "type": "node",
  "id": 2039122921,
  "lat": 37.9714440,
  "lon": 23.7326812
},
{
  "type": "node",
  "id": 2039122922,
  "lat": 37.9714445,
  "lon": 23.7328517
},
{
  "type": "node",
  "id": 2039122925,
  "lat": 37.9714950,
  "lon": 23.7328266
},
{
  "type": "node",
  "id": 2039122926,
  "lat": 37.9714958,
  "lon": 23.7327580
},
{
  "type": "node",
  "id": 2039122928,
  "lat": 37.9715305,
  "lon": 23.7328886
},
{
  "type": "node",
  "id": 2039122931,
  "lat": 37.9716635,
  "lon": 23.7325583
},
{
  "type": "node",
  "id": 2039122932,
  "lat": 37.9716711,
  "lon": 23.7326295
},
{
  "type": "node",
  "id": 2039122933,
  "lat": 37.9717059,
  "lon": 23.7326035
},
{
  "type": "node",
  "id": 2039122935,
  "lat": 37.9717161,
  "lon": 23.7326230
},
{
  "type": "node",
  "id": 2039122938,
  "lat": 37.9717516,
  "lon": 23.7326850
},
{
  "type": "node",
  "id": 2039122939,
  "lat": 37.9717686,
  "lon": 23.7325361
},
{
  "type": "node",
  "id": 2039122941,
  "lat": 37.9717845,
  "lon": 23.7326520
},
{
  "type": "node",
  "id": 2039331717,
  "lat": 37.9725388,
  "lon": 23.7309552
},
{
  "type": "node",
  "id": 2039331720,
  "lat": 37.9725553,
  "lon": 23.7311053
},
{
  "type": "node",
  "id": 2039331726,
  "lat": 37.9726190,
  "lon": 23.7310590
},
{
  "type": "node",
  "id": 2039331727,
  "lat": 37.9726228,
  "lon": 23.7310933
},
{
  "type": "node",
  "id": 2039331743,
  "lat": 37.9726687,
  "lon": 23.7310502
},
{
  "type": "node",
  "id": 2039331745,
  "lat": 37.9726709,
  "lon": 23.7310699
},
{
  "type": "node",
  "id": 2039331752,
  "lat": 37.9726844,
  "lon": 23.7309293
},
{
  "type": "node",
  "id": 2039331757,
  "lat": 37.9726994,
  "lon": 23.7310649
},
{
  "type": "node",
  "id": 2046110986,
  "lat": 37.9729501,
  "lon": 23.7324736
},
{
  "type": "node",
  "id": 2046111005,
  "lat": 37.9729910,
  "lon": 23.7325824
},
{
  "type": "node",
  "id": 2046111013,
  "lat": 37.9730137,
  "lon": 23.7325670
},
{
  "type": "node",
  "id": 2046111022,
  "lat": 37.9730384,
  "lon": 23.7324054
},
{
  "type": "node",
  "id": 2046111029,
  "lat": 37.9730609,
  "lon": 23.7326839
},
{
  "type": "node",
  "id": 2046111036,
  "lat": 37.9730796,
  "lon": 23.7325328
},
{
  "type": "node",
  "id": 2046111040,
  "lat": 37.9730841,
  "lon": 23.7326697
},
{
  "type": "node",
  "id": 2046111044,
  "lat": 37.9730931,
  "lon": 23.7326858
},
{
  "type": "node",
  "id": 2046111049,
  "lat": 37.9731044,
  "lon": 23.7326174
},
{
  "type": "node",
  "id": 2046111056,
  "lat": 37.9731336,
  "lon": 23.7326003
},
{
  "type": "node",
  "id": 2046111066,
  "lat": 37.9731516,
  "lon": 23.7326516
},
{
  "type": "node",
  "id": 2056474987,
  "lat": 37.9728458,
  "lon": 23.7331245
},
{
  "type": "node",
  "id": 2056474988,
  "lat": 37.9728508,
  "lon": 23.7331458
},
{
  "type": "node",
  "id": 2056474990,
  "lat": 37.9728902,
  "lon": 23.7332966
},
{
  "type": "node",
  "id": 2056474991,
  "lat": 37.9729543,
  "lon": 23.7330948
},
{
  "type": "node",
  "id": 2056474992,
  "lat": 37.9729955,
  "lon": 23.7332706
},
{
  "type": "node",
  "id": 2056818682,
  "lat": 37.9723369,
  "lon": 23.7323943
},
{
  "type": "node",
  "id": 2056818690,
  "lat": 37.9723674,
  "lon": 23.7323763
},
{
  "type": "node",
  "id": 2056818696,
  "lat": 37.9723786,
  "lon": 23.7325072
},
{
  "type": "node",
  "id": 2056818704,
  "lat": 37.9724230,
  "lon": 23.7324845
},
{
  "type": "node",
  "id": 2056818721,
  "lat": 37.9725041,
  "lon": 23.7322954
},
{
  "type": "node",
  "id": 2056818727,
  "lat": 37.9725467,
  "lon": 23.7324112
},
{
  "type": "node",
  "id": 2714719509,
  "lat": 37.9714404,
  "lon": 23.7329296
},
{
  "type": "node",
  "id": 2714719511,
  "lat": 37.9714869,
  "lon": 23.7328527
},
{
  "type": "node",
  "id": 2714719512,
  "lat": 37.9714812,
  "lon": 23.7329830
},
{
  "type": "node",
  "id": 2714719513,
  "lat": 37.9715329,
  "lon": 23.7328974
},
{
  "type": "node",
  "id": 2313444047,
  "lat": 37.9739660,
  "lon": 23.7389110
},
{
  "type": "node",
  "id": 2313444048,
  "lat": 37.9739851,
  "lon": 23.7389677
},
{
  "type": "node",
  "id": 2313444049,
  "lat": 37.9740483,
  "lon": 23.7388666
},
{
  "type": "node",
  "id": 2313444050,
  "lat": 37.9740673,
  "lon": 23.7389233
},
{
  "type": "node",
  "id": 3367953609,
  "lat": 37.9699342,
  "lon": 23.7410029
},
{
  "type": "node",
  "id": 3744860873,
  "lat": 37.9698022,
  "lon": 23.7408393
},
{
  "type": "node",
  "id": 4727213275,
  "lat": 37.9696529,
  "lon": 23.7409682
},
{
  "type": "node",
  "id": 4727216091,
  "lat": 37.9697788,
  "lon": 23.7411920
},
{
  "type": "node",
  "id": 3249863829,
  "lat": 37.9745414,
  "lon": 23.7442600
},
{
  "type": "node",
  "id": 3249863830,
  "lat": 37.9746966,
  "lon": 23.7452929
},
{
  "type": "node",
  "id": 2356859297,
  "lat": 37.9653474,
  "lon": 23.7590375
},
{
  "type": "node",
  "id": 2356859317,
  "lat": 37.9653954,
  "lon": 23.7589583
},
{
  "type": "node",
  "id": 2356859353,
  "lat": 37.9656422,
  "lon": 23.7593248
},
{
  "type": "node",
  "id": 2356859361,
  "lat": 37.9656902,
  "lon": 23.7592456
},
{
  "type": "node",
  "id": 3268306438,
  "lat": 37.9525952,
  "lon": 23.8475483
},
{
  "type": "node",
  "id": 3268306439,
  "lat": 37.9526253,
  "lon": 23.8474862
},
{
  "type": "node",
  "id": 3268306440,
  "lat": 37.9527277,
  "lon": 23.8475659
},
{
  "type": "node",
  "id": 3268306441,
  "lat": 37.9526977,
  "lon": 23.8476280
},
{
  "type": "node",
  "id": 3268306442,
  "lat": 37.9526379,
  "lon": 23.8477141
},
{
  "type": "node",
  "id": 3268306443,
  "lat": 37.9526849,
  "lon": 23.8476185
},
{
  "type": "node",
  "id": 3268306444,
  "lat": 37.9527276,
  "lon": 23.8476522
},
{
  "type": "node",
  "id": 3268306445,
  "lat": 37.9526806,
  "lon": 23.8477478
},
{
  "type": "node",
  "id": 1629855732,
  "lat": 38.0405775,
  "lon": 23.5377606
},
{
  "type": "node",
  "id": 1629855737,
  "lat": 38.0405847,
  "lon": 23.5376853
},
{
  "type": "node",
  "id": 1629855738,
  "lat": 38.0405863,
  "lon": 23.5377708
},
{
  "type": "node",
  "id": 1629855739,
  "lat": 38.0405790,
  "lon": 23.5378604
},
{
  "type": "node",
  "id": 1629855757,
  "lat": 38.0405911,
  "lon": 23.5375957
},
{
  "type": "node",
  "id": 1629855763,
  "lat": 38.0405927,
  "lon": 23.5376609
},
{
  "type": "node",
  "id": 1629855768,
  "lat": 38.0405951,
  "lon": 23.5376212
},
{
  "type": "node",
  "id": 1629855784,
  "lat": 38.0406110,
  "lon": 23.5373584
},
{
  "type": "node",
  "id": 1629855790,
  "lat": 38.0406713,
  "lon": 23.5378725
},
{
  "type": "node",
  "id": 1629855827,
  "lat": 38.0407120,
  "lon": 23.5373717
},
{
  "type": "node",
  "id": 2675552719,
  "lat": 38.0550249,
  "lon": 23.5870985
},
{
  "type": "node",
  "id": 2675552721,
  "lat": 38.0551454,
  "lon": 23.5870260
},
{
  "type": "node",
  "id": 2675552723,
  "lat": 38.0550801,
  "lon": 23.5871467
},
{
  "type": "node",
  "id": 2675552725,
  "lat": 38.0550902,
  "lon": 23.5869778
},
{
  "type": "node",
  "id": 1927169557,
  "lat": 37.9748651,
  "lon": 23.7083688
},
{
  "type": "node",
  "id": 2266148956,
  "lat": 37.9828880,
  "lon": 23.7020547
},
{
  "type": "node",
  "id": 2266148969,
  "lat": 37.9829606,
  "lon": 23.7020991
},
{
  "type": "node",
  "id": 2266148979,
  "lat": 37.9830138,
  "lon": 23.7016849
},
{
  "type": "node",
  "id": 2266148991,
  "lat": 37.9830503,
  "lon": 23.7018629
},
{
  "type": "node",
  "id": 2266149026,
  "lat": 37.9831757,
  "lon": 23.7017925
},
{
  "type": "node",
  "id": 2266149050,
  "lat": 37.9833138,
  "lon": 23.7023352
},
{
  "type": "node",
  "id": 2266149066,
  "lat": 37.9833938,
  "lon": 23.7023884
},
{
  "type": "node",
  "id": 2266149067,
  "lat": 37.9834101,
  "lon": 23.7021021
},
{
  "type": "node",
  "id": 2266149075,
  "lat": 37.9834620,
  "lon": 23.7019828
},
{
  "type": "node",
  "id": 2266149086,
  "lat": 37.9835399,
  "lon": 23.7020346
},
{
  "type": "node",
  "id": 2265493053,
  "lat": 37.9778707,
  "lon": 23.7167744
},
{
  "type": "node",
  "id": 2265493054,
  "lat": 37.9778846,
  "lon": 23.7170043
},
{
  "type": "node",
  "id": 2265493058,
  "lat": 37.9779117,
  "lon": 23.7167704
},
{
  "type": "node",
  "id": 2265493065,
  "lat": 37.9779349,
  "lon": 23.7166959
},
{
  "type": "node",
  "id": 2265493075,
  "lat": 37.9779875,
  "lon": 23.7165284
},
{
  "type": "node",
  "id": 2265493078,
  "lat": 37.9780172,
  "lon": 23.7169914
},
{
  "type": "node",
  "id": 2265493084,
  "lat": 37.9780426,
  "lon": 23.7169889
},
{
  "type": "node",
  "id": 2265493086,
  "lat": 37.9780548,
  "lon": 23.7167565
},
{
  "type": "node",
  "id": 2265493087,
  "lat": 37.9780687,
  "lon": 23.7169864
},
{
  "type": "node",
  "id": 2265493093,
  "lat": 37.9781074,
  "lon": 23.7165890
},
{
  "type": "node",
  "id": 3866687168,
  "lat": 37.9811823,
  "lon": 23.7126763
},
{
  "type": "node",
  "id": 3866687169,
  "lat": 37.9810195,
  "lon": 23.7129177
},
{
  "type": "node",
  "id": 4526574876,
  "lat": 37.9807976,
  "lon": 23.7124600
},
{
  "type": "node",
  "id": 4526574877,
  "lat": 37.9808293,
  "lon": 23.7124185
},
{
  "type": "node",
  "id": 4526587883,
  "lat": 37.9810810,
  "lon": 23.7128265
},
{
  "type": "node",
  "id": 4526587886,
  "lat": 37.9810885,
  "lon": 23.7128154
},
{
  "type": "node",
  "id": 4526587889,
  "lat": 37.9810168,
  "lon": 23.7125554
},
{
  "type": "node",
  "id": 1864364545,
  "lat": 37.9753565,
  "lon": 23.7187210
},
{
  "type": "node",
  "id": 1864364546,
  "lat": 37.9753894,
  "lon": 23.7185948
},
{
  "type": "node",
  "id": 2286175712,
  "lat": 37.9783892,
  "lon": 23.7202158
},
{
  "type": "node",
  "id": 2286175714,
  "lat": 37.9783961,
  "lon": 23.7201411
},
{
  "type": "node",
  "id": 2286175718,
  "lat": 37.9783667,
  "lon": 23.7201626
},
{
  "type": "node",
  "id": 2286175720,
  "lat": 37.9784372,
  "lon": 23.7203275
},
{
  "type": "node",
  "id": 2286175740,
  "lat": 37.9785055,
  "lon": 23.7200640
},
{
  "type": "node",
  "id": 2286175742,
  "lat": 37.9785136,
  "lon": 23.7202761
},
{
  "type": "node",
  "id": 2286175763,
  "lat": 37.9785607,
  "lon": 23.7200320
},
{
  "type": "node",
  "id": 2286175767,
  "lat": 37.9785722,
  "lon": 23.7200589
},
{
  "type": "node",
  "id": 2286175771,
  "lat": 37.9786043,
  "lon": 23.7200367
},
{
  "type": "node",
  "id": 2286175797,
  "lat": 37.9786628,
  "lon": 23.7201727
},
{
  "type": "node",
  "id": 2286226105,
  "lat": 37.9807182,
  "lon": 23.7213118
},
{
  "type": "node",
  "id": 2286226110,
  "lat": 37.9807438,
  "lon": 23.7212034
},
{
  "type": "node",
  "id": 2286226112,
  "lat": 37.9807562,
  "lon": 23.7214022
},
{
  "type": "node",
  "id": 2286226113,
  "lat": 37.9807601,
  "lon": 23.7212834
},
{
  "type": "node",
  "id": 2286226114,
  "lat": 37.9807652,
  "lon": 23.7212542
},
{
  "type": "node",
  "id": 2286226117,
  "lat": 37.9807811,
  "lon": 23.7212434
},
{
  "type": "node",
  "id": 2286226120,
  "lat": 37.9807895,
  "lon": 23.7212635
},
{
  "type": "node",
  "id": 2286226121,
  "lat": 37.9807925,
  "lon": 23.7214088
},
{
  "type": "node",
  "id": 2286226122,
  "lat": 37.9807936,
  "lon": 23.7213768
},
{
  "type": "node",
  "id": 2286226125,
  "lat": 37.9808000,
  "lon": 23.7211653
},
{
  "type": "node",
  "id": 2286226126,
  "lat": 37.9808039,
  "lon": 23.7214011
},
{
  "type": "node",
  "id": 2286226127,
  "lat": 37.9808046,
  "lon": 23.7215170
},
{
  "type": "node",
  "id": 2286226128,
  "lat": 37.9808048,
  "lon": 23.7212273
},
{
  "type": "node",
  "id": 2286226129,
  "lat": 37.9808062,
  "lon": 23.7214414
},
{
  "type": "node",
  "id": 2286226131,
  "lat": 37.9808133,
  "lon": 23.7212474
},
{
  "type": "node",
  "id": 2286226132,
  "lat": 37.9808203,
  "lon": 23.7214751
},
{
  "type": "node",
  "id": 2286226134,
  "lat": 37.9808214,
  "lon": 23.7212161
},
{
  "type": "node",
  "id": 2286226136,
  "lat": 37.9808317,
  "lon": 23.7214673
},
{
  "type": "node",
  "id": 2286226138,
  "lat": 37.9808420,
  "lon": 23.7214916
},
{
  "type": "node",
  "id": 2286226139,
  "lat": 37.9808426,
  "lon": 23.7216073
},
{
  "type": "node",
  "id": 2286226140,
  "lat": 37.9808848,
  "lon": 23.7211989
},
{
  "type": "node",
  "id": 2286226142,
  "lat": 37.9809031,
  "lon": 23.7213027
},
{
  "type": "node",
  "id": 2286226143,
  "lat": 37.9809044,
  "lon": 23.7215848
},
{
  "type": "node",
  "id": 2286226144,
  "lat": 37.9809138,
  "lon": 23.7215591
},
{
  "type": "node",
  "id": 2286226145,
  "lat": 37.9809202,
  "lon": 23.7215741
},
{
  "type": "node",
  "id": 2286226146,
  "lat": 37.9809229,
  "lon": 23.7212893
},
{
  "type": "node",
  "id": 2286226147,
  "lat": 37.9809257,
  "lon": 23.7216354
},
{
  "type": "node",
  "id": 2286226148,
  "lat": 37.9809376,
  "lon": 23.7215430
},
{
  "type": "node",
  "id": 2286226149,
  "lat": 37.9809440,
  "lon": 23.7215580
},
{
  "type": "node",
  "id": 2286226150,
  "lat": 37.9809514,
  "lon": 23.7214175
},
{
  "type": "node",
  "id": 2286226151,
  "lat": 37.9809606,
  "lon": 23.7215468
},
{
  "type": "node",
  "id": 2286226152,
  "lat": 37.9809712,
  "lon": 23.7214041
},
{
  "type": "node",
  "id": 2286226153,
  "lat": 37.9809818,
  "lon": 23.7215974
},
{
  "type": "node",
  "id": 2286226154,
  "lat": 37.9810092,
  "lon": 23.7214944
},
{
  "type": "node",
  "id": 2325565902,
  "lat": 37.9752253,
  "lon": 23.7186775
},
{
  "type": "node",
  "id": 2325565904,
  "lat": 37.9752419,
  "lon": 23.7186256
},
{
  "type": "node",
  "id": 2325565906,
  "lat": 37.9753029,
  "lon": 23.7187033
},
{
  "type": "node",
  "id": 2325565908,
  "lat": 37.9753177,
  "lon": 23.7186475
},
{
  "type": "node",
  "id": 3278317822,
  "lat": 37.9790920,
  "lon": 23.7202127
},
{
  "type": "node",
  "id": 3278317823,
  "lat": 37.9792592,
  "lon": 23.7200920
},
{
  "type": "node",
  "id": 3278317824,
  "lat": 37.9793280,
  "lon": 23.7202645
},
{
  "type": "node",
  "id": 3278317825,
  "lat": 37.9792749,
  "lon": 23.7202989
},
{
  "type": "node",
  "id": 3278317826,
  "lat": 37.9793638,
  "lon": 23.7205151
},
{
  "type": "node",
  "id": 3278317827,
  "lat": 37.9792571,
  "lon": 23.7205894
},
{
  "type": "node",
  "id": 3835701962,
  "lat": 37.9784129,
  "lon": 23.7202705
},
{
  "type": "node",
  "id": 4465902204,
  "lat": 37.9793081,
  "lon": 23.7202173
},
{
  "type": "node",
  "id": 4465902209,
  "lat": 37.9793416,
  "lon": 23.7205314
},
{
  "type": "node",
  "id": 4465922988,
  "lat": 37.9776589,
  "lon": 23.7215886
},
{
  "type": "node",
  "id": 4465922992,
  "lat": 37.9776885,
  "lon": 23.7216429
},
{
  "type": "node",
  "id": 4465922995,
  "lat": 37.9776977,
  "lon": 23.7216340
},
{
  "type": "node",
  "id": 4465922996,
  "lat": 37.9777044,
  "lon": 23.7216275
},
{
  "type": "node",
  "id": 4465922999,
  "lat": 37.9777144,
  "lon": 23.7216476
},
{
  "type": "node",
  "id": 4465923001,
  "lat": 37.9777356,
  "lon": 23.7216315
},
{
  "type": "node",
  "id": 4465923003,
  "lat": 37.9777502,
  "lon": 23.7216653
},
{
  "type": "node",
  "id": 4465923005,
  "lat": 37.9777620,
  "lon": 23.7215095
},
{
  "type": "node",
  "id": 4465923007,
  "lat": 37.9778223,
  "lon": 23.7216102
},
{
  "type": "node",
  "id": 4483647948,
  "lat": 37.9751456,
  "lon": 23.7186394
},
{
  "type": "node",
  "id": 4483647949,
  "lat": 37.9751910,
  "lon": 23.7185298
},
{
  "type": "node",
  "id": 4537626966,
  "lat": 37.9752698,
  "lon": 23.7185556
},
{
  "type": "node",
  "id": 3281185449,
  "lat": 37.9831664,
  "lon": 23.7190780
},
{
  "type": "node",
  "id": 3281185450,
  "lat": 37.9832428,
  "lon": 23.7192505
},
{
  "type": "node",
  "id": 3281185451,
  "lat": 37.9831776,
  "lon": 23.7193000
},
{
  "type": "node",
  "id": 3281185452,
  "lat": 37.9831529,
  "lon": 23.7192448
},
{
  "type": "node",
  "id": 3281185453,
  "lat": 37.9828480,
  "lon": 23.7194613
},
{
  "type": "node",
  "id": 3281185454,
  "lat": 37.9828973,
  "lon": 23.7195768
},
{
  "type": "node",
  "id": 3281185455,
  "lat": 37.9828199,
  "lon": 23.7196327
},
{
  "type": "node",
  "id": 3281185456,
  "lat": 37.9827271,
  "lon": 23.7194203
},
{
  "type": "node",
  "id": 3281185457,
  "lat": 37.9827722,
  "lon": 23.7193865
},
{
  "type": "node",
  "id": 3281185458,
  "lat": 37.9827638,
  "lon": 23.7193680
},
{
  "type": "node",
  "id": 3504872508,
  "lat": 37.9792143,
  "lon": 23.7255315
},
{
  "type": "node",
  "id": 3504872509,
  "lat": 37.9791131,
  "lon": 23.7256645
},
{
  "type": "node",
  "id": 3504872510,
  "lat": 37.9790554,
  "lon": 23.7255938
},
{
  "type": "node",
  "id": 3504872511,
  "lat": 37.9791567,
  "lon": 23.7254609
},
{
  "type": "node",
  "id": 2300161375,
  "lat": 37.9771427,
  "lon": 23.7363197
},
{
  "type": "node",
  "id": 2300161390,
  "lat": 37.9772501,
  "lon": 23.7365268
},
{
  "type": "node",
  "id": 2300161393,
  "lat": 37.9772558,
  "lon": 23.7362254
},
{
  "type": "node",
  "id": 2300161405,
  "lat": 37.9772779,
  "lon": 23.7362070
},
{
  "type": "node",
  "id": 2300161413,
  "lat": 37.9773212,
  "lon": 23.7362905
},
{
  "type": "node",
  "id": 2300161416,
  "lat": 37.9773437,
  "lon": 23.7364076
},
{
  "type": "node",
  "id": 2300161421,
  "lat": 37.9773586,
  "lon": 23.7364363
},
{
  "type": "node",
  "id": 2300161425,
  "lat": 37.9773704,
  "lon": 23.7363854
},
{
  "type": "node",
  "id": 2322332614,
  "lat": 37.9781359,
  "lon": 23.7322873
},
{
  "type": "node",
  "id": 2322332619,
  "lat": 37.9781465,
  "lon": 23.7322507
},
{
  "type": "node",
  "id": 2322332623,
  "lat": 37.9781744,
  "lon": 23.7321549
},
{
  "type": "node",
  "id": 2322332640,
  "lat": 37.9782578,
  "lon": 23.7320337
},
{
  "type": "node",
  "id": 2322332641,
  "lat": 37.9782578,
  "lon": 23.7323151
},
{
  "type": "node",
  "id": 2322332656,
  "lat": 37.9783589,
  "lon": 23.7322148
},
{
  "type": "node",
  "id": 2342371661,
  "lat": 37.9787648,
  "lon": 23.7315071
},
{
  "type": "node",
  "id": 2342371668,
  "lat": 37.9788736,
  "lon": 23.7314155
},
{
  "type": "node",
  "id": 2342371670,
  "lat": 37.9788784,
  "lon": 23.7317242
},
{
  "type": "node",
  "id": 2342371673,
  "lat": 37.9789040,
  "lon": 23.7317027
},
{
  "type": "node",
  "id": 2342371679,
  "lat": 37.9789355,
  "lon": 23.7316761
},
{
  "type": "node",
  "id": 2342371686,
  "lat": 37.9789873,
  "lon": 23.7316326
},
{
  "type": "node",
  "id": 7131813607,
  "lat": 37.9778230,
  "lon": 23.7328885
},
{
  "type": "node",
  "id": 7131813624,
  "lat": 37.9778178,
  "lon": 23.7329267
},
{
  "type": "node",
  "id": 7131813625,
  "lat": 37.9778282,
  "lon": 23.7328504
},
{
  "type": "node",
  "id": 7131813665,
  "lat": 37.9774511,
  "lon": 23.7329687
},
{
  "type": "node",
  "id": 7131813666,
  "lat": 37.9774646,
  "lon": 23.7328704
},
{
  "type": "node",
  "id": 7131813667,
  "lat": 37.9774809,
  "lon": 23.7327518
},
{
  "type": "node",
  "id": 7131813668,
  "lat": 37.9774944,
  "lon": 23.7326535
},
{
  "type": "node",
  "id": 7131813669,
  "lat": 37.9774395,
  "lon": 23.7326413
},
{
  "type": "node",
  "id": 7131813670,
  "lat": 37.9775222,
  "lon": 23.7325468
},
{
  "type": "node",
  "id": 7131813671,
  "lat": 37.9775157,
  "lon": 23.7325941
},
{
  "type": "node",
  "id": 7131813672,
  "lat": 37.9777515,
  "lon": 23.7326463
},
{
  "type": "node",
  "id": 7131813673,
  "lat": 37.9777580,
  "lon": 23.7325990
},
{
  "type": "node",
  "id": 7131813674,
  "lat": 37.9778906,
  "lon": 23.7327309
},
{
  "type": "node",
  "id": 7131813675,
  "lat": 37.9778118,
  "lon": 23.7327135
},
{
  "type": "node",
  "id": 7131813676,
  "lat": 37.9777948,
  "lon": 23.7328376
},
{
  "type": "node",
  "id": 7131813677,
  "lat": 37.9777829,
  "lon": 23.7329244
},
{
  "type": "node",
  "id": 7131813678,
  "lat": 37.9777658,
  "lon": 23.7330485
},
{
  "type": "node",
  "id": 7131813679,
  "lat": 37.9778446,
  "lon": 23.7330659
},
{
  "type": "node",
  "id": 7131813680,
  "lat": 37.9776846,
  "lon": 23.7331332
},
{
  "type": "node",
  "id": 7131813681,
  "lat": 37.9776911,
  "lon": 23.7330859
},
{
  "type": "node",
  "id": 7131813682,
  "lat": 37.9774885,
  "lon": 23.7330411
},
{
  "type": "node",
  "id": 7131813683,
  "lat": 37.9774820,
  "lon": 23.7330884
},
{
  "type": "node",
  "id": 7131813684,
  "lat": 37.9773961,
  "lon": 23.7329566
},
{
  "type": "node",
  "id": 7131818685,
  "lat": 37.9774394,
  "lon": 23.7328648
},
{
  "type": "node",
  "id": 7131818686,
  "lat": 37.9774557,
  "lon": 23.7327463
},
{
  "type": "node",
  "id": 7131818687,
  "lat": 37.9778290,
  "lon": 23.7328452
},
{
  "type": "node",
  "id": 7131818688,
  "lat": 37.9778170,
  "lon": 23.7329319
},
{
  "type": "node",
  "id": 7131818689,
  "lat": 37.9779043,
  "lon": 23.7326313
},
{
  "type": "node",
  "id": 7131818690,
  "lat": 37.9778309,
  "lon": 23.7331655
},
{
  "type": "node",
  "id": 7131818691,
  "lat": 37.9773811,
  "lon": 23.7330660
},
{
  "type": "node",
  "id": 7131818692,
  "lat": 37.9774545,
  "lon": 23.7325319
},
{
  "type": "node",
  "id": 7131833379,
  "lat": 37.9778425,
  "lon": 23.7326177
},
{
  "type": "node",
  "id": 7131833380,
  "lat": 37.9773975,
  "lon": 23.7330696
},
{
  "type": "node",
  "id": 7152734318,
  "lat": 37.9813720,
  "lon": 23.7356597
},
{
  "type": "node",
  "id": 7152734319,
  "lat": 37.9812070,
  "lon": 23.7353320
},
{
  "type": "node",
  "id": 7152734323,
  "lat": 37.9811985,
  "lon": 23.7353151
},
{
  "type": "node",
  "id": 7152734823,
  "lat": 37.9813267,
  "lon": 23.7353456
},
{
  "type": "node",
  "id": 7152734824,
  "lat": 37.9812680,
  "lon": 23.7352288
},
{
  "type": "node",
  "id": 7152734832,
  "lat": 37.9813936,
  "lon": 23.7352639
},
{
  "type": "node",
  "id": 7152734834,
  "lat": 37.9811878,
  "lon": 23.7352938
},
{
  "type": "node",
  "id": 7152734837,
  "lat": 37.9813854,
  "lon": 23.7356863
},
{
  "type": "node",
  "id": 7152733469,
  "lat": 37.9814520,
  "lon": 23.7352165
},
{
  "type": "node",
  "id": 7152734822,
  "lat": 37.9814034,
  "lon": 23.7352835
},
{
  "type": "node",
  "id": 7152734825,
  "lat": 37.9814655,
  "lon": 23.7356214
},
{
  "type": "node",
  "id": 7152734826,
  "lat": 37.9814068,
  "lon": 23.7355046
},
{
  "type": "node",
  "id": 7152734827,
  "lat": 37.9816630,
  "lon": 23.7352970
},
{
  "type": "node",
  "id": 7152734828,
  "lat": 37.9817218,
  "lon": 23.7354138
},
{
  "type": "node",
  "id": 7152734829,
  "lat": 37.9815384,
  "lon": 23.7350097
},
{
  "type": "node",
  "id": 7152734830,
  "lat": 37.9815972,
  "lon": 23.7351265
},
{
  "type": "node",
  "id": 7152734831,
  "lat": 37.9815205,
  "lon": 23.7351886
},
{
  "type": "node",
  "id": 7152734833,
  "lat": 37.9815107,
  "lon": 23.7351690
},
{
  "type": "node",
  "id": 7152734835,
  "lat": 37.9816186,
  "lon": 23.7349447
},
{
  "type": "node",
  "id": 7152734836,
  "lat": 37.9818162,
  "lon": 23.7353373
},
{
  "type": "node",
  "id": 250695457,
  "lat": 37.9758878,
  "lon": 23.7405168
},
{
  "type": "node",
  "id": 250695458,
  "lat": 37.9759348,
  "lon": 23.7401317
},
{
  "type": "node",
  "id": 250695459,
  "lat": 37.9761439,
  "lon": 23.7401677
},
{
  "type": "node",
  "id": 2191433973,
  "lat": 37.9755521,
  "lon": 23.7428042
},
{
  "type": "node",
  "id": 2191433974,
  "lat": 37.9755683,
  "lon": 23.7426489
},
{
  "type": "node",
  "id": 2191433977,
  "lat": 37.9756273,
  "lon": 23.7428909
},
{
  "type": "node",
  "id": 2191433979,
  "lat": 37.9756740,
  "lon": 23.7426667
},
{
  "type": "node",
  "id": 2191433981,
  "lat": 37.9757515,
  "lon": 23.7427917
},
{
  "type": "node",
  "id": 2191433982,
  "lat": 37.9757619,
  "lon": 23.7428399
},
{
  "type": "node",
  "id": 2299689681,
  "lat": 37.9755457,
  "lon": 23.7428380
},
{
  "type": "node",
  "id": 2299689684,
  "lat": 37.9755476,
  "lon": 23.7428199
},
{
  "type": "node",
  "id": 2299689686,
  "lat": 37.9755580,
  "lon": 23.7428765
},
{
  "type": "node",
  "id": 2299689688,
  "lat": 37.9755654,
  "lon": 23.7428064
},
{
  "type": "node",
  "id": 2299689692,
  "lat": 37.9755767,
  "lon": 23.7428971
},
{
  "type": "node",
  "id": 2299689693,
  "lat": 37.9755802,
  "lon": 23.7423594
},
{
  "type": "node",
  "id": 2299689695,
  "lat": 37.9755929,
  "lon": 23.7429036
},
{
  "type": "node",
  "id": 2299689697,
  "lat": 37.9755951,
  "lon": 23.7424381
},
{
  "type": "node",
  "id": 2299689699,
  "lat": 37.9755968,
  "lon": 23.7422243
},
{
  "type": "node",
  "id": 2299689701,
  "lat": 37.9756043,
  "lon": 23.7423641
},
{
  "type": "node",
  "id": 2299689703,
  "lat": 37.9756097,
  "lon": 23.7428962
},
{
  "type": "node",
  "id": 2299689705,
  "lat": 37.9756162,
  "lon": 23.7428839
},
{
  "type": "node",
  "id": 2299689724,
  "lat": 37.9756228,
  "lon": 23.7428664
},
{
  "type": "node",
  "id": 2299689727,
  "lat": 37.9756239,
  "lon": 23.7422296
},
{
  "type": "node",
  "id": 2299689729,
  "lat": 37.9756347,
  "lon": 23.7421425
},
{
  "type": "node",
  "id": 2299689731,
  "lat": 37.9756722,
  "lon": 23.7427067
},
{
  "type": "node",
  "id": 2299689733,
  "lat": 37.9756984,
  "lon": 23.7427132
},
{
  "type": "node",
  "id": 2299689735,
  "lat": 37.9757133,
  "lon": 23.7427206
},
{
  "type": "node",
  "id": 2299689737,
  "lat": 37.9757204,
  "lon": 23.7427066
},
{
  "type": "node",
  "id": 2299689741,
  "lat": 37.9757249,
  "lon": 23.7427526
},
{
  "type": "node",
  "id": 2299689743,
  "lat": 37.9757295,
  "lon": 23.7427526
},
{
  "type": "node",
  "id": 2299689747,
  "lat": 37.9757593,
  "lon": 23.7424707
},
{
  "type": "node",
  "id": 2299689750,
  "lat": 37.9757758,
  "lon": 23.7423376
},
{
  "type": "node",
  "id": 2299689751,
  "lat": 37.9757778,
  "lon": 23.7426857
},
{
  "type": "node",
  "id": 2299689757,
  "lat": 37.9757959,
  "lon": 23.7423416
},
{
  "type": "node",
  "id": 2299689759,
  "lat": 37.9757974,
  "lon": 23.7427764
},
{
  "type": "node",
  "id": 2299689763,
  "lat": 37.9757994,
  "lon": 23.7423138
},
{
  "type": "node",
  "id": 2299689776,
  "lat": 37.9758236,
  "lon": 23.7423187
},
{
  "type": "node",
  "id": 2299689780,
  "lat": 37.9758403,
  "lon": 23.7421834
},
{
  "type": "node",
  "id": 2299970099,
  "lat": 37.9761163,
  "lon": 23.7384166
},
{
  "type": "node",
  "id": 2299970100,
  "lat": 37.9761352,
  "lon": 23.7382586
},
{
  "type": "node",
  "id": 2299970101,
  "lat": 37.9761845,
  "lon": 23.7382681
},
{
  "type": "node",
  "id": 2299970103,
  "lat": 37.9763235,
  "lon": 23.7384565
},
{
  "type": "node",
  "id": 2299970104,
  "lat": 37.9763424,
  "lon": 23.7382985
},
{
  "type": "node",
  "id": 2300143657,
  "lat": 37.9759103,
  "lon": 23.7403071
},
{
  "type": "node",
  "id": 2300143658,
  "lat": 37.9759238,
  "lon": 23.7402347
},
{
  "type": "node",
  "id": 2300143659,
  "lat": 37.9759515,
  "lon": 23.7403142
},
{
  "type": "node",
  "id": 2300143660,
  "lat": 37.9759593,
  "lon": 23.7402408
},
{
  "type": "node",
  "id": 2300143661,
  "lat": 37.9761025,
  "lon": 23.7405538
},
{
  "type": "node",
  "id": 2300143662,
  "lat": 37.9761186,
  "lon": 23.7404040
},
{
  "type": "node",
  "id": 2300143663,
  "lat": 37.9761208,
  "lon": 23.7403826
},
{
  "type": "node",
  "id": 2327286077,
  "lat": 37.9787390,
  "lon": 23.7375112
},
{
  "type": "node",
  "id": 2327286079,
  "lat": 37.9787507,
  "lon": 23.7374351
},
{
  "type": "node",
  "id": 2327286080,
  "lat": 37.9787471,
  "lon": 23.7375044
},
{
  "type": "node",
  "id": 2327286081,
  "lat": 37.9787771,
  "lon": 23.7373953
},
{
  "type": "node",
  "id": 2327286082,
  "lat": 37.9787767,
  "lon": 23.7374514
},
{
  "type": "node",
  "id": 2327286083,
  "lat": 37.9787844,
  "lon": 23.7375982
},
{
  "type": "node",
  "id": 2327286084,
  "lat": 37.9787926,
  "lon": 23.7374818
},
{
  "type": "node",
  "id": 2327286085,
  "lat": 37.9787929,
  "lon": 23.7375911
},
{
  "type": "node",
  "id": 2327286086,
  "lat": 37.9787974,
  "lon": 23.7374341
},
{
  "type": "node",
  "id": 2327286087,
  "lat": 37.9788130,
  "lon": 23.7374646
},
{
  "type": "node",
  "id": 2327286088,
  "lat": 37.9788271,
  "lon": 23.7375203
},
{
  "type": "node",
  "id": 2327286089,
  "lat": 37.9788218,
  "lon": 23.7376464
},
{
  "type": "node",
  "id": 2327286090,
  "lat": 37.9788375,
  "lon": 23.7375115
},
{
  "type": "node",
  "id": 2327286092,
  "lat": 37.9788559,
  "lon": 23.7375755
},
{
  "type": "node",
  "id": 2327286093,
  "lat": 37.9788662,
  "lon": 23.7375668
},
{
  "type": "node",
  "id": 2327286095,
  "lat": 37.9788816,
  "lon": 23.7375962
},
{
  "type": "node",
  "id": 3827663867,
  "lat": 37.9787230,
  "lon": 23.7374583
},
{
  "type": "node",
  "id": 3827663868,
  "lat": 37.9787443,
  "lon": 23.7374230
},
{
  "type": "node",
  "id": 752607447,
  "lat": 37.9757239,
  "lon": 23.7491449
},
{
  "type": "node",
  "id": 752607448,
  "lat": 37.9757658,
  "lon": 23.7495610
},
{
  "type": "node",
  "id": 752607449,
  "lat": 37.9755152,
  "lon": 23.7496018
},
{
  "type": "node",
  "id": 752607450,
  "lat": 37.9754731,
  "lon": 23.7491856
},
{
  "type": "node",
  "id": 3249863831,
  "lat": 37.9750439,
  "lon": 23.7452008
},
{
  "type": "node",
  "id": 3249863833,
  "lat": 37.9750984,
  "lon": 23.7448587
},
{
  "type": "node",
  "id": 3249863834,
  "lat": 37.9751494,
  "lon": 23.7451729
},
{
  "type": "node",
  "id": 3249863835,
  "lat": 37.9751526,
  "lon": 23.7440982
},
{
  "type": "node",
  "id": 3249863836,
  "lat": 37.9751632,
  "lon": 23.7441467
},
{
  "type": "node",
  "id": 3249863838,
  "lat": 37.9752105,
  "lon": 23.7459494
},
{
  "type": "node",
  "id": 3249863840,
  "lat": 37.9753694,
  "lon": 23.7440888
},
{
  "type": "node",
  "id": 3249863845,
  "lat": 37.9754799,
  "lon": 23.7447508
},
{
  "type": "node",
  "id": 3249863850,
  "lat": 37.9755858,
  "lon": 23.7447200
},
{
  "type": "node",
  "id": 3249863853,
  "lat": 37.9757862,
  "lon": 23.7457339
},
{
  "type": "node",
  "id": 3249863854,
  "lat": 37.9758042,
  "lon": 23.7457091
},
{
  "type": "node",
  "id": 3249863855,
  "lat": 37.9758080,
  "lon": 23.7456733
},
{
  "type": "node",
  "id": 2517499335,
  "lat": 37.9913972,
  "lon": 23.7302024
},
{
  "type": "node",
  "id": 3229477027,
  "lat": 37.9909111,
  "lon": 23.7304177
},
{
  "type": "node",
  "id": 3229477028,
  "lat": 37.9909702,
  "lon": 23.7300357
},
{
  "type": "node",
  "id": 3229477030,
  "lat": 37.9910334,
  "lon": 23.7304485
},
{
  "type": "node",
  "id": 3229477037,
  "lat": 37.9911633,
  "lon": 23.7298499
},
{
  "type": "node",
  "id": 3229477039,
  "lat": 37.9913248,
  "lon": 23.7298897
},
{
  "type": "node",
  "id": 3229477041,
  "lat": 37.9913435,
  "lon": 23.7305531
},
{
  "type": "node",
  "id": 3229477047,
  "lat": 37.9914117,
  "lon": 23.7301073
},
{
  "type": "node",
  "id": 3229477052,
  "lat": 37.9914407,
  "lon": 23.7299183
},
{
  "type": "node",
  "id": 3234207226,
  "lat": 37.9912623,
  "lon": 23.7298743
},
{
  "type": "node",
  "id": 3234207230,
  "lat": 37.9910925,
  "lon": 23.7300660
},
{
  "type": "node",
  "id": 3234207233,
  "lat": 37.9911194,
  "lon": 23.7304979
},
{
  "type": "node",
  "id": 3234207234,
  "lat": 37.9911272,
  "lon": 23.7298438
},
{
  "type": "node",
  "id": 3234207235,
  "lat": 37.9911457,
  "lon": 23.7298456
},
{
  "type": "node",
  "id": 3239326453,
  "lat": 37.9884158,
  "lon": 23.7245404
},
{
  "type": "node",
  "id": 3239326456,
  "lat": 37.9883928,
  "lon": 23.7246966
},
{
  "type": "node",
  "id": 3239326459,
  "lat": 37.9883434,
  "lon": 23.7246882
},
{
  "type": "node",
  "id": 3239326460,
  "lat": 37.9883383,
  "lon": 23.7247120
},
{
  "type": "node",
  "id": 3239330561,
  "lat": 37.9882587,
  "lon": 23.7246971
},
{
  "type": "node",
  "id": 3239330563,
  "lat": 37.9883682,
  "lon": 23.7245495
},
{
  "type": "node",
  "id": 3239330564,
  "lat": 37.9883715,
  "lon": 23.7245321
},
{
  "type": "node",
  "id": 4505973199,
  "lat": 37.9882865,
  "lon": 23.7245431
},
{
  "type": "node",
  "id": 4506050840,
  "lat": 37.9883295,
  "lon": 23.7245543
},
{
  "type": "node",
  "id": 4506050841,
  "lat": 37.9883338,
  "lon": 23.7245396
},
{
  "type": "node",
  "id": 4506050842,
  "lat": 37.9883517,
  "lon": 23.7245369
},
{
  "type": "node",
  "id": 4510974942,
  "lat": 37.9910117,
  "lon": 23.7300457
},
{
  "type": "node",
  "id": 4510974943,
  "lat": 37.9910157,
  "lon": 23.7305613
},
{
  "type": "node",
  "id": 95665124,
  "lat": 37.9896190,
  "lon": 23.7320537
},
{
  "type": "node",
  "id": 95665127,
  "lat": 37.9887141,
  "lon": 23.7318334
},
{
  "type": "node",
  "id": 95665158,
  "lat": 37.9885912,
  "lon": 23.7328119
},
{
  "type": "node",
  "id": 95665159,
  "lat": 37.9884507,
  "lon": 23.7327780
},
{
  "type": "node",
  "id": 95665161,
  "lat": 37.9883854,
  "lon": 23.7332142
},
{
  "type": "node",
  "id": 95665162,
  "lat": 37.9894109,
  "lon": 23.7334699
},
{
  "type": "node",
  "id": 95665164,
  "lat": 37.9894759,
  "lon": 23.7330356
},
{
  "type": "node",
  "id": 95665179,
  "lat": 37.9894427,
  "lon": 23.7330276
},
{
  "type": "node",
  "id": 95665180,
  "lat": 37.9892284,
  "lon": 23.7321865
},
{
  "type": "node",
  "id": 95665181,
  "lat": 37.9891088,
  "lon": 23.7327110
},
{
  "type": "node",
  "id": 95665182,
  "lat": 37.9893932,
  "lon": 23.7327790
},
{
  "type": "node",
  "id": 95665183,
  "lat": 37.9894743,
  "lon": 23.7322453
},
{
  "type": "node",
  "id": 95665184,
  "lat": 37.9890667,
  "lon": 23.7322125
},
{
  "type": "node",
  "id": 95665186,
  "lat": 37.9887914,
  "lon": 23.7320740
},
{
  "type": "node",
  "id": 95665187,
  "lat": 37.9887083,
  "lon": 23.7326094
},
{
  "type": "node",
  "id": 95665191,
  "lat": 37.9889960,
  "lon": 23.7326795
},
{
  "type": "node",
  "id": 95665192,
  "lat": 37.9893647,
  "lon": 23.7330072
},
{
  "type": "node",
  "id": 95665194,
  "lat": 37.9890845,
  "lon": 23.7328918
},
{
  "type": "node",
  "id": 95665203,
  "lat": 37.9890422,
  "lon": 23.7331597
},
{
  "type": "node",
  "id": 95665205,
  "lat": 37.9892972,
  "lon": 23.7332245
},
{
  "type": "node",
  "id": 95665207,
  "lat": 37.9889235,
  "lon": 23.7331278
},
{
  "type": "node",
  "id": 95665208,
  "lat": 37.9889628,
  "lon": 23.7328613
},
{
  "type": "node",
  "id": 95665209,
  "lat": 37.9886742,
  "lon": 23.7327928
},
{
  "type": "node",
  "id": 95665211,
  "lat": 37.9886314,
  "lon": 23.7330584
},
{
  "type": "node",
  "id": 961530477,
  "lat": 37.9887742,
  "lon": 23.7329271
},
{
  "type": "node",
  "id": 961530478,
  "lat": 37.9885863,
  "lon": 23.7332445
},
{
  "type": "node",
  "id": 961530490,
  "lat": 37.9891795,
  "lon": 23.7322356
},
{
  "type": "node",
  "id": 961530497,
  "lat": 37.9886611,
  "lon": 23.7322628
},
{
  "type": "node",
  "id": 961530503,
  "lat": 37.9887683,
  "lon": 23.7322888
},
{
  "type": "node",
  "id": 961530509,
  "lat": 37.9891986,
  "lon": 23.7333870
},
{
  "type": "node",
  "id": 961530513,
  "lat": 37.9895331,
  "lon": 23.7326100
},
{
  "type": "node",
  "id": 961530531,
  "lat": 37.9887131,
  "lon": 23.7329126
},
{
  "type": "node",
  "id": 961530532,
  "lat": 37.9885921,
  "lon": 23.7327108
},
{
  "type": "node",
  "id": 961530538,
  "lat": 37.9894344,
  "lon": 23.7324549
},
{
  "type": "node",
  "id": 961530545,
  "lat": 37.9887592,
  "lon": 23.7322866
},
{
  "type": "node",
  "id": 961530547,
  "lat": 37.9888245,
  "lon": 23.7318676
},
{
  "type": "node",
  "id": 961530565,
  "lat": 37.9893328,
  "lon": 23.7329991
},
{
  "type": "node",
  "id": 961530580,
  "lat": 37.9886529,
  "lon": 23.7322609
},
{
  "type": "node",
  "id": 961530583,
  "lat": 37.9887490,
  "lon": 23.7324161
},
{
  "type": "node",
  "id": 961530584,
  "lat": 37.9894582,
  "lon": 23.7329244
},
{
  "type": "node",
  "id": 961530598,
  "lat": 37.9895520,
  "lon": 23.7324837
},
{
  "type": "node",
  "id": 961530615,
  "lat": 37.9887574,
  "lon": 23.7330412
},
{
  "type": "node",
  "id": 961530617,
  "lat": 37.9886059,
  "lon": 23.7327141
},
{
  "type": "node",
  "id": 961530627,
  "lat": 37.9894160,
  "lon": 23.7325787
},
{
  "type": "node",
  "id": 961530628,
  "lat": 37.9886948,
  "lon": 23.7319616
},
{
  "type": "node",
  "id": 961530631,
  "lat": 37.9888256,
  "lon": 23.7318602
},
{
  "type": "node",
  "id": 961530646,
  "lat": 37.9893714,
  "lon": 23.7329647
},
{
  "type": "node",
  "id": 961530648,
  "lat": 37.9886345,
  "lon": 23.7323837
},
{
  "type": "node",
  "id": 961530655,
  "lat": 37.9894731,
  "lon": 23.7329281
},
{
  "type": "node",
  "id": 961530667,
  "lat": 37.9895071,
  "lon": 23.7320267
},
{
  "type": "node",
  "id": 961530679,
  "lat": 37.9885836,
  "lon": 23.7332620
},
{
  "type": "node",
  "id": 961530683,
  "lat": 37.9890390,
  "lon": 23.7321344
},
{
  "type": "node",
  "id": 961530686,
  "lat": 37.9896000,
  "lon": 23.7321810
},
{
  "type": "node",
  "id": 961530705,
  "lat": 37.9895212,
  "lon": 23.7326071
},
{
  "type": "node",
  "id": 961530709,
  "lat": 37.9886674,
  "lon": 23.7328385
},
{
  "type": "node",
  "id": 961530714,
  "lat": 37.9894428,
  "lon": 23.7324569
},
{
  "type": "node",
  "id": 961530723,
  "lat": 37.9887380,
  "lon": 23.7324134
},
{
  "type": "node",
  "id": 961530726,
  "lat": 37.9895868,
  "lon": 23.7321779
},
{
  "type": "node",
  "id": 961530740,
  "lat": 37.9895063,
  "lon": 23.7320320
},
{
  "type": "node",
  "id": 961530752,
  "lat": 37.9886381,
  "lon": 23.7330129
},
{
  "type": "node",
  "id": 961530754,
  "lat": 37.9892197,
  "lon": 23.7322452
},
{
  "type": "node",
  "id": 961530756,
  "lat": 37.9887058,
  "lon": 23.7319643
},
{
  "type": "node",
  "id": 961530761,
  "lat": 37.9890286,
  "lon": 23.7322032
},
{
  "type": "node",
  "id": 961530762,
  "lat": 37.9895414,
  "lon": 23.7324811
},
{
  "type": "node",
  "id": 961530765,
  "lat": 37.9891929,
  "lon": 23.7334152
},
{
  "type": "node",
  "id": 961530792,
  "lat": 37.9887221,
  "lon": 23.7328515
},
{
  "type": "node",
  "id": 961530794,
  "lat": 37.9886409,
  "lon": 23.7323852
},
{
  "type": "node",
  "id": 961530799,
  "lat": 37.9894227,
  "lon": 23.7325804
},
{
  "type": "node",
  "id": 3005463591,
  "lat": 37.9886441,
  "lon": 23.7323198
},
{
  "type": "node",
  "id": 3229477029,
  "lat": 37.9910065,
  "lon": 23.7306189
},
{
  "type": "node",
  "id": 3229545643,
  "lat": 37.9891509,
  "lon": 23.7319436
},
{
  "type": "node",
  "id": 3234207231,
  "lat": 37.9910975,
  "lon": 23.7306413
},
{
  "type": "node",
  "id": 4510974947,
  "lat": 37.9910829,
  "lon": 23.7306377
},
{
  "type": "node",
  "id": 3269113732,
  "lat": 38.0097575,
  "lon": 23.7207311
},
{
  "type": "node",
  "id": 3269113733,
  "lat": 38.0096403,
  "lon": 23.7206439
},
{
  "type": "node",
  "id": 3269113734,
  "lat": 38.0097269,
  "lon": 23.7206104
},
{
  "type": "node",
  "id": 3269113735,
  "lat": 38.0096639,
  "lon": 23.7207663
},
{
  "type": "node",
  "id": 4982254077,
  "lat": 38.0096163,
  "lon": 23.7207605
},
{
  "type": "node",
  "id": 1458966537,
  "lat": 37.9806209,
  "lon": 23.7518301
},
{
  "type": "node",
  "id": 1458966563,
  "lat": 37.9806856,
  "lon": 23.7519713
},
{
  "type": "node",
  "id": 1458966568,
  "lat": 37.9807114,
  "lon": 23.7520137
},
{
  "type": "node",
  "id": 1458966571,
  "lat": 37.9807226,
  "lon": 23.7517551
},
{
  "type": "node",
  "id": 1458966594,
  "lat": 37.9807841,
  "lon": 23.7519601
},
{
  "type": "node",
  "id": 1458966595,
  "lat": 37.9807863,
  "lon": 23.7522197
},
{
  "type": "node",
  "id": 1458966597,
  "lat": 37.9807873,
  "lon": 23.7518963
},
{
  "type": "node",
  "id": 1458966598,
  "lat": 37.9807980,
  "lon": 23.7514993
},
{
  "type": "node",
  "id": 1458966600,
  "lat": 37.9808009,
  "lon": 23.7522088
},
{
  "type": "node",
  "id": 1458966602,
  "lat": 37.9808166,
  "lon": 23.7515607
},
{
  "type": "node",
  "id": 1458966616,
  "lat": 37.9808243,
  "lon": 23.7515548
},
{
  "type": "node",
  "id": 1458966617,
  "lat": 37.9808371,
  "lon": 23.7523306
},
{
  "type": "node",
  "id": 1458966621,
  "lat": 37.9808524,
  "lon": 23.7523193
},
{
  "type": "node",
  "id": 1458966622,
  "lat": 37.9808636,
  "lon": 23.7516600
},
{
  "type": "node",
  "id": 1458966623,
  "lat": 37.9808714,
  "lon": 23.7516541
},
{
  "type": "node",
  "id": 1458966624,
  "lat": 37.9808717,
  "lon": 23.7521510
},
{
  "type": "node",
  "id": 1458966634,
  "lat": 37.9808863,
  "lon": 23.7521402
},
{
  "type": "node",
  "id": 1458966639,
  "lat": 37.9808941,
  "lon": 23.7517021
},
{
  "type": "node",
  "id": 1458966643,
  "lat": 37.9809250,
  "lon": 23.7514023
},
{
  "type": "node",
  "id": 1458966645,
  "lat": 37.9809257,
  "lon": 23.7522658
},
{
  "type": "node",
  "id": 1458966649,
  "lat": 37.9809338,
  "lon": 23.7518450
},
{
  "type": "node",
  "id": 1458966654,
  "lat": 37.9809393,
  "lon": 23.7522557
},
{
  "type": "node",
  "id": 1458966655,
  "lat": 37.9809474,
  "lon": 23.7525265
},
{
  "type": "node",
  "id": 1458966682,
  "lat": 37.9810065,
  "lon": 23.7517913
},
{
  "type": "node",
  "id": 1458966684,
  "lat": 37.9810167,
  "lon": 23.7516085
},
{
  "type": "node",
  "id": 1458966686,
  "lat": 37.9810086,
  "lon": 23.7520509
},
{
  "type": "node",
  "id": 1458966692,
  "lat": 37.9810205,
  "lon": 23.7524726
},
{
  "type": "node",
  "id": 1458966700,
  "lat": 37.9810232,
  "lon": 23.7520401
},
{
  "type": "node",
  "id": 1458966712,
  "lat": 37.9810595,
  "lon": 23.7521618
},
{
  "type": "node",
  "id": 1458966714,
  "lat": 37.9810747,
  "lon": 23.7521506
},
{
  "type": "node",
  "id": 1458966734,
  "lat": 37.9810940,
  "lon": 23.7519823
},
{
  "type": "node",
  "id": 1458966746,
  "lat": 37.9811087,
  "lon": 23.7519715
},
{
  "type": "node",
  "id": 1458966764,
  "lat": 37.9811480,
  "lon": 23.7520970
},
{
  "type": "node",
  "id": 1458966772,
  "lat": 37.9811616,
  "lon": 23.7520870
},
{
  "type": "node",
  "id": 1458966786,
  "lat": 37.9811698,
  "lon": 23.7523578
},
{
  "type": "node",
  "id": 1458966815,
  "lat": 37.9812428,
  "lon": 23.7523039
},
{
  "type": "node",
  "id": 1459420310,
  "lat": 37.9809493,
  "lon": 23.7514880
},
{
  "type": "node",
  "id": 1459420313,
  "lat": 37.9809613,
  "lon": 23.7514789
},
{
  "type": "node",
  "id": 1459420315,
  "lat": 37.9809762,
  "lon": 23.7515448
},
{
  "type": "node",
  "id": 1459420320,
  "lat": 37.9809838,
  "lon": 23.7515391
},
{
  "type": "node",
  "id": 3274275885,
  "lat": 37.9749243,
  "lon": 23.7616391
},
{
  "type": "node",
  "id": 3274275886,
  "lat": 37.9750286,
  "lon": 23.7616817
},
{
  "type": "node",
  "id": 3274275889,
  "lat": 37.9749806,
  "lon": 23.7618711
},
{
  "type": "node",
  "id": 3274275890,
  "lat": 37.9749089,
  "lon": 23.7616997
},
{
  "type": "node",
  "id": 3274275891,
  "lat": 37.9749213,
  "lon": 23.7617712
},
{
  "type": "node",
  "id": 3274275892,
  "lat": 37.9748560,
  "lon": 23.7617445
},
{
  "type": "node",
  "id": 3274275893,
  "lat": 37.9748712,
  "lon": 23.7616843
},
{
  "type": "node",
  "id": 4776616587,
  "lat": 37.9749039,
  "lon": 23.7618398
},
{
  "type": "node",
  "id": 4455282107,
  "lat": 37.9865033,
  "lon": 23.7577692
},
{
  "type": "node",
  "id": 4455282108,
  "lat": 37.9865163,
  "lon": 23.7577062
},
{
  "type": "node",
  "id": 4455282111,
  "lat": 37.9865388,
  "lon": 23.7575906
},
{
  "type": "node",
  "id": 4455282120,
  "lat": 37.9866651,
  "lon": 23.7578225
},
{
  "type": "node",
  "id": 4455282121,
  "lat": 37.9866694,
  "lon": 23.7577994
},
{
  "type": "node",
  "id": 4455282124,
  "lat": 37.9867015,
  "lon": 23.7576469
},
{
  "type": "node",
  "id": 2078482880,
  "lat": 37.9796323,
  "lon": 23.7695801
},
{
  "type": "node",
  "id": 2078482881,
  "lat": 37.9796607,
  "lon": 23.7696233
},
{
  "type": "node",
  "id": 2078482887,
  "lat": 37.9798204,
  "lon": 23.7698655
},
{
  "type": "node",
  "id": 2078482889,
  "lat": 37.9798358,
  "lon": 23.7693642
},
{
  "type": "node",
  "id": 2078482893,
  "lat": 37.9800239,
  "lon": 23.7696495
},
{
  "type": "node",
  "id": 3232202178,
  "lat": 37.9758680,
  "lon": 23.7696276
},
{
  "type": "node",
  "id": 3232202179,
  "lat": 37.9759086,
  "lon": 23.7696851
},
{
  "type": "node",
  "id": 3232202180,
  "lat": 37.9759117,
  "lon": 23.7694976
},
{
  "type": "node",
  "id": 3232202181,
  "lat": 37.9759187,
  "lon": 23.7696550
},
{
  "type": "node",
  "id": 3232202182,
  "lat": 37.9759624,
  "lon": 23.7695250
},
{
  "type": "node",
  "id": 3232202183,
  "lat": 37.9759725,
  "lon": 23.7694949
},
{
  "type": "node",
  "id": 3232202184,
  "lat": 37.9759918,
  "lon": 23.7697301
},
{
  "type": "node",
  "id": 3232202185,
  "lat": 37.9760557,
  "lon": 23.7695400
},
{
  "type": "node",
  "id": 4751694903,
  "lat": 37.9797102,
  "lon": 23.7694974
},
{
  "type": "node",
  "id": 4751694916,
  "lat": 37.9799338,
  "lon": 23.7695128
},
{
  "type": "node",
  "id": 4762396682,
  "lat": 37.9759767,
  "lon": 23.7697219
},
{
  "type": "node",
  "id": 3266192182,
  "lat": 37.9873933,
  "lon": 23.9014784
},
{
  "type": "node",
  "id": 3266192183,
  "lat": 37.9874185,
  "lon": 23.9019169
},
{
  "type": "node",
  "id": 3266192184,
  "lat": 37.9871291,
  "lon": 23.9014891
},
{
  "type": "node",
  "id": 3266192185,
  "lat": 37.9871342,
  "lon": 23.9015860
},
{
  "type": "node",
  "id": 3266192186,
  "lat": 37.9871816,
  "lon": 23.9018372
},
{
  "type": "node",
  "id": 3266192187,
  "lat": 37.9873426,
  "lon": 23.9017815
},
{
  "type": "node",
  "id": 3266192188,
  "lat": 37.9873322,
  "lon": 23.9014957
},
{
  "type": "node",
  "id": 3266192189,
  "lat": 37.9872284,
  "lon": 23.9019746
},
{
  "type": "node",
  "id": 3266192190,
  "lat": 37.9871957,
  "lon": 23.9019055
},
{
  "type": "node",
  "id": 3266192191,
  "lat": 37.9873039,
  "lon": 23.9016013
},
{
  "type": "node",
  "id": 3266192192,
  "lat": 37.9874629,
  "lon": 23.9018338
},
{
  "type": "node",
  "id": 3266192193,
  "lat": 37.9873211,
  "lon": 23.9014302
},
{
  "type": "node",
  "id": 3266192195,
  "lat": 37.9874048,
  "lon": 23.9018514
},
{
  "type": "node",
  "id": 3266192196,
  "lat": 37.9871502,
  "lon": 23.9016501
},
{
  "type": "node",
  "id": 3266192197,
  "lat": 37.9872137,
  "lon": 23.9018992
},
{
  "type": "node",
  "id": 3266192198,
  "lat": 37.9871495,
  "lon": 23.9015806
},
{
  "type": "node",
  "id": 2404124235,
  "lat": 38.0048259,
  "lon": 23.8679148
},
{
  "type": "node",
  "id": 2404124236,
  "lat": 38.0048372,
  "lon": 23.8678905
},
{
  "type": "node",
  "id": 2404124238,
  "lat": 38.0049897,
  "lon": 23.8678159
},
{
  "type": "node",
  "id": 2404124239,
  "lat": 38.0051874,
  "lon": 23.8679163
},
{
  "type": "node",
  "id": 2404124242,
  "lat": 38.0052473,
  "lon": 23.8676811
},
{
  "type": "node",
  "id": 2404124244,
  "lat": 38.0052720,
  "lon": 23.8681430
},
{
  "type": "node",
  "id": 2404124254,
  "lat": 38.0053863,
  "lon": 23.8676123
},
{
  "type": "node",
  "id": 2404124255,
  "lat": 38.0054049,
  "lon": 23.8676145
},
{
  "type": "node",
  "id": 3269155961,
  "lat": 38.0532563,
  "lon": 23.8121283
},
{
  "type": "node",
  "id": 3269155962,
  "lat": 38.0532037,
  "lon": 23.8120990
},
{
  "type": "node",
  "id": 3269155963,
  "lat": 38.0532746,
  "lon": 23.8121346
},
{
  "type": "node",
  "id": 3269155964,
  "lat": 38.0532183,
  "lon": 23.8120579
},
{
  "type": "node",
  "id": 3269155965,
  "lat": 38.0531845,
  "lon": 23.8120888
},
{
  "type": "node",
  "id": 3269155966,
  "lat": 38.0531435,
  "lon": 23.8121965
},
{
  "type": "node",
  "id": 3269155968,
  "lat": 38.0532712,
  "lon": 23.8120831
},
{
  "type": "node",
  "id": 3269155969,
  "lat": 38.0532382,
  "lon": 23.8122475
},
{
  "type": "node",
  "id": 2178778443,
  "lat": 38.0428268,
  "lon": 23.8263250
},
{
  "type": "node",
  "id": 2178778446,
  "lat": 38.0430071,
  "lon": 23.8264023
},
{
  "type": "node",
  "id": 2178778448,
  "lat": 38.0430528,
  "lon": 23.8262304
},
{
  "type": "node",
  "id": 2178778449,
  "lat": 38.0428725,
  "lon": 23.8261531
},
{
  "type": "node",
  "id": 3029929799,
  "lat": 38.0712384,
  "lon": 23.8118641
},
{
  "type": "node",
  "id": 3029929800,
  "lat": 38.0712222,
  "lon": 23.8119938
},
{
  "type": "node",
  "id": 3029929801,
  "lat": 38.0711058,
  "lon": 23.8119702
},
{
  "type": "node",
  "id": 3029929802,
  "lat": 38.0711221,
  "lon": 23.8118405
},
{
  "type": "node",
  "id": 3069301076,
  "lat": 38.0745802,
  "lon": 23.8147664
},
{
  "type": "node",
  "id": 3069301077,
  "lat": 38.0740903,
  "lon": 23.8144339
},
{
  "type": "node",
  "id": 3072093445,
  "lat": 38.0740231,
  "lon": 23.8145936
},
{
  "type": "node",
  "id": 3072093446,
  "lat": 38.0745130,
  "lon": 23.8149261
},
{
  "type": "node",
  "id": 3368033093,
  "lat": 38.0714672,
  "lon": 23.8170250
},
{
  "type": "node",
  "id": 3368033094,
  "lat": 38.0713485,
  "lon": 23.8169701
},
{
  "type": "node",
  "id": 3368033095,
  "lat": 38.0713933,
  "lon": 23.8168192
},
{
  "type": "node",
  "id": 3368033096,
  "lat": 38.0715068,
  "lon": 23.8168762
},
{
  "type": "node",
  "id": 3082436949,
  "lat": 38.1042248,
  "lon": 23.7789319
},
{
  "type": "node",
  "id": 3082436958,
  "lat": 38.1046832,
  "lon": 23.7776916
},
{
  "type": "node",
  "id": 3083596822,
  "lat": 38.1043538,
  "lon": 23.7785828
},
{
  "type": "node",
  "id": 3083596824,
  "lat": 38.1046316,
  "lon": 23.7778313
},
{
  "type": "node",
  "id": 3083596826,
  "lat": 38.1049706,
  "lon": 23.7793771
},
{
  "type": "node",
  "id": 3085266892,
  "lat": 38.1046667,
  "lon": 23.7777361
},
{
  "type": "node",
  "id": 3082436977,
  "lat": 38.1062110,
  "lon": 23.7801174
},
{
  "type": "node",
  "id": 3082436984,
  "lat": 38.1066694,
  "lon": 23.7788771
},
{
  "type": "node",
  "id": 3083596831,
  "lat": 38.1066002,
  "lon": 23.7790642
},
{
  "type": "node",
  "id": 3278530780,
  "lat": 38.0884977,
  "lon": 23.8091790
},
{
  "type": "node",
  "id": 3278530781,
  "lat": 38.0884949,
  "lon": 23.8091510
},
{
  "type": "node",
  "id": 3278530782,
  "lat": 38.0885162,
  "lon": 23.8091476
},
{
  "type": "node",
  "id": 3278530783,
  "lat": 38.0885098,
  "lon": 23.8090811
},
{
  "type": "node",
  "id": 3278530784,
  "lat": 38.0884949,
  "lon": 23.8090834
},
{
  "type": "node",
  "id": 3278530785,
  "lat": 38.0884831,
  "lon": 23.8089619
},
{
  "type": "node",
  "id": 3278530786,
  "lat": 38.0883732,
  "lon": 23.8089792
},
{
  "type": "node",
  "id": 3278530787,
  "lat": 38.0883810,
  "lon": 23.8090598
},
{
  "type": "node",
  "id": 3278530788,
  "lat": 38.0883365,
  "lon": 23.8090668
},
{
  "type": "node",
  "id": 3278530789,
  "lat": 38.0883310,
  "lon": 23.8090102
},
{
  "type": "node",
  "id": 3278530790,
  "lat": 38.0882668,
  "lon": 23.8090203
},
{
  "type": "node",
  "id": 3278530791,
  "lat": 38.0882707,
  "lon": 23.8090602
},
{
  "type": "node",
  "id": 3278530792,
  "lat": 38.0881692,
  "lon": 23.8090761
},
{
  "type": "node",
  "id": 3278530793,
  "lat": 38.0881839,
  "lon": 23.8092279
},
{
  "type": "node",
  "id": 3278530794,
  "lat": 38.0882763,
  "lon": 23.8092134
},
{
  "type": "node",
  "id": 3278530796,
  "lat": 38.0883375,
  "lon": 23.8092270
},
{
  "type": "node",
  "id": 3278530797,
  "lat": 38.0883289,
  "lon": 23.8091383
},
{
  "type": "node",
  "id": 3278530798,
  "lat": 38.0883912,
  "lon": 23.8091285
},
{
  "type": "node",
  "id": 3278530799,
  "lat": 38.0883977,
  "lon": 23.8091947
},
{
  "type": "node",
  "id": 3278530795,
  "lat": 38.0882785,
  "lon": 23.8092363
},
{
  "type": "node",
  "id": 2893467587,
  "lat": 38.1668287,
  "lon": 23.9059496
},
{
  "type": "node",
  "id": 2893467589,
  "lat": 38.1669162,
  "lon": 23.9059915
},
{
  "type": "node",
  "id": 3697138765,
  "lat": 38.1668803,
  "lon": 23.9061126
},
{
  "type": "node",
  "id": 3697138766,
  "lat": 38.1667928,
  "lon": 23.9060707
},
{
  "type": "node",
  "id": 3269194235,
  "lat": 37.9245188,
  "lon": 23.9972447
},
{
  "type": "node",
  "id": 3269194236,
  "lat": 37.9245404,
  "lon": 23.9972895
},
{
  "type": "node",
  "id": 3269194237,
  "lat": 37.9243749,
  "lon": 23.9973627
},
{
  "type": "node",
  "id": 3269194238,
  "lat": 37.9247541,
  "lon": 23.9971125
},
{
  "type": "node",
  "id": 3269194239,
  "lat": 37.9244659,
  "lon": 23.9969765
},
{
  "type": "node",
  "id": 3269194240,
  "lat": 37.9248133,
  "lon": 23.9970025
},
{
  "type": "node",
  "id": 3269194241,
  "lat": 37.9247392,
  "lon": 23.9970669
},
{
  "type": "node",
  "id": 3269194242,
  "lat": 37.9242860,
  "lon": 23.9971937
},
{
  "type": "node",
  "id": 3269194243,
  "lat": 37.9246986,
  "lon": 23.9967780
},
{
  "type": "node",
  "id": 3269194244,
  "lat": 37.9244934,
  "lon": 23.9970328
},
{
  "type": "node",
  "id": 3278450976,
  "lat": 38.1220625,
  "lon": 23.9466798
},
{
  "type": "node",
  "id": 3278450977,
  "lat": 38.1219661,
  "lon": 23.9467453
},
{
  "type": "node",
  "id": 3278450978,
  "lat": 38.1219761,
  "lon": 23.9467686
},
{
  "type": "node",
  "id": 3278450979,
  "lat": 38.1219578,
  "lon": 23.9467792
},
{
  "type": "node",
  "id": 3278450980,
  "lat": 38.1219694,
  "lon": 23.9468151
},
{
  "type": "node",
  "id": 3278450981,
  "lat": 38.1219462,
  "lon": 23.9468341
},
{
  "type": "node",
  "id": 3278450982,
  "lat": 38.1219312,
  "lon": 23.9468045
},
{
  "type": "node",
  "id": 3278450983,
  "lat": 38.1218963,
  "lon": 23.9468235
},
{
  "type": "node",
  "id": 3278450984,
  "lat": 38.1218813,
  "lon": 23.9467918
},
{
  "type": "node",
  "id": 3278450985,
  "lat": 38.1218531,
  "lon": 23.9468109
},
{
  "type": "node",
  "id": 3278450986,
  "lat": 38.1217733,
  "lon": 23.9466312
},
{
  "type": "node",
  "id": 3278450987,
  "lat": 38.1218148,
  "lon": 23.9466038
},
{
  "type": "node",
  "id": 3278450988,
  "lat": 38.1217988,
  "lon": 23.9465608
},
{
  "type": "node",
  "id": 3278450990,
  "lat": 38.1218597,
  "lon": 23.9465298
},
{
  "type": "node",
  "id": 3278450993,
  "lat": 38.1219728,
  "lon": 23.9464622
},
{
  "type": "node",
  "id": 6363727256,
  "lat": 38.0870147,
  "lon": 23.9752213
},
{
  "type": "node",
  "id": 6363727257,
  "lat": 38.0870470,
  "lon": 23.9753719
},
{
  "type": "node",
  "id": 6363727258,
  "lat": 38.0867948,
  "lon": 23.9754593
},
{
  "type": "node",
  "id": 6363727259,
  "lat": 38.0867624,
  "lon": 23.9753087
},
{
  "type": "node",
  "id": 5702671133,
  "lat": 38.3264613,
  "lon": 23.5389400
},
{
  "type": "node",
  "id": 5702671134,
  "lat": 38.3263510,
  "lon": 23.5387607
},
{
  "type": "node",
  "id": 5702671135,
  "lat": 38.3261952,
  "lon": 23.5389455
},
{
  "type": "node",
  "id": 5702671136,
  "lat": 38.3263250,
  "lon": 23.5390668
},
{
  "type": "node",
  "id": 3228958520,
  "lat": 38.2322594,
  "lon": 23.8698395
},
{
  "type": "node",
  "id": 3228958521,
  "lat": 38.2319390,
  "lon": 23.8692356
},
{
  "type": "node",
  "id": 3228958522,
  "lat": 38.2318387,
  "lon": 23.8693218
},
{
  "type": "node",
  "id": 3228958523,
  "lat": 38.2319462,
  "lon": 23.8695245
},
{
  "type": "node",
  "id": 3228958524,
  "lat": 38.2318889,
  "lon": 23.8695738
},
{
  "type": "node",
  "id": 3228958525,
  "lat": 38.2317428,
  "lon": 23.8692982
},
{
  "type": "node",
  "id": 3228958526,
  "lat": 38.2316123,
  "lon": 23.8694103
},
{
  "type": "node",
  "id": 3228958527,
  "lat": 38.2316232,
  "lon": 23.8694310
},
{
  "type": "node",
  "id": 3228958528,
  "lat": 38.2313365,
  "lon": 23.8696775
},
{
  "type": "node",
  "id": 3228958529,
  "lat": 38.2315832,
  "lon": 23.8701425
},
{
  "type": "node",
  "id": 3228958530,
  "lat": 38.2317531,
  "lon": 23.8699964
},
{
  "type": "node",
  "id": 3228958531,
  "lat": 38.2316435,
  "lon": 23.8697898
},
{
  "type": "node",
  "id": 3228958532,
  "lat": 38.2316694,
  "lon": 23.8697675
},
{
  "type": "node",
  "id": 3228958533,
  "lat": 38.2316402,
  "lon": 23.8697125
},
{
  "type": "node",
  "id": 3228958534,
  "lat": 38.2316603,
  "lon": 23.8696952
},
{
  "type": "node",
  "id": 3228958535,
  "lat": 38.2316761,
  "lon": 23.8697249
},
{
  "type": "node",
  "id": 3228958536,
  "lat": 38.2317373,
  "lon": 23.8696723
},
{
  "type": "node",
  "id": 3228958537,
  "lat": 38.2317207,
  "lon": 23.8696410
},
{
  "type": "node",
  "id": 3228958538,
  "lat": 38.2317695,
  "lon": 23.8695991
},
{
  "type": "node",
  "id": 3228958539,
  "lat": 38.2320105,
  "lon": 23.8700534
},
{
  "type": "node",
  "id": 3368089011,
  "lat": 38.2667476,
  "lon": 23.8341858
},
{
  "type": "node",
  "id": 3368089012,
  "lat": 38.2665349,
  "lon": 23.8344863
},
{
  "type": "node",
  "id": 3368089013,
  "lat": 38.2667350,
  "lon": 23.8347142
},
{
  "type": "node",
  "id": 3368089014,
  "lat": 38.2669498,
  "lon": 23.8344165
},
{
  "type": "node",
  "id": 3281305161,
  "lat": 38.2219360,
  "lon": 23.9201017
},
{
  "type": "node",
  "id": 3281305162,
  "lat": 38.2219686,
  "lon": 23.9201373
},
{
  "type": "node",
  "id": 3281305163,
  "lat": 38.2218925,
  "lon": 23.9202505
},
{
  "type": "node",
  "id": 3281305164,
  "lat": 38.2218598,
  "lon": 23.9202148
},
{
  "type": "node",
  "id": 3281325898,
  "lat": 38.2220014,
  "lon": 23.9201730
},
{
  "type": "node",
  "id": 3281325899,
  "lat": 38.2219253,
  "lon": 23.9202862
},
{
  "type": "way",
  "id": 39857610,
  "nodes": [
    3003479504,
    3003479509,
    3736375188,
    822826333,
    477909888,
    3003479510,
    3003479513,
    3003479512,
    3736375187,
    477909903,
    822825985,
    822825899,
    822826132,
    3003479505,
    3003479504
  ]
},
{
  "type": "way",
  "id": 451636890,
  "nodes": [
    4484599406,
    4484599407,
    4484599408,
    4484599409,
    4484599410,
    4484599411,
    4484599412,
    4484599413,
    4484599406
  ]
},
{
  "type": "way",
  "id": 182372766,
  "nodes": [
    1927169557,
    2269326098,
    1927169553,
    1927169535,
    1927169539,
    1927169548,
    2269326097,
    1927169557
  ]
},
{
  "type": "way",
  "id": 217531414,
  "nodes": [
    1927169544,
    1927169552,
    2268136119,
    2268136118,
    1927169544
  ]
},
{
  "type": "way",
  "id": 763211246,
  "nodes": [
    7131813684,
    7131818691,
    7131833380
  ]
},
{
  "type": "way",
  "id": 763212814,
  "nodes": [
    7131833380,
    7131813683,
    7131813682,
    7131813681,
    7131813680,
    7131818690,
    7131813679,
    7131813678,
    7131813677,
    7131818688,
    7131813624
  ]
},
{
  "type": "way",
  "id": 763212820,
  "nodes": [
    7131813624,
    7131813607,
    7131813625
  ]
},
{
  "type": "way",
  "id": 763212824,
  "nodes": [
    7131833379,
    7131813673,
    7131813672,
    7131813671,
    7131813670,
    7131818692,
    7131813669,
    7131813668,
    7131813667,
    7131818686,
    7131818685,
    7131813666,
    7131813665,
    7131813684
  ]
},
{
  "type": "way",
  "id": 763212827,
  "nodes": [
    7131813625,
    7131818687,
    7131813676,
    7131813675,
    7131813674,
    7131818689,
    7131833379
  ]
},
{
  "type": "way",
  "id": 765856232,
  "nodes": [
    7152734831,
    7152734830,
    7152734829,
    7152734835,
    7152734836,
    7152734828,
    7152734827,
    7152734826,
    7152734825,
    7152734837,
    7152734318,
    7152734319,
    7152734323,
    7152734834,
    7152734824,
    7152734823,
    7152734822,
    7152734832,
    7152733469,
    7152734833,
    7152734831
  ]
},
{
  "type": "way",
  "id": 10741857,
  "nodes": [
    95665124,
    961530667,
    961530740,
    3229545643,
    961530547,
    961530631,
    95665127,
    961530628,
    961530756,
    961530497,
    961530580,
    3005463591,
    961530648,
    961530794,
    961530532,
    961530617,
    95665158,
    95665159,
    95665161,
    961530679,
    961530478,
    961530509,
    961530765,
    95665162,
    95665164,
    95665179,
    961530584,
    961530655,
    961530705,
    961530513,
    961530598,
    961530762,
    961530726,
    961530686,
    95665124
  ]
},
{
  "type": "way",
  "id": 10741858,
  "nodes": [
    95665180,
    95665183,
    961530714,
    961530538,
    961530627,
    961530799,
    95665182,
    95665181,
    961530490,
    961530754,
    95665180
  ]
},
{
  "type": "way",
  "id": 10741859,
  "nodes": [
    95665184,
    95665191,
    95665187,
    961530723,
    961530583,
    961530503,
    961530545,
    95665186,
    961530683,
    961530761,
    95665184
  ]
},
{
  "type": "way",
  "id": 10741860,
  "nodes": [
    95665192,
    961530565,
    95665205,
    95665203,
    95665194,
    961530646,
    95665192
  ]
},
{
  "type": "way",
  "id": 10741861,
  "nodes": [
    95665207,
    95665211,
    961530752,
    961530615,
    961530477,
    961530531,
    961530792,
    961530709,
    95665209,
    95665208,
    95665207
  ]
}

  ]
}
