{
  "version": 0.6,
  "generator": "Overpass API 0.7.55.9 ab41fea6",
  "osm3s": {
    "timestamp_osm_base": "2020-02-14T15:59:02Z",
    "copyright": "The data included in this document is from www.openstreetmap.org. The data is made available under ODbL."
  },
  "elements": [

{
  "type": "node",
  "id": 357521683,
  "lat": 48.9566927,
  "lon": 18.5170463,
  "tags": {
    "is_in": "Čičmany",
    "name": "Múzeum ľudového umenia v Čičmanoch",
    "operator": "Považské múzeum Žilina",
    "tourism": "museum"
  }
},
{
  "type": "node",
  "id": 1734924211,
  "lat": 49.0639088,
  "lon": 18.9284292,
  "tags": {
    "is_in": "Martin",
    "name": "Etnografické múzeum",
    "name:cs": "Etnografické muzeum",
    "opening_hours": "Tu-Fr 09:00-17:00; Sa-Su 10:00-18:00",
    "tourism": "museum",
    "wikidata": "Q12765499"
  }
},
{
  "type": "node",
  "id": 1770424995,
  "lat": 48.9866216,
  "lon": 18.9662625,
  "tags": {
    "name": "Obecná múzeum Notariát",
    "tourism": "museum"
  }
},
{
  "type": "node",
  "id": 1947765328,
  "lat": 49.3836701,
  "lon": 19.0983842,
  "tags": {
    "name": "Múzeum Kysuckej dediny",
    "tourism": "museum",
    "wheelchair": "limited"
  }
},
{
  "type": "node",
  "id": 1963755946,
  "lat": 49.4399725,
  "lon": 18.7895543,
  "tags": {
    "email": "kysuckemuzeum@vuczilina.sk",
    "name": "Kysucké múzeum",
    "opening_hours": "Mo-Fr 08:00-16:30; Su 10:00-16:00; PH closed",
    "operator": "Žilinský samosprávny kraj",
    "tourism": "museum",
    "website": "https://www.kysuckemuzeum.sk/kysucke-muzeum-cadca"
  }
},
{
  "type": "node",
  "id": 3395979697,
  "lat": 49.1134085,
  "lon": 18.4453272,
  "tags": {
    "name": "Vlastivedné múzeum",
    "tourism": "museum"
  }
},
{
  "type": "node",
  "id": 3637368548,
  "lat": 49.0638072,
  "lon": 18.3283643,
  "tags": {
    "name": "Izba ľudových tradícii",
    "tourism": "museum"
  }
},
{
  "type": "node",
  "id": 4307003393,
  "lat": 49.1066414,
  "lon": 19.0359776,
  "tags": {
    "name": "Múzeum Turany",
    "tourism": "museum"
  }
},
{
  "type": "node",
  "id": 4357306301,
  "lat": 49.1292730,
  "lon": 18.6788047,
  "tags": {
    "addr:city": "Rajecké Teplice",
    "addr:conscriptionnumber": "189",
    "addr:housenumber": "189",
    "addr:postcode": "01313",
    "addr:street": "Kúpeľný park",
    "charge": "2 EUR",
    "email": "rajteplice@pmza.sk",
    "fee": "yes",
    "name": "Múzeum dopravy",
    "opening_hours": "Tu-Su 09:30-12:00,12:30-16:30",
    "phone": "0905602582",
    "tourism": "museum",
    "website": "http://www.pmza.sk/muzeum-dopravy"
  }
},
{
  "type": "node",
  "id": 4367206995,
  "lat": 49.0653651,
  "lon": 18.9200575,
  "tags": {
    "addr:postcode": "03601",
    "email": "muzeumandrejakmeta@snm.sk",
    "name": "Múzeum Andreja Kmeťa",
    "name:sk": "Múzeum Andreja Kmeťa",
    "phone": "0432455113",
    "tourism": "museum",
    "website": "https://www.snm.sk/"
  }
},
{
  "type": "node",
  "id": 4367304189,
  "lat": 49.0669567,
  "lon": 18.9229296,
  "tags": {
    "addr:housenumber": "11",
    "addr:postcode": "03601",
    "addr:street": "M. R. Štefánika",
    "email": "literarne.muzeum@snk.sk",
    "name": "SNK - Literárne múzeum",
    "name:sk": "SNK - Literárne múzeum",
    "opening_hours": "Tu-Sa 08:00-16:00",
    "phone": "0432451610",
    "tourism": "museum",
    "website": "http://www.snk.sk"
  }
},
{
  "type": "node",
  "id": 4367330890,
  "lat": 49.2232153,
  "lon": 18.7415368,
  "tags": {
    "email": "alexanderlombardini@gmail.com",
    "name": "Dom \"Lombardini\"",
    "name:sk": "Dom \"Lombardini\"",
    "opening_hours": "Mo-Fr 09:00-16:00; Sa 09:00-12:00",
    "phone": "0910962088",
    "tourism": "museum",
    "website": "http://www.factanonverba.sk"
  }
},
{
  "type": "node",
  "id": 4367331093,
  "lat": 49.2236003,
  "lon": 18.7447248,
  "tags": {
    "addr:housenumber": "15",
    "addr:postcode": "01001",
    "addr:street": "Daniela Dlabača",
    "email": "zilina@kehilazilina.sk",
    "name": "Múzeum židovskej kultúry",
    "name:sk": "Múzeum židovskej kultúry",
    "opening_hours": "Fr 15:30-17:30; Su 14:30-17:30",
    "phone": "0908694333",
    "tourism": "museum",
    "website": "http://www.kehilazilina.sk"
  }
},
{
  "type": "node",
  "id": 4397892269,
  "lat": 49.0630525,
  "lon": 18.9459255,
  "tags": {
    "name": "Open Air Aircraft collection",
    "tourism": "museum"
  }
},
{
  "type": "node",
  "id": 4931598467,
  "lat": 49.0550511,
  "lon": 19.0178034,
  "tags": {
    "name": "Múzeum hradu Sklabiňa",
    "tourism": "museum"
  }
},
{
  "type": "node",
  "id": 5063408645,
  "lat": 49.2526349,
  "lon": 18.6978105,
  "tags": {
    "name": "Kaštieľ v Divinke",
    "opening_hours": "closed",
    "tourism": "museum"
  }
},
{
  "type": "node",
  "id": 5079212518,
  "lat": 49.1052588,
  "lon": 18.9428387,
  "tags": {
    "email": "muzeum@hasicskemuzeum.sk",
    "name": "Hasičské múzeum",
    "opening_hours": "May-Oct: Tu-Su 11:00-15:00",
    "phone": "+421 910 902 408",
    "tourism": "museum",
    "website": "http://www.priekopa.sk/muzeum"
  }
},
{
  "type": "node",
  "id": 5079212519,
  "lat": 49.1060315,
  "lon": 18.9469908,
  "tags": {
    "name": "Železničné múzeum",
    "phone": "+421 902 174 621",
    "tourism": "museum",
    "website": "http://kzmvrutky.eu/expozicia-sim/"
  }
},
{
  "type": "node",
  "id": 5445557916,
  "lat": 49.1197798,
  "lon": 18.3252073,
  "tags": {
    "name": "Mestské archeologické múzeum - Múzeum púchovskej kultúry",
    "opening_hours": "Fr 08:00-11:00",
    "phone": "+421424635538",
    "tourism": "museum",
    "website": "http://www.visitpuchov.sk/sk/register/mestske-archeologicke-muzeum-muzeum-puchovskej-kultury"
  }
},
{
  "type": "node",
  "id": 5486728138,
  "lat": 49.0858689,
  "lon": 19.0257302,
  "tags": {
    "name": "Expozicia MLŽ",
    "tourism": "museum"
  }
},
{
  "type": "node",
  "id": 5486740987,
  "lat": 49.0825593,
  "lon": 19.0205331,
  "tags": {
    "name": "Expozícia zvonov",
    "tourism": "museum"
  }
},
{
  "type": "node",
  "id": 5486765856,
  "lat": 49.0816651,
  "lon": 19.0198037,
  "tags": {
    "name": "Rodný dom Jána Kostru",
    "tourism": "museum"
  }
},
{
  "type": "node",
  "id": 5629521818,
  "lat": 49.1746381,
  "lon": 18.8611369,
  "tags": {
    "name": "Považské múzeum",
    "tourism": "museum"
  }
},
{
  "type": "node",
  "id": 6039324780,
  "lat": 49.2362693,
  "lon": 18.7349751,
  "tags": {
    "name": "Považské múzeum",
    "name:cs": "Povážské muzeum",
    "tourism": "museum",
    "wikidata": "Q12774295"
  }
},
{
  "type": "node",
  "id": 6437087994,
  "lat": 49.3949948,
  "lon": 18.8301721,
  "tags": {
    "name": "Vlastivedné múzeum",
    "tourism": "museum"
  }
},
{
  "type": "node",
  "id": 6452904961,
  "lat": 49.0152803,
  "lon": 18.5244673,
  "tags": {
    "museum": "apis mellifera",
    "name": "Včelársky skanzen",
    "tourism": "museum"
  }
},
{
  "type": "node",
  "id": 6507947261,
  "lat": 49.4038299,
  "lon": 18.6247578,
  "tags": {
    "name": "Mestské múzeum Karola Točíka",
    "operator": "Mesto Turzovka",
    "tourism": "museum"
  }
},
{
  "type": "way",
  "id": 79901330,
  "nodes": [
    932738557,
    932738558,
    932738560,
    1918381192,
    932738561,
    932738557
  ],
  "tags": {
    "building": "yes",
    "building:material": "wood",
    "historic:amenity": "school",
    "import": "budovy201004drev",
    "name": "Historická škola",
    "official_name": "Múzeum Historická škola v Brvništi - Dom tvorivosti, zručnosti a tradičných remesiel",
    "source": "kapor2",
    "tourism": "museum"
  }
},
{
  "type": "way",
  "id": 162759140,
  "nodes": [
    1745884091,
    1745884009,
    1745884024,
    1745884101,
    1745884091
  ],
  "tags": {
    "building": "yes",
    "name": "Múzeum",
    "source": "kapor2",
    "tourism": "museum"
  }
},
{
  "type": "way",
  "id": 181796854,
  "nodes": [
    1922072475,
    1922072471,
    1922072462,
    1922072444,
    1922072434,
    1922072481,
    1922072483,
    1922072489,
    1922072503,
    1922072513,
    1922072515,
    1922072505,
    1922072493,
    1922072485,
    1922072487,
    1922072495,
    1922072475
  ],
  "tags": {
    "building": "yes",
    "name": "Múzeum Karola Plicku",
    "source": "kapor2",
    "tourism": "museum"
  }
},
{
  "type": "way",
  "id": 238234148,
  "nodes": [
    2460800719,
    2460800692,
    2460800702,
    2460800669,
    2460800642,
    2460800654,
    2460800652,
    2460800662,
    2460800663,
    2460800676,
    2460800684,
    2460800701,
    2460800719
  ],
  "tags": {
    "addr:city": "Radoľa",
    "addr:conscriptionnumber": "103",
    "addr:country": "SK",
    "addr:housenumber": "103",
    "addr:place": "Radoľa",
    "building": "yes",
    "name": "Kaštieľ Radoľa",
    "opening_hours": "Mo-Fr 08:00-16:00, Su 10:00-16:00",
    "operator": "Kysucké múzeum v Čadci",
    "source": "kapor2",
    "source:conscriptionnumber": "kapor2",
    "tourism": "museum",
    "website": "https://www.kysuckemuzeum.sk/kastiel-radola"
  }
},
{
  "type": "way",
  "id": 245046570,
  "nodes": [
    1727793557,
    2523053497,
    2523053414,
    2523053453,
    1727793557
  ],
  "tags": {
    "addr:city": "Martin",
    "addr:conscriptionnumber": "524",
    "addr:country": "SK",
    "addr:housenumber": "524/34",
    "addr:street": "Kuzmányho",
    "addr:streetnumber": "34",
    "building": "yes",
    "name": "Múzeum Martina Benku",
    "opening_hours": "Tu-Fr 09:00-12:00,12:30-16:00; Sa 10:00-12:00,12:30-18:00",
    "source": "kapor2",
    "tourism": "museum",
    "website": "https://www.snm.sk/?muzeum-martina-benku-uvodna-stranka",
    "wheelchair": "no"
  }
},
{
  "type": "way",
  "id": 293946286,
  "nodes": [
    2975231139,
    5629524019,
    2975231137,
    2975231138,
    2975231140,
    2975231141,
    5629523766,
    5629523761,
    5629523763,
    5629523764,
    5629523762,
    5629523765,
    2975231143,
    2975231142,
    5629523752,
    2975231139
  ],
  "tags": {
    "name": "Stredoveká dedina",
    "source": "survey",
    "tourism": "museum"
  }
},
{
  "type": "way",
  "id": 318759584,
  "nodes": [
    3251294779,
    3251294792,
    3251294566,
    3251294554,
    3251294623,
    3251294779
  ],
  "tags": {
    "building": "yes",
    "name": "Rodný dom Jozefa Tisa",
    "source": "kapor2",
    "tourism": "museum"
  }
},
{
  "type": "way",
  "id": 440068506,
  "nodes": [
    4854239161,
    4377721478,
    1752665624,
    4380976427,
    4375877523,
    4375877524,
    4375877525,
    4375877533,
    4375877534,
    4375877535,
    4377721481,
    4377721482,
    4375877990,
    4375877989,
    4375877988,
    4375877987,
    4375877986,
    4375877985,
    4375877984,
    5334913992,
    4375877982,
    4375878005,
    4377721483,
    4377721484,
    4380976428,
    4377721657,
    4377721486,
    1242243976,
    1242260865,
    1242254094,
    1242271024,
    1242268842,
    1242235738,
    4375877971,
    3739308787,
    4377721487,
    4377721488,
    4375877972,
    1242249696,
    4375877973,
    1242242667,
    5334941829,
    4854239168,
    4308471445,
    1242234780,
    4380976425,
    4854239167,
    4377669817,
    4854239166,
    4854239165,
    4854320302,
    4854239162,
    4854239161
  ],
  "tags": {
    "addr:street": "Jahodnícke háje",
    "email": "msd@snm.sk",
    "name": "Múzeum slovenskej dediny",
    "name:sk": "Múzeum slovenskej dediny Martin - Jahodnícke háje",
    "operator": "Slovenské národné múzeum v Martine",
    "phone": "+421432458111",
    "tourism": "museum",
    "website": "http://www.skanzenmartin.sk"
  }
},
{
  "type": "node",
  "id": 1745884009,
  "lat": 49.0739700,
  "lon": 18.4548769
},
{
  "type": "node",
  "id": 1745884024,
  "lat": 49.0740006,
  "lon": 18.4548374
},
{
  "type": "node",
  "id": 932738557,
  "lat": 49.2108963,
  "lon": 18.4291913
},
{
  "type": "node",
  "id": 932738558,
  "lat": 49.2108777,
  "lon": 18.4289737
},
{
  "type": "node",
  "id": 932738560,
  "lat": 49.2109727,
  "lon": 18.4289607
},
{
  "type": "node",
  "id": 932738561,
  "lat": 49.2109891,
  "lon": 18.4291776
},
{
  "type": "node",
  "id": 1918381192,
  "lat": 49.2109807,
  "lon": 18.4290660
},
{
  "type": "node",
  "id": 1745884091,
  "lat": 49.0740625,
  "lon": 18.4550424
},
{
  "type": "node",
  "id": 1745884101,
  "lat": 49.0740886,
  "lon": 18.4550018
},
{
  "type": "node",
  "id": 1922072434,
  "lat": 48.9377265,
  "lon": 18.9267594
},
{
  "type": "node",
  "id": 1922072481,
  "lat": 48.9378204,
  "lon": 18.9267444
},
{
  "type": "node",
  "id": 1922072444,
  "lat": 48.9377401,
  "lon": 18.9269837
},
{
  "type": "node",
  "id": 1922072462,
  "lat": 48.9377904,
  "lon": 18.9269757
},
{
  "type": "node",
  "id": 1922072471,
  "lat": 48.9378060,
  "lon": 18.9270354
},
{
  "type": "node",
  "id": 1922072475,
  "lat": 48.9378119,
  "lon": 18.9270424
},
{
  "type": "node",
  "id": 1922072483,
  "lat": 48.9378262,
  "lon": 18.9268366
},
{
  "type": "node",
  "id": 1922072485,
  "lat": 48.9378282,
  "lon": 18.9268762
},
{
  "type": "node",
  "id": 1922072487,
  "lat": 48.9378341,
  "lon": 18.9269691
},
{
  "type": "node",
  "id": 1922072489,
  "lat": 48.9378372,
  "lon": 18.9268294
},
{
  "type": "node",
  "id": 1922072493,
  "lat": 48.9378408,
  "lon": 18.9268807
},
{
  "type": "node",
  "id": 1922072495,
  "lat": 48.9378421,
  "lon": 18.9269926
},
{
  "type": "node",
  "id": 1922072503,
  "lat": 48.9378452,
  "lon": 18.9268319
},
{
  "type": "node",
  "id": 1922072505,
  "lat": 48.9378485,
  "lon": 18.9268763
},
{
  "type": "node",
  "id": 1922072513,
  "lat": 48.9378524,
  "lon": 18.9268407
},
{
  "type": "node",
  "id": 1922072515,
  "lat": 48.9378536,
  "lon": 18.9268646
},
{
  "type": "node",
  "id": 1242234780,
  "lat": 49.0372954,
  "lon": 18.9258962
},
{
  "type": "node",
  "id": 4380976425,
  "lat": 49.0370651,
  "lon": 18.9266305
},
{
  "type": "node",
  "id": 1752665624,
  "lat": 49.0363738,
  "lon": 18.9303655
},
{
  "type": "node",
  "id": 4375877523,
  "lat": 49.0372995,
  "lon": 18.9309221
},
{
  "type": "node",
  "id": 4377669817,
  "lat": 49.0369162,
  "lon": 18.9271567
},
{
  "type": "node",
  "id": 4377721478,
  "lat": 49.0363238,
  "lon": 18.9302567
},
{
  "type": "node",
  "id": 4380976427,
  "lat": 49.0365144,
  "lon": 18.9306716
},
{
  "type": "node",
  "id": 4854239161,
  "lat": 49.0360227,
  "lon": 18.9295654
},
{
  "type": "node",
  "id": 4854239162,
  "lat": 49.0360907,
  "lon": 18.9292906
},
{
  "type": "node",
  "id": 4854239165,
  "lat": 49.0366558,
  "lon": 18.9278614
},
{
  "type": "node",
  "id": 4854239166,
  "lat": 49.0367670,
  "lon": 18.9276282
},
{
  "type": "node",
  "id": 4854239167,
  "lat": 49.0369712,
  "lon": 18.9269318
},
{
  "type": "node",
  "id": 4854320302,
  "lat": 49.0366871,
  "lon": 18.9279320
},
{
  "type": "node",
  "id": 1242242667,
  "lat": 49.0375115,
  "lon": 18.9249750
},
{
  "type": "node",
  "id": 1242249696,
  "lat": 49.0380034,
  "lon": 18.9249210
},
{
  "type": "node",
  "id": 3739308787,
  "lat": 49.0389021,
  "lon": 18.9252474
},
{
  "type": "node",
  "id": 4308471445,
  "lat": 49.0373684,
  "lon": 18.9255708
},
{
  "type": "node",
  "id": 4375877971,
  "lat": 49.0388921,
  "lon": 18.9258955
},
{
  "type": "node",
  "id": 4375877972,
  "lat": 49.0384950,
  "lon": 18.9250647
},
{
  "type": "node",
  "id": 4375877973,
  "lat": 49.0376602,
  "lon": 18.9249933
},
{
  "type": "node",
  "id": 4377721487,
  "lat": 49.0388699,
  "lon": 18.9250669
},
{
  "type": "node",
  "id": 4377721488,
  "lat": 49.0386440,
  "lon": 18.9251055
},
{
  "type": "node",
  "id": 4854239168,
  "lat": 49.0374042,
  "lon": 18.9253684
},
{
  "type": "node",
  "id": 5334941829,
  "lat": 49.0374910,
  "lon": 18.9250502
},
{
  "type": "node",
  "id": 1727793557,
  "lat": 49.0676476,
  "lon": 18.9188157
},
{
  "type": "node",
  "id": 2523053414,
  "lat": 49.0675096,
  "lon": 18.9190499
},
{
  "type": "node",
  "id": 2523053453,
  "lat": 49.0675456,
  "lon": 18.9187826
},
{
  "type": "node",
  "id": 2523053497,
  "lat": 49.0676127,
  "lon": 18.9190826
},
{
  "type": "node",
  "id": 1242235738,
  "lat": 49.0389910,
  "lon": 18.9268495
},
{
  "type": "node",
  "id": 1242243976,
  "lat": 49.0398768,
  "lon": 18.9280900
},
{
  "type": "node",
  "id": 1242254094,
  "lat": 49.0394124,
  "lon": 18.9282265
},
{
  "type": "node",
  "id": 1242260865,
  "lat": 49.0396157,
  "lon": 18.9282525
},
{
  "type": "node",
  "id": 1242268842,
  "lat": 49.0390326,
  "lon": 18.9272766
},
{
  "type": "node",
  "id": 1242271024,
  "lat": 49.0392178,
  "lon": 18.9277749
},
{
  "type": "node",
  "id": 4375877524,
  "lat": 49.0374641,
  "lon": 18.9311255
},
{
  "type": "node",
  "id": 4375877525,
  "lat": 49.0377173,
  "lon": 18.9314044
},
{
  "type": "node",
  "id": 4375877533,
  "lat": 49.0378022,
  "lon": 18.9314404
},
{
  "type": "node",
  "id": 4375877534,
  "lat": 49.0379986,
  "lon": 18.9312328
},
{
  "type": "node",
  "id": 4375877535,
  "lat": 49.0380408,
  "lon": 18.9313830
},
{
  "type": "node",
  "id": 4375877982,
  "lat": 49.0398604,
  "lon": 18.9298077
},
{
  "type": "node",
  "id": 4375877984,
  "lat": 49.0397775,
  "lon": 18.9308703
},
{
  "type": "node",
  "id": 4375877985,
  "lat": 49.0397649,
  "lon": 18.9311325
},
{
  "type": "node",
  "id": 4375877986,
  "lat": 49.0397686,
  "lon": 18.9313842
},
{
  "type": "node",
  "id": 4375877987,
  "lat": 49.0397471,
  "lon": 18.9317069
},
{
  "type": "node",
  "id": 4375877988,
  "lat": 49.0395548,
  "lon": 18.9320267
},
{
  "type": "node",
  "id": 4375877989,
  "lat": 49.0392335,
  "lon": 18.9322414
},
{
  "type": "node",
  "id": 4375877990,
  "lat": 49.0388834,
  "lon": 18.9322675
},
{
  "type": "node",
  "id": 4375878005,
  "lat": 49.0398744,
  "lon": 18.9296030
},
{
  "type": "node",
  "id": 4377721481,
  "lat": 49.0380284,
  "lon": 18.9317121
},
{
  "type": "node",
  "id": 4377721482,
  "lat": 49.0385470,
  "lon": 18.9321693
},
{
  "type": "node",
  "id": 4377721483,
  "lat": 49.0404770,
  "lon": 18.9288474
},
{
  "type": "node",
  "id": 4377721484,
  "lat": 49.0408783,
  "lon": 18.9278183
},
{
  "type": "node",
  "id": 4377721486,
  "lat": 49.0407754,
  "lon": 18.9273021
},
{
  "type": "node",
  "id": 4377721657,
  "lat": 49.0408876,
  "lon": 18.9276387
},
{
  "type": "node",
  "id": 4380976428,
  "lat": 49.0409040,
  "lon": 18.9276880
},
{
  "type": "node",
  "id": 5334913992,
  "lat": 49.0398306,
  "lon": 18.9303075
},
{
  "type": "node",
  "id": 3251294554,
  "lat": 49.2220505,
  "lon": 18.5578674
},
{
  "type": "node",
  "id": 3251294566,
  "lat": 49.2220643,
  "lon": 18.5579344
},
{
  "type": "node",
  "id": 3251294623,
  "lat": 49.2221263,
  "lon": 18.5578319
},
{
  "type": "node",
  "id": 3251294779,
  "lat": 49.2221747,
  "lon": 18.5578090
},
{
  "type": "node",
  "id": 3251294792,
  "lat": 49.2221889,
  "lon": 18.5578830
},
{
  "type": "node",
  "id": 2975231137,
  "lat": 49.1753158,
  "lon": 18.8617748
},
{
  "type": "node",
  "id": 2975231138,
  "lat": 49.1757320,
  "lon": 18.8620671
},
{
  "type": "node",
  "id": 2975231139,
  "lat": 49.1757773,
  "lon": 18.8616823
},
{
  "type": "node",
  "id": 2975231140,
  "lat": 49.1758586,
  "lon": 18.8622787
},
{
  "type": "node",
  "id": 2975231141,
  "lat": 49.1760234,
  "lon": 18.8623372
},
{
  "type": "node",
  "id": 2975231142,
  "lat": 49.1760970,
  "lon": 18.8619824
},
{
  "type": "node",
  "id": 2975231143,
  "lat": 49.1761352,
  "lon": 18.8620716
},
{
  "type": "node",
  "id": 5629523752,
  "lat": 49.1759550,
  "lon": 18.8618289
},
{
  "type": "node",
  "id": 5629523761,
  "lat": 49.1760782,
  "lon": 18.8621380
},
{
  "type": "node",
  "id": 5629523762,
  "lat": 49.1760957,
  "lon": 18.8621119
},
{
  "type": "node",
  "id": 5629523763,
  "lat": 49.1760392,
  "lon": 18.8621072
},
{
  "type": "node",
  "id": 5629523764,
  "lat": 49.1760536,
  "lon": 18.8620837
},
{
  "type": "node",
  "id": 5629523765,
  "lat": 49.1761264,
  "lon": 18.8621031
},
{
  "type": "node",
  "id": 5629523766,
  "lat": 49.1760913,
  "lon": 18.8621715
},
{
  "type": "node",
  "id": 5629524019,
  "lat": 49.1753921,
  "lon": 18.8613421
},
{
  "type": "node",
  "id": 2460800642,
  "lat": 49.2953390,
  "lon": 18.7880614
},
{
  "type": "node",
  "id": 2460800652,
  "lat": 49.2953591,
  "lon": 18.7880344
},
{
  "type": "node",
  "id": 2460800654,
  "lat": 49.2953623,
  "lon": 18.7880512
},
{
  "type": "node",
  "id": 2460800662,
  "lat": 49.2953866,
  "lon": 18.7880226
},
{
  "type": "node",
  "id": 2460800663,
  "lat": 49.2953898,
  "lon": 18.7880388
},
{
  "type": "node",
  "id": 2460800669,
  "lat": 49.2954015,
  "lon": 18.7884214
},
{
  "type": "node",
  "id": 2460800676,
  "lat": 49.2954129,
  "lon": 18.7880288
},
{
  "type": "node",
  "id": 2460800684,
  "lat": 49.2954322,
  "lon": 18.7881410
},
{
  "type": "node",
  "id": 2460800692,
  "lat": 49.2954605,
  "lon": 18.7882951
},
{
  "type": "node",
  "id": 2460800701,
  "lat": 49.2954785,
  "lon": 18.7881191
},
{
  "type": "node",
  "id": 2460800702,
  "lat": 49.2954788,
  "lon": 18.7883884
},
{
  "type": "node",
  "id": 2460800719,
  "lat": 49.2955077,
  "lon": 18.7882724
}

  ]
}
