{
  "version": 0.6,
  "generator": "Overpass API 0.7.55.9 ab41fea6",
  "osm3s": {
    "timestamp_osm_base": "2020-02-14T18:56:02Z",
    "copyright": "The data included in this document is from www.openstreetmap.org. The data is made available under ODbL."
  },
  "elements": [

{
  "type": "node",
  "id": 4934951022,
  "lat": 57.0902170,
  "lon": 26.1635170,
  "tags": {
    "addr:street": "Silmači, Druvienas pagasts, LV-4426",
    "name": "Silmači",
    "name:lv": "Silmači",
    "phone": "26184864",
    "tourism": "museum",
    "website": "http://www.visitgulbene.lv"
  }
},
{
  "type": "node",
  "id": 5143773645,
  "lat": 57.3206911,
  "lon": 26.9219255,
  "tags": {
    "name": "Viktora Ķirpa Ates muzejs",
    "tourism": "museum",
    "website": "https://atesmuzejs.aluksne.lv/"
  }
},
{
  "type": "node",
  "id": 7193797286,
  "lat": 57.1926202,
  "lon": 26.3718409,
  "tags": {
    "name": "Lizuma novadpētniecības ekspozīcija",
    "name:en": "Historical eksposition of Lizums village",
    "tourism": "museum"
  }
},
{
  "type": "node",
  "id": 7193811785,
  "lat": 57.1965116,
  "lon": 26.3666859,
  "tags": {
    "name": "Jāņa Brektes māja Saulieši + mākslas ekspozīcija",
    "name:en": "Home of artist Janis Brekte + art gallerie",
    "tourism": "museum"
  }
},
{
  "type": "node",
  "id": 7195163985,
  "lat": 57.1847028,
  "lon": 26.3438458,
  "tags": {
    "addr:street": "Druviena — Lizums",
    "name": "Apsīšu Jēkaba pirmiņas ekspozīcija Kalaņģi",
    "name:en": "Native home of Apsīšu Jēlabs “Kalaņģi”",
    "phone": "22001973",
    "tourism": "museum"
  }
},
{
  "type": "way",
  "id": 256370513,
  "nodes": [
    2620281027,
    2620281017,
    2620281025,
    2620281031,
    2620281027
  ],
  "tags": {
    "building": "yes",
    "tourism": "museum"
  }
},
{
  "type": "way",
  "id": 705675988,
  "nodes": [
    6630701108,
    6630701109,
    6630701121,
    6630701110,
    6630701111,
    6630701108
  ],
  "tags": {
    "building": "yes",
    "name": "Klēts muzejs",
    "tourism": "museum"
  }
},
{
  "type": "way",
  "id": 705675992,
  "nodes": [
    6630701127,
    6630701128,
    6630701129,
    6630701130,
    6630701127
  ],
  "tags": {
    "building": "yes",
    "name": "Vecā infekcijas nodaļa",
    "tourism": "museum"
  }
},
{
  "type": "node",
  "id": 6630701108,
  "lat": 57.1600495,
  "lon": 26.7582677
},
{
  "type": "node",
  "id": 6630701109,
  "lat": 57.1599171,
  "lon": 26.7583113
},
{
  "type": "node",
  "id": 6630701110,
  "lat": 57.1598367,
  "lon": 26.7574044
},
{
  "type": "node",
  "id": 6630701111,
  "lat": 57.1599786,
  "lon": 26.7573521
},
{
  "type": "node",
  "id": 6630701121,
  "lat": 57.1599096,
  "lon": 26.7582265
},
{
  "type": "node",
  "id": 2620281017,
  "lat": 57.1607631,
  "lon": 26.7613554
},
{
  "type": "node",
  "id": 2620281025,
  "lat": 57.1608630,
  "lon": 26.7615071
},
{
  "type": "node",
  "id": 2620281027,
  "lat": 57.1609724,
  "lon": 26.7608868
},
{
  "type": "node",
  "id": 2620281031,
  "lat": 57.1610722,
  "lon": 26.7610385
},
{
  "type": "node",
  "id": 6630701127,
  "lat": 57.1600448,
  "lon": 26.7589043
},
{
  "type": "node",
  "id": 6630701128,
  "lat": 57.1598698,
  "lon": 26.7590089
},
{
  "type": "node",
  "id": 6630701129,
  "lat": 57.1598747,
  "lon": 26.7587312
},
{
  "type": "node",
  "id": 6630701130,
  "lat": 57.1600211,
  "lon": 26.7586775
}

  ]
}
