{
  "version": 0.6,
  "generator": "Overpass API 0.7.55.9 ab41fea6",
  "osm3s": {
    "timestamp_osm_base": "2020-02-14T11:17:02Z",
    "copyright": "The data included in this document is from www.openstreetmap.org. The data is made available under ODbL."
  },
  "elements": [

{
  "type": "node",
  "id": 347996489,
  "lat": 50.1611205,
  "lon": 14.8239062,
  "tags": {
    "name": "Skanzen lidové architektury",
    "tourism": "museum"
  }
},
{
  "type": "node",
  "id": 385087606,
  "lat": 50.1660864,
  "lon": 14.7518712,
  "tags": {
    "name": "Městské muzeum v Čelákovicích",
    "tourism": "museum",
    "wheelchair": "limited"
  }
},
{
  "type": "node",
  "id": 679984812,
  "lat": 50.1848802,
  "lon": 15.0394928,
  "tags": {
    "name": "Vlastivědné muzeum",
    "tourism": "museum"
  }
},
{
  "type": "node",
  "id": 1298701323,
  "lat": 50.5013675,
  "lon": 14.8074050,
  "tags": {
    "addr:city": "Bělá pod Bezdězem",
    "addr:conscriptionnumber": "1",
    "addr:country": "CZ",
    "addr:housenumber": "1",
    "addr:place": "Bělá pod Bezdězem",
    "addr:postcode": "29421",
    "addr:street": "Zámek",
    "is_in": "Bělá pod Bezdězem, Středočeský kraj, CZ",
    "name": "Muzeum Bělá pod Bezdězem",
    "phone": "+420 326 701 618",
    "ref:ruian:addr": "18857051",
    "source:addr": "cuzk:ruian",
    "source:loc": "cuzk:km",
    "tourism": "museum",
    "website": "http://www.muzeumbela.cz"
  }
},
{
  "type": "node",
  "id": 1331959994,
  "lat": 50.7140265,
  "lon": 14.7294653,
  "tags": {
    "name": "Hornické mini muzeum UD Hamr",
    "name:de": "Bergbaumuseum",
    "phone": "+420 608 305 390",
    "source": "survey",
    "tourism": "museum"
  }
},
{
  "type": "node",
  "id": 1353560861,
  "lat": 50.5888700,
  "lon": 15.1579130,
  "tags": {
    "name": "Muzeum Českého ráje",
    "opening_hours": "May-Sep Tu-Su 09:00-17:00; Oct-Apr Tu-Su 09:00-16:00",
    "tourism": "museum",
    "wikidata": "Q41567327",
    "wikipedia": "cs:Muzeum Českého ráje"
  }
},
{
  "type": "node",
  "id": 1354901572,
  "lat": 50.4100488,
  "lon": 14.9010460,
  "tags": {
    "addr:conscriptionnumber": "102",
    "addr:country": "CZ",
    "addr:housenumber": "102",
    "addr:street": "Krajířova",
    "is_in": "Mladá Boleslav I, Mladá Boleslav, Středočeský kraj, CZ",
    "name": "Okresní museum Mladá Boleslav - palác Templ",
    "note": "Nekonzistence cuzk:km a mvcr:adresa",
    "source": "cuzk:km",
    "tourism": "museum"
  }
},
{
  "type": "node",
  "id": 1364887615,
  "lat": 50.4601790,
  "lon": 14.6674323,
  "tags": {
    "name": "Muzeum Eduarda Štorcha",
    "opening_hours": "We-Su 10:00-16:00",
    "tourism": "museum",
    "website": "https://www.muzeumstorch.cz/"
  }
},
{
  "type": "node",
  "id": 1409029649,
  "lat": 50.4087245,
  "lon": 14.9008544,
  "tags": {
    "name": "Muzeum Mladoboleslavska",
    "opening_hours": "Tu-Su 09:00-12:00,13:00-16:00",
    "tourism": "museum",
    "wheelchair": "yes"
  }
},
{
  "type": "node",
  "id": 1721969073,
  "lat": 50.1591612,
  "lon": 14.8236412,
  "tags": {
    "name": "Moto-velo muzeum",
    "tourism": "museum"
  }
},
{
  "type": "node",
  "id": 1761208084,
  "lat": 50.5347037,
  "lon": 15.2597036,
  "tags": {
    "name": "Městské muzeum",
    "tourism": "museum"
  }
},
{
  "type": "node",
  "id": 1825422936,
  "lat": 50.5685688,
  "lon": 14.6532800,
  "tags": {
    "addr:city": "Doksy",
    "addr:conscriptionnumber": "251",
    "addr:country": "CZ",
    "addr:housenumber": "251",
    "addr:place": "Doksy",
    "addr:postcode": "47201",
    "addr:street": "Valdštejnská",
    "facebook": "https://www.facebook.com/muzeumctyrlistek/",
    "name": "Muzeum Čtyřlístek",
    "phone": "+420 487 723 670",
    "ref:ruian:addr": "25519379",
    "source:addr": "cuzk:ruian",
    "source:loc": "survey",
    "tourism": "museum",
    "website": "http://muzeum.mksdoksy.cz/",
    "wikidata": "Q12039039",
    "wikipedia": "cs:Muzeum Čtyřlístek"
  }
},
{
  "type": "node",
  "id": 1889838547,
  "lat": 50.1857067,
  "lon": 14.6589699,
  "tags": {
    "email": "info@muzeumompv.cz",
    "fax": "+420326902897",
    "name": "Oblastní muzeum Praha-Východ Brandýs nad Labem – Stará Boleslav",
    "payment:cash": "yes",
    "payment:coins": "yes",
    "phone": "+420326396599",
    "tourism": "museum",
    "website": "http://www.muzeumompv.cz"
  }
},
{
  "type": "node",
  "id": 2192143281,
  "lat": 50.1420258,
  "lon": 15.1229379,
  "tags": {
    "name": "Polabské muzeum",
    "source": "local knowledge",
    "tourism": "museum"
  }
},
{
  "type": "node",
  "id": 2192153351,
  "lat": 50.1414580,
  "lon": 15.1195136,
  "tags": {
    "name": "Památník krále Jiřího z Poděbrad",
    "tourism": "museum"
  }
},
{
  "type": "node",
  "id": 2313493646,
  "lat": 50.1853302,
  "lon": 14.8924029,
  "tags": {
    "name": "Muzeum starých kamen",
    "phone": "+420734274171",
    "tourism": "museum",
    "website": "http://www.muzeum-kamen.cz"
  }
},
{
  "type": "node",
  "id": 2391514901,
  "lat": 50.6029823,
  "lon": 15.1718296,
  "tags": {
    "name": "Dlaskův statek",
    "opening_hours": "Jun-Aug Tu-Su 09:00-17:00; Mar-May,Sep-Oct,Dec Tu-Su 09:00-16:00",
    "tourism": "museum",
    "website": "http://www.muzeum-turnov.cz/dlaskuv-statek/",
    "wikidata": "Q11812516",
    "wikipedia": "cs:Dlaskův statek"
  }
},
{
  "type": "node",
  "id": 2716861493,
  "lat": 50.2013509,
  "lon": 14.8383267,
  "tags": {
    "email": "lysa@polabskemuzeum.cz",
    "name": "Polabské muzeum - Muzeum Bedřicha Hrozného",
    "opening_hours": "Tu-Su 07:00-12:00,12:45-17:00",
    "phone": "(+420) 325 551 868",
    "tourism": "museum",
    "website": "https://www.polabskemuzeum.cz/lysa-nad-labem/kontakty",
    "wheelchair": "no",
    "wikidata": "Q12038994",
    "wikipedia": "cs:Muzeum Bedřicha Hrozného"
  }
},
{
  "type": "node",
  "id": 3095524578,
  "lat": 50.3504603,
  "lon": 14.4740413,
  "tags": {
    "name": "Kostnice",
    "name:en": "Ossuary",
    "name:ru": "Костница",
    "tourism": "museum"
  }
},
{
  "type": "node",
  "id": 3114751383,
  "lat": 50.5109825,
  "lon": 15.2245076,
  "tags": {
    "name": "Muzeum panenek a medvídků",
    "tourism": "museum"
  }
},
{
  "type": "node",
  "id": 3125831878,
  "lat": 50.6589963,
  "lon": 14.9913132,
  "tags": {
    "name": "Podještědské muzeum",
    "tourism": "museum"
  }
},
{
  "type": "node",
  "id": 3342148522,
  "lat": 50.3526688,
  "lon": 14.4745905,
  "tags": {
    "addr:city": "Mělník",
    "addr:conscriptionnumber": "54",
    "addr:country": "CZ",
    "addr:housenumber": "54/20",
    "addr:place": "Mělník",
    "addr:postcode": "27601",
    "addr:street": "náměstí Míru",
    "addr:streetnumber": "20",
    "name": "Regionální muzeum Mělník",
    "opening_hours": "Tu-Su 09:00-12:00, 12:30-17:00",
    "phone": "+420 315 630 922",
    "ref:ruian:addr": "11659521",
    "source:addr": "cuzk:ruian",
    "tourism": "museum",
    "website": "https://www.muzeum-melnik.cz/"
  }
},
{
  "type": "node",
  "id": 3568672905,
  "lat": 50.5275986,
  "lon": 14.9707868,
  "tags": {
    "name": "Muzeum města Mnichovo Hradiště",
    "name:de": "Museum Schloss Münchengrätz",
    "opening_hours": "Tu-Su 9:00-12:00,13:00-16:00",
    "operator": "Mnichovo Hradiště",
    "tourism": "museum",
    "website": "http://muzeum.mnhradiste.cz/"
  }
},
{
  "type": "node",
  "id": 3788500518,
  "lat": 50.4822011,
  "lon": 14.9364781,
  "tags": {
    "name": "Muzeum Bakovska",
    "tourism": "museum"
  }
},
{
  "type": "node",
  "id": 4199070018,
  "lat": 50.3797139,
  "lon": 15.1017768,
  "tags": {
    "name": "Motomuzeum Jawa",
    "tourism": "museum"
  }
},
{
  "type": "node",
  "id": 4204728941,
  "lat": 50.5901585,
  "lon": 14.7981361,
  "tags": {
    "addr:housenumber": "795",
    "addr:place": "Kuřívody",
    "addr:postcode": "47124",
    "name": "Stálá expozice pyrotechnické asanace Ralska",
    "opening_hours": "tu, th-su 13:00-17:00",
    "tourism": "museum",
    "website": "http://www.expozice-ralsko.estranky.cz/"
  }
},
{
  "type": "node",
  "id": 4237646427,
  "lat": 50.3697057,
  "lon": 14.5485425,
  "tags": {
    "name": "Skalní obydlí",
    "operator": "Regionální muzeum Mělník",
    "tourism": "museum"
  }
},
{
  "type": "node",
  "id": 4237679882,
  "lat": 50.6428139,
  "lon": 15.2534232,
  "tags": {
    "name": "Glass Shop Muzeum Galerie",
    "tourism": "museum"
  }
},
{
  "type": "node",
  "id": 4250154081,
  "lat": 50.5068399,
  "lon": 15.2622606,
  "tags": {
    "name": "Válečné muzeum, letecká expozice",
    "tourism": "museum"
  }
},
{
  "type": "node",
  "id": 4284621838,
  "lat": 50.4907119,
  "lon": 14.8351723,
  "tags": {
    "name": "Muzeum Betlémů",
    "opening_hours": "Oct 01-Jan 31 11:00-19:00",
    "tourism": "museum",
    "website": "https://sbirkabetlemu.webnode.cz/"
  }
},
{
  "type": "node",
  "id": 4316080908,
  "lat": 50.5736890,
  "lon": 15.0555466,
  "tags": {
    "contact:website": "https://www.zameksvijany.cz/",
    "name": "Zámek Svijany",
    "opening_hours": "9:00-16:00",
    "tourism": "museum"
  }
},
{
  "type": "node",
  "id": 4426454800,
  "lat": 50.1429382,
  "lon": 15.1176771,
  "tags": {
    "addr:city": "Poděbrady",
    "addr:housenumber": "36",
    "addr:postcode": "290 01",
    "addr:street": "Jiřího náměstí",
    "name": "Film Legends Muzeum",
    "opening_hours": "Mo-Su 09:00-18:00",
    "phone": "+420 777 603 603",
    "tourism": "museum",
    "website": "http://filmlegendsmuzeum.cz/"
  }
},
{
  "type": "node",
  "id": 4488576139,
  "lat": 50.1949435,
  "lon": 14.6738051,
  "tags": {
    "name": "Archeologická expozice",
    "opening_hours": "May-Sep: Sa-Su 10:00-12:00, 13:00-17:00",
    "tourism": "museum"
  }
},
{
  "type": "node",
  "id": 4565244175,
  "lat": 50.6035905,
  "lon": 15.1715893,
  "tags": {
    "name": "Dům přírody Českého ráje",
    "opening_hours": "May-Sep 09:30-17:30; Oct-Apr Mo-Fr 13:00-16:00; Oct-Apr Sa,Su 10:00-16:00",
    "tourism": "museum",
    "website": "http://www.dumprirody.cz/ceskyraj/"
  }
},
{
  "type": "node",
  "id": 5135112980,
  "lat": 50.6837721,
  "lon": 15.1497448,
  "tags": {
    "name": "Městské muzeum",
    "tourism": "museum"
  }
},
{
  "type": "node",
  "id": 5773720776,
  "lat": 50.4357114,
  "lon": 15.3536859,
  "tags": {
    "name": "Muzeum Rumcajsova ševcovna",
    "tourism": "museum"
  }
},
{
  "type": "node",
  "id": 6135738623,
  "lat": 50.6595564,
  "lon": 14.9943115,
  "tags": {
    "name": "Johanitská komenda sv. Zdislavy a Havla z Lemberka",
    "tourism": "museum",
    "website": "https://www.muzeumceskydub.cz/komenda.html"
  }
},
{
  "type": "node",
  "id": 6881201550,
  "lat": 50.2847680,
  "lon": 14.5912911,
  "tags": {
    "addr:conscriptionnumber": "386",
    "addr:country": "CZ",
    "addr:housenumber": "386",
    "addr:place": "Všetaty",
    "addr:postcode": "27716",
    "addr:street": "Smetanova",
    "fee": "no",
    "language:cs": "yes",
    "language:en": "yes",
    "language:ru": "yes",
    "name": "Památník Jana Palacha",
    "opening_hours": "Tu-Su 10:00-16:00",
    "operator": "Národní muzeum",
    "start_date": "2019-10-09",
    "toilets": "yes",
    "toilets:wheelchair": "yes",
    "tourism": "museum",
    "website": "https://www.nm.cz/navstivte-nas/objekty/pamatnik-jana-palacha-ve-vsetatech",
    "wheelchair": "yes"
  }
},
{
  "type": "node",
  "id": 7172813508,
  "lat": 50.2956195,
  "lon": 14.4682606,
  "tags": {
    "name": "Památník Bedřicha Smetany",
    "tourism": "museum",
    "wikidata": "Q28964412",
    "wikipedia": "cs:Památník Bedřicha Smetany (Obříství)"
  }
},
{
  "type": "way",
  "id": 77215512,
  "nodes": [
    908981564,
    908995007,
    908985590,
    908979962,
    908980548,
    908994044,
    908981564
  ],
  "tags": {
    "building": "yes",
    "name": "Museum socialistických vozů",
    "operator": "Tomáš Formánek",
    "source": "cuzk:km",
    "tourism": "museum"
  }
},
{
  "type": "way",
  "id": 77495530,
  "nodes": [
    912098056,
    912087456,
    1849979407,
    912104791,
    910986669,
    1849979405,
    1955744750,
    1955744754,
    910944278,
    910965249,
    3859545913,
    910943657,
    5834401899,
    912109250,
    912088315,
    912098056
  ],
  "tags": {
    "addr:housenumber": "294",
    "addr:postcode": "29360",
    "addr:street": "tř. Václava Klementa",
    "alt_name": "ŠKODA Muzeum",
    "building": "yes",
    "fee": "yes",
    "name": "ŠKODA AUTO Museum",
    "opening_hours": "09:00-17:00; Dec 24-26, Jan 1 off; Dec 31 09:00-14:00",
    "source": "cuzk:km",
    "toilets:wheelchair": "yes",
    "tourism": "museum",
    "website": "http://museum.skoda-auto.cz",
    "wheelchair": "yes"
  }
},
{
  "type": "way",
  "id": 118620909,
  "nodes": [
    1333787489,
    1333785358,
    1333788718,
    5215754746,
    5215754745,
    1333786048,
    5215754744,
    5215754743,
    5215754742,
    5215754741,
    1333783266,
    5215754740,
    5215754739,
    1333787292,
    5215754738,
    1333785139,
    1333789024,
    1333785705,
    1333783536,
    1333787489
  ],
  "tags": {
    "building": "yes",
    "building:levels": "1",
    "building:ruian:type": "5",
    "name": "Muzeum Bedřicha Smetany",
    "ref:ruian:building": "2512335",
    "source": "cuzk:ruian",
    "tourism": "museum"
  }
},
{
  "type": "way",
  "id": 128308170,
  "nodes": [
    1418276296,
    1418276291,
    1418276338,
    1418276342,
    1418276400,
    1418276396,
    1418276474,
    1418276456,
    4358449029,
    1418276296
  ],
  "tags": {
    "addr:city": "Železnice",
    "addr:housenumber": "181",
    "addr:postcode": "50713",
    "addr:street": "Muzejní",
    "building": "civic",
    "building:levels": "1",
    "building:ruian:type": "5",
    "email": "muzeum@zeleznice.net",
    "name": "Železnice - Vlastivědné muzeum",
    "name:cs": "Místní vlastivědné muzeum v Železnici",
    "opening_hours": "May-Sep: Tu-Su 09:00-11:30, 13:00-16:30; Oct-Apr: Th-Fr 09:00-11:30, 13:00-16:30",
    "phone": "+420732836309",
    "ref:ruian:building": "1735047",
    "source": "cuzk:ruian",
    "tourism": "museum",
    "website": "https://muzeumzeleznice.webk.cz/"
  }
},
{
  "type": "way",
  "id": 173318088,
  "nodes": [
    3049353908,
    3049353887,
    3049353878,
    3049353885,
    3049353884,
    3049353895,
    3049353896,
    3049353901,
    3049353908
  ],
  "tags": {
    "addr:conscriptionnumber": "14",
    "addr:country": "CZ",
    "addr:housenumber": "14",
    "addr:place": "Borek",
    "addr:postcode": "51263",
    "building": "yes",
    "building:ruian:type": "20",
    "name": "Motomuzeum",
    "ref:ruian:addr": "15046591",
    "ref:ruian:building": "14938413",
    "source": "cuzk:ruian",
    "tourism": "museum",
    "website": "https://www.motomuzeumborek.cz/"
  }
},
{
  "type": "way",
  "id": 198258445,
  "nodes": [
    2084166481,
    2084166479,
    2084166478,
    2084166476,
    2084166477,
    2084166480,
    2084166482,
    2084166516,
    2084166513,
    2084166512,
    2084166514,
    2084166520,
    2084166522,
    2084166526,
    2084166528,
    2084166531,
    2084166563,
    2084166565,
    2084166567,
    2084166572,
    2084166576,
    2084166578,
    2084166574,
    2084166570,
    658645108,
    7043399220,
    7043399219,
    7043399218,
    7043399217,
    7043399216,
    7043399215,
    7043399214,
    7043399213,
    7043399212,
    7043399211,
    7043399210,
    7043399209,
    7043399208,
    7043399207,
    7043399206,
    7043399205,
    7043399204,
    7043399203,
    7043399202,
    7043399201,
    7043399200,
    7043399199,
    7043399198,
    2084166557,
    2084166561,
    658645307,
    2084166535,
    7043399197,
    2084166559,
    2084166555,
    7043399196,
    2084166536,
    2084166553,
    2084166537,
    2084166552,
    2084166550,
    2084166538,
    2084166533,
    2084166524,
    2084166517,
    2084166509,
    2084166502,
    2084166500,
    2084166497,
    2084166496,
    2084166493,
    2084166490,
    2084166488,
    2084166486,
    2084166485,
    2084166487,
    2084166494,
    2084166484,
    2084166483,
    2084166481
  ],
  "tags": {
    "building": "civic",
    "building:ruian:type": "5",
    "image": "http://www.schnablova.net/www/Mimoprazske%20kostely/Fotky/MladaBoleslav.jpg",
    "name": "Sbor českých bratří",
    "ref:ruian:building": "45322627",
    "source": "cuzk:ruian",
    "tourism": "museum"
  }
},
{
  "type": "way",
  "id": 211816337,
  "nodes": [
    2217660574,
    2217660588,
    2217660576,
    2217660516,
    2217660528,
    2217660597,
    2217660574
  ],
  "tags": {
    "building": "yes",
    "source": "cuzk:km",
    "tourism": "museum"
  }
},
{
  "type": "way",
  "id": 340597343,
  "nodes": [
    3478422825,
    3478422830,
    3478422821,
    3478422816,
    3478422814,
    3478422824,
    3478422815,
    3478422810,
    3478422812,
    3478422811,
    3478422804,
    3478422803,
    3478422798,
    3478422800,
    3478422799,
    3478422801,
    3478422802,
    3478422807,
    3478422805,
    3478422806,
    3478422809,
    3478422819,
    3478422817,
    3478422818,
    3478422820,
    3478422827,
    3478422826,
    3478422832,
    3478422834,
    3478422838,
    3478422843,
    3478422841,
    3478422848,
    3478422847,
    3478422844,
    3478422842,
    3478422845,
    3478422840,
    3478422836,
    3478422835,
    3478422839,
    3478422833,
    3478422828,
    3478422825
  ],
  "tags": {
    "building": "yes",
    "name": "Letecké muzeum Metoděje Vlacha",
    "opening_hours": "Mo-Su 09:00-17:00",
    "source": "cuzk:ruian",
    "tourism": "museum",
    "website": "http://www.lmmv.cz"
  }
},
{
  "type": "relation",
  "id": 7129783,
  "members": [
    {
      "type": "way",
      "ref": 484468324,
      "role": "outer"
    },
    {
      "type": "way",
      "ref": 484468323,
      "role": "inner"
    }
  ],
  "tags": {
    "building": "civic",
    "building:ruian:type": "5",
    "ref:ruian:building": "2058171",
    "source": "cuzk:ruian",
    "tourism": "museum",
    "type": "multipolygon"
  }
},
{
  "type": "node",
  "id": 908980548,
  "lat": 50.1259924,
  "lon": 14.7783401
},
{
  "type": "node",
  "id": 908994044,
  "lat": 50.1261278,
  "lon": 14.7783611
},
{
  "type": "node",
  "id": 908979962,
  "lat": 50.1259831,
  "lon": 14.7784859
},
{
  "type": "node",
  "id": 908981564,
  "lat": 50.1260877,
  "lon": 14.7789882
},
{
  "type": "node",
  "id": 908985590,
  "lat": 50.1259605,
  "lon": 14.7788360
},
{
  "type": "node",
  "id": 908995007,
  "lat": 50.1259524,
  "lon": 14.7789701
},
{
  "type": "node",
  "id": 1333783266,
  "lat": 50.3229327,
  "lon": 15.0168987
},
{
  "type": "node",
  "id": 1333783536,
  "lat": 50.3226786,
  "lon": 15.0168358
},
{
  "type": "node",
  "id": 1333785139,
  "lat": 50.3229336,
  "lon": 15.0169468
},
{
  "type": "node",
  "id": 1333785358,
  "lat": 50.3228944,
  "lon": 15.0169041
},
{
  "type": "node",
  "id": 1333785705,
  "lat": 50.3229125,
  "lon": 15.0171125
},
{
  "type": "node",
  "id": 1333786048,
  "lat": 50.3229128,
  "lon": 15.0168839
},
{
  "type": "node",
  "id": 1333787292,
  "lat": 50.3229413,
  "lon": 15.0169230
},
{
  "type": "node",
  "id": 1333787489,
  "lat": 50.3227369,
  "lon": 15.0167164
},
{
  "type": "node",
  "id": 1333788718,
  "lat": 50.3228995,
  "lon": 15.0168862
},
{
  "type": "node",
  "id": 1333789024,
  "lat": 50.3229707,
  "lon": 15.0169924
},
{
  "type": "node",
  "id": 5215754738,
  "lat": 50.3229392,
  "lon": 15.0169335
},
{
  "type": "node",
  "id": 5215754739,
  "lat": 50.3229400,
  "lon": 15.0169163
},
{
  "type": "node",
  "id": 5215754740,
  "lat": 50.3229381,
  "lon": 15.0169099
},
{
  "type": "node",
  "id": 5215754741,
  "lat": 50.3229293,
  "lon": 15.0168940
},
{
  "type": "node",
  "id": 5215754742,
  "lat": 50.3229256,
  "lon": 15.0168902
},
{
  "type": "node",
  "id": 5215754743,
  "lat": 50.3229215,
  "lon": 15.0168871
},
{
  "type": "node",
  "id": 5215754744,
  "lat": 50.3229172,
  "lon": 15.0168850
},
{
  "type": "node",
  "id": 5215754745,
  "lat": 50.3229083,
  "lon": 15.0168837
},
{
  "type": "node",
  "id": 5215754746,
  "lat": 50.3229038,
  "lon": 15.0168844
},
{
  "type": "node",
  "id": 4772179594,
  "lat": 50.4084137,
  "lon": 14.4453882
},
{
  "type": "node",
  "id": 4772179595,
  "lat": 50.4083151,
  "lon": 14.4454331
},
{
  "type": "node",
  "id": 4772179596,
  "lat": 50.4082483,
  "lon": 14.4453036
},
{
  "type": "node",
  "id": 4772179597,
  "lat": 50.4082458,
  "lon": 14.4452560
},
{
  "type": "node",
  "id": 4772179598,
  "lat": 50.4083546,
  "lon": 14.4451081
},
{
  "type": "node",
  "id": 4772179599,
  "lat": 50.4083863,
  "lon": 14.4451193
},
{
  "type": "node",
  "id": 4772179600,
  "lat": 50.4084924,
  "lon": 14.4452868
},
{
  "type": "node",
  "id": 4772179601,
  "lat": 50.4083368,
  "lon": 14.4448751
},
{
  "type": "node",
  "id": 4772179602,
  "lat": 50.4083007,
  "lon": 14.4449240
},
{
  "type": "node",
  "id": 4772179603,
  "lat": 50.4082976,
  "lon": 14.4449186
},
{
  "type": "node",
  "id": 4772179604,
  "lat": 50.4081260,
  "lon": 14.4451514
},
{
  "type": "node",
  "id": 4772179605,
  "lat": 50.4081300,
  "lon": 14.4451588
},
{
  "type": "node",
  "id": 4772179606,
  "lat": 50.4080932,
  "lon": 14.4452084
},
{
  "type": "node",
  "id": 4772179607,
  "lat": 50.4081354,
  "lon": 14.4452851
},
{
  "type": "node",
  "id": 4772179608,
  "lat": 50.4081260,
  "lon": 14.4452978
},
{
  "type": "node",
  "id": 4772179609,
  "lat": 50.4081654,
  "lon": 14.4453693
},
{
  "type": "node",
  "id": 4772179610,
  "lat": 50.4081583,
  "lon": 14.4453788
},
{
  "type": "node",
  "id": 4772179611,
  "lat": 50.4081787,
  "lon": 14.4454515
},
{
  "type": "node",
  "id": 4772179612,
  "lat": 50.4082018,
  "lon": 14.4454920
},
{
  "type": "node",
  "id": 4772179613,
  "lat": 50.4082390,
  "lon": 14.4455349
},
{
  "type": "node",
  "id": 4772179614,
  "lat": 50.4082816,
  "lon": 14.4455629
},
{
  "type": "node",
  "id": 4772179615,
  "lat": 50.4083273,
  "lon": 14.4455743
},
{
  "type": "node",
  "id": 4772179616,
  "lat": 50.4083734,
  "lon": 14.4455686
},
{
  "type": "node",
  "id": 4772179617,
  "lat": 50.4084173,
  "lon": 14.4455460
},
{
  "type": "node",
  "id": 4772179618,
  "lat": 50.4084855,
  "lon": 14.4454797
},
{
  "type": "node",
  "id": 4772179619,
  "lat": 50.4085262,
  "lon": 14.4454293
},
{
  "type": "node",
  "id": 4772179620,
  "lat": 50.4085667,
  "lon": 14.4453501
},
{
  "type": "node",
  "id": 4772179721,
  "lat": 50.4085718,
  "lon": 14.4453144
},
{
  "type": "node",
  "id": 4772179722,
  "lat": 50.4085680,
  "lon": 14.4452539
},
{
  "type": "node",
  "id": 4772179723,
  "lat": 50.4085336,
  "lon": 14.4451573
},
{
  "type": "node",
  "id": 4772179724,
  "lat": 50.4084875,
  "lon": 14.4450675
},
{
  "type": "node",
  "id": 4772179725,
  "lat": 50.4084334,
  "lon": 14.4449895
},
{
  "type": "node",
  "id": 4772179726,
  "lat": 50.4084259,
  "lon": 14.4449996
},
{
  "type": "node",
  "id": 4772179727,
  "lat": 50.4083901,
  "lon": 14.4449349
},
{
  "type": "node",
  "id": 4772179728,
  "lat": 50.4083786,
  "lon": 14.4449506
},
{
  "type": "node",
  "id": 2217660516,
  "lat": 50.3661330,
  "lon": 14.9640905
},
{
  "type": "node",
  "id": 2217660528,
  "lat": 50.3661745,
  "lon": 14.9636180
},
{
  "type": "node",
  "id": 2217660574,
  "lat": 50.3662460,
  "lon": 14.9640000
},
{
  "type": "node",
  "id": 2217660576,
  "lat": 50.3662530,
  "lon": 14.9641260
},
{
  "type": "node",
  "id": 2217660588,
  "lat": 50.3662650,
  "lon": 14.9640030
},
{
  "type": "node",
  "id": 2217660597,
  "lat": 50.3662785,
  "lon": 14.9636400
},
{
  "type": "node",
  "id": 3478422798,
  "lat": 50.4014877,
  "lon": 14.8998822
},
{
  "type": "node",
  "id": 3478422799,
  "lat": 50.4015128,
  "lon": 14.8998234
},
{
  "type": "node",
  "id": 3478422800,
  "lat": 50.4015168,
  "lon": 14.8998290
},
{
  "type": "node",
  "id": 3478422801,
  "lat": 50.4016238,
  "lon": 14.8996192
},
{
  "type": "node",
  "id": 3478422802,
  "lat": 50.4016385,
  "lon": 14.8996389
},
{
  "type": "node",
  "id": 3478422803,
  "lat": 50.4016985,
  "lon": 14.9000767
},
{
  "type": "node",
  "id": 3478422804,
  "lat": 50.4017000,
  "lon": 14.9000741
},
{
  "type": "node",
  "id": 3478422805,
  "lat": 50.4017094,
  "lon": 14.8994623
},
{
  "type": "node",
  "id": 3478422806,
  "lat": 50.4017171,
  "lon": 14.8994481
},
{
  "type": "node",
  "id": 3478422807,
  "lat": 50.4017233,
  "lon": 14.8994813
},
{
  "type": "node",
  "id": 3478422809,
  "lat": 50.4017313,
  "lon": 14.8994668
},
{
  "type": "node",
  "id": 3478422810,
  "lat": 50.4017420,
  "lon": 14.9001471
},
{
  "type": "node",
  "id": 3478422811,
  "lat": 50.4017466,
  "lon": 14.9001361
},
{
  "type": "node",
  "id": 3478422812,
  "lat": 50.4017499,
  "lon": 14.9001429
},
{
  "type": "node",
  "id": 3478422814,
  "lat": 50.4017737,
  "lon": 14.8999394
},
{
  "type": "node",
  "id": 3478422815,
  "lat": 50.4017939,
  "lon": 14.9002689
},
{
  "type": "node",
  "id": 3478422816,
  "lat": 50.4017945,
  "lon": 14.8998988
},
{
  "type": "node",
  "id": 3478422817,
  "lat": 50.4018025,
  "lon": 14.8992913
},
{
  "type": "node",
  "id": 3478422818,
  "lat": 50.4018102,
  "lon": 14.8992769
},
{
  "type": "node",
  "id": 3478422819,
  "lat": 50.4018169,
  "lon": 14.8993105
},
{
  "type": "node",
  "id": 3478422820,
  "lat": 50.4018248,
  "lon": 14.8992958
},
{
  "type": "node",
  "id": 3478422821,
  "lat": 50.4018526,
  "lon": 14.8999429
},
{
  "type": "node",
  "id": 3478422824,
  "lat": 50.4018896,
  "lon": 14.9000934
},
{
  "type": "node",
  "id": 3478422825,
  "lat": 50.4018898,
  "lon": 14.8997614
},
{
  "type": "node",
  "id": 3478422826,
  "lat": 50.4018957,
  "lon": 14.8991191
},
{
  "type": "node",
  "id": 3478422827,
  "lat": 50.4019102,
  "lon": 14.8991391
},
{
  "type": "node",
  "id": 3478422828,
  "lat": 50.4019139,
  "lon": 14.8997170
},
{
  "type": "node",
  "id": 3478422830,
  "lat": 50.4019257,
  "lon": 14.8998094
},
{
  "type": "node",
  "id": 3478422832,
  "lat": 50.4019371,
  "lon": 14.8990446
},
{
  "type": "node",
  "id": 3478422833,
  "lat": 50.4019576,
  "lon": 14.8997505
},
{
  "type": "node",
  "id": 3478422834,
  "lat": 50.4019712,
  "lon": 14.8990893
},
{
  "type": "node",
  "id": 3478422835,
  "lat": 50.4019848,
  "lon": 14.8995870
},
{
  "type": "node",
  "id": 3478422836,
  "lat": 50.4019926,
  "lon": 14.8995731
},
{
  "type": "node",
  "id": 3478422838,
  "lat": 50.4020041,
  "lon": 14.8990283
},
{
  "type": "node",
  "id": 3478422839,
  "lat": 50.4020132,
  "lon": 14.8996490
},
{
  "type": "node",
  "id": 3478422840,
  "lat": 50.4020285,
  "lon": 14.8996209
},
{
  "type": "node",
  "id": 3478422841,
  "lat": 50.4020511,
  "lon": 14.8991959
},
{
  "type": "node",
  "id": 3478422842,
  "lat": 50.4020647,
  "lon": 14.8994399
},
{
  "type": "node",
  "id": 3478422843,
  "lat": 50.4020842,
  "lon": 14.8991353
},
{
  "type": "node",
  "id": 3478422844,
  "lat": 50.4020889,
  "lon": 14.8993960
},
{
  "type": "node",
  "id": 3478422845,
  "lat": 50.4021007,
  "lon": 14.8994878
},
{
  "type": "node",
  "id": 3478422847,
  "lat": 50.4021324,
  "lon": 14.8994295
},
{
  "type": "node",
  "id": 3478422848,
  "lat": 50.4021718,
  "lon": 14.8993571
},
{
  "type": "node",
  "id": 2084166476,
  "lat": 50.4135706,
  "lon": 14.9058610
},
{
  "type": "node",
  "id": 2084166477,
  "lat": 50.4135720,
  "lon": 14.9058534
},
{
  "type": "node",
  "id": 2084166478,
  "lat": 50.4135721,
  "lon": 14.9058684
},
{
  "type": "node",
  "id": 2084166479,
  "lat": 50.4135755,
  "lon": 14.9058726
},
{
  "type": "node",
  "id": 2084166480,
  "lat": 50.4135766,
  "lon": 14.9058484
},
{
  "type": "node",
  "id": 2084166481,
  "lat": 50.4135804,
  "lon": 14.9058736
},
{
  "type": "node",
  "id": 658645108,
  "lat": 50.4139137,
  "lon": 14.9055848
},
{
  "type": "node",
  "id": 658645307,
  "lat": 50.4137977,
  "lon": 14.9059906
},
{
  "type": "node",
  "id": 2084166482,
  "lat": 50.4135819,
  "lon": 14.9058491
},
{
  "type": "node",
  "id": 2084166483,
  "lat": 50.4135845,
  "lon": 14.9058702
},
{
  "type": "node",
  "id": 2084166484,
  "lat": 50.4135868,
  "lon": 14.9058638
},
{
  "type": "node",
  "id": 2084166485,
  "lat": 50.4136289,
  "lon": 14.9059329
},
{
  "type": "node",
  "id": 2084166486,
  "lat": 50.4136292,
  "lon": 14.9059459
},
{
  "type": "node",
  "id": 2084166487,
  "lat": 50.4136298,
  "lon": 14.9059210
},
{
  "type": "node",
  "id": 2084166488,
  "lat": 50.4136305,
  "lon": 14.9059582
},
{
  "type": "node",
  "id": 2084166490,
  "lat": 50.4136322,
  "lon": 14.9059670
},
{
  "type": "node",
  "id": 2084166493,
  "lat": 50.4136348,
  "lon": 14.9059764
},
{
  "type": "node",
  "id": 2084166494,
  "lat": 50.4136352,
  "lon": 14.9058973
},
{
  "type": "node",
  "id": 2084166496,
  "lat": 50.4136427,
  "lon": 14.9059948
},
{
  "type": "node",
  "id": 2084166497,
  "lat": 50.4136476,
  "lon": 14.9060025
},
{
  "type": "node",
  "id": 2084166500,
  "lat": 50.4136626,
  "lon": 14.9060171
},
{
  "type": "node",
  "id": 2084166502,
  "lat": 50.4136735,
  "lon": 14.9060227
},
{
  "type": "node",
  "id": 2084166509,
  "lat": 50.4136868,
  "lon": 14.9060238
},
{
  "type": "node",
  "id": 2084166512,
  "lat": 50.4136959,
  "lon": 14.9054251
},
{
  "type": "node",
  "id": 2084166513,
  "lat": 50.4136964,
  "lon": 14.9054327
},
{
  "type": "node",
  "id": 2084166514,
  "lat": 50.4136977,
  "lon": 14.9054194
},
{
  "type": "node",
  "id": 2084166516,
  "lat": 50.4137000,
  "lon": 14.9054392
},
{
  "type": "node",
  "id": 2084166517,
  "lat": 50.4137000,
  "lon": 14.9060198
},
{
  "type": "node",
  "id": 2084166520,
  "lat": 50.4137013,
  "lon": 14.9054158
},
{
  "type": "node",
  "id": 2084166522,
  "lat": 50.4137049,
  "lon": 14.9054150
},
{
  "type": "node",
  "id": 2084166524,
  "lat": 50.4137066,
  "lon": 14.9060159
},
{
  "type": "node",
  "id": 2084166526,
  "lat": 50.4137084,
  "lon": 14.9054172
},
{
  "type": "node",
  "id": 2084166528,
  "lat": 50.4137114,
  "lon": 14.9054224
},
{
  "type": "node",
  "id": 2084166531,
  "lat": 50.4137120,
  "lon": 14.9054298
},
{
  "type": "node",
  "id": 2084166533,
  "lat": 50.4137167,
  "lon": 14.9060062
},
{
  "type": "node",
  "id": 2084166535,
  "lat": 50.4137956,
  "lon": 14.9059980
},
{
  "type": "node",
  "id": 2084166536,
  "lat": 50.4137907,
  "lon": 14.9060262
},
{
  "type": "node",
  "id": 2084166537,
  "lat": 50.4137842,
  "lon": 14.9060187
},
{
  "type": "node",
  "id": 2084166538,
  "lat": 50.4137360,
  "lon": 14.9059717
},
{
  "type": "node",
  "id": 2084166550,
  "lat": 50.4137820,
  "lon": 14.9060053
},
{
  "type": "node",
  "id": 2084166552,
  "lat": 50.4137823,
  "lon": 14.9060127
},
{
  "type": "node",
  "id": 2084166553,
  "lat": 50.4137874,
  "lon": 14.9060236
},
{
  "type": "node",
  "id": 2084166555,
  "lat": 50.4137991,
  "lon": 14.9060214
},
{
  "type": "node",
  "id": 2084166557,
  "lat": 50.4138040,
  "lon": 14.9060192
},
{
  "type": "node",
  "id": 2084166559,
  "lat": 50.4138010,
  "lon": 14.9060146
},
{
  "type": "node",
  "id": 2084166561,
  "lat": 50.4138094,
  "lon": 14.9059984
},
{
  "type": "node",
  "id": 2084166563,
  "lat": 50.4139090,
  "lon": 14.9055686
},
{
  "type": "node",
  "id": 2084166565,
  "lat": 50.4139113,
  "lon": 14.9055633
},
{
  "type": "node",
  "id": 2084166567,
  "lat": 50.4139159,
  "lon": 14.9055604
},
{
  "type": "node",
  "id": 2084166570,
  "lat": 50.4139179,
  "lon": 14.9055856
},
{
  "type": "node",
  "id": 2084166572,
  "lat": 50.4139205,
  "lon": 14.9055617
},
{
  "type": "node",
  "id": 2084166574,
  "lat": 50.4139219,
  "lon": 14.9055827
},
{
  "type": "node",
  "id": 2084166576,
  "lat": 50.4139238,
  "lon": 14.9055668
},
{
  "type": "node",
  "id": 2084166578,
  "lat": 50.4139247,
  "lon": 14.9055753
},
{
  "type": "node",
  "id": 7043399196,
  "lat": 50.4137955,
  "lon": 14.9060258
},
{
  "type": "node",
  "id": 7043399197,
  "lat": 50.4137998,
  "lon": 14.9060036
},
{
  "type": "node",
  "id": 7043399198,
  "lat": 50.4138023,
  "lon": 14.9060345
},
{
  "type": "node",
  "id": 7043399199,
  "lat": 50.4138042,
  "lon": 14.9060486
},
{
  "type": "node",
  "id": 7043399200,
  "lat": 50.4138102,
  "lon": 14.9060612
},
{
  "type": "node",
  "id": 7043399201,
  "lat": 50.4138207,
  "lon": 14.9060697
},
{
  "type": "node",
  "id": 7043399202,
  "lat": 50.4138308,
  "lon": 14.9060702
},
{
  "type": "node",
  "id": 7043399203,
  "lat": 50.4138406,
  "lon": 14.9060634
},
{
  "type": "node",
  "id": 7043399204,
  "lat": 50.4138466,
  "lon": 14.9060530
},
{
  "type": "node",
  "id": 7043399205,
  "lat": 50.4138569,
  "lon": 14.9060186
},
{
  "type": "node",
  "id": 7043399206,
  "lat": 50.4138349,
  "lon": 14.9060027
},
{
  "type": "node",
  "id": 7043399207,
  "lat": 50.4138372,
  "lon": 14.9059954
},
{
  "type": "node",
  "id": 7043399208,
  "lat": 50.4138591,
  "lon": 14.9060113
},
{
  "type": "node",
  "id": 7043399209,
  "lat": 50.4138679,
  "lon": 14.9059804
},
{
  "type": "node",
  "id": 7043399210,
  "lat": 50.4138695,
  "lon": 14.9059719
},
{
  "type": "node",
  "id": 7043399211,
  "lat": 50.4138691,
  "lon": 14.9059583
},
{
  "type": "node",
  "id": 7043399212,
  "lat": 50.4138671,
  "lon": 14.9059511
},
{
  "type": "node",
  "id": 7043399213,
  "lat": 50.4138635,
  "lon": 14.9059422
},
{
  "type": "node",
  "id": 7043399214,
  "lat": 50.4138588,
  "lon": 14.9059352
},
{
  "type": "node",
  "id": 7043399215,
  "lat": 50.4138490,
  "lon": 14.9059297
},
{
  "type": "node",
  "id": 7043399216,
  "lat": 50.4138391,
  "lon": 14.9059304
},
{
  "type": "node",
  "id": 7043399217,
  "lat": 50.4138329,
  "lon": 14.9059344
},
{
  "type": "node",
  "id": 7043399218,
  "lat": 50.4138277,
  "lon": 14.9059411
},
{
  "type": "node",
  "id": 7043399219,
  "lat": 50.4138177,
  "lon": 14.9059676
},
{
  "type": "node",
  "id": 7043399220,
  "lat": 50.4138064,
  "lon": 14.9059601
},
{
  "type": "node",
  "id": 910943657,
  "lat": 50.4188969,
  "lon": 14.9135162
},
{
  "type": "node",
  "id": 910944278,
  "lat": 50.4184152,
  "lon": 14.9135015
},
{
  "type": "node",
  "id": 910965249,
  "lat": 50.4185171,
  "lon": 14.9132196
},
{
  "type": "node",
  "id": 910986669,
  "lat": 50.4185650,
  "lon": 14.9144410
},
{
  "type": "node",
  "id": 912087456,
  "lat": 50.4183360,
  "lon": 14.9151510
},
{
  "type": "node",
  "id": 912088315,
  "lat": 50.4188640,
  "lon": 14.9139930
},
{
  "type": "node",
  "id": 912098056,
  "lat": 50.4183980,
  "lon": 14.9152110
},
{
  "type": "node",
  "id": 912104791,
  "lat": 50.4184935,
  "lon": 14.9146510
},
{
  "type": "node",
  "id": 912109250,
  "lat": 50.4187630,
  "lon": 14.9138990
},
{
  "type": "node",
  "id": 1849979405,
  "lat": 50.4181774,
  "lon": 14.9140993
},
{
  "type": "node",
  "id": 1849979407,
  "lat": 50.4182978,
  "lon": 14.9151257
},
{
  "type": "node",
  "id": 1955744750,
  "lat": 50.4183507,
  "lon": 14.9136058
},
{
  "type": "node",
  "id": 1955744754,
  "lat": 50.4183942,
  "lon": 14.9134820
},
{
  "type": "node",
  "id": 3859545913,
  "lat": 50.4186864,
  "lon": 14.9133530
},
{
  "type": "node",
  "id": 5834401899,
  "lat": 50.4187904,
  "lon": 14.9138205
},
{
  "type": "node",
  "id": 3049353878,
  "lat": 50.5359113,
  "lon": 15.2312624
},
{
  "type": "node",
  "id": 3049353884,
  "lat": 50.5359568,
  "lon": 15.2311747
},
{
  "type": "node",
  "id": 3049353885,
  "lat": 50.5359639,
  "lon": 15.2311873
},
{
  "type": "node",
  "id": 3049353887,
  "lat": 50.5359741,
  "lon": 15.2313702
},
{
  "type": "node",
  "id": 3049353895,
  "lat": 50.5360581,
  "lon": 15.2310279
},
{
  "type": "node",
  "id": 3049353896,
  "lat": 50.5360660,
  "lon": 15.2310420
},
{
  "type": "node",
  "id": 3049353901,
  "lat": 50.5361005,
  "lon": 15.2309929
},
{
  "type": "node",
  "id": 3049353908,
  "lat": 50.5361625,
  "lon": 15.2310989
},
{
  "type": "node",
  "id": 1418276291,
  "lat": 50.4716125,
  "lon": 15.3820643
},
{
  "type": "node",
  "id": 1418276296,
  "lat": 50.4716224,
  "lon": 15.3822581
},
{
  "type": "node",
  "id": 1418276338,
  "lat": 50.4716766,
  "lon": 15.3820442
},
{
  "type": "node",
  "id": 1418276342,
  "lat": 50.4716838,
  "lon": 15.3821819
},
{
  "type": "node",
  "id": 1418276396,
  "lat": 50.4718018,
  "lon": 15.3820062
},
{
  "type": "node",
  "id": 1418276400,
  "lat": 50.4718052,
  "lon": 15.3821809
},
{
  "type": "node",
  "id": 1418276456,
  "lat": 50.4719070,
  "lon": 15.3822818
},
{
  "type": "node",
  "id": 1418276474,
  "lat": 50.4719214,
  "lon": 15.3819808
},
{
  "type": "node",
  "id": 4358449029,
  "lat": 50.4716977,
  "lon": 15.3822677
},
{
  "type": "way",
  "id": 484468323,
  "nodes": [
    4772179600,
    4772179599,
    4772179598,
    4772179597,
    4772179596,
    4772179595,
    4772179594,
    4772179600
  ]
},
{
  "type": "way",
  "id": 484468324,
  "nodes": [
    4772179728,
    4772179727,
    4772179726,
    4772179725,
    4772179724,
    4772179723,
    4772179722,
    4772179721,
    4772179620,
    4772179619,
    4772179618,
    4772179617,
    4772179616,
    4772179615,
    4772179614,
    4772179613,
    4772179612,
    4772179611,
    4772179610,
    4772179609,
    4772179608,
    4772179607,
    4772179606,
    4772179605,
    4772179604,
    4772179603,
    4772179602,
    4772179601,
    4772179728
  ]
}

  ]
}
