{
  "version": 0.6,
  "generator": "Overpass API 0.7.55.1011 6c2efc30",
  "osm3s": {
    "timestamp_osm_base": "2020-02-14T12:16:02Z",
    "copyright": "The data included in this document is from www.openstreetmap.org. The data is made available under ODbL."
  },
  "elements": [

{
  "type": "node",
  "id": 976737912,
  "lat": 54.4559749,
  "lon": 22.4335222,
  "tags": {
    "name": "Мемориальный музей Кристионаса Донелайтиса",
    "name:de": "Kristijonas-Donelaitis-Museum",
    "name:en": "Kristijonas Donelaitis Memorial Museum",
    "name:lt": "Kristijono Donelaičio muziejus",
    "name:ru": "Мемориальный музей Кристионаса Донелайтиса",
    "opening_hours": "10:00-18:00",
    "tourism": "museum",
    "website": "http://www.museum.ru/westrussia/pastor-house.html",
    "wikidata": "Q16449814",
    "wikipedia": "lt:Donelaičio memorialinis muziejus"
  }
},
{
  "type": "node",
  "id": 1851243585,
  "lat": 54.3047140,
  "lon": 22.2960372,
  "tags": {
    "name": "Muzeum Ziemi Gołdapskiej",
    "tourism": "museum"
  }
},
{
  "type": "node",
  "id": 2207997692,
  "lat": 54.4086147,
  "lon": 22.0169555,
  "tags": {
    "name": "историко-краеведческого музея",
    "name:de": "Historisches Museum Osjorsk",
    "tourism": "museum"
  }
},
{
  "type": "node",
  "id": 3812014296,
  "lat": 54.0992783,
  "lon": 22.6472613,
  "tags": {
    "name": "Museum of East Prussian Fortification",
    "tourism": "museum",
    "website": "http://www.fortyfikacje.net/pisz/amain.htm"
  }
},
{
  "type": "node",
  "id": 3813314989,
  "lat": 54.2638737,
  "lon": 22.7802802,
  "tags": {
    "name": "Galeria Wiejska",
    "tourism": "museum"
  }
},
{
  "type": "node",
  "id": 4887474748,
  "lat": 54.4279527,
  "lon": 22.7501374,
  "tags": {
    "description": "Apsilankę mūsų muziejuje \"Metalo Fantazija\" pamatysite unikalių gaminių iš metalo detalių, kurios buvo pasmerktos perdirbimui ar sunaikinimui.",
    "image": "https://pusele.lt/wp-content/uploads/2019/06/metalo_fantazija_slide2-400x300.jpg",
    "name": "Metalo Fantazijos",
    "tourism": "museum",
    "website": "https://pusele.lt/muziejus-metalo-fantazija/"
  }
},
{
  "type": "node",
  "id": 4945628321,
  "lat": 54.5963589,
  "lon": 22.2061671,
  "tags": {
    "name": "Краеведческий музей",
    "name:ru": "Краеведческий музей",
    "tourism": "museum"
  }
},
{
  "type": "node",
  "id": 5974177301,
  "lat": 54.2220675,
  "lon": 22.8102851,
  "tags": {
    "name": "Suwalski Park Krajobrazowy",
    "opening_hours": "Mo-Fr 08:00-16:00; Jul-Aug: Mo-Fr 08:00-19:00; Jul-Aug: Sa,Su 10:00-17:00",
    "tourism": "museum"
  }
},
{
  "type": "way",
  "id": 508152657,
  "nodes": [
    4975071033,
    4975071034,
    4975071035,
    4975071036,
    4975071033
  ],
  "tags": {
    "addr:city": "Краснолесье",
    "addr:housenumber": "5А",
    "addr:postcode": "238023",
    "addr:street": "Школьная улица",
    "building": "yes",
    "name": "Виштынецкий эколого-исторический музей",
    "tourism": "museum"
  }
},
{
  "type": "way",
  "id": 769938835,
  "nodes": [
    6458357522,
    7187706502,
    7187706501,
    7187706500,
    6458357522
  ],
  "tags": {
    "leisure": "park",
    "name": "МУЗЕЙ",
    "tourism": "museum"
  }
},
{
  "type": "node",
  "id": 4975071033,
  "lat": 54.3951910,
  "lon": 22.3739162
},
{
  "type": "node",
  "id": 4975071034,
  "lat": 54.3951067,
  "lon": 22.3738089
},
{
  "type": "node",
  "id": 4975071035,
  "lat": 54.3950240,
  "lon": 22.3740047
},
{
  "type": "node",
  "id": 4975071036,
  "lat": 54.3951083,
  "lon": 22.3741147
},
{
  "type": "node",
  "id": 6458357522,
  "lat": 54.5959958,
  "lon": 22.2064272
},
{
  "type": "node",
  "id": 7187706500,
  "lat": 54.5957910,
  "lon": 22.2062269
},
{
  "type": "node",
  "id": 7187706501,
  "lat": 54.5960446,
  "lon": 22.2054540
},
{
  "type": "node",
  "id": 7187706502,
  "lat": 54.5962494,
  "lon": 22.2056543
}

  ]
}
