{
  "version": 0.6,
  "generator": "Overpass API 0.7.55.1011 6c2efc30",
  "osm3s": {
    "timestamp_osm_base": "2020-02-14T13:27:01Z",
    "copyright": "The data included in this document is from www.openstreetmap.org. The data is made available under ODbL."
  },
  "elements": [

{
  "type": "node",
  "id": 850179226,
  "lat": 39.4797148,
  "lon": -0.3826960,
  "tags": {
    "addr:city": "Valencia",
    "addr:housenumber": "118",
    "addr:postcode": "46003",
    "addr:street": "Calle de Guillem de Castro",
    "name": "Institut Valencià d'Art Modern (IVAM)",
    "name:en": "Valencian Institute of Modern Art",
    "short_name": "IVAM",
    "tourism": "museum",
    "website": "http://www.ivam.es",
    "wikidata": "Q1600831",
    "wikipedia": "es:Instituto Valenciano de Arte Moderno"
  }
},
{
  "type": "node",
  "id": 919051160,
  "lat": 39.4353794,
  "lon": -0.4352231,
  "tags": {
    "designation": "Espacio para manifestaciones Culturales",
    "name": "Sala Municipal d'Exposicions",
    "tourism": "museum"
  }
},
{
  "type": "node",
  "id": 1543127103,
  "lat": 39.1908787,
  "lon": -0.4401009,
  "tags": {
    "name": "Museu de la Festa",
    "opening_hours": "Mo-Fr 08:30-19:00",
    "tourism": "museum",
    "website": "http://www.museudelafesta.es"
  }
},
{
  "type": "node",
  "id": 1601436861,
  "lat": 39.2004819,
  "lon": -0.3088363,
  "tags": {
    "name": "Departamento del arroz",
    "tourism": "museum"
  }
},
{
  "type": "node",
  "id": 1712470634,
  "lat": 39.1840616,
  "lon": -0.2187901,
  "tags": {
    "ele": "40",
    "name": "Museu de Cova del Dragut",
    "natural": "cave_entrance",
    "ref:DOCV": "5261",
    "ref:EUNIS": "389476",
    "ref:IGN": "747",
    "ref:topografia": "http://www.cma.gva.es/areas/espacios/cuevas/cova_del_dragut.pdf",
    "source": "http://www.cma.gva.es/web/indice.aspx?nodo=1959",
    "tourism": "museum",
    "website": "http://www.cuevadeldragut.com"
  }
},
{
  "type": "node",
  "id": 1759980424,
  "lat": 39.4649385,
  "lon": -0.4624501,
  "tags": {
    "designation": "Palacete Señorial Rehabilitado. Actual Sala de Exposiciones.",
    "name": "Casa de la Llotgeta (s. XVI)",
    "tourism": "museum"
  }
},
{
  "type": "node",
  "id": 1760042680,
  "lat": 39.4231351,
  "lon": -0.4027227,
  "tags": {
    "designation": "Molì Arrosser de Favara (Edificio Etnológico)",
    "name": "Museo Arqueológico \"Arrels de Fang\"",
    "tourism": "museum"
  }
},
{
  "type": "node",
  "id": 1760358426,
  "lat": 39.4027255,
  "lon": -0.4075641,
  "tags": {
    "designation": "Museo de Pintura",
    "name": "Museo Antonia Mir",
    "tourism": "museum"
  }
},
{
  "type": "node",
  "id": 1760395694,
  "lat": 39.3937425,
  "lon": -0.3804041,
  "tags": {
    "name": "Museo Etnológico de les Barracas",
    "tourism": "museum"
  }
},
{
  "type": "node",
  "id": 1760404673,
  "lat": 39.3897460,
  "lon": -0.3715367,
  "tags": {
    "designation": "Edificio Etnológico y sede de la Asociación de Vela Latina de Catarroja",
    "name": "Casa-Museo Zulema (1881)",
    "tourism": "museum"
  }
},
{
  "type": "node",
  "id": 1760732894,
  "lat": 39.4888780,
  "lon": -0.4559190,
  "tags": {
    "designation": "Exposiciones Temáticas Temporales",
    "name": "Sala de Exposiciones 'Els Filtres'",
    "tourism": "museum"
  }
},
{
  "type": "node",
  "id": 1760750081,
  "lat": 39.4898902,
  "lon": -0.4561952,
  "tags": {
    "designation": "Antigua Fábrica de Cerámica Juan Bautista Huerta Aviñó. MUMAF Carlos Sanchis",
    "name": "Edificio 'El Arte'. Museo Fotografía de Manises.",
    "tourism": "museum"
  }
},
{
  "type": "node",
  "id": 1760766266,
  "lat": 39.4923120,
  "lon": -0.4556454,
  "tags": {
    "name": "Museo de Cerámica de Manises",
    "tourism": "museum"
  }
},
{
  "type": "node",
  "id": 1760831054,
  "lat": 39.4091481,
  "lon": -0.3974066,
  "tags": {
    "designation": "Edificio del Antiguo Ayuntamiento",
    "name": "Col·lecció Etnològica Joan Comes",
    "tourism": "museum"
  }
},
{
  "type": "node",
  "id": 1760848717,
  "lat": 39.4242229,
  "lon": -0.4175097,
  "tags": {
    "designation": "Antigua Fábrica de Rajola (incluye una sala complementaria de exposiciones temporales)",
    "name": "Museu de la Rajoleria ",
    "tourism": "museum"
  }
},
{
  "type": "node",
  "id": 1761630527,
  "lat": 39.4353180,
  "lon": -0.4623537,
  "tags": {
    "designation": "Casa-museo etnológico",
    "name": "Museu Comarcal de l'Horta Sud 'Josep Ferris'",
    "tourism": "museum"
  }
},
{
  "type": "node",
  "id": 1761641918,
  "lat": 39.4307272,
  "lon": -0.4649045,
  "tags": {
    "name": "Museo de la Semana Santa de Torrent",
    "tourism": "museum"
  }
},
{
  "type": "node",
  "id": 1981174882,
  "lat": 39.4871616,
  "lon": -0.3806511,
  "tags": {
    "tourism": "museum"
  }
},
{
  "type": "node",
  "id": 2103439432,
  "lat": 39.7290385,
  "lon": -0.2671190,
  "tags": {
    "name": "Casa Guarner",
    "tourism": "museum"
  }
},
{
  "type": "node",
  "id": 2103439435,
  "lat": 39.7293192,
  "lon": -0.2674302,
  "tags": {
    "name": "Casa Sánchez Coello",
    "tourism": "museum"
  }
},
{
  "type": "node",
  "id": 2508173010,
  "lat": 39.4662830,
  "lon": -0.3756447,
  "tags": {
    "name": "Museo Taurino",
    "name:ru": "Музей корриды",
    "tourism": "museum"
  }
},
{
  "type": "node",
  "id": 2700282752,
  "lat": 39.4767176,
  "lon": -0.3782275,
  "tags": {
    "addr:city": "Valencia",
    "addr:postcode": "46003",
    "addr:street": "Carrer Cavallers",
    "name": "Museo de los Soldaditos de Plomo",
    "tourism": "museum",
    "wikidata": "Q9047028",
    "wikipedia": "es:Museo de Soldaditos de Plomo L’Iber"
  }
},
{
  "type": "node",
  "id": 2837879847,
  "lat": 39.5480378,
  "lon": -0.3941011,
  "tags": {
    "name": "Museo de la Seda",
    "operator": "Ajuntament de Moncada",
    "tourism": "museum"
  }
},
{
  "type": "node",
  "id": 3802381022,
  "lat": 39.6258545,
  "lon": -0.5937233,
  "tags": {
    "name": "Museu Arqueològic de Llíria",
    "tourism": "museum"
  }
},
{
  "type": "node",
  "id": 3802381023,
  "lat": 39.6255983,
  "lon": -0.5942751,
  "tags": {
    "name": "Museu Silvestre d'Edeta",
    "tourism": "museum"
  }
},
{
  "type": "node",
  "id": 3909167214,
  "lat": 39.2005888,
  "lon": -0.3874454,
  "tags": {
    "name": "Casa del Bou",
    "tourism": "museum"
  }
},
{
  "type": "node",
  "id": 4655765825,
  "lat": 39.5874879,
  "lon": -0.5576838,
  "tags": {
    "addr:city": "La Pobla de Vallbona",
    "addr:housenumber": "13",
    "addr:postcode": "46185",
    "addr:street": "Carrer de Sant Josep",
    "name": "La Casa Gran Museu Etnològic",
    "tourism": "museum"
  }
},
{
  "type": "node",
  "id": 4684981370,
  "lat": 39.5922385,
  "lon": -0.5531237,
  "tags": {
    "addr:city": "la Pobla de Vallbona",
    "addr:housenumber": "20",
    "addr:postcode": "46185",
    "addr:street": "Carrer del Poeta Llorente",
    "name": "Casa Bernal",
    "tourism": "museum"
  }
},
{
  "type": "node",
  "id": 4796513224,
  "lat": 39.6833292,
  "lon": -0.3096124,
  "tags": {
    "name": "Museu de Petres",
    "name:ca": "Museu de Petres",
    "tourism": "museum"
  }
},
{
  "type": "node",
  "id": 4854372337,
  "lat": 39.4783471,
  "lon": -0.3829777,
  "tags": {
    "addr:housenumber": "36",
    "addr:postcode": "46003",
    "addr:street": "Carrer de la Corona",
    "name": "Museu de Prehistòria de València",
    "name:ca": "Museu de Prehistòria de València",
    "name:es": "Museo de Prehistoria de Valencia",
    "opening_hours": "Tu-Su 10:00-22:00",
    "phone": "+34 963883565",
    "tourism": "museum",
    "website": "http://museuprehistoriavalencia.es",
    "wikidata": "Q2701512",
    "wikipedia": "es:Museo de Prehistoria de Valencia"
  }
},
{
  "type": "node",
  "id": 4854372524,
  "lat": 39.4785818,
  "lon": -0.3831241,
  "tags": {
    "addr:housenumber": "36",
    "addr:postcode": "46003",
    "addr:street": "Carrer de la Corona",
    "name": "Museu Valencià d'Etnologia",
    "name:ca": "Museu Valencià d'Etnologia",
    "name:es": "Museo Valenciano de Etnología",
    "opening_hours": "Tu-Su 10:00-22:00",
    "phone": "+34 963883619",
    "tourism": "museum",
    "website": "http://museuvalenciaetnologia.es",
    "wikidata": "Q1577723",
    "wikipedia": "es:Museo Valenciano de Etnología"
  }
},
{
  "type": "node",
  "id": 5100017480,
  "lat": 39.4855478,
  "lon": -0.3849821,
  "tags": {
    "contact:email": "info@bombasgens.com",
    "contact:facebook": "https://www.facebook.com/BombasGens/",
    "contact:phone": "+34 963 463 856",
    "contact:twitter": "https://twitter.com/BombasGens",
    "name": "Bombas Gens Centre d'Art",
    "opening_hours": "We 17:00-21:00; Th-Su 11:00-14:00,17:00-21:00; Mo,Tu off",
    "operator": "Fundació per Amor a l'Art",
    "tourism": "museum",
    "website": "https://www.bombasgens.com/"
  }
},
{
  "type": "node",
  "id": 5126811958,
  "lat": 39.4725394,
  "lon": -0.3746997,
  "tags": {
    "name": "Museo Nacional de Cerámica y Artes Santuarias \"González Martí\"",
    "name:ca": "Palau del Marqués de Dosaigües",
    "name:it": "Museo della Ceramica González Martí",
    "name:ru": "Музей керамики",
    "opening_hours": "Mo-Su 10:00-14:00, 16:00-20:00",
    "tourism": "museum"
  }
},
{
  "type": "node",
  "id": 5167202796,
  "lat": 39.4632131,
  "lon": -0.3319182,
  "tags": {
    "addr:housenumber": "3",
    "contact:phone": "+34 96 367 62 91",
    "name": "Museu de l'Arròs",
    "name:ca": "Museu de l'Arròs",
    "name:es": "Museo del Arroz",
    "tourism": "museum",
    "website": "http://www.museoarrozvalencia.es"
  }
},
{
  "type": "node",
  "id": 5167202797,
  "lat": 39.4631054,
  "lon": -0.3319289,
  "tags": {
    "addr:city": "Valencia",
    "addr:housenumber": "1",
    "addr:postcode": "46011",
    "addr:street": "Carrer del Rosari",
    "name": "Casa Museo de la Semana Santa Marinera de Valencia",
    "tourism": "museum"
  }
},
{
  "type": "node",
  "id": 5268218365,
  "lat": 39.3623074,
  "lon": -0.4121872,
  "tags": {
    "name": "MARS Museu d'Història i Arqueología Silla",
    "operator": "Ajuntament de Silla",
    "tourism": "museum"
  }
},
{
  "type": "node",
  "id": 5596900823,
  "lat": 39.4745821,
  "lon": -0.3760315,
  "tags": {
    "name:en": "Set Art Gallery",
    "tourism": "museum"
  }
},
{
  "type": "node",
  "id": 5606949021,
  "lat": 39.4719982,
  "lon": -0.3727077,
  "tags": {
    "addr:housenumber": "2",
    "addr:postcode": "46003",
    "addr:street": "Carrer de la Universitat",
    "name": "Centre cultural La Nau de la Universitat de València",
    "name:es": "Centro cultural la Nau",
    "opening_hours": "Mo-Su 10:00-14:00, 16:00-20:00",
    "tourism": "museum"
  }
},
{
  "type": "node",
  "id": 5612731421,
  "lat": 39.4797270,
  "lon": -0.3826912,
  "tags": {
    "name": "Instituto Valenciano De Arte Moderno",
    "tourism": "museum"
  }
},
{
  "type": "node",
  "id": 6221586936,
  "lat": 39.5129226,
  "lon": -0.3557881,
  "tags": {
    "addr:city": "Almàssera",
    "addr:housenumber": "1",
    "addr:postcode": "46132",
    "addr:street": "Calle de San José",
    "description": "Casa Natalicia de los hermanos Lladró, importantes en Valencia y ligados a la empresa Lladró, esta es la casa donde nacieron y donde empezó su carrera artística.",
    "email": "museo-lladro@es.lladro.com",
    "name": "Casa Natalícia Germans Lladró",
    "name:ca": "Casa Natalícia Germans Lladró",
    "name:es": "Casa Natal Hermanos Lladró",
    "phone": "+34 96 185 95 44",
    "tourism": "museum"
  }
},
{
  "type": "node",
  "id": 6403156110,
  "lat": 39.5072329,
  "lon": -0.4209134,
  "tags": {
    "addr:city": "Burjassot",
    "addr:housenumber": "50",
    "addr:postcode": "46100",
    "addr:street": "Carrer del Doctor Moliner",
    "contact:email": "museuhn@uv.es",
    "contact:phone": "+34 963 983 999",
    "name": "Museu de la Universitat de València d'Història Natural",
    "opening_hours": "Mo off; Tu-Fr 10:00-19:00; Sa,Su 10:00-14:00",
    "operator": "Universitat de València",
    "subject": "nature",
    "tourism": "museum",
    "website": "https://www.uv.es/museuhn"
  }
},
{
  "type": "node",
  "id": 7069334275,
  "lat": 39.2220385,
  "lon": -0.3329832,
  "tags": {
    "name": "Museu de l'arròs de Sueca",
    "tourism": "museum",
    "website": "http://www.arroceando.com/museo/museu-de-larros-de-sueca/#.XftWblVKiUk"
  }
},
{
  "type": "node",
  "id": 7208643022,
  "lat": 39.5126254,
  "lon": -0.3501499,
  "tags": {
    "addr:street": "Avda. Del mar, 24",
    "name": "Museu de l'Horta",
    "tourism": "museum",
    "website": "http://www.museuvalenciaetnologia.es/es/content/museu-de-lhorta-almassera"
  }
},
{
  "type": "node",
  "id": 7209381409,
  "lat": 39.5126071,
  "lon": -0.3501861,
  "tags": {
    "addr:housenumber": "24",
    "addr:street": "Avda. Del mar",
    "name": "Museu de l'horta",
    "phone": "961853750",
    "tourism": "museum",
    "website": "http://www.museuvalenciaetnologia.es/es/content/museu-de-lhorta-almassera"
  }
},
{
  "type": "way",
  "id": 11855515,
  "nodes": [
    106365278,
    106364916,
    106364924,
    5585864668,
    5585864667,
    5585864674,
    5585864666,
    5585864672,
    5585864673,
    5585864670,
    5585864675,
    5585864669,
    5585864671,
    106364934,
    106364937,
    106364947,
    5585864665,
    5585864664,
    5585864652,
    5585864654,
    5585864653,
    5585864663,
    106364952,
    5585864660,
    5585864662,
    5585864659,
    106364957,
    5585864658,
    5585864661,
    5585864657,
    106364974,
    5585864656,
    5585864655,
    106364986,
    5585864677,
    5585864678,
    106364996,
    106365005,
    5585864680,
    5585864679,
    106365016,
    106365027,
    106365028,
    106365036,
    106365043,
    106365047,
    106365169,
    106365174,
    106365180,
    5585864676,
    106365190,
    106365278
  ],
  "tags": {
    "addr:city": "Valencia",
    "addr:country": "ES",
    "addr:housenumber": "9",
    "addr:postcode": "46010",
    "addr:street": "Carrer de Sant Pius V",
    "alt_name": "Museo de San Pío V",
    "building": "yes",
    "contact:email": "museobellasartesvalencia@gva.es",
    "contact:fax": "+34 96 387 03 01",
    "contact:phone": "+34 96 387 03 00",
    "contact:twitter": "GVAmubav",
    "email": "museobellasartesvalencia@gva.es",
    "fee": "no",
    "name": "Museu de Belles Arts de València",
    "name:ca": "Museu de Belles Arts de València",
    "name:es": "Museo de Bellas Artes de Valencia",
    "name:ru": "Музей изящных искусств Валенсии",
    "opening_hours": "Tu-Su 10:00-20:00",
    "phone": "+34 96 387 03 00",
    "tourism": "museum",
    "website": "http://museobellasartesvalencia.gva.es/",
    "wheelchair": "yes",
    "wikipedia": "es:Museo de Bellas Artes de Valencia"
  }
},
{
  "type": "way",
  "id": 15218690,
  "nodes": [
    150538171,
    150538172,
    150538173,
    150538174,
    5457892439,
    7021924261,
    5457892442,
    150538175,
    150538176,
    150538177,
    150538178,
    150538179,
    150538180,
    5457892438,
    4830436864,
    5457892436,
    150538171
  ],
  "tags": {
    "addr:city": "Valencia",
    "addr:housenumber": "10",
    "addr:postcode": "46001",
    "addr:street": "Carrer de Quevedo",
    "building": "yes",
    "layer": "1",
    "name": "Museu Valencià de la Il·lustració i de la Modernitat",
    "name:ca": "Museu Valencià de la Il·lustració i de la Modernitat",
    "name:es": "Museo Valenciano de la Ilustración y la Modernidad",
    "operator": "Diputació de València",
    "phone": "+34 96 388 37 30",
    "short_name": "MuVIM",
    "tourism": "museum",
    "website": "http://www.muvim.es/"
  }
},
{
  "type": "way",
  "id": 23433775,
  "nodes": [
    253802883,
    5087324708,
    253802885,
    253802886,
    5087324706,
    253802887,
    253802883
  ],
  "tags": {
    "building": "yes",
    "designation": "Museo De Las Artes y Las Ciencias \"Principe Felipe\"",
    "name": "Museu de les Ciències «Príncep Felip»",
    "name:ca": "Museu de les Ciències «Príncep Felip»",
    "name:en": "Príncipe Felipe Science Museum",
    "name:es": "Museo de las Ciencias «Príncipe Felipe»",
    "name:it": "Museo delle scienze \"Principe Felipe\"",
    "name:ru": "Музей наук принца Фелипе",
    "opening_hours": "Jan 08-Mar 28,Oct 15-Dec 05,Dec 10-23 Mo-Th 10:00-18:00,Fr-Su 10:00-19:00; Jan 02-07,Mar 29-Jun 29,Sep 10-Oct 14,Dec 06-09,Dec 26-30 10:00-19:00; Jun 30-Sep 09 10:00-21:00; Jan 01 16:00-20:00; Dec 24 10:00-14:00; Dec 25 17:00-21:00; Dec 31 10:00-18:00",
    "tourism": "museum",
    "wikipedia": "ca:Museu de les Ciències Príncep Felip"
  }
},
{
  "type": "way",
  "id": 23807859,
  "nodes": [
    258006642,
    258006643,
    258006645,
    258006646,
    258006647,
    258006649,
    258006651,
    258006653,
    258006655,
    258006656,
    258006658,
    258006660,
    2817468897,
    2817468898,
    2817468899,
    2817468900,
    2817468901,
    2817468902,
    2817507021,
    2817507007,
    2817507050,
    2817468971,
    2817468969,
    2817507044,
    2817468964,
    2817468963,
    2817507042,
    2817468960,
    258006642
  ],
  "tags": {
    "addr:city": "València",
    "addr:postcode": "46010",
    "addr:street": "Carrer del General Elío",
    "building": "yes",
    "email": "museociencias@valencia.es",
    "name": "Museu de Ciències Naturals",
    "name:ca": "Museu de Ciències Naturals",
    "name:es": "Museo de Ciencias Naturales",
    "opening_hours": "Tu-Su,PH 10:00-19:00",
    "operator": "Ajuntament de València",
    "phone": "+34 962 08 43 13",
    "tourism": "museum",
    "wikidata": "Q9047012",
    "wikipedia": "es:Museo de Ciencias Naturales de Valencia"
  }
},
{
  "type": "way",
  "id": 75135403,
  "nodes": [
    886869347,
    886869372,
    886869316,
    886869208,
    886869347
  ],
  "tags": {
    "building": "yes",
    "name": "Refugio Museo de la Guerra Civil",
    "opening_hours": "Tu-Su 10:30-13:00, 18:00-20:00",
    "tourism": "museum"
  }
},
{
  "type": "way",
  "id": 75135410,
  "nodes": [
    886869254,
    886869310,
    886869198,
    886869390,
    886869254
  ],
  "tags": {
    "building": "yes",
    "name": "Refugio Museo de la Guerra Civil",
    "opening_hours": "Tu-Su 10:30-13:00, 18:00-20:00",
    "tourism": "museum"
  }
},
{
  "type": "way",
  "id": 180732338,
  "nodes": [
    1911929051,
    1911928792,
    1911929047,
    1911928674,
    1911929051
  ],
  "tags": {
    "building": "yes",
    "name": "Arxiu Epigrafic",
    "tourism": "museum"
  }
},
{
  "type": "way",
  "id": 203064254,
  "nodes": [
    2130426183,
    6866874239,
    2130426185,
    6866874238,
    2130426184,
    2130426183
  ],
  "tags": {
    "building": "residential",
    "name": "Museu de la Via del Pòrtic",
    "tourism": "museum"
  }
},
{
  "type": "way",
  "id": 203064322,
  "nodes": [
    2130426643,
    2130426642,
    6866874240,
    6866874241,
    6866874242,
    2130426641,
    6866874243,
    6866874244,
    6866874245,
    6866874246,
    6866874247,
    2130426640,
    2130426643
  ],
  "tags": {
    "building": "residential",
    "name": "Museu de la Domus dels Peixos",
    "tourism": "museum"
  }
},
{
  "type": "way",
  "id": 203064640,
  "nodes": [
    2130428694,
    2130428696,
    6867646478,
    6868222662,
    2130428693,
    6868222679,
    3660952086,
    2130428694
  ],
  "tags": {
    "building": "yes",
    "name": "Museu Arqueològic de Sagunt",
    "tourism": "museum"
  }
},
{
  "type": "way",
  "id": 203084352,
  "nodes": [
    2130524065,
    6867675184,
    2130524064,
    2130524067,
    6867708193,
    6867708192,
    2130524068,
    2130524063,
    2130524066,
    2130524065
  ],
  "tags": {
    "building": "church",
    "name": "Ermita i museu de la Sang",
    "tourism": "museum"
  }
},
{
  "type": "way",
  "id": 216624911,
  "nodes": [
    2260170383,
    2260170204,
    2260170397,
    2260170941,
    2260170383
  ],
  "tags": {
    "alt_name": "museo del arroz",
    "amenity": "place_of_worship",
    "building": "church",
    "denomination": "catholic",
    "name": "Ermita de los Santos de la Piedra",
    "religion": "christian",
    "tourism": "museum",
    "website": "http://www.culleraturismo.com/guia/museo-del-arroz/"
  }
},
{
  "type": "way",
  "id": 219805226,
  "nodes": [
    2289387440,
    2289387071,
    2289387235,
    2289387118,
    2289387616,
    2289387488,
    2289387281,
    2289387440
  ],
  "tags": {
    "building": "yes",
    "description": "Centre de visitants.",
    "name": "Motor de la Pipa",
    "tourism": "museum"
  }
},
{
  "type": "way",
  "id": 291006854,
  "nodes": [
    2944745312,
    2944745313,
    2944745314,
    2944745315,
    2944745316,
    2944745317,
    2944745312
  ],
  "tags": {
    "addr:city": "Valencia",
    "addr:housenumber": "118",
    "addr:postcode": "46003",
    "addr:street": "Carrer de Guillem de Castro",
    "building": "yes",
    "name": "IVAM",
    "tourism": "museum"
  }
},
{
  "type": "way",
  "id": 373606261,
  "nodes": [
    3770451270,
    3770451271,
    7095458520,
    7095458522,
    7095458521,
    3770451269,
    3770451268,
    3770451270
  ],
  "tags": {
    "addr:postcode": "46012",
    "addr:street": "Carretera del Palmar",
    "alt_name": "Centro de Interpretación",
    "amenity": "public_building",
    "building": "yes",
    "email": "raco_olla@gva.es",
    "information": "office",
    "name": "Centre d'Interpretació Racó de l'Olla - Parc Natural de l'Albufera",
    "name:ca": "Centre d'Interpretació Racó de l'Olla - Parc Natural de l'Albufera",
    "name:es": "Centro de Interpretación Racó de l'Olla - Parque Natural de l'Albufera",
    "opening_hours": "Mo-Su 09:00-14:00; Jan 1,6,Mar 19,Dec 24,25,31 off",
    "phone": "+34 961 627345",
    "tourism": "museum",
    "url": "http://www.citma.gva.es/web/pn-l-albufera"
  }
},
{
  "type": "way",
  "id": 418414998,
  "nodes": [
    4188405481,
    4188405480,
    4188405483,
    4188405484,
    4188405481
  ],
  "tags": {
    "addr:city": "Valencia",
    "addr:housenumber": "23",
    "addr:postcode": "46003",
    "addr:street": "Carrer de la Blanqueria",
    "building": "yes",
    "name": "Casa Museu Benlluire",
    "name:ca": "Casa Museu Benlliure",
    "name:es": "Casa Museo Benlliure",
    "opening_hours": "Tu-Sa 09:30-14:00, 15:00-19:00; Su 09:30-14:00",
    "phone": "+34 963 91 16 62",
    "tourism": "museum",
    "website": "http://valencia.es/ayuntamiento/infociudad_accesible.nsf/vDocumentosWebListadov/55BB0B184AACB248C125739B0043B748?OpenDocument&bdOrigen=ayuntamiento/laciudad.nsf&idapoyo=7A56E0AFD4368CBFC12571A900268CE5&nivel=5&lang=2",
    "wikidata": "Q2402329",
    "wikipedia": "es:Mariano Benlliure"
  }
},
{
  "type": "way",
  "id": 444067498,
  "nodes": [
    4415706668,
    4415706669,
    4415706670,
    4415706671,
    4415706672,
    4415706673,
    4415706678,
    4415706674,
    1602559433,
    4415706675,
    4415706676,
    4415706668
  ],
  "tags": {
    "addr:city": "Valencia",
    "addr:housenumber": "4",
    "addr:postcode": "46006",
    "addr:street": "Plaça Montolivet",
    "building": "yes",
    "building:levels": "5",
    "name": "Museo Fallero",
    "tourism": "museum"
  }
},
{
  "type": "way",
  "id": 493777421,
  "nodes": [
    4856542211,
    4856542212,
    5457962829,
    4856542213,
    4856542214,
    4856542211
  ],
  "tags": {
    "addr:housenumber": "3",
    "addr:street": "Carrer del Museu",
    "building": "yes",
    "name": "Palau de Forcalló",
    "tourism": "museum"
  }
},
{
  "type": "way",
  "id": 495233207,
  "nodes": [
    4870102886,
    4870102892,
    4870102893,
    4870102888,
    4870102889,
    4870102890,
    4870102891,
    4870102884,
    4870102885,
    4870102886
  ],
  "tags": {
    "addr:city": "Valencia",
    "addr:housenumber": "3",
    "addr:postcode": "46003",
    "addr:street": "Plaça de Tetuan",
    "building": "yes",
    "name": "Palacio de Cervelló",
    "opening_hours": "Mo-Th 09:30-14:00,15:00-19:00",
    "phone": "+34 963 52 54 78",
    "tourism": "museum",
    "website": "valencia.es"
  }
},
{
  "type": "way",
  "id": 512676794,
  "nodes": [
    6935786156,
    6935786113,
    6935786163,
    5165998676,
    5165998673,
    6935786172,
    6935786156
  ],
  "tags": {
    "addr:city": "València",
    "addr:housenumber": "159",
    "addr:postcode": "46011",
    "addr:street": "Carrer d'Isabel de Villena",
    "building": "public",
    "building:levels": "3",
    "name": "Casa-Museo Blasco Ibañez",
    "source": "Imagen de Catastro de España",
    "tourism": "museum"
  }
},
{
  "type": "way",
  "id": 513357803,
  "nodes": [
    5018398742,
    4159407290,
    5018398748,
    4159407295,
    4159407291,
    4159407274,
    5018398747,
    5018398742
  ],
  "tags": {
    "addr:city": "Valencia",
    "addr:housenumber": "3",
    "addr:postcode": "46003",
    "addr:street": "Carrer de les Roques",
    "building": "yes",
    "name": "Casa de las Rocas - Museo del Corpus",
    "tourism": "museum",
    "website": "http://www.valencia.es/ayuntamiento/Infociudad_accesible.nsf/vDocumentosWebListado/3A693428E5AAA5B0C12572C20023FE0F?OpenDocument&bdOrigen=ayuntamiento/laciudad.nsf"
  }
},
{
  "type": "way",
  "id": 513699154,
  "nodes": [
    5020759634,
    5020759635,
    5020759636,
    5020759637,
    5020759634
  ],
  "tags": {
    "addr:city": "Valencia",
    "addr:housenumber": "1",
    "addr:postcode": "46003",
    "addr:street": "Plaça de l'Arquebisbe",
    "building": "yes",
    "name": "Cripta de la Carcel de San Vicente",
    "tourism": "museum"
  }
},
{
  "type": "way",
  "id": 514873746,
  "nodes": [
    79451104,
    5029240708,
    4159280139,
    4159280131,
    4159280090,
    4159280096,
    4159280089,
    4159280091,
    4159280084,
    5020902337,
    79451104
  ],
  "tags": {
    "addr:city": "Valencia",
    "addr:postcode": "46001",
    "addr:street": "Plaza Décimo Junio Bruto",
    "building": "yes",
    "contact:email": "patrimoniohistorico@valencia.es",
    "contact:phone": "+34 962 084 173",
    "contact:website": "http://www.valencia.es/cultura",
    "name": "Centre Arqueològic l´Almoina",
    "name:ca": "Centre Arqueològic l´Almoina",
    "name:en": "La Almoina Archaeological Centre",
    "name:es": "Centro arqueológico La Almoina",
    "nohousenumber": "yes",
    "opening_hours": "Mo-Sa 10:00-19:00; Su 10:00-14:00",
    "tourism": "museum"
  }
},
{
  "type": "way",
  "id": 514893106,
  "nodes": [
    5029433327,
    5029433328,
    5029433329,
    6266956011,
    5029433330,
    5029433331,
    5029433332,
    5029433327
  ],
  "tags": {
    "addr:city": "Valencia",
    "addr:housenumber": "23",
    "addr:postcode": "46009",
    "addr:street": "Calle de Ruaya",
    "building": "house",
    "name": "Museo Concha Piquer",
    "source": "Catastro Spain",
    "tourism": "museum"
  }
},
{
  "type": "way",
  "id": 514894836,
  "nodes": [
    5029458825,
    5457896679,
    5029458826,
    5029458827,
    5029458828,
    5029458829,
    5457896681,
    5029458830,
    5029458825
  ],
  "tags": {
    "addr:city": "Valencia",
    "addr:housenumber": "7",
    "addr:postcode": "46001",
    "addr:street": "Carrer de l'Hospital",
    "building": "yes",
    "name": "Museo del Colegio Arte Mayor de la Seda",
    "tourism": "museum"
  }
},
{
  "type": "way",
  "id": 514898814,
  "nodes": [
    5029498758,
    5029498759,
    5029498760,
    5029498761,
    5029498762,
    5029498763,
    5029498758
  ],
  "tags": {
    "addr:city": "Mislata",
    "addr:housenumber": "42",
    "addr:postcode": "46920",
    "addr:street": "Carrer de València",
    "building": "yes",
    "name": "Museu d'Història de València",
    "name:ca": "Museu d'Història de València",
    "name:en": "Valencia History Museum",
    "name:es": "Museo de Historia de Valencia",
    "opening_hours": "Tu-Sa 10:00-19:00; PH,Su 10:00-14:00; Mo off",
    "operator": "Ajuntament de València",
    "phone": "+34 963 70 11 05",
    "tourism": "museum",
    "website": "http://www.mhv.com.es",
    "wheelchair": "yes"
  }
},
{
  "type": "way",
  "id": 516574405,
  "nodes": [
    5042582377,
    5042582378,
    5042582382,
    5042582379,
    5042582380,
    5042582381,
    5042582377
  ],
  "tags": {
    "addr:city": "Valencia",
    "addr:housenumber": "17",
    "addr:postcode": "46025",
    "addr:street": "Avenida de San José Artesano",
    "building": "yes",
    "name": "Museo del Gremio de Artistas Falleros",
    "tourism": "museum"
  }
},
{
  "type": "way",
  "id": 516577455,
  "nodes": [
    5042597562,
    5042597563,
    5042597564,
    5042597565,
    5042597562
  ],
  "tags": {
    "addr:city": "Valencia",
    "addr:housenumber": "6",
    "addr:postcode": "46010",
    "addr:street": "Carrer del General Gil Dolz",
    "building": "yes",
    "name": "Museo Histórico Militar de Valencia",
    "tourism": "museum"
  }
},
{
  "type": "way",
  "id": 539012576,
  "nodes": [
    5216382061,
    5216382062,
    5216382063,
    5216382064,
    5216382065,
    5216382066,
    5216382061
  ],
  "tags": {
    "building": "yes",
    "name": "Museu de la Rajoleria",
    "tourism": "museum"
  }
},
{
  "type": "way",
  "id": 552544710,
  "nodes": [
    5334670012,
    5334670013,
    5334670014,
    5334670016,
    5334670017,
    5334670012
  ],
  "tags": {
    "building": "yes",
    "tourism": "museum"
  }
},
{
  "type": "way",
  "id": 733222865,
  "nodes": [
    1911928951,
    6866314226,
    6866314227,
    6866314228,
    6866314229,
    6866314230,
    6866314231,
    6866314232,
    6866314233,
    1911928679,
    1911928846,
    6866314234,
    1911928951
  ],
  "tags": {
    "building": "yes",
    "tourism": "museum"
  }
},
{
  "type": "way",
  "id": 745959288,
  "nodes": [
    6981264502,
    6981264501,
    6981264500,
    6981264499,
    6981264498,
    6981264497,
    6981264496,
    6981264495,
    6981264494,
    6981264552,
    6981264553,
    6981264554,
    6981264508,
    6981264537,
    6981264534,
    6981264535,
    6981264536,
    6981264502
  ],
  "tags": {
    "building": "yes",
    "building:levels": "2",
    "building:part": "yes",
    "tourism": "museum"
  }
},
{
  "type": "relation",
  "id": 3865968,
  "members": [
    {
      "type": "way",
      "ref": 291006855,
      "role": "outer"
    },
    {
      "type": "way",
      "ref": 291006858,
      "role": "inner"
    },
    {
      "type": "way",
      "ref": 291006856,
      "role": "inner"
    },
    {
      "type": "way",
      "ref": 291006859,
      "role": "inner"
    },
    {
      "type": "way",
      "ref": 291006860,
      "role": "inner"
    },
    {
      "type": "way",
      "ref": 291006862,
      "role": "inner"
    }
  ],
  "tags": {
    "addr:city": "València",
    "addr:housenumber": "36",
    "addr:postcode": "46003",
    "addr:street": "Carrer de la Corona",
    "alt_name": "Centre Museístic la Beneficiència",
    "building": "yes",
    "description": "Aquest centre cultural és seu del Museu de Prehistòria de València, el Museu dEtnologia, la Institució Alfons el Magnànim i el Centre de Publicacions de la Diputació de València.",
    "name": "Centre Cultural la Beneficiència",
    "name:ca": "Centre Cultural la Beneficiència",
    "name:es": "Centro Cultural la Beneficiencia",
    "opening_hours": "Tu-Su 10:00-20:00",
    "operator": "Diputació de València",
    "phone": "+34 963 88 35 65",
    "tourism": "museum",
    "type": "multipolygon",
    "website": "http://www.labeneficencia.es/"
  }
},
{
  "type": "relation",
  "id": 7286126,
  "members": [
    {
      "type": "way",
      "ref": 494214064,
      "role": "outer"
    },
    {
      "type": "way",
      "ref": 496299905,
      "role": "inner"
    }
  ],
  "tags": {
    "addr:city": "Valencia",
    "addr:housenumber": "3",
    "addr:postcode": "46003",
    "addr:street": "Plaça de l'Arquebisbe",
    "building": "yes",
    "name": "Museo Ciudad",
    "tourism": "museum",
    "type": "multipolygon"
  }
},
{
  "type": "relation",
  "id": 8082637,
  "members": [
    {
      "type": "way",
      "ref": 566833754,
      "role": "inner"
    },
    {
      "type": "way",
      "ref": 520955746,
      "role": "inner"
    },
    {
      "type": "way",
      "ref": 529082696,
      "role": "outer"
    }
  ],
  "tags": {
    "addr:city": "Valencia",
    "addr:housenumber": "2",
    "addr:postcode": "46003",
    "addr:street": "Carrer del Museu",
    "building": "yes",
    "name": "Centre del Carme",
    "opening_hours": "Tu-Su 11:00-20:00",
    "phone": "+34 963 15 22 02",
    "tourism": "museum",
    "type": "multipolygon",
    "website": "www.consorcimuseus.gva.es/centro-del-carmen"
  }
},
{
  "type": "node",
  "id": 5334670012,
  "lat": 39.3921932,
  "lon": -0.7108996
},
{
  "type": "node",
  "id": 5334670013,
  "lat": 39.3922356,
  "lon": -0.7106784
},
{
  "type": "node",
  "id": 5334670014,
  "lat": 39.3923218,
  "lon": -0.7107201
},
{
  "type": "node",
  "id": 5334670016,
  "lat": 39.3922851,
  "lon": -0.7108892
},
{
  "type": "node",
  "id": 5334670017,
  "lat": 39.3922592,
  "lon": -0.7109213
},
{
  "type": "node",
  "id": 6981264494,
  "lat": 39.4353144,
  "lon": -0.4623005
},
{
  "type": "node",
  "id": 6981264495,
  "lat": 39.4353155,
  "lon": -0.4623284
},
{
  "type": "node",
  "id": 6981264496,
  "lat": 39.4353160,
  "lon": -0.4623400
},
{
  "type": "node",
  "id": 6981264497,
  "lat": 39.4353175,
  "lon": -0.4623762
},
{
  "type": "node",
  "id": 6981264498,
  "lat": 39.4353180,
  "lon": -0.4623878
},
{
  "type": "node",
  "id": 6981264499,
  "lat": 39.4353191,
  "lon": -0.4624156
},
{
  "type": "node",
  "id": 6981264500,
  "lat": 39.4353199,
  "lon": -0.4624367
},
{
  "type": "node",
  "id": 6981264501,
  "lat": 39.4351510,
  "lon": -0.4624674
},
{
  "type": "node",
  "id": 6981264502,
  "lat": 39.4351473,
  "lon": -0.4624087
},
{
  "type": "node",
  "id": 6981264508,
  "lat": 39.4351431,
  "lon": -0.4623462
},
{
  "type": "node",
  "id": 6981264534,
  "lat": 39.4352307,
  "lon": -0.4623384
},
{
  "type": "node",
  "id": 6981264535,
  "lat": 39.4352335,
  "lon": -0.4623942
},
{
  "type": "node",
  "id": 6981264536,
  "lat": 39.4352041,
  "lon": -0.4623991
},
{
  "type": "node",
  "id": 6981264537,
  "lat": 39.4352010,
  "lon": -0.4623410
},
{
  "type": "node",
  "id": 6981264552,
  "lat": 39.4353137,
  "lon": -0.4622843
},
{
  "type": "node",
  "id": 6981264553,
  "lat": 39.4352284,
  "lon": -0.4622904
},
{
  "type": "node",
  "id": 6981264554,
  "lat": 39.4351404,
  "lon": -0.4622966
},
{
  "type": "node",
  "id": 886869198,
  "lat": 39.1648711,
  "lon": -0.2535173
},
{
  "type": "node",
  "id": 886869208,
  "lat": 39.1648830,
  "lon": -0.2529138
},
{
  "type": "node",
  "id": 886869254,
  "lat": 39.1652222,
  "lon": -0.2536068
},
{
  "type": "node",
  "id": 886869310,
  "lat": 39.1650093,
  "lon": -0.2537969
},
{
  "type": "node",
  "id": 886869316,
  "lat": 39.1648640,
  "lon": -0.2528511
},
{
  "type": "node",
  "id": 886869347,
  "lat": 39.1646798,
  "lon": -0.2530782
},
{
  "type": "node",
  "id": 886869372,
  "lat": 39.1646578,
  "lon": -0.2530283
},
{
  "type": "node",
  "id": 886869390,
  "lat": 39.1650794,
  "lon": -0.2533383
},
{
  "type": "node",
  "id": 2260170204,
  "lat": 39.1878802,
  "lon": -0.2546126
},
{
  "type": "node",
  "id": 2260170383,
  "lat": 39.1879862,
  "lon": -0.2547439
},
{
  "type": "node",
  "id": 2260170397,
  "lat": 39.1879778,
  "lon": -0.2544813
},
{
  "type": "node",
  "id": 2260170941,
  "lat": 39.1880839,
  "lon": -0.2546126
},
{
  "type": "node",
  "id": 3770451268,
  "lat": 39.3377950,
  "lon": -0.3192704
},
{
  "type": "node",
  "id": 3770451269,
  "lat": 39.3378547,
  "lon": -0.3190800
},
{
  "type": "node",
  "id": 3770451270,
  "lat": 39.3379363,
  "lon": -0.3193431
},
{
  "type": "node",
  "id": 3770451271,
  "lat": 39.3379922,
  "lon": -0.3191576
},
{
  "type": "node",
  "id": 7095458520,
  "lat": 39.3379479,
  "lon": -0.3191342
},
{
  "type": "node",
  "id": 7095458521,
  "lat": 39.3378975,
  "lon": -0.3191055
},
{
  "type": "node",
  "id": 7095458522,
  "lat": 39.3379101,
  "lon": -0.3191607
},
{
  "type": "node",
  "id": 2289387071,
  "lat": 39.3591093,
  "lon": -0.3470672
},
{
  "type": "node",
  "id": 2289387118,
  "lat": 39.3591989,
  "lon": -0.3469546
},
{
  "type": "node",
  "id": 2289387235,
  "lat": 39.3591715,
  "lon": -0.3469438
},
{
  "type": "node",
  "id": 2289387281,
  "lat": 39.3592216,
  "lon": -0.3470499
},
{
  "type": "node",
  "id": 2289387440,
  "lat": 39.3591798,
  "lon": -0.3471423
},
{
  "type": "node",
  "id": 2289387488,
  "lat": 39.3592586,
  "lon": -0.3469680
},
{
  "type": "node",
  "id": 2289387616,
  "lat": 39.3592130,
  "lon": -0.3469197
},
{
  "type": "node",
  "id": 5216382061,
  "lat": 39.4242936,
  "lon": -0.4176194
},
{
  "type": "node",
  "id": 5216382062,
  "lat": 39.4241505,
  "lon": -0.4176395
},
{
  "type": "node",
  "id": 5216382063,
  "lat": 39.4241265,
  "lon": -0.4173536
},
{
  "type": "node",
  "id": 5216382064,
  "lat": 39.4240134,
  "lon": -0.4173695
},
{
  "type": "node",
  "id": 5216382065,
  "lat": 39.4239848,
  "lon": -0.4170272
},
{
  "type": "node",
  "id": 5216382066,
  "lat": 39.4242410,
  "lon": -0.4169912
},
{
  "type": "node",
  "id": 5029498758,
  "lat": 39.4726981,
  "lon": -0.4084946
},
{
  "type": "node",
  "id": 5029498759,
  "lat": 39.4727289,
  "lon": -0.4080313
},
{
  "type": "node",
  "id": 5029498760,
  "lat": 39.4727406,
  "lon": -0.4080130
},
{
  "type": "node",
  "id": 5029498761,
  "lat": 39.4726956,
  "lon": -0.4078210
},
{
  "type": "node",
  "id": 5029498762,
  "lat": 39.4722968,
  "lon": -0.4078769
},
{
  "type": "node",
  "id": 5029498763,
  "lat": 39.4722533,
  "lon": -0.4085015
},
{
  "type": "node",
  "id": 150538171,
  "lat": 39.4691468,
  "lon": -0.3815420
},
{
  "type": "node",
  "id": 150538172,
  "lat": 39.4691798,
  "lon": -0.3816761
},
{
  "type": "node",
  "id": 150538173,
  "lat": 39.4694378,
  "lon": -0.3815667
},
{
  "type": "node",
  "id": 150538174,
  "lat": 39.4696553,
  "lon": -0.3815453
},
{
  "type": "node",
  "id": 150538175,
  "lat": 39.4701344,
  "lon": -0.3811227
},
{
  "type": "node",
  "id": 150538176,
  "lat": 39.4700717,
  "lon": -0.3808590
},
{
  "type": "node",
  "id": 150538177,
  "lat": 39.4700215,
  "lon": -0.3809037
},
{
  "type": "node",
  "id": 150538178,
  "lat": 39.4699728,
  "lon": -0.3807810
},
{
  "type": "node",
  "id": 150538179,
  "lat": 39.4696417,
  "lon": -0.3810185
},
{
  "type": "node",
  "id": 150538180,
  "lat": 39.4697463,
  "lon": -0.3812677
},
{
  "type": "node",
  "id": 4830436864,
  "lat": 39.4696871,
  "lon": -0.3813085
},
{
  "type": "node",
  "id": 5029458825,
  "lat": 39.4708321,
  "lon": -0.3811636
},
{
  "type": "node",
  "id": 5029458826,
  "lat": 39.4705361,
  "lon": -0.3811547
},
{
  "type": "node",
  "id": 5029458827,
  "lat": 39.4705406,
  "lon": -0.3810044
},
{
  "type": "node",
  "id": 5029458828,
  "lat": 39.4705154,
  "lon": -0.3810054
},
{
  "type": "node",
  "id": 5029458829,
  "lat": 39.4705132,
  "lon": -0.3808472
},
{
  "type": "node",
  "id": 5029458830,
  "lat": 39.4709489,
  "lon": -0.3807375
},
{
  "type": "node",
  "id": 5457892436,
  "lat": 39.4696631,
  "lon": -0.3813189
},
{
  "type": "node",
  "id": 5457892438,
  "lat": 39.4697119,
  "lon": -0.3812914
},
{
  "type": "node",
  "id": 5457892439,
  "lat": 39.4697359,
  "lon": -0.3814742
},
{
  "type": "node",
  "id": 5457892442,
  "lat": 39.4697787,
  "lon": -0.3814364
},
{
  "type": "node",
  "id": 5457896679,
  "lat": 39.4706048,
  "lon": -0.3811568
},
{
  "type": "node",
  "id": 5457896681,
  "lat": 39.4707675,
  "lon": -0.3807832
},
{
  "type": "node",
  "id": 7021924261,
  "lat": 39.4697542,
  "lon": -0.3814580
},
{
  "type": "node",
  "id": 2944745312,
  "lat": 39.4801695,
  "lon": -0.3827091
},
{
  "type": "node",
  "id": 2944745313,
  "lat": 39.4794244,
  "lon": -0.3829898
},
{
  "type": "node",
  "id": 2944745314,
  "lat": 39.4793369,
  "lon": -0.3825518
},
{
  "type": "node",
  "id": 2944745315,
  "lat": 39.4792625,
  "lon": -0.3823491
},
{
  "type": "node",
  "id": 2944745316,
  "lat": 39.4793982,
  "lon": -0.3822427
},
{
  "type": "node",
  "id": 2944745317,
  "lat": 39.4800656,
  "lon": -0.3822116
},
{
  "type": "node",
  "id": 2944745318,
  "lat": 39.4793609,
  "lon": -0.3831996
},
{
  "type": "node",
  "id": 2944745319,
  "lat": 39.4793434,
  "lon": -0.3832521
},
{
  "type": "node",
  "id": 2944745320,
  "lat": 39.4783871,
  "lon": -0.3836135
},
{
  "type": "node",
  "id": 2944745321,
  "lat": 39.4782416,
  "lon": -0.3828069
},
{
  "type": "node",
  "id": 2944745322,
  "lat": 39.4783456,
  "lon": -0.3835809
},
{
  "type": "node",
  "id": 2944745323,
  "lat": 39.4788318,
  "lon": -0.3826606
},
{
  "type": "node",
  "id": 2944745324,
  "lat": 39.4788191,
  "lon": -0.3825929
},
{
  "type": "node",
  "id": 2944745325,
  "lat": 39.4791992,
  "lon": -0.3824513
},
{
  "type": "node",
  "id": 2944745326,
  "lat": 39.4792694,
  "lon": -0.3831720
},
{
  "type": "node",
  "id": 2944745327,
  "lat": 39.4790601,
  "lon": -0.3832480
},
{
  "type": "node",
  "id": 2944745328,
  "lat": 39.4790288,
  "lon": -0.3831034
},
{
  "type": "node",
  "id": 2944745329,
  "lat": 39.4792381,
  "lon": -0.3830274
},
{
  "type": "node",
  "id": 2944745330,
  "lat": 39.4792015,
  "lon": -0.3828651
},
{
  "type": "node",
  "id": 2944745331,
  "lat": 39.4789909,
  "lon": -0.3829292
},
{
  "type": "node",
  "id": 2944745332,
  "lat": 39.4789668,
  "lon": -0.3826991
},
{
  "type": "node",
  "id": 2944746233,
  "lat": 39.4791571,
  "lon": -0.3826366
},
{
  "type": "node",
  "id": 2944746234,
  "lat": 39.4789516,
  "lon": -0.3832924
},
{
  "type": "node",
  "id": 2944746235,
  "lat": 39.4787829,
  "lon": -0.3833548
},
{
  "type": "node",
  "id": 2944746236,
  "lat": 39.4787474,
  "lon": -0.3831855
},
{
  "type": "node",
  "id": 2944746237,
  "lat": 39.4789161,
  "lon": -0.3831527
},
{
  "type": "node",
  "id": 2944746238,
  "lat": 39.4788831,
  "lon": -0.3829522
},
{
  "type": "node",
  "id": 2944746239,
  "lat": 39.4787005,
  "lon": -0.3829932
},
{
  "type": "node",
  "id": 2944746240,
  "lat": 39.4786751,
  "lon": -0.3828010
},
{
  "type": "node",
  "id": 2944746241,
  "lat": 39.4788552,
  "lon": -0.3827664
},
{
  "type": "node",
  "id": 2944746242,
  "lat": 39.4786510,
  "lon": -0.3833975
},
{
  "type": "node",
  "id": 2944746243,
  "lat": 39.4784201,
  "lon": -0.3834764
},
{
  "type": "node",
  "id": 2944746244,
  "lat": 39.4783960,
  "lon": -0.3833302
},
{
  "type": "node",
  "id": 2944746245,
  "lat": 39.4784214,
  "lon": -0.3833187
},
{
  "type": "node",
  "id": 2944746246,
  "lat": 39.4783820,
  "lon": -0.3830294
},
{
  "type": "node",
  "id": 2944746247,
  "lat": 39.4783541,
  "lon": -0.3830245
},
{
  "type": "node",
  "id": 2944746248,
  "lat": 39.4783326,
  "lon": -0.3828914
},
{
  "type": "node",
  "id": 2944746249,
  "lat": 39.4785761,
  "lon": -0.3828322
},
{
  "type": "node",
  "id": 2944746250,
  "lat": 39.4785850,
  "lon": -0.3830163
},
{
  "type": "node",
  "id": 2944746251,
  "lat": 39.4785673,
  "lon": -0.3830261
},
{
  "type": "node",
  "id": 2944746252,
  "lat": 39.4785952,
  "lon": -0.3832118
},
{
  "type": "node",
  "id": 2944746253,
  "lat": 39.4786167,
  "lon": -0.3832118
},
{
  "type": "node",
  "id": 4854421318,
  "lat": 39.4788540,
  "lon": -0.3825799
},
{
  "type": "node",
  "id": 4854421319,
  "lat": 39.4789170,
  "lon": -0.3825564
},
{
  "type": "node",
  "id": 4854421521,
  "lat": 39.4790032,
  "lon": -0.3825243
},
{
  "type": "node",
  "id": 4868373444,
  "lat": 39.4785782,
  "lon": -0.3827235
},
{
  "type": "node",
  "id": 5020759634,
  "lat": 39.4756162,
  "lon": -0.3741588
},
{
  "type": "node",
  "id": 5020759637,
  "lat": 39.4756118,
  "lon": -0.3743572
},
{
  "type": "node",
  "id": 4870102884,
  "lat": 39.4743625,
  "lon": -0.3703963
},
{
  "type": "node",
  "id": 4870102885,
  "lat": 39.4744477,
  "lon": -0.3703608
},
{
  "type": "node",
  "id": 4870102886,
  "lat": 39.4744406,
  "lon": -0.3703307
},
{
  "type": "node",
  "id": 4870102888,
  "lat": 39.4740844,
  "lon": -0.3703550
},
{
  "type": "node",
  "id": 4870102889,
  "lat": 39.4742822,
  "lon": -0.3702483
},
{
  "type": "node",
  "id": 4870102890,
  "lat": 39.4743165,
  "lon": -0.3703784
},
{
  "type": "node",
  "id": 4870102891,
  "lat": 39.4743508,
  "lon": -0.3703628
},
{
  "type": "node",
  "id": 4870102892,
  "lat": 39.4743815,
  "lon": -0.3701228
},
{
  "type": "node",
  "id": 4870102893,
  "lat": 39.4740645,
  "lon": -0.3702935
},
{
  "type": "node",
  "id": 79451104,
  "lat": 39.4761229,
  "lon": -0.3745167
},
{
  "type": "node",
  "id": 2701300447,
  "lat": 39.4796973,
  "lon": -0.3785389
},
{
  "type": "node",
  "id": 2701300449,
  "lat": 39.4796951,
  "lon": -0.3785622
},
{
  "type": "node",
  "id": 2701300451,
  "lat": 39.4793886,
  "lon": -0.3786906
},
{
  "type": "node",
  "id": 2701300453,
  "lat": 39.4794138,
  "lon": -0.3787997
},
{
  "type": "node",
  "id": 2701300455,
  "lat": 39.4793680,
  "lon": -0.3788363
},
{
  "type": "node",
  "id": 4159280084,
  "lat": 39.4759418,
  "lon": -0.3741854
},
{
  "type": "node",
  "id": 4159280089,
  "lat": 39.4759521,
  "lon": -0.3741165
},
{
  "type": "node",
  "id": 4159280090,
  "lat": 39.4759964,
  "lon": -0.3740665
},
{
  "type": "node",
  "id": 4159280091,
  "lat": 39.4759424,
  "lon": -0.3741770
},
{
  "type": "node",
  "id": 4159280096,
  "lat": 39.4759548,
  "lon": -0.3741060
},
{
  "type": "node",
  "id": 4159280131,
  "lat": 39.4763194,
  "lon": -0.3739594
},
{
  "type": "node",
  "id": 4159280139,
  "lat": 39.4763635,
  "lon": -0.3739946
},
{
  "type": "node",
  "id": 4159407274,
  "lat": 39.4790212,
  "lon": -0.3770267
},
{
  "type": "node",
  "id": 4159407290,
  "lat": 39.4791501,
  "lon": -0.3766220
},
{
  "type": "node",
  "id": 4159407291,
  "lat": 39.4791569,
  "lon": -0.3769259
},
{
  "type": "node",
  "id": 4159407295,
  "lat": 39.4792281,
  "lon": -0.3768837
},
{
  "type": "node",
  "id": 4188405480,
  "lat": 39.4806717,
  "lon": -0.3789417
},
{
  "type": "node",
  "id": 4188405481,
  "lat": 39.4807355,
  "lon": -0.3790962
},
{
  "type": "node",
  "id": 4188405483,
  "lat": 39.4808172,
  "lon": -0.3788383
},
{
  "type": "node",
  "id": 4188405484,
  "lat": 39.4808797,
  "lon": -0.3789934
},
{
  "type": "node",
  "id": 4217423237,
  "lat": 39.4798328,
  "lon": -0.3784779
},
{
  "type": "node",
  "id": 4217423240,
  "lat": 39.4798632,
  "lon": -0.3786032
},
{
  "type": "node",
  "id": 4217434140,
  "lat": 39.4797121,
  "lon": -0.3785250
},
{
  "type": "node",
  "id": 4853580172,
  "lat": 39.4799208,
  "lon": -0.3788545
},
{
  "type": "node",
  "id": 4853580175,
  "lat": 39.4797133,
  "lon": -0.3793688
},
{
  "type": "node",
  "id": 4853580176,
  "lat": 39.4798256,
  "lon": -0.3792968
},
{
  "type": "node",
  "id": 4853580184,
  "lat": 39.4796631,
  "lon": -0.3785756
},
{
  "type": "node",
  "id": 4853580219,
  "lat": 39.4798461,
  "lon": -0.3793781
},
{
  "type": "node",
  "id": 4853580220,
  "lat": 39.4801318,
  "lon": -0.3792382
},
{
  "type": "node",
  "id": 4853580421,
  "lat": 39.4799882,
  "lon": -0.3788304
},
{
  "type": "node",
  "id": 4853580422,
  "lat": 39.4799815,
  "lon": -0.3789665
},
{
  "type": "node",
  "id": 4853580423,
  "lat": 39.4797999,
  "lon": -0.3790573
},
{
  "type": "node",
  "id": 4853580424,
  "lat": 39.4798702,
  "lon": -0.3792930
},
{
  "type": "node",
  "id": 4853580426,
  "lat": 39.4800517,
  "lon": -0.3792022
},
{
  "type": "node",
  "id": 4856542211,
  "lat": 39.4793566,
  "lon": -0.3792076
},
{
  "type": "node",
  "id": 4856542212,
  "lat": 39.4794659,
  "lon": -0.3791067
},
{
  "type": "node",
  "id": 4856542213,
  "lat": 39.4793560,
  "lon": -0.3789304
},
{
  "type": "node",
  "id": 4856542214,
  "lat": 39.4792484,
  "lon": -0.3790321
},
{
  "type": "node",
  "id": 4860023155,
  "lat": 39.4758889,
  "lon": -0.3737469
},
{
  "type": "node",
  "id": 4860023156,
  "lat": 39.4761070,
  "lon": -0.3736735
},
{
  "type": "node",
  "id": 4860023158,
  "lat": 39.4761607,
  "lon": -0.3735981
},
{
  "type": "node",
  "id": 4860023159,
  "lat": 39.4761667,
  "lon": -0.3736579
},
{
  "type": "node",
  "id": 4860023160,
  "lat": 39.4759480,
  "lon": -0.3740452
},
{
  "type": "node",
  "id": 4860023162,
  "lat": 39.4760779,
  "lon": -0.3737885
},
{
  "type": "node",
  "id": 4860023163,
  "lat": 39.4759917,
  "lon": -0.3738210
},
{
  "type": "node",
  "id": 4860023164,
  "lat": 39.4760152,
  "lon": -0.3739379
},
{
  "type": "node",
  "id": 4860023165,
  "lat": 39.4761030,
  "lon": -0.3739146
},
{
  "type": "node",
  "id": 4860023166,
  "lat": 39.4762354,
  "lon": -0.3739490
},
{
  "type": "node",
  "id": 4860023167,
  "lat": 39.4761672,
  "lon": -0.3735929
},
{
  "type": "node",
  "id": 5018398742,
  "lat": 39.4789461,
  "lon": -0.3767854
},
{
  "type": "node",
  "id": 5018398747,
  "lat": 39.4790095,
  "lon": -0.3770354
},
{
  "type": "node",
  "id": 5018398748,
  "lat": 39.4792752,
  "lon": -0.3768465
},
{
  "type": "node",
  "id": 5020759635,
  "lat": 39.4758433,
  "lon": -0.3740992
},
{
  "type": "node",
  "id": 5020759636,
  "lat": 39.4758673,
  "lon": -0.3743158
},
{
  "type": "node",
  "id": 5020902337,
  "lat": 39.4759586,
  "lon": -0.3743286
},
{
  "type": "node",
  "id": 5029240708,
  "lat": 39.4763949,
  "lon": -0.3743730
},
{
  "type": "node",
  "id": 5457962829,
  "lat": 39.4794063,
  "lon": -0.3790112
},
{
  "type": "node",
  "id": 5457962830,
  "lat": 39.4794362,
  "lon": -0.3789415
},
{
  "type": "node",
  "id": 5457962831,
  "lat": 39.4794821,
  "lon": -0.3787059
},
{
  "type": "node",
  "id": 5457962832,
  "lat": 39.4795409,
  "lon": -0.3789629
},
{
  "type": "node",
  "id": 5457962833,
  "lat": 39.4796735,
  "lon": -0.3786209
},
{
  "type": "node",
  "id": 5457962834,
  "lat": 39.4797337,
  "lon": -0.3788760
},
{
  "type": "node",
  "id": 6997330267,
  "lat": 39.4759869,
  "lon": -0.3740326
},
{
  "type": "node",
  "id": 106364916,
  "lat": 39.4789521,
  "lon": -0.3711308
},
{
  "type": "node",
  "id": 106364924,
  "lat": 39.4790071,
  "lon": -0.3710905
},
{
  "type": "node",
  "id": 106364934,
  "lat": 39.4790554,
  "lon": -0.3712024
},
{
  "type": "node",
  "id": 106364937,
  "lat": 39.4790332,
  "lon": -0.3712410
},
{
  "type": "node",
  "id": 106364947,
  "lat": 39.4792499,
  "lon": -0.3715309
},
{
  "type": "node",
  "id": 106364952,
  "lat": 39.4794380,
  "lon": -0.3716255
},
{
  "type": "node",
  "id": 106364957,
  "lat": 39.4795504,
  "lon": -0.3715524
},
{
  "type": "node",
  "id": 106364974,
  "lat": 39.4795587,
  "lon": -0.3714026
},
{
  "type": "node",
  "id": 106364986,
  "lat": 39.4795884,
  "lon": -0.3712983
},
{
  "type": "node",
  "id": 106364996,
  "lat": 39.4794715,
  "lon": -0.3711595
},
{
  "type": "node",
  "id": 106365005,
  "lat": 39.4796759,
  "lon": -0.3710111
},
{
  "type": "node",
  "id": 106365016,
  "lat": 39.4795519,
  "lon": -0.3708510
},
{
  "type": "node",
  "id": 106365027,
  "lat": 39.4797977,
  "lon": -0.3706733
},
{
  "type": "node",
  "id": 106365028,
  "lat": 39.4797508,
  "lon": -0.3705645
},
{
  "type": "node",
  "id": 106365036,
  "lat": 39.4798249,
  "lon": -0.3705131
},
{
  "type": "node",
  "id": 106365043,
  "lat": 39.4797999,
  "lon": -0.3704564
},
{
  "type": "node",
  "id": 106365047,
  "lat": 39.4798254,
  "lon": -0.3704406
},
{
  "type": "node",
  "id": 106365169,
  "lat": 39.4796618,
  "lon": -0.3700563
},
{
  "type": "node",
  "id": 106365174,
  "lat": 39.4792013,
  "lon": -0.3703886
},
{
  "type": "node",
  "id": 106365180,
  "lat": 39.4791635,
  "lon": -0.3702989
},
{
  "type": "node",
  "id": 106365190,
  "lat": 39.4791412,
  "lon": -0.3704323
},
{
  "type": "node",
  "id": 106365278,
  "lat": 39.4787573,
  "lon": -0.3707125
},
{
  "type": "node",
  "id": 258006642,
  "lat": 39.4794580,
  "lon": -0.3693427
},
{
  "type": "node",
  "id": 258006643,
  "lat": 39.4793018,
  "lon": -0.3693242
},
{
  "type": "node",
  "id": 258006645,
  "lat": 39.4791670,
  "lon": -0.3693988
},
{
  "type": "node",
  "id": 258006646,
  "lat": 39.4790964,
  "lon": -0.3691847
},
{
  "type": "node",
  "id": 258006647,
  "lat": 39.4792211,
  "lon": -0.3691157
},
{
  "type": "node",
  "id": 258006649,
  "lat": 39.4792428,
  "lon": -0.3688848
},
{
  "type": "node",
  "id": 258006651,
  "lat": 39.4791777,
  "lon": -0.3688745
},
{
  "type": "node",
  "id": 258006653,
  "lat": 39.4790420,
  "lon": -0.3689401
},
{
  "type": "node",
  "id": 258006655,
  "lat": 39.4790142,
  "lon": -0.3688435
},
{
  "type": "node",
  "id": 258006656,
  "lat": 39.4791792,
  "lon": -0.3687638
},
{
  "type": "node",
  "id": 258006658,
  "lat": 39.4791863,
  "lon": -0.3686625
},
{
  "type": "node",
  "id": 258006660,
  "lat": 39.4793913,
  "lon": -0.3686867
},
{
  "type": "node",
  "id": 2817468897,
  "lat": 39.4793895,
  "lon": -0.3687121
},
{
  "type": "node",
  "id": 2817468898,
  "lat": 39.4794778,
  "lon": -0.3687225
},
{
  "type": "node",
  "id": 2817468899,
  "lat": 39.4794730,
  "lon": -0.3687920
},
{
  "type": "node",
  "id": 2817468900,
  "lat": 39.4795190,
  "lon": -0.3687975
},
{
  "type": "node",
  "id": 2817468901,
  "lat": 39.4795121,
  "lon": -0.3688962
},
{
  "type": "node",
  "id": 2817468902,
  "lat": 39.4794897,
  "lon": -0.3688936
},
{
  "type": "node",
  "id": 2817468960,
  "lat": 39.4794618,
  "lon": -0.3692884
},
{
  "type": "node",
  "id": 2817468963,
  "lat": 39.4794638,
  "lon": -0.3692608
},
{
  "type": "node",
  "id": 2817468964,
  "lat": 39.4794689,
  "lon": -0.3691879
},
{
  "type": "node",
  "id": 2817468969,
  "lat": 39.4794708,
  "lon": -0.3691615
},
{
  "type": "node",
  "id": 2817468971,
  "lat": 39.4794715,
  "lon": -0.3691514
},
{
  "type": "node",
  "id": 2817507007,
  "lat": 39.4794804,
  "lon": -0.3690251
},
{
  "type": "node",
  "id": 2817507021,
  "lat": 39.4794880,
  "lon": -0.3689174
},
{
  "type": "node",
  "id": 2817507042,
  "lat": 39.4794629,
  "lon": -0.3692733
},
{
  "type": "node",
  "id": 2817507044,
  "lat": 39.4794700,
  "lon": -0.3691729
},
{
  "type": "node",
  "id": 2817507050,
  "lat": 39.4794722,
  "lon": -0.3691416
},
{
  "type": "node",
  "id": 5585864652,
  "lat": 39.4792262,
  "lon": -0.3712835
},
{
  "type": "node",
  "id": 5585864653,
  "lat": 39.4792601,
  "lon": -0.3712616
},
{
  "type": "node",
  "id": 5585864654,
  "lat": 39.4792440,
  "lon": -0.3712741
},
{
  "type": "node",
  "id": 5585864655,
  "lat": 39.4794797,
  "lon": -0.3713723
},
{
  "type": "node",
  "id": 5585864656,
  "lat": 39.4795059,
  "lon": -0.3714393
},
{
  "type": "node",
  "id": 5585864657,
  "lat": 39.4795674,
  "lon": -0.3714392
},
{
  "type": "node",
  "id": 5585864658,
  "lat": 39.4795633,
  "lon": -0.3715171
},
{
  "type": "node",
  "id": 5585864659,
  "lat": 39.4795276,
  "lon": -0.3715868
},
{
  "type": "node",
  "id": 5585864660,
  "lat": 39.4794682,
  "lon": -0.3716236
},
{
  "type": "node",
  "id": 5585864661,
  "lat": 39.4795691,
  "lon": -0.3714793
},
{
  "type": "node",
  "id": 5585864662,
  "lat": 39.4794970,
  "lon": -0.3716122
},
{
  "type": "node",
  "id": 5585864663,
  "lat": 39.4792748,
  "lon": -0.3712459
},
{
  "type": "node",
  "id": 5585864664,
  "lat": 39.4792065,
  "lon": -0.3712894
},
{
  "type": "node",
  "id": 5585864665,
  "lat": 39.4793131,
  "lon": -0.3714404
},
{
  "type": "node",
  "id": 5585864666,
  "lat": 39.4790161,
  "lon": -0.3711288
},
{
  "type": "node",
  "id": 5585864667,
  "lat": 39.4790112,
  "lon": -0.3711154
},
{
  "type": "node",
  "id": 5585864668,
  "lat": 39.4790145,
  "lon": -0.3711092
},
{
  "type": "node",
  "id": 5585864669,
  "lat": 39.4790438,
  "lon": -0.3711930
},
{
  "type": "node",
  "id": 5585864670,
  "lat": 39.4790390,
  "lon": -0.3711837
},
{
  "type": "node",
  "id": 5585864671,
  "lat": 39.4790494,
  "lon": -0.3711920
},
{
  "type": "node",
  "id": 5585864672,
  "lat": 39.4790209,
  "lon": -0.3711296
},
{
  "type": "node",
  "id": 5585864673,
  "lat": 39.4790417,
  "lon": -0.3711776
},
{
  "type": "node",
  "id": 5585864674,
  "lat": 39.4790120,
  "lon": -0.3711239
},
{
  "type": "node",
  "id": 5585864675,
  "lat": 39.4790404,
  "lon": -0.3711899
},
{
  "type": "node",
  "id": 5585864676,
  "lat": 39.4791050,
  "lon": -0.3703393
},
{
  "type": "node",
  "id": 5585864677,
  "lat": 39.4795377,
  "lon": -0.3711849
},
{
  "type": "node",
  "id": 5585864678,
  "lat": 39.4794953,
  "lon": -0.3712124
},
{
  "type": "node",
  "id": 5585864679,
  "lat": 39.4795833,
  "lon": -0.3709247
},
{
  "type": "node",
  "id": 5585864680,
  "lat": 39.4796252,
  "lon": -0.3708952
},
{
  "type": "node",
  "id": 5029433327,
  "lat": 39.4851879,
  "lon": -0.3763573
},
{
  "type": "node",
  "id": 5029433328,
  "lat": 39.4851910,
  "lon": -0.3763999
},
{
  "type": "node",
  "id": 5029433329,
  "lat": 39.4851756,
  "lon": -0.3764131
},
{
  "type": "node",
  "id": 5029433330,
  "lat": 39.4851488,
  "lon": -0.3765289
},
{
  "type": "node",
  "id": 5029433331,
  "lat": 39.4852673,
  "lon": -0.3765151
},
{
  "type": "node",
  "id": 5029433332,
  "lat": 39.4852518,
  "lon": -0.3763468
},
{
  "type": "node",
  "id": 6266956011,
  "lat": 39.4851599,
  "lon": -0.3764840
},
{
  "type": "node",
  "id": 253802883,
  "lat": 39.4548942,
  "lon": -0.3511001
},
{
  "type": "node",
  "id": 253802885,
  "lat": 39.4555326,
  "lon": -0.3504173
},
{
  "type": "node",
  "id": 5087324708,
  "lat": 39.4554353,
  "lon": -0.3505213
},
{
  "type": "node",
  "id": 1602559433,
  "lat": 39.4588956,
  "lon": -0.3589010
},
{
  "type": "node",
  "id": 4415706668,
  "lat": 39.4586673,
  "lon": -0.3590129
},
{
  "type": "node",
  "id": 4415706669,
  "lat": 39.4585433,
  "lon": -0.3591270
},
{
  "type": "node",
  "id": 4415706670,
  "lat": 39.4586300,
  "lon": -0.3593089
},
{
  "type": "node",
  "id": 4415706671,
  "lat": 39.4586524,
  "lon": -0.3592935
},
{
  "type": "node",
  "id": 4415706672,
  "lat": 39.4587316,
  "lon": -0.3594309
},
{
  "type": "node",
  "id": 4415706673,
  "lat": 39.4591379,
  "lon": -0.3590496
},
{
  "type": "node",
  "id": 4415706674,
  "lat": 39.4590025,
  "lon": -0.3588035
},
{
  "type": "node",
  "id": 4415706675,
  "lat": 39.4589542,
  "lon": -0.3590013
},
{
  "type": "node",
  "id": 4415706676,
  "lat": 39.4587614,
  "lon": -0.3591774
},
{
  "type": "node",
  "id": 4415706678,
  "lat": 39.4590221,
  "lon": -0.3588342
},
{
  "type": "node",
  "id": 253802886,
  "lat": 39.4567053,
  "lon": -0.3521858
},
{
  "type": "node",
  "id": 253802887,
  "lat": 39.4560806,
  "lon": -0.3528822
},
{
  "type": "node",
  "id": 5087324706,
  "lat": 39.4565524,
  "lon": -0.3523562
},
{
  "type": "node",
  "id": 5042597562,
  "lat": 39.4719619,
  "lon": -0.3622349
},
{
  "type": "node",
  "id": 5042597563,
  "lat": 39.4717080,
  "lon": -0.3620423
},
{
  "type": "node",
  "id": 5042597564,
  "lat": 39.4719558,
  "lon": -0.3614948
},
{
  "type": "node",
  "id": 5042597565,
  "lat": 39.4722108,
  "lon": -0.3616934
},
{
  "type": "node",
  "id": 5165998673,
  "lat": 39.4826216,
  "lon": -0.3259850
},
{
  "type": "node",
  "id": 5165998676,
  "lat": 39.4826189,
  "lon": -0.3259410
},
{
  "type": "node",
  "id": 6935786113,
  "lat": 39.4827238,
  "lon": -0.3258815
},
{
  "type": "node",
  "id": 6935786156,
  "lat": 39.4827355,
  "lon": -0.3260602
},
{
  "type": "node",
  "id": 6935786163,
  "lat": 39.4826158,
  "lon": -0.3258926
},
{
  "type": "node",
  "id": 6935786172,
  "lat": 39.4826271,
  "lon": -0.3260704
},
{
  "type": "node",
  "id": 5042582377,
  "lat": 39.4998105,
  "lon": -0.3924326
},
{
  "type": "node",
  "id": 5042582378,
  "lat": 39.4999488,
  "lon": -0.3921926
},
{
  "type": "node",
  "id": 5042582379,
  "lat": 39.5002669,
  "lon": -0.3925180
},
{
  "type": "node",
  "id": 5042582380,
  "lat": 39.5001190,
  "lon": -0.3927635
},
{
  "type": "node",
  "id": 5042582381,
  "lat": 39.4999233,
  "lon": -0.3925608
},
{
  "type": "node",
  "id": 5042582382,
  "lat": 39.5001547,
  "lon": -0.3923974
},
{
  "type": "node",
  "id": 1911928674,
  "lat": 39.6755786,
  "lon": -0.2787338
},
{
  "type": "node",
  "id": 1911928679,
  "lat": 39.6764585,
  "lon": -0.2786374
},
{
  "type": "node",
  "id": 1911928792,
  "lat": 39.6755264,
  "lon": -0.2792302
},
{
  "type": "node",
  "id": 1911928846,
  "lat": 39.6764242,
  "lon": -0.2788194
},
{
  "type": "node",
  "id": 1911928951,
  "lat": 39.6764469,
  "lon": -0.2790838
},
{
  "type": "node",
  "id": 1911929047,
  "lat": 39.6754823,
  "lon": -0.2792126
},
{
  "type": "node",
  "id": 1911929051,
  "lat": 39.6756389,
  "lon": -0.2787769
},
{
  "type": "node",
  "id": 2130428693,
  "lat": 39.6785747,
  "lon": -0.2778025
},
{
  "type": "node",
  "id": 2130428694,
  "lat": 39.6784437,
  "lon": -0.2779894
},
{
  "type": "node",
  "id": 2130428696,
  "lat": 39.6786350,
  "lon": -0.2779810
},
{
  "type": "node",
  "id": 2130524063,
  "lat": 39.6781631,
  "lon": -0.2773354
},
{
  "type": "node",
  "id": 2130524064,
  "lat": 39.6782323,
  "lon": -0.2771195
},
{
  "type": "node",
  "id": 2130524065,
  "lat": 39.6782994,
  "lon": -0.2773649
},
{
  "type": "node",
  "id": 2130524066,
  "lat": 39.6781867,
  "lon": -0.2774203
},
{
  "type": "node",
  "id": 2130524067,
  "lat": 39.6780927,
  "lon": -0.2771865
},
{
  "type": "node",
  "id": 2130524068,
  "lat": 39.6781493,
  "lon": -0.2773381
},
{
  "type": "node",
  "id": 3660952086,
  "lat": 39.6784277,
  "lon": -0.2778294
},
{
  "type": "node",
  "id": 6866314226,
  "lat": 39.6764361,
  "lon": -0.2791007
},
{
  "type": "node",
  "id": 6866314227,
  "lat": 39.6764010,
  "lon": -0.2790940
},
{
  "type": "node",
  "id": 6866314228,
  "lat": 39.6764010,
  "lon": -0.2791100
},
{
  "type": "node",
  "id": 6866314229,
  "lat": 39.6763473,
  "lon": -0.2791047
},
{
  "type": "node",
  "id": 6866314230,
  "lat": 39.6763628,
  "lon": -0.2788365
},
{
  "type": "node",
  "id": 6866314231,
  "lat": 39.6763215,
  "lon": -0.2788298
},
{
  "type": "node",
  "id": 6866314232,
  "lat": 39.6763752,
  "lon": -0.2785200
},
{
  "type": "node",
  "id": 6866314233,
  "lat": 39.6764660,
  "lon": -0.2785441
},
{
  "type": "node",
  "id": 6866314234,
  "lat": 39.6764708,
  "lon": -0.2788787
},
{
  "type": "node",
  "id": 6867646478,
  "lat": 39.6786317,
  "lon": -0.2779710
},
{
  "type": "node",
  "id": 6867675184,
  "lat": 39.6782699,
  "lon": -0.2772804
},
{
  "type": "node",
  "id": 6867708192,
  "lat": 39.6781313,
  "lon": -0.2772650
},
{
  "type": "node",
  "id": 6867708193,
  "lat": 39.6781171,
  "lon": -0.2772686
},
{
  "type": "node",
  "id": 6868222662,
  "lat": 39.6786219,
  "lon": -0.2779422
},
{
  "type": "node",
  "id": 6868222679,
  "lat": 39.6784977,
  "lon": -0.2778166
},
{
  "type": "node",
  "id": 2130426640,
  "lat": 39.6773235,
  "lon": -0.2723889
},
{
  "type": "node",
  "id": 2130426641,
  "lat": 39.6774907,
  "lon": -0.2725792
},
{
  "type": "node",
  "id": 2130426642,
  "lat": 39.6775320,
  "lon": -0.2723807
},
{
  "type": "node",
  "id": 2130426643,
  "lat": 39.6775299,
  "lon": -0.2722393
},
{
  "type": "node",
  "id": 6866874240,
  "lat": 39.6775113,
  "lon": -0.2723794
},
{
  "type": "node",
  "id": 6866874241,
  "lat": 39.6775134,
  "lon": -0.2724726
},
{
  "type": "node",
  "id": 6866874242,
  "lat": 39.6774834,
  "lon": -0.2725031
},
{
  "type": "node",
  "id": 6866874243,
  "lat": 39.6774556,
  "lon": -0.2725752
},
{
  "type": "node",
  "id": 6866874244,
  "lat": 39.6774505,
  "lon": -0.2725303
},
{
  "type": "node",
  "id": 6866874245,
  "lat": 39.6773839,
  "lon": -0.2725750
},
{
  "type": "node",
  "id": 6866874246,
  "lat": 39.6773857,
  "lon": -0.2724766
},
{
  "type": "node",
  "id": 6866874247,
  "lat": 39.6773412,
  "lon": -0.2724944
},
{
  "type": "node",
  "id": 2130426183,
  "lat": 39.6792402,
  "lon": -0.2732197
},
{
  "type": "node",
  "id": 2130426184,
  "lat": 39.6800402,
  "lon": -0.2725181
},
{
  "type": "node",
  "id": 2130426185,
  "lat": 39.6790470,
  "lon": -0.2728573
},
{
  "type": "node",
  "id": 6866874238,
  "lat": 39.6798758,
  "lon": -0.2722677
},
{
  "type": "node",
  "id": 6866874239,
  "lat": 39.6791436,
  "lon": -0.2730841
},
{
  "type": "way",
  "id": 291006855,
  "nodes": [
    2944745318,
    2944745319,
    2944745320,
    2944745322,
    2944745321,
    4868373444,
    2944745323,
    2944745324,
    4854421318,
    4854421319,
    4854421521,
    2944745325,
    2944745318
  ]
},
{
  "type": "way",
  "id": 291006856,
  "nodes": [
    2944745326,
    2944745327,
    2944745328,
    2944745329,
    2944745326
  ]
},
{
  "type": "way",
  "id": 291006858,
  "nodes": [
    2944745330,
    2944745331,
    2944745332,
    2944746233,
    2944745330
  ]
},
{
  "type": "way",
  "id": 291006859,
  "nodes": [
    2944746234,
    2944746235,
    2944746236,
    2944746237,
    2944746234
  ]
},
{
  "type": "way",
  "id": 291006860,
  "nodes": [
    2944746238,
    2944746239,
    2944746240,
    2944746241,
    2944746238
  ]
},
{
  "type": "way",
  "id": 291006862,
  "nodes": [
    2944746242,
    2944746243,
    2944746244,
    2944746245,
    2944746246,
    2944746247,
    2944746248,
    2944746249,
    2944746250,
    2944746251,
    2944746252,
    2944746253,
    2944746242
  ]
},
{
  "type": "way",
  "id": 494214064,
  "nodes": [
    4860023166,
    4860023167,
    4860023158,
    4860023159,
    4860023156,
    4860023155,
    4860023160,
    6997330267,
    4860023166
  ]
},
{
  "type": "way",
  "id": 496299905,
  "nodes": [
    4860023165,
    4860023162,
    4860023163,
    4860023164,
    4860023165
  ]
},
{
  "type": "way",
  "id": 520955746,
  "nodes": [
    4853580424,
    4853580426,
    4853580422,
    4853580423,
    4853580424
  ]
},
{
  "type": "way",
  "id": 529082696,
  "nodes": [
    4853580220,
    4853580421,
    4853580172,
    4217423240,
    4217423237,
    4217434140,
    2701300447,
    2701300449,
    4853580184,
    2701300451,
    2701300453,
    2701300455,
    5457962830,
    4853580175,
    4853580176,
    4853580219,
    4853580220
  ]
},
{
  "type": "way",
  "id": 566833754,
  "nodes": [
    5457962834,
    5457962833,
    5457962831,
    5457962832,
    5457962834
  ]
}

  ]
}
