{
  "version": 0.6,
  "generator": "Overpass API 0.7.55.9 ab41fea6",
  "osm3s": {
    "timestamp_osm_base": "2020-02-14T14:39:02Z",
    "copyright": "The data included in this document is from www.openstreetmap.org. The data is made available under ODbL."
  },
  "elements": [

{
  "type": "node",
  "id": 34050681,
  "lat": 50.8500506,
  "lon": 5.6932018,
  "tags": {
    "name": "Museum de Historische Drukkerij",
    "tourism": "museum",
    "website": "http://www.drukmuseum.nl/",
    "wikidata": "Q30163006"
  }
},
{
  "type": "node",
  "id": 252382829,
  "lat": 50.8637156,
  "lon": 5.8320799,
  "tags": {
    "addr:city": "Valkenburg",
    "addr:housenumber": "31",
    "addr:postcode": "6301CW",
    "addr:street": "Grotestraat Centrum",
    "name": "Museum Land van Valkenburg",
    "source:addr": "BAG",
    "source:addr:date": "2014-03-24",
    "tourism": "museum",
    "website": "http://www.museumlandvanvalkenburg.nl/"
  }
},
{
  "type": "node",
  "id": 266967711,
  "lat": 50.5786075,
  "lon": 5.4268272,
  "tags": {
    "created_by": "Potlatch 0.9a",
    "name": "Préhistosite de Ramioul",
    "tourism": "museum"
  }
},
{
  "type": "node",
  "id": 271394429,
  "lat": 50.7213483,
  "lon": 5.9888327,
  "tags": {
    "name": "Musee de Moresnet",
    "tourism": "museum"
  }
},
{
  "type": "node",
  "id": 358039107,
  "lat": 50.8606699,
  "lon": 5.8559632,
  "tags": {
    "amenity": "place_of_worship",
    "name": "kruisweg op de Schaelsberg",
    "opening_hours": "24/7",
    "religion": "christian",
    "tourism": "museum",
    "website": "http://www.dekluisvalkenburg.nl"
  }
},
{
  "type": "node",
  "id": 461151921,
  "lat": 50.6452983,
  "lon": 5.5732626,
  "tags": {
    "layer": "-1",
    "name": "Archéoforum",
    "tourism": "museum",
    "wheelchair": "limited",
    "wikipedia": "fr:Archéoforum",
    "wikipedia:nl": "Archéoforum"
  }
},
{
  "type": "node",
  "id": 473380736,
  "lat": 50.8653394,
  "lon": 5.8214553,
  "tags": {
    "name": "Romeinse katakomben",
    "tourism": "museum",
    "website": "https://www.katakomben.nl/",
    "wikidata": "Q2409236"
  }
},
{
  "type": "node",
  "id": 534928048,
  "lat": 50.6688706,
  "lon": 5.8840043,
  "tags": {
    "name": "Remember 39-45",
    "tourism": "museum"
  }
},
{
  "type": "node",
  "id": 974966754,
  "lat": 50.6109969,
  "lon": 5.6797217,
  "tags": {
    "name": "Musée de Fléron",
    "tourism": "museum"
  }
},
{
  "type": "node",
  "id": 1006149800,
  "lat": 50.6863350,
  "lon": 5.7226648,
  "tags": {
    "heritage": "1",
    "heritage:operator": "whc",
    "historic": "industrial",
    "name": "Charbonnage de Blegny-Mine",
    "ref:whc": "1344-004",
    "tourism": "museum",
    "whc:criteria": "(ii)(iv)",
    "whc:inscription_date": "2012"
  }
},
{
  "type": "node",
  "id": 1100566560,
  "lat": 50.6258969,
  "lon": 6.0301564,
  "tags": {
    "addr:housenumber": "3",
    "addr:postcode": "4700",
    "addr:street": "Loten",
    "name": "Ikob -Internationales Kunstzentrum Ostbelgien",
    "tourism": "museum"
  }
},
{
  "type": "node",
  "id": 1315320272,
  "lat": 50.4416930,
  "lon": 5.6662962,
  "tags": {
    "name": "Musée de la Meunerie et de la Boulangerie",
    "tourism": "museum"
  }
},
{
  "type": "node",
  "id": 1554851552,
  "lat": 50.5681150,
  "lon": 5.5861737,
  "tags": {
    "name": "Musée de l'abeille",
    "tourism": "museum"
  }
},
{
  "type": "node",
  "id": 2114145103,
  "lat": 50.6460060,
  "lon": 5.5802012,
  "tags": {
    "name": "Musée des Beaux-Arts de Liège (BAL)",
    "tourism": "museum"
  }
},
{
  "type": "node",
  "id": 2292916522,
  "lat": 50.8146592,
  "lon": 5.3580994,
  "tags": {
    "name": "Fruitstreekmuseum",
    "tourism": "museum",
    "website": "www.vzw-fruitstreekmuseum.be"
  }
},
{
  "type": "node",
  "id": 2428794272,
  "lat": 50.6084679,
  "lon": 5.1751290,
  "tags": {
    "name": "Atelier du Charron",
    "tourism": "museum"
  }
},
{
  "type": "node",
  "id": 2455922932,
  "lat": 50.6825831,
  "lon": 5.2307203,
  "tags": {
    "name": "Hexapodia",
    "tourism": "museum"
  }
},
{
  "type": "node",
  "id": 2650701092,
  "lat": 50.8508529,
  "lon": 5.6867884,
  "tags": {
    "name": "N More",
    "tourism": "museum"
  }
},
{
  "type": "node",
  "id": 2701075192,
  "lat": 50.5187474,
  "lon": 5.2434569,
  "tags": {
    "name": "Musée Communal de Huy",
    "tourism": "museum"
  }
},
{
  "type": "node",
  "id": 2789496868,
  "lat": 50.7701797,
  "lon": 6.0195270,
  "tags": {
    "name": "Museum de Kopermolen",
    "tourism": "museum",
    "wheelchair": "no"
  }
},
{
  "type": "node",
  "id": 2804892708,
  "lat": 50.8483543,
  "lon": 5.6887551,
  "tags": {
    "addr:city": "Maastricht",
    "addr:housenumber": "18",
    "addr:postcode": "6211LD",
    "addr:street": "Vrijthof",
    "description": "photography museum",
    "fee": "MJK_free",
    "name": "Museum aan het Vrijthof",
    "opening_hours": "Tu-Su 10:00-17:30",
    "source": "BAG",
    "source:date": "2014-03-24",
    "tourism": "museum",
    "website": "http://www.museumaanhetvrijthof.nl/",
    "wikidata": "Q1634251",
    "wikipedia": "nl:Museum aan het Vrijthof"
  }
},
{
  "type": "node",
  "id": 2804898630,
  "lat": 50.8457856,
  "lon": 5.6927111,
  "tags": {
    "addr:city": "Maastricht",
    "addr:housenumber": "7",
    "addr:postcode": "6211JM",
    "addr:street": "Sint Pieterstraat",
    "name": "Regionaal Historisch Centrum Limburg",
    "source": "BAG",
    "source:date": "2014-03-24",
    "tourism": "museum",
    "website": "https://www.rhcl.nl/",
    "wikidata": "Q21004453",
    "wikipedia": "nl:Regionaal Historisch Centrum Limburg"
  }
},
{
  "type": "node",
  "id": 2804898641,
  "lat": 50.8450433,
  "lon": 5.6878046,
  "tags": {
    "addr:city": "Maastricht",
    "addr:housenumber": "7",
    "addr:postcode": "6211KJ",
    "addr:street": "De Bosquetplein",
    "fee": "MJK_free",
    "name": "Natuurhistorisch Museum Maastricht",
    "opening_hours": "Tu-Fr 11:00-17:00; Sa,Su 13:00-17:00",
    "source": "BAG",
    "source:date": "2014-03-24",
    "tourism": "museum",
    "website": "https://nhmmaastricht.nl/",
    "wikidata": "Q2412016"
  }
},
{
  "type": "node",
  "id": 2804902056,
  "lat": 50.8477987,
  "lon": 5.6931982,
  "tags": {
    "addr:city": "Maastricht",
    "addr:housenumber": "6",
    "addr:postcode": "6211HD",
    "addr:street": "Onze Lieve Vrouweplein",
    "name": "Museumkelder Derlon",
    "operator": "Hotel Derlon",
    "source": "BAG",
    "source:date": "2014-03-24",
    "tourism": "museum",
    "wikidata": "Q13866198",
    "wikipedia": "nl:Museumkelder Derlon"
  }
},
{
  "type": "node",
  "id": 2808618022,
  "lat": 50.8518926,
  "lon": 5.6858430,
  "tags": {
    "addr:city": "Maastricht",
    "addr:housenumber": "98",
    "addr:postcode": "6211RT",
    "addr:street": "Capucijnenstraat",
    "description": "Contemporary Culture",
    "fee": "MJK_free",
    "name": "Marres",
    "opening_hours": "Tu-Su 12:00-17:00",
    "source": "BAG",
    "source:date": "2014-03-24",
    "tourism": "museum",
    "website": "https://www.marres.org/"
  }
},
{
  "type": "node",
  "id": 2822975623,
  "lat": 50.9034461,
  "lon": 5.8247379,
  "tags": {
    "addr:city": "Schimmert",
    "addr:housenumber": "36",
    "addr:postcode": "6333BJ",
    "addr:street": "Hoofdstraat",
    "fee": "yes",
    "name": "Boerderij- en Heemkundemuseum Schimmert",
    "source": "BAG",
    "source:date": "2014-03-24",
    "tourism": "museum",
    "website": "http://www.boerderijmuseumschimmert.nl"
  }
},
{
  "type": "node",
  "id": 2915121971,
  "lat": 50.6729615,
  "lon": 5.5848077,
  "tags": {
    "name": "Musée de la Fraise et de la Vie d' Antan",
    "tourism": "museum",
    "website": "https://fraisevottem.wixsite.com/musee"
  }
},
{
  "type": "node",
  "id": 2952898756,
  "lat": 50.7453064,
  "lon": 5.7310075,
  "tags": {
    "addr:city": "Berneau",
    "addr:housenumber": "29",
    "addr:postcode": "4607",
    "addr:street": "Rue de Maëstricht",
    "name": "World War II Memory Museum",
    "note": "I don't know the exact location but it must be very near the indicated point.",
    "phone": "+32 479 82 98 12",
    "tourism": "museum",
    "website": "http://www.wwii-memory-museum.com"
  }
},
{
  "type": "node",
  "id": 2977922648,
  "lat": 50.5190444,
  "lon": 5.1938840,
  "tags": {
    "addr:city": "Ben-Ahin",
    "addr:housenumber": "65",
    "addr:postcode": "4500",
    "addr:street": "Avenue de Beaufort",
    "name": "Ecomusée de Ben-Ahin",
    "operator": "Commune de Huy",
    "phone": "+32 85 21 13 78",
    "tourism": "museum",
    "website": "http://www.ecomusee-ben-ahin.net/"
  }
},
{
  "type": "node",
  "id": 2981867685,
  "lat": 50.5170051,
  "lon": 5.2371374,
  "tags": {
    "name": "Le musée du fort de Huy",
    "operator": "Commune de Huy",
    "tourism": "museum"
  }
},
{
  "type": "node",
  "id": 3006025464,
  "lat": 50.6630136,
  "lon": 5.1548197,
  "tags": {
    "name": "Maison de la flore",
    "tourism": "museum"
  }
},
{
  "type": "node",
  "id": 3261602866,
  "lat": 50.6471529,
  "lon": 5.5769673,
  "tags": {
    "addr:city": "Liège",
    "addr:housenumber": "2",
    "addr:postcode": "4000",
    "addr:street": "Rue Mère Dieu",
    "name": "Musée Liégeois du Luminaire",
    "note": "Sehr sehenswerte Museum zu Geschichte des Lichtes von Philippe Deitz  http://www.freizeitguide-euregio.de/kunst-kultur-geschichte/historische-museen-ausstellungen/46234.mulum-musee-de-lumiere.html",
    "operator": "Philippe Deitz",
    "tourism": "museum",
    "website": "http://lesmuseesdeliege.be/mulum/"
  }
},
{
  "type": "node",
  "id": 3356873104,
  "lat": 50.5571706,
  "lon": 5.3613948,
  "tags": {
    "addr:city": "Hermalle-sous-Huy",
    "addr:housenumber": "132a",
    "addr:postcode": "4480",
    "addr:street": "Chaussée Freddy Terwagne",
    "name": "Musée de la Gourmandise",
    "operator": "ASBL La Rawète",
    "phone": "+32 85 31 42 86",
    "tourism": "museum",
    "website": "http://www.musee-gourmandise.be",
    "wikidata": "Q2688040",
    "wikipedia": "fr:Bibliothèque et musée de la Gourmandise"
  }
},
{
  "type": "node",
  "id": 3356904917,
  "lat": 50.5573681,
  "lon": 5.3615402,
  "tags": {
    "addr:city": "Hermalle-sous-Huy",
    "addr:housenumber": "132a",
    "addr:postcode": "4480",
    "addr:street": "Chaussée Freddy Terwagne",
    "name": "Musées Postes Restantes",
    "operator": "ASBL La Rawète",
    "phone": "+32 85 31 42 86",
    "tourism": "museum",
    "website": "http://www.postes-restantes.be",
    "wikidata": "Q3329322",
    "wikipedia": "fr:Musée Postes restantes"
  }
},
{
  "type": "node",
  "id": 3825351116,
  "lat": 50.8305623,
  "lon": 5.6419091,
  "tags": {
    "addr:city": "Vroenhoven (Riemst)",
    "addr:housenumber": "212",
    "addr:postcode": "3770",
    "addr:street": "Maastrichtersteenweg",
    "air_conditioning": "no",
    "fee": "yes",
    "name": "Brug van Vroenhoven",
    "opening_hours": "We-Su 10:00-17:00",
    "payment:cash": "yes",
    "payment:debit_cards": "yes",
    "tourism": "museum",
    "website": "http://www.debrugvanvroenhoven.be/",
    "wheelchair": "yes"
  }
},
{
  "type": "node",
  "id": 4004822189,
  "lat": 50.5270596,
  "lon": 5.2585508,
  "tags": {
    "name": "Musée de la Via Tihangeoisse",
    "tourism": "museum"
  }
},
{
  "type": "node",
  "id": 4088565091,
  "lat": 50.6307883,
  "lon": 5.5655253,
  "tags": {
    "name": "MadMusée",
    "tourism": "museum"
  }
},
{
  "type": "node",
  "id": 4411643376,
  "lat": 50.3944915,
  "lon": 5.5496132,
  "tags": {
    "addr:city": "Vieuxville",
    "addr:housenumber": "1",
    "addr:postcode": "4190",
    "addr:street": "Rue de La Bouverie",
    "name": "Musée du Château Fort de Logne",
    "tourism": "museum"
  }
},
{
  "type": "node",
  "id": 4716260393,
  "lat": 50.4006913,
  "lon": 5.6080409,
  "tags": {
    "name": "Musée du Jouet asbl",
    "tourism": "museum"
  }
},
{
  "type": "node",
  "id": 4719991841,
  "lat": 50.8490467,
  "lon": 5.6872893,
  "tags": {
    "name": "De Schatkamer",
    "opening_hours": "Mo-Sa 10:00-17:00; Su 12:30-17:00",
    "operator": "Sint Servaasbasilliek",
    "tourism": "museum",
    "website": "https://www.sintservaas.nl/index24.html"
  }
},
{
  "type": "node",
  "id": 5006029993,
  "lat": 50.8567335,
  "lon": 5.6902773,
  "tags": {
    "addr:city": "Maastricht",
    "addr:housenumber": "9",
    "addr:postcode": "6211AS",
    "addr:street": "Boschstraat",
    "fee": "MJK_free",
    "name": "Bureau Europa",
    "opening_hours": "We-Su 12:00-17:00; Jan 01 off; Dec 25 off; Apr 27 off; \"during Carnival off\"",
    "source": "BAG",
    "source:date": "2017-08-01",
    "tourism": "museum"
  }
},
{
  "type": "node",
  "id": 5030612115,
  "lat": 50.6470244,
  "lon": 5.5821399,
  "tags": {
    "name": "Musée d'Ansembourg",
    "opening_hours": "Th-Su 10:00-18:00",
    "tourism": "museum",
    "wheelchair": "no",
    "wikidata": "Q2478313",
    "wikipedia": "fr:Musée d'Ansembourg"
  }
},
{
  "type": "node",
  "id": 5102700283,
  "lat": 50.6410571,
  "lon": 5.5836365,
  "tags": {
    "name": "Musée Gretry",
    "tourism": "museum",
    "wikidata": "Q3329180"
  }
},
{
  "type": "node",
  "id": 5394134148,
  "lat": 50.6387581,
  "lon": 5.5787869,
  "tags": {
    "addr:city": "Liège",
    "addr:housenumber": "22",
    "addr:postcode": "4020",
    "addr:street": "Quai Édouard Van Beneden",
    "name": "Maison de la science",
    "opening_hours": "Mo-Fr 09:00-12:30,13:30-17:00; Sa,Su 14:00-18:00; PH 14:00-18:00; Jul-Aug 13:30-18:00",
    "opening_hours:url": "http://maisondelascience.uliege.be/en-pratique/horaires/",
    "tourism": "museum",
    "website": "http://www.maisondelascience.ulg.ac.be/"
  }
},
{
  "type": "node",
  "id": 6106216508,
  "lat": 50.8842344,
  "lon": 5.7540496,
  "tags": {
    "name": "Erfgoedhuis Meerssen",
    "tourism": "museum"
  }
},
{
  "type": "node",
  "id": 6151221898,
  "lat": 50.4797422,
  "lon": 5.5233366,
  "tags": {
    "addr:city": "Anthisnes",
    "addr:country": "BE",
    "addr:housenumber": "19",
    "addr:postcode": "4160",
    "addr:street": "Avenue de l'Abbaye",
    "name": "Musée de la Bière et du Peket",
    "tourism": "museum",
    "website": "https://www.avouerie.be/"
  }
},
{
  "type": "node",
  "id": 6202145549,
  "lat": 50.7694254,
  "lon": 6.0030476,
  "tags": {
    "addr:city": "Vaals",
    "addr:housenumber": "7",
    "addr:postcode": "6291NK",
    "addr:street": "Eschberg",
    "description": "  Museum Vaals is sinds eind april 2009 een nieuwe trekpleister in het mooie heuvel-achtige Zuid-Limburg, een stukje buitenland in Nederland, slechts twee kilometer vanaf het drielandenpunt.",
    "name": "Museum Vaals",
    "tourism": "museum",
    "website": "http://www.museumvaals.nl/index.html"
  }
},
{
  "type": "node",
  "id": 6791342525,
  "lat": 50.4934920,
  "lon": 5.8578344,
  "tags": {
    "name": "Musée de la lessive",
    "tourism": "museum"
  }
},
{
  "type": "node",
  "id": 6791455375,
  "lat": 50.6110303,
  "lon": 5.7486434,
  "tags": {
    "name": "Musée de la vie populaire",
    "tourism": "museum"
  }
},
{
  "type": "way",
  "id": 8113202,
  "nodes": [
    60841557,
    6325145002,
    6325145001,
    6325145004,
    6325145003,
    1116365359,
    6325145019,
    6325145020,
    1116365071,
    6325145018,
    6325145017,
    6325145014,
    6325145016,
    6325145015,
    1116364957,
    1116365322,
    6325145000,
    6325144999,
    6325144998,
    6325144997,
    60841558,
    6325144996,
    6325144995,
    1116365053,
    1116365157,
    1116365003,
    1116365116,
    1116365393,
    1116365218,
    1116364991,
    1116365263,
    60841559,
    6325144675,
    6325144676,
    1116365106,
    6325144677,
    6325144678,
    1116365204,
    6325144679,
    6325144680,
    6325144681,
    6325144682,
    6325144683,
    6325144684,
    1116365304,
    6325144985,
    6325144986,
    1116365038,
    60841560,
    1116365144,
    1116365251,
    6325144987,
    6325144988,
    1116365349,
    485231182,
    6325145013,
    6325144989,
    485231188,
    6325144990,
    486646071,
    6325144991,
    485231185,
    6325144992,
    6325145012,
    485231178,
    1116365372,
    6325145011,
    1116365023,
    6325144994,
    6325144993,
    1116365223,
    6325145010,
    6325145009,
    6325145008,
    6325145007,
    6325145006,
    6325145005,
    60841557
  ],
  "tags": {
    "addr:housenumber": "3",
    "addr:street": "Parc de la Boverie",
    "alt_name": "Palais des beaux-arts de Liège",
    "building": "yes",
    "historic": "building",
    "name": "La Boverie",
    "start_date": "1905",
    "tourism": "museum",
    "website": "https://www.laboverie.com/",
    "wikidata": "Q21511875",
    "wikipedia": "fr:La Boverie"
  }
},
{
  "type": "way",
  "id": 30962032,
  "nodes": [
    344289477,
    6518122671,
    6518122672,
    344289479,
    6518122674,
    6518122673,
    344289481,
    344289483,
    344289477
  ],
  "tags": {
    "building": "yes",
    "description": "Fermé - En travaux",
    "name": "Madmusée",
    "opening_hours": "off",
    "tourism": "museum",
    "wikidata": "Q17347120",
    "wikipedia": "fr:MADmusée"
  }
},
{
  "type": "way",
  "id": 31694505,
  "nodes": [
    354673663,
    1103964250,
    1103964492,
    1103964040,
    1103963894,
    1103964083,
    1103964290,
    1103964546,
    1103964343,
    1103964133,
    1103964210,
    1103964460,
    1103964001,
    354673665,
    354673666,
    4049966837,
    4049966838,
    4050074336,
    354673668,
    4049966839,
    4049966841,
    4050074338,
    4050074337,
    4050042700,
    354673669,
    4049966840,
    4049966842,
    4049966844,
    4049966845,
    4049966847,
    4049966848,
    4049966849,
    354673671,
    4050042706,
    4049966850,
    4049966851,
    354673672,
    1103964099,
    1103964309,
    4049966852,
    1103964059,
    4049966853,
    1103964581,
    354673673,
    354673663
  ],
  "tags": {
    "addr:city": "Liège",
    "addr:country": "BE",
    "addr:housenumber": "22",
    "addr:postcode": "4020",
    "addr:street": "Quai Édouard Van Beneden",
    "building": "yes",
    "name": "Aquarium & Museum",
    "tourism": "museum",
    "wikidata": "Q40680"
  }
},
{
  "type": "way",
  "id": 31858213,
  "nodes": [
    356664002,
    356664004,
    4560286905,
    4560286904,
    356664005,
    4560286903,
    4560286902,
    4560286901,
    4560286900,
    4560286899,
    4560286898,
    4560286897,
    4560286896,
    356664007,
    4560286895,
    356664014,
    4560286907,
    356664002
  ],
  "tags": {
    "addr:housenumber": "17",
    "addr:street": "Boulevard Raymond Poincaré",
    "building": "yes",
    "name": "Maison de la métallurgie",
    "tourism": "museum",
    "website": "http://mmil.uliege.be/"
  }
},
{
  "type": "way",
  "id": 40023553,
  "nodes": [
    481213381,
    481217221,
    6833131640,
    481205276,
    481205279,
    481209423,
    481213901,
    481215278,
    481208623,
    6833131635,
    6833131634,
    6833131633,
    6833131632,
    2264340637,
    2264340640,
    481205280,
    481205289,
    6833131628,
    6833131626,
    6833131625,
    6833131627,
    481205238,
    481205247,
    6833131623,
    6833131624,
    2264340602,
    2264340605,
    2264340586,
    2264340583,
    2264340579,
    481207019,
    481207034,
    2264340606,
    2264340594,
    2264340607,
    2264340623,
    481205265,
    2264340629,
    2264340631,
    481205269,
    6833131637,
    6833131636,
    6833131638,
    6833131639,
    481208159,
    481213079,
    481213381
  ],
  "tags": {
    "addr:city": "Tongeren",
    "addr:country": "BE",
    "addr:housenumber": "16",
    "addr:street": "Kielenstraat",
    "building": "public",
    "name": "Gallo-Romeins Museum",
    "name:de": "Gallo-Römisches Museum",
    "name:en": "Gallo-Roman Museum",
    "name:eo": "Gaŭl-Romia muzeo",
    "name:fr": "Musée gallo-romain",
    "name:nl": "Gallo-Romeins Museum",
    "opening_hours": "09:00-18:00",
    "tourism": "museum",
    "website": "https://www.galloromeinsmuseum.be/",
    "wikidata": "Q1492516",
    "wikipedia": "nl:Gallo-Romeins Museum (Tongeren)"
  }
},
{
  "type": "way",
  "id": 44225062,
  "nodes": [
    561925416,
    561925424,
    561925399,
    561925409,
    561925402,
    561925443,
    6786651264,
    561924774,
    561924741,
    561924751,
    561925441,
    561925416
  ],
  "tags": {
    "building": "civic",
    "name": "Maison de la Montagne Saint Pierre",
    "tourism": "museum"
  }
},
{
  "type": "way",
  "id": 45340745,
  "nodes": [
    576340796,
    576340800,
    576340802,
    576340805,
    576340796
  ],
  "tags": {
    "building": "yes",
    "museum": "local",
    "name": "Museum Zoe was Alleke",
    "tourism": "museum"
  }
},
{
  "type": "way",
  "id": 46595756,
  "nodes": [
    595504101,
    595504103,
    2203145886,
    595504105,
    1116365125,
    595504104,
    595504102,
    595504100,
    595504101
  ],
  "tags": {
    "addr:city": "Liège",
    "addr:country": "BE",
    "addr:housenumber": "9",
    "addr:postcode": "4020",
    "addr:street": "Rue Richard Heintz",
    "building": "yes",
    "name": "Musée des Transports en commun de Wallonie",
    "operator": "TEC",
    "tourism": "museum",
    "website": "www.musee-transports.be",
    "wikidata": "Q839424"
  }
},
{
  "type": "way",
  "id": 76921523,
  "nodes": [
    906019663,
    4910990824,
    906019659,
    906019670,
    4910990825,
    4910990826,
    4910990827,
    4910990828,
    906019681,
    4910990829,
    4910990830,
    4910990831,
    4910990832,
    906019652,
    906019665,
    906019674,
    4910990822,
    4910990823,
    906019649,
    906019663
  ],
  "tags": {
    "addr:housenumber": "7b",
    "addr:street": "Rue de l'Eglise",
    "building": "yes",
    "name": "Musée Décembre 1944",
    "tourism": "museum",
    "website": "http://www.december44.com"
  }
},
{
  "type": "way",
  "id": 103544384,
  "nodes": [
    1195493049,
    1195493050,
    1195492988,
    5881569776,
    1195493016,
    5881569784,
    5881569893,
    1213673508,
    1195493049
  ],
  "tags": {
    "MDG:criteria": "D",
    "MDG:inscription_date": "1983-03-25",
    "addr:city": "Eupen",
    "addr:country": "BE",
    "addr:housenumber": "52",
    "addr:postcode": "4700",
    "addr:street": "Gospertstraße",
    "building": "yes",
    "building:levels": "3",
    "description": "The townhouse dates back to 1697. Since 1980 it houses the city museum.",
    "description:de": "Das Stadthausstammt aus dem Jahr 1697. Es beherbergt seit 1980 das Stadtmuseum.",
    "description:en": "The townhouse dates back to 1697. Since 1980 it houses the city museum.",
    "description:fr": "La maison de ville date de 1697. Depuis 1980, elle abrite le musée de la ville.",
    "description:nl": "Het herenhuis dateert uit 1697. Sinds 1980 herbergt het stadsmuseum.",
    "email": "info@eupener-stadtmuseum.be",
    "heritage": "4",
    "heritage:operator": "MDG",
    "heritage:website": "http://www.ostbelgienkulturerbe.be/desktopdefault.aspx/tabid-3557/linkid=31126",
    "historic": "building",
    "image": "File:EUPEN_Gospertstrasse_52_(Stadtmuseum)_(2).JPG",
    "name": "Stadtmuseum Eupen",
    "opening_hours": "Mo-Fr 08:00-12:00, 13:00-17:00; Sa 08:00-12:00, 13:00-15:00",
    "operator": "Stadt Eupen",
    "payment:coins": "yes",
    "payment:maestro": "yes",
    "payment:mastercard": "yes",
    "payment:notes": "yes",
    "payment:visa": "yes",
    "phone": "+32 87 74 00 05",
    "ref:MDG": "31126",
    "start_date": "1697",
    "tourism": "museum",
    "wheelchair": "yes",
    "wikimedia_commons": "Category:Haus_Gospertstraße_52_(Eupen)"
  }
},
{
  "type": "way",
  "id": 105325959,
  "nodes": [
    1213673589,
    1195493049,
    1213673508,
    5881569894,
    5520141177,
    5881569899,
    1213673589
  ],
  "tags": {
    "addr:city": "Eupen",
    "addr:country": "BE",
    "addr:housenumber": "54",
    "addr:postcode": "4700",
    "addr:street": "Gospertstraße",
    "building": "yes",
    "building:levels": "3",
    "email": "info@eupener-stadtmuseum.be",
    "image": "https://commons.wikimedia.org/wiki/File:EUPEN_Gospertstrasse_52_(Stadtmuseum)_(2).JPG",
    "name": "Stadtmuseum Eupen",
    "opening_hours": "Mo-Fr 08:00-12:00, 13:00-17:00; Sa 08:00-12:00, 13:00-15:00",
    "operator": "Stadt Eupen",
    "payment:coins": "yes",
    "payment:maestro": "yes",
    "payment:mastercard": "yes",
    "payment:notes": "yes",
    "payment:visa": "yes",
    "phone": "+32 87 74 00 05",
    "tourism": "museum",
    "wheelchair": "yes",
    "wikimedia_commons": "Category:Stadtmuseum_Eupen"
  }
},
{
  "type": "way",
  "id": 117105085,
  "nodes": [
    1319181664,
    1319181640,
    1319181634,
    1319181658,
    1319181669,
    1319181649,
    1319181644,
    1319181646,
    1319181664
  ],
  "tags": {
    "addr:housenumber": "54",
    "addr:place": "Sprimont",
    "addr:street": "Rue Joseph Potier",
    "building": "yes",
    "historic": "building",
    "name": "Musée de la pierre de Sprimont",
    "start_date": "1905",
    "tourism": "museum",
    "website": "http://www.sprimont.be/touristes/musee-de-la-pierre"
  }
},
{
  "type": "way",
  "id": 131299948,
  "nodes": [
    1445338598,
    1445338596,
    1445338597,
    1445338599,
    1445338598
  ],
  "tags": {
    "addr:housenumber": "64",
    "addr:street": "Avenue de Navagne",
    "building": "yes",
    "name": "Club des Chercheurs et Correspondants Cheminot",
    "opening_hours": "\"needs reservation by phone\"",
    "phone": "+32 473 79 08 90",
    "short_name": "CCCC",
    "tourism": "museum",
    "website": "http://cccc-vise.over-blog.com/"
  }
},
{
  "type": "way",
  "id": 133270368,
  "nodes": [
    331884649,
    1466934376,
    1466934390,
    1466934360,
    1466934372,
    1466934340,
    331884649
  ],
  "tags": {
    "building": "yes",
    "email": "musee@berinzenne.be",
    "name": "Musée de la Forêt et des Eaux",
    "opening_hours": "Tu-Fr 10:00-17:00; Sa,Su 14:00-17:45",
    "phone": "+32 87 77 18 38",
    "tourism": "museum",
    "website": "http://www.berinzenne.be/FR/musee.htm"
  }
},
{
  "type": "way",
  "id": 155557497,
  "nodes": [
    1679501065,
    5863186417,
    1679501063,
    1679501064,
    1679501069,
    1679501067,
    1679501065
  ],
  "tags": {
    "addr:city": "Limbourg",
    "addr:housenumber": "30",
    "addr:postcode": "4830",
    "addr:street": "Place Saint-Georges",
    "building": "yes",
    "name": "L'Arvo",
    "tourism": "museum"
  }
},
{
  "type": "way",
  "id": 163977380,
  "nodes": [
    1756331524,
    1756331504,
    1756331510,
    1756331512,
    1756331527,
    1756331525,
    1756331524
  ],
  "tags": {
    "addr:housenumber": "17",
    "addr:street": "Rue Renier",
    "building": "yes",
    "historic": "archaeological_site",
    "name": "Musée des Beaux-Arts et de la Céramique",
    "opening_hours": "Tu, We, Sa 14:00-17:00; Su 15:00-18:00",
    "tourism": "museum",
    "website": "http://musees.verviers.be/musee-des-beaux-arts"
  }
},
{
  "type": "way",
  "id": 164061380,
  "nodes": [
    4758463326,
    1757225827,
    4758463328,
    5995922028,
    4758463325,
    4758463326
  ],
  "tags": {
    "addr:city": "Verviers",
    "addr:housenumber": "42",
    "addr:postcode": "4800",
    "addr:street": "Rue des Raines",
    "building": "yes",
    "name": "Musée d'Archéologie et de Folklore",
    "phone": "+32 87 33 16 95",
    "tourism": "museum",
    "website": "http://musees.verviers.be"
  }
},
{
  "type": "way",
  "id": 174647053,
  "nodes": [
    1853014727,
    1853014725,
    1853014726,
    5043813894,
    5043813893,
    6695967263,
    6695967264,
    1853014729,
    5043813892,
    5043813891,
    1853014728,
    1853014730,
    1853014727
  ],
  "tags": {
    "building": "yes",
    "disused:man_made": "mine",
    "historic": "mine",
    "image": "File:Blegny- Mine Puits Marie 2.jpg",
    "name": "Blegny-Mine - Puits Marie",
    "resource": "coal",
    "tourism": "museum"
  }
},
{
  "type": "way",
  "id": 182438050,
  "nodes": [
    1927872209,
    1927872202,
    1927872200,
    1927872195,
    1927872209
  ],
  "tags": {
    "addr:housenumber": "77B",
    "addr:street": "Avenue Reine Astrid",
    "building": "yes",
    "name": "Musée Spadois du Cheval",
    "tourism": "museum",
    "website": "http://www.spavillaroyale.be/"
  }
},
{
  "type": "way",
  "id": 182438054,
  "nodes": [
    1927872206,
    1927872211,
    1927872216,
    1927872214,
    1927872206
  ],
  "tags": {
    "building": "yes",
    "name": "Musée de la Ville d'Eaux",
    "tourism": "museum",
    "website": "http://www.spavillaroyale.be/"
  }
},
{
  "type": "way",
  "id": 225980911,
  "nodes": [
    2348237634,
    2348237664,
    2348237633,
    2348237555,
    2348237634
  ],
  "tags": {
    "addr:housenumber": "1",
    "addr:postcode": "4170",
    "addr:street": "Place Leblanc",
    "building": "yes",
    "name": "Musée du Pays Ourthe-Amblève",
    "tourism": "museum"
  }
},
{
  "type": "way",
  "id": 242280124,
  "nodes": [
    2497867981,
    4922388540,
    4922388539,
    6912950248,
    2497867984,
    6912950247,
    2497867986,
    4922388538,
    4922388533,
    4922388532,
    4922388531,
    4922388534,
    2497867988,
    4922388535,
    4922388536,
    4922388537,
    2497867990,
    2497867981
  ],
  "tags": {
    "building": "yes",
    "disused": "yes",
    "name": "La Tour d'Air",
    "tourism": "museum"
  }
},
{
  "type": "way",
  "id": 242280125,
  "nodes": [
    2497867992,
    2497867994,
    2497867996,
    2497867998,
    2497867992
  ],
  "tags": {
    "disused": "yes",
    "name": "La Tour d'Air",
    "tourism": "museum"
  }
},
{
  "type": "way",
  "id": 249265082,
  "nodes": [
    2558979048,
    2558979045,
    2558979019,
    2558979047,
    2558979008,
    5017127189,
    5017127190,
    5017127200,
    5017127198,
    5017127197,
    5017127196,
    5017127199,
    5017127195,
    5017127194,
    5017127193,
    5017127201,
    5017127192,
    5017127191,
    5017127188,
    2558979048
  ],
  "tags": {
    "amenity": "arts_centre",
    "building": "yes",
    "description": "Centre Wallon d'Art Contemporain",
    "historic": "manor",
    "name": "La Châtaigneraie",
    "start_date": "1830",
    "tourism": "museum",
    "website": "http://www.cwac.be"
  }
},
{
  "type": "way",
  "id": 274187428,
  "nodes": [
    2789478770,
    2789478838,
    2789478825,
    2789478755,
    2789478770
  ],
  "tags": {
    "addr:city": "Vaals",
    "addr:country": "NL",
    "addr:housenumber": "2c",
    "addr:postcode": "6291BB",
    "addr:street": "Akenerstraat",
    "building": "yes",
    "description": "het kleinste en hoogst gelegen museum van Nederland",
    "image": "File:Vaals-Douanepost Akenerstraat (1).JPG",
    "name": "Kleng Wach",
    "ref:bag": "981100000022080",
    "source": "BAG",
    "source:date": "2014-03-24",
    "start_date": "1988",
    "tourism": "museum",
    "wheelchair": "no",
    "wikimedia_commons": "Category:Grenzmuseum (Vaals)"
  }
},
{
  "type": "way",
  "id": 274540510,
  "nodes": [
    937991582,
    2792437028,
    2792437056,
    599279929,
    937991582
  ],
  "tags": {
    "building": "yes",
    "building:levels": "1",
    "name": "Netherlands American Cemetery and Memorial Museum",
    "ref:bag": "936100000006576",
    "source": "BAG",
    "source:date": "2014-03-24",
    "start_date": "1960",
    "tourism": "museum"
  }
},
{
  "type": "way",
  "id": 275332696,
  "nodes": [
    2799708000,
    2799707992,
    2799707990,
    2799718659,
    2799718660,
    4555503114,
    4555503113,
    4555503112,
    2799708000
  ],
  "tags": {
    "building": "house",
    "name": "Museum Sint-Pieters",
    "ref:bag": "935100000089492",
    "source": "BAG",
    "source:date": "2016-12-15",
    "start_date": "1927",
    "tourism": "museum",
    "wikidata": "Q2685462"
  }
},
{
  "type": "way",
  "id": 275826062,
  "nodes": [
    2804935839,
    2804935809,
    2804935492,
    2804934181,
    2804935839
  ],
  "tags": {
    "building": "yes",
    "name": "Schatkamer Sint-Servaasbasiliek",
    "name:en": "Treasury of the Basilica of Saint Servatius",
    "ref:bag": "935100000017083",
    "source": "BAG",
    "source:date": "2014-03-24",
    "start_date": "1854",
    "tourism": "museum",
    "wikidata": "Q2284283"
  }
},
{
  "type": "way",
  "id": 276399572,
  "nodes": [
    2809919855,
    2809919862,
    2809919872,
    2809919874,
    2809919882,
    2809919886,
    2809919888,
    2809919895,
    2809921301,
    2809921304,
    2809921310,
    2809921314,
    2809921320,
    2809921324,
    2809921327,
    2809921330,
    2809921331,
    2809921329,
    2809921326,
    2809921322,
    2809921318,
    2809921313,
    2809921308,
    2809921303,
    2809919898,
    2809919893,
    2809919887,
    2809919884,
    2809919879,
    2809919871,
    2809919880,
    2809921997,
    2809922000,
    2809921986,
    2809921991,
    2809922205,
    2809922206,
    2809921993,
    2809922201,
    2809922216,
    2809922218,
    2809922202,
    2809922211,
    2809922230,
    2809922232,
    2809922212,
    2809922222,
    2809922732,
    2809922733,
    2809922224,
    2809922234,
    2809922744,
    2809922746,
    2809922728,
    2809922736,
    2809922752,
    2809922754,
    2809922738,
    2809922750,
    2809922763,
    2809922765,
    2809922751,
    2809922758,
    2809922770,
    2809922771,
    2809922759,
    2809922767,
    2809924208,
    2809921398,
    2809923288,
    2809925407,
    2809924236,
    2809924235,
    2809922802,
    2809922809,
    2809922215,
    2809922213,
    2809921959,
    2809921961,
    2809919851,
    2809919844,
    2809917957,
    2809917956,
    2809913760,
    2809909162,
    2809917359,
    2809917928,
    2809920625,
    2809920613,
    2809919587,
    2809919585,
    2809920611,
    2809919597,
    2809919571,
    2809919568,
    2809919595,
    2809919579,
    2809919556,
    2809919554,
    2809919578,
    2809919564,
    2809919536,
    2809919534,
    2809919559,
    2809919550,
    2809919524,
    2809919523,
    2809919545,
    2809919529,
    2809919517,
    2809919515,
    2809919527,
    2809919521,
    2809919506,
    2809919501,
    2809919520,
    2809919510,
    2809916490,
    2809916488,
    2809919508,
    2809916498,
    2809916481,
    2809916480,
    2809920637,
    2809920633,
    2809920627,
    2809920621,
    2809920617,
    2809920610,
    2809919600,
    2809919594,
    2809919586,
    2809919576,
    2809919569,
    2809919560,
    2809919557,
    2809919553,
    2809919551,
    2809919547,
    2809919546,
    2809919549,
    2809919552,
    2809919555,
    2809919558,
    2809919566,
    2809919573,
    2809919583,
    2809919592,
    2809919599,
    2809920607,
    2809920616,
    2809920620,
    2809920631,
    2809920623,
    2809919593,
    2809919561,
    2809919532,
    2809919512,
    2809916493,
    2809916479,
    2809916464,
    2809916457,
    2809916450,
    2809916455,
    2809916463,
    2809916478,
    2809916494,
    2809919514,
    2809919533,
    2809919570,
    2809920609,
    2809920640,
    2809919853,
    2809919876,
    2809919897,
    2809921316,
    2809921334,
    2809921939,
    2809921942,
    2809921945,
    2809921944,
    2809921940,
    2809921335,
    2809921317,
    2809919900,
    2809919878,
    2809919855
  ],
  "tags": {
    "addr:city": "Maastricht",
    "addr:country": "NL",
    "addr:housenumber": "250",
    "addr:street": "Avenue Ceramique",
    "building": "yes",
    "fee": "MJK_free",
    "name": "Bonnefantenmuseum",
    "opening_hours": "Tu-Su 11:00-17:00",
    "ref:bag": "935100000023799",
    "source": "BAG",
    "source:date": "2014-03-24",
    "start_date": "1992",
    "tourism": "museum",
    "website": "https://www.bonnefanten.nl/",
    "wikidata": "Q892727",
    "wikipedia": "nl:Bonnefantenmuseum"
  }
},
{
  "type": "way",
  "id": 276958382,
  "nodes": [
    2815089960,
    2815089961,
    2815089962,
    2815089963,
    4008382307,
    4008382306,
    2815089960
  ],
  "tags": {
    "addr:city": "Moha",
    "addr:housenumber": "98",
    "addr:postcode": "4520",
    "addr:street": "Rue du Madot",
    "building": "yes",
    "historic": "Post Office",
    "name": "Poste d'accueil du Château féodal de Moha",
    "phone": "+32 85 25 16 13",
    "tourism": "museum",
    "website": "https://www.chateaumoha.be/index.html"
  }
},
{
  "type": "way",
  "id": 320371721,
  "nodes": [
    3268806811,
    3268806805,
    3884699001,
    3884699002,
    3884699003,
    3884699004,
    3884699005,
    3884699006,
    3884699009,
    3884699011,
    3884699013,
    3884699012,
    3884699010,
    3268806826,
    3268806819,
    3268806820,
    3268806811
  ],
  "tags": {
    "building": "civic",
    "name": "Géologium du Broukay",
    "tourism": "museum",
    "website": "http://www.gmvloisirs.be/geologium.php"
  }
},
{
  "type": "way",
  "id": 333552962,
  "nodes": [
    3406849709,
    3406849710,
    3406849711,
    3406849712,
    3406849713,
    3406849714,
    3406849715,
    3406849716,
    3406849717,
    3406849718,
    3406849719,
    3406849720,
    3406849709
  ],
  "tags": {
    "addr:city": "Wéris",
    "addr:housenumber": "7",
    "addr:postcode": "6940",
    "addr:street": "Place Arsène Soreil",
    "amenity": "cafe",
    "building": "yes",
    "name": "Maison des Mégalithes",
    "name_alt": "Musée des Mégalithes",
    "opening_hours": "Mo-Su 10:00-17:30",
    "outdoor_seating": "yes",
    "phone": "+32 86 21 02 19",
    "tourism": "museum"
  }
},
{
  "type": "way",
  "id": 355195964,
  "nodes": [
    3608017244,
    3608017247,
    3608017245,
    3608017241,
    3608017242,
    3608017243,
    3608017244
  ],
  "tags": {
    "building": "industrial",
    "disused": "yes",
    "historic": "industrial",
    "name": "Les Maitres du Feu",
    "start_date": "1897",
    "tourism": "museum"
  }
},
{
  "type": "way",
  "id": 355195965,
  "nodes": [
    3608017242,
    3608017236,
    3608017239,
    3608017244,
    3608017243,
    3608017242
  ],
  "tags": {
    "building": "industrial",
    "disused": "yes",
    "historic": "industrial",
    "name": "Musée du Cycle",
    "tourism": "museum"
  }
},
{
  "type": "way",
  "id": 384769716,
  "nodes": [
    3881235486,
    3881235482,
    3881235476,
    3881235478,
    3881235479,
    619435047,
    3881235488,
    3881235486
  ],
  "tags": {
    "building": "yes",
    "tourism": "museum"
  }
},
{
  "type": "way",
  "id": 385116820,
  "nodes": [
    3884700763,
    3884700770,
    3884700771,
    3884700772,
    3884700774,
    3884700777,
    3884700783,
    3884700786,
    3884700788,
    3884700790,
    3884700789,
    3884700787,
    3884700785,
    3884700780,
    3884700775,
    3884700778,
    3884700781,
    3884700784,
    3884700782,
    3884700779,
    3884700776,
    3884700773,
    3884700769,
    3884700768,
    3884700767,
    3884700765,
    3884700766,
    3884700759,
    3884700758,
    3884699055,
    3884699052,
    3884699045,
    3884699043,
    3884699041,
    3884699039,
    3884699037,
    3884699038,
    3884699040,
    3884699042,
    3884699044,
    3884699049,
    3884699056,
    3884699054,
    3884699051,
    3884699048,
    3884699046,
    3884699047,
    3884699050,
    3884699053,
    3884700757,
    3884700760,
    3884700761,
    3884700762,
    3884700764,
    3884700763
  ],
  "tags": {
    "addr:city": "Bassenge",
    "addr:country": "BE",
    "addr:postcode": "4690",
    "addr:street": "Haie de Wonck",
    "alt_name": "Musée du Silex",
    "building": "castle",
    "historic": "castle",
    "name": "Tour d'Eben-Ezer",
    "tourism": "museum",
    "website": "http://www.musee-du-silex.be",
    "wikidata": "Q3533248",
    "wikipedia": "fr:Tour d'Eben-Ezer"
  }
},
{
  "type": "way",
  "id": 393247831,
  "nodes": [
    3964603057,
    3964602958,
    3964602563,
    3964602759,
    4467505577,
    4467505576,
    4467505575,
    4467505578,
    3964603058,
    5908137875,
    5908137874,
    3964603157,
    3964603057
  ],
  "tags": {
    "building": "yes",
    "name": "Chemin de Fer de Sprimont",
    "tourism": "museum",
    "website": "http://www.cfs-sprimont.be"
  }
},
{
  "type": "way",
  "id": 395978467,
  "nodes": [
    3987828766,
    3987828775,
    3987828772,
    3987828782,
    3987828777,
    3987828769,
    3987828152,
    3987828764,
    3987828773,
    3987828156,
    3987828757,
    3987828766
  ],
  "tags": {
    "addr:city": "Herstal",
    "addr:housenumber": "25",
    "addr:postcode": "4040",
    "addr:street": "Place Licourt",
    "alt_name": "Maison de Lovinfosse",
    "building": "yes",
    "clt:inscription_date": "1934-09-14",
    "description": "Maison du 17e s., actuellement musée,",
    "heritage": "4",
    "heritage:operator": "clt",
    "heritage:website": "http://lampspw.wallonie.be/dgo4/site_thema/index.php/dossier/view/BC_PAT/62051-CLT-0002-01",
    "name": "Musée de la ville de Herstal",
    "ref:clt": "62051-CLT-0002-01",
    "start_date": "1664",
    "tourism": "museum",
    "wikipedia:nl": "Musée Communal (Herstal)"
  }
},
{
  "type": "way",
  "id": 402413631,
  "nodes": [
    3210547349,
    4048260618,
    4048260616,
    4048260622,
    4048231535,
    4048231536,
    3210547349
  ],
  "tags": {
    "addr:city": "Liège",
    "addr:country": "BE",
    "addr:housenumber": "56",
    "addr:postcode": "4020",
    "addr:street": "Rue Surlet",
    "building": "yes",
    "name": "Musée Tchantchès",
    "tourism": "museum",
    "wikidata": "Q2482757"
  }
},
{
  "type": "way",
  "id": 439622035,
  "nodes": [
    4372871500,
    4372890491,
    4372805407,
    4372849199,
    4372805408,
    4372871502,
    4372849202,
    4372849203,
    4372871501,
    4372984597,
    4372805409,
    4372890301,
    4372984596,
    4372849201,
    4372871500
  ],
  "tags": {
    "building": "yes",
    "name": "Historial du Fort de Loncin",
    "tourism": "museum"
  }
},
{
  "type": "way",
  "id": 447954429,
  "nodes": [
    4450129893,
    4450129894,
    4450129890,
    4450129891,
    4450129889,
    4450128886,
    4450128888,
    4450128887,
    4450129893
  ],
  "tags": {
    "building": "public",
    "name": "Préhistomuseum",
    "tourism": "museum"
  }
},
{
  "type": "way",
  "id": 547761190,
  "nodes": [
    5292438049,
    5292438050,
    5292438051,
    5292438052,
    5292438053,
    5292438054,
    5292438055,
    5292438056,
    5292438049
  ],
  "tags": {
    "addr:city": "Verviers",
    "addr:postcode": "4800",
    "addr:street": "Rue de la Chapelle",
    "building": "yes",
    "name": "Centre touristique de la Laine et de la Mode",
    "tourism": "museum"
  }
},
{
  "type": "way",
  "id": 551301021,
  "nodes": [
    5324153038,
    5324153039,
    5324353335,
    5324153040,
    5324153041,
    5324353337,
    5324353338,
    5324353336,
    5324153038
  ],
  "tags": {
    "addr:housenumber": "5",
    "addr:street": "Rue de la Saunerie",
    "building": "yes",
    "name": "Ensival historical museum",
    "tourism": "museum"
  }
},
{
  "type": "way",
  "id": 688149167,
  "nodes": [
    6451965909,
    6451965908,
    6451965907,
    6451965906,
    6451965909
  ],
  "tags": {
    "building": "yes",
    "name": "Dynastiemuseum",
    "tourism": "museum"
  }
},
{
  "type": "way",
  "id": 738656405,
  "nodes": [
    6946304353,
    6946304349,
    6946304348,
    6946304347,
    6946304346,
    6946304345,
    6946304344,
    6946304352,
    6946304351,
    6946304343,
    6946304342,
    6946304341,
    6946304340,
    6946304350,
    6946304339,
    6946304338,
    6946304337,
    6946304336,
    6946304335,
    6946304334,
    6946304353
  ],
  "tags": {
    "addr:city": "Remicourt",
    "addr:housenumber": "68",
    "addr:postcode": "4350",
    "addr:street": "Avenue Maurice Delmotte",
    "building": "yes",
    "name": "Musée de la Hesbaye",
    "tourism": "museum"
  }
},
{
  "type": "relation",
  "id": 1422459,
  "members": [
    {
      "type": "way",
      "ref": 31813107,
      "role": "outer"
    },
    {
      "type": "way",
      "ref": 99337858,
      "role": "inner"
    }
  ],
  "tags": {
    "addr:city": "Liège",
    "addr:postcode": "4000",
    "addr:street": "Cour des Mineurs",
    "building": "yes",
    "name": "Musée de la Vie Wallonne",
    "opening_hours": "Tu-Su 09:15-18:00; May 01 off; Nov 01 off; Dec 25 off; Jan 01-Jan 08 off",
    "tourism": "museum",
    "type": "multipolygon",
    "website": "http://www.viewallonne.be/"
  }
},
{
  "type": "relation",
  "id": 7700783,
  "members": [
    {
      "type": "way",
      "ref": 145598106,
      "role": ""
    },
    {
      "type": "way",
      "ref": 145598108,
      "role": ""
    },
    {
      "type": "way",
      "ref": 167603497,
      "role": ""
    },
    {
      "type": "way",
      "ref": 167603468,
      "role": ""
    },
    {
      "type": "way",
      "ref": 167603457,
      "role": ""
    },
    {
      "type": "way",
      "ref": 145598107,
      "role": ""
    },
    {
      "type": "way",
      "ref": 145598105,
      "role": ""
    },
    {
      "type": "way",
      "ref": 31813154,
      "role": ""
    }
  ],
  "tags": {
    "name": "Grand Curtius",
    "tourism": "museum",
    "type": "multipolygon",
    "wikidata": "Q2304164",
    "wikipedia": "fr:Grand Curtius"
  }
},
{
  "type": "relation",
  "id": 7758830,
  "members": [
    {
      "type": "way",
      "ref": 99228210,
      "role": "outer"
    },
    {
      "type": "way",
      "ref": 99228214,
      "role": "outer"
    }
  ],
  "tags": {
    "addr:city": "Kelmis",
    "addr:city_1": "La Calamine",
    "addr:housenumber": "278 - 280",
    "addr:postcode": "4720",
    "addr:street": "Lütticher Straße",
    "addr:street_1": "Rue de Liège",
    "building": "yes",
    "building:levels": "2",
    "name": "Museum Vieille Montagne",
    "name:fr": "Musée Vielle Montagne",
    "note": "https://brf.be/regional/1194210/",
    "tourism": "museum",
    "type": "multipolygon",
    "website": "https://www.mvm-kelmis.be/",
    "wikidata": "Q60965271"
  }
},
{
  "type": "node",
  "id": 3406849709,
  "lat": 50.3263590,
  "lon": 5.5318228
},
{
  "type": "node",
  "id": 3406849710,
  "lat": 50.3263045,
  "lon": 5.5319143
},
{
  "type": "node",
  "id": 3406849711,
  "lat": 50.3263700,
  "lon": 5.5319834
},
{
  "type": "node",
  "id": 3406849712,
  "lat": 50.3263746,
  "lon": 5.5319712
},
{
  "type": "node",
  "id": 3406849713,
  "lat": 50.3264310,
  "lon": 5.5320342
},
{
  "type": "node",
  "id": 3406849714,
  "lat": 50.3264382,
  "lon": 5.5320261
},
{
  "type": "node",
  "id": 3406849715,
  "lat": 50.3264661,
  "lon": 5.5320586
},
{
  "type": "node",
  "id": 3406849716,
  "lat": 50.3265011,
  "lon": 5.5319885
},
{
  "type": "node",
  "id": 3406849717,
  "lat": 50.3264725,
  "lon": 5.5319641
},
{
  "type": "node",
  "id": 3406849718,
  "lat": 50.3264784,
  "lon": 5.5319417
},
{
  "type": "node",
  "id": 3406849719,
  "lat": 50.3264200,
  "lon": 5.5318939
},
{
  "type": "node",
  "id": 3406849720,
  "lat": 50.3264239,
  "lon": 5.5318797
},
{
  "type": "node",
  "id": 2815089960,
  "lat": 50.5522643,
  "lon": 5.1814089
},
{
  "type": "node",
  "id": 2815089961,
  "lat": 50.5523943,
  "lon": 5.1818335
},
{
  "type": "node",
  "id": 2815089962,
  "lat": 50.5523137,
  "lon": 5.1818946
},
{
  "type": "node",
  "id": 2815089963,
  "lat": 50.5522051,
  "lon": 5.1815402
},
{
  "type": "node",
  "id": 4008382306,
  "lat": 50.5522162,
  "lon": 5.1814454
},
{
  "type": "node",
  "id": 4008382307,
  "lat": 50.5522377,
  "lon": 5.1815155
},
{
  "type": "node",
  "id": 3608017236,
  "lat": 50.5448771,
  "lon": 5.2838724
},
{
  "type": "node",
  "id": 3608017239,
  "lat": 50.5449058,
  "lon": 5.2837441
},
{
  "type": "node",
  "id": 3608017241,
  "lat": 50.5450780,
  "lon": 5.2841377
},
{
  "type": "node",
  "id": 3608017242,
  "lat": 50.5451032,
  "lon": 5.2839973
},
{
  "type": "node",
  "id": 3608017243,
  "lat": 50.5451983,
  "lon": 5.2840499
},
{
  "type": "node",
  "id": 3608017244,
  "lat": 50.5452269,
  "lon": 5.2839216
},
{
  "type": "node",
  "id": 3608017245,
  "lat": 50.5452816,
  "lon": 5.2842458
},
{
  "type": "node",
  "id": 3608017247,
  "lat": 50.5453400,
  "lon": 5.2839843
},
{
  "type": "node",
  "id": 4450129893,
  "lat": 50.5792507,
  "lon": 5.4261789
},
{
  "type": "node",
  "id": 4450128886,
  "lat": 50.5786765,
  "lon": 5.4265693
},
{
  "type": "node",
  "id": 4450128887,
  "lat": 50.5786965,
  "lon": 5.4265221
},
{
  "type": "node",
  "id": 4450128888,
  "lat": 50.5787022,
  "lon": 5.4265558
},
{
  "type": "node",
  "id": 4450129889,
  "lat": 50.5787207,
  "lon": 5.4267914
},
{
  "type": "node",
  "id": 4450129890,
  "lat": 50.5790056,
  "lon": 5.4266141
},
{
  "type": "node",
  "id": 4450129891,
  "lat": 50.5790213,
  "lon": 5.4267039
},
{
  "type": "node",
  "id": 4450129894,
  "lat": 50.5792991,
  "lon": 5.4264189
},
{
  "type": "node",
  "id": 2558979008,
  "lat": 50.5829444,
  "lon": 5.4414913
},
{
  "type": "node",
  "id": 2558979019,
  "lat": 50.5829068,
  "lon": 5.4414747
},
{
  "type": "node",
  "id": 2558979045,
  "lat": 50.5828986,
  "lon": 5.4412598
},
{
  "type": "node",
  "id": 2558979047,
  "lat": 50.5829436,
  "lon": 5.4414713
},
{
  "type": "node",
  "id": 2558979048,
  "lat": 50.5830243,
  "lon": 5.4412480
},
{
  "type": "node",
  "id": 5017127188,
  "lat": 50.5830322,
  "lon": 5.4414558
},
{
  "type": "node",
  "id": 5017127189,
  "lat": 50.5830034,
  "lon": 5.4414857
},
{
  "type": "node",
  "id": 5017127190,
  "lat": 50.5830031,
  "lon": 5.4414913
},
{
  "type": "node",
  "id": 5017127191,
  "lat": 50.5830324,
  "lon": 5.4414558
},
{
  "type": "node",
  "id": 5017127192,
  "lat": 50.5830398,
  "lon": 5.4414632
},
{
  "type": "node",
  "id": 5017127193,
  "lat": 50.5830463,
  "lon": 5.4414861
},
{
  "type": "node",
  "id": 5017127194,
  "lat": 50.5830454,
  "lon": 5.4414977
},
{
  "type": "node",
  "id": 5017127195,
  "lat": 50.5830421,
  "lon": 5.4415081
},
{
  "type": "node",
  "id": 5017127196,
  "lat": 50.5830284,
  "lon": 5.4415214
},
{
  "type": "node",
  "id": 5017127197,
  "lat": 50.5830196,
  "lon": 5.4415210
},
{
  "type": "node",
  "id": 5017127198,
  "lat": 50.5830116,
  "lon": 5.4415150
},
{
  "type": "node",
  "id": 5017127199,
  "lat": 50.5830367,
  "lon": 5.4415162
},
{
  "type": "node",
  "id": 5017127200,
  "lat": 50.5830057,
  "lon": 5.4415045
},
{
  "type": "node",
  "id": 5017127201,
  "lat": 50.5830447,
  "lon": 5.4414747
},
{
  "type": "node",
  "id": 6946304334,
  "lat": 50.6817417,
  "lon": 5.3278606
},
{
  "type": "node",
  "id": 6946304335,
  "lat": 50.6817385,
  "lon": 5.3278670
},
{
  "type": "node",
  "id": 6946304336,
  "lat": 50.6817983,
  "lon": 5.3279416
},
{
  "type": "node",
  "id": 6946304337,
  "lat": 50.6817781,
  "lon": 5.3279819
},
{
  "type": "node",
  "id": 6946304338,
  "lat": 50.6817866,
  "lon": 5.3279925
},
{
  "type": "node",
  "id": 6946304339,
  "lat": 50.6817876,
  "lon": 5.3279905
},
{
  "type": "node",
  "id": 6946304340,
  "lat": 50.6817707,
  "lon": 5.3280552
},
{
  "type": "node",
  "id": 6946304341,
  "lat": 50.6817620,
  "lon": 5.3280460
},
{
  "type": "node",
  "id": 6946304344,
  "lat": 50.6816404,
  "lon": 5.3280168
},
{
  "type": "node",
  "id": 6946304345,
  "lat": 50.6816464,
  "lon": 5.3280242
},
{
  "type": "node",
  "id": 6946304346,
  "lat": 50.6816847,
  "lon": 5.3279476
},
{
  "type": "node",
  "id": 6946304347,
  "lat": 50.6816751,
  "lon": 5.3279357
},
{
  "type": "node",
  "id": 6946304348,
  "lat": 50.6817191,
  "lon": 5.3278479
},
{
  "type": "node",
  "id": 6946304349,
  "lat": 50.6817218,
  "lon": 5.3278514
},
{
  "type": "node",
  "id": 6946304350,
  "lat": 50.6817972,
  "lon": 5.3280024
},
{
  "type": "node",
  "id": 6946304353,
  "lat": 50.6817266,
  "lon": 5.3278417
},
{
  "type": "node",
  "id": 6946304342,
  "lat": 50.6817260,
  "lon": 5.3281235
},
{
  "type": "node",
  "id": 6946304343,
  "lat": 50.6817309,
  "lon": 5.3281296
},
{
  "type": "node",
  "id": 6946304351,
  "lat": 50.6816769,
  "lon": 5.3282373
},
{
  "type": "node",
  "id": 6946304352,
  "lat": 50.6815865,
  "lon": 5.3281245
},
{
  "type": "node",
  "id": 2348237555,
  "lat": 50.4753033,
  "lon": 5.5745386
},
{
  "type": "node",
  "id": 2348237633,
  "lat": 50.4752226,
  "lon": 5.5744410
},
{
  "type": "node",
  "id": 2348237634,
  "lat": 50.4752404,
  "lon": 5.5746675
},
{
  "type": "node",
  "id": 2348237664,
  "lat": 50.4751631,
  "lon": 5.5745712
},
{
  "type": "node",
  "id": 906019649,
  "lat": 50.4099100,
  "lon": 5.8459156
},
{
  "type": "node",
  "id": 906019652,
  "lat": 50.4100032,
  "lon": 5.8460323
},
{
  "type": "node",
  "id": 906019659,
  "lat": 50.4098016,
  "lon": 5.8459824
},
{
  "type": "node",
  "id": 906019663,
  "lat": 50.4098873,
  "lon": 5.8458758
},
{
  "type": "node",
  "id": 906019665,
  "lat": 50.4100781,
  "lon": 5.8459388
},
{
  "type": "node",
  "id": 906019670,
  "lat": 50.4099324,
  "lon": 5.8462426
},
{
  "type": "node",
  "id": 906019674,
  "lat": 50.4100137,
  "lon": 5.8458125
},
{
  "type": "node",
  "id": 906019681,
  "lat": 50.4100311,
  "lon": 5.8461155
},
{
  "type": "node",
  "id": 4910990822,
  "lat": 50.4099393,
  "lon": 5.8459040
},
{
  "type": "node",
  "id": 4910990823,
  "lat": 50.4099337,
  "lon": 5.8458906
},
{
  "type": "node",
  "id": 4910990824,
  "lat": 50.4098296,
  "lon": 5.8459476
},
{
  "type": "node",
  "id": 4910990825,
  "lat": 50.4099594,
  "lon": 5.8462111
},
{
  "type": "node",
  "id": 4910990826,
  "lat": 50.4099730,
  "lon": 5.8462346
},
{
  "type": "node",
  "id": 4910990827,
  "lat": 50.4100324,
  "lon": 5.8461568
},
{
  "type": "node",
  "id": 4910990828,
  "lat": 50.4100200,
  "lon": 5.8461320
},
{
  "type": "node",
  "id": 4910990829,
  "lat": 50.4100081,
  "lon": 5.8460716
},
{
  "type": "node",
  "id": 4910990830,
  "lat": 50.4099944,
  "lon": 5.8460850
},
{
  "type": "node",
  "id": 4910990831,
  "lat": 50.4099756,
  "lon": 5.8460455
},
{
  "type": "node",
  "id": 4910990832,
  "lat": 50.4099936,
  "lon": 5.8460206
},
{
  "type": "node",
  "id": 1319181634,
  "lat": 50.5048934,
  "lon": 5.6648120
},
{
  "type": "node",
  "id": 1319181640,
  "lat": 50.5048803,
  "lon": 5.6647432
},
{
  "type": "node",
  "id": 1319181644,
  "lat": 50.5050954,
  "lon": 5.6651126
},
{
  "type": "node",
  "id": 1319181646,
  "lat": 50.5048098,
  "lon": 5.6652478
},
{
  "type": "node",
  "id": 1319181649,
  "lat": 50.5050761,
  "lon": 5.6650121
},
{
  "type": "node",
  "id": 1319181658,
  "lat": 50.5050879,
  "lon": 5.6647199
},
{
  "type": "node",
  "id": 1319181664,
  "lat": 50.5047271,
  "lon": 5.6648157
},
{
  "type": "node",
  "id": 1319181669,
  "lat": 50.5051382,
  "lon": 5.6649827
},
{
  "type": "node",
  "id": 3964602563,
  "lat": 50.5049264,
  "lon": 5.6829560
},
{
  "type": "node",
  "id": 3964602759,
  "lat": 50.5049120,
  "lon": 5.6829613
},
{
  "type": "node",
  "id": 3964602958,
  "lat": 50.5049423,
  "lon": 5.6829477
},
{
  "type": "node",
  "id": 3964603057,
  "lat": 50.5049578,
  "lon": 5.6829383
},
{
  "type": "node",
  "id": 3964603058,
  "lat": 50.5049840,
  "lon": 5.6834136
},
{
  "type": "node",
  "id": 3964603157,
  "lat": 50.5050364,
  "lon": 5.6833844
},
{
  "type": "node",
  "id": 4467505575,
  "lat": 50.5049258,
  "lon": 5.6831273
},
{
  "type": "node",
  "id": 4467505576,
  "lat": 50.5049305,
  "lon": 5.6831252
},
{
  "type": "node",
  "id": 4467505577,
  "lat": 50.5049419,
  "lon": 5.6831183
},
{
  "type": "node",
  "id": 4467505578,
  "lat": 50.5049793,
  "lon": 5.6834157
},
{
  "type": "node",
  "id": 5908137874,
  "lat": 50.5050234,
  "lon": 5.6833917
},
{
  "type": "node",
  "id": 5908137875,
  "lat": 50.5050045,
  "lon": 5.6834022
},
{
  "type": "node",
  "id": 1927872195,
  "lat": 50.4917761,
  "lon": 5.8570092
},
{
  "type": "node",
  "id": 1927872200,
  "lat": 50.4918218,
  "lon": 5.8573559
},
{
  "type": "node",
  "id": 1927872202,
  "lat": 50.4919347,
  "lon": 5.8573191
},
{
  "type": "node",
  "id": 1927872206,
  "lat": 50.4919654,
  "lon": 5.8573067
},
{
  "type": "node",
  "id": 1927872209,
  "lat": 50.4918890,
  "lon": 5.8569724
},
{
  "type": "node",
  "id": 1927872211,
  "lat": 50.4920111,
  "lon": 5.8576340
},
{
  "type": "node",
  "id": 1927872214,
  "lat": 50.4920762,
  "lon": 5.8572685
},
{
  "type": "node",
  "id": 1927872216,
  "lat": 50.4921219,
  "lon": 5.8575958
},
{
  "type": "node",
  "id": 2497867981,
  "lat": 50.5794300,
  "lon": 5.5277972
},
{
  "type": "node",
  "id": 2497867984,
  "lat": 50.5793832,
  "lon": 5.5281219
},
{
  "type": "node",
  "id": 2497867986,
  "lat": 50.5793535,
  "lon": 5.5281497
},
{
  "type": "node",
  "id": 2497867988,
  "lat": 50.5791913,
  "lon": 5.5280368
},
{
  "type": "node",
  "id": 2497867990,
  "lat": 50.5792434,
  "lon": 5.5278225
},
{
  "type": "node",
  "id": 2497867992,
  "lat": 50.5793576,
  "lon": 5.5286299
},
{
  "type": "node",
  "id": 2497867994,
  "lat": 50.5794155,
  "lon": 5.5295133
},
{
  "type": "node",
  "id": 2497867996,
  "lat": 50.5795222,
  "lon": 5.5294461
},
{
  "type": "node",
  "id": 2497867998,
  "lat": 50.5794460,
  "lon": 5.5285003
},
{
  "type": "node",
  "id": 4922388531,
  "lat": 50.5792279,
  "lon": 5.5282486
},
{
  "type": "node",
  "id": 4922388532,
  "lat": 50.5792425,
  "lon": 5.5282184
},
{
  "type": "node",
  "id": 4922388533,
  "lat": 50.5792790,
  "lon": 5.5282556
},
{
  "type": "node",
  "id": 4922388534,
  "lat": 50.5791661,
  "lon": 5.5281338
},
{
  "type": "node",
  "id": 4922388535,
  "lat": 50.5791629,
  "lon": 5.5280117
},
{
  "type": "node",
  "id": 4922388536,
  "lat": 50.5791801,
  "lon": 5.5279647
},
{
  "type": "node",
  "id": 4922388537,
  "lat": 50.5792280,
  "lon": 5.5279913
},
{
  "type": "node",
  "id": 4922388538,
  "lat": 50.5793311,
  "lon": 5.5281424
},
{
  "type": "node",
  "id": 4922388539,
  "lat": 50.5794208,
  "lon": 5.5279959
},
{
  "type": "node",
  "id": 4922388540,
  "lat": 50.5794307,
  "lon": 5.5278831
},
{
  "type": "node",
  "id": 6912950247,
  "lat": 50.5793718,
  "lon": 5.5281428
},
{
  "type": "node",
  "id": 6912950248,
  "lat": 50.5793981,
  "lon": 5.5281332
},
{
  "type": "node",
  "id": 344289477,
  "lat": 50.6341787,
  "lon": 5.5680942
},
{
  "type": "node",
  "id": 344289479,
  "lat": 50.6338210,
  "lon": 5.5679020
},
{
  "type": "node",
  "id": 344289481,
  "lat": 50.6338940,
  "lon": 5.5683740
},
{
  "type": "node",
  "id": 344289483,
  "lat": 50.6341679,
  "lon": 5.5683982
},
{
  "type": "node",
  "id": 6518122671,
  "lat": 50.6339274,
  "lon": 5.5680720
},
{
  "type": "node",
  "id": 6518122672,
  "lat": 50.6339331,
  "lon": 5.5679119
},
{
  "type": "node",
  "id": 6518122673,
  "lat": 50.6339043,
  "lon": 5.5680835
},
{
  "type": "node",
  "id": 6518122674,
  "lat": 50.6338149,
  "lon": 5.5680756
},
{
  "type": "node",
  "id": 6325145006,
  "lat": 50.6277762,
  "lon": 5.5771103
},
{
  "type": "node",
  "id": 6325145007,
  "lat": 50.6277679,
  "lon": 5.5771124
},
{
  "type": "node",
  "id": 6325145008,
  "lat": 50.6277672,
  "lon": 5.5771079
},
{
  "type": "node",
  "id": 60841557,
  "lat": 50.6277814,
  "lon": 5.5771264
},
{
  "type": "node",
  "id": 60841558,
  "lat": 50.6278440,
  "lon": 5.5776845
},
{
  "type": "node",
  "id": 60841559,
  "lat": 50.6271464,
  "lon": 5.5778719
},
{
  "type": "node",
  "id": 60841560,
  "lat": 50.6270809,
  "lon": 5.5772976
},
{
  "type": "node",
  "id": 485231178,
  "lat": 50.6274902,
  "lon": 5.5771952
},
{
  "type": "node",
  "id": 485231182,
  "lat": 50.6273628,
  "lon": 5.5772282
},
{
  "type": "node",
  "id": 485231185,
  "lat": 50.6274471,
  "lon": 5.5771470
},
{
  "type": "node",
  "id": 485231188,
  "lat": 50.6273915,
  "lon": 5.5771745
},
{
  "type": "node",
  "id": 486646071,
  "lat": 50.6274146,
  "lon": 5.5771509
},
{
  "type": "node",
  "id": 595504100,
  "lat": 50.6285331,
  "lon": 5.5835407
},
{
  "type": "node",
  "id": 595504101,
  "lat": 50.6285719,
  "lon": 5.5834208
},
{
  "type": "node",
  "id": 595504102,
  "lat": 50.6284505,
  "lon": 5.5834849
},
{
  "type": "node",
  "id": 595504103,
  "lat": 50.6288216,
  "lon": 5.5835970
},
{
  "type": "node",
  "id": 1116364957,
  "lat": 50.6278622,
  "lon": 5.5774871
},
{
  "type": "node",
  "id": 1116364991,
  "lat": 50.6272337,
  "lon": 5.5777976
},
{
  "type": "node",
  "id": 1116365003,
  "lat": 50.6275551,
  "lon": 5.5777061
},
{
  "type": "node",
  "id": 1116365023,
  "lat": 50.6276903,
  "lon": 5.5771936
},
{
  "type": "node",
  "id": 1116365038,
  "lat": 50.6271047,
  "lon": 5.5774918
},
{
  "type": "node",
  "id": 1116365053,
  "lat": 50.6277503,
  "lon": 5.5777152
},
{
  "type": "node",
  "id": 1116365071,
  "lat": 50.6278393,
  "lon": 5.5772801
},
{
  "type": "node",
  "id": 1116365106,
  "lat": 50.6271286,
  "lon": 5.5776778
},
{
  "type": "node",
  "id": 1116365116,
  "lat": 50.6275616,
  "lon": 5.5777575
},
{
  "type": "node",
  "id": 1116365144,
  "lat": 50.6271728,
  "lon": 5.5772730
},
{
  "type": "node",
  "id": 1116365157,
  "lat": 50.6277441,
  "lon": 5.5776528
},
{
  "type": "node",
  "id": 1116365204,
  "lat": 50.6271011,
  "lon": 5.5776902
},
{
  "type": "node",
  "id": 1116365218,
  "lat": 50.6274166,
  "lon": 5.5777445
},
{
  "type": "node",
  "id": 1116365223,
  "lat": 50.6276897,
  "lon": 5.5771346
},
{
  "type": "node",
  "id": 1116365251,
  "lat": 50.6271798,
  "lon": 5.5773257
},
{
  "type": "node",
  "id": 1116365263,
  "lat": 50.6272372,
  "lon": 5.5778499
},
{
  "type": "node",
  "id": 1116365304,
  "lat": 50.6270765,
  "lon": 5.5774936
},
{
  "type": "node",
  "id": 1116365322,
  "lat": 50.6278228,
  "lon": 5.5774956
},
{
  "type": "node",
  "id": 1116365349,
  "lat": 50.6273683,
  "lon": 5.5772792
},
{
  "type": "node",
  "id": 1116365359,
  "lat": 50.6277966,
  "lon": 5.5772974
},
{
  "type": "node",
  "id": 1116365372,
  "lat": 50.6275041,
  "lon": 5.5771933
},
{
  "type": "node",
  "id": 1116365393,
  "lat": 50.6274227,
  "lon": 5.5777959
},
{
  "type": "node",
  "id": 6325144675,
  "lat": 50.6271302,
  "lon": 5.5777260
},
{
  "type": "node",
  "id": 6325144676,
  "lat": 50.6271328,
  "lon": 5.5777253
},
{
  "type": "node",
  "id": 6325144677,
  "lat": 50.6271180,
  "lon": 5.5776806
},
{
  "type": "node",
  "id": 6325144678,
  "lat": 50.6271185,
  "lon": 5.5776863
},
{
  "type": "node",
  "id": 6325144679,
  "lat": 50.6270977,
  "lon": 5.5776618
},
{
  "type": "node",
  "id": 6325144680,
  "lat": 50.6271013,
  "lon": 5.5776608
},
{
  "type": "node",
  "id": 6325144681,
  "lat": 50.6270956,
  "lon": 5.5776123
},
{
  "type": "node",
  "id": 6325144682,
  "lat": 50.6270924,
  "lon": 5.5776132
},
{
  "type": "node",
  "id": 6325144683,
  "lat": 50.6270827,
  "lon": 5.5775196
},
{
  "type": "node",
  "id": 6325144684,
  "lat": 50.6270802,
  "lon": 5.5775205
},
{
  "type": "node",
  "id": 6325144985,
  "lat": 50.6270942,
  "lon": 5.5774890
},
{
  "type": "node",
  "id": 6325144986,
  "lat": 50.6270946,
  "lon": 5.5774936
},
{
  "type": "node",
  "id": 6325144987,
  "lat": 50.6272543,
  "lon": 5.5773047
},
{
  "type": "node",
  "id": 6325144988,
  "lat": 50.6272550,
  "lon": 5.5773084
},
{
  "type": "node",
  "id": 6325144989,
  "lat": 50.6273816,
  "lon": 5.5771988
},
{
  "type": "node",
  "id": 6325144990,
  "lat": 50.6274016,
  "lon": 5.5771607
},
{
  "type": "node",
  "id": 6325144991,
  "lat": 50.6274309,
  "lon": 5.5771468
},
{
  "type": "node",
  "id": 6325144992,
  "lat": 50.6274604,
  "lon": 5.5771525
},
{
  "type": "node",
  "id": 6325144993,
  "lat": 50.6276924,
  "lon": 5.5771877
},
{
  "type": "node",
  "id": 6325144994,
  "lat": 50.6276901,
  "lon": 5.5771884
},
{
  "type": "node",
  "id": 6325144995,
  "lat": 50.6278341,
  "lon": 5.5776911
},
{
  "type": "node",
  "id": 6325144996,
  "lat": 50.6278338,
  "lon": 5.5776873
},
{
  "type": "node",
  "id": 6325144997,
  "lat": 50.6278416,
  "lon": 5.5776665
},
{
  "type": "node",
  "id": 6325144998,
  "lat": 50.6278438,
  "lon": 5.5776655
},
{
  "type": "node",
  "id": 6325144999,
  "lat": 50.6278282,
  "lon": 5.5775332
},
{
  "type": "node",
  "id": 6325145000,
  "lat": 50.6278256,
  "lon": 5.5775339
},
{
  "type": "node",
  "id": 6325145001,
  "lat": 50.6277938,
  "lon": 5.5772365
},
{
  "type": "node",
  "id": 6325145002,
  "lat": 50.6277954,
  "lon": 5.5772358
},
{
  "type": "node",
  "id": 6325145003,
  "lat": 50.6277924,
  "lon": 5.5772608
},
{
  "type": "node",
  "id": 6325145004,
  "lat": 50.6277963,
  "lon": 5.5772593
},
{
  "type": "node",
  "id": 6325145005,
  "lat": 50.6277787,
  "lon": 5.5771274
},
{
  "type": "node",
  "id": 6325145009,
  "lat": 50.6276931,
  "lon": 5.5771270
},
{
  "type": "node",
  "id": 6325145010,
  "lat": 50.6276931,
  "lon": 5.5771344
},
{
  "type": "node",
  "id": 6325145011,
  "lat": 50.6275085,
  "lon": 5.5772420
},
{
  "type": "node",
  "id": 6325145012,
  "lat": 50.6274723,
  "lon": 5.5771626
},
{
  "type": "node",
  "id": 6325145013,
  "lat": 50.6273758,
  "lon": 5.5772256
},
{
  "type": "node",
  "id": 6325145014,
  "lat": 50.6278477,
  "lon": 5.5773842
},
{
  "type": "node",
  "id": 6325145015,
  "lat": 50.6278594,
  "lon": 5.5774479
},
{
  "type": "node",
  "id": 6325145016,
  "lat": 50.6278558,
  "lon": 5.5774499
},
{
  "type": "node",
  "id": 6325145017,
  "lat": 50.6278405,
  "lon": 5.5773191
},
{
  "type": "node",
  "id": 6325145018,
  "lat": 50.6278443,
  "lon": 5.5773185
},
{
  "type": "node",
  "id": 6325145019,
  "lat": 50.6278132,
  "lon": 5.5772933
},
{
  "type": "node",
  "id": 6325145020,
  "lat": 50.6278128,
  "lon": 5.5772876
},
{
  "type": "node",
  "id": 356664002,
  "lat": 50.6309682,
  "lon": 5.5792939
},
{
  "type": "node",
  "id": 356664004,
  "lat": 50.6310107,
  "lon": 5.5793990
},
{
  "type": "node",
  "id": 356664005,
  "lat": 50.6309532,
  "lon": 5.5795962
},
{
  "type": "node",
  "id": 356664007,
  "lat": 50.6309757,
  "lon": 5.5800460
},
{
  "type": "node",
  "id": 356664014,
  "lat": 50.6307139,
  "lon": 5.5796587
},
{
  "type": "node",
  "id": 4560286895,
  "lat": 50.6308397,
  "lon": 5.5798448
},
{
  "type": "node",
  "id": 4560286896,
  "lat": 50.6311653,
  "lon": 5.5799250
},
{
  "type": "node",
  "id": 4560286897,
  "lat": 50.6311595,
  "lon": 5.5798907
},
{
  "type": "node",
  "id": 4560286898,
  "lat": 50.6311842,
  "lon": 5.5798769
},
{
  "type": "node",
  "id": 4560286899,
  "lat": 50.6311522,
  "lon": 5.5797417
},
{
  "type": "node",
  "id": 4560286900,
  "lat": 50.6311217,
  "lon": 5.5797658
},
{
  "type": "node",
  "id": 4560286901,
  "lat": 50.6310497,
  "lon": 5.5796111
},
{
  "type": "node",
  "id": 4560286902,
  "lat": 50.6309887,
  "lon": 5.5796730
},
{
  "type": "node",
  "id": 4560286903,
  "lat": 50.6309705,
  "lon": 5.5796386
},
{
  "type": "node",
  "id": 4560286904,
  "lat": 50.6310381,
  "lon": 5.5794965
},
{
  "type": "node",
  "id": 4560286905,
  "lat": 50.6310047,
  "lon": 5.5794095
},
{
  "type": "node",
  "id": 4560286907,
  "lat": 50.6308695,
  "lon": 5.5794152
},
{
  "type": "node",
  "id": 595504104,
  "lat": 50.6281183,
  "lon": 5.5847050
},
{
  "type": "node",
  "id": 595504105,
  "lat": 50.6284238,
  "lon": 5.5850066
},
{
  "type": "node",
  "id": 1116365125,
  "lat": 50.6281786,
  "lon": 5.5848333
},
{
  "type": "node",
  "id": 2203145886,
  "lat": 50.6287035,
  "lon": 5.5840529
},
{
  "type": "node",
  "id": 354673663,
  "lat": 50.6392929,
  "lon": 5.5786432
},
{
  "type": "node",
  "id": 354673665,
  "lat": 50.6383965,
  "lon": 5.5784516
},
{
  "type": "node",
  "id": 354673666,
  "lat": 50.6383729,
  "lon": 5.5787280
},
{
  "type": "node",
  "id": 354673668,
  "lat": 50.6386623,
  "lon": 5.5787755
},
{
  "type": "node",
  "id": 354673669,
  "lat": 50.6386472,
  "lon": 5.5792644
},
{
  "type": "node",
  "id": 354673671,
  "lat": 50.6389114,
  "lon": 5.5793204
},
{
  "type": "node",
  "id": 354673672,
  "lat": 50.6389525,
  "lon": 5.5788388
},
{
  "type": "node",
  "id": 354673673,
  "lat": 50.6392694,
  "lon": 5.5789196
},
{
  "type": "node",
  "id": 1103963894,
  "lat": 50.6389477,
  "lon": 5.5786195
},
{
  "type": "node",
  "id": 1103964001,
  "lat": 50.6385098,
  "lon": 5.5784756
},
{
  "type": "node",
  "id": 1103964040,
  "lat": 50.6389439,
  "lon": 5.5786638
},
{
  "type": "node",
  "id": 1103964059,
  "lat": 50.6392218,
  "lon": 5.5788936
},
{
  "type": "node",
  "id": 1103964083,
  "lat": 50.6389098,
  "lon": 5.5786114
},
{
  "type": "node",
  "id": 1103964099,
  "lat": 50.6391664,
  "lon": 5.5788841
},
{
  "type": "node",
  "id": 1103964133,
  "lat": 50.6387325,
  "lon": 5.5785719
},
{
  "type": "node",
  "id": 1103964210,
  "lat": 50.6387285,
  "lon": 5.5786190
},
{
  "type": "node",
  "id": 1103964250,
  "lat": 50.6391784,
  "lon": 5.5786189
},
{
  "type": "node",
  "id": 1103964290,
  "lat": 50.6389124,
  "lon": 5.5785808
},
{
  "type": "node",
  "id": 1103964309,
  "lat": 50.6391606,
  "lon": 5.5789518
},
{
  "type": "node",
  "id": 1103964343,
  "lat": 50.6387717,
  "lon": 5.5785802
},
{
  "type": "node",
  "id": 1103964460,
  "lat": 50.6385017,
  "lon": 5.5785709
},
{
  "type": "node",
  "id": 1103964492,
  "lat": 50.6391705,
  "lon": 5.5787118
},
{
  "type": "node",
  "id": 1103964546,
  "lat": 50.6387741,
  "lon": 5.5785515
},
{
  "type": "node",
  "id": 1103964581,
  "lat": 50.6392443,
  "lon": 5.5789142
},
{
  "type": "node",
  "id": 3210547349,
  "lat": 50.6391930,
  "lon": 5.5815931
},
{
  "type": "node",
  "id": 4048231535,
  "lat": 50.6392782,
  "lon": 5.5814866
},
{
  "type": "node",
  "id": 4048231536,
  "lat": 50.6392816,
  "lon": 5.5816085
},
{
  "type": "node",
  "id": 4048260616,
  "lat": 50.6391832,
  "lon": 5.5814742
},
{
  "type": "node",
  "id": 4048260618,
  "lat": 50.6391880,
  "lon": 5.5815185
},
{
  "type": "node",
  "id": 4048260622,
  "lat": 50.6392786,
  "lon": 5.5814708
},
{
  "type": "node",
  "id": 4049966837,
  "lat": 50.6383963,
  "lon": 5.5787329
},
{
  "type": "node",
  "id": 4049966838,
  "lat": 50.6383975,
  "lon": 5.5787193
},
{
  "type": "node",
  "id": 4049966839,
  "lat": 50.6386593,
  "lon": 5.5788103
},
{
  "type": "node",
  "id": 4049966840,
  "lat": 50.6386748,
  "lon": 5.5792927
},
{
  "type": "node",
  "id": 4049966841,
  "lat": 50.6386855,
  "lon": 5.5788158
},
{
  "type": "node",
  "id": 4049966842,
  "lat": 50.6387064,
  "lon": 5.5793137
},
{
  "type": "node",
  "id": 4049966844,
  "lat": 50.6387455,
  "lon": 5.5793360
},
{
  "type": "node",
  "id": 4049966845,
  "lat": 50.6387772,
  "lon": 5.5793413
},
{
  "type": "node",
  "id": 4049966847,
  "lat": 50.6388071,
  "lon": 5.5793465
},
{
  "type": "node",
  "id": 4049966848,
  "lat": 50.6388471,
  "lon": 5.5793452
},
{
  "type": "node",
  "id": 4049966849,
  "lat": 50.6388846,
  "lon": 5.5793334
},
{
  "type": "node",
  "id": 4049966850,
  "lat": 50.6389393,
  "lon": 5.5789930
},
{
  "type": "node",
  "id": 4049966851,
  "lat": 50.6389397,
  "lon": 5.5789884
},
{
  "type": "node",
  "id": 4049966852,
  "lat": 50.6392158,
  "lon": 5.5789635
},
{
  "type": "node",
  "id": 4049966853,
  "lat": 50.6392456,
  "lon": 5.5788986
},
{
  "type": "node",
  "id": 4050042700,
  "lat": 50.6386493,
  "lon": 5.5792401
},
{
  "type": "node",
  "id": 4050042706,
  "lat": 50.6389199,
  "lon": 5.5792205
},
{
  "type": "node",
  "id": 4050074336,
  "lat": 50.6386018,
  "lon": 5.5787627
},
{
  "type": "node",
  "id": 4050074337,
  "lat": 50.6386544,
  "lon": 5.5791808
},
{
  "type": "node",
  "id": 4050074338,
  "lat": 50.6386710,
  "lon": 5.5789859
},
{
  "type": "node",
  "id": 356191843,
  "lat": 50.6470545,
  "lon": 5.5758767
},
{
  "type": "node",
  "id": 356191844,
  "lat": 50.6472255,
  "lon": 5.5764174
},
{
  "type": "node",
  "id": 356191845,
  "lat": 50.6469245,
  "lon": 5.5766043
},
{
  "type": "node",
  "id": 356191846,
  "lat": 50.6467316,
  "lon": 5.5759958
},
{
  "type": "node",
  "id": 912144538,
  "lat": 50.6470844,
  "lon": 5.5759169
},
{
  "type": "node",
  "id": 912144541,
  "lat": 50.6470066,
  "lon": 5.5758333
},
{
  "type": "node",
  "id": 1149050879,
  "lat": 50.6468978,
  "lon": 5.5764102
},
{
  "type": "node",
  "id": 1149050909,
  "lat": 50.6470850,
  "lon": 5.5762959
},
{
  "type": "node",
  "id": 1149050960,
  "lat": 50.6468224,
  "lon": 5.5761274
},
{
  "type": "node",
  "id": 1149051043,
  "lat": 50.6470113,
  "lon": 5.5760113
},
{
  "type": "node",
  "id": 1289569677,
  "lat": 50.6467568,
  "lon": 5.5761338
},
{
  "type": "node",
  "id": 1289569718,
  "lat": 50.6468229,
  "lon": 5.5769414
},
{
  "type": "node",
  "id": 1289569951,
  "lat": 50.6470205,
  "lon": 5.5758950
},
{
  "type": "node",
  "id": 1289570002,
  "lat": 50.6465877,
  "lon": 5.5762453
},
{
  "type": "node",
  "id": 1796146934,
  "lat": 50.6467428,
  "lon": 5.5768392
},
{
  "type": "node",
  "id": 1796146950,
  "lat": 50.6467640,
  "lon": 5.5768673
},
{
  "type": "node",
  "id": 1796146953,
  "lat": 50.6469373,
  "lon": 5.5766694
},
{
  "type": "node",
  "id": 1796146984,
  "lat": 50.6467847,
  "lon": 5.5768629
},
{
  "type": "node",
  "id": 1796146997,
  "lat": 50.6468005,
  "lon": 5.5768547
},
{
  "type": "node",
  "id": 1796147001,
  "lat": 50.6468931,
  "lon": 5.5766963
},
{
  "type": "node",
  "id": 2340305837,
  "lat": 50.6469190,
  "lon": 5.5768020
},
{
  "type": "node",
  "id": 6165757210,
  "lat": 50.6469367,
  "lon": 5.5768665
},
{
  "type": "node",
  "id": 6790718120,
  "lat": 50.6470522,
  "lon": 5.5761693
},
{
  "type": "node",
  "id": 6790718121,
  "lat": 50.6471404,
  "lon": 5.5761157
},
{
  "type": "node",
  "id": 356193135,
  "lat": 50.6473379,
  "lon": 5.5834072
},
{
  "type": "node",
  "id": 356193138,
  "lat": 50.6470639,
  "lon": 5.5835789
},
{
  "type": "node",
  "id": 1589843032,
  "lat": 50.6471383,
  "lon": 5.5836011
},
{
  "type": "node",
  "id": 1589843038,
  "lat": 50.6468584,
  "lon": 5.5836309
},
{
  "type": "node",
  "id": 1589843040,
  "lat": 50.6471584,
  "lon": 5.5831076
},
{
  "type": "node",
  "id": 1589843041,
  "lat": 50.6469511,
  "lon": 5.5829765
},
{
  "type": "node",
  "id": 1589843043,
  "lat": 50.6471680,
  "lon": 5.5827431
},
{
  "type": "node",
  "id": 1589843044,
  "lat": 50.6472378,
  "lon": 5.5834937
},
{
  "type": "node",
  "id": 1589843051,
  "lat": 50.6472949,
  "lon": 5.5835339
},
{
  "type": "node",
  "id": 1589843058,
  "lat": 50.6469868,
  "lon": 5.5827820
},
{
  "type": "node",
  "id": 1589843059,
  "lat": 50.6472521,
  "lon": 5.5830610
},
{
  "type": "node",
  "id": 1589843060,
  "lat": 50.6469188,
  "lon": 5.5836175
},
{
  "type": "node",
  "id": 1589843062,
  "lat": 50.6470035,
  "lon": 5.5828220
},
{
  "type": "node",
  "id": 1589843063,
  "lat": 50.6471063,
  "lon": 5.5829427
},
{
  "type": "node",
  "id": 1589843065,
  "lat": 50.6471228,
  "lon": 5.5831213
},
{
  "type": "node",
  "id": 1589843066,
  "lat": 50.6469400,
  "lon": 5.5830100
},
{
  "type": "node",
  "id": 1789908665,
  "lat": 50.6468456,
  "lon": 5.5835102
},
{
  "type": "node",
  "id": 1789908725,
  "lat": 50.6469400,
  "lon": 5.5834820
},
{
  "type": "node",
  "id": 1789908777,
  "lat": 50.6469247,
  "lon": 5.5833694
},
{
  "type": "node",
  "id": 1789908832,
  "lat": 50.6469511,
  "lon": 5.5835974
},
{
  "type": "node",
  "id": 1789908853,
  "lat": 50.6468312,
  "lon": 5.5833962
},
{
  "type": "node",
  "id": 1789908868,
  "lat": 50.6469426,
  "lon": 5.5833600
},
{
  "type": "node",
  "id": 1789908869,
  "lat": 50.6473818,
  "lon": 5.5836587
},
{
  "type": "node",
  "id": 1802608929,
  "lat": 50.6470702,
  "lon": 5.5827935
},
{
  "type": "node",
  "id": 5204046550,
  "lat": 50.6472886,
  "lon": 5.5832603
},
{
  "type": "node",
  "id": 5696031812,
  "lat": 50.6470621,
  "lon": 5.5828032
},
{
  "type": "node",
  "id": 5696031813,
  "lat": 50.6469404,
  "lon": 5.5832008
},
{
  "type": "node",
  "id": 5696031814,
  "lat": 50.6468662,
  "lon": 5.5832376
},
{
  "type": "node",
  "id": 5696031815,
  "lat": 50.6469242,
  "lon": 5.5828271
},
{
  "type": "node",
  "id": 5696031818,
  "lat": 50.6468570,
  "lon": 5.5832794
},
{
  "type": "node",
  "id": 7129389230,
  "lat": 50.6472538,
  "lon": 5.5830543
},
{
  "type": "node",
  "id": 356193136,
  "lat": 50.6475203,
  "lon": 5.5841415
},
{
  "type": "node",
  "id": 356193137,
  "lat": 50.6470406,
  "lon": 5.5843583
},
{
  "type": "node",
  "id": 1589843034,
  "lat": 50.6470987,
  "lon": 5.5843435
},
{
  "type": "node",
  "id": 1589843037,
  "lat": 50.6470402,
  "lon": 5.5843580
},
{
  "type": "node",
  "id": 1589843039,
  "lat": 50.6470850,
  "lon": 5.5837095
},
{
  "type": "node",
  "id": 1589843045,
  "lat": 50.6470293,
  "lon": 5.5839964
},
{
  "type": "node",
  "id": 1589843046,
  "lat": 50.6471034,
  "lon": 5.5838239
},
{
  "type": "node",
  "id": 1589843047,
  "lat": 50.6469409,
  "lon": 5.5837543
},
{
  "type": "node",
  "id": 1589843048,
  "lat": 50.6468911,
  "lon": 5.5843691
},
{
  "type": "node",
  "id": 1589843050,
  "lat": 50.6471785,
  "lon": 5.5838230
},
{
  "type": "node",
  "id": 1589843052,
  "lat": 50.6474258,
  "lon": 5.5840476
},
{
  "type": "node",
  "id": 1589843053,
  "lat": 50.6471081,
  "lon": 5.5838534
},
{
  "type": "node",
  "id": 1589843054,
  "lat": 50.6469422,
  "lon": 5.5840029
},
{
  "type": "node",
  "id": 1589843056,
  "lat": 50.6470372,
  "lon": 5.5842438
},
{
  "type": "node",
  "id": 1589843057,
  "lat": 50.6468703,
  "lon": 5.5838281
},
{
  "type": "node",
  "id": 1589843061,
  "lat": 50.6469315,
  "lon": 5.5838830
},
{
  "type": "node",
  "id": 1589843064,
  "lat": 50.6468803,
  "lon": 5.5840075
},
{
  "type": "node",
  "id": 1789908872,
  "lat": 50.6474432,
  "lon": 5.5841773
},
{
  "type": "node",
  "id": 5651511895,
  "lat": 50.6473267,
  "lon": 5.5836781
},
{
  "type": "node",
  "id": 4372805407,
  "lat": 50.6738025,
  "lon": 5.4933326
},
{
  "type": "node",
  "id": 4372805408,
  "lat": 50.6738535,
  "lon": 5.4930179
},
{
  "type": "node",
  "id": 4372805409,
  "lat": 50.6739032,
  "lon": 5.4933524
},
{
  "type": "node",
  "id": 4372849199,
  "lat": 50.6737302,
  "lon": 5.4932258
},
{
  "type": "node",
  "id": 4372849201,
  "lat": 50.6738064,
  "lon": 5.4933829
},
{
  "type": "node",
  "id": 4372849202,
  "lat": 50.6738569,
  "lon": 5.4932389
},
{
  "type": "node",
  "id": 4372849203,
  "lat": 50.6738778,
  "lon": 5.4932697
},
{
  "type": "node",
  "id": 4372871500,
  "lat": 50.6738272,
  "lon": 5.4933478
},
{
  "type": "node",
  "id": 4372871501,
  "lat": 50.6738860,
  "lon": 5.4932558
},
{
  "type": "node",
  "id": 4372871502,
  "lat": 50.6739252,
  "lon": 5.4931238
},
{
  "type": "node",
  "id": 4372890301,
  "lat": 50.6739394,
  "lon": 5.4934058
},
{
  "type": "node",
  "id": 4372890491,
  "lat": 50.6738092,
  "lon": 5.4933212
},
{
  "type": "node",
  "id": 4372984596,
  "lat": 50.6738845,
  "lon": 5.4934982
},
{
  "type": "node",
  "id": 4372984597,
  "lat": 50.6739257,
  "lon": 5.4933144
},
{
  "type": "node",
  "id": 3987828152,
  "lat": 50.6707143,
  "lon": 5.6388935
},
{
  "type": "node",
  "id": 3987828156,
  "lat": 50.6706644,
  "lon": 5.6390192
},
{
  "type": "node",
  "id": 3987828757,
  "lat": 50.6706031,
  "lon": 5.6389881
},
{
  "type": "node",
  "id": 3987828764,
  "lat": 50.6707575,
  "lon": 5.6389197
},
{
  "type": "node",
  "id": 3987828766,
  "lat": 50.6706377,
  "lon": 5.6388269
},
{
  "type": "node",
  "id": 3987828769,
  "lat": 50.6707177,
  "lon": 5.6388837
},
{
  "type": "node",
  "id": 3987828772,
  "lat": 50.6706821,
  "lon": 5.6388087
},
{
  "type": "node",
  "id": 3987828773,
  "lat": 50.6707236,
  "lon": 5.6390470
},
{
  "type": "node",
  "id": 3987828775,
  "lat": 50.6706717,
  "lon": 5.6388431
},
{
  "type": "node",
  "id": 3987828777,
  "lat": 50.6706960,
  "lon": 5.6388737
},
{
  "type": "node",
  "id": 3987828782,
  "lat": 50.6707054,
  "lon": 5.6388268
},
{
  "type": "node",
  "id": 5324153038,
  "lat": 50.5800669,
  "lon": 5.8415645
},
{
  "type": "node",
  "id": 5324153039,
  "lat": 50.5800119,
  "lon": 5.8416304
},
{
  "type": "node",
  "id": 5324153040,
  "lat": 50.5801278,
  "lon": 5.8419206
},
{
  "type": "node",
  "id": 5324153041,
  "lat": 50.5801678,
  "lon": 5.8418743
},
{
  "type": "node",
  "id": 5324353335,
  "lat": 50.5800734,
  "lon": 5.8418055
},
{
  "type": "node",
  "id": 5324353336,
  "lat": 50.5801019,
  "lon": 5.8416206
},
{
  "type": "node",
  "id": 5324353337,
  "lat": 50.5801538,
  "lon": 5.8418145
},
{
  "type": "node",
  "id": 5324353338,
  "lat": 50.5801490,
  "lon": 5.8417418
},
{
  "type": "node",
  "id": 5292438049,
  "lat": 50.5956042,
  "lon": 5.8510920
},
{
  "type": "node",
  "id": 5292438050,
  "lat": 50.5956705,
  "lon": 5.8510780
},
{
  "type": "node",
  "id": 5292438051,
  "lat": 50.5956952,
  "lon": 5.8512588
},
{
  "type": "node",
  "id": 5292438052,
  "lat": 50.5958515,
  "lon": 5.8512276
},
{
  "type": "node",
  "id": 5292438053,
  "lat": 50.5958278,
  "lon": 5.8507553
},
{
  "type": "node",
  "id": 5292438054,
  "lat": 50.5959129,
  "lon": 5.8507366
},
{
  "type": "node",
  "id": 5292438055,
  "lat": 50.5959307,
  "lon": 5.8513133
},
{
  "type": "node",
  "id": 5292438056,
  "lat": 50.5956309,
  "lon": 5.8513819
},
{
  "type": "node",
  "id": 1756331504,
  "lat": 50.5953405,
  "lon": 5.8671039
},
{
  "type": "node",
  "id": 1756331510,
  "lat": 50.5953439,
  "lon": 5.8669493
},
{
  "type": "node",
  "id": 1756331512,
  "lat": 50.5953510,
  "lon": 5.8666257
},
{
  "type": "node",
  "id": 1756331524,
  "lat": 50.5954767,
  "lon": 5.8670950
},
{
  "type": "node",
  "id": 1756331525,
  "lat": 50.5954847,
  "lon": 5.8669618
},
{
  "type": "node",
  "id": 1756331527,
  "lat": 50.5954888,
  "lon": 5.8666277
},
{
  "type": "node",
  "id": 1757225827,
  "lat": 50.5946257,
  "lon": 5.8684603
},
{
  "type": "node",
  "id": 4758463325,
  "lat": 50.5947713,
  "lon": 5.8685696
},
{
  "type": "node",
  "id": 4758463326,
  "lat": 50.5946506,
  "lon": 5.8686145
},
{
  "type": "node",
  "id": 4758463328,
  "lat": 50.5947506,
  "lon": 5.8684154
},
{
  "type": "node",
  "id": 5995922028,
  "lat": 50.5947781,
  "lon": 5.8685641
},
{
  "type": "node",
  "id": 1853014725,
  "lat": 50.6863593,
  "lon": 5.7188567
},
{
  "type": "node",
  "id": 1853014726,
  "lat": 50.6864724,
  "lon": 5.7194470
},
{
  "type": "node",
  "id": 1853014727,
  "lat": 50.6866752,
  "lon": 5.7186840
},
{
  "type": "node",
  "id": 1853014728,
  "lat": 50.6866902,
  "lon": 5.7190938
},
{
  "type": "node",
  "id": 1853014729,
  "lat": 50.6867324,
  "lon": 5.7194350
},
{
  "type": "node",
  "id": 1853014730,
  "lat": 50.6867464,
  "lon": 5.7190607
},
{
  "type": "node",
  "id": 5043813891,
  "lat": 50.6866990,
  "lon": 5.7191362
},
{
  "type": "node",
  "id": 5043813892,
  "lat": 50.6866808,
  "lon": 5.7191489
},
{
  "type": "node",
  "id": 5043813893,
  "lat": 50.6865750,
  "lon": 5.7194674
},
{
  "type": "node",
  "id": 5043813894,
  "lat": 50.6865556,
  "lon": 5.7194414
},
{
  "type": "node",
  "id": 6695967263,
  "lat": 50.6866243,
  "lon": 5.7194565
},
{
  "type": "node",
  "id": 6695967264,
  "lat": 50.6866538,
  "lon": 5.7194511
},
{
  "type": "node",
  "id": 1445338596,
  "lat": 50.7433476,
  "lon": 5.6938457
},
{
  "type": "node",
  "id": 1445338597,
  "lat": 50.7433593,
  "lon": 5.6937245
},
{
  "type": "node",
  "id": 1445338598,
  "lat": 50.7438757,
  "lon": 5.6939737
},
{
  "type": "node",
  "id": 1445338599,
  "lat": 50.7438874,
  "lon": 5.6938526
},
{
  "type": "node",
  "id": 1466934340,
  "lat": 50.4596928,
  "lon": 5.8850912
},
{
  "type": "node",
  "id": 331884649,
  "lat": 50.4595534,
  "lon": 5.8854369
},
{
  "type": "node",
  "id": 1466934360,
  "lat": 50.4598306,
  "lon": 5.8855311
},
{
  "type": "node",
  "id": 1466934372,
  "lat": 50.4599177,
  "lon": 5.8853150
},
{
  "type": "node",
  "id": 1466934376,
  "lat": 50.4599674,
  "lon": 5.8858489
},
{
  "type": "node",
  "id": 1466934390,
  "lat": 50.4600196,
  "lon": 5.8857193
},
{
  "type": "node",
  "id": 1679501063,
  "lat": 50.6124715,
  "lon": 5.9401755
},
{
  "type": "node",
  "id": 1679501064,
  "lat": 50.6124885,
  "lon": 5.9400059
},
{
  "type": "node",
  "id": 1679501065,
  "lat": 50.6125436,
  "lon": 5.9402061
},
{
  "type": "node",
  "id": 1679501067,
  "lat": 50.6125642,
  "lon": 5.9400601
},
{
  "type": "node",
  "id": 1679501069,
  "lat": 50.6125654,
  "lon": 5.9400206
},
{
  "type": "node",
  "id": 5863186417,
  "lat": 50.6125361,
  "lon": 5.9402033
},
{
  "type": "node",
  "id": 1195492988,
  "lat": 50.6322895,
  "lon": 6.0353016
},
{
  "type": "node",
  "id": 1195493016,
  "lat": 50.6323237,
  "lon": 6.0354080
},
{
  "type": "node",
  "id": 1195493049,
  "lat": 50.6322038,
  "lon": 6.0355134
},
{
  "type": "node",
  "id": 1195493050,
  "lat": 50.6321721,
  "lon": 6.0354157
},
{
  "type": "node",
  "id": 1213673508,
  "lat": 50.6322957,
  "lon": 6.0354337
},
{
  "type": "node",
  "id": 1213673589,
  "lat": 50.6322318,
  "lon": 6.0355960
},
{
  "type": "node",
  "id": 5520141177,
  "lat": 50.6323238,
  "lon": 6.0355177
},
{
  "type": "node",
  "id": 5881569776,
  "lat": 50.6323108,
  "lon": 6.0353679
},
{
  "type": "node",
  "id": 5881569784,
  "lat": 50.6323151,
  "lon": 6.0354142
},
{
  "type": "node",
  "id": 5881569893,
  "lat": 50.6322941,
  "lon": 6.0354292
},
{
  "type": "node",
  "id": 5881569894,
  "lat": 50.6323091,
  "lon": 6.0354746
},
{
  "type": "node",
  "id": 5881569899,
  "lat": 50.6323210,
  "lon": 6.0355105
},
{
  "type": "node",
  "id": 1147860261,
  "lat": 50.7114960,
  "lon": 6.0086636
},
{
  "type": "node",
  "id": 1147860288,
  "lat": 50.7114471,
  "lon": 6.0083432
},
{
  "type": "node",
  "id": 1147860292,
  "lat": 50.7114283,
  "lon": 6.0083062
},
{
  "type": "node",
  "id": 1147860317,
  "lat": 50.7115627,
  "lon": 6.0087866
},
{
  "type": "node",
  "id": 1147860318,
  "lat": 50.7116232,
  "lon": 6.0087022
},
{
  "type": "node",
  "id": 1147860319,
  "lat": 50.7115582,
  "lon": 6.0085766
},
{
  "type": "node",
  "id": 1147860327,
  "lat": 50.7113539,
  "lon": 6.0084281
},
{
  "type": "node",
  "id": 2352210349,
  "lat": 50.7114080,
  "lon": 6.0083357
},
{
  "type": "node",
  "id": 2352210353,
  "lat": 50.7116047,
  "lon": 6.0087272
},
{
  "type": "node",
  "id": 576340796,
  "lat": 50.8702220,
  "lon": 5.3229056
},
{
  "type": "node",
  "id": 576340800,
  "lat": 50.8700947,
  "lon": 5.3226514
},
{
  "type": "node",
  "id": 576340802,
  "lat": 50.8700118,
  "lon": 5.3227556
},
{
  "type": "node",
  "id": 576340805,
  "lat": 50.8701390,
  "lon": 5.3230098
},
{
  "type": "node",
  "id": 481205276,
  "lat": 50.7814381,
  "lon": 5.4655671
},
{
  "type": "node",
  "id": 481208159,
  "lat": 50.7813280,
  "lon": 5.4656797
},
{
  "type": "node",
  "id": 481217221,
  "lat": 50.7813741,
  "lon": 5.4656404
},
{
  "type": "node",
  "id": 6833131640,
  "lat": 50.7814069,
  "lon": 5.4655889
},
{
  "type": "node",
  "id": 481205238,
  "lat": 50.7811192,
  "lon": 5.4668563
},
{
  "type": "node",
  "id": 481205247,
  "lat": 50.7810696,
  "lon": 5.4668048
},
{
  "type": "node",
  "id": 481205265,
  "lat": 50.7810838,
  "lon": 5.4659741
},
{
  "type": "node",
  "id": 481205269,
  "lat": 50.7811449,
  "lon": 5.4659691
},
{
  "type": "node",
  "id": 481205279,
  "lat": 50.7815260,
  "lon": 5.4657791
},
{
  "type": "node",
  "id": 481205280,
  "lat": 50.7812224,
  "lon": 5.4665081
},
{
  "type": "node",
  "id": 481205289,
  "lat": 50.7812561,
  "lon": 5.4665329
},
{
  "type": "node",
  "id": 481207019,
  "lat": 50.7808394,
  "lon": 5.4660731
},
{
  "type": "node",
  "id": 481207034,
  "lat": 50.7809173,
  "lon": 5.4661996
},
{
  "type": "node",
  "id": 481208623,
  "lat": 50.7814800,
  "lon": 5.4659222
},
{
  "type": "node",
  "id": 481209423,
  "lat": 50.7814770,
  "lon": 5.4658295
},
{
  "type": "node",
  "id": 481213079,
  "lat": 50.7813892,
  "lon": 5.4657825
},
{
  "type": "node",
  "id": 481213381,
  "lat": 50.7814317,
  "lon": 5.4657441
},
{
  "type": "node",
  "id": 481213901,
  "lat": 50.7814440,
  "lon": 5.4657733
},
{
  "type": "node",
  "id": 481215278,
  "lat": 50.7814046,
  "lon": 5.4658090
},
{
  "type": "node",
  "id": 2264340579,
  "lat": 50.7807697,
  "lon": 5.4661654
},
{
  "type": "node",
  "id": 2264340583,
  "lat": 50.7807807,
  "lon": 5.4661979
},
{
  "type": "node",
  "id": 2264340586,
  "lat": 50.7808188,
  "lon": 5.4663044
},
{
  "type": "node",
  "id": 2264340594,
  "lat": 50.7808697,
  "lon": 5.4660451
},
{
  "type": "node",
  "id": 2264340602,
  "lat": 50.7809394,
  "lon": 5.4665628
},
{
  "type": "node",
  "id": 2264340605,
  "lat": 50.7809637,
  "lon": 5.4665294
},
{
  "type": "node",
  "id": 2264340606,
  "lat": 50.7809406,
  "lon": 5.4661624
},
{
  "type": "node",
  "id": 2264340607,
  "lat": 50.7809790,
  "lon": 5.4658893
},
{
  "type": "node",
  "id": 2264340623,
  "lat": 50.7810552,
  "lon": 5.4660203
},
{
  "type": "node",
  "id": 2264340629,
  "lat": 50.7811419,
  "lon": 5.4660642
},
{
  "type": "node",
  "id": 2264340631,
  "lat": 50.7811724,
  "lon": 5.4660160
},
{
  "type": "node",
  "id": 2264340637,
  "lat": 50.7812754,
  "lon": 5.4662945
},
{
  "type": "node",
  "id": 2264340640,
  "lat": 50.7813051,
  "lon": 5.4663287
},
{
  "type": "node",
  "id": 6833131623,
  "lat": 50.7810478,
  "lon": 5.4667738
},
{
  "type": "node",
  "id": 6833131624,
  "lat": 50.7810560,
  "lon": 5.4667594
},
{
  "type": "node",
  "id": 6833131625,
  "lat": 50.7811648,
  "lon": 5.4668420
},
{
  "type": "node",
  "id": 6833131626,
  "lat": 50.7811638,
  "lon": 5.4668467
},
{
  "type": "node",
  "id": 6833131627,
  "lat": 50.7811337,
  "lon": 5.4668142
},
{
  "type": "node",
  "id": 6833131628,
  "lat": 50.7811665,
  "lon": 5.4668506
},
{
  "type": "node",
  "id": 6833131632,
  "lat": 50.7812795,
  "lon": 5.4662858
},
{
  "type": "node",
  "id": 6833131633,
  "lat": 50.7812625,
  "lon": 5.4662588
},
{
  "type": "node",
  "id": 6833131634,
  "lat": 50.7812962,
  "lon": 5.4662062
},
{
  "type": "node",
  "id": 6833131635,
  "lat": 50.7812996,
  "lon": 5.4662122
},
{
  "type": "node",
  "id": 6833131636,
  "lat": 50.7811841,
  "lon": 5.4658689
},
{
  "type": "node",
  "id": 6833131637,
  "lat": 50.7811962,
  "lon": 5.4658904
},
{
  "type": "node",
  "id": 6833131638,
  "lat": 50.7812650,
  "lon": 5.4657412
},
{
  "type": "node",
  "id": 6833131639,
  "lat": 50.7812782,
  "lon": 5.4657629
},
{
  "type": "node",
  "id": 6451965906,
  "lat": 50.8090535,
  "lon": 5.5733827
},
{
  "type": "node",
  "id": 6451965907,
  "lat": 50.8088874,
  "lon": 5.5736120
},
{
  "type": "node",
  "id": 6451965908,
  "lat": 50.8089552,
  "lon": 5.5737349
},
{
  "type": "node",
  "id": 6451965909,
  "lat": 50.8091213,
  "lon": 5.5735056
},
{
  "type": "node",
  "id": 3268806805,
  "lat": 50.7746560,
  "lon": 5.6504685
},
{
  "type": "node",
  "id": 3268806811,
  "lat": 50.7746846,
  "lon": 5.6506269
},
{
  "type": "node",
  "id": 3268806819,
  "lat": 50.7747290,
  "lon": 5.6505548
},
{
  "type": "node",
  "id": 3268806820,
  "lat": 50.7747369,
  "lon": 5.6506025
},
{
  "type": "node",
  "id": 3268806826,
  "lat": 50.7748117,
  "lon": 5.6505141
},
{
  "type": "node",
  "id": 3884699001,
  "lat": 50.7747725,
  "lon": 5.6504173
},
{
  "type": "node",
  "id": 3884699002,
  "lat": 50.7747728,
  "lon": 5.6504135
},
{
  "type": "node",
  "id": 3884699003,
  "lat": 50.7747749,
  "lon": 5.6504064
},
{
  "type": "node",
  "id": 3884699004,
  "lat": 50.7747785,
  "lon": 5.6504010
},
{
  "type": "node",
  "id": 3884699005,
  "lat": 50.7747831,
  "lon": 5.6503980
},
{
  "type": "node",
  "id": 3884699006,
  "lat": 50.7747881,
  "lon": 5.6503977
},
{
  "type": "node",
  "id": 3884699009,
  "lat": 50.7747939,
  "lon": 5.6504013
},
{
  "type": "node",
  "id": 3884699010,
  "lat": 50.7747965,
  "lon": 5.6504329
},
{
  "type": "node",
  "id": 3884699011,
  "lat": 50.7747981,
  "lon": 5.6504085
},
{
  "type": "node",
  "id": 3884699012,
  "lat": 50.7747989,
  "lon": 5.6504276
},
{
  "type": "node",
  "id": 3884699013,
  "lat": 50.7747999,
  "lon": 5.6504179
},
{
  "type": "node",
  "id": 3884699037,
  "lat": 50.7761073,
  "lon": 5.6495576
},
{
  "type": "node",
  "id": 3884699038,
  "lat": 50.7761077,
  "lon": 5.6495498
},
{
  "type": "node",
  "id": 3884699039,
  "lat": 50.7761084,
  "lon": 5.6495645
},
{
  "type": "node",
  "id": 3884699040,
  "lat": 50.7761099,
  "lon": 5.6495427
},
{
  "type": "node",
  "id": 3884699041,
  "lat": 50.7761109,
  "lon": 5.6495704
},
{
  "type": "node",
  "id": 3884699042,
  "lat": 50.7761135,
  "lon": 5.6495373
},
{
  "type": "node",
  "id": 3884699043,
  "lat": 50.7761144,
  "lon": 5.6495748
},
{
  "type": "node",
  "id": 3884699044,
  "lat": 50.7761181,
  "lon": 5.6495342
},
{
  "type": "node",
  "id": 3884699045,
  "lat": 50.7761186,
  "lon": 5.6495771
},
{
  "type": "node",
  "id": 3884699046,
  "lat": 50.7761209,
  "lon": 5.6494271
},
{
  "type": "node",
  "id": 3884699047,
  "lat": 50.7761214,
  "lon": 5.6494186
},
{
  "type": "node",
  "id": 3884699048,
  "lat": 50.7761221,
  "lon": 5.6494344
},
{
  "type": "node",
  "id": 3884699049,
  "lat": 50.7761231,
  "lon": 5.6495340
},
{
  "type": "node",
  "id": 3884699050,
  "lat": 50.7761237,
  "lon": 5.6494110
},
{
  "type": "node",
  "id": 3884699051,
  "lat": 50.7761247,
  "lon": 5.6494407
},
{
  "type": "node",
  "id": 3884699052,
  "lat": 50.7761248,
  "lon": 5.6495766
},
{
  "type": "node",
  "id": 3884699053,
  "lat": 50.7761276,
  "lon": 5.6494052
},
{
  "type": "node",
  "id": 3884699054,
  "lat": 50.7761285,
  "lon": 5.6494454
},
{
  "type": "node",
  "id": 3884699055,
  "lat": 50.7761302,
  "lon": 5.6495719
},
{
  "type": "node",
  "id": 3884699056,
  "lat": 50.7761304,
  "lon": 5.6494465
},
{
  "type": "node",
  "id": 3884700757,
  "lat": 50.7761325,
  "lon": 5.6494020
},
{
  "type": "node",
  "id": 3884700758,
  "lat": 50.7761338,
  "lon": 5.6495639
},
{
  "type": "node",
  "id": 3884700759,
  "lat": 50.7761345,
  "lon": 5.6495573
},
{
  "type": "node",
  "id": 3884700760,
  "lat": 50.7761378,
  "lon": 5.6494017
},
{
  "type": "node",
  "id": 3884700761,
  "lat": 50.7761440,
  "lon": 5.6494055
},
{
  "type": "node",
  "id": 3884700762,
  "lat": 50.7761485,
  "lon": 5.6494133
},
{
  "type": "node",
  "id": 3884700763,
  "lat": 50.7761499,
  "lon": 5.6494289
},
{
  "type": "node",
  "id": 3884700764,
  "lat": 50.7761505,
  "lon": 5.6494234
},
{
  "type": "node",
  "id": 3884700765,
  "lat": 50.7761935,
  "lon": 5.6495763
},
{
  "type": "node",
  "id": 3884700766,
  "lat": 50.7761939,
  "lon": 5.6495698
},
{
  "type": "node",
  "id": 3884700767,
  "lat": 50.7761945,
  "lon": 5.6495822
},
{
  "type": "node",
  "id": 3884700768,
  "lat": 50.7761966,
  "lon": 5.6495873
},
{
  "type": "node",
  "id": 3884700769,
  "lat": 50.7761996,
  "lon": 5.6495911
},
{
  "type": "node",
  "id": 3884700770,
  "lat": 50.7762000,
  "lon": 5.6494394
},
{
  "type": "node",
  "id": 3884700771,
  "lat": 50.7762003,
  "lon": 5.6494348
},
{
  "type": "node",
  "id": 3884700772,
  "lat": 50.7762027,
  "lon": 5.6494269
},
{
  "type": "node",
  "id": 3884700773,
  "lat": 50.7762033,
  "lon": 5.6495932
},
{
  "type": "node",
  "id": 3884700774,
  "lat": 50.7762067,
  "lon": 5.6494209
},
{
  "type": "node",
  "id": 3884700775,
  "lat": 50.7762075,
  "lon": 5.6495561
},
{
  "type": "node",
  "id": 3884700776,
  "lat": 50.7762086,
  "lon": 5.6495927
},
{
  "type": "node",
  "id": 3884700777,
  "lat": 50.7762118,
  "lon": 5.6494176
},
{
  "type": "node",
  "id": 3884700778,
  "lat": 50.7762121,
  "lon": 5.6495590
},
{
  "type": "node",
  "id": 3884700779,
  "lat": 50.7762133,
  "lon": 5.6495886
},
{
  "type": "node",
  "id": 3884700780,
  "lat": 50.7762152,
  "lon": 5.6494648
},
{
  "type": "node",
  "id": 3884700781,
  "lat": 50.7762158,
  "lon": 5.6495652
},
{
  "type": "node",
  "id": 3884700782,
  "lat": 50.7762164,
  "lon": 5.6495817
},
{
  "type": "node",
  "id": 3884700783,
  "lat": 50.7762173,
  "lon": 5.6494173
},
{
  "type": "node",
  "id": 3884700784,
  "lat": 50.7762173,
  "lon": 5.6495733
},
{
  "type": "node",
  "id": 3884700785,
  "lat": 50.7762192,
  "lon": 5.6494645
},
{
  "type": "node",
  "id": 3884700786,
  "lat": 50.7762237,
  "lon": 5.6494212
},
{
  "type": "node",
  "id": 3884700787,
  "lat": 50.7762252,
  "lon": 5.6494592
},
{
  "type": "node",
  "id": 3884700788,
  "lat": 50.7762283,
  "lon": 5.6494292
},
{
  "type": "node",
  "id": 3884700789,
  "lat": 50.7762292,
  "lon": 5.6494504
},
{
  "type": "node",
  "id": 3884700790,
  "lat": 50.7762303,
  "lon": 5.6494396
},
{
  "type": "node",
  "id": 561924741,
  "lat": 50.7815220,
  "lon": 5.6939302
},
{
  "type": "node",
  "id": 561924751,
  "lat": 50.7815543,
  "lon": 5.6939440
},
{
  "type": "node",
  "id": 561924774,
  "lat": 50.7814960,
  "lon": 5.6940820
},
{
  "type": "node",
  "id": 561925399,
  "lat": 50.7816758,
  "lon": 5.6937802
},
{
  "type": "node",
  "id": 561925402,
  "lat": 50.7816868,
  "lon": 5.6939926
},
{
  "type": "node",
  "id": 561925409,
  "lat": 50.7816427,
  "lon": 5.6939737
},
{
  "type": "node",
  "id": 561925416,
  "lat": 50.7817547,
  "lon": 5.6937041
},
{
  "type": "node",
  "id": 561925424,
  "lat": 50.7817372,
  "lon": 5.6938065
},
{
  "type": "node",
  "id": 561925441,
  "lat": 50.7816063,
  "lon": 5.6936406
},
{
  "type": "node",
  "id": 561925443,
  "lat": 50.7816595,
  "lon": 5.6941520
},
{
  "type": "node",
  "id": 6786651264,
  "lat": 50.7815797,
  "lon": 5.6941179
},
{
  "type": "node",
  "id": 2799707990,
  "lat": 50.8225282,
  "lon": 5.6948141
},
{
  "type": "node",
  "id": 2799707992,
  "lat": 50.8225477,
  "lon": 5.6946733
},
{
  "type": "node",
  "id": 2799708000,
  "lat": 50.8226217,
  "lon": 5.6946957
},
{
  "type": "node",
  "id": 2799718659,
  "lat": 50.8220404,
  "lon": 5.6946463
},
{
  "type": "node",
  "id": 2799718660,
  "lat": 50.8220615,
  "lon": 5.6944936
},
{
  "type": "node",
  "id": 4555503112,
  "lat": 50.8226542,
  "lon": 5.6946329
},
{
  "type": "node",
  "id": 4555503113,
  "lat": 50.8224952,
  "lon": 5.6945714
},
{
  "type": "node",
  "id": 4555503114,
  "lat": 50.8224857,
  "lon": 5.6946396
},
{
  "type": "node",
  "id": 2809909162,
  "lat": 50.8421207,
  "lon": 5.7012953
},
{
  "type": "node",
  "id": 2809916450,
  "lat": 50.8423831,
  "lon": 5.7010797
},
{
  "type": "node",
  "id": 2809916455,
  "lat": 50.8423844,
  "lon": 5.7010589
},
{
  "type": "node",
  "id": 2809916457,
  "lat": 50.8423845,
  "lon": 5.7010999
},
{
  "type": "node",
  "id": 2809916463,
  "lat": 50.8423877,
  "lon": 5.7010411
},
{
  "type": "node",
  "id": 2809916464,
  "lat": 50.8423878,
  "lon": 5.7011174
},
{
  "type": "node",
  "id": 2809916478,
  "lat": 50.8423930,
  "lon": 5.7010245
},
{
  "type": "node",
  "id": 2809916479,
  "lat": 50.8423930,
  "lon": 5.7011337
},
{
  "type": "node",
  "id": 2809916480,
  "lat": 50.8423932,
  "lon": 5.7012899
},
{
  "type": "node",
  "id": 2809916481,
  "lat": 50.8423939,
  "lon": 5.7012983
},
{
  "type": "node",
  "id": 2809916488,
  "lat": 50.8423985,
  "lon": 5.7013467
},
{
  "type": "node",
  "id": 2809916490,
  "lat": 50.8423992,
  "lon": 5.7013545
},
{
  "type": "node",
  "id": 2809916493,
  "lat": 50.8424000,
  "lon": 5.7011483
},
{
  "type": "node",
  "id": 2809916494,
  "lat": 50.8424001,
  "lon": 5.7010096
},
{
  "type": "node",
  "id": 2809916498,
  "lat": 50.8424019,
  "lon": 5.7012964
},
{
  "type": "node",
  "id": 2809917359,
  "lat": 50.8422515,
  "lon": 5.7012652
},
{
  "type": "node",
  "id": 2809919501,
  "lat": 50.8424036,
  "lon": 5.7014029
},
{
  "type": "node",
  "id": 2809919506,
  "lat": 50.8424044,
  "lon": 5.7014107
},
{
  "type": "node",
  "id": 2809919508,
  "lat": 50.8424064,
  "lon": 5.7013449
},
{
  "type": "node",
  "id": 2809919510,
  "lat": 50.8424071,
  "lon": 5.7013526
},
{
  "type": "node",
  "id": 2809919512,
  "lat": 50.8424085,
  "lon": 5.7011608
},
{
  "type": "node",
  "id": 2809919514,
  "lat": 50.8424088,
  "lon": 5.7009970
},
{
  "type": "node",
  "id": 2809919515,
  "lat": 50.8424088,
  "lon": 5.7014591
},
{
  "type": "node",
  "id": 2809919517,
  "lat": 50.8424096,
  "lon": 5.7014669
},
{
  "type": "node",
  "id": 2809919520,
  "lat": 50.8424116,
  "lon": 5.7014011
},
{
  "type": "node",
  "id": 2809919521,
  "lat": 50.8424123,
  "lon": 5.7014088
},
{
  "type": "node",
  "id": 2809919523,
  "lat": 50.8424140,
  "lon": 5.7015153
},
{
  "type": "node",
  "id": 2809919524,
  "lat": 50.8424148,
  "lon": 5.7015230
},
{
  "type": "node",
  "id": 2809919527,
  "lat": 50.8424168,
  "lon": 5.7014573
},
{
  "type": "node",
  "id": 2809919529,
  "lat": 50.8424175,
  "lon": 5.7014650
},
{
  "type": "node",
  "id": 2809919532,
  "lat": 50.8424182,
  "lon": 5.7011706
},
{
  "type": "node",
  "id": 2809919533,
  "lat": 50.8424187,
  "lon": 5.7009871
},
{
  "type": "node",
  "id": 2809919534,
  "lat": 50.8424192,
  "lon": 5.7015715
},
{
  "type": "node",
  "id": 2809919536,
  "lat": 50.8424200,
  "lon": 5.7015792
},
{
  "type": "node",
  "id": 2809919545,
  "lat": 50.8424220,
  "lon": 5.7015135
},
{
  "type": "node",
  "id": 2809919546,
  "lat": 50.8424222,
  "lon": 5.7012326
},
{
  "type": "node",
  "id": 2809919547,
  "lat": 50.8424223,
  "lon": 5.7012369
},
{
  "type": "node",
  "id": 2809919549,
  "lat": 50.8424226,
  "lon": 5.7012284
},
{
  "type": "node",
  "id": 2809919550,
  "lat": 50.8424227,
  "lon": 5.7015212
},
{
  "type": "node",
  "id": 2809919551,
  "lat": 50.8424229,
  "lon": 5.7012410
},
{
  "type": "node",
  "id": 2809919552,
  "lat": 50.8424236,
  "lon": 5.7012244
},
{
  "type": "node",
  "id": 2809919553,
  "lat": 50.8424240,
  "lon": 5.7012449
},
{
  "type": "node",
  "id": 2809919554,
  "lat": 50.8424244,
  "lon": 5.7016277
},
{
  "type": "node",
  "id": 2809919555,
  "lat": 50.8424250,
  "lon": 5.7012207
},
{
  "type": "node",
  "id": 2809919557,
  "lat": 50.8424255,
  "lon": 5.7012484
},
{
  "type": "node",
  "id": 2809919558,
  "lat": 50.8424269,
  "lon": 5.7012176
},
{
  "type": "node",
  "id": 2809919559,
  "lat": 50.8424272,
  "lon": 5.7015696
},
{
  "type": "node",
  "id": 2809919560,
  "lat": 50.8424275,
  "lon": 5.7012514
},
{
  "type": "node",
  "id": 2809919561,
  "lat": 50.8424276,
  "lon": 5.7011770
},
{
  "type": "node",
  "id": 2809919564,
  "lat": 50.8424280,
  "lon": 5.7015774
},
{
  "type": "node",
  "id": 2809919566,
  "lat": 50.8424290,
  "lon": 5.7012150
},
{
  "type": "node",
  "id": 2809919569,
  "lat": 50.8424297,
  "lon": 5.7012538
},
{
  "type": "node",
  "id": 2809919570,
  "lat": 50.8424304,
  "lon": 5.7009798
},
{
  "type": "node",
  "id": 2809919573,
  "lat": 50.8424315,
  "lon": 5.7012132
},
{
  "type": "node",
  "id": 2809919576,
  "lat": 50.8424322,
  "lon": 5.7012553
},
{
  "type": "node",
  "id": 2809919578,
  "lat": 50.8424324,
  "lon": 5.7016258
},
{
  "type": "node",
  "id": 2809919583,
  "lat": 50.8424341,
  "lon": 5.7012122
},
{
  "type": "node",
  "id": 2809919586,
  "lat": 50.8424349,
  "lon": 5.7012561
},
{
  "type": "node",
  "id": 2809919592,
  "lat": 50.8424368,
  "lon": 5.7012120
},
{
  "type": "node",
  "id": 2809919593,
  "lat": 50.8424376,
  "lon": 5.7011809
},
{
  "type": "node",
  "id": 2809919594,
  "lat": 50.8424376,
  "lon": 5.7012561
},
{
  "type": "node",
  "id": 2809919599,
  "lat": 50.8424395,
  "lon": 5.7012126
},
{
  "type": "node",
  "id": 2809919600,
  "lat": 50.8424403,
  "lon": 5.7012553
},
{
  "type": "node",
  "id": 2809919853,
  "lat": 50.8424677,
  "lon": 5.7009803
},
{
  "type": "node",
  "id": 2809919855,
  "lat": 50.8424684,
  "lon": 5.7011775
},
{
  "type": "node",
  "id": 2809919862,
  "lat": 50.8424729,
  "lon": 5.7012131
},
{
  "type": "node",
  "id": 2809919871,
  "lat": 50.8424761,
  "lon": 5.7012386
},
{
  "type": "node",
  "id": 2809919872,
  "lat": 50.8424773,
  "lon": 5.7012114
},
{
  "type": "node",
  "id": 2809919874,
  "lat": 50.8424787,
  "lon": 5.7012078
},
{
  "type": "node",
  "id": 2809919876,
  "lat": 50.8424793,
  "lon": 5.7009879
},
{
  "type": "node",
  "id": 2809919878,
  "lat": 50.8424799,
  "lon": 5.7011698
},
{
  "type": "node",
  "id": 2809919879,
  "lat": 50.8424800,
  "lon": 5.7012373
},
{
  "type": "node",
  "id": 2809919880,
  "lat": 50.8424800,
  "lon": 5.7012694
},
{
  "type": "node",
  "id": 2809919882,
  "lat": 50.8424805,
  "lon": 5.7012047
},
{
  "type": "node",
  "id": 2809919884,
  "lat": 50.8424822,
  "lon": 5.7012400
},
{
  "type": "node",
  "id": 2809919886,
  "lat": 50.8424827,
  "lon": 5.7012022
},
{
  "type": "node",
  "id": 2809919887,
  "lat": 50.8424846,
  "lon": 5.7012419
},
{
  "type": "node",
  "id": 2809919888,
  "lat": 50.8424852,
  "lon": 5.7012005
},
{
  "type": "node",
  "id": 2809919893,
  "lat": 50.8424872,
  "lon": 5.7012431
},
{
  "type": "node",
  "id": 2809919895,
  "lat": 50.8424878,
  "lon": 5.7011995
},
{
  "type": "node",
  "id": 2809919897,
  "lat": 50.8424898,
  "lon": 5.7009988
},
{
  "type": "node",
  "id": 2809919898,
  "lat": 50.8424898,
  "lon": 5.7012435
},
{
  "type": "node",
  "id": 2809919900,
  "lat": 50.8424902,
  "lon": 5.7011587
},
{
  "type": "node",
  "id": 2809920607,
  "lat": 50.8424421,
  "lon": 5.7012140
},
{
  "type": "node",
  "id": 2809920609,
  "lat": 50.8424428,
  "lon": 5.7009762
},
{
  "type": "node",
  "id": 2809920610,
  "lat": 50.8424428,
  "lon": 5.7012537
},
{
  "type": "node",
  "id": 2809920616,
  "lat": 50.8424444,
  "lon": 5.7012162
},
{
  "type": "node",
  "id": 2809920617,
  "lat": 50.8424450,
  "lon": 5.7012513
},
{
  "type": "node",
  "id": 2809920620,
  "lat": 50.8424464,
  "lon": 5.7012190
},
{
  "type": "node",
  "id": 2809920621,
  "lat": 50.8424470,
  "lon": 5.7012483
},
{
  "type": "node",
  "id": 2809920623,
  "lat": 50.8424477,
  "lon": 5.7011824
},
{
  "type": "node",
  "id": 2809920627,
  "lat": 50.8424485,
  "lon": 5.7012448
},
{
  "type": "node",
  "id": 2809920631,
  "lat": 50.8424506,
  "lon": 5.7012188
},
{
  "type": "node",
  "id": 2809920633,
  "lat": 50.8424525,
  "lon": 5.7012440
},
{
  "type": "node",
  "id": 2809920637,
  "lat": 50.8424549,
  "lon": 5.7012752
},
{
  "type": "node",
  "id": 2809920640,
  "lat": 50.8424553,
  "lon": 5.7009763
},
{
  "type": "node",
  "id": 2809921301,
  "lat": 50.8424905,
  "lon": 5.7011993
},
{
  "type": "node",
  "id": 2809921303,
  "lat": 50.8424925,
  "lon": 5.7012431
},
{
  "type": "node",
  "id": 2809921304,
  "lat": 50.8424932,
  "lon": 5.7011999
},
{
  "type": "node",
  "id": 2809921308,
  "lat": 50.8424951,
  "lon": 5.7012419
},
{
  "type": "node",
  "id": 2809921310,
  "lat": 50.8424957,
  "lon": 5.7012013
},
{
  "type": "node",
  "id": 2809921313,
  "lat": 50.8424975,
  "lon": 5.7012399
},
{
  "type": "node",
  "id": 2809921314,
  "lat": 50.8424980,
  "lon": 5.7012035
},
{
  "type": "node",
  "id": 2809921316,
  "lat": 50.8424987,
  "lon": 5.7010128
},
{
  "type": "node",
  "id": 2809921317,
  "lat": 50.8424991,
  "lon": 5.7011447
},
{
  "type": "node",
  "id": 2809921318,
  "lat": 50.8424996,
  "lon": 5.7012372
},
{
  "type": "node",
  "id": 2809921320,
  "lat": 50.8425001,
  "lon": 5.7012063
},
{
  "type": "node",
  "id": 2809921322,
  "lat": 50.8425013,
  "lon": 5.7012339
},
{
  "type": "node",
  "id": 2809921324,
  "lat": 50.8425017,
  "lon": 5.7012097
},
{
  "type": "node",
  "id": 2809921326,
  "lat": 50.8425026,
  "lon": 5.7012302
},
{
  "type": "node",
  "id": 2809921327,
  "lat": 50.8425029,
  "lon": 5.7012135
},
{
  "type": "node",
  "id": 2809921329,
  "lat": 50.8425035,
  "lon": 5.7012261
},
{
  "type": "node",
  "id": 2809921330,
  "lat": 50.8425036,
  "lon": 5.7012177
},
{
  "type": "node",
  "id": 2809921331,
  "lat": 50.8425038,
  "lon": 5.7012219
},
{
  "type": "node",
  "id": 2809921334,
  "lat": 50.8425058,
  "lon": 5.7010292
},
{
  "type": "node",
  "id": 2809921335,
  "lat": 50.8425060,
  "lon": 5.7011283
},
{
  "type": "node",
  "id": 2809921398,
  "lat": 50.8426723,
  "lon": 5.7011673
},
{
  "type": "node",
  "id": 2809921939,
  "lat": 50.8425108,
  "lon": 5.7010474
},
{
  "type": "node",
  "id": 2809921940,
  "lat": 50.8425109,
  "lon": 5.7011102
},
{
  "type": "node",
  "id": 2809921942,
  "lat": 50.8425116,
  "lon": 5.7010517
},
{
  "type": "node",
  "id": 2809921944,
  "lat": 50.8425135,
  "lon": 5.7010909
},
{
  "type": "node",
  "id": 2809921945,
  "lat": 50.8425138,
  "lon": 5.7010712
},
{
  "type": "node",
  "id": 2809921986,
  "lat": 50.8425418,
  "lon": 5.7012639
},
{
  "type": "node",
  "id": 2809921991,
  "lat": 50.8425463,
  "lon": 5.7013123
},
{
  "type": "node",
  "id": 2809921993,
  "lat": 50.8425470,
  "lon": 5.7013201
},
{
  "type": "node",
  "id": 2809921997,
  "lat": 50.8425490,
  "lon": 5.7012536
},
{
  "type": "node",
  "id": 2809922000,
  "lat": 50.8425498,
  "lon": 5.7012621
},
{
  "type": "node",
  "id": 2809922201,
  "lat": 50.8425515,
  "lon": 5.7013685
},
{
  "type": "node",
  "id": 2809922202,
  "lat": 50.8425523,
  "lon": 5.7013762
},
{
  "type": "node",
  "id": 2809922205,
  "lat": 50.8425543,
  "lon": 5.7013105
},
{
  "type": "node",
  "id": 2809922206,
  "lat": 50.8425550,
  "lon": 5.7013182
},
{
  "type": "node",
  "id": 2809922211,
  "lat": 50.8425568,
  "lon": 5.7014247
},
{
  "type": "node",
  "id": 2809922212,
  "lat": 50.8425575,
  "lon": 5.7014324
},
{
  "type": "node",
  "id": 2809922216,
  "lat": 50.8425595,
  "lon": 5.7013667
},
{
  "type": "node",
  "id": 2809922218,
  "lat": 50.8425603,
  "lon": 5.7013744
},
{
  "type": "node",
  "id": 2809922222,
  "lat": 50.8425620,
  "lon": 5.7014809
},
{
  "type": "node",
  "id": 2809922224,
  "lat": 50.8425627,
  "lon": 5.7014886
},
{
  "type": "node",
  "id": 2809922230,
  "lat": 50.8425648,
  "lon": 5.7014229
},
{
  "type": "node",
  "id": 2809922232,
  "lat": 50.8425655,
  "lon": 5.7014306
},
{
  "type": "node",
  "id": 2809922234,
  "lat": 50.8425672,
  "lon": 5.7015371
},
{
  "type": "node",
  "id": 2809922728,
  "lat": 50.8425679,
  "lon": 5.7015448
},
{
  "type": "node",
  "id": 2809922732,
  "lat": 50.8425700,
  "lon": 5.7014791
},
{
  "type": "node",
  "id": 2809922733,
  "lat": 50.8425707,
  "lon": 5.7014868
},
{
  "type": "node",
  "id": 2809922736,
  "lat": 50.8425724,
  "lon": 5.7015932
},
{
  "type": "node",
  "id": 2809922738,
  "lat": 50.8425732,
  "lon": 5.7016010
},
{
  "type": "node",
  "id": 2809922744,
  "lat": 50.8425752,
  "lon": 5.7015352
},
{
  "type": "node",
  "id": 2809922746,
  "lat": 50.8425759,
  "lon": 5.7015430
},
{
  "type": "node",
  "id": 2809922752,
  "lat": 50.8425804,
  "lon": 5.7015914
},
{
  "type": "node",
  "id": 2809922754,
  "lat": 50.8425812,
  "lon": 5.7015992
},
{
  "type": "node",
  "id": 2809923288,
  "lat": 50.8428028,
  "lon": 5.7011372
},
{
  "type": "node",
  "id": 2809913760,
  "lat": 50.8421953,
  "lon": 5.7020962
},
{
  "type": "node",
  "id": 2809917928,
  "lat": 50.8423037,
  "lon": 5.7018270
},
{
  "type": "node",
  "id": 2809917956,
  "lat": 50.8423259,
  "lon": 5.7020656
},
{
  "type": "node",
  "id": 2809917957,
  "lat": 50.8423260,
  "lon": 5.7020610
},
{
  "type": "node",
  "id": 2809919556,
  "lat": 50.8424252,
  "lon": 5.7016354
},
{
  "type": "node",
  "id": 2809919568,
  "lat": 50.8424296,
  "lon": 5.7016839
},
{
  "type": "node",
  "id": 2809919571,
  "lat": 50.8424304,
  "lon": 5.7016916
},
{
  "type": "node",
  "id": 2809919579,
  "lat": 50.8424331,
  "lon": 5.7016335
},
{
  "type": "node",
  "id": 2809919585,
  "lat": 50.8424348,
  "lon": 5.7017401
},
{
  "type": "node",
  "id": 2809919587,
  "lat": 50.8424356,
  "lon": 5.7017478
},
{
  "type": "node",
  "id": 2809919595,
  "lat": 50.8424376,
  "lon": 5.7016820
},
{
  "type": "node",
  "id": 2809919597,
  "lat": 50.8424384,
  "lon": 5.7016897
},
{
  "type": "node",
  "id": 2809919844,
  "lat": 50.8424614,
  "lon": 5.7020302
},
{
  "type": "node",
  "id": 2809919851,
  "lat": 50.8424667,
  "lon": 5.7020834
},
{
  "type": "node",
  "id": 2809920611,
  "lat": 50.8424428,
  "lon": 5.7017382
},
{
  "type": "node",
  "id": 2809920613,
  "lat": 50.8424436,
  "lon": 5.7017459
},
{
  "type": "node",
  "id": 2809920625,
  "lat": 50.8424480,
  "lon": 5.7017938
},
{
  "type": "node",
  "id": 2809921959,
  "lat": 50.8425215,
  "lon": 5.7020583
},
{
  "type": "node",
  "id": 2809921961,
  "lat": 50.8425226,
  "lon": 5.7020706
},
{
  "type": "node",
  "id": 2809922213,
  "lat": 50.8425580,
  "lon": 5.7020501
},
{
  "type": "node",
  "id": 2809922215,
  "lat": 50.8425593,
  "lon": 5.7020619
},
{
  "type": "node",
  "id": 2809922750,
  "lat": 50.8425777,
  "lon": 5.7016494
},
{
  "type": "node",
  "id": 2809922751,
  "lat": 50.8425784,
  "lon": 5.7016572
},
{
  "type": "node",
  "id": 2809922758,
  "lat": 50.8425829,
  "lon": 5.7017056
},
{
  "type": "node",
  "id": 2809922759,
  "lat": 50.8425836,
  "lon": 5.7017133
},
{
  "type": "node",
  "id": 2809922763,
  "lat": 50.8425857,
  "lon": 5.7016476
},
{
  "type": "node",
  "id": 2809922765,
  "lat": 50.8425864,
  "lon": 5.7016553
},
{
  "type": "node",
  "id": 2809922767,
  "lat": 50.8425880,
  "lon": 5.7017612
},
{
  "type": "node",
  "id": 2809922770,
  "lat": 50.8425909,
  "lon": 5.7017038
},
{
  "type": "node",
  "id": 2809922771,
  "lat": 50.8425916,
  "lon": 5.7017115
},
{
  "type": "node",
  "id": 2809922802,
  "lat": 50.8426101,
  "lon": 5.7019957
},
{
  "type": "node",
  "id": 2809922809,
  "lat": 50.8426150,
  "lon": 5.7020489
},
{
  "type": "node",
  "id": 2809924208,
  "lat": 50.8427246,
  "lon": 5.7017298
},
{
  "type": "node",
  "id": 2809924235,
  "lat": 50.8427461,
  "lon": 5.7019640
},
{
  "type": "node",
  "id": 2809924236,
  "lat": 50.8427467,
  "lon": 5.7019682
},
{
  "type": "node",
  "id": 2809925407,
  "lat": 50.8428772,
  "lon": 5.7019379
},
{
  "type": "node",
  "id": 2804934181,
  "lat": 50.8493391,
  "lon": 5.6866929
},
{
  "type": "node",
  "id": 2804935492,
  "lat": 50.8493262,
  "lon": 5.6867721
},
{
  "type": "node",
  "id": 2804935809,
  "lat": 50.8493879,
  "lon": 5.6867973
},
{
  "type": "node",
  "id": 2804935839,
  "lat": 50.8494008,
  "lon": 5.6867177
},
{
  "type": "node",
  "id": 599279929,
  "lat": 50.8179482,
  "lon": 5.8035324
},
{
  "type": "node",
  "id": 937991582,
  "lat": 50.8179292,
  "lon": 5.8036848
},
{
  "type": "node",
  "id": 2792437028,
  "lat": 50.8178700,
  "lon": 5.8036662
},
{
  "type": "node",
  "id": 2792437056,
  "lat": 50.8178890,
  "lon": 5.8035139
},
{
  "type": "node",
  "id": 619435047,
  "lat": 50.8984757,
  "lon": 5.6662030
},
{
  "type": "node",
  "id": 3881235476,
  "lat": 50.8983216,
  "lon": 5.6661631
},
{
  "type": "node",
  "id": 3881235478,
  "lat": 50.8983284,
  "lon": 5.6661480
},
{
  "type": "node",
  "id": 3881235479,
  "lat": 50.8983629,
  "lon": 5.6660676
},
{
  "type": "node",
  "id": 3881235482,
  "lat": 50.8984318,
  "lon": 5.6662810
},
{
  "type": "node",
  "id": 3881235486,
  "lat": 50.8984607,
  "lon": 5.6663161
},
{
  "type": "node",
  "id": 3881235488,
  "lat": 50.8984647,
  "lon": 5.6662940
},
{
  "type": "node",
  "id": 2789478755,
  "lat": 50.7688559,
  "lon": 6.0232262
},
{
  "type": "node",
  "id": 2789478770,
  "lat": 50.7688626,
  "lon": 6.0231900
},
{
  "type": "node",
  "id": 2789478825,
  "lat": 50.7688777,
  "lon": 6.0232357
},
{
  "type": "node",
  "id": 2789478838,
  "lat": 50.7688840,
  "lon": 6.0232000
},
{
  "type": "way",
  "id": 31813154,
  "nodes": [
    356193135,
    1789908869,
    356193136,
    1789908872,
    1589843034,
    356193137,
    1589843056,
    1589843052,
    5651511895,
    1589843051,
    1589843032,
    1589843050,
    1589843053,
    1589843046,
    1589843039,
    356193138,
    1589843044,
    356193135
  ]
},
{
  "type": "way",
  "id": 145598108,
  "nodes": [
    1589843039,
    1589843047,
    1589843060,
    1589843038,
    1589843057,
    1589843064,
    1589843054,
    1589843061,
    1589843046,
    1589843039
  ]
},
{
  "type": "way",
  "id": 31813107,
  "nodes": [
    356191843,
    912144538,
    6790718121,
    356191844,
    356191845,
    1796146953,
    1796147001,
    2340305837,
    6165757210,
    1289569718,
    1796146997,
    1796146984,
    1796146950,
    1796146934,
    1289570002,
    1289569677,
    356191846,
    912144541,
    1289569951,
    356191843
  ]
},
{
  "type": "way",
  "id": 99337858,
  "nodes": [
    1149050909,
    6790718120,
    1149051043,
    1149050960,
    1149050879,
    1149050909
  ]
},
{
  "type": "way",
  "id": 145598105,
  "nodes": [
    356193135,
    5204046550,
    7129389230,
    1589843040,
    1589843044,
    356193135
  ]
},
{
  "type": "way",
  "id": 145598107,
  "nodes": [
    1589843059,
    1589843043,
    1802608929,
    5696031812,
    1589843062,
    1589843058,
    5696031815,
    1589843066,
    1589843041,
    1589843063,
    1589843065,
    1589843040,
    1589843059
  ]
},
{
  "type": "way",
  "id": 167603457,
  "nodes": [
    1789908853,
    5696031818,
    5696031814,
    5696031813,
    1789908868,
    1789908853
  ]
},
{
  "type": "way",
  "id": 167603468,
  "nodes": [
    1789908725,
    1789908665,
    1789908853,
    1789908777,
    1789908725
  ]
},
{
  "type": "way",
  "id": 167603497,
  "nodes": [
    1789908832,
    1589843060,
    1589843038,
    1789908665,
    1789908725,
    1789908832
  ]
},
{
  "type": "way",
  "id": 145598106,
  "nodes": [
    1589843037,
    1589843048,
    1589843064,
    1589843054,
    1589843045,
    1589843037
  ]
},
{
  "type": "way",
  "id": 99228210,
  "nodes": [
    1147860318,
    1147860319,
    1147860261,
    1147860317,
    2352210353,
    1147860318
  ]
},
{
  "type": "way",
  "id": 99228214,
  "nodes": [
    1147860261,
    1147860327,
    2352210349,
    1147860292,
    1147860288,
    1147860319,
    1147860261
  ]
}

  ]
}
