{
  "version": 0.6,
  "generator": "Overpass API 0.7.55.1011 6c2efc30",
  "osm3s": {
    "timestamp_osm_base": "2020-02-14T10:35:02Z",
    "copyright": "The data included in this document is from www.openstreetmap.org. The data is made available under ODbL."
  },
  "elements": [

{
  "type": "node",
  "id": 30401849,
  "lat": 50.5849303,
  "lon": 8.6131744,
  "tags": {
    "addr:city": "Heuchelheim",
    "addr:housenumber": "30",
    "addr:postcode": "35452",
    "addr:street": "Bahnhofstraße",
    "addr:suburb": "Rödgen",
    "name": "Heimatmuseum Heuchelheim",
    "opening_hours": "We 15:00-17:00; Su 10:00-12:00",
    "tourism": "museum",
    "website": "http://www.heimatmuseum-heuchelheim.de/",
    "wheelchair": "no"
  }
},
{
  "type": "node",
  "id": 206152115,
  "lat": 50.5374784,
  "lon": 8.6233813,
  "tags": {
    "addr:city": "Gießen",
    "addr:country": "DE",
    "addr:housenumber": "17",
    "addr:postcode": "35398",
    "addr:street": "Rheinfelser Straße",
    "addr:suburb": "Lützellinden",
    "name": "Heimatmuseum Lützellinden",
    "tourism": "museum",
    "wheelchair": "no"
  }
},
{
  "type": "node",
  "id": 280284580,
  "lat": 50.5661785,
  "lon": 8.5297472,
  "tags": {
    "name": "Heimatmuseum Garbenheim",
    "tourism": "museum",
    "wikidata": "Q76634285"
  }
},
{
  "type": "node",
  "id": 291099394,
  "lat": 50.5869095,
  "lon": 8.6765531,
  "tags": {
    "name": "Oberhessisches Museum",
    "opening_hours": "Tu-Su 10:00-16:00",
    "tourism": "museum",
    "wheelchair": "no"
  }
},
{
  "type": "node",
  "id": 321834372,
  "lat": 50.6727021,
  "lon": 8.5730148,
  "tags": {
    "addr:city": "Biebertal",
    "addr:housenumber": "26",
    "addr:postcode": "35444",
    "addr:street": "Kirchstraße",
    "name": "Heimatmuseum",
    "tourism": "museum",
    "wheelchair": "no",
    "wheelchair:description": "Viele Treppenstufen, enge Toiletten"
  }
},
{
  "type": "node",
  "id": 338965778,
  "lat": 50.5201597,
  "lon": 8.8193596,
  "tags": {
    "name": "Heimatmuseum Lich",
    "tourism": "museum",
    "wheelchair": "no",
    "wikidata": "Q76634006"
  }
},
{
  "type": "node",
  "id": 451038517,
  "lat": 50.6240181,
  "lon": 8.6318964,
  "tags": {
    "addr:city": "Wettenberg",
    "addr:country": "DE",
    "addr:postcode": "35435",
    "addr:street": "Rodheimer Straße",
    "addr:suburb": "Krofdorf-Gleiberg",
    "tourism": "museum"
  }
},
{
  "type": "node",
  "id": 451039075,
  "lat": 50.6245836,
  "lon": 8.6357817,
  "tags": {
    "name": "Heimatmuseum Krofdorf",
    "tourism": "museum",
    "wheelchair": "no"
  }
},
{
  "type": "node",
  "id": 455467354,
  "lat": 50.3040748,
  "lon": 8.5692889,
  "tags": {
    "name": "Heimatmuseum",
    "tourism": "museum",
    "wheelchair": "no"
  }
},
{
  "type": "node",
  "id": 471283445,
  "lat": 50.6202473,
  "lon": 8.5943456,
  "tags": {
    "name": "Keltenkeller",
    "tourism": "museum",
    "website": "http://www.archaeologie-im-gleiberger-land.de/",
    "wikidata": "Q1954451",
    "wikipedia": "de:Museum KeltenKeller"
  }
},
{
  "type": "node",
  "id": 527346751,
  "lat": 50.4123921,
  "lon": 9.0086389,
  "tags": {
    "name": "Heimatmuseum Nidda",
    "tourism": "museum",
    "website": "https://www.museum-nidda.de/",
    "wheelchair": "limited"
  }
},
{
  "type": "node",
  "id": 618610353,
  "lat": 50.5092330,
  "lon": 8.7288782,
  "tags": {
    "name": "Burgruine",
    "tourism": "museum"
  }
},
{
  "type": "node",
  "id": 672553292,
  "lat": 50.8088000,
  "lon": 8.7731062,
  "tags": {
    "entrance": "main",
    "name": "Marburger Kunstverein",
    "opening_hours": "Tu-Su,PH 11:00-17:00; We 11:00-20:00",
    "toilets:wheelchair": "yes",
    "tourism": "museum",
    "website": "http://www.marburger-kunstverein.de/",
    "wheelchair": "yes",
    "wheelchair:description": "Aufzug: Durchgangsbr. 90cm, WC: Durchgangsbr. 76cm, Platz li. vom WC 90cm, re. vom WC 60cm",
    "wikidata": "Q1270251",
    "wikipedia": "de:Marburger Kunstverein"
  }
},
{
  "type": "node",
  "id": 692812324,
  "lat": 50.8083166,
  "lon": 8.7662723,
  "tags": {
    "name": "Völkerkundliche Sammlung",
    "tourism": "museum",
    "website": "https://www.uni-marburg.de/fb03/ivk/vk/sammlung",
    "wikidata": "Q76634054"
  }
},
{
  "type": "node",
  "id": 692812341,
  "lat": 50.8098618,
  "lon": 8.7689206,
  "tags": {
    "addr:city": "Marburg",
    "addr:housenumber": "4",
    "addr:postcode": "35037",
    "addr:street": "Landgraf-Philipp-Straße",
    "alt_name": "Bibliothek Religionswissenschaft",
    "alt_name:de": "Bibliothek Religionswissenschaft",
    "amenity": "library",
    "contact:phone": "+49 6421 2825974",
    "name": "Religionskundliche Sammlung",
    "name:de": "Religionskundliche Sammlung",
    "opening_hours": "Mo,We 11:00-17:00",
    "ref:isil": "DE-4-510",
    "tourism": "museum",
    "website": "https://www.uni-marburg.de/relsamm/",
    "wheelchair": "no"
  }
},
{
  "type": "node",
  "id": 887101657,
  "lat": 50.5033398,
  "lon": 8.5458120,
  "tags": {
    "addr:city": "Hüttenberg",
    "addr:country": "DE",
    "addr:postcode": "35625",
    "addr:street": "Rheinfelser Straße",
    "addr:suburb": "Volpertshausen",
    "fixme": "Hausnummer",
    "name": "Goethehaus",
    "tourism": "museum"
  }
},
{
  "type": "node",
  "id": 941680192,
  "lat": 50.6177212,
  "lon": 8.5998222,
  "tags": {
    "addr:city": "Biebertal",
    "addr:country": "DE",
    "addr:housenumber": "23",
    "addr:postcode": "35444",
    "addr:street": "Gießener Straße",
    "addr:suburb": "Rodheim-Bieber",
    "name": "Heimatmuseum",
    "tourism": "museum",
    "website": "http://www.heimatverein-rodheim-bieber.de/"
  }
},
{
  "type": "node",
  "id": 946985098,
  "lat": 50.4127372,
  "lon": 9.0079939,
  "tags": {
    "name": "Feuerwehrmuseum Nidda",
    "tourism": "museum"
  }
},
{
  "type": "node",
  "id": 1234654971,
  "lat": 50.5497799,
  "lon": 8.3565953,
  "tags": {
    "name": "Stadtmuseum Leun",
    "tourism": "museum",
    "wheelchair": "no",
    "wikidata": "Q76634005"
  }
},
{
  "type": "node",
  "id": 1264734620,
  "lat": 50.8165292,
  "lon": 8.8635744,
  "tags": {
    "name": "Heimatmuseum Großseelheim",
    "opening_hours": "\"nach Vereinbarung\"",
    "tourism": "museum"
  }
},
{
  "type": "node",
  "id": 1377611901,
  "lat": 50.6892362,
  "lon": 8.2188294,
  "tags": {
    "name": "Museum \"Zeitsprünge\"",
    "tourism": "museum",
    "website": "www.zeitspruenge.de",
    "wikidata": "Q16854754"
  }
},
{
  "type": "node",
  "id": 1407395578,
  "lat": 50.6206033,
  "lon": 8.2954288,
  "tags": {
    "name": "Glockenwelt Greifenstein",
    "tourism": "museum"
  }
},
{
  "type": "node",
  "id": 1747078441,
  "lat": 50.5854368,
  "lon": 8.6356617,
  "tags": {
    "addr:city": "Heuchelheim",
    "addr:country": "DE",
    "addr:housenumber": "36",
    "addr:postcode": "35452",
    "addr:street": "Wilhelmstraße",
    "name": "Kamera Museum",
    "tourism": "museum"
  }
},
{
  "type": "node",
  "id": 1864451908,
  "lat": 50.8100272,
  "lon": 8.7744848,
  "tags": {
    "addr:city": "Marburg",
    "addr:housenumber": "11",
    "addr:postcode": "35037",
    "addr:street": "Biegenstraße",
    "alt_name": "Kunstmuseum Marburg",
    "contact:fax": "+49 6421 2822166",
    "contact:phone": "+49 6421 2824359",
    "name": "Museum für Kunst und Kulturgeschichte",
    "name:de": "Museum für Kunst und Kulturgeschichte",
    "operator": "Philipps-Universität Marburg, Kunst und Kulturwissenschaften",
    "ref": "500",
    "ref:isil": "DE-4-500",
    "tourism": "museum",
    "website": "https://www.uni-marburg.de/de/museum",
    "wheelchair": "yes"
  }
},
{
  "type": "node",
  "id": 1882672688,
  "lat": 50.5603448,
  "lon": 8.5014109,
  "tags": {
    "addr:city": "Wetzlar",
    "addr:housenumber": "48,50",
    "addr:postcode": "35576",
    "addr:street": "Karl-Kellner-Ring",
    "name": "Dunkelkaufhaus",
    "opening_hours": "17:00+",
    "toilets:wheelchair": "no",
    "tourism": "museum",
    "website": "http://cms.dunkelkaufhaus.de/",
    "wheelchair": "no"
  }
},
{
  "type": "node",
  "id": 1966139115,
  "lat": 50.7387584,
  "lon": 8.3827753,
  "tags": {
    "name": "Bergbau-Museum \"Eiserne Hand\"",
    "tourism": "museum"
  }
},
{
  "type": "node",
  "id": 2193031057,
  "lat": 50.6215258,
  "lon": 8.2948997,
  "tags": {
    "name": "Dorfmuseum",
    "tourism": "museum"
  }
},
{
  "type": "node",
  "id": 2382652584,
  "lat": 50.8093787,
  "lon": 8.7702538,
  "tags": {
    "name": "Haus der Romantik",
    "opening_hours": "Tu-Su 11:00-13:00,14:00-17:00",
    "operator": "Marburger Haus der Romantik e. V.",
    "tourism": "museum",
    "website": "http://www.romantikmuseum-marburg.de/"
  }
},
{
  "type": "node",
  "id": 2851375908,
  "lat": 50.3393527,
  "lon": 8.7551565,
  "tags": {
    "name": "Historische Mikwe / Judenbad",
    "opening_hours": "Tu-Fr 09:00-12:00,14:00-17:00;Sa,Su 10:00-12:00,14:00-17:00",
    "tourism": "museum",
    "wikidata": "Q1241223",
    "wikipedia": "de:Mikwe in Friedberg (Hessen)"
  }
},
{
  "type": "node",
  "id": 2868235598,
  "lat": 50.5529392,
  "lon": 8.5010441,
  "tags": {
    "addr:city": "Wetzlar",
    "addr:housenumber": "5",
    "addr:postcode": "35578",
    "addr:street": "Schillerplatz",
    "name": "Jerusalemhaus",
    "tourism": "museum",
    "wheelchair": "no",
    "wikidata": "Q1687947"
  }
},
{
  "type": "node",
  "id": 2880022614,
  "lat": 50.7563455,
  "lon": 8.5080310,
  "tags": {
    "addr:city": "Bad Endbach",
    "addr:country": "DE",
    "addr:housename": "Naturkunderaum im Bürgertreff",
    "addr:housenumber": "21",
    "addr:postcode": "35080",
    "addr:street": "Brühlstraße",
    "fixme": "incomplete",
    "name": "Naturkunderaum im Bürgertreff",
    "operator": "Gemeinde Bad Endbach",
    "tourism": "museum",
    "website": "http://www.bad-endbach.de/gemeinde/einrichtungen/kultur/buergertreff_wommelshausen-huette_1.html",
    "wikipedia": "de:Endbach#Museen"
  }
},
{
  "type": "node",
  "id": 2929418501,
  "lat": 50.6222613,
  "lon": 8.6608234,
  "tags": {
    "addr:city": "Wettenberg",
    "addr:housenumber": "60",
    "addr:postcode": "35435",
    "addr:street": "Lahnstraße",
    "name": "Heimatmuseum Launsbach Backhaus",
    "phone": "+49 641 8040",
    "tourism": "museum",
    "website": "https://www.wettenberg.de/",
    "wheelchair": "no"
  }
},
{
  "type": "node",
  "id": 2929420501,
  "lat": 50.6215833,
  "lon": 8.6610755,
  "tags": {
    "addr:city": "Wettenberg",
    "addr:country": "DE",
    "addr:housenumber": "10",
    "addr:postcode": "35435",
    "addr:street": "Kirchstraße",
    "addr:suburb": "Launsbach",
    "name": "Heimatmuseum \"Belzgass\"",
    "phone": "+49 641 8040",
    "tourism": "museum",
    "website": "https://www.wettenberg.de/",
    "wheelchair": "no"
  }
},
{
  "type": "node",
  "id": 2930770701,
  "lat": 50.6358570,
  "lon": 8.6744172,
  "tags": {
    "addr:city": "Wettenberg",
    "addr:country": "DE",
    "addr:housenumber": "8",
    "addr:postcode": "35435",
    "addr:street": "Schulstraße",
    "addr:suburb": "Wißmar",
    "name": "Heimatmuseum Wißmar Backhausd",
    "phone": "+49 641 8040",
    "tourism": "museum",
    "website": "https://www.wettenberg.de/",
    "wheelchair": "no"
  }
},
{
  "type": "node",
  "id": 2932733516,
  "lat": 50.5135431,
  "lon": 8.3876582,
  "tags": {
    "name": "Fürstliches Familienmuseum",
    "opening_hours": "Mo-Su 08:00-sunset",
    "operator": "Fürst zu Solms-Braunfels'sche Rentkammer",
    "tourism": "museum"
  }
},
{
  "type": "node",
  "id": 3103912629,
  "lat": 50.3189835,
  "lon": 8.4644448,
  "tags": {
    "name": "Heimatmuseum im Backes",
    "tourism": "museum"
  }
},
{
  "type": "node",
  "id": 3138329102,
  "lat": 50.8163110,
  "lon": 8.7698987,
  "tags": {
    "fee": "no",
    "name": "Behring-Ausstellung",
    "opening_hours": "Mo-Th 09:00-17:00; Fr 09:00-13:00",
    "operator": "Philipps-Universität Marburg",
    "tourism": "museum"
  }
},
{
  "type": "node",
  "id": 3138329103,
  "lat": 50.8165805,
  "lon": 8.7703337,
  "tags": {
    "name": "Chemikum",
    "operator": "Philipps-Universität Marburg",
    "toilets:wheelchair": "yes",
    "tourism": "museum",
    "website": "http://www.chemikum-marburg.de/",
    "wheelchair": "yes"
  }
},
{
  "type": "node",
  "id": 3138329108,
  "lat": 50.8161336,
  "lon": 8.7712480,
  "tags": {
    "fee": "yes",
    "name": "Museum anatomicum",
    "opening_hours": "Sa[1] 10:00-12:00",
    "operator": "Philipps-Universität Marburg",
    "tourism": "museum",
    "website": "https://www.uni-marburg.de/fb20/museum-anatomicum",
    "wheelchair": "no",
    "wikidata": "Q1319742"
  }
},
{
  "type": "node",
  "id": 3297797181,
  "lat": 50.6535879,
  "lon": 8.5919353,
  "tags": {
    "name": "Informationszentrum im Keltengehöft",
    "opening_hours": "Apr - Oct: Sa 13:00-17:00; Su 11:00-17:00; \"Mittwoch in den hessischen Schulferien 13:00-17:00\"",
    "tourism": "museum",
    "wheelchair": "limited"
  }
},
{
  "type": "node",
  "id": 3372808594,
  "lat": 50.5809130,
  "lon": 8.6663350,
  "tags": {
    "addr:city": "Gießen",
    "addr:country": "DE",
    "addr:housenumber": "12",
    "addr:postcode": "35390",
    "addr:street": "Liebigstraße",
    "name": "Liebigmuseum",
    "opening_hours": "Tu-Su 10:00-16:00",
    "operator": "Justus-Liebig Gesellschaft zu Gießen e.V.",
    "phone": "+49 641 76392",
    "tourism": "museum",
    "website": "https://www.liebig-museum.de/",
    "wheelchair": "no",
    "wikidata": "Q1823963",
    "wikipedia": "de:Liebig-Museum"
  }
},
{
  "type": "node",
  "id": 3393985170,
  "lat": 50.8097404,
  "lon": 8.7702577,
  "tags": {
    "name": "Brüder-Grimm-Stube",
    "note": "Ausstellungsraum der Stadt Marburg",
    "tourism": "museum"
  }
},
{
  "type": "node",
  "id": 3708562326,
  "lat": 50.8101661,
  "lon": 8.7672218,
  "tags": {
    "fee": "yes",
    "name": "Museum für Kulturgeschichte",
    "toilets:wheelchair": "yes",
    "tourism": "museum",
    "website": "https://www.uni-marburg.de/uni-museum",
    "wheelchair": "limited",
    "wheelchair:description": "Rampensteigung 10%, Durchgangsbr. 90cm, Aufzug: Durchgangsbr. 90cm, Br. 99cm, Tie. 219cm, WC: Aufzug s.o., Durchgangsbr. 88cm, Platz li. vom WC 20cm, re. vom WC 95cm\r\n**Für Rollstuhlfahrer*innen ist der hist. Rundgang bis zur Kapellentreppe zugänglich."
  }
},
{
  "type": "node",
  "id": 3710123068,
  "lat": 50.7967427,
  "lon": 8.7242783,
  "tags": {
    "name": "1. Deutsche Polizeioldtimer-Museum Marburg",
    "operator": "Polizei-Motorsport-Club Marburg 1990",
    "tourism": "museum",
    "website": "http://www.polizeioldtimer.de/",
    "wheelchair": "yes",
    "wikidata": "Q162018",
    "wikipedia": "de:1. Deutsches Polizeioldtimer-Museum"
  }
},
{
  "type": "node",
  "id": 3778688870,
  "lat": 50.7698493,
  "lon": 8.8896966,
  "tags": {
    "name": "Dorf- und Trachtenmuseum Roßdorf",
    "tourism": "museum"
  }
},
{
  "type": "node",
  "id": 3860843912,
  "lat": 50.4683261,
  "lon": 8.3025267,
  "tags": {
    "name": "Höhlenmuseum",
    "tourism": "museum",
    "website": "http://www.kubacherkristallhoehle.de/"
  }
},
{
  "type": "node",
  "id": 4016225565,
  "lat": 50.8735610,
  "lon": 8.5968068,
  "tags": {
    "name": "Heimatmuseum",
    "opening_hours": "We 17:00-19:00",
    "tourism": "museum"
  }
},
{
  "type": "node",
  "id": 4033387935,
  "lat": 50.6993111,
  "lon": 8.6027202,
  "tags": {
    "name": "Heimatstube",
    "tourism": "museum"
  }
},
{
  "type": "node",
  "id": 4044568700,
  "lat": 50.5268355,
  "lon": 8.6761247,
  "tags": {
    "name": "Hüttenberger Heimatmuseum",
    "opening_hours": "Erster Sonntag im Monat von 14-17 Uhr. Außerdem nach Absprache, Tel. Stadtverwaltung +49-6403-6050",
    "tourism": "museum",
    "wikidata": "Q16331913"
  }
},
{
  "type": "node",
  "id": 4084223106,
  "lat": 50.5675644,
  "lon": 8.6521222,
  "tags": {
    "name": "Oberhessische Eisenbahnfreunde",
    "tourism": "museum"
  }
},
{
  "type": "node",
  "id": 4190669329,
  "lat": 50.4859328,
  "lon": 8.2605790,
  "tags": {
    "addr:city": "Weilburg",
    "addr:country": "DE",
    "addr:housenumber": "1",
    "addr:postcode": "35781",
    "addr:street": "Schloßplatz",
    "name": "Bergbau- und Stadtmuseum",
    "tourism": "museum",
    "wheelchair": "limited",
    "wikidata": "Q76634258"
  }
},
{
  "type": "node",
  "id": 4300890095,
  "lat": 50.5863620,
  "lon": 8.6767538,
  "tags": {
    "addr:city": "Gießen",
    "addr:country": "DE",
    "addr:housenumber": "3",
    "addr:postcode": "35390",
    "addr:street": "Sonnenstraße",
    "description": "Ein Museum, das Gießkannen sowie verwandte Objekte sammelt und ausstellt sowie Veranstaltungen dazu anbietet.",
    "level": "2",
    "name": "Gießkannenmuseum",
    "opening_hours": "We 10:00-13:00; Fr 15:00-18:00; Sa 12:00-16:00",
    "operator": "Stadt Gießen",
    "phone": "+49 641 306-2028",
    "tourism": "museum",
    "website": "http://giesskannenmuseum.de/",
    "wheelchair": "yes",
    "wikidata": "Q15713769",
    "wikipedia": "de:Gießkannenmuseum"
  }
},
{
  "type": "node",
  "id": 4350104869,
  "lat": 50.6321069,
  "lon": 8.5988882,
  "tags": {
    "description": "kleine Sammlung von Grenz- und trigonometrischen Steinen",
    "name": "Lapidarium Gleiberger Land",
    "opening_hours": "24/7",
    "operator": "Verein zur Pflege historischer Grenzmale",
    "tourism": "museum",
    "url": "http://www.grenzmale-hessen.com/lapidarien/gleiberger-land/",
    "wheelchair": "yes"
  }
},
{
  "type": "node",
  "id": 4487680485,
  "lat": 50.5873465,
  "lon": 8.6737674,
  "tags": {
    "addr:city": "Gießen",
    "addr:country": "DE",
    "addr:housenumber": "6",
    "addr:postcode": "35390",
    "addr:street": "Kirchenplatz",
    "name": "Oberhessisches Museum",
    "operator": "Stadt Gießen",
    "tourism": "museum",
    "wheelchair": "no"
  }
},
{
  "type": "node",
  "id": 4951626811,
  "lat": 50.6220697,
  "lon": 8.5722381,
  "tags": {
    "addr:city": "Biebertal",
    "addr:country": "DE",
    "addr:housenumber": "6",
    "addr:postcode": "35444",
    "addr:street": "Hof Haina",
    "addr:suburb": "Rodheim-Bieber",
    "name": "Bauernhausmuseum",
    "tourism": "museum",
    "website": "https://www.hof-haina.de/",
    "wikidata": "Q76633611"
  }
},
{
  "type": "node",
  "id": 5130934254,
  "lat": 50.8056489,
  "lon": 8.7716547,
  "tags": {
    "addr:city": "Marburg",
    "addr:housenumber": "44",
    "addr:postcode": "35037",
    "addr:street": "Am Grün",
    "email": "guenter@giesenfeld.de",
    "name": "Kameramuseum Marburg",
    "opening_hours": "Su 14:00-18:00",
    "operator": "Günter Giesenfeld",
    "phone": "+49 6421 12170",
    "source": "local_knowledge",
    "tourism": "museum",
    "website": "http://www.giesenfeld.de/Kameramuseum/Museum.html"
  }
},
{
  "type": "node",
  "id": 5339106926,
  "lat": 50.4872956,
  "lon": 8.2700323,
  "tags": {
    "addr:housenumber": "8-10",
    "addr:street": "Ahäuser Weg",
    "description": "Kunst für alle - zeitgenössische moderne Kunst im Rahmen des Industriebaus der ehemaligen Brauerei Helbig.",
    "name": "Rosenhang Galerie",
    "opening_hours": "Tu-Su 10:00-18:00",
    "phone": "+49 6471 39081",
    "tourism": "museum",
    "website": "https://www.rosenhangmuseum.de/"
  }
},
{
  "type": "node",
  "id": 5471369727,
  "lat": 50.3634783,
  "lon": 8.7441996,
  "tags": {
    "name": "Keltenpavillon",
    "tourism": "museum"
  }
},
{
  "type": "node",
  "id": 5772957303,
  "lat": 50.5746082,
  "lon": 8.4230616,
  "tags": {
    "access": "public",
    "addr:city": "Solms",
    "addr:housenumber": "1",
    "addr:postcode": "35606",
    "addr:street": "Grube Fortuna",
    "addr:suburb": "Oberbiel",
    "email": "info@grube-fortuna.de",
    "name": "Bergbaumuseum",
    "opening_hours": "We-Su 10:00-17:00",
    "operator": "Geowelt Fortuna e. V.",
    "tourism": "museum"
  }
},
{
  "type": "node",
  "id": 5813099586,
  "lat": 50.5521756,
  "lon": 8.5334427,
  "tags": {
    "email": "info@ernst-leitz-museum.de",
    "name": "Ernst Leitz Museum",
    "opening_hours": "Tu-Su 10:00-18:00",
    "operator": "Leica Camera AG",
    "tourism": "museum",
    "website": "https://ernst-leitz-museum.de/"
  }
},
{
  "type": "node",
  "id": 6289617841,
  "lat": 50.6023686,
  "lon": 8.7060401,
  "tags": {
    "addr:city": "Gießen",
    "addr:country": "DE",
    "addr:housenumber": "18",
    "addr:postcode": "35396",
    "addr:street": "Philosophenstraße",
    "addr:suburb": "Wieseck",
    "name": "Heimatmuseum",
    "operator": "Heimatverein Wieseck e.V.",
    "tourism": "museum"
  }
},
{
  "type": "node",
  "id": 6546996477,
  "lat": 50.7383046,
  "lon": 8.2855066,
  "tags": {
    "name": "Wilhelmsturm",
    "opening_hours": "Apr 01-Nov 01 Tu-Su,PH 10:00-13:00,14:00-17:00",
    "tourism": "museum"
  }
},
{
  "type": "node",
  "id": 6908469062,
  "lat": 50.5443822,
  "lon": 8.4077977,
  "tags": {
    "email": "stadtverwaltung@solms.de",
    "fee": "no",
    "name": "Industrie- und Heimatmuseum",
    "opening_hours:signed": "no",
    "operator": "Walter Liesendahl",
    "phone": "+49 6442 1357",
    "tourism": "museum",
    "website": "https://www.solms.de/freizeit/sehenswuerdigkeiten/museum/"
  }
},
{
  "type": "way",
  "id": 17061192,
  "nodes": [
    177139567,
    1813930697,
    1813930707,
    2637705746,
    2637705747,
    2637705749,
    2637705750,
    2637705751,
    2637705752,
    177139560,
    5862824753,
    5862824751,
    1813930710,
    5862824750,
    5862824749,
    5862959829,
    5862824748,
    5862824747,
    177139563,
    5862824745,
    5862824742,
    5862824739,
    5862824740,
    5862824741,
    5862824744,
    5862824746,
    5862824743,
    1032101403,
    177139564,
    5862959807,
    5862959809,
    5773012106,
    5773012107,
    5773012108,
    5773012109,
    1543261901,
    1543261898,
    2637704053,
    2637704054,
    1813930685,
    1813930686,
    5773012110,
    1813930690,
    177139567
  ],
  "tags": {
    "name": "Feld- und Grubenbahnmuseum Fortuna",
    "tourism": "museum",
    "website": "http://www.foerderverein-grube-fortuna.de/",
    "wikipedia": "de:Grube Fortuna (Solms)"
  }
},
{
  "type": "way",
  "id": 23171890,
  "nodes": [
    250546554,
    250546555,
    250546556,
    250546557,
    250546554
  ],
  "tags": {
    "addr:city": "Aßlar",
    "addr:country": "DE",
    "addr:housenumber": "9",
    "addr:postcode": "35614",
    "addr:street": "Grabenstraße",
    "addr:suburb": "Werdorf",
    "building": "yes",
    "email": "info@heimatverein-werdorf.de",
    "historic": "castle",
    "name": "Schloß Werdorf",
    "toilets:wheelchair": "no",
    "tourism": "museum",
    "url": "http://www.heimatverein-werdorf.de/sites/start.php",
    "wheelchair": "no"
  }
},
{
  "type": "way",
  "id": 26932178,
  "nodes": [
    295109168,
    5268844131,
    295109169,
    339607097,
    339607096,
    339607095,
    4425537765,
    339607094,
    339607093,
    339607089,
    339607088,
    5301297822,
    5301297840,
    5301297839,
    5301297838,
    5301297837,
    295109171,
    295109168
  ],
  "tags": {
    "addr:city": "Butzbach",
    "addr:country": "DE",
    "addr:housenumber": "16",
    "addr:postcode": "35510",
    "addr:street": "Färbgasse",
    "building": "yes",
    "name": "Museum Butzbach",
    "tourism": "museum"
  }
},
{
  "type": "way",
  "id": 27232015,
  "nodes": [
    298868002,
    298867989,
    298867983,
    298867997,
    298867993,
    298868008,
    298868002
  ],
  "tags": {
    "building": "yes",
    "name": "Wirtschaftsgeschichtliches Museum/Villa Grün",
    "opening_hours": "Apr 01-Nov 01 Tu-Su,PH 10:00-12:00,13:00-17:00",
    "tourism": "museum",
    "wheelchair": "limited"
  }
},
{
  "type": "way",
  "id": 30628586,
  "nodes": [
    338759906,
    338759710,
    338759768,
    338759825,
    338759849,
    338759893,
    338759906
  ],
  "tags": {
    "addr:housenumber": "1",
    "addr:street": "Alte Schulstraße",
    "contact:email": "rosenmuseum@web.de",
    "contact:fax": "+49 6032 87915",
    "contact:phone": "+49 6032 86001",
    "contact:website": "http://www.rosenmuseum.com",
    "fee": "yes",
    "name": "Rosenmuseum",
    "opening_hours": "Mar,Apr,Nov: Tu-Sa 14:00-17:00; May-Oct: Tu-Sa 11:00-18:00; Mar-Nov: Su,PH 11:00-18:00",
    "operator": "Rosenmuseum Steinfurth e.V.",
    "tourism": "museum",
    "wheelchair": "yes",
    "wikidata": "Q76633546"
  }
},
{
  "type": "way",
  "id": 33898629,
  "nodes": [
    388382091,
    388382095,
    388382096,
    388382092,
    2355265817,
    2355265814,
    2355265811,
    388382091
  ],
  "tags": {
    "addr:city": "Marburg",
    "addr:country": "DE",
    "addr:housenumber": "13",
    "addr:postcode": "35037",
    "addr:street": "Firmaneistraße",
    "building": "university",
    "building:levels": "2",
    "loc_name": "2400",
    "loc_ref": "uni",
    "name": "Mineralogisches Museum",
    "opening_hours": "We 10:00-13:00,15:00-18:00; Th,Fr 10:00-13:00; Sa,Su 11:00-15:00",
    "roof:levels": "4",
    "tourism": "museum",
    "website": "https://www.uni-marburg.de/fb19/partner/minmus",
    "wheelchair": "no"
  }
},
{
  "type": "way",
  "id": 56507148,
  "nodes": [
    708251606,
    708251599,
    708251560,
    708251582,
    708251606
  ],
  "tags": {
    "building": "yes",
    "name": "Heimatmuseum Staufenberg",
    "tourism": "museum",
    "wheelchair": "no"
  }
},
{
  "type": "way",
  "id": 67389991,
  "nodes": [
    813766462,
    813801007,
    1427209729,
    813778218,
    813834161,
    813766462
  ],
  "tags": {
    "addr:city": "Laubach",
    "addr:country": "DE",
    "addr:housenumber": "9",
    "addr:postcode": "35321",
    "addr:street": "Friedrichstraße",
    "building": "yes",
    "building:part": "half-hipped",
    "height": "14",
    "name": "Heimatmuseum \"Fridericianum\"",
    "opening_hours": "Sa,Su 14:30-16:30",
    "roof:height": "2.5",
    "roof:shape": "half-hipped",
    "tourism": "museum",
    "wheelchair": "no",
    "wikidata": "Q76633999"
  }
},
{
  "type": "way",
  "id": 72603246,
  "nodes": [
    813828753,
    813804265,
    2027143423,
    2027143425,
    861685149,
    861685437,
    1797565429,
    1797565431,
    813828753
  ],
  "tags": {
    "addr:city": "Laubach",
    "addr:country": "DE",
    "addr:housenumber": "4a",
    "addr:postcode": "35321",
    "addr:street": "Friedrichstraße",
    "building": "yes",
    "contact:email": "info@puppenstuben-museum.com",
    "contact:phone": "+49 6405 5053300",
    "contact:website": "www.puppenstuben-museum.com",
    "image": "http://www.giessener-zeitung.de/resources/mediadb/2012/09/12/197651_web.jpg?1347444943",
    "name": "PuppenStuben Museum",
    "opening_hours": "Tu-Su 14:00-17:00; Sa 11:00-17:00",
    "tourism": "museum"
  }
},
{
  "type": "way",
  "id": 95139845,
  "nodes": [
    1103652540,
    1103652723,
    1103652531,
    1103652577,
    1209790324,
    1103652540
  ],
  "tags": {
    "addr:city": "Grünberg",
    "addr:country": "DE",
    "addr:housenumber": "24",
    "addr:postcode": "35305",
    "addr:street": "Hintergasse",
    "building": "yes",
    "email": "museum@gruenberg.de",
    "fax": "+49 6401 22332820",
    "name": "Museum im Spital",
    "opening_hours": "We 18:00-20:00; Fr-Su,PH 14:00-17:00",
    "phone": "+49 6401 223328-0",
    "toilets:wheelchair": "yes",
    "tourism": "museum",
    "website": "http://www.gruenberg.de/inhalt/Bauen+Wohnen/Kultur/Museum_im_Spital.html",
    "wheelchair": "yes",
    "wikidata": "Q1954720",
    "wikipedia": "de:Museum im Spital"
  }
},
{
  "type": "way",
  "id": 95456838,
  "nodes": [
    1106823584,
    1106823430,
    1106823306,
    1106823507,
    1106823584
  ],
  "tags": {
    "addr:city": "Allendorf",
    "addr:country": "DE",
    "addr:housenumber": "42",
    "addr:postcode": "35469",
    "addr:street": "Kirchstraße",
    "building": "yes",
    "name": "Heimatmuseum Allendorf",
    "tourism": "museum"
  }
},
{
  "type": "way",
  "id": 95460196,
  "nodes": [
    1106854956,
    1106854768,
    4571915438,
    4572193717,
    1106854716,
    1106854956
  ],
  "tags": {
    "addr:city": "Allendorf",
    "addr:country": "DE",
    "addr:housenumber": "13",
    "addr:postcode": "35469",
    "addr:street": "Kirchstraße",
    "building": "yes",
    "name": "Heimatmuseum Allendorf",
    "tourism": "museum"
  }
},
{
  "type": "way",
  "id": 124848251,
  "nodes": [
    1388285336,
    1388285328,
    2126898535,
    1388285277,
    2126898534,
    1388285330,
    1388285336
  ],
  "tags": {
    "addr:city": "Wettenberg",
    "addr:housenumber": "6",
    "addr:postcode": "35435",
    "addr:street": "Im Schacht",
    "building": "yes",
    "name": "Hessisches Holz + Technik Museum",
    "phone": "+49 6406 8307400",
    "tourism": "museum",
    "website": "https://www.holztechnikmuseum.de/",
    "wheelchair": "yes",
    "wikidata": "Q76634280"
  }
},
{
  "type": "way",
  "id": 135795475,
  "nodes": [
    1490727257,
    1490727206,
    1490727229,
    1490727244,
    1490727247,
    1490727259,
    1490727255,
    1490727264,
    1490727257
  ],
  "tags": {
    "addr:city": "Lahnau",
    "addr:country": "DE",
    "addr:housenumber": "20",
    "addr:postcode": "35633",
    "addr:street": "Friedenstraße",
    "building": "yes",
    "name": "Heimatmuseum",
    "tourism": "museum"
  }
},
{
  "type": "way",
  "id": 151076308,
  "nodes": [
    1639148885,
    1705209124,
    1639148879,
    1639148874,
    1705209111,
    1705209106,
    1705209104,
    1639148862,
    1705209096,
    1639148867,
    1639148851,
    1639148854,
    1639148838,
    1639148831,
    1639148823,
    1639148818,
    1639148828,
    1639148835,
    1639148841,
    1639148844,
    1639148858,
    3677085147,
    1639148848,
    1639148871,
    1639148885
  ],
  "tags": {
    "addr:city": "Gießen",
    "addr:country": "DE",
    "addr:housenumber": "8",
    "addr:postcode": "35390",
    "addr:street": "Liebigstraße",
    "building": "civic",
    "building:levels": "4",
    "email": "info@mathematikum.de",
    "fee": "yes",
    "name": "Mathematikum",
    "opening_hours": "Mo-Fr 09:00-18:00; Sa-Su 10:00-19:00",
    "operator": "Mathematikum Gießen e.V.",
    "phone": "+49 641 9697970",
    "toilets:wheelchair": "yes",
    "tourism": "museum",
    "website": "http://www.mathematikum.de/",
    "wheelchair": "yes",
    "wheelchair:description": "Rampe, Treppenlift, Aufzug und WC vorhanden",
    "wikidata": "Q896268",
    "wikipedia": "de:Mathematikum"
  }
},
{
  "type": "way",
  "id": 158100282,
  "nodes": [
    1703611124,
    1703611097,
    1703611079,
    1703611104,
    5409540657,
    5409540656,
    1703611124
  ],
  "tags": {
    "addr:city": "Gießen",
    "addr:country": "DE",
    "addr:housenumber": "2",
    "addr:postcode": "35390",
    "addr:street": "Georg-Schlosser-Straße",
    "building": "yes",
    "name": "Oberhessisches Museum Leib'sches Haus",
    "opening_hours": "We-Su 10:00-16:00",
    "operator": "Stadt Gießen",
    "start_date": "1345-1355",
    "tourism": "museum",
    "website": "https://www.giessen.de/Oberhessisches_Museum/",
    "wheelchair": "no"
  }
},
{
  "type": "way",
  "id": 171321896,
  "nodes": [
    1823717128,
    1823717135,
    1823717129,
    1823717127,
    1823717126,
    1823717125,
    1823717128
  ],
  "tags": {
    "addr:city": "Wetzlar",
    "addr:country": "DE",
    "addr:housenumber": "1",
    "addr:postcode": "35578",
    "addr:street": "Kornblumengasse",
    "building": "yes",
    "name": "Palais Papius",
    "toilets:wheelchair": "yes",
    "tourism": "museum",
    "wheelchair": "yes",
    "wikidata": "Q2047135",
    "wikipedia": "de:Palais Papius"
  }
},
{
  "type": "way",
  "id": 171321897,
  "nodes": [
    1823717139,
    1823717141,
    1823717133,
    1823717131,
    1823717139
  ],
  "tags": {
    "addr:city": "Wetzlar",
    "addr:country": "DE",
    "addr:housenumber": "19",
    "addr:postcode": "35578",
    "addr:street": "Hofstatt",
    "building": "yes",
    "name": "Reichskammergerichtsmuseum",
    "start_date": "1760",
    "tourism": "museum",
    "website": "http://www.reichskammergericht.de/",
    "wheelchair": "no",
    "wikidata": "Q1618662",
    "wikipedia": "de:Reichskammergerichtsmuseum"
  }
},
{
  "type": "way",
  "id": 181745687,
  "nodes": [
    1921784987,
    1921785006,
    2190227612,
    1921784994,
    1921784993,
    1921784987
  ],
  "tags": {
    "building": "civic",
    "name": "Limes Infozentrum",
    "opening_hours": "We-Su: 13:00-17:00",
    "tourism": "museum"
  }
},
{
  "type": "way",
  "id": 181989209,
  "nodes": [
    1923403673,
    1923403660,
    1923403668,
    1923403675,
    1923403673
  ],
  "tags": {
    "building": "yes",
    "name": "Energiemuseum",
    "tourism": "museum"
  }
},
{
  "type": "way",
  "id": 184641699,
  "nodes": [
    1951419193,
    1951419195,
    1951419191,
    1951419187,
    1951419189,
    1951419188,
    1951419193
  ],
  "tags": {
    "building": "yes",
    "name": "Industriemuseum",
    "toilets:wheelchair": "no",
    "tourism": "museum",
    "wheelchair": "limited"
  }
},
{
  "type": "way",
  "id": 184641701,
  "nodes": [
    1951419186,
    1951419188,
    1951419189,
    1951419187,
    1951419185,
    1951419184,
    1951419186
  ],
  "tags": {
    "building": "yes",
    "name": "Stadtmuseum",
    "toilets:wheelchair": "no",
    "tourism": "museum",
    "wheelchair": "limited"
  }
},
{
  "type": "way",
  "id": 187989481,
  "nodes": [
    1986185074,
    1986185025,
    1986185152,
    1986185189,
    1986185179,
    1986185187,
    4510119439,
    4510119440,
    4510119437,
    4510119436,
    4510119435,
    4510119434,
    4510119441,
    4510119438,
    1986185074
  ],
  "tags": {
    "building": "yes",
    "name": "Vulkaneum",
    "source": "extrapolation",
    "toilets:wheelchair": "yes",
    "tourism": "museum",
    "wheelchair": "yes"
  }
},
{
  "type": "way",
  "id": 201951633,
  "nodes": [
    2119521876,
    3704666907,
    3704666908,
    2119521865,
    2119521871,
    2119521879,
    2119521876
  ],
  "tags": {
    "building": "yes",
    "name": "Heimatmuseum Amöneburg",
    "note": "Während der Öffnungszeiten über die Stadtverwaltung",
    "opening_hours": "Mo-Th 08:00-12:00,14:00-16:00, Fr 08:00-12:00, Su[1,3] 14:00-18:00",
    "tourism": "museum",
    "website": "http://www.amoeneburg.de/seite/de/stadt/065:237/-/Museum_Amoeneburg.html"
  }
},
{
  "type": "way",
  "id": 208198282,
  "nodes": [
    2185293054,
    2185293043,
    2185293032,
    2185293044,
    2185293041,
    2185293051,
    2185293054
  ],
  "tags": {
    "addr:city": "Reiskirchen",
    "addr:country": "DE",
    "addr:housenumber": "19",
    "addr:postcode": "35447",
    "addr:street": "Tennenwald",
    "building": "yes",
    "name": "Hirtenhaus",
    "tourism": "museum"
  }
},
{
  "type": "way",
  "id": 219232090,
  "nodes": [
    2284253571,
    2284253573,
    4145258337,
    4145258339,
    4145258340,
    2284253572,
    2284253571
  ],
  "tags": {
    "addr:city": "Lahntal",
    "addr:country": "DE",
    "addr:housenumber": "30",
    "addr:postcode": "35094",
    "addr:street": "Otto-Ubbelohde-Weg",
    "addr:suburb": "Goßfelden",
    "alt_name": "Otto-Ubbelohde-Museum",
    "building": "yes",
    "name": "Ubbelohde-Haus",
    "opening_hours": "Sa,Su 11:00-17:00",
    "start_date": "1900",
    "tourism": "museum",
    "website": "https://www.lahntal.de/leben-in-lahntal/sehenswuerdigkeiten/otto-ubbelohde-haus/item/106-otto-ubbelohde-haus"
  }
},
{
  "type": "way",
  "id": 235497086,
  "nodes": [
    2435474411,
    2435474412,
    2435474413,
    2435474414,
    2435474415,
    2435474416,
    2435474417,
    2435474418,
    2435474419,
    2435474420,
    2435474411
  ],
  "tags": {
    "addr:city": "Braunfels",
    "addr:housenumber": "1",
    "addr:postcode": "35619",
    "addr:street": "Obermühle",
    "building": "yes",
    "name": "Stadtmuseum Obermühle",
    "tourism": "museum",
    "website": "http://www.stadtmuseum-obermuehle.de/"
  }
},
{
  "type": "way",
  "id": 236475849,
  "nodes": [
    2445031820,
    969169332,
    2445031836,
    2445031846,
    2445031838,
    2445031827,
    2445031820
  ],
  "tags": {
    "building": "yes",
    "name": "Rathausmuseum",
    "tourism": "museum"
  }
},
{
  "type": "way",
  "id": 278808241,
  "nodes": [
    2831145890,
    2831145892,
    2831145891,
    2831145885,
    2831145887,
    2831145889,
    2831145890
  ],
  "tags": {
    "addr:city": "Bad Endbach",
    "addr:country": "DE",
    "addr:housename": "Kunst- und Kulturhaus Alte Schule",
    "addr:housenumber": "3",
    "addr:postcode": "35080",
    "addr:street": "Kirchweg",
    "building": "yes",
    "fixme": "incomplete",
    "name": "Kunst- und Kulturhaus Alte Schule",
    "phone": "+49 2776 8310",
    "tourism": "museum",
    "website": "http://www.bad-endbach.de/alte_schule.html",
    "wikidata": "Q76633524",
    "wikipedia": "de:Endbach#Museen"
  }
},
{
  "type": "way",
  "id": 283922248,
  "nodes": [
    2877316174,
    2877316171,
    2877316173,
    2877316175,
    2877316174
  ],
  "tags": {
    "addr:city": "Bad Endbach",
    "addr:country": "DE",
    "addr:housename": "Heimatmuseum Wommelshausen",
    "addr:housenumber": "10",
    "addr:postcode": "35080",
    "addr:street": "Rathausstraße",
    "building": "yes",
    "contact:phone": "+49 2776 1408",
    "fixme": "incomplete",
    "name": "Heimatmuseum Wommelshausen",
    "opening_hours": "\"Besichtigung nach Vereinbarung\"",
    "phone": "+49 2776 1408",
    "tourism": "museum",
    "website": "http://www.bad-endbach.de/gemeinde/einrichtungen/kultur/museum_wommelshausen_1.html",
    "wikidata": "Q76633521"
  }
},
{
  "type": "way",
  "id": 295516082,
  "nodes": [
    2992455755,
    2992455754,
    2992455756,
    2992455757,
    2992455755
  ],
  "tags": {
    "abandoned:power": "substation",
    "abandoned:substation": "minor_distribution",
    "addr:country": "DE",
    "addr:housenumber": "2",
    "addr:postcode": "35713",
    "addr:street": "Am Berg",
    "addr:suburb": "Wissenbach",
    "building": "transformer_tower",
    "contact:website": "http://www.regionalmuseum-eschenburg.de/trafohaus/",
    "description": "ehemalige Transformatorenturmstation",
    "heritage": "no",
    "name": "Museum für Bergbau und Fernmeldetechnik",
    "note": "saniert",
    "operator": "Regionalmuseum Eschenburg e.V.",
    "roof:shape": "gabled",
    "tourism": "museum",
    "year_of_construction": "1910"
  }
},
{
  "type": "way",
  "id": 296509428,
  "nodes": [
    3002966178,
    313527258,
    3002966177,
    6472211881,
    3002966176,
    6472211880,
    3002966178
  ],
  "tags": {
    "building": "yes",
    "name": "Naturkundehaus Damm",
    "tourism": "museum",
    "website": "http://www.naturkundehaus-damm.de"
  }
},
{
  "type": "way",
  "id": 318064913,
  "nodes": [
    3244392845,
    3244392843,
    3244392842,
    3244406221,
    3244406232,
    3244406235,
    3244392844,
    3244392845
  ],
  "tags": {
    "addr:city": "Friedberg (Hessen)",
    "addr:country": "DE",
    "addr:housenumber": "16",
    "addr:postcode": "61169",
    "addr:street": "Haagstraße",
    "building": "public",
    "name": "Wetterau-Museum",
    "tourism": "museum",
    "wheelchair": "no",
    "wikidata": "Q2565911"
  }
},
{
  "type": "way",
  "id": 352052036,
  "nodes": [
    3578282266,
    3578282267,
    3578282265,
    3578282264,
    3578282262,
    3578282266
  ],
  "tags": {
    "addr:city": "Ebsdorfergrund",
    "addr:country": "DE",
    "addr:housenumber": "31c",
    "addr:postcode": "35085",
    "addr:street": "Hauptstraße",
    "addr:suburb": "Ebsdorf",
    "building": "yes",
    "name": "Flugzeugwrackmuseum Ebsdorf",
    "tourism": "museum",
    "website": "http://www.flugzeugwrackmuseum.de"
  }
},
{
  "type": "way",
  "id": 363812763,
  "nodes": [
    3679409797,
    3679409784,
    3679409728,
    3679409737,
    3679409797
  ],
  "tags": {
    "addr:city": "Fernwald",
    "addr:country": "DE",
    "addr:housenumber": "40",
    "addr:postcode": "35463",
    "addr:street": "Tiefenweg",
    "addr:suburb": "Annerod",
    "building": "yes",
    "museum": "local",
    "name": "Heimatmuseum Annerod",
    "operator": "Heimatverein Annerod e.V.",
    "tourism": "museum",
    "website": "http://www.heimatmuseum-annerod.de/"
  }
},
{
  "type": "way",
  "id": 379529073,
  "nodes": [
    3828379458,
    3828359856,
    3828359855,
    3828359854,
    3828359853,
    3828359852,
    3828359851,
    3828359850,
    3828359847,
    3828359845,
    3828359844,
    3828359843,
    3828359842,
    3828359839,
    3828359841,
    3828359840,
    3828359838,
    3828359836,
    3828359835,
    3828359834,
    3828359833,
    3828359832,
    3828359829,
    3828359828,
    3828359826,
    3828359824,
    3828359825,
    3828359827,
    1377726322,
    3828359817,
    3828359803,
    3828359804,
    3828359805,
    3828359806,
    3828359807,
    3828359808,
    3828359812,
    3828359816,
    3828379458
  ],
  "tags": {
    "geological": "palaeontological_site",
    "name": "Museumsprojekt Zeiteninsel - Archäologisches Freilichtmuseum Marburger Land",
    "note": "Im Aufbau",
    "tourism": "museum",
    "website": "http://www.zeiteninsel.de/"
  }
},
{
  "type": "way",
  "id": 396358841,
  "nodes": [
    3991701003,
    3991701004,
    3991701005,
    3991701006,
    3991701003
  ],
  "tags": {
    "building": "yes",
    "name": "Heimatmuseum Übernthal",
    "tourism": "museum"
  }
},
{
  "type": "way",
  "id": 412158065,
  "nodes": [
    4136843736,
    4136843734,
    4136843728,
    4136843730,
    4136843736
  ],
  "tags": {
    "addr:city": "Rosbach v. d. Höhe",
    "addr:housenumber": "4a",
    "addr:postcode": "61191",
    "addr:street": "Kirchstraße",
    "building": "yes",
    "man_made": "tower",
    "museum": "history",
    "name": "historischer Wehrturm Ober-Rosbach",
    "opening_hours": "1. So. in Monat 14:00 - 16:00 + auf Anfrage",
    "operator": "Heimatgeschichtsverein 1984 Rosbach v. d. Höhe e.V.",
    "tower:type": "defensive",
    "website": "https://www.hgv-rosbach.de/",
    "wheelchair": "no"
  }
},
{
  "type": "way",
  "id": 454971901,
  "nodes": [
    4514495284,
    4514495274,
    4514495235,
    4514495232,
    4514495240,
    4514495251,
    4514495261,
    4514495257,
    4514495270,
    4514495277,
    4514495294,
    4514495284
  ],
  "tags": {
    "addr:city": "Langgöns",
    "addr:country": "DE",
    "addr:housenumber": "5",
    "addr:postcode": "35428",
    "addr:street": "Kirchstraße",
    "addr:suburb": "Niederkleen",
    "building": "yes",
    "name": "Heimatstube Niederkleen",
    "tourism": "museum"
  }
},
{
  "type": "way",
  "id": 481181063,
  "nodes": [
    4577850800,
    4577850801,
    4741172964,
    4741172936,
    4577850811,
    4577850800
  ],
  "tags": {
    "addr:city": "Ober-Mörlen",
    "addr:housenumber": "2",
    "addr:postcode": "61239",
    "addr:street": "Im Lettig",
    "building": "yes",
    "name": "Heimatmuseum",
    "note": "Ehem. Rathaus, heute Heimatmuseum",
    "tourism": "museum"
  }
},
{
  "type": "way",
  "id": 519733739,
  "nodes": [
    5067324175,
    5067324174,
    5067324173,
    5067324172,
    5067324169,
    5067324175
  ],
  "tags": {
    "addr:city": "Florstadt",
    "addr:housenumber": "18",
    "addr:postcode": "61197",
    "addr:street": "Altenstädter Straße",
    "building": "yes",
    "museum": "history",
    "name": "Saalbau-Museum",
    "operator": "Stadt Florstadt",
    "phone": "+49 6035 6630",
    "tourism": "museum",
    "wikidata": "Q76633725"
  }
},
{
  "type": "way",
  "id": 660765789,
  "nodes": [
    6186405375,
    6186405374,
    6186405373,
    6186405372,
    6186405375
  ],
  "tags": {
    "building": "yes",
    "name": "Heimatmuseum",
    "tourism": "museum"
  }
},
{
  "type": "way",
  "id": 688103035,
  "nodes": [
    6451378157,
    6451378158,
    6451378152,
    6451378153,
    6451378157
  ],
  "tags": {
    "building": "historic",
    "name": "Alte Schule Herbornseelbach",
    "opening_hours": "\"nach Vereinbarung\"",
    "tourism": "museum",
    "wheelchair": "no"
  }
},
{
  "type": "node",
  "id": 6186405372,
  "lat": 50.4322830,
  "lon": 8.3716057
},
{
  "type": "node",
  "id": 6186405373,
  "lat": 50.4323821,
  "lon": 8.3717237
},
{
  "type": "node",
  "id": 6186405374,
  "lat": 50.4324260,
  "lon": 8.3716330
},
{
  "type": "node",
  "id": 6186405375,
  "lat": 50.4323269,
  "lon": 8.3715150
},
{
  "type": "node",
  "id": 2435474411,
  "lat": 50.5167633,
  "lon": 8.3805032
},
{
  "type": "node",
  "id": 2435474412,
  "lat": 50.5167832,
  "lon": 8.3806662
},
{
  "type": "node",
  "id": 2435474413,
  "lat": 50.5166025,
  "lon": 8.3807018
},
{
  "type": "node",
  "id": 2435474414,
  "lat": 50.5166051,
  "lon": 8.3807248
},
{
  "type": "node",
  "id": 2435474415,
  "lat": 50.5165148,
  "lon": 8.3807457
},
{
  "type": "node",
  "id": 2435474416,
  "lat": 50.5164962,
  "lon": 8.3805973
},
{
  "type": "node",
  "id": 2435474417,
  "lat": 50.5165825,
  "lon": 8.3805680
},
{
  "type": "node",
  "id": 2435474418,
  "lat": 50.5165679,
  "lon": 8.3805011
},
{
  "type": "node",
  "id": 2435474419,
  "lat": 50.5166450,
  "lon": 8.3804719
},
{
  "type": "node",
  "id": 2435474420,
  "lat": 50.5166556,
  "lon": 8.3805283
},
{
  "type": "node",
  "id": 6451378152,
  "lat": 50.7010594,
  "lon": 8.3417479
},
{
  "type": "node",
  "id": 6451378153,
  "lat": 50.7010199,
  "lon": 8.3416428
},
{
  "type": "node",
  "id": 6451378157,
  "lat": 50.7011141,
  "lon": 8.3415546
},
{
  "type": "node",
  "id": 6451378158,
  "lat": 50.7011536,
  "lon": 8.3416596
},
{
  "type": "node",
  "id": 298867983,
  "lat": 50.7372765,
  "lon": 8.2845366
},
{
  "type": "node",
  "id": 298867989,
  "lat": 50.7371523,
  "lon": 8.2846385
},
{
  "type": "node",
  "id": 298867993,
  "lat": 50.7374297,
  "lon": 8.2846913
},
{
  "type": "node",
  "id": 298867997,
  "lat": 50.7373491,
  "lon": 8.2847575
},
{
  "type": "node",
  "id": 298868002,
  "lat": 50.7372580,
  "lon": 8.2849599
},
{
  "type": "node",
  "id": 298868008,
  "lat": 50.7374628,
  "lon": 8.2847919
},
{
  "type": "node",
  "id": 2992455754,
  "lat": 50.7894653,
  "lon": 8.3294323
},
{
  "type": "node",
  "id": 2992455755,
  "lat": 50.7894921,
  "lon": 8.3293706
},
{
  "type": "node",
  "id": 2992455756,
  "lat": 50.7894989,
  "lon": 8.3294687
},
{
  "type": "node",
  "id": 2992455757,
  "lat": 50.7895256,
  "lon": 8.3294071
},
{
  "type": "node",
  "id": 4136843728,
  "lat": 50.3042343,
  "lon": 8.6899876
},
{
  "type": "node",
  "id": 4136843730,
  "lat": 50.3042599,
  "lon": 8.6898913
},
{
  "type": "node",
  "id": 4136843734,
  "lat": 50.3042989,
  "lon": 8.6900298
},
{
  "type": "node",
  "id": 4136843736,
  "lat": 50.3043246,
  "lon": 8.6899335
},
{
  "type": "node",
  "id": 3244392844,
  "lat": 50.3363977,
  "lon": 8.7556064
},
{
  "type": "node",
  "id": 3244392842,
  "lat": 50.3360283,
  "lon": 8.7557487
},
{
  "type": "node",
  "id": 3244392843,
  "lat": 50.3361856,
  "lon": 8.7561050
},
{
  "type": "node",
  "id": 3244392845,
  "lat": 50.3364562,
  "lon": 8.7559487
},
{
  "type": "node",
  "id": 3244406221,
  "lat": 50.3362114,
  "lon": 8.7556782
},
{
  "type": "node",
  "id": 3244406232,
  "lat": 50.3362734,
  "lon": 8.7556543
},
{
  "type": "node",
  "id": 3244406235,
  "lat": 50.3363196,
  "lon": 8.7556365
},
{
  "type": "node",
  "id": 5067324169,
  "lat": 50.3179275,
  "lon": 8.8622052
},
{
  "type": "node",
  "id": 5067324172,
  "lat": 50.3179388,
  "lon": 8.8621917
},
{
  "type": "node",
  "id": 5067324173,
  "lat": 50.3178463,
  "lon": 8.8620013
},
{
  "type": "node",
  "id": 5067324174,
  "lat": 50.3177896,
  "lon": 8.8620689
},
{
  "type": "node",
  "id": 5067324175,
  "lat": 50.3178821,
  "lon": 8.8622593
},
{
  "type": "node",
  "id": 1823717125,
  "lat": 50.5530978,
  "lon": 8.5022111
},
{
  "type": "node",
  "id": 1823717126,
  "lat": 50.5532192,
  "lon": 8.5023887
},
{
  "type": "node",
  "id": 1823717127,
  "lat": 50.5532863,
  "lon": 8.5023144
},
{
  "type": "node",
  "id": 1823717128,
  "lat": 50.5532950,
  "lon": 8.5019030
},
{
  "type": "node",
  "id": 1823717129,
  "lat": 50.5533521,
  "lon": 8.5024157
},
{
  "type": "node",
  "id": 1823717131,
  "lat": 50.5533835,
  "lon": 8.5019548
},
{
  "type": "node",
  "id": 1823717133,
  "lat": 50.5534372,
  "lon": 8.5020676
},
{
  "type": "node",
  "id": 1823717135,
  "lat": 50.5534620,
  "lon": 8.5022469
},
{
  "type": "node",
  "id": 1823717139,
  "lat": 50.5535192,
  "lon": 8.5017839
},
{
  "type": "node",
  "id": 1823717141,
  "lat": 50.5535752,
  "lon": 8.5019381
},
{
  "type": "node",
  "id": 1951419184,
  "lat": 50.5549882,
  "lon": 8.5041426
},
{
  "type": "node",
  "id": 1951419185,
  "lat": 50.5550552,
  "lon": 8.5043928
},
{
  "type": "node",
  "id": 1951419186,
  "lat": 50.5550729,
  "lon": 8.5040863
},
{
  "type": "node",
  "id": 1951419187,
  "lat": 50.5551116,
  "lon": 8.5043559
},
{
  "type": "node",
  "id": 1951419188,
  "lat": 50.5551342,
  "lon": 8.5043129
},
{
  "type": "node",
  "id": 1951419189,
  "lat": 50.5551400,
  "lon": 8.5043364
},
{
  "type": "node",
  "id": 1951419191,
  "lat": 50.5551489,
  "lon": 8.5044639
},
{
  "type": "node",
  "id": 1951419193,
  "lat": 50.5552435,
  "lon": 8.5041758
},
{
  "type": "node",
  "id": 1951419195,
  "lat": 50.5553131,
  "lon": 8.5042391
},
{
  "type": "node",
  "id": 4577850800,
  "lat": 50.3665892,
  "lon": 8.6394793
},
{
  "type": "node",
  "id": 4577850801,
  "lat": 50.3665790,
  "lon": 8.6395799
},
{
  "type": "node",
  "id": 4577850811,
  "lat": 50.3665110,
  "lon": 8.6394180
},
{
  "type": "node",
  "id": 4741172936,
  "lat": 50.3665031,
  "lon": 8.6394760
},
{
  "type": "node",
  "id": 4741172964,
  "lat": 50.3664922,
  "lon": 8.6395557
},
{
  "type": "node",
  "id": 295109168,
  "lat": 50.4332276,
  "lon": 8.6732628
},
{
  "type": "node",
  "id": 295109169,
  "lat": 50.4331065,
  "lon": 8.6732939
},
{
  "type": "node",
  "id": 339607088,
  "lat": 50.4328917,
  "lon": 8.6735841
},
{
  "type": "node",
  "id": 339607089,
  "lat": 50.4329901,
  "lon": 8.6735779
},
{
  "type": "node",
  "id": 339607093,
  "lat": 50.4330576,
  "lon": 8.6735485
},
{
  "type": "node",
  "id": 339607094,
  "lat": 50.4330540,
  "lon": 8.6735211
},
{
  "type": "node",
  "id": 339607095,
  "lat": 50.4330984,
  "lon": 8.6735052
},
{
  "type": "node",
  "id": 339607096,
  "lat": 50.4331020,
  "lon": 8.6735322
},
{
  "type": "node",
  "id": 339607097,
  "lat": 50.4331301,
  "lon": 8.6735216
},
{
  "type": "node",
  "id": 4425537765,
  "lat": 50.4330829,
  "lon": 8.6735108
},
{
  "type": "node",
  "id": 5268844131,
  "lat": 50.4331267,
  "lon": 8.6732887
},
{
  "type": "node",
  "id": 5301297822,
  "lat": 50.4328908,
  "lon": 8.6738155
},
{
  "type": "node",
  "id": 5301297837,
  "lat": 50.4331432,
  "lon": 8.6736499
},
{
  "type": "node",
  "id": 5301297838,
  "lat": 50.4331401,
  "lon": 8.6736205
},
{
  "type": "node",
  "id": 5301297839,
  "lat": 50.4329733,
  "lon": 8.6736839
},
{
  "type": "node",
  "id": 5301297840,
  "lat": 50.4329686,
  "lon": 8.6738160
},
{
  "type": "node",
  "id": 295109171,
  "lat": 50.4332647,
  "lon": 8.6736178
},
{
  "type": "node",
  "id": 338759710,
  "lat": 50.4000559,
  "lon": 8.7473094
},
{
  "type": "node",
  "id": 338759768,
  "lat": 50.4001804,
  "lon": 8.7473921
},
{
  "type": "node",
  "id": 338759825,
  "lat": 50.4002199,
  "lon": 8.7474008
},
{
  "type": "node",
  "id": 338759849,
  "lat": 50.4003205,
  "lon": 8.7471530
},
{
  "type": "node",
  "id": 338759893,
  "lat": 50.4002475,
  "lon": 8.7470802
},
{
  "type": "node",
  "id": 338759906,
  "lat": 50.4001433,
  "lon": 8.7470226
},
{
  "type": "node",
  "id": 4514495232,
  "lat": 50.4762445,
  "lon": 8.6144976
},
{
  "type": "node",
  "id": 4514495235,
  "lat": 50.4762598,
  "lon": 8.6144871
},
{
  "type": "node",
  "id": 4514495240,
  "lat": 50.4762917,
  "lon": 8.6146673
},
{
  "type": "node",
  "id": 4514495251,
  "lat": 50.4763293,
  "lon": 8.6146416
},
{
  "type": "node",
  "id": 4514495257,
  "lat": 50.4763738,
  "lon": 8.6144692
},
{
  "type": "node",
  "id": 4514495261,
  "lat": 50.4764069,
  "lon": 8.6145883
},
{
  "type": "node",
  "id": 4514495270,
  "lat": 50.4764477,
  "lon": 8.6144185
},
{
  "type": "node",
  "id": 4514495274,
  "lat": 50.4764602,
  "lon": 8.6143497
},
{
  "type": "node",
  "id": 4514495277,
  "lat": 50.4764678,
  "lon": 8.6144910
},
{
  "type": "node",
  "id": 4514495284,
  "lat": 50.4765018,
  "lon": 8.6143211
},
{
  "type": "node",
  "id": 4514495294,
  "lat": 50.4765360,
  "lon": 8.6144442
},
{
  "type": "node",
  "id": 177139560,
  "lat": 50.5758141,
  "lon": 8.4238841
},
{
  "type": "node",
  "id": 177139563,
  "lat": 50.5749266,
  "lon": 8.4250993
},
{
  "type": "node",
  "id": 177139564,
  "lat": 50.5739324,
  "lon": 8.4246585
},
{
  "type": "node",
  "id": 177139567,
  "lat": 50.5752020,
  "lon": 8.4239531
},
{
  "type": "node",
  "id": 1032101403,
  "lat": 50.5746851,
  "lon": 8.4257089
},
{
  "type": "node",
  "id": 1543261898,
  "lat": 50.5749249,
  "lon": 8.4241197
},
{
  "type": "node",
  "id": 1543261901,
  "lat": 50.5747683,
  "lon": 8.4242340
},
{
  "type": "node",
  "id": 1813930685,
  "lat": 50.5750004,
  "lon": 8.4240577
},
{
  "type": "node",
  "id": 1813930686,
  "lat": 50.5750436,
  "lon": 8.4239513
},
{
  "type": "node",
  "id": 1813930690,
  "lat": 50.5751430,
  "lon": 8.4239405
},
{
  "type": "node",
  "id": 1813930697,
  "lat": 50.5753268,
  "lon": 8.4239218
},
{
  "type": "node",
  "id": 1813930707,
  "lat": 50.5754066,
  "lon": 8.4239320
},
{
  "type": "node",
  "id": 1813930710,
  "lat": 50.5755842,
  "lon": 8.4244042
},
{
  "type": "node",
  "id": 2637704053,
  "lat": 50.5749326,
  "lon": 8.4241418
},
{
  "type": "node",
  "id": 2637704054,
  "lat": 50.5749599,
  "lon": 8.4241217
},
{
  "type": "node",
  "id": 2637705746,
  "lat": 50.5754472,
  "lon": 8.4239019
},
{
  "type": "node",
  "id": 2637705747,
  "lat": 50.5754994,
  "lon": 8.4238707
},
{
  "type": "node",
  "id": 2637705749,
  "lat": 50.5756258,
  "lon": 8.4237787
},
{
  "type": "node",
  "id": 2637705750,
  "lat": 50.5756784,
  "lon": 8.4237472
},
{
  "type": "node",
  "id": 2637705751,
  "lat": 50.5757277,
  "lon": 8.4237367
},
{
  "type": "node",
  "id": 2637705752,
  "lat": 50.5757935,
  "lon": 8.4237284
},
{
  "type": "node",
  "id": 5773012106,
  "lat": 50.5742372,
  "lon": 8.4240981
},
{
  "type": "node",
  "id": 5773012107,
  "lat": 50.5741370,
  "lon": 8.4236796
},
{
  "type": "node",
  "id": 5773012108,
  "lat": 50.5742756,
  "lon": 8.4235565
},
{
  "type": "node",
  "id": 5773012109,
  "lat": 50.5745122,
  "lon": 8.4244177
},
{
  "type": "node",
  "id": 5773012110,
  "lat": 50.5751112,
  "lon": 8.4240186
},
{
  "type": "node",
  "id": 5862824739,
  "lat": 50.5748339,
  "lon": 8.4253535
},
{
  "type": "node",
  "id": 5862824740,
  "lat": 50.5748339,
  "lon": 8.4254111
},
{
  "type": "node",
  "id": 5862824741,
  "lat": 50.5748415,
  "lon": 8.4254862
},
{
  "type": "node",
  "id": 5862824742,
  "lat": 50.5748432,
  "lon": 8.4252730
},
{
  "type": "node",
  "id": 5862824743,
  "lat": 50.5748432,
  "lon": 8.4257330
},
{
  "type": "node",
  "id": 5862824744,
  "lat": 50.5748594,
  "lon": 8.4255573
},
{
  "type": "node",
  "id": 5862824745,
  "lat": 50.5748748,
  "lon": 8.4251872
},
{
  "type": "node",
  "id": 5862824746,
  "lat": 50.5748884,
  "lon": 8.4256110
},
{
  "type": "node",
  "id": 5862824747,
  "lat": 50.5750919,
  "lon": 8.4249203
},
{
  "type": "node",
  "id": 5862824748,
  "lat": 50.5751882,
  "lon": 8.4248009
},
{
  "type": "node",
  "id": 5862824749,
  "lat": 50.5754607,
  "lon": 8.4245676
},
{
  "type": "node",
  "id": 5862824750,
  "lat": 50.5755422,
  "lon": 8.4244820
},
{
  "type": "node",
  "id": 5862824751,
  "lat": 50.5757086,
  "lon": 8.4240700
},
{
  "type": "node",
  "id": 5862824753,
  "lat": 50.5757571,
  "lon": 8.4239681
},
{
  "type": "node",
  "id": 5862959807,
  "lat": 50.5739833,
  "lon": 8.4245654
},
{
  "type": "node",
  "id": 5862959809,
  "lat": 50.5740415,
  "lon": 8.4244582
},
{
  "type": "node",
  "id": 5862959829,
  "lat": 50.5753546,
  "lon": 8.4246585
},
{
  "type": "node",
  "id": 250546554,
  "lat": 50.5992874,
  "lon": 8.4174607
},
{
  "type": "node",
  "id": 250546555,
  "lat": 50.5994467,
  "lon": 8.4175261
},
{
  "type": "node",
  "id": 250546556,
  "lat": 50.5993930,
  "lon": 8.4178499
},
{
  "type": "node",
  "id": 250546557,
  "lat": 50.5992338,
  "lon": 8.4177844
},
{
  "type": "node",
  "id": 1490727206,
  "lat": 50.5864419,
  "lon": 8.5510036
},
{
  "type": "node",
  "id": 1490727229,
  "lat": 50.5864777,
  "lon": 8.5511254
},
{
  "type": "node",
  "id": 1490727244,
  "lat": 50.5865185,
  "lon": 8.5510927
},
{
  "type": "node",
  "id": 1490727247,
  "lat": 50.5865264,
  "lon": 8.5511175
},
{
  "type": "node",
  "id": 1490727255,
  "lat": 50.5865501,
  "lon": 8.5510701
},
{
  "type": "node",
  "id": 1490727257,
  "lat": 50.5865522,
  "lon": 8.5509212
},
{
  "type": "node",
  "id": 1490727259,
  "lat": 50.5865558,
  "lon": 8.5510927
},
{
  "type": "node",
  "id": 1490727264,
  "lat": 50.5865902,
  "lon": 8.5510385
},
{
  "type": "node",
  "id": 3991701003,
  "lat": 50.7193545,
  "lon": 8.4263794
},
{
  "type": "node",
  "id": 3991701004,
  "lat": 50.7194031,
  "lon": 8.4267059
},
{
  "type": "node",
  "id": 3991701005,
  "lat": 50.7193089,
  "lon": 8.4267443
},
{
  "type": "node",
  "id": 3991701006,
  "lat": 50.7192572,
  "lon": 8.4264034
},
{
  "type": "node",
  "id": 2877316171,
  "lat": 50.7650279,
  "lon": 8.4928147
},
{
  "type": "node",
  "id": 2877316173,
  "lat": 50.7650844,
  "lon": 8.4927382
},
{
  "type": "node",
  "id": 2877316174,
  "lat": 50.7650918,
  "lon": 8.4929329
},
{
  "type": "node",
  "id": 2877316175,
  "lat": 50.7651483,
  "lon": 8.4928564
},
{
  "type": "node",
  "id": 2831145885,
  "lat": 50.7516896,
  "lon": 8.4941398
},
{
  "type": "node",
  "id": 2831145887,
  "lat": 50.7517071,
  "lon": 8.4940909
},
{
  "type": "node",
  "id": 2831145889,
  "lat": 50.7517405,
  "lon": 8.4939979
},
{
  "type": "node",
  "id": 2831145890,
  "lat": 50.7517507,
  "lon": 8.4939692
},
{
  "type": "node",
  "id": 2831145891,
  "lat": 50.7517560,
  "lon": 8.4941993
},
{
  "type": "node",
  "id": 2831145892,
  "lat": 50.7518172,
  "lon": 8.4940287
},
{
  "type": "node",
  "id": 1639148818,
  "lat": 50.5806653,
  "lon": 8.6658194
},
{
  "type": "node",
  "id": 1639148823,
  "lat": 50.5807660,
  "lon": 8.6656183
},
{
  "type": "node",
  "id": 1639148828,
  "lat": 50.5807848,
  "lon": 8.6659678
},
{
  "type": "node",
  "id": 1639148831,
  "lat": 50.5808059,
  "lon": 8.6656679
},
{
  "type": "node",
  "id": 1639148835,
  "lat": 50.5808855,
  "lon": 8.6657667
},
{
  "type": "node",
  "id": 1639148838,
  "lat": 50.5808998,
  "lon": 8.6654823
},
{
  "type": "node",
  "id": 1639148841,
  "lat": 50.5809947,
  "lon": 8.6659037
},
{
  "type": "node",
  "id": 1639148844,
  "lat": 50.5810148,
  "lon": 8.6658636
},
{
  "type": "node",
  "id": 1639148848,
  "lat": 50.5810315,
  "lon": 8.6660038
},
{
  "type": "node",
  "id": 1639148851,
  "lat": 50.5809733,
  "lon": 8.6655338
},
{
  "type": "node",
  "id": 1639148854,
  "lat": 50.5809607,
  "lon": 8.6655587
},
{
  "type": "node",
  "id": 1639148858,
  "lat": 50.5810530,
  "lon": 8.6659110
},
{
  "type": "node",
  "id": 1639148862,
  "lat": 50.5810888,
  "lon": 8.6657177
},
{
  "type": "node",
  "id": 1639148867,
  "lat": 50.5810406,
  "lon": 8.6656183
},
{
  "type": "node",
  "id": 1639148871,
  "lat": 50.5811097,
  "lon": 8.6661009
},
{
  "type": "node",
  "id": 1639148874,
  "lat": 50.5811115,
  "lon": 8.6657941
},
{
  "type": "node",
  "id": 1639148879,
  "lat": 50.5811253,
  "lon": 8.6658113
},
{
  "type": "node",
  "id": 1639148885,
  "lat": 50.5812426,
  "lon": 8.6658355
},
{
  "type": "node",
  "id": 1705209096,
  "lat": 50.5810285,
  "lon": 8.6656421
},
{
  "type": "node",
  "id": 1705209104,
  "lat": 50.5810685,
  "lon": 8.6657579
},
{
  "type": "node",
  "id": 1705209106,
  "lat": 50.5810809,
  "lon": 8.6657733
},
{
  "type": "node",
  "id": 1705209111,
  "lat": 50.5811062,
  "lon": 8.6658047
},
{
  "type": "node",
  "id": 1705209124,
  "lat": 50.5811628,
  "lon": 8.6657364
},
{
  "type": "node",
  "id": 3677085147,
  "lat": 50.5810684,
  "lon": 8.6659301
},
{
  "type": "node",
  "id": 1703611079,
  "lat": 50.5871298,
  "lon": 8.6738259
},
{
  "type": "node",
  "id": 1703611097,
  "lat": 50.5871816,
  "lon": 8.6735994
},
{
  "type": "node",
  "id": 1703611104,
  "lat": 50.5872305,
  "lon": 8.6738826
},
{
  "type": "node",
  "id": 1703611124,
  "lat": 50.5872822,
  "lon": 8.6736561
},
{
  "type": "node",
  "id": 5409540656,
  "lat": 50.5872622,
  "lon": 8.6737439
},
{
  "type": "node",
  "id": 5409540657,
  "lat": 50.5872549,
  "lon": 8.6737758
},
{
  "type": "node",
  "id": 1388285277,
  "lat": 50.6372172,
  "lon": 8.6856951
},
{
  "type": "node",
  "id": 1388285328,
  "lat": 50.6373559,
  "lon": 8.6854925
},
{
  "type": "node",
  "id": 1388285330,
  "lat": 50.6374095,
  "lon": 8.6860222
},
{
  "type": "node",
  "id": 1388285336,
  "lat": 50.6375481,
  "lon": 8.6858196
},
{
  "type": "node",
  "id": 2126898534,
  "lat": 50.6372356,
  "lon": 8.6857264
},
{
  "type": "node",
  "id": 2126898535,
  "lat": 50.6372363,
  "lon": 8.6856672
},
{
  "type": "node",
  "id": 3679409728,
  "lat": 50.5776301,
  "lon": 8.7497891
},
{
  "type": "node",
  "id": 3679409737,
  "lat": 50.5776579,
  "lon": 8.7497111
},
{
  "type": "node",
  "id": 3679409784,
  "lat": 50.5777674,
  "lon": 8.7499102
},
{
  "type": "node",
  "id": 3679409797,
  "lat": 50.5777951,
  "lon": 8.7498322
},
{
  "type": "node",
  "id": 708251560,
  "lat": 50.6623882,
  "lon": 8.7271326
},
{
  "type": "node",
  "id": 708251582,
  "lat": 50.6625253,
  "lon": 8.7271758
},
{
  "type": "node",
  "id": 708251599,
  "lat": 50.6623709,
  "lon": 8.7272698
},
{
  "type": "node",
  "id": 708251606,
  "lat": 50.6625080,
  "lon": 8.7273130
},
{
  "type": "node",
  "id": 313527258,
  "lat": 50.7261096,
  "lon": 8.6450223
},
{
  "type": "node",
  "id": 3002966176,
  "lat": 50.7260138,
  "lon": 8.6450457
},
{
  "type": "node",
  "id": 3002966177,
  "lat": 50.7260500,
  "lon": 8.6451083
},
{
  "type": "node",
  "id": 3002966178,
  "lat": 50.7260733,
  "lon": 8.6449597
},
{
  "type": "node",
  "id": 6472211880,
  "lat": 50.7260289,
  "lon": 8.6450239
},
{
  "type": "node",
  "id": 6472211881,
  "lat": 50.7260244,
  "lon": 8.6450640
},
{
  "type": "node",
  "id": 1377726322,
  "lat": 50.7453575,
  "lon": 8.7331977
},
{
  "type": "node",
  "id": 3828359803,
  "lat": 50.7445784,
  "lon": 8.7325428
},
{
  "type": "node",
  "id": 3828359804,
  "lat": 50.7448533,
  "lon": 8.7316410
},
{
  "type": "node",
  "id": 3828359805,
  "lat": 50.7448694,
  "lon": 8.7315738
},
{
  "type": "node",
  "id": 3828359806,
  "lat": 50.7448982,
  "lon": 8.7314725
},
{
  "type": "node",
  "id": 3828359807,
  "lat": 50.7449511,
  "lon": 8.7314041
},
{
  "type": "node",
  "id": 3828359808,
  "lat": 50.7450208,
  "lon": 8.7313762
},
{
  "type": "node",
  "id": 3828359812,
  "lat": 50.7451323,
  "lon": 8.7314092
},
{
  "type": "node",
  "id": 3828359816,
  "lat": 50.7451884,
  "lon": 8.7314231
},
{
  "type": "node",
  "id": 3828359817,
  "lat": 50.7452180,
  "lon": 8.7330862
},
{
  "type": "node",
  "id": 3828359824,
  "lat": 50.7454982,
  "lon": 8.7334735
},
{
  "type": "node",
  "id": 3828359825,
  "lat": 50.7455082,
  "lon": 8.7334282
},
{
  "type": "node",
  "id": 3828359826,
  "lat": 50.7455175,
  "lon": 8.7335290
},
{
  "type": "node",
  "id": 3828359827,
  "lat": 50.7455226,
  "lon": 8.7333598
},
{
  "type": "node",
  "id": 3828359828,
  "lat": 50.7455526,
  "lon": 8.7336643
},
{
  "type": "node",
  "id": 3828359829,
  "lat": 50.7455968,
  "lon": 8.7338622
},
{
  "type": "node",
  "id": 3828359832,
  "lat": 50.7456921,
  "lon": 8.7342671
},
{
  "type": "node",
  "id": 3828359833,
  "lat": 50.7457096,
  "lon": 8.7343190
},
{
  "type": "node",
  "id": 3828359834,
  "lat": 50.7457436,
  "lon": 8.7343513
},
{
  "type": "node",
  "id": 3828359835,
  "lat": 50.7457533,
  "lon": 8.7343513
},
{
  "type": "node",
  "id": 3828359836,
  "lat": 50.7457895,
  "lon": 8.7343378
},
{
  "type": "node",
  "id": 3828359838,
  "lat": 50.7458332,
  "lon": 8.7343208
},
{
  "type": "node",
  "id": 3828359839,
  "lat": 50.7458456,
  "lon": 8.7343987
},
{
  "type": "node",
  "id": 3828359840,
  "lat": 50.7458547,
  "lon": 8.7343298
},
{
  "type": "node",
  "id": 3828359841,
  "lat": 50.7458587,
  "lon": 8.7343629
},
{
  "type": "node",
  "id": 3828359842,
  "lat": 50.7461632,
  "lon": 8.7342984
},
{
  "type": "node",
  "id": 3828359843,
  "lat": 50.7461880,
  "lon": 8.7342668
},
{
  "type": "node",
  "id": 3828359844,
  "lat": 50.7462193,
  "lon": 8.7341958
},
{
  "type": "node",
  "id": 3828359845,
  "lat": 50.7462481,
  "lon": 8.7341186
},
{
  "type": "node",
  "id": 3828359847,
  "lat": 50.7463387,
  "lon": 8.7340641
},
{
  "type": "node",
  "id": 3828359850,
  "lat": 50.7463788,
  "lon": 8.7340020
},
{
  "type": "node",
  "id": 3828359851,
  "lat": 50.7468966,
  "lon": 8.7331166
},
{
  "type": "node",
  "id": 3828359852,
  "lat": 50.7471963,
  "lon": 8.7325935
},
{
  "type": "node",
  "id": 3828359853,
  "lat": 50.7473278,
  "lon": 8.7323984
},
{
  "type": "node",
  "id": 3828359854,
  "lat": 50.7473598,
  "lon": 8.7323402
},
{
  "type": "node",
  "id": 3828359855,
  "lat": 50.7473758,
  "lon": 8.7322870
},
{
  "type": "node",
  "id": 3828359856,
  "lat": 50.7473919,
  "lon": 8.7322034
},
{
  "type": "node",
  "id": 3828379458,
  "lat": 50.7474111,
  "lon": 8.7320286
},
{
  "type": "node",
  "id": 1923403660,
  "lat": 50.3982874,
  "lon": 8.8165115
},
{
  "type": "node",
  "id": 1923403668,
  "lat": 50.3983344,
  "lon": 8.8163493
},
{
  "type": "node",
  "id": 1923403673,
  "lat": 50.3985251,
  "lon": 8.8166814
},
{
  "type": "node",
  "id": 1923403675,
  "lat": 50.3985722,
  "lon": 8.8165192
},
{
  "type": "node",
  "id": 1921784987,
  "lat": 50.4643096,
  "lon": 8.9190606
},
{
  "type": "node",
  "id": 1921784993,
  "lat": 50.4641771,
  "lon": 8.9189260
},
{
  "type": "node",
  "id": 1921784994,
  "lat": 50.4641315,
  "lon": 8.9190367
},
{
  "type": "node",
  "id": 1921785006,
  "lat": 50.4642641,
  "lon": 8.9191714
},
{
  "type": "node",
  "id": 2190227612,
  "lat": 50.4642147,
  "lon": 8.9191213
},
{
  "type": "node",
  "id": 813801007,
  "lat": 50.5408781,
  "lon": 8.9914343
},
{
  "type": "node",
  "id": 1427209729,
  "lat": 50.5409353,
  "lon": 8.9915181
},
{
  "type": "node",
  "id": 813766462,
  "lat": 50.5408039,
  "lon": 8.9915598
},
{
  "type": "node",
  "id": 813778218,
  "lat": 50.5410007,
  "lon": 8.9916139
},
{
  "type": "node",
  "id": 813804265,
  "lat": 50.5412967,
  "lon": 8.9930339
},
{
  "type": "node",
  "id": 813828753,
  "lat": 50.5413443,
  "lon": 8.9929070
},
{
  "type": "node",
  "id": 813834161,
  "lat": 50.5409264,
  "lon": 8.9917394
},
{
  "type": "node",
  "id": 861685149,
  "lat": 50.5411588,
  "lon": 8.9928890
},
{
  "type": "node",
  "id": 861685437,
  "lat": 50.5411932,
  "lon": 8.9927971
},
{
  "type": "node",
  "id": 1797565429,
  "lat": 50.5412386,
  "lon": 8.9928393
},
{
  "type": "node",
  "id": 1797565431,
  "lat": 50.5412470,
  "lon": 8.9928168
},
{
  "type": "node",
  "id": 2027143423,
  "lat": 50.5412049,
  "lon": 8.9929487
},
{
  "type": "node",
  "id": 2027143425,
  "lat": 50.5412096,
  "lon": 8.9929362
},
{
  "type": "node",
  "id": 1986185025,
  "lat": 50.5041024,
  "lon": 9.1260617
},
{
  "type": "node",
  "id": 1986185074,
  "lat": 50.5041780,
  "lon": 9.1261685
},
{
  "type": "node",
  "id": 1986185152,
  "lat": 50.5043091,
  "lon": 9.1257096
},
{
  "type": "node",
  "id": 1986185179,
  "lat": 50.5043574,
  "lon": 9.1258540
},
{
  "type": "node",
  "id": 1986185187,
  "lat": 50.5043714,
  "lon": 9.1258738
},
{
  "type": "node",
  "id": 1986185189,
  "lat": 50.5043814,
  "lon": 9.1258119
},
{
  "type": "node",
  "id": 4510119434,
  "lat": 50.5043824,
  "lon": 9.1263825
},
{
  "type": "node",
  "id": 4510119435,
  "lat": 50.5044314,
  "lon": 9.1263544
},
{
  "type": "node",
  "id": 4510119436,
  "lat": 50.5044792,
  "lon": 9.1262685
},
{
  "type": "node",
  "id": 4510119437,
  "lat": 50.5045022,
  "lon": 9.1261928
},
{
  "type": "node",
  "id": 4510119438,
  "lat": 50.5041781,
  "lon": 9.1261684
},
{
  "type": "node",
  "id": 4510119439,
  "lat": 50.5043235,
  "lon": 9.1259575
},
{
  "type": "node",
  "id": 4510119440,
  "lat": 50.5045074,
  "lon": 9.1260784
},
{
  "type": "node",
  "id": 4510119441,
  "lat": 50.5043323,
  "lon": 9.1263856
},
{
  "type": "node",
  "id": 2185293041,
  "lat": 50.5970685,
  "lon": 8.8342432
},
{
  "type": "node",
  "id": 2185293051,
  "lat": 50.5971151,
  "lon": 8.8341639
},
{
  "type": "node",
  "id": 2185293054,
  "lat": 50.5971475,
  "lon": 8.8342111
},
{
  "type": "node",
  "id": 2185293032,
  "lat": 50.5970494,
  "lon": 8.8343010
},
{
  "type": "node",
  "id": 2185293043,
  "lat": 50.5970737,
  "lon": 8.8343365
},
{
  "type": "node",
  "id": 2185293044,
  "lat": 50.5970765,
  "lon": 8.8342549
},
{
  "type": "node",
  "id": 1103652531,
  "lat": 50.5884991,
  "lon": 8.9622421
},
{
  "type": "node",
  "id": 1103652540,
  "lat": 50.5887745,
  "lon": 8.9625635
},
{
  "type": "node",
  "id": 1103652577,
  "lat": 50.5885787,
  "lon": 8.9621488
},
{
  "type": "node",
  "id": 1103652723,
  "lat": 50.5886948,
  "lon": 8.9626568
},
{
  "type": "node",
  "id": 1209790324,
  "lat": 50.5886499,
  "lon": 8.9622995
},
{
  "type": "node",
  "id": 1106823306,
  "lat": 50.6788782,
  "lon": 8.8224606
},
{
  "type": "node",
  "id": 1106823430,
  "lat": 50.6789425,
  "lon": 8.8224606
},
{
  "type": "node",
  "id": 1106823507,
  "lat": 50.6788782,
  "lon": 8.8222063
},
{
  "type": "node",
  "id": 1106823584,
  "lat": 50.6789425,
  "lon": 8.8222063
},
{
  "type": "node",
  "id": 1106854716,
  "lat": 50.6787828,
  "lon": 8.8220719
},
{
  "type": "node",
  "id": 1106854768,
  "lat": 50.6788345,
  "lon": 8.8222341
},
{
  "type": "node",
  "id": 1106854956,
  "lat": 50.6788324,
  "lon": 8.8220704
},
{
  "type": "node",
  "id": 4571915438,
  "lat": 50.6787818,
  "lon": 8.8222358
},
{
  "type": "node",
  "id": 4572193717,
  "lat": 50.6787822,
  "lon": 8.8221748
},
{
  "type": "node",
  "id": 3578282262,
  "lat": 50.7346134,
  "lon": 8.8171005
},
{
  "type": "node",
  "id": 3578282264,
  "lat": 50.7346531,
  "lon": 8.8171822
},
{
  "type": "node",
  "id": 3578282265,
  "lat": 50.7346858,
  "lon": 8.8172495
},
{
  "type": "node",
  "id": 3578282266,
  "lat": 50.7347988,
  "lon": 8.8168755
},
{
  "type": "node",
  "id": 3578282267,
  "lat": 50.7348712,
  "lon": 8.8170246
},
{
  "type": "node",
  "id": 969169332,
  "lat": 50.6468835,
  "lon": 9.0308885
},
{
  "type": "node",
  "id": 2445031820,
  "lat": 50.6468280,
  "lon": 9.0309346
},
{
  "type": "node",
  "id": 2445031827,
  "lat": 50.6468569,
  "lon": 9.0310209
},
{
  "type": "node",
  "id": 2445031836,
  "lat": 50.6469086,
  "lon": 9.0308677
},
{
  "type": "node",
  "id": 2445031838,
  "lat": 50.6469144,
  "lon": 9.0309731
},
{
  "type": "node",
  "id": 2445031846,
  "lat": 50.6469374,
  "lon": 9.0309540
},
{
  "type": "node",
  "id": 388382091,
  "lat": 50.8149616,
  "lon": 8.7709200
},
{
  "type": "node",
  "id": 388382092,
  "lat": 50.8150066,
  "lon": 8.7712106
},
{
  "type": "node",
  "id": 388382095,
  "lat": 50.8151055,
  "lon": 8.7708643
},
{
  "type": "node",
  "id": 388382096,
  "lat": 50.8151504,
  "lon": 8.7711549
},
{
  "type": "node",
  "id": 2355265811,
  "lat": 50.8149725,
  "lon": 8.7709904
},
{
  "type": "node",
  "id": 2355265814,
  "lat": 50.8149854,
  "lon": 8.7710733
},
{
  "type": "node",
  "id": 2355265817,
  "lat": 50.8149958,
  "lon": 8.7711409
},
{
  "type": "node",
  "id": 2284253571,
  "lat": 50.8675764,
  "lon": 8.7472348
},
{
  "type": "node",
  "id": 2284253572,
  "lat": 50.8676197,
  "lon": 8.7475420
},
{
  "type": "node",
  "id": 2284253573,
  "lat": 50.8676688,
  "lon": 8.7472021
},
{
  "type": "node",
  "id": 4145258337,
  "lat": 50.8677005,
  "lon": 8.7474266
},
{
  "type": "node",
  "id": 4145258339,
  "lat": 50.8677331,
  "lon": 8.7474150
},
{
  "type": "node",
  "id": 4145258340,
  "lat": 50.8677448,
  "lon": 8.7474977
},
{
  "type": "node",
  "id": 2119521865,
  "lat": 50.7975172,
  "lon": 8.9241035
},
{
  "type": "node",
  "id": 2119521871,
  "lat": 50.7975623,
  "lon": 8.9242205
},
{
  "type": "node",
  "id": 2119521876,
  "lat": 50.7977356,
  "lon": 8.9238926
},
{
  "type": "node",
  "id": 2119521879,
  "lat": 50.7977807,
  "lon": 8.9240096
},
{
  "type": "node",
  "id": 3704666907,
  "lat": 50.7976538,
  "lon": 8.9239716
},
{
  "type": "node",
  "id": 3704666908,
  "lat": 50.7975778,
  "lon": 8.9240450
}

  ]
}
