{
  "version": 0.6,
  "generator": "Overpass API 0.7.55.1011 6c2efc30",
  "osm3s": {
    "timestamp_osm_base": "2020-02-14T13:44:02Z",
    "copyright": "The data included in this document is from www.openstreetmap.org. The data is made available under ODbL."
  },
  "elements": [

{
  "type": "node",
  "id": 531507883,
  "lat": 38.3838785,
  "lon": -0.7672514,
  "tags": {
    "name": "Fundación Jorge Juan",
    "tourism": "museum"
  }
},
{
  "type": "node",
  "id": 1790366220,
  "lat": 38.6250916,
  "lon": -0.5736606,
  "tags": {
    "name": "Museu del Joguet",
    "tourism": "museum"
  }
},
{
  "type": "node",
  "id": 1802950121,
  "lat": 38.7045006,
  "lon": -0.9901317,
  "tags": {
    "name": "Centro de Interpretación Patrimonio",
    "tourism": "museum"
  }
},
{
  "type": "node",
  "id": 1846661636,
  "lat": 38.6286587,
  "lon": -0.6742604,
  "tags": {
    "name": "Casa de la Muñeca",
    "tourism": "museum",
    "wheelchair": "limited"
  }
},
{
  "type": "node",
  "id": 2318211088,
  "lat": 38.3870078,
  "lon": -0.7655191,
  "tags": {
    "addr:city": "Novelda",
    "addr:country": "ES",
    "addr:housenumber": "24",
    "addr:postcode": "03660",
    "addr:street": "calle Mayor",
    "name": "Casa Museo Modernista",
    "opening_hours": "Tu-Th 10:30-14:00, Sa 11:00-14:00",
    "tourism": "museum"
  }
},
{
  "type": "node",
  "id": 2896208024,
  "lat": 38.4848438,
  "lon": -0.7699434,
  "tags": {
    "name": "Museo arqueológico y etnológico Dámaso Navarro",
    "name:ca": "Museu arqueològic i etnològic Dámaso Navarro",
    "name:es": "Museo arqueológico y etnológico Dámaso Navarro",
    "tourism": "museum"
  }
},
{
  "type": "node",
  "id": 2956203723,
  "lat": 38.6248629,
  "lon": -0.5739317,
  "tags": {
    "name": "Museu de la Biodiversitat",
    "operator": "CIBIO",
    "tourism": "museum"
  }
},
{
  "type": "node",
  "id": 2956203737,
  "lat": 38.6276314,
  "lon": -0.5745497,
  "tags": {
    "name": "Museu de la Festa",
    "tourism": "museum"
  }
},
{
  "type": "node",
  "id": 4038829578,
  "lat": 38.7001563,
  "lon": -0.4737521,
  "tags": {
    "addr:city": "Alcoy",
    "addr:postcode": "03801",
    "addr:street": "Placeta del Carbo S/N",
    "name": "Museo Arqueologico",
    "phone": "+34 96 553 71 44",
    "tourism": "museum"
  }
},
{
  "type": "node",
  "id": 4038858015,
  "lat": 38.7005066,
  "lon": -0.4731824,
  "tags": {
    "addr:city": "Alcoi",
    "addr:housenumber": "60-62",
    "addr:postcode": "03801",
    "addr:street": "Carrer Sant Miquel",
    "name": "Museu Alcoià De La Festa",
    "phone": "+34 965 54 05 80",
    "tourism": "museum",
    "website": "www.associaciosantjordi.org",
    "wikidata": "Q41097834"
  }
},
{
  "type": "node",
  "id": 4166433290,
  "lat": 38.8705287,
  "lon": -1.0936669,
  "tags": {
    "addr:city": "Almansa",
    "addr:housenumber": "2",
    "addr:postcode": "02640",
    "addr:street": "Calle la Estrella",
    "name": "Museo Batalla de Almansa",
    "opening_hours": "Mo-Sa 10:00-14:00,17:00-19:00; Su 10:00-14:00",
    "phone": "+34 967 31 31 80",
    "tourism": "museum",
    "website": "https://www.1707.es/"
  }
},
{
  "type": "node",
  "id": 4979210120,
  "lat": 38.6650415,
  "lon": -0.5406482,
  "tags": {
    "tourism": "museum"
  }
},
{
  "type": "node",
  "id": 5456862078,
  "lat": 38.7155166,
  "lon": -0.6578404,
  "tags": {
    "name": "Museu Fester",
    "tourism": "museum"
  }
},
{
  "type": "node",
  "id": 5904430306,
  "lat": 38.4742956,
  "lon": -0.7926464,
  "tags": {
    "addr:city": "Elda",
    "addr:housenumber": "22",
    "addr:postcode": "03600",
    "addr:street": "calle de Eduardo Dato",
    "name": "Museo Etnológico de Elda",
    "tourism": "museum"
  }
},
{
  "type": "node",
  "id": 6468239640,
  "lat": 38.7207980,
  "lon": -0.6573207,
  "tags": {
    "historic": "yes",
    "name": "Museu Arqueològic Torre de la Font Bona",
    "tourism": "museum",
    "website": "http://www.banyeresdemariolaturisme.com/ca/museu-arqueologic-torre-font-bona.html",
    "wikidata": "Q5684741",
    "wikipedia": "es:Torre de la Font Bona"
  }
},
{
  "type": "node",
  "id": 6536569783,
  "lat": 38.6313315,
  "lon": -0.8631014,
  "tags": {
    "addr:street": "Plaza de Santiago",
    "email": "o@museovillena.com",
    "name": "Museo Arqueológico José María Soler",
    "opening_hours": "Tu-Su 10:00-14:00",
    "tourism": "museum",
    "website": "http://www.museovillena.com/",
    "wheelchair": "yes",
    "wikidata": "Q11694497",
    "wikipedia": "es:Museo Arqueológico Municipal de Villena"
  }
},
{
  "type": "node",
  "id": 6536647445,
  "lat": 38.6342396,
  "lon": -0.8641060,
  "tags": {
    "addr:housenumber": "34",
    "addr:street": "Calle Escultor Antonio Navarro Santafe",
    "name": "Museo Escultor Navarro Santafé",
    "tourism": "museum",
    "wheelchair": "yes"
  }
},
{
  "type": "node",
  "id": 6546991579,
  "lat": 38.4415715,
  "lon": -0.6401434,
  "tags": {
    "addr:housenumber": "11",
    "addr:street": "carrer Teuleria",
    "email": "museucantereria@agost.es",
    "name": "Museu de Cantareria",
    "name:ca": "Museu de Cantareria",
    "name:es": "Museo de Alfarería",
    "phone": "+34  965 69 11 99",
    "tourism": "museum",
    "website": "http://www.museoagost.com/cms/",
    "wikidata": "Q9047036",
    "wikipedia": "es:Museo de Alfarería (Agost)"
  }
},
{
  "type": "way",
  "id": 302751663,
  "nodes": [
    3070261867,
    3070261868,
    3070261869,
    3070261870,
    3070261867
  ],
  "tags": {
    "addr:city": "Alcoi",
    "addr:housenumber": "64",
    "addr:postcode": "03801",
    "addr:street": "Carrer Alcassares",
    "building": "yes",
    "name": "MuBoma",
    "tourism": "museum",
    "website": "https://www.muboma.com/index.html",
    "wikidata": "Q41171687",
    "wikipedia": "fr:Musée des Pompiers d'Alcoy"
  }
},
{
  "type": "way",
  "id": 356545301,
  "nodes": [
    3619525755,
    3619525756,
    3619525757,
    6101004377,
    6101004376,
    3619525758,
    3619525759,
    3619525760,
    3619525761,
    3619525762,
    3619525755
  ],
  "tags": {
    "building": "yes",
    "name": "Museo del Calzado",
    "tourism": "museum",
    "wikidata": "Q5406194"
  }
},
{
  "type": "way",
  "id": 566667918,
  "nodes": [
    5456550856,
    5456550855,
    5456550854,
    5456550858,
    5456550860,
    5456550856
  ],
  "tags": {
    "building": "yes",
    "name": "Museu Valencià del Paper",
    "name:ca": "Museu Valencià del Paper",
    "name:es": "Museo Valenciano del Papel",
    "tourism": "museum",
    "wikidata": "Q6033789",
    "wikipedia": "es:Museo Valenciano del Papel"
  }
},
{
  "type": "way",
  "id": 580206357,
  "nodes": [
    5554867706,
    5554867703,
    5554867702,
    5554867704,
    5554867705,
    5554867706
  ],
  "tags": {
    "building": "yes",
    "name": "Maova. Museu Adoveològic",
    "tourism": "museum",
    "website": "http://www.turismo.ontinyent.es/cast/museus/maova.htm"
  }
},
{
  "type": "way",
  "id": 696092482,
  "nodes": [
    6536589105,
    6536589106,
    6536589107,
    6536589108,
    6536589109,
    6536589110,
    6536589111,
    6707753844,
    6536589112,
    6536589113,
    6536589114,
    6536589115,
    6536589116,
    4270709128,
    6536589105
  ],
  "tags": {
    "addr:street": "Plaza de Santiago",
    "building": "yes",
    "name": "Museo Festero",
    "phone": "+34 965 34 33 05",
    "tourism": "museum",
    "wikidata": "Q6033364",
    "wikipedia": "es:Museo Festero"
  }
},
{
  "type": "way",
  "id": 739488887,
  "nodes": [
    6923984981,
    6923984987,
    6923984984,
    6923984983,
    6923984988,
    6923984989,
    6923984981
  ],
  "tags": {
    "building": "yes",
    "name": "Museo Arqueologig",
    "tourism": "museum"
  }
},
{
  "type": "way",
  "id": 770784544,
  "nodes": [
    7194593192,
    7194593193,
    7194593191,
    7194593190,
    7194593189,
    7194593194,
    7194593195,
    7194593196,
    7194593197,
    7194593198,
    7194593199,
    7194593200,
    7194593192
  ],
  "tags": {
    "building": "yes",
    "tourism": "museum"
  }
},
{
  "type": "relation",
  "id": 6583683,
  "members": [
    {
      "type": "way",
      "ref": 78426310,
      "role": "outer"
    },
    {
      "type": "way",
      "ref": 442217766,
      "role": "outer"
    }
  ],
  "tags": {
    "addr:city": "Aspe",
    "addr:housenumber": "40 - 42",
    "addr:postcode": "03680",
    "addr:street": "Avenida de la Constitución",
    "building": "yes",
    "name": "Casa del Cisco",
    "operator": "Ayuntamiento de Aspe",
    "tourism": "museum",
    "type": "multipolygon"
  }
},
{
  "type": "node",
  "id": 4270709128,
  "lat": 38.6312742,
  "lon": -0.8632616
},
{
  "type": "node",
  "id": 6536589105,
  "lat": 38.6312430,
  "lon": -0.8634507
},
{
  "type": "node",
  "id": 6536589106,
  "lat": 38.6311913,
  "lon": -0.8634355
},
{
  "type": "node",
  "id": 6536589107,
  "lat": 38.6311956,
  "lon": -0.8634204
},
{
  "type": "node",
  "id": 6536589108,
  "lat": 38.6310390,
  "lon": -0.8633625
},
{
  "type": "node",
  "id": 6536589109,
  "lat": 38.6310658,
  "lon": -0.8632309
},
{
  "type": "node",
  "id": 6536589110,
  "lat": 38.6310860,
  "lon": -0.8632417
},
{
  "type": "node",
  "id": 6536589111,
  "lat": 38.6310874,
  "lon": -0.8632287
},
{
  "type": "node",
  "id": 6536589112,
  "lat": 38.6311696,
  "lon": -0.8632583
},
{
  "type": "node",
  "id": 6536589113,
  "lat": 38.6311687,
  "lon": -0.8632624
},
{
  "type": "node",
  "id": 6536589114,
  "lat": 38.6312133,
  "lon": -0.8632746
},
{
  "type": "node",
  "id": 6536589115,
  "lat": 38.6312220,
  "lon": -0.8632328
},
{
  "type": "node",
  "id": 6536589116,
  "lat": 38.6312796,
  "lon": -0.8632435
},
{
  "type": "node",
  "id": 6707753844,
  "lat": 38.6311101,
  "lon": -0.8632369
},
{
  "type": "node",
  "id": 7194593189,
  "lat": 38.8705368,
  "lon": -1.0935827
},
{
  "type": "node",
  "id": 7194593190,
  "lat": 38.8705561,
  "lon": -1.0935724
},
{
  "type": "node",
  "id": 7194593191,
  "lat": 38.8705535,
  "lon": -1.0935607
},
{
  "type": "node",
  "id": 7194593192,
  "lat": 38.8706890,
  "lon": -1.0935500
},
{
  "type": "node",
  "id": 7194593193,
  "lat": 38.8706731,
  "lon": -1.0934997
},
{
  "type": "node",
  "id": 7194593194,
  "lat": 38.8705470,
  "lon": -1.0936070
},
{
  "type": "node",
  "id": 7194593195,
  "lat": 38.8705239,
  "lon": -1.0936197
},
{
  "type": "node",
  "id": 7194593196,
  "lat": 38.8705204,
  "lon": -1.0936095
},
{
  "type": "node",
  "id": 7194593197,
  "lat": 38.8704886,
  "lon": -1.0936261
},
{
  "type": "node",
  "id": 7194593198,
  "lat": 38.8705307,
  "lon": -1.0937255
},
{
  "type": "node",
  "id": 7194593199,
  "lat": 38.8706275,
  "lon": -1.0936636
},
{
  "type": "node",
  "id": 7194593200,
  "lat": 38.8706039,
  "lon": -1.0935861
},
{
  "type": "node",
  "id": 920387560,
  "lat": 38.3476587,
  "lon": -0.7691010
},
{
  "type": "node",
  "id": 920387614,
  "lat": 38.3477079,
  "lon": -0.7689254
},
{
  "type": "node",
  "id": 920387642,
  "lat": 38.3476736,
  "lon": -0.7690216
},
{
  "type": "node",
  "id": 920387646,
  "lat": 38.3477912,
  "lon": -0.7691603
},
{
  "type": "node",
  "id": 920387658,
  "lat": 38.3476815,
  "lon": -0.7690294
},
{
  "type": "node",
  "id": 920387660,
  "lat": 38.3478140,
  "lon": -0.7690843
},
{
  "type": "node",
  "id": 920387668,
  "lat": 38.3478684,
  "lon": -0.7691089
},
{
  "type": "node",
  "id": 920387683,
  "lat": 38.3479062,
  "lon": -0.7691268
},
{
  "type": "node",
  "id": 920387692,
  "lat": 38.3479404,
  "lon": -0.7690697
},
{
  "type": "node",
  "id": 920387697,
  "lat": 38.3479044,
  "lon": -0.7690574
},
{
  "type": "node",
  "id": 920387710,
  "lat": 38.3479088,
  "lon": -0.7690350
},
{
  "type": "node",
  "id": 4399071293,
  "lat": 38.3478732,
  "lon": -0.7684920
},
{
  "type": "node",
  "id": 4399071294,
  "lat": 38.3478447,
  "lon": -0.7689917
},
{
  "type": "node",
  "id": 4399071295,
  "lat": 38.3478572,
  "lon": -0.7689486
},
{
  "type": "node",
  "id": 4399071296,
  "lat": 38.3478761,
  "lon": -0.7688802
},
{
  "type": "node",
  "id": 4399071297,
  "lat": 38.3480363,
  "lon": -0.7686607
},
{
  "type": "node",
  "id": 3619525755,
  "lat": 38.4738902,
  "lon": -0.7956106
},
{
  "type": "node",
  "id": 3619525756,
  "lat": 38.4741062,
  "lon": -0.7954113
},
{
  "type": "node",
  "id": 3619525757,
  "lat": 38.4739595,
  "lon": -0.7950838
},
{
  "type": "node",
  "id": 3619525758,
  "lat": 38.4737374,
  "lon": -0.7952682
},
{
  "type": "node",
  "id": 3619525759,
  "lat": 38.4736913,
  "lon": -0.7953077
},
{
  "type": "node",
  "id": 3619525760,
  "lat": 38.4735155,
  "lon": -0.7949856
},
{
  "type": "node",
  "id": 3619525761,
  "lat": 38.4733404,
  "lon": -0.7951306
},
{
  "type": "node",
  "id": 3619525762,
  "lat": 38.4735692,
  "lon": -0.7955432
},
{
  "type": "node",
  "id": 6101004376,
  "lat": 38.4738411,
  "lon": -0.7952113
},
{
  "type": "node",
  "id": 6101004377,
  "lat": 38.4738911,
  "lon": -0.7951557
},
{
  "type": "node",
  "id": 5456550854,
  "lat": 38.7221725,
  "lon": -0.6555722
},
{
  "type": "node",
  "id": 5456550855,
  "lat": 38.7222241,
  "lon": -0.6556678
},
{
  "type": "node",
  "id": 5456550856,
  "lat": 38.7222723,
  "lon": -0.6557569
},
{
  "type": "node",
  "id": 5456550858,
  "lat": 38.7223185,
  "lon": -0.6554655
},
{
  "type": "node",
  "id": 5456550860,
  "lat": 38.7224054,
  "lon": -0.6556503
},
{
  "type": "node",
  "id": 3070261867,
  "lat": 38.7033741,
  "lon": -0.4712895
},
{
  "type": "node",
  "id": 3070261868,
  "lat": 38.7033153,
  "lon": -0.4717482
},
{
  "type": "node",
  "id": 3070261869,
  "lat": 38.7031690,
  "lon": -0.4717131
},
{
  "type": "node",
  "id": 3070261870,
  "lat": 38.7032447,
  "lon": -0.4712510
},
{
  "type": "node",
  "id": 6923984981,
  "lat": 38.8948960,
  "lon": -0.6925433
},
{
  "type": "node",
  "id": 6923984983,
  "lat": 38.8947052,
  "lon": -0.6924933
},
{
  "type": "node",
  "id": 6923984984,
  "lat": 38.8948203,
  "lon": -0.6925229
},
{
  "type": "node",
  "id": 6923984987,
  "lat": 38.8948691,
  "lon": -0.6925356
},
{
  "type": "node",
  "id": 6923984988,
  "lat": 38.8946851,
  "lon": -0.6926049
},
{
  "type": "node",
  "id": 6923984989,
  "lat": 38.8948729,
  "lon": -0.6926599
},
{
  "type": "node",
  "id": 5554867702,
  "lat": 38.8208737,
  "lon": -0.6100499
},
{
  "type": "node",
  "id": 5554867703,
  "lat": 38.8209212,
  "lon": -0.6100841
},
{
  "type": "node",
  "id": 5554867704,
  "lat": 38.8208219,
  "lon": -0.6100104
},
{
  "type": "node",
  "id": 5554867705,
  "lat": 38.8207332,
  "lon": -0.6101932
},
{
  "type": "node",
  "id": 5554867706,
  "lat": 38.8208388,
  "lon": -0.6102709
},
{
  "type": "way",
  "id": 78426310,
  "nodes": [
    920387710,
    920387697,
    920387692,
    920387683,
    920387668,
    920387660,
    920387646,
    920387560,
    920387658,
    920387642,
    920387614
  ]
},
{
  "type": "way",
  "id": 442217766,
  "nodes": [
    920387614,
    4399071293,
    4399071297,
    4399071296,
    4399071295,
    4399071294,
    920387710
  ]
}

  ]
}
