{
  "version": 0.6,
  "generator": "Overpass API 0.7.55.9 ab41fea6",
  "osm3s": {
    "timestamp_osm_base": "2020-02-14T18:46:02Z",
    "copyright": "The data included in this document is from www.openstreetmap.org. The data is made available under ODbL."
  },
  "elements": [

{
  "type": "node",
  "id": 373956602,
  "lat": 54.8664246,
  "lon": 24.2011716,
  "tags": {
    "addr:city": "Rumšiškės",
    "addr:housenumber": "2",
    "addr:street": "J. Lekavičiaus g.",
    "email": "direktorius@llbm.lt",
    "museum_type": "republican",
    "name": "Lietuvos liaudies buities muziejus",
    "name:de": "Litauisches Freilichtmuseum",
    "name:fi": "Liettuan kansatieteellinen museo",
    "name:lt": "Lietuvos liaudies buities muziejus",
    "phone": "+370 346 47 233",
    "tourism": "museum",
    "website": "http://www.llbm.lt",
    "wikidata": "Q11875746",
    "wikipedia": "lt:Lietuvos liaudies buities muziejus"
  }
},
{
  "type": "node",
  "id": 664143453,
  "lat": 54.8926339,
  "lon": 23.9330585,
  "tags": {
    "addr:city": "Kaunas",
    "addr:housenumber": "30",
    "addr:street": "Vaižganto g.",
    "name": "Sugiharos Namai",
    "name:en": "House of Chiune Sugihara",
    "name:lt": "Sugiharos Namai",
    "opening_hours": "Mo-Fr 11:00-15:00",
    "tourism": "museum",
    "website": "http://www.sugiharahouse.com/lt",
    "wikidata": "Q161381",
    "wikipedia": "en:Chiune Sugihara"
  }
},
{
  "type": "node",
  "id": 762716437,
  "lat": 54.6321955,
  "lon": 23.9452478,
  "tags": {
    "addr:city": "Prienai",
    "addr:housenumber": "13",
    "addr:postcode": "59118",
    "addr:street": "F. Martišiaus g.",
    "email": "muziejuspr@yahoo.com",
    "museum_type": "municipal",
    "name": "Prienų krašto muziejus",
    "name:en": "The Museum of Prienai Region",
    "name:lt": "Prienų krašto muziejus",
    "opening_hours": "Tu-Fr 09:00-18:00; Sa 10:00-16:00",
    "phone": "+370 319 60 379",
    "tourism": "museum",
    "website": "http://www.prienumuziejus.lt"
  }
},
{
  "type": "node",
  "id": 1456942017,
  "lat": 54.9002641,
  "lon": 23.9120190,
  "tags": {
    "addr:city": "Kaunas",
    "addr:housenumber": "55",
    "addr:postcode": "44248",
    "addr:street": "V. Putvinskio g.",
    "email": "info@smic.lt",
    "museum_type": "national",
    "name": "Nacionalinis M. K. Čiurlionio dailės muziejus",
    "name:de": "Nationales Mikalojus-Konstantinas-Čiurlionis-Kunstmuseum",
    "name:en": "M. K. Čiurlionis National Art Museum",
    "name:es": "Museo Nacional de Arte Mikalojus Konstantinas Čiurlionis",
    "name:ja": "国立チュルリョーニス美術館",
    "name:lt": "Nacionalinis M. K. Čiurlionio dailės muziejus",
    "official_name": "Nacionalinis Mikalojaus Konstantino Čiurlionio dailės muziejus",
    "opening_hours": "Tu-Su 11:00-17:00",
    "phone": "+370 37 229 475",
    "tourism": "museum",
    "website": "http://www.ciurlionis.lt",
    "wikidata": "Q4381425",
    "wikipedia": "lt:Nacionalinis Mikalojaus Konstantino Čiurlionio dailės muziejus"
  }
},
{
  "type": "node",
  "id": 1890213866,
  "lat": 54.8779682,
  "lon": 23.8904064,
  "tags": {
    "addr:city": "Kaunas",
    "addr:housenumber": "132A",
    "addr:street": "Veiverių g.",
    "email": "aviacijos.muziejus@gmail.com",
    "image": "http://www.lam.lt/public/Ekspozicija/LAM-nuo-bokst-max.jpg",
    "museum_type": "republican",
    "name": "Lietuvos aviacijos muziejus",
    "name:en": "Museum of Aviation",
    "name:lt": "Lietuvos aviacijos muziejus",
    "opening_hours": "Mo-Fr 09:00-17:00",
    "phone": "+370 37 295 547",
    "tourism": "museum",
    "website": "http://www.lam.lt/lt/naujienos.html",
    "wikidata": "Q6648354",
    "wikipedia": "lt:Lietuvos aviacijos muziejus"
  }
},
{
  "type": "node",
  "id": 1989579739,
  "lat": 54.8947913,
  "lon": 23.9254296,
  "tags": {
    "addr:city": "Kaunas",
    "addr:housenumber": "52",
    "addr:postcode": "44237",
    "addr:street": "Vytauto pr.",
    "email": "administracija@lsim.lt",
    "museum_type": "republican",
    "name": "Lietuvos švietimo istorijos muziejus",
    "opening_hours": "Mo-Th 10:00-17:00; Fr 10:00-15:45",
    "phone": "+370 37 206 210",
    "tourism": "museum",
    "website": "https://www.lsim.lt/lt/"
  }
},
{
  "type": "node",
  "id": 2250597555,
  "lat": 54.7489616,
  "lon": 23.5103268,
  "tags": {
    "alt_name": "Informacinis centras (miško muziejus)",
    "description": "Centre kaupiama informacija miškininkystės klausimais, su ja supažindinama visuomenė. Eksponatai byloja apie įmonės veiklą ir istoriją, gamtos turtus, fauną ir florą, įmonės kultūrinį gyvenimą, miškininkus.",
    "name": "Kazlų Rūdos miško muziejus",
    "tourism": "museum"
  }
},
{
  "type": "node",
  "id": 2681231799,
  "lat": 54.8896468,
  "lon": 23.9317098,
  "tags": {
    "addr:city": "Kaunas",
    "addr:housenumber": "7",
    "addr:postcode": "44328",
    "addr:street": "K. Būgos g.",
    "email": "muziejus@stumbras.lt",
    "museum_type": "departmental",
    "name": "Stumbro muziejus",
    "name:en": "Stumbras Museum",
    "name:lt": "Stumbro muziejus",
    "phone": "+370 686 94 388",
    "tourism": "museum",
    "website": "http://www.stumbras.eu"
  }
},
{
  "type": "node",
  "id": 2853881894,
  "lat": 54.8967573,
  "lon": 23.8859219,
  "tags": {
    "addr:city": "Kaunas",
    "addr:housenumber": "15",
    "addr:postcode": "44279",
    "addr:street": "Rotušės a.",
    "email": "keramikos.muziejus@gmail.com",
    "museum_type": "national",
    "name": "Keramikos muziejus",
    "name:en": "Museum of Ceramics",
    "name:lt": "Keramikos muziejus",
    "name:ru": "Музей керамики",
    "name:uk": "Музей кераміки",
    "opening_hours": "Tu-Su 11:00-17:00; Th 11:00-19:00",
    "phone": "+370 37 203572",
    "tourism": "museum",
    "website": "https://www.muziejai.lt/kaunas/keramikos_muziejus.htm"
  }
},
{
  "type": "node",
  "id": 3073251171,
  "lat": 54.8950799,
  "lon": 23.8861388,
  "tags": {
    "addr:city": "Kaunas",
    "addr:housenumber": "10",
    "addr:street": "Aleksoto g.",
    "name": "J. Tumo-Vaižganto memorialinis butas - muziejus",
    "tourism": "museum"
  }
},
{
  "type": "node",
  "id": 3073251172,
  "lat": 54.8967816,
  "lon": 23.8947853,
  "tags": {
    "addr:city": "Kaunas",
    "addr:housenumber": "29",
    "addr:postcode": "44286",
    "addr:street": "Vilniaus g.",
    "email": "bmskyrius@gmail.com",
    "museum_type": "departmental",
    "name": "Kauno arkivyskupijos muziejus",
    "official_name": "Bažnytinio meno skyrius",
    "opening_hours": "Tu-Fr 10:00-17:00; Sa 10:00-16:00",
    "phone": "+370 37 320 461",
    "tourism": "museum",
    "website": "https://www.muziejai.lt/Kaunas/kauno_arkivyskupijos_muziejus.htm"
  }
},
{
  "type": "node",
  "id": 3226627467,
  "lat": 54.8988787,
  "lon": 23.8853669,
  "tags": {
    "addr:city": "Kaunas",
    "addr:housenumber": "17",
    "addr:postcode": "44322",
    "addr:street": "Pilies g.",
    "email": "kaunopilis@kaunomuziejus.lt",
    "museum_type": "municipal",
    "name": "Kauno pilies muziejus",
    "name:lt": "Kauno pilies muziejus",
    "name:uk": "Музей Каунаського замку",
    "official_name": "Kauno pilis",
    "opening_hours": "Tu-Fr 10:00-18:00; Sa 10:00-17:00",
    "phone": "+370 37 300 672",
    "tourism": "museum",
    "website": "http://www.kaunomuziejus.lt/apie-kauno-pili/"
  }
},
{
  "type": "node",
  "id": 3238001318,
  "lat": 54.8984466,
  "lon": 23.9134425,
  "tags": {
    "name": "Prezidento Valdo Adamkaus biblioteka-muziejus",
    "tourism": "museum"
  }
},
{
  "type": "node",
  "id": 3298337941,
  "lat": 54.9008731,
  "lon": 23.9107391,
  "tags": {
    "addr:city": "Kaunas",
    "addr:contact": "yes",
    "addr:housenumber": "64",
    "addr:postcode": "44211",
    "addr:street": "V. Putvinskio g.",
    "alt_name": "Velnių muziejus",
    "email": "mkc.velniai@takas.lt",
    "museum_type": "national",
    "name": "A. Žmuidzinavičiaus kūrinių ir rinkinių muziejus",
    "name:en": "Devil's Museum",
    "name:lt": "A. Žmuidzinavičiaus kūrinių ir rinkinių muziejus",
    "name:uk": "Меморіальний музей А. Жмуйдзінавічюса",
    "opening_hours": "Tu-Su 11:00-17:00; Th 11:00-19:00",
    "phone": "+370 37 22 15 87",
    "tourism": "museum",
    "website": "https://www.muziejai.lt/kaunas/zmuidz_muziejus.htm"
  }
},
{
  "type": "node",
  "id": 3298337942,
  "lat": 54.9008806,
  "lon": 23.9105648,
  "tags": {
    "addr:city": "Kaunas",
    "addr:contact": "yes",
    "addr:housenumber": "64",
    "addr:postcode": "44211",
    "addr:street": "V. Putvinskio g.",
    "email": "mkc.velniai@takas.lt",
    "museum_type": "national",
    "name": "Velnių muziejus",
    "name:af": "Duiwelsmuseum",
    "name:de": "Teufelsmuseum",
    "name:en": "Museum of Devils",
    "name:et": "Kuradimuuseum",
    "name:fi": "Paholaismuseo",
    "name:ja": "悪魔博物館",
    "name:lt": "Velnių muziejus",
    "name:ru": "Музей чертей",
    "name:uk": "Музей чортів",
    "opening_hours": "Tu-Su 11:00-17:00; Th 11:00-19:00",
    "phone": "+370 37 221 587",
    "tourism": "museum",
    "website": "https://www.muziejai.lt/kaunas/Velniu_muziejus.htm",
    "wikidata": "Q2305235",
    "wikipedia": "lt:Velnių muziejus"
  }
},
{
  "type": "node",
  "id": 3348354856,
  "lat": 54.9099650,
  "lon": 23.9263140,
  "tags": {
    "addr:city": "Kaunas",
    "addr:housenumber": "93",
    "addr:postcode": "50176",
    "addr:street": "Kalniečių g.",
    "museum_type": "republican",
    "name": "Juozo Grušo memorialinis muziejus",
    "opening_hours": "Tu-Sa 9:00-17:00",
    "phone": "+370 37 330 860",
    "tourism": "museum",
    "website": "https://www.muziejai.lt/kaunas/gruso_muz.htm"
  }
},
{
  "type": "node",
  "id": 3406893022,
  "lat": 54.8668370,
  "lon": 24.2212840,
  "tags": {
    "addr:city": "Rumšiškės",
    "addr:housenumber": "1",
    "addr:postcode": "56335",
    "addr:street": "J. Aisčio g.",
    "email": "verdasa@takas.lt",
    "museum_type": "municipal",
    "name": "Kaišiadorių muziejaus Jono Aisčio skyrius",
    "opening_hours": "Mo-Fr 8:00-17:00",
    "phone": "+370 346 47 611",
    "tourism": "museum",
    "website": "https://www.muziejai.lt/Kaisiadorys/Rumsiskiu_muziejus.htm"
  }
},
{
  "type": "node",
  "id": 3408548972,
  "lat": 54.9432994,
  "lon": 23.7844573,
  "tags": {
    "addr:city": "Raudondvaris",
    "addr:housenumber": "1",
    "addr:postcode": "54127",
    "addr:street": "Pilies takas",
    "email": "krmuziejus@gmail.com",
    "museum_type": "municipal",
    "name": "Kauno rajono muziejus",
    "opening_hours": "Tu-Sa 9:00-17:00",
    "phone": "+370 37 449 601",
    "tourism": "museum",
    "website": "http://www.muziejai.lt/kaunas/kauno_rajono_muziejus.htm"
  }
},
{
  "type": "node",
  "id": 3447076321,
  "lat": 54.8963390,
  "lon": 23.8854240,
  "tags": {
    "addr:city": "Kaunas",
    "addr:housenumber": "10",
    "addr:postcode": "44280",
    "addr:street": "Rotušės a.",
    "museum_type": "republican",
    "name": "Juozo Tumo-Vaižganto memorialinis muziejus",
    "opening_hours": "Tu-Sa 9:00-17:00",
    "phone": "+370 37 222 371",
    "tourism": "museum",
    "website": "https://www.muziejai.lt/kaunas/vaizganto_muz.htm"
  }
},
{
  "type": "node",
  "id": 3448524346,
  "lat": 55.0377020,
  "lon": 23.5837920,
  "tags": {
    "addr:city": "Vilkija",
    "addr:housenumber": "2",
    "addr:postcode": "54228",
    "addr:street": "Kauno Mažoji g.",
    "email": "ajjekm@gmail.com",
    "museum_type": "municipal",
    "name": "A. ir J. Juškų etninės kultūros muziejus",
    "official_name": "A. ir J. Juškų etninės kultūros ekspozicija",
    "opening_hours": "Tu-Sa 8:00-17:00",
    "phone": "+370 37 556 400",
    "tourism": "museum",
    "website": "https://www.muziejai.lt/kaunas/Jusku_muziejus.htm"
  }
},
{
  "type": "node",
  "id": 3448536263,
  "lat": 55.0731226,
  "lon": 24.2793596,
  "tags": {
    "addr:city": "Jonava",
    "addr:contact": "yes",
    "addr:housenumber": "3",
    "addr:street": "J. Basanavičiaus g.",
    "description": "Paskutinė mėnesio darbo diena – švaros diena (lankytojai neaptarnaujami)",
    "email": "muziejus.jonava@takas.lt",
    "museum_type": "municipal",
    "name": "Jonavos krašto muziejus",
    "opening_hours": "Tu-Fr 10:00-16:45; Sa 10:00-14:00",
    "phone": "+370 349 52 335",
    "tourism": "museum",
    "website": "https://www.muziejai.lt/Jonava/jonavos_muziejus.htm",
    "wheelchair": "limited"
  }
},
{
  "type": "node",
  "id": 3448544839,
  "lat": 55.0874130,
  "lon": 23.7954680,
  "tags": {
    "addr:city": "Babtai",
    "addr:housenumber": "3",
    "addr:street": "Nevėžio g.",
    "email": "krmbabtai@gmail.com",
    "museum_type": "municipal",
    "name": "Babtų kraštotyros ekspozicija",
    "opening_hours": "Mo-Th 8:00-17:00; Fr 8:00-15:45",
    "phone": "+370 37 555 423",
    "tourism": "museum",
    "website": "https://www.muziejai.lt/kaunas/babtu_muz.htm"
  }
},
{
  "type": "node",
  "id": 3459067872,
  "lat": 54.6046160,
  "lon": 24.0325020,
  "tags": {
    "addr:city": "Birštonas",
    "addr:housenumber": "9",
    "addr:postcode": "59211",
    "addr:street": "Vytauto g.",
    "description": "Pirmadieniais, antradieniais - iš anksto susitarus.",
    "email": "muziejus@birstonas.lt",
    "museum_type": "municipal",
    "name": "Birštono muziejus",
    "opening_hours": "Sep 16 - May 14 We-Su 10:00-17:00; May 15 - Sep 15 We-Su 10:00-18:00",
    "phone": "+370 319 65 605",
    "toilets:wheelchair": "no",
    "tourism": "museum",
    "website": "http://www.birstonomuziejus.lt",
    "wheelchair": "no"
  }
},
{
  "type": "node",
  "id": 3488363285,
  "lat": 54.7664191,
  "lon": 23.7267405,
  "tags": {
    "addr:city": "Veiveriai",
    "addr:housenumber": "54",
    "addr:postcode": "59292",
    "addr:street": "Kauno g.",
    "description": "muziejus lankomas iš anksto susitarus tel. 8 644 61 951",
    "museum_type": "municipal",
    "name": "Veiverių krašto istorijos atminties muziejus, Partizano Juozo Lukšos-Daumanto ekspozicija",
    "phone": "+370 644 61 951",
    "tourism": "museum",
    "website": "https://www.muziejai.lt/prienai/veiveriu_muz.htm"
  }
},
{
  "type": "node",
  "id": 3496906483,
  "lat": 55.0446651,
  "lon": 24.2573112,
  "tags": {
    "description": "Dėl muziejaus lankymo reikia tartis telefonu",
    "image": "https://jonavosmuziejus.lt/wp-content/uploads/2014/11/DSC00234-1024x680.jpg",
    "museum_type": "municipal",
    "name": "Tautodailės ir amatų centras",
    "phone": "+370 349 52335",
    "tourism": "museum",
    "website": "http://jonavosmuziejus.lt/filialai/tautodailes-ir-amatu-centras/"
  }
},
{
  "type": "node",
  "id": 3512306607,
  "lat": 54.8976320,
  "lon": 23.8885790,
  "tags": {
    "addr:city": "Kaunas",
    "addr:housenumber": "6",
    "addr:postcode": "44279",
    "addr:street": "M. Valančiaus g.",
    "email": "muziejus@kn.lcn.lt",
    "museum_type": "departmental",
    "name": "Kauno arkivyskupijos muziejus. Kardinolo V. Sladkevičiaus memorialinis butas-muziejus",
    "name:lt": "Kauno arkivyskupijos muziejus. Kardinolo V. Sladkevičiaus memorialinis butas-muziejus",
    "name:uk": "Каунаскій митрополія-музей. Квартира-музей кардиналу В. Сладкевічяус",
    "opening_hours": "Tu-Fr 10:00-17:00; Sa 10:00-16:00",
    "phone": "+370 37 322 584",
    "tourism": "museum",
    "website": "https://www.muziejai.lt/Kaunas/kauno_arkivyskupijos_muziejus.htm"
  }
},
{
  "type": "node",
  "id": 3512343793,
  "lat": 54.8939390,
  "lon": 23.8354630,
  "tags": {
    "addr:city": "Akademija",
    "addr:housenumber": "11",
    "addr:postcode": "53361",
    "addr:street": "Studentų g.",
    "email": "muziejus@asu.lt",
    "museum_type": "departmental",
    "name": "Aleksandro Stulginskio universiteto muziejus",
    "phone": "+370 37 788 112",
    "tourism": "museum",
    "website": "http://asu.lt/universitetas-2/faktai-ir-pasiekimai/muziejus/"
  }
},
{
  "type": "node",
  "id": 3529939317,
  "lat": 54.8988980,
  "lon": 23.9092950,
  "tags": {
    "addr:city": "Kaunas",
    "addr:housenumber": "25",
    "addr:postcode": "44250",
    "addr:street": "Maironio g.",
    "email": "rkupraitiene@kaunas.lb.lt",
    "museum_type": "departmental",
    "name": "Lietuvos banko ir pinigų istorijos ekspozicija Kaune",
    "opening_hours": "We-Th 9:00-14:30",
    "phone": "+370 37 490 615",
    "tourism": "museum",
    "website": "https://www.muziejai.lt/kaunas/banko_muz.htm"
  }
},
{
  "type": "node",
  "id": 3571601994,
  "lat": 54.8970850,
  "lon": 23.9073560,
  "tags": {
    "addr:city": "Kaunas",
    "addr:housenumber": "87A",
    "addr:postcode": "44279",
    "addr:street": "Laisvės al.",
    "email": "info@kaunoleles.lt",
    "museum_type": "departmental",
    "name": "Kauno lėlių teatro muziejus",
    "phone": "+370 37 220 061",
    "tourism": "museum",
    "website": "http://www.kaunoleles.lt/index,lt,448.html"
  }
},
{
  "type": "node",
  "id": 3571601995,
  "lat": 54.8988860,
  "lon": 23.9125480,
  "tags": {
    "addr:city": "Kaunas",
    "addr:housenumber": "73",
    "addr:postcode": "44029",
    "addr:street": "K. Donelaičio g.",
    "description": "ekspozicija „Nuo Aukštųjų kursų iki Kauno technologijos universiteto“ pirmo aukšto fojė lankoma darbo dienomis 8-17 val. Dėl ekspozicijos antrosios dalies lankymo ir ekskursijų kreiptis darbo dienomis 8-17 val. tel. +370 37 300 633",
    "email": "audrone.veilentiene@ktu.lt",
    "museum_type": "departmental",
    "name": "Kauno technologijos universiteto muziejus",
    "phone": "+370 37 300 633",
    "tourism": "museum",
    "website": "https://muziejus.ktu.edu/"
  }
},
{
  "type": "node",
  "id": 3571601998,
  "lat": 54.8973140,
  "lon": 23.9193520,
  "tags": {
    "addr:city": "Kaunas",
    "addr:housenumber": "34",
    "addr:postcode": "44240",
    "addr:street": "Laisvės al.",
    "email": "sauliai@sauliusajunga.lt",
    "museum_type": "departmental",
    "name": "Lietuvos šaulių sąjungos muziejus",
    "opening_hours": "Mo-We 8:00-17:00; Th 8:00-16:00",
    "phone": "+370 37 224 683",
    "tourism": "museum",
    "website": "https://www.sauliusajunga.lt/"
  }
},
{
  "type": "node",
  "id": 3571601999,
  "lat": 54.8763110,
  "lon": 24.0223190,
  "tags": {
    "addr:city": "Kaunas",
    "addr:housenumber": "31",
    "addr:postcode": "52436",
    "addr:street": "T. Masiulio g.",
    "email": "muziejus@pazaislis.org",
    "museum_type": "departmental",
    "name": "Pažaislio vienuolyno muziejinė ekspozicija",
    "phone": "+370 37 458 868",
    "tourism": "museum"
  }
},
{
  "type": "node",
  "id": 3571602000,
  "lat": 54.8991580,
  "lon": 23.9150600,
  "tags": {
    "addr:city": "Kaunas",
    "addr:housenumber": "58",
    "addr:street": "K. Donelaičio g.",
    "email": "a.briediene@hmf.vdu.lt",
    "museum_type": "departmental",
    "name": "S. ir S. Lozoraičių muziejus",
    "opening_hours": "Mo-Fr 09:00-17:00",
    "tourism": "museum",
    "website": "https://www.visit.kaunas.lt/lt/aplankykite/lankytinos-vietos/muziejai-ir-galerijos/muziejai/s-ir-s-lozoraiciu-muziejus-kurianciajai-diplomatijai-100/"
  }
},
{
  "type": "node",
  "id": 3629190460,
  "lat": 54.9112510,
  "lon": 23.8505360,
  "tags": {
    "addr:city": "Kaunas",
    "addr:housenumber": "150",
    "addr:postcode": "47174",
    "addr:street": "Raudondvario pl.",
    "email": "info@pirmaszingsnis.lt",
    "museum_type": "institutional",
    "name": "A. Astrausko ortopedijos amato muziejus",
    "opening_hours": "Mo-Fr 8:30-17:00",
    "phone": "+370 699 91 888",
    "tourism": "museum",
    "website": "https://sites.google.com/site/ortopedijosmuziejus/"
  }
},
{
  "type": "node",
  "id": 3629190462,
  "lat": 54.8960570,
  "lon": 23.8931580,
  "tags": {
    "addr:city": "Kaunas",
    "addr:housenumber": "13",
    "addr:postcode": "44287",
    "addr:street": "Kurpių g.",
    "email": "arunas@kleismantas.eu",
    "museum_type": "private",
    "name": "Brangakmenių (Gemologijos) muziejus",
    "opening_hours": "Mo-Fr 10:00-18:00; Su 10:00-16:00",
    "phone": "+370 37 227 780",
    "tourism": "museum",
    "website": "https://www.muziejai.lt/kaunas/brangakmeniu_muziejus.htm"
  }
},
{
  "type": "node",
  "id": 3629190470,
  "lat": 54.9156730,
  "lon": 23.9261720,
  "tags": {
    "addr:city": "Kaunas",
    "addr:housenumber": "61",
    "addr:postcode": "50157",
    "addr:street": "Archyvo g.",
    "email": "vladimir@karopaveldas.lt",
    "museum_type": "institutional",
    "name": "Kauno tvirtovės VII fortas",
    "opening_hours": "Th-Su 10:00-18:00",
    "phone": "+370 655 66 550",
    "tourism": "museum",
    "website": "https://www.septintasfortas.lt/"
  }
},
{
  "type": "node",
  "id": 3629190476,
  "lat": 54.9851684,
  "lon": 23.5043515,
  "tags": {
    "addr:city": "Lekėčiai",
    "addr:housenumber": "14",
    "addr:postcode": "71225",
    "addr:street": "Pušyno g.",
    "description": "Lankymas šeštadieniais - sekmadieniais pagal susitarimą",
    "email": "lina.cekauskiene@gmail.com",
    "museum_type": "private",
    "name": "Čekauskų etnografinis muziejus",
    "opening_hours": "Mo-Fr 17:00-0:00",
    "phone": "+370 678 79 545",
    "tourism": "museum",
    "website": "https://www.muziejai.lt/Sakiai/cekausku_muziejus.htm"
  }
},
{
  "type": "node",
  "id": 3689128589,
  "lat": 54.8925873,
  "lon": 23.9212899,
  "tags": {
    "addr:city": "Kaunas",
    "addr:housenumber": "8",
    "addr:street": "Gedimino g.",
    "museum_type": "public",
    "name": "Visuomeninis Tarptautinės policijos asociacijos Lietuvos skyriaus Kauno poskyrio muziejus",
    "opening_hours": "Mo-Fr 08:00-17:00",
    "phone": "+370 686 08 017",
    "tourism": "museum",
    "website": "https://www.muziejai.lt/kaunas/policijos_muziejus.htm"
  }
},
{
  "type": "node",
  "id": 3768588993,
  "lat": 54.6076460,
  "lon": 24.0261720,
  "tags": {
    "addr:city": "Birštonas",
    "addr:housenumber": "1",
    "addr:street": "Tylioji g.",
    "email": "direkcija@nemunokilpos.lt",
    "museum_type": "municipal",
    "name": "Nemuno kilpų regioninio parko muziejus",
    "opening_hours": "Mo-Th 8:00-17:00; Fr 8:00-15:45; Sa 10:00-16:00; Su 10:00-14:00",
    "phone": "+370 319 65 613",
    "toilets:wheelchair": "no",
    "tourism": "museum",
    "website": "http://www.nemunokilpos.lt/",
    "wheelchair": "no"
  }
},
{
  "type": "node",
  "id": 3810099392,
  "lat": 54.9139413,
  "lon": 23.8421058,
  "tags": {
    "addr:city": "Kaunas",
    "addr:housenumber": "164A",
    "addr:street": "Raudondvario pl.",
    "image": "http://www.atominisbunkeris.lt/wp-content/uploads/2014/12/6E4B87563.jpg",
    "name": "Atominis bunkeris",
    "tourism": "museum",
    "website": "http://www.atominisbunkeris.lt/",
    "wikidata": "Q16444647",
    "wikipedia": "lt:Atominis bunkeris"
  }
},
{
  "type": "node",
  "id": 4864109040,
  "lat": 54.8874877,
  "lon": 23.8900709,
  "tags": {
    "addr:city": "Kaunas",
    "addr:contact": "yes",
    "addr:housenumber": "29A",
    "addr:street": "S. Dariaus ir S. Girėno g.",
    "description": "Lankymas iš anksto susitarus",
    "email": "info@retromobile.lt",
    "name": "Lietuvos istorinių transporto priemonių muziejus",
    "phone": "+370-682-27122",
    "tourism": "museum",
    "website": "http://www.retromobile.lt"
  }
},
{
  "type": "node",
  "id": 4871774318,
  "lat": 54.7411508,
  "lon": 23.6576816,
  "tags": {
    "addr:city": "Skriaudžiai",
    "addr:contact": "yes",
    "addr:housenumber": "2",
    "addr:street": "P. Puskunigio g.",
    "email": "skriaudziumuziejus@prienumuziejus.lt",
    "name": "Skriaudžių buities muziejus",
    "opening_hours": "Tu-Fr 09:00-18:00; Sa 10:00-16:00",
    "tourism": "museum",
    "website": "http://www.prienumuziejus.lt/ekspozicija/skriaudziu-buities-muziejus/"
  }
},
{
  "type": "node",
  "id": 4889559175,
  "lat": 54.6652566,
  "lon": 23.7555999,
  "tags": {
    "addr:city": "Naujasodis",
    "addr:housenumber": "13",
    "addr:street": "Lašašos g.",
    "name": "Šilavoto Davatkynas",
    "opening_hours": "Tu-Fr 09:00-18:00; Sa 10:00-16:00",
    "tourism": "museum",
    "website": "http://www.prienumuziejus.lt/ekspozicija/silavoto-davatkynas/",
    "wikidata": "Q25497077",
    "wikipedia": "lt:Šilavoto Davatkynas"
  }
},
{
  "type": "node",
  "id": 5621840431,
  "lat": 54.8709307,
  "lon": 23.9465200,
  "tags": {
    "description": "Ekspozicijoje yra beveik 2000 eksponatų! Tai įvairiausi klounai iš kaimyninių bei tolimų šalių. Įvairiausi, dideli ir miniatiuriniai, labai linksmi ir liūdnoki, gražūs, šmaikštūs ir žaismingi - laukia vaikų į svečius... Lankymas susitarus iš anksto.",
    "email": "baltijos@cirkas.lt",
    "name": "Klounų muziejus",
    "phone": "+370 670 16 445",
    "tourism": "museum",
    "website": "http://www.cirkas.lt/langlt/Cirko-veikla/Klounu-muziejus/"
  }
},
{
  "type": "node",
  "id": 5635046428,
  "lat": 55.1015580,
  "lon": 24.2894438,
  "tags": {
    "museum_type": "municipal",
    "name": "Samulevičių sodyba",
    "phone": "+370 349 51446",
    "tourism": "museum",
    "website": "www.samuleviciai.lt"
  }
},
{
  "type": "way",
  "id": 28937792,
  "nodes": [
    318130330,
    318130331,
    318130332,
    318130333,
    318130330
  ],
  "tags": {
    "addr:city": "Kaunas",
    "addr:housenumber": "33",
    "addr:postcode": "44290",
    "addr:street": "Vilniaus g.",
    "building": "yes",
    "email": "info@istorineprezidentura.lt",
    "museum_type": "national",
    "name": "Istorinė prezidentūra",
    "name:lt": "Istorinė prezidentūra",
    "name:ru": "Историческая президентура",
    "opening_hours": "Tu-Su 11:00-17:00; Th 11:00-19:00",
    "phone": "+370 37 320 589",
    "tourism": "museum",
    "website": "http://www.istorineprezidentura.lt/",
    "wikidata": "Q5762489",
    "wikipedia": "lt:Istorinė Lietuvos Respublikos Prezidentūra Kaune"
  }
},
{
  "type": "way",
  "id": 72209412,
  "nodes": [
    858217731,
    858217751,
    858217709,
    858217659,
    858217686,
    858217713,
    858217754,
    858217791,
    858217603,
    858217620,
    858217641,
    858217667,
    858217612,
    858217643,
    858217668,
    1248533800,
    858217702,
    858217731
  ],
  "tags": {
    "addr:city": "Kaunas",
    "addr:housenumber": "73",
    "addr:postcode": "47435",
    "addr:street": "Žemaičių pl.",
    "building": "yes",
    "email": "jurate.zakaite@9fortomuziejus.lt",
    "museum_type": "republican",
    "name": "IX forto muziejus",
    "name:en": "The Ninth Fort Museum and Memorial",
    "name:lt": "IX forto muziejus",
    "official_name": "Kauno IX forto muziejus",
    "opening_hours": "Apr 1 - Oct 31 Mo,We-Su 10:00-18:00; Nov 1 - Mar 31 We-Su 10:00-16:00",
    "phone": "+370 37 377 750",
    "tourism": "museum",
    "website": "http://www.9fortomuziejus.lt"
  }
},
{
  "type": "way",
  "id": 87276786,
  "nodes": [
    1014799774,
    1014799815,
    1014799790,
    1014799767,
    3241460585,
    1014799729,
    1014799705,
    1014799803,
    1014799780,
    2456646322,
    2456646321,
    5796376061,
    1014799754,
    2694793474,
    2694793478,
    5752014478,
    5752014475,
    5752014474,
    5752014472,
    5752014473,
    5752014476,
    5752014477,
    1456942039,
    1456942008,
    2456646325,
    2456646324,
    1014799735,
    4009959633,
    1014799714,
    1014799809,
    1014799785,
    1014799760,
    1014799724,
    1014799797,
    2456646323,
    2456646326,
    1014799774
  ],
  "tags": {
    "addr:city": "Kaunas",
    "addr:housenumber": "64",
    "addr:postcode": "44248",
    "addr:street": "K. Donelaičio g.",
    "building": "civic",
    "email": "vdkaromuziejus@kam.lt",
    "museum_type": "republican",
    "name": "Vytauto Didžiojo karo muziejus",
    "name:de": "Vytautas-Magnus-Militärmuseum",
    "name:en": "Vytautas the Great War Museum",
    "name:fi": "Vytautas Suuren sotamuseo",
    "name:ja": "ヴィータウタス大公戦争博物館",
    "name:lt": "Vytauto Didžiojo karo muziejus",
    "name:pl": "Muzeum Wojskowe im. Witolda Wielkiego",
    "phone": "+370 37 320 765",
    "tourism": "museum",
    "website": "https://www.muziejai.lt/kaunas/karo_muziejus.htm",
    "wikidata": "Q3267398",
    "wikipedia": "lt:Vytauto Didžiojo karo muziejus"
  }
},
{
  "type": "way",
  "id": 92332239,
  "nodes": [
    1071547268,
    2727755985,
    2727755984,
    2727755982,
    2727755980,
    1071547553,
    1071547380,
    1071547256,
    1071547592,
    1071547518,
    1071547283,
    1071547310,
    2727755977,
    2727756005,
    2727755975,
    1071547598,
    1071547235,
    1071547529,
    1071547224,
    1071547383,
    2727755974,
    60799025,
    1071547547,
    2727756010,
    1584047599,
    2727755972,
    1071547231,
    1071547218,
    2727756020,
    1071547567,
    1071547527,
    1071547544,
    1071547449,
    1071547420,
    1071547302,
    1071547252,
    1071547251,
    1071547220,
    1071547332,
    1071547412,
    1071547388,
    1071547270,
    3238080366,
    1071547286,
    1071547233,
    1071547457,
    1071547212,
    1071547476,
    1071547393,
    1071547428,
    1071547343,
    2727755967,
    1071547254,
    1071547414,
    1071547221,
    1071547268
  ],
  "tags": {
    "addr:city": "Kaunas",
    "addr:housenumber": "12",
    "addr:postcode": "44311",
    "addr:street": "Nepriklausomybės a.",
    "building": "yes",
    "email": "zilinsko.kolekcija@gmail.com",
    "height": "20",
    "museum_type": "national",
    "name": "M. Žilinsko dailės galerija",
    "name:en": "M. Zilinskas Art Gallery",
    "name:lt": "M. Žilinsko dailės galerija",
    "opening_hours": "Tu-Su 11:00-17:00;Th 11:00-19:00",
    "phone": "+370 37 322 788",
    "tourism": "museum",
    "website": "http://www.ciurlionis.lt/zilinsko"
  }
},
{
  "type": "way",
  "id": 92332244,
  "nodes": [
    1071547416,
    2727805285,
    2727805322,
    2727805283,
    1071547225,
    1071547487,
    1071547479,
    1417306651,
    1071547214,
    1071547355,
    1071547416
  ],
  "tags": {
    "addr:city": "Kaunas",
    "addr:housenumber": "106",
    "addr:postcode": "44253",
    "addr:street": "Laisvės al.",
    "building": "yes",
    "email": "info@zoomuziejus.lt",
    "museum_type": "republican",
    "name": "Kauno Tado Ivanausko zoologijos muziejus",
    "opening_hours": "Tu-Su 11:00-19:00",
    "phone": "+370 37 229 675",
    "tourism": "museum",
    "website": "http://www.zoomuziejus.lt",
    "wikidata": "Q3267761",
    "wikipedia": "lt:Kauno Tado Ivanausko zoologijos muziejus"
  }
},
{
  "type": "way",
  "id": 122741815,
  "nodes": [
    1370745133,
    1370745146,
    1370745175,
    1370745174,
    1370745133
  ],
  "tags": {
    "addr:city": "Kaunas",
    "addr:housenumber": "19",
    "addr:postcode": "44279",
    "addr:street": "Rotušės a.",
    "building": "yes",
    "email": "rysiumuziejus@teo.lt",
    "museum_type": "institutional",
    "name": "Ryšių istorijos muziejus",
    "name:en": "Communications History Museum",
    "name:lt": "Ryšių istorijos muziejus",
    "name:ru": "Музей истории связи",
    "opening_hours": "We-Su 10:00-18:00",
    "phone": "+370 37 424 920",
    "roof:colour": "#905060",
    "roof:shape": "gabled",
    "tourism": "museum",
    "website": "https://www.muziejai.lt/Muziejus.lt.asp?Db_kodas=2725",
    "wikidata": "Q5154102",
    "wikipedia": "lt:Ryšių istorijos muziejus"
  }
},
{
  "type": "way",
  "id": 122741823,
  "nodes": [
    1370745114,
    1582538084,
    1370745128,
    1370745149,
    1370745172,
    1370745125,
    3244417638,
    3244417640,
    3244417639,
    1370745131,
    1370745114
  ],
  "tags": {
    "addr:city": "Kaunas",
    "addr:housenumber": "13",
    "addr:postcode": "44279",
    "addr:street": "Rotušės a.",
    "building": "yes",
    "email": "jmaironis@takas.lt",
    "museum_type": "republican",
    "name": "Maironio literatūros muziejus",
    "official_name": "Maironio lietuvių literatūros muziejus",
    "opening_hours": "Tu-Sa 9:00-17:00",
    "phone": "+370 37 207 477",
    "tourism": "museum",
    "website": "http://maironiomuziejus.lt/"
  }
},
{
  "type": "way",
  "id": 122741825,
  "nodes": [
    1370745200,
    1370745161,
    3279475146,
    1370745112,
    1370745181,
    3279475148,
    1370745193,
    1370745195,
    3279475149,
    1370745145,
    1370745118,
    1370745179,
    3279475147,
    1370745200
  ],
  "tags": {
    "addr:city": "Kaunas",
    "addr:housenumber": "28",
    "addr:postcode": "44279",
    "addr:street": "Rotušės a.",
    "building": "yes",
    "email": "lmfmuziejus@med.kmu.lt",
    "museum_type": "departmental",
    "name": "Lietuvos medicinos ir farmacijos istorijos muziejus",
    "name:en": "Museum of Medicine and Pharmacy",
    "name:lt": "Lietuvos medicinos ir farmacijos istorijos muziejus",
    "opening_hours": "Tu-Sa 10:00-17:00",
    "phone": "+370 37 201 569",
    "roof:colour": "#905060",
    "roof:shape": "hipped",
    "tourism": "museum",
    "website": "https://www.muziejai.lt/kaunas/medicin_farmac_muziejus.htm",
    "wikidata": "Q3015671",
    "wikipedia": "lt:Lietuvos medicinos ir farmacijos istorijos muziejus"
  }
},
{
  "type": "way",
  "id": 134996152,
  "nodes": [
    1483307685,
    1483307668,
    1483307652,
    1483307662,
    1483307685
  ],
  "tags": {
    "addr:city": "Kaunas",
    "addr:housenumber": "6",
    "addr:street": "Aleksoto g.",
    "building": "yes",
    "colour": "#905060",
    "height": "10",
    "name": "Perkūno namas",
    "name:en": "House of Perkunas",
    "name:lt": "Perkūno namas",
    "name:ru": "Дом Перкунаса",
    "opening_hours": "Mo-Fr 10:00-16:30",
    "phone": "+370 641 44614",
    "ref:lt:kpd": "816",
    "roof:colour": "#905060",
    "roof:shape": "gabled",
    "tourism": "museum",
    "website": "http://www.perkunonamas.lt/",
    "wikidata": "Q2626734",
    "wikipedia": "lt:Perkūno namas"
  }
},
{
  "type": "way",
  "id": 134996427,
  "nodes": [
    1483308933,
    2707190482,
    1483308924,
    1483308923,
    1483308920,
    1483308926,
    1483308938,
    1483308933
  ],
  "tags": {
    "addr:city": "Kaunas",
    "addr:housenumber": "6",
    "addr:postcode": "44275",
    "addr:street": "M. Valančiaus g.",
    "building": "yes",
    "email": "miestomuziejus@kaunas.lt",
    "museum_type": "municipal",
    "name": "Kauno miesto muziejus",
    "name:en": "Kaunas City Museum",
    "name:lt": "Kauno miesto muziejus",
    "name:ru": "Каунасский городской музей",
    "opening_hours": "Tu-Fr 9:00-17:00; Sa 9:00-16:00",
    "phone": "+370 37 20 82 20",
    "tourism": "museum",
    "website": "https://kaunomuziejus.lt/"
  }
},
{
  "type": "way",
  "id": 138984033,
  "nodes": [
    1523593087,
    1523593121,
    1523593128,
    1523593084,
    1523593076,
    1523593098,
    1523593087
  ],
  "tags": {
    "addr:city": "Kaunas",
    "addr:housenumber": "46",
    "addr:postcode": "44322",
    "addr:street": "Vytauto pr.",
    "building": "yes",
    "email": "rezistencija@kaunomuziejus.lt",
    "museum_type": "municipal",
    "name": "Tremties ir rezistencijos muziejus",
    "official_name": "Tremties ir rezistencijos ekspozicija",
    "opening_hours": "Tu-Fr 9:00-17:00; Sa 9:00-16:00",
    "phone": "+370 37 323179",
    "tourism": "museum",
    "website": "https://www.muziejai.lt/kaunas/tremties_ekspo.htm"
  }
},
{
  "type": "way",
  "id": 144731644,
  "nodes": [
    1582521593,
    1582521563,
    1582521569,
    1582521575,
    3227233524,
    3227233523,
    3227233522,
    3227233521,
    1582521598,
    1582521593
  ],
  "tags": {
    "addr:city": "Kaunas",
    "addr:housenumber": "7",
    "addr:postcode": "44279",
    "addr:street": "Muziejaus g.",
    "building": "yes",
    "email": "sportomuziejus@yahoo.com",
    "museum_type": "departmental",
    "name": "Lietuvos sporto muziejus",
    "name:en": "Museum of Lithuanian Sport",
    "name:lt": "Lietuvos sporto muziejus",
    "opening_hours": "Tu-Sa 10:00-17:00",
    "phone": "+370 37 220 691",
    "tourism": "museum",
    "website": "https://www.muziejai.lt/kaunas/Sporto_muziejus.htm",
    "wikidata": "Q16458997",
    "wikipedia": "lt:Lietuvos sporto muziejus"
  }
},
{
  "type": "way",
  "id": 144867931,
  "nodes": [
    1583575749,
    1583575726,
    1583575733,
    1583575755,
    1583575749
  ],
  "tags": {
    "addr:city": "Kaunas",
    "addr:housenumber": "12",
    "addr:postcode": "44287",
    "addr:street": "L. Zamenhofo g.",
    "building": "yes",
    "email": "kaunomuzik.muz@gmail.com",
    "museum_type": "municipal",
    "name": "Povilo Stulgos lietuvių tautinės muzikos instrumentų muziejus",
    "opening_hours": "Tu-Fr 9:00-17:00; Sa 9:00-16:00",
    "phone": "+370 37 422 295",
    "tourism": "museum",
    "website": "http://www.kaunomuziejus.lt/apie-lietuviu-tautines-muzikos-istorijos-skyriu/",
    "wikidata": "Q7235888",
    "wikipedia": "lt:Kauno Povilo Stulgos lietuvių tautinės muzikos instrumentų muziejus"
  }
},
{
  "type": "way",
  "id": 169956338,
  "nodes": [
    1811024968,
    1811024976,
    1811025019,
    1811024971,
    1811025008,
    1811025007,
    1811024972,
    1811024997,
    1811024942,
    1811025017,
    1811024943,
    1811024975,
    1811024977,
    1811025014,
    1811025006,
    1811024973,
    1811024956,
    1811025003,
    1811024968
  ],
  "tags": {
    "addr:city": "Kaunas",
    "addr:housenumber": "16",
    "addr:postcode": "44213",
    "addr:street": "K. Donelaičio g.",
    "building": "civic",
    "email": "kristina.civinskiene@gmail.com",
    "museum_type": "national",
    "name": "Kauno paveikslų galerija",
    "opening_hours": "Tu-Su 11:00-17:00; Th 11:00-19:00",
    "phone": "+370 37 221 779",
    "tourism": "museum",
    "website": "https://www.muziejai.lt/kaunas/paveikslu_galerija.htm"
  }
},
{
  "type": "way",
  "id": 200417748,
  "nodes": [
    2104086610,
    2104086603,
    2104086597,
    2104086595,
    2104086609,
    2104086610
  ],
  "tags": {
    "addr:city": "Kaunas",
    "addr:housenumber": "13",
    "addr:postcode": "44239",
    "addr:street": "K. Donelaičio g.",
    "building": "yes",
    "museum_type": "republican",
    "name": "Vaikų literatūros muziejus",
    "opening_hours": "Tu-Sa 9:00-17:00",
    "phone": "+370 37 206 488",
    "tourism": "museum",
    "website": "https://www.muziejai.lt/kaunas/vaiku_lit_muz.htm"
  }
},
{
  "type": "way",
  "id": 200960012,
  "nodes": [
    2109148239,
    2109148241,
    2109148238,
    2109148237,
    2109148239
  ],
  "tags": {
    "addr:city": "Kaunas",
    "addr:housenumber": "2",
    "addr:postcode": "50295",
    "addr:street": "Vydūno al.",
    "building": "apartments",
    "email": "galauniunamai@gmail.com",
    "museum_type": "national",
    "name": "Adelės ir Pauliaus Galaunių namai",
    "note": "Lankytojai priimami iš anksto susitarus tel. +370 37 798 995.",
    "phone": "+370 37 798 995",
    "tourism": "museum",
    "website": "https://www.muziejai.lt/kaunas/galauniu_namai.htm"
  }
},
{
  "type": "way",
  "id": 244406934,
  "nodes": [
    2517293516,
    2517293517,
    2517293520,
    2517293523,
    2517293524,
    2517293528,
    2517293525,
    2517293518,
    2517293521,
    2517293516
  ],
  "tags": {
    "addr:city": "Saliai",
    "addr:housenumber": "2",
    "addr:postcode": "54376",
    "addr:street": "Spaustuvės g.",
    "building": "yes",
    "image": "https://upload.wikimedia.org/wikipedia/commons/4/42/Spaustuv%C4%97_ab._%C4%AE%C4%97jimas_%C4%AF_po%C5%BEem%C4%AF.JPG",
    "museum_type": "republican",
    "name": "Pogrindžio spaustuvė-muziejus „ab“",
    "official_name": "Naujausiųjų laikų karybos istorijos skyriaus padalinys Pogrindžio spaustuvė ab",
    "opening_hours": "Tu-Sa 10:00-17:00",
    "operator": "Naujausiųjų laikų karybos istorijos skyrius",
    "phone": "+370 37 553 249",
    "tourism": "museum",
    "website": "https://www.muziejai.lt/kaunas/spaustuve_ab.htm",
    "wikidata": "Q12646895",
    "wikipedia": "lt:Ab spaustuvė"
  }
},
{
  "type": "way",
  "id": 248676470,
  "nodes": [
    2554337966,
    2554337967,
    2554337970,
    2554337969,
    2554337966
  ],
  "tags": {
    "addr:city": "Kaunas",
    "addr:housenumber": "7",
    "addr:postcode": "52249",
    "addr:street": "S. Nėries g.",
    "building": "yes",
    "museum_type": "republican",
    "name": "Salomėjos Nėries memorialinis muziejus",
    "opening_hours": "Tu-Sa 09:00-17:00",
    "phone": "+370 37 373 606",
    "tourism": "museum",
    "website": "http://maironiomuziejus.lt/index.php?id=18"
  }
},
{
  "type": "way",
  "id": 258101574,
  "nodes": [
    2635098383,
    2635098386,
    2635098390,
    2635098387,
    2635098383
  ],
  "tags": {
    "addr:city": "Kaunas",
    "addr:housenumber": "3",
    "addr:postcode": "44261",
    "addr:street": "J. Zikaro g.",
    "building": "yes",
    "email": "zikaronamai@gmail.com",
    "museum_type": "national",
    "name": "Juozo Zikaro memorialinis muziejus",
    "note": "Ekspozicija lankoma iš anksto susitarus mob. tel. +370 652 13 621",
    "phone": "+370 37 223 205",
    "tourism": "museum",
    "website": "https://www.muziejai.lt/kaunas/zikaro_mem_muziejus.htm"
  }
},
{
  "type": "way",
  "id": 264974259,
  "nodes": [
    2706241682,
    2706241684,
    2706241686,
    2706241688,
    2706241682
  ],
  "tags": {
    "addr:city": "Kaunas",
    "addr:housenumber": "21",
    "addr:postcode": "50250",
    "addr:street": "B. Sruogos g.",
    "building": "yes",
    "email": "sruoga@hotmail.com",
    "museum_type": "republican",
    "name": "Balio ir Vandos Sruogų namai-muziejus",
    "opening_hours": "Tu-Sa 9:00-17:00",
    "phone": "+370 37 730 474",
    "tourism": "museum",
    "website": "https://www.muziejai.lt/kaunas/sruogu_muz.htm"
  }
},
{
  "type": "way",
  "id": 266670063,
  "nodes": [
    2721957490,
    2721957494,
    2722800966,
    2721957502,
    2721957490
  ],
  "tags": {
    "addr:city": "Kaunas",
    "addr:housenumber": "31",
    "addr:postcode": "44162",
    "addr:street": "K. Petrausko g.",
    "building": "civic",
    "email": "mkp.vedeja@kaunomuziejus.lt",
    "museum_type": "municipal",
    "name": "M. ir K. Petrauskų lietuvių muzikos muziejus",
    "phone": "+370 37 733 371",
    "tourism": "museum",
    "website": "https://www.muziejai.lt/Muziejus.lt.asp?Db_kodas=2720"
  }
},
{
  "type": "way",
  "id": 271971260,
  "nodes": [
    2769052219,
    2769052220,
    2769052221,
    2769052222,
    2769052223,
    2769052224,
    2769052219
  ],
  "tags": {
    "addr:city": "Kaunas",
    "addr:housenumber": "18",
    "addr:postcode": "44136",
    "addr:street": "Salako g.",
    "building": "yes",
    "email": "gruodis@kaunomuziejus.lt",
    "museum_type": "municipal",
    "name": "Juozo Gruodžio memorialinis muziejus",
    "opening_hours": "Tu-Fr 9:00-17:00; Sa 9:00-16:00",
    "phone": "+370 37 732 498",
    "tourism": "museum",
    "website": "https://www.muziejai.lt/kaunas/gruodzio_muziejus.htm"
  }
},
{
  "type": "way",
  "id": 272075682,
  "nodes": [
    2770049816,
    2770049818,
    2770049822,
    2770049824,
    2770049816
  ],
  "tags": {
    "addr:city": "Kaunas",
    "addr:housenumber": "14",
    "addr:postcode": "44229",
    "addr:street": "E. Fryko g.",
    "building": "yes",
    "email": "truikionamai@gmail.com",
    "museum_type": "national",
    "name": "L. Truikio ir M. Rakauskaitės memorialinis muziejus",
    "note": "Ekspozicija lankoma iš anksto susitarus tel. +370 37 229 967; mob. tel. +370 652 13 621",
    "phone": "+370 37 229 967",
    "tourism": "museum",
    "website": "https://www.muziejai.lt/kaunas/truikio_muziejus.htm"
  }
},
{
  "type": "way",
  "id": 342513313,
  "nodes": [
    3495009807,
    3495009822,
    3495009823,
    3495009830,
    3495009831,
    3495009837,
    3495009838,
    3495009832,
    3495009833,
    3495009819,
    3495009821,
    3495009812,
    3495009811,
    3495009799,
    3495009798,
    3495009795,
    3495009794,
    3495009797,
    3495009796,
    3459075890,
    3495009807
  ],
  "tags": {
    "addr:city": "Birštonas",
    "addr:housenumber": "10",
    "addr:postcode": "59217",
    "addr:street": "Birutės g.",
    "building": "yes",
    "email": "muziejus@sakralinis.lt",
    "museum_type": "municipal",
    "name": "Birštono sakralinis muziejus",
    "opening_hours": "Tu-Fr 10:00-18:00; Sa 11:00-17:00; Su 11:00-16:00",
    "phone": "+370 319 65 699",
    "toilets:wheelchair": "no",
    "tourism": "museum",
    "website": "http://www.sakralinis.lt",
    "wheelchair": "yes"
  }
},
{
  "type": "way",
  "id": 354670118,
  "nodes": [
    3603506605,
    3603506609,
    3603506492,
    3603506490,
    3603506605
  ],
  "tags": {
    "addr:city": "Kačerginė",
    "addr:housenumber": "40",
    "addr:street": "J. Janonio g.",
    "building": "yes",
    "name": "Prano Mašioto pasakų parkas",
    "tourism": "museum"
  }
},
{
  "type": "node",
  "id": 3603506490,
  "lat": 54.9329204,
  "lon": 23.7129338
},
{
  "type": "node",
  "id": 3603506492,
  "lat": 54.9329423,
  "lon": 23.7131039
},
{
  "type": "node",
  "id": 3603506605,
  "lat": 54.9330138,
  "lon": 23.7128974
},
{
  "type": "node",
  "id": 3603506609,
  "lat": 54.9330357,
  "lon": 23.7130675
},
{
  "type": "node",
  "id": 1483307652,
  "lat": 54.8955322,
  "lon": 23.8865318
},
{
  "type": "node",
  "id": 1483307662,
  "lat": 54.8956098,
  "lon": 23.8862399
},
{
  "type": "node",
  "id": 1483307668,
  "lat": 54.8956073,
  "lon": 23.8865922
},
{
  "type": "node",
  "id": 1483307685,
  "lat": 54.8956849,
  "lon": 23.8863003
},
{
  "type": "node",
  "id": 1582521563,
  "lat": 54.8957952,
  "lon": 23.8835910
},
{
  "type": "node",
  "id": 1582521569,
  "lat": 54.8958312,
  "lon": 23.8834689
},
{
  "type": "node",
  "id": 1582521575,
  "lat": 54.8958777,
  "lon": 23.8833116
},
{
  "type": "node",
  "id": 1582521593,
  "lat": 54.8960260,
  "lon": 23.8837969
},
{
  "type": "node",
  "id": 1582521598,
  "lat": 54.8961062,
  "lon": 23.8835249
},
{
  "type": "node",
  "id": 3227233521,
  "lat": 54.8959979,
  "lon": 23.8834283
},
{
  "type": "node",
  "id": 3227233522,
  "lat": 54.8959762,
  "lon": 23.8835020
},
{
  "type": "node",
  "id": 3227233523,
  "lat": 54.8959171,
  "lon": 23.8834492
},
{
  "type": "node",
  "id": 3227233524,
  "lat": 54.8959410,
  "lon": 23.8833681
},
{
  "type": "node",
  "id": 1583575726,
  "lat": 54.8956467,
  "lon": 23.8932557
},
{
  "type": "node",
  "id": 1583575733,
  "lat": 54.8956882,
  "lon": 23.8929180
},
{
  "type": "node",
  "id": 1583575749,
  "lat": 54.8957430,
  "lon": 23.8932915
},
{
  "type": "node",
  "id": 1583575755,
  "lat": 54.8957844,
  "lon": 23.8929537
},
{
  "type": "node",
  "id": 1370745112,
  "lat": 54.8972139,
  "lon": 23.8876190
},
{
  "type": "node",
  "id": 1370745114,
  "lat": 54.8964191,
  "lon": 23.8841668
},
{
  "type": "node",
  "id": 1370745118,
  "lat": 54.8972535,
  "lon": 23.8875037
},
{
  "type": "node",
  "id": 1370745125,
  "lat": 54.8968461,
  "lon": 23.8841554
},
{
  "type": "node",
  "id": 1370745128,
  "lat": 54.8964766,
  "lon": 23.8838587
},
{
  "type": "node",
  "id": 1370745131,
  "lat": 54.8966581,
  "lon": 23.8843147
},
{
  "type": "node",
  "id": 1370745133,
  "lat": 54.8971012,
  "lon": 23.8850403
},
{
  "type": "node",
  "id": 1370745145,
  "lat": 54.8973899,
  "lon": 23.8875869
},
{
  "type": "node",
  "id": 1370745146,
  "lat": 54.8972271,
  "lon": 23.8851271
},
{
  "type": "node",
  "id": 1370745149,
  "lat": 54.8966216,
  "lon": 23.8839284
},
{
  "type": "node",
  "id": 1370745161,
  "lat": 54.8971968,
  "lon": 23.8877080
},
{
  "type": "node",
  "id": 1370745172,
  "lat": 54.8966072,
  "lon": 23.8840356
},
{
  "type": "node",
  "id": 1370745174,
  "lat": 54.8970288,
  "lon": 23.8853584
},
{
  "type": "node",
  "id": 1370745175,
  "lat": 54.8971547,
  "lon": 23.8854451
},
{
  "type": "node",
  "id": 1370745179,
  "lat": 54.8971497,
  "lon": 23.8874444
},
{
  "type": "node",
  "id": 1370745181,
  "lat": 54.8972843,
  "lon": 23.8876598
},
{
  "type": "node",
  "id": 1370745193,
  "lat": 54.8972672,
  "lon": 23.8877488
},
{
  "type": "node",
  "id": 1370745195,
  "lat": 54.8973491,
  "lon": 23.8877963
},
{
  "type": "node",
  "id": 1370745200,
  "lat": 54.8971079,
  "lon": 23.8876564
},
{
  "type": "node",
  "id": 1582538084,
  "lat": 54.8964365,
  "lon": 23.8840263
},
{
  "type": "node",
  "id": 3244417638,
  "lat": 54.8968632,
  "lon": 23.8840617
},
{
  "type": "node",
  "id": 3244417639,
  "lat": 54.8969028,
  "lon": 23.8844154
},
{
  "type": "node",
  "id": 3244417640,
  "lat": 54.8969478,
  "lon": 23.8840997
},
{
  "type": "node",
  "id": 3279475146,
  "lat": 54.8972039,
  "lon": 23.8876709
},
{
  "type": "node",
  "id": 3279475147,
  "lat": 54.8971141,
  "lon": 23.8876201
},
{
  "type": "node",
  "id": 3279475148,
  "lat": 54.8972774,
  "lon": 23.8876955
},
{
  "type": "node",
  "id": 3279475149,
  "lat": 54.8973593,
  "lon": 23.8877430
},
{
  "type": "node",
  "id": 1483308920,
  "lat": 54.8975195,
  "lon": 23.8887786
},
{
  "type": "node",
  "id": 1483308923,
  "lat": 54.8975412,
  "lon": 23.8887868
},
{
  "type": "node",
  "id": 1483308924,
  "lat": 54.8975574,
  "lon": 23.8887929
},
{
  "type": "node",
  "id": 1483308926,
  "lat": 54.8975705,
  "lon": 23.8883698
},
{
  "type": "node",
  "id": 1483308933,
  "lat": 54.8976582,
  "lon": 23.8889043
},
{
  "type": "node",
  "id": 1483308938,
  "lat": 54.8977180,
  "lon": 23.8884254
},
{
  "type": "node",
  "id": 2707190482,
  "lat": 54.8975487,
  "lon": 23.8888630
},
{
  "type": "node",
  "id": 318130330,
  "lat": 54.8975731,
  "lon": 23.8970444
},
{
  "type": "node",
  "id": 318130331,
  "lat": 54.8977161,
  "lon": 23.8972091
},
{
  "type": "node",
  "id": 318130332,
  "lat": 54.8975403,
  "lon": 23.8976707
},
{
  "type": "node",
  "id": 318130333,
  "lat": 54.8973973,
  "lon": 23.8975060
},
{
  "type": "node",
  "id": 2635098383,
  "lat": 54.8996997,
  "lon": 23.8994623
},
{
  "type": "node",
  "id": 2635098386,
  "lat": 54.8997541,
  "lon": 23.8995357
},
{
  "type": "node",
  "id": 2635098387,
  "lat": 54.8997671,
  "lon": 23.8993112
},
{
  "type": "node",
  "id": 2635098390,
  "lat": 54.8998215,
  "lon": 23.8993846
},
{
  "type": "node",
  "id": 1071547214,
  "lat": 54.8980188,
  "lon": 23.9037821
},
{
  "type": "node",
  "id": 1071547225,
  "lat": 54.8983786,
  "lon": 23.9041607
},
{
  "type": "node",
  "id": 1071547355,
  "lat": 54.8978986,
  "lon": 23.9037687
},
{
  "type": "node",
  "id": 1071547416,
  "lat": 54.8978810,
  "lon": 23.9041556
},
{
  "type": "node",
  "id": 1071547479,
  "lat": 54.8984991,
  "lon": 23.9038449
},
{
  "type": "node",
  "id": 1071547487,
  "lat": 54.8986302,
  "lon": 23.9042008
},
{
  "type": "node",
  "id": 1417306651,
  "lat": 54.8983867,
  "lon": 23.9038271
},
{
  "type": "node",
  "id": 2727805283,
  "lat": 54.8983777,
  "lon": 23.9042255
},
{
  "type": "node",
  "id": 2727805285,
  "lat": 54.8980637,
  "lon": 23.9041724
},
{
  "type": "node",
  "id": 2727805322,
  "lat": 54.8982390,
  "lon": 23.9042023
},
{
  "type": "node",
  "id": 858217659,
  "lat": 54.9444129,
  "lon": 23.8738847
},
{
  "type": "node",
  "id": 858217686,
  "lat": 54.9439523,
  "lon": 23.8745526
},
{
  "type": "node",
  "id": 858217709,
  "lat": 54.9444321,
  "lon": 23.8739324
},
{
  "type": "node",
  "id": 858217713,
  "lat": 54.9438938,
  "lon": 23.8744131
},
{
  "type": "node",
  "id": 858217731,
  "lat": 54.9441089,
  "lon": 23.8746145
},
{
  "type": "node",
  "id": 858217751,
  "lat": 54.9444592,
  "lon": 23.8739759
},
{
  "type": "node",
  "id": 858217754,
  "lat": 54.9436611,
  "lon": 23.8746464
},
{
  "type": "node",
  "id": 858217603,
  "lat": 54.9435077,
  "lon": 23.8751750
},
{
  "type": "node",
  "id": 858217612,
  "lat": 54.9438900,
  "lon": 23.8755010
},
{
  "type": "node",
  "id": 858217620,
  "lat": 54.9435406,
  "lon": 23.8752342
},
{
  "type": "node",
  "id": 858217641,
  "lat": 54.9435831,
  "lon": 23.8753109
},
{
  "type": "node",
  "id": 858217643,
  "lat": 54.9440798,
  "lon": 23.8755101
},
{
  "type": "node",
  "id": 858217667,
  "lat": 54.9436719,
  "lon": 23.8751650
},
{
  "type": "node",
  "id": 858217668,
  "lat": 54.9440753,
  "lon": 23.8752138
},
{
  "type": "node",
  "id": 858217702,
  "lat": 54.9442293,
  "lon": 23.8750919
},
{
  "type": "node",
  "id": 858217791,
  "lat": 54.9437305,
  "lon": 23.8748342
},
{
  "type": "node",
  "id": 1248533800,
  "lat": 54.9441280,
  "lon": 23.8751721
},
{
  "type": "node",
  "id": 3459075890,
  "lat": 54.6020202,
  "lon": 24.0340471
},
{
  "type": "node",
  "id": 3495009794,
  "lat": 54.6019646,
  "lon": 24.0340941
},
{
  "type": "node",
  "id": 3495009795,
  "lat": 54.6019675,
  "lon": 24.0341572
},
{
  "type": "node",
  "id": 3495009796,
  "lat": 54.6019737,
  "lon": 24.0340534
},
{
  "type": "node",
  "id": 3495009797,
  "lat": 54.6019755,
  "lon": 24.0340927
},
{
  "type": "node",
  "id": 3495009798,
  "lat": 54.6019773,
  "lon": 24.0341559
},
{
  "type": "node",
  "id": 3495009799,
  "lat": 54.6019795,
  "lon": 24.0342046
},
{
  "type": "node",
  "id": 3495009807,
  "lat": 54.6020182,
  "lon": 24.0340038
},
{
  "type": "node",
  "id": 3495009811,
  "lat": 54.6020447,
  "lon": 24.0341959
},
{
  "type": "node",
  "id": 3495009812,
  "lat": 54.6020453,
  "lon": 24.0342088
},
{
  "type": "node",
  "id": 3495009819,
  "lat": 54.6020961,
  "lon": 24.0341723
},
{
  "type": "node",
  "id": 3495009821,
  "lat": 54.6020974,
  "lon": 24.0342019
},
{
  "type": "node",
  "id": 3495009822,
  "lat": 54.6021019,
  "lon": 24.0339926
},
{
  "type": "node",
  "id": 3495009823,
  "lat": 54.6021030,
  "lon": 24.0340162
},
{
  "type": "node",
  "id": 3495009830,
  "lat": 54.6021627,
  "lon": 24.0340082
},
{
  "type": "node",
  "id": 3495009831,
  "lat": 54.6021646,
  "lon": 24.0340502
},
{
  "type": "node",
  "id": 3495009832,
  "lat": 54.6021688,
  "lon": 24.0341255
},
{
  "type": "node",
  "id": 3495009833,
  "lat": 54.6021704,
  "lon": 24.0341623
},
{
  "type": "node",
  "id": 3495009837,
  "lat": 54.6021825,
  "lon": 24.0340478
},
{
  "type": "node",
  "id": 3495009838,
  "lat": 54.6021859,
  "lon": 24.0341232
},
{
  "type": "node",
  "id": 1071547212,
  "lat": 54.8960204,
  "lon": 23.9202760
},
{
  "type": "node",
  "id": 1071547220,
  "lat": 54.8958480,
  "lon": 23.9197431
},
{
  "type": "node",
  "id": 1071547233,
  "lat": 54.8959417,
  "lon": 23.9201446
},
{
  "type": "node",
  "id": 1071547251,
  "lat": 54.8959313,
  "lon": 23.9196090
},
{
  "type": "node",
  "id": 1071547252,
  "lat": 54.8960486,
  "lon": 23.9195607
},
{
  "type": "node",
  "id": 1071547270,
  "lat": 54.8957643,
  "lon": 23.9201258
},
{
  "type": "node",
  "id": 1071547283,
  "lat": 54.8961425,
  "lon": 23.9203430
},
{
  "type": "node",
  "id": 1071547286,
  "lat": 54.8958715,
  "lon": 23.9201365
},
{
  "type": "node",
  "id": 1071547302,
  "lat": 54.8961415,
  "lon": 23.9195625
},
{
  "type": "node",
  "id": 1071547310,
  "lat": 54.8961473,
  "lon": 23.9203546
},
{
  "type": "node",
  "id": 1071547332,
  "lat": 54.8958110,
  "lon": 23.9198879
},
{
  "type": "node",
  "id": 1071547388,
  "lat": 54.8957709,
  "lon": 23.9199738
},
{
  "type": "node",
  "id": 1071547393,
  "lat": 54.8960682,
  "lon": 23.9206394
},
{
  "type": "node",
  "id": 1071547412,
  "lat": 54.8957956,
  "lon": 23.9199791
},
{
  "type": "node",
  "id": 1071547420,
  "lat": 54.8961384,
  "lon": 23.9197932
},
{
  "type": "node",
  "id": 1071547449,
  "lat": 54.8961376,
  "lon": 23.9198777
},
{
  "type": "node",
  "id": 1071547457,
  "lat": 54.8959394,
  "lon": 23.9202760
},
{
  "type": "node",
  "id": 1071547518,
  "lat": 54.8961353,
  "lon": 23.9205871
},
{
  "type": "node",
  "id": 1071547527,
  "lat": 54.8962000,
  "lon": 23.9200197
},
{
  "type": "node",
  "id": 1071547529,
  "lat": 54.8962336,
  "lon": 23.9201937
},
{
  "type": "node",
  "id": 1071547544,
  "lat": 54.8962024,
  "lon": 23.9198790
},
{
  "type": "node",
  "id": 1071547567,
  "lat": 54.8962213,
  "lon": 23.9200221
},
{
  "type": "node",
  "id": 1071547598,
  "lat": 54.8962232,
  "lon": 23.9202518
},
{
  "type": "node",
  "id": 2727755975,
  "lat": 54.8962386,
  "lon": 23.9202854
},
{
  "type": "node",
  "id": 2727755977,
  "lat": 54.8961600,
  "lon": 23.9203927
},
{
  "type": "node",
  "id": 2727756005,
  "lat": 54.8962000,
  "lon": 23.9203381
},
{
  "type": "node",
  "id": 3238080366,
  "lat": 54.8957984,
  "lon": 23.9201292
},
{
  "type": "node",
  "id": 1071547221,
  "lat": 54.8962143,
  "lon": 23.9208862
},
{
  "type": "node",
  "id": 1071547268,
  "lat": 54.8962081,
  "lon": 23.9210863
},
{
  "type": "node",
  "id": 1071547428,
  "lat": 54.8960644,
  "lon": 23.9207387
},
{
  "type": "node",
  "id": 1071547476,
  "lat": 54.8960088,
  "lon": 23.9206408
},
{
  "type": "node",
  "id": 1523593076,
  "lat": 54.8929244,
  "lon": 23.9254029
},
{
  "type": "node",
  "id": 1523593084,
  "lat": 54.8929273,
  "lon": 23.9252518
},
{
  "type": "node",
  "id": 1523593087,
  "lat": 54.8929439,
  "lon": 23.9254677
},
{
  "type": "node",
  "id": 1523593098,
  "lat": 54.8929451,
  "lon": 23.9254040
},
{
  "type": "node",
  "id": 1523593121,
  "lat": 54.8930646,
  "lon": 23.9254746
},
{
  "type": "node",
  "id": 1523593128,
  "lat": 54.8930687,
  "lon": 23.9252599
},
{
  "type": "node",
  "id": 2770049816,
  "lat": 54.8920236,
  "lon": 23.9323311
},
{
  "type": "node",
  "id": 2770049818,
  "lat": 54.8920695,
  "lon": 23.9325205
},
{
  "type": "node",
  "id": 2770049822,
  "lat": 54.8921803,
  "lon": 23.9324393
},
{
  "type": "node",
  "id": 2770049824,
  "lat": 54.8921344,
  "lon": 23.9322499
},
{
  "type": "node",
  "id": 1014799705,
  "lat": 54.9003141,
  "lon": 23.9121266
},
{
  "type": "node",
  "id": 1014799714,
  "lat": 54.9002156,
  "lon": 23.9108197
},
{
  "type": "node",
  "id": 1014799724,
  "lat": 54.9002652,
  "lon": 23.9115109
},
{
  "type": "node",
  "id": 1014799729,
  "lat": 54.9003327,
  "lon": 23.9120750
},
{
  "type": "node",
  "id": 1014799735,
  "lat": 54.9001956,
  "lon": 23.9115036
},
{
  "type": "node",
  "id": 1014799754,
  "lat": 54.9002704,
  "lon": 23.9125020
},
{
  "type": "node",
  "id": 1014799760,
  "lat": 54.9002736,
  "lon": 23.9112229
},
{
  "type": "node",
  "id": 1014799767,
  "lat": 54.9003359,
  "lon": 23.9119553
},
{
  "type": "node",
  "id": 1014799774,
  "lat": 54.9002632,
  "lon": 23.9118336
},
{
  "type": "node",
  "id": 1014799780,
  "lat": 54.9002537,
  "lon": 23.9121842
},
{
  "type": "node",
  "id": 1014799785,
  "lat": 54.9004313,
  "lon": 23.9112368
},
{
  "type": "node",
  "id": 1014799790,
  "lat": 54.9003203,
  "lon": 23.9119009
},
{
  "type": "node",
  "id": 1014799797,
  "lat": 54.9003037,
  "lon": 23.9115143
},
{
  "type": "node",
  "id": 1014799803,
  "lat": 54.9002868,
  "lon": 23.9121645
},
{
  "type": "node",
  "id": 1014799809,
  "lat": 54.9004428,
  "lon": 23.9108398
},
{
  "type": "node",
  "id": 1014799815,
  "lat": 54.9002951,
  "lon": 23.9118587
},
{
  "type": "node",
  "id": 1456942008,
  "lat": 54.8998799,
  "lon": 23.9114411
},
{
  "type": "node",
  "id": 1456942039,
  "lat": 54.8998469,
  "lon": 23.9114381
},
{
  "type": "node",
  "id": 2456646321,
  "lat": 54.9002757,
  "lon": 23.9123185
},
{
  "type": "node",
  "id": 2456646322,
  "lat": 54.9002506,
  "lon": 23.9123162
},
{
  "type": "node",
  "id": 2456646323,
  "lat": 54.9002988,
  "lon": 23.9116850
},
{
  "type": "node",
  "id": 2456646324,
  "lat": 54.8999132,
  "lon": 23.9114786
},
{
  "type": "node",
  "id": 2456646325,
  "lat": 54.8999142,
  "lon": 23.9114441
},
{
  "type": "node",
  "id": 2456646326,
  "lat": 54.9002673,
  "lon": 23.9116823
},
{
  "type": "node",
  "id": 2694793474,
  "lat": 54.9001594,
  "lon": 23.9124922
},
{
  "type": "node",
  "id": 2694793478,
  "lat": 54.8998972,
  "lon": 23.9124691
},
{
  "type": "node",
  "id": 3241460585,
  "lat": 54.9003402,
  "lon": 23.9120156
},
{
  "type": "node",
  "id": 4009959633,
  "lat": 54.9002100,
  "lon": 23.9110111
},
{
  "type": "node",
  "id": 5752014472,
  "lat": 54.8998248,
  "lon": 23.9119776
},
{
  "type": "node",
  "id": 5752014473,
  "lat": 54.8998339,
  "lon": 23.9116638
},
{
  "type": "node",
  "id": 5752014474,
  "lat": 54.8998155,
  "lon": 23.9122958
},
{
  "type": "node",
  "id": 5752014475,
  "lat": 54.8997869,
  "lon": 23.9122933
},
{
  "type": "node",
  "id": 5752014476,
  "lat": 54.8998054,
  "lon": 23.9116613
},
{
  "type": "node",
  "id": 5752014477,
  "lat": 54.8998120,
  "lon": 23.9114351
},
{
  "type": "node",
  "id": 5752014478,
  "lat": 54.8997821,
  "lon": 23.9124589
},
{
  "type": "node",
  "id": 5796376061,
  "lat": 54.9002727,
  "lon": 23.9124221
},
{
  "type": "node",
  "id": 60799025,
  "lat": 54.8964106,
  "lon": 23.9206086
},
{
  "type": "node",
  "id": 1071547218,
  "lat": 54.8965332,
  "lon": 23.9200547
},
{
  "type": "node",
  "id": 1071547224,
  "lat": 54.8963775,
  "lon": 23.9202156
},
{
  "type": "node",
  "id": 1071547231,
  "lat": 54.8965293,
  "lon": 23.9201862
},
{
  "type": "node",
  "id": 1071547235,
  "lat": 54.8962456,
  "lon": 23.9202237
},
{
  "type": "node",
  "id": 1071547383,
  "lat": 54.8963682,
  "lon": 23.9203980
},
{
  "type": "node",
  "id": 1071547547,
  "lat": 54.8964770,
  "lon": 23.9206166
},
{
  "type": "node",
  "id": 1071547592,
  "lat": 54.8962949,
  "lon": 23.9206019
},
{
  "type": "node",
  "id": 1584047599,
  "lat": 54.8964850,
  "lon": 23.9203899
},
{
  "type": "node",
  "id": 2727755972,
  "lat": 54.8964939,
  "lon": 23.9201808
},
{
  "type": "node",
  "id": 2727755974,
  "lat": 54.8963898,
  "lon": 23.9204020
},
{
  "type": "node",
  "id": 2727756010,
  "lat": 54.8964826,
  "lon": 23.9204580
},
{
  "type": "node",
  "id": 2727756020,
  "lat": 54.8964937,
  "lon": 23.9200485
},
{
  "type": "node",
  "id": 1071547254,
  "lat": 54.8962926,
  "lon": 23.9208124
},
{
  "type": "node",
  "id": 1071547256,
  "lat": 54.8962895,
  "lon": 23.9207628
},
{
  "type": "node",
  "id": 1071547343,
  "lat": 54.8962548,
  "lon": 23.9207548
},
{
  "type": "node",
  "id": 1071547380,
  "lat": 54.8963551,
  "lon": 23.9207668
},
{
  "type": "node",
  "id": 1071547414,
  "lat": 54.8962895,
  "lon": 23.9208902
},
{
  "type": "node",
  "id": 1071547553,
  "lat": 54.8963528,
  "lon": 23.9209036
},
{
  "type": "node",
  "id": 1811024942,
  "lat": 54.8989475,
  "lon": 23.9234961
},
{
  "type": "node",
  "id": 1811024943,
  "lat": 54.8991687,
  "lon": 23.9235980
},
{
  "type": "node",
  "id": 1811024956,
  "lat": 54.8991070,
  "lon": 23.9242476
},
{
  "type": "node",
  "id": 1811024968,
  "lat": 54.8987048,
  "lon": 23.9241653
},
{
  "type": "node",
  "id": 1811024971,
  "lat": 54.8988175,
  "lon": 23.9240244
},
{
  "type": "node",
  "id": 1811024972,
  "lat": 54.8988811,
  "lon": 23.9236594
},
{
  "type": "node",
  "id": 1811024973,
  "lat": 54.8991105,
  "lon": 23.9241114
},
{
  "type": "node",
  "id": 1811024975,
  "lat": 54.8992268,
  "lon": 23.9236023
},
{
  "type": "node",
  "id": 1811024976,
  "lat": 54.8987558,
  "lon": 23.9241156
},
{
  "type": "node",
  "id": 1811024977,
  "lat": 54.8992239,
  "lon": 23.9238566
},
{
  "type": "node",
  "id": 1811024997,
  "lat": 54.8989404,
  "lon": 23.9236618
},
{
  "type": "node",
  "id": 1811025003,
  "lat": 54.8987428,
  "lon": 23.9242265
},
{
  "type": "node",
  "id": 1811025006,
  "lat": 54.8991635,
  "lon": 23.9241164
},
{
  "type": "node",
  "id": 1811025007,
  "lat": 54.8988770,
  "lon": 23.9239188
},
{
  "type": "node",
  "id": 1811025008,
  "lat": 54.8988201,
  "lon": 23.9239139
},
{
  "type": "node",
  "id": 1811025014,
  "lat": 54.8991693,
  "lon": 23.9238526
},
{
  "type": "node",
  "id": 1811025017,
  "lat": 54.8991712,
  "lon": 23.9235185
},
{
  "type": "node",
  "id": 1811025019,
  "lat": 54.8987583,
  "lon": 23.9240207
},
{
  "type": "node",
  "id": 2104086595,
  "lat": 54.8983066,
  "lon": 23.9230079
},
{
  "type": "node",
  "id": 2104086597,
  "lat": 54.8983143,
  "lon": 23.9227577
},
{
  "type": "node",
  "id": 2104086603,
  "lat": 54.8983743,
  "lon": 23.9227633
},
{
  "type": "node",
  "id": 2104086609,
  "lat": 54.8984864,
  "lon": 23.9230247
},
{
  "type": "node",
  "id": 2104086610,
  "lat": 54.8984941,
  "lon": 23.9227744
},
{
  "type": "node",
  "id": 2727755967,
  "lat": 54.8962533,
  "lon": 23.9208071
},
{
  "type": "node",
  "id": 2727755980,
  "lat": 54.8964018,
  "lon": 23.9209083
},
{
  "type": "node",
  "id": 2727755982,
  "lat": 54.8964646,
  "lon": 23.9209144
},
{
  "type": "node",
  "id": 2727755984,
  "lat": 54.8964608,
  "lon": 23.9211061
},
{
  "type": "node",
  "id": 2727755985,
  "lat": 54.8963524,
  "lon": 23.9210976
},
{
  "type": "node",
  "id": 2109148237,
  "lat": 54.9006168,
  "lon": 23.9327783
},
{
  "type": "node",
  "id": 2109148238,
  "lat": 54.9006730,
  "lon": 23.9330481
},
{
  "type": "node",
  "id": 2109148239,
  "lat": 54.9007220,
  "lon": 23.9327121
},
{
  "type": "node",
  "id": 2109148241,
  "lat": 54.9007782,
  "lon": 23.9329818
},
{
  "type": "node",
  "id": 2721957490,
  "lat": 54.9012423,
  "lon": 23.9316892
},
{
  "type": "node",
  "id": 2721957494,
  "lat": 54.9012859,
  "lon": 23.9318901
},
{
  "type": "node",
  "id": 2721957502,
  "lat": 54.9010005,
  "lon": 23.9317924
},
{
  "type": "node",
  "id": 2722800966,
  "lat": 54.9010012,
  "lon": 23.9320030
},
{
  "type": "node",
  "id": 2706241682,
  "lat": 54.9068970,
  "lon": 23.9501232
},
{
  "type": "node",
  "id": 2706241684,
  "lat": 54.9069677,
  "lon": 23.9502756
},
{
  "type": "node",
  "id": 2706241686,
  "lat": 54.9068982,
  "lon": 23.9503731
},
{
  "type": "node",
  "id": 2706241688,
  "lat": 54.9068276,
  "lon": 23.9502207
},
{
  "type": "node",
  "id": 2769052219,
  "lat": 54.9153028,
  "lon": 23.9138688
},
{
  "type": "node",
  "id": 2769052220,
  "lat": 54.9153533,
  "lon": 23.9139686
},
{
  "type": "node",
  "id": 2769052222,
  "lat": 54.9151758,
  "lon": 23.9139700
},
{
  "type": "node",
  "id": 2769052223,
  "lat": 54.9152061,
  "lon": 23.9139236
},
{
  "type": "node",
  "id": 2769052224,
  "lat": 54.9152327,
  "lon": 23.9139762
},
{
  "type": "node",
  "id": 2769052221,
  "lat": 54.9152528,
  "lon": 23.9141223
},
{
  "type": "node",
  "id": 2517293516,
  "lat": 54.9594092,
  "lon": 23.9223505
},
{
  "type": "node",
  "id": 2517293517,
  "lat": 54.9594233,
  "lon": 23.9222955
},
{
  "type": "node",
  "id": 2517293518,
  "lat": 54.9594299,
  "lon": 23.9224606
},
{
  "type": "node",
  "id": 2517293520,
  "lat": 54.9594364,
  "lon": 23.9222446
},
{
  "type": "node",
  "id": 2517293521,
  "lat": 54.9594500,
  "lon": 23.9223822
},
{
  "type": "node",
  "id": 2517293523,
  "lat": 54.9594922,
  "lon": 23.9222881
},
{
  "type": "node",
  "id": 2517293524,
  "lat": 54.9595046,
  "lon": 23.9222399
},
{
  "type": "node",
  "id": 2517293525,
  "lat": 54.9595172,
  "lon": 23.9225285
},
{
  "type": "node",
  "id": 2517293528,
  "lat": 54.9595768,
  "lon": 23.9222961
},
{
  "type": "node",
  "id": 2554337966,
  "lat": 54.9098580,
  "lon": 24.0616185
},
{
  "type": "node",
  "id": 2554337967,
  "lat": 54.9098784,
  "lon": 24.0617614
},
{
  "type": "node",
  "id": 2554337969,
  "lat": 54.9099879,
  "lon": 24.0615625
},
{
  "type": "node",
  "id": 2554337970,
  "lat": 54.9100083,
  "lon": 24.0617054
}

  ]
}
