{
  "version": 0.6,
  "generator": "Overpass API 0.7.55.9 ab41fea6",
  "osm3s": {
    "timestamp_osm_base": "2020-02-14T12:24:02Z",
    "copyright": "The data included in this document is from www.openstreetmap.org. The data is made available under ODbL."
  },
  "elements": [

{
  "type": "node",
  "id": 423200594,
  "lat": 50.0959137,
  "lon": 18.5415527,
  "tags": {
    "addr:city": "Rybnik",
    "addr:housenumber": "18",
    "addr:postcode": "44-200",
    "addr:street": "Rynek",
    "heritage": "2",
    "heritage:operator": "nid",
    "historic": "yes",
    "name": "Muzeum Miejskie w Rybniku",
    "ref:nid": "A/549/66",
    "tourism": "museum",
    "website": "http://www.muzeum.rybnik.pl/"
  }
},
{
  "type": "node",
  "id": 601123378,
  "lat": 50.2895737,
  "lon": 18.7913248,
  "tags": {
    "addr:city": "Zabrze",
    "addr:housenumber": "93",
    "addr:postcode": "41-800",
    "addr:street": "3 Maja",
    "heritage": "2",
    "heritage:operator": "nid",
    "name": "Zabytkowa Kopalnia Węgla Kamiennego Guido",
    "operator": "Muzeum Górnictwa Węglowego w Zabrzu",
    "ref:nid": "A/1342/87 z 26.02.1987",
    "tourism": "museum",
    "website": "https://kopalniaguido.pl/",
    "wikidata": "Q820499",
    "wikipedia": "pl:Zabytkowa Kopalnia Węgla Kamiennego Guido"
  }
},
{
  "type": "node",
  "id": 1123829057,
  "lat": 50.3150584,
  "lon": 18.7415651,
  "tags": {
    "addr:housenumber": "6",
    "addr:street": "Srebrna",
    "disused": "yes",
    "headframe": "yes",
    "heritage": "2",
    "heritage:operator": "nid",
    "historic": "yes",
    "image": "https://commons.wikimedia.org/wiki/File:Zabrze,_szyb_Maciej,_widok_od_pd..JPG",
    "man_made": "mineshaft",
    "name": "Szyb Maciej",
    "ref:nid": "A/164/05",
    "resource": "coal",
    "tourism": "museum",
    "wikidata": "Q9352520",
    "wikipedia": "pl:Szyb „Maciej”"
  }
},
{
  "type": "node",
  "id": 1188117210,
  "lat": 50.0623250,
  "lon": 18.4673739,
  "tags": {
    "heritage": "2",
    "heritage:operator": "nid",
    "historic": "mine",
    "name": "Zabytkowa Kopalnia Ignacy",
    "ref:nid": "A/165/05",
    "tourism": "museum",
    "website": "http://www.rybnik.pl/ignacy/dzis1.html",
    "wikidata": "Q9385507",
    "wikipedia": "pl:Zabytkowa Kopalnia „Ignacy”"
  }
},
{
  "type": "node",
  "id": 1260091901,
  "lat": 50.2441386,
  "lon": 19.0819996,
  "tags": {
    "addr:city": "Katowice",
    "addr:housenumber": "4",
    "addr:postcode": "40-425",
    "addr:street": "Rymarska",
    "email": "etnologia@mhk.katowice.pl",
    "name": "Muzeum Historii Katowic Dział Etnologii Miasta",
    "phone": "+48 32 353-95-59",
    "tourism": "museum",
    "website": "http://www.mhk.katowice.pl"
  }
},
{
  "type": "node",
  "id": 1312504347,
  "lat": 50.2441295,
  "lon": 18.9899604,
  "tags": {
    "name": "Izba Pamięci Kopalni Wujek",
    "tourism": "museum",
    "website": "http://www.muzeum-wujek.pl/",
    "wikidata": "Q15846174",
    "wikipedia": "pl:Muzeum – Izba Pamięci Kopalni Wujek w Katowicach"
  }
},
{
  "type": "node",
  "id": 1571522102,
  "lat": 50.1293033,
  "lon": 18.9892915,
  "tags": {
    "email": "kontakt@zwiedzbrowar.pl",
    "name": "Muzeum Tyskich Browarów Książęcych",
    "opening_hours": "Tu-Su 10:00-20:00",
    "phone": "+48 32 3278430",
    "tourism": "museum",
    "website": "https://zwiedzbrowar.pl",
    "wikidata": "Q9363737",
    "wikipedia": "pl:Muzeum Tyskich Browarów Książęcych"
  }
},
{
  "type": "node",
  "id": 1707613011,
  "lat": 50.3875150,
  "lon": 18.6120707,
  "tags": {
    "name": "Skansen kolejowy",
    "tourism": "museum"
  }
},
{
  "type": "node",
  "id": 1738722698,
  "lat": 50.1130108,
  "lon": 18.9952981,
  "tags": {
    "name": "Muzeum Maszyn Biurowych",
    "tourism": "museum"
  }
},
{
  "type": "node",
  "id": 1779004018,
  "lat": 50.2872417,
  "lon": 18.8329487,
  "tags": {
    "addr:city": "Ruda Śląska",
    "addr:housenumber": "42",
    "addr:postcode": "41-711",
    "addr:street": "Zajęcza",
    "name": "Muzeum PRLu",
    "operator": "Fundacja Minionej Epoki",
    "tourism": "museum",
    "website": "http://www.muzeumprl-u.pl"
  }
},
{
  "type": "node",
  "id": 1927559935,
  "lat": 50.2509984,
  "lon": 19.0182947,
  "tags": {
    "addr:city": "Katowice",
    "addr:housenumber": "39",
    "addr:postcode": "40-043",
    "addr:street": "Henryka Jordana",
    "email": "muzeum@archidiecezja.katowice.pl",
    "name": "Muzeum Archidiecezjalne",
    "opening_hours": "Tu,Th 14:00-18:00; Su 14:00-17:00",
    "phone": "+48 519-546-023",
    "tourism": "museum",
    "website": "http://www.muzeum.archidiecezja.katowice.pl",
    "wikidata": "Q11786910",
    "wikipedia": "pl:Muzeum Archidiecezjalne w Katowicach"
  }
},
{
  "type": "node",
  "id": 2085249672,
  "lat": 50.3033679,
  "lon": 18.7860506,
  "tags": {
    "addr:city": "Zabrze",
    "addr:housenumber": "6",
    "addr:postcode": "41-800",
    "addr:street": "3 Maja",
    "name": "Galeria Café Silesia",
    "tourism": "museum"
  }
},
{
  "type": "node",
  "id": 2119007467,
  "lat": 50.2224200,
  "lon": 19.0674933,
  "tags": {
    "name": "Izba Śląska",
    "tourism": "museum",
    "wikidata": "Q11714794",
    "wikipedia": "pl:Izba Śląska"
  }
},
{
  "type": "node",
  "id": 2121340137,
  "lat": 50.2552389,
  "lon": 19.0286178,
  "tags": {
    "addr:city": "Katowice",
    "addr:housenumber": "9",
    "addr:postcode": "40-025",
    "addr:street": "Księdza Józefa Szafranka",
    "building": "yes",
    "email": "mhk@mhk.katowice.pl",
    "fax": "+48 32 256-21-34",
    "name": "Muzeum Historii Katowic",
    "name:en": "Museum of Katowice History",
    "opening_hours": "Tu,Th 10:00-15:00; We,Fr 10:00-17:00; Sa,Su 11:00-14:00",
    "phone": "+48 32 256-18-10",
    "tourism": "museum",
    "website": "http://www.mhk.katowice.pl",
    "wikidata": "Q11786994",
    "wikipedia": "pl:Muzeum Historii Katowic"
  }
},
{
  "type": "node",
  "id": 2126492395,
  "lat": 50.2969579,
  "lon": 18.8067300,
  "tags": {
    "addr:city": "Zabrze",
    "addr:housenumber": "410",
    "addr:postcode": "41-806",
    "addr:street": "Wolności",
    "name": "Muzeum Pojazdów Zabytkowych Automobilklubu Śląskiego",
    "tourism": "museum"
  }
},
{
  "type": "node",
  "id": 2127459002,
  "lat": 50.3006128,
  "lon": 18.7860707,
  "tags": {
    "addr:city": "Zabrze",
    "addr:housename": "Pałac pod orłem",
    "addr:housenumber": "19",
    "addr:postcode": "41-800",
    "addr:street": "3 Maja",
    "name": "Muzeum Górnictwa Węglowego",
    "tourism": "museum",
    "website": "https://muzeumgornictwa.pl/",
    "wikidata": "Q11786985",
    "wikipedia": "pl:Muzeum Górnictwa Węglowego w Zabrzu"
  }
},
{
  "type": "node",
  "id": 2164060069,
  "lat": 50.3106185,
  "lon": 18.8523075,
  "tags": {
    "name": "Muzeum Miejskie im. Maksymiliana Chroboka",
    "source": "Bing",
    "tourism": "museum",
    "website": "http://www.muzeum.rsl.pl/",
    "wikidata": "Q11787073",
    "wikipedia": "pl:Muzeum Miejskie im. Maksymiliana Chroboka w Rudzie Śląskiej"
  }
},
{
  "type": "node",
  "id": 2185589932,
  "lat": 50.3106765,
  "lon": 19.0301415,
  "tags": {
    "addr:city": "Siemianowice Śląskie",
    "addr:housenumber": "6",
    "addr:postcode": "41-100",
    "addr:street": "Fryderyka Chopina",
    "name": "Muzeum Miejskie",
    "source": "UM Siemianowice Śląskie",
    "tourism": "museum"
  }
},
{
  "type": "node",
  "id": 2561139922,
  "lat": 50.4442654,
  "lon": 18.8547986,
  "tags": {
    "addr:housenumber": "1",
    "addr:street": "Rynek",
    "name": "Muzeum Miejskie",
    "tourism": "museum"
  }
},
{
  "type": "node",
  "id": 2645604963,
  "lat": 50.3079914,
  "lon": 18.7852693,
  "tags": {
    "name": "Muzeum Miejskie w Zabrzu",
    "tourism": "museum"
  }
},
{
  "type": "node",
  "id": 2837451030,
  "lat": 50.0516762,
  "lon": 18.9321205,
  "tags": {
    "tourism": "museum"
  }
},
{
  "type": "node",
  "id": 3054263486,
  "lat": 50.3288105,
  "lon": 19.1238599,
  "tags": {
    "name": "Muzeum Zagłębia",
    "tourism": "museum",
    "website": "http://muzeum.bedzin.pl/"
  }
},
{
  "type": "node",
  "id": 3107550049,
  "lat": 50.2994395,
  "lon": 19.1341281,
  "tags": {
    "addr:city": "Sosnowiec",
    "addr:housenumber": "60",
    "addr:postcode": "41-200",
    "addr:street": "Będzińska",
    "name": "Muzeum Geologiczne WNoZ",
    "tourism": "museum"
  }
},
{
  "type": "node",
  "id": 3120852154,
  "lat": 50.2975000,
  "lon": 18.8061000,
  "tags": {
    "disused": "yes",
    "man_made": "mineshaft",
    "name": "Skansen Górniczy Królowa Luiza",
    "tourism": "museum"
  }
},
{
  "type": "node",
  "id": 3286644609,
  "lat": 50.0462435,
  "lon": 18.6909247,
  "tags": {
    "addr:city": "Żory",
    "addr:housenumber": "1",
    "addr:postcode": "44-240",
    "addr:street": "Muzealna",
    "name": "Muzeum Miejskie w Żorach",
    "tourism": "museum",
    "website": "http://www.muzeum.zory.pl/"
  }
},
{
  "type": "node",
  "id": 3286650535,
  "lat": 50.0441080,
  "lon": 18.6992941,
  "tags": {
    "name": "Muzeum Ognia",
    "tourism": "museum"
  }
},
{
  "type": "node",
  "id": 3353606263,
  "lat": 50.4088732,
  "lon": 18.9144915,
  "tags": {
    "addr:city": "Radzionków",
    "addr:housenumber": "118",
    "addr:postcode": "41-922",
    "addr:street": "Świętego Wojciecha",
    "name": "Centrum Dokumentacji Deportacji Górnoślązaków do ZSRR w 1945 roku",
    "tourism": "museum"
  }
},
{
  "type": "node",
  "id": 3665931777,
  "lat": 50.3818347,
  "lon": 18.9013938,
  "tags": {
    "addr:city": "Radzionków",
    "addr:housenumber": "5",
    "addr:postcode": "41-922",
    "addr:street": "Zofii Nałkowskiej",
    "name": "Muzeum Chleba",
    "tourism": "museum"
  }
},
{
  "type": "node",
  "id": 4200505141,
  "lat": 50.1323888,
  "lon": 18.8413155,
  "tags": {
    "name": "Muzeum Energetyki",
    "tourism": "museum"
  }
},
{
  "type": "node",
  "id": 4215221617,
  "lat": 50.2957050,
  "lon": 18.8061406,
  "tags": {
    "addr:city": "Zabrze",
    "addr:housenumber": "410",
    "addr:postcode": "41-800",
    "addr:street": "Wolności",
    "name": "Sztolnia Królowa Luiza (łaźnia łańcuszkowa)",
    "operator": "Muzeum Górnictwa Węglowego w Zabrzu",
    "tourism": "museum",
    "website": "https://www.sztolnialuiza.pl/"
  }
},
{
  "type": "node",
  "id": 4831024127,
  "lat": 50.2528281,
  "lon": 19.0226279,
  "tags": {
    "name": "Muzeum Historii Komputerów i Informatyki",
    "tourism": "museum",
    "website": "http://www.muzeumkomputerow.edu.pl/",
    "wikidata": "Q16579900",
    "wikipedia": "pl:Muzeum Historii Komputerów i Informatyki"
  }
},
{
  "type": "node",
  "id": 4938047142,
  "lat": 50.1917449,
  "lon": 18.4603492,
  "tags": {
    "email": "zaczarowanachata@onet.pl",
    "name": "Zaczarowana Chata: Etno Muzeum",
    "phone": "+48887 611 587",
    "tourism": "museum",
    "website": "http://zaczarowanachata.pl/"
  }
},
{
  "type": "node",
  "id": 4962418650,
  "lat": 50.4300311,
  "lon": 18.7999996,
  "tags": {
    "disused": "yes",
    "man_made": "mineshaft",
    "name": "Sztolnia Czarnego Pstrąga",
    "tourism": "museum"
  }
},
{
  "type": "node",
  "id": 5401109671,
  "lat": 50.3031999,
  "lon": 18.6934874,
  "tags": {
    "addr:city": "Gliwice",
    "addr:housenumber": "14",
    "addr:postcode": "44-100",
    "addr:street": "Księcia Józefa Poniatowskiego",
    "name": "Dom Pamięci Żydów Górnoslaskich",
    "opening_hours": "Tu-Fr 10:00-16:00; Sa 11:00-17:00; Su 10:00-15:00",
    "operator": "Muzeum w Gliwicach",
    "tourism": "museum"
  }
},
{
  "type": "node",
  "id": 5422071403,
  "lat": 50.1167832,
  "lon": 18.9779849,
  "tags": {
    "addr:city": "Tychy",
    "addr:country": "PL",
    "addr:housenumber": "8",
    "addr:postcode": "43-100",
    "addr:street": "Żwakowska",
    "email": "arhen-dominiak@hotmail.com",
    "name": "Muzeum Miniaturowej Sztuki Profesjonalnej Henryk Jan Dominiak",
    "phone": "+48 32 2181524",
    "tourism": "museum",
    "website": "http://muzeumminiaturowejsztukiprofesjonalnejhenrykjandominiak.eu"
  }
},
{
  "type": "node",
  "id": 6173258659,
  "lat": 50.2144356,
  "lon": 18.9691042,
  "tags": {
    "name": "Muzeum Najmniejszych Książek Świata Zygmunta Szkocnego",
    "tourism": "museum",
    "wikidata": "Q11787090",
    "wikipedia": "pl:Muzeum Najmniejszych Książek Świata Zygmunta Szkocnego"
  }
},
{
  "type": "node",
  "id": 6568113276,
  "lat": 50.2781262,
  "lon": 18.8517141,
  "tags": {
    "addr:street": "Cynkowa",
    "attraction": "museum",
    "name": "Izba Muzealna - Ciężki Schron Bojowy nr 33",
    "operator": "Muzeum Miejskie im. Maksymiliania Chroboka w Rudzie Śląskiej",
    "tourism": "museum"
  }
},
{
  "type": "node",
  "id": 6738274630,
  "lat": 50.1235457,
  "lon": 18.9911355,
  "tags": {
    "name": "Tyska Galeria Sportu",
    "opening_hours": "Tu,We,Fr 10:00-16:00; Th 10:00-20:00",
    "operator": "Muzeum Miejskie w Tychach",
    "phone": "+48 515717430",
    "tourism": "museum",
    "website": "http://www.tgs.tychy.pl"
  }
},
{
  "type": "node",
  "id": 7150782406,
  "lat": 50.1298128,
  "lon": 18.9722020,
  "tags": {
    "name": "Muzeum Śląskiego Września 1939",
    "tourism": "museum"
  }
},
{
  "type": "way",
  "id": 38917101,
  "nodes": [
    462324532,
    2132774402,
    2132774405,
    2132774294,
    462324534,
    462324538,
    2132774213,
    2132774196,
    462324539,
    462324549,
    462324551,
    2132774218,
    2132774222,
    462324553,
    2132774236,
    2132774231,
    2132774229,
    2132774234,
    462324554,
    2132774246,
    2132774259,
    462324556,
    2132774296,
    462324558,
    2132774287,
    2132774291,
    2132774312,
    2132774309,
    2132774376,
    2132774378,
    462324560,
    462324532
  ],
  "tags": {
    "addr:city": "Bytom",
    "addr:housenumber": "34",
    "addr:postcode": "41-902",
    "addr:street": "Wojciecha Korfantego",
    "building": "yes",
    "heritage": "2",
    "heritage:operator": "nid",
    "historic": "yes",
    "name": "Filia Muzeum Górnośląskiego",
    "ref:nid": "A/117/04",
    "source": "Ortofotomapa Bytom",
    "tourism": "museum"
  }
},
{
  "type": "way",
  "id": 46832030,
  "nodes": [
    598177303,
    2441869803,
    598177292,
    598177305,
    598177306,
    598177256,
    2441869799,
    2441869800,
    598177257,
    462324529,
    592288416,
    598177303
  ],
  "tags": {
    "building": "yes",
    "heritage": "2",
    "heritage:operator": "nid",
    "historic": "yes",
    "name": "Muzeum Górnośląskie",
    "ref:nid": "A/379/12",
    "tourism": "museum",
    "website": "http://www.muzeum.bytom.pl/",
    "wikidata": "Q11786987",
    "wikipedia": "pl:Muzeum Górnośląskie w Bytomiu"
  }
},
{
  "type": "way",
  "id": 73057773,
  "nodes": [
    867126043,
    3757644954,
    3757644953,
    3757644947,
    3757644948,
    3757644944,
    867126049,
    3757644942,
    3757644940,
    3757644938,
    3757644935,
    3757644929,
    3757644925,
    3757644824,
    3757644926,
    3757644930,
    3757644932,
    3757644933,
    3757644823,
    3757644822,
    3757644934,
    3757644936,
    3757644931,
    3757644927,
    3757644928,
    867126052,
    3757644937,
    3757644939,
    3757644941,
    3757644943,
    3757644945,
    3757644946,
    3757644949,
    3757644950,
    3757644952,
    3757644951,
    867126056,
    3757644955,
    3757644956,
    3757644957,
    3757644958,
    3757644960,
    3757644962,
    3757644963,
    3757644961,
    3757644965,
    3757644964,
    3757644959,
    867126043
  ],
  "tags": {
    "addr:city": "Sosnowiec",
    "addr:country": "PL",
    "addr:housenumber": "12/13",
    "addr:postcode": "41-205",
    "addr:street": "Chemiczna",
    "building": "yes",
    "castle_type": "palace",
    "heritage": "yes",
    "historic": "castle",
    "name": "Muzeum (Pałac Schoenów)",
    "old_name": "Pałac Schöna",
    "source:addr": "EMUiA (emuia.gugik.gov.pl)",
    "start_date": "1885",
    "tourism": "museum",
    "wikidata": "Q2258674",
    "wikipedia": "pl:Pałac Schöna w Sosnowcu Środuli"
  }
},
{
  "type": "way",
  "id": 73057776,
  "nodes": [
    867126087,
    3757644970,
    3757644971,
    3757644969,
    3757644968,
    867126075,
    867126080,
    3757644967,
    3757644966,
    3757644972,
    3757644973,
    867126084,
    3757644974,
    3757644975,
    867126087
  ],
  "tags": {
    "addr:city": "Sosnowiec",
    "addr:country": "PL",
    "addr:housenumber": "12/14",
    "addr:postcode": "41-205",
    "addr:street": "Chemiczna",
    "building": "yes",
    "castle_type": "palace",
    "heritage": "yes",
    "historic": "castle",
    "name": "Pałac Wilhelma",
    "source:addr": "EMUiA (emuia.gugik.gov.pl)",
    "start_date": "1900",
    "tourism": "museum",
    "wikidata": "Q11814880",
    "wikipedia": "pl:Pałac Wilhelma"
  }
},
{
  "type": "way",
  "id": 89954092,
  "nodes": [
    1042701278,
    1687008107,
    1042701287,
    1687008117,
    1687008085,
    1042701320,
    3833482223,
    1042701326,
    3833482205,
    1687007957,
    1687007881,
    1687007833,
    1687007828,
    1687007797,
    1042701208,
    1687007815,
    1687007997,
    1042701278
  ],
  "tags": {
    "barrier": "fence",
    "name": "Muzeum Historii Radia i Sztuki Mediów – Radiostacja Gliwice",
    "tourism": "museum",
    "wikidata": "Q597596",
    "wikipedia": "pl:Radiostacja gliwicka"
  }
},
{
  "type": "way",
  "id": 120822297,
  "nodes": [
    1353804500,
    1353804752,
    1353804403,
    1353804409,
    1353803827,
    1353803668,
    1353803371,
    1353803199,
    1353803767,
    1353803743,
    1353803791,
    1353803749,
    1353804500
  ],
  "tags": {
    "addr:city": "Tarnowskie Góry",
    "addr:housenumber": "81",
    "addr:postcode": "42-600",
    "addr:street": "Szczęść Boże",
    "building": "yes",
    "name": "Zabytkowa Kopalnia Srebra",
    "source": "UM TG /Bing",
    "source:addr": "EMUiA (emuia.gugik.gov.pl)",
    "tourism": "museum"
  }
},
{
  "type": "way",
  "id": 167679299,
  "nodes": [
    1790576988,
    4415532225,
    4415532224,
    1790576986,
    1790576988
  ],
  "tags": {
    "alt_name": "OWŚ",
    "building": "yes",
    "historic": "yes",
    "image": "https://commons.wikimedia.org/wiki/File:Bunkier_bobrowniki.jpg",
    "military": "bunker",
    "name": "Izba Muzealna \"Obszaru Warownego Śląsk\" - OWŚ",
    "old_name": "Polski Schron Bojowy",
    "tourism": "museum"
  }
},
{
  "type": "way",
  "id": 171897172,
  "nodes": [
    1828633832,
    1828633829,
    1828633828,
    1828633825,
    1828633826,
    5184361902,
    1828633790,
    1828633791,
    1828633732,
    2285964019,
    1828633705,
    3065520133,
    1828633704,
    1828633718,
    1828633763,
    1828633775,
    1828633725,
    1828633711,
    1828633712,
    1828633735,
    1828633789,
    1828633792,
    1828633844,
    1828633843,
    1828633848,
    1828633849,
    1828633846,
    1828633842,
    1828633841,
    1828633837,
    1828633838,
    1828633834,
    1828633835,
    1828633821,
    1828633820,
    1828633817,
    1828633816,
    1828633800,
    1828633799,
    1828633812,
    1828633815,
    1828633822,
    1828633819,
    1828633824,
    1828633831,
    1828633839,
    1828633830,
    1828633833,
    1828633832
  ],
  "tags": {
    "addr:city": "Rudy",
    "addr:housenumber": "4",
    "addr:postcode": "47-430",
    "addr:street": "Cysterska",
    "building": "yes",
    "email": "rudy.opactwo@gmail.com",
    "heritage": "2",
    "heritage:operator": "nid",
    "historic": "castle",
    "name": "Pocysterski Zespół Klasztorno-Pałacowy",
    "name:de": "Kloster Rauden",
    "name:pl": "Pocysterski Zespół Klasztorno-Pałacowy",
    "phone": "+4832 410 33 11",
    "ref:nid": "A/1643/97",
    "tourism": "museum",
    "website": "http://www.rudy-opactwo.pl/",
    "wikidata": "Q1475089",
    "wikipedia": "pl:Opactwo Cystersów w Rudach"
  }
},
{
  "type": "way",
  "id": 179130300,
  "nodes": [
    1894686327,
    1894686183,
    1894685993,
    1894686003,
    1894685875,
    1894685954,
    1894686065,
    1894686081,
    1894686209,
    1894686184,
    1894686327
  ],
  "tags": {
    "addr:city": "Chorzów",
    "addr:country": "PL",
    "addr:housenumber": "25",
    "addr:postcode": "41-500",
    "addr:street": "Powstańców",
    "building": "yes",
    "name": "Muzeum Miejskie w Chorzowie",
    "tourism": "museum"
  }
},
{
  "type": "way",
  "id": 179811471,
  "nodes": [
    1902427876,
    1902427874,
    1902427871,
    1902427916,
    1902427921,
    1902427923,
    1902427940,
    1902427953,
    1902427958,
    1902427886,
    1902427882,
    1902427899,
    1902427876
  ],
  "tags": {
    "building": "yes",
    "building:levels": "2",
    "email": "biuro@mpsl.pl",
    "image": "https://pl.wikipedia.org/wiki/Muzeum_Powsta%C5%84_%C5%9Al%C4%85skich_w_%C5%9Awi%C4%99toch%C5%82owicach#/media/File:Muzeum_Powsta%C5%84_%C5%9Al%C4%85skich_SW.jpg",
    "name": "Muzeum Powstań Śląskich",
    "payment:cash": "yes",
    "payment:coins": "yes",
    "payment:maestro": "yes",
    "payment:notes": "yes",
    "payment:visa_electron": "yes",
    "phone": "32 245 23 88",
    "tourism": "museum",
    "website": "www.muzeumpowstanslaskich.pl",
    "wheelchair": "yes"
  }
},
{
  "type": "way",
  "id": 184414688,
  "nodes": [
    1948914719,
    1948914715,
    1948914716,
    1948914708,
    1948914709,
    1948914707,
    1948914713,
    1948914712,
    1948914714,
    1948914710,
    1948914711,
    1948914717,
    1948914720,
    1948914721,
    1948914722,
    1948914728,
    1948914730,
    1948914734,
    1948914737,
    1948914735,
    1948914736,
    1948914732,
    1948914733,
    1948914731,
    5325841888,
    1948914729,
    1948914727,
    1948914726,
    1948914725,
    1948914724,
    1948914723,
    1948914718,
    1948914719
  ],
  "tags": {
    "addr:city": "Gliwice",
    "addr:housename": "Willa Caro",
    "addr:housenumber": "8a",
    "addr:postcode": "44-100",
    "addr:street": "Dolnych Wałów",
    "building": "yes",
    "heritage": "2",
    "heritage:operator": "nid",
    "historic": "yes",
    "name": "Muzeum w Gliwicach",
    "ref:nid": "A/1309/83",
    "source:addr": "EMUiA (emuia.gugik.gov.pl)",
    "start_date": "1885",
    "tourism": "museum",
    "wikidata": "Q122740",
    "wikipedia": "pl:Willa Caro"
  }
},
{
  "type": "way",
  "id": 202025535,
  "nodes": [
    2120092144,
    2120091010,
    2120090990,
    2120090967,
    2120090849,
    2120090605,
    2120090603,
    2120090302,
    2120090336,
    2120090375,
    2120090643,
    2120090726,
    2120091138,
    4907440467,
    2120092144
  ],
  "tags": {
    "alt_name": "Walcownia Cynku Szopienice",
    "building": "hall",
    "historic": "industrial",
    "name": "Muzeum Hutnictwa Cynku",
    "source": "UM Katowice",
    "tourism": "museum",
    "website": "http://www.walcownia.org/",
    "wikidata": "Q29905579",
    "wikipedia": "pl:Walcownia - Muzeum Hutnictwa Cynku"
  }
},
{
  "type": "way",
  "id": 202209444,
  "nodes": [
    2121897167,
    2121897131,
    4946094550,
    4946129221,
    2121896562,
    2121896599,
    2121897167
  ],
  "tags": {
    "addr:city": "Katowice",
    "addr:housenumber": "6",
    "addr:street": "Aleja Wojciecha Korfantego",
    "building": "yes",
    "name": "Galeria Sztuki Współczesnej BWA",
    "source": "UM Katowice",
    "tourism": "museum"
  }
},
{
  "type": "way",
  "id": 202259267,
  "nodes": [
    2122346416,
    2122346363,
    2122346361,
    2122346164,
    2122346174,
    2122345861,
    2122345863,
    3918871347,
    3918871346,
    3918871345,
    3918871344,
    3918871343,
    3918871342,
    3918871341,
    3918871340,
    3918871339,
    3918871338,
    3918871337,
    3918871336,
    3918871335,
    3918871334,
    3918871333,
    3918871332,
    3918871331,
    3918871330,
    3918871329,
    3918871328,
    3918871322,
    2122346485,
    2122346421,
    2122346416
  ],
  "tags": {
    "addr:city": "Katowice",
    "addr:housenumber": "3",
    "addr:postcode": "40-005",
    "addr:street": "Aleja Wojciecha Korfantego",
    "building": "yes",
    "email": "dyrekcja@muzeumslaskie.pl",
    "heritage": "2",
    "heritage:operator": "nid",
    "name": "Muzeum Śląskie",
    "opening_hours": "Tu-We 10:00-18:00; Th 10:00-19:00; Fr 12:00-16:00; Sa 12:00-18:00; Su 12:00-17:00",
    "phone": "+48 32 258-56-61",
    "ref:nid": "A/306/10",
    "source": "UM Katowice",
    "tourism": "museum",
    "website": "http://www.muzuemslaskie.pl",
    "wikidata": "Q2239241",
    "wikipedia": "pl:Muzeum Śląskie w Katowicach"
  }
},
{
  "type": "way",
  "id": 219276662,
  "nodes": [
    2284553368,
    2284553391,
    2284553407,
    6904014178,
    2284553576,
    2284553554,
    2284553627,
    2284553823,
    2284553809,
    2284554096,
    2284554126,
    2284554201,
    2284554168,
    2284554187,
    2284554141,
    2284554112,
    2284553921,
    2284553938,
    2284553892,
    2284553667,
    2284553682,
    2284553463,
    2284553457,
    2284553368
  ],
  "tags": {
    "addr:city": "Czeladź",
    "addr:housenumber": "10",
    "addr:postcode": "41-250",
    "addr:street": "Piotra Pawła i Leokadii Dehnelów",
    "building": "retail",
    "building:levels": "2",
    "building:use:pl": "Handlowo-usługowy",
    "castle_type": "palace",
    "name": "Muzeum Saturn",
    "source": "Starostwo Powiatowe Będzin",
    "tourism": "museum",
    "wikidata": "Q16580171",
    "wikipedia": "pl:Muzeum Saturn w Czeladzi"
  }
},
{
  "type": "way",
  "id": 219280861,
  "nodes": [
    2284555482,
    2284554618,
    2614817021,
    2614817016,
    2284554631,
    2284554891,
    2284554896,
    2284555166,
    2284555159,
    2284555500,
    2284555482
  ],
  "tags": {
    "building": "yes",
    "historic": "building",
    "name": "Galeria Elektrownia",
    "tourism": "museum"
  }
},
{
  "type": "way",
  "id": 219345265,
  "nodes": [
    2285041961,
    2285041841,
    2285041662,
    2285041664,
    2285041682,
    2285041828,
    2285041830,
    2285041960,
    2285041962,
    2285041961
  ],
  "tags": {
    "amenity": "place_of_worship",
    "building": "residential",
    "building:levels": "3",
    "building:use:pl": "Mieszkalny",
    "historic": "yes",
    "name": "Synagoga Cukermana",
    "religion": "jewish",
    "source": "Starostwo Powiatowe Będzin",
    "tourism": "museum",
    "wikidata": "Q11694652",
    "wikipedia": "pl:Dom Modlitwy Cukermana w Będzinie"
  }
},
{
  "type": "way",
  "id": 220962916,
  "nodes": [
    2300272972,
    2300272973,
    2300272969,
    2300272968,
    2300272972
  ],
  "tags": {
    "addr:city": "Siemianowice Śląskie",
    "addr:housenumber": "12",
    "addr:postcode": "41-100",
    "addr:street": "Elizy Orzeszkowej",
    "building": "yes",
    "name": "Park Tradycji",
    "source": "UM Siemianowice Śląskie (wms:ortofoto)",
    "tourism": "museum"
  }
},
{
  "type": "way",
  "id": 222743905,
  "nodes": [
    2316831149,
    6140266982,
    2316831065,
    2316831022,
    2316831016,
    2316830980,
    2316830987,
    2316830934,
    2316831009,
    2316831032,
    2316831011,
    2316831149
  ],
  "tags": {
    "building": "yes",
    "description": "Zabytkowy spichlerz",
    "source": "WMS UM Siemianowice Śląskie",
    "tourism": "museum"
  }
},
{
  "type": "way",
  "id": 258607382,
  "nodes": [
    2639406177,
    2639406168,
    2639406153,
    2639406200,
    2639406284,
    2639406242,
    2639406238,
    2639406179,
    2639406177
  ],
  "tags": {
    "building": "yes",
    "name": "Muzeum Techniki Sanitarnej",
    "tourism": "museum"
  }
},
{
  "type": "way",
  "id": 306149015,
  "nodes": [
    3109800295,
    3109800296,
    3109800297,
    3109800298,
    3109800299,
    3109800301,
    3109800303,
    3109800312,
    4419411896,
    4419411907,
    4419411917,
    4419454984,
    3109800325,
    3109800327,
    4419411944,
    3109800326,
    3183630004,
    3183629998,
    3183629991,
    3109800324,
    3183629981,
    3183629983,
    3109800321,
    3109800322,
    3890445363,
    3109800323,
    3116995498,
    3109800307,
    3116995494,
    3109800306,
    3109800302,
    3109800300,
    3109800295
  ],
  "tags": {
    "name": "Muzeum Śląskie",
    "name:de": "Schlesisches Museum",
    "name:pl": "Muzeum Śląskie",
    "tourism": "museum",
    "website": "https://www.muzeumslaskie.pl/"
  }
},
{
  "type": "way",
  "id": 375967501,
  "nodes": [
    3793014289,
    3793012991,
    3793012989,
    3793013232,
    3793013228,
    3793006126,
    3793013227,
    3793014869,
    6738196910,
    3793013243,
    3793014868,
    6738196911,
    3793014289
  ],
  "tags": {
    "addr:city": "Tychy",
    "addr:housenumber": "1",
    "addr:postcode": "43-100",
    "addr:street": "Plac Wolności",
    "building": "public",
    "name": "Muzeum Miejskie",
    "opening_hours": "Mo,Su off; Tu 12:00-16:00; We 10:00-17:00; Th 10:00-19:00; Fr-Sa 10:00-18:00",
    "tourism": "museum",
    "wikidata": "Q11787076",
    "wikipedia": "pl:Muzeum Miejskie w Tychach"
  }
},
{
  "type": "way",
  "id": 443375361,
  "nodes": [
    3133135801,
    3133135802,
    3133135833,
    3133135822,
    3133135838,
    3133135836,
    3133135813,
    3133135810,
    3133135801
  ],
  "tags": {
    "building": "yes",
    "heritage": "2",
    "heritage:operator": "nid",
    "historic": "yes",
    "name": "Muzeum Domek Matki Ewy",
    "ref:nid": "1350",
    "start_date": "1902",
    "tourism": "museum",
    "website": "http://muzeummatkiewy.luteranie.pl/",
    "wikipedia": "pl:Ewa von Tiele Winckler"
  }
},
{
  "type": "way",
  "id": 527647954,
  "nodes": [
    5046198561,
    978634186,
    5046198309,
    5046198310,
    5046392722,
    5046391818,
    1792950402,
    5043826542,
    5077360410,
    5046198563,
    5129350176,
    1792950401,
    5129358143,
    5236905027,
    5236905026,
    5236905028,
    5236905029,
    5236905030,
    5236905024,
    5236905025,
    5236904217,
    5236905031,
    5236904218,
    5236904219,
    5236905032,
    5129358125,
    5129358128,
    5129358124,
    5129357887,
    5236905050,
    5129358122,
    5129358121,
    5129357918,
    5236904208,
    5236904209,
    5129357916,
    5129357915,
    2344444296,
    5129357908,
    2344444295,
    1792951149,
    1792951147,
    1792951142,
    1792951160,
    1792951220,
    5129357907,
    5129357906,
    5129357905,
    5129357904,
    5129357903,
    5129357902,
    5129357898,
    5129357897,
    5129357896,
    5129357895,
    5129357894,
    5129357893,
    5129357892,
    5129357891,
    5129358160,
    5129358161,
    5129358162,
    5129358171,
    5129350183,
    5129358170,
    5129358169,
    5129358168,
    5129358167,
    5129358166,
    5129358165,
    5129358164,
    5129358163,
    5129358179,
    5129358178,
    5129358177,
    5129358191,
    5129358192,
    5129358193,
    5129358194,
    5129358195,
    5129358196,
    5129358197,
    5129358198,
    5129358199,
    5129357888,
    5129358201,
    5129358202,
    5129358176,
    5129358174,
    5129358203,
    5129358204,
    5129358205,
    5129358206,
    5129358207,
    5129358210,
    5129358173,
    5129358209,
    5129358366,
    5129358208,
    5129350174,
    5129350175,
    5129350173,
    5129357879,
    5129357886,
    461863281,
    5129357885,
    5129357884,
    1792950405,
    5129357883,
    5129357882,
    5129357881,
    5129357880,
    5046199435,
    5046392726,
    5046198562,
    5043826374,
    5043826375,
    5046198561
  ],
  "tags": {
    "alt_name": "Skansen w Chorzowie",
    "contact:email": "sekretariat@muzeumgpe-chorzow.pl",
    "contact:phone": "+48 32 241 07 18",
    "contact:website": "http://muzeumgpe-chorzow.pl/",
    "museum": "open_air",
    "name": "Muzeum \"Górnośląski Park Etnograficzny\" w Chorzowie",
    "official_name": "Muzeum \"Górnośląski Park Etnograficzny\" w Chorzowie",
    "old_name": "Górnośląski Park Etnograficzny",
    "opening_hours": "May-Aug Mo-Fr 09:00-19:00, Sa-Su 9:00-21:00; Sep Mo-Fr 09:00-19:00, Sa-Su 9:00-19:00; Oct Mo-Fr 09:00-17:00, Sa-Su 10:00-17:00; Oct Nov-Apr 09:00-16:00, Sa-Su 10:00-16:00; ",
    "reg_name": "Skansen w Chorzowie",
    "short_name": "MGPE",
    "start_date": "1975",
    "tourism": "museum",
    "wheelchair": "limited"
  }
},
{
  "type": "way",
  "id": 567548129,
  "nodes": [
    5462724287,
    6814418012,
    5462724288,
    5462724289,
    5462724290,
    5462724291,
    6814418010,
    5462724292,
    5462724293,
    5462724294,
    5462724295,
    6814418008,
    5462724296,
    5462724297,
    6814418017,
    5462724298,
    5462724299,
    5462724300,
    5462724301,
    6814418019,
    5462724302,
    5462724303,
    5462724304,
    5462724305,
    6814418021,
    5462724306,
    5462724287
  ],
  "tags": {
    "addr:street": "Zwycięstwa",
    "building": "yes",
    "name": "Muzeum Bitwy o Benzynę - Strefa Historii i Inspiracji",
    "operator": "Stowarzyszenie Blechhammer-1944",
    "tourism": "museum"
  }
},
{
  "type": "node",
  "id": 1828633704,
  "lat": 50.1940843,
  "lon": 18.4482359
},
{
  "type": "node",
  "id": 1828633705,
  "lat": 50.1940884,
  "lon": 18.4481254
},
{
  "type": "node",
  "id": 1828633718,
  "lat": 50.1942037,
  "lon": 18.4483342
},
{
  "type": "node",
  "id": 1828633732,
  "lat": 50.1942475,
  "lon": 18.4480985
},
{
  "type": "node",
  "id": 1828633763,
  "lat": 50.1943643,
  "lon": 18.4483161
},
{
  "type": "node",
  "id": 1828633790,
  "lat": 50.1945020,
  "lon": 18.4480128
},
{
  "type": "node",
  "id": 1828633791,
  "lat": 50.1945067,
  "lon": 18.4480673
},
{
  "type": "node",
  "id": 1828633799,
  "lat": 50.1945125,
  "lon": 18.4481961
},
{
  "type": "node",
  "id": 1828633812,
  "lat": 50.1945838,
  "lon": 18.4481869
},
{
  "type": "node",
  "id": 1828633815,
  "lat": 50.1945857,
  "lon": 18.4482678
},
{
  "type": "node",
  "id": 1828633819,
  "lat": 50.1946513,
  "lon": 18.4481803
},
{
  "type": "node",
  "id": 1828633822,
  "lat": 50.1946568,
  "lon": 18.4482606
},
{
  "type": "node",
  "id": 1828633824,
  "lat": 50.1947291,
  "lon": 18.4481709
},
{
  "type": "node",
  "id": 1828633825,
  "lat": 50.1947506,
  "lon": 18.4479725
},
{
  "type": "node",
  "id": 1828633826,
  "lat": 50.1947441,
  "lon": 18.4479843
},
{
  "type": "node",
  "id": 1828633828,
  "lat": 50.1947586,
  "lon": 18.4479522
},
{
  "type": "node",
  "id": 1828633829,
  "lat": 50.1947858,
  "lon": 18.4479511
},
{
  "type": "node",
  "id": 1828633830,
  "lat": 50.1947848,
  "lon": 18.4480223
},
{
  "type": "node",
  "id": 1828633831,
  "lat": 50.1947688,
  "lon": 18.4483663
},
{
  "type": "node",
  "id": 1828633832,
  "lat": 50.1947974,
  "lon": 18.4479738
},
{
  "type": "node",
  "id": 1828633833,
  "lat": 50.1947956,
  "lon": 18.4480020
},
{
  "type": "node",
  "id": 1828633839,
  "lat": 50.1948465,
  "lon": 18.4483279
},
{
  "type": "node",
  "id": 2285964019,
  "lat": 50.1941362,
  "lon": 18.4481169
},
{
  "type": "node",
  "id": 3065520133,
  "lat": 50.1940933,
  "lon": 18.4482176
},
{
  "type": "node",
  "id": 5184361902,
  "lat": 50.1945455,
  "lon": 18.4480077
},
{
  "type": "node",
  "id": 1828633711,
  "lat": 50.1941717,
  "lon": 18.4485989
},
{
  "type": "node",
  "id": 1828633712,
  "lat": 50.1941777,
  "lon": 18.4486769
},
{
  "type": "node",
  "id": 1828633725,
  "lat": 50.1942142,
  "lon": 18.4485816
},
{
  "type": "node",
  "id": 1828633735,
  "lat": 50.1942657,
  "lon": 18.4488099
},
{
  "type": "node",
  "id": 1828633775,
  "lat": 50.1943792,
  "lon": 18.4485594
},
{
  "type": "node",
  "id": 1828633789,
  "lat": 50.1944940,
  "lon": 18.4487637
},
{
  "type": "node",
  "id": 1828633792,
  "lat": 50.1945162,
  "lon": 18.4491116
},
{
  "type": "node",
  "id": 1828633800,
  "lat": 50.1945315,
  "lon": 18.4485297
},
{
  "type": "node",
  "id": 1828633816,
  "lat": 50.1946079,
  "lon": 18.4485188
},
{
  "type": "node",
  "id": 1828633817,
  "lat": 50.1946289,
  "lon": 18.4488235
},
{
  "type": "node",
  "id": 1828633820,
  "lat": 50.1946626,
  "lon": 18.4488184
},
{
  "type": "node",
  "id": 1828633821,
  "lat": 50.1946750,
  "lon": 18.4488842
},
{
  "type": "node",
  "id": 1828633834,
  "lat": 50.1948202,
  "lon": 18.4487982
},
{
  "type": "node",
  "id": 1828633835,
  "lat": 50.1948211,
  "lon": 18.4488638
},
{
  "type": "node",
  "id": 1828633837,
  "lat": 50.1948378,
  "lon": 18.4486566
},
{
  "type": "node",
  "id": 1828633838,
  "lat": 50.1948663,
  "lon": 18.4487947
},
{
  "type": "node",
  "id": 1828633841,
  "lat": 50.1949160,
  "lon": 18.4486171
},
{
  "type": "node",
  "id": 1828633842,
  "lat": 50.1949536,
  "lon": 18.4487866
},
{
  "type": "node",
  "id": 1828633843,
  "lat": 50.1949387,
  "lon": 18.4488693
},
{
  "type": "node",
  "id": 1828633844,
  "lat": 50.1949451,
  "lon": 18.4490476
},
{
  "type": "node",
  "id": 1828633846,
  "lat": 50.1949720,
  "lon": 18.4488051
},
{
  "type": "node",
  "id": 1828633848,
  "lat": 50.1949561,
  "lon": 18.4488719
},
{
  "type": "node",
  "id": 1828633849,
  "lat": 50.1949714,
  "lon": 18.4488453
},
{
  "type": "node",
  "id": 5462724287,
  "lat": 50.3532938,
  "lon": 18.2615065
},
{
  "type": "node",
  "id": 5462724288,
  "lat": 50.3533061,
  "lon": 18.2615741
},
{
  "type": "node",
  "id": 5462724289,
  "lat": 50.3532972,
  "lon": 18.2615781
},
{
  "type": "node",
  "id": 5462724290,
  "lat": 50.3533534,
  "lon": 18.2618866
},
{
  "type": "node",
  "id": 5462724291,
  "lat": 50.3533647,
  "lon": 18.2618815
},
{
  "type": "node",
  "id": 5462724292,
  "lat": 50.3533778,
  "lon": 18.2619537
},
{
  "type": "node",
  "id": 5462724293,
  "lat": 50.3533686,
  "lon": 18.2619580
},
{
  "type": "node",
  "id": 5462724294,
  "lat": 50.3534245,
  "lon": 18.2622638
},
{
  "type": "node",
  "id": 5462724295,
  "lat": 50.3534329,
  "lon": 18.2622602
},
{
  "type": "node",
  "id": 5462724296,
  "lat": 50.3534486,
  "lon": 18.2623466
},
{
  "type": "node",
  "id": 5462724297,
  "lat": 50.3533617,
  "lon": 18.2623858
},
{
  "type": "node",
  "id": 5462724298,
  "lat": 50.3533459,
  "lon": 18.2622995
},
{
  "type": "node",
  "id": 5462724299,
  "lat": 50.3533558,
  "lon": 18.2622949
},
{
  "type": "node",
  "id": 5462724300,
  "lat": 50.3533001,
  "lon": 18.2619915
},
{
  "type": "node",
  "id": 5462724301,
  "lat": 50.3532916,
  "lon": 18.2619953
},
{
  "type": "node",
  "id": 5462724302,
  "lat": 50.3532782,
  "lon": 18.2619219
},
{
  "type": "node",
  "id": 5462724303,
  "lat": 50.3532856,
  "lon": 18.2619156
},
{
  "type": "node",
  "id": 5462724304,
  "lat": 50.3532299,
  "lon": 18.2616096
},
{
  "type": "node",
  "id": 5462724305,
  "lat": 50.3532229,
  "lon": 18.2616128
},
{
  "type": "node",
  "id": 5462724306,
  "lat": 50.3532103,
  "lon": 18.2615438
},
{
  "type": "node",
  "id": 6814418008,
  "lat": 50.3534402,
  "lon": 18.2623008
},
{
  "type": "node",
  "id": 6814418010,
  "lat": 50.3533710,
  "lon": 18.2619163
},
{
  "type": "node",
  "id": 6814418012,
  "lat": 50.3532973,
  "lon": 18.2615260
},
{
  "type": "node",
  "id": 6814418017,
  "lat": 50.3533545,
  "lon": 18.2623467
},
{
  "type": "node",
  "id": 6814418019,
  "lat": 50.3532845,
  "lon": 18.2619567
},
{
  "type": "node",
  "id": 6814418021,
  "lat": 50.3532167,
  "lon": 18.2615788
},
{
  "type": "node",
  "id": 2639406153,
  "lat": 50.3104644,
  "lon": 18.6477169
},
{
  "type": "node",
  "id": 2639406168,
  "lat": 50.3104449,
  "lon": 18.6477452
},
{
  "type": "node",
  "id": 2639406177,
  "lat": 50.3105843,
  "lon": 18.6479801
},
{
  "type": "node",
  "id": 2639406179,
  "lat": 50.3105165,
  "lon": 18.6480786
},
{
  "type": "node",
  "id": 2639406200,
  "lat": 50.3104018,
  "lon": 18.6476113
},
{
  "type": "node",
  "id": 2639406238,
  "lat": 50.3103829,
  "lon": 18.6478534
},
{
  "type": "node",
  "id": 2639406242,
  "lat": 50.3103657,
  "lon": 18.6478783
},
{
  "type": "node",
  "id": 2639406284,
  "lat": 50.3102974,
  "lon": 18.6477631
},
{
  "type": "node",
  "id": 1948914707,
  "lat": 50.2952720,
  "lon": 18.6673575
},
{
  "type": "node",
  "id": 1948914708,
  "lat": 50.2952879,
  "lon": 18.6673308
},
{
  "type": "node",
  "id": 1948914709,
  "lat": 50.2952896,
  "lon": 18.6673338
},
{
  "type": "node",
  "id": 1948914710,
  "lat": 50.2953073,
  "lon": 18.6674413
},
{
  "type": "node",
  "id": 1948914711,
  "lat": 50.2953073,
  "lon": 18.6674634
},
{
  "type": "node",
  "id": 1948914712,
  "lat": 50.2953076,
  "lon": 18.6674299
},
{
  "type": "node",
  "id": 1948914713,
  "lat": 50.2953100,
  "lon": 18.6674266
},
{
  "type": "node",
  "id": 1948914714,
  "lat": 50.2953111,
  "lon": 18.6674362
},
{
  "type": "node",
  "id": 1948914715,
  "lat": 50.2953189,
  "lon": 18.6672767
},
{
  "type": "node",
  "id": 1948914716,
  "lat": 50.2953227,
  "lon": 18.6672838
},
{
  "type": "node",
  "id": 1948914717,
  "lat": 50.2953298,
  "lon": 18.6675043
},
{
  "type": "node",
  "id": 1948914718,
  "lat": 50.2953318,
  "lon": 18.6672517
},
{
  "type": "node",
  "id": 1948914719,
  "lat": 50.2953342,
  "lon": 18.6672560
},
{
  "type": "node",
  "id": 1948914720,
  "lat": 50.2953437,
  "lon": 18.6675072
},
{
  "type": "node",
  "id": 1948914721,
  "lat": 50.2953474,
  "lon": 18.6675022
},
{
  "type": "node",
  "id": 1948914722,
  "lat": 50.2953508,
  "lon": 18.6675084
},
{
  "type": "node",
  "id": 1948914723,
  "lat": 50.2953586,
  "lon": 18.6672156
},
{
  "type": "node",
  "id": 1948914724,
  "lat": 50.2953610,
  "lon": 18.6672199
},
{
  "type": "node",
  "id": 1948914725,
  "lat": 50.2953762,
  "lon": 18.6671994
},
{
  "type": "node",
  "id": 1948914726,
  "lat": 50.2953801,
  "lon": 18.6672064
},
{
  "type": "node",
  "id": 1948914727,
  "lat": 50.2954165,
  "lon": 18.6671573
},
{
  "type": "node",
  "id": 1948914728,
  "lat": 50.2954435,
  "lon": 18.6673834
},
{
  "type": "node",
  "id": 1948914729,
  "lat": 50.2954842,
  "lon": 18.6672802
},
{
  "type": "node",
  "id": 1948914730,
  "lat": 50.2954983,
  "lon": 18.6674830
},
{
  "type": "node",
  "id": 1948914731,
  "lat": 50.2955193,
  "lon": 18.6672329
},
{
  "type": "node",
  "id": 1948914732,
  "lat": 50.2955378,
  "lon": 18.6672770
},
{
  "type": "node",
  "id": 1948914733,
  "lat": 50.2955411,
  "lon": 18.6672726
},
{
  "type": "node",
  "id": 1948914734,
  "lat": 50.2955604,
  "lon": 18.6673992
},
{
  "type": "node",
  "id": 1948914735,
  "lat": 50.2955617,
  "lon": 18.6673284
},
{
  "type": "node",
  "id": 1948914736,
  "lat": 50.2955643,
  "lon": 18.6673250
},
{
  "type": "node",
  "id": 1948914737,
  "lat": 50.2955835,
  "lon": 18.6673680
},
{
  "type": "node",
  "id": 5325841888,
  "lat": 50.2955022,
  "lon": 18.6672560
},
{
  "type": "node",
  "id": 1042701208,
  "lat": 50.3120017,
  "lon": 18.6902731
},
{
  "type": "node",
  "id": 1042701278,
  "lat": 50.3133556,
  "lon": 18.6871268
},
{
  "type": "node",
  "id": 1042701287,
  "lat": 50.3141159,
  "lon": 18.6889719
},
{
  "type": "node",
  "id": 1042701320,
  "lat": 50.3133165,
  "lon": 18.6905324
},
{
  "type": "node",
  "id": 1687007797,
  "lat": 50.3122648,
  "lon": 18.6905274
},
{
  "type": "node",
  "id": 1687007815,
  "lat": 50.3123776,
  "lon": 18.6893676
},
{
  "type": "node",
  "id": 1687007828,
  "lat": 50.3124214,
  "lon": 18.6906881
},
{
  "type": "node",
  "id": 1687007833,
  "lat": 50.3124455,
  "lon": 18.6907125
},
{
  "type": "node",
  "id": 1687007881,
  "lat": 50.3125928,
  "lon": 18.6908611
},
{
  "type": "node",
  "id": 1687007997,
  "lat": 50.3128559,
  "lon": 18.6882726
},
{
  "type": "node",
  "id": 1687008085,
  "lat": 50.3133899,
  "lon": 18.6903686
},
{
  "type": "node",
  "id": 1687008107,
  "lat": 50.3136778,
  "lon": 18.6879177
},
{
  "type": "node",
  "id": 1687008117,
  "lat": 50.3139192,
  "lon": 18.6893371
},
{
  "type": "node",
  "id": 3833482223,
  "lat": 50.3132371,
  "lon": 18.6907314
},
{
  "type": "node",
  "id": 1042701326,
  "lat": 50.3130168,
  "lon": 18.6912953
},
{
  "type": "node",
  "id": 1687007957,
  "lat": 50.3127341,
  "lon": 18.6910037
},
{
  "type": "node",
  "id": 3833482205,
  "lat": 50.3129659,
  "lon": 18.6913125
},
{
  "type": "node",
  "id": 3793012989,
  "lat": 50.1310081,
  "lon": 18.9791238
},
{
  "type": "node",
  "id": 3793012991,
  "lat": 50.1310127,
  "lon": 18.9790964
},
{
  "type": "node",
  "id": 3793013232,
  "lat": 50.1309373,
  "lon": 18.9790947
},
{
  "type": "node",
  "id": 3793014289,
  "lat": 50.1310680,
  "lon": 18.9791191
},
{
  "type": "node",
  "id": 3793014868,
  "lat": 50.1310917,
  "lon": 18.9791877
},
{
  "type": "node",
  "id": 6738196911,
  "lat": 50.1310586,
  "lon": 18.9791747
},
{
  "type": "node",
  "id": 3793006126,
  "lat": 50.1308981,
  "lon": 18.9792310
},
{
  "type": "node",
  "id": 3793013227,
  "lat": 50.1308823,
  "lon": 18.9793249
},
{
  "type": "node",
  "id": 3793013228,
  "lat": 50.1309133,
  "lon": 18.9792372
},
{
  "type": "node",
  "id": 3793013243,
  "lat": 50.1310976,
  "lon": 18.9793801
},
{
  "type": "node",
  "id": 3793014869,
  "lat": 50.1310385,
  "lon": 18.9793891
},
{
  "type": "node",
  "id": 6738196910,
  "lat": 50.1310436,
  "lon": 18.9793584
},
{
  "type": "node",
  "id": 1902427871,
  "lat": 50.2882543,
  "lon": 18.9255274
},
{
  "type": "node",
  "id": 1902427874,
  "lat": 50.2882676,
  "lon": 18.9254540
},
{
  "type": "node",
  "id": 1902427876,
  "lat": 50.2882799,
  "lon": 18.9254595
},
{
  "type": "node",
  "id": 1902427882,
  "lat": 50.2882928,
  "lon": 18.9252946
},
{
  "type": "node",
  "id": 1902427886,
  "lat": 50.2883067,
  "lon": 18.9252179
},
{
  "type": "node",
  "id": 1902427899,
  "lat": 50.2883085,
  "lon": 18.9253016
},
{
  "type": "node",
  "id": 1902427916,
  "lat": 50.2883816,
  "lon": 18.9255839
},
{
  "type": "node",
  "id": 1902427921,
  "lat": 50.2884046,
  "lon": 18.9254570
},
{
  "type": "node",
  "id": 1902427923,
  "lat": 50.2884148,
  "lon": 18.9254616
},
{
  "type": "node",
  "id": 1902427940,
  "lat": 50.2884245,
  "lon": 18.9254079
},
{
  "type": "node",
  "id": 1902427953,
  "lat": 50.2884761,
  "lon": 18.9254308
},
{
  "type": "node",
  "id": 1902427958,
  "lat": 50.2884992,
  "lon": 18.9253034
},
{
  "type": "node",
  "id": 1894685875,
  "lat": 50.2935948,
  "lon": 18.9503785
},
{
  "type": "node",
  "id": 1894685954,
  "lat": 50.2936508,
  "lon": 18.9502117
},
{
  "type": "node",
  "id": 1894685993,
  "lat": 50.2936727,
  "lon": 18.9504720
},
{
  "type": "node",
  "id": 1894686003,
  "lat": 50.2936805,
  "lon": 18.9504490
},
{
  "type": "node",
  "id": 1894686065,
  "lat": 50.2937160,
  "lon": 18.9502653
},
{
  "type": "node",
  "id": 1894686081,
  "lat": 50.2937266,
  "lon": 18.9502337
},
{
  "type": "node",
  "id": 1894686183,
  "lat": 50.2937640,
  "lon": 18.9505470
},
{
  "type": "node",
  "id": 1894686184,
  "lat": 50.2937641,
  "lon": 18.9502987
},
{
  "type": "node",
  "id": 1894686209,
  "lat": 50.2937731,
  "lon": 18.9502720
},
{
  "type": "node",
  "id": 1894686327,
  "lat": 50.2938293,
  "lon": 18.9503523
},
{
  "type": "node",
  "id": 978634186,
  "lat": 50.2908560,
  "lon": 18.9703792
},
{
  "type": "node",
  "id": 1792950401,
  "lat": 50.2908164,
  "lon": 18.9692711
},
{
  "type": "node",
  "id": 1792950402,
  "lat": 50.2908649,
  "lon": 18.9702458
},
{
  "type": "node",
  "id": 1792950405,
  "lat": 50.2909253,
  "lon": 18.9720757
},
{
  "type": "node",
  "id": 5043826374,
  "lat": 50.2908293,
  "lon": 18.9705361
},
{
  "type": "node",
  "id": 5043826375,
  "lat": 50.2908215,
  "lon": 18.9704301
},
{
  "type": "node",
  "id": 5043826542,
  "lat": 50.2908642,
  "lon": 18.9702197
},
{
  "type": "node",
  "id": 5046198309,
  "lat": 50.2908532,
  "lon": 18.9703335
},
{
  "type": "node",
  "id": 5046198310,
  "lat": 50.2908664,
  "lon": 18.9703319
},
{
  "type": "node",
  "id": 5046198561,
  "lat": 50.2908571,
  "lon": 18.9704233
},
{
  "type": "node",
  "id": 5046198562,
  "lat": 50.2908532,
  "lon": 18.9705307
},
{
  "type": "node",
  "id": 5046198563,
  "lat": 50.2908206,
  "lon": 18.9694048
},
{
  "type": "node",
  "id": 5046199435,
  "lat": 50.2908586,
  "lon": 18.9705425
},
{
  "type": "node",
  "id": 5046391818,
  "lat": 50.2908650,
  "lon": 18.9702654
},
{
  "type": "node",
  "id": 5046392722,
  "lat": 50.2908656,
  "lon": 18.9702885
},
{
  "type": "node",
  "id": 5046392726,
  "lat": 50.2908579,
  "lon": 18.9705300
},
{
  "type": "node",
  "id": 5077360410,
  "lat": 50.2908576,
  "lon": 18.9700767
},
{
  "type": "node",
  "id": 5129350173,
  "lat": 50.2929934,
  "lon": 18.9726690
},
{
  "type": "node",
  "id": 5129350174,
  "lat": 50.2934555,
  "lon": 18.9725367
},
{
  "type": "node",
  "id": 5129350175,
  "lat": 50.2930944,
  "lon": 18.9726495
},
{
  "type": "node",
  "id": 5129350176,
  "lat": 50.2908174,
  "lon": 18.9693201
},
{
  "type": "node",
  "id": 5129357880,
  "lat": 50.2908498,
  "lon": 18.9705623
},
{
  "type": "node",
  "id": 5129357881,
  "lat": 50.2908700,
  "lon": 18.9708124
},
{
  "type": "node",
  "id": 5129357882,
  "lat": 50.2909047,
  "lon": 18.9715272
},
{
  "type": "node",
  "id": 5129357883,
  "lat": 50.2909231,
  "lon": 18.9720409
},
{
  "type": "node",
  "id": 5129357884,
  "lat": 50.2909334,
  "lon": 18.9721676
},
{
  "type": "node",
  "id": 5129357885,
  "lat": 50.2909574,
  "lon": 18.9725773
},
{
  "type": "node",
  "id": 5129357887,
  "lat": 50.2940883,
  "lon": 18.9681109
},
{
  "type": "node",
  "id": 5129357918,
  "lat": 50.2956024,
  "lon": 18.9683448
},
{
  "type": "node",
  "id": 5129358121,
  "lat": 50.2951319,
  "lon": 18.9684125
},
{
  "type": "node",
  "id": 5129358122,
  "lat": 50.2945691,
  "lon": 18.9684974
},
{
  "type": "node",
  "id": 5129358124,
  "lat": 50.2941652,
  "lon": 18.9683089
},
{
  "type": "node",
  "id": 5129358125,
  "lat": 50.2939926,
  "lon": 18.9681270
},
{
  "type": "node",
  "id": 5129358128,
  "lat": 50.2940069,
  "lon": 18.9683330
},
{
  "type": "node",
  "id": 5129358143,
  "lat": 50.2908130,
  "lon": 18.9686720
},
{
  "type": "node",
  "id": 5236904217,
  "lat": 50.2922509,
  "lon": 18.9684357
},
{
  "type": "node",
  "id": 5236904218,
  "lat": 50.2926575,
  "lon": 18.9684127
},
{
  "type": "node",
  "id": 5236904219,
  "lat": 50.2930337,
  "lon": 18.9683349
},
{
  "type": "node",
  "id": 5236905024,
  "lat": 50.2917912,
  "lon": 18.9684622
},
{
  "type": "node",
  "id": 5236905025,
  "lat": 50.2920507,
  "lon": 18.9684506
},
{
  "type": "node",
  "id": 5236905026,
  "lat": 50.2908092,
  "lon": 18.9685953
},
{
  "type": "node",
  "id": 5236905027,
  "lat": 50.2908111,
  "lon": 18.9686410
},
{
  "type": "node",
  "id": 5236905028,
  "lat": 50.2908065,
  "lon": 18.9685055
},
{
  "type": "node",
  "id": 5236905029,
  "lat": 50.2908288,
  "lon": 18.9685040
},
{
  "type": "node",
  "id": 5236905030,
  "lat": 50.2912581,
  "lon": 18.9684885
},
{
  "type": "node",
  "id": 5236905031,
  "lat": 50.2925220,
  "lon": 18.9684251
},
{
  "type": "node",
  "id": 5236905032,
  "lat": 50.2936346,
  "lon": 18.9682023
},
{
  "type": "node",
  "id": 5236905050,
  "lat": 50.2945359,
  "lon": 18.9680131
},
{
  "type": "node",
  "id": 461863281,
  "lat": 50.2909351,
  "lon": 18.9727971
},
{
  "type": "node",
  "id": 5129350183,
  "lat": 50.2946218,
  "lon": 18.9780363
},
{
  "type": "node",
  "id": 5129357879,
  "lat": 50.2917400,
  "lon": 18.9727410
},
{
  "type": "node",
  "id": 5129357886,
  "lat": 50.2910633,
  "lon": 18.9728056
},
{
  "type": "node",
  "id": 5129357888,
  "lat": 50.2933099,
  "lon": 18.9764639
},
{
  "type": "node",
  "id": 5129357891,
  "lat": 50.2951963,
  "lon": 18.9774200
},
{
  "type": "node",
  "id": 5129357892,
  "lat": 50.2955551,
  "lon": 18.9774387
},
{
  "type": "node",
  "id": 5129357893,
  "lat": 50.2956046,
  "lon": 18.9775770
},
{
  "type": "node",
  "id": 5129358160,
  "lat": 50.2950035,
  "lon": 18.9776789
},
{
  "type": "node",
  "id": 5129358161,
  "lat": 50.2949251,
  "lon": 18.9779638
},
{
  "type": "node",
  "id": 5129358162,
  "lat": 50.2948519,
  "lon": 18.9779350
},
{
  "type": "node",
  "id": 5129358163,
  "lat": 50.2932729,
  "lon": 18.9774348
},
{
  "type": "node",
  "id": 5129358164,
  "lat": 50.2933620,
  "lon": 18.9774629
},
{
  "type": "node",
  "id": 5129358165,
  "lat": 50.2935265,
  "lon": 18.9775206
},
{
  "type": "node",
  "id": 5129358166,
  "lat": 50.2938101,
  "lon": 18.9776413
},
{
  "type": "node",
  "id": 5129358167,
  "lat": 50.2941374,
  "lon": 18.9777821
},
{
  "type": "node",
  "id": 5129358168,
  "lat": 50.2944158,
  "lon": 18.9778800
},
{
  "type": "node",
  "id": 5129358169,
  "lat": 50.2944107,
  "lon": 18.9779498
},
{
  "type": "node",
  "id": 5129358170,
  "lat": 50.2944861,
  "lon": 18.9779833
},
{
  "type": "node",
  "id": 5129358171,
  "lat": 50.2947212,
  "lon": 18.9780664
},
{
  "type": "node",
  "id": 5129358173,
  "lat": 50.2934211,
  "lon": 18.9741679
},
{
  "type": "node",
  "id": 5129358174,
  "lat": 50.2933727,
  "lon": 18.9754513
},
{
  "type": "node",
  "id": 5129358176,
  "lat": 50.2933264,
  "lon": 18.9760722
},
{
  "type": "node",
  "id": 5129358177,
  "lat": 50.2932656,
  "lon": 18.9765497
},
{
  "type": "node",
  "id": 5129358178,
  "lat": 50.2932442,
  "lon": 18.9768393
},
{
  "type": "node",
  "id": 5129358179,
  "lat": 50.2933003,
  "lon": 18.9768481
},
{
  "type": "node",
  "id": 5129358191,
  "lat": 50.2932806,
  "lon": 18.9765507
},
{
  "type": "node",
  "id": 5129358192,
  "lat": 50.2932729,
  "lon": 18.9765406
},
{
  "type": "node",
  "id": 5129358193,
  "lat": 50.2932669,
  "lon": 18.9765269
},
{
  "type": "node",
  "id": 5129358194,
  "lat": 50.2932641,
  "lon": 18.9765158
},
{
  "type": "node",
  "id": 5129358195,
  "lat": 50.2932652,
  "lon": 18.9764977
},
{
  "type": "node",
  "id": 5129358196,
  "lat": 50.2932677,
  "lon": 18.9764846
},
{
  "type": "node",
  "id": 5129358197,
  "lat": 50.2932763,
  "lon": 18.9764712
},
{
  "type": "node",
  "id": 5129358198,
  "lat": 50.2932862,
  "lon": 18.9764628
},
{
  "type": "node",
  "id": 5129358199,
  "lat": 50.2932926,
  "lon": 18.9764611
},
{
  "type": "node",
  "id": 5129358201,
  "lat": 50.2933110,
  "lon": 18.9764484
},
{
  "type": "node",
  "id": 5129358202,
  "lat": 50.2933157,
  "lon": 18.9763492
},
{
  "type": "node",
  "id": 5129358203,
  "lat": 50.2933881,
  "lon": 18.9754553
},
{
  "type": "node",
  "id": 5129358204,
  "lat": 50.2933896,
  "lon": 18.9754305
},
{
  "type": "node",
  "id": 5129358205,
  "lat": 50.2933885,
  "lon": 18.9754111
},
{
  "type": "node",
  "id": 5129358206,
  "lat": 50.2933894,
  "lon": 18.9753440
},
{
  "type": "node",
  "id": 5129358207,
  "lat": 50.2934057,
  "lon": 18.9747854
},
{
  "type": "node",
  "id": 5129358208,
  "lat": 50.2934558,
  "lon": 18.9727126
},
{
  "type": "node",
  "id": 5129358209,
  "lat": 50.2934361,
  "lon": 18.9732961
},
{
  "type": "node",
  "id": 5129358210,
  "lat": 50.2934082,
  "lon": 18.9746594
},
{
  "type": "node",
  "id": 5129358366,
  "lat": 50.2934382,
  "lon": 18.9732432
},
{
  "type": "node",
  "id": 1792951142,
  "lat": 50.2964247,
  "lon": 18.9709857
},
{
  "type": "node",
  "id": 1792951147,
  "lat": 50.2964294,
  "lon": 18.9708841
},
{
  "type": "node",
  "id": 1792951149,
  "lat": 50.2964500,
  "lon": 18.9705791
},
{
  "type": "node",
  "id": 1792951160,
  "lat": 50.2964806,
  "lon": 18.9711649
},
{
  "type": "node",
  "id": 1792951220,
  "lat": 50.2965920,
  "lon": 18.9713773
},
{
  "type": "node",
  "id": 2344444295,
  "lat": 50.2964734,
  "lon": 18.9700719
},
{
  "type": "node",
  "id": 2344444296,
  "lat": 50.2965698,
  "lon": 18.9686098
},
{
  "type": "node",
  "id": 5129357907,
  "lat": 50.2965931,
  "lon": 18.9723332
},
{
  "type": "node",
  "id": 5129357908,
  "lat": 50.2965223,
  "lon": 18.9691968
},
{
  "type": "node",
  "id": 5129357915,
  "lat": 50.2965709,
  "lon": 18.9685636
},
{
  "type": "node",
  "id": 5129357916,
  "lat": 50.2965766,
  "lon": 18.9684482
},
{
  "type": "node",
  "id": 5236904208,
  "lat": 50.2964074,
  "lon": 18.9682907
},
{
  "type": "node",
  "id": 5236904209,
  "lat": 50.2964063,
  "lon": 18.9684445
},
{
  "type": "node",
  "id": 5129357894,
  "lat": 50.2962070,
  "lon": 18.9775690
},
{
  "type": "node",
  "id": 5129357895,
  "lat": 50.2962424,
  "lon": 18.9775662
},
{
  "type": "node",
  "id": 5129357896,
  "lat": 50.2968278,
  "lon": 18.9776120
},
{
  "type": "node",
  "id": 5129357897,
  "lat": 50.2968690,
  "lon": 18.9776012
},
{
  "type": "node",
  "id": 5129357898,
  "lat": 50.2972034,
  "lon": 18.9774868
},
{
  "type": "node",
  "id": 5129357902,
  "lat": 50.2972421,
  "lon": 18.9774532
},
{
  "type": "node",
  "id": 5129357903,
  "lat": 50.2971149,
  "lon": 18.9765234
},
{
  "type": "node",
  "id": 5129357904,
  "lat": 50.2966071,
  "lon": 18.9730840
},
{
  "type": "node",
  "id": 5129357905,
  "lat": 50.2966069,
  "lon": 18.9730598
},
{
  "type": "node",
  "id": 5129357906,
  "lat": 50.2966180,
  "lon": 18.9728028
},
{
  "type": "node",
  "id": 2121896562,
  "lat": 50.2619502,
  "lon": 19.0221206
},
{
  "type": "node",
  "id": 2121896599,
  "lat": 50.2619850,
  "lon": 19.0218836
},
{
  "type": "node",
  "id": 2121897131,
  "lat": 50.2624743,
  "lon": 19.0223006
},
{
  "type": "node",
  "id": 2121897167,
  "lat": 50.2625063,
  "lon": 19.0220643
},
{
  "type": "node",
  "id": 2122345861,
  "lat": 50.2603616,
  "lon": 19.0228073
},
{
  "type": "node",
  "id": 2122345863,
  "lat": 50.2603648,
  "lon": 19.0227630
},
{
  "type": "node",
  "id": 2122346164,
  "lat": 50.2605111,
  "lon": 19.0228757
},
{
  "type": "node",
  "id": 2122346174,
  "lat": 50.2605141,
  "lon": 19.0228531
},
{
  "type": "node",
  "id": 2122346361,
  "lat": 50.2605682,
  "lon": 19.0228928
},
{
  "type": "node",
  "id": 2122346363,
  "lat": 50.2605701,
  "lon": 19.0228781
},
{
  "type": "node",
  "id": 2122346416,
  "lat": 50.2606096,
  "lon": 19.0228899
},
{
  "type": "node",
  "id": 2122346421,
  "lat": 50.2606169,
  "lon": 19.0228330
},
{
  "type": "node",
  "id": 2122346485,
  "lat": 50.2607422,
  "lon": 19.0228735
},
{
  "type": "node",
  "id": 3918871322,
  "lat": 50.2607706,
  "lon": 19.0226658
},
{
  "type": "node",
  "id": 3918871328,
  "lat": 50.2607149,
  "lon": 19.0226472
},
{
  "type": "node",
  "id": 3918871329,
  "lat": 50.2607103,
  "lon": 19.0226806
},
{
  "type": "node",
  "id": 3918871330,
  "lat": 50.2607029,
  "lon": 19.0226849
},
{
  "type": "node",
  "id": 3918871331,
  "lat": 50.2606966,
  "lon": 19.0226908
},
{
  "type": "node",
  "id": 3918871332,
  "lat": 50.2606893,
  "lon": 19.0227024
},
{
  "type": "node",
  "id": 3918871333,
  "lat": 50.2606871,
  "lon": 19.0227131
},
{
  "type": "node",
  "id": 3918871334,
  "lat": 50.2606174,
  "lon": 19.0226896
},
{
  "type": "node",
  "id": 3918871335,
  "lat": 50.2606143,
  "lon": 19.0226839
},
{
  "type": "node",
  "id": 3918871336,
  "lat": 50.2605965,
  "lon": 19.0226774
},
{
  "type": "node",
  "id": 3918871337,
  "lat": 50.2605931,
  "lon": 19.0226676
},
{
  "type": "node",
  "id": 3918871338,
  "lat": 50.2605521,
  "lon": 19.0226563
},
{
  "type": "node",
  "id": 3918871339,
  "lat": 50.2605467,
  "lon": 19.0226592
},
{
  "type": "node",
  "id": 3918871340,
  "lat": 50.2605305,
  "lon": 19.0226543
},
{
  "type": "node",
  "id": 3918871341,
  "lat": 50.2605291,
  "lon": 19.0226599
},
{
  "type": "node",
  "id": 3918871342,
  "lat": 50.2604509,
  "lon": 19.0226334
},
{
  "type": "node",
  "id": 3918871343,
  "lat": 50.2604507,
  "lon": 19.0226173
},
{
  "type": "node",
  "id": 3918871344,
  "lat": 50.2604472,
  "lon": 19.0226037
},
{
  "type": "node",
  "id": 3918871345,
  "lat": 50.2604388,
  "lon": 19.0225959
},
{
  "type": "node",
  "id": 3918871346,
  "lat": 50.2604431,
  "lon": 19.0225550
},
{
  "type": "node",
  "id": 3918871347,
  "lat": 50.2603839,
  "lon": 19.0225351
},
{
  "type": "node",
  "id": 4946094550,
  "lat": 50.2623284,
  "lon": 19.0222505
},
{
  "type": "node",
  "id": 4946129221,
  "lat": 50.2622108,
  "lon": 19.0222101
},
{
  "type": "node",
  "id": 3109800312,
  "lat": 50.2645666,
  "lon": 19.0315579
},
{
  "type": "node",
  "id": 4419411896,
  "lat": 50.2646839,
  "lon": 19.0314489
},
{
  "type": "node",
  "id": 4419411907,
  "lat": 50.2648231,
  "lon": 19.0314066
},
{
  "type": "node",
  "id": 4419411917,
  "lat": 50.2649991,
  "lon": 19.0314765
},
{
  "type": "node",
  "id": 4419454984,
  "lat": 50.2650621,
  "lon": 19.0315142
},
{
  "type": "node",
  "id": 3109800295,
  "lat": 50.2626401,
  "lon": 19.0352907
},
{
  "type": "node",
  "id": 3109800296,
  "lat": 50.2626831,
  "lon": 19.0345424
},
{
  "type": "node",
  "id": 3109800297,
  "lat": 50.2627280,
  "lon": 19.0341123
},
{
  "type": "node",
  "id": 3109800298,
  "lat": 50.2627583,
  "lon": 19.0338538
},
{
  "type": "node",
  "id": 3109800299,
  "lat": 50.2628513,
  "lon": 19.0320878
},
{
  "type": "node",
  "id": 3109800300,
  "lat": 50.2629624,
  "lon": 19.0354320
},
{
  "type": "node",
  "id": 3109800301,
  "lat": 50.2630864,
  "lon": 19.0320980
},
{
  "type": "node",
  "id": 3109800302,
  "lat": 50.2635966,
  "lon": 19.0357316
},
{
  "type": "node",
  "id": 3109800303,
  "lat": 50.2638030,
  "lon": 19.0323829
},
{
  "type": "node",
  "id": 3109800306,
  "lat": 50.2639117,
  "lon": 19.0358103
},
{
  "type": "node",
  "id": 3109800307,
  "lat": 50.2641522,
  "lon": 19.0358050
},
{
  "type": "node",
  "id": 3109800321,
  "lat": 50.2650654,
  "lon": 19.0337237
},
{
  "type": "node",
  "id": 3109800322,
  "lat": 50.2650638,
  "lon": 19.0346317
},
{
  "type": "node",
  "id": 3109800323,
  "lat": 50.2651026,
  "lon": 19.0357302
},
{
  "type": "node",
  "id": 3109800324,
  "lat": 50.2650616,
  "lon": 19.0335038
},
{
  "type": "node",
  "id": 3109800325,
  "lat": 50.2655010,
  "lon": 19.0318362
},
{
  "type": "node",
  "id": 3109800326,
  "lat": 50.2654230,
  "lon": 19.0335855
},
{
  "type": "node",
  "id": 3109800327,
  "lat": 50.2654480,
  "lon": 19.0327362
},
{
  "type": "node",
  "id": 3116995494,
  "lat": 50.2641133,
  "lon": 19.0358058
},
{
  "type": "node",
  "id": 3116995498,
  "lat": 50.2642115,
  "lon": 19.0357993
},
{
  "type": "node",
  "id": 3183629981,
  "lat": 50.2650276,
  "lon": 19.0335861
},
{
  "type": "node",
  "id": 3183629983,
  "lat": 50.2650598,
  "lon": 19.0336447
},
{
  "type": "node",
  "id": 3183629991,
  "lat": 50.2651804,
  "lon": 19.0335849
},
{
  "type": "node",
  "id": 3183629998,
  "lat": 50.2653536,
  "lon": 19.0336103
},
{
  "type": "node",
  "id": 3183630004,
  "lat": 50.2653894,
  "lon": 19.0336070
},
{
  "type": "node",
  "id": 3890445363,
  "lat": 50.2650756,
  "lon": 19.0349036
},
{
  "type": "node",
  "id": 4419411944,
  "lat": 50.2654665,
  "lon": 19.0327380
},
{
  "type": "node",
  "id": 2120090302,
  "lat": 50.2631170,
  "lon": 19.0828037
},
{
  "type": "node",
  "id": 2120090336,
  "lat": 50.2631398,
  "lon": 19.0827152
},
{
  "type": "node",
  "id": 2120090375,
  "lat": 50.2631585,
  "lon": 19.0827261
},
{
  "type": "node",
  "id": 2120090603,
  "lat": 50.2633708,
  "lon": 19.0829529
},
{
  "type": "node",
  "id": 2120090605,
  "lat": 50.2633726,
  "lon": 19.0829456
},
{
  "type": "node",
  "id": 2120090643,
  "lat": 50.2634198,
  "lon": 19.0816080
},
{
  "type": "node",
  "id": 2120090726,
  "lat": 50.2635158,
  "lon": 19.0812187
},
{
  "type": "node",
  "id": 2120090849,
  "lat": 50.2635594,
  "lon": 19.0821864
},
{
  "type": "node",
  "id": 2120090967,
  "lat": 50.2636358,
  "lon": 19.0818683
},
{
  "type": "node",
  "id": 2120090990,
  "lat": 50.2636468,
  "lon": 19.0818225
},
{
  "type": "node",
  "id": 2120091010,
  "lat": 50.2636652,
  "lon": 19.0817455
},
{
  "type": "node",
  "id": 2120091138,
  "lat": 50.2637042,
  "lon": 19.0804118
},
{
  "type": "node",
  "id": 2120092144,
  "lat": 50.2639463,
  "lon": 19.0805574
},
{
  "type": "node",
  "id": 4907440467,
  "lat": 50.2638440,
  "lon": 19.0804959
},
{
  "type": "node",
  "id": 2300272968,
  "lat": 50.3180267,
  "lon": 19.0085802
},
{
  "type": "node",
  "id": 2300272969,
  "lat": 50.3180539,
  "lon": 19.0088507
},
{
  "type": "node",
  "id": 2300272972,
  "lat": 50.3182923,
  "lon": 19.0085145
},
{
  "type": "node",
  "id": 2300272973,
  "lat": 50.3183195,
  "lon": 19.0087850
},
{
  "type": "node",
  "id": 2316830934,
  "lat": 50.3105661,
  "lon": 19.0296494
},
{
  "type": "node",
  "id": 2316830980,
  "lat": 50.3106240,
  "lon": 19.0299936
},
{
  "type": "node",
  "id": 2316830987,
  "lat": 50.3106358,
  "lon": 19.0299876
},
{
  "type": "node",
  "id": 2316831009,
  "lat": 50.3106843,
  "lon": 19.0295897
},
{
  "type": "node",
  "id": 2316831011,
  "lat": 50.3106858,
  "lon": 19.0297467
},
{
  "type": "node",
  "id": 2316831016,
  "lat": 50.3106932,
  "lon": 19.0303293
},
{
  "type": "node",
  "id": 2316831022,
  "lat": 50.3107024,
  "lon": 19.0303246
},
{
  "type": "node",
  "id": 2316831032,
  "lat": 50.3107137,
  "lon": 19.0297326
},
{
  "type": "node",
  "id": 2316831065,
  "lat": 50.3107813,
  "lon": 19.0307075
},
{
  "type": "node",
  "id": 2316831149,
  "lat": 50.3108741,
  "lon": 19.0306607
},
{
  "type": "node",
  "id": 6140266982,
  "lat": 50.3108110,
  "lon": 19.0306925
},
{
  "type": "node",
  "id": 2284554618,
  "lat": 50.3080957,
  "lon": 19.0618092
},
{
  "type": "node",
  "id": 2284554631,
  "lat": 50.3080494,
  "lon": 19.0622013
},
{
  "type": "node",
  "id": 2284554891,
  "lat": 50.3082369,
  "lon": 19.0621857
},
{
  "type": "node",
  "id": 2284554896,
  "lat": 50.3082433,
  "lon": 19.0622971
},
{
  "type": "node",
  "id": 2284555159,
  "lat": 50.3083159,
  "lon": 19.0620964
},
{
  "type": "node",
  "id": 2284555166,
  "lat": 50.3083224,
  "lon": 19.0622908
},
{
  "type": "node",
  "id": 2284555482,
  "lat": 50.3084404,
  "lon": 19.0617836
},
{
  "type": "node",
  "id": 2284555500,
  "lat": 50.3084463,
  "lon": 19.0620927
},
{
  "type": "node",
  "id": 2614817016,
  "lat": 50.3080471,
  "lon": 19.0621128
},
{
  "type": "node",
  "id": 2614817021,
  "lat": 50.3081062,
  "lon": 19.0621062
},
{
  "type": "node",
  "id": 2284553368,
  "lat": 50.3074753,
  "lon": 19.0670206
},
{
  "type": "node",
  "id": 2284553391,
  "lat": 50.3074936,
  "lon": 19.0670865
},
{
  "type": "node",
  "id": 2284553407,
  "lat": 50.3075046,
  "lon": 19.0670790
},
{
  "type": "node",
  "id": 2284553457,
  "lat": 50.3075228,
  "lon": 19.0669884
},
{
  "type": "node",
  "id": 2284553463,
  "lat": 50.3075275,
  "lon": 19.0670049
},
{
  "type": "node",
  "id": 2284553554,
  "lat": 50.3075566,
  "lon": 19.0672922
},
{
  "type": "node",
  "id": 2284553576,
  "lat": 50.3075632,
  "lon": 19.0672877
},
{
  "type": "node",
  "id": 2284553627,
  "lat": 50.3075752,
  "lon": 19.0673588
},
{
  "type": "node",
  "id": 2284553667,
  "lat": 50.3075948,
  "lon": 19.0669399
},
{
  "type": "node",
  "id": 2284553682,
  "lat": 50.3075995,
  "lon": 19.0669567
},
{
  "type": "node",
  "id": 2284553809,
  "lat": 50.3076135,
  "lon": 19.0673037
},
{
  "type": "node",
  "id": 2284553823,
  "lat": 50.3076203,
  "lon": 19.0673280
},
{
  "type": "node",
  "id": 2284553892,
  "lat": 50.3076424,
  "lon": 19.0669071
},
{
  "type": "node",
  "id": 2284553921,
  "lat": 50.3076529,
  "lon": 19.0669774
},
{
  "type": "node",
  "id": 2284553938,
  "lat": 50.3076606,
  "lon": 19.0669720
},
{
  "type": "node",
  "id": 2284554096,
  "lat": 50.3076957,
  "lon": 19.0672474
},
{
  "type": "node",
  "id": 2284554112,
  "lat": 50.3076979,
  "lon": 19.0671364
},
{
  "type": "node",
  "id": 2284554126,
  "lat": 50.3077023,
  "lon": 19.0672707
},
{
  "type": "node",
  "id": 2284554141,
  "lat": 50.3077196,
  "lon": 19.0671214
},
{
  "type": "node",
  "id": 2284554168,
  "lat": 50.3077263,
  "lon": 19.0671790
},
{
  "type": "node",
  "id": 2284554187,
  "lat": 50.3077343,
  "lon": 19.0671735
},
{
  "type": "node",
  "id": 2284554201,
  "lat": 50.3077441,
  "lon": 19.0672422
},
{
  "type": "node",
  "id": 6904014178,
  "lat": 50.3075378,
  "lon": 19.0671973
},
{
  "type": "node",
  "id": 2285041662,
  "lat": 50.3247307,
  "lon": 19.1335595
},
{
  "type": "node",
  "id": 2285041664,
  "lat": 50.3247311,
  "lon": 19.1336840
},
{
  "type": "node",
  "id": 2285041682,
  "lat": 50.3247369,
  "lon": 19.1336952
},
{
  "type": "node",
  "id": 2285041828,
  "lat": 50.3247953,
  "lon": 19.1336956
},
{
  "type": "node",
  "id": 2285041830,
  "lat": 50.3247958,
  "lon": 19.1336700
},
{
  "type": "node",
  "id": 2285041841,
  "lat": 50.3247976,
  "lon": 19.1335601
},
{
  "type": "node",
  "id": 2285041960,
  "lat": 50.3248655,
  "lon": 19.1336703
},
{
  "type": "node",
  "id": 2285041961,
  "lat": 50.3248658,
  "lon": 19.1335605
},
{
  "type": "node",
  "id": 2285041962,
  "lat": 50.3248659,
  "lon": 19.1336491
},
{
  "type": "node",
  "id": 867126043,
  "lat": 50.2993496,
  "lon": 19.1430628
},
{
  "type": "node",
  "id": 3757644948,
  "lat": 50.2991722,
  "lon": 19.1430655
},
{
  "type": "node",
  "id": 867126049,
  "lat": 50.2991095,
  "lon": 19.1431042
},
{
  "type": "node",
  "id": 867126052,
  "lat": 50.2990554,
  "lon": 19.1434776
},
{
  "type": "node",
  "id": 867126056,
  "lat": 50.2993275,
  "lon": 19.1434806
},
{
  "type": "node",
  "id": 867126075,
  "lat": 50.3002728,
  "lon": 19.1431272
},
{
  "type": "node",
  "id": 867126080,
  "lat": 50.3002716,
  "lon": 19.1433210
},
{
  "type": "node",
  "id": 867126084,
  "lat": 50.3005165,
  "lon": 19.1433157
},
{
  "type": "node",
  "id": 867126087,
  "lat": 50.3006062,
  "lon": 19.1431266
},
{
  "type": "node",
  "id": 3757644822,
  "lat": 50.2990351,
  "lon": 19.1433555
},
{
  "type": "node",
  "id": 3757644823,
  "lat": 50.2990365,
  "lon": 19.1432343
},
{
  "type": "node",
  "id": 3757644824,
  "lat": 50.2990455,
  "lon": 19.1431198
},
{
  "type": "node",
  "id": 3757644925,
  "lat": 50.2990456,
  "lon": 19.1431040
},
{
  "type": "node",
  "id": 3757644926,
  "lat": 50.2990481,
  "lon": 19.1431322
},
{
  "type": "node",
  "id": 3757644927,
  "lat": 50.2990482,
  "lon": 19.1434496
},
{
  "type": "node",
  "id": 3757644928,
  "lat": 50.2990489,
  "lon": 19.1434676
},
{
  "type": "node",
  "id": 3757644929,
  "lat": 50.2990517,
  "lon": 19.1430927
},
{
  "type": "node",
  "id": 3757644930,
  "lat": 50.2990535,
  "lon": 19.1431410
},
{
  "type": "node",
  "id": 3757644931,
  "lat": 50.2990535,
  "lon": 19.1434346
},
{
  "type": "node",
  "id": 3757644932,
  "lat": 50.2990607,
  "lon": 19.1431437
},
{
  "type": "node",
  "id": 3757644933,
  "lat": 50.2990611,
  "lon": 19.1432329
},
{
  "type": "node",
  "id": 3757644934,
  "lat": 50.2990611,
  "lon": 19.1433564
},
{
  "type": "node",
  "id": 3757644935,
  "lat": 50.2990613,
  "lon": 19.1430876
},
{
  "type": "node",
  "id": 3757644936,
  "lat": 50.2990619,
  "lon": 19.1434283
},
{
  "type": "node",
  "id": 3757644937,
  "lat": 50.2990633,
  "lon": 19.1434825
},
{
  "type": "node",
  "id": 3757644938,
  "lat": 50.2990703,
  "lon": 19.1430861
},
{
  "type": "node",
  "id": 3757644939,
  "lat": 50.2990731,
  "lon": 19.1434791
},
{
  "type": "node",
  "id": 3757644940,
  "lat": 50.2990785,
  "lon": 19.1430939
},
{
  "type": "node",
  "id": 3757644941,
  "lat": 50.2990809,
  "lon": 19.1434709
},
{
  "type": "node",
  "id": 3757644942,
  "lat": 50.2990812,
  "lon": 19.1431046
},
{
  "type": "node",
  "id": 3757644943,
  "lat": 50.2990828,
  "lon": 19.1434560
},
{
  "type": "node",
  "id": 3757644944,
  "lat": 50.2991095,
  "lon": 19.1430668
},
{
  "type": "node",
  "id": 3757644945,
  "lat": 50.2991326,
  "lon": 19.1434561
},
{
  "type": "node",
  "id": 3757644946,
  "lat": 50.2991343,
  "lon": 19.1434822
},
{
  "type": "node",
  "id": 3757644947,
  "lat": 50.2991719,
  "lon": 19.1430793
},
{
  "type": "node",
  "id": 3757644949,
  "lat": 50.2991874,
  "lon": 19.1434818
},
{
  "type": "node",
  "id": 3757644950,
  "lat": 50.2991893,
  "lon": 19.1434872
},
{
  "type": "node",
  "id": 3757644951,
  "lat": 50.2992681,
  "lon": 19.1434782
},
{
  "type": "node",
  "id": 3757644952,
  "lat": 50.2992684,
  "lon": 19.1434888
},
{
  "type": "node",
  "id": 3757644953,
  "lat": 50.2992863,
  "lon": 19.1430761
},
{
  "type": "node",
  "id": 3757644954,
  "lat": 50.2992864,
  "lon": 19.1430677
},
{
  "type": "node",
  "id": 3757644955,
  "lat": 50.2993270,
  "lon": 19.1434357
},
{
  "type": "node",
  "id": 3757644956,
  "lat": 50.2993312,
  "lon": 19.1434409
},
{
  "type": "node",
  "id": 3757644957,
  "lat": 50.2993401,
  "lon": 19.1434473
},
{
  "type": "node",
  "id": 3757644958,
  "lat": 50.2993490,
  "lon": 19.1434473
},
{
  "type": "node",
  "id": 3757644959,
  "lat": 50.2993516,
  "lon": 19.1431761
},
{
  "type": "node",
  "id": 3757644960,
  "lat": 50.2993582,
  "lon": 19.1434402
},
{
  "type": "node",
  "id": 3757644961,
  "lat": 50.2993595,
  "lon": 19.1433950
},
{
  "type": "node",
  "id": 3757644962,
  "lat": 50.2993621,
  "lon": 19.1434251
},
{
  "type": "node",
  "id": 3757644963,
  "lat": 50.2993635,
  "lon": 19.1434089
},
{
  "type": "node",
  "id": 3757644964,
  "lat": 50.2993652,
  "lon": 19.1431746
},
{
  "type": "node",
  "id": 3757644965,
  "lat": 50.2993681,
  "lon": 19.1433914
},
{
  "type": "node",
  "id": 3757644966,
  "lat": 50.3003451,
  "lon": 19.1433758
},
{
  "type": "node",
  "id": 3757644967,
  "lat": 50.3003454,
  "lon": 19.1433222
},
{
  "type": "node",
  "id": 3757644968,
  "lat": 50.3003709,
  "lon": 19.1431287
},
{
  "type": "node",
  "id": 3757644969,
  "lat": 50.3003711,
  "lon": 19.1430908
},
{
  "type": "node",
  "id": 3757644970,
  "lat": 50.3004264,
  "lon": 19.1431239
},
{
  "type": "node",
  "id": 3757644971,
  "lat": 50.3004266,
  "lon": 19.1430917
},
{
  "type": "node",
  "id": 3757644972,
  "lat": 50.3004476,
  "lon": 19.1433773
},
{
  "type": "node",
  "id": 3757644973,
  "lat": 50.3004479,
  "lon": 19.1433146
},
{
  "type": "node",
  "id": 3757644974,
  "lat": 50.3005167,
  "lon": 19.1432778
},
{
  "type": "node",
  "id": 3757644975,
  "lat": 50.3006053,
  "lon": 19.1432792
},
{
  "type": "node",
  "id": 3133135801,
  "lat": 50.3615810,
  "lon": 18.8525267
},
{
  "type": "node",
  "id": 3133135802,
  "lat": 50.3616052,
  "lon": 18.8526686
},
{
  "type": "node",
  "id": 3133135810,
  "lat": 50.3616456,
  "lon": 18.8524995
},
{
  "type": "node",
  "id": 3133135813,
  "lat": 50.3616527,
  "lon": 18.8525414
},
{
  "type": "node",
  "id": 3133135822,
  "lat": 50.3616612,
  "lon": 18.8525887
},
{
  "type": "node",
  "id": 3133135833,
  "lat": 50.3616699,
  "lon": 18.8526413
},
{
  "type": "node",
  "id": 3133135836,
  "lat": 50.3616809,
  "lon": 18.8525289
},
{
  "type": "node",
  "id": 3133135838,
  "lat": 50.3616895,
  "lon": 18.8525760
},
{
  "type": "node",
  "id": 1353803199,
  "lat": 50.4253679,
  "lon": 18.8495999
},
{
  "type": "node",
  "id": 1353803371,
  "lat": 50.4254026,
  "lon": 18.8493169
},
{
  "type": "node",
  "id": 1353803668,
  "lat": 50.4255356,
  "lon": 18.8493571
},
{
  "type": "node",
  "id": 1353803743,
  "lat": 50.4255221,
  "lon": 18.8497147
},
{
  "type": "node",
  "id": 1353803749,
  "lat": 50.4255245,
  "lon": 18.8498366
},
{
  "type": "node",
  "id": 1353803767,
  "lat": 50.4255301,
  "lon": 18.8496490
},
{
  "type": "node",
  "id": 1353803791,
  "lat": 50.4255389,
  "lon": 18.8497198
},
{
  "type": "node",
  "id": 1353803827,
  "lat": 50.4255520,
  "lon": 18.8492230
},
{
  "type": "node",
  "id": 1353804403,
  "lat": 50.4256957,
  "lon": 18.8493144
},
{
  "type": "node",
  "id": 1353804409,
  "lat": 50.4257014,
  "lon": 18.8492683
},
{
  "type": "node",
  "id": 1353804500,
  "lat": 50.4257452,
  "lon": 18.8499035
},
{
  "type": "node",
  "id": 1353804752,
  "lat": 50.4258132,
  "lon": 18.8493500
},
{
  "type": "node",
  "id": 462324529,
  "lat": 50.3489479,
  "lon": 18.9255665
},
{
  "type": "node",
  "id": 462324532,
  "lat": 50.3493004,
  "lon": 18.9265067
},
{
  "type": "node",
  "id": 462324534,
  "lat": 50.3491249,
  "lon": 18.9264703
},
{
  "type": "node",
  "id": 462324538,
  "lat": 50.3489286,
  "lon": 18.9264263
},
{
  "type": "node",
  "id": 462324539,
  "lat": 50.3488587,
  "lon": 18.9266321
},
{
  "type": "node",
  "id": 462324549,
  "lat": 50.3489289,
  "lon": 18.9266478
},
{
  "type": "node",
  "id": 462324551,
  "lat": 50.3489444,
  "lon": 18.9266303
},
{
  "type": "node",
  "id": 462324553,
  "lat": 50.3490246,
  "lon": 18.9265981
},
{
  "type": "node",
  "id": 462324558,
  "lat": 50.3491363,
  "lon": 18.9267733
},
{
  "type": "node",
  "id": 462324560,
  "lat": 50.3492819,
  "lon": 18.9267085
},
{
  "type": "node",
  "id": 592288416,
  "lat": 50.3491996,
  "lon": 18.9256365
},
{
  "type": "node",
  "id": 598177256,
  "lat": 50.3488051,
  "lon": 18.9259143
},
{
  "type": "node",
  "id": 598177257,
  "lat": 50.3488785,
  "lon": 18.9255472
},
{
  "type": "node",
  "id": 598177292,
  "lat": 50.3493724,
  "lon": 18.9257334
},
{
  "type": "node",
  "id": 598177303,
  "lat": 50.3493142,
  "lon": 18.9256684
},
{
  "type": "node",
  "id": 598177305,
  "lat": 50.3493426,
  "lon": 18.9259947
},
{
  "type": "node",
  "id": 598177306,
  "lat": 50.3493350,
  "lon": 18.9260618
},
{
  "type": "node",
  "id": 2132774196,
  "lat": 50.3488811,
  "lon": 18.9263885
},
{
  "type": "node",
  "id": 2132774213,
  "lat": 50.3489311,
  "lon": 18.9263997
},
{
  "type": "node",
  "id": 2132774218,
  "lat": 50.3489468,
  "lon": 18.9266038
},
{
  "type": "node",
  "id": 2132774222,
  "lat": 50.3489629,
  "lon": 18.9265842
},
{
  "type": "node",
  "id": 2132774229,
  "lat": 50.3489992,
  "lon": 18.9267613
},
{
  "type": "node",
  "id": 2132774231,
  "lat": 50.3490051,
  "lon": 18.9266974
},
{
  "type": "node",
  "id": 2132774234,
  "lat": 50.3490094,
  "lon": 18.9267636
},
{
  "type": "node",
  "id": 2132774236,
  "lat": 50.3490153,
  "lon": 18.9266997
},
{
  "type": "node",
  "id": 2132774287,
  "lat": 50.3491082,
  "lon": 18.9267670
},
{
  "type": "node",
  "id": 2132774291,
  "lat": 50.3491171,
  "lon": 18.9266695
},
{
  "type": "node",
  "id": 2132774294,
  "lat": 50.3491311,
  "lon": 18.9264028
},
{
  "type": "node",
  "id": 2132774309,
  "lat": 50.3491490,
  "lon": 18.9266920
},
{
  "type": "node",
  "id": 2132774312,
  "lat": 50.3491504,
  "lon": 18.9266770
},
{
  "type": "node",
  "id": 2132774376,
  "lat": 50.3492125,
  "lon": 18.9267063
},
{
  "type": "node",
  "id": 2132774378,
  "lat": 50.3492137,
  "lon": 18.9266932
},
{
  "type": "node",
  "id": 2132774402,
  "lat": 50.3492766,
  "lon": 18.9265014
},
{
  "type": "node",
  "id": 2132774405,
  "lat": 50.3492825,
  "lon": 18.9264368
},
{
  "type": "node",
  "id": 2441869799,
  "lat": 50.3488427,
  "lon": 18.9255849
},
{
  "type": "node",
  "id": 2441869800,
  "lat": 50.3488733,
  "lon": 18.9255935
},
{
  "type": "node",
  "id": 2441869803,
  "lat": 50.3493778,
  "lon": 18.9256861
},
{
  "type": "node",
  "id": 462324554,
  "lat": 50.3489986,
  "lon": 18.9268807
},
{
  "type": "node",
  "id": 462324556,
  "lat": 50.3491239,
  "lon": 18.9269088
},
{
  "type": "node",
  "id": 2132774246,
  "lat": 50.3490331,
  "lon": 18.9268884
},
{
  "type": "node",
  "id": 2132774259,
  "lat": 50.3490637,
  "lon": 18.9268952
},
{
  "type": "node",
  "id": 2132774296,
  "lat": 50.3491323,
  "lon": 18.9268168
},
{
  "type": "node",
  "id": 1790576986,
  "lat": 50.3984806,
  "lon": 18.9786553
},
{
  "type": "node",
  "id": 1790576988,
  "lat": 50.3985155,
  "lon": 18.9785555
},
{
  "type": "node",
  "id": 4415532224,
  "lat": 50.3983761,
  "lon": 18.9785651
},
{
  "type": "node",
  "id": 4415532225,
  "lat": 50.3984110,
  "lon": 18.9784654
}

  ]
}
