{
  "version": 0.6,
  "generator": "Overpass API 0.7.55.1011 6c2efc30",
  "osm3s": {
    "timestamp_osm_base": "2020-02-14T13:18:02Z",
    "copyright": "The data included in this document is from www.openstreetmap.org. The data is made available under ODbL."
  },
  "elements": [

{
  "type": "node",
  "id": 464777467,
  "lat": 49.1089657,
  "lon": 1.8496944,
  "tags": {
    "name": "Musée Archéologique Départemental",
    "tourism": "museum"
  }
},
{
  "type": "node",
  "id": 577287841,
  "lat": 49.0720566,
  "lon": 2.1661667,
  "tags": {
    "name": "Voyage au Temps des impressionnistes",
    "tourism": "museum"
  }
},
{
  "type": "node",
  "id": 701806527,
  "lat": 49.0763478,
  "lon": 1.5313261,
  "tags": {
    "addr:housenumber": "99",
    "addr:street": "Rue Claude Monet",
    "contact:email": "contact@mdig.fr",
    "contact:facebook": "mdig.fr",
    "contact:website": "http://mdig.fr",
    "name": "Musée des impressionismes",
    "opening_hours": "Mo-Su 10:00-18:00",
    "operator": "Fondation Monet",
    "phone": "+33 2 32 51 94 65",
    "toilets:wheelchair": "no",
    "tourism": "museum",
    "website": "http://www.museedesimpressionnismesgiverny.com",
    "wheelchair": "limited",
    "wikidata": "Q3330248"
  }
},
{
  "type": "node",
  "id": 1359954338,
  "lat": 49.0709727,
  "lon": 2.1715784,
  "tags": {
    "name": "Chambre de Van Gogh",
    "tourism": "museum"
  }
},
{
  "type": "node",
  "id": 1468241695,
  "lat": 49.3934991,
  "lon": 2.1488310,
  "tags": {
    "name": "Musée de l'aviation",
    "tourism": "museum",
    "website": "http://http://museedelaviation-warluis.com"
  }
},
{
  "type": "node",
  "id": 1612275797,
  "lat": 49.0948920,
  "lon": 1.4850183,
  "tags": {
    "name": "Musée Alphonse Georges Poulain",
    "tourism": "museum",
    "wikidata": "Q3329050",
    "wikipedia": "fr:Musée Alphonse Georges Poulain"
  }
},
{
  "type": "node",
  "id": 1733134564,
  "lat": 48.9901391,
  "lon": 1.7194536,
  "tags": {
    "addr:city": "Mantes-la-Jolie",
    "addr:country": "FR",
    "addr:housenumber": "1",
    "addr:postcode": "78200",
    "addr:street": "Rue Thiers",
    "fax": "+33 1 34 78 86 65",
    "name": "Musée de l'Hôtel Dieu",
    "note": "Entrée libre chaque premier dimanche du mois",
    "opening_hours": "Mo-Th 09:00-12:00,14:00-18:00; Tu off; Fr-Su 14:00-18:00",
    "phone": "+33 1 34 78 86 60",
    "tourism": "museum",
    "website": "http://www.manteslajolie.fr/MUSEE%20DE%20LHOTELDIEU"
  }
},
{
  "type": "node",
  "id": 1733168329,
  "lat": 48.9874885,
  "lon": 1.7148083,
  "tags": {
    "name": "Pavillon Duhamel",
    "source": "cadastre-dgi-fr source : Direction Générale des Impôts - Cadastre ; mise à jour : 2009",
    "tourism": "museum"
  }
},
{
  "type": "node",
  "id": 1792949666,
  "lat": 49.3715192,
  "lon": 1.9905465,
  "tags": {
    "name": "Maison des Frère Boulenger",
    "tourism": "museum"
  }
},
{
  "type": "node",
  "id": 1916695536,
  "lat": 49.0657393,
  "lon": 2.0628578,
  "tags": {
    "name": "Musée Départemental des Sapeurs-Pompiers du Val-d'Oise",
    "source": "cadastre-dgi-fr source : Direction Générale des Impôts - Cadastre ; mise à jour : 2012",
    "tourism": "museum"
  }
},
{
  "type": "node",
  "id": 2024000466,
  "lat": 49.3431773,
  "lon": 2.2816006,
  "tags": {
    "name": "Musée-moulin de la Brosserie",
    "tourism": "museum"
  }
},
{
  "type": "node",
  "id": 2300149911,
  "lat": 49.0753489,
  "lon": 1.5337884,
  "tags": {
    "addr:housenumber": "84",
    "addr:street": "Rue Claude Monet",
    "email": "contact@fondation-monet.com",
    "name": "Fondation Claude Monet",
    "opening_hours": "Mar 24-Nov 01 09:30-18:00",
    "phone": "+33 2 32 51 28 21",
    "tourism": "museum",
    "website": "http://fondation-monet.com",
    "wheelchair": "no",
    "wheelchair:description": "Acces a la maison par escalier. [En: Steps to ground & upper floors.]"
  }
},
{
  "type": "node",
  "id": 2364415698,
  "lat": 48.9986081,
  "lon": 2.0094063,
  "tags": {
    "addr:housenumber": "2",
    "addr:street": "rue de la Chapelle",
    "name": "Parc aux Étoiles",
    "phone": "+33139747510",
    "tourism": "museum",
    "website": "https://parcauxetoiles.agglo2rivesdeseine.fr"
  }
},
{
  "type": "node",
  "id": 2584777625,
  "lat": 49.1125448,
  "lon": 2.2159284,
  "tags": {
    "museum": "history",
    "name": "Musée d'Art et d'Histoire Louis Senlecq",
    "tourism": "museum",
    "website": "https://musee.ville-isle-adam.fr",
    "wikidata": "Q23639858"
  }
},
{
  "type": "node",
  "id": 2893591172,
  "lat": 49.1264402,
  "lon": 1.8915418,
  "tags": {
    "name": "Maison du Pain",
    "tourism": "museum"
  }
},
{
  "type": "node",
  "id": 3812297801,
  "lat": 49.0865920,
  "lon": 1.8959758,
  "tags": {
    "name": "Musée du Vexin français",
    "opening_hours": "Tu-Fr 09:00-13:30,14:00-18:00, Sa 14:00-18:00 Su 08:00-15:00; Sa 10:00-19:00",
    "tourism": "museum",
    "website": "http://ecomusees-vexin-francais.fr/vexin.html",
    "wikidata": "Q3330397",
    "wikipedia": "fr:Musée du Vexin français"
  }
},
{
  "type": "node",
  "id": 4795828797,
  "lat": 49.0772787,
  "lon": 1.5290680,
  "tags": {
    "addr:city": "Giverny",
    "addr:housenumber": "2",
    "addr:postcode": "27620",
    "addr:street": "Rue Blanche Monet",
    "name": "Musee de mécanique naturelle",
    "phone": "+33.2 32 21 26 33",
    "tourism": "museum",
    "website": "https://www.giverny.fr/informations/touristiques/le-musee-de-mecanique-naturelle/giverny-musee-de-mecanique-naturelle/",
    "wheelchair": "yes"
  }
},
{
  "type": "node",
  "id": 4805558117,
  "lat": 49.0713308,
  "lon": 2.1714170,
  "tags": {
    "name": "Musée Daubigny",
    "tourism": "museum"
  }
},
{
  "type": "node",
  "id": 5464879921,
  "lat": 49.0717752,
  "lon": 2.1679412,
  "tags": {
    "addr:housenumber": "44",
    "addr:postcode": "95430",
    "addr:street": "Rue Alphonse Callé",
    "name": "Musée de l’Absinthe",
    "phone": "+33 1 30 36 83 26",
    "tourism": "museum",
    "website": "http://www.musee-absinthe.com",
    "wikidata": "Q11284697"
  }
},
{
  "type": "node",
  "id": 5464879922,
  "lat": 49.0734342,
  "lon": 2.1833517,
  "tags": {
    "addr:housenumber": "5",
    "addr:postcode": "95430",
    "addr:street": "Rue du Montcel",
    "name": "Galerie d’Art Contemporain",
    "phone": "+33 1 34 48 00 10",
    "tourism": "museum"
  }
},
{
  "type": "node",
  "id": 5663863512,
  "lat": 49.0506428,
  "lon": 2.0982521,
  "tags": {
    "name": "Anciennes Carrières",
    "tourism": "museum"
  }
},
{
  "type": "node",
  "id": 6024664688,
  "lat": 49.4428882,
  "lon": 1.7799012,
  "tags": {
    "name": "Musée des Arts et Traditions populaires",
    "tourism": "museum"
  }
},
{
  "type": "node",
  "id": 6027269745,
  "lat": 49.4472438,
  "lon": 1.9013138,
  "tags": {
    "name": "Musée de la Poterie",
    "tourism": "museum"
  }
},
{
  "type": "node",
  "id": 6253374182,
  "lat": 49.3454082,
  "lon": 2.1963260,
  "tags": {
    "name": "Musée du graveur Joly-Clare",
    "tourism": "museum"
  }
},
{
  "type": "node",
  "id": 6253491677,
  "lat": 49.2623827,
  "lon": 1.8820770,
  "tags": {
    "name": "Musée Raymond Pillon",
    "tourism": "museum"
  }
},
{
  "type": "node",
  "id": 7197544713,
  "lat": 49.0135704,
  "lon": 2.0304684,
  "tags": {
    "name": "Le Cadratin de Jouy",
    "tourism": "museum",
    "website": "http://www.lecadratin.fr/"
  }
},
{
  "type": "way",
  "id": 28237608,
  "nodes": [
    310145295,
    1116827700,
    1270897392,
    310145297,
    310145299,
    310145302,
    702100518,
    1270897538,
    813896970,
    1116827713,
    310145295
  ],
  "tags": {
    "access": "permissive",
    "fee": "yes",
    "garden:style": "french",
    "garden:type": "residential",
    "leisure": "garden",
    "name": "Résidence Claude Monet Gardens",
    "toilets:wheelchair": "yes",
    "tourism": "museum",
    "wheelchair": "limited",
    "wheelchair:description": "Entree PMR - ruelle Leroy. [En: Step-free entrance in ruelle Leroy."
  }
},
{
  "type": "way",
  "id": 41467265,
  "nodes": [
    507278057,
    507278075,
    559592977,
    559592973,
    507278089,
    559592971,
    559592970,
    507278103,
    559592979,
    559592980,
    507278057
  ],
  "tags": {
    "addr:city": "Pontoise",
    "addr:housenumber": "17",
    "addr:postcode": "95300",
    "addr:street": "Rue du Château",
    "building": "yes",
    "name": "Musée Camille Pissarro",
    "opening_hours": "We-Su 14:00-18:00",
    "phone": "+33 1 30 38 02 40",
    "tourism": "museum",
    "website": "https://www.ville-pontoise.fr/equipement/musee-camille-pissarro",
    "wikidata": "Q1955692",
    "wikipedia": "de:Musée Camille Pissarro"
  }
},
{
  "type": "way",
  "id": 43389727,
  "nodes": [
    546608536,
    546608562,
    546608588,
    546608614,
    559190938,
    559190942,
    559190947,
    559190951,
    546608536
  ],
  "tags": {
    "building": "yes",
    "museum": "history",
    "name": "Le Carré Patrimoine",
    "opening_hours": "We, Sa-Su 14:00-18:00",
    "phone": "+33 1 34 43 35 77",
    "roof:material": "roof_tiles",
    "roof:shape": "hipped",
    "tourism": "museum",
    "website": "https://www.ville-pontoise.fr/equipement/carre-patrimoine-ciap"
  }
},
{
  "type": "way",
  "id": 43971811,
  "nodes": [
    559198847,
    559198848,
    559198849,
    559198836,
    559198837,
    559198838,
    559198839,
    559198841,
    559198842,
    559198851,
    559198852,
    559198843,
    559198853,
    559198854,
    559198855,
    559198864,
    559198865,
    559198866,
    559198867,
    559198868,
    559198869,
    559198856,
    559198857,
    559198858,
    559198859,
    559198860,
    559198861,
    559198862,
    559198863,
    559198850,
    559198847
  ],
  "tags": {
    "alt_name": "Hôtel d'Estouteville (ancien)",
    "building": "yes",
    "heritage": "3",
    "heritage:operator": "mhs",
    "historic": "building",
    "mhs:inscription_date": "1926-11-02",
    "museum": "art",
    "name": "Musée Tavet Delacour",
    "official_name": "Musée Tavet Delacour",
    "phone": "+33 1 30 38 02 40",
    "ref:FR:museofile": "M0438",
    "ref:mhs": "PA00080168",
    "roof:material": "roof_tiles",
    "roof:shape": "gabled",
    "source": "cadastre-dgi-fr source : Direction Générale des Impôts - Cadastre;mise à jour : 2009",
    "source:heritage": "data.gouv.fr, Ministère de la Culture - 2016",
    "start_date": "C15",
    "tourism": "museum",
    "website": "http://www.ville-pontoise.fr",
    "wikidata": "Q3329361",
    "wikipedia": "fr:Musée Tavet-Delacour"
  }
},
{
  "type": "way",
  "id": 77980890,
  "nodes": [
    916126824,
    916309973,
    916398472,
    916138526,
    916072338,
    916319767,
    916105078,
    916114026,
    916315292,
    916123201,
    916084758,
    916312553,
    916041856,
    916104362,
    916154381,
    916077807,
    916173443,
    916114929,
    916324558,
    916058118,
    916168586,
    916098630,
    916321630,
    916146787,
    916118748,
    916312589,
    916123089,
    916157049,
    916317566,
    916313426,
    916149147,
    916024702,
    916160784,
    916307795,
    916107511,
    916126824
  ],
  "tags": {
    "addr:country": "FR",
    "addr:housenumber": "3",
    "addr:postcode": "78700",
    "addr:street": "Place Jules Gevelot",
    "alt_name": "Château du Prieuré",
    "building": "yes",
    "heritage": "3",
    "heritage:operator": "mhs",
    "name": "Musée de la Batellerie",
    "name:en": "Canal transport museum",
    "name:es": "Museo de la navegación interior",
    "name:pl": "Muzeum żeglugi śródlądowej",
    "opening_hours": "Mo-Fr 09:00-12:00,13:00-18:00; Sa,Su 14:00-17:00",
    "ref:mhs": "PA00087412",
    "source": "extraction vectorielle v1 cadastre-dgi-fr source : Direction Générale des Impôts - Cadas. Mise à jour : 2010",
    "tourism": "museum",
    "website": "https://www.mairie-conflans-sainte-honorine.fr/",
    "wikidata": "Q2971798",
    "wikipedia": "fr:Château du Prieuré"
  }
},
{
  "type": "way",
  "id": 102446728,
  "nodes": [
    1183033317,
    1183068699,
    1181325021,
    1183015573,
    1181360634,
    1183020524,
    1183099250,
    1181334313,
    1183003370,
    1181369245,
    1183075616,
    1183123889,
    1183054804,
    1183089163,
    1183034290,
    1183105353,
    1181341165,
    1183043252,
    1181375214,
    1183080423,
    1183024302,
    1181348497,
    1183058438,
    1181381430,
    1183008151,
    1183038421,
    1182989361,
    1183119698,
    1181323145,
    1183052238,
    1181358759,
    1183087643,
    1183032083,
    1181332730,
    1183067183,
    1181367150,
    1183014811,
    1183047123,
    1182997838,
    1183056703,
    1183005866,
    1183036557,
    1181339537,
    1183129074,
    1181373584,
    1183018463,
    1183095614,
    1181346590,
    1183001986,
    1181379647,
    1183072781,
    1183078874,
    1183023269,
    1183057523,
    1183006955,
    1183037277,
    1181356152,
    1182988250,
    1183019586,
    1181330946,
    1183097086,
    505375985,
    1181364591,
    1183027237,
    1183111292,
    1183011897,
    1183083952,
    1182992674,
    1183062236,
    1181337663,
    1183103998,
    1181372087,
    1183042538,
    1183035471,
    1181344455,
    1183033317
  ],
  "tags": {
    "building": "yes",
    "heritage": "2",
    "heritage:operator": "mhs",
    "historic": "abbaye",
    "mhs:inscription_date": "1947",
    "name": "Ancienne abbaye de Maubuisson",
    "ref:mhs": "PA00080199",
    "source": "cadastre-dgi-fr source : Direction Générale des Impôts - Cadastre. Mise à jour : 2011",
    "source:heritage": "data.gouv.fr:Ministère de la Culture - 04/2015",
    "tourism": "museum",
    "wikidata": "Q915291",
    "wikipedia": "fr:Abbaye de Maubuisson"
  }
},
{
  "type": "way",
  "id": 106241592,
  "nodes": [
    1222096204,
    1222096200,
    1222096202,
    1222096182,
    1222096185,
    1222096179,
    1222096180,
    1222096174,
    1222096177,
    1222096167,
    1222096171,
    1222096153,
    1222096157,
    1222096148,
    1222096151,
    1222096146,
    1222096143,
    1222096142,
    1222096133,
    1222096127,
    1222096125,
    1222096121,
    1222096119,
    1222096117,
    1222096115,
    1222096113,
    1222096105,
    1222096102,
    1222096099,
    1222096096,
    1222096093,
    1222096469,
    1222096470,
    1222096471,
    1222096473,
    1222096475,
    1222096478,
    1222096488,
    1222096490,
    1222096443,
    1222096445,
    1222096448,
    1222096452,
    1222096455,
    1222096457,
    1222096463,
    1222096466,
    1222096423,
    1222096424,
    1222092159,
    1222096204
  ],
  "tags": {
    "addr:housenumber": "1",
    "addr:street": "Rue Saint-Pierre",
    "building": "yes",
    "building:levels": "2",
    "name": "Le Quadrilatère",
    "source": "cadastre-dgi-fr source : Direction Générale des Impôts - Cadastre. Mise à jour : 2011",
    "tourism": "museum"
  }
},
{
  "type": "way",
  "id": 147861398,
  "nodes": [
    1610131818,
    1610131837,
    1610131328,
    1610131105,
    1610131543,
    1610131568,
    1610131593,
    1610131640,
    1610131983,
    1610131987,
    1610131957,
    1610131975,
    1610131724,
    1610131774,
    1610131797,
    1610131818
  ],
  "tags": {
    "addr:housenumber": "51",
    "addr:street": "Rue Roger Salengro",
    "building": "yes",
    "contact:phone": "+33 3 44 22 61 74",
    "name": "Musée de la Nacre et de la Tabletterie",
    "opening_hours": "Mo,We-Su 14:30-18:30",
    "source": "cadastre-dgi-fr source : Direction Générale des Impôts - Cadastre. Mise à jour : 2012",
    "tourism": "museum",
    "wikidata": "Q3329932"
  }
},
{
  "type": "way",
  "id": 161346548,
  "nodes": [
    1733218629,
    1733218884,
    1733218977,
    1733219417,
    1733219332,
    1733219298,
    1733219263,
    1733219178,
    1733219114,
    1733219057,
    1733218951,
    1733218945,
    1733218565,
    1733218629
  ],
  "tags": {
    "building": "chapel",
    "name": "Chapelle Saint-Jacques du cimetière",
    "source": "cadastre-dgi-fr source : Direction Générale des Impôts - Cadastre. Mise à jour : 2012",
    "tourism": "museum"
  }
},
{
  "type": "way",
  "id": 170804594,
  "nodes": [
    1819422899,
    1819422861,
    1819423207,
    1819423090,
    1819423311,
    1819423427,
    1819423545,
    1819423557,
    6400644430,
    6400644429,
    6400644428,
    1819422899
  ],
  "tags": {
    "building": "yes",
    "name": "Parc Aux Etoiles CCSTI des Yvelines",
    "operator": "Communauté urbaine GPS&O",
    "source": "cadastre-dgi-fr source : Direction Générale des Impôts - Cadastre. Mise à jour : 2012",
    "tourism": "museum"
  }
},
{
  "type": "way",
  "id": 219021603,
  "nodes": [
    2282258271,
    2282258272,
    2282258273,
    2282258276,
    5206546987,
    2282258278,
    2282258279,
    2282258277,
    2282258275,
    2282258274,
    2282258269,
    2282258267,
    6326820494,
    2282258265,
    2282258263,
    2282258262,
    2282258259,
    2282258258,
    2282258260,
    2282258261,
    2282258264,
    2282258266,
    5206546986,
    5206546983,
    5206546984,
    5206546985,
    2282258268,
    2282258271
  ],
  "tags": {
    "alt_name": "Musée MTVS",
    "name": "Musée des tramways à vapeur et des chemins de fer secondaires français",
    "operator": "Association du Musée des Tramways à Vapeur et des chemins de fer Secondaires français",
    "source": "bing; wikikpedia",
    "tourism": "museum",
    "website": "https://musee-mtvs.com/",
    "wikidata": "Q3330295"
  }
},
{
  "type": "way",
  "id": 223471965,
  "nodes": [
    2323734754,
    2323734749,
    2323734759,
    2323734753,
    2323734756,
    2323734766,
    2323734750,
    2323734765,
    2323734755,
    2323734760,
    4043780742,
    4043780748,
    4043780744,
    4043780737,
    2323734761,
    2323734757,
    4043780721,
    4043780705,
    2323734752,
    2323734754
  ],
  "tags": {
    "building": "civic",
    "name": "Musée de la Moisson",
    "source": "cadastre-dgi-fr source : Direction Générale des Finances Publiques - Cadastre. Mise à jour : 2016",
    "tourism": "museum"
  }
},
{
  "type": "way",
  "id": 275819835,
  "nodes": [
    2804861816,
    2804861817,
    2804861818,
    2804861819,
    2804861816
  ],
  "tags": {
    "building": "yes",
    "name": "Musée Nicolas Poussin",
    "tourism": "museum",
    "wikidata": "Q3329293"
  }
},
{
  "type": "way",
  "id": 556458814,
  "nodes": [
    5367907938,
    5367907939,
    5410588439,
    5410588438,
    5410588437,
    5410588436,
    5367907940,
    5410588452,
    5367907941,
    5410588432,
    5410588433,
    5410588434,
    5410588435,
    5410588453,
    5367907942,
    5410588431,
    5367907943,
    5367907944,
    5367907945,
    5367907946,
    5367907947,
    5367907948,
    5367907949,
    5367907938
  ],
  "tags": {
    "addr:city": "Beauvais",
    "addr:postcode": "60000",
    "name": "MUDO – Musée de l'Oise",
    "operator": "Département de l'Oise",
    "tourism": "museum",
    "wikidata": "Q3330521"
  }
},
{
  "type": "node",
  "id": 310145295,
  "lat": 49.0754221,
  "lon": 1.5328191
},
{
  "type": "node",
  "id": 310145297,
  "lat": 49.0747180,
  "lon": 1.5327649
},
{
  "type": "node",
  "id": 813896970,
  "lat": 49.0754404,
  "lon": 1.5331726
},
{
  "type": "node",
  "id": 1116827700,
  "lat": 49.0751222,
  "lon": 1.5328230
},
{
  "type": "node",
  "id": 1116827713,
  "lat": 49.0754578,
  "lon": 1.5328564
},
{
  "type": "node",
  "id": 1270897392,
  "lat": 49.0748563,
  "lon": 1.5327848
},
{
  "type": "node",
  "id": 310145299,
  "lat": 49.0746534,
  "lon": 1.5344752
},
{
  "type": "node",
  "id": 310145302,
  "lat": 49.0752930,
  "lon": 1.5346959
},
{
  "type": "node",
  "id": 702100518,
  "lat": 49.0753102,
  "lon": 1.5345811
},
{
  "type": "node",
  "id": 1270897538,
  "lat": 49.0753210,
  "lon": 1.5344649
},
{
  "type": "node",
  "id": 2804861816,
  "lat": 49.2460711,
  "lon": 1.4196764
},
{
  "type": "node",
  "id": 2804861817,
  "lat": 49.2459355,
  "lon": 1.4198480
},
{
  "type": "node",
  "id": 2804861818,
  "lat": 49.2458861,
  "lon": 1.4197700
},
{
  "type": "node",
  "id": 2804861819,
  "lat": 49.2460428,
  "lon": 1.4195911
},
{
  "type": "node",
  "id": 1733218565,
  "lat": 48.9851143,
  "lon": 1.7167240
},
{
  "type": "node",
  "id": 1733218629,
  "lat": 48.9851260,
  "lon": 1.7166222
},
{
  "type": "node",
  "id": 1733218884,
  "lat": 48.9851752,
  "lon": 1.7166342
},
{
  "type": "node",
  "id": 1733218945,
  "lat": 48.9851951,
  "lon": 1.7167415
},
{
  "type": "node",
  "id": 1733218951,
  "lat": 48.9851968,
  "lon": 1.7167263
},
{
  "type": "node",
  "id": 1733218977,
  "lat": 48.9852017,
  "lon": 1.7164172
},
{
  "type": "node",
  "id": 1733219057,
  "lat": 48.9852198,
  "lon": 1.7167282
},
{
  "type": "node",
  "id": 1733219114,
  "lat": 48.9852367,
  "lon": 1.7167232
},
{
  "type": "node",
  "id": 1733219178,
  "lat": 48.9852514,
  "lon": 1.7167107
},
{
  "type": "node",
  "id": 1733219263,
  "lat": 48.9852648,
  "lon": 1.7166883
},
{
  "type": "node",
  "id": 1733219298,
  "lat": 48.9852714,
  "lon": 1.7166706
},
{
  "type": "node",
  "id": 1733219332,
  "lat": 48.9852843,
  "lon": 1.7165725
},
{
  "type": "node",
  "id": 1733219417,
  "lat": 48.9853001,
  "lon": 1.7164424
},
{
  "type": "node",
  "id": 2323734749,
  "lat": 49.0585740,
  "lon": 1.9485210
},
{
  "type": "node",
  "id": 2323734750,
  "lat": 49.0584800,
  "lon": 1.9481750
},
{
  "type": "node",
  "id": 2323734752,
  "lat": 49.0583720,
  "lon": 1.9488070
},
{
  "type": "node",
  "id": 2323734753,
  "lat": 49.0584520,
  "lon": 1.9483940
},
{
  "type": "node",
  "id": 2323734754,
  "lat": 49.0584920,
  "lon": 1.9486340
},
{
  "type": "node",
  "id": 2323734755,
  "lat": 49.0583050,
  "lon": 1.9481620
},
{
  "type": "node",
  "id": 2323734756,
  "lat": 49.0584340,
  "lon": 1.9483650
},
{
  "type": "node",
  "id": 2323734757,
  "lat": 49.0583570,
  "lon": 1.9485310
},
{
  "type": "node",
  "id": 2323734759,
  "lat": 49.0584760,
  "lon": 1.9483600
},
{
  "type": "node",
  "id": 2323734760,
  "lat": 49.0582530,
  "lon": 1.9482310
},
{
  "type": "node",
  "id": 2323734761,
  "lat": 49.0583360,
  "lon": 1.9484950
},
{
  "type": "node",
  "id": 2323734765,
  "lat": 49.0583930,
  "lon": 1.9483050
},
{
  "type": "node",
  "id": 2323734766,
  "lat": 49.0585200,
  "lon": 1.9482290
},
{
  "type": "node",
  "id": 4043780705,
  "lat": 49.0582740,
  "lon": 1.9486490
},
{
  "type": "node",
  "id": 4043780721,
  "lat": 49.0583060,
  "lon": 1.9486000
},
{
  "type": "node",
  "id": 4043780737,
  "lat": 49.0583620,
  "lon": 1.9484560
},
{
  "type": "node",
  "id": 4043780742,
  "lat": 49.0583800,
  "lon": 1.9484300
},
{
  "type": "node",
  "id": 4043780744,
  "lat": 49.0583820,
  "lon": 1.9484920
},
{
  "type": "node",
  "id": 4043780748,
  "lat": 49.0584030,
  "lon": 1.9484670
},
{
  "type": "node",
  "id": 1819422861,
  "lat": 48.9977177,
  "lon": 2.0090363
},
{
  "type": "node",
  "id": 1819422899,
  "lat": 48.9977429,
  "lon": 2.0088644
},
{
  "type": "node",
  "id": 1819423090,
  "lat": 48.9979179,
  "lon": 2.0091846
},
{
  "type": "node",
  "id": 1819423207,
  "lat": 48.9979293,
  "lon": 2.0091066
},
{
  "type": "node",
  "id": 1819423311,
  "lat": 48.9979688,
  "lon": 2.0092027
},
{
  "type": "node",
  "id": 1819423427,
  "lat": 48.9980334,
  "lon": 2.0091415
},
{
  "type": "node",
  "id": 1819423545,
  "lat": 48.9981284,
  "lon": 2.0091751
},
{
  "type": "node",
  "id": 1819423557,
  "lat": 48.9981586,
  "lon": 2.0090132
},
{
  "type": "node",
  "id": 6400644428,
  "lat": 48.9980780,
  "lon": 2.0089831
},
{
  "type": "node",
  "id": 6400644429,
  "lat": 48.9980905,
  "lon": 2.0089300
},
{
  "type": "node",
  "id": 6400644430,
  "lat": 48.9981648,
  "lon": 2.0089594
},
{
  "type": "node",
  "id": 916024702,
  "lat": 48.9925689,
  "lon": 2.0956960
},
{
  "type": "node",
  "id": 916041856,
  "lat": 48.9922620,
  "lon": 2.0961065
},
{
  "type": "node",
  "id": 916058118,
  "lat": 48.9925399,
  "lon": 2.0959375
},
{
  "type": "node",
  "id": 916072338,
  "lat": 48.9922894,
  "lon": 2.0959735
},
{
  "type": "node",
  "id": 916077807,
  "lat": 48.9922770,
  "lon": 2.0961887
},
{
  "type": "node",
  "id": 916084758,
  "lat": 48.9922753,
  "lon": 2.0960848
},
{
  "type": "node",
  "id": 916098630,
  "lat": 48.9925913,
  "lon": 2.0959226
},
{
  "type": "node",
  "id": 916104362,
  "lat": 48.9922716,
  "lon": 2.0961262
},
{
  "type": "node",
  "id": 916105078,
  "lat": 48.9922693,
  "lon": 2.0959754
},
{
  "type": "node",
  "id": 916107511,
  "lat": 48.9925215,
  "lon": 2.0956530
},
{
  "type": "node",
  "id": 916114026,
  "lat": 48.9922648,
  "lon": 2.0959833
},
{
  "type": "node",
  "id": 916114929,
  "lat": 48.9924678,
  "lon": 2.0959643
},
{
  "type": "node",
  "id": 916118748,
  "lat": 48.9926060,
  "lon": 2.0958864
},
{
  "type": "node",
  "id": 916123089,
  "lat": 48.9926082,
  "lon": 2.0958582
},
{
  "type": "node",
  "id": 916123201,
  "lat": 48.9922762,
  "lon": 2.0960053
},
{
  "type": "node",
  "id": 916126824,
  "lat": 48.9924667,
  "lon": 2.0956836
},
{
  "type": "node",
  "id": 916138526,
  "lat": 48.9925117,
  "lon": 2.0958457
},
{
  "type": "node",
  "id": 916146787,
  "lat": 48.9925968,
  "lon": 2.0958914
},
{
  "type": "node",
  "id": 916149147,
  "lat": 48.9925849,
  "lon": 2.0957618
},
{
  "type": "node",
  "id": 916154381,
  "lat": 48.9922631,
  "lon": 2.0961702
},
{
  "type": "node",
  "id": 916157049,
  "lat": 48.9925962,
  "lon": 2.0958479
},
{
  "type": "node",
  "id": 916160784,
  "lat": 48.9925760,
  "lon": 2.0956925
},
{
  "type": "node",
  "id": 916168586,
  "lat": 48.9925556,
  "lon": 2.0959436
},
{
  "type": "node",
  "id": 916173443,
  "lat": 48.9924904,
  "lon": 2.0960558
},
{
  "type": "node",
  "id": 916307795,
  "lat": 48.9925609,
  "lon": 2.0956298
},
{
  "type": "node",
  "id": 916309973,
  "lat": 48.9924806,
  "lon": 2.0957449
},
{
  "type": "node",
  "id": 916312553,
  "lat": 48.9922634,
  "lon": 2.0960944
},
{
  "type": "node",
  "id": 916312589,
  "lat": 48.9926112,
  "lon": 2.0958758
},
{
  "type": "node",
  "id": 916313426,
  "lat": 48.9927078,
  "lon": 2.0956969
},
{
  "type": "node",
  "id": 916315292,
  "lat": 48.9922691,
  "lon": 2.0960001
},
{
  "type": "node",
  "id": 916317566,
  "lat": 48.9927269,
  "lon": 2.0957746
},
{
  "type": "node",
  "id": 916319767,
  "lat": 48.9922806,
  "lon": 2.0959684
},
{
  "type": "node",
  "id": 916321630,
  "lat": 48.9925991,
  "lon": 2.0959034
},
{
  "type": "node",
  "id": 916324558,
  "lat": 48.9925355,
  "lon": 2.0959218
},
{
  "type": "node",
  "id": 916398472,
  "lat": 48.9924892,
  "lon": 2.0957418
},
{
  "type": "node",
  "id": 507278057,
  "lat": 49.0483095,
  "lon": 2.0999469
},
{
  "type": "node",
  "id": 507278075,
  "lat": 49.0482657,
  "lon": 2.1000721
},
{
  "type": "node",
  "id": 507278089,
  "lat": 49.0481574,
  "lon": 2.0999942
},
{
  "type": "node",
  "id": 507278103,
  "lat": 49.0482140,
  "lon": 2.0998375
},
{
  "type": "node",
  "id": 559592970,
  "lat": 49.0481870,
  "lon": 2.0999146
},
{
  "type": "node",
  "id": 559592971,
  "lat": 49.0481856,
  "lon": 2.0999135
},
{
  "type": "node",
  "id": 559592973,
  "lat": 49.0482220,
  "lon": 2.1000465
},
{
  "type": "node",
  "id": 559592977,
  "lat": 49.0482246,
  "lon": 2.1000389
},
{
  "type": "node",
  "id": 559592979,
  "lat": 49.0482593,
  "lon": 2.0998742
},
{
  "type": "node",
  "id": 559592980,
  "lat": 49.0482506,
  "lon": 2.0998992
},
{
  "type": "node",
  "id": 1181323145,
  "lat": 49.0461170,
  "lon": 2.1167370
},
{
  "type": "node",
  "id": 1181325021,
  "lat": 49.0459750,
  "lon": 2.1163830
},
{
  "type": "node",
  "id": 1181332730,
  "lat": 49.0461780,
  "lon": 2.1167740
},
{
  "type": "node",
  "id": 1181334313,
  "lat": 49.0459400,
  "lon": 2.1165270
},
{
  "type": "node",
  "id": 1181341165,
  "lat": 49.0460080,
  "lon": 2.1166240
},
{
  "type": "node",
  "id": 1181344455,
  "lat": 49.0460220,
  "lon": 2.1164060
},
{
  "type": "node",
  "id": 1181348497,
  "lat": 49.0460750,
  "lon": 2.1166830
},
{
  "type": "node",
  "id": 1181358759,
  "lat": 49.0461680,
  "lon": 2.1167650
},
{
  "type": "node",
  "id": 1181360634,
  "lat": 49.0459840,
  "lon": 2.1164360
},
{
  "type": "node",
  "id": 1181369245,
  "lat": 49.0459560,
  "lon": 2.1165780
},
{
  "type": "node",
  "id": 1181375214,
  "lat": 49.0460340,
  "lon": 2.1166630
},
{
  "type": "node",
  "id": 1181381430,
  "lat": 49.0460790,
  "lon": 2.1167030
},
{
  "type": "node",
  "id": 1182989361,
  "lat": 49.0461130,
  "lon": 2.1167160
},
{
  "type": "node",
  "id": 1183003370,
  "lat": 49.0459660,
  "lon": 2.1165500
},
{
  "type": "node",
  "id": 1183008151,
  "lat": 49.0460840,
  "lon": 2.1166910
},
{
  "type": "node",
  "id": 1183015573,
  "lat": 49.0459630,
  "lon": 2.1164170
},
{
  "type": "node",
  "id": 1183020524,
  "lat": 49.0459530,
  "lon": 2.1165200
},
{
  "type": "node",
  "id": 1183024302,
  "lat": 49.0460460,
  "lon": 2.1166570
},
{
  "type": "node",
  "id": 1183032083,
  "lat": 49.0461730,
  "lon": 2.1167870
},
{
  "type": "node",
  "id": 1183033317,
  "lat": 49.0459880,
  "lon": 2.1163750
},
{
  "type": "node",
  "id": 1183034290,
  "lat": 49.0459940,
  "lon": 2.1166270
},
{
  "type": "node",
  "id": 1183035471,
  "lat": 49.0460760,
  "lon": 2.1164510
},
{
  "type": "node",
  "id": 1183038421,
  "lat": 49.0461100,
  "lon": 2.1167140
},
{
  "type": "node",
  "id": 1183043252,
  "lat": 49.0460380,
  "lon": 2.1166500
},
{
  "type": "node",
  "id": 1183052238,
  "lat": 49.0461220,
  "lon": 2.1167240
},
{
  "type": "node",
  "id": 1183054804,
  "lat": 49.0459670,
  "lon": 2.1165880
},
{
  "type": "node",
  "id": 1183058438,
  "lat": 49.0460700,
  "lon": 2.1166960
},
{
  "type": "node",
  "id": 1183068699,
  "lat": 49.0459840,
  "lon": 2.1163750
},
{
  "type": "node",
  "id": 1183075616,
  "lat": 49.0459510,
  "lon": 2.1165900
},
{
  "type": "node",
  "id": 1183080423,
  "lat": 49.0460410,
  "lon": 2.1166700
},
{
  "type": "node",
  "id": 1183087643,
  "lat": 49.0461630,
  "lon": 2.1167790
},
{
  "type": "node",
  "id": 1183089163,
  "lat": 49.0459980,
  "lon": 2.1166160
},
{
  "type": "node",
  "id": 1183099250,
  "lat": 49.0459460,
  "lon": 2.1165140
},
{
  "type": "node",
  "id": 1183105353,
  "lat": 49.0460030,
  "lon": 2.1166360
},
{
  "type": "node",
  "id": 1183119698,
  "lat": 49.0461080,
  "lon": 2.1167280
},
{
  "type": "node",
  "id": 1183123889,
  "lat": 49.0459630,
  "lon": 2.1166000
},
{
  "type": "node",
  "id": 505375985,
  "lat": 49.0463268,
  "lon": 2.1173503
},
{
  "type": "node",
  "id": 1181330946,
  "lat": 49.0463220,
  "lon": 2.1173470
},
{
  "type": "node",
  "id": 1181337663,
  "lat": 49.0465280,
  "lon": 2.1168510
},
{
  "type": "node",
  "id": 1181339537,
  "lat": 49.0463080,
  "lon": 2.1168880
},
{
  "type": "node",
  "id": 1181346590,
  "lat": 49.0463510,
  "lon": 2.1169450
},
{
  "type": "node",
  "id": 1181356152,
  "lat": 49.0464560,
  "lon": 2.1170520
},
{
  "type": "node",
  "id": 1181364591,
  "lat": 49.0463550,
  "lon": 2.1173850
},
{
  "type": "node",
  "id": 1181367150,
  "lat": 49.0462190,
  "lon": 2.1168280
},
{
  "type": "node",
  "id": 1181372087,
  "lat": 49.0465200,
  "lon": 2.1168250
},
{
  "type": "node",
  "id": 1181373584,
  "lat": 49.0463120,
  "lon": 2.1169110
},
{
  "type": "node",
  "id": 1181379647,
  "lat": 49.0463650,
  "lon": 2.1169390
},
{
  "type": "node",
  "id": 1182988250,
  "lat": 49.0463470,
  "lon": 2.1172420
},
{
  "type": "node",
  "id": 1182992674,
  "lat": 49.0465370,
  "lon": 2.1168870
},
{
  "type": "node",
  "id": 1182997838,
  "lat": 49.0462610,
  "lon": 2.1168470
},
{
  "type": "node",
  "id": 1183001986,
  "lat": 49.0463590,
  "lon": 2.1169530
},
{
  "type": "node",
  "id": 1183005866,
  "lat": 49.0462640,
  "lon": 2.1168680
},
{
  "type": "node",
  "id": 1183006955,
  "lat": 49.0464490,
  "lon": 2.1170130
},
{
  "type": "node",
  "id": 1183011897,
  "lat": 49.0464860,
  "lon": 2.1169560
},
{
  "type": "node",
  "id": 1183014811,
  "lat": 49.0462270,
  "lon": 2.1168350
},
{
  "type": "node",
  "id": 1183018463,
  "lat": 49.0463180,
  "lon": 2.1168980
},
{
  "type": "node",
  "id": 1183019586,
  "lat": 49.0463030,
  "lon": 2.1173190
},
{
  "type": "node",
  "id": 1183023269,
  "lat": 49.0464060,
  "lon": 2.1169940
},
{
  "type": "node",
  "id": 1183027237,
  "lat": 49.0463990,
  "lon": 2.1173090
},
{
  "type": "node",
  "id": 1183036557,
  "lat": 49.0462690,
  "lon": 2.1168550
},
{
  "type": "node",
  "id": 1183037277,
  "lat": 49.0464410,
  "lon": 2.1170370
},
{
  "type": "node",
  "id": 1183042538,
  "lat": 49.0465120,
  "lon": 2.1168440
},
{
  "type": "node",
  "id": 1183047123,
  "lat": 49.0462320,
  "lon": 2.1168220
},
{
  "type": "node",
  "id": 1183056703,
  "lat": 49.0462550,
  "lon": 2.1168600
},
{
  "type": "node",
  "id": 1183057523,
  "lat": 49.0464110,
  "lon": 2.1169800
},
{
  "type": "node",
  "id": 1183062236,
  "lat": 49.0465450,
  "lon": 2.1168670
},
{
  "type": "node",
  "id": 1183067183,
  "lat": 49.0462240,
  "lon": 2.1168150
},
{
  "type": "node",
  "id": 1183072781,
  "lat": 49.0464030,
  "lon": 2.1169730
},
{
  "type": "node",
  "id": 1183078874,
  "lat": 49.0463980,
  "lon": 2.1169870
},
{
  "type": "node",
  "id": 1183083952,
  "lat": 49.0465180,
  "lon": 2.1168710
},
{
  "type": "node",
  "id": 1183095614,
  "lat": 49.0463560,
  "lon": 2.1169310
},
{
  "type": "node",
  "id": 1183097086,
  "lat": 49.0463240,
  "lon": 2.1173450
},
{
  "type": "node",
  "id": 1183103998,
  "lat": 49.0465330,
  "lon": 2.1168380
},
{
  "type": "node",
  "id": 1183111292,
  "lat": 49.0465500,
  "lon": 2.1170450
},
{
  "type": "node",
  "id": 1183129074,
  "lat": 49.0463020,
  "lon": 2.1169020
},
{
  "type": "node",
  "id": 546608536,
  "lat": 49.0512826,
  "lon": 2.0992401
},
{
  "type": "node",
  "id": 546608562,
  "lat": 49.0512199,
  "lon": 2.0993054
},
{
  "type": "node",
  "id": 546608588,
  "lat": 49.0512942,
  "lon": 2.0994737
},
{
  "type": "node",
  "id": 546608614,
  "lat": 49.0513812,
  "lon": 2.0993831
},
{
  "type": "node",
  "id": 559190938,
  "lat": 49.0513752,
  "lon": 2.0993679
},
{
  "type": "node",
  "id": 559190942,
  "lat": 49.0513874,
  "lon": 2.0993555
},
{
  "type": "node",
  "id": 559190947,
  "lat": 49.0513670,
  "lon": 2.0993310
},
{
  "type": "node",
  "id": 559190951,
  "lat": 49.0513389,
  "lon": 2.0993620
},
{
  "type": "node",
  "id": 559198836,
  "lat": 49.0510266,
  "lon": 2.0996067
},
{
  "type": "node",
  "id": 559198837,
  "lat": 49.0510092,
  "lon": 2.0995987
},
{
  "type": "node",
  "id": 559198838,
  "lat": 49.0510034,
  "lon": 2.0996078
},
{
  "type": "node",
  "id": 559198839,
  "lat": 49.0510031,
  "lon": 2.0996235
},
{
  "type": "node",
  "id": 559198841,
  "lat": 49.0510147,
  "lon": 2.0996432
},
{
  "type": "node",
  "id": 559198842,
  "lat": 49.0510198,
  "lon": 2.0996360
},
{
  "type": "node",
  "id": 559198843,
  "lat": 49.0510358,
  "lon": 2.0997345
},
{
  "type": "node",
  "id": 559198847,
  "lat": 49.0510852,
  "lon": 2.0995091
},
{
  "type": "node",
  "id": 559198848,
  "lat": 49.0510738,
  "lon": 2.0995094
},
{
  "type": "node",
  "id": 559198849,
  "lat": 49.0510744,
  "lon": 2.0995288
},
{
  "type": "node",
  "id": 559198850,
  "lat": 49.0510851,
  "lon": 2.0995320
},
{
  "type": "node",
  "id": 559198851,
  "lat": 49.0510536,
  "lon": 2.0996894
},
{
  "type": "node",
  "id": 559198852,
  "lat": 49.0510370,
  "lon": 2.0997146
},
{
  "type": "node",
  "id": 559198853,
  "lat": 49.0510497,
  "lon": 2.0997577
},
{
  "type": "node",
  "id": 559198854,
  "lat": 49.0510663,
  "lon": 2.0997553
},
{
  "type": "node",
  "id": 559198855,
  "lat": 49.0510827,
  "lon": 2.0997283
},
{
  "type": "node",
  "id": 559198856,
  "lat": 49.0511925,
  "lon": 2.0997050
},
{
  "type": "node",
  "id": 559198857,
  "lat": 49.0512052,
  "lon": 2.0997048
},
{
  "type": "node",
  "id": 559198858,
  "lat": 49.0512046,
  "lon": 2.0996870
},
{
  "type": "node",
  "id": 559198859,
  "lat": 49.0511905,
  "lon": 2.0996883
},
{
  "type": "node",
  "id": 559198860,
  "lat": 49.0511868,
  "lon": 2.0996817
},
{
  "type": "node",
  "id": 559198861,
  "lat": 49.0511923,
  "lon": 2.0996727
},
{
  "type": "node",
  "id": 559198862,
  "lat": 49.0511814,
  "lon": 2.0996572
},
{
  "type": "node",
  "id": 559198863,
  "lat": 49.0511766,
  "lon": 2.0996658
},
{
  "type": "node",
  "id": 559198864,
  "lat": 49.0511240,
  "lon": 2.0997880
},
{
  "type": "node",
  "id": 559198865,
  "lat": 49.0511218,
  "lon": 2.0997966
},
{
  "type": "node",
  "id": 559198866,
  "lat": 49.0511294,
  "lon": 2.0998114
},
{
  "type": "node",
  "id": 559198867,
  "lat": 49.0511364,
  "lon": 2.0998123
},
{
  "type": "node",
  "id": 559198868,
  "lat": 49.0511438,
  "lon": 2.0998040
},
{
  "type": "node",
  "id": 559198869,
  "lat": 49.0511438,
  "lon": 2.0997820
},
{
  "type": "node",
  "id": 2282258258,
  "lat": 49.0885902,
  "lon": 2.2004155
},
{
  "type": "node",
  "id": 2282258259,
  "lat": 49.0886204,
  "lon": 2.2002204
},
{
  "type": "node",
  "id": 2282258260,
  "lat": 49.0889510,
  "lon": 2.2005898
},
{
  "type": "node",
  "id": 2282258261,
  "lat": 49.0891625,
  "lon": 2.2007491
},
{
  "type": "node",
  "id": 2282258262,
  "lat": 49.0891311,
  "lon": 2.2004317
},
{
  "type": "node",
  "id": 2282258263,
  "lat": 49.0895275,
  "lon": 2.2003339
},
{
  "type": "node",
  "id": 2282258264,
  "lat": 49.0895712,
  "lon": 2.2009686
},
{
  "type": "node",
  "id": 2282258265,
  "lat": 49.0897321,
  "lon": 2.2003862
},
{
  "type": "node",
  "id": 2282258266,
  "lat": 49.0896996,
  "lon": 2.2010401
},
{
  "type": "node",
  "id": 1222092159,
  "lat": 49.4320620,
  "lon": 2.0821190
},
{
  "type": "node",
  "id": 1222096093,
  "lat": 49.4327150,
  "lon": 2.0823610
},
{
  "type": "node",
  "id": 1222096096,
  "lat": 49.4327730,
  "lon": 2.0823820
},
{
  "type": "node",
  "id": 1222096099,
  "lat": 49.4327640,
  "lon": 2.0824380
},
{
  "type": "node",
  "id": 1222096102,
  "lat": 49.4327910,
  "lon": 2.0824480
},
{
  "type": "node",
  "id": 1222096105,
  "lat": 49.4324800,
  "lon": 2.0832430
},
{
  "type": "node",
  "id": 1222096113,
  "lat": 49.4324730,
  "lon": 2.0832380
},
{
  "type": "node",
  "id": 1222096115,
  "lat": 49.4324670,
  "lon": 2.0832530
},
{
  "type": "node",
  "id": 1222096117,
  "lat": 49.4323220,
  "lon": 2.0831040
},
{
  "type": "node",
  "id": 1222096119,
  "lat": 49.4323500,
  "lon": 2.0829330
},
{
  "type": "node",
  "id": 1222096121,
  "lat": 49.4322750,
  "lon": 2.0829030
},
{
  "type": "node",
  "id": 1222096125,
  "lat": 49.4322810,
  "lon": 2.0828670
},
{
  "type": "node",
  "id": 1222096127,
  "lat": 49.4322050,
  "lon": 2.0828390
},
{
  "type": "node",
  "id": 1222096133,
  "lat": 49.4322110,
  "lon": 2.0827990
},
{
  "type": "node",
  "id": 1222096142,
  "lat": 49.4321370,
  "lon": 2.0827710
},
{
  "type": "node",
  "id": 1222096143,
  "lat": 49.4321450,
  "lon": 2.0827230
},
{
  "type": "node",
  "id": 1222096146,
  "lat": 49.4320960,
  "lon": 2.0826710
},
{
  "type": "node",
  "id": 1222096148,
  "lat": 49.4318390,
  "lon": 2.0826570
},
{
  "type": "node",
  "id": 1222096151,
  "lat": 49.4320150,
  "lon": 2.0828470
},
{
  "type": "node",
  "id": 1222096153,
  "lat": 49.4318360,
  "lon": 2.0826510
},
{
  "type": "node",
  "id": 1222096157,
  "lat": 49.4318370,
  "lon": 2.0826540
},
{
  "type": "node",
  "id": 1222096167,
  "lat": 49.4318350,
  "lon": 2.0826420
},
{
  "type": "node",
  "id": 1222096171,
  "lat": 49.4318360,
  "lon": 2.0826470
},
{
  "type": "node",
  "id": 1222096174,
  "lat": 49.4318360,
  "lon": 2.0826320
},
{
  "type": "node",
  "id": 1222096177,
  "lat": 49.4318350,
  "lon": 2.0826370
},
{
  "type": "node",
  "id": 1222096179,
  "lat": 49.4318850,
  "lon": 2.0825010
},
{
  "type": "node",
  "id": 1222096180,
  "lat": 49.4318830,
  "lon": 2.0825050
},
{
  "type": "node",
  "id": 1222096182,
  "lat": 49.4318900,
  "lon": 2.0824960
},
{
  "type": "node",
  "id": 1222096185,
  "lat": 49.4318870,
  "lon": 2.0824980
},
{
  "type": "node",
  "id": 1222096200,
  "lat": 49.4318970,
  "lon": 2.0824960
},
{
  "type": "node",
  "id": 1222096202,
  "lat": 49.4318930,
  "lon": 2.0824960
},
{
  "type": "node",
  "id": 1222096204,
  "lat": 49.4319200,
  "lon": 2.0825100
},
{
  "type": "node",
  "id": 1222096423,
  "lat": 49.4320690,
  "lon": 2.0824870
},
{
  "type": "node",
  "id": 1222096424,
  "lat": 49.4321710,
  "lon": 2.0822150
},
{
  "type": "node",
  "id": 1222096443,
  "lat": 49.4325760,
  "lon": 2.0827300
},
{
  "type": "node",
  "id": 1222096445,
  "lat": 49.4325390,
  "lon": 2.0827170
},
{
  "type": "node",
  "id": 1222096448,
  "lat": 49.4325210,
  "lon": 2.0828340
},
{
  "type": "node",
  "id": 1222096452,
  "lat": 49.4323740,
  "lon": 2.0827780
},
{
  "type": "node",
  "id": 1222096455,
  "lat": 49.4323850,
  "lon": 2.0827130
},
{
  "type": "node",
  "id": 1222096457,
  "lat": 49.4322720,
  "lon": 2.0826690
},
{
  "type": "node",
  "id": 1222096463,
  "lat": 49.4322840,
  "lon": 2.0826030
},
{
  "type": "node",
  "id": 1222096466,
  "lat": 49.4321360,
  "lon": 2.0825460
},
{
  "type": "node",
  "id": 1222096469,
  "lat": 49.4327060,
  "lon": 2.0824150
},
{
  "type": "node",
  "id": 1222096470,
  "lat": 49.4326870,
  "lon": 2.0824080
},
{
  "type": "node",
  "id": 1222096471,
  "lat": 49.4326770,
  "lon": 2.0824660
},
{
  "type": "node",
  "id": 1222096473,
  "lat": 49.4326590,
  "lon": 2.0824590
},
{
  "type": "node",
  "id": 1222096475,
  "lat": 49.4326490,
  "lon": 2.0825170
},
{
  "type": "node",
  "id": 1222096478,
  "lat": 49.4326310,
  "lon": 2.0825110
},
{
  "type": "node",
  "id": 1222096488,
  "lat": 49.4326130,
  "lon": 2.0826240
},
{
  "type": "node",
  "id": 1222096490,
  "lat": 49.4325950,
  "lon": 2.0826160
},
{
  "type": "node",
  "id": 5367907938,
  "lat": 49.4329574,
  "lon": 2.0804338
},
{
  "type": "node",
  "id": 5367907939,
  "lat": 49.4331927,
  "lon": 2.0799053
},
{
  "type": "node",
  "id": 5367907940,
  "lat": 49.4336333,
  "lon": 2.0795426
},
{
  "type": "node",
  "id": 5367907941,
  "lat": 49.4332105,
  "lon": 2.0788169
},
{
  "type": "node",
  "id": 5367907942,
  "lat": 49.4330581,
  "lon": 2.0786895
},
{
  "type": "node",
  "id": 5367907943,
  "lat": 49.4330159,
  "lon": 2.0786947
},
{
  "type": "node",
  "id": 5367907944,
  "lat": 49.4323995,
  "lon": 2.0803362
},
{
  "type": "node",
  "id": 5367907945,
  "lat": 49.4324554,
  "lon": 2.0803725
},
{
  "type": "node",
  "id": 5367907946,
  "lat": 49.4325559,
  "lon": 2.0804098
},
{
  "type": "node",
  "id": 5367907947,
  "lat": 49.4326944,
  "lon": 2.0804410
},
{
  "type": "node",
  "id": 5367907948,
  "lat": 49.4327176,
  "lon": 2.0803953
},
{
  "type": "node",
  "id": 5367907949,
  "lat": 49.4327270,
  "lon": 2.0803418
},
{
  "type": "node",
  "id": 5410588431,
  "lat": 49.4330530,
  "lon": 2.0787244
},
{
  "type": "node",
  "id": 5410588432,
  "lat": 49.4331827,
  "lon": 2.0787784
},
{
  "type": "node",
  "id": 5410588433,
  "lat": 49.4331250,
  "lon": 2.0787199
},
{
  "type": "node",
  "id": 5410588434,
  "lat": 49.4330998,
  "lon": 2.0786934
},
{
  "type": "node",
  "id": 5410588435,
  "lat": 49.4330762,
  "lon": 2.0786858
},
{
  "type": "node",
  "id": 5410588436,
  "lat": 49.4334731,
  "lon": 2.0797540
},
{
  "type": "node",
  "id": 5410588437,
  "lat": 49.4334400,
  "lon": 2.0796850
},
{
  "type": "node",
  "id": 5410588438,
  "lat": 49.4332950,
  "lon": 2.0798660
},
{
  "type": "node",
  "id": 5410588439,
  "lat": 49.4332411,
  "lon": 2.0799587
},
{
  "type": "node",
  "id": 5410588452,
  "lat": 49.4335935,
  "lon": 2.0794743
},
{
  "type": "node",
  "id": 5410588453,
  "lat": 49.4330635,
  "lon": 2.0786884
},
{
  "type": "node",
  "id": 2282258267,
  "lat": 49.0902661,
  "lon": 2.2005274
},
{
  "type": "node",
  "id": 2282258268,
  "lat": 49.0903140,
  "lon": 2.2013414
},
{
  "type": "node",
  "id": 2282258269,
  "lat": 49.0903606,
  "lon": 2.2006522
},
{
  "type": "node",
  "id": 2282258271,
  "lat": 49.0907439,
  "lon": 2.2015483
},
{
  "type": "node",
  "id": 2282258272,
  "lat": 49.0908102,
  "lon": 2.2012162
},
{
  "type": "node",
  "id": 2282258273,
  "lat": 49.0908698,
  "lon": 2.2011823
},
{
  "type": "node",
  "id": 2282258274,
  "lat": 49.0909229,
  "lon": 2.2008460
},
{
  "type": "node",
  "id": 2282258275,
  "lat": 49.0913711,
  "lon": 2.2010440
},
{
  "type": "node",
  "id": 2282258276,
  "lat": 49.0914826,
  "lon": 2.2014962
},
{
  "type": "node",
  "id": 2282258277,
  "lat": 49.0916206,
  "lon": 2.2011193
},
{
  "type": "node",
  "id": 2282258278,
  "lat": 49.0917764,
  "lon": 2.2017209
},
{
  "type": "node",
  "id": 2282258279,
  "lat": 49.0919067,
  "lon": 2.2013453
},
{
  "type": "node",
  "id": 5206546983,
  "lat": 49.0900881,
  "lon": 2.2012916
},
{
  "type": "node",
  "id": 5206546984,
  "lat": 49.0902023,
  "lon": 2.2013520
},
{
  "type": "node",
  "id": 5206546985,
  "lat": 49.0902154,
  "lon": 2.2012943
},
{
  "type": "node",
  "id": 5206546986,
  "lat": 49.0899792,
  "lon": 2.2012232
},
{
  "type": "node",
  "id": 5206546987,
  "lat": 49.0916312,
  "lon": 2.2015907
},
{
  "type": "node",
  "id": 6326820494,
  "lat": 49.0899915,
  "lon": 2.2004427
},
{
  "type": "node",
  "id": 1610131105,
  "lat": 49.2383919,
  "lon": 2.1388520
},
{
  "type": "node",
  "id": 1610131328,
  "lat": 49.2384292,
  "lon": 2.1380084
},
{
  "type": "node",
  "id": 1610131543,
  "lat": 49.2384744,
  "lon": 2.1388614
},
{
  "type": "node",
  "id": 1610131568,
  "lat": 49.2384816,
  "lon": 2.1386883
},
{
  "type": "node",
  "id": 1610131593,
  "lat": 49.2384838,
  "lon": 2.1386370
},
{
  "type": "node",
  "id": 1610131640,
  "lat": 49.2384887,
  "lon": 2.1385188
},
{
  "type": "node",
  "id": 1610131724,
  "lat": 49.2384984,
  "lon": 2.1383298
},
{
  "type": "node",
  "id": 1610131774,
  "lat": 49.2385049,
  "lon": 2.1381834
},
{
  "type": "node",
  "id": 1610131797,
  "lat": 49.2385073,
  "lon": 2.1381342
},
{
  "type": "node",
  "id": 1610131818,
  "lat": 49.2385100,
  "lon": 2.1380721
},
{
  "type": "node",
  "id": 1610131837,
  "lat": 49.2385124,
  "lon": 2.1380185
},
{
  "type": "node",
  "id": 1610131957,
  "lat": 49.2385265,
  "lon": 2.1384829
},
{
  "type": "node",
  "id": 1610131975,
  "lat": 49.2385324,
  "lon": 2.1383328
},
{
  "type": "node",
  "id": 1610131983,
  "lat": 49.2385335,
  "lon": 2.1385230
},
{
  "type": "node",
  "id": 1610131987,
  "lat": 49.2385349,
  "lon": 2.1384837
}

  ]
}
