{
  "version": 0.6,
  "generator": "Overpass API 0.7.55.9 ab41fea6",
  "osm3s": {
    "timestamp_osm_base": "2020-02-14T09:54:02Z",
    "copyright": "The data included in this document is from www.openstreetmap.org. The data is made available under ODbL."
  },
  "elements": [

{
  "type": "node",
  "id": 27603890,
  "lat": 53.8701567,
  "lon": -2.3931551,
  "tags": {
    "name": "Clitheroe Castle Museum",
    "tourism": "museum"
  }
},
{
  "type": "node",
  "id": 471203799,
  "lat": 53.9649409,
  "lon": -2.4429895,
  "tags": {
    "name": "Slaidburn Archive",
    "note": "Appointment Req'd",
    "tourism": "museum"
  }
},
{
  "type": "node",
  "id": 504756414,
  "lat": 53.9247978,
  "lon": -3.0057872,
  "tags": {
    "addr:city": "Fleetwood",
    "addr:housenumber": "6-7",
    "addr:postcode": "FY7 6BT",
    "addr:street": "Queen's Terrace",
    "name": "Fleetwood Museum",
    "tourism": "museum"
  }
},
{
  "type": "node",
  "id": 618342685,
  "lat": 54.3285280,
  "lon": -2.7430791,
  "tags": {
    "name": "Quaker Tapestry",
    "tourism": "museum",
    "wikidata": "Q15270394"
  }
},
{
  "type": "node",
  "id": 942714654,
  "lat": 54.2789714,
  "lon": -2.4577846,
  "tags": {
    "name": "Dent Village Heritage Centre & Museum",
    "tourism": "museum"
  }
},
{
  "type": "node",
  "id": 1013687313,
  "lat": 54.2794611,
  "lon": -3.0202588,
  "tags": {
    "name": "Hay Bridge Nature Reserve",
    "tourism": "museum"
  }
},
{
  "type": "node",
  "id": 1763074827,
  "lat": 54.2129967,
  "lon": -2.7740437,
  "tags": {
    "name": "Heron Corn Mill",
    "tourism": "museum",
    "wikidata": "Q15223731"
  }
},
{
  "type": "node",
  "id": 1920320612,
  "lat": 53.7592465,
  "lon": -2.7541721,
  "tags": {
    "tourism": "museum"
  }
},
{
  "type": "node",
  "id": 2447006830,
  "lat": 54.1946647,
  "lon": -3.0937078,
  "tags": {
    "addr:city": "Ulverston",
    "addr:housename": "The Roxy",
    "addr:street": "Brogden Street",
    "name": "Laurel and Hardy Museum",
    "phone": "+44 1229 582292",
    "tourism": "museum",
    "website": "http://www.laurel-and-hardy.co.uk",
    "wheelchair": "limited",
    "wikidata": "Q72869",
    "wikipedia": "en:Stan Laurel"
  }
},
{
  "type": "node",
  "id": 6721737137,
  "lat": 54.0985636,
  "lon": -2.3368368,
  "tags": {
    "name": "Courtyard Diary Museum",
    "tourism": "museum"
  }
},
{
  "type": "node",
  "id": 6820159648,
  "lat": 54.0489898,
  "lon": -2.8017465,
  "tags": {
    "addr:city": "Lancaster",
    "addr:housename": "Lancaster Museum",
    "addr:postcode": "LA1 1HT",
    "addr:street": "Market Square",
    "fee": "no",
    "level": "1",
    "name": "King's Own Regiment Museum",
    "opening_hours": "Tu-Su 10:00-17:00",
    "operator": "Lancaster City Council",
    "operator:type": "public",
    "tourism": "museum",
    "website": "http://www.kingsownmuseum.com/"
  }
},
{
  "type": "way",
  "id": 48815025,
  "nodes": [
    619340935,
    619340936,
    1714241841,
    1714241859,
    6820159649,
    1714241847,
    1714241846,
    619340942,
    619340941,
    619340965,
    619340939,
    6919312485,
    6919312486,
    6919294482,
    3904714358,
    619340938,
    619340940,
    619340943,
    619340935
  ],
  "tags": {
    "HE_ref": "1194971",
    "addr:city": "Lancaster",
    "addr:postcode": "LA1 1HT",
    "addr:street": "Market Square",
    "building": "public",
    "building:levels": "2",
    "building:levels:underground": "1",
    "fee": "no",
    "heritage": "2",
    "heritage:operator": "Historic England",
    "listed_status": "Grade II*",
    "name": "Lancaster City Museum",
    "opening_hours": "Tu-Su 10:00-17:00",
    "operator": "Lancaster City Council",
    "operator:type": "public",
    "roof:levels": "0",
    "roof:shape": "gabled",
    "tourism": "museum",
    "website": "https://www.lancaster.gov.uk/sport-and-leisure/museums/city-museum"
  }
},
{
  "type": "way",
  "id": 73584630,
  "nodes": [
    872099267,
    872099276,
    872099277,
    872099280,
    872099282,
    872099258,
    3231339200,
    3231409842,
    3231343572,
    872099267
  ],
  "tags": {
    "building": "yes",
    "name": "Museum of Lancashire",
    "tourism": "museum"
  }
},
{
  "type": "way",
  "id": 73584636,
  "nodes": [
    872099276,
    872099285,
    872099290,
    872099293,
    872099295,
    872099297,
    872099277,
    872099276
  ],
  "tags": {
    "building": "yes",
    "name": "Museum of Lancashire",
    "tourism": "museum"
  }
},
{
  "type": "way",
  "id": 73584906,
  "nodes": [
    872100152,
    35349998,
    872100157,
    872100162,
    4562051359,
    872100166,
    872100169,
    4562051360,
    872100171,
    872100172,
    872100152
  ],
  "tags": {
    "HE_ref": "1207306",
    "addr:city": "Preston",
    "addr:postcode": "PR1 2PP",
    "addr:street": "Harris Street",
    "alt_name": "Harris Museum, Art Gallery & Preston Free Public Library",
    "amenity": "library",
    "building": "civic",
    "eh:inscription_date": "1950-06-12",
    "fhrs:id": "479655",
    "heritage": "2",
    "heritage:operator": "Historic England",
    "listed_status": "Grade I",
    "name": "Harris Museum",
    "start_date": "1893",
    "tourism": "museum",
    "website": "http://www.harrismuseum.org.uk/",
    "wikidata": "Q12059583",
    "wikipedia": "en:Harris Museum"
  }
},
{
  "type": "way",
  "id": 92223091,
  "nodes": [
    1070635940,
    1070635943,
    1070635949,
    1070635944,
    1070635951,
    1070635920,
    1070635935,
    1070635927,
    1070635930,
    1070635929,
    1070635940
  ],
  "tags": {
    "addr:city": "Settle",
    "addr:postcode": "BD24 9EY",
    "addr:street": "Victoria Street",
    "building": "yes",
    "description": "Grade 1 listed",
    "name": "The Folly",
    "tourism": "museum",
    "website": "https://www.thefolly.org.uk/"
  }
},
{
  "type": "way",
  "id": 93108306,
  "nodes": [
    3478283684,
    3478283686,
    3398283246,
    3398283245,
    1079317089,
    1079317091,
    3398281833,
    1323002246,
    1079317095,
    1323002317,
    1079317098,
    1079317102,
    1079317104,
    1079317106,
    1079317108,
    1079317111,
    3478283684
  ],
  "tags": {
    "building": "yes",
    "name": "The Dock Museum",
    "tourism": "museum",
    "wikidata": "Q5287197"
  }
},
{
  "type": "way",
  "id": 117882828,
  "nodes": [
    1326916098,
    1326916039,
    1326916265,
    1326916453,
    1326916484,
    1326916634,
    1326916485,
    1326916626,
    1326916197,
    1326916481,
    1326916183,
    1326916609,
    1326916654,
    1326916442,
    1326916642,
    1326916575,
    1326916461,
    1326916452,
    1326916534,
    1326916527,
    1326916517,
    1326916661,
    1326916098
  ],
  "tags": {
    "building": "ruins",
    "historic": "monastery",
    "name": "Furness Abbey",
    "tourism": "museum"
  }
},
{
  "type": "way",
  "id": 118741300,
  "nodes": [
    1334778078,
    1334778074,
    1334778433,
    1334778156,
    1334778078
  ],
  "tags": {
    "name": "Stott Park Bobbin Mill",
    "source": "OS_OpenData_StreetView",
    "tourism": "museum",
    "wikidata": "Q3063978"
  }
},
{
  "type": "way",
  "id": 163368239,
  "nodes": [
    1598833572,
    1598833500,
    1598833515,
    1598833509,
    1598833580,
    1598833602,
    1598833475,
    1138915645,
    1598833464,
    1598833533,
    1598833572
  ],
  "tags": {
    "addr:city": "Blackpool",
    "addr:postcode": "FY1 1PU",
    "addr:street": "Queen Street",
    "building": "yes",
    "name": "Grundy Art Gallery",
    "tourism": "museum",
    "wikidata": "Q5612104"
  }
},
{
  "type": "way",
  "id": 202257817,
  "nodes": [
    2122335085,
    2122335084,
    2122335089,
    5044669770,
    2122335090,
    2122335087,
    2122335088,
    2122335085
  ],
  "tags": {
    "addr:city": "Kendal",
    "addr:housename": "Abbot Hall",
    "addr:postcode": "LA9 5AL",
    "alt_name": "MOLLI",
    "building": "yes",
    "name": "Museum of Lakeland Life & Industry",
    "phone": "+44 1539 722464",
    "tourism": "museum",
    "website": "https://www.lakelandmuseum.org.uk/",
    "wikidata": "Q6940915",
    "wikipedia": "en:Museum of Lakeland Life"
  }
},
{
  "type": "way",
  "id": 250010949,
  "nodes": [
    2565355899,
    4272136535,
    4272136534,
    2565355861,
    2565356166,
    4272136532,
    4272136533,
    2565355966,
    4272136538,
    4272136545,
    4272136546,
    4272136541,
    4272136542,
    4272136539,
    2565355899
  ],
  "tags": {
    "building": "yes",
    "tourism": "museum"
  }
},
{
  "type": "way",
  "id": 354080638,
  "nodes": [
    3598570737,
    5064219919,
    5064219920,
    5064220221,
    3598570741,
    3598570742,
    3598570743,
    5064219918,
    5064219917,
    5064219916,
    3598570737
  ],
  "tags": {
    "addr:city": "Kendal",
    "addr:postcode": "LA9 6BT",
    "addr:street": "Station Road",
    "building": "yes",
    "name": "Kendal Museum",
    "operator": "Kendal College",
    "phone": "+44 1539 815597",
    "tourism": "museum",
    "website": "www.kendalmuseum.org.uk",
    "wikidata": "Q6388857"
  }
},
{
  "type": "way",
  "id": 374411271,
  "nodes": [
    3778005621,
    6458704253,
    3778005622,
    3778005623,
    3778005624,
    3778005625,
    3778005626,
    3778005627,
    3778005628,
    3778005629,
    3778005630,
    3778005631,
    3778005632,
    6458704252,
    3778005639,
    3778005638,
    3778005637,
    3778005636,
    3778005621
  ],
  "tags": {
    "HE_ref": "1289088",
    "addr:city": "Lancaster",
    "addr:housename": "Custom House",
    "addr:postcode": "LA1 1RB",
    "addr:street": "St George's Quay",
    "building": "yes",
    "building:levels": "2",
    "fhrs:id": "145149",
    "heritage": "2",
    "heritage:operator": "Historic England",
    "listed_status": "Grade II*",
    "name": "Lancaster Maritime Museum",
    "phone": "+44 1524 382264",
    "roof:levels": "0",
    "roof:shape": "gabled",
    "tourism": "museum",
    "website": "https://www.lancashire.gov.uk/leisure-and-culture/museums/lancaster-maritime-museum.aspx",
    "wikipedia": "en:Custom House, Lancaster#Lancaster Maritime Museum"
  }
},
{
  "type": "way",
  "id": 387154361,
  "nodes": [
    3904760845,
    3904760846,
    3904760847,
    3904760848,
    3904760849,
    3904760850,
    3904760851,
    3904760852,
    3904760853,
    3904760854,
    3904760855,
    3904760856,
    3904760857,
    3904760845
  ],
  "tags": {
    "addr:city": "Lancaster",
    "addr:housename": "Judges' Lodgings Museum",
    "addr:postcode": "LA1 1YS",
    "addr:street": "Castle Hill",
    "building": "house",
    "name": "Judges' Lodgings Museum",
    "tourism": "museum",
    "wikidata": "Q15229816",
    "wikipedia": "en:Judges' Lodgings, Lancaster"
  }
},
{
  "type": "way",
  "id": 412456413,
  "nodes": [
    4138781358,
    4138781359,
    4138781360,
    4138781361,
    4138781362,
    4138781363,
    4138781364,
    4138781365,
    4138781366,
    4138781367,
    6746699411,
    6746699412,
    6746699415,
    6746699414,
    6746699413,
    6746699410,
    4138781368,
    4138781369,
    4138781370,
    4138781371,
    4138781372,
    4138781373,
    4138781358
  ],
  "tags": {
    "addr:city": "Backbarrow",
    "addr:postcode": "LA12 8TA",
    "building": "yes",
    "name": "Lakeland Motor Museum",
    "phone": "+44 15395 30400",
    "tourism": "museum",
    "website": "https://www.lakelandmotormuseum.co.uk/",
    "wikidata": "Q6478815",
    "wikipedia": "en:Lakeland Motor Museum"
  }
},
{
  "type": "way",
  "id": 528743494,
  "nodes": [
    322555379,
    5137626670,
    5137626704,
    5137626644,
    322555379
  ],
  "tags": {
    "building": "museum",
    "name": "Roman Museum",
    "tourism": "museum"
  }
},
{
  "type": "way",
  "id": 569405731,
  "nodes": [
    5476090930,
    5476090934,
    5476090937,
    5476090935,
    5476090933,
    5476090930
  ],
  "tags": {
    "addr:city": "Lancaster",
    "addr:housenumber": "15",
    "addr:postcode": "LA1 1YS",
    "addr:street": "Castle Hill",
    "building": "yes",
    "name": "Cottage Museum",
    "tourism": "museum"
  }
},
{
  "type": "node",
  "id": 1138915645,
  "lat": 53.8208515,
  "lon": -3.0526447
},
{
  "type": "node",
  "id": 1598833464,
  "lat": 53.8209525,
  "lon": -3.0527400
},
{
  "type": "node",
  "id": 1598833475,
  "lat": 53.8208312,
  "lon": -3.0526226
},
{
  "type": "node",
  "id": 1598833500,
  "lat": 53.8205852,
  "lon": -3.0527507
},
{
  "type": "node",
  "id": 1598833509,
  "lat": 53.8207166,
  "lon": -3.0526675
},
{
  "type": "node",
  "id": 1598833515,
  "lat": 53.8206349,
  "lon": -3.0525985
},
{
  "type": "node",
  "id": 1598833533,
  "lat": 53.8208670,
  "lon": -3.0530082
},
{
  "type": "node",
  "id": 1598833572,
  "lat": 53.8207442,
  "lon": -3.0528828
},
{
  "type": "node",
  "id": 1598833580,
  "lat": 53.8207062,
  "lon": -3.0527058
},
{
  "type": "node",
  "id": 1598833602,
  "lat": 53.8207768,
  "lon": -3.0527668
},
{
  "type": "node",
  "id": 1079317089,
  "lat": 54.1119412,
  "lon": -3.2398612
},
{
  "type": "node",
  "id": 1079317091,
  "lat": 54.1119303,
  "lon": -3.2397294
},
{
  "type": "node",
  "id": 1079317095,
  "lat": 54.1120581,
  "lon": -3.2396178
},
{
  "type": "node",
  "id": 1079317098,
  "lat": 54.1122853,
  "lon": -3.2400784
},
{
  "type": "node",
  "id": 1079317102,
  "lat": 54.1121097,
  "lon": -3.2402787
},
{
  "type": "node",
  "id": 1079317104,
  "lat": 54.1121598,
  "lon": -3.2403999
},
{
  "type": "node",
  "id": 1079317106,
  "lat": 54.1120416,
  "lon": -3.2405581
},
{
  "type": "node",
  "id": 1079317108,
  "lat": 54.1119412,
  "lon": -3.2403133
},
{
  "type": "node",
  "id": 1079317111,
  "lat": 54.1118396,
  "lon": -3.2404263
},
{
  "type": "node",
  "id": 1323002246,
  "lat": 54.1119945,
  "lon": -3.2396232
},
{
  "type": "node",
  "id": 1323002317,
  "lat": 54.1121132,
  "lon": -3.2396626
},
{
  "type": "node",
  "id": 3398281833,
  "lat": 54.1119862,
  "lon": -3.2396369
},
{
  "type": "node",
  "id": 3398283245,
  "lat": 54.1119180,
  "lon": -3.2398970
},
{
  "type": "node",
  "id": 3398283246,
  "lat": 54.1118915,
  "lon": -3.2398330
},
{
  "type": "node",
  "id": 3478283684,
  "lat": 54.1116928,
  "lon": -3.2400776
},
{
  "type": "node",
  "id": 3478283686,
  "lat": 54.1118909,
  "lon": -3.2398315
},
{
  "type": "node",
  "id": 35349998,
  "lat": 53.7590365,
  "lon": -2.6979021
},
{
  "type": "node",
  "id": 872100152,
  "lat": 53.7593736,
  "lon": -2.6980638
},
{
  "type": "node",
  "id": 872100157,
  "lat": 53.7589305,
  "lon": -2.6985349
},
{
  "type": "node",
  "id": 872100162,
  "lat": 53.7589899,
  "lon": -2.6985633
},
{
  "type": "node",
  "id": 872100166,
  "lat": 53.7589591,
  "lon": -2.6987468
},
{
  "type": "node",
  "id": 872100169,
  "lat": 53.7591757,
  "lon": -2.6988507
},
{
  "type": "node",
  "id": 872100171,
  "lat": 53.7592056,
  "lon": -2.6986722
},
{
  "type": "node",
  "id": 872100172,
  "lat": 53.7592667,
  "lon": -2.6987015
},
{
  "type": "node",
  "id": 4562051359,
  "lat": 53.7589811,
  "lon": -2.6986159
},
{
  "type": "node",
  "id": 4562051360,
  "lat": 53.7591976,
  "lon": -2.6987197
},
{
  "type": "node",
  "id": 872099258,
  "lat": 53.7613119,
  "lon": -2.6886050
},
{
  "type": "node",
  "id": 872099267,
  "lat": 53.7615416,
  "lon": -2.6877266
},
{
  "type": "node",
  "id": 872099276,
  "lat": 53.7614850,
  "lon": -2.6877266
},
{
  "type": "node",
  "id": 872099277,
  "lat": 53.7614417,
  "lon": -2.6877209
},
{
  "type": "node",
  "id": 872099280,
  "lat": 53.7613277,
  "lon": -2.6876941
},
{
  "type": "node",
  "id": 872099282,
  "lat": 53.7611288,
  "lon": -2.6884783
},
{
  "type": "node",
  "id": 872099285,
  "lat": 53.7615100,
  "lon": -2.6876252
},
{
  "type": "node",
  "id": 872099290,
  "lat": 53.7616481,
  "lon": -2.6871015
},
{
  "type": "node",
  "id": 872099295,
  "lat": 53.7612803,
  "lon": -2.6874844
},
{
  "type": "node",
  "id": 872099297,
  "lat": 53.7614692,
  "lon": -2.6876067
},
{
  "type": "node",
  "id": 3231339200,
  "lat": 53.7613314,
  "lon": -2.6885304
},
{
  "type": "node",
  "id": 3231343572,
  "lat": 53.7613790,
  "lon": -2.6883485
},
{
  "type": "node",
  "id": 3231409842,
  "lat": 53.7613588,
  "lon": -2.6884257
},
{
  "type": "node",
  "id": 872099293,
  "lat": 53.7614234,
  "lon": -2.6869298
},
{
  "type": "node",
  "id": 322555379,
  "lat": 53.8105153,
  "lon": -2.5323136
},
{
  "type": "node",
  "id": 5137626644,
  "lat": 53.8104421,
  "lon": -2.5324954
},
{
  "type": "node",
  "id": 5137626670,
  "lat": 53.8106736,
  "lon": -2.5324965
},
{
  "type": "node",
  "id": 5137626704,
  "lat": 53.8106003,
  "lon": -2.5326783
},
{
  "type": "node",
  "id": 3778005621,
  "lat": 54.0538564,
  "lon": -2.8056877
},
{
  "type": "node",
  "id": 3778005622,
  "lat": 54.0538010,
  "lon": -2.8055758
},
{
  "type": "node",
  "id": 3778005623,
  "lat": 54.0538214,
  "lon": -2.8055466
},
{
  "type": "node",
  "id": 3778005624,
  "lat": 54.0537708,
  "lon": -2.8054445
},
{
  "type": "node",
  "id": 3778005625,
  "lat": 54.0537519,
  "lon": -2.8054716
},
{
  "type": "node",
  "id": 3778005626,
  "lat": 54.0537312,
  "lon": -2.8054297
},
{
  "type": "node",
  "id": 3778005627,
  "lat": 54.0536581,
  "lon": -2.8055346
},
{
  "type": "node",
  "id": 3778005628,
  "lat": 54.0536756,
  "lon": -2.8055698
},
{
  "type": "node",
  "id": 3778005629,
  "lat": 54.0536554,
  "lon": -2.8055988
},
{
  "type": "node",
  "id": 3778005630,
  "lat": 54.0536679,
  "lon": -2.8056239
},
{
  "type": "node",
  "id": 3778005631,
  "lat": 54.0536402,
  "lon": -2.8056637
},
{
  "type": "node",
  "id": 3778005632,
  "lat": 54.0536895,
  "lon": -2.8057634
},
{
  "type": "node",
  "id": 3778005636,
  "lat": 54.0538126,
  "lon": -2.8057507
},
{
  "type": "node",
  "id": 3778005637,
  "lat": 54.0538049,
  "lon": -2.8057351
},
{
  "type": "node",
  "id": 3778005638,
  "lat": 54.0537492,
  "lon": -2.8058151
},
{
  "type": "node",
  "id": 3778005639,
  "lat": 54.0537435,
  "lon": -2.8058035
},
{
  "type": "node",
  "id": 6458704252,
  "lat": 54.0537095,
  "lon": -2.8057347
},
{
  "type": "node",
  "id": 6458704253,
  "lat": 54.0538391,
  "lon": -2.8056528
},
{
  "type": "node",
  "id": 619340935,
  "lat": 54.0487850,
  "lon": -2.8018954
},
{
  "type": "node",
  "id": 619340936,
  "lat": 54.0487637,
  "lon": -2.8016478
},
{
  "type": "node",
  "id": 619340938,
  "lat": 54.0491291,
  "lon": -2.8019830
},
{
  "type": "node",
  "id": 619340939,
  "lat": 54.0490254,
  "lon": -2.8017830
},
{
  "type": "node",
  "id": 619340940,
  "lat": 54.0489712,
  "lon": -2.8020223
},
{
  "type": "node",
  "id": 619340941,
  "lat": 54.0489277,
  "lon": -2.8016731
},
{
  "type": "node",
  "id": 619340942,
  "lat": 54.0489211,
  "lon": -2.8015965
},
{
  "type": "node",
  "id": 619340943,
  "lat": 54.0489567,
  "lon": -2.8018526
},
{
  "type": "node",
  "id": 619340965,
  "lat": 54.0490155,
  "lon": -2.8016604
},
{
  "type": "node",
  "id": 1714241841,
  "lat": 54.0488052,
  "lon": -2.8016375
},
{
  "type": "node",
  "id": 1714241846,
  "lat": 54.0488972,
  "lon": -2.8016025
},
{
  "type": "node",
  "id": 1714241847,
  "lat": 54.0488940,
  "lon": -2.8015652
},
{
  "type": "node",
  "id": 1714241859,
  "lat": 54.0488010,
  "lon": -2.8015884
},
{
  "type": "node",
  "id": 3904714358,
  "lat": 54.0491159,
  "lon": -2.8018297
},
{
  "type": "node",
  "id": 3904760845,
  "lat": 54.0502248,
  "lon": -2.8036423
},
{
  "type": "node",
  "id": 3904760846,
  "lat": 54.0502474,
  "lon": -2.8039172
},
{
  "type": "node",
  "id": 3904760847,
  "lat": 54.0502022,
  "lon": -2.8039280
},
{
  "type": "node",
  "id": 3904760848,
  "lat": 54.0501972,
  "lon": -2.8038677
},
{
  "type": "node",
  "id": 3904760849,
  "lat": 54.0501065,
  "lon": -2.8038894
},
{
  "type": "node",
  "id": 3904760850,
  "lat": 54.0501141,
  "lon": -2.8039809
},
{
  "type": "node",
  "id": 3904760851,
  "lat": 54.0500637,
  "lon": -2.8039930
},
{
  "type": "node",
  "id": 3904760852,
  "lat": 54.0500724,
  "lon": -2.8040988
},
{
  "type": "node",
  "id": 3904760853,
  "lat": 54.0500202,
  "lon": -2.8041113
},
{
  "type": "node",
  "id": 3904760854,
  "lat": 54.0500030,
  "lon": -2.8039018
},
{
  "type": "node",
  "id": 3904760855,
  "lat": 54.0500175,
  "lon": -2.8038593
},
{
  "type": "node",
  "id": 3904760856,
  "lat": 54.0500581,
  "lon": -2.8038496
},
{
  "type": "node",
  "id": 3904760857,
  "lat": 54.0500446,
  "lon": -2.8036855
},
{
  "type": "node",
  "id": 5476090930,
  "lat": 54.0496164,
  "lon": -2.8041178
},
{
  "type": "node",
  "id": 5476090933,
  "lat": 54.0495998,
  "lon": -2.8039934
},
{
  "type": "node",
  "id": 5476090934,
  "lat": 54.0495716,
  "lon": -2.8041309
},
{
  "type": "node",
  "id": 5476090935,
  "lat": 54.0495914,
  "lon": -2.8040026
},
{
  "type": "node",
  "id": 5476090937,
  "lat": 54.0495716,
  "lon": -2.8040094
},
{
  "type": "node",
  "id": 6820159649,
  "lat": 54.0488345,
  "lon": -2.8015800
},
{
  "type": "node",
  "id": 6919294482,
  "lat": 54.0490465,
  "lon": -2.8018470
},
{
  "type": "node",
  "id": 6919312485,
  "lat": 54.0490284,
  "lon": -2.8018091
},
{
  "type": "node",
  "id": 6919312486,
  "lat": 54.0490429,
  "lon": -2.8018055
},
{
  "type": "node",
  "id": 1070635920,
  "lat": 54.0676496,
  "lon": -2.2752825
},
{
  "type": "node",
  "id": 1070635927,
  "lat": 54.0676258,
  "lon": -2.2751925
},
{
  "type": "node",
  "id": 1070635929,
  "lat": 54.0675402,
  "lon": -2.2752252
},
{
  "type": "node",
  "id": 1070635930,
  "lat": 54.0676001,
  "lon": -2.2752777
},
{
  "type": "node",
  "id": 1070635935,
  "lat": 54.0676661,
  "lon": -2.2752278
},
{
  "type": "node",
  "id": 1070635940,
  "lat": 54.0675138,
  "lon": -2.2753129
},
{
  "type": "node",
  "id": 1070635943,
  "lat": 54.0677023,
  "lon": -2.2754780
},
{
  "type": "node",
  "id": 1070635944,
  "lat": 54.0677034,
  "lon": -2.2752574
},
{
  "type": "node",
  "id": 1070635949,
  "lat": 54.0677551,
  "lon": -2.2753028
},
{
  "type": "node",
  "id": 1070635951,
  "lat": 54.0676862,
  "lon": -2.2753145
},
{
  "type": "node",
  "id": 1326916265,
  "lat": 54.1359883,
  "lon": -3.1982119
},
{
  "type": "node",
  "id": 1326916452,
  "lat": 54.1355680,
  "lon": -3.1990338
},
{
  "type": "node",
  "id": 1326916461,
  "lat": 54.1356162,
  "lon": -3.1988851
},
{
  "type": "node",
  "id": 1326916517,
  "lat": 54.1357663,
  "lon": -3.1990125
},
{
  "type": "node",
  "id": 1326916527,
  "lat": 54.1357266,
  "lon": -3.1989751
},
{
  "type": "node",
  "id": 1326916534,
  "lat": 54.1356750,
  "lon": -3.1991346
},
{
  "type": "node",
  "id": 1326916575,
  "lat": 54.1355948,
  "lon": -3.1988650
},
{
  "type": "node",
  "id": 1326916642,
  "lat": 54.1357893,
  "lon": -3.1982636
},
{
  "type": "node",
  "id": 1326916661,
  "lat": 54.1359585,
  "lon": -3.1984182
},
{
  "type": "node",
  "id": 1326916039,
  "lat": 54.1361101,
  "lon": -3.1983268
},
{
  "type": "node",
  "id": 1326916098,
  "lat": 54.1360521,
  "lon": -3.1985063
},
{
  "type": "node",
  "id": 2565355861,
  "lat": 54.1370460,
  "lon": -3.1984048
},
{
  "type": "node",
  "id": 2565355899,
  "lat": 54.1371740,
  "lon": -3.1984537
},
{
  "type": "node",
  "id": 4272136534,
  "lat": 54.1371154,
  "lon": -3.1984011
},
{
  "type": "node",
  "id": 4272136535,
  "lat": 54.1371165,
  "lon": -3.1984568
},
{
  "type": "node",
  "id": 4272136539,
  "lat": 54.1371711,
  "lon": -3.1982949
},
{
  "type": "node",
  "id": 4272136541,
  "lat": 54.1371903,
  "lon": -3.1982003
},
{
  "type": "node",
  "id": 4272136542,
  "lat": 54.1371920,
  "lon": -3.1982938
},
{
  "type": "node",
  "id": 4272136546,
  "lat": 54.1372288,
  "lon": -3.1981982
},
{
  "type": "node",
  "id": 1326916183,
  "lat": 54.1355080,
  "lon": -3.1975882
},
{
  "type": "node",
  "id": 1326916197,
  "lat": 54.1356585,
  "lon": -3.1976627
},
{
  "type": "node",
  "id": 1326916442,
  "lat": 54.1350831,
  "lon": -3.1975980
},
{
  "type": "node",
  "id": 1326916481,
  "lat": 54.1356418,
  "lon": -3.1977143
},
{
  "type": "node",
  "id": 1326916484,
  "lat": 54.1359347,
  "lon": -3.1978611
},
{
  "type": "node",
  "id": 1326916485,
  "lat": 54.1357600,
  "lon": -3.1979979
},
{
  "type": "node",
  "id": 1326916609,
  "lat": 54.1354628,
  "lon": -3.1977279
},
{
  "type": "node",
  "id": 1326916626,
  "lat": 54.1358194,
  "lon": -3.1978144
},
{
  "type": "node",
  "id": 1326916634,
  "lat": 54.1358600,
  "lon": -3.1980921
},
{
  "type": "node",
  "id": 1326916654,
  "lat": 54.1351396,
  "lon": -3.1974233
},
{
  "type": "node",
  "id": 1326916453,
  "lat": 54.1360627,
  "lon": -3.1979817
},
{
  "type": "node",
  "id": 2565355966,
  "lat": 54.1371705,
  "lon": -3.1980838
},
{
  "type": "node",
  "id": 2565356166,
  "lat": 54.1370397,
  "lon": -3.1980566
},
{
  "type": "node",
  "id": 4272136532,
  "lat": 54.1370932,
  "lon": -3.1980537
},
{
  "type": "node",
  "id": 4272136533,
  "lat": 54.1370939,
  "lon": -3.1980878
},
{
  "type": "node",
  "id": 4272136538,
  "lat": 54.1371708,
  "lon": -3.1981032
},
{
  "type": "node",
  "id": 4272136545,
  "lat": 54.1372270,
  "lon": -3.1981002
},
{
  "type": "node",
  "id": 4138781358,
  "lat": 54.2592023,
  "lon": -2.9890947
},
{
  "type": "node",
  "id": 4138781359,
  "lat": 54.2591980,
  "lon": -2.9892683
},
{
  "type": "node",
  "id": 4138781360,
  "lat": 54.2590935,
  "lon": -2.9892608
},
{
  "type": "node",
  "id": 4138781361,
  "lat": 54.2590921,
  "lon": -2.9893167
},
{
  "type": "node",
  "id": 4138781362,
  "lat": 54.2590328,
  "lon": -2.9893124
},
{
  "type": "node",
  "id": 4138781363,
  "lat": 54.2590314,
  "lon": -2.9893672
},
{
  "type": "node",
  "id": 4138781364,
  "lat": 54.2590926,
  "lon": -2.9893716
},
{
  "type": "node",
  "id": 4138781365,
  "lat": 54.2590909,
  "lon": -2.9894444
},
{
  "type": "node",
  "id": 4138781366,
  "lat": 54.2591295,
  "lon": -2.9894472
},
{
  "type": "node",
  "id": 4138781367,
  "lat": 54.2591267,
  "lon": -2.9895653
},
{
  "type": "node",
  "id": 4138781368,
  "lat": 54.2589074,
  "lon": -2.9895474
},
{
  "type": "node",
  "id": 4138781369,
  "lat": 54.2589101,
  "lon": -2.9894371
},
{
  "type": "node",
  "id": 4138781370,
  "lat": 54.2585729,
  "lon": -2.9894129
},
{
  "type": "node",
  "id": 4138781371,
  "lat": 54.2585753,
  "lon": -2.9893128
},
{
  "type": "node",
  "id": 4138781372,
  "lat": 54.2586175,
  "lon": -2.9893158
},
{
  "type": "node",
  "id": 4138781373,
  "lat": 54.2586239,
  "lon": -2.9890533
},
{
  "type": "node",
  "id": 6746699410,
  "lat": 54.2589791,
  "lon": -2.9895525
},
{
  "type": "node",
  "id": 6746699411,
  "lat": 54.2590727,
  "lon": -2.9895615
},
{
  "type": "node",
  "id": 6746699412,
  "lat": 54.2590713,
  "lon": -2.9896211
},
{
  "type": "node",
  "id": 6746699413,
  "lat": 54.2589782,
  "lon": -2.9895906
},
{
  "type": "node",
  "id": 6746699414,
  "lat": 54.2590232,
  "lon": -2.9895938
},
{
  "type": "node",
  "id": 6746699415,
  "lat": 54.2590226,
  "lon": -2.9896176
},
{
  "type": "node",
  "id": 1334778074,
  "lat": 54.2853707,
  "lon": -2.9658796
},
{
  "type": "node",
  "id": 1334778078,
  "lat": 54.2854897,
  "lon": -2.9656651
},
{
  "type": "node",
  "id": 1334778156,
  "lat": 54.2856378,
  "lon": -2.9659188
},
{
  "type": "node",
  "id": 1334778433,
  "lat": 54.2855251,
  "lon": -2.9661119
},
{
  "type": "node",
  "id": 2122335084,
  "lat": 54.3228440,
  "lon": -2.7449236
},
{
  "type": "node",
  "id": 2122335085,
  "lat": 54.3231158,
  "lon": -2.7449131
},
{
  "type": "node",
  "id": 2122335087,
  "lat": 54.3231811,
  "lon": -2.7449926
},
{
  "type": "node",
  "id": 2122335088,
  "lat": 54.3231169,
  "lon": -2.7449951
},
{
  "type": "node",
  "id": 2122335089,
  "lat": 54.3228423,
  "lon": -2.7447899
},
{
  "type": "node",
  "id": 2122335090,
  "lat": 54.3231782,
  "lon": -2.7447769
},
{
  "type": "node",
  "id": 5044669770,
  "lat": 54.3229937,
  "lon": -2.7447840
},
{
  "type": "node",
  "id": 3598570737,
  "lat": 54.3313468,
  "lon": -2.7419151
},
{
  "type": "node",
  "id": 3598570741,
  "lat": 54.3312591,
  "lon": -2.7415070
},
{
  "type": "node",
  "id": 3598570742,
  "lat": 54.3313320,
  "lon": -2.7413705
},
{
  "type": "node",
  "id": 3598570743,
  "lat": 54.3314974,
  "lon": -2.7416303
},
{
  "type": "node",
  "id": 5064219916,
  "lat": 54.3315312,
  "lon": -2.7422008
},
{
  "type": "node",
  "id": 5064219917,
  "lat": 54.3316107,
  "lon": -2.7420500
},
{
  "type": "node",
  "id": 5064219918,
  "lat": 54.3314272,
  "lon": -2.7417619
},
{
  "type": "node",
  "id": 5064219919,
  "lat": 54.3313856,
  "lon": -2.7418402
},
{
  "type": "node",
  "id": 5064219920,
  "lat": 54.3313514,
  "lon": -2.7417865
},
{
  "type": "node",
  "id": 5064220221,
  "lat": 54.3313904,
  "lon": -2.7417132
}

  ]
}
