{
  "version": 0.6,
  "generator": "Overpass API 0.7.55.1011 6c2efc30",
  "osm3s": {
    "timestamp_osm_base": "2020-02-14T15:55:02Z",
    "copyright": "The data included in this document is from www.openstreetmap.org. The data is made available under ODbL."
  },
  "elements": [

{
  "type": "node",
  "id": 366807891,
  "lat": 48.5906543,
  "lon": 17.8380501,
  "tags": {
    "is_in": "Piešťany",
    "name": "Balneologické múzeum",
    "tourism": "museum",
    "website": "http://www.balneomuzeum.sk/",
    "wikidata": "Q12762882"
  }
},
{
  "type": "node",
  "id": 366808168,
  "lat": 48.5869148,
  "lon": 17.8367258,
  "tags": {
    "name": "Pamätná izba Ivana Krasku",
    "tourism": "museum"
  }
},
{
  "type": "node",
  "id": 366808853,
  "lat": 48.5935839,
  "lon": 17.8332208,
  "tags": {
    "alt_name": "Výstavné priestory Balneologického múzea",
    "is_in": "Piešťany",
    "name": "Expozícia vo Vile Dr. Lisku",
    "tourism": "museum"
  }
},
{
  "type": "node",
  "id": 459017319,
  "lat": 48.6601677,
  "lon": 17.7580434,
  "tags": {
    "historic": "archaeological_site",
    "name": "Praveká kniežatská mohyla",
    "tourism": "museum"
  }
},
{
  "type": "node",
  "id": 527474302,
  "lat": 48.5546944,
  "lon": 17.9705363,
  "tags": {
    "name": "Múzeum",
    "tourism": "museum"
  }
},
{
  "type": "node",
  "id": 601112348,
  "lat": 48.4300205,
  "lon": 17.8048064,
  "tags": {
    "name": "Vlastivedné múzeum",
    "tourism": "museum"
  }
},
{
  "type": "node",
  "id": 685344550,
  "lat": 48.6019417,
  "lon": 17.8595043,
  "tags": {
    "name": "Classic car museum",
    "tourism": "museum"
  }
},
{
  "type": "node",
  "id": 692993106,
  "lat": 48.6078869,
  "lon": 17.8290963,
  "tags": {
    "contact:email": "vhu@vhu.sk",
    "contact:phone": "+421 33 791 3802",
    "name": "Vojenské historické múzeum",
    "tourism": "museum",
    "website": "http://www.vhu.sk/muzejne-oddelenie-piestany/"
  }
},
{
  "type": "node",
  "id": 694306151,
  "lat": 48.2867109,
  "lon": 17.2704185,
  "tags": {
    "addr:city": "Pezinok",
    "addr:housenumber": "1",
    "addr:postcode": "90201",
    "addr:street": "Milana Rastislava Štefánika",
    "contact:facebook": "https://www.facebook.com/Mestsk%C3%A9-m%C3%BAzeum-v-Pezinku-113138922071920/",
    "name": "Mestské múzeum",
    "opening_hours": "Tu-Fr 10:00-17:00; Su 10:00-16:00",
    "phone": "+421 33 641 23 06",
    "tourism": "museum",
    "website": "http://www.mestskemuzeumpk.sk/"
  }
},
{
  "type": "node",
  "id": 1426866970,
  "lat": 48.4194730,
  "lon": 17.7968378,
  "tags": {
    "name": "Hvezdáreň a planetárium v Hlohovci",
    "tourism": "museum"
  }
},
{
  "type": "node",
  "id": 1458461933,
  "lat": 48.2507080,
  "lon": 17.6161167,
  "tags": {
    "name": "Múzeum",
    "tourism": "museum"
  }
},
{
  "type": "node",
  "id": 1992812025,
  "lat": 48.2864995,
  "lon": 17.7379942,
  "tags": {
    "name": "Mestské múzeum",
    "tourism": "museum"
  }
},
{
  "type": "node",
  "id": 2235236151,
  "lat": 48.5083559,
  "lon": 17.4320990,
  "tags": {
    "name": "Múzeum Molpír Smolenice",
    "opening_hours": "Jul-Aug Tu-Su 10:00-16:00",
    "phone": "+421 33 557 11 00",
    "tourism": "museum"
  }
},
{
  "type": "node",
  "id": 2249124773,
  "lat": 48.3686263,
  "lon": 17.8987782,
  "tags": {
    "name": "Múzeum Rišňovce, M. I. Kutuzova",
    "tourism": "museum"
  }
},
{
  "type": "node",
  "id": 2665608871,
  "lat": 48.3266999,
  "lon": 17.3162532,
  "tags": {
    "name": "Múzeum Majolika",
    "tourism": "museum"
  }
},
{
  "type": "node",
  "id": 2665732923,
  "lat": 48.3367928,
  "lon": 17.3105481,
  "tags": {
    "name": "Múzeum Ľ. Štúra",
    "tourism": "museum"
  }
},
{
  "type": "node",
  "id": 2859724549,
  "lat": 48.6621172,
  "lon": 17.4810378,
  "tags": {
    "fixme": "resurvey",
    "name": "Dom bojových a revolučných tradícií",
    "source": "local_knowledge",
    "tourism": "museum"
  }
},
{
  "type": "node",
  "id": 2859724552,
  "lat": 48.6719163,
  "lon": 17.4588482,
  "tags": {
    "fixme": "resurvey",
    "name": "Rodný dom Jána Jonáša",
    "tourism": "museum",
    "wikidata": "Q13421315",
    "wikipedia": "sk:Ján Jonáš"
  }
},
{
  "type": "node",
  "id": 2988344019,
  "lat": 48.1992447,
  "lon": 17.5114039,
  "tags": {
    "name": "Včelárska paseka",
    "tourism": "museum",
    "wikidata": "Q12772228"
  }
},
{
  "type": "node",
  "id": 3062844883,
  "lat": 48.2433997,
  "lon": 17.6943242,
  "tags": {
    "name": "Múzeum",
    "tourism": "museum"
  }
},
{
  "type": "node",
  "id": 3119249423,
  "lat": 48.2971725,
  "lon": 17.3486415,
  "tags": {
    "name": "Obecné múzeum Šenkvice",
    "source": "survey",
    "tourism": "museum"
  }
},
{
  "type": "node",
  "id": 3178565975,
  "lat": 48.3327118,
  "lon": 17.3093859,
  "tags": {
    "addr:city": "Modra",
    "addr:country": "SK",
    "addr:housenumber": "41",
    "addr:street": "Súkenícka",
    "addr:streetnumber": "41",
    "name": "Múzeum keramiky",
    "tourism": "museum"
  }
},
{
  "type": "node",
  "id": 3178565976,
  "lat": 48.3356625,
  "lon": 17.3078130,
  "tags": {
    "name": "Múzeum slovenskej keramickej plastiky",
    "tourism": "museum"
  }
},
{
  "type": "node",
  "id": 4187310190,
  "lat": 48.6593446,
  "lon": 17.4105560,
  "tags": {
    "addr:city": "Hlboké",
    "addr:housenumber": "120",
    "addr:postcode": "90631",
    "addr:street": "Hlboké",
    "name": "Múzeum J. M. Hurbana",
    "tourism": "museum"
  }
},
{
  "type": "node",
  "id": 4799917807,
  "lat": 48.3805559,
  "lon": 17.5824138,
  "tags": {
    "name": "Galéria Jána Koniarka v Trnave",
    "tourism": "museum",
    "website": "https://www.gjk.sk/sk/uvod/"
  }
},
{
  "type": "node",
  "id": 5610790272,
  "lat": 48.6606628,
  "lon": 17.4816030,
  "tags": {
    "name": "Múzeum roľníctva Prietrž",
    "tourism": "museum"
  }
},
{
  "type": "node",
  "id": 5732804334,
  "lat": 48.3915018,
  "lon": 17.3354146,
  "tags": {
    "charge": "6 EUR",
    "fee": "yes",
    "name": "Múzeum Červený kameň",
    "opening_hours": "Oct-Apr Tu-Su 09:30-15:30; May Mo-Fr 09:30-15:30; May Sa-Su 09:00-17:00; Jun-Sep Mo-Su 09:00-17:00",
    "operator": "Slovenské národné múzeum",
    "tourism": "museum"
  }
},
{
  "type": "way",
  "id": 34446671,
  "nodes": [
    396561604,
    767714031,
    767694574,
    767677501,
    7020953165,
    396561467,
    396561641,
    396561604
  ],
  "tags": {
    "addr:city": "Šaľa",
    "addr:housenumber": "4",
    "addr:street": "Štúrova",
    "addr:streetnumber": "4",
    "name": "Dom ľudového bývania",
    "opening_hours": "Tu-Sa 09:00-12:00,12:30-17:00",
    "tourism": "museum",
    "website": "http://www.domludovehobyvania.sk/"
  }
},
{
  "type": "way",
  "id": 49947850,
  "nodes": [
    634662041,
    634662053,
    634662042,
    634662079,
    634662075,
    634662039,
    634662002,
    634662026,
    634662025,
    634662027,
    634662028,
    634662043,
    634662044,
    634662040,
    634662041
  ],
  "tags": {
    "alt_name": "Kaviakov dom",
    "building": "yes",
    "building:architecture": "renaissance",
    "name": "Malokarpatské múzeum",
    "opening_hours": "Tu-Fr 09:00-12:00,13:00-17:00; Sa 09:00-15:00; Su 13:00-19:00; Dec-Feb off",
    "source": "kapor2",
    "tourism": "museum",
    "website": "http://www.muzeumpezinok.sk/"
  }
},
{
  "type": "way",
  "id": 59156167,
  "nodes": [
    733595757,
    733604242,
    733619205,
    733626044,
    733602577,
    733610003,
    733617666,
    733624382,
    733631099,
    733598385,
    733595757
  ],
  "tags": {
    "addr:city": "Galanta",
    "addr:conscriptionnumber": "750",
    "addr:country": "SK",
    "addr:housenumber": "750/16",
    "addr:street": "Školská",
    "addr:streetnumber": "16",
    "building": "yes",
    "import": "budovy201004",
    "name": "Múzeum historických vozidiel",
    "operator": "Veteran car club Galanta",
    "source": "kapor2",
    "tourism": "museum"
  }
},
{
  "type": "way",
  "id": 59156497,
  "nodes": [
    733621358,
    733628270,
    733614579,
    733621742,
    733628622,
    733635532,
    733595109,
    733603123,
    733610071,
    733618208,
    733638400,
    733621358
  ],
  "tags": {
    "addr:city": "Galanta",
    "addr:conscriptionnumber": "976",
    "addr:country": "SK",
    "addr:housenumber": "976/8",
    "addr:street": "Hlavná",
    "addr:streetnumber": "8",
    "building": "yes",
    "import": "budovy201004",
    "name": "Vlastivedné múzeum Galanta",
    "opening_hours": "Mo-Fr 09:00-17:00; Sa 13:00-17:00",
    "short_name": "VMGA",
    "source": "kapor2",
    "tourism": "museum",
    "url": "http://www.muzeum.sk/?obj=muzeum&ix=vmga"
  }
},
{
  "type": "way",
  "id": 59157067,
  "nodes": [
    733618499,
    733625204,
    733631830,
    733618922,
    733625755,
    733632521,
    733637776,
    733599933,
    733607334,
    733615016,
    733622023,
    733607805,
    5131823384,
    733618499
  ],
  "tags": {
    "addr:city": "Galanta",
    "addr:conscriptionnumber": "1578",
    "addr:country": "SK",
    "addr:housenumber": "1578/9",
    "addr:street": "Esterházyovcov",
    "addr:streetnumber": "9",
    "building": "yes",
    "building:levels": "2",
    "castle_type": "manor",
    "charge": "1EUR",
    "fee": "yes",
    "historic": "castle",
    "import": "budovy201004",
    "name": "Renesančný kaštieľ",
    "opening_hours": "Tu-Fr 09:00-17:00; Sa 14:00-18:00",
    "operator": "Mestské kultúrne stredisko v Galante",
    "roof:levels": "1",
    "roof:shape": "mansard",
    "source": "kapor2",
    "tourism": "museum"
  }
},
{
  "type": "way",
  "id": 61618313,
  "nodes": [
    768343655,
    768346259,
    768345069,
    768348080,
    768343655
  ],
  "tags": {
    "building": "yes",
    "import": "budovy201004",
    "name": "Pamätník Ludwiga van Beethovena",
    "source": "kapor2",
    "tourism": "museum",
    "website": "https://www.snm.sk/?kastiel-v-dolnej-krupej-stale-expozicie&clanok=pamatnik-ludwiga-van-beethovena"
  }
},
{
  "type": "way",
  "id": 61618475,
  "nodes": [
    768344078,
    768346719,
    768345523,
    768348585,
    768347170,
    768342775,
    768341638,
    768344400,
    768343286,
    768345999,
    768344884,
    768347644,
    768346473,
    768342077,
    768348297,
    768343873,
    768345328,
    768348346,
    768346969,
    768342564,
    768348898,
    768344253,
    768343036,
    768345776,
    768344634,
    768347435,
    768346252,
    768341871,
    768344078
  ],
  "tags": {
    "addr:city": "Dolná Krupá",
    "addr:conscriptionnumber": "572",
    "addr:country": "SK",
    "addr:housenumber": "572",
    "addr:place": "Dolná Krupá",
    "alt_name": "Kaštieľ Dolná Krupá",
    "building": "yes",
    "castle_type": "manor",
    "historic": "castle",
    "import": "budovy201004",
    "name": "Kaštieľ v Dolnej Krupej",
    "source": "kapor2",
    "source:conscriptionnumber": "kapor2",
    "tourism": "museum",
    "website": "https://www.snm.sk/?kastiel-v-dolnej-krupej-uvodna-stranka",
    "wikidata": "Q13421951",
    "wikipedia": "sk:Kaštieľ v Dolnej Krupej"
  }
},
{
  "type": "way",
  "id": 129581500,
  "nodes": [
    1429383923,
    1429383920,
    1429383927,
    1429383929,
    1429383934,
    1429383933,
    6024852353,
    6024852350,
    1429383923
  ],
  "tags": {
    "addr:city": "Košariská",
    "addr:conscriptionnumber": "92",
    "addr:country": "SK",
    "addr:housenumber": "92",
    "addr:place": "Košariská",
    "building": "yes",
    "name": "Múzeum M. R. Štefánika",
    "source": "kapor2",
    "source:conscriptionnumber": "kapor2",
    "subject:wikidata": "Q319962",
    "subject:wikipedia": "sk:Milan Rastislav Štefánik",
    "tourism": "museum",
    "website": "http://slovakia.travel/muzeum-mr-stefanika-snm-msnr-kosariska"
  }
},
{
  "type": "way",
  "id": 164481007,
  "nodes": [
    1761196070,
    1761196019,
    1761195902,
    1761195884,
    1761195573,
    1761195556,
    1761195482,
    1761195579,
    1761195584,
    1761195739,
    1761195725,
    1761195881,
    1761195968,
    1761195963,
    1761196201,
    1761196189,
    1761196070
  ],
  "tags": {
    "building": "yes",
    "name": "Synagóga - Centrum súčasného umenia",
    "opening_hours": "Tu-Fr 09:00-17:00; Sa 13:00-18:00",
    "operator": "Galéria Jána Koniarka v Trnave",
    "source": "kapor2",
    "tourism": "museum"
  }
},
{
  "type": "way",
  "id": 164481101,
  "nodes": [
    1761204562,
    1761204399,
    1761204257,
    1761203724,
    1761203754,
    1761203710,
    1761203712,
    1761203562,
    1761203671,
    1761203656,
    1761203778,
    1761203909,
    1761203956,
    1761203996,
    1761203988,
    1761204064,
    1761204239,
    1761204392,
    1761204444,
    1761204484,
    1761204493,
    1761204520,
    1761204534,
    1761204584,
    1761204607,
    1761204562
  ],
  "tags": {
    "addr:housenumber": "3",
    "addr:street": "Zelený kríčok",
    "addr:streetnumber": "3",
    "building": "public",
    "name": "Kopplova vila",
    "opening_hours": "Tu-Fr 09:00-17:00; Sa,Su 13:00-18:00",
    "operator": "Galéria Jána Koniarka v Trnave",
    "source": "kapor2",
    "tourism": "museum",
    "website": "https://www.gjk.sk/sk/vystavy/kopplova-vila/"
  }
},
{
  "type": "way",
  "id": 189189918,
  "nodes": [
    1998415271,
    1998415241,
    1998415420,
    1998415411,
    1998415455,
    1998415223,
    1998415165,
    1998415135,
    1998415097,
    1998415101,
    1998415138,
    1998415099,
    1998415169,
    1998415133,
    1998415128,
    1998415064,
    1998415113,
    1998415072,
    1998414891,
    1998414841,
    1998415041,
    1998415199,
    1998415227,
    1998415271
  ],
  "tags": {
    "building": "yes",
    "source": "kapor2",
    "tourism": "museum"
  }
},
{
  "type": "way",
  "id": 255183910,
  "nodes": [
    2609073564,
    2609073635,
    2609073590,
    2609073922,
    2609073881,
    2609073604,
    2609073610,
    2609073550,
    2609073542,
    2609073514,
    2609073519,
    2609073501,
    2609073504,
    2609073520,
    2609073564
  ],
  "tags": {
    "addr:city": "Chorvátsky Grob",
    "addr:conscriptionnumber": "438",
    "addr:country": "SK",
    "addr:housenumber": "438",
    "addr:place": "Chorvátsky Grob",
    "building": "yes",
    "name": "Chorvátska izba",
    "source": "kapor2",
    "source:conscriptionnumber": "kapor2",
    "tourism": "museum"
  }
},
{
  "type": "way",
  "id": 587791056,
  "nodes": [
    5614483662,
    5614483660,
    5614483659,
    5614483657,
    5614483663,
    5613745006,
    5613744991,
    5614483662
  ],
  "tags": {
    "tourism": "museum"
  }
},
{
  "type": "way",
  "id": 600285224,
  "nodes": [
    5708491517,
    7093611805,
    5708491518,
    6452391399,
    6452391403,
    6815712728,
    6815712731,
    6452391426,
    6452391425,
    5708491520,
    5708491517
  ],
  "tags": {
    "addr:city": "Sereď",
    "addr:conscriptionnumber": "1005",
    "addr:housenumber": "1005/54",
    "addr:street": "Kasárenská",
    "addr:streetnumber": "54",
    "charge": "5 EUR",
    "fee": "yes",
    "name": "Múzeum holokaustu",
    "name:en": "Holocaust Museum",
    "opening_hours": "Sep-Jun Mo-Th 08:00-15:00; Sep-Jun Su 09:00-16:00; Jul-Aug Mo-Th 09:00-16:00; Jul-Aug Su 09:00-16:00",
    "operator": "Slovenské národné múzeum",
    "tourism": "museum",
    "website": "https://www.muzeum.sk/muzeum-holokaustu-v-seredi-snm.html"
  }
},
{
  "type": "relation",
  "id": 2193450,
  "members": [
    {
      "type": "way",
      "ref": 164481137,
      "role": "outer"
    },
    {
      "type": "way",
      "ref": 164483055,
      "role": "inner"
    },
    {
      "type": "way",
      "ref": 164483065,
      "role": "inner"
    }
  ],
  "tags": {
    "building": "yes",
    "name": "Západoslovenské múzeum",
    "tourism": "museum",
    "type": "multipolygon"
  }
},
{
  "type": "node",
  "id": 2609073501,
  "lat": 48.2295019,
  "lon": 17.2909816
},
{
  "type": "node",
  "id": 2609073504,
  "lat": 48.2295082,
  "lon": 17.2909392
},
{
  "type": "node",
  "id": 2609073514,
  "lat": 48.2295289,
  "lon": 17.2911154
},
{
  "type": "node",
  "id": 2609073519,
  "lat": 48.2295458,
  "lon": 17.2909954
},
{
  "type": "node",
  "id": 2609073520,
  "lat": 48.2295486,
  "lon": 17.2909518
},
{
  "type": "node",
  "id": 2609073542,
  "lat": 48.2295900,
  "lon": 17.2911342
},
{
  "type": "node",
  "id": 2609073550,
  "lat": 48.2295992,
  "lon": 17.2910687
},
{
  "type": "node",
  "id": 2609073564,
  "lat": 48.2296103,
  "lon": 17.2905023
},
{
  "type": "node",
  "id": 2609073590,
  "lat": 48.2296500,
  "lon": 17.2909664
},
{
  "type": "node",
  "id": 2609073604,
  "lat": 48.2296707,
  "lon": 17.2911249
},
{
  "type": "node",
  "id": 2609073610,
  "lat": 48.2296753,
  "lon": 17.2910919
},
{
  "type": "node",
  "id": 2609073635,
  "lat": 48.2297083,
  "lon": 17.2905326
},
{
  "type": "node",
  "id": 2609073881,
  "lat": 48.2298379,
  "lon": 17.2911761
},
{
  "type": "node",
  "id": 2609073922,
  "lat": 48.2298576,
  "lon": 17.2910304
},
{
  "type": "node",
  "id": 5613744991,
  "lat": 48.1986723,
  "lon": 17.5148009
},
{
  "type": "node",
  "id": 5613745006,
  "lat": 48.1988657,
  "lon": 17.5116302
},
{
  "type": "node",
  "id": 5614483657,
  "lat": 48.1995923,
  "lon": 17.5115629
},
{
  "type": "node",
  "id": 5614483659,
  "lat": 48.1995566,
  "lon": 17.5124105
},
{
  "type": "node",
  "id": 5614483660,
  "lat": 48.1990134,
  "lon": 17.5133868
},
{
  "type": "node",
  "id": 5614483662,
  "lat": 48.1989133,
  "lon": 17.5148245
},
{
  "type": "node",
  "id": 5614483663,
  "lat": 48.1989705,
  "lon": 17.5114878
},
{
  "type": "node",
  "id": 733595109,
  "lat": 48.1909898,
  "lon": 17.7317111
},
{
  "type": "node",
  "id": 733603123,
  "lat": 48.1912038,
  "lon": 17.7315097
},
{
  "type": "node",
  "id": 733610071,
  "lat": 48.1912978,
  "lon": 17.7314257
},
{
  "type": "node",
  "id": 733614579,
  "lat": 48.1912494,
  "lon": 17.7315911
},
{
  "type": "node",
  "id": 733618208,
  "lat": 48.1913849,
  "lon": 17.7316280
},
{
  "type": "node",
  "id": 733621358,
  "lat": 48.1910499,
  "lon": 17.7318504
},
{
  "type": "node",
  "id": 733621742,
  "lat": 48.1912283,
  "lon": 17.7316118
},
{
  "type": "node",
  "id": 733628270,
  "lat": 48.1912692,
  "lon": 17.7316340
},
{
  "type": "node",
  "id": 733628622,
  "lat": 48.1912244,
  "lon": 17.7316049
},
{
  "type": "node",
  "id": 733635532,
  "lat": 48.1910257,
  "lon": 17.7317965
},
{
  "type": "node",
  "id": 733638400,
  "lat": 48.1910852,
  "lon": 17.7319292
},
{
  "type": "node",
  "id": 733599933,
  "lat": 48.1952163,
  "lon": 17.7330694
},
{
  "type": "node",
  "id": 733607334,
  "lat": 48.1952239,
  "lon": 17.7330633
},
{
  "type": "node",
  "id": 733607805,
  "lat": 48.1952876,
  "lon": 17.7332528
},
{
  "type": "node",
  "id": 733615016,
  "lat": 48.1952320,
  "lon": 17.7330857
},
{
  "type": "node",
  "id": 733618499,
  "lat": 48.1950674,
  "lon": 17.7334516
},
{
  "type": "node",
  "id": 733618922,
  "lat": 48.1950201,
  "lon": 17.7331811
},
{
  "type": "node",
  "id": 733622023,
  "lat": 48.1952246,
  "lon": 17.7330910
},
{
  "type": "node",
  "id": 733625204,
  "lat": 48.1949939,
  "lon": 17.7332507
},
{
  "type": "node",
  "id": 733625755,
  "lat": 48.1950320,
  "lon": 17.7331711
},
{
  "type": "node",
  "id": 733631830,
  "lat": 48.1950335,
  "lon": 17.7332148
},
{
  "type": "node",
  "id": 733632521,
  "lat": 48.1950453,
  "lon": 17.7332046
},
{
  "type": "node",
  "id": 733637776,
  "lat": 48.1952110,
  "lon": 17.7330558
},
{
  "type": "node",
  "id": 5131823384,
  "lat": 48.1951822,
  "lon": 17.7333480
},
{
  "type": "node",
  "id": 733595757,
  "lat": 48.1921244,
  "lon": 17.7386838
},
{
  "type": "node",
  "id": 733598385,
  "lat": 48.1921234,
  "lon": 17.7386866
},
{
  "type": "node",
  "id": 733602577,
  "lat": 48.1923979,
  "lon": 17.7389076
},
{
  "type": "node",
  "id": 733604242,
  "lat": 48.1921849,
  "lon": 17.7386044
},
{
  "type": "node",
  "id": 733610003,
  "lat": 48.1923844,
  "lon": 17.7389263
},
{
  "type": "node",
  "id": 733617666,
  "lat": 48.1924660,
  "lon": 17.7390577
},
{
  "type": "node",
  "id": 733619205,
  "lat": 48.1922653,
  "lon": 17.7387351
},
{
  "type": "node",
  "id": 733624382,
  "lat": 48.1924078,
  "lon": 17.7391392
},
{
  "type": "node",
  "id": 733626044,
  "lat": 48.1922789,
  "lon": 17.7387171
},
{
  "type": "node",
  "id": 733631099,
  "lat": 48.1924058,
  "lon": 17.7391411
},
{
  "type": "node",
  "id": 396561467,
  "lat": 48.1525077,
  "lon": 17.8741094
},
{
  "type": "node",
  "id": 396561604,
  "lat": 48.1522464,
  "lon": 17.8738553
},
{
  "type": "node",
  "id": 396561641,
  "lat": 48.1524301,
  "lon": 17.8742007
},
{
  "type": "node",
  "id": 767677501,
  "lat": 48.1524680,
  "lon": 17.8740373
},
{
  "type": "node",
  "id": 767694574,
  "lat": 48.1523170,
  "lon": 17.8737277
},
{
  "type": "node",
  "id": 767714031,
  "lat": 48.1522793,
  "lon": 17.8737754
},
{
  "type": "node",
  "id": 7020953165,
  "lat": 48.1524798,
  "lon": 17.8740587
},
{
  "type": "node",
  "id": 634662002,
  "lat": 48.2869426,
  "lon": 17.2706880
},
{
  "type": "node",
  "id": 634662025,
  "lat": 48.2870590,
  "lon": 17.2707402
},
{
  "type": "node",
  "id": 634662026,
  "lat": 48.2870286,
  "lon": 17.2706380
},
{
  "type": "node",
  "id": 634662027,
  "lat": 48.2870738,
  "lon": 17.2707912
},
{
  "type": "node",
  "id": 634662028,
  "lat": 48.2870444,
  "lon": 17.2708093
},
{
  "type": "node",
  "id": 634662039,
  "lat": 48.2870001,
  "lon": 17.2709090
},
{
  "type": "node",
  "id": 634662040,
  "lat": 48.2870984,
  "lon": 17.2710272
},
{
  "type": "node",
  "id": 634662041,
  "lat": 48.2871355,
  "lon": 17.2710064
},
{
  "type": "node",
  "id": 634662042,
  "lat": 48.2871365,
  "lon": 17.2711763
},
{
  "type": "node",
  "id": 634662043,
  "lat": 48.2870724,
  "lon": 17.2709058
},
{
  "type": "node",
  "id": 634662044,
  "lat": 48.2870702,
  "lon": 17.2709095
},
{
  "type": "node",
  "id": 634662053,
  "lat": 48.2871748,
  "lon": 17.2711563
},
{
  "type": "node",
  "id": 634662075,
  "lat": 48.2871017,
  "lon": 17.2712984
},
{
  "type": "node",
  "id": 634662079,
  "lat": 48.2871589,
  "lon": 17.2712762
},
{
  "type": "node",
  "id": 1998414841,
  "lat": 48.3120770,
  "lon": 17.4989770
},
{
  "type": "node",
  "id": 1998414891,
  "lat": 48.3121720,
  "lon": 17.4991385
},
{
  "type": "node",
  "id": 1998415041,
  "lat": 48.3123700,
  "lon": 17.4985987
},
{
  "type": "node",
  "id": 1998415064,
  "lat": 48.3123899,
  "lon": 17.4989437
},
{
  "type": "node",
  "id": 1998415072,
  "lat": 48.3123953,
  "lon": 17.4988507
},
{
  "type": "node",
  "id": 1998415097,
  "lat": 48.3124170,
  "lon": 17.4992234
},
{
  "type": "node",
  "id": 1998415099,
  "lat": 48.3124182,
  "lon": 17.4991200
},
{
  "type": "node",
  "id": 1998415101,
  "lat": 48.3124194,
  "lon": 17.4991901
},
{
  "type": "node",
  "id": 1998415113,
  "lat": 48.3124232,
  "lon": 17.4989000
},
{
  "type": "node",
  "id": 1998415128,
  "lat": 48.3124320,
  "lon": 17.4990180
},
{
  "type": "node",
  "id": 1998415133,
  "lat": 48.3124373,
  "lon": 17.4990123
},
{
  "type": "node",
  "id": 1998415135,
  "lat": 48.3124386,
  "lon": 17.4992618
},
{
  "type": "node",
  "id": 1998415138,
  "lat": 48.3124412,
  "lon": 17.4991614
},
{
  "type": "node",
  "id": 1998415165,
  "lat": 48.3124613,
  "lon": 17.4992635
},
{
  "type": "node",
  "id": 1998415169,
  "lat": 48.3124640,
  "lon": 17.4990600
},
{
  "type": "node",
  "id": 1998415199,
  "lat": 48.3124966,
  "lon": 17.4988107
},
{
  "type": "node",
  "id": 1998415223,
  "lat": 48.3125180,
  "lon": 17.4993561
},
{
  "type": "node",
  "id": 1998415227,
  "lat": 48.3125216,
  "lon": 17.4987775
},
{
  "type": "node",
  "id": 1998415241,
  "lat": 48.3125335,
  "lon": 17.4988747
},
{
  "type": "node",
  "id": 1998415271,
  "lat": 48.3125596,
  "lon": 17.4988414
},
{
  "type": "node",
  "id": 1998415411,
  "lat": 48.3126518,
  "lon": 17.4990989
},
{
  "type": "node",
  "id": 1998415420,
  "lat": 48.3126590,
  "lon": 17.4990894
},
{
  "type": "node",
  "id": 1998415455,
  "lat": 48.3126720,
  "lon": 17.4991333
},
{
  "type": "node",
  "id": 1761203562,
  "lat": 48.3802801,
  "lon": 17.5820185
},
{
  "type": "node",
  "id": 1761203656,
  "lat": 48.3803222,
  "lon": 17.5819345
},
{
  "type": "node",
  "id": 1761203671,
  "lat": 48.3803278,
  "lon": 17.5819710
},
{
  "type": "node",
  "id": 1761203710,
  "lat": 48.3803509,
  "lon": 17.5821211
},
{
  "type": "node",
  "id": 1761203712,
  "lat": 48.3803542,
  "lon": 17.5821180
},
{
  "type": "node",
  "id": 1761203724,
  "lat": 48.3803682,
  "lon": 17.5821780
},
{
  "type": "node",
  "id": 1761203754,
  "lat": 48.3803733,
  "lon": 17.5821721
},
{
  "type": "node",
  "id": 1761203778,
  "lat": 48.3803905,
  "lon": 17.5819077
},
{
  "type": "node",
  "id": 1761203909,
  "lat": 48.3804375,
  "lon": 17.5819544
},
{
  "type": "node",
  "id": 1761203956,
  "lat": 48.3804396,
  "lon": 17.5819525
},
{
  "type": "node",
  "id": 1761203988,
  "lat": 48.3804494,
  "lon": 17.5819808
},
{
  "type": "node",
  "id": 1761203996,
  "lat": 48.3804515,
  "lon": 17.5819787
},
{
  "type": "node",
  "id": 1761204064,
  "lat": 48.3804592,
  "lon": 17.5820650
},
{
  "type": "node",
  "id": 1761204239,
  "lat": 48.3804955,
  "lon": 17.5821470
},
{
  "type": "node",
  "id": 1761204257,
  "lat": 48.3805068,
  "lon": 17.5823887
},
{
  "type": "node",
  "id": 1761204392,
  "lat": 48.3805727,
  "lon": 17.5823234
},
{
  "type": "node",
  "id": 1761204399,
  "lat": 48.3805749,
  "lon": 17.5825543
},
{
  "type": "node",
  "id": 1761204444,
  "lat": 48.3805971,
  "lon": 17.5822995
},
{
  "type": "node",
  "id": 1761204484,
  "lat": 48.3806197,
  "lon": 17.5823531
},
{
  "type": "node",
  "id": 1761204493,
  "lat": 48.3806304,
  "lon": 17.5823430
},
{
  "type": "node",
  "id": 1761204520,
  "lat": 48.3806626,
  "lon": 17.5823521
},
{
  "type": "node",
  "id": 1761204534,
  "lat": 48.3806772,
  "lon": 17.5823864
},
{
  "type": "node",
  "id": 1761204562,
  "lat": 48.3807123,
  "lon": 17.5824246
},
{
  "type": "node",
  "id": 1761204584,
  "lat": 48.3807294,
  "lon": 17.5823365
},
{
  "type": "node",
  "id": 1761204607,
  "lat": 48.3807507,
  "lon": 17.5823894
},
{
  "type": "node",
  "id": 1761190146,
  "lat": 48.3750765,
  "lon": 17.5925422
},
{
  "type": "node",
  "id": 1761190324,
  "lat": 48.3751591,
  "lon": 17.5924720
},
{
  "type": "node",
  "id": 1761190425,
  "lat": 48.3752317,
  "lon": 17.5929600
},
{
  "type": "node",
  "id": 1761190433,
  "lat": 48.3752402,
  "lon": 17.5929520
},
{
  "type": "node",
  "id": 1761190483,
  "lat": 48.3753139,
  "lon": 17.5928847
},
{
  "type": "node",
  "id": 1761190527,
  "lat": 48.3753855,
  "lon": 17.5933559
},
{
  "type": "node",
  "id": 1761190532,
  "lat": 48.3753920,
  "lon": 17.5927989
},
{
  "type": "node",
  "id": 1761190536,
  "lat": 48.3753939,
  "lon": 17.5929546
},
{
  "type": "node",
  "id": 1761190540,
  "lat": 48.3753992,
  "lon": 17.5928224
},
{
  "type": "node",
  "id": 1761190541,
  "lat": 48.3754006,
  "lon": 17.5933452
},
{
  "type": "node",
  "id": 1761190561,
  "lat": 48.3754437,
  "lon": 17.5927594
},
{
  "type": "node",
  "id": 1761190568,
  "lat": 48.3754520,
  "lon": 17.5927836
},
{
  "type": "node",
  "id": 1761190606,
  "lat": 48.3754799,
  "lon": 17.5931955
},
{
  "type": "node",
  "id": 1761190670,
  "lat": 48.3755137,
  "lon": 17.5928656
},
{
  "type": "node",
  "id": 1761190696,
  "lat": 48.3755365,
  "lon": 17.5933344
},
{
  "type": "node",
  "id": 1761190698,
  "lat": 48.3755415,
  "lon": 17.5937522
},
{
  "type": "node",
  "id": 1761190776,
  "lat": 48.3755964,
  "lon": 17.5935130
},
{
  "type": "node",
  "id": 1761190777,
  "lat": 48.3755966,
  "lon": 17.5926765
},
{
  "type": "node",
  "id": 1761190783,
  "lat": 48.3756078,
  "lon": 17.5930877
},
{
  "type": "node",
  "id": 1761190795,
  "lat": 48.3756192,
  "lon": 17.5936954
},
{
  "type": "node",
  "id": 1761190809,
  "lat": 48.3756240,
  "lon": 17.5937176
},
{
  "type": "node",
  "id": 1761190859,
  "lat": 48.3756719,
  "lon": 17.5932252
},
{
  "type": "node",
  "id": 1761190924,
  "lat": 48.3757499,
  "lon": 17.5934048
},
{
  "type": "node",
  "id": 1761190977,
  "lat": 48.3757895,
  "lon": 17.5931550
},
{
  "type": "node",
  "id": 1761191004,
  "lat": 48.3757960,
  "lon": 17.5931693
},
{
  "type": "node",
  "id": 1761191017,
  "lat": 48.3758012,
  "lon": 17.5931441
},
{
  "type": "node",
  "id": 1761191028,
  "lat": 48.3758077,
  "lon": 17.5931592
},
{
  "type": "node",
  "id": 1761191052,
  "lat": 48.3758112,
  "lon": 17.5934282
},
{
  "type": "node",
  "id": 1761191106,
  "lat": 48.3758295,
  "lon": 17.5932527
},
{
  "type": "node",
  "id": 1761191118,
  "lat": 48.3758318,
  "lon": 17.5934320
},
{
  "type": "node",
  "id": 1761191122,
  "lat": 48.3758318,
  "lon": 17.5934507
},
{
  "type": "node",
  "id": 1761191190,
  "lat": 48.3758398,
  "lon": 17.5934513
},
{
  "type": "node",
  "id": 1761191192,
  "lat": 48.3758407,
  "lon": 17.5934308
},
{
  "type": "node",
  "id": 1761191214,
  "lat": 48.3758454,
  "lon": 17.5935564
},
{
  "type": "node",
  "id": 1761191250,
  "lat": 48.3758633,
  "lon": 17.5934132
},
{
  "type": "node",
  "id": 1761191294,
  "lat": 48.3758684,
  "lon": 17.5934039
},
{
  "type": "node",
  "id": 1761191307,
  "lat": 48.3758720,
  "lon": 17.5933713
},
{
  "type": "node",
  "id": 1761191308,
  "lat": 48.3758721,
  "lon": 17.5934272
},
{
  "type": "node",
  "id": 1761191321,
  "lat": 48.3758773,
  "lon": 17.5934197
},
{
  "type": "node",
  "id": 1761191357,
  "lat": 48.3758822,
  "lon": 17.5932112
},
{
  "type": "node",
  "id": 1761191418,
  "lat": 48.3759217,
  "lon": 17.5933184
},
{
  "type": "node",
  "id": 1761195482,
  "lat": 48.3779634,
  "lon": 17.5900348
},
{
  "type": "node",
  "id": 1761195556,
  "lat": 48.3779931,
  "lon": 17.5901296
},
{
  "type": "node",
  "id": 1761195573,
  "lat": 48.3779996,
  "lon": 17.5901253
},
{
  "type": "node",
  "id": 1761195579,
  "lat": 48.3780024,
  "lon": 17.5900097
},
{
  "type": "node",
  "id": 1761195584,
  "lat": 48.3780054,
  "lon": 17.5900185
},
{
  "type": "node",
  "id": 1761195725,
  "lat": 48.3780489,
  "lon": 17.5899759
},
{
  "type": "node",
  "id": 1761195739,
  "lat": 48.3780520,
  "lon": 17.5899882
},
{
  "type": "node",
  "id": 1761195881,
  "lat": 48.3780857,
  "lon": 17.5899511
},
{
  "type": "node",
  "id": 1761195884,
  "lat": 48.3780862,
  "lon": 17.5904232
},
{
  "type": "node",
  "id": 1761195902,
  "lat": 48.3780927,
  "lon": 17.5904188
},
{
  "type": "node",
  "id": 1761195963,
  "lat": 48.3781115,
  "lon": 17.5900534
},
{
  "type": "node",
  "id": 1761195968,
  "lat": 48.3781168,
  "lon": 17.5900502
},
{
  "type": "node",
  "id": 1761196019,
  "lat": 48.3781318,
  "lon": 17.5903938
},
{
  "type": "node",
  "id": 1761196070,
  "lat": 48.3781502,
  "lon": 17.5903818
},
{
  "type": "node",
  "id": 1761196189,
  "lat": 48.3781904,
  "lon": 17.5903549
},
{
  "type": "node",
  "id": 1761196201,
  "lat": 48.3781947,
  "lon": 17.5903525
},
{
  "type": "node",
  "id": 4902836593,
  "lat": 48.3754157,
  "lon": 17.5927808
},
{
  "type": "node",
  "id": 768341638,
  "lat": 48.4842223,
  "lon": 17.5464437
},
{
  "type": "node",
  "id": 768341871,
  "lat": 48.4843688,
  "lon": 17.5460820
},
{
  "type": "node",
  "id": 768342077,
  "lat": 48.4840079,
  "lon": 17.5466063
},
{
  "type": "node",
  "id": 768342564,
  "lat": 48.4841372,
  "lon": 17.5462054
},
{
  "type": "node",
  "id": 768342775,
  "lat": 48.4842593,
  "lon": 17.5464918
},
{
  "type": "node",
  "id": 768343036,
  "lat": 48.4842338,
  "lon": 17.5461278
},
{
  "type": "node",
  "id": 768343286,
  "lat": 48.4841482,
  "lon": 17.5466107
},
{
  "type": "node",
  "id": 768343655,
  "lat": 48.4839097,
  "lon": 17.5469262
},
{
  "type": "node",
  "id": 768343873,
  "lat": 48.4840529,
  "lon": 17.5464605
},
{
  "type": "node",
  "id": 768344078,
  "lat": 48.4844058,
  "lon": 17.5461319
},
{
  "type": "node",
  "id": 768344253,
  "lat": 48.4842425,
  "lon": 17.5461402
},
{
  "type": "node",
  "id": 768344400,
  "lat": 48.4841371,
  "lon": 17.5465945
},
{
  "type": "node",
  "id": 768344634,
  "lat": 48.4843412,
  "lon": 17.5460572
},
{
  "type": "node",
  "id": 768344884,
  "lat": 48.4840311,
  "lon": 17.5466343
},
{
  "type": "node",
  "id": 768345069,
  "lat": 48.4838977,
  "lon": 17.5467723
},
{
  "type": "node",
  "id": 768345328,
  "lat": 48.4840627,
  "lon": 17.5464743
},
{
  "type": "node",
  "id": 768345523,
  "lat": 48.4843435,
  "lon": 17.5462183
},
{
  "type": "node",
  "id": 768345776,
  "lat": 48.4842980,
  "lon": 17.5460005
},
{
  "type": "node",
  "id": 768345999,
  "lat": 48.4840936,
  "lon": 17.5467102
},
{
  "type": "node",
  "id": 768346252,
  "lat": 48.4843836,
  "lon": 17.5460493
},
{
  "type": "node",
  "id": 768346259,
  "lat": 48.4838544,
  "lon": 17.5468567
},
{
  "type": "node",
  "id": 768346473,
  "lat": 48.4839951,
  "lon": 17.5466343
},
{
  "type": "node",
  "id": 768346719,
  "lat": 48.4843545,
  "lon": 17.5462311
},
{
  "type": "node",
  "id": 768346969,
  "lat": 48.4840846,
  "lon": 17.5463030
},
{
  "type": "node",
  "id": 768347170,
  "lat": 48.4842933,
  "lon": 17.5464225
},
{
  "type": "node",
  "id": 768347435,
  "lat": 48.4843613,
  "lon": 17.5460178
},
{
  "type": "node",
  "id": 768347644,
  "lat": 48.4840159,
  "lon": 17.5466610
},
{
  "type": "node",
  "id": 768348080,
  "lat": 48.4839563,
  "lon": 17.5468412
},
{
  "type": "node",
  "id": 768348297,
  "lat": 48.4839882,
  "lon": 17.5465810
},
{
  "type": "node",
  "id": 768348346,
  "lat": 48.4841262,
  "lon": 17.5463513
},
{
  "type": "node",
  "id": 768348585,
  "lat": 48.4842575,
  "lon": 17.5463759
},
{
  "type": "node",
  "id": 768348898,
  "lat": 48.4841812,
  "lon": 17.5462585
},
{
  "type": "node",
  "id": 1429383920,
  "lat": 48.6701115,
  "lon": 17.5968534
},
{
  "type": "node",
  "id": 1429383923,
  "lat": 48.6701168,
  "lon": 17.5969762
},
{
  "type": "node",
  "id": 1429383927,
  "lat": 48.6702200,
  "lon": 17.5968559
},
{
  "type": "node",
  "id": 1429383929,
  "lat": 48.6702226,
  "lon": 17.5966465
},
{
  "type": "node",
  "id": 1429383933,
  "lat": 48.6703064,
  "lon": 17.5969739
},
{
  "type": "node",
  "id": 1429383934,
  "lat": 48.6703086,
  "lon": 17.5966486
},
{
  "type": "node",
  "id": 6024852350,
  "lat": 48.6701648,
  "lon": 17.5969756
},
{
  "type": "node",
  "id": 6024852353,
  "lat": 48.6702276,
  "lon": 17.5969749
},
{
  "type": "node",
  "id": 5708491517,
  "lat": 48.2899125,
  "lon": 17.7242424
},
{
  "type": "node",
  "id": 5708491518,
  "lat": 48.2882504,
  "lon": 17.7232959
},
{
  "type": "node",
  "id": 5708491520,
  "lat": 48.2896776,
  "lon": 17.7253294
},
{
  "type": "node",
  "id": 6452391399,
  "lat": 48.2882376,
  "lon": 17.7233486
},
{
  "type": "node",
  "id": 6452391403,
  "lat": 48.2882281,
  "lon": 17.7233895
},
{
  "type": "node",
  "id": 6452391425,
  "lat": 48.2879766,
  "lon": 17.7244576
},
{
  "type": "node",
  "id": 6452391426,
  "lat": 48.2879889,
  "lon": 17.7243917
},
{
  "type": "node",
  "id": 6815712728,
  "lat": 48.2881782,
  "lon": 17.7235986
},
{
  "type": "node",
  "id": 6815712731,
  "lat": 48.2880230,
  "lon": 17.7242487
},
{
  "type": "node",
  "id": 7093611805,
  "lat": 48.2897736,
  "lon": 17.7241236
},
{
  "type": "way",
  "id": 164481137,
  "nodes": [
    1761190146,
    1761190324,
    1761190483,
    1761190540,
    1761190532,
    4902836593,
    1761190561,
    1761190568,
    1761190777,
    1761190977,
    1761191017,
    1761191028,
    1761191004,
    1761191106,
    1761191357,
    1761191418,
    1761191307,
    1761191294,
    1761191321,
    1761191308,
    1761191250,
    1761191192,
    1761191190,
    1761191122,
    1761191118,
    1761191052,
    1761191214,
    1761190795,
    1761190809,
    1761190698,
    1761190541,
    1761190527,
    1761190433,
    1761190425,
    1761190146
  ]
},
{
  "type": "way",
  "id": 164483065,
  "nodes": [
    1761190606,
    1761190536,
    1761190670,
    1761190783,
    1761190606
  ]
},
{
  "type": "way",
  "id": 164483055,
  "nodes": [
    1761190776,
    1761190696,
    1761190859,
    1761190924,
    1761190776
  ]
}

  ]
}
