{
  "version": 0.6,
  "generator": "Overpass API 0.7.55.1011 6c2efc30",
  "osm3s": {
    "timestamp_osm_base": "2020-02-14T19:00:02Z",
    "copyright": "The data included in this document is from www.openstreetmap.org. The data is made available under ODbL."
  },
  "elements": [

{
  "type": "node",
  "id": 252190608,
  "lat": 45.6467793,
  "lon": 13.7648121,
  "tags": {
    "name": "Ex Museo di Storia Naturale",
    "name:de": "Ehmaliges Museum für Naturgeschichte",
    "name:en": "Former Museum of Natural History",
    "tourism": "museum"
  }
},
{
  "type": "node",
  "id": 296398807,
  "lat": 45.6464041,
  "lon": 13.7552536,
  "tags": {
    "addr:city": "Trieste",
    "addr:housenumber": "20",
    "addr:postcode": "34123",
    "addr:street": "Via Ottaviano Augusto",
    "museum": "railway",
    "name": "Museo ferroviario",
    "name:de": "Eisenbahnmuseum",
    "name:hu": "Vasútmúzeum",
    "name:it": "Museo Ferroviario di Trieste Campo Marzio",
    "official_name": "Museo ferroviario di Trieste Campo Marzio",
    "operator": "Associazione Dopolovoro Ferroviario di Trieste",
    "tourism": "museum",
    "website": "http://www.museoferroviariotrieste.it/",
    "wikidata": "Q1954243",
    "wikipedia": "it:Museo ferroviario di Trieste Campo Marzio"
  }
},
{
  "type": "node",
  "id": 667190593,
  "lat": 45.6764195,
  "lon": 13.3856123,
  "tags": {
    "name": "Lapidario del Duomo di Sant'Eufemia",
    "name:en": "Lapidary of Sant'Eufemia Cathedral",
    "tourism": "museum"
  }
},
{
  "type": "node",
  "id": 707125411,
  "lat": 45.4761117,
  "lon": 13.5948182,
  "tags": {
    "name": "Muzej solinarstva / Museo dei Salinai",
    "name:it": "Museo dei Salinai",
    "name:sl": "Muzej solinarstva",
    "operator": "Krajinski park sečoveljske soline / Parco Naturale delle Saline di Sicciole",
    "tourism": "museum"
  }
},
{
  "type": "node",
  "id": 1041154432,
  "lat": 45.5276426,
  "lon": 13.5681422,
  "tags": {
    "name": "Pomorski Muzej Sergei Mašera",
    "name:it": "Museo del Mare Sergei Mašera",
    "name:sl": "Pomorski Muzej Sergei Mašera",
    "tourism": "museum",
    "website": "http://www.pomorskimuzej.si/",
    "wheelchair": "yes",
    "wheelchair:description": "We were able to see everything. There was one step at the entrance with a portable ramp. Some one must go inside and get a staff member to put the ramp in place.",
    "wikidata": "Q15728625",
    "wikipedia:sl": "Pomorski muzej »Sergej Mašera« Piran"
  }
},
{
  "type": "node",
  "id": 1243756859,
  "lat": 45.7823902,
  "lon": 13.5859511,
  "tags": {
    "email": "flondar@libero.it",
    "name": "Museo",
    "opening_hours": "Mar-May,Sep Su 10:00-12:30,15:00-18:00, Oct-Nov Su 10:00-18:00",
    "operator": "Gruppo Speleologico Flondar",
    "phone:mobile": "+39 339 6908950",
    "tourism": "museum",
    "website": "http://www.flondar.it/index_17.htm"
  }
},
{
  "type": "node",
  "id": 1385009644,
  "lat": 45.3546974,
  "lon": 13.8285792,
  "tags": {
    "name": "mini Parenzana museum",
    "tourism": "museum"
  }
},
{
  "type": "node",
  "id": 1607297680,
  "lat": 45.6591140,
  "lon": 13.8018715,
  "tags": {
    "name": "Museo di Mineralogia e Petrografia dell'Università degli Studi di Trieste",
    "tourism": "museum",
    "wheelchair": "yes"
  }
},
{
  "type": "node",
  "id": 2051350016,
  "lat": 45.3167281,
  "lon": 13.5600595,
  "tags": {
    "fax": "+385 (0) 52 720 866",
    "fee": "yes",
    "name": "Gallerion",
    "phone": "+385 (0) 98 254 279",
    "tourism": "museum",
    "website": "http://www.kuk-marine-museum.net/"
  }
},
{
  "type": "node",
  "id": 2616620167,
  "lat": 45.6490367,
  "lon": 13.7674580,
  "tags": {
    "name": "Civico museo d'arte orientale",
    "name:hu": "Keleti Művészetek Múzeuma",
    "tourism": "museum",
    "wikidata": "Q3678770",
    "wikipedia": "it:Civico museo d'arte orientale"
  }
},
{
  "type": "node",
  "id": 2616620168,
  "lat": 45.6529118,
  "lon": 13.7704944,
  "tags": {
    "name": "Museo teatrale Carlo Schmidl",
    "name:hu": "Carlo Schmidl Városi Színháztörténeti Múzeum",
    "tourism": "museum",
    "wikidata": "Q1679608",
    "wikipedia": "it:Museo teatrale Carlo Schmidl"
  }
},
{
  "type": "node",
  "id": 2616620169,
  "lat": 45.6433363,
  "lon": 13.7569525,
  "tags": {
    "addr:housenumber": "2/c",
    "addr:street": "Via Guido Reni",
    "description:hu": "Egy hajdani légvédelmi óvóhelyen alakították ki. Barlangászati és barlangi élővilágot bemutató múzeum.",
    "email": "speleovivarium@email.it",
    "name": "Speleovivarium Ervin Pichl",
    "name:hu": "Barlangi Élővilág Múzeuma",
    "opening_hours": "Su 10:00-13:00",
    "operator": "Società Adriatica di Speleologia",
    "tourism": "museum",
    "website": "http://www.sastrieste.it/SitoSAS/Viva6.html",
    "wikidata": "Q3966478",
    "wikipedia": "it:Speleovivarium"
  }
},
{
  "type": "node",
  "id": 2625722392,
  "lat": 45.7071165,
  "lon": 13.7139427,
  "tags": {
    "addr:city": "Trieste",
    "addr:housenumber": "15",
    "addr:postcode": "34151",
    "addr:street": "Riva Massimiliano e Carlotta",
    "name": "Immaginario Scientifico",
    "name:en": "Science Centre",
    "tourism": "museum",
    "website": "https://www.immaginarioscientifico.it/",
    "wikidata": "Q3952322",
    "wikipedia": "it:Science centre immaginario scientifico"
  }
},
{
  "type": "node",
  "id": 2626437446,
  "lat": 45.6491369,
  "lon": 13.7750379,
  "tags": {
    "name": "Museo ebraico Carlo e Vera Wagner",
    "name:hu": "Carlo és Vera Wagner Zsidó Múzeum",
    "start_date": "1993-01",
    "tourism": "museum",
    "wikidata": "Q3868349",
    "wikipedia": "it:Museo ebraico Carlo e Vera Wagner"
  }
},
{
  "type": "node",
  "id": 2626437448,
  "lat": 45.6545716,
  "lon": 13.7733281,
  "tags": {
    "name": "Museo postale e telegrafico della Mitteleuropa",
    "name:hu": "Közép-európai Posta- és Távírómúzeum",
    "start_date": "1997",
    "tourism": "museum",
    "wikidata": "Q1940144",
    "wikipedia": "it:Museo postale e telegrafico della Mitteleuropa"
  }
},
{
  "type": "node",
  "id": 2985593631,
  "lat": 45.4097138,
  "lon": 13.6561074,
  "tags": {
    "name": "Etnografski Muzej",
    "tourism": "museum"
  }
},
{
  "type": "node",
  "id": 3068042973,
  "lat": 45.8023198,
  "lon": 13.5487278,
  "tags": {
    "name": "Museo Carsico Geologico e Paleontologico",
    "name:hu": "Karszt-hegység Földtani és Őslénytani Múzeuma",
    "opening_hours": "Mo 20:45-23:00; We 20:45-23:00",
    "tourism": "museum",
    "wikidata": "Q55340434"
  }
},
{
  "type": "node",
  "id": 3757526630,
  "lat": 45.5474795,
  "lon": 13.7354516,
  "tags": {
    "name:en": "Ethnological collection",
    "name:it": "Collezione etnologica",
    "name:sl": "Etnološka zbirka ",
    "tourism": "museum"
  }
},
{
  "type": "node",
  "id": 4128688358,
  "lat": 45.6548967,
  "lon": 13.7763909,
  "tags": {
    "description": "Visitabile solo il martedì su prenotazione telefonando allo 040 675 4699",
    "name": "Museo del Risorgimento e sacrario di Oberdan",
    "opening_hours": "Tu \"Visitabile solo il martedì su prenotazione telefonando allo 040 675 4699\"",
    "tourism": "museum",
    "website": "http://museodelrisorgimentotrieste.it/",
    "wikidata": "Q24938027",
    "wikipedia": "it:Museo del Risorgimento e sacrario di Oberdan"
  }
},
{
  "type": "node",
  "id": 4137809589,
  "lat": 45.5287130,
  "lon": 13.5689064,
  "tags": {
    "name": "Tartini's memorial room",
    "tourism": "museum"
  }
},
{
  "type": "node",
  "id": 4143109891,
  "lat": 45.5280440,
  "lon": 13.5682696,
  "tags": {
    "name": "Čarobni svet školjk Piran",
    "name:it": "Museo delle conchiglie",
    "name:sl": "Čarobni svet školjk Piran",
    "tourism": "museum"
  }
},
{
  "type": "node",
  "id": 4143110190,
  "lat": 45.5262159,
  "lon": 13.5686365,
  "tags": {
    "name": "Muzej podvodnih dejavnostih",
    "tourism": "museum"
  }
},
{
  "type": "node",
  "id": 4589512502,
  "lat": 45.6468799,
  "lon": 13.7677008,
  "tags": {
    "name": "Museo Joyce",
    "name:hu": "James Joyce Múzeum",
    "source": "note 793281",
    "tourism": "museum"
  }
},
{
  "type": "node",
  "id": 4715015881,
  "lat": 45.4649606,
  "lon": 13.6759626,
  "tags": {
    "addr:city": "Sečovlje - Sicciole",
    "addr:housenumber": "84",
    "addr:postcode": "6333",
    "addr:street": "Sv. Peter",
    "name": "Tonina hiša / Casa di Tonina",
    "source": "GURS",
    "source:date": "1995-01-01",
    "tourism": "museum"
  }
},
{
  "type": "node",
  "id": 4782695623,
  "lat": 45.8080940,
  "lon": 13.5437016,
  "tags": {
    "name": "Trincea Joffre e Grotta Vergine",
    "name:it": "Trincea Joffre e Grotta Vergine",
    "tourism": "museum"
  }
},
{
  "type": "node",
  "id": 4782695624,
  "lat": 45.8124721,
  "lon": 13.5467295,
  "tags": {
    "name": "Trincea Cuzzi",
    "name:it": "Trincea Cuzzi",
    "tourism": "museum"
  }
},
{
  "type": "node",
  "id": 4782695625,
  "lat": 45.8107247,
  "lon": 13.5577755,
  "tags": {
    "name": "Ridotta quota 121",
    "name:it": "Ridotta quota 121",
    "tourism": "museum"
  }
},
{
  "type": "node",
  "id": 4874314225,
  "lat": 45.6502846,
  "lon": 13.7759663,
  "tags": {
    "description": "I piano",
    "name": "Civico Museo di Storia Patria",
    "opening_hours": "Tu 9:00-13:00",
    "tourism": "museum",
    "website": "http://www.museostoriapatria.it"
  }
},
{
  "type": "node",
  "id": 4874374043,
  "lat": 45.6502626,
  "lon": 13.7759556,
  "tags": {
    "description": "2° Piano",
    "name": "Civico Museo Morpurgo",
    "opening_hours": "Tu 9:00-13:00",
    "tourism": "museum",
    "website": "http://www.museomorpurgo.it"
  }
},
{
  "type": "node",
  "id": 4874498042,
  "lat": 45.6492046,
  "lon": 13.7746681,
  "tags": {
    "name": "Museo della comunità Ebraica di Trieste Carlo e Vera Wagner",
    "opening_hours": "Mo 10:00-13:00, Tu 16:00-19:00, We 10:00-13:00, Th 10:00-16:00, Fr 10:00-13:00",
    "tourism": "museum",
    "website": "http://www.triestebraica.it/it/culturaturismo/il-museo-ebraico/informazioni"
  }
},
{
  "type": "node",
  "id": 4874513700,
  "lat": 45.6466949,
  "lon": 13.7640801,
  "tags": {
    "name": "Civico museo della Civiltà Istriana, Fiumana e Dalmata",
    "opening_hours": "Tu-Th 10:00-13:00, Fr-Sa 16:00-19:00, Su 10:00-19:00",
    "tourism": "museum",
    "website": "http://www.irci.it/irci/index.php?option=com_content&view=article&id=11&Itemid=13&lang=it"
  }
},
{
  "type": "node",
  "id": 5046909610,
  "lat": 45.7707018,
  "lon": 13.3675665,
  "tags": {
    "name": "Associazione Nazionale Aquileia",
    "tourism": "museum"
  }
},
{
  "type": "node",
  "id": 5764027843,
  "lat": 45.7949583,
  "lon": 13.5368965,
  "tags": {
    "addr:city": "Monfalcone",
    "addr:housenumber": "3",
    "addr:postcode": "34074",
    "addr:street": "Via del Mercato",
    "email": "info@mucamonfalcone.it",
    "name": "Museo della Cantieristica",
    "operator": "Comune di Monfalcone",
    "phone": "+390481494901",
    "tourism": "museum",
    "website": "http://www.mucamonfalcone.it",
    "wheelchair": "yes",
    "wikidata": "Q30888186",
    "wikipedia": "it:Polo museale della cantieristica navale di Monfalcone"
  }
},
{
  "type": "node",
  "id": 5867694065,
  "lat": 45.3723047,
  "lon": 13.7743037,
  "tags": {
    "fee": "no",
    "name": "Muzej narodnih instrumenata",
    "name:de": "Museum für Volksmusikinstrumente",
    "name:en": "Museum of musical instruments",
    "opening_hours": "Tu 10:30-13:00; Th 17:00-19:30; Fr 10:30-13:00; Su 10:30-13:00",
    "tourism": "museum"
  }
},
{
  "type": "node",
  "id": 6133391812,
  "lat": 45.6414050,
  "lon": 13.8600201,
  "tags": {
    "addr:city": "Trieste",
    "addr:housenumber": "224",
    "addr:place": "Basovizza / Bazovica",
    "addr:postcode": "34149",
    "email": "cdn@regione.fvg.it",
    "name": "Centro Didattico Naturalistico di Basovizza",
    "opening_hours": "Mo,We-Fr 09:00-13:00; Tu 14:00-18:00; Su[1] 09:00-17:00; Jun 01-Sep 30: Mo,We-Fr 09:00-13:00; Jun 01-Sep 30: Tu 14:00-20:00; Jun 01-Sep 30: Su[1] 14:00-20:00",
    "phone": "+39 040 3773677",
    "phone:mobile": "+39 366 6867882",
    "tourism": "museum",
    "website": "http://www.regione.fvg.it/rafvg/cms/RAFVG/ambiente-territorio/Centro_didattico-naturalistico_di_Basovizza/"
  }
},
{
  "type": "node",
  "id": 6815727308,
  "lat": 45.6675416,
  "lon": 13.8804612,
  "tags": {
    "name": "Muzej Lipikum",
    "name:de": "Das Lipikum Museum",
    "name:en": "The Lipikum Museum",
    "name:fr": "Musée des lipizzans",
    "name:it": "Museo Lipikum",
    "tourism": "museum"
  }
},
{
  "type": "node",
  "id": 6985772846,
  "lat": 45.6672654,
  "lon": 13.8805926,
  "tags": {
    "name": "Muzej kulinarike",
    "name:de": "Das Museum der Kulinarik",
    "name:en": "The Culinary Museum",
    "name:it": "Museo Culinario",
    "tourism": "museum"
  }
},
{
  "type": "way",
  "id": 36397140,
  "nodes": [
    424462669,
    424462670,
    424462672,
    424462673,
    424462669
  ],
  "tags": {
    "addr:city": "Monrupino / Repentabor",
    "addr:housename": "Kraška hiša",
    "addr:housenumber": "31",
    "addr:place": "Repen",
    "addr:postcode": "34016",
    "building": "yes",
    "email": "info@kraskahisa.com",
    "height": "4 m",
    "historic": "monument",
    "it:fvg:ctrn:code": "4AED",
    "it:fvg:ctrn:revision": "1A0",
    "name": "Kraška hiša / Casa carsica",
    "name:de": "Karsthaus",
    "name:en": "Carsic House",
    "name:it": "Casa carsica",
    "name:sl": "Kraška hiša",
    "opening_hours": "Apr-Oct: Su,PH 11:00-12:30,15:00-17:00",
    "operator": "Zadruga Naš Kras",
    "phone": "+39 040 327122",
    "tourism": "museum",
    "website": "http://www.kraskahisa.com/"
  }
},
{
  "type": "way",
  "id": 36399099,
  "nodes": [
    424479507,
    424479508,
    5167064494,
    424479509,
    424479510,
    424479511,
    424479512,
    424479513,
    424479514,
    424479515,
    424479516,
    424479517,
    424479507
  ],
  "tags": {
    "alt_name": "Palazzina W",
    "building": "yes",
    "height": "12 m",
    "it:fvg:ctrn:code": "4AED",
    "it:fvg:ctrn:revision": "1AM",
    "name": "Museo Nazionale dell'Antartide",
    "name:hu": "Olasz Nemzeti Antarktisz-múzeum",
    "tourism": "museum",
    "wikidata": "Q3868422",
    "wikipedia": "it:Museo nazionale dell'Antartide Felice Ippolito"
  }
},
{
  "type": "way",
  "id": 36400845,
  "nodes": [
    424494490,
    424494491,
    424494492,
    424494493,
    424494490
  ],
  "tags": {
    "building": "house",
    "height": "3 m",
    "it:fvg:ctrn:code": "4AED",
    "it:fvg:ctrn:revision": "1AM",
    "name": "Hiška u'd Ljenčkice",
    "tourism": "museum"
  }
},
{
  "type": "way",
  "id": 36402445,
  "nodes": [
    426506182,
    424509461,
    424509462,
    424509463,
    424509464,
    424509465,
    424509466,
    424509467,
    424509468,
    424509469,
    424509470,
    424509471,
    424509472,
    424509473,
    426506184,
    426506183,
    426506182
  ],
  "tags": {
    "building": "yes",
    "height": "20 m",
    "it:fvg:ctrn:code": "4AED",
    "it:fvg:ctrn:revision": "1A0",
    "name": "Museo Centrale Idrodinamica",
    "tourism": "museum"
  }
},
{
  "type": "way",
  "id": 36409954,
  "nodes": [
    424577543,
    424577544,
    7199929793,
    424577545,
    424577546,
    424577543
  ],
  "tags": {
    "building": "yes",
    "height": "14 m",
    "it:fvg:ctrn:code": "4AED",
    "it:fvg:ctrn:revision": "1AM",
    "name": "Museo di Storia Naturale",
    "tourism": "museum",
    "wikidata": "Q965121",
    "wikipedia": "it:Museo di storia naturale (Trieste)"
  }
},
{
  "type": "way",
  "id": 36414722,
  "nodes": [
    424630465,
    424630466,
    424630467,
    424630468,
    424630465
  ],
  "tags": {
    "addr:city": "Trieste",
    "addr:housenumber": "2",
    "addr:postcode": "34123",
    "addr:street": "Via di Campo Marzio",
    "building": "yes",
    "height": "10 m",
    "it:fvg:ctrn:code": "4AED",
    "it:fvg:ctrn:revision": "1A0",
    "name": "Civico Museo del Mare",
    "tourism": "museum",
    "wikidata": "Q3867958",
    "wikipedia": "it:Museo del mare (Trieste)"
  }
},
{
  "type": "way",
  "id": 36414868,
  "nodes": [
    424632274,
    424632275,
    424632276,
    424632277,
    4040926325,
    424632278,
    424632279,
    424632280,
    424632281,
    424632274
  ],
  "tags": {
    "building": "yes",
    "height": "27 m",
    "it:fvg:ctrn:code": "4AED",
    "it:fvg:ctrn:revision": "1A0",
    "name": "Museo Revoltella - Galleria d'arte moderna",
    "tourism": "museum",
    "wikidata": "Q1954273",
    "wikipedia": "it:Museo Revoltella"
  }
},
{
  "type": "way",
  "id": 36414869,
  "nodes": [
    424632282,
    424632283,
    424632284,
    424632285,
    424632286,
    424632287,
    424632288,
    424632289,
    424632290,
    424632291,
    424632292,
    424632293,
    424632294,
    424632295,
    424632296,
    424632297,
    424632298,
    424632299,
    424632300,
    424632301,
    424632302,
    424632303,
    424632304,
    424632305,
    424632306,
    424632307,
    4874513701,
    424847276,
    424847275,
    424632282
  ],
  "tags": {
    "addr:city": "Trieste",
    "addr:housenumber": "1",
    "addr:postcode": "34123",
    "addr:street": "Largo Papa Giovanni Ventitreesimo",
    "building": "yes",
    "height": "18 m",
    "it:fvg:ctrn:code": "4AED",
    "it:fvg:ctrn:revision": "1A0",
    "name": "Civico Museo Sartorio",
    "name:de": "Museo Sartorio",
    "name:en": "Museo Sartorio",
    "tourism": "museum",
    "website": "http://museosartoriotrieste.it/",
    "wikidata": "Q1954272",
    "wikipedia": "it:Civico museo Sartorio"
  }
},
{
  "type": "way",
  "id": 36688860,
  "nodes": [
    426505112,
    426505113,
    7199929792,
    426505114,
    426505115,
    426505116,
    426505117,
    426505118,
    426505119,
    426505120,
    426505121,
    426505112
  ],
  "tags": {
    "building": "yes",
    "disused:man_made": "works",
    "height": "9 m",
    "it:fvg:ctrn:code": "4AED",
    "it:fvg:ctrn:revision": "1A0",
    "name": "Civico Museo della Guerra per la Pace Diego de Henriquez",
    "operator": "Comune di Trieste",
    "tourism": "museum",
    "wikipedia": "it:Diego de Henriquez"
  }
},
{
  "type": "way",
  "id": 36688948,
  "nodes": [
    426506182,
    426506183,
    426506184,
    426506185,
    426506186,
    426506187,
    426506188,
    426506189,
    426506190,
    426506191,
    426506192,
    426506193,
    426506194,
    426506182
  ],
  "tags": {
    "building": "yes",
    "height": "8 m",
    "it:fvg:ctrn:code": "4AIN",
    "it:fvg:ctrn:revision": "1A0",
    "name": "Museo Centrale Idrodinamica",
    "smoking": "no",
    "tourism": "museum"
  }
},
{
  "type": "way",
  "id": 36698819,
  "nodes": [
    426603514,
    426603516,
    426603518,
    426603520,
    426603521,
    426603523,
    426603525,
    426603527,
    426603529,
    426603530,
    426603531,
    426603532,
    426603514
  ],
  "tags": {
    "building": "yes",
    "height": "10 m",
    "it:fvg:ctrn:code": "4AED",
    "it:fvg:ctrn:revision": "1A0",
    "name": "Museo Paleocristiano",
    "tourism": "museum",
    "wikipedia": "it:Museo paleocristiano di Monastero"
  }
},
{
  "type": "way",
  "id": 36699708,
  "nodes": [
    426613200,
    426613201,
    426613202,
    426613203,
    426613204,
    426613205,
    426613206,
    426613207,
    426613208,
    426613209,
    426613200
  ],
  "tags": {
    "building": "yes",
    "height": "8 m",
    "it:fvg:ctrn:code": "4AED",
    "it:fvg:ctrn:revision": "1A0",
    "name": "Casa Pasqualis",
    "tourism": "museum"
  }
},
{
  "type": "way",
  "id": 36699727,
  "nodes": [
    426613460,
    426613461,
    426613462,
    426613463,
    426613464,
    426613465,
    426613466,
    426613467,
    426613468,
    426613469,
    426613470,
    426613471,
    426613472,
    426613473,
    426613474,
    426613460
  ],
  "tags": {
    "addr:city": "Aquileia",
    "addr:housenumber": "1",
    "addr:postcode": "33051",
    "addr:street": "Via Roma",
    "building": "yes",
    "email": "museoarcheoaquileia@beniculturali.it",
    "height": "14 m",
    "it:fvg:ctrn:code": "4AED",
    "it:fvg:ctrn:revision": "1A0",
    "name": "Museo Archeologico Nazionale",
    "name:de": "Archäologisches Nationalmuseum Aquileia",
    "name:fr": "Musée archéologique national d'Aquilée",
    "name:fur": "Museu archeologic nazionâl di Aquilee",
    "opening_hours": "Tu-Su 10:00-19:00; Mo off; Jan 1 off; Dec 25 off",
    "phone": "+39 0431 91016",
    "tourism": "museum",
    "website": "http://www.museoarcheologicoaquileia.beniculturali.it",
    "wheelchair": "yes",
    "wikipedia": "it:Museo archeologico nazionale di Aquileia"
  }
},
{
  "type": "way",
  "id": 36700066,
  "nodes": [
    426616075,
    426616076,
    426616077,
    426616078,
    426616079,
    426616080,
    426616081,
    426616082,
    426616083,
    426616084,
    426616085,
    426616086,
    426616087,
    426616088,
    426616089,
    426616090,
    426616091,
    426616093,
    426616075
  ],
  "tags": {
    "building": "yes",
    "height": "10 m",
    "it:fvg:ctrn:code": "4AED",
    "it:fvg:ctrn:revision": "1A0",
    "name": "Museo Civico del Patriarcato",
    "tourism": "museum"
  }
},
{
  "type": "way",
  "id": 74558410,
  "nodes": [
    881111521,
    881111463,
    881111517,
    881111535,
    881111502,
    1799161003,
    1799161014,
    1799161009,
    1799161018,
    1799161021,
    881111509,
    1799161033,
    1799161029,
    1799161045,
    1799161038,
    881111543,
    881111545,
    881111521
  ],
  "tags": {
    "name": "Museo Civico di Storia e Arte",
    "name:hu": "Városi Történeti és Művészeti Múzeum",
    "tourism": "museum",
    "website": "http://www.museostoriaeartetrieste.it/"
  }
},
{
  "type": "way",
  "id": 90274557,
  "nodes": [
    1046750665,
    1046750690,
    1046750693,
    1046750644,
    1046750665
  ],
  "tags": {
    "building": "yes",
    "name": "Muzej grada Umaga",
    "tourism": "museum"
  }
},
{
  "type": "way",
  "id": 102184433,
  "nodes": [
    1179313290,
    1179313334,
    1179313319,
    1179313308,
    1179313290
  ],
  "tags": {
    "building": "yes",
    "name": "Kaštel Grožnjan",
    "source": "http://www.putovnica.net/galerije-slika/groznjan-slike-galerija",
    "tourism": "museum"
  }
},
{
  "type": "way",
  "id": 130228702,
  "nodes": [
    1435208856,
    1435208857,
    1435208853,
    1435208851,
    1435208850,
    1435208856
  ],
  "tags": {
    "building": "yes",
    "name": "Muzej kočij",
    "name:de": "Das Kutschenmuseum",
    "name:en": "The Carriage Museum",
    "name:it": "Museo delle carrozze",
    "tourism": "museum"
  }
},
{
  "type": "way",
  "id": 155713072,
  "nodes": [
    1680780305,
    1680780299,
    1680780300,
    1680780303,
    1680780304,
    1680780306,
    1680780302,
    1680780297,
    1680780298,
    1680780301,
    1680780305
  ],
  "tags": {
    "name": "Museo Ugo Carà",
    "tourism": "museum",
    "wikidata": "Q55340551"
  }
},
{
  "type": "way",
  "id": 181590078,
  "nodes": [
    1920029478,
    1920029483,
    1920029485,
    1920029481,
    1920029478
  ],
  "tags": {
    "addr:city": "Izola",
    "addr:housenumber": "3",
    "addr:postcode": "6310",
    "addr:street": "Ulica Alme Vivoda",
    "building": "yes",
    "name": "Muzej Parenzana",
    "name:cs": "Muzeum Parenzana",
    "name:it": "Museo Parenzana",
    "tourism": "museum",
    "website": "http://www.parenzana.net/si/muzeji/5598"
  }
},
{
  "type": "way",
  "id": 194468689,
  "nodes": [
    2049742968,
    2049742964,
    2049742967,
    2049742965,
    2049742968
  ],
  "tags": {
    "building": "yes",
    "name": "Pokrajinski muzej Koper",
    "name:en": "Regional museum of Koper",
    "name:it": "Museo regionale di Capodistria",
    "roof:material": "roof_tiles",
    "roof:shape": "gabled",
    "tourism": "museum",
    "wikidata": "Q7309106"
  }
},
{
  "type": "way",
  "id": 203749465,
  "nodes": [
    2137463086,
    2137463085,
    2137463087,
    2137463088,
    2137463086
  ],
  "tags": {
    "building": "yes",
    "building:levels": "3",
    "name": "Zavičajni muzej Poreštine",
    "name:de": "Regionales Museum Porec",
    "name:en": "Regional Museum Porec",
    "name:es": "Museo Regional de Porec",
    "name:hr": "Zavičajni muzej Poreštine",
    "tourism": "museum"
  }
},
{
  "type": "way",
  "id": 240525736,
  "nodes": [
    2482529529,
    2482529530,
    2482529531,
    2482529532,
    2482529533,
    2482529534,
    2482529535,
    2482529536,
    2482529528,
    2482529537,
    2482529538,
    2482529539,
    2482529540,
    2482529541,
    2482529529
  ],
  "tags": {
    "addr:city": "Izola - Isola",
    "addr:housenumber": "1",
    "addr:postcode": "6310",
    "addr:street": "Kraška ulica",
    "building": "yes",
    "name": "Železniška postaja Parenzane",
    "name:it": "Stazione della Parenzana",
    "tourism": "museum"
  }
},
{
  "type": "way",
  "id": 315104190,
  "nodes": [
    3211989201,
    3211989209,
    3211989204,
    3211989184,
    6853719918,
    3211989201
  ],
  "tags": {
    "addr:city": "Buzet",
    "addr:housenumber": "5",
    "addr:postcode": "52420",
    "addr:street": "Rašporskih kapetana",
    "building": "yes",
    "building:levels": "3",
    "name": "Zavičajni muzej Buzet",
    "source": "bing;local knowledge",
    "tourism": "museum"
  }
},
{
  "type": "way",
  "id": 362391123,
  "nodes": [
    3667112512,
    3667112510,
    3667112508,
    3667112504,
    3667112500,
    3667112496,
    3667112492,
    3667112490,
    3667112487,
    3667112489,
    3667112491,
    3667112493,
    3667112497,
    3667112501,
    3667112505,
    3667112509,
    3667112511,
    3667112512
  ],
  "tags": {
    "addr:city": "Lokev",
    "addr:housenumber": "127",
    "addr:place": "Lokev",
    "addr:postcode": "6219",
    "building": "yes",
    "name": "Vojaški muzej Tabor",
    "operator": "Rože Srečko",
    "phone": "+386 5 767 01 07;+386 41 516 586",
    "tourism": "museum"
  }
},
{
  "type": "way",
  "id": 537902178,
  "nodes": [
    3024987283,
    5207805797,
    5207805798,
    5207805799,
    3024987283
  ],
  "tags": {
    "building": "yes",
    "name": "Lapidarium",
    "tourism": "museum"
  }
},
{
  "type": "way",
  "id": 544665063,
  "nodes": [
    5264859565,
    5264862135,
    5264859566,
    5264862131,
    5264859567,
    5264859568,
    5264859569,
    5264859570,
    5264859571,
    5264859572,
    5264859573,
    5264859574,
    5264859575,
    5264859576,
    5264859577,
    5264859578,
    5264859579,
    5264859580,
    5264859565
  ],
  "tags": {
    "addr:city": "Nova Vas",
    "addr:housenumber": "14",
    "addr:postcode": "52446",
    "addr:street": "Tarska",
    "email": "info@baredine.com",
    "name": "Traktor Story",
    "opening_hours": "Mo-Su 10:00-15:00",
    "operator": "Baredine doo",
    "phone": "+385 95 421 4210",
    "tourism": "museum",
    "website": "www.traktorstory.com"
  }
},
{
  "type": "way",
  "id": 578667825,
  "nodes": [
    424896931,
    424896944,
    424896945,
    5543992225,
    424896946,
    424896947,
    3633911750,
    5543992228,
    424896948,
    424896949,
    5543992227,
    424896929,
    424896930,
    424896931
  ],
  "tags": {
    "addr:housenumber": "2",
    "addr:postcode": "34132",
    "addr:street": "Corso Cavour",
    "building": "public",
    "name": "Magazzino delle Idee",
    "phone": "+39 040 3774783",
    "tourism": "museum",
    "website": "http://erpac.regione.fvg.it/"
  }
},
{
  "type": "way",
  "id": 664167977,
  "nodes": [
    6216514164,
    6216514163,
    6216514162,
    6216514161,
    6216514160,
    6216514159,
    6216514158,
    6216514157,
    6216514164
  ],
  "tags": {
    "building": "yes",
    "name": "Kosovelova domačija",
    "tourism": "museum"
  }
},
{
  "type": "way",
  "id": 678408525,
  "nodes": [
    6352276787,
    6352276788,
    6352276789,
    6352276790,
    6352276791,
    6352276792,
    6352276793,
    6352276794,
    6352276787
  ],
  "tags": {
    "building": "yes",
    "tourism": "museum"
  }
},
{
  "type": "way",
  "id": 705584251,
  "nodes": [
    6629656490,
    677037729,
    676534585,
    2508131364,
    676534588,
    6629656493,
    6629656494,
    7200534149,
    6629656495,
    6629656496,
    6629656497,
    6629656490
  ],
  "tags": {
    "building": "yes",
    "tourism": "museum"
  }
},
{
  "type": "way",
  "id": 729959625,
  "nodes": [
    6838071862,
    6838071861,
    6838107854,
    6838071860,
    6838071859,
    6838107864,
    6838107855,
    6838071858,
    6838071857,
    6838071854,
    6838071856,
    6838071855,
    6838071865,
    6838071862
  ],
  "tags": {
    "building": "yes",
    "email": "info@ribiski-muzej.it",
    "facebook": "https://www.facebook.com/ribiskimuzej/",
    "name": "Ribiški muzej tržaškega primorja",
    "name:it": "Museo della Pesca del Litorale Triestino",
    "name:sl": "Ribiški muzej tržaškega primorja",
    "opening_hours": "Sa-Su 11:00-13:00",
    "operator": "Kulturno društvo Ribiški muzej tržaškega primorja",
    "tourism": "museum",
    "website": "http://www.ribiski-muzej.it/",
    "wheelchair": "yes"
  }
},
{
  "type": "relation",
  "id": 3964390,
  "members": [
    {
      "type": "way",
      "ref": 298139423,
      "role": "inner"
    },
    {
      "type": "way",
      "ref": 298139436,
      "role": "outer"
    }
  ],
  "tags": {
    "building": "yes",
    "tourism": "museum",
    "type": "multipolygon"
  }
},
{
  "type": "node",
  "id": 426613203,
  "lat": 45.7681086,
  "lon": 13.3693100
},
{
  "type": "node",
  "id": 426613204,
  "lat": 45.7681300,
  "lon": 13.3693001
},
{
  "type": "node",
  "id": 426613205,
  "lat": 45.7681269,
  "lon": 13.3692838
},
{
  "type": "node",
  "id": 426613206,
  "lat": 45.7681802,
  "lon": 13.3692577
},
{
  "type": "node",
  "id": 426613207,
  "lat": 45.7681474,
  "lon": 13.3691268
},
{
  "type": "node",
  "id": 426613208,
  "lat": 45.7682138,
  "lon": 13.3690973
},
{
  "type": "node",
  "id": 426613209,
  "lat": 45.7682700,
  "lon": 13.3693177
},
{
  "type": "node",
  "id": 426613460,
  "lat": 45.7677495,
  "lon": 13.3685654
},
{
  "type": "node",
  "id": 426613461,
  "lat": 45.7678120,
  "lon": 13.3687714
},
{
  "type": "node",
  "id": 426613462,
  "lat": 45.7678041,
  "lon": 13.3687771
},
{
  "type": "node",
  "id": 426613463,
  "lat": 45.7677995,
  "lon": 13.3687662
},
{
  "type": "node",
  "id": 426613464,
  "lat": 45.7677425,
  "lon": 13.3688058
},
{
  "type": "node",
  "id": 426613465,
  "lat": 45.7677465,
  "lon": 13.3688247
},
{
  "type": "node",
  "id": 426613466,
  "lat": 45.7677296,
  "lon": 13.3688366
},
{
  "type": "node",
  "id": 426613467,
  "lat": 45.7677210,
  "lon": 13.3688037
},
{
  "type": "node",
  "id": 426613468,
  "lat": 45.7677014,
  "lon": 13.3688153
},
{
  "type": "node",
  "id": 426613469,
  "lat": 45.7676109,
  "lon": 13.3688689
},
{
  "type": "node",
  "id": 426613470,
  "lat": 45.7675153,
  "lon": 13.3689254
},
{
  "type": "node",
  "id": 426613471,
  "lat": 45.7674635,
  "lon": 13.3687565
},
{
  "type": "node",
  "id": 426613472,
  "lat": 45.7675638,
  "lon": 13.3686953
},
{
  "type": "node",
  "id": 426613473,
  "lat": 45.7676404,
  "lon": 13.3686486
},
{
  "type": "node",
  "id": 426613474,
  "lat": 45.7676328,
  "lon": 13.3686335
},
{
  "type": "node",
  "id": 426616075,
  "lat": 45.7696886,
  "lon": 13.3692836
},
{
  "type": "node",
  "id": 426616078,
  "lat": 45.7697693,
  "lon": 13.3693436
},
{
  "type": "node",
  "id": 426616093,
  "lat": 45.7696101,
  "lon": 13.3693318
},
{
  "type": "node",
  "id": 426613200,
  "lat": 45.7681503,
  "lon": 13.3693733
},
{
  "type": "node",
  "id": 426613201,
  "lat": 45.7681438,
  "lon": 13.3693592
},
{
  "type": "node",
  "id": 426613202,
  "lat": 45.7681212,
  "lon": 13.3693692
},
{
  "type": "node",
  "id": 426616076,
  "lat": 45.7697188,
  "lon": 13.3693696
},
{
  "type": "node",
  "id": 426616077,
  "lat": 45.7697567,
  "lon": 13.3693464
},
{
  "type": "node",
  "id": 426616079,
  "lat": 45.7697740,
  "lon": 13.3693450
},
{
  "type": "node",
  "id": 426616080,
  "lat": 45.7697796,
  "lon": 13.3693513
},
{
  "type": "node",
  "id": 426616081,
  "lat": 45.7697817,
  "lon": 13.3693621
},
{
  "type": "node",
  "id": 426616082,
  "lat": 45.7697811,
  "lon": 13.3693751
},
{
  "type": "node",
  "id": 426616083,
  "lat": 45.7697759,
  "lon": 13.3693880
},
{
  "type": "node",
  "id": 426616084,
  "lat": 45.7697690,
  "lon": 13.3693921
},
{
  "type": "node",
  "id": 426616085,
  "lat": 45.7697757,
  "lon": 13.3694182
},
{
  "type": "node",
  "id": 426616086,
  "lat": 45.7697791,
  "lon": 13.3694315
},
{
  "type": "node",
  "id": 426616087,
  "lat": 45.7698257,
  "lon": 13.3694041
},
{
  "type": "node",
  "id": 426616088,
  "lat": 45.7698310,
  "lon": 13.3694250
},
{
  "type": "node",
  "id": 426616089,
  "lat": 45.7698380,
  "lon": 13.3694207
},
{
  "type": "node",
  "id": 426616090,
  "lat": 45.7698719,
  "lon": 13.3695309
},
{
  "type": "node",
  "id": 426616091,
  "lat": 45.7697079,
  "lon": 13.3696394
},
{
  "type": "node",
  "id": 426603514,
  "lat": 45.7776759,
  "lon": 13.3705008
},
{
  "type": "node",
  "id": 426603516,
  "lat": 45.7777453,
  "lon": 13.3707804
},
{
  "type": "node",
  "id": 426603518,
  "lat": 45.7777390,
  "lon": 13.3707849
},
{
  "type": "node",
  "id": 426603520,
  "lat": 45.7779120,
  "lon": 13.3714971
},
{
  "type": "node",
  "id": 426603521,
  "lat": 45.7779177,
  "lon": 13.3714927
},
{
  "type": "node",
  "id": 426603523,
  "lat": 45.7779821,
  "lon": 13.3717758
},
{
  "type": "node",
  "id": 426603525,
  "lat": 45.7778092,
  "lon": 13.3718645
},
{
  "type": "node",
  "id": 426603527,
  "lat": 45.7777399,
  "lon": 13.3715872
},
{
  "type": "node",
  "id": 426603529,
  "lat": 45.7777482,
  "lon": 13.3715834
},
{
  "type": "node",
  "id": 426603530,
  "lat": 45.7775729,
  "lon": 13.3708643
},
{
  "type": "node",
  "id": 426603531,
  "lat": 45.7775676,
  "lon": 13.3708683
},
{
  "type": "node",
  "id": 426603532,
  "lat": 45.7775015,
  "lon": 13.3705914
},
{
  "type": "node",
  "id": 2137463085,
  "lat": 45.2280415,
  "lon": 13.5918421
},
{
  "type": "node",
  "id": 2137463086,
  "lat": 45.2280563,
  "lon": 13.5917240
},
{
  "type": "node",
  "id": 2137463087,
  "lat": 45.2281629,
  "lon": 13.5918729
},
{
  "type": "node",
  "id": 2137463088,
  "lat": 45.2281778,
  "lon": 13.5917548
},
{
  "type": "node",
  "id": 2137263330,
  "lat": 45.2285348,
  "lon": 13.5930439
},
{
  "type": "node",
  "id": 2137263343,
  "lat": 45.2286754,
  "lon": 13.5930132
},
{
  "type": "node",
  "id": 3020440666,
  "lat": 45.2289062,
  "lon": 13.5930651
},
{
  "type": "node",
  "id": 3020440669,
  "lat": 45.2290649,
  "lon": 13.5929337
},
{
  "type": "node",
  "id": 3020440671,
  "lat": 45.2289950,
  "lon": 13.5930624
},
{
  "type": "node",
  "id": 3020440672,
  "lat": 45.2285806,
  "lon": 13.5931855
},
{
  "type": "node",
  "id": 3020440673,
  "lat": 45.2288797,
  "lon": 13.5931671
},
{
  "type": "node",
  "id": 3020440682,
  "lat": 45.2285676,
  "lon": 13.5929950
},
{
  "type": "node",
  "id": 3020440684,
  "lat": 45.2287526,
  "lon": 13.5933052
},
{
  "type": "node",
  "id": 3020440687,
  "lat": 45.2288608,
  "lon": 13.5933253
},
{
  "type": "node",
  "id": 3020440688,
  "lat": 45.2285730,
  "lon": 13.5932598
},
{
  "type": "node",
  "id": 3020440689,
  "lat": 45.2284837,
  "lon": 13.5932974
},
{
  "type": "node",
  "id": 3020440696,
  "lat": 45.2284998,
  "lon": 13.5930702
},
{
  "type": "node",
  "id": 3020440698,
  "lat": 45.2289288,
  "lon": 13.5928935
},
{
  "type": "node",
  "id": 3020440704,
  "lat": 45.2284885,
  "lon": 13.5932293
},
{
  "type": "node",
  "id": 3020440710,
  "lat": 45.2285397,
  "lon": 13.5929903
},
{
  "type": "node",
  "id": 3020440713,
  "lat": 45.2286533,
  "lon": 13.5932896
},
{
  "type": "node",
  "id": 3020440716,
  "lat": 45.2289572,
  "lon": 13.5931831
},
{
  "type": "node",
  "id": 3020440718,
  "lat": 45.2286395,
  "lon": 13.5930071
},
{
  "type": "node",
  "id": 3020440728,
  "lat": 45.2286587,
  "lon": 13.5932073
},
{
  "type": "node",
  "id": 3020440834,
  "lat": 45.2286468,
  "lon": 13.5933309
},
{
  "type": "node",
  "id": 3020440837,
  "lat": 45.2287248,
  "lon": 13.5930276
},
{
  "type": "node",
  "id": 3020440845,
  "lat": 45.2286362,
  "lon": 13.5932730
},
{
  "type": "node",
  "id": 3020440846,
  "lat": 45.2287116,
  "lon": 13.5932153
},
{
  "type": "node",
  "id": 3020440851,
  "lat": 45.2285022,
  "lon": 13.5930354
},
{
  "type": "node",
  "id": 3020440857,
  "lat": 45.2286439,
  "lon": 13.5931987
},
{
  "type": "node",
  "id": 5264859565,
  "lat": 45.2678562,
  "lon": 13.6600556
},
{
  "type": "node",
  "id": 5264859566,
  "lat": 45.2677986,
  "lon": 13.6608095
},
{
  "type": "node",
  "id": 5264859567,
  "lat": 45.2686114,
  "lon": 13.6609902
},
{
  "type": "node",
  "id": 5264859568,
  "lat": 45.2687713,
  "lon": 13.6603044
},
{
  "type": "node",
  "id": 5264859569,
  "lat": 45.2683551,
  "lon": 13.6601736
},
{
  "type": "node",
  "id": 5264859570,
  "lat": 45.2682735,
  "lon": 13.6601499
},
{
  "type": "node",
  "id": 5264859571,
  "lat": 45.2682003,
  "lon": 13.6601677
},
{
  "type": "node",
  "id": 5264859572,
  "lat": 45.2681669,
  "lon": 13.6601499
},
{
  "type": "node",
  "id": 5264859573,
  "lat": 45.2681250,
  "lon": 13.6601053
},
{
  "type": "node",
  "id": 5264859574,
  "lat": 45.2681229,
  "lon": 13.6600577
},
{
  "type": "node",
  "id": 5264859575,
  "lat": 45.2681435,
  "lon": 13.6599584
},
{
  "type": "node",
  "id": 5264859576,
  "lat": 45.2682132,
  "lon": 13.6599590
},
{
  "type": "node",
  "id": 5264859577,
  "lat": 45.2682489,
  "lon": 13.6596537
},
{
  "type": "node",
  "id": 5264859578,
  "lat": 45.2680998,
  "lon": 13.6595841
},
{
  "type": "node",
  "id": 5264859579,
  "lat": 45.2679833,
  "lon": 13.6599783
},
{
  "type": "node",
  "id": 5264859580,
  "lat": 45.2680043,
  "lon": 13.6601187
},
{
  "type": "node",
  "id": 5264862131,
  "lat": 45.2681903,
  "lon": 13.6608966
},
{
  "type": "node",
  "id": 5264862135,
  "lat": 45.2678504,
  "lon": 13.6601323
},
{
  "type": "node",
  "id": 3024987283,
  "lat": 45.3164422,
  "lon": 13.5590829
},
{
  "type": "node",
  "id": 5207805797,
  "lat": 45.3163460,
  "lon": 13.5590084
},
{
  "type": "node",
  "id": 5207805798,
  "lat": 45.3164203,
  "lon": 13.5588141
},
{
  "type": "node",
  "id": 5207805799,
  "lat": 45.3165166,
  "lon": 13.5588886
},
{
  "type": "node",
  "id": 6352276787,
  "lat": 45.3799661,
  "lon": 13.6281507
},
{
  "type": "node",
  "id": 6352276788,
  "lat": 45.3799511,
  "lon": 13.6282090
},
{
  "type": "node",
  "id": 6352276789,
  "lat": 45.3799379,
  "lon": 13.6282021
},
{
  "type": "node",
  "id": 6352276790,
  "lat": 45.3799162,
  "lon": 13.6282865
},
{
  "type": "node",
  "id": 6352276791,
  "lat": 45.3798719,
  "lon": 13.6282634
},
{
  "type": "node",
  "id": 6352276792,
  "lat": 45.3798584,
  "lon": 13.6283157
},
{
  "type": "node",
  "id": 6352276793,
  "lat": 45.3798041,
  "lon": 13.6282874
},
{
  "type": "node",
  "id": 6352276794,
  "lat": 45.3798543,
  "lon": 13.6280924
},
{
  "type": "node",
  "id": 1046750644,
  "lat": 45.4335621,
  "lon": 13.5159928
},
{
  "type": "node",
  "id": 1046750665,
  "lat": 45.4336498,
  "lon": 13.5160065
},
{
  "type": "node",
  "id": 1046750690,
  "lat": 45.4336403,
  "lon": 13.5161300
},
{
  "type": "node",
  "id": 1046750693,
  "lat": 45.4335525,
  "lon": 13.5161161
},
{
  "type": "node",
  "id": 1179313290,
  "lat": 45.3794078,
  "lon": 13.7222980
},
{
  "type": "node",
  "id": 1179313308,
  "lat": 45.3795051,
  "lon": 13.7224018
},
{
  "type": "node",
  "id": 1179313319,
  "lat": 45.3794438,
  "lon": 13.7225082
},
{
  "type": "node",
  "id": 1179313334,
  "lat": 45.3793504,
  "lon": 13.7224190
},
{
  "type": "node",
  "id": 2482529528,
  "lat": 45.5358418,
  "lon": 13.6624359
},
{
  "type": "node",
  "id": 2482529529,
  "lat": 45.5360151,
  "lon": 13.6627260
},
{
  "type": "node",
  "id": 2482529530,
  "lat": 45.5359493,
  "lon": 13.6627734
},
{
  "type": "node",
  "id": 2482529531,
  "lat": 45.5359291,
  "lon": 13.6627164
},
{
  "type": "node",
  "id": 2482529532,
  "lat": 45.5359140,
  "lon": 13.6627273
},
{
  "type": "node",
  "id": 2482529533,
  "lat": 45.5358862,
  "lon": 13.6626488
},
{
  "type": "node",
  "id": 2482529534,
  "lat": 45.5358997,
  "lon": 13.6626391
},
{
  "type": "node",
  "id": 2482529535,
  "lat": 45.5358796,
  "lon": 13.6625820
},
{
  "type": "node",
  "id": 2482529536,
  "lat": 45.5358929,
  "lon": 13.6625720
},
{
  "type": "node",
  "id": 2482529537,
  "lat": 45.5358968,
  "lon": 13.6623941
},
{
  "type": "node",
  "id": 2482529538,
  "lat": 45.5359691,
  "lon": 13.6625865
},
{
  "type": "node",
  "id": 2482529539,
  "lat": 45.5359773,
  "lon": 13.6625806
},
{
  "type": "node",
  "id": 2482529540,
  "lat": 45.5360055,
  "lon": 13.6626603
},
{
  "type": "node",
  "id": 2482529541,
  "lat": 45.5359946,
  "lon": 13.6626683
},
{
  "type": "node",
  "id": 1920029478,
  "lat": 45.5382386,
  "lon": 13.6594722
},
{
  "type": "node",
  "id": 1920029481,
  "lat": 45.5383080,
  "lon": 13.6593855
},
{
  "type": "node",
  "id": 1920029483,
  "lat": 45.5383217,
  "lon": 13.6596078
},
{
  "type": "node",
  "id": 1920029485,
  "lat": 45.5383911,
  "lon": 13.6595212
},
{
  "type": "node",
  "id": 2049742964,
  "lat": 45.5483725,
  "lon": 13.7282617
},
{
  "type": "node",
  "id": 2049742965,
  "lat": 45.5481866,
  "lon": 13.7278969
},
{
  "type": "node",
  "id": 2049742967,
  "lat": 45.5481809,
  "lon": 13.7282671
},
{
  "type": "node",
  "id": 2049742968,
  "lat": 45.5483650,
  "lon": 13.7279613
},
{
  "type": "node",
  "id": 1680780297,
  "lat": 45.6032116,
  "lon": 13.7677144
},
{
  "type": "node",
  "id": 1680780299,
  "lat": 45.6031770,
  "lon": 13.7679131
},
{
  "type": "node",
  "id": 1680780300,
  "lat": 45.6031676,
  "lon": 13.7678648
},
{
  "type": "node",
  "id": 1680780302,
  "lat": 45.6031995,
  "lon": 13.7675832
},
{
  "type": "node",
  "id": 1680780303,
  "lat": 45.6031413,
  "lon": 13.7678756
},
{
  "type": "node",
  "id": 1680780304,
  "lat": 45.6031132,
  "lon": 13.7677441
},
{
  "type": "node",
  "id": 1680780306,
  "lat": 45.6031038,
  "lon": 13.7675939
},
{
  "type": "node",
  "id": 1680780298,
  "lat": 45.6032521,
  "lon": 13.7677897
},
{
  "type": "node",
  "id": 1680780301,
  "lat": 45.6032848,
  "lon": 13.7677734
},
{
  "type": "node",
  "id": 1680780305,
  "lat": 45.6032933,
  "lon": 13.7678863
},
{
  "type": "node",
  "id": 6838071854,
  "lat": 45.7315550,
  "lon": 13.6930484
},
{
  "type": "node",
  "id": 6838071855,
  "lat": 45.7315866,
  "lon": 13.6930176
},
{
  "type": "node",
  "id": 6838071856,
  "lat": 45.7315749,
  "lon": 13.6930086
},
{
  "type": "node",
  "id": 6838071857,
  "lat": 45.7315506,
  "lon": 13.6930572
},
{
  "type": "node",
  "id": 6838071858,
  "lat": 45.7315183,
  "lon": 13.6930284
},
{
  "type": "node",
  "id": 6838071859,
  "lat": 45.7314734,
  "lon": 13.6929687
},
{
  "type": "node",
  "id": 6838071860,
  "lat": 45.7314696,
  "lon": 13.6929747
},
{
  "type": "node",
  "id": 6838071861,
  "lat": 45.7314392,
  "lon": 13.6929265
},
{
  "type": "node",
  "id": 6838071862,
  "lat": 45.7314692,
  "lon": 13.6928802
},
{
  "type": "node",
  "id": 6838071865,
  "lat": 45.7315988,
  "lon": 13.6929915
},
{
  "type": "node",
  "id": 6838107854,
  "lat": 45.7314656,
  "lon": 13.6929683
},
{
  "type": "node",
  "id": 6838107855,
  "lat": 45.7315140,
  "lon": 13.6930344
},
{
  "type": "node",
  "id": 6838107864,
  "lat": 45.7314834,
  "lon": 13.6929845
},
{
  "type": "node",
  "id": 424630465,
  "lat": 45.6453842,
  "lon": 13.7573100
},
{
  "type": "node",
  "id": 424630466,
  "lat": 45.6452612,
  "lon": 13.7575673
},
{
  "type": "node",
  "id": 424630467,
  "lat": 45.6450944,
  "lon": 13.7574054
},
{
  "type": "node",
  "id": 424630468,
  "lat": 45.6452173,
  "lon": 13.7571480
},
{
  "type": "node",
  "id": 424632274,
  "lat": 45.6474412,
  "lon": 13.7636512
},
{
  "type": "node",
  "id": 424632275,
  "lat": 45.6473147,
  "lon": 13.7638211
},
{
  "type": "node",
  "id": 424632276,
  "lat": 45.6472531,
  "lon": 13.7637263
},
{
  "type": "node",
  "id": 424632277,
  "lat": 45.6470384,
  "lon": 13.7633965
},
{
  "type": "node",
  "id": 424632278,
  "lat": 45.6467851,
  "lon": 13.7630069
},
{
  "type": "node",
  "id": 424632279,
  "lat": 45.6469133,
  "lon": 13.7628294
},
{
  "type": "node",
  "id": 424632280,
  "lat": 45.6471693,
  "lon": 13.7632279
},
{
  "type": "node",
  "id": 424632281,
  "lat": 45.6473799,
  "lon": 13.7635558
},
{
  "type": "node",
  "id": 424632282,
  "lat": 45.6464258,
  "lon": 13.7638374
},
{
  "type": "node",
  "id": 424632283,
  "lat": 45.6463645,
  "lon": 13.7637494
},
{
  "type": "node",
  "id": 424632284,
  "lat": 45.6462529,
  "lon": 13.7635894
},
{
  "type": "node",
  "id": 424632285,
  "lat": 45.6463023,
  "lon": 13.7635845
},
{
  "type": "node",
  "id": 424632286,
  "lat": 45.6463023,
  "lon": 13.7634763
},
{
  "type": "node",
  "id": 424632287,
  "lat": 45.6462999,
  "lon": 13.7634128
},
{
  "type": "node",
  "id": 424632288,
  "lat": 45.6462585,
  "lon": 13.7634145
},
{
  "type": "node",
  "id": 424632289,
  "lat": 45.6462625,
  "lon": 13.7634609
},
{
  "type": "node",
  "id": 424632290,
  "lat": 45.6461825,
  "lon": 13.7634594
},
{
  "type": "node",
  "id": 424632291,
  "lat": 45.6461855,
  "lon": 13.7634133
},
{
  "type": "node",
  "id": 424632292,
  "lat": 45.6461007,
  "lon": 13.7634125
},
{
  "type": "node",
  "id": 424632293,
  "lat": 45.6461001,
  "lon": 13.7630442
},
{
  "type": "node",
  "id": 424632294,
  "lat": 45.6461631,
  "lon": 13.7630449
},
{
  "type": "node",
  "id": 424632295,
  "lat": 45.6461638,
  "lon": 13.7629985
},
{
  "type": "node",
  "id": 424632296,
  "lat": 45.6462577,
  "lon": 13.7630062
},
{
  "type": "node",
  "id": 424632297,
  "lat": 45.6462581,
  "lon": 13.7630458
},
{
  "type": "node",
  "id": 424632298,
  "lat": 45.6463642,
  "lon": 13.7630510
},
{
  "type": "node",
  "id": 424632299,
  "lat": 45.6463442,
  "lon": 13.7627937
},
{
  "type": "node",
  "id": 424632300,
  "lat": 45.6463356,
  "lon": 13.7627569
},
{
  "type": "node",
  "id": 424632301,
  "lat": 45.6463208,
  "lon": 13.7626944
},
{
  "type": "node",
  "id": 424632302,
  "lat": 45.6463001,
  "lon": 13.7626566
},
{
  "type": "node",
  "id": 424632303,
  "lat": 45.6463654,
  "lon": 13.7626079
},
{
  "type": "node",
  "id": 424632304,
  "lat": 45.6463820,
  "lon": 13.7626461
},
{
  "type": "node",
  "id": 424632305,
  "lat": 45.6463965,
  "lon": 13.7627029
},
{
  "type": "node",
  "id": 424632306,
  "lat": 45.6464165,
  "lon": 13.7627808
},
{
  "type": "node",
  "id": 424632307,
  "lat": 45.6464210,
  "lon": 13.7630786
},
{
  "type": "node",
  "id": 424847275,
  "lat": 45.6464558,
  "lon": 13.7638316
},
{
  "type": "node",
  "id": 424847276,
  "lat": 45.6464558,
  "lon": 13.7637379
},
{
  "type": "node",
  "id": 4040926325,
  "lat": 45.6469212,
  "lon": 13.7632163
},
{
  "type": "node",
  "id": 4874513701,
  "lat": 45.6464286,
  "lon": 13.7637341
},
{
  "type": "node",
  "id": 881111463,
  "lat": 45.6464000,
  "lon": 13.7712736
},
{
  "type": "node",
  "id": 881111502,
  "lat": 45.6454839,
  "lon": 13.7722414
},
{
  "type": "node",
  "id": 881111509,
  "lat": 45.6459468,
  "lon": 13.7728014
},
{
  "type": "node",
  "id": 881111517,
  "lat": 45.6464510,
  "lon": 13.7710797
},
{
  "type": "node",
  "id": 881111521,
  "lat": 45.6465180,
  "lon": 13.7712960
},
{
  "type": "node",
  "id": 881111535,
  "lat": 45.6461136,
  "lon": 13.7707807
},
{
  "type": "node",
  "id": 881111543,
  "lat": 45.6461627,
  "lon": 13.7719525
},
{
  "type": "node",
  "id": 881111545,
  "lat": 45.6464370,
  "lon": 13.7719891
},
{
  "type": "node",
  "id": 1799161003,
  "lat": 45.6457215,
  "lon": 13.7725036
},
{
  "type": "node",
  "id": 1799161009,
  "lat": 45.6457447,
  "lon": 13.7725990
},
{
  "type": "node",
  "id": 1799161014,
  "lat": 45.6457595,
  "lon": 13.7725407
},
{
  "type": "node",
  "id": 1799161018,
  "lat": 45.6457947,
  "lon": 13.7726613
},
{
  "type": "node",
  "id": 1799161021,
  "lat": 45.6458077,
  "lon": 13.7726468
},
{
  "type": "node",
  "id": 1799161029,
  "lat": 45.6459745,
  "lon": 13.7725301
},
{
  "type": "node",
  "id": 1799161033,
  "lat": 45.6459902,
  "lon": 13.7727634
},
{
  "type": "node",
  "id": 1799161038,
  "lat": 45.6460931,
  "lon": 13.7722005
},
{
  "type": "node",
  "id": 1799161045,
  "lat": 45.6461431,
  "lon": 13.7725500
},
{
  "type": "node",
  "id": 424896929,
  "lat": 45.6543904,
  "lon": 13.7702760
},
{
  "type": "node",
  "id": 424896930,
  "lat": 45.6544612,
  "lon": 13.7699854
},
{
  "type": "node",
  "id": 424896931,
  "lat": 45.6548207,
  "lon": 13.7701648
},
{
  "type": "node",
  "id": 424896944,
  "lat": 45.6547544,
  "lon": 13.7704368
},
{
  "type": "node",
  "id": 424896945,
  "lat": 45.6547503,
  "lon": 13.7704539
},
{
  "type": "node",
  "id": 424896946,
  "lat": 45.6546963,
  "lon": 13.7704270
},
{
  "type": "node",
  "id": 424896947,
  "lat": 45.6546999,
  "lon": 13.7704125
},
{
  "type": "node",
  "id": 424896948,
  "lat": 45.6544473,
  "lon": 13.7702865
},
{
  "type": "node",
  "id": 424896949,
  "lat": 45.6544435,
  "lon": 13.7703025
},
{
  "type": "node",
  "id": 3633911750,
  "lat": 45.6545865,
  "lon": 13.7703559
},
{
  "type": "node",
  "id": 5543992225,
  "lat": 45.6547248,
  "lon": 13.7704412
},
{
  "type": "node",
  "id": 5543992227,
  "lat": 45.6544168,
  "lon": 13.7702891
},
{
  "type": "node",
  "id": 5543992228,
  "lat": 45.6545729,
  "lon": 13.7703492
},
{
  "type": "node",
  "id": 424509461,
  "lat": 45.6666793,
  "lon": 13.7617520
},
{
  "type": "node",
  "id": 424509462,
  "lat": 45.6666751,
  "lon": 13.7617370
},
{
  "type": "node",
  "id": 424509463,
  "lat": 45.6666469,
  "lon": 13.7617539
},
{
  "type": "node",
  "id": 424509464,
  "lat": 45.6665944,
  "lon": 13.7617854
},
{
  "type": "node",
  "id": 424509465,
  "lat": 45.6665740,
  "lon": 13.7617113
},
{
  "type": "node",
  "id": 424509466,
  "lat": 45.6666156,
  "lon": 13.7616881
},
{
  "type": "node",
  "id": 424509467,
  "lat": 45.6665745,
  "lon": 13.7615406
},
{
  "type": "node",
  "id": 424509468,
  "lat": 45.6665332,
  "lon": 13.7615642
},
{
  "type": "node",
  "id": 424509469,
  "lat": 45.6665159,
  "lon": 13.7615018
},
{
  "type": "node",
  "id": 424509470,
  "lat": 45.6665690,
  "lon": 13.7614728
},
{
  "type": "node",
  "id": 424509471,
  "lat": 45.6665958,
  "lon": 13.7614582
},
{
  "type": "node",
  "id": 424509472,
  "lat": 45.6665899,
  "lon": 13.7614361
},
{
  "type": "node",
  "id": 424509473,
  "lat": 45.6667350,
  "lon": 13.7613568
},
{
  "type": "node",
  "id": 426506182,
  "lat": 45.6668195,
  "lon": 13.7616717
},
{
  "type": "node",
  "id": 426506183,
  "lat": 45.6668018,
  "lon": 13.7616058
},
{
  "type": "node",
  "id": 426506184,
  "lat": 45.6667431,
  "lon": 13.7613873
},
{
  "type": "node",
  "id": 426506185,
  "lat": 45.6670506,
  "lon": 13.7612191
},
{
  "type": "node",
  "id": 426506186,
  "lat": 45.6671100,
  "lon": 13.7614265
},
{
  "type": "node",
  "id": 426506187,
  "lat": 45.6671236,
  "lon": 13.7614741
},
{
  "type": "node",
  "id": 426506188,
  "lat": 45.6670014,
  "lon": 13.7615409
},
{
  "type": "node",
  "id": 426506189,
  "lat": 45.6670222,
  "lon": 13.7616180
},
{
  "type": "node",
  "id": 426506190,
  "lat": 45.6669789,
  "lon": 13.7616418
},
{
  "type": "node",
  "id": 426506191,
  "lat": 45.6669743,
  "lon": 13.7616247
},
{
  "type": "node",
  "id": 426506192,
  "lat": 45.6668876,
  "lon": 13.7616734
},
{
  "type": "node",
  "id": 426506193,
  "lat": 45.6668931,
  "lon": 13.7616929
},
{
  "type": "node",
  "id": 426506194,
  "lat": 45.6668348,
  "lon": 13.7617263
},
{
  "type": "node",
  "id": 424577543,
  "lat": 45.6404986,
  "lon": 13.8002979
},
{
  "type": "node",
  "id": 424577544,
  "lat": 45.6404901,
  "lon": 13.8005335
},
{
  "type": "node",
  "id": 424577545,
  "lat": 45.6397203,
  "lon": 13.8005563
},
{
  "type": "node",
  "id": 424577546,
  "lat": 45.6397175,
  "lon": 13.8003204
},
{
  "type": "node",
  "id": 426505112,
  "lat": 45.6404306,
  "lon": 13.8016582
},
{
  "type": "node",
  "id": 426505113,
  "lat": 45.6403107,
  "lon": 13.8016644
},
{
  "type": "node",
  "id": 426505114,
  "lat": 45.6403068,
  "lon": 13.8015172
},
{
  "type": "node",
  "id": 426505115,
  "lat": 45.6402475,
  "lon": 13.8015149
},
{
  "type": "node",
  "id": 426505116,
  "lat": 45.6401892,
  "lon": 13.8015127
},
{
  "type": "node",
  "id": 426505117,
  "lat": 45.6402134,
  "lon": 13.8006540
},
{
  "type": "node",
  "id": 426505118,
  "lat": 45.6402716,
  "lon": 13.8006581
},
{
  "type": "node",
  "id": 426505119,
  "lat": 45.6403972,
  "lon": 13.8006670
},
{
  "type": "node",
  "id": 426505120,
  "lat": 45.6404562,
  "lon": 13.8006711
},
{
  "type": "node",
  "id": 426505121,
  "lat": 45.6404325,
  "lon": 13.8015823
},
{
  "type": "node",
  "id": 7199929792,
  "lat": 45.6403080,
  "lon": 13.8015908
},
{
  "type": "node",
  "id": 7199929793,
  "lat": 45.6401059,
  "lon": 13.8005434
},
{
  "type": "node",
  "id": 424479507,
  "lat": 45.6612000,
  "lon": 13.8031232
},
{
  "type": "node",
  "id": 424479508,
  "lat": 45.6610079,
  "lon": 13.8035463
},
{
  "type": "node",
  "id": 424479509,
  "lat": 45.6609692,
  "lon": 13.8035126
},
{
  "type": "node",
  "id": 424479510,
  "lat": 45.6609450,
  "lon": 13.8035677
},
{
  "type": "node",
  "id": 424479511,
  "lat": 45.6610603,
  "lon": 13.8036725
},
{
  "type": "node",
  "id": 424479512,
  "lat": 45.6610071,
  "lon": 13.8037873
},
{
  "type": "node",
  "id": 424479513,
  "lat": 45.6608869,
  "lon": 13.8036753
},
{
  "type": "node",
  "id": 424479514,
  "lat": 45.6607879,
  "lon": 13.8035832
},
{
  "type": "node",
  "id": 424479515,
  "lat": 45.6608133,
  "lon": 13.8035273
},
{
  "type": "node",
  "id": 424479516,
  "lat": 45.6608650,
  "lon": 13.8034141
},
{
  "type": "node",
  "id": 424479517,
  "lat": 45.6610559,
  "lon": 13.8029920
},
{
  "type": "node",
  "id": 5167064494,
  "lat": 45.6609892,
  "lon": 13.8035300
},
{
  "type": "node",
  "id": 424494490,
  "lat": 45.6728225,
  "lon": 13.8257875
},
{
  "type": "node",
  "id": 424494491,
  "lat": 45.6727331,
  "lon": 13.8257700
},
{
  "type": "node",
  "id": 424494492,
  "lat": 45.6727385,
  "lon": 13.8257035
},
{
  "type": "node",
  "id": 424494493,
  "lat": 45.6728254,
  "lon": 13.8257102
},
{
  "type": "node",
  "id": 424462669,
  "lat": 45.7244520,
  "lon": 13.7910607
},
{
  "type": "node",
  "id": 424462670,
  "lat": 45.7244691,
  "lon": 13.7911652
},
{
  "type": "node",
  "id": 424462672,
  "lat": 45.7244056,
  "lon": 13.7911850
},
{
  "type": "node",
  "id": 424462673,
  "lat": 45.7243946,
  "lon": 13.7910717
},
{
  "type": "node",
  "id": 3211989184,
  "lat": 45.4066944,
  "lon": 13.9683364
},
{
  "type": "node",
  "id": 3211989201,
  "lat": 45.4067820,
  "lon": 13.9681307
},
{
  "type": "node",
  "id": 3211989204,
  "lat": 45.4068305,
  "lon": 13.9684488
},
{
  "type": "node",
  "id": 3211989209,
  "lat": 45.4069181,
  "lon": 13.9682334
},
{
  "type": "node",
  "id": 6853719918,
  "lat": 45.4067497,
  "lon": 13.9682006
},
{
  "type": "node",
  "id": 676534585,
  "lat": 45.6347751,
  "lon": 13.8634761
},
{
  "type": "node",
  "id": 676534588,
  "lat": 45.6348715,
  "lon": 13.8635242
},
{
  "type": "node",
  "id": 677037729,
  "lat": 45.6347939,
  "lon": 13.8634942
},
{
  "type": "node",
  "id": 2508131364,
  "lat": 45.6348052,
  "lon": 13.8634327
},
{
  "type": "node",
  "id": 6629656490,
  "lat": 45.6347608,
  "lon": 13.8635463
},
{
  "type": "node",
  "id": 6629656493,
  "lat": 45.6348552,
  "lon": 13.8635496
},
{
  "type": "node",
  "id": 6629656494,
  "lat": 45.6349168,
  "lon": 13.8636304
},
{
  "type": "node",
  "id": 6629656495,
  "lat": 45.6348769,
  "lon": 13.8636881
},
{
  "type": "node",
  "id": 6629656496,
  "lat": 45.6347715,
  "lon": 13.8635919
},
{
  "type": "node",
  "id": 6629656497,
  "lat": 45.6347830,
  "lon": 13.8635678
},
{
  "type": "node",
  "id": 7200534149,
  "lat": 45.6349138,
  "lon": 13.8636348
},
{
  "type": "node",
  "id": 1435208850,
  "lat": 45.6679637,
  "lon": 13.8804857
},
{
  "type": "node",
  "id": 1435208856,
  "lat": 45.6680562,
  "lon": 13.8804544
},
{
  "type": "node",
  "id": 1435208851,
  "lat": 45.6680050,
  "lon": 13.8807355
},
{
  "type": "node",
  "id": 1435208853,
  "lat": 45.6680241,
  "lon": 13.8808505
},
{
  "type": "node",
  "id": 1435208857,
  "lat": 45.6681166,
  "lon": 13.8808192
},
{
  "type": "node",
  "id": 3667112487,
  "lat": 45.6613309,
  "lon": 13.9282575
},
{
  "type": "node",
  "id": 3667112489,
  "lat": 45.6613316,
  "lon": 13.9282211
},
{
  "type": "node",
  "id": 3667112490,
  "lat": 45.6613395,
  "lon": 13.9282917
},
{
  "type": "node",
  "id": 3667112491,
  "lat": 45.6613414,
  "lon": 13.9281876
},
{
  "type": "node",
  "id": 3667112492,
  "lat": 45.6613561,
  "lon": 13.9283192
},
{
  "type": "node",
  "id": 3667112493,
  "lat": 45.6613590,
  "lon": 13.9281613
},
{
  "type": "node",
  "id": 3667112496,
  "lat": 45.6613785,
  "lon": 13.9283363
},
{
  "type": "node",
  "id": 3667112497,
  "lat": 45.6613821,
  "lon": 13.9281460
},
{
  "type": "node",
  "id": 3667112500,
  "lat": 45.6614037,
  "lon": 13.9283406
},
{
  "type": "node",
  "id": 3667112501,
  "lat": 45.6614074,
  "lon": 13.9281436
},
{
  "type": "node",
  "id": 3667112504,
  "lat": 45.6614284,
  "lon": 13.9283316
},
{
  "type": "node",
  "id": 3667112505,
  "lat": 45.6614317,
  "lon": 13.9281545
},
{
  "type": "node",
  "id": 3667112508,
  "lat": 45.6614491,
  "lon": 13.9283105
},
{
  "type": "node",
  "id": 3667112509,
  "lat": 45.6614516,
  "lon": 13.9281772
},
{
  "type": "node",
  "id": 3667112510,
  "lat": 45.6614630,
  "lon": 13.9282801
},
{
  "type": "node",
  "id": 3667112511,
  "lat": 45.6614644,
  "lon": 13.9282086
},
{
  "type": "node",
  "id": 3667112512,
  "lat": 45.6614684,
  "lon": 13.9282445
},
{
  "type": "node",
  "id": 6216514157,
  "lat": 45.7548744,
  "lon": 13.8502182
},
{
  "type": "node",
  "id": 6216514158,
  "lat": 45.7548211,
  "lon": 13.8501653
},
{
  "type": "node",
  "id": 6216514159,
  "lat": 45.7548319,
  "lon": 13.8501429
},
{
  "type": "node",
  "id": 6216514160,
  "lat": 45.7548004,
  "lon": 13.8501117
},
{
  "type": "node",
  "id": 6216514161,
  "lat": 45.7548333,
  "lon": 13.8500437
},
{
  "type": "node",
  "id": 6216514162,
  "lat": 45.7548711,
  "lon": 13.8500812
},
{
  "type": "node",
  "id": 6216514163,
  "lat": 45.7548834,
  "lon": 13.8500558
},
{
  "type": "node",
  "id": 6216514164,
  "lat": 45.7549303,
  "lon": 13.8501023
},
{
  "type": "way",
  "id": 298139423,
  "nodes": [
    3020440845,
    3020440857,
    3020440672,
    3020440688,
    3020440845
  ]
},
{
  "type": "way",
  "id": 298139436,
  "nodes": [
    3020440689,
    3020440704,
    3020440696,
    3020440851,
    2137263330,
    3020440710,
    3020440682,
    3020440718,
    2137263343,
    3020440728,
    3020440846,
    3020440837,
    3020440666,
    3020440698,
    3020440669,
    3020440671,
    3020440716,
    3020440673,
    3020440687,
    3020440684,
    3020440713,
    3020440834,
    3020440689
  ]
}

  ]
}
