{
  "version": 0.6,
  "generator": "Overpass API 0.7.55.9 ab41fea6",
  "osm3s": {
    "timestamp_osm_base": "2020-02-14T17:20:02Z",
    "copyright": "The data included in this document is from www.openstreetmap.org. The data is made available under ODbL."
  },
  "elements": [

{
  "type": "node",
  "id": 27511603,
  "lat": 59.3415245,
  "lon": 18.0547170,
  "tags": {
    "alt_name": "Observatoriemuseét",
    "check_date": "2020-02-12",
    "description": "Royal Academy of Sciences' observatory and museum.",
    "name": "Observatoriemuseet",
    "name:de": "Observatorium Stockholm",
    "name:en": "Observatory Museum",
    "name:es": "Observatorio de Estocolmo",
    "name:fr": "Observatoire de Stockholm",
    "name:ru": "Стокгольмская обсерватория",
    "tourism": "museum",
    "website": "http://www.observatoriet.kva.se",
    "wikidata": "Q681497"
  }
},
{
  "type": "node",
  "id": 29898032,
  "lat": 59.3263494,
  "lon": 18.0840004,
  "tags": {
    "description:en": "Modern and contemporary art - Pablo Picasso, Salvador Dalí, Henri Matisse, Meret Oppenheim, Robert Rauschenberg, Marcel Duchamp, Carolee Schneemann, Louise Bourgeois, Vera Nilsson, Siri Derkert, Georges Braque (Source: museum website)",
    "fee": "no",
    "musuem": "art",
    "name": "Moderna museet",
    "name:en": "Modern Art Museum",
    "name:es": "Moderna Museet",
    "name:fi": "Moderni museo",
    "name:fr": "Musée d'art moderne",
    "name:ru": "Музей современного искусства",
    "name:uk": "Музей сучасного мистецтва",
    "opening_hours": "Tu 10:00-20:00; We-Th 10:00-18:00; Fr 10:00-20:00; Sa-Su 11:00-18:00",
    "operator": "Statlig förvaltningsmyndighet",
    "start_date": "1958-05-09",
    "toilets:wheelchair": "yes",
    "tourism": "museum",
    "website": "https://www.modernamuseet.se/",
    "wheelchair": "yes",
    "wikidata": "Q1274511",
    "wikipedia": "sv:Moderna museet",
    "wikipedia:en": "Moderna Museet"
  }
},
{
  "type": "node",
  "id": 47704184,
  "lat": 59.3690466,
  "lon": 18.0540033,
  "tags": {
    "check_date": "2019-12-28",
    "description": "The universe, animals and nature; and Cosmonova, Sweden's only IMAX cimema",
    "name": "Naturhistoriska riksmuseet",
    "name:en": "Swedish Museum of Natural History",
    "name:es": "Museo Sueco de Historia Natural",
    "name:fi": "Valtion luonnonhistoriallinen museo",
    "name:fr": "Muséum suédois d'histoire naturelle",
    "name:ru": "Шведский музей естественной истории",
    "name:sv": "Naturhistoriska riksmuseet",
    "opening_hours": "Tu-Su 10:00-18:00",
    "tourism": "museum",
    "website": "http://www.nrm.se",
    "wikidata": "Q1420103",
    "wikipedia": "sv:Naturhistoriska riksmuseet"
  }
},
{
  "type": "node",
  "id": 61277266,
  "lat": 59.3906446,
  "lon": 18.0136132,
  "tags": {
    "description:en": "National Museum's collection of Swedish sculpture from the early 1700s to the 1900s. Housed in Ulriksdal Palace orangery.",
    "name": "Orangerimuseet",
    "name:fi": "Kasvihuonemuseo",
    "name:sv": "Orangerimuseet",
    "operator": "Nationalmuseum",
    "tourism": "museum",
    "website": "www.nationalmuseum.se/sv/Om-samlingarna1/NM-runt-om-i-Sverige/Ulriksdals-slott-med-Orangerimuseet/",
    "wikidata": "Q10611052",
    "wikipedia": "sv:Orangerimuseet"
  }
},
{
  "type": "node",
  "id": 248913932,
  "lat": 59.3528674,
  "lon": 18.0516224,
  "tags": {
    "description": "The collected works of sculptor Carl Eldh (1873-1954)",
    "name": "Carl Eldhs Ateljémuseum",
    "name:en": "Carl Eldh Studio Museum",
    "name:fi": "Carl Eldhin ateljeemuseo",
    "name:sv": "Carl Eldhs Ateljémuseum",
    "phone": "+46-8-6126560",
    "tourism": "museum",
    "website": "https://www.eldhsatelje.se",
    "wikidata": "Q10443031",
    "wikipedia": "sv:Carl Eldhs Ateljémuseum"
  }
},
{
  "type": "node",
  "id": 279804327,
  "lat": 59.3219796,
  "lon": 18.0257709,
  "tags": {
    "description": "Det lilla museet över Carl Michael Bellman, hans liv, sånger och gestalter, Gustaf den III:s Sverige och 1700-talets Stockholm är sammanbyggt med kafé och trädgård.",
    "description:en": "Small museum about Swedish cultural icon, musician Carl Michael Bellman, his life, songs and characters.",
    "name": "Bellmanmuséet",
    "name:en": "Bellman Exhibition",
    "tourism": "museum",
    "website": "http://www.storahenriksvik.se/bellmanmuseet"
  }
},
{
  "type": "node",
  "id": 289851448,
  "lat": 59.3348399,
  "lon": 18.0800458,
  "tags": {
    "description": "Sweden's military museum",
    "name": "Armémuseum",
    "name:en": "Swedish Army Museum",
    "name:fi": "Armeijamuseo",
    "name:fr": "Musée de l'Armée",
    "name:ru": "Музей шведской армии",
    "opening_hours": "Mo-Su 10:00-17:00",
    "tourism": "museum",
    "website": "https://www.armemuseum.se/",
    "wikidata": "Q690002",
    "wikipedia": "sv:Armémuseum"
  }
},
{
  "type": "node",
  "id": 303598950,
  "lat": 59.5084012,
  "lon": 17.9067973,
  "tags": {
    "addr:city": "Upplands Väsby",
    "addr:country": "SE",
    "addr:housenumber": "270",
    "addr:postcode": "194 71",
    "addr:street": "Ryttargatan",
    "email": "gunnes.gard@upplandsvasby.se",
    "name": "Vikingagården Gunnes gård",
    "opening_hours": "Jun-Aug: Tu-Su 10:00-18:00",
    "phone": "+468-590 849 28",
    "start_date": "1989",
    "tourism": "museum",
    "website": "http://www.upplandsvasby.se/gunnes",
    "wikidata": "Q26256576",
    "wikipedia": "sv:Vikingagården Gunnes gård"
  }
},
{
  "type": "node",
  "id": 304572565,
  "lat": 59.3644729,
  "lon": 18.0304628,
  "tags": {
    "description": "Exhibition about Haga Park and its buildings",
    "name": "Haga Parkmuseum",
    "operator": "National Property Board",
    "tourism": "museum",
    "website": "https://www.sfv.se/hagaparkmuseum",
    "wikidata": "Q10515883"
  }
},
{
  "type": "node",
  "id": 304574173,
  "lat": 59.3610244,
  "lon": 18.0160446,
  "tags": {
    "addr:city": "Solna",
    "addr:country": "SE",
    "addr:housenumber": "2",
    "addr:street": "Spetsgatan",
    "address": "Furugatan 3",
    "contact:website": "https://www.solna.se/olleolssonmuseet",
    "description": "Artist's home full of painting for the theatre from 1930s - 1970.",
    "is_in:commune": "Solna",
    "name": "Olle Olsson Hagalund-museet",
    "opening_hours": "Jan-May: We,Su 12:00-16:00; Jun-Aug: Su 12:00-16:00; Sep-Dec: We,Su 12:00-16:00",
    "tourism": "museum",
    "wikidata": "Q18244852",
    "wikipedia": "sv:Olle Olsson Hagalund-museet"
  }
},
{
  "type": "node",
  "id": 304577359,
  "lat": 59.3237313,
  "lon": 18.0730237,
  "tags": {
    "description": "Jewish life, heritage and traditions in Sweden",
    "name": "Judiska museet",
    "name:de": "Jüdisches Museum",
    "name:en": "Jewish Museum",
    "name:he": "המוזיאון היהודי בסטוקהולם",
    "opening_hours": "Mo off;Tu-We 11:00-17:00;Th 11:00-20:00;Fr 11:00-16:00;Sa-Su 11:00-17:00",
    "tourism": "museum",
    "website": "https://judiskamuseet.se/",
    "wikidata": "Q684827",
    "wikipedia": "sv:Judiska museet"
  }
},
{
  "type": "node",
  "id": 304578099,
  "lat": 59.3385242,
  "lon": 18.0566585,
  "tags": {
    "description": "Last home of writer August Strindberg (1849 - 1912)",
    "fee": "yes",
    "museum": "person",
    "name": "Strindbergsmuseet",
    "name:en": "Strindberg Museum",
    "name:fi": "Strindbergin museo",
    "name:sv": "Strindbergsmuseet",
    "opening_hours": "Tu-Su 12:00-16:00",
    "phone": "+46-8-4115354",
    "tourism": "museum",
    "website": "https://www.strindbergsmuseet.se/",
    "wheelchair": "no",
    "wikidata": "Q1890584",
    "wikipedia": "sv:Strindbergsmuseet"
  }
},
{
  "type": "node",
  "id": 304586910,
  "lat": 59.3152528,
  "lon": 18.0193235,
  "tags": {
    "description": "Experimental art, architecture and design.",
    "name": "Färgfabriken",
    "name:en": "Colour Factory",
    "name:sv": "Färgfabriken",
    "tourism": "museum",
    "website": "https://fargfabriken.se/",
    "wheelchair": "yes",
    "wikidata": "Q10500816",
    "wikipedia": "sv:Färgfabriken"
  }
},
{
  "type": "node",
  "id": 304600134,
  "lat": 59.3172955,
  "lon": 18.0706768,
  "tags": {
    "description": "Silk weaving mill with 160-year old working looms",
    "name": "Almgrens Sidenväveri & Museum",
    "name:en": "Almgren Silk-Weaving Mill & Museum",
    "tourism": "museum",
    "website": "www.kasiden.se",
    "wikidata": "Q10542299"
  }
},
{
  "type": "node",
  "id": 304602016,
  "lat": 59.3195947,
  "lon": 18.0712613,
  "tags": {
    "description": "The development of Stockholm from middle ages fortified port to the city of today.",
    "name": "Stadsmuseet i Stockholm",
    "name:en": "Stockholm City Museum",
    "name:fi": "Tukholman kaupunginmuseo",
    "name:ru": "Городской музей",
    "name:sv": "Stadsmuseet i Stockholm",
    "opening_hours": "Tu,We,Fr 12:00-18:00; Th 12:00-20:00; Sa,Su 10:00-16:00",
    "tourism": "museum",
    "website": "https://stadsmuseet.stockholm.se/",
    "wheelchair": "yes",
    "wikidata": "Q1933896",
    "wikipedia": "sv:Stockholms stadsmuseum"
  }
},
{
  "type": "node",
  "id": 304603696,
  "lat": 59.3240797,
  "lon": 18.0680361,
  "tags": {
    "description": "History of the Swedish postal service, postcards and stamps",
    "name": "Postmuseum",
    "name:en": "Post Museum",
    "name:fi": "Postimuseo",
    "name:ru": "Почтовый музей",
    "name:sv": "Postmuseum",
    "opening_hours": "Tu-Su 11:00-16:00",
    "tourism": "museum",
    "website": "http://www.postmuseum.se/",
    "wikidata": "Q712309",
    "wikipedia": "sv:Postmuseum"
  }
},
{
  "type": "node",
  "id": 304603697,
  "lat": 59.3248661,
  "lon": 18.0680167,
  "tags": {
    "description": "\"An exhibition about the bystander.\"",
    "name": "Forum för levande historia",
    "name:en": "Living history forum",
    "name:ru": "Форум \"Живая история\"",
    "opening_hours": "Mo-Fr 12:00-17:00; Sa 12:00-16:00",
    "tourism": "museum",
    "website": "https://www.levandehistoria.se/",
    "wheelchair": "limited"
  }
},
{
  "type": "node",
  "id": 304603727,
  "lat": 59.3252155,
  "lon": 18.0708309,
  "tags": {
    "description": "About the Nobel Prize, Alfred Nobel and the prize winners.",
    "museum": "specialty",
    "name": "Nobelmuseet",
    "name:de": "Nobelmuseum",
    "name:en": "Nobel Museum",
    "name:es": "Museo Nobel",
    "name:fi": "Nobel-museo",
    "name:fr": "Musée Nobel",
    "name:ko": "노벨 박물관",
    "name:pt": "Museu Nobel",
    "name:ru": "Музей Нобеля",
    "name:sv": "Nobelmuseet",
    "opening_hours": "Fr 11:00-20:00; Sa-Su 10:00-18:00; Tu-Th 11:00-17:00",
    "operator": "Nobelmuseet AB",
    "tourism": "museum",
    "website": "http://nobelcenter.se/",
    "wikidata": "Q1968711",
    "wikipedia": "sv:Nobelmuseet"
  }
},
{
  "type": "node",
  "id": 304604287,
  "lat": 59.3258731,
  "lon": 18.0733767,
  "tags": {
    "description:en": "Economic and financial history with coin, gold and silver displays.",
    "museum": "history",
    "name": "Kungliga Myntkabinettet",
    "name:en": "Royal Coin Cabinet",
    "opening_hours": "11:00-17:00",
    "tourism": "museum_closed_for_renovation",
    "website": "http://www.myntkabinettet.se/",
    "wheelchair": "yes",
    "wikidata": "Q1750428",
    "wikipedia": "sv:Kungliga Myntkabinettet"
  }
},
{
  "type": "node",
  "id": 304606190,
  "lat": 59.3266147,
  "lon": 18.0730777,
  "tags": {
    "description": "Royal history: state carriages, costumes, armour and weapons plus a stuffed horse called Streiff.\n",
    "museum": "history",
    "name": "Livrustkammaren",
    "name:de": "Waffenkammer",
    "name:en": "Royal Armoury",
    "name:fi": "Varuskammari",
    "name:ru": "Королевская сокровищница Ливрусткаммарен",
    "opening_hours": "Jan-Apr: Tu-Su 11:00-17:00, Th 11:00-20:00; May-Jun: Tu-Su 11:00-17:00; Jul-Aug: Tu-Su 10:00-18:00; Sep-Dec: Tu-Su 11:00-17:00, Th 11:00-20:00",
    "operator": "Statens Historiska Museer",
    "phone": "+46-8-4023000",
    "tourism": "museum",
    "website": "http://livrustkammaren.se",
    "wheelchair": "yes",
    "wikidata": "Q1636176",
    "wikipedia": "sv:Livrustkammaren"
  }
},
{
  "type": "node",
  "id": 304607835,
  "lat": 59.3274107,
  "lon": 18.0710534,
  "tags": {
    "description": "Explains the 13th century fortifications that underly the Royal Palace",
    "museum": "history",
    "name": "Tre Kronor",
    "name:en": "Tre Kronor Museum",
    "name:ru": "Музей Три Короны",
    "operator": "H.M. Konungens Hovmarskalksämbete",
    "phone": "+4684026130",
    "tourism": "museum",
    "website": "http://www.kungahuset.se/kungligaslotten/kungligaslottet/museumtrekronor",
    "wikidata": "Q10590595",
    "wikipedia": "sv:Museum Tre Kronor"
  }
},
{
  "type": "node",
  "id": 304608689,
  "lat": 59.3287664,
  "lon": 18.0643695,
  "tags": {
    "addr:city": "Stockholm",
    "addr:country": "SE",
    "addr:housenumber": "27",
    "addr:postcode": "111 52",
    "addr:street": "Jakobsgatan",
    "addr:unit": "C",
    "description": "The Royal Academy of Fine Arts was founded in 1735",
    "name": "Konstakademien",
    "name:de": "Kunstakademien",
    "name:en": "Royal Academy of Fine Arts",
    "name:fi": "Taideakatemia",
    "name:sv": "Konstakademien",
    "tourism": "museum",
    "website": "https://konstakademien.se/"
  }
},
{
  "type": "node",
  "id": 304609719,
  "lat": 59.3294531,
  "lon": 18.0672982,
  "tags": {
    "description": "Archaeological museum with focus on ancient cultures around the Mediterranean",
    "name": "Medelhavsmuseet",
    "name:en": "Museum of Mediterranean & Near East Antiquities",
    "name:fi": "Välimerimuseo",
    "name:sv": "Medelhavsmuseet",
    "opening_hours": "Tu-Fr 12:00-20:00; Sa-Su 12:00-17:00",
    "tourism": "museum",
    "website": "http://www.medelhavsmuseet.se",
    "wikidata": "Q1331646",
    "wikipedia": "sv:Medelhavsmuseet"
  }
},
{
  "type": "node",
  "id": 304610243,
  "lat": 59.3296276,
  "lon": 18.0653218,
  "tags": {
    "description": "Dance, theatre, art and photo.",
    "name": "Dansmuseet",
    "name:en": "Dance Museum",
    "name:fi": "Tanssimuseo",
    "name:sv": "Dansmuseet",
    "opening_hours": "Mo-Fr 11:00-16:00; Sa-Su 12:00-16:00",
    "source": "survey",
    "tourism": "museum",
    "website": "www.dansmuseet.se",
    "wikidata": "Q1749479",
    "wikipedia": "sv:Dansmuseet"
  }
},
{
  "type": "node",
  "id": 304618213,
  "lat": 59.3282356,
  "lon": 18.0702333,
  "tags": {
    "name": "Stockholms medeltidsmuseum",
    "name:de": "Stockholmer Mittelaltermuseum",
    "name:en": "Museum of Medieval Stockholm",
    "name:fr": "Musée du Stockholm médiéval",
    "name:ru": "Музей средневековья Medeltidsmuseum",
    "opening_hours": "Tu 12:00-17:00; Th-Su 12:00-17:00; We 12:00-20:00",
    "tourism": "museum",
    "website": "https://medeltidsmuseet.stockholm.se/",
    "wikidata": "Q1632115",
    "wikipedia": "sv:Medeltidsmuseet"
  }
},
{
  "type": "node",
  "id": 304623677,
  "lat": 59.3329276,
  "lon": 18.0786390,
  "tags": {
    "description": "Royal stables with horses and carriages.",
    "name": "H M Konungens Hovstall",
    "name:en": "Royal Mews",
    "name:fi": "Kuninkaalliset hevostallit",
    "name:ru": "Королевские конюшни",
    "phone": "+4684026105",
    "tourism": "museum",
    "website": "https://www.kungahuset.se/",
    "wikidata": "Q10298650",
    "wikipedia": "sv:Hovstallet, Väpnargatan"
  }
},
{
  "type": "node",
  "id": 304624735,
  "lat": 59.3337354,
  "lon": 18.0782367,
  "tags": {
    "description": "An experience centre devoted to the arts of dance, music and theatre, as well as being one of Europe's leading museums for performance",
    "email": "info@scenkonstmuseet.se",
    "name": "Scenkonstmuseet",
    "name:en": "Swedish Museum of Performing Arts",
    "name:ru": "Музей музыки и театра",
    "opening_hours": "Mo-Su 11:00-18:00,We 11:00-20:00",
    "phone": "+46 8 519 567 00",
    "tourism": "museum",
    "website": "https://scenkonstmuseet.se/",
    "wheelchair": "yes",
    "wikidata": "Q18448716",
    "wikipedia": "en:Swedish Museum of Performing Arts"
  }
},
{
  "type": "node",
  "id": 343391620,
  "lat": 59.3250139,
  "lon": 17.8878310,
  "tags": {
    "description:en": "A unique collection of sculptures by Adriaen de Vries (1556–1626), one of the foremost Baroque sculptors.",
    "is_in:attraction": "Drottningholms Slott",
    "name": "Museum de Vries",
    "name:en": "Museum de Vries",
    "tourism": "museum",
    "website:en": "www.nationalmuseum.se",
    "website:sv": "www.kungahuset.se",
    "wikidata": "Q10590596",
    "wikipedia": "sv:Museum de Vries"
  }
},
{
  "type": "node",
  "id": 364733110,
  "lat": 59.4057212,
  "lon": 18.3506989,
  "tags": {
    "description:en": "Local heritage museum, housed in a property owned by accountant Frederick George Blomberg and donated to the town in 1880.",
    "fee": "no",
    "name": "Hembygdsgård Museum",
    "operator": "Vaxholms Hembygdsförening",
    "tourism": "museum",
    "website": "https://www.hembygd.se/vaxholms-hembygdsforening/museet/"
  }
},
{
  "type": "node",
  "id": 373780532,
  "lat": 59.3272883,
  "lon": 18.0907683,
  "tags": {
    "description:en": "Visit a light-ship and an ice-breaker.",
    "fee": "no",
    "name": "Museifartygen",
    "name:en": "Maritime Museum, Stockholm",
    "name:fr": "Musée de la Marine",
    "tourism": "museum",
    "website": "https://www.sjohistoriska.se/sv/Besok/Besok-oss/Galarvarvet/Oppettider-pa-Galarvarvet/"
  }
},
{
  "type": "node",
  "id": 423230832,
  "lat": 59.2001575,
  "lon": 17.6227710,
  "tags": {
    "name": "Tom Tits Experiment",
    "tourism": "museum",
    "wheelchair": "yes",
    "wikidata": "Q10699444"
  }
},
{
  "type": "node",
  "id": 462114043,
  "lat": 59.3937030,
  "lon": 17.9033027,
  "tags": {
    "name": "Tensta konsthall",
    "tourism": "museum",
    "website": "http://www.tenstakonsthall.se/",
    "wikidata": "Q7700727",
    "wikipedia": "sv:Tensta konsthall"
  }
},
{
  "type": "node",
  "id": 508470809,
  "lat": 59.1768407,
  "lon": 18.1388623,
  "tags": {
    "name": "Handens muséum & Smedja",
    "tourism": "museum"
  }
},
{
  "type": "node",
  "id": 624674449,
  "lat": 59.3647698,
  "lon": 17.9630040,
  "tags": {
    "name": "Sundbybergs museum",
    "tourism": "museum",
    "wikidata": "Q15695262"
  }
},
{
  "type": "node",
  "id": 773860969,
  "lat": 59.4403345,
  "lon": 17.9589818,
  "tags": {
    "name": "MC Collection",
    "tourism": "museum",
    "wikidata": "Q10573251"
  }
},
{
  "type": "node",
  "id": 810035234,
  "lat": 59.3331156,
  "lon": 18.1184726,
  "tags": {
    "name": "Polismuseet",
    "name:en": "The Police Museum",
    "name:fi": "Poliisimuseo",
    "name:ru": "Музей полиции",
    "name:sv": "Polismuseet",
    "opening_hours": "Tu-Fr 12:00-17:00; Sa-Su 11:00-17:00",
    "phone": "+46 10 56 38 000",
    "tourism": "museum",
    "website": "https://www.polismuseet.se/",
    "wikidata": "Q10636139",
    "wikipedia": "sv:Polismuseet"
  }
},
{
  "type": "node",
  "id": 810035242,
  "lat": 59.3332127,
  "lon": 18.1170010,
  "tags": {
    "name": "Riksidrottsmuseet",
    "name:en": "National Sports Museum of Sweden",
    "name:fi": "Kansallisurheilumuseo",
    "name:ru": "Национальный музей спорта",
    "name:sv": "Riksidrottsmuseet",
    "opening_hours": "Tu-Fr 12:00-17:00; Sa,Su 11:00-17:00",
    "tourism": "museum",
    "website": "https://www.riksidrottsmuseet.se/",
    "wikidata": "Q10655237",
    "wikipedia": "sv:Riksidrottsmuseet"
  }
},
{
  "type": "node",
  "id": 842056965,
  "lat": 59.3485171,
  "lon": 17.8694519,
  "tags": {
    "addr:city": "Bromma",
    "addr:country": "SE",
    "addr:housenumber": "51",
    "addr:postcode": "161 03",
    "addr:street": "Kanaans väg",
    "description": "Historical working water and steam mill. Listed building",
    "name": "Kvarnvikens kvarn & såg",
    "name:en": "Kvarnvikens mill",
    "tourism": "museum",
    "website": "http://www.kvarnvikensmuseum.se"
  }
},
{
  "type": "node",
  "id": 868261113,
  "lat": 59.3180039,
  "lon": 18.0847007,
  "tags": {
    "description:en": "An international meeting place where everything revolves around photography. Has an exhibition space of 2,500 square meters, and features 4 major exhibitions per year and 15-20 minor exhibitions. Source: Website.",
    "fee": "yes",
    "name": "Fotografiska",
    "name:fi": "Valokuvataiteen museo Fotografiska",
    "name:sv": "Fotografiska",
    "opening_hours": "Mo-Su 09:00-01:00",
    "phone": "+46 8-50900500",
    "toilets:wheelchair": "yes",
    "tourism": "museum",
    "website": "https://www.fotografiska.com/sto/",
    "wheelchair": "yes",
    "wikidata": "Q1439649",
    "wikipedia": "sv:Fotografiska"
  }
},
{
  "type": "node",
  "id": 946691125,
  "lat": 59.3223187,
  "lon": 17.8849856,
  "tags": {
    "is_in:attraction": "Drottningholms Slott",
    "name": "Teatermuseum",
    "name:en": "The Theatre Museum",
    "name:fi": "Teatterimuseo",
    "name:sv": "Teatermuseum",
    "tourism": "museum"
  }
},
{
  "type": "node",
  "id": 1092471973,
  "lat": 59.3258137,
  "lon": 18.0846543,
  "tags": {
    "description:en": "The Swedish national museum of architecture urban planning and design. (Source: Wikipedia:en)",
    "fee": "no",
    "museum": "architecture",
    "name": "Arkitektur- och designcentrum",
    "name:en": "Swedish Centre for Architecture and Design",
    "name:fi": "Arkkitehtuuri- ja designmuseo",
    "name:ru": "Шведский центр архитектуры и дизайна",
    "name:sv": "Arkitektur- och designcentrum",
    "official_name": "Statens centrum för arkitektur och design",
    "old_name": "Arkitekturmuseet",
    "opening_hours": "Tu 10:00-22:00; We-Su 10:00-18:00",
    "operator": "Kulturdepartementet, statlig förvaltningsmyndighet",
    "short_name": "ArkiDes",
    "start_date": "1962",
    "toilets:wheelchair": "yes",
    "tourism": "museum",
    "website": "https://arkdes.se/",
    "wheelchair": "yes",
    "wikidata": "Q4356728",
    "wikipedia": "sv:Arkitekturmuseet"
  }
},
{
  "type": "node",
  "id": 1241136436,
  "lat": 59.3325149,
  "lon": 18.1188400,
  "tags": {
    "check_date": "2020-02-03",
    "email": "info@tekniskamuseet.se",
    "name": "Tekniska museet",
    "name:en": "Swedish National Museum of Science and Technology",
    "name:fi": "Tekniikan museo",
    "name:fr": "Musée national pour les sciences et la technologie",
    "name:ru": "Музей техники",
    "name:sv": "Tekniska museet",
    "opening_hours": "Mo-Tu 10:00-17:00; We 10:00-20:00; Th-Su 10:00-17:00",
    "operator": "Stiftelsen Tekniska museet",
    "operator:type": "private_non_profit",
    "phone": "+46 8 4505600",
    "tourism": "museum",
    "website": "https://www.tekniskamuseet.se/",
    "wheelchair": "yes",
    "wikidata": "Q177550",
    "wikipedia": "sv:Tekniska museet"
  }
},
{
  "type": "node",
  "id": 1329931702,
  "lat": 59.4557841,
  "lon": 18.1136906,
  "tags": {
    "description": "Local history museum in a relocated 1700s farm house.",
    "name": "Hembygdsmuséet",
    "source": "survey",
    "tourism": "museum",
    "website": "https://www.hembygd.se/"
  }
},
{
  "type": "node",
  "id": 1345734398,
  "lat": 59.3582319,
  "lon": 18.4997430,
  "tags": {
    "description": "Öppet söndagar 12-14",
    "name": "Värmdö Hembygdsmuseum",
    "source": "survey",
    "tourism": "museum"
  }
},
{
  "type": "node",
  "id": 1476007025,
  "lat": 59.3273849,
  "lon": 18.0816743,
  "tags": {
    "description:en": "Collections and exhibits of Asian archeology, classical arts, and culture, and a large Asia research library open to the public. (Source: Wikipedia:en)",
    "fee": "yes",
    "name": "Östasiatiska museet",
    "name:en": "Museum of Far Eastern Antiquities",
    "name:es": "Museo de Arte Asiático",
    "name:fi": "Itä-Aasian museo",
    "name:ru": "Музей Восточной Азии",
    "opening_hours": "Tu 10:00-20:00; We-Su 11:00-17:00",
    "start_date": "1926",
    "tourism": "museum",
    "website": "www.ostasiatiska.se",
    "wheelchair": "yes",
    "wikidata": "Q298289",
    "wikipedia": "sv:Östasiatiska museet, Stockholm",
    "wikipedia:en": "Museum of Far Eastern Antiquities, Stockholm"
  }
},
{
  "type": "node",
  "id": 1487851500,
  "lat": 59.4816949,
  "lon": 17.7421850,
  "tags": {
    "name": "Kungsängens Hembygdsgård",
    "tourism": "museum"
  }
},
{
  "type": "node",
  "id": 1571439065,
  "lat": 59.3667052,
  "lon": 18.1360170,
  "tags": {
    "addr:country": "SE",
    "addr:housename": "Villa Fornboda",
    "addr:housenumber": "26A",
    "addr:postcode": "181 32",
    "addr:street": "Lejonvögen",
    "description": "Lidingö island's local museum.",
    "name": "Lidingö museum",
    "operator": "Lidingö Hembygdsförening",
    "source": "survey",
    "tourism": "museum",
    "url": "http://www.lidingo.se/turism/sevardheter/lidingomuseum.4.6b369e361188441f8518000931.html",
    "website": "www.lidingohembygd.se/museet.html",
    "wikidata": "Q10561361"
  }
},
{
  "type": "node",
  "id": 1576009829,
  "lat": 59.3265006,
  "lon": 18.0813253,
  "tags": {
    "description": "Tunnel system built 1939-40 for military defence. Now houses rotating historical exhibitions.",
    "fee": "SEK 150. Children under 19 free.",
    "name": "Bergrummet",
    "name:en": "Skeppsholmen Caverns",
    "operator": "Världskulturmuseerna",
    "operator:en": "The Museums of World Culture",
    "source": "http://www.smvk.se",
    "tourism": "museum"
  }
},
{
  "type": "node",
  "id": 1815123227,
  "lat": 59.3275418,
  "lon": 18.0720537,
  "tags": {
    "description:en": "Open summer only. King Gustav III's personal collection of over 200 sculptures.",
    "museum": "sculpture",
    "name": "Gustav III:s antikmuseum",
    "name:en": "Gustav III's Museum of Antiquities",
    "name:ru": "Музей античных скульптур",
    "operator": "H.M. Konungens Hovmarskalksämbete",
    "phone": "+4684026130",
    "start_date": "1794",
    "tourism": "museum",
    "website": "http://www.kungahuset.se/besokkungligaslotten/kungligaslottet/gustaviiisantikmuseum",
    "wikidata": "Q9282793",
    "wikipedia": "sv:Gustav III:s antikmuseum"
  }
},
{
  "type": "node",
  "id": 1926976309,
  "lat": 59.4223710,
  "lon": 17.9572250,
  "tags": {
    "name": "Lillhersby Hembygdsgård",
    "note": "Open on special events like Swedish Midsummer and Christmas markets",
    "tourism": "museum",
    "wheelchair": "limited"
  }
},
{
  "type": "node",
  "id": 2106971722,
  "lat": 59.3263371,
  "lon": 18.0720615,
  "tags": {
    "description:en": "Swedish monarchy's regalia on permenent display. Gustav Vasa´s sword of state, Erik XIV´s crown, sceptre and orb and Lovisa Ulrika´s crown. (Source: operator website)",
    "museum": "history",
    "name": "Skattkammaren",
    "name:en": "The Treasury",
    "operator": "H.M. Konungens Hovmarskalksämbete",
    "phone": "+4684026130",
    "tourism": "museum",
    "website": "http://www.kungahuset.se/kungligaslotten/kungligaslottet/skattkammaren/",
    "wikidata": "Q9337727",
    "wikipedia": "sv:Skattkammaren"
  }
},
{
  "type": "node",
  "id": 2305426859,
  "lat": 59.3885240,
  "lon": 18.0151378,
  "tags": {
    "description:en": "Small museum in Ulriksdal Palace's stables. Focused on the reconstructed coronation carriage from Queen Kristina's coronation 1650.",
    "name": "Museet för drottning Kristinas kröningsekipage",
    "name:en": "Museum of Queen Kristina's coronation carriage",
    "source": "survey",
    "tourism": "museum",
    "wikidata": "Q10590579",
    "wikipedia": "sv:Museet för drottning Kristinas kröningsekipage"
  }
},
{
  "type": "node",
  "id": 2328267047,
  "lat": 59.3270286,
  "lon": 18.0937996,
  "tags": {
    "description": "Museum about alcohol \"With a focus on the Swedish people’s bittersweet relationship to alcohol\", with tasting rooms, a bar, restaurant, café and shop.",
    "name": "Spritmuseum",
    "name:en": "Museum of Spirits",
    "name:fr": "Musée de l'alcool",
    "opening_hours": "Mo 10:00-17:00; Tu 10:00-20:00; We-Su 10:00-17:00",
    "phone": "+46-8-12131300",
    "tourism": "museum",
    "website": "https://spritmuseum.se/",
    "wikidata": "Q10676610",
    "wikipedia": "sv:Spritmuseum"
  }
},
{
  "type": "node",
  "id": 2392185646,
  "lat": 59.3056753,
  "lon": 18.1204114,
  "tags": {
    "addr:city": "Nacka",
    "addr:country": "SE",
    "addr:housenumber": "23",
    "addr:postcode": "131 54",
    "addr:street": "Järnvägsgatan",
    "entrance": "main",
    "name": "Stockholms läns museum",
    "tourism": "museum",
    "website": "https://stockholmslansmuseum.se/",
    "wikidata": "Q712278",
    "wikipedia": "sv:Stockholms läns museum"
  }
},
{
  "type": "node",
  "id": 2441872775,
  "lat": 59.3291579,
  "lon": 18.0938957,
  "tags": {
    "description": "Collection of Swedish cultural objects from 1520 to the present day.",
    "email": "nordiska@nordiskamuseet.se",
    "fee": "no",
    "int_name": "Nordic Museum",
    "name": "Nordiska museet",
    "name:en": "Nordic Museum",
    "name:es": "Museo_Nórdico",
    "name:fi": "Pohjoismainen museo",
    "name:fr": "Musée nordique",
    "name:ru": "Музей Северных стран",
    "opening_hours": "Mo-Su 10:00-17:00",
    "phone": "+46-8-51954600",
    "tourism": "museum",
    "website": "https://www.nordiskamuseet.se/",
    "wheelchair": "yes",
    "wikidata": "Q1142142",
    "wikipedia": "sv:Nordiska museet"
  }
},
{
  "type": "node",
  "id": 2902937626,
  "lat": 59.2953154,
  "lon": 18.2600845,
  "tags": {
    "addr:country": "SE",
    "addr:housenumber": "3",
    "addr:street": "Brantvägen",
    "museum": "history",
    "name": "Hamn",
    "tourism": "museum",
    "website": "http://hamnmuseum.se/",
    "wikidata": "Q28735552",
    "wikipedia": "sv:Historiearvsmuseet i Nacka",
    "wikipedia:en": "Hamn_(museum)"
  }
},
{
  "type": "node",
  "id": 2954282770,
  "lat": 59.3240523,
  "lon": 18.3842453,
  "tags": {
    "name": "Gustavsbergs Porslinsmuseum",
    "tourism": "museum",
    "wikidata": "Q10511184"
  }
},
{
  "type": "node",
  "id": 2988601073,
  "lat": 59.3248529,
  "lon": 18.1007959,
  "tags": {
    "name": "Tobak- och Tändsticksmuseum",
    "name:en": "Snus and Match Museum",
    "opening_hours": "Tu-Su 11:00-16:00",
    "tourism": "museum",
    "website": "http://www.tobaksochtandsticksmuseum.se",
    "wikidata": "Q61456869"
  }
},
{
  "type": "node",
  "id": 2988628219,
  "lat": 59.3263259,
  "lon": 18.0950202,
  "tags": {
    "description:en": "One of Europe’s biggest and most comprehensive collections of small boats and engines.",
    "name": "Båthall 2",
    "name:en": "Boat Hall 2",
    "opening_hours": "\"open daily only in July and August\"",
    "tourism": "museum",
    "website": "https://www.sjohistoriska.se/sv/Besok/Besok-oss/Galarvarvet/Oppettider-pa-Galarvarvet/"
  }
},
{
  "type": "node",
  "id": 2988628220,
  "lat": 59.3265806,
  "lon": 18.0949292,
  "tags": {
    "check_date": "2020-01-27",
    "fee": "yes",
    "name": "Vikingaliv",
    "name:en": "Museum of Vikings",
    "name:fi": "Viikinkimuseo",
    "name:fr": "Musée des Vikings",
    "name:ru": "Музей викингов",
    "opening_hours": "Mo-Su 10:00-20:00",
    "tourism": "museum",
    "website": "https://www.vikingaliv.se/",
    "wikidata": "Q31871457"
  }
},
{
  "type": "node",
  "id": 3038892949,
  "lat": 59.4028807,
  "lon": 18.3584685,
  "tags": {
    "addr:city": "Vaxholm",
    "addr:country": "SE",
    "addr:housenumber": "1",
    "addr:postcode": "185 99",
    "addr:street": "Kastellet",
    "description:en": "Largest museum in the area. Depicts the history of the archipelago of defense during the five hundred years.",
    "name": "Vaxholms fästnings museum",
    "tourism": "museum",
    "website": "www.vaxholmsfastning.se",
    "wikidata": "Q10713484",
    "wikipedia": "sv:Vaxholms fästnings museum"
  }
},
{
  "type": "node",
  "id": 3413053658,
  "lat": 59.3172178,
  "lon": 18.0869865,
  "tags": {
    "description:en": "\"The Bourgeoisie Rooms\" depicting a merchant class home from the mid-19th century, furnished by Anna Lindhagen, she herself lived prior to her death in 1941. She was a Swedish politician (Social Democrat), social reformer , women's rights activist.",
    "fee": "yes",
    "name": "Stigbergets borgarrum",
    "opening_hours": "Su 13:00-15:00",
    "operator": "Föreningen Stigberget",
    "source:description:en": "Museum website, Wikipedia:sv",
    "tourism": "museum",
    "website": "http://stigbergetsborgarrum.se",
    "wheelchair": "limited",
    "wikidata": "Q60678330",
    "wikipedia": "sv:Anna Lindhagen"
  }
},
{
  "type": "node",
  "id": 3578705227,
  "lat": 59.4542153,
  "lon": 17.8074831,
  "tags": {
    "addr:city": "Järfälla",
    "name": "Bolindermuseet",
    "tourism": "museum",
    "wikidata": "Q19977531"
  }
},
{
  "type": "node",
  "id": 3712578413,
  "lat": 59.0870054,
  "lon": 18.2802039,
  "tags": {
    "name": "Gärsarnas museum",
    "opening_hours": "Jun-Aug Su 12:00-16:00",
    "tourism": "museum",
    "url": "http://www.hembygd.se/galo-garsar-hembygdsforening/morarna-hembygdsgarden/museum/"
  }
},
{
  "type": "node",
  "id": 4581111990,
  "lat": 59.3202222,
  "lon": 18.1145539,
  "tags": {
    "description": "Konstmuseum",
    "name": "Prins Eugens Waldemarsudde",
    "name:sv": "Prins Eugens Waldemarsudde",
    "opening_hours": "Tu, We, Fr-Su 11:00-17:00; Th 11:00-20:00",
    "tourism": "museum",
    "website": "https://www.waldemarsudde.se/",
    "wikidata": "Q537"
  }
},
{
  "type": "node",
  "id": 4889950238,
  "lat": 59.3441237,
  "lon": 18.0597981,
  "tags": {
    "name": "Stockholms Spelmuseum",
    "name:fi": "Tukholman pelimuseo",
    "name:sv": "Stockholms Spelmuseum",
    "opening_hours": "We-Fr 12:00-18:00, Sa-Su 10:00-16:00",
    "tourism": "museum",
    "website": "https://stockholmsspelmuseum.se/"
  }
},
{
  "type": "node",
  "id": 5139575007,
  "lat": 59.1910705,
  "lon": 17.6187336,
  "tags": {
    "tourism": "museum"
  }
},
{
  "type": "node",
  "id": 5227209453,
  "lat": 59.3222975,
  "lon": 18.1486291,
  "tags": {
    "email": "info@thielskagalleriet.se",
    "name": "Thielska galleriet",
    "opening_hours": "Tu-Su 12:00-17:00",
    "phone": "+46 8 662 58 84",
    "tourism": "museum",
    "website": "https://www.thielskagalleriet.se/",
    "wikidata": "Q252259",
    "wikipedia": "sv:Thielska_galleriet"
  }
},
{
  "type": "node",
  "id": 5484382064,
  "lat": 59.3248926,
  "lon": 18.1005657,
  "tags": {
    "name": "Restauration Gubbhyllan",
    "name:en": "Restauration Gubbhyllan",
    "opening_hours": "Tu-Su 11:00-16:00",
    "tourism": "museum"
  }
},
{
  "type": "node",
  "id": 5695819538,
  "lat": 59.2951867,
  "lon": 18.2599718,
  "tags": {
    "name": "Leksaksmuseet",
    "tourism": "museum",
    "website": "http://www.leksaksmuseet.se/",
    "wikipedia": "sv:Leksaksmuseet, Stockholm"
  }
},
{
  "type": "node",
  "id": 6586768241,
  "lat": 59.3633487,
  "lon": 17.9989146,
  "tags": {
    "name": "Hembygdsmuseum",
    "tourism": "museum"
  }
},
{
  "type": "node",
  "id": 6704967571,
  "lat": 59.1631948,
  "lon": 17.8807414,
  "tags": {
    "name": "Naturrum",
    "tourism": "museum"
  }
},
{
  "type": "node",
  "id": 6945152200,
  "lat": 59.3878540,
  "lon": 17.9929368,
  "tags": {
    "name": "Statarmuseet",
    "tourism": "museum"
  }
},
{
  "type": "way",
  "id": 10502251,
  "nodes": [
    90320871,
    90320872,
    2501764668,
    90320873,
    90320874,
    90320875,
    90320877,
    90320878,
    90320879,
    90320880,
    90320881,
    90320883,
    90320884,
    90320885,
    90320886,
    90320887,
    90320889,
    90320890,
    90320891,
    90320893,
    90320895,
    90320897,
    90320898,
    90320899,
    90320900,
    90320901,
    90320902,
    90320903,
    90320904,
    90320871
  ],
  "tags": {
    "building": "yes",
    "building:colour": "white",
    "building:levels": "3",
    "building:material": "plaster",
    "name": "Sjöhistoriska museet",
    "name:en": "Maritime Museum",
    "name:fi": "Merihistoriallinen museo",
    "name:ru": "Морской музей",
    "name:sv": "Sjöhistoriska museet",
    "opening_hours": "Tu-Su 11:00-17:00",
    "phone": "+46 8 51954900",
    "roof:material": "copper",
    "start_date": "1938",
    "tourism": "museum",
    "website": "https://www.sjohistoriska.se/",
    "wheelchair": "yes",
    "wikidata": "Q1647895",
    "wikipedia": "sv:Sjöhistoriska museet"
  }
},
{
  "type": "way",
  "id": 10502303,
  "nodes": [
    90321609,
    2501764825,
    90321610,
    1241136446,
    90321611,
    2307432463,
    90321612,
    90321613,
    90321614,
    90321615,
    2501764579,
    90321616,
    90321609
  ],
  "tags": {
    "building": "yes",
    "building:colour": "red",
    "building:levels": "2",
    "building:material": "wood",
    "description": "220,000 cultural and life style objects from China, Korea, South- and Southeast Asia, The Pacific, the Americas and Africa.",
    "email": "info@etnografiskamuseet.se",
    "name": "Etnografiska museet",
    "name:en": "Museum of Ethnography",
    "name:fi": "Etnografinen museo",
    "name:ru": "Этнографический музей",
    "name:sv": "Etnografiska museet",
    "opening_hours": "Tu, Th-Su 11:00-17:00; We 11:00-20:00",
    "phone": "+46 10 456 12 00",
    "roof:colour": "grey",
    "roof:material": "metal",
    "start_date": "1978",
    "tourism": "museum",
    "website": "http://www.etnografiska.se",
    "wheelchair": "limited",
    "wikidata": "Q1371375",
    "wikipedia": "sv:Etnografiska museet, Stockholm"
  }
},
{
  "type": "way",
  "id": 24968329,
  "nodes": [
    1406078451,
    1863238948,
    2554104722,
    1863238950,
    2554104723,
    2554104724,
    2554104725,
    2554104726,
    2554104728,
    2554104729,
    2554104727,
    2554104730,
    1863238963,
    2554104735,
    2554104736,
    2554104739,
    2554104737,
    2554104738,
    2554104733,
    2554104734,
    2554104732,
    2554104731,
    1863238952,
    271323437,
    271323436,
    271323435,
    271323434,
    271323433,
    2554104718,
    2554104717,
    2554104719,
    2554104720,
    1406078450,
    2554104721,
    1406078451
  ],
  "tags": {
    "building": "museum",
    "building:colour": "brown",
    "building:levels": "3",
    "building:wikidata": "Q10594801",
    "building:wikipedia": "sv:Nationalmuseum (byggnad)",
    "description": "Sweden's leading museum for art and design.",
    "name": "Nationalmuseum",
    "name:en": "National Museum of Fine Arts",
    "name:fi": "Kansallismuseo",
    "name:ru": "Национальный музей",
    "opening_hours": "Tu-We, Fr-Su 11:00-17:00; Th 11:00-21:00",
    "roof:colour": "MediumAquamarine",
    "source": "yahoo_imagery",
    "tourism": "museum",
    "website": "https://www.nationalmuseum.se",
    "wheelchair": "yes",
    "wikidata": "Q842858",
    "wikipedia": "sv:Nationalmuseum, Stockholm"
  }
},
{
  "type": "way",
  "id": 27288534,
  "nodes": [
    299560578,
    1761371825,
    299560470,
    1761294455,
    1761371933,
    1761371863,
    1389941109,
    2441872915,
    1761294477,
    1761294457,
    377926087,
    373498959,
    1761294449,
    1761294474,
    299560472,
    1761294467,
    1761294472,
    1790682662,
    299560474,
    299560583,
    1790682664,
    1790682713,
    3635650261,
    3635650260,
    299560585,
    1790569169,
    299560588,
    2441872860,
    2441872864,
    1761294465,
    299560481,
    1389941106,
    299560589,
    299560578
  ],
  "tags": {
    "building": "museum",
    "building:colour": "red",
    "description": "Almost entire 1628 Swedish warship raised and preserved in the '60s.",
    "fee": "yes",
    "historic": "ship",
    "iconic": "yes",
    "man_made": "surveillance",
    "name": "Vasamuseet",
    "name:de": "Vasa-Museum",
    "name:en": "Vasa Museum",
    "name:es": "Museo_Vasa",
    "name:et": "Vasa muuseum",
    "name:fi": "Vasan museo",
    "name:fr": "Musée Vasa",
    "name:he": "מוזיאון ואסה",
    "name:ko": "바사 박물관",
    "name:ru": "Музей Васа",
    "name:sv": "Vasamuseet",
    "opening_hours": "Th-Tu 10:00-17:00; We 10:00-20:00",
    "phone": "+46-8-51954800",
    "roof:colour": "black",
    "source": "Yahoo;survey",
    "start_date": "1990",
    "surveillance": "indoor",
    "toilets:wheelchair": "yes",
    "tourism": "museum",
    "website": "https://www.vasamuseet.se/",
    "wheelchair": "yes",
    "wikidata": "Q901371",
    "wikipedia": "sv:Vasamuseet"
  }
},
{
  "type": "way",
  "id": 33114307,
  "nodes": [
    373777647,
    2307458791,
    2307458784,
    373777648,
    1590020246,
    373777649,
    373777652,
    1590020585,
    373777647
  ],
  "tags": {
    "building": "museum",
    "building:colour": "darkbrown",
    "building:levels": "3",
    "building:material": "wood",
    "description": "Diorama of Scandinavian mammals and birds intheir natural, ecological habitat.",
    "name": "Biologiska museet",
    "name:en": "Biological Museum",
    "name:fi": "Biologian museo",
    "name:fr": "Musée de la biologie",
    "roof:colour": "darkbrown",
    "roof:material": "wood",
    "start_date": "1893",
    "tourism": "museum",
    "website": "http://www.biologiskamuseet.com/",
    "wikidata": "Q864536",
    "wikipedia": "sv:Biologiska museet, Stockholm"
  }
},
{
  "type": "way",
  "id": 33275424,
  "nodes": [
    377957459,
    2493835627,
    377957498,
    377957508,
    2493835614,
    2493835605,
    377957555,
    377957562,
    377957459
  ],
  "tags": {
    "building": "yes",
    "building:colour": "sandybrown",
    "building:levels": "3",
    "building:material": "wood",
    "description": "Museum about the Swedish pop group, ABBA.",
    "internet_access": "wlan",
    "name": "Abbamuseet",
    "name:en": "Abba The Museum",
    "name:fi": "Abba-museo",
    "name:ru": "Музей АББА",
    "opening_hours": "Mo-Su,PH 09:00-19:00",
    "roof:levels": "1",
    "roof:material": "grass",
    "roof:shape": "flat",
    "source": "survey",
    "start_date": "2013",
    "toilets:wheelchair": "yes",
    "tourism": "museum",
    "website": "http://www.abbathemuseum.com/",
    "wheelchair": "yes",
    "wikidata": "Q2743819",
    "wikipedia": "sv:Abbamuseet"
  }
},
{
  "type": "way",
  "id": 35205940,
  "nodes": [
    412810875,
    377756555,
    412810880,
    1733438637,
    1733438629,
    412810883,
    1733438626,
    413539236,
    1733438624,
    412810875
  ],
  "tags": {
    "building": "yes",
    "building:levels": "5",
    "building:material": "glass",
    "name": "Bonniers konsthall",
    "roof:colour": "gray",
    "roof:shape": "flat",
    "start_date": "2006",
    "tourism": "museum",
    "website": "https://www.bonnierskonsthall.se/",
    "wikidata": "Q10432932",
    "wikipedia": "sv:Bonniers Konsthall"
  }
},
{
  "type": "way",
  "id": 46677335,
  "nodes": [
    596498666,
    596498669,
    596498672,
    596498675,
    596498679,
    596498683,
    596498687,
    596498692,
    596498666
  ],
  "tags": {
    "building": "yes",
    "name": "Birkamuseum",
    "tourism": "museum",
    "wikidata": "Q15638862"
  }
},
{
  "type": "way",
  "id": 49521325,
  "nodes": [
    629261009,
    629261015,
    629261020,
    629261022,
    629261009
  ],
  "tags": {
    "addr:city": "Sollentuna",
    "addr:country": "SE",
    "addr:housenumber": "61",
    "addr:postcode": "19149",
    "addr:street": "Klasrovägen",
    "building": "museum",
    "name": "Klasro skolmuseum",
    "phone": "+46 70 7174251",
    "source": "Yahoo",
    "tourism": "museum",
    "website": "https://www.sollentuna.se/sv/uppleva--gora/kultur-och-noje/sevardheter/Klasro-skolmuseum/",
    "wikidata": "Q10546091",
    "wikipedia": "sv:Klasroskolan"
  }
},
{
  "type": "way",
  "id": 137165681,
  "nodes": [
    1504544192,
    1504544190,
    1504544191,
    1504544193,
    1504544192
  ],
  "tags": {
    "building": "yes",
    "building:colour": "gold",
    "building:levels": "4",
    "building:material": "metal",
    "email": "info@sven-harrys.se",
    "name": "Sven-Harrys konstmuseum",
    "opening_hours": "Mo off; Tu \"prebooked groups only\"; We-Th 11:00-19:00; Sa-Su 11:00-17:00",
    "phone": "+46851160060",
    "start_date": "2011",
    "tourism": "museum",
    "website": "https://www.sven-harrys.se/",
    "wikidata": "Q10684670",
    "wikipedia": "sv:Sven-Harrys konstmuseum"
  }
},
{
  "type": "way",
  "id": 141463240,
  "nodes": [
    1548412650,
    1548412635,
    1548412624,
    1548412673,
    1548412650
  ],
  "tags": {
    "attraction": "animal",
    "building": "yes",
    "name": "Östersjön på Skansen",
    "name:en": "Baltic Sea Science Center",
    "tourism": "museum"
  }
},
{
  "type": "way",
  "id": 166334864,
  "nodes": [
    1777887792,
    1777887790,
    4347063456,
    1777887786,
    1777887788,
    1777887787,
    1777887783,
    1777887780,
    2301967945,
    1777887776,
    2301967941,
    2301967937,
    1777887777,
    4347063446,
    1777887784,
    1777887791,
    1777887796,
    1777887798,
    1777887793,
    2301967942,
    1777887795,
    1777887800,
    2301967948,
    1777887801,
    1777887799,
    2301967950,
    1777887794,
    2301967939,
    1777887792
  ],
  "tags": {
    "attraction": "art",
    "building": "yes",
    "building:colour": "black",
    "building:levels": "3",
    "building:material": "wood",
    "description": "\"Art, Activities and Archipelago\". Art gallery, shop, event venue with artist spaces, activty areas for children, conference rooms and 2 restaurants.",
    "fee": "yes",
    "name": "Artipelag",
    "roof:shape": "flat",
    "tourism": "museum",
    "website": "https://www.artipelag.se/",
    "wikidata": "Q10547689",
    "wikipedia": "sv:Artipelag"
  }
},
{
  "type": "way",
  "id": 174676539,
  "nodes": [
    1853299706,
    6968188429,
    6968188428,
    6968188427,
    6968188426,
    6968188425,
    6929707611,
    1853299702,
    6968188424,
    6968188423,
    6968188422,
    6968188421,
    6968188420,
    6968188419,
    1853299695,
    1853299694,
    1853299696,
    1853299697,
    2060776816,
    1853299698,
    2060776818,
    1853299699,
    1853299700,
    1853299701,
    1853299703,
    2060776827,
    1853299704,
    1853299705,
    6968188431,
    6968188430,
    1853299706
  ],
  "tags": {
    "building": "yes",
    "name": "Naturum Nationalparkernas hus",
    "operator": "Stiftelsen Tyrestaskogen",
    "operator:type": "public",
    "tourism": "museum"
  }
},
{
  "type": "way",
  "id": 174695954,
  "nodes": [
    1853491579,
    1853491580,
    1853491578,
    1853491577,
    1853491579
  ],
  "tags": {
    "building": "yes",
    "name": "Skolmuseet i Svartbäcken",
    "tourism": "museum"
  }
},
{
  "type": "way",
  "id": 224950715,
  "nodes": [
    2337913149,
    2337913143,
    2337913125,
    2337913103,
    2337913149
  ],
  "tags": {
    "building": "yes",
    "building:colour": "red",
    "building:levels": "1",
    "building:material": "wood",
    "name": "Anders Franzénmuseet",
    "roof:colour": "firebrick",
    "roof:material": "roof_tiles",
    "roof:shape": "gabled",
    "source": "Bing",
    "start_date": "1865",
    "tourism": "museum",
    "website": "http://www.dalarohembygd.se/Franzen.html",
    "wikidata": "Q26904322",
    "wikipedia": "sv:Anders Franzénmuseet"
  }
},
{
  "type": "way",
  "id": 233650907,
  "nodes": [
    2420016777,
    2420016772,
    2420016775,
    2420016781,
    2420016777
  ],
  "tags": {
    "addr:city": "Södertälje",
    "addr:country": "SE",
    "addr:housenumber": "1-3",
    "addr:street": "Erik Dahlbergs väg",
    "building": "yes",
    "building:colour": "yellow",
    "building:levels": "2",
    "name": "Biologiska museet",
    "roof:colour": "maroon",
    "roof:material": "roof_tiles",
    "roof:shape": "mansard",
    "source": "Bing",
    "start_date": "1913",
    "tourism": "museum",
    "wikidata": "Q10429776",
    "wikipedia": "sv:Biologiska museet, Södertälje"
  }
},
{
  "type": "way",
  "id": 279075323,
  "nodes": [
    2833323801,
    2833323802,
    2833323803,
    2833323804,
    2833323801
  ],
  "tags": {
    "building": "house",
    "name": "Keramikmuseum",
    "tourism": "museum"
  }
},
{
  "type": "way",
  "id": 340745949,
  "nodes": [
    3479990338,
    3479990357,
    3479990355,
    3479990359,
    3479990358,
    3479990354,
    3479990353,
    3479990334,
    3479990338
  ],
  "tags": {
    "amenity": "cafe",
    "building": "yes",
    "name": "Tumba Bruksmuseum",
    "tourism": "museum",
    "wikidata": "Q10706196"
  }
},
{
  "type": "way",
  "id": 340745975,
  "nodes": [
    3479989981,
    3479990210,
    3479990205,
    3479989976,
    3479989981
  ],
  "tags": {
    "building": "yes",
    "tourism": "museum"
  }
},
{
  "type": "way",
  "id": 340746004,
  "nodes": [
    3479990244,
    3479990247,
    3479990272,
    3479990267,
    3479990244
  ],
  "tags": {
    "building": "warehouse",
    "tourism": "museum"
  }
},
{
  "type": "way",
  "id": 340746015,
  "nodes": [
    3479990337,
    3479990339,
    3479990349,
    3479990347,
    3479990337
  ],
  "tags": {
    "building": "yes",
    "tourism": "museum"
  }
},
{
  "type": "way",
  "id": 340746066,
  "nodes": [
    3479990301,
    3479990306,
    3479990324,
    3479990315,
    3479990301
  ],
  "tags": {
    "building": "yes",
    "tourism": "museum"
  }
},
{
  "type": "way",
  "id": 345713093,
  "nodes": [
    3523597020,
    3523597016,
    3523597021,
    3523597028,
    3523597020
  ],
  "tags": {
    "building": "yes",
    "email": "info@hemvarnsmuseet.se",
    "name": "Hemvärnsmuseet",
    "opening_hours": "We 17:00-20:00, Sa 12:00-16:00",
    "phone": "+46 705-827457",
    "tourism": "museum",
    "website": "https://www.hemvarnet.se/om-organisationen/hemvarnsforbanden/3674/3686",
    "wikipedia": "sv:Hemvärnsmuseet"
  }
},
{
  "type": "way",
  "id": 575518460,
  "nodes": [
    5522281309,
    5522281312,
    264233216,
    264233214,
    264233212,
    5522281311,
    5522281310,
    5522281309
  ],
  "tags": {
    "name": "Skånela hembygdsgård och museeum",
    "tourism": "museum"
  }
},
{
  "type": "way",
  "id": 636802214,
  "nodes": [
    6004535701,
    6004535707,
    6004535697,
    6004520717,
    2638859904,
    2638859933,
    6004520344,
    6004535701
  ],
  "tags": {
    "addr:city": "Åkersberga",
    "addr:country": "SE",
    "addr:housenumber": "24",
    "addr:postcode": "184 31",
    "addr:street": "Norrövägen",
    "name": "Norrö Tingshus",
    "operator": "Österåkers hembygds- och fornminnesförening",
    "tourism": "museum"
  }
},
{
  "type": "way",
  "id": 685432951,
  "nodes": [
    6423329432,
    6423329431,
    6423329430,
    6423329429,
    6423329428,
    6423329427,
    6423329433,
    6423329426,
    599067205,
    6423329425,
    6423329424,
    6423329423,
    6423329432
  ],
  "tags": {
    "building": "windmill",
    "man_made": "windmill",
    "name": "Överby kvarn",
    "start_date": "1850",
    "tourism": "museum",
    "wikidata": "Q10728556",
    "wikipedia": "sv:Överby kvarn",
    "windmill:type": "smock"
  }
},
{
  "type": "relation",
  "id": 93398,
  "members": [
    {
      "type": "way",
      "ref": 32137632,
      "role": "outer"
    },
    {
      "type": "way",
      "ref": 32137642,
      "role": "inner"
    }
  ],
  "tags": {
    "alt_name:es": "Museo_de_Historia",
    "building": "yes",
    "building:colour": "yellow",
    "building:levels": "3",
    "building:material": "plaster",
    "description": "Sweden's history from earliest times to the Middle Ages. Get your Viking fix here.",
    "name": "Historiska Museet",
    "name:en": "Museum of National Antiquities",
    "name:fi": "Valtion historiallinen museo",
    "name:sv": "Historiska museet",
    "opening_hours": "Mo-Su 10:00-17:00",
    "roof:colour": "black",
    "roof:material": "metal",
    "roof:shape": "gabled",
    "tourism": "museum",
    "type": "multipolygon",
    "website": "http://www.historiska.se",
    "wikidata": "Q1726607",
    "wikipedia": "sv:Historiska museet"
  }
},
{
  "type": "relation",
  "id": 2440883,
  "members": [
    {
      "type": "way",
      "ref": 183345519,
      "role": "outer"
    },
    {
      "type": "way",
      "ref": 183345521,
      "role": "inner"
    }
  ],
  "tags": {
    "building": "yes",
    "description": "Private late 19th century palace with Wilhelmina von Hallwyl's collection of Dutch and Flemish painting, porcelain, silver , weapons textiles and household objects.",
    "name": "Hallwylska palatset",
    "name:en": "Hallwyl Museum",
    "opening_hours": "Tu-Su 10:00-19:00",
    "phone": "+46 8 4023099",
    "tourism": "museum",
    "type": "multipolygon",
    "website": "http://hallwylskamuseet.se/",
    "wikidata": "Q4346239",
    "wikipedia": "sv:Hallwylska museet"
  }
},
{
  "type": "node",
  "id": 2833323801,
  "lat": 59.1449583,
  "lon": 17.7895563
},
{
  "type": "node",
  "id": 2833323802,
  "lat": 59.1447831,
  "lon": 17.7894098
},
{
  "type": "node",
  "id": 2833323803,
  "lat": 59.1447445,
  "lon": 17.7895854
},
{
  "type": "node",
  "id": 2833323804,
  "lat": 59.1449197,
  "lon": 17.7897319
},
{
  "type": "node",
  "id": 2337913103,
  "lat": 59.1308724,
  "lon": 18.4078142
},
{
  "type": "node",
  "id": 2337913125,
  "lat": 59.1308631,
  "lon": 18.4077161
},
{
  "type": "node",
  "id": 2337913143,
  "lat": 59.1308260,
  "lon": 18.4077322
},
{
  "type": "node",
  "id": 2337913149,
  "lat": 59.1308342,
  "lon": 18.4078287
},
{
  "type": "node",
  "id": 596498666,
  "lat": 59.3306631,
  "lon": 17.5417180
},
{
  "type": "node",
  "id": 596498669,
  "lat": 59.3303804,
  "lon": 17.5416997
},
{
  "type": "node",
  "id": 596498672,
  "lat": 59.3303714,
  "lon": 17.5422365
},
{
  "type": "node",
  "id": 596498675,
  "lat": 59.3306529,
  "lon": 17.5422547
},
{
  "type": "node",
  "id": 596498679,
  "lat": 59.3306565,
  "lon": 17.5420445
},
{
  "type": "node",
  "id": 596498683,
  "lat": 59.3307193,
  "lon": 17.5420486
},
{
  "type": "node",
  "id": 596498687,
  "lat": 59.3307220,
  "lon": 17.5418882
},
{
  "type": "node",
  "id": 596498692,
  "lat": 59.3306603,
  "lon": 17.5418842
},
{
  "type": "node",
  "id": 2420016772,
  "lat": 59.1995066,
  "lon": 17.6348821
},
{
  "type": "node",
  "id": 2420016775,
  "lat": 59.1995761,
  "lon": 17.6348005
},
{
  "type": "node",
  "id": 2420016777,
  "lat": 59.1995796,
  "lon": 17.6351191
},
{
  "type": "node",
  "id": 2420016781,
  "lat": 59.1996491,
  "lon": 17.6350375
},
{
  "type": "node",
  "id": 3479989976,
  "lat": 59.2007125,
  "lon": 17.8183349
},
{
  "type": "node",
  "id": 3479989981,
  "lat": 59.2007221,
  "lon": 17.8181479
},
{
  "type": "node",
  "id": 3479990205,
  "lat": 59.2008194,
  "lon": 17.8183558
},
{
  "type": "node",
  "id": 3479990210,
  "lat": 59.2008290,
  "lon": 17.8181688
},
{
  "type": "node",
  "id": 3479990244,
  "lat": 59.2009339,
  "lon": 17.8174086
},
{
  "type": "node",
  "id": 3479990247,
  "lat": 59.2009448,
  "lon": 17.8171461
},
{
  "type": "node",
  "id": 3479990267,
  "lat": 59.2010166,
  "lon": 17.8174217
},
{
  "type": "node",
  "id": 3479990272,
  "lat": 59.2010275,
  "lon": 17.8171592
},
{
  "type": "node",
  "id": 3479990301,
  "lat": 59.2011380,
  "lon": 17.8171361
},
{
  "type": "node",
  "id": 3479990306,
  "lat": 59.2011522,
  "lon": 17.8167995
},
{
  "type": "node",
  "id": 3479990315,
  "lat": 59.2012047,
  "lon": 17.8171468
},
{
  "type": "node",
  "id": 3479990324,
  "lat": 59.2012190,
  "lon": 17.8168103
},
{
  "type": "node",
  "id": 3479990334,
  "lat": 59.2012627,
  "lon": 17.8174563
},
{
  "type": "node",
  "id": 3479990337,
  "lat": 59.2012746,
  "lon": 17.8169875
},
{
  "type": "node",
  "id": 3479990338,
  "lat": 59.2012746,
  "lon": 17.8170432
},
{
  "type": "node",
  "id": 3479990339,
  "lat": 59.2012782,
  "lon": 17.8169040
},
{
  "type": "node",
  "id": 3479990347,
  "lat": 59.2013122,
  "lon": 17.8169936
},
{
  "type": "node",
  "id": 3479990349,
  "lat": 59.2013157,
  "lon": 17.8169101
},
{
  "type": "node",
  "id": 3479990353,
  "lat": 59.2013420,
  "lon": 17.8174650
},
{
  "type": "node",
  "id": 3479990354,
  "lat": 59.2013462,
  "lon": 17.8173205
},
{
  "type": "node",
  "id": 3479990355,
  "lat": 59.2013496,
  "lon": 17.8172018
},
{
  "type": "node",
  "id": 3479990357,
  "lat": 59.2013539,
  "lon": 17.8170519
},
{
  "type": "node",
  "id": 3479990358,
  "lat": 59.2013614,
  "lon": 17.8173222
},
{
  "type": "node",
  "id": 3479990359,
  "lat": 59.2013648,
  "lon": 17.8172035
},
{
  "type": "node",
  "id": 3523597016,
  "lat": 59.2616834,
  "lon": 17.7117745
},
{
  "type": "node",
  "id": 3523597020,
  "lat": 59.2617821,
  "lon": 17.7116626
},
{
  "type": "node",
  "id": 3523597021,
  "lat": 59.2618144,
  "lon": 17.7122163
},
{
  "type": "node",
  "id": 3523597028,
  "lat": 59.2619130,
  "lon": 17.7121044
},
{
  "type": "node",
  "id": 629261009,
  "lat": 59.4485173,
  "lon": 17.9274336
},
{
  "type": "node",
  "id": 629261015,
  "lat": 59.4485080,
  "lon": 17.9271964
},
{
  "type": "node",
  "id": 629261020,
  "lat": 59.4486037,
  "lon": 17.9271819
},
{
  "type": "node",
  "id": 629261022,
  "lat": 59.4486130,
  "lon": 17.9274192
},
{
  "type": "node",
  "id": 599067205,
  "lat": 59.4763802,
  "lon": 17.8833110
},
{
  "type": "node",
  "id": 6423329423,
  "lat": 59.4763349,
  "lon": 17.8832898
},
{
  "type": "node",
  "id": 6423329424,
  "lat": 59.4763512,
  "lon": 17.8832802
},
{
  "type": "node",
  "id": 6423329425,
  "lat": 59.4763678,
  "lon": 17.8832880
},
{
  "type": "node",
  "id": 6423329426,
  "lat": 59.4763850,
  "lon": 17.8833432
},
{
  "type": "node",
  "id": 6423329427,
  "lat": 59.4763694,
  "lon": 17.8834002
},
{
  "type": "node",
  "id": 6423329428,
  "lat": 59.4763530,
  "lon": 17.8834097
},
{
  "type": "node",
  "id": 6423329429,
  "lat": 59.4763365,
  "lon": 17.8834020
},
{
  "type": "node",
  "id": 6423329430,
  "lat": 59.4763241,
  "lon": 17.8833789
},
{
  "type": "node",
  "id": 6423329431,
  "lat": 59.4763192,
  "lon": 17.8833467
},
{
  "type": "node",
  "id": 6423329432,
  "lat": 59.4763232,
  "lon": 17.8833141
},
{
  "type": "node",
  "id": 6423329433,
  "lat": 59.4763811,
  "lon": 17.8833758
},
{
  "type": "node",
  "id": 1853491577,
  "lat": 59.1704482,
  "lon": 18.1912925
},
{
  "type": "node",
  "id": 1853491578,
  "lat": 59.1705133,
  "lon": 18.1914865
},
{
  "type": "node",
  "id": 1853491579,
  "lat": 59.1705178,
  "lon": 18.1912064
},
{
  "type": "node",
  "id": 1853491580,
  "lat": 59.1705783,
  "lon": 18.1914005
},
{
  "type": "node",
  "id": 1853299694,
  "lat": 59.1687387,
  "lon": 18.2366375
},
{
  "type": "node",
  "id": 1853299695,
  "lat": 59.1687271,
  "lon": 18.2366016
},
{
  "type": "node",
  "id": 1853299696,
  "lat": 59.1687562,
  "lon": 18.2366406
},
{
  "type": "node",
  "id": 1853299697,
  "lat": 59.1687585,
  "lon": 18.2366889
},
{
  "type": "node",
  "id": 1853299698,
  "lat": 59.1688353,
  "lon": 18.2366866
},
{
  "type": "node",
  "id": 1853299699,
  "lat": 59.1688981,
  "lon": 18.2367407
},
{
  "type": "node",
  "id": 1853299700,
  "lat": 59.1689211,
  "lon": 18.2366583
},
{
  "type": "node",
  "id": 1853299701,
  "lat": 59.1689641,
  "lon": 18.2366465
},
{
  "type": "node",
  "id": 1853299702,
  "lat": 59.1689757,
  "lon": 18.2364542
},
{
  "type": "node",
  "id": 1853299703,
  "lat": 59.1690380,
  "lon": 18.2367145
},
{
  "type": "node",
  "id": 1853299704,
  "lat": 59.1690961,
  "lon": 18.2367511
},
{
  "type": "node",
  "id": 1853299705,
  "lat": 59.1691674,
  "lon": 18.2366968
},
{
  "type": "node",
  "id": 2060776816,
  "lat": 59.1687951,
  "lon": 18.2367002
},
{
  "type": "node",
  "id": 2060776818,
  "lat": 59.1688677,
  "lon": 18.2367455
},
{
  "type": "node",
  "id": 2060776827,
  "lat": 59.1690748,
  "lon": 18.2367134
},
{
  "type": "node",
  "id": 6929707611,
  "lat": 59.1690227,
  "lon": 18.2364667
},
{
  "type": "node",
  "id": 6968188419,
  "lat": 59.1687577,
  "lon": 18.2365738
},
{
  "type": "node",
  "id": 6968188420,
  "lat": 59.1687647,
  "lon": 18.2365311
},
{
  "type": "node",
  "id": 6968188421,
  "lat": 59.1688300,
  "lon": 18.2364701
},
{
  "type": "node",
  "id": 6968188422,
  "lat": 59.1688636,
  "lon": 18.2364577
},
{
  "type": "node",
  "id": 6968188423,
  "lat": 59.1688850,
  "lon": 18.2364910
},
{
  "type": "node",
  "id": 6968188424,
  "lat": 59.1689151,
  "lon": 18.2364699
},
{
  "type": "node",
  "id": 6968188425,
  "lat": 59.1690475,
  "lon": 18.2364995
},
{
  "type": "node",
  "id": 6968188426,
  "lat": 59.1690839,
  "lon": 18.2364692
},
{
  "type": "node",
  "id": 6968188427,
  "lat": 59.1690891,
  "lon": 18.2365116
},
{
  "type": "node",
  "id": 6968188428,
  "lat": 59.1691121,
  "lon": 18.2365220
},
{
  "type": "node",
  "id": 6968188429,
  "lat": 59.1691263,
  "lon": 18.2365002
},
{
  "type": "node",
  "id": 6968188431,
  "lat": 59.1691778,
  "lon": 18.2366557
},
{
  "type": "node",
  "id": 1853299706,
  "lat": 59.1691959,
  "lon": 18.2365504
},
{
  "type": "node",
  "id": 6968188430,
  "lat": 59.1691918,
  "lon": 18.2366110
},
{
  "type": "node",
  "id": 377756555,
  "lat": 59.3370417,
  "lon": 18.0418824
},
{
  "type": "node",
  "id": 412810880,
  "lat": 59.3373274,
  "lon": 18.0420249
},
{
  "type": "node",
  "id": 412810875,
  "lat": 59.3368432,
  "lon": 18.0433053
},
{
  "type": "node",
  "id": 412810883,
  "lat": 59.3369035,
  "lon": 18.0433272
},
{
  "type": "node",
  "id": 413539236,
  "lat": 59.3368698,
  "lon": 18.0433594
},
{
  "type": "node",
  "id": 1504544190,
  "lat": 59.3394076,
  "lon": 18.0437724
},
{
  "type": "node",
  "id": 1504544191,
  "lat": 59.3395417,
  "lon": 18.0442892
},
{
  "type": "node",
  "id": 1733438624,
  "lat": 59.3368518,
  "lon": 18.0433376
},
{
  "type": "node",
  "id": 1733438626,
  "lat": 59.3368905,
  "lon": 18.0433549
},
{
  "type": "node",
  "id": 1733438629,
  "lat": 59.3370417,
  "lon": 18.0428204
},
{
  "type": "node",
  "id": 1733438637,
  "lat": 59.3371746,
  "lon": 18.0424256
},
{
  "type": "node",
  "id": 1937145826,
  "lat": 59.3330646,
  "lon": 18.0743294
},
{
  "type": "node",
  "id": 1937145829,
  "lat": 59.3330723,
  "lon": 18.0747680
},
{
  "type": "node",
  "id": 1937145841,
  "lat": 59.3331734,
  "lon": 18.0747594
},
{
  "type": "node",
  "id": 1937145857,
  "lat": 59.3332223,
  "lon": 18.0744583
},
{
  "type": "node",
  "id": 1937145858,
  "lat": 59.3332263,
  "lon": 18.0746262
},
{
  "type": "node",
  "id": 1937145861,
  "lat": 59.3332916,
  "lon": 18.0747494
},
{
  "type": "node",
  "id": 1937145863,
  "lat": 59.3333178,
  "lon": 18.0744505
},
{
  "type": "node",
  "id": 1937145865,
  "lat": 59.3333258,
  "lon": 18.0746184
},
{
  "type": "node",
  "id": 1937145867,
  "lat": 59.3333344,
  "lon": 18.0742840
},
{
  "type": "node",
  "id": 1937145869,
  "lat": 59.3333344,
  "lon": 18.0743074
},
{
  "type": "node",
  "id": 1937145871,
  "lat": 59.3333424,
  "lon": 18.0744089
},
{
  "type": "node",
  "id": 1937145873,
  "lat": 59.3333450,
  "lon": 18.0746639
},
{
  "type": "node",
  "id": 1937145875,
  "lat": 59.3333552,
  "lon": 18.0747441
},
{
  "type": "node",
  "id": 1937145879,
  "lat": 59.3334054,
  "lon": 18.0744037
},
{
  "type": "node",
  "id": 1937145881,
  "lat": 59.3334114,
  "lon": 18.0746600
},
{
  "type": "node",
  "id": 1937145883,
  "lat": 59.3334272,
  "lon": 18.0744192
},
{
  "type": "node",
  "id": 1937145885,
  "lat": 59.3334305,
  "lon": 18.0746455
},
{
  "type": "node",
  "id": 1937145887,
  "lat": 59.3334446,
  "lon": 18.0744466
},
{
  "type": "node",
  "id": 1937145899,
  "lat": 59.3334486,
  "lon": 18.0746223
},
{
  "type": "node",
  "id": 1937145901,
  "lat": 59.3334531,
  "lon": 18.0744817
},
{
  "type": "node",
  "id": 1937145903,
  "lat": 59.3334559,
  "lon": 18.0745756
},
{
  "type": "node",
  "id": 1937145905,
  "lat": 59.3334565,
  "lon": 18.0745299
},
{
  "type": "node",
  "id": 1937145909,
  "lat": 59.3334763,
  "lon": 18.0742674
},
{
  "type": "node",
  "id": 1937145912,
  "lat": 59.3334853,
  "lon": 18.0745949
},
{
  "type": "node",
  "id": 1937145915,
  "lat": 59.3334877,
  "lon": 18.0747329
},
{
  "type": "node",
  "id": 271323433,
  "lat": 59.3280525,
  "lon": 18.0782498
},
{
  "type": "node",
  "id": 271323434,
  "lat": 59.3282524,
  "lon": 18.0779331
},
{
  "type": "node",
  "id": 271323435,
  "lat": 59.3282283,
  "lon": 18.0778747
},
{
  "type": "node",
  "id": 271323436,
  "lat": 59.3283673,
  "lon": 18.0776544
},
{
  "type": "node",
  "id": 271323437,
  "lat": 59.3283913,
  "lon": 18.0777126
},
{
  "type": "node",
  "id": 1406078450,
  "lat": 59.3283322,
  "lon": 18.0788989
},
{
  "type": "node",
  "id": 1406078451,
  "lat": 59.3283627,
  "lon": 18.0789360
},
{
  "type": "node",
  "id": 1863238948,
  "lat": 59.3284360,
  "lon": 18.0788198
},
{
  "type": "node",
  "id": 1863238950,
  "lat": 59.3285374,
  "lon": 18.0785740
},
{
  "type": "node",
  "id": 1863238952,
  "lat": 59.3285909,
  "lon": 18.0773963
},
{
  "type": "node",
  "id": 1863238963,
  "lat": 59.3286721,
  "lon": 18.0783551
},
{
  "type": "node",
  "id": 2554104717,
  "lat": 59.3281581,
  "lon": 18.0785284
},
{
  "type": "node",
  "id": 2554104718,
  "lat": 59.3281637,
  "lon": 18.0785195
},
{
  "type": "node",
  "id": 2554104719,
  "lat": 59.3282119,
  "lon": 18.0786590
},
{
  "type": "node",
  "id": 2554104720,
  "lat": 59.3282249,
  "lon": 18.0786385
},
{
  "type": "node",
  "id": 2554104721,
  "lat": 59.3283414,
  "lon": 18.0788843
},
{
  "type": "node",
  "id": 2554104722,
  "lat": 59.3284148,
  "lon": 18.0787683
},
{
  "type": "node",
  "id": 2554104723,
  "lat": 59.3285484,
  "lon": 18.0786007
},
{
  "type": "node",
  "id": 2554104724,
  "lat": 59.3285597,
  "lon": 18.0785828
},
{
  "type": "node",
  "id": 2554104725,
  "lat": 59.3285693,
  "lon": 18.0786059
},
{
  "type": "node",
  "id": 2554104726,
  "lat": 59.3286247,
  "lon": 18.0786130
},
{
  "type": "node",
  "id": 2554104727,
  "lat": 59.3286689,
  "lon": 18.0784104
},
{
  "type": "node",
  "id": 2554104728,
  "lat": 59.3286730,
  "lon": 18.0785365
},
{
  "type": "node",
  "id": 2554104729,
  "lat": 59.3286784,
  "lon": 18.0784333
},
{
  "type": "node",
  "id": 2554104730,
  "lat": 59.3286846,
  "lon": 18.0783856
},
{
  "type": "node",
  "id": 2554104731,
  "lat": 59.3286961,
  "lon": 18.0776515
},
{
  "type": "node",
  "id": 2554104732,
  "lat": 59.3287113,
  "lon": 18.0776274
},
{
  "type": "node",
  "id": 2554104733,
  "lat": 59.3287626,
  "lon": 18.0777978
},
{
  "type": "node",
  "id": 2554104734,
  "lat": 59.3287741,
  "lon": 18.0777796
},
{
  "type": "node",
  "id": 2554104735,
  "lat": 59.3287922,
  "lon": 18.0781648
},
{
  "type": "node",
  "id": 2554104736,
  "lat": 59.3288135,
  "lon": 18.0782165
},
{
  "type": "node",
  "id": 2554104737,
  "lat": 59.3288565,
  "lon": 18.0780629
},
{
  "type": "node",
  "id": 2554104738,
  "lat": 59.3288658,
  "lon": 18.0780482
},
{
  "type": "node",
  "id": 2554104739,
  "lat": 59.3288778,
  "lon": 18.0781146
},
{
  "type": "node",
  "id": 1504544192,
  "lat": 59.3396402,
  "lon": 18.0435402
},
{
  "type": "node",
  "id": 1504544193,
  "lat": 59.3397744,
  "lon": 18.0440570
},
{
  "type": "node",
  "id": 377957459,
  "lat": 59.3250165,
  "lon": 18.0961743
},
{
  "type": "node",
  "id": 377957498,
  "lat": 59.3249235,
  "lon": 18.0965174
},
{
  "type": "node",
  "id": 377957508,
  "lat": 59.3250025,
  "lon": 18.0968773
},
{
  "type": "node",
  "id": 377957555,
  "lat": 59.3247446,
  "lon": 18.0966652
},
{
  "type": "node",
  "id": 377957562,
  "lat": 59.3246962,
  "lon": 18.0964443
},
{
  "type": "node",
  "id": 2493835605,
  "lat": 59.3247866,
  "lon": 18.0966297
},
{
  "type": "node",
  "id": 2493835614,
  "lat": 59.3248662,
  "lon": 18.0969922
},
{
  "type": "node",
  "id": 2493835627,
  "lat": 59.3250655,
  "lon": 18.0963977
},
{
  "type": "node",
  "id": 1548412624,
  "lat": 59.3244564,
  "lon": 18.1046504
},
{
  "type": "node",
  "id": 1548412635,
  "lat": 59.3245364,
  "lon": 18.1041954
},
{
  "type": "node",
  "id": 1548412650,
  "lat": 59.3247216,
  "lon": 18.1043205
},
{
  "type": "node",
  "id": 1548412673,
  "lat": 59.3246416,
  "lon": 18.1047755
},
{
  "type": "node",
  "id": 299560470,
  "lat": 59.3283025,
  "lon": 18.0909073
},
{
  "type": "node",
  "id": 299560472,
  "lat": 59.3279165,
  "lon": 18.0921399
},
{
  "type": "node",
  "id": 299560474,
  "lat": 59.3273391,
  "lon": 18.0918100
},
{
  "type": "node",
  "id": 299560481,
  "lat": 59.3277693,
  "lon": 18.0906379
},
{
  "type": "node",
  "id": 299560578,
  "lat": 59.3280065,
  "lon": 18.0906585
},
{
  "type": "node",
  "id": 299560583,
  "lat": 59.3273655,
  "lon": 18.0916746
},
{
  "type": "node",
  "id": 299560585,
  "lat": 59.3275769,
  "lon": 18.0911075
},
{
  "type": "node",
  "id": 299560588,
  "lat": 59.3275903,
  "lon": 18.0908977
},
{
  "type": "node",
  "id": 299560589,
  "lat": 59.3279987,
  "lon": 18.0909143
},
{
  "type": "node",
  "id": 373498959,
  "lat": 59.3284045,
  "lon": 18.0918068
},
{
  "type": "node",
  "id": 377926087,
  "lat": 59.3285405,
  "lon": 18.0916981
},
{
  "type": "node",
  "id": 1389941106,
  "lat": 59.3279161,
  "lon": 18.0908917
},
{
  "type": "node",
  "id": 1389941109,
  "lat": 59.3288704,
  "lon": 18.0912672
},
{
  "type": "node",
  "id": 1761294449,
  "lat": 59.3282613,
  "lon": 18.0919151
},
{
  "type": "node",
  "id": 1761294455,
  "lat": 59.3282940,
  "lon": 18.0909770
},
{
  "type": "node",
  "id": 1761294457,
  "lat": 59.3287281,
  "lon": 18.0915483
},
{
  "type": "node",
  "id": 1761294465,
  "lat": 59.3277230,
  "lon": 18.0906835
},
{
  "type": "node",
  "id": 1761294467,
  "lat": 59.3279107,
  "lon": 18.0921237
},
{
  "type": "node",
  "id": 1761294472,
  "lat": 59.3279400,
  "lon": 18.0920615
},
{
  "type": "node",
  "id": 1761294474,
  "lat": 59.3281782,
  "lon": 18.0919356
},
{
  "type": "node",
  "id": 1761294477,
  "lat": 59.3286348,
  "lon": 18.0915255
},
{
  "type": "node",
  "id": 1761371825,
  "lat": 59.3281123,
  "lon": 18.0907474
},
{
  "type": "node",
  "id": 1761371863,
  "lat": 59.3284192,
  "lon": 18.0908461
},
{
  "type": "node",
  "id": 1761371933,
  "lat": 59.3283681,
  "lon": 18.0910527
},
{
  "type": "node",
  "id": 1790569169,
  "lat": 59.3275577,
  "lon": 18.0908928
},
{
  "type": "node",
  "id": 1790682662,
  "lat": 59.3275900,
  "lon": 18.0917576
},
{
  "type": "node",
  "id": 1790682664,
  "lat": 59.3273640,
  "lon": 18.0915410
},
{
  "type": "node",
  "id": 1790682713,
  "lat": 59.3275226,
  "lon": 18.0914935
},
{
  "type": "node",
  "id": 2441872860,
  "lat": 59.3276046,
  "lon": 18.0908159
},
{
  "type": "node",
  "id": 2441872864,
  "lat": 59.3276603,
  "lon": 18.0907875
},
{
  "type": "node",
  "id": 2441872915,
  "lat": 59.3288570,
  "lon": 18.0913427
},
{
  "type": "node",
  "id": 3635650260,
  "lat": 59.3275748,
  "lon": 18.0911251
},
{
  "type": "node",
  "id": 3635650261,
  "lat": 59.3275253,
  "lon": 18.0914741
},
{
  "type": "node",
  "id": 373777647,
  "lat": 59.3272209,
  "lon": 18.0973790
},
{
  "type": "node",
  "id": 373777648,
  "lat": 59.3273000,
  "lon": 18.0978350
},
{
  "type": "node",
  "id": 373777649,
  "lat": 59.3270157,
  "lon": 18.0980244
},
{
  "type": "node",
  "id": 373777652,
  "lat": 59.3269366,
  "lon": 18.0975684
},
{
  "type": "node",
  "id": 1590020246,
  "lat": 59.3271331,
  "lon": 18.0979462
},
{
  "type": "node",
  "id": 1590020585,
  "lat": 59.3271283,
  "lon": 18.0974407
},
{
  "type": "node",
  "id": 2307458784,
  "lat": 59.3272605,
  "lon": 18.0976075
},
{
  "type": "node",
  "id": 2307458791,
  "lat": 59.3272483,
  "lon": 18.0975368
},
{
  "type": "node",
  "id": 300240621,
  "lat": 59.3347713,
  "lon": 18.0909854
},
{
  "type": "node",
  "id": 360771542,
  "lat": 59.3347751,
  "lon": 18.0892007
},
{
  "type": "node",
  "id": 360771544,
  "lat": 59.3352328,
  "lon": 18.0895550
},
{
  "type": "node",
  "id": 360771548,
  "lat": 59.3349161,
  "lon": 18.0911001
},
{
  "type": "node",
  "id": 360771550,
  "lat": 59.3344788,
  "lon": 18.0906502
},
{
  "type": "node",
  "id": 360771567,
  "lat": 59.3347192,
  "lon": 18.0894746
},
{
  "type": "node",
  "id": 360771701,
  "lat": 59.3348581,
  "lon": 18.0908410
},
{
  "type": "node",
  "id": 360771702,
  "lat": 59.3350974,
  "lon": 18.0896670
},
{
  "type": "node",
  "id": 360771704,
  "lat": 59.3348688,
  "lon": 18.0894879
},
{
  "type": "node",
  "id": 360771705,
  "lat": 59.3346296,
  "lon": 18.0906620
},
{
  "type": "node",
  "id": 360771912,
  "lat": 59.3346714,
  "lon": 18.0897069
},
{
  "type": "node",
  "id": 360772395,
  "lat": 59.3345502,
  "lon": 18.0902958
},
{
  "type": "node",
  "id": 1331535855,
  "lat": 59.3344601,
  "lon": 18.0907406
},
{
  "type": "node",
  "id": 1331535935,
  "lat": 59.3344908,
  "lon": 18.0907647
},
{
  "type": "node",
  "id": 1711915962,
  "lat": 59.3345744,
  "lon": 18.0901784
},
{
  "type": "node",
  "id": 90320871,
  "lat": 59.3329619,
  "lon": 18.1153337
},
{
  "type": "node",
  "id": 90320873,
  "lat": 59.3329137,
  "lon": 18.1157071
},
{
  "type": "node",
  "id": 90320874,
  "lat": 59.3327999,
  "lon": 18.1158186
},
{
  "type": "node",
  "id": 90320875,
  "lat": 59.3326227,
  "lon": 18.1159251
},
{
  "type": "node",
  "id": 90320877,
  "lat": 59.3326405,
  "lon": 18.1160782
},
{
  "type": "node",
  "id": 90320878,
  "lat": 59.3326029,
  "lon": 18.1161105
},
{
  "type": "node",
  "id": 90320879,
  "lat": 59.3326081,
  "lon": 18.1162391
},
{
  "type": "node",
  "id": 90320880,
  "lat": 59.3325168,
  "lon": 18.1162864
},
{
  "type": "node",
  "id": 90320881,
  "lat": 59.3324820,
  "lon": 18.1161400
},
{
  "type": "node",
  "id": 90320883,
  "lat": 59.3324386,
  "lon": 18.1161425
},
{
  "type": "node",
  "id": 90320884,
  "lat": 59.3324313,
  "lon": 18.1160014
},
{
  "type": "node",
  "id": 90320885,
  "lat": 59.3323446,
  "lon": 18.1160075
},
{
  "type": "node",
  "id": 90320886,
  "lat": 59.3322308,
  "lon": 18.1160075
},
{
  "type": "node",
  "id": 90320887,
  "lat": 59.3321257,
  "lon": 18.1160075
},
{
  "type": "node",
  "id": 90320889,
  "lat": 59.3319674,
  "lon": 18.1159550
},
{
  "type": "node",
  "id": 90320890,
  "lat": 59.3320029,
  "lon": 18.1156975
},
{
  "type": "node",
  "id": 90320891,
  "lat": 59.3321695,
  "lon": 18.1157328
},
{
  "type": "node",
  "id": 90320893,
  "lat": 59.3322568,
  "lon": 18.1157375
},
{
  "type": "node",
  "id": 90320895,
  "lat": 59.3323577,
  "lon": 18.1157414
},
{
  "type": "node",
  "id": 90320897,
  "lat": 59.3324367,
  "lon": 18.1157113
},
{
  "type": "node",
  "id": 90320898,
  "lat": 59.3324365,
  "lon": 18.1156298
},
{
  "type": "node",
  "id": 90320899,
  "lat": 59.3324891,
  "lon": 18.1155697
},
{
  "type": "node",
  "id": 90320900,
  "lat": 59.3325372,
  "lon": 18.1155697
},
{
  "type": "node",
  "id": 90320901,
  "lat": 59.3325591,
  "lon": 18.1156641
},
{
  "type": "node",
  "id": 90320902,
  "lat": 59.3326467,
  "lon": 18.1156298
},
{
  "type": "node",
  "id": 90320903,
  "lat": 59.3327780,
  "lon": 18.1155354
},
{
  "type": "node",
  "id": 90320904,
  "lat": 59.3328480,
  "lon": 18.1154581
},
{
  "type": "node",
  "id": 90321609,
  "lat": 59.3324231,
  "lon": 18.1201034
},
{
  "type": "node",
  "id": 90321610,
  "lat": 59.3328495,
  "lon": 18.1201683
},
{
  "type": "node",
  "id": 90321615,
  "lat": 59.3322760,
  "lon": 18.1205662
},
{
  "type": "node",
  "id": 90321616,
  "lat": 59.3324023,
  "lon": 18.1205771
},
{
  "type": "node",
  "id": 1241136446,
  "lat": 59.3328607,
  "lon": 18.1203934
},
{
  "type": "node",
  "id": 2501764579,
  "lat": 59.3323389,
  "lon": 18.1205716
},
{
  "type": "node",
  "id": 2501764668,
  "lat": 59.3329869,
  "lon": 18.1156149
},
{
  "type": "node",
  "id": 2501764825,
  "lat": 59.3324935,
  "lon": 18.1201167
},
{
  "type": "node",
  "id": 90321611,
  "lat": 59.3328263,
  "lon": 18.1213164
},
{
  "type": "node",
  "id": 90321612,
  "lat": 59.3323194,
  "lon": 18.1212314
},
{
  "type": "node",
  "id": 90321613,
  "lat": 59.3323257,
  "lon": 18.1211255
},
{
  "type": "node",
  "id": 90321614,
  "lat": 59.3322550,
  "lon": 18.1211136
},
{
  "type": "node",
  "id": 2307432463,
  "lat": 59.3325428,
  "lon": 18.1212689
},
{
  "type": "node",
  "id": 90320872,
  "lat": 59.3330362,
  "lon": 18.1155527
},
{
  "type": "node",
  "id": 1777887776,
  "lat": 59.3062093,
  "lon": 18.3470728
},
{
  "type": "node",
  "id": 1777887777,
  "lat": 59.3062367,
  "lon": 18.3463522
},
{
  "type": "node",
  "id": 1777887780,
  "lat": 59.3062859,
  "lon": 18.3470785
},
{
  "type": "node",
  "id": 1777887783,
  "lat": 59.3063325,
  "lon": 18.3471305
},
{
  "type": "node",
  "id": 1777887784,
  "lat": 59.3064849,
  "lon": 18.3460695
},
{
  "type": "node",
  "id": 1777887786,
  "lat": 59.3064397,
  "lon": 18.3469757
},
{
  "type": "node",
  "id": 1777887787,
  "lat": 59.3064732,
  "lon": 18.3473907
},
{
  "type": "node",
  "id": 1777887788,
  "lat": 59.3064995,
  "lon": 18.3473636
},
{
  "type": "node",
  "id": 1777887790,
  "lat": 59.3065777,
  "lon": 18.3468199
},
{
  "type": "node",
  "id": 1777887791,
  "lat": 59.3066813,
  "lon": 18.3459380
},
{
  "type": "node",
  "id": 1777887792,
  "lat": 59.3067116,
  "lon": 18.3472303
},
{
  "type": "node",
  "id": 2301967937,
  "lat": 59.3061247,
  "lon": 18.3466716
},
{
  "type": "node",
  "id": 2301967941,
  "lat": 59.3061420,
  "lon": 18.3470090
},
{
  "type": "node",
  "id": 2301967945,
  "lat": 59.3062750,
  "lon": 18.3471265
},
{
  "type": "node",
  "id": 4347063446,
  "lat": 59.3062738,
  "lon": 18.3463100
},
{
  "type": "node",
  "id": 4347063456,
  "lat": 59.3065094,
  "lon": 18.3468970
},
{
  "type": "node",
  "id": 1777887793,
  "lat": 59.3069267,
  "lon": 18.3462287
},
{
  "type": "node",
  "id": 1777887794,
  "lat": 59.3070059,
  "lon": 18.3471493
},
{
  "type": "node",
  "id": 1777887795,
  "lat": 59.3069232,
  "lon": 18.3465667
},
{
  "type": "node",
  "id": 1777887796,
  "lat": 59.3070345,
  "lon": 18.3460364
},
{
  "type": "node",
  "id": 1777887798,
  "lat": 59.3070502,
  "lon": 18.3461239
},
{
  "type": "node",
  "id": 1777887799,
  "lat": 59.3070317,
  "lon": 18.3473845
},
{
  "type": "node",
  "id": 1777887800,
  "lat": 59.3070303,
  "lon": 18.3466775
},
{
  "type": "node",
  "id": 1777887801,
  "lat": 59.3071585,
  "lon": 18.3472590
},
{
  "type": "node",
  "id": 2301967939,
  "lat": 59.3069577,
  "lon": 18.3469631
},
{
  "type": "node",
  "id": 2301967942,
  "lat": 59.3069027,
  "lon": 18.3463232
},
{
  "type": "node",
  "id": 2301967948,
  "lat": 59.3070089,
  "lon": 18.3467343
},
{
  "type": "node",
  "id": 2301967950,
  "lat": 59.3069205,
  "lon": 18.3472721
},
{
  "type": "node",
  "id": 2638859904,
  "lat": 59.4983918,
  "lon": 18.2645202
},
{
  "type": "node",
  "id": 6004520717,
  "lat": 59.4983716,
  "lon": 18.2642810
},
{
  "type": "node",
  "id": 6004535697,
  "lat": 59.4981324,
  "lon": 18.2642788
},
{
  "type": "node",
  "id": 6004535701,
  "lat": 59.4979559,
  "lon": 18.2648110
},
{
  "type": "node",
  "id": 6004535707,
  "lat": 59.4978900,
  "lon": 18.2642236
},
{
  "type": "node",
  "id": 2638859933,
  "lat": 59.4983583,
  "lon": 18.2652318
},
{
  "type": "node",
  "id": 6004520344,
  "lat": 59.4980697,
  "lon": 18.2654627
},
{
  "type": "node",
  "id": 5522281312,
  "lat": 59.5818490,
  "lon": 17.9503029
},
{
  "type": "node",
  "id": 264233212,
  "lat": 59.5817205,
  "lon": 17.9512834
},
{
  "type": "node",
  "id": 5522281309,
  "lat": 59.5818469,
  "lon": 17.9503214
},
{
  "type": "node",
  "id": 5522281310,
  "lat": 59.5817872,
  "lon": 17.9507272
},
{
  "type": "node",
  "id": 5522281311,
  "lat": 59.5817133,
  "lon": 17.9512297
},
{
  "type": "node",
  "id": 264233214,
  "lat": 59.5821507,
  "lon": 17.9515065
},
{
  "type": "node",
  "id": 264233216,
  "lat": 59.5822550,
  "lon": 17.9506139
},
{
  "type": "way",
  "id": 183345519,
  "nodes": [
    1937145909,
    1937145912,
    1937145915,
    1937145875,
    1937145861,
    1937145841,
    1937145829,
    1937145826,
    1937145869,
    1937145867,
    1937145909
  ]
},
{
  "type": "way",
  "id": 183345521,
  "nodes": [
    1937145858,
    1937145865,
    1937145873,
    1937145881,
    1937145885,
    1937145899,
    1937145903,
    1937145905,
    1937145901,
    1937145887,
    1937145883,
    1937145879,
    1937145871,
    1937145863,
    1937145857,
    1937145858
  ]
},
{
  "type": "way",
  "id": 32137632,
  "nodes": [
    1331535855,
    360771550,
    360772395,
    1711915962,
    360771912,
    360771567,
    360771542,
    360771544,
    360771548,
    300240621,
    1331535935,
    1331535855
  ]
},
{
  "type": "way",
  "id": 32137642,
  "nodes": [
    360771701,
    360771702,
    360771704,
    360771705,
    360771701
  ]
}

  ]
}
