{
  "version": 0.6,
  "generator": "Overpass API 0.7.55.1011 6c2efc30",
  "osm3s": {
    "timestamp_osm_base": "2020-02-14T14:52:02Z",
    "copyright": "The data included in this document is from www.openstreetmap.org. The data is made available under ODbL."
  },
  "elements": [

{
  "type": "node",
  "id": 361141712,
  "lat": 44.6403315,
  "lon": 11.1891066,
  "tags": {
    "addr:city": "San Giovanni in Persiceto",
    "addr:housenumber": "163",
    "addr:postcode": "40017",
    "addr:street": "Corso Italia",
    "is_in": "San Giovanni in Persiceto",
    "name": "Museo Archeoambientale",
    "opening_hours": "Su 10:00-12:00, 17:00-19:00; Jul-Aug off",
    "tourism": "museum"
  }
},
{
  "type": "node",
  "id": 586316851,
  "lat": 44.6284354,
  "lon": 11.2041878,
  "tags": {
    "addr:city": "San Giovanni in Persiceto",
    "addr:housenumber": "15",
    "addr:postcode": "40017",
    "addr:street": "Via Antonio Marzocchi",
    "name": "Laboratorio dell'Insetto",
    "tourism": "museum"
  }
},
{
  "type": "node",
  "id": 761240731,
  "lat": 44.4804320,
  "lon": 10.8398834,
  "tags": {
    "name": "Museo Giardino della Rosa Antica",
    "tourism": "museum"
  }
},
{
  "type": "node",
  "id": 803764235,
  "lat": 44.7004734,
  "lon": 10.6288356,
  "tags": {
    "name": "Galleria Parmeggiani",
    "tourism": "museum",
    "wikidata": "Q3757690",
    "wikipedia": "it:Galleria Parmeggiani"
  }
},
{
  "type": "node",
  "id": 892827706,
  "lat": 44.7111921,
  "lon": 11.3039407,
  "tags": {
    "name": "MAGI'900 - Museo",
    "tourism": "museum",
    "wikidata": "Q3841198"
  }
},
{
  "type": "node",
  "id": 892828526,
  "lat": 44.7116385,
  "lon": 11.3055818,
  "tags": {
    "name": "Museo della Rocca",
    "tourism": "museum"
  }
},
{
  "type": "node",
  "id": 1480062016,
  "lat": 44.9007367,
  "lon": 10.5146612,
  "tags": {
    "name": "Museo Peppone e Don Camillo",
    "tourism": "museum"
  }
},
{
  "type": "node",
  "id": 1651270046,
  "lat": 44.8452227,
  "lon": 10.7319772,
  "tags": {
    "level": "2",
    "name": "Mostra di Augusto Daolio",
    "source": "local_knowledge",
    "tourism": "museum"
  }
},
{
  "type": "node",
  "id": 1651270049,
  "lat": 44.8453030,
  "lon": 10.7316013,
  "tags": {
    "level": "2",
    "name": "Museo dei Gonzaga",
    "source": "local_knowledge",
    "tourism": "museum"
  }
},
{
  "type": "node",
  "id": 1775959533,
  "lat": 44.8888329,
  "lon": 11.0648372,
  "tags": {
    "name": "Museo civico",
    "tourism": "museum"
  }
},
{
  "type": "node",
  "id": 1794758482,
  "lat": 44.9086719,
  "lon": 10.5381627,
  "tags": {
    "name": "Casa dei Pontieri",
    "tourism": "museum"
  }
},
{
  "type": "node",
  "id": 1960169826,
  "lat": 44.8416895,
  "lon": 10.5386402,
  "tags": {
    "tourism": "museum"
  }
},
{
  "type": "node",
  "id": 1986958491,
  "lat": 44.6591378,
  "lon": 11.1258279,
  "tags": {
    "addr:city": "Sant'Agata Bolognese",
    "addr:country": "IT",
    "addr:housenumber": "12",
    "addr:postcode": "40019",
    "addr:street": "Via Modena",
    "email": "visit@lamborghini.com",
    "name": "Lamborghini",
    "opening_hours": "Mo-Sa 10:00-17:00",
    "phone": "+39 051 6817611",
    "tourism": "museum",
    "website": "https://www.lamborghini.com/",
    "wheelchair": "yes",
    "wikidata": "Q3329238"
  }
},
{
  "type": "node",
  "id": 2012275776,
  "lat": 44.7229401,
  "lon": 11.1459899,
  "tags": {
    "tourism": "museum"
  }
},
{
  "type": "node",
  "id": 2150827980,
  "lat": 44.4765546,
  "lon": 11.0092445,
  "tags": {
    "addr:city": "Vignola",
    "addr:housenumber": "3",
    "addr:postcode": "41058",
    "addr:street": "Piazza dei Contrari",
    "name": "Palazzo Barozzi",
    "tourism": "museum",
    "wheelchair": "limited"
  }
},
{
  "type": "node",
  "id": 2356451809,
  "lat": 44.9009797,
  "lon": 10.5141183,
  "tags": {
    "name": "Museo Archeologico di Brescello",
    "tourism": "museum"
  }
},
{
  "type": "node",
  "id": 2628346891,
  "lat": 44.5333630,
  "lon": 11.0238254,
  "tags": {
    "name": "Antiquarium Museo Archeologico",
    "tourism": "museum"
  }
},
{
  "type": "node",
  "id": 3098726538,
  "lat": 44.6406535,
  "lon": 11.1859034,
  "tags": {
    "addr:city": "San Giovanni in Persiceto",
    "addr:country": "IT",
    "addr:housenumber": "15",
    "addr:postcode": "40017",
    "addr:province": "BO",
    "addr:state": "EMR",
    "addr:street": "Via Guardia Nazionale",
    "email": "info@fisiclab.it",
    "fax": "+39 051 827067",
    "name": "FisicLab - Tecnoscienza",
    "operator": "Museo del Cielo e della Terra",
    "phone": "+39 051 827067",
    "tourism": "museum",
    "website": "http://www.fisiclab.it/"
  }
},
{
  "type": "node",
  "id": 3505640689,
  "lat": 44.6971362,
  "lon": 10.6272890,
  "tags": {
    "name": "Palazzo Magnani",
    "tourism": "museum"
  }
},
{
  "type": "node",
  "id": 3585248696,
  "lat": 44.6391152,
  "lon": 11.2663650,
  "tags": {
    "addr:city": "Padulle",
    "addr:housenumber": "16",
    "addr:postcode": "40010",
    "addr:street": "Via Zaccarelli",
    "name": "Ecomuseo dell'acqua",
    "opening_hours": "Apr-Sep: Su 15:30-19:00; Oct-Mar: Su 14:30-17:00",
    "tourism": "museum",
    "wikidata": "Q35505954"
  }
},
{
  "type": "node",
  "id": 3791817591,
  "lat": 44.6526038,
  "lon": 10.9289776,
  "tags": {
    "addr:city": "Modena",
    "addr:country": "IT",
    "addr:housenumber": "83",
    "addr:postcode": "41121",
    "addr:street": "Via Della Manifattura Dei Tabacchi",
    "name": "MaTa",
    "opening_hours": "Tu 15:00-18:00; We-Fr 10:30-13:00,15:00-18:00; PH,Sa,Su 10:30-19:00",
    "operator": "Comune di Modena",
    "tourism": "museum",
    "website": "http://www.mata.modena.it/"
  }
},
{
  "type": "node",
  "id": 3902261971,
  "lat": 44.7020413,
  "lon": 10.6335796,
  "tags": {
    "name": "Museo missionario dei Padri Cappuccini",
    "tourism": "museum"
  }
},
{
  "type": "node",
  "id": 4097004530,
  "lat": 44.6285090,
  "lon": 11.2043673,
  "tags": {
    "addr:city": "San Giovanni in Persiceto",
    "addr:housenumber": "16",
    "addr:postcode": "40017",
    "addr:street": "Via Antonio Marzocchi",
    "name": "Centro visite A.R.E. La Bora",
    "tourism": "museum"
  }
},
{
  "type": "node",
  "id": 4217511422,
  "lat": 45.0422276,
  "lon": 10.9294950,
  "tags": {
    "addr:city": "San Benedetto Po",
    "addr:housenumber": "22",
    "addr:postcode": "46027",
    "addr:street": "Piazza Teofilo Folengo",
    "description": "Fondato nel 1977, il Museo Civico Polironiano di San Benedetto Po è uno dei maggiori musei etnografici d'Italia. Con oltre 13.000 oggetti costituisce un importante documento storico e propone un recupero delle testimonianze, materiali e immateriali, speci",
    "name": "Museo Civico Polironiano",
    "name_1": "complesso monastico",
    "name_2": "polirone",
    "opening_hours": "09:30-12:30; 15:00-18:00",
    "phone": "+39 0376 623036",
    "tourism": "museum",
    "website": "https://www.museocivicopolironiano.it/",
    "wheelchair": "yes"
  }
},
{
  "type": "node",
  "id": 4234099890,
  "lat": 44.7271156,
  "lon": 11.2904452,
  "tags": {
    "name": "Galleria d'arte moderna Aroldo Bonzagni",
    "tourism": "museum",
    "wheelchair": "yes",
    "wikidata": "Q17631153",
    "wikipedia": "it:Galleria d'arte moderna Aroldo Bonzagni"
  }
},
{
  "type": "node",
  "id": 4411457230,
  "lat": 44.6464581,
  "lon": 10.9257085,
  "tags": {
    "name": "Musei del Duomo",
    "opening_hours": "Tu-Su 09:30-12:30,15:30-18:30",
    "phone": "+39 059 4396969",
    "tourism": "museum"
  }
},
{
  "type": "node",
  "id": 4459681898,
  "lat": 44.6499197,
  "lon": 10.9280780,
  "tags": {
    "addr:city": "Modena",
    "addr:country": "IT",
    "addr:housenumber": "21",
    "addr:postcode": "41121",
    "addr:province": "Modena",
    "addr:street": "Corso Camillo Benso di Cavour",
    "amenity": "library",
    "name": "Archivio di Stato",
    "ref:isil": "IT-MO0051",
    "tourism": "museum"
  }
},
{
  "type": "node",
  "id": 4619155203,
  "lat": 44.7281572,
  "lon": 11.2918300,
  "tags": {
    "name": "Pinacoteca San Lorenzo",
    "operator": "Comune di Cento",
    "operator:type": "public",
    "toilets:wheelchair": "no",
    "tourism": "museum",
    "wheelchair": "limited"
  }
},
{
  "type": "node",
  "id": 4694101289,
  "lat": 44.5978602,
  "lon": 10.9096844,
  "tags": {
    "addr:city": "Modena",
    "addr:country": "IT",
    "addr:housenumber": "6",
    "addr:postcode": "41126",
    "addr:street": "Stradello Nava",
    "addr:suburb": "3",
    "email": "info@casamuseolucianopavarotti.it",
    "name": "Casa Museo Luciano Pavarotti",
    "opening_hours": "Mo-Su 10:00-18:00",
    "phone": "+39 059 460778",
    "tourism": "museum",
    "website": "http://www.casamuseolucianopavarotti.it"
  }
},
{
  "type": "node",
  "id": 4712471635,
  "lat": 44.6491424,
  "lon": 10.9247084,
  "tags": {
    "addr:city": "Modena",
    "addr:country": "IT",
    "addr:housenumber": "1",
    "addr:postcode": "41121",
    "addr:street": "Via Pomposa",
    "addr:suburb": "Centro Storico",
    "name": "Museo Muratoriano",
    "tourism": "museum"
  }
},
{
  "type": "node",
  "id": 4769492903,
  "lat": 44.5413254,
  "lon": 10.7798848,
  "tags": {
    "addr:city": "Sassuolo",
    "addr:country": "IT",
    "addr:housenumber": "4",
    "addr:postcode": "41049",
    "addr:street": "Via Racchetta",
    "name": "Museo Bertozzi & Casoni",
    "tourism": "museum",
    "website": "http://www.museobertozziecasoni.com/"
  }
},
{
  "type": "node",
  "id": 4773360745,
  "lat": 44.6209498,
  "lon": 10.8310331,
  "tags": {
    "addr:city": "Modena",
    "addr:country": "IT",
    "addr:housenumber": "320",
    "addr:postcode": "41126",
    "addr:street": "Strada Corletto Sud",
    "addr:suburb": "San Faustino- Madonnina- Quattro Ville",
    "email": "west@hombre.it",
    "name": "panini motor museum",
    "opening_hours": "Mo-Fr 09:00-12:30, 14:30-18:00; Sa 09:00-12:30; Su, PH off",
    "phone": "+39 059 5962181",
    "tourism": "museum",
    "website": "www.paninimotormuseum.com",
    "wheelchair": "yes"
  }
},
{
  "type": "node",
  "id": 5154227453,
  "lat": 44.6971310,
  "lon": 10.6303008,
  "tags": {
    "addr:housenumber": "1",
    "addr:postcode": "42121",
    "addr:street": "Piazza Antonio Casotti",
    "name": "Museo del Tricolore",
    "phone": "+39 0522 456477",
    "tourism": "museum",
    "website": "http://www.musei.re.it/collezioni/museo-del-tricolore/",
    "wikidata": "Q3867985",
    "wikipedia": "it:Museo del tricolore"
  }
},
{
  "type": "node",
  "id": 5264787983,
  "lat": 44.5031059,
  "lon": 11.0835126,
  "tags": {
    "addr:city": "Bazzano",
    "name": "Museo civico archeologico Arsenio Crespellani",
    "tourism": "museum",
    "wikidata": "Q3867787",
    "wikipedia": "it:Museo civico archeologico Arsenio Crespellani"
  }
},
{
  "type": "node",
  "id": 5455004214,
  "lat": 44.5887509,
  "lon": 11.0236551,
  "tags": {
    "addr:city": "San Cesario sul Panaro",
    "addr:country": "IT",
    "addr:housenumber": "24",
    "addr:postcode": "41018",
    "addr:street": "Via dell'Industria",
    "name": "Pagani Automobili",
    "operator": "Pagani Automobili S.p.A.",
    "tourism": "museum"
  }
},
{
  "type": "node",
  "id": 5519069613,
  "lat": 44.8451184,
  "lon": 10.7320878,
  "tags": {
    "name": "\"dei Gonzaga\"",
    "tourism": "museum"
  }
},
{
  "type": "node",
  "id": 5586976255,
  "lat": 44.7328478,
  "lon": 10.7845196,
  "tags": {
    "name": "Museo dell’agricoltura e del mondo rurale",
    "tourism": "museum",
    "wikidata": "Q55368995"
  }
},
{
  "type": "node",
  "id": 5590289170,
  "lat": 44.7213973,
  "lon": 10.4790482,
  "tags": {
    "name": "Museo del Parmigiano Reggiano",
    "tourism": "museum"
  }
},
{
  "type": "node",
  "id": 6201930315,
  "lat": 44.6475354,
  "lon": 10.9307058,
  "tags": {
    "name": "Museo della Figurina",
    "tourism": "museum",
    "website": "https://www.comune.modena.it/museofigurina",
    "wikipedia": "it:Museo della figurina"
  }
},
{
  "type": "node",
  "id": 6201930316,
  "lat": 44.6476022,
  "lon": 10.9305221,
  "tags": {
    "museum": "art",
    "museum_type": "municipal",
    "name": "Galleria Civica",
    "tourism": "museum",
    "website": "https://www.comune.modena.it/galleria"
  }
},
{
  "type": "node",
  "id": 6475652784,
  "lat": 44.9931175,
  "lon": 10.7516322,
  "tags": {
    "addr:city": "Suzzara",
    "addr:housenumber": "2/A",
    "addr:postcode": "46029",
    "addr:street": "Via Don Bosco",
    "email": "galleriapremio@comune.suzzara.mn.it",
    "name": "Museo Galleria del Premio Suzzara",
    "opening_hours": "Oct 1-May 31: Tu-Fr 09:00-13:00; Sa 09:30-12:30, 15:00-18:00; Su 15:00-18:00; Jun 1-Sep 30; Tu-Fr 09:00-13:00; Sa 09:30-12:30, 16:00-19:00; Su 16:00-19:00; Mo off",
    "phone": "+39 0376 513513",
    "tourism": "museum",
    "website": "http://www.premiosuzzara.it"
  }
},
{
  "type": "way",
  "id": 81403472,
  "nodes": [
    948518797,
    948518723,
    525473900,
    6654549238,
    6654549237,
    948518907,
    6654549236,
    948518766,
    6654549235,
    525473897,
    525473894,
    948518961,
    6654549239,
    948518775,
    948518739,
    6654549228,
    6654549229,
    6654549231,
    6654549230,
    6654549232,
    6654549233,
    6654549234,
    948518797
  ],
  "tags": {
    "addr:city": "Maranello",
    "addr:country": "IT",
    "addr:housenumber": "43",
    "addr:postcode": "41053",
    "addr:street": "Viale Alfredo Dino Ferrari",
    "building": "yes",
    "email": "museo@ferrari.com",
    "name": "Museo Galleria Ferrari",
    "name:en": "Ferrari Museum",
    "name:pl": "Muzeum Ferrari",
    "opening_hours": "Mo-Su 09:30-18:00",
    "operator": "Ferrari",
    "phone": "+39 0536 949713",
    "source": "PCN 2006 - Italy",
    "tourism": "museum",
    "website": "http://museo.ferrari.com",
    "wheelchair": "yes",
    "wikipedia": "it:Museo Ferrari"
  }
},
{
  "type": "way",
  "id": 145144869,
  "nodes": [
    1585856868,
    1585856872,
    1585856883,
    1585856887,
    1585856901,
    1585856891,
    1585856868
  ],
  "tags": {
    "addr:city": "Spilamberto",
    "addr:country": "IT",
    "addr:housenumber": "28",
    "addr:postcode": "41057",
    "addr:street": "Via Francesco Roncati",
    "building": "yes",
    "building:use": "museum",
    "email": "info@museodelbalsamicotradizionale.org",
    "name": "Museo dell'Aceto Balsamico Tradizionale",
    "opening_hours": "Mo off",
    "operator": "Consorteria dell’Aceto Balsamico Tradizionale",
    "phone": "+39 059 781614",
    "tourism": "museum",
    "website": "https://museodelbalsamicotradizionale.org"
  }
},
{
  "type": "way",
  "id": 149175114,
  "nodes": [
    1621870477,
    1621870482,
    1621870473,
    1621870464,
    1621870477
  ],
  "tags": {
    "building": "yes",
    "museum": "history",
    "name": "Ecomuseo di Ca' Rossa",
    "source": "Regione Emilia Romagna",
    "tourism": "museum",
    "website": "http://www.fiorano.it/Turismo/salse%20nirano/ri/ecomuseo.htm"
  }
},
{
  "type": "way",
  "id": 167116613,
  "nodes": [
    1785248453,
    1785249349,
    1785248993,
    1785248534,
    1785248480,
    1785248782,
    1785247895,
    1785247660,
    1785247542,
    1785246946,
    1785248030,
    1785248326,
    1785248453
  ],
  "tags": {
    "building": "yes",
    "name": "Casa natale di Enzo Ferrari",
    "source": "Regione Emilia Romagna",
    "tourism": "museum"
  }
},
{
  "type": "way",
  "id": 167136995,
  "nodes": [
    1785246457,
    2736127819,
    2736127821,
    2736127823,
    2736127825,
    1785246562,
    2736127829,
    1785247565,
    1785247558,
    2736127835,
    2736127839,
    2736127849,
    2736127853,
    2736127857,
    1785248588,
    1785247615,
    2736127831,
    1785245084,
    1785245174,
    2736127813,
    2736127815,
    2736127817,
    1785246457
  ],
  "tags": {
    "building": "yes",
    "name": "Museo Casa Enzo Ferrari - MEF Modena",
    "source": "Regione Emilia Romagna",
    "tourism": "museum",
    "website": "http://www.museocasaenzoferrari.it/",
    "wikidata": "Q3329137",
    "wikipedia": "it:Museo casa Enzo Ferrari"
  }
},
{
  "type": "way",
  "id": 167387224,
  "nodes": [
    1787681439,
    1787681441,
    1787681442,
    1787681680,
    1787681702,
    1787681386,
    1787681461,
    1787681782,
    1787681739,
    1787681964,
    1787682054,
    1787682312,
    1787682049,
    1787681439
  ],
  "tags": {
    "addr:city": "Campogalliano",
    "addr:country": "IT",
    "addr:housenumber": "34",
    "addr:postcode": "41011",
    "addr:street": "Via Garibaldi",
    "building": "yes",
    "name": "Museo della Bilancia",
    "name:uk": "Кампогалліано",
    "source": "Regione Emilia Romagna",
    "tourism": "museum",
    "wikipedia": "it:Campogalliano"
  }
},
{
  "type": "way",
  "id": 167553254,
  "nodes": [
    1789428075,
    1789428108,
    1789428145,
    1789428062,
    1789428075
  ],
  "tags": {
    "building": "yes",
    "name": "Museo dell’Automobile",
    "source": "Regione Emilia Romagna",
    "tourism": "museum",
    "wikidata": "Q55369001"
  }
},
{
  "type": "way",
  "id": 167927164,
  "nodes": [
    1792604278,
    1792605228,
    1792605106,
    1792604645,
    1792604372,
    1792604520,
    1792604406,
    1792604323,
    1792604234,
    1792604852,
    1792604781,
    1792603938,
    1792604278
  ],
  "tags": {
    "alt_name": "Padiglione Lombroso",
    "building": "yes",
    "name": "Museo di storia della psichiatria",
    "opening_hours": "Sa 16:00-18:00",
    "source": "Regione Emilia Romagna",
    "tourism": "museum",
    "wikidata": "Q16268566",
    "wikipedia": "it:Museo di storia della psichiatria - Padiglione Lombroso"
  }
},
{
  "type": "way",
  "id": 168130552,
  "nodes": [
    1794317676,
    1794317767,
    1794317740,
    1794317664,
    1794317668,
    1794317663,
    1794317676
  ],
  "tags": {
    "building": "yes",
    "name": "Collezione Salsapariglia",
    "opening_hours": "\"solo su appuntamento\"; PH 09:00-12:30 15:00-18:30",
    "operator": "Collezione Salsapariglia - Associazione senza scopo di lucro",
    "operator:type": "association",
    "source": "Regione Emilia Romagna",
    "tourism": "museum",
    "website": "http://www.collezionesalsapariglia.it/"
  }
},
{
  "type": "way",
  "id": 168157164,
  "nodes": [
    1794562094,
    1794563563,
    1794563219,
    1794563479,
    1794563509,
    1794563825,
    1794563665,
    1794563081,
    1794562871,
    1794564594,
    1794564500,
    1794564229,
    1794564185,
    1794564011,
    1794564020,
    1794562835,
    1794562813,
    1794562938,
    1794562910,
    1794562290,
    1794562362,
    1794562627,
    1794562634,
    1794561913,
    1794562111,
    1794561994,
    1794562094
  ],
  "tags": {
    "addr:city": "Reggio nell'Emilia",
    "addr:postcode": "42124",
    "addr:street": "Via Fratelli Cervi",
    "building": "yes",
    "name": "Collezione Maramotti",
    "source": "Regione Emilia Romagna",
    "tourism": "museum",
    "wikidata": "Q3683045",
    "wikipedia": "it:Collezione Maramotti"
  }
},
{
  "type": "way",
  "id": 168259440,
  "nodes": [
    1795559192,
    1795559229,
    1795559216,
    1795559201,
    1795559199,
    1795559211,
    1795559207,
    1795559194,
    1795559188,
    1795559175,
    1795559192
  ],
  "tags": {
    "building": "yes",
    "name": "Museo Civiltà Contadina \"Fratelli Cervi\"",
    "source": "Regione Emilia Romagna",
    "tourism": "museum",
    "wikipedia": "it:Casa Cervi"
  }
},
{
  "type": "way",
  "id": 168260020,
  "nodes": [
    1795497692,
    1795497786,
    1795497763,
    1795497869,
    1795497880,
    1795497942,
    1795497843,
    1795497743,
    1795497830,
    1795497759,
    1795497717,
    1795497603,
    1795497692
  ],
  "tags": {
    "building": "yes",
    "name": "Trattori d'epoca Oto Melara",
    "source": "Regione Emilia Romagna",
    "tourism": "museum"
  }
},
{
  "type": "way",
  "id": 186645729,
  "nodes": [
    1973839363,
    1973839367,
    1973839365,
    1973839362,
    1973839363
  ],
  "tags": {
    "building": "yes",
    "museum": "nature",
    "name": "Centro Visite Ca' Tassi",
    "source": "Regione Emilia Romagna",
    "tourism": "museum"
  }
},
{
  "type": "way",
  "id": 345663003,
  "nodes": [
    3523074123,
    3523074124,
    3523073959,
    3523073958,
    3523073986,
    3523073987,
    3523074026,
    3523074025,
    3523074062,
    3523074063,
    3523074102,
    3523074101,
    3523074123
  ],
  "tags": {
    "building": "yes",
    "name": "MuVi",
    "tourism": "museum"
  }
},
{
  "type": "way",
  "id": 409244907,
  "nodes": [
    1794530100,
    4111449170,
    4111449182,
    4111449185,
    4111449188,
    4111449187,
    4111449186,
    4111449184,
    1794531058,
    1794531019,
    1794531338,
    1794531796,
    1794531649,
    1794531404,
    1794530968,
    1794530937,
    4111449159,
    1794530732,
    1794530755,
    4111449152,
    4111449147,
    4111449140,
    1794530063,
    1794530027,
    4111449129,
    4111449130,
    4111449133,
    1794530100
  ],
  "tags": {
    "name": "Musei Civici",
    "operator": "Comune di Reggio Emilia",
    "tourism": "museum"
  }
},
{
  "type": "relation",
  "id": 1640895,
  "members": [
    {
      "type": "way",
      "ref": 109896699,
      "role": "inner"
    },
    {
      "type": "way",
      "ref": 109896707,
      "role": "inner"
    },
    {
      "type": "way",
      "ref": 109896701,
      "role": "inner"
    },
    {
      "type": "way",
      "ref": 109896705,
      "role": "inner"
    },
    {
      "type": "way",
      "ref": 109896698,
      "role": "inner"
    },
    {
      "type": "way",
      "ref": 167170351,
      "role": "outer"
    }
  ],
  "tags": {
    "building": "yes",
    "name": "Palazzo dei Musei",
    "opening_hours": "Mo-Su 08:30-19:30; PH 9:30-19:30",
    "tourism": "museum",
    "type": "multipolygon",
    "website": "http://www.palazzodeimuseimodena.it",
    "wikidata": "Q23826229",
    "wikipedia": "it:Galleria Estense"
  }
},
{
  "type": "relation",
  "id": 2219743,
  "members": [
    {
      "type": "way",
      "ref": 77415112,
      "role": "outer"
    },
    {
      "type": "way",
      "ref": 166524661,
      "role": "inner"
    }
  ],
  "tags": {
    "addr:street": "Via Guercino",
    "building": "yes",
    "denomination": "catholic",
    "name": "Pinacoteca San Lorenzo",
    "tourism": "museum",
    "type": "multipolygon"
  }
},
{
  "type": "node",
  "id": 1621870477,
  "lat": 44.5143803,
  "lon": 10.8265252
},
{
  "type": "node",
  "id": 1973839362,
  "lat": 44.5116511,
  "lon": 10.8221910
},
{
  "type": "node",
  "id": 1973839363,
  "lat": 44.5116806,
  "lon": 10.8220731
},
{
  "type": "node",
  "id": 1973839365,
  "lat": 44.5118141,
  "lon": 10.8222723
},
{
  "type": "node",
  "id": 1973839367,
  "lat": 44.5118436,
  "lon": 10.8221545
},
{
  "type": "node",
  "id": 1621870464,
  "lat": 44.5142462,
  "lon": 10.8267297
},
{
  "type": "node",
  "id": 1621870473,
  "lat": 44.5143085,
  "lon": 10.8268094
},
{
  "type": "node",
  "id": 1621870482,
  "lat": 44.5144432,
  "lon": 10.8266143
},
{
  "type": "node",
  "id": 525473894,
  "lat": 44.5297904,
  "lon": 10.8621034
},
{
  "type": "node",
  "id": 525473897,
  "lat": 44.5295124,
  "lon": 10.8620451
},
{
  "type": "node",
  "id": 525473900,
  "lat": 44.5296088,
  "lon": 10.8612893
},
{
  "type": "node",
  "id": 948518723,
  "lat": 44.5296334,
  "lon": 10.8610784
},
{
  "type": "node",
  "id": 948518739,
  "lat": 44.5300707,
  "lon": 10.8612687
},
{
  "type": "node",
  "id": 948518766,
  "lat": 44.5293745,
  "lon": 10.8619824
},
{
  "type": "node",
  "id": 948518775,
  "lat": 44.5299982,
  "lon": 10.8613728
},
{
  "type": "node",
  "id": 948518797,
  "lat": 44.5298602,
  "lon": 10.8611445
},
{
  "type": "node",
  "id": 948518907,
  "lat": 44.5294531,
  "lon": 10.8616967
},
{
  "type": "node",
  "id": 948518961,
  "lat": 44.5298960,
  "lon": 10.8612472
},
{
  "type": "node",
  "id": 6654549228,
  "lat": 44.5301225,
  "lon": 10.8612266
},
{
  "type": "node",
  "id": 6654549229,
  "lat": 44.5302264,
  "lon": 10.8612348
},
{
  "type": "node",
  "id": 6654549230,
  "lat": 44.5300082,
  "lon": 10.8610602
},
{
  "type": "node",
  "id": 6654549231,
  "lat": 44.5302392,
  "lon": 10.8611029
},
{
  "type": "node",
  "id": 6654549232,
  "lat": 44.5300001,
  "lon": 10.8611732
},
{
  "type": "node",
  "id": 6654549233,
  "lat": 44.5299444,
  "lon": 10.8611203
},
{
  "type": "node",
  "id": 6654549234,
  "lat": 44.5298628,
  "lon": 10.8611031
},
{
  "type": "node",
  "id": 6654549235,
  "lat": 44.5295049,
  "lon": 10.8619976
},
{
  "type": "node",
  "id": 6654549236,
  "lat": 44.5294094,
  "lon": 10.8616932
},
{
  "type": "node",
  "id": 6654549237,
  "lat": 44.5294632,
  "lon": 10.8615796
},
{
  "type": "node",
  "id": 6654549238,
  "lat": 44.5294957,
  "lon": 10.8612639
},
{
  "type": "node",
  "id": 6654549239,
  "lat": 44.5299507,
  "lon": 10.8612755
},
{
  "type": "node",
  "id": 1795497603,
  "lat": 44.6908312,
  "lon": 10.4973629
},
{
  "type": "node",
  "id": 1795497692,
  "lat": 44.6909069,
  "lon": 10.4972178
},
{
  "type": "node",
  "id": 1795497717,
  "lat": 44.6909196,
  "lon": 10.4974536
},
{
  "type": "node",
  "id": 1795497743,
  "lat": 44.6909386,
  "lon": 10.4975506
},
{
  "type": "node",
  "id": 1795497759,
  "lat": 44.6909556,
  "lon": 10.4973847
},
{
  "type": "node",
  "id": 1795497763,
  "lat": 44.6909580,
  "lon": 10.4972925
},
{
  "type": "node",
  "id": 1795497786,
  "lat": 44.6909656,
  "lon": 10.4972779
},
{
  "type": "node",
  "id": 1795497830,
  "lat": 44.6910009,
  "lon": 10.4974311
},
{
  "type": "node",
  "id": 1795497843,
  "lat": 44.6910115,
  "lon": 10.4976253
},
{
  "type": "node",
  "id": 1795497869,
  "lat": 44.6910372,
  "lon": 10.4973737
},
{
  "type": "node",
  "id": 1795497880,
  "lat": 44.6910561,
  "lon": 10.4973376
},
{
  "type": "node",
  "id": 1795497942,
  "lat": 44.6911248,
  "lon": 10.4974080
},
{
  "type": "node",
  "id": 1795559175,
  "lat": 44.7905097,
  "lon": 10.4973934
},
{
  "type": "node",
  "id": 1794561913,
  "lat": 44.7077349,
  "lon": 10.6014387
},
{
  "type": "node",
  "id": 1794561994,
  "lat": 44.7077869,
  "lon": 10.6008456
},
{
  "type": "node",
  "id": 1794562094,
  "lat": 44.7078416,
  "lon": 10.6005662
},
{
  "type": "node",
  "id": 1794562111,
  "lat": 44.7078464,
  "lon": 10.6008687
},
{
  "type": "node",
  "id": 1794562290,
  "lat": 44.7078833,
  "lon": 10.6015773
},
{
  "type": "node",
  "id": 1794562362,
  "lat": 44.7078915,
  "lon": 10.6015352
},
{
  "type": "node",
  "id": 1794562627,
  "lat": 44.7079372,
  "lon": 10.6015529
},
{
  "type": "node",
  "id": 1794562634,
  "lat": 44.7079416,
  "lon": 10.6015284
},
{
  "type": "node",
  "id": 1794562813,
  "lat": 44.7079663,
  "lon": 10.6015638
},
{
  "type": "node",
  "id": 1794562835,
  "lat": 44.7079716,
  "lon": 10.6015361
},
{
  "type": "node",
  "id": 1794562871,
  "lat": 44.7079768,
  "lon": 10.6012011
},
{
  "type": "node",
  "id": 1794562910,
  "lat": 44.7079876,
  "lon": 10.6016174
},
{
  "type": "node",
  "id": 1794562938,
  "lat": 44.7079958,
  "lon": 10.6015753
},
{
  "type": "node",
  "id": 1794563081,
  "lat": 44.7080253,
  "lon": 10.6009519
},
{
  "type": "node",
  "id": 1794563219,
  "lat": 44.7080448,
  "lon": 10.6008464
},
{
  "type": "node",
  "id": 1794563479,
  "lat": 44.7080622,
  "lon": 10.6008532
},
{
  "type": "node",
  "id": 1794563509,
  "lat": 44.7080656,
  "lon": 10.6008369
},
{
  "type": "node",
  "id": 1794563563,
  "lat": 44.7080782,
  "lon": 10.6006756
},
{
  "type": "node",
  "id": 1794563665,
  "lat": 44.7080965,
  "lon": 10.6009791
},
{
  "type": "node",
  "id": 1794563825,
  "lat": 44.7081202,
  "lon": 10.6008579
},
{
  "type": "node",
  "id": 1794564011,
  "lat": 44.7081958,
  "lon": 10.6016938
},
{
  "type": "node",
  "id": 1794564020,
  "lat": 44.7082060,
  "lon": 10.6016411
},
{
  "type": "node",
  "id": 1794564185,
  "lat": 44.7082598,
  "lon": 10.6017183
},
{
  "type": "node",
  "id": 1794564229,
  "lat": 44.7082719,
  "lon": 10.6016580
},
{
  "type": "node",
  "id": 1794564500,
  "lat": 44.7083955,
  "lon": 10.6017056
},
{
  "type": "node",
  "id": 1794564594,
  "lat": 44.7084580,
  "lon": 10.6013867
},
{
  "type": "node",
  "id": 1794530027,
  "lat": 44.6999661,
  "lon": 10.6327888
},
{
  "type": "node",
  "id": 1794530063,
  "lat": 44.6999789,
  "lon": 10.6326818
},
{
  "type": "node",
  "id": 1794530100,
  "lat": 44.6999920,
  "lon": 10.6319691
},
{
  "type": "node",
  "id": 1794530732,
  "lat": 44.7002169,
  "lon": 10.6328076
},
{
  "type": "node",
  "id": 1794530755,
  "lat": 44.7002246,
  "lon": 10.6327349
},
{
  "type": "node",
  "id": 1794530937,
  "lat": 44.7002974,
  "lon": 10.6328253
},
{
  "type": "node",
  "id": 1794530968,
  "lat": 44.7003095,
  "lon": 10.6327426
},
{
  "type": "node",
  "id": 1794531019,
  "lat": 44.7003349,
  "lon": 10.6325505
},
{
  "type": "node",
  "id": 1794531058,
  "lat": 44.7003553,
  "lon": 10.6323653
},
{
  "type": "node",
  "id": 1794531338,
  "lat": 44.7004121,
  "lon": 10.6325720
},
{
  "type": "node",
  "id": 1794531404,
  "lat": 44.7004178,
  "lon": 10.6327679
},
{
  "type": "node",
  "id": 1794531649,
  "lat": 44.7004482,
  "lon": 10.6326755
},
{
  "type": "node",
  "id": 1794531796,
  "lat": 44.7004761,
  "lon": 10.6325915
},
{
  "type": "node",
  "id": 4111449129,
  "lat": 44.6999013,
  "lon": 10.6327746
},
{
  "type": "node",
  "id": 4111449130,
  "lat": 44.6999213,
  "lon": 10.6325816
},
{
  "type": "node",
  "id": 4111449133,
  "lat": 44.6999774,
  "lon": 10.6320956
},
{
  "type": "node",
  "id": 4111449140,
  "lat": 44.7000758,
  "lon": 10.6327027
},
{
  "type": "node",
  "id": 4111449147,
  "lat": 44.7001024,
  "lon": 10.6327085
},
{
  "type": "node",
  "id": 4111449152,
  "lat": 44.7001585,
  "lon": 10.6327206
},
{
  "type": "node",
  "id": 4111449159,
  "lat": 44.7002549,
  "lon": 10.6328160
},
{
  "type": "node",
  "id": 4111449170,
  "lat": 44.7003005,
  "lon": 10.6320406
},
{
  "type": "node",
  "id": 4111449182,
  "lat": 44.7003478,
  "lon": 10.6320515
},
{
  "type": "node",
  "id": 4111449184,
  "lat": 44.7003632,
  "lon": 10.6322878
},
{
  "type": "node",
  "id": 4111449185,
  "lat": 44.7003682,
  "lon": 10.6320565
},
{
  "type": "node",
  "id": 4111449186,
  "lat": 44.7003688,
  "lon": 10.6322329
},
{
  "type": "node",
  "id": 4111449187,
  "lat": 44.7003805,
  "lon": 10.6321184
},
{
  "type": "node",
  "id": 4111449188,
  "lat": 44.7003865,
  "lon": 10.6320605
},
{
  "type": "node",
  "id": 1792603938,
  "lat": 44.6898832,
  "lon": 10.6612541
},
{
  "type": "node",
  "id": 1792604234,
  "lat": 44.6900018,
  "lon": 10.6612436
},
{
  "type": "node",
  "id": 1792604278,
  "lat": 44.6900223,
  "lon": 10.6608568
},
{
  "type": "node",
  "id": 1792604323,
  "lat": 44.6900403,
  "lon": 10.6611356
},
{
  "type": "node",
  "id": 1792604372,
  "lat": 44.6900598,
  "lon": 10.6610951
},
{
  "type": "node",
  "id": 1792604406,
  "lat": 44.6900634,
  "lon": 10.6611520
},
{
  "type": "node",
  "id": 1792604520,
  "lat": 44.6900785,
  "lon": 10.6611083
},
{
  "type": "node",
  "id": 1792604645,
  "lat": 44.6900912,
  "lon": 10.6610071
},
{
  "type": "node",
  "id": 1792604781,
  "lat": 44.6901412,
  "lon": 10.6614344
},
{
  "type": "node",
  "id": 1792604852,
  "lat": 44.6901675,
  "lon": 10.6613594
},
{
  "type": "node",
  "id": 1792605106,
  "lat": 44.6902578,
  "lon": 10.6611235
},
{
  "type": "node",
  "id": 1792605228,
  "lat": 44.6902869,
  "lon": 10.6610417
},
{
  "type": "node",
  "id": 1794317663,
  "lat": 44.7772078,
  "lon": 10.6750961
},
{
  "type": "node",
  "id": 1794317664,
  "lat": 44.7772104,
  "lon": 10.6751574
},
{
  "type": "node",
  "id": 1794317668,
  "lat": 44.7772205,
  "lon": 10.6751006
},
{
  "type": "node",
  "id": 1794317676,
  "lat": 44.7772374,
  "lon": 10.6749300
},
{
  "type": "node",
  "id": 1794317740,
  "lat": 44.7773626,
  "lon": 10.6752108
},
{
  "type": "node",
  "id": 1794317767,
  "lat": 44.7774023,
  "lon": 10.6749879
},
{
  "type": "node",
  "id": 1795559188,
  "lat": 44.7906161,
  "lon": 10.4974352
},
{
  "type": "node",
  "id": 1795559192,
  "lat": 44.7906228,
  "lon": 10.4968245
},
{
  "type": "node",
  "id": 1795559194,
  "lat": 44.7906299,
  "lon": 10.4973660
},
{
  "type": "node",
  "id": 1795559199,
  "lat": 44.7906508,
  "lon": 10.4973144
},
{
  "type": "node",
  "id": 1795559201,
  "lat": 44.7906586,
  "lon": 10.4972751
},
{
  "type": "node",
  "id": 1795559207,
  "lat": 44.7906872,
  "lon": 10.4973885
},
{
  "type": "node",
  "id": 1795559211,
  "lat": 44.7906982,
  "lon": 10.4973330
},
{
  "type": "node",
  "id": 1795559216,
  "lat": 44.7907110,
  "lon": 10.4972956
},
{
  "type": "node",
  "id": 1795559229,
  "lat": 44.7907916,
  "lon": 10.4968907
},
{
  "type": "node",
  "id": 1789428062,
  "lat": 44.7363783,
  "lon": 10.7830709
},
{
  "type": "node",
  "id": 1789428075,
  "lat": 44.7364409,
  "lon": 10.7828622
},
{
  "type": "node",
  "id": 1789428108,
  "lat": 44.7366554,
  "lon": 10.7829915
},
{
  "type": "node",
  "id": 1789428145,
  "lat": 44.7365913,
  "lon": 10.7831985
},
{
  "type": "node",
  "id": 1787681386,
  "lat": 44.6909111,
  "lon": 10.8400364
},
{
  "type": "node",
  "id": 1787681439,
  "lat": 44.6909642,
  "lon": 10.8404223
},
{
  "type": "node",
  "id": 1787681441,
  "lat": 44.6909692,
  "lon": 10.8403194
},
{
  "type": "node",
  "id": 1787681442,
  "lat": 44.6909710,
  "lon": 10.8402962
},
{
  "type": "node",
  "id": 1787681461,
  "lat": 44.6909678,
  "lon": 10.8399546
},
{
  "type": "node",
  "id": 1787681680,
  "lat": 44.6910495,
  "lon": 10.8403231
},
{
  "type": "node",
  "id": 1787681702,
  "lat": 44.6910621,
  "lon": 10.8402492
},
{
  "type": "node",
  "id": 1787681739,
  "lat": 44.6910740,
  "lon": 10.8401798
},
{
  "type": "node",
  "id": 1787681782,
  "lat": 44.6910854,
  "lon": 10.8401129
},
{
  "type": "node",
  "id": 1787681964,
  "lat": 44.6911483,
  "lon": 10.8402443
},
{
  "type": "node",
  "id": 1787682049,
  "lat": 44.6911728,
  "lon": 10.8405109
},
{
  "type": "node",
  "id": 1787682054,
  "lat": 44.6911764,
  "lon": 10.8402687
},
{
  "type": "node",
  "id": 1787682312,
  "lat": 44.6912515,
  "lon": 10.8403339
},
{
  "type": "node",
  "id": 1585856868,
  "lat": 44.5332696,
  "lon": 11.0226455
},
{
  "type": "node",
  "id": 1585856872,
  "lat": 44.5333017,
  "lon": 11.0224544
},
{
  "type": "node",
  "id": 1585856883,
  "lat": 44.5333422,
  "lon": 11.0224679
},
{
  "type": "node",
  "id": 1585856887,
  "lat": 44.5333585,
  "lon": 11.0223710
},
{
  "type": "node",
  "id": 1585856891,
  "lat": 44.5334109,
  "lon": 11.0226923
},
{
  "type": "node",
  "id": 1585856901,
  "lat": 44.5334594,
  "lon": 11.0224044
},
{
  "type": "node",
  "id": 1256958056,
  "lat": 44.6480779,
  "lon": 10.9213393
},
{
  "type": "node",
  "id": 1256958057,
  "lat": 44.6470449,
  "lon": 10.9205674
},
{
  "type": "node",
  "id": 1256958058,
  "lat": 44.6474313,
  "lon": 10.9211017
},
{
  "type": "node",
  "id": 1256958059,
  "lat": 44.6473512,
  "lon": 10.9206779
},
{
  "type": "node",
  "id": 1256958076,
  "lat": 44.6478655,
  "lon": 10.9208858
},
{
  "type": "node",
  "id": 1256958077,
  "lat": 44.6473570,
  "lon": 10.9209975
},
{
  "type": "node",
  "id": 1256958078,
  "lat": 44.6477013,
  "lon": 10.9208813
},
{
  "type": "node",
  "id": 1256958079,
  "lat": 44.6479200,
  "lon": 10.9209168
},
{
  "type": "node",
  "id": 1256958080,
  "lat": 44.6480586,
  "lon": 10.9214045
},
{
  "type": "node",
  "id": 1256958082,
  "lat": 44.6469098,
  "lon": 10.9209805
},
{
  "type": "node",
  "id": 1256958084,
  "lat": 44.6476994,
  "lon": 10.9210250
},
{
  "type": "node",
  "id": 1256958086,
  "lat": 44.6476620,
  "lon": 10.9208585
},
{
  "type": "node",
  "id": 1256958087,
  "lat": 44.6473435,
  "lon": 10.9210432
},
{
  "type": "node",
  "id": 1256958093,
  "lat": 44.6470010,
  "lon": 10.9204227
},
{
  "type": "node",
  "id": 1256958094,
  "lat": 44.6470756,
  "lon": 10.9204589
},
{
  "type": "node",
  "id": 1256958095,
  "lat": 44.6481464,
  "lon": 10.9207859
},
{
  "type": "node",
  "id": 1256958096,
  "lat": 44.6477653,
  "lon": 10.9206623
},
{
  "type": "node",
  "id": 1256958097,
  "lat": 44.6474138,
  "lon": 10.9204561
},
{
  "type": "node",
  "id": 1256958098,
  "lat": 44.6475081,
  "lon": 10.9209953
},
{
  "type": "node",
  "id": 1256958099,
  "lat": 44.6480872,
  "lon": 10.9209915
},
{
  "type": "node",
  "id": 1256958101,
  "lat": 44.6472199,
  "lon": 10.9210950
},
{
  "type": "node",
  "id": 1256958102,
  "lat": 44.6471102,
  "lon": 10.9207609
},
{
  "type": "node",
  "id": 1256958109,
  "lat": 44.6477684,
  "lon": 10.9210652
},
{
  "type": "node",
  "id": 1256958111,
  "lat": 44.6479250,
  "lon": 10.9208993
},
{
  "type": "node",
  "id": 1256958112,
  "lat": 44.6478117,
  "lon": 10.9201752
},
{
  "type": "node",
  "id": 1256958113,
  "lat": 44.6470212,
  "lon": 10.9210441
},
{
  "type": "node",
  "id": 1256958114,
  "lat": 44.6473985,
  "lon": 10.9211989
},
{
  "type": "node",
  "id": 1256958115,
  "lat": 44.6470419,
  "lon": 10.9209901
},
{
  "type": "node",
  "id": 1256958116,
  "lat": 44.6474874,
  "lon": 10.9207563
},
{
  "type": "node",
  "id": 1256958117,
  "lat": 44.6479297,
  "lon": 10.9206627
},
{
  "type": "node",
  "id": 1256958118,
  "lat": 44.6472651,
  "lon": 10.9209434
},
{
  "type": "node",
  "id": 1256958124,
  "lat": 44.6472884,
  "lon": 10.9201719
},
{
  "type": "node",
  "id": 1256958126,
  "lat": 44.6473854,
  "lon": 10.9211526
},
{
  "type": "node",
  "id": 1256958127,
  "lat": 44.6471602,
  "lon": 10.9205714
},
{
  "type": "node",
  "id": 1256958129,
  "lat": 44.6477448,
  "lon": 10.9211454
},
{
  "type": "node",
  "id": 1256958130,
  "lat": 44.6470636,
  "lon": 10.9201677
},
{
  "type": "node",
  "id": 1256958131,
  "lat": 44.6472228,
  "lon": 10.9203496
},
{
  "type": "node",
  "id": 1256958132,
  "lat": 44.6477373,
  "lon": 10.9204297
},
{
  "type": "node",
  "id": 1256958133,
  "lat": 44.6484346,
  "lon": 10.9205349
},
{
  "type": "node",
  "id": 1256958134,
  "lat": 44.6473541,
  "lon": 10.9210073
},
{
  "type": "node",
  "id": 1256958137,
  "lat": 44.6470189,
  "lon": 10.9210521
},
{
  "type": "node",
  "id": 1256958138,
  "lat": 44.6476566,
  "lon": 10.9211705
},
{
  "type": "node",
  "id": 1256958140,
  "lat": 44.6475520,
  "lon": 10.9205357
},
{
  "type": "node",
  "id": 1256958142,
  "lat": 44.6481361,
  "lon": 10.9214511
},
{
  "type": "node",
  "id": 1256958144,
  "lat": 44.6473751,
  "lon": 10.9211833
},
{
  "type": "node",
  "id": 1256958145,
  "lat": 44.6473211,
  "lon": 10.9211097
},
{
  "type": "node",
  "id": 1256958147,
  "lat": 44.6470314,
  "lon": 10.9205597
},
{
  "type": "node",
  "id": 1256958149,
  "lat": 44.6474820,
  "lon": 10.9210827
},
{
  "type": "node",
  "id": 1332670319,
  "lat": 44.6469242,
  "lon": 10.9209308
},
{
  "type": "node",
  "id": 4409311566,
  "lat": 44.6474277,
  "lon": 10.9212095
},
{
  "type": "node",
  "id": 4409311567,
  "lat": 44.6474449,
  "lon": 10.9212712
},
{
  "type": "node",
  "id": 4409311568,
  "lat": 44.6474525,
  "lon": 10.9211397
},
{
  "type": "node",
  "id": 4409311569,
  "lat": 44.6474656,
  "lon": 10.9213342
},
{
  "type": "node",
  "id": 4409311570,
  "lat": 44.6474764,
  "lon": 10.9212933
},
{
  "type": "node",
  "id": 4409311571,
  "lat": 44.6474945,
  "lon": 10.9211129
},
{
  "type": "node",
  "id": 4409311572,
  "lat": 44.6475241,
  "lon": 10.9211324
},
{
  "type": "node",
  "id": 4409311573,
  "lat": 44.6475340,
  "lon": 10.9211024
},
{
  "type": "node",
  "id": 4512296201,
  "lat": 44.6480807,
  "lon": 10.9203341
},
{
  "type": "node",
  "id": 4512296205,
  "lat": 44.6482765,
  "lon": 10.9210202
},
{
  "type": "node",
  "id": 5538123603,
  "lat": 44.6475861,
  "lon": 10.9211329
},
{
  "type": "node",
  "id": 1785245084,
  "lat": 44.6517235,
  "lon": 10.9371314
},
{
  "type": "node",
  "id": 1785245174,
  "lat": 44.6517143,
  "lon": 10.9370958
},
{
  "type": "node",
  "id": 1785246457,
  "lat": 44.6519234,
  "lon": 10.9362994
},
{
  "type": "node",
  "id": 1785246562,
  "lat": 44.6519858,
  "lon": 10.9365829
},
{
  "type": "node",
  "id": 1785246946,
  "lat": 44.6520066,
  "lon": 10.9363997
},
{
  "type": "node",
  "id": 1785247542,
  "lat": 44.6520808,
  "lon": 10.9364890
},
{
  "type": "node",
  "id": 1785247558,
  "lat": 44.6520996,
  "lon": 10.9366262
},
{
  "type": "node",
  "id": 1785247565,
  "lat": 44.6520710,
  "lon": 10.9366262
},
{
  "type": "node",
  "id": 1785247615,
  "lat": 44.6520926,
  "lon": 10.9373318
},
{
  "type": "node",
  "id": 1785247660,
  "lat": 44.6520999,
  "lon": 10.9364599
},
{
  "type": "node",
  "id": 1785247895,
  "lat": 44.6521374,
  "lon": 10.9365054
},
{
  "type": "node",
  "id": 1785248030,
  "lat": 44.6521593,
  "lon": 10.9361473
},
{
  "type": "node",
  "id": 1785248326,
  "lat": 44.6522182,
  "lon": 10.9360526
},
{
  "type": "node",
  "id": 1785248453,
  "lat": 44.6522411,
  "lon": 10.9360174
},
{
  "type": "node",
  "id": 1785248480,
  "lat": 44.6522481,
  "lon": 10.9362168
},
{
  "type": "node",
  "id": 1785248534,
  "lat": 44.6522580,
  "lon": 10.9362018
},
{
  "type": "node",
  "id": 1785248588,
  "lat": 44.6523925,
  "lon": 10.9364643
},
{
  "type": "node",
  "id": 1785248782,
  "lat": 44.6522853,
  "lon": 10.9362618
},
{
  "type": "node",
  "id": 1785248993,
  "lat": 44.6523238,
  "lon": 10.9362801
},
{
  "type": "node",
  "id": 1785249349,
  "lat": 44.6523831,
  "lon": 10.9361877
},
{
  "type": "node",
  "id": 2736127813,
  "lat": 44.6519116,
  "lon": 10.9364673
},
{
  "type": "node",
  "id": 2736127815,
  "lat": 44.6519219,
  "lon": 10.9364311
},
{
  "type": "node",
  "id": 2736127817,
  "lat": 44.6519245,
  "lon": 10.9363901
},
{
  "type": "node",
  "id": 2736127819,
  "lat": 44.6519384,
  "lon": 10.9363912
},
{
  "type": "node",
  "id": 2736127821,
  "lat": 44.6519399,
  "lon": 10.9364552
},
{
  "type": "node",
  "id": 2736127823,
  "lat": 44.6519418,
  "lon": 10.9365008
},
{
  "type": "node",
  "id": 2736127825,
  "lat": 44.6519530,
  "lon": 10.9365396
},
{
  "type": "node",
  "id": 2736127829,
  "lat": 44.6520379,
  "lon": 10.9366164
},
{
  "type": "node",
  "id": 2736127831,
  "lat": 44.6520647,
  "lon": 10.9373453
},
{
  "type": "node",
  "id": 2736127835,
  "lat": 44.6521265,
  "lon": 10.9366130
},
{
  "type": "node",
  "id": 2736127839,
  "lat": 44.6521699,
  "lon": 10.9365621
},
{
  "type": "node",
  "id": 2736127849,
  "lat": 44.6522408,
  "lon": 10.9364856
},
{
  "type": "node",
  "id": 2736127853,
  "lat": 44.6522877,
  "lon": 10.9364589
},
{
  "type": "node",
  "id": 2736127857,
  "lat": 44.6523358,
  "lon": 10.9364446
},
{
  "type": "node",
  "id": 911180873,
  "lat": 44.7281596,
  "lon": 11.2916383
},
{
  "type": "node",
  "id": 911180885,
  "lat": 44.7282978,
  "lon": 11.2917999
},
{
  "type": "node",
  "id": 911188588,
  "lat": 44.7281127,
  "lon": 11.2916513
},
{
  "type": "node",
  "id": 1779711675,
  "lat": 44.7280264,
  "lon": 11.2918282
},
{
  "type": "node",
  "id": 1779711679,
  "lat": 44.7280489,
  "lon": 11.2917879
},
{
  "type": "node",
  "id": 1779711692,
  "lat": 44.7280861,
  "lon": 11.2918288
},
{
  "type": "node",
  "id": 1779711729,
  "lat": 44.7282869,
  "lon": 11.2918365
},
{
  "type": "node",
  "id": 4731745458,
  "lat": 44.7280078,
  "lon": 11.2918050
},
{
  "type": "node",
  "id": 911180915,
  "lat": 44.7280238,
  "lon": 11.2920982
},
{
  "type": "node",
  "id": 911180952,
  "lat": 44.7279332,
  "lon": 11.2919144
},
{
  "type": "node",
  "id": 911180982,
  "lat": 44.7281359,
  "lon": 11.2920487
},
{
  "type": "node",
  "id": 1779711677,
  "lat": 44.7280423,
  "lon": 11.2920648
},
{
  "type": "node",
  "id": 1779711687,
  "lat": 44.7280636,
  "lon": 11.2918691
},
{
  "type": "node",
  "id": 1779711689,
  "lat": 44.7280677,
  "lon": 11.2921124
},
{
  "type": "node",
  "id": 1779711691,
  "lat": 44.7280687,
  "lon": 11.2921615
},
{
  "type": "node",
  "id": 1779711694,
  "lat": 44.7280888,
  "lon": 11.2921422
},
{
  "type": "node",
  "id": 1779711698,
  "lat": 44.7281290,
  "lon": 11.2920335
},
{
  "type": "node",
  "id": 1779711702,
  "lat": 44.7281628,
  "lon": 11.2920231
},
{
  "type": "node",
  "id": 1779711710,
  "lat": 44.7281988,
  "lon": 11.2920782
},
{
  "type": "node",
  "id": 1779711726,
  "lat": 44.7282495,
  "lon": 11.2918906
},
{
  "type": "node",
  "id": 1779711734,
  "lat": 44.7282920,
  "lon": 11.2919470
},
{
  "type": "node",
  "id": 3523073958,
  "lat": 44.9271543,
  "lon": 10.5203619
},
{
  "type": "node",
  "id": 3523073959,
  "lat": 44.9271563,
  "lon": 10.5209600
},
{
  "type": "node",
  "id": 3523073986,
  "lat": 44.9272564,
  "lon": 10.5203612
},
{
  "type": "node",
  "id": 3523073987,
  "lat": 44.9272580,
  "lon": 10.5208055
},
{
  "type": "node",
  "id": 3523074025,
  "lat": 44.9273665,
  "lon": 10.5207651
},
{
  "type": "node",
  "id": 3523074026,
  "lat": 44.9273666,
  "lon": 10.5208048
},
{
  "type": "node",
  "id": 3523074062,
  "lat": 44.9274960,
  "lon": 10.5207642
},
{
  "type": "node",
  "id": 3523074063,
  "lat": 44.9274961,
  "lon": 10.5208026
},
{
  "type": "node",
  "id": 3523074101,
  "lat": 44.9276089,
  "lon": 10.5203643
},
{
  "type": "node",
  "id": 3523074102,
  "lat": 44.9276104,
  "lon": 10.5208018
},
{
  "type": "node",
  "id": 3523074123,
  "lat": 44.9277212,
  "lon": 10.5203635
},
{
  "type": "node",
  "id": 3523074124,
  "lat": 44.9277232,
  "lon": 10.5209562
},
{
  "type": "way",
  "id": 109896698,
  "nodes": [
    1256958076,
    1256958079,
    1256958111,
    1256958099,
    1256958095,
    1256958117,
    1256958076
  ]
},
{
  "type": "way",
  "id": 109896699,
  "nodes": [
    1256958131,
    1256958127,
    1256958059,
    1256958097,
    1256958131
  ]
},
{
  "type": "way",
  "id": 109896701,
  "nodes": [
    1256958102,
    1256958115,
    1256958101,
    1256958118,
    1256958077,
    1256958134,
    1256958149,
    1256958098,
    1256958102
  ]
},
{
  "type": "way",
  "id": 109896705,
  "nodes": [
    1256958058,
    1256958087,
    1256958145,
    1256958126,
    1256958144,
    1256958114,
    1256958058
  ]
},
{
  "type": "way",
  "id": 109896707,
  "nodes": [
    1256958116,
    1256958086,
    1256958078,
    1256958096,
    1256958140,
    1256958116
  ]
},
{
  "type": "way",
  "id": 167170351,
  "nodes": [
    1256958082,
    1332670319,
    1256958147,
    1256958057,
    1256958094,
    1256958093,
    1256958130,
    1256958124,
    1256958132,
    1256958112,
    4512296201,
    1256958133,
    4512296205,
    1256958142,
    1256958080,
    1256958056,
    1256958129,
    1256958109,
    1256958084,
    1256958138,
    5538123603,
    4409311573,
    4409311572,
    4409311571,
    4409311568,
    4409311566,
    4409311567,
    4409311570,
    4409311569,
    1256958137,
    1256958113,
    1256958082
  ]
},
{
  "type": "way",
  "id": 77415112,
  "nodes": [
    911180885,
    1779711729,
    1779711726,
    1779711734,
    1779711710,
    1779711702,
    911180982,
    1779711698,
    1779711689,
    1779711694,
    1779711691,
    911180915,
    1779711677,
    911180952,
    4731745458,
    911188588,
    911180873,
    911180885
  ]
},
{
  "type": "way",
  "id": 166524661,
  "nodes": [
    1779711679,
    1779711692,
    1779711687,
    1779711675,
    1779711679
  ]
}

  ]
}
