{
  "version": 0.6,
  "generator": "Overpass API 0.7.55.9 ab41fea6",
  "osm3s": {
    "timestamp_osm_base": "2020-02-14T13:31:02Z",
    "copyright": "The data included in this document is from www.openstreetmap.org. The data is made available under ODbL."
  },
  "elements": [

{
  "type": "node",
  "id": 533647928,
  "lat": 37.1734517,
  "lon": -3.5888790,
  "tags": {
    "name": "Museo Manuel de Falla",
    "tourism": "museum"
  }
},
{
  "type": "node",
  "id": 940435771,
  "lat": 37.1770011,
  "lon": -3.5900734,
  "tags": {
    "name": "Museo de la Alhambra",
    "name:zh": "阿爾罕布拉博物館",
    "old_name": "Museo Nacional de Arte Hispanomusulmán",
    "start_date": "1940",
    "tourism": "museum",
    "wikidata": "Q6034176",
    "wikipedia": "es:Museo de la Alhambra"
  }
},
{
  "type": "node",
  "id": 1351200937,
  "lat": 37.1750101,
  "lon": -3.5926373,
  "tags": {
    "addr:city": "Granada",
    "addr:housenumber": "8",
    "addr:postcode": "18009",
    "addr:street": "Callejón Niño del Royo",
    "description": "Fundación creada en 1941 por legado testamentario del pintor José María Rodríguez-Acosta. El objetivo es el fomento y difusión de la cultura. En la visita se recorren las estancias más importantes del edificio.",
    "email": "contacto@fundacionrodriguezacosta.com",
    "name": "Fundación Rodríguez Acosta",
    "name:wikidata": "Q5943450",
    "name:wikipedia": "es:José María Rodríguez-Acosta",
    "opening_hours": "Apr 01-Oct 14: 10:00-18:30; Oct 15-Mar 31: 10:00-16:30; Dec 24,25,31: 10:00-13:30",
    "operator": "Instituto Gómez-Moreno de la Fundación Rodríguez Acosta",
    "tourism": "museum",
    "website": "http://www.fundacionrodriguezacosta.com"
  }
},
{
  "type": "node",
  "id": 1351215450,
  "lat": 37.1769483,
  "lon": -3.5899102,
  "tags": {
    "email": "museobellasartesgranada.ccul@juntadeandalucia.es",
    "name": "Museo de Bellas Artes",
    "name:es": "Museo de Bellas Artes",
    "name:zh": "現代美術館",
    "start_date": "1958",
    "tourism": "museum",
    "wikidata": "Q7265634",
    "wikipedia": "es:Museo de Bellas Artes de Granada"
  }
},
{
  "type": "node",
  "id": 2667295482,
  "lat": 36.9778960,
  "lon": -3.5388905,
  "tags": {
    "name": "Parroquia San Juan Bautista",
    "tourism": "museum"
  }
},
{
  "type": "node",
  "id": 2667295483,
  "lat": 36.9776431,
  "lon": -3.5382387,
  "tags": {
    "name": "Museo Molino \"Almazara Las Laerillas\"",
    "tourism": "museum"
  }
},
{
  "type": "node",
  "id": 2816220886,
  "lat": 37.1831301,
  "lon": -3.5843209,
  "tags": {
    "addr:city": "Granada",
    "addr:street": "Barranco de los Negros",
    "name": "Museo cuevas del Sacromonte",
    "name:tr": "Sacromente",
    "name:zh": "聖山洞穴博物館",
    "tourism": "museum",
    "wikidata": "Q47517357",
    "wikipedia": "fr:Museo-cuevas del Sacromonte"
  }
},
{
  "type": "node",
  "id": 3086688635,
  "lat": 37.2336196,
  "lon": -3.5532453,
  "tags": {
    "name": "Museo Etnológico Molino de la Venta",
    "tourism": "museum"
  }
},
{
  "type": "node",
  "id": 3927494114,
  "lat": 37.0179041,
  "lon": -3.5991079,
  "tags": {
    "addr:city": "Padul",
    "addr:postcode": "18640",
    "addr:street": "Ctra Bailen-Motril, Km 153",
    "name": "Aula de la Naturaleza \"El Aguadero\"",
    "phone": "+34 958 48 97 59",
    "tourism": "museum",
    "website": "www.elaguadero.es"
  }
},
{
  "type": "node",
  "id": 4163612671,
  "lat": 36.9607416,
  "lon": -3.3596872,
  "tags": {
    "name": "Museo Pedro Antonio de Alarcon",
    "opening_hours": "Sa 11:00-14:00,17:00-19:00;Su 11:00-14:00",
    "tourism": "museum"
  }
},
{
  "type": "node",
  "id": 4613637497,
  "lat": 37.2206619,
  "lon": -3.7846251,
  "tags": {
    "addr:city": "Fuente Vaqueros",
    "addr:housenumber": "4",
    "addr:postcode": "18340",
    "addr:street": "Calle Poeta García Lorca",
    "name": "Museo Casa Natal Federico García Lorca",
    "source": "http://www.patronatogarcialorca.org/casamuseo.php",
    "start_date": "1986-07-29",
    "toilets:wheelchair": "yes",
    "tourism": "museum",
    "wheelchair": "yes"
  }
},
{
  "type": "node",
  "id": 4630845661,
  "lat": 37.2325536,
  "lon": -3.8164064,
  "tags": {
    "addr:city": "Valderrubio",
    "addr:postcode": "18250",
    "addr:street": "Calle de la Iglesia",
    "name": "Casa museo Federico Garcia Lorca",
    "tourism": "museum",
    "website": "http://www.museolorcavalderrubio.com/fr/casa-museo"
  }
},
{
  "type": "node",
  "id": 4646694089,
  "lat": 37.1748120,
  "lon": -3.5955384,
  "tags": {
    "name": "Casa de los Tiros",
    "tourism": "museum",
    "wikidata": "Q5755346",
    "wikipedia": "es:Casa de los Tiros"
  }
},
{
  "type": "node",
  "id": 4755297122,
  "lat": 37.1817793,
  "lon": -3.5867266,
  "tags": {
    "charge": "1€",
    "description": "Casa cueva privada",
    "description:en": "Private cave house",
    "description:es": "Casa cueva privada",
    "fee": "yes",
    "fixme": "Añadir datos y referencias",
    "tourism": "museum"
  }
},
{
  "type": "node",
  "id": 5236626821,
  "lat": 37.1788216,
  "lon": -3.5905527,
  "tags": {
    "name": "Galería Alea",
    "name:en": "Galeria Alea",
    "tourism": "museum"
  }
},
{
  "type": "node",
  "id": 5358055081,
  "lat": 37.4083393,
  "lon": -3.8703566,
  "tags": {
    "name": "centro de interpretación del aceite",
    "tourism": "museum"
  }
},
{
  "type": "node",
  "id": 5605028637,
  "lat": 37.1847018,
  "lon": -3.6020545,
  "tags": {
    "addr:city": "Granada",
    "addr:postcode": "18012",
    "addr:street": "Avenida Divina Pastora",
    "name": "Cripta de Fray Leopoldo de Alpandeire",
    "tourism": "museum"
  }
},
{
  "type": "node",
  "id": 5679082016,
  "lat": 37.1809370,
  "lon": -3.5939216,
  "tags": {
    "addr:city": "Granada",
    "addr:housenumber": "12",
    "addr:postcode": "18010",
    "addr:street": "Camino Nuevo de San Nicolás",
    "alt_name": "Carmen de Max Moreau",
    "name": "Carmen de los Geranios",
    "tourism": "museum"
  }
},
{
  "type": "node",
  "id": 5862147311,
  "lat": 37.1760421,
  "lon": -3.5986977,
  "tags": {
    "name": "Museo de la Capilla Real",
    "tourism": "museum"
  }
},
{
  "type": "node",
  "id": 5877972755,
  "lat": 37.2204780,
  "lon": -3.6876020,
  "tags": {
    "addr:city": "Atarfe",
    "addr:housenumber": "39",
    "addr:postcode": "18230",
    "addr:street": "Avenida de la Diputación",
    "name": "El Arca de los Tiempos",
    "phone": "+34 958 43 90 08",
    "source": "http://www.turgranada.es/fichas/museo-el-arca-de-los-tiempos-19831",
    "tourism": "museum"
  }
},
{
  "type": "node",
  "id": 6939836186,
  "lat": 37.1752837,
  "lon": -3.5949271,
  "tags": {
    "addr:housenumber": "5",
    "addr:postcode": "18009",
    "addr:street": "Placeta Berrocal",
    "name": "Casa Museo Sefardí",
    "opening_hours": "Su-Fr 10:00-14:00",
    "phone": "+34610060255",
    "tourism": "museum"
  }
},
{
  "type": "node",
  "id": 7143023973,
  "lat": 37.1054151,
  "lon": -3.4108102,
  "tags": {
    "name": "Museo Etnogràfico",
    "tourism": "museum"
  }
},
{
  "type": "way",
  "id": 24479691,
  "nodes": [
    266159816,
    3772053051,
    3772053052,
    660180758,
    660180759,
    660180760,
    6046313393,
    6046313394,
    266159817,
    6046313445,
    266159818,
    266159819,
    6046313395,
    266159820,
    3770593319,
    266159821,
    3770593291,
    660180812,
    3772058160,
    660180813,
    6047282078,
    660180814,
    6047282156,
    7192636901,
    6047282181,
    6047282155,
    3772058159,
    660180854,
    5608203542,
    6059905697,
    659787586,
    1362490933,
    1362490821,
    660180850,
    660180757,
    266159816
  ],
  "tags": {
    "addr:city": "Granada",
    "addr:postcode": "18006",
    "addr:street": "Avenida de la Ciencia",
    "fax": "+34 958 13 35 82",
    "museum": "science",
    "name": "Parque de las Ciencias",
    "opening_hours": "Tu-Sa 10:00-19:00; Su 10:00-15:00; Mo off",
    "phone": "+34 958 13 19 00",
    "start_date": "1995-05",
    "tourism": "museum",
    "website": "http://www.parqueciencias.com",
    "wikidata": "Q6062790",
    "wikipedia": "es:Parque de las Ciencias (Granada)"
  }
},
{
  "type": "way",
  "id": 43658892,
  "nodes": [
    552349367,
    4974006924,
    1757032107,
    4974006318,
    552349371,
    1757032101,
    4974007358,
    4974007373,
    4974007374,
    4974007375,
    1757032097,
    4974007216,
    552349375,
    4974007368,
    552349377,
    552349379,
    6025192781,
    4974007369,
    1757032109,
    1757032106,
    4974006925,
    1757032103,
    4974006317,
    552349367
  ],
  "tags": {
    "addr:city": "Granada",
    "addr:housenumber": "6",
    "addr:postcode": "18009",
    "addr:street": "Plaza de los Campos",
    "barrier": "wall",
    "email": "cuartoreal@granada.org",
    "historic": "palace",
    "name": "Cuarto Real de Santo Domingo",
    "opening_hours": "Mar-Sep 10:00-14:00,17:00-21:00; Oct-Feb 10:30-14:30,16:00-20:00",
    "phone": "+34 958 84 91 11",
    "tourism": "museum",
    "website": "http://albaicin-granada.com",
    "wikidata": "Q5793291",
    "wikipedia": "es:Cuarto Real de Santo Domingo"
  }
},
{
  "type": "way",
  "id": 100265625,
  "nodes": [
    1158863279,
    1158863388,
    1158863305,
    1158863344,
    1158863246,
    1158863295,
    1158863170,
    1158863202,
    1158863379,
    1158863152,
    1158863324,
    1158863361,
    1158863279
  ],
  "tags": {
    "addr:housenumber": "41",
    "addr:street": "Calle Carrera del Darro",
    "building": "yes",
    "name": "Museo Arqueológico y Etnológico de Granada",
    "name:en": "Archaeological Museum of Granada",
    "name:es": "Museo Arqueológico y Etnológico de Granada",
    "tourism": "museum",
    "website": "http://www.museosdeandalucia.es",
    "wikidata": "Q4785407",
    "wikipedia": "es:Museo Arqueológico y Etnológico de Granada"
  }
},
{
  "type": "way",
  "id": 100268329,
  "nodes": [
    1158896711,
    1158896649,
    1158896726,
    1158896633,
    1158896693,
    1158896667,
    1158896711
  ],
  "tags": {
    "building": "yes",
    "name": "Hospital de la tiña",
    "tourism": "museum"
  }
},
{
  "type": "way",
  "id": 120443938,
  "nodes": [
    1350474059,
    2073642055,
    1350474057,
    4234692277,
    4234692275,
    1350474064,
    2073641995,
    2073641993,
    1350474062,
    2073641972,
    2073641976,
    1350474060,
    1350474061,
    1350474059
  ],
  "tags": {
    "area": "yes",
    "description:en": "Large 11th century cistern (underground water collection) under ornamental garden.",
    "historic": "cistern",
    "name": "Aljibe del Rey (Centro de Interpretación del Agua)",
    "official_name": "El Carmen del aljibe del Rey",
    "operator": "Fundación Agua Granada",
    "tourism": "museum",
    "url": "http://fundacionaguagranada.es/"
  }
},
{
  "type": "way",
  "id": 120728821,
  "nodes": [
    1352920103,
    1352920149,
    1352920134,
    1352920086,
    1352920103
  ],
  "tags": {
    "addr:city": "Granada",
    "addr:postcode": "18004",
    "addr:street": "Calle Virgen Blanca",
    "alt_name": "Huerta de San Vicente",
    "building": "yes",
    "email": "info@huertadesanvicente.com",
    "name": "Casa-Museo Federico García Lorca",
    "phone": "+34 958 25 84 66",
    "start_date": "C19",
    "tourism": "museum",
    "wikidata": "Q5904202",
    "wikipedia": "es:Huerta de San Vicente"
  }
},
{
  "type": "way",
  "id": 156819359,
  "nodes": [
    1690520408,
    1651862300,
    1651862326,
    1690520414,
    1690520410,
    1690520412,
    1690520408
  ],
  "tags": {
    "building": "yes",
    "name": "Museo José Guerrero",
    "operator": "Diputación de Granada",
    "tourism": "museum"
  }
},
{
  "type": "way",
  "id": 156837504,
  "nodes": [
    1690733809,
    1690733819,
    1690733811,
    1690733813,
    1690733807,
    1690733803,
    1690733805,
    1690733809
  ],
  "tags": {
    "alt_name": "Casa de los Pisa",
    "building": "yes",
    "name": "Museo de San Juan de Dios",
    "tourism": "museum"
  }
},
{
  "type": "way",
  "id": 467835465,
  "nodes": [
    4624392014,
    7174485015,
    7174485016,
    7174485017,
    7174485018,
    4624392013,
    4624392012,
    4624392011,
    4624392014
  ],
  "tags": {
    "building": "civic",
    "building:levels": "1",
    "museum": "science",
    "name": "Ermita de los Tres Juanes",
    "operator": "Ayuntamiento de Atarfe",
    "start_date": "1941",
    "tourism": "museum",
    "wikidata": "Q5645451",
    "wikipedia": "es:Ermita de los Tres Juanes"
  }
},
{
  "type": "way",
  "id": 470287660,
  "nodes": [
    4644921717,
    4644921718,
    4644921719,
    4644921720,
    4644921721,
    4644921722,
    4644921717
  ],
  "tags": {
    "building": "yes",
    "name": "Museo Municipal",
    "tourism": "museum"
  }
},
{
  "type": "way",
  "id": 635944653,
  "nodes": [
    5997669078,
    5997669079,
    5997669080,
    5997669081,
    5997669082,
    5997669083,
    5997669078
  ],
  "tags": {
    "addr:city": "Granada",
    "addr:housenumber": "19",
    "addr:postcode": "18071",
    "addr:street": "Calle Águila",
    "building": "yes",
    "name": "Centro Europeo De Las Mujeres Mariana Pineda",
    "opening_hours": "Mo-Fr 10:0-13:30, sep-jun Mo-Fr 18:00-21:00",
    "tourism": "museum",
    "website": "http://www.granada.org/inet/marianapineda.nsf"
  }
},
{
  "type": "way",
  "id": 665121649,
  "nodes": [
    6225497284,
    6225497285,
    6225497286,
    6225497287,
    6225497288,
    6225497289,
    6225497284
  ],
  "tags": {
    "building": "yes",
    "description": "Antiguo Cortijo del Sotillo",
    "name": "Museo Micológico",
    "tourism": "museum"
  }
},
{
  "type": "way",
  "id": 665390819,
  "nodes": [
    6227909635,
    6227909636,
    6227909637,
    6227909638,
    6227909635
  ],
  "tags": {
    "building": "yes",
    "name": "Centro de Interpretación Cueva del Agua",
    "tourism": "museum"
  }
},
{
  "type": "relation",
  "id": 8920107,
  "members": [
    {
      "type": "way",
      "ref": 51730628,
      "role": "outer"
    },
    {
      "type": "way",
      "ref": 643528946,
      "role": "inner"
    }
  ],
  "tags": {
    "addr:city": "Granada",
    "addr:housenumber": "2",
    "addr:postcode": "18006",
    "addr:street": "Avenida de la Ciencia",
    "building": "yes",
    "email": "edumuseo@cajagranadafundacion.es",
    "name": "Museo de la Memoria de Andalucía",
    "operator": "Fundación Caja Granada",
    "phone": "+34 958 22 22 57",
    "tourism": "museum",
    "type": "multipolygon"
  }
},
{
  "type": "node",
  "id": 4644921717,
  "lat": 37.2860489,
  "lon": -3.8814261
},
{
  "type": "node",
  "id": 4644921718,
  "lat": 37.2858857,
  "lon": -3.8812544
},
{
  "type": "node",
  "id": 4644921719,
  "lat": 37.2858088,
  "lon": -3.8813858
},
{
  "type": "node",
  "id": 4644921720,
  "lat": 37.2858686,
  "lon": -3.8814395
},
{
  "type": "node",
  "id": 4644921721,
  "lat": 37.2858857,
  "lon": -3.8814113
},
{
  "type": "node",
  "id": 4644921722,
  "lat": 37.2860009,
  "lon": -3.8815173
},
{
  "type": "node",
  "id": 4624392011,
  "lat": 37.2361145,
  "lon": -3.6870770
},
{
  "type": "node",
  "id": 4624392012,
  "lat": 37.2361131,
  "lon": -3.6869467
},
{
  "type": "node",
  "id": 4624392013,
  "lat": 37.2362539,
  "lon": -3.6869442
},
{
  "type": "node",
  "id": 4624392014,
  "lat": 37.2362551,
  "lon": -3.6870745
},
{
  "type": "node",
  "id": 7174485015,
  "lat": 37.2362546,
  "lon": -3.6870348
},
{
  "type": "node",
  "id": 7174485016,
  "lat": 37.2362862,
  "lon": -3.6870343
},
{
  "type": "node",
  "id": 7174485017,
  "lat": 37.2362857,
  "lon": -3.6869828
},
{
  "type": "node",
  "id": 7174485018,
  "lat": 37.2362543,
  "lon": -3.6869834
},
{
  "type": "node",
  "id": 266159817,
  "lat": 37.1612950,
  "lon": -3.6048317
},
{
  "type": "node",
  "id": 266159818,
  "lat": 37.1612505,
  "lon": -3.6046957
},
{
  "type": "node",
  "id": 266159819,
  "lat": 37.1612457,
  "lon": -3.6046412
},
{
  "type": "node",
  "id": 660180758,
  "lat": 37.1618541,
  "lon": -3.6058921
},
{
  "type": "node",
  "id": 660180759,
  "lat": 37.1617213,
  "lon": -3.6056373
},
{
  "type": "node",
  "id": 660180760,
  "lat": 37.1617400,
  "lon": -3.6056221
},
{
  "type": "node",
  "id": 660189156,
  "lat": 37.1619904,
  "lon": -3.6067811
},
{
  "type": "node",
  "id": 3772053052,
  "lat": 37.1621553,
  "lon": -3.6064514
},
{
  "type": "node",
  "id": 6046313393,
  "lat": 37.1615994,
  "lon": -3.6053524
},
{
  "type": "node",
  "id": 6046313394,
  "lat": 37.1615818,
  "lon": -3.6053670
},
{
  "type": "node",
  "id": 6046313395,
  "lat": 37.1612528,
  "lon": -3.6045419
},
{
  "type": "node",
  "id": 6046313445,
  "lat": 37.1612730,
  "lon": -3.6047721
},
{
  "type": "node",
  "id": 6055909610,
  "lat": 37.1621045,
  "lon": -3.6081510
},
{
  "type": "node",
  "id": 6055909611,
  "lat": 37.1621379,
  "lon": -3.6082131
},
{
  "type": "node",
  "id": 6055909612,
  "lat": 37.1621374,
  "lon": -3.6076216
},
{
  "type": "node",
  "id": 6055909613,
  "lat": 37.1620889,
  "lon": -3.6076443
},
{
  "type": "node",
  "id": 6055909614,
  "lat": 37.1620493,
  "lon": -3.6076401
},
{
  "type": "node",
  "id": 6055909615,
  "lat": 37.1619962,
  "lon": -3.6076131
},
{
  "type": "node",
  "id": 6055909616,
  "lat": 37.1619397,
  "lon": -3.6075564
},
{
  "type": "node",
  "id": 6055909617,
  "lat": 37.1618979,
  "lon": -3.6074770
},
{
  "type": "node",
  "id": 6055909618,
  "lat": 37.1618776,
  "lon": -3.6073835
},
{
  "type": "node",
  "id": 6055909619,
  "lat": 37.1618833,
  "lon": -3.6073069
},
{
  "type": "node",
  "id": 6055909620,
  "lat": 37.1619104,
  "lon": -3.6072502
},
{
  "type": "node",
  "id": 6055909621,
  "lat": 37.1619578,
  "lon": -3.6072105
},
{
  "type": "node",
  "id": 6055909622,
  "lat": 37.1620120,
  "lon": -3.6072063
},
{
  "type": "node",
  "id": 6055909623,
  "lat": 37.1620640,
  "lon": -3.6072346
},
{
  "type": "node",
  "id": 6055909624,
  "lat": 37.1621171,
  "lon": -3.6072885
},
{
  "type": "node",
  "id": 6055909625,
  "lat": 37.1621623,
  "lon": -3.6073679
},
{
  "type": "node",
  "id": 6055909626,
  "lat": 37.1621860,
  "lon": -3.6074572
},
{
  "type": "node",
  "id": 6055909627,
  "lat": 37.1621860,
  "lon": -3.6075224
},
{
  "type": "node",
  "id": 6055909628,
  "lat": 37.1621725,
  "lon": -3.6075749
},
{
  "type": "node",
  "id": 6055909630,
  "lat": 37.1615644,
  "lon": -3.6071390
},
{
  "type": "node",
  "id": 266159820,
  "lat": 37.1612691,
  "lon": -3.6044524
},
{
  "type": "node",
  "id": 266159821,
  "lat": 37.1613243,
  "lon": -3.6043232
},
{
  "type": "node",
  "id": 660180812,
  "lat": 37.1616687,
  "lon": -3.6038961
},
{
  "type": "node",
  "id": 660180813,
  "lat": 37.1618250,
  "lon": -3.6037531
},
{
  "type": "node",
  "id": 660180814,
  "lat": 37.1619578,
  "lon": -3.6037632
},
{
  "type": "node",
  "id": 3770593291,
  "lat": 37.1614709,
  "lon": -3.6041416
},
{
  "type": "node",
  "id": 3770593319,
  "lat": 37.1612924,
  "lon": -3.6043778
},
{
  "type": "node",
  "id": 3772058160,
  "lat": 37.1617591,
  "lon": -3.6038030
},
{
  "type": "node",
  "id": 6047282078,
  "lat": 37.1618901,
  "lon": -3.6037417
},
{
  "type": "node",
  "id": 266159816,
  "lat": 37.1630643,
  "lon": -3.6081391
},
{
  "type": "node",
  "id": 659787586,
  "lat": 37.1641931,
  "lon": -3.6049600
},
{
  "type": "node",
  "id": 660180757,
  "lat": 37.1639621,
  "lon": -3.6063594
},
{
  "type": "node",
  "id": 660180850,
  "lat": 37.1636715,
  "lon": -3.6061328
},
{
  "type": "node",
  "id": 660189159,
  "lat": 37.1626875,
  "lon": -3.6080814
},
{
  "type": "node",
  "id": 1362490821,
  "lat": 37.1638852,
  "lon": -3.6056792
},
{
  "type": "node",
  "id": 1362490933,
  "lat": 37.1641281,
  "lon": -3.6051176
},
{
  "type": "node",
  "id": 3772053051,
  "lat": 37.1624261,
  "lon": -3.6069541
},
{
  "type": "node",
  "id": 5608203542,
  "lat": 37.1639834,
  "lon": -3.6048394
},
{
  "type": "node",
  "id": 6055909608,
  "lat": 37.1625628,
  "lon": -3.6078531
},
{
  "type": "node",
  "id": 6055909609,
  "lat": 37.1625294,
  "lon": -3.6077911
},
{
  "type": "node",
  "id": 6055909629,
  "lat": 37.1622646,
  "lon": -3.6084450
},
{
  "type": "node",
  "id": 6059905697,
  "lat": 37.1641408,
  "lon": -3.6049299
},
{
  "type": "node",
  "id": 1352920086,
  "lat": 37.1706805,
  "lon": -3.6092998
},
{
  "type": "node",
  "id": 1352920103,
  "lat": 37.1705580,
  "lon": -3.6095283
},
{
  "type": "node",
  "id": 1352920134,
  "lat": 37.1706280,
  "lon": -3.6092555
},
{
  "type": "node",
  "id": 1352920149,
  "lat": 37.1705055,
  "lon": -3.6094840
},
{
  "type": "node",
  "id": 660180854,
  "lat": 37.1629536,
  "lon": -3.6042055
},
{
  "type": "node",
  "id": 3772058159,
  "lat": 37.1624285,
  "lon": -3.6038883
},
{
  "type": "node",
  "id": 6047282155,
  "lat": 37.1623517,
  "lon": -3.6038420
},
{
  "type": "node",
  "id": 6047282156,
  "lat": 37.1622971,
  "lon": -3.6039709
},
{
  "type": "node",
  "id": 6047282181,
  "lat": 37.1623317,
  "lon": -3.6038893
},
{
  "type": "node",
  "id": 7192636901,
  "lat": 37.1623022,
  "lon": -3.6039588
},
{
  "type": "node",
  "id": 5997669078,
  "lat": 37.1729610,
  "lon": -3.6023841
},
{
  "type": "node",
  "id": 5997669079,
  "lat": 37.1728445,
  "lon": -3.6022839
},
{
  "type": "node",
  "id": 5997669080,
  "lat": 37.1728046,
  "lon": -3.6023569
},
{
  "type": "node",
  "id": 5997669081,
  "lat": 37.1728550,
  "lon": -3.6024003
},
{
  "type": "node",
  "id": 5997669082,
  "lat": 37.1728337,
  "lon": -3.6024393
},
{
  "type": "node",
  "id": 5997669083,
  "lat": 37.1728999,
  "lon": -3.6024962
},
{
  "type": "node",
  "id": 552349367,
  "lat": 37.1720258,
  "lon": -3.5956123
},
{
  "type": "node",
  "id": 552349371,
  "lat": 37.1716104,
  "lon": -3.5952717
},
{
  "type": "node",
  "id": 552349375,
  "lat": 37.1715880,
  "lon": -3.5945218
},
{
  "type": "node",
  "id": 552349377,
  "lat": 37.1716880,
  "lon": -3.5944241
},
{
  "type": "node",
  "id": 552349379,
  "lat": 37.1719075,
  "lon": -3.5947578
},
{
  "type": "node",
  "id": 1757032097,
  "lat": 37.1713764,
  "lon": -3.5947435
},
{
  "type": "node",
  "id": 1757032101,
  "lat": 37.1714643,
  "lon": -3.5950530
},
{
  "type": "node",
  "id": 1757032103,
  "lat": 37.1718144,
  "lon": -3.5952716
},
{
  "type": "node",
  "id": 1757032106,
  "lat": 37.1718497,
  "lon": -3.5950938
},
{
  "type": "node",
  "id": 1757032107,
  "lat": 37.1719232,
  "lon": -3.5957233
},
{
  "type": "node",
  "id": 1757032109,
  "lat": 37.1719108,
  "lon": -3.5949658
},
{
  "type": "node",
  "id": 4974006317,
  "lat": 37.1719831,
  "lon": -3.5955495
},
{
  "type": "node",
  "id": 4974006318,
  "lat": 37.1718787,
  "lon": -3.5956595
},
{
  "type": "node",
  "id": 4974006924,
  "lat": 37.1719960,
  "lon": -3.5956456
},
{
  "type": "node",
  "id": 4974006925,
  "lat": 37.1718030,
  "lon": -3.5952077
},
{
  "type": "node",
  "id": 4974007216,
  "lat": 37.1713996,
  "lon": -3.5947190
},
{
  "type": "node",
  "id": 4974007358,
  "lat": 37.1714050,
  "lon": -3.5951154
},
{
  "type": "node",
  "id": 4974007368,
  "lat": 37.1716067,
  "lon": -3.5945025
},
{
  "type": "node",
  "id": 4974007369,
  "lat": 37.1719549,
  "lon": -3.5948471
},
{
  "type": "node",
  "id": 4974007373,
  "lat": 37.1713361,
  "lon": -3.5950123
},
{
  "type": "node",
  "id": 4974007374,
  "lat": 37.1714045,
  "lon": -3.5949403
},
{
  "type": "node",
  "id": 4974007375,
  "lat": 37.1713120,
  "lon": -3.5948040
},
{
  "type": "node",
  "id": 6025192781,
  "lat": 37.1719260,
  "lon": -3.5947927
},
{
  "type": "node",
  "id": 1651862300,
  "lat": 37.1757500,
  "lon": -3.5985732
},
{
  "type": "node",
  "id": 1651862326,
  "lat": 37.1758980,
  "lon": -3.5986954
},
{
  "type": "node",
  "id": 1690520408,
  "lat": 37.1756801,
  "lon": -3.5986845
},
{
  "type": "node",
  "id": 1690520410,
  "lat": 37.1757413,
  "lon": -3.5987831
},
{
  "type": "node",
  "id": 1690520412,
  "lat": 37.1757567,
  "lon": -3.5987609
},
{
  "type": "node",
  "id": 1690520414,
  "lat": 37.1757899,
  "lon": -3.5988348
},
{
  "type": "node",
  "id": 1158863152,
  "lat": 37.1790068,
  "lon": -3.5915987
},
{
  "type": "node",
  "id": 1158863170,
  "lat": 37.1787555,
  "lon": -3.5915703
},
{
  "type": "node",
  "id": 1158863202,
  "lat": 37.1788545,
  "lon": -3.5915703
},
{
  "type": "node",
  "id": 1158863246,
  "lat": 37.1788566,
  "lon": -3.5916852
},
{
  "type": "node",
  "id": 1158863279,
  "lat": 37.1786271,
  "lon": -3.5917606
},
{
  "type": "node",
  "id": 1158863295,
  "lat": 37.1787493,
  "lon": -3.5916809
},
{
  "type": "node",
  "id": 1158863305,
  "lat": 37.1789631,
  "lon": -3.5916003
},
{
  "type": "node",
  "id": 1158863324,
  "lat": 37.1790082,
  "lon": -3.5915298
},
{
  "type": "node",
  "id": 1158863344,
  "lat": 37.1788573,
  "lon": -3.5915952
},
{
  "type": "node",
  "id": 1158863361,
  "lat": 37.1786665,
  "lon": -3.5915237
},
{
  "type": "node",
  "id": 1158863379,
  "lat": 37.1788571,
  "lon": -3.5915913
},
{
  "type": "node",
  "id": 1158863388,
  "lat": 37.1789543,
  "lon": -3.5917992
},
{
  "type": "node",
  "id": 1158896633,
  "lat": 37.1802099,
  "lon": -3.5949809
},
{
  "type": "node",
  "id": 1158896649,
  "lat": 37.1801295,
  "lon": -3.5952658
},
{
  "type": "node",
  "id": 1158896667,
  "lat": 37.1804654,
  "lon": -3.5950035
},
{
  "type": "node",
  "id": 1158896693,
  "lat": 37.1802147,
  "lon": -3.5949474
},
{
  "type": "node",
  "id": 1158896711,
  "lat": 37.1804190,
  "lon": -3.5953305
},
{
  "type": "node",
  "id": 1158896726,
  "lat": 37.1801711,
  "lon": -3.5949723
},
{
  "type": "node",
  "id": 1350474059,
  "lat": 37.1817621,
  "lon": -3.5957856
},
{
  "type": "node",
  "id": 1350474060,
  "lat": 37.1815185,
  "lon": -3.5960322
},
{
  "type": "node",
  "id": 1350474061,
  "lat": 37.1817085,
  "lon": -3.5960827
},
{
  "type": "node",
  "id": 1350474062,
  "lat": 37.1815266,
  "lon": -3.5956704
},
{
  "type": "node",
  "id": 1350474064,
  "lat": 37.1816135,
  "lon": -3.5953391
},
{
  "type": "node",
  "id": 1690733803,
  "lat": 37.1775251,
  "lon": -3.5954509
},
{
  "type": "node",
  "id": 1690733805,
  "lat": 37.1776102,
  "lon": -3.5954762
},
{
  "type": "node",
  "id": 1690733807,
  "lat": 37.1776874,
  "lon": -3.5951160
},
{
  "type": "node",
  "id": 1690733809,
  "lat": 37.1776962,
  "lon": -3.5954911
},
{
  "type": "node",
  "id": 1690733811,
  "lat": 37.1776968,
  "lon": -3.5952295
},
{
  "type": "node",
  "id": 1690733813,
  "lat": 37.1777339,
  "lon": -3.5951483
},
{
  "type": "node",
  "id": 1690733819,
  "lat": 37.1777502,
  "lon": -3.5952555
},
{
  "type": "node",
  "id": 2073641972,
  "lat": 37.1815117,
  "lon": -3.5958629
},
{
  "type": "node",
  "id": 2073641976,
  "lat": 37.1815146,
  "lon": -3.5959352
},
{
  "type": "node",
  "id": 2073641993,
  "lat": 37.1815603,
  "lon": -3.5954824
},
{
  "type": "node",
  "id": 2073641995,
  "lat": 37.1815838,
  "lon": -3.5954582
},
{
  "type": "node",
  "id": 2073642055,
  "lat": 37.1818369,
  "lon": -3.5956007
},
{
  "type": "node",
  "id": 4234692275,
  "lat": 37.1817128,
  "lon": -3.5953904
},
{
  "type": "node",
  "id": 4234692277,
  "lat": 37.1817318,
  "lon": -3.5953410
},
{
  "type": "node",
  "id": 1350474057,
  "lat": 37.1818937,
  "lon": -3.5954185
},
{
  "type": "node",
  "id": 6225497284,
  "lat": 37.3649327,
  "lon": -3.4685895
},
{
  "type": "node",
  "id": 6225497285,
  "lat": 37.3648190,
  "lon": -3.4684497
},
{
  "type": "node",
  "id": 6225497286,
  "lat": 37.3650199,
  "lon": -3.4681969
},
{
  "type": "node",
  "id": 6225497287,
  "lat": 37.3651997,
  "lon": -3.4683998
},
{
  "type": "node",
  "id": 6225497288,
  "lat": 37.3650940,
  "lon": -3.4685429
},
{
  "type": "node",
  "id": 6225497289,
  "lat": 37.3650252,
  "lon": -3.4684564
},
{
  "type": "node",
  "id": 6227909635,
  "lat": 37.3594339,
  "lon": -3.4727136
},
{
  "type": "node",
  "id": 6227909636,
  "lat": 37.3592252,
  "lon": -3.4728093
},
{
  "type": "node",
  "id": 6227909637,
  "lat": 37.3591535,
  "lon": -3.4725714
},
{
  "type": "node",
  "id": 6227909638,
  "lat": 37.3593600,
  "lon": -3.4724757
},
{
  "type": "way",
  "id": 51730628,
  "nodes": [
    660189156,
    6055909630,
    6055909610,
    6055909611,
    6055909629,
    660189159,
    6055909608,
    6055909609,
    660189156
  ]
},
{
  "type": "way",
  "id": 643528946,
  "nodes": [
    6055909612,
    6055909613,
    6055909614,
    6055909615,
    6055909616,
    6055909617,
    6055909618,
    6055909619,
    6055909620,
    6055909621,
    6055909622,
    6055909623,
    6055909624,
    6055909625,
    6055909626,
    6055909627,
    6055909628,
    6055909612
  ]
}

  ]
}
