{
  "version": 0.6,
  "generator": "Overpass API 0.7.55.1011 6c2efc30",
  "osm3s": {
    "timestamp_osm_base": "2020-02-14T08:50:02Z",
    "copyright": "The data included in this document is from www.openstreetmap.org. The data is made available under ODbL."
  },
  "elements": [

{
  "type": "node",
  "id": 31047604,
  "lat": 55.9821780,
  "lon": -3.1772657,
  "tags": {
    "name": "Royal Yacht Britannia",
    "name:zh": "皇家游艇“不列颠尼亚”号",
    "opening_hours": "Mo-Su 09:30-14:00",
    "toilets:wheelchair": "yes",
    "tourism": "museum",
    "website": "https://www.royalyachtbritannia.co.uk/",
    "wheelchair": "yes"
  }
},
{
  "type": "node",
  "id": 192309908,
  "lat": 55.9766484,
  "lon": -3.6007769,
  "tags": {
    "addr:postcode": "EH49 7EJ",
    "addr:street": "High Street",
    "name": "Linlithgow Museum",
    "note": "Upstairs in Tam Dalyell House",
    "operator": "Linlithgow Heritage Trust",
    "tourism": "museum",
    "url": "http://www.linlithgowstory.org.uk"
  }
},
{
  "type": "node",
  "id": 291214494,
  "lat": 55.9470669,
  "lon": -3.1877715,
  "tags": {
    "addr:street": "South Bridge",
    "name": "Talbot Rice Gallery",
    "phone": "+44 131 650 2210",
    "source": "survey",
    "tourism": "museum",
    "website": "https://www.ed.ac.uk/about/museums-galleries/talbot-rice",
    "wheelchair": "yes",
    "wikidata": "Q7679039",
    "wikipedia": "en:Talbot Rice Gallery"
  }
},
{
  "type": "node",
  "id": 419027918,
  "lat": 56.1122057,
  "lon": -3.1661343,
  "tags": {
    "amenity": "library",
    "name": "Kirkcaldy Museum and Art Gallery",
    "operator": "Fife Council",
    "toilets:wheelchair": "yes",
    "tourism": "museum",
    "website": "https://www.fifedirect.org.uk/atoz/index.cfm?fuseaction=facility.display&facid=40f4b75a-9e96-49ee-8ed78c102491e124",
    "wheelchair": "yes"
  }
},
{
  "type": "node",
  "id": 448035975,
  "lat": 56.0041106,
  "lon": -2.8239428,
  "tags": {
    "name": "Myreton Motor Museum",
    "tourism": "museum",
    "url": "http://www.myretonmotormuseum.co.uk"
  }
},
{
  "type": "node",
  "id": 486776906,
  "lat": 56.1117301,
  "lon": -3.4603984,
  "tags": {
    "name": "Scottish Vintage Bus Museum",
    "tourism": "museum"
  }
},
{
  "type": "node",
  "id": 699542737,
  "lat": 56.0186537,
  "lon": -3.5996774,
  "tags": {
    "entrance": "main",
    "name": "Scottish Railway Preservation Society",
    "tourism": "museum"
  }
},
{
  "type": "node",
  "id": 1356336502,
  "lat": 55.9481162,
  "lon": -3.2001500,
  "tags": {
    "name": "Prisoners of War Museum",
    "source": "Bing;survey",
    "tourism": "museum"
  }
},
{
  "type": "node",
  "id": 1486400887,
  "lat": 56.0593598,
  "lon": -3.2339853,
  "tags": {
    "addr:city": "Burntisland",
    "addr:housenumber": "131",
    "addr:postcode": "KY3 9AA",
    "addr:street": "High Street",
    "name": "The Museum of Communication",
    "opening_hours": "We 11:00-16:00; Sa 11:00-16:00",
    "phone": "+44 1592 874836",
    "tourism": "museum",
    "website": "http://mocft.co.uk"
  }
},
{
  "type": "node",
  "id": 2360700281,
  "lat": 55.9553764,
  "lon": -2.7786126,
  "tags": {
    "name": "John Gray Centre",
    "tourism": "museum"
  }
},
{
  "type": "node",
  "id": 2661485251,
  "lat": 55.9897575,
  "lon": -3.3936378,
  "tags": {
    "name": "South Queensferry Museum",
    "operator": "Edinburgh Council",
    "tourism": "museum"
  }
},
{
  "type": "node",
  "id": 2696171816,
  "lat": 56.1964899,
  "lon": -3.1709384,
  "tags": {
    "name": "Glenrothes Heritage Centre",
    "tourism": "museum"
  }
},
{
  "type": "node",
  "id": 2865965797,
  "lat": 55.9794855,
  "lon": -3.3007419,
  "tags": {
    "addr:city": "Edinburgh",
    "addr:country": "GB",
    "addr:housenumber": "2",
    "addr:street": "Riverside",
    "name": "The Maltings",
    "source": "survey",
    "tourism": "museum"
  }
},
{
  "type": "node",
  "id": 2955931322,
  "lat": 55.9503299,
  "lon": -3.1855073,
  "tags": {
    "addr:city": "Edinburgh",
    "addr:housenumber": "42",
    "addr:postcode": "EH1 1TG",
    "addr:street": "High Street",
    "alt_name:es": "Museo_Childhood",
    "email": "museumsandgalleries@edinburgh.gov.uk",
    "name": "Museum of Childhood",
    "name:ko": "어린이 박물관",
    "opening_hours": "Mo-Sa 10:00-17:00; Su 12:00-17:00",
    "phone": "+44 131 529 4142",
    "source": "survey",
    "tourism": "museum",
    "website": "https://www.edinburghmuseums.org.uk/venue/museum-childhood",
    "wikidata": "Q15122172",
    "wikipedia": "en:Museum of Childhood (Edinburgh)"
  }
},
{
  "type": "node",
  "id": 3072411821,
  "lat": 55.9467674,
  "lon": -3.1846803,
  "tags": {
    "addr:city": "Edinburgh",
    "addr:country": "GB",
    "addr:housename": "The Royal College of Surgeons of Edinburgh",
    "addr:postcode": "EH8 9DW",
    "addr:street": "Nicolson Street",
    "alt_name:es": "Museo_Surgeons",
    "name": "Surgeons' Hall Museums",
    "phone": "+44 131 527 1711",
    "source": "survey",
    "toilets:wheelchair": "yes",
    "tourism": "museum",
    "website": "https://museum.rcsed.ac.uk/",
    "wheelchair": "yes"
  }
},
{
  "type": "node",
  "id": 3895139621,
  "lat": 56.0590719,
  "lon": -3.2340088,
  "tags": {
    "addr:city": "Burntisland",
    "addr:housenumber": "4",
    "addr:postcode": "KY3 9DB",
    "addr:street": "Kirkgate",
    "name": "Burntisland Heritage Exhibition",
    "opening_hours": "week 25-34 We 13:00-16:00; Th-Sa 11:00-16:00",
    "operator": "Burntisland Heritage Trust",
    "phone": "+44 1592 872121",
    "tourism": "museum",
    "website": "https://www.burntisland.net/heritage-trust.htm"
  }
},
{
  "type": "node",
  "id": 4294321113,
  "lat": 55.9429920,
  "lon": -3.0490421,
  "tags": {
    "name": "Musselburgh Museum",
    "source": "survey",
    "tourism": "museum"
  }
},
{
  "type": "node",
  "id": 4308887315,
  "lat": 56.0584741,
  "lon": -2.7145747,
  "tags": {
    "addr:postcode": "EH39 4JU",
    "addr:street": "School Road",
    "email": "hello@coastalmuseum.org",
    "name": "Coastal Communities Museum",
    "opening_hours": "Th-Su 11:00-22:00",
    "phone": "+44 1620894313",
    "tourism": "museum",
    "website": "http://www.coastalmuseum.org"
  }
},
{
  "type": "node",
  "id": 4618730690,
  "lat": 55.9496906,
  "lon": -3.1937416,
  "tags": {
    "addr:city": "Edinburgh",
    "addr:postcode": "EH1 2PA",
    "addr:street": "Lady Stair's Close",
    "fee": "no",
    "name": "Writers' Museum",
    "opening_hours": "We-Sa 10:00-17:00; Su 12:00-17:00; Mo-Tu 10:00-17:00",
    "source": "survey",
    "tourism": "museum",
    "website": "https://www.edinburghmuseums.org.uk/",
    "wheelchair": "no",
    "wikidata": "Q8038444",
    "wikipedia": "en:Writers' Museum"
  }
},
{
  "type": "node",
  "id": 4618730716,
  "lat": 55.9501880,
  "lon": -3.1932476,
  "tags": {
    "addr:postcode": "EH1 1YZ",
    "addr:street": "The Mound",
    "name": "Museum on the Mound",
    "opening_hours": "Tu-Fr 10:00-17:00; Sa-Su 13:00-17:00",
    "phone": "+44 131 243 5464",
    "source": "survey",
    "tourism": "museum",
    "website": "https://www.museumonthemound.com/"
  }
},
{
  "type": "node",
  "id": 4625806993,
  "lat": 55.9576982,
  "lon": -3.1927335,
  "tags": {
    "addr:city": "Edinburgh",
    "addr:housenumber": "10",
    "addr:postcode": "EH3 6NU",
    "addr:street": "Broughton Market",
    "description": "This centre houses the reserve collections of the city museums.",
    "name": "Museum Collections Centre",
    "opening_hours": "Tu[1] 14:00+ || \"by appointment\"",
    "phone": "+44 131 556 9536",
    "source": "survey",
    "tourism": "museum",
    "website": "https://www.edinburghmuseums.org.uk/Venues/Museum-Collections-Centre",
    "wheelchair": "yes",
    "wheelchair:description": "Most parts are wheelchair accessible. Some items are stored upstairs. Items of special interest can be brought down for visitors or researchers as required."
  }
},
{
  "type": "node",
  "id": 4680931977,
  "lat": 56.1233191,
  "lon": -3.1240422,
  "tags": {
    "name": "Coastal Centre Exhibition",
    "opening_hours": "Mar-Oct 09:30-16:30; Nov-Feb Mo-Su 10:00-15:30",
    "operator": "Fife Coast & Countryside Trust",
    "tourism": "museum",
    "wheelchair": "yes"
  }
},
{
  "type": "node",
  "id": 5000322681,
  "lat": 56.1404319,
  "lon": -3.0852397,
  "tags": {
    "name": "Auld Wemyss Ways Heritage Centre",
    "tourism": "museum"
  }
},
{
  "type": "node",
  "id": 5025640452,
  "lat": 55.9448519,
  "lon": -3.1901045,
  "tags": {
    "name": "Anatomical Museum",
    "opening_hours": "Sa[-1] 10:00-16:00; Jun-Jul off",
    "source": "survey",
    "tourism": "museum",
    "website": "https://www.ed.ac.uk/biomedical-sciences/anatomy/anatomical-museum"
  }
},
{
  "type": "node",
  "id": 5730523300,
  "lat": 56.0298794,
  "lon": -3.2995170,
  "tags": {
    "name": "Inchcolm Museum",
    "tourism": "museum"
  }
},
{
  "type": "node",
  "id": 6715804556,
  "lat": 55.9480854,
  "lon": -3.2008805,
  "tags": {
    "name": "The Royal Scots Dragoon Guards Museum",
    "tourism": "museum",
    "website": "https://www.scotsdgmuseum.com/",
    "wikidata": "Q47486844",
    "wikipedia": "en:Royal Scots Dragoon Guards Museum"
  }
},
{
  "type": "node",
  "id": 7028426014,
  "lat": 55.8657986,
  "lon": -3.6885832,
  "tags": {
    "name": "Whitburn Community Museum",
    "operator": "West Lothian Council",
    "tourism": "museum",
    "website": "https://www.westlothian.gov.uk/article/44864/Whitburn-Community-Museum"
  }
},
{
  "type": "node",
  "id": 7033706007,
  "lat": 56.0546122,
  "lon": -3.3010383,
  "tags": {
    "name": "Aberdour Heritage Centre",
    "opening_hours": "We 14:00-16:00; Sa 14:00-16:00",
    "tourism": "museum"
  }
},
{
  "type": "node",
  "id": 7141383643,
  "lat": 55.8852948,
  "lon": -3.3366036,
  "tags": {
    "description": "National Trust for Scotland site Malleny Garden",
    "name": "Malleny Garden",
    "tourism": "museum",
    "website": "https://www.nts.org.uk/visit/places/malleny-garden"
  }
},
{
  "type": "way",
  "id": 22948462,
  "nodes": [
    247259489,
    1142399657,
    1142399653,
    1142399633,
    1142399621,
    247259490,
    247259491,
    247259492,
    247259489
  ],
  "tags": {
    "building": "yes",
    "name": "Kinneil Museum",
    "tourism": "museum"
  }
},
{
  "type": "way",
  "id": 25946269,
  "nodes": [
    283044492,
    283044493,
    283044494,
    1786469265,
    508083311,
    508486231,
    508083312,
    3712283944,
    1786469272,
    297925072,
    283044495,
    283044496,
    508083313,
    508083314,
    283044650,
    283044498,
    508083315,
    283044651,
    283044652,
    283044653,
    508083316,
    508083317,
    283044492
  ],
  "tags": {
    "alt_name": "Our Dynamic Earth",
    "alt_name:es": "Centro_Futurista_Our_Dymanic",
    "building": "yes",
    "internet_access": "wlan",
    "internet_access:fee": "no",
    "layer": "2",
    "name": "Dynamic Earth",
    "tourism": "museum",
    "wikidata": "Q5318903",
    "wikipedia": "en:Dynamic Earth"
  }
},
{
  "type": "way",
  "id": 41299975,
  "nodes": [
    505006337,
    3095863224,
    505006338,
    505006340,
    1356336493,
    1356336492,
    1356336505,
    505006337
  ],
  "tags": {
    "building": "yes",
    "name": "National War Museum",
    "name:gd": "Taigh-tasgaidh Nàiseanta a' Chogaidh",
    "operator": "National Museums Scotland",
    "source": "Bing",
    "tourism": "museum",
    "website": "https://www.nms.ac.uk/national-war-museum/",
    "wikidata": "Q6979345",
    "wikipedia": "en:National War Museum"
  }
},
{
  "type": "way",
  "id": 41893740,
  "nodes": [
    3070539709,
    2813615111,
    3072210695,
    2813615104,
    3070539705,
    3073735674,
    3070539694,
    3073735675,
    3073735671,
    3073735668,
    2813615103,
    3073735666,
    3070539693,
    2813608998,
    3073735665,
    3073735664,
    3073735663,
    518393672,
    1081085142,
    518393674,
    1081085133,
    518393669,
    518393670,
    3070539709
  ],
  "tags": {
    "building": "yes",
    "name": "The Queen's Gallery",
    "tourism": "museum"
  }
},
{
  "type": "way",
  "id": 42261848,
  "nodes": [
    2958633997,
    527018835,
    2955662264,
    2955662263,
    2958634007,
    2955662273,
    2955662270,
    2955662271,
    527018837,
    2958634014,
    2966320846,
    527018833,
    2966320845,
    2966320844,
    2955868978,
    2958634005,
    2958634003,
    2958634001,
    2955868976,
    2958633997
  ],
  "tags": {
    "building": "yes",
    "heritage": "yes",
    "name": "St Cecilia's Hall",
    "operator": "University of Edinburgh",
    "source": "NLS_OS_Edinburgh_map_1940;Bing;survey",
    "tourism": "museum",
    "wikidata": "Q7592777",
    "wikipedia": "en:St Cecilia's Hall"
  }
},
{
  "type": "way",
  "id": 70954995,
  "nodes": [
    845637760,
    845638030,
    845637996,
    845638133,
    845638233,
    845638254,
    845637874,
    845638281,
    60133585,
    60133586,
    3005127191,
    3005409101,
    3005127183,
    845637760
  ],
  "tags": {
    "addr:city": "Edinburgh",
    "addr:housename": "Canongate Tolbooth",
    "addr:housenumber": "163",
    "addr:postcode": "EH8 8BN",
    "addr:street": "Canongate",
    "building": "yes",
    "email": "museumsandgalleries@edinburgh.gov.uk",
    "name": "The People's Story Museum",
    "opening_hours": "Mo-Sa 10:00-17:00",
    "phone": "+44 131 529 4057",
    "source": "Bing;survey",
    "tourism": "museum",
    "website": "https://www.edinburghmuseums.org.uk/Venues/The-People-s-Story",
    "wikidata": "Q4306389",
    "wikipedia": "en:The People's Story Museum"
  }
},
{
  "type": "way",
  "id": 70955023,
  "nodes": [
    2973367200,
    2973367202,
    2973367203,
    845637952,
    2973367204,
    845637797,
    845638141,
    845637740,
    2974686926,
    2973367188,
    2973367184,
    2973367187,
    845638320,
    2973367196,
    2973367195,
    845638167,
    2973367198,
    2973367200
  ],
  "tags": {
    "building": "yes",
    "name": "Trinity Apse",
    "opening_hours": "\"on appointment\"",
    "source": "Bing",
    "tourism": "museum"
  }
},
{
  "type": "way",
  "id": 73550202,
  "nodes": [
    871797892,
    871798001,
    871797876,
    871797932,
    871797951,
    871797982,
    871798044,
    871797912,
    871797885,
    871797938,
    871797988,
    871798027,
    871797833,
    871797911,
    871797919,
    871797970,
    871798011,
    871798034,
    6782552548,
    871797895,
    871797957,
    871797992,
    871798017,
    871797865,
    871797944,
    871797892
  ],
  "tags": {
    "building": "yes",
    "name": "Scottish Seabird Centre",
    "tourism": "museum"
  }
},
{
  "type": "way",
  "id": 87246839,
  "nodes": [
    1014504965,
    1014504943,
    1014706347,
    1014504972,
    1014553429,
    4589604904,
    1014504983,
    1014504928,
    1014504945,
    4589604905,
    1014553422,
    1014504910,
    1014504915,
    1014504965
  ],
  "tags": {
    "addr:city": "East Fortune",
    "barrier": "fence",
    "leisure": "park",
    "name": "National Museum of Flight",
    "name:gd": "Taigh-tasgaidh Nàiseanta na h-Itealaich",
    "operator": "National Museums Scotland",
    "tourism": "museum",
    "website": "https://www.nms.ac.uk/our_museums/museum_of_flight.aspx",
    "wikidata": "Q11839325",
    "wikipedia": "en:National Museum of Flight"
  }
},
{
  "type": "way",
  "id": 103085506,
  "nodes": [
    1208010442,
    1190194478,
    1190194495,
    1190194385,
    1190194431,
    1190194469,
    1190194467,
    1190194345,
    1190194387,
    1190194436,
    1190194350,
    1208010442
  ],
  "tags": {
    "building": "yes",
    "name": "Falkirk Museums Workshop and Store",
    "opening_hours": "\"by appointment\"",
    "source": "Bing",
    "tourism": "museum"
  }
},
{
  "type": "way",
  "id": 107203622,
  "nodes": [
    1232515598,
    1232515550,
    1232515642,
    1232515472,
    1232515605,
    1232515509,
    1232515598
  ],
  "tags": {
    "amenity": "library",
    "building": "yes",
    "building:roof:orientation": "along",
    "building:roof:shape": "pitched",
    "name": "Peebles Library/Tweeddale Museum and Gallery",
    "source": "bing",
    "tourism": "museum"
  }
},
{
  "type": "way",
  "id": 107203629,
  "nodes": [
    1232515633,
    7091917306,
    1232515474,
    1232515600,
    7091917305,
    1232515598,
    1232515509,
    1232515633
  ],
  "tags": {
    "building": "yes",
    "building:roof:orientation": "along",
    "building:roof:shape": "pitched",
    "name": "John Buchan Story",
    "source": "bing",
    "tourism": "museum"
  }
},
{
  "type": "way",
  "id": 128870153,
  "nodes": [
    1422901551,
    1422901544,
    1422901542,
    1422901571,
    1422901583,
    1422901577,
    1422901585,
    1422901561,
    1422901555,
    1422901551
  ],
  "tags": {
    "building": "yes",
    "name": "Prestongrange Mining Museum",
    "opening_hours": "Mo-Su 11:30-16:30",
    "source": "bing;survey",
    "tourism": "museum",
    "website": "http://www.prestongrange.org/"
  }
},
{
  "type": "way",
  "id": 259067386,
  "nodes": [
    3030052869,
    291783895,
    3067022016,
    2643954647,
    3032449942,
    3067022012,
    2643954648,
    3030052857,
    3030052856,
    3030052853,
    3067022010,
    3030052720,
    3067022006,
    3030052839,
    3030052681,
    3067022004,
    3030052678,
    3067022003,
    2643954649,
    2643954650,
    3032449600,
    3032449595,
    3030052669,
    3030052672,
    3030052683,
    3030052680,
    3030052717,
    3030052834,
    3030052852,
    2643954651,
    3032449941,
    2643954652,
    2643954653,
    518810351,
    518810326,
    3067022026,
    3030052871,
    3067021979,
    3067022134,
    518810318,
    3066469205,
    3066469196,
    3066469195,
    2643954640,
    3066469193,
    2643954641,
    518810305,
    2643954643,
    3032449940,
    3030052858,
    2643954644,
    3030052860,
    3030052864,
    3030052866,
    3030052869
  ],
  "tags": {
    "addr:city": "Edinburgh",
    "addr:housename": "Huntly House",
    "addr:housenumber": "142-146",
    "addr:street": "Canongate",
    "building": "yes",
    "email": "museumsandgalleries@edinburgh.gov.uk",
    "name": "Museum of Edinburgh",
    "opening_hours": "Mo-Sa 10:00-17:00; Aug: Su 12:00-17:00",
    "operator": "City of Edinburgh Council",
    "phone": "+44 131 529 4143",
    "source": "Bing;survey",
    "tourism": "museum",
    "website": "https://www.edinburghmuseums.org.uk/venue/museum-edinburgh"
  }
},
{
  "type": "way",
  "id": 361177184,
  "nodes": [
    3656881169,
    3656881173,
    3656881175,
    3656881171,
    3656881169
  ],
  "tags": {
    "addr:city": "Bathgate",
    "addr:housenumber": "9-11",
    "addr:postcode": "EH48 4HU",
    "addr:street": "Mansefield Street",
    "building": "yes",
    "name": "Bennie Museum",
    "tourism": "museum"
  }
},
{
  "type": "way",
  "id": 429457399,
  "nodes": [
    4285993412,
    6296190012,
    6296190013,
    6296190014,
    6296190015,
    4285993413,
    4285993414,
    4285993415,
    6296190020,
    6296190016,
    6296189985,
    4285993416,
    6296189986,
    6296189994,
    6296189996,
    6296189995,
    6296189993,
    4285993417,
    6296189987,
    6296189988,
    4285993418,
    4285993419,
    6296189992,
    6296189991,
    6296189990,
    6296189989,
    4285993412
  ],
  "tags": {
    "building": "yes",
    "name": "Andrew Carnegie Birthplace Museum",
    "tourism": "museum"
  }
},
{
  "type": "way",
  "id": 446654897,
  "nodes": [
    4438944006,
    4438944009,
    4438944010,
    4438944008,
    504960516,
    505006304,
    4438944007,
    4438944006
  ],
  "tags": {
    "building": "yes",
    "name": "The Royal Scots Regimental Museum",
    "official_name": "The Museum of the Royal Scots (The Royal Regiment) and the Royal Regiment of Scotland",
    "roof:shape": "gabled",
    "source": "NLS_OS_Edinburgh_map_1940s;Bing;survey",
    "tourism": "museum",
    "website": "http://www.theroyalscots.co.uk/museum/",
    "wikidata": "Q55635406",
    "wikipedia": "en:The Museum of the Royal Scots (The Royal Regiment) and the Royal Regiment of Scotland"
  }
},
{
  "type": "way",
  "id": 460638883,
  "nodes": [
    4562731570,
    4562731567,
    4562731568,
    4562731569,
    4562731570
  ],
  "tags": {
    "addr:city": "Kirkcaldy",
    "addr:housenumber": "1",
    "addr:street": "Adam Smith Close",
    "building": "yes",
    "name": "Adam Smith Heritage Centre",
    "toilets:wheelchair": "yes",
    "tourism": "museum",
    "wheelchair": "yes"
  }
},
{
  "type": "way",
  "id": 467226683,
  "nodes": [
    38247752,
    38247754,
    3042583081,
    38247757,
    3042583084,
    444449145,
    3042583088,
    38247760,
    3042583091,
    444449144,
    3042583096,
    38247763,
    3042583099,
    444449143,
    3042583097,
    38247768,
    3042583092,
    444449150,
    3042583089,
    38247770,
    3042583085,
    38247772,
    3042583082,
    444449142,
    3042583076,
    38247775,
    3042583075,
    444449141,
    38247778,
    3042583067,
    444449148,
    3042583066,
    38247780,
    3042583070,
    38247785,
    38247788,
    38247795,
    38247803,
    3356240236,
    3042583046,
    38247807,
    38247810,
    38247813,
    4743803352,
    531774970,
    38247727,
    3042582932,
    4618730636,
    38247725,
    531774942,
    4618730632,
    3042583036,
    3046177237,
    38247720,
    3042583059,
    3042583053,
    3042583057,
    3042583055,
    3042583054,
    3042583052,
    3042583050,
    531774892,
    3042583049,
    3042583048,
    531774890,
    38247713,
    3042583041,
    3042583039,
    3042583037,
    3042583038,
    3042583040,
    3042583042,
    531774886,
    531774881,
    531774888,
    38247709,
    3046175830,
    3046177238,
    3046177244,
    3046177245,
    3046177247,
    3046177251,
    3046177254,
    3046177259,
    3046177261,
    3046177264,
    3046177269,
    7197309913,
    38247706,
    38247705,
    3042583063,
    3042583062,
    3046177289,
    38247701,
    3046177305,
    3042583104,
    3042583103,
    3042583105,
    3042583106,
    3042583299,
    3042583325,
    3042583448,
    3042583456,
    38247695,
    38247692,
    38247689,
    4327957219,
    686461287,
    4328046423,
    38247684,
    38247681,
    38247677,
    531774898,
    531774901,
    38247737,
    38247741,
    38247752
  ],
  "tags": {
    "addr:city": "Edinburgh",
    "addr:postcode": "EH1 1JF",
    "addr:street": "Chambers Street",
    "alt_name:es": "Museo_Nacional_de_Escocia",
    "building": "museum",
    "fee": "no",
    "internet_access": "wlan",
    "internet_access:fee": "no",
    "name": "National Museum of Scotland",
    "name:gd": "Taigh-tasgaidh Nàiseanta na h-Alba",
    "name:ko": "스코틀랜드 국립박물관",
    "name:sco": "Naitional Museum o Scotland",
    "old_name": "Royal Musuem of Scotland",
    "opening_hours": "Mo-Su 10:00-17:00",
    "source": "survey",
    "tourism": "museum",
    "website": "https://www.nms.ac.uk/scotland/",
    "wheelchair": "yes",
    "wikidata": "Q1633842",
    "wikipedia": "en:National Museum of Scotland"
  }
},
{
  "type": "way",
  "id": 503032655,
  "nodes": [
    3315392100,
    3315392104,
    3315392127,
    3315392132,
    3315392105,
    3315392101,
    3315392067,
    3315392071,
    3315392068,
    4933845121,
    3315392079,
    3315392090,
    3315392100
  ],
  "tags": {
    "addr:city": "Pencaitland",
    "addr:country": "GB",
    "addr:housename": "Glenkinchie Distillery",
    "addr:postcode": "EH34 5ET",
    "contact:website": "https://www.discovering-distilleries.com/glenkinchie/",
    "level": "0",
    "name": "Glenkinchie Distillery Visitor Centre",
    "opening_hours": "Jan-Feb,Nov-Dec: Mo-Su 10:00-16:00; Mar-Oct: Mo-Su 10:00-17:00",
    "operator": "Diageo plc",
    "tourism": "museum"
  }
},
{
  "type": "way",
  "id": 712657652,
  "nodes": [
    6700441499,
    6700441500,
    6700441501,
    6700441502,
    6700441499
  ],
  "tags": {
    "building": "yes",
    "name": "Methil Heritage Centre",
    "tourism": "museum"
  }
},
{
  "type": "relation",
  "id": 4235945,
  "members": [
    {
      "type": "way",
      "ref": 315006072,
      "role": "outer"
    },
    {
      "type": "way",
      "ref": 315006102,
      "role": "outer"
    }
  ],
  "tags": {
    "addr:city": "Newtongrange",
    "addr:housename": "Lady Victoria Colliery",
    "addr:postcode": "EH22 4QN",
    "name": "National Mining Museum Scotland",
    "tourism": "museum",
    "type": "multipolygon",
    "website": "https://nationalminingmuseum.com/",
    "wikidata": "Q7437860",
    "wikipedia": "en:National Mining Museum Scotland"
  }
},
{
  "type": "node",
  "id": 3656881169,
  "lat": 55.9026697,
  "lon": -3.6429351
},
{
  "type": "node",
  "id": 3656881171,
  "lat": 55.9026881,
  "lon": -3.6428292
},
{
  "type": "node",
  "id": 3656881173,
  "lat": 55.9028536,
  "lon": -3.6430367
},
{
  "type": "node",
  "id": 3656881175,
  "lat": 55.9028720,
  "lon": -3.6429308
},
{
  "type": "node",
  "id": 247259489,
  "lat": 56.0079358,
  "lon": -3.6326698
},
{
  "type": "node",
  "id": 247259490,
  "lat": 56.0077573,
  "lon": -3.6325383
},
{
  "type": "node",
  "id": 247259491,
  "lat": 56.0077770,
  "lon": -3.6324519
},
{
  "type": "node",
  "id": 247259492,
  "lat": 56.0079557,
  "lon": -3.6325821
},
{
  "type": "node",
  "id": 1142399621,
  "lat": 56.0078076,
  "lon": -3.6325749
},
{
  "type": "node",
  "id": 1142399633,
  "lat": 56.0077853,
  "lon": -3.6326729
},
{
  "type": "node",
  "id": 1142399653,
  "lat": 56.0078503,
  "lon": -3.6327202
},
{
  "type": "node",
  "id": 1142399657,
  "lat": 56.0078723,
  "lon": -3.6326235
},
{
  "type": "node",
  "id": 1190194345,
  "lat": 56.0134811,
  "lon": -3.7088076
},
{
  "type": "node",
  "id": 1190194350,
  "lat": 56.0135786,
  "lon": -3.7081188
},
{
  "type": "node",
  "id": 1190194385,
  "lat": 56.0133557,
  "lon": -3.7084445
},
{
  "type": "node",
  "id": 1190194387,
  "lat": 56.0135228,
  "lon": -3.7088435
},
{
  "type": "node",
  "id": 1190194431,
  "lat": 56.0133453,
  "lon": -3.7084356
},
{
  "type": "node",
  "id": 1190194436,
  "lat": 56.0136928,
  "lon": -3.7082115
},
{
  "type": "node",
  "id": 1190194467,
  "lat": 56.0134682,
  "lon": -3.7088554
},
{
  "type": "node",
  "id": 1190194469,
  "lat": 56.0132767,
  "lon": -3.7086901
},
{
  "type": "node",
  "id": 1190194478,
  "lat": 56.0133875,
  "lon": -3.7082656
},
{
  "type": "node",
  "id": 1190194495,
  "lat": 56.0134009,
  "lon": -3.7082771
},
{
  "type": "node",
  "id": 1208010442,
  "lat": 56.0134552,
  "lon": -3.7080163
},
{
  "type": "node",
  "id": 4285993412,
  "lat": 56.0677997,
  "lon": -3.4613546
},
{
  "type": "node",
  "id": 4285993413,
  "lat": 56.0678942,
  "lon": -3.4609991
},
{
  "type": "node",
  "id": 4285993414,
  "lat": 56.0679255,
  "lon": -3.4610261
},
{
  "type": "node",
  "id": 4285993415,
  "lat": 56.0679548,
  "lon": -3.4609176
},
{
  "type": "node",
  "id": 4285993416,
  "lat": 56.0680503,
  "lon": -3.4611133
},
{
  "type": "node",
  "id": 4285993417,
  "lat": 56.0679460,
  "lon": -3.4613385
},
{
  "type": "node",
  "id": 4285993418,
  "lat": 56.0680540,
  "lon": -3.4614060
},
{
  "type": "node",
  "id": 4285993419,
  "lat": 56.0680168,
  "lon": -3.4615440
},
{
  "type": "node",
  "id": 6296189985,
  "lat": 56.0680448,
  "lon": -3.4609585
},
{
  "type": "node",
  "id": 6296189986,
  "lat": 56.0680055,
  "lon": -3.4611183
},
{
  "type": "node",
  "id": 6296189987,
  "lat": 56.0679564,
  "lon": -3.4613474
},
{
  "type": "node",
  "id": 6296189988,
  "lat": 56.0679620,
  "lon": -3.4613265
},
{
  "type": "node",
  "id": 6296189989,
  "lat": 56.0678985,
  "lon": -3.4614401
},
{
  "type": "node",
  "id": 6296189990,
  "lat": 56.0679076,
  "lon": -3.4614063
},
{
  "type": "node",
  "id": 6296189991,
  "lat": 56.0679251,
  "lon": -3.4614215
},
{
  "type": "node",
  "id": 6296189992,
  "lat": 56.0679157,
  "lon": -3.4614565
},
{
  "type": "node",
  "id": 6296189993,
  "lat": 56.0679681,
  "lon": -3.4612566
},
{
  "type": "node",
  "id": 6296189994,
  "lat": 56.0679871,
  "lon": -3.4611868
},
{
  "type": "node",
  "id": 6296189995,
  "lat": 56.0679737,
  "lon": -3.4612615
},
{
  "type": "node",
  "id": 6296189996,
  "lat": 56.0679926,
  "lon": -3.4611915
},
{
  "type": "node",
  "id": 6296190012,
  "lat": 56.0678537,
  "lon": -3.4611545
},
{
  "type": "node",
  "id": 6296190013,
  "lat": 56.0678465,
  "lon": -3.4611483
},
{
  "type": "node",
  "id": 6296190014,
  "lat": 56.0678676,
  "lon": -3.4610703
},
{
  "type": "node",
  "id": 6296190015,
  "lat": 56.0678736,
  "lon": -3.4610755
},
{
  "type": "node",
  "id": 6296190016,
  "lat": 56.0680070,
  "lon": -3.4609628
},
{
  "type": "node",
  "id": 6296190020,
  "lat": 56.0679582,
  "lon": -3.4609206
},
{
  "type": "node",
  "id": 1232515472,
  "lat": 55.6516226,
  "lon": -3.1894493
},
{
  "type": "node",
  "id": 1232515474,
  "lat": 55.6517856,
  "lon": -3.1892561
},
{
  "type": "node",
  "id": 1232515509,
  "lat": 55.6516551,
  "lon": -3.1894286
},
{
  "type": "node",
  "id": 1232515550,
  "lat": 55.6515173,
  "lon": -3.1892464
},
{
  "type": "node",
  "id": 1232515598,
  "lat": 55.6516781,
  "lon": -3.1893297
},
{
  "type": "node",
  "id": 1232515600,
  "lat": 55.6517118,
  "lon": -3.1891946
},
{
  "type": "node",
  "id": 1232515605,
  "lat": 55.6516299,
  "lon": -3.1894135
},
{
  "type": "node",
  "id": 1232515633,
  "lat": 55.6517306,
  "lon": -3.1894727
},
{
  "type": "node",
  "id": 1232515642,
  "lat": 55.6514938,
  "lon": -3.1893791
},
{
  "type": "node",
  "id": 7091917305,
  "lat": 55.6516958,
  "lon": -3.1892539
},
{
  "type": "node",
  "id": 7091917306,
  "lat": 55.6517705,
  "lon": -3.1893133
},
{
  "type": "node",
  "id": 504960516,
  "lat": 55.9481442,
  "lon": -3.2002009
},
{
  "type": "node",
  "id": 505006304,
  "lat": 55.9482572,
  "lon": -3.2002253
},
{
  "type": "node",
  "id": 505006337,
  "lat": 55.9486446,
  "lon": -3.2019115
},
{
  "type": "node",
  "id": 505006338,
  "lat": 55.9486844,
  "lon": -3.2013468
},
{
  "type": "node",
  "id": 505006340,
  "lat": 55.9487831,
  "lon": -3.2013712
},
{
  "type": "node",
  "id": 1356336492,
  "lat": 55.9489303,
  "lon": -3.2018838
},
{
  "type": "node",
  "id": 1356336493,
  "lat": 55.9487507,
  "lon": -3.2018441
},
{
  "type": "node",
  "id": 1356336505,
  "lat": 55.9489228,
  "lon": -3.2019743
},
{
  "type": "node",
  "id": 3095863224,
  "lat": 55.9486745,
  "lon": -3.2014876
},
{
  "type": "node",
  "id": 4438944006,
  "lat": 55.9483168,
  "lon": -3.2005402
},
{
  "type": "node",
  "id": 4438944007,
  "lat": 55.9483369,
  "lon": -3.2002424
},
{
  "type": "node",
  "id": 4438944008,
  "lat": 55.9481354,
  "lon": -3.2003311
},
{
  "type": "node",
  "id": 4438944009,
  "lat": 55.9482400,
  "lon": -3.2005237
},
{
  "type": "node",
  "id": 4438944010,
  "lat": 55.9482514,
  "lon": -3.2003561
},
{
  "type": "node",
  "id": 38247677,
  "lat": 55.9471978,
  "lon": -3.1902172
},
{
  "type": "node",
  "id": 38247681,
  "lat": 55.9472832,
  "lon": -3.1898268
},
{
  "type": "node",
  "id": 38247684,
  "lat": 55.9472204,
  "lon": -3.1897836
},
{
  "type": "node",
  "id": 38247689,
  "lat": 55.9474402,
  "lon": -3.1887646
},
{
  "type": "node",
  "id": 38247692,
  "lat": 55.9475050,
  "lon": -3.1888092
},
{
  "type": "node",
  "id": 38247695,
  "lat": 55.9475892,
  "lon": -3.1884194
},
{
  "type": "node",
  "id": 38247701,
  "lat": 55.9469293,
  "lon": -3.1880629
},
{
  "type": "node",
  "id": 38247705,
  "lat": 55.9468727,
  "lon": -3.1883547
},
{
  "type": "node",
  "id": 38247706,
  "lat": 55.9468284,
  "lon": -3.1883212
},
{
  "type": "node",
  "id": 38247709,
  "lat": 55.9465633,
  "lon": -3.1886749
},
{
  "type": "node",
  "id": 38247713,
  "lat": 55.9466348,
  "lon": -3.1889360
},
{
  "type": "node",
  "id": 38247720,
  "lat": 55.9467484,
  "lon": -3.1895010
},
{
  "type": "node",
  "id": 38247725,
  "lat": 55.9466208,
  "lon": -3.1894355
},
{
  "type": "node",
  "id": 38247727,
  "lat": 55.9466766,
  "lon": -3.1898198
},
{
  "type": "node",
  "id": 38247737,
  "lat": 55.9471621,
  "lon": -3.1902579
},
{
  "type": "node",
  "id": 38247741,
  "lat": 55.9471239,
  "lon": -3.1904339
},
{
  "type": "node",
  "id": 38247752,
  "lat": 55.9469632,
  "lon": -3.1907715
},
{
  "type": "node",
  "id": 38247754,
  "lat": 55.9469754,
  "lon": -3.1907946
},
{
  "type": "node",
  "id": 38247757,
  "lat": 55.9469966,
  "lon": -3.1907887
},
{
  "type": "node",
  "id": 38247760,
  "lat": 55.9470338,
  "lon": -3.1908134
},
{
  "type": "node",
  "id": 38247763,
  "lat": 55.9470550,
  "lon": -3.1908795
},
{
  "type": "node",
  "id": 38247768,
  "lat": 55.9470489,
  "lon": -3.1909468
},
{
  "type": "node",
  "id": 38247770,
  "lat": 55.9470190,
  "lon": -3.1909964
},
{
  "type": "node",
  "id": 38247772,
  "lat": 55.9469977,
  "lon": -3.1910049
},
{
  "type": "node",
  "id": 38247775,
  "lat": 55.9469622,
  "lon": -3.1909875
},
{
  "type": "node",
  "id": 38247778,
  "lat": 55.9469406,
  "lon": -3.1909435
},
{
  "type": "node",
  "id": 38247780,
  "lat": 55.9469368,
  "lon": -3.1908684
},
{
  "type": "node",
  "id": 38247785,
  "lat": 55.9469467,
  "lon": -3.1908319
},
{
  "type": "node",
  "id": 38247788,
  "lat": 55.9469378,
  "lon": -3.1908153
},
{
  "type": "node",
  "id": 38247795,
  "lat": 55.9468564,
  "lon": -3.1909196
},
{
  "type": "node",
  "id": 38247803,
  "lat": 55.9467160,
  "lon": -3.1908279
},
{
  "type": "node",
  "id": 38247807,
  "lat": 55.9465848,
  "lon": -3.1907136
},
{
  "type": "node",
  "id": 38247810,
  "lat": 55.9465266,
  "lon": -3.1906176
},
{
  "type": "node",
  "id": 38247813,
  "lat": 55.9466957,
  "lon": -3.1898901
},
{
  "type": "node",
  "id": 444449141,
  "lat": 55.9469476,
  "lon": -3.1909636
},
{
  "type": "node",
  "id": 444449142,
  "lat": 55.9469775,
  "lon": -3.1910003
},
{
  "type": "node",
  "id": 444449143,
  "lat": 55.9470553,
  "lon": -3.1909107
},
{
  "type": "node",
  "id": 444449144,
  "lat": 55.9470474,
  "lon": -3.1908420
},
{
  "type": "node",
  "id": 444449145,
  "lat": 55.9470173,
  "lon": -3.1907961
},
{
  "type": "node",
  "id": 444449148,
  "lat": 55.9469347,
  "lon": -3.1909002
},
{
  "type": "node",
  "id": 444449150,
  "lat": 55.9470376,
  "lon": -3.1909741
},
{
  "type": "node",
  "id": 527018833,
  "lat": 55.9490962,
  "lon": -3.1866382
},
{
  "type": "node",
  "id": 527018835,
  "lat": 55.9488857,
  "lon": -3.1862230
},
{
  "type": "node",
  "id": 527018837,
  "lat": 55.9491060,
  "lon": -3.1865800
},
{
  "type": "node",
  "id": 531774881,
  "lat": 55.9466408,
  "lon": -3.1888489
},
{
  "type": "node",
  "id": 531774886,
  "lat": 55.9466435,
  "lon": -3.1888603
},
{
  "type": "node",
  "id": 531774888,
  "lat": 55.9466193,
  "lon": -3.1888084
},
{
  "type": "node",
  "id": 531774890,
  "lat": 55.9466941,
  "lon": -3.1889776
},
{
  "type": "node",
  "id": 531774892,
  "lat": 55.9467093,
  "lon": -3.1891096
},
{
  "type": "node",
  "id": 531774898,
  "lat": 55.9471394,
  "lon": -3.1901784
},
{
  "type": "node",
  "id": 531774901,
  "lat": 55.9471256,
  "lon": -3.1902373
},
{
  "type": "node",
  "id": 531774942,
  "lat": 55.9466046,
  "lon": -3.1894223
},
{
  "type": "node",
  "id": 531774970,
  "lat": 55.9466648,
  "lon": -3.1898630
},
{
  "type": "node",
  "id": 686461287,
  "lat": 55.9473313,
  "lon": -3.1892693
},
{
  "type": "node",
  "id": 845637740,
  "lat": 55.9508924,
  "lon": -3.1858380
},
{
  "type": "node",
  "id": 845637797,
  "lat": 55.9510173,
  "lon": -3.1855551
},
{
  "type": "node",
  "id": 845637952,
  "lat": 55.9509998,
  "lon": -3.1855177
},
{
  "type": "node",
  "id": 845638141,
  "lat": 55.9509743,
  "lon": -3.1858737
},
{
  "type": "node",
  "id": 845638167,
  "lat": 55.9509664,
  "lon": -3.1854818
},
{
  "type": "node",
  "id": 845638320,
  "lat": 55.9509398,
  "lon": -3.1855221
},
{
  "type": "node",
  "id": 2955662263,
  "lat": 55.9489686,
  "lon": -3.1862703
},
{
  "type": "node",
  "id": 2955662264,
  "lat": 55.9489693,
  "lon": -3.1862649
},
{
  "type": "node",
  "id": 2955662270,
  "lat": 55.9491209,
  "lon": -3.1864532
},
{
  "type": "node",
  "id": 2955662271,
  "lat": 55.9491260,
  "lon": -3.1864558
},
{
  "type": "node",
  "id": 2955662273,
  "lat": 55.9491364,
  "lon": -3.1863573
},
{
  "type": "node",
  "id": 2955868976,
  "lat": 55.9489402,
  "lon": -3.1865590
},
{
  "type": "node",
  "id": 2955868978,
  "lat": 55.9489981,
  "lon": -3.1865893
},
{
  "type": "node",
  "id": 2958633997,
  "lat": 55.9488398,
  "lon": -3.1865069
},
{
  "type": "node",
  "id": 2958634001,
  "lat": 55.9489389,
  "lon": -3.1865667
},
{
  "type": "node",
  "id": 2958634003,
  "lat": 55.9489677,
  "lon": -3.1865816
},
{
  "type": "node",
  "id": 2958634005,
  "lat": 55.9489968,
  "lon": -3.1865966
},
{
  "type": "node",
  "id": 2958634007,
  "lat": 55.9490146,
  "lon": -3.1862942
},
{
  "type": "node",
  "id": 2958634014,
  "lat": 55.9491030,
  "lon": -3.1865983
},
{
  "type": "node",
  "id": 2966320844,
  "lat": 55.9490940,
  "lon": -3.1866387
},
{
  "type": "node",
  "id": 2966320845,
  "lat": 55.9490952,
  "lon": -3.1866388
},
{
  "type": "node",
  "id": 2966320846,
  "lat": 55.9490968,
  "lon": -3.1866366
},
{
  "type": "node",
  "id": 2973367184,
  "lat": 55.9509260,
  "lon": -3.1855213
},
{
  "type": "node",
  "id": 2973367187,
  "lat": 55.9509318,
  "lon": -3.1855096
},
{
  "type": "node",
  "id": 2973367188,
  "lat": 55.9509340,
  "lon": -3.1855339
},
{
  "type": "node",
  "id": 2973367195,
  "lat": 55.9509577,
  "lon": -3.1854833
},
{
  "type": "node",
  "id": 2973367196,
  "lat": 55.9509587,
  "lon": -3.1855027
},
{
  "type": "node",
  "id": 2973367198,
  "lat": 55.9509674,
  "lon": -3.1855007
},
{
  "type": "node",
  "id": 2973367200,
  "lat": 55.9509921,
  "lon": -3.1855102
},
{
  "type": "node",
  "id": 2973367202,
  "lat": 55.9509973,
  "lon": -3.1854935
},
{
  "type": "node",
  "id": 2973367203,
  "lat": 55.9510049,
  "lon": -3.1855010
},
{
  "type": "node",
  "id": 2973367204,
  "lat": 55.9510122,
  "lon": -3.1855527
},
{
  "type": "node",
  "id": 2974686926,
  "lat": 55.9509030,
  "lon": -3.1857602
},
{
  "type": "node",
  "id": 3042582932,
  "lat": 55.9465499,
  "lon": -3.1897125
},
{
  "type": "node",
  "id": 3042583036,
  "lat": 55.9466162,
  "lon": -3.1894077
},
{
  "type": "node",
  "id": 3042583037,
  "lat": 55.9466269,
  "lon": -3.1889074
},
{
  "type": "node",
  "id": 3042583038,
  "lat": 55.9466270,
  "lon": -3.1888973
},
{
  "type": "node",
  "id": 3042583039,
  "lat": 55.9466283,
  "lon": -3.1889184
},
{
  "type": "node",
  "id": 3042583040,
  "lat": 55.9466297,
  "lon": -3.1888819
},
{
  "type": "node",
  "id": 3042583041,
  "lat": 55.9466313,
  "lon": -3.1889289
},
{
  "type": "node",
  "id": 3042583042,
  "lat": 55.9466357,
  "lon": -3.1888684
},
{
  "type": "node",
  "id": 3042583046,
  "lat": 55.9466467,
  "lon": -3.1907716
},
{
  "type": "node",
  "id": 3042583048,
  "lat": 55.9466836,
  "lon": -3.1890381
},
{
  "type": "node",
  "id": 3042583049,
  "lat": 55.9467072,
  "lon": -3.1890579
},
{
  "type": "node",
  "id": 3042583050,
  "lat": 55.9467094,
  "lon": -3.1891324
},
{
  "type": "node",
  "id": 3042583052,
  "lat": 55.9467313,
  "lon": -3.1891775
},
{
  "type": "node",
  "id": 3042583053,
  "lat": 55.9467386,
  "lon": -3.1893716
},
{
  "type": "node",
  "id": 3042583054,
  "lat": 55.9467473,
  "lon": -3.1891715
},
{
  "type": "node",
  "id": 3042583055,
  "lat": 55.9467506,
  "lon": -3.1892119
},
{
  "type": "node",
  "id": 3042583057,
  "lat": 55.9467679,
  "lon": -3.1892256
},
{
  "type": "node",
  "id": 3042583059,
  "lat": 55.9467732,
  "lon": -3.1893985
},
{
  "type": "node",
  "id": 3042583062,
  "lat": 55.9468851,
  "lon": -3.1882777
},
{
  "type": "node",
  "id": 3042583063,
  "lat": 55.9468890,
  "lon": -3.1882803
},
{
  "type": "node",
  "id": 3042583066,
  "lat": 55.9469351,
  "lon": -3.1908841
},
{
  "type": "node",
  "id": 3042583067,
  "lat": 55.9469365,
  "lon": -3.1909234
},
{
  "type": "node",
  "id": 3042583070,
  "lat": 55.9469409,
  "lon": -3.1908489
},
{
  "type": "node",
  "id": 3042583075,
  "lat": 55.9469545,
  "lon": -3.1909770
},
{
  "type": "node",
  "id": 3042583076,
  "lat": 55.9469697,
  "lon": -3.1909950
},
{
  "type": "node",
  "id": 3042583081,
  "lat": 55.9469859,
  "lon": -3.1907899
},
{
  "type": "node",
  "id": 3042583082,
  "lat": 55.9469877,
  "lon": -3.1910042
},
{
  "type": "node",
  "id": 3042583084,
  "lat": 55.9470073,
  "lon": -3.1907908
},
{
  "type": "node",
  "id": 3042583085,
  "lat": 55.9470088,
  "lon": -3.1910023
},
{
  "type": "node",
  "id": 3042583088,
  "lat": 55.9470259,
  "lon": -3.1908035
},
{
  "type": "node",
  "id": 3042583089,
  "lat": 55.9470288,
  "lon": -3.1909869
},
{
  "type": "node",
  "id": 3042583091,
  "lat": 55.9470413,
  "lon": -3.1908266
},
{
  "type": "node",
  "id": 3042583092,
  "lat": 55.9470439,
  "lon": -3.1909613
},
{
  "type": "node",
  "id": 3042583096,
  "lat": 55.9470522,
  "lon": -3.1908599
},
{
  "type": "node",
  "id": 3042583097,
  "lat": 55.9470531,
  "lon": -3.1909291
},
{
  "type": "node",
  "id": 3042583099,
  "lat": 55.9470558,
  "lon": -3.1908952
},
{
  "type": "node",
  "id": 3042583103,
  "lat": 55.9470870,
  "lon": -3.1881416
},
{
  "type": "node",
  "id": 3042583104,
  "lat": 55.9470881,
  "lon": -3.1881344
},
{
  "type": "node",
  "id": 3042583105,
  "lat": 55.9470967,
  "lon": -3.1881465
},
{
  "type": "node",
  "id": 3042583106,
  "lat": 55.9470978,
  "lon": -3.1881392
},
{
  "type": "node",
  "id": 3042583299,
  "lat": 55.9473533,
  "lon": -3.1882807
},
{
  "type": "node",
  "id": 3042583325,
  "lat": 55.9473889,
  "lon": -3.1883000
},
{
  "type": "node",
  "id": 3042583448,
  "lat": 55.9474387,
  "lon": -3.1883293
},
{
  "type": "node",
  "id": 3042583456,
  "lat": 55.9474405,
  "lon": -3.1883197
},
{
  "type": "node",
  "id": 3046175830,
  "lat": 55.9465795,
  "lon": -3.1886532
},
{
  "type": "node",
  "id": 3046177237,
  "lat": 55.9466237,
  "lon": -3.1893993
},
{
  "type": "node",
  "id": 3046177238,
  "lat": 55.9466283,
  "lon": -3.1885878
},
{
  "type": "node",
  "id": 3046177244,
  "lat": 55.9466453,
  "lon": -3.1885528
},
{
  "type": "node",
  "id": 3046177245,
  "lat": 55.9466630,
  "lon": -3.1885198
},
{
  "type": "node",
  "id": 3046177247,
  "lat": 55.9466828,
  "lon": -3.1884877
},
{
  "type": "node",
  "id": 3046177251,
  "lat": 55.9467022,
  "lon": -3.1884581
},
{
  "type": "node",
  "id": 3046177254,
  "lat": 55.9467231,
  "lon": -3.1884307
},
{
  "type": "node",
  "id": 3046177259,
  "lat": 55.9467457,
  "lon": -3.1884076
},
{
  "type": "node",
  "id": 3046177261,
  "lat": 55.9467681,
  "lon": -3.1883862
},
{
  "type": "node",
  "id": 3046177264,
  "lat": 55.9467910,
  "lon": -3.1883696
},
{
  "type": "node",
  "id": 3046177269,
  "lat": 55.9468175,
  "lon": -3.1883353
},
{
  "type": "node",
  "id": 3046177289,
  "lat": 55.9469025,
  "lon": -3.1881915
},
{
  "type": "node",
  "id": 3046177305,
  "lat": 55.9470534,
  "lon": -3.1881188
},
{
  "type": "node",
  "id": 3356240236,
  "lat": 55.9466827,
  "lon": -3.1908009
},
{
  "type": "node",
  "id": 4327957219,
  "lat": 55.9474072,
  "lon": -3.1889175
},
{
  "type": "node",
  "id": 4328046423,
  "lat": 55.9472489,
  "lon": -3.1896514
},
{
  "type": "node",
  "id": 4618730632,
  "lat": 55.9466121,
  "lon": -3.1894127
},
{
  "type": "node",
  "id": 4618730636,
  "lat": 55.9465633,
  "lon": -3.1896601
},
{
  "type": "node",
  "id": 4743803352,
  "lat": 55.9466812,
  "lon": -3.1898774
},
{
  "type": "node",
  "id": 7197309913,
  "lat": 55.9468178,
  "lon": -3.1883349
},
{
  "type": "node",
  "id": 291783895,
  "lat": 55.9512985,
  "lon": -3.1794632
},
{
  "type": "node",
  "id": 518810305,
  "lat": 55.9512644,
  "lon": -3.1790880
},
{
  "type": "node",
  "id": 518810326,
  "lat": 55.9513443,
  "lon": -3.1797781
},
{
  "type": "node",
  "id": 518810351,
  "lat": 55.9512667,
  "lon": -3.1797189
},
{
  "type": "node",
  "id": 2643954640,
  "lat": 55.9512662,
  "lon": -3.1792341
},
{
  "type": "node",
  "id": 2643954641,
  "lat": 55.9512986,
  "lon": -3.1791264
},
{
  "type": "node",
  "id": 2643954643,
  "lat": 55.9512285,
  "lon": -3.1792015
},
{
  "type": "node",
  "id": 2643954644,
  "lat": 55.9512414,
  "lon": -3.1792733
},
{
  "type": "node",
  "id": 2643954647,
  "lat": 55.9512859,
  "lon": -3.1795171
},
{
  "type": "node",
  "id": 2643954648,
  "lat": 55.9511967,
  "lon": -3.1794431
},
{
  "type": "node",
  "id": 2643954649,
  "lat": 55.9510125,
  "lon": -3.1792478
},
{
  "type": "node",
  "id": 2643954650,
  "lat": 55.9509880,
  "lon": -3.1793193
},
{
  "type": "node",
  "id": 2643954651,
  "lat": 55.9511587,
  "lon": -3.1795022
},
{
  "type": "node",
  "id": 2643954652,
  "lat": 55.9512805,
  "lon": -3.1796060
},
{
  "type": "node",
  "id": 2643954653,
  "lat": 55.9512561,
  "lon": -3.1797097
},
{
  "type": "node",
  "id": 3030052669,
  "lat": 55.9510217,
  "lon": -3.1793903
},
{
  "type": "node",
  "id": 3030052672,
  "lat": 55.9510298,
  "lon": -3.1793646
},
{
  "type": "node",
  "id": 3030052678,
  "lat": 55.9510490,
  "lon": -3.1792863
},
{
  "type": "node",
  "id": 3030052680,
  "lat": 55.9510536,
  "lon": -3.1794212
},
{
  "type": "node",
  "id": 3030052681,
  "lat": 55.9510608,
  "lon": -3.1792541
},
{
  "type": "node",
  "id": 3030052683,
  "lat": 55.9510618,
  "lon": -3.1793963
},
{
  "type": "node",
  "id": 3030052717,
  "lat": 55.9510861,
  "lon": -3.1794516
},
{
  "type": "node",
  "id": 3030052720,
  "lat": 55.9510859,
  "lon": -3.1793215
},
{
  "type": "node",
  "id": 3030052834,
  "lat": 55.9510941,
  "lon": -3.1794235
},
{
  "type": "node",
  "id": 3030052839,
  "lat": 55.9510951,
  "lon": -3.1792939
},
{
  "type": "node",
  "id": 3030052852,
  "lat": 55.9511617,
  "lon": -3.1794906
},
{
  "type": "node",
  "id": 3030052853,
  "lat": 55.9511621,
  "lon": -3.1793989
},
{
  "type": "node",
  "id": 3030052856,
  "lat": 55.9511692,
  "lon": -3.1793755
},
{
  "type": "node",
  "id": 3030052857,
  "lat": 55.9512059,
  "lon": -3.1794120
},
{
  "type": "node",
  "id": 3030052858,
  "lat": 55.9512137,
  "lon": -3.1792461
},
{
  "type": "node",
  "id": 3030052860,
  "lat": 55.9512188,
  "lon": -3.1793503
},
{
  "type": "node",
  "id": 3030052864,
  "lat": 55.9512853,
  "lon": -3.1794149
},
{
  "type": "node",
  "id": 3030052866,
  "lat": 55.9512970,
  "lon": -3.1793788
},
{
  "type": "node",
  "id": 3030052869,
  "lat": 55.9513149,
  "lon": -3.1793934
},
{
  "type": "node",
  "id": 3032449595,
  "lat": 55.9509913,
  "lon": -3.1793620
},
{
  "type": "node",
  "id": 3032449600,
  "lat": 55.9510000,
  "lon": -3.1793313
},
{
  "type": "node",
  "id": 3032449940,
  "lat": 55.9512211,
  "lon": -3.1792238
},
{
  "type": "node",
  "id": 3032449941,
  "lat": 55.9512268,
  "lon": -3.1795602
},
{
  "type": "node",
  "id": 3032449942,
  "lat": 55.9512475,
  "lon": -3.1794870
},
{
  "type": "node",
  "id": 3066469193,
  "lat": 55.9512928,
  "lon": -3.1791456
},
{
  "type": "node",
  "id": 3066469195,
  "lat": 55.9512990,
  "lon": -3.1792650
},
{
  "type": "node",
  "id": 3066469196,
  "lat": 55.9513061,
  "lon": -3.1792718
},
{
  "type": "node",
  "id": 3066469205,
  "lat": 55.9513247,
  "lon": -3.1792893
},
{
  "type": "node",
  "id": 3067022003,
  "lat": 55.9510350,
  "lon": -3.1792715
},
{
  "type": "node",
  "id": 3067022004,
  "lat": 55.9510526,
  "lon": -3.1792763
},
{
  "type": "node",
  "id": 3067022006,
  "lat": 55.9510889,
  "lon": -3.1793124
},
{
  "type": "node",
  "id": 3067022010,
  "lat": 55.9511532,
  "lon": -3.1793899
},
{
  "type": "node",
  "id": 3067022012,
  "lat": 55.9512068,
  "lon": -3.1794518
},
{
  "type": "node",
  "id": 3067022016,
  "lat": 55.9512916,
  "lon": -3.1794927
},
{
  "type": "node",
  "id": 3067022026,
  "lat": 55.9513627,
  "lon": -3.1796904
},
{
  "type": "node",
  "id": 283044492,
  "lat": 55.9504262,
  "lon": -3.1749971
},
{
  "type": "node",
  "id": 283044493,
  "lat": 55.9505149,
  "lon": -3.1748947
},
{
  "type": "node",
  "id": 283044494,
  "lat": 55.9506177,
  "lon": -3.1746843
},
{
  "type": "node",
  "id": 283044495,
  "lat": 55.9507673,
  "lon": -3.1742186
},
{
  "type": "node",
  "id": 283044496,
  "lat": 55.9507961,
  "lon": -3.1740170
},
{
  "type": "node",
  "id": 283044498,
  "lat": 55.9505457,
  "lon": -3.1739450
},
{
  "type": "node",
  "id": 283044650,
  "lat": 55.9506419,
  "lon": -3.1738265
},
{
  "type": "node",
  "id": 283044651,
  "lat": 55.9503690,
  "lon": -3.1743421
},
{
  "type": "node",
  "id": 283044652,
  "lat": 55.9502921,
  "lon": -3.1745910
},
{
  "type": "node",
  "id": 283044653,
  "lat": 55.9502632,
  "lon": -3.1748106
},
{
  "type": "node",
  "id": 297925072,
  "lat": 55.9507018,
  "lon": -3.1744603
},
{
  "type": "node",
  "id": 508083311,
  "lat": 55.9506918,
  "lon": -3.1747103
},
{
  "type": "node",
  "id": 508083312,
  "lat": 55.9507397,
  "lon": -3.1745890
},
{
  "type": "node",
  "id": 508083313,
  "lat": 55.9507658,
  "lon": -3.1739197
},
{
  "type": "node",
  "id": 508083314,
  "lat": 55.9507083,
  "lon": -3.1738454
},
{
  "type": "node",
  "id": 508083315,
  "lat": 55.9504555,
  "lon": -3.1741189
},
{
  "type": "node",
  "id": 508083316,
  "lat": 55.9502940,
  "lon": -3.1749225
},
{
  "type": "node",
  "id": 508083317,
  "lat": 55.9503582,
  "lon": -3.1749897
},
{
  "type": "node",
  "id": 508486231,
  "lat": 55.9507167,
  "lon": -3.1746451
},
{
  "type": "node",
  "id": 1786469265,
  "lat": 55.9506499,
  "lon": -3.1746829
},
{
  "type": "node",
  "id": 1786469272,
  "lat": 55.9507138,
  "lon": -3.1745103
},
{
  "type": "node",
  "id": 3712283944,
  "lat": 55.9507224,
  "lon": -3.1745516
},
{
  "type": "node",
  "id": 60133585,
  "lat": 55.9515538,
  "lon": -3.1797848
},
{
  "type": "node",
  "id": 60133586,
  "lat": 55.9514900,
  "lon": -3.1797404
},
{
  "type": "node",
  "id": 518810318,
  "lat": 55.9514249,
  "lon": -3.1793841
},
{
  "type": "node",
  "id": 845637760,
  "lat": 55.9514335,
  "lon": -3.1799999
},
{
  "type": "node",
  "id": 845637874,
  "lat": 55.9515427,
  "lon": -3.1800320
},
{
  "type": "node",
  "id": 845637996,
  "lat": 55.9514133,
  "lon": -3.1800328
},
{
  "type": "node",
  "id": 845638030,
  "lat": 55.9514222,
  "lon": -3.1799920
},
{
  "type": "node",
  "id": 845638133,
  "lat": 55.9514092,
  "lon": -3.1800517
},
{
  "type": "node",
  "id": 845638233,
  "lat": 55.9515214,
  "lon": -3.1801297
},
{
  "type": "node",
  "id": 845638254,
  "lat": 55.9515257,
  "lon": -3.1801097
},
{
  "type": "node",
  "id": 845638281,
  "lat": 55.9515056,
  "lon": -3.1800062
},
{
  "type": "node",
  "id": 3005127183,
  "lat": 55.9514361,
  "lon": -3.1799880
},
{
  "type": "node",
  "id": 3005127191,
  "lat": 55.9514836,
  "lon": -3.1797698
},
{
  "type": "node",
  "id": 3005409101,
  "lat": 55.9514541,
  "lon": -3.1799051
},
{
  "type": "node",
  "id": 3030052871,
  "lat": 55.9513965,
  "lon": -3.1795293
},
{
  "type": "node",
  "id": 3067021979,
  "lat": 55.9514212,
  "lon": -3.1794113
},
{
  "type": "node",
  "id": 3067022134,
  "lat": 55.9514266,
  "lon": -3.1793857
},
{
  "type": "node",
  "id": 518393669,
  "lat": 55.9526955,
  "lon": -3.1737684
},
{
  "type": "node",
  "id": 518393670,
  "lat": 55.9526540,
  "lon": -3.1740597
},
{
  "type": "node",
  "id": 518393672,
  "lat": 55.9524370,
  "lon": -3.1739361
},
{
  "type": "node",
  "id": 518393674,
  "lat": 55.9524813,
  "lon": -3.1736596
},
{
  "type": "node",
  "id": 1081085133,
  "lat": 55.9525362,
  "lon": -3.1736859
},
{
  "type": "node",
  "id": 1081085142,
  "lat": 55.9524621,
  "lon": -3.1737781
},
{
  "type": "node",
  "id": 2813608998,
  "lat": 55.9525047,
  "lon": -3.1739663
},
{
  "type": "node",
  "id": 2813615103,
  "lat": 55.9525255,
  "lon": -3.1739713
},
{
  "type": "node",
  "id": 2813615104,
  "lat": 55.9525815,
  "lon": -3.1740500
},
{
  "type": "node",
  "id": 2813615111,
  "lat": 55.9526284,
  "lon": -3.1740700
},
{
  "type": "node",
  "id": 3070539693,
  "lat": 55.9525054,
  "lon": -3.1739614
},
{
  "type": "node",
  "id": 3070539694,
  "lat": 55.9525675,
  "lon": -3.1739919
},
{
  "type": "node",
  "id": 3070539705,
  "lat": 55.9525842,
  "lon": -3.1740298
},
{
  "type": "node",
  "id": 3070539709,
  "lat": 55.9526311,
  "lon": -3.1740498
},
{
  "type": "node",
  "id": 3072210695,
  "lat": 55.9526053,
  "lon": -3.1740602
},
{
  "type": "node",
  "id": 3073735663,
  "lat": 55.9524674,
  "lon": -3.1739514
},
{
  "type": "node",
  "id": 3073735664,
  "lat": 55.9524977,
  "lon": -3.1739666
},
{
  "type": "node",
  "id": 3073735665,
  "lat": 55.9524981,
  "lon": -3.1739639
},
{
  "type": "node",
  "id": 3073735666,
  "lat": 55.9525154,
  "lon": -3.1739663
},
{
  "type": "node",
  "id": 3073735668,
  "lat": 55.9525345,
  "lon": -3.1739129
},
{
  "type": "node",
  "id": 3073735671,
  "lat": 55.9525555,
  "lon": -3.1739233
},
{
  "type": "node",
  "id": 3073735674,
  "lat": 55.9525629,
  "lon": -3.1740207
},
{
  "type": "node",
  "id": 3073735675,
  "lat": 55.9525765,
  "lon": -3.1739336
},
{
  "type": "node",
  "id": 2018049084,
  "lat": 55.8630870,
  "lon": -3.0685017
},
{
  "type": "node",
  "id": 2018049111,
  "lat": 55.8631379,
  "lon": -3.0673887
},
{
  "type": "node",
  "id": 2018049127,
  "lat": 55.8634402,
  "lon": -3.0680204
},
{
  "type": "node",
  "id": 3210890829,
  "lat": 55.8613082,
  "lon": -3.0685562
},
{
  "type": "node",
  "id": 2018049061,
  "lat": 55.8629429,
  "lon": -3.0667058
},
{
  "type": "node",
  "id": 3210890831,
  "lat": 55.8613669,
  "lon": -3.0666802
},
{
  "type": "node",
  "id": 3210890851,
  "lat": 55.8615852,
  "lon": -3.0666600
},
{
  "type": "node",
  "id": 3210891264,
  "lat": 55.8617392,
  "lon": -3.0653650
},
{
  "type": "node",
  "id": 3210891289,
  "lat": 55.8626613,
  "lon": -3.0656675
},
{
  "type": "node",
  "id": 3210891293,
  "lat": 55.8627900,
  "lon": -3.0656952
},
{
  "type": "node",
  "id": 3210891303,
  "lat": 55.8629584,
  "lon": -3.0664275
},
{
  "type": "node",
  "id": 3210891304,
  "lat": 55.8629934,
  "lon": -3.0658021
},
{
  "type": "node",
  "id": 3210891311,
  "lat": 55.8630400,
  "lon": -3.0667258
},
{
  "type": "node",
  "id": 3210898141,
  "lat": 55.8617391,
  "lon": -3.0651737
},
{
  "type": "node",
  "id": 3210898148,
  "lat": 55.8618661,
  "lon": -3.0642424
},
{
  "type": "node",
  "id": 3210898153,
  "lat": 55.8619931,
  "lon": -3.0641645
},
{
  "type": "node",
  "id": 3210898157,
  "lat": 55.8620764,
  "lon": -3.0640198
},
{
  "type": "node",
  "id": 3210898869,
  "lat": 55.8627136,
  "lon": -3.0655040
},
{
  "type": "node",
  "id": 3210898873,
  "lat": 55.8627989,
  "lon": -3.0643908
},
{
  "type": "node",
  "id": 3751838051,
  "lat": 55.8629760,
  "lon": -3.0660865
},
{
  "type": "node",
  "id": 3751838060,
  "lat": 55.8630933,
  "lon": -3.0667350
},
{
  "type": "node",
  "id": 1422901542,
  "lat": 55.9516653,
  "lon": -3.0089763
},
{
  "type": "node",
  "id": 1422901544,
  "lat": 55.9516908,
  "lon": -3.0088943
},
{
  "type": "node",
  "id": 1422901551,
  "lat": 55.9516993,
  "lon": -3.0089027
},
{
  "type": "node",
  "id": 1422901555,
  "lat": 55.9517113,
  "lon": -3.0088638
},
{
  "type": "node",
  "id": 1422901561,
  "lat": 55.9517426,
  "lon": -3.0087632
},
{
  "type": "node",
  "id": 1422901571,
  "lat": 55.9517833,
  "lon": -3.0090933
},
{
  "type": "node",
  "id": 1422901577,
  "lat": 55.9517913,
  "lon": -3.0089953
},
{
  "type": "node",
  "id": 1422901583,
  "lat": 55.9518085,
  "lon": -3.0090123
},
{
  "type": "node",
  "id": 1422901585,
  "lat": 55.9518350,
  "lon": -3.0088548
},
{
  "type": "node",
  "id": 4562731567,
  "lat": 56.1113885,
  "lon": -3.1562626
},
{
  "type": "node",
  "id": 4562731568,
  "lat": 56.1113601,
  "lon": -3.1561634
},
{
  "type": "node",
  "id": 4562731569,
  "lat": 56.1112367,
  "lon": -3.1562769
},
{
  "type": "node",
  "id": 4562731570,
  "lat": 56.1112652,
  "lon": -3.1563762
},
{
  "type": "node",
  "id": 6700441499,
  "lat": 56.1851062,
  "lon": -3.0097395
},
{
  "type": "node",
  "id": 6700441500,
  "lat": 56.1852147,
  "lon": -3.0098929
},
{
  "type": "node",
  "id": 6700441501,
  "lat": 56.1851368,
  "lon": -3.0100705
},
{
  "type": "node",
  "id": 6700441502,
  "lat": 56.1850284,
  "lon": -3.0099171
},
{
  "type": "node",
  "id": 3315392067,
  "lat": 55.8906593,
  "lon": -2.8908958
},
{
  "type": "node",
  "id": 3315392068,
  "lat": 55.8906640,
  "lon": -2.8910262
},
{
  "type": "node",
  "id": 3315392071,
  "lat": 55.8906951,
  "lon": -2.8909343
},
{
  "type": "node",
  "id": 3315392079,
  "lat": 55.8907332,
  "lon": -2.8911006
},
{
  "type": "node",
  "id": 3315392090,
  "lat": 55.8907570,
  "lon": -2.8910294
},
{
  "type": "node",
  "id": 3315392100,
  "lat": 55.8908086,
  "lon": -2.8910761
},
{
  "type": "node",
  "id": 3315392101,
  "lat": 55.8908107,
  "lon": -2.8904479
},
{
  "type": "node",
  "id": 3315392104,
  "lat": 55.8908620,
  "lon": -2.8911334
},
{
  "type": "node",
  "id": 3315392105,
  "lat": 55.8908720,
  "lon": -2.8905139
},
{
  "type": "node",
  "id": 3315392127,
  "lat": 55.8909794,
  "lon": -2.8907860
},
{
  "type": "node",
  "id": 3315392132,
  "lat": 55.8910182,
  "lon": -2.8906711
},
{
  "type": "node",
  "id": 4933845121,
  "lat": 55.8906924,
  "lon": -2.8910568
},
{
  "type": "node",
  "id": 1014504915,
  "lat": 55.9937582,
  "lon": -2.7248801
},
{
  "type": "node",
  "id": 1014504943,
  "lat": 55.9955912,
  "lon": -2.7247058
},
{
  "type": "node",
  "id": 1014504965,
  "lat": 55.9940492,
  "lon": -2.7248668
},
{
  "type": "node",
  "id": 1014504972,
  "lat": 55.9967792,
  "lon": -2.7212839
},
{
  "type": "node",
  "id": 1014553429,
  "lat": 55.9967889,
  "lon": -2.7211755
},
{
  "type": "node",
  "id": 1014706347,
  "lat": 55.9956395,
  "lon": -2.7245685
},
{
  "type": "node",
  "id": 4589604904,
  "lat": 55.9968000,
  "lon": -2.7210429
},
{
  "type": "node",
  "id": 1014504910,
  "lat": 55.9944872,
  "lon": -2.7161126
},
{
  "type": "node",
  "id": 1014504928,
  "lat": 55.9968032,
  "lon": -2.7173893
},
{
  "type": "node",
  "id": 1014504945,
  "lat": 55.9960172,
  "lon": -2.7159087
},
{
  "type": "node",
  "id": 1014504983,
  "lat": 55.9970012,
  "lon": -2.7186446
},
{
  "type": "node",
  "id": 1014553422,
  "lat": 55.9952881,
  "lon": -2.7160054
},
{
  "type": "node",
  "id": 4589604905,
  "lat": 55.9953507,
  "lon": -2.7159971
},
{
  "type": "node",
  "id": 871797833,
  "lat": 56.0611598,
  "lon": -2.7174171
},
{
  "type": "node",
  "id": 871797865,
  "lat": 56.0614929,
  "lon": -2.7172696
},
{
  "type": "node",
  "id": 871797876,
  "lat": 56.0614841,
  "lon": -2.7174902
},
{
  "type": "node",
  "id": 871797885,
  "lat": 56.0613037,
  "lon": -2.7174497
},
{
  "type": "node",
  "id": 871797892,
  "lat": 56.0615048,
  "lon": -2.7173923
},
{
  "type": "node",
  "id": 871797895,
  "lat": 56.0613226,
  "lon": -2.7172043
},
{
  "type": "node",
  "id": 871797911,
  "lat": 56.0611441,
  "lon": -2.7173662
},
{
  "type": "node",
  "id": 871797912,
  "lat": 56.0613339,
  "lon": -2.7174947
},
{
  "type": "node",
  "id": 871797919,
  "lat": 56.0611297,
  "lon": -2.7173326
},
{
  "type": "node",
  "id": 871797932,
  "lat": 56.0614678,
  "lon": -2.7175161
},
{
  "type": "node",
  "id": 871797938,
  "lat": 56.0612817,
  "lon": -2.7174204
},
{
  "type": "node",
  "id": 871797944,
  "lat": 56.0615048,
  "lon": -2.7173225
},
{
  "type": "node",
  "id": 871797951,
  "lat": 56.0614326,
  "lon": -2.7175420
},
{
  "type": "node",
  "id": 871797957,
  "lat": 56.0613760,
  "lon": -2.7171694
},
{
  "type": "node",
  "id": 871797970,
  "lat": 56.0611447,
  "lon": -2.7172673
},
{
  "type": "node",
  "id": 871797982,
  "lat": 56.0613861,
  "lon": -2.7175443
},
{
  "type": "node",
  "id": 871797988,
  "lat": 56.0612465,
  "lon": -2.7174024
},
{
  "type": "node",
  "id": 871797992,
  "lat": 56.0614370,
  "lon": -2.7171795
},
{
  "type": "node",
  "id": 871798001,
  "lat": 56.0614967,
  "lon": -2.7174576
},
{
  "type": "node",
  "id": 871798011,
  "lat": 56.0612000,
  "lon": -2.7172775
},
{
  "type": "node",
  "id": 871798017,
  "lat": 56.0614722,
  "lon": -2.7172178
},
{
  "type": "node",
  "id": 871798027,
  "lat": 56.0612208,
  "lon": -2.7174035
},
{
  "type": "node",
  "id": 871798034,
  "lat": 56.0612528,
  "lon": -2.7172651
},
{
  "type": "node",
  "id": 871798044,
  "lat": 56.0613565,
  "lon": -2.7175319
},
{
  "type": "node",
  "id": 6782552548,
  "lat": 56.0612882,
  "lon": -2.7172343
},
{
  "type": "way",
  "id": 315006102,
  "nodes": [
    3210890829,
    3210890831,
    3210890851,
    3210891264,
    3210891289,
    3210891293,
    3210891304,
    3751838051,
    3210891303,
    2018049061,
    3210891311,
    3751838060,
    2018049111,
    2018049127,
    2018049084,
    3210890829
  ]
},
{
  "type": "way",
  "id": 315006072,
  "nodes": [
    3210898141,
    3210898148,
    3210898153,
    3210898157,
    3210898873,
    3210898869,
    3210898141
  ]
}

  ]
}
