{
  "version": 0.6,
  "generator": "Overpass API 0.7.55.9 ab41fea6",
  "osm3s": {
    "timestamp_osm_base": "2020-02-14T17:48:02Z",
    "copyright": "The data included in this document is from www.openstreetmap.org. The data is made available under ODbL."
  },
  "elements": [

{
  "type": "node",
  "id": 250689751,
  "lat": 35.5181780,
  "lon": 24.0159476,
  "tags": {
    "addr:street": "Ακτή Κουντουριώτη",
    "charge": "2,50€, students 1,50€",
    "contact:phone": "+30 28210 91875",
    "fee": "yes",
    "name": "Maritime Museum",
    "name:de": "Nautisches Museum",
    "name:pl": "Muzeum Morskie",
    "name:zh": "海事博物馆",
    "opening_hours": "Nov-Mar 09:00 - 14:00; Apr-Oct 09:00 - 16:00",
    "tourism": "museum"
  }
},
{
  "type": "node",
  "id": 304537703,
  "lat": 35.4956241,
  "lon": 23.6543318,
  "tags": {
    "email": "efacha@culture.gr",
    "name": "Archaeological Museum of Kissamos",
    "phone": "+30 28220 8330",
    "tourism": "museum",
    "website": "http://odysseus.culture.gr/h/1/gh151.jsp?obj_id=3465"
  }
},
{
  "type": "node",
  "id": 1424234729,
  "lat": 35.4244787,
  "lon": 24.2102107,
  "tags": {
    "tourism": "museum"
  }
},
{
  "type": "node",
  "id": 2001750037,
  "lat": 35.5156177,
  "lon": 24.0177246,
  "tags": {
    "addr:city": "Χανιά",
    "addr:housenumber": "28",
    "addr:street": "Χάληδων",
    "alt_name": "ARCHEOLOGICAL MUSEUM OF CHANIA",
    "name": "Chania Archeological Museum",
    "name:de": "Archäolog. Museum Chania",
    "name:pl": "Muzeum Archeologiczne w Chanii",
    "name:zh": "千尼亚考古博物馆",
    "opening_hours": "Mo 13:00-20:00; Tu-Su 08:00-20:00",
    "tourism": "museum",
    "website": "http://chaniamuseum.culture.gr"
  }
},
{
  "type": "node",
  "id": 2968628511,
  "lat": 35.2495018,
  "lon": 23.8106606,
  "tags": {
    "fee": "yes",
    "name": "Ιστορικοπολεμικο Μουσειο Σουσειο",
    "name:de": "Historisches Kriegs-Museum Sougia",
    "name:en": "Historical war Museum Sougia",
    "tourism": "museum"
  }
},
{
  "type": "node",
  "id": 3581098394,
  "lat": 35.5507466,
  "lon": 23.7771426,
  "tags": {
    "tourism": "museum"
  }
},
{
  "type": "node",
  "id": 3595213241,
  "lat": 35.2957016,
  "lon": 24.1861237,
  "tags": {
    "name": "Askyfou War Museum",
    "tourism": "museum",
    "website": "http://www.warmuseumaskifou.com/E_index.html"
  }
},
{
  "type": "node",
  "id": 4377965590,
  "lat": 35.3605728,
  "lon": 24.1742299,
  "tags": {
    "name": "Ancient Olive Oil Mill",
    "note": "An ancient and well preserved olive oil mill that was powered by a donkey many decades ago. The owner of the shop \"Lotus Art Shop\" can show you around.",
    "tourism": "museum"
  }
},
{
  "type": "node",
  "id": 4947404823,
  "lat": 35.5142945,
  "lon": 24.0236421,
  "tags": {
    "name": "Chemistry Museum",
    "name:el": "Chemistry Museum",
    "name:en": "Chemistry Museum",
    "name:pl": "Muzeum Chemii",
    "tourism": "museum"
  }
},
{
  "type": "node",
  "id": 4958367526,
  "lat": 35.4494609,
  "lon": 23.8944338,
  "tags": {
    "name:en": "Olive and Oil Museum",
    "name:uk": "Музей олив та олій",
    "tourism": "museum",
    "website": "http://oliveoil-museum.gr"
  }
},
{
  "type": "node",
  "id": 5184156421,
  "lat": 35.5192506,
  "lon": 24.0234489,
  "tags": {
    "addr:city": "Chania",
    "addr:postcode": "73132",
    "addr:street": "Defkalionos",
    "description:en": "Exhibition of ancient and traditional naval architecture",
    "name": "Ναυτικό Μουσείο Κρήτης",
    "name:en": "Maritime Museum of Crete",
    "name:pl": "Stocznia statku minojskiego",
    "opening_hours": "Mo-Sa 09:00-17:00; Su 10:00-18:00",
    "tourism": "museum",
    "website": "http://mar-mus-crete.gr/en/ancient-shipbuilding/"
  }
},
{
  "type": "node",
  "id": 5208198723,
  "lat": 35.5110331,
  "lon": 24.0250217,
  "tags": {
    "addr:housenumber": "1",
    "addr:postcode": "73134",
    "addr:street": "Τζανακάκη",
    "name": "Πολεμικό μουσείο",
    "name:en": "Army War Museum",
    "phone": "2821044156",
    "tourism": "museum"
  }
},
{
  "type": "node",
  "id": 5208361121,
  "lat": 35.5183461,
  "lon": 24.0386972,
  "tags": {
    "addr:postcode": "73133",
    "addr:street": "Ελευθερίου Βενιζέλου",
    "name": "Οικία Ελευθερίου Βενιζέλου",
    "name:en": "Eleftherios Venizelos 'Museum",
    "opening_hours": "24/7",
    "phone": "2821056008",
    "tourism": "museum"
  }
},
{
  "type": "node",
  "id": 5660941274,
  "lat": 35.5142303,
  "lon": 23.9121696,
  "tags": {
    "name:ru": "Немецкий бункер",
    "tourism": "museum"
  }
},
{
  "type": "node",
  "id": 5677161921,
  "lat": 35.5181448,
  "lon": 24.0213503,
  "tags": {
    "name:zh": "威尼斯造船厂",
    "tourism": "museum"
  }
},
{
  "type": "node",
  "id": 5988421713,
  "lat": 35.2381754,
  "lon": 23.9645666,
  "tags": {
    "name": "Man and rock",
    "tourism": "museum"
  }
},
{
  "type": "node",
  "id": 6611552373,
  "lat": 35.5152721,
  "lon": 23.9280057,
  "tags": {
    "addr:city": "Αγία Μαρίνα",
    "addr:postcode": "73100",
    "name:en": "Folklore Museum of Agia Marina",
    "opening_hours": "Mo-Fr 19:00-21:00",
    "phone": "+30 697 2295 099",
    "tourism": "museum"
  }
},
{
  "type": "node",
  "id": 6874094522,
  "lat": 35.2914384,
  "lon": 23.9588065,
  "tags": {
    "description": "Ask the wardens for access",
    "name": "Man and Samaria",
    "tourism": "museum"
  }
},
{
  "type": "node",
  "id": 6896060171,
  "lat": 35.4801092,
  "lon": 24.0661579,
  "tags": {
    "contact:email": "info@typography-museum.gr",
    "contact:facebook": "https://www.facebook.com/MouseioTypographias",
    "contact:phone": "+30 28210 80090",
    "contact:website": "http://www.typography-museum.gr",
    "name": "Μουσείο Τυπογραφίας",
    "name:en": "Museum Of Typography",
    "tourism": "museum"
  }
},
{
  "type": "node",
  "id": 7015212746,
  "lat": 35.4112129,
  "lon": 24.2450613,
  "tags": {
    "name": "μουσείο εθνογραφικό",
    "tourism": "museum"
  }
},
{
  "type": "node",
  "id": 7029421823,
  "lat": 35.5185709,
  "lon": 24.0150458,
  "tags": {
    "name": "byzantine collection",
    "tourism": "museum"
  }
},
{
  "type": "node",
  "id": 7029421824,
  "lat": 35.5153070,
  "lon": 24.0176475,
  "tags": {
    "name": "Folkloric Museum",
    "tourism": "museum"
  }
},
{
  "type": "way",
  "id": 124533972,
  "nodes": [
    1385994667,
    1385994660,
    1385994678,
    1385994604,
    1385994667
  ],
  "tags": {
    "building": "yes",
    "name": "Battle of Crete Museum",
    "tourism": "museum"
  }
},
{
  "type": "way",
  "id": 626404935,
  "nodes": [
    5913720615,
    5913720616,
    5913720617,
    5913720618,
    5913720619,
    5913720620,
    5913720621,
    5913720622,
    5913720623,
    5913720615
  ],
  "tags": {
    "building": "construction",
    "name": "Νέο Αρχαιολογικό Μουσείο Χανίων",
    "tourism": "museum"
  }
},
{
  "type": "way",
  "id": 725113282,
  "nodes": [
    6799710032,
    6799710033,
    6799710034,
    6799710035,
    6799710036,
    6799710037,
    6799710032
  ],
  "tags": {
    "building": "yes",
    "name": "Olive Museum",
    "tourism": "museum",
    "website": "http://www.olivemuseumvouves.com/pages.aspx?id=2&lang=en"
  }
},
{
  "type": "node",
  "id": 6799710032,
  "lat": 35.4870955,
  "lon": 23.7867659
},
{
  "type": "node",
  "id": 6799710033,
  "lat": 35.4870625,
  "lon": 23.7868794
},
{
  "type": "node",
  "id": 6799710034,
  "lat": 35.4869633,
  "lon": 23.7868359
},
{
  "type": "node",
  "id": 6799710035,
  "lat": 35.4869832,
  "lon": 23.7867676
},
{
  "type": "node",
  "id": 6799710036,
  "lat": 35.4870291,
  "lon": 23.7867877
},
{
  "type": "node",
  "id": 6799710037,
  "lat": 35.4870423,
  "lon": 23.7867425
},
{
  "type": "node",
  "id": 1385994604,
  "lat": 35.5237369,
  "lon": 23.8308449
},
{
  "type": "node",
  "id": 1385994660,
  "lat": 35.5236550,
  "lon": 23.8307323
},
{
  "type": "node",
  "id": 1385994667,
  "lat": 35.5237537,
  "lon": 23.8307628
},
{
  "type": "node",
  "id": 1385994678,
  "lat": 35.5236382,
  "lon": 23.8308144
},
{
  "type": "node",
  "id": 5913720615,
  "lat": 35.5171221,
  "lon": 24.0365800
},
{
  "type": "node",
  "id": 5913720616,
  "lat": 35.5171866,
  "lon": 24.0367763
},
{
  "type": "node",
  "id": 5913720617,
  "lat": 35.5163180,
  "lon": 24.0372651
},
{
  "type": "node",
  "id": 5913720618,
  "lat": 35.5163460,
  "lon": 24.0366661
},
{
  "type": "node",
  "id": 5913720619,
  "lat": 35.5162844,
  "lon": 24.0366282
},
{
  "type": "node",
  "id": 5913720620,
  "lat": 35.5163208,
  "lon": 24.0364320
},
{
  "type": "node",
  "id": 5913720621,
  "lat": 35.5167579,
  "lon": 24.0365835
},
{
  "type": "node",
  "id": 5913720622,
  "lat": 35.5167355,
  "lon": 24.0367350
},
{
  "type": "node",
  "id": 5913720623,
  "lat": 35.5167355,
  "lon": 24.0368038
}

  ]
}
