{
  "version": 0.6,
  "generator": "Overpass API 0.7.55.9 ab41fea6",
  "osm3s": {
    "timestamp_osm_base": "2020-02-14T09:10:02Z",
    "copyright": "The data included in this document is from www.openstreetmap.org. The data is made available under ODbL."
  },
  "elements": [

{
  "type": "node",
  "id": 7150407,
  "lat": 51.7507855,
  "lon": -1.2591209,
  "tags": {
    "addr:city": "Oxford",
    "addr:housenumber": "30",
    "addr:postcode": "OX1 1BP",
    "addr:street": "Pembroke Street",
    "amenity": "arts_centre",
    "name": "Modern Art Oxford",
    "opening_hours": "Tu-Sa 11:00-18:00; Su 12:00-17:00",
    "phone": "+44 1865 722733",
    "toilets:wheelchair": "yes",
    "tourism": "museum",
    "website": "https://www.modernartoxford.org.uk/",
    "wheelchair": "yes",
    "wikidata": "Q3859943",
    "wikipedia": "en:Modern Art Oxford"
  }
},
{
  "type": "node",
  "id": 34043311,
  "lat": 51.8477151,
  "lon": -1.3570457,
  "tags": {
    "name": "Oxfordshire Museum",
    "tourism": "museum",
    "wikidata": "Q7755816"
  }
},
{
  "type": "node",
  "id": 246181571,
  "lat": 51.7843904,
  "lon": -1.4760849,
  "tags": {
    "name": "Cogges Manor Farm Museum",
    "tourism": "museum",
    "wikidata": "Q5141103"
  }
},
{
  "type": "node",
  "id": 306285546,
  "lat": 51.7513011,
  "lon": -1.2570357,
  "tags": {
    "addr:postcode": "OX1 1DZ",
    "addr:street": "St Aldate's",
    "name": "Museum of Oxford",
    "phone": "+44 1865 252761",
    "source": "local_knowledge",
    "tourism": "museum",
    "website": "http://www.museumofoxford.org.uk/",
    "wikidata": "Q15260377"
  }
},
{
  "type": "node",
  "id": 320608421,
  "lat": 51.7516581,
  "lon": -1.2634625,
  "tags": {
    "alt_name": "Unlocked",
    "name": "Oxford Castle - Unlocked",
    "tourism": "museum"
  }
},
{
  "type": "node",
  "id": 322850767,
  "lat": 51.7510737,
  "lon": -1.2625799,
  "tags": {
    "created_by": "osm2go v0.6-8",
    "name": "O3 Gallery",
    "tourism": "museum"
  }
},
{
  "type": "node",
  "id": 365958609,
  "lat": 51.7707014,
  "lon": -0.9294083,
  "tags": {
    "name": "Haddenham Museum",
    "tourism": "museum",
    "website": "https://www.haddenham.net/spotlight-june/spotlight.html",
    "wikidata": "Q5637648",
    "wikipedia": "en:Haddenham Museum"
  }
},
{
  "type": "node",
  "id": 414569659,
  "lat": 51.6437802,
  "lon": -1.1648677,
  "tags": {
    "name": "Dorchester Abbey Museum and Gift Shop",
    "note": "Open 14:00-17:00 every day from Easter Saturday to 30 Sep",
    "tourism": "museum"
  }
},
{
  "type": "node",
  "id": 554738794,
  "lat": 51.5322576,
  "lon": -0.8956470,
  "tags": {
    "email": "museum@rrm.co.uk",
    "name": "River & Rowing Museum",
    "phone": "+44 1491 415600",
    "tourism": "museum",
    "website": "https://www.rrm.co.uk/",
    "wikidata": "Q15272725"
  }
},
{
  "type": "node",
  "id": 560521152,
  "lat": 51.8730201,
  "lon": -1.4823824,
  "tags": {
    "name": "Charlbury Museum",
    "tourism": "museum"
  }
},
{
  "type": "node",
  "id": 567172539,
  "lat": 51.9409431,
  "lon": -1.5453281,
  "tags": {
    "name": "Chipping Norton Museum",
    "tourism": "museum",
    "wheelchair": "no"
  }
},
{
  "type": "node",
  "id": 692994187,
  "lat": 51.7758934,
  "lon": -0.9899636,
  "tags": {
    "name": "Long Crendon Courthouse",
    "opening_hours": "We 14:00-18:00; Sa,Su 11:00-18:00; Oct-Mar off",
    "operator": "The National Trust",
    "tourism": "museum",
    "wikidata": "Q6672482"
  }
},
{
  "type": "node",
  "id": 781683551,
  "lat": 52.0175659,
  "lon": -1.3751689,
  "tags": {
    "source": "OS_OpenData_StreetView",
    "tourism": "museum"
  }
},
{
  "type": "node",
  "id": 829520748,
  "lat": 51.6010049,
  "lon": -1.1277996,
  "tags": {
    "name": "Wallingford Museum",
    "tourism": "museum",
    "wikidata": "Q2472400"
  }
},
{
  "type": "node",
  "id": 2096773515,
  "lat": 51.8323317,
  "lon": -1.3968172,
  "tags": {
    "name": "Combe Mill",
    "tourism": "museum",
    "wikidata": "Q17531437",
    "wikipedia": "en:Combe Mill"
  }
},
{
  "type": "node",
  "id": 2332756770,
  "lat": 51.8172580,
  "lon": -0.8150469,
  "tags": {
    "name": "Buckinghamshire County Museum",
    "source": "local knowledge",
    "tourism": "museum",
    "website": "http://www.buckscountymuseum.org",
    "wikidata": "Q4983261",
    "wikipedia": "en:Buckinghamshire County Museum"
  }
},
{
  "type": "node",
  "id": 2340573967,
  "lat": 51.6296914,
  "lon": -1.1882128,
  "tags": {
    "name": "Earth Trust",
    "tourism": "museum"
  }
},
{
  "type": "node",
  "id": 5696553371,
  "lat": 51.8173005,
  "lon": -0.8147706,
  "tags": {
    "name": "Roald Dahl Children's Gallery",
    "tourism": "museum",
    "website": "https://www.buckscountymuseum.org/roalddahl/",
    "wikidata": "Q15272788",
    "wikipedia": "en:Roald Dahl Children's Gallery"
  }
},
{
  "type": "node",
  "id": 5922943752,
  "lat": 51.6349679,
  "lon": -0.7731709,
  "tags": {
    "name": "Chair Making Museum",
    "operator": "Kraftinwood",
    "tourism": "museum",
    "website": "http://www.kraftinwood.com/high-wycombe-chair-making-museum/",
    "wikidata": "Q6659038",
    "wikipedia": "en:Living Chair Museum"
  }
},
{
  "type": "node",
  "id": 6403914393,
  "lat": 51.7885256,
  "lon": -1.4828727,
  "tags": {
    "addr:city": "Witney",
    "addr:housenumber": "100",
    "addr:postcode": "OX28 6HL",
    "addr:street": "High Street",
    "name": "Witney Blanket Hall",
    "tourism": "museum"
  }
},
{
  "type": "way",
  "id": 25999883,
  "nodes": [
    283650903,
    283650890,
    2382116017,
    2382116015,
    2382116013,
    2382116009,
    2374632842,
    2374632840,
    2374632838,
    2381407757,
    2374632834,
    2374632837,
    2374632841,
    283650885,
    2374647464,
    283650887,
    2381407759,
    2382090391,
    2374632076,
    2374632078,
    2374632081,
    2374649237,
    1154632715,
    2374632084,
    2374632083,
    3741578120,
    283650893,
    283650903
  ],
  "tags": {
    "addr:postcode": "OX1 3PW",
    "addr:street": "Parks Road",
    "building": "museum",
    "learning": "oxford_department",
    "name": "Oxford University Museum of Natural History",
    "operator": "University of Oxford",
    "tourism": "museum",
    "url": "http://www.oum.ox.ac.uk/",
    "wikidata": "Q1760005",
    "wikipedia": "en:Oxford University Museum of Natural History"
  }
},
{
  "type": "way",
  "id": 58603922,
  "nodes": [
    726105237,
    726105235,
    1263316357,
    1263316229,
    1263316346,
    1263316390,
    726105234,
    726105236,
    726105237
  ],
  "tags": {
    "addr:street": "Market Place",
    "building": "public",
    "internet_access": "wlan",
    "name": "Abingdon County Hall Museum",
    "tourism": "museum",
    "wikidata": "Q4667824",
    "wikipedia": "en:Abingdon County Hall Museum"
  }
},
{
  "type": "way",
  "id": 60903336,
  "nodes": [
    1295265953,
    1295265984,
    1295266001,
    6331536302,
    762264022,
    2380315479,
    1295265997,
    2380315474,
    3057102816,
    2380315473,
    2380315472,
    1295266063,
    1295265938,
    1295266047,
    1295266060,
    1295266080,
    2380315470,
    2380315471,
    1295266100,
    1295265953
  ],
  "tags": {
    "addr:street": "Broad Street",
    "building": "museum",
    "name": "Museum of the History of Science",
    "old_name": "Old Ashmolean Building",
    "opening_hours": "Tu-Fr 12:00-17:00; Sa 10:00-17:00; Su 14:00-17:00",
    "source": "local_knowledge;yahoo_imagery;OS_OpenData_StreetView",
    "tourism": "museum",
    "website": "http://www.mhs.ox.ac.uk/",
    "wheelchair": "limited",
    "wikidata": "Q6941088",
    "wikipedia": "en:Museum of the History of Science, Oxford"
  }
},
{
  "type": "way",
  "id": 87223206,
  "nodes": [
    1014244938,
    1537928937,
    1014244863,
    1014244666,
    1014244938
  ],
  "tags": {
    "addr:city": "Witney",
    "addr:postcode": "OX29 8LA",
    "building": "yes",
    "name": "Oxford Bus Museum",
    "opening_hours": "We 10:30-16:30; Su 10:30-16:30",
    "source:building": "OS_OpenData_StreetView",
    "toilets:wheelchair": "yes",
    "tourism": "museum",
    "url": "http://www.oxfordbusmuseum.org.uk/",
    "wheelchair": "limited",
    "wheelchair:description": "Accessible WC at shop & cafe. Bus museum doorway has low door sill exiting. Morris Motors museum has stairs to upper gallery. Step-free from station.",
    "wikidata": "Q7115257",
    "wikipedia": "en:Oxford Bus Museum"
  }
},
{
  "type": "way",
  "id": 99873920,
  "nodes": [
    283650903,
    283650890,
    2374632069,
    2374632070,
    2374632073,
    2374632075,
    2374632072,
    283650906,
    283650905,
    283650903
  ],
  "tags": {
    "addr:housenumber": "3",
    "addr:postcode": "OX1 3PP",
    "addr:street": "Parks Road",
    "building": "museum",
    "learning": "oxford_department",
    "name": "Pitt Rivers Museum",
    "operator": "University of Oxford",
    "tourism": "museum",
    "url": "http://www.prm.ox.ac.uk/",
    "wikidata": "Q1456119",
    "wikipedia": "en:Pitt Rivers Museum"
  }
},
{
  "type": "way",
  "id": 134520469,
  "nodes": [
    1478956373,
    1478956375,
    1478956371,
    1478956370,
    1478956373
  ],
  "tags": {
    "name": "Museum of Rural Life",
    "operator": "Waterperry Gardens",
    "source": "survey",
    "source:geometry": "Bing",
    "tourism": "museum"
  }
},
{
  "type": "way",
  "id": 137648863,
  "nodes": [
    1509685848,
    1509685840,
    1509685838,
    1509685825,
    1509685808,
    1509685811,
    1509685824,
    1509685837,
    1509685855,
    1509685848
  ],
  "tags": {
    "building": "house",
    "name": "Swinford Museum",
    "source:geometry": "Bing",
    "tourism": "museum"
  }
},
{
  "type": "way",
  "id": 146508038,
  "nodes": [
    3645245118,
    2361325260,
    1612042188,
    2361325259,
    2361325258,
    3645245118
  ],
  "tags": {
    "building": "university",
    "learning": "oxford_college",
    "name": "Christ Church Picture Gallery",
    "operator": "Christ Church",
    "tourism": "museum",
    "wikidata": "Q3675590"
  }
},
{
  "type": "way",
  "id": 187928202,
  "nodes": [
    1985636401,
    1985636439,
    1985636660,
    1985636523,
    1985636401
  ],
  "tags": {
    "building": "yes",
    "name": "Tooley's Boatyard",
    "tourism": "museum",
    "wikidata": "Q7824078"
  }
},
{
  "type": "way",
  "id": 189586669,
  "nodes": [
    2001745776,
    2001745842,
    2001745843,
    2001745831,
    2001745833,
    2001745824,
    2001745822,
    2001745806,
    2001745808,
    2001745794,
    2001745792,
    2001745780,
    2001745776
  ],
  "tags": {
    "building": "yes",
    "name": "Swalcliffe Tithe Barn",
    "source": "OS_OpenData_StreetView; Bing",
    "tourism": "museum",
    "wikidata": "Q17528028"
  }
},
{
  "type": "way",
  "id": 295528490,
  "nodes": [
    6442867591,
    6447347151,
    6442868447,
    6442868446,
    6442866841,
    6442866795,
    6442866807,
    6442866806,
    6442866805,
    6442866804,
    6442866803,
    6442866793,
    6442866794,
    6448596416,
    6442867130,
    6442867131,
    6442867132,
    6447344727,
    6442867133,
    6442867134,
    6883716252,
    6883716242,
    6883716239,
    6883716241,
    6442867641,
    6442867642,
    6442867744,
    6442867745,
    6442867746,
    6442867755,
    6442867754,
    6442867753,
    6442867752,
    6442867751,
    6442867750,
    6442867749,
    6442867748,
    6442867747,
    6442867756,
    6442867757,
    6442867758,
    6442867759,
    6442867760,
    6442867761,
    6442867743,
    6442867742,
    6442867135,
    6442867448,
    6442867449,
    6442867711,
    6442867710,
    6442867709,
    6442867708,
    6442867707,
    6442867695,
    6442867694,
    6442867693,
    6442867692,
    2992610584,
    6442866739,
    6442866738,
    6442866737,
    6442867142,
    6442866740,
    6444005145,
    6442867141,
    6442867140,
    6442867139,
    6442867138,
    2992610585,
    6442867137,
    6442867136,
    6442867292,
    6444004995,
    6442867293,
    6442867294,
    6442867295,
    6442867296,
    6444005119,
    6442867297,
    6442867298,
    6442867299,
    6442867661,
    6442867662,
    6442867663,
    6442867664,
    6442867665,
    6442866950,
    6442867666,
    6442867143,
    6442867144,
    6442866951,
    6442867145,
    6442867147,
    6442867066,
    6442867148,
    2401755501,
    2401755503,
    6442867146,
    6442867017,
    6442867018,
    6442867019,
    6442868474,
    6442868472,
    6442868473,
    6442868471,
    6442868470,
    6442868475,
    6442868476,
    6442867077,
    6442868593,
    6442868469,
    6442868591,
    6442868467,
    6442868466,
    6442860568,
    6444005072,
    6442860569,
    6447347167,
    6442866915,
    6447347390,
    6442866914,
    6442860570,
    6442860571,
    6442866849,
    6442866846,
    6442866847,
    6442866848,
    6442866845,
    6442866844,
    6442866843,
    6442867591
  ],
  "tags": {
    "landuse": "railway",
    "museum": "railway",
    "name": "Buckinghamshire Railway Centre",
    "tourism": "museum",
    "website": "https://www.bucksrailcentre.org/",
    "wikidata": "Q4983267",
    "wikipedia": "en:Buckinghamshire Railway Centre"
  }
},
{
  "type": "way",
  "id": 316757378,
  "nodes": [
    3229352210,
    3229352211,
    3229352212,
    3229352213,
    3229352210
  ],
  "tags": {
    "building": "yes",
    "name": "Walliingford Museum",
    "tourism": "museum"
  }
},
{
  "type": "way",
  "id": 361948944,
  "nodes": [
    3663514033,
    3663514034,
    3663514035,
    3663514036,
    3663514037,
    3663514038,
    3663514039,
    3663514040,
    3663514041,
    3663514042,
    3663514043,
    3663514044,
    3663514033
  ],
  "tags": {
    "addr:city": "Buckingham",
    "addr:postcode": "MK18 1JX",
    "addr:street": "Market Hill",
    "building": "yes",
    "name": "Buckingham Old Gaol",
    "opening_hours": "Mo-Sa 10:00-16:00",
    "operator": "Buckingham Old Gaol Trust",
    "tourism": "museum",
    "website": "https://buckinghamoldgaol.org.uk/",
    "wikidata": "Q15205486",
    "wikipedia": "en:Buckingham Old Gaol"
  }
},
{
  "type": "way",
  "id": 409571124,
  "nodes": [
    4114601295,
    4452418924,
    4114601297,
    4114601298,
    4114601295
  ],
  "tags": {
    "building": "yes",
    "name": "Tom Brown's School Museum",
    "tourism": "museum",
    "wikidata": "Q26309408"
  }
},
{
  "type": "way",
  "id": 479922244,
  "nodes": [
    4729542089,
    4729551677,
    4729542092,
    4729542093,
    4729542094,
    4729542095,
    4729542096,
    4729542097,
    4729542098,
    4729542099,
    4729542089
  ],
  "tags": {
    "addr:city": "Wantage",
    "addr:housename": "Vale and Downland Museum and Visitor Centre",
    "addr:housenumber": "19",
    "addr:postcode": "OX12 8BL",
    "addr:street": "Church Street",
    "building": "yes",
    "tourism": "museum"
  }
},
{
  "type": "way",
  "id": 482501979,
  "nodes": [
    4753207319,
    4753207320,
    4753208321,
    4753208322,
    4753207319
  ],
  "tags": {
    "addr:city": "Wantage",
    "addr:housename": "The Sack House",
    "addr:street": "Mill Street",
    "building": "yes",
    "name": "The Sack House",
    "tourism": "museum"
  }
},
{
  "type": "way",
  "id": 486763379,
  "nodes": [
    3859762468,
    4793237012,
    3859762465,
    4793237014,
    3859762466,
    4793237002,
    4793237003,
    4793237004,
    4793237005,
    4793242231,
    4793237006,
    4793237007,
    4793237008,
    4793237011,
    4793237009,
    4793237010,
    3859762470,
    4793237013,
    3859762467,
    4793237015,
    3859762468
  ],
  "tags": {
    "addr:city": "Oxford",
    "addr:housename": "Rochester House",
    "addr:housenumber": "42",
    "addr:postcode": "OX1 1BP",
    "addr:street": "Pembroke Street",
    "building": "yes",
    "name": "Story Museum",
    "opening_hours": "Mo-Fr 9:00-17:30",
    "tourism": "museum",
    "wikidata": "Q7766718"
  }
},
{
  "type": "way",
  "id": 511466664,
  "nodes": [
    246879150,
    715493707,
    1119369552,
    246879151,
    246879152,
    5455381168,
    1119369528,
    246879153,
    5455381169,
    246879154,
    246879155,
    246879156,
    1119369520,
    1119368971,
    246879157,
    5002918025,
    246879158,
    5002918055,
    5002918065,
    5002918052,
    5002918031,
    5002918051,
    5002918064,
    5002918068,
    246879159,
    3859688720,
    246879160,
    5002918071,
    3859688721,
    5002918046,
    246879161,
    715493714,
    246879150
  ],
  "tags": {
    "name": "Didcot Railway Centre",
    "tourism": "museum",
    "wikidata": "Q3026852"
  }
},
{
  "type": "way",
  "id": 518085709,
  "nodes": [
    5054558689,
    5054558685,
    5054558684,
    5054558686,
    5054558687,
    5054558688,
    5054558689
  ],
  "tags": {
    "building": "yes",
    "name": "Champs Chapel Museum of East Hendred",
    "tourism": "museum",
    "wikidata": "Q5070218"
  }
},
{
  "type": "way",
  "id": 604762185,
  "nodes": [
    5737660871,
    5737660870,
    5737660869,
    5737660868,
    5737660867,
    5737660866,
    5737660865,
    5737660864,
    5737660872,
    5737660871
  ],
  "tags": {
    "building": "yes",
    "name": "Tolsey Museum",
    "tourism": "museum"
  }
},
{
  "type": "way",
  "id": 679205531,
  "nodes": [
    6360053697,
    1709107829,
    6360053699,
    6360053698,
    6360053697
  ],
  "tags": {
    "building": "yes",
    "name": "The Witney & District Museum",
    "tourism": "museum"
  }
},
{
  "type": "way",
  "id": 715789968,
  "nodes": [
    6726809839,
    6726809838,
    6726809829,
    6726809830,
    6726809832,
    6726809831,
    6726809837,
    1759749453,
    6726809835,
    6726809834,
    6726809833,
    6726809836,
    6726809839
  ],
  "tags": {
    "building": "yes",
    "name": "Pendon Museum",
    "tourism": "museum",
    "wikidata": "Q15265866"
  }
},
{
  "type": "relation",
  "id": 1337584,
  "members": [
    {
      "type": "way",
      "ref": 91150946,
      "role": "outer"
    },
    {
      "type": "way",
      "ref": 91150941,
      "role": "inner"
    }
  ],
  "tags": {
    "addr:city": "Oxford",
    "addr:postcode": "OX1 2PH",
    "addr:street": "Beaumont Street",
    "alt_name": "Ashmoleum Musuem of Art and Archaelogy",
    "building": "museum",
    "changing_table": "yes",
    "changing_table:location": "wheelchair_toilet",
    "name": "Ashmolean Museum",
    "name:zh": "阿什莫林博物馆",
    "opening_hours": "Tu-Su 10:00-18:00",
    "phone": "+44 1865 278000",
    "start_date": "1841",
    "toilets": "yes",
    "toilets:access": "yes",
    "toilets:wheelchair": "designated",
    "tourism": "museum",
    "type": "multipolygon",
    "website": "https://www.ashmolean.org/",
    "wikidata": "Q636400",
    "wikipedia": "en:Ashmolean Museum"
  }
},
{
  "type": "relation",
  "id": 4049254,
  "members": [
    {
      "type": "way",
      "ref": 226521899,
      "role": "outer"
    },
    {
      "type": "way",
      "ref": 226521898,
      "role": "outer"
    }
  ],
  "tags": {
    "name": "Bate Collection of Musical Instruments",
    "tourism": "museum",
    "type": "multipolygon",
    "website": "http://www.bate.ox.ac.uk/",
    "wikidata": "Q4868742"
  }
},
{
  "type": "node",
  "id": 4114601295,
  "lat": 51.6011713,
  "lon": -1.5651165
},
{
  "type": "node",
  "id": 4114601297,
  "lat": 51.6012456,
  "lon": -1.5649679
},
{
  "type": "node",
  "id": 4114601298,
  "lat": 51.6012407,
  "lon": -1.5651222
},
{
  "type": "node",
  "id": 4452418924,
  "lat": 51.6011761,
  "lon": -1.5649623
},
{
  "type": "node",
  "id": 4753207319,
  "lat": 51.5903469,
  "lon": -1.4287977
},
{
  "type": "node",
  "id": 4753207320,
  "lat": 51.5902850,
  "lon": -1.4287952
},
{
  "type": "node",
  "id": 4753208321,
  "lat": 51.5902859,
  "lon": -1.4287400
},
{
  "type": "node",
  "id": 4753208322,
  "lat": 51.5903478,
  "lon": -1.4287426
},
{
  "type": "node",
  "id": 4729542089,
  "lat": 51.5882006,
  "lon": -1.4282863
},
{
  "type": "node",
  "id": 4729542092,
  "lat": 51.5880528,
  "lon": -1.4283363
},
{
  "type": "node",
  "id": 4729542093,
  "lat": 51.5880175,
  "lon": -1.4282456
},
{
  "type": "node",
  "id": 4729542094,
  "lat": 51.5878545,
  "lon": -1.4282354
},
{
  "type": "node",
  "id": 4729542095,
  "lat": 51.5878773,
  "lon": -1.4283655
},
{
  "type": "node",
  "id": 4729542096,
  "lat": 51.5877813,
  "lon": -1.4284387
},
{
  "type": "node",
  "id": 4729542097,
  "lat": 51.5877447,
  "lon": -1.4281054
},
{
  "type": "node",
  "id": 4729542098,
  "lat": 51.5880099,
  "lon": -1.4281358
},
{
  "type": "node",
  "id": 4729542099,
  "lat": 51.5881513,
  "lon": -1.4280708
},
{
  "type": "node",
  "id": 4729551677,
  "lat": 51.5881007,
  "lon": -1.4283156
},
{
  "type": "node",
  "id": 5054558684,
  "lat": 51.5970250,
  "lon": -1.3366629
},
{
  "type": "node",
  "id": 5054558685,
  "lat": 51.5970216,
  "lon": -1.3366429
},
{
  "type": "node",
  "id": 5054558686,
  "lat": 51.5970530,
  "lon": -1.3366503
},
{
  "type": "node",
  "id": 5054558687,
  "lat": 51.5970252,
  "lon": -1.3364903
},
{
  "type": "node",
  "id": 5054558688,
  "lat": 51.5969370,
  "lon": -1.3365300
},
{
  "type": "node",
  "id": 5054558689,
  "lat": 51.5969613,
  "lon": -1.3366700
},
{
  "type": "node",
  "id": 3229352210,
  "lat": 51.6010874,
  "lon": -1.1278719
},
{
  "type": "node",
  "id": 3229352211,
  "lat": 51.6009675,
  "lon": -1.1278826
},
{
  "type": "node",
  "id": 3229352212,
  "lat": 51.6009541,
  "lon": -1.1276278
},
{
  "type": "node",
  "id": 3229352213,
  "lat": 51.6010774,
  "lon": -1.1276117
},
{
  "type": "node",
  "id": 1509685808,
  "lat": 51.7363084,
  "lon": -1.6564660
},
{
  "type": "node",
  "id": 1509685811,
  "lat": 51.7363331,
  "lon": -1.6565370
},
{
  "type": "node",
  "id": 1509685824,
  "lat": 51.7363520,
  "lon": -1.6565199
},
{
  "type": "node",
  "id": 1509685825,
  "lat": 51.7363528,
  "lon": -1.6564260
},
{
  "type": "node",
  "id": 1509685837,
  "lat": 51.7363689,
  "lon": -1.6565688
},
{
  "type": "node",
  "id": 1509685838,
  "lat": 51.7363743,
  "lon": -1.6564065
},
{
  "type": "node",
  "id": 1509685840,
  "lat": 51.7363788,
  "lon": -1.6564196
},
{
  "type": "node",
  "id": 1509685848,
  "lat": 51.7364047,
  "lon": -1.6563962
},
{
  "type": "node",
  "id": 1509685855,
  "lat": 51.7364417,
  "lon": -1.6565030
},
{
  "type": "node",
  "id": 5737660864,
  "lat": 51.8073369,
  "lon": -1.6369629
},
{
  "type": "node",
  "id": 5737660865,
  "lat": 51.8073585,
  "lon": -1.6370641
},
{
  "type": "node",
  "id": 5737660866,
  "lat": 51.8073278,
  "lon": -1.6370822
},
{
  "type": "node",
  "id": 5737660867,
  "lat": 51.8073486,
  "lon": -1.6371594
},
{
  "type": "node",
  "id": 5737660868,
  "lat": 51.8072951,
  "lon": -1.6371895
},
{
  "type": "node",
  "id": 5737660869,
  "lat": 51.8072544,
  "lon": -1.6370883
},
{
  "type": "node",
  "id": 5737660870,
  "lat": 51.8072719,
  "lon": -1.6370735
},
{
  "type": "node",
  "id": 5737660871,
  "lat": 51.8072578,
  "lon": -1.6370105
},
{
  "type": "node",
  "id": 5737660872,
  "lat": 51.8073162,
  "lon": -1.6369743
},
{
  "type": "node",
  "id": 1709107829,
  "lat": 51.7879943,
  "lon": -1.4835459
},
{
  "type": "node",
  "id": 6360053697,
  "lat": 51.7879196,
  "lon": -1.4836054
},
{
  "type": "node",
  "id": 6360053698,
  "lat": 51.7880094,
  "lon": -1.4839712
},
{
  "type": "node",
  "id": 6360053699,
  "lat": 51.7880805,
  "lon": -1.4839130
},
{
  "type": "node",
  "id": 726105234,
  "lat": 51.6700123,
  "lon": -1.2812821
},
{
  "type": "node",
  "id": 726105235,
  "lat": 51.6699796,
  "lon": -1.2816051
},
{
  "type": "node",
  "id": 726105236,
  "lat": 51.6701194,
  "lon": -1.2813123
},
{
  "type": "node",
  "id": 726105237,
  "lat": 51.6700844,
  "lon": -1.2816347
},
{
  "type": "node",
  "id": 1263316229,
  "lat": 51.6699519,
  "lon": -1.2815263
},
{
  "type": "node",
  "id": 1263316346,
  "lat": 51.6699654,
  "lon": -1.2814014
},
{
  "type": "node",
  "id": 1263316357,
  "lat": 51.6699871,
  "lon": -1.2815362
},
{
  "type": "node",
  "id": 1263316390,
  "lat": 51.6699983,
  "lon": -1.2814107
},
{
  "type": "node",
  "id": 298272340,
  "lat": 51.7553501,
  "lon": -1.2610599
},
{
  "type": "node",
  "id": 298272341,
  "lat": 51.7554471,
  "lon": -1.2608680
},
{
  "type": "node",
  "id": 324343252,
  "lat": 51.7557182,
  "lon": -1.2608339
},
{
  "type": "node",
  "id": 910802684,
  "lat": 51.7558940,
  "lon": -1.2597003
},
{
  "type": "node",
  "id": 1057892138,
  "lat": 51.7554074,
  "lon": -1.2599837
},
{
  "type": "node",
  "id": 1057892139,
  "lat": 51.7551002,
  "lon": -1.2608277
},
{
  "type": "node",
  "id": 1057892157,
  "lat": 51.7553454,
  "lon": -1.2603877
},
{
  "type": "node",
  "id": 1057892181,
  "lat": 51.7557007,
  "lon": -1.2599702
},
{
  "type": "node",
  "id": 1057892182,
  "lat": 51.7553687,
  "lon": -1.2609624
},
{
  "type": "node",
  "id": 1057892184,
  "lat": 51.7552875,
  "lon": -1.2607550
},
{
  "type": "node",
  "id": 1057892187,
  "lat": 51.7553750,
  "lon": -1.2601786
},
{
  "type": "node",
  "id": 1057892196,
  "lat": 51.7553923,
  "lon": -1.2609159
},
{
  "type": "node",
  "id": 1057892197,
  "lat": 51.7551227,
  "lon": -1.2605723
},
{
  "type": "node",
  "id": 1057892198,
  "lat": 51.7553663,
  "lon": -1.2607835
},
{
  "type": "node",
  "id": 1057892210,
  "lat": 51.7551808,
  "lon": -1.2609928
},
{
  "type": "node",
  "id": 1057892213,
  "lat": 51.7557305,
  "lon": -1.2597897
},
{
  "type": "node",
  "id": 1057892216,
  "lat": 51.7555367,
  "lon": -1.2597831
},
{
  "type": "node",
  "id": 1057892217,
  "lat": 51.7551626,
  "lon": -1.2603103
},
{
  "type": "node",
  "id": 1057892223,
  "lat": 51.7553029,
  "lon": -1.2606435
},
{
  "type": "node",
  "id": 1057892226,
  "lat": 51.7553465,
  "lon": -1.2601725
},
{
  "type": "node",
  "id": 1057892236,
  "lat": 51.7555150,
  "lon": -1.2599112
},
{
  "type": "node",
  "id": 1057892238,
  "lat": 51.7554076,
  "lon": -1.2608967
},
{
  "type": "node",
  "id": 1057892249,
  "lat": 51.7557583,
  "lon": -1.2606107
},
{
  "type": "node",
  "id": 1057892251,
  "lat": 51.7553544,
  "lon": -1.2610164
},
{
  "type": "node",
  "id": 1057892254,
  "lat": 51.7553818,
  "lon": -1.2606720
},
{
  "type": "node",
  "id": 1057892256,
  "lat": 51.7553742,
  "lon": -1.2599738
},
{
  "type": "node",
  "id": 1159265886,
  "lat": 51.7557463,
  "lon": -1.2607020
},
{
  "type": "node",
  "id": 1475017742,
  "lat": 51.7558555,
  "lon": -1.2596908
},
{
  "type": "node",
  "id": 2351239420,
  "lat": 51.7550872,
  "lon": -1.2609819
},
{
  "type": "node",
  "id": 2351239441,
  "lat": 51.7551795,
  "lon": -1.2610060
},
{
  "type": "node",
  "id": 2354821799,
  "lat": 51.7558386,
  "lon": -1.2598329
},
{
  "type": "node",
  "id": 2354821801,
  "lat": 51.7558744,
  "lon": -1.2596974
},
{
  "type": "node",
  "id": 2354936934,
  "lat": 51.7557380,
  "lon": -1.2606988
},
{
  "type": "node",
  "id": 2354936936,
  "lat": 51.7557689,
  "lon": -1.2606148
},
{
  "type": "node",
  "id": 2386299034,
  "lat": 51.7551728,
  "lon": -1.2603209
},
{
  "type": "node",
  "id": 2386299038,
  "lat": 51.7553571,
  "lon": -1.2600925
},
{
  "type": "node",
  "id": 2386362878,
  "lat": 51.7552531,
  "lon": -1.2610148
},
{
  "type": "node",
  "id": 2386362879,
  "lat": 51.7554652,
  "lon": -1.2608624
},
{
  "type": "node",
  "id": 2386362880,
  "lat": 51.7554830,
  "lon": -1.2607399
},
{
  "type": "node",
  "id": 2386362884,
  "lat": 51.7555741,
  "lon": -1.2607741
},
{
  "type": "node",
  "id": 2386373433,
  "lat": 51.7552929,
  "lon": -1.2610354
},
{
  "type": "node",
  "id": 2389650489,
  "lat": 51.7556756,
  "lon": -1.2608150
},
{
  "type": "node",
  "id": 2389650490,
  "lat": 51.7557028,
  "lon": -1.2608267
},
{
  "type": "node",
  "id": 2389650491,
  "lat": 51.7557816,
  "lon": -1.2603534
},
{
  "type": "node",
  "id": 2389650492,
  "lat": 51.7558032,
  "lon": -1.2603597
},
{
  "type": "node",
  "id": 3083024165,
  "lat": 51.7554421,
  "lon": -1.2597494
},
{
  "type": "node",
  "id": 3766184507,
  "lat": 51.7554156,
  "lon": -1.2608886
},
{
  "type": "node",
  "id": 3766184508,
  "lat": 51.7554241,
  "lon": -1.2608815
},
{
  "type": "node",
  "id": 3766184509,
  "lat": 51.7554342,
  "lon": -1.2608746
},
{
  "type": "node",
  "id": 1014244666,
  "lat": 51.8236131,
  "lon": -1.3698693
},
{
  "type": "node",
  "id": 1014244863,
  "lat": 51.8237126,
  "lon": -1.3697604
},
{
  "type": "node",
  "id": 1014244938,
  "lat": 51.8239792,
  "lon": -1.3707448
},
{
  "type": "node",
  "id": 1537928937,
  "lat": 51.8240787,
  "lon": -1.3706360
},
{
  "type": "node",
  "id": 246879150,
  "lat": 51.6163701,
  "lon": -1.2465489
},
{
  "type": "node",
  "id": 246879151,
  "lat": 51.6181080,
  "lon": -1.2456600
},
{
  "type": "node",
  "id": 246879152,
  "lat": 51.6180675,
  "lon": -1.2453078
},
{
  "type": "node",
  "id": 246879161,
  "lat": 51.6148778,
  "lon": -1.2465060
},
{
  "type": "node",
  "id": 715493707,
  "lat": 51.6169559,
  "lon": -1.2463359
},
{
  "type": "node",
  "id": 715493714,
  "lat": 51.6156630,
  "lon": -1.2466472
},
{
  "type": "node",
  "id": 1119369528,
  "lat": 51.6166804,
  "lon": -1.2452056
},
{
  "type": "node",
  "id": 1119369552,
  "lat": 51.6174452,
  "lon": -1.2460937
},
{
  "type": "node",
  "id": 5002918046,
  "lat": 51.6133662,
  "lon": -1.2454197
},
{
  "type": "node",
  "id": 5455381168,
  "lat": 51.6171764,
  "lon": -1.2452813
},
{
  "type": "node",
  "id": 246879157,
  "lat": 51.6115022,
  "lon": -1.2414341
},
{
  "type": "node",
  "id": 246879158,
  "lat": 51.6113331,
  "lon": -1.2416679
},
{
  "type": "node",
  "id": 246879159,
  "lat": 51.6122006,
  "lon": -1.2439182
},
{
  "type": "node",
  "id": 246879160,
  "lat": 51.6127232,
  "lon": -1.2448832
},
{
  "type": "node",
  "id": 1119368971,
  "lat": 51.6121610,
  "lon": -1.2423434
},
{
  "type": "node",
  "id": 1119369520,
  "lat": 51.6128580,
  "lon": -1.2430844
},
{
  "type": "node",
  "id": 3859688720,
  "lat": 51.6125824,
  "lon": -1.2447145
},
{
  "type": "node",
  "id": 5002918025,
  "lat": 51.6114184,
  "lon": -1.2415506
},
{
  "type": "node",
  "id": 5002918031,
  "lat": 51.6117965,
  "lon": -1.2430447
},
{
  "type": "node",
  "id": 5002918051,
  "lat": 51.6118948,
  "lon": -1.2432834
},
{
  "type": "node",
  "id": 5002918052,
  "lat": 51.6116749,
  "lon": -1.2426585
},
{
  "type": "node",
  "id": 5002918055,
  "lat": 51.6115329,
  "lon": -1.2422964
},
{
  "type": "node",
  "id": 5002918064,
  "lat": 51.6119898,
  "lon": -1.2435034
},
{
  "type": "node",
  "id": 5002918065,
  "lat": 51.6115634,
  "lon": -1.2422749
},
{
  "type": "node",
  "id": 5002918068,
  "lat": 51.6120855,
  "lon": -1.2436896
},
{
  "type": "node",
  "id": 246879153,
  "lat": 51.6162484,
  "lon": -1.2451318
},
{
  "type": "node",
  "id": 246879154,
  "lat": 51.6148242,
  "lon": -1.2445555
},
{
  "type": "node",
  "id": 246879155,
  "lat": 51.6138747,
  "lon": -1.2439526
},
{
  "type": "node",
  "id": 246879156,
  "lat": 51.6134210,
  "lon": -1.2435893
},
{
  "type": "node",
  "id": 3859688721,
  "lat": 51.6130579,
  "lon": -1.2451754
},
{
  "type": "node",
  "id": 5002918071,
  "lat": 51.6129180,
  "lon": -1.2450585
},
{
  "type": "node",
  "id": 5455381169,
  "lat": 51.6155076,
  "lon": -1.2448990
},
{
  "type": "node",
  "id": 1759749453,
  "lat": 51.6379800,
  "lon": -1.2174138
},
{
  "type": "node",
  "id": 6726809829,
  "lat": 51.6379516,
  "lon": -1.2172011
},
{
  "type": "node",
  "id": 6726809830,
  "lat": 51.6380058,
  "lon": -1.2173270
},
{
  "type": "node",
  "id": 6726809831,
  "lat": 51.6379872,
  "lon": -1.2173215
},
{
  "type": "node",
  "id": 6726809832,
  "lat": 51.6379949,
  "lon": -1.2173393
},
{
  "type": "node",
  "id": 6726809833,
  "lat": 51.6380428,
  "lon": -1.2176832
},
{
  "type": "node",
  "id": 6726809834,
  "lat": 51.6380635,
  "lon": -1.2176600
},
{
  "type": "node",
  "id": 6726809835,
  "lat": 51.6379648,
  "lon": -1.2174308
},
{
  "type": "node",
  "id": 6726809836,
  "lat": 51.6380863,
  "lon": -1.2177841
},
{
  "type": "node",
  "id": 6726809837,
  "lat": 51.6379555,
  "lon": -1.2173569
},
{
  "type": "node",
  "id": 6726809838,
  "lat": 51.6379885,
  "lon": -1.2171597
},
{
  "type": "node",
  "id": 6726809839,
  "lat": 51.6382018,
  "lon": -1.2176548
},
{
  "type": "node",
  "id": 2353152952,
  "lat": 51.7486994,
  "lon": -1.2562389
},
{
  "type": "node",
  "id": 2353152954,
  "lat": 51.7487080,
  "lon": -1.2561486
},
{
  "type": "node",
  "id": 2353152963,
  "lat": 51.7487579,
  "lon": -1.2563028
},
{
  "type": "node",
  "id": 2353152967,
  "lat": 51.7487623,
  "lon": -1.2562556
},
{
  "type": "node",
  "id": 2353152968,
  "lat": 51.7487712,
  "lon": -1.2561188
},
{
  "type": "node",
  "id": 2353152969,
  "lat": 51.7487713,
  "lon": -1.2561643
},
{
  "type": "node",
  "id": 2353152970,
  "lat": 51.7487731,
  "lon": -1.2561004
},
{
  "type": "node",
  "id": 2353152971,
  "lat": 51.7487750,
  "lon": -1.2561263
},
{
  "type": "node",
  "id": 2353152972,
  "lat": 51.7487779,
  "lon": -1.2560966
},
{
  "type": "node",
  "id": 2353152973,
  "lat": 51.7487910,
  "lon": -1.2559588
},
{
  "type": "node",
  "id": 2353152974,
  "lat": 51.7488082,
  "lon": -1.2557780
},
{
  "type": "node",
  "id": 2353152976,
  "lat": 51.7488260,
  "lon": -1.2563214
},
{
  "type": "node",
  "id": 2353152977,
  "lat": 51.7488437,
  "lon": -1.2557864
},
{
  "type": "node",
  "id": 2353152979,
  "lat": 51.7488642,
  "lon": -1.2559330
},
{
  "type": "node",
  "id": 2353152980,
  "lat": 51.7488707,
  "lon": -1.2559304
},
{
  "type": "node",
  "id": 2353152981,
  "lat": 51.7488728,
  "lon": -1.2558200
},
{
  "type": "node",
  "id": 2353152982,
  "lat": 51.7488755,
  "lon": -1.2557940
},
{
  "type": "node",
  "id": 2353152984,
  "lat": 51.7488793,
  "lon": -1.2558270
},
{
  "type": "node",
  "id": 762264022,
  "lat": 51.7543387,
  "lon": -1.2553478
},
{
  "type": "node",
  "id": 1295265938,
  "lat": 51.7542333,
  "lon": -1.2555629
},
{
  "type": "node",
  "id": 1295265953,
  "lat": 51.7542501,
  "lon": -1.2553355
},
{
  "type": "node",
  "id": 1295265984,
  "lat": 51.7542629,
  "lon": -1.2553396
},
{
  "type": "node",
  "id": 1295265997,
  "lat": 51.7543208,
  "lon": -1.2554937
},
{
  "type": "node",
  "id": 1295266001,
  "lat": 51.7542648,
  "lon": -1.2553241
},
{
  "type": "node",
  "id": 1295266047,
  "lat": 51.7542362,
  "lon": -1.2555397
},
{
  "type": "node",
  "id": 1295266060,
  "lat": 51.7541797,
  "lon": -1.2555215
},
{
  "type": "node",
  "id": 1295266063,
  "lat": 51.7542235,
  "lon": -1.2555598
},
{
  "type": "node",
  "id": 1295266080,
  "lat": 51.7541979,
  "lon": -1.2553730
},
{
  "type": "node",
  "id": 1295266100,
  "lat": 51.7542483,
  "lon": -1.2553501
},
{
  "type": "node",
  "id": 1612042188,
  "lat": 51.7508275,
  "lon": -1.2544076
},
{
  "type": "node",
  "id": 2361325258,
  "lat": 51.7505356,
  "lon": -1.2543380
},
{
  "type": "node",
  "id": 2361325259,
  "lat": 51.7506523,
  "lon": -1.2543644
},
{
  "type": "node",
  "id": 2361325260,
  "lat": 51.7508185,
  "lon": -1.2545315
},
{
  "type": "node",
  "id": 2380315470,
  "lat": 51.7541835,
  "lon": -1.2553683
},
{
  "type": "node",
  "id": 2380315471,
  "lat": 51.7541881,
  "lon": -1.2553307
},
{
  "type": "node",
  "id": 2380315472,
  "lat": 51.7542210,
  "lon": -1.2555807
},
{
  "type": "node",
  "id": 2380315473,
  "lat": 51.7542441,
  "lon": -1.2555882
},
{
  "type": "node",
  "id": 2380315474,
  "lat": 51.7543067,
  "lon": -1.2556083
},
{
  "type": "node",
  "id": 2380315479,
  "lat": 51.7543349,
  "lon": -1.2553790
},
{
  "type": "node",
  "id": 3057102816,
  "lat": 51.7542903,
  "lon": -1.2556018
},
{
  "type": "node",
  "id": 3645245118,
  "lat": 51.7505232,
  "lon": -1.2544810
},
{
  "type": "node",
  "id": 3859762465,
  "lat": 51.7506957,
  "lon": -1.2580368
},
{
  "type": "node",
  "id": 3859762466,
  "lat": 51.7506871,
  "lon": -1.2579560
},
{
  "type": "node",
  "id": 3859762467,
  "lat": 51.7507887,
  "lon": -1.2579326
},
{
  "type": "node",
  "id": 3859762468,
  "lat": 51.7507953,
  "lon": -1.2580161
},
{
  "type": "node",
  "id": 3859762470,
  "lat": 51.7507590,
  "lon": -1.2577591
},
{
  "type": "node",
  "id": 4793237002,
  "lat": 51.7506719,
  "lon": -1.2578125
},
{
  "type": "node",
  "id": 4793237003,
  "lat": 51.7506672,
  "lon": -1.2578136
},
{
  "type": "node",
  "id": 4793237004,
  "lat": 51.7506640,
  "lon": -1.2577830
},
{
  "type": "node",
  "id": 4793237005,
  "lat": 51.7506687,
  "lon": -1.2577819
},
{
  "type": "node",
  "id": 4793237006,
  "lat": 51.7508442,
  "lon": -1.2575621
},
{
  "type": "node",
  "id": 4793237007,
  "lat": 51.7509315,
  "lon": -1.2576020
},
{
  "type": "node",
  "id": 4793237008,
  "lat": 51.7509184,
  "lon": -1.2576763
},
{
  "type": "node",
  "id": 4793237009,
  "lat": 51.7508516,
  "lon": -1.2576422
},
{
  "type": "node",
  "id": 4793237010,
  "lat": 51.7507513,
  "lon": -1.2576633
},
{
  "type": "node",
  "id": 4793237011,
  "lat": 51.7509023,
  "lon": -1.2576658
},
{
  "type": "node",
  "id": 4793237012,
  "lat": 51.7507802,
  "lon": -1.2580192
},
{
  "type": "node",
  "id": 4793237013,
  "lat": 51.7507734,
  "lon": -1.2579358
},
{
  "type": "node",
  "id": 4793237014,
  "lat": 51.7506911,
  "lon": -1.2579940
},
{
  "type": "node",
  "id": 4793237015,
  "lat": 51.7507917,
  "lon": -1.2579698
},
{
  "type": "node",
  "id": 4793242231,
  "lat": 51.7506474,
  "lon": -1.2575807
},
{
  "type": "node",
  "id": 6331536302,
  "lat": 51.7543038,
  "lon": -1.2553366
},
{
  "type": "node",
  "id": 283650885,
  "lat": 51.7583318,
  "lon": -1.2558521
},
{
  "type": "node",
  "id": 283650887,
  "lat": 51.7588304,
  "lon": -1.2561509
},
{
  "type": "node",
  "id": 283650890,
  "lat": 51.7584990,
  "lon": -1.2551314
},
{
  "type": "node",
  "id": 283650893,
  "lat": 51.7589814,
  "lon": -1.2553863
},
{
  "type": "node",
  "id": 283650903,
  "lat": 51.7589248,
  "lon": -1.2553942
},
{
  "type": "node",
  "id": 283650905,
  "lat": 51.7590203,
  "lon": -1.2549935
},
{
  "type": "node",
  "id": 283650906,
  "lat": 51.7585941,
  "lon": -1.2547347
},
{
  "type": "node",
  "id": 1154632715,
  "lat": 51.7588963,
  "lon": -1.2559555
},
{
  "type": "node",
  "id": 2374632069,
  "lat": 51.7585151,
  "lon": -1.2550663
},
{
  "type": "node",
  "id": 2374632070,
  "lat": 51.7585446,
  "lon": -1.2550842
},
{
  "type": "node",
  "id": 2374632072,
  "lat": 51.7585605,
  "lon": -1.2548793
},
{
  "type": "node",
  "id": 2374632073,
  "lat": 51.7585497,
  "lon": -1.2550593
},
{
  "type": "node",
  "id": 2374632075,
  "lat": 51.7585884,
  "lon": -1.2548962
},
{
  "type": "node",
  "id": 2374632076,
  "lat": 51.7588731,
  "lon": -1.2560308
},
{
  "type": "node",
  "id": 2374632078,
  "lat": 51.7588869,
  "lon": -1.2560388
},
{
  "type": "node",
  "id": 2374632081,
  "lat": 51.7589034,
  "lon": -1.2560484
},
{
  "type": "node",
  "id": 2374632083,
  "lat": 51.7589300,
  "lon": -1.2556586
},
{
  "type": "node",
  "id": 2374632084,
  "lat": 51.7589585,
  "lon": -1.2556718
},
{
  "type": "node",
  "id": 2374632834,
  "lat": 51.7583256,
  "lon": -1.2556983
},
{
  "type": "node",
  "id": 2374632837,
  "lat": 51.7583357,
  "lon": -1.2557378
},
{
  "type": "node",
  "id": 2374632838,
  "lat": 51.7583339,
  "lon": -1.2556612
},
{
  "type": "node",
  "id": 2374632840,
  "lat": 51.7582271,
  "lon": -1.2555956
},
{
  "type": "node",
  "id": 2374632841,
  "lat": 51.7583617,
  "lon": -1.2557381
},
{
  "type": "node",
  "id": 2374632842,
  "lat": 51.7582807,
  "lon": -1.2553759
},
{
  "type": "node",
  "id": 2374647464,
  "lat": 51.7585847,
  "lon": -1.2560028
},
{
  "type": "node",
  "id": 2374649237,
  "lat": 51.7589210,
  "lon": -1.2559696
},
{
  "type": "node",
  "id": 2381407757,
  "lat": 51.7583300,
  "lon": -1.2556787
},
{
  "type": "node",
  "id": 2381407759,
  "lat": 51.7588452,
  "lon": -1.2560946
},
{
  "type": "node",
  "id": 2382090391,
  "lat": 51.7588571,
  "lon": -1.2561031
},
{
  "type": "node",
  "id": 2382116009,
  "lat": 51.7583630,
  "lon": -1.2554221
},
{
  "type": "node",
  "id": 2382116013,
  "lat": 51.7583837,
  "lon": -1.2553200
},
{
  "type": "node",
  "id": 2382116015,
  "lat": 51.7583899,
  "lon": -1.2552912
},
{
  "type": "node",
  "id": 2382116017,
  "lat": 51.7584522,
  "lon": -1.2553295
},
{
  "type": "node",
  "id": 3741578120,
  "lat": 51.7589623,
  "lon": -1.2554733
},
{
  "type": "node",
  "id": 1478956370,
  "lat": 51.7524667,
  "lon": -1.0897740
},
{
  "type": "node",
  "id": 1478956371,
  "lat": 51.7524761,
  "lon": -1.0895343
},
{
  "type": "node",
  "id": 1478956373,
  "lat": 51.7525252,
  "lon": -1.0897799
},
{
  "type": "node",
  "id": 1478956375,
  "lat": 51.7525345,
  "lon": -1.0895402
},
{
  "type": "node",
  "id": 6442866793,
  "lat": 51.8639290,
  "lon": -0.9316654
},
{
  "type": "node",
  "id": 6442866794,
  "lat": 51.8638874,
  "lon": -0.9315984
},
{
  "type": "node",
  "id": 6442866803,
  "lat": 51.8643376,
  "lon": -0.9310186
},
{
  "type": "node",
  "id": 6442866804,
  "lat": 51.8645069,
  "lon": -0.9307430
},
{
  "type": "node",
  "id": 6442867130,
  "lat": 51.8638227,
  "lon": -0.9314941
},
{
  "type": "node",
  "id": 6442867131,
  "lat": 51.8638453,
  "lon": -0.9314521
},
{
  "type": "node",
  "id": 6442867132,
  "lat": 51.8635972,
  "lon": -0.9311027
},
{
  "type": "node",
  "id": 6442867133,
  "lat": 51.8633678,
  "lon": -0.9316009
},
{
  "type": "node",
  "id": 6442867134,
  "lat": 51.8630299,
  "lon": -0.9312362
},
{
  "type": "node",
  "id": 6447344727,
  "lat": 51.8633836,
  "lon": -0.9315666
},
{
  "type": "node",
  "id": 6448596416,
  "lat": 51.8638723,
  "lon": -0.9315741
},
{
  "type": "node",
  "id": 2992610584,
  "lat": 51.8616982,
  "lon": -0.9211765
},
{
  "type": "node",
  "id": 2992610585,
  "lat": 51.8618655,
  "lon": -0.9207460
},
{
  "type": "node",
  "id": 6442866737,
  "lat": 51.8613222,
  "lon": -0.9202793
},
{
  "type": "node",
  "id": 6442866738,
  "lat": 51.8615060,
  "lon": -0.9207085
},
{
  "type": "node",
  "id": 6442866739,
  "lat": 51.8616236,
  "lon": -0.9209231
},
{
  "type": "node",
  "id": 6442866740,
  "lat": 51.8610470,
  "lon": -0.9191223
},
{
  "type": "node",
  "id": 6442867138,
  "lat": 51.8617429,
  "lon": -0.9204403
},
{
  "type": "node",
  "id": 6442867139,
  "lat": 51.8615060,
  "lon": -0.9198046
},
{
  "type": "node",
  "id": 6442867140,
  "lat": 51.8613553,
  "lon": -0.9192896
},
{
  "type": "node",
  "id": 6442867141,
  "lat": 51.8612228,
  "lon": -0.9188738
},
{
  "type": "node",
  "id": 6442867142,
  "lat": 51.8609826,
  "lon": -0.9192199
},
{
  "type": "node",
  "id": 6442867692,
  "lat": 51.8617644,
  "lon": -0.9214810
},
{
  "type": "node",
  "id": 6442867693,
  "lat": 51.8618406,
  "lon": -0.9217840
},
{
  "type": "node",
  "id": 6442867694,
  "lat": 51.8618936,
  "lon": -0.9219611
},
{
  "type": "node",
  "id": 6444005145,
  "lat": 51.8611736,
  "lon": -0.9189433
},
{
  "type": "node",
  "id": 2401755501,
  "lat": 51.8654741,
  "lon": -0.9275537
},
{
  "type": "node",
  "id": 2401755503,
  "lat": 51.8657418,
  "lon": -0.9279725
},
{
  "type": "node",
  "id": 6442860568,
  "lat": 51.8650555,
  "lon": -0.9280270
},
{
  "type": "node",
  "id": 6442860569,
  "lat": 51.8648183,
  "lon": -0.9282300
},
{
  "type": "node",
  "id": 6442860570,
  "lat": 51.8651691,
  "lon": -0.9291846
},
{
  "type": "node",
  "id": 6442860571,
  "lat": 51.8651902,
  "lon": -0.9292178
},
{
  "type": "node",
  "id": 6442866795,
  "lat": 51.8647385,
  "lon": -0.9304301
},
{
  "type": "node",
  "id": 6442866805,
  "lat": 51.8646080,
  "lon": -0.9305887
},
{
  "type": "node",
  "id": 6442866806,
  "lat": 51.8646717,
  "lon": -0.9304982
},
{
  "type": "node",
  "id": 6442866807,
  "lat": 51.8647289,
  "lon": -0.9304384
},
{
  "type": "node",
  "id": 6442866841,
  "lat": 51.8649033,
  "lon": -0.9302719
},
{
  "type": "node",
  "id": 6442866843,
  "lat": 51.8648649,
  "lon": -0.9298132
},
{
  "type": "node",
  "id": 6442866844,
  "lat": 51.8649223,
  "lon": -0.9297435
},
{
  "type": "node",
  "id": 6442866845,
  "lat": 51.8649608,
  "lon": -0.9296872
},
{
  "type": "node",
  "id": 6442866846,
  "lat": 51.8651182,
  "lon": -0.9293707
},
{
  "type": "node",
  "id": 6442866847,
  "lat": 51.8650406,
  "lon": -0.9295363
},
{
  "type": "node",
  "id": 6442866848,
  "lat": 51.8649929,
  "lon": -0.9296311
},
{
  "type": "node",
  "id": 6442866849,
  "lat": 51.8651391,
  "lon": -0.9293271
},
{
  "type": "node",
  "id": 6442866914,
  "lat": 51.8651434,
  "lon": -0.9291440
},
{
  "type": "node",
  "id": 6442866915,
  "lat": 51.8649364,
  "lon": -0.9285620
},
{
  "type": "node",
  "id": 6442866951,
  "lat": 51.8640608,
  "lon": -0.9254401
},
{
  "type": "node",
  "id": 6442867017,
  "lat": 51.8657455,
  "lon": -0.9279900
},
{
  "type": "node",
  "id": 6442867018,
  "lat": 51.8657426,
  "lon": -0.9279984
},
{
  "type": "node",
  "id": 6442867019,
  "lat": 51.8657231,
  "lon": -0.9280312
},
{
  "type": "node",
  "id": 6442867066,
  "lat": 51.8646996,
  "lon": -0.9263979
},
{
  "type": "node",
  "id": 6442867077,
  "lat": 51.8655150,
  "lon": -0.9279226
},
{
  "type": "node",
  "id": 6442867135,
  "lat": 51.8630693,
  "lon": -0.9256773
},
{
  "type": "node",
  "id": 6442867143,
  "lat": 51.8633210,
  "lon": -0.9243261
},
{
  "type": "node",
  "id": 6442867144,
  "lat": 51.8633579,
  "lon": -0.9243576
},
{
  "type": "node",
  "id": 6442867145,
  "lat": 51.8642107,
  "lon": -0.9256710
},
{
  "type": "node",
  "id": 6442867146,
  "lat": 51.8657447,
  "lon": -0.9279770
},
{
  "type": "node",
  "id": 6442867147,
  "lat": 51.8646614,
  "lon": -0.9263411
},
{
  "type": "node",
  "id": 6442867148,
  "lat": 51.8651882,
  "lon": -0.9271244
},
{
  "type": "node",
  "id": 6442867448,
  "lat": 51.8631546,
  "lon": -0.9255995
},
{
  "type": "node",
  "id": 6442867449,
  "lat": 51.8630018,
  "lon": -0.9251449
},
{
  "type": "node",
  "id": 6442867591,
  "lat": 51.8649004,
  "lon": -0.9299185
},
{
  "type": "node",
  "id": 6442867641,
  "lat": 51.8636052,
  "lon": -0.9291460
},
{
  "type": "node",
  "id": 6442867642,
  "lat": 51.8641352,
  "lon": -0.9295039
},
{
  "type": "node",
  "id": 6442867666,
  "lat": 51.8632552,
  "lon": -0.9241538
},
{
  "type": "node",
  "id": 6442867709,
  "lat": 51.8626092,
  "lon": -0.9240666
},
{
  "type": "node",
  "id": 6442867710,
  "lat": 51.8627782,
  "lon": -0.9245092
},
{
  "type": "node",
  "id": 6442867711,
  "lat": 51.8629488,
  "lon": -0.9249893
},
{
  "type": "node",
  "id": 6442867742,
  "lat": 51.8630755,
  "lon": -0.9256934
},
{
  "type": "node",
  "id": 6442867743,
  "lat": 51.8632486,
  "lon": -0.9261990
},
{
  "type": "node",
  "id": 6442867744,
  "lat": 51.8642126,
  "lon": -0.9295477
},
{
  "type": "node",
  "id": 6442867745,
  "lat": 51.8642134,
  "lon": -0.9295021
},
{
  "type": "node",
  "id": 6442867746,
  "lat": 51.8642080,
  "lon": -0.9293901
},
{
  "type": "node",
  "id": 6442867747,
  "lat": 51.8638635,
  "lon": -0.9279907
},
{
  "type": "node",
  "id": 6442867748,
  "lat": 51.8639393,
  "lon": -0.9282155
},
{
  "type": "node",
  "id": 6442867749,
  "lat": 51.8639744,
  "lon": -0.9283237
},
{
  "type": "node",
  "id": 6442867750,
  "lat": 51.8640183,
  "lon": -0.9284592
},
{
  "type": "node",
  "id": 6442867751,
  "lat": 51.8640638,
  "lon": -0.9286221
},
{
  "type": "node",
  "id": 6442867752,
  "lat": 51.8641036,
  "lon": -0.9287830
},
{
  "type": "node",
  "id": 6442867753,
  "lat": 51.8641363,
  "lon": -0.9289346
},
{
  "type": "node",
  "id": 6442867754,
  "lat": 51.8641537,
  "lon": -0.9290392
},
{
  "type": "node",
  "id": 6442867755,
  "lat": 51.8641959,
  "lon": -0.9293067
},
{
  "type": "node",
  "id": 6442867756,
  "lat": 51.8638393,
  "lon": -0.9279118
},
{
  "type": "node",
  "id": 6442867757,
  "lat": 51.8637761,
  "lon": -0.9277245
},
{
  "type": "node",
  "id": 6442867758,
  "lat": 51.8636718,
  "lon": -0.9274053
},
{
  "type": "node",
  "id": 6442867759,
  "lat": 51.8635716,
  "lon": -0.9271197
},
{
  "type": "node",
  "id": 6442867760,
  "lat": 51.8634612,
  "lon": -0.9268183
},
{
  "type": "node",
  "id": 6442867761,
  "lat": 51.8634430,
  "lon": -0.9267646
},
{
  "type": "node",
  "id": 6442868446,
  "lat": 51.8649463,
  "lon": -0.9302317
},
{
  "type": "node",
  "id": 6442868447,
  "lat": 51.8650053,
  "lon": -0.9301898
},
{
  "type": "node",
  "id": 6442868466,
  "lat": 51.8653204,
  "lon": -0.9287932
},
{
  "type": "node",
  "id": 6442868467,
  "lat": 51.8654121,
  "lon": -0.9286076
},
{
  "type": "node",
  "id": 6442868469,
  "lat": 51.8654252,
  "lon": -0.9282845
},
{
  "type": "node",
  "id": 6442868470,
  "lat": 51.8656694,
  "lon": -0.9280613
},
{
  "type": "node",
  "id": 6442868471,
  "lat": 51.8656779,
  "lon": -0.9280661
},
{
  "type": "node",
  "id": 6442868472,
  "lat": 51.8656956,
  "lon": -0.9280617
},
{
  "type": "node",
  "id": 6442868473,
  "lat": 51.8656870,
  "lon": -0.9280662
},
{
  "type": "node",
  "id": 6442868474,
  "lat": 51.8657059,
  "lon": -0.9280507
},
{
  "type": "node",
  "id": 6442868475,
  "lat": 51.8655699,
  "lon": -0.9279618
},
{
  "type": "node",
  "id": 6442868476,
  "lat": 51.8655260,
  "lon": -0.9279042
},
{
  "type": "node",
  "id": 6442868591,
  "lat": 51.8654266,
  "lon": -0.9285620
},
{
  "type": "node",
  "id": 6442868593,
  "lat": 51.8654679,
  "lon": -0.9280041
},
{
  "type": "node",
  "id": 6444005072,
  "lat": 51.8648519,
  "lon": -0.9282012
},
{
  "type": "node",
  "id": 6447347151,
  "lat": 51.8649420,
  "lon": -0.9300260
},
{
  "type": "node",
  "id": 6447347167,
  "lat": 51.8648763,
  "lon": -0.9283930
},
{
  "type": "node",
  "id": 6447347390,
  "lat": 51.8651283,
  "lon": -0.9291015
},
{
  "type": "node",
  "id": 6883716239,
  "lat": 51.8633195,
  "lon": -0.9301841
},
{
  "type": "node",
  "id": 6883716241,
  "lat": 51.8634717,
  "lon": -0.9296312
},
{
  "type": "node",
  "id": 6883716242,
  "lat": 51.8632496,
  "lon": -0.9304379
},
{
  "type": "node",
  "id": 6883716252,
  "lat": 51.8632143,
  "lon": -0.9305661
},
{
  "type": "node",
  "id": 6442866950,
  "lat": 51.8631339,
  "lon": -0.9237756
},
{
  "type": "node",
  "id": 6442867136,
  "lat": 51.8621189,
  "lon": -0.9211752
},
{
  "type": "node",
  "id": 6442867137,
  "lat": 51.8619599,
  "lon": -0.9209338
},
{
  "type": "node",
  "id": 6442867292,
  "lat": 51.8622912,
  "lon": -0.9214434
},
{
  "type": "node",
  "id": 6442867293,
  "lat": 51.8623732,
  "lon": -0.9216084
},
{
  "type": "node",
  "id": 6442867294,
  "lat": 51.8624568,
  "lon": -0.9217814
},
{
  "type": "node",
  "id": 6442867295,
  "lat": 51.8626001,
  "lon": -0.9221193
},
{
  "type": "node",
  "id": 6442867296,
  "lat": 51.8626937,
  "lon": -0.9223728
},
{
  "type": "node",
  "id": 6442867297,
  "lat": 51.8627521,
  "lon": -0.9225807
},
{
  "type": "node",
  "id": 6442867298,
  "lat": 51.8627968,
  "lon": -0.9227235
},
{
  "type": "node",
  "id": 6442867299,
  "lat": 51.8628187,
  "lon": -0.9228127
},
{
  "type": "node",
  "id": 6442867661,
  "lat": 51.8628717,
  "lon": -0.9229736
},
{
  "type": "node",
  "id": 6442867662,
  "lat": 51.8629140,
  "lon": -0.9230822
},
{
  "type": "node",
  "id": 6442867663,
  "lat": 51.8629512,
  "lon": -0.9232150
},
{
  "type": "node",
  "id": 6442867664,
  "lat": 51.8629852,
  "lon": -0.9233008
},
{
  "type": "node",
  "id": 6442867665,
  "lat": 51.8630018,
  "lon": -0.9233639
},
{
  "type": "node",
  "id": 6442867695,
  "lat": 51.8620270,
  "lon": -0.9224170
},
{
  "type": "node",
  "id": 6442867707,
  "lat": 51.8621736,
  "lon": -0.9228623
},
{
  "type": "node",
  "id": 6442867708,
  "lat": 51.8624817,
  "lon": -0.9237126
},
{
  "type": "node",
  "id": 6444004995,
  "lat": 51.8623389,
  "lon": -0.9215393
},
{
  "type": "node",
  "id": 6444005119,
  "lat": 51.8627511,
  "lon": -0.9225770
},
{
  "type": "node",
  "id": 3663514033,
  "lat": 52.0010125,
  "lon": -0.9863937
},
{
  "type": "node",
  "id": 3663514034,
  "lat": 52.0009159,
  "lon": -0.9865573
},
{
  "type": "node",
  "id": 3663514035,
  "lat": 52.0008969,
  "lon": -0.9865291
},
{
  "type": "node",
  "id": 3663514036,
  "lat": 52.0008813,
  "lon": -0.9865466
},
{
  "type": "node",
  "id": 3663514037,
  "lat": 52.0008457,
  "lon": -0.9865466
},
{
  "type": "node",
  "id": 3663514038,
  "lat": 52.0008317,
  "lon": -0.9865627
},
{
  "type": "node",
  "id": 3663514039,
  "lat": 52.0008053,
  "lon": -0.9865157
},
{
  "type": "node",
  "id": 3663514040,
  "lat": 52.0008177,
  "lon": -0.9864983
},
{
  "type": "node",
  "id": 3663514041,
  "lat": 52.0008210,
  "lon": -0.9864446
},
{
  "type": "node",
  "id": 3663514042,
  "lat": 52.0008424,
  "lon": -0.9864098
},
{
  "type": "node",
  "id": 3663514043,
  "lat": 52.0008301,
  "lon": -0.9863870
},
{
  "type": "node",
  "id": 3663514044,
  "lat": 52.0009217,
  "lon": -0.9862421
},
{
  "type": "node",
  "id": 2001745776,
  "lat": 52.0382131,
  "lon": -1.4512120
},
{
  "type": "node",
  "id": 2001745780,
  "lat": 52.0382219,
  "lon": -1.4510706
},
{
  "type": "node",
  "id": 2001745792,
  "lat": 52.0382902,
  "lon": -1.4510817
},
{
  "type": "node",
  "id": 2001745794,
  "lat": 52.0382929,
  "lon": -1.4510392
},
{
  "type": "node",
  "id": 2001745806,
  "lat": 52.0383463,
  "lon": -1.4510928
},
{
  "type": "node",
  "id": 2001745808,
  "lat": 52.0383490,
  "lon": -1.4510484
},
{
  "type": "node",
  "id": 2001745822,
  "lat": 52.0384650,
  "lon": -1.4511122
},
{
  "type": "node",
  "id": 2001745824,
  "lat": 52.0384678,
  "lon": -1.4510673
},
{
  "type": "node",
  "id": 2001745831,
  "lat": 52.0385204,
  "lon": -1.4511232
},
{
  "type": "node",
  "id": 2001745833,
  "lat": 52.0385232,
  "lon": -1.4510763
},
{
  "type": "node",
  "id": 2001745842,
  "lat": 52.0385842,
  "lon": -1.4512724
},
{
  "type": "node",
  "id": 2001745843,
  "lat": 52.0385927,
  "lon": -1.4511349
},
{
  "type": "node",
  "id": 1985636401,
  "lat": 52.0632801,
  "lon": -1.3333673
},
{
  "type": "node",
  "id": 1985636439,
  "lat": 52.0633077,
  "lon": -1.3332695
},
{
  "type": "node",
  "id": 1985636523,
  "lat": 52.0634855,
  "lon": -1.3335203
},
{
  "type": "node",
  "id": 1985636660,
  "lat": 52.0635130,
  "lon": -1.3334224
},
{
  "type": "way",
  "id": 91150941,
  "nodes": [
    1057892198,
    1057892184,
    1057892223,
    1057892254,
    1057892198
  ]
},
{
  "type": "way",
  "id": 91150946,
  "nodes": [
    3083024165,
    1057892138,
    1057892256,
    2386299038,
    1057892226,
    1057892187,
    1057892157,
    2386299034,
    1057892217,
    1057892197,
    1057892139,
    2351239420,
    2351239441,
    1057892210,
    2386362878,
    2386373433,
    298272340,
    1057892251,
    1057892182,
    1057892196,
    1057892238,
    3766184507,
    3766184508,
    3766184509,
    298272341,
    2386362879,
    2386362880,
    2386362884,
    2389650489,
    2389650490,
    324343252,
    2354936934,
    1159265886,
    1057892249,
    2354936936,
    2389650492,
    2389650491,
    910802684,
    2354821801,
    1475017742,
    2354821799,
    1057892213,
    1057892181,
    1057892236,
    1057892216,
    3083024165
  ]
},
{
  "type": "way",
  "id": 226521898,
  "nodes": [
    2353152973,
    2353152972,
    2353152970,
    2353152968,
    2353152971,
    2353152969,
    2353152954,
    2353152952,
    2353152967,
    2353152963,
    2353152976,
    2353152979,
    2353152980,
    2353152984,
    2353152981,
    2353152982,
    2353152977
  ]
},
{
  "type": "way",
  "id": 226521899,
  "nodes": [
    2353152973,
    2353152974,
    2353152977
  ]
}

  ]
}
