{
  "version": 0.6,
  "generator": "Overpass API 0.7.55.9 ab41fea6",
  "osm3s": {
    "timestamp_osm_base": "2020-02-14T10:37:02Z",
    "copyright": "The data included in this document is from www.openstreetmap.org. The data is made available under ODbL."
  },
  "elements": [

{
  "type": "node",
  "id": 60602955,
  "lat": 52.3135974,
  "lon": 9.3566514,
  "tags": {
    "name": "Heimatmuseum Rodenberg",
    "tourism": "museum"
  }
},
{
  "type": "node",
  "id": 79826378,
  "lat": 52.3728248,
  "lon": 9.7434713,
  "tags": {
    "addr:city": "Hannover",
    "addr:housenumber": "2",
    "addr:postcode": "30159",
    "addr:street": "Sophienstraße",
    "name": "Kunstverein Hannover",
    "phone": "+49 511 16842698",
    "toilets:wheelchair": "yes",
    "tourism": "museum",
    "website": "https://presse.hannover-stadt.de/index.cfm?page=1",
    "wheelchair": "yes",
    "wikidata": "Q143590",
    "wikipedia": "de:Kunstverein Hannover"
  }
},
{
  "type": "node",
  "id": 253036228,
  "lat": 52.3992608,
  "lon": 9.6436537,
  "tags": {
    "addr:city": "Seelze",
    "addr:country": "DE",
    "addr:housenumber": "14",
    "addr:postcode": "30926",
    "addr:street": "Im Sande",
    "addr:suburb": "Letter",
    "source": "GPS",
    "tourism": "museum",
    "website": "http://www.heimatmuseum-seelze.de",
    "wheelchair": "yes"
  }
},
{
  "type": "node",
  "id": 269212608,
  "lat": 52.6730479,
  "lon": 9.6178827,
  "tags": {
    "name": "Harrys Klingendes Museum",
    "tourism": "museum",
    "wikidata": "Q1586925"
  }
},
{
  "type": "node",
  "id": 285870821,
  "lat": 52.4613186,
  "lon": 9.4117897,
  "tags": {
    "created_by": "Potlatch 0.10e",
    "name": "JU52 Halle",
    "tourism": "museum"
  }
},
{
  "type": "node",
  "id": 291195736,
  "lat": 52.3209333,
  "lon": 9.8189288,
  "tags": {
    "name": "Exposeeum",
    "tourism": "museum",
    "wikidata": "Q22080297"
  }
},
{
  "type": "node",
  "id": 299063140,
  "lat": 52.1141992,
  "lon": 9.6255136,
  "tags": {
    "name": "Besucherbergwerk",
    "tourism": "museum",
    "wikidata": "Q1652622",
    "wikipedia": "de:Hüttenstollen Osterwald"
  }
},
{
  "type": "node",
  "id": 305106055,
  "lat": 52.4380088,
  "lon": 9.7343373,
  "tags": {
    "amenity": "arts_centre",
    "created_by": "Potlatch 0.10e",
    "name": "Kunstverein Langenhagen",
    "tourism": "museum"
  }
},
{
  "type": "node",
  "id": 308874007,
  "lat": 52.6241375,
  "lon": 10.0796194,
  "tags": {
    "addr:city": "Celle",
    "addr:housenumber": "7",
    "addr:postcode": "29221",
    "addr:street": "Schlossplatz",
    "name": "Bomann-Museum",
    "opening_hours": "Tu-Su 10:00-17:00",
    "phone": "+49 5141 12372",
    "toilets:wheelchair": "yes",
    "tourism": "museum",
    "website": "http://www.bomann-museum.de/",
    "wheelchair": "yes",
    "wheelchair:description": "Eingang über das Kunstmuseum",
    "wikidata": "Q891746",
    "wikipedia": "de:Bomann-Museum"
  }
},
{
  "type": "node",
  "id": 332059342,
  "lat": 52.2689604,
  "lon": 10.0081594,
  "tags": {
    "name": "Grammophonmuseum",
    "tourism": "museum"
  }
},
{
  "type": "node",
  "id": 335652666,
  "lat": 52.2546155,
  "lon": 9.9688144,
  "tags": {
    "addr:city": "Algermissen",
    "addr:country": "DE",
    "addr:housenumber": "10",
    "addr:postcode": "31191",
    "addr:street": "Neue Straße",
    "addr:suburb": "Algermissen",
    "name": "Heimatmuseum",
    "opening_hours": "\"nach Vereinbarung\"",
    "tourism": "museum",
    "wikidata": "Q76635649"
  }
},
{
  "type": "node",
  "id": 392184219,
  "lat": 52.5039281,
  "lon": 9.4612602,
  "tags": {
    "addr:housenumber": "8",
    "addr:street": "An der Liebfrauenkirche",
    "name": "Ikonenmuseum",
    "tourism": "museum"
  }
},
{
  "type": "node",
  "id": 411321875,
  "lat": 52.3125172,
  "lon": 10.0022145,
  "tags": {
    "name": "Regional-Museum Sehnde",
    "opening_hours": "Mo-Su 09:00-17:00",
    "tourism": "museum",
    "wikidata": "Q1639134"
  }
},
{
  "type": "node",
  "id": 462016655,
  "lat": 52.6243797,
  "lon": 10.0795709,
  "tags": {
    "addr:city": "Celle",
    "addr:housenumber": "7",
    "addr:postcode": "29221",
    "addr:street": "Schlossplatz",
    "name": "Kunstmuseum Celle mit Sammlung Robert Simon",
    "operator": "Kunst-Stiftung Celle",
    "phone": "+49 5141 12355",
    "toilets:wheelchair": "no",
    "tourism": "museum",
    "website": "http://www.kunst.celle.de",
    "wheelchair": "yes",
    "wikidata": "Q1792540",
    "wikipedia": "de:Kunstmuseum Celle mit Sammlung Robert Simon"
  }
},
{
  "type": "node",
  "id": 487192717,
  "lat": 52.4937662,
  "lon": 10.0911521,
  "tags": {
    "name": "Teerkuhlenmuseum",
    "tourism": "museum"
  }
},
{
  "type": "node",
  "id": 506158476,
  "lat": 52.1211908,
  "lon": 9.7396205,
  "tags": {
    "addr:housenumber": "14",
    "addr:postcode": "31008",
    "addr:street": "Mühlenstraße",
    "name": "Heimatmuseum Elze",
    "opening_hours": "Su 15:00-17:00; Tu 10:00-12:00; \"und nach Vereinbarung\"",
    "operator": "Stadt Elze",
    "tourism": "museum",
    "wikidata": "Q76635950"
  }
},
{
  "type": "node",
  "id": 550422806,
  "lat": 52.5024943,
  "lon": 9.4632036,
  "tags": {
    "addr:city": "Neustadt am Rübenberge",
    "addr:country": "DE",
    "addr:housenumber": "1",
    "addr:postcode": "31535",
    "addr:street": "Schloßstraße",
    "name": "Torfmuseum",
    "tourism": "museum",
    "wheelchair": "yes"
  }
},
{
  "type": "node",
  "id": 554733009,
  "lat": 52.6600978,
  "lon": 9.8331802,
  "tags": {
    "name": "Erdoelmuseum Wietze",
    "tourism": "museum",
    "wheelchair": "yes"
  }
},
{
  "type": "node",
  "id": 564577444,
  "lat": 52.1991262,
  "lon": 9.4636932,
  "tags": {
    "name": "Heimatmuseum",
    "tourism": "museum",
    "website": "http://www.museum-badmuender.de/museum-im-wettbergschen-adelshof.html"
  }
},
{
  "type": "node",
  "id": 569749888,
  "lat": 52.1493268,
  "lon": 9.9441505,
  "tags": {
    "addr:city": "Hildesheim",
    "addr:housenumber": "1-2",
    "addr:postcode": "31134",
    "addr:street": "Am Steine",
    "name": "Roemer- und Pelizaeus-Museum",
    "phone": "+49 5121 93690",
    "toilets:wheelchair": "yes",
    "tourism": "museum",
    "website": "http://www.rpmuseum.de",
    "wheelchair": "yes",
    "wikidata": "Q896935"
  }
},
{
  "type": "node",
  "id": 573362091,
  "lat": 52.6044473,
  "lon": 9.4563674,
  "tags": {
    "man_made": "windmill",
    "name": "Bockwindmühle Dudensen",
    "operator": "Dudenser Mühlenverein",
    "tourism": "museum",
    "website": "https://www.muehle-dudensen.de/"
  }
},
{
  "type": "node",
  "id": 660691332,
  "lat": 52.1263017,
  "lon": 9.9363991,
  "tags": {
    "name": "Wildlife Steinbergium (Waldmuseum)",
    "opening_hours": "Mo-Fr 8:00-18:00; Sa-Su 10:00-17:00",
    "tourism": "museum",
    "wheelchair": "no"
  }
},
{
  "type": "node",
  "id": 736764137,
  "lat": 52.5858437,
  "lon": 9.5905645,
  "tags": {
    "historic": "yes",
    "name": "Schmiedemuseum Helstorf",
    "tourism": "museum",
    "wheelchair": "limited"
  }
},
{
  "type": "node",
  "id": 736764145,
  "lat": 52.5863699,
  "lon": 9.5873592,
  "tags": {
    "historic": "yes",
    "name": "Schmiedemuseum Helstorf",
    "tourism": "museum",
    "wheelchair": "limited"
  }
},
{
  "type": "node",
  "id": 840157444,
  "lat": 52.2448389,
  "lon": 10.2183868,
  "tags": {
    "addr:city": "Ilsede",
    "addr:housenumber": "1",
    "addr:postcode": "31246",
    "addr:street": "Am Thie",
    "addr:suburb": "Gadenstedt",
    "building": "yes",
    "name": "Dorfmuseum",
    "operator": "Heimatgruppe Gadenstedt",
    "tourism": "museum",
    "wheelchair": "no"
  }
},
{
  "type": "node",
  "id": 1423974081,
  "lat": 52.2518829,
  "lon": 10.1672723,
  "tags": {
    "addr:city": "Ilsede",
    "addr:housenumber": "68",
    "addr:postcode": "31246",
    "addr:street": "Große Straße",
    "addr:suburb": "Adenstedt",
    "name": "Heimatstube",
    "tourism": "museum"
  }
},
{
  "type": "node",
  "id": 1454885280,
  "lat": 52.5037675,
  "lon": 9.4610968,
  "tags": {
    "name": "Stadtmuseum",
    "tourism": "museum"
  }
},
{
  "type": "node",
  "id": 1571201714,
  "lat": 52.2095542,
  "lon": 9.5588161,
  "tags": {
    "name": "Fußballmuseum Springe",
    "tourism": "museum",
    "website": "http://www.sportsammlung-saloga.de/",
    "wheelchair": "no"
  }
},
{
  "type": "node",
  "id": 1760229365,
  "lat": 52.4374571,
  "lon": 9.3487191,
  "tags": {
    "name": "Bergbau Museum Schacht Weser",
    "operator": "Bergmannsverein Hagenburg",
    "tourism": "museum"
  }
},
{
  "type": "node",
  "id": 1861186151,
  "lat": 52.0859055,
  "lon": 9.7749392,
  "tags": {
    "name": "Stadtmuseum Gronau",
    "tourism": "museum"
  }
},
{
  "type": "node",
  "id": 1907509682,
  "lat": 52.1336780,
  "lon": 10.0649807,
  "tags": {
    "addr:city": "Schellerten",
    "addr:housenumber": "5",
    "addr:postcode": "31174",
    "addr:street": "Schulstraße",
    "addr:suburb": "Wendhausen",
    "name": "Heimatstube",
    "tourism": "museum",
    "wheelchair": "no"
  }
},
{
  "type": "node",
  "id": 1968612888,
  "lat": 52.2844926,
  "lon": 9.7188097,
  "tags": {
    "addr:city": "Hemmingen",
    "addr:country": "DE",
    "addr:housenumber": "22",
    "addr:postcode": "30966",
    "addr:street": "Bruchweg",
    "name": "Oldtimermuseum",
    "operator": "Bernd Filax",
    "tourism": "museum"
  }
},
{
  "type": "node",
  "id": 2003172619,
  "lat": 52.1495987,
  "lon": 9.9429872,
  "tags": {
    "name": "Stadtarchiv",
    "tourism": "museum",
    "wheelchair": "no"
  }
},
{
  "type": "node",
  "id": 2130960873,
  "lat": 52.2073286,
  "lon": 9.5567909,
  "tags": {
    "tourism": "museum",
    "wheelchair": "limited"
  }
},
{
  "type": "node",
  "id": 2312546536,
  "lat": 52.4550371,
  "lon": 9.3527847,
  "tags": {
    "name": "Fischer- und Webermuseum",
    "opening_hours": "May-Oct Tu-Su 13:00-17:00; Mar,Apr,Nov Sa,Su,Ph 13:00-17:00",
    "source": "http://steinhudermuseen.wordpress.com/",
    "tourism": "museum",
    "wheelchair": "yes"
  }
},
{
  "type": "node",
  "id": 2327958071,
  "lat": 52.1991649,
  "lon": 9.4627498,
  "tags": {
    "name": "Bürgerhaus",
    "tourism": "museum",
    "website": "http://www.museum-badmuender.de/buergerhaus-von-1752.html"
  }
},
{
  "type": "node",
  "id": 2353110282,
  "lat": 52.3717046,
  "lon": 9.7480202,
  "tags": {
    "name": "Stiftung Ahlers/Kestner pro arte",
    "tourism": "museum"
  }
},
{
  "type": "node",
  "id": 2529727014,
  "lat": 52.6239140,
  "lon": 10.0778919,
  "tags": {
    "name": "Residenzmuseum im Celler Schloss",
    "note": "Schlossplatz 1, 29221 Celle",
    "opening_hours": "Tu-Su 10:00-17:00",
    "phone": "+49 5141 12373",
    "tourism": "museum",
    "website": "http://residenzmuseum.celle.de/",
    "wheelchair": "yes",
    "wikidata": "Q17591445",
    "wikipedia": "de:Residenzmuseum im Celler Schloss"
  }
},
{
  "type": "node",
  "id": 2823228991,
  "lat": 52.4927772,
  "lon": 10.1059290,
  "tags": {
    "name": "Museumsbahn Kali",
    "operator": "Kalibahn geV",
    "tourism": "museum"
  }
},
{
  "type": "node",
  "id": 3017036297,
  "lat": 52.4113827,
  "lon": 9.5935945,
  "tags": {
    "name": "Heimatmuseum",
    "tourism": "museum"
  }
},
{
  "type": "node",
  "id": 3039089179,
  "lat": 52.3876607,
  "lon": 9.7397736,
  "tags": {
    "addr:city": "Hannover",
    "addr:housenumber": "22",
    "addr:postcode": "30161",
    "addr:street": "Spichernstraße",
    "name": "WOK - World of Kitchen",
    "operator": "World of Kitchen Museum e.V.",
    "phone": "+49 174 7020046",
    "toilets:wheelchair": "yes",
    "tourism": "museum",
    "website": "https://www.wok-museum.de/",
    "wheelchair": "yes",
    "wikidata": "Q1717744"
  }
},
{
  "type": "node",
  "id": 3210890800,
  "lat": 52.3733304,
  "lon": 9.7439107,
  "tags": {
    "addr:city": "Hannover",
    "addr:housenumber": "9",
    "addr:postcode": "30159",
    "addr:street": "Prinzenstraße",
    "email": "theatermuseum@staatstheater-hannover.de",
    "fax": "+49 511 99992940",
    "name": "Theatermuseum",
    "operator": "Schauspielhaus",
    "phone": "+49 511 99992040",
    "toilets:wheelchair": "yes",
    "tourism": "museum",
    "website": "http://www.staatstheater-hannover.de/schauspiel/index.php?m=95&f=07_seiten&ID_Seite=44",
    "wheelchair": "yes",
    "wheelchair:description": "Behindertentoilette im Schauspielhaus",
    "wikidata": "Q55154748",
    "wikipedia": "de:Theatermuseum Hannover"
  }
},
{
  "type": "node",
  "id": 3232942255,
  "lat": 52.3418217,
  "lon": 9.7131669,
  "tags": {
    "name": "Bunkermuseum",
    "operator": "Vorbei e.V.",
    "tourism": "museum",
    "website": "http://www.vorbei-ev.de"
  }
},
{
  "type": "node",
  "id": 3267216832,
  "lat": 52.3691062,
  "lon": 9.7227689,
  "tags": {
    "name": "Museum für Energiegeschichte",
    "opening_hours": "Tu-Fr 09:00-16:00",
    "tourism": "museum",
    "website": "https://www.energiegeschichte.de/",
    "wikidata": "Q40387600",
    "wikipedia": "de:Museum für Energiegeschichte(n)"
  }
},
{
  "type": "node",
  "id": 3448207734,
  "lat": 52.3248575,
  "lon": 10.2253998,
  "tags": {
    "addr:city": "Peine",
    "addr:housenumber": "17",
    "addr:postcode": "31224",
    "addr:street": "Stederdorfer Straße",
    "name": "Kreismuseum Peine",
    "phone": "05171-4013408",
    "tourism": "museum",
    "website": "https://www.kreismuseum-peine.de/index.php",
    "wheelchair": "limited"
  }
},
{
  "type": "node",
  "id": 3465608701,
  "lat": 52.3442636,
  "lon": 9.6553555,
  "tags": {
    "name": "Niedersächsisches Museum für Kali- und Salzbergbau",
    "tourism": "museum",
    "wikidata": "Q50366958"
  }
},
{
  "type": "node",
  "id": 3770780516,
  "lat": 52.2993806,
  "lon": 9.4697182,
  "tags": {
    "name": "Klosterstollen Barsinghausen",
    "toilets:wheelchair": "yes",
    "tourism": "museum",
    "wheelchair": "yes"
  }
},
{
  "type": "node",
  "id": 4219600289,
  "lat": 52.6218993,
  "lon": 10.0845298,
  "tags": {
    "FIXME": "welches Gebäude ist das?",
    "museum": "apis mellifera",
    "name": "Bienenmuseum im Treppenspeicher",
    "tourism": "museum"
  }
},
{
  "type": "node",
  "id": 4907416350,
  "lat": 52.2334667,
  "lon": 9.8548015,
  "tags": {
    "addr:city": "Sarstedt",
    "addr:housenumber": "5",
    "addr:postcode": "31157",
    "addr:street": "Vor der Kirche",
    "name": "Haus am Junkernhof",
    "operator": "Kulturgemeinschaft Sarstedt",
    "tourism": "museum"
  }
},
{
  "type": "node",
  "id": 5279384636,
  "lat": 52.1347165,
  "lon": 9.9676792,
  "tags": {
    "addr:city": "Hildesheim",
    "addr:housenumber": "1",
    "addr:postcode": "31141",
    "addr:street": "Timotheusplatz",
    "name": "Sammlung Rolf Irle - Musikinstrumentenmuseum",
    "operator": "Stiftung Universität Hildesheim",
    "tourism": "museum",
    "wheelchair": "no"
  }
},
{
  "type": "node",
  "id": 5700001519,
  "lat": 52.1528327,
  "lon": 9.9510396,
  "tags": {
    "addr:city": "Hildesheim",
    "addr:housenumber": "7",
    "addr:postcode": "31134",
    "addr:street": "Markt",
    "name": "Stadtmuseum Hildesheim",
    "opening_hours": "Tu-Su 10:00-18:00",
    "phone": "05121 / 299 36 - 85",
    "toilets:wheelchair": "yes",
    "tourism": "museum",
    "website": "http://www.stadtmuseum-hildesheim.de/",
    "wheelchair": "yes"
  }
},
{
  "type": "node",
  "id": 5702814779,
  "lat": 52.1501583,
  "lon": 9.9457822,
  "tags": {
    "name": "Bistumsarchiv",
    "tourism": "museum"
  }
},
{
  "type": "node",
  "id": 5896571690,
  "lat": 52.3691518,
  "lon": 9.7383471,
  "tags": {
    "addr:city": "Hannover",
    "addr:housenumber": "2",
    "addr:postcode": "30159",
    "addr:street": "Theodor-Lessing-Platz",
    "name": "Städtische Galerie KUBUS",
    "opening_hours": "Tu-Fr 11:00-18:00; Sa 11:00-16:00",
    "phone": "+49 511 16845790",
    "toilets:wheelchair": "yes",
    "tourism": "museum",
    "website": "https://www.hannover.de/",
    "wheelchair": "yes",
    "wikidata": "Q2359938"
  }
},
{
  "type": "node",
  "id": 6020758923,
  "lat": 52.3730412,
  "lon": 9.7077702,
  "tags": {
    "addr:city": "Hannover",
    "addr:housenumber": "43",
    "addr:postcode": "30451",
    "addr:street": "Limmerstraße",
    "name": "Buchdruck-Museum",
    "opening_hours": "We 15:00-19:00",
    "operator": "Freundeskreis Schwarze Kunst e.V.",
    "phone": "+49 511 2208253",
    "tourism": "museum",
    "wikidata": "Q15108126"
  }
},
{
  "type": "node",
  "id": 6045087973,
  "lat": 52.5230871,
  "lon": 9.7570704,
  "tags": {
    "name": "Radiomuseum Bissendorf",
    "tourism": "museum",
    "website": "http://www.radiomuseum-bissendorf.de/"
  }
},
{
  "type": "node",
  "id": 6063663312,
  "lat": 52.1465223,
  "lon": 9.9516460,
  "tags": {
    "addr:city": "Hildesheim",
    "addr:housenumber": "21",
    "addr:postcode": "31134",
    "addr:street": "Gelber Stern",
    "name": "Neisser Heimatmuseum",
    "opening_hours": "We 16:00-18:00",
    "tourism": "museum"
  }
},
{
  "type": "node",
  "id": 6178061319,
  "lat": 52.3960086,
  "lon": 9.5937400,
  "tags": {
    "addr:city": "Seelze",
    "addr:housenumber": "15",
    "addr:postcode": "30926",
    "addr:street": "Hannoversche Straße",
    "name": "Heimatmuseum Seelze",
    "opening_hours": "So 14.30-17.30",
    "operator": "Museumsverein",
    "tourism": "museum",
    "wikidata": "Q23897205"
  }
},
{
  "type": "node",
  "id": 6178061320,
  "lat": 52.3960253,
  "lon": 9.5937980,
  "tags": {
    "addr:city": "Seelze",
    "addr:housenumber": "15",
    "addr:postcode": "30926",
    "addr:street": "Hannoversche Straße",
    "name": "Stadtarchiv Seelze",
    "operator": "Stadt Seelze",
    "tourism": "museum"
  }
},
{
  "type": "node",
  "id": 6471983933,
  "lat": 52.3714710,
  "lon": 9.7201568,
  "tags": {
    "addr:city": "Hannover",
    "addr:housenumber": "35",
    "addr:postcode": "30169",
    "addr:street": "Glockseestraße",
    "name": "Ausstellung Upcyclingbörse Hannover",
    "opening_hours": "Tu 15:00-19:00",
    "operator": "Glocksee Bauhaus e.V.",
    "tourism": "museum"
  }
},
{
  "type": "node",
  "id": 6504620747,
  "lat": 52.3812386,
  "lon": 9.7697497,
  "tags": {
    "fee": "no",
    "name": "Ausstellung Zoo damals und heute",
    "tourism": "museum",
    "wheelchair": "yes"
  }
},
{
  "type": "node",
  "id": 6551313714,
  "lat": 52.1492787,
  "lon": 9.9476524,
  "tags": {
    "addr:city": "Hildesheim",
    "addr:housenumber": "17",
    "addr:postcode": "31134",
    "addr:street": "Domhof",
    "email": "dommuseum@bistum-hildesheim.de",
    "name": "Dommuseum Hildesheim",
    "phone": "+49 5121 307 760",
    "toilets:wheelchair": "yes",
    "tourism": "museum",
    "website": "https://www.dommuseum-hildesheim.de/de",
    "wheelchair": "yes",
    "wikidata": "Q827564"
  }
},
{
  "type": "node",
  "id": 7112328654,
  "lat": 52.3688876,
  "lon": 9.7382252,
  "tags": {
    "name": "Zeitzentrum Zivilcourage",
    "tourism": "museum"
  }
},
{
  "type": "node",
  "id": 7153599490,
  "lat": 52.1553453,
  "lon": 9.9246536,
  "tags": {
    "addr:city": "Hildesheim",
    "addr:housenumber": "69",
    "addr:postcode": "31137",
    "addr:street": "Zierenbergstraße",
    "description": "Führungen jeden ersten Freitag im Monat um 17:00 Uhr.",
    "museum": "local",
    "name": "Felsenkeller Moritzberg",
    "tourism": "museum",
    "website": "www.felsenkeller-moritzberg.de"
  }
},
{
  "type": "way",
  "id": 4816460,
  "nodes": [
    30937380,
    30937383,
    2296845279,
    5140181577,
    2296845278,
    5140181576,
    5140181573,
    5140181574,
    5140181575,
    2296845281,
    5140181578,
    2296845282,
    30937386,
    30937378,
    30937380
  ],
  "tags": {
    "addr:city": "Hannover",
    "addr:country": "DE",
    "addr:housenumber": "3",
    "addr:postcode": "30159",
    "addr:street": "Trammplatz",
    "amenity": "arts_centre",
    "building": "museum",
    "building:colour": "brown",
    "building:levels": "3",
    "name": "August-Kestner-Museum",
    "name:de": "Kestner-Museum",
    "name:fr": "Musée August Kestner",
    "name:ru": "Музей Кестнера",
    "phone": "+49 511 16842120",
    "toilets:wheelchair": "yes",
    "tourism": "museum",
    "website": "https://www.kestner-museum.de/",
    "wheelchair": "yes",
    "wikidata": "Q457671",
    "wikipedia": "de:Museum August Kestner"
  }
},
{
  "type": "way",
  "id": 5121415,
  "nodes": [
    35331429,
    35331434,
    1191528150,
    1191527964,
    1406773765,
    1191528020,
    35331432,
    3141435482,
    3141435486,
    35331431,
    35331429
  ],
  "tags": {
    "addr:city": "Hannover",
    "addr:country": "DE",
    "addr:housenumber": "1",
    "addr:postcode": "30167",
    "addr:street": "Georgengarten",
    "alt_name": "Georgenpalais; Deutsches Museum für Karikatur und Kritische Grafik",
    "amenity": "arts_centre",
    "building": "yes",
    "building:colour": "yellow",
    "building:height": "10 m",
    "height": "0",
    "hist_name": "Wallmodenpalais",
    "name": "Wilhelm-Busch Deutsches Museum für Karikatur und Zeichenkunst",
    "opening_hours": "\"Am 24. und 31. Dezember geschlossen.\"",
    "phone": "+49 511 16999911",
    "roof:colour": "red",
    "roof:height": "4 m",
    "roof:orientation": "along",
    "roof:shape": "gabled",
    "source": "HiRes aerial imagery",
    "source:date": "2009",
    "toilets:wheelchair": "yes",
    "tourism": "museum",
    "website": "https://www.karikatur-museum.de/",
    "wheelchair": "yes",
    "wikidata": "Q316005",
    "wikipedia": "de:Wilhelm Busch – Deutsches Museum für Karikatur und Zeichenkunst"
  }
},
{
  "type": "way",
  "id": 25174268,
  "nodes": [
    274426620,
    2123310598,
    274426622,
    274426624,
    702453290,
    274426626,
    274426628,
    274426630,
    274426632,
    274426633,
    274426635,
    2123310591,
    274426636,
    2123310594,
    274426620
  ],
  "tags": {
    "addr:city": "Winsen (Aller)",
    "addr:postcode": "29308",
    "addr:street": "Brauckmanns Kerkstieg",
    "area": "yes",
    "email": "info@winser-heimatverein.de",
    "fax": "+49 5143 912890",
    "name": "Museumshof",
    "operator": "Winser Heimatverein e.V.",
    "phone": "+49 5143 8140",
    "tourism": "museum",
    "website": "http://www.winser-heimatverein.de/cms/home.html",
    "wheelchair": "no",
    "wikipedia": "de:Museumshof Winsen"
  }
},
{
  "type": "way",
  "id": 27893625,
  "nodes": [
    306256961,
    306257000,
    3383399659,
    3383399661,
    306256966,
    306256962,
    306256963,
    306256968,
    306257028,
    3383399655,
    306257032,
    306256998,
    306256964,
    306256961
  ],
  "tags": {
    "building": "yes",
    "name": "Deutsches Erdölmuseum",
    "tourism": "museum",
    "wikidata": "Q1205608"
  }
},
{
  "type": "way",
  "id": 41714696,
  "nodes": [
    513478422,
    513478425,
    513478426,
    455453109,
    513478422
  ],
  "tags": {
    "addr:city": "Isernhagen",
    "addr:country": "DE",
    "addr:housenumber": "40",
    "addr:postcode": "30916",
    "addr:street": "Am Ortfelde",
    "addr:suburb": "Isernhagen N.B.",
    "name": "Bauernmuseum Wöhler-Dusche-Hof",
    "tourism": "museum"
  }
},
{
  "type": "way",
  "id": 50731170,
  "nodes": [
    646736011,
    646736010,
    646736013,
    646736012,
    646736011
  ],
  "tags": {
    "building": "yes",
    "building:levels": "2",
    "height": "16",
    "name": "Fachgebiet Geschichte der Veterinärmedizin / Museum",
    "opening_hours": "Tu-Th 10:00-16:00",
    "ref": "120",
    "roof:height": "6",
    "roof:material": "roof_tiles",
    "roof:shape": "gabled",
    "tourism": "museum"
  }
},
{
  "type": "way",
  "id": 89722802,
  "nodes": [
    1039781191,
    1039781161,
    1039781013,
    1039780793,
    1039781191
  ],
  "tags": {
    "addr:city": "Sehnde",
    "addr:country": "DE",
    "addr:housenumber": "2",
    "addr:postcode": "31319",
    "addr:street": "Am Straßenbahnmuseum",
    "addr:suburb": "Wehmingen",
    "building": "residential",
    "museum": "railway",
    "roof:colour": "red",
    "roof:shape": "hipped",
    "source": "Bing",
    "wheelchair": "no"
  }
},
{
  "type": "way",
  "id": 89722820,
  "nodes": [
    1039780847,
    1039781117,
    1039780962,
    1039780809,
    1039780847
  ],
  "tags": {
    "addr:housenumber": "14",
    "addr:postcode": "31319",
    "addr:street": "Am Straßenbahnmuseum",
    "building": "yes",
    "building:levels": "4",
    "description": "Förderverein Mobile Welten e. V., regelmäßige Veranstaltungen und Ausstellungen",
    "museum": "technology",
    "name": "Salzmühle",
    "start_date": "06.08.2017",
    "website": "https://www.mobilewelten.eu/"
  }
},
{
  "type": "way",
  "id": 96044485,
  "nodes": [
    1639970978,
    1112819333,
    1112819340,
    1639971129,
    1639971099,
    1639971107,
    1639971113,
    1639971121,
    1639971117,
    1639971132,
    1639971125,
    1639971110,
    1639971104,
    1639971090,
    1639971101,
    1639971087,
    1639971084,
    1639971077,
    1639971073,
    1639971069,
    1639971065,
    1639971061,
    1639971049,
    1112819331,
    1112819365,
    1112819334,
    1639970984,
    1112819350,
    1112819358,
    1112819375,
    1639970971,
    1639971057,
    1639970978
  ],
  "tags": {
    "addr:city": "Laatzen",
    "addr:country": "DE",
    "addr:housenumber": "2",
    "addr:postcode": "30880",
    "addr:street": "Ulmer Straße",
    "building": "museum",
    "contact:email": "info@luftfahrtmuseum-hannover.de",
    "contact:fax": "+49 511 8791793",
    "image": "http://www.luftfahrtmuseum-hannover.de/files/img_thumbnails/4_75.jpeg",
    "name": "Luftfahrtmuseum Laatzen-Hannover e.V.",
    "opening_hours": "Tu-Su 10:00-17:00",
    "phone": "+49 511 8791791",
    "toilets:wheelchair": "yes",
    "tourism": "museum",
    "website": "http://www.luftfahrtmuseum-hannover.de/",
    "wheelchair": "yes",
    "wikidata": "Q1731899"
  }
},
{
  "type": "way",
  "id": 109836082,
  "nodes": [
    1256376432,
    1256376554,
    1256376561,
    1256376562,
    1256376432
  ],
  "tags": {
    "building": "yes",
    "name": "Ausstellung zur Gedenkstätte KZ-Außenstelle Ahlem",
    "source": "HiRes aerial imagery 2009",
    "tourism": "museum",
    "wheelchair": "yes"
  }
},
{
  "type": "way",
  "id": 119022601,
  "nodes": [
    1338055567,
    4796665873,
    1338055814,
    1338055705,
    1338055591,
    1338055567
  ],
  "tags": {
    "addr:housenumber": "16",
    "addr:postcode": "31547",
    "addr:street": "Hagenburger Straße",
    "building": "public",
    "name": "Ökologische Schutzstation Steinhuder Meer (ÖSSM)",
    "operator": "Ökologische Schutzstation Steinhuder Meer e.V.",
    "tourism": "museum",
    "webcam": "https://www.oessm.org/blog/livecams/schleiereule/",
    "website": "https://www.oessm.org"
  }
},
{
  "type": "way",
  "id": 124116559,
  "nodes": [
    1382265619,
    1382265635,
    1382265624,
    297074289,
    1382265576,
    1382265563,
    1382265619
  ],
  "tags": {
    "addr:city": "Springe",
    "addr:housenumber": "1A",
    "addr:postcode": "31832",
    "addr:street": "Auf dem Burghof",
    "building": "yes",
    "name": "Heimatmuseum Springe",
    "opening_hours": "We-Th 10:30-16:00; Su 10:30-16:00",
    "phone": "+49 5041 61705",
    "tourism": "museum",
    "website": "https://www.museum-springe.de/",
    "wheelchair": "no"
  }
},
{
  "type": "way",
  "id": 150028182,
  "nodes": [
    1629657664,
    1629658258,
    1629658259,
    1629657683,
    1629657664
  ],
  "tags": {
    "addr:city": "Celle",
    "addr:country": "DE",
    "addr:housenumber": "13",
    "addr:street": "Galgenberg",
    "building": "yes",
    "contact:email": "info@haeslerstiftung.de",
    "contact:phone": "+49 5141 21 74 87",
    "contact:website": "http://www.otto-haesler-stiftung.de/Museum/",
    "name": "Otto-Haesler-Museum",
    "operator": "Otto-Haesler-Stiftung",
    "tourism": "museum",
    "wikidata": "Q63110121"
  }
},
{
  "type": "way",
  "id": 151611269,
  "nodes": [
    1644327881,
    1644327849,
    1644327840,
    1644327832,
    1644327816,
    1644327820,
    1644327819,
    1644327836,
    1644327837,
    1644327886,
    1644327917,
    1644327869,
    1644327887,
    1644327881
  ],
  "tags": {
    "addr:city": "Celle",
    "addr:housenumber": "6",
    "addr:postcode": "29227",
    "addr:street": "Westerceller Straße",
    "building": "yes",
    "name": "Stadtarchiv",
    "operator": "Stadt Celle",
    "tourism": "museum",
    "website": "https://www.celle.de"
  }
},
{
  "type": "way",
  "id": 167902043,
  "nodes": [
    1792384993,
    1792384979,
    1792384975,
    1821765050,
    1792384990,
    1792384993
  ],
  "tags": {
    "addr:city": "Giesen",
    "addr:country": "DE",
    "addr:housenumber": "4",
    "addr:postcode": "31180",
    "addr:street": "Krugstraße",
    "addr:suburb": "Ahrbergen",
    "building": "yes",
    "name": "Heimatmuseum Ahrbergen",
    "tourism": "museum",
    "wheelchair": "no"
  }
},
{
  "type": "way",
  "id": 183524485,
  "nodes": [
    1939198022,
    1939198023,
    1939198026,
    1939198036,
    1939198031,
    1939198016,
    1939198022
  ],
  "tags": {
    "building": "yes",
    "name": "Burgmuseum",
    "opening_hours": "Tu-Su 11:00-17:00",
    "source": "Bing",
    "tourism": "museum",
    "wheelchair": "limited"
  }
},
{
  "type": "way",
  "id": 208147781,
  "nodes": [
    79818724,
    1783824598,
    1783824408,
    1783824404,
    1783824399,
    1783824396,
    1783824368,
    1783824364,
    1783824360,
    1783824357,
    1783824353,
    1783824350,
    1783824346,
    1783824343,
    1783824337,
    5155781776,
    1783824340,
    1783824323,
    1783824320,
    1783824318,
    1783824307,
    1783824278,
    1783824274,
    1783824257,
    1783824261,
    1783824244,
    1783824223,
    1783824234,
    79818724
  ],
  "tags": {
    "addr:city": "Hannover",
    "addr:country": "DE",
    "addr:housenumber": "11",
    "addr:postcode": "30159",
    "addr:street": "Goseriede",
    "alt_name": "kestnergesellschaft",
    "building": "public",
    "building:architecture": "art_nouveau",
    "height": "10",
    "historic": "building",
    "name": "Goseriedebad",
    "opening_hours": "Tu,We,Fr-Su 11:00-18:00; Th 11:00-20:00",
    "operator:wikidata": "Q565375",
    "operator:wikipedia": "de:Kestnergesellschaft",
    "phone": "+49 511 701200",
    "toilets:wheelchair": "yes",
    "tourism": "museum",
    "website": "https://kestnergesellschaft.de/",
    "wheelchair": "yes",
    "wikidata": "Q14537629"
  }
},
{
  "type": "way",
  "id": 211031168,
  "nodes": [
    2210406189,
    2336250834,
    2210406209,
    2210406207,
    2210406204,
    2210406202,
    2210406187,
    2210406189
  ],
  "tags": {
    "addr:city": "Wennigsen (Deister)",
    "addr:country": "DE",
    "addr:housenumber": "6",
    "addr:postcode": "30974",
    "addr:street": "Mühlenstraße",
    "building": "yes",
    "heritage": "4",
    "heritage:operator": "nld",
    "name": "Heimatmuseum Wennigsen",
    "opening_hours": "Su 14:30-17:00",
    "operator": "Förderkreis Heimatmuseum Wennigsen e.V.",
    "ref:nld": "253019.00120",
    "source": "Bing 2012",
    "start_date": "1804",
    "tourism": "museum",
    "website": "http://www.heimatmuseum-wennigsen.de",
    "wheelchair": "no",
    "wikidata": "Q1595654",
    "wikimedia_commons": "Category:Heimatmuseum Obermühle Wennigsen",
    "wikipedia": "de:Heimatmuseum Wennigsen"
  }
},
{
  "type": "way",
  "id": 214842889,
  "nodes": [
    2243115648,
    2243115690,
    1662154695,
    1662154697,
    312736469,
    1662154696,
    2243115247,
    2243115248,
    2243115246,
    312732114,
    1662154692,
    2243115658,
    2243115651,
    2243115654,
    2243115635,
    1662154684,
    1662154687,
    2243115607,
    2511207903,
    1662154673,
    1216658484,
    2243115462,
    2243115596,
    1662154689,
    2243115648
  ],
  "tags": {
    "name": "Schloss Herrenhausen",
    "opening_hours": "Apr 1-Oct 31 Mo-Su 11:00-18:00; Nov 1-Mar 31 Th-Su 11:00-16:00",
    "operator": "Historisches Museum Hannover",
    "phone": "+49 511 168 34000",
    "start_date": "2013-05",
    "tourism": "museum",
    "website": "https://www.hannover.de/Herrenhausen/Museum-Schloss-Herrenhausen/Das-Museum-Schloss-Herrenhausen",
    "wheelchair": "yes",
    "wikidata": "Q48966707"
  }
},
{
  "type": "way",
  "id": 217610291,
  "nodes": [
    2269050953,
    2269050949,
    2269050947,
    2269050951,
    2269050952,
    2269050954,
    2269050950,
    2269050948,
    2269050953
  ],
  "tags": {
    "building": "yes",
    "name": "Heimatscheune Dedensen",
    "tourism": "museum"
  }
},
{
  "type": "way",
  "id": 220630326,
  "nodes": [
    1786513705,
    1786513706,
    1787630265,
    1786513684,
    1786513683,
    1786513705
  ],
  "tags": {
    "addr:city": "Gehrden",
    "addr:housenumber": "15",
    "addr:postcode": "30989",
    "addr:street": "Dammstraße",
    "building:part": "yes",
    "name": "Stadtmuseum",
    "phone": "+49 5108 7048",
    "start_date": "1697",
    "tourism": "museum",
    "wheelchair": "no",
    "wikidata": "Q51557465"
  }
},
{
  "type": "way",
  "id": 233868774,
  "nodes": [
    2421922517,
    2421922579,
    2421922570,
    2421922550,
    2421922517
  ],
  "tags": {
    "building": "yes",
    "name": "Deutsches Stuhlmuseum, Eimbeckhausen",
    "tourism": "museum"
  }
},
{
  "type": "way",
  "id": 234018006,
  "nodes": [
    5988151995,
    5988151994,
    5988151993,
    2423238537,
    2423238511,
    2423238514,
    2423238516,
    5988151992,
    5988151995
  ],
  "tags": {
    "building": "yes",
    "name": "Amts- und Fleckenmuseum",
    "tourism": "museum"
  }
},
{
  "type": "way",
  "id": 234440247,
  "nodes": [
    2426929376,
    2426929394,
    6040084757,
    6040084758,
    2426929393,
    2426929418,
    2426929376
  ],
  "tags": {
    "building": "yes",
    "name": "Altes Spritzenhaus",
    "tourism": "museum"
  }
},
{
  "type": "way",
  "id": 239627250,
  "nodes": [
    2474099771,
    2474099789,
    2474099782,
    2474099785,
    2474099787,
    2474099771
  ],
  "tags": {
    "addr:city": "Ronnenberg",
    "addr:country": "DE",
    "addr:housenumber": "13",
    "addr:postcode": "30952",
    "addr:street": "Über den Beeken",
    "building": "yes",
    "name": "Heimatmuseum Ronnenberg",
    "phone": "+49 5109 7639",
    "tourism": "museum",
    "website": "http://heimatmuseum-ronnenberg.de/",
    "wheelchair": "no",
    "wikidata": "Q60339843"
  }
},
{
  "type": "way",
  "id": 246871357,
  "nodes": [
    2538465201,
    2538465204,
    2538465206,
    2538465202,
    2538465201
  ],
  "tags": {
    "addr:city": "Neustadt am Rübenberge",
    "addr:housenumber": "2",
    "addr:postcode": "31535",
    "addr:street": "An der Alpe",
    "building": "yes",
    "historic": "yes",
    "man_made": "watermill",
    "name": "Wassermühle Laderholz",
    "tourism": "museum"
  }
},
{
  "type": "way",
  "id": 247830350,
  "nodes": [
    2546905092,
    2546905094,
    2546905093,
    2546905073,
    2546905078,
    2546905061,
    2546905065,
    2546905076,
    2546905062,
    2546905077,
    2546905092
  ],
  "tags": {
    "addr:city": "Lehrte",
    "addr:postcode": "31275",
    "building": "train_station",
    "building:levels": "2",
    "disused:railway": "signal_box",
    "museum": "railway",
    "name": "Museumsstellwerk Lpf",
    "note": "geöffnet an jedem 4. Sonntag im Monat, das ist NICHT zwingend der letzte Sonntag im Monat!",
    "note:opening_hours": "4. Sonntag/Monat von 10-13 Uhr",
    "opening_hours": "Su[4] 10:00-13:00",
    "operator": "Modelleisenbahnverein Lehrte",
    "roof:levels": "0",
    "tourism": "museum",
    "website": "www.mev-lehrte.de",
    "wheelchair": "no",
    "wikidata": "Q1265862"
  }
},
{
  "type": "way",
  "id": 249895557,
  "nodes": [
    2564325570,
    2564325581,
    2564325571,
    2564325572,
    2564325573,
    2564325574,
    2564325575,
    2564325577,
    2564325585,
    2564325570
  ],
  "tags": {
    "barrier": "fence",
    "name": "Historische Waldschmiede",
    "tourism": "museum"
  }
},
{
  "type": "way",
  "id": 249986662,
  "nodes": [
    2565149525,
    2565149528,
    2565149521,
    2565149530,
    2565149516,
    2565149507,
    2565149509,
    2565149503,
    2565149513,
    2565149517,
    2565149512,
    2565149515,
    2565149526,
    2565149523,
    2565149518,
    2565149510,
    2565149514,
    2565149511,
    2565149520,
    2565149525
  ],
  "tags": {
    "addr:city": "Bad Münder am Deister",
    "addr:housenumber": "2",
    "addr:postcode": "31848",
    "addr:street": "Südstraße",
    "building": "commercial",
    "description": "Besuch nur auf Anfrage möglich",
    "name": "Filmwelt Center",
    "opening_hours": "off",
    "source": "bing",
    "tourism": "museum",
    "website": "https://filmwelt-center.com/"
  }
},
{
  "type": "way",
  "id": 282752823,
  "nodes": [
    2866878542,
    2866878543,
    2866878544,
    2866878545,
    2866878542
  ],
  "tags": {
    "addr:city": "Barsinghausen",
    "addr:housenumber": "10",
    "addr:postcode": "30890",
    "addr:street": "Deisterstraße",
    "building": "yes",
    "tourism": "museum"
  }
},
{
  "type": "way",
  "id": 297707486,
  "nodes": [
    3016078115,
    3016078118,
    3016078117,
    3016078116,
    3016078115
  ],
  "tags": {
    "addr:city": "Bad Nenndorf",
    "addr:housenumber": "3",
    "addr:postcode": "31542",
    "addr:street": "Agnes-Miegel-Platz",
    "building": "yes",
    "email": "info@agnes-miegel-gesellschaft.de",
    "name": "Agnes-Miegel-Haus",
    "opening_hours": "Mi 15-17, So 10-12",
    "operator": "Agnes-Miegel-Gesellschaft e.V.",
    "phone": "+49 5723 917317",
    "tourism": "museum",
    "website": "http://www.agnes-miegel-gesellschaft.de/",
    "wikidata": "Q394429",
    "wikipedia:de": "Agnes-Miegel-Haus"
  }
},
{
  "type": "way",
  "id": 300462719,
  "nodes": [
    3045456178,
    3045456179,
    3045456180,
    3045456181,
    3045456178
  ],
  "tags": {
    "addr:city": "Hannover",
    "addr:housenumber": "48",
    "addr:postcode": "30453",
    "addr:street": "Badenstedter Straße",
    "building": "yes",
    "building:levels": "1",
    "name": "Kindermuseum Zinnober",
    "opening_hours": "Mo-Fr 09:00-17:00; Sa \"nach Absprache für Kindergeburtstage\"; Su 11:00-17:00",
    "operator": "Zinnober - Ein Museum für Kinder und Jugendliche in Hannover e. V.",
    "phone": "+49 (0)511-897 334 66",
    "tourism": "museum",
    "website": "https://www.kindermuseum-hannover.de/",
    "wheelchair": "yes"
  }
},
{
  "type": "way",
  "id": 315650904,
  "nodes": [
    3217824428,
    3217824432,
    3217824429,
    3217824436,
    3217824426,
    3217824425,
    3217824424,
    3217824417,
    3217824422,
    3217824414,
    3217824428
  ],
  "tags": {
    "addr:city": "Harsum",
    "addr:housenumber": "3",
    "addr:postcode": "31177",
    "addr:street": "Opfergasse",
    "building": "yes",
    "name": "Heimatmuseum",
    "opening_hours": "We 16:00-18:00",
    "toilets:wheelchair": "no",
    "tourism": "museum",
    "wheelchair": "no"
  }
},
{
  "type": "way",
  "id": 342926917,
  "nodes": [
    3498749239,
    3498749240,
    3498749238,
    3498749237,
    3498749239
  ],
  "tags": {
    "addr:city": "Burgdorf",
    "addr:housenumber": "2",
    "addr:postcode": "31303",
    "addr:street": "Poststraße",
    "building": "house",
    "name": "KulturWerkStadt",
    "note": "alte Synagoge",
    "tourism": "museum",
    "wheelchair": "no",
    "wikidata": "Q31202345"
  }
},
{
  "type": "way",
  "id": 342926918,
  "nodes": [
    3498749243,
    3498749244,
    3498749242,
    3498749241,
    3508342315,
    3498749243
  ],
  "tags": {
    "addr:city": "Burgdorf",
    "addr:country": "DE",
    "addr:housenumber": "6",
    "addr:postcode": "31303",
    "addr:street": "Schmiedestraße",
    "building": "house",
    "name": "Stadtmuseum Burgdorf",
    "tourism": "museum",
    "wheelchair": "limited"
  }
},
{
  "type": "way",
  "id": 387215804,
  "nodes": [
    3905344619,
    3905344612,
    3905344618,
    3905344614,
    3905344619
  ],
  "tags": {
    "building": "yes",
    "name": "Eisenzeithaus",
    "source": "Bing 2012",
    "tourism": "museum"
  }
},
{
  "type": "way",
  "id": 420365332,
  "nodes": [
    413006814,
    1039780812,
    1039781022,
    1039781070,
    1039780942,
    4203039998,
    4203040022,
    4203040026,
    4203040011,
    4203039992,
    4203039999,
    4203040016,
    1039780832,
    4203040013,
    413006824,
    413006826,
    413006828,
    413006829,
    413006830,
    413006832,
    413006833,
    4203094442,
    413006834,
    4203094443,
    4770906621,
    413006836,
    413006837,
    413006839,
    413006842,
    413006844,
    413006847,
    4203098294,
    413006849,
    413006854,
    1039781079,
    413006859,
    413006860,
    413006862,
    413006865,
    1039780994,
    1039780939,
    698855097,
    413006814
  ],
  "tags": {
    "addr:city": "Sehnde",
    "addr:country": "DE",
    "addr:housenumber": "16",
    "addr:postcode": "31319",
    "addr:street": "Hohenfelser Straße",
    "barrier": "fence",
    "museum": "railway",
    "name": "Hannoversches Straßenbahn-Museum",
    "name:en": "Hanover Tramway Museum",
    "opening_hours": "Apr-Oct: Su 11:00-17:00",
    "operator": "Hannoversches Straßenbahn-Museum e.V.",
    "payment:coins": "yes",
    "payment:girocard": "yes",
    "payment:notes": "yes",
    "tourism": "museum",
    "website": "http://www.tram-museum.de/",
    "wheelchair": "limited",
    "wikidata": "Q317665",
    "wikipedia": "de:Hannoversches Straßenbahn-Museum"
  }
},
{
  "type": "way",
  "id": 509451983,
  "nodes": [
    4986780955,
    4986780959,
    4986780956,
    4986780961,
    4986780962,
    4986780957,
    4986780958,
    4986780955
  ],
  "tags": {
    "museum": "history",
    "name": "Handwerkermuseum",
    "tourism": "museum"
  }
},
{
  "type": "way",
  "id": 589088047,
  "nodes": [
    5625472627,
    5625472628,
    5625472629,
    1230481248,
    5625472627
  ],
  "tags": {
    "addr:city": "Adelheidsdorf",
    "addr:postcode": "29352",
    "addr:street": "Kurfürstendamm",
    "museum": "open_air",
    "name": "Torfstich",
    "opening_hours": "24/7",
    "operator": "Gemeinde Adelheidsdorf",
    "tourism": "museum"
  }
},
{
  "type": "relation",
  "id": 364529,
  "members": [
    {
      "type": "way",
      "ref": 4816457,
      "role": "outer"
    },
    {
      "type": "way",
      "ref": 46420579,
      "role": "inner"
    }
  ],
  "tags": {
    "addr:city": "Hannover",
    "addr:country": "DE",
    "addr:housenumber": "5",
    "addr:postcode": "30169",
    "addr:street": "Willy-Brandt-Allee",
    "architect": "Hubert Stier",
    "building": "yes",
    "contact:phone": "+49 511 9807 686",
    "name": "Niedersächsisches Landesmuseum",
    "toilets:wheelchair": "yes",
    "tourism": "museum",
    "type": "multipolygon",
    "website": "http://www.landesmuseum-hannover.niedersachsen.de",
    "wheelchair": "yes",
    "wheelchair:description": "keine Behindertenparkplätze vorhanden",
    "wikidata": "Q314082",
    "wikipedia": "de:Niedersächsisches Landesmuseum Hannover"
  }
},
{
  "type": "relation",
  "id": 1445631,
  "members": [
    {
      "type": "way",
      "ref": 10677756,
      "role": "outer"
    },
    {
      "type": "way",
      "ref": 52429564,
      "role": "inner"
    }
  ],
  "tags": {
    "addr:city": "Hannover",
    "addr:country": "DE",
    "addr:housenumber": "16",
    "addr:postcode": "30159",
    "addr:street": "Burgstraße",
    "building": "museum",
    "fee": "yes",
    "name": "Historisches Museum Hannover",
    "phone": "+49 511 16843052",
    "tourism": "museum",
    "type": "multipolygon",
    "website": "https://www.hannover-museum.de/",
    "wheelchair": "yes",
    "wikidata": "Q1614375",
    "wikipedia": "de:Historisches Museum am Hohen Ufer"
  }
},
{
  "type": "relation",
  "id": 8318948,
  "members": [
    {
      "type": "way",
      "ref": 560955703,
      "role": "outer"
    }
  ],
  "tags": {
    "addr:city": "Hannover",
    "addr:country": "DE",
    "addr:housenumber": "1",
    "addr:postcode": "30169",
    "addr:street": "Kurt-Schwitters-Platz",
    "building": "yes",
    "height": "0",
    "name": "Sprengel Museum Hannover",
    "phone": "0511 168-43875",
    "toilets:wheelchair": "yes",
    "tourism": "museum",
    "type": "multipolygon",
    "website": "https://www.sprengel-museum.de/",
    "wheelchair": "yes",
    "wikidata": "Q510144",
    "wikipedia": "de:Sprengel Museum Hannover"
  }
},
{
  "type": "relation",
  "id": 10381247,
  "members": [
    {
      "type": "way",
      "ref": 39670476,
      "role": "inner"
    },
    {
      "type": "way",
      "ref": 753410875,
      "role": "inner"
    },
    {
      "type": "way",
      "ref": 57742914,
      "role": "outer"
    }
  ],
  "tags": {
    "addr:city": "Hannover",
    "addr:country": "DE",
    "addr:housenumber": "22",
    "addr:postcode": "30559",
    "addr:street": "Bleekstraße",
    "blind:description:de": "Blindenmuseum im Landesbildungszentrum für Blinde in Hannover",
    "building": "yes",
    "name": "Blindenmuseum",
    "opening_hours": "\"on demand\"",
    "ref": "M",
    "tourism": "museum",
    "type": "multipolygon",
    "website": "http://www.lbzb.de/cms-informationen/blindenmueum/",
    "wikidata": "Q884264"
  }
},
{
  "type": "node",
  "id": 2565149503,
  "lat": 52.2053357,
  "lon": 9.3909330
},
{
  "type": "node",
  "id": 2565149507,
  "lat": 52.2054104,
  "lon": 9.3912174
},
{
  "type": "node",
  "id": 2565149509,
  "lat": 52.2054527,
  "lon": 9.3911591
},
{
  "type": "node",
  "id": 2565149510,
  "lat": 52.2054858,
  "lon": 9.3904615
},
{
  "type": "node",
  "id": 2565149511,
  "lat": 52.2054912,
  "lon": 9.3903122
},
{
  "type": "node",
  "id": 2565149512,
  "lat": 52.2054926,
  "lon": 9.3910398
},
{
  "type": "node",
  "id": 2565149513,
  "lat": 52.2055038,
  "lon": 9.3907016
},
{
  "type": "node",
  "id": 2565149514,
  "lat": 52.2055341,
  "lon": 9.3903950
},
{
  "type": "node",
  "id": 2565149515,
  "lat": 52.2055391,
  "lon": 9.3911297
},
{
  "type": "node",
  "id": 2565149517,
  "lat": 52.2056013,
  "lon": 9.3908901
},
{
  "type": "node",
  "id": 2565149518,
  "lat": 52.2056433,
  "lon": 9.3907660
},
{
  "type": "node",
  "id": 2565149520,
  "lat": 52.2057038,
  "lon": 9.3900195
},
{
  "type": "node",
  "id": 2565149521,
  "lat": 52.2057912,
  "lon": 9.3900945
},
{
  "type": "node",
  "id": 2565149523,
  "lat": 52.2058330,
  "lon": 9.3905048
},
{
  "type": "node",
  "id": 2565149525,
  "lat": 52.2058651,
  "lon": 9.3897973
},
{
  "type": "node",
  "id": 2565149526,
  "lat": 52.2058995,
  "lon": 9.3906333
},
{
  "type": "node",
  "id": 2565149528,
  "lat": 52.2059242,
  "lon": 9.3899114
},
{
  "type": "node",
  "id": 2565149530,
  "lat": 52.2061052,
  "lon": 9.3907016
},
{
  "type": "node",
  "id": 4986780955,
  "lat": 52.2077074,
  "lon": 9.3911152
},
{
  "type": "node",
  "id": 4986780956,
  "lat": 52.2076257,
  "lon": 9.3909886
},
{
  "type": "node",
  "id": 4986780957,
  "lat": 52.2078146,
  "lon": 9.3906641
},
{
  "type": "node",
  "id": 4986780958,
  "lat": 52.2078963,
  "lon": 9.3907907
},
{
  "type": "node",
  "id": 4986780959,
  "lat": 52.2076665,
  "lon": 9.3910519
},
{
  "type": "node",
  "id": 4986780961,
  "lat": 52.2077281,
  "lon": 9.3908127
},
{
  "type": "node",
  "id": 4986780962,
  "lat": 52.2078064,
  "lon": 9.3906781
},
{
  "type": "node",
  "id": 2565149516,
  "lat": 52.2055436,
  "lon": 9.3914750
},
{
  "type": "node",
  "id": 1939198016,
  "lat": 52.1182290,
  "lon": 9.5479998
},
{
  "type": "node",
  "id": 1939198022,
  "lat": 52.1182976,
  "lon": 9.5478890
},
{
  "type": "node",
  "id": 1939198023,
  "lat": 52.1183050,
  "lon": 9.5479011
},
{
  "type": "node",
  "id": 1939198026,
  "lat": 52.1183326,
  "lon": 9.5479464
},
{
  "type": "node",
  "id": 1939198031,
  "lat": 52.1183868,
  "lon": 9.5482589
},
{
  "type": "node",
  "id": 1939198036,
  "lat": 52.1184554,
  "lon": 9.5481481
},
{
  "type": "node",
  "id": 297074289,
  "lat": 52.2073544,
  "lon": 9.5559560
},
{
  "type": "node",
  "id": 1382265563,
  "lat": 52.2071765,
  "lon": 9.5558672
},
{
  "type": "node",
  "id": 1382265576,
  "lat": 52.2071962,
  "lon": 9.5560116
},
{
  "type": "node",
  "id": 1382265619,
  "lat": 52.2074036,
  "lon": 9.5557842
},
{
  "type": "node",
  "id": 1382265624,
  "lat": 52.2074807,
  "lon": 9.5563506
},
{
  "type": "node",
  "id": 1382265635,
  "lat": 52.2075612,
  "lon": 9.5562871
},
{
  "type": "node",
  "id": 2423238511,
  "lat": 52.2747631,
  "lon": 9.3680761
},
{
  "type": "node",
  "id": 2423238514,
  "lat": 52.2747373,
  "lon": 9.3679140
},
{
  "type": "node",
  "id": 2423238516,
  "lat": 52.2748687,
  "lon": 9.3678582
},
{
  "type": "node",
  "id": 2423238537,
  "lat": 52.2748944,
  "lon": 9.3680203
},
{
  "type": "node",
  "id": 5988151992,
  "lat": 52.2748809,
  "lon": 9.3679352
},
{
  "type": "node",
  "id": 5988151993,
  "lat": 52.2748921,
  "lon": 9.3680058
},
{
  "type": "node",
  "id": 5988151994,
  "lat": 52.2749647,
  "lon": 9.3679491
},
{
  "type": "node",
  "id": 5988151995,
  "lat": 52.2749458,
  "lon": 9.3678845
},
{
  "type": "node",
  "id": 2421922517,
  "lat": 52.2359768,
  "lon": 9.4106404
},
{
  "type": "node",
  "id": 2421922550,
  "lat": 52.2358107,
  "lon": 9.4106660
},
{
  "type": "node",
  "id": 2421922570,
  "lat": 52.2357739,
  "lon": 9.4100307
},
{
  "type": "node",
  "id": 2421922579,
  "lat": 52.2359400,
  "lon": 9.4100051
},
{
  "type": "node",
  "id": 3016078115,
  "lat": 52.3322574,
  "lon": 9.3741661
},
{
  "type": "node",
  "id": 3016078116,
  "lat": 52.3321527,
  "lon": 9.3741580
},
{
  "type": "node",
  "id": 3016078117,
  "lat": 52.3321489,
  "lon": 9.3742887
},
{
  "type": "node",
  "id": 3016078118,
  "lat": 52.3322536,
  "lon": 9.3742967
},
{
  "type": "node",
  "id": 1338055567,
  "lat": 52.4425648,
  "lon": 9.2575231
},
{
  "type": "node",
  "id": 1338055591,
  "lat": 52.4427653,
  "lon": 9.2574517
},
{
  "type": "node",
  "id": 1338055705,
  "lat": 52.4427392,
  "lon": 9.2572545
},
{
  "type": "node",
  "id": 1338055814,
  "lat": 52.4427063,
  "lon": 9.2572662
},
{
  "type": "node",
  "id": 4796665873,
  "lat": 52.4425387,
  "lon": 9.2573259
},
{
  "type": "node",
  "id": 2866878542,
  "lat": 52.3006941,
  "lon": 9.4646922
},
{
  "type": "node",
  "id": 2866878543,
  "lat": 52.3006632,
  "lon": 9.4648661
},
{
  "type": "node",
  "id": 2866878544,
  "lat": 52.3005317,
  "lon": 9.4648035
},
{
  "type": "node",
  "id": 2866878545,
  "lat": 52.3005626,
  "lon": 9.4646296
},
{
  "type": "node",
  "id": 2210406187,
  "lat": 52.2719625,
  "lon": 9.5641525
},
{
  "type": "node",
  "id": 2210406189,
  "lat": 52.2720036,
  "lon": 9.5644027
},
{
  "type": "node",
  "id": 2210406202,
  "lat": 52.2720971,
  "lon": 9.5640935
},
{
  "type": "node",
  "id": 2210406204,
  "lat": 52.2721218,
  "lon": 9.5642438
},
{
  "type": "node",
  "id": 2210406207,
  "lat": 52.2721487,
  "lon": 9.5642319
},
{
  "type": "node",
  "id": 2210406209,
  "lat": 52.2721651,
  "lon": 9.5643318
},
{
  "type": "node",
  "id": 2336250834,
  "lat": 52.2721382,
  "lon": 9.5643437
},
{
  "type": "node",
  "id": 1786513683,
  "lat": 52.3113369,
  "lon": 9.6007572
},
{
  "type": "node",
  "id": 1786513684,
  "lat": 52.3113351,
  "lon": 9.6006511
},
{
  "type": "node",
  "id": 1786513705,
  "lat": 52.3114938,
  "lon": 9.6007498
},
{
  "type": "node",
  "id": 1786513706,
  "lat": 52.3114919,
  "lon": 9.6006437
},
{
  "type": "node",
  "id": 1787630265,
  "lat": 52.3113553,
  "lon": 9.6006502
},
{
  "type": "node",
  "id": 2269050947,
  "lat": 52.4010056,
  "lon": 9.5163232
},
{
  "type": "node",
  "id": 2269050948,
  "lat": 52.4012626,
  "lon": 9.5164385
},
{
  "type": "node",
  "id": 2269050949,
  "lat": 52.4010285,
  "lon": 9.5161140
},
{
  "type": "node",
  "id": 2269050950,
  "lat": 52.4011856,
  "lon": 9.5164171
},
{
  "type": "node",
  "id": 2269050951,
  "lat": 52.4010465,
  "lon": 9.5163312
},
{
  "type": "node",
  "id": 2269050952,
  "lat": 52.4010465,
  "lon": 9.5165217
},
{
  "type": "node",
  "id": 2269050953,
  "lat": 52.4012855,
  "lon": 9.5161810
},
{
  "type": "node",
  "id": 2269050954,
  "lat": 52.4011856,
  "lon": 9.5165217
},
{
  "type": "node",
  "id": 1792384975,
  "lat": 52.2211699,
  "lon": 9.8777754
},
{
  "type": "node",
  "id": 1792384979,
  "lat": 52.2211959,
  "lon": 9.8779374
},
{
  "type": "node",
  "id": 1792384990,
  "lat": 52.2212700,
  "lon": 9.8777326
},
{
  "type": "node",
  "id": 1792384993,
  "lat": 52.2212959,
  "lon": 9.8778946
},
{
  "type": "node",
  "id": 1821765050,
  "lat": 52.2212209,
  "lon": 9.8777536
},
{
  "type": "node",
  "id": 3217824414,
  "lat": 52.2068305,
  "lon": 10.0117282
},
{
  "type": "node",
  "id": 3217824417,
  "lat": 52.2068458,
  "lon": 10.0119066
},
{
  "type": "node",
  "id": 3217824422,
  "lat": 52.2068585,
  "lon": 10.0119011
},
{
  "type": "node",
  "id": 3217824424,
  "lat": 52.2068665,
  "lon": 10.0120346
},
{
  "type": "node",
  "id": 3217824425,
  "lat": 52.2068739,
  "lon": 10.0120314
},
{
  "type": "node",
  "id": 3217824426,
  "lat": 52.2068970,
  "lon": 10.0121746
},
{
  "type": "node",
  "id": 3217824428,
  "lat": 52.2069287,
  "lon": 10.0116859
},
{
  "type": "node",
  "id": 3217824429,
  "lat": 52.2069423,
  "lon": 10.0118656
},
{
  "type": "node",
  "id": 3217824432,
  "lat": 52.2069567,
  "lon": 10.0118594
},
{
  "type": "node",
  "id": 3217824436,
  "lat": 52.2069861,
  "lon": 10.0121362
},
{
  "type": "node",
  "id": 2474099771,
  "lat": 52.3187565,
  "lon": 9.6585437
},
{
  "type": "node",
  "id": 2474099782,
  "lat": 52.3185878,
  "lon": 9.6584868
},
{
  "type": "node",
  "id": 2474099785,
  "lat": 52.3185603,
  "lon": 9.6587050
},
{
  "type": "node",
  "id": 2474099787,
  "lat": 52.3187290,
  "lon": 9.6587620
},
{
  "type": "node",
  "id": 2474099789,
  "lat": 52.3186818,
  "lon": 9.6585185
},
{
  "type": "node",
  "id": 2426929376,
  "lat": 52.2646937,
  "lon": 9.7615831
},
{
  "type": "node",
  "id": 2426929393,
  "lat": 52.2646223,
  "lon": 9.7617849
},
{
  "type": "node",
  "id": 2426929394,
  "lat": 52.2647044,
  "lon": 9.7618052
},
{
  "type": "node",
  "id": 2426929418,
  "lat": 52.2646131,
  "lon": 9.7615935
},
{
  "type": "node",
  "id": 6040084757,
  "lat": 52.2646798,
  "lon": 9.7618084
},
{
  "type": "node",
  "id": 6040084758,
  "lat": 52.2646783,
  "lon": 9.7617777
},
{
  "type": "node",
  "id": 1112819334,
  "lat": 52.3227683,
  "lon": 9.7910085
},
{
  "type": "node",
  "id": 1112819350,
  "lat": 52.3225081,
  "lon": 9.7906952
},
{
  "type": "node",
  "id": 1112819358,
  "lat": 52.3224264,
  "lon": 9.7907165
},
{
  "type": "node",
  "id": 1112819375,
  "lat": 52.3223149,
  "lon": 9.7909567
},
{
  "type": "node",
  "id": 1639970971,
  "lat": 52.3222609,
  "lon": 9.7910757
},
{
  "type": "node",
  "id": 1639970984,
  "lat": 52.3225357,
  "lon": 9.7907285
},
{
  "type": "node",
  "id": 1112819331,
  "lat": 52.3227048,
  "lon": 9.7914318
},
{
  "type": "node",
  "id": 1112819333,
  "lat": 52.3225685,
  "lon": 9.7924959
},
{
  "type": "node",
  "id": 1112819340,
  "lat": 52.3229273,
  "lon": 9.7917167
},
{
  "type": "node",
  "id": 1112819365,
  "lat": 52.3228293,
  "lon": 9.7911652
},
{
  "type": "node",
  "id": 1639970978,
  "lat": 52.3224544,
  "lon": 9.7923556
},
{
  "type": "node",
  "id": 1639971049,
  "lat": 52.3227573,
  "lon": 9.7914990
},
{
  "type": "node",
  "id": 1639971057,
  "lat": 52.3227642,
  "lon": 9.7916822
},
{
  "type": "node",
  "id": 1639971061,
  "lat": 52.3227691,
  "lon": 9.7914813
},
{
  "type": "node",
  "id": 1639971065,
  "lat": 52.3227800,
  "lon": 9.7914698
},
{
  "type": "node",
  "id": 1639971069,
  "lat": 52.3227891,
  "lon": 9.7914538
},
{
  "type": "node",
  "id": 1639971073,
  "lat": 52.3228018,
  "lon": 9.7914466
},
{
  "type": "node",
  "id": 1639971077,
  "lat": 52.3228180,
  "lon": 9.7914396
},
{
  "type": "node",
  "id": 1639971084,
  "lat": 52.3228342,
  "lon": 9.7914413
},
{
  "type": "node",
  "id": 1639971087,
  "lat": 52.3228522,
  "lon": 9.7914520
},
{
  "type": "node",
  "id": 1639971090,
  "lat": 52.3228592,
  "lon": 9.7914756
},
{
  "type": "node",
  "id": 1639971099,
  "lat": 52.3228603,
  "lon": 9.7916376
},
{
  "type": "node",
  "id": 1639971101,
  "lat": 52.3228638,
  "lon": 9.7914625
},
{
  "type": "node",
  "id": 1639971104,
  "lat": 52.3228735,
  "lon": 9.7914994
},
{
  "type": "node",
  "id": 1639971107,
  "lat": 52.3228764,
  "lon": 9.7916038
},
{
  "type": "node",
  "id": 1639971110,
  "lat": 52.3228790,
  "lon": 9.7914833
},
{
  "type": "node",
  "id": 1639971113,
  "lat": 52.3228811,
  "lon": 9.7915789
},
{
  "type": "node",
  "id": 1639971117,
  "lat": 52.3228813,
  "lon": 9.7915363
},
{
  "type": "node",
  "id": 1639971121,
  "lat": 52.3228830,
  "lon": 9.7915569
},
{
  "type": "node",
  "id": 1639971125,
  "lat": 52.3228870,
  "lon": 9.7914945
},
{
  "type": "node",
  "id": 1639971129,
  "lat": 52.3228938,
  "lon": 9.7916771
},
{
  "type": "node",
  "id": 1639971132,
  "lat": 52.3228951,
  "lon": 9.7915056
},
{
  "type": "node",
  "id": 1256376432,
  "lat": 52.3776235,
  "lon": 9.6727063
},
{
  "type": "node",
  "id": 1256376554,
  "lat": 52.3776307,
  "lon": 9.6724395
},
{
  "type": "node",
  "id": 1256376561,
  "lat": 52.3777624,
  "lon": 9.6724490
},
{
  "type": "node",
  "id": 1256376562,
  "lat": 52.3777551,
  "lon": 9.6727159
},
{
  "type": "node",
  "id": 312732114,
  "lat": 52.3911524,
  "lon": 9.6983399
},
{
  "type": "node",
  "id": 312736469,
  "lat": 52.3912218,
  "lon": 9.6983266
},
{
  "type": "node",
  "id": 1216658484,
  "lat": 52.3905785,
  "lon": 9.6979710
},
{
  "type": "node",
  "id": 1662154673,
  "lat": 52.3905638,
  "lon": 9.6981032
},
{
  "type": "node",
  "id": 1662154684,
  "lat": 52.3910238,
  "lon": 9.6982583
},
{
  "type": "node",
  "id": 1662154687,
  "lat": 52.3910313,
  "lon": 9.6982101
},
{
  "type": "node",
  "id": 1662154689,
  "lat": 52.3910475,
  "lon": 9.6980869
},
{
  "type": "node",
  "id": 1662154692,
  "lat": 52.3911570,
  "lon": 9.6983065
},
{
  "type": "node",
  "id": 1662154695,
  "lat": 52.3911687,
  "lon": 9.6982237
},
{
  "type": "node",
  "id": 1662154696,
  "lat": 52.3912166,
  "lon": 9.6983632
},
{
  "type": "node",
  "id": 1662154697,
  "lat": 52.3912339,
  "lon": 9.6982488
},
{
  "type": "node",
  "id": 2243115246,
  "lat": 52.3911685,
  "lon": 9.6983457
},
{
  "type": "node",
  "id": 2243115247,
  "lat": 52.3912006,
  "lon": 9.6983574
},
{
  "type": "node",
  "id": 2243115248,
  "lat": 52.3911845,
  "lon": 9.6983516
},
{
  "type": "node",
  "id": 2243115462,
  "lat": 52.3906050,
  "lon": 9.6979765
},
{
  "type": "node",
  "id": 2243115596,
  "lat": 52.3908127,
  "lon": 9.6980283
},
{
  "type": "node",
  "id": 2243115607,
  "lat": 52.3909469,
  "lon": 9.6981910
},
{
  "type": "node",
  "id": 2243115635,
  "lat": 52.3910348,
  "lon": 9.6982625
},
{
  "type": "node",
  "id": 2243115648,
  "lat": 52.3910501,
  "lon": 9.6980681
},
{
  "type": "node",
  "id": 2243115651,
  "lat": 52.3910679,
  "lon": 9.6982749
},
{
  "type": "node",
  "id": 2243115654,
  "lat": 52.3910459,
  "lon": 9.6982666
},
{
  "type": "node",
  "id": 2243115658,
  "lat": 52.3910900,
  "lon": 9.6982833
},
{
  "type": "node",
  "id": 2243115690,
  "lat": 52.3911836,
  "lon": 9.6981177
},
{
  "type": "node",
  "id": 2511207903,
  "lat": 52.3906725,
  "lon": 9.6981282
},
{
  "type": "node",
  "id": 3045456178,
  "lat": 52.3637178,
  "lon": 9.6997191
},
{
  "type": "node",
  "id": 3045456179,
  "lat": 52.3635756,
  "lon": 9.6994790
},
{
  "type": "node",
  "id": 3045456180,
  "lat": 52.3634597,
  "lon": 9.6996567
},
{
  "type": "node",
  "id": 3045456181,
  "lat": 52.3636049,
  "lon": 9.6998991
},
{
  "type": "node",
  "id": 30937324,
  "lat": 52.3658504,
  "lon": 9.7400244
},
{
  "type": "node",
  "id": 30937326,
  "lat": 52.3651374,
  "lon": 9.7398953
},
{
  "type": "node",
  "id": 30937328,
  "lat": 52.3650660,
  "lon": 9.7408109
},
{
  "type": "node",
  "id": 30937330,
  "lat": 52.3657980,
  "lon": 9.7409433
},
{
  "type": "node",
  "id": 593318242,
  "lat": 52.3652006,
  "lon": 9.7399067
},
{
  "type": "node",
  "id": 593318243,
  "lat": 52.3651993,
  "lon": 9.7399260
},
{
  "type": "node",
  "id": 593318245,
  "lat": 52.3654252,
  "lon": 9.7399473
},
{
  "type": "node",
  "id": 593318247,
  "lat": 52.3654089,
  "lon": 9.7399638
},
{
  "type": "node",
  "id": 593318249,
  "lat": 52.3655719,
  "lon": 9.7399739
},
{
  "type": "node",
  "id": 593318251,
  "lat": 52.3655856,
  "lon": 9.7399958
},
{
  "type": "node",
  "id": 593318253,
  "lat": 52.3652916,
  "lon": 9.7405974
},
{
  "type": "node",
  "id": 593318255,
  "lat": 52.3655663,
  "lon": 9.7402442
},
{
  "type": "node",
  "id": 593318257,
  "lat": 52.3655429,
  "lon": 9.7402928
},
{
  "type": "node",
  "id": 593318258,
  "lat": 52.3655336,
  "lon": 9.7403256
},
{
  "type": "node",
  "id": 593318260,
  "lat": 52.3654981,
  "lon": 9.7404038
},
{
  "type": "node",
  "id": 593318262,
  "lat": 52.3654210,
  "lon": 9.7403754
},
{
  "type": "node",
  "id": 593318264,
  "lat": 52.3654147,
  "lon": 9.7403028
},
{
  "type": "node",
  "id": 593318266,
  "lat": 52.3654103,
  "lon": 9.7402692
},
{
  "type": "node",
  "id": 593318268,
  "lat": 52.3653941,
  "lon": 9.7402119
},
{
  "type": "node",
  "id": 593318270,
  "lat": 52.3653906,
  "lon": 9.7402112
},
{
  "type": "node",
  "id": 593318271,
  "lat": 52.3653115,
  "lon": 9.7403147
},
{
  "type": "node",
  "id": 593318273,
  "lat": 52.3656570,
  "lon": 9.7406633
},
{
  "type": "node",
  "id": 593318275,
  "lat": 52.3656843,
  "lon": 9.7402664
},
{
  "type": "node",
  "id": 593318277,
  "lat": 52.3657950,
  "lon": 9.7400336
},
{
  "type": "node",
  "id": 593318279,
  "lat": 52.3657963,
  "lon": 9.7400144
},
{
  "type": "node",
  "id": 593324454,
  "lat": 52.3632845,
  "lon": 9.7393212
},
{
  "type": "node",
  "id": 593324495,
  "lat": 52.3631071,
  "lon": 9.7403535
},
{
  "type": "node",
  "id": 593324497,
  "lat": 52.3635447,
  "lon": 9.7403138
},
{
  "type": "node",
  "id": 593324500,
  "lat": 52.3637644,
  "lon": 9.7400224
},
{
  "type": "node",
  "id": 593324507,
  "lat": 52.3635841,
  "lon": 9.7396477
},
{
  "type": "node",
  "id": 735960389,
  "lat": 52.3634013,
  "lon": 9.7397849
},
{
  "type": "node",
  "id": 2429257377,
  "lat": 52.3622146,
  "lon": 9.7401204
},
{
  "type": "node",
  "id": 2508927654,
  "lat": 52.3650670,
  "lon": 9.7407364
},
{
  "type": "node",
  "id": 2508927655,
  "lat": 52.3650710,
  "lon": 9.7407371
},
{
  "type": "node",
  "id": 2508927656,
  "lat": 52.3650739,
  "lon": 9.7406334
},
{
  "type": "node",
  "id": 2508927657,
  "lat": 52.3650731,
  "lon": 9.7408255
},
{
  "type": "node",
  "id": 2508927658,
  "lat": 52.3650734,
  "lon": 9.7408126
},
{
  "type": "node",
  "id": 2508927659,
  "lat": 52.3650780,
  "lon": 9.7406341
},
{
  "type": "node",
  "id": 2508927660,
  "lat": 52.3650830,
  "lon": 9.7405602
},
{
  "type": "node",
  "id": 2508927661,
  "lat": 52.3650923,
  "lon": 9.7405619
},
{
  "type": "node",
  "id": 2508927662,
  "lat": 52.3651098,
  "lon": 9.7401637
},
{
  "type": "node",
  "id": 2508927663,
  "lat": 52.3651107,
  "lon": 9.7400892
},
{
  "type": "node",
  "id": 2508927664,
  "lat": 52.3651148,
  "lon": 9.7400899
},
{
  "type": "node",
  "id": 2508927665,
  "lat": 52.3651177,
  "lon": 9.7399860
},
{
  "type": "node",
  "id": 2508927666,
  "lat": 52.3651192,
  "lon": 9.7401654
},
{
  "type": "node",
  "id": 2508927667,
  "lat": 52.3651217,
  "lon": 9.7399867
},
{
  "type": "node",
  "id": 2508927668,
  "lat": 52.3651267,
  "lon": 9.7399129
},
{
  "type": "node",
  "id": 2508927670,
  "lat": 52.3651361,
  "lon": 9.7399146
},
{
  "type": "node",
  "id": 2508927671,
  "lat": 52.3651353,
  "lon": 9.7408369
},
{
  "type": "node",
  "id": 2508927672,
  "lat": 52.3651367,
  "lon": 9.7408255
},
{
  "type": "node",
  "id": 2508927676,
  "lat": 52.3653475,
  "lon": 9.7408792
},
{
  "type": "node",
  "id": 2508927677,
  "lat": 52.3653489,
  "lon": 9.7408587
},
{
  "type": "node",
  "id": 2508927678,
  "lat": 52.3653522,
  "lon": 9.7403225
},
{
  "type": "node",
  "id": 2508927680,
  "lat": 52.3653594,
  "lon": 9.7408939
},
{
  "type": "node",
  "id": 2508927681,
  "lat": 52.3653602,
  "lon": 9.7408815
},
{
  "type": "node",
  "id": 2508927682,
  "lat": 52.3653651,
  "lon": 9.7406112
},
{
  "type": "node",
  "id": 2508927683,
  "lat": 52.3653665,
  "lon": 9.7405918
},
{
  "type": "node",
  "id": 2508927684,
  "lat": 52.3653864,
  "lon": 9.7402780
},
{
  "type": "node",
  "id": 2508927685,
  "lat": 52.3653936,
  "lon": 9.7402281
},
{
  "type": "node",
  "id": 2508927686,
  "lat": 52.3653940,
  "lon": 9.7403210
},
{
  "type": "node",
  "id": 2508927687,
  "lat": 52.3654063,
  "lon": 9.7403524
},
{
  "type": "node",
  "id": 2508927688,
  "lat": 52.3654080,
  "lon": 9.7402420
},
{
  "type": "node",
  "id": 2508927689,
  "lat": 52.3654089,
  "lon": 9.7402317
},
{
  "type": "node",
  "id": 2508927690,
  "lat": 52.3654095,
  "lon": 9.7402559
},
{
  "type": "node",
  "id": 2508927691,
  "lat": 52.3654098,
  "lon": 9.7402425
},
{
  "type": "node",
  "id": 2508927692,
  "lat": 52.3654102,
  "lon": 9.7399445
},
{
  "type": "node",
  "id": 2508927693,
  "lat": 52.3654119,
  "lon": 9.7402833
},
{
  "type": "node",
  "id": 2508927694,
  "lat": 52.3654132,
  "lon": 9.7402982
},
{
  "type": "node",
  "id": 2508927695,
  "lat": 52.3654148,
  "lon": 9.7402968
},
{
  "type": "node",
  "id": 2508927696,
  "lat": 52.3654165,
  "lon": 9.7406012
},
{
  "type": "node",
  "id": 2508927697,
  "lat": 52.3654168,
  "lon": 9.7405975
},
{
  "type": "node",
  "id": 2508927698,
  "lat": 52.3654267,
  "lon": 9.7399258
},
{
  "type": "node",
  "id": 2508927699,
  "lat": 52.3654384,
  "lon": 9.7403926
},
{
  "type": "node",
  "id": 2508927701,
  "lat": 52.3654577,
  "lon": 9.7404033
},
{
  "type": "node",
  "id": 2508927703,
  "lat": 52.3654779,
  "lon": 9.7404071
},
{
  "type": "node",
  "id": 2508927705,
  "lat": 52.3654908,
  "lon": 9.7406153
},
{
  "type": "node",
  "id": 2508927706,
  "lat": 52.3654911,
  "lon": 9.7406115
},
{
  "type": "node",
  "id": 2508927709,
  "lat": 52.3655097,
  "lon": 9.7409210
},
{
  "type": "node",
  "id": 2508927710,
  "lat": 52.3655106,
  "lon": 9.7409086
},
{
  "type": "node",
  "id": 2508927712,
  "lat": 52.3655176,
  "lon": 9.7403933
},
{
  "type": "node",
  "id": 2508927713,
  "lat": 52.3655232,
  "lon": 9.7409109
},
{
  "type": "node",
  "id": 2508927714,
  "lat": 52.3655246,
  "lon": 9.7408904
},
{
  "type": "node",
  "id": 2508927716,
  "lat": 52.3655343,
  "lon": 9.7403194
},
{
  "type": "node",
  "id": 2508927717,
  "lat": 52.3655350,
  "lon": 9.7403762
},
{
  "type": "node",
  "id": 2508927718,
  "lat": 52.3655356,
  "lon": 9.7403214
},
{
  "type": "node",
  "id": 2508927719,
  "lat": 52.3655394,
  "lon": 9.7403067
},
{
  "type": "node",
  "id": 2508927720,
  "lat": 52.3655395,
  "lon": 9.7406440
},
{
  "type": "node",
  "id": 2508927721,
  "lat": 52.3655408,
  "lon": 9.7406246
},
{
  "type": "node",
  "id": 2508927722,
  "lat": 52.3655454,
  "lon": 9.7402807
},
{
  "type": "node",
  "id": 2508927723,
  "lat": 52.3655467,
  "lon": 9.7402682
},
{
  "type": "node",
  "id": 2508927724,
  "lat": 52.3655485,
  "lon": 9.7402685
},
{
  "type": "node",
  "id": 2508927726,
  "lat": 52.3655491,
  "lon": 9.7402582
},
{
  "type": "node",
  "id": 2508927727,
  "lat": 52.3655516,
  "lon": 9.7403506
},
{
  "type": "node",
  "id": 2508927729,
  "lat": 52.3655652,
  "lon": 9.7402611
},
{
  "type": "node",
  "id": 2508927730,
  "lat": 52.3655734,
  "lon": 9.7399523
},
{
  "type": "node",
  "id": 2508927732,
  "lat": 52.3655869,
  "lon": 9.7399766
},
{
  "type": "node",
  "id": 2508927734,
  "lat": 52.3657339,
  "lon": 9.7409418
},
{
  "type": "node",
  "id": 2508927735,
  "lat": 52.3657348,
  "lon": 9.7409284
},
{
  "type": "node",
  "id": 2508927737,
  "lat": 52.3657879,
  "lon": 9.7409519
},
{
  "type": "node",
  "id": 2508927738,
  "lat": 52.3657886,
  "lon": 9.7409417
},
{
  "type": "node",
  "id": 2508927739,
  "lat": 52.3658030,
  "lon": 9.7408695
},
{
  "type": "node",
  "id": 2508927740,
  "lat": 52.3658041,
  "lon": 9.7406907
},
{
  "type": "node",
  "id": 2508927741,
  "lat": 52.3658070,
  "lon": 9.7408702
},
{
  "type": "node",
  "id": 2508927742,
  "lat": 52.3658099,
  "lon": 9.7407665
},
{
  "type": "node",
  "id": 2508927743,
  "lat": 52.3658140,
  "lon": 9.7407672
},
{
  "type": "node",
  "id": 2508927744,
  "lat": 52.3658149,
  "lon": 9.7406927
},
{
  "type": "node",
  "id": 2508927745,
  "lat": 52.3658308,
  "lon": 9.7402941
},
{
  "type": "node",
  "id": 2508927746,
  "lat": 52.3658416,
  "lon": 9.7402961
},
{
  "type": "node",
  "id": 2508927747,
  "lat": 52.3658466,
  "lon": 9.7402223
},
{
  "type": "node",
  "id": 2508927748,
  "lat": 52.3658491,
  "lon": 9.7400437
},
{
  "type": "node",
  "id": 2508927749,
  "lat": 52.3658506,
  "lon": 9.7402230
},
{
  "type": "node",
  "id": 2508927750,
  "lat": 52.3658535,
  "lon": 9.7401192
},
{
  "type": "node",
  "id": 2508927751,
  "lat": 52.3658575,
  "lon": 9.7401199
},
{
  "type": "node",
  "id": 2508927752,
  "lat": 52.3658585,
  "lon": 9.7400454
},
{
  "type": "node",
  "id": 2509341488,
  "lat": 52.3625040,
  "lon": 9.7407923
},
{
  "type": "node",
  "id": 2509341500,
  "lat": 52.3631750,
  "lon": 9.7405960
},
{
  "type": "node",
  "id": 2509341501,
  "lat": 52.3633021,
  "lon": 9.7394339
},
{
  "type": "node",
  "id": 2509341502,
  "lat": 52.3633138,
  "lon": 9.7394242
},
{
  "type": "node",
  "id": 2509341503,
  "lat": 52.3634145,
  "lon": 9.7397749
},
{
  "type": "node",
  "id": 2509341511,
  "lat": 52.3635168,
  "lon": 9.7402080
},
{
  "type": "node",
  "id": 2509341516,
  "lat": 52.3636509,
  "lon": 9.7398358
},
{
  "type": "node",
  "id": 3826305996,
  "lat": 52.3638382,
  "lon": 9.7398293
},
{
  "type": "node",
  "id": 3826305997,
  "lat": 52.3638914,
  "lon": 9.7396506
},
{
  "type": "node",
  "id": 3826305998,
  "lat": 52.3639317,
  "lon": 9.7396984
},
{
  "type": "node",
  "id": 3826305999,
  "lat": 52.3639083,
  "lon": 9.7397754
},
{
  "type": "node",
  "id": 3826306000,
  "lat": 52.3638091,
  "lon": 9.7397978
},
{
  "type": "node",
  "id": 3953450965,
  "lat": 52.3616009,
  "lon": 9.7405589
},
{
  "type": "node",
  "id": 3953450966,
  "lat": 52.3616974,
  "lon": 9.7408881
},
{
  "type": "node",
  "id": 3953450967,
  "lat": 52.3622092,
  "lon": 9.7401022
},
{
  "type": "node",
  "id": 3953450968,
  "lat": 52.3622991,
  "lon": 9.7404151
},
{
  "type": "node",
  "id": 5371081536,
  "lat": 52.3633568,
  "lon": 9.7396264
},
{
  "type": "node",
  "id": 5371081538,
  "lat": 52.3654983,
  "lon": 9.7399391
},
{
  "type": "node",
  "id": 5635671589,
  "lat": 52.3637198,
  "lon": 9.7398646
},
{
  "type": "node",
  "id": 5635671590,
  "lat": 52.3639251,
  "lon": 9.7396703
},
{
  "type": "node",
  "id": 5635671608,
  "lat": 52.3636472,
  "lon": 9.7398221
},
{
  "type": "node",
  "id": 5635671609,
  "lat": 52.3636348,
  "lon": 9.7398318
},
{
  "type": "node",
  "id": 35331429,
  "lat": 52.3844029,
  "lon": 9.7072179
},
{
  "type": "node",
  "id": 35331431,
  "lat": 52.3842059,
  "lon": 9.7083437
},
{
  "type": "node",
  "id": 35331432,
  "lat": 52.3840966,
  "lon": 9.7082924
},
{
  "type": "node",
  "id": 35331434,
  "lat": 52.3842936,
  "lon": 9.7071666
},
{
  "type": "node",
  "id": 1191527964,
  "lat": 52.3841790,
  "lon": 9.7076859
},
{
  "type": "node",
  "id": 1191528020,
  "lat": 52.3841830,
  "lon": 9.7077986
},
{
  "type": "node",
  "id": 1191528150,
  "lat": 52.3842068,
  "lon": 9.7076629
},
{
  "type": "node",
  "id": 1406773765,
  "lat": 52.3841677,
  "lon": 9.7077509
},
{
  "type": "node",
  "id": 3141435482,
  "lat": 52.3841239,
  "lon": 9.7083052
},
{
  "type": "node",
  "id": 3141435486,
  "lat": 52.3841786,
  "lon": 9.7083309
},
{
  "type": "node",
  "id": 94579113,
  "lat": 52.3723113,
  "lon": 9.7318955
},
{
  "type": "node",
  "id": 94579118,
  "lat": 52.3721033,
  "lon": 9.7311823
},
{
  "type": "node",
  "id": 320901852,
  "lat": 52.3717884,
  "lon": 9.7313263
},
{
  "type": "node",
  "id": 348132284,
  "lat": 52.3717890,
  "lon": 9.7313487
},
{
  "type": "node",
  "id": 348132285,
  "lat": 52.3718240,
  "lon": 9.7314692
},
{
  "type": "node",
  "id": 348132286,
  "lat": 52.3717225,
  "lon": 9.7315126
},
{
  "type": "node",
  "id": 666474437,
  "lat": 52.3720431,
  "lon": 9.7315779
},
{
  "type": "node",
  "id": 666474438,
  "lat": 52.3721083,
  "lon": 9.7318116
},
{
  "type": "node",
  "id": 666474439,
  "lat": 52.3718620,
  "lon": 9.7316510
},
{
  "type": "node",
  "id": 666474444,
  "lat": 52.3719498,
  "lon": 9.7320209
},
{
  "type": "node",
  "id": 666474445,
  "lat": 52.3718505,
  "lon": 9.7320063
},
{
  "type": "node",
  "id": 1518259287,
  "lat": 52.3720416,
  "lon": 9.7312286
},
{
  "type": "node",
  "id": 1518259290,
  "lat": 52.3721372,
  "lon": 9.7320904
},
{
  "type": "node",
  "id": 1518259292,
  "lat": 52.3721963,
  "lon": 9.7320197
},
{
  "type": "node",
  "id": 1518259293,
  "lat": 52.3721939,
  "lon": 9.7320528
},
{
  "type": "node",
  "id": 1518259294,
  "lat": 52.3722523,
  "lon": 9.7319464
},
{
  "type": "node",
  "id": 1518259295,
  "lat": 52.3722465,
  "lon": 9.7319823
},
{
  "type": "node",
  "id": 2343763753,
  "lat": 52.3717879,
  "lon": 9.7313180
},
{
  "type": "node",
  "id": 2343763754,
  "lat": 52.3717881,
  "lon": 9.7313207
},
{
  "type": "node",
  "id": 2343763755,
  "lat": 52.3717883,
  "lon": 9.7313235
},
{
  "type": "node",
  "id": 2343763756,
  "lat": 52.3717886,
  "lon": 9.7313291
},
{
  "type": "node",
  "id": 2343763757,
  "lat": 52.3717887,
  "lon": 9.7313319
},
{
  "type": "node",
  "id": 2343763758,
  "lat": 52.3717888,
  "lon": 9.7313347
},
{
  "type": "node",
  "id": 2343763759,
  "lat": 52.3717889,
  "lon": 9.7313570
},
{
  "type": "node",
  "id": 2343763760,
  "lat": 52.3717889,
  "lon": 9.7313375
},
{
  "type": "node",
  "id": 2343763761,
  "lat": 52.3717889,
  "lon": 9.7313542
},
{
  "type": "node",
  "id": 2343763763,
  "lat": 52.3717890,
  "lon": 9.7313514
},
{
  "type": "node",
  "id": 2343763765,
  "lat": 52.3717890,
  "lon": 9.7313458
},
{
  "type": "node",
  "id": 2343763777,
  "lat": 52.3720725,
  "lon": 9.7312054
},
{
  "type": "node",
  "id": 2508952028,
  "lat": 52.3717877,
  "lon": 9.7313152
},
{
  "type": "node",
  "id": 2508952029,
  "lat": 52.3717890,
  "lon": 9.7313403
},
{
  "type": "node",
  "id": 2508952030,
  "lat": 52.3717890,
  "lon": 9.7313431
},
{
  "type": "node",
  "id": 2508952031,
  "lat": 52.3717923,
  "lon": 9.7313538
},
{
  "type": "node",
  "id": 2508952033,
  "lat": 52.3721632,
  "lon": 9.7314199
},
{
  "type": "node",
  "id": 2508952034,
  "lat": 52.3721714,
  "lon": 9.7314158
},
{
  "type": "node",
  "id": 2508952035,
  "lat": 52.3721827,
  "lon": 9.7314895
},
{
  "type": "node",
  "id": 2508952036,
  "lat": 52.3721907,
  "lon": 9.7314821
},
{
  "type": "node",
  "id": 2508952037,
  "lat": 52.3722006,
  "lon": 9.7320438
},
{
  "type": "node",
  "id": 2508952038,
  "lat": 52.3722564,
  "lon": 9.7319691
},
{
  "type": "node",
  "id": 2508952039,
  "lat": 52.3723001,
  "lon": 9.7319105
},
{
  "type": "node",
  "id": 30937378,
  "lat": 52.3683055,
  "lon": 9.7361069
},
{
  "type": "node",
  "id": 30937380,
  "lat": 52.3679778,
  "lon": 9.7359492
},
{
  "type": "node",
  "id": 30937383,
  "lat": 52.3678934,
  "lon": 9.7364195
},
{
  "type": "node",
  "id": 30937386,
  "lat": 52.3682211,
  "lon": 9.7365770
},
{
  "type": "node",
  "id": 94579111,
  "lat": 52.3716801,
  "lon": 9.7322487
},
{
  "type": "node",
  "id": 666474409,
  "lat": 52.3717017,
  "lon": 9.7324019
},
{
  "type": "node",
  "id": 666474442,
  "lat": 52.3718389,
  "lon": 9.7323981
},
{
  "type": "node",
  "id": 666474443,
  "lat": 52.3720287,
  "lon": 9.7322743
},
{
  "type": "node",
  "id": 1518259286,
  "lat": 52.3720219,
  "lon": 9.7322394
},
{
  "type": "node",
  "id": 1518259288,
  "lat": 52.3720873,
  "lon": 9.7321957
},
{
  "type": "node",
  "id": 1518259289,
  "lat": 52.3720804,
  "lon": 9.7322050
},
{
  "type": "node",
  "id": 1518259291,
  "lat": 52.3721444,
  "lon": 9.7321192
},
{
  "type": "node",
  "id": 2296845278,
  "lat": 52.3680609,
  "lon": 9.7365522
},
{
  "type": "node",
  "id": 2296845279,
  "lat": 52.3680916,
  "lon": 9.7365149
},
{
  "type": "node",
  "id": 2296845281,
  "lat": 52.3681241,
  "lon": 9.7365827
},
{
  "type": "node",
  "id": 2296845282,
  "lat": 52.3681152,
  "lon": 9.7365264
},
{
  "type": "node",
  "id": 2508952032,
  "lat": 52.3720801,
  "lon": 9.7321653
},
{
  "type": "node",
  "id": 5140181573,
  "lat": 52.3680884,
  "lon": 9.7365434
},
{
  "type": "node",
  "id": 5140181574,
  "lat": 52.3681072,
  "lon": 9.7365538
},
{
  "type": "node",
  "id": 5140181575,
  "lat": 52.3681216,
  "lon": 9.7365857
},
{
  "type": "node",
  "id": 5140181576,
  "lat": 52.3680624,
  "lon": 9.7365575
},
{
  "type": "node",
  "id": 5140181577,
  "lat": 52.3680870,
  "lon": 9.7365381
},
{
  "type": "node",
  "id": 5140181578,
  "lat": 52.3681107,
  "lon": 9.7365508
},
{
  "type": "node",
  "id": 79818724,
  "lat": 52.3775310,
  "lon": 9.7312348
},
{
  "type": "node",
  "id": 1783824223,
  "lat": 52.3771467,
  "lon": 9.7315120
},
{
  "type": "node",
  "id": 1783824234,
  "lat": 52.3771529,
  "lon": 9.7312389
},
{
  "type": "node",
  "id": 1783824244,
  "lat": 52.3771642,
  "lon": 9.7317144
},
{
  "type": "node",
  "id": 1783824257,
  "lat": 52.3771934,
  "lon": 9.7316828
},
{
  "type": "node",
  "id": 1783824261,
  "lat": 52.3771953,
  "lon": 9.7317079
},
{
  "type": "node",
  "id": 1783824274,
  "lat": 52.3772110,
  "lon": 9.7316794
},
{
  "type": "node",
  "id": 1783824278,
  "lat": 52.3772243,
  "lon": 9.7316931
},
{
  "type": "node",
  "id": 1783824307,
  "lat": 52.3772397,
  "lon": 9.7316989
},
{
  "type": "node",
  "id": 1783824318,
  "lat": 52.3772554,
  "lon": 9.7316972
},
{
  "type": "node",
  "id": 1783824320,
  "lat": 52.3772701,
  "lon": 9.7316879
},
{
  "type": "node",
  "id": 1783824323,
  "lat": 52.3772821,
  "lon": 9.7316713
},
{
  "type": "node",
  "id": 1783824337,
  "lat": 52.3773329,
  "lon": 9.7316575
},
{
  "type": "node",
  "id": 1783824340,
  "lat": 52.3773009,
  "lon": 9.7316673
},
{
  "type": "node",
  "id": 1783824343,
  "lat": 52.3773323,
  "lon": 9.7316466
},
{
  "type": "node",
  "id": 1783824346,
  "lat": 52.3774090,
  "lon": 9.7316382
},
{
  "type": "node",
  "id": 1783824350,
  "lat": 52.3774205,
  "lon": 9.7316374
},
{
  "type": "node",
  "id": 1783824353,
  "lat": 52.3774221,
  "lon": 9.7316412
},
{
  "type": "node",
  "id": 1783824357,
  "lat": 52.3774243,
  "lon": 9.7316440
},
{
  "type": "node",
  "id": 1783824360,
  "lat": 52.3774269,
  "lon": 9.7316457
},
{
  "type": "node",
  "id": 1783824364,
  "lat": 52.3774297,
  "lon": 9.7316462
},
{
  "type": "node",
  "id": 1783824368,
  "lat": 52.3774325,
  "lon": 9.7316453
},
{
  "type": "node",
  "id": 1783824396,
  "lat": 52.3774350,
  "lon": 9.7316432
},
{
  "type": "node",
  "id": 1783824399,
  "lat": 52.3774371,
  "lon": 9.7316400
},
{
  "type": "node",
  "id": 1783824404,
  "lat": 52.3774384,
  "lon": 9.7316360
},
{
  "type": "node",
  "id": 1783824408,
  "lat": 52.3774499,
  "lon": 9.7316351
},
{
  "type": "node",
  "id": 1783824598,
  "lat": 52.3775216,
  "lon": 9.7316297
},
{
  "type": "node",
  "id": 5155781776,
  "lat": 52.3773007,
  "lon": 9.7316631
},
{
  "type": "node",
  "id": 646736010,
  "lat": 52.3697987,
  "lon": 9.7644930
},
{
  "type": "node",
  "id": 646736011,
  "lat": 52.3699583,
  "lon": 9.7644700
},
{
  "type": "node",
  "id": 646736012,
  "lat": 52.3699780,
  "lon": 9.7648375
},
{
  "type": "node",
  "id": 646736013,
  "lat": 52.3698184,
  "lon": 9.7648605
},
{
  "type": "node",
  "id": 475561487,
  "lat": 52.3642514,
  "lon": 9.8051609
},
{
  "type": "node",
  "id": 475561490,
  "lat": 52.3641835,
  "lon": 9.8053532
},
{
  "type": "node",
  "id": 475561492,
  "lat": 52.3643518,
  "lon": 9.8058969
},
{
  "type": "node",
  "id": 475561495,
  "lat": 52.3644861,
  "lon": 9.8059174
},
{
  "type": "node",
  "id": 715910133,
  "lat": 52.3644173,
  "lon": 9.8045070
},
{
  "type": "node",
  "id": 715910145,
  "lat": 52.3649491,
  "lon": 9.8060348
},
{
  "type": "node",
  "id": 715910150,
  "lat": 52.3645971,
  "lon": 9.8063269
},
{
  "type": "node",
  "id": 715910164,
  "lat": 52.3644149,
  "lon": 9.8059765
},
{
  "type": "node",
  "id": 715910169,
  "lat": 52.3645127,
  "lon": 9.8058953
},
{
  "type": "node",
  "id": 715910172,
  "lat": 52.3644197,
  "lon": 9.8050211
},
{
  "type": "node",
  "id": 715910176,
  "lat": 52.3641764,
  "lon": 9.8052232
},
{
  "type": "node",
  "id": 715910179,
  "lat": 52.3640947,
  "lon": 9.8049592
},
{
  "type": "node",
  "id": 1391933935,
  "lat": 52.3640963,
  "lon": 9.8047734
},
{
  "type": "node",
  "id": 1391933937,
  "lat": 52.3641417,
  "lon": 9.8049202
},
{
  "type": "node",
  "id": 1391933940,
  "lat": 52.3643411,
  "lon": 9.8054506
},
{
  "type": "node",
  "id": 1391933941,
  "lat": 52.3643971,
  "lon": 9.8056299
},
{
  "type": "node",
  "id": 1391933943,
  "lat": 52.3644574,
  "lon": 9.8046368
},
{
  "type": "node",
  "id": 1391933949,
  "lat": 52.3644703,
  "lon": 9.8048140
},
{
  "type": "node",
  "id": 1391933950,
  "lat": 52.3644972,
  "lon": 9.8062424
},
{
  "type": "node",
  "id": 1391933951,
  "lat": 52.3645037,
  "lon": 9.8047863
},
{
  "type": "node",
  "id": 1391933952,
  "lat": 52.3645094,
  "lon": 9.8053109
},
{
  "type": "node",
  "id": 1391933953,
  "lat": 52.3645559,
  "lon": 9.8061937
},
{
  "type": "node",
  "id": 1391933954,
  "lat": 52.3645627,
  "lon": 9.8054924
},
{
  "type": "node",
  "id": 1391933957,
  "lat": 52.3646517,
  "lon": 9.8057800
},
{
  "type": "node",
  "id": 1391933965,
  "lat": 52.3647853,
  "lon": 9.8058318
},
{
  "type": "node",
  "id": 1391933967,
  "lat": 52.3648657,
  "lon": 9.8057651
},
{
  "type": "node",
  "id": 7039423905,
  "lat": 52.3644347,
  "lon": 9.8059601
},
{
  "type": "node",
  "id": 7039423906,
  "lat": 52.3644022,
  "lon": 9.8058550
},
{
  "type": "node",
  "id": 7039423907,
  "lat": 52.3642099,
  "lon": 9.8053314
},
{
  "type": "node",
  "id": 413006844,
  "lat": 52.2833289,
  "lon": 9.9276690
},
{
  "type": "node",
  "id": 413006847,
  "lat": 52.2830664,
  "lon": 9.9243409
},
{
  "type": "node",
  "id": 413006849,
  "lat": 52.2843681,
  "lon": 9.9241381
},
{
  "type": "node",
  "id": 413006854,
  "lat": 52.2847853,
  "lon": 9.9284064
},
{
  "type": "node",
  "id": 4203098294,
  "lat": 52.2836062,
  "lon": 9.9241765
},
{
  "type": "node",
  "id": 413006830,
  "lat": 52.2877334,
  "lon": 9.9320544
},
{
  "type": "node",
  "id": 413006832,
  "lat": 52.2872568,
  "lon": 9.9321756
},
{
  "type": "node",
  "id": 413006833,
  "lat": 52.2868593,
  "lon": 9.9324232
},
{
  "type": "node",
  "id": 413006834,
  "lat": 52.2863278,
  "lon": 9.9330323
},
{
  "type": "node",
  "id": 413006836,
  "lat": 52.2852034,
  "lon": 9.9321000
},
{
  "type": "node",
  "id": 413006837,
  "lat": 52.2845707,
  "lon": 9.9315343
},
{
  "type": "node",
  "id": 413006839,
  "lat": 52.2838368,
  "lon": 9.9303378
},
{
  "type": "node",
  "id": 413006842,
  "lat": 52.2836178,
  "lon": 9.9293862
},
{
  "type": "node",
  "id": 413006859,
  "lat": 52.2855468,
  "lon": 9.9301756
},
{
  "type": "node",
  "id": 413006860,
  "lat": 52.2868640,
  "lon": 9.9309855
},
{
  "type": "node",
  "id": 413006862,
  "lat": 52.2879087,
  "lon": 9.9308101
},
{
  "type": "node",
  "id": 1039781079,
  "lat": 52.2850508,
  "lon": 9.9294991
},
{
  "type": "node",
  "id": 4203094442,
  "lat": 52.2865096,
  "lon": 9.9327872
},
{
  "type": "node",
  "id": 4203094443,
  "lat": 52.2862703,
  "lon": 9.9330028
},
{
  "type": "node",
  "id": 4770906621,
  "lat": 52.2862299,
  "lon": 9.9329814
},
{
  "type": "node",
  "id": 413006814,
  "lat": 52.2915218,
  "lon": 9.9318117
},
{
  "type": "node",
  "id": 413006824,
  "lat": 52.2901493,
  "lon": 9.9339067
},
{
  "type": "node",
  "id": 413006826,
  "lat": 52.2896719,
  "lon": 9.9338933
},
{
  "type": "node",
  "id": 413006828,
  "lat": 52.2881073,
  "lon": 9.9335363
},
{
  "type": "node",
  "id": 413006829,
  "lat": 52.2880178,
  "lon": 9.9320890
},
{
  "type": "node",
  "id": 413006865,
  "lat": 52.2880293,
  "lon": 9.9311505
},
{
  "type": "node",
  "id": 698855097,
  "lat": 52.2911784,
  "lon": 9.9316709
},
{
  "type": "node",
  "id": 1039780793,
  "lat": 52.2912071,
  "lon": 9.9325751
},
{
  "type": "node",
  "id": 1039780809,
  "lat": 52.2887813,
  "lon": 9.9315389
},
{
  "type": "node",
  "id": 1039780812,
  "lat": 52.2915985,
  "lon": 9.9322363
},
{
  "type": "node",
  "id": 1039780832,
  "lat": 52.2913161,
  "lon": 9.9338737
},
{
  "type": "node",
  "id": 1039780847,
  "lat": 52.2893357,
  "lon": 9.9316388
},
{
  "type": "node",
  "id": 1039780939,
  "lat": 52.2895158,
  "lon": 9.9313592
},
{
  "type": "node",
  "id": 1039780942,
  "lat": 52.2914430,
  "lon": 9.9328645
},
{
  "type": "node",
  "id": 1039780962,
  "lat": 52.2887610,
  "lon": 9.9318398
},
{
  "type": "node",
  "id": 1039780994,
  "lat": 52.2887555,
  "lon": 9.9312527
},
{
  "type": "node",
  "id": 1039781013,
  "lat": 52.2911981,
  "lon": 9.9327164
},
{
  "type": "node",
  "id": 1039781022,
  "lat": 52.2915882,
  "lon": 9.9328479
},
{
  "type": "node",
  "id": 1039781070,
  "lat": 52.2914447,
  "lon": 9.9328215
},
{
  "type": "node",
  "id": 1039781117,
  "lat": 52.2893154,
  "lon": 9.9319397
},
{
  "type": "node",
  "id": 1039781161,
  "lat": 52.2914625,
  "lon": 9.9327615
},
{
  "type": "node",
  "id": 1039781191,
  "lat": 52.2914715,
  "lon": 9.9326201
},
{
  "type": "node",
  "id": 4203039992,
  "lat": 52.2915946,
  "lon": 9.9336629
},
{
  "type": "node",
  "id": 4203039998,
  "lat": 52.2914365,
  "lon": 9.9329334
},
{
  "type": "node",
  "id": 4203039999,
  "lat": 52.2915612,
  "lon": 9.9336629
},
{
  "type": "node",
  "id": 4203040011,
  "lat": 52.2916268,
  "lon": 9.9336629
},
{
  "type": "node",
  "id": 4203040013,
  "lat": 52.2908564,
  "lon": 9.9339095
},
{
  "type": "node",
  "id": 4203040016,
  "lat": 52.2915655,
  "lon": 9.9338772
},
{
  "type": "node",
  "id": 4203040022,
  "lat": 52.2915661,
  "lon": 9.9330004
},
{
  "type": "node",
  "id": 4203040026,
  "lat": 52.2916268,
  "lon": 9.9332458
},
{
  "type": "node",
  "id": 2546905061,
  "lat": 52.3787500,
  "lon": 9.9723363
},
{
  "type": "node",
  "id": 2546905062,
  "lat": 52.3788927,
  "lon": 9.9719635
},
{
  "type": "node",
  "id": 2546905065,
  "lat": 52.3787065,
  "lon": 9.9722727
},
{
  "type": "node",
  "id": 2546905073,
  "lat": 52.3787894,
  "lon": 9.9723069
},
{
  "type": "node",
  "id": 2546905076,
  "lat": 52.3788829,
  "lon": 9.9719491
},
{
  "type": "node",
  "id": 2546905077,
  "lat": 52.3789106,
  "lon": 9.9719305
},
{
  "type": "node",
  "id": 2546905078,
  "lat": 52.3787764,
  "lon": 9.9722878
},
{
  "type": "node",
  "id": 2546905092,
  "lat": 52.3789463,
  "lon": 9.9719827
},
{
  "type": "node",
  "id": 2546905093,
  "lat": 52.3788198,
  "lon": 9.9722512
},
{
  "type": "node",
  "id": 2546905094,
  "lat": 52.3788088,
  "lon": 9.9722351
},
{
  "type": "node",
  "id": 2538465201,
  "lat": 52.6264262,
  "lon": 9.4879805
},
{
  "type": "node",
  "id": 2538465202,
  "lat": 52.6264770,
  "lon": 9.4880744
},
{
  "type": "node",
  "id": 2538465204,
  "lat": 52.6265003,
  "lon": 9.4878717
},
{
  "type": "node",
  "id": 2538465206,
  "lat": 52.6265511,
  "lon": 9.4879657
},
{
  "type": "node",
  "id": 455453109,
  "lat": 52.4549640,
  "lon": 9.7966834
},
{
  "type": "node",
  "id": 513478422,
  "lat": 52.4548150,
  "lon": 9.7962332
},
{
  "type": "node",
  "id": 513478425,
  "lat": 52.4544253,
  "lon": 9.7966062
},
{
  "type": "node",
  "id": 513478426,
  "lat": 52.4545699,
  "lon": 9.7970540
},
{
  "type": "node",
  "id": 2564325570,
  "lat": 52.6105987,
  "lon": 9.8264362
},
{
  "type": "node",
  "id": 2564325571,
  "lat": 52.6107521,
  "lon": 9.8259868
},
{
  "type": "node",
  "id": 2564325572,
  "lat": 52.6110548,
  "lon": 9.8253368
},
{
  "type": "node",
  "id": 2564325573,
  "lat": 52.6117645,
  "lon": 9.8251036
},
{
  "type": "node",
  "id": 2564325574,
  "lat": 52.6118760,
  "lon": 9.8260626
},
{
  "type": "node",
  "id": 2564325575,
  "lat": 52.6116760,
  "lon": 9.8261267
},
{
  "type": "node",
  "id": 2564325577,
  "lat": 52.6115401,
  "lon": 9.8273597
},
{
  "type": "node",
  "id": 2564325581,
  "lat": 52.6106635,
  "lon": 9.8262462
},
{
  "type": "node",
  "id": 2564325585,
  "lat": 52.6106662,
  "lon": 9.8265024
},
{
  "type": "node",
  "id": 3498749241,
  "lat": 52.4472805,
  "lon": 10.0054160
},
{
  "type": "node",
  "id": 3498749242,
  "lat": 52.4473118,
  "lon": 10.0055572
},
{
  "type": "node",
  "id": 3498749243,
  "lat": 52.4475080,
  "lon": 10.0052801
},
{
  "type": "node",
  "id": 3498749244,
  "lat": 52.4475393,
  "lon": 10.0054213
},
{
  "type": "node",
  "id": 3508342315,
  "lat": 52.4474091,
  "lon": 10.0053392
},
{
  "type": "node",
  "id": 3498749237,
  "lat": 52.4461676,
  "lon": 10.0086018
},
{
  "type": "node",
  "id": 3498749238,
  "lat": 52.4461870,
  "lon": 10.0088260
},
{
  "type": "node",
  "id": 3498749239,
  "lat": 52.4462709,
  "lon": 10.0085778
},
{
  "type": "node",
  "id": 3498749240,
  "lat": 52.4462903,
  "lon": 10.0088020
},
{
  "type": "node",
  "id": 1230481248,
  "lat": 52.5469332,
  "lon": 10.0127319
},
{
  "type": "node",
  "id": 5625472627,
  "lat": 52.5469190,
  "lon": 10.0119972
},
{
  "type": "node",
  "id": 5625472628,
  "lat": 52.5463963,
  "lon": 10.0118294
},
{
  "type": "node",
  "id": 5625472629,
  "lat": 52.5463672,
  "lon": 10.0126146
},
{
  "type": "node",
  "id": 306256961,
  "lat": 52.6600886,
  "lon": 9.8340036
},
{
  "type": "node",
  "id": 306256962,
  "lat": 52.6604225,
  "lon": 9.8330171
},
{
  "type": "node",
  "id": 306256963,
  "lat": 52.6603356,
  "lon": 9.8329370
},
{
  "type": "node",
  "id": 306256964,
  "lat": 52.6599903,
  "lon": 9.8339131
},
{
  "type": "node",
  "id": 306256966,
  "lat": 52.6602768,
  "lon": 9.8334471
},
{
  "type": "node",
  "id": 306256968,
  "lat": 52.6601975,
  "lon": 9.8333442
},
{
  "type": "node",
  "id": 306256998,
  "lat": 52.6601299,
  "lon": 9.8335011
},
{
  "type": "node",
  "id": 306257000,
  "lat": 52.6602322,
  "lon": 9.8335799
},
{
  "type": "node",
  "id": 306257028,
  "lat": 52.6601339,
  "lon": 9.8332856
},
{
  "type": "node",
  "id": 306257032,
  "lat": 52.6600773,
  "lon": 9.8334526
},
{
  "type": "node",
  "id": 3383399655,
  "lat": 52.6600928,
  "lon": 9.8333587
},
{
  "type": "node",
  "id": 3383399659,
  "lat": 52.6602411,
  "lon": 9.8335880
},
{
  "type": "node",
  "id": 3383399661,
  "lat": 52.6602859,
  "lon": 9.8334556
},
{
  "type": "node",
  "id": 274426620,
  "lat": 52.6801436,
  "lon": 9.9192584
},
{
  "type": "node",
  "id": 274426622,
  "lat": 52.6802001,
  "lon": 9.9193473
},
{
  "type": "node",
  "id": 274426624,
  "lat": 52.6802743,
  "lon": 9.9196227
},
{
  "type": "node",
  "id": 274426626,
  "lat": 52.6810324,
  "lon": 9.9218907
},
{
  "type": "node",
  "id": 274426630,
  "lat": 52.6792344,
  "lon": 9.9213140
},
{
  "type": "node",
  "id": 274426632,
  "lat": 52.6794528,
  "lon": 9.9207041
},
{
  "type": "node",
  "id": 274426633,
  "lat": 52.6796364,
  "lon": 9.9207041
},
{
  "type": "node",
  "id": 274426635,
  "lat": 52.6799260,
  "lon": 9.9197922
},
{
  "type": "node",
  "id": 274426636,
  "lat": 52.6800543,
  "lon": 9.9193563
},
{
  "type": "node",
  "id": 702453290,
  "lat": 52.6806662,
  "lon": 9.9208275
},
{
  "type": "node",
  "id": 2123310591,
  "lat": 52.6799886,
  "lon": 9.9195727
},
{
  "type": "node",
  "id": 2123310594,
  "lat": 52.6801197,
  "lon": 9.9192570
},
{
  "type": "node",
  "id": 2123310598,
  "lat": 52.6801680,
  "lon": 9.9192843
},
{
  "type": "node",
  "id": 274426628,
  "lat": 52.6797745,
  "lon": 9.9222189
},
{
  "type": "node",
  "id": 3905344612,
  "lat": 52.4092258,
  "lon": 10.0841657
},
{
  "type": "node",
  "id": 3905344614,
  "lat": 52.4090639,
  "lon": 10.0839286
},
{
  "type": "node",
  "id": 3905344618,
  "lat": 52.4090363,
  "lon": 10.0840443
},
{
  "type": "node",
  "id": 3905344619,
  "lat": 52.4092534,
  "lon": 10.0840498
},
{
  "type": "node",
  "id": 1644327816,
  "lat": 52.6037289,
  "lon": 10.0768900
},
{
  "type": "node",
  "id": 1644327819,
  "lat": 52.6037450,
  "lon": 10.0767522
},
{
  "type": "node",
  "id": 1644327820,
  "lat": 52.6037525,
  "lon": 10.0767792
},
{
  "type": "node",
  "id": 1644327832,
  "lat": 52.6037956,
  "lon": 10.0769249
},
{
  "type": "node",
  "id": 1644327836,
  "lat": 52.6038132,
  "lon": 10.0767001
},
{
  "type": "node",
  "id": 1644327837,
  "lat": 52.6038177,
  "lon": 10.0767168
},
{
  "type": "node",
  "id": 1644327840,
  "lat": 52.6038266,
  "lon": 10.0770242
},
{
  "type": "node",
  "id": 1644327849,
  "lat": 52.6038706,
  "lon": 10.0769894
},
{
  "type": "node",
  "id": 1644327869,
  "lat": 52.6038960,
  "lon": 10.0769299
},
{
  "type": "node",
  "id": 1644327881,
  "lat": 52.6039088,
  "lon": 10.0771202
},
{
  "type": "node",
  "id": 1644327886,
  "lat": 52.6039496,
  "lon": 10.0766139
},
{
  "type": "node",
  "id": 1644327887,
  "lat": 52.6039457,
  "lon": 10.0770913
},
{
  "type": "node",
  "id": 1644327917,
  "lat": 52.6040146,
  "lon": 10.0768304
},
{
  "type": "node",
  "id": 1629657664,
  "lat": 52.6117076,
  "lon": 10.0944695
},
{
  "type": "node",
  "id": 1629657683,
  "lat": 52.6117060,
  "lon": 10.0945754
},
{
  "type": "node",
  "id": 1629658258,
  "lat": 52.6119612,
  "lon": 10.0944799
},
{
  "type": "node",
  "id": 1629658259,
  "lat": 52.6119596,
  "lon": 10.0945858
},
{
  "type": "way",
  "id": 4816457,
  "nodes": [
    30937326,
    2508927670,
    2508927668,
    2508927667,
    2508927665,
    2508927663,
    2508927664,
    2508927662,
    2508927666,
    2508927661,
    2508927660,
    2508927659,
    2508927656,
    2508927654,
    2508927655,
    30937328,
    2508927658,
    2508927657,
    2508927671,
    2508927672,
    2508927677,
    2508927676,
    2508927681,
    2508927680,
    2508927709,
    2508927710,
    2508927713,
    2508927714,
    2508927735,
    2508927734,
    2508927737,
    2508927738,
    30937330,
    2508927739,
    2508927741,
    2508927743,
    2508927742,
    2508927744,
    2508927740,
    2508927745,
    2508927746,
    2508927747,
    2508927749,
    2508927751,
    2508927750,
    2508927752,
    2508927748,
    30937324,
    593318279,
    593318277,
    593318251,
    2508927732,
    593318249,
    2508927730,
    5371081538,
    2508927698,
    593318245,
    2508927692,
    593318247,
    593318243,
    593318242,
    30937326
  ]
},
{
  "type": "way",
  "id": 46420579,
  "nodes": [
    593318270,
    593318268,
    2508927685,
    2508927689,
    2508927688,
    2508927691,
    2508927690,
    593318266,
    2508927693,
    2508927695,
    2508927694,
    593318264,
    2508927686,
    2508927687,
    593318262,
    2508927699,
    2508927701,
    2508927703,
    593318260,
    2508927712,
    2508927717,
    2508927727,
    593318258,
    2508927718,
    2508927716,
    2508927719,
    593318257,
    2508927722,
    2508927723,
    2508927724,
    2508927726,
    2508927729,
    593318255,
    593318275,
    593318273,
    2508927720,
    2508927721,
    2508927705,
    2508927706,
    2508927697,
    2508927696,
    2508927683,
    2508927682,
    593318253,
    593318271,
    2508927678,
    2508927684,
    593318270
  ]
},
{
  "type": "way",
  "id": 560955703,
  "nodes": [
    3826305997,
    5635671590,
    3826305998,
    3826305999,
    3826305996,
    3826306000,
    5635671589,
    593324500,
    2509341511,
    593324497,
    2509341500,
    593324495,
    2509341488,
    3953450968,
    3953450966,
    3953450965,
    3953450967,
    2429257377,
    593324454,
    2509341502,
    2509341501,
    5371081536,
    735960389,
    2509341503,
    593324507,
    5635671609,
    5635671608,
    2509341516,
    3826305997
  ]
},
{
  "type": "way",
  "id": 52429564,
  "nodes": [
    666474437,
    666474438,
    666474444,
    666474445,
    666474439,
    666474437
  ]
},
{
  "type": "way",
  "id": 10677756,
  "nodes": [
    94579118,
    2343763777,
    1518259287,
    2508952028,
    2343763753,
    2343763754,
    2343763755,
    320901852,
    2343763756,
    2343763757,
    2343763758,
    2343763760,
    2508952029,
    2508952030,
    2343763765,
    348132284,
    2343763763,
    2343763761,
    2343763759,
    2508952031,
    348132285,
    348132286,
    94579111,
    666474409,
    666474442,
    666474443,
    1518259286,
    1518259289,
    1518259288,
    2508952032,
    1518259291,
    1518259290,
    1518259293,
    2508952037,
    1518259292,
    1518259295,
    2508952038,
    1518259294,
    2508952039,
    94579113,
    2508952036,
    2508952035,
    2508952033,
    2508952034,
    94579118
  ]
},
{
  "type": "way",
  "id": 39670476,
  "nodes": [
    1391933940,
    1391933952,
    715910172,
    475561487,
    1391933940
  ]
},
{
  "type": "way",
  "id": 57742914,
  "nodes": [
    7039423905,
    7039423906,
    475561492,
    475561490,
    7039423907,
    715910176,
    715910179,
    1391933937,
    1391933935,
    715910133,
    1391933943,
    1391933951,
    1391933949,
    1391933965,
    1391933967,
    715910145,
    715910150,
    1391933953,
    1391933950,
    715910164,
    7039423905
  ]
},
{
  "type": "way",
  "id": 753410875,
  "nodes": [
    475561495,
    715910169,
    1391933957,
    1391933954,
    1391933941,
    475561495
  ]
}

  ]
}
