{
  "version": 0.6,
  "generator": "Overpass API 0.7.55.1011 6c2efc30",
  "osm3s": {
    "timestamp_osm_base": "2020-02-14T16:00:02Z",
    "copyright": "The data included in this document is from www.openstreetmap.org. The data is made available under ODbL."
  },
  "elements": [

{
  "type": "node",
  "id": 697809882,
  "lat": 47.9938745,
  "lon": 18.2662255,
  "tags": {
    "name": "Obecné múzeum",
    "tourism": "museum"
  }
},
{
  "type": "node",
  "id": 727371074,
  "lat": 47.7578114,
  "lon": 18.1271237,
  "tags": {
    "name": "Podunajské múzeum v Komárne",
    "name:hu": "Duna Menti Múzeum Komárom",
    "tourism": "museum"
  }
},
{
  "type": "node",
  "id": 727371076,
  "lat": 47.7574218,
  "lon": 18.1288991,
  "tags": {
    "name": "Podunajské múzeum v Komárne",
    "name:en": "Danube Region Museum in Komárom",
    "name:hu": "Duna Menti Múzeum Komárom",
    "street:hu": "Megye utca",
    "tourism": "museum"
  }
},
{
  "type": "node",
  "id": 871666209,
  "lat": 47.7508953,
  "lon": 18.0944718,
  "tags": {
    "addr:city": "Komárom",
    "addr:housenumber": "1",
    "addr:postcode": "2900",
    "addr:street": "Duna-part",
    "castle_type": "fortress",
    "contact:email": "info@fort-monostor.hu",
    "contact:phone": "+36 34 540 582",
    "contact:website": "http://www.erod.hu/",
    "description:hu": "Nyári nyitvatartás: március 1-től november 1-ig",
    "fixme": "merge",
    "historic": "castle",
    "name": "Monostori Erőd",
    "name:en": "Fort Monostor Komárom",
    "opening_hours": "Mo-Su 09:00-18:00",
    "operator": "Monostori Erőd Nonprofit Kft.",
    "tourism": "museum",
    "wikipedia": "hu:Komáromi erődrendszer"
  }
},
{
  "type": "node",
  "id": 871668724,
  "lat": 47.7337727,
  "lon": 18.1211369,
  "tags": {
    "name": "Igmándi Erőd",
    "place": "neighbourhood",
    "tourism": "museum",
    "website": "http://www.erod.hu/erodrendszer/igmandi-erod",
    "wikipedia": "hu:Komáromi erődrendszer"
  }
},
{
  "type": "node",
  "id": 871669036,
  "lat": 47.7452949,
  "lon": 18.1384013,
  "tags": {
    "tourism": "museum"
  }
},
{
  "type": "node",
  "id": 871671425,
  "lat": 47.7403339,
  "lon": 18.1253720,
  "tags": {
    "name": "Hajózási Múzeum",
    "tourism": "museum"
  }
},
{
  "type": "node",
  "id": 1975866185,
  "lat": 47.5810844,
  "lon": 18.3991081,
  "tags": {
    "addr:postcode": "2800",
    "addr:street": "Szent Borbála tér",
    "name:it": "Museo",
    "tourism": "museum"
  }
},
{
  "type": "node",
  "id": 1978458878,
  "lat": 47.6389723,
  "lon": 18.3147939,
  "tags": {
    "description": "Geológiai bemutató hely",
    "name": "Kő-kör",
    "tourism": "museum"
  }
},
{
  "type": "node",
  "id": 2276955334,
  "lat": 47.6634110,
  "lon": 18.4462186,
  "tags": {
    "name": "Fekete Lajos Múzeum",
    "tourism": "museum"
  }
},
{
  "type": "node",
  "id": 2446554306,
  "lat": 47.6507210,
  "lon": 18.3241612,
  "tags": {
    "name": "Német nemzetiségi múzeum",
    "name:de": "Ungarndeutsches Landesmuseum",
    "tourism": "museum"
  }
},
{
  "type": "node",
  "id": 2700687680,
  "lat": 47.5812822,
  "lon": 18.3989972,
  "tags": {
    "addr:postcode": "2800",
    "name": "Tatabányai Múzeum",
    "opening_hours": "We-Su 10:00-18:00",
    "tourism": "museum"
  }
},
{
  "type": "node",
  "id": 2928493184,
  "lat": 47.5338573,
  "lon": 18.0724866,
  "tags": {
    "name": "Etei tájház",
    "tourism": "museum"
  }
},
{
  "type": "node",
  "id": 3192392219,
  "lat": 47.6903754,
  "lon": 17.6396794,
  "tags": {
    "name": "Cserépkályha történeti kiállítás",
    "tourism": "museum"
  }
},
{
  "type": "node",
  "id": 3298279087,
  "lat": 47.7772671,
  "lon": 18.1290884,
  "tags": {
    "name": "Rímske Lapidárium",
    "name:hu": "Római kőtár",
    "tourism": "museum",
    "website": "https://www.muzeum.sk/?obj=pamiatka&ix=rlap_mmkap"
  }
},
{
  "type": "node",
  "id": 3465105379,
  "lat": 47.5514000,
  "lon": 17.7667690,
  "tags": {
    "name": "Apátsági Levendulaház",
    "source": "turistautak.hu",
    "source:date": "2015-01-30",
    "tourism": "museum",
    "url": "http://turistautak.hu/poi.php?id=164216"
  }
},
{
  "type": "node",
  "id": 3468026237,
  "lat": 47.6241457,
  "lon": 18.3838363,
  "tags": {
    "dog": "yes",
    "name": "Vértesszőlősi előembertelep",
    "opening_hours": "Mo-Fr 10:00-15:00; Apr-Aug Sa-Su 10:00-18:00; Sep Sa-Su 10:00-17:00; Oct Sa-Su 10:00-16:00",
    "tourism": "museum",
    "website": "http://www.vertesszolos.hu/gen/pro/mod/alo/alo_kiiras.php?i_szo_azo=37",
    "wikidata": "Q1462685",
    "wikipedia": "hu:Vértesszőlős Őstelep"
  }
},
{
  "type": "node",
  "id": 3470078646,
  "lat": 47.7335170,
  "lon": 18.3286500,
  "tags": {
    "name": "Csokonai-Lilla emlékszoba",
    "source": "turistautak.hu",
    "source:date": "2011-05-08",
    "tourism": "museum",
    "url": "http://turistautak.hu/poi.php?id=2345"
  }
},
{
  "type": "node",
  "id": 3470078662,
  "lat": 47.7364330,
  "lon": 18.3555000,
  "tags": {
    "name": "Hajó Skanzen",
    "source": "turistautak.hu",
    "source:date": "2011-05-08",
    "tourism": "museum",
    "url": "http://turistautak.hu/poi.php?id=34344"
  }
},
{
  "type": "node",
  "id": 3470096843,
  "lat": 47.5060086,
  "lon": 18.0004379,
  "tags": {
    "name": "Jászai Mari szülőháza",
    "source": "turistautak.hu",
    "source:date": "2013-09-16",
    "tourism": "museum",
    "url": "http://turistautak.hu/poi.php?id=159437"
  }
},
{
  "type": "node",
  "id": 3470097557,
  "lat": 47.5081490,
  "lon": 18.0056220,
  "tags": {
    "name": "Ászári Tájház",
    "source": "turistautak.hu",
    "source:date": "2013-09-16",
    "tourism": "museum",
    "url": "http://turistautak.hu/poi.php?id=159435"
  }
},
{
  "type": "node",
  "id": 3471787665,
  "lat": 47.7452170,
  "lon": 18.1164670,
  "tags": {
    "description": "1996-ban nyílt állandó kiállításon, a brigetioi ásatások freskó és egyéb leletei láthatók.",
    "name": "Klapka György Múzeum",
    "source": "turistautak.hu",
    "source:date": "2010-08-23",
    "tourism": "museum",
    "url": "http://turistautak.hu/poi.php?id=275"
  }
},
{
  "type": "node",
  "id": 3471787668,
  "lat": 47.6413020,
  "lon": 17.9814530,
  "tags": {
    "name": "Lovasmúzeum",
    "source": "turistautak.hu",
    "source:date": "2013-10-13",
    "tourism": "museum",
    "url": "http://turistautak.hu/poi.php?id=160547"
  }
},
{
  "type": "node",
  "id": 3471787683,
  "lat": 47.7497380,
  "lon": 18.0959650,
  "tags": {
    "name": "Pék Múzeum",
    "source": "turistautak.hu",
    "source:date": "2015-01-30",
    "tourism": "museum",
    "url": "http://turistautak.hu/poi.php?id=100546"
  }
},
{
  "type": "node",
  "id": 3681365369,
  "lat": 47.7572403,
  "lon": 18.1274342,
  "tags": {
    "name": "Podunajské múzeum v Komárne",
    "name:hu": "Duna Menti Múzeum",
    "tourism": "museum",
    "wikidata": "Q663372",
    "wikipedia": "sk:Podunajské múzeum v Komárne"
  }
},
{
  "type": "node",
  "id": 3865651804,
  "lat": 47.6719168,
  "lon": 18.1819962,
  "tags": {
    "name": "Anyakönyvi hivatal",
    "tourism": "museum"
  }
},
{
  "type": "node",
  "id": 3865651805,
  "lat": 47.6724695,
  "lon": 18.1821946,
  "tags": {
    "name": "Termelő Szövetkezet Iroda",
    "tourism": "museum"
  }
},
{
  "type": "node",
  "id": 3865706321,
  "lat": 47.6716676,
  "lon": 18.1815794,
  "tags": {
    "name": "Nyugdíjas klub",
    "tourism": "museum"
  }
},
{
  "type": "node",
  "id": 4640535776,
  "lat": 47.5012117,
  "lon": 18.0281092,
  "tags": {
    "tourism": "museum"
  }
},
{
  "type": "node",
  "id": 4723158713,
  "lat": 47.6396648,
  "lon": 17.9798236,
  "tags": {
    "name": "Kocsi Múzeum",
    "tourism": "museum"
  }
},
{
  "type": "node",
  "id": 4884435721,
  "lat": 47.9897652,
  "lon": 18.1725867,
  "tags": {
    "addr:city": "Nové Zámky",
    "addr:housenumber": "58",
    "addr:street": "M. R. Štefánika",
    "contact:phone": "+421 356 400 626",
    "name": "Múzeum Jána Thaina - výstavná miestnosť",
    "opening_hours": "Tu-Fr 08:00-17:00, Sa 09:00-13:00",
    "tourism": "museum"
  }
},
{
  "type": "node",
  "id": 4895746441,
  "lat": 47.9843690,
  "lon": 18.1636687,
  "tags": {
    "museum": "gallery",
    "name": "Galéria umenia Ernesta Zmetáka v Nových Zámkoch",
    "opening_hours": "Mo-Fr 08:00-17:00; Sa 09:00-13:00",
    "start_date": "1979",
    "tourism": "museum",
    "website": "http://www.galerianz.eu"
  }
},
{
  "type": "node",
  "id": 5481338484,
  "lat": 47.7505358,
  "lon": 18.0963853,
  "tags": {
    "name": "Hadtörténeti kiállítás",
    "tourism": "museum"
  }
},
{
  "type": "node",
  "id": 5481338491,
  "lat": 47.7525211,
  "lon": 18.0953508,
  "tags": {
    "name": "Duna, Hajők, mesterségek kiállítás",
    "tourism": "museum"
  }
},
{
  "type": "node",
  "id": 5617711349,
  "lat": 47.9891177,
  "lon": 18.1633933,
  "tags": {
    "addr:city": "Nové Zámky",
    "addr:housenumber": "6",
    "addr:postcode": "940 62",
    "addr:street": "Pribinova",
    "addr:streetnumber": "6",
    "contact:website": "http://www.muzeumnz.sk/",
    "name": "Múzeum Jána Thaina",
    "opening_hours": "Tu-Fr 09:00-12:00,13:00-16:00",
    "tourism": "museum"
  }
},
{
  "type": "way",
  "id": 71580540,
  "nodes": [
    851429903,
    851429904,
    851429908,
    851429909,
    851429903
  ],
  "tags": {
    "addr:city": "Búč",
    "addr:conscriptionnumber": "11",
    "addr:country": "SK",
    "addr:housenumber": "11",
    "addr:place": "Búč",
    "building": "yes",
    "import": "budovy201004",
    "name": "Múzeum bábik",
    "name:hu": "Babamúzeum",
    "source": "kapor2",
    "source:conscriptionnumber": "kapor2",
    "tourism": "museum"
  }
},
{
  "type": "way",
  "id": 71704117,
  "nodes": [
    852460183,
    852460184,
    852460185,
    852460186,
    852460183
  ],
  "tags": {
    "addr:city": "Dolný Štál",
    "addr:conscriptionnumber": "70",
    "addr:country": "SK",
    "addr:housenumber": "70",
    "addr:place": "Dolný Štál",
    "building": "yes",
    "import": "budovy201004",
    "name": "Ľudový dom",
    "name:hu": "Tájház",
    "source": "kapor2",
    "source:conscriptionnumber": "kapor2",
    "tourism": "museum"
  }
},
{
  "type": "way",
  "id": 71719891,
  "nodes": [
    852595509,
    852595510,
    852595513,
    852595515,
    852595516,
    852595518,
    852595520,
    852595521,
    852595523,
    852595509
  ],
  "tags": {
    "addr:city": "Iža",
    "addr:conscriptionnumber": "11",
    "addr:country": "SK",
    "addr:housenumber": "11",
    "addr:place": "Iža",
    "building": "yes",
    "import": "budovy201004",
    "source": "kapor2",
    "source:conscriptionnumber": "kapor2",
    "tourism": "museum"
  }
},
{
  "type": "way",
  "id": 104914823,
  "nodes": [
    1209788392,
    2508131034,
    1209788676,
    2508131010,
    2508131012,
    2508130999,
    2508130993,
    1209788426,
    2508130997,
    2508130985,
    2508131004,
    2508131006,
    1209788592,
    1209788338,
    1209788495,
    1209788392
  ],
  "tags": {
    "addr:city": "Tata",
    "addr:country": "HU",
    "addr:housename": "Villa Quadt",
    "addr:housenumber": "1-3",
    "addr:postcode": "2890",
    "addr:street": "Váralja utca",
    "building": "yes",
    "email": "info@kunymuzeum.hu",
    "name": "Kunyi Domokos Múzeum",
    "name:de": "Kuny Domokos Museum",
    "name:en": "Kuny Domokos Museum",
    "opening_hours": "Tu-Su 09:00-18:00",
    "phone": "+36 34381251",
    "tourism": "museum",
    "website": "http://www.kunymuzeum.hu",
    "wikidata": "Q1122060"
  }
},
{
  "type": "way",
  "id": 147465779,
  "nodes": [
    1606838202,
    1606838120,
    1606838046,
    1606838299,
    1606838202
  ],
  "tags": {
    "building": "house",
    "name": "Sváb tájház",
    "tourism": "museum"
  }
},
{
  "type": "way",
  "id": 187089985,
  "nodes": [
    1978459021,
    1978459083,
    1978459092,
    6697209075,
    6689487078,
    1978459026,
    1978459018,
    1978459013,
    1978459009,
    1978459005,
    1978459021
  ],
  "tags": {
    "addr:city": "Tata",
    "barrier": "fence",
    "leisure": "garden",
    "name": "Szabadtéri Geológiai Múzeum",
    "opening_hours": "Jan-Mar off;Nov-Dec off;Tu-Fr 10:00-16:00;Sa-Su 10:00-17:00",
    "tourism": "museum",
    "website": "https://www.elte.hu/tata"
  }
},
{
  "type": "way",
  "id": 228410654,
  "nodes": [
    2370919938,
    2370919922,
    2370919920,
    2370919935,
    2370919925,
    2370919941,
    2370919942,
    2370919945,
    2370919940,
    2370919938
  ],
  "tags": {
    "addr:city": "Tatabánya",
    "addr:housenumber": "3",
    "addr:postcode": "2800",
    "addr:street": "Szent Gellért tér",
    "building": "yes",
    "name": "Bánhidai szlovák tájház",
    "tourism": "museum"
  }
},
{
  "type": "way",
  "id": 243263406,
  "nodes": [
    2506830079,
    2506830080,
    2506830081,
    2506830091,
    2506830087,
    2506830089,
    2506830088,
    2506830090,
    2506830086,
    2506830082,
    2506830085,
    2506830084,
    3148318053,
    2506830083,
    2506830079
  ],
  "tags": {
    "addr:city": "Tatabánya",
    "addr:postcode": "2800",
    "addr:street": "Vágóhíd utca",
    "building": "yes",
    "name": "Tatabányai Bányász Skanzen",
    "tourism": "museum"
  }
},
{
  "type": "way",
  "id": 275835158,
  "nodes": [
    2805078721,
    2805078729,
    2805078748,
    2805078743,
    2805078737,
    2805078733,
    2805078721
  ],
  "tags": {
    "building": "yes",
    "name": "Emlékház",
    "tourism": "museum"
  }
},
{
  "type": "way",
  "id": 307807260,
  "nodes": [
    3130359868,
    3130359869,
    3130359870,
    3130359871,
    3130359868
  ],
  "tags": {
    "addr:city": "Kolárovo",
    "addr:housenumber": "3932",
    "addr:postcode": "94603",
    "addr:street": "Areál vodného mlynu",
    "building": "yes",
    "email": "sali@vodnymlyn.sk",
    "man_made": "watermill",
    "name": "Vodný mlyn Kolárovo",
    "name:hu": "Gútai Hajómalom",
    "tourism": "museum",
    "website": "http://www.vodnymlyn.sk/"
  }
},
{
  "type": "way",
  "id": 311385218,
  "nodes": [
    3170217771,
    3170217772,
    3170217774,
    3170217775,
    3170217776,
    3170217773,
    3170217771
  ],
  "tags": {
    "addr:city": "Tardos",
    "addr:housenumber": "8",
    "addr:postcode": "2834",
    "addr:street": "Rákóczi Ferenc utca",
    "building": "yes",
    "name": "Rádió Múzeum",
    "operator": "Tarnóczy András",
    "tourism": "museum"
  }
},
{
  "type": "way",
  "id": 328106779,
  "nodes": [
    3349300934,
    3349300936,
    3349300935,
    3349300933,
    3349300934
  ],
  "tags": {
    "building": "yes",
    "name": "Military Museum Kolárovo",
    "source": "bing",
    "tourism": "museum",
    "url": "http://www.militarymuseum.sk/muzeum/technika.php"
  }
},
{
  "type": "way",
  "id": 338037301,
  "nodes": [
    3450979659,
    3450979658,
    3450979650,
    3450979651,
    3450979654,
    3450979655,
    3450979653,
    3450979648,
    3450979649,
    3450979656,
    3450979657,
    3450979659
  ],
  "tags": {
    "name": "Kocsi múzeum",
    "tourism": "museum",
    "wheelchair": "yes"
  }
},
{
  "type": "way",
  "id": 356278479,
  "nodes": [
    3617404336,
    3617404337,
    3617404339,
    3617404338,
    3617404336
  ],
  "tags": {
    "access": "yes",
    "addr:city": "Tata",
    "addr:country": "HU",
    "addr:housename": "Csillagda",
    "addr:housenumber": "50",
    "addr:postcode": "2890",
    "addr:street": "Eötvös József utca",
    "building": "yes",
    "building:levels": "2",
    "height": "9",
    "tourism": "museum"
  }
},
{
  "type": "way",
  "id": 395056819,
  "nodes": [
    3979418566,
    3979418567,
    3979418568,
    3979418569,
    3979418566
  ],
  "tags": {
    "addr:city": "Győr",
    "addr:housenumber": "22",
    "addr:postcode": "9011",
    "addr:street": "Ősi utca",
    "addr:suburb": "Győrszentiván",
    "building": "yes",
    "name": "Kincseház-Tájház",
    "tourism": "museum"
  }
},
{
  "type": "way",
  "id": 447917394,
  "nodes": [
    4449733529,
    4449733528,
    4449733526,
    4449733527,
    4449733529
  ],
  "tags": {
    "building": "public",
    "fixme": "survey building geometry, entrance, opening time; rebuilt @2016-09-30, satellite imagery is outdated!",
    "name": "Lábatlani Cementgyári Emlékház és Tudásközpont",
    "toilets:wheelchair": "no",
    "tourism": "museum",
    "wheelchair": "yes"
  }
},
{
  "type": "way",
  "id": 492837066,
  "nodes": [
    4848071824,
    4848071825,
    4848071826,
    4848071827,
    4848071828,
    4848071829,
    4848071824
  ],
  "tags": {
    "addr:postcode": "2890",
    "addr:street": "Kodály Zoltán tér",
    "building": "yes",
    "name": "Czégényi malom",
    "tourism": "museum"
  }
},
{
  "type": "way",
  "id": 538208511,
  "nodes": [
    5210084185,
    5210084182,
    5210084183,
    5210084184,
    5210084185
  ],
  "tags": {
    "addr:city": "Vének",
    "addr:street": "Petőfi utca",
    "building": "house",
    "name": "Bangha ház",
    "tourism": "museum"
  }
},
{
  "type": "way",
  "id": 633727960,
  "nodes": [
    5981904199,
    5981904198,
    5981904197,
    5981904196,
    5981904199
  ],
  "tags": {
    "building": "yes",
    "name": "Tájház",
    "tourism": "museum"
  }
},
{
  "type": "way",
  "id": 723109475,
  "nodes": [
    6782522663,
    6782522662,
    6782522661,
    6782522660,
    6782522659,
    6782522658,
    6782522657,
    6782522656,
    6782522655,
    6782522654,
    6782522653,
    6782522652,
    6782522651,
    6782522663
  ],
  "tags": {
    "access": "yes",
    "addr:city": "Tata",
    "addr:country": "HU",
    "addr:housename": "Csillagda",
    "addr:housenumber": "50",
    "addr:postcode": "2890",
    "addr:street": "Eötvös József utca",
    "building:part": "dome",
    "ele": "120",
    "fee": "no",
    "height": "10",
    "man_made": "telescope",
    "material": "metal",
    "name": "TIT Posztoczky Károly Csillagvizsgáló és Múzeum",
    "observatory:type": "astronomical",
    "opening_hours": "Fr 18:00-22:00",
    "operator": "TIT Komárom-Esztergom Megyei Egyesület",
    "roof:colour": "white",
    "roof:height": "13",
    "roof:shape": "dome",
    "telescope:type": "optical",
    "tourism": "museum",
    "url": "https://www.mcse.hu/helyi-csoportok/tata/",
    "website": "http://www.titkom.hu/tataicsillagda.html"
  }
},
{
  "type": "way",
  "id": 747459334,
  "nodes": [
    6993983105,
    6993983106,
    6993983107,
    6993983108,
    6993983105
  ],
  "tags": {
    "addr:city": "Dad",
    "addr:country": "HU",
    "addr:postcode": "2854",
    "addr:street": "Dózsa György út",
    "building": "house",
    "building:levels": "1",
    "name": "Tájház",
    "roof:colour": "#000000",
    "roof:material": "thatch",
    "roof:shape": "hipped",
    "tourism": "museum"
  }
},
{
  "type": "node",
  "id": 3979418566,
  "lat": 47.7015281,
  "lon": 17.7369083
},
{
  "type": "node",
  "id": 3979418567,
  "lat": 47.7013764,
  "lon": 17.7366450
},
{
  "type": "node",
  "id": 3979418568,
  "lat": 47.7013317,
  "lon": 17.7367001
},
{
  "type": "node",
  "id": 3979418569,
  "lat": 47.7014887,
  "lon": 17.7369628
},
{
  "type": "node",
  "id": 5210084182,
  "lat": 47.7391236,
  "lon": 17.7590466
},
{
  "type": "node",
  "id": 5210084183,
  "lat": 47.7388791,
  "lon": 17.7590828
},
{
  "type": "node",
  "id": 5210084184,
  "lat": 47.7388724,
  "lon": 17.7589823
},
{
  "type": "node",
  "id": 5210084185,
  "lat": 47.7391168,
  "lon": 17.7589461
},
{
  "type": "node",
  "id": 6993983105,
  "lat": 47.5159838,
  "lon": 18.2258734
},
{
  "type": "node",
  "id": 6993983106,
  "lat": 47.5159264,
  "lon": 18.2258139
},
{
  "type": "node",
  "id": 6993983107,
  "lat": 47.5158393,
  "lon": 18.2259980
},
{
  "type": "node",
  "id": 6993983108,
  "lat": 47.5158968,
  "lon": 18.2260576
},
{
  "type": "node",
  "id": 3450979648,
  "lat": 47.6095668,
  "lon": 18.2120191
},
{
  "type": "node",
  "id": 3450979649,
  "lat": 47.6095672,
  "lon": 18.2119572
},
{
  "type": "node",
  "id": 3450979650,
  "lat": 47.6095673,
  "lon": 18.2123342
},
{
  "type": "node",
  "id": 3450979651,
  "lat": 47.6095678,
  "lon": 18.2122616
},
{
  "type": "node",
  "id": 3450979653,
  "lat": 47.6095789,
  "lon": 18.2120193
},
{
  "type": "node",
  "id": 3450979654,
  "lat": 47.6095926,
  "lon": 18.2122619
},
{
  "type": "node",
  "id": 3450979655,
  "lat": 47.6095943,
  "lon": 18.2120195
},
{
  "type": "node",
  "id": 3450979656,
  "lat": 47.6095947,
  "lon": 18.2119576
},
{
  "type": "node",
  "id": 3450979657,
  "lat": 47.6095951,
  "lon": 18.2119116
},
{
  "type": "node",
  "id": 3450979658,
  "lat": 47.6096454,
  "lon": 18.2123354
},
{
  "type": "node",
  "id": 3450979659,
  "lat": 47.6096484,
  "lon": 18.2119124
},
{
  "type": "node",
  "id": 2506830079,
  "lat": 47.5620570,
  "lon": 18.3943612
},
{
  "type": "node",
  "id": 2506830080,
  "lat": 47.5619377,
  "lon": 18.3938222
},
{
  "type": "node",
  "id": 2506830081,
  "lat": 47.5614547,
  "lon": 18.3940696
},
{
  "type": "node",
  "id": 2506830082,
  "lat": 47.5615919,
  "lon": 18.3946351
},
{
  "type": "node",
  "id": 2506830083,
  "lat": 47.5621586,
  "lon": 18.3948068
},
{
  "type": "node",
  "id": 2506830084,
  "lat": 47.5619137,
  "lon": 18.3950917
},
{
  "type": "node",
  "id": 2506830085,
  "lat": 47.5617588,
  "lon": 18.3945468
},
{
  "type": "node",
  "id": 2506830086,
  "lat": 47.5605365,
  "lon": 18.3950151
},
{
  "type": "node",
  "id": 2506830087,
  "lat": 47.5604590,
  "lon": 18.3939194
},
{
  "type": "node",
  "id": 2506830088,
  "lat": 47.5602622,
  "lon": 18.3943082
},
{
  "type": "node",
  "id": 2506830089,
  "lat": 47.5603397,
  "lon": 18.3940696
},
{
  "type": "node",
  "id": 2506830090,
  "lat": 47.5603457,
  "lon": 18.3946528
},
{
  "type": "node",
  "id": 2506830091,
  "lat": 47.5613422,
  "lon": 18.3933422
},
{
  "type": "node",
  "id": 3148318053,
  "lat": 47.5621406,
  "lon": 18.3949213
},
{
  "type": "node",
  "id": 2370919920,
  "lat": 47.5749311,
  "lon": 18.3835127
},
{
  "type": "node",
  "id": 2370919922,
  "lat": 47.5749765,
  "lon": 18.3836077
},
{
  "type": "node",
  "id": 2370919925,
  "lat": 47.5751486,
  "lon": 18.3834412
},
{
  "type": "node",
  "id": 2370919935,
  "lat": 47.5750963,
  "lon": 18.3833572
},
{
  "type": "node",
  "id": 2370919938,
  "lat": 47.5750539,
  "lon": 18.3837340
},
{
  "type": "node",
  "id": 2370919940,
  "lat": 47.5751109,
  "lon": 18.3836560
},
{
  "type": "node",
  "id": 2370919941,
  "lat": 47.5750993,
  "lon": 18.3835084
},
{
  "type": "node",
  "id": 2370919942,
  "lat": 47.5751127,
  "lon": 18.3835298
},
{
  "type": "node",
  "id": 2370919945,
  "lat": 47.5750693,
  "lon": 18.3835891
},
{
  "type": "node",
  "id": 2805078721,
  "lat": 47.6719239,
  "lon": 18.1827717
},
{
  "type": "node",
  "id": 2805078729,
  "lat": 47.6719829,
  "lon": 18.1827014
},
{
  "type": "node",
  "id": 2805078733,
  "lat": 47.6720164,
  "lon": 18.1829430
},
{
  "type": "node",
  "id": 2805078737,
  "lat": 47.6720333,
  "lon": 18.1829228
},
{
  "type": "node",
  "id": 2805078743,
  "lat": 47.6720841,
  "lon": 18.1830167
},
{
  "type": "node",
  "id": 2805078748,
  "lat": 47.6721262,
  "lon": 18.1829665
},
{
  "type": "node",
  "id": 852595509,
  "lat": 47.7495544,
  "lon": 18.2233246
},
{
  "type": "node",
  "id": 852595510,
  "lat": 47.7496199,
  "lon": 18.2233618
},
{
  "type": "node",
  "id": 852595513,
  "lat": 47.7496041,
  "lon": 18.2234220
},
{
  "type": "node",
  "id": 852595515,
  "lat": 47.7495353,
  "lon": 18.2233838
},
{
  "type": "node",
  "id": 852595516,
  "lat": 47.7494941,
  "lon": 18.2235460
},
{
  "type": "node",
  "id": 852595518,
  "lat": 47.7494754,
  "lon": 18.2235360
},
{
  "type": "node",
  "id": 852595520,
  "lat": 47.7494551,
  "lon": 18.2236138
},
{
  "type": "node",
  "id": 852595521,
  "lat": 47.7493711,
  "lon": 18.2235657
},
{
  "type": "node",
  "id": 852595523,
  "lat": 47.7494483,
  "lon": 18.2232649
},
{
  "type": "node",
  "id": 1978459005,
  "lat": 47.6371626,
  "lon": 18.3167999
},
{
  "type": "node",
  "id": 1978459009,
  "lat": 47.6375603,
  "lon": 18.3155599
},
{
  "type": "node",
  "id": 1978459013,
  "lat": 47.6378444,
  "lon": 18.3158029
},
{
  "type": "node",
  "id": 1978459018,
  "lat": 47.6380814,
  "lon": 18.3156439
},
{
  "type": "node",
  "id": 1978459026,
  "lat": 47.6384468,
  "lon": 18.3156270
},
{
  "type": "node",
  "id": 1978459092,
  "lat": 47.6390844,
  "lon": 18.3170926
},
{
  "type": "node",
  "id": 6689487078,
  "lat": 47.6387675,
  "lon": 18.3157271
},
{
  "type": "node",
  "id": 6697209075,
  "lat": 47.6389426,
  "lon": 18.3164818
},
{
  "type": "node",
  "id": 1978459021,
  "lat": 47.6385095,
  "lon": 18.3188386
},
{
  "type": "node",
  "id": 1978459083,
  "lat": 47.6390510,
  "lon": 18.3175886
},
{
  "type": "node",
  "id": 3617404336,
  "lat": 47.6406425,
  "lon": 18.3195613
},
{
  "type": "node",
  "id": 3617404337,
  "lat": 47.6406425,
  "lon": 18.3196966
},
{
  "type": "node",
  "id": 3617404338,
  "lat": 47.6407792,
  "lon": 18.3195613
},
{
  "type": "node",
  "id": 3617404339,
  "lat": 47.6407792,
  "lon": 18.3196966
},
{
  "type": "node",
  "id": 6782522651,
  "lat": 47.6406663,
  "lon": 18.3196145
},
{
  "type": "node",
  "id": 6782522652,
  "lat": 47.6406729,
  "lon": 18.3196005
},
{
  "type": "node",
  "id": 6782522653,
  "lat": 47.6406832,
  "lon": 18.3195927
},
{
  "type": "node",
  "id": 6782522654,
  "lat": 47.6406948,
  "lon": 18.3195929
},
{
  "type": "node",
  "id": 6782522655,
  "lat": 47.6407050,
  "lon": 18.3196010
},
{
  "type": "node",
  "id": 6782522656,
  "lat": 47.6407115,
  "lon": 18.3196152
},
{
  "type": "node",
  "id": 6782522657,
  "lat": 47.6407127,
  "lon": 18.3196323
},
{
  "type": "node",
  "id": 6782522658,
  "lat": 47.6407085,
  "lon": 18.3196483
},
{
  "type": "node",
  "id": 6782522659,
  "lat": 47.6406998,
  "lon": 18.3196595
},
{
  "type": "node",
  "id": 6782522660,
  "lat": 47.6406885,
  "lon": 18.3196634
},
{
  "type": "node",
  "id": 6782522661,
  "lat": 47.6406773,
  "lon": 18.3196592
},
{
  "type": "node",
  "id": 6782522662,
  "lat": 47.6406688,
  "lon": 18.3196477
},
{
  "type": "node",
  "id": 6782522663,
  "lat": 47.6406648,
  "lon": 18.3196315
},
{
  "type": "node",
  "id": 1209788338,
  "lat": 47.6488780,
  "lon": 18.3193655
},
{
  "type": "node",
  "id": 1209788392,
  "lat": 47.6489663,
  "lon": 18.3194074
},
{
  "type": "node",
  "id": 1209788426,
  "lat": 47.6486125,
  "lon": 18.3193354
},
{
  "type": "node",
  "id": 1209788495,
  "lat": 47.6488976,
  "lon": 18.3193281
},
{
  "type": "node",
  "id": 1209788592,
  "lat": 47.6487027,
  "lon": 18.3191632
},
{
  "type": "node",
  "id": 1209788676,
  "lat": 47.6488588,
  "lon": 18.3196127
},
{
  "type": "node",
  "id": 2508130985,
  "lat": 47.6485958,
  "lon": 18.3191554
},
{
  "type": "node",
  "id": 2508130993,
  "lat": 47.6486538,
  "lon": 18.3193830
},
{
  "type": "node",
  "id": 2508130997,
  "lat": 47.6486650,
  "lon": 18.3192353
},
{
  "type": "node",
  "id": 2508130999,
  "lat": 47.6486708,
  "lon": 18.3193504
},
{
  "type": "node",
  "id": 2508131004,
  "lat": 47.6486751,
  "lon": 18.3190038
},
{
  "type": "node",
  "id": 2508131006,
  "lat": 47.6487444,
  "lon": 18.3190837
},
{
  "type": "node",
  "id": 2508131010,
  "lat": 47.6487883,
  "lon": 18.3195313
},
{
  "type": "node",
  "id": 2508131012,
  "lat": 47.6488031,
  "lon": 18.3195031
},
{
  "type": "node",
  "id": 2508131034,
  "lat": 47.6489122,
  "lon": 18.3195107
},
{
  "type": "node",
  "id": 4848071824,
  "lat": 47.6481983,
  "lon": 18.3274631
},
{
  "type": "node",
  "id": 4848071825,
  "lat": 47.6482424,
  "lon": 18.3273549
},
{
  "type": "node",
  "id": 4848071826,
  "lat": 47.6482610,
  "lon": 18.3272448
},
{
  "type": "node",
  "id": 4848071827,
  "lat": 47.6481370,
  "lon": 18.3271335
},
{
  "type": "node",
  "id": 4848071828,
  "lat": 47.6480551,
  "lon": 18.3273345
},
{
  "type": "node",
  "id": 4848071829,
  "lat": 47.6481215,
  "lon": 18.3273941
},
{
  "type": "node",
  "id": 3170217771,
  "lat": 47.6633250,
  "lon": 18.4489919
},
{
  "type": "node",
  "id": 3170217772,
  "lat": 47.6634045,
  "lon": 18.4490980
},
{
  "type": "node",
  "id": 3170217773,
  "lat": 47.6634253,
  "lon": 18.4488260
},
{
  "type": "node",
  "id": 3170217774,
  "lat": 47.6634583,
  "lon": 18.4490092
},
{
  "type": "node",
  "id": 3170217775,
  "lat": 47.6635170,
  "lon": 18.4490875
},
{
  "type": "node",
  "id": 3170217776,
  "lat": 47.6635636,
  "lon": 18.4490104
},
{
  "type": "node",
  "id": 5981904196,
  "lat": 47.7047397,
  "lon": 18.3815590
},
{
  "type": "node",
  "id": 5981904197,
  "lat": 47.7046842,
  "lon": 18.3815789
},
{
  "type": "node",
  "id": 5981904198,
  "lat": 47.7046506,
  "lon": 18.3813717
},
{
  "type": "node",
  "id": 5981904199,
  "lat": 47.7047061,
  "lon": 18.3813519
},
{
  "type": "node",
  "id": 851429908,
  "lat": 47.8098123,
  "lon": 18.4417468
},
{
  "type": "node",
  "id": 851429909,
  "lat": 47.8098529,
  "lon": 18.4418260
},
{
  "type": "node",
  "id": 851429903,
  "lat": 47.8095398,
  "lon": 18.4421767
},
{
  "type": "node",
  "id": 851429904,
  "lat": 47.8094965,
  "lon": 18.4421089
},
{
  "type": "node",
  "id": 852460183,
  "lat": 47.9324271,
  "lon": 17.7121754
},
{
  "type": "node",
  "id": 852460184,
  "lat": 47.9324080,
  "lon": 17.7121057
},
{
  "type": "node",
  "id": 852460185,
  "lat": 47.9325709,
  "lon": 17.7120024
},
{
  "type": "node",
  "id": 852460186,
  "lat": 47.9325897,
  "lon": 17.7120671
},
{
  "type": "node",
  "id": 3349300933,
  "lat": 47.9267502,
  "lon": 17.9801810
},
{
  "type": "node",
  "id": 3349300934,
  "lat": 47.9267948,
  "lon": 17.9802389
},
{
  "type": "node",
  "id": 3349300935,
  "lat": 47.9269125,
  "lon": 17.9799025
},
{
  "type": "node",
  "id": 3349300936,
  "lat": 47.9269571,
  "lon": 17.9799604
},
{
  "type": "node",
  "id": 3130359868,
  "lat": 47.9205921,
  "lon": 18.0017152
},
{
  "type": "node",
  "id": 3130359869,
  "lat": 47.9205411,
  "lon": 18.0018072
},
{
  "type": "node",
  "id": 3130359870,
  "lat": 47.9204533,
  "lon": 18.0016851
},
{
  "type": "node",
  "id": 3130359871,
  "lat": 47.9205031,
  "lon": 18.0015949
},
{
  "type": "node",
  "id": 1606838046,
  "lat": 47.6255581,
  "lon": 18.4580209
},
{
  "type": "node",
  "id": 1606838120,
  "lat": 47.6255199,
  "lon": 18.4580703
},
{
  "type": "node",
  "id": 1606838202,
  "lat": 47.6256813,
  "lon": 18.4583455
},
{
  "type": "node",
  "id": 1606838299,
  "lat": 47.6257196,
  "lon": 18.4582961
},
{
  "type": "node",
  "id": 4449733526,
  "lat": 47.7498533,
  "lon": 18.4838633
},
{
  "type": "node",
  "id": 4449733527,
  "lat": 47.7498939,
  "lon": 18.4836689
},
{
  "type": "node",
  "id": 4449733528,
  "lat": 47.7500904,
  "lon": 18.4839773
},
{
  "type": "node",
  "id": 4449733529,
  "lat": 47.7501247,
  "lon": 18.4837721
}

  ]
}
