{
  "version": 0.6,
  "generator": "Overpass API 0.7.55.9 ab41fea6",
  "osm3s": {
    "timestamp_osm_base": "2020-02-14T18:19:02Z",
    "copyright": "The data included in this document is from www.openstreetmap.org. The data is made available under ODbL."
  },
  "elements": [

{
  "type": "node",
  "id": 26999482,
  "lat": 60.4538045,
  "lon": 22.2787331,
  "tags": {
    "is_in": "Turku",
    "name": "Ett Hem",
    "name:ru": "Музей Ett Hem",
    "tourism": "museum",
    "wikidata": "Q4165181"
  }
},
{
  "type": "node",
  "id": 26999484,
  "lat": 60.4485288,
  "lon": 22.2678666,
  "tags": {
    "name": "Apteekkimuseo",
    "name:en": "Pharmacy museum",
    "name:fi": "Apteekkimuseo",
    "name:ru": "Музей-аптека",
    "name:sv": "Apotekmuseum",
    "opening_hours": "Mo-Su 10:00-21:00",
    "tourism": "museum",
    "wikidata": "Q4306032"
  }
},
{
  "type": "node",
  "id": 684762936,
  "lat": 60.4320800,
  "lon": 22.4687781,
  "tags": {
    "name": "Pukkilan kartanomuseo",
    "tourism": "museum"
  }
},
{
  "type": "node",
  "id": 708995049,
  "lat": 60.2954217,
  "lon": 22.2911911,
  "tags": {
    "tourism": "museum"
  }
},
{
  "type": "node",
  "id": 1188099500,
  "lat": 60.4462911,
  "lon": 22.7642069,
  "tags": {
    "name": "Turvemuseo",
    "tourism": "museum"
  }
},
{
  "type": "node",
  "id": 1344422558,
  "lat": 60.4412757,
  "lon": 22.2752915,
  "tags": {
    "name": "Terveydenhuoltomuseo",
    "tourism": "museum"
  }
},
{
  "type": "node",
  "id": 1351802496,
  "lat": 60.5666597,
  "lon": 22.8089143,
  "tags": {
    "name": "Nostalgia Museo",
    "tourism": "museum"
  }
},
{
  "type": "node",
  "id": 1601323407,
  "lat": 60.3035532,
  "lon": 22.2214217,
  "tags": {
    "name": "Skyttala museum",
    "tourism": "museum"
  }
},
{
  "type": "node",
  "id": 3231742509,
  "lat": 60.4351599,
  "lon": 22.2338543,
  "tags": {
    "name": "Forum Marinum, S/S Bore",
    "tourism": "museum"
  }
},
{
  "type": "node",
  "id": 3496902661,
  "lat": 60.5918212,
  "lon": 22.3820729,
  "tags": {
    "name": "Paattisten kotiseutumuseo",
    "tourism": "museum"
  }
},
{
  "type": "node",
  "id": 4295762863,
  "lat": 60.1696445,
  "lon": 22.7443925,
  "tags": {
    "name": "Kyrkomuseum",
    "tourism": "museum"
  }
},
{
  "type": "node",
  "id": 4333539489,
  "lat": 60.4846599,
  "lon": 21.9813714,
  "tags": {
    "name": "Väski Adventure Island",
    "tourism": "museum",
    "website": "http://en.vaski.fi"
  }
},
{
  "type": "node",
  "id": 4349980390,
  "lat": 60.4523236,
  "lon": 22.2782402,
  "tags": {
    "name": "Turun tuomiokirkkomuseo",
    "name:fi": "Turun tuomiokirkkomuseo",
    "name:sv": "Åbo domkyrkomuseum",
    "opening_hours": "Mo-Su 09:00-19:00",
    "subject": "history",
    "tourism": "museum",
    "website": "https://www.turunseurakunnat.fi/kirkot-ja-kappelit/turun-tuomiokirkko/tuomiokirkkomuseo"
  }
},
{
  "type": "node",
  "id": 5155782010,
  "lat": 60.4148489,
  "lon": 22.8742201,
  "tags": {
    "tourism": "museum"
  }
},
{
  "type": "node",
  "id": 5980827814,
  "lat": 60.5403079,
  "lon": 22.2210188,
  "tags": {
    "description": "The municipal archives of Rusko Heritage Society. The archives can be accessed when the library is open. The archives are open to all who wish to see them.",
    "name": "Kotiseutuarkisto",
    "operator": "Rusko-seura",
    "tourism": "museum",
    "website": "https://www.rusko-seura.fi/index.php?sivu=arkisto"
  }
},
{
  "type": "node",
  "id": 6366948191,
  "lat": 60.4485423,
  "lon": 22.2676001,
  "tags": {
    "name:en": "Qwensel house",
    "tourism": "museum"
  }
},
{
  "type": "node",
  "id": 7195012453,
  "lat": 60.4500071,
  "lon": 22.2334694,
  "tags": {
    "entrance": "yes",
    "museum": "military",
    "name": "SA-INT Maanpuolustusmuseo",
    "opening_hours": "We-Mo 12:00-17:00",
    "tourism": "museum",
    "website": "https://maanpuolustusmuseo.wordpress.com/aukioloajat-ja-hinnat/"
  }
},
{
  "type": "way",
  "id": 23370367,
  "nodes": [
    253045842,
    1026049706,
    1026049617,
    253045843,
    1026049730,
    1026049639,
    253045844,
    5531060948,
    5531060947,
    5531060949,
    253045845,
    1026049640,
    1026049625,
    1026049702,
    1026049700,
    1026049619,
    1026049622,
    253045842
  ],
  "tags": {
    "addr:city": "Turku",
    "addr:housenumber": "38",
    "addr:postcode": "20101",
    "addr:street": "Itäinen Rantakatu",
    "building": "yes",
    "loc_name": "WAM",
    "name": "Wäinö Aaltosen museo",
    "name:en": "Wäinö Aaltonen Museum of Art",
    "name:fi": "Wäinö Aaltosen museo",
    "name:ru": "Музей Вяйне Аалтонена",
    "name:sv": "Wäinö Aaltonens museum",
    "tourism": "museum",
    "website": "http://www.wam.fi/",
    "wikidata": "Q3019261",
    "wikipedia": "fi:Wäinö Aaltosen museo"
  }
},
{
  "type": "way",
  "id": 27312132,
  "nodes": [
    4753760775,
    1214859104,
    4753760769,
    299803207,
    5580668152,
    4753760775
  ],
  "tags": {
    "addr:city": "Turku",
    "addr:housenumber": "17",
    "addr:postcode": "20500",
    "addr:street": "Piispankatu",
    "building": "university",
    "name": "Sibeliusmuseum",
    "name:fi": "Sibeliusmuseo",
    "name:ru": "Музей музыки Яна Сибелиуса",
    "name:sv": "Sibeliusmuseum",
    "opening_hours": "Tu, Th-Su 11:00-16:00; We 10:00-18:00",
    "tourism": "museum",
    "website": "http://www.sibeliusmuseum.abo.fi/",
    "wikidata": "Q4306382"
  }
},
{
  "type": "way",
  "id": 87787832,
  "nodes": [
    1020622544,
    1020621541,
    1020622835,
    1020620953,
    1020622183,
    1020623186,
    1020621400,
    1020622612,
    1020624004,
    1020621335,
    1020622489,
    1020623770,
    1020622544
  ],
  "tags": {
    "addr:housenumber": "577",
    "addr:postcode": "21620",
    "addr:street": "Linnanrauniontie",
    "building": "yes",
    "name": "Kuusiston kartano",
    "tourism": "museum"
  }
},
{
  "type": "way",
  "id": 88333824,
  "nodes": [
    1026049636,
    1026049713,
    1026049650,
    1026049578,
    1026049636
  ],
  "tags": {
    "building": "retail",
    "name": "Turun biologinen museo",
    "name:fi": "Turun biologinen museo",
    "name:ru": "Биологический музей",
    "name:sv": "Åbo biologiska museum",
    "opening_hours": "Tu-Su 09:00-17:00",
    "tourism": "museum",
    "website": "https://www.turku.fi/biologinenmuseo"
  }
},
{
  "type": "way",
  "id": 88509262,
  "nodes": [
    1028003774,
    2361296969,
    1028003962,
    1028004006,
    1028003785,
    1028003942,
    6440680837,
    6440680838,
    1028003789,
    6440680839,
    6440680840,
    6440680843,
    6440680842,
    6440680841,
    1028003960,
    1028003809,
    6440680845,
    6440680846,
    1028003992,
    1193534725,
    1028003846,
    2361296958,
    1839595943,
    1028003844,
    1028003964,
    1028003946,
    1028003961,
    6440680844,
    1028003774
  ],
  "tags": {
    "building": "yes",
    "historic": "archaeological_site",
    "historic_1": "museum",
    "museum": "art",
    "museum_1": "history",
    "name": "Aboa Vetus & Ars Nova",
    "name:ru": "Музей Aboa Vetus & Ars Nova",
    "opening_hours": "Mo-Su 11:00-19:00",
    "tourism": "museum",
    "wikidata": "Q3022430"
  }
},
{
  "type": "way",
  "id": 95168608,
  "nodes": [
    1104035669,
    1104035514,
    1104035844,
    1104035735,
    1104035669
  ],
  "tags": {
    "addr:unit": "13",
    "building": "yes",
    "name": "Lasarettimuseo",
    "tourism": "museum"
  }
},
{
  "type": "way",
  "id": 116540637,
  "nodes": [
    1313562773,
    1313562914,
    1313562840,
    1313562628,
    1313562627,
    1313562839,
    1313562520,
    1313562616,
    1313562773
  ],
  "tags": {
    "building": "yes",
    "tourism": "museum"
  }
},
{
  "type": "way",
  "id": 116540642,
  "nodes": [
    1313562623,
    1313562619,
    1313562569,
    1313562551,
    1313562549,
    1313562824,
    1313562562,
    1313562822,
    1313562623
  ],
  "tags": {
    "addr:city": "Turku",
    "addr:housenumber": "4",
    "addr:street": "Kalastajankatu",
    "alt_name": "Turun museokeskus",
    "building": "yes",
    "name": "Varsinais-Suomen maakuntamuseo",
    "name:fi": "Varsinais-Suomen maakuntamuseo",
    "name:sv": "Egentliga Finlands landskapsmuseum",
    "tourism": "museum"
  }
},
{
  "type": "way",
  "id": 116540646,
  "nodes": [
    1313563191,
    1313562585,
    1313562740,
    1313562738,
    1313563191
  ],
  "tags": {
    "building": "yes",
    "tourism": "museum"
  }
},
{
  "type": "way",
  "id": 128542869,
  "nodes": [
    1420329749,
    2523160706,
    2523160714,
    2523160712,
    1420329816,
    2523160744,
    2523160748,
    2523160751,
    2523160753,
    2523160754,
    2523160758,
    2523160752,
    1420329892,
    2523160743,
    2523160716,
    2523160705,
    2523160699,
    1420329848,
    1420329749
  ],
  "tags": {
    "name": "Hembygdsmuseum",
    "name:fi": "Kotiseutumuseo",
    "name:sv": "Hembygdsmuseum",
    "tourism": "museum"
  }
},
{
  "type": "way",
  "id": 150945719,
  "nodes": [
    1638054262,
    1638054826,
    1638054601,
    1638054702,
    1638054262
  ],
  "tags": {
    "addr:housenumber": "2B",
    "addr:street": "Fredrikaplanen",
    "name": "Fredrikastugan",
    "tourism": "museum"
  }
},
{
  "type": "way",
  "id": 170816546,
  "nodes": [
    1819545437,
    1819545473,
    1819545438,
    1819545442,
    1819545437
  ],
  "tags": {
    "addr:city": "Röölä",
    "addr:housename": "Dikseli",
    "addr:housenumber": "2",
    "addr:postcode": "21150",
    "addr:street": "Sillitie",
    "building": "yes",
    "name": "Silliperinnekeskus",
    "operator": "Rymättylä-seura ry.",
    "tourism": "museum",
    "website": "http://www.dikseli.fi/"
  }
},
{
  "type": "way",
  "id": 222173323,
  "nodes": [
    2311537664,
    2311537665,
    2311537666,
    2311537667,
    2311537664
  ],
  "tags": {
    "addr:housenumber": "10",
    "addr:street": "Monnoistentie",
    "building": "yes",
    "building:levels": "2",
    "name": "Kemppien tupa",
    "tourism": "museum",
    "wikidata": "Q18346719",
    "wikipedia": "fi:Kemppien tupa"
  }
},
{
  "type": "way",
  "id": 229578106,
  "nodes": [
    1038259945,
    724118214,
    724118233,
    724118337,
    6333183931,
    2381495940,
    6333183929,
    6333183928,
    6333183927,
    6333183926,
    2381495948,
    2381495950,
    2710948948,
    4687056568,
    4687056539,
    6490344708,
    4687056177,
    4687056514,
    2381495952,
    4687056510,
    4687056550,
    4687056543,
    4687056185,
    2381495946,
    2381495943,
    1038259945
  ],
  "tags": {
    "addr:city": "Turku",
    "addr:country": "FI",
    "addr:housenumber": "2",
    "addr:postcode": "20101",
    "addr:street": "Vartiovuorenkatu",
    "historic": "archeological_site",
    "loc_name": "Käsityöläismuseo",
    "name": "Luostarinmäen käsityöläismuseo",
    "name:en": "Luostarinmäki Handicrafts Museum",
    "name:fi": "Luostarinmäen käsityöläismuseo",
    "name:sv": "Hantverksmuseet på Klosterbacken",
    "phone": "+358-22620350",
    "tourism": "museum",
    "wikidata": "Q1979979",
    "wikipedia": "fi:Luostarinmäen käsityöläismuseo"
  }
},
{
  "type": "way",
  "id": 298307603,
  "nodes": [
    3022256126,
    3022256127,
    5983141201,
    3022256128,
    3022343425,
    3022256129,
    3022256126
  ],
  "tags": {
    "addr:city": "Lieto as",
    "addr:housenumber": "40",
    "addr:postcode": "21360",
    "addr:street": "Nautelankoskentie",
    "building": "yes",
    "fee": "no",
    "name": "Nautelankosken museo",
    "name:en": "Nautelankoski Museum",
    "opening_hours": "Mo-Su 12:00-17:00",
    "tourism": "museum"
  }
},
{
  "type": "way",
  "id": 342485753,
  "nodes": [
    3494810775,
    3494810752,
    3494810748,
    3494810763,
    3494810775
  ],
  "tags": {
    "building": "yes",
    "name": "Ruskon Esinemuseo",
    "tourism": "museum"
  }
},
{
  "type": "way",
  "id": 437198362,
  "nodes": [
    4350168348,
    4350168342,
    5745960662,
    5745960663,
    4350168339,
    4350168340,
    4350168341,
    4350168344,
    4350168346,
    4350168347,
    4350168348
  ],
  "tags": {
    "addr:housenumber": "4",
    "addr:street": "Halistentie",
    "building": "commercial",
    "name": "Turun vesilaitosmuseo",
    "name:fi": "Turun vesilaitosmuseo",
    "name:sv": "Åbo vattenverksmuseum",
    "operator": "Aurajokisäätiö",
    "phone": "+358 40 553 7409",
    "tourism": "museum",
    "website": "http://www.vesilaitosmuseo.fi/"
  }
},
{
  "type": "way",
  "id": 540690563,
  "nodes": [
    5526916671,
    5526916673,
    4154023667,
    3792707326,
    4154023666,
    4154023665,
    4154023664,
    4154023663,
    4154023662,
    4154023661,
    4154023660,
    4154023659,
    4154023657,
    5526916668,
    5526916670,
    5526916669,
    5526916671
  ],
  "tags": {
    "name": "Krookilan kotiseutukeskus",
    "tourism": "museum"
  }
},
{
  "type": "way",
  "id": 575330544,
  "nodes": [
    5520941657,
    5520941658,
    5520941659,
    5520941660,
    5520941661,
    5520941662,
    5520941663,
    5520941664,
    5520941665,
    5520941657
  ],
  "tags": {
    "addr:city": "Rusko",
    "addr:housenumber": "519",
    "addr:postcode": "21290",
    "addr:street": "Vahdontie",
    "building": "yes",
    "name": "Ketosen Torppa",
    "opening_hours": "Wed 13:00-18:00",
    "operator": "Rusko-seura",
    "tourism": "museum"
  }
},
{
  "type": "way",
  "id": 575954279,
  "nodes": [
    5525377580,
    5525377581,
    5525377582,
    5525377583,
    5525377584,
    5525377585,
    5525377586,
    5525377587,
    5525377580
  ],
  "tags": {
    "building": "yes",
    "name": "Rindellin Mäkitupamuseo",
    "tourism": "museum"
  }
},
{
  "type": "way",
  "id": 577022021,
  "nodes": [
    5532878093,
    5532878094,
    5532878095,
    5532878096,
    5532878093
  ],
  "tags": {
    "building": "yes",
    "name": "Sepän Paja",
    "tourism": "museum"
  }
},
{
  "type": "way",
  "id": 737669487,
  "nodes": [
    1294348478,
    678852485,
    6906711605,
    678852507,
    6906711606,
    6906711607,
    1150903868,
    1294347599,
    1150903888,
    1294347547,
    6906735865,
    6906735864,
    6906735863,
    6906735862,
    6906711623,
    6906711614,
    6906711613,
    6906711612,
    6906711611,
    6906711610,
    6906711609,
    1150904070,
    1150904076,
    1150904083,
    1150904087,
    1150904089,
    1150904093,
    1150904094,
    1150904136,
    1150904150,
    1150904151,
    1150904153,
    1150904156,
    1150904160,
    1150904165,
    1150904215,
    1150904219,
    1150904221,
    1150904223,
    1150904224,
    1150904234,
    1150904240,
    1150904249,
    6906711635,
    6906711634,
    6906711633,
    6906711632,
    6906711631,
    6906711630,
    6906711629,
    6906735861,
    6906711604,
    6906711603,
    6906711602,
    6906711601,
    6906711600,
    6906711599,
    1294347587,
    1294347514,
    1294347516,
    1294347681,
    1294347670,
    1294347564,
    1294347570,
    1294347649,
    1294347512,
    6906711592,
    6906711593,
    6906711594,
    6906711595,
    6906711596,
    6906711597,
    1294348464,
    1294348458,
    1294348451,
    1294348481,
    1294348475,
    1294348493,
    1294348460,
    1294348474,
    1294348498,
    1294348486,
    1294348478
  ],
  "tags": {
    "boundary": "protected_area",
    "landuse": "farmyard",
    "name": "Kuralan Kylämäki",
    "name:en": "Kurala Village of Living History",
    "name:fi": "Kuralan Kylämäki",
    "name:sv": "Kurala Bybacke",
    "operator:type": "public",
    "protect_class": "22",
    "tourism": "museum",
    "website": "https://www.turku.fi/kuralankylamaki",
    "wikidata": "Q11873640",
    "wikipedia": "fi:Kuralan Kylämäki"
  }
},
{
  "type": "relation",
  "id": 7626601,
  "members": [
    {
      "type": "way",
      "ref": 93976301,
      "role": "outer"
    },
    {
      "type": "way",
      "ref": 93976256,
      "role": "outer"
    }
  ],
  "tags": {
    "name": "Forum Marinum",
    "tourism": "museum",
    "type": "multipolygon",
    "website": "http://www.forum-marinum.fi/",
    "wheelchair": "yes",
    "wikidata": "Q3917218",
    "wikipedia": "fi:Forum Marinum"
  }
},
{
  "type": "node",
  "id": 1819545437,
  "lat": 60.3461902,
  "lon": 21.9568153
},
{
  "type": "node",
  "id": 1819545438,
  "lat": 60.3459368,
  "lon": 21.9571878
},
{
  "type": "node",
  "id": 1819545442,
  "lat": 60.3461694,
  "lon": 21.9572348
},
{
  "type": "node",
  "id": 1819545473,
  "lat": 60.3459575,
  "lon": 21.9567684
},
{
  "type": "node",
  "id": 1420329749,
  "lat": 60.2996077,
  "lon": 22.2974576
},
{
  "type": "node",
  "id": 1420329816,
  "lat": 60.3004029,
  "lon": 22.2967038
},
{
  "type": "node",
  "id": 1420329848,
  "lat": 60.2996726,
  "lon": 22.2980973
},
{
  "type": "node",
  "id": 1420329892,
  "lat": 60.3008462,
  "lon": 22.2979167
},
{
  "type": "node",
  "id": 2523160699,
  "lat": 60.2998802,
  "lon": 22.2979949
},
{
  "type": "node",
  "id": 2523160705,
  "lat": 60.2999015,
  "lon": 22.2984519
},
{
  "type": "node",
  "id": 2523160706,
  "lat": 60.2999142,
  "lon": 22.2972524
},
{
  "type": "node",
  "id": 2523160712,
  "lat": 60.2999823,
  "lon": 22.2968383
},
{
  "type": "node",
  "id": 2523160714,
  "lat": 60.3000025,
  "lon": 22.2970550
},
{
  "type": "node",
  "id": 2523160716,
  "lat": 60.3000450,
  "lon": 22.2984584
},
{
  "type": "node",
  "id": 2523160743,
  "lat": 60.3004692,
  "lon": 22.2982009
},
{
  "type": "node",
  "id": 2523160744,
  "lat": 60.3006861,
  "lon": 22.2971173
},
{
  "type": "node",
  "id": 2523160748,
  "lat": 60.3007562,
  "lon": 22.2971924
},
{
  "type": "node",
  "id": 2523160751,
  "lat": 60.3008392,
  "lon": 22.2972160
},
{
  "type": "node",
  "id": 2523160752,
  "lat": 60.3010465,
  "lon": 22.2978726
},
{
  "type": "node",
  "id": 2523160753,
  "lat": 60.3012825,
  "lon": 22.2971816
},
{
  "type": "node",
  "id": 2523160754,
  "lat": 60.3013378,
  "lon": 22.2973232
},
{
  "type": "node",
  "id": 2523160758,
  "lat": 60.3013962,
  "lon": 22.2975958
},
{
  "type": "node",
  "id": 1638054262,
  "lat": 60.3015227,
  "lon": 22.3086554
},
{
  "type": "node",
  "id": 1638054601,
  "lat": 60.3015684,
  "lon": 22.3089329
},
{
  "type": "node",
  "id": 1638054702,
  "lat": 60.3015778,
  "lon": 22.3086632
},
{
  "type": "node",
  "id": 1638054826,
  "lat": 60.3015133,
  "lon": 22.3089251
},
{
  "type": "node",
  "id": 1020620953,
  "lat": 60.4039889,
  "lon": 22.4666788
},
{
  "type": "node",
  "id": 1020621335,
  "lat": 60.4039609,
  "lon": 22.4664652
},
{
  "type": "node",
  "id": 1020621400,
  "lat": 60.4039676,
  "lon": 22.4665232
},
{
  "type": "node",
  "id": 1020621541,
  "lat": 60.4037493,
  "lon": 22.4663198
},
{
  "type": "node",
  "id": 1020622183,
  "lat": 60.4039722,
  "lon": 22.4666194
},
{
  "type": "node",
  "id": 1020622489,
  "lat": 60.4039315,
  "lon": 22.4663607
},
{
  "type": "node",
  "id": 1020622544,
  "lat": 60.4038519,
  "lon": 22.4662013
},
{
  "type": "node",
  "id": 1020622612,
  "lat": 60.4039483,
  "lon": 22.4665455
},
{
  "type": "node",
  "id": 1020622835,
  "lat": 60.4038844,
  "lon": 22.4667995
},
{
  "type": "node",
  "id": 1020623186,
  "lat": 60.4039892,
  "lon": 22.4665998
},
{
  "type": "node",
  "id": 1020623770,
  "lat": 60.4039053,
  "lon": 22.4663909
},
{
  "type": "node",
  "id": 1020624004,
  "lat": 60.4039343,
  "lon": 22.4664959
},
{
  "type": "node",
  "id": 2311537664,
  "lat": 60.5602436,
  "lon": 21.9756669
},
{
  "type": "node",
  "id": 2311537665,
  "lat": 60.5601821,
  "lon": 21.9757549
},
{
  "type": "node",
  "id": 2311537666,
  "lat": 60.5602271,
  "lon": 21.9758851
},
{
  "type": "node",
  "id": 2311537667,
  "lat": 60.5602886,
  "lon": 21.9757970
},
{
  "type": "node",
  "id": 4154023657,
  "lat": 60.4656075,
  "lon": 22.1374709
},
{
  "type": "node",
  "id": 4154023659,
  "lat": 60.4661424,
  "lon": 22.1377668
},
{
  "type": "node",
  "id": 5526916668,
  "lat": 60.4654433,
  "lon": 22.1373929
},
{
  "type": "node",
  "id": 5526916669,
  "lat": 60.4651926,
  "lon": 22.1375649
},
{
  "type": "node",
  "id": 5526916670,
  "lat": 60.4653211,
  "lon": 22.1374683
},
{
  "type": "node",
  "id": 5526916671,
  "lat": 60.4651102,
  "lon": 22.1377464
},
{
  "type": "node",
  "id": 5526916673,
  "lat": 60.4648258,
  "lon": 22.1380260
},
{
  "type": "node",
  "id": 3792707326,
  "lat": 60.4655458,
  "lon": 22.1396159
},
{
  "type": "node",
  "id": 4154023660,
  "lat": 60.4663161,
  "lon": 22.1383940
},
{
  "type": "node",
  "id": 4154023661,
  "lat": 60.4663708,
  "lon": 22.1391604
},
{
  "type": "node",
  "id": 4154023662,
  "lat": 60.4662397,
  "lon": 22.1394439
},
{
  "type": "node",
  "id": 4154023663,
  "lat": 60.4661112,
  "lon": 22.1395989
},
{
  "type": "node",
  "id": 4154023664,
  "lat": 60.4659375,
  "lon": 22.1397399
},
{
  "type": "node",
  "id": 4154023665,
  "lat": 60.4657638,
  "lon": 22.1398315
},
{
  "type": "node",
  "id": 4154023666,
  "lat": 60.4656318,
  "lon": 22.1397751
},
{
  "type": "node",
  "id": 4154023667,
  "lat": 60.4650381,
  "lon": 22.1398198
},
{
  "type": "node",
  "id": 3494810748,
  "lat": 60.5303052,
  "lon": 22.2118890
},
{
  "type": "node",
  "id": 3494810752,
  "lat": 60.5302576,
  "lon": 22.2118219
},
{
  "type": "node",
  "id": 3494810763,
  "lat": 60.5302650,
  "lon": 22.2120240
},
{
  "type": "node",
  "id": 3494810775,
  "lat": 60.5302155,
  "lon": 22.2119663
},
{
  "type": "node",
  "id": 5525377580,
  "lat": 60.5295995,
  "lon": 22.2108331
},
{
  "type": "node",
  "id": 5525377581,
  "lat": 60.5295534,
  "lon": 22.2109180
},
{
  "type": "node",
  "id": 5525377582,
  "lat": 60.5296744,
  "lon": 22.2111250
},
{
  "type": "node",
  "id": 5525377583,
  "lat": 60.5297197,
  "lon": 22.2110366
},
{
  "type": "node",
  "id": 5525377584,
  "lat": 60.5296570,
  "lon": 22.2109304
},
{
  "type": "node",
  "id": 5525377585,
  "lat": 60.5296622,
  "lon": 22.2109127
},
{
  "type": "node",
  "id": 5525377586,
  "lat": 60.5296335,
  "lon": 22.2108631
},
{
  "type": "node",
  "id": 5525377587,
  "lat": 60.5296265,
  "lon": 22.2108791
},
{
  "type": "node",
  "id": 5520941657,
  "lat": 60.5405421,
  "lon": 22.2221457
},
{
  "type": "node",
  "id": 5520941658,
  "lat": 60.5405457,
  "lon": 22.2220417
},
{
  "type": "node",
  "id": 5520941659,
  "lat": 60.5406492,
  "lon": 22.2220619
},
{
  "type": "node",
  "id": 5520941660,
  "lat": 60.5406433,
  "lon": 22.2222097
},
{
  "type": "node",
  "id": 5520941661,
  "lat": 60.5406061,
  "lon": 22.2222036
},
{
  "type": "node",
  "id": 5520941662,
  "lat": 60.5406076,
  "lon": 22.2221577
},
{
  "type": "node",
  "id": 5520941663,
  "lat": 60.5405805,
  "lon": 22.2221527
},
{
  "type": "node",
  "id": 5520941664,
  "lat": 60.5405775,
  "lon": 22.2221989
},
{
  "type": "node",
  "id": 5520941665,
  "lat": 60.5405396,
  "lon": 22.2221942
},
{
  "type": "node",
  "id": 5532878093,
  "lat": 60.5530711,
  "lon": 22.2099107
},
{
  "type": "node",
  "id": 5532878094,
  "lat": 60.5530225,
  "lon": 22.2099899
},
{
  "type": "node",
  "id": 5532878095,
  "lat": 60.5530731,
  "lon": 22.2101285
},
{
  "type": "node",
  "id": 5532878096,
  "lat": 60.5531178,
  "lon": 22.2100453
},
{
  "type": "node",
  "id": 1092462637,
  "lat": 60.4374002,
  "lon": 22.2360083
},
{
  "type": "node",
  "id": 1092462969,
  "lat": 60.4364063,
  "lon": 22.2335550
},
{
  "type": "node",
  "id": 1092463271,
  "lat": 60.4370004,
  "lon": 22.2352160
},
{
  "type": "node",
  "id": 1092463562,
  "lat": 60.4369162,
  "lon": 22.2350881
},
{
  "type": "node",
  "id": 1092463804,
  "lat": 60.4365655,
  "lon": 22.2333375
},
{
  "type": "node",
  "id": 1092464073,
  "lat": 60.4370753,
  "lon": 22.2348706
},
{
  "type": "node",
  "id": 1092464248,
  "lat": 60.4372659,
  "lon": 22.2355931
},
{
  "type": "node",
  "id": 1092464449,
  "lat": 60.4371655,
  "lon": 22.2357266
},
{
  "type": "node",
  "id": 1092464891,
  "lat": 60.4365946,
  "lon": 22.2357550
},
{
  "type": "node",
  "id": 1313562520,
  "lat": 60.4398672,
  "lon": 22.2334426
},
{
  "type": "node",
  "id": 1313562549,
  "lat": 60.4398498,
  "lon": 22.2331148
},
{
  "type": "node",
  "id": 1313562551,
  "lat": 60.4392583,
  "lon": 22.2330746
},
{
  "type": "node",
  "id": 1313562562,
  "lat": 60.4399278,
  "lon": 22.2332489
},
{
  "type": "node",
  "id": 1313562569,
  "lat": 60.4392583,
  "lon": 22.2327581
},
{
  "type": "node",
  "id": 1313562585,
  "lat": 60.4400297,
  "lon": 22.2337317
},
{
  "type": "node",
  "id": 1313562616,
  "lat": 60.4398425,
  "lon": 22.2334761
},
{
  "type": "node",
  "id": 1313562619,
  "lat": 60.4399851,
  "lon": 22.2327890
},
{
  "type": "node",
  "id": 1313562623,
  "lat": 60.4402004,
  "lon": 22.2334769
},
{
  "type": "node",
  "id": 1313562627,
  "lat": 60.4397020,
  "lon": 22.2333240
},
{
  "type": "node",
  "id": 1313562628,
  "lat": 60.4397243,
  "lon": 22.2333916
},
{
  "type": "node",
  "id": 1313562738,
  "lat": 60.4396844,
  "lon": 22.2339543
},
{
  "type": "node",
  "id": 1313562740,
  "lat": 60.4397452,
  "lon": 22.2341421
},
{
  "type": "node",
  "id": 1313562773,
  "lat": 60.4398784,
  "lon": 22.2335850
},
{
  "type": "node",
  "id": 1313562822,
  "lat": 60.4400668,
  "lon": 22.2336620
},
{
  "type": "node",
  "id": 1313562824,
  "lat": 60.4398908,
  "lon": 22.2332918
},
{
  "type": "node",
  "id": 1313562839,
  "lat": 60.4397892,
  "lon": 22.2332058
},
{
  "type": "node",
  "id": 1313562840,
  "lat": 60.4395757,
  "lon": 22.2335927
},
{
  "type": "node",
  "id": 1313562914,
  "lat": 60.4396674,
  "lon": 22.2338708
},
{
  "type": "node",
  "id": 1313563191,
  "lat": 60.4399768,
  "lon": 22.2335600
},
{
  "type": "node",
  "id": 1092462058,
  "lat": 60.4368940,
  "lon": 22.2366808
},
{
  "type": "node",
  "id": 253045842,
  "lat": 60.4449720,
  "lon": 22.2610165
},
{
  "type": "node",
  "id": 253045843,
  "lat": 60.4446632,
  "lon": 22.2599782
},
{
  "type": "node",
  "id": 253045844,
  "lat": 60.4449650,
  "lon": 22.2596504
},
{
  "type": "node",
  "id": 253045845,
  "lat": 60.4452413,
  "lon": 22.2605629
},
{
  "type": "node",
  "id": 1026049617,
  "lat": 60.4447612,
  "lon": 22.2602671
},
{
  "type": "node",
  "id": 1026049619,
  "lat": 60.4450397,
  "lon": 22.2610224
},
{
  "type": "node",
  "id": 1026049622,
  "lat": 60.4450159,
  "lon": 22.2609590
},
{
  "type": "node",
  "id": 1026049625,
  "lat": 60.4451627,
  "lon": 22.2607668
},
{
  "type": "node",
  "id": 1026049639,
  "lat": 60.4447905,
  "lon": 22.2599052
},
{
  "type": "node",
  "id": 1026049640,
  "lat": 60.4451344,
  "lon": 22.2607062
},
{
  "type": "node",
  "id": 1026049700,
  "lat": 60.4451243,
  "lon": 22.2609242
},
{
  "type": "node",
  "id": 1026049702,
  "lat": 60.4451047,
  "lon": 22.2608427
},
{
  "type": "node",
  "id": 1026049706,
  "lat": 60.4447407,
  "lon": 22.2603196
},
{
  "type": "node",
  "id": 1026049730,
  "lat": 60.4447623,
  "lon": 22.2598516
},
{
  "type": "node",
  "id": 5531060947,
  "lat": 60.4451702,
  "lon": 22.2603282
},
{
  "type": "node",
  "id": 5531060948,
  "lat": 60.4451124,
  "lon": 22.2601373
},
{
  "type": "node",
  "id": 5531060949,
  "lat": 60.4451888,
  "lon": 22.2603895
},
{
  "type": "node",
  "id": 1026049578,
  "lat": 60.4444477,
  "lon": 22.2644698
},
{
  "type": "node",
  "id": 1026049636,
  "lat": 60.4445756,
  "lon": 22.2642418
},
{
  "type": "node",
  "id": 1026049650,
  "lat": 60.4445376,
  "lon": 22.2647059
},
{
  "type": "node",
  "id": 1026049713,
  "lat": 60.4446726,
  "lon": 22.2644806
},
{
  "type": "node",
  "id": 724118214,
  "lat": 60.4466517,
  "lon": 22.2788475
},
{
  "type": "node",
  "id": 724118233,
  "lat": 60.4465120,
  "lon": 22.2789094
},
{
  "type": "node",
  "id": 724118337,
  "lat": 60.4460843,
  "lon": 22.2777306
},
{
  "type": "node",
  "id": 1038259945,
  "lat": 60.4467510,
  "lon": 22.2787205
},
{
  "type": "node",
  "id": 2381495940,
  "lat": 60.4469020,
  "lon": 22.2766473
},
{
  "type": "node",
  "id": 2381495943,
  "lat": 60.4471246,
  "lon": 22.2782701
},
{
  "type": "node",
  "id": 6333183927,
  "lat": 60.4470535,
  "lon": 22.2758286
},
{
  "type": "node",
  "id": 6333183928,
  "lat": 60.4468525,
  "lon": 22.2760998
},
{
  "type": "node",
  "id": 6333183929,
  "lat": 60.4469030,
  "lon": 22.2762745
},
{
  "type": "node",
  "id": 6333183931,
  "lat": 60.4466064,
  "lon": 22.2770977
},
{
  "type": "node",
  "id": 1028003774,
  "lat": 60.4493689,
  "lon": 22.2736389
},
{
  "type": "node",
  "id": 1028003785,
  "lat": 60.4496441,
  "lon": 22.2732379
},
{
  "type": "node",
  "id": 1028003789,
  "lat": 60.4497481,
  "lon": 22.2733388
},
{
  "type": "node",
  "id": 1028003809,
  "lat": 60.4499136,
  "lon": 22.2734062
},
{
  "type": "node",
  "id": 1028003844,
  "lat": 60.4497995,
  "lon": 22.2739882
},
{
  "type": "node",
  "id": 1028003846,
  "lat": 60.4498744,
  "lon": 22.2736537
},
{
  "type": "node",
  "id": 1028003942,
  "lat": 60.4496792,
  "lon": 22.2733482
},
{
  "type": "node",
  "id": 1028003946,
  "lat": 60.4495489,
  "lon": 22.2739560
},
{
  "type": "node",
  "id": 1028003960,
  "lat": 60.4498045,
  "lon": 22.2735469
},
{
  "type": "node",
  "id": 1028003961,
  "lat": 60.4495191,
  "lon": 22.2739003
},
{
  "type": "node",
  "id": 1028003962,
  "lat": 60.4495714,
  "lon": 22.2733840
},
{
  "type": "node",
  "id": 1028003964,
  "lat": 60.4496672,
  "lon": 22.2738622
},
{
  "type": "node",
  "id": 1028003992,
  "lat": 60.4500221,
  "lon": 22.2735115
},
{
  "type": "node",
  "id": 1028004006,
  "lat": 60.4495582,
  "lon": 22.2733411
},
{
  "type": "node",
  "id": 1193534725,
  "lat": 60.4499034,
  "lon": 22.2736686
},
{
  "type": "node",
  "id": 1839595943,
  "lat": 60.4498193,
  "lon": 22.2738999
},
{
  "type": "node",
  "id": 2361296958,
  "lat": 60.4498650,
  "lon": 22.2736959
},
{
  "type": "node",
  "id": 2361296969,
  "lat": 60.4494399,
  "lon": 22.2735495
},
{
  "type": "node",
  "id": 6440680837,
  "lat": 60.4497019,
  "lon": 22.2733289
},
{
  "type": "node",
  "id": 6440680838,
  "lat": 60.4497264,
  "lon": 22.2733263
},
{
  "type": "node",
  "id": 6440680839,
  "lat": 60.4497667,
  "lon": 22.2733643
},
{
  "type": "node",
  "id": 6440680840,
  "lat": 60.4497806,
  "lon": 22.2734003
},
{
  "type": "node",
  "id": 6440680841,
  "lat": 60.4497827,
  "lon": 22.2735327
},
{
  "type": "node",
  "id": 6440680842,
  "lat": 60.4497890,
  "lon": 22.2734888
},
{
  "type": "node",
  "id": 6440680843,
  "lat": 60.4497883,
  "lon": 22.2734432
},
{
  "type": "node",
  "id": 6440680844,
  "lat": 60.4494688,
  "lon": 22.2739520
},
{
  "type": "node",
  "id": 6440680845,
  "lat": 60.4499404,
  "lon": 22.2734890
},
{
  "type": "node",
  "id": 6440680846,
  "lat": 60.4499675,
  "lon": 22.2734560
},
{
  "type": "node",
  "id": 1214859104,
  "lat": 60.4535410,
  "lon": 22.2770433
},
{
  "type": "node",
  "id": 2381495946,
  "lat": 60.4471828,
  "lon": 22.2785151
},
{
  "type": "node",
  "id": 2381495948,
  "lat": 60.4472680,
  "lon": 22.2760399
},
{
  "type": "node",
  "id": 2381495950,
  "lat": 60.4475036,
  "lon": 22.2768746
},
{
  "type": "node",
  "id": 2381495952,
  "lat": 60.4475039,
  "lon": 22.2779968
},
{
  "type": "node",
  "id": 2710948948,
  "lat": 60.4474365,
  "lon": 22.2769657
},
{
  "type": "node",
  "id": 4687056177,
  "lat": 60.4474592,
  "lon": 22.2774354
},
{
  "type": "node",
  "id": 4687056185,
  "lat": 60.4471931,
  "lon": 22.2784962
},
{
  "type": "node",
  "id": 4687056510,
  "lat": 60.4474170,
  "lon": 22.2781585
},
{
  "type": "node",
  "id": 4687056514,
  "lat": 60.4474753,
  "lon": 22.2776351
},
{
  "type": "node",
  "id": 4687056539,
  "lat": 60.4474433,
  "lon": 22.2772079
},
{
  "type": "node",
  "id": 4687056543,
  "lat": 60.4473435,
  "lon": 22.2782933
},
{
  "type": "node",
  "id": 4687056550,
  "lat": 60.4473553,
  "lon": 22.2782762
},
{
  "type": "node",
  "id": 4687056568,
  "lat": 60.4474340,
  "lon": 22.2770996
},
{
  "type": "node",
  "id": 4753760775,
  "lat": 60.4534347,
  "lon": 22.2775290
},
{
  "type": "node",
  "id": 5580668152,
  "lat": 60.4536458,
  "lon": 22.2777190
},
{
  "type": "node",
  "id": 6333183926,
  "lat": 60.4471749,
  "lon": 22.2761736
},
{
  "type": "node",
  "id": 6490344708,
  "lat": 60.4474467,
  "lon": 22.2772824
},
{
  "type": "node",
  "id": 299803207,
  "lat": 60.4538569,
  "lon": 22.2779089
},
{
  "type": "node",
  "id": 4753760769,
  "lat": 60.4539632,
  "lon": 22.2774232
},
{
  "type": "node",
  "id": 1104035514,
  "lat": 60.4524911,
  "lon": 22.2883968
},
{
  "type": "node",
  "id": 1104035669,
  "lat": 60.4524340,
  "lon": 22.2882417
},
{
  "type": "node",
  "id": 1104035735,
  "lat": 60.4523737,
  "lon": 22.2883330
},
{
  "type": "node",
  "id": 1104035844,
  "lat": 60.4524308,
  "lon": 22.2884881
},
{
  "type": "node",
  "id": 4350168339,
  "lat": 60.4628238,
  "lon": 22.3054074
},
{
  "type": "node",
  "id": 4350168340,
  "lat": 60.4629129,
  "lon": 22.3055188
},
{
  "type": "node",
  "id": 4350168341,
  "lat": 60.4629786,
  "lon": 22.3055952
},
{
  "type": "node",
  "id": 4350168342,
  "lat": 60.4630053,
  "lon": 22.3048101
},
{
  "type": "node",
  "id": 4350168344,
  "lat": 60.4630810,
  "lon": 22.3057232
},
{
  "type": "node",
  "id": 4350168346,
  "lat": 60.4632046,
  "lon": 22.3053165
},
{
  "type": "node",
  "id": 4350168347,
  "lat": 60.4632473,
  "lon": 22.3053700
},
{
  "type": "node",
  "id": 4350168348,
  "lat": 60.4633040,
  "lon": 22.3051836
},
{
  "type": "node",
  "id": 5745960662,
  "lat": 60.4629623,
  "lon": 22.3049685
},
{
  "type": "node",
  "id": 5745960663,
  "lat": 60.4629032,
  "lon": 22.3051618
},
{
  "type": "node",
  "id": 678852485,
  "lat": 60.4637670,
  "lon": 22.3345181
},
{
  "type": "node",
  "id": 1294347512,
  "lat": 60.4620407,
  "lon": 22.3336280
},
{
  "type": "node",
  "id": 1294347564,
  "lat": 60.4621875,
  "lon": 22.3344488
},
{
  "type": "node",
  "id": 1294347570,
  "lat": 60.4621637,
  "lon": 22.3342503
},
{
  "type": "node",
  "id": 1294347649,
  "lat": 60.4621412,
  "lon": 22.3340920
},
{
  "type": "node",
  "id": 1294347670,
  "lat": 60.4621729,
  "lon": 22.3346070
},
{
  "type": "node",
  "id": 1294348451,
  "lat": 60.4630721,
  "lon": 22.3344166
},
{
  "type": "node",
  "id": 1294348458,
  "lat": 60.4629782,
  "lon": 22.3344488
},
{
  "type": "node",
  "id": 1294348464,
  "lat": 60.4629108,
  "lon": 22.3344488
},
{
  "type": "node",
  "id": 1294348475,
  "lat": 60.4631038,
  "lon": 22.3345829
},
{
  "type": "node",
  "id": 1294348478,
  "lat": 60.4637253,
  "lon": 22.3343844
},
{
  "type": "node",
  "id": 1294348481,
  "lat": 60.4630800,
  "lon": 22.3345158
},
{
  "type": "node",
  "id": 1294348486,
  "lat": 60.4635812,
  "lon": 22.3345400
},
{
  "type": "node",
  "id": 1294348498,
  "lat": 60.4635455,
  "lon": 22.3345453
},
{
  "type": "node",
  "id": 6906711592,
  "lat": 60.4621282,
  "lon": 22.3335971
},
{
  "type": "node",
  "id": 6906711593,
  "lat": 60.4622122,
  "lon": 22.3340320
},
{
  "type": "node",
  "id": 6906711594,
  "lat": 60.4623020,
  "lon": 22.3342759
},
{
  "type": "node",
  "id": 6906711595,
  "lat": 60.4623687,
  "lon": 22.3343669
},
{
  "type": "node",
  "id": 6906711596,
  "lat": 60.4625787,
  "lon": 22.3344316
},
{
  "type": "node",
  "id": 6906711597,
  "lat": 60.4627960,
  "lon": 22.3343787
},
{
  "type": "node",
  "id": 6906711601,
  "lat": 60.4616487,
  "lon": 22.3345315
},
{
  "type": "node",
  "id": 6906711602,
  "lat": 60.4615343,
  "lon": 22.3342200
},
{
  "type": "node",
  "id": 6906711603,
  "lat": 60.4614952,
  "lon": 22.3340379
},
{
  "type": "node",
  "id": 6906711604,
  "lat": 60.4614705,
  "lon": 22.3338939
},
{
  "type": "node",
  "id": 6906711629,
  "lat": 60.4607397,
  "lon": 22.3345293
},
{
  "type": "node",
  "id": 6906735861,
  "lat": 60.4611349,
  "lon": 22.3341322
},
{
  "type": "node",
  "id": 1150904224,
  "lat": 60.4600353,
  "lon": 22.3360065
},
{
  "type": "node",
  "id": 1150904234,
  "lat": 60.4598414,
  "lon": 22.3360661
},
{
  "type": "node",
  "id": 1150904240,
  "lat": 60.4597924,
  "lon": 22.3361058
},
{
  "type": "node",
  "id": 1150904249,
  "lat": 60.4597729,
  "lon": 22.3361257
},
{
  "type": "node",
  "id": 6906711635,
  "lat": 60.4597613,
  "lon": 22.3359478
},
{
  "type": "node",
  "id": 678852507,
  "lat": 60.4634771,
  "lon": 22.3349411
},
{
  "type": "node",
  "id": 1150903868,
  "lat": 60.4632846,
  "lon": 22.3359378
},
{
  "type": "node",
  "id": 1150903888,
  "lat": 60.4633049,
  "lon": 22.3377424
},
{
  "type": "node",
  "id": 1150904070,
  "lat": 60.4619330,
  "lon": 22.3381516
},
{
  "type": "node",
  "id": 1150904076,
  "lat": 60.4617097,
  "lon": 22.3377901
},
{
  "type": "node",
  "id": 1150904083,
  "lat": 60.4616020,
  "lon": 22.3376272
},
{
  "type": "node",
  "id": 1150904087,
  "lat": 60.4615198,
  "lon": 22.3375557
},
{
  "type": "node",
  "id": 1150904089,
  "lat": 60.4613749,
  "lon": 22.3375200
},
{
  "type": "node",
  "id": 1150904093,
  "lat": 60.4613004,
  "lon": 22.3374922
},
{
  "type": "node",
  "id": 1150904094,
  "lat": 60.4612397,
  "lon": 22.3374087
},
{
  "type": "node",
  "id": 1150904136,
  "lat": 60.4611790,
  "lon": 22.3372538
},
{
  "type": "node",
  "id": 1150904150,
  "lat": 60.4610537,
  "lon": 22.3367970
},
{
  "type": "node",
  "id": 1150904151,
  "lat": 60.4609989,
  "lon": 22.3365150
},
{
  "type": "node",
  "id": 1150904153,
  "lat": 60.4609656,
  "lon": 22.3364276
},
{
  "type": "node",
  "id": 1150904156,
  "lat": 60.4609303,
  "lon": 22.3363799
},
{
  "type": "node",
  "id": 1150904160,
  "lat": 60.4608716,
  "lon": 22.3363561
},
{
  "type": "node",
  "id": 1150904165,
  "lat": 60.4608167,
  "lon": 22.3363521
},
{
  "type": "node",
  "id": 1150904215,
  "lat": 60.4607893,
  "lon": 22.3363362
},
{
  "type": "node",
  "id": 1150904219,
  "lat": 60.4607658,
  "lon": 22.3363044
},
{
  "type": "node",
  "id": 1150904221,
  "lat": 60.4606209,
  "lon": 22.3359032
},
{
  "type": "node",
  "id": 1150904223,
  "lat": 60.4605778,
  "lon": 22.3358238
},
{
  "type": "node",
  "id": 1294347514,
  "lat": 60.4619746,
  "lon": 22.3349557
},
{
  "type": "node",
  "id": 1294347516,
  "lat": 60.4619997,
  "lon": 22.3349342
},
{
  "type": "node",
  "id": 1294347547,
  "lat": 60.4631025,
  "lon": 22.3382023
},
{
  "type": "node",
  "id": 1294347587,
  "lat": 60.4619230,
  "lon": 22.3347814
},
{
  "type": "node",
  "id": 1294347599,
  "lat": 60.4632265,
  "lon": 22.3371048
},
{
  "type": "node",
  "id": 1294347681,
  "lat": 60.4620922,
  "lon": 22.3348109
},
{
  "type": "node",
  "id": 1294348460,
  "lat": 60.4632228,
  "lon": 22.3346928
},
{
  "type": "node",
  "id": 1294348474,
  "lat": 60.4633405,
  "lon": 22.3346714
},
{
  "type": "node",
  "id": 1294348493,
  "lat": 60.4631858,
  "lon": 22.3346955
},
{
  "type": "node",
  "id": 6906711599,
  "lat": 60.4617559,
  "lon": 22.3348694
},
{
  "type": "node",
  "id": 6906711600,
  "lat": 60.4617501,
  "lon": 22.3346931
},
{
  "type": "node",
  "id": 6906711605,
  "lat": 60.4635146,
  "lon": 22.3347706
},
{
  "type": "node",
  "id": 6906711606,
  "lat": 60.4634957,
  "lon": 22.3350208
},
{
  "type": "node",
  "id": 6906711607,
  "lat": 60.4633557,
  "lon": 22.3355795
},
{
  "type": "node",
  "id": 6906711609,
  "lat": 60.4620380,
  "lon": 22.3382105
},
{
  "type": "node",
  "id": 6906711610,
  "lat": 60.4622953,
  "lon": 22.3382318
},
{
  "type": "node",
  "id": 6906711611,
  "lat": 60.4623474,
  "lon": 22.3387194
},
{
  "type": "node",
  "id": 6906711612,
  "lat": 60.4622172,
  "lon": 22.3388954
},
{
  "type": "node",
  "id": 6906711613,
  "lat": 60.4621600,
  "lon": 22.3392361
},
{
  "type": "node",
  "id": 6906711614,
  "lat": 60.4621731,
  "lon": 22.3395125
},
{
  "type": "node",
  "id": 6906711623,
  "lat": 60.4623359,
  "lon": 22.3395107
},
{
  "type": "node",
  "id": 6906711630,
  "lat": 60.4608594,
  "lon": 22.3351045
},
{
  "type": "node",
  "id": 6906711631,
  "lat": 60.4611362,
  "lon": 22.3349899
},
{
  "type": "node",
  "id": 6906711632,
  "lat": 60.4611057,
  "lon": 22.3354207
},
{
  "type": "node",
  "id": 6906711633,
  "lat": 60.4605838,
  "lon": 22.3356613
},
{
  "type": "node",
  "id": 6906711634,
  "lat": 60.4605815,
  "lon": 22.3357072
},
{
  "type": "node",
  "id": 6906735862,
  "lat": 60.4627005,
  "lon": 22.3389441
},
{
  "type": "node",
  "id": 6906735863,
  "lat": 60.4629306,
  "lon": 22.3401377
},
{
  "type": "node",
  "id": 6906735864,
  "lat": 60.4630800,
  "lon": 22.3400357
},
{
  "type": "node",
  "id": 6906735865,
  "lat": 60.4628380,
  "lon": 22.3385954
},
{
  "type": "node",
  "id": 3022256126,
  "lat": 60.5599873,
  "lon": 22.4540660
},
{
  "type": "node",
  "id": 3022256127,
  "lat": 60.5596950,
  "lon": 22.4543559
},
{
  "type": "node",
  "id": 3022256128,
  "lat": 60.5597341,
  "lon": 22.4545191
},
{
  "type": "node",
  "id": 3022256129,
  "lat": 60.5600264,
  "lon": 22.4542292
},
{
  "type": "node",
  "id": 3022343425,
  "lat": 60.5598078,
  "lon": 22.4544460
},
{
  "type": "node",
  "id": 5983141201,
  "lat": 60.5597086,
  "lon": 22.4544128
},
{
  "type": "way",
  "id": 93976256,
  "nodes": [
    1092462637,
    1092462058,
    1092464891,
    1092463271,
    1092464449,
    1092464248,
    1092462637
  ]
},
{
  "type": "way",
  "id": 93976301,
  "nodes": [
    1092463804,
    1092464073,
    1092463562,
    1092462969,
    1092463804
  ]
}

  ]
}
