{
  "version": 0.6,
  "generator": "Overpass API 0.7.55.1011 6c2efc30",
  "osm3s": {
    "timestamp_osm_base": "2020-02-14T15:56:02Z",
    "copyright": "The data included in this document is from www.openstreetmap.org. The data is made available under ODbL."
  },
  "elements": [

{
  "type": "node",
  "id": 264446093,
  "lat": 48.7577526,
  "lon": 17.8303831,
  "tags": {
    "email": "zdenka.hesterova@muzeumtn.sk",
    "name": "Podjavorinské múzeum",
    "opening_hours": "Mo-Sa 09:00-17:00",
    "phone": "+421 32 771 23 39",
    "tourism": "museum",
    "website": "http://www.muzeumtn.sk/expozicie/podjavorinske-muzeum.html?page_id=305/",
    "wheelchair": "no"
  }
},
{
  "type": "node",
  "id": 366807891,
  "lat": 48.5906543,
  "lon": 17.8380501,
  "tags": {
    "is_in": "Piešťany",
    "name": "Balneologické múzeum",
    "tourism": "museum",
    "website": "http://www.balneomuzeum.sk/",
    "wikidata": "Q12762882"
  }
},
{
  "type": "node",
  "id": 366808168,
  "lat": 48.5869148,
  "lon": 17.8367258,
  "tags": {
    "name": "Pamätná izba Ivana Krasku",
    "tourism": "museum"
  }
},
{
  "type": "node",
  "id": 366808853,
  "lat": 48.5935839,
  "lon": 17.8332208,
  "tags": {
    "alt_name": "Výstavné priestory Balneologického múzea",
    "is_in": "Piešťany",
    "name": "Expozícia vo Vile Dr. Lisku",
    "tourism": "museum"
  }
},
{
  "type": "node",
  "id": 430418743,
  "lat": 48.7917395,
  "lon": 17.8968028,
  "tags": {
    "name": "Múzeum dejín Beckova",
    "tourism": "museum"
  }
},
{
  "type": "node",
  "id": 459017319,
  "lat": 48.6601677,
  "lon": 17.7580434,
  "tags": {
    "historic": "archaeological_site",
    "name": "Praveká kniežatská mohyla",
    "tourism": "museum"
  }
},
{
  "type": "node",
  "id": 527474302,
  "lat": 48.5546944,
  "lon": 17.9705363,
  "tags": {
    "name": "Múzeum",
    "tourism": "museum"
  }
},
{
  "type": "node",
  "id": 537094109,
  "lat": 48.5755372,
  "lon": 18.0565738,
  "tags": {
    "name": "Archeologické múzeum Veľkej Moravy",
    "tourism": "museum"
  }
},
{
  "type": "node",
  "id": 601112348,
  "lat": 48.4300205,
  "lon": 17.8048064,
  "tags": {
    "name": "Vlastivedné múzeum",
    "tourism": "museum"
  }
},
{
  "type": "node",
  "id": 685344550,
  "lat": 48.6019417,
  "lon": 17.8595043,
  "tags": {
    "name": "Classic car museum",
    "tourism": "museum"
  }
},
{
  "type": "node",
  "id": 692993106,
  "lat": 48.6078869,
  "lon": 17.8290963,
  "tags": {
    "contact:email": "vhu@vhu.sk",
    "contact:phone": "+421 33 791 3802",
    "name": "Vojenské historické múzeum",
    "tourism": "museum",
    "website": "http://www.vhu.sk/muzejne-oddelenie-piestany/"
  }
},
{
  "type": "node",
  "id": 962095042,
  "lat": 48.8278085,
  "lon": 17.8411730,
  "tags": {
    "name": "Múzeum bošáckej doliny",
    "tourism": "museum"
  }
},
{
  "type": "node",
  "id": 1426866970,
  "lat": 48.4194730,
  "lon": 17.7968378,
  "tags": {
    "name": "Hvezdáreň a planetárium v Hlohovci",
    "tourism": "museum"
  }
},
{
  "type": "node",
  "id": 1477098212,
  "lat": 48.7151876,
  "lon": 17.7857804,
  "tags": {
    "name": "Trenčianske múzeum - expozícia Čachtice",
    "tourism": "museum",
    "wheelchair": "no"
  }
},
{
  "type": "node",
  "id": 1992812025,
  "lat": 48.2864995,
  "lon": 17.7379942,
  "tags": {
    "name": "Mestské múzeum",
    "tourism": "museum"
  }
},
{
  "type": "node",
  "id": 2235236151,
  "lat": 48.5083559,
  "lon": 17.4320990,
  "tags": {
    "name": "Múzeum Molpír Smolenice",
    "opening_hours": "Jul-Aug Tu-Su 10:00-16:00",
    "phone": "+421 33 557 11 00",
    "tourism": "museum"
  }
},
{
  "type": "node",
  "id": 2249124773,
  "lat": 48.3686263,
  "lon": 17.8987782,
  "tags": {
    "name": "Múzeum Rišňovce, M. I. Kutuzova",
    "tourism": "museum"
  }
},
{
  "type": "node",
  "id": 2306443710,
  "lat": 48.8499321,
  "lon": 18.0207920,
  "tags": {
    "name": "Samuela Timona",
    "tourism": "museum"
  }
},
{
  "type": "node",
  "id": 2859724549,
  "lat": 48.6621172,
  "lon": 17.4810378,
  "tags": {
    "fixme": "resurvey",
    "name": "Dom bojových a revolučných tradícií",
    "source": "local_knowledge",
    "tourism": "museum"
  }
},
{
  "type": "node",
  "id": 2859724552,
  "lat": 48.6719163,
  "lon": 17.4588482,
  "tags": {
    "fixme": "resurvey",
    "name": "Rodný dom Jána Jonáša",
    "tourism": "museum",
    "wikidata": "Q13421315",
    "wikipedia": "sk:Ján Jonáš"
  }
},
{
  "type": "node",
  "id": 4187310190,
  "lat": 48.6593446,
  "lon": 17.4105560,
  "tags": {
    "addr:city": "Hlboké",
    "addr:housenumber": "120",
    "addr:postcode": "90631",
    "addr:street": "Hlboké",
    "name": "Múzeum J. M. Hurbana",
    "tourism": "museum"
  }
},
{
  "type": "node",
  "id": 4799917807,
  "lat": 48.3805559,
  "lon": 17.5824138,
  "tags": {
    "name": "Galéria Jána Koniarka v Trnave",
    "tourism": "museum",
    "website": "https://www.gjk.sk/sk/uvod/"
  }
},
{
  "type": "node",
  "id": 5530016479,
  "lat": 48.8720557,
  "lon": 18.0177728,
  "tags": {
    "name": "Hangár X",
    "opening_hours": "Sa-Su 11.00, 14.00",
    "phone": "+421 949 849 412",
    "tourism": "museum",
    "website": "http://www.hangarx.sk/"
  }
},
{
  "type": "node",
  "id": 5610790272,
  "lat": 48.6606628,
  "lon": 17.4816030,
  "tags": {
    "name": "Múzeum roľníctva Prietrž",
    "tourism": "museum"
  }
},
{
  "type": "node",
  "id": 6684282144,
  "lat": 48.7838962,
  "lon": 17.7360331,
  "tags": {
    "name": "Rodný dům Samuela Štúra a muzeum Ľudovíta Holubyho",
    "tourism": "museum",
    "website": "https://www.obeclubina.sk/index.php/kultura/muzeum-rodny-dom-samuela-tura"
  }
},
{
  "type": "way",
  "id": 61125676,
  "nodes": [
    764651452,
    764653309,
    764646476,
    764685552,
    764679860,
    764670021,
    764672095,
    764661274,
    764655885,
    764650074,
    764642933,
    764683054,
    764676559,
    764669839,
    764658532,
    764651452
  ],
  "tags": {
    "addr:city": "Topoľčany",
    "addr:country": "SK",
    "addr:housenumber": "291",
    "addr:postcode": "95501",
    "addr:street": "Krušovská",
    "addr:streetnumber": "291",
    "building": "yes",
    "building:levels": "2",
    "contact:email": "office@tribecskemuzeum.sk",
    "import": "budovy201004",
    "name": "Tribečské múzeum v Topoľčanoch",
    "source": "kapor2",
    "tourism": "museum"
  }
},
{
  "type": "way",
  "id": 61618313,
  "nodes": [
    768343655,
    768346259,
    768345069,
    768348080,
    768343655
  ],
  "tags": {
    "building": "yes",
    "import": "budovy201004",
    "name": "Pamätník Ludwiga van Beethovena",
    "source": "kapor2",
    "tourism": "museum",
    "website": "https://www.snm.sk/?kastiel-v-dolnej-krupej-stale-expozicie&clanok=pamatnik-ludwiga-van-beethovena"
  }
},
{
  "type": "way",
  "id": 61618475,
  "nodes": [
    768344078,
    768346719,
    768345523,
    768348585,
    768347170,
    768342775,
    768341638,
    768344400,
    768343286,
    768345999,
    768344884,
    768347644,
    768346473,
    768342077,
    768348297,
    768343873,
    768345328,
    768348346,
    768346969,
    768342564,
    768348898,
    768344253,
    768343036,
    768345776,
    768344634,
    768347435,
    768346252,
    768341871,
    768344078
  ],
  "tags": {
    "addr:city": "Dolná Krupá",
    "addr:conscriptionnumber": "572",
    "addr:country": "SK",
    "addr:housenumber": "572",
    "addr:place": "Dolná Krupá",
    "alt_name": "Kaštieľ Dolná Krupá",
    "building": "yes",
    "castle_type": "manor",
    "historic": "castle",
    "import": "budovy201004",
    "name": "Kaštieľ v Dolnej Krupej",
    "source": "kapor2",
    "source:conscriptionnumber": "kapor2",
    "tourism": "museum",
    "website": "https://www.snm.sk/?kastiel-v-dolnej-krupej-uvodna-stranka",
    "wikidata": "Q13421951",
    "wikipedia": "sk:Kaštieľ v Dolnej Krupej"
  }
},
{
  "type": "way",
  "id": 74733436,
  "nodes": [
    882750621,
    882744828,
    882735874,
    882738549,
    882748651,
    882746141,
    882748989,
    882744582,
    882750621
  ],
  "tags": {
    "building": "yes",
    "building:levels": "1",
    "name": "Múzeum Partizánskej brigády Jana Žižku",
    "source": "kapor2",
    "tourism": "museum"
  }
},
{
  "type": "way",
  "id": 129581500,
  "nodes": [
    1429383923,
    1429383920,
    1429383927,
    1429383929,
    1429383934,
    1429383933,
    6024852353,
    6024852350,
    1429383923
  ],
  "tags": {
    "addr:city": "Košariská",
    "addr:conscriptionnumber": "92",
    "addr:country": "SK",
    "addr:housenumber": "92",
    "addr:place": "Košariská",
    "building": "yes",
    "name": "Múzeum M. R. Štefánika",
    "source": "kapor2",
    "source:conscriptionnumber": "kapor2",
    "subject:wikidata": "Q319962",
    "subject:wikipedia": "sk:Milan Rastislav Štefánik",
    "tourism": "museum",
    "website": "http://slovakia.travel/muzeum-mr-stefanika-snm-msnr-kosariska"
  }
},
{
  "type": "way",
  "id": 164481007,
  "nodes": [
    1761196070,
    1761196019,
    1761195902,
    1761195884,
    1761195573,
    1761195556,
    1761195482,
    1761195579,
    1761195584,
    1761195739,
    1761195725,
    1761195881,
    1761195968,
    1761195963,
    1761196201,
    1761196189,
    1761196070
  ],
  "tags": {
    "building": "yes",
    "name": "Synagóga - Centrum súčasného umenia",
    "opening_hours": "Tu-Fr 09:00-17:00; Sa 13:00-18:00",
    "operator": "Galéria Jána Koniarka v Trnave",
    "source": "kapor2",
    "tourism": "museum"
  }
},
{
  "type": "way",
  "id": 164481101,
  "nodes": [
    1761204562,
    1761204399,
    1761204257,
    1761203724,
    1761203754,
    1761203710,
    1761203712,
    1761203562,
    1761203671,
    1761203656,
    1761203778,
    1761203909,
    1761203956,
    1761203996,
    1761203988,
    1761204064,
    1761204239,
    1761204392,
    1761204444,
    1761204484,
    1761204493,
    1761204520,
    1761204534,
    1761204584,
    1761204607,
    1761204562
  ],
  "tags": {
    "addr:housenumber": "3",
    "addr:street": "Zelený kríčok",
    "addr:streetnumber": "3",
    "building": "public",
    "name": "Kopplova vila",
    "opening_hours": "Tu-Fr 09:00-17:00; Sa,Su 13:00-18:00",
    "operator": "Galéria Jána Koniarka v Trnave",
    "source": "kapor2",
    "tourism": "museum",
    "website": "https://www.gjk.sk/sk/vystavy/kopplova-vila/"
  }
},
{
  "type": "way",
  "id": 251688487,
  "nodes": [
    2578711346,
    2578711340,
    6324731281,
    2578711319,
    2578711316,
    6324731280,
    6324731279,
    6324731278,
    6324731277,
    6324731276,
    6324731275,
    6324731274,
    6324731273,
    2578711289,
    2578711291,
    2578711302,
    2578711310,
    2578711322,
    2578711327,
    2578711329,
    2578711330,
    2578711346
  ],
  "tags": {
    "addr:city": "Oponice",
    "addr:conscriptionnumber": "133",
    "addr:country": "SK",
    "addr:housenumber": "133",
    "addr:place": "Oponice",
    "building": "yes",
    "name": "Apponyiho poľovnícke múzeum",
    "source": "kapor2",
    "source:conscriptionnumber": "kapor2",
    "tourism": "museum",
    "website": "https://apponyihomuzeum.webnode.sk/"
  }
},
{
  "type": "way",
  "id": 320413034,
  "nodes": [
    3269259008,
    3269259009,
    3269259010,
    3269259011,
    3269259008
  ],
  "tags": {
    "addr:city": "Zemianske Podhradie",
    "addr:conscriptionnumber": "120",
    "addr:housenumber": "120",
    "addr:place": "Zemianske Podhradie",
    "building": "yes",
    "name": "Pamätný dom Jozefa Ľ. Holubyho a Ľudovíta Riznera",
    "source:conscriptionnumber": "kapor2",
    "tourism": "museum"
  }
},
{
  "type": "way",
  "id": 600285224,
  "nodes": [
    5708491517,
    7093611805,
    5708491518,
    6452391399,
    6452391403,
    6815712728,
    6815712731,
    6452391426,
    6452391425,
    5708491520,
    5708491517
  ],
  "tags": {
    "addr:city": "Sereď",
    "addr:conscriptionnumber": "1005",
    "addr:housenumber": "1005/54",
    "addr:street": "Kasárenská",
    "addr:streetnumber": "54",
    "charge": "5 EUR",
    "fee": "yes",
    "name": "Múzeum holokaustu",
    "name:en": "Holocaust Museum",
    "opening_hours": "Sep-Jun Mo-Th 08:00-15:00; Sep-Jun Su 09:00-16:00; Jul-Aug Mo-Th 09:00-16:00; Jul-Aug Su 09:00-16:00",
    "operator": "Slovenské národné múzeum",
    "tourism": "museum",
    "website": "https://www.muzeum.sk/muzeum-holokaustu-v-seredi-snm.html"
  }
},
{
  "type": "relation",
  "id": 2193450,
  "members": [
    {
      "type": "way",
      "ref": 164481137,
      "role": "outer"
    },
    {
      "type": "way",
      "ref": 164483055,
      "role": "inner"
    },
    {
      "type": "way",
      "ref": 164483065,
      "role": "inner"
    }
  ],
  "tags": {
    "building": "yes",
    "name": "Západoslovenské múzeum",
    "tourism": "museum",
    "type": "multipolygon"
  }
},
{
  "type": "relation",
  "id": 10551323,
  "members": [
    {
      "type": "way",
      "ref": 60868721,
      "role": "outer"
    },
    {
      "type": "way",
      "ref": 60868107,
      "role": "outer"
    }
  ],
  "tags": {
    "addr:city": "Myjava",
    "addr:conscriptionnumber": "275;276",
    "addr:country": "SK",
    "addr:housenumber": "275/4;276/2",
    "addr:street": "Štúrova",
    "addr:streetnumber": "4;2",
    "building": "yes",
    "import": "budovy201004",
    "name": "Múzeum Slovenských národných rád",
    "source": "kapor2",
    "source:conscriptionnumber": "kapor2",
    "source:street": "municipality",
    "source:streetnumber": "municipality",
    "tourism": "museum",
    "type": "multipolygon"
  }
},
{
  "type": "node",
  "id": 1761203562,
  "lat": 48.3802801,
  "lon": 17.5820185
},
{
  "type": "node",
  "id": 1761203656,
  "lat": 48.3803222,
  "lon": 17.5819345
},
{
  "type": "node",
  "id": 1761203671,
  "lat": 48.3803278,
  "lon": 17.5819710
},
{
  "type": "node",
  "id": 1761203710,
  "lat": 48.3803509,
  "lon": 17.5821211
},
{
  "type": "node",
  "id": 1761203712,
  "lat": 48.3803542,
  "lon": 17.5821180
},
{
  "type": "node",
  "id": 1761203724,
  "lat": 48.3803682,
  "lon": 17.5821780
},
{
  "type": "node",
  "id": 1761203754,
  "lat": 48.3803733,
  "lon": 17.5821721
},
{
  "type": "node",
  "id": 1761203778,
  "lat": 48.3803905,
  "lon": 17.5819077
},
{
  "type": "node",
  "id": 1761203909,
  "lat": 48.3804375,
  "lon": 17.5819544
},
{
  "type": "node",
  "id": 1761203956,
  "lat": 48.3804396,
  "lon": 17.5819525
},
{
  "type": "node",
  "id": 1761203988,
  "lat": 48.3804494,
  "lon": 17.5819808
},
{
  "type": "node",
  "id": 1761203996,
  "lat": 48.3804515,
  "lon": 17.5819787
},
{
  "type": "node",
  "id": 1761204064,
  "lat": 48.3804592,
  "lon": 17.5820650
},
{
  "type": "node",
  "id": 1761204239,
  "lat": 48.3804955,
  "lon": 17.5821470
},
{
  "type": "node",
  "id": 1761204257,
  "lat": 48.3805068,
  "lon": 17.5823887
},
{
  "type": "node",
  "id": 1761204392,
  "lat": 48.3805727,
  "lon": 17.5823234
},
{
  "type": "node",
  "id": 1761204399,
  "lat": 48.3805749,
  "lon": 17.5825543
},
{
  "type": "node",
  "id": 1761204444,
  "lat": 48.3805971,
  "lon": 17.5822995
},
{
  "type": "node",
  "id": 1761204484,
  "lat": 48.3806197,
  "lon": 17.5823531
},
{
  "type": "node",
  "id": 1761204493,
  "lat": 48.3806304,
  "lon": 17.5823430
},
{
  "type": "node",
  "id": 1761204520,
  "lat": 48.3806626,
  "lon": 17.5823521
},
{
  "type": "node",
  "id": 1761204534,
  "lat": 48.3806772,
  "lon": 17.5823864
},
{
  "type": "node",
  "id": 1761204562,
  "lat": 48.3807123,
  "lon": 17.5824246
},
{
  "type": "node",
  "id": 1761204584,
  "lat": 48.3807294,
  "lon": 17.5823365
},
{
  "type": "node",
  "id": 1761204607,
  "lat": 48.3807507,
  "lon": 17.5823894
},
{
  "type": "node",
  "id": 1761190146,
  "lat": 48.3750765,
  "lon": 17.5925422
},
{
  "type": "node",
  "id": 1761190324,
  "lat": 48.3751591,
  "lon": 17.5924720
},
{
  "type": "node",
  "id": 1761190425,
  "lat": 48.3752317,
  "lon": 17.5929600
},
{
  "type": "node",
  "id": 1761190433,
  "lat": 48.3752402,
  "lon": 17.5929520
},
{
  "type": "node",
  "id": 1761190483,
  "lat": 48.3753139,
  "lon": 17.5928847
},
{
  "type": "node",
  "id": 1761190527,
  "lat": 48.3753855,
  "lon": 17.5933559
},
{
  "type": "node",
  "id": 1761190532,
  "lat": 48.3753920,
  "lon": 17.5927989
},
{
  "type": "node",
  "id": 1761190536,
  "lat": 48.3753939,
  "lon": 17.5929546
},
{
  "type": "node",
  "id": 1761190540,
  "lat": 48.3753992,
  "lon": 17.5928224
},
{
  "type": "node",
  "id": 1761190541,
  "lat": 48.3754006,
  "lon": 17.5933452
},
{
  "type": "node",
  "id": 1761190561,
  "lat": 48.3754437,
  "lon": 17.5927594
},
{
  "type": "node",
  "id": 1761190568,
  "lat": 48.3754520,
  "lon": 17.5927836
},
{
  "type": "node",
  "id": 1761190606,
  "lat": 48.3754799,
  "lon": 17.5931955
},
{
  "type": "node",
  "id": 1761190670,
  "lat": 48.3755137,
  "lon": 17.5928656
},
{
  "type": "node",
  "id": 1761190696,
  "lat": 48.3755365,
  "lon": 17.5933344
},
{
  "type": "node",
  "id": 1761190698,
  "lat": 48.3755415,
  "lon": 17.5937522
},
{
  "type": "node",
  "id": 1761190776,
  "lat": 48.3755964,
  "lon": 17.5935130
},
{
  "type": "node",
  "id": 1761190777,
  "lat": 48.3755966,
  "lon": 17.5926765
},
{
  "type": "node",
  "id": 1761190783,
  "lat": 48.3756078,
  "lon": 17.5930877
},
{
  "type": "node",
  "id": 1761190795,
  "lat": 48.3756192,
  "lon": 17.5936954
},
{
  "type": "node",
  "id": 1761190809,
  "lat": 48.3756240,
  "lon": 17.5937176
},
{
  "type": "node",
  "id": 1761190859,
  "lat": 48.3756719,
  "lon": 17.5932252
},
{
  "type": "node",
  "id": 1761190924,
  "lat": 48.3757499,
  "lon": 17.5934048
},
{
  "type": "node",
  "id": 1761190977,
  "lat": 48.3757895,
  "lon": 17.5931550
},
{
  "type": "node",
  "id": 1761191004,
  "lat": 48.3757960,
  "lon": 17.5931693
},
{
  "type": "node",
  "id": 1761191017,
  "lat": 48.3758012,
  "lon": 17.5931441
},
{
  "type": "node",
  "id": 1761191028,
  "lat": 48.3758077,
  "lon": 17.5931592
},
{
  "type": "node",
  "id": 1761191052,
  "lat": 48.3758112,
  "lon": 17.5934282
},
{
  "type": "node",
  "id": 1761191106,
  "lat": 48.3758295,
  "lon": 17.5932527
},
{
  "type": "node",
  "id": 1761191118,
  "lat": 48.3758318,
  "lon": 17.5934320
},
{
  "type": "node",
  "id": 1761191122,
  "lat": 48.3758318,
  "lon": 17.5934507
},
{
  "type": "node",
  "id": 1761191190,
  "lat": 48.3758398,
  "lon": 17.5934513
},
{
  "type": "node",
  "id": 1761191192,
  "lat": 48.3758407,
  "lon": 17.5934308
},
{
  "type": "node",
  "id": 1761191214,
  "lat": 48.3758454,
  "lon": 17.5935564
},
{
  "type": "node",
  "id": 1761191250,
  "lat": 48.3758633,
  "lon": 17.5934132
},
{
  "type": "node",
  "id": 1761191294,
  "lat": 48.3758684,
  "lon": 17.5934039
},
{
  "type": "node",
  "id": 1761191307,
  "lat": 48.3758720,
  "lon": 17.5933713
},
{
  "type": "node",
  "id": 1761191308,
  "lat": 48.3758721,
  "lon": 17.5934272
},
{
  "type": "node",
  "id": 1761191321,
  "lat": 48.3758773,
  "lon": 17.5934197
},
{
  "type": "node",
  "id": 1761191357,
  "lat": 48.3758822,
  "lon": 17.5932112
},
{
  "type": "node",
  "id": 1761191418,
  "lat": 48.3759217,
  "lon": 17.5933184
},
{
  "type": "node",
  "id": 1761195482,
  "lat": 48.3779634,
  "lon": 17.5900348
},
{
  "type": "node",
  "id": 1761195556,
  "lat": 48.3779931,
  "lon": 17.5901296
},
{
  "type": "node",
  "id": 1761195573,
  "lat": 48.3779996,
  "lon": 17.5901253
},
{
  "type": "node",
  "id": 1761195579,
  "lat": 48.3780024,
  "lon": 17.5900097
},
{
  "type": "node",
  "id": 1761195584,
  "lat": 48.3780054,
  "lon": 17.5900185
},
{
  "type": "node",
  "id": 1761195725,
  "lat": 48.3780489,
  "lon": 17.5899759
},
{
  "type": "node",
  "id": 1761195739,
  "lat": 48.3780520,
  "lon": 17.5899882
},
{
  "type": "node",
  "id": 1761195881,
  "lat": 48.3780857,
  "lon": 17.5899511
},
{
  "type": "node",
  "id": 1761195884,
  "lat": 48.3780862,
  "lon": 17.5904232
},
{
  "type": "node",
  "id": 1761195902,
  "lat": 48.3780927,
  "lon": 17.5904188
},
{
  "type": "node",
  "id": 1761195963,
  "lat": 48.3781115,
  "lon": 17.5900534
},
{
  "type": "node",
  "id": 1761195968,
  "lat": 48.3781168,
  "lon": 17.5900502
},
{
  "type": "node",
  "id": 1761196019,
  "lat": 48.3781318,
  "lon": 17.5903938
},
{
  "type": "node",
  "id": 1761196070,
  "lat": 48.3781502,
  "lon": 17.5903818
},
{
  "type": "node",
  "id": 1761196189,
  "lat": 48.3781904,
  "lon": 17.5903549
},
{
  "type": "node",
  "id": 1761196201,
  "lat": 48.3781947,
  "lon": 17.5903525
},
{
  "type": "node",
  "id": 4902836593,
  "lat": 48.3754157,
  "lon": 17.5927808
},
{
  "type": "node",
  "id": 768341638,
  "lat": 48.4842223,
  "lon": 17.5464437
},
{
  "type": "node",
  "id": 768341871,
  "lat": 48.4843688,
  "lon": 17.5460820
},
{
  "type": "node",
  "id": 768342077,
  "lat": 48.4840079,
  "lon": 17.5466063
},
{
  "type": "node",
  "id": 768342564,
  "lat": 48.4841372,
  "lon": 17.5462054
},
{
  "type": "node",
  "id": 768342775,
  "lat": 48.4842593,
  "lon": 17.5464918
},
{
  "type": "node",
  "id": 768343036,
  "lat": 48.4842338,
  "lon": 17.5461278
},
{
  "type": "node",
  "id": 768343286,
  "lat": 48.4841482,
  "lon": 17.5466107
},
{
  "type": "node",
  "id": 768343655,
  "lat": 48.4839097,
  "lon": 17.5469262
},
{
  "type": "node",
  "id": 768343873,
  "lat": 48.4840529,
  "lon": 17.5464605
},
{
  "type": "node",
  "id": 768344078,
  "lat": 48.4844058,
  "lon": 17.5461319
},
{
  "type": "node",
  "id": 768344253,
  "lat": 48.4842425,
  "lon": 17.5461402
},
{
  "type": "node",
  "id": 768344400,
  "lat": 48.4841371,
  "lon": 17.5465945
},
{
  "type": "node",
  "id": 768344634,
  "lat": 48.4843412,
  "lon": 17.5460572
},
{
  "type": "node",
  "id": 768344884,
  "lat": 48.4840311,
  "lon": 17.5466343
},
{
  "type": "node",
  "id": 768345069,
  "lat": 48.4838977,
  "lon": 17.5467723
},
{
  "type": "node",
  "id": 768345328,
  "lat": 48.4840627,
  "lon": 17.5464743
},
{
  "type": "node",
  "id": 768345523,
  "lat": 48.4843435,
  "lon": 17.5462183
},
{
  "type": "node",
  "id": 768345776,
  "lat": 48.4842980,
  "lon": 17.5460005
},
{
  "type": "node",
  "id": 768345999,
  "lat": 48.4840936,
  "lon": 17.5467102
},
{
  "type": "node",
  "id": 768346252,
  "lat": 48.4843836,
  "lon": 17.5460493
},
{
  "type": "node",
  "id": 768346259,
  "lat": 48.4838544,
  "lon": 17.5468567
},
{
  "type": "node",
  "id": 768346473,
  "lat": 48.4839951,
  "lon": 17.5466343
},
{
  "type": "node",
  "id": 768346719,
  "lat": 48.4843545,
  "lon": 17.5462311
},
{
  "type": "node",
  "id": 768346969,
  "lat": 48.4840846,
  "lon": 17.5463030
},
{
  "type": "node",
  "id": 768347170,
  "lat": 48.4842933,
  "lon": 17.5464225
},
{
  "type": "node",
  "id": 768347435,
  "lat": 48.4843613,
  "lon": 17.5460178
},
{
  "type": "node",
  "id": 768347644,
  "lat": 48.4840159,
  "lon": 17.5466610
},
{
  "type": "node",
  "id": 768348080,
  "lat": 48.4839563,
  "lon": 17.5468412
},
{
  "type": "node",
  "id": 768348297,
  "lat": 48.4839882,
  "lon": 17.5465810
},
{
  "type": "node",
  "id": 768348346,
  "lat": 48.4841262,
  "lon": 17.5463513
},
{
  "type": "node",
  "id": 768348585,
  "lat": 48.4842575,
  "lon": 17.5463759
},
{
  "type": "node",
  "id": 768348898,
  "lat": 48.4841812,
  "lon": 17.5462585
},
{
  "type": "node",
  "id": 1429383920,
  "lat": 48.6701115,
  "lon": 17.5968534
},
{
  "type": "node",
  "id": 1429383923,
  "lat": 48.6701168,
  "lon": 17.5969762
},
{
  "type": "node",
  "id": 1429383927,
  "lat": 48.6702200,
  "lon": 17.5968559
},
{
  "type": "node",
  "id": 1429383929,
  "lat": 48.6702226,
  "lon": 17.5966465
},
{
  "type": "node",
  "id": 1429383933,
  "lat": 48.6703064,
  "lon": 17.5969739
},
{
  "type": "node",
  "id": 1429383934,
  "lat": 48.6703086,
  "lon": 17.5966486
},
{
  "type": "node",
  "id": 6024852350,
  "lat": 48.6701648,
  "lon": 17.5969756
},
{
  "type": "node",
  "id": 6024852353,
  "lat": 48.6702276,
  "lon": 17.5969749
},
{
  "type": "node",
  "id": 761925690,
  "lat": 48.7560332,
  "lon": 17.5671940
},
{
  "type": "node",
  "id": 761925793,
  "lat": 48.7561308,
  "lon": 17.5672292
},
{
  "type": "node",
  "id": 761928166,
  "lat": 48.7560005,
  "lon": 17.5674546
},
{
  "type": "node",
  "id": 761930275,
  "lat": 48.7560238,
  "lon": 17.5672172
},
{
  "type": "node",
  "id": 761936588,
  "lat": 48.7560255,
  "lon": 17.5672059
},
{
  "type": "node",
  "id": 761938289,
  "lat": 48.7559770,
  "lon": 17.5672801
},
{
  "type": "node",
  "id": 761940421,
  "lat": 48.7560097,
  "lon": 17.5668724
},
{
  "type": "node",
  "id": 761940934,
  "lat": 48.7561583,
  "lon": 17.5672345
},
{
  "type": "node",
  "id": 761943108,
  "lat": 48.7561334,
  "lon": 17.5674849
},
{
  "type": "node",
  "id": 761944757,
  "lat": 48.7560650,
  "lon": 17.5668906
},
{
  "type": "node",
  "id": 761946529,
  "lat": 48.7560193,
  "lon": 17.5672690
},
{
  "type": "node",
  "id": 7112998046,
  "lat": 48.7559925,
  "lon": 17.5671794
},
{
  "type": "node",
  "id": 7112998047,
  "lat": 48.7559838,
  "lon": 17.5671554
},
{
  "type": "node",
  "id": 7112998048,
  "lat": 48.7558406,
  "lon": 17.5671117
},
{
  "type": "node",
  "id": 7112998049,
  "lat": 48.7559066,
  "lon": 17.5672542
},
{
  "type": "node",
  "id": 7112998050,
  "lat": 48.7557980,
  "lon": 17.5672886
},
{
  "type": "node",
  "id": 7112998051,
  "lat": 48.7558929,
  "lon": 17.5673294
},
{
  "type": "node",
  "id": 7112998052,
  "lat": 48.7560526,
  "lon": 17.5670438
},
{
  "type": "node",
  "id": 7112998053,
  "lat": 48.7560018,
  "lon": 17.5670301
},
{
  "type": "node",
  "id": 7112998054,
  "lat": 48.7559880,
  "lon": 17.5670252
},
{
  "type": "node",
  "id": 7112998055,
  "lat": 48.7560418,
  "lon": 17.5670403
},
{
  "type": "node",
  "id": 5708491517,
  "lat": 48.2899125,
  "lon": 17.7242424
},
{
  "type": "node",
  "id": 5708491518,
  "lat": 48.2882504,
  "lon": 17.7232959
},
{
  "type": "node",
  "id": 5708491520,
  "lat": 48.2896776,
  "lon": 17.7253294
},
{
  "type": "node",
  "id": 6452391399,
  "lat": 48.2882376,
  "lon": 17.7233486
},
{
  "type": "node",
  "id": 6452391403,
  "lat": 48.2882281,
  "lon": 17.7233895
},
{
  "type": "node",
  "id": 6452391425,
  "lat": 48.2879766,
  "lon": 17.7244576
},
{
  "type": "node",
  "id": 6452391426,
  "lat": 48.2879889,
  "lon": 17.7243917
},
{
  "type": "node",
  "id": 6815712728,
  "lat": 48.2881782,
  "lon": 17.7235986
},
{
  "type": "node",
  "id": 6815712731,
  "lat": 48.2880230,
  "lon": 17.7242487
},
{
  "type": "node",
  "id": 7093611805,
  "lat": 48.2897736,
  "lon": 17.7241236
},
{
  "type": "node",
  "id": 2578711289,
  "lat": 48.4704258,
  "lon": 18.1455149
},
{
  "type": "node",
  "id": 2578711291,
  "lat": 48.4704345,
  "lon": 18.1454501
},
{
  "type": "node",
  "id": 2578711302,
  "lat": 48.4704792,
  "lon": 18.1454629
},
{
  "type": "node",
  "id": 2578711310,
  "lat": 48.4705011,
  "lon": 18.1453155
},
{
  "type": "node",
  "id": 2578711316,
  "lat": 48.4705415,
  "lon": 18.1455625
},
{
  "type": "node",
  "id": 2578711319,
  "lat": 48.4705463,
  "lon": 18.1455284
},
{
  "type": "node",
  "id": 2578711322,
  "lat": 48.4705414,
  "lon": 18.1453287
},
{
  "type": "node",
  "id": 2578711327,
  "lat": 48.4705488,
  "lon": 18.1453202
},
{
  "type": "node",
  "id": 2578711329,
  "lat": 48.4705556,
  "lon": 18.1453218
},
{
  "type": "node",
  "id": 2578711330,
  "lat": 48.4705608,
  "lon": 18.1453334
},
{
  "type": "node",
  "id": 2578711340,
  "lat": 48.4706084,
  "lon": 18.1455120
},
{
  "type": "node",
  "id": 2578711346,
  "lat": 48.4706311,
  "lon": 18.1453593
},
{
  "type": "node",
  "id": 6324731273,
  "lat": 48.4704209,
  "lon": 18.1455462
},
{
  "type": "node",
  "id": 6324731274,
  "lat": 48.4705164,
  "lon": 18.1455773
},
{
  "type": "node",
  "id": 6324731275,
  "lat": 48.4705213,
  "lon": 18.1455850
},
{
  "type": "node",
  "id": 6324731276,
  "lat": 48.4705332,
  "lon": 18.1456146
},
{
  "type": "node",
  "id": 6324731277,
  "lat": 48.4705389,
  "lon": 18.1456158
},
{
  "type": "node",
  "id": 6324731278,
  "lat": 48.4705454,
  "lon": 18.1456112
},
{
  "type": "node",
  "id": 6324731279,
  "lat": 48.4705493,
  "lon": 18.1456006
},
{
  "type": "node",
  "id": 6324731280,
  "lat": 48.4705497,
  "lon": 18.1455873
},
{
  "type": "node",
  "id": 6324731281,
  "lat": 48.4706036,
  "lon": 18.1455454
},
{
  "type": "node",
  "id": 764642933,
  "lat": 48.5574253,
  "lon": 18.1754936
},
{
  "type": "node",
  "id": 764646476,
  "lat": 48.5574141,
  "lon": 18.1752434
},
{
  "type": "node",
  "id": 764650074,
  "lat": 48.5574216,
  "lon": 18.1755085
},
{
  "type": "node",
  "id": 764651452,
  "lat": 48.5573070,
  "lon": 18.1752647
},
{
  "type": "node",
  "id": 764653309,
  "lat": 48.5573320,
  "lon": 18.1751891
},
{
  "type": "node",
  "id": 764655885,
  "lat": 48.5574756,
  "lon": 18.1755439
},
{
  "type": "node",
  "id": 764658532,
  "lat": 48.5571837,
  "lon": 18.1751819
},
{
  "type": "node",
  "id": 764661274,
  "lat": 48.5575178,
  "lon": 18.1753968
},
{
  "type": "node",
  "id": 764669839,
  "lat": 48.5571462,
  "lon": 18.1753322
},
{
  "type": "node",
  "id": 764670021,
  "lat": 48.5574275,
  "lon": 18.1753182
},
{
  "type": "node",
  "id": 764672095,
  "lat": 48.5574219,
  "lon": 18.1753389
},
{
  "type": "node",
  "id": 764676559,
  "lat": 48.5572036,
  "lon": 18.1753693
},
{
  "type": "node",
  "id": 764679860,
  "lat": 48.5574415,
  "lon": 18.1752679
},
{
  "type": "node",
  "id": 764683054,
  "lat": 48.5572072,
  "lon": 18.1753539
},
{
  "type": "node",
  "id": 764685552,
  "lat": 48.5574122,
  "lon": 18.1752497
},
{
  "type": "node",
  "id": 3269259008,
  "lat": 48.8392972,
  "lon": 17.8356725
},
{
  "type": "node",
  "id": 3269259009,
  "lat": 48.8394078,
  "lon": 17.8359804
},
{
  "type": "node",
  "id": 3269259010,
  "lat": 48.8393135,
  "lon": 17.8360547
},
{
  "type": "node",
  "id": 3269259011,
  "lat": 48.8392040,
  "lon": 17.8357539
},
{
  "type": "node",
  "id": 882735874,
  "lat": 48.7173006,
  "lon": 18.2628146
},
{
  "type": "node",
  "id": 882738549,
  "lat": 48.7176451,
  "lon": 18.2629590
},
{
  "type": "node",
  "id": 882744582,
  "lat": 48.7173155,
  "lon": 18.2633724
},
{
  "type": "node",
  "id": 882744828,
  "lat": 48.7172069,
  "lon": 18.2633265
},
{
  "type": "node",
  "id": 882746141,
  "lat": 48.7176675,
  "lon": 18.2629745
},
{
  "type": "node",
  "id": 882748651,
  "lat": 48.7176444,
  "lon": 18.2629652
},
{
  "type": "node",
  "id": 882748989,
  "lat": 48.7175710,
  "lon": 18.2634803
},
{
  "type": "node",
  "id": 882750621,
  "lat": 48.7172855,
  "lon": 18.2633597
},
{
  "type": "way",
  "id": 164481137,
  "nodes": [
    1761190146,
    1761190324,
    1761190483,
    1761190540,
    1761190532,
    4902836593,
    1761190561,
    1761190568,
    1761190777,
    1761190977,
    1761191017,
    1761191028,
    1761191004,
    1761191106,
    1761191357,
    1761191418,
    1761191307,
    1761191294,
    1761191321,
    1761191308,
    1761191250,
    1761191192,
    1761191190,
    1761191122,
    1761191118,
    1761191052,
    1761191214,
    1761190795,
    1761190809,
    1761190698,
    1761190541,
    1761190527,
    1761190433,
    1761190425,
    1761190146
  ]
},
{
  "type": "way",
  "id": 164483065,
  "nodes": [
    1761190606,
    1761190536,
    1761190670,
    1761190783,
    1761190606
  ]
},
{
  "type": "way",
  "id": 164483055,
  "nodes": [
    1761190776,
    1761190696,
    1761190859,
    1761190924,
    1761190776
  ]
},
{
  "type": "way",
  "id": 60868107,
  "nodes": [
    761928166,
    761946529,
    761930275,
    761936588,
    761925793,
    761940934,
    761943108,
    761928166
  ]
},
{
  "type": "way",
  "id": 60868721,
  "nodes": [
    761925690,
    7112998046,
    761938289,
    7112998049,
    7112998051,
    7112998050,
    7112998048,
    7112998047,
    7112998053,
    7112998054,
    761940421,
    761944757,
    7112998055,
    7112998052,
    761925690
  ]
}

  ]
}
