{
  "version": 0.6,
  "generator": "Overpass API 0.7.55.1011 6c2efc30",
  "osm3s": {
    "timestamp_osm_base": "2020-02-14T09:14:01Z",
    "copyright": "The data included in this document is from www.openstreetmap.org. The data is made available under ODbL."
  },
  "elements": [

{
  "type": "node",
  "id": 4118134,
  "lat": 52.1367191,
  "lon": -0.4635326,
  "tags": {
    "addr:city": "Bedford",
    "addr:postcode": "MK40 3EU",
    "addr:street": "Mill Street",
    "description": "Collection of artifacts and information related to the life of John Bunyan, 17th Centrury Puritan preacher and author of The Pilgrim's Progress, who was imprisoned for his beliefs.\nTu-Sa 11\nSaturdays only November, January, and early February, 11am to 4pm",
    "name": "John Bunyan museum",
    "opening_hours": "Tu-Sa 11:00-16:00",
    "tourism": "museum",
    "website": "http://www.bunyanmeeting.co.uk/museum/",
    "wikidata": "Q6223861",
    "wikipedia": "en:John Bunyan Museum"
  }
},
{
  "type": "node",
  "id": 17959940,
  "lat": 51.7543224,
  "lon": -0.3337920,
  "tags": {
    "addr:city": "St Albans",
    "addr:street": "Hatfield Road",
    "name": "Museum of St Albans",
    "tourism": "museum",
    "wikidata": "Q15260384"
  }
},
{
  "type": "node",
  "id": 21025844,
  "lat": 51.9895169,
  "lon": -0.1888121,
  "tags": {
    "name": "Baldock Museum",
    "tourism": "museum"
  }
},
{
  "type": "node",
  "id": 245934181,
  "lat": 51.7960101,
  "lon": -0.4000394,
  "tags": {
    "name": "Redbourn Village Museum",
    "tourism": "museum"
  }
},
{
  "type": "node",
  "id": 256793621,
  "lat": 51.8285247,
  "lon": -0.2101011,
  "tags": {
    "created_by": "JOSM",
    "name": "Welwyn Roman Baths",
    "operator": "Welwyn Hatfield Borough Council",
    "source": "Yahoo! Aerial Imagery",
    "tourism": "museum",
    "wikidata": "Q7982152"
  }
},
{
  "type": "node",
  "id": 258050255,
  "lat": 51.8317466,
  "lon": -0.6409757,
  "tags": {
    "name": "Pitstone Green Museum",
    "source": "npe",
    "tourism": "museum"
  }
},
{
  "type": "node",
  "id": 263378800,
  "lat": 51.7908083,
  "lon": -0.6612378,
  "tags": {
    "name": "Natural History Museum at Tring",
    "tourism": "museum",
    "website": "http://www.nhm.ac.uk/tring",
    "wikidata": "Q1788142",
    "wikipedia": "en:Natural History Museum at Tring"
  }
},
{
  "type": "node",
  "id": 269881552,
  "lat": 51.7879562,
  "lon": -0.6206041,
  "tags": {
    "created_by": "Potlatch 0.9c",
    "name": "Newground Farm",
    "tourism": "museum"
  }
},
{
  "type": "node",
  "id": 336351665,
  "lat": 51.5786747,
  "lon": -0.4272326,
  "tags": {
    "created_by": "Potlatch 0.10f",
    "name": "Manor Farm Complex",
    "tourism": "museum"
  }
},
{
  "type": "node",
  "id": 365958609,
  "lat": 51.7707014,
  "lon": -0.9294083,
  "tags": {
    "name": "Haddenham Museum",
    "tourism": "museum",
    "website": "https://www.haddenham.net/spotlight-june/spotlight.html",
    "wikidata": "Q5637648",
    "wikipedia": "en:Haddenham Museum"
  }
},
{
  "type": "node",
  "id": 386230289,
  "lat": 51.6455641,
  "lon": -0.3651725,
  "tags": {
    "name": "Bushey Museum",
    "tourism": "museum",
    "wikidata": "Q5001498"
  }
},
{
  "type": "node",
  "id": 393195769,
  "lat": 51.7545971,
  "lon": -0.3522840,
  "tags": {
    "amenity": "restaurant",
    "name": "Kingsbury Water Mill",
    "tourism": "museum"
  }
},
{
  "type": "node",
  "id": 411844875,
  "lat": 51.6392236,
  "lon": -0.4684163,
  "tags": {
    "name": "The Three Rivers Museum",
    "tourism": "museum"
  }
},
{
  "type": "node",
  "id": 488638505,
  "lat": 51.8483569,
  "lon": -0.1588265,
  "tags": {
    "name": "Datchworth Museum",
    "tourism": "museum"
  }
},
{
  "type": "node",
  "id": 517543373,
  "lat": 52.0474347,
  "lon": -0.7952871,
  "tags": {
    "name": "City Discovery Centre",
    "tourism": "museum"
  }
},
{
  "type": "node",
  "id": 539236862,
  "lat": 51.7038257,
  "lon": -0.6131616,
  "tags": {
    "name": "Chesham Museum",
    "source": "Local Knowledge",
    "tourism": "museum",
    "wikidata": "Q5092926"
  }
},
{
  "type": "node",
  "id": 559969108,
  "lat": 51.9014446,
  "lon": -0.1986286,
  "tags": {
    "addr:postcode": "SG1 1XX",
    "name": "Stevenage Museum",
    "tourism": "museum"
  }
},
{
  "type": "node",
  "id": 631992923,
  "lat": 51.7385106,
  "lon": -0.4686076,
  "tags": {
    "name": "The Paper Trail",
    "tourism": "museum"
  }
},
{
  "type": "node",
  "id": 692994187,
  "lat": 51.7758934,
  "lon": -0.9899636,
  "tags": {
    "name": "Long Crendon Courthouse",
    "opening_hours": "We 14:00-18:00; Sa,Su 11:00-18:00; Oct-Mar off",
    "operator": "The National Trust",
    "tourism": "museum",
    "wikidata": "Q6672482"
  }
},
{
  "type": "node",
  "id": 802670897,
  "lat": 51.8653628,
  "lon": -0.4236585,
  "tags": {
    "tourism": "museum",
    "wheelchair": "yes"
  }
},
{
  "type": "node",
  "id": 883455438,
  "lat": 51.6520779,
  "lon": -0.3910254,
  "tags": {
    "name": "Watford Museum",
    "tourism": "museum",
    "wikidata": "Q21008534"
  }
},
{
  "type": "node",
  "id": 1083622003,
  "lat": 51.6668773,
  "lon": -0.6182629,
  "tags": {
    "name": "Amersham Museum",
    "tourism": "museum",
    "wikidata": "Q4745824"
  }
},
{
  "type": "node",
  "id": 1313828756,
  "lat": 51.7025048,
  "lon": -0.7061111,
  "tags": {
    "addr:postcode": "HP16 0AL",
    "name": "The Roald Dahl Museum and Story Centre",
    "toilets:wheelchair": "yes",
    "tourism": "museum",
    "website": "http://www.roalddahlmuseum.org/",
    "wheelchair": "yes",
    "wikidata": "Q7339711"
  }
},
{
  "type": "node",
  "id": 1723084642,
  "lat": 51.7488118,
  "lon": -0.3278503,
  "tags": {
    "addr:street": "Ridgmont Road",
    "name": "St Albans South Signal Box Museum",
    "note": "Open 2-5pm on the 2nd and 4th Sunday of the month April to October and 2nd Sunday only Nov to March",
    "operator": "St Albans Signal Box Preservation Trust",
    "tourism": "museum",
    "website": "http://sigbox.co.uk/"
  }
},
{
  "type": "node",
  "id": 1742641499,
  "lat": 51.9462814,
  "lon": -0.2757955,
  "tags": {
    "name": "British schools museum",
    "tourism": "museum",
    "wikidata": "Q4971021"
  }
},
{
  "type": "node",
  "id": 1955235555,
  "lat": 51.8357697,
  "lon": -0.2684677,
  "tags": {
    "name": "George Bernard Shaw's house",
    "tourism": "museum"
  }
},
{
  "type": "node",
  "id": 2332756770,
  "lat": 51.8172580,
  "lon": -0.8150469,
  "tags": {
    "name": "Buckinghamshire County Museum",
    "source": "local knowledge",
    "tourism": "museum",
    "website": "http://www.buckscountymuseum.org",
    "wikidata": "Q4983261",
    "wikipedia": "en:Buckinghamshire County Museum"
  }
},
{
  "type": "node",
  "id": 2455741108,
  "lat": 51.6264811,
  "lon": -0.3333653,
  "tags": {
    "name": "Bentley Priory",
    "note": "opening to public end of oct 2013",
    "tourism": "museum",
    "website": "http://www.bentleypriory.org/"
  }
},
{
  "type": "node",
  "id": 4798936334,
  "lat": 51.6961845,
  "lon": -0.1935673,
  "tags": {
    "tourism": "museum"
  }
},
{
  "type": "node",
  "id": 5696553371,
  "lat": 51.8173005,
  "lon": -0.8147706,
  "tags": {
    "name": "Roald Dahl Children's Gallery",
    "tourism": "museum",
    "website": "https://www.buckscountymuseum.org/roalddahl/",
    "wikidata": "Q15272788",
    "wikipedia": "en:Roald Dahl Children's Gallery"
  }
},
{
  "type": "node",
  "id": 5922943752,
  "lat": 51.6349679,
  "lon": -0.7731709,
  "tags": {
    "name": "Chair Making Museum",
    "operator": "Kraftinwood",
    "tourism": "museum",
    "website": "http://www.kraftinwood.com/high-wycombe-chair-making-museum/",
    "wikidata": "Q6659038",
    "wikipedia": "en:Living Chair Museum"
  }
},
{
  "type": "node",
  "id": 6764764536,
  "lat": 51.9797300,
  "lon": -0.2269306,
  "tags": {
    "name": "Letchworth Community Museum",
    "tourism": "museum",
    "website": "https://www.letchworth.com/what-we-do/our-venues/community-museum"
  }
},
{
  "type": "node",
  "id": 6933005358,
  "lat": 51.6559577,
  "lon": -0.2741476,
  "tags": {
    "addr:city": "Borehamwood",
    "addr:housenumber": "96",
    "addr:postcode": "WD6 1EB",
    "addr:street": "Shenley Road",
    "name": "Elstree and Borehamwood Museum",
    "phone": "+44 144 245 4888",
    "tourism": "museum"
  }
},
{
  "type": "way",
  "id": 4372956,
  "nodes": [
    26664960,
    26664961,
    1390737745,
    26664962,
    1390737660,
    26664959,
    26664960
  ],
  "tags": {
    "building": "yes",
    "name": "The Hypocaust",
    "opening_hours": "SUMMER OPENING TIMES: Monday - Sunday: 10am - 4.30pm  WINTER OPENING TIMES:  Monday - Sunday: 10am - 3.45pm",
    "operator": "St Albans Museums",
    "tourism": "museum",
    "website": "https://www.stalbansmuseums.org.uk/visit/hypocaust",
    "website:official": "https://www.stalbansmuseums.org.uk/visit/hypocaust"
  }
},
{
  "type": "way",
  "id": 23047725,
  "nodes": [
    248699589,
    248699598,
    248699600,
    1774489355,
    1774489587,
    1774489430,
    1774489858,
    248699597,
    1774489561,
    1774489545,
    1774489443,
    1774489539,
    248699595,
    1774489454,
    248699594,
    1774489366,
    1774489537,
    1774489329,
    1774489640,
    1774489380,
    1774489906,
    1774489472,
    248699592,
    1774489569,
    1774489323,
    248699591,
    248699590,
    1774489528,
    248699589
  ],
  "tags": {
    "addr:city": "St Albans",
    "addr:postcode": "AL3 4SW",
    "addr:street": "St Michael's Street",
    "building": "yes",
    "name": "Verulamium Museum",
    "opening_hours": "Monday - Saturday 10am - 5pm, Sunday 2pm - 5pm.",
    "operator": "St Albans Museums",
    "tourism": "museum",
    "website": "https://www.stalbansmuseums.org.uk/visit/verulamium-museum"
  }
},
{
  "type": "way",
  "id": 34760603,
  "nodes": [
    405595390,
    1754214421,
    1754214276,
    1754214598,
    1754214498,
    405595397,
    3350319403,
    3350319402,
    405595402,
    405595408,
    405595390
  ],
  "tags": {
    "addr:city": "St Albans",
    "addr:housename": "Town Hall",
    "addr:postcode": "AL1 3DH",
    "addr:street": "Market Place",
    "building": "yes",
    "name": "St Alban's Museum and Gallery",
    "opening_hours": "Mo-Sa 10:00 - 17:00; Su 11:00-17:00",
    "operator": "St Albans Museums",
    "phone": "+44 1727 864511",
    "tourism": "museum",
    "website": "https://www.stalbansmuseums.org.uk/",
    "wikidata": "Q17555411"
  }
},
{
  "type": "way",
  "id": 36706274,
  "nodes": [
    426683279,
    426683278,
    426683280,
    1939192639,
    1939192621,
    1939192762,
    1939192743,
    426683277,
    426683279
  ],
  "tags": {
    "addr:housename": "Hut 1",
    "building": "hut",
    "building:levels": "1",
    "description": "Wireless Telegraphy Station",
    "name": "Hut 1",
    "source": "approximation",
    "tourism": "museum"
  }
},
{
  "type": "way",
  "id": 36706280,
  "nodes": [
    426683294,
    426683297,
    426683298,
    426683295,
    426683294
  ],
  "tags": {
    "addr:housename": "Hut 6",
    "building": "hut",
    "description": "German Army and Air Force message decryption",
    "tourism": "museum"
  }
},
{
  "type": "way",
  "id": 36706282,
  "nodes": [
    426683300,
    426683302,
    426683301,
    426683299,
    426683300
  ],
  "tags": {
    "addr:housename": "Hut 3",
    "building": "hut",
    "description": "Analysis of German Army and Air Force message decrypts",
    "name": "Hut 3",
    "tourism": "museum"
  }
},
{
  "type": "way",
  "id": 36706283,
  "nodes": [
    426683303,
    426683305,
    426683306,
    426683304,
    426683303
  ],
  "tags": {
    "addr:housename": "Hut 11",
    "building": "hut",
    "description": "Bombe Room",
    "name": "Hut 11",
    "tourism": "museum"
  }
},
{
  "type": "way",
  "id": 36706308,
  "nodes": [
    426683430,
    426683432,
    426683433,
    426683431,
    779092542,
    426683430
  ],
  "tags": {
    "building": "hut",
    "description": "Exhibit space",
    "name": "Hut 12",
    "tourism": "museum"
  }
},
{
  "type": "way",
  "id": 62364877,
  "nodes": [
    779061340,
    779061341,
    779061342,
    779061343,
    779061340
  ],
  "tags": {
    "addr:housename": "Hut 11a",
    "building": "hut",
    "name": "Hut 11A",
    "tourism": "museum"
  }
},
{
  "type": "way",
  "id": 93450297,
  "nodes": [
    365079714,
    1083379892,
    27024127,
    1083379887,
    1083379808,
    1083379846,
    1083379901,
    1083379847,
    1083379801,
    1083379937,
    365079714
  ],
  "tags": {
    "addr:city": "London Colney",
    "addr:postcode": "AL2 1BU",
    "addr:street": "Salisbury Hall",
    "name": "De Havilland Aircraft Museum",
    "opening_hours": "Tu-Su 10:30-17:00",
    "operator": "de Havilland Aircraft Museum",
    "phone": "+44 1727 826400",
    "tourism": "museum",
    "website": "https://dehavillandmuseum.co.uk",
    "wheelchair": "yes",
    "wikidata": "Q5244410"
  }
},
{
  "type": "way",
  "id": 95809105,
  "nodes": [
    1110415070,
    255960549,
    1110415244,
    1110414904,
    1110414914,
    1110414879,
    1110415137,
    1970158320,
    1110414983,
    1110415088,
    1110415065,
    1110414882,
    1110414991,
    1110415260,
    1110414851,
    1110415114,
    1110414931,
    1110414906,
    1110415196,
    1110414926,
    1110415149,
    1110415175,
    1110414929,
    1110414911,
    1110415036,
    1110414912,
    1110415176,
    1110415133,
    1110415271,
    1110415257,
    1110414895,
    1110415061,
    1110414891,
    1110415253,
    1110415072,
    1970158340,
    1970194180,
    1110414993,
    1110414979,
    1110415046,
    1110414863,
    1110415070
  ],
  "tags": {
    "contact:website": "http://www.coam.org.uk/",
    "leisure": "park",
    "museum": "open_air",
    "name": "Chiltern Open Air Museum",
    "source": "local knowledge",
    "tourism": "museum",
    "wikidata": "Q1073042",
    "wikipedia": "en:Chiltern Open Air Museum"
  }
},
{
  "type": "way",
  "id": 98118518,
  "nodes": [
    1135506579,
    1135506582,
    1135506585,
    1135506588,
    1135506592,
    1135506595,
    1135506597,
    1135506599,
    1135506600,
    3772232973,
    3772232974,
    6627269493,
    1135506605,
    3772232972,
    1135506610,
    3772232971,
    3772232970,
    3772232969,
    3772232968,
    3772232967,
    1135506614,
    1135506617,
    1135506579
  ],
  "tags": {
    "addr:city": "Hemel Hempstead",
    "addr:housename": "Frogmore Paper Mill",
    "addr:postcode": "HP3 9RY",
    "building": "yes",
    "name": "The paper Mill Museum",
    "tourism": "museum",
    "website": "http://frogmoremill.com/"
  }
},
{
  "type": "way",
  "id": 134430455,
  "nodes": [
    1478112040,
    1478112042,
    1478112039,
    6506038330,
    1478112013,
    1478112012,
    1478112014,
    1478112019,
    1478112018,
    1478112035,
    1478112036,
    1478112021,
    1478112020,
    1478112016,
    1478112017,
    1478112023,
    1478112028,
    1478112029,
    1478112031,
    1478112030,
    1478112032,
    1478112033,
    1478112034,
    1478112038,
    1478112037,
    1478112044,
    1478112043,
    1478112055,
    1478112051,
    1478112060,
    1478112064,
    1478112068,
    1478112067,
    1478112062,
    1478112057,
    1478112050,
    1478112046,
    1478112049,
    1478112047,
    1478112045,
    1478112040
  ],
  "tags": {
    "addr:city": "Bedford",
    "addr:country": "GB",
    "addr:postcode": "MK40 3XD",
    "addr:street": "Castle Lane",
    "building": "yes",
    "description": "Museum and Art Gallery with local focus, bringing together the Higgins Fine & Decorative arts collections, the former Bedford Gallery, and Bedford Museum in the former Higgins Brewery.",
    "fee": "no",
    "fhrs:authority": "Bedford",
    "fhrs:id": "1064001",
    "fhrs:local_authority_id": "113801",
    "name": "The Higgins",
    "old_name": "Cecil Higgins Art Gallery and Bedford Museum",
    "opening_hours": "Tu-Sa 11:00-17:00; Su 14:00-17:00",
    "phone": "+44 1234 718618",
    "source": "bing",
    "start_date": "2015",
    "tourism": "museum",
    "website": "http://www.thehigginsbedford.org.uk/",
    "wikidata": "Q7739582",
    "wikipedia": "en:The Higgins Art Gallery & Museum"
  }
},
{
  "type": "way",
  "id": 135458962,
  "nodes": [
    1487716854,
    1487716856,
    1487716858,
    1487716860,
    1487716854
  ],
  "tags": {
    "building": "yes",
    "name": "Moot Hall",
    "source": "Bing",
    "tourism": "museum",
    "wikidata": "Q17533009"
  }
},
{
  "type": "way",
  "id": 135858881,
  "nodes": [
    1491245012,
    1491245002,
    1491245004,
    1491244992,
    1491244994,
    1491245013,
    1491245014,
    1491244993,
    1491244996,
    1491244991,
    1491244997,
    1491245012
  ],
  "tags": {
    "building": "public_building",
    "tourism": "museum"
  }
},
{
  "type": "way",
  "id": 143124495,
  "nodes": [
    1566322663,
    1566322664,
    1566322638,
    1566322642,
    1566322725,
    1566322710,
    1566322653,
    1566322571,
    1566322551,
    5648379366,
    1566322530,
    1566322663
  ],
  "tags": {
    "building": "yes",
    "name": "Cowper and Newton Museum",
    "tourism": "museum",
    "wikidata": "Q5179804"
  }
},
{
  "type": "way",
  "id": 149179653,
  "nodes": [
    1621911257,
    4512534122,
    1621911234,
    1621911263,
    1621911269,
    1621911303,
    1621911275,
    7197935140,
    1621911339,
    1621911341,
    1621911355,
    1621911348,
    4512534129,
    1621911382,
    1621911391,
    1621911398,
    1621911395,
    1621911472,
    6757547854,
    6757547850,
    6757547851,
    6757547855,
    6757547856,
    6757547852,
    6757547853,
    6757547857,
    1621911483,
    4512534137,
    1621911430,
    1621911421,
    1621911394,
    1621911396,
    1621911373,
    1621911370,
    1621911346,
    1621911353,
    1621911311,
    1621911308,
    1621911274,
    1621911299,
    1621911257
  ],
  "tags": {
    "addr:housename": "Block C",
    "building": "yes",
    "name": "Visitor Centre",
    "source": "Bing",
    "tourism": "museum"
  }
},
{
  "type": "way",
  "id": 149179662,
  "nodes": [
    1621911450,
    4512534135,
    4512534136,
    1621911453,
    1621911425,
    1621911419,
    4512534132,
    4512534133,
    1621911450
  ],
  "tags": {
    "building": "yes",
    "name": "National Radio Centre (RSGB)",
    "source": "Bing",
    "tourism": "museum"
  }
},
{
  "type": "way",
  "id": 149179663,
  "nodes": [
    1621911375,
    1621911402,
    1621911393,
    1621911365,
    1621911375
  ],
  "tags": {
    "building": "yes",
    "source": "Bing",
    "tourism": "museum"
  }
},
{
  "type": "way",
  "id": 149179664,
  "nodes": [
    1621911350,
    1621911344,
    1621911272,
    1621911291,
    1621911350
  ],
  "tags": {
    "building": "yes",
    "source": "Bing",
    "tourism": "museum"
  }
},
{
  "type": "way",
  "id": 165944687,
  "nodes": [
    1774489803,
    1774489505,
    1774489441,
    1774489655,
    1774489813,
    1774489571,
    1774489927,
    1774489863,
    1774489803
  ],
  "tags": {
    "building": "yes",
    "tourism": "museum"
  }
},
{
  "type": "way",
  "id": 183074067,
  "nodes": [
    1934341637,
    536763657,
    1934341643,
    1934341646,
    1934341658,
    1934341667,
    5496804528,
    5496804529,
    1934341710,
    5496804530,
    1934341719,
    1934341696,
    1934341714,
    1934341699,
    536386588,
    5496804526,
    5496804527,
    1934341657,
    1934341651,
    1934341645,
    1934341627,
    1934341625,
    1934341623,
    1934341621,
    1934341622,
    5496804531,
    1934341631,
    1934341637
  ],
  "tags": {
    "addr:city": "Milton Keynes",
    "addr:country": "GB",
    "addr:housename": "Milton Keynes Museum",
    "addr:postcode": "MK12 5EL",
    "addr:street": "McConnell Drive",
    "email": "info@mkmuseum.org.uk",
    "fax": "+44 (0) 1908 319148",
    "name": "Milton Keynes Museum",
    "opening_hours": "We-Su 11:00-16:30",
    "phone": "+44 1908 316222",
    "tourism": "museum",
    "website": "http://www.miltonkeynesmuseum.org.uk/",
    "wikidata": "Q11989512",
    "wikipedia": "en:Milton Keynes Museum"
  }
},
{
  "type": "way",
  "id": 183524126,
  "nodes": [
    1939192763,
    274605482,
    274605481,
    1939192731,
    1939192585,
    274605479,
    1939192600,
    1939192773,
    1939192763
  ],
  "tags": {
    "addr:housename": "Hut 8",
    "building": "hut",
    "building:levels": "1",
    "name": "Hut 8",
    "tourism": "museum"
  }
},
{
  "type": "way",
  "id": 183524131,
  "nodes": [
    1939192638,
    1939192717,
    1939192665,
    1939192695,
    1939192725,
    1939192629,
    1939192637,
    1939192606,
    1939192702,
    1939192703,
    1939192711,
    1939192596,
    1939192607,
    1939192605,
    1939192686,
    1939192738,
    1939192689,
    1939192681,
    1939192649,
    1939192666,
    1939192697,
    1939192709,
    1939192610,
    1939192644,
    1939192661,
    1939192755,
    1939192735,
    1939192682,
    1939192778,
    1939192761,
    1939192722,
    1939192715,
    1939192683,
    1939192757,
    1939192754,
    1939192638
  ],
  "tags": {
    "addr:city": "Milton Keynes",
    "addr:country": "GB",
    "addr:housename": "The Mansion",
    "addr:postcode": "MK3 6EB",
    "addr:street": "Sherwood Drive",
    "alt_name": "Bletchley Park Mansion",
    "building": "yes",
    "fhrs:authority": "Milton Keynes",
    "fhrs:id": "508863",
    "fhrs:local_authority_id": "82079",
    "tourism": "museum"
  }
},
{
  "type": "way",
  "id": 194460405,
  "nodes": [
    274605498,
    274605496,
    779061367,
    779061366,
    779061365,
    779061364,
    779061363,
    779061362,
    779061361,
    779061360,
    274605493,
    274605491,
    779061359,
    779061358,
    1621911380,
    1621911377,
    274605498
  ],
  "tags": {
    "addr:housename": "Block B",
    "building": "yes",
    "name": "Block B",
    "tourism": "museum"
  }
},
{
  "type": "way",
  "id": 235213907,
  "nodes": [
    779096468,
    1939192675,
    2432876535,
    1939192640,
    5927526087,
    1939192767,
    5927526085,
    1671895306,
    1939192734,
    1939192655,
    2453487261,
    1671895448,
    1939192690,
    779096468
  ],
  "tags": {
    "access": "Tu-Su 10:30-17:00",
    "alt_name": "TNMOC",
    "name": "The National Museum of Computing",
    "tourism": "museum",
    "website": "http://www.tnmoc.org/",
    "wikidata": "Q2855072",
    "wikipedia": "en:The National Museum of Computing"
  }
},
{
  "type": "way",
  "id": 235892598,
  "nodes": [
    779173211,
    6757547858,
    6757547859,
    779061379,
    4742759575,
    2435716812,
    779061377,
    4360006736,
    779061376,
    2435716814,
    5927524984,
    779061374,
    779061372,
    779061370,
    779092561,
    436250001,
    1939192777,
    1939192671,
    2432876535,
    1939192675,
    779096468,
    1939192690,
    1671895448,
    2453487261,
    1939192655,
    1939192734,
    1671895306,
    2049660880,
    1939192632,
    1939192726,
    2049660883,
    1939192700,
    1939192668,
    2439713879,
    2439713875,
    2439713877,
    1939192599,
    1049882209,
    1939192692,
    1939192616,
    2444890108,
    1939192727,
    1939200005,
    1939192704,
    4360006707,
    4892325372,
    4360006709,
    4892325374,
    1939192756,
    4360006711,
    4360006716,
    2048222958,
    779173211
  ],
  "tags": {
    "name": "Bletchley Park",
    "note": "approximate",
    "tourism": "museum",
    "website": "https://www.bletchleypark.org.uk/",
    "wheelchair": "yes",
    "wheelchair:description": "Step-free access to all buildings and around the park",
    "wikidata": "Q155921",
    "wikipedia": "en:Bletchley Park"
  }
},
{
  "type": "way",
  "id": 240034129,
  "nodes": [
    2478033794,
    6504456283,
    6504456284,
    6504456385,
    6504456386,
    6504456281,
    6504456282,
    2478033795,
    2478033796,
    2478033798,
    6005781924,
    6005781923,
    6504494513,
    2478033799,
    6504456265,
    2478033801,
    6504456392,
    26204570,
    6504456390,
    6504456388,
    6504456387,
    2478033794
  ],
  "tags": {
    "addr:city": "Bedford",
    "addr:country": "GB",
    "addr:housenumber": "9",
    "addr:postcode": "MK40 3NX",
    "addr:street": "Newnham Road",
    "building": "no",
    "fhrs:authority": "Bedford",
    "fhrs:id": "665543",
    "fhrs:local_authority_id": "29639",
    "name": "Panacea Museum",
    "operator": "The Panacea Charitable Trust",
    "tourism": "museum",
    "website": "http://panaceamuseum.org"
  }
},
{
  "type": "way",
  "id": 285467793,
  "nodes": [
    2891417286,
    2891417289,
    2891417287,
    2891417291,
    2891417294,
    2891417292,
    2891417290,
    2891417288,
    2891417286
  ],
  "tags": {
    "addr:city": "High Wycombe",
    "addr:postcode": "HP11 1BJ",
    "addr:street": "The Rye, London Road",
    "building": "yes",
    "fhrs:id": "372050",
    "man_made": "watermill",
    "name": "Pann Mill",
    "opening_hours": "\"Indoors only open a few days a year. Outdoors always accessible\"",
    "source:addr": "fhrs opendata",
    "tourism": "museum",
    "website": "http://www.pannmill.org.uk/"
  }
},
{
  "type": "way",
  "id": 295528490,
  "nodes": [
    6442867591,
    6447347151,
    6442868447,
    6442868446,
    6442866841,
    6442866795,
    6442866807,
    6442866806,
    6442866805,
    6442866804,
    6442866803,
    6442866793,
    6442866794,
    6448596416,
    6442867130,
    6442867131,
    6442867132,
    6447344727,
    6442867133,
    6442867134,
    6883716252,
    6883716242,
    6883716239,
    6883716241,
    6442867641,
    6442867642,
    6442867744,
    6442867745,
    6442867746,
    6442867755,
    6442867754,
    6442867753,
    6442867752,
    6442867751,
    6442867750,
    6442867749,
    6442867748,
    6442867747,
    6442867756,
    6442867757,
    6442867758,
    6442867759,
    6442867760,
    6442867761,
    6442867743,
    6442867742,
    6442867135,
    6442867448,
    6442867449,
    6442867711,
    6442867710,
    6442867709,
    6442867708,
    6442867707,
    6442867695,
    6442867694,
    6442867693,
    6442867692,
    2992610584,
    6442866739,
    6442866738,
    6442866737,
    6442867142,
    6442866740,
    6444005145,
    6442867141,
    6442867140,
    6442867139,
    6442867138,
    2992610585,
    6442867137,
    6442867136,
    6442867292,
    6444004995,
    6442867293,
    6442867294,
    6442867295,
    6442867296,
    6444005119,
    6442867297,
    6442867298,
    6442867299,
    6442867661,
    6442867662,
    6442867663,
    6442867664,
    6442867665,
    6442866950,
    6442867666,
    6442867143,
    6442867144,
    6442866951,
    6442867145,
    6442867147,
    6442867066,
    6442867148,
    2401755501,
    2401755503,
    6442867146,
    6442867017,
    6442867018,
    6442867019,
    6442868474,
    6442868472,
    6442868473,
    6442868471,
    6442868470,
    6442868475,
    6442868476,
    6442867077,
    6442868593,
    6442868469,
    6442868591,
    6442868467,
    6442868466,
    6442860568,
    6444005072,
    6442860569,
    6447347167,
    6442866915,
    6447347390,
    6442866914,
    6442860570,
    6442860571,
    6442866849,
    6442866846,
    6442866847,
    6442866848,
    6442866845,
    6442866844,
    6442866843,
    6442867591
  ],
  "tags": {
    "landuse": "railway",
    "museum": "railway",
    "name": "Buckinghamshire Railway Centre",
    "tourism": "museum",
    "website": "https://www.bucksrailcentre.org/",
    "wikidata": "Q4983267",
    "wikipedia": "en:Buckinghamshire Railway Centre"
  }
},
{
  "type": "way",
  "id": 331941840,
  "nodes": [
    3390395504,
    3390395505,
    3390395506,
    3390395507,
    3390395508,
    3390395509,
    3390395510,
    3390395511,
    3390395504
  ],
  "tags": {
    "building": "church",
    "name": "Woburn Heritage Museum",
    "old_name": "St Mary's Church",
    "tourism": "museum",
    "website": "http://www.woburnheritagemuseum.co.uk/"
  }
},
{
  "type": "way",
  "id": 352586807,
  "nodes": [
    3583447895,
    3583442692,
    3583442690,
    3583442691,
    3583442689,
    5628760405,
    3583447893,
    3583447895
  ],
  "tags": {
    "HE_ref": "1159930",
    "addr:city": "High Wycombe",
    "addr:housename": "Castle Hill House",
    "addr:postcode": "HP13 6PX",
    "addr:street": "Priory Avenue",
    "building": "yes",
    "contact:website": "http://wycombemuseum.org.uk/",
    "fhrs:id": "195177",
    "heritage": "2",
    "heritage:operator": "Historic England",
    "listed_status": "grade_ii",
    "name": "Wycombe Museum",
    "source:addr": "fhrs opendata",
    "tourism": "museum",
    "wikidata": "Q8039645",
    "wikipedia": "en:Wycombe Museum"
  }
},
{
  "type": "way",
  "id": 360423376,
  "nodes": [
    3649702229,
    3649702230,
    3649702231,
    3649702232,
    3649702233,
    3649702229
  ],
  "tags": {
    "addr:city": "St Albans",
    "addr:housenumber": "320",
    "addr:postcode": "AL1 5PE",
    "addr:street": "Camp Road",
    "building": "yes",
    "name": "St Albans Organ Theatre",
    "note": "Open on the Second Sunday of the month 2:15-4:30pm, monthly Saturday concerts",
    "tourism": "museum",
    "website": "https://stalbansorgantheatre.org.uk/"
  }
},
{
  "type": "way",
  "id": 361948944,
  "nodes": [
    3663514033,
    3663514034,
    3663514035,
    3663514036,
    3663514037,
    3663514038,
    3663514039,
    3663514040,
    3663514041,
    3663514042,
    3663514043,
    3663514044,
    3663514033
  ],
  "tags": {
    "addr:city": "Buckingham",
    "addr:postcode": "MK18 1JX",
    "addr:street": "Market Hill",
    "building": "yes",
    "name": "Buckingham Old Gaol",
    "opening_hours": "Mo-Sa 10:00-16:00",
    "operator": "Buckingham Old Gaol Trust",
    "tourism": "museum",
    "website": "https://buckinghamoldgaol.org.uk/",
    "wikidata": "Q15205486",
    "wikipedia": "en:Buckingham Old Gaol"
  }
},
{
  "type": "way",
  "id": 419257818,
  "nodes": [
    4193664399,
    4193664400,
    4193664401,
    4193664402,
    4193664403,
    4193664404,
    4193664405,
    4193664406,
    4193664407,
    4193664408,
    4193664409,
    4193664410,
    4193664399
  ],
  "tags": {
    "addr:city": "Luton",
    "addr:postcode": "LU2 7HA",
    "addr:street": "Old Bedford Road",
    "building": "yes",
    "name": "Wardown Park Museum",
    "phone": "+44 1582 546722",
    "tourism": "museum",
    "website": "https://www.lutonculture.com/wardown-park-museum/",
    "wikidata": "Q7969194",
    "wikipedia": "en:Wardown Park Museum"
  }
},
{
  "type": "way",
  "id": 438245354,
  "nodes": [
    4359836304,
    4359836295,
    4359836298,
    4359836301,
    4359836303,
    4359836296,
    4359836297,
    4359836299,
    4359836302,
    4359836300,
    4359836304
  ],
  "tags": {
    "building": "yes",
    "name": "Heath Robinson Museum",
    "source": "bing; survey",
    "tourism": "museum",
    "wikidata": "Q26689465"
  }
},
{
  "type": "way",
  "id": 463849066,
  "nodes": [
    4590601441,
    4590601434,
    4590601436,
    4590601442,
    4590601444,
    4590601439,
    4590601440,
    4590601438,
    5851115081,
    5851115082,
    5851115080,
    4590601441
  ],
  "tags": {
    "addr:housenumber": "21",
    "addr:postcode": "HP8 4JH",
    "addr:street": "Deanway",
    "building": "yes",
    "name": "Milton's Cottage",
    "tourism": "museum",
    "website": "https://www.miltonscottage.org/",
    "wikidata": "Q6860889",
    "wikipedia": "en:Milton's Cottage"
  }
},
{
  "type": "way",
  "id": 490729675,
  "nodes": [
    4829183560,
    4829183562,
    4829183556,
    4829183552,
    4829183555,
    4829183553,
    4829183557,
    4829183558,
    5784861604,
    4829183560
  ],
  "tags": {
    "addr:place": "The Market Place",
    "addr:postcode": "HP23 5ED",
    "addr:street": "Brook Street",
    "building": "yes",
    "contact:phone": "+441442827601",
    "contact:website": "http://www.tringlocalhistorymuseum.org.uk/",
    "museum": "local_history",
    "name": "Tring Local History Museum",
    "opening_hours": "Mar-Oct: Fr-Sa 10:00-16:00; Nov-Feb: Fr-Sa 10:00-15:30",
    "tourism": "museum",
    "wikidata": "Q82925332"
  }
},
{
  "type": "way",
  "id": 494424994,
  "nodes": [
    4861851829,
    4861851830,
    4861851831,
    4861851832,
    4861851829
  ],
  "tags": {
    "building": "yes",
    "source": "OS OpenMap Local",
    "tourism": "museum"
  }
},
{
  "type": "way",
  "id": 502894433,
  "nodes": [
    4932451304,
    4932451305,
    4932451306,
    4932451307,
    4932451304
  ],
  "tags": {
    "building": "yes",
    "contact:website": "http://www.gardencitymuseum.org/",
    "name": "The International Garden Cities Exhibition",
    "opening_hours": "Mo-Sa 10:00-17:00",
    "source": "Bing;knowledge",
    "tourism": "museum"
  }
},
{
  "type": "way",
  "id": 512580487,
  "nodes": [
    5011817949,
    5011817950,
    5011817951,
    5011817952,
    5011817949
  ],
  "tags": {
    "building": "yes",
    "name": "Bletchley Park",
    "source": "OS OpenMap Local",
    "tourism": "museum"
  }
},
{
  "type": "way",
  "id": 512580488,
  "nodes": [
    5011817953,
    5011817954,
    5011817955,
    5011817956,
    5011817953
  ],
  "tags": {
    "building": "yes",
    "name": "Bletchley Park",
    "source": "OS OpenMap Local",
    "tourism": "museum"
  }
},
{
  "type": "way",
  "id": 512580489,
  "nodes": [
    5011817957,
    5011817958,
    5011817959,
    5011817960,
    5011817957
  ],
  "tags": {
    "building": "yes",
    "name": "Bletchley Park",
    "source": "OS OpenMap Local",
    "tourism": "museum"
  }
},
{
  "type": "way",
  "id": 512580492,
  "nodes": [
    5011817973,
    5011817974,
    5011817975,
    5011817976,
    5011817973
  ],
  "tags": {
    "building": "yes",
    "name": "Bletchley Park",
    "source": "OS OpenMap Local",
    "tourism": "museum"
  }
},
{
  "type": "way",
  "id": 519963463,
  "nodes": [
    5068995369,
    5068995370,
    5068995371,
    5068995372,
    5068995369
  ],
  "tags": {
    "building": "yes",
    "name": "Silk Mill House",
    "source": "OS OpenMap Local",
    "tourism": "museum"
  }
},
{
  "type": "way",
  "id": 559262652,
  "nodes": [
    213627484,
    5394493264,
    5394493263,
    5394531183,
    5394531182,
    5394531184,
    5394531185,
    5394531186,
    5394531181,
    5394531180,
    5394531179,
    5394531178,
    5394493262,
    5394531176,
    5394531187,
    5394495035,
    5394531188,
    5394493261,
    65148037,
    5394493259,
    5394493258,
    5394493257,
    5394493256,
    5394493255,
    213627484
  ],
  "tags": {
    "addr:postcode": "HA2 6PX",
    "name": "Harrow Museum",
    "tourism": "museum",
    "wikidata": "Q15223102",
    "wikipedia": "en:Harrow Museum"
  }
},
{
  "type": "node",
  "id": 4359836295,
  "lat": 51.5927595,
  "lon": -0.3868264
},
{
  "type": "node",
  "id": 4359836298,
  "lat": 51.5927600,
  "lon": -0.3867710
},
{
  "type": "node",
  "id": 4359836301,
  "lat": 51.5928748,
  "lon": -0.3867736
},
{
  "type": "node",
  "id": 4359836304,
  "lat": 51.5927028,
  "lon": -0.3868252
},
{
  "type": "node",
  "id": 4359836296,
  "lat": 51.5928350,
  "lon": -0.3866363
},
{
  "type": "node",
  "id": 4359836297,
  "lat": 51.5928358,
  "lon": -0.3865384
},
{
  "type": "node",
  "id": 4359836299,
  "lat": 51.5927543,
  "lon": -0.3865366
},
{
  "type": "node",
  "id": 4359836300,
  "lat": 51.5927051,
  "lon": -0.3865672
},
{
  "type": "node",
  "id": 4359836302,
  "lat": 51.5927540,
  "lon": -0.3865683
},
{
  "type": "node",
  "id": 4359836303,
  "lat": 51.5928760,
  "lon": -0.3866372
},
{
  "type": "node",
  "id": 65148037,
  "lat": 51.5939378,
  "lon": -0.3551406
},
{
  "type": "node",
  "id": 213627484,
  "lat": 51.5943419,
  "lon": -0.3556904
},
{
  "type": "node",
  "id": 5394493255,
  "lat": 51.5942952,
  "lon": -0.3556260
},
{
  "type": "node",
  "id": 5394493256,
  "lat": 51.5942253,
  "lon": -0.3556113
},
{
  "type": "node",
  "id": 5394493257,
  "lat": 51.5939595,
  "lon": -0.3552827
},
{
  "type": "node",
  "id": 5394493258,
  "lat": 51.5939337,
  "lon": -0.3552425
},
{
  "type": "node",
  "id": 5394493259,
  "lat": 51.5939228,
  "lon": -0.3551969
},
{
  "type": "node",
  "id": 5394493261,
  "lat": 51.5941469,
  "lon": -0.3547174
},
{
  "type": "node",
  "id": 5394493262,
  "lat": 51.5940945,
  "lon": -0.3542541
},
{
  "type": "node",
  "id": 5394493263,
  "lat": 51.5947451,
  "lon": -0.3549501
},
{
  "type": "node",
  "id": 5394493264,
  "lat": 51.5946968,
  "lon": -0.3548858
},
{
  "type": "node",
  "id": 5394495035,
  "lat": 51.5942071,
  "lon": -0.3546662
},
{
  "type": "node",
  "id": 5394531176,
  "lat": 51.5941932,
  "lon": -0.3545371
},
{
  "type": "node",
  "id": 5394531178,
  "lat": 51.5940453,
  "lon": -0.3540543
},
{
  "type": "node",
  "id": 5394531182,
  "lat": 51.5948289,
  "lon": -0.3548502
},
{
  "type": "node",
  "id": 5394531183,
  "lat": 51.5947689,
  "lon": -0.3548989
},
{
  "type": "node",
  "id": 5394531184,
  "lat": 51.5952183,
  "lon": -0.3539711
},
{
  "type": "node",
  "id": 5394531187,
  "lat": 51.5942290,
  "lon": -0.3546229
},
{
  "type": "node",
  "id": 5394531188,
  "lat": 51.5941853,
  "lon": -0.3547094
},
{
  "type": "node",
  "id": 5394531179,
  "lat": 51.5941744,
  "lon": -0.3538544
},
{
  "type": "node",
  "id": 5394531180,
  "lat": 51.5945709,
  "lon": -0.3530695
},
{
  "type": "node",
  "id": 5394531181,
  "lat": 51.5947082,
  "lon": -0.3530628
},
{
  "type": "node",
  "id": 5394531185,
  "lat": 51.5952425,
  "lon": -0.3538410
},
{
  "type": "node",
  "id": 5394531186,
  "lat": 51.5952075,
  "lon": -0.3536975
},
{
  "type": "node",
  "id": 6442866793,
  "lat": 51.8639290,
  "lon": -0.9316654
},
{
  "type": "node",
  "id": 6442866794,
  "lat": 51.8638874,
  "lon": -0.9315984
},
{
  "type": "node",
  "id": 6442866803,
  "lat": 51.8643376,
  "lon": -0.9310186
},
{
  "type": "node",
  "id": 6442866804,
  "lat": 51.8645069,
  "lon": -0.9307430
},
{
  "type": "node",
  "id": 6442867130,
  "lat": 51.8638227,
  "lon": -0.9314941
},
{
  "type": "node",
  "id": 6442867131,
  "lat": 51.8638453,
  "lon": -0.9314521
},
{
  "type": "node",
  "id": 6442867132,
  "lat": 51.8635972,
  "lon": -0.9311027
},
{
  "type": "node",
  "id": 6442867133,
  "lat": 51.8633678,
  "lon": -0.9316009
},
{
  "type": "node",
  "id": 6442867134,
  "lat": 51.8630299,
  "lon": -0.9312362
},
{
  "type": "node",
  "id": 6447344727,
  "lat": 51.8633836,
  "lon": -0.9315666
},
{
  "type": "node",
  "id": 6448596416,
  "lat": 51.8638723,
  "lon": -0.9315741
},
{
  "type": "node",
  "id": 2992610584,
  "lat": 51.8616982,
  "lon": -0.9211765
},
{
  "type": "node",
  "id": 2992610585,
  "lat": 51.8618655,
  "lon": -0.9207460
},
{
  "type": "node",
  "id": 6442866737,
  "lat": 51.8613222,
  "lon": -0.9202793
},
{
  "type": "node",
  "id": 6442866738,
  "lat": 51.8615060,
  "lon": -0.9207085
},
{
  "type": "node",
  "id": 6442866739,
  "lat": 51.8616236,
  "lon": -0.9209231
},
{
  "type": "node",
  "id": 6442866740,
  "lat": 51.8610470,
  "lon": -0.9191223
},
{
  "type": "node",
  "id": 6442867138,
  "lat": 51.8617429,
  "lon": -0.9204403
},
{
  "type": "node",
  "id": 6442867139,
  "lat": 51.8615060,
  "lon": -0.9198046
},
{
  "type": "node",
  "id": 6442867140,
  "lat": 51.8613553,
  "lon": -0.9192896
},
{
  "type": "node",
  "id": 6442867141,
  "lat": 51.8612228,
  "lon": -0.9188738
},
{
  "type": "node",
  "id": 6442867142,
  "lat": 51.8609826,
  "lon": -0.9192199
},
{
  "type": "node",
  "id": 6442867692,
  "lat": 51.8617644,
  "lon": -0.9214810
},
{
  "type": "node",
  "id": 6442867693,
  "lat": 51.8618406,
  "lon": -0.9217840
},
{
  "type": "node",
  "id": 6442867694,
  "lat": 51.8618936,
  "lon": -0.9219611
},
{
  "type": "node",
  "id": 6444005145,
  "lat": 51.8611736,
  "lon": -0.9189433
},
{
  "type": "node",
  "id": 2401755501,
  "lat": 51.8654741,
  "lon": -0.9275537
},
{
  "type": "node",
  "id": 2401755503,
  "lat": 51.8657418,
  "lon": -0.9279725
},
{
  "type": "node",
  "id": 6442860568,
  "lat": 51.8650555,
  "lon": -0.9280270
},
{
  "type": "node",
  "id": 6442860569,
  "lat": 51.8648183,
  "lon": -0.9282300
},
{
  "type": "node",
  "id": 6442860570,
  "lat": 51.8651691,
  "lon": -0.9291846
},
{
  "type": "node",
  "id": 6442860571,
  "lat": 51.8651902,
  "lon": -0.9292178
},
{
  "type": "node",
  "id": 6442866795,
  "lat": 51.8647385,
  "lon": -0.9304301
},
{
  "type": "node",
  "id": 6442866805,
  "lat": 51.8646080,
  "lon": -0.9305887
},
{
  "type": "node",
  "id": 6442866806,
  "lat": 51.8646717,
  "lon": -0.9304982
},
{
  "type": "node",
  "id": 6442866807,
  "lat": 51.8647289,
  "lon": -0.9304384
},
{
  "type": "node",
  "id": 6442866841,
  "lat": 51.8649033,
  "lon": -0.9302719
},
{
  "type": "node",
  "id": 6442866843,
  "lat": 51.8648649,
  "lon": -0.9298132
},
{
  "type": "node",
  "id": 6442866844,
  "lat": 51.8649223,
  "lon": -0.9297435
},
{
  "type": "node",
  "id": 6442866845,
  "lat": 51.8649608,
  "lon": -0.9296872
},
{
  "type": "node",
  "id": 6442866846,
  "lat": 51.8651182,
  "lon": -0.9293707
},
{
  "type": "node",
  "id": 6442866847,
  "lat": 51.8650406,
  "lon": -0.9295363
},
{
  "type": "node",
  "id": 6442866848,
  "lat": 51.8649929,
  "lon": -0.9296311
},
{
  "type": "node",
  "id": 6442866849,
  "lat": 51.8651391,
  "lon": -0.9293271
},
{
  "type": "node",
  "id": 6442866914,
  "lat": 51.8651434,
  "lon": -0.9291440
},
{
  "type": "node",
  "id": 6442866915,
  "lat": 51.8649364,
  "lon": -0.9285620
},
{
  "type": "node",
  "id": 6442866951,
  "lat": 51.8640608,
  "lon": -0.9254401
},
{
  "type": "node",
  "id": 6442867017,
  "lat": 51.8657455,
  "lon": -0.9279900
},
{
  "type": "node",
  "id": 6442867018,
  "lat": 51.8657426,
  "lon": -0.9279984
},
{
  "type": "node",
  "id": 6442867019,
  "lat": 51.8657231,
  "lon": -0.9280312
},
{
  "type": "node",
  "id": 6442867066,
  "lat": 51.8646996,
  "lon": -0.9263979
},
{
  "type": "node",
  "id": 6442867077,
  "lat": 51.8655150,
  "lon": -0.9279226
},
{
  "type": "node",
  "id": 6442867135,
  "lat": 51.8630693,
  "lon": -0.9256773
},
{
  "type": "node",
  "id": 6442867143,
  "lat": 51.8633210,
  "lon": -0.9243261
},
{
  "type": "node",
  "id": 6442867144,
  "lat": 51.8633579,
  "lon": -0.9243576
},
{
  "type": "node",
  "id": 6442867145,
  "lat": 51.8642107,
  "lon": -0.9256710
},
{
  "type": "node",
  "id": 6442867146,
  "lat": 51.8657447,
  "lon": -0.9279770
},
{
  "type": "node",
  "id": 6442867147,
  "lat": 51.8646614,
  "lon": -0.9263411
},
{
  "type": "node",
  "id": 6442867148,
  "lat": 51.8651882,
  "lon": -0.9271244
},
{
  "type": "node",
  "id": 6442867448,
  "lat": 51.8631546,
  "lon": -0.9255995
},
{
  "type": "node",
  "id": 6442867449,
  "lat": 51.8630018,
  "lon": -0.9251449
},
{
  "type": "node",
  "id": 6442867591,
  "lat": 51.8649004,
  "lon": -0.9299185
},
{
  "type": "node",
  "id": 6442867641,
  "lat": 51.8636052,
  "lon": -0.9291460
},
{
  "type": "node",
  "id": 6442867642,
  "lat": 51.8641352,
  "lon": -0.9295039
},
{
  "type": "node",
  "id": 6442867666,
  "lat": 51.8632552,
  "lon": -0.9241538
},
{
  "type": "node",
  "id": 6442867709,
  "lat": 51.8626092,
  "lon": -0.9240666
},
{
  "type": "node",
  "id": 6442867710,
  "lat": 51.8627782,
  "lon": -0.9245092
},
{
  "type": "node",
  "id": 6442867711,
  "lat": 51.8629488,
  "lon": -0.9249893
},
{
  "type": "node",
  "id": 6442867742,
  "lat": 51.8630755,
  "lon": -0.9256934
},
{
  "type": "node",
  "id": 6442867743,
  "lat": 51.8632486,
  "lon": -0.9261990
},
{
  "type": "node",
  "id": 6442867744,
  "lat": 51.8642126,
  "lon": -0.9295477
},
{
  "type": "node",
  "id": 6442867745,
  "lat": 51.8642134,
  "lon": -0.9295021
},
{
  "type": "node",
  "id": 6442867746,
  "lat": 51.8642080,
  "lon": -0.9293901
},
{
  "type": "node",
  "id": 6442867747,
  "lat": 51.8638635,
  "lon": -0.9279907
},
{
  "type": "node",
  "id": 6442867748,
  "lat": 51.8639393,
  "lon": -0.9282155
},
{
  "type": "node",
  "id": 6442867749,
  "lat": 51.8639744,
  "lon": -0.9283237
},
{
  "type": "node",
  "id": 6442867750,
  "lat": 51.8640183,
  "lon": -0.9284592
},
{
  "type": "node",
  "id": 6442867751,
  "lat": 51.8640638,
  "lon": -0.9286221
},
{
  "type": "node",
  "id": 6442867752,
  "lat": 51.8641036,
  "lon": -0.9287830
},
{
  "type": "node",
  "id": 6442867753,
  "lat": 51.8641363,
  "lon": -0.9289346
},
{
  "type": "node",
  "id": 6442867754,
  "lat": 51.8641537,
  "lon": -0.9290392
},
{
  "type": "node",
  "id": 6442867755,
  "lat": 51.8641959,
  "lon": -0.9293067
},
{
  "type": "node",
  "id": 6442867756,
  "lat": 51.8638393,
  "lon": -0.9279118
},
{
  "type": "node",
  "id": 6442867757,
  "lat": 51.8637761,
  "lon": -0.9277245
},
{
  "type": "node",
  "id": 6442867758,
  "lat": 51.8636718,
  "lon": -0.9274053
},
{
  "type": "node",
  "id": 6442867759,
  "lat": 51.8635716,
  "lon": -0.9271197
},
{
  "type": "node",
  "id": 6442867760,
  "lat": 51.8634612,
  "lon": -0.9268183
},
{
  "type": "node",
  "id": 6442867761,
  "lat": 51.8634430,
  "lon": -0.9267646
},
{
  "type": "node",
  "id": 6442868446,
  "lat": 51.8649463,
  "lon": -0.9302317
},
{
  "type": "node",
  "id": 6442868447,
  "lat": 51.8650053,
  "lon": -0.9301898
},
{
  "type": "node",
  "id": 6442868466,
  "lat": 51.8653204,
  "lon": -0.9287932
},
{
  "type": "node",
  "id": 6442868467,
  "lat": 51.8654121,
  "lon": -0.9286076
},
{
  "type": "node",
  "id": 6442868469,
  "lat": 51.8654252,
  "lon": -0.9282845
},
{
  "type": "node",
  "id": 6442868470,
  "lat": 51.8656694,
  "lon": -0.9280613
},
{
  "type": "node",
  "id": 6442868471,
  "lat": 51.8656779,
  "lon": -0.9280661
},
{
  "type": "node",
  "id": 6442868472,
  "lat": 51.8656956,
  "lon": -0.9280617
},
{
  "type": "node",
  "id": 6442868473,
  "lat": 51.8656870,
  "lon": -0.9280662
},
{
  "type": "node",
  "id": 6442868474,
  "lat": 51.8657059,
  "lon": -0.9280507
},
{
  "type": "node",
  "id": 6442868475,
  "lat": 51.8655699,
  "lon": -0.9279618
},
{
  "type": "node",
  "id": 6442868476,
  "lat": 51.8655260,
  "lon": -0.9279042
},
{
  "type": "node",
  "id": 6442868591,
  "lat": 51.8654266,
  "lon": -0.9285620
},
{
  "type": "node",
  "id": 6442868593,
  "lat": 51.8654679,
  "lon": -0.9280041
},
{
  "type": "node",
  "id": 6444005072,
  "lat": 51.8648519,
  "lon": -0.9282012
},
{
  "type": "node",
  "id": 6447347151,
  "lat": 51.8649420,
  "lon": -0.9300260
},
{
  "type": "node",
  "id": 6447347167,
  "lat": 51.8648763,
  "lon": -0.9283930
},
{
  "type": "node",
  "id": 6447347390,
  "lat": 51.8651283,
  "lon": -0.9291015
},
{
  "type": "node",
  "id": 6883716239,
  "lat": 51.8633195,
  "lon": -0.9301841
},
{
  "type": "node",
  "id": 6883716241,
  "lat": 51.8634717,
  "lon": -0.9296312
},
{
  "type": "node",
  "id": 6883716242,
  "lat": 51.8632496,
  "lon": -0.9304379
},
{
  "type": "node",
  "id": 6883716252,
  "lat": 51.8632143,
  "lon": -0.9305661
},
{
  "type": "node",
  "id": 6442866950,
  "lat": 51.8631339,
  "lon": -0.9237756
},
{
  "type": "node",
  "id": 6442867136,
  "lat": 51.8621189,
  "lon": -0.9211752
},
{
  "type": "node",
  "id": 6442867137,
  "lat": 51.8619599,
  "lon": -0.9209338
},
{
  "type": "node",
  "id": 6442867292,
  "lat": 51.8622912,
  "lon": -0.9214434
},
{
  "type": "node",
  "id": 6442867293,
  "lat": 51.8623732,
  "lon": -0.9216084
},
{
  "type": "node",
  "id": 6442867294,
  "lat": 51.8624568,
  "lon": -0.9217814
},
{
  "type": "node",
  "id": 6442867295,
  "lat": 51.8626001,
  "lon": -0.9221193
},
{
  "type": "node",
  "id": 6442867296,
  "lat": 51.8626937,
  "lon": -0.9223728
},
{
  "type": "node",
  "id": 6442867297,
  "lat": 51.8627521,
  "lon": -0.9225807
},
{
  "type": "node",
  "id": 6442867298,
  "lat": 51.8627968,
  "lon": -0.9227235
},
{
  "type": "node",
  "id": 6442867299,
  "lat": 51.8628187,
  "lon": -0.9228127
},
{
  "type": "node",
  "id": 6442867661,
  "lat": 51.8628717,
  "lon": -0.9229736
},
{
  "type": "node",
  "id": 6442867662,
  "lat": 51.8629140,
  "lon": -0.9230822
},
{
  "type": "node",
  "id": 6442867663,
  "lat": 51.8629512,
  "lon": -0.9232150
},
{
  "type": "node",
  "id": 6442867664,
  "lat": 51.8629852,
  "lon": -0.9233008
},
{
  "type": "node",
  "id": 6442867665,
  "lat": 51.8630018,
  "lon": -0.9233639
},
{
  "type": "node",
  "id": 6442867695,
  "lat": 51.8620270,
  "lon": -0.9224170
},
{
  "type": "node",
  "id": 6442867707,
  "lat": 51.8621736,
  "lon": -0.9228623
},
{
  "type": "node",
  "id": 6442867708,
  "lat": 51.8624817,
  "lon": -0.9237126
},
{
  "type": "node",
  "id": 6444004995,
  "lat": 51.8623389,
  "lon": -0.9215393
},
{
  "type": "node",
  "id": 6444005119,
  "lat": 51.8627511,
  "lon": -0.9225770
},
{
  "type": "node",
  "id": 3663514033,
  "lat": 52.0010125,
  "lon": -0.9863937
},
{
  "type": "node",
  "id": 3663514034,
  "lat": 52.0009159,
  "lon": -0.9865573
},
{
  "type": "node",
  "id": 3663514035,
  "lat": 52.0008969,
  "lon": -0.9865291
},
{
  "type": "node",
  "id": 3663514036,
  "lat": 52.0008813,
  "lon": -0.9865466
},
{
  "type": "node",
  "id": 3663514037,
  "lat": 52.0008457,
  "lon": -0.9865466
},
{
  "type": "node",
  "id": 3663514038,
  "lat": 52.0008317,
  "lon": -0.9865627
},
{
  "type": "node",
  "id": 3663514039,
  "lat": 52.0008053,
  "lon": -0.9865157
},
{
  "type": "node",
  "id": 3663514040,
  "lat": 52.0008177,
  "lon": -0.9864983
},
{
  "type": "node",
  "id": 3663514041,
  "lat": 52.0008210,
  "lon": -0.9864446
},
{
  "type": "node",
  "id": 3663514042,
  "lat": 52.0008424,
  "lon": -0.9864098
},
{
  "type": "node",
  "id": 3663514043,
  "lat": 52.0008301,
  "lon": -0.9863870
},
{
  "type": "node",
  "id": 3663514044,
  "lat": 52.0009217,
  "lon": -0.9862421
},
{
  "type": "node",
  "id": 3583442689,
  "lat": 51.6312004,
  "lon": -0.7478782
},
{
  "type": "node",
  "id": 3583442690,
  "lat": 51.6313019,
  "lon": -0.7479554
},
{
  "type": "node",
  "id": 3583442691,
  "lat": 51.6312810,
  "lon": -0.7478402
},
{
  "type": "node",
  "id": 3583442692,
  "lat": 51.6313542,
  "lon": -0.7479308
},
{
  "type": "node",
  "id": 3583447893,
  "lat": 51.6312464,
  "lon": -0.7481317
},
{
  "type": "node",
  "id": 3583447895,
  "lat": 51.6313793,
  "lon": -0.7480691
},
{
  "type": "node",
  "id": 5628760405,
  "lat": 51.6312349,
  "lon": -0.7480681
},
{
  "type": "node",
  "id": 2891417286,
  "lat": 51.6268841,
  "lon": -0.7438009
},
{
  "type": "node",
  "id": 2891417287,
  "lat": 51.6268909,
  "lon": -0.7437687
},
{
  "type": "node",
  "id": 2891417288,
  "lat": 51.6268942,
  "lon": -0.7438228
},
{
  "type": "node",
  "id": 2891417289,
  "lat": 51.6268981,
  "lon": -0.7437842
},
{
  "type": "node",
  "id": 2891417290,
  "lat": 51.6269102,
  "lon": -0.7438037
},
{
  "type": "node",
  "id": 2891417291,
  "lat": 51.6269270,
  "lon": -0.7437257
},
{
  "type": "node",
  "id": 2891417292,
  "lat": 51.6269306,
  "lon": -0.7438482
},
{
  "type": "node",
  "id": 2891417294,
  "lat": 51.6269646,
  "lon": -0.7438076
},
{
  "type": "node",
  "id": 4829183552,
  "lat": 51.7951927,
  "lon": -0.6587407
},
{
  "type": "node",
  "id": 4829183553,
  "lat": 51.7951934,
  "lon": -0.6587850
},
{
  "type": "node",
  "id": 4829183555,
  "lat": 51.7952030,
  "lon": -0.6587475
},
{
  "type": "node",
  "id": 4829183556,
  "lat": 51.7952248,
  "lon": -0.6586147
},
{
  "type": "node",
  "id": 4829183557,
  "lat": 51.7952257,
  "lon": -0.6588066
},
{
  "type": "node",
  "id": 4829183558,
  "lat": 51.7952344,
  "lon": -0.6587727
},
{
  "type": "node",
  "id": 4829183560,
  "lat": 51.7952730,
  "lon": -0.6587985
},
{
  "type": "node",
  "id": 4829183562,
  "lat": 51.7953061,
  "lon": -0.6586689
},
{
  "type": "node",
  "id": 5784861604,
  "lat": 51.7952537,
  "lon": -0.6587856
},
{
  "type": "node",
  "id": 4590601434,
  "lat": 51.6303318,
  "lon": -0.5726941
},
{
  "type": "node",
  "id": 4590601436,
  "lat": 51.6303442,
  "lon": -0.5726369
},
{
  "type": "node",
  "id": 4590601438,
  "lat": 51.6304950,
  "lon": -0.5725638
},
{
  "type": "node",
  "id": 4590601439,
  "lat": 51.6303531,
  "lon": -0.5725607
},
{
  "type": "node",
  "id": 4590601440,
  "lat": 51.6303680,
  "lon": -0.5724921
},
{
  "type": "node",
  "id": 4590601441,
  "lat": 51.6304465,
  "lon": -0.5727589
},
{
  "type": "node",
  "id": 4590601442,
  "lat": 51.6303724,
  "lon": -0.5726528
},
{
  "type": "node",
  "id": 4590601444,
  "lat": 51.6303881,
  "lon": -0.5725806
},
{
  "type": "node",
  "id": 5851115080,
  "lat": 51.6304759,
  "lon": -0.5726240
},
{
  "type": "node",
  "id": 5851115081,
  "lat": 51.6304844,
  "lon": -0.5726127
},
{
  "type": "node",
  "id": 5851115082,
  "lat": 51.6304790,
  "lon": -0.5726096
},
{
  "type": "node",
  "id": 1110414979,
  "lat": 51.6338484,
  "lon": -0.5445689
},
{
  "type": "node",
  "id": 1110415046,
  "lat": 51.6329161,
  "lon": -0.5441398
},
{
  "type": "node",
  "id": 255960549,
  "lat": 51.6341035,
  "lon": -0.5431817
},
{
  "type": "node",
  "id": 1110414863,
  "lat": 51.6331292,
  "lon": -0.5431259
},
{
  "type": "node",
  "id": 1110414879,
  "lat": 51.6349769,
  "lon": -0.5404652
},
{
  "type": "node",
  "id": 1110414882,
  "lat": 51.6360740,
  "lon": -0.5375019
},
{
  "type": "node",
  "id": 1110414891,
  "lat": 51.6372886,
  "lon": -0.5438311
},
{
  "type": "node",
  "id": 1110414895,
  "lat": 51.6376538,
  "lon": -0.5421496
},
{
  "type": "node",
  "id": 1110414904,
  "lat": 51.6345444,
  "lon": -0.5418122
},
{
  "type": "node",
  "id": 1110414912,
  "lat": 51.6381224,
  "lon": -0.5397656
},
{
  "type": "node",
  "id": 1110414914,
  "lat": 51.6346275,
  "lon": -0.5415498
},
{
  "type": "node",
  "id": 1110414983,
  "lat": 51.6363720,
  "lon": -0.5409372
},
{
  "type": "node",
  "id": 1110414993,
  "lat": 51.6340948,
  "lon": -0.5436570
},
{
  "type": "node",
  "id": 1110415036,
  "lat": 51.6379899,
  "lon": -0.5390884
},
{
  "type": "node",
  "id": 1110415061,
  "lat": 51.6378928,
  "lon": -0.5436752
},
{
  "type": "node",
  "id": 1110415065,
  "lat": 51.6361371,
  "lon": -0.5375314
},
{
  "type": "node",
  "id": 1110415070,
  "lat": 51.6338717,
  "lon": -0.5434853
},
{
  "type": "node",
  "id": 1110415072,
  "lat": 51.6355312,
  "lon": -0.5438474
},
{
  "type": "node",
  "id": 1110415088,
  "lat": 51.6367349,
  "lon": -0.5377615
},
{
  "type": "node",
  "id": 1110415133,
  "lat": 51.6379864,
  "lon": -0.5412602
},
{
  "type": "node",
  "id": 1110415137,
  "lat": 51.6353765,
  "lon": -0.5402560
},
{
  "type": "node",
  "id": 1110415176,
  "lat": 51.6379959,
  "lon": -0.5409673
},
{
  "type": "node",
  "id": 1110415244,
  "lat": 51.6344742,
  "lon": -0.5421013
},
{
  "type": "node",
  "id": 1110415253,
  "lat": 51.6367068,
  "lon": -0.5438488
},
{
  "type": "node",
  "id": 1110415257,
  "lat": 51.6379157,
  "lon": -0.5418194
},
{
  "type": "node",
  "id": 1110415271,
  "lat": 51.6379817,
  "lon": -0.5416472
},
{
  "type": "node",
  "id": 1970158320,
  "lat": 51.6357949,
  "lon": -0.5405423
},
{
  "type": "node",
  "id": 1970158340,
  "lat": 51.6354300,
  "lon": -0.5438340
},
{
  "type": "node",
  "id": 1970194180,
  "lat": 51.6349307,
  "lon": -0.5437678
},
{
  "type": "node",
  "id": 1110414851,
  "lat": 51.6361386,
  "lon": -0.5359985
},
{
  "type": "node",
  "id": 1110414906,
  "lat": 51.6367615,
  "lon": -0.5343444
},
{
  "type": "node",
  "id": 1110414911,
  "lat": 51.6377570,
  "lon": -0.5373860
},
{
  "type": "node",
  "id": 1110414926,
  "lat": 51.6372043,
  "lon": -0.5343175
},
{
  "type": "node",
  "id": 1110414929,
  "lat": 51.6375339,
  "lon": -0.5359805
},
{
  "type": "node",
  "id": 1110414931,
  "lat": 51.6365651,
  "lon": -0.5346126
},
{
  "type": "node",
  "id": 1110414991,
  "lat": 51.6361582,
  "lon": -0.5369601
},
{
  "type": "node",
  "id": 1110415114,
  "lat": 51.6359656,
  "lon": -0.5355795
},
{
  "type": "node",
  "id": 1110415149,
  "lat": 51.6372842,
  "lon": -0.5345268
},
{
  "type": "node",
  "id": 1110415175,
  "lat": 51.6373875,
  "lon": -0.5349666
},
{
  "type": "node",
  "id": 1110415196,
  "lat": 51.6369846,
  "lon": -0.5342746
},
{
  "type": "node",
  "id": 1110415260,
  "lat": 51.6361968,
  "lon": -0.5367871
},
{
  "type": "node",
  "id": 1135506579,
  "lat": 51.7390222,
  "lon": -0.4692192
},
{
  "type": "node",
  "id": 1135506582,
  "lat": 51.7388627,
  "lon": -0.4694552
},
{
  "type": "node",
  "id": 1135506585,
  "lat": 51.7388029,
  "lon": -0.4693265
},
{
  "type": "node",
  "id": 1135506588,
  "lat": 51.7387165,
  "lon": -0.4691441
},
{
  "type": "node",
  "id": 1135506592,
  "lat": 51.7385305,
  "lon": -0.4687364
},
{
  "type": "node",
  "id": 1135506595,
  "lat": 51.7385970,
  "lon": -0.4686291
},
{
  "type": "node",
  "id": 1135506597,
  "lat": 51.7385305,
  "lon": -0.4684574
},
{
  "type": "node",
  "id": 1135506599,
  "lat": 51.7384774,
  "lon": -0.4684681
},
{
  "type": "node",
  "id": 1135506600,
  "lat": 51.7383085,
  "lon": -0.4680289
},
{
  "type": "node",
  "id": 1135506605,
  "lat": 51.7385126,
  "lon": -0.4679199
},
{
  "type": "node",
  "id": 1135506610,
  "lat": 51.7385744,
  "lon": -0.4682209
},
{
  "type": "node",
  "id": 1135506614,
  "lat": 51.7387954,
  "lon": -0.4688190
},
{
  "type": "node",
  "id": 1135506617,
  "lat": 51.7389371,
  "lon": -0.4690661
},
{
  "type": "node",
  "id": 3772232967,
  "lat": 51.7388294,
  "lon": -0.4687854
},
{
  "type": "node",
  "id": 3772232968,
  "lat": 51.7387350,
  "lon": -0.4685047
},
{
  "type": "node",
  "id": 3772232969,
  "lat": 51.7387104,
  "lon": -0.4685230
},
{
  "type": "node",
  "id": 3772232970,
  "lat": 51.7386745,
  "lon": -0.4684254
},
{
  "type": "node",
  "id": 3772232971,
  "lat": 51.7386462,
  "lon": -0.4684406
},
{
  "type": "node",
  "id": 3772232972,
  "lat": 51.7386197,
  "lon": -0.4681751
},
{
  "type": "node",
  "id": 3772232973,
  "lat": 51.7384237,
  "lon": -0.4679437
},
{
  "type": "node",
  "id": 3772232974,
  "lat": 51.7384289,
  "lon": -0.4679616
},
{
  "type": "node",
  "id": 6627269493,
  "lat": 51.7384413,
  "lon": -0.4679851
},
{
  "type": "node",
  "id": 274605479,
  "lat": 51.9970282,
  "lon": -0.7420921
},
{
  "type": "node",
  "id": 274605481,
  "lat": 51.9973933,
  "lon": -0.7420037
},
{
  "type": "node",
  "id": 274605482,
  "lat": 51.9973882,
  "lon": -0.7418590
},
{
  "type": "node",
  "id": 274605496,
  "lat": 51.9973679,
  "lon": -0.7408501
},
{
  "type": "node",
  "id": 274605498,
  "lat": 51.9974670,
  "lon": -0.7408347
},
{
  "type": "node",
  "id": 426683277,
  "lat": 51.9970819,
  "lon": -0.7421539
},
{
  "type": "node",
  "id": 426683278,
  "lat": 51.9973162,
  "lon": -0.7421980
},
{
  "type": "node",
  "id": 426683279,
  "lat": 51.9970918,
  "lon": -0.7422556
},
{
  "type": "node",
  "id": 426683280,
  "lat": 51.9973057,
  "lon": -0.7420901
},
{
  "type": "node",
  "id": 426683294,
  "lat": 51.9973407,
  "lon": -0.7422061
},
{
  "type": "node",
  "id": 426683295,
  "lat": 51.9973259,
  "lon": -0.7420638
},
{
  "type": "node",
  "id": 426683297,
  "lat": 51.9976067,
  "lon": -0.7421331
},
{
  "type": "node",
  "id": 426683298,
  "lat": 51.9975919,
  "lon": -0.7419908
},
{
  "type": "node",
  "id": 426683299,
  "lat": 51.9974576,
  "lon": -0.7421957
},
{
  "type": "node",
  "id": 426683300,
  "lat": 51.9974731,
  "lon": -0.7423557
},
{
  "type": "node",
  "id": 426683301,
  "lat": 51.9976331,
  "lon": -0.7421509
},
{
  "type": "node",
  "id": 426683302,
  "lat": 51.9976486,
  "lon": -0.7423109
},
{
  "type": "node",
  "id": 426683303,
  "lat": 51.9976222,
  "lon": -0.7424583
},
{
  "type": "node",
  "id": 426683304,
  "lat": 51.9975345,
  "lon": -0.7425019
},
{
  "type": "node",
  "id": 426683305,
  "lat": 51.9976701,
  "lon": -0.7427129
},
{
  "type": "node",
  "id": 426683306,
  "lat": 51.9975824,
  "lon": -0.7427564
},
{
  "type": "node",
  "id": 426683430,
  "lat": 51.9959007,
  "lon": -0.7427753
},
{
  "type": "node",
  "id": 426683431,
  "lat": 51.9959007,
  "lon": -0.7426592
},
{
  "type": "node",
  "id": 426683432,
  "lat": 51.9957324,
  "lon": -0.7427753
},
{
  "type": "node",
  "id": 426683433,
  "lat": 51.9957324,
  "lon": -0.7426592
},
{
  "type": "node",
  "id": 436250001,
  "lat": 51.9989089,
  "lon": -0.7418377
},
{
  "type": "node",
  "id": 779061340,
  "lat": 51.9975882,
  "lon": -0.7428045
},
{
  "type": "node",
  "id": 779061341,
  "lat": 51.9976715,
  "lon": -0.7427619
},
{
  "type": "node",
  "id": 779061342,
  "lat": 51.9977506,
  "lon": -0.7431694
},
{
  "type": "node",
  "id": 779061343,
  "lat": 51.9976673,
  "lon": -0.7432120
},
{
  "type": "node",
  "id": 779061362,
  "lat": 51.9973176,
  "lon": -0.7406138
},
{
  "type": "node",
  "id": 779061363,
  "lat": 51.9973489,
  "lon": -0.7406090
},
{
  "type": "node",
  "id": 779061364,
  "lat": 51.9973512,
  "lon": -0.7406476
},
{
  "type": "node",
  "id": 779061365,
  "lat": 51.9973538,
  "lon": -0.7406916
},
{
  "type": "node",
  "id": 779061366,
  "lat": 51.9971746,
  "lon": -0.7407193
},
{
  "type": "node",
  "id": 779061367,
  "lat": 51.9971839,
  "lon": -0.7408785
},
{
  "type": "node",
  "id": 779092542,
  "lat": 51.9959007,
  "lon": -0.7427354
},
{
  "type": "node",
  "id": 779096468,
  "lat": 51.9986224,
  "lon": -0.7438922
},
{
  "type": "node",
  "id": 1049882209,
  "lat": 51.9961474,
  "lon": -0.7435561
},
{
  "type": "node",
  "id": 1621911272,
  "lat": 51.9972630,
  "lon": -0.7417023
},
{
  "type": "node",
  "id": 1621911291,
  "lat": 51.9972708,
  "lon": -0.7418168
},
{
  "type": "node",
  "id": 1621911344,
  "lat": 51.9973853,
  "lon": -0.7416804
},
{
  "type": "node",
  "id": 1621911350,
  "lat": 51.9973931,
  "lon": -0.7417949
},
{
  "type": "node",
  "id": 1621911365,
  "lat": 51.9974138,
  "lon": -0.7415583
},
{
  "type": "node",
  "id": 1621911375,
  "lat": 51.9974407,
  "lon": -0.7419702
},
{
  "type": "node",
  "id": 1621911377,
  "lat": 51.9974555,
  "lon": -0.7406388
},
{
  "type": "node",
  "id": 1621911380,
  "lat": 51.9974752,
  "lon": -0.7406358
},
{
  "type": "node",
  "id": 1621911393,
  "lat": 51.9975166,
  "lon": -0.7415405
},
{
  "type": "node",
  "id": 1621911402,
  "lat": 51.9975435,
  "lon": -0.7419524
},
{
  "type": "node",
  "id": 1671895306,
  "lat": 51.9980592,
  "lon": -0.7433173
},
{
  "type": "node",
  "id": 1671895448,
  "lat": 51.9980527,
  "lon": -0.7446293
},
{
  "type": "node",
  "id": 1939192585,
  "lat": 51.9971036,
  "lon": -0.7420850
},
{
  "type": "node",
  "id": 1939192596,
  "lat": 51.9964352,
  "lon": -0.7428559
},
{
  "type": "node",
  "id": 1939192599,
  "lat": 51.9962873,
  "lon": -0.7437955
},
{
  "type": "node",
  "id": 1939192600,
  "lat": 51.9970233,
  "lon": -0.7419544
},
{
  "type": "node",
  "id": 1939192605,
  "lat": 51.9964744,
  "lon": -0.7428181
},
{
  "type": "node",
  "id": 1939192606,
  "lat": 51.9964232,
  "lon": -0.7430109
},
{
  "type": "node",
  "id": 1939192607,
  "lat": 51.9964452,
  "lon": -0.7428285
},
{
  "type": "node",
  "id": 1939192610,
  "lat": 51.9968349,
  "lon": -0.7432489
},
{
  "type": "node",
  "id": 1939192616,
  "lat": 51.9955236,
  "lon": -0.7431789
},
{
  "type": "node",
  "id": 1939192621,
  "lat": 51.9972882,
  "lon": -0.7420481
},
{
  "type": "node",
  "id": 1939192629,
  "lat": 51.9964725,
  "lon": -0.7430764
},
{
  "type": "node",
  "id": 1939192632,
  "lat": 51.9975595,
  "lon": -0.7434708
},
{
  "type": "node",
  "id": 1939192637,
  "lat": 51.9964315,
  "lon": -0.7430874
},
{
  "type": "node",
  "id": 1939192638,
  "lat": 51.9965459,
  "lon": -0.7435653
},
{
  "type": "node",
  "id": 1939192639,
  "lat": 51.9972926,
  "lon": -0.7420935
},
{
  "type": "node",
  "id": 1939192640,
  "lat": 51.9984511,
  "lon": -0.7430513
},
{
  "type": "node",
  "id": 1939192644,
  "lat": 51.9968126,
  "lon": -0.7432590
},
{
  "type": "node",
  "id": 1939192649,
  "lat": 51.9967998,
  "lon": -0.7431823
},
{
  "type": "node",
  "id": 1939192655,
  "lat": 51.9980153,
  "lon": -0.7440344
},
{
  "type": "node",
  "id": 1939192661,
  "lat": 51.9968341,
  "lon": -0.7433810
},
{
  "type": "node",
  "id": 1939192665,
  "lat": 51.9964563,
  "lon": -0.7432368
},
{
  "type": "node",
  "id": 1939192666,
  "lat": 51.9968234,
  "lon": -0.7431718
},
{
  "type": "node",
  "id": 1939192668,
  "lat": 51.9973584,
  "lon": -0.7436734
},
{
  "type": "node",
  "id": 1939192671,
  "lat": 51.9990678,
  "lon": -0.7427665
},
{
  "type": "node",
  "id": 1939192675,
  "lat": 51.9988221,
  "lon": -0.7436472
},
{
  "type": "node",
  "id": 1939192681,
  "lat": 51.9967942,
  "lon": -0.7432022
},
{
  "type": "node",
  "id": 1939192682,
  "lat": 51.9967890,
  "lon": -0.7435715
},
{
  "type": "node",
  "id": 1939192683,
  "lat": 51.9967155,
  "lon": -0.7435997
},
{
  "type": "node",
  "id": 1939192686,
  "lat": 51.9964906,
  "lon": -0.7428378
},
{
  "type": "node",
  "id": 1939192689,
  "lat": 51.9967520,
  "lon": -0.7432196
},
{
  "type": "node",
  "id": 1939192690,
  "lat": 51.9983963,
  "lon": -0.7442164
},
{
  "type": "node",
  "id": 1939192692,
  "lat": 51.9959309,
  "lon": -0.7431855
},
{
  "type": "node",
  "id": 1939192695,
  "lat": 51.9964513,
  "lon": -0.7431976
},
{
  "type": "node",
  "id": 1939192697,
  "lat": 51.9968386,
  "lon": -0.7431874
},
{
  "type": "node",
  "id": 1939192700,
  "lat": 51.9973550,
  "lon": -0.7436351
},
{
  "type": "node",
  "id": 1939192702,
  "lat": 51.9964387,
  "lon": -0.7430068
},
{
  "type": "node",
  "id": 1939192703,
  "lat": 51.9964256,
  "lon": -0.7428814
},
{
  "type": "node",
  "id": 1939192704,
  "lat": 51.9953864,
  "lon": -0.7417249
},
{
  "type": "node",
  "id": 1939192709,
  "lat": 51.9968448,
  "lon": -0.7432227
},
{
  "type": "node",
  "id": 1939192711,
  "lat": 51.9964378,
  "lon": -0.7428781
},
{
  "type": "node",
  "id": 1939192715,
  "lat": 51.9966979,
  "lon": -0.7435004
},
{
  "type": "node",
  "id": 1939192717,
  "lat": 51.9964926,
  "lon": -0.7432268
},
{
  "type": "node",
  "id": 1939192722,
  "lat": 51.9967175,
  "lon": -0.7434921
},
{
  "type": "node",
  "id": 1939192725,
  "lat": 51.9964865,
  "lon": -0.7431879
},
{
  "type": "node",
  "id": 1939192726,
  "lat": 51.9974278,
  "lon": -0.7435412
},
{
  "type": "node",
  "id": 1939192727,
  "lat": 51.9954186,
  "lon": -0.7424530
},
{
  "type": "node",
  "id": 1939192731,
  "lat": 51.9971017,
  "lon": -0.7420312
},
{
  "type": "node",
  "id": 1939192734,
  "lat": 51.9981106,
  "lon": -0.7437155
},
{
  "type": "node",
  "id": 1939192735,
  "lat": 51.9968447,
  "lon": -0.7435471
},
{
  "type": "node",
  "id": 1939192738,
  "lat": 51.9966805,
  "lon": -0.7427708
},
{
  "type": "node",
  "id": 1939192743,
  "lat": 51.9971789,
  "lon": -0.7421290
},
{
  "type": "node",
  "id": 1939192754,
  "lat": 51.9966416,
  "lon": -0.7435217
},
{
  "type": "node",
  "id": 1939192755,
  "lat": 51.9968186,
  "lon": -0.7433881
},
{
  "type": "node",
  "id": 1939192757,
  "lat": 51.9966595,
  "lon": -0.7436249
},
{
  "type": "node",
  "id": 1939192761,
  "lat": 51.9966884,
  "lon": -0.7433177
},
{
  "type": "node",
  "id": 1939192762,
  "lat": 51.9971739,
  "lon": -0.7420774
},
{
  "type": "node",
  "id": 1939192763,
  "lat": 51.9970494,
  "lon": -0.7418909
},
{
  "type": "node",
  "id": 1939192767,
  "lat": 51.9980941,
  "lon": -0.7432067
},
{
  "type": "node",
  "id": 1939192773,
  "lat": 51.9970516,
  "lon": -0.7419517
},
{
  "type": "node",
  "id": 1939192777,
  "lat": 51.9989261,
  "lon": -0.7419395
},
{
  "type": "node",
  "id": 1939192778,
  "lat": 51.9967411,
  "lon": -0.7432952
},
{
  "type": "node",
  "id": 1939200005,
  "lat": 51.9953339,
  "lon": -0.7418427
},
{
  "type": "node",
  "id": 2049660880,
  "lat": 51.9977567,
  "lon": -0.7433911
},
{
  "type": "node",
  "id": 2049660883,
  "lat": 51.9973535,
  "lon": -0.7435560
},
{
  "type": "node",
  "id": 2432876535,
  "lat": 51.9987016,
  "lon": -0.7429399
},
{
  "type": "node",
  "id": 2439713875,
  "lat": 51.9966835,
  "lon": -0.7438254
},
{
  "type": "node",
  "id": 2439713877,
  "lat": 51.9966451,
  "lon": -0.7437072
},
{
  "type": "node",
  "id": 2439713879,
  "lat": 51.9968187,
  "lon": -0.7438227
},
{
  "type": "node",
  "id": 2444890108,
  "lat": 51.9954259,
  "lon": -0.7425239
},
{
  "type": "node",
  "id": 2453487261,
  "lat": 51.9979770,
  "lon": -0.7443186
},
{
  "type": "node",
  "id": 4360006707,
  "lat": 51.9954983,
  "lon": -0.7408342
},
{
  "type": "node",
  "id": 4360006709,
  "lat": 51.9960783,
  "lon": -0.7409510
},
{
  "type": "node",
  "id": 4892325372,
  "lat": 51.9958958,
  "lon": -0.7409143
},
{
  "type": "node",
  "id": 5011817949,
  "lat": 51.9959804,
  "lon": -0.7414122
},
{
  "type": "node",
  "id": 5011817950,
  "lat": 51.9959139,
  "lon": -0.7413968
},
{
  "type": "node",
  "id": 5011817951,
  "lat": 51.9958737,
  "lon": -0.7418147
},
{
  "type": "node",
  "id": 5011817952,
  "lat": 51.9959438,
  "lon": -0.7418318
},
{
  "type": "node",
  "id": 5011817953,
  "lat": 51.9960076,
  "lon": -0.7409749
},
{
  "type": "node",
  "id": 5011817954,
  "lat": 51.9959660,
  "lon": -0.7411418
},
{
  "type": "node",
  "id": 5011817955,
  "lat": 51.9960601,
  "lon": -0.7412063
},
{
  "type": "node",
  "id": 5011817956,
  "lat": 51.9961034,
  "lon": -0.7410329
},
{
  "type": "node",
  "id": 5011817957,
  "lat": 51.9953713,
  "lon": -0.7431823
},
{
  "type": "node",
  "id": 5011817958,
  "lat": 51.9954648,
  "lon": -0.7431510
},
{
  "type": "node",
  "id": 5011817959,
  "lat": 51.9954008,
  "lon": -0.7426497
},
{
  "type": "node",
  "id": 5011817960,
  "lat": 51.9953073,
  "lon": -0.7426810
},
{
  "type": "node",
  "id": 5011817973,
  "lat": 51.9954524,
  "lon": -0.7428819
},
{
  "type": "node",
  "id": 5011817974,
  "lat": 51.9954901,
  "lon": -0.7428676
},
{
  "type": "node",
  "id": 5011817975,
  "lat": 51.9954777,
  "lon": -0.7427826
},
{
  "type": "node",
  "id": 5011817976,
  "lat": 51.9954400,
  "lon": -0.7427968
},
{
  "type": "node",
  "id": 5927526085,
  "lat": 51.9980462,
  "lon": -0.7432280
},
{
  "type": "node",
  "id": 5927526087,
  "lat": 51.9983054,
  "lon": -0.7431111
},
{
  "type": "node",
  "id": 274605491,
  "lat": 51.9975167,
  "lon": -0.7400177
},
{
  "type": "node",
  "id": 274605493,
  "lat": 51.9973416,
  "lon": -0.7400448
},
{
  "type": "node",
  "id": 779061358,
  "lat": 51.9974485,
  "lon": -0.7401808
},
{
  "type": "node",
  "id": 779061359,
  "lat": 51.9975235,
  "lon": -0.7401688
},
{
  "type": "node",
  "id": 779061360,
  "lat": 51.9973654,
  "lon": -0.7404502
},
{
  "type": "node",
  "id": 779061361,
  "lat": 51.9973086,
  "lon": -0.7404590
},
{
  "type": "node",
  "id": 779061370,
  "lat": 51.9993862,
  "lon": -0.7401457
},
{
  "type": "node",
  "id": 779061372,
  "lat": 51.9989641,
  "lon": -0.7400073
},
{
  "type": "node",
  "id": 779061374,
  "lat": 51.9986860,
  "lon": -0.7400813
},
{
  "type": "node",
  "id": 779061376,
  "lat": 51.9985247,
  "lon": -0.7393892
},
{
  "type": "node",
  "id": 779061377,
  "lat": 51.9984007,
  "lon": -0.7385173
},
{
  "type": "node",
  "id": 779061379,
  "lat": 51.9970210,
  "lon": -0.7387114
},
{
  "type": "node",
  "id": 779173211,
  "lat": 51.9970417,
  "lon": -0.7395282
},
{
  "type": "node",
  "id": 1621911234,
  "lat": 51.9971501,
  "lon": -0.7393103
},
{
  "type": "node",
  "id": 1621911257,
  "lat": 51.9971925,
  "lon": -0.7398875
},
{
  "type": "node",
  "id": 1621911263,
  "lat": 51.9972481,
  "lon": -0.7392913
},
{
  "type": "node",
  "id": 1621911269,
  "lat": 51.9972627,
  "lon": -0.7394905
},
{
  "type": "node",
  "id": 1621911274,
  "lat": 51.9972771,
  "lon": -0.7396619
},
{
  "type": "node",
  "id": 1621911275,
  "lat": 51.9972793,
  "lon": -0.7392847
},
{
  "type": "node",
  "id": 1621911299,
  "lat": 51.9972922,
  "lon": -0.7398681
},
{
  "type": "node",
  "id": 1621911303,
  "lat": 51.9972940,
  "lon": -0.7394844
},
{
  "type": "node",
  "id": 1621911308,
  "lat": 51.9973018,
  "lon": -0.7396571
},
{
  "type": "node",
  "id": 1621911311,
  "lat": 51.9973169,
  "lon": -0.7398627
},
{
  "type": "node",
  "id": 1621911339,
  "lat": 51.9973736,
  "lon": -0.7392703
},
{
  "type": "node",
  "id": 1621911341,
  "lat": 51.9973900,
  "lon": -0.7394717
},
{
  "type": "node",
  "id": 1621911346,
  "lat": 51.9974031,
  "lon": -0.7396409
},
{
  "type": "node",
  "id": 1621911348,
  "lat": 51.9974037,
  "lon": -0.7392620
},
{
  "type": "node",
  "id": 1621911353,
  "lat": 51.9974180,
  "lon": -0.7398431
},
{
  "type": "node",
  "id": 1621911355,
  "lat": 51.9974187,
  "lon": -0.7394661
},
{
  "type": "node",
  "id": 1621911370,
  "lat": 51.9974330,
  "lon": -0.7396351
},
{
  "type": "node",
  "id": 1621911373,
  "lat": 51.9974480,
  "lon": -0.7398397
},
{
  "type": "node",
  "id": 1621911382,
  "lat": 51.9974999,
  "lon": -0.7392434
},
{
  "type": "node",
  "id": 1621911391,
  "lat": 51.9975146,
  "lon": -0.7394436
},
{
  "type": "node",
  "id": 1621911394,
  "lat": 51.9975297,
  "lon": -0.7396182
},
{
  "type": "node",
  "id": 1621911395,
  "lat": 51.9975316,
  "lon": -0.7392384
},
{
  "type": "node",
  "id": 1621911396,
  "lat": 51.9975446,
  "lon": -0.7398210
},
{
  "type": "node",
  "id": 1621911398,
  "lat": 51.9975463,
  "lon": -0.7394375
},
{
  "type": "node",
  "id": 1621911419,
  "lat": 51.9975405,
  "lon": -0.7401545
},
{
  "type": "node",
  "id": 1621911421,
  "lat": 51.9975596,
  "lon": -0.7396124
},
{
  "type": "node",
  "id": 1621911425,
  "lat": 51.9975370,
  "lon": -0.7400210
},
{
  "type": "node",
  "id": 1621911430,
  "lat": 51.9975747,
  "lon": -0.7398167
},
{
  "type": "node",
  "id": 1621911450,
  "lat": 51.9976494,
  "lon": -0.7402105
},
{
  "type": "node",
  "id": 1621911453,
  "lat": 51.9976830,
  "lon": -0.7400106
},
{
  "type": "node",
  "id": 1621911472,
  "lat": 51.9977232,
  "lon": -0.7392012
},
{
  "type": "node",
  "id": 1621911483,
  "lat": 51.9977642,
  "lon": -0.7397799
},
{
  "type": "node",
  "id": 1939192756,
  "lat": 51.9962652,
  "lon": -0.7401959
},
{
  "type": "node",
  "id": 2048222958,
  "lat": 51.9968140,
  "lon": -0.7396172
},
{
  "type": "node",
  "id": 2435716812,
  "lat": 51.9977382,
  "lon": -0.7385424
},
{
  "type": "node",
  "id": 2435716814,
  "lat": 51.9985774,
  "lon": -0.7398077
},
{
  "type": "node",
  "id": 4360006711,
  "lat": 51.9962727,
  "lon": -0.7400678
},
{
  "type": "node",
  "id": 4360006716,
  "lat": 51.9968861,
  "lon": -0.7399370
},
{
  "type": "node",
  "id": 4360006736,
  "lat": 51.9984684,
  "lon": -0.7390457
},
{
  "type": "node",
  "id": 4512534122,
  "lat": 51.9971702,
  "lon": -0.7395949
},
{
  "type": "node",
  "id": 4512534129,
  "lat": 51.9974478,
  "lon": -0.7392535
},
{
  "type": "node",
  "id": 4512534132,
  "lat": 51.9975581,
  "lon": -0.7401533
},
{
  "type": "node",
  "id": 4512534133,
  "lat": 51.9975598,
  "lon": -0.7402168
},
{
  "type": "node",
  "id": 4512534135,
  "lat": 51.9976478,
  "lon": -0.7401526
},
{
  "type": "node",
  "id": 4512534136,
  "lat": 51.9976867,
  "lon": -0.7401499
},
{
  "type": "node",
  "id": 4512534137,
  "lat": 51.9976995,
  "lon": -0.7397925
},
{
  "type": "node",
  "id": 4742759575,
  "lat": 51.9973096,
  "lon": -0.7386655
},
{
  "type": "node",
  "id": 4892325374,
  "lat": 51.9962502,
  "lon": -0.7404408
},
{
  "type": "node",
  "id": 5927524984,
  "lat": 51.9986153,
  "lon": -0.7399631
},
{
  "type": "node",
  "id": 6757547850,
  "lat": 51.9976378,
  "lon": -0.7393767
},
{
  "type": "node",
  "id": 6757547851,
  "lat": 51.9976415,
  "lon": -0.7394270
},
{
  "type": "node",
  "id": 6757547852,
  "lat": 51.9976551,
  "lon": -0.7395866
},
{
  "type": "node",
  "id": 6757547853,
  "lat": 51.9976587,
  "lon": -0.7396359
},
{
  "type": "node",
  "id": 6757547854,
  "lat": 51.9977347,
  "lon": -0.7393579
},
{
  "type": "node",
  "id": 6757547855,
  "lat": 51.9977368,
  "lon": -0.7394085
},
{
  "type": "node",
  "id": 6757547856,
  "lat": 51.9977486,
  "lon": -0.7395685
},
{
  "type": "node",
  "id": 6757547857,
  "lat": 51.9977522,
  "lon": -0.7396177
},
{
  "type": "node",
  "id": 6757547858,
  "lat": 51.9971322,
  "lon": -0.7394944
},
{
  "type": "node",
  "id": 6757547859,
  "lat": 51.9970702,
  "lon": -0.7392596
},
{
  "type": "node",
  "id": 7197935140,
  "lat": 51.9973063,
  "lon": -0.7392806
},
{
  "type": "node",
  "id": 779092561,
  "lat": 51.9996102,
  "lon": -0.7415192
},
{
  "type": "node",
  "id": 3390395504,
  "lat": 51.9895340,
  "lon": -0.6199850
},
{
  "type": "node",
  "id": 3390395505,
  "lat": 51.9897123,
  "lon": -0.6199788
},
{
  "type": "node",
  "id": 3390395506,
  "lat": 51.9897110,
  "lon": -0.6198741
},
{
  "type": "node",
  "id": 3390395507,
  "lat": 51.9896534,
  "lon": -0.6198761
},
{
  "type": "node",
  "id": 3390395508,
  "lat": 51.9896537,
  "lon": -0.6199015
},
{
  "type": "node",
  "id": 3390395509,
  "lat": 51.9895901,
  "lon": -0.6199037
},
{
  "type": "node",
  "id": 3390395510,
  "lat": 51.9895885,
  "lon": -0.6197860
},
{
  "type": "node",
  "id": 3390395511,
  "lat": 51.9895314,
  "lon": -0.6197879
},
{
  "type": "node",
  "id": 27024127,
  "lat": 51.7109851,
  "lon": -0.2716755
},
{
  "type": "node",
  "id": 1083379801,
  "lat": 51.7104404,
  "lon": -0.2726787
},
{
  "type": "node",
  "id": 1083379808,
  "lat": 51.7110320,
  "lon": -0.2711458
},
{
  "type": "node",
  "id": 1083379846,
  "lat": 51.7106107,
  "lon": -0.2705236
},
{
  "type": "node",
  "id": 1083379847,
  "lat": 51.7102584,
  "lon": -0.2713081
},
{
  "type": "node",
  "id": 1083379887,
  "lat": 51.7108559,
  "lon": -0.2714945
},
{
  "type": "node",
  "id": 1083379901,
  "lat": 51.7102733,
  "lon": -0.2711847
},
{
  "type": "node",
  "id": 1083379937,
  "lat": 51.7106382,
  "lon": -0.2729858
},
{
  "type": "node",
  "id": 26664959,
  "lat": 51.7491982,
  "lon": -0.3564856
},
{
  "type": "node",
  "id": 26664960,
  "lat": 51.7490624,
  "lon": -0.3562679
},
{
  "type": "node",
  "id": 26664961,
  "lat": 51.7491654,
  "lon": -0.3561003
},
{
  "type": "node",
  "id": 26664962,
  "lat": 51.7493011,
  "lon": -0.3563224
},
{
  "type": "node",
  "id": 1390737660,
  "lat": 51.7492271,
  "lon": -0.3564408
},
{
  "type": "node",
  "id": 1390737745,
  "lat": 51.7491971,
  "lon": -0.3561511
},
{
  "type": "node",
  "id": 248699589,
  "lat": 51.7529446,
  "lon": -0.3553195
},
{
  "type": "node",
  "id": 248699590,
  "lat": 51.7531242,
  "lon": -0.3551023
},
{
  "type": "node",
  "id": 248699591,
  "lat": 51.7527694,
  "lon": -0.3546709
},
{
  "type": "node",
  "id": 248699592,
  "lat": 51.7528029,
  "lon": -0.3548922
},
{
  "type": "node",
  "id": 248699594,
  "lat": 51.7527074,
  "lon": -0.3549932
},
{
  "type": "node",
  "id": 248699595,
  "lat": 51.7526525,
  "lon": -0.3550345
},
{
  "type": "node",
  "id": 248699597,
  "lat": 51.7526934,
  "lon": -0.3552311
},
{
  "type": "node",
  "id": 248699598,
  "lat": 51.7528252,
  "lon": -0.3551611
},
{
  "type": "node",
  "id": 248699600,
  "lat": 51.7527727,
  "lon": -0.3551425
},
{
  "type": "node",
  "id": 1774489323,
  "lat": 51.7527329,
  "lon": -0.3547554
},
{
  "type": "node",
  "id": 1774489329,
  "lat": 51.7527000,
  "lon": -0.3549866
},
{
  "type": "node",
  "id": 1774489355,
  "lat": 51.7527661,
  "lon": -0.3551586
},
{
  "type": "node",
  "id": 1774489366,
  "lat": 51.7527478,
  "lon": -0.3550038
},
{
  "type": "node",
  "id": 1774489380,
  "lat": 51.7525941,
  "lon": -0.3546744
},
{
  "type": "node",
  "id": 1774489430,
  "lat": 51.7527143,
  "lon": -0.3551898
},
{
  "type": "node",
  "id": 1774489441,
  "lat": 51.7525043,
  "lon": -0.3544859
},
{
  "type": "node",
  "id": 1774489443,
  "lat": 51.7526348,
  "lon": -0.3551231
},
{
  "type": "node",
  "id": 1774489454,
  "lat": 51.7526793,
  "lon": -0.3550009
},
{
  "type": "node",
  "id": 1774489472,
  "lat": 51.7527602,
  "lon": -0.3548382
},
{
  "type": "node",
  "id": 1774489505,
  "lat": 51.7523851,
  "lon": -0.3546845
},
{
  "type": "node",
  "id": 1774489528,
  "lat": 51.7529947,
  "lon": -0.3553748
},
{
  "type": "node",
  "id": 1774489537,
  "lat": 51.7527130,
  "lon": -0.3549632
},
{
  "type": "node",
  "id": 1774489539,
  "lat": 51.7526416,
  "lon": -0.3550709
},
{
  "type": "node",
  "id": 1774489545,
  "lat": 51.7526446,
  "lon": -0.3551782
},
{
  "type": "node",
  "id": 1774489561,
  "lat": 51.7526675,
  "lon": -0.3552172
},
{
  "type": "node",
  "id": 1774489569,
  "lat": 51.7528204,
  "lon": -0.3548547
},
{
  "type": "node",
  "id": 1774489571,
  "lat": 51.7525146,
  "lon": -0.3546871
},
{
  "type": "node",
  "id": 1774489587,
  "lat": 51.7527419,
  "lon": -0.3551892
},
{
  "type": "node",
  "id": 1774489640,
  "lat": 51.7525444,
  "lon": -0.3547843
},
{
  "type": "node",
  "id": 1774489655,
  "lat": 51.7525547,
  "lon": -0.3545649
},
{
  "type": "node",
  "id": 1774489803,
  "lat": 51.7524395,
  "lon": -0.3547696
},
{
  "type": "node",
  "id": 1774489813,
  "lat": 51.7524974,
  "lon": -0.3546603
},
{
  "type": "node",
  "id": 1774489858,
  "lat": 51.7527137,
  "lon": -0.3552388
},
{
  "type": "node",
  "id": 1774489863,
  "lat": 51.7524685,
  "lon": -0.3547212
},
{
  "type": "node",
  "id": 1774489906,
  "lat": 51.7527464,
  "lon": -0.3548670
},
{
  "type": "node",
  "id": 1774489927,
  "lat": 51.7524817,
  "lon": -0.3547419
},
{
  "type": "node",
  "id": 405595390,
  "lat": 51.7523689,
  "lon": -0.3389069
},
{
  "type": "node",
  "id": 405595397,
  "lat": 51.7522514,
  "lon": -0.3386948
},
{
  "type": "node",
  "id": 405595402,
  "lat": 51.7519746,
  "lon": -0.3390681
},
{
  "type": "node",
  "id": 405595408,
  "lat": 51.7520872,
  "lon": -0.3392727
},
{
  "type": "node",
  "id": 1754214276,
  "lat": 51.7523443,
  "lon": -0.3388120
},
{
  "type": "node",
  "id": 1754214421,
  "lat": 51.7523282,
  "lon": -0.3388343
},
{
  "type": "node",
  "id": 1754214498,
  "lat": 51.7522829,
  "lon": -0.3387536
},
{
  "type": "node",
  "id": 1754214598,
  "lat": 51.7523023,
  "lon": -0.3387314
},
{
  "type": "node",
  "id": 3350319402,
  "lat": 51.7520187,
  "lon": -0.3390086
},
{
  "type": "node",
  "id": 3350319403,
  "lat": 51.7520082,
  "lon": -0.3389890
},
{
  "type": "node",
  "id": 5068995369,
  "lat": 51.7957774,
  "lon": -0.4000723
},
{
  "type": "node",
  "id": 5068995370,
  "lat": 51.7957715,
  "lon": -0.4001918
},
{
  "type": "node",
  "id": 5068995371,
  "lat": 51.7958770,
  "lon": -0.4002053
},
{
  "type": "node",
  "id": 5068995372,
  "lat": 51.7958829,
  "lon": -0.4000859
},
{
  "type": "node",
  "id": 365079714,
  "lat": 51.7113140,
  "lon": -0.2722030
},
{
  "type": "node",
  "id": 1083379892,
  "lat": 51.7113112,
  "lon": -0.2721986
},
{
  "type": "node",
  "id": 3649702229,
  "lat": 51.7463692,
  "lon": -0.3097249
},
{
  "type": "node",
  "id": 3649702230,
  "lat": 51.7464377,
  "lon": -0.3094402
},
{
  "type": "node",
  "id": 3649702231,
  "lat": 51.7463692,
  "lon": -0.3093255
},
{
  "type": "node",
  "id": 3649702232,
  "lat": 51.7461953,
  "lon": -0.3094481
},
{
  "type": "node",
  "id": 3649702233,
  "lat": 51.7462761,
  "lon": -0.3095825
},
{
  "type": "node",
  "id": 4193664399,
  "lat": 51.8945707,
  "lon": -0.4180492
},
{
  "type": "node",
  "id": 4193664400,
  "lat": 51.8945169,
  "lon": -0.4184158
},
{
  "type": "node",
  "id": 4193664401,
  "lat": 51.8945832,
  "lon": -0.4184413
},
{
  "type": "node",
  "id": 4193664402,
  "lat": 51.8945596,
  "lon": -0.4186021
},
{
  "type": "node",
  "id": 4193664403,
  "lat": 51.8946206,
  "lon": -0.4186257
},
{
  "type": "node",
  "id": 4193664404,
  "lat": 51.8946316,
  "lon": -0.4185505
},
{
  "type": "node",
  "id": 4193664405,
  "lat": 51.8946889,
  "lon": -0.4185726
},
{
  "type": "node",
  "id": 4193664406,
  "lat": 51.8947068,
  "lon": -0.4184509
},
{
  "type": "node",
  "id": 4193664407,
  "lat": 51.8947574,
  "lon": -0.4184704
},
{
  "type": "node",
  "id": 4193664408,
  "lat": 51.8947846,
  "lon": -0.4182851
},
{
  "type": "node",
  "id": 4193664409,
  "lat": 51.8947151,
  "lon": -0.4182583
},
{
  "type": "node",
  "id": 4193664410,
  "lat": 51.8947364,
  "lon": -0.4181131
},
{
  "type": "node",
  "id": 1491244991,
  "lat": 51.9765911,
  "lon": -0.2294386
},
{
  "type": "node",
  "id": 1491244992,
  "lat": 51.9767027,
  "lon": -0.2295043
},
{
  "type": "node",
  "id": 1491244997,
  "lat": 51.9765618,
  "lon": -0.2294479
},
{
  "type": "node",
  "id": 1491245002,
  "lat": 51.9767597,
  "lon": -0.2295781
},
{
  "type": "node",
  "id": 1491245004,
  "lat": 51.9767473,
  "lon": -0.2294882
},
{
  "type": "node",
  "id": 1491245012,
  "lat": 51.9765903,
  "lon": -0.2296357
},
{
  "type": "node",
  "id": 1491244993,
  "lat": 51.9766250,
  "lon": -0.2291905
},
{
  "type": "node",
  "id": 1491244994,
  "lat": 51.9766845,
  "lon": -0.2293608
},
{
  "type": "node",
  "id": 1491244996,
  "lat": 51.9765581,
  "lon": -0.2292133
},
{
  "type": "node",
  "id": 1491245013,
  "lat": 51.9766506,
  "lon": -0.2293729
},
{
  "type": "node",
  "id": 1491245014,
  "lat": 51.9766267,
  "lon": -0.2292039
},
{
  "type": "node",
  "id": 4861851829,
  "lat": 51.9762466,
  "lon": -0.2231997
},
{
  "type": "node",
  "id": 4861851830,
  "lat": 51.9761767,
  "lon": -0.2231947
},
{
  "type": "node",
  "id": 4861851831,
  "lat": 51.9761662,
  "lon": -0.2235887
},
{
  "type": "node",
  "id": 4861851832,
  "lat": 51.9762361,
  "lon": -0.2235937
},
{
  "type": "node",
  "id": 4932451304,
  "lat": 51.9765925,
  "lon": -0.2234742
},
{
  "type": "node",
  "id": 4932451305,
  "lat": 51.9765950,
  "lon": -0.2233054
},
{
  "type": "node",
  "id": 4932451306,
  "lat": 51.9762965,
  "lon": -0.2232942
},
{
  "type": "node",
  "id": 4932451307,
  "lat": 51.9762940,
  "lon": -0.2234629
},
{
  "type": "node",
  "id": 536386588,
  "lat": 52.0561013,
  "lon": -0.8065324
},
{
  "type": "node",
  "id": 1934341621,
  "lat": 52.0547169,
  "lon": -0.8069965
},
{
  "type": "node",
  "id": 1934341622,
  "lat": 52.0547347,
  "lon": -0.8064781
},
{
  "type": "node",
  "id": 1934341623,
  "lat": 52.0548743,
  "lon": -0.8071281
},
{
  "type": "node",
  "id": 1934341625,
  "lat": 52.0550392,
  "lon": -0.8071250
},
{
  "type": "node",
  "id": 1934341627,
  "lat": 52.0554710,
  "lon": -0.8062771
},
{
  "type": "node",
  "id": 1934341645,
  "lat": 52.0555388,
  "lon": -0.8061440
},
{
  "type": "node",
  "id": 5496804526,
  "lat": 52.0558860,
  "lon": -0.8062659
},
{
  "type": "node",
  "id": 5496804527,
  "lat": 52.0557993,
  "lon": -0.8061807
},
{
  "type": "node",
  "id": 536763657,
  "lat": 52.0552747,
  "lon": -0.8035479
},
{
  "type": "node",
  "id": 1934341631,
  "lat": 52.0550797,
  "lon": -0.8045943
},
{
  "type": "node",
  "id": 1934341637,
  "lat": 52.0552409,
  "lon": -0.8036633
},
{
  "type": "node",
  "id": 1934341643,
  "lat": 52.0553889,
  "lon": -0.8034762
},
{
  "type": "node",
  "id": 1934341646,
  "lat": 52.0555276,
  "lon": -0.8035373
},
{
  "type": "node",
  "id": 1934341651,
  "lat": 52.0556058,
  "lon": -0.8060817
},
{
  "type": "node",
  "id": 1934341657,
  "lat": 52.0556908,
  "lon": -0.8060834
},
{
  "type": "node",
  "id": 1934341658,
  "lat": 52.0557422,
  "lon": -0.8037522
},
{
  "type": "node",
  "id": 1934341667,
  "lat": 52.0560808,
  "lon": -0.8038196
},
{
  "type": "node",
  "id": 1934341696,
  "lat": 52.0562898,
  "lon": -0.8051144
},
{
  "type": "node",
  "id": 1934341699,
  "lat": 52.0563362,
  "lon": -0.8059214
},
{
  "type": "node",
  "id": 1934341710,
  "lat": 52.0566042,
  "lon": -0.8037627
},
{
  "type": "node",
  "id": 1934341714,
  "lat": 52.0565512,
  "lon": -0.8055244
},
{
  "type": "node",
  "id": 1934341719,
  "lat": 52.0568678,
  "lon": -0.8038254
},
{
  "type": "node",
  "id": 5496804528,
  "lat": 52.0561494,
  "lon": -0.8038280
},
{
  "type": "node",
  "id": 5496804529,
  "lat": 52.0562520,
  "lon": -0.8037408
},
{
  "type": "node",
  "id": 5496804530,
  "lat": 52.0568231,
  "lon": -0.8036914
},
{
  "type": "node",
  "id": 5496804531,
  "lat": 52.0548809,
  "lon": -0.8056796
},
{
  "type": "node",
  "id": 1566322530,
  "lat": 52.1524082,
  "lon": -0.7008961
},
{
  "type": "node",
  "id": 1566322551,
  "lat": 52.1524141,
  "lon": -0.7008298
},
{
  "type": "node",
  "id": 1566322571,
  "lat": 52.1524511,
  "lon": -0.7008344
},
{
  "type": "node",
  "id": 1566322638,
  "lat": 52.1525139,
  "lon": -0.7009801
},
{
  "type": "node",
  "id": 1566322642,
  "lat": 52.1525158,
  "lon": -0.7010257
},
{
  "type": "node",
  "id": 1566322653,
  "lat": 52.1525473,
  "lon": -0.7008426
},
{
  "type": "node",
  "id": 1566322663,
  "lat": 52.1525184,
  "lon": -0.7009113
},
{
  "type": "node",
  "id": 1566322664,
  "lat": 52.1525247,
  "lon": -0.7009773
},
{
  "type": "node",
  "id": 1566322710,
  "lat": 52.1526015,
  "lon": -0.7008404
},
{
  "type": "node",
  "id": 1566322725,
  "lat": 52.1526108,
  "lon": -0.7010233
},
{
  "type": "node",
  "id": 5648379366,
  "lat": 52.1524118,
  "lon": -0.7008559
},
{
  "type": "node",
  "id": 1487716854,
  "lat": 52.1161172,
  "lon": -0.4689651
},
{
  "type": "node",
  "id": 1487716856,
  "lat": 52.1160576,
  "lon": -0.4688968
},
{
  "type": "node",
  "id": 1487716858,
  "lat": 52.1159613,
  "lon": -0.4691196
},
{
  "type": "node",
  "id": 1487716860,
  "lat": 52.1160209,
  "lon": -0.4691879
},
{
  "type": "node",
  "id": 26204570,
  "lat": 52.1365025,
  "lon": -0.4625573
},
{
  "type": "node",
  "id": 1478112012,
  "lat": 52.1359505,
  "lon": -0.4642703
},
{
  "type": "node",
  "id": 1478112013,
  "lat": 52.1360601,
  "lon": -0.4642892
},
{
  "type": "node",
  "id": 1478112014,
  "lat": 52.1359605,
  "lon": -0.4640916
},
{
  "type": "node",
  "id": 1478112016,
  "lat": 52.1359647,
  "lon": -0.4640013
},
{
  "type": "node",
  "id": 1478112017,
  "lat": 52.1359799,
  "lon": -0.4638195
},
{
  "type": "node",
  "id": 1478112018,
  "lat": 52.1360034,
  "lon": -0.4641394
},
{
  "type": "node",
  "id": 1478112019,
  "lat": 52.1360066,
  "lon": -0.4640971
},
{
  "type": "node",
  "id": 1478112020,
  "lat": 52.1360112,
  "lon": -0.4640124
},
{
  "type": "node",
  "id": 1478112021,
  "lat": 52.1360197,
  "lon": -0.4639002
},
{
  "type": "node",
  "id": 1478112023,
  "lat": 52.1360252,
  "lon": -0.4638267
},
{
  "type": "node",
  "id": 1478112028,
  "lat": 52.1360296,
  "lon": -0.4637507
},
{
  "type": "node",
  "id": 1478112029,
  "lat": 52.1360680,
  "lon": -0.4637566
},
{
  "type": "node",
  "id": 1478112030,
  "lat": 52.1360768,
  "lon": -0.4634164
},
{
  "type": "node",
  "id": 1478112031,
  "lat": 52.1360876,
  "lon": -0.4634180
},
{
  "type": "node",
  "id": 1478112032,
  "lat": 52.1360884,
  "lon": -0.4632152
},
{
  "type": "node",
  "id": 1478112033,
  "lat": 52.1361098,
  "lon": -0.4632184
},
{
  "type": "node",
  "id": 1478112034,
  "lat": 52.1361147,
  "lon": -0.4631330
},
{
  "type": "node",
  "id": 1478112035,
  "lat": 52.1361430,
  "lon": -0.4641607
},
{
  "type": "node",
  "id": 1478112036,
  "lat": 52.1361568,
  "lon": -0.4639210
},
{
  "type": "node",
  "id": 1478112037,
  "lat": 52.1361616,
  "lon": -0.4631893
},
{
  "type": "node",
  "id": 1478112038,
  "lat": 52.1361645,
  "lon": -0.4631407
},
{
  "type": "node",
  "id": 1478112039,
  "lat": 52.1361894,
  "lon": -0.4643935
},
{
  "type": "node",
  "id": 1478112040,
  "lat": 52.1361956,
  "lon": -0.4641688
},
{
  "type": "node",
  "id": 1478112042,
  "lat": 52.1362023,
  "lon": -0.4641698
},
{
  "type": "node",
  "id": 1478112043,
  "lat": 52.1362159,
  "lon": -0.4632370
},
{
  "type": "node",
  "id": 1478112044,
  "lat": 52.1362187,
  "lon": -0.4631960
},
{
  "type": "node",
  "id": 1478112045,
  "lat": 52.1362094,
  "lon": -0.4639290
},
{
  "type": "node",
  "id": 1478112046,
  "lat": 52.1362182,
  "lon": -0.4637795
},
{
  "type": "node",
  "id": 1478112047,
  "lat": 52.1362206,
  "lon": -0.4639307
},
{
  "type": "node",
  "id": 1478112049,
  "lat": 52.1362293,
  "lon": -0.4637812
},
{
  "type": "node",
  "id": 1478112050,
  "lat": 52.1362359,
  "lon": -0.4634724
},
{
  "type": "node",
  "id": 1478112051,
  "lat": 52.1362516,
  "lon": -0.4633661
},
{
  "type": "node",
  "id": 1478112055,
  "lat": 52.1362609,
  "lon": -0.4632448
},
{
  "type": "node",
  "id": 1478112057,
  "lat": 52.1362726,
  "lon": -0.4634780
},
{
  "type": "node",
  "id": 1478112060,
  "lat": 52.1362817,
  "lon": -0.4633747
},
{
  "type": "node",
  "id": 1478112062,
  "lat": 52.1363155,
  "lon": -0.4635273
},
{
  "type": "node",
  "id": 1478112064,
  "lat": 52.1363326,
  "lon": -0.4633440
},
{
  "type": "node",
  "id": 1478112067,
  "lat": 52.1363689,
  "lon": -0.4634928
},
{
  "type": "node",
  "id": 1478112068,
  "lat": 52.1363765,
  "lon": -0.4634078
},
{
  "type": "node",
  "id": 2478033794,
  "lat": 52.1365512,
  "lon": -0.4617482
},
{
  "type": "node",
  "id": 2478033795,
  "lat": 52.1360488,
  "lon": -0.4616354
},
{
  "type": "node",
  "id": 2478033796,
  "lat": 52.1360127,
  "lon": -0.4621341
},
{
  "type": "node",
  "id": 2478033798,
  "lat": 52.1360749,
  "lon": -0.4621535
},
{
  "type": "node",
  "id": 2478033799,
  "lat": 52.1360248,
  "lon": -0.4627272
},
{
  "type": "node",
  "id": 2478033801,
  "lat": 52.1364711,
  "lon": -0.4628369
},
{
  "type": "node",
  "id": 6005781923,
  "lat": 52.1360371,
  "lon": -0.4625869
},
{
  "type": "node",
  "id": 6005781924,
  "lat": 52.1360454,
  "lon": -0.4624920
},
{
  "type": "node",
  "id": 6504456265,
  "lat": 52.1362448,
  "lon": -0.4627827
},
{
  "type": "node",
  "id": 6504456281,
  "lat": 52.1362774,
  "lon": -0.4616821
},
{
  "type": "node",
  "id": 6504456282,
  "lat": 52.1362475,
  "lon": -0.4616760
},
{
  "type": "node",
  "id": 6504456283,
  "lat": 52.1365130,
  "lon": -0.4617390
},
{
  "type": "node",
  "id": 6504456284,
  "lat": 52.1364048,
  "lon": -0.4617128
},
{
  "type": "node",
  "id": 6504456385,
  "lat": 52.1362923,
  "lon": -0.4616857
},
{
  "type": "node",
  "id": 6504456386,
  "lat": 52.1362849,
  "lon": -0.4616839
},
{
  "type": "node",
  "id": 6504456387,
  "lat": 52.1365229,
  "lon": -0.4622260
},
{
  "type": "node",
  "id": 6504456388,
  "lat": 52.1365074,
  "lon": -0.4624850
},
{
  "type": "node",
  "id": 6504456390,
  "lat": 52.1365039,
  "lon": -0.4625362
},
{
  "type": "node",
  "id": 6504456392,
  "lat": 52.1364833,
  "lon": -0.4628245
},
{
  "type": "node",
  "id": 6504494513,
  "lat": 52.1360277,
  "lon": -0.4626943
},
{
  "type": "node",
  "id": 6506038330,
  "lat": 52.1360554,
  "lon": -0.4643731
}

  ]
}
