{
  "version": 0.6,
  "generator": "Overpass API 0.7.55.9 ab41fea6",
  "osm3s": {
    "timestamp_osm_base": "2020-02-14T13:12:02Z",
    "copyright": "The data included in this document is from www.openstreetmap.org. The data is made available under ODbL."
  },
  "elements": [

{
  "type": "node",
  "id": 461687363,
  "lat": 47.3627039,
  "lon": 0.5574429,
  "tags": {
    "description": "location de salles de spectacle et de réception, musée agricole, thé dansant",
    "leisure": "dance",
    "name": "La Serre Auberge de la Tuilerie",
    "phone": "+33 2 47 50 00 51",
    "service": "hall_rental",
    "tourism": "museum",
    "website": "http://serre-auberge.com"
  }
},
{
  "type": "node",
  "id": 969140682,
  "lat": 47.3958548,
  "lon": 0.6869467,
  "tags": {
    "addr:housenumber": "16",
    "name": "Musée des Vins de Touraine",
    "phone": "+33 2 47 21 62 20",
    "source": "cadastre-dgi-fr source : Direction Générale des Impôts - Cadastre. Mise à jour : 2010",
    "tourism": "museum"
  }
},
{
  "type": "node",
  "id": 1517051946,
  "lat": 47.4131973,
  "lon": 0.9839918,
  "tags": {
    "name": "Musée de l'Hôtel de Ville",
    "source": "cadastre-dgi-fr source : Direction Générale des Impôts - Cadastre. Mise à jour : 2011",
    "tourism": "museum",
    "wikidata": "Q23571290"
  }
},
{
  "type": "node",
  "id": 1803266678,
  "lat": 47.5909087,
  "lon": 0.9086166,
  "tags": {
    "name": "Musée du Cuir et de la tannerie",
    "tourism": "museum"
  }
},
{
  "type": "node",
  "id": 2162579652,
  "lat": 47.2208699,
  "lon": 0.4957016,
  "tags": {
    "name": "Musée de l'Osier et de la Vannerie",
    "source": "cadastre-dgi-fr source : Direction Générale des Impôts - Cadastre. Mise à jour : 2013",
    "tourism": "museum"
  }
},
{
  "type": "node",
  "id": 2185735826,
  "lat": 47.2699855,
  "lon": 0.3713187,
  "tags": {
    "name": "Poire Tapées à l'Ancienne",
    "shop": "yes",
    "tourism": "museum"
  }
},
{
  "type": "node",
  "id": 2235477859,
  "lat": 47.1515227,
  "lon": 0.4014168,
  "tags": {
    "name": "Cave touristique de Panzoult",
    "source": "cadastre-dgi-fr source : Direction Générale des Impôts - Cadastre. Mise à jour : 2013",
    "tourism": "museum"
  }
},
{
  "type": "node",
  "id": 2361236906,
  "lat": 47.2791062,
  "lon": 0.3948860,
  "tags": {
    "addr:city": "Azay-le-Rideau",
    "addr:housenumber": "17",
    "addr:postcode": "37190",
    "addr:street": "Route de Marnay",
    "name": "Maurice Dufresne",
    "opening_hours": "Apr-Aug 09:30-19:00; Sep-Oct 10:00-18:00",
    "tourism": "museum",
    "website": "http://musee-dufresne.com/",
    "wikidata": "Q3329276"
  }
},
{
  "type": "node",
  "id": 3087160235,
  "lat": 47.3267746,
  "lon": 1.0672333,
  "tags": {
    "name": "Galerie des Attelages",
    "tourism": "museum"
  }
},
{
  "type": "node",
  "id": 3089619406,
  "lat": 47.3522384,
  "lon": 0.6624318,
  "tags": {
    "name": "Classe musée René Granger",
    "tourism": "museum"
  }
},
{
  "type": "node",
  "id": 3856126275,
  "lat": 47.3963763,
  "lon": 0.6940081,
  "tags": {
    "addr:housenumber": "13",
    "name": "Musée de la Typographie",
    "name:it": "Museo della Tipografia",
    "tourism": "museum"
  }
},
{
  "type": "node",
  "id": 4699202207,
  "lat": 47.3963492,
  "lon": 0.6940380,
  "tags": {
    "name": "Musée de la Typographie",
    "opening_hours": "Mo-Sa 14:00-18:00",
    "phone": "+33247389325",
    "tourism": "museum"
  }
},
{
  "type": "node",
  "id": 4940449354,
  "lat": 47.3921347,
  "lon": 0.6818534,
  "tags": {
    "name": "Musée Saint-Martin",
    "tourism": "museum"
  }
},
{
  "type": "node",
  "id": 6937689386,
  "lat": 47.2311747,
  "lon": 0.4974738,
  "tags": {
    "name": "Musée de l’Osier et de la Vannerie",
    "tourism": "museum"
  }
},
{
  "type": "way",
  "id": 38546705,
  "nodes": [
    456300758,
    456300756,
    456312533,
    456312534,
    456312538,
    456312540,
    456312542,
    456312544,
    456312545,
    456312548,
    456312549,
    456312552,
    456312554,
    456312591,
    456312557,
    456312558,
    1762177884,
    456312560,
    1762177886,
    456312562,
    1762177885,
    456312563,
    456312565,
    456312566,
    456312568,
    456312570,
    456312571,
    456312573,
    456312575,
    456312577,
    456312578,
    456312580,
    456312581,
    456312583,
    456312584,
    456300758
  ],
  "tags": {
    "addr:housenumber": "25",
    "addr:postcode": "37000",
    "addr:street": "Rue du Commerce",
    "building": "yes",
    "heritage": "2",
    "heritage:operator": "mhs",
    "mhs:inscription_date": "1941",
    "name": "Hôtel Goüin",
    "operator": "Le Conseil départemental d’Indre-et-Loire",
    "ref:mhs": "PA00098170",
    "source": "cadastre-dgi-fr source : Direction Générale des Impôts - Cadastre;mise à jour : 2008",
    "tourism": "museum",
    "wikidata": "Q1094425",
    "wikipedia": "fr:Hôtel Goüin"
  }
},
{
  "type": "way",
  "id": 38576800,
  "nodes": [
    456937676,
    453383878,
    453383879,
    456937677,
    454135136,
    454135137,
    454476832,
    454476830,
    454476827,
    454476824,
    456937678,
    456937679,
    456937676
  ],
  "tags": {
    "addr:housenumber": "3",
    "addr:postcode": "37000",
    "addr:street": "Rue du Président Merville",
    "building": "yes",
    "email": "museum@ville-tours.fr",
    "name": "Muséum d'Histoire Naturelle",
    "opening_hours": "Tu-Fr 10:00-12:00,14:00-18:00;Sa-Su 14:00-18:00; Jan 01 off; May 01 off; Jul 14 off; Nov 01 off; Nov 11 off; Dec 25 off",
    "phone": "+33247216808",
    "source": "cadastre-dgi-fr source : Direction Générale des Impôts - Cadastre ; mise à jour : 2008",
    "tourism": "museum",
    "website": "http://www.museum.tours.fr/",
    "wikidata": "Q3330889"
  }
},
{
  "type": "way",
  "id": 40514601,
  "nodes": [
    5151305653,
    491419122,
    491419125,
    491419147,
    5151305658,
    5151305657,
    5151305656,
    5151305655,
    5151305654,
    5151305653
  ],
  "tags": {
    "addr:housenumber": "2",
    "addr:postcode": "37000",
    "addr:street": "Place Anatole France",
    "building": "yes",
    "name": "Musée du Compagnonnage",
    "opening_hours": "Jun 16-Sep 15 09:00-12:30,14:00-18:00;Sep 16-Jun 15 We-Mo 09:00-12:30,14:00-18:00;Jan 01 off;May 01 off;Jul 14 off;Nov 01 off;Nov 11 off;Dec 25 off",
    "source": "cadastre-dgi-fr source : Direction Générale des Impôts - Cadastre ; mise à jour : 2008",
    "tourism": "museum",
    "website": "http://www.museecompagnonnage.fr/",
    "wheelchair": "no",
    "wikidata": "Q3330340",
    "wikipedia": "fr:Musée du Compagnonnage de Tours"
  }
},
{
  "type": "way",
  "id": 62782286,
  "nodes": [
    781738334,
    781657381,
    781787278,
    781628690,
    3437458497,
    781763657,
    781611003,
    781734847,
    781638807,
    781610752,
    781661165,
    781766102,
    781766316,
    781604784,
    781751543,
    781621087,
    781739434,
    7093332172,
    781671274,
    781624469,
    781698321,
    781613014,
    781769192,
    781765836,
    781760013,
    781746094,
    781738334
  ],
  "tags": {
    "addr:housenumber": "2",
    "addr:postcode": "37400",
    "addr:street": "Rue du Clos Lucé",
    "building": "yes",
    "building:colour": "#D08856",
    "building:height": "8",
    "building:roof:colour": "#222534",
    "building:roof:shape": "gabled",
    "heritage": "2",
    "heritage:operator": "mhs",
    "historic": "castle",
    "mhs:inscription_date": "1862",
    "name": "Château du Clos-Lucé",
    "ref:mhs": "PA00097504",
    "source": "cadastre-dgi-fr source : Direction Générale des Impôts - Cadastre. Mise à jour : 2010",
    "source:heritage": "data.gouv.fr, Ministère de la Culture - 2016",
    "start_date": "C15",
    "tourism": "museum",
    "website": "http://www.vinci-closluce.com",
    "wikidata": "Q1122731",
    "wikipedia": "fr:Clos Lucé"
  }
},
{
  "type": "way",
  "id": 68962958,
  "nodes": [
    828041628,
    828046328,
    828036101,
    828032869,
    828043944,
    828040729,
    828043055,
    828033441,
    828038064,
    828030378,
    828035398,
    828041274,
    828033333,
    828032143,
    828046221,
    828026777,
    828036057,
    828041628
  ],
  "tags": {
    "addr:city": "Saché",
    "addr:postcode": "37190",
    "addr:street": "Rue du Château",
    "building": "yes",
    "email": "museebalzac@cg37.fr",
    "heritage": "2",
    "heritage:operator": "mhs",
    "mhs:inscription_date": "1983",
    "name": "Château de Saché, Musée Balzac",
    "opening_hours": "Apr-Jun,Sep 10:00-18:00; Jul-Aug 10:00-19:00; Oct-Mar 10:00-12:30,14:00-17:00",
    "phone": "+33247268650",
    "ref:mhs": "PA00098051",
    "source": "cadastre-dgi-fr source : Direction Générale des Impôts - Cadastre. Mise à jour : 2010",
    "source:heritage": "data.gouv.fr:Ministère de la Culture - 04/2015",
    "tourism": "museum",
    "website": "http://www.musee-balzac.fr",
    "wikidata": "Q2054341",
    "wikipedia": "fr:Château de Saché"
  }
},
{
  "type": "way",
  "id": 70685314,
  "nodes": [
    843161982,
    843196302,
    843152085,
    843161802,
    843173912,
    843164486,
    843193742,
    843192182,
    843175024,
    843161982
  ],
  "tags": {
    "alt_name": "Demeure de Ronsard",
    "building": "yes",
    "historic": "monastery",
    "name": "Prieuré de Saint-Cosme",
    "note": "labellisé \"jardin remarquable\"",
    "operator": "Conseil départemental d'Indre-et-Loire (CD37)",
    "source": "cadastre-dgi-fr source : Direction Générale des Impôts - Cadastre. Mise à jour : 2010",
    "tourism": "museum",
    "website": "http://www.prieure-ronsard.fr/",
    "wikidata": "Q3403034",
    "wikipedia": "fr:Prieuré de Saint-Cosme"
  }
},
{
  "type": "way",
  "id": 73677174,
  "nodes": [
    872640212,
    872626416,
    872637185,
    872655111,
    872624600,
    872660998,
    872642125,
    872657738,
    872647783,
    872640365,
    872629752,
    872631450,
    872650330,
    872656268,
    872634281,
    872642418,
    872625754,
    872647715,
    872632364,
    872644059,
    5092993124,
    872647216,
    872623844,
    872652958,
    872634088,
    872662340,
    872630548,
    872623344,
    872640707,
    872656615,
    872633872,
    872624435,
    872634486,
    872635109,
    872631073,
    872646032,
    872658736,
    872637685,
    872645137,
    872631192,
    872639832,
    872663765,
    872628279,
    872626712,
    872658979,
    872661965,
    872626800,
    872664969,
    872661920,
    872658567,
    872660773,
    872626109,
    872663386,
    872647855,
    872659676,
    872662063,
    872652374,
    872660328,
    872638005,
    872657567,
    872664666,
    872665470,
    872625630,
    872632184,
    872654915,
    872643427,
    872634282,
    872645545,
    872651561,
    872636105,
    872662345,
    872645526,
    872644927,
    872642369,
    872648090,
    872627059,
    872643938,
    872637102,
    872659625,
    872628219,
    872625351,
    872653778,
    872652853,
    872652223,
    872648242,
    872661246,
    872661824,
    872659967,
    872627018,
    872647413,
    872643632,
    872631388,
    872633844,
    872632438,
    872655439,
    872630479,
    872655705,
    872656457,
    872663600,
    872633251,
    872640212
  ],
  "tags": {
    "building": "yes",
    "email": "culturembaaccueil@ville-tours.fr",
    "heritage": "2",
    "heritage:operator": "mhs",
    "mhs:inscription_date": "1983",
    "name": "Musée des Beaux-Arts",
    "opening_hours": "09:00-12:45,14:00-18:00; Tu off; Jan 01 off; May 01 off; Jul 14 off; Nov 01 off; Dec 25 off",
    "phone": "+33247056873",
    "ref:mhs": "PA00098132",
    "source": "cadastre-dgi-fr source : Direction Générale des Impôts - Cadastre. Mise à jour : 2010",
    "tourism": "museum",
    "website": "http://www.mba.tours.fr/",
    "wikidata": "Q22994222",
    "wikipedia": "fr:Musée des beaux-arts de Tours"
  }
},
{
  "type": "way",
  "id": 225666369,
  "nodes": [
    872641932,
    872652942,
    559586004,
    872636040,
    872634140,
    872643145,
    872653443,
    872641251,
    872629391,
    872625827,
    872633224,
    872648014,
    872642388,
    872652988,
    872664595,
    872640040,
    872625680,
    872660082,
    872623382,
    872660222,
    872635531,
    872649008,
    872660369,
    872626193,
    872665007,
    872655370,
    872633624,
    872646539,
    872626951,
    872660183,
    872630701,
    872627574,
    872654537,
    872659040,
    872631223,
    872627277,
    872629490,
    872661222,
    872628325,
    872647285,
    872640534,
    872651108,
    872624888,
    872661792,
    872641932
  ],
  "tags": {
    "addr:housenumber": "7",
    "heritage:operator": "mhs",
    "historic": "monastery",
    "mhs:inscription_date": "1889",
    "name": "Cloître Saint-Gatien dit de la Psalette",
    "ref:mhs": "PA00098142",
    "source": "data.gouv.fr:Ministère de la Culture - 08/2011",
    "tourism": "museum",
    "wikidata": "Q2979785",
    "wikipedia": "fr:Cloître de la Psalette"
  }
},
{
  "type": "way",
  "id": 244613777,
  "nodes": [
    2519101725,
    2519101691,
    2519101692,
    2519101693,
    2519101705,
    2519101772,
    2519101775,
    2519101725
  ],
  "tags": {
    "building": "yes",
    "name": "Musée de la Poire Tapée",
    "source": "cadastre-dgi-fr source : Direction Générale des Finances Publiques - Cadastre. Mise à jour : 2013",
    "tourism": "museum"
  }
},
{
  "type": "way",
  "id": 244613884,
  "nodes": [
    2519104312,
    2519104523,
    2519104492,
    2519104279,
    2519104089,
    2519104073,
    2519104194,
    2519104294,
    2519104312
  ],
  "tags": {
    "building": "yes",
    "name": "Reines de Touraine",
    "phone": "+33 2 47 95 47 46",
    "shop": "yes",
    "source": "cadastre-dgi-fr source : Direction Générale des Finances Publiques - Cadastre. Mise à jour : 2013",
    "tourism": "museum",
    "website": "www.reines-de-touraine.com"
  }
},
{
  "type": "way",
  "id": 383108810,
  "nodes": [
    3863125964,
    4743478607,
    3863125965,
    4743478606,
    3863126074,
    3863126073,
    3863126077,
    5143350826,
    3863126075,
    3863125964
  ],
  "tags": {
    "addr:city": "Tours",
    "addr:postcode": "37000",
    "addr:street": "Jardin François 1er",
    "building": "yes",
    "name": "Centre de Création Contemporaine Olivier Debré (cccod)",
    "note": "cccod",
    "opening_hours": "We 11:30-18:00; Th 11:30-20:00; Fr-Su 11:30-18:00",
    "tourism": "museum",
    "tourism_1": "yes",
    "website": "http://www.cccod.fr"
  }
},
{
  "type": "node",
  "id": 2519101691,
  "lat": 47.2646380,
  "lon": 0.3540320
},
{
  "type": "node",
  "id": 2519101692,
  "lat": 47.2646390,
  "lon": 0.3541180
},
{
  "type": "node",
  "id": 2519101693,
  "lat": 47.2646390,
  "lon": 0.3541450
},
{
  "type": "node",
  "id": 2519101705,
  "lat": 47.2646590,
  "lon": 0.3541380
},
{
  "type": "node",
  "id": 2519101725,
  "lat": 47.2646920,
  "lon": 0.3540140
},
{
  "type": "node",
  "id": 2519101772,
  "lat": 47.2647940,
  "lon": 0.3540930
},
{
  "type": "node",
  "id": 2519101775,
  "lat": 47.2648040,
  "lon": 0.3539760
},
{
  "type": "node",
  "id": 2519104073,
  "lat": 47.2668170,
  "lon": 0.3542250
},
{
  "type": "node",
  "id": 2519104089,
  "lat": 47.2668230,
  "lon": 0.3540840
},
{
  "type": "node",
  "id": 2519104194,
  "lat": 47.2668480,
  "lon": 0.3542550
},
{
  "type": "node",
  "id": 2519104279,
  "lat": 47.2668740,
  "lon": 0.3541130
},
{
  "type": "node",
  "id": 2519104294,
  "lat": 47.2668790,
  "lon": 0.3541510
},
{
  "type": "node",
  "id": 2519104312,
  "lat": 47.2668880,
  "lon": 0.3541300
},
{
  "type": "node",
  "id": 2519104492,
  "lat": 47.2669230,
  "lon": 0.3540620
},
{
  "type": "node",
  "id": 2519104523,
  "lat": 47.2669410,
  "lon": 0.3540680
},
{
  "type": "node",
  "id": 828026777,
  "lat": 47.2457566,
  "lon": 0.5445164
},
{
  "type": "node",
  "id": 828030378,
  "lat": 47.2458902,
  "lon": 0.5447153
},
{
  "type": "node",
  "id": 828032143,
  "lat": 47.2458598,
  "lon": 0.5445592
},
{
  "type": "node",
  "id": 828032869,
  "lat": 47.2457905,
  "lon": 0.5447702
},
{
  "type": "node",
  "id": 828033333,
  "lat": 47.2458574,
  "lon": 0.5445626
},
{
  "type": "node",
  "id": 828033441,
  "lat": 47.2459081,
  "lon": 0.5449323
},
{
  "type": "node",
  "id": 828035398,
  "lat": 47.2458874,
  "lon": 0.5446099
},
{
  "type": "node",
  "id": 828036057,
  "lat": 47.2457582,
  "lon": 0.5446180
},
{
  "type": "node",
  "id": 828036101,
  "lat": 47.2457844,
  "lon": 0.5447353
},
{
  "type": "node",
  "id": 828038064,
  "lat": 47.2459030,
  "lon": 0.5447158
},
{
  "type": "node",
  "id": 828040729,
  "lat": 47.2458164,
  "lon": 0.5447634
},
{
  "type": "node",
  "id": 828041274,
  "lat": 47.2458589,
  "lon": 0.5446112
},
{
  "type": "node",
  "id": 828041628,
  "lat": 47.2457003,
  "lon": 0.5446224
},
{
  "type": "node",
  "id": 828043055,
  "lat": 47.2458222,
  "lon": 0.5449396
},
{
  "type": "node",
  "id": 828043944,
  "lat": 47.2458069,
  "lon": 0.5447761
},
{
  "type": "node",
  "id": 828046221,
  "lat": 47.2458573,
  "lon": 0.5445135
},
{
  "type": "node",
  "id": 828046328,
  "lat": 47.2457028,
  "lon": 0.5447401
},
{
  "type": "node",
  "id": 843152085,
  "lat": 47.3893038,
  "lon": 0.6514112
},
{
  "type": "node",
  "id": 843161802,
  "lat": 47.3892886,
  "lon": 0.6513102
},
{
  "type": "node",
  "id": 843161982,
  "lat": 47.3893136,
  "lon": 0.6514158
},
{
  "type": "node",
  "id": 843164486,
  "lat": 47.3891253,
  "lon": 0.6514350
},
{
  "type": "node",
  "id": 843173912,
  "lat": 47.3891168,
  "lon": 0.6513923
},
{
  "type": "node",
  "id": 843175024,
  "lat": 47.3891397,
  "lon": 0.6514967
},
{
  "type": "node",
  "id": 843192182,
  "lat": 47.3890800,
  "lon": 0.6515014
},
{
  "type": "node",
  "id": 843193742,
  "lat": 47.3890773,
  "lon": 0.6514384
},
{
  "type": "node",
  "id": 843196302,
  "lat": 47.3893122,
  "lon": 0.6514071
},
{
  "type": "node",
  "id": 453383878,
  "lat": 47.3946361,
  "lon": 0.6835401
},
{
  "type": "node",
  "id": 453383879,
  "lat": 47.3946319,
  "lon": 0.6835147
},
{
  "type": "node",
  "id": 454135136,
  "lat": 47.3945862,
  "lon": 0.6834675
},
{
  "type": "node",
  "id": 454135137,
  "lat": 47.3945778,
  "lon": 0.6834032
},
{
  "type": "node",
  "id": 454476824,
  "lat": 47.3945224,
  "lon": 0.6836506
},
{
  "type": "node",
  "id": 454476827,
  "lat": 47.3945073,
  "lon": 0.6834925
},
{
  "type": "node",
  "id": 454476830,
  "lat": 47.3945556,
  "lon": 0.6834779
},
{
  "type": "node",
  "id": 454476832,
  "lat": 47.3945502,
  "lon": 0.6834091
},
{
  "type": "node",
  "id": 456300756,
  "lat": 47.3951603,
  "lon": 0.6846687
},
{
  "type": "node",
  "id": 456300758,
  "lat": 47.3951647,
  "lon": 0.6846975
},
{
  "type": "node",
  "id": 456312533,
  "lat": 47.3953159,
  "lon": 0.6846072
},
{
  "type": "node",
  "id": 456312534,
  "lat": 47.3953217,
  "lon": 0.6846341
},
{
  "type": "node",
  "id": 456312538,
  "lat": 47.3954077,
  "lon": 0.6846034
},
{
  "type": "node",
  "id": 456312540,
  "lat": 47.3954175,
  "lon": 0.6846708
},
{
  "type": "node",
  "id": 456312542,
  "lat": 47.3954355,
  "lon": 0.6846651
},
{
  "type": "node",
  "id": 456312544,
  "lat": 47.3954511,
  "lon": 0.6846798
},
{
  "type": "node",
  "id": 456312545,
  "lat": 47.3954535,
  "lon": 0.6846986
},
{
  "type": "node",
  "id": 456312548,
  "lat": 47.3954503,
  "lon": 0.6847095
},
{
  "type": "node",
  "id": 456312549,
  "lat": 47.3954605,
  "lon": 0.6847711
},
{
  "type": "node",
  "id": 456312552,
  "lat": 47.3954345,
  "lon": 0.6847824
},
{
  "type": "node",
  "id": 456312554,
  "lat": 47.3954481,
  "lon": 0.6848538
},
{
  "type": "node",
  "id": 456312557,
  "lat": 47.3952832,
  "lon": 0.6849192
},
{
  "type": "node",
  "id": 456312558,
  "lat": 47.3952662,
  "lon": 0.6848309
},
{
  "type": "node",
  "id": 456312560,
  "lat": 47.3953032,
  "lon": 0.6848158
},
{
  "type": "node",
  "id": 456312562,
  "lat": 47.3952989,
  "lon": 0.6848000
},
{
  "type": "node",
  "id": 456312563,
  "lat": 47.3952946,
  "lon": 0.6847961
},
{
  "type": "node",
  "id": 456312565,
  "lat": 47.3952947,
  "lon": 0.6847916
},
{
  "type": "node",
  "id": 456312566,
  "lat": 47.3952959,
  "lon": 0.6847882
},
{
  "type": "node",
  "id": 456312568,
  "lat": 47.3952980,
  "lon": 0.6847866
},
{
  "type": "node",
  "id": 456312570,
  "lat": 47.3953031,
  "lon": 0.6847894
},
{
  "type": "node",
  "id": 456312571,
  "lat": 47.3953150,
  "lon": 0.6847865
},
{
  "type": "node",
  "id": 456312573,
  "lat": 47.3952979,
  "lon": 0.6846802
},
{
  "type": "node",
  "id": 456312575,
  "lat": 47.3952847,
  "lon": 0.6846837
},
{
  "type": "node",
  "id": 456312577,
  "lat": 47.3952819,
  "lon": 0.6846880
},
{
  "type": "node",
  "id": 456312578,
  "lat": 47.3952775,
  "lon": 0.6846875
},
{
  "type": "node",
  "id": 456312580,
  "lat": 47.3952748,
  "lon": 0.6846825
},
{
  "type": "node",
  "id": 456312581,
  "lat": 47.3952757,
  "lon": 0.6846768
},
{
  "type": "node",
  "id": 456312583,
  "lat": 47.3952808,
  "lon": 0.6846757
},
{
  "type": "node",
  "id": 456312584,
  "lat": 47.3952775,
  "lon": 0.6846560
},
{
  "type": "node",
  "id": 456312591,
  "lat": 47.3953777,
  "lon": 0.6848830
},
{
  "type": "node",
  "id": 456937676,
  "lat": 47.3946932,
  "lon": 0.6838774
},
{
  "type": "node",
  "id": 456937677,
  "lat": 47.3945910,
  "lon": 0.6835263
},
{
  "type": "node",
  "id": 456937678,
  "lat": 47.3945341,
  "lon": 0.6836506
},
{
  "type": "node",
  "id": 456937679,
  "lat": 47.3945347,
  "lon": 0.6838432
},
{
  "type": "node",
  "id": 491419122,
  "lat": 47.3963244,
  "lon": 0.6869185
},
{
  "type": "node",
  "id": 491419125,
  "lat": 47.3963638,
  "lon": 0.6871250
},
{
  "type": "node",
  "id": 491419147,
  "lat": 47.3963766,
  "lon": 0.6871200
},
{
  "type": "node",
  "id": 1762177884,
  "lat": 47.3952658,
  "lon": 0.6848287
},
{
  "type": "node",
  "id": 1762177885,
  "lat": 47.3952962,
  "lon": 0.6847990
},
{
  "type": "node",
  "id": 1762177886,
  "lat": 47.3953004,
  "lon": 0.6848014
},
{
  "type": "node",
  "id": 3863125964,
  "lat": 47.3957442,
  "lon": 0.6848050
},
{
  "type": "node",
  "id": 3863125965,
  "lat": 47.3957451,
  "lon": 0.6853480
},
{
  "type": "node",
  "id": 3863126073,
  "lat": 47.3954896,
  "lon": 0.6854522
},
{
  "type": "node",
  "id": 3863126074,
  "lat": 47.3955346,
  "lon": 0.6856912
},
{
  "type": "node",
  "id": 3863126075,
  "lat": 47.3955317,
  "lon": 0.6848923
},
{
  "type": "node",
  "id": 3863126077,
  "lat": 47.3956266,
  "lon": 0.6853959
},
{
  "type": "node",
  "id": 4743478606,
  "lat": 47.3957900,
  "lon": 0.6855862
},
{
  "type": "node",
  "id": 4743478607,
  "lat": 47.3958392,
  "lon": 0.6853093
},
{
  "type": "node",
  "id": 5143350826,
  "lat": 47.3956199,
  "lon": 0.6853602
},
{
  "type": "node",
  "id": 5151305653,
  "lat": 47.3964597,
  "lon": 0.6868675
},
{
  "type": "node",
  "id": 5151305654,
  "lat": 47.3964689,
  "lon": 0.6869142
},
{
  "type": "node",
  "id": 5151305655,
  "lat": 47.3964797,
  "lon": 0.6869115
},
{
  "type": "node",
  "id": 5151305656,
  "lat": 47.3964990,
  "lon": 0.6870192
},
{
  "type": "node",
  "id": 5151305657,
  "lat": 47.3964888,
  "lon": 0.6870239
},
{
  "type": "node",
  "id": 5151305658,
  "lat": 47.3964976,
  "lon": 0.6870735
},
{
  "type": "node",
  "id": 559586004,
  "lat": 47.3958258,
  "lon": 0.6937808
},
{
  "type": "node",
  "id": 872623382,
  "lat": 47.3957347,
  "lon": 0.6943240
},
{
  "type": "node",
  "id": 872624600,
  "lat": 47.3949844,
  "lon": 0.6941834
},
{
  "type": "node",
  "id": 872624888,
  "lat": 47.3956553,
  "lon": 0.6939353
},
{
  "type": "node",
  "id": 872625351,
  "lat": 47.3952326,
  "lon": 0.6945386
},
{
  "type": "node",
  "id": 872625680,
  "lat": 47.3957851,
  "lon": 0.6943269
},
{
  "type": "node",
  "id": 872625827,
  "lat": 47.3960179,
  "lon": 0.6942755
},
{
  "type": "node",
  "id": 872626193,
  "lat": 47.3957036,
  "lon": 0.6942880
},
{
  "type": "node",
  "id": 872626416,
  "lat": 47.3949647,
  "lon": 0.6941373
},
{
  "type": "node",
  "id": 872626951,
  "lat": 47.3956806,
  "lon": 0.6941701
},
{
  "type": "node",
  "id": 872627018,
  "lat": 47.3950964,
  "lon": 0.6940761
},
{
  "type": "node",
  "id": 872627059,
  "lat": 47.3952475,
  "lon": 0.6946166
},
{
  "type": "node",
  "id": 872627277,
  "lat": 47.3956630,
  "lon": 0.6940809
},
{
  "type": "node",
  "id": 872627574,
  "lat": 47.3956772,
  "lon": 0.6941516
},
{
  "type": "node",
  "id": 872628219,
  "lat": 47.3952360,
  "lon": 0.6945600
},
{
  "type": "node",
  "id": 872628325,
  "lat": 47.3956676,
  "lon": 0.6940072
},
{
  "type": "node",
  "id": 872629391,
  "lat": 47.3960181,
  "lon": 0.6942856
},
{
  "type": "node",
  "id": 872629490,
  "lat": 47.3956542,
  "lon": 0.6940355
},
{
  "type": "node",
  "id": 872629752,
  "lat": 47.3951140,
  "lon": 0.6945330
},
{
  "type": "node",
  "id": 872630479,
  "lat": 47.3950404,
  "lon": 0.6940661
},
{
  "type": "node",
  "id": 872630701,
  "lat": 47.3956941,
  "lon": 0.6941447
},
{
  "type": "node",
  "id": 872631223,
  "lat": 47.3956799,
  "lon": 0.6940734
},
{
  "type": "node",
  "id": 872631388,
  "lat": 47.3950767,
  "lon": 0.6940605
},
{
  "type": "node",
  "id": 872631450,
  "lat": 47.3950978,
  "lon": 0.6945400
},
{
  "type": "node",
  "id": 872632438,
  "lat": 47.3950590,
  "lon": 0.6940591
},
{
  "type": "node",
  "id": 872633224,
  "lat": 47.3959969,
  "lon": 0.6942877
},
{
  "type": "node",
  "id": 872633251,
  "lat": 47.3950229,
  "lon": 0.6941019
},
{
  "type": "node",
  "id": 872633624,
  "lat": 47.3957082,
  "lon": 0.6942136
},
{
  "type": "node",
  "id": 872633844,
  "lat": 47.3950687,
  "lon": 0.6940575
},
{
  "type": "node",
  "id": 872634140,
  "lat": 47.3959197,
  "lon": 0.6937360
},
{
  "type": "node",
  "id": 872635531,
  "lat": 47.3957077,
  "lon": 0.6943087
},
{
  "type": "node",
  "id": 872636040,
  "lat": 47.3959070,
  "lon": 0.6937417
},
{
  "type": "node",
  "id": 872637102,
  "lat": 47.3952351,
  "lon": 0.6946025
},
{
  "type": "node",
  "id": 872637185,
  "lat": 47.3949710,
  "lon": 0.6941517
},
{
  "type": "node",
  "id": 872640040,
  "lat": 47.3957879,
  "lon": 0.6943415
},
{
  "type": "node",
  "id": 872640212,
  "lat": 47.3949603,
  "lon": 0.6941301
},
{
  "type": "node",
  "id": 872640365,
  "lat": 47.3950926,
  "lon": 0.6944038
},
{
  "type": "node",
  "id": 872640534,
  "lat": 47.3956407,
  "lon": 0.6939648
},
{
  "type": "node",
  "id": 872641251,
  "lat": 47.3960297,
  "lon": 0.6942897
},
{
  "type": "node",
  "id": 872641932,
  "lat": 47.3956261,
  "lon": 0.6938760
},
{
  "type": "node",
  "id": 872642125,
  "lat": 47.3950329,
  "lon": 0.6941807
},
{
  "type": "node",
  "id": 872642369,
  "lat": 47.3952459,
  "lon": 0.6946603
},
{
  "type": "node",
  "id": 872642388,
  "lat": 47.3957998,
  "lon": 0.6943624
},
{
  "type": "node",
  "id": 872643145,
  "lat": 47.3959837,
  "lon": 0.6940240
},
{
  "type": "node",
  "id": 872643632,
  "lat": 47.3950853,
  "lon": 0.6940647
},
{
  "type": "node",
  "id": 872643938,
  "lat": 47.3952441,
  "lon": 0.6945993
},
{
  "type": "node",
  "id": 872644927,
  "lat": 47.3952556,
  "lon": 0.6946565
},
{
  "type": "node",
  "id": 872645526,
  "lat": 47.3952596,
  "lon": 0.6946772
},
{
  "type": "node",
  "id": 872646539,
  "lat": 47.3956907,
  "lon": 0.6942212
},
{
  "type": "node",
  "id": 872647285,
  "lat": 47.3956502,
  "lon": 0.6940142
},
{
  "type": "node",
  "id": 872647413,
  "lat": 47.3950921,
  "lon": 0.6940706
},
{
  "type": "node",
  "id": 872647783,
  "lat": 47.3950707,
  "lon": 0.6942758
},
{
  "type": "node",
  "id": 872648014,
  "lat": 47.3959940,
  "lon": 0.6942669
},
{
  "type": "node",
  "id": 872648090,
  "lat": 47.3952385,
  "lon": 0.6946204
},
{
  "type": "node",
  "id": 872648242,
  "lat": 47.3951238,
  "lon": 0.6941683
},
{
  "type": "node",
  "id": 872649008,
  "lat": 47.3957251,
  "lon": 0.6943017
},
{
  "type": "node",
  "id": 872650330,
  "lat": 47.3951172,
  "lon": 0.6946579
},
{
  "type": "node",
  "id": 872651108,
  "lat": 47.3956587,
  "lon": 0.6939555
},
{
  "type": "node",
  "id": 872652223,
  "lat": 47.3951391,
  "lon": 0.6942361
},
{
  "type": "node",
  "id": 872652853,
  "lat": 47.3951650,
  "lon": 0.6942259
},
{
  "type": "node",
  "id": 872652942,
  "lat": 47.3957128,
  "lon": 0.6938349
},
{
  "type": "node",
  "id": 872652988,
  "lat": 47.3957977,
  "lon": 0.6943489
},
{
  "type": "node",
  "id": 872653443,
  "lat": 47.3960412,
  "lon": 0.6942858
},
{
  "type": "node",
  "id": 872653778,
  "lat": 47.3952241,
  "lon": 0.6945424
},
{
  "type": "node",
  "id": 872654537,
  "lat": 47.3956677,
  "lon": 0.6941028
},
{
  "type": "node",
  "id": 872655111,
  "lat": 47.3949780,
  "lon": 0.6941678
},
{
  "type": "node",
  "id": 872655370,
  "lat": 47.3957116,
  "lon": 0.6942322
},
{
  "type": "node",
  "id": 872655439,
  "lat": 47.3950488,
  "lon": 0.6940623
},
{
  "type": "node",
  "id": 872655705,
  "lat": 47.3950338,
  "lon": 0.6940737
},
{
  "type": "node",
  "id": 872656268,
  "lat": 47.3950713,
  "lon": 0.6946741
},
{
  "type": "node",
  "id": 872656457,
  "lat": 47.3950309,
  "lon": 0.6940801
},
{
  "type": "node",
  "id": 872657738,
  "lat": 47.3950514,
  "lon": 0.6942840
},
{
  "type": "node",
  "id": 872659040,
  "lat": 47.3956846,
  "lon": 0.6940959
},
{
  "type": "node",
  "id": 872659625,
  "lat": 47.3952282,
  "lon": 0.6945632
},
{
  "type": "node",
  "id": 872659967,
  "lat": 47.3951027,
  "lon": 0.6940849
},
{
  "type": "node",
  "id": 872660082,
  "lat": 47.3957387,
  "lon": 0.6943447
},
{
  "type": "node",
  "id": 872660183,
  "lat": 47.3956974,
  "lon": 0.6941626
},
{
  "type": "node",
  "id": 872660222,
  "lat": 47.3957124,
  "lon": 0.6943340
},
{
  "type": "node",
  "id": 872660369,
  "lat": 47.3957211,
  "lon": 0.6942804
},
{
  "type": "node",
  "id": 872660998,
  "lat": 47.3949890,
  "lon": 0.6941996
},
{
  "type": "node",
  "id": 872661222,
  "lat": 47.3956717,
  "lon": 0.6940280
},
{
  "type": "node",
  "id": 872661246,
  "lat": 47.3951091,
  "lon": 0.6941027
},
{
  "type": "node",
  "id": 872661792,
  "lat": 47.3956396,
  "lon": 0.6939417
},
{
  "type": "node",
  "id": 872661824,
  "lat": 47.3951078,
  "lon": 0.6940977
},
{
  "type": "node",
  "id": 872662345,
  "lat": 47.3952500,
  "lon": 0.6946810
},
{
  "type": "node",
  "id": 872663600,
  "lat": 47.3950274,
  "lon": 0.6940887
},
{
  "type": "node",
  "id": 872664595,
  "lat": 47.3957963,
  "lon": 0.6943388
},
{
  "type": "node",
  "id": 872665007,
  "lat": 47.3956941,
  "lon": 0.6942397
},
{
  "type": "node",
  "id": 872623344,
  "lat": 47.3952906,
  "lon": 0.6954074
},
{
  "type": "node",
  "id": 872623844,
  "lat": 47.3952633,
  "lon": 0.6952281
},
{
  "type": "node",
  "id": 872624435,
  "lat": 47.3953396,
  "lon": 0.6953996
},
{
  "type": "node",
  "id": 872625630,
  "lat": 47.3953188,
  "lon": 0.6952076
},
{
  "type": "node",
  "id": 872625754,
  "lat": 47.3951311,
  "lon": 0.6950494
},
{
  "type": "node",
  "id": 872626109,
  "lat": 47.3955611,
  "lon": 0.6952701
},
{
  "type": "node",
  "id": 872626712,
  "lat": 47.3955031,
  "lon": 0.6953773
},
{
  "type": "node",
  "id": 872626800,
  "lat": 47.3955474,
  "lon": 0.6953725
},
{
  "type": "node",
  "id": 872628279,
  "lat": 47.3954934,
  "lon": 0.6953783
},
{
  "type": "node",
  "id": 872630548,
  "lat": 47.3952743,
  "lon": 0.6954093
},
{
  "type": "node",
  "id": 872631073,
  "lat": 47.3953832,
  "lon": 0.6953943
},
{
  "type": "node",
  "id": 872631192,
  "lat": 47.3954492,
  "lon": 0.6953847
},
{
  "type": "node",
  "id": 872632184,
  "lat": 47.3953119,
  "lon": 0.6951683
},
{
  "type": "node",
  "id": 872632364,
  "lat": 47.3951690,
  "lon": 0.6952469
},
{
  "type": "node",
  "id": 872633872,
  "lat": 47.3953148,
  "lon": 0.6954030
},
{
  "type": "node",
  "id": 872634088,
  "lat": 47.3952835,
  "lon": 0.6953845
},
{
  "type": "node",
  "id": 872634281,
  "lat": 47.3951064,
  "lon": 0.6948791
},
{
  "type": "node",
  "id": 872634282,
  "lat": 47.3952908,
  "lon": 0.6950227
},
{
  "type": "node",
  "id": 872634486,
  "lat": 47.3953395,
  "lon": 0.6953912
},
{
  "type": "node",
  "id": 872635109,
  "lat": 47.3953831,
  "lon": 0.6953853
},
{
  "type": "node",
  "id": 872636105,
  "lat": 47.3952588,
  "lon": 0.6947282
},
{
  "type": "node",
  "id": 872637685,
  "lat": 47.3954376,
  "lon": 0.6953784
},
{
  "type": "node",
  "id": 872638005,
  "lat": 47.3955069,
  "lon": 0.6951112
},
{
  "type": "node",
  "id": 872639832,
  "lat": 47.3954485,
  "lon": 0.6953774
},
{
  "type": "node",
  "id": 872640707,
  "lat": 47.3952898,
  "lon": 0.6953984
},
{
  "type": "node",
  "id": 872642418,
  "lat": 47.3951022,
  "lon": 0.6948832
},
{
  "type": "node",
  "id": 872643427,
  "lat": 47.3952942,
  "lon": 0.6950395
},
{
  "type": "node",
  "id": 872644059,
  "lat": 47.3951732,
  "lon": 0.6952456
},
{
  "type": "node",
  "id": 872645137,
  "lat": 47.3954383,
  "lon": 0.6953857
},
{
  "type": "node",
  "id": 872645545,
  "lat": 47.3952848,
  "lon": 0.6950252
},
{
  "type": "node",
  "id": 872646032,
  "lat": 47.3953929,
  "lon": 0.6953934
},
{
  "type": "node",
  "id": 872647216,
  "lat": 47.3952587,
  "lon": 0.6952074
},
{
  "type": "node",
  "id": 872647715,
  "lat": 47.3951353,
  "lon": 0.6950481
},
{
  "type": "node",
  "id": 872647855,
  "lat": 47.3955535,
  "lon": 0.6952563
},
{
  "type": "node",
  "id": 872651561,
  "lat": 47.3952317,
  "lon": 0.6947373
},
{
  "type": "node",
  "id": 872652374,
  "lat": 47.3955536,
  "lon": 0.6951658
},
{
  "type": "node",
  "id": 872652958,
  "lat": 47.3952646,
  "lon": 0.6952281
},
{
  "type": "node",
  "id": 872654915,
  "lat": 47.3952882,
  "lon": 0.6950420
},
{
  "type": "node",
  "id": 872656615,
  "lat": 47.3953146,
  "lon": 0.6953939
},
{
  "type": "node",
  "id": 872657567,
  "lat": 47.3953461,
  "lon": 0.6951442
},
{
  "type": "node",
  "id": 872658567,
  "lat": 47.3955600,
  "lon": 0.6953375
},
{
  "type": "node",
  "id": 872658736,
  "lat": 47.3953928,
  "lon": 0.6953843
},
{
  "type": "node",
  "id": 872658979,
  "lat": 47.3955030,
  "lon": 0.6953705
},
{
  "type": "node",
  "id": 872659676,
  "lat": 47.3955490,
  "lon": 0.6951824
},
{
  "type": "node",
  "id": 872660328,
  "lat": 47.3955396,
  "lon": 0.6951675
},
{
  "type": "node",
  "id": 872660773,
  "lat": 47.3955544,
  "lon": 0.6952709
},
{
  "type": "node",
  "id": 872661920,
  "lat": 47.3955637,
  "lon": 0.6953367
},
{
  "type": "node",
  "id": 872661965,
  "lat": 47.3955472,
  "lon": 0.6953646
},
{
  "type": "node",
  "id": 872662063,
  "lat": 47.3955551,
  "lon": 0.6951810
},
{
  "type": "node",
  "id": 872662340,
  "lat": 47.3952714,
  "lon": 0.6953896
},
{
  "type": "node",
  "id": 872663386,
  "lat": 47.3955602,
  "lon": 0.6952554
},
{
  "type": "node",
  "id": 872663765,
  "lat": 47.3954927,
  "lon": 0.6953715
},
{
  "type": "node",
  "id": 872664666,
  "lat": 47.3953482,
  "lon": 0.6951605
},
{
  "type": "node",
  "id": 872664969,
  "lat": 47.3955655,
  "lon": 0.6953683
},
{
  "type": "node",
  "id": 872665470,
  "lat": 47.3953520,
  "lon": 0.6951999
},
{
  "type": "node",
  "id": 5092993124,
  "lat": 47.3951775,
  "lon": 0.6952437
},
{
  "type": "node",
  "id": 781604784,
  "lat": 47.4103380,
  "lon": 0.9920482
},
{
  "type": "node",
  "id": 781610752,
  "lat": 47.4105534,
  "lon": 0.9919542
},
{
  "type": "node",
  "id": 781611003,
  "lat": 47.4104310,
  "lon": 0.9920813
},
{
  "type": "node",
  "id": 781613014,
  "lat": 47.4101579,
  "lon": 0.9920695
},
{
  "type": "node",
  "id": 781621087,
  "lat": 47.4103093,
  "lon": 0.9920918
},
{
  "type": "node",
  "id": 781624469,
  "lat": 47.4100749,
  "lon": 0.9919867
},
{
  "type": "node",
  "id": 781628690,
  "lat": 47.4103855,
  "lon": 0.9920838
},
{
  "type": "node",
  "id": 781638807,
  "lat": 47.4104964,
  "lon": 0.9920210
},
{
  "type": "node",
  "id": 781657381,
  "lat": 47.4101977,
  "lon": 0.9922636
},
{
  "type": "node",
  "id": 781661165,
  "lat": 47.4105832,
  "lon": 0.9919207
},
{
  "type": "node",
  "id": 781671274,
  "lat": 47.4102037,
  "lon": 0.9918594
},
{
  "type": "node",
  "id": 781698321,
  "lat": 47.4101264,
  "lon": 0.9921030
},
{
  "type": "node",
  "id": 781734847,
  "lat": 47.4104836,
  "lon": 0.9920359
},
{
  "type": "node",
  "id": 781738334,
  "lat": 47.4101824,
  "lon": 0.9922293
},
{
  "type": "node",
  "id": 781739434,
  "lat": 47.4103022,
  "lon": 0.9920810
},
{
  "type": "node",
  "id": 781746094,
  "lat": 47.4101625,
  "lon": 0.9921850
},
{
  "type": "node",
  "id": 781751543,
  "lat": 47.4103413,
  "lon": 0.9920608
},
{
  "type": "node",
  "id": 781760013,
  "lat": 47.4102089,
  "lon": 0.9921347
},
{
  "type": "node",
  "id": 781763657,
  "lat": 47.4103964,
  "lon": 0.9921081
},
{
  "type": "node",
  "id": 781765836,
  "lat": 47.4101787,
  "lon": 0.9920687
},
{
  "type": "node",
  "id": 781766102,
  "lat": 47.4105681,
  "lon": 0.9918788
},
{
  "type": "node",
  "id": 781766316,
  "lat": 47.4104502,
  "lon": 0.9919623
},
{
  "type": "node",
  "id": 781769192,
  "lat": 47.4101666,
  "lon": 0.9920734
},
{
  "type": "node",
  "id": 781787278,
  "lat": 47.4102868,
  "lon": 0.9921735
},
{
  "type": "node",
  "id": 3437458497,
  "lat": 47.4103922,
  "lon": 0.9920989
},
{
  "type": "node",
  "id": 7093332172,
  "lat": 47.4102893,
  "lon": 0.9920519
}

  ]
}
