{
  "version": 0.6,
  "generator": "Overpass API 0.7.55.1011 6c2efc30",
  "osm3s": {
    "timestamp_osm_base": "2020-02-14T17:35:02Z",
    "copyright": "The data included in this document is from www.openstreetmap.org. The data is made available under ODbL."
  },
  "elements": [

{
  "type": "node",
  "id": 292455951,
  "lat": 55.8833113,
  "lon": 12.5434450,
  "tags": {
    "contact:website": "http://blixen.dk/",
    "museum": "person",
    "name": "Karen Blixen Museet",
    "operator": "Det Danske Akademi",
    "tourism": "museum",
    "wheelchair": "yes",
    "wikidata": "Q1569018"
  }
},
{
  "type": "node",
  "id": 394835563,
  "lat": 56.2883514,
  "lon": 12.8463258,
  "tags": {
    "museum": "aviation",
    "name": "Flygmuseum",
    "tourism": "museum"
  }
},
{
  "type": "node",
  "id": 448107397,
  "lat": 56.2002145,
  "lon": 12.5739701,
  "tags": {
    "name": "Höganäs Museum",
    "tourism": "museum"
  }
},
{
  "type": "node",
  "id": 539127711,
  "lat": 56.3013675,
  "lon": 12.4530472,
  "tags": {
    "tourism": "museum"
  }
},
{
  "type": "node",
  "id": 648859934,
  "lat": 56.0413310,
  "lon": 12.7001423,
  "tags": {
    "addr:city": "Helsingborg",
    "addr:country": "SE",
    "addr:housenumber": "10",
    "addr:street": "Carl Krooks gata",
    "museum": "sport",
    "name": "Helsingborgs idrottsmuseum",
    "opening_hours": "Mo-Fr 08:00-16:00",
    "tourism": "museum"
  }
},
{
  "type": "node",
  "id": 760721784,
  "lat": 55.8957804,
  "lon": 12.8042884,
  "tags": {
    "amenity": "restaurant",
    "name": "Pumphuset",
    "tourism": "museum"
  }
},
{
  "type": "node",
  "id": 802613765,
  "lat": 56.0748412,
  "lon": 12.7194151,
  "tags": {
    "addr:city": "Helsingborg",
    "addr:country": "SE",
    "addr:housenumber": "7",
    "addr:street": "Muskötgatan",
    "name": "Teknik på farfars tid",
    "tourism": "museum",
    "wikidata": "Q7695458"
  }
},
{
  "type": "node",
  "id": 815593600,
  "lat": 55.7855406,
  "lon": 12.3767842,
  "tags": {
    "name": "Værløse Museum",
    "opening_hours": "Tu-Fr 11:00-16:00; Su 13:00-16:00",
    "tourism": "museum",
    "wikidata": "Q12341370",
    "wikipedia": "da:Værløse Museum"
  }
},
{
  "type": "node",
  "id": 1034241629,
  "lat": 56.0043592,
  "lon": 12.5548194,
  "tags": {
    "name": "Flynderupgaardmuseet",
    "tourism": "museum",
    "wikidata": "Q16323547",
    "wikipedia": "da:Flynderupgård Museet"
  }
},
{
  "type": "node",
  "id": 1309518397,
  "lat": 56.0198096,
  "lon": 12.7992862,
  "tags": {
    "name": "Välluvs hembygdsmuseum",
    "tourism": "museum"
  }
},
{
  "type": "node",
  "id": 1791587796,
  "lat": 55.9351737,
  "lon": 12.3015148,
  "tags": {
    "name": "Det Nationalhistoriske Museum",
    "name:af": "Nasionaal-Historiese Museum",
    "name:ca": "Museu Nacional d'Història",
    "name:de": "Nationalhistorisches Museum",
    "name:en": "The Museum of National History",
    "name:fr": "Musée national d'histoire",
    "name:nl": "Nationaal-Historisch Museum",
    "name:no": "Det Nationalhistoriske Museum",
    "name:ru": "Национальный исторический музей",
    "name:sv": "Det Nationalhistoriske Museum",
    "name:zh": "国家历史博物馆",
    "start_date": "1-2-1882",
    "subject": "history;arts",
    "tourism": "museum",
    "website": "http://www.dnm.dk/",
    "wikidata": "Q3078776"
  }
},
{
  "type": "node",
  "id": 2685679853,
  "lat": 56.0377635,
  "lon": 12.6141843,
  "tags": {
    "museum": "maritime",
    "name": "Værftsmuseet",
    "opening_hours": "Su, Tu, Th-Fr 12:00-16:00; We 12:00-20:00; Sa 10:00-14:00",
    "tourism": "museum"
  }
},
{
  "type": "node",
  "id": 3136804445,
  "lat": 56.0364194,
  "lon": 12.6125796,
  "tags": {
    "fvst:navnelbnr": "108528",
    "museum": "local",
    "name": "Helsingør Bymuseum",
    "tourism": "museum",
    "wikidata": "Q12316167",
    "wikipedia": "da:Helsingør Bymuseum"
  }
},
{
  "type": "node",
  "id": 3292346824,
  "lat": 55.8728204,
  "lon": 12.3467199,
  "tags": {
    "name": "Allerød Kunstforening",
    "tourism": "museum",
    "website": "http://www.alleroedkunst.dk/"
  }
},
{
  "type": "node",
  "id": 3293498176,
  "lat": 55.9869217,
  "lon": 12.4227780,
  "tags": {
    "name": "Falkonergården",
    "phone": "+45 48482583",
    "tourism": "museum"
  }
},
{
  "type": "node",
  "id": 3404320797,
  "lat": 55.9525000,
  "lon": 12.2647600,
  "tags": {
    "name": "Husmandsstedet",
    "tourism": "museum"
  }
},
{
  "type": "node",
  "id": 3488518170,
  "lat": 55.8142484,
  "lon": 12.3777213,
  "tags": {
    "addr:city": "Farum",
    "addr:housenumber": "3",
    "addr:postcode": "3520",
    "addr:street": "Stavnsholtvej",
    "name": "Immigrantmuseet",
    "tourism": "museum",
    "website": "http://immigrantmuseet.dk/",
    "wheelchair": "yes"
  }
},
{
  "type": "node",
  "id": 3500298370,
  "lat": 56.0462488,
  "lon": 12.4938188,
  "tags": {
    "name": "Horserødlejrens Museum",
    "opening_hours": "Tu 11:00-15:00; Th 11:00-15:00; Su 11:00-15:00",
    "operator": "Nationalmuseet",
    "tourism": "museum",
    "wikidata": "Q4994564",
    "wikipedia": "en:Horserød camp"
  }
},
{
  "type": "node",
  "id": 4056775841,
  "lat": 56.1237355,
  "lon": 12.3117057,
  "tags": {
    "name": "Else Klugs Cafemuseum",
    "operator": "Museum Nordsjælland",
    "tourism": "museum",
    "website": "http://museumns.dk/udstillinger/udstillingsteder-gilleleje/cafe-klugs-cafe/"
  }
},
{
  "type": "node",
  "id": 4253000651,
  "lat": 56.0790490,
  "lon": 13.2315258,
  "tags": {
    "addr:city": "Ljungbyhed",
    "addr:country": "SE",
    "addr:housenumber": "4",
    "addr:postcode": "264 51",
    "addr:street": "Tummelisas väg",
    "museum": "military",
    "name": "Ljungbyheds Militärhistoriska Museum",
    "phone": "+46 435 440419",
    "tourism": "museum",
    "website": "http://www.lmhm.se/",
    "wikidata": "Q28934200"
  }
},
{
  "type": "node",
  "id": 4809605098,
  "lat": 55.7267014,
  "lon": 12.5800624,
  "tags": {
    "email": "info@experimentarium.dk",
    "fvst:navnelbnr": "921756",
    "name": "Experimentarium",
    "phone": "+4539273333",
    "tourism": "museum",
    "website": "https://www.experimentarium.dk/",
    "wikidata": "Q12310799"
  }
},
{
  "type": "node",
  "id": 4824434712,
  "lat": 56.0405272,
  "lon": 12.7022697,
  "tags": {
    "addr:city": "Helsingborg",
    "addr:country": "SE",
    "addr:housenumber": "15",
    "addr:street": "Södergatan",
    "name": "Museum of Failure",
    "opening_hours": "Tu-Sa 12:00-18:00",
    "phone": "+46 709-38 62 98",
    "toilets:wheelchair": "yes",
    "tourism": "museum",
    "website": "http://museumoffailure.se/",
    "wheelchair": "yes",
    "wikidata": "Q29469827"
  }
},
{
  "type": "node",
  "id": 5165847912,
  "lat": 56.1492132,
  "lon": 13.0611294,
  "tags": {
    "tourism": "museum",
    "website": "tomarps-kungsgard.se"
  }
},
{
  "type": "node",
  "id": 6746976380,
  "lat": 56.0348156,
  "lon": 12.6150680,
  "tags": {
    "fvst:navnelbnr": "110956",
    "name": "Skibsklarerergaarden",
    "operator": "Museerne Helsingør",
    "tourism": "museum",
    "wikidata": "Q23042142",
    "wikipedia": "da:Skibsklarerergaarden"
  }
},
{
  "type": "way",
  "id": 25567850,
  "nodes": [
    278693154,
    1882984591,
    1882984587,
    1882984584,
    1882984566,
    1882984564,
    1882984582,
    1882984576,
    1882984585,
    278693155,
    278693156,
    278693157,
    278693154
  ],
  "tags": {
    "building": "yes",
    "name": "Sophienholm",
    "tourism": "museum",
    "website": "http://www.sophienholm.dk/",
    "wikidata": "Q3432506",
    "wikipedia": "da:Sophienholm"
  }
},
{
  "type": "way",
  "id": 25770501,
  "nodes": [
    2091955717,
    281071259,
    281071260,
    2091955724,
    2091955717
  ],
  "tags": {
    "historic": "fort",
    "name": "Garderhøjfortet",
    "opening_hours": "Sa-Su 10:30-16:00",
    "start_date": "1892",
    "tourism": "museum",
    "website": "https://garderhojfort.dk/",
    "wikidata": "Q12313518",
    "wikipedia": "da:Garderhøjfortet"
  }
},
{
  "type": "way",
  "id": 84087110,
  "nodes": [
    978260073,
    978260075,
    978260078,
    978260082,
    978260084,
    978260086,
    978260092,
    978260095,
    978260073
  ],
  "tags": {
    "building": "yes",
    "name": "Munkeruphus",
    "tourism": "museum",
    "wikidata": "Q6936739",
    "wikipedia": "en:Munkeruphus"
  }
},
{
  "type": "way",
  "id": 89202723,
  "nodes": [
    1035298006,
    1035298051,
    1035298020,
    1035297903,
    1035297870,
    1035297750,
    1035298116,
    1035298001,
    1035298009,
    1035297877,
    1035297847,
    1035298130,
    1035298091,
    1035297972,
    1035297935,
    1035297827,
    1035298141,
    1035298017,
    1035297983,
    1035297866,
    1035297835,
    1035298115,
    1035298076,
    1035297942,
    1035297968,
    1035297842,
    1035297810,
    1035298085,
    1035298046,
    1035297933,
    1035297901,
    1035297799,
    1035297862,
    1035298138,
    1035298105,
    1035297979,
    1035298006
  ],
  "tags": {
    "addr:city": "Helsingborg",
    "addr:country": "SE",
    "addr:housenumber": "11",
    "addr:postcode": "252 21",
    "addr:street": "Kungsgatan",
    "amenity": "arts_centre",
    "building": "yes",
    "contact:website": "https://dunkerskulturhus.se",
    "museum": "art",
    "name": "Dunkers kulturhus",
    "short_name": "Dunkers",
    "source:address": "Helsingborgs kommun",
    "tourism": "museum",
    "wheelchair": "yes",
    "wikidata": "Q10477574"
  }
},
{
  "type": "way",
  "id": 89239687,
  "nodes": [
    1035672825,
    1035673047,
    1035672891,
    1035672540,
    1035672450,
    1035672598,
    1035672497,
    1035672787,
    1035672681,
    1035672887,
    1035672419,
    1035672942,
    1035672580,
    1035672491,
    1035672459,
    1035673056,
    1035672637,
    1035672542,
    1035672687,
    1035672602,
    1035672895,
    1035672792,
    1035672958,
    1035672840,
    1035672502,
    1035672429,
    1035672554,
    1035673021,
    1035672684,
    1035672635,
    1035672454,
    1035673015,
    1035672778,
    1035672719,
    1035672527,
    1035672475,
    1035672926,
    1035672870,
    1035672660,
    1035672675,
    1035672490,
    1035672446,
    1035672881,
    1035672823,
    1035672625,
    1035672577,
    1035672415,
    1035672518,
    1035672980,
    1035672910,
    1035672545,
    1035672899,
    1035672825
  ],
  "tags": {
    "addr:city": "Helsingborg",
    "addr:country": "SE",
    "addr:housenumber": "20",
    "addr:postcode": "252 23",
    "addr:street": "Bergaliden",
    "building": "yes",
    "email": "info@medhist-hbg.se",
    "museum": "science",
    "name": "Helsingborgs medicinhistoriska museum",
    "opening_hours": "Tu-Th 11:00-15:00",
    "phone": "+46 42 4061279",
    "source": "Bing",
    "source:address": "Helsingborgs kommun",
    "tourism": "museum",
    "website": "http://www.medhist-hbg.se/",
    "wikidata": "Q3330046"
  }
},
{
  "type": "way",
  "id": 89488863,
  "nodes": [
    1037712691,
    1037712661,
    1037712693,
    1037712628,
    1037712798,
    1037712850,
    1037712746,
    1037712830,
    1037712691
  ],
  "tags": {
    "building": "yes",
    "name": "Helsingborgs skolmuseum",
    "opening_hours": "Mo-Fr 10:00-15:00",
    "phone": "+46 42 144704",
    "source": "Bing",
    "tourism": "museum",
    "website": "http://skolmuseum.just.nu/",
    "wikidata": "Q18290568"
  }
},
{
  "type": "way",
  "id": 93324271,
  "nodes": [
    1082020742,
    1082020722,
    1082020718,
    1082020706,
    1082020743,
    1082020728,
    1082020711,
    1082020745,
    1082020712,
    1082020742
  ],
  "tags": {
    "building": "yes",
    "name": "Rudolph Tegners Museum",
    "opening_hours": "Apr 15-Oct 15 12:00-17:00; week 42 12:00-17:00; Jun-Aug 11:00-18:00",
    "tourism": "museum",
    "website": "https://www.rudolphtegner.dk/",
    "wikidata": "Q7377462"
  }
},
{
  "type": "way",
  "id": 95415228,
  "nodes": [
    6299417970,
    6299399341,
    1106385587,
    6299395396,
    1106385500,
    6299420615,
    6299402945,
    1106385531,
    1106385559,
    6299409757,
    6299420452,
    1106385503,
    1106385535,
    6299419291,
    6299417970
  ],
  "tags": {
    "building": "yes",
    "name": "Græsted Lokalhistoriske Arkiv",
    "tourism": "museum"
  }
},
{
  "type": "way",
  "id": 95450763,
  "nodes": [
    1106766537,
    5475196209,
    3343357904,
    1106766628,
    3343357903,
    1106767294,
    1106766373,
    1106767041,
    1106766247,
    1106766306,
    1106766548,
    1106766557,
    1106767088,
    1106767192,
    1106766318,
    1106766944,
    1106766537
  ],
  "tags": {
    "building": "yes",
    "name": "Esrum Kloster",
    "name:de": "Kloster Esrom",
    "name:en": "Esrum Abbey",
    "name:pl": "Opactwo Esrum",
    "opening_hours": "Jun-Aug Tu-Su 11:00-17:00; Dec-Feb Sa-Su 11:00-17:00",
    "phone": "+45 48 36 04 00",
    "tourism": "museum",
    "website": "http://www.esrum.dk/",
    "wikidata": "Q600582",
    "wikipedia": "da:Esrum Kloster"
  }
},
{
  "type": "way",
  "id": 108122091,
  "nodes": [
    1240979156,
    1240979143,
    3738920674,
    3738920675,
    1240979145,
    1240979158,
    1240979149,
    1240979141,
    1240979154,
    1240979147,
    1240979156
  ],
  "tags": {
    "addr:city": "Råå",
    "addr:country": "SE",
    "addr:housenumber": "1",
    "addr:postcode": "252 70",
    "addr:street": "Museiplanen",
    "building": "yes",
    "contact:website": "http://raamuseum.se/",
    "museum": "maritime",
    "name": "Råå museum för fiske och sjöfart",
    "source:address": "Helsingborgs kommun",
    "tourism": "museum",
    "wikidata": "Q28934219"
  }
},
{
  "type": "way",
  "id": 114688882,
  "nodes": [
    1298511909,
    1298511890,
    1503370117,
    1503370355,
    1298512063,
    1298512116,
    1298511817,
    1298511788,
    1298511909
  ],
  "tags": {
    "alt_name": "Teknisk Museum",
    "building": "yes",
    "museum": "technology",
    "name": "Danmarks Tekniske Museum",
    "name:en": "Danish Museum of Science & Technology",
    "opening_hours": "Tu-Su 10:00-17:00",
    "phone": "+45 49 22 26 11",
    "tourism": "museum",
    "website": "https://tekniskmuseum.dk/",
    "wikidata": "Q10466595",
    "wikipedia": "da:Danmarks Tekniske Museum"
  }
},
{
  "type": "way",
  "id": 117376758,
  "nodes": [
    1086062830,
    1086062585,
    1322122192,
    1322122163,
    1322122150,
    1322122111,
    1322122169,
    1322122121,
    1797634445,
    1797634580,
    1322122165,
    1797634432,
    1322122123,
    1797634573,
    1797634586,
    1322122114,
    1322122197,
    1797634481,
    1797634390,
    3762926032,
    1797634419,
    1797634380,
    1322122134,
    1322122211,
    1322122203,
    1797634539,
    1322122171,
    1814823981,
    1814823976,
    1814824063,
    1322122136,
    591017608,
    591017626,
    376973355,
    591017628,
    591017631,
    1322122116,
    1797669659,
    1322122166,
    1797669750,
    1322122173,
    1322122205,
    1322122152,
    1322122187,
    597379188,
    1086063040,
    597379173,
    1086062830
  ],
  "tags": {
    "alt_name": "Fredriksdals Friluftsmuseum",
    "barrier": "fence",
    "email": "fredriksdal@helsingborg.se",
    "museum": "open_air",
    "name": "Fredriksdal museer och trädgårdar",
    "phone": "+46 42 104500",
    "tourism": "museum",
    "website": "https://www.fredriksdal.se/",
    "wikidata": "Q10498762"
  }
},
{
  "type": "way",
  "id": 128655274,
  "nodes": [
    1421251643,
    1421251646,
    1421251644,
    1421251617,
    1421251618,
    1421251608,
    1421251601,
    1421251612,
    1421251594,
    1421251616,
    1421251620,
    1421251622,
    1814823990,
    1421251623,
    1421251645,
    1421251624,
    1421251639,
    1421251637,
    1421251621,
    1814823954,
    1421251619,
    1421251643
  ],
  "tags": {
    "addr:city": "Helsingborg",
    "addr:country": "SE",
    "addr:housenumber": "1",
    "addr:postcode": "254 37",
    "addr:street": "Gisela Trapps väg",
    "building": "yes",
    "name": "Kulturmagasinet",
    "source:address": "Helsingborgs kommun",
    "tourism": "museum",
    "wikidata": "Q10550005"
  }
},
{
  "type": "way",
  "id": 147251961,
  "nodes": [
    1604794671,
    1604794666,
    1604794668,
    1604794696,
    1604794671
  ],
  "tags": {
    "alt_name": "Hillerød Bymuseum",
    "building": "yes",
    "name": "Folkemuseet",
    "tourism": "museum",
    "website": "http://www.folkemuseet.dk/",
    "wikidata": "Q12316757",
    "wikipedia": "da:Hillerød Bymuseum"
  }
},
{
  "type": "way",
  "id": 147341404,
  "nodes": [
    1605607504,
    1605607513,
    1605607518,
    1605607510,
    1605607516,
    1605607508,
    1605607504
  ],
  "tags": {
    "building": "yes",
    "man_made": "watermill",
    "name": "Hammermøllen",
    "tourism": "museum",
    "wikidata": "Q5645718",
    "wikipedia": "da:Hammermøllen"
  }
},
{
  "type": "way",
  "id": 158938409,
  "nodes": [
    1710544380,
    1710544416,
    1710544269,
    1710544382,
    1710544380
  ],
  "tags": {
    "building": "yes",
    "name": "Annaborg",
    "subject": "arts",
    "tourism": "museum"
  }
},
{
  "type": "way",
  "id": 165448184,
  "nodes": [
    2088271949,
    2088271956,
    2088271960,
    2088271966,
    1769884536,
    1769884535,
    1769884534,
    2088271970,
    2088271964,
    2088271958,
    2088271957,
    2088271946,
    2088271949
  ],
  "tags": {
    "building": "yes",
    "name": "Frieboeshvile",
    "operator": "Lyngby-Taarbæk Kommune",
    "tourism": "museum",
    "website": "https://www.ltk.dk/frieboes-hvile",
    "wikidata": "Q5503601",
    "wikipedia": "da:Frieboeshvile"
  }
},
{
  "type": "way",
  "id": 168431599,
  "nodes": [
    1796966085,
    1796966092,
    1796966148,
    1796966113,
    1796966085
  ],
  "tags": {
    "attraction": "yes",
    "building": "yes",
    "historic": "yes",
    "name": "Fredriksdals herrgård",
    "source": "Bing",
    "tourism": "museum",
    "wikidata": "Q10498763"
  }
},
{
  "type": "way",
  "id": 168431607,
  "nodes": [
    1796966117,
    1796966089,
    1796966114,
    1796966205,
    1796966071,
    1796966069,
    1797669510,
    1796966191,
    1797669735,
    1796966201,
    1796966182,
    1796966044,
    1796966059,
    1796966057,
    1796966056,
    1796966055,
    1796966078,
    1796966185,
    1796966068,
    1796966045,
    1796966117
  ],
  "tags": {
    "addr:city": "Helsingborg",
    "addr:country": "SE",
    "addr:housenumber": "5",
    "addr:postcode": "254 37",
    "addr:street": "Gisela Trapps väg",
    "building": "yes",
    "name": "Grafiska museet",
    "source:address": "Helsingborgs kommun",
    "tourism": "museum",
    "wikidata": "Q28934290"
  }
},
{
  "type": "way",
  "id": 172392698,
  "nodes": [
    5331353281,
    5331353280,
    5331353279,
    5331353282,
    1833006580,
    1833006465,
    1833006525,
    1624468312,
    5331353281
  ],
  "tags": {
    "building": "yes",
    "tourism": "museum"
  }
},
{
  "type": "way",
  "id": 190104496,
  "nodes": [
    2007116922,
    2007116918,
    2007116903,
    2007116906,
    2007116920,
    2007116924,
    2007116928,
    2007116931,
    2007116935,
    2007116937,
    2007116940,
    2007116938,
    2007116936,
    2007116933,
    2007116930,
    2007116926,
    2007116922
  ],
  "tags": {
    "building": "yes",
    "name": "Nivaagaard Teglværks Ringovn",
    "start_date": "1870",
    "tourism": "museum",
    "website": "https://ringovn.dk/",
    "wikidata": "Q12329066",
    "wikimedia_commons": "File:Nivaagaard Teglværks ringovn.jpg",
    "wikipedia": "da:Nivaagaards Teglværk"
  }
},
{
  "type": "way",
  "id": 192140803,
  "nodes": [
    1430512999,
    2685669541,
    1430513033,
    1430513036,
    1430513046,
    1430513048,
    5954270219,
    1430513064,
    1430513050,
    1430513043,
    2027024564,
    1430512999
  ],
  "tags": {
    "fvst:fixme": "fvst:no_pos",
    "fvst:navnelbnr": "546187",
    "museum": "maritime",
    "name": "M/S Museet for Søfart",
    "tourism": "museum",
    "was:dock": "drydock",
    "was:waterway": "dock",
    "website": "https://mfs.dk/",
    "wheelchair": "yes",
    "wikidata": "Q5219764",
    "wikipedia": "da:M/S Museet for Søfart"
  }
},
{
  "type": "way",
  "id": 225563857,
  "nodes": [
    2343299319,
    2343299330,
    2343299318,
    2343299308,
    2343299319
  ],
  "tags": {
    "building": "manor",
    "historic": "manor",
    "name": "Gammel Holtegaard",
    "opening_hours": "Tu-Su 12:00-17:00; Mo off",
    "tourism": "museum",
    "website": "http://www.glholtegaard.dk/",
    "wikidata": "Q5520347",
    "wikipedia": "da:Gammel Holtegaard"
  }
},
{
  "type": "way",
  "id": 233576761,
  "nodes": [
    2419413546,
    6149349790,
    6149349788,
    6149349787,
    6149349789,
    6149349786,
    2419413543,
    2419413539,
    6149349791,
    2419413541,
    2419413546
  ],
  "tags": {
    "building": "church",
    "museum": "person",
    "name": "Tycho Brahe museum",
    "old_name": "Sankt Ibbs nya kyrka",
    "tourism": "museum",
    "was:amenity": "place_of_worship",
    "wikidata": "Q10661366",
    "wikimedia_commons": "File:Tycho Brahe Museum i Allhelgonakyrkan på Hven.JPG"
  }
},
{
  "type": "way",
  "id": 235321540,
  "nodes": [
    2084200406,
    5195792964,
    5195792963,
    5195792962,
    2084200407,
    2084200408,
    2084200410,
    2084200411,
    277680468,
    277680470,
    4831034317,
    5195792961,
    1271416209,
    5195792954,
    1271416050,
    1271416093,
    277680475,
    5195792952,
    5195792951,
    3861555028,
    3861555029,
    3861555026,
    277680476,
    277680477,
    277680478,
    277680479,
    277680480,
    3861555001,
    3861555002,
    3884889422,
    3884889421,
    3884889420,
    3861554998,
    3861554989,
    3861554982,
    277680481,
    5195761684,
    277680484,
    277680540,
    277680487,
    277680488,
    277680489,
    277680490,
    2084200406
  ],
  "tags": {
    "fvst:navnelbnr": "566633",
    "name": "Frilandsmuseet",
    "tourism": "museum",
    "website": "http://natmus.dk/museerne/frilandsmuseet/",
    "wikidata": "Q1150616",
    "wikipedia": "da:Frilandsmuseet"
  }
},
{
  "type": "way",
  "id": 236715555,
  "nodes": [
    2447050793,
    2662937381,
    2662937375,
    2662937369,
    2662937373,
    2447050795,
    2447050781,
    2447050786,
    2447050788,
    2447050790,
    2447050793
  ],
  "tags": {
    "building": "yes",
    "fvst:name": "Mothsgården Rudersdal Museer",
    "fvst:navnelbnr": "96153",
    "name": "Mothsgården",
    "operator": "Rudersdal Museer",
    "phone": "+45 46115650",
    "tourism": "museum",
    "website": "https://museer.rudersdal.dk/rum/temaer/mothsgaarden",
    "wikidata": "Q17052118"
  }
},
{
  "type": "way",
  "id": 237117065,
  "nodes": [
    2450649125,
    2450649090,
    2450649074,
    2450649103,
    2450649125
  ],
  "tags": {
    "building": "yes",
    "name": "Landskrona museum",
    "tourism": "museum",
    "wikidata": "Q1253439"
  }
},
{
  "type": "way",
  "id": 268383900,
  "nodes": [
    2737214985,
    2737215004,
    2737215002,
    2737215001,
    2737215000,
    2737214999,
    5017961696,
    5017961698,
    5017961700,
    2737215006,
    2737215021,
    2737215019,
    2737215017,
    736906875,
    2737215015,
    2737215014,
    2737215013,
    2737215012,
    2737215011,
    2737215010,
    2737215008,
    5017961699,
    5017961701,
    5017961697,
    2737214997,
    2737214995,
    2737214994,
    2737214992,
    2737214990,
    2737214988,
    2737214985
  ],
  "tags": {
    "building": "yes",
    "museum": "art",
    "name": "Nivaagaards Malerisamling",
    "opening_hours": "Tu-Fr 11:00-20:00; Sa-Su11:00-17:00",
    "tourism": "museum",
    "website": "https://www.nivaagaard.dk/",
    "wheelchair": "yes",
    "wikidata": "Q10601378",
    "wikipedia": "da:Nivaagaards Malerisamling"
  }
},
{
  "type": "way",
  "id": 273590361,
  "nodes": [
    2784271732,
    2784271730,
    2784271717,
    2784271718,
    2784271732
  ],
  "tags": {
    "addr:city": "Mölle",
    "addr:country": "SE",
    "addr:housenumber": "323",
    "addr:postcode": "26377",
    "addr:street": "Italienska vägen",
    "building": "civic",
    "building:levels": "1",
    "description:en": "The personnel at the Center can provide suggestions for countryside hikes and excursions. The idea is simple - naturum Kullaberg is meant to be the gateway to nature.",
    "name": "Kullabergs Naturum",
    "opening_hours": "10:00-16:00",
    "operator": "County Administrative Board of Skåne",
    "roof:levels": "1",
    "roof:shape": "gabled",
    "tourism": "museum",
    "website": "http://www.kullabergsnatur.se/",
    "wheelchair": "yes",
    "wikidata": "Q1791521",
    "wikipedia": "sv:Kullaberg"
  }
},
{
  "type": "way",
  "id": 286852498,
  "nodes": [
    2905305465,
    2905305462,
    2905305455,
    3634581754,
    3634581752,
    3634581751,
    3634581753,
    2905305454,
    2905305465
  ],
  "tags": {
    "addr:city": "Viken",
    "addr:country": "SE",
    "addr:housenumber": "160",
    "addr:postcode": "263 65",
    "addr:street": "Djuramossavägen",
    "building": "yes",
    "museum": "military",
    "name": "Beredskapsmuseet",
    "source:address": "Helsingborgs kommun",
    "tourism": "museum",
    "website": "http://www.beredskapsmuseet.com/",
    "wikidata": "Q10428296",
    "wikipedia": "sv:Beredskapsmuseet"
  }
},
{
  "type": "way",
  "id": 333829538,
  "nodes": [
    3408798213,
    3408798214,
    3408798215,
    3408798216,
    3408798217,
    3408798218,
    3408798219,
    3408798220,
    3408798221,
    3408798222,
    3408798223,
    3408798224,
    3408798213
  ],
  "tags": {
    "alt_name": "Birkerød Gamle Præstegård",
    "building": "yes",
    "name": "Birkerød Kunstforening",
    "opening_hours": "Tu-Fr 14:00-17:00; Sa 11:00-15:00; Su 14:00-17:00",
    "phone": "+45 45 82 60 15",
    "tourism": "museum",
    "website": "http://www.birkeroed-kunstforening.dk/"
  }
},
{
  "type": "way",
  "id": 333829976,
  "nodes": [
    3408818312,
    3408818309,
    3408818310,
    3408818311,
    3408818312
  ],
  "tags": {
    "building": "yes",
    "name": "Birkerød lokalhistoriske arkiv og museum",
    "phone": "+45 4582 0036",
    "tourism": "museum",
    "website": "http://www.xn--birkerdlokalhistoriskearkivogmuseum-vsd.dk/"
  }
},
{
  "type": "way",
  "id": 352483646,
  "nodes": [
    3582682703,
    3582682699,
    3582682702,
    3582682707,
    3582682703
  ],
  "tags": {
    "building": "yes",
    "name": "Hørsholm Egns Museum",
    "tourism": "museum",
    "wikidata": "Q15227515",
    "wikipedia": "en:Hørsholm Local History Museum"
  }
},
{
  "type": "way",
  "id": 399101469,
  "nodes": [
    4018418828,
    4018418829,
    4018418830,
    4018418831,
    4018418832,
    4018418834,
    4018418835,
    4018418817,
    4018418816,
    4018418838,
    4018418840,
    4018418841,
    4018418842,
    4018418843,
    4018418845,
    4018418847,
    4018418848,
    4018418849,
    4018418850,
    4018418851,
    4018418828
  ],
  "tags": {
    "addr:city": "Ängelholm",
    "addr:country": "SE",
    "addr:housenumber": "11",
    "addr:postcode": "262 52",
    "addr:street": "Banskolevägen",
    "alt_name": "Sveriges järnvägsmuseum",
    "building": "yes",
    "museum": "railway",
    "name": "Järnvägens Museum Ängelholm",
    "opening_hours": "Jun-Aug Mo-Su 10:00-17:00; Sep-May Tu-Su 10:00-16:00",
    "tourism": "museum",
    "website": "http://www.engelholm.se/jarnvagsmuseum/",
    "wikidata": "Q10541864"
  }
},
{
  "type": "way",
  "id": 407719849,
  "nodes": [
    4097550883,
    4097550884,
    4097550885,
    4097550882,
    4097550879,
    4097550878,
    4097550877,
    4097550876,
    3576297716,
    3576297714,
    4097550875,
    4097550880,
    4097550881,
    4097550883
  ],
  "tags": {
    "contact:website": "http://www.jagtskov.dk",
    "name": "Dansk Jagt- og Skovbrugsmuseum",
    "name:en": "Danish Museum for Hunting and Forestry",
    "tourism": "museum",
    "wikidata": "Q12307465",
    "wikipedia": "da:Dansk Jagt- og Skovbrugsmuseum"
  }
},
{
  "type": "way",
  "id": 414182999,
  "nodes": [
    4153591129,
    4153591134,
    4153591132,
    4153591131,
    4153591128,
    4153591127,
    4153591123,
    4153591129
  ],
  "tags": {
    "building": "yes",
    "name": "Sommer's Automobile Museum",
    "opening_hours": "Su 14:00-17:00",
    "tourism": "museum",
    "website": "http://sommersautomobilmuseum.dk/",
    "wikidata": "Q12336397",
    "wikipedia": "da:Sommer's Automobile Museum"
  }
},
{
  "type": "way",
  "id": 415756575,
  "nodes": [
    4167236867,
    4167236861,
    4167236862,
    4167236856,
    4167236859,
    4167236874,
    4167236875,
    4167236879,
    4167236878,
    4167236873,
    4167236872,
    4167236869,
    4167236867
  ],
  "tags": {
    "building": "yes",
    "building:levels": "2",
    "name": "Øregaard Museum",
    "tourism": "museum",
    "wikidata": "Q3430210",
    "wikipedia": "da:Øregaard Museum"
  }
},
{
  "type": "way",
  "id": 436227052,
  "nodes": [
    4341006609,
    7194143168,
    4341006631,
    955677697,
    3093005349,
    3093005354,
    3093005352,
    7192094361,
    7192094360,
    3918030294,
    7192094381,
    7192094359,
    2010368018,
    2010367999,
    2010367995,
    2010367994,
    2580397076,
    2580397077,
    2580397082,
    2010367996,
    2580397084,
    4341006640,
    4341006642,
    4341006646,
    4341006644,
    4341006645,
    2580397078,
    2580397079,
    4341006641,
    3092960584,
    3092960583,
    4341006632,
    4341006630,
    4341006625,
    4341006623,
    4341006620,
    3092960570,
    3092960568,
    3092960567,
    3092960566,
    3092960565,
    4341006609
  ],
  "tags": {
    "alt_name": "Louisiana",
    "amenity": "arts_centre",
    "email": "mail@louisiana.dk",
    "museum": "art",
    "name": "Louisiana Museum of Modern Art",
    "name:fr": "Musée d'art moderne Louisiana",
    "name:ko": "루이지애나 현대미술관",
    "opening_hours": "Tu-Fr 11:00-22:00; Sa-Su 11:00-18:00",
    "phone": "+45 4919 0719",
    "tourism": "museum",
    "website": "https://www.louisiana.dk/",
    "wheelchair": "yes",
    "wikidata": "Q1410617",
    "wikipedia": "da:Louisiana (kunstmuseum)"
  }
},
{
  "type": "way",
  "id": 531338936,
  "nodes": [
    5157897865,
    5157897878,
    5157897875,
    5157897866,
    5157897872,
    5157897873,
    5157897867,
    1467991783,
    5157897874,
    5157897865
  ],
  "tags": {
    "building": "yes",
    "tourism": "museum"
  }
},
{
  "type": "way",
  "id": 601831402,
  "nodes": [
    5718692585,
    5718692584,
    5718692583,
    5718692582,
    5718692585
  ],
  "tags": {
    "architect": "Sulev Kramer",
    "building": "yes",
    "name": "Skolmuseum",
    "start_date": "1999",
    "tourism": "museum"
  }
},
{
  "type": "way",
  "id": 601831413,
  "nodes": [
    5718692844,
    5718692846,
    5718692850,
    5718692847,
    5718692848,
    5718692849,
    5718692845,
    5718692851,
    5718692852,
    5718692843,
    5718692842,
    5718692854,
    5718692855,
    5718692853,
    5718692844
  ],
  "tags": {
    "building": "yes",
    "name": "Tekniska museet",
    "tourism": "museum"
  }
},
{
  "type": "way",
  "id": 601831414,
  "nodes": [
    5718692859,
    5718692856,
    5718692857,
    5718692858,
    5718692859
  ],
  "tags": {
    "building": "yes",
    "name": "Grönwallska gården",
    "tourism": "museum"
  }
},
{
  "type": "way",
  "id": 601831415,
  "nodes": [
    5718692704,
    5718692703,
    5718692702,
    5718692701,
    5718692704
  ],
  "tags": {
    "architect": "Sulev Kramer",
    "building": "yes",
    "name": "Läder- och Lokalhistoriskt Museum",
    "start_date": "2006",
    "tourism": "museum",
    "wikidata": "Q28934202"
  }
},
{
  "type": "way",
  "id": 633880492,
  "nodes": [
    838634843,
    748882760,
    5982989949,
    849471790,
    413887767,
    3884889448,
    413887774,
    279437600,
    5982989948,
    5982989951,
    5982989950,
    277679995,
    1271416231,
    277679994,
    2561196084,
    277679993,
    1271416161,
    1271416079,
    277680026,
    1271416035,
    277680024,
    413887893,
    838629575,
    838629564,
    838634843
  ],
  "tags": {
    "name": "Brede Værk",
    "tourism": "museum",
    "wikidata": "Q4960125",
    "wikipedia": "da:Brede Værk"
  }
},
{
  "type": "way",
  "id": 633880493,
  "nodes": [
    5982989958,
    838634843,
    838634845,
    1512297161,
    1512297158,
    1512297155,
    5982989958
  ],
  "tags": {
    "building": "house",
    "name": "Brede Hovedbygning",
    "tourism": "museum",
    "wikidata": "Q4960122",
    "wikipedia": "da:Brede Hovedbygning"
  }
},
{
  "type": "way",
  "id": 661724058,
  "nodes": [
    6195082735,
    6195082734,
    6195082733,
    6195082731,
    6195082730,
    6195082732,
    6195082735
  ],
  "tags": {
    "building": "yes",
    "description": "Museum of fire equipment",
    "name": "Nærum Sprøjte",
    "tourism": "museum",
    "wikimedia_commons": "File:Brandmuseum.jpg"
  }
},
{
  "type": "way",
  "id": 665090193,
  "nodes": [
    6225226942,
    6225226939,
    6225226940,
    6225226941,
    6225226942
  ],
  "tags": {
    "building": "yes",
    "name": "Luntertunstugan",
    "tourism": "museum"
  }
},
{
  "type": "way",
  "id": 685444412,
  "nodes": [
    6423445997,
    6423445996,
    6423445995,
    6423445994,
    6423445993,
    6423445992,
    6423445991,
    6423445998,
    6423445990,
    6423445989,
    6423445988,
    4868336586,
    6423445987,
    6423445986,
    6423445997
  ],
  "tags": {
    "building": "windmill",
    "man_made": "windmill",
    "name": "Bräcke mölla",
    "operator": "Kullens Hembygdsförening",
    "tourism": "museum",
    "wikidata": "Q10436894",
    "wikipedia": "sv:Bräcke Mölla",
    "windmill:type": "smock",
    "windmill:vanes": "yes"
  }
},
{
  "type": "node",
  "id": 278693154,
  "lat": 55.7753487,
  "lon": 12.4573160
},
{
  "type": "node",
  "id": 278693155,
  "lat": 55.7753326,
  "lon": 12.4578905
},
{
  "type": "node",
  "id": 278693156,
  "lat": 55.7754294,
  "lon": 12.4578984
},
{
  "type": "node",
  "id": 278693157,
  "lat": 55.7754442,
  "lon": 12.4573238
},
{
  "type": "node",
  "id": 1882984564,
  "lat": 55.7752921,
  "lon": 12.4576832
},
{
  "type": "node",
  "id": 1882984566,
  "lat": 55.7752958,
  "lon": 12.4575406
},
{
  "type": "node",
  "id": 1882984576,
  "lat": 55.7753259,
  "lon": 12.4577508
},
{
  "type": "node",
  "id": 1882984582,
  "lat": 55.7753275,
  "lon": 12.4576861
},
{
  "type": "node",
  "id": 1882984584,
  "lat": 55.7753344,
  "lon": 12.4575437
},
{
  "type": "node",
  "id": 1882984585,
  "lat": 55.7753362,
  "lon": 12.4577516
},
{
  "type": "node",
  "id": 1882984587,
  "lat": 55.7753365,
  "lon": 12.4574657
},
{
  "type": "node",
  "id": 1882984591,
  "lat": 55.7753448,
  "lon": 12.4574664
},
{
  "type": "node",
  "id": 4167236856,
  "lat": 55.7387019,
  "lon": 12.5729647
},
{
  "type": "node",
  "id": 4167236859,
  "lat": 55.7387257,
  "lon": 12.5727575
},
{
  "type": "node",
  "id": 4167236861,
  "lat": 55.7387398,
  "lon": 12.5730206
},
{
  "type": "node",
  "id": 4167236862,
  "lat": 55.7387445,
  "lon": 12.5729801
},
{
  "type": "node",
  "id": 4167236867,
  "lat": 55.7388090,
  "lon": 12.5730456
},
{
  "type": "node",
  "id": 4167236869,
  "lat": 55.7388136,
  "lon": 12.5730051
},
{
  "type": "node",
  "id": 4167236872,
  "lat": 55.7388763,
  "lon": 12.5730278
},
{
  "type": "node",
  "id": 4167236873,
  "lat": 55.7388909,
  "lon": 12.5729005
},
{
  "type": "node",
  "id": 4167236874,
  "lat": 55.7389038,
  "lon": 12.5728218
},
{
  "type": "node",
  "id": 4167236875,
  "lat": 55.7389134,
  "lon": 12.5727376
},
{
  "type": "node",
  "id": 4167236878,
  "lat": 55.7389559,
  "lon": 12.5729239
},
{
  "type": "node",
  "id": 4167236879,
  "lat": 55.7389747,
  "lon": 12.5727598
},
{
  "type": "node",
  "id": 281071259,
  "lat": 55.7651829,
  "lon": 12.5280647
},
{
  "type": "node",
  "id": 281071260,
  "lat": 55.7652734,
  "lon": 12.5263639
},
{
  "type": "node",
  "id": 2091955717,
  "lat": 55.7659819,
  "lon": 12.5282029
},
{
  "type": "node",
  "id": 2091955724,
  "lat": 55.7660668,
  "lon": 12.5264993
},
{
  "type": "node",
  "id": 277680489,
  "lat": 55.7853318,
  "lon": 12.4908298
},
{
  "type": "node",
  "id": 277680490,
  "lat": 55.7852015,
  "lon": 12.4899457
},
{
  "type": "node",
  "id": 2084200406,
  "lat": 55.7865714,
  "lon": 12.4890235
},
{
  "type": "node",
  "id": 5195792963,
  "lat": 55.7866170,
  "lon": 12.4910997
},
{
  "type": "node",
  "id": 5195792964,
  "lat": 55.7868267,
  "lon": 12.4910192
},
{
  "type": "node",
  "id": 1769884534,
  "lat": 55.7765150,
  "lon": 12.4958782
},
{
  "type": "node",
  "id": 1769884535,
  "lat": 55.7765411,
  "lon": 12.4956305
},
{
  "type": "node",
  "id": 1769884536,
  "lat": 55.7764632,
  "lon": 12.4956046
},
{
  "type": "node",
  "id": 2088271946,
  "lat": 55.7762307,
  "lon": 12.4958495
},
{
  "type": "node",
  "id": 2088271949,
  "lat": 55.7762337,
  "lon": 12.4957452
},
{
  "type": "node",
  "id": 2088271956,
  "lat": 55.7763946,
  "lon": 12.4957598
},
{
  "type": "node",
  "id": 2088271957,
  "lat": 55.7763953,
  "lon": 12.4958645
},
{
  "type": "node",
  "id": 2088271958,
  "lat": 55.7763954,
  "lon": 12.4958595
},
{
  "type": "node",
  "id": 2088271960,
  "lat": 55.7763962,
  "lon": 12.4957445
},
{
  "type": "node",
  "id": 2088271964,
  "lat": 55.7764456,
  "lon": 12.4958763
},
{
  "type": "node",
  "id": 2088271966,
  "lat": 55.7764467,
  "lon": 12.4957613
},
{
  "type": "node",
  "id": 2088271970,
  "lat": 55.7764478,
  "lon": 12.4958558
},
{
  "type": "node",
  "id": 277680484,
  "lat": 55.7850229,
  "lon": 12.4953359
},
{
  "type": "node",
  "id": 277680487,
  "lat": 55.7841449,
  "lon": 12.4926313
},
{
  "type": "node",
  "id": 277680488,
  "lat": 55.7853484,
  "lon": 12.4927912
},
{
  "type": "node",
  "id": 277680540,
  "lat": 55.7843270,
  "lon": 12.4948901
},
{
  "type": "node",
  "id": 2084200407,
  "lat": 55.7868928,
  "lon": 12.4915376
},
{
  "type": "node",
  "id": 2084200408,
  "lat": 55.7869328,
  "lon": 12.4917240
},
{
  "type": "node",
  "id": 2084200410,
  "lat": 55.7870597,
  "lon": 12.4917844
},
{
  "type": "node",
  "id": 2084200411,
  "lat": 55.7871920,
  "lon": 12.4917463
},
{
  "type": "node",
  "id": 5195761684,
  "lat": 55.7860401,
  "lon": 12.4960603
},
{
  "type": "node",
  "id": 5195792962,
  "lat": 55.7866366,
  "lon": 12.4915959
},
{
  "type": "node",
  "id": 277680468,
  "lat": 55.7894808,
  "lon": 12.4901744
},
{
  "type": "node",
  "id": 277680470,
  "lat": 55.7899562,
  "lon": 12.4939172
},
{
  "type": "node",
  "id": 277680475,
  "lat": 55.7940819,
  "lon": 12.4971150
},
{
  "type": "node",
  "id": 1271416050,
  "lat": 55.7937596,
  "lon": 12.4964539
},
{
  "type": "node",
  "id": 1271416093,
  "lat": 55.7939738,
  "lon": 12.4963756
},
{
  "type": "node",
  "id": 1271416209,
  "lat": 55.7934615,
  "lon": 12.4937261
},
{
  "type": "node",
  "id": 3861555028,
  "lat": 55.7933703,
  "lon": 12.4972222
},
{
  "type": "node",
  "id": 3861555029,
  "lat": 55.7933980,
  "lon": 12.4976959
},
{
  "type": "node",
  "id": 4831034317,
  "lat": 55.7907053,
  "lon": 12.4938764
},
{
  "type": "node",
  "id": 5195792951,
  "lat": 55.7936951,
  "lon": 12.4971733
},
{
  "type": "node",
  "id": 5195792952,
  "lat": 55.7938430,
  "lon": 12.4971510
},
{
  "type": "node",
  "id": 5195792954,
  "lat": 55.7935890,
  "lon": 12.4948926
},
{
  "type": "node",
  "id": 5195792961,
  "lat": 55.7920807,
  "lon": 12.4938014
},
{
  "type": "node",
  "id": 277679995,
  "lat": 55.7940002,
  "lon": 12.5002686
},
{
  "type": "node",
  "id": 277680024,
  "lat": 55.7937586,
  "lon": 12.4991542
},
{
  "type": "node",
  "id": 277680026,
  "lat": 55.7940545,
  "lon": 12.4991588
},
{
  "type": "node",
  "id": 277680476,
  "lat": 55.7924447,
  "lon": 12.4978897
},
{
  "type": "node",
  "id": 277680477,
  "lat": 55.7924693,
  "lon": 12.4986035
},
{
  "type": "node",
  "id": 277680478,
  "lat": 55.7921673,
  "lon": 12.4987991
},
{
  "type": "node",
  "id": 277680479,
  "lat": 55.7911260,
  "lon": 12.4989677
},
{
  "type": "node",
  "id": 277680480,
  "lat": 55.7908109,
  "lon": 12.4989744
},
{
  "type": "node",
  "id": 277680481,
  "lat": 55.7891252,
  "lon": 12.4982574
},
{
  "type": "node",
  "id": 413887893,
  "lat": 55.7937650,
  "lon": 12.4990739
},
{
  "type": "node",
  "id": 838629575,
  "lat": 55.7937599,
  "lon": 12.4984625
},
{
  "type": "node",
  "id": 1271416035,
  "lat": 55.7938978,
  "lon": 12.4991486
},
{
  "type": "node",
  "id": 1271416231,
  "lat": 55.7940846,
  "lon": 12.5000292
},
{
  "type": "node",
  "id": 3861554982,
  "lat": 55.7896935,
  "lon": 12.4985744
},
{
  "type": "node",
  "id": 3861554989,
  "lat": 55.7898690,
  "lon": 12.4977766
},
{
  "type": "node",
  "id": 3861554998,
  "lat": 55.7902112,
  "lon": 12.4979263
},
{
  "type": "node",
  "id": 3861555001,
  "lat": 55.7905061,
  "lon": 12.4988477
},
{
  "type": "node",
  "id": 3861555002,
  "lat": 55.7905272,
  "lon": 12.4984924
},
{
  "type": "node",
  "id": 3861555026,
  "lat": 55.7929173,
  "lon": 12.4977165
},
{
  "type": "node",
  "id": 3884889420,
  "lat": 55.7901779,
  "lon": 12.4981736
},
{
  "type": "node",
  "id": 3884889421,
  "lat": 55.7904081,
  "lon": 12.4982711
},
{
  "type": "node",
  "id": 3884889422,
  "lat": 55.7904042,
  "lon": 12.4983865
},
{
  "type": "node",
  "id": 5982989948,
  "lat": 55.7939610,
  "lon": 12.5008535
},
{
  "type": "node",
  "id": 5982989950,
  "lat": 55.7939859,
  "lon": 12.5005652
},
{
  "type": "node",
  "id": 5982989951,
  "lat": 55.7939603,
  "lon": 12.5006966
},
{
  "type": "node",
  "id": 413887767,
  "lat": 55.7961756,
  "lon": 12.4967196
},
{
  "type": "node",
  "id": 849471790,
  "lat": 55.7942709,
  "lon": 12.4971105
},
{
  "type": "node",
  "id": 5982989949,
  "lat": 55.7943063,
  "lon": 12.4975879
},
{
  "type": "node",
  "id": 277679993,
  "lat": 55.7942354,
  "lon": 12.4994599
},
{
  "type": "node",
  "id": 277679994,
  "lat": 55.7941768,
  "lon": 12.4997405
},
{
  "type": "node",
  "id": 279437600,
  "lat": 55.7962127,
  "lon": 12.5004997
},
{
  "type": "node",
  "id": 413887774,
  "lat": 55.7962229,
  "lon": 12.4988591
},
{
  "type": "node",
  "id": 748882760,
  "lat": 55.7943200,
  "lon": 12.4979924
},
{
  "type": "node",
  "id": 838629564,
  "lat": 55.7942438,
  "lon": 12.4984353
},
{
  "type": "node",
  "id": 838634843,
  "lat": 55.7943134,
  "lon": 12.4983537
},
{
  "type": "node",
  "id": 838634845,
  "lat": 55.7944270,
  "lon": 12.4983455
},
{
  "type": "node",
  "id": 1271416079,
  "lat": 55.7941448,
  "lon": 12.4992283
},
{
  "type": "node",
  "id": 1271416161,
  "lat": 55.7942021,
  "lon": 12.4993375
},
{
  "type": "node",
  "id": 1512297155,
  "lat": 55.7944249,
  "lon": 12.4989589
},
{
  "type": "node",
  "id": 1512297158,
  "lat": 55.7944269,
  "lon": 12.4989309
},
{
  "type": "node",
  "id": 1512297161,
  "lat": 55.7944433,
  "lon": 12.4989280
},
{
  "type": "node",
  "id": 2561196084,
  "lat": 55.7942395,
  "lon": 12.4995288
},
{
  "type": "node",
  "id": 3884889448,
  "lat": 55.7962220,
  "lon": 12.4978293
},
{
  "type": "node",
  "id": 5982989958,
  "lat": 55.7943188,
  "lon": 12.4989545
},
{
  "type": "node",
  "id": 1604794666,
  "lat": 55.9281182,
  "lon": 12.2994950
},
{
  "type": "node",
  "id": 1604794668,
  "lat": 55.9280437,
  "lon": 12.2998128
},
{
  "type": "node",
  "id": 1604794671,
  "lat": 55.9282750,
  "lon": 12.2996122
},
{
  "type": "node",
  "id": 1604794696,
  "lat": 55.9282005,
  "lon": 12.2999300
},
{
  "type": "node",
  "id": 1710544269,
  "lat": 55.9350183,
  "lon": 12.2967870
},
{
  "type": "node",
  "id": 1710544380,
  "lat": 55.9351641,
  "lon": 12.2963098
},
{
  "type": "node",
  "id": 1710544382,
  "lat": 55.9349552,
  "lon": 12.2966705
},
{
  "type": "node",
  "id": 1710544416,
  "lat": 55.9352272,
  "lon": 12.2964263
},
{
  "type": "node",
  "id": 1624468312,
  "lat": 55.9337854,
  "lon": 12.3088688
},
{
  "type": "node",
  "id": 1833006465,
  "lat": 55.9337557,
  "lon": 12.3086920
},
{
  "type": "node",
  "id": 1833006525,
  "lat": 55.9338177,
  "lon": 12.3088184
},
{
  "type": "node",
  "id": 1833006580,
  "lat": 55.9336209,
  "lon": 12.3089026
},
{
  "type": "node",
  "id": 5331353279,
  "lat": 55.9337019,
  "lon": 12.3089992
},
{
  "type": "node",
  "id": 5331353280,
  "lat": 55.9337105,
  "lon": 12.3090169
},
{
  "type": "node",
  "id": 5331353281,
  "lat": 55.9337940,
  "lon": 12.3088865
},
{
  "type": "node",
  "id": 5331353282,
  "lat": 55.9336828,
  "lon": 12.3090290
},
{
  "type": "node",
  "id": 3408798214,
  "lat": 55.8399446,
  "lon": 12.4292748
},
{
  "type": "node",
  "id": 3408798215,
  "lat": 55.8399226,
  "lon": 12.4292679
},
{
  "type": "node",
  "id": 3408798216,
  "lat": 55.8399018,
  "lon": 12.4294359
},
{
  "type": "node",
  "id": 3408798217,
  "lat": 55.8398264,
  "lon": 12.4294078
},
{
  "type": "node",
  "id": 3408798218,
  "lat": 55.8398495,
  "lon": 12.4292295
},
{
  "type": "node",
  "id": 3408798219,
  "lat": 55.8398706,
  "lon": 12.4292378
},
{
  "type": "node",
  "id": 3408798220,
  "lat": 55.8398999,
  "lon": 12.4290376
},
{
  "type": "node",
  "id": 3408798221,
  "lat": 55.8398849,
  "lon": 12.4290321
},
{
  "type": "node",
  "id": 3408798222,
  "lat": 55.8399061,
  "lon": 12.4288483
},
{
  "type": "node",
  "id": 3408798224,
  "lat": 55.8399557,
  "lon": 12.4290335
},
{
  "type": "node",
  "id": 3408798213,
  "lat": 55.8399742,
  "lon": 12.4290444
},
{
  "type": "node",
  "id": 3408798223,
  "lat": 55.8399750,
  "lon": 12.4288744
},
{
  "type": "node",
  "id": 3408818309,
  "lat": 55.8422783,
  "lon": 12.4310463
},
{
  "type": "node",
  "id": 3408818310,
  "lat": 55.8422608,
  "lon": 12.4311881
},
{
  "type": "node",
  "id": 3408818311,
  "lat": 55.8420419,
  "lon": 12.4311028
},
{
  "type": "node",
  "id": 3408818312,
  "lat": 55.8420593,
  "lon": 12.4309608
},
{
  "type": "node",
  "id": 2447050781,
  "lat": 55.8131360,
  "lon": 12.4944431
},
{
  "type": "node",
  "id": 2447050786,
  "lat": 55.8132111,
  "lon": 12.4948440
},
{
  "type": "node",
  "id": 2447050788,
  "lat": 55.8130341,
  "lon": 12.4948767
},
{
  "type": "node",
  "id": 2447050790,
  "lat": 55.8129934,
  "lon": 12.4948222
},
{
  "type": "node",
  "id": 2447050793,
  "lat": 55.8131486,
  "lon": 12.4947821
},
{
  "type": "node",
  "id": 2447050795,
  "lat": 55.8130903,
  "lon": 12.4944702
},
{
  "type": "node",
  "id": 2662937369,
  "lat": 55.8130926,
  "lon": 12.4945991
},
{
  "type": "node",
  "id": 2662937373,
  "lat": 55.8131123,
  "lon": 12.4945874
},
{
  "type": "node",
  "id": 2662937375,
  "lat": 55.8131079,
  "lon": 12.4946808
},
{
  "type": "node",
  "id": 2662937381,
  "lat": 55.8131274,
  "lon": 12.4946692
},
{
  "type": "node",
  "id": 4153591123,
  "lat": 55.8181186,
  "lon": 12.5297754
},
{
  "type": "node",
  "id": 4153591127,
  "lat": 55.8182202,
  "lon": 12.5300686
},
{
  "type": "node",
  "id": 4153591128,
  "lat": 55.8183050,
  "lon": 12.5303134
},
{
  "type": "node",
  "id": 4153591129,
  "lat": 55.8183449,
  "lon": 12.5295271
},
{
  "type": "node",
  "id": 4153591131,
  "lat": 55.8183698,
  "lon": 12.5302423
},
{
  "type": "node",
  "id": 4153591132,
  "lat": 55.8183836,
  "lon": 12.5302823
},
{
  "type": "node",
  "id": 4153591134,
  "lat": 55.8185451,
  "lon": 12.5301051
},
{
  "type": "node",
  "id": 2343299319,
  "lat": 55.8290982,
  "lon": 12.5173472
},
{
  "type": "node",
  "id": 2343299308,
  "lat": 55.8291186,
  "lon": 12.5175060
},
{
  "type": "node",
  "id": 2343299318,
  "lat": 55.8287420,
  "lon": 12.5176592
},
{
  "type": "node",
  "id": 2343299330,
  "lat": 55.8287216,
  "lon": 12.5175004
},
{
  "type": "node",
  "id": 6195082730,
  "lat": 55.8199828,
  "lon": 12.5347784
},
{
  "type": "node",
  "id": 6195082731,
  "lat": 55.8199891,
  "lon": 12.5348184
},
{
  "type": "node",
  "id": 6195082732,
  "lat": 55.8200161,
  "lon": 12.5347617
},
{
  "type": "node",
  "id": 6195082733,
  "lat": 55.8199731,
  "lon": 12.5348264
},
{
  "type": "node",
  "id": 6195082734,
  "lat": 55.8199844,
  "lon": 12.5348975
},
{
  "type": "node",
  "id": 6195082735,
  "lat": 55.8200337,
  "lon": 12.5348727
},
{
  "type": "node",
  "id": 3576297714,
  "lat": 55.8753794,
  "lon": 12.5023393
},
{
  "type": "node",
  "id": 3576297716,
  "lat": 55.8754192,
  "lon": 12.5026662
},
{
  "type": "node",
  "id": 3582682699,
  "lat": 55.8751306,
  "lon": 12.5026500
},
{
  "type": "node",
  "id": 3582682702,
  "lat": 55.8751817,
  "lon": 12.5030525
},
{
  "type": "node",
  "id": 3582682703,
  "lat": 55.8752150,
  "lon": 12.5026160
},
{
  "type": "node",
  "id": 3582682707,
  "lat": 55.8752660,
  "lon": 12.5030185
},
{
  "type": "node",
  "id": 4097550875,
  "lat": 55.8753705,
  "lon": 12.5022701
},
{
  "type": "node",
  "id": 4097550876,
  "lat": 55.8758441,
  "lon": 12.5025016
},
{
  "type": "node",
  "id": 4097550877,
  "lat": 55.8759306,
  "lon": 12.5031097
},
{
  "type": "node",
  "id": 4097550878,
  "lat": 55.8760248,
  "lon": 12.5030734
},
{
  "type": "node",
  "id": 4097550879,
  "lat": 55.8760554,
  "lon": 12.5033003
},
{
  "type": "node",
  "id": 4097550880,
  "lat": 55.8765136,
  "lon": 12.5017981
},
{
  "type": "node",
  "id": 4097550881,
  "lat": 55.8767300,
  "lon": 12.5016257
},
{
  "type": "node",
  "id": 4097550882,
  "lat": 55.8768242,
  "lon": 12.5028737
},
{
  "type": "node",
  "id": 4097550883,
  "lat": 55.8768955,
  "lon": 12.5014623
},
{
  "type": "node",
  "id": 4097550884,
  "lat": 55.8770152,
  "lon": 12.5021431
},
{
  "type": "node",
  "id": 4097550885,
  "lat": 55.8770890,
  "lon": 12.5026468
},
{
  "type": "node",
  "id": 2737215014,
  "lat": 55.9268932,
  "lon": 12.5106720
},
{
  "type": "node",
  "id": 736906875,
  "lat": 55.9270139,
  "lon": 12.5109013
},
{
  "type": "node",
  "id": 2007116903,
  "lat": 55.9305054,
  "lon": 12.5153964
},
{
  "type": "node",
  "id": 2007116906,
  "lat": 55.9305185,
  "lon": 12.5152786
},
{
  "type": "node",
  "id": 2007116918,
  "lat": 55.9305186,
  "lon": 12.5155142
},
{
  "type": "node",
  "id": 2007116920,
  "lat": 55.9305559,
  "lon": 12.5151787
},
{
  "type": "node",
  "id": 2007116922,
  "lat": 55.9305559,
  "lon": 12.5156141
},
{
  "type": "node",
  "id": 2007116924,
  "lat": 55.9306118,
  "lon": 12.5151119
},
{
  "type": "node",
  "id": 2007116926,
  "lat": 55.9306119,
  "lon": 12.5156808
},
{
  "type": "node",
  "id": 2007116928,
  "lat": 55.9306778,
  "lon": 12.5150885
},
{
  "type": "node",
  "id": 2007116930,
  "lat": 55.9306779,
  "lon": 12.5157042
},
{
  "type": "node",
  "id": 2007116931,
  "lat": 55.9307438,
  "lon": 12.5151119
},
{
  "type": "node",
  "id": 2007116933,
  "lat": 55.9307439,
  "lon": 12.5156807
},
{
  "type": "node",
  "id": 2007116935,
  "lat": 55.9307998,
  "lon": 12.5151786
},
{
  "type": "node",
  "id": 2007116936,
  "lat": 55.9307998,
  "lon": 12.5156140
},
{
  "type": "node",
  "id": 2007116937,
  "lat": 55.9308372,
  "lon": 12.5152785
},
{
  "type": "node",
  "id": 2007116938,
  "lat": 55.9308372,
  "lon": 12.5155141
},
{
  "type": "node",
  "id": 2007116940,
  "lat": 55.9308503,
  "lon": 12.5153963
},
{
  "type": "node",
  "id": 2737214985,
  "lat": 55.9274513,
  "lon": 12.5117382
},
{
  "type": "node",
  "id": 2737214988,
  "lat": 55.9275205,
  "lon": 12.5116836
},
{
  "type": "node",
  "id": 2737214990,
  "lat": 55.9275063,
  "lon": 12.5116260
},
{
  "type": "node",
  "id": 2737214992,
  "lat": 55.9275333,
  "lon": 12.5116047
},
{
  "type": "node",
  "id": 2737214994,
  "lat": 55.9274760,
  "lon": 12.5113732
},
{
  "type": "node",
  "id": 2737214995,
  "lat": 55.9274510,
  "lon": 12.5113929
},
{
  "type": "node",
  "id": 2737214997,
  "lat": 55.9274284,
  "lon": 12.5113015
},
{
  "type": "node",
  "id": 2737214999,
  "lat": 55.9273539,
  "lon": 12.5113603
},
{
  "type": "node",
  "id": 2737215000,
  "lat": 55.9273763,
  "lon": 12.5114508
},
{
  "type": "node",
  "id": 2737215001,
  "lat": 55.9273414,
  "lon": 12.5114784
},
{
  "type": "node",
  "id": 2737215002,
  "lat": 55.9273967,
  "lon": 12.5117018
},
{
  "type": "node",
  "id": 2737215004,
  "lat": 55.9274348,
  "lon": 12.5116717
},
{
  "type": "node",
  "id": 2737215006,
  "lat": 55.9273061,
  "lon": 12.5113408
},
{
  "type": "node",
  "id": 2737215008,
  "lat": 55.9273307,
  "lon": 12.5111806
},
{
  "type": "node",
  "id": 2737215010,
  "lat": 55.9272841,
  "lon": 12.5111578
},
{
  "type": "node",
  "id": 2737215011,
  "lat": 55.9273010,
  "lon": 12.5110478
},
{
  "type": "node",
  "id": 2737215012,
  "lat": 55.9273477,
  "lon": 12.5110706
},
{
  "type": "node",
  "id": 2737215013,
  "lat": 55.9273728,
  "lon": 12.5109071
},
{
  "type": "node",
  "id": 2737215015,
  "lat": 55.9268688,
  "lon": 12.5108302
},
{
  "type": "node",
  "id": 2737215017,
  "lat": 55.9269962,
  "lon": 12.5110167
},
{
  "type": "node",
  "id": 2737215019,
  "lat": 55.9268511,
  "lon": 12.5109456
},
{
  "type": "node",
  "id": 2737215021,
  "lat": 55.9268265,
  "lon": 12.5111057
},
{
  "type": "node",
  "id": 5017961696,
  "lat": 55.9273761,
  "lon": 12.5113428
},
{
  "type": "node",
  "id": 5017961697,
  "lat": 55.9274063,
  "lon": 12.5113189
},
{
  "type": "node",
  "id": 5017961698,
  "lat": 55.9273695,
  "lon": 12.5113160
},
{
  "type": "node",
  "id": 5017961699,
  "lat": 55.9273227,
  "lon": 12.5112331
},
{
  "type": "node",
  "id": 5017961700,
  "lat": 55.9273141,
  "lon": 12.5112888
},
{
  "type": "node",
  "id": 5017961701,
  "lat": 55.9273937,
  "lon": 12.5112679
},
{
  "type": "node",
  "id": 955677697,
  "lat": 55.9695500,
  "lon": 12.5418809
},
{
  "type": "node",
  "id": 2010367994,
  "lat": 55.9701024,
  "lon": 12.5423501
},
{
  "type": "node",
  "id": 2010367995,
  "lat": 55.9701635,
  "lon": 12.5422643
},
{
  "type": "node",
  "id": 2010367996,
  "lat": 55.9702559,
  "lon": 12.5430650
},
{
  "type": "node",
  "id": 2010367999,
  "lat": 55.9703189,
  "lon": 12.5421209
},
{
  "type": "node",
  "id": 2010368018,
  "lat": 55.9704037,
  "lon": 12.5419828
},
{
  "type": "node",
  "id": 2580397076,
  "lat": 55.9700683,
  "lon": 12.5424957
},
{
  "type": "node",
  "id": 2580397077,
  "lat": 55.9700773,
  "lon": 12.5426622
},
{
  "type": "node",
  "id": 2580397082,
  "lat": 55.9701464,
  "lon": 12.5428999
},
{
  "type": "node",
  "id": 2580397084,
  "lat": 55.9702900,
  "lon": 12.5431121
},
{
  "type": "node",
  "id": 3092960565,
  "lat": 55.9683219,
  "lon": 12.5434951
},
{
  "type": "node",
  "id": 3093005349,
  "lat": 55.9698518,
  "lon": 12.5414224
},
{
  "type": "node",
  "id": 3093005352,
  "lat": 55.9698450,
  "lon": 12.5411921
},
{
  "type": "node",
  "id": 3093005354,
  "lat": 55.9697862,
  "lon": 12.5412770
},
{
  "type": "node",
  "id": 3918030294,
  "lat": 55.9699990,
  "lon": 12.5411959
},
{
  "type": "node",
  "id": 4341006609,
  "lat": 55.9683626,
  "lon": 12.5432461
},
{
  "type": "node",
  "id": 4341006631,
  "lat": 55.9694584,
  "lon": 12.5416663
},
{
  "type": "node",
  "id": 4341006640,
  "lat": 55.9703195,
  "lon": 12.5433309
},
{
  "type": "node",
  "id": 4341006642,
  "lat": 55.9702654,
  "lon": 12.5434713
},
{
  "type": "node",
  "id": 4341006646,
  "lat": 55.9702086,
  "lon": 12.5434969
},
{
  "type": "node",
  "id": 7192094359,
  "lat": 55.9703160,
  "lon": 12.5416982
},
{
  "type": "node",
  "id": 7192094360,
  "lat": 55.9698852,
  "lon": 12.5409902
},
{
  "type": "node",
  "id": 7192094361,
  "lat": 55.9698040,
  "lon": 12.5411014
},
{
  "type": "node",
  "id": 7192094381,
  "lat": 55.9702184,
  "lon": 12.5413693
},
{
  "type": "node",
  "id": 7194143168,
  "lat": 55.9692892,
  "lon": 12.5419103
},
{
  "type": "node",
  "id": 2580397078,
  "lat": 55.9700844,
  "lon": 12.5441799
},
{
  "type": "node",
  "id": 2580397079,
  "lat": 55.9700987,
  "lon": 12.5443263
},
{
  "type": "node",
  "id": 3092960566,
  "lat": 55.9683102,
  "lon": 12.5436473
},
{
  "type": "node",
  "id": 3092960567,
  "lat": 55.9683699,
  "lon": 12.5437392
},
{
  "type": "node",
  "id": 3092960568,
  "lat": 55.9683939,
  "lon": 12.5438391
},
{
  "type": "node",
  "id": 3092960570,
  "lat": 55.9685695,
  "lon": 12.5440624
},
{
  "type": "node",
  "id": 3092960583,
  "lat": 55.9696098,
  "lon": 12.5446163
},
{
  "type": "node",
  "id": 3092960584,
  "lat": 55.9696597,
  "lon": 12.5446075
},
{
  "type": "node",
  "id": 4341006620,
  "lat": 55.9687827,
  "lon": 12.5441376
},
{
  "type": "node",
  "id": 4341006623,
  "lat": 55.9689981,
  "lon": 12.5442194
},
{
  "type": "node",
  "id": 4341006625,
  "lat": 55.9691903,
  "lon": 12.5443401
},
{
  "type": "node",
  "id": 4341006630,
  "lat": 55.9694147,
  "lon": 12.5445547
},
{
  "type": "node",
  "id": 4341006632,
  "lat": 55.9695108,
  "lon": 12.5446030
},
{
  "type": "node",
  "id": 4341006641,
  "lat": 55.9701147,
  "lon": 12.5444960
},
{
  "type": "node",
  "id": 4341006644,
  "lat": 55.9701418,
  "lon": 12.5438027
},
{
  "type": "node",
  "id": 4341006645,
  "lat": 55.9701746,
  "lon": 12.5439049
},
{
  "type": "node",
  "id": 1106385500,
  "lat": 56.0666953,
  "lon": 12.2808996
},
{
  "type": "node",
  "id": 1106385503,
  "lat": 56.0668299,
  "lon": 12.2808757
},
{
  "type": "node",
  "id": 1106385531,
  "lat": 56.0667664,
  "lon": 12.2807114
},
{
  "type": "node",
  "id": 1106385535,
  "lat": 56.0668894,
  "lon": 12.2809624
},
{
  "type": "node",
  "id": 1106385559,
  "lat": 56.0667760,
  "lon": 12.2807272
},
{
  "type": "node",
  "id": 1106385587,
  "lat": 56.0667922,
  "lon": 12.2810476
},
{
  "type": "node",
  "id": 6299395396,
  "lat": 56.0667937,
  "lon": 12.2810427
},
{
  "type": "node",
  "id": 6299399341,
  "lat": 56.0668367,
  "lon": 12.2810997
},
{
  "type": "node",
  "id": 6299402945,
  "lat": 56.0666928,
  "lon": 12.2808758
},
{
  "type": "node",
  "id": 6299409757,
  "lat": 56.0668162,
  "lon": 12.2806411
},
{
  "type": "node",
  "id": 6299417970,
  "lat": 56.0668404,
  "lon": 12.2810889
},
{
  "type": "node",
  "id": 6299419291,
  "lat": 56.0668845,
  "lon": 12.2809730
},
{
  "type": "node",
  "id": 6299420452,
  "lat": 56.0668907,
  "lon": 12.2807472
},
{
  "type": "node",
  "id": 6299420615,
  "lat": 56.0667006,
  "lon": 12.2808868
},
{
  "type": "node",
  "id": 978260073,
  "lat": 56.1095600,
  "lon": 12.3653675
},
{
  "type": "node",
  "id": 978260075,
  "lat": 56.1094369,
  "lon": 12.3655350
},
{
  "type": "node",
  "id": 978260078,
  "lat": 56.1094726,
  "lon": 12.3656193
},
{
  "type": "node",
  "id": 978260082,
  "lat": 56.1094996,
  "lon": 12.3655826
},
{
  "type": "node",
  "id": 978260084,
  "lat": 56.1095523,
  "lon": 12.3657073
},
{
  "type": "node",
  "id": 978260086,
  "lat": 56.1096064,
  "lon": 12.3656337
},
{
  "type": "node",
  "id": 978260092,
  "lat": 56.1095589,
  "lon": 12.3655215
},
{
  "type": "node",
  "id": 978260095,
  "lat": 56.1096010,
  "lon": 12.3654643
},
{
  "type": "node",
  "id": 1467991783,
  "lat": 56.1192652,
  "lon": 12.3429526
},
{
  "type": "node",
  "id": 5157897865,
  "lat": 56.1192616,
  "lon": 12.3430698
},
{
  "type": "node",
  "id": 5157897866,
  "lat": 56.1191852,
  "lon": 12.3429447
},
{
  "type": "node",
  "id": 5157897867,
  "lat": 56.1192328,
  "lon": 12.3429494
},
{
  "type": "node",
  "id": 5157897872,
  "lat": 56.1191860,
  "lon": 12.3429180
},
{
  "type": "node",
  "id": 5157897873,
  "lat": 56.1192337,
  "lon": 12.3429227
},
{
  "type": "node",
  "id": 5157897874,
  "lat": 56.1192645,
  "lon": 12.3429778
},
{
  "type": "node",
  "id": 5157897875,
  "lat": 56.1191513,
  "lon": 12.3429413
},
{
  "type": "node",
  "id": 5157897878,
  "lat": 56.1191477,
  "lon": 12.3430585
},
{
  "type": "node",
  "id": 1106766247,
  "lat": 56.0477729,
  "lon": 12.3772719
},
{
  "type": "node",
  "id": 1106766306,
  "lat": 56.0474651,
  "lon": 12.3772500
},
{
  "type": "node",
  "id": 1106766318,
  "lat": 56.0474559,
  "lon": 12.3778230
},
{
  "type": "node",
  "id": 1106766373,
  "lat": 56.0474666,
  "lon": 12.3771212
},
{
  "type": "node",
  "id": 1106766537,
  "lat": 56.0476014,
  "lon": 12.3779957
},
{
  "type": "node",
  "id": 1106766548,
  "lat": 56.0474605,
  "lon": 12.3774392
},
{
  "type": "node",
  "id": 1106766557,
  "lat": 56.0474865,
  "lon": 12.3774392
},
{
  "type": "node",
  "id": 1106766628,
  "lat": 56.0473763,
  "lon": 12.3775738
},
{
  "type": "node",
  "id": 1106766944,
  "lat": 56.0476029,
  "lon": 12.3778258
},
{
  "type": "node",
  "id": 1106767041,
  "lat": 56.0477759,
  "lon": 12.3771568
},
{
  "type": "node",
  "id": 1106767088,
  "lat": 56.0474865,
  "lon": 12.3776530
},
{
  "type": "node",
  "id": 1106767192,
  "lat": 56.0474544,
  "lon": 12.3776530
},
{
  "type": "node",
  "id": 1106767294,
  "lat": 56.0474651,
  "lon": 12.3771897
},
{
  "type": "node",
  "id": 3343357903,
  "lat": 56.0473871,
  "lon": 12.3771953
},
{
  "type": "node",
  "id": 3343357904,
  "lat": 56.0473793,
  "lon": 12.3779957
},
{
  "type": "node",
  "id": 5475196209,
  "lat": 56.0475138,
  "lon": 12.3779957
},
{
  "type": "node",
  "id": 1082020706,
  "lat": 56.0864894,
  "lon": 12.4005507
},
{
  "type": "node",
  "id": 1082020711,
  "lat": 56.0862881,
  "lon": 12.4007370
},
{
  "type": "node",
  "id": 1082020712,
  "lat": 56.0861992,
  "lon": 12.4009676
},
{
  "type": "node",
  "id": 1082020718,
  "lat": 56.0865079,
  "lon": 12.4004368
},
{
  "type": "node",
  "id": 1082020722,
  "lat": 56.0865756,
  "lon": 12.4006281
},
{
  "type": "node",
  "id": 1082020728,
  "lat": 56.0863111,
  "lon": 12.4005901
},
{
  "type": "node",
  "id": 1082020742,
  "lat": 56.0865106,
  "lon": 12.4011105
},
{
  "type": "node",
  "id": 1082020743,
  "lat": 56.0864015,
  "lon": 12.4005044
},
{
  "type": "node",
  "id": 1082020745,
  "lat": 56.0862353,
  "lon": 12.4007121
},
{
  "type": "node",
  "id": 1298511788,
  "lat": 56.0215578,
  "lon": 12.5620785
},
{
  "type": "node",
  "id": 1298511817,
  "lat": 56.0215980,
  "lon": 12.5621928
},
{
  "type": "node",
  "id": 1298511909,
  "lat": 56.0213180,
  "lon": 12.5623482
},
{
  "type": "node",
  "id": 1298512063,
  "lat": 56.0229389,
  "lon": 12.5624891
},
{
  "type": "node",
  "id": 1298512116,
  "lat": 56.0224901,
  "lon": 12.5612214
},
{
  "type": "node",
  "id": 1503370117,
  "lat": 56.0227341,
  "lon": 12.5626725
},
{
  "type": "node",
  "id": 1503370355,
  "lat": 56.0227601,
  "lon": 12.5626681
},
{
  "type": "node",
  "id": 1298511890,
  "lat": 56.0217937,
  "lon": 12.5637040
},
{
  "type": "node",
  "id": 1605607504,
  "lat": 56.0651056,
  "lon": 12.5539948
},
{
  "type": "node",
  "id": 1605607508,
  "lat": 56.0651894,
  "lon": 12.5541532
},
{
  "type": "node",
  "id": 1605607510,
  "lat": 56.0652220,
  "lon": 12.5540115
},
{
  "type": "node",
  "id": 1605607513,
  "lat": 56.0652385,
  "lon": 12.5537695
},
{
  "type": "node",
  "id": 1605607516,
  "lat": 56.0652461,
  "lon": 12.5540571
},
{
  "type": "node",
  "id": 1605607518,
  "lat": 56.0652982,
  "lon": 12.5538823
},
{
  "type": "node",
  "id": 2784271718,
  "lat": 56.3011986,
  "lon": 12.4518281
},
{
  "type": "node",
  "id": 2784271717,
  "lat": 56.3011818,
  "lon": 12.4519756
},
{
  "type": "node",
  "id": 2784271730,
  "lat": 56.3014318,
  "lon": 12.4520681
},
{
  "type": "node",
  "id": 2784271732,
  "lat": 56.3014486,
  "lon": 12.4519206
},
{
  "type": "node",
  "id": 4868336586,
  "lat": 56.2563058,
  "lon": 12.5337965
},
{
  "type": "node",
  "id": 6423445986,
  "lat": 56.2563080,
  "lon": 12.5338711
},
{
  "type": "node",
  "id": 6423445987,
  "lat": 56.2563022,
  "lon": 12.5338343
},
{
  "type": "node",
  "id": 6423445988,
  "lat": 56.2563181,
  "lon": 12.5337653
},
{
  "type": "node",
  "id": 6423445989,
  "lat": 56.2563368,
  "lon": 12.5337469
},
{
  "type": "node",
  "id": 6423445990,
  "lat": 56.2563580,
  "lon": 12.5337448
},
{
  "type": "node",
  "id": 6423445991,
  "lat": 56.2563918,
  "lon": 12.5337882
},
{
  "type": "node",
  "id": 6423445992,
  "lat": 56.2563976,
  "lon": 12.5338250
},
{
  "type": "node",
  "id": 6423445993,
  "lat": 56.2563940,
  "lon": 12.5338627
},
{
  "type": "node",
  "id": 6423445994,
  "lat": 56.2563817,
  "lon": 12.5338939
},
{
  "type": "node",
  "id": 6423445995,
  "lat": 56.2563630,
  "lon": 12.5339124
},
{
  "type": "node",
  "id": 6423445996,
  "lat": 56.2563418,
  "lon": 12.5339144
},
{
  "type": "node",
  "id": 6423445997,
  "lat": 56.2563222,
  "lon": 12.5338997
},
{
  "type": "node",
  "id": 6423445998,
  "lat": 56.2563777,
  "lon": 12.5337595
},
{
  "type": "node",
  "id": 2419413539,
  "lat": 55.9081590,
  "lon": 12.6954911
},
{
  "type": "node",
  "id": 2419413541,
  "lat": 55.9083526,
  "lon": 12.6956664
},
{
  "type": "node",
  "id": 2419413543,
  "lat": 55.9082746,
  "lon": 12.6957695
},
{
  "type": "node",
  "id": 2419413546,
  "lat": 55.9083416,
  "lon": 12.6956808
},
{
  "type": "node",
  "id": 6149349786,
  "lat": 55.9082848,
  "lon": 12.6957559
},
{
  "type": "node",
  "id": 6149349787,
  "lat": 55.9083216,
  "lon": 12.6957868
},
{
  "type": "node",
  "id": 6149349788,
  "lat": 55.9083456,
  "lon": 12.6957563
},
{
  "type": "node",
  "id": 6149349789,
  "lat": 55.9082953,
  "lon": 12.6957846
},
{
  "type": "node",
  "id": 6149349790,
  "lat": 55.9083544,
  "lon": 12.6957160
},
{
  "type": "node",
  "id": 6149349791,
  "lat": 55.9082370,
  "lon": 12.6953880
},
{
  "type": "node",
  "id": 1240979141,
  "lat": 55.9932236,
  "lon": 12.7427670
},
{
  "type": "node",
  "id": 1240979143,
  "lat": 55.9936349,
  "lon": 12.7426992
},
{
  "type": "node",
  "id": 1240979145,
  "lat": 55.9934015,
  "lon": 12.7429803
},
{
  "type": "node",
  "id": 1240979147,
  "lat": 55.9935030,
  "lon": 12.7425563
},
{
  "type": "node",
  "id": 1240979149,
  "lat": 55.9933108,
  "lon": 12.7430266
},
{
  "type": "node",
  "id": 1240979154,
  "lat": 55.9934810,
  "lon": 12.7424907
},
{
  "type": "node",
  "id": 1240979156,
  "lat": 55.9935646,
  "lon": 12.7424901
},
{
  "type": "node",
  "id": 1240979158,
  "lat": 55.9933889,
  "lon": 12.7429427
},
{
  "type": "node",
  "id": 3738920674,
  "lat": 55.9935732,
  "lon": 12.7427653
},
{
  "type": "node",
  "id": 3738920675,
  "lat": 55.9935808,
  "lon": 12.7427878
},
{
  "type": "node",
  "id": 2450649074,
  "lat": 55.8705205,
  "lon": 12.8293984
},
{
  "type": "node",
  "id": 2450649090,
  "lat": 55.8706647,
  "lon": 12.8294645
},
{
  "type": "node",
  "id": 2450649103,
  "lat": 55.8707057,
  "lon": 12.8281144
},
{
  "type": "node",
  "id": 2450649125,
  "lat": 55.8708499,
  "lon": 12.8281805
},
{
  "type": "node",
  "id": 1430513033,
  "lat": 56.0392185,
  "lon": 12.6154038
},
{
  "type": "node",
  "id": 1430513036,
  "lat": 56.0392672,
  "lon": 12.6153783
},
{
  "type": "node",
  "id": 1430513046,
  "lat": 56.0393315,
  "lon": 12.6153783
},
{
  "type": "node",
  "id": 1430513048,
  "lat": 56.0393398,
  "lon": 12.6154017
},
{
  "type": "node",
  "id": 1430513050,
  "lat": 56.0393398,
  "lon": 12.6156189
},
{
  "type": "node",
  "id": 1430513064,
  "lat": 56.0393505,
  "lon": 12.6155422
},
{
  "type": "node",
  "id": 2685669541,
  "lat": 56.0391779,
  "lon": 12.6154432
},
{
  "type": "node",
  "id": 5954270219,
  "lat": 56.0393432,
  "lon": 12.6154469
},
{
  "type": "node",
  "id": 1430512999,
  "lat": 56.0385836,
  "lon": 12.6167397
},
{
  "type": "node",
  "id": 1430513043,
  "lat": 56.0393231,
  "lon": 12.6156849
},
{
  "type": "node",
  "id": 2027024564,
  "lat": 56.0386957,
  "lon": 12.6171186
},
{
  "type": "node",
  "id": 1035297750,
  "lat": 56.0472419,
  "lon": 12.6886671
},
{
  "type": "node",
  "id": 1035297799,
  "lat": 56.0476942,
  "lon": 12.6880536
},
{
  "type": "node",
  "id": 1035297810,
  "lat": 56.0480805,
  "lon": 12.6889779
},
{
  "type": "node",
  "id": 1035297827,
  "lat": 56.0474788,
  "lon": 12.6894499
},
{
  "type": "node",
  "id": 1035297835,
  "lat": 56.0477672,
  "lon": 12.6892671
},
{
  "type": "node",
  "id": 1035297842,
  "lat": 56.0480713,
  "lon": 12.6889361
},
{
  "type": "node",
  "id": 1035297847,
  "lat": 56.0472363,
  "lon": 12.6890178
},
{
  "type": "node",
  "id": 1035297862,
  "lat": 56.0477546,
  "lon": 12.6883264
},
{
  "type": "node",
  "id": 1035297866,
  "lat": 56.0477747,
  "lon": 12.6893012
},
{
  "type": "node",
  "id": 1035297870,
  "lat": 56.0472964,
  "lon": 12.6886284
},
{
  "type": "node",
  "id": 1035297877,
  "lat": 56.0472120,
  "lon": 12.6889082
},
{
  "type": "node",
  "id": 1035297901,
  "lat": 56.0478762,
  "lon": 12.6879245
},
{
  "type": "node",
  "id": 1035297903,
  "lat": 56.0472503,
  "lon": 12.6884199
},
{
  "type": "node",
  "id": 1035297933,
  "lat": 56.0479518,
  "lon": 12.6882663
},
{
  "type": "node",
  "id": 1035297935,
  "lat": 56.0474232,
  "lon": 12.6894893
},
{
  "type": "node",
  "id": 1035297942,
  "lat": 56.0480792,
  "lon": 12.6890900
},
{
  "type": "node",
  "id": 1035297968,
  "lat": 56.0480487,
  "lon": 12.6889521
},
{
  "type": "node",
  "id": 1035297972,
  "lat": 56.0473306,
  "lon": 12.6890708
},
{
  "type": "node",
  "id": 1035297979,
  "lat": 56.0474806,
  "lon": 12.6882521
},
{
  "type": "node",
  "id": 1035297983,
  "lat": 56.0475157,
  "lon": 12.6894850
},
{
  "type": "node",
  "id": 1035298001,
  "lat": 56.0472203,
  "lon": 12.6888066
},
{
  "type": "node",
  "id": 1035298006,
  "lat": 56.0474711,
  "lon": 12.6882090
},
{
  "type": "node",
  "id": 1035298009,
  "lat": 56.0472386,
  "lon": 12.6888894
},
{
  "type": "node",
  "id": 1035298017,
  "lat": 56.0474942,
  "lon": 12.6893877
},
{
  "type": "node",
  "id": 1035298020,
  "lat": 56.0472750,
  "lon": 12.6884024
},
{
  "type": "node",
  "id": 1035298046,
  "lat": 56.0480111,
  "lon": 12.6882242
},
{
  "type": "node",
  "id": 1035298051,
  "lat": 56.0472646,
  "lon": 12.6883555
},
{
  "type": "node",
  "id": 1035298076,
  "lat": 56.0479249,
  "lon": 12.6891995
},
{
  "type": "node",
  "id": 1035298085,
  "lat": 56.0481647,
  "lon": 12.6889182
},
{
  "type": "node",
  "id": 1035298091,
  "lat": 56.0472825,
  "lon": 12.6891049
},
{
  "type": "node",
  "id": 1035298105,
  "lat": 56.0475079,
  "lon": 12.6882328
},
{
  "type": "node",
  "id": 1035298115,
  "lat": 56.0479164,
  "lon": 12.6891612
},
{
  "type": "node",
  "id": 1035298116,
  "lat": 56.0472657,
  "lon": 12.6887744
},
{
  "type": "node",
  "id": 1035298130,
  "lat": 56.0472596,
  "lon": 12.6890013
},
{
  "type": "node",
  "id": 1035298138,
  "lat": 56.0475592,
  "lon": 12.6884650
},
{
  "type": "node",
  "id": 1035298141,
  "lat": 56.0474690,
  "lon": 12.6894055
},
{
  "type": "node",
  "id": 1035672415,
  "lat": 56.0477831,
  "lon": 12.7016345
},
{
  "type": "node",
  "id": 1035672419,
  "lat": 56.0481087,
  "lon": 12.7015269
},
{
  "type": "node",
  "id": 1035672429,
  "lat": 56.0480247,
  "lon": 12.7013984
},
{
  "type": "node",
  "id": 1035672446,
  "lat": 56.0477389,
  "lon": 12.7015994
},
{
  "type": "node",
  "id": 1035672450,
  "lat": 56.0480654,
  "lon": 12.7015684
},
{
  "type": "node",
  "id": 1035672454,
  "lat": 56.0477842,
  "lon": 12.7014362
},
{
  "type": "node",
  "id": 1035672459,
  "lat": 56.0481174,
  "lon": 12.7014451
},
{
  "type": "node",
  "id": 1035672475,
  "lat": 56.0477346,
  "lon": 12.7014818
},
{
  "type": "node",
  "id": 1035672490,
  "lat": 56.0477335,
  "lon": 12.7015857
},
{
  "type": "node",
  "id": 1035672491,
  "lat": 56.0481190,
  "lon": 12.7014666
},
{
  "type": "node",
  "id": 1035672497,
  "lat": 56.0480822,
  "lon": 12.7015627
},
{
  "type": "node",
  "id": 1035672502,
  "lat": 56.0480334,
  "lon": 12.7013859
},
{
  "type": "node",
  "id": 1035672518,
  "lat": 56.0477904,
  "lon": 12.7016332
},
{
  "type": "node",
  "id": 1035672527,
  "lat": 56.0477424,
  "lon": 12.7014645
},
{
  "type": "node",
  "id": 1035672540,
  "lat": 56.0480537,
  "lon": 12.7015668
},
{
  "type": "node",
  "id": 1035672542,
  "lat": 56.0481014,
  "lon": 12.7013966
},
{
  "type": "node",
  "id": 1035672545,
  "lat": 56.0478152,
  "lon": 12.7016138
},
{
  "type": "node",
  "id": 1035672554,
  "lat": 56.0480169,
  "lon": 12.7014157
},
{
  "type": "node",
  "id": 1035672577,
  "lat": 56.0477714,
  "lon": 12.7016329
},
{
  "type": "node",
  "id": 1035672580,
  "lat": 56.0481183,
  "lon": 12.7014854
},
{
  "type": "node",
  "id": 1035672598,
  "lat": 56.0480727,
  "lon": 12.7015671
},
{
  "type": "node",
  "id": 1035672602,
  "lat": 56.0480853,
  "lon": 12.7013779
},
{
  "type": "node",
  "id": 1035672625,
  "lat": 56.0477606,
  "lon": 12.7016274
},
{
  "type": "node",
  "id": 1035672635,
  "lat": 56.0477946,
  "lon": 12.7014390
},
{
  "type": "node",
  "id": 1035672637,
  "lat": 56.0481075,
  "lon": 12.7014087
},
{
  "type": "node",
  "id": 1035672660,
  "lat": 56.0477259,
  "lon": 12.7015408
},
{
  "type": "node",
  "id": 1035672675,
  "lat": 56.0477285,
  "lon": 12.7015658
},
{
  "type": "node",
  "id": 1035672681,
  "lat": 56.0480975,
  "lon": 12.7015477
},
{
  "type": "node",
  "id": 1035672684,
  "lat": 56.0478030,
  "lon": 12.7014440
},
{
  "type": "node",
  "id": 1035672687,
  "lat": 56.0480954,
  "lon": 12.7013879
},
{
  "type": "node",
  "id": 1035672719,
  "lat": 56.0477511,
  "lon": 12.7014520
},
{
  "type": "node",
  "id": 1035672778,
  "lat": 56.0477585,
  "lon": 12.7014448
},
{
  "type": "node",
  "id": 1035672787,
  "lat": 56.0480904,
  "lon": 12.7015561
},
{
  "type": "node",
  "id": 1035672792,
  "lat": 56.0480665,
  "lon": 12.7013701
},
{
  "type": "node",
  "id": 1035672823,
  "lat": 56.0477528,
  "lon": 12.7016205
},
{
  "type": "node",
  "id": 1035672825,
  "lat": 56.0478274,
  "lon": 12.7015930
},
{
  "type": "node",
  "id": 1035672840,
  "lat": 56.0480408,
  "lon": 12.7013787
},
{
  "type": "node",
  "id": 1035672870,
  "lat": 56.0477269,
  "lon": 12.7015160
},
{
  "type": "node",
  "id": 1035672881,
  "lat": 56.0477458,
  "lon": 12.7016115
},
{
  "type": "node",
  "id": 1035672887,
  "lat": 56.0481042,
  "lon": 12.7015368
},
{
  "type": "node",
  "id": 1035672891,
  "lat": 56.0480430,
  "lon": 12.7015613
},
{
  "type": "node",
  "id": 1035672895,
  "lat": 56.0480769,
  "lon": 12.7013729
},
{
  "type": "node",
  "id": 1035672899,
  "lat": 56.0478218,
  "lon": 12.7016029
},
{
  "type": "node",
  "id": 1035672910,
  "lat": 56.0478080,
  "lon": 12.7016222
},
{
  "type": "node",
  "id": 1035672926,
  "lat": 56.0477299,
  "lon": 12.7014978
},
{
  "type": "node",
  "id": 1035672942,
  "lat": 56.0481151,
  "lon": 12.7015057
},
{
  "type": "node",
  "id": 1035672958,
  "lat": 56.0480515,
  "lon": 12.7013723
},
{
  "type": "node",
  "id": 1035672980,
  "lat": 56.0477999,
  "lon": 12.7016288
},
{
  "type": "node",
  "id": 1035673015,
  "lat": 56.0477691,
  "lon": 12.7014384
},
{
  "type": "node",
  "id": 1035673021,
  "lat": 56.0478130,
  "lon": 12.7014547
},
{
  "type": "node",
  "id": 1035673047,
  "lat": 56.0480352,
  "lon": 12.7015544
},
{
  "type": "node",
  "id": 1035673056,
  "lat": 56.0481125,
  "lon": 12.7014224
},
{
  "type": "node",
  "id": 1037712628,
  "lat": 56.0496693,
  "lon": 12.7012516
},
{
  "type": "node",
  "id": 1037712661,
  "lat": 56.0495595,
  "lon": 12.7012227
},
{
  "type": "node",
  "id": 1037712691,
  "lat": 56.0495734,
  "lon": 12.7015150
},
{
  "type": "node",
  "id": 1037712693,
  "lat": 56.0496672,
  "lon": 12.7012063
},
{
  "type": "node",
  "id": 1037712746,
  "lat": 56.0496787,
  "lon": 12.7014485
},
{
  "type": "node",
  "id": 1037712798,
  "lat": 56.0497505,
  "lon": 12.7012392
},
{
  "type": "node",
  "id": 1037712830,
  "lat": 56.0496811,
  "lon": 12.7014986
},
{
  "type": "node",
  "id": 1037712850,
  "lat": 56.0497599,
  "lon": 12.7014362
},
{
  "type": "node",
  "id": 1322122111,
  "lat": 56.0535969,
  "lon": 12.7119259
},
{
  "type": "node",
  "id": 1322122121,
  "lat": 56.0551969,
  "lon": 12.7103390
},
{
  "type": "node",
  "id": 1322122123,
  "lat": 56.0561750,
  "lon": 12.7092842
},
{
  "type": "node",
  "id": 1322122150,
  "lat": 56.0530828,
  "lon": 12.7124745
},
{
  "type": "node",
  "id": 1322122163,
  "lat": 56.0528119,
  "lon": 12.7127900
},
{
  "type": "node",
  "id": 1322122165,
  "lat": 56.0559209,
  "lon": 12.7095589
},
{
  "type": "node",
  "id": 1322122169,
  "lat": 56.0547499,
  "lon": 12.7108476
},
{
  "type": "node",
  "id": 1322122192,
  "lat": 56.0526647,
  "lon": 12.7129148
},
{
  "type": "node",
  "id": 1797634432,
  "lat": 56.0559361,
  "lon": 12.7095425
},
{
  "type": "node",
  "id": 1797634445,
  "lat": 56.0555239,
  "lon": 12.7099867
},
{
  "type": "node",
  "id": 1797634580,
  "lat": 56.0558958,
  "lon": 12.7095859
},
{
  "type": "node",
  "id": 376973355,
  "lat": 56.0589156,
  "lon": 12.7118893
},
{
  "type": "node",
  "id": 591017608,
  "lat": 56.0580154,
  "lon": 12.7081623
},
{
  "type": "node",
  "id": 591017626,
  "lat": 56.0588636,
  "lon": 12.7117658
},
{
  "type": "node",
  "id": 591017628,
  "lat": 56.0589580,
  "lon": 12.7120450
},
{
  "type": "node",
  "id": 591017631,
  "lat": 56.0594311,
  "lon": 12.7139778
},
{
  "type": "node",
  "id": 1322122114,
  "lat": 56.0564840,
  "lon": 12.7090276
},
{
  "type": "node",
  "id": 1322122134,
  "lat": 56.0566983,
  "lon": 12.7090653
},
{
  "type": "node",
  "id": 1322122136,
  "lat": 56.0579946,
  "lon": 12.7081492
},
{
  "type": "node",
  "id": 1322122171,
  "lat": 56.0570401,
  "lon": 12.7086615
},
{
  "type": "node",
  "id": 1322122197,
  "lat": 56.0565484,
  "lon": 12.7091594
},
{
  "type": "node",
  "id": 1322122203,
  "lat": 56.0567558,
  "lon": 12.7088381
},
{
  "type": "node",
  "id": 1322122211,
  "lat": 56.0566772,
  "lon": 12.7088863
},
{
  "type": "node",
  "id": 1421251594,
  "lat": 56.0579686,
  "lon": 12.7091447
},
{
  "type": "node",
  "id": 1421251601,
  "lat": 56.0579956,
  "lon": 12.7091662
},
{
  "type": "node",
  "id": 1421251608,
  "lat": 56.0580225,
  "lon": 12.7091876
},
{
  "type": "node",
  "id": 1421251612,
  "lat": 56.0579881,
  "lon": 12.7091313
},
{
  "type": "node",
  "id": 1421251616,
  "lat": 56.0579746,
  "lon": 12.7091662
},
{
  "type": "node",
  "id": 1421251617,
  "lat": 56.0580839,
  "lon": 12.7087477
},
{
  "type": "node",
  "id": 1421251618,
  "lat": 56.0581528,
  "lon": 12.7090776
},
{
  "type": "node",
  "id": 1421251619,
  "lat": 56.0577170,
  "lon": 12.7084876
},
{
  "type": "node",
  "id": 1421251620,
  "lat": 56.0577724,
  "lon": 12.7093217
},
{
  "type": "node",
  "id": 1421251621,
  "lat": 56.0576915,
  "lon": 12.7083776
},
{
  "type": "node",
  "id": 1421251622,
  "lat": 56.0577499,
  "lon": 12.7093030
},
{
  "type": "node",
  "id": 1421251623,
  "lat": 56.0575972,
  "lon": 12.7086512
},
{
  "type": "node",
  "id": 1421251624,
  "lat": 56.0576168,
  "lon": 12.7085568
},
{
  "type": "node",
  "id": 1421251637,
  "lat": 56.0576301,
  "lon": 12.7084312
},
{
  "type": "node",
  "id": 1421251639,
  "lat": 56.0576556,
  "lon": 12.7085278
},
{
  "type": "node",
  "id": 1421251643,
  "lat": 56.0579237,
  "lon": 12.7083347
},
{
  "type": "node",
  "id": 1421251644,
  "lat": 56.0580959,
  "lon": 12.7087397
},
{
  "type": "node",
  "id": 1421251645,
  "lat": 56.0576331,
  "lon": 12.7086297
},
{
  "type": "node",
  "id": 1421251646,
  "lat": 56.0580075,
  "lon": 12.7083722
},
{
  "type": "node",
  "id": 1796966044,
  "lat": 56.0580202,
  "lon": 12.7096286
},
{
  "type": "node",
  "id": 1796966045,
  "lat": 56.0580262,
  "lon": 12.7092692
},
{
  "type": "node",
  "id": 1796966055,
  "lat": 56.0580367,
  "lon": 12.7097091
},
{
  "type": "node",
  "id": 1796966056,
  "lat": 56.0580487,
  "lon": 12.7096742
},
{
  "type": "node",
  "id": 1796966057,
  "lat": 56.0580442,
  "lon": 12.7096393
},
{
  "type": "node",
  "id": 1796966059,
  "lat": 56.0580337,
  "lon": 12.7096233
},
{
  "type": "node",
  "id": 1796966068,
  "lat": 56.0579094,
  "lon": 12.7093148
},
{
  "type": "node",
  "id": 1796966069,
  "lat": 56.0583045,
  "lon": 12.7097166
},
{
  "type": "node",
  "id": 1796966071,
  "lat": 56.0582745,
  "lon": 12.7095798
},
{
  "type": "node",
  "id": 1796966078,
  "lat": 56.0579484,
  "lon": 12.7097413
},
{
  "type": "node",
  "id": 1796966085,
  "lat": 56.0567952,
  "lon": 12.7125121
},
{
  "type": "node",
  "id": 1796966089,
  "lat": 56.0582374,
  "lon": 12.7094167
},
{
  "type": "node",
  "id": 1796966092,
  "lat": 56.0566441,
  "lon": 12.7126360
},
{
  "type": "node",
  "id": 1796966113,
  "lat": 56.0567581,
  "lon": 12.7123670
},
{
  "type": "node",
  "id": 1796966114,
  "lat": 56.0582524,
  "lon": 12.7094060
},
{
  "type": "node",
  "id": 1796966117,
  "lat": 56.0581730,
  "lon": 12.7091539
},
{
  "type": "node",
  "id": 1796966148,
  "lat": 56.0566070,
  "lon": 12.7124909
},
{
  "type": "node",
  "id": 1796966182,
  "lat": 56.0580008,
  "lon": 12.7094248
},
{
  "type": "node",
  "id": 1796966185,
  "lat": 56.0578974,
  "lon": 12.7093631
},
{
  "type": "node",
  "id": 1796966191,
  "lat": 56.0581430,
  "lon": 12.7098378
},
{
  "type": "node",
  "id": 1796966201,
  "lat": 56.0580442,
  "lon": 12.7094114
},
{
  "type": "node",
  "id": 1796966205,
  "lat": 56.0582898,
  "lon": 12.7095723
},
{
  "type": "node",
  "id": 1797634380,
  "lat": 56.0566658,
  "lon": 12.7090857
},
{
  "type": "node",
  "id": 1797634390,
  "lat": 56.0566117,
  "lon": 12.7091196
},
{
  "type": "node",
  "id": 1797634419,
  "lat": 56.0566412,
  "lon": 12.7091011
},
{
  "type": "node",
  "id": 1797634481,
  "lat": 56.0565907,
  "lon": 12.7091328
},
{
  "type": "node",
  "id": 1797634539,
  "lat": 56.0567990,
  "lon": 12.7088113
},
{
  "type": "node",
  "id": 1797634573,
  "lat": 56.0562781,
  "lon": 12.7091986
},
{
  "type": "node",
  "id": 1797634586,
  "lat": 56.0562940,
  "lon": 12.7091854
},
{
  "type": "node",
  "id": 1797669510,
  "lat": 56.0582234,
  "lon": 12.7097775
},
{
  "type": "node",
  "id": 1797669735,
  "lat": 56.0581187,
  "lon": 12.7097329
},
{
  "type": "node",
  "id": 1814823954,
  "lat": 56.0576981,
  "lon": 12.7084060
},
{
  "type": "node",
  "id": 1814823976,
  "lat": 56.0579261,
  "lon": 12.7081860
},
{
  "type": "node",
  "id": 1814823981,
  "lat": 56.0572417,
  "lon": 12.7085533
},
{
  "type": "node",
  "id": 1814823990,
  "lat": 56.0577442,
  "lon": 12.7092785
},
{
  "type": "node",
  "id": 1814824063,
  "lat": 56.0579683,
  "lon": 12.7081633
},
{
  "type": "node",
  "id": 3762926032,
  "lat": 56.0566263,
  "lon": 12.7091103
},
{
  "type": "node",
  "id": 597379173,
  "lat": 56.0536619,
  "lon": 12.7166607
},
{
  "type": "node",
  "id": 597379188,
  "lat": 56.0544302,
  "lon": 12.7193476
},
{
  "type": "node",
  "id": 1086062585,
  "lat": 56.0533696,
  "lon": 12.7155858
},
{
  "type": "node",
  "id": 1086062830,
  "lat": 56.0534529,
  "lon": 12.7158854
},
{
  "type": "node",
  "id": 1086063040,
  "lat": 56.0537436,
  "lon": 12.7169843
},
{
  "type": "node",
  "id": 1322122187,
  "lat": 56.0546205,
  "lon": 12.7192683
},
{
  "type": "node",
  "id": 1322122116,
  "lat": 56.0594910,
  "lon": 12.7142301
},
{
  "type": "node",
  "id": 1322122152,
  "lat": 56.0563826,
  "lon": 12.7186261
},
{
  "type": "node",
  "id": 1322122166,
  "lat": 56.0580388,
  "lon": 12.7178707
},
{
  "type": "node",
  "id": 1322122173,
  "lat": 56.0578750,
  "lon": 12.7180301
},
{
  "type": "node",
  "id": 1322122205,
  "lat": 56.0573268,
  "lon": 12.7182796
},
{
  "type": "node",
  "id": 1797669659,
  "lat": 56.0594230,
  "lon": 12.7144007
},
{
  "type": "node",
  "id": 1797669750,
  "lat": 56.0579646,
  "lon": 12.7179429
},
{
  "type": "node",
  "id": 2905305454,
  "lat": 56.1293052,
  "lon": 12.6396050
},
{
  "type": "node",
  "id": 2905305455,
  "lat": 56.1293255,
  "lon": 12.6399072
},
{
  "type": "node",
  "id": 2905305462,
  "lat": 56.1294761,
  "lon": 12.6398750
},
{
  "type": "node",
  "id": 2905305465,
  "lat": 56.1294560,
  "lon": 12.6395728
},
{
  "type": "node",
  "id": 3634581751,
  "lat": 56.1292848,
  "lon": 12.6396854
},
{
  "type": "node",
  "id": 3634581752,
  "lat": 56.1292947,
  "lon": 12.6398338
},
{
  "type": "node",
  "id": 3634581753,
  "lat": 56.1293101,
  "lon": 12.6396800
},
{
  "type": "node",
  "id": 3634581754,
  "lat": 56.1293203,
  "lon": 12.6398283
},
{
  "type": "node",
  "id": 4018418816,
  "lat": 56.2425477,
  "lon": 12.8537661
},
{
  "type": "node",
  "id": 4018418817,
  "lat": 56.2424791,
  "lon": 12.8540195
},
{
  "type": "node",
  "id": 4018418828,
  "lat": 56.2429180,
  "lon": 12.8542130
},
{
  "type": "node",
  "id": 4018418829,
  "lat": 56.2429025,
  "lon": 12.8542891
},
{
  "type": "node",
  "id": 4018418830,
  "lat": 56.2428660,
  "lon": 12.8543368
},
{
  "type": "node",
  "id": 4018418831,
  "lat": 56.2428210,
  "lon": 12.8543396
},
{
  "type": "node",
  "id": 4018418832,
  "lat": 56.2427827,
  "lon": 12.8542967
},
{
  "type": "node",
  "id": 4018418834,
  "lat": 56.2427643,
  "lon": 12.8542227
},
{
  "type": "node",
  "id": 4018418835,
  "lat": 56.2424684,
  "lon": 12.8541916
},
{
  "type": "node",
  "id": 4018418838,
  "lat": 56.2426079,
  "lon": 12.8536569
},
{
  "type": "node",
  "id": 4018418840,
  "lat": 56.2426803,
  "lon": 12.8535753
},
{
  "type": "node",
  "id": 4018418841,
  "lat": 56.2427612,
  "lon": 12.8535256
},
{
  "type": "node",
  "id": 4018418842,
  "lat": 56.2428462,
  "lon": 12.8535105
},
{
  "type": "node",
  "id": 4018418843,
  "lat": 56.2429310,
  "lon": 12.8535307
},
{
  "type": "node",
  "id": 4018418845,
  "lat": 56.2430109,
  "lon": 12.8535852
},
{
  "type": "node",
  "id": 4018418847,
  "lat": 56.2430817,
  "lon": 12.8536711
},
{
  "type": "node",
  "id": 4018418848,
  "lat": 56.2431399,
  "lon": 12.8537839
},
{
  "type": "node",
  "id": 4018418849,
  "lat": 56.2431821,
  "lon": 12.8539176
},
{
  "type": "node",
  "id": 4018418850,
  "lat": 56.2432063,
  "lon": 12.8540651
},
{
  "type": "node",
  "id": 4018418851,
  "lat": 56.2432111,
  "lon": 12.8542186
},
{
  "type": "node",
  "id": 5718692582,
  "lat": 56.2537844,
  "lon": 12.8653349
},
{
  "type": "node",
  "id": 5718692583,
  "lat": 56.2535512,
  "lon": 12.8653349
},
{
  "type": "node",
  "id": 5718692584,
  "lat": 56.2535512,
  "lon": 12.8654087
},
{
  "type": "node",
  "id": 5718692585,
  "lat": 56.2537844,
  "lon": 12.8654087
},
{
  "type": "node",
  "id": 5718692701,
  "lat": 56.2545583,
  "lon": 12.8650182
},
{
  "type": "node",
  "id": 5718692702,
  "lat": 56.2545568,
  "lon": 12.8653347
},
{
  "type": "node",
  "id": 5718692703,
  "lat": 56.2546605,
  "lon": 12.8653362
},
{
  "type": "node",
  "id": 5718692704,
  "lat": 56.2546620,
  "lon": 12.8650197
},
{
  "type": "node",
  "id": 5718692842,
  "lat": 56.2541357,
  "lon": 12.8653193
},
{
  "type": "node",
  "id": 5718692843,
  "lat": 56.2541223,
  "lon": 12.8653191
},
{
  "type": "node",
  "id": 5718692844,
  "lat": 56.2541218,
  "lon": 12.8653990
},
{
  "type": "node",
  "id": 5718692845,
  "lat": 56.2540560,
  "lon": 12.8654412
},
{
  "type": "node",
  "id": 5718692846,
  "lat": 56.2541216,
  "lon": 12.8654424
},
{
  "type": "node",
  "id": 5718692847,
  "lat": 56.2541846,
  "lon": 12.8655589
},
{
  "type": "node",
  "id": 5718692848,
  "lat": 56.2540347,
  "lon": 12.8655562
},
{
  "type": "node",
  "id": 5718692849,
  "lat": 56.2540353,
  "lon": 12.8654408
},
{
  "type": "node",
  "id": 5718692850,
  "lat": 56.2541852,
  "lon": 12.8654435
},
{
  "type": "node",
  "id": 5718692851,
  "lat": 56.2540570,
  "lon": 12.8652600
},
{
  "type": "node",
  "id": 5718692852,
  "lat": 56.2541226,
  "lon": 12.8652611
},
{
  "type": "node",
  "id": 5718692853,
  "lat": 56.2542843,
  "lon": 12.8654019
},
{
  "type": "node",
  "id": 5718692854,
  "lat": 56.2541360,
  "lon": 12.8652665
},
{
  "type": "node",
  "id": 5718692855,
  "lat": 56.2542850,
  "lon": 12.8652692
},
{
  "type": "node",
  "id": 5718692856,
  "lat": 56.2545130,
  "lon": 12.8653739
},
{
  "type": "node",
  "id": 5718692857,
  "lat": 56.2544161,
  "lon": 12.8653724
},
{
  "type": "node",
  "id": 5718692858,
  "lat": 56.2544168,
  "lon": 12.8652261
},
{
  "type": "node",
  "id": 5718692859,
  "lat": 56.2545137,
  "lon": 12.8652276
},
{
  "type": "node",
  "id": 6225226939,
  "lat": 56.2545079,
  "lon": 12.8649703
},
{
  "type": "node",
  "id": 6225226940,
  "lat": 56.2544040,
  "lon": 12.8649723
},
{
  "type": "node",
  "id": 6225226941,
  "lat": 56.2544035,
  "lon": 12.8648856
},
{
  "type": "node",
  "id": 6225226942,
  "lat": 56.2545074,
  "lon": 12.8648836
}

  ]
}
