{
  "version": 0.6,
  "generator": "Overpass API 0.7.55.9 ab41fea6",
  "osm3s": {
    "timestamp_osm_base": "2020-02-14T16:16:02Z",
    "copyright": "The data included in this document is from www.openstreetmap.org. The data is made available under ODbL."
  },
  "elements": [

{
  "type": "node",
  "id": 300363359,
  "lat": 32.6498902,
  "lon": -16.9123446,
  "tags": {
    "name": "Casa Museu Frederico de Freitas",
    "tourism": "museum"
  }
},
{
  "type": "node",
  "id": 300363364,
  "lat": 32.6510464,
  "lon": -16.9138739,
  "tags": {
    "addr:housenumber": "1",
    "addr:street": "Calçada do Pico",
    "name": "Museu da Quinta das Cruzes",
    "tourism": "museum"
  }
},
{
  "type": "node",
  "id": 976107787,
  "lat": 32.6757991,
  "lon": -16.9009900,
  "tags": {
    "description": "Ground Floor: Precious Stones, Level 1+2: African Passion",
    "name": "Museu Monte Palace",
    "tourism": "museum"
  }
},
{
  "type": "node",
  "id": 977749806,
  "lat": 32.6729383,
  "lon": -17.0633603,
  "tags": {
    "name": "Museu Etnográfico da Madeira",
    "tourism": "museum",
    "wikidata": "Q10333463"
  }
},
{
  "type": "node",
  "id": 977763407,
  "lat": 32.6510780,
  "lon": -16.9090540,
  "tags": {
    "name": "Instituto do Vinho da Madeira",
    "tourism": "museum"
  }
},
{
  "type": "node",
  "id": 977768895,
  "lat": 32.6478704,
  "lon": -16.9103644,
  "tags": {
    "name": "Núcleo Museológico da Madeira Wine",
    "tourism": "museum"
  }
},
{
  "type": "node",
  "id": 977777511,
  "lat": 32.6508920,
  "lon": -16.9030016,
  "tags": {
    "alt_name": "Núcleo Museológico do IBTAM - Museu do Instituto do Bordado e Tapeçaria da Madeira",
    "name": "Museu  do Bordado",
    "name:en": "Embroidery Museum",
    "tourism": "museum"
  }
},
{
  "type": "node",
  "id": 977781345,
  "lat": 32.6622172,
  "lon": -16.8945974,
  "tags": {
    "name": "Museu História Natural",
    "tourism": "museum"
  }
},
{
  "type": "node",
  "id": 983788169,
  "lat": 32.7228043,
  "lon": -17.1773219,
  "tags": {
    "name": "Engenho da cana de açucar",
    "phone": "+351 291 822 264",
    "tourism": "museum",
    "website": "http://www.visitmadeira.pt/pt-pt/explorar/engenhos-da-calheta"
  }
},
{
  "type": "node",
  "id": 983816051,
  "lat": 32.6490064,
  "lon": -16.9101900,
  "tags": {
    "name": "Museu da Fotografia \"Vicentes\"",
    "name:en": "Vicentes Photography Museum",
    "tourism": "museum"
  }
},
{
  "type": "node",
  "id": 1320271444,
  "lat": 32.6482187,
  "lon": -16.9071187,
  "tags": {
    "name": "Núcleo Museológico da Cidade do Açúcar",
    "tourism": "museum"
  }
},
{
  "type": "node",
  "id": 1472054193,
  "lat": 32.6511400,
  "lon": -16.9133542,
  "tags": {
    "name": "Universo de Memórias João Carlos Abreu",
    "name:nl": "João Carlos Abreu-museum",
    "opening_hours": "Mo-Fr 08:30-20:00",
    "tourism": "museum"
  }
},
{
  "type": "node",
  "id": 1493359993,
  "lat": 32.7652625,
  "lon": -16.8752475,
  "tags": {
    "fee": "no",
    "name": "Museu Família Teixeira",
    "opening_hours": "Tu-Su 09:00-18:00; Mo off",
    "tourism": "museum",
    "website": "https://www.facebook.com/museufamiliateixeira/?fref=ts"
  }
},
{
  "type": "node",
  "id": 1494610233,
  "lat": 32.8245440,
  "lon": -16.9541203,
  "tags": {
    "name": "Museu da Vinha e do Vinho",
    "opening_hours": "Tu-Sa 09:00-18:00",
    "tourism": "museum"
  }
},
{
  "type": "node",
  "id": 1896341865,
  "lat": 32.7358789,
  "lon": -16.7403460,
  "tags": {
    "name": "Museu da Baleia",
    "opening_hours": "Tu-Su 10:30-18:00",
    "tourism": "museum",
    "website": "http://www.museudabaleia.org/"
  }
},
{
  "type": "node",
  "id": 2791668683,
  "lat": 32.6441177,
  "lon": -16.9138473,
  "tags": {
    "name": "Museu CR7",
    "name:fr": "Musée CR7",
    "name:pt": "Museu CR7",
    "opening_hours": "Mo-Sa 09:00-17:00",
    "tourism": "museum",
    "wikidata": "Q16911681"
  }
},
{
  "type": "node",
  "id": 3460157377,
  "lat": 32.7963395,
  "lon": -17.0255889,
  "tags": {
    "email": "rotadacal@gmail.com",
    "name": "Núcleo Museológico - Rota da Cal",
    "opening_hours": "Tu-Sa 10:00-17:00",
    "phone": "+351 291 842 018",
    "tourism": "museum",
    "website": "https://sites.google.com/site/rotadacal/"
  }
},
{
  "type": "node",
  "id": 3778980569,
  "lat": 32.7228799,
  "lon": -17.1805128,
  "tags": {
    "name": "Mudas - Museu de Arte Contemporânea",
    "tourism": "museum"
  }
},
{
  "type": "node",
  "id": 3841261502,
  "lat": 32.6412572,
  "lon": -16.9152799,
  "tags": {
    "name": "Design Center Nini Andrade",
    "tourism": "museum"
  }
},
{
  "type": "node",
  "id": 3874534105,
  "lat": 32.6472818,
  "lon": -16.9102602,
  "tags": {
    "name": "Núcleo Museológico do Palácio de São Lourenço",
    "tourism": "museum",
    "website": "http://www.visitmadeira.pt/pt-pt/explorar/detalhe/nucleo-museologico-do-palacio-de-sao-lourenco"
  }
},
{
  "type": "node",
  "id": 3888008396,
  "lat": 32.6514818,
  "lon": -16.9037899,
  "tags": {
    "name": "Museu Henrique e Francisco Franco",
    "tourism": "museum"
  }
},
{
  "type": "node",
  "id": 4789873935,
  "lat": 32.6493090,
  "lon": -16.9084149,
  "tags": {
    "addr:housenumber": "21",
    "addr:street": "Rua do Bispo",
    "name": "Museu de Arte Sacra",
    "opening_hours": "Mo-Fr 10:00-17:00, Sa 10:00-13:00",
    "tourism": "museum",
    "website": "http://www.museuartesacrafunchal.org/intro.html",
    "wikidata": "Q6033898"
  }
},
{
  "type": "node",
  "id": 5417771854,
  "lat": 32.6495186,
  "lon": -16.9115759,
  "tags": {
    "addr:city": "Funchal",
    "addr:housenumber": "51",
    "addr:postcode": "9000-049",
    "addr:street": "Rua das Pretas",
    "fee": "some",
    "name": "Madeira Optics Museum",
    "tourism": "museum",
    "website": "http://www.madeiraopticsmuseum.com/"
  }
},
{
  "type": "node",
  "id": 6208298485,
  "lat": 32.6476508,
  "lon": -16.9041757,
  "tags": {
    "addr:street": "Rua da Casa da Luz",
    "name": "Museu de Electricidade",
    "name:en": "Electricity Museum",
    "opening_hours": "Mo-Fr 09:00-17:00",
    "tourism": "museum",
    "wheelchair": "yes"
  }
},
{
  "type": "node",
  "id": 7020274894,
  "lat": 32.6486029,
  "lon": -16.8692222,
  "tags": {
    "name": "Centro Núcleo dos Dragoeiros das Neves",
    "tourism": "museum"
  }
},
{
  "type": "node",
  "id": 7056879785,
  "lat": 32.7202309,
  "lon": -16.9650417,
  "tags": {
    "addr:postcode": "9030-311",
    "addr:street": "Estrada Caminho da Camacho",
    "name:en": "Local museum",
    "opening_hours": "Mo-Su 09:00-18:00",
    "tourism": "museum"
  }
},
{
  "type": "way",
  "id": 54731489,
  "nodes": [
    689160587,
    689160593,
    689160598,
    689160602,
    689160608,
    3428289959,
    3428289958,
    3428289957,
    3428289956,
    3428289961,
    3428289960,
    3428289963,
    3428289962,
    3428289964,
    689160587
  ],
  "tags": {
    "building": "yes",
    "fixme": "more info",
    "name": "Etnografico",
    "tourism": "museum"
  }
},
{
  "type": "way",
  "id": 162339155,
  "nodes": [
    1742495307,
    1742495270,
    1742495281,
    1742495271,
    1742495293,
    1742495303,
    1742495274,
    1742495291,
    1742495304,
    1742495301,
    1742495307
  ],
  "tags": {
    "building": "yes",
    "name": "Centro de Ciência Viva",
    "tourism": "museum",
    "website": "http://www.portomoniz.cienciaviva.pt/home/"
  }
},
{
  "type": "way",
  "id": 165185417,
  "nodes": [
    1767487135,
    1767675696,
    1767675695,
    1767487131,
    1767487128,
    1767487133,
    5376693449,
    5376693487,
    1767487135
  ],
  "tags": {
    "addr:city": "Machico",
    "addr:housenumber": "13/15",
    "addr:postcode": "9200-102",
    "addr:street": "Rua do Ribeirinho",
    "name": "Núcleo Museológico do Solar do Ribeirinho",
    "opening_hours": "10:00-17:00",
    "tourism": "museum"
  }
},
{
  "type": "way",
  "id": 168383586,
  "nodes": [
    1796583848,
    1796583841,
    1796583837,
    1796583840,
    1796583838,
    1796583845,
    1796583843,
    1796583842,
    1796583839,
    1796583844,
    5258647036,
    1796583848
  ],
  "tags": {
    "building": "yes",
    "tourism": "museum"
  }
},
{
  "type": "way",
  "id": 307736783,
  "nodes": [
    3129366949,
    3488996329,
    3129366947,
    3129366946,
    3129366948,
    3129366949
  ],
  "tags": {
    "alt_name": "Palácio de São Pedro",
    "building": "yes",
    "name": "Museu de História Natural do Funchal",
    "name:nl": "Museum voor natuurgeschiedenis van Funchal",
    "tourism": "museum"
  }
},
{
  "type": "way",
  "id": 490302080,
  "nodes": [
    4824774015,
    4824774016,
    4824774017,
    4824774018,
    4824774019,
    4824774020,
    4824774221,
    4824774222,
    5307332179,
    4824774015
  ],
  "tags": {
    "addr:city": "Funchal",
    "addr:housenumber": "2",
    "addr:postcode": "9000-206",
    "addr:street": "Calçada do Pico",
    "building": "yes",
    "tourism": "museum"
  }
},
{
  "type": "way",
  "id": 533543164,
  "nodes": [
    5176061394,
    5176061395,
    5176061396,
    5176061397,
    5176061394
  ],
  "tags": {
    "building": "yes",
    "name": "•casa-museu Dr. Horácio Bento de Gouveia",
    "tourism": "museum"
  }
},
{
  "type": "node",
  "id": 3129366946,
  "lat": 32.6495936,
  "lon": -16.9119342
},
{
  "type": "node",
  "id": 3129366947,
  "lat": 32.6497408,
  "lon": -16.9121043
},
{
  "type": "node",
  "id": 3129366948,
  "lat": 32.6494163,
  "lon": -16.9121488
},
{
  "type": "node",
  "id": 3129366949,
  "lat": 32.6495744,
  "lon": -16.9123044
},
{
  "type": "node",
  "id": 3488996329,
  "lat": 32.6496078,
  "lon": -16.9122642
},
{
  "type": "node",
  "id": 4824774015,
  "lat": 32.6510350,
  "lon": -16.9133087
},
{
  "type": "node",
  "id": 4824774016,
  "lat": 32.6512023,
  "lon": -16.9135291
},
{
  "type": "node",
  "id": 4824774017,
  "lat": 32.6512465,
  "lon": -16.9134728
},
{
  "type": "node",
  "id": 4824774018,
  "lat": 32.6512298,
  "lon": -16.9134480
},
{
  "type": "node",
  "id": 4824774019,
  "lat": 32.6513072,
  "lon": -16.9133601
},
{
  "type": "node",
  "id": 4824774020,
  "lat": 32.6512623,
  "lon": -16.9133037
},
{
  "type": "node",
  "id": 4824774221,
  "lat": 32.6512315,
  "lon": -16.9133314
},
{
  "type": "node",
  "id": 4824774222,
  "lat": 32.6511749,
  "lon": -16.9132513
},
{
  "type": "node",
  "id": 5307332179,
  "lat": 32.6511416,
  "lon": -16.9132078
},
{
  "type": "node",
  "id": 689160587,
  "lat": 32.6798773,
  "lon": -16.8448807
},
{
  "type": "node",
  "id": 689160593,
  "lat": 32.6799570,
  "lon": -16.8448850
},
{
  "type": "node",
  "id": 689160598,
  "lat": 32.6799772,
  "lon": -16.8443525
},
{
  "type": "node",
  "id": 689160602,
  "lat": 32.6797715,
  "lon": -16.8443415
},
{
  "type": "node",
  "id": 689160608,
  "lat": 32.6797668,
  "lon": -16.8444658
},
{
  "type": "node",
  "id": 3428289956,
  "lat": 32.6797452,
  "lon": -16.8446252
},
{
  "type": "node",
  "id": 3428289957,
  "lat": 32.6798133,
  "lon": -16.8445247
},
{
  "type": "node",
  "id": 3428289958,
  "lat": 32.6798360,
  "lon": -16.8445259
},
{
  "type": "node",
  "id": 3428289959,
  "lat": 32.6798381,
  "lon": -16.8444696
},
{
  "type": "node",
  "id": 3428289960,
  "lat": 32.6798398,
  "lon": -16.8447113
},
{
  "type": "node",
  "id": 3428289961,
  "lat": 32.6798424,
  "lon": -16.8446428
},
{
  "type": "node",
  "id": 3428289962,
  "lat": 32.6798560,
  "lon": -16.8448113
},
{
  "type": "node",
  "id": 3428289963,
  "lat": 32.6798597,
  "lon": -16.8447124
},
{
  "type": "node",
  "id": 3428289964,
  "lat": 32.6798799,
  "lon": -16.8448126
},
{
  "type": "node",
  "id": 5176061394,
  "lat": 32.8240093,
  "lon": -16.9910205
},
{
  "type": "node",
  "id": 5176061395,
  "lat": 32.8238672,
  "lon": -16.9911632
},
{
  "type": "node",
  "id": 5176061396,
  "lat": 32.8238080,
  "lon": -16.9910796
},
{
  "type": "node",
  "id": 5176061397,
  "lat": 32.8239501,
  "lon": -16.9909370
},
{
  "type": "node",
  "id": 1742495270,
  "lat": 32.8671950,
  "lon": -17.1677137
},
{
  "type": "node",
  "id": 1742495271,
  "lat": 32.8672095,
  "lon": -17.1678116
},
{
  "type": "node",
  "id": 1742495274,
  "lat": 32.8674430,
  "lon": -17.1677817
},
{
  "type": "node",
  "id": 1742495281,
  "lat": 32.8672273,
  "lon": -17.1677228
},
{
  "type": "node",
  "id": 1742495291,
  "lat": 32.8673995,
  "lon": -17.1679991
},
{
  "type": "node",
  "id": 1742495293,
  "lat": 32.8672410,
  "lon": -17.1678206
},
{
  "type": "node",
  "id": 1742495301,
  "lat": 32.8672074,
  "lon": -17.1680607
},
{
  "type": "node",
  "id": 1742495303,
  "lat": 32.8672592,
  "lon": -17.1677296
},
{
  "type": "node",
  "id": 1742495304,
  "lat": 32.8672294,
  "lon": -17.1679508
},
{
  "type": "node",
  "id": 1742495307,
  "lat": 32.8671299,
  "lon": -17.1680387
},
{
  "type": "node",
  "id": 1767487128,
  "lat": 32.7183167,
  "lon": -16.7676274
},
{
  "type": "node",
  "id": 1767487131,
  "lat": 32.7183634,
  "lon": -16.7675169
},
{
  "type": "node",
  "id": 1767487133,
  "lat": 32.7185042,
  "lon": -16.7677203
},
{
  "type": "node",
  "id": 1767487135,
  "lat": 32.7186820,
  "lon": -16.7673563
},
{
  "type": "node",
  "id": 1767675695,
  "lat": 32.7183910,
  "lon": -16.7674605
},
{
  "type": "node",
  "id": 1767675696,
  "lat": 32.7184893,
  "lon": -16.7672686
},
{
  "type": "node",
  "id": 5376693449,
  "lat": 32.7186411,
  "lon": -16.7674501
},
{
  "type": "node",
  "id": 5376693487,
  "lat": 32.7186746,
  "lon": -16.7673786
},
{
  "type": "node",
  "id": 1796583837,
  "lat": 32.7355292,
  "lon": -16.7401989
},
{
  "type": "node",
  "id": 1796583838,
  "lat": 32.7356121,
  "lon": -16.7403621
},
{
  "type": "node",
  "id": 1796583839,
  "lat": 32.7356282,
  "lon": -16.7407286
},
{
  "type": "node",
  "id": 1796583840,
  "lat": 32.7356496,
  "lon": -16.7403193
},
{
  "type": "node",
  "id": 1796583841,
  "lat": 32.7357138,
  "lon": -16.7399662
},
{
  "type": "node",
  "id": 1796583842,
  "lat": 32.7357352,
  "lon": -16.7405868
},
{
  "type": "node",
  "id": 1796583843,
  "lat": 32.7357994,
  "lon": -16.7406484
},
{
  "type": "node",
  "id": 1796583844,
  "lat": 32.7358074,
  "lon": -16.7409212
},
{
  "type": "node",
  "id": 1796583845,
  "lat": 32.7358449,
  "lon": -16.7406002
},
{
  "type": "node",
  "id": 1796583848,
  "lat": 32.7361498,
  "lon": -16.7404638
},
{
  "type": "node",
  "id": 5258647036,
  "lat": 32.7359242,
  "lon": -16.7407652
}

  ]
}
