{
  "version": 0.6,
  "generator": "Overpass API 0.7.55.9 ab41fea6",
  "osm3s": {
    "timestamp_osm_base": "2020-02-14T12:50:01Z",
    "copyright": "The data included in this document is from www.openstreetmap.org. The data is made available under ODbL."
  },
  "elements": [

{
  "type": "node",
  "id": 247081244,
  "lat": 43.6023148,
  "lon": 1.4431296,
  "tags": {
    "contact:phone": "+33562271150",
    "name": "Musée du Vieux Toulouse",
    "source": "GrandToulouse",
    "source:date": "2011-11-06",
    "tourism": "museum",
    "wikidata": "Q3330403",
    "wikipedia": "fr:Musée du Vieux Toulouse"
  }
},
{
  "type": "node",
  "id": 907321618,
  "lat": 43.7644661,
  "lon": 1.7746101,
  "tags": {
    "name": "Maison de la Céramique Contemporaine",
    "tourism": "museum"
  }
},
{
  "type": "node",
  "id": 1533753894,
  "lat": 43.5995448,
  "lon": 1.4449735,
  "tags": {
    "addr:housenumber": "10",
    "addr:street": "Rue de la Trinité",
    "name": "galerie Alain Daudet",
    "phone": "+33534317484",
    "source": "GrandToulouse",
    "source:date": "2011-11-06",
    "tourism": "museum"
  }
},
{
  "type": "node",
  "id": 1534355624,
  "lat": 43.5991330,
  "lon": 1.4365435,
  "tags": {
    "addr:city": "Toulouse",
    "addr:housenumber": "2",
    "addr:postcode": "31055",
    "addr:street": "Rue Viguerie",
    "name": "Musée d'Histoire de la Médecine de Toulouse",
    "source": "GrandToulouse",
    "source:date": "2011-11-06",
    "tourism": "museum",
    "website": "http://www.musee-medecine.com/",
    "wikidata": "Q2379397"
  }
},
{
  "type": "node",
  "id": 1649207014,
  "lat": 43.5987465,
  "lon": 1.4304583,
  "tags": {
    "alt_name": "MATou",
    "contact:phone": "+33581917917",
    "contact:website": "http://www.centreaffiche.toulouse.fr/",
    "name": "Musée de l'Affiche de Toulouse",
    "tourism": "museum",
    "wikidata": "Q2945872"
  }
},
{
  "type": "node",
  "id": 1649207015,
  "lat": 43.5969677,
  "lon": 1.4468993,
  "tags": {
    "contact:phone": "+33561146550",
    "name": "Musée Paul Dupuy",
    "source": "GrandToulouse",
    "source:date": "2011-11-06",
    "tourism": "museum",
    "wikidata": "Q3329305"
  }
},
{
  "type": "node",
  "id": 1649207017,
  "lat": 43.5889001,
  "lon": 1.4566916,
  "tags": {
    "contact:phone": "+33561148040",
    "contact:website": "http://www.musee-resistance31.fr/",
    "name": "Musée de La Résistance et de la Déportation",
    "source": "GrandToulouse",
    "source:date": "2011-11-06",
    "tourism": "museum"
  }
},
{
  "type": "node",
  "id": 1982847379,
  "lat": 43.6001991,
  "lon": 1.4420464,
  "tags": {
    "name": "Fondation Bemberg",
    "opening_hours": "Tu-Su 10:00-12:30,13:30-18:00, Th 10:00-12:30,13:30-20:30",
    "tourism": "museum",
    "wikidata": "Q16303680"
  }
},
{
  "type": "node",
  "id": 2020299444,
  "lat": 43.5338234,
  "lon": 1.4590219,
  "tags": {
    "addr:housenumber": "40",
    "contact:website": "www.apiculture31.com",
    "name": "Musée de l'Abeille",
    "source": "ToulouseMetropole;Bing + ToulouseMétropole",
    "source:date": "2012/10/04",
    "tourism": "museum"
  }
},
{
  "type": "node",
  "id": 2083634308,
  "lat": 43.6323361,
  "lon": 1.4516571,
  "tags": {
    "addr:housenumber": "24-26",
    "addr:street": "Avenue Maurice Bourgès-Maunoury",
    "contact:phone": "+33567738484",
    "contact:website": "http://www.museum.toulouse.fr/",
    "leisure": "garden",
    "name": "Les Jardins du Muséum",
    "note": "Un lieu enchanteur, nature, culture et détente. Ouvert de mai à octobre. L'entrée est à 3 euros!",
    "source": "ToulouseMetropole",
    "source:date": "2012/10/04;2011-11-06",
    "tourism": "museum",
    "website": "https://www.museum.toulouse.fr/infos-pratiques-jardins-museum-toulouse-borderouge"
  }
},
{
  "type": "node",
  "id": 4011776228,
  "lat": 43.5945205,
  "lon": 1.4510813,
  "tags": {
    "addr:city": "Toulouse",
    "addr:housenumber": "39",
    "addr:postcode": "31000",
    "addr:street": "allées Jules-Guesde",
    "contact:phone": "+33 5 67 73 84 84",
    "contact:website": "https://www.quaidessavoirs.fr",
    "name": "Quai des savoirs",
    "opening_hours": "Mo-Su 10:00-19:00",
    "operator": "Toulouse Métropole",
    "tourism": "museum",
    "wikidata": "Q40041199",
    "wikipedia": "fr:Quai des Savoirs"
  }
},
{
  "type": "node",
  "id": 5057135621,
  "lat": 43.5999152,
  "lon": 1.4404471,
  "tags": {
    "addr:housenumber": "2",
    "addr:postcode": "31000",
    "addr:street": "Quai de la Daurade",
    "name": "Adresse du Printemps - Printemps de Septembre",
    "opening_hours": "We-Sa 12:00-18:00",
    "phone": "+33561142351",
    "tourism": "museum"
  }
},
{
  "type": "node",
  "id": 6781043724,
  "lat": 43.6324424,
  "lon": 1.4519938,
  "tags": {
    "name": "Les Jardins du Muséum à Borderouge",
    "tourism": "museum"
  }
},
{
  "type": "way",
  "id": 22718219,
  "nodes": [
    243668634,
    1302757871,
    1418514270,
    1418514275,
    1418514309,
    775318804,
    1302757860,
    243668635,
    1302757885,
    1418508249,
    1418508253,
    426691205,
    1302757764,
    1302757837,
    1302757781,
    1418508255,
    1302757751,
    1302757893,
    5167541069,
    1302757825,
    243668636,
    426691237,
    426691213,
    1302757865,
    1302757847,
    1302757795,
    1302757888,
    243668637,
    775321864,
    775321865,
    426691210,
    426691208,
    1302757788,
    1302757858,
    2080218084,
    243668634
  ],
  "tags": {
    "contact:phone": "+33561222182",
    "contact:website": "http://www.augustins.org",
    "heritage": "2",
    "heritage:operator": "mhs",
    "historic": "yes",
    "mhs:inscription_date": "1840",
    "name": "Musée des Augustins",
    "ref:mhs": "PA00094510",
    "start_date": "1795",
    "tourism": "museum",
    "wikidata": "Q3001664",
    "wikipedia": "fr:Musée des Augustins de Toulouse"
  }
},
{
  "type": "way",
  "id": 22896377,
  "nodes": [
    246490745,
    246490746,
    4772596745,
    4772596742,
    246490749,
    246490750,
    4772596743,
    6032068713,
    4772596744,
    246490745
  ],
  "tags": {
    "addr:city": "Toulouse",
    "addr:housenumber": "76",
    "addr:postcode": "31300",
    "addr:street": "Allées Charles de Fitte",
    "building": "yes",
    "building:part": "no",
    "contact:phone": "+33562485800",
    "contact:website": "http://www.lesabattoirs.org",
    "heritage": "3",
    "heritage:operator": "mhs",
    "mhs:inscription_date": "1990-03-13",
    "name": "Les Abattoirs",
    "ref:mhs": "PA00094674",
    "source:heritage": "data.gouv.fr:Ministère de la Culture - 04/2015",
    "tourism": "museum",
    "website": "http://www.lesabattoirs.org",
    "wheelchair": "yes",
    "wikidata": "Q3230368",
    "wikipedia": "fr:Les Abattoirs",
    "wikipedia:en": "Les Abattoirs"
  }
},
{
  "type": "way",
  "id": 43270337,
  "nodes": [
    543400627,
    543400633,
    543400630,
    543400618,
    543400627
  ],
  "tags": {
    "building": "yes",
    "heritage": "3",
    "heritage:operator": "mhs",
    "mhs:inscription_date": "1975-08-01",
    "name": "Musée Campanaire",
    "official_name": "Musée européen d'art campanaire",
    "ref:mhs": "PA00094811",
    "source": "cadastre-dgi-fr source : Direction Générale des Impôts - Cadastre ; mise à jour : 2009",
    "source:heritage": "Ministère de la Culture - 07/2018",
    "toilets:wheelchair": "yes",
    "tourism": "museum",
    "wheelchair": "yes",
    "wikidata": "Q3330563"
  }
},
{
  "type": "way",
  "id": 61565556,
  "nodes": [
    767930557,
    4761717198,
    767930558,
    767930559,
    768860134,
    4761717199,
    767930560,
    4761717200,
    767930561,
    4761717190,
    767930562,
    767930584,
    767930563,
    767930564,
    767930565,
    4761717191,
    767930566,
    4761717192,
    767930567,
    4761717193,
    767930568,
    767930569,
    4761717194,
    767930570,
    4761717195,
    767930571,
    4761717196,
    767930572,
    767926420,
    4761717197,
    767930574,
    767930575,
    767930557
  ],
  "tags": {
    "alt_name": "Château d'eau de Toulouse",
    "barrier": "wall",
    "building": "water_tower",
    "contact:phone": "+33561770940",
    "contact:website": "http://www.galeriechateaudeau.org/",
    "heritage": "3",
    "heritage:operator": "mhs",
    "historic": "industrial",
    "mhs:inscription_date": "1987",
    "name": "Château d'eau Charles Laganne",
    "name:da": "Toulouse Vandtårn",
    "ref:mhs": "PA00094504",
    "source": "GrandToulouse",
    "source:date": "2011-11-06",
    "tourism": "museum",
    "wikidata": "Q2968376",
    "wikipedia": "fr:Château d'eau de Toulouse"
  }
},
{
  "type": "way",
  "id": 63801451,
  "nodes": [
    788443341,
    788431866,
    788436441,
    788439240,
    788438166,
    788442066,
    788431776,
    788432297,
    788444002,
    788438097,
    788431818,
    788444515,
    788439369,
    788435760,
    788435018,
    788432791,
    788433358,
    788443341
  ],
  "tags": {
    "addr:city": "Toulouse",
    "addr:housenumber": "17",
    "addr:postcode": "31400",
    "addr:street": "Rue du Japon",
    "building": "yes",
    "contact:phone": "+33561534825",
    "name": "Musée Georges Labit",
    "source": "GrandToulouse",
    "source:date": "2011-11-06",
    "tourism": "museum",
    "wikidata": "Q167182"
  }
},
{
  "type": "way",
  "id": 63968998,
  "nodes": [
    789497541,
    789495595,
    789492044,
    789488252,
    789497541
  ],
  "tags": {
    "building": "yes",
    "contact:phone": "+33561550210",
    "contact:website": "http://asptuit.free.fr/ITTC.html",
    "name": "I.T.T.C.",
    "source": "GrandToulouse",
    "source:date": "2011-11-06",
    "tourism": "museum"
  }
},
{
  "type": "way",
  "id": 89104903,
  "nodes": [
    1033704984,
    1033714792,
    1033665023,
    1033688301,
    1033704984
  ],
  "tags": {
    "addr:city": "Grisolles",
    "addr:housenumber": "15",
    "addr:postcode": "82170",
    "addr:street": "Rue Jean de Comère",
    "alt_name": "Musée Jean de Comère",
    "building": "house",
    "building:levels": "2",
    "fee": "no",
    "heritage": "3",
    "heritage:operator": "mhs",
    "mhs:inscription_date": "1950-06-23",
    "name": "Musée Calbet",
    "opening_hours": "We-Sa 15:00-18:00",
    "phone": "+335 63 02 83 06",
    "ref:mhs": "PA00095756",
    "roof:levels": "1",
    "roof:shape": "gabled",
    "source": "cadastre-dgi-fr source : Direction Générale des Impôts - Cadastre. Mise à jour : 2010",
    "source:heritage": "data.gouv.fr, Ministère de la Culture - 2016",
    "start_date": "C15",
    "tourism": "museum",
    "website": "http://www.musees-midi-pyrenees.fr/musees/musee-calbet/",
    "wikidata": "Q3329102",
    "wikipedia": "fr:Musée Calbet"
  }
},
{
  "type": "way",
  "id": 129312701,
  "nodes": [
    1426950032,
    1426950019,
    1426950029,
    1426950040,
    1426950032
  ],
  "tags": {
    "building": "yes",
    "description": "Une reconstitution de la vie paysanne de 1890 à 1960 présente plus de 1 450 outils de travail (charrues, charrettes, vendange, dépiquage) et ustensiles de la maison.\n",
    "name": "La ferme d'autrefois",
    "source": "cadastre-dgi-fr source : Direction Générale des Impôts - Cadastre. Mise à jour : 2011",
    "tourism": "museum",
    "wall": "no"
  }
},
{
  "type": "way",
  "id": 134123637,
  "nodes": [
    1475047436,
    1475047438,
    247651735,
    247651734,
    1473478613,
    1473478623,
    430452015,
    430452025,
    430452012,
    1473478661,
    1473478664,
    1473478673,
    1473478675,
    1473478685,
    1473478686,
    6032065622,
    247651740,
    1475047441,
    90710565,
    90710564,
    90710563,
    1475047440,
    430452033,
    430452030,
    1475047439,
    90710562,
    1475047437,
    1475047436
  ],
  "tags": {
    "contact:phone": "+33567738484",
    "contact:website": "http://www.museum.toulouse.fr",
    "name": "Museum d'Histoire Naturelle",
    "source": "cadastre-dgi-fr source : Direction Générale des Impôts - Cadastre. Mise à jour : 2011",
    "tourism": "museum",
    "wikidata": "Q422"
  }
},
{
  "type": "way",
  "id": 205390076,
  "nodes": [
    2153612006,
    3842632261,
    3842643661,
    2153612008,
    3842636458,
    269199778,
    3842654158,
    2153612003,
    3842636459,
    2153612007,
    2153612006
  ],
  "tags": {
    "addr:city": "Blagnac",
    "addr:housenumber": "4",
    "addr:postcode": "31700",
    "addr:street": "Rue André Béteille",
    "contact:email": "contact@aatlse.org",
    "contact:website": "http://www.aatlse.org",
    "description": "Sauve et restaure une collection d'appareils (avions, hélicoptères, planeurs et moteurs) qu'elle présente au public.",
    "name": "Ailes Anciennes Toulouse",
    "opening_hours": "Mardi-vendredi 14h00-17h30 Samedi 09h00-17h30",
    "operator": "Ailes Anciennes Toulouse",
    "operator:type": "association",
    "tourism": "museum"
  }
},
{
  "type": "way",
  "id": 261558997,
  "nodes": [
    2671543250,
    2671543105,
    2671542806,
    2671543035,
    2671543250
  ],
  "tags": {
    "building": "yes",
    "building:part": "no",
    "heritage": "2",
    "heritage:operator": "mhs",
    "mhs:inscription_date": "1975-08-11",
    "name": "Musée Saint-Raymond",
    "old_name": "Collège Saint-Raymond",
    "opening_hours": "Tu-Su 10:00-18:00; Jan 01,May 01,Dec 31 off",
    "ref:mhs": "PA00094508",
    "source": "cadastre-dgi-fr source : Direction Générale des Impôts - Cadastre ; mise à jour : 2008",
    "source:heritage": "Ministère de la Culture - 06/2019",
    "tourism": "museum",
    "url": "http://www.saintraymond.toulouse.fr/",
    "wheelchair": "yes",
    "wikidata": "Q27913326"
  }
},
{
  "type": "way",
  "id": 264497409,
  "nodes": [
    3842632093,
    2701722482,
    3942144795,
    3942144794,
    3942144671,
    2701722465,
    2701722499,
    2701722535,
    2701722593,
    2701722620,
    2701722606,
    2701722573,
    2701722548,
    3842632305,
    3842632094,
    3842643726,
    3259552262,
    3259552261,
    3842632303,
    3259551962,
    3259552064,
    3842643725,
    3942145360,
    3842632093
  ],
  "tags": {
    "building": "yes",
    "building:roof:colour": "#666C7A",
    "contact:email": "info@musee-aeroscopia.fr",
    "contact:phone": "+33 534394200",
    "contact:website": "http://www.musee-aeroscopia.fr",
    "name": "Aeroscopia",
    "note:opening_hours": "en période scolaire zone A : jusqu'à 19h",
    "opening_hours": "09:30-18:00",
    "source": "Toulouse - Orthophotoplan 2013",
    "tourism": "museum",
    "wheelchair": "yes",
    "wikidata": "Q15714017",
    "wikipedia": "fr:Aeroscopia"
  }
},
{
  "type": "way",
  "id": 613388194,
  "nodes": [
    5803912118,
    5803912104,
    5803912115,
    5803912106,
    5803912114,
    5803912107,
    5803912101,
    5803912112,
    5803912118
  ],
  "tags": {
    "addr:city": "Toulouse",
    "addr:housenumber": "3",
    "addr:street": "Avenue de l'Aérodrome de Montaudran",
    "email": "contact@halledelamachine.fr",
    "name": "Halle de La Machine",
    "phone": "+33 5 32 10 89 07",
    "tourism": "museum",
    "website": "https://www.halledelamachine.fr"
  }
},
{
  "type": "relation",
  "id": 216048,
  "members": [
    {
      "type": "way",
      "ref": 39543914,
      "role": "outer"
    },
    {
      "type": "way",
      "ref": 39543915,
      "role": "inner"
    }
  ],
  "tags": {
    "building": "yes",
    "contact:phone": "+33561120689",
    "heritage": "2",
    "heritage:operator": "mhs",
    "mhs:inscription_date": "1914/07/22",
    "name": "Hôtel d'Assézat",
    "opening_hours": "Tu-Su 10:00-12:30,13:30-18:00",
    "operator": "Fondation Bemberg",
    "ref:mhs": "PA00094532",
    "source": "cadastre-dgi-fr source : Direction Générale des Impôts - Cadastre. Mise à jour : 2009",
    "start_date": "1555",
    "tourism": "museum",
    "type": "multipolygon",
    "website": "http://www.fondation-bemberg.fr/",
    "wikidata": "Q3145715",
    "wikipedia": "fr:Hôtel d'Assézat"
  }
},
{
  "type": "relation",
  "id": 1562254,
  "members": [
    {
      "type": "way",
      "ref": 115556605,
      "role": "outer"
    },
    {
      "type": "way",
      "ref": 115556607,
      "role": "outer"
    },
    {
      "type": "way",
      "ref": 115556611,
      "role": "outer"
    },
    {
      "type": "way",
      "ref": 34923208,
      "role": "outer"
    },
    {
      "type": "way",
      "ref": 115556604,
      "role": "outer"
    },
    {
      "type": "way",
      "ref": 153022313,
      "role": "outer"
    }
  ],
  "tags": {
    "access": "yes",
    "amenity": "place_of_worship",
    "building": "church",
    "denomination": "catholic",
    "fee": "no",
    "height": "29",
    "name": "Église des Jacobins",
    "name:ca": "Església dels Jacobins",
    "name:es": "Iglesia de los Jacobinos",
    "name:oc": "Glèisa dels Jacobins",
    "opening_hours": "09:00-19:00",
    "ref:FR:CEF": "31555_54",
    "religion": "christian",
    "source": "cadastre-dgi-fr source : Direction Générale des Impôts - Cadastre;mise à jour : 2018",
    "source:name:oc": "ieo-bdtopoc",
    "start_date": "1292",
    "tourism": "museum",
    "type": "multipolygon",
    "website": "http://www.jacobins.mairie-toulouse.fr",
    "wheelchair": "no",
    "wikidata": "Q2759640",
    "wikipedia": "fr:Ensemble conventuel des Jacobins"
  }
},
{
  "type": "relation",
  "id": 1562255,
  "members": [
    {
      "type": "way",
      "ref": 115556608,
      "role": "outer"
    },
    {
      "type": "way",
      "ref": 115556610,
      "role": "outer"
    },
    {
      "type": "way",
      "ref": 115556606,
      "role": "outer"
    },
    {
      "type": "way",
      "ref": 153022313,
      "role": "outer"
    }
  ],
  "tags": {
    "contact:phone": "+33561222192",
    "heritage": "2",
    "heritage:operator": "mhs",
    "historic": "yes",
    "mhs:inscription_date": "1840",
    "name": "Ensemble conventuel des Jacobins",
    "name:es": "Conjunto Conventual de los Jacobinos",
    "ref:mhs": "PA00094512",
    "tourism": "museum",
    "type": "multipolygon",
    "website": "http://www.jacobins.mairie-toulouse.fr",
    "wikidata": "Q2759640",
    "wikipedia": "fr:Ensemble conventuel des Jacobins"
  }
},
{
  "type": "relation",
  "id": 8495554,
  "members": [
    {
      "type": "way",
      "ref": 613388982,
      "role": "outer"
    },
    {
      "type": "way",
      "ref": 613388981,
      "role": "outer"
    },
    {
      "type": "way",
      "ref": 613388984,
      "role": "outer"
    },
    {
      "type": "way",
      "ref": 613388979,
      "role": "outer"
    }
  ],
  "tags": {
    "building": "yes",
    "heritage": "3",
    "heritage:operator": "mhs",
    "name": "L'envol des pionniers",
    "operator": "Semeccel",
    "ref:mhs": "PA31000012",
    "tourism": "museum",
    "type": "multipolygon",
    "wikidata": "Q22976662"
  }
},
{
  "type": "relation",
  "id": 8776305,
  "members": [
    {
      "type": "way",
      "ref": 120231128,
      "role": "perimeter"
    },
    {
      "type": "node",
      "ref": 5955826168,
      "role": ""
    },
    {
      "type": "way",
      "ref": 630791867,
      "role": ""
    },
    {
      "type": "way",
      "ref": 630791825,
      "role": ""
    },
    {
      "type": "way",
      "ref": 61794324,
      "role": ""
    },
    {
      "type": "way",
      "ref": 630791829,
      "role": ""
    },
    {
      "type": "way",
      "ref": 630791868,
      "role": ""
    },
    {
      "type": "node",
      "ref": 917452708,
      "role": ""
    },
    {
      "type": "way",
      "ref": 78078479,
      "role": ""
    },
    {
      "type": "way",
      "ref": 78078473,
      "role": ""
    },
    {
      "type": "way",
      "ref": 630794380,
      "role": ""
    },
    {
      "type": "way",
      "ref": 630791866,
      "role": ""
    },
    {
      "type": "way",
      "ref": 28613611,
      "role": ""
    },
    {
      "type": "way",
      "ref": 630791870,
      "role": ""
    },
    {
      "type": "way",
      "ref": 630791828,
      "role": ""
    },
    {
      "type": "node",
      "ref": 1550277921,
      "role": ""
    }
  ],
  "tags": {
    "addr:city": "Toulouse",
    "addr:country": "FR",
    "addr:housenumber": "11",
    "addr:postcode": "31000",
    "addr:street": "Quai Saint-Pierre",
    "contact:phone": "+33 5 62301600",
    "contact:website": "http://bazacle.edf.com/",
    "historic": "yes",
    "name": "Espace EDF Bazacle",
    "name:en": "EDF Bazacle Complex",
    "name:es": "Espacio EDF Bazacle",
    "opening_hours": "Jan-Apr, Nov-Dec Tu-Su 11:00-18:00; May-Oct Tu-Su 11:00-19:00",
    "operator": "EDF",
    "tourism": "museum",
    "type": "site",
    "wikipedia": "fr:Bazacle"
  }
},
{
  "type": "node",
  "id": 543400618,
  "lat": 43.6129180,
  "lon": 1.0818578
},
{
  "type": "node",
  "id": 543400627,
  "lat": 43.6131818,
  "lon": 1.0819665
},
{
  "type": "node",
  "id": 543400630,
  "lat": 43.6128207,
  "lon": 1.0823001
},
{
  "type": "node",
  "id": 543400633,
  "lat": 43.6130824,
  "lon": 1.0824089
},
{
  "type": "node",
  "id": 789488252,
  "lat": 43.5770514,
  "lon": 1.4504461
},
{
  "type": "node",
  "id": 789492044,
  "lat": 43.5770712,
  "lon": 1.4505627
},
{
  "type": "node",
  "id": 789495595,
  "lat": 43.5769887,
  "lon": 1.4505944
},
{
  "type": "node",
  "id": 789497541,
  "lat": 43.5769708,
  "lon": 1.4504788
},
{
  "type": "node",
  "id": 57203703,
  "lat": 43.6040856,
  "lon": 1.4323271
},
{
  "type": "node",
  "id": 57203704,
  "lat": 43.6041434,
  "lon": 1.4322118
},
{
  "type": "node",
  "id": 57203773,
  "lat": 43.6040555,
  "lon": 1.4323238
},
{
  "type": "node",
  "id": 246490745,
  "lat": 43.6006609,
  "lon": 1.4293443
},
{
  "type": "node",
  "id": 246490746,
  "lat": 43.6009269,
  "lon": 1.4300354
},
{
  "type": "node",
  "id": 246490749,
  "lat": 43.6011744,
  "lon": 1.4298537
},
{
  "type": "node",
  "id": 246490750,
  "lat": 43.6009084,
  "lon": 1.4291626
},
{
  "type": "node",
  "id": 314447355,
  "lat": 43.6016324,
  "lon": 1.4324078
},
{
  "type": "node",
  "id": 314447357,
  "lat": 43.6032592,
  "lon": 1.4328654
},
{
  "type": "node",
  "id": 314447358,
  "lat": 43.6040663,
  "lon": 1.4323329
},
{
  "type": "node",
  "id": 769907068,
  "lat": 43.6042015,
  "lon": 1.4320916
},
{
  "type": "node",
  "id": 769907075,
  "lat": 43.6043427,
  "lon": 1.4322432
},
{
  "type": "node",
  "id": 769907079,
  "lat": 43.6042792,
  "lon": 1.4322770
},
{
  "type": "node",
  "id": 769907080,
  "lat": 43.6042720,
  "lon": 1.4314495
},
{
  "type": "node",
  "id": 769907091,
  "lat": 43.6042210,
  "lon": 1.4321842
},
{
  "type": "node",
  "id": 769907097,
  "lat": 43.6040019,
  "lon": 1.4322104
},
{
  "type": "node",
  "id": 769907104,
  "lat": 43.6043229,
  "lon": 1.4323191
},
{
  "type": "node",
  "id": 769907140,
  "lat": 43.6041136,
  "lon": 1.4317992
},
{
  "type": "node",
  "id": 769907147,
  "lat": 43.6043574,
  "lon": 1.4315553
},
{
  "type": "node",
  "id": 769907149,
  "lat": 43.6043097,
  "lon": 1.4323314
},
{
  "type": "node",
  "id": 769907172,
  "lat": 43.6042611,
  "lon": 1.4319681
},
{
  "type": "node",
  "id": 769907182,
  "lat": 43.6042378,
  "lon": 1.4321140
},
{
  "type": "node",
  "id": 769907188,
  "lat": 43.6041039,
  "lon": 1.4317898
},
{
  "type": "node",
  "id": 769907198,
  "lat": 43.6042843,
  "lon": 1.4323339
},
{
  "type": "node",
  "id": 769907205,
  "lat": 43.6043245,
  "lon": 1.4322216
},
{
  "type": "node",
  "id": 769907214,
  "lat": 43.6041285,
  "lon": 1.4322894
},
{
  "type": "node",
  "id": 769907225,
  "lat": 43.6043760,
  "lon": 1.4320209
},
{
  "type": "node",
  "id": 769907230,
  "lat": 43.6042466,
  "lon": 1.4319981
},
{
  "type": "node",
  "id": 769907246,
  "lat": 43.6042826,
  "lon": 1.4314595
},
{
  "type": "node",
  "id": 769907247,
  "lat": 43.6042715,
  "lon": 1.4323058
},
{
  "type": "node",
  "id": 769907258,
  "lat": 43.6042995,
  "lon": 1.4322199
},
{
  "type": "node",
  "id": 769907264,
  "lat": 43.6038582,
  "lon": 1.4326447
},
{
  "type": "node",
  "id": 769907272,
  "lat": 43.6043287,
  "lon": 1.4322994
},
{
  "type": "node",
  "id": 934867496,
  "lat": 43.6026326,
  "lon": 1.4325537
},
{
  "type": "node",
  "id": 1154529103,
  "lat": 43.6029910,
  "lon": 1.4326110
},
{
  "type": "node",
  "id": 1348555924,
  "lat": 43.6039760,
  "lon": 1.4320288
},
{
  "type": "node",
  "id": 1348555926,
  "lat": 43.6039824,
  "lon": 1.4321658
},
{
  "type": "node",
  "id": 1348555939,
  "lat": 43.6040797,
  "lon": 1.4316023
},
{
  "type": "node",
  "id": 1348555944,
  "lat": 43.6042056,
  "lon": 1.4322390
},
{
  "type": "node",
  "id": 1348555957,
  "lat": 43.6043167,
  "lon": 1.4311370
},
{
  "type": "node",
  "id": 1550277921,
  "lat": 43.6040894,
  "lon": 1.4321431
},
{
  "type": "node",
  "id": 2344691735,
  "lat": 43.6040120,
  "lon": 1.4321739
},
{
  "type": "node",
  "id": 2344691738,
  "lat": 43.6040574,
  "lon": 1.4317558
},
{
  "type": "node",
  "id": 2344691742,
  "lat": 43.6041350,
  "lon": 1.4322557
},
{
  "type": "node",
  "id": 4072383093,
  "lat": 43.6041929,
  "lon": 1.4321093
},
{
  "type": "node",
  "id": 4726784687,
  "lat": 43.6041800,
  "lon": 1.4321359
},
{
  "type": "node",
  "id": 4772596742,
  "lat": 43.6011031,
  "lon": 1.4299061
},
{
  "type": "node",
  "id": 4772596743,
  "lat": 43.6008371,
  "lon": 1.4292150
},
{
  "type": "node",
  "id": 4772596744,
  "lat": 43.6007321,
  "lon": 1.4292921
},
{
  "type": "node",
  "id": 4772596745,
  "lat": 43.6009981,
  "lon": 1.4299831
},
{
  "type": "node",
  "id": 5955756571,
  "lat": 43.6041537,
  "lon": 1.4316881
},
{
  "type": "node",
  "id": 5955756572,
  "lat": 43.6042184,
  "lon": 1.4315563
},
{
  "type": "node",
  "id": 5955756573,
  "lat": 43.6042998,
  "lon": 1.4314259
},
{
  "type": "node",
  "id": 5955756574,
  "lat": 43.6043389,
  "lon": 1.4313496
},
{
  "type": "node",
  "id": 5955756575,
  "lat": 43.6043723,
  "lon": 1.4312844
},
{
  "type": "node",
  "id": 5955756578,
  "lat": 43.6040439,
  "lon": 1.4317690
},
{
  "type": "node",
  "id": 5955756579,
  "lat": 43.6040523,
  "lon": 1.4317367
},
{
  "type": "node",
  "id": 5955756580,
  "lat": 43.6039900,
  "lon": 1.4321571
},
{
  "type": "node",
  "id": 5955756581,
  "lat": 43.6039794,
  "lon": 1.4321074
},
{
  "type": "node",
  "id": 5955756582,
  "lat": 43.6040720,
  "lon": 1.4317011
},
{
  "type": "node",
  "id": 5955756583,
  "lat": 43.6040627,
  "lon": 1.4316968
},
{
  "type": "node",
  "id": 5955756584,
  "lat": 43.6042849,
  "lon": 1.4311993
},
{
  "type": "node",
  "id": 5955757186,
  "lat": 43.6042516,
  "lon": 1.4312648
},
{
  "type": "node",
  "id": 5955757188,
  "lat": 43.6042127,
  "lon": 1.4313411
},
{
  "type": "node",
  "id": 5955757189,
  "lat": 43.6043830,
  "lon": 1.4315067
},
{
  "type": "node",
  "id": 5955757190,
  "lat": 43.6043617,
  "lon": 1.4317625
},
{
  "type": "node",
  "id": 5955757193,
  "lat": 43.6041417,
  "lon": 1.4314806
},
{
  "type": "node",
  "id": 5955757200,
  "lat": 43.6040784,
  "lon": 1.4316139
},
{
  "type": "node",
  "id": 5955757201,
  "lat": 43.6042974,
  "lon": 1.4318947
},
{
  "type": "node",
  "id": 5955757202,
  "lat": 43.6043039,
  "lon": 1.4322520
},
{
  "type": "node",
  "id": 5955757203,
  "lat": 43.6041574,
  "lon": 1.4321827
},
{
  "type": "node",
  "id": 5955757205,
  "lat": 43.6040696,
  "lon": 1.4316700
},
{
  "type": "node",
  "id": 5955757206,
  "lat": 43.6039686,
  "lon": 1.4320847
},
{
  "type": "node",
  "id": 5955757207,
  "lat": 43.6039700,
  "lon": 1.4320592
},
{
  "type": "node",
  "id": 5955757208,
  "lat": 43.6039737,
  "lon": 1.4321370
},
{
  "type": "node",
  "id": 5955757211,
  "lat": 43.6041325,
  "lon": 1.4317276
},
{
  "type": "node",
  "id": 5955757213,
  "lat": 43.6040486,
  "lon": 1.4317509
},
{
  "type": "node",
  "id": 5955757216,
  "lat": 43.6040738,
  "lon": 1.4317566
},
{
  "type": "node",
  "id": 5955757217,
  "lat": 43.6040009,
  "lon": 1.4320723
},
{
  "type": "node",
  "id": 5955757219,
  "lat": 43.6039807,
  "lon": 1.4320555
},
{
  "type": "node",
  "id": 5955757220,
  "lat": 43.6040035,
  "lon": 1.4321125
},
{
  "type": "node",
  "id": 5955757226,
  "lat": 43.6040162,
  "lon": 1.4321585
},
{
  "type": "node",
  "id": 5955757227,
  "lat": 43.6040069,
  "lon": 1.4321326
},
{
  "type": "node",
  "id": 5955757228,
  "lat": 43.6040004,
  "lon": 1.4320917
},
{
  "type": "node",
  "id": 5955757229,
  "lat": 43.6040057,
  "lon": 1.4320472
},
{
  "type": "node",
  "id": 5955757230,
  "lat": 43.6040766,
  "lon": 1.4317880
},
{
  "type": "node",
  "id": 5955757231,
  "lat": 43.6040783,
  "lon": 1.4317685
},
{
  "type": "node",
  "id": 5955757232,
  "lat": 43.6040681,
  "lon": 1.4317456
},
{
  "type": "node",
  "id": 5955757233,
  "lat": 43.6040612,
  "lon": 1.4317417
},
{
  "type": "node",
  "id": 5955757234,
  "lat": 43.6040528,
  "lon": 1.4317730
},
{
  "type": "node",
  "id": 5955757235,
  "lat": 43.6039856,
  "lon": 1.4320317
},
{
  "type": "node",
  "id": 5955757236,
  "lat": 43.6039781,
  "lon": 1.4320813
},
{
  "type": "node",
  "id": 5955757237,
  "lat": 43.6039829,
  "lon": 1.4321303
},
{
  "type": "node",
  "id": 5955757238,
  "lat": 43.6040058,
  "lon": 1.4321947
},
{
  "type": "node",
  "id": 5955757239,
  "lat": 43.6043701,
  "lon": 1.4321839
},
{
  "type": "node",
  "id": 5955757240,
  "lat": 43.6043201,
  "lon": 1.4321558
},
{
  "type": "node",
  "id": 5955757242,
  "lat": 43.6039693,
  "lon": 1.4321088
},
{
  "type": "node",
  "id": 5955757244,
  "lat": 43.6043086,
  "lon": 1.4322175
},
{
  "type": "node",
  "id": 5955757245,
  "lat": 43.6043379,
  "lon": 1.4322326
},
{
  "type": "node",
  "id": 5955773424,
  "lat": 43.6043847,
  "lon": 1.4317008
},
{
  "type": "node",
  "id": 5955773425,
  "lat": 43.6041536,
  "lon": 1.4321668
},
{
  "type": "node",
  "id": 5955773426,
  "lat": 43.6043197,
  "lon": 1.4322406
},
{
  "type": "node",
  "id": 5955826168,
  "lat": 43.6041754,
  "lon": 1.4319710
},
{
  "type": "node",
  "id": 6032068713,
  "lat": 43.6007844,
  "lon": 1.4292537
},
{
  "type": "node",
  "id": 409759840,
  "lat": 43.6033111,
  "lon": 1.4397563
},
{
  "type": "node",
  "id": 409759841,
  "lat": 43.6034050,
  "lon": 1.4405895
},
{
  "type": "node",
  "id": 409759843,
  "lat": 43.6035074,
  "lon": 1.4407252
},
{
  "type": "node",
  "id": 409759845,
  "lat": 43.6035928,
  "lon": 1.4407549
},
{
  "type": "node",
  "id": 409759852,
  "lat": 43.6036111,
  "lon": 1.4406060
},
{
  "type": "node",
  "id": 409759856,
  "lat": 43.6036536,
  "lon": 1.4404548
},
{
  "type": "node",
  "id": 409759857,
  "lat": 43.6036677,
  "lon": 1.4403784
},
{
  "type": "node",
  "id": 409759858,
  "lat": 43.6037203,
  "lon": 1.4404159
},
{
  "type": "node",
  "id": 409759859,
  "lat": 43.6037494,
  "lon": 1.4404111
},
{
  "type": "node",
  "id": 409759860,
  "lat": 43.6037616,
  "lon": 1.4403543
},
{
  "type": "node",
  "id": 409759861,
  "lat": 43.6038018,
  "lon": 1.4403591
},
{
  "type": "node",
  "id": 409759862,
  "lat": 43.6038178,
  "lon": 1.4403441
},
{
  "type": "node",
  "id": 409759863,
  "lat": 43.6038184,
  "lon": 1.4402959
},
{
  "type": "node",
  "id": 409759864,
  "lat": 43.6038719,
  "lon": 1.4402832
},
{
  "type": "node",
  "id": 409759865,
  "lat": 43.6038782,
  "lon": 1.4403592
},
{
  "type": "node",
  "id": 409759866,
  "lat": 43.6039091,
  "lon": 1.4403881
},
{
  "type": "node",
  "id": 409759867,
  "lat": 43.6039535,
  "lon": 1.4403762
},
{
  "type": "node",
  "id": 409759869,
  "lat": 43.6039917,
  "lon": 1.4403033
},
{
  "type": "node",
  "id": 409759870,
  "lat": 43.6039828,
  "lon": 1.4402594
},
{
  "type": "node",
  "id": 409759871,
  "lat": 43.6039541,
  "lon": 1.4402552
},
{
  "type": "node",
  "id": 409759872,
  "lat": 43.6039278,
  "lon": 1.4400793
},
{
  "type": "node",
  "id": 409759873,
  "lat": 43.6036015,
  "lon": 1.4401472
},
{
  "type": "node",
  "id": 409759874,
  "lat": 43.6035886,
  "lon": 1.4400410
},
{
  "type": "node",
  "id": 409759875,
  "lat": 43.6035720,
  "lon": 1.4400414
},
{
  "type": "node",
  "id": 473805804,
  "lat": 43.6002623,
  "lon": 1.4417779
},
{
  "type": "node",
  "id": 486076836,
  "lat": 43.6039624,
  "lon": 1.4402567
},
{
  "type": "node",
  "id": 486076838,
  "lat": 43.6039645,
  "lon": 1.4402654
},
{
  "type": "node",
  "id": 486076841,
  "lat": 43.6039714,
  "lon": 1.4403371
},
{
  "type": "node",
  "id": 486076844,
  "lat": 43.6039631,
  "lon": 1.4403325
},
{
  "type": "node",
  "id": 486076846,
  "lat": 43.6039492,
  "lon": 1.4403563
},
{
  "type": "node",
  "id": 486076847,
  "lat": 43.6039583,
  "lon": 1.4403708
},
{
  "type": "node",
  "id": 486076848,
  "lat": 43.6039441,
  "lon": 1.4403639
},
{
  "type": "node",
  "id": 486076851,
  "lat": 43.6039118,
  "lon": 1.4403727
},
{
  "type": "node",
  "id": 486076853,
  "lat": 43.6039022,
  "lon": 1.4403879
},
{
  "type": "node",
  "id": 486076855,
  "lat": 43.6039023,
  "lon": 1.4403708
},
{
  "type": "node",
  "id": 486076857,
  "lat": 43.6038872,
  "lon": 1.4403498
},
{
  "type": "node",
  "id": 486076860,
  "lat": 43.6038734,
  "lon": 1.4403517
},
{
  "type": "node",
  "id": 486076861,
  "lat": 43.6038825,
  "lon": 1.4403393
},
{
  "type": "node",
  "id": 486076864,
  "lat": 43.6038308,
  "lon": 1.4403102
},
{
  "type": "node",
  "id": 486076866,
  "lat": 43.6038318,
  "lon": 1.4403178
},
{
  "type": "node",
  "id": 486076869,
  "lat": 43.6038190,
  "lon": 1.4403222
},
{
  "type": "node",
  "id": 486076871,
  "lat": 43.6038198,
  "lon": 1.4403109
},
{
  "type": "node",
  "id": 486076874,
  "lat": 43.6038331,
  "lon": 1.4403449
},
{
  "type": "node",
  "id": 486076876,
  "lat": 43.6038086,
  "lon": 1.4403547
},
{
  "type": "node",
  "id": 486076877,
  "lat": 43.6038124,
  "lon": 1.4403733
},
{
  "type": "node",
  "id": 486076879,
  "lat": 43.6038062,
  "lon": 1.4403756
},
{
  "type": "node",
  "id": 486076882,
  "lat": 43.6037868,
  "lon": 1.4403623
},
{
  "type": "node",
  "id": 486076884,
  "lat": 43.6037837,
  "lon": 1.4403802
},
{
  "type": "node",
  "id": 486076886,
  "lat": 43.6037779,
  "lon": 1.4403786
},
{
  "type": "node",
  "id": 486076888,
  "lat": 43.6037796,
  "lon": 1.4403614
},
{
  "type": "node",
  "id": 486076889,
  "lat": 43.6037482,
  "lon": 1.4403875
},
{
  "type": "node",
  "id": 486076890,
  "lat": 43.6037555,
  "lon": 1.4404072
},
{
  "type": "node",
  "id": 486076894,
  "lat": 43.6037421,
  "lon": 1.4403937
},
{
  "type": "node",
  "id": 486076896,
  "lat": 43.6037202,
  "lon": 1.4403981
},
{
  "type": "node",
  "id": 486076898,
  "lat": 43.6037122,
  "lon": 1.4404161
},
{
  "type": "node",
  "id": 486076900,
  "lat": 43.6037118,
  "lon": 1.4403954
},
{
  "type": "node",
  "id": 486076927,
  "lat": 43.6036909,
  "lon": 1.4403771
},
{
  "type": "node",
  "id": 486076930,
  "lat": 43.6036860,
  "lon": 1.4403847
},
{
  "type": "node",
  "id": 486076932,
  "lat": 43.6036812,
  "lon": 1.4403797
},
{
  "type": "node",
  "id": 486076935,
  "lat": 43.6036838,
  "lon": 1.4403727
},
{
  "type": "node",
  "id": 486076936,
  "lat": 43.6036724,
  "lon": 1.4404166
},
{
  "type": "node",
  "id": 486076938,
  "lat": 43.6036425,
  "lon": 1.4404575
},
{
  "type": "node",
  "id": 486076942,
  "lat": 43.6036417,
  "lon": 1.4405155
},
{
  "type": "node",
  "id": 486076946,
  "lat": 43.6036400,
  "lon": 1.4405333
},
{
  "type": "node",
  "id": 486076984,
  "lat": 43.6035877,
  "lon": 1.4407077
},
{
  "type": "node",
  "id": 486076987,
  "lat": 43.6038184,
  "lon": 1.4403313
},
{
  "type": "node",
  "id": 486076991,
  "lat": 43.6038288,
  "lon": 1.4403530
},
{
  "type": "node",
  "id": 486076999,
  "lat": 43.6034928,
  "lon": 1.4407275
},
{
  "type": "node",
  "id": 486077008,
  "lat": 43.6034718,
  "lon": 1.4407415
},
{
  "type": "node",
  "id": 486077017,
  "lat": 43.6034633,
  "lon": 1.4407414
},
{
  "type": "node",
  "id": 486077022,
  "lat": 43.6034517,
  "lon": 1.4407318
},
{
  "type": "node",
  "id": 486077024,
  "lat": 43.6034428,
  "lon": 1.4407439
},
{
  "type": "node",
  "id": 486077025,
  "lat": 43.6034367,
  "lon": 1.4407355
},
{
  "type": "node",
  "id": 486077026,
  "lat": 43.6034441,
  "lon": 1.4407249
},
{
  "type": "node",
  "id": 486077029,
  "lat": 43.6034307,
  "lon": 1.4407067
},
{
  "type": "node",
  "id": 486077031,
  "lat": 43.6034230,
  "lon": 1.4407116
},
{
  "type": "node",
  "id": 486077033,
  "lat": 43.6034181,
  "lon": 1.4405835
},
{
  "type": "node",
  "id": 486077036,
  "lat": 43.6034428,
  "lon": 1.4406463
},
{
  "type": "node",
  "id": 486077038,
  "lat": 43.6034269,
  "lon": 1.4406958
},
{
  "type": "node",
  "id": 486077039,
  "lat": 43.6034183,
  "lon": 1.4406983
},
{
  "type": "node",
  "id": 486077040,
  "lat": 43.6034219,
  "lon": 1.4397203
},
{
  "type": "node",
  "id": 486077048,
  "lat": 43.6033196,
  "lon": 1.4397449
},
{
  "type": "node",
  "id": 486077050,
  "lat": 43.6033308,
  "lon": 1.4397360
},
{
  "type": "node",
  "id": 486077052,
  "lat": 43.6033527,
  "lon": 1.4397370
},
{
  "type": "node",
  "id": 486077053,
  "lat": 43.6034214,
  "lon": 1.4397048
},
{
  "type": "node",
  "id": 486077055,
  "lat": 43.6034291,
  "lon": 1.4396931
},
{
  "type": "node",
  "id": 486077057,
  "lat": 43.6034391,
  "lon": 1.4396925
},
{
  "type": "node",
  "id": 486077063,
  "lat": 43.6034443,
  "lon": 1.4397214
},
{
  "type": "node",
  "id": 486077064,
  "lat": 43.6035154,
  "lon": 1.4397072
},
{
  "type": "node",
  "id": 486077065,
  "lat": 43.6035155,
  "lon": 1.4396942
},
{
  "type": "node",
  "id": 486077067,
  "lat": 43.6035339,
  "lon": 1.4396913
},
{
  "type": "node",
  "id": 596085658,
  "lat": 43.6002734,
  "lon": 1.4417843
},
{
  "type": "node",
  "id": 767926420,
  "lat": 43.5986682,
  "lon": 1.4370421
},
{
  "type": "node",
  "id": 767930557,
  "lat": 43.5987406,
  "lon": 1.4370330
},
{
  "type": "node",
  "id": 767930558,
  "lat": 43.5987679,
  "lon": 1.4369980
},
{
  "type": "node",
  "id": 767930559,
  "lat": 43.5987768,
  "lon": 1.4369752
},
{
  "type": "node",
  "id": 767930560,
  "lat": 43.5987798,
  "lon": 1.4368989
},
{
  "type": "node",
  "id": 767930561,
  "lat": 43.5987622,
  "lon": 1.4368536
},
{
  "type": "node",
  "id": 767930562,
  "lat": 43.5987324,
  "lon": 1.4368228
},
{
  "type": "node",
  "id": 767930563,
  "lat": 43.5987003,
  "lon": 1.4368126
},
{
  "type": "node",
  "id": 767930564,
  "lat": 43.5986859,
  "lon": 1.4368135
},
{
  "type": "node",
  "id": 767930565,
  "lat": 43.5986719,
  "lon": 1.4368178
},
{
  "type": "node",
  "id": 767930566,
  "lat": 43.5986464,
  "lon": 1.4368356
},
{
  "type": "node",
  "id": 767930567,
  "lat": 43.5986265,
  "lon": 1.4368640
},
{
  "type": "node",
  "id": 767930568,
  "lat": 43.5986146,
  "lon": 1.4368999
},
{
  "type": "node",
  "id": 767930569,
  "lat": 43.5986120,
  "lon": 1.4369193
},
{
  "type": "node",
  "id": 767930570,
  "lat": 43.5986140,
  "lon": 1.4369587
},
{
  "type": "node",
  "id": 767930571,
  "lat": 43.5986252,
  "lon": 1.4369950
},
{
  "type": "node",
  "id": 767930572,
  "lat": 43.5986515,
  "lon": 1.4370309
},
{
  "type": "node",
  "id": 767930574,
  "lat": 43.5987051,
  "lon": 1.4370488
},
{
  "type": "node",
  "id": 767930575,
  "lat": 43.5987235,
  "lon": 1.4370436
},
{
  "type": "node",
  "id": 767930584,
  "lat": 43.5987145,
  "lon": 1.4368149
},
{
  "type": "node",
  "id": 768860134,
  "lat": 43.5987819,
  "lon": 1.4369503
},
{
  "type": "node",
  "id": 1264199403,
  "lat": 43.6036277,
  "lon": 1.4403543
},
{
  "type": "node",
  "id": 1264199422,
  "lat": 43.6038331,
  "lon": 1.4403493
},
{
  "type": "node",
  "id": 1264199430,
  "lat": 43.6035972,
  "lon": 1.4404380
},
{
  "type": "node",
  "id": 1264199445,
  "lat": 43.6035337,
  "lon": 1.4397109
},
{
  "type": "node",
  "id": 1264199446,
  "lat": 43.6035943,
  "lon": 1.4400865
},
{
  "type": "node",
  "id": 1264199448,
  "lat": 43.6038800,
  "lon": 1.4395690
},
{
  "type": "node",
  "id": 1264199474,
  "lat": 43.6035910,
  "lon": 1.4403959
},
{
  "type": "node",
  "id": 1264199476,
  "lat": 43.6035318,
  "lon": 1.4396513
},
{
  "type": "node",
  "id": 1264199493,
  "lat": 43.6036233,
  "lon": 1.4404623
},
{
  "type": "node",
  "id": 1264199494,
  "lat": 43.6035365,
  "lon": 1.4397084
},
{
  "type": "node",
  "id": 1264199498,
  "lat": 43.6036069,
  "lon": 1.4403609
},
{
  "type": "node",
  "id": 1551156703,
  "lat": 43.6039291,
  "lon": 1.4399526
},
{
  "type": "node",
  "id": 1551156708,
  "lat": 43.6039341,
  "lon": 1.4399968
},
{
  "type": "node",
  "id": 1551156718,
  "lat": 43.6039422,
  "lon": 1.4400739
},
{
  "type": "node",
  "id": 1657714976,
  "lat": 43.6035141,
  "lon": 1.4407769
},
{
  "type": "node",
  "id": 1657720310,
  "lat": 43.6034970,
  "lon": 1.4407184
},
{
  "type": "node",
  "id": 1657720324,
  "lat": 43.6036296,
  "lon": 1.4407196
},
{
  "type": "node",
  "id": 1657720326,
  "lat": 43.6036013,
  "lon": 1.4407185
},
{
  "type": "node",
  "id": 1657720328,
  "lat": 43.6036475,
  "lon": 1.4406440
},
{
  "type": "node",
  "id": 1657720332,
  "lat": 43.6036252,
  "lon": 1.4407064
},
{
  "type": "node",
  "id": 1657720335,
  "lat": 43.6036020,
  "lon": 1.4407041
},
{
  "type": "node",
  "id": 1657720338,
  "lat": 43.6036387,
  "lon": 1.4407167
},
{
  "type": "node",
  "id": 1657720341,
  "lat": 43.6036316,
  "lon": 1.4407021
},
{
  "type": "node",
  "id": 1657720343,
  "lat": 43.6036441,
  "lon": 1.4406812
},
{
  "type": "node",
  "id": 1657720345,
  "lat": 43.6036541,
  "lon": 1.4406331
},
{
  "type": "node",
  "id": 1657720347,
  "lat": 43.6035946,
  "lon": 1.4406995
},
{
  "type": "node",
  "id": 1657720364,
  "lat": 43.6036583,
  "lon": 1.4406394
},
{
  "type": "node",
  "id": 1657720370,
  "lat": 43.6036091,
  "lon": 1.4407232
},
{
  "type": "node",
  "id": 1657720374,
  "lat": 43.6036563,
  "lon": 1.4406846
},
{
  "type": "node",
  "id": 1657720377,
  "lat": 43.6036427,
  "lon": 1.4406378
},
{
  "type": "node",
  "id": 1657720380,
  "lat": 43.6036123,
  "lon": 1.4407058
},
{
  "type": "node",
  "id": 1657720383,
  "lat": 43.6036595,
  "lon": 1.4406755
},
{
  "type": "node",
  "id": 1657720386,
  "lat": 43.6036495,
  "lon": 1.4406713
},
{
  "type": "node",
  "id": 1669115939,
  "lat": 43.6034639,
  "lon": 1.4407565
},
{
  "type": "node",
  "id": 1669115942,
  "lat": 43.6034715,
  "lon": 1.4407554
},
{
  "type": "node",
  "id": 1669115946,
  "lat": 43.6034863,
  "lon": 1.4407324
},
{
  "type": "node",
  "id": 1669115949,
  "lat": 43.6034933,
  "lon": 1.4407455
},
{
  "type": "node",
  "id": 1669115953,
  "lat": 43.6034990,
  "lon": 1.4407409
},
{
  "type": "node",
  "id": 1669115956,
  "lat": 43.6036450,
  "lon": 1.4405324
},
{
  "type": "node",
  "id": 1669115959,
  "lat": 43.6036456,
  "lon": 1.4405181
},
{
  "type": "node",
  "id": 4761717190,
  "lat": 43.5987485,
  "lon": 1.4368359
},
{
  "type": "node",
  "id": 4761717191,
  "lat": 43.5986586,
  "lon": 1.4368252
},
{
  "type": "node",
  "id": 4761717192,
  "lat": 43.5986356,
  "lon": 1.4368487
},
{
  "type": "node",
  "id": 4761717193,
  "lat": 43.5986195,
  "lon": 1.4368812
},
{
  "type": "node",
  "id": 4761717194,
  "lat": 43.5986118,
  "lon": 1.4369392
},
{
  "type": "node",
  "id": 4761717195,
  "lat": 43.5986185,
  "lon": 1.4369775
},
{
  "type": "node",
  "id": 4761717196,
  "lat": 43.5986369,
  "lon": 1.4370150
},
{
  "type": "node",
  "id": 4761717197,
  "lat": 43.5986864,
  "lon": 1.4370483
},
{
  "type": "node",
  "id": 4761717198,
  "lat": 43.5987557,
  "lon": 1.4370176
},
{
  "type": "node",
  "id": 4761717199,
  "lat": 43.5987829,
  "lon": 1.4369245
},
{
  "type": "node",
  "id": 4761717200,
  "lat": 43.5987728,
  "lon": 1.4368749
},
{
  "type": "node",
  "id": 5722852367,
  "lat": 43.6033438,
  "lon": 1.4400461
},
{
  "type": "node",
  "id": 627828924,
  "lat": 43.6044915,
  "lon": 1.4324990
},
{
  "type": "node",
  "id": 769907098,
  "lat": 43.6045010,
  "lon": 1.4322720
},
{
  "type": "node",
  "id": 769907101,
  "lat": 43.6044596,
  "lon": 1.4316553
},
{
  "type": "node",
  "id": 769907102,
  "lat": 43.6045528,
  "lon": 1.4315086
},
{
  "type": "node",
  "id": 769907105,
  "lat": 43.6046954,
  "lon": 1.4322340
},
{
  "type": "node",
  "id": 769907109,
  "lat": 43.6045243,
  "lon": 1.4321205
},
{
  "type": "node",
  "id": 769907122,
  "lat": 43.6045965,
  "lon": 1.4320810
},
{
  "type": "node",
  "id": 769907142,
  "lat": 43.6044560,
  "lon": 1.4322418
},
{
  "type": "node",
  "id": 769907148,
  "lat": 43.6045200,
  "lon": 1.4313927
},
{
  "type": "node",
  "id": 769907150,
  "lat": 43.6046979,
  "lon": 1.4322124
},
{
  "type": "node",
  "id": 769907155,
  "lat": 43.6045583,
  "lon": 1.4321065
},
{
  "type": "node",
  "id": 769907168,
  "lat": 43.6045976,
  "lon": 1.4320258
},
{
  "type": "node",
  "id": 769907169,
  "lat": 43.6044712,
  "lon": 1.4324526
},
{
  "type": "node",
  "id": 769907176,
  "lat": 43.6045351,
  "lon": 1.4322633
},
{
  "type": "node",
  "id": 769907190,
  "lat": 43.6044345,
  "lon": 1.4323080
},
{
  "type": "node",
  "id": 769907195,
  "lat": 43.6044795,
  "lon": 1.4313235
},
{
  "type": "node",
  "id": 769907199,
  "lat": 43.6046947,
  "lon": 1.4321796
},
{
  "type": "node",
  "id": 769907202,
  "lat": 43.6045736,
  "lon": 1.4320640
},
{
  "type": "node",
  "id": 769907210,
  "lat": 43.6043955,
  "lon": 1.4312391
},
{
  "type": "node",
  "id": 769907215,
  "lat": 43.6045146,
  "lon": 1.4323230
},
{
  "type": "node",
  "id": 769907219,
  "lat": 43.6043915,
  "lon": 1.4317044
},
{
  "type": "node",
  "id": 769907220,
  "lat": 43.6045898,
  "lon": 1.4318565
},
{
  "type": "node",
  "id": 769907221,
  "lat": 43.6044862,
  "lon": 1.4324081
},
{
  "type": "node",
  "id": 769907223,
  "lat": 43.6045904,
  "lon": 1.4324711
},
{
  "type": "node",
  "id": 769907248,
  "lat": 43.6046769,
  "lon": 1.4321561
},
{
  "type": "node",
  "id": 769907266,
  "lat": 43.6044890,
  "lon": 1.4323063
},
{
  "type": "node",
  "id": 769907270,
  "lat": 43.6044201,
  "lon": 1.4317304
},
{
  "type": "node",
  "id": 769907271,
  "lat": 43.6045846,
  "lon": 1.4317720
},
{
  "type": "node",
  "id": 769907274,
  "lat": 43.6046866,
  "lon": 1.4322607
},
{
  "type": "node",
  "id": 769907277,
  "lat": 43.6044315,
  "lon": 1.4320536
},
{
  "type": "node",
  "id": 917452708,
  "lat": 43.6046517,
  "lon": 1.4323387
},
{
  "type": "node",
  "id": 1348555987,
  "lat": 43.6044836,
  "lon": 1.4325018
},
{
  "type": "node",
  "id": 1348555988,
  "lat": 43.6045578,
  "lon": 1.4324803
},
{
  "type": "node",
  "id": 5955757185,
  "lat": 43.6044568,
  "lon": 1.4313665
},
{
  "type": "node",
  "id": 5955757187,
  "lat": 43.6044227,
  "lon": 1.4314312
},
{
  "type": "node",
  "id": 5955757204,
  "lat": 43.6044913,
  "lon": 1.4323834
},
{
  "type": "node",
  "id": 5955757225,
  "lat": 43.6044032,
  "lon": 1.4312267
},
{
  "type": "node",
  "id": 5955773427,
  "lat": 43.6044981,
  "lon": 1.4323658
},
{
  "type": "node",
  "id": 6939419460,
  "lat": 43.6045992,
  "lon": 1.4324501
},
{
  "type": "node",
  "id": 6939419469,
  "lat": 43.6045275,
  "lon": 1.4324889
},
{
  "type": "node",
  "id": 2671542806,
  "lat": 43.6076937,
  "lon": 1.4409923
},
{
  "type": "node",
  "id": 2671543035,
  "lat": 43.6078026,
  "lon": 1.4408933
},
{
  "type": "node",
  "id": 2671543105,
  "lat": 43.6078593,
  "lon": 1.4413437
},
{
  "type": "node",
  "id": 2671543250,
  "lat": 43.6079674,
  "lon": 1.4412552
},
{
  "type": "node",
  "id": 90710562,
  "lat": 43.5925646,
  "lon": 1.4490435
},
{
  "type": "node",
  "id": 90710563,
  "lat": 43.5928485,
  "lon": 1.4494785
},
{
  "type": "node",
  "id": 90710564,
  "lat": 43.5928727,
  "lon": 1.4494518
},
{
  "type": "node",
  "id": 90710565,
  "lat": 43.5933108,
  "lon": 1.4502406
},
{
  "type": "node",
  "id": 247651734,
  "lat": 43.5933887,
  "lon": 1.4488594
},
{
  "type": "node",
  "id": 247651735,
  "lat": 43.5925922,
  "lon": 1.4488858
},
{
  "type": "node",
  "id": 247651740,
  "lat": 43.5938441,
  "lon": 1.4496633
},
{
  "type": "node",
  "id": 430452012,
  "lat": 43.5937158,
  "lon": 1.4491922
},
{
  "type": "node",
  "id": 430452015,
  "lat": 43.5935990,
  "lon": 1.4492320
},
{
  "type": "node",
  "id": 430452025,
  "lat": 43.5936880,
  "lon": 1.4491430
},
{
  "type": "node",
  "id": 430452030,
  "lat": 43.5926165,
  "lon": 1.4491539
},
{
  "type": "node",
  "id": 430452033,
  "lat": 43.5928117,
  "lon": 1.4495018
},
{
  "type": "node",
  "id": 1473478613,
  "lat": 43.5934290,
  "lon": 1.4489290
},
{
  "type": "node",
  "id": 1473478623,
  "lat": 43.5934920,
  "lon": 1.4490410
},
{
  "type": "node",
  "id": 1473478661,
  "lat": 43.5938400,
  "lon": 1.4490660
},
{
  "type": "node",
  "id": 1473478664,
  "lat": 43.5938655,
  "lon": 1.4491107
},
{
  "type": "node",
  "id": 1473478673,
  "lat": 43.5939811,
  "lon": 1.4493141
},
{
  "type": "node",
  "id": 1473478675,
  "lat": 43.5940118,
  "lon": 1.4493680
},
{
  "type": "node",
  "id": 1473478685,
  "lat": 43.5942020,
  "lon": 1.4491629
},
{
  "type": "node",
  "id": 1473478686,
  "lat": 43.5942334,
  "lon": 1.4492503
},
{
  "type": "node",
  "id": 1475047436,
  "lat": 43.5924884,
  "lon": 1.4489457
},
{
  "type": "node",
  "id": 1475047437,
  "lat": 43.5925471,
  "lon": 1.4490420
},
{
  "type": "node",
  "id": 1475047438,
  "lat": 43.5925569,
  "lon": 1.4488838
},
{
  "type": "node",
  "id": 1475047439,
  "lat": 43.5926278,
  "lon": 1.4491420
},
{
  "type": "node",
  "id": 1475047440,
  "lat": 43.5928426,
  "lon": 1.4494687
},
{
  "type": "node",
  "id": 1475047441,
  "lat": 43.5938481,
  "lon": 1.4496720
},
{
  "type": "node",
  "id": 6032065622,
  "lat": 43.5939872,
  "lon": 1.4495115
},
{
  "type": "node",
  "id": 788431776,
  "lat": 43.5910606,
  "lon": 1.4584131
},
{
  "type": "node",
  "id": 788431818,
  "lat": 43.5910494,
  "lon": 1.4584649
},
{
  "type": "node",
  "id": 788431866,
  "lat": 43.5911713,
  "lon": 1.4583819
},
{
  "type": "node",
  "id": 788432297,
  "lat": 43.5910028,
  "lon": 1.4583850
},
{
  "type": "node",
  "id": 788432791,
  "lat": 43.5911203,
  "lon": 1.4585868
},
{
  "type": "node",
  "id": 788433358,
  "lat": 43.5911616,
  "lon": 1.4586087
},
{
  "type": "node",
  "id": 788435018,
  "lat": 43.5911237,
  "lon": 1.4585714
},
{
  "type": "node",
  "id": 788435760,
  "lat": 43.5910687,
  "lon": 1.4585432
},
{
  "type": "node",
  "id": 788436441,
  "lat": 43.5911687,
  "lon": 1.4583940
},
{
  "type": "node",
  "id": 788438097,
  "lat": 43.5910448,
  "lon": 1.4584606
},
{
  "type": "node",
  "id": 788438166,
  "lat": 43.5911145,
  "lon": 1.4583548
},
{
  "type": "node",
  "id": 788439240,
  "lat": 43.5911128,
  "lon": 1.4583647
},
{
  "type": "node",
  "id": 788439369,
  "lat": 43.5910625,
  "lon": 1.4585598
},
{
  "type": "node",
  "id": 788442066,
  "lat": 43.5910805,
  "lon": 1.4583371
},
{
  "type": "node",
  "id": 788443341,
  "lat": 43.5912144,
  "lon": 1.4584049
},
{
  "type": "node",
  "id": 788444002,
  "lat": 43.5909898,
  "lon": 1.4584346
},
{
  "type": "node",
  "id": 788444515,
  "lat": 43.5910286,
  "lon": 1.4585431
},
{
  "type": "node",
  "id": 243668634,
  "lat": 43.6005597,
  "lon": 1.4457706
},
{
  "type": "node",
  "id": 243668635,
  "lat": 43.6014181,
  "lon": 1.4457665
},
{
  "type": "node",
  "id": 243668636,
  "lat": 43.6014923,
  "lon": 1.4468605
},
{
  "type": "node",
  "id": 243668637,
  "lat": 43.6006330,
  "lon": 1.4468789
},
{
  "type": "node",
  "id": 426691205,
  "lat": 43.6014346,
  "lon": 1.4460286
},
{
  "type": "node",
  "id": 426691208,
  "lat": 43.6005737,
  "lon": 1.4460281
},
{
  "type": "node",
  "id": 426691210,
  "lat": 43.6006047,
  "lon": 1.4460266
},
{
  "type": "node",
  "id": 426691213,
  "lat": 43.6006833,
  "lon": 1.4469300
},
{
  "type": "node",
  "id": 426691237,
  "lat": 43.6013105,
  "lon": 1.4468817
},
{
  "type": "node",
  "id": 473805753,
  "lat": 43.6001192,
  "lon": 1.4421777
},
{
  "type": "node",
  "id": 473805757,
  "lat": 43.6003699,
  "lon": 1.4422169
},
{
  "type": "node",
  "id": 473805762,
  "lat": 43.6004809,
  "lon": 1.4422347
},
{
  "type": "node",
  "id": 473805766,
  "lat": 43.6004801,
  "lon": 1.4422582
},
{
  "type": "node",
  "id": 473805767,
  "lat": 43.6004857,
  "lon": 1.4422654
},
{
  "type": "node",
  "id": 473805770,
  "lat": 43.6004920,
  "lon": 1.4422653
},
{
  "type": "node",
  "id": 473805782,
  "lat": 43.6004977,
  "lon": 1.4422559
},
{
  "type": "node",
  "id": 473805783,
  "lat": 43.6004971,
  "lon": 1.4422351
},
{
  "type": "node",
  "id": 473805786,
  "lat": 43.6005429,
  "lon": 1.4422337
},
{
  "type": "node",
  "id": 473805787,
  "lat": 43.6005384,
  "lon": 1.4422047
},
{
  "type": "node",
  "id": 473805790,
  "lat": 43.6004991,
  "lon": 1.4422077
},
{
  "type": "node",
  "id": 473805793,
  "lat": 43.6005182,
  "lon": 1.4418732
},
{
  "type": "node",
  "id": 473805795,
  "lat": 43.6006394,
  "lon": 1.4418847
},
{
  "type": "node",
  "id": 473805796,
  "lat": 43.6006434,
  "lon": 1.4418263
},
{
  "type": "node",
  "id": 473805798,
  "lat": 43.6004329,
  "lon": 1.4418028
},
{
  "type": "node",
  "id": 473805800,
  "lat": 43.6004304,
  "lon": 1.4418156
},
{
  "type": "node",
  "id": 473805802,
  "lat": 43.6003117,
  "lon": 1.4418060
},
{
  "type": "node",
  "id": 473805805,
  "lat": 43.6002644,
  "lon": 1.4419046
},
{
  "type": "node",
  "id": 473805807,
  "lat": 43.6003722,
  "lon": 1.4419151
},
{
  "type": "node",
  "id": 473805808,
  "lat": 43.6003723,
  "lon": 1.4419511
},
{
  "type": "node",
  "id": 473805810,
  "lat": 43.6004199,
  "lon": 1.4419596
},
{
  "type": "node",
  "id": 473805811,
  "lat": 43.6004056,
  "lon": 1.4422035
},
{
  "type": "node",
  "id": 473805813,
  "lat": 43.6001926,
  "lon": 1.4421740
},
{
  "type": "node",
  "id": 596085668,
  "lat": 43.6004720,
  "lon": 1.4418072
},
{
  "type": "node",
  "id": 596085674,
  "lat": 43.6006089,
  "lon": 1.4418225
},
{
  "type": "node",
  "id": 596085676,
  "lat": 43.6005439,
  "lon": 1.4418152
},
{
  "type": "node",
  "id": 596085773,
  "lat": 43.6002526,
  "lon": 1.4422024
},
{
  "type": "node",
  "id": 596085779,
  "lat": 43.6001803,
  "lon": 1.4420097
},
{
  "type": "node",
  "id": 596085797,
  "lat": 43.6003890,
  "lon": 1.4422200
},
{
  "type": "node",
  "id": 775318804,
  "lat": 43.6011029,
  "lon": 1.4457571
},
{
  "type": "node",
  "id": 775321864,
  "lat": 43.6006253,
  "lon": 1.4466509
},
{
  "type": "node",
  "id": 775321865,
  "lat": 43.6006131,
  "lon": 1.4462435
},
{
  "type": "node",
  "id": 1302757751,
  "lat": 43.6015116,
  "lon": 1.4468164
},
{
  "type": "node",
  "id": 1302757764,
  "lat": 43.6014394,
  "lon": 1.4460622
},
{
  "type": "node",
  "id": 1302757781,
  "lat": 43.6014638,
  "lon": 1.4463755
},
{
  "type": "node",
  "id": 1302757788,
  "lat": 43.6005717,
  "lon": 1.4460137
},
{
  "type": "node",
  "id": 1302757795,
  "lat": 43.6006433,
  "lon": 1.4469135
},
{
  "type": "node",
  "id": 1302757825,
  "lat": 43.6014947,
  "lon": 1.4468501
},
{
  "type": "node",
  "id": 1302757837,
  "lat": 43.6014544,
  "lon": 1.4462693
},
{
  "type": "node",
  "id": 1302757847,
  "lat": 43.6006506,
  "lon": 1.4469229
},
{
  "type": "node",
  "id": 1302757858,
  "lat": 43.6005670,
  "lon": 1.4460123
},
{
  "type": "node",
  "id": 1302757860,
  "lat": 43.6014117,
  "lon": 1.4457560
},
{
  "type": "node",
  "id": 1302757865,
  "lat": 43.6006645,
  "lon": 1.4469300
},
{
  "type": "node",
  "id": 1302757871,
  "lat": 43.6005803,
  "lon": 1.4457548
},
{
  "type": "node",
  "id": 1302757885,
  "lat": 43.6014182,
  "lon": 1.4458564
},
{
  "type": "node",
  "id": 1302757888,
  "lat": 43.6006370,
  "lon": 1.4469004
},
{
  "type": "node",
  "id": 1302757893,
  "lat": 43.6015118,
  "lon": 1.4468256
},
{
  "type": "node",
  "id": 1418508249,
  "lat": 43.6014202,
  "lon": 1.4459033
},
{
  "type": "node",
  "id": 1418508253,
  "lat": 43.6014241,
  "lon": 1.4459497
},
{
  "type": "node",
  "id": 1418508255,
  "lat": 43.6014911,
  "lon": 1.4466116
},
{
  "type": "node",
  "id": 1418514270,
  "lat": 43.6006442,
  "lon": 1.4457547
},
{
  "type": "node",
  "id": 1418514275,
  "lat": 43.6006449,
  "lon": 1.4457764
},
{
  "type": "node",
  "id": 1418514309,
  "lat": 43.6011020,
  "lon": 1.4457767
},
{
  "type": "node",
  "id": 1995607891,
  "lat": 43.6001439,
  "lon": 1.4421126
},
{
  "type": "node",
  "id": 2080169822,
  "lat": 43.6001899,
  "lon": 1.4421946
},
{
  "type": "node",
  "id": 2080218084,
  "lat": 43.6005633,
  "lon": 1.4458914
},
{
  "type": "node",
  "id": 2460954148,
  "lat": 43.6002011,
  "lon": 1.4421420
},
{
  "type": "node",
  "id": 5167541069,
  "lat": 43.6015124,
  "lon": 1.4468460
},
{
  "type": "node",
  "id": 1426950019,
  "lat": 43.4797820,
  "lon": 1.5931570
},
{
  "type": "node",
  "id": 1426950029,
  "lat": 43.4798270,
  "lon": 1.5931970
},
{
  "type": "node",
  "id": 1426950032,
  "lat": 43.4798610,
  "lon": 1.5929890
},
{
  "type": "node",
  "id": 1426950040,
  "lat": 43.4799060,
  "lon": 1.5930280
},
{
  "type": "node",
  "id": 5803912101,
  "lat": 43.5725153,
  "lon": 1.4786611
},
{
  "type": "node",
  "id": 5803912104,
  "lat": 43.5731868,
  "lon": 1.4778296
},
{
  "type": "node",
  "id": 5803912106,
  "lat": 43.5733196,
  "lon": 1.4780038
},
{
  "type": "node",
  "id": 5803912107,
  "lat": 43.5725059,
  "lon": 1.4786727
},
{
  "type": "node",
  "id": 5803912112,
  "lat": 43.5722121,
  "lon": 1.4781978
},
{
  "type": "node",
  "id": 5803912114,
  "lat": 43.5726283,
  "lon": 1.4788597
},
{
  "type": "node",
  "id": 5803912115,
  "lat": 43.5731968,
  "lon": 1.4778173
},
{
  "type": "node",
  "id": 5803912118,
  "lat": 43.5728837,
  "lon": 1.4773664
},
{
  "type": "node",
  "id": 5803912265,
  "lat": 43.5738669,
  "lon": 1.4775437
},
{
  "type": "node",
  "id": 5803912266,
  "lat": 43.5746162,
  "lon": 1.4769378
},
{
  "type": "node",
  "id": 5803912267,
  "lat": 43.5736691,
  "lon": 1.4775903
},
{
  "type": "node",
  "id": 5803912268,
  "lat": 43.5740540,
  "lon": 1.4771418
},
{
  "type": "node",
  "id": 5803912269,
  "lat": 43.5743482,
  "lon": 1.4773602
},
{
  "type": "node",
  "id": 5803912270,
  "lat": 43.5740478,
  "lon": 1.4778324
},
{
  "type": "node",
  "id": 5803912271,
  "lat": 43.5740657,
  "lon": 1.4771148
},
{
  "type": "node",
  "id": 5803912272,
  "lat": 43.5739281,
  "lon": 1.4772314
},
{
  "type": "node",
  "id": 5803912273,
  "lat": 43.5738188,
  "lon": 1.4774712
},
{
  "type": "node",
  "id": 5803912274,
  "lat": 43.5745955,
  "lon": 1.4769704
},
{
  "type": "node",
  "id": 5803912275,
  "lat": 43.5737358,
  "lon": 1.4776469
},
{
  "type": "node",
  "id": 5803912276,
  "lat": 43.5740375,
  "lon": 1.4771720
},
{
  "type": "node",
  "id": 5803912277,
  "lat": 43.5737640,
  "lon": 1.4775847
},
{
  "type": "node",
  "id": 5803912278,
  "lat": 43.5740995,
  "lon": 1.4777222
},
{
  "type": "node",
  "id": 5803912279,
  "lat": 43.5739125,
  "lon": 1.4770627
},
{
  "type": "node",
  "id": 5803912280,
  "lat": 43.5738768,
  "lon": 1.4775226
},
{
  "type": "node",
  "id": 5803912281,
  "lat": 43.5740499,
  "lon": 1.4767932
},
{
  "type": "node",
  "id": 5803912282,
  "lat": 43.5741749,
  "lon": 1.4765532
},
{
  "type": "node",
  "id": 5803912283,
  "lat": 43.5740242,
  "lon": 1.4769357
},
{
  "type": "node",
  "id": 5803912284,
  "lat": 43.5740530,
  "lon": 1.4769608
},
{
  "type": "node",
  "id": 5803912285,
  "lat": 43.5743336,
  "lon": 1.4773852
},
{
  "type": "node",
  "id": 5803912286,
  "lat": 43.5740817,
  "lon": 1.4768274
},
{
  "type": "node",
  "id": 5803912287,
  "lat": 43.5739852,
  "lon": 1.4772851
},
{
  "type": "node",
  "id": 5803912288,
  "lat": 43.5741934,
  "lon": 1.4765179
},
{
  "type": "node",
  "id": 5803912289,
  "lat": 43.5740539,
  "lon": 1.4776816
},
{
  "type": "node",
  "id": 5803912290,
  "lat": 43.5740446,
  "lon": 1.4777014
},
{
  "type": "node",
  "id": 5803912291,
  "lat": 43.5740061,
  "lon": 1.4770631
},
{
  "type": "node",
  "id": 269199778,
  "lat": 43.6562060,
  "lon": 1.3595100
},
{
  "type": "node",
  "id": 3842636458,
  "lat": 43.6567844,
  "lon": 1.3599297
},
{
  "type": "node",
  "id": 3842654158,
  "lat": 43.6566413,
  "lon": 1.3590779
},
{
  "type": "node",
  "id": 2153612003,
  "lat": 43.6568363,
  "lon": 1.3589142
},
{
  "type": "node",
  "id": 2153612006,
  "lat": 43.6579486,
  "lon": 1.3586759
},
{
  "type": "node",
  "id": 2153612007,
  "lat": 43.6572087,
  "lon": 1.3587536
},
{
  "type": "node",
  "id": 2153612008,
  "lat": 43.6568389,
  "lon": 1.3600266
},
{
  "type": "node",
  "id": 2701722465,
  "lat": 43.6596982,
  "lon": 1.3608626
},
{
  "type": "node",
  "id": 2701722482,
  "lat": 43.6599446,
  "lon": 1.3600148
},
{
  "type": "node",
  "id": 2701722499,
  "lat": 43.6598890,
  "lon": 1.3609404
},
{
  "type": "node",
  "id": 2701722535,
  "lat": 43.6601784,
  "lon": 1.3609975
},
{
  "type": "node",
  "id": 2701722548,
  "lat": 43.6602740,
  "lon": 1.3601250
},
{
  "type": "node",
  "id": 2701722573,
  "lat": 43.6604817,
  "lon": 1.3600775
},
{
  "type": "node",
  "id": 2701722593,
  "lat": 43.6605566,
  "lon": 1.3609544
},
{
  "type": "node",
  "id": 2701722606,
  "lat": 43.6606082,
  "lon": 1.3600085
},
{
  "type": "node",
  "id": 2701722620,
  "lat": 43.6609000,
  "lon": 1.3607739
},
{
  "type": "node",
  "id": 3259551962,
  "lat": 43.6595887,
  "lon": 1.3593283
},
{
  "type": "node",
  "id": 3259552064,
  "lat": 43.6598388,
  "lon": 1.3599327
},
{
  "type": "node",
  "id": 3259552261,
  "lat": 43.6597454,
  "lon": 1.3592105
},
{
  "type": "node",
  "id": 3259552262,
  "lat": 43.6599881,
  "lon": 1.3597883
},
{
  "type": "node",
  "id": 3842632093,
  "lat": 43.6599817,
  "lon": 1.3600633
},
{
  "type": "node",
  "id": 3842632094,
  "lat": 43.6600966,
  "lon": 1.3600702
},
{
  "type": "node",
  "id": 3842632261,
  "lat": 43.6580076,
  "lon": 1.3593355
},
{
  "type": "node",
  "id": 3842632303,
  "lat": 43.6597013,
  "lon": 1.3592445
},
{
  "type": "node",
  "id": 3842632305,
  "lat": 43.6600944,
  "lon": 1.3601136
},
{
  "type": "node",
  "id": 3842636459,
  "lat": 43.6570843,
  "lon": 1.3587855
},
{
  "type": "node",
  "id": 3842643661,
  "lat": 43.6575556,
  "lon": 1.3601614
},
{
  "type": "node",
  "id": 3842643725,
  "lat": 43.6599094,
  "lon": 1.3598755
},
{
  "type": "node",
  "id": 3842643726,
  "lat": 43.6599801,
  "lon": 1.3597974
},
{
  "type": "node",
  "id": 3942144671,
  "lat": 43.6597102,
  "lon": 1.3608211
},
{
  "type": "node",
  "id": 3942144794,
  "lat": 43.6599193,
  "lon": 1.3601017
},
{
  "type": "node",
  "id": 3942144795,
  "lat": 43.6599321,
  "lon": 1.3600578
},
{
  "type": "node",
  "id": 3942145360,
  "lat": 43.6599855,
  "lon": 1.3600526
},
{
  "type": "node",
  "id": 1033665023,
  "lat": 43.8277270,
  "lon": 1.2946270
},
{
  "type": "node",
  "id": 1033688301,
  "lat": 43.8276900,
  "lon": 1.2946610
},
{
  "type": "node",
  "id": 1033704984,
  "lat": 43.8277260,
  "lon": 1.2947730
},
{
  "type": "node",
  "id": 1033714792,
  "lat": 43.8277770,
  "lon": 1.2947200
},
{
  "type": "way",
  "id": 28613611,
  "nodes": [
    314447355,
    934867496,
    1154529103,
    314447357,
    769907264,
    314447358
  ]
},
{
  "type": "way",
  "id": 630791828,
  "nodes": [
    769907097,
    1348555926,
    5955757208,
    5955757242,
    5955757206,
    5955757207,
    1348555924,
    5955756578,
    5955757213,
    5955756579,
    5955756583,
    5955756582,
    5955757233,
    2344691738,
    5955757234,
    5955757235,
    5955757219,
    5955757236,
    5955756581,
    5955757237,
    5955756580,
    5955757238,
    769907097
  ]
},
{
  "type": "way",
  "id": 630791870,
  "nodes": [
    5955757238,
    5955756580,
    5955757237,
    5955756581,
    5955757236,
    5955757219,
    5955757235,
    5955757234,
    5955756578,
    5955756579,
    5955757233,
    5955757232,
    5955757216,
    5955757231,
    5955757230,
    5955757229,
    5955757217,
    5955757228,
    5955757220,
    5955757227,
    5955757226,
    5955757238
  ]
},
{
  "type": "way",
  "id": 34923208,
  "nodes": [
    409759873,
    1264199403
  ]
},
{
  "type": "way",
  "id": 115556604,
  "nodes": [
    1264199403,
    1264199498,
    1264199474,
    1264199430,
    1264199493,
    486076938
  ]
},
{
  "type": "way",
  "id": 115556605,
  "nodes": [
    486077067,
    1264199494
  ]
},
{
  "type": "way",
  "id": 115556606,
  "nodes": [
    409759872,
    1551156718,
    1551156708,
    1551156703,
    1264199448,
    1264199476,
    486077067
  ]
},
{
  "type": "way",
  "id": 115556607,
  "nodes": [
    1264199494,
    1264199445,
    409759875,
    409759874,
    1264199446
  ]
},
{
  "type": "way",
  "id": 115556608,
  "nodes": [
    486076938,
    409759856,
    486076936,
    409759857
  ]
},
{
  "type": "way",
  "id": 115556610,
  "nodes": [
    409759857,
    486076935,
    486076932,
    486076930,
    486076927,
    486076900,
    486076898,
    409759858,
    486076896,
    486076894,
    409759859,
    486076890,
    486076889,
    409759860,
    486076888,
    486076886,
    486076884,
    486076882,
    409759861,
    486076879,
    486076877,
    486076876,
    409759862,
    486076991,
    1264199422,
    486076874,
    486076987,
    486076869,
    486076866,
    486076864,
    486076871,
    409759863,
    409759864,
    486076861,
    486076860,
    409759865,
    486076857,
    486076855,
    486076853,
    409759866,
    486076851,
    486076848,
    409759867,
    486076847,
    486076846,
    486076844,
    486076841,
    409759869,
    409759870,
    486076838,
    486076836,
    409759871,
    409759872
  ]
},
{
  "type": "way",
  "id": 115556611,
  "nodes": [
    1264199446,
    409759873
  ]
},
{
  "type": "way",
  "id": 153022313,
  "nodes": [
    486077067,
    486077065,
    486077064,
    486077063,
    486077057,
    486077055,
    486077053,
    486077040,
    486077052,
    486077050,
    486077048,
    409759840,
    5722852367,
    409759841,
    486077033,
    486077036,
    486077038,
    486077039,
    486077031,
    486077029,
    486077026,
    486077025,
    486077024,
    486077022,
    486077017,
    1669115939,
    1669115942,
    486077008,
    1669115946,
    1669115949,
    1669115953,
    486076999,
    1657720310,
    409759843,
    1657714976,
    409759845,
    486076984,
    1657720347,
    1657720335,
    1657720326,
    1657720370,
    1657720380,
    1657720332,
    1657720324,
    1657720338,
    1657720341,
    1657720343,
    1657720374,
    1657720383,
    1657720386,
    1657720328,
    1657720364,
    1657720345,
    1657720377,
    409759852,
    486076946,
    1669115956,
    1669115959,
    486076942,
    486076938
  ]
},
{
  "type": "way",
  "id": 39543914,
  "nodes": [
    473805753,
    2080169822,
    596085773,
    473805757,
    596085797,
    473805762,
    473805766,
    473805767,
    473805770,
    473805782,
    473805783,
    473805786,
    473805787,
    473805790,
    473805793,
    473805795,
    473805796,
    596085674,
    596085676,
    596085668,
    473805798,
    473805800,
    473805802,
    596085658,
    473805804,
    596085779,
    1995607891,
    473805753
  ]
},
{
  "type": "way",
  "id": 61794324,
  "nodes": [
    769907246,
    5955756573,
    5955756574,
    5955756575,
    769907210,
    769907195,
    5955757185,
    5955757187,
    5955757189,
    769907147,
    769907101,
    769907270,
    769907219,
    5955757190,
    5955757201,
    769907172,
    769907068,
    4072383093,
    4726784687,
    5955757203,
    57203704,
    2344691742,
    769907214,
    57203703,
    314447358,
    57203773,
    769907097,
    5955757238,
    2344691735,
    5955757226,
    769907140,
    769907188,
    5955757211,
    5955756571,
    5955756572,
    769907080,
    769907246
  ]
},
{
  "type": "way",
  "id": 78078473,
  "nodes": [
    769907176,
    769907230
  ]
},
{
  "type": "way",
  "id": 120231128,
  "nodes": [
    1348555957,
    5955756584,
    5955757186,
    5955757188,
    5955757193,
    1348555939,
    5955757200,
    5955757205,
    5955756583,
    5955756579,
    5955757213,
    5955756578,
    1348555924,
    5955757207,
    5955757206,
    5955757242,
    5955757208,
    1348555926,
    769907097,
    57203773,
    314447358,
    57203703,
    769907214,
    2344691742,
    57203704,
    1348555944,
    769907079,
    769907247,
    769907198,
    769907149,
    769907104,
    769907272,
    769907221,
    769907169,
    1348555987,
    627828924,
    6939419469,
    1348555988,
    769907223,
    6939419460,
    917452708,
    769907274,
    769907105,
    769907150,
    769907199,
    769907248,
    769907122,
    769907168,
    769907220,
    769907271,
    769907102,
    769907148,
    769907195,
    769907210,
    5955757225,
    1348555957
  ]
},
{
  "type": "way",
  "id": 630791825,
  "nodes": [
    769907142,
    769907098,
    769907266,
    769907215,
    5955773427,
    5955757204,
    769907221,
    769907272,
    769907104,
    769907149,
    769907198,
    769907247,
    769907079,
    1348555944,
    57203704,
    769907068,
    769907182,
    769907091,
    769907258,
    5955757244,
    769907205,
    5955757245,
    769907075,
    769907190,
    769907142
  ]
},
{
  "type": "way",
  "id": 630791829,
  "nodes": [
    5955757225,
    1348555957,
    5955756584,
    5955757186,
    5955757188,
    5955757193,
    1348555939,
    5955757200,
    5955757205,
    5955756583,
    5955756579,
    5955757233,
    5955757232,
    5955757216,
    5955757231,
    5955757230,
    5955757229,
    5955757217,
    5955757228,
    5955757220,
    5955757227,
    5955757226,
    769907140,
    769907188,
    5955756571,
    5955756572,
    769907080,
    769907246,
    5955756573,
    5955756574,
    5955756575,
    769907210,
    5955757225
  ]
},
{
  "type": "way",
  "id": 630791866,
  "nodes": [
    5955757204,
    5955757202,
    5955757203
  ]
},
{
  "type": "way",
  "id": 630791868,
  "nodes": [
    769907122,
    769907202,
    769907155,
    769907109,
    769907277,
    769907225,
    769907172,
    769907230,
    769907068,
    769907182,
    5955757240,
    5955757239,
    769907142,
    769907098,
    769907266,
    769907215,
    769907176,
    769907122
  ]
},
{
  "type": "way",
  "id": 630794380,
  "nodes": [
    5955773427,
    5955773426,
    5955773425,
    5955773424
  ]
},
{
  "type": "way",
  "id": 78078479,
  "nodes": [
    917452708,
    769907176
  ]
},
{
  "type": "way",
  "id": 630791867,
  "nodes": [
    769907122,
    769907248,
    769907199,
    769907150,
    769907105,
    769907274,
    917452708,
    6939419460,
    769907223,
    1348555988,
    6939419469,
    627828924,
    1348555987,
    769907169,
    769907221,
    5955757204,
    5955773427,
    769907215,
    769907176,
    769907122
  ]
},
{
  "type": "way",
  "id": 39543915,
  "nodes": [
    473805805,
    473805807,
    473805808,
    473805810,
    473805811,
    473805813,
    2460954148,
    473805805
  ]
},
{
  "type": "way",
  "id": 613388979,
  "nodes": [
    5803912288,
    5803912282,
    5803912274,
    5803912266,
    5803912288
  ]
},
{
  "type": "way",
  "id": 613388981,
  "nodes": [
    5803912285,
    5803912269,
    5803912271,
    5803912268,
    5803912285
  ]
},
{
  "type": "way",
  "id": 613388982,
  "nodes": [
    5803912279,
    5803912276,
    5803912287,
    5803912272,
    5803912273,
    5803912280,
    5803912265,
    5803912290,
    5803912289,
    5803912278,
    5803912270,
    5803912277,
    5803912275,
    5803912267,
    5803912279
  ]
},
{
  "type": "way",
  "id": 613388984,
  "nodes": [
    5803912282,
    5803912274,
    5803912269,
    5803912271,
    5803912291,
    5803912284,
    5803912283,
    5803912286,
    5803912281,
    5803912282
  ]
}

  ]
}
