{
  "version": 0.6,
  "generator": "Overpass API 0.7.55.9 ab41fea6",
  "osm3s": {
    "timestamp_osm_base": "2020-02-14T13:50:02Z",
    "copyright": "The data included in this document is from www.openstreetmap.org. The data is made available under ODbL."
  },
  "elements": [

{
  "type": "node",
  "id": 752118368,
  "lat": 41.6526397,
  "lon": -4.7229614,
  "tags": {
    "name": "Museo Diocesano y Catedralicio",
    "tourism": "museum",
    "wikidata": "Q6033298",
    "wikipedia": "es:Museo Diocesano y Catedralicio de Valladolid"
  }
},
{
  "type": "node",
  "id": 779227767,
  "lat": 41.6481849,
  "lon": -4.7271124,
  "tags": {
    "name": "Casa Museo de Cervantes",
    "tourism": "museum",
    "wheelchair": "limited",
    "wikidata": "Q2890383",
    "wikipedia": "es:Museo Casa de Cervantes"
  }
},
{
  "type": "node",
  "id": 990346892,
  "lat": 41.6485367,
  "lon": -4.6539369,
  "tags": {
    "name": "Centro de Interpretación",
    "tourism": "museum"
  }
},
{
  "type": "node",
  "id": 1080904796,
  "lat": 41.0662494,
  "lon": -4.7196131,
  "tags": {
    "addr:city": "Arévalo",
    "addr:country": "ES",
    "addr:housenumber": "1",
    "addr:postcode": "05200",
    "addr:street": "Plaza de la Villa",
    "designation": "Museo de Arévalo",
    "name": "Arevalorum",
    "ref_catastral": "5778224UL5457N",
    "source": "http://museodehistoriadearevalo.blogspot.com/",
    "tourism": "museum"
  }
},
{
  "type": "node",
  "id": 1989438441,
  "lat": 41.6574679,
  "lon": -4.7236221,
  "tags": {
    "addr:city": "Valladolid",
    "addr:postcode": "47011",
    "addr:street": "Calle de las Cadenas de San Gregorio",
    "museum": "art",
    "name": "Museo Nacional de Escultura",
    "name:an": "Museu Nacional d'Escultura",
    "name:en": "National Sculpture Museum",
    "name:es": "Museo Nacional de Escultura",
    "name:fr": "Musée national de la sculpture",
    "operator": "Ministerio de Cultura y Deporte",
    "operator:type": "public",
    "phone": "+34 983 250 375",
    "tourism": "museum",
    "website": "http://museoescultura.mcu.es/",
    "wikidata": "Q1581475",
    "wikipedia": "es:Museo Nacional de Escultura"
  }
},
{
  "type": "node",
  "id": 2306448004,
  "lat": 41.6577773,
  "lon": -4.7223344,
  "tags": {
    "museum": "art",
    "name": "Museo Nacional de Escultura, Casa del Sol",
    "tourism": "museum"
  }
},
{
  "type": "node",
  "id": 2324083979,
  "lat": 41.6440395,
  "lon": -4.7298205,
  "tags": {
    "addr:housenumber": "7",
    "addr:postcode": "47007",
    "addr:street": "Paseo de los Filipinos",
    "name": "Museo Oriental",
    "tourism": "museum",
    "wikidata": "Q26218850",
    "wikipedia": "es:Museo Oriental"
  }
},
{
  "type": "node",
  "id": 2324488410,
  "lat": 41.6478572,
  "lon": -4.7306923,
  "tags": {
    "name": "Academia de Caballería",
    "tourism": "museum",
    "wikidata": "Q5655783",
    "wikipedia": "es:Academia de Caballería de Valladolid"
  }
},
{
  "type": "node",
  "id": 2996978125,
  "lat": 41.4998109,
  "lon": -5.0006603,
  "tags": {
    "name": "Museo de San Antolín",
    "tourism": "museum"
  }
},
{
  "type": "node",
  "id": 3175179826,
  "lat": 41.4020703,
  "lon": -4.3193146,
  "tags": {
    "name": "Convento de San Basilio",
    "tourism": "museum",
    "wikidata": "Q5785699",
    "wikipedia": "es:Convento de San Basilio (Cuéllar)"
  }
},
{
  "type": "node",
  "id": 4454016191,
  "lat": 41.6568506,
  "lon": -4.7239455,
  "tags": {
    "addr:housenumber": "1",
    "addr:postcode": "47011",
    "addr:street": "Calle de las Cadenas de San Gregorio",
    "email": "museoescultura@mecd.es",
    "name": "Museo Nacional de Escultura",
    "opening_hours": "Mo-Fr 10:00-14:00, 16:00-19:30; Sa 10:00-14:00",
    "phone": "+34 983250375",
    "tourism": "museum",
    "website": "http://www.mecd.gob.es/mnescultura/inicio.html;jsessionid=831839F38067A082C56F54312EADF606"
  }
},
{
  "type": "node",
  "id": 4990440188,
  "lat": 41.6543376,
  "lon": -4.7174939,
  "tags": {
    "name": "Museo Anatómico",
    "tourism": "museum"
  }
},
{
  "type": "node",
  "id": 5060968622,
  "lat": 41.3588929,
  "lon": -4.5281301,
  "tags": {
    "addr:housenumber": "9",
    "addr:street": "Avenida Juan Carlos Domínguez",
    "contact:facebook": "https://www.facebook.com/museo.mariemma",
    "email": "turismo@villadeiscar.es",
    "name": "Museo Mariemma",
    "name:es": "Museo Mariemma",
    "opening_hours": "We 17:00-20:00; Th-Fr 10:00-14:00; Sa 11:00-14:00; Su-Mo 11:00-14:00",
    "phone": "+34 983612703",
    "tourism": "museum"
  }
},
{
  "type": "node",
  "id": 5430894527,
  "lat": 41.5013939,
  "lon": -4.9994989,
  "tags": {
    "addr:housenumber": "6",
    "addr:postcode": "47100",
    "addr:street": "Calle Carnicerias",
    "name": "Museo del Encaje",
    "tourism": "museum"
  }
},
{
  "type": "node",
  "id": 6144139257,
  "lat": 41.4022148,
  "lon": -4.3103783,
  "tags": {
    "name": "Centro de Interpretación de los encierros",
    "tourism": "museum"
  }
},
{
  "type": "node",
  "id": 6861306174,
  "lat": 41.2042424,
  "lon": -4.5427119,
  "tags": {
    "name": "Museo Nacional del Patrimonio Forestal",
    "tourism": "museum"
  }
},
{
  "type": "node",
  "id": 7102358187,
  "lat": 41.6396066,
  "lon": -4.7537278,
  "tags": {
    "amenity": "archive",
    "name": "Archivo Provincial",
    "tourism": "museum"
  }
},
{
  "type": "node",
  "id": 7170008403,
  "lat": 41.6493987,
  "lon": -4.7246726,
  "tags": {
    "name": "Museo de Ciencias Naturales (MUVA)",
    "tourism": "museum"
  }
},
{
  "type": "way",
  "id": 61952010,
  "nodes": [
    772339701,
    772339755,
    772339720,
    772339855,
    772339701
  ],
  "tags": {
    "building": "yes",
    "name": "Museo Fundación Cristóbal Gabarrón",
    "tourism": "museum"
  }
},
{
  "type": "way",
  "id": 135887758,
  "nodes": [
    1491594963,
    1491594989,
    1491594949,
    1491594913,
    1491594931,
    1491594951,
    1491594944,
    5429382803,
    5429382806,
    1491594984,
    1491594929,
    1491594928,
    1491594992,
    1491594976,
    2325920504,
    1491594972,
    1491594915,
    1491594963
  ],
  "tags": {
    "building": "yes",
    "name": "Museo de la Ciencia",
    "tourism": "museum",
    "wikidata": "Q1189057",
    "wikipedia": "es:Museo de la Ciencia de Valladolid"
  }
},
{
  "type": "way",
  "id": 156003727,
  "nodes": [
    1683233100,
    1681406103,
    1681406105,
    1681410794,
    1683233100
  ],
  "tags": {
    "building": "civic",
    "leisure": "common",
    "name": "Sala de exposiciones",
    "tourism": "museum"
  }
},
{
  "type": "way",
  "id": 178407304,
  "nodes": [
    1887554914,
    1887554916,
    1887554912,
    1887554918,
    1887554914
  ],
  "tags": {
    "building": "yes",
    "building:levels": "2",
    "disused": "yes",
    "name": "Ferrocarril - Esperanza",
    "operator": "ASVAFER",
    "roof:shape": "gabled",
    "tourism": "museum"
  }
},
{
  "type": "way",
  "id": 223515671,
  "nodes": [
    2324077475,
    2324077486,
    752118366,
    752118400,
    2324077476,
    2324077474,
    2324077475
  ],
  "tags": {
    "building": "yes",
    "name": "Palacio de Pimentel",
    "tourism": "museum",
    "wikidata": "Q11697419",
    "wikipedia": "es:Palacio de Pimentel"
  }
},
{
  "type": "way",
  "id": 227300629,
  "nodes": [
    2360083659,
    2656147891,
    2360083662,
    2360083664,
    2360083666,
    3258069265,
    3258069266,
    3258069267,
    3258069264,
    2360083659
  ],
  "tags": {
    "addr:city": "Valladolid",
    "addr:housename": "Museo Zorrilla",
    "addr:housenumber": "2",
    "addr:postcode": "47003",
    "addr:street": "Calle de Fray Luis de Granada",
    "building": "yes",
    "name": "Museo Casa de Zorrilla",
    "name:en": "Zorrillas's House Museum",
    "name:es": "Museo Casa de Zorrilla",
    "operator": "Ayuntamiento de Valladolid",
    "phone": "+34983426266",
    "tourism": "museum",
    "website": "https://www.valladolid.es/es/gente/visitantes/servicios/casa-jose-zorrilla",
    "wikidata": "Q8341769",
    "wikipedia": "es:Casa de Zorrilla"
  }
},
{
  "type": "way",
  "id": 227333191,
  "nodes": [
    4409552803,
    4409552804,
    2360353429,
    2360353431,
    4409552802,
    4409552803
  ],
  "tags": {
    "building": "yes",
    "name": "Archivo munincipal de San Agustín",
    "name:es": "Archivo munincipal de San Agustín",
    "tourism": "museum"
  }
},
{
  "type": "way",
  "id": 337917580,
  "nodes": [
    3449878637,
    3449878632,
    3449877342,
    3449876783,
    3449879306,
    3449878620,
    3449879301,
    3449879307,
    3449881258,
    3449880560,
    3449879367,
    3449882221,
    3449882196,
    3449880440,
    3449877583,
    3449881205,
    3449876065,
    3449878637
  ],
  "tags": {
    "addr:housenumber": "1D",
    "addr:street": "Plaza Mayor de la Hispanidad",
    "building": "public",
    "historic": "monument",
    "name": "Palacio Testamentario",
    "tourism": "museum",
    "wikidata": "Q6057812"
  }
},
{
  "type": "relation",
  "id": 962752,
  "members": [
    {
      "type": "way",
      "ref": 62004136,
      "role": "outer"
    },
    {
      "type": "way",
      "ref": 62004122,
      "role": "outer"
    },
    {
      "type": "way",
      "ref": 62004133,
      "role": "inner"
    }
  ],
  "tags": {
    "building": "yes",
    "name": "Museo Arqueológico Provincial",
    "tourism": "museum",
    "type": "multipolygon",
    "wikidata": "Q6034142"
  }
},
{
  "type": "relation",
  "id": 1153695,
  "members": [
    {
      "type": "way",
      "ref": 61281987,
      "role": "outer"
    },
    {
      "type": "way",
      "ref": 75140621,
      "role": "outer"
    }
  ],
  "tags": {
    "building": "yes",
    "name": "Casa Museo de Colón",
    "tourism": "museum",
    "type": "multipolygon",
    "wikidata": "Q5112147",
    "wikipedia": "es:Casa Museo de Colón (Valladolid)"
  }
},
{
  "type": "relation",
  "id": 1157091,
  "members": [
    {
      "type": "way",
      "ref": 60495509,
      "role": "outer"
    },
    {
      "type": "way",
      "ref": 75488380,
      "role": "outer"
    },
    {
      "type": "way",
      "ref": 75488363,
      "role": "outer"
    },
    {
      "type": "way",
      "ref": 75488362,
      "role": "outer"
    },
    {
      "type": "way",
      "ref": 75488356,
      "role": "outer"
    },
    {
      "type": "way",
      "ref": 75488341,
      "role": "outer"
    },
    {
      "type": "way",
      "ref": 75488373,
      "role": "outer"
    },
    {
      "type": "way",
      "ref": 75488357,
      "role": "inner"
    }
  ],
  "tags": {
    "building": "yes",
    "name": "Museo Patio Herreriano",
    "tourism": "museum",
    "type": "multipolygon",
    "wikidata": "Q9046912",
    "wikipedia": "es:Museo Patio Herreriano de Arte Contemporáneo Español"
  }
},
{
  "type": "relation",
  "id": 1157101,
  "members": [
    {
      "type": "way",
      "ref": 75488693,
      "role": "outer"
    },
    {
      "type": "way",
      "ref": 75488683,
      "role": "outer"
    },
    {
      "type": "way",
      "ref": 75488689,
      "role": "outer"
    },
    {
      "type": "way",
      "ref": 75488691,
      "role": "outer"
    },
    {
      "type": "way",
      "ref": 75488686,
      "role": "outer"
    },
    {
      "type": "way",
      "ref": 75488697,
      "role": "outer"
    },
    {
      "type": "way",
      "ref": 75488696,
      "role": "outer"
    }
  ],
  "tags": {
    "building": "yes",
    "name": "Sala de Exposiciones Iglesia de Santa Cruz",
    "tourism": "museum",
    "type": "multipolygon"
  }
},
{
  "type": "node",
  "id": 3449876065,
  "lat": 41.3080862,
  "lon": -4.9160276
},
{
  "type": "node",
  "id": 3449876783,
  "lat": 41.3079743,
  "lon": -4.9161341
},
{
  "type": "node",
  "id": 3449877342,
  "lat": 41.3079632,
  "lon": -4.9161050
},
{
  "type": "node",
  "id": 3449877583,
  "lat": 41.3080632,
  "lon": -4.9161477
},
{
  "type": "node",
  "id": 3449878620,
  "lat": 41.3080170,
  "lon": -4.9163232
},
{
  "type": "node",
  "id": 3449878632,
  "lat": 41.3080318,
  "lon": -4.9160503
},
{
  "type": "node",
  "id": 3449878637,
  "lat": 41.3080390,
  "lon": -4.9160656
},
{
  "type": "node",
  "id": 3449879301,
  "lat": 41.3080346,
  "lon": -4.9163640
},
{
  "type": "node",
  "id": 3449879306,
  "lat": 41.3080423,
  "lon": -4.9163034
},
{
  "type": "node",
  "id": 3449879307,
  "lat": 41.3080434,
  "lon": -4.9163842
},
{
  "type": "node",
  "id": 3449879367,
  "lat": 41.3082484,
  "lon": -4.9163397
},
{
  "type": "node",
  "id": 3449880440,
  "lat": 41.3081012,
  "lon": -4.9162386
},
{
  "type": "node",
  "id": 3449880560,
  "lat": 41.3081883,
  "lon": -4.9163910
},
{
  "type": "node",
  "id": 3449881205,
  "lat": 41.3081241,
  "lon": -4.9160992
},
{
  "type": "node",
  "id": 3449881258,
  "lat": 41.3081509,
  "lon": -4.9163153
},
{
  "type": "node",
  "id": 3449882196,
  "lat": 41.3081739,
  "lon": -4.9161932
},
{
  "type": "node",
  "id": 3449882221,
  "lat": 41.3081842,
  "lon": -4.9162126
},
{
  "type": "node",
  "id": 1681406103,
  "lat": 41.3374270,
  "lon": -4.5823361
},
{
  "type": "node",
  "id": 1681406105,
  "lat": 41.3374128,
  "lon": -4.5825648
},
{
  "type": "node",
  "id": 1681410794,
  "lat": 41.3371288,
  "lon": -4.5825300
},
{
  "type": "node",
  "id": 1683233100,
  "lat": 41.3371421,
  "lon": -4.5823020
},
{
  "type": "node",
  "id": 1491594913,
  "lat": 41.6378084,
  "lon": -4.7457510
},
{
  "type": "node",
  "id": 1491594915,
  "lat": 41.6372859,
  "lon": -4.7457800
},
{
  "type": "node",
  "id": 1491594928,
  "lat": 41.6368899,
  "lon": -4.7450630
},
{
  "type": "node",
  "id": 1491594929,
  "lat": 41.6374798,
  "lon": -4.7450820
},
{
  "type": "node",
  "id": 1491594931,
  "lat": 41.6377595,
  "lon": -4.7455619
},
{
  "type": "node",
  "id": 1491594944,
  "lat": 41.6376144,
  "lon": -4.7451975
},
{
  "type": "node",
  "id": 1491594949,
  "lat": 41.6376306,
  "lon": -4.7458332
},
{
  "type": "node",
  "id": 1491594951,
  "lat": 41.6376066,
  "lon": -4.7456326
},
{
  "type": "node",
  "id": 1491594963,
  "lat": 41.6373675,
  "lon": -4.7460827
},
{
  "type": "node",
  "id": 1491594972,
  "lat": 41.6375714,
  "lon": -4.7456404
},
{
  "type": "node",
  "id": 1491594976,
  "lat": 41.6372525,
  "lon": -4.7453107
},
{
  "type": "node",
  "id": 1491594984,
  "lat": 41.6374778,
  "lon": -4.7451931
},
{
  "type": "node",
  "id": 1491594989,
  "lat": 41.6376588,
  "lon": -4.7459421
},
{
  "type": "node",
  "id": 1491594992,
  "lat": 41.6370274,
  "lon": -4.7454528
},
{
  "type": "node",
  "id": 2325920504,
  "lat": 41.6375740,
  "lon": -4.7453152
},
{
  "type": "node",
  "id": 5429382803,
  "lat": 41.6375816,
  "lon": -4.7451941
},
{
  "type": "node",
  "id": 5429382806,
  "lat": 41.6375455,
  "lon": -4.7451936
},
{
  "type": "node",
  "id": 1887554912,
  "lat": 41.6346585,
  "lon": -4.7318613
},
{
  "type": "node",
  "id": 1887554914,
  "lat": 41.6348415,
  "lon": -4.7321911
},
{
  "type": "node",
  "id": 1887554916,
  "lat": 41.6349034,
  "lon": -4.7320164
},
{
  "type": "node",
  "id": 1887554918,
  "lat": 41.6345966,
  "lon": -4.7320360
},
{
  "type": "node",
  "id": 772339701,
  "lat": 41.6501776,
  "lon": -4.7454045
},
{
  "type": "node",
  "id": 772339720,
  "lat": 41.6499010,
  "lon": -4.7452988
},
{
  "type": "node",
  "id": 772339755,
  "lat": 41.6499756,
  "lon": -4.7455242
},
{
  "type": "node",
  "id": 772339855,
  "lat": 41.6501030,
  "lon": -4.7451791
},
{
  "type": "node",
  "id": 2360353429,
  "lat": 41.6555157,
  "lon": -4.7317126
},
{
  "type": "node",
  "id": 891110804,
  "lat": 41.6497076,
  "lon": -4.7297439
},
{
  "type": "node",
  "id": 891110817,
  "lat": 41.6495745,
  "lon": -4.7293010
},
{
  "type": "node",
  "id": 891110822,
  "lat": 41.6495495,
  "lon": -4.7296545
},
{
  "type": "node",
  "id": 891110878,
  "lat": 41.6496493,
  "lon": -4.7295131
},
{
  "type": "node",
  "id": 891110899,
  "lat": 41.6495319,
  "lon": -4.7291997
},
{
  "type": "node",
  "id": 891110933,
  "lat": 41.6495246,
  "lon": -4.7295942
},
{
  "type": "node",
  "id": 891110944,
  "lat": 41.6496348,
  "lon": -4.7295381
},
{
  "type": "node",
  "id": 891110981,
  "lat": 41.6494019,
  "lon": -4.7292655
},
{
  "type": "node",
  "id": 891114237,
  "lat": 41.6496096,
  "lon": -4.7298029
},
{
  "type": "node",
  "id": 4908541300,
  "lat": 41.6494993,
  "lon": -4.7292147
},
{
  "type": "node",
  "id": 754377211,
  "lat": 41.6543280,
  "lon": -4.7303547
},
{
  "type": "node",
  "id": 757494849,
  "lat": 41.6548070,
  "lon": -4.7294963
},
{
  "type": "node",
  "id": 757494868,
  "lat": 41.6549149,
  "lon": -4.7303380
},
{
  "type": "node",
  "id": 757494869,
  "lat": 41.6542319,
  "lon": -4.7297018
},
{
  "type": "node",
  "id": 757494872,
  "lat": 41.6547083,
  "lon": -4.7302508
},
{
  "type": "node",
  "id": 773006630,
  "lat": 41.6559288,
  "lon": -4.7286758
},
{
  "type": "node",
  "id": 773006648,
  "lat": 41.6560290,
  "lon": -4.7285917
},
{
  "type": "node",
  "id": 773006670,
  "lat": 41.6560523,
  "lon": -4.7289556
},
{
  "type": "node",
  "id": 773006678,
  "lat": 41.6560553,
  "lon": -4.7290252
},
{
  "type": "node",
  "id": 773006696,
  "lat": 41.6560899,
  "lon": -4.7285412
},
{
  "type": "node",
  "id": 773006724,
  "lat": 41.6562663,
  "lon": -4.7289067
},
{
  "type": "node",
  "id": 773006733,
  "lat": 41.6559513,
  "lon": -4.7289067
},
{
  "type": "node",
  "id": 773006736,
  "lat": 41.6561192,
  "lon": -4.7286018
},
{
  "type": "node",
  "id": 773006751,
  "lat": 41.6559424,
  "lon": -4.7287111
},
{
  "type": "node",
  "id": 773006755,
  "lat": 41.6560699,
  "lon": -4.7287720
},
{
  "type": "node",
  "id": 773006778,
  "lat": 41.6561805,
  "lon": -4.7289893
},
{
  "type": "node",
  "id": 773006789,
  "lat": 41.6561655,
  "lon": -4.7290647
},
{
  "type": "node",
  "id": 773006797,
  "lat": 41.6560450,
  "lon": -4.7286245
},
{
  "type": "node",
  "id": 773006801,
  "lat": 41.6561228,
  "lon": -4.7288795
},
{
  "type": "node",
  "id": 773006803,
  "lat": 41.6558671,
  "lon": -4.7287255
},
{
  "type": "node",
  "id": 773006815,
  "lat": 41.6559913,
  "lon": -4.7288402
},
{
  "type": "node",
  "id": 891110809,
  "lat": 41.6546617,
  "lon": -4.7296928
},
{
  "type": "node",
  "id": 891110828,
  "lat": 41.6543119,
  "lon": -4.7295400
},
{
  "type": "node",
  "id": 891110846,
  "lat": 41.6547074,
  "lon": -4.7300317
},
{
  "type": "node",
  "id": 891110892,
  "lat": 41.6544244,
  "lon": -4.7303283
},
{
  "type": "node",
  "id": 891110897,
  "lat": 41.6544038,
  "lon": -4.7297593
},
{
  "type": "node",
  "id": 891110922,
  "lat": 41.6547435,
  "lon": -4.7303932
},
{
  "type": "node",
  "id": 891110958,
  "lat": 41.6544558,
  "lon": -4.7300982
},
{
  "type": "node",
  "id": 891110969,
  "lat": 41.6543131,
  "lon": -4.7296796
},
{
  "type": "node",
  "id": 2360353431,
  "lat": 41.6553591,
  "lon": -4.7312658
},
{
  "type": "node",
  "id": 4409552802,
  "lat": 41.6552374,
  "lon": -4.7308452
},
{
  "type": "node",
  "id": 4409552803,
  "lat": 41.6554717,
  "lon": -4.7306906
},
{
  "type": "node",
  "id": 4409552804,
  "lat": 41.6557440,
  "lon": -4.7315170
},
{
  "type": "node",
  "id": 4678192298,
  "lat": 41.6559927,
  "lon": -4.7286686
},
{
  "type": "node",
  "id": 752118366,
  "lat": 41.6561937,
  "lon": -4.7243803
},
{
  "type": "node",
  "id": 752118400,
  "lat": 41.6563591,
  "lon": -4.7241576
},
{
  "type": "node",
  "id": 2324077474,
  "lat": 41.6565902,
  "lon": -4.7240611
},
{
  "type": "node",
  "id": 2324077475,
  "lat": 41.6567735,
  "lon": -4.7243280
},
{
  "type": "node",
  "id": 2324077476,
  "lat": 41.6565145,
  "lon": -4.7239968
},
{
  "type": "node",
  "id": 2324077486,
  "lat": 41.6565356,
  "lon": -4.7248216
},
{
  "type": "node",
  "id": 2360083659,
  "lat": 41.6560312,
  "lon": -4.7233830
},
{
  "type": "node",
  "id": 2360083662,
  "lat": 41.6561586,
  "lon": -4.7236779
},
{
  "type": "node",
  "id": 2360083664,
  "lat": 41.6562882,
  "lon": -4.7235839
},
{
  "type": "node",
  "id": 2360083666,
  "lat": 41.6563936,
  "lon": -4.7238234
},
{
  "type": "node",
  "id": 2656147891,
  "lat": 41.6561153,
  "lon": -4.7235825
},
{
  "type": "node",
  "id": 3258069264,
  "lat": 41.6562469,
  "lon": -4.7232478
},
{
  "type": "node",
  "id": 3258069265,
  "lat": 41.6564347,
  "lon": -4.7237929
},
{
  "type": "node",
  "id": 3258069266,
  "lat": 41.6564082,
  "lon": -4.7237251
},
{
  "type": "node",
  "id": 3258069267,
  "lat": 41.6564475,
  "lon": -4.7236937
},
{
  "type": "node",
  "id": 765659257,
  "lat": 41.6537210,
  "lon": -4.7181270
},
{
  "type": "node",
  "id": 765659287,
  "lat": 41.6533313,
  "lon": -4.7181753
},
{
  "type": "node",
  "id": 765659290,
  "lat": 41.6532991,
  "lon": -4.7182359
},
{
  "type": "node",
  "id": 765659292,
  "lat": 41.6536914,
  "lon": -4.7179452
},
{
  "type": "node",
  "id": 765659300,
  "lat": 41.6533066,
  "lon": -4.7181988
},
{
  "type": "node",
  "id": 765659302,
  "lat": 41.6537347,
  "lon": -4.7181926
},
{
  "type": "node",
  "id": 765659335,
  "lat": 41.6535082,
  "lon": -4.7179946
},
{
  "type": "node",
  "id": 765659364,
  "lat": 41.6533362,
  "lon": -4.7181889
},
{
  "type": "node",
  "id": 765659366,
  "lat": 41.6533202,
  "lon": -4.7183015
},
{
  "type": "node",
  "id": 765659377,
  "lat": 41.6533140,
  "lon": -4.7182260
},
{
  "type": "node",
  "id": 765659380,
  "lat": 41.6537371,
  "lon": -4.7181270
},
{
  "type": "node",
  "id": 765659416,
  "lat": 41.6535293,
  "lon": -4.7181221
},
{
  "type": "way",
  "id": 75488683,
  "nodes": [
    891110822,
    891114237
  ]
},
{
  "type": "way",
  "id": 75488686,
  "nodes": [
    891110981,
    4908541300,
    891110899
  ]
},
{
  "type": "way",
  "id": 75488689,
  "nodes": [
    891110933,
    891110822
  ]
},
{
  "type": "way",
  "id": 75488691,
  "nodes": [
    891110981,
    891110933
  ]
},
{
  "type": "way",
  "id": 75488693,
  "nodes": [
    891114237,
    891110804
  ]
},
{
  "type": "way",
  "id": 75488696,
  "nodes": [
    891110804,
    891110944,
    891110878,
    891110817
  ]
},
{
  "type": "way",
  "id": 75488697,
  "nodes": [
    891110817,
    891110899
  ]
},
{
  "type": "way",
  "id": 60495509,
  "nodes": [
    754377211,
    757494869
  ]
},
{
  "type": "way",
  "id": 62004122,
  "nodes": [
    773006696,
    773006736
  ]
},
{
  "type": "way",
  "id": 62004133,
  "nodes": [
    773006670,
    773006815,
    773006755,
    773006801,
    773006670
  ]
},
{
  "type": "way",
  "id": 62004136,
  "nodes": [
    773006736,
    773006724,
    773006778,
    773006789,
    773006678,
    773006733,
    773006803,
    773006630,
    773006751,
    4678192298,
    773006797,
    773006648,
    773006696
  ]
},
{
  "type": "way",
  "id": 75488341,
  "nodes": [
    757494868,
    891110922,
    757494872,
    891110892
  ]
},
{
  "type": "way",
  "id": 75488356,
  "nodes": [
    757494849,
    757494868
  ]
},
{
  "type": "way",
  "id": 75488357,
  "nodes": [
    891110846,
    891110958,
    891110897,
    891110809,
    891110846
  ]
},
{
  "type": "way",
  "id": 75488362,
  "nodes": [
    757494849,
    891110828
  ]
},
{
  "type": "way",
  "id": 75488363,
  "nodes": [
    891110969,
    891110828
  ]
},
{
  "type": "way",
  "id": 75488373,
  "nodes": [
    891110892,
    754377211
  ]
},
{
  "type": "way",
  "id": 75488380,
  "nodes": [
    757494869,
    891110969
  ]
},
{
  "type": "way",
  "id": 61281987,
  "nodes": [
    765659300,
    765659364,
    765659287,
    765659416,
    765659335,
    765659292,
    765659257,
    765659380,
    765659302,
    765659366
  ]
},
{
  "type": "way",
  "id": 75140621,
  "nodes": [
    765659366,
    765659290,
    765659377,
    765659300
  ]
}

  ]
}
