{
  "version": 0.6,
  "generator": "Overpass API 0.7.55.1011 6c2efc30",
  "osm3s": {
    "timestamp_osm_base": "2020-02-14T19:20:02Z",
    "copyright": "The data included in this document is from www.openstreetmap.org. The data is made available under ODbL."
  },
  "elements": [

{
  "type": "node",
  "id": 688998265,
  "lat": 64.1494664,
  "lon": -21.9413926,
  "tags": {
    "level": "6",
    "name": "Ljósmyndasafn Reykjavíkur",
    "name:en": "Reykjavik Museum of Photography",
    "opening_hours": "Mo-Th 10:00-18:00; Fr 11:00-18:00; Sa, Su 13:00-17:00",
    "tourism": "museum",
    "wikidata": "Q20990707"
  }
},
{
  "type": "node",
  "id": 688998282,
  "lat": 64.1441073,
  "lon": -21.9392189,
  "tags": {
    "addr:housenumber": "7",
    "addr:postcode": "101",
    "addr:street": "Fríkirkjuvegur",
    "name": "Listasafn Íslands",
    "name:en": "National Gallery of Iceland",
    "name:zh": "冰岛国家美术馆",
    "tourism": "museum",
    "wheelchair": "yes",
    "wikidata": "Q3480309",
    "wikipedia": "is:Listasafn Íslands"
  }
},
{
  "type": "node",
  "id": 971164356,
  "lat": 64.1379170,
  "lon": -21.9137880,
  "tags": {
    "addr:city": "Reykjavík",
    "addr:postcode": "105",
    "addr:street": "Flókagata",
    "atm": "no",
    "email": "listasafn@reykjavik.is",
    "name": "Kjarvalsstaðir Gallery",
    "opening_hours": "Mo-Su 10:00-17:00",
    "operator": "Listasafn Reykjavíkur",
    "phone": "411 6420",
    "tourism": "museum",
    "website": "http://listasafnreykjavikur.is/kjarvalsstadir"
  }
},
{
  "type": "node",
  "id": 1243688088,
  "lat": 64.1809135,
  "lon": -21.5818503,
  "tags": {
    "name": "Gljúfrasteinn",
    "name:en": "Laxness Literaturnobelpreis",
    "tourism": "museum",
    "wikidata": "Q2312229",
    "wikipedia": "is:Gljúfrasteinn"
  }
},
{
  "type": "node",
  "id": 1264724303,
  "lat": 64.1473511,
  "lon": -21.9427823,
  "tags": {
    "addr:city": "Reykjavík",
    "addr:country": "IS",
    "addr:housenumber": "16",
    "addr:postcode": "101",
    "addr:street": "Aðalstræti",
    "alt_name:en": "The Settlement Exhibition",
    "alt_name:is": "Landnámssýningin",
    "contact:phone": "+354 411 6370",
    "name": "Reykjavík 871±2",
    "opening_hours": "Mo-Su 09:00-20:00",
    "tourism": "museum",
    "website:en": "http://borgarsogusafn.is/en/the-settlement-exhibition",
    "website:is": "http://borgarsogusafn.is/is/landnamssyningin",
    "wheelchair": "yes",
    "wikidata": "Q7319496",
    "wikipedia": "en:Reykjavík 871±2"
  }
},
{
  "type": "node",
  "id": 1511563888,
  "lat": 64.1430574,
  "lon": -21.9155137,
  "tags": {
    "addr:city": "Reykjavík",
    "addr:housenumber": "116",
    "addr:postcode": "105",
    "addr:street": "Laugavegur",
    "name": "Hið Íslenzka Reðasafn",
    "name:da": "Det Islandske Fallologiske Museum",
    "name:en": "The Icelandic Phallological Museum",
    "name:ru": "Исландский фаллологический музей",
    "name:zh": "生殖器博物館",
    "opening_hours": "10:00-18:00",
    "source": "Survey",
    "tourism": "museum",
    "website": "https://www.phallus.is/",
    "wikidata": "Q177174",
    "wikipedia": "en:Icelandic Phallological Museum"
  }
},
{
  "type": "node",
  "id": 1722849873,
  "lat": 64.1531874,
  "lon": -21.9488802,
  "tags": {
    "name": "Víkin",
    "source": "Bing, Local knowledge",
    "tourism": "museum",
    "website": "http://www.sjominjasafn.is",
    "wikidata": "Q7929434",
    "wikipedia": "en:Vikin Maritime Museum"
  }
},
{
  "type": "node",
  "id": 1976887375,
  "lat": 64.0701355,
  "lon": -21.9594714,
  "tags": {
    "name": "Byggðasafn Hafnarfjarðar",
    "tourism": "museum"
  }
},
{
  "type": "node",
  "id": 2156045035,
  "lat": 64.3198699,
  "lon": -22.0445039,
  "tags": {
    "name": "Byggðarsafnið",
    "tourism": "museum"
  }
},
{
  "type": "node",
  "id": 2329925623,
  "lat": 64.1116927,
  "lon": -21.9093056,
  "tags": {
    "addr:city": "Kópavogur",
    "addr:housenumber": "6a",
    "addr:postcode": "200",
    "addr:street": "Hamraborg",
    "name": "Náttúrufræðistofa Kópavogs",
    "tourism": "museum",
    "wheelchair": "yes",
    "wikidata": "Q16423229",
    "wikipedia": "is:Náttúrufræðistofa Kópavogs"
  }
},
{
  "type": "node",
  "id": 2329943504,
  "lat": 64.1426715,
  "lon": -21.9506468,
  "tags": {
    "addr:city": "Reykjavík",
    "addr:housenumber": "3",
    "addr:postcode": "107",
    "addr:street": "Arngrímsgata",
    "name": "Tónlistarsafn Íslands",
    "operator": "Landsbókasafn Íslands-Háskólabókasafn",
    "tourism": "museum"
  }
},
{
  "type": "node",
  "id": 2401642331,
  "lat": 64.1146924,
  "lon": -21.9323931,
  "tags": {
    "name": "Þjóðminjasafn Íslands - varðveisla",
    "toilets:wheelchair": "yes",
    "tourism": "museum",
    "wheelchair": "yes"
  }
},
{
  "type": "node",
  "id": 3101274402,
  "lat": 63.9710065,
  "lon": -22.5254306,
  "tags": {
    "name": "Slökkviliðsminjasafn",
    "tourism": "museum"
  }
},
{
  "type": "node",
  "id": 3255772374,
  "lat": 64.0373393,
  "lon": -21.4006505,
  "tags": {
    "name": "Jarðhitasýningin",
    "name:en": "Geothermal Energy Exhibition",
    "toilets:wheelchair": "yes",
    "tourism": "museum",
    "website": "https://www.jardhitasyning.is/",
    "wheelchair": "yes"
  }
},
{
  "type": "node",
  "id": 3798846027,
  "lat": 64.0890499,
  "lon": -21.9205556,
  "tags": {
    "addr:city": "Garðabær",
    "addr:housenumber": "1",
    "addr:postcode": "210",
    "addr:street": "Garðatorg",
    "name": "Hönnunarsafn Íslands",
    "name:en": "Museum Of Design And Applied Art",
    "opening_hours": "Mo-Su 12:00-17:00, Mo off",
    "tourism": "museum",
    "website": "http://www.honnunarsafn.is/"
  }
},
{
  "type": "node",
  "id": 3891080207,
  "lat": 64.1470089,
  "lon": -21.9358506,
  "tags": {
    "name": "Núllið",
    "name:en": "Iceland Punk Museum",
    "tourism": "museum",
    "wheelchair": "no"
  }
},
{
  "type": "node",
  "id": 4332572168,
  "lat": 64.1499519,
  "lon": -21.9426185,
  "tags": {
    "name": "Volcano House",
    "opening_hours": "Mo-Su 09:00-22:00",
    "tourism": "museum",
    "website": "http://volcanohouse.is",
    "wikidata": "Q15961653",
    "wikipedia": "en:Volcano House, Iceland"
  }
},
{
  "type": "node",
  "id": 4949148121,
  "lat": 64.0076193,
  "lon": -22.5573993,
  "tags": {
    "addr:city": "Keflavík",
    "addr:country": "IS",
    "addr:housenumber": "2-8",
    "addr:postcode": "230",
    "addr:street": "Duusgata",
    "email": "duushus@reykjanesbaer.is",
    "name": "Duus Museum",
    "opening_hours": "12:00-17:00",
    "tourism": "museum",
    "website": "https://sofn.reykjanesbaer.is/duushus"
  }
},
{
  "type": "node",
  "id": 6001936185,
  "lat": 64.1426484,
  "lon": -21.9172648,
  "tags": {
    "name:en": "Tales from Iceland",
    "tourism": "museum"
  }
},
{
  "type": "node",
  "id": 6548895586,
  "lat": 63.9898957,
  "lon": -22.5502630,
  "tags": {
    "name": "Rokksafn Íslands",
    "name:en": "Icelandic Museum of Rock 'n' Roll",
    "tourism": "museum"
  }
},
{
  "type": "node",
  "id": 6590600386,
  "lat": 64.1478292,
  "lon": -21.9421215,
  "tags": {
    "charge": "1650 ISK",
    "fee": "yes",
    "museum": "local",
    "museum_type": "municipal",
    "name": "Aðalstræti 10",
    "opening_hours": "Mo-Su 10:00-17:00",
    "operator": "Borgarsögusafn Reykjavíkur",
    "tourism": "museum",
    "website": "http://borgarsogusafn.is/is/borgarsogusafn-reykjavikur/um-borgarsogusafn/frettir/adalstraeti-10-elsta-hus-midborgarinnar-opnad",
    "website:en": "http://borgarsogusafn.is/en/reykjavik-city-museum/about-borgarsogusafn/news/adalstraeti-10-the-oldest-house-the-city-centre"
  }
},
{
  "type": "way",
  "id": 26992692,
  "nodes": [
    783567624,
    783567625,
    295864292,
    783567626,
    1265563663,
    1265563566,
    1265563625,
    1265563573,
    1533794115,
    1265563569,
    1265563538,
    5673669113,
    1265563543,
    783567628,
    783567629,
    295864294,
    783567630,
    783567633,
    295864295,
    783567635,
    295864126,
    1265563534,
    783567636,
    783567637,
    783567624
  ],
  "tags": {
    "museum": "open_air",
    "museum_type": "municipal",
    "name": "Árbæjarsafn",
    "name:en": "Arbaer Outdoor Museum",
    "opening_hours": "Jun-Aug 10:00-17:00, Sep-May 13:00-17:00; Jan 1 off; easter -2 days off; easter off; Dec 25 off",
    "tourism": "museum",
    "website:en": "http://borgarsogusafn.is/en/arbaer-open-air-museum",
    "website:is": "http://borgarsogusafn.is/is/arbaejarsafn",
    "wikidata": "Q3481984",
    "wikipedia": "is:Árbæjarsafn"
  }
},
{
  "type": "way",
  "id": 33438619,
  "nodes": [
    380515383,
    380515389,
    1067812345,
    1067812357,
    1067812338,
    1067812342,
    1067812331,
    1067812343,
    380515392,
    380515386,
    380515383
  ],
  "tags": {
    "building": "yes",
    "fixme": "resurvey",
    "source": "extrapolation",
    "tourism": "museum"
  }
},
{
  "type": "way",
  "id": 37680009,
  "nodes": [
    441789834,
    2921533516,
    441789838,
    441789841,
    441789845,
    441789834
  ],
  "tags": {
    "tourism": "museum"
  }
},
{
  "type": "way",
  "id": 93882754,
  "nodes": [
    1091367693,
    1091367697,
    1091367707,
    1091367686,
    1091367684,
    1091367682,
    1091367677,
    1091367699,
    1091367693
  ],
  "tags": {
    "addr:housename": "Nesstofa - Seltjörn",
    "addr:housenumber": "11",
    "addr:postcode": "170",
    "addr:street": "Neströð",
    "building": "yes",
    "name": "Lækningaminjasafn Íslands",
    "ref:HNITNUM": "10000167",
    "source:addr": "Staðfangaskrá",
    "tourism": "museum"
  }
},
{
  "type": "way",
  "id": 93882758,
  "nodes": [
    1091367712,
    1091367670,
    1091367695,
    1091367705,
    1091367706,
    1091367669,
    1395436730,
    1091367710,
    1091367674,
    1091367681,
    1091367689,
    1091367703,
    1091367701,
    1091367712
  ],
  "tags": {
    "addr:housenumber": "3",
    "addr:postcode": "170",
    "addr:street": "Safnatröð",
    "building": "yes",
    "name": "Lyfjafræðisafn",
    "name:en": "Pharmacy Museum",
    "ref:HNITNUM": "10073107",
    "source:addr": "Staðfangaskrá",
    "tourism": "museum",
    "website": "http://www.lfi.is/index.php/features"
  }
},
{
  "type": "way",
  "id": 94552955,
  "nodes": [
    1098249454,
    1098249834,
    1098248850,
    1098249732,
    1098248650,
    1098248547,
    1098248907,
    1098249865,
    1098248706,
    1098249202,
    1098249079,
    1098249909,
    1098249454
  ],
  "tags": {
    "addr:city": "Reykjavík",
    "addr:housenumber": "70",
    "addr:postcode": "105",
    "addr:street": "Laugarnestangi",
    "building": "yes",
    "tourism": "museum"
  }
},
{
  "type": "way",
  "id": 94560552,
  "nodes": [
    1098321775,
    1098321772,
    1098321767,
    1098321840,
    1098321775
  ],
  "tags": {
    "addr:housename": "Þjóðmenningarhúsið",
    "addr:housenumber": "15",
    "addr:postcode": "101",
    "addr:street": "Hverfisgata",
    "building": "yes",
    "building:levels": "5",
    "description": "Safnahúsið, part of the national museum of Iceland, originally built as a national Library",
    "name": "Safnahúsið",
    "name:da": "Kulturhuset",
    "name:en": "The Culture House",
    "tourism": "museum",
    "wikidata": "Q3481702",
    "wikipedia": "is:Safnahúsið við Hverfisgötu"
  }
},
{
  "type": "way",
  "id": 102269963,
  "nodes": [
    1180552677,
    1180552413,
    1180552893,
    1180552430,
    1180552414,
    1180552472,
    1180552343,
    1180552848,
    1180552697,
    1180552445,
    1180552519,
    1180552844,
    1180552570,
    1180552629,
    1180552479,
    1180552517,
    1180552677
  ],
  "tags": {
    "building": "yes",
    "building:levels": "3",
    "name": "Listasafn Einars Jónssonar",
    "name:en": "Einar Jónsson Museum",
    "opening_hours": "Tu-Su 10:00-17:00",
    "tourism": "museum"
  }
},
{
  "type": "way",
  "id": 104079936,
  "nodes": [
    1201136063,
    1201136043,
    1201136087,
    1201136112,
    1201136070,
    1201136039,
    1201136089,
    1201136072,
    1201136093,
    1201136071,
    1201136108,
    1201136047,
    1201136091,
    1201136111,
    1201136085,
    1201136092,
    1201136037,
    1201136095,
    1201136063
  ],
  "tags": {
    "addr:housename": "Höfði",
    "addr:housenumber": "1",
    "addr:postcode": "105",
    "addr:street": "Félagstún",
    "building": "yes",
    "building:levels": "2",
    "name": "Höfði",
    "name:en": "Hofdi house",
    "name:ru": "Хёвди",
    "name:zh": "霍夫迪楼",
    "ref:HNITNUM": "10005007",
    "source:addr": "Staðfangaskrá",
    "tourism": "museum",
    "wheelchair": "limited",
    "wikidata": "Q1067075",
    "wikipedia": "is:Höfði"
  }
},
{
  "type": "way",
  "id": 106469186,
  "nodes": [
    1224797654,
    1224797311,
    1224797331,
    1224797472,
    1224797533,
    1224797654
  ],
  "tags": {
    "addr:housenumber": "2",
    "addr:postcode": "101",
    "addr:street": "Grandagarður",
    "building": "retail",
    "check_date": "2014-07-10",
    "museum": "historical",
    "name": "Saga Museum",
    "opening_date": "2014-07-01",
    "opening_hours": "Mo-Su 10:00-18:00",
    "ref:HNITNUM": "10011419",
    "source": "website;survey",
    "source:addr": "Staðfangaskrá",
    "tourism": "museum",
    "website": "https://sagamuseum.is/",
    "wikidata": "Q16335762"
  }
},
{
  "type": "way",
  "id": 106469198,
  "nodes": [
    1224797451,
    1224797368,
    1224797372,
    1224797330,
    1224797428,
    1224797406,
    1224797536,
    1224797472,
    1224797533,
    1224797451
  ],
  "tags": {
    "addr:housenumber": "2",
    "addr:postcode": "101",
    "addr:street": "Grandagarður",
    "building": "office",
    "building:levels": "1",
    "name": "Aurora Reykjavik Northern Lights Center",
    "opening_hours": "Mo-Su 09:00-21:00",
    "roof:levels": "0",
    "source": "visit",
    "tourism": "museum",
    "website": "https://aurorareykjavik.is/"
  }
},
{
  "type": "way",
  "id": 109166231,
  "nodes": [
    1250454351,
    1250453619,
    1250453990,
    1250453858,
    1250453695,
    1250454257,
    1250453599,
    1250454179,
    1250454351
  ],
  "tags": {
    "addr:housenumber": "41",
    "addr:postcode": "101",
    "building": "yes",
    "name": "Listasafn ASÍ",
    "source": "Bing",
    "tourism": "museum"
  }
},
{
  "type": "way",
  "id": 109660543,
  "nodes": [
    1254754485,
    1254753853,
    1254753469,
    1254754728,
    1254754377,
    1254754020,
    1254753634,
    1254753246,
    1254754543,
    1254754183,
    1254753806,
    1254753457,
    1254754716,
    1254754369,
    1254754005,
    1254753623,
    1254753233,
    1254754535,
    1254754172,
    1254753794,
    1254753403,
    1254754670,
    1254754323,
    1254753957,
    1254753575,
    1254753191,
    1254753644,
    1254753259,
    1254754551,
    1254753416,
    1254754685,
    1254754335,
    1254753972,
    1254753591,
    1254753206,
    1254754485
  ],
  "tags": {
    "addr:postcode": "105",
    "addr:street": "Sigtún",
    "building": "yes",
    "name": "Ásmundarsafn",
    "tourism": "museum",
    "wikipedia": "is:Listasafn Reykjavíkur#Ásmundarsafn"
  }
},
{
  "type": "way",
  "id": 113987890,
  "nodes": [
    2400729084,
    1291811929,
    1291811941,
    2400729082,
    2400729084
  ],
  "tags": {
    "addr:housenumber": "74",
    "addr:postcode": "101",
    "building": "yes",
    "name": "Safn Ásgríms Jónssonar",
    "name:is": "Safn Ásgríms Jónssonar",
    "opening_hours": "May 15-Sep 15 Su,Tu,Th 14:00-17:00; Sep 15-May 15 Su 14:00-17:00;Dec-Jan off ||\"Opnað fyrir hópa samkvæmt samkomulagi\"",
    "operator": "Listasafn Íslands",
    "tourism": "museum",
    "wheelchair": "no"
  }
},
{
  "type": "way",
  "id": 167187038,
  "nodes": [
    1785967774,
    1908079487,
    1785967795,
    1785967827,
    1785967746,
    1785967759,
    1785967829,
    1908079407,
    1785967784,
    2380290235,
    1785967771,
    1785967787,
    1785967836,
    1785967838,
    1785967831,
    1785967774
  ],
  "tags": {
    "addr:city": "Kópavogur",
    "addr:housenumber": "4",
    "addr:postcode": "200",
    "addr:street": "Hamraborg",
    "building": "yes",
    "name": "Gerðarsafn",
    "tourism": "museum",
    "wikidata": "Q16425087",
    "wikipedia": "is:Gerðarsafn"
  }
},
{
  "type": "way",
  "id": 171837553,
  "nodes": [
    1828088200,
    1828088201,
    1828088178,
    1828088180,
    1828088161,
    1828088160,
    1828088126,
    1828088120,
    1828088200
  ],
  "tags": {
    "addr:housenumber": "32",
    "addr:postcode": "220",
    "building": "bungalow",
    "museum": "history",
    "museum_type": "municipal",
    "name": "Bookless Bungalow",
    "opening_hours": "Jun 1-Aug 31 11:00-17:00; Sep 1-May 31 Sa-Su 11:00-17:00",
    "tourism": "museum",
    "website:en": "http://museum.hafnarfjordur.is/en/bungalow.html",
    "website:is": "http://museum.hafnarfjordur.is/bungalow.html"
  }
},
{
  "type": "way",
  "id": 237000306,
  "nodes": [
    2449496036,
    1401711056,
    6651669659,
    2449496032,
    2449496034,
    2449496038,
    2449496036
  ],
  "tags": {
    "addr:housenumber": "1",
    "addr:postcode": "260",
    "addr:street": "Vikingabraut",
    "building": "yes",
    "name": "Víkingaheimar",
    "name:en": "Viking World Museum",
    "opening_hours": "Mo-Su 10:00-17:00",
    "phone": "+354 422 2000",
    "tourism": "museum",
    "website": "https://www.vikingworld.is",
    "wikidata": "Q4163674"
  }
},
{
  "type": "way",
  "id": 289048109,
  "nodes": [
    4251487990,
    2926022579,
    2926022556,
    2926022584,
    4251487990
  ],
  "tags": {
    "addr:city": "Reykjavík",
    "addr:housenumber": "23-25",
    "addr:postcode": "101",
    "addr:street": "Fiskislóð",
    "building": "industrial",
    "fee": "yes",
    "name": "Hvalasýningin",
    "name:en": "Whales of Iceland",
    "opening_hours": "Mo-Su 10:00-17:00; Dec 25 off",
    "source": "Kaart Ground Survey 2017",
    "tourism": "museum",
    "website": "https://www.whalesoficeland.is/"
  }
},
{
  "type": "way",
  "id": 356605585,
  "nodes": [
    6557858627,
    3620281869,
    3620281870,
    3620281871,
    3620281872,
    3620281873,
    6557858615,
    6557858616,
    6557858617,
    6557858618,
    6557858619,
    6557858620,
    6557858621,
    6557858627
  ],
  "tags": {
    "addr:housename": "Hlaðir",
    "addr:postcode": "301",
    "addr:street": "Hlaðir",
    "building": "yes",
    "name": "Hernámssetrið",
    "name:en": "War and Peace Museum",
    "ref:HNITNUM": "10043251",
    "source:addr": "Staðfangaskrá",
    "tourism": "museum",
    "website": "https://www.warandpeace.is/"
  }
},
{
  "type": "relation",
  "id": 6180675,
  "members": [
    {
      "type": "way",
      "ref": 414599691,
      "role": "outer"
    },
    {
      "type": "way",
      "ref": 414599693,
      "role": "outer"
    },
    {
      "type": "way",
      "ref": 414674721,
      "role": "outer"
    },
    {
      "type": "way",
      "ref": 414599711,
      "role": "outer"
    },
    {
      "type": "way",
      "ref": 414599707,
      "role": "outer"
    },
    {
      "type": "way",
      "ref": 414674722,
      "role": "outer"
    },
    {
      "type": "way",
      "ref": 414674732,
      "role": "outer"
    },
    {
      "type": "way",
      "ref": 414674724,
      "role": "outer"
    },
    {
      "type": "way",
      "ref": 414674742,
      "role": "outer"
    },
    {
      "type": "way",
      "ref": 414674719,
      "role": "outer"
    },
    {
      "type": "way",
      "ref": 414674745,
      "role": "outer"
    },
    {
      "type": "way",
      "ref": 414599713,
      "role": "outer"
    },
    {
      "type": "way",
      "ref": 414599714,
      "role": "outer"
    },
    {
      "type": "way",
      "ref": 414599692,
      "role": "outer"
    },
    {
      "type": "way",
      "ref": 414674728,
      "role": "outer"
    },
    {
      "type": "way",
      "ref": 414599712,
      "role": "outer"
    },
    {
      "type": "way",
      "ref": 414674730,
      "role": "outer"
    },
    {
      "type": "way",
      "ref": 414599699,
      "role": "outer"
    }
  ],
  "tags": {
    "addr:city": "Reykjavík",
    "addr:housenumber": "41",
    "addr:postcode": "102",
    "addr:street": "Suðurgata",
    "atm": "no",
    "building": "yes",
    "building:colour": "#b79966",
    "building:levels": "3",
    "building:material": "plaster",
    "building:part": "no",
    "height": "16",
    "internet_access": "wlan",
    "name": "Þjóðminjasafn Íslands",
    "name:en": "National Museum of Iceland",
    "name:ru": "Музей Нации",
    "roof:colour": "#868679",
    "roof:height": "2",
    "roof:material": "metal",
    "source": "commons:Category:Campus_Maps_of_University_of_Iceland",
    "tourism": "museum",
    "type": "multipolygon",
    "website": "http://www.natmus.is",
    "wheelchair": "yes",
    "wikidata": "Q626963",
    "wikipedia": "is:Þjóðminjasafn Íslands"
  }
},
{
  "type": "node",
  "id": 1401711056,
  "lat": 63.9761451,
  "lon": -22.5287713
},
{
  "type": "node",
  "id": 2449496032,
  "lat": 63.9758865,
  "lon": -22.5290353
},
{
  "type": "node",
  "id": 2449496034,
  "lat": 63.9758970,
  "lon": -22.5292615
},
{
  "type": "node",
  "id": 2449496036,
  "lat": 63.9761548,
  "lon": -22.5289553
},
{
  "type": "node",
  "id": 2449496038,
  "lat": 63.9761668,
  "lon": -22.5291811
},
{
  "type": "node",
  "id": 6651669659,
  "lat": 63.9758734,
  "lon": -22.5287549
},
{
  "type": "node",
  "id": 380515383,
  "lat": 64.1646795,
  "lon": -22.0210443
},
{
  "type": "node",
  "id": 380515386,
  "lat": 64.1647675,
  "lon": -22.0212719
},
{
  "type": "node",
  "id": 380515389,
  "lat": 64.1645715,
  "lon": -22.0212641
},
{
  "type": "node",
  "id": 380515392,
  "lat": 64.1647191,
  "lon": -22.0213703
},
{
  "type": "node",
  "id": 1067812331,
  "lat": 64.1646234,
  "lon": -22.0212130
},
{
  "type": "node",
  "id": 1067812338,
  "lat": 64.1646486,
  "lon": -22.0214168
},
{
  "type": "node",
  "id": 1067812342,
  "lat": 64.1646785,
  "lon": -22.0213558
},
{
  "type": "node",
  "id": 1067812343,
  "lat": 64.1646429,
  "lon": -22.0211732
},
{
  "type": "node",
  "id": 1067812345,
  "lat": 64.1646268,
  "lon": -22.0214071
},
{
  "type": "node",
  "id": 1067812357,
  "lat": 64.1646369,
  "lon": -22.0213865
},
{
  "type": "node",
  "id": 1828088120,
  "lat": 64.0705577,
  "lon": -21.9650965
},
{
  "type": "node",
  "id": 1828088126,
  "lat": 64.0705640,
  "lon": -21.9649114
},
{
  "type": "node",
  "id": 1828088160,
  "lat": 64.0706554,
  "lon": -21.9649277
},
{
  "type": "node",
  "id": 1828088161,
  "lat": 64.0706574,
  "lon": -21.9648673
},
{
  "type": "node",
  "id": 1828088178,
  "lat": 64.0706910,
  "lon": -21.9649347
},
{
  "type": "node",
  "id": 1828088180,
  "lat": 64.0706931,
  "lon": -21.9648737
},
{
  "type": "node",
  "id": 1828088200,
  "lat": 64.0707322,
  "lon": -21.9651276
},
{
  "type": "node",
  "id": 1828088201,
  "lat": 64.0707385,
  "lon": -21.9649432
},
{
  "type": "node",
  "id": 1091367677,
  "lat": 64.1578104,
  "lon": -22.0073013
},
{
  "type": "node",
  "id": 1091367682,
  "lat": 64.1577956,
  "lon": -22.0071648
},
{
  "type": "node",
  "id": 1091367684,
  "lat": 64.1576684,
  "lon": -22.0072375
},
{
  "type": "node",
  "id": 1091367686,
  "lat": 64.1577035,
  "lon": -22.0075606
},
{
  "type": "node",
  "id": 1091367693,
  "lat": 64.1578624,
  "lon": -22.0074181
},
{
  "type": "node",
  "id": 1091367697,
  "lat": 64.1578314,
  "lon": -22.0074358
},
{
  "type": "node",
  "id": 1091367699,
  "lat": 64.1578474,
  "lon": -22.0072802
},
{
  "type": "node",
  "id": 1091367707,
  "lat": 64.1578367,
  "lon": -22.0074845
},
{
  "type": "node",
  "id": 1091367669,
  "lat": 64.1579390,
  "lon": -22.0063863
},
{
  "type": "node",
  "id": 1091367670,
  "lat": 64.1579142,
  "lon": -22.0066688
},
{
  "type": "node",
  "id": 1091367674,
  "lat": 64.1580845,
  "lon": -22.0062656
},
{
  "type": "node",
  "id": 1091367681,
  "lat": 64.1580701,
  "lon": -22.0064384
},
{
  "type": "node",
  "id": 1091367689,
  "lat": 64.1580442,
  "lon": -22.0064270
},
{
  "type": "node",
  "id": 1091367695,
  "lat": 64.1579293,
  "lon": -22.0064878
},
{
  "type": "node",
  "id": 1091367701,
  "lat": 64.1580632,
  "lon": -22.0065423
},
{
  "type": "node",
  "id": 1091367703,
  "lat": 64.1580355,
  "lon": -22.0065301
},
{
  "type": "node",
  "id": 1091367705,
  "lat": 64.1579581,
  "lon": -22.0065005
},
{
  "type": "node",
  "id": 1091367706,
  "lat": 64.1579640,
  "lon": -22.0064015
},
{
  "type": "node",
  "id": 1091367710,
  "lat": 64.1579516,
  "lon": -22.0062075
},
{
  "type": "node",
  "id": 1091367712,
  "lat": 64.1580477,
  "lon": -22.0067275
},
{
  "type": "node",
  "id": 1395436730,
  "lat": 64.1579399,
  "lon": -22.0063726
},
{
  "type": "node",
  "id": 4157185442,
  "lat": 64.1416169,
  "lon": -21.9484469
},
{
  "type": "node",
  "id": 4157185443,
  "lat": 64.1416191,
  "lon": -21.9484952
},
{
  "type": "node",
  "id": 4157185444,
  "lat": 64.1416198,
  "lon": -21.9483988
},
{
  "type": "node",
  "id": 4157185445,
  "lat": 64.1416263,
  "lon": -21.9485408
},
{
  "type": "node",
  "id": 4157185446,
  "lat": 64.1416276,
  "lon": -21.9483537
},
{
  "type": "node",
  "id": 4157185447,
  "lat": 64.1416381,
  "lon": -21.9485811
},
{
  "type": "node",
  "id": 4157185448,
  "lat": 64.1416400,
  "lon": -21.9483143
},
{
  "type": "node",
  "id": 4157185449,
  "lat": 64.1416537,
  "lon": -21.9486138
},
{
  "type": "node",
  "id": 4157185450,
  "lat": 64.1416561,
  "lon": -21.9482828
},
{
  "type": "node",
  "id": 4157185451,
  "lat": 64.1416723,
  "lon": -21.9486369
},
{
  "type": "node",
  "id": 4157185452,
  "lat": 64.1416751,
  "lon": -21.9482611
},
{
  "type": "node",
  "id": 4157185453,
  "lat": 64.1416928,
  "lon": -21.9486491
},
{
  "type": "node",
  "id": 4157185455,
  "lat": 64.1416982,
  "lon": -21.9481033
},
{
  "type": "node",
  "id": 4157185456,
  "lat": 64.1417140,
  "lon": -21.9486496
},
{
  "type": "node",
  "id": 4157185457,
  "lat": 64.1417210,
  "lon": -21.9482085
},
{
  "type": "node",
  "id": 4157185459,
  "lat": 64.1417346,
  "lon": -21.9486385
},
{
  "type": "node",
  "id": 4157185460,
  "lat": 64.1417535,
  "lon": -21.9486163
},
{
  "type": "node",
  "id": 4157185462,
  "lat": 64.1418264,
  "lon": -21.9480880
},
{
  "type": "node",
  "id": 4157185470,
  "lat": 64.1421439,
  "lon": -21.9481641
},
{
  "type": "node",
  "id": 4157185472,
  "lat": 64.1421695,
  "lon": -21.9482809
},
{
  "type": "node",
  "id": 4157185476,
  "lat": 64.1422150,
  "lon": -21.9481917
},
{
  "type": "node",
  "id": 4157185477,
  "lat": 64.1422214,
  "lon": -21.9482210
},
{
  "type": "node",
  "id": 4157185486,
  "lat": 64.1422900,
  "lon": -21.9481053
},
{
  "type": "node",
  "id": 4157185488,
  "lat": 64.1422989,
  "lon": -21.9480907
},
{
  "type": "node",
  "id": 4157185490,
  "lat": 64.1423058,
  "lon": -21.9480715
},
{
  "type": "node",
  "id": 4157185492,
  "lat": 64.1423104,
  "lon": -21.9480488
},
{
  "type": "node",
  "id": 4157185494,
  "lat": 64.1423124,
  "lon": -21.9480242
},
{
  "type": "node",
  "id": 4157899453,
  "lat": 64.1417101,
  "lon": -21.9481582
},
{
  "type": "node",
  "id": 4157899460,
  "lat": 64.1418624,
  "lon": -21.9480468
},
{
  "type": "node",
  "id": 4157899468,
  "lat": 64.1418959,
  "lon": -21.9480086
},
{
  "type": "node",
  "id": 4157902942,
  "lat": 64.1421947,
  "lon": -21.9482519
},
{
  "type": "node",
  "id": 4157902952,
  "lat": 64.1422540,
  "lon": -21.9481468
},
{
  "type": "node",
  "id": 4157185461,
  "lat": 64.1418035,
  "lon": -21.9479828
},
{
  "type": "node",
  "id": 4157185463,
  "lat": 64.1420238,
  "lon": -21.9477371
},
{
  "type": "node",
  "id": 4157185464,
  "lat": 64.1420456,
  "lon": -21.9478373
},
{
  "type": "node",
  "id": 4157185469,
  "lat": 64.1421349,
  "lon": -21.9476099
},
{
  "type": "node",
  "id": 4157185474,
  "lat": 64.1421819,
  "lon": -21.9478260
},
{
  "type": "node",
  "id": 4157185475,
  "lat": 64.1422072,
  "lon": -21.9477971
},
{
  "type": "node",
  "id": 4157185478,
  "lat": 64.1422304,
  "lon": -21.9479178
},
{
  "type": "node",
  "id": 4157185479,
  "lat": 64.1422329,
  "lon": -21.9479149
},
{
  "type": "node",
  "id": 4157185480,
  "lat": 64.1422330,
  "lon": -21.9479301
},
{
  "type": "node",
  "id": 4157185481,
  "lat": 64.1422369,
  "lon": -21.9479477
},
{
  "type": "node",
  "id": 4157185482,
  "lat": 64.1422519,
  "lon": -21.9479306
},
{
  "type": "node",
  "id": 4157185483,
  "lat": 64.1422623,
  "lon": -21.9479231
},
{
  "type": "node",
  "id": 4157185484,
  "lat": 64.1422732,
  "lon": -21.9479219
},
{
  "type": "node",
  "id": 4157185485,
  "lat": 64.1422839,
  "lon": -21.9479271
},
{
  "type": "node",
  "id": 4157185487,
  "lat": 64.1422937,
  "lon": -21.9479383
},
{
  "type": "node",
  "id": 4157185489,
  "lat": 64.1423018,
  "lon": -21.9479548
},
{
  "type": "node",
  "id": 4157185491,
  "lat": 64.1423079,
  "lon": -21.9479756
},
{
  "type": "node",
  "id": 4157185493,
  "lat": 64.1423115,
  "lon": -21.9479992
},
{
  "type": "node",
  "id": 4157902896,
  "lat": 64.1420124,
  "lon": -21.9478753
},
{
  "type": "node",
  "id": 4157902903,
  "lat": 64.1420406,
  "lon": -21.9477179
},
{
  "type": "node",
  "id": 4157902910,
  "lat": 64.1420667,
  "lon": -21.9476880
},
{
  "type": "node",
  "id": 4157902918,
  "lat": 64.1420941,
  "lon": -21.9476566
},
{
  "type": "node",
  "id": 1224797311,
  "lat": 64.1525225,
  "lon": -21.9516643
},
{
  "type": "node",
  "id": 1224797330,
  "lat": 64.1526344,
  "lon": -21.9505010
},
{
  "type": "node",
  "id": 1224797331,
  "lat": 64.1523980,
  "lon": -21.9511567
},
{
  "type": "node",
  "id": 1224797368,
  "lat": 64.1526807,
  "lon": -21.9506257
},
{
  "type": "node",
  "id": 1224797372,
  "lat": 64.1526687,
  "lon": -21.9506411
},
{
  "type": "node",
  "id": 1224797406,
  "lat": 64.1525567,
  "lon": -21.9508369
},
{
  "type": "node",
  "id": 1224797428,
  "lat": 64.1525128,
  "lon": -21.9506579
},
{
  "type": "node",
  "id": 1224797451,
  "lat": 64.1528032,
  "lon": -21.9511252
},
{
  "type": "node",
  "id": 1224797472,
  "lat": 64.1526056,
  "lon": -21.9508889
},
{
  "type": "node",
  "id": 1224797533,
  "lat": 64.1526971,
  "lon": -21.9512620
},
{
  "type": "node",
  "id": 1224797536,
  "lat": 64.1525842,
  "lon": -21.9508015
},
{
  "type": "node",
  "id": 1224797654,
  "lat": 64.1527301,
  "lon": -21.9513965
},
{
  "type": "node",
  "id": 2926022556,
  "lat": 64.1554607,
  "lon": -21.9480371
},
{
  "type": "node",
  "id": 2926022579,
  "lat": 64.1552931,
  "lon": -21.9485944
},
{
  "type": "node",
  "id": 2926022584,
  "lat": 64.1561227,
  "lon": -21.9490849
},
{
  "type": "node",
  "id": 4251487990,
  "lat": 64.1559551,
  "lon": -21.9496421
},
{
  "type": "node",
  "id": 441789834,
  "lat": 64.1413995,
  "lon": -21.9294063
},
{
  "type": "node",
  "id": 441789841,
  "lat": 64.1422115,
  "lon": -21.9290817
},
{
  "type": "node",
  "id": 441789845,
  "lat": 64.1419291,
  "lon": -21.9301455
},
{
  "type": "node",
  "id": 1180552343,
  "lat": 64.1418163,
  "lon": -21.9289237
},
{
  "type": "node",
  "id": 1180552413,
  "lat": 64.1419841,
  "lon": -21.9291648
},
{
  "type": "node",
  "id": 1180552414,
  "lat": 64.1418957,
  "lon": -21.9289651
},
{
  "type": "node",
  "id": 1180552430,
  "lat": 64.1419477,
  "lon": -21.9290371
},
{
  "type": "node",
  "id": 1180552445,
  "lat": 64.1417723,
  "lon": -21.9288777
},
{
  "type": "node",
  "id": 1180552472,
  "lat": 64.1418824,
  "lon": -21.9290153
},
{
  "type": "node",
  "id": 1180552479,
  "lat": 64.1419810,
  "lon": -21.9289075
},
{
  "type": "node",
  "id": 1180552517,
  "lat": 64.1419939,
  "lon": -21.9288585
},
{
  "type": "node",
  "id": 1180552519,
  "lat": 64.1417212,
  "lon": -21.9288069
},
{
  "type": "node",
  "id": 1180552570,
  "lat": 64.1418384,
  "lon": -21.9286384
},
{
  "type": "node",
  "id": 1180552629,
  "lat": 64.1418246,
  "lon": -21.9286908
},
{
  "type": "node",
  "id": 1180552677,
  "lat": 64.1420459,
  "lon": -21.9289305
},
{
  "type": "node",
  "id": 1180552697,
  "lat": 64.1417874,
  "lon": -21.9288204
},
{
  "type": "node",
  "id": 1180552844,
  "lat": 64.1417851,
  "lon": -21.9285645
},
{
  "type": "node",
  "id": 1180552848,
  "lat": 64.1418285,
  "lon": -21.9288774
},
{
  "type": "node",
  "id": 1180552893,
  "lat": 64.1419328,
  "lon": -21.9290936
},
{
  "type": "node",
  "id": 1250453619,
  "lat": 64.1409336,
  "lon": -21.9284397
},
{
  "type": "node",
  "id": 1250453858,
  "lat": 64.1408127,
  "lon": -21.9283812
},
{
  "type": "node",
  "id": 1250453990,
  "lat": 64.1409116,
  "lon": -21.9285213
},
{
  "type": "node",
  "id": 1250454351,
  "lat": 64.1409246,
  "lon": -21.9284269
},
{
  "type": "node",
  "id": 1291811929,
  "lat": 64.1400198,
  "lon": -21.9330263
},
{
  "type": "node",
  "id": 1291811941,
  "lat": 64.1399887,
  "lon": -21.9331048
},
{
  "type": "node",
  "id": 2400729082,
  "lat": 64.1399255,
  "lon": -21.9329730
},
{
  "type": "node",
  "id": 2400729084,
  "lat": 64.1399574,
  "lon": -21.9328961
},
{
  "type": "node",
  "id": 2921533516,
  "lat": 64.1415188,
  "lon": -21.9289571
},
{
  "type": "node",
  "id": 1098321767,
  "lat": 64.1471600,
  "lon": -21.9319078
},
{
  "type": "node",
  "id": 1098321772,
  "lat": 64.1472919,
  "lon": -21.9325880
},
{
  "type": "node",
  "id": 1098321775,
  "lat": 64.1474584,
  "lon": -21.9324184
},
{
  "type": "node",
  "id": 1098321840,
  "lat": 64.1473265,
  "lon": -21.9317381
},
{
  "type": "node",
  "id": 441789838,
  "lat": 64.1416820,
  "lon": -21.9283426
},
{
  "type": "node",
  "id": 1250453599,
  "lat": 64.1408535,
  "lon": -21.9281576
},
{
  "type": "node",
  "id": 1250453695,
  "lat": 64.1408313,
  "lon": -21.9283122
},
{
  "type": "node",
  "id": 1250454179,
  "lat": 64.1409575,
  "lon": -21.9283049
},
{
  "type": "node",
  "id": 1250454257,
  "lat": 64.1408172,
  "lon": -21.9282922
},
{
  "type": "node",
  "id": 1785967746,
  "lat": 64.1120503,
  "lon": -21.9099818
},
{
  "type": "node",
  "id": 1785967759,
  "lat": 64.1120065,
  "lon": -21.9099834
},
{
  "type": "node",
  "id": 1785967771,
  "lat": 64.1121494,
  "lon": -21.9102435
},
{
  "type": "node",
  "id": 1785967774,
  "lat": 64.1119654,
  "lon": -21.9104721
},
{
  "type": "node",
  "id": 1785967784,
  "lat": 64.1121449,
  "lon": -21.9096018
},
{
  "type": "node",
  "id": 1785967787,
  "lat": 64.1121035,
  "lon": -21.9102451
},
{
  "type": "node",
  "id": 1785967795,
  "lat": 64.1119625,
  "lon": -21.9100499
},
{
  "type": "node",
  "id": 1785967827,
  "lat": 64.1120507,
  "lon": -21.9100467
},
{
  "type": "node",
  "id": 1785967829,
  "lat": 64.1120039,
  "lon": -21.9096070
},
{
  "type": "node",
  "id": 1785967831,
  "lat": 64.1120584,
  "lon": -21.9104687
},
{
  "type": "node",
  "id": 1785967836,
  "lat": 64.1121042,
  "lon": -21.9103458
},
{
  "type": "node",
  "id": 1785967838,
  "lat": 64.1120576,
  "lon": -21.9103475
},
{
  "type": "node",
  "id": 1908079407,
  "lat": 64.1120189,
  "lon": -21.9096064
},
{
  "type": "node",
  "id": 1908079487,
  "lat": 64.1119653,
  "lon": -21.9104524
},
{
  "type": "node",
  "id": 2380290235,
  "lat": 64.1121488,
  "lon": -21.9101561
},
{
  "type": "node",
  "id": 295864294,
  "lat": 64.1169932,
  "lon": -21.8173214
},
{
  "type": "node",
  "id": 783567629,
  "lat": 64.1167142,
  "lon": -21.8180532
},
{
  "type": "node",
  "id": 295864292,
  "lat": 64.1200878,
  "lon": -21.8175193
},
{
  "type": "node",
  "id": 783567625,
  "lat": 64.1201161,
  "lon": -21.8173130
},
{
  "type": "node",
  "id": 783567626,
  "lat": 64.1196946,
  "lon": -21.8193583
},
{
  "type": "node",
  "id": 783567628,
  "lat": 64.1172933,
  "lon": -21.8225021
},
{
  "type": "node",
  "id": 1265563538,
  "lat": 64.1178911,
  "lon": -21.8223486
},
{
  "type": "node",
  "id": 1265563543,
  "lat": 64.1178499,
  "lon": -21.8220632
},
{
  "type": "node",
  "id": 1265563566,
  "lat": 64.1194611,
  "lon": -21.8204138
},
{
  "type": "node",
  "id": 1265563569,
  "lat": 64.1193825,
  "lon": -21.8212387
},
{
  "type": "node",
  "id": 1265563573,
  "lat": 64.1194744,
  "lon": -21.8212183
},
{
  "type": "node",
  "id": 1265563625,
  "lat": 64.1194503,
  "lon": -21.8206085
},
{
  "type": "node",
  "id": 1265563663,
  "lat": 64.1194916,
  "lon": -21.8202248
},
{
  "type": "node",
  "id": 1533794115,
  "lat": 64.1194208,
  "lon": -21.8212302
},
{
  "type": "node",
  "id": 5673669113,
  "lat": 64.1178734,
  "lon": -21.8222258
},
{
  "type": "node",
  "id": 295864126,
  "lat": 64.1192870,
  "lon": -21.8151244
},
{
  "type": "node",
  "id": 295864295,
  "lat": 64.1186965,
  "lon": -21.8145758
},
{
  "type": "node",
  "id": 783567624,
  "lat": 64.1200290,
  "lon": -21.8155063
},
{
  "type": "node",
  "id": 783567630,
  "lat": 64.1172157,
  "lon": -21.8168954
},
{
  "type": "node",
  "id": 783567633,
  "lat": 64.1182692,
  "lon": -21.8151279
},
{
  "type": "node",
  "id": 783567635,
  "lat": 64.1188233,
  "lon": -21.8154455
},
{
  "type": "node",
  "id": 783567636,
  "lat": 64.1194366,
  "lon": -21.8147527
},
{
  "type": "node",
  "id": 783567637,
  "lat": 64.1195121,
  "lon": -21.8147344
},
{
  "type": "node",
  "id": 1265563534,
  "lat": 64.1193610,
  "lon": -21.8149838
},
{
  "type": "node",
  "id": 1201136037,
  "lat": 64.1464554,
  "lon": -21.9061643
},
{
  "type": "node",
  "id": 1201136039,
  "lat": 64.1465472,
  "lon": -21.9065639
},
{
  "type": "node",
  "id": 1201136043,
  "lat": 64.1465796,
  "lon": -21.9063353
},
{
  "type": "node",
  "id": 1201136047,
  "lat": 64.1464256,
  "lon": -21.9063815
},
{
  "type": "node",
  "id": 1201136063,
  "lat": 64.1465905,
  "lon": -21.9062353
},
{
  "type": "node",
  "id": 1201136070,
  "lat": 64.1465572,
  "lon": -21.9064794
},
{
  "type": "node",
  "id": 1201136071,
  "lat": 64.1464531,
  "lon": -21.9064942
},
{
  "type": "node",
  "id": 1201136072,
  "lat": 64.1465180,
  "lon": -21.9065626
},
{
  "type": "node",
  "id": 1201136085,
  "lat": 64.1464847,
  "lon": -21.9062716
},
{
  "type": "node",
  "id": 1201136087,
  "lat": 64.1465660,
  "lon": -21.9064110
},
{
  "type": "node",
  "id": 1201136089,
  "lat": 64.1465192,
  "lon": -21.9065465
},
{
  "type": "node",
  "id": 1201136091,
  "lat": 64.1464396,
  "lon": -21.9063520
},
{
  "type": "node",
  "id": 1201136092,
  "lat": 64.1464467,
  "lon": -21.9062394
},
{
  "type": "node",
  "id": 1201136093,
  "lat": 64.1464519,
  "lon": -21.9065103
},
{
  "type": "node",
  "id": 1201136095,
  "lat": 64.1464700,
  "lon": -21.9061388
},
{
  "type": "node",
  "id": 1201136108,
  "lat": 64.1464186,
  "lon": -21.9064620
},
{
  "type": "node",
  "id": 1201136111,
  "lat": 64.1464683,
  "lon": -21.9063775
},
{
  "type": "node",
  "id": 1201136112,
  "lat": 64.1465591,
  "lon": -21.9064722
},
{
  "type": "node",
  "id": 1254753191,
  "lat": 64.1415128,
  "lon": -21.8855450
},
{
  "type": "node",
  "id": 1254753206,
  "lat": 64.1416782,
  "lon": -21.8853247
},
{
  "type": "node",
  "id": 1254753233,
  "lat": 64.1414212,
  "lon": -21.8852158
},
{
  "type": "node",
  "id": 1254753246,
  "lat": 64.1416299,
  "lon": -21.8850782
},
{
  "type": "node",
  "id": 1254753259,
  "lat": 64.1415483,
  "lon": -21.8855747
},
{
  "type": "node",
  "id": 1254753403,
  "lat": 64.1414398,
  "lon": -21.8853905
},
{
  "type": "node",
  "id": 1254753416,
  "lat": 64.1415922,
  "lon": -21.8855842
},
{
  "type": "node",
  "id": 1254753457,
  "lat": 64.1414535,
  "lon": -21.8850018
},
{
  "type": "node",
  "id": 1254753469,
  "lat": 64.1416961,
  "lon": -21.8851879
},
{
  "type": "node",
  "id": 1254753575,
  "lat": 64.1414981,
  "lon": -21.8855305
},
{
  "type": "node",
  "id": 1254753591,
  "lat": 64.1416606,
  "lon": -21.8852321
},
{
  "type": "node",
  "id": 1254753623,
  "lat": 64.1414219,
  "lon": -21.8851772
},
{
  "type": "node",
  "id": 1254753634,
  "lat": 64.1416128,
  "lon": -21.8849786
},
{
  "type": "node",
  "id": 1254753644,
  "lat": 64.1415297,
  "lon": -21.8855603
},
{
  "type": "node",
  "id": 1254753794,
  "lat": 64.1414332,
  "lon": -21.8853575
},
{
  "type": "node",
  "id": 1254753806,
  "lat": 64.1414768,
  "lon": -21.8849414
},
{
  "type": "node",
  "id": 1254753853,
  "lat": 64.1416918,
  "lon": -21.8851939
},
{
  "type": "node",
  "id": 1254753957,
  "lat": 64.1414816,
  "lon": -21.8855055
},
{
  "type": "node",
  "id": 1254753972,
  "lat": 64.1415808,
  "lon": -21.8853035
},
{
  "type": "node",
  "id": 1254754005,
  "lat": 64.1414244,
  "lon": -21.8851386
},
{
  "type": "node",
  "id": 1254754020,
  "lat": 64.1416483,
  "lon": -21.8849485
},
{
  "type": "node",
  "id": 1254754172,
  "lat": 64.1414262,
  "lon": -21.8853108
},
{
  "type": "node",
  "id": 1254754183,
  "lat": 64.1415202,
  "lon": -21.8850521
},
{
  "type": "node",
  "id": 1254754323,
  "lat": 64.1414644,
  "lon": -21.8854709
},
{
  "type": "node",
  "id": 1254754335,
  "lat": 64.1415882,
  "lon": -21.8854233
},
{
  "type": "node",
  "id": 1254754369,
  "lat": 64.1414286,
  "lon": -21.8851056
},
{
  "type": "node",
  "id": 1254754377,
  "lat": 64.1416650,
  "lon": -21.8850491
},
{
  "type": "node",
  "id": 1254754485,
  "lat": 64.1417111,
  "lon": -21.8852945
},
{
  "type": "node",
  "id": 1254754535,
  "lat": 64.1414219,
  "lon": -21.8852585
},
{
  "type": "node",
  "id": 1254754543,
  "lat": 64.1415514,
  "lon": -21.8851527
},
{
  "type": "node",
  "id": 1254754551,
  "lat": 64.1415697,
  "lon": -21.8855828
},
{
  "type": "node",
  "id": 1254754670,
  "lat": 64.1414514,
  "lon": -21.8854291
},
{
  "type": "node",
  "id": 1254754685,
  "lat": 64.1415838,
  "lon": -21.8854605
},
{
  "type": "node",
  "id": 1254754716,
  "lat": 64.1414388,
  "lon": -21.8850541
},
{
  "type": "node",
  "id": 1254754728,
  "lat": 64.1416703,
  "lon": -21.8850480
},
{
  "type": "node",
  "id": 1098248547,
  "lat": 64.1530497,
  "lon": -21.8873031
},
{
  "type": "node",
  "id": 1098248650,
  "lat": 64.1531759,
  "lon": -21.8871931
},
{
  "type": "node",
  "id": 1098248706,
  "lat": 64.1530543,
  "lon": -21.8867533
},
{
  "type": "node",
  "id": 1098248850,
  "lat": 64.1531841,
  "lon": -21.8870403
},
{
  "type": "node",
  "id": 1098248907,
  "lat": 64.1529865,
  "lon": -21.8869115
},
{
  "type": "node",
  "id": 1098249079,
  "lat": 64.1531338,
  "lon": -21.8869786
},
{
  "type": "node",
  "id": 1098249202,
  "lat": 64.1530999,
  "lon": -21.8870134
},
{
  "type": "node",
  "id": 1098249454,
  "lat": 64.1532566,
  "lon": -21.8869732
},
{
  "type": "node",
  "id": 1098249732,
  "lat": 64.1531619,
  "lon": -21.8870885
},
{
  "type": "node",
  "id": 1098249834,
  "lat": 64.1532005,
  "lon": -21.8870805
},
{
  "type": "node",
  "id": 1098249865,
  "lat": 64.1530344,
  "lon": -21.8868632
},
{
  "type": "node",
  "id": 1098249909,
  "lat": 64.1532099,
  "lon": -21.8868364
},
{
  "type": "node",
  "id": 3620281869,
  "lat": 64.4109718,
  "lon": -21.6095589
},
{
  "type": "node",
  "id": 3620281870,
  "lat": 64.4109004,
  "lon": -21.6095601
},
{
  "type": "node",
  "id": 3620281871,
  "lat": 64.4109001,
  "lon": -21.6094742
},
{
  "type": "node",
  "id": 3620281872,
  "lat": 64.4107755,
  "lon": -21.6094763
},
{
  "type": "node",
  "id": 3620281873,
  "lat": 64.4107738,
  "lon": -21.6089081
},
{
  "type": "node",
  "id": 6557858615,
  "lat": 64.4108033,
  "lon": -21.6089076
},
{
  "type": "node",
  "id": 6557858616,
  "lat": 64.4108030,
  "lon": -21.6088123
},
{
  "type": "node",
  "id": 6557858617,
  "lat": 64.4108365,
  "lon": -21.6088118
},
{
  "type": "node",
  "id": 6557858618,
  "lat": 64.4108366,
  "lon": -21.6088474
},
{
  "type": "node",
  "id": 6557858619,
  "lat": 64.4109269,
  "lon": -21.6088459
},
{
  "type": "node",
  "id": 6557858620,
  "lat": 64.4109269,
  "lon": -21.6088249
},
{
  "type": "node",
  "id": 6557858621,
  "lat": 64.4109696,
  "lon": -21.6088242
},
{
  "type": "node",
  "id": 6557858627,
  "lat": 64.4109698,
  "lon": -21.6089081
},
{
  "type": "way",
  "id": 414599691,
  "nodes": [
    4157185460,
    4157185459,
    4157185456,
    4157185453,
    4157185451,
    4157185449,
    4157185447,
    4157185445,
    4157185443,
    4157185442,
    4157185444,
    4157185446,
    4157185448,
    4157185450,
    4157185452
  ]
},
{
  "type": "way",
  "id": 414599693,
  "nodes": [
    4157185452,
    4157185457
  ]
},
{
  "type": "way",
  "id": 414599699,
  "nodes": [
    4157185470,
    4157185460
  ]
},
{
  "type": "way",
  "id": 414599707,
  "nodes": [
    4157185462,
    4157899460
  ]
},
{
  "type": "way",
  "id": 414599712,
  "nodes": [
    4157185476,
    4157185477,
    4157902942,
    4157185472
  ]
},
{
  "type": "way",
  "id": 414674721,
  "nodes": [
    4157185457,
    4157899453
  ]
},
{
  "type": "way",
  "id": 414674722,
  "nodes": [
    4157899460,
    4157899468
  ]
},
{
  "type": "way",
  "id": 414674728,
  "nodes": [
    4157902952,
    4157185476
  ]
},
{
  "type": "way",
  "id": 414674730,
  "nodes": [
    4157185472,
    4157185470
  ]
},
{
  "type": "way",
  "id": 414599713,
  "nodes": [
    4157902918,
    4157185469,
    4157185474
  ]
},
{
  "type": "way",
  "id": 414599714,
  "nodes": [
    4157185474,
    4157185475,
    4157185479,
    4157185478,
    4157185480
  ]
},
{
  "type": "way",
  "id": 414674719,
  "nodes": [
    4157185463,
    4157902903
  ]
},
{
  "type": "way",
  "id": 414674724,
  "nodes": [
    4157902896,
    4157185464
  ]
},
{
  "type": "way",
  "id": 414674742,
  "nodes": [
    4157185464,
    4157185463
  ]
},
{
  "type": "way",
  "id": 414674745,
  "nodes": [
    4157902903,
    4157902910,
    4157902918
  ]
},
{
  "type": "way",
  "id": 414599692,
  "nodes": [
    4157185480,
    4157185481,
    4157185482,
    4157185483,
    4157185484,
    4157185485,
    4157185487,
    4157185489,
    4157185491,
    4157185493,
    4157185494,
    4157185492,
    4157185490,
    4157185488,
    4157185486,
    4157902952
  ]
},
{
  "type": "way",
  "id": 414599711,
  "nodes": [
    4157899453,
    4157185455,
    4157185461,
    4157185462
  ]
},
{
  "type": "way",
  "id": 414674732,
  "nodes": [
    4157899468,
    4157902896
  ]
}

  ]
}
