{
  "version": 0.6,
  "generator": "Overpass API 0.7.55.9 ab41fea6",
  "osm3s": {
    "timestamp_osm_base": "2020-02-14T14:49:01Z",
    "copyright": "The data included in this document is from www.openstreetmap.org. The data is made available under ODbL."
  },
  "elements": [

{
  "type": "node",
  "id": 714813531,
  "lat": 45.6009585,
  "lon": 8.9132828,
  "tags": {
    "addr:city": "Legnano",
    "addr:country": "IT",
    "addr:housenumber": "225",
    "addr:postcode": "20025",
    "addr:street": "Corso Giuseppe Garibaldi",
    "name": "Museo Civico Guido Sutermeister",
    "tourism": "museum",
    "wikidata": "Q3867779",
    "wikipedia": "it:Museo civico Guido Sutermeister"
  }
},
{
  "type": "node",
  "id": 1003848278,
  "lat": 45.4609570,
  "lon": 9.1816366,
  "tags": {
    "addr:city": "Milano",
    "addr:country": "IT",
    "addr:housenumber": "4/A",
    "addr:street": "Via San Sisto",
    "name": "Museo Francesco Messina",
    "start_date": "1974",
    "tourism": "museum",
    "website": "https://www.comune.milano.it/dseserver/WebCity/documenti.nsf/weball/0F4AC0BE1FA58A76C1256B500031E66E?opendocument",
    "wikidata": "Q16337874",
    "wikipedia": "it:Civico museo-studio Francesco Messina"
  }
},
{
  "type": "node",
  "id": 1029667846,
  "lat": 45.4722044,
  "lon": 9.1883633,
  "tags": {
    "addr:city": "Milano",
    "addr:housenumber": "28",
    "addr:postcode": "20121",
    "addr:street": "Via Brera",
    "email": "pin-br@beniculturali.it",
    "name": "Pinacoteca di Brera",
    "name:fr": "Pinacothèque de Brera",
    "name:it": "Pinacoteca di Brera",
    "name:lt": "Breros pinakoteka",
    "name:pl": "Pinakoteka Brera",
    "name:ru": "Пинакотека Брера",
    "name:uk": "Брера",
    "opening_hours": "Tu-Su 08:30-19:15; Mo; Jan 1; Dec 25 off",
    "phone": "+39 02 722631",
    "tourism": "museum",
    "website": "http://www.brera.beniculturali.it/",
    "wikidata": "Q150066",
    "wikipedia": "it:Pinacoteca di Brera"
  }
},
{
  "type": "node",
  "id": 1223091032,
  "lat": 45.4634578,
  "lon": 9.1902113,
  "tags": {
    "addr:city": "Milano",
    "addr:country": "IT",
    "addr:housenumber": "1",
    "addr:postcode": "20122",
    "addr:street": "Via Guglielmo Marconi",
    "alt_name": "Museo del 900",
    "email": "c.museo900@comune.milano.it",
    "name": "Museo del Novecento",
    "name:it": "Museo del Novecento",
    "name:zh": "1900年代美術館",
    "opening_hours": "Tu-We,Fr,Su 09:30-19:30; Th,Sa 09:30-22:30; Mo 14:30-19:30",
    "phone": "+39 02 88444061",
    "source": "http://www.museodelnovecento.org/dove-siamo",
    "tourism": "museum",
    "website": "https://www.museodelnovecento.org/it/",
    "wheelchair": "yes",
    "wikidata": "Q261233",
    "wikipedia": "it:Museo del Novecento"
  }
},
{
  "type": "node",
  "id": 1558406762,
  "lat": 45.5465325,
  "lon": 9.1724075,
  "tags": {
    "addr:city": "Cormano",
    "addr:country": "IT",
    "addr:housenumber": "3",
    "addr:postcode": "20032",
    "addr:street": "Via Gianni Rodari",
    "email": "museodelgiocattolo@tin.it",
    "name": "Museo del Giocattolo e del Bambino",
    "opening_hours": "Sa-Su, PH 14:30-18:00; Mo-Fr \"su prenotazione\"",
    "phone": "+39 340 1509192",
    "tourism": "museum",
    "website": "http://www.museodelgiocattolo.it/mi/home_mi.html"
  }
},
{
  "type": "node",
  "id": 1587037621,
  "lat": 45.4494201,
  "lon": 9.1835233,
  "tags": {
    "name": "Forma Gallery",
    "tourism": "museum"
  }
},
{
  "type": "node",
  "id": 1734247949,
  "lat": 45.4676222,
  "lon": 8.8822281,
  "tags": {
    "name": "Museo della Battaglia",
    "tourism": "museum",
    "wikidata": "Q16580588",
    "wikipedia": "it:Museo della battaglia di Magenta"
  }
},
{
  "type": "node",
  "id": 1736655939,
  "lat": 45.1908373,
  "lon": 9.1582144,
  "tags": {
    "addr:city": "Pavia",
    "addr:housenumber": "35",
    "addr:postcode": "27100",
    "addr:street": "Viale 11 Febbraio",
    "email": "museicivici@comune.pv.it",
    "name": "Musei Civici di Pavia",
    "opening_hours": "Mo off; Tu-Fr 14:30-18:00; Sa-Su 11:00-19:00",
    "phone": "+39 0382 399770",
    "tourism": "museum",
    "website": "http://www.museicivici.pavia.it/musei.html",
    "wikidata": "Q18713219"
  }
},
{
  "type": "node",
  "id": 1736686659,
  "lat": 45.1889508,
  "lon": 9.1320200,
  "tags": {
    "name": "Museo di Storia Naturale",
    "name:es": "Museo de Historia Natural de Pavia",
    "name:fr": "Musée d'histoire naturelle de Pavie",
    "tourism": "museum",
    "wikipedia": "it:Museo di storia naturale di Pavia"
  }
},
{
  "type": "node",
  "id": 1736686683,
  "lat": 45.2030556,
  "lon": 9.1381428,
  "tags": {
    "addr:city": "Pavia",
    "addr:housenumber": "1",
    "addr:postcode": "27100",
    "addr:street": "Via Ferrata",
    "email": "callegari@crystal.unipv.it",
    "fax": "+39 0382 985 890",
    "name": "Museo di Mineralogia",
    "opening_hours": "Mo-Th 14:00-16:30; Fr 09:00-12:00",
    "phone": "+39 0382 985 873",
    "tourism": "museum",
    "website": "http://musei.unipv.it/Mineralogia"
  }
},
{
  "type": "node",
  "id": 1761156826,
  "lat": 45.4662047,
  "lon": 9.1706550,
  "tags": {
    "addr:city": "Milano",
    "addr:country": "IT",
    "addr:housenumber": "2",
    "addr:postcode": "20100",
    "addr:street": "Piazza Santa Maria delle Grazie",
    "fax": "+39 02 92800363",
    "name": "Museo del Cenacolo Vinciano",
    "name:en": "Museum of the Cenacolo of leonardo da vinci",
    "name:fr": "Musée du cénacle Léonard de Vinci",
    "name:pt": "Cenacolo Vinciano",
    "name:zh": "最后的晚餐",
    "opening_hours": "Tu-Su 08:15-19:00; Jan 01 closed, May 01 closed, Dec 25 closed",
    "phone": "+39 02 92800362",
    "tourism": "museum",
    "website": "http://www.architettonicimilano.lombardia.beniculturali.it/Page/t02/view_html?idp=74",
    "wheelchair": "yes",
    "wheelchair:description:de": "Karten sollten im Internet vorbestellt werden",
    "wikidata": "Q55388576"
  }
},
{
  "type": "node",
  "id": 1770421615,
  "lat": 45.6385236,
  "lon": 8.9657622,
  "tags": {
    "name": "Museo della Carrozza Equestre",
    "tourism": "museum"
  }
},
{
  "type": "node",
  "id": 1828890767,
  "lat": 45.4672642,
  "lon": 9.1893178,
  "tags": {
    "email": "museoscala@fondazionelascala.it",
    "name": "Museo Teatrale alla Scala",
    "name:de": "La Scala Theatermuseum",
    "name:en": "Theater museum La Scala",
    "name:es": "Museo Teatro de la Scala",
    "name:it": "Museo Teatrale alla Scala",
    "name:ru": "Музей театра Ла Скала",
    "opening_hours": "09:00-17:30; Dec 07,Dec 25,Dec 26,Jan 01 off",
    "phone": "+39 02 88797473",
    "tourism": "museum",
    "website": "http://www.museoscala.org/",
    "wikidata": "Q51099",
    "wikipedia": "it:Museo teatrale alla Scala"
  }
},
{
  "type": "node",
  "id": 1836751671,
  "lat": 45.4634578,
  "lon": 9.1852091,
  "tags": {
    "addr:city": "Milano",
    "addr:country": "IT",
    "addr:housenumber": "20",
    "addr:postcode": "20123",
    "addr:street": "Via dell'Ambrosiana",
    "contact:email": "info@museomanginibonomi.it",
    "contact:facebook": "https://www.facebook.com/www.museomanginibonomi.it/",
    "contact:fax": "+39 02 86451493",
    "contact:instagram": "https://www.instagram.com/museomanginibonomi",
    "contact:phone": "+39 02 86451455",
    "contact:website": "http://www.museomanginibonomi.it",
    "name": "Museo Mangini Bonomi",
    "opening_hours": "Mo,Th 15:00-19:00; We 15:00-17:00; Mo,We,Th PH off",
    "tourism": "museum"
  }
},
{
  "type": "node",
  "id": 1852190911,
  "lat": 45.4705795,
  "lon": 9.1793270,
  "tags": {
    "addr:city": "Milano",
    "addr:postcode": "20121",
    "addr:street": "Piazza Castello",
    "comment:it": "ingresso a pagamento. ingresso gratuito ogni primo e terzo mertedì del mese dopo le ore 14 e ogni prima domenica del mese tutto il giorno.",
    "name": "Musei del Castello",
    "name:fr": "Musée du château",
    "opening_hours": "Tu-Su 09:00-17:30",
    "phone": "+39 02 88463700",
    "tourism": "museum",
    "website": "https://www.milanocastello.it/it",
    "wheelchair": "yes",
    "wheelchair:description:de": "Teilweise Kopfsteinpflaster, das Museum ist gut zugänglich!",
    "wikidata": "Q3867520",
    "wikipedia": "it:Musei del Castello Sforzesco"
  }
},
{
  "type": "node",
  "id": 1898336420,
  "lat": 45.4550226,
  "lon": 9.1812263,
  "tags": {
    "addr:city": "Milano",
    "addr:country": "IT",
    "addr:housenumber": "95",
    "addr:postcode": "20123",
    "addr:street": "Corso di Porta Ticinese",
    "name": "Museo Diocesano di Milano",
    "name:fr": "Musée diocésain de Milan",
    "opening_hours": "Mo-Fr 10:00-18:00",
    "source": "http://museodiocesano.it/visitare-il-museo/come-raggiungerci/",
    "tourism": "museum",
    "website": "http://www.museodiocesano.it",
    "wikidata": "Q1846306",
    "wikipedia": "it:Museo diocesano (Milano)"
  }
},
{
  "type": "node",
  "id": 1898336423,
  "lat": 45.4541218,
  "lon": 9.1812603,
  "tags": {
    "addr:city": "Milano",
    "addr:housenumber": "3",
    "addr:postcode": "20123",
    "addr:street": "Piazza Sant'Eustorgio",
    "alt_name": "Museo di Sant'Eustorgio",
    "contact:email": "museosanteustorgio@gmail.com",
    "contact:facebook": "https://www.facebook.com/Museo-di-SantEustorgio-Cappella-Portinari-184358721942294/",
    "contact:instagram": "https://instagram.com/museodisanteustorgio",
    "contact:phone": "+39 02 89402671",
    "contact:website": "https://museosanteustorgio.it",
    "fee": "yes",
    "fixme": "check position",
    "name": "Museo della basilica di Sant'Eustorgio",
    "name:fr": "Musée de Sant'Eustorgio",
    "opening_hours": "Mo-Su 10:00-18:00",
    "tourism": "museum"
  }
},
{
  "type": "node",
  "id": 1999714492,
  "lat": 45.5576536,
  "lon": 9.0467202,
  "tags": {
    "addr:city": "Arese",
    "addr:postcode": "20020",
    "addr:street": "Viale Alfa Romeo",
    "name": "Museo Storico Alfa Romeo",
    "opening_hours": "Mo-Su 10:00-18:00; Tu off; Th 10:00-22:00",
    "tourism": "museum"
  }
},
{
  "type": "node",
  "id": 2034830497,
  "lat": 45.2564902,
  "lon": 9.1469635,
  "tags": {
    "addr:city": "Certosa di Pavia",
    "addr:postcode": "27012",
    "addr:street": "Località Certosa Monumento",
    "email": "pm-lom@beniculturali.it",
    "name": "Museo della Certosa",
    "phone": "+39 0382 924990",
    "tourism": "museum",
    "website": "http://www.museo.certosadipavia.beniculturali.it",
    "wikidata": "Q3868035",
    "wikipedia": "it:Museo della Certosa di Pavia"
  }
},
{
  "type": "node",
  "id": 2153388340,
  "lat": 45.4717091,
  "lon": 9.1893470,
  "tags": {
    "fee": "no",
    "name": "Museo Astronomico di Brera",
    "opening_hours": "Mo-Fr 09:00-16:30",
    "tourism": "museum",
    "website": "http://www.brera.unimi.it/index.php?option=com_content&view=article&id=187&Itemid=84"
  }
},
{
  "type": "node",
  "id": 2245493468,
  "lat": 45.6794703,
  "lon": 9.1189880,
  "tags": {
    "name": "museo civico",
    "tourism": "museum"
  }
},
{
  "type": "node",
  "id": 2287019902,
  "lat": 45.6107400,
  "lon": 8.8701834,
  "tags": {
    "addr:city": "Busto Arsizio",
    "addr:housenumber": "29",
    "addr:postcode": "21052",
    "addr:street": "Via Andrea Costa",
    "name": "Museo delle arti di palazzo Bandera",
    "tourism": "museum",
    "wikidata": "Q3868128",
    "wikipedia": "it:Museo delle arti di palazzo Bandera"
  }
},
{
  "type": "node",
  "id": 2324825968,
  "lat": 45.4672650,
  "lon": 9.1905257,
  "tags": {
    "addr:city": "Milano",
    "addr:housenumber": "6",
    "addr:postcode": "20121",
    "addr:street": "Piazza della Scala",
    "email": "info@gallerieditalia.com.",
    "fee": "no",
    "name": "Gallerie d'Italia",
    "opening_hours": "Tu,We,Fr,Sa,Su 09:30-19:30; Th 09:30-22:30; Mo off",
    "phone": "800167619",
    "tourism": "museum",
    "website": "https://www.gallerieditalia.com/it/milano/",
    "wikidata": "Q2054135",
    "wikipedia": "it:Gallerie di piazza Scala"
  }
},
{
  "type": "node",
  "id": 2362304289,
  "lat": 45.5827476,
  "lon": 9.2746049,
  "tags": {
    "addr:city": "Monza",
    "addr:country": "IT",
    "addr:housenumber": "4",
    "addr:postcode": "20900",
    "addr:street": "Via Regina Teodolinda",
    "email": "info@museicivicimonza.it",
    "fee": "yes",
    "name": "Musei Civici di Monza",
    "opening_hours": "Jun-Sep: Mo-Tu off; We 15:00-18:00; Th 15:00-18:00; 20:00-23:00; Fr-Sa-Su 10:00-13:00; 15:00-18:00; Oct-May: Mo-Tu off; We 10:00-13:00; 15:00-18:00; Th 15:00-18:00; Fr-Sa-Su 10:00-13:00; 15:00-18:00",
    "phone": "+39 039 2307126",
    "tourism": "museum",
    "website": "http://www.museicivicimonza.it/"
  }
},
{
  "type": "node",
  "id": 2370722382,
  "lat": 45.3360956,
  "lon": 9.0973700,
  "tags": {
    "name": "MUMAC",
    "source": "www.mumacespresso.com/",
    "tourism": "museum"
  }
},
{
  "type": "node",
  "id": 2372503515,
  "lat": 45.5834790,
  "lon": 9.2797274,
  "tags": {
    "addr:city": "Monza",
    "addr:country": "IT",
    "addr:housenumber": "2",
    "addr:postcode": "20900",
    "addr:street": "Piazza Santa Margherita",
    "name": "Museo Talamoni",
    "opening_hours": "Tu-Fr 10:00-11:30,16:00-18:30",
    "phone": "+39 039 322833",
    "tourism": "museum"
  }
},
{
  "type": "node",
  "id": 2391622707,
  "lat": 45.4685907,
  "lon": 9.1962586,
  "tags": {
    "addr:city": "Milano",
    "addr:housenumber": "6",
    "addr:postcode": "20121",
    "addr:street": "Via Sant'Andrea",
    "name": "Palazzo Morando",
    "note": "Costume, moda e immagine",
    "opening_hours": "Tu-Su 09:00-13:00,14:00-17:30",
    "operator": "mudec",
    "phone": "+39 02 88446056",
    "tourism": "museum",
    "website": "http://www.costumemodaimmagine.mi.it/",
    "wikidata": "Q20008384",
    "wikipedia": "it:Palazzo Morando"
  }
},
{
  "type": "node",
  "id": 2400614071,
  "lat": 45.4684748,
  "lon": 9.1917804,
  "tags": {
    "addr:city": "Milano",
    "addr:country": "IT",
    "addr:housenumber": "12",
    "addr:postcode": "20121",
    "addr:street": "Via Alessandro Manzoni",
    "contact:facebook": "https://m.facebook.com/PoldiPezzoli",
    "contact:instagram": "https://www.instagram.com/poldipezzoli",
    "contact:phone": "+39 02 794889",
    "contact:tripadvisor": "https://www.tripadvisor.com/g187849-d194344",
    "contact:twitter": "https://www.twitter.com/poldipezzoli",
    "contact:website": "http://www.museopoldipezzoli.it",
    "email": "ferraris@museopoldipezzoli.it",
    "name": "Museo Poldi Pezzoli",
    "name:it": "Museo Poldi Pezzoli",
    "name:ru": "Музей Польди-Пеццоли",
    "opening_hours": "Mo,We,Th,Fr,Sa,Su 10:00-18:00; PH  off",
    "ref:vatin": "IT04265690158",
    "tourism": "museum",
    "wikidata": "Q1190657",
    "wikipedia": "it:Museo Poldi Pezzoli"
  }
},
{
  "type": "node",
  "id": 2521648565,
  "lat": 45.5135671,
  "lon": 9.2040168,
  "tags": {
    "addr:city": "Milano",
    "addr:country": "IT",
    "addr:housenumber": "121",
    "addr:postcode": "20126",
    "addr:street": "Viale Fulvio Testi",
    "email": "mic@cinetecamilano.it",
    "name": "Museo Interattivo del Cinema",
    "opening_hours": "Tu-Th 15:00-19:00; Fr 15:00-21:00; Sa,Su 15:00-19:00; Mo off",
    "operator": "Fondazione Cineteca Italiana",
    "phone": "+39 02 87242114",
    "tourism": "museum",
    "website": "http://mic.cinetecamilano.it"
  }
},
{
  "type": "node",
  "id": 2529645009,
  "lat": 45.4709808,
  "lon": 9.1797555,
  "tags": {
    "comment:it": "Fa parte dei Musei del Castello;ingresso a pagamento. ingresso gratuito mar, mer,gior,ven,sab,dom dope le ore 16:30 e mar dopo le ore 14:00",
    "name": "Museo Egizio",
    "name:en": "Egyptian Museum",
    "name:it": "Museo Egizio",
    "opening_hours": "Tu-Su 09:00-17:30",
    "tourism": "museum",
    "wikidata": "Q3868354",
    "wikipedia": "it:Museo egizio (Milano)"
  }
},
{
  "type": "node",
  "id": 2529863257,
  "lat": 45.3136569,
  "lon": 9.5083535,
  "tags": {
    "addr:housenumber": "1",
    "addr:street": "via Agostino Bassi",
    "name": "Collezione anatomica Paolo Gorini",
    "source": "it.wikipedia",
    "tourism": "museum",
    "wikidata": "Q3683050",
    "wikipedia": "it:Collezione anatomica Paolo Gorini"
  }
},
{
  "type": "node",
  "id": 2529910051,
  "lat": 45.3158686,
  "lon": 9.5042852,
  "tags": {
    "addr:city": "Lodi",
    "addr:housenumber": "63",
    "addr:street": "corso Umberto I",
    "name": "Museo civico",
    "tourism": "museum",
    "wikidata": "Q3867765",
    "wikipedia": "it:Museo civico (Lodi)"
  }
},
{
  "type": "node",
  "id": 2529913841,
  "lat": 45.3151421,
  "lon": 9.5076570,
  "tags": {
    "addr:city": "Lodi",
    "addr:housenumber": "23",
    "addr:street": "via San Francesco d'Assisi",
    "name": "Museo di scienze naturali",
    "tourism": "museum",
    "wikidata": "Q3868228",
    "wikipedia": "it:Museo di scienze naturali (Lodi)"
  }
},
{
  "type": "node",
  "id": 2531211706,
  "lat": 45.4790348,
  "lon": 9.2117518,
  "tags": {
    "addr:city": "Milano",
    "addr:housenumber": "15",
    "addr:postcode": "20129",
    "addr:street": "Via Giorgio Jan",
    "alt_name": "Casa museo Boschi Di Stefano",
    "email": "info@fondazioneboschidistefano.com",
    "name": "Casa-museo Boschi Di Stefano",
    "opening_hours": "Tu-Su 10:00-18:00; Mo off; Jan 1 off; Jan 6 off; Aug 15 off; Nov 1 off; Dec 25-26 off",
    "phone": "+39 02 88463736",
    "tourism": "museum",
    "website": "http://www.fondazioneboschidistefano.it/ws/",
    "wikidata": "Q3661033",
    "wikipedia": "it:Casa-museo Boschi Di Stefano"
  }
},
{
  "type": "node",
  "id": 2531219644,
  "lat": 45.4693610,
  "lon": 9.1796205,
  "tags": {
    "addr:city": "Milano",
    "addr:country": "IT",
    "addr:street": "Piazza Castello",
    "name": "Civica raccolta delle stampe Achille Bertarelli",
    "source": "http://www.bertarelli.org/ita/ComeRaggiungerci.asp",
    "tourism": "museum",
    "wikidata": "Q3678764",
    "wikipedia": "it:Civica raccolta delle stampe Achille Bertarelli"
  }
},
{
  "type": "node",
  "id": 2531365878,
  "lat": 45.4696322,
  "lon": 9.1952660,
  "tags": {
    "addr:city": "Milano",
    "addr:country": "IT",
    "addr:housenumber": "5",
    "addr:postcode": "20121",
    "addr:street": "Via Gesù",
    "email": "info@museobagattivalsecchi.org",
    "name": "Museo Bagatti Valsecchi",
    "name:en": "Bagatti Valsecchi Museum",
    "name:fr": "Musée Bagatti Valsecchi",
    "name:hu": "Palazzo Bagatti Valsecchi",
    "name:it": "Museo Bagatti Valsecchi",
    "name:ru": "Музей Багатти-Вальсекки",
    "opening_hours": "Tu-Su 13:00-17:45; Mo off",
    "phone": "+39 02 76006132",
    "tourism": "museum",
    "website": "https://museobagattivalsecchi.org",
    "wikidata": "Q838986",
    "wikipedia": "it:Museo Bagatti Valsecchi"
  }
},
{
  "type": "node",
  "id": 2531385671,
  "lat": 45.4659320,
  "lon": 8.9193794,
  "tags": {
    "addr:city": "Corbetta",
    "addr:housenumber": "38",
    "addr:street": "Via Francesco Mussi",
    "name": "Museo Archeologico Villa Pisani Dossi",
    "source": "http://www.casapisanidossi.com/1/dove_siamo_2326310.html",
    "tourism": "museum",
    "wikidata": "Q3867666",
    "wikipedia": "it:Museo archeologico Villa Pisani Dossi"
  }
},
{
  "type": "node",
  "id": 2531406270,
  "lat": 45.4702509,
  "lon": 9.1789653,
  "tags": {
    "addr:street": "Piazza Castello",
    "comment:it": "Fa parte dei Musei del Castello; ingresso a pagamento. ingresso gratuito mar, mer,gior,ven,sab,dom dope le ore 16:30 e mar dopo le ore 14:00",
    "name": "Museo degli Strumenti Musicali",
    "tourism": "museum",
    "wikidata": "Q3867896",
    "wikipedia": "it:Museo degli strumenti musicali (Milano)"
  }
},
{
  "type": "node",
  "id": 2531420511,
  "lat": 45.4708300,
  "lon": 9.1790203,
  "tags": {
    "addr:street": "Piazza Castello",
    "comment:it": "Fa parte dei Musei del Castello; ingresso a pagamento. ingresso gratuito mar, mer,gior,ven,sab,dom dope le ore 16:30 e mar dopo le ore 14:00",
    "name": "Museo dei Mobili e delle Sculture Lignee",
    "tourism": "museum",
    "wikidata": "Q3701582",
    "wikipedia": "it:Museo dei mobili e delle sculture lignee"
  }
},
{
  "type": "node",
  "id": 2531443554,
  "lat": 45.4375125,
  "lon": 8.8890346,
  "tags": {
    "addr:city": "Robecco sul Naviglio",
    "addr:housenumber": "37",
    "addr:street": "Via Giacomo Matteotti",
    "name": "Museo del Naviglio Grande",
    "tourism": "museum",
    "wikidata": "Q3867916",
    "wikipedia": "it:Museo del Naviglio Grande"
  }
},
{
  "type": "node",
  "id": 2532943376,
  "lat": 45.1867137,
  "lon": 9.1560148,
  "tags": {
    "name": "Museo per la storia dell'Università di Pavia",
    "tourism": "museum",
    "wikidata": "Q3868448",
    "wikipedia": "it:Museo per la storia dell'Università di Pavia"
  }
},
{
  "type": "node",
  "id": 2532943383,
  "lat": 45.1902104,
  "lon": 9.1582065,
  "tags": {
    "name": "Pinacoteca Malaspina",
    "tourism": "museum",
    "wikidata": "Q3905092",
    "wikipedia": "it:Pinacoteca Malaspina"
  }
},
{
  "type": "node",
  "id": 2532943721,
  "lat": 45.3169473,
  "lon": 8.8569820,
  "tags": {
    "addr:city": "Vigevano",
    "addr:postcode": "27029",
    "addr:street": "Piazza Ducale",
    "email": "info@museocalzaturavigevano.it",
    "fee": "no",
    "name": "MIC Museo internazionale della calzatura",
    "opening_hours": "Tu-Fr 14:00 -17:30; Sa-Su,PH 10:00-18:00; Mo off",
    "phone": "+39 0381 693952",
    "tourism": "museum",
    "website": "http://www.museocalzaturavigevano.it/it/",
    "wikidata": "Q3868388",
    "wikipedia": "it:Museo internazionale della calzatura"
  }
},
{
  "type": "node",
  "id": 2535087543,
  "lat": 45.4636401,
  "lon": 9.1860073,
  "tags": {
    "addr:city": "Milano",
    "addr:country": "IT",
    "addr:housenumber": "2",
    "addr:postcode": "20123",
    "addr:street": "Piazza Pio XI",
    "name": "Pinacoteca Ambrosiana",
    "name:it": "Pinacoteca Ambrosiana",
    "name:ka": "შესვლა 15€",
    "name:zh": "安布罗西亚纳画廊",
    "opening_hours": "Tu-Su 10:00-18:00",
    "phone": "+3902806921",
    "tourism": "museum",
    "website": "http://www.ambrosiana.eu/",
    "wikidata": "Q1085811",
    "wikipedia": "it:Pinacoteca Ambrosiana"
  }
},
{
  "type": "node",
  "id": 2535106339,
  "lat": 45.4707554,
  "lon": 9.1796095,
  "tags": {
    "addr:street": "Piazza Castello",
    "comment:it": "Fa parte dei Musei del Castello; ingresso a pagamento. ingresso gratuito mar, mer,gior,ven,sab,dom dope le ore 16:30 e mar dopo le ore 14:00",
    "name": "Museo d'Arte Antica",
    "name:en": "Museum of Ancient Art",
    "tourism": "museum",
    "wikidata": "Q3867848",
    "wikipedia": "it:Museo d'arte antica"
  }
},
{
  "type": "node",
  "id": 2537169197,
  "lat": 45.4712494,
  "lon": 9.1797639,
  "tags": {
    "comment:it": "Fa parte dei Musei del Castello; ingresso a pagamento. ingresso gratuito mar, mer,gior,ven,sab,dom dope le ore 16:30 e mar dopo le ore 14:00",
    "name": "Pinacoteca del Castello Sforzesco",
    "tourism": "museum",
    "wikidata": "Q3905124",
    "wikipedia": "it:Pinacoteca del Castello Sforzesco"
  }
},
{
  "type": "node",
  "id": 2537259955,
  "lat": 45.4681145,
  "lon": 8.9201206,
  "tags": {
    "addr:city": "Corbetta",
    "addr:housenumber": "2",
    "addr:postcode": "20011",
    "addr:street": "Via Giuseppe Mazzini",
    "name": "Museo del Santuario Arcivescovile della Beata Vergine dei Miracoli di Corbetta",
    "tourism": "museum",
    "wikidata": "Q3867973",
    "wikipedia": "it:Museo del santuario arcivescovile della Beata Vergine dei Miracoli di Corbetta"
  }
},
{
  "type": "node",
  "id": 2550567324,
  "lat": 45.5617364,
  "lon": 9.2167502,
  "tags": {
    "name": "Centro culturale J.Lombardini",
    "tourism": "museum"
  }
},
{
  "type": "node",
  "id": 2776300548,
  "lat": 45.4661912,
  "lon": 9.1716539,
  "tags": {
    "name": "Sacrestia del Bramante",
    "tourism": "museum"
  }
},
{
  "type": "node",
  "id": 2806612393,
  "lat": 45.5292605,
  "lon": 9.1367680,
  "tags": {
    "addr:city": "Novate Milanese",
    "addr:housenumber": "13",
    "addr:street": "Largo Angelo Testori",
    "contact:email": "info@casatestori.it",
    "contact:phone": "+39 02 36586877",
    "contact:website": "https://www.casatestori.it",
    "name": "Casa Testori",
    "operator": "Casa Testori Associazione Culturale",
    "tourism": "museum",
    "wheelchair": "limited"
  }
},
{
  "type": "node",
  "id": 2915890116,
  "lat": 45.4946030,
  "lon": 9.1872624,
  "tags": {
    "addr:housenumber": "10",
    "addr:street": "Via Luigi Federico Menabrea",
    "contact:email": "umberto1935@libero.it",
    "contact:phone": "+39 347 8845560",
    "contact:website": "http://www.umbertodidonato.org/museo/",
    "name": "Museo Macchina da Scrivere",
    "name:fr": "Musée de la machine à écrire",
    "tourism": "museum"
  }
},
{
  "type": "node",
  "id": 2939712317,
  "lat": 45.4701443,
  "lon": 9.3353145,
  "tags": {
    "name": "Museo Scooter e Lambretta",
    "tourism": "museum"
  }
},
{
  "type": "node",
  "id": 2940793417,
  "lat": 45.5739561,
  "lon": 8.9246735,
  "tags": {
    "addr:city": "Canegrate",
    "addr:housenumber": "2",
    "addr:postcode": "20010",
    "addr:street": "Piazza Unità d'Italia",
    "fee": "no",
    "name": "Museo archeologico \"Ferrante Rittatore Vonwiller\"",
    "tourism": "museum",
    "wheelchair": "yes",
    "wikidata": "Q26678364"
  }
},
{
  "type": "node",
  "id": 2941505154,
  "lat": 45.4623544,
  "lon": 9.3721795,
  "tags": {
    "name": "Museo Etnografico",
    "tourism": "museum"
  }
},
{
  "type": "node",
  "id": 2948098082,
  "lat": 45.5857633,
  "lon": 9.2783972,
  "tags": {
    "addr:city": "Monza",
    "addr:country": "IT",
    "addr:housenumber": "11",
    "addr:postcode": "20900",
    "addr:street": "Vicolo Scuole",
    "name": "Museo Mulino Colombo",
    "source": "survey",
    "tourism": "museum",
    "website": "http://www.memb.it/",
    "wikidata": "Q3867008",
    "wikipedia": "it:Mulino Colombo"
  }
},
{
  "type": "node",
  "id": 3083605084,
  "lat": 45.6135692,
  "lon": 8.8517126,
  "tags": {
    "addr:city": "Busto Arsizio",
    "addr:housenumber": "3",
    "addr:postcode": "21052",
    "addr:street": "Piazza Vittorio Emanuele II",
    "email": "museibusto@comune.bustoarsizio.va.it",
    "fee": "no",
    "name": "Civiche raccolte d'arte di palazzo Marliani-Cicogna",
    "opening_hours": "Tu,We,Th 14:30-18:00; Fr 09:30-13:00, 14:30-18:00; Sa 14:30-18:30; Su 15:00-18:30; Mo off",
    "phone": "+39 0331 390351",
    "tourism": "museum",
    "website": "https://www.comune.bustoarsizio.va.it/index.php/visita-busto/museopalazzomarlianicicogna/il-museo-e-la-sua-storia-cicogna",
    "wheelchair": "limited",
    "wikidata": "Q3678766",
    "wikipedia": "it:Civiche raccolte d'arte di palazzo Marliani-Cicogna"
  }
},
{
  "type": "node",
  "id": 3116480837,
  "lat": 45.1886319,
  "lon": 9.1505190,
  "tags": {
    "name": "Museo di Storia Naturale",
    "tourism": "museum"
  }
},
{
  "type": "node",
  "id": 3328234456,
  "lat": 45.5289955,
  "lon": 9.2234812,
  "tags": {
    "addr:city": "Sesto San Giovanni",
    "addr:country": "IT",
    "addr:housenumber": "1",
    "addr:postcode": "20099",
    "addr:street": "Via Luigi Granelli",
    "name": "Archivio Giovanni Sacchi",
    "phone": "+39 02 36682271",
    "tourism": "museum",
    "website": "www.archiviosacchi.it"
  }
},
{
  "type": "node",
  "id": 3398059734,
  "lat": 45.3148175,
  "lon": 9.5017081,
  "tags": {
    "name": "Museo dell'Incoronata",
    "tourism": "museum",
    "wikidata": "Q3867979",
    "wikipedia": "it:Museo del tesoro del tempio dell'Incoronata"
  }
},
{
  "type": "node",
  "id": 3404229693,
  "lat": 45.6160324,
  "lon": 8.8464046,
  "tags": {
    "addr:city": "Busto Arsizio",
    "addr:housenumber": "2",
    "addr:postcode": "21052",
    "addr:street": "Via Luigi Galvani",
    "alt_name": "Museo della Scherma",
    "fee": "no",
    "name": "Agorà della Scherma",
    "tourism": "museum",
    "wheelchair": "yes",
    "wikidata": "Q21076223",
    "wikipedia": "it:Agorà della Scherma"
  }
},
{
  "type": "node",
  "id": 3539395948,
  "lat": 45.5166648,
  "lon": 9.3689710,
  "tags": {
    "description": "MAIO è acronimo di Museo dell'Arte in Ostaggio dedicato alle opere d’arte trafugate dall’Italia durante la Seconda Guerra Mondiale e a quelle che, invece, sono state fortunatamente ritrovate",
    "name": "Museo MAIO",
    "start_date": "16/06/2015",
    "tourism": "museum",
    "wheelchair": "yes"
  }
},
{
  "type": "node",
  "id": 3615442812,
  "lat": 45.2365400,
  "lon": 9.4059983,
  "tags": {
    "addr:city": "Sant'Angelo Lodigiano",
    "addr:postcode": "26866",
    "addr:street": "Via San Francesca Madre Cabrini",
    "name": "Casa natale di Santa Francesca Cabrini e Centro di documentazione Cabriniano",
    "tourism": "museum"
  }
},
{
  "type": "node",
  "id": 3689213981,
  "lat": 45.4187232,
  "lon": 8.9345697,
  "tags": {
    "name": "Museo Agricolo \"Angelo Masperi\"",
    "tourism": "museum"
  }
},
{
  "type": "node",
  "id": 3758964728,
  "lat": 45.6120284,
  "lon": 9.3710021,
  "tags": {
    "addr:city": "Vimercate",
    "addr:country": "IT",
    "addr:housenumber": "53",
    "addr:postcode": "20871",
    "addr:street": "Via Vittorio Emanuele II",
    "alt_name": "Museo del Territorio Vimercatese",
    "name": "MUST",
    "opening_hours": "We,Th 10:00-13:00; Fr-Su 10:00-13:00,15:00-19:00",
    "phone": "+39 039 6659488",
    "start_date": "2010",
    "tourism": "museum",
    "website": "http://www.museomust.it/",
    "wikidata": "Q3867978",
    "wikipedia": "it:Museo del territorio vimercatese"
  }
},
{
  "type": "node",
  "id": 3810549825,
  "lat": 45.5713569,
  "lon": 9.0265401,
  "tags": {
    "name": "Villa Visconti Borromeo Arese Litta",
    "tourism": "museum"
  }
},
{
  "type": "node",
  "id": 3910270284,
  "lat": 45.4696982,
  "lon": 9.1788527,
  "tags": {
    "name": "Museo Pietà Rondanini",
    "note:it": "aperto fino alle 19:30 (giovedì 22:30), ultimo ingresso ore 19 (giovedì ore 22)",
    "opening_hours": "Tu-Su 09:00-19:00; Th 09:00-22:00",
    "tourism": "museum"
  }
},
{
  "type": "node",
  "id": 4010994767,
  "lat": 45.4520455,
  "lon": 9.1613185,
  "tags": {
    "addr:city": "Milano",
    "addr:housenumber": "56",
    "addr:postcode": "20144",
    "addr:street": "Via Tortona",
    "contact:deezer": "http://deezer.com/profile/678844611",
    "contact:facebook": "https://facebook.com/mudec.museodelleculture",
    "contact:instagram": "https://instagram.com/mudecmi",
    "contact:tripadvisor": "https://www.tripadvisor.com/Attraction_Review-g187849-d7935716",
    "contact:twitter": "https://twitter.com/mudecmi",
    "contact:yelp": "https://www.yelp.com/biz/mudec-milano",
    "contact:youtube": "https://youtube.com/channel/UCXc_iFKqAcSKnHUSYlaYSUw",
    "name": "Mudec",
    "official_name": "Museo delle Culture",
    "opening_hours": "Mo 14:30-19:30; Tu,We,Fr,Su 09:30-19:30; Th,Sa 09:30-22:30",
    "operator": "24 Ore Cultura - Gruppo Il Sole 24 Ore;Comune di Milano",
    "phone": "+39 02 54917",
    "short_name": "MUDEC",
    "toilets:wheelchair": "yes",
    "tourism": "museum",
    "website": "http://www.mudec.it",
    "wheelchair": "yes",
    "wikidata": "Q22811468"
  }
},
{
  "type": "node",
  "id": 4041811952,
  "lat": 45.4941929,
  "lon": 9.2094196,
  "tags": {
    "addr:city": "Milano",
    "addr:country": "IT",
    "addr:housenumber": "45",
    "addr:postcode": "20125",
    "addr:street": "Via Cristoforo Gluck",
    "description": "Museo del Manifesto Cinematografico",
    "email": "segreteria@ateliergluckarte.org",
    "name": "Museo Fermo Immagine",
    "opening_hours": "Sa,Su 14:00-19:00",
    "tourism": "museum",
    "website": "http://www.museofermoimmagine.it/"
  }
},
{
  "type": "node",
  "id": 4305608681,
  "lat": 45.4721120,
  "lon": 9.1896370,
  "tags": {
    "addr:city": "Milano",
    "addr:housenumber": "23",
    "addr:postcode": "20121",
    "addr:street": "Via Borgonuovo",
    "email": "c.museorisorgimento@comune.milano.it",
    "library": "yes",
    "name": "Museo del Risorgimento",
    "name:fr": "Musée de l'unification",
    "opening_hours": "Tu-Su 09:00-13:00, 14:00-17:30; Mo off, Jan 1, May 1,  Aug 15, Dec 25-26 off",
    "phone": "+39 02 88464173",
    "start_date": "1886",
    "tourism": "museum",
    "website": "http://www.museodelrisorgimento.mi.it",
    "wikidata": "Q3867927",
    "wikipedia": "it:Museo del Risorgimento (Milano)"
  }
},
{
  "type": "node",
  "id": 4315740794,
  "lat": 45.4694849,
  "lon": 9.1772109,
  "tags": {
    "addr:city": "Milano",
    "addr:country": "IT",
    "addr:housenumber": "27",
    "addr:postcode": "20121",
    "addr:street": "Piazza Castello",
    "email": "info@achillecastiglioni.it",
    "name": "Studio Museo Achille Castiglioni",
    "phone": "+39 02 8053606",
    "tourism": "museum",
    "website": "http://www.achillecastiglioni.it/en/studio.html"
  }
},
{
  "type": "node",
  "id": 4332152619,
  "lat": 45.4849863,
  "lon": 8.9227401,
  "tags": {
    "name": "Museo storico del Risorgimento",
    "operator": "Comune di Santo Stefano Ticino",
    "tourism": "museum"
  }
},
{
  "type": "node",
  "id": 4458832673,
  "lat": 45.5214187,
  "lon": 9.5928057,
  "tags": {
    "addr:city": "Treviglio",
    "addr:postcode": "24047",
    "addr:street": "Piazza Luciano Manara",
    "email": "trevigliomusei@comune.treviglio.bg.it",
    "name": "Museo Storico Verticale",
    "opening_hours": "Su 16:00-18:00; Jun-Jul: We 21:00-22:00; Aug, Nov 12-Feb 27 off",
    "phone": "+39 0363 317506",
    "tourism": "museum",
    "website": "http://www.comune.treviglio.bg.it/index.php?q=content/presentazione-museo-storico-verticale-0"
  }
},
{
  "type": "node",
  "id": 4460989033,
  "lat": 45.5225154,
  "lon": 9.5948770,
  "tags": {
    "addr:street": "Via Gian Maria Bicetti",
    "name": "Museo Civico \"Ernesto e Teresa Della Torre\"",
    "tourism": "museum",
    "website": "http://www.comune.treviglio.bg.it/?q=content/citta_il-museo-e-il-centro-civico",
    "wikidata": "Q3867820",
    "wikipedia": "it:Museo civico di Treviglio"
  }
},
{
  "type": "node",
  "id": 4519229097,
  "lat": 45.4064016,
  "lon": 9.0343843,
  "tags": {
    "addr:city": "Gaggiano",
    "addr:country": "IT",
    "addr:housenumber": "40",
    "addr:postcode": "20083",
    "addr:street": "Via Roma",
    "entrance": "yes",
    "name": "Piccolo Museo dei Combattenti e dei Reduci",
    "tourism": "museum"
  }
},
{
  "type": "node",
  "id": 4558296999,
  "lat": 45.6036651,
  "lon": 9.3002832,
  "tags": {
    "addr:city": "Villasanta",
    "addr:country": "IT",
    "addr:housenumber": "5",
    "addr:postcode": "20854",
    "addr:street": "Piazza Martiri di Belfiore",
    "name": "Museo d'Arte Sacra",
    "tourism": "museum"
  }
},
{
  "type": "node",
  "id": 4587674241,
  "lat": 45.6150975,
  "lon": 8.8466040,
  "tags": {
    "fee": "no",
    "name": "Museo storico del ciclismo bustese",
    "tourism": "museum",
    "wikidata": "Q64896957"
  }
},
{
  "type": "node",
  "id": 4699447445,
  "lat": 45.3157761,
  "lon": 8.8572037,
  "tags": {
    "name": "Leonardiana",
    "opening_hours": "Tu-Fr 09:00-13:00; 15:00-18:00, Sa 10:00-20:00, Mo off",
    "phone": "+39 0381 630310",
    "tourism": "museum",
    "website": "http://www.leonardiana.it/"
  }
},
{
  "type": "node",
  "id": 4715567021,
  "lat": 45.5251250,
  "lon": 9.5803423,
  "tags": {
    "name": "Museo Same",
    "tourism": "museum",
    "wikidata": "Q3868470"
  }
},
{
  "type": "node",
  "id": 4754121842,
  "lat": 45.4656506,
  "lon": 9.1708298,
  "tags": {
    "addr:city": "Milano",
    "addr:country": "IT",
    "addr:housenumber": "65",
    "addr:postcode": "20123",
    "addr:street": "Corso Magenta",
    "contact:email": "info@vignadileonardo.com",
    "contact:facebook": "https://www.facebook.com/vignadileonardo",
    "contact:instagram": "https://www.instagram.com/lavignadileonardo",
    "contact:phone": "+39 02 4816150",
    "contact:website": "https://www.vignadileonardo.com",
    "name": "Vigna di Leonardo",
    "name:en": "Vineyard of Leonardo",
    "official_name": "Vigna di Leonardo da Vinci",
    "official_name:en": "Vineyard of Leonardo da Vinci",
    "tourism": "museum",
    "wikidata": "Q17639492",
    "wikimedia_commons": "Category:Vineyard of Leonardo da Vinci",
    "wikipedia": "it:Vigna di Leonardo da Vinci"
  }
},
{
  "type": "node",
  "id": 4754691506,
  "lat": 45.4780328,
  "lon": 9.1225641,
  "tags": {
    "name": "Museo San Siro",
    "tourism": "museum"
  }
},
{
  "type": "node",
  "id": 4897708750,
  "lat": 45.4665338,
  "lon": 9.1897113,
  "tags": {
    "addr:city": "Milano",
    "addr:postcode": "20121",
    "addr:street": "Piazza della Scala",
    "email": "museum@leonardo3.net",
    "name": "Leonardo3 Museum - Il Mondo di Leonardo",
    "name:en": "Leonardo3 Museum – The World of Leonardo",
    "opening_hours": "Mo-Su 09:30-22:30",
    "phone": "+39 02 49519981",
    "toilets:wheelchair": "yes",
    "tourism": "museum",
    "website": "http://www.leonardo3.net/",
    "wheelchair": "yes"
  }
},
{
  "type": "node",
  "id": 4901640737,
  "lat": 45.6113604,
  "lon": 8.9049338,
  "tags": {
    "addr:city": "Castellanza",
    "addr:country": "IT",
    "addr:housenumber": "2",
    "addr:postcode": "21053",
    "addr:street": "Via San Carlo",
    "name": "Museo didattico archeologico San Carlo",
    "tourism": "museum",
    "wikidata": "Q30148192"
  }
},
{
  "type": "node",
  "id": 4907188588,
  "lat": 45.5556900,
  "lon": 8.9476132,
  "tags": {
    "addr:city": "Parabiago",
    "addr:country": "IT",
    "addr:housenumber": "11",
    "addr:postcode": "20015",
    "addr:street": "Via Giovanni Randaccio",
    "name": "Museo Carla Musazzi",
    "tourism": "museum",
    "wikidata": "Q27992729"
  }
},
{
  "type": "node",
  "id": 5100092860,
  "lat": 45.1907762,
  "lon": 9.1580427,
  "tags": {
    "name": "Scuderie del Castello Visconteo",
    "tourism": "museum"
  }
},
{
  "type": "node",
  "id": 5126049341,
  "lat": 45.5838351,
  "lon": 9.2758042,
  "tags": {
    "addr:city": "Monza",
    "addr:country": "IT",
    "addr:housenumber": "2",
    "addr:postcode": "20900",
    "addr:street": "Via Lambro",
    "email": "info@museoduomomonza.it",
    "fax": "+39 039 2300349",
    "fee": "yes",
    "level": "-1",
    "name": "Museo del Duomo",
    "opening_hours": "Tu-Su 09:00-18:00",
    "phone": "+39 039 326383",
    "tourism": "museum",
    "website": "http://www.museoduomomonza.it/Pages/",
    "wikidata": "Q3868346",
    "wikipedia": "it:Museo e tesoro del duomo di Monza"
  }
},
{
  "type": "node",
  "id": 5178599081,
  "lat": 45.4630797,
  "lon": 9.1854505,
  "tags": {
    "name": "Cripta di San Sepolcro",
    "tourism": "museum",
    "website": "https://www.criptasansepolcromilano.it/"
  }
},
{
  "type": "node",
  "id": 5204142503,
  "lat": 45.5308160,
  "lon": 9.1889688,
  "tags": {
    "name": "Zambon",
    "tourism": "museum"
  }
},
{
  "type": "node",
  "id": 5632167500,
  "lat": 45.7302057,
  "lon": 9.3434791,
  "tags": {
    "addr:city": "Sirtori",
    "addr:housenumber": "39",
    "addr:postcode": "23839",
    "addr:street": "Via Belvedere",
    "name": "Museo dei 3 tetti",
    "phone": "+39 039 955936",
    "tourism": "museum",
    "website": "http://museo3tetti.it",
    "website_1": "http://www.giorgiorivaopere.it"
  }
},
{
  "type": "node",
  "id": 5731931927,
  "lat": 45.5589916,
  "lon": 8.9456794,
  "tags": {
    "addr:city": "Parabiago",
    "addr:country": "IT",
    "addr:housenumber": "20",
    "addr:postcode": "20015",
    "addr:street": "Via Don A. Galeazzi",
    "name": "Officina Rancilio 1926",
    "opening_hours": "Mo-Fr 09:00-13:00",
    "start_date": "2010",
    "tourism": "museum",
    "website": "http://www.officinarancilio1926.com/",
    "wikidata": "Q16337402",
    "wikipedia": "it:Officina Rancilio 1926"
  }
},
{
  "type": "node",
  "id": 6060106486,
  "lat": 45.4929581,
  "lon": 9.1875413,
  "tags": {
    "addr:city": "Milano",
    "addr:country": "IT",
    "addr:housenumber": "21",
    "addr:postcode": "20159",
    "addr:street": "Via Genova Thaon Di Revel",
    "email": "museo@fonderianapoleonica.it",
    "name": "Fonderia Napoleonica Eugenia",
    "operator": "Valeria Zanoni 3930552272",
    "phone": "3930552272",
    "tourism": "museum",
    "website": "http://www.fonderianapoleonica.it"
  }
},
{
  "type": "node",
  "id": 6421595197,
  "lat": 45.3174211,
  "lon": 8.8581754,
  "tags": {
    "addr:city": "Vigevano",
    "addr:housenumber": "20",
    "addr:postcode": "27029",
    "addr:street": "Piazza Ducale",
    "email": "museoarcheologico.vigevano@beniculturali.it",
    "name": "Museo Archeologico Nazionale",
    "opening_hours": "Tu-Sa 08:30-13:30; Su-Mo,PH off",
    "phone": "+39 0381 72940",
    "tourism": "museum",
    "website": "http://www.museoarcheologico.vigevano.beniculturali.it"
  }
},
{
  "type": "node",
  "id": 6421706523,
  "lat": 45.3188673,
  "lon": 8.8585062,
  "tags": {
    "addr:city": "Vigevano",
    "addr:housenumber": "40",
    "addr:postcode": "27029",
    "addr:street": "Via Giovanni Merula",
    "email": "direzione_musei@comune.vigevano.pv.it",
    "name": "Museo dell'Imprenditoria",
    "opening_hours": "Su 15:00-18:00; Mo-Sa \"by appointment\"; PH off",
    "phone": "+39 0381 692303",
    "tourism": "museum",
    "website": "https://www.comune.vigevano.pv.it/contenuti/cultura/sottopagine/musei-1/museo-dellimprenditoria-vigevanese/museo-dellimprenditoria-vigevanese"
  }
},
{
  "type": "node",
  "id": 6423577435,
  "lat": 45.7007374,
  "lon": 9.2472762,
  "tags": {
    "addr:city": "Briosco",
    "addr:housenumber": "3",
    "addr:postcode": "20836",
    "addr:street": "Via Col del Freyus",
    "description": "Un piccolo, ma molto significativo, nucleo di opere esposte all’interno è costituito dalle sculture di quegli autori che, per primi in Italia, intrapresero la rivoluzione dell’astrazione in scultura.",
    "email": "info@rossiniartsite.com",
    "name": "Rossini Art Site",
    "opening_hours": "Apr-May-Jun-Sep-Oct-:Th-Fr-Sa-Su 10:30-18:30; Jul-Aug: Su 10:30-18:30; Aug 11-18 off",
    "phone": "+39 0362 827761",
    "tourism": "museum",
    "website": "http://www.rossiniartsite.com"
  }
},
{
  "type": "node",
  "id": 6424667157,
  "lat": 45.4725327,
  "lon": 9.1996760,
  "tags": {
    "addr:city": "Milano",
    "addr:housenumber": "16",
    "addr:postcode": "20121",
    "addr:street": "Via Palestro",
    "email": "c.gam@comune.milano.it",
    "name": "Galleria d'Arte Moderna",
    "name:es": "Galería de Arte Moderno",
    "name:it": "Galleria di Arte Moderna",
    "opening_hours": "Tu-Su 09:00-17:30; Mo off; Jan 1 off; Easter +1 off; May 1 off; Dec 25 off",
    "phone": "+39 02 88445943",
    "tourism": "museum",
    "website": "http://www.gam-milano.com/it/home/"
  }
},
{
  "type": "node",
  "id": 6424677425,
  "lat": 45.4599507,
  "lon": 9.2051279,
  "tags": {
    "addr:city": "Milano",
    "addr:housenumber": "12",
    "addr:postcode": "20122",
    "addr:street": "Via Enrico Besana",
    "contact:email": "info@muba.it",
    "contact:facebook": "https://facebook.com/mubamuseodeibambinimilano",
    "contact:instagram": "https://instagram.com/museodeibambinidimilano",
    "contact:linkedin": "https://www.linkedin.com/company/fondazione-muba---museo-dei-bambini-di-milano-",
    "contact:phone": "+39 02 43980402",
    "contact:twitter": "https://twitter.com/MUBA_Milano",
    "contact:website": "https://www.muba.it",
    "contact:youtube": "https://www.youtube.com/user/videomuba",
    "name": "Museo dei bambini",
    "opening_hours": "Tu-Fr 09:30-18:00; Sa-Su-SH 09:45-18:00; Mo off",
    "short_name": "MUBA",
    "tourism": "museum"
  }
},
{
  "type": "node",
  "id": 6424853356,
  "lat": 45.5178050,
  "lon": 9.1893394,
  "tags": {
    "addr:city": "Milano",
    "addr:housenumber": "8",
    "addr:postcode": "20162",
    "addr:street": "Via Giovanni Terruggia",
    "contact:email": "galleria@villaclerici.it",
    "contact:fax": "+39 02 66103051",
    "contact:phone": "+39 02 64700662",
    "contact:website": "http://www.villaclerici.it/galleria-darte-sacra-dei-contemporanei/",
    "name": "Galleria d'Arte Sacra dei Contemporanei",
    "opening_hours": "Th 15:00-20:00; Fr 15:00-18:00; Sa-Su 10:00-18:00",
    "ref:vatin": "IT06040940154",
    "short_name": "GASC",
    "tourism": "museum"
  }
},
{
  "type": "node",
  "id": 6431237301,
  "lat": 45.2883152,
  "lon": 8.9928860,
  "tags": {
    "name": "Museo Ada Negri",
    "phone": "+39 02 94921177",
    "tourism": "museum"
  }
},
{
  "type": "node",
  "id": 6432767564,
  "lat": 45.5707409,
  "lon": 8.9573765,
  "tags": {
    "name": "Crespi Museum",
    "tourism": "museum"
  }
},
{
  "type": "node",
  "id": 6437103152,
  "lat": 45.2396398,
  "lon": 9.4079113,
  "tags": {
    "addr:city": "Sant'Angelo Lodigiano",
    "addr:housenumber": "2",
    "addr:postcode": "26866",
    "addr:street": "Piazza Bolognini",
    "description": "Nel castello sono presenti tre musei, visitabili con un unico biglietto.",
    "email": "info@castellobolognini.it",
    "name": "Museo del Pane, Storia dell'agricoltura, Morando Bolognini",
    "opening_hours": "Mar-Sep: Tu 09:30-12:30; 14:30-16:30; Jul-Aug off",
    "phone": "+39 0371 211140",
    "tourism": "museum",
    "website": "http://www.castellobolognini.it/index.php?section=mpane"
  }
},
{
  "type": "node",
  "id": 6445359162,
  "lat": 45.7129763,
  "lon": 8.9009508,
  "tags": {
    "addr:city": "Tradate",
    "addr:country": "IT",
    "addr:housenumber": "25/B",
    "addr:postcode": "21049",
    "addr:street": "Via Giacomo Bianchi",
    "email": "fisogni@museo-fisogni.org",
    "name": "Museo Fisogni",
    "phone": "+39 335 6777118",
    "tourism": "museum",
    "website": "http://www.museo-fisogni.org/",
    "wikidata": "Q21328979",
    "wikipedia": "it:Museo Fisogni"
  }
},
{
  "type": "node",
  "id": 6483455293,
  "lat": 45.4855909,
  "lon": 9.1484207,
  "tags": {
    "addr:city": "Milano",
    "addr:housenumber": "8",
    "addr:postcode": "21049",
    "addr:street": "Via Aldo Rossi",
    "email": "mondomilan@acmilan.it",
    "name": "Museo Mondo Milan",
    "opening_hours": "Mo-Su 10:00-19:00",
    "phone": "+39 02 62285604",
    "tourism": "museum",
    "website": "http://casamilan.acmilan.com/it"
  }
},
{
  "type": "node",
  "id": 6783305822,
  "lat": 45.3172389,
  "lon": 9.5049438,
  "tags": {
    "museum": "military",
    "name": "Museo del Bersagliere",
    "tourism": "museum"
  }
},
{
  "type": "node",
  "id": 6783305823,
  "lat": 45.3142625,
  "lon": 9.5037538,
  "tags": {
    "name": "Museo Diocesano d’Arte Sacra",
    "tourism": "museum",
    "wikidata": "Q3868312"
  }
},
{
  "type": "node",
  "id": 6783305824,
  "lat": 45.3061594,
  "lon": 9.4935846,
  "tags": {
    "museum": "art",
    "name": "Museo Ettore Archinti",
    "tourism": "museum",
    "wikidata": "Q67221864"
  }
},
{
  "type": "node",
  "id": 6783305825,
  "lat": 45.3036697,
  "lon": 9.4891505,
  "tags": {
    "museum": "art",
    "name": "Museo d’arte contemporanea Folligeniali",
    "tourism": "museum",
    "wikidata": "Q68481943"
  }
},
{
  "type": "node",
  "id": 6783320842,
  "lat": 45.3068303,
  "lon": 9.5018779,
  "tags": {
    "museum": "musical_instruments",
    "name": "Museo dello Strumento Musicale e della Musica",
    "tourism": "museum"
  }
},
{
  "type": "node",
  "id": 6783331627,
  "lat": 45.3178851,
  "lon": 9.5028581,
  "tags": {
    "museum": "printing",
    "name": "Museo della Stampa e Stampa d’Arte a Lodi Andrea Schiavi",
    "tourism": "museum"
  }
},
{
  "type": "node",
  "id": 6783348644,
  "lat": 45.2382181,
  "lon": 9.4098280,
  "tags": {
    "name": "Museo Storico Artistico della Basilica",
    "tourism": "museum"
  }
},
{
  "type": "node",
  "id": 6783406398,
  "lat": 45.3365712,
  "lon": 9.4712862,
  "tags": {
    "name": "Museo della Radio",
    "tourism": "museum"
  }
},
{
  "type": "node",
  "id": 6783406399,
  "lat": 45.3366087,
  "lon": 9.4714122,
  "tags": {
    "name": "Museo di vita contadina",
    "tourism": "museum"
  }
},
{
  "type": "node",
  "id": 6783406401,
  "lat": 45.2861434,
  "lon": 9.3799164,
  "tags": {
    "name": "Collezione privata Il Mondo nel Presepio",
    "tourism": "museum"
  }
},
{
  "type": "node",
  "id": 6821173390,
  "lat": 45.3101861,
  "lon": 9.4966292,
  "tags": {
    "addr:city": "Lodi",
    "addr:housenumber": "13",
    "addr:postcode": "26900",
    "addr:street": "Viale Polenghi Lombardo",
    "name": "Bipielle Arte",
    "tourism": "museum",
    "wikidata": "Q68477942"
  }
},
{
  "type": "node",
  "id": 7034394885,
  "lat": 45.4730430,
  "lon": 9.1999760,
  "tags": {
    "tourism": "museum"
  }
},
{
  "type": "node",
  "id": 7171859575,
  "lat": 45.4287588,
  "lon": 9.2500432,
  "tags": {
    "addr:city": "Milano",
    "addr:housenumber": "7",
    "addr:street": "via Impastato",
    "email": "museodelviaggio@gmail.com",
    "museum": "Culture_Rom_and_Sinti",
    "name": "Museo del viaggio Fabrizio De André",
    "phone": "+39334 5432352",
    "start_date": "2011",
    "tourism": "museum",
    "website": "http://museodelviaggiorom.blogspot.com",
    "wikidata": "Q84030844",
    "wikipedia": "it:Museo del viaggio Fabrizio De André"
  }
},
{
  "type": "way",
  "id": 36996757,
  "nodes": [
    430273388,
    3178411584,
    430273389,
    430273390,
    3178411598,
    430273391,
    430273388
  ],
  "tags": {
    "building": "museum",
    "name": "Padiglione Ferroviario",
    "ref": "F",
    "tourism": "museum"
  }
},
{
  "type": "way",
  "id": 44424188,
  "nodes": [
    564699590,
    564699591,
    564699688,
    564699687,
    564699590
  ],
  "tags": {
    "addr:city": "Milano",
    "addr:housenumber": "5",
    "addr:postcode": "20155",
    "addr:street": "Piazza Diocleziano",
    "building": "yes",
    "name": "Museo centrale dell'acqua",
    "source": "Regione Lombardia - La banca dati territoriali CTR10000 è prodotta da Regione Lombardia - Infrastruttura per l'Informazione Territoriale",
    "tourism": "museum"
  }
},
{
  "type": "way",
  "id": 59830114,
  "nodes": [
    742483649,
    742483319,
    774566136,
    742482737,
    742483883,
    742483398,
    742482992,
    774565916,
    742483649
  ],
  "tags": {
    "building": "yes",
    "name": "MUMAC",
    "tourism": "museum"
  }
},
{
  "type": "way",
  "id": 96255563,
  "nodes": [
    1115729604,
    3416262942,
    3416262943,
    1128573662,
    3416262945,
    1115729627,
    3404223013,
    3404223016,
    1115729635,
    3416262940,
    3845880060,
    1115729604
  ],
  "tags": {
    "addr:city": "Busto Arsizio",
    "addr:housenumber": "6",
    "addr:postcode": "21052",
    "addr:street": "Via Alessandro Volta",
    "alt_name": "Museo del tessile",
    "building": "yes",
    "building:height": "8",
    "email": "museibusto@comune.bustoarsizio.va.it",
    "fee": "no",
    "name": "Museo del tessile e della tradizione industriale bustese",
    "opening_hours": "Tu,We,Th 14:30-18:00; Fr 09:30-13:00, 14:30-18:00; Sa 14:30-18:30; Su 15:00-18:30",
    "phone": "+39 0331 390351",
    "tourism": "museum",
    "website": "https://www.comune.bustoarsizio.va.it/index.php/visita-busto/museo-del-tessile",
    "wheelchair": "yes",
    "wikipedia": "it:Museo del tessile e della tradizione industriale di Busto Arsizio"
  }
},
{
  "type": "way",
  "id": 101798754,
  "nodes": [
    1348932989,
    1175098942,
    3408874770,
    3408874771,
    1348932986,
    1175099635,
    1348932989
  ],
  "tags": {
    "building": "yes",
    "name": "Museo Laus Pompeia - ex Conventino",
    "tourism": "museum"
  }
},
{
  "type": "way",
  "id": 109707449,
  "nodes": [
    1255209900,
    1255209964,
    1255209762,
    1255209676,
    1255209521,
    1255210046,
    1255209851,
    1255209929,
    1255209900
  ],
  "tags": {
    "addr:city": "Milano",
    "addr:housenumber": "94",
    "addr:postcode": "20149",
    "addr:street": "Via Mosè Bianchi",
    "contact:website": "https://www.pimemilano.com/Pagine/musei.html",
    "fee": "yes",
    "name": "Museo Popoli e Culture",
    "opening_hours": "Mo, We-Sa 09:00-18:00; Tu, Su, PH no",
    "operator": "PIME",
    "tourism": "museum"
  }
},
{
  "type": "way",
  "id": 109733832,
  "nodes": [
    1255393161,
    1255393119,
    1255393128,
    1255393136,
    1255393161
  ],
  "tags": {
    "addr:city": "Saronno",
    "addr:housenumber": "9",
    "addr:postcode": "21047",
    "addr:street": "Via Felice Carcano",
    "building": "yes",
    "email": "info@museogianetti.it",
    "name": "Museo della Ceramica G.Gianetti",
    "opening_hours": "Tu,Th 15:00-18:00; Sa 15:00-19:00",
    "phone": "+39 02 9602383",
    "tourism": "museum",
    "website": "http://www.museogianetti.it/"
  }
},
{
  "type": "way",
  "id": 138750066,
  "nodes": [
    1521490840,
    1521490839,
    1521490822,
    1521490820,
    1521490801,
    1521490805,
    1521490799,
    1521490803,
    1521490840
  ],
  "tags": {
    "architect": "Piero Portaluppi",
    "building": "yes",
    "name": "Villa Necchi Campiglio",
    "tourism": "museum",
    "wheelchair": "yes",
    "wikidata": "Q2525507",
    "wikipedia": "it:Villa Necchi Campiglio"
  }
},
{
  "type": "way",
  "id": 140202334,
  "nodes": [
    1536017686,
    1536017684,
    1536017687,
    1536017688,
    1536017689,
    1536017686
  ],
  "tags": {
    "addr:city": "Cormano",
    "addr:country": "IT",
    "addr:housenumber": "33",
    "addr:postcode": "20032",
    "addr:street": "Via Fabio Filzi",
    "email": "info@museodellecomunicazioni.org",
    "name": "Museo delle Comunicazioni Lucia e Francesca",
    "opening_hours": "\"su prenotazione\"",
    "operator": "Fondazione Museo delle Comunicazioni",
    "phone": "+39 335 8405192",
    "source": "survey",
    "start_date": "1995",
    "tourism": "museum",
    "website": "http://www.museodellecomunicazioni.org"
  }
},
{
  "type": "way",
  "id": 144110800,
  "nodes": [
    1576893623,
    3815884923,
    1576893620,
    3815884922,
    3815884924,
    1576893612,
    1576893623
  ],
  "tags": {
    "building": "yes",
    "name": "Museo del Bracconaggio",
    "tourism": "museum"
  }
},
{
  "type": "way",
  "id": 149246826,
  "nodes": [
    1622549844,
    1622549847,
    1622549853,
    1622549857,
    1622549861,
    1622549891,
    1622549899,
    1622549904,
    1622549906,
    1622549910,
    1622549914,
    1622549919,
    1622549921,
    1622549924,
    6710513881,
    1622549934,
    1622549938,
    1622549844
  ],
  "tags": {
    "building": "yes",
    "height": "5.2",
    "it:pv:pavia:CLASSE": "01",
    "it:pv:pavia:DELTA_Z": "0",
    "it:pv:pavia:EDIFC_STAT": "0403",
    "it:pv:pavia:EDIFC_TY": "0101",
    "it:pv:pavia:EDIFC_USO": "02100104",
    "it:pv:pavia:FEATURE_ID": "107849",
    "it:pv:pavia:ID_EDIF": "9392",
    "it:pv:pavia:ID_ZRIL": "301109120000",
    "it:pv:pavia:SHAPE_Area": "5080.38567497",
    "it:pv:pavia:SHAPE_Leng": "406.888245256",
    "it:pv:pavia:STRATO": "02",
    "it:pv:pavia:TEMA": "01",
    "it:pv:pavia:UN_VOL_AV": "5.2",
    "it:pv:pavia:UN_VOL_POR": "0301",
    "name": "Museo della Tecnica Elettrica",
    "phone": "+39 0382 984 104",
    "source": "Comune di Pavia - CC-BY 3.0",
    "tourism": "museum",
    "website": "http://museotecnica.unipv.eu",
    "wikidata": "Q3868115",
    "wikipedia": "it:Museo della tecnica elettrica"
  }
},
{
  "type": "way",
  "id": 176009481,
  "nodes": [
    1865693321,
    1865693325,
    1865693319,
    1865693337,
    1865693334,
    1865693335,
    1865693323,
    1865693333,
    1865693329,
    1865693314,
    1865693307,
    1865693294,
    1865693317,
    1865693309,
    1865693292,
    1865693288,
    1865693286,
    1865693321
  ],
  "tags": {
    "building": "yes",
    "name": "Museo della motocicletta Frera",
    "tourism": "museum"
  }
},
{
  "type": "way",
  "id": 196602310,
  "nodes": [
    2069165596,
    2069165597,
    3331957859,
    2069165595,
    2069165589,
    4125344054,
    4125344056,
    4125343774,
    4125343776,
    2069165596
  ],
  "tags": {
    "building": "public",
    "email": "galleria@campari.com",
    "fee": "no",
    "name": "Galleria Campari",
    "opening_hours": "Tu-Fr 10:00-13:00,14:00-18:30; We off",
    "phone": "+39 02 62251",
    "tourism": "museum"
  }
},
{
  "type": "way",
  "id": 204721782,
  "nodes": [
    2147024573,
    4170020890,
    27654232,
    4170003890,
    2147024558,
    2147024565,
    2147024571,
    2147024568,
    2147024574,
    2147024569,
    2147024555,
    4170016631,
    4170016637,
    2147024573
  ],
  "tags": {
    "addr:city": "Milano",
    "addr:housenumber": "12",
    "addr:postcode": "20122",
    "addr:street": "Piazza del Duomo",
    "building": "public",
    "building:levels": "3",
    "email": "info@duomomilano.it",
    "name": "Grande Museo del Duomo",
    "name:de": "Dommuseum",
    "name:en": "Duomo Museum",
    "name:fr": "Grand Musée du Duomo de Milan",
    "name:it": "Grande Museo del Duomo",
    "opening_hours": "Th-Tu 10:00-18:00; We off; ",
    "phone": "+39 02 36169351",
    "start_date": "1953",
    "tourism": "museum",
    "website": "https://museo.duomomilano.it/it/",
    "wikidata": "Q16337697",
    "wikipedia": "it:Grande Museo del Duomo di Milano"
  }
},
{
  "type": "way",
  "id": 207171534,
  "nodes": [
    2173292739,
    2173292738,
    2173292741,
    2173292740,
    2173292737,
    2173292736,
    2173292732,
    2173292733,
    2173292734,
    2173292735,
    2173292739
  ],
  "tags": {
    "building": "yes",
    "name": "Museo Vecchi attrezzi dell’artigiano e reperti paleontologici",
    "tourism": "museum"
  }
},
{
  "type": "way",
  "id": 219654904,
  "nodes": [
    2287986775,
    2287986774,
    2287986772,
    6822229801,
    2287986775
  ],
  "tags": {
    "addr:city": "Milano",
    "addr:country": "IT",
    "addr:housenumber": "6",
    "addr:postcode": "20121",
    "addr:street": "Via Daniele Manin",
    "building": "yes",
    "name": "Paleolab",
    "tourism": "museum",
    "website": "https://www.assodidatticamuseale.it/"
  }
},
{
  "type": "way",
  "id": 223393149,
  "nodes": [
    2322955966,
    2322955968,
    2329334865,
    2322955970,
    2322955974,
    2322955977,
    2322955972,
    2322955973,
    2322955975,
    2322955976,
    2322955971,
    2322955969,
    2322955967,
    2440652142,
    2440652141,
    2332328921,
    2322955966
  ],
  "tags": {
    "building": "place_of_worship",
    "historic": "yes",
    "name": "Museo di Arte Sacra di San Michele Arcangelo",
    "tourism": "museum",
    "wikidata": "Q3868205",
    "wikipedia": "it:Museo di arte sacra di San Michele Arcangelo"
  }
},
{
  "type": "way",
  "id": 252422994,
  "nodes": [
    2584830174,
    2584830171,
    4227544388,
    4227544380,
    4227544379,
    2584830161,
    2584830159,
    5039725712,
    5039725708,
    2584830169,
    2584830174
  ],
  "tags": {
    "addr:city": "Milano",
    "addr:housenumber": "14",
    "addr:postcode": "20122",
    "addr:street": "Via Palestro",
    "building": "public",
    "facebook": "http://www.facebook.com/pacmilano",
    "museum": "art",
    "name": "Padiglione d'Arte Contemporanea",
    "name:en": "Contemporary Arts Pavilion",
    "note": "A contemporary art space. Amission: Full price € 8.00, Reduced € 6.50",
    "opening_hours": "09:30-19:30; Th 09:30-22:30; Mo off",
    "phone": "+39 02 8844 6359",
    "short_name": "PAC",
    "tourism": "museum",
    "website": "http://www.pacmilano.it/",
    "wheelchair": "yes",
    "wikidata": "Q3888740",
    "wikipedia": "it:Padiglione d'arte contemporanea di Milano"
  }
},
{
  "type": "way",
  "id": 259217651,
  "nodes": [
    2645682322,
    2645682319,
    2645682303,
    2645682304,
    2645682322
  ],
  "tags": {
    "addr:city": "Milano",
    "addr:housenumber": "9",
    "addr:postcode": "20143",
    "addr:street": "Via Giosuè Borsi",
    "building": "commercial",
    "level": "0",
    "name": "Museo Del Design 1880-1980",
    "opening_hours": "Tu 10:30-20:00; We 10:30-21:00; Th 10:30-20:00; Fr 10:30-20:00; Sa 10:30-20:00; Su 10:30-20:00",
    "operator": "Musei Italiani",
    "phone": "+39 0283413302",
    "ramp:wheelchair": "yes",
    "toilets:wheelchair": "yes",
    "tourism": "museum",
    "website": "http://www.museiitaliani.org",
    "wheelchair": "yes"
  }
},
{
  "type": "way",
  "id": 285647989,
  "nodes": [
    2893211571,
    2893211569,
    2893211573,
    2893211575,
    2893211571
  ],
  "tags": {
    "name": "Ecomuseo della Roggia Mora",
    "operator": "La Città Ideale",
    "tourism": "museum"
  }
},
{
  "type": "way",
  "id": 309730156,
  "nodes": [
    3150604168,
    3150613305,
    3150608958,
    3150608956,
    3150613810,
    3150613813,
    3150604168
  ],
  "tags": {
    "addr:city": "Biassono",
    "addr:country": "IT",
    "addr:housenumber": "1",
    "addr:postcode": "20853",
    "addr:street": "Via San Martino",
    "building": "public",
    "email": "info@museobiassono.it",
    "name": "Museo Civico di Biassono",
    "opening_hours": "Fr 09:30-12:00,15:00-18:30; Sa 15:00-19:00",
    "phone": "+39 039 2201077",
    "tourism": "museum",
    "website": "http://www.museobiassono.it/"
  }
},
{
  "type": "way",
  "id": 314836872,
  "nodes": [
    3208792604,
    3208792605,
    3208792606,
    3208792607,
    3208792604
  ],
  "tags": {
    "addr:city": "Saronno",
    "addr:country": "IT",
    "addr:housenumber": "6",
    "addr:postcode": "21047",
    "addr:street": "Via Don Angelo Griffanti",
    "building": "museum",
    "email": "museo.industrie@teletu.it",
    "name": "MILS Museo delle Industrie e del Lavoro Saronnese",
    "opening_hours": "Tu 15:00-17:00; Th 14:30-16:00; Sa 15:00-18:00; Su 09:00-12:00, 14:30-18:30; Dec 24-Jan 6, Easter -2, Easter +1, Aug off",
    "phone": "+39 02 9607459",
    "start_date": "1998",
    "tourism": "museum",
    "website": "http://www.museomils.it/",
    "wikidata": "Q16580608",
    "wikipedia": "it:Museo delle industrie e del lavoro del Saronnese"
  }
},
{
  "type": "way",
  "id": 316215231,
  "nodes": [
    3223257899,
    3223258167,
    3223258168,
    3223257570,
    3223257794,
    3223258170,
    3223257571,
    3223258169,
    3223257900,
    3223257569,
    3223257898,
    3223257897,
    3223257568,
    3223257896,
    3223257895,
    3223257566,
    3223257479,
    3223257894,
    4225131879,
    3223257565,
    3223257480,
    3223257567,
    3223257899
  ],
  "tags": {
    "addr:city": "Lissone",
    "addr:country": "IT",
    "addr:housenumber": "6",
    "addr:postcode": "20851",
    "addr:street": "Viale Elisa Ancona",
    "building": "museum",
    "building:levels": "2",
    "email": "museo@comune.lissone.mb.it",
    "fax": "+39 039 461523",
    "name": "Museo d'Arte Contemporanea",
    "opening_hours": "We,Fr 10:00-13:00; Th 16:00-23:00; Sa,Su 10:00-12:00,15:00-19:00",
    "phone": "+39 039 2145174",
    "start_date": "2002",
    "tourism": "museum",
    "wikidata": "Q3867849",
    "wikipedia": "it:Museo d'arte contemporanea (Lissone)"
  }
},
{
  "type": "way",
  "id": 318110395,
  "nodes": [
    1272904007,
    3244845077,
    3244845078,
    1272904016,
    1272903988,
    1272904111,
    1272903993,
    1272903917,
    1272904007
  ],
  "tags": {
    "addr:city": "Cura Carpignano",
    "addr:housenumber": "13",
    "addr:postcode": "27100",
    "addr:street": "Via del Commercio",
    "building:part": "industrial",
    "name": "ComPVter",
    "tourism": "museum",
    "website": "http://www.compvter.it"
  }
},
{
  "type": "way",
  "id": 330844383,
  "nodes": [
    6795115423,
    6795157448,
    6800319695,
    3378505252,
    3378505253,
    3378505251,
    3378505250,
    3378510793,
    5412035151,
    6795115423
  ],
  "tags": {
    "addr:city": "Milano",
    "addr:housenumber": "12",
    "addr:postcode": "20133",
    "addr:street": "Viale Campania",
    "building": "yes",
    "email": "info@museowow.it",
    "name": "WOW Spazio Fumetto",
    "opening_hours": "Tu-Fr 15:00-19:00; Sa,Su 15:00-20:00; Mo off",
    "phone": "+39 02 49524744",
    "tourism": "museum",
    "website": "http://www.museowow.it/wow/it/",
    "wikidata": "Q17639804",
    "wikipedia": "it:WOW Spazio Fumetto"
  }
},
{
  "type": "way",
  "id": 341447523,
  "nodes": [
    1515097377,
    1515097374,
    1515097363,
    1515097358,
    1515097360,
    1515097373,
    1515097376,
    1515097391,
    1515097397,
    1515097400,
    1515097405,
    1515097407,
    1515097411,
    1515097414,
    1515097419,
    1515097423,
    1515097430,
    1515097431,
    1515097434,
    1515097435,
    1515097444,
    1515097449,
    1515097429,
    1515097422,
    1515097416,
    1515097412,
    1515097408,
    1515097406,
    1515097401,
    1515097399,
    1515097398,
    1515097393,
    3486365866,
    1515097377
  ],
  "tags": {
    "addr:city": "Milano",
    "addr:housename": "Armani/Silos",
    "addr:housenumber": "40",
    "addr:postcode": "20144",
    "addr:street": "Via Bergognone da Fossano",
    "building": "yes",
    "name": "Armani/Silos",
    "start_date": "2015-04-29",
    "tourism": "museum",
    "website": "https://www.armanisilos.com/",
    "wikidata": "Q20008149"
  }
},
{
  "type": "way",
  "id": 404529425,
  "nodes": [
    4068096834,
    4068096835,
    4068096836,
    4068096837,
    4068096838,
    4068096839,
    4068096840,
    4068096841,
    4068096842,
    4068096843,
    4068096844,
    4068096845,
    4068096846,
    4068095349,
    4068096834
  ],
  "tags": {
    "name": "Parco Museo Pagani",
    "tourism": "museum"
  }
},
{
  "type": "way",
  "id": 420005515,
  "nodes": [
    738894701,
    738894700,
    4199908226,
    4199908268,
    738894702,
    738894709,
    4199908266,
    4199908242,
    4199908243,
    738894727,
    738894734,
    738894735,
    577509982,
    3178411564,
    1831015899,
    299014609,
    4175703888,
    299014564,
    3178411611,
    3178411606,
    3178411604,
    1529767664,
    1529767621,
    1529767586,
    3178411568,
    4199908238,
    1529767450,
    2518969856,
    3178411569,
    3178411572,
    3178411578,
    3178411580,
    3178411585,
    3178411583,
    3178411587,
    299014612,
    738894698,
    738894712,
    738894701
  ],
  "tags": {
    "addr:city": "Milano",
    "addr:country": "IT",
    "addr:housenumber": "10",
    "addr:postcode": "20123",
    "addr:street": "Via San Vittore",
    "email": "info@museoscienza.it",
    "name": "Museo Nazionale della Scienza e della Tecnologia",
    "name:it": "Museo Nazionale della Scienza e della Tecnologia",
    "name:pl": "Narodowe Muzeum Nauki i Technologii im. Leonarda da Vinci w Mediolanie",
    "opening_hours": "Tu-Fr 09:30-17:00; Sa,Su,PH 09:30-18:30; Mo, Jan 1, Dec 24,25 off",
    "phone": "+39 02 485551",
    "tourism": "museum",
    "website": "http://www.museoscienza.org/",
    "wikidata": "Q947082",
    "wikipedia": "it:Museo nazionale della scienza e della tecnologia Leonardo da Vinci"
  }
},
{
  "type": "way",
  "id": 425004880,
  "nodes": [
    4243534868,
    3507474607,
    4243534867,
    4243534873,
    4243534870,
    4243534868
  ],
  "tags": {
    "addr:city": "Milano",
    "addr:country": "IT",
    "addr:housenumber": "2",
    "addr:postcode": "20139",
    "addr:street": "Largo Isarco",
    "email": "visit.milano@fondazioneprada.org",
    "fee": "yes",
    "name": "Fondazione Prada",
    "opening_hours": "Mo-Th 10:00-19:00; Tu off; Fr-Su 10:00-21:00",
    "phone": "+39 02 5666 2612",
    "tourism": "museum",
    "website": "http://www.fondazioneprada.org",
    "wheelchair": "limited",
    "wikidata": "Q3747208"
  }
},
{
  "type": "way",
  "id": 449061133,
  "nodes": [
    4460321216,
    4460321219,
    4460321222,
    4460321221,
    4460321216
  ],
  "tags": {
    "building": "public",
    "name": "Museo Paleontologico",
    "tourism": "museum"
  }
},
{
  "type": "way",
  "id": 452642290,
  "nodes": [
    4494030544,
    4494027090,
    4494028801,
    4494030047,
    4494028356,
    4494030544
  ],
  "tags": {
    "building": "yes",
    "height": "6.34",
    "name": "Museo della Scienza",
    "ref": "3247",
    "tourism": "museum"
  }
},
{
  "type": "relation",
  "id": 36488,
  "members": [
    {
      "type": "way",
      "ref": 139243273,
      "role": "inner"
    },
    {
      "type": "way",
      "ref": 416169837,
      "role": "inner"
    },
    {
      "type": "way",
      "ref": 27595251,
      "role": "inner"
    },
    {
      "type": "way",
      "ref": 204721783,
      "role": "outer"
    }
  ],
  "tags": {
    "building": "yes",
    "building:levels": "3",
    "name": "Palazzo Reale",
    "name:de": "Königlicher Palast",
    "name:en": "Royal Palace",
    "name:es": "Palacio Real",
    "name:fr": "Palais royal",
    "name:it": "Palazzo Reale",
    "name:pt": "Palácio Real",
    "name:zh": "米兰王宫",
    "tourism": "museum",
    "type": "multipolygon",
    "website": "http://www.comune.milano.it/palazzoreale",
    "wheelchair": "limited",
    "wikidata": "Q51105",
    "wikipedia": "it:Palazzo Reale (Milano)"
  }
},
{
  "type": "relation",
  "id": 2190544,
  "members": [
    {
      "type": "way",
      "ref": 14595913,
      "role": "outer"
    },
    {
      "type": "way",
      "ref": 23331314,
      "role": "inner"
    },
    {
      "type": "way",
      "ref": 23331313,
      "role": "inner"
    }
  ],
  "tags": {
    "addr:city": "Milano",
    "addr:country": "IT",
    "addr:housenumber": "55",
    "addr:postcode": "20121",
    "addr:street": "Corso Venezia",
    "building": "civic",
    "fax": "+39 02 88463281",
    "name": "Museo Civico di Storia Naturale",
    "name:es": "Museo Cívico de Historia Natural",
    "name:it": "Museo Civico di Storia Naturale",
    "opening_hours": "Tu-Su 09:00-17:30; Mo, Jan 1, Dec 25 off",
    "phone": "+39 02 88463337",
    "tourism": "museum",
    "type": "multipolygon",
    "website": "www.comune.milano.it/museostorianaturale",
    "wikidata": "Q1533416",
    "wikipedia": "it:Museo civico di storia naturale di Milano"
  }
},
{
  "type": "relation",
  "id": 2319973,
  "members": [
    {
      "type": "way",
      "ref": 173769301,
      "role": "outer"
    },
    {
      "type": "way",
      "ref": 173769439,
      "role": "inner"
    }
  ],
  "tags": {
    "building": "yes",
    "name": "Monastero di Cairate",
    "tourism": "museum",
    "type": "multipolygon"
  }
},
{
  "type": "relation",
  "id": 2607828,
  "members": [
    {
      "type": "way",
      "ref": 168232744,
      "role": "outer"
    },
    {
      "type": "way",
      "ref": 193629600,
      "role": "inner"
    }
  ],
  "tags": {
    "building": "yes",
    "historic": "castle",
    "name": "Castello Borromeo",
    "tourism": "museum",
    "type": "multipolygon"
  }
},
{
  "type": "relation",
  "id": 2640826,
  "members": [
    {
      "type": "way",
      "ref": 196523721,
      "role": "outer"
    },
    {
      "type": "way",
      "ref": 46103653,
      "role": "inner"
    }
  ],
  "tags": {
    "addr:city": "Milano",
    "addr:housenumber": "15",
    "addr:postcode": "20123",
    "addr:street": "Corso Magenta",
    "building": "public",
    "building:levels": "1",
    "email": "C.museoarcheologico@comune.milano.it",
    "name": "Museo Civico Archeologico",
    "opening_hours": "Tu-Su 09:00-17:30; Mo off; Jan 1 off; May 1 off; Dec 25 off",
    "phone": "+39 02 88445208",
    "tourism": "museum",
    "type": "multipolygon",
    "website": "http://www.comune.milano.it/museoarcheologico",
    "wikidata": "Q604908",
    "wikipedia": "it:Civico museo archeologico di Milano"
  }
},
{
  "type": "relation",
  "id": 2640827,
  "members": [
    {
      "type": "way",
      "ref": 196523722,
      "role": "outer"
    },
    {
      "type": "way",
      "ref": 180029244,
      "role": "inner"
    }
  ],
  "tags": {
    "addr:city": "Milano",
    "addr:country": "IT",
    "addr:housenumber": "4",
    "addr:postcode": "20121",
    "addr:street": "Via Quintino Sella",
    "building": "public",
    "building:levels": "5",
    "email": "info@museoartescienza.com",
    "name": "Museo d'arte e scienza",
    "opening_hours": "Mo-Fr 10:00-18:00",
    "phone": "+39 02 72022488",
    "tourism": "museum",
    "type": "multipolygon",
    "website": "http://museoartescienza.com",
    "wikidata": "Q3328415",
    "wikipedia": "it:Museo d'arte e scienza"
  }
},
{
  "type": "relation",
  "id": 4792218,
  "members": [
    {
      "type": "way",
      "ref": 338669353,
      "role": "outer"
    },
    {
      "type": "way",
      "ref": 338669361,
      "role": "inner"
    }
  ],
  "tags": {
    "architect": "David Chipperfield",
    "building": "public",
    "name": "Mudec",
    "start_date": "2015",
    "tourism": "museum",
    "type": "multipolygon"
  }
},
{
  "type": "relation",
  "id": 5447814,
  "members": [
    {
      "type": "way",
      "ref": 366306662,
      "role": "outer"
    }
  ],
  "tags": {
    "addr:city": "Lodi Vecchio",
    "addr:housenumber": "14",
    "addr:postcode": "26855",
    "addr:street": "Vicolo Corte Bassa",
    "building": "yes",
    "description": "Il Museo si trova in uno dei luoghi più importanti per la storia di Lodi Vecchio, Piazza Santa Maria, ovvero l’area del foro di Laus Pompeia, la piazza principale della città romana.",
    "email": "museolauspompeia@gmail.com",
    "name": "Museo Laus Pompeia",
    "opening_hours": "Sa-Su 10:00-13:00; 15:30-18:30; We \"by appointment\"",
    "phone": "+39 0371 405006",
    "tourism": "museum",
    "type": "multipolygon",
    "website": "http://www.lauspompeiamuseo.it/"
  }
},
{
  "type": "relation",
  "id": 7356642,
  "members": [
    {
      "type": "way",
      "ref": 207101068,
      "role": "outer"
    },
    {
      "type": "way",
      "ref": 503255258,
      "role": "inner"
    }
  ],
  "tags": {
    "addr:housenumber": "1",
    "addr:street": "Via Gerolamo Morone",
    "building": "yes",
    "building:levels": "3",
    "historic": "yes",
    "name": "Casa di Alessandro Manzoni",
    "tourism": "museum",
    "type": "multipolygon",
    "wikidata": "Q3661123",
    "wikipedia": "it:Casa Manzoni"
  }
},
{
  "type": "relation",
  "id": 7828254,
  "members": [
    {
      "type": "way",
      "ref": 548283574,
      "role": "inner"
    },
    {
      "type": "way",
      "ref": 4497906,
      "role": "outer"
    }
  ],
  "tags": {
    "addr:city": "Milano",
    "addr:country": "IT",
    "addr:housenumber": "6",
    "addr:postcode": "20121",
    "addr:street": "Viale Emilio Alemagna",
    "building": "yes",
    "email": "info@triennale.org",
    "name": "Triennale Design Museum",
    "name:es": "Museo del Diseño",
    "name:it": "Triennale Design Museum",
    "opening_hours": "Tu-Su 10:30-20:30; Mo off",
    "phone": "+39 02 724341",
    "start_date": "1933",
    "toilets:wheelchair": "yes",
    "tourism": "museum",
    "type": "multipolygon",
    "website": "http://www.triennale.it",
    "wheelchair": "yes",
    "wikidata": "Q3361355",
    "wikipedia": "it:Palazzo dell'Arte"
  }
},
{
  "type": "node",
  "id": 1622549844,
  "lat": 45.2047795,
  "lon": 9.1342127
},
{
  "type": "node",
  "id": 1622549847,
  "lat": 45.2051921,
  "lon": 9.1349075
},
{
  "type": "node",
  "id": 1622549853,
  "lat": 45.2050977,
  "lon": 9.1350197
},
{
  "type": "node",
  "id": 1622549857,
  "lat": 45.2051263,
  "lon": 9.1350716
},
{
  "type": "node",
  "id": 1622549861,
  "lat": 45.2052323,
  "lon": 9.1349725
},
{
  "type": "node",
  "id": 1622549891,
  "lat": 45.2054440,
  "lon": 9.1354168
},
{
  "type": "node",
  "id": 1622549904,
  "lat": 45.2048955,
  "lon": 9.1353147
},
{
  "type": "node",
  "id": 1622549906,
  "lat": 45.2050021,
  "lon": 9.1352078
},
{
  "type": "node",
  "id": 1622549910,
  "lat": 45.2049829,
  "lon": 9.1351639
},
{
  "type": "node",
  "id": 1622549914,
  "lat": 45.2048775,
  "lon": 9.1352819
},
{
  "type": "node",
  "id": 1622549919,
  "lat": 45.2044611,
  "lon": 9.1345910
},
{
  "type": "node",
  "id": 1622549921,
  "lat": 45.2045701,
  "lon": 9.1344545
},
{
  "type": "node",
  "id": 1622549924,
  "lat": 45.2046284,
  "lon": 9.1345473
},
{
  "type": "node",
  "id": 1622549934,
  "lat": 45.2047299,
  "lon": 9.1344255
},
{
  "type": "node",
  "id": 1622549938,
  "lat": 45.2046737,
  "lon": 9.1343340
},
{
  "type": "node",
  "id": 6710513881,
  "lat": 45.2046970,
  "lon": 9.1344650
},
{
  "type": "node",
  "id": 1622549899,
  "lat": 45.2050974,
  "lon": 9.1357377
},
{
  "type": "node",
  "id": 1272903917,
  "lat": 45.2072006,
  "lon": 9.2201447
},
{
  "type": "node",
  "id": 1272903988,
  "lat": 45.2071828,
  "lon": 9.2203665
},
{
  "type": "node",
  "id": 1272903993,
  "lat": 45.2070931,
  "lon": 9.2202999
},
{
  "type": "node",
  "id": 1272904007,
  "lat": 45.2072508,
  "lon": 9.2202147
},
{
  "type": "node",
  "id": 1272904016,
  "lat": 45.2073214,
  "lon": 9.2205598
},
{
  "type": "node",
  "id": 1272904111,
  "lat": 45.2071622,
  "lon": 9.2203962
},
{
  "type": "node",
  "id": 3244845077,
  "lat": 45.2071971,
  "lon": 9.2202923
},
{
  "type": "node",
  "id": 3244845078,
  "lat": 45.2073545,
  "lon": 9.2205119
},
{
  "type": "node",
  "id": 2893211569,
  "lat": 45.3305215,
  "lon": 8.8600678
},
{
  "type": "node",
  "id": 2893211571,
  "lat": 45.3305610,
  "lon": 8.8602349
},
{
  "type": "node",
  "id": 2893211573,
  "lat": 45.3306577,
  "lon": 8.8600026
},
{
  "type": "node",
  "id": 2893211575,
  "lat": 45.3306972,
  "lon": 8.8601697
},
{
  "type": "node",
  "id": 1576893612,
  "lat": 45.4370093,
  "lon": 8.8263248
},
{
  "type": "node",
  "id": 1576893620,
  "lat": 45.4370905,
  "lon": 8.8263578
},
{
  "type": "node",
  "id": 1576893623,
  "lat": 45.4370491,
  "lon": 8.8263049
},
{
  "type": "node",
  "id": 3815884922,
  "lat": 45.4371073,
  "lon": 8.8264262
},
{
  "type": "node",
  "id": 3815884923,
  "lat": 45.4370653,
  "lon": 8.8263704
},
{
  "type": "node",
  "id": 3815884924,
  "lat": 45.4370422,
  "lon": 8.8264587
},
{
  "type": "node",
  "id": 742482737,
  "lat": 45.3358628,
  "lon": 9.0972080
},
{
  "type": "node",
  "id": 742482992,
  "lat": 45.3362075,
  "lon": 9.0974661
},
{
  "type": "node",
  "id": 742483319,
  "lat": 45.3359790,
  "lon": 9.0974446
},
{
  "type": "node",
  "id": 742483398,
  "lat": 45.3363236,
  "lon": 9.0971522
},
{
  "type": "node",
  "id": 742483649,
  "lat": 45.3361483,
  "lon": 9.0975779
},
{
  "type": "node",
  "id": 742483883,
  "lat": 45.3359790,
  "lon": 9.0968941
},
{
  "type": "node",
  "id": 774565916,
  "lat": 45.3361937,
  "lon": 9.0974558
},
{
  "type": "node",
  "id": 774566136,
  "lat": 45.3360241,
  "lon": 9.0973288
},
{
  "type": "node",
  "id": 3457887016,
  "lat": 45.4516770,
  "lon": 9.1615016
},
{
  "type": "node",
  "id": 3457887019,
  "lat": 45.4523653,
  "lon": 9.1613602
},
{
  "type": "node",
  "id": 3457887022,
  "lat": 45.4522140,
  "lon": 9.1616455
},
{
  "type": "node",
  "id": 3457887026,
  "lat": 45.4519429,
  "lon": 9.1609123
},
{
  "type": "node",
  "id": 3457887033,
  "lat": 45.4516782,
  "lon": 9.1612575
},
{
  "type": "node",
  "id": 3457887039,
  "lat": 45.4524150,
  "lon": 9.1615150
},
{
  "type": "node",
  "id": 3457887044,
  "lat": 45.4517572,
  "lon": 9.1613610
},
{
  "type": "node",
  "id": 3457887046,
  "lat": 45.4515967,
  "lon": 9.1612529
},
{
  "type": "node",
  "id": 3457887051,
  "lat": 45.4521356,
  "lon": 9.1608880
},
{
  "type": "node",
  "id": 3457887057,
  "lat": 45.4520183,
  "lon": 9.1617732
},
{
  "type": "node",
  "id": 3457887067,
  "lat": 45.4517393,
  "lon": 9.1614606
},
{
  "type": "node",
  "id": 3457887075,
  "lat": 45.4518714,
  "lon": 9.1618695
},
{
  "type": "node",
  "id": 3457887077,
  "lat": 45.4517173,
  "lon": 9.1613857
},
{
  "type": "node",
  "id": 3457887098,
  "lat": 45.4523318,
  "lon": 9.1610886
},
{
  "type": "node",
  "id": 3457887103,
  "lat": 45.4522448,
  "lon": 9.1608170
},
{
  "type": "node",
  "id": 3457887105,
  "lat": 45.4524096,
  "lon": 9.1613287
},
{
  "type": "node",
  "id": 3457887106,
  "lat": 45.4517181,
  "lon": 9.1612328
},
{
  "type": "node",
  "id": 3457887108,
  "lat": 45.4517614,
  "lon": 9.1610318
},
{
  "type": "node",
  "id": 3457887109,
  "lat": 45.4521102,
  "lon": 9.1608061
},
{
  "type": "node",
  "id": 3457887110,
  "lat": 45.4517912,
  "lon": 9.1611246
},
{
  "type": "node",
  "id": 1515097358,
  "lat": 45.4513321,
  "lon": 9.1645351
},
{
  "type": "node",
  "id": 1515097360,
  "lat": 45.4513418,
  "lon": 9.1646170
},
{
  "type": "node",
  "id": 1515097363,
  "lat": 45.4513526,
  "lon": 9.1644976
},
{
  "type": "node",
  "id": 1515097373,
  "lat": 45.4513649,
  "lon": 9.1646734
},
{
  "type": "node",
  "id": 1515097374,
  "lat": 45.4513743,
  "lon": 9.1645030
},
{
  "type": "node",
  "id": 1515097376,
  "lat": 45.4513805,
  "lon": 9.1647616
},
{
  "type": "node",
  "id": 1515097377,
  "lat": 45.4513891,
  "lon": 9.1644817
},
{
  "type": "node",
  "id": 1515097391,
  "lat": 45.4514115,
  "lon": 9.1648281
},
{
  "type": "node",
  "id": 1515097393,
  "lat": 45.4514161,
  "lon": 9.1644675
},
{
  "type": "node",
  "id": 1515097397,
  "lat": 45.4514183,
  "lon": 9.1649049
},
{
  "type": "node",
  "id": 1515097398,
  "lat": 45.4514347,
  "lon": 9.1644689
},
{
  "type": "node",
  "id": 1515097399,
  "lat": 45.4514485,
  "lon": 9.1644448
},
{
  "type": "node",
  "id": 1515097400,
  "lat": 45.4514516,
  "lon": 9.1649905
},
{
  "type": "node",
  "id": 1515097401,
  "lat": 45.4514778,
  "lon": 9.1644506
},
{
  "type": "node",
  "id": 1515097405,
  "lat": 45.4514841,
  "lon": 9.1649960
},
{
  "type": "node",
  "id": 1515097406,
  "lat": 45.4514972,
  "lon": 9.1644180
},
{
  "type": "node",
  "id": 1515097407,
  "lat": 45.4515014,
  "lon": 9.1649688
},
{
  "type": "node",
  "id": 1515097408,
  "lat": 45.4515175,
  "lon": 9.1644257
},
{
  "type": "node",
  "id": 1515097411,
  "lat": 45.4515325,
  "lon": 9.1649723
},
{
  "type": "node",
  "id": 1515097412,
  "lat": 45.4515426,
  "lon": 9.1643892
},
{
  "type": "node",
  "id": 1515097414,
  "lat": 45.4515543,
  "lon": 9.1649337
},
{
  "type": "node",
  "id": 1515097416,
  "lat": 45.4515759,
  "lon": 9.1643957
},
{
  "type": "node",
  "id": 1515097419,
  "lat": 45.4515797,
  "lon": 9.1649337
},
{
  "type": "node",
  "id": 1515097422,
  "lat": 45.4515893,
  "lon": 9.1643697
},
{
  "type": "node",
  "id": 1515097423,
  "lat": 45.4515983,
  "lon": 9.1649052
},
{
  "type": "node",
  "id": 1515097429,
  "lat": 45.4516204,
  "lon": 9.1643785
},
{
  "type": "node",
  "id": 1515097430,
  "lat": 45.4516250,
  "lon": 9.1649067
},
{
  "type": "node",
  "id": 1515097431,
  "lat": 45.4516413,
  "lon": 9.1648767
},
{
  "type": "node",
  "id": 1515097434,
  "lat": 45.4516729,
  "lon": 9.1648818
},
{
  "type": "node",
  "id": 1515097435,
  "lat": 45.4516930,
  "lon": 9.1648453
},
{
  "type": "node",
  "id": 1515097444,
  "lat": 45.4517171,
  "lon": 9.1648441
},
{
  "type": "node",
  "id": 1515097449,
  "lat": 45.4517350,
  "lon": 9.1648143
},
{
  "type": "node",
  "id": 3486365866,
  "lat": 45.4514000,
  "lon": 9.1644643
},
{
  "type": "node",
  "id": 2645682303,
  "lat": 45.4469935,
  "lon": 9.1743479
},
{
  "type": "node",
  "id": 2645682304,
  "lat": 45.4470051,
  "lon": 9.1736885
},
{
  "type": "node",
  "id": 2645682319,
  "lat": 45.4473810,
  "lon": 9.1743617
},
{
  "type": "node",
  "id": 2645682322,
  "lat": 45.4473926,
  "lon": 9.1737023
},
{
  "type": "node",
  "id": 299014564,
  "lat": 45.4628820,
  "lon": 9.1716446
},
{
  "type": "node",
  "id": 299014609,
  "lat": 45.4631060,
  "lon": 9.1708806
},
{
  "type": "node",
  "id": 299014612,
  "lat": 45.4614341,
  "lon": 9.1700068
},
{
  "type": "node",
  "id": 430273388,
  "lat": 45.4614406,
  "lon": 9.1714174
},
{
  "type": "node",
  "id": 430273389,
  "lat": 45.4612159,
  "lon": 9.1711604
},
{
  "type": "node",
  "id": 430273390,
  "lat": 45.4616129,
  "lon": 9.1704550
},
{
  "type": "node",
  "id": 430273391,
  "lat": 45.4618375,
  "lon": 9.1707119
},
{
  "type": "node",
  "id": 577509982,
  "lat": 45.4627138,
  "lon": 9.1704462
},
{
  "type": "node",
  "id": 738894698,
  "lat": 45.4615068,
  "lon": 9.1700913
},
{
  "type": "node",
  "id": 738894700,
  "lat": 45.4616691,
  "lon": 9.1697910
},
{
  "type": "node",
  "id": 738894701,
  "lat": 45.4618602,
  "lon": 9.1700065
},
{
  "type": "node",
  "id": 738894702,
  "lat": 45.4617530,
  "lon": 9.1696535
},
{
  "type": "node",
  "id": 738894709,
  "lat": 45.4619394,
  "lon": 9.1698637
},
{
  "type": "node",
  "id": 738894712,
  "lat": 45.4616954,
  "lon": 9.1702986
},
{
  "type": "node",
  "id": 738894727,
  "lat": 45.4622767,
  "lon": 9.1699590
},
{
  "type": "node",
  "id": 738894734,
  "lat": 45.4623786,
  "lon": 9.1700748
},
{
  "type": "node",
  "id": 738894735,
  "lat": 45.4624086,
  "lon": 9.1701105
},
{
  "type": "node",
  "id": 1529767450,
  "lat": 45.4607160,
  "lon": 9.1720134
},
{
  "type": "node",
  "id": 1529767586,
  "lat": 45.4610555,
  "lon": 9.1723878
},
{
  "type": "node",
  "id": 1529767621,
  "lat": 45.4612475,
  "lon": 9.1720313
},
{
  "type": "node",
  "id": 1529767664,
  "lat": 45.4615307,
  "lon": 9.1714977
},
{
  "type": "node",
  "id": 1831015899,
  "lat": 45.4630189,
  "lon": 9.1707838
},
{
  "type": "node",
  "id": 2518969856,
  "lat": 45.4605821,
  "lon": 9.1718623
},
{
  "type": "node",
  "id": 3178411564,
  "lat": 45.4628946,
  "lon": 9.1706462
},
{
  "type": "node",
  "id": 3178411568,
  "lat": 45.4608416,
  "lon": 9.1721536
},
{
  "type": "node",
  "id": 3178411569,
  "lat": 45.4604910,
  "lon": 9.1717578
},
{
  "type": "node",
  "id": 3178411572,
  "lat": 45.4609134,
  "lon": 9.1709801
},
{
  "type": "node",
  "id": 3178411578,
  "lat": 45.4611931,
  "lon": 9.1704686
},
{
  "type": "node",
  "id": 3178411580,
  "lat": 45.4612504,
  "lon": 9.1705373
},
{
  "type": "node",
  "id": 3178411583,
  "lat": 45.4613206,
  "lon": 9.1702063
},
{
  "type": "node",
  "id": 3178411584,
  "lat": 45.4613285,
  "lon": 9.1712892
},
{
  "type": "node",
  "id": 3178411585,
  "lat": 45.4613939,
  "lon": 9.1702943
},
{
  "type": "node",
  "id": 3178411587,
  "lat": 45.4614172,
  "lon": 9.1700426
},
{
  "type": "node",
  "id": 3178411598,
  "lat": 45.4617230,
  "lon": 9.1705779
},
{
  "type": "node",
  "id": 3178411604,
  "lat": 45.4618353,
  "lon": 9.1709460
},
{
  "type": "node",
  "id": 3178411606,
  "lat": 45.4618830,
  "lon": 9.1709439
},
{
  "type": "node",
  "id": 3178411611,
  "lat": 45.4620201,
  "lon": 9.1706676
},
{
  "type": "node",
  "id": 4175703888,
  "lat": 45.4629951,
  "lon": 9.1712589
},
{
  "type": "node",
  "id": 4199908226,
  "lat": 45.4615992,
  "lon": 9.1697130
},
{
  "type": "node",
  "id": 4199908238,
  "lat": 45.4608333,
  "lon": 9.1721445
},
{
  "type": "node",
  "id": 4199908242,
  "lat": 45.4620491,
  "lon": 9.1698065
},
{
  "type": "node",
  "id": 4199908243,
  "lat": 45.4620832,
  "lon": 9.1697484
},
{
  "type": "node",
  "id": 4199908266,
  "lat": 45.4620037,
  "lon": 9.1697475
},
{
  "type": "node",
  "id": 4199908268,
  "lat": 45.4616780,
  "lon": 9.1695697
},
{
  "type": "node",
  "id": 31508607,
  "lat": 45.4721633,
  "lon": 9.1737811
},
{
  "type": "node",
  "id": 31508608,
  "lat": 45.4720660,
  "lon": 9.1735505
},
{
  "type": "node",
  "id": 1318977216,
  "lat": 45.4721416,
  "lon": 9.1737476
},
{
  "type": "node",
  "id": 5296922676,
  "lat": 45.4719924,
  "lon": 9.1742795
},
{
  "type": "node",
  "id": 5296922677,
  "lat": 45.4719809,
  "lon": 9.1742944
},
{
  "type": "node",
  "id": 5296922678,
  "lat": 45.4719731,
  "lon": 9.1743117
},
{
  "type": "node",
  "id": 5296922679,
  "lat": 45.4719679,
  "lon": 9.1743308
},
{
  "type": "node",
  "id": 5296922680,
  "lat": 45.4719655,
  "lon": 9.1743509
},
{
  "type": "node",
  "id": 5296922681,
  "lat": 45.4719659,
  "lon": 9.1743714
},
{
  "type": "node",
  "id": 5296922682,
  "lat": 45.4719691,
  "lon": 9.1743914
},
{
  "type": "node",
  "id": 5296922683,
  "lat": 45.4719751,
  "lon": 9.1744100
},
{
  "type": "node",
  "id": 5296922684,
  "lat": 45.4719835,
  "lon": 9.1744266
},
{
  "type": "node",
  "id": 5296922685,
  "lat": 45.4719944,
  "lon": 9.1744409
},
{
  "type": "node",
  "id": 5296922686,
  "lat": 45.4720070,
  "lon": 9.1744516
},
{
  "type": "node",
  "id": 5296922687,
  "lat": 45.4720210,
  "lon": 9.1744585
},
{
  "type": "node",
  "id": 5296922688,
  "lat": 45.4720356,
  "lon": 9.1744612
},
{
  "type": "node",
  "id": 5296922689,
  "lat": 45.4720504,
  "lon": 9.1744596
},
{
  "type": "node",
  "id": 5296922690,
  "lat": 45.4720645,
  "lon": 9.1744537
},
{
  "type": "node",
  "id": 5296922691,
  "lat": 45.4720776,
  "lon": 9.1744439
},
{
  "type": "node",
  "id": 5296922692,
  "lat": 45.4720895,
  "lon": 9.1744287
},
{
  "type": "node",
  "id": 5296922693,
  "lat": 45.4719385,
  "lon": 9.1742500
},
{
  "type": "node",
  "id": 5296922694,
  "lat": 45.4719248,
  "lon": 9.1742805
},
{
  "type": "node",
  "id": 5296922695,
  "lat": 45.4719156,
  "lon": 9.1743144
},
{
  "type": "node",
  "id": 5296922696,
  "lat": 45.4719112,
  "lon": 9.1743502
},
{
  "type": "node",
  "id": 5296922697,
  "lat": 45.4719119,
  "lon": 9.1743864
},
{
  "type": "node",
  "id": 5296922698,
  "lat": 45.4719177,
  "lon": 9.1744218
},
{
  "type": "node",
  "id": 5296922699,
  "lat": 45.4719282,
  "lon": 9.1744549
},
{
  "type": "node",
  "id": 5296922700,
  "lat": 45.4719431,
  "lon": 9.1744843
},
{
  "type": "node",
  "id": 5296922701,
  "lat": 45.4719624,
  "lon": 9.1745095
},
{
  "type": "node",
  "id": 5296922702,
  "lat": 45.4719849,
  "lon": 9.1745286
},
{
  "type": "node",
  "id": 5296922703,
  "lat": 45.4720096,
  "lon": 9.1745408
},
{
  "type": "node",
  "id": 5296922704,
  "lat": 45.4720356,
  "lon": 9.1745456
},
{
  "type": "node",
  "id": 5296922705,
  "lat": 45.4720616,
  "lon": 9.1745427
},
{
  "type": "node",
  "id": 5296922706,
  "lat": 45.4720868,
  "lon": 9.1745323
},
{
  "type": "node",
  "id": 5296922707,
  "lat": 45.4721099,
  "lon": 9.1745149
},
{
  "type": "node",
  "id": 5296922708,
  "lat": 45.4721301,
  "lon": 9.1744911
},
{
  "type": "node",
  "id": 5296922709,
  "lat": 45.4719563,
  "lon": 9.1742239
},
{
  "type": "node",
  "id": 5296922710,
  "lat": 45.4721426,
  "lon": 9.1746083
},
{
  "type": "node",
  "id": 5296922711,
  "lat": 45.4721061,
  "lon": 9.1746358
},
{
  "type": "node",
  "id": 5296922712,
  "lat": 45.4720665,
  "lon": 9.1746522
},
{
  "type": "node",
  "id": 5296922713,
  "lat": 45.4720254,
  "lon": 9.1746567
},
{
  "type": "node",
  "id": 5296922714,
  "lat": 45.4719845,
  "lon": 9.1746492
},
{
  "type": "node",
  "id": 5296922715,
  "lat": 45.4719456,
  "lon": 9.1746300
},
{
  "type": "node",
  "id": 5296922716,
  "lat": 45.4719102,
  "lon": 9.1745999
},
{
  "type": "node",
  "id": 5296922717,
  "lat": 45.4718563,
  "lon": 9.1745137
},
{
  "type": "node",
  "id": 5296922718,
  "lat": 45.4718397,
  "lon": 9.1744617
},
{
  "type": "node",
  "id": 5296922719,
  "lat": 45.4718307,
  "lon": 9.1744059
},
{
  "type": "node",
  "id": 5296922720,
  "lat": 45.4718295,
  "lon": 9.1743488
},
{
  "type": "node",
  "id": 5296923121,
  "lat": 45.4718364,
  "lon": 9.1742924
},
{
  "type": "node",
  "id": 5296923122,
  "lat": 45.4718509,
  "lon": 9.1742391
},
{
  "type": "node",
  "id": 5296923123,
  "lat": 45.4718726,
  "lon": 9.1741910
},
{
  "type": "node",
  "id": 5296923124,
  "lat": 45.4718798,
  "lon": 9.1745601
},
{
  "type": "node",
  "id": 5296923125,
  "lat": 45.4719008,
  "lon": 9.1741495
},
{
  "type": "node",
  "id": 5296923143,
  "lat": 45.4718929,
  "lon": 9.1741373
},
{
  "type": "node",
  "id": 3507474607,
  "lat": 45.4434569,
  "lon": 9.2033088
},
{
  "type": "node",
  "id": 4243534867,
  "lat": 45.4437039,
  "lon": 9.2053775
},
{
  "type": "node",
  "id": 4243534868,
  "lat": 45.4441685,
  "lon": 9.2032318
},
{
  "type": "node",
  "id": 4243534870,
  "lat": 45.4443792,
  "lon": 9.2043126
},
{
  "type": "node",
  "id": 4243534873,
  "lat": 45.4444228,
  "lon": 9.2053333
},
{
  "type": "node",
  "id": 587698881,
  "lat": 45.4653233,
  "lon": 9.1788663
},
{
  "type": "node",
  "id": 587698883,
  "lat": 45.4655102,
  "lon": 9.1786694
},
{
  "type": "node",
  "id": 587698892,
  "lat": 45.4655994,
  "lon": 9.1786622
},
{
  "type": "node",
  "id": 1919212990,
  "lat": 45.4655133,
  "lon": 9.1787910
},
{
  "type": "node",
  "id": 1919212997,
  "lat": 45.4656033,
  "lon": 9.1787818
},
{
  "type": "node",
  "id": 2068467169,
  "lat": 45.4653058,
  "lon": 9.1786377
},
{
  "type": "node",
  "id": 3524007778,
  "lat": 45.4654860,
  "lon": 9.1786242
},
{
  "type": "node",
  "id": 3524007934,
  "lat": 45.4655415,
  "lon": 9.1786201
},
{
  "type": "node",
  "id": 3524007976,
  "lat": 45.4655857,
  "lon": 9.1786168
},
{
  "type": "node",
  "id": 4209403190,
  "lat": 45.4654946,
  "lon": 9.1788416
},
{
  "type": "node",
  "id": 587698891,
  "lat": 45.4656525,
  "lon": 9.1788189
},
{
  "type": "node",
  "id": 2068467173,
  "lat": 45.4656521,
  "lon": 9.1786118
},
{
  "type": "node",
  "id": 1904676507,
  "lat": 45.4702267,
  "lon": 9.1822181
},
{
  "type": "node",
  "id": 1904676509,
  "lat": 45.4702373,
  "lon": 9.1822067
},
{
  "type": "node",
  "id": 1904676510,
  "lat": 45.4702458,
  "lon": 9.1827062
},
{
  "type": "node",
  "id": 1904676521,
  "lat": 45.4702921,
  "lon": 9.1822002
},
{
  "type": "node",
  "id": 1904676525,
  "lat": 45.4703702,
  "lon": 9.1823795
},
{
  "type": "node",
  "id": 1904676527,
  "lat": 45.4703755,
  "lon": 9.1825343
},
{
  "type": "node",
  "id": 1904676533,
  "lat": 45.4703845,
  "lon": 9.1821766
},
{
  "type": "node",
  "id": 1904676538,
  "lat": 45.4704564,
  "lon": 9.1826296
},
{
  "type": "node",
  "id": 1904676542,
  "lat": 45.4705042,
  "lon": 9.1821286
},
{
  "type": "node",
  "id": 1904676546,
  "lat": 45.4705140,
  "lon": 9.1826215
},
{
  "type": "node",
  "id": 1904676547,
  "lat": 45.4705204,
  "lon": 9.1826560
},
{
  "type": "node",
  "id": 1904676548,
  "lat": 45.4705357,
  "lon": 9.1823684
},
{
  "type": "node",
  "id": 1904676550,
  "lat": 45.4705401,
  "lon": 9.1825267
},
{
  "type": "node",
  "id": 1904676567,
  "lat": 45.4706057,
  "lon": 9.1822876
},
{
  "type": "node",
  "id": 1904676569,
  "lat": 45.4706106,
  "lon": 9.1825151
},
{
  "type": "node",
  "id": 1904676572,
  "lat": 45.4706142,
  "lon": 9.1826124
},
{
  "type": "node",
  "id": 2068467183,
  "lat": 45.4704582,
  "lon": 9.1826693
},
{
  "type": "node",
  "id": 2068467186,
  "lat": 45.4706135,
  "lon": 9.1820733
},
{
  "type": "node",
  "id": 2068467187,
  "lat": 45.4706495,
  "lon": 9.1822642
},
{
  "type": "node",
  "id": 3789133636,
  "lat": 45.4702360,
  "lon": 9.1824568
},
{
  "type": "node",
  "id": 27654230,
  "lat": 45.4629837,
  "lon": 9.1906860
},
{
  "type": "node",
  "id": 27654232,
  "lat": 45.4633479,
  "lon": 9.1915279
},
{
  "type": "node",
  "id": 251899369,
  "lat": 45.4632205,
  "lon": 9.1904627
},
{
  "type": "node",
  "id": 303021175,
  "lat": 45.4626548,
  "lon": 9.1911979
},
{
  "type": "node",
  "id": 303021176,
  "lat": 45.4628950,
  "lon": 9.1909541
},
{
  "type": "node",
  "id": 303021177,
  "lat": 45.4631232,
  "lon": 9.1915118
},
{
  "type": "node",
  "id": 303021179,
  "lat": 45.4628858,
  "lon": 9.1917114
},
{
  "type": "node",
  "id": 1526202748,
  "lat": 45.4625559,
  "lon": 9.1916728
},
{
  "type": "node",
  "id": 1526202753,
  "lat": 45.4627023,
  "lon": 9.1917597
},
{
  "type": "node",
  "id": 1526202793,
  "lat": 45.4628997,
  "lon": 9.1921119
},
{
  "type": "node",
  "id": 1526202824,
  "lat": 45.4632186,
  "lon": 9.1903041
},
{
  "type": "node",
  "id": 1526220385,
  "lat": 45.4628997,
  "lon": 9.1919777
},
{
  "type": "node",
  "id": 1526220386,
  "lat": 45.4629279,
  "lon": 9.1920549
},
{
  "type": "node",
  "id": 1526220388,
  "lat": 45.4630149,
  "lon": 9.1918798
},
{
  "type": "node",
  "id": 1526220401,
  "lat": 45.4630669,
  "lon": 9.1918392
},
{
  "type": "node",
  "id": 1526220402,
  "lat": 45.4630444,
  "lon": 9.1919596
},
{
  "type": "node",
  "id": 1526220405,
  "lat": 45.4631441,
  "lon": 9.1920133
},
{
  "type": "node",
  "id": 1526220406,
  "lat": 45.4631943,
  "lon": 9.1917351
},
{
  "type": "node",
  "id": 1526220407,
  "lat": 45.4632668,
  "lon": 9.1919131
},
{
  "type": "node",
  "id": 2143321307,
  "lat": 45.4627791,
  "lon": 9.1917008
},
{
  "type": "node",
  "id": 2147024555,
  "lat": 45.4634801,
  "lon": 9.1918588
},
{
  "type": "node",
  "id": 2147024558,
  "lat": 45.4636083,
  "lon": 9.1913918
},
{
  "type": "node",
  "id": 2147024559,
  "lat": 45.4623446,
  "lon": 9.1911042
},
{
  "type": "node",
  "id": 2147024560,
  "lat": 45.4631033,
  "lon": 9.1902844
},
{
  "type": "node",
  "id": 2147024564,
  "lat": 45.4626202,
  "lon": 9.1916072
},
{
  "type": "node",
  "id": 2147024565,
  "lat": 45.4636374,
  "lon": 9.1915244
},
{
  "type": "node",
  "id": 2147024566,
  "lat": 45.4631169,
  "lon": 9.1921143
},
{
  "type": "node",
  "id": 2147024568,
  "lat": 45.4636338,
  "lon": 9.1920711
},
{
  "type": "node",
  "id": 2147024569,
  "lat": 45.4633129,
  "lon": 9.1920092
},
{
  "type": "node",
  "id": 2147024570,
  "lat": 45.4629136,
  "lon": 9.1921764
},
{
  "type": "node",
  "id": 2147024571,
  "lat": 45.4636191,
  "lon": 9.1915394
},
{
  "type": "node",
  "id": 2147024573,
  "lat": 45.4635403,
  "lon": 9.1916097
},
{
  "type": "node",
  "id": 2147024574,
  "lat": 45.4633164,
  "lon": 9.1920926
},
{
  "type": "node",
  "id": 4170003890,
  "lat": 45.4634719,
  "lon": 9.1914631
},
{
  "type": "node",
  "id": 4170009690,
  "lat": 45.4623364,
  "lon": 9.1910926
},
{
  "type": "node",
  "id": 4170012090,
  "lat": 45.4624128,
  "lon": 9.1912286
},
{
  "type": "node",
  "id": 4170013092,
  "lat": 45.4626089,
  "lon": 9.1915865
},
{
  "type": "node",
  "id": 4170013690,
  "lat": 45.4626253,
  "lon": 9.1918248
},
{
  "type": "node",
  "id": 4170015289,
  "lat": 45.4627660,
  "lon": 9.1914450
},
{
  "type": "node",
  "id": 4170015991,
  "lat": 45.4628134,
  "lon": 9.1905723
},
{
  "type": "node",
  "id": 4170016631,
  "lat": 45.4634569,
  "lon": 9.1918080
},
{
  "type": "node",
  "id": 4170016637,
  "lat": 45.4635416,
  "lon": 9.1917946
},
{
  "type": "node",
  "id": 4170018125,
  "lat": 45.4631207,
  "lon": 9.1921295
},
{
  "type": "node",
  "id": 4170019089,
  "lat": 45.4630115,
  "lon": 9.1912388
},
{
  "type": "node",
  "id": 4170020489,
  "lat": 45.4631707,
  "lon": 9.1911184
},
{
  "type": "node",
  "id": 4170020690,
  "lat": 45.4632501,
  "lon": 9.1921005
},
{
  "type": "node",
  "id": 4170020890,
  "lat": 45.4634014,
  "lon": 9.1916672
},
{
  "type": "node",
  "id": 4170021089,
  "lat": 45.4632500,
  "lon": 9.1921126
},
{
  "type": "node",
  "id": 4332021412,
  "lat": 45.4631174,
  "lon": 9.1902704
},
{
  "type": "node",
  "id": 4332021413,
  "lat": 45.4632186,
  "lon": 9.1902682
},
{
  "type": "node",
  "id": 564913767,
  "lat": 45.4677965,
  "lon": 9.1916500
},
{
  "type": "node",
  "id": 1925397538,
  "lat": 45.4676525,
  "lon": 9.1918082
},
{
  "type": "node",
  "id": 1925397572,
  "lat": 45.4678216,
  "lon": 9.1917102
},
{
  "type": "node",
  "id": 1925397576,
  "lat": 45.4678358,
  "lon": 9.1917504
},
{
  "type": "node",
  "id": 2146995744,
  "lat": 45.4679982,
  "lon": 9.1920379
},
{
  "type": "node",
  "id": 2146995750,
  "lat": 45.4679305,
  "lon": 9.1919028
},
{
  "type": "node",
  "id": 2172277061,
  "lat": 45.4678143,
  "lon": 9.1922011
},
{
  "type": "node",
  "id": 2172277062,
  "lat": 45.4677497,
  "lon": 9.1920573
},
{
  "type": "node",
  "id": 4935986228,
  "lat": 45.4679460,
  "lon": 9.1919357
},
{
  "type": "node",
  "id": 4935986234,
  "lat": 45.4677799,
  "lon": 9.1918813
},
{
  "type": "node",
  "id": 4935986235,
  "lat": 45.4678303,
  "lon": 9.1919971
},
{
  "type": "node",
  "id": 4935986236,
  "lat": 45.4678959,
  "lon": 9.1919390
},
{
  "type": "node",
  "id": 4935986237,
  "lat": 45.4678454,
  "lon": 9.1918232
},
{
  "type": "node",
  "id": 4935986238,
  "lat": 45.4678783,
  "lon": 9.1918579
},
{
  "type": "node",
  "id": 4935986239,
  "lat": 45.4679124,
  "lon": 9.1918400
},
{
  "type": "node",
  "id": 5499376556,
  "lat": 45.4678060,
  "lon": 9.1921827
},
{
  "type": "node",
  "id": 5499376558,
  "lat": 45.4677842,
  "lon": 9.1921341
},
{
  "type": "node",
  "id": 1521490799,
  "lat": 45.4681105,
  "lon": 9.2018623
},
{
  "type": "node",
  "id": 1521490801,
  "lat": 45.4681223,
  "lon": 9.2017350
},
{
  "type": "node",
  "id": 1521490803,
  "lat": 45.4681282,
  "lon": 9.2019797
},
{
  "type": "node",
  "id": 1521490805,
  "lat": 45.4681401,
  "lon": 9.2018531
},
{
  "type": "node",
  "id": 1521490820,
  "lat": 45.4683033,
  "lon": 9.2016794
},
{
  "type": "node",
  "id": 1521490822,
  "lat": 45.4683064,
  "lon": 9.2016998
},
{
  "type": "node",
  "id": 1521490839,
  "lat": 45.4684233,
  "lon": 9.2016639
},
{
  "type": "node",
  "id": 1521490840,
  "lat": 45.4684558,
  "lon": 9.2018790
},
{
  "type": "node",
  "id": 3378505250,
  "lat": 45.4634216,
  "lon": 9.2242157
},
{
  "type": "node",
  "id": 3378505251,
  "lat": 45.4634225,
  "lon": 9.2243832
},
{
  "type": "node",
  "id": 3378505252,
  "lat": 45.4632053,
  "lon": 9.2245255
},
{
  "type": "node",
  "id": 3378505253,
  "lat": 45.4632052,
  "lon": 9.2243895
},
{
  "type": "node",
  "id": 3378510793,
  "lat": 45.4631251,
  "lon": 9.2242219
},
{
  "type": "node",
  "id": 5412035151,
  "lat": 45.4631026,
  "lon": 9.2242207
},
{
  "type": "node",
  "id": 6795115423,
  "lat": 45.4631047,
  "lon": 9.2246442
},
{
  "type": "node",
  "id": 6795157448,
  "lat": 45.4631805,
  "lon": 9.2245548
},
{
  "type": "node",
  "id": 6800319695,
  "lat": 45.4631930,
  "lon": 9.2245400
},
{
  "type": "node",
  "id": 1255209521,
  "lat": 45.4755963,
  "lon": 9.1459764
},
{
  "type": "node",
  "id": 1255209676,
  "lat": 45.4754525,
  "lon": 9.1457631
},
{
  "type": "node",
  "id": 1255209762,
  "lat": 45.4754737,
  "lon": 9.1457282
},
{
  "type": "node",
  "id": 1255209851,
  "lat": 45.4755326,
  "lon": 9.1456104
},
{
  "type": "node",
  "id": 1255209900,
  "lat": 45.4755506,
  "lon": 9.1453412
},
{
  "type": "node",
  "id": 1255209929,
  "lat": 45.4756339,
  "lon": 9.1454775
},
{
  "type": "node",
  "id": 1255209964,
  "lat": 45.4753789,
  "lon": 9.1455801
},
{
  "type": "node",
  "id": 1255210046,
  "lat": 45.4756903,
  "lon": 9.1458552
},
{
  "type": "node",
  "id": 27585740,
  "lat": 45.4726120,
  "lon": 9.1732087
},
{
  "type": "node",
  "id": 27585744,
  "lat": 45.4721848,
  "lon": 9.1733939
},
{
  "type": "node",
  "id": 31508601,
  "lat": 45.4723447,
  "lon": 9.1735610
},
{
  "type": "node",
  "id": 31508602,
  "lat": 45.4728923,
  "lon": 9.1736442
},
{
  "type": "node",
  "id": 31508604,
  "lat": 45.4723934,
  "lon": 9.1743168
},
{
  "type": "node",
  "id": 891071573,
  "lat": 45.4722894,
  "lon": 9.1735553
},
{
  "type": "node",
  "id": 891071593,
  "lat": 45.4723173,
  "lon": 9.1735186
},
{
  "type": "node",
  "id": 1318977217,
  "lat": 45.4721861,
  "lon": 9.1745898
},
{
  "type": "node",
  "id": 1318977221,
  "lat": 45.4721697,
  "lon": 9.1737106
},
{
  "type": "node",
  "id": 3304502281,
  "lat": 45.4726321,
  "lon": 9.1732398
},
{
  "type": "node",
  "id": 3304502285,
  "lat": 45.4726535,
  "lon": 9.1732728
},
{
  "type": "node",
  "id": 3304502291,
  "lat": 45.4726813,
  "lon": 9.1732147
},
{
  "type": "node",
  "id": 5296922660,
  "lat": 45.4725297,
  "lon": 9.1744846
},
{
  "type": "node",
  "id": 5296922661,
  "lat": 45.4725589,
  "lon": 9.1744462
},
{
  "type": "node",
  "id": 5296922666,
  "lat": 45.4724413,
  "lon": 9.1742648
},
{
  "type": "node",
  "id": 5296922667,
  "lat": 45.4724122,
  "lon": 9.1743032
},
{
  "type": "node",
  "id": 5296922672,
  "lat": 45.4728194,
  "lon": 9.1734510
},
{
  "type": "node",
  "id": 5296922673,
  "lat": 45.4727765,
  "lon": 9.1733847
},
{
  "type": "node",
  "id": 5296922674,
  "lat": 45.4727912,
  "lon": 9.1734882
},
{
  "type": "node",
  "id": 5296922675,
  "lat": 45.4727493,
  "lon": 9.1734205
},
{
  "type": "node",
  "id": 5296923126,
  "lat": 45.4721740,
  "lon": 9.1745711
},
{
  "type": "node",
  "id": 5296923127,
  "lat": 45.4723973,
  "lon": 9.1743229
},
{
  "type": "node",
  "id": 5296923128,
  "lat": 45.4726871,
  "lon": 9.1739410
},
{
  "type": "node",
  "id": 5296923129,
  "lat": 45.4726779,
  "lon": 9.1739267
},
{
  "type": "node",
  "id": 5296923130,
  "lat": 45.4726625,
  "lon": 9.1732731
},
{
  "type": "node",
  "id": 5296923131,
  "lat": 45.4726710,
  "lon": 9.1732693
},
{
  "type": "node",
  "id": 5296923132,
  "lat": 45.4726781,
  "lon": 9.1732618
},
{
  "type": "node",
  "id": 5296923133,
  "lat": 45.4726831,
  "lon": 9.1732513
},
{
  "type": "node",
  "id": 5296923134,
  "lat": 45.4726855,
  "lon": 9.1732390
},
{
  "type": "node",
  "id": 5296923135,
  "lat": 45.4726848,
  "lon": 9.1732264
},
{
  "type": "node",
  "id": 5296923136,
  "lat": 45.4726753,
  "lon": 9.1732053
},
{
  "type": "node",
  "id": 5296923137,
  "lat": 45.4726675,
  "lon": 9.1731993
},
{
  "type": "node",
  "id": 5296923138,
  "lat": 45.4726587,
  "lon": 9.1731973
},
{
  "type": "node",
  "id": 5296923139,
  "lat": 45.4726499,
  "lon": 9.1731995
},
{
  "type": "node",
  "id": 5296923140,
  "lat": 45.4726421,
  "lon": 9.1732056
},
{
  "type": "node",
  "id": 5296923141,
  "lat": 45.4726362,
  "lon": 9.1732151
},
{
  "type": "node",
  "id": 5296923142,
  "lat": 45.4726328,
  "lon": 9.1732269
},
{
  "type": "node",
  "id": 5299691051,
  "lat": 45.4728066,
  "lon": 9.1737571
},
{
  "type": "node",
  "id": 5299691053,
  "lat": 45.4728356,
  "lon": 9.1735567
},
{
  "type": "node",
  "id": 564699590,
  "lat": 45.4873624,
  "lon": 9.1649979
},
{
  "type": "node",
  "id": 564699591,
  "lat": 45.4875048,
  "lon": 9.1650053
},
{
  "type": "node",
  "id": 564699687,
  "lat": 45.4873516,
  "lon": 9.1654181
},
{
  "type": "node",
  "id": 564699688,
  "lat": 45.4874940,
  "lon": 9.1654255
},
{
  "type": "node",
  "id": 2287986772,
  "lat": 45.4753212,
  "lon": 9.1979837
},
{
  "type": "node",
  "id": 2287986774,
  "lat": 45.4753113,
  "lon": 9.1981374
},
{
  "type": "node",
  "id": 2287986775,
  "lat": 45.4751331,
  "lon": 9.1981142
},
{
  "type": "node",
  "id": 2584830159,
  "lat": 45.4726866,
  "lon": 9.1992840
},
{
  "type": "node",
  "id": 2584830161,
  "lat": 45.4727079,
  "lon": 9.1992222
},
{
  "type": "node",
  "id": 2584830169,
  "lat": 45.4729352,
  "lon": 9.1994551
},
{
  "type": "node",
  "id": 2584830171,
  "lat": 45.4729358,
  "lon": 9.1988316
},
{
  "type": "node",
  "id": 2584830174,
  "lat": 45.4729498,
  "lon": 9.1994104
},
{
  "type": "node",
  "id": 4227544379,
  "lat": 45.4726626,
  "lon": 9.1991937
},
{
  "type": "node",
  "id": 4227544380,
  "lat": 45.4727999,
  "lon": 9.1987528
},
{
  "type": "node",
  "id": 4227544388,
  "lat": 45.4728103,
  "lon": 9.1987588
},
{
  "type": "node",
  "id": 5039725708,
  "lat": 45.4729270,
  "lon": 9.1994494
},
{
  "type": "node",
  "id": 5039725712,
  "lat": 45.4728127,
  "lon": 9.1993710
},
{
  "type": "node",
  "id": 6822229801,
  "lat": 45.4751429,
  "lon": 9.1979605
},
{
  "type": "node",
  "id": 143874918,
  "lat": 45.4727094,
  "lon": 9.2015339
},
{
  "type": "node",
  "id": 143874926,
  "lat": 45.4733413,
  "lon": 9.2021754
},
{
  "type": "node",
  "id": 143874928,
  "lat": 45.4730111,
  "lon": 9.2028367
},
{
  "type": "node",
  "id": 143874929,
  "lat": 45.4727767,
  "lon": 9.2025987
},
{
  "type": "node",
  "id": 143874931,
  "lat": 45.4727589,
  "lon": 9.2026343
},
{
  "type": "node",
  "id": 143874932,
  "lat": 45.4726009,
  "lon": 9.2024739
},
{
  "type": "node",
  "id": 143874934,
  "lat": 45.4726264,
  "lon": 9.2024230
},
{
  "type": "node",
  "id": 143874937,
  "lat": 45.4723869,
  "lon": 9.2021798
},
{
  "type": "node",
  "id": 252637115,
  "lat": 45.4727383,
  "lon": 9.2017884
},
{
  "type": "node",
  "id": 252637116,
  "lat": 45.4726405,
  "lon": 9.2020926
},
{
  "type": "node",
  "id": 252637117,
  "lat": 45.4727117,
  "lon": 9.2022178
},
{
  "type": "node",
  "id": 252637118,
  "lat": 45.4728915,
  "lon": 9.2019415
},
{
  "type": "node",
  "id": 252637119,
  "lat": 45.4730096,
  "lon": 9.2020783
},
{
  "type": "node",
  "id": 252637120,
  "lat": 45.4728611,
  "lon": 9.2024387
},
{
  "type": "node",
  "id": 252637121,
  "lat": 45.4729945,
  "lon": 9.2024666
},
{
  "type": "node",
  "id": 252637122,
  "lat": 45.4731550,
  "lon": 9.2022205
},
{
  "type": "node",
  "id": 1304043156,
  "lat": 45.4727412,
  "lon": 9.2022473
},
{
  "type": "node",
  "id": 1304043157,
  "lat": 45.4730232,
  "lon": 9.2024947
},
{
  "type": "node",
  "id": 1304043158,
  "lat": 45.4726856,
  "lon": 9.2022709
},
{
  "type": "node",
  "id": 1304043162,
  "lat": 45.4729610,
  "lon": 9.2025363
},
{
  "type": "node",
  "id": 1758604705,
  "lat": 45.4726857,
  "lon": 9.2025600
},
{
  "type": "node",
  "id": 2101646462,
  "lat": 45.4728905,
  "lon": 9.2023260
},
{
  "type": "node",
  "id": 2101646468,
  "lat": 45.4729074,
  "lon": 9.2023425
},
{
  "type": "node",
  "id": 2287979309,
  "lat": 45.4725966,
  "lon": 9.2021820
},
{
  "type": "node",
  "id": 2287979311,
  "lat": 45.4726058,
  "lon": 9.2020580
},
{
  "type": "node",
  "id": 1115729604,
  "lat": 45.6146711,
  "lon": 8.8465988
},
{
  "type": "node",
  "id": 1115729627,
  "lat": 45.6149819,
  "lon": 8.8470820
},
{
  "type": "node",
  "id": 1115729635,
  "lat": 45.6149093,
  "lon": 8.8465318
},
{
  "type": "node",
  "id": 1128573662,
  "lat": 45.6147450,
  "lon": 8.8471456
},
{
  "type": "node",
  "id": 2322955966,
  "lat": 45.6123872,
  "lon": 8.8455530
},
{
  "type": "node",
  "id": 2322955967,
  "lat": 45.6124804,
  "lon": 8.8459638
},
{
  "type": "node",
  "id": 2322955968,
  "lat": 45.6122479,
  "lon": 8.8456176
},
{
  "type": "node",
  "id": 2322955969,
  "lat": 45.6124464,
  "lon": 8.8459795
},
{
  "type": "node",
  "id": 2322955970,
  "lat": 45.6122835,
  "lon": 8.8457746
},
{
  "type": "node",
  "id": 2322955971,
  "lat": 45.6124949,
  "lon": 8.8461931
},
{
  "type": "node",
  "id": 2322955972,
  "lat": 45.6123365,
  "lon": 8.8460076
},
{
  "type": "node",
  "id": 2322955973,
  "lat": 45.6123539,
  "lon": 8.8460844
},
{
  "type": "node",
  "id": 2322955974,
  "lat": 45.6123125,
  "lon": 8.8457612
},
{
  "type": "node",
  "id": 2322955975,
  "lat": 45.6123056,
  "lon": 8.8461068
},
{
  "type": "node",
  "id": 2322955976,
  "lat": 45.6123414,
  "lon": 8.8462643
},
{
  "type": "node",
  "id": 2322955977,
  "lat": 45.6123654,
  "lon": 8.8459942
},
{
  "type": "node",
  "id": 2329334865,
  "lat": 45.6122524,
  "lon": 8.8456376
},
{
  "type": "node",
  "id": 2332328921,
  "lat": 45.6124059,
  "lon": 8.8456353
},
{
  "type": "node",
  "id": 2440652141,
  "lat": 45.6124518,
  "lon": 8.8458377
},
{
  "type": "node",
  "id": 2440652142,
  "lat": 45.6124630,
  "lon": 8.8458869
},
{
  "type": "node",
  "id": 3404223013,
  "lat": 45.6149752,
  "lon": 8.8470304
},
{
  "type": "node",
  "id": 3404223016,
  "lat": 45.6149168,
  "lon": 8.8465858
},
{
  "type": "node",
  "id": 3416262940,
  "lat": 45.6147390,
  "lon": 8.8465797
},
{
  "type": "node",
  "id": 3416262942,
  "lat": 45.6146843,
  "lon": 8.8466967
},
{
  "type": "node",
  "id": 3416262943,
  "lat": 45.6147327,
  "lon": 8.8470425
},
{
  "type": "node",
  "id": 3416262945,
  "lat": 45.6148079,
  "lon": 8.8471287
},
{
  "type": "node",
  "id": 3845880060,
  "lat": 45.6146800,
  "lon": 8.8465963
},
{
  "type": "node",
  "id": 4068095349,
  "lat": 45.6187649,
  "lon": 8.9219563
},
{
  "type": "node",
  "id": 4068096834,
  "lat": 45.6188699,
  "lon": 8.9224196
},
{
  "type": "node",
  "id": 4068096835,
  "lat": 45.6176607,
  "lon": 8.9231941
},
{
  "type": "node",
  "id": 4068096836,
  "lat": 45.6170270,
  "lon": 8.9218775
},
{
  "type": "node",
  "id": 4068096837,
  "lat": 45.6184851,
  "lon": 8.9207945
},
{
  "type": "node",
  "id": 4068096838,
  "lat": 45.6190544,
  "lon": 8.9203769
},
{
  "type": "node",
  "id": 4068096839,
  "lat": 45.6192599,
  "lon": 8.9207096
},
{
  "type": "node",
  "id": 4068096840,
  "lat": 45.6192896,
  "lon": 8.9208051
},
{
  "type": "node",
  "id": 4068096841,
  "lat": 45.6192797,
  "lon": 8.9209078
},
{
  "type": "node",
  "id": 4068096842,
  "lat": 45.6192302,
  "lon": 8.9209715
},
{
  "type": "node",
  "id": 4068096843,
  "lat": 45.6187672,
  "lon": 8.9212900
},
{
  "type": "node",
  "id": 4068096844,
  "lat": 45.6186495,
  "lon": 8.9213876
},
{
  "type": "node",
  "id": 4068096845,
  "lat": 45.6186256,
  "lon": 8.9215449
},
{
  "type": "node",
  "id": 4068096846,
  "lat": 45.6187225,
  "lon": 8.9219792
},
{
  "type": "node",
  "id": 1845257691,
  "lat": 45.6917162,
  "lon": 8.8732329
},
{
  "type": "node",
  "id": 1845257696,
  "lat": 45.6919026,
  "lon": 8.8733710
},
{
  "type": "node",
  "id": 1845257700,
  "lat": 45.6920609,
  "lon": 8.8733386
},
{
  "type": "node",
  "id": 1845257701,
  "lat": 45.6920825,
  "lon": 8.8735547
},
{
  "type": "node",
  "id": 1845257702,
  "lat": 45.6920854,
  "lon": 8.8731532
},
{
  "type": "node",
  "id": 1845257705,
  "lat": 45.6921630,
  "lon": 8.8731365
},
{
  "type": "node",
  "id": 1845257706,
  "lat": 45.6921879,
  "lon": 8.8731311
},
{
  "type": "node",
  "id": 1845257707,
  "lat": 45.6922129,
  "lon": 8.8733685
},
{
  "type": "node",
  "id": 1845257694,
  "lat": 45.6917807,
  "lon": 8.8738453
},
{
  "type": "node",
  "id": 1845257697,
  "lat": 45.6919241,
  "lon": 8.8735871
},
{
  "type": "node",
  "id": 1845257708,
  "lat": 45.6922524,
  "lon": 8.8737436
},
{
  "type": "node",
  "id": 1865693286,
  "lat": 45.7117092,
  "lon": 8.9103780
},
{
  "type": "node",
  "id": 1865693288,
  "lat": 45.7117180,
  "lon": 8.9104390
},
{
  "type": "node",
  "id": 1865693292,
  "lat": 45.7118772,
  "lon": 8.9107066
},
{
  "type": "node",
  "id": 1865693294,
  "lat": 45.7118910,
  "lon": 8.9108934
},
{
  "type": "node",
  "id": 1865693307,
  "lat": 45.7119391,
  "lon": 8.9109674
},
{
  "type": "node",
  "id": 1865693309,
  "lat": 45.7119525,
  "lon": 8.9106060
},
{
  "type": "node",
  "id": 1865693314,
  "lat": 45.7119941,
  "lon": 8.9108887
},
{
  "type": "node",
  "id": 1865693317,
  "lat": 45.7120277,
  "lon": 8.9107228
},
{
  "type": "node",
  "id": 1865693319,
  "lat": 45.7120366,
  "lon": 8.9100734
},
{
  "type": "node",
  "id": 1865693321,
  "lat": 45.7120632,
  "lon": 8.9099287
},
{
  "type": "node",
  "id": 1865693323,
  "lat": 45.7120827,
  "lon": 8.9108734
},
{
  "type": "node",
  "id": 1865693325,
  "lat": 45.7121058,
  "lon": 8.9100049
},
{
  "type": "node",
  "id": 1865693329,
  "lat": 45.7121537,
  "lon": 8.9110715
},
{
  "type": "node",
  "id": 1865693333,
  "lat": 45.7121856,
  "lon": 8.9110080
},
{
  "type": "node",
  "id": 1865693334,
  "lat": 45.7122424,
  "lon": 8.9105509
},
{
  "type": "node",
  "id": 1865693335,
  "lat": 45.7122796,
  "lon": 8.9106118
},
{
  "type": "node",
  "id": 1865693337,
  "lat": 45.7122938,
  "lon": 8.9104874
},
{
  "type": "node",
  "id": 3208792604,
  "lat": 45.6286447,
  "lon": 9.0291727
},
{
  "type": "node",
  "id": 3208792605,
  "lat": 45.6284612,
  "lon": 9.0291727
},
{
  "type": "node",
  "id": 3208792606,
  "lat": 45.6284551,
  "lon": 9.0295982
},
{
  "type": "node",
  "id": 3208792607,
  "lat": 45.6286691,
  "lon": 9.0296012
},
{
  "type": "node",
  "id": 1255393119,
  "lat": 45.6250834,
  "lon": 9.0328218
},
{
  "type": "node",
  "id": 1255393128,
  "lat": 45.6249276,
  "lon": 9.0328021
},
{
  "type": "node",
  "id": 1255393136,
  "lat": 45.6249403,
  "lon": 9.0325956
},
{
  "type": "node",
  "id": 1255393161,
  "lat": 45.6250961,
  "lon": 9.0326153
},
{
  "type": "node",
  "id": 1536017684,
  "lat": 45.5433403,
  "lon": 9.1612220
},
{
  "type": "node",
  "id": 1536017686,
  "lat": 45.5433593,
  "lon": 9.1613563
},
{
  "type": "node",
  "id": 1536017687,
  "lat": 45.5439769,
  "lon": 9.1610810
},
{
  "type": "node",
  "id": 1536017688,
  "lat": 45.5440316,
  "lon": 9.1611388
},
{
  "type": "node",
  "id": 1536017689,
  "lat": 45.5440566,
  "lon": 9.1614021
},
{
  "type": "node",
  "id": 1175098942,
  "lat": 45.2983440,
  "lon": 9.4210915
},
{
  "type": "node",
  "id": 1175099635,
  "lat": 45.2980824,
  "lon": 9.4211825
},
{
  "type": "node",
  "id": 1348932986,
  "lat": 45.2981900,
  "lon": 9.4211811
},
{
  "type": "node",
  "id": 1348932989,
  "lat": 45.2980819,
  "lon": 9.4210950
},
{
  "type": "node",
  "id": 3408874770,
  "lat": 45.2983441,
  "lon": 9.4211053
},
{
  "type": "node",
  "id": 3408874771,
  "lat": 45.2983446,
  "lon": 9.4211790
},
{
  "type": "node",
  "id": 3411630254,
  "lat": 45.2984709,
  "lon": 9.4218576
},
{
  "type": "node",
  "id": 3411630255,
  "lat": 45.2985190,
  "lon": 9.4224109
},
{
  "type": "node",
  "id": 3411630256,
  "lat": 45.2984025,
  "lon": 9.4224314
},
{
  "type": "node",
  "id": 3411630257,
  "lat": 45.2983543,
  "lon": 9.4218769
},
{
  "type": "node",
  "id": 3702814503,
  "lat": 45.2983760,
  "lon": 9.4221264
},
{
  "type": "node",
  "id": 3702814504,
  "lat": 45.2984162,
  "lon": 9.4218667
},
{
  "type": "node",
  "id": 2173292732,
  "lat": 45.2651617,
  "lon": 9.4885742
},
{
  "type": "node",
  "id": 2173292733,
  "lat": 45.2651726,
  "lon": 9.4886962
},
{
  "type": "node",
  "id": 2173292734,
  "lat": 45.2651874,
  "lon": 9.4886936
},
{
  "type": "node",
  "id": 2173292735,
  "lat": 45.2652091,
  "lon": 9.4889361
},
{
  "type": "node",
  "id": 2173292736,
  "lat": 45.2652769,
  "lon": 9.4885534
},
{
  "type": "node",
  "id": 2173292737,
  "lat": 45.2652834,
  "lon": 9.4886268
},
{
  "type": "node",
  "id": 2173292738,
  "lat": 45.2653149,
  "lon": 9.4887281
},
{
  "type": "node",
  "id": 2173292739,
  "lat": 45.2653315,
  "lon": 9.4889140
},
{
  "type": "node",
  "id": 2173292740,
  "lat": 45.2653394,
  "lon": 9.4886167
},
{
  "type": "node",
  "id": 2173292741,
  "lat": 45.2653488,
  "lon": 9.4887220
},
{
  "type": "node",
  "id": 4460321216,
  "lat": 45.4721019,
  "lon": 9.5005515
},
{
  "type": "node",
  "id": 4460321219,
  "lat": 45.4721491,
  "lon": 9.5006410
},
{
  "type": "node",
  "id": 4460321221,
  "lat": 45.4723542,
  "lon": 9.5002809
},
{
  "type": "node",
  "id": 4460321222,
  "lat": 45.4724014,
  "lon": 9.5003704
},
{
  "type": "node",
  "id": 4494027090,
  "lat": 45.5199625,
  "lon": 9.5959076
},
{
  "type": "node",
  "id": 4494028356,
  "lat": 45.5197797,
  "lon": 9.5959644
},
{
  "type": "node",
  "id": 4494028801,
  "lat": 45.5199977,
  "lon": 9.5963520
},
{
  "type": "node",
  "id": 4494030047,
  "lat": 45.5198160,
  "lon": 9.5963847
},
{
  "type": "node",
  "id": 4494030544,
  "lat": 45.5197776,
  "lon": 9.5959398
},
{
  "type": "node",
  "id": 2069165589,
  "lat": 45.5389483,
  "lon": 9.2354938
},
{
  "type": "node",
  "id": 2069165595,
  "lat": 45.5390717,
  "lon": 9.2352303
},
{
  "type": "node",
  "id": 2069165596,
  "lat": 45.5393032,
  "lon": 9.2357413
},
{
  "type": "node",
  "id": 2069165597,
  "lat": 45.5393971,
  "lon": 9.2355407
},
{
  "type": "node",
  "id": 3331957859,
  "lat": 45.5393519,
  "lon": 9.2354976
},
{
  "type": "node",
  "id": 4125343774,
  "lat": 45.5392247,
  "lon": 9.2356664
},
{
  "type": "node",
  "id": 4125343776,
  "lat": 45.5392569,
  "lon": 9.2356971
},
{
  "type": "node",
  "id": 4125344054,
  "lat": 45.5390596,
  "lon": 9.2356000
},
{
  "type": "node",
  "id": 4125344056,
  "lat": 45.5391952,
  "lon": 9.2357294
},
{
  "type": "node",
  "id": 3223257479,
  "lat": 45.6066036,
  "lon": 9.2352393
},
{
  "type": "node",
  "id": 3223257480,
  "lat": 45.6066243,
  "lon": 9.2353500
},
{
  "type": "node",
  "id": 3223257565,
  "lat": 45.6065598,
  "lon": 9.2353824
},
{
  "type": "node",
  "id": 3223257566,
  "lat": 45.6066095,
  "lon": 9.2352144
},
{
  "type": "node",
  "id": 3223257567,
  "lat": 45.6066305,
  "lon": 9.2353754
},
{
  "type": "node",
  "id": 3223257568,
  "lat": 45.6066858,
  "lon": 9.2351666
},
{
  "type": "node",
  "id": 3223257569,
  "lat": 45.6067326,
  "lon": 9.2351360
},
{
  "type": "node",
  "id": 3223257570,
  "lat": 45.6068504,
  "lon": 9.2353254
},
{
  "type": "node",
  "id": 3223257571,
  "lat": 45.6068839,
  "lon": 9.2351934
},
{
  "type": "node",
  "id": 3223257794,
  "lat": 45.6068732,
  "lon": 9.2352737
},
{
  "type": "node",
  "id": 3223257894,
  "lat": 45.6065333,
  "lon": 9.2352746
},
{
  "type": "node",
  "id": 3223257895,
  "lat": 45.6066296,
  "lon": 9.2351838
},
{
  "type": "node",
  "id": 3223257896,
  "lat": 45.6066590,
  "lon": 9.2351742
},
{
  "type": "node",
  "id": 3223257897,
  "lat": 45.6067166,
  "lon": 9.2351761
},
{
  "type": "node",
  "id": 3223257898,
  "lat": 45.6067407,
  "lon": 9.2351628
},
{
  "type": "node",
  "id": 3223257899,
  "lat": 45.6067615,
  "lon": 9.2353096
},
{
  "type": "node",
  "id": 3223257900,
  "lat": 45.6068330,
  "lon": 9.2350843
},
{
  "type": "node",
  "id": 3223258167,
  "lat": 45.6067955,
  "lon": 9.2353311
},
{
  "type": "node",
  "id": 3223258168,
  "lat": 45.6068250,
  "lon": 9.2353331
},
{
  "type": "node",
  "id": 3223258169,
  "lat": 45.6068651,
  "lon": 9.2351991
},
{
  "type": "node",
  "id": 3223258170,
  "lat": 45.6068839,
  "lon": 9.2352393
},
{
  "type": "node",
  "id": 4225131879,
  "lat": 45.6065454,
  "lon": 9.2353237
},
{
  "type": "node",
  "id": 3150604168,
  "lat": 45.6306294,
  "lon": 9.2743502
},
{
  "type": "node",
  "id": 3150608956,
  "lat": 45.6303057,
  "lon": 9.2743363
},
{
  "type": "node",
  "id": 3150608958,
  "lat": 45.6303363,
  "lon": 9.2745797
},
{
  "type": "node",
  "id": 3150613305,
  "lat": 45.6306567,
  "lon": 9.2744489
},
{
  "type": "node",
  "id": 3150613810,
  "lat": 45.6303803,
  "lon": 9.2743115
},
{
  "type": "node",
  "id": 3150613813,
  "lat": 45.6304040,
  "lon": 9.2744415
},
{
  "type": "node",
  "id": 1795235617,
  "lat": 45.5252586,
  "lon": 9.5246251
},
{
  "type": "node",
  "id": 1795235618,
  "lat": 45.5253548,
  "lon": 9.5244064
},
{
  "type": "node",
  "id": 1795235620,
  "lat": 45.5254253,
  "lon": 9.5244491
},
{
  "type": "node",
  "id": 1795235623,
  "lat": 45.5255228,
  "lon": 9.5239539
},
{
  "type": "node",
  "id": 1795235627,
  "lat": 45.5255777,
  "lon": 9.5249564
},
{
  "type": "node",
  "id": 1795235628,
  "lat": 45.5257021,
  "lon": 9.5250322
},
{
  "type": "node",
  "id": 1795235630,
  "lat": 45.5260010,
  "lon": 9.5250426
},
{
  "type": "node",
  "id": 1795235632,
  "lat": 45.5258150,
  "lon": 9.5249401
},
{
  "type": "node",
  "id": 1795235633,
  "lat": 45.5258359,
  "lon": 9.5248796
},
{
  "type": "node",
  "id": 1795235634,
  "lat": 45.5260236,
  "lon": 9.5240971
},
{
  "type": "node",
  "id": 1924837681,
  "lat": 45.5252346,
  "lon": 9.5246710
},
{
  "type": "node",
  "id": 1950163846,
  "lat": 45.5259143,
  "lon": 9.5248871
},
{
  "type": "node",
  "id": 1950174147,
  "lat": 45.5253013,
  "lon": 9.5245279
},
{
  "type": "node",
  "id": 2041549811,
  "lat": 45.5255021,
  "lon": 9.5244803
},
{
  "type": "node",
  "id": 2041549812,
  "lat": 45.5255737,
  "lon": 9.5241724
},
{
  "type": "node",
  "id": 2041549813,
  "lat": 45.5257674,
  "lon": 9.5246690
},
{
  "type": "node",
  "id": 2041549814,
  "lat": 45.5258289,
  "lon": 9.5242523
},
{
  "type": "way",
  "id": 338669353,
  "nodes": [
    3457887046,
    3457887016,
    3457887067,
    3457887075,
    3457887057,
    3457887022,
    3457887039,
    3457887019,
    3457887105,
    3457887098,
    3457887103,
    3457887051,
    3457887109,
    3457887026,
    3457887108,
    3457887110,
    3457887046
  ]
},
{
  "type": "way",
  "id": 338669361,
  "nodes": [
    3457887106,
    3457887033,
    3457887077,
    3457887044,
    3457887106
  ]
},
{
  "type": "way",
  "id": 4497906,
  "nodes": [
    5296922667,
    5296923127,
    31508604,
    1318977217,
    5296923126,
    5296922710,
    5296922711,
    5296922712,
    5296922713,
    5296922714,
    5296922715,
    5296922716,
    5296923124,
    5296922717,
    5296922718,
    5296922719,
    5296922720,
    5296923121,
    5296923122,
    5296923123,
    5296923125,
    5296923143,
    31508607,
    1318977216,
    1318977221,
    31508608,
    27585744,
    891071573,
    891071593,
    31508601,
    27585740,
    3304502281,
    5296923142,
    5296923141,
    5296923140,
    5296923139,
    5296923138,
    5296923137,
    5296923136,
    3304502291,
    5296923135,
    5296923134,
    5296923133,
    5296923132,
    5296923131,
    5296923130,
    3304502285,
    5296922675,
    5296922673,
    5296922672,
    5296922674,
    5299691053,
    31508602,
    5299691051,
    5296923129,
    5296923128,
    5296922666,
    5296922661,
    5296922660,
    5296922667
  ]
},
{
  "type": "way",
  "id": 548283574,
  "nodes": [
    5296922709,
    5296922693,
    5296922694,
    5296922695,
    5296922696,
    5296922697,
    5296922698,
    5296922699,
    5296922700,
    5296922701,
    5296922702,
    5296922703,
    5296922704,
    5296922705,
    5296922706,
    5296922707,
    5296922708,
    5296922692,
    5296922691,
    5296922690,
    5296922689,
    5296922688,
    5296922687,
    5296922686,
    5296922685,
    5296922684,
    5296922683,
    5296922682,
    5296922681,
    5296922680,
    5296922679,
    5296922678,
    5296922677,
    5296922676,
    5296922709
  ]
},
{
  "type": "way",
  "id": 46103653,
  "nodes": [
    587698892,
    1919212997,
    1919212990,
    587698883,
    587698892
  ]
},
{
  "type": "way",
  "id": 196523721,
  "nodes": [
    2068467173,
    587698891,
    4209403190,
    587698881,
    2068467169,
    3524007778,
    3524007934,
    3524007976,
    2068467173
  ]
},
{
  "type": "way",
  "id": 180029244,
  "nodes": [
    1904676548,
    1904676525,
    1904676527,
    1904676550,
    1904676548
  ]
},
{
  "type": "way",
  "id": 196523722,
  "nodes": [
    2068467186,
    2068467187,
    1904676567,
    1904676569,
    1904676572,
    1904676547,
    1904676546,
    1904676538,
    2068467183,
    1904676510,
    3789133636,
    1904676507,
    1904676509,
    1904676521,
    1904676533,
    1904676542,
    2068467186
  ]
},
{
  "type": "way",
  "id": 27595251,
  "nodes": [
    303021175,
    303021176,
    4170019089,
    303021177,
    303021179,
    4170015289,
    303021175
  ]
},
{
  "type": "way",
  "id": 139243273,
  "nodes": [
    1526220401,
    1526220405,
    1526220407,
    1526220406,
    1526220401
  ]
},
{
  "type": "way",
  "id": 204721783,
  "nodes": [
    27654232,
    4170020489,
    27654230,
    251899369,
    1526202824,
    4332021413,
    4332021412,
    2147024560,
    4170015991,
    4170009690,
    2147024559,
    4170012090,
    4170013092,
    2147024564,
    1526202748,
    4170013690,
    1526202753,
    2143321307,
    1526202793,
    2147024570,
    2147024566,
    4170018125,
    4170021089,
    4170020690,
    2147024574,
    2147024569,
    2147024555,
    4170016631,
    4170020890,
    27654232
  ]
},
{
  "type": "way",
  "id": 416169837,
  "nodes": [
    1526220388,
    1526220385,
    1526220386,
    1526220402,
    1526220388
  ]
},
{
  "type": "way",
  "id": 207101068,
  "nodes": [
    2172277061,
    2146995744,
    4935986228,
    2146995750,
    4935986239,
    4935986238,
    1925397576,
    1925397572,
    564913767,
    1925397538,
    2172277062,
    5499376558,
    5499376556,
    2172277061
  ]
},
{
  "type": "way",
  "id": 503255258,
  "nodes": [
    4935986237,
    4935986236,
    4935986235,
    4935986234,
    4935986237
  ]
},
{
  "type": "way",
  "id": 14595913,
  "nodes": [
    143874918,
    143874926,
    143874928,
    143874929,
    143874931,
    1758604705,
    143874932,
    143874934,
    143874937,
    143874918
  ]
},
{
  "type": "way",
  "id": 23331313,
  "nodes": [
    252637115,
    252637118,
    1304043156,
    252637117,
    1304043158,
    2287979309,
    252637116,
    2287979311,
    252637115
  ]
},
{
  "type": "way",
  "id": 23331314,
  "nodes": [
    252637119,
    252637122,
    1304043157,
    252637121,
    1304043162,
    252637120,
    2101646468,
    2101646462,
    252637119
  ]
},
{
  "type": "way",
  "id": 173769301,
  "nodes": [
    1845257706,
    1845257705,
    1845257702,
    1845257691,
    1845257694,
    1845257708,
    1845257707,
    1845257706
  ]
},
{
  "type": "way",
  "id": 173769439,
  "nodes": [
    1845257700,
    1845257701,
    1845257697,
    1845257696,
    1845257700
  ]
},
{
  "type": "way",
  "id": 366306662,
  "nodes": [
    3702814503,
    3411630257,
    3702814504,
    3411630254,
    3411630255,
    3411630256,
    3702814503
  ]
},
{
  "type": "way",
  "id": 168232744,
  "nodes": [
    1795235623,
    1795235620,
    1795235618,
    1950174147,
    1795235617,
    1924837681,
    1795235627,
    1795235628,
    1795235630,
    1795235632,
    1795235633,
    1950163846,
    1795235634,
    1795235623
  ]
},
{
  "type": "way",
  "id": 193629600,
  "nodes": [
    2041549814,
    2041549812,
    2041549811,
    2041549813,
    2041549814
  ]
}

  ]
}
