{
  "version": 0.6,
  "generator": "Overpass API 0.7.55.9 ab41fea6",
  "osm3s": {
    "timestamp_osm_base": "2020-02-14T15:06:02Z",
    "copyright": "The data included in this document is from www.openstreetmap.org. The data is made available under ODbL."
  },
  "elements": [

{
  "type": "node",
  "id": 349273462,
  "lat": 45.5393762,
  "lon": 10.2254564,
  "tags": {
    "name": "Scavi archeologici di palazzo Martinengo Cesaresco Novarino",
    "opening_hours": "Mo-Su 10:00-18:00",
    "tourism": "museum",
    "wikidata": "Q3951763",
    "wikipedia": "it:Scavi archeologici di palazzo Martinengo Cesaresco Novarino"
  }
},
{
  "type": "node",
  "id": 670216853,
  "lat": 45.8162906,
  "lon": 10.0739961,
  "tags": {
    "tourism": "museum"
  }
},
{
  "type": "node",
  "id": 750680709,
  "lat": 45.9452762,
  "lon": 10.6320893,
  "tags": {
    "name": "museo della Grande Guerra",
    "tourism": "museum"
  }
},
{
  "type": "node",
  "id": 794884849,
  "lat": 45.7752544,
  "lon": 10.5005343,
  "tags": {
    "name": "Rocca d'Anfo",
    "tourism": "museum"
  }
},
{
  "type": "node",
  "id": 883436280,
  "lat": 45.7719659,
  "lon": 10.5014138,
  "tags": {
    "name": "Rocca d'Anfo",
    "tourism": "museum"
  }
},
{
  "type": "node",
  "id": 883458651,
  "lat": 45.7717610,
  "lon": 10.4984588,
  "tags": {
    "name": "Rocca d'Anfo",
    "tourism": "museum",
    "wikidata": "Q3939439",
    "wikipedia": "it:Rocca d'Anfo"
  }
},
{
  "type": "node",
  "id": 1206175090,
  "lat": 45.7534578,
  "lon": 10.7359939,
  "tags": {
    "addr:postcode": "25080",
    "name": "Museo del Parco Alto Garda Bresciano",
    "tourism": "museum"
  }
},
{
  "type": "node",
  "id": 1251803620,
  "lat": 45.6235931,
  "lon": 10.5642618,
  "tags": {
    "name": "Il Vittoriale degli Italiani",
    "tourism": "museum",
    "website": "http://www.vittoriale.it/",
    "wikidata": "Q1547160",
    "wikipedia": "en:Vittoriale degli italiani"
  }
},
{
  "type": "node",
  "id": 1314248029,
  "lat": 45.5429000,
  "lon": 10.2252223,
  "tags": {
    "addr:city": "Brescia",
    "addr:housenumber": "9",
    "addr:postcode": "25121",
    "addr:street": "Via Castello",
    "email": "info@bresciamusei.com",
    "name": "Museo delle armi Luigi Marzoli",
    "opening_hours": "Tu-Fr 09:00-17:00; Sa-Su-PH 10:00-18:00; Mo off",
    "phone": "+39 030 44176",
    "tourism": "museum",
    "website": "https://www.bresciamusei.com/ncastello.asp?nm=17&t=Museo+delle+Armi+L%2E+Marzoli",
    "wheelchair": "no",
    "wikidata": "Q3868126",
    "wikipedia": "it:Museo delle armi Luigi Marzoli"
  }
},
{
  "type": "node",
  "id": 1447092109,
  "lat": 45.7673404,
  "lon": 10.5466860,
  "tags": {
    "name": "Museo dei reperti bellici della guerra 1915-18",
    "tourism": "museum"
  }
},
{
  "type": "node",
  "id": 1859638874,
  "lat": 45.6201702,
  "lon": 10.5619437,
  "tags": {
    "name": "Giardino Botanico André Heller",
    "name:de": "Botanischer Garten André Heller",
    "name:en": "Botanical Garden André Heller",
    "opening_hours": "Mar,Oct: Mo-Su,PH 09:00-17:00; Apr-Sep: Mo-Su,PH 09:00-19:00",
    "phone": "+39 336 410877",
    "tourism": "museum"
  }
},
{
  "type": "node",
  "id": 1859668454,
  "lat": 45.6236102,
  "lon": 10.5700344,
  "tags": {
    "addr:city": "Gardone Riviera",
    "addr:housenumber": "34",
    "addr:postcode": "25083",
    "addr:street": "Via dei Colli",
    "name": "Il Divino Infante",
    "operator": "Fondazione Museo Il Divino Infante",
    "phone": "+39 0365 293105",
    "tourism": "museum",
    "website": "https://www.il-bambino-gesu.com/"
  }
},
{
  "type": "node",
  "id": 1909159901,
  "lat": 45.9140783,
  "lon": 10.1023257,
  "tags": {
    "ele": "1292",
    "name": "Castello Orsetto",
    "tourism": "museum"
  }
},
{
  "type": "node",
  "id": 2301669292,
  "lat": 46.0307000,
  "lon": 10.3394369,
  "tags": {
    "name": "museo preistorico di Capo di Ponte",
    "tourism": "museum",
    "wikidata": "Q66497619"
  }
},
{
  "type": "node",
  "id": 2470526928,
  "lat": 45.5846109,
  "lon": 10.4387124,
  "tags": {
    "addr:city": "Gavardo",
    "addr:housenumber": "5",
    "addr:postcode": "25085",
    "addr:street": "Piazzetta San Bernardino",
    "email": "info@museoarcheologicogavardo.it",
    "name": "Museo Archeologico della Valle Sabbia",
    "opening_hours": "Mo-Fr 09:00-13:00; Th 14:00-17:00; Fr 20:30-21:30; Su 14:30-18:30; Sa, PH off",
    "phone": "+39 0365 371474",
    "tourism": "museum",
    "website": "http://museoarcheologicogavardo.it",
    "wikidata": "Q1115335",
    "wikipedia": "it:Museo archeologico della Valle Sabbia"
  }
},
{
  "type": "node",
  "id": 2963021690,
  "lat": 46.0188906,
  "lon": 10.1993482,
  "tags": {
    "name": "Museo delle Miniere Schilpario",
    "tourism": "museum"
  }
},
{
  "type": "node",
  "id": 2973820616,
  "lat": 45.5426643,
  "lon": 10.2190529,
  "tags": {
    "addr:city": "Brescia",
    "addr:housenumber": "2",
    "addr:street": "Vicolo San Faustino",
    "name": "Museo nazionale della fotografia",
    "tourism": "museum",
    "website": "https://www.museobrescia.net/it/"
  }
},
{
  "type": "node",
  "id": 3029188131,
  "lat": 46.0039028,
  "lon": 10.3239585,
  "tags": {
    "name": "Mulino",
    "tourism": "museum"
  }
},
{
  "type": "node",
  "id": 3029189405,
  "lat": 46.0031429,
  "lon": 10.3243154,
  "tags": {
    "name": "Santuario della Via Crucis",
    "tourism": "museum",
    "wikidata": "Q3949861",
    "wikipedia": "it:Santuario della Via Crucis"
  }
},
{
  "type": "node",
  "id": 3029199433,
  "lat": 46.0058744,
  "lon": 10.3240266,
  "tags": {
    "name": "Casa Museo",
    "tourism": "museum"
  }
},
{
  "type": "node",
  "id": 3029199434,
  "lat": 46.0059489,
  "lon": 10.3241043,
  "tags": {
    "name": "Ricostruzione Torchio Antico",
    "tourism": "museum"
  }
},
{
  "type": "node",
  "id": 3176738163,
  "lat": 45.5788062,
  "lon": 10.1221935,
  "tags": {
    "addr:city": "Rodengo Saiano",
    "addr:housenumber": "18",
    "addr:postcode": "25050",
    "addr:street": "Via del Commercio",
    "email": "rodengosaiano@musil.bs.it",
    "name": "Museo dell'industria e del lavoro",
    "opening_hours": "We-Fr 13:30-18:30; Sa-Su 13:30-19:00",
    "operator": "fondazione museo dell'industria e del lavoro",
    "phone": "+39 030 6813487",
    "short_name": "musil rodengo saiano",
    "tourism": "museum",
    "website": "http://www.musilrodengosaiano.it"
  }
},
{
  "type": "node",
  "id": 3316676353,
  "lat": 45.5428510,
  "lon": 10.2246222,
  "tags": {
    "description": "​Al fine di consentire interventi di manutenzione straordinaria al tetto dell'immobile che ospita il Museo del Risorgimento, si è dovuto procedere alla chiusura temporanea delle sale museali.",
    "name": "Museo del Risorgimento",
    "tourism": "museum",
    "website": "https://www.bresciamusei.com/ncastello.asp?nm=18&t=Museo+del+Risorgimento",
    "wikipedia": "it:Museo del Risorgimento (Brescia)"
  }
},
{
  "type": "node",
  "id": 3316680340,
  "lat": 45.5430136,
  "lon": 10.2246483,
  "tags": {
    "email": "info@cfb-brescia.org",
    "name": "Plastico ferroviario Cidneo",
    "opening_hours": "mar-oct su 15:00-18:00;nov-feb su 14:30-17:30",
    "phone": "+39 030 5234889",
    "tourism": "museum",
    "website": "http://www.cfb-brescia.org/"
  }
},
{
  "type": "node",
  "id": 3316680341,
  "lat": 45.5432340,
  "lon": 10.2245676,
  "tags": {
    "email": "info@cfb-brescia.org",
    "name": "Plastico ferroviario Villa d'Almè",
    "opening_hours": "mar-oct su 15:00-18:00;nov-feb su 14:30-17:30",
    "phone": "+39 030 5234889",
    "tourism": "museum",
    "website": "http://www.cfb-brescia.org/"
  }
},
{
  "type": "node",
  "id": 3683994896,
  "lat": 45.8889808,
  "lon": 10.7322804,
  "tags": {
    "name": "Museo del Laboratorio Farmaceutico Foletto",
    "tourism": "museum"
  }
},
{
  "type": "node",
  "id": 3958833971,
  "lat": 45.6072082,
  "lon": 10.1922775,
  "tags": {
    "name": "Museo del Presepio Paolo VI",
    "tourism": "museum"
  }
},
{
  "type": "node",
  "id": 4192332449,
  "lat": 45.5346036,
  "lon": 10.2261539,
  "tags": {
    "addr:city": "Brescia",
    "addr:postcode": "25121",
    "addr:street": "Piazza Moretto",
    "email": "santagiulia@bresciamusei.com",
    "name": "Pinacoteca Tosio Martinengo",
    "opening_hours": "Tu-Fr 09:00-17:00; Sa 10:00-21:00; Su, PH 10:00-18:00; Mo off",
    "phone": "+39 030 2977833",
    "tourism": "museum",
    "website": "https://www.bresciamusei.com/pinacoteca.asp",
    "wheelchair": "yes",
    "wikidata": "Q3388589",
    "wikipedia": "it:Pinacoteca Tosio Martinengo"
  }
},
{
  "type": "node",
  "id": 4198269522,
  "lat": 45.8900865,
  "lon": 9.9474281,
  "tags": {
    "emergency": "fire_hydrant",
    "fire_hydrant:couplings": "1 UNI 70; 2 UNI 45",
    "fire_hydrant:type": "pillar",
    "name": "MAT - Museo Arte e Tempo",
    "ref": "0106",
    "tourism": "museum",
    "website": "http://www.museoartetempo.it",
    "wikipedia": "it:Museo Arte Tempo"
  }
},
{
  "type": "node",
  "id": 4302903846,
  "lat": 45.6248238,
  "lon": 10.5653833,
  "tags": {
    "name": "d'Annunzio Eroe",
    "tourism": "museum"
  }
},
{
  "type": "node",
  "id": 4302903847,
  "lat": 45.6238601,
  "lon": 10.5651022,
  "tags": {
    "name": "d'Annunzio Segreto",
    "tourism": "museum"
  }
},
{
  "type": "node",
  "id": 4572304643,
  "lat": 45.5466411,
  "lon": 10.3199653,
  "tags": {
    "name": "Museo del Marmo",
    "tourism": "museum"
  }
},
{
  "type": "node",
  "id": 4590511098,
  "lat": 45.9945455,
  "lon": 10.2332882,
  "tags": {
    "addr:city": "Lozio",
    "addr:hamlet": "Villa",
    "addr:postcode": "25040",
    "addr:street": "Via dei Nobili",
    "name": "Casa museo della gente di Lozio",
    "tourism": "museum"
  }
},
{
  "type": "node",
  "id": 4636362527,
  "lat": 45.9332111,
  "lon": 10.2798140,
  "tags": {
    "name": "Museo Civico El Balarol",
    "tourism": "museum"
  }
},
{
  "type": "node",
  "id": 4996800044,
  "lat": 45.5497698,
  "lon": 10.5527128,
  "tags": {
    "name": "Museo della Cultura Popolare",
    "tourism": "museum"
  }
},
{
  "type": "node",
  "id": 5095866059,
  "lat": 45.7520877,
  "lon": 10.3730008,
  "tags": {
    "name": "Museo della Resistenza",
    "tourism": "museum"
  }
},
{
  "type": "node",
  "id": 5096210009,
  "lat": 45.9478954,
  "lon": 10.2053976,
  "tags": {
    "name": "Museo fotografico Simone Magnolini",
    "tourism": "museum"
  }
},
{
  "type": "node",
  "id": 5493786254,
  "lat": 45.6247380,
  "lon": 10.5703395,
  "tags": {
    "addr:city": "Gardone Riviera",
    "addr:housenumber": "34",
    "addr:postcode": "25083",
    "addr:street": "Via dei Colli",
    "name": "Museo del Divino Infante",
    "operator": "Fondazione Museo \"Il Divino Infante\"",
    "phone": "+390365293105",
    "tourism": "museum",
    "website": "https://www.il-bambino-gesu.com/"
  }
},
{
  "type": "node",
  "id": 5873126579,
  "lat": 45.8907745,
  "lon": 9.9876597,
  "tags": {
    "name": "Casa Museo Fantoni",
    "opening_hours": "Tu-Su 15:30-17:30; Jun 15-Sep 15 Tu-Su",
    "operator": "Provincia di Bergamo",
    "tourism": "museum",
    "website": "https://it.m.wikipedia.org/wiki/Casa_museo_Fantoni",
    "wheelchair": "no"
  }
},
{
  "type": "node",
  "id": 6265788259,
  "lat": 45.5392540,
  "lon": 10.2183730,
  "tags": {
    "name": "Ken Damy",
    "tourism": "museum"
  }
},
{
  "type": "node",
  "id": 6447360428,
  "lat": 45.9429827,
  "lon": 10.2695092,
  "tags": {
    "addr:city": "Cividate Camuno",
    "addr:housenumber": "29",
    "addr:postcode": "25040",
    "addr:street": "Via Roma",
    "email": "museoarcheologico.vallecamonica@beniculturali.it",
    "name": "Museo Archeologico Nazionale della Valle Camonica",
    "opening_hours": "Tu-Sa 08:30-19:00; Su 08:30-14:00; Mo, Jan 1, May 1, Dec 25 off",
    "phone": "+39 0364 344301",
    "tourism": "museum",
    "website": "http://www.museoarcheologico.valcamonicaromana.beniculturali.it/index.php?it/1/home"
  }
},
{
  "type": "node",
  "id": 6447637956,
  "lat": 45.5392611,
  "lon": 10.2291054,
  "tags": {
    "addr:city": "Brescia",
    "addr:housenumber": "81/B",
    "addr:postcode": "25121",
    "addr:street": "Via dei Musei",
    "email": "santagiulia@bresciamusei.com",
    "name": "Museo di Santa Giulia",
    "note": "Creato tag specifico per inserire informazioni utili alla visita; se inutile eliminare.",
    "opening_hours": "Tu-Fr 09:00-17:00; Sa-Su 10:00-21:00; Su, PH 10:00-18:00; Mo off",
    "phone": "+39 030 2977833",
    "tourism": "museum",
    "website": "https://www.bresciamusei.com/santagiulia.asp",
    "wikipedia": "it:Museo di Santa Giulia"
  }
},
{
  "type": "node",
  "id": 6447660497,
  "lat": 46.0304718,
  "lon": 10.3441660,
  "tags": {
    "addr:city": "Capo di Ponte",
    "addr:housenumber": "7",
    "addr:postcode": "25044",
    "addr:street": "Via San Martino",
    "email": "mupre.capodiponte@beniculturali.it",
    "name": "Museo Nazionale della Preistoria della Valle Camonica",
    "opening_hours": "Tu 09:00-13:00; We-Su 14:00-18:00; Mo off",
    "phone": "+39 0364 42403",
    "tourism": "museum",
    "website": "http://www.mupre.capodiponte.beniculturali.it/index.php?it/1/home"
  }
},
{
  "type": "way",
  "id": 29281613,
  "nodes": [
    322008438,
    322008445,
    2755980379,
    322652685,
    2755980317,
    322652692,
    2755980279,
    2755980263,
    2755980231,
    2755980241,
    322008462,
    322008480,
    322008438
  ],
  "tags": {
    "addr:city": "Lovere",
    "addr:housenumber": "40",
    "addr:postcode": "24065",
    "addr:street": "Via Lungolago Giovanni Ruffini",
    "building": "yes",
    "email": "direzione@accademiatadini.it",
    "fee": "yes",
    "name": "Pinacoteca Tadini",
    "opening_hours": "Apr, Oct: Sa 15:00-19:00; Su, PH 10:00-12:00; 15:00-19:00; May-Sep: Tu-Sa 15:00-19:00; Su, PH 10:00-12:00; 15:00-19:00; Easter, Easter+1, Apr 25, May 1, Jun 2, Aug 15 open; Nov-Mar \"by appointment\"",
    "phone": "+39 035 962780",
    "tourism": "museum",
    "website": "http://www.accademiatadini.it/index.aspx"
  }
},
{
  "type": "way",
  "id": 30184180,
  "nodes": [
    332587986,
    332587987,
    332587988,
    332587989,
    332587990,
    332587991,
    332587986
  ],
  "tags": {
    "building": "yes",
    "name": "Museo dell'energia idroelettrica di Cedegolo",
    "tourism": "museum"
  }
},
{
  "type": "way",
  "id": 40678281,
  "nodes": [
    494068198,
    4409761312,
    494068201,
    494068202,
    494068203,
    494068198
  ],
  "tags": {
    "building": "yes",
    "name": "Centro visitatori biotopo lago d'Ampola",
    "tourism": "museum"
  }
},
{
  "type": "way",
  "id": 62164826,
  "nodes": [
    775541210,
    2646239944,
    775541206,
    775541208,
    775541220,
    775541203,
    775541215,
    2646239951,
    775541210
  ],
  "tags": {
    "addr:city": "Tignale",
    "addr:place": "Porto di Tignale",
    "name": "Limonaia Prà de la Fam",
    "tourism": "museum",
    "website": "http://www.limonaiagarda.com/"
  }
},
{
  "type": "way",
  "id": 66761902,
  "nodes": [
    807120961,
    807120962,
    807121048,
    807121046,
    807120961
  ],
  "tags": {
    "building": "yes",
    "ele": "1421",
    "name": "Centro visitatori Monsignor Mario Ferrari",
    "old_name": "Malga Tiarno di Sotto",
    "operator": "MUSE",
    "tourism": "museum",
    "website": "http://www.muse.it/it/visita/Muse-sul-Territorio/Pagine/Centro-Visitatori-e-Area-didattica-Monisgnor-Mario-Ferrari-Tremalzo.aspx"
  }
},
{
  "type": "way",
  "id": 66761903,
  "nodes": [
    807120964,
    807121037,
    807121039,
    807120959,
    807120964
  ],
  "tags": {
    "building": "yes",
    "ele": "1421",
    "name": "Centro visitatori Monsignor Mario Ferrari",
    "old_name": "Malga Tiarno di Sotto",
    "operator": "MUSE",
    "tourism": "museum",
    "website": "http://www.muse.it/it/visita/Muse-sul-Territorio/Pagine/Centro-Visitatori-e-Area-didattica-Monisgnor-Mario-Ferrari-Tremalzo.aspx"
  }
},
{
  "type": "way",
  "id": 66764505,
  "nodes": [
    807143294,
    807143296,
    6634656050,
    807143299,
    807143301,
    4426119770,
    4426119768,
    807143294
  ],
  "tags": {
    "addr:city": "Ledro",
    "addr:housenumber": "1",
    "addr:postcode": "38067",
    "addr:street": "Via al Lago",
    "building": "yes",
    "name": "Museo della Palafitte",
    "name:de": "Pfahlbaumuseum",
    "name:it": "Museo della Palafitte",
    "operator": "MUSE - Museo delle Scienze",
    "phone": "+39 0464 508182",
    "tourism": "museum",
    "website": "http://www.palafitteledro.it/",
    "wikipedia": "it:Museo delle palafitte del lago di Ledro"
  }
},
{
  "type": "way",
  "id": 67331925,
  "nodes": [
    813247304,
    813247143,
    813247556,
    813247409,
    813247203,
    813247488,
    2529653778,
    813247450,
    813247304
  ],
  "tags": {
    "building": "yes",
    "ele": "1235",
    "name": "Malga Lunga - Museo della Resistenza",
    "tourism": "museum",
    "wikipedia": "it:Malga Lunga"
  }
},
{
  "type": "way",
  "id": 82507621,
  "nodes": [
    960228799,
    960228756,
    960228842,
    960228786,
    960228799
  ],
  "tags": {
    "building": "yes",
    "name": "Casa del Parco Fauna - villa de Biasi",
    "tourism": "museum"
  }
},
{
  "type": "way",
  "id": 84697732,
  "nodes": [
    983854207,
    983853944,
    983852785,
    983854307,
    983854207
  ],
  "tags": {
    "building": "yes",
    "name": "Museo garibaldino",
    "tourism": "museum"
  }
},
{
  "type": "way",
  "id": 88449365,
  "nodes": [
    1027294235,
    1027293966,
    1027293914,
    1027294239,
    1027294103,
    1027294447,
    1027294375,
    1027294045,
    1027293998,
    1027294320,
    1027294208,
    1027293545,
    1027294480,
    1027293946,
    1027294235
  ],
  "tags": {
    "addr:city": "Salò",
    "addr:housenumber": "9",
    "addr:postcode": "25087",
    "addr:street": "Via Brunati",
    "building": "yes",
    "email": "info@museodisalo.it",
    "name": "Mu.Sa.",
    "opening_hours": "Apr, May, Oct, Nov, Dec: Mo-Su, 10:00-19:00; Jun-Sep: Mo-Su:10:00-20:00",
    "operator": "Comune di Salò",
    "phone": "+39 0365 20553",
    "tourism": "museum",
    "website": "https://www.museodisalo.it"
  }
},
{
  "type": "way",
  "id": 114801977,
  "nodes": [
    1299494888,
    1299494632,
    1299495123,
    1299495004,
    1299494888
  ],
  "tags": {
    "building": "yes",
    "name": "Museo etnografico della Valvestino",
    "tourism": "museum",
    "wikipedia": "it:Museo etnografico della Valvestino"
  }
},
{
  "type": "way",
  "id": 128185566,
  "nodes": [
    1417066095,
    1417066092,
    1417066070,
    1417066055,
    1417066056,
    2624826548,
    1417066110,
    1417066065,
    1417066057,
    1417066051,
    1417066115,
    2624826564,
    1417066050,
    1417066078,
    1417066058,
    1417066087,
    1417066053,
    1417066046,
    1417066088,
    1417066090,
    1417066067,
    1417066076,
    1417066052,
    1417066112,
    1417066093,
    1417066105,
    1417066047,
    1417066044,
    1417066095
  ],
  "tags": {
    "building": "yes",
    "name": "Museo di Scienze Naturali",
    "tourism": "museum"
  }
},
{
  "type": "way",
  "id": 130420456,
  "nodes": [
    1436500021,
    1436500029,
    1436500072,
    1436500070,
    1436500085,
    1436500083,
    1436500066,
    1436500061,
    1436500067,
    1436500068,
    1436500062,
    5469919673,
    1436500021
  ],
  "tags": {
    "building": "yes",
    "disused:craft": "blacksmith",
    "disused:date": "1984",
    "loc_name": "Antro di Vulcano",
    "name": "Maglio Averoldi",
    "start_date": "C15",
    "tourism": "museum"
  }
},
{
  "type": "way",
  "id": 147960117,
  "nodes": [
    1610781254,
    1610781259,
    1610781261,
    1610781257,
    1610781250,
    2540362849,
    2540362845,
    2540362857,
    1610781242,
    1610781234,
    3736648626,
    2540362814,
    2540362819,
    2540362836,
    2540362832,
    2540362840,
    1610781245,
    1610781258,
    1610781263,
    1610781260,
    4622350668,
    4622350669,
    1610781251,
    3736648629,
    1610781254
  ],
  "tags": {
    "alt_name": "Ex Monastero di Sant'Eufemia",
    "building": "yes",
    "historic": "monastery",
    "name": "Museo Mille Miglia",
    "old_name": "Monastero di San Paterio",
    "start_date": "1008",
    "tourism": "museum",
    "website": "https://www.museomillemiglia.it/",
    "wikidata": "Q3868042",
    "wikipedia": "it:Museo della Mille Miglia"
  }
},
{
  "type": "way",
  "id": 181296728,
  "nodes": [
    1917262486,
    1917262456,
    1917262475,
    1917262455,
    1917262453,
    1917262461,
    1917262482,
    1917262494,
    1917262506,
    1917262512,
    1917262520,
    1917262560,
    1917262564,
    1917262565,
    1917262579,
    1917262573,
    1917262574,
    1917262568,
    1917262523,
    1917262522,
    1917262519,
    1917262502,
    2392206227,
    1917262486
  ],
  "tags": {
    "building": "industrial",
    "name": "Miniera Sant'Aloisio Tassara",
    "tourism": "museum"
  }
},
{
  "type": "way",
  "id": 182593977,
  "nodes": [
    1929493034,
    1929493036,
    1929493037,
    1929493035,
    1929493034
  ],
  "tags": {
    "building": "yes",
    "name": "Museo Etnografico del Ferro",
    "tourism": "museum"
  }
},
{
  "type": "way",
  "id": 199117139,
  "nodes": [
    2091570741,
    2091570740,
    2945865072,
    1521756691,
    2091570731,
    1521756687,
    2091570739,
    2945865049,
    2091570735,
    2091570741
  ],
  "tags": {
    "building": "yes",
    "disused:craft": "blacksmith",
    "email": "fondazione@musil.bs.it",
    "name": "Museo del Ferro",
    "old_name": "Fucina Caccagni",
    "opening_hours": "Apr-Jun: Sa-Su 15:00-18:00; Sep-Nov: Sa-Su 15:00-18:00",
    "operator": "Musil",
    "phone": "+39 030 3750663",
    "tourism": "museum",
    "website": "http://www.musilbrescia.it/sedi/museo_del_ferro/"
  }
},
{
  "type": "way",
  "id": 200301203,
  "nodes": [
    2102990106,
    2102990105,
    2102990103,
    2102990104,
    2102990106
  ],
  "tags": {
    "building": "tower",
    "historic": "yes",
    "man_made": "tower",
    "name": "Torre Avogadro",
    "start_date": "C15",
    "tourism": "museum"
  }
},
{
  "type": "way",
  "id": 204047016,
  "nodes": [
    2140591032,
    2140591033,
    2140591028,
    2140591026,
    2140591024,
    2140591021,
    2140591004,
    2140591000,
    2140590999,
    2140590997,
    2140590995,
    2140590994,
    2140591005,
    2140591010,
    2140591011,
    2140591012,
    2140591016,
    2140591014,
    2140591018,
    2140591015,
    2140591020,
    2140591022,
    2140591025,
    2140591027,
    2140591029,
    2140591032
  ],
  "tags": {
    "building": "yes",
    "historic": "ruins",
    "name": "Rocca d'Anfo",
    "tourism": "museum"
  }
},
{
  "type": "way",
  "id": 207118534,
  "nodes": [
    2172592091,
    2172592092,
    2172592084,
    2172592079,
    2172592080,
    2172592087,
    2172592094,
    2172592099,
    2172592102,
    2172592104,
    2172592101,
    1714337292,
    2172592095,
    6501407889,
    2172592096,
    2172592090,
    2172592089,
    2172592086,
    2172592070,
    2172592061,
    2172592059,
    2172592063,
    2172592062,
    2172592065,
    2172592066,
    2172592076,
    2172592075,
    2172592077,
    2172592074,
    2172592072,
    2172592068,
    2172592067,
    2172592064,
    2172592083,
    2172592093,
    2172592097,
    2172592091
  ],
  "tags": {
    "addr:city": "Toscolano Maderno",
    "addr:postcode": "25088",
    "addr:street": "Via Valle delle Cartiere",
    "building": "yes",
    "email": "museo@valledellecartiere.it",
    "name": "Il Museo della Carta",
    "opening_hours": "Mo-Su 10:00-18:00",
    "phone": "+39 0365 20641050",
    "tourism": "museum",
    "website": "https://www.valledellecartiere.it/it/"
  }
},
{
  "type": "way",
  "id": 208265681,
  "nodes": [
    2185794849,
    2185794847,
    2185794852,
    2185794858,
    2185794850,
    2185794856,
    2185794861,
    2185794857,
    2185794845,
    2185796714,
    2185796731,
    2185796712,
    2185796729,
    2185796716,
    2185796725,
    2185796718,
    2185796721,
    2185796727,
    2185796723,
    2185796720,
    2185794849
  ],
  "tags": {
    "building": "yes",
    "name": "Musei Mazzucchelli",
    "tourism": "museum"
  }
},
{
  "type": "way",
  "id": 226140903,
  "nodes": [
    2349927692,
    2349927713,
    2349927722,
    2349927695,
    2349927692
  ],
  "tags": {
    "building": "yes",
    "name": "Miniera Marzoli",
    "operator": "Ski-Mine S.r.l.s.",
    "phone": "+39 347 8163286",
    "ref:vatin": "IT03640220988",
    "tourism": "museum",
    "wikipedia": "it:Museo \"Le miniere\" di Pezzaze"
  }
},
{
  "type": "way",
  "id": 232448007,
  "nodes": [
    2408003808,
    4298766746,
    4294805492,
    4298766745,
    4294805490,
    4298766743,
    4294805489,
    4298766742,
    4294805288,
    4298766741,
    2408003823,
    4294805491,
    2408003861,
    3019989408,
    2408003815,
    2408003808
  ],
  "tags": {
    "building": "yes",
    "name": "M.A.S. 96",
    "tourism": "museum",
    "wikipedia": "it:MAS 96"
  }
},
{
  "type": "way",
  "id": 283261451,
  "nodes": [
    2871475463,
    2871475464,
    2871475471,
    2871475470,
    2871475469,
    2871475473,
    2871475474,
    2871475472,
    2871475466,
    2871475465,
    2871475463
  ],
  "tags": {
    "building": "yes",
    "name": "Museo Il Forno di Tavernole",
    "tourism": "museum"
  }
},
{
  "type": "way",
  "id": 285990624,
  "nodes": [
    2896338598,
    2896342837,
    4567078366,
    4567078365,
    2896342844,
    4567078364,
    4567078363,
    4567078362,
    2896342850,
    2896338598
  ],
  "tags": {
    "name": "Palazzo della Cultura",
    "tourism": "museum"
  }
},
{
  "type": "way",
  "id": 311039719,
  "nodes": [
    3165754289,
    3165754291,
    3165754290,
    3165754288,
    3165754289
  ],
  "tags": {
    "building": "yes",
    "name": "Museo La Grande Guerra Aldo Piotti - Fausta Melzani",
    "tourism": "museum"
  }
},
{
  "type": "way",
  "id": 350124480,
  "nodes": [
    3558760634,
    3558760645,
    3558760642,
    3558760621,
    3558760634
  ],
  "tags": {
    "building": "yes",
    "fee": "no",
    "name": "Parco Archeologico Naturalistico",
    "tourism": "museum"
  }
},
{
  "type": "way",
  "id": 370496629,
  "nodes": [
    3741927744,
    1961288264,
    3741927740,
    3741927738,
    3741927735,
    3741927736,
    3741927739,
    5984137942,
    3741927743,
    3741927742,
    3741927741,
    3741927744
  ],
  "tags": {
    "building": "yes",
    "name": "Museo Etnografico",
    "tourism": "museum"
  }
},
{
  "type": "way",
  "id": 373405200,
  "nodes": [
    3768787060,
    3768787057,
    3768787058,
    3768787061,
    3768787060
  ],
  "tags": {
    "addr:city": "Nave",
    "addr:housenumber": "39",
    "addr:postcode": "25075",
    "addr:street": "Via Bologna",
    "building": "yes",
    "email": "claudio.fenotti@alice.it",
    "name": "Mulino Fenotti",
    "tourism": "museum",
    "website": "http://www.mulinofenotti.it/"
  }
},
{
  "type": "way",
  "id": 395452172,
  "nodes": [
    3983108163,
    4540348265,
    4540348274,
    3983108170,
    3983108171,
    3983108168,
    3983108167,
    3983108165,
    4540348264,
    3983108164,
    3983108163
  ],
  "tags": {
    "addr:city": "Rezzato",
    "addr:housenumber": "60",
    "addr:postcode": "25086",
    "addr:street": "Via Disciplina",
    "alt_name": "Ex Chiesa di Sant'Alessandro",
    "building": "church",
    "disused:amenity": "place_of_worship",
    "disused:denomination": "catholic",
    "disused:religion": "christian",
    "email": "pinacoteca@comune.rezzato.bs.it",
    "name": "Pinacoteca Internazionale dell’Età Evolutiva Aldo Cibaldi",
    "phone": "+39 030 2792086",
    "tourism": "museum",
    "website": "http://www.pinac.it/pinac/"
  }
},
{
  "type": "way",
  "id": 413557197,
  "nodes": [
    4148596427,
    4148596431,
    5871729588,
    4148596437,
    5872297328,
    4148596432,
    4148596427
  ],
  "tags": {
    "building": "yes",
    "name": "Centro Faunistico Parco Adamello",
    "tourism": "museum"
  }
},
{
  "type": "way",
  "id": 430406192,
  "nodes": [
    4296874976,
    4296874983,
    4296874978,
    4296874974,
    4296874973,
    4296874972,
    4296874976
  ],
  "tags": {
    "building": "yes",
    "ele": "1604",
    "name": "Museo del Silter",
    "old_name": "Malga Silter di Gianico",
    "opening_hours": "\"by appointment\"",
    "tourism": "museum"
  }
},
{
  "type": "way",
  "id": 453066314,
  "nodes": [
    4498698808,
    4498698807,
    4498698806,
    4498698805,
    4498698804,
    4498698803,
    4498698802,
    4498698801,
    4498698808
  ],
  "tags": {
    "building": "yes",
    "name": "Planetario di Lumezzane",
    "tourism": "museum"
  }
},
{
  "type": "way",
  "id": 457978593,
  "nodes": [
    3983108170,
    4540348276,
    4540348275,
    4540348274,
    3983108170
  ],
  "tags": {
    "addr:city": "Rezzato",
    "addr:housenumber": "60",
    "addr:postcode": "25086",
    "addr:street": "Via Disciplina",
    "building": "yes",
    "email": "pinacoteca@comune.rezzato.bs.it",
    "name": "Pinacoteca Internazionale dell’Età Evolutiva Aldo Cibaldi",
    "phone": "+39 030 2792086",
    "tourism": "museum",
    "website": "http://www.pinac.it/pinac/"
  }
},
{
  "type": "way",
  "id": 469413360,
  "nodes": [
    4637382514,
    4637382515,
    4647237445,
    4647237446,
    4647237447,
    4647237448,
    4647237444,
    4647237443,
    4637382516,
    4637382517,
    4637382514
  ],
  "tags": {
    "building": "yes",
    "name": "Scuola Forgiatura",
    "tourism": "museum"
  }
},
{
  "type": "way",
  "id": 521669214,
  "nodes": [
    5082670023,
    5082669986,
    5082669987,
    5082670022,
    5082670023
  ],
  "tags": {
    "building": "roof",
    "name": "Parco Archeologico Asinino - Anvòia",
    "tourism": "museum"
  }
},
{
  "type": "way",
  "id": 521669215,
  "nodes": [
    5082669986,
    5082670024,
    5082670021,
    5082669987,
    5082669986
  ],
  "tags": {
    "building": "yes",
    "name": "Parco Archeologico Asinino - Anvòia",
    "tourism": "museum"
  }
},
{
  "type": "way",
  "id": 544100799,
  "nodes": [
    5259610512,
    5259610513,
    5259611234,
    5259610514,
    5259610515,
    5259610516,
    5259610517,
    5259610518,
    5259610519,
    5259610520,
    5259610512
  ],
  "tags": {
    "addr:city": "Malegno",
    "addr:postcode": "25053",
    "addr:street": "Via Sant'Antonio",
    "building": "yes",
    "name": "Museo Le Fudine",
    "tourism": "museum"
  }
},
{
  "type": "way",
  "id": 544218372,
  "nodes": [
    5260770128,
    5260770129,
    5260770130,
    5260770131,
    5260770128
  ],
  "tags": {
    "addr:city": "Malegno",
    "addr:postcode": "25053",
    "addr:street": "Via Pontera",
    "building": "yes",
    "name": "Museo del Lambich",
    "tourism": "museum"
  }
},
{
  "type": "way",
  "id": 545917672,
  "nodes": [
    5276060201,
    5276060200,
    5276060199,
    5276060198,
    5276060201
  ],
  "tags": {
    "building": "yes",
    "name": "Casa Museo Pietro Malossi",
    "old_name": "Casa Andrea Averoldi",
    "tourism": "museum"
  }
},
{
  "type": "way",
  "id": 566211481,
  "nodes": [
    5452187322,
    5452187321,
    5452187120,
    5452187119,
    5452187118,
    5452187117,
    5452187116,
    5452187115,
    5452187322
  ],
  "tags": {
    "addr:city": "Sarezzo",
    "addr:housenumber": "19",
    "addr:postcode": "25068",
    "addr:street": "Via Vallegobbia",
    "building": "yes",
    "disused:craft": "blacksmith",
    "disused:date": "1984",
    "name": "Museo I Magli di Sarezzo",
    "old_name": "Fucina Sanzogni",
    "start_date": "1662",
    "tourism": "museum"
  }
},
{
  "type": "way",
  "id": 588804719,
  "nodes": [
    5623180977,
    6131055724,
    6131066267,
    6131066276,
    6131069876,
    5623180976,
    6142922028,
    5623180975,
    6124940616,
    6124941661,
    6131060867,
    5623180974,
    5623180977
  ],
  "tags": {
    "building": "yes",
    "name": "MarteS Museo d'arte Sorlini",
    "tourism": "museum",
    "website": "https://www.museomartes.com/"
  }
},
{
  "type": "way",
  "id": 654024923,
  "nodes": [
    6128914031,
    6128914032,
    6128914033,
    6128914034,
    6128914031
  ],
  "tags": {
    "building": "yes",
    "name": "Museo Etnografico",
    "tourism": "museum"
  }
},
{
  "type": "relation",
  "id": 2244567,
  "members": [
    {
      "type": "way",
      "ref": 168430468,
      "role": "inner"
    },
    {
      "type": "way",
      "ref": 165511610,
      "role": "outer"
    }
  ],
  "tags": {
    "building": "yes",
    "name": "Museo diocesano",
    "tourism": "museum",
    "type": "multipolygon",
    "wikipedia": "it:Museo diocesano (Brescia)"
  }
},
{
  "type": "relation",
  "id": 6407779,
  "members": [
    {
      "type": "way",
      "ref": 430812188,
      "role": "outer"
    },
    {
      "type": "way",
      "ref": 430982746,
      "role": "outer"
    },
    {
      "type": "way",
      "ref": 430619104,
      "role": "outer"
    },
    {
      "type": "way",
      "ref": 430619102,
      "role": "outer"
    },
    {
      "type": "way",
      "ref": 430619106,
      "role": "outer"
    },
    {
      "type": "way",
      "ref": 430177882,
      "role": "inner"
    },
    {
      "type": "way",
      "ref": 430177881,
      "role": "inner"
    }
  ],
  "tags": {
    "building": "house",
    "name": "Prioria",
    "tourism": "museum",
    "type": "multipolygon"
  }
},
{
  "type": "node",
  "id": 813247304,
  "lat": 45.8210045,
  "lon": 9.9810397
},
{
  "type": "node",
  "id": 813247450,
  "lat": 45.8209835,
  "lon": 9.9809803
},
{
  "type": "node",
  "id": 813247143,
  "lat": 45.8204617,
  "lon": 9.9814348
},
{
  "type": "node",
  "id": 813247203,
  "lat": 45.8205726,
  "lon": 9.9812449
},
{
  "type": "node",
  "id": 813247409,
  "lat": 45.8205605,
  "lon": 9.9812107
},
{
  "type": "node",
  "id": 813247488,
  "lat": 45.8207077,
  "lon": 9.9811466
},
{
  "type": "node",
  "id": 813247556,
  "lat": 45.8204189,
  "lon": 9.9813137
},
{
  "type": "node",
  "id": 2529653778,
  "lat": 45.8207174,
  "lon": 9.9811740
},
{
  "type": "node",
  "id": 1610781234,
  "lat": 45.5241451,
  "lon": 10.2671350
},
{
  "type": "node",
  "id": 1610781242,
  "lat": 45.5242198,
  "lon": 10.2672002
},
{
  "type": "node",
  "id": 1610781245,
  "lat": 45.5243239,
  "lon": 10.2667290
},
{
  "type": "node",
  "id": 1610781250,
  "lat": 45.5244197,
  "lon": 10.2667644
},
{
  "type": "node",
  "id": 1610781251,
  "lat": 45.5244429,
  "lon": 10.2676458
},
{
  "type": "node",
  "id": 1610781254,
  "lat": 45.5245425,
  "lon": 10.2675250
},
{
  "type": "node",
  "id": 1610781257,
  "lat": 45.5245932,
  "lon": 10.2665479
},
{
  "type": "node",
  "id": 2540362814,
  "lat": 45.5241894,
  "lon": 10.2670404
},
{
  "type": "node",
  "id": 2540362819,
  "lat": 45.5241952,
  "lon": 10.2670463
},
{
  "type": "node",
  "id": 2540362832,
  "lat": 45.5242138,
  "lon": 10.2669899
},
{
  "type": "node",
  "id": 2540362836,
  "lat": 45.5242193,
  "lon": 10.2669955
},
{
  "type": "node",
  "id": 2540362840,
  "lat": 45.5242465,
  "lon": 10.2669199
},
{
  "type": "node",
  "id": 2540362845,
  "lat": 45.5243307,
  "lon": 10.2667632
},
{
  "type": "node",
  "id": 2540362849,
  "lat": 45.5243542,
  "lon": 10.2667167
},
{
  "type": "node",
  "id": 2540362857,
  "lat": 45.5243985,
  "lon": 10.2668189
},
{
  "type": "node",
  "id": 3736648626,
  "lat": 45.5241610,
  "lon": 10.2671011
},
{
  "type": "node",
  "id": 3736648629,
  "lat": 45.5244889,
  "lon": 10.2674952
},
{
  "type": "node",
  "id": 4622350669,
  "lat": 45.5245881,
  "lon": 10.2677416
},
{
  "type": "node",
  "id": 3983108163,
  "lat": 45.5161499,
  "lon": 10.3169663
},
{
  "type": "node",
  "id": 3983108164,
  "lat": 45.5161576,
  "lon": 10.3170396
},
{
  "type": "node",
  "id": 3983108165,
  "lat": 45.5162100,
  "lon": 10.3170285
},
{
  "type": "node",
  "id": 3983108167,
  "lat": 45.5162317,
  "lon": 10.3170239
},
{
  "type": "node",
  "id": 3983108168,
  "lat": 45.5162349,
  "lon": 10.3170547
},
{
  "type": "node",
  "id": 3983108170,
  "lat": 45.5162714,
  "lon": 10.3169404
},
{
  "type": "node",
  "id": 3983108171,
  "lat": 45.5162823,
  "lon": 10.3170447
},
{
  "type": "node",
  "id": 4540348264,
  "lat": 45.5161729,
  "lon": 10.3170364
},
{
  "type": "node",
  "id": 4540348265,
  "lat": 45.5161648,
  "lon": 10.3169631
},
{
  "type": "node",
  "id": 4540348274,
  "lat": 45.5161836,
  "lon": 10.3169591
},
{
  "type": "node",
  "id": 4540348275,
  "lat": 45.5161684,
  "lon": 10.3168140
},
{
  "type": "node",
  "id": 4540348276,
  "lat": 45.5162563,
  "lon": 10.3167953
},
{
  "type": "node",
  "id": 2185794845,
  "lat": 45.4934702,
  "lon": 10.3434170
},
{
  "type": "node",
  "id": 2185794847,
  "lat": 45.4939151,
  "lon": 10.3430159
},
{
  "type": "node",
  "id": 2185794849,
  "lat": 45.4940880,
  "lon": 10.3428657
},
{
  "type": "node",
  "id": 2185794850,
  "lat": 45.4941971,
  "lon": 10.3431822
},
{
  "type": "node",
  "id": 2185794852,
  "lat": 45.4940166,
  "lon": 10.3432359
},
{
  "type": "node",
  "id": 2185794856,
  "lat": 45.4943099,
  "lon": 10.3430803
},
{
  "type": "node",
  "id": 2185794857,
  "lat": 45.4936518,
  "lon": 10.3438099
},
{
  "type": "node",
  "id": 2185794858,
  "lat": 45.4941708,
  "lon": 10.3431232
},
{
  "type": "node",
  "id": 2185794861,
  "lat": 45.4943475,
  "lon": 10.3431608
},
{
  "type": "node",
  "id": 2185796712,
  "lat": 45.4927681,
  "lon": 10.3446306
},
{
  "type": "node",
  "id": 2185796714,
  "lat": 45.4931705,
  "lon": 10.3436597
},
{
  "type": "node",
  "id": 2185796716,
  "lat": 45.4928734,
  "lon": 10.3443571
},
{
  "type": "node",
  "id": 2185796718,
  "lat": 45.4930953,
  "lon": 10.3436114
},
{
  "type": "node",
  "id": 2185796720,
  "lat": 45.4940279,
  "lon": 10.3427799
},
{
  "type": "node",
  "id": 2185796721,
  "lat": 45.4930351,
  "lon": 10.3434612
},
{
  "type": "node",
  "id": 2185796723,
  "lat": 45.4934187,
  "lon": 10.3433324
},
{
  "type": "node",
  "id": 2185796725,
  "lat": 45.4927456,
  "lon": 10.3441210
},
{
  "type": "node",
  "id": 2185796727,
  "lat": 45.4933510,
  "lon": 10.3431715
},
{
  "type": "node",
  "id": 2185796729,
  "lat": 45.4927230,
  "lon": 10.3445341
},
{
  "type": "node",
  "id": 2185796731,
  "lat": 45.4933472,
  "lon": 10.3440942
},
{
  "type": "node",
  "id": 1436500021,
  "lat": 45.6139506,
  "lon": 10.1086999
},
{
  "type": "node",
  "id": 1436500029,
  "lat": 45.6139547,
  "lon": 10.1084724
},
{
  "type": "node",
  "id": 1436500061,
  "lat": 45.6140446,
  "lon": 10.1086810
},
{
  "type": "node",
  "id": 1436500062,
  "lat": 45.6140464,
  "lon": 10.1087035
},
{
  "type": "node",
  "id": 1436500066,
  "lat": 45.6140457,
  "lon": 10.1086206
},
{
  "type": "node",
  "id": 1436500067,
  "lat": 45.6140468,
  "lon": 10.1086811
},
{
  "type": "node",
  "id": 1436500068,
  "lat": 45.6140466,
  "lon": 10.1086894
},
{
  "type": "node",
  "id": 1436500070,
  "lat": 45.6140543,
  "lon": 10.1085072
},
{
  "type": "node",
  "id": 1436500072,
  "lat": 45.6140549,
  "lon": 10.1084761
},
{
  "type": "node",
  "id": 1436500083,
  "lat": 45.6140888,
  "lon": 10.1086222
},
{
  "type": "node",
  "id": 1436500085,
  "lat": 45.6140908,
  "lon": 10.1085086
},
{
  "type": "node",
  "id": 5276060198,
  "lat": 45.6141833,
  "lon": 10.1084709
},
{
  "type": "node",
  "id": 5276060199,
  "lat": 45.6141890,
  "lon": 10.1087364
},
{
  "type": "node",
  "id": 5276060200,
  "lat": 45.6143502,
  "lon": 10.1087293
},
{
  "type": "node",
  "id": 5276060201,
  "lat": 45.6143445,
  "lon": 10.1084638
},
{
  "type": "node",
  "id": 5469919673,
  "lat": 45.6139765,
  "lon": 10.1087009
},
{
  "type": "node",
  "id": 1770502530,
  "lat": 45.5409120,
  "lon": 10.2204640
},
{
  "type": "node",
  "id": 1770502534,
  "lat": 45.5414338,
  "lon": 10.2200178
},
{
  "type": "node",
  "id": 1770502573,
  "lat": 45.5409244,
  "lon": 10.2203230
},
{
  "type": "node",
  "id": 1770502579,
  "lat": 45.5409853,
  "lon": 10.2203304
},
{
  "type": "node",
  "id": 1770502594,
  "lat": 45.5414375,
  "lon": 10.2197736
},
{
  "type": "node",
  "id": 1770502597,
  "lat": 45.5415899,
  "lon": 10.2198448
},
{
  "type": "node",
  "id": 1770502598,
  "lat": 45.5415255,
  "lon": 10.2198250
},
{
  "type": "node",
  "id": 1770502616,
  "lat": 45.5411633,
  "lon": 10.2206269
},
{
  "type": "node",
  "id": 1770502630,
  "lat": 45.5410983,
  "lon": 10.2199404
},
{
  "type": "node",
  "id": 1770502647,
  "lat": 45.5410346,
  "lon": 10.2204741
},
{
  "type": "node",
  "id": 1770502649,
  "lat": 45.5413395,
  "lon": 10.2198220
},
{
  "type": "node",
  "id": 1770502679,
  "lat": 45.5406823,
  "lon": 10.2199710
},
{
  "type": "node",
  "id": 1770502690,
  "lat": 45.5409770,
  "lon": 10.2199591
},
{
  "type": "node",
  "id": 1770502696,
  "lat": 45.5414528,
  "lon": 10.2206686
},
{
  "type": "node",
  "id": 1770502721,
  "lat": 45.5414188,
  "lon": 10.2199376
},
{
  "type": "node",
  "id": 1770502724,
  "lat": 45.5409014,
  "lon": 10.2202666
},
{
  "type": "node",
  "id": 1770502725,
  "lat": 45.5409740,
  "lon": 10.2204727
},
{
  "type": "node",
  "id": 1770502752,
  "lat": 45.5410325,
  "lon": 10.2198528
},
{
  "type": "node",
  "id": 1770502772,
  "lat": 45.5413630,
  "lon": 10.2205383
},
{
  "type": "node",
  "id": 1770502792,
  "lat": 45.5415355,
  "lon": 10.2201123
},
{
  "type": "node",
  "id": 1770502795,
  "lat": 45.5413040,
  "lon": 10.2199191
},
{
  "type": "node",
  "id": 1770502799,
  "lat": 45.5408177,
  "lon": 10.2199035
},
{
  "type": "node",
  "id": 1770502810,
  "lat": 45.5409674,
  "lon": 10.2205825
},
{
  "type": "node",
  "id": 1796955114,
  "lat": 45.5414431,
  "lon": 10.2199434
},
{
  "type": "node",
  "id": 2073084204,
  "lat": 45.5406757,
  "lon": 10.2202611
},
{
  "type": "node",
  "id": 2373556655,
  "lat": 45.5406783,
  "lon": 10.2201528
},
{
  "type": "node",
  "id": 2373556656,
  "lat": 45.5406811,
  "lon": 10.2198721
},
{
  "type": "node",
  "id": 2373556657,
  "lat": 45.5406815,
  "lon": 10.2200093
},
{
  "type": "node",
  "id": 2373556660,
  "lat": 45.5408390,
  "lon": 10.2201734
},
{
  "type": "node",
  "id": 2373556661,
  "lat": 45.5408404,
  "lon": 10.2200302
},
{
  "type": "node",
  "id": 2373556665,
  "lat": 45.5409006,
  "lon": 10.2202497
},
{
  "type": "node",
  "id": 2373556670,
  "lat": 45.5409616,
  "lon": 10.2201598
},
{
  "type": "node",
  "id": 2373556671,
  "lat": 45.5409929,
  "lon": 10.2202530
},
{
  "type": "node",
  "id": 2373556672,
  "lat": 45.5410014,
  "lon": 10.2201601
},
{
  "type": "node",
  "id": 2373556682,
  "lat": 45.5413305,
  "lon": 10.2198177
},
{
  "type": "node",
  "id": 2373556684,
  "lat": 45.5413556,
  "lon": 10.2197524
},
{
  "type": "node",
  "id": 2373556688,
  "lat": 45.5414756,
  "lon": 10.2197752
},
{
  "type": "node",
  "id": 2373556690,
  "lat": 45.5415295,
  "lon": 10.2198012
},
{
  "type": "node",
  "id": 6359265531,
  "lat": 45.5415613,
  "lon": 10.2199855
},
{
  "type": "node",
  "id": 1521756687,
  "lat": 45.5763770,
  "lon": 10.2219044
},
{
  "type": "node",
  "id": 1521756691,
  "lat": 45.5764669,
  "lon": 10.2219138
},
{
  "type": "node",
  "id": 2091570731,
  "lat": 45.5763960,
  "lon": 10.2219064
},
{
  "type": "node",
  "id": 2091570735,
  "lat": 45.5763530,
  "lon": 10.2217298
},
{
  "type": "node",
  "id": 2091570739,
  "lat": 45.5763442,
  "lon": 10.2219009
},
{
  "type": "node",
  "id": 2091570740,
  "lat": 45.5766691,
  "lon": 10.2219351
},
{
  "type": "node",
  "id": 2091570741,
  "lat": 45.5766779,
  "lon": 10.2217640
},
{
  "type": "node",
  "id": 2945865049,
  "lat": 45.5763495,
  "lon": 10.2217674
},
{
  "type": "node",
  "id": 2945865072,
  "lat": 45.5765803,
  "lon": 10.2219258
},
{
  "type": "node",
  "id": 1610781258,
  "lat": 45.5246549,
  "lon": 10.2663262
},
{
  "type": "node",
  "id": 1610781259,
  "lat": 45.5246743,
  "lon": 10.2676021
},
{
  "type": "node",
  "id": 1610781260,
  "lat": 45.5247042,
  "lon": 10.2678182
},
{
  "type": "node",
  "id": 1610781261,
  "lat": 45.5249644,
  "lon": 10.2670568
},
{
  "type": "node",
  "id": 1610781263,
  "lat": 45.5251332,
  "lon": 10.2669666
},
{
  "type": "node",
  "id": 4622350668,
  "lat": 45.5246348,
  "lon": 10.2677724
},
{
  "type": "node",
  "id": 1417066044,
  "lat": 45.5525002,
  "lon": 10.2269114
},
{
  "type": "node",
  "id": 1417066046,
  "lat": 45.5529759,
  "lon": 10.2265763
},
{
  "type": "node",
  "id": 1417066047,
  "lat": 45.5525163,
  "lon": 10.2269174
},
{
  "type": "node",
  "id": 1417066050,
  "lat": 45.5529370,
  "lon": 10.2268449
},
{
  "type": "node",
  "id": 1417066051,
  "lat": 45.5530677,
  "lon": 10.2270030
},
{
  "type": "node",
  "id": 1417066052,
  "lat": 45.5526106,
  "lon": 10.2267310
},
{
  "type": "node",
  "id": 1417066053,
  "lat": 45.5531173,
  "lon": 10.2266357
},
{
  "type": "node",
  "id": 1417066055,
  "lat": 45.5526521,
  "lon": 10.2270911
},
{
  "type": "node",
  "id": 1417066056,
  "lat": 45.5526746,
  "lon": 10.2269761
},
{
  "type": "node",
  "id": 1417066057,
  "lat": 45.5530311,
  "lon": 10.2271820
},
{
  "type": "node",
  "id": 1417066058,
  "lat": 45.5531286,
  "lon": 10.2266974
},
{
  "type": "node",
  "id": 1417066065,
  "lat": 45.5527507,
  "lon": 10.2270723
},
{
  "type": "node",
  "id": 1417066067,
  "lat": 45.5529170,
  "lon": 10.2266704
},
{
  "type": "node",
  "id": 1417066070,
  "lat": 45.5525858,
  "lon": 10.2270676
},
{
  "type": "node",
  "id": 1417066076,
  "lat": 45.5526462,
  "lon": 10.2265560
},
{
  "type": "node",
  "id": 1417066078,
  "lat": 45.5530911,
  "lon": 10.2268995
},
{
  "type": "node",
  "id": 1417066087,
  "lat": 45.5531286,
  "lon": 10.2266652
},
{
  "type": "node",
  "id": 1417066088,
  "lat": 45.5529276,
  "lon": 10.2268127
},
{
  "type": "node",
  "id": 1417066090,
  "lat": 45.5528917,
  "lon": 10.2267989
},
{
  "type": "node",
  "id": 1417066092,
  "lat": 45.5525805,
  "lon": 10.2270932
},
{
  "type": "node",
  "id": 1417066093,
  "lat": 45.5526083,
  "lon": 10.2268422
},
{
  "type": "node",
  "id": 1417066095,
  "lat": 45.5524729,
  "lon": 10.2270560
},
{
  "type": "node",
  "id": 1417066105,
  "lat": 45.5525378,
  "lon": 10.2268135
},
{
  "type": "node",
  "id": 1417066110,
  "lat": 45.5527642,
  "lon": 10.2270085
},
{
  "type": "node",
  "id": 1417066112,
  "lat": 45.5526297,
  "lon": 10.2267387
},
{
  "type": "node",
  "id": 1417066115,
  "lat": 45.5529190,
  "lon": 10.2269400
},
{
  "type": "node",
  "id": 2624826548,
  "lat": 45.5527287,
  "lon": 10.2269963
},
{
  "type": "node",
  "id": 2624826564,
  "lat": 45.5529276,
  "lon": 10.2268956
},
{
  "type": "node",
  "id": 5452187115,
  "lat": 45.6455872,
  "lon": 10.2026679
},
{
  "type": "node",
  "id": 5452187116,
  "lat": 45.6456028,
  "lon": 10.2026004
},
{
  "type": "node",
  "id": 5452187117,
  "lat": 45.6455308,
  "lon": 10.2025664
},
{
  "type": "node",
  "id": 5452187118,
  "lat": 45.6454812,
  "lon": 10.2027819
},
{
  "type": "node",
  "id": 5452187119,
  "lat": 45.6455070,
  "lon": 10.2027940
},
{
  "type": "node",
  "id": 5452187120,
  "lat": 45.6454861,
  "lon": 10.2028849
},
{
  "type": "node",
  "id": 5452187321,
  "lat": 45.6455643,
  "lon": 10.2029217
},
{
  "type": "node",
  "id": 5452187322,
  "lat": 45.6456193,
  "lon": 10.2026830
},
{
  "type": "node",
  "id": 4498698801,
  "lat": 45.6514278,
  "lon": 10.2583345
},
{
  "type": "node",
  "id": 4498698802,
  "lat": 45.6513696,
  "lon": 10.2583739
},
{
  "type": "node",
  "id": 4498698803,
  "lat": 45.6513948,
  "lon": 10.2584499
},
{
  "type": "node",
  "id": 4498698804,
  "lat": 45.6513372,
  "lon": 10.2584889
},
{
  "type": "node",
  "id": 4498698805,
  "lat": 45.6513678,
  "lon": 10.2585812
},
{
  "type": "node",
  "id": 4498698806,
  "lat": 45.6514032,
  "lon": 10.2585572
},
{
  "type": "node",
  "id": 4498698807,
  "lat": 45.6514271,
  "lon": 10.2586291
},
{
  "type": "node",
  "id": 4498698808,
  "lat": 45.6515073,
  "lon": 10.2585747
},
{
  "type": "node",
  "id": 2102990103,
  "lat": 45.6577691,
  "lon": 10.2460045
},
{
  "type": "node",
  "id": 2102990104,
  "lat": 45.6577853,
  "lon": 10.2458293
},
{
  "type": "node",
  "id": 2102990105,
  "lat": 45.6578932,
  "lon": 10.2460280
},
{
  "type": "node",
  "id": 2102990106,
  "lat": 45.6579094,
  "lon": 10.2458528
},
{
  "type": "node",
  "id": 3768787057,
  "lat": 45.5835543,
  "lon": 10.2943671
},
{
  "type": "node",
  "id": 3768787058,
  "lat": 45.5835713,
  "lon": 10.2945413
},
{
  "type": "node",
  "id": 3768787060,
  "lat": 45.5836512,
  "lon": 10.2943478
},
{
  "type": "node",
  "id": 3768787061,
  "lat": 45.5836682,
  "lon": 10.2945219
},
{
  "type": "node",
  "id": 5623180974,
  "lat": 45.5268327,
  "lon": 10.4541870
},
{
  "type": "node",
  "id": 5623180975,
  "lat": 45.5265302,
  "lon": 10.4539912
},
{
  "type": "node",
  "id": 5623180976,
  "lat": 45.5264700,
  "lon": 10.4541805
},
{
  "type": "node",
  "id": 5623180977,
  "lat": 45.5267726,
  "lon": 10.4543763
},
{
  "type": "node",
  "id": 6124940616,
  "lat": 45.5266126,
  "lon": 10.4540445
},
{
  "type": "node",
  "id": 6124941661,
  "lat": 45.5266515,
  "lon": 10.4540697
},
{
  "type": "node",
  "id": 6131055724,
  "lat": 45.5267075,
  "lon": 10.4543342
},
{
  "type": "node",
  "id": 6131060867,
  "lat": 45.5266961,
  "lon": 10.4540986
},
{
  "type": "node",
  "id": 6131066267,
  "lat": 45.5266785,
  "lon": 10.4543154
},
{
  "type": "node",
  "id": 6131066276,
  "lat": 45.5265930,
  "lon": 10.4542601
},
{
  "type": "node",
  "id": 6131069876,
  "lat": 45.5265474,
  "lon": 10.4542306
},
{
  "type": "node",
  "id": 6142922028,
  "lat": 45.5265035,
  "lon": 10.4540753
},
{
  "type": "node",
  "id": 3558760621,
  "lat": 45.5561702,
  "lon": 10.5686371
},
{
  "type": "node",
  "id": 3558760634,
  "lat": 45.5562628,
  "lon": 10.5685377
},
{
  "type": "node",
  "id": 3558760642,
  "lat": 45.5563325,
  "lon": 10.5689454
},
{
  "type": "node",
  "id": 3558760645,
  "lat": 45.5564250,
  "lon": 10.5688460
},
{
  "type": "node",
  "id": 1027293545,
  "lat": 45.6076880,
  "lon": 10.5257159
},
{
  "type": "node",
  "id": 1027293914,
  "lat": 45.6074981,
  "lon": 10.5262682
},
{
  "type": "node",
  "id": 1027293946,
  "lat": 45.6076210,
  "lon": 10.5257036
},
{
  "type": "node",
  "id": 1027293966,
  "lat": 45.6074089,
  "lon": 10.5262454
},
{
  "type": "node",
  "id": 1027293998,
  "lat": 45.6077926,
  "lon": 10.5258658
},
{
  "type": "node",
  "id": 1027294045,
  "lat": 45.6077920,
  "lon": 10.5258950
},
{
  "type": "node",
  "id": 1027294103,
  "lat": 45.6076960,
  "lon": 10.5265271
},
{
  "type": "node",
  "id": 1027294208,
  "lat": 45.6076960,
  "lon": 10.5256840
},
{
  "type": "node",
  "id": 1027294235,
  "lat": 45.6074598,
  "lon": 10.5256896
},
{
  "type": "node",
  "id": 1027294239,
  "lat": 45.6075028,
  "lon": 10.5265163
},
{
  "type": "node",
  "id": 1027294320,
  "lat": 45.6077937,
  "lon": 10.5256851
},
{
  "type": "node",
  "id": 1027294375,
  "lat": 45.6077763,
  "lon": 10.5262701
},
{
  "type": "node",
  "id": 1027294447,
  "lat": 45.6077073,
  "lon": 10.5262640
},
{
  "type": "node",
  "id": 1027294480,
  "lat": 45.6076435,
  "lon": 10.5256929
},
{
  "type": "node",
  "id": 2408003808,
  "lat": 45.6257904,
  "lon": 10.5650214
},
{
  "type": "node",
  "id": 2408003815,
  "lat": 45.6258387,
  "lon": 10.5652315
},
{
  "type": "node",
  "id": 2408003823,
  "lat": 45.6256930,
  "lon": 10.5650650
},
{
  "type": "node",
  "id": 2408003861,
  "lat": 45.6257396,
  "lon": 10.5652818
},
{
  "type": "node",
  "id": 3019989408,
  "lat": 45.6257883,
  "lon": 10.5652560
},
{
  "type": "node",
  "id": 4294507591,
  "lat": 45.6246432,
  "lon": 10.5656260
},
{
  "type": "node",
  "id": 4294507594,
  "lat": 45.6246610,
  "lon": 10.5656866
},
{
  "type": "node",
  "id": 4294507597,
  "lat": 45.6247103,
  "lon": 10.5659353
},
{
  "type": "node",
  "id": 4294507598,
  "lat": 45.6247316,
  "lon": 10.5659228
},
{
  "type": "node",
  "id": 4294507599,
  "lat": 45.6247422,
  "lon": 10.5660434
},
{
  "type": "node",
  "id": 4294507602,
  "lat": 45.6247656,
  "lon": 10.5660270
},
{
  "type": "node",
  "id": 4294507603,
  "lat": 45.6247805,
  "lon": 10.5660695
},
{
  "type": "node",
  "id": 4294507607,
  "lat": 45.6247818,
  "lon": 10.5655415
},
{
  "type": "node",
  "id": 4294507608,
  "lat": 45.6247967,
  "lon": 10.5658472
},
{
  "type": "node",
  "id": 4294507610,
  "lat": 45.6248155,
  "lon": 10.5659121
},
{
  "type": "node",
  "id": 4294507613,
  "lat": 45.6247981,
  "lon": 10.5656339
},
{
  "type": "node",
  "id": 4294507615,
  "lat": 45.6248205,
  "lon": 10.5657005
},
{
  "type": "node",
  "id": 4294507616,
  "lat": 45.6248520,
  "lon": 10.5659893
},
{
  "type": "node",
  "id": 4294507617,
  "lat": 45.6248528,
  "lon": 10.5660243
},
{
  "type": "node",
  "id": 4294507620,
  "lat": 45.6248212,
  "lon": 10.5655174
},
{
  "type": "node",
  "id": 4294507622,
  "lat": 45.6248243,
  "lon": 10.5658308
},
{
  "type": "node",
  "id": 4294507624,
  "lat": 45.6248167,
  "lon": 10.5656212
},
{
  "type": "node",
  "id": 4294507625,
  "lat": 45.6248432,
  "lon": 10.5658957
},
{
  "type": "node",
  "id": 4294507626,
  "lat": 45.6248391,
  "lon": 10.5656878
},
{
  "type": "node",
  "id": 4294507627,
  "lat": 45.6248960,
  "lon": 10.5659576
},
{
  "type": "node",
  "id": 4294507635,
  "lat": 45.6248852,
  "lon": 10.5655769
},
{
  "type": "node",
  "id": 4294507642,
  "lat": 45.6249601,
  "lon": 10.5658308
},
{
  "type": "node",
  "id": 4294756990,
  "lat": 45.6246955,
  "lon": 10.5655934
},
{
  "type": "node",
  "id": 4294756993,
  "lat": 45.6248077,
  "lon": 10.5656273
},
{
  "type": "node",
  "id": 4294767468,
  "lat": 45.6247226,
  "lon": 10.5659275
},
{
  "type": "node",
  "id": 4294767469,
  "lat": 45.6247554,
  "lon": 10.5660340
},
{
  "type": "node",
  "id": 4294805288,
  "lat": 45.6256885,
  "lon": 10.5650126
},
{
  "type": "node",
  "id": 4294805489,
  "lat": 45.6257003,
  "lon": 10.5649682
},
{
  "type": "node",
  "id": 4294805490,
  "lat": 45.6257335,
  "lon": 10.5649442
},
{
  "type": "node",
  "id": 4294805491,
  "lat": 45.6257366,
  "lon": 10.5652656
},
{
  "type": "node",
  "id": 4294805492,
  "lat": 45.6257706,
  "lon": 10.5649626
},
{
  "type": "node",
  "id": 4298766741,
  "lat": 45.6256890,
  "lon": 10.5650391
},
{
  "type": "node",
  "id": 4298766742,
  "lat": 45.6256917,
  "lon": 10.5649876
},
{
  "type": "node",
  "id": 4298766743,
  "lat": 45.6257147,
  "lon": 10.5649515
},
{
  "type": "node",
  "id": 4298766745,
  "lat": 45.6257530,
  "lon": 10.5649469
},
{
  "type": "node",
  "id": 4298766746,
  "lat": 45.6257826,
  "lon": 10.5649901
},
{
  "type": "node",
  "id": 4300846342,
  "lat": 45.6248309,
  "lon": 10.5655578
},
{
  "type": "node",
  "id": 4300846343,
  "lat": 45.6248421,
  "lon": 10.5656007
},
{
  "type": "node",
  "id": 4300896394,
  "lat": 45.6247250,
  "lon": 10.5659019
},
{
  "type": "node",
  "id": 4300896395,
  "lat": 45.6247990,
  "lon": 10.5658554
},
{
  "type": "node",
  "id": 4301838593,
  "lat": 45.6248597,
  "lon": 10.5659359
},
{
  "type": "node",
  "id": 4302213142,
  "lat": 45.6248469,
  "lon": 10.5660030
},
{
  "type": "node",
  "id": 4302213143,
  "lat": 45.6248824,
  "lon": 10.5660074
},
{
  "type": "node",
  "id": 1714337292,
  "lat": 45.6496685,
  "lon": 10.6041883
},
{
  "type": "node",
  "id": 2172592059,
  "lat": 45.6492035,
  "lon": 10.6041356
},
{
  "type": "node",
  "id": 2172592061,
  "lat": 45.6492116,
  "lon": 10.6042690
},
{
  "type": "node",
  "id": 2172592062,
  "lat": 45.6492288,
  "lon": 10.6040895
},
{
  "type": "node",
  "id": 2172592063,
  "lat": 45.6492288,
  "lon": 10.6041307
},
{
  "type": "node",
  "id": 2172592064,
  "lat": 45.6492737,
  "lon": 10.6039446
},
{
  "type": "node",
  "id": 2172592065,
  "lat": 45.6493037,
  "lon": 10.6040879
},
{
  "type": "node",
  "id": 2172592066,
  "lat": 45.6493048,
  "lon": 10.6041109
},
{
  "type": "node",
  "id": 2172592067,
  "lat": 45.6493088,
  "lon": 10.6040619
},
{
  "type": "node",
  "id": 2172592068,
  "lat": 45.6493523,
  "lon": 10.6040389
},
{
  "type": "node",
  "id": 2172592070,
  "lat": 45.6493566,
  "lon": 10.6042492
},
{
  "type": "node",
  "id": 2172592072,
  "lat": 45.6494277,
  "lon": 10.6040076
},
{
  "type": "node",
  "id": 2172592074,
  "lat": 45.6494306,
  "lon": 10.6040064
},
{
  "type": "node",
  "id": 2172592075,
  "lat": 45.6494314,
  "lon": 10.6040368
},
{
  "type": "node",
  "id": 2172592076,
  "lat": 45.6494337,
  "lon": 10.6040928
},
{
  "type": "node",
  "id": 2172592077,
  "lat": 45.6494383,
  "lon": 10.6040345
},
{
  "type": "node",
  "id": 2172592079,
  "lat": 45.6494626,
  "lon": 10.6039929
},
{
  "type": "node",
  "id": 2172592080,
  "lat": 45.6494709,
  "lon": 10.6040233
},
{
  "type": "node",
  "id": 2172592083,
  "lat": 45.6494878,
  "lon": 10.6038409
},
{
  "type": "node",
  "id": 2172592084,
  "lat": 45.6495077,
  "lon": 10.6039738
},
{
  "type": "node",
  "id": 2172592086,
  "lat": 45.6495396,
  "lon": 10.6042212
},
{
  "type": "node",
  "id": 2172592087,
  "lat": 45.6495419,
  "lon": 10.6039989
},
{
  "type": "node",
  "id": 2172592089,
  "lat": 45.6495667,
  "lon": 10.6042143
},
{
  "type": "node",
  "id": 2172592090,
  "lat": 45.6495736,
  "lon": 10.6042886
},
{
  "type": "node",
  "id": 2172592091,
  "lat": 45.6495903,
  "lon": 10.6039232
},
{
  "type": "node",
  "id": 2172592092,
  "lat": 45.6495940,
  "lon": 10.6039384
},
{
  "type": "node",
  "id": 2172592093,
  "lat": 45.6496110,
  "lon": 10.6037701
},
{
  "type": "node",
  "id": 2172592094,
  "lat": 45.6496306,
  "lon": 10.6039693
},
{
  "type": "node",
  "id": 2172592095,
  "lat": 45.6496368,
  "lon": 10.6041964
},
{
  "type": "node",
  "id": 2172592096,
  "lat": 45.6496441,
  "lon": 10.6042752
},
{
  "type": "node",
  "id": 2172592097,
  "lat": 45.6496467,
  "lon": 10.6038870
},
{
  "type": "node",
  "id": 2172592099,
  "lat": 45.6496674,
  "lon": 10.6039561
},
{
  "type": "node",
  "id": 2172592101,
  "lat": 45.6496962,
  "lon": 10.6041718
},
{
  "type": "node",
  "id": 2172592102,
  "lat": 45.6497296,
  "lon": 10.6039199
},
{
  "type": "node",
  "id": 2172592104,
  "lat": 45.6498101,
  "lon": 10.6040945
},
{
  "type": "node",
  "id": 6501407889,
  "lat": 45.6496409,
  "lon": 10.6042404
},
{
  "type": "node",
  "id": 775541203,
  "lat": 45.7284415,
  "lon": 10.7184268
},
{
  "type": "node",
  "id": 775541206,
  "lat": 45.7279829,
  "lon": 10.7193030
},
{
  "type": "node",
  "id": 775541208,
  "lat": 45.7282110,
  "lon": 10.7192866
},
{
  "type": "node",
  "id": 775541210,
  "lat": 45.7280436,
  "lon": 10.7181544
},
{
  "type": "node",
  "id": 775541215,
  "lat": 45.7283856,
  "lon": 10.7182074
},
{
  "type": "node",
  "id": 775541220,
  "lat": 45.7283856,
  "lon": 10.7192955
},
{
  "type": "node",
  "id": 2646239944,
  "lat": 45.7280324,
  "lon": 10.7183019
},
{
  "type": "node",
  "id": 2646239951,
  "lat": 45.7282635,
  "lon": 10.7181887
},
{
  "type": "node",
  "id": 322008462,
  "lat": 45.8145518,
  "lon": 10.0724364
},
{
  "type": "node",
  "id": 322008480,
  "lat": 45.8144326,
  "lon": 10.0725366
},
{
  "type": "node",
  "id": 2755980231,
  "lat": 45.8146603,
  "lon": 10.0727782
},
{
  "type": "node",
  "id": 2755980241,
  "lat": 45.8146834,
  "lon": 10.0727588
},
{
  "type": "node",
  "id": 322008438,
  "lat": 45.8148124,
  "lon": 10.0734668
},
{
  "type": "node",
  "id": 322008445,
  "lat": 45.8150978,
  "lon": 10.0732269
},
{
  "type": "node",
  "id": 322652685,
  "lat": 45.8149287,
  "lon": 10.0730622
},
{
  "type": "node",
  "id": 322652692,
  "lat": 45.8148257,
  "lon": 10.0730698
},
{
  "type": "node",
  "id": 2755980263,
  "lat": 45.8147643,
  "lon": 10.0730328
},
{
  "type": "node",
  "id": 2755980279,
  "lat": 45.8147987,
  "lon": 10.0730039
},
{
  "type": "node",
  "id": 2755980317,
  "lat": 45.8149047,
  "lon": 10.0730034
},
{
  "type": "node",
  "id": 2755980379,
  "lat": 45.8150045,
  "lon": 10.0729984
},
{
  "type": "node",
  "id": 2871475463,
  "lat": 45.7505868,
  "lon": 10.2414597
},
{
  "type": "node",
  "id": 2871475464,
  "lat": 45.7505938,
  "lon": 10.2417968
},
{
  "type": "node",
  "id": 2871475465,
  "lat": 45.7507202,
  "lon": 10.2414571
},
{
  "type": "node",
  "id": 2871475466,
  "lat": 45.7507321,
  "lon": 10.2414247
},
{
  "type": "node",
  "id": 2871475469,
  "lat": 45.7508120,
  "lon": 10.2416832
},
{
  "type": "node",
  "id": 2871475470,
  "lat": 45.7508125,
  "lon": 10.2417130
},
{
  "type": "node",
  "id": 2871475471,
  "lat": 45.7508139,
  "lon": 10.2417853
},
{
  "type": "node",
  "id": 2871475472,
  "lat": 45.7508183,
  "lon": 10.2414853
},
{
  "type": "node",
  "id": 2871475473,
  "lat": 45.7508619,
  "lon": 10.2415620
},
{
  "type": "node",
  "id": 2871475474,
  "lat": 45.7508707,
  "lon": 10.2415406
},
{
  "type": "node",
  "id": 2349927692,
  "lat": 45.7759221,
  "lon": 10.2408527
},
{
  "type": "node",
  "id": 2349927695,
  "lat": 45.7759540,
  "lon": 10.2410526
},
{
  "type": "node",
  "id": 2349927713,
  "lat": 45.7761868,
  "lon": 10.2407660
},
{
  "type": "node",
  "id": 2349927722,
  "lat": 45.7762186,
  "lon": 10.2409659
},
{
  "type": "node",
  "id": 4296874972,
  "lat": 45.8602851,
  "lon": 10.2676829
},
{
  "type": "node",
  "id": 4296874973,
  "lat": 45.8603145,
  "lon": 10.2677675
},
{
  "type": "node",
  "id": 4296874974,
  "lat": 45.8603302,
  "lon": 10.2677563
},
{
  "type": "node",
  "id": 4296874976,
  "lat": 45.8603613,
  "lon": 10.2676281
},
{
  "type": "node",
  "id": 4296874978,
  "lat": 45.8603716,
  "lon": 10.2678752
},
{
  "type": "node",
  "id": 4296874983,
  "lat": 45.8604322,
  "lon": 10.2678317
},
{
  "type": "node",
  "id": 1917262453,
  "lat": 45.8030464,
  "lon": 10.3210964
},
{
  "type": "node",
  "id": 1917262455,
  "lat": 45.8031180,
  "lon": 10.3213093
},
{
  "type": "node",
  "id": 1917262456,
  "lat": 45.8032717,
  "lon": 10.3210665
},
{
  "type": "node",
  "id": 1917262461,
  "lat": 45.8032950,
  "lon": 10.3208872
},
{
  "type": "node",
  "id": 1917262475,
  "lat": 45.8033069,
  "lon": 10.3211786
},
{
  "type": "node",
  "id": 1917262482,
  "lat": 45.8033369,
  "lon": 10.3208519
},
{
  "type": "node",
  "id": 1917262486,
  "lat": 45.8033785,
  "lon": 10.3209861
},
{
  "type": "node",
  "id": 1917262494,
  "lat": 45.8034403,
  "lon": 10.3207703
},
{
  "type": "node",
  "id": 1917262502,
  "lat": 45.8035696,
  "lon": 10.3208932
},
{
  "type": "node",
  "id": 1917262506,
  "lat": 45.8035953,
  "lon": 10.3204829
},
{
  "type": "node",
  "id": 1917262512,
  "lat": 45.8036676,
  "lon": 10.3205631
},
{
  "type": "node",
  "id": 1917262519,
  "lat": 45.8037407,
  "lon": 10.3211228
},
{
  "type": "node",
  "id": 1917262520,
  "lat": 45.8037497,
  "lon": 10.3204110
},
{
  "type": "node",
  "id": 1917262522,
  "lat": 45.8037517,
  "lon": 10.3210955
},
{
  "type": "node",
  "id": 1917262523,
  "lat": 45.8038006,
  "lon": 10.3211489
},
{
  "type": "node",
  "id": 1917262560,
  "lat": 45.8039768,
  "lon": 10.3206632
},
{
  "type": "node",
  "id": 1917262564,
  "lat": 45.8039947,
  "lon": 10.3206831
},
{
  "type": "node",
  "id": 1917262565,
  "lat": 45.8040128,
  "lon": 10.3206491
},
{
  "type": "node",
  "id": 1917262568,
  "lat": 45.8040214,
  "lon": 10.3214004
},
{
  "type": "node",
  "id": 1917262573,
  "lat": 45.8041119,
  "lon": 10.3211368
},
{
  "type": "node",
  "id": 1917262574,
  "lat": 45.8041282,
  "lon": 10.3211560
},
{
  "type": "node",
  "id": 1917262579,
  "lat": 45.8042394,
  "lon": 10.3208976
},
{
  "type": "node",
  "id": 2392206227,
  "lat": 45.8033896,
  "lon": 10.3210191
},
{
  "type": "node",
  "id": 3165754288,
  "lat": 45.8127901,
  "lon": 10.3696701
},
{
  "type": "node",
  "id": 3165754289,
  "lat": 45.8128212,
  "lon": 10.3695800
},
{
  "type": "node",
  "id": 3165754290,
  "lat": 45.8128859,
  "lon": 10.3697381
},
{
  "type": "node",
  "id": 3165754291,
  "lat": 45.8129169,
  "lon": 10.3696479
},
{
  "type": "node",
  "id": 4637382514,
  "lat": 45.9331154,
  "lon": 10.2849599
},
{
  "type": "node",
  "id": 4637382515,
  "lat": 45.9331127,
  "lon": 10.2852651
},
{
  "type": "node",
  "id": 4637382516,
  "lat": 45.9330085,
  "lon": 10.2850816
},
{
  "type": "node",
  "id": 4637382517,
  "lat": 45.9330321,
  "lon": 10.2849445
},
{
  "type": "node",
  "id": 4647237443,
  "lat": 45.9329891,
  "lon": 10.2851792
},
{
  "type": "node",
  "id": 4647237444,
  "lat": 45.9329689,
  "lon": 10.2853202
},
{
  "type": "node",
  "id": 4647237445,
  "lat": 45.9331131,
  "lon": 10.2853476
},
{
  "type": "node",
  "id": 4647237446,
  "lat": 45.9330978,
  "lon": 10.2854051
},
{
  "type": "node",
  "id": 4647237447,
  "lat": 45.9330537,
  "lon": 10.2854561
},
{
  "type": "node",
  "id": 4647237448,
  "lat": 45.9329967,
  "lon": 10.2854734
},
{
  "type": "node",
  "id": 1929493034,
  "lat": 45.9340548,
  "lon": 10.2917936
},
{
  "type": "node",
  "id": 1929493035,
  "lat": 45.9340563,
  "lon": 10.2919476
},
{
  "type": "node",
  "id": 1929493036,
  "lat": 45.9341298,
  "lon": 10.2917921
},
{
  "type": "node",
  "id": 1929493037,
  "lat": 45.9341312,
  "lon": 10.2919462
},
{
  "type": "node",
  "id": 6128914031,
  "lat": 46.0083072,
  "lon": 10.1581061
},
{
  "type": "node",
  "id": 6128914032,
  "lat": 46.0084405,
  "lon": 10.1581154
},
{
  "type": "node",
  "id": 6128914033,
  "lat": 46.0083983,
  "lon": 10.1583449
},
{
  "type": "node",
  "id": 6128914034,
  "lat": 46.0083015,
  "lon": 10.1582744
},
{
  "type": "node",
  "id": 1961288264,
  "lat": 45.9449013,
  "lon": 10.2299379
},
{
  "type": "node",
  "id": 3741927735,
  "lat": 45.9447579,
  "lon": 10.2298134
},
{
  "type": "node",
  "id": 3741927736,
  "lat": 45.9447586,
  "lon": 10.2296996
},
{
  "type": "node",
  "id": 3741927738,
  "lat": 45.9447747,
  "lon": 10.2298910
},
{
  "type": "node",
  "id": 3741927739,
  "lat": 45.9447803,
  "lon": 10.2296129
},
{
  "type": "node",
  "id": 3741927740,
  "lat": 45.9448181,
  "lon": 10.2299756
},
{
  "type": "node",
  "id": 3741927741,
  "lat": 45.9448545,
  "lon": 10.2298824
},
{
  "type": "node",
  "id": 3741927742,
  "lat": 45.9448674,
  "lon": 10.2298168
},
{
  "type": "node",
  "id": 3741927743,
  "lat": 45.9448963,
  "lon": 10.2296863
},
{
  "type": "node",
  "id": 3741927744,
  "lat": 45.9448985,
  "lon": 10.2299003
},
{
  "type": "node",
  "id": 5984137942,
  "lat": 45.9448607,
  "lon": 10.2296637
},
{
  "type": "node",
  "id": 5082669986,
  "lat": 45.9623201,
  "lon": 10.2468684
},
{
  "type": "node",
  "id": 5082669987,
  "lat": 45.9623532,
  "lon": 10.2469279
},
{
  "type": "node",
  "id": 5082670021,
  "lat": 45.9623908,
  "lon": 10.2468846
},
{
  "type": "node",
  "id": 5082670022,
  "lat": 45.9622845,
  "lon": 10.2470068
},
{
  "type": "node",
  "id": 5082670023,
  "lat": 45.9622515,
  "lon": 10.2469472
},
{
  "type": "node",
  "id": 5082670024,
  "lat": 45.9623577,
  "lon": 10.2468251
},
{
  "type": "node",
  "id": 5259610512,
  "lat": 45.9510977,
  "lon": 10.2759627
},
{
  "type": "node",
  "id": 5259610520,
  "lat": 45.9510061,
  "lon": 10.2759010
},
{
  "type": "node",
  "id": 5260770128,
  "lat": 45.9528490,
  "lon": 10.2703402
},
{
  "type": "node",
  "id": 5260770129,
  "lat": 45.9528071,
  "lon": 10.2703227
},
{
  "type": "node",
  "id": 5260770130,
  "lat": 45.9527781,
  "lon": 10.2704515
},
{
  "type": "node",
  "id": 5260770131,
  "lat": 45.9528499,
  "lon": 10.2704568
},
{
  "type": "node",
  "id": 5259610513,
  "lat": 45.9509749,
  "lon": 10.2763398
},
{
  "type": "node",
  "id": 5259610514,
  "lat": 45.9510275,
  "lon": 10.2763753
},
{
  "type": "node",
  "id": 5259610515,
  "lat": 45.9510004,
  "lon": 10.2764586
},
{
  "type": "node",
  "id": 5259610516,
  "lat": 45.9509244,
  "lon": 10.2764074
},
{
  "type": "node",
  "id": 5259610517,
  "lat": 45.9508577,
  "lon": 10.2761983
},
{
  "type": "node",
  "id": 5259610518,
  "lat": 45.9508967,
  "lon": 10.2760787
},
{
  "type": "node",
  "id": 5259610519,
  "lat": 45.9509390,
  "lon": 10.2761072
},
{
  "type": "node",
  "id": 5259611234,
  "lat": 45.9509913,
  "lon": 10.2763509
},
{
  "type": "node",
  "id": 2896342844,
  "lat": 45.9546776,
  "lon": 10.3020125
},
{
  "type": "node",
  "id": 2896342850,
  "lat": 45.9548194,
  "lon": 10.3019123
},
{
  "type": "node",
  "id": 4567078362,
  "lat": 45.9547993,
  "lon": 10.3018524
},
{
  "type": "node",
  "id": 4567078363,
  "lat": 45.9547331,
  "lon": 10.3018574
},
{
  "type": "node",
  "id": 4567078364,
  "lat": 45.9547386,
  "lon": 10.3020079
},
{
  "type": "node",
  "id": 4567078365,
  "lat": 45.9546845,
  "lon": 10.3022028
},
{
  "type": "node",
  "id": 4567078366,
  "lat": 45.9546649,
  "lon": 10.3022043
},
{
  "type": "node",
  "id": 2896338598,
  "lat": 45.9548342,
  "lon": 10.3023203
},
{
  "type": "node",
  "id": 2896342837,
  "lat": 45.9546696,
  "lon": 10.3023326
},
{
  "type": "node",
  "id": 4148596427,
  "lat": 46.0386839,
  "lon": 10.3694394
},
{
  "type": "node",
  "id": 4148596431,
  "lat": 46.0387397,
  "lon": 10.3693450
},
{
  "type": "node",
  "id": 4148596432,
  "lat": 46.0387406,
  "lon": 10.3695090
},
{
  "type": "node",
  "id": 4148596437,
  "lat": 46.0387964,
  "lon": 10.3694147
},
{
  "type": "node",
  "id": 5871729588,
  "lat": 46.0387627,
  "lon": 10.3693733
},
{
  "type": "node",
  "id": 5872297328,
  "lat": 46.0387690,
  "lon": 10.3694610
},
{
  "type": "node",
  "id": 332587986,
  "lat": 46.0748133,
  "lon": 10.3494757
},
{
  "type": "node",
  "id": 332587987,
  "lat": 46.0747543,
  "lon": 10.3491831
},
{
  "type": "node",
  "id": 332587988,
  "lat": 46.0746577,
  "lon": 10.3492236
},
{
  "type": "node",
  "id": 332587989,
  "lat": 46.0746797,
  "lon": 10.3493328
},
{
  "type": "node",
  "id": 332587990,
  "lat": 46.0744081,
  "lon": 10.3494465
},
{
  "type": "node",
  "id": 332587991,
  "lat": 46.0744450,
  "lon": 10.3496299
},
{
  "type": "node",
  "id": 2140590994,
  "lat": 45.7733152,
  "lon": 10.5023205
},
{
  "type": "node",
  "id": 2140590995,
  "lat": 45.7733172,
  "lon": 10.5023751
},
{
  "type": "node",
  "id": 2140590997,
  "lat": 45.7733253,
  "lon": 10.5024129
},
{
  "type": "node",
  "id": 2140590999,
  "lat": 45.7733326,
  "lon": 10.5024455
},
{
  "type": "node",
  "id": 2140591000,
  "lat": 45.7733466,
  "lon": 10.5024718
},
{
  "type": "node",
  "id": 2140591004,
  "lat": 45.7733642,
  "lon": 10.5024971
},
{
  "type": "node",
  "id": 2140591005,
  "lat": 45.7733724,
  "lon": 10.5020891
},
{
  "type": "node",
  "id": 2140591010,
  "lat": 45.7734089,
  "lon": 10.5021100
},
{
  "type": "node",
  "id": 2140591011,
  "lat": 45.7734126,
  "lon": 10.5021279
},
{
  "type": "node",
  "id": 2140591012,
  "lat": 45.7734207,
  "lon": 10.5021510
},
{
  "type": "node",
  "id": 2140591014,
  "lat": 45.7734273,
  "lon": 10.5022309
},
{
  "type": "node",
  "id": 2140591015,
  "lat": 45.7734280,
  "lon": 10.5023614
},
{
  "type": "node",
  "id": 2140591016,
  "lat": 45.7734361,
  "lon": 10.5021678
},
{
  "type": "node",
  "id": 2140591018,
  "lat": 45.7734574,
  "lon": 10.5022457
},
{
  "type": "node",
  "id": 2140591020,
  "lat": 45.7735205,
  "lon": 10.5024056
},
{
  "type": "node",
  "id": 2140591021,
  "lat": 45.7735469,
  "lon": 10.5025823
},
{
  "type": "node",
  "id": 2140591022,
  "lat": 45.7735506,
  "lon": 10.5022878
},
{
  "type": "node",
  "id": 2140591024,
  "lat": 45.7735630,
  "lon": 10.5025844
},
{
  "type": "node",
  "id": 2140591025,
  "lat": 45.7735674,
  "lon": 10.5022373
},
{
  "type": "node",
  "id": 2140591026,
  "lat": 45.7735777,
  "lon": 10.5025760
},
{
  "type": "node",
  "id": 2140591027,
  "lat": 45.7735792,
  "lon": 10.5022141
},
{
  "type": "node",
  "id": 2140591028,
  "lat": 45.7735902,
  "lon": 10.5025613
},
{
  "type": "node",
  "id": 2140591029,
  "lat": 45.7736012,
  "lon": 10.5022015
},
{
  "type": "node",
  "id": 2140591032,
  "lat": 45.7736614,
  "lon": 10.5022383
},
{
  "type": "node",
  "id": 2140591033,
  "lat": 45.7736650,
  "lon": 10.5022856
},
{
  "type": "node",
  "id": 1299494632,
  "lat": 45.7806837,
  "lon": 10.6290649
},
{
  "type": "node",
  "id": 1299494888,
  "lat": 45.7807143,
  "lon": 10.6289492
},
{
  "type": "node",
  "id": 1299495004,
  "lat": 45.7806720,
  "lon": 10.6289262
},
{
  "type": "node",
  "id": 1299495123,
  "lat": 45.7806414,
  "lon": 10.6290420
},
{
  "type": "node",
  "id": 807120959,
  "lat": 45.8491180,
  "lon": 10.6785908
},
{
  "type": "node",
  "id": 807120961,
  "lat": 45.8492330,
  "lon": 10.6786748
},
{
  "type": "node",
  "id": 807120962,
  "lat": 45.8491497,
  "lon": 10.6786732
},
{
  "type": "node",
  "id": 807120964,
  "lat": 45.8490789,
  "lon": 10.6784668
},
{
  "type": "node",
  "id": 807121037,
  "lat": 45.8486393,
  "lon": 10.6787522
},
{
  "type": "node",
  "id": 807121039,
  "lat": 45.8486784,
  "lon": 10.6788763
},
{
  "type": "node",
  "id": 807121046,
  "lat": 45.8492318,
  "lon": 10.6788082
},
{
  "type": "node",
  "id": 807121048,
  "lat": 45.8491485,
  "lon": 10.6788066
},
{
  "type": "node",
  "id": 494068198,
  "lat": 45.8701242,
  "lon": 10.6536356
},
{
  "type": "node",
  "id": 494068201,
  "lat": 45.8700974,
  "lon": 10.6536890
},
{
  "type": "node",
  "id": 494068202,
  "lat": 45.8700237,
  "lon": 10.6536129
},
{
  "type": "node",
  "id": 494068203,
  "lat": 45.8700504,
  "lon": 10.6535594
},
{
  "type": "node",
  "id": 4409761312,
  "lat": 45.8701192,
  "lon": 10.6536456
},
{
  "type": "node",
  "id": 807143294,
  "lat": 45.8740349,
  "lon": 10.7651708
},
{
  "type": "node",
  "id": 807143296,
  "lat": 45.8739620,
  "lon": 10.7651686
},
{
  "type": "node",
  "id": 807143299,
  "lat": 45.8739551,
  "lon": 10.7656341
},
{
  "type": "node",
  "id": 807143301,
  "lat": 45.8740605,
  "lon": 10.7656373
},
{
  "type": "node",
  "id": 4426119768,
  "lat": 45.8740296,
  "lon": 10.7655282
},
{
  "type": "node",
  "id": 4426119770,
  "lat": 45.8740621,
  "lon": 10.7655292
},
{
  "type": "node",
  "id": 6634656050,
  "lat": 45.8739564,
  "lon": 10.7655448
},
{
  "type": "node",
  "id": 983852785,
  "lat": 45.8961064,
  "lon": 10.7175964
},
{
  "type": "node",
  "id": 983853944,
  "lat": 45.8960231,
  "lon": 10.7175239
},
{
  "type": "node",
  "id": 983854207,
  "lat": 45.8959858,
  "lon": 10.7176124
},
{
  "type": "node",
  "id": 983854307,
  "lat": 45.8960690,
  "lon": 10.7176849
},
{
  "type": "node",
  "id": 960228756,
  "lat": 45.9463680,
  "lon": 10.6216838
},
{
  "type": "node",
  "id": 960228786,
  "lat": 45.9466304,
  "lon": 10.6218840
},
{
  "type": "node",
  "id": 960228799,
  "lat": 45.9465358,
  "lon": 10.6215769
},
{
  "type": "node",
  "id": 960228842,
  "lat": 45.9464627,
  "lon": 10.6219909
},
{
  "type": "way",
  "id": 165511610,
  "nodes": [
    2373556672,
    1770502752,
    1770502795,
    2373556682,
    1770502649,
    2373556684,
    1770502594,
    1770502721,
    1796955114,
    2373556688,
    2373556690,
    1770502598,
    1770502597,
    6359265531,
    1770502792,
    1770502696,
    1770502616,
    1770502810,
    1770502725,
    1770502530,
    1770502573,
    1770502579,
    2373556671,
    2373556665,
    1770502724,
    2073084204,
    2373556655,
    2373556660,
    2373556661,
    2373556657,
    1770502679,
    2373556656,
    1770502799,
    1770502690,
    2373556670,
    2373556672
  ]
},
{
  "type": "way",
  "id": 168430468,
  "nodes": [
    1770502534,
    1770502630,
    1770502647,
    1770502772,
    1770502534
  ]
},
{
  "type": "way",
  "id": 430177881,
  "nodes": [
    4294507622,
    4294507608,
    4300896395,
    4294507610,
    4294507625,
    4294507622
  ]
},
{
  "type": "way",
  "id": 430177882,
  "nodes": [
    4294507613,
    4294507615,
    4294507626,
    4294507624,
    4294756993,
    4294507613
  ]
},
{
  "type": "way",
  "id": 430619102,
  "nodes": [
    4294507591,
    4294507594
  ]
},
{
  "type": "way",
  "id": 430619104,
  "nodes": [
    4302213143,
    4294507616,
    4302213142,
    4294507617,
    4294507603,
    4294507602,
    4294767469,
    4294507599,
    4294507597,
    4294767468,
    4294507598,
    4300896394,
    4294507594
  ]
},
{
  "type": "way",
  "id": 430619106,
  "nodes": [
    4294507591,
    4294756990,
    4294507607,
    4294507620
  ]
},
{
  "type": "way",
  "id": 430812188,
  "nodes": [
    4294507620,
    4300846342,
    4300846343,
    4294507635
  ]
},
{
  "type": "way",
  "id": 430982746,
  "nodes": [
    4294507635,
    4294507642,
    4301838593,
    4294507627,
    4302213143
  ]
}

  ]
}
