{
  "version": 0.6,
  "generator": "Overpass API 0.7.55.9 ab41fea6",
  "osm3s": {
    "timestamp_osm_base": "2020-02-14T09:06:01Z",
    "copyright": "The data included in this document is from www.openstreetmap.org. The data is made available under ODbL."
  },
  "elements": [

{
  "type": "node",
  "id": 246181571,
  "lat": 51.7843904,
  "lon": -1.4760849,
  "tags": {
    "name": "Cogges Manor Farm Museum",
    "tourism": "museum",
    "wikidata": "Q5141103"
  }
},
{
  "type": "node",
  "id": 256663228,
  "lat": 51.8633613,
  "lon": -2.2445720,
  "tags": {
    "name": "Museum of Gloucester",
    "tourism": "museum"
  }
},
{
  "type": "node",
  "id": 302826860,
  "lat": 51.4234121,
  "lon": -1.9952871,
  "tags": {
    "name": "Atwell-Wilson Motor Museum",
    "opening_hours": "Apr-Oct: Tu-Su 11:00-17:00;Nov-Mar: Th-Su 11:00-16:00",
    "tourism": "museum"
  }
},
{
  "type": "node",
  "id": 369729598,
  "lat": 51.4575708,
  "lon": -2.1144033,
  "tags": {
    "addr:city": "Chippenham",
    "addr:housenumber": "10",
    "addr:postcode": "SN15 3HF",
    "addr:street": "Market Place",
    "name": "Chippenham Museum & Heritage Centre",
    "tourism": "museum"
  }
},
{
  "type": "node",
  "id": 391470439,
  "lat": 51.5836160,
  "lon": -2.0967983,
  "tags": {
    "name": "Athelstan Museum",
    "tourism": "museum"
  }
},
{
  "type": "node",
  "id": 681753010,
  "lat": 51.9912152,
  "lon": -2.1601083,
  "tags": {
    "name": "John Moore Countryside Museum",
    "tourism": "museum",
    "url": "http://www.johnmooremuseum.org/"
  }
},
{
  "type": "node",
  "id": 762119436,
  "lat": 51.5589782,
  "lon": -1.7811597,
  "tags": {
    "name": "Museum of Computing",
    "tourism": "museum",
    "wikidata": "Q6940808",
    "wikipedia": "en:Museum of Computing"
  }
},
{
  "type": "node",
  "id": 889453436,
  "lat": 51.8671663,
  "lon": -2.2502510,
  "tags": {
    "name": "Folk Museum",
    "source": "OS OpenData StreetView + local knowedge",
    "tourism": "museum"
  }
},
{
  "type": "node",
  "id": 944698729,
  "lat": 51.9691137,
  "lon": -1.9278959,
  "tags": {
    "operator": "English Heritage",
    "source": "gps_survey",
    "tourism": "museum"
  }
},
{
  "type": "node",
  "id": 1290611797,
  "lat": 51.8294488,
  "lon": -1.8358690,
  "tags": {
    "name": "Keith Harding's World of Mechanical Music",
    "tourism": "museum"
  }
},
{
  "type": "node",
  "id": 1716233613,
  "lat": 51.4950612,
  "lon": -2.2263462,
  "tags": {
    "name": "Castle Combe Museum",
    "tourism": "museum"
  }
},
{
  "type": "node",
  "id": 1765066935,
  "lat": 51.9922946,
  "lon": -2.1580402,
  "tags": {
    "addr:housenumber": "100 ",
    "addr:postcode": "GL20 5AB",
    "addr:street": "Church Street",
    "name": "Out of the Hat",
    "tourism": "museum",
    "url": "http://www.outofthehat.org.uk/",
    "wikidata": "Q17539328"
  }
},
{
  "type": "node",
  "id": 2191010050,
  "lat": 51.5527232,
  "lon": -1.7776537,
  "tags": {
    "name": "Swindon Museum",
    "tourism": "museum",
    "wikidata": "Q7658442"
  }
},
{
  "type": "node",
  "id": 2755706956,
  "lat": 51.8956449,
  "lon": -2.1747476,
  "tags": {
    "addr:city": "Gloucester",
    "addr:postcode": "GL2 9QL",
    "addr:street": "Cheltenham Road East",
    "name": "Jet Age Museum",
    "opening_hours": "Sa,Su,PH 10:00-16:00",
    "tourism": "museum",
    "website": "https://www.jetagemuseum.org/",
    "wikidata": "Q15961587"
  }
},
{
  "type": "node",
  "id": 3402889388,
  "lat": 51.9523459,
  "lon": -1.9694618,
  "tags": {
    "addr:housenumber": "23",
    "addr:postcode": "GL54 5LX",
    "addr:street": "Gloucester Street",
    "name": "Winchcombe Railway Museum",
    "tourism": "museum",
    "url": "http://www.winchcomberailwaymuseum.co.uk/"
  }
},
{
  "type": "node",
  "id": 5634986893,
  "lat": 51.4369913,
  "lon": -2.0045536,
  "tags": {
    "addr:city": "Calne",
    "addr:housename": "Carnegie Building",
    "addr:postcode": "SN11 0SQ",
    "addr:street": "New Road",
    "email": "email@calneheritage.co.uk",
    "name": "Calne Heritage Centre",
    "phone": "+44 1249 815 305",
    "tourism": "museum",
    "website": "http://www.calneheritage.co.uk/index.php"
  }
},
{
  "type": "node",
  "id": 6403914393,
  "lat": 51.7885256,
  "lon": -1.4828727,
  "tags": {
    "addr:city": "Witney",
    "addr:housenumber": "100",
    "addr:postcode": "OX28 6HL",
    "addr:street": "High Street",
    "name": "Witney Blanket Hall",
    "tourism": "museum"
  }
},
{
  "type": "way",
  "id": 27832246,
  "nodes": [
    305579302,
    305579303,
    305579305,
    305579306,
    305579302
  ],
  "tags": {
    "building": "yes",
    "name": "Fox Talbot Museum",
    "operator": "National Trust",
    "tourism": "museum",
    "website": "https://www.nationaltrust.org.uk/lacock-abbey-fox-talbot-museum-and-village",
    "wheelchair": "yes",
    "wikidata": "Q26273040"
  }
},
{
  "type": "way",
  "id": 84302238,
  "nodes": [
    980316538,
    980316545,
    980316550,
    980316555,
    980316570,
    980316572,
    980316574,
    980316538
  ],
  "tags": {
    "building": "yes",
    "name": "Corinium Museum",
    "tourism": "museum"
  }
},
{
  "type": "way",
  "id": 89571578,
  "nodes": [
    1038284111,
    1038284098,
    1038284108,
    1038284088,
    2747785123,
    2747785125,
    1038284111
  ],
  "tags": {
    "addr:postcode": "GL1 2EH",
    "building": "yes",
    "building_name": "Llanthony Warehouse",
    "name": "Gloucester Waterways Museum",
    "tourism": "museum"
  }
},
{
  "type": "way",
  "id": 106253639,
  "nodes": [
    367040649,
    1223062912,
    1223063374,
    1223063284,
    1223063104,
    1223062996,
    1223063395,
    1223063352,
    1223063182,
    1223063048,
    1223062862,
    1223063394,
    367040649
  ],
  "tags": {
    "addr:housename": "The Chantry",
    "addr:postcode": "GL13 9BN",
    "addr:street": "Church Lane",
    "building": "yes",
    "name": "Jenner Museum",
    "tourism": "museum",
    "wikidata": "Q5343755"
  }
},
{
  "type": "way",
  "id": 122583297,
  "nodes": [
    1369390106,
    6396841639,
    6396841619,
    1369390092,
    1677537345,
    1369390087,
    1369390082,
    1369390074,
    1369390090,
    1369390106
  ],
  "tags": {
    "addr:city": "Swindon",
    "addr:housename": "STEAM - Museum of the Great Western Railway",
    "addr:postcode": "SN2 2EY",
    "addr:street": "Fire Fly Avenue",
    "alt_name": "STEAM",
    "alt_name_1": "Museum of the Great Western Railway",
    "alt_name_2": "STEAM Museum of the Great Western Railway",
    "alt_name_3": "Swindon Steam Railway Museum",
    "building": "yes",
    "name": "STEAM - Museum of the Great Western Railway",
    "phone": "+44 1793 466646",
    "tourism": "museum",
    "website": "https://www.steam-museum.org.uk/",
    "wikidata": "Q3978805",
    "wikipedia": "en:Museum of the Great Western Railway"
  }
},
{
  "type": "way",
  "id": 137648863,
  "nodes": [
    1509685848,
    1509685840,
    1509685838,
    1509685825,
    1509685808,
    1509685811,
    1509685824,
    1509685837,
    1509685855,
    1509685848
  ],
  "tags": {
    "building": "house",
    "name": "Swinford Museum",
    "source:geometry": "Bing",
    "tourism": "museum"
  }
},
{
  "type": "way",
  "id": 137725840,
  "nodes": [
    1510322755,
    5321004781,
    5321004780,
    1510322769,
    1510322758,
    2715770124,
    2715770013,
    2715769933,
    2715770056,
    1510322761,
    6226249535,
    1510322755
  ],
  "tags": {
    "building": "yes",
    "name": "Wiltshire and Swindon History Centre",
    "operator": "Wiltshire Council",
    "tourism": "museum"
  }
},
{
  "type": "way",
  "id": 162785101,
  "nodes": [
    1746060765,
    1746060762,
    1746060763,
    1746060766,
    1746060765
  ],
  "tags": {
    "building": "yes",
    "fee": "yes",
    "historic": "building",
    "name": "Avebury Tithe Barn/Alexander Keiller Museum",
    "opening_hours": "Mo-Su 10:00-18:00",
    "operator": "National Trust",
    "tourism": "museum",
    "website": "https://www.nationaltrust.org.uk/avebury/",
    "wheelchair": "yes"
  }
},
{
  "type": "way",
  "id": 165991865,
  "nodes": [
    1774881817,
    1774881553,
    1774881824,
    1774881625,
    3929838559,
    1774881756,
    1774881728,
    1774881682,
    1774881752,
    1774881701,
    1774881556,
    1774881815,
    3959965103,
    3959965102,
    3959965101,
    1774881641,
    1774881672,
    1774881803,
    1774881588,
    1774881817
  ],
  "tags": {
    "addr:city": "Cheltenham",
    "addr:postcode": "GL50 3JT",
    "addr:street": "Clarence Street",
    "alt_name": "The Wilson Cheltenham Art Gallery & Museum",
    "building": "public",
    "name": "The Wilson",
    "old_name": "Cheltenham Art Gallery & Museum",
    "opening_hours": "Mo-Sa 09:30-17:15; Th 09:30-19:45; Su 11:00-16:00",
    "tourism": "museum",
    "website": "https://www.cheltenhammuseum.org.uk/"
  }
},
{
  "type": "way",
  "id": 167785261,
  "nodes": [
    1791440737,
    1791440718,
    1791440754,
    1791440732,
    1791440750,
    1791440649,
    1791440640,
    1791440737
  ],
  "tags": {
    "addr:housenumber": "4",
    "addr:street": "Clarence Road",
    "building": "museum",
    "name": "Holst Birthplace Museum",
    "tourism": "museum",
    "website": "http://www.holstmuseum.org.uk"
  }
},
{
  "type": "way",
  "id": 168417703,
  "nodes": [
    1796884816,
    1796884779,
    1796884768,
    1796884804,
    1796884767,
    1796884806,
    1796884811,
    1796884800,
    1796884773,
    6612071265,
    1796884820,
    1796884790,
    1796884825,
    1796884763,
    6612071261,
    1796884777,
    1796884766,
    1796884781,
    1796884776,
    1796884799,
    1796884782,
    1796884816
  ],
  "tags": {
    "addr:postcode": "GL5 4AF",
    "building": "yes",
    "name": "The Museum in the Park",
    "tourism": "museum",
    "website": "https://museuminthepark.org.uk/",
    "wikidata": "Q26557846"
  }
},
{
  "type": "way",
  "id": 178396670,
  "nodes": [
    1887484255,
    1887484258,
    1887484257,
    1887484254,
    1887484253,
    1887484250,
    1887484247,
    1887484249,
    1887484251,
    1887484255
  ],
  "tags": {
    "building": "yes",
    "name": "Richard Jefferies Museum",
    "tourism": "museum",
    "wikidata": "Q26495086"
  }
},
{
  "type": "way",
  "id": 269596620,
  "nodes": [
    2747755719,
    2747755721,
    2747755722,
    2747755724,
    2747755720,
    2747755715,
    2747755717,
    2747755714,
    2747755719
  ],
  "tags": {
    "building": "yes",
    "fee": "yes",
    "name": "Soldiers of Gloucestershire",
    "tourism": "museum"
  }
},
{
  "type": "way",
  "id": 275356458,
  "nodes": [
    2799984816,
    2799984817,
    2799984818,
    2799984819,
    2799984820,
    4091069448,
    2799984821,
    2799984822,
    2799984823,
    2799984816
  ],
  "tags": {
    "addr:city": "Wotton-under-Edge",
    "addr:postcode": "GL12 7AD",
    "addr:street": "The Chipping",
    "building": "yes",
    "fhrs:id": "216131",
    "name": "Wotton-under-Edge Heritage Centre",
    "tourism": "museum",
    "website": "https://www.wottonheritage.com/"
  }
},
{
  "type": "way",
  "id": 409571124,
  "nodes": [
    4114601295,
    4452418924,
    4114601297,
    4114601298,
    4114601295
  ],
  "tags": {
    "building": "yes",
    "name": "Tom Brown's School Museum",
    "tourism": "museum",
    "wikidata": "Q26309408"
  }
},
{
  "type": "way",
  "id": 447214717,
  "nodes": [
    4443895067,
    4443895068,
    4443895069,
    4443895070,
    4443895071,
    4443895072,
    4443895058,
    4443895067
  ],
  "tags": {
    "building": "yes",
    "name": "Lydiard House",
    "tourism": "museum",
    "wikidata": "Q6707712"
  }
},
{
  "type": "way",
  "id": 448624720,
  "nodes": [
    668950249,
    4456210629,
    4456210618,
    4456210627,
    4456209757,
    668950249
  ],
  "tags": {
    "addr:city": "Bourton-on-the-Water",
    "addr:country": "GB",
    "addr:housename": "The Old Mill",
    "addr:postcode": "GL54 2BY",
    "contact:email": "museum@cotswoldmotormuseum.co.uk",
    "contact:phone": "+44 (0)1451 821255",
    "contact:website": "cotswoldmotoingrmuseum.co.uk",
    "name": "Cotswold Motoring Museum & Toy Collection",
    "operator": "Boundless by CSMA",
    "tourism": "museum"
  }
},
{
  "type": "way",
  "id": 451044101,
  "nodes": [
    4478984787,
    4478984788,
    4478985489,
    4478985490,
    4478984787
  ],
  "tags": {
    "building": "yes",
    "name": "Royal Wottoon Bassett Museum",
    "opening_hours": "We,Sa 10:00-12:00",
    "tourism": "museum"
  }
},
{
  "type": "way",
  "id": 457209488,
  "nodes": [
    4254088125,
    4254088126,
    5496853085,
    4254088135,
    5496853086,
    4254088141,
    4254088143,
    4533841828,
    4533841829,
    5490657293,
    4445969633,
    4533841830,
    4533841831,
    4155683329,
    4533841832,
    4533841833,
    4533841834,
    4254088125
  ],
  "tags": {
    "tourism": "museum"
  }
},
{
  "type": "way",
  "id": 504445705,
  "nodes": [
    4946078499,
    4946078494,
    4946078493,
    4946078492,
    4946078481,
    539530945,
    4946078308,
    4946078491,
    4946078490,
    4946078489,
    4946078488,
    4946078487,
    4946078486,
    4946078485,
    4946078484,
    4946078483,
    4946078482,
    4946078499
  ],
  "tags": {
    "addr:city": "Tetbury",
    "addr:housename": "The Old Courthouse",
    "addr:housename2": "Police Station and Re Sessional Court",
    "addr:housenumber": "63",
    "addr:postcode": "GL8 8AA",
    "addr:street": "Long Street",
    "building": "yes",
    "name": "Tetbury Police Museum & Courtroom",
    "tourism": "museum"
  }
},
{
  "type": "way",
  "id": 604762185,
  "nodes": [
    5737660871,
    5737660870,
    5737660869,
    5737660868,
    5737660867,
    5737660866,
    5737660865,
    5737660864,
    5737660872,
    5737660871
  ],
  "tags": {
    "building": "yes",
    "name": "Tolsey Museum",
    "tourism": "museum"
  }
},
{
  "type": "way",
  "id": 679205531,
  "nodes": [
    6360053697,
    1709107829,
    6360053699,
    6360053698,
    6360053697
  ],
  "tags": {
    "building": "yes",
    "name": "The Witney & District Museum",
    "tourism": "museum"
  }
},
{
  "type": "way",
  "id": 696525612,
  "nodes": [
    6541050873,
    6541050852,
    6541050843,
    6541050853,
    6541050871,
    6541050866,
    6541050873
  ],
  "tags": {
    "addr:housenumber": "64",
    "addr:postcode": "GL20 5PX",
    "addr:street": "Barton Street",
    "building": "yes",
    "name": "Tewkesbury Museum",
    "source": "Bing",
    "tourism": "museum",
    "website": "https://www.tewkesburymuseum.org/",
    "wikidata": "Q7707197"
  }
},
{
  "type": "way",
  "id": 696732675,
  "nodes": [
    6534045831,
    6543080719,
    6543080714,
    6543080721,
    6543080716,
    6543080722,
    6543080724,
    6543080713,
    6534045831
  ],
  "tags": {
    "building": "yes",
    "name": "Winchcombe Museum",
    "source:outline": "Bing",
    "tourism": "museum"
  }
},
{
  "type": "relation",
  "id": 6755933,
  "members": [
    {
      "type": "way",
      "ref": 414421729,
      "role": "outer"
    },
    {
      "type": "way",
      "ref": 457209489,
      "role": "outer"
    }
  ],
  "tags": {
    "addr:city": "Lyneham",
    "addr:housename": "MoD Lynahm",
    "addr:postcode": "SN15 4XX",
    "addr:street": "Calne Road",
    "building": "yes",
    "name": "REME Museum",
    "opening_hours": "Tu-Sa 10:00-16:30",
    "operator": "REME Museum",
    "phone": "+44 1249 89 4869",
    "tourism": "museum",
    "type": "multipolygon",
    "website": "https://www.rememuseum.org.uk/",
    "wheelchair": "yes",
    "wikidata": "Q7276351"
  }
},
{
  "type": "node",
  "id": 305579302,
  "lat": 51.4146989,
  "lon": -2.1203810
},
{
  "type": "node",
  "id": 305579303,
  "lat": 51.4146383,
  "lon": -2.1204250
},
{
  "type": "node",
  "id": 305579305,
  "lat": 51.4145484,
  "lon": -2.1201141
},
{
  "type": "node",
  "id": 305579306,
  "lat": 51.4146090,
  "lon": -2.1200687
},
{
  "type": "node",
  "id": 1510322755,
  "lat": 51.4641641,
  "lon": -2.1092679
},
{
  "type": "node",
  "id": 1510322758,
  "lat": 51.4636262,
  "lon": -2.1085907
},
{
  "type": "node",
  "id": 1510322761,
  "lat": 51.4639026,
  "lon": -2.1093372
},
{
  "type": "node",
  "id": 1510322769,
  "lat": 51.4641261,
  "lon": -2.1084327
},
{
  "type": "node",
  "id": 2715769933,
  "lat": 51.4637328,
  "lon": -2.1091640
},
{
  "type": "node",
  "id": 2715770013,
  "lat": 51.4637018,
  "lon": -2.1088684
},
{
  "type": "node",
  "id": 2715770056,
  "lat": 51.4638794,
  "lon": -2.1091218
},
{
  "type": "node",
  "id": 2715770124,
  "lat": 51.4636604,
  "lon": -2.1088804
},
{
  "type": "node",
  "id": 5321004780,
  "lat": 51.4641840,
  "lon": -2.1090418
},
{
  "type": "node",
  "id": 5321004781,
  "lat": 51.4641471,
  "lon": -2.1090531
},
{
  "type": "node",
  "id": 6226249535,
  "lat": 51.4639780,
  "lon": -2.1093172
},
{
  "type": "node",
  "id": 4155683302,
  "lat": 51.5047100,
  "lon": -1.9704268
},
{
  "type": "node",
  "id": 4155683303,
  "lat": 51.5043790,
  "lon": -1.9704226
},
{
  "type": "node",
  "id": 4155683304,
  "lat": 51.5043816,
  "lon": -1.9702902
},
{
  "type": "node",
  "id": 4155683305,
  "lat": 51.5041671,
  "lon": -1.9702755
},
{
  "type": "node",
  "id": 4155683306,
  "lat": 51.5041671,
  "lon": -1.9700443
},
{
  "type": "node",
  "id": 4155683307,
  "lat": 51.5043908,
  "lon": -1.9700548
},
{
  "type": "node",
  "id": 4155683308,
  "lat": 51.5043908,
  "lon": -1.9699329
},
{
  "type": "node",
  "id": 4155683309,
  "lat": 51.5043542,
  "lon": -1.9699308
},
{
  "type": "node",
  "id": 4155683310,
  "lat": 51.5043570,
  "lon": -1.9695637
},
{
  "type": "node",
  "id": 4155683311,
  "lat": 51.5046007,
  "lon": -1.9695736
},
{
  "type": "node",
  "id": 4155683312,
  "lat": 51.5046058,
  "lon": -1.9693157
},
{
  "type": "node",
  "id": 4155683313,
  "lat": 51.5047171,
  "lon": -1.9693225
},
{
  "type": "node",
  "id": 4155683314,
  "lat": 51.5047152,
  "lon": -1.9694033
},
{
  "type": "node",
  "id": 4155683315,
  "lat": 51.5049109,
  "lon": -1.9694053
},
{
  "type": "node",
  "id": 4155683316,
  "lat": 51.5048809,
  "lon": -1.9697185
},
{
  "type": "node",
  "id": 4155683317,
  "lat": 51.5047200,
  "lon": -1.9697158
},
{
  "type": "node",
  "id": 4155683329,
  "lat": 51.5052741,
  "lon": -1.9698977
},
{
  "type": "node",
  "id": 4254088125,
  "lat": 51.5047070,
  "lon": -1.9710601
},
{
  "type": "node",
  "id": 4254088126,
  "lat": 51.5039860,
  "lon": -1.9710544
},
{
  "type": "node",
  "id": 4254088135,
  "lat": 51.5040080,
  "lon": -1.9689234
},
{
  "type": "node",
  "id": 4254088141,
  "lat": 51.5047839,
  "lon": -1.9686640
},
{
  "type": "node",
  "id": 4254088143,
  "lat": 51.5051997,
  "lon": -1.9686529
},
{
  "type": "node",
  "id": 4445969633,
  "lat": 51.5051201,
  "lon": -1.9697894
},
{
  "type": "node",
  "id": 4533841819,
  "lat": 51.5044423,
  "lon": -1.9704234
},
{
  "type": "node",
  "id": 4533841820,
  "lat": 51.5044423,
  "lon": -1.9704807
},
{
  "type": "node",
  "id": 4533841821,
  "lat": 51.5045109,
  "lon": -1.9704843
},
{
  "type": "node",
  "id": 4533841822,
  "lat": 51.5045118,
  "lon": -1.9704270
},
{
  "type": "node",
  "id": 4533841823,
  "lat": 51.5048824,
  "lon": -1.9696061
},
{
  "type": "node",
  "id": 4533841824,
  "lat": 51.5049085,
  "lon": -1.9696070
},
{
  "type": "node",
  "id": 4533841828,
  "lat": 51.5051320,
  "lon": -1.9690521
},
{
  "type": "node",
  "id": 4533841829,
  "lat": 51.5051193,
  "lon": -1.9697508
},
{
  "type": "node",
  "id": 4533841830,
  "lat": 51.5051216,
  "lon": -1.9698564
},
{
  "type": "node",
  "id": 4533841831,
  "lat": 51.5052463,
  "lon": -1.9698614
},
{
  "type": "node",
  "id": 4533841832,
  "lat": 51.5053143,
  "lon": -1.9699546
},
{
  "type": "node",
  "id": 4533841833,
  "lat": 51.5050067,
  "lon": -1.9709027
},
{
  "type": "node",
  "id": 4533841834,
  "lat": 51.5047151,
  "lon": -1.9708844
},
{
  "type": "node",
  "id": 4533841835,
  "lat": 51.5047193,
  "lon": -1.9698663
},
{
  "type": "node",
  "id": 4533841836,
  "lat": 51.5047371,
  "lon": -1.9698673
},
{
  "type": "node",
  "id": 4533841837,
  "lat": 51.5047384,
  "lon": -1.9698017
},
{
  "type": "node",
  "id": 4533841838,
  "lat": 51.5047183,
  "lon": -1.9697998
},
{
  "type": "node",
  "id": 5490657293,
  "lat": 51.5051195,
  "lon": -1.9697613
},
{
  "type": "node",
  "id": 5490657297,
  "lat": 51.5047376,
  "lon": -1.9698402
},
{
  "type": "node",
  "id": 5496853085,
  "lat": 51.5040025,
  "lon": -1.9694563
},
{
  "type": "node",
  "id": 5496853086,
  "lat": 51.5042165,
  "lon": -1.9688537
},
{
  "type": "node",
  "id": 5496853091,
  "lat": 51.5045673,
  "lon": -1.9695712
},
{
  "type": "node",
  "id": 5496853096,
  "lat": 51.5046001,
  "lon": -1.9695592
},
{
  "type": "node",
  "id": 5496853097,
  "lat": 51.5047182,
  "lon": -1.9699334
},
{
  "type": "node",
  "id": 5496853100,
  "lat": 51.5047194,
  "lon": -1.9697433
},
{
  "type": "node",
  "id": 4478984787,
  "lat": 51.5416751,
  "lon": -1.9049680
},
{
  "type": "node",
  "id": 4478984788,
  "lat": 51.5417606,
  "lon": -1.9048405
},
{
  "type": "node",
  "id": 4478985489,
  "lat": 51.5417194,
  "lon": -1.9047691
},
{
  "type": "node",
  "id": 4478985490,
  "lat": 51.5416339,
  "lon": -1.9048966
},
{
  "type": "node",
  "id": 1746060762,
  "lat": 51.4291644,
  "lon": -1.8573609
},
{
  "type": "node",
  "id": 1746060763,
  "lat": 51.4291724,
  "lon": -1.8568151
},
{
  "type": "node",
  "id": 1746060765,
  "lat": 51.4292757,
  "lon": -1.8573647
},
{
  "type": "node",
  "id": 1746060766,
  "lat": 51.4292843,
  "lon": -1.8568227
},
{
  "type": "node",
  "id": 4443895058,
  "lat": 51.5615710,
  "lon": -1.8518420
},
{
  "type": "node",
  "id": 4443895067,
  "lat": 51.5615640,
  "lon": -1.8518586
},
{
  "type": "node",
  "id": 4443895068,
  "lat": 51.5614813,
  "lon": -1.8519723
},
{
  "type": "node",
  "id": 4443895069,
  "lat": 51.5612486,
  "lon": -1.8514953
},
{
  "type": "node",
  "id": 4443895070,
  "lat": 51.5614123,
  "lon": -1.8512624
},
{
  "type": "node",
  "id": 4443895071,
  "lat": 51.5614727,
  "lon": -1.8513539
},
{
  "type": "node",
  "id": 4443895072,
  "lat": 51.5614020,
  "lon": -1.8515009
},
{
  "type": "node",
  "id": 1369390074,
  "lat": 51.5623582,
  "lon": -1.7949443
},
{
  "type": "node",
  "id": 1369390082,
  "lat": 51.5624357,
  "lon": -1.7947613
},
{
  "type": "node",
  "id": 1369390087,
  "lat": 51.5622673,
  "lon": -1.7945789
},
{
  "type": "node",
  "id": 1369390090,
  "lat": 51.5627238,
  "lon": -1.7953430
},
{
  "type": "node",
  "id": 1369390092,
  "lat": 51.5633561,
  "lon": -1.7948713
},
{
  "type": "node",
  "id": 1369390106,
  "lat": 51.5630163,
  "lon": -1.7956524
},
{
  "type": "node",
  "id": 1677537345,
  "lat": 51.5625273,
  "lon": -1.7939878
},
{
  "type": "node",
  "id": 6396841619,
  "lat": 51.5633252,
  "lon": -1.7949422
},
{
  "type": "node",
  "id": 6396841639,
  "lat": 51.5632898,
  "lon": -1.7950236
},
{
  "type": "node",
  "id": 1887484255,
  "lat": 51.5446648,
  "lon": -1.7432642
},
{
  "type": "node",
  "id": 1887484247,
  "lat": 51.5445362,
  "lon": -1.7430630
},
{
  "type": "node",
  "id": 1887484249,
  "lat": 51.5445575,
  "lon": -1.7431493
},
{
  "type": "node",
  "id": 1887484250,
  "lat": 51.5446044,
  "lon": -1.7430195
},
{
  "type": "node",
  "id": 1887484251,
  "lat": 51.5446257,
  "lon": -1.7431057
},
{
  "type": "node",
  "id": 1887484253,
  "lat": 51.5446390,
  "lon": -1.7429974
},
{
  "type": "node",
  "id": 1887484254,
  "lat": 51.5446603,
  "lon": -1.7430837
},
{
  "type": "node",
  "id": 1887484257,
  "lat": 51.5446815,
  "lon": -1.7430702
},
{
  "type": "node",
  "id": 1887484258,
  "lat": 51.5447206,
  "lon": -1.7432286
},
{
  "type": "node",
  "id": 4114601295,
  "lat": 51.6011713,
  "lon": -1.5651165
},
{
  "type": "node",
  "id": 4114601297,
  "lat": 51.6012456,
  "lon": -1.5649679
},
{
  "type": "node",
  "id": 4114601298,
  "lat": 51.6012407,
  "lon": -1.5651222
},
{
  "type": "node",
  "id": 4452418924,
  "lat": 51.6011761,
  "lon": -1.5649623
},
{
  "type": "node",
  "id": 367040649,
  "lat": 51.6903090,
  "lon": -2.4575443
},
{
  "type": "node",
  "id": 1223062862,
  "lat": 51.6901679,
  "lon": -2.4573722
},
{
  "type": "node",
  "id": 1223062912,
  "lat": 51.6902978,
  "lon": -2.4573882
},
{
  "type": "node",
  "id": 1223062996,
  "lat": 51.6902519,
  "lon": -2.4570691
},
{
  "type": "node",
  "id": 1223063048,
  "lat": 51.6902390,
  "lon": -2.4573589
},
{
  "type": "node",
  "id": 1223063104,
  "lat": 51.6902658,
  "lon": -2.4572618
},
{
  "type": "node",
  "id": 1223063182,
  "lat": 51.6902328,
  "lon": -2.4572731
},
{
  "type": "node",
  "id": 1223063284,
  "lat": 51.6903392,
  "lon": -2.4572480
},
{
  "type": "node",
  "id": 1223063352,
  "lat": 51.6902144,
  "lon": -2.4572766
},
{
  "type": "node",
  "id": 1223063374,
  "lat": 51.6903486,
  "lon": -2.4573787
},
{
  "type": "node",
  "id": 1223063394,
  "lat": 51.6901820,
  "lon": -2.4575680
},
{
  "type": "node",
  "id": 1223063395,
  "lat": 51.6902002,
  "lon": -2.4570788
},
{
  "type": "node",
  "id": 2799984816,
  "lat": 51.6368142,
  "lon": -2.3539722
},
{
  "type": "node",
  "id": 2799984817,
  "lat": 51.6367687,
  "lon": -2.3537938
},
{
  "type": "node",
  "id": 2799984818,
  "lat": 51.6366721,
  "lon": -2.3538595
},
{
  "type": "node",
  "id": 2799984819,
  "lat": 51.6366891,
  "lon": -2.3539242
},
{
  "type": "node",
  "id": 2799984820,
  "lat": 51.6367198,
  "lon": -2.3539032
},
{
  "type": "node",
  "id": 2799984821,
  "lat": 51.6367426,
  "lon": -2.3539900
},
{
  "type": "node",
  "id": 2799984822,
  "lat": 51.6367634,
  "lon": -2.3539758
},
{
  "type": "node",
  "id": 2799984823,
  "lat": 51.6367694,
  "lon": -2.3539986
},
{
  "type": "node",
  "id": 4091069448,
  "lat": 51.6367317,
  "lon": -2.3539485
},
{
  "type": "node",
  "id": 539530945,
  "lat": 51.6390708,
  "lon": -2.1618150
},
{
  "type": "node",
  "id": 4946078308,
  "lat": 51.6390802,
  "lon": -2.1616913
},
{
  "type": "node",
  "id": 4946078481,
  "lat": 51.6390118,
  "lon": -2.1618034
},
{
  "type": "node",
  "id": 4946078482,
  "lat": 51.6389365,
  "lon": -2.1617626
},
{
  "type": "node",
  "id": 4946078483,
  "lat": 51.6389272,
  "lon": -2.1617608
},
{
  "type": "node",
  "id": 4946078484,
  "lat": 51.6389328,
  "lon": -2.1616872
},
{
  "type": "node",
  "id": 4946078485,
  "lat": 51.6389447,
  "lon": -2.1616895
},
{
  "type": "node",
  "id": 4946078486,
  "lat": 51.6389503,
  "lon": -2.1616151
},
{
  "type": "node",
  "id": 4946078487,
  "lat": 51.6390053,
  "lon": -2.1616259
},
{
  "type": "node",
  "id": 4946078488,
  "lat": 51.6390029,
  "lon": -2.1616574
},
{
  "type": "node",
  "id": 4946078489,
  "lat": 51.6390480,
  "lon": -2.1616663
},
{
  "type": "node",
  "id": 4946078490,
  "lat": 51.6390496,
  "lon": -2.1616451
},
{
  "type": "node",
  "id": 4946078491,
  "lat": 51.6390832,
  "lon": -2.1616517
},
{
  "type": "node",
  "id": 4946078492,
  "lat": 51.6389954,
  "lon": -2.1618002
},
{
  "type": "node",
  "id": 4946078493,
  "lat": 51.6389949,
  "lon": -2.1618068
},
{
  "type": "node",
  "id": 4946078494,
  "lat": 51.6389341,
  "lon": -2.1617949
},
{
  "type": "node",
  "id": 4946078499,
  "lat": 51.6389348,
  "lon": -2.1617849
},
{
  "type": "node",
  "id": 1796884763,
  "lat": 51.7498274,
  "lon": -2.2239764
},
{
  "type": "node",
  "id": 1796884766,
  "lat": 51.7494954,
  "lon": -2.2241147
},
{
  "type": "node",
  "id": 1796884767,
  "lat": 51.7495893,
  "lon": -2.2235806
},
{
  "type": "node",
  "id": 1796884768,
  "lat": 51.7495717,
  "lon": -2.2236233
},
{
  "type": "node",
  "id": 1796884773,
  "lat": 51.7498066,
  "lon": -2.2236240
},
{
  "type": "node",
  "id": 1796884776,
  "lat": 51.7496004,
  "lon": -2.2240534
},
{
  "type": "node",
  "id": 1796884777,
  "lat": 51.7495670,
  "lon": -2.2242738
},
{
  "type": "node",
  "id": 1796884779,
  "lat": 51.7495897,
  "lon": -2.2236252
},
{
  "type": "node",
  "id": 1796884781,
  "lat": 51.7495863,
  "lon": -2.2240182
},
{
  "type": "node",
  "id": 1796884782,
  "lat": 51.7497168,
  "lon": -2.2237223
},
{
  "type": "node",
  "id": 1796884790,
  "lat": 51.7498049,
  "lon": -2.2238025
},
{
  "type": "node",
  "id": 1796884799,
  "lat": 51.7497300,
  "lon": -2.2239057
},
{
  "type": "node",
  "id": 1796884800,
  "lat": 51.7497712,
  "lon": -2.2236203
},
{
  "type": "node",
  "id": 1796884804,
  "lat": 51.7495735,
  "lon": -2.2235790
},
{
  "type": "node",
  "id": 1796884806,
  "lat": 51.7495926,
  "lon": -2.2234975
},
{
  "type": "node",
  "id": 1796884811,
  "lat": 51.7497754,
  "lon": -2.2235164
},
{
  "type": "node",
  "id": 1796884816,
  "lat": 51.7495865,
  "lon": -2.2237081
},
{
  "type": "node",
  "id": 1796884820,
  "lat": 51.7498024,
  "lon": -2.2237304
},
{
  "type": "node",
  "id": 1796884825,
  "lat": 51.7498176,
  "lon": -2.2238013
},
{
  "type": "node",
  "id": 6612071261,
  "lat": 51.7495992,
  "lon": -2.2242370
},
{
  "type": "node",
  "id": 6612071265,
  "lat": 51.7498030,
  "lon": -2.2237143
},
{
  "type": "node",
  "id": 1038284088,
  "lat": 51.8618053,
  "lon": -2.2522021
},
{
  "type": "node",
  "id": 1038284098,
  "lat": 51.8618371,
  "lon": -2.2530505
},
{
  "type": "node",
  "id": 1038284111,
  "lat": 51.8616908,
  "lon": -2.2525648
},
{
  "type": "node",
  "id": 2747785123,
  "lat": 51.8617597,
  "lon": -2.2522381
},
{
  "type": "node",
  "id": 2747785125,
  "lat": 51.8618260,
  "lon": -2.2524580
},
{
  "type": "node",
  "id": 1038284108,
  "lat": 51.8620179,
  "lon": -2.2529077
},
{
  "type": "node",
  "id": 2747755714,
  "lat": 51.8637363,
  "lon": -2.2500533
},
{
  "type": "node",
  "id": 2747755715,
  "lat": 51.8637513,
  "lon": -2.2499753
},
{
  "type": "node",
  "id": 2747755717,
  "lat": 51.8637689,
  "lon": -2.2500106
},
{
  "type": "node",
  "id": 2747755719,
  "lat": 51.8638320,
  "lon": -2.2502450
},
{
  "type": "node",
  "id": 2747755720,
  "lat": 51.8638450,
  "lon": -2.2498526
},
{
  "type": "node",
  "id": 2747755721,
  "lat": 51.8638645,
  "lon": -2.2502024
},
{
  "type": "node",
  "id": 2747755722,
  "lat": 51.8638909,
  "lon": -2.2502551
},
{
  "type": "node",
  "id": 2747755724,
  "lat": 51.8639847,
  "lon": -2.2501323
},
{
  "type": "node",
  "id": 6541050843,
  "lat": 51.9925759,
  "lon": -2.1551878
},
{
  "type": "node",
  "id": 6541050852,
  "lat": 51.9927040,
  "lon": -2.1552218
},
{
  "type": "node",
  "id": 6541050853,
  "lat": 51.9925681,
  "lon": -2.1552650
},
{
  "type": "node",
  "id": 6541050866,
  "lat": 51.9925995,
  "lon": -2.1553508
},
{
  "type": "node",
  "id": 6541050871,
  "lat": 51.9926071,
  "lon": -2.1552753
},
{
  "type": "node",
  "id": 6541050873,
  "lat": 51.9926887,
  "lon": -2.1553745
},
{
  "type": "node",
  "id": 980316538,
  "lat": 51.7172667,
  "lon": -1.9708361
},
{
  "type": "node",
  "id": 980316545,
  "lat": 51.7174196,
  "lon": -1.9707931
},
{
  "type": "node",
  "id": 980316550,
  "lat": 51.7174860,
  "lon": -1.9708575
},
{
  "type": "node",
  "id": 980316555,
  "lat": 51.7176788,
  "lon": -1.9709112
},
{
  "type": "node",
  "id": 980316570,
  "lat": 51.7177253,
  "lon": -1.9705893
},
{
  "type": "node",
  "id": 980316572,
  "lat": 51.7174594,
  "lon": -1.9704927
},
{
  "type": "node",
  "id": 980316574,
  "lat": 51.7172534,
  "lon": -1.9702889
},
{
  "type": "node",
  "id": 1774881553,
  "lat": 51.9011214,
  "lon": -2.0778109
},
{
  "type": "node",
  "id": 1774881588,
  "lat": 51.9011463,
  "lon": -2.0776246
},
{
  "type": "node",
  "id": 1774881625,
  "lat": 51.9011397,
  "lon": -2.0778784
},
{
  "type": "node",
  "id": 1774881682,
  "lat": 51.9012430,
  "lon": -2.0780414
},
{
  "type": "node",
  "id": 1774881728,
  "lat": 51.9011875,
  "lon": -2.0779328
},
{
  "type": "node",
  "id": 1774881756,
  "lat": 51.9011776,
  "lon": -2.0779476
},
{
  "type": "node",
  "id": 1774881803,
  "lat": 51.9012117,
  "lon": -2.0775397
},
{
  "type": "node",
  "id": 1774881817,
  "lat": 51.9011912,
  "lon": -2.0777155
},
{
  "type": "node",
  "id": 1774881824,
  "lat": 51.9011114,
  "lon": -2.0778215
},
{
  "type": "node",
  "id": 3929838559,
  "lat": 51.9011625,
  "lon": -2.0779200
},
{
  "type": "node",
  "id": 1774881556,
  "lat": 51.9014186,
  "lon": -2.0778241
},
{
  "type": "node",
  "id": 1774881641,
  "lat": 51.9012942,
  "lon": -2.0775751
},
{
  "type": "node",
  "id": 1774881701,
  "lat": 51.9012993,
  "lon": -2.0779918
},
{
  "type": "node",
  "id": 1774881752,
  "lat": 51.9012870,
  "lon": -2.0779716
},
{
  "type": "node",
  "id": 1774881815,
  "lat": 51.9013433,
  "lon": -2.0776748
},
{
  "type": "node",
  "id": 3959965101,
  "lat": 51.9012988,
  "lon": -2.0775707
},
{
  "type": "node",
  "id": 3959965102,
  "lat": 51.9013229,
  "lon": -2.0776202
},
{
  "type": "node",
  "id": 3959965103,
  "lat": 51.9013451,
  "lon": -2.0776660
},
{
  "type": "node",
  "id": 1774881672,
  "lat": 51.9012652,
  "lon": -2.0774755
},
{
  "type": "node",
  "id": 1791440640,
  "lat": 51.9039727,
  "lon": -2.0706502
},
{
  "type": "node",
  "id": 1791440649,
  "lat": 51.9040016,
  "lon": -2.0706327
},
{
  "type": "node",
  "id": 1791440718,
  "lat": 51.9039905,
  "lon": -2.0705815
},
{
  "type": "node",
  "id": 1791440732,
  "lat": 51.9040887,
  "lon": -2.0706209
},
{
  "type": "node",
  "id": 1791440737,
  "lat": 51.9039610,
  "lon": -2.0705994
},
{
  "type": "node",
  "id": 1791440750,
  "lat": 51.9040100,
  "lon": -2.0706687
},
{
  "type": "node",
  "id": 1791440754,
  "lat": 51.9040686,
  "lon": -2.0705340
},
{
  "type": "node",
  "id": 6534045831,
  "lat": 51.9535287,
  "lon": -1.9640736
},
{
  "type": "node",
  "id": 6543080713,
  "lat": 51.9536319,
  "lon": -1.9642288
},
{
  "type": "node",
  "id": 6543080714,
  "lat": 51.9536074,
  "lon": -1.9640495
},
{
  "type": "node",
  "id": 6543080719,
  "lat": 51.9535724,
  "lon": -1.9639969
},
{
  "type": "node",
  "id": 6543080721,
  "lat": 51.9536387,
  "lon": -1.9639947
},
{
  "type": "node",
  "id": 6543080722,
  "lat": 51.9536463,
  "lon": -1.9641074
},
{
  "type": "node",
  "id": 6543080724,
  "lat": 51.9536758,
  "lon": -1.9641518
},
{
  "type": "node",
  "id": 6543080716,
  "lat": 51.9536774,
  "lon": -1.9640529
},
{
  "type": "node",
  "id": 668950249,
  "lat": 51.8846718,
  "lon": -1.7587180
},
{
  "type": "node",
  "id": 4456209757,
  "lat": 51.8845578,
  "lon": -1.7591838
},
{
  "type": "node",
  "id": 4456210618,
  "lat": 51.8850167,
  "lon": -1.7593477
},
{
  "type": "node",
  "id": 4456210627,
  "lat": 51.8846620,
  "lon": -1.7597182
},
{
  "type": "node",
  "id": 4456210629,
  "lat": 51.8847951,
  "lon": -1.7586348
},
{
  "type": "node",
  "id": 1509685808,
  "lat": 51.7363084,
  "lon": -1.6564660
},
{
  "type": "node",
  "id": 1509685811,
  "lat": 51.7363331,
  "lon": -1.6565370
},
{
  "type": "node",
  "id": 1509685824,
  "lat": 51.7363520,
  "lon": -1.6565199
},
{
  "type": "node",
  "id": 1509685825,
  "lat": 51.7363528,
  "lon": -1.6564260
},
{
  "type": "node",
  "id": 1509685837,
  "lat": 51.7363689,
  "lon": -1.6565688
},
{
  "type": "node",
  "id": 1509685838,
  "lat": 51.7363743,
  "lon": -1.6564065
},
{
  "type": "node",
  "id": 1509685840,
  "lat": 51.7363788,
  "lon": -1.6564196
},
{
  "type": "node",
  "id": 1509685848,
  "lat": 51.7364047,
  "lon": -1.6563962
},
{
  "type": "node",
  "id": 1509685855,
  "lat": 51.7364417,
  "lon": -1.6565030
},
{
  "type": "node",
  "id": 5737660864,
  "lat": 51.8073369,
  "lon": -1.6369629
},
{
  "type": "node",
  "id": 5737660865,
  "lat": 51.8073585,
  "lon": -1.6370641
},
{
  "type": "node",
  "id": 5737660866,
  "lat": 51.8073278,
  "lon": -1.6370822
},
{
  "type": "node",
  "id": 5737660867,
  "lat": 51.8073486,
  "lon": -1.6371594
},
{
  "type": "node",
  "id": 5737660868,
  "lat": 51.8072951,
  "lon": -1.6371895
},
{
  "type": "node",
  "id": 5737660869,
  "lat": 51.8072544,
  "lon": -1.6370883
},
{
  "type": "node",
  "id": 5737660870,
  "lat": 51.8072719,
  "lon": -1.6370735
},
{
  "type": "node",
  "id": 5737660871,
  "lat": 51.8072578,
  "lon": -1.6370105
},
{
  "type": "node",
  "id": 5737660872,
  "lat": 51.8073162,
  "lon": -1.6369743
},
{
  "type": "node",
  "id": 1709107829,
  "lat": 51.7879943,
  "lon": -1.4835459
},
{
  "type": "node",
  "id": 6360053697,
  "lat": 51.7879196,
  "lon": -1.4836054
},
{
  "type": "node",
  "id": 6360053698,
  "lat": 51.7880094,
  "lon": -1.4839712
},
{
  "type": "node",
  "id": 6360053699,
  "lat": 51.7880805,
  "lon": -1.4839130
},
{
  "type": "way",
  "id": 414421729,
  "nodes": [
    4533841835,
    5496853097,
    4155683302,
    4533841822,
    4533841821,
    4533841820,
    4533841819,
    4155683303,
    4155683304,
    4155683305,
    4155683306,
    4155683307,
    4155683308,
    4155683309,
    4155683310,
    5496853091,
    4155683311
  ]
},
{
  "type": "way",
  "id": 457209489,
  "nodes": [
    4155683311,
    5496853096,
    4155683312,
    4155683313,
    4155683314,
    4155683315,
    4533841824,
    4533841823,
    4155683316,
    4155683317,
    5496853100,
    4533841838,
    4533841837,
    5490657297,
    4533841836,
    4533841835
  ]
}

  ]
}
