{
  "version": 0.6,
  "generator": "Overpass API 0.7.55.9 ab41fea6",
  "osm3s": {
    "timestamp_osm_base": "2020-02-14T15:37:02Z",
    "copyright": "The data included in this document is from www.openstreetmap.org. The data is made available under ODbL."
  },
  "elements": [

{
  "type": "node",
  "id": 2261606608,
  "lat": 54.5106069,
  "lon": 36.2551725,
  "tags": {
    "name": "Картинная галерея заслуженного художника РФ Л. А. Климентовской",
    "opening_hours": "Tu-Sa 11:00-17:00",
    "phone": "+7 (4842) 56-05-03",
    "tourism": "museum"
  }
},
{
  "type": "node",
  "id": 2959677432,
  "lat": 54.5143814,
  "lon": 36.0338183,
  "tags": {
    "addr:housenumber": "1",
    "addr:place": "Козлово",
    "name": "Музей кукол Усадьба «Берегиня»",
    "phone": "+7 910 9125072",
    "source:addr": "website",
    "tourism": "museum",
    "website": "http://usadba-bereginya.narod.ru/"
  }
},
{
  "type": "node",
  "id": 3421262804,
  "lat": 54.5161365,
  "lon": 36.2631958,
  "tags": {
    "name": "Музей МВД",
    "note": "условия доступа в музей неизвестны, в интернете не нашел",
    "tourism": "museum"
  }
},
{
  "type": "node",
  "id": 3529941359,
  "lat": 54.5291378,
  "lon": 36.2601115,
  "tags": {
    "name": "Музей С.С. Туликова",
    "tourism": "museum"
  }
},
{
  "type": "node",
  "id": 4319429205,
  "lat": 54.6141740,
  "lon": 35.9997017,
  "tags": {
    "name": "музей-диорама \"Великое стояние на реке Угре\"",
    "tourism": "museum"
  }
},
{
  "type": "node",
  "id": 5745902475,
  "lat": 54.5132345,
  "lon": 36.2640434,
  "tags": {
    "name": "Выставочная галерея «Образ»",
    "opening_hours": "Mo-Fr 11:00-19:00; Sa 11:00-17:00",
    "tourism": "museum"
  }
},
{
  "type": "node",
  "id": 5843500025,
  "lat": 54.5369885,
  "lon": 36.1834596,
  "tags": {
    "name": "Музей медицины",
    "tourism": "museum"
  }
},
{
  "type": "node",
  "id": 6403519183,
  "lat": 54.5071948,
  "lon": 36.2548452,
  "tags": {
    "name": "Музей стекла Алексея Зеля",
    "note": "касса до 18:00",
    "opening_hours": "Tu-Su 10:30-18:30",
    "tourism": "museum"
  }
},
{
  "type": "way",
  "id": 30757809,
  "nodes": [
    340157240,
    340157241,
    340157242,
    340157243,
    340157244,
    340157245,
    340157246,
    340157247,
    1331824103,
    2725030018,
    340157240
  ],
  "tags": {
    "addr:housenumber": "2",
    "addr:street": "улица Академика Королёва",
    "building": "yes",
    "email": "museum@gmik.ru",
    "name": "Музей истории космонавтики",
    "name:en": "Space History Museum",
    "name:ru": "Музей истории космонавтики",
    "official_name": "Федеральное государственное учреждение культуры \"Государственный музей истории космонавтики имени К.Э. Циолковского\"",
    "opening_hours": "Tu, Th-Fr 10:00-18:00; We 11:00-20:00; Sa-Su 10:00-19:00",
    "phone": "+7 4842 705025",
    "tourism": "museum",
    "website": "http://www.gmik.ru/",
    "wikidata": "Q4146892",
    "wikipedia": "ru:Государственный музей истории космонавтики имени К. Э. Циолковского"
  }
},
{
  "type": "way",
  "id": 93047656,
  "nodes": [
    1289968198,
    1078585610,
    1288194607,
    1078585198,
    1078585347,
    4146598399,
    1078585425,
    1078585200,
    1288194683,
    2177250218,
    1078585382,
    1289968198
  ],
  "tags": {
    "addr:housenumber": "62",
    "addr:street": "Московская улица",
    "building": "yes",
    "building:levels": "2",
    "name": "Дом-музей А.Л. Чижевского",
    "operator": "Государственный музей истории космонавтики",
    "phone": "+7 (4842) 56-11-39",
    "tourism": "museum",
    "url": "http://www.gmik.ru/chizhevsky.html",
    "wikidata": "Q1219622",
    "wikipedia": "ru:Чижевский, Александр Леонидович"
  }
},
{
  "type": "way",
  "id": 95615592,
  "nodes": [
    1108781601,
    1108781138,
    1108780653,
    1719181552,
    1108781369,
    1108781601
  ],
  "tags": {
    "addr:housenumber": "104",
    "addr:postcode": "248610",
    "addr:street": "улица Ленина",
    "building": "yes",
    "building:levels": "2",
    "building_name": "Усадьба Билибиных",
    "contact:phone": "+7 4842 562830",
    "historic": "yes",
    "name": "Калужский областной художественный музей",
    "opening_hours": "Su, Tu-Fr 10:00-18:00; Sa 11:00-19:00",
    "tourism": "museum",
    "website": "http://artmuseum.kaluga.ru/"
  }
},
{
  "type": "way",
  "id": 102198369,
  "nodes": [
    1179446182,
    1179446214,
    1179446114,
    1986928596,
    3115224852,
    1179446147,
    1179446182
  ],
  "tags": {
    "addr:housenumber": "4",
    "addr:street": "улица Пушкина",
    "building": "yes",
    "building:levels": "3",
    "historic": "manor",
    "name": "Дом Шамиля",
    "tourism": "museum"
  }
},
{
  "type": "way",
  "id": 102198371,
  "nodes": [
    1179446201,
    2279565115,
    1179446219,
    1179446103,
    1179446151,
    2375514743,
    1179446201
  ],
  "tags": {
    "addr:housenumber": "14",
    "addr:street": "улица Пушкина",
    "building": "yes",
    "building:colour": "yellow",
    "building:levels": "3",
    "contact:fax": "+7 4842 721632",
    "contact:phone": "+7 4842 744007",
    "contact:website": "http://www.kokm.ru/",
    "historic": "manor",
    "name": "Калужский областной краеведческий музей",
    "opening_hours": "Tu-We 10:00-17:00; Th 10:00-19:00; Fr-Su 10:00-17:00",
    "source:addr": "survey",
    "tourism": "museum",
    "website": "http://www.kokm.ru/"
  }
},
{
  "type": "way",
  "id": 102198386,
  "nodes": [
    1179446131,
    1179446088,
    1179446212,
    1179446181,
    2388516055,
    2388516054,
    2388516053,
    2388516051,
    2388516052,
    1179446131
  ],
  "tags": {
    "addr:housenumber": "88",
    "addr:street": "улица Плеханова",
    "building": "yes",
    "building:levels": "2",
    "name": "Палаты Коробовых",
    "tourism": "museum"
  }
},
{
  "type": "way",
  "id": 106308875,
  "nodes": [
    1223600267,
    2373700465,
    1223600253,
    1223600269,
    1485605236,
    1485605224,
    1223600264,
    1223600280,
    1485605234,
    1485605239,
    1485605237,
    1223600267
  ],
  "tags": {
    "addr:housenumber": "42",
    "addr:street": "улица Суворова",
    "building": "yes",
    "building:levels": "1",
    "building_name": "Мемориальный дом Г. С. Батенькова",
    "name": "Дом-музей Г.С. Батенькова",
    "opening_hours": "Mo-Su 9:30-17:30",
    "roof:shape": "hipped",
    "source:addr": "survey",
    "tourism": "museum",
    "website": "http://www.kokm.ru/"
  }
},
{
  "type": "way",
  "id": 116986967,
  "nodes": [
    1317729266,
    2276805676,
    1317729265,
    1317729263,
    1317729267,
    1317729266
  ],
  "tags": {
    "addr:housenumber": "79",
    "addr:street": "улица Циолковского",
    "building": "yes",
    "building:levels": "2",
    "contact:phone": "+7 4842 746180",
    "name": "Дом-музей К.Э. Циолковского",
    "opening_hours": "Tu, Th-Fr 10:00-18:00; We 11:00-20:00; Sa-Su 10:00-19:00",
    "operator": "Государственный музей истории космонавтики",
    "tourism": "museum",
    "url": "http://www.gmik.ru/dom.html",
    "wikidata": "Q4165200",
    "wikipedia": "ru:Дом-музей К. Э. Циолковского"
  }
},
{
  "type": "way",
  "id": 131648920,
  "nodes": [
    1219141809,
    1448663695,
    1219141650,
    1219141591,
    1219141525,
    1219141472,
    1219141408,
    1219141819,
    1219141736,
    1219141618,
    2265877759,
    1219141810,
    1219141718,
    1219141809
  ],
  "tags": {
    "addr:housenumber": "103",
    "addr:street": "улица Ленина",
    "building": "yes",
    "building:levels": "2",
    "name": "Картинная галерея «Образ»",
    "source:addr": "survey",
    "tourism": "museum"
  }
},
{
  "type": "way",
  "id": 187695450,
  "nodes": [
    1983286105,
    1983286104,
    1983286102,
    1983286103,
    1983286109,
    1983286107,
    1983286114,
    1983286115,
    1983286118,
    1983286116,
    1983286112,
    1983286113,
    1976985551,
    1983286105
  ],
  "tags": {
    "addr:city": "Полотняный Завод",
    "addr:housenumber": "1А",
    "addr:postcode": "249844",
    "addr:street": "Трудовая улица",
    "building": "yes",
    "building:levels": "3",
    "building_name": "Усадьба Гончаровых",
    "historic": "yes",
    "name": "Историко-архитектурный и природный музей-усадьба «Полотняный Завод»",
    "opening_hours": "Tu-Su 10:00-17:00",
    "operator": "Калужский областной краеведческий музей",
    "phone": "+7 48434 74379",
    "source:addr": "url",
    "tourism": "museum",
    "url": "http://www.kokm.ru/ru/branches/linen_factory/"
  }
},
{
  "type": "node",
  "id": 1976985551,
  "lat": 54.7382904,
  "lon": 35.9957574
},
{
  "type": "node",
  "id": 1983286102,
  "lat": 54.7380459,
  "lon": 35.9957579
},
{
  "type": "node",
  "id": 1983286103,
  "lat": 54.7380907,
  "lon": 35.9953401
},
{
  "type": "node",
  "id": 1983286104,
  "lat": 54.7381705,
  "lon": 35.9957979
},
{
  "type": "node",
  "id": 1983286105,
  "lat": 54.7381787,
  "lon": 35.9957215
},
{
  "type": "node",
  "id": 1983286107,
  "lat": 54.7381716,
  "lon": 35.9954304
},
{
  "type": "node",
  "id": 1983286109,
  "lat": 54.7381782,
  "lon": 35.9953683
},
{
  "type": "node",
  "id": 1983286112,
  "lat": 54.7383900,
  "lon": 35.9958504
},
{
  "type": "node",
  "id": 1983286113,
  "lat": 54.7383963,
  "lon": 35.9957915
},
{
  "type": "node",
  "id": 1983286114,
  "lat": 54.7384769,
  "lon": 35.9955286
},
{
  "type": "node",
  "id": 1983286115,
  "lat": 54.7384869,
  "lon": 35.9954355
},
{
  "type": "node",
  "id": 1983286116,
  "lat": 54.7385074,
  "lon": 35.9958881
},
{
  "type": "node",
  "id": 1983286118,
  "lat": 54.7385536,
  "lon": 35.9954570
},
{
  "type": "node",
  "id": 1317729263,
  "lat": 54.5112473,
  "lon": 36.2301700
},
{
  "type": "node",
  "id": 1317729265,
  "lat": 54.5111175,
  "lon": 36.2303817
},
{
  "type": "node",
  "id": 1317729266,
  "lat": 54.5110644,
  "lon": 36.2302851
},
{
  "type": "node",
  "id": 1317729267,
  "lat": 54.5111942,
  "lon": 36.2300734
},
{
  "type": "node",
  "id": 2276805676,
  "lat": 54.5110710,
  "lon": 36.2302971
},
{
  "type": "node",
  "id": 1179446088,
  "lat": 54.5105481,
  "lon": 36.2425542
},
{
  "type": "node",
  "id": 1179446103,
  "lat": 54.5104281,
  "lon": 36.2457453
},
{
  "type": "node",
  "id": 1179446114,
  "lat": 54.5118770,
  "lon": 36.2427062
},
{
  "type": "node",
  "id": 1179446131,
  "lat": 54.5104956,
  "lon": 36.2427101
},
{
  "type": "node",
  "id": 1179446147,
  "lat": 54.5120483,
  "lon": 36.2429403
},
{
  "type": "node",
  "id": 1179446151,
  "lat": 54.5106135,
  "lon": 36.2453753
},
{
  "type": "node",
  "id": 1179446181,
  "lat": 54.5106477,
  "lon": 36.2428569
},
{
  "type": "node",
  "id": 1179446182,
  "lat": 54.5119780,
  "lon": 36.2430930
},
{
  "type": "node",
  "id": 1179446201,
  "lat": 54.5107504,
  "lon": 36.2455787
},
{
  "type": "node",
  "id": 1179446212,
  "lat": 54.5106989,
  "lon": 36.2427050
},
{
  "type": "node",
  "id": 1179446214,
  "lat": 54.5118067,
  "lon": 36.2428590
},
{
  "type": "node",
  "id": 1179446219,
  "lat": 54.5105651,
  "lon": 36.2459488
},
{
  "type": "node",
  "id": 1986928596,
  "lat": 54.5119574,
  "lon": 36.2428161
},
{
  "type": "node",
  "id": 2279565115,
  "lat": 54.5106845,
  "lon": 36.2457104
},
{
  "type": "node",
  "id": 2375514743,
  "lat": 54.5107295,
  "lon": 36.2455477
},
{
  "type": "node",
  "id": 2388516051,
  "lat": 54.5105120,
  "lon": 36.2427892
},
{
  "type": "node",
  "id": 2388516052,
  "lat": 54.5105278,
  "lon": 36.2427423
},
{
  "type": "node",
  "id": 2388516053,
  "lat": 54.5105302,
  "lon": 36.2428074
},
{
  "type": "node",
  "id": 2388516054,
  "lat": 54.5105466,
  "lon": 36.2428239
},
{
  "type": "node",
  "id": 2388516055,
  "lat": 54.5105638,
  "lon": 36.2427729
},
{
  "type": "node",
  "id": 3115224852,
  "lat": 54.5120076,
  "lon": 36.2428847
},
{
  "type": "node",
  "id": 1108780653,
  "lat": 54.5085223,
  "lon": 36.2565061
},
{
  "type": "node",
  "id": 1108781138,
  "lat": 54.5087026,
  "lon": 36.2567928
},
{
  "type": "node",
  "id": 1108781369,
  "lat": 54.5086277,
  "lon": 36.2563062
},
{
  "type": "node",
  "id": 1108781601,
  "lat": 54.5088090,
  "lon": 36.2565943
},
{
  "type": "node",
  "id": 1219141408,
  "lat": 54.5087170,
  "lon": 36.2581726
},
{
  "type": "node",
  "id": 1219141472,
  "lat": 54.5086731,
  "lon": 36.2582605
},
{
  "type": "node",
  "id": 1219141525,
  "lat": 54.5087242,
  "lon": 36.2583442
},
{
  "type": "node",
  "id": 1219141591,
  "lat": 54.5089152,
  "lon": 36.2579928
},
{
  "type": "node",
  "id": 1219141618,
  "lat": 54.5086684,
  "lon": 36.2581174
},
{
  "type": "node",
  "id": 1219141650,
  "lat": 54.5089080,
  "lon": 36.2579581
},
{
  "type": "node",
  "id": 1219141718,
  "lat": 54.5085011,
  "lon": 36.2583381
},
{
  "type": "node",
  "id": 1219141736,
  "lat": 54.5086530,
  "lon": 36.2580929
},
{
  "type": "node",
  "id": 1219141809,
  "lat": 54.5086350,
  "lon": 36.2580135
},
{
  "type": "node",
  "id": 1219141810,
  "lat": 54.5085486,
  "lon": 36.2584035
},
{
  "type": "node",
  "id": 1219141819,
  "lat": 54.5086637,
  "lon": 36.2580725
},
{
  "type": "node",
  "id": 1448663695,
  "lat": 54.5087593,
  "lon": 36.2577238
},
{
  "type": "node",
  "id": 1719181552,
  "lat": 54.5086072,
  "lon": 36.2563485
},
{
  "type": "node",
  "id": 2265877759,
  "lat": 54.5085962,
  "lon": 36.2582898
},
{
  "type": "node",
  "id": 340157240,
  "lat": 54.5168709,
  "lon": 36.2311404
},
{
  "type": "node",
  "id": 340157241,
  "lat": 54.5166430,
  "lon": 36.2307280
},
{
  "type": "node",
  "id": 340157242,
  "lat": 54.5167282,
  "lon": 36.2305882
},
{
  "type": "node",
  "id": 340157243,
  "lat": 54.5165737,
  "lon": 36.2303087
},
{
  "type": "node",
  "id": 340157244,
  "lat": 54.5166641,
  "lon": 36.2301604
},
{
  "type": "node",
  "id": 340157245,
  "lat": 54.5168153,
  "lon": 36.2304339
},
{
  "type": "node",
  "id": 340157246,
  "lat": 54.5170983,
  "lon": 36.2299697
},
{
  "type": "node",
  "id": 340157247,
  "lat": 54.5173296,
  "lon": 36.2303881
},
{
  "type": "node",
  "id": 1331824103,
  "lat": 54.5170890,
  "lon": 36.2307827
},
{
  "type": "node",
  "id": 2725030018,
  "lat": 54.5170351,
  "lon": 36.2308712
},
{
  "type": "node",
  "id": 1223600253,
  "lat": 54.5181590,
  "lon": 36.2429864
},
{
  "type": "node",
  "id": 1223600264,
  "lat": 54.5180100,
  "lon": 36.2426777
},
{
  "type": "node",
  "id": 1223600267,
  "lat": 54.5181865,
  "lon": 36.2427566
},
{
  "type": "node",
  "id": 1223600269,
  "lat": 54.5180728,
  "lon": 36.2429559
},
{
  "type": "node",
  "id": 1223600280,
  "lat": 54.5180297,
  "lon": 36.2426821
},
{
  "type": "node",
  "id": 1485605224,
  "lat": 54.5180024,
  "lon": 36.2427516
},
{
  "type": "node",
  "id": 1485605234,
  "lat": 54.5180391,
  "lon": 36.2426374
},
{
  "type": "node",
  "id": 1485605236,
  "lat": 54.5180934,
  "lon": 36.2427838
},
{
  "type": "node",
  "id": 1485605237,
  "lat": 54.5181481,
  "lon": 36.2427430
},
{
  "type": "node",
  "id": 1485605239,
  "lat": 54.5181558,
  "lon": 36.2426787
},
{
  "type": "node",
  "id": 2373700465,
  "lat": 54.5181609,
  "lon": 36.2429706
},
{
  "type": "node",
  "id": 1078585198,
  "lat": 54.5184419,
  "lon": 36.2626800
},
{
  "type": "node",
  "id": 1078585200,
  "lat": 54.5183399,
  "lon": 36.2629602
},
{
  "type": "node",
  "id": 1078585347,
  "lat": 54.5184274,
  "lon": 36.2629355
},
{
  "type": "node",
  "id": 1078585382,
  "lat": 54.5181573,
  "lon": 36.2629360
},
{
  "type": "node",
  "id": 1078585425,
  "lat": 54.5183428,
  "lon": 36.2629282
},
{
  "type": "node",
  "id": 1078585610,
  "lat": 54.5181811,
  "lon": 36.2626479
},
{
  "type": "node",
  "id": 1288194607,
  "lat": 54.5183798,
  "lon": 36.2626744
},
{
  "type": "node",
  "id": 1288194683,
  "lat": 54.5182729,
  "lon": 36.2629513
},
{
  "type": "node",
  "id": 1289968198,
  "lat": 54.5181766,
  "lon": 36.2627022
},
{
  "type": "node",
  "id": 2177250218,
  "lat": 54.5182378,
  "lon": 36.2629467
},
{
  "type": "node",
  "id": 4146598399,
  "lat": 54.5183877,
  "lon": 36.2629321
}

  ]
}
