{
  "version": 0.6,
  "generator": "Overpass API 0.7.55.9 ab41fea6",
  "osm3s": {
    "timestamp_osm_base": "2020-02-14T09:24:02Z",
    "copyright": "The data included in this document is from www.openstreetmap.org. The data is made available under ODbL."
  },
  "elements": [

{
  "type": "node",
  "id": 346358691,
  "lat": 52.6835525,
  "lon": -1.8275187,
  "tags": {
    "name": "St Mary's in the Market Square",
    "tourism": "museum",
    "wikidata": "Q6543276"
  }
},
{
  "type": "node",
  "id": 352984514,
  "lat": 52.4846038,
  "lon": -1.9116092,
  "tags": {
    "addr:city": "Birmingham",
    "addr:housename": "Unit 3, The Argent Centre",
    "addr:housenumber": "60",
    "addr:postcode": "B1 3HS",
    "addr:street": "Frederick Street",
    "name": "The Pen Museum",
    "opening_hours": "Tu-Sa 11:00-16:00; Su 13:00-16:00",
    "operator": "Birmingham Pen Trade Heritage Association",
    "phone": "+44 121 236 9834",
    "source": "survey",
    "tourism": "museum",
    "url": "https://penmuseum.org.uk/",
    "wikidata": "Q16707756",
    "wikipedia": "en:Pen Museum"
  }
},
{
  "type": "node",
  "id": 366533363,
  "lat": 52.3478833,
  "lon": -1.5907848,
  "tags": {
    "tourism": "museum",
    "wheelchair": "yes"
  }
},
{
  "type": "node",
  "id": 436500306,
  "lat": 52.7121860,
  "lon": -1.9908559,
  "tags": {
    "name": "Museum of Cannock Chase",
    "source": "survey",
    "tourism": "museum"
  }
},
{
  "type": "node",
  "id": 556203244,
  "lat": 52.4679382,
  "lon": -2.0623563,
  "tags": {
    "name": "Haden Hill House Museum",
    "source": "survey",
    "tourism": "museum",
    "wikidata": "Q5637740"
  }
},
{
  "type": "node",
  "id": 795656435,
  "lat": 52.4754081,
  "lon": -2.0931684,
  "tags": {
    "name": "Mushroom Green Chain Shop",
    "opening_hours": "Apr-Oct: Su",
    "operator": "Black Country Living Museum",
    "tourism": "museum"
  }
},
{
  "type": "node",
  "id": 828759304,
  "lat": 52.3756257,
  "lon": -2.3152010,
  "tags": {
    "name": "Bewdley Museum",
    "tourism": "museum",
    "wikidata": "Q18974884"
  }
},
{
  "type": "node",
  "id": 1107967370,
  "lat": 52.5799991,
  "lon": -2.1541891,
  "tags": {
    "name": "Bantock House",
    "tourism": "museum",
    "wikidata": "Q4857244"
  }
},
{
  "type": "node",
  "id": 1477751196,
  "lat": 52.5833673,
  "lon": -2.0590880,
  "tags": {
    "name": "Willenhall Lock Museum",
    "tourism": "museum",
    "wikidata": "Q6665837"
  }
},
{
  "type": "node",
  "id": 1510302834,
  "lat": 52.4102190,
  "lon": -1.5114131,
  "tags": {
    "designation": "Contemporary Art Project Space and adjoining studios",
    "name": "Meter Room Project Space & Studios",
    "source": "www.meter-room.org",
    "tourism": "museum"
  }
},
{
  "type": "node",
  "id": 1510775956,
  "lat": 52.5218932,
  "lon": -2.1661412,
  "tags": {
    "name": "Himley House Museum",
    "tourism": "museum"
  }
},
{
  "type": "node",
  "id": 1745739183,
  "lat": 52.4194040,
  "lon": -1.9196471,
  "tags": {
    "fixme": "Wikipedia link is broken",
    "name": "The Patrick Collection",
    "opening_hours": "\"by appointment\"",
    "tourism": "museum",
    "wikipedia": "en:Patrick Motors"
  }
},
{
  "type": "node",
  "id": 1756993737,
  "lat": 52.5112542,
  "lon": -2.0847240,
  "tags": {
    "name": "Dudley Museum",
    "tourism": "museum"
  }
},
{
  "type": "node",
  "id": 2038129478,
  "lat": 52.2960540,
  "lon": -1.6478216,
  "tags": {
    "name": "Alders Farm Museaum",
    "tourism": "museum"
  }
},
{
  "type": "node",
  "id": 2492700114,
  "lat": 52.4505452,
  "lon": -1.8647107,
  "tags": {
    "name": "West Midlands Police Museum",
    "source": "website",
    "tourism": "museum",
    "wikidata": "Q15945108"
  }
},
{
  "type": "node",
  "id": 2619501220,
  "lat": 52.2811948,
  "lon": -1.5872564,
  "tags": {
    "name": "Warwickshire Yeomanry Museum",
    "tourism": "museum"
  }
},
{
  "type": "node",
  "id": 2621399885,
  "lat": 52.2801135,
  "lon": -1.5903756,
  "tags": {
    "name": "Queen's Own Hussars Regimental Museum",
    "tourism": "museum"
  }
},
{
  "type": "node",
  "id": 2622168461,
  "lat": 52.2831847,
  "lon": -1.5804278,
  "tags": {
    "name": "Royal Regiment of Fusiliers",
    "tourism": "museum",
    "wikidata": "Q7374770"
  }
},
{
  "type": "node",
  "id": 2946731018,
  "lat": 52.5863011,
  "lon": -1.9787942,
  "tags": {
    "name": "The E.M. Flint Art Gallery",
    "tourism": "museum"
  }
},
{
  "type": "node",
  "id": 2979726288,
  "lat": 52.5911460,
  "lon": -2.1305593,
  "tags": {
    "name": "Wolves Museum",
    "operator": "Wolverhampton Wanderers FC",
    "source": "survey",
    "tourism": "museum"
  }
},
{
  "type": "node",
  "id": 3064973461,
  "lat": 52.2903358,
  "lon": -1.7804463,
  "tags": {
    "addr:city": "Henley-in-Arden",
    "addr:housename": "Joseph Hardy House",
    "addr:housenumber": "150",
    "addr:postcode": "B95 5BS",
    "addr:street": "High Street",
    "email": "admin@heritagehenley.org.uk",
    "fee": "no",
    "name": "Henley-in-Arden Heritage Centre",
    "operator": "The Joseph Hardy Charitable Trust",
    "phone": "+44 1564 795919",
    "tourism": "museum",
    "website": "http://www.heritagehenley.org.uk"
  }
},
{
  "type": "node",
  "id": 3470525075,
  "lat": 52.4707474,
  "lon": -1.8606437,
  "tags": {
    "access": "private",
    "name": "Islamic Exhibition Experience",
    "tourism": "museum"
  }
},
{
  "type": "node",
  "id": 4631508762,
  "lat": 52.4819831,
  "lon": -1.9074442,
  "tags": {
    "name": "Newman Bros Museum",
    "tourism": "museum"
  }
},
{
  "type": "node",
  "id": 4814438871,
  "lat": 52.3366821,
  "lon": -2.2791337,
  "tags": {
    "name": "Canal Heritage Room",
    "tourism": "museum"
  }
},
{
  "type": "node",
  "id": 5636612378,
  "lat": 52.3392101,
  "lon": -2.2419459,
  "tags": {
    "name": "Worcestershire County Museum",
    "tourism": "museum"
  }
},
{
  "type": "node",
  "id": 5862303385,
  "lat": 52.4760160,
  "lon": -2.1577369,
  "tags": {
    "addr:postcode": "DY8 4FB",
    "addr:street": "High Street",
    "email": "bgf@britishglassfoundation.org.uk",
    "name": "Whitehouse Cone Museum of Glass",
    "tourism": "museum",
    "website": "https://www.britishglassfoundation.org.uk/"
  }
},
{
  "type": "node",
  "id": 6362254058,
  "lat": 52.6834755,
  "lon": -1.8279990,
  "tags": {
    "addr:city": "Lichfield",
    "addr:housename": "The Samuel Johnson Birthplace Museum",
    "addr:postcode": "WS13 6LG",
    "addr:street": "Breadmarket Street",
    "name": "The Samuel Johnson Birthplace Museum",
    "opening_hours": "Mo-Su 10:30-16:30",
    "operator": "Dr Johnson's Birthplace Trust (Lichfield City Council)",
    "tourism": "museum"
  }
},
{
  "type": "node",
  "id": 6385290923,
  "lat": 52.2139855,
  "lon": -1.8729371,
  "tags": {
    "name": "Alcester Roman Museum",
    "tourism": "museum"
  }
},
{
  "type": "node",
  "id": 7065729844,
  "lat": 52.4841199,
  "lon": -1.8936368,
  "tags": {
    "name": "West Midlands Police Museum",
    "tourism": "museum"
  }
},
{
  "type": "way",
  "id": 24989632,
  "nodes": [
    271660518,
    2896687624,
    2896687623,
    2896687620,
    2896687615,
    2526401153,
    2526401152,
    2526400016,
    2526399997,
    2896687601,
    2526401150,
    2896687593,
    2896687591,
    2896687585,
    2896687576,
    271660519,
    507271702,
    2896651868,
    2896651862,
    305542504,
    5878535784,
    6410109025,
    6410109031,
    6410109083,
    6410109021,
    6410109048,
    6410109057,
    6410109011,
    6410109197,
    6410109045,
    6410109026,
    6410108995,
    6410109001,
    6410109029,
    6410109010,
    6410108992,
    1173024431,
    1173024150,
    2526391241,
    3104178370,
    3104178371,
    3104178372,
    3104178373,
    3104178376,
    3104178374,
    3104178377,
    305542502,
    271660518
  ],
  "tags": {
    "museum": "living_history",
    "name": "The Black Country Living Museum",
    "tourism": "museum",
    "wikidata": "Q880185",
    "wikipedia": "en:Black Country Living Museum"
  }
},
{
  "type": "way",
  "id": 25372787,
  "nodes": [
    276554101,
    1491694223,
    1491694505,
    2180308800,
    2180308801,
    2180308802,
    2180308797,
    2180308796,
    1491694345,
    2180308798,
    276554104,
    1491694367,
    276554112,
    276554106,
    276554095,
    276554108,
    1520915092,
    1520915106,
    1520915094,
    277107563,
    1881241338,
    277107557,
    1881241371,
    1881241381,
    1881241218,
    277107560,
    1491694271,
    1491694357,
    2180308805,
    2180308804,
    1491694119,
    1491694398,
    1491694172,
    276554101
  ],
  "tags": {
    "addr:city": "Coventry",
    "addr:housename": "The Herbert",
    "addr:postcode": "CV1 5QP",
    "addr:street": "Jordan Well",
    "alt_name": "The Herbert",
    "building": "yes",
    "email": "info@theherbert.org",
    "name": "Herbert Art Gallery & Museum",
    "opening_hours": "Mo-Sa 10:00-16:00, Su 12:00-16:00",
    "phone": "+44 24 7683 2386",
    "tourism": "museum",
    "website": "https://www.theherbert.org/",
    "wheelchair": "yes",
    "wikidata": "Q917262",
    "wikipedia": "en:Herbert Art Gallery and Museum"
  }
},
{
  "type": "way",
  "id": 28288365,
  "nodes": [
    3463975955,
    622135841,
    622135847,
    2495096258,
    1335375092,
    4081299318,
    4081299322,
    964748417,
    964751850,
    964748426,
    4081299340,
    2495096259,
    2495096260,
    310648876,
    4081299338,
    310648877,
    272888879,
    696436829,
    696436827,
    696436826,
    4081299323,
    4081299312,
    696436818,
    696436820,
    4081299297,
    622133294,
    2495096237,
    2495096235,
    4081299289,
    622136751,
    4081299294,
    2495096246,
    3463975954,
    4541585934,
    310648875,
    252972886,
    3463975955
  ],
  "tags": {
    "addr:city": "Birmingham",
    "addr:housename": "Birmingham Museum & Art Gallery",
    "addr:postcode": "B3 3DH",
    "addr:street": "Chamberlain Square",
    "architect": "Yeoville Thomason",
    "building": "heritage",
    "building:levels": "6",
    "heritage": "2",
    "heritage:operator": "Historic England",
    "listed_status": "Grade II*",
    "opening_hours": "Mo-Th 10:00-17:00, Fr 10:30-17:00,Sa-Su 10:00-17:00",
    "operator": "Birmingham City Council",
    "source": "visual survey;cities_revealed_aerial_ imagery;PMSA",
    "source:height": "estimate",
    "start_date": "1884-89",
    "tourism": "museum",
    "url": "http://www.bmag.org.uk/birmingham-museum/",
    "wheelchair": "no",
    "wikidata": "Q1799857",
    "wikipedia": "en:Birmingham Museum and Art Gallery"
  }
},
{
  "type": "way",
  "id": 32810294,
  "nodes": [
    369724420,
    369724422,
    369962003,
    3430068461,
    1598763850,
    369962008,
    369962009,
    369962004,
    369962005,
    2745675118,
    369962006,
    369962011,
    369962013,
    369962012,
    369724424,
    3430068472,
    369724420
  ],
  "tags": {
    "addr:city": "West Bromwich",
    "addr:postcode": "B70 7PG",
    "addr:street": "New Street",
    "building": "yes",
    "name": "The Public: Central Sixth Sandwell College",
    "note": "Due to close November 2013 and become a 6th form centre",
    "source": "visual survey;estimate",
    "tourism": "museum"
  }
},
{
  "type": "way",
  "id": 38741056,
  "nodes": [
    459381600,
    459381601,
    459381602,
    1360204595,
    459381603,
    5376286943,
    1360204604,
    1360204605,
    459381604,
    459381605,
    459381607,
    459381609,
    5652449100,
    459381610,
    1360204638,
    1360204654,
    459381612,
    459381613,
    459381615,
    1360204671,
    1360204662,
    3501606904,
    459381617,
    1360204632,
    3155148793,
    459381619,
    459381620,
    459381623,
    3155148787,
    459381625,
    1360204602,
    459381600
  ],
  "tags": {
    "addr:postcode": "B60 4JR",
    "name": "Avoncroft Museum of Buildings",
    "tourism": "museum",
    "website": "https://www.avoncroft.org.uk/"
  }
},
{
  "type": "way",
  "id": 38895473,
  "nodes": [
    462024160,
    462024161,
    462024163,
    462024164,
    462024165,
    462024166,
    462024168,
    462024173,
    462024174,
    462024175,
    462024176,
    2459374789,
    462024230,
    462024177,
    462024178,
    462024179,
    462024180,
    462024181,
    462024182,
    462024183,
    1279808932,
    1279808906,
    462024184,
    462024185,
    462024186,
    462024156,
    1279808956,
    1279808973,
    2459374795,
    2459374786,
    2459374784,
    462024160
  ],
  "tags": {
    "addr:city": "Birmingham",
    "addr:postcode": "B6 6JD",
    "architect": "John Thorpe",
    "building": "heritage",
    "heritage": "2",
    "heritage:operator": "Historic England",
    "listed_status": "Grade I",
    "name": "Aston Hall",
    "operator": "Birmingham City Council",
    "source": "visual survey; OS_OpenData_StreetView;Bing",
    "start_date": "1618..1631",
    "tourism": "museum",
    "url": "http://www.birmingham.gov.uk/astonhall",
    "wikidata": "Q4810979",
    "wikipedia": "en:Aston Hall"
  }
},
{
  "type": "way",
  "id": 39265950,
  "nodes": [
    470501679,
    470501676,
    470501681,
    4736511547,
    470501683,
    470501685,
    5042649089,
    470501672,
    4736511552,
    470501687,
    1042881311,
    1042881307,
    1042881285,
    4736511546,
    470501690,
    470501692,
    2690542807,
    470501694,
    4736511540,
    470501679
  ],
  "tags": {
    "addr:city": "Birmingham",
    "addr:postcode": "B15 2TS",
    "architect": "Robert Atkinson",
    "building": "yes",
    "heritage": "2",
    "heritage:operator": "Historic England",
    "listed_status": "Grade II",
    "name": "The Barber Institute of Fine Arts",
    "ref": "R.14",
    "source": "survey;estimation",
    "start_date": "1936",
    "tourism": "museum",
    "website": "http://barber.org.uk/",
    "wikidata": "Q4859590",
    "wikipedia": "en:Barber Institute of Fine Arts"
  }
},
{
  "type": "way",
  "id": 40089365,
  "nodes": [
    482362899,
    1228056770,
    1228056495,
    1228057112,
    1228056897,
    1228055998,
    1228056525,
    1228057087,
    1228056162,
    482362966,
    482362900,
    1228056451,
    482362901,
    482362934,
    482362902,
    482362899
  ],
  "tags": {
    "addr:postcode": "B18 5LB",
    "architect": "Samuel Wyatt",
    "building": "heritage",
    "heritage": "2",
    "heritage:operator": "Historic England",
    "listed_status": "Grade II*",
    "name": "Soho House Museum",
    "name:da": "Soho House",
    "operator": "Birmingham Museums & Art Gallery",
    "source": "visual survey;estimate",
    "start_date": "1789",
    "tourism": "museum",
    "wikidata": "Q1810087",
    "wikipedia": "en:Soho House"
  }
},
{
  "type": "way",
  "id": 40433288,
  "nodes": [
    489501946,
    489501961,
    2482374860,
    2482374858,
    2482374850,
    2482374852,
    2482374844,
    2482374842,
    2482374831,
    2482374835,
    489501966,
    489501969,
    2482374838,
    2482374840,
    2482374848,
    2482374846,
    2482374854,
    2482374856,
    2482374862,
    489501946
  ],
  "tags": {
    "building": "yes",
    "name": "Kidderminster Railway Museum",
    "operator": "Kidderminster Railway Museum",
    "source": "survey;Bing",
    "tourism": "museum"
  }
},
{
  "type": "way",
  "id": 50161579,
  "nodes": [
    637673963,
    637673961,
    2241857429,
    637673953,
    2241857422,
    2241857419,
    637673958,
    637673962,
    637673963
  ],
  "tags": {
    "leisure": "garden",
    "name": "Selly Manor Museum",
    "tourism": "museum",
    "url": "http://www.sellymanormuseum.org.uk/"
  }
},
{
  "type": "way",
  "id": 55280741,
  "nodes": [
    694505203,
    694505234,
    2622168485,
    2622168484,
    694505206,
    694505210,
    694505214,
    694505217,
    694505220,
    694505224,
    694505203
  ],
  "tags": {
    "building": "yes",
    "heritage": "2",
    "heritage:operator": "Historic England",
    "listed_status": "Grade I",
    "name": "St John's Museum",
    "source": "OS_OpenData_StreetView;local_knowledge",
    "tourism": "museum",
    "wikidata": "Q7593594"
  }
},
{
  "type": "way",
  "id": 57044788,
  "nodes": [
    712338205,
    712338189,
    712338217,
    6249199999,
    712338184,
    712338213,
    712338181,
    712338212,
    712338176,
    6249198970,
    712338205
  ],
  "tags": {
    "building": "museum",
    "name": "RAF Cosford Visitor Centre",
    "source": "OS_OpenData_StreetView",
    "tourism": "museum"
  }
},
{
  "type": "way",
  "id": 57044995,
  "nodes": [
    712352020,
    712352004,
    712352018,
    712351999,
    712352012,
    712352029,
    712352016,
    712352032,
    712352023,
    712352009,
    712352007,
    712352005,
    712352010,
    712352026,
    347026354,
    6249200023,
    6249200024,
    712352011,
    712352015,
    6249200025,
    6249200026,
    712352031,
    712352020
  ],
  "tags": {
    "name": "RAF Museum Cosford",
    "source": "visual survey;OS_OpenData_StreetView",
    "tourism": "museum",
    "url": "http://www.rafmuseum.org.uk/cosford/"
  }
},
{
  "type": "way",
  "id": 60577128,
  "nodes": [
    757021168,
    6438830311,
    757021175,
    757021210,
    757021181,
    757021260,
    6438830340,
    757021214,
    6438830339,
    757021164,
    757021283,
    757021168
  ],
  "tags": {
    "building": "yes",
    "name": "The Engine House",
    "operator": "Severn Valley Railway",
    "tourism": "museum",
    "wikidata": "Q7732208"
  }
},
{
  "type": "way",
  "id": 61374906,
  "nodes": [
    766434658,
    766434623,
    2631295918,
    2631295917,
    766434654,
    2631295929,
    766434625,
    766434573,
    766434578,
    766434661,
    2631295928,
    2631295927,
    2631295926,
    766434635,
    766434568,
    766434646,
    766434665,
    766434610,
    766434658
  ],
  "tags": {
    "building": "museum",
    "name": "The Leather Museum",
    "tourism": "museum",
    "wikidata": "Q7963788"
  }
},
{
  "type": "way",
  "id": 73975198,
  "nodes": [
    875323481,
    875323421,
    875323381,
    875323427,
    875323394,
    875323479,
    875323363,
    875323419,
    875323457,
    875323358,
    875323418,
    875323492,
    875323386,
    875323451,
    875323356,
    875323412,
    875323399,
    875323484,
    875323366,
    875323425,
    875323509,
    875323391,
    875323459,
    875323359,
    875323387,
    875323454,
    875323415,
    875323489,
    875323505,
    875323389,
    875323456,
    1008086206,
    1008086205,
    913522823,
    875323353,
    875323396,
    875323481
  ],
  "tags": {
    "addr:city": "Birmingham",
    "addr:housename": "Proof House",
    "addr:postcode": "B5 5RH",
    "addr:street": "Banbury Street",
    "architect": "John Horton",
    "building": "industrial",
    "heritage": "2",
    "heritage:operator": "Historic England",
    "listed_status": "Grade II*",
    "name": "Gun Barrel Proof House",
    "occupier": "Armex",
    "source": "cities_revealed_aerial_imagery",
    "start_date": "1813",
    "tourism": "museum",
    "wikidata": "Q281699",
    "wikipedia": "en:Birmingham Proof House"
  }
},
{
  "type": "way",
  "id": 80261946,
  "nodes": [
    936794833,
    936794862,
    936794791,
    936794845,
    936794714,
    936794774,
    2459837100,
    2459837106,
    2459837135,
    936794833
  ],
  "tags": {
    "addr:city": "Birmingham",
    "addr:postcode": "B13 0BD",
    "addr:street": "Cole Bank Road",
    "building": "heritage",
    "heritage": "2",
    "heritage:operator": "Historic England",
    "listed_status": "Grade II",
    "name": "Sarehole Mill",
    "source": "visual survey;OS_OpenData_StreetView",
    "start_date": "1764..1768",
    "tourism": "museum",
    "wikidata": "Q82108",
    "wikipedia": "en:Sarehole Mill"
  }
},
{
  "type": "way",
  "id": 85581636,
  "nodes": [
    992797321,
    992797195,
    2198931103,
    992797324,
    992797250,
    992797188,
    2198931106,
    2198931060,
    992797296,
    992797274,
    992797197,
    992797318,
    992797243,
    992797321
  ],
  "tags": {
    "building": "yes",
    "name": "Wolverhampton Art Gallery",
    "source": "visual survey;OS_OpenData_StreetView",
    "tourism": "museum",
    "wikidata": "Q8030459"
  }
},
{
  "type": "way",
  "id": 88512077,
  "nodes": [
    1028035104,
    1028034924,
    1028034839,
    1607545892,
    1028035084,
    1607545873,
    1028035021,
    1028034814,
    1607545864,
    1028035058,
    1607545862,
    1028035000,
    1028034843,
    1607545863,
    1607545868,
    1607545870,
    1028035104
  ],
  "tags": {
    "addr:city": "Birmingham",
    "addr:postcode": "B25 8RN",
    "addr:street": "Blakesley Road",
    "building": "heritage",
    "heritage": "2",
    "heritage:operator": "Historic England",
    "listed_status": "Grade II*",
    "name": "Blakesley Hall",
    "opening_hours": "Easter-Oct 31: Tu-Su 12:00-16:00",
    "operator": "Birmingham City Council",
    "source": "OS_OpenData_StreetView",
    "start_date": "~1590",
    "tourism": "museum",
    "wikidata": "Q4924644",
    "wikipedia": "en:Blakesley Hall"
  }
},
{
  "type": "way",
  "id": 90256656,
  "nodes": [
    1046457848,
    1046458076,
    1046457996,
    1046457802,
    1046457848
  ],
  "tags": {
    "building": "yes",
    "museum": "transport",
    "name": "Aston Manor Transport Museum",
    "source": "Observation and OS_OpenData_StreetView",
    "tourism": "museum"
  }
},
{
  "type": "way",
  "id": 98115590,
  "nodes": [
    1135460148,
    904410766,
    904410677,
    1135460132,
    1135460149,
    1135460148
  ],
  "tags": {
    "addr:city": "Birmingham",
    "addr:housenumber": "75-80",
    "addr:postcode": "B18 6HA",
    "addr:street": "Vyse Street",
    "building": "yes",
    "heritage": "2",
    "heritage:operator": "Historic England",
    "listed_status": "Grade II",
    "name": "Museum of the Jewellery Quarter",
    "source": "cities_revealed_aerial_imagery;Birmingham_City_Council",
    "tourism": "museum",
    "wikidata": "Q6941092",
    "wikipedia": "en:Museum of the Jewellery Quarter"
  }
},
{
  "type": "way",
  "id": 113823988,
  "nodes": [
    1290430683,
    1290431266,
    1290430845,
    1290430765,
    1290430690,
    1290431200,
    1290431087,
    1290430841,
    1290431205,
    1290431075,
    1290430852,
    1290430769,
    1290431059,
    1290430847,
    1290430766,
    1290430704,
    1290431190,
    1290430683
  ],
  "tags": {
    "building": "yes",
    "heritage": "2",
    "heritage:operator": "Historic England",
    "listed_status": "Grade II*",
    "name": "Middleton Hall",
    "operator": "Middleton Hall Trust",
    "source": "survey; Bing",
    "tourism": "museum",
    "url": "http://www.middletonhalltrust.co.uk/middletonhome.shtml",
    "wikipedia": "en:Middleton Hall"
  }
},
{
  "type": "way",
  "id": 118821318,
  "nodes": [
    1335742387,
    3929131089,
    3929131090,
    3929131088,
    1335742394,
    1335742385,
    1335742392,
    1335742390,
    1335742388,
    1335742389,
    1335742375,
    1335742387
  ],
  "tags": {
    "addr:city": "Wolverhampton",
    "addr:housename": "Molineux House",
    "building": "yes",
    "heritage": "2",
    "heritage:operator": "Historic England",
    "listed_status": "Grade II*",
    "name": "Wolverhampton City Archives",
    "old_name": "Molineux Hotel",
    "operator": "Wolverhampton City Council",
    "source": "Bing;knowledge",
    "tourism": "museum",
    "website": "https://www.wolverhampton.gov.uk/leisure_culture/libraries/archives"
  }
},
{
  "type": "way",
  "id": 145798882,
  "nodes": [
    1591389647,
    1591389642,
    1591389643,
    1591389640,
    1591389638,
    1591389641,
    1591389646,
    1591389645,
    1591389647
  ],
  "tags": {
    "building": "yes",
    "name": "Staffordshire Regiment Museum",
    "source": "visual survey; bing",
    "tourism": "museum",
    "wikidata": "Q7596707"
  }
},
{
  "type": "way",
  "id": 148117471,
  "nodes": [
    1612188290,
    1612188295,
    1612188335,
    1612188459,
    1612188297,
    1612188317,
    1612188256,
    1612188228,
    1612188184,
    1612188126,
    1612188083,
    1612188214,
    1612188093,
    1612188290
  ],
  "tags": {
    "building": "yes",
    "name": "Nuneaton Museum and Art Gallery",
    "source": "survey; Bing",
    "tourism": "museum",
    "wikidata": "Q7069802"
  }
},
{
  "type": "way",
  "id": 150989382,
  "nodes": [
    1638400805,
    1638400801,
    1638400830,
    1638400855,
    1638400903,
    1638400896,
    1638400924,
    1638400914,
    1638400890,
    1638400880,
    1638400818,
    1638400835,
    1638400785,
    1638400796,
    1638400805
  ],
  "tags": {
    "building": "yes",
    "name": "Black Country Living Museum",
    "source": "survey;Bing",
    "tourism": "museum",
    "url": "http://www.bclm.co.uk",
    "wikipedia": "en:Black Country Living Museum"
  }
},
{
  "type": "way",
  "id": 156363619,
  "nodes": [
    1686189424,
    1686189438,
    1686189437,
    1686189436,
    1686189454,
    1686189464,
    1686189440,
    1686189468,
    1686189476,
    1686189427,
    1686189456,
    1686189452,
    1686189460,
    1686189453,
    1686189430,
    1686189444,
    1686189446,
    1686189473,
    1686189463,
    1686189435,
    1686189469,
    1686189478,
    5277631605,
    1686189433,
    1686189432,
    540650829,
    1686189434,
    1686189441,
    1686189449,
    5277631606,
    1686189475,
    1686189424
  ],
  "tags": {
    "building": "yes",
    "heritage": "2",
    "heritage:operator": "Historic England",
    "listed_status": "Grade II",
    "name": "West Park Conservatory",
    "tourism": "museum"
  }
},
{
  "type": "way",
  "id": 160496528,
  "nodes": [
    1725514535,
    1725514541,
    1725514533,
    1725514531,
    1725514527,
    1725514529,
    1725514525,
    1725514523,
    1725514535
  ],
  "tags": {
    "building": "yes",
    "name": "Stratford Armouries",
    "source": "visual survey; bing",
    "tourism": "museum"
  }
},
{
  "type": "way",
  "id": 184654250,
  "nodes": [
    1951578066,
    1951577989,
    1951578006,
    2619501235,
    458490532,
    1951578066
  ],
  "tags": {
    "addr:postcode": "CV34 4SA",
    "building": "yes",
    "heritage": "2",
    "heritage:operator": "Historic England",
    "listed_status": "Grade II*",
    "name": "Market Hall Warwickshire Museum",
    "source": "survey",
    "tourism": "museum",
    "wikidata": "Q15961647"
  }
},
{
  "type": "way",
  "id": 187267865,
  "nodes": [
    1979947409,
    2569649235,
    2569649232,
    1979947380,
    1979947410,
    1979947375,
    1979947371,
    1979947387,
    1979947367,
    1979947417,
    1979947373,
    1979947390,
    1979947386,
    1979947408,
    1622649120,
    1979947409
  ],
  "tags": {
    "building": "yes",
    "name": "Forge Mill Needle Museum",
    "source": "survey",
    "tourism": "museum",
    "wheelchair": "limited",
    "wikidata": "Q5469586"
  }
},
{
  "type": "way",
  "id": 201566009,
  "nodes": [
    2115825213,
    2115825197,
    2115825190,
    2115825170,
    2115837773,
    2115837762,
    2115837787,
    2115837785,
    2115845254,
    2115837793,
    2115837791,
    2115845265,
    2115837803,
    2115825213
  ],
  "tags": {
    "name": "The Transport Museum",
    "tourism": "museum",
    "wikidata": "Q7769981"
  }
},
{
  "type": "way",
  "id": 202713741,
  "nodes": [
    2126644780,
    2126644779,
    2126644777,
    2126644778,
    2126644780
  ],
  "tags": {
    "building": "residential",
    "name": "Village Museum",
    "source": "bing",
    "tourism": "museum"
  }
},
{
  "type": "way",
  "id": 203601486,
  "nodes": [
    2136109756,
    2136109752,
    2136109748,
    2136109755,
    2136109759,
    2136109760,
    2136109761,
    2136109751,
    2136109753,
    2136109769,
    2136109766,
    2136109770,
    2136109767,
    2136109773,
    2136109771,
    2136109774,
    2136109768,
    2136109772,
    2136109765,
    2136109764,
    2136109762,
    2136109763,
    2136109758,
    2136109756
  ],
  "tags": {
    "WCC_ref": "MBL629",
    "amenity": "library",
    "building": "library",
    "heritage": "6",
    "heritage:operator": "Wolverhampton City Council",
    "listed_status": "local",
    "name": "Bliston Craft Gallery and Library",
    "tourism": "museum"
  }
},
{
  "type": "way",
  "id": 204141834,
  "nodes": [
    4823821745,
    4823821744,
    4823821743,
    2141569169,
    2141569167,
    2300710213,
    2300710214,
    2300710212,
    2300710211,
    2141569157,
    2141569159,
    4823821746,
    2141569155,
    2141569161,
    2141569165,
    4823821728,
    4823821729,
    2141569163,
    4823821745
  ],
  "tags": {
    "building": "yes",
    "heritage": "2",
    "heritage:operator": "Historic England",
    "listed_status": "Grade II*",
    "name": "Working Farm",
    "operator": "National Trust",
    "source": "Bing",
    "tourism": "museum"
  }
},
{
  "type": "way",
  "id": 204280728,
  "nodes": [
    2142946148,
    2029791593,
    2142946180,
    996186830,
    2029791594,
    2029791587,
    996186833,
    996186834,
    2029791580,
    996186835,
    2029791599,
    996186839,
    2029791606,
    996186842,
    996186847,
    2029791609,
    2141569184,
    2029791610,
    2141569185,
    2141569182,
    2142946243,
    996186814,
    996186815,
    996186816,
    4823821119,
    996186817,
    2142946135,
    996186818,
    2142946148
  ],
  "tags": {
    "building": "yes",
    "heritage": "2",
    "heritage:operator": "Historic England",
    "layer": "1",
    "listed_status": "Grade II",
    "note": "The former Staffordshire County Museum, now partially open as the servants quarters by the National Trust",
    "old:operator": "Staffordshire Museum & Archives Service",
    "old:wikidata": "Q7596694",
    "old:wikipedia": "en:Staffordshire County Museum",
    "old_name": "Staffordshire County Museum",
    "operator": "National Trust",
    "source": "survey; Bing",
    "tourism": "museum"
  }
},
{
  "type": "way",
  "id": 210813005,
  "nodes": [
    2208526279,
    2208526292,
    2208526255,
    2208526251,
    2208526277,
    2208526275,
    2208526269,
    2208526265,
    2208526253,
    2208526248,
    2208526267,
    2208526263,
    2208526246,
    2208526245,
    2208526250,
    2208526234,
    2208526232,
    2208526243,
    2208526236,
    2208526240,
    2208526238,
    2208526271,
    2208526273,
    2208526279
  ],
  "tags": {
    "addr:postcode": "CV13 0AD",
    "building": "visitor_centre",
    "name": "Bosworth Field Visitor Centre",
    "phone": "+44 1455 290429",
    "tourism": "museum"
  }
},
{
  "type": "way",
  "id": 219982606,
  "nodes": [
    2291097447,
    2291097445,
    2291097448,
    2291097446,
    2291097444,
    2291097443,
    2291097439,
    2291097442,
    2291097440,
    2291097441,
    2291097447
  ],
  "tags": {
    "building": "yes",
    "heritage": "2",
    "heritage:operator": "Historic England",
    "listed_status": "Grade II*",
    "name": "The Oak House Museum",
    "tourism": "museum",
    "wikidata": "Q7073600"
  }
},
{
  "type": "way",
  "id": 226961555,
  "nodes": [
    2356992542,
    2356992541,
    2356992540,
    2356992538,
    2356992537,
    2356992539,
    2356992542
  ],
  "tags": {
    "building": "yes",
    "heritage": "2",
    "heritage:operator": "Historic England",
    "listed_status": "Grade II",
    "name": "Smethwick New Pumping House",
    "tourism": "museum"
  }
},
{
  "type": "way",
  "id": 228779412,
  "nodes": [
    2374540064,
    2371573638,
    2371573639,
    2371573637,
    2371573633,
    2371573617,
    2371573610,
    2371573654,
    2374540063,
    2374540064
  ],
  "tags": {
    "building": "yes",
    "name": "Salt Museum",
    "source": "bing",
    "tourism": "museum"
  }
},
{
  "type": "way",
  "id": 231939580,
  "nodes": [
    2402609325,
    2402609317,
    2402609310,
    2402609311,
    2402609319,
    2402609318,
    2402609324,
    2402609325
  ],
  "tags": {
    "building": "yes",
    "name": "Hinckley and District Museum",
    "tourism": "museum"
  }
},
{
  "type": "way",
  "id": 232587696,
  "nodes": [
    2409321710,
    2409321827,
    2409321646,
    2409321683,
    2409321710
  ],
  "tags": {
    "tourism": "museum"
  }
},
{
  "type": "way",
  "id": 242514025,
  "nodes": [
    2499753968,
    2499753975,
    2499753959,
    2499753955,
    2499753951,
    2499753952,
    2499753949,
    2499753948,
    2499753947,
    2499753946,
    2883954248,
    2499753954,
    2499753956,
    2499753957,
    2499753960,
    2499753963,
    2499753958,
    2499753968
  ],
  "tags": {
    "building": "yes",
    "name": "The Museum in the Park",
    "operator": "Smethwick Heritage Trust",
    "tourism": "museum"
  }
},
{
  "type": "way",
  "id": 257539423,
  "nodes": [
    2630393435,
    2630393437,
    2630393438,
    2664300106,
    2630393440,
    2630393435
  ],
  "tags": {
    "building": "yes",
    "name": "The Barn Museum",
    "tourism": "museum"
  }
},
{
  "type": "way",
  "id": 266185587,
  "nodes": [
    277481025,
    2961253430,
    2961253948,
    275463160,
    2961253962,
    2961253963,
    2961253971,
    2961253972,
    275463375,
    2961253977,
    2961253978,
    2961253981,
    275463163,
    2961253965,
    275463373,
    275463171,
    1607742410,
    2961253404,
    1650569243,
    1607742407,
    1607742404,
    275463173,
    2961253365,
    1650580024,
    2961253360,
    275463174,
    2961253358,
    275463156,
    277481023,
    277481020,
    277481024,
    277481025
  ],
  "tags": {
    "addr:city": "Coventry",
    "addr:postcode": "CV1 1JD",
    "addr:street": "Hales Street",
    "building": "yes",
    "fax": "+44 24 76234284",
    "fee": "no",
    "name": "Coventry Transport Museum",
    "note": "approx",
    "old_name": "Museum of British Road Transport",
    "phone": "+44 24 76234270",
    "tourism": "museum",
    "website": "https://www.transport-museum.com/",
    "wheelchair": "yes",
    "wikidata": "Q5179119",
    "wikipedia": "en:Coventry Transport Museum"
  }
},
{
  "type": "way",
  "id": 295518647,
  "nodes": [
    2992531210,
    2992531211,
    2992531206,
    2992531205,
    2992531210
  ],
  "tags": {
    "building": "yes",
    "source": "visual survey;bing",
    "tourism": "museum"
  }
},
{
  "type": "way",
  "id": 321841613,
  "nodes": [
    3286103914,
    3286103917,
    3286103911,
    3286103908,
    3286103909,
    3286103907,
    3286103914
  ],
  "tags": {
    "building": "residential",
    "name": "Broadfield House Glass Museum",
    "source": "bing",
    "tourism": "museum",
    "wikidata": "Q4972169"
  }
},
{
  "type": "way",
  "id": 331991941,
  "nodes": [
    3390955037,
    3390955041,
    3390955040,
    3390955042,
    4238600501,
    4238600500,
    3390955038,
    3390955039,
    3390955043,
    4238600505,
    3390955037
  ],
  "tags": {
    "landuse": "commercial",
    "name": "Midland Air Museum",
    "tourism": "museum",
    "website": "http://www.midlandairmuseum.co.uk/",
    "wikidata": "Q6842303",
    "wikipedia": "en:Midland Air Museum"
  }
},
{
  "type": "way",
  "id": 366034208,
  "nodes": [
    3700264738,
    3700264741,
    3700264763,
    3700264767,
    3700264765,
    3039112723,
    3039112720,
    3700264764,
    3700264757,
    3700264732,
    3700264738
  ],
  "tags": {
    "addr:city": "Coventry",
    "addr:housename": "Court 7 Rear of Shakespeare Public House",
    "addr:postcode": "CV1 3BA",
    "addr:street": "Spon Street",
    "name": "Coventry Watch Museum",
    "tourism": "museum",
    "website": "https://www.coventrywatchmuseum.co.uk/"
  }
},
{
  "type": "way",
  "id": 405379954,
  "nodes": [
    4075881487,
    4075881488,
    4075881589,
    4075881590,
    4075881591,
    4075881592,
    4075881487
  ],
  "tags": {
    "addr:city": "Wolverhampton",
    "building": "yes",
    "name": "Tettenhall Transport Heritage Museum",
    "tourism": "museum"
  }
},
{
  "type": "way",
  "id": 406003396,
  "nodes": [
    4081299347,
    4081299351,
    5228549672,
    630662502,
    4081299362,
    310648879,
    4081299364,
    4081299363,
    4081299361,
    964748409,
    4081299343,
    4081299333,
    4081299328,
    964748415,
    622135836,
    622135847,
    2495096258,
    1335375092,
    4081299318,
    4081299322,
    4081299340,
    2495096259,
    2495096260,
    310648876,
    4081299338,
    4081299324,
    4081299323,
    4081299312,
    696436818,
    696436820,
    4081299297,
    4081299301,
    4081299300,
    4081299295,
    4081299309,
    4081299311,
    622135841,
    622135830,
    1109108087,
    4081299314,
    4081299319,
    4081299320,
    4081299331
  ],
  "tags": {
    "indoor": "yes",
    "level": "2",
    "name": "Birmingham Museum and Art Gallery",
    "tourism": "museum"
  }
},
{
  "type": "way",
  "id": 427556897,
  "nodes": [
    4267594871,
    4267594870,
    3165830446,
    3165830452,
    4267594872,
    4267594873,
    4267594874,
    4267594871
  ],
  "tags": {
    "building": "yes",
    "name": "Museum of Carpet",
    "tourism": "museum",
    "website": "http://www.carpetmuseum.co.uk/"
  }
},
{
  "type": "way",
  "id": 500763368,
  "nodes": [
    1548122708,
    4917436892,
    4917436905,
    4917436891,
    1548122700,
    1548122705,
    1548122708
  ],
  "tags": {
    "name": "Thinktank Birmingham Science Museum",
    "old_name": "Thinktank",
    "tourism": "museum",
    "wikidata": "Q7784619"
  }
},
{
  "type": "way",
  "id": 674362062,
  "nodes": [
    1021235354,
    306222614,
    306222618,
    306222619,
    1021235401,
    1021235486,
    1021235354
  ],
  "tags": {
    "building": "university",
    "name": "Lapworth Museum of Geology",
    "tourism": "museum",
    "wikidata": "Q6488462"
  }
},
{
  "type": "relation",
  "id": 547564,
  "members": [
    {
      "type": "way",
      "ref": 22702343,
      "role": "outer"
    },
    {
      "type": "way",
      "ref": 54733167,
      "role": "inner"
    }
  ],
  "tags": {
    "building": "yes",
    "name": "National Motorcycle Museum",
    "tourism": "museum",
    "type": "multipolygon",
    "wikidata": "Q6974400",
    "wikipedia": "en:National Motorcycle Museum (UK)"
  }
},
{
  "type": "relation",
  "id": 2522801,
  "members": [
    {
      "type": "way",
      "ref": 187267852,
      "role": "outer"
    },
    {
      "type": "way",
      "ref": 187267854,
      "role": "inner"
    }
  ],
  "tags": {
    "building": "yes",
    "name": "Bordesley Abbey Visitor Centre",
    "source": "bing",
    "tourism": "museum",
    "type": "multipolygon"
  }
},
{
  "type": "relation",
  "id": 2689684,
  "members": [
    {
      "type": "way",
      "ref": 200179397,
      "role": "outer"
    },
    {
      "type": "way",
      "ref": 200179405,
      "role": "inner"
    },
    {
      "type": "way",
      "ref": 709218409,
      "role": "outer"
    }
  ],
  "tags": {
    "building": "heritage",
    "heritage": "2",
    "heritage:operator": "Historic England",
    "listed_status": "Grade II*",
    "name": "Red House Glass Cone",
    "tourism": "museum",
    "type": "multipolygon"
  }
},
{
  "type": "node",
  "id": 757021164,
  "lat": 52.4421750,
  "lon": -2.3704949
},
{
  "type": "node",
  "id": 757021168,
  "lat": 52.4430539,
  "lon": -2.3708813
},
{
  "type": "node",
  "id": 757021175,
  "lat": 52.4430694,
  "lon": -2.3707151
},
{
  "type": "node",
  "id": 757021181,
  "lat": 52.4428459,
  "lon": -2.3703420
},
{
  "type": "node",
  "id": 757021210,
  "lat": 52.4430786,
  "lon": -2.3706275
},
{
  "type": "node",
  "id": 757021214,
  "lat": 52.4422911,
  "lon": -2.3702401
},
{
  "type": "node",
  "id": 757021260,
  "lat": 52.4427869,
  "lon": -2.3704026
},
{
  "type": "node",
  "id": 757021283,
  "lat": 52.4426853,
  "lon": -2.3707696
},
{
  "type": "node",
  "id": 6438830311,
  "lat": 52.4430631,
  "lon": -2.3707833
},
{
  "type": "node",
  "id": 6438830339,
  "lat": 52.4422398,
  "lon": -2.3702092
},
{
  "type": "node",
  "id": 6438830340,
  "lat": 52.4423087,
  "lon": -2.3701604
},
{
  "type": "node",
  "id": 2371573610,
  "lat": 52.2663940,
  "lon": -2.1502489
},
{
  "type": "node",
  "id": 2371573617,
  "lat": 52.2664309,
  "lon": -2.1501039
},
{
  "type": "node",
  "id": 2371573633,
  "lat": 52.2665473,
  "lon": -2.1501831
},
{
  "type": "node",
  "id": 2371573637,
  "lat": 52.2665593,
  "lon": -2.1501360
},
{
  "type": "node",
  "id": 2371573638,
  "lat": 52.2666129,
  "lon": -2.1502441
},
{
  "type": "node",
  "id": 2371573639,
  "lat": 52.2666285,
  "lon": -2.1501831
},
{
  "type": "node",
  "id": 2371573654,
  "lat": 52.2666979,
  "lon": -2.1504556
},
{
  "type": "node",
  "id": 2374540063,
  "lat": 52.2667085,
  "lon": -2.1504140
},
{
  "type": "node",
  "id": 2374540064,
  "lat": 52.2667313,
  "lon": -2.1503246
},
{
  "type": "node",
  "id": 3165830446,
  "lat": 52.3845895,
  "lon": -2.2458059
},
{
  "type": "node",
  "id": 3165830452,
  "lat": 52.3848245,
  "lon": -2.2454019
},
{
  "type": "node",
  "id": 4267594870,
  "lat": 52.3845414,
  "lon": -2.2458885
},
{
  "type": "node",
  "id": 4267594871,
  "lat": 52.3846077,
  "lon": -2.2459921
},
{
  "type": "node",
  "id": 4267594872,
  "lat": 52.3848469,
  "lon": -2.2454369
},
{
  "type": "node",
  "id": 4267594873,
  "lat": 52.3851153,
  "lon": -2.2449756
},
{
  "type": "node",
  "id": 4267594874,
  "lat": 52.3851592,
  "lon": -2.2450442
},
{
  "type": "node",
  "id": 489501946,
  "lat": 52.3843111,
  "lon": -2.2402319
},
{
  "type": "node",
  "id": 489501961,
  "lat": 52.3842885,
  "lon": -2.2400928
},
{
  "type": "node",
  "id": 489501966,
  "lat": 52.3840159,
  "lon": -2.2402177
},
{
  "type": "node",
  "id": 489501969,
  "lat": 52.3840390,
  "lon": -2.2403601
},
{
  "type": "node",
  "id": 2482374831,
  "lat": 52.3840503,
  "lon": -2.2401545
},
{
  "type": "node",
  "id": 2482374835,
  "lat": 52.3840576,
  "lon": -2.2401995
},
{
  "type": "node",
  "id": 2482374838,
  "lat": 52.3840773,
  "lon": -2.2403434
},
{
  "type": "node",
  "id": 2482374840,
  "lat": 52.3840844,
  "lon": -2.2403869
},
{
  "type": "node",
  "id": 2482374842,
  "lat": 52.3841204,
  "lon": -2.2401239
},
{
  "type": "node",
  "id": 2482374844,
  "lat": 52.3841268,
  "lon": -2.2401631
},
{
  "type": "node",
  "id": 2482374846,
  "lat": 52.3841511,
  "lon": -2.2403065
},
{
  "type": "node",
  "id": 2482374848,
  "lat": 52.3841589,
  "lon": -2.2403545
},
{
  "type": "node",
  "id": 2482374850,
  "lat": 52.3841816,
  "lon": -2.2400878
},
{
  "type": "node",
  "id": 2482374852,
  "lat": 52.3841894,
  "lon": -2.2401358
},
{
  "type": "node",
  "id": 2482374854,
  "lat": 52.3842088,
  "lon": -2.2402813
},
{
  "type": "node",
  "id": 2482374856,
  "lat": 52.3842165,
  "lon": -2.2403287
},
{
  "type": "node",
  "id": 2482374858,
  "lat": 52.3842526,
  "lon": -2.2400569
},
{
  "type": "node",
  "id": 2482374860,
  "lat": 52.3842604,
  "lon": -2.2401051
},
{
  "type": "node",
  "id": 2482374862,
  "lat": 52.3843195,
  "lon": -2.2402838
},
{
  "type": "node",
  "id": 1725514523,
  "lat": 52.2281895,
  "lon": -1.7263005
},
{
  "type": "node",
  "id": 1725514525,
  "lat": 52.2282293,
  "lon": -1.7258642
},
{
  "type": "node",
  "id": 1725514527,
  "lat": 52.2283619,
  "lon": -1.7259743
},
{
  "type": "node",
  "id": 1725514529,
  "lat": 52.2283689,
  "lon": -1.7258981
},
{
  "type": "node",
  "id": 1725514531,
  "lat": 52.2285923,
  "lon": -1.7260303
},
{
  "type": "node",
  "id": 1725514533,
  "lat": 52.2285992,
  "lon": -1.7259545
},
{
  "type": "node",
  "id": 1725514535,
  "lat": 52.2286679,
  "lon": -1.7264167
},
{
  "type": "node",
  "id": 1725514541,
  "lat": 52.2287077,
  "lon": -1.7259809
},
{
  "type": "node",
  "id": 459381600,
  "lat": 52.3124547,
  "lon": -2.0732902
},
{
  "type": "node",
  "id": 459381601,
  "lat": 52.3121183,
  "lon": -2.0728183
},
{
  "type": "node",
  "id": 459381602,
  "lat": 52.3117820,
  "lon": -2.0724686
},
{
  "type": "node",
  "id": 459381603,
  "lat": 52.3119507,
  "lon": -2.0716647
},
{
  "type": "node",
  "id": 459381604,
  "lat": 52.3130672,
  "lon": -2.0714277
},
{
  "type": "node",
  "id": 459381605,
  "lat": 52.3132340,
  "lon": -2.0712064
},
{
  "type": "node",
  "id": 459381619,
  "lat": 52.3139307,
  "lon": -2.0740038
},
{
  "type": "node",
  "id": 459381620,
  "lat": 52.3137592,
  "lon": -2.0737703
},
{
  "type": "node",
  "id": 459381623,
  "lat": 52.3135300,
  "lon": -2.0741370
},
{
  "type": "node",
  "id": 459381625,
  "lat": 52.3132403,
  "lon": -2.0735997
},
{
  "type": "node",
  "id": 1360204595,
  "lat": 52.3118135,
  "lon": -2.0719925
},
{
  "type": "node",
  "id": 1360204602,
  "lat": 52.3128340,
  "lon": -2.0727607
},
{
  "type": "node",
  "id": 1360204604,
  "lat": 52.3128355,
  "lon": -2.0715943
},
{
  "type": "node",
  "id": 1360204605,
  "lat": 52.3128702,
  "lon": -2.0714849
},
{
  "type": "node",
  "id": 3155148787,
  "lat": 52.3134192,
  "lon": -2.0739214
},
{
  "type": "node",
  "id": 5376286943,
  "lat": 52.3125422,
  "lon": -2.0719260
},
{
  "type": "node",
  "id": 459381607,
  "lat": 52.3137788,
  "lon": -2.0701550
},
{
  "type": "node",
  "id": 459381609,
  "lat": 52.3138478,
  "lon": -2.0700531
},
{
  "type": "node",
  "id": 5652449100,
  "lat": 52.3139614,
  "lon": -2.0702429
},
{
  "type": "node",
  "id": 459381617,
  "lat": 52.3146932,
  "lon": -2.0723777
},
{
  "type": "node",
  "id": 1360204632,
  "lat": 52.3141922,
  "lon": -2.0732800
},
{
  "type": "node",
  "id": 1360204662,
  "lat": 52.3150200,
  "lon": -2.0720619
},
{
  "type": "node",
  "id": 3155148793,
  "lat": 52.3141761,
  "lon": -2.0735319
},
{
  "type": "node",
  "id": 3501606904,
  "lat": 52.3148101,
  "lon": -2.0722647
},
{
  "type": "node",
  "id": 459381610,
  "lat": 52.3142106,
  "lon": -2.0706591
},
{
  "type": "node",
  "id": 459381612,
  "lat": 52.3150135,
  "lon": -2.0696193
},
{
  "type": "node",
  "id": 459381613,
  "lat": 52.3151693,
  "lon": -2.0699866
},
{
  "type": "node",
  "id": 459381615,
  "lat": 52.3150674,
  "lon": -2.0703150
},
{
  "type": "node",
  "id": 1360204638,
  "lat": 52.3144117,
  "lon": -2.0703344
},
{
  "type": "node",
  "id": 1360204654,
  "lat": 52.3147802,
  "lon": -2.0698993
},
{
  "type": "node",
  "id": 1360204671,
  "lat": 52.3152842,
  "lon": -2.0706943
},
{
  "type": "node",
  "id": 1622649120,
  "lat": 52.3149996,
  "lon": -1.9340481
},
{
  "type": "node",
  "id": 1979947363,
  "lat": 52.3153573,
  "lon": -1.9338462
},
{
  "type": "node",
  "id": 1979947364,
  "lat": 52.3155097,
  "lon": -1.9337051
},
{
  "type": "node",
  "id": 1979947365,
  "lat": 52.3154978,
  "lon": -1.9337172
},
{
  "type": "node",
  "id": 1979947366,
  "lat": 52.3155392,
  "lon": -1.9338352
},
{
  "type": "node",
  "id": 1979947367,
  "lat": 52.3149936,
  "lon": -1.9342805
},
{
  "type": "node",
  "id": 1979947369,
  "lat": 52.3155522,
  "lon": -1.9338206
},
{
  "type": "node",
  "id": 1979947370,
  "lat": 52.3152941,
  "lon": -1.9341322
},
{
  "type": "node",
  "id": 1979947371,
  "lat": 52.3150914,
  "lon": -1.9343903
},
{
  "type": "node",
  "id": 1979947372,
  "lat": 52.3153918,
  "lon": -1.9339060
},
{
  "type": "node",
  "id": 1979947373,
  "lat": 52.3149822,
  "lon": -1.9341787
},
{
  "type": "node",
  "id": 1979947374,
  "lat": 52.3155388,
  "lon": -1.9337058
},
{
  "type": "node",
  "id": 1979947375,
  "lat": 52.3151203,
  "lon": -1.9342620
},
{
  "type": "node",
  "id": 1979947376,
  "lat": 52.3154214,
  "lon": -1.9337748
},
{
  "type": "node",
  "id": 1979947377,
  "lat": 52.3154220,
  "lon": -1.9340169
},
{
  "type": "node",
  "id": 1979947379,
  "lat": 52.3153918,
  "lon": -1.9341867
},
{
  "type": "node",
  "id": 1979947380,
  "lat": 52.3151042,
  "lon": -1.9342136
},
{
  "type": "node",
  "id": 1979947381,
  "lat": 52.3154843,
  "lon": -1.9337393
},
{
  "type": "node",
  "id": 1979947382,
  "lat": 52.3153945,
  "lon": -1.9336870
},
{
  "type": "node",
  "id": 1979947383,
  "lat": 52.3155117,
  "lon": -1.9338399
},
{
  "type": "node",
  "id": 1979947384,
  "lat": 52.3155589,
  "lon": -1.9338050
},
{
  "type": "node",
  "id": 1979947386,
  "lat": 52.3149586,
  "lon": -1.9341236
},
{
  "type": "node",
  "id": 1979947387,
  "lat": 52.3149835,
  "lon": -1.9343254
},
{
  "type": "node",
  "id": 1979947388,
  "lat": 52.3153744,
  "lon": -1.9339894
},
{
  "type": "node",
  "id": 1979947389,
  "lat": 52.3155626,
  "lon": -1.9337601
},
{
  "type": "node",
  "id": 1979947390,
  "lat": 52.3149904,
  "lon": -1.9341432
},
{
  "type": "node",
  "id": 1979947391,
  "lat": 52.3155251,
  "lon": -1.9338400
},
{
  "type": "node",
  "id": 1979947392,
  "lat": 52.3154884,
  "lon": -1.9337312
},
{
  "type": "node",
  "id": 1979947393,
  "lat": 52.3155224,
  "lon": -1.9337004
},
{
  "type": "node",
  "id": 1979947394,
  "lat": 52.3153838,
  "lon": -1.9341839
},
{
  "type": "node",
  "id": 1979947396,
  "lat": 52.3155503,
  "lon": -1.9337172
},
{
  "type": "node",
  "id": 1979947397,
  "lat": 52.3154750,
  "lon": -1.9338071
},
{
  "type": "node",
  "id": 1979947399,
  "lat": 52.3153371,
  "lon": -1.9341584
},
{
  "type": "node",
  "id": 1979947401,
  "lat": 52.3153482,
  "lon": -1.9338855
},
{
  "type": "node",
  "id": 1979947407,
  "lat": 52.3154454,
  "lon": -1.9339384
},
{
  "type": "node",
  "id": 1979947408,
  "lat": 52.3149790,
  "lon": -1.9340353
},
{
  "type": "node",
  "id": 1979947409,
  "lat": 52.3151484,
  "lon": -1.9341376
},
{
  "type": "node",
  "id": 1979947410,
  "lat": 52.3150965,
  "lon": -1.9342477
},
{
  "type": "node",
  "id": 1979947411,
  "lat": 52.3155589,
  "lon": -1.9337366
},
{
  "type": "node",
  "id": 1979947413,
  "lat": 52.3154297,
  "lon": -1.9342080
},
{
  "type": "node",
  "id": 1979947415,
  "lat": 52.3155624,
  "lon": -1.9337837
},
{
  "type": "node",
  "id": 1979947417,
  "lat": 52.3149634,
  "lon": -1.9342624
},
{
  "type": "node",
  "id": 2569649232,
  "lat": 52.3151278,
  "lon": -1.9342276
},
{
  "type": "node",
  "id": 2569649235,
  "lat": 52.3151296,
  "lon": -1.9342197
},
{
  "type": "node",
  "id": 2115825170,
  "lat": 52.3729242,
  "lon": -1.8947084
},
{
  "type": "node",
  "id": 2115837762,
  "lat": 52.3725854,
  "lon": -1.8954826
},
{
  "type": "node",
  "id": 2115837773,
  "lat": 52.3728015,
  "lon": -1.8948233
},
{
  "type": "node",
  "id": 2115837785,
  "lat": 52.3729958,
  "lon": -1.8964344
},
{
  "type": "node",
  "id": 2115837787,
  "lat": 52.3731054,
  "lon": -1.8960907
},
{
  "type": "node",
  "id": 2115825190,
  "lat": 52.3736756,
  "lon": -1.8954432
},
{
  "type": "node",
  "id": 2115825197,
  "lat": 52.3738615,
  "lon": -1.8949506
},
{
  "type": "node",
  "id": 2115825213,
  "lat": 52.3742738,
  "lon": -1.8953338
},
{
  "type": "node",
  "id": 2115837791,
  "lat": 52.3733910,
  "lon": -1.8969401
},
{
  "type": "node",
  "id": 2115837793,
  "lat": 52.3734174,
  "lon": -1.8968644
},
{
  "type": "node",
  "id": 2115837803,
  "lat": 52.3736359,
  "lon": -1.8971507
},
{
  "type": "node",
  "id": 2115845254,
  "lat": 52.3733554,
  "lon": -1.8968064
},
{
  "type": "node",
  "id": 2115845265,
  "lat": 52.3735626,
  "lon": -1.8971007
},
{
  "type": "node",
  "id": 637673953,
  "lat": 52.4306272,
  "lon": -1.9343440
},
{
  "type": "node",
  "id": 637673958,
  "lat": 52.4306121,
  "lon": -1.9342394
},
{
  "type": "node",
  "id": 637673961,
  "lat": 52.4309562,
  "lon": -1.9346377
},
{
  "type": "node",
  "id": 637673962,
  "lat": 52.4308448,
  "lon": -1.9339522
},
{
  "type": "node",
  "id": 637673963,
  "lat": 52.4310930,
  "lon": -1.9344869
},
{
  "type": "node",
  "id": 2241857419,
  "lat": 52.4306032,
  "lon": -1.9342708
},
{
  "type": "node",
  "id": 2241857422,
  "lat": 52.4306070,
  "lon": -1.9343078
},
{
  "type": "node",
  "id": 2241857429,
  "lat": 52.4308034,
  "lon": -1.9345072
},
{
  "type": "node",
  "id": 936794714,
  "lat": 52.4342029,
  "lon": -1.8559801
},
{
  "type": "node",
  "id": 936794774,
  "lat": 52.4341912,
  "lon": -1.8560782
},
{
  "type": "node",
  "id": 936794791,
  "lat": 52.4343808,
  "lon": -1.8558908
},
{
  "type": "node",
  "id": 936794833,
  "lat": 52.4344415,
  "lon": -1.8561588
},
{
  "type": "node",
  "id": 936794845,
  "lat": 52.4343639,
  "lon": -1.8560320
},
{
  "type": "node",
  "id": 936794862,
  "lat": 52.4344702,
  "lon": -1.8559196
},
{
  "type": "node",
  "id": 2459837100,
  "lat": 52.4343061,
  "lon": -1.8561152
},
{
  "type": "node",
  "id": 2459837106,
  "lat": 52.4343174,
  "lon": -1.8561188
},
{
  "type": "node",
  "id": 2459837135,
  "lat": 52.4344154,
  "lon": -1.8561504
},
{
  "type": "node",
  "id": 243520665,
  "lat": 52.4446525,
  "lon": -1.7074986
},
{
  "type": "node",
  "id": 243520666,
  "lat": 52.4449073,
  "lon": -1.7058833
},
{
  "type": "node",
  "id": 243520667,
  "lat": 52.4440392,
  "lon": -1.7053459
},
{
  "type": "node",
  "id": 243520668,
  "lat": 52.4443667,
  "lon": -1.7074493
},
{
  "type": "node",
  "id": 689197481,
  "lat": 52.4446888,
  "lon": -1.7069333
},
{
  "type": "node",
  "id": 689197485,
  "lat": 52.4447355,
  "lon": -1.7069413
},
{
  "type": "node",
  "id": 689197489,
  "lat": 52.4447604,
  "lon": -1.7065529
},
{
  "type": "node",
  "id": 689197492,
  "lat": 52.4448107,
  "lon": -1.7065616
},
{
  "type": "node",
  "id": 689197502,
  "lat": 52.4445749,
  "lon": -1.7057537
},
{
  "type": "node",
  "id": 689197507,
  "lat": 52.4445881,
  "lon": -1.7055482
},
{
  "type": "node",
  "id": 689197530,
  "lat": 52.4440896,
  "lon": -1.7065491
},
{
  "type": "node",
  "id": 689197535,
  "lat": 52.4441788,
  "lon": -1.7064808
},
{
  "type": "node",
  "id": 689197538,
  "lat": 52.4441421,
  "lon": -1.7070532
},
{
  "type": "node",
  "id": 689197543,
  "lat": 52.4443512,
  "lon": -1.7070893
},
{
  "type": "node",
  "id": 689197569,
  "lat": 52.4446064,
  "lon": -1.7069190
},
{
  "type": "node",
  "id": 689197574,
  "lat": 52.4447007,
  "lon": -1.7059696
},
{
  "type": "node",
  "id": 689197579,
  "lat": 52.4444306,
  "lon": -1.7058517
},
{
  "type": "node",
  "id": 689197586,
  "lat": 52.4443579,
  "lon": -1.7069848
},
{
  "type": "node",
  "id": 1040124020,
  "lat": 52.4444657,
  "lon": -1.7060423
},
{
  "type": "node",
  "id": 1040124040,
  "lat": 52.4446885,
  "lon": -1.7061595
},
{
  "type": "node",
  "id": 1040124051,
  "lat": 52.4441393,
  "lon": -1.7053632
},
{
  "type": "node",
  "id": 1040124081,
  "lat": 52.4446758,
  "lon": -1.7065383
},
{
  "type": "node",
  "id": 1040124103,
  "lat": 52.4446744,
  "lon": -1.7058430
},
{
  "type": "node",
  "id": 1040124172,
  "lat": 52.4446594,
  "lon": -1.7060758
},
{
  "type": "node",
  "id": 1040124178,
  "lat": 52.4445475,
  "lon": -1.7069089
},
{
  "type": "node",
  "id": 1040124203,
  "lat": 52.4443353,
  "lon": -1.7073372
},
{
  "type": "node",
  "id": 1040124211,
  "lat": 52.4444584,
  "lon": -1.7054183
},
{
  "type": "node",
  "id": 1040124236,
  "lat": 52.4447484,
  "lon": -1.7062385
},
{
  "type": "node",
  "id": 1040124277,
  "lat": 52.4445669,
  "lon": -1.7066061
},
{
  "type": "node",
  "id": 1040124300,
  "lat": 52.4443735,
  "lon": -1.7073437
},
{
  "type": "node",
  "id": 1040124309,
  "lat": 52.4444216,
  "lon": -1.7054119
},
{
  "type": "node",
  "id": 1040124327,
  "lat": 52.4447528,
  "lon": -1.7061706
},
{
  "type": "node",
  "id": 1040124355,
  "lat": 52.4444775,
  "lon": -1.7058598
},
{
  "type": "node",
  "id": 1040124379,
  "lat": 52.4439634,
  "lon": -1.7065274
},
{
  "type": "node",
  "id": 1040124397,
  "lat": 52.4446136,
  "lon": -1.7065275
},
{
  "type": "node",
  "id": 1040124407,
  "lat": 52.4448348,
  "lon": -1.7061847
},
{
  "type": "node",
  "id": 1040124419,
  "lat": 52.4445995,
  "lon": -1.7070265
},
{
  "type": "node",
  "id": 1040124437,
  "lat": 52.4440949,
  "lon": -1.7064663
},
{
  "type": "node",
  "id": 1040124450,
  "lat": 52.4444398,
  "lon": -1.7057086
},
{
  "type": "node",
  "id": 1040124470,
  "lat": 52.4446334,
  "lon": -1.7062187
},
{
  "type": "node",
  "id": 1040124472,
  "lat": 52.4441721,
  "lon": -1.7065850
},
{
  "type": "node",
  "id": 1040124474,
  "lat": 52.4448873,
  "lon": -1.7061938
},
{
  "type": "node",
  "id": 1040124489,
  "lat": 52.4446666,
  "lon": -1.7059637
},
{
  "type": "node",
  "id": 1040124509,
  "lat": 52.4443516,
  "lon": -1.7053999
},
{
  "type": "node",
  "id": 1040124527,
  "lat": 52.4446703,
  "lon": -1.7066239
},
{
  "type": "node",
  "id": 1040124535,
  "lat": 52.4446789,
  "lon": -1.7057717
},
{
  "type": "node",
  "id": 1869025752,
  "lat": 52.4441315,
  "lon": -1.7054843
},
{
  "type": "node",
  "id": 1869025753,
  "lat": 52.4443438,
  "lon": -1.7055210
},
{
  "type": "node",
  "id": 1869025754,
  "lat": 52.4444866,
  "lon": -1.7057167
},
{
  "type": "node",
  "id": 1869025755,
  "lat": 52.4444984,
  "lon": -1.7055327
},
{
  "type": "node",
  "id": 347026354,
  "lat": 52.6428586,
  "lon": -2.3139024
},
{
  "type": "node",
  "id": 712338176,
  "lat": 52.6453663,
  "lon": -2.3160665
},
{
  "type": "node",
  "id": 712338181,
  "lat": 52.6451767,
  "lon": -2.3158015
},
{
  "type": "node",
  "id": 712338184,
  "lat": 52.6455383,
  "lon": -2.3151818
},
{
  "type": "node",
  "id": 712338189,
  "lat": 52.6455254,
  "lon": -2.3155484
},
{
  "type": "node",
  "id": 712338205,
  "lat": 52.6455959,
  "lon": -2.3158921
},
{
  "type": "node",
  "id": 712338212,
  "lat": 52.6452718,
  "lon": -2.3157290
},
{
  "type": "node",
  "id": 712338213,
  "lat": 52.6450961,
  "lon": -2.3155096
},
{
  "type": "node",
  "id": 712338217,
  "lat": 52.6455997,
  "lon": -2.3154728
},
{
  "type": "node",
  "id": 712351999,
  "lat": 52.6460950,
  "lon": -2.3181865
},
{
  "type": "node",
  "id": 712352004,
  "lat": 52.6454951,
  "lon": -2.3184458
},
{
  "type": "node",
  "id": 712352011,
  "lat": 52.6436462,
  "lon": -2.3144143
},
{
  "type": "node",
  "id": 712352012,
  "lat": 52.6461536,
  "lon": -2.3180539
},
{
  "type": "node",
  "id": 712352015,
  "lat": 52.6440897,
  "lon": -2.3152277
},
{
  "type": "node",
  "id": 712352016,
  "lat": 52.6458480,
  "lon": -2.3141637
},
{
  "type": "node",
  "id": 712352018,
  "lat": 52.6457365,
  "lon": -2.3182227
},
{
  "type": "node",
  "id": 712352020,
  "lat": 52.6444671,
  "lon": -2.3192944
},
{
  "type": "node",
  "id": 712352029,
  "lat": 52.6460489,
  "lon": -2.3160333
},
{
  "type": "node",
  "id": 712352031,
  "lat": 52.6440630,
  "lon": -2.3182748
},
{
  "type": "node",
  "id": 6249198970,
  "lat": 52.6454851,
  "lon": -2.3159802
},
{
  "type": "node",
  "id": 6249199999,
  "lat": 52.6455440,
  "lon": -2.3152031
},
{
  "type": "node",
  "id": 6249200023,
  "lat": 52.6432620,
  "lon": -2.3145425
},
{
  "type": "node",
  "id": 6249200024,
  "lat": 52.6434850,
  "lon": -2.3141858
},
{
  "type": "node",
  "id": 6249200025,
  "lat": 52.6439748,
  "lon": -2.3170263
},
{
  "type": "node",
  "id": 6249200026,
  "lat": 52.6437372,
  "lon": -2.3172596
},
{
  "type": "node",
  "id": 712352005,
  "lat": 52.6446661,
  "lon": -2.3122323
},
{
  "type": "node",
  "id": 712352007,
  "lat": 52.6448687,
  "lon": -2.3120610
},
{
  "type": "node",
  "id": 712352009,
  "lat": 52.6450634,
  "lon": -2.3127116
},
{
  "type": "node",
  "id": 712352010,
  "lat": 52.6445515,
  "lon": -2.3118914
},
{
  "type": "node",
  "id": 712352023,
  "lat": 52.6453670,
  "lon": -2.3124221
},
{
  "type": "node",
  "id": 712352026,
  "lat": 52.6435085,
  "lon": -2.3128925
},
{
  "type": "node",
  "id": 712352032,
  "lat": 52.6456106,
  "lon": -2.3122660
},
{
  "type": "node",
  "id": 2101750198,
  "lat": 52.4758746,
  "lon": -2.1572887
},
{
  "type": "node",
  "id": 2101750203,
  "lat": 52.4758988,
  "lon": -2.1572144
},
{
  "type": "node",
  "id": 2101750212,
  "lat": 52.4759459,
  "lon": -2.1572596
},
{
  "type": "node",
  "id": 2101750228,
  "lat": 52.4760537,
  "lon": -2.1573631
},
{
  "type": "node",
  "id": 2101750236,
  "lat": 52.4760934,
  "lon": -2.1569741
},
{
  "type": "node",
  "id": 2101750237,
  "lat": 52.4761010,
  "lon": -2.1570236
},
{
  "type": "node",
  "id": 2101750238,
  "lat": 52.4761010,
  "lon": -2.1574043
},
{
  "type": "node",
  "id": 2101750242,
  "lat": 52.4761156,
  "lon": -2.1568783
},
{
  "type": "node",
  "id": 2101750243,
  "lat": 52.4761232,
  "lon": -2.1569669
},
{
  "type": "node",
  "id": 2101750244,
  "lat": 52.4761255,
  "lon": -2.1569437
},
{
  "type": "node",
  "id": 2101750245,
  "lat": 52.4761254,
  "lon": -2.1570089
},
{
  "type": "node",
  "id": 2101750246,
  "lat": 52.4761286,
  "lon": -2.1569277
},
{
  "type": "node",
  "id": 2101750247,
  "lat": 52.4761291,
  "lon": -2.1570272
},
{
  "type": "node",
  "id": 2101750248,
  "lat": 52.4761332,
  "lon": -2.1568378
},
{
  "type": "node",
  "id": 2101750249,
  "lat": 52.4761358,
  "lon": -2.1569047
},
{
  "type": "node",
  "id": 2101750250,
  "lat": 52.4761443,
  "lon": -2.1570665
},
{
  "type": "node",
  "id": 2101750254,
  "lat": 52.4761513,
  "lon": -2.1572557
},
{
  "type": "node",
  "id": 2101750256,
  "lat": 52.4761557,
  "lon": -2.1570834
},
{
  "type": "node",
  "id": 2101750257,
  "lat": 52.4761567,
  "lon": -2.1568685
},
{
  "type": "node",
  "id": 2101750258,
  "lat": 52.4761603,
  "lon": -2.1574588
},
{
  "type": "node",
  "id": 2101750260,
  "lat": 52.4761638,
  "lon": -2.1568610
},
{
  "type": "node",
  "id": 2101750261,
  "lat": 52.4761669,
  "lon": -2.1568007
},
{
  "type": "node",
  "id": 2101750262,
  "lat": 52.4761725,
  "lon": -2.1568539
},
{
  "type": "node",
  "id": 2101750267,
  "lat": 52.4762076,
  "lon": -2.1567941
},
{
  "type": "node",
  "id": 2101750269,
  "lat": 52.4762096,
  "lon": -2.1573019
},
{
  "type": "node",
  "id": 2101750270,
  "lat": 52.4762108,
  "lon": -2.1568439
},
{
  "type": "node",
  "id": 2101750271,
  "lat": 52.4762207,
  "lon": -2.1576042
},
{
  "type": "node",
  "id": 2101750272,
  "lat": 52.4762283,
  "lon": -2.1568495
},
{
  "type": "node",
  "id": 2101750273,
  "lat": 52.4762366,
  "lon": -2.1568546
},
{
  "type": "node",
  "id": 2101750276,
  "lat": 52.4762310,
  "lon": -2.1571021
},
{
  "type": "node",
  "id": 2101750279,
  "lat": 52.4762609,
  "lon": -2.1571797
},
{
  "type": "node",
  "id": 2101750280,
  "lat": 52.4762576,
  "lon": -2.1570764
},
{
  "type": "node",
  "id": 2101750281,
  "lat": 52.4762710,
  "lon": -2.1567652
},
{
  "type": "node",
  "id": 2101750283,
  "lat": 52.4762733,
  "lon": -2.1569072
},
{
  "type": "node",
  "id": 2101750284,
  "lat": 52.4762776,
  "lon": -2.1570324
},
{
  "type": "node",
  "id": 2101750286,
  "lat": 52.4762750,
  "lon": -2.1571285
},
{
  "type": "node",
  "id": 2101750290,
  "lat": 52.4762821,
  "lon": -2.1569405
},
{
  "type": "node",
  "id": 2101750291,
  "lat": 52.4762841,
  "lon": -2.1570971
},
{
  "type": "node",
  "id": 2101750292,
  "lat": 52.4762841,
  "lon": -2.1569976
},
{
  "type": "node",
  "id": 2101750293,
  "lat": 52.4762845,
  "lon": -2.1569598
},
{
  "type": "node",
  "id": 2101750295,
  "lat": 52.4762972,
  "lon": -2.1570526
},
{
  "type": "node",
  "id": 2101750297,
  "lat": 52.4763112,
  "lon": -2.1568147
},
{
  "type": "node",
  "id": 2101750305,
  "lat": 52.4763364,
  "lon": -2.1572524
},
{
  "type": "node",
  "id": 2101750315,
  "lat": 52.4764016,
  "lon": -2.1568555
},
{
  "type": "node",
  "id": 2542117803,
  "lat": 52.4761376,
  "lon": -2.1570529
},
{
  "type": "node",
  "id": 2542117896,
  "lat": 52.4762451,
  "lon": -2.1570913
},
{
  "type": "node",
  "id": 2686334443,
  "lat": 52.4763352,
  "lon": -2.1572535
},
{
  "type": "node",
  "id": 2686334463,
  "lat": 52.4763537,
  "lon": -2.1572159
},
{
  "type": "node",
  "id": 2686334483,
  "lat": 52.4764424,
  "lon": -2.1569111
},
{
  "type": "node",
  "id": 6665540323,
  "lat": 52.4763613,
  "lon": -2.1568121
},
{
  "type": "node",
  "id": 6665540324,
  "lat": 52.4763635,
  "lon": -2.1568624
},
{
  "type": "node",
  "id": 6665540325,
  "lat": 52.4763016,
  "lon": -2.1572189
},
{
  "type": "node",
  "id": 3286103907,
  "lat": 52.4917860,
  "lon": -2.1693624
},
{
  "type": "node",
  "id": 3286103908,
  "lat": 52.4917908,
  "lon": -2.1692850
},
{
  "type": "node",
  "id": 3286103909,
  "lat": 52.4918111,
  "lon": -2.1693128
},
{
  "type": "node",
  "id": 3286103914,
  "lat": 52.4919052,
  "lon": -2.1695256
},
{
  "type": "node",
  "id": 3286103917,
  "lat": 52.4920101,
  "lon": -2.1693191
},
{
  "type": "node",
  "id": 3286103911,
  "lat": 52.4918705,
  "lon": -2.1691280
},
{
  "type": "node",
  "id": 4075881487,
  "lat": 52.5965401,
  "lon": -2.1624091
},
{
  "type": "node",
  "id": 4075881488,
  "lat": 52.5967174,
  "lon": -2.1622051
},
{
  "type": "node",
  "id": 4075881589,
  "lat": 52.5967465,
  "lon": -2.1622736
},
{
  "type": "node",
  "id": 4075881590,
  "lat": 52.5967096,
  "lon": -2.1623160
},
{
  "type": "node",
  "id": 4075881591,
  "lat": 52.5967443,
  "lon": -2.1623977
},
{
  "type": "node",
  "id": 4075881592,
  "lat": 52.5966038,
  "lon": -2.1625592
},
{
  "type": "node",
  "id": 1335742375,
  "lat": 52.5884231,
  "lon": -2.1306819
},
{
  "type": "node",
  "id": 1335742385,
  "lat": 52.5886195,
  "lon": -2.1305345
},
{
  "type": "node",
  "id": 1335742387,
  "lat": 52.5884999,
  "lon": -2.1308033
},
{
  "type": "node",
  "id": 1335742388,
  "lat": 52.5884830,
  "lon": -2.1305186
},
{
  "type": "node",
  "id": 1335742389,
  "lat": 52.5885014,
  "lon": -2.1305476
},
{
  "type": "node",
  "id": 1335742390,
  "lat": 52.5886506,
  "lon": -2.1302310
},
{
  "type": "node",
  "id": 1335742392,
  "lat": 52.5887265,
  "lon": -2.1303509
},
{
  "type": "node",
  "id": 1335742394,
  "lat": 52.5886396,
  "lon": -2.1305662
},
{
  "type": "node",
  "id": 3929131088,
  "lat": 52.5885664,
  "lon": -2.1306919
},
{
  "type": "node",
  "id": 3929131089,
  "lat": 52.5885868,
  "lon": -2.1309404
},
{
  "type": "node",
  "id": 3929131090,
  "lat": 52.5886524,
  "lon": -2.1308277
},
{
  "type": "node",
  "id": 992797188,
  "lat": 52.5868259,
  "lon": -2.1267659
},
{
  "type": "node",
  "id": 992797195,
  "lat": 52.5870611,
  "lon": -2.1269720
},
{
  "type": "node",
  "id": 992797197,
  "lat": 52.5866212,
  "lon": -2.1270493
},
{
  "type": "node",
  "id": 992797243,
  "lat": 52.5870084,
  "lon": -2.1272907
},
{
  "type": "node",
  "id": 992797250,
  "lat": 52.5867979,
  "lon": -2.1269635
},
{
  "type": "node",
  "id": 992797274,
  "lat": 52.5865967,
  "lon": -2.1269348
},
{
  "type": "node",
  "id": 992797296,
  "lat": 52.5866719,
  "lon": -2.1266656
},
{
  "type": "node",
  "id": 992797318,
  "lat": 52.5869783,
  "lon": -2.1272381
},
{
  "type": "node",
  "id": 992797321,
  "lat": 52.5870930,
  "lon": -2.1273216
},
{
  "type": "node",
  "id": 992797324,
  "lat": 52.5869407,
  "lon": -2.1270184
},
{
  "type": "node",
  "id": 2198931060,
  "lat": 52.5867089,
  "lon": -2.1266867
},
{
  "type": "node",
  "id": 2198931103,
  "lat": 52.5870336,
  "lon": -2.1269826
},
{
  "type": "node",
  "id": 2198931106,
  "lat": 52.5867726,
  "lon": -2.1267233
},
{
  "type": "node",
  "id": 540650829,
  "lat": 52.5911123,
  "lon": -2.1414627
},
{
  "type": "node",
  "id": 1686189424,
  "lat": 52.5911027,
  "lon": -2.1412667
},
{
  "type": "node",
  "id": 1686189427,
  "lat": 52.5912353,
  "lon": -2.1412675
},
{
  "type": "node",
  "id": 1686189430,
  "lat": 52.5912712,
  "lon": -2.1413464
},
{
  "type": "node",
  "id": 1686189432,
  "lat": 52.5911956,
  "lon": -2.1413215
},
{
  "type": "node",
  "id": 1686189433,
  "lat": 52.5912199,
  "lon": -2.1413602
},
{
  "type": "node",
  "id": 1686189434,
  "lat": 52.5910905,
  "lon": -2.1414278
},
{
  "type": "node",
  "id": 1686189435,
  "lat": 52.5912455,
  "lon": -2.1413817
},
{
  "type": "node",
  "id": 1686189436,
  "lat": 52.5911022,
  "lon": -2.1412599
},
{
  "type": "node",
  "id": 1686189437,
  "lat": 52.5910861,
  "lon": -2.1412334
},
{
  "type": "node",
  "id": 1686189438,
  "lat": 52.5910841,
  "lon": -2.1412367
},
{
  "type": "node",
  "id": 1686189440,
  "lat": 52.5912050,
  "lon": -2.1411737
},
{
  "type": "node",
  "id": 1686189441,
  "lat": 52.5910636,
  "lon": -2.1414735
},
{
  "type": "node",
  "id": 1686189444,
  "lat": 52.5912712,
  "lon": -2.1413711
},
{
  "type": "node",
  "id": 1686189446,
  "lat": 52.5912910,
  "lon": -2.1413629
},
{
  "type": "node",
  "id": 1686189449,
  "lat": 52.5910470,
  "lon": -2.1414469
},
{
  "type": "node",
  "id": 1686189452,
  "lat": 52.5912469,
  "lon": -2.1412205
},
{
  "type": "node",
  "id": 1686189453,
  "lat": 52.5914587,
  "lon": -2.1412723
},
{
  "type": "node",
  "id": 1686189454,
  "lat": 52.5911650,
  "lon": -2.1411564
},
{
  "type": "node",
  "id": 1686189456,
  "lat": 52.5912527,
  "lon": -2.1412606
},
{
  "type": "node",
  "id": 1686189460,
  "lat": 52.5914400,
  "lon": -2.1411442
},
{
  "type": "node",
  "id": 1686189463,
  "lat": 52.5912672,
  "lon": -2.1415241
},
{
  "type": "node",
  "id": 1686189464,
  "lat": 52.5911903,
  "lon": -2.1411980
},
{
  "type": "node",
  "id": 1686189468,
  "lat": 52.5912181,
  "lon": -2.1411953
},
{
  "type": "node",
  "id": 1686189469,
  "lat": 52.5912496,
  "lon": -2.1413819
},
{
  "type": "node",
  "id": 1686189473,
  "lat": 52.5913127,
  "lon": -2.1415053
},
{
  "type": "node",
  "id": 1686189475,
  "lat": 52.5910422,
  "lon": -2.1413687
},
{
  "type": "node",
  "id": 1686189476,
  "lat": 52.5912048,
  "lon": -2.1412172
},
{
  "type": "node",
  "id": 1686189478,
  "lat": 52.5912506,
  "lon": -2.1413362
},
{
  "type": "node",
  "id": 5277631605,
  "lat": 52.5912377,
  "lon": -2.1413300
},
{
  "type": "node",
  "id": 5277631606,
  "lat": 52.5910684,
  "lon": -2.1414108
},
{
  "type": "node",
  "id": 2409321646,
  "lat": 52.4882334,
  "lon": -1.9962267
},
{
  "type": "node",
  "id": 2409321683,
  "lat": 52.4882764,
  "lon": -1.9962669
},
{
  "type": "node",
  "id": 2409321710,
  "lat": 52.4883153,
  "lon": -1.9961544
},
{
  "type": "node",
  "id": 2409321827,
  "lat": 52.4882723,
  "lon": -1.9961142
},
{
  "type": "node",
  "id": 271660519,
  "lat": 52.5232048,
  "lon": -2.0790001
},
{
  "type": "node",
  "id": 507271702,
  "lat": 52.5231894,
  "lon": -2.0790513
},
{
  "type": "node",
  "id": 2896651868,
  "lat": 52.5205938,
  "lon": -2.0777365
},
{
  "type": "node",
  "id": 2896687576,
  "lat": 52.5232332,
  "lon": -2.0787738
},
{
  "type": "node",
  "id": 2896687585,
  "lat": 52.5233342,
  "lon": -2.0782658
},
{
  "type": "node",
  "id": 2896687591,
  "lat": 52.5234301,
  "lon": -2.0777460
},
{
  "type": "node",
  "id": 2896687593,
  "lat": 52.5234531,
  "lon": -2.0776110
},
{
  "type": "node",
  "id": 271660518,
  "lat": 52.5238196,
  "lon": -2.0753087
},
{
  "type": "node",
  "id": 305542502,
  "lat": 52.5233372,
  "lon": -2.0744181
},
{
  "type": "node",
  "id": 305542504,
  "lat": 52.5191334,
  "lon": -2.0763099
},
{
  "type": "node",
  "id": 1173024150,
  "lat": 52.5212022,
  "lon": -2.0742713
},
{
  "type": "node",
  "id": 1173024431,
  "lat": 52.5197887,
  "lon": -2.0742263
},
{
  "type": "node",
  "id": 1638400785,
  "lat": 52.5196074,
  "lon": -2.0754162
},
{
  "type": "node",
  "id": 1638400796,
  "lat": 52.5196108,
  "lon": -2.0747929
},
{
  "type": "node",
  "id": 1638400801,
  "lat": 52.5197787,
  "lon": -2.0751306
},
{
  "type": "node",
  "id": 1638400805,
  "lat": 52.5197805,
  "lon": -2.0747954
},
{
  "type": "node",
  "id": 1638400818,
  "lat": 52.5199149,
  "lon": -2.0754486
},
{
  "type": "node",
  "id": 1638400830,
  "lat": 52.5198850,
  "lon": -2.0751322
},
{
  "type": "node",
  "id": 1638400835,
  "lat": 52.5199151,
  "lon": -2.0754206
},
{
  "type": "node",
  "id": 1638400855,
  "lat": 52.5198858,
  "lon": -2.0749933
},
{
  "type": "node",
  "id": 1638400880,
  "lat": 52.5199750,
  "lon": -2.0754495
},
{
  "type": "node",
  "id": 1638400890,
  "lat": 52.5199752,
  "lon": -2.0754199
},
{
  "type": "node",
  "id": 1638400896,
  "lat": 52.5199454,
  "lon": -2.0751062
},
{
  "type": "node",
  "id": 1638400903,
  "lat": 52.5199460,
  "lon": -2.0749942
},
{
  "type": "node",
  "id": 1638400914,
  "lat": 52.5202126,
  "lon": -2.0754234
},
{
  "type": "node",
  "id": 1638400924,
  "lat": 52.5202143,
  "lon": -2.0751101
},
{
  "type": "node",
  "id": 2526391241,
  "lat": 52.5217570,
  "lon": -2.0741975
},
{
  "type": "node",
  "id": 2526399997,
  "lat": 52.5235523,
  "lon": -2.0767918
},
{
  "type": "node",
  "id": 2526400016,
  "lat": 52.5236187,
  "lon": -2.0765545
},
{
  "type": "node",
  "id": 2526401150,
  "lat": 52.5234757,
  "lon": -2.0774368
},
{
  "type": "node",
  "id": 2526401152,
  "lat": 52.5236291,
  "lon": -2.0765427
},
{
  "type": "node",
  "id": 2526401153,
  "lat": 52.5236363,
  "lon": -2.0765067
},
{
  "type": "node",
  "id": 2896651862,
  "lat": 52.5194919,
  "lon": -2.0766612
},
{
  "type": "node",
  "id": 2896687601,
  "lat": 52.5235244,
  "lon": -2.0771227
},
{
  "type": "node",
  "id": 2896687615,
  "lat": 52.5237272,
  "lon": -2.0760732
},
{
  "type": "node",
  "id": 2896687620,
  "lat": 52.5237966,
  "lon": -2.0757295
},
{
  "type": "node",
  "id": 2896687623,
  "lat": 52.5238327,
  "lon": -2.0755733
},
{
  "type": "node",
  "id": 2896687624,
  "lat": 52.5238385,
  "lon": -2.0755286
},
{
  "type": "node",
  "id": 3104178370,
  "lat": 52.5219520,
  "lon": -2.0749695
},
{
  "type": "node",
  "id": 3104178371,
  "lat": 52.5221601,
  "lon": -2.0748408
},
{
  "type": "node",
  "id": 3104178372,
  "lat": 52.5226706,
  "lon": -2.0748483
},
{
  "type": "node",
  "id": 3104178373,
  "lat": 52.5227441,
  "lon": -2.0749355
},
{
  "type": "node",
  "id": 3104178374,
  "lat": 52.5227622,
  "lon": -2.0752109
},
{
  "type": "node",
  "id": 3104178376,
  "lat": 52.5227965,
  "lon": -2.0749977
},
{
  "type": "node",
  "id": 3104178377,
  "lat": 52.5231612,
  "lon": -2.0753396
},
{
  "type": "node",
  "id": 5878535784,
  "lat": 52.5190994,
  "lon": -2.0756876
},
{
  "type": "node",
  "id": 6410108992,
  "lat": 52.5195194,
  "lon": -2.0742703
},
{
  "type": "node",
  "id": 6410108995,
  "lat": 52.5194621,
  "lon": -2.0743353
},
{
  "type": "node",
  "id": 6410109001,
  "lat": 52.5194851,
  "lon": -2.0743454
},
{
  "type": "node",
  "id": 6410109010,
  "lat": 52.5195308,
  "lon": -2.0743052
},
{
  "type": "node",
  "id": 6410109011,
  "lat": 52.5191893,
  "lon": -2.0744105
},
{
  "type": "node",
  "id": 6410109021,
  "lat": 52.5191157,
  "lon": -2.0745031
},
{
  "type": "node",
  "id": 6410109025,
  "lat": 52.5190982,
  "lon": -2.0754231
},
{
  "type": "node",
  "id": 6410109026,
  "lat": 52.5194427,
  "lon": -2.0743267
},
{
  "type": "node",
  "id": 6410109029,
  "lat": 52.5195373,
  "lon": -2.0743454
},
{
  "type": "node",
  "id": 6410109031,
  "lat": 52.5190946,
  "lon": -2.0746112
},
{
  "type": "node",
  "id": 6410109045,
  "lat": 52.5193762,
  "lon": -2.0742831
},
{
  "type": "node",
  "id": 6410109048,
  "lat": 52.5191160,
  "lon": -2.0744441
},
{
  "type": "node",
  "id": 6410109057,
  "lat": 52.5191911,
  "lon": -2.0744450
},
{
  "type": "node",
  "id": 6410109083,
  "lat": 52.5190951,
  "lon": -2.0745037
},
{
  "type": "node",
  "id": 6410109197,
  "lat": 52.5191893,
  "lon": -2.0742831
},
{
  "type": "node",
  "id": 2291097439,
  "lat": 52.5155206,
  "lon": -2.0040997
},
{
  "type": "node",
  "id": 2291097440,
  "lat": 52.5155316,
  "lon": -2.0043055
},
{
  "type": "node",
  "id": 2291097441,
  "lat": 52.5155488,
  "lon": -2.0043908
},
{
  "type": "node",
  "id": 2291097442,
  "lat": 52.5155593,
  "lon": -2.0042904
},
{
  "type": "node",
  "id": 2291097443,
  "lat": 52.5156159,
  "lon": -2.0040476
},
{
  "type": "node",
  "id": 2291097444,
  "lat": 52.5156451,
  "lon": -2.0041919
},
{
  "type": "node",
  "id": 2291097445,
  "lat": 52.5156564,
  "lon": -2.0042502
},
{
  "type": "node",
  "id": 2291097446,
  "lat": 52.5156616,
  "lon": -2.0041828
},
{
  "type": "node",
  "id": 2291097447,
  "lat": 52.5156714,
  "lon": -2.0043238
},
{
  "type": "node",
  "id": 2291097448,
  "lat": 52.5156734,
  "lon": -2.0042409
},
{
  "type": "node",
  "id": 369724424,
  "lat": 52.5188928,
  "lon": -1.9935584
},
{
  "type": "node",
  "id": 369962003,
  "lat": 52.5190668,
  "lon": -1.9923646
},
{
  "type": "node",
  "id": 369962004,
  "lat": 52.5189133,
  "lon": -1.9926094
},
{
  "type": "node",
  "id": 369962005,
  "lat": 52.5188868,
  "lon": -1.9927161
},
{
  "type": "node",
  "id": 369962006,
  "lat": 52.5188780,
  "lon": -1.9929011
},
{
  "type": "node",
  "id": 369962008,
  "lat": 52.5189695,
  "lon": -1.9923806
},
{
  "type": "node",
  "id": 369962009,
  "lat": 52.5189581,
  "lon": -1.9924327
},
{
  "type": "node",
  "id": 369962011,
  "lat": 52.5188015,
  "lon": -1.9929689
},
{
  "type": "node",
  "id": 369962012,
  "lat": 52.5187303,
  "lon": -1.9933892
},
{
  "type": "node",
  "id": 369962013,
  "lat": 52.5187295,
  "lon": -1.9932464
},
{
  "type": "node",
  "id": 1598763850,
  "lat": 52.5190015,
  "lon": -1.9923430
},
{
  "type": "node",
  "id": 2745675118,
  "lat": 52.5189240,
  "lon": -1.9927775
},
{
  "type": "node",
  "id": 3430068461,
  "lat": 52.5190360,
  "lon": -1.9923410
},
{
  "type": "node",
  "id": 3430068472,
  "lat": 52.5193003,
  "lon": -1.9924523
},
{
  "type": "node",
  "id": 2499753946,
  "lat": 52.4901113,
  "lon": -1.9669745
},
{
  "type": "node",
  "id": 2499753947,
  "lat": 52.4901334,
  "lon": -1.9669191
},
{
  "type": "node",
  "id": 2499753948,
  "lat": 52.4902115,
  "lon": -1.9670031
},
{
  "type": "node",
  "id": 2499753949,
  "lat": 52.4902176,
  "lon": -1.9669877
},
{
  "type": "node",
  "id": 2499753951,
  "lat": 52.4902383,
  "lon": -1.9670387
},
{
  "type": "node",
  "id": 2499753952,
  "lat": 52.4902464,
  "lon": -1.9670186
},
{
  "type": "node",
  "id": 2499753954,
  "lat": 52.4902805,
  "lon": -1.9671563
},
{
  "type": "node",
  "id": 2499753955,
  "lat": 52.4902969,
  "lon": -1.9671016
},
{
  "type": "node",
  "id": 2499753956,
  "lat": 52.4902971,
  "lon": -1.9671145
},
{
  "type": "node",
  "id": 2499753957,
  "lat": 52.4903089,
  "lon": -1.9671271
},
{
  "type": "node",
  "id": 2499753958,
  "lat": 52.4903136,
  "lon": -1.9672094
},
{
  "type": "node",
  "id": 2499753959,
  "lat": 52.4903165,
  "lon": -1.9670525
},
{
  "type": "node",
  "id": 2499753960,
  "lat": 52.4903195,
  "lon": -1.9671005
},
{
  "type": "node",
  "id": 2499753963,
  "lat": 52.4903457,
  "lon": -1.9671287
},
{
  "type": "node",
  "id": 2499753968,
  "lat": 52.4903810,
  "lon": -1.9672818
},
{
  "type": "node",
  "id": 2499753975,
  "lat": 52.4904256,
  "lon": -1.9671697
},
{
  "type": "node",
  "id": 2883954248,
  "lat": 52.4901977,
  "lon": -1.9670682
},
{
  "type": "node",
  "id": 306222614,
  "lat": 52.4491758,
  "lon": -1.9320210
},
{
  "type": "node",
  "id": 306222618,
  "lat": 52.4491053,
  "lon": -1.9322012
},
{
  "type": "node",
  "id": 306222619,
  "lat": 52.4493649,
  "lon": -1.9324835
},
{
  "type": "node",
  "id": 470501672,
  "lat": 52.4505153,
  "lon": -1.9278341
},
{
  "type": "node",
  "id": 470501676,
  "lat": 52.4505447,
  "lon": -1.9280353
},
{
  "type": "node",
  "id": 470501679,
  "lat": 52.4502201,
  "lon": -1.9281578
},
{
  "type": "node",
  "id": 470501681,
  "lat": 52.4505574,
  "lon": -1.9281256
},
{
  "type": "node",
  "id": 470501683,
  "lat": 52.4506855,
  "lon": -1.9280772
},
{
  "type": "node",
  "id": 470501685,
  "lat": 52.4506442,
  "lon": -1.9277829
},
{
  "type": "node",
  "id": 470501687,
  "lat": 52.4504537,
  "lon": -1.9273843
},
{
  "type": "node",
  "id": 470501690,
  "lat": 52.4503612,
  "lon": -1.9274192
},
{
  "type": "node",
  "id": 470501692,
  "lat": 52.4503677,
  "lon": -1.9274651
},
{
  "type": "node",
  "id": 470501694,
  "lat": 52.4501353,
  "lon": -1.9275528
},
{
  "type": "node",
  "id": 1021235354,
  "lat": 52.4492526,
  "lon": -1.9321164
},
{
  "type": "node",
  "id": 1021235401,
  "lat": 52.4494249,
  "lon": -1.9323108
},
{
  "type": "node",
  "id": 1021235486,
  "lat": 52.4493642,
  "lon": -1.9322497
},
{
  "type": "node",
  "id": 1042881285,
  "lat": 52.4504026,
  "lon": -1.9274044
},
{
  "type": "node",
  "id": 1042881307,
  "lat": 52.4504143,
  "lon": -1.9273991
},
{
  "type": "node",
  "id": 1042881311,
  "lat": 52.4504267,
  "lon": -1.9273938
},
{
  "type": "node",
  "id": 2690542807,
  "lat": 52.4502150,
  "lon": -1.9275227
},
{
  "type": "node",
  "id": 4736511540,
  "lat": 52.4502098,
  "lon": -1.9280845
},
{
  "type": "node",
  "id": 4736511546,
  "lat": 52.4503743,
  "lon": -1.9274145
},
{
  "type": "node",
  "id": 4736511547,
  "lat": 52.4505941,
  "lon": -1.9281117
},
{
  "type": "node",
  "id": 4736511552,
  "lat": 52.4504828,
  "lon": -1.9275933
},
{
  "type": "node",
  "id": 5042649089,
  "lat": 52.4506232,
  "lon": -1.9277949
},
{
  "type": "node",
  "id": 252972886,
  "lat": 52.4802748,
  "lon": -1.9038616
},
{
  "type": "node",
  "id": 272888879,
  "lat": 52.4804087,
  "lon": -1.9027441
},
{
  "type": "node",
  "id": 310648875,
  "lat": 52.4802289,
  "lon": -1.9039420
},
{
  "type": "node",
  "id": 310648876,
  "lat": 52.4807930,
  "lon": -1.9029938
},
{
  "type": "node",
  "id": 310648877,
  "lat": 52.4805150,
  "lon": -1.9025577
},
{
  "type": "node",
  "id": 310648879,
  "lat": 52.4814389,
  "lon": -1.9044646
},
{
  "type": "node",
  "id": 622133294,
  "lat": 52.4800664,
  "lon": -1.9036045
},
{
  "type": "node",
  "id": 622135830,
  "lat": 52.4804584,
  "lon": -1.9040196
},
{
  "type": "node",
  "id": 622135836,
  "lat": 52.4805080,
  "lon": -1.9039385
},
{
  "type": "node",
  "id": 622135841,
  "lat": 52.4803275,
  "lon": -1.9038033
},
{
  "type": "node",
  "id": 622135847,
  "lat": 52.4803745,
  "lon": -1.9037180
},
{
  "type": "node",
  "id": 622136751,
  "lat": 52.4801272,
  "lon": -1.9037618
},
{
  "type": "node",
  "id": 630662502,
  "lat": 52.4812101,
  "lon": -1.9048386
},
{
  "type": "node",
  "id": 696436818,
  "lat": 52.4802365,
  "lon": -1.9034331
},
{
  "type": "node",
  "id": 696436820,
  "lat": 52.4802001,
  "lon": -1.9033730
},
{
  "type": "node",
  "id": 696436826,
  "lat": 52.4804748,
  "lon": -1.9030404
},
{
  "type": "node",
  "id": 696436827,
  "lat": 52.4804255,
  "lon": -1.9029646
},
{
  "type": "node",
  "id": 696436829,
  "lat": 52.4804846,
  "lon": -1.9028610
},
{
  "type": "node",
  "id": 964748409,
  "lat": 52.4809915,
  "lon": -1.9040358
},
{
  "type": "node",
  "id": 964748415,
  "lat": 52.4805364,
  "lon": -1.9038921
},
{
  "type": "node",
  "id": 964748417,
  "lat": 52.4805086,
  "lon": -1.9034438
},
{
  "type": "node",
  "id": 964748426,
  "lat": 52.4806306,
  "lon": -1.9032300
},
{
  "type": "node",
  "id": 964751850,
  "lat": 52.4805670,
  "lon": -1.9033413
},
{
  "type": "node",
  "id": 1109108087,
  "lat": 52.4804181,
  "lon": -1.9040854
},
{
  "type": "node",
  "id": 1335375092,
  "lat": 52.4804014,
  "lon": -1.9036164
},
{
  "type": "node",
  "id": 2495096235,
  "lat": 52.4800681,
  "lon": -1.9036715
},
{
  "type": "node",
  "id": 2495096237,
  "lat": 52.4800872,
  "lon": -1.9036366
},
{
  "type": "node",
  "id": 2495096246,
  "lat": 52.4801776,
  "lon": -1.9038390
},
{
  "type": "node",
  "id": 2495096258,
  "lat": 52.4804190,
  "lon": -1.9036455
},
{
  "type": "node",
  "id": 2495096259,
  "lat": 52.4807046,
  "lon": -1.9031217
},
{
  "type": "node",
  "id": 2495096260,
  "lat": 52.4807096,
  "lon": -1.9031299
},
{
  "type": "node",
  "id": 3463975954,
  "lat": 52.4801703,
  "lon": -1.9038519
},
{
  "type": "node",
  "id": 3463975955,
  "lat": 52.4802851,
  "lon": -1.9038774
},
{
  "type": "node",
  "id": 4081299289,
  "lat": 52.4800931,
  "lon": -1.9037063
},
{
  "type": "node",
  "id": 4081299294,
  "lat": 52.4801477,
  "lon": -1.9037951
},
{
  "type": "node",
  "id": 4081299295,
  "lat": 52.4801534,
  "lon": -1.9035416
},
{
  "type": "node",
  "id": 4081299297,
  "lat": 52.4801616,
  "lon": -1.9034358
},
{
  "type": "node",
  "id": 4081299300,
  "lat": 52.4801814,
  "lon": -1.9034959
},
{
  "type": "node",
  "id": 4081299301,
  "lat": 52.4801897,
  "lon": -1.9034822
},
{
  "type": "node",
  "id": 4081299309,
  "lat": 52.4802331,
  "lon": -1.9036733
},
{
  "type": "node",
  "id": 4081299311,
  "lat": 52.4802410,
  "lon": -1.9036603
},
{
  "type": "node",
  "id": 4081299312,
  "lat": 52.4803224,
  "lon": -1.9032929
},
{
  "type": "node",
  "id": 4081299314,
  "lat": 52.4803916,
  "lon": -1.9041287
},
{
  "type": "node",
  "id": 4081299318,
  "lat": 52.4804227,
  "lon": -1.9035815
},
{
  "type": "node",
  "id": 4081299319,
  "lat": 52.4804286,
  "lon": -1.9041897
},
{
  "type": "node",
  "id": 4081299320,
  "lat": 52.4804553,
  "lon": -1.9041461
},
{
  "type": "node",
  "id": 4081299322,
  "lat": 52.4804662,
  "lon": -1.9035106
},
{
  "type": "node",
  "id": 4081299323,
  "lat": 52.4804758,
  "lon": -1.9030426
},
{
  "type": "node",
  "id": 4081299324,
  "lat": 52.4805306,
  "lon": -1.9029532
},
{
  "type": "node",
  "id": 4081299328,
  "lat": 52.4805820,
  "lon": -1.9038175
},
{
  "type": "node",
  "id": 4081299331,
  "lat": 52.4805802,
  "lon": -1.9043525
},
{
  "type": "node",
  "id": 4081299333,
  "lat": 52.4806056,
  "lon": -1.9038565
},
{
  "type": "node",
  "id": 4081299338,
  "lat": 52.4806503,
  "lon": -1.9027580
},
{
  "type": "node",
  "id": 4081299340,
  "lat": 52.4806730,
  "lon": -1.9031733
},
{
  "type": "node",
  "id": 4081299343,
  "lat": 52.4807452,
  "lon": -1.9036287
},
{
  "type": "node",
  "id": 4081299347,
  "lat": 52.4808007,
  "lon": -1.9046955
},
{
  "type": "node",
  "id": 4081299351,
  "lat": 52.4810478,
  "lon": -1.9051039
},
{
  "type": "node",
  "id": 4081299361,
  "lat": 52.4811352,
  "lon": -1.9042733
},
{
  "type": "node",
  "id": 4081299362,
  "lat": 52.4812661,
  "lon": -1.9047470
},
{
  "type": "node",
  "id": 4081299363,
  "lat": 52.4812296,
  "lon": -1.9041194
},
{
  "type": "node",
  "id": 4081299364,
  "lat": 52.4812848,
  "lon": -1.9042105
},
{
  "type": "node",
  "id": 4541585934,
  "lat": 52.4802230,
  "lon": -1.9039333
},
{
  "type": "node",
  "id": 5228549672,
  "lat": 52.4811941,
  "lon": -1.9048676
},
{
  "type": "node",
  "id": 904410677,
  "lat": 52.4905245,
  "lon": -1.9117901
},
{
  "type": "node",
  "id": 904410766,
  "lat": 52.4907088,
  "lon": -1.9120939
},
{
  "type": "node",
  "id": 1135460132,
  "lat": 52.4904348,
  "lon": -1.9119558
},
{
  "type": "node",
  "id": 1135460148,
  "lat": 52.4905471,
  "lon": -1.9122488
},
{
  "type": "node",
  "id": 1135460149,
  "lat": 52.4904712,
  "lon": -1.9120074
},
{
  "type": "node",
  "id": 2356992537,
  "lat": 52.4980154,
  "lon": -1.9730564
},
{
  "type": "node",
  "id": 2356992538,
  "lat": 52.4980919,
  "lon": -1.9729180
},
{
  "type": "node",
  "id": 2356992539,
  "lat": 52.4981144,
  "lon": -1.9732039
},
{
  "type": "node",
  "id": 2356992540,
  "lat": 52.4981354,
  "lon": -1.9729829
},
{
  "type": "node",
  "id": 2356992541,
  "lat": 52.4981525,
  "lon": -1.9729520
},
{
  "type": "node",
  "id": 2356992542,
  "lat": 52.4982079,
  "lon": -1.9730346
},
{
  "type": "node",
  "id": 369724420,
  "lat": 52.5194244,
  "lon": -1.9921156
},
{
  "type": "node",
  "id": 369724422,
  "lat": 52.5192494,
  "lon": -1.9919167
},
{
  "type": "node",
  "id": 482362899,
  "lat": 52.4995332,
  "lon": -1.9231142
},
{
  "type": "node",
  "id": 482362900,
  "lat": 52.4997036,
  "lon": -1.9228330
},
{
  "type": "node",
  "id": 482362901,
  "lat": 52.4996262,
  "lon": -1.9227105
},
{
  "type": "node",
  "id": 482362902,
  "lat": 52.4994587,
  "lon": -1.9229963
},
{
  "type": "node",
  "id": 482362934,
  "lat": 52.4995818,
  "lon": -1.9227863
},
{
  "type": "node",
  "id": 482362966,
  "lat": 52.4996863,
  "lon": -1.9228625
},
{
  "type": "node",
  "id": 1228055998,
  "lat": 52.4996670,
  "lon": -1.9229302
},
{
  "type": "node",
  "id": 1228056162,
  "lat": 52.4996736,
  "lon": -1.9228842
},
{
  "type": "node",
  "id": 1228056451,
  "lat": 52.4996721,
  "lon": -1.9227819
},
{
  "type": "node",
  "id": 1228056495,
  "lat": 52.4996277,
  "lon": -1.9229741
},
{
  "type": "node",
  "id": 1228056525,
  "lat": 52.4996663,
  "lon": -1.9229059
},
{
  "type": "node",
  "id": 1228056770,
  "lat": 52.4996213,
  "lon": -1.9229640
},
{
  "type": "node",
  "id": 1228056897,
  "lat": 52.4996536,
  "lon": -1.9229563
},
{
  "type": "node",
  "id": 1228057087,
  "lat": 52.4996771,
  "lon": -1.9228898
},
{
  "type": "node",
  "id": 1228057112,
  "lat": 52.4996367,
  "lon": -1.9229568
},
{
  "type": "node",
  "id": 2136109748,
  "lat": 52.5679513,
  "lon": -2.0719675
},
{
  "type": "node",
  "id": 2136109751,
  "lat": 52.5679615,
  "lon": -2.0713625
},
{
  "type": "node",
  "id": 2136109752,
  "lat": 52.5680000,
  "lon": -2.0720251
},
{
  "type": "node",
  "id": 2136109753,
  "lat": 52.5680146,
  "lon": -2.0712407
},
{
  "type": "node",
  "id": 2136109755,
  "lat": 52.5680219,
  "lon": -2.0718057
},
{
  "type": "node",
  "id": 2136109756,
  "lat": 52.5680410,
  "lon": -2.0720735
},
{
  "type": "node",
  "id": 2136109758,
  "lat": 52.5680835,
  "lon": -2.0721238
},
{
  "type": "node",
  "id": 2136109759,
  "lat": 52.5681197,
  "lon": -2.0715816
},
{
  "type": "node",
  "id": 2136109760,
  "lat": 52.5681268,
  "lon": -2.0715899
},
{
  "type": "node",
  "id": 2136109761,
  "lat": 52.5681360,
  "lon": -2.0715687
},
{
  "type": "node",
  "id": 2136109762,
  "lat": 52.5681387,
  "lon": -2.0719592
},
{
  "type": "node",
  "id": 2136109763,
  "lat": 52.5681497,
  "lon": -2.0719722
},
{
  "type": "node",
  "id": 2136109764,
  "lat": 52.5681743,
  "lon": -2.0718776
},
{
  "type": "node",
  "id": 2136109765,
  "lat": 52.5681841,
  "lon": -2.0718892
},
{
  "type": "node",
  "id": 2136109766,
  "lat": 52.5682119,
  "lon": -2.0715284
},
{
  "type": "node",
  "id": 2136109767,
  "lat": 52.5682179,
  "lon": -2.0715720
},
{
  "type": "node",
  "id": 2136109768,
  "lat": 52.5682218,
  "lon": -2.0717544
},
{
  "type": "node",
  "id": 2136109769,
  "lat": 52.5682276,
  "lon": -2.0714923
},
{
  "type": "node",
  "id": 2136109770,
  "lat": 52.5682284,
  "lon": -2.0715479
},
{
  "type": "node",
  "id": 2136109771,
  "lat": 52.5682325,
  "lon": -2.0716266
},
{
  "type": "node",
  "id": 2136109772,
  "lat": 52.5682357,
  "lon": -2.0717709
},
{
  "type": "node",
  "id": 2136109773,
  "lat": 52.5682433,
  "lon": -2.0716020
},
{
  "type": "node",
  "id": 2136109774,
  "lat": 52.5682623,
  "lon": -2.0716617
},
{
  "type": "node",
  "id": 766434568,
  "lat": 52.5887560,
  "lon": -1.9832768
},
{
  "type": "node",
  "id": 766434573,
  "lat": 52.5889274,
  "lon": -1.9833187
},
{
  "type": "node",
  "id": 766434578,
  "lat": 52.5888892,
  "lon": -1.9833126
},
{
  "type": "node",
  "id": 766434610,
  "lat": 52.5887145,
  "lon": -1.9831337
},
{
  "type": "node",
  "id": 766434623,
  "lat": 52.5885728,
  "lon": -1.9834836
},
{
  "type": "node",
  "id": 766434625,
  "lat": 52.5889251,
  "lon": -1.9834035
},
{
  "type": "node",
  "id": 766434635,
  "lat": 52.5888075,
  "lon": -1.9832845
},
{
  "type": "node",
  "id": 766434646,
  "lat": 52.5887448,
  "lon": -1.9834228
},
{
  "type": "node",
  "id": 766434654,
  "lat": 52.5889215,
  "lon": -1.9835472
},
{
  "type": "node",
  "id": 766434658,
  "lat": 52.5886006,
  "lon": -1.9831030
},
{
  "type": "node",
  "id": 766434661,
  "lat": 52.5888864,
  "lon": -1.9834202
},
{
  "type": "node",
  "id": 766434665,
  "lat": 52.5887003,
  "lon": -1.9834171
},
{
  "type": "node",
  "id": 2631295917,
  "lat": 52.5886316,
  "lon": -1.9835204
},
{
  "type": "node",
  "id": 2631295918,
  "lat": 52.5886329,
  "lon": -1.9834921
},
{
  "type": "node",
  "id": 2631295926,
  "lat": 52.5887947,
  "lon": -1.9834670
},
{
  "type": "node",
  "id": 2631295927,
  "lat": 52.5888703,
  "lon": -1.9834768
},
{
  "type": "node",
  "id": 2631295928,
  "lat": 52.5888723,
  "lon": -1.9834178
},
{
  "type": "node",
  "id": 2631295929,
  "lat": 52.5889246,
  "lon": -1.9834243
},
{
  "type": "node",
  "id": 1046457802,
  "lat": 52.6122480,
  "lon": -1.9225659
},
{
  "type": "node",
  "id": 1046457848,
  "lat": 52.6121206,
  "lon": -1.9233541
},
{
  "type": "node",
  "id": 1046457996,
  "lat": 52.6119773,
  "lon": -1.9224472
},
{
  "type": "node",
  "id": 1046458076,
  "lat": 52.6118499,
  "lon": -1.9232354
},
{
  "type": "node",
  "id": 875323353,
  "lat": 52.4804800,
  "lon": -1.8855359
},
{
  "type": "node",
  "id": 875323356,
  "lat": 52.4803885,
  "lon": -1.8845297
},
{
  "type": "node",
  "id": 875323358,
  "lat": 52.4804586,
  "lon": -1.8849389
},
{
  "type": "node",
  "id": 875323359,
  "lat": 52.4805147,
  "lon": -1.8844581
},
{
  "type": "node",
  "id": 875323363,
  "lat": 52.4803496,
  "lon": -1.8848443
},
{
  "type": "node",
  "id": 875323366,
  "lat": 52.4802717,
  "lon": -1.8845988
},
{
  "type": "node",
  "id": 875323381,
  "lat": 52.4800833,
  "lon": -1.8847675
},
{
  "type": "node",
  "id": 875323386,
  "lat": 52.4803901,
  "lon": -1.8846320
},
{
  "type": "node",
  "id": 875323387,
  "lat": 52.4804773,
  "lon": -1.8841947
},
{
  "type": "node",
  "id": 875323389,
  "lat": 52.4805302,
  "lon": -1.8845681
},
{
  "type": "node",
  "id": 875323391,
  "lat": 52.4804228,
  "lon": -1.8842919
},
{
  "type": "node",
  "id": 875323394,
  "lat": 52.4801938,
  "lon": -1.8847138
},
{
  "type": "node",
  "id": 875323396,
  "lat": 52.4804508,
  "lon": -1.8853378
},
{
  "type": "node",
  "id": 875323399,
  "lat": 52.4803760,
  "lon": -1.8845732
},
{
  "type": "node",
  "id": 875323412,
  "lat": 52.4803667,
  "lon": -1.8845400
},
{
  "type": "node",
  "id": 875323415,
  "lat": 52.4805894,
  "lon": -1.8847727
},
{
  "type": "node",
  "id": 875323418,
  "lat": 52.4804259,
  "lon": -1.8846832
},
{
  "type": "node",
  "id": 875323419,
  "lat": 52.4804212,
  "lon": -1.8848187
},
{
  "type": "node",
  "id": 875323421,
  "lat": 52.4803044,
  "lon": -1.8853045
},
{
  "type": "node",
  "id": 875323425,
  "lat": 52.4802499,
  "lon": -1.8846090
},
{
  "type": "node",
  "id": 875323427,
  "lat": 52.4801533,
  "lon": -1.8846218
},
{
  "type": "node",
  "id": 875323451,
  "lat": 52.4804087,
  "lon": -1.8846243
},
{
  "type": "node",
  "id": 875323454,
  "lat": 52.4805224,
  "lon": -1.8841794
},
{
  "type": "node",
  "id": 875323456,
  "lat": 52.4804742,
  "lon": -1.8845809
},
{
  "type": "node",
  "id": 875323457,
  "lat": 52.4804399,
  "lon": -1.8849465
},
{
  "type": "node",
  "id": 875323459,
  "lat": 52.4804492,
  "lon": -1.8844837
},
{
  "type": "node",
  "id": 875323479,
  "lat": 52.4802608,
  "lon": -1.8846346
},
{
  "type": "node",
  "id": 875323481,
  "lat": 52.4803745,
  "lon": -1.8854375
},
{
  "type": "node",
  "id": 875323484,
  "lat": 52.4802919,
  "lon": -1.8846448
},
{
  "type": "node",
  "id": 875323489,
  "lat": 52.4806215,
  "lon": -1.8849552
},
{
  "type": "node",
  "id": 875323492,
  "lat": 52.4803994,
  "lon": -1.8846934
},
{
  "type": "node",
  "id": 875323505,
  "lat": 52.4805863,
  "lon": -1.8849670
},
{
  "type": "node",
  "id": 875323509,
  "lat": 52.4801860,
  "lon": -1.8844760
},
{
  "type": "node",
  "id": 913522823,
  "lat": 52.4805778,
  "lon": -1.8854913
},
{
  "type": "node",
  "id": 1008086205,
  "lat": 52.4805205,
  "lon": -1.8849875
},
{
  "type": "node",
  "id": 1008086206,
  "lat": 52.4805016,
  "lon": -1.8847980
},
{
  "type": "node",
  "id": 1548122700,
  "lat": 52.4823044,
  "lon": -1.8872517
},
{
  "type": "node",
  "id": 1548122705,
  "lat": 52.4826569,
  "lon": -1.8874182
},
{
  "type": "node",
  "id": 1548122708,
  "lat": 52.4828367,
  "lon": -1.8863918
},
{
  "type": "node",
  "id": 4917436891,
  "lat": 52.4824959,
  "lon": -1.8861587
},
{
  "type": "node",
  "id": 4917436892,
  "lat": 52.4828484,
  "lon": -1.8863252
},
{
  "type": "node",
  "id": 4917436905,
  "lat": 52.4826474,
  "lon": -1.8862302
},
{
  "type": "node",
  "id": 1028034814,
  "lat": 52.4733712,
  "lon": -1.8092638
},
{
  "type": "node",
  "id": 1028034839,
  "lat": 52.4735532,
  "lon": -1.8094164
},
{
  "type": "node",
  "id": 1028034843,
  "lat": 52.4733603,
  "lon": -1.8095909
},
{
  "type": "node",
  "id": 1028034924,
  "lat": 52.4734775,
  "lon": -1.8094469
},
{
  "type": "node",
  "id": 1028035000,
  "lat": 52.4733478,
  "lon": -1.8095072
},
{
  "type": "node",
  "id": 1028035021,
  "lat": 52.4734564,
  "lon": -1.8092295
},
{
  "type": "node",
  "id": 1028035058,
  "lat": 52.4734042,
  "lon": -1.8094844
},
{
  "type": "node",
  "id": 1028035084,
  "lat": 52.4734758,
  "lon": -1.8093591
},
{
  "type": "node",
  "id": 1028035104,
  "lat": 52.4734958,
  "lon": -1.8095692
},
{
  "type": "node",
  "id": 1607545862,
  "lat": 52.4733664,
  "lon": -1.8094996
},
{
  "type": "node",
  "id": 1607545863,
  "lat": 52.4733855,
  "lon": -1.8095809
},
{
  "type": "node",
  "id": 1607545864,
  "lat": 52.4733891,
  "lon": -1.8093836
},
{
  "type": "node",
  "id": 1607545868,
  "lat": 52.4734268,
  "lon": -1.8095641
},
{
  "type": "node",
  "id": 1607545870,
  "lat": 52.4734315,
  "lon": -1.8095951
},
{
  "type": "node",
  "id": 1607545873,
  "lat": 52.4734605,
  "lon": -1.8092570
},
{
  "type": "node",
  "id": 1607545892,
  "lat": 52.4735407,
  "lon": -1.8093329
},
{
  "type": "node",
  "id": 462024156,
  "lat": 52.5067027,
  "lon": -1.8843681
},
{
  "type": "node",
  "id": 462024160,
  "lat": 52.5062759,
  "lon": -1.8845837
},
{
  "type": "node",
  "id": 462024161,
  "lat": 52.5062462,
  "lon": -1.8845898
},
{
  "type": "node",
  "id": 462024163,
  "lat": 52.5062365,
  "lon": -1.8844621
},
{
  "type": "node",
  "id": 462024164,
  "lat": 52.5062630,
  "lon": -1.8844566
},
{
  "type": "node",
  "id": 462024165,
  "lat": 52.5062484,
  "lon": -1.8842655
},
{
  "type": "node",
  "id": 462024166,
  "lat": 52.5063735,
  "lon": -1.8842399
},
{
  "type": "node",
  "id": 462024168,
  "lat": 52.5063810,
  "lon": -1.8843377
},
{
  "type": "node",
  "id": 462024173,
  "lat": 52.5064102,
  "lon": -1.8843317
},
{
  "type": "node",
  "id": 462024174,
  "lat": 52.5064153,
  "lon": -1.8843984
},
{
  "type": "node",
  "id": 462024175,
  "lat": 52.5063863,
  "lon": -1.8844044
},
{
  "type": "node",
  "id": 462024176,
  "lat": 52.5063938,
  "lon": -1.8845022
},
{
  "type": "node",
  "id": 462024177,
  "lat": 52.5065759,
  "lon": -1.8844649
},
{
  "type": "node",
  "id": 462024178,
  "lat": 52.5065695,
  "lon": -1.8843803
},
{
  "type": "node",
  "id": 462024179,
  "lat": 52.5065562,
  "lon": -1.8843830
},
{
  "type": "node",
  "id": 462024180,
  "lat": 52.5065513,
  "lon": -1.8843195
},
{
  "type": "node",
  "id": 462024181,
  "lat": 52.5065623,
  "lon": -1.8843173
},
{
  "type": "node",
  "id": 462024182,
  "lat": 52.5065534,
  "lon": -1.8842006
},
{
  "type": "node",
  "id": 462024183,
  "lat": 52.5066695,
  "lon": -1.8841768
},
{
  "type": "node",
  "id": 462024184,
  "lat": 52.5066294,
  "lon": -1.8839277
},
{
  "type": "node",
  "id": 462024185,
  "lat": 52.5066793,
  "lon": -1.8839174
},
{
  "type": "node",
  "id": 462024186,
  "lat": 52.5067134,
  "lon": -1.8843659
},
{
  "type": "node",
  "id": 462024230,
  "lat": 52.5065236,
  "lon": -1.8844756
},
{
  "type": "node",
  "id": 1279808906,
  "lat": 52.5066437,
  "lon": -1.8841168
},
{
  "type": "node",
  "id": 1279808932,
  "lat": 52.5066646,
  "lon": -1.8841125
},
{
  "type": "node",
  "id": 1279808956,
  "lat": 52.5067192,
  "lon": -1.8845851
},
{
  "type": "node",
  "id": 1279808973,
  "lat": 52.5066929,
  "lon": -1.8845905
},
{
  "type": "node",
  "id": 2459374784,
  "lat": 52.5062827,
  "lon": -1.8846731
},
{
  "type": "node",
  "id": 2459374786,
  "lat": 52.5062899,
  "lon": -1.8847673
},
{
  "type": "node",
  "id": 2459374789,
  "lat": 52.5064680,
  "lon": -1.8844870
},
{
  "type": "node",
  "id": 2459374795,
  "lat": 52.5066997,
  "lon": -1.8846807
},
{
  "type": "node",
  "id": 1290430683,
  "lat": 52.5806401,
  "lon": -1.7173832
},
{
  "type": "node",
  "id": 1290430704,
  "lat": 52.5806175,
  "lon": -1.7172160
},
{
  "type": "node",
  "id": 1290430766,
  "lat": 52.5805071,
  "lon": -1.7171650
},
{
  "type": "node",
  "id": 1290430841,
  "lat": 52.5806204,
  "lon": -1.7170893
},
{
  "type": "node",
  "id": 1290430845,
  "lat": 52.5802943,
  "lon": -1.7173788
},
{
  "type": "node",
  "id": 1290430847,
  "lat": 52.5804946,
  "lon": -1.7172387
},
{
  "type": "node",
  "id": 1290430852,
  "lat": 52.5805489,
  "lon": -1.7170449
},
{
  "type": "node",
  "id": 1290431059,
  "lat": 52.5803879,
  "lon": -1.7171895
},
{
  "type": "node",
  "id": 1290431075,
  "lat": 52.5805465,
  "lon": -1.7170588
},
{
  "type": "node",
  "id": 1290431087,
  "lat": 52.5806260,
  "lon": -1.7170507
},
{
  "type": "node",
  "id": 1290431190,
  "lat": 52.5805928,
  "lon": -1.7173614
},
{
  "type": "node",
  "id": 1290431205,
  "lat": 52.5806197,
  "lon": -1.7170946
},
{
  "type": "node",
  "id": 1290431266,
  "lat": 52.5806156,
  "lon": -1.7175270
},
{
  "type": "node",
  "id": 1290430690,
  "lat": 52.5805617,
  "lon": -1.7169560
},
{
  "type": "node",
  "id": 1290430765,
  "lat": 52.5803805,
  "lon": -1.7168724
},
{
  "type": "node",
  "id": 1290430769,
  "lat": 52.5804225,
  "lon": -1.7169865
},
{
  "type": "node",
  "id": 1290431200,
  "lat": 52.5806338,
  "lon": -1.7169966
},
{
  "type": "node",
  "id": 2141569155,
  "lat": 52.7942513,
  "lon": -2.0141499
},
{
  "type": "node",
  "id": 2141569157,
  "lat": 52.7942646,
  "lon": -2.0139239
},
{
  "type": "node",
  "id": 2141569159,
  "lat": 52.7942939,
  "lon": -2.0140931
},
{
  "type": "node",
  "id": 2141569161,
  "lat": 52.7943001,
  "lon": -2.0149142
},
{
  "type": "node",
  "id": 2141569163,
  "lat": 52.7943193,
  "lon": -2.0141279
},
{
  "type": "node",
  "id": 2141569165,
  "lat": 52.7944382,
  "lon": -2.0148859
},
{
  "type": "node",
  "id": 2141569167,
  "lat": 52.7944849,
  "lon": -2.0138194
},
{
  "type": "node",
  "id": 2141569169,
  "lat": 52.7945130,
  "lon": -2.0139772
},
{
  "type": "node",
  "id": 2300710211,
  "lat": 52.7943185,
  "lon": -2.0138983
},
{
  "type": "node",
  "id": 2300710212,
  "lat": 52.7943224,
  "lon": -2.0139206
},
{
  "type": "node",
  "id": 2300710213,
  "lat": 52.7944454,
  "lon": -2.0138381
},
{
  "type": "node",
  "id": 2300710214,
  "lat": 52.7944493,
  "lon": -2.0138604
},
{
  "type": "node",
  "id": 4823821728,
  "lat": 52.7944329,
  "lon": -2.0148114
},
{
  "type": "node",
  "id": 4823821729,
  "lat": 52.7943567,
  "lon": -2.0148288
},
{
  "type": "node",
  "id": 4823821743,
  "lat": 52.7944289,
  "lon": -2.0140135
},
{
  "type": "node",
  "id": 4823821744,
  "lat": 52.7944329,
  "lon": -2.0140289
},
{
  "type": "node",
  "id": 4823821745,
  "lat": 52.7943170,
  "lon": -2.0140821
},
{
  "type": "node",
  "id": 4823821746,
  "lat": 52.7942913,
  "lon": -2.0141356
},
{
  "type": "node",
  "id": 996186814,
  "lat": 52.7997667,
  "lon": -2.0132225
},
{
  "type": "node",
  "id": 996186815,
  "lat": 52.7996698,
  "lon": -2.0133057
},
{
  "type": "node",
  "id": 996186816,
  "lat": 52.7997106,
  "lon": -2.0134352
},
{
  "type": "node",
  "id": 996186817,
  "lat": 52.7993538,
  "lon": -2.0137457
},
{
  "type": "node",
  "id": 996186818,
  "lat": 52.7994636,
  "lon": -2.0141145
},
{
  "type": "node",
  "id": 996186830,
  "lat": 52.7997659,
  "lon": -2.0140412
},
{
  "type": "node",
  "id": 996186833,
  "lat": 52.7995304,
  "lon": -2.0140903
},
{
  "type": "node",
  "id": 996186834,
  "lat": 52.7994955,
  "lon": -2.0139576
},
{
  "type": "node",
  "id": 996186835,
  "lat": 52.7997436,
  "lon": -2.0137589
},
{
  "type": "node",
  "id": 996186839,
  "lat": 52.7997875,
  "lon": -2.0139520
},
{
  "type": "node",
  "id": 996186842,
  "lat": 52.7998132,
  "lon": -2.0137208
},
{
  "type": "node",
  "id": 996186847,
  "lat": 52.7998612,
  "lon": -2.0136717
},
{
  "type": "node",
  "id": 2029791580,
  "lat": 52.7995980,
  "lon": -2.0138755
},
{
  "type": "node",
  "id": 2029791587,
  "lat": 52.7996708,
  "lon": -2.0140446
},
{
  "type": "node",
  "id": 2029791593,
  "lat": 52.7996569,
  "lon": -2.0141504
},
{
  "type": "node",
  "id": 2029791594,
  "lat": 52.7997331,
  "lon": -2.0139767
},
{
  "type": "node",
  "id": 2029791599,
  "lat": 52.7997452,
  "lon": -2.0139550
},
{
  "type": "node",
  "id": 2029791606,
  "lat": 52.7997864,
  "lon": -2.0138251
},
{
  "type": "node",
  "id": 2029791609,
  "lat": 52.7998202,
  "lon": -2.0135308
},
{
  "type": "node",
  "id": 2029791610,
  "lat": 52.7998509,
  "lon": -2.0134851
},
{
  "type": "node",
  "id": 2141569182,
  "lat": 52.7998029,
  "lon": -2.0132535
},
{
  "type": "node",
  "id": 2141569184,
  "lat": 52.7998556,
  "lon": -2.0135011
},
{
  "type": "node",
  "id": 2141569185,
  "lat": 52.7998710,
  "lon": -2.0134677
},
{
  "type": "node",
  "id": 2142946135,
  "lat": 52.7994420,
  "lon": -2.0140420
},
{
  "type": "node",
  "id": 2142946148,
  "lat": 52.7994917,
  "lon": -2.0142086
},
{
  "type": "node",
  "id": 2142946180,
  "lat": 52.7996900,
  "lon": -2.0141335
},
{
  "type": "node",
  "id": 2142946243,
  "lat": 52.7997815,
  "lon": -2.0132716
},
{
  "type": "node",
  "id": 4823821119,
  "lat": 52.7996965,
  "lon": -2.0134475
},
{
  "type": "node",
  "id": 2992531205,
  "lat": 52.6564091,
  "lon": -1.8574074
},
{
  "type": "node",
  "id": 2992531206,
  "lat": 52.6564160,
  "lon": -1.8573106
},
{
  "type": "node",
  "id": 2992531210,
  "lat": 52.6564590,
  "lon": -1.8574171
},
{
  "type": "node",
  "id": 2992531211,
  "lat": 52.6564659,
  "lon": -1.8573203
},
{
  "type": "node",
  "id": 1591389638,
  "lat": 52.6594495,
  "lon": -1.7777104
},
{
  "type": "node",
  "id": 1591389640,
  "lat": 52.6595924,
  "lon": -1.7775315
},
{
  "type": "node",
  "id": 1591389641,
  "lat": 52.6596019,
  "lon": -1.7780412
},
{
  "type": "node",
  "id": 1591389642,
  "lat": 52.6596108,
  "lon": -1.7776658
},
{
  "type": "node",
  "id": 1591389643,
  "lat": 52.6596384,
  "lon": -1.7776313
},
{
  "type": "node",
  "id": 1591389645,
  "lat": 52.6596556,
  "lon": -1.7778845
},
{
  "type": "node",
  "id": 1591389646,
  "lat": 52.6596817,
  "lon": -1.7779413
},
{
  "type": "node",
  "id": 1591389647,
  "lat": 52.6596911,
  "lon": -1.7778401
},
{
  "type": "node",
  "id": 458490532,
  "lat": 52.2818034,
  "lon": -1.5905398
},
{
  "type": "node",
  "id": 1951577989,
  "lat": 52.2817669,
  "lon": -1.5909408
},
{
  "type": "node",
  "id": 1951578006,
  "lat": 52.2816799,
  "lon": -1.5906350
},
{
  "type": "node",
  "id": 1951578066,
  "lat": 52.2818916,
  "lon": -1.5908549
},
{
  "type": "node",
  "id": 2619501235,
  "lat": 52.2817427,
  "lon": -1.5905851
},
{
  "type": "node",
  "id": 694505203,
  "lat": 52.2831738,
  "lon": -1.5806324
},
{
  "type": "node",
  "id": 694505206,
  "lat": 52.2830607,
  "lon": -1.5800916
},
{
  "type": "node",
  "id": 694505210,
  "lat": 52.2830352,
  "lon": -1.5801723
},
{
  "type": "node",
  "id": 694505214,
  "lat": 52.2831903,
  "lon": -1.5803193
},
{
  "type": "node",
  "id": 694505217,
  "lat": 52.2831606,
  "lon": -1.5804052
},
{
  "type": "node",
  "id": 694505220,
  "lat": 52.2830802,
  "lon": -1.5803351
},
{
  "type": "node",
  "id": 694505224,
  "lat": 52.2830232,
  "lon": -1.5804940
},
{
  "type": "node",
  "id": 694505234,
  "lat": 52.2833032,
  "lon": -1.5802445
},
{
  "type": "node",
  "id": 2622168484,
  "lat": 52.2832289,
  "lon": -1.5802466
},
{
  "type": "node",
  "id": 2622168485,
  "lat": 52.2832468,
  "lon": -1.5801964
},
{
  "type": "node",
  "id": 2630393435,
  "lat": 52.3482786,
  "lon": -1.5833412
},
{
  "type": "node",
  "id": 2630393437,
  "lat": 52.3482109,
  "lon": -1.5833023
},
{
  "type": "node",
  "id": 2630393438,
  "lat": 52.3482410,
  "lon": -1.5831616
},
{
  "type": "node",
  "id": 2630393440,
  "lat": 52.3483087,
  "lon": -1.5832005
},
{
  "type": "node",
  "id": 2664300106,
  "lat": 52.3482723,
  "lon": -1.5831679
},
{
  "type": "node",
  "id": 2126644777,
  "lat": 52.4092376,
  "lon": -1.6419381
},
{
  "type": "node",
  "id": 2126644778,
  "lat": 52.4092690,
  "lon": -1.6419909
},
{
  "type": "node",
  "id": 2126644779,
  "lat": 52.4093197,
  "lon": -1.6417911
},
{
  "type": "node",
  "id": 2126644780,
  "lat": 52.4093569,
  "lon": -1.6418486
},
{
  "type": "node",
  "id": 3390955037,
  "lat": 52.3733231,
  "lon": -1.4799062
},
{
  "type": "node",
  "id": 3390955038,
  "lat": 52.3744877,
  "lon": -1.4769179
},
{
  "type": "node",
  "id": 3390955039,
  "lat": 52.3742794,
  "lon": -1.4768458
},
{
  "type": "node",
  "id": 3390955040,
  "lat": 52.3742384,
  "lon": -1.4809764
},
{
  "type": "node",
  "id": 3390955041,
  "lat": 52.3737422,
  "lon": -1.4803702
},
{
  "type": "node",
  "id": 3390955042,
  "lat": 52.3743174,
  "lon": -1.4803243
},
{
  "type": "node",
  "id": 3390955043,
  "lat": 52.3738503,
  "lon": -1.4784189
},
{
  "type": "node",
  "id": 4238600500,
  "lat": 52.3744290,
  "lon": -1.4789538
},
{
  "type": "node",
  "id": 4238600501,
  "lat": 52.3743829,
  "lon": -1.4796848
},
{
  "type": "node",
  "id": 4238600505,
  "lat": 52.3737113,
  "lon": -1.4788616
},
{
  "type": "node",
  "id": 3039112720,
  "lat": 52.4080721,
  "lon": -1.5172758
},
{
  "type": "node",
  "id": 3039112723,
  "lat": 52.4080875,
  "lon": -1.5172076
},
{
  "type": "node",
  "id": 3700264732,
  "lat": 52.4078323,
  "lon": -1.5171674
},
{
  "type": "node",
  "id": 3700264738,
  "lat": 52.4078653,
  "lon": -1.5170132
},
{
  "type": "node",
  "id": 3700264741,
  "lat": 52.4078710,
  "lon": -1.5170160
},
{
  "type": "node",
  "id": 3700264757,
  "lat": 52.4079480,
  "lon": -1.5172423
},
{
  "type": "node",
  "id": 3700264763,
  "lat": 52.4080565,
  "lon": -1.5171365
},
{
  "type": "node",
  "id": 3700264764,
  "lat": 52.4080621,
  "lon": -1.5173161
},
{
  "type": "node",
  "id": 3700264765,
  "lat": 52.4080942,
  "lon": -1.5171820
},
{
  "type": "node",
  "id": 3700264767,
  "lat": 52.4080976,
  "lon": -1.5171637
},
{
  "type": "node",
  "id": 275463156,
  "lat": 52.4106251,
  "lon": -1.5097001
},
{
  "type": "node",
  "id": 275463160,
  "lat": 52.4109192,
  "lon": -1.5098971
},
{
  "type": "node",
  "id": 275463163,
  "lat": 52.4116881,
  "lon": -1.5090088
},
{
  "type": "node",
  "id": 275463171,
  "lat": 52.4109652,
  "lon": -1.5090131
},
{
  "type": "node",
  "id": 275463173,
  "lat": 52.4106795,
  "lon": -1.5092630
},
{
  "type": "node",
  "id": 275463174,
  "lat": 52.4105420,
  "lon": -1.5094115
},
{
  "type": "node",
  "id": 275463373,
  "lat": 52.4109726,
  "lon": -1.5088677
},
{
  "type": "node",
  "id": 275463375,
  "lat": 52.4114590,
  "lon": -1.5100560
},
{
  "type": "node",
  "id": 277481020,
  "lat": 52.4106579,
  "lon": -1.5101117
},
{
  "type": "node",
  "id": 277481023,
  "lat": 52.4106514,
  "lon": -1.5099432
},
{
  "type": "node",
  "id": 277481024,
  "lat": 52.4108478,
  "lon": -1.5101533
},
{
  "type": "node",
  "id": 277481025,
  "lat": 52.4108360,
  "lon": -1.5099255
},
{
  "type": "node",
  "id": 1607742404,
  "lat": 52.4107061,
  "lon": -1.5092206
},
{
  "type": "node",
  "id": 1607742407,
  "lat": 52.4107335,
  "lon": -1.5091710
},
{
  "type": "node",
  "id": 1607742410,
  "lat": 52.4108017,
  "lon": -1.5090077
},
{
  "type": "node",
  "id": 1650569243,
  "lat": 52.4107556,
  "lon": -1.5091274
},
{
  "type": "node",
  "id": 1650580024,
  "lat": 52.4106374,
  "lon": -1.5093178
},
{
  "type": "node",
  "id": 2961253358,
  "lat": 52.4105542,
  "lon": -1.5094536
},
{
  "type": "node",
  "id": 2961253360,
  "lat": 52.4105921,
  "lon": -1.5093672
},
{
  "type": "node",
  "id": 2961253365,
  "lat": 52.4106545,
  "lon": -1.5092957
},
{
  "type": "node",
  "id": 2961253404,
  "lat": 52.4107902,
  "lon": -1.5090428
},
{
  "type": "node",
  "id": 2961253430,
  "lat": 52.4108207,
  "lon": -1.5097953
},
{
  "type": "node",
  "id": 2961253948,
  "lat": 52.4109248,
  "lon": -1.5098412
},
{
  "type": "node",
  "id": 2961253962,
  "lat": 52.4112852,
  "lon": -1.5100395
},
{
  "type": "node",
  "id": 2961253963,
  "lat": 52.4112888,
  "lon": -1.5100178
},
{
  "type": "node",
  "id": 2961253965,
  "lat": 52.4113282,
  "lon": -1.5089193
},
{
  "type": "node",
  "id": 2961253971,
  "lat": 52.4113762,
  "lon": -1.5100540
},
{
  "type": "node",
  "id": 2961253972,
  "lat": 52.4113806,
  "lon": -1.5100251
},
{
  "type": "node",
  "id": 2961253977,
  "lat": 52.4114884,
  "lon": -1.5098832
},
{
  "type": "node",
  "id": 2961253978,
  "lat": 52.4114981,
  "lon": -1.5098846
},
{
  "type": "node",
  "id": 2961253981,
  "lat": 52.4115387,
  "lon": -1.5096370
},
{
  "type": "node",
  "id": 276554095,
  "lat": 52.4072623,
  "lon": -1.5064166
},
{
  "type": "node",
  "id": 276554101,
  "lat": 52.4069958,
  "lon": -1.5052388
},
{
  "type": "node",
  "id": 276554104,
  "lat": 52.4070962,
  "lon": -1.5058544
},
{
  "type": "node",
  "id": 276554106,
  "lat": 52.4069426,
  "lon": -1.5064550
},
{
  "type": "node",
  "id": 276554108,
  "lat": 52.4072585,
  "lon": -1.5065267
},
{
  "type": "node",
  "id": 276554112,
  "lat": 52.4069352,
  "lon": -1.5063254
},
{
  "type": "node",
  "id": 277107557,
  "lat": 52.4073330,
  "lon": -1.5058047
},
{
  "type": "node",
  "id": 277107560,
  "lat": 52.4071914,
  "lon": -1.5053635
},
{
  "type": "node",
  "id": 277107563,
  "lat": 52.4077044,
  "lon": -1.5060298
},
{
  "type": "node",
  "id": 1491694119,
  "lat": 52.4071435,
  "lon": -1.5052044
},
{
  "type": "node",
  "id": 1491694172,
  "lat": 52.4070477,
  "lon": -1.5052204
},
{
  "type": "node",
  "id": 1491694223,
  "lat": 52.4070040,
  "lon": -1.5053910
},
{
  "type": "node",
  "id": 1491694271,
  "lat": 52.4072619,
  "lon": -1.5053518
},
{
  "type": "node",
  "id": 1491694345,
  "lat": 52.4070291,
  "lon": -1.5058529
},
{
  "type": "node",
  "id": 1491694357,
  "lat": 52.4072557,
  "lon": -1.5052045
},
{
  "type": "node",
  "id": 1491694367,
  "lat": 52.4071144,
  "lon": -1.5062972
},
{
  "type": "node",
  "id": 1491694398,
  "lat": 52.4071014,
  "lon": -1.5052096
},
{
  "type": "node",
  "id": 1491694505,
  "lat": 52.4070415,
  "lon": -1.5053858
},
{
  "type": "node",
  "id": 1520915092,
  "lat": 52.4076070,
  "lon": -1.5064767
},
{
  "type": "node",
  "id": 1520915094,
  "lat": 52.4077106,
  "lon": -1.5061908
},
{
  "type": "node",
  "id": 1520915106,
  "lat": 52.4076110,
  "lon": -1.5063456
},
{
  "type": "node",
  "id": 1881241218,
  "lat": 52.4072071,
  "lon": -1.5057139
},
{
  "type": "node",
  "id": 1881241338,
  "lat": 52.4073491,
  "lon": -1.5060683
},
{
  "type": "node",
  "id": 1881241371,
  "lat": 52.4072569,
  "lon": -1.5058178
},
{
  "type": "node",
  "id": 1881241381,
  "lat": 52.4072523,
  "lon": -1.5057078
},
{
  "type": "node",
  "id": 2180308796,
  "lat": 52.4070248,
  "lon": -1.5057747
},
{
  "type": "node",
  "id": 2180308797,
  "lat": 52.4070413,
  "lon": -1.5057678
},
{
  "type": "node",
  "id": 2180308798,
  "lat": 52.4070507,
  "lon": -1.5058541
},
{
  "type": "node",
  "id": 2180308800,
  "lat": 52.4070566,
  "lon": -1.5057125
},
{
  "type": "node",
  "id": 2180308801,
  "lat": 52.4070904,
  "lon": -1.5057117
},
{
  "type": "node",
  "id": 2180308802,
  "lat": 52.4070930,
  "lon": -1.5057539
},
{
  "type": "node",
  "id": 2180308804,
  "lat": 52.4071877,
  "lon": -1.5052016
},
{
  "type": "node",
  "id": 2180308805,
  "lat": 52.4072230,
  "lon": -1.5052023
},
{
  "type": "node",
  "id": 1612188083,
  "lat": 52.5200689,
  "lon": -1.4660379
},
{
  "type": "node",
  "id": 1612188093,
  "lat": 52.5200750,
  "lon": -1.4661572
},
{
  "type": "node",
  "id": 1612188126,
  "lat": 52.5200789,
  "lon": -1.4659850
},
{
  "type": "node",
  "id": 1612188184,
  "lat": 52.5200888,
  "lon": -1.4659330
},
{
  "type": "node",
  "id": 1612188214,
  "lat": 52.5200951,
  "lon": -1.4660514
},
{
  "type": "node",
  "id": 1612188228,
  "lat": 52.5201149,
  "lon": -1.4659464
},
{
  "type": "node",
  "id": 1612188256,
  "lat": 52.5201329,
  "lon": -1.4658519
},
{
  "type": "node",
  "id": 1612188290,
  "lat": 52.5202848,
  "lon": -1.4662649
},
{
  "type": "node",
  "id": 1612188295,
  "lat": 52.5203029,
  "lon": -1.4661696
},
{
  "type": "node",
  "id": 1612188297,
  "lat": 52.5203239,
  "lon": -1.4660597
},
{
  "type": "node",
  "id": 1612188317,
  "lat": 52.5203429,
  "lon": -1.4659597
},
{
  "type": "node",
  "id": 1612188335,
  "lat": 52.5203588,
  "lon": -1.4661983
},
{
  "type": "node",
  "id": 1612188459,
  "lat": 52.5203797,
  "lon": -1.4660883
},
{
  "type": "node",
  "id": 2402609310,
  "lat": 52.5432334,
  "lon": -1.3738346
},
{
  "type": "node",
  "id": 2402609311,
  "lat": 52.5432356,
  "lon": -1.3739274
},
{
  "type": "node",
  "id": 2402609317,
  "lat": 52.5433294,
  "lon": -1.3738285
},
{
  "type": "node",
  "id": 2402609318,
  "lat": 52.5433315,
  "lon": -1.3739171
},
{
  "type": "node",
  "id": 2402609319,
  "lat": 52.5433316,
  "lon": -1.3739213
},
{
  "type": "node",
  "id": 2402609324,
  "lat": 52.5434266,
  "lon": -1.3739221
},
{
  "type": "node",
  "id": 2402609325,
  "lat": 52.5434283,
  "lon": -1.3738337
},
{
  "type": "node",
  "id": 2208526232,
  "lat": 52.5964570,
  "lon": -1.4058393
},
{
  "type": "node",
  "id": 2208526234,
  "lat": 52.5964871,
  "lon": -1.4056985
},
{
  "type": "node",
  "id": 2208526236,
  "lat": 52.5965969,
  "lon": -1.4061071
},
{
  "type": "node",
  "id": 2208526238,
  "lat": 52.5966060,
  "lon": -1.4062145
},
{
  "type": "node",
  "id": 2208526240,
  "lat": 52.5966254,
  "lon": -1.4061236
},
{
  "type": "node",
  "id": 2208526243,
  "lat": 52.5966324,
  "lon": -1.4059408
},
{
  "type": "node",
  "id": 2208526245,
  "lat": 52.5966657,
  "lon": -1.4061644
},
{
  "type": "node",
  "id": 2208526246,
  "lat": 52.5967057,
  "lon": -1.4061876
},
{
  "type": "node",
  "id": 2208526248,
  "lat": 52.5967280,
  "lon": -1.4060188
},
{
  "type": "node",
  "id": 2208526250,
  "lat": 52.5967346,
  "lon": -1.4058417
},
{
  "type": "node",
  "id": 2208526251,
  "lat": 52.5967433,
  "lon": -1.4055165
},
{
  "type": "node",
  "id": 2208526253,
  "lat": 52.5967618,
  "lon": -1.4058608
},
{
  "type": "node",
  "id": 2208526255,
  "lat": 52.5967755,
  "lon": -1.4053658
},
{
  "type": "node",
  "id": 2208526263,
  "lat": 52.5968109,
  "lon": -1.4062485
},
{
  "type": "node",
  "id": 2208526265,
  "lat": 52.5968143,
  "lon": -1.4058911
},
{
  "type": "node",
  "id": 2208526267,
  "lat": 52.5968454,
  "lon": -1.4060868
},
{
  "type": "node",
  "id": 2208526269,
  "lat": 52.5968493,
  "lon": -1.4057273
},
{
  "type": "node",
  "id": 2208526271,
  "lat": 52.5968508,
  "lon": -1.4063562
},
{
  "type": "node",
  "id": 2208526273,
  "lat": 52.5969350,
  "lon": -1.4059621
},
{
  "type": "node",
  "id": 2208526275,
  "lat": 52.5969479,
  "lon": -1.4057843
},
{
  "type": "node",
  "id": 2208526277,
  "lat": 52.5969763,
  "lon": -1.4056513
},
{
  "type": "node",
  "id": 2208526279,
  "lat": 52.5970009,
  "lon": -1.4060002
},
{
  "type": "node",
  "id": 2208526292,
  "lat": 52.5970967,
  "lon": -1.4055516
},
{
  "type": "way",
  "id": 187267852,
  "nodes": [
    1979947413,
    1979947383,
    1979947391,
    1979947366,
    1979947369,
    1979947384,
    1979947415,
    1979947389,
    1979947411,
    1979947396,
    1979947374,
    1979947393,
    1979947364,
    1979947365,
    1979947392,
    1979947381,
    1979947382,
    1979947363,
    1979947401,
    1979947370,
    1979947399,
    1979947388,
    1979947377,
    1979947394,
    1979947379,
    1979947413
  ]
},
{
  "type": "way",
  "id": 187267854,
  "nodes": [
    1979947407,
    1979947397,
    1979947376,
    1979947372,
    1979947407
  ]
},
{
  "type": "way",
  "id": 22702343,
  "nodes": [
    243520665,
    689197481,
    689197485,
    689197489,
    689197492,
    1040124407,
    1040124474,
    243520666,
    1040124103,
    1040124535,
    689197502,
    689197507,
    1869025755,
    1869025754,
    1040124450,
    1040124211,
    1040124309,
    1040124509,
    1869025753,
    1869025752,
    1040124051,
    243520667,
    1040124379,
    689197530,
    1040124437,
    689197535,
    1040124472,
    689197538,
    689197543,
    1040124203,
    1040124300,
    243520668,
    243520665
  ]
},
{
  "type": "way",
  "id": 54733167,
  "nodes": [
    689197569,
    1040124178,
    1040124277,
    1040124527,
    1040124081,
    1040124397,
    1040124470,
    1040124236,
    1040124327,
    1040124040,
    689197574,
    1040124489,
    1040124172,
    1040124020,
    1040124355,
    689197579,
    689197586,
    1040124419,
    689197569
  ]
},
{
  "type": "way",
  "id": 200179397,
  "nodes": [
    2101750295,
    2101750284,
    2101750292,
    2101750293,
    2101750290,
    2101750283,
    2101750297,
    2101750281,
    2101750273,
    2101750272,
    2101750270,
    2101750267,
    2101750261,
    2101750262,
    2101750260,
    2101750257,
    2101750248,
    2101750242,
    2101750249,
    2101750246,
    2101750244,
    2101750243,
    2101750236,
    2101750237,
    2101750245,
    2101750247,
    2542117803,
    2101750250,
    2101750256,
    2101750228,
    2101750212,
    2101750203,
    2101750198,
    2101750271,
    2101750305,
    6665540325,
    2101750279,
    2101750286,
    2101750276,
    2542117896,
    2101750280,
    2101750291,
    2101750295
  ]
},
{
  "type": "way",
  "id": 200179405,
  "nodes": [
    2101750258,
    2101750269,
    2101750254,
    2101750238,
    2101750258
  ]
},
{
  "type": "way",
  "id": 709218409,
  "nodes": [
    2686334443,
    2686334463,
    2686334483,
    2101750315,
    6665540323,
    6665540324,
    2101750295,
    2101750279,
    6665540325,
    2686334443
  ]
}

  ]
}
