{
  "version": 0.6,
  "generator": "Overpass API 0.7.55.9 ab41fea6",
  "osm3s": {
    "timestamp_osm_base": "2020-02-14T14:10:02Z",
    "copyright": "The data included in this document is from www.openstreetmap.org. The data is made available under ODbL."
  },
  "elements": [

{
  "type": "node",
  "id": 94177190,
  "lat": 51.1805407,
  "lon": 4.4134923,
  "tags": {
    "name": "Middelheim",
    "opening_hours": "Jan-Mar, Oct-Dec: Tu-Su,PH 10:00-17:00; Apr,May,Sep: Tu-Su,PH 10:00-19:00; Jun-Jul: Tu-Su,PH 10:00-21:00; Aug: Tu-Su,PH 10:00-20:00; Mo off; Jan 1 off; May 1 off; Nov 1 off; Dec 25 off; easter +39 days off",
    "phone": "+32 3 288 33 60",
    "tourism": "museum",
    "website": "https://www.middelheimmuseum.be/",
    "wikidata": "Q2098074",
    "wikipedia": "nl:Openluchtmuseum voor beeldhouwkunst Middelheim"
  }
},
{
  "type": "node",
  "id": 247268491,
  "lat": 51.0945095,
  "lon": 4.3473716,
  "tags": {
    "addr:city": "Boom",
    "addr:housenumber": "196",
    "addr:street": "Noeveren",
    "name": "Steenbakkerijmuseum 't Geleeg - site Steenbakkerij Frateur",
    "old_name": "Steenbakkerij Frateur",
    "tourism": "museum",
    "website": "http://www.geleeg.be/"
  }
},
{
  "type": "node",
  "id": 287159580,
  "lat": 51.0615032,
  "lon": 4.1907096,
  "tags": {
    "addr:city": "Mariekerke",
    "addr:housenumber": "34",
    "addr:postcode": "2880",
    "addr:street": "Omgangstraat",
    "name": "Scheepvaartmuseum",
    "tourism": "museum"
  }
},
{
  "type": "node",
  "id": 289135037,
  "lat": 51.3759310,
  "lon": 4.4495141,
  "tags": {
    "addr:housenumber": "131",
    "addr:postcode": "2920",
    "addr:street": "Putsesteenweg",
    "email": "bijenteeltmuseum@kalmthout.be",
    "name": "Bijenteeltmuseum",
    "opening_hours": "Sa,Su,PH 13:00-17:00; SH Tu-Su 13:00-17:00",
    "phone": "+32 3 666 61 01",
    "tourism": "museum",
    "website": "http://www.bijenteeltmuseum.be"
  }
},
{
  "type": "node",
  "id": 289200955,
  "lat": 51.4584237,
  "lon": 4.4404282,
  "tags": {
    "name": "Karrenmuseum",
    "tourism": "museum"
  }
},
{
  "type": "node",
  "id": 300236454,
  "lat": 51.1589257,
  "lon": 4.0413125,
  "tags": {
    "name": "Edgard Tinelmuseum",
    "tourism": "museum"
  }
},
{
  "type": "node",
  "id": 303975603,
  "lat": 51.0781933,
  "lon": 4.3939859,
  "tags": {
    "email": "edmond.lambrechts@telenet.be",
    "name": "Museum Rupelklei",
    "opening_hours": "May-Sep: Sa,Su 14:00-17:00",
    "tourism": "museum",
    "website": "http://www.museum-rupelklei.be/"
  }
},
{
  "type": "node",
  "id": 387732139,
  "lat": 51.0341270,
  "lon": 4.4782017,
  "tags": {
    "name": "Joods Museum van Deportatie en Verzet",
    "tourism": "museum",
    "wikidata": "Q2123638",
    "wikipedia": "nl:Kazerne Dossin - Memoriaal, museum en documentatiecentrum over Holocaust en Mensenrechten"
  }
},
{
  "type": "node",
  "id": 455896667,
  "lat": 51.0219176,
  "lon": 4.4738011,
  "tags": {
    "OnroerendErfgoed:criteria": "M",
    "addr:housename": "83",
    "addr:street": "Hoogstraat",
    "heritage": "4",
    "heritage:operator": "OnroerendErfgoed",
    "heritage:website": "https://inventaris.onroerenderfgoed.be/dibe/relict/3411",
    "historic": "city_gate",
    "image": "http://commons.wikimedia.org/wiki/File:Mechelen,_de_Brusselpoort_RM3411_foto8_2011-09-23_12.52.jpg",
    "name": "Brusselsepoort",
    "ref:OnroerendErfgoed": "3411",
    "source": "historical",
    "tourism": "museum",
    "website": "http://mechelen.mapt.be/wiki/Brusselsepoort"
  }
},
{
  "type": "node",
  "id": 455900282,
  "lat": 51.0306372,
  "lon": 4.4913048,
  "tags": {
    "addr:housenumber": "21",
    "addr:street": "Nekkerspoelstraat",
    "email": "info@speelgoedmuseum.be",
    "fee": "yes",
    "name": "Speelgoedmuseum - Museo del Juguete",
    "name:fr": "musée du jouet",
    "opening_hours": "Tu-Su 10:00-17:00",
    "phone": "+32 15 55 70 75",
    "tourism": "museum",
    "website": "http://www.speelgoedmuseum.be",
    "wikidata": "Q3480360",
    "wikipedia": "nl:Speelgoedmuseum Mechelen"
  }
},
{
  "type": "node",
  "id": 455904641,
  "lat": 51.0256306,
  "lon": 4.4792748,
  "tags": {
    "name": "Horlogeriemuseum",
    "tourism": "museum"
  }
},
{
  "type": "node",
  "id": 473442087,
  "lat": 51.0311806,
  "lon": 4.4823499,
  "tags": {
    "addr:housenumber": "65",
    "addr:street": "Frederik de Merodestraat",
    "name": "Hof Van Busleyden",
    "tourism": "museum"
  }
},
{
  "type": "node",
  "id": 500365148,
  "lat": 51.2201234,
  "lon": 4.4581421,
  "tags": {
    "name": "Turninum",
    "tourism": "museum"
  }
},
{
  "type": "node",
  "id": 595987846,
  "lat": 51.4958063,
  "lon": 4.2854173,
  "tags": {
    "name": "Markiezenhof",
    "tourism": "museum",
    "wikidata": "Q17615282",
    "wikipedia": "nl:Markiezenhof"
  }
},
{
  "type": "node",
  "id": 597287404,
  "lat": 51.4677429,
  "lon": 4.2917520,
  "tags": {
    "addr:city": "Bergen op Zoom",
    "addr:housenumber": "21",
    "addr:postcode": "4617RA",
    "addr:street": "Fianestraat",
    "alt_name": "Bezoekerscentrum De Kraaijenberg",
    "contact:phone": "+31 164 235210",
    "contact:website": "https://www.brabantslandschap.nl/ontdek-de-natuur/infocentra/bezoekerscentrum-de-kraaijenberg/",
    "name": "Kraaijenberg",
    "operator": "Brabants Landschap",
    "source": "BAG",
    "source:date": "2014-03-24",
    "tourism": "museum"
  }
},
{
  "type": "node",
  "id": 621913554,
  "lat": 51.3856395,
  "lon": 4.3675929,
  "tags": {
    "addr:city": "Ossendrecht",
    "addr:housenumber": "60",
    "addr:postcode": "4641SL",
    "addr:street": "Putseweg",
    "name": "Oorlogsmuseum Ossendrecht",
    "opening_hours": "Sa[2] 13:00-17:00; May 05 10:00-17:00 || \"op afspraak\"",
    "operator": "Dhr Jan de Jonge",
    "phone": "+31164674534",
    "tourism": "museum",
    "website": "www.oorlogsmuseumossendrecht.nl"
  }
},
{
  "type": "node",
  "id": 1103998928,
  "lat": 51.4724949,
  "lon": 4.6651372,
  "tags": {
    "addr:city": "Zundert",
    "addr:housenumber": "26",
    "addr:postcode": "4881CN",
    "addr:street": "Markt",
    "artist_name": "Vincent van Gogh",
    "name": "Van Goghhuis",
    "source": "BAG",
    "source:date": "2014-03-24",
    "tourism": "museum",
    "website": "https://www.vangoghhuis.com/"
  }
},
{
  "type": "node",
  "id": 1110150375,
  "lat": 51.1083814,
  "lon": 4.0817622,
  "tags": {
    "name": "Blauwendael",
    "tourism": "museum"
  }
},
{
  "type": "node",
  "id": 1151040406,
  "lat": 51.2286127,
  "lon": 4.4053446,
  "tags": {
    "addr:housenumber": "19",
    "addr:postcode": "2000",
    "addr:street": "Hanzestedenplaats",
    "email": "havenpaviljoen@haven.antwerpen.be",
    "fee": "no",
    "name": "Havenpaviljoen",
    "opening_hours": "Tu-Su 09:30-17:30; Mo off",
    "operator": "Port of Antwerp",
    "tourism": "museum",
    "website": "http://www.portofantwerp.com/mashavenpaviljoen"
  }
},
{
  "type": "node",
  "id": 1309582881,
  "lat": 51.4527494,
  "lon": 4.5791752,
  "tags": {
    "name": "Timberwolfs WW2",
    "tourism": "museum"
  }
},
{
  "type": "node",
  "id": 1323066422,
  "lat": 51.2335168,
  "lon": 4.4035543,
  "tags": {
    "OnroerendErfgoed:criteria": "M",
    "addr:city": "Antwerpen",
    "addr:country": "BE",
    "addr:housenumber": "14",
    "addr:postcode": "2000",
    "addr:street": "Rijnkaai",
    "heritage": "4",
    "heritage:operator": "OnroerendErfgoed",
    "heritage:website": "https://inventaris.onroerenderfgoed.be/dibe/relict/200498",
    "name": "Rederijgebouwen Red Star Line",
    "note": "Museum open in 2013",
    "ref:OnroerendErfgoed": "200498",
    "source": "www.redstarline.be",
    "start_date": "2013-09-13",
    "tourism": "museum"
  }
},
{
  "type": "node",
  "id": 1332640840,
  "lat": 51.0812238,
  "lon": 4.3663872,
  "tags": {
    "tourism": "museum"
  }
},
{
  "type": "node",
  "id": 1462189318,
  "lat": 51.2669446,
  "lon": 4.7115846,
  "tags": {
    "name": "Heemmuseum",
    "tourism": "museum"
  }
},
{
  "type": "node",
  "id": 1629898273,
  "lat": 51.2090334,
  "lon": 4.3876251,
  "tags": {
    "addr:city": "Antwerpen",
    "addr:housenumber": "47",
    "addr:postcode": "2000",
    "addr:street": "Waalsekaai",
    "email": "info@fomu.be",
    "name": "Fotomuseum Antwerpen",
    "opening_hours": "Tu-Su 10:00-18:00; Jan 1 off; Jan 2 off; Dec 25 off; Dec 26 off; Dec 24 10:00-14:00; Dec 31 10:00-14:00; easter + 1 days 10:00-18:00; Jul 21 10:00-18:00; Nov 2 10:00-18:00",
    "phone": "+32 3 242 93 00",
    "short_name": "Fomu",
    "tourism": "museum",
    "url": "http://www.fotomuseum.be",
    "wikidata": "Q2635059",
    "wikipedia": "nl:FotoMuseum (Antwerpen)"
  }
},
{
  "type": "node",
  "id": 1747398674,
  "lat": 51.1028733,
  "lon": 4.1911991,
  "tags": {
    "addr:city": "Weert",
    "addr:housenumber": "18",
    "addr:postcode": "2880",
    "addr:street": "Scheldestraat",
    "email": "de.zilverreiger@telenet.be;lucdewachter@skynet.be",
    "internet_access": "wlan",
    "name": "'De Zilverreiger' Streek-Vlechtmuseum",
    "opening_hours": "Mar 01-Nov 01 Mo,Fr off \"NIET voor groepen call\"; Mar 01-Nov 01 Tu,Su,PH 10:00-18:00; Mar 01-Nov 01 We,Th,Sa 10:00-13:00 \"reservation\"|| Mar 01-Nov 01 We,Th,Sa 13:00-18:00",
    "operator": "V.Z.W.",
    "payment:cash": "yes",
    "phone": "+32 3 889 06 03",
    "tourism": "museum",
    "website": "http://www.zilverreiger.be",
    "wheelchair": "yes"
  }
},
{
  "type": "node",
  "id": 1782364853,
  "lat": 51.2172961,
  "lon": 4.3995977,
  "tags": {
    "addr:city": "Antwerpen",
    "addr:housenumber": "28",
    "addr:postcode": "2000",
    "addr:street": "Nationalestraat",
    "alt_name": "ModeMuseum",
    "name": "MoMu",
    "name:ko": "패션 박물관",
    "opening_hours": "Tu-Su 10:00-18:00; Dec 25 off; Dec 26 off; Jan 1 off; Jan 2 off; Dec 24, Dec 31 10:00-14:00; Th[1] 10:00-21:00",
    "tourism": "museum",
    "website": "https://www.momu.be/",
    "wheelchair": "yes",
    "wikidata": "Q2799943"
  }
},
{
  "type": "node",
  "id": 1799245446,
  "lat": 51.0951516,
  "lon": 4.4967535,
  "tags": {
    "name": "Museum Het Gasthuis",
    "tourism": "museum"
  }
},
{
  "type": "node",
  "id": 1904737799,
  "lat": 51.2283948,
  "lon": 4.4053543,
  "tags": {
    "addr:housenumber": "23",
    "addr:postcode": "2000",
    "addr:street": "Hanzestedenplaats",
    "alt_name": "Diamantpaviljoen",
    "fee": "no",
    "name": "Paviljoen Antwerpen Morgen",
    "old_name": "Diamantpaviljoen",
    "opening_hours": "Tu-Fr 10:00-17:00; Nov-Mar Sa-Su 10:00-17:00; Apr-Oct Sa-Su 10:00-18:00; Mo off",
    "operator": "Stad Antwerpen",
    "tourism": "museum",
    "url": "https://www.antwerpenmorgen.be/"
  }
},
{
  "type": "node",
  "id": 1904737802,
  "lat": 51.2288362,
  "lon": 4.4053273,
  "tags": {
    "addr:housenumber": "15",
    "addr:postcode": "2000",
    "addr:street": "Hanzestedenplaats",
    "name": "Umicore Zilverpaviljoen",
    "operator": "Umicore",
    "tourism": "museum"
  }
},
{
  "type": "node",
  "id": 1925173779,
  "lat": 51.0831372,
  "lon": 4.3762904,
  "tags": {
    "name": "Nautisch Bezoekerscentrum Rupelstreek",
    "tourism": "museum"
  }
},
{
  "type": "node",
  "id": 1995904724,
  "lat": 51.2634524,
  "lon": 4.5552887,
  "tags": {
    "addr:city": "'s-Gravenwezel",
    "addr:housenumber": "41-45",
    "addr:postcode": "2970",
    "addr:street": "Kerkstraat",
    "name": "Heemkring De Drie Rozen",
    "operator": "Heemkring De Drie Rozen vzw",
    "source": "local knowledge",
    "tourism": "museum",
    "website": "https://www.dedrierozen.be/"
  }
},
{
  "type": "node",
  "id": 2072807447,
  "lat": 51.3504897,
  "lon": 4.7583882,
  "tags": {
    "name": "Heemkundig museum",
    "tourism": "museum"
  }
},
{
  "type": "node",
  "id": 2072812864,
  "lat": 51.3293283,
  "lon": 4.7822514,
  "tags": {
    "name": "Aster berkhofmuseum",
    "tourism": "museum"
  }
},
{
  "type": "node",
  "id": 2237771858,
  "lat": 51.3554598,
  "lon": 4.8256364,
  "tags": {
    "description": "museum \"Kolonie prison\"",
    "name": "gevangenis museum",
    "source": "http://www.gevangenismuseum.be/",
    "tourism": "museum"
  }
},
{
  "type": "node",
  "id": 2339126224,
  "lat": 51.0930471,
  "lon": 4.3519018,
  "tags": {
    "addr:housenumber": "67",
    "addr:street": "Noeveren",
    "building": "house",
    "name": "Ecomuseum en Archief van de Boomse Baksteen",
    "short_name": "EMABB",
    "source": "AGIV",
    "tourism": "museum",
    "website": "http://www.steenbakkerijmuseum.be/"
  }
},
{
  "type": "node",
  "id": 2376124832,
  "lat": 51.1834165,
  "lon": 4.4015098,
  "tags": {
    "alt_name": "Bunker Museum Antwerpen",
    "email": "antwerpsbunkermuseum@proximus.be",
    "name": "Oorlogsmuseum",
    "opening_hours:url": "http://www.bunkervliegtuigarcheo.com/openingsdata/",
    "tourism": "museum",
    "website": "http://www.bunkervliegtuigarcheo.com/",
    "wikidata": "Q15080293",
    "wikipedia:nl": "Atlantikwall & Luchtoorlog Bunker Museum Antwerpen"
  }
},
{
  "type": "node",
  "id": 2405238571,
  "lat": 51.4376625,
  "lon": 4.4542448,
  "tags": {
    "name": "Bosmuseum",
    "source": "http://www.natuurenbos.be/nl-BE/Domeinen/Bezoekerscentra/bosmuseum_Wildert.aspx",
    "tourism": "museum"
  }
},
{
  "type": "node",
  "id": 2413530067,
  "lat": 51.2228089,
  "lon": 4.4047276,
  "tags": {
    "OnroerendErfgoed:criteria": "M",
    "addr:city": "Antwerpen",
    "addr:housenumber": "22",
    "addr:postcode": "2000",
    "addr:street": "Minderbroedersstraat",
    "description": "Notarishuis, nu Letterenhuis",
    "fixme": "resurvey: approx. position given by wikipedia",
    "heritage": "4",
    "heritage:operator": "OnroerendErfgoed",
    "heritage:website": "https://inventaris.onroerenderfgoed.be/dibe/relict/5565",
    "name": "Het Letterenhuis",
    "opening_hours": "Tu,We,Th,Sa 10:00-17:00; easter +39 days off",
    "ref:OnroerendErfgoed": "5565",
    "tourism": "museum",
    "website": "https://www.letterenhuis.be/",
    "wikidata": "Q3813695",
    "wikipedia": "nl:Letterenhuis"
  }
},
{
  "type": "node",
  "id": 2413530148,
  "lat": 51.2217275,
  "lon": 4.4060796,
  "tags": {
    "OnroerendErfgoed:criteria": "M",
    "addr:city": "Antwerpen",
    "addr:housenumber": "10;12",
    "addr:street": "Keizerstraat",
    "description": "Tu-Su 10:00-17:00; Jan 1, Jan 2 off; Dec 25 off; Dec 26 off; easter+39 days off; easter+1 days 10:00-17:00; easter + 50 days 10:00-17:00",
    "heritage": "4",
    "heritage:operator": "OnroerendErfgoed",
    "heritage:website": "https://inventaris.onroerenderfgoed.be/dibe/relict/5134",
    "name": "Rockoxhuis",
    "opening_hours": "closed",
    "ref:OnroerendErfgoed": "5134",
    "tourism": "museum",
    "website": "http://www.rockoxhuis.be/",
    "wikidata": "Q2662909",
    "wikipedia:nl": "Rockoxhuis"
  }
},
{
  "type": "node",
  "id": 2508144190,
  "lat": 51.0883868,
  "lon": 4.3313605,
  "tags": {
    "OnroerendErfgoed:criteria": "M",
    "addr:city": "Ruisbroek",
    "addr:housenumber": "49",
    "addr:street": "Ruisbroek-Dorp",
    "description": "Museum De Bres, voormalig gemeentehuis",
    "disused:amenity": "townhall",
    "heritage": "4",
    "heritage:operator": "OnroerendErfgoed",
    "heritage:website": "https://inventaris.onroerenderfgoed.be/dibe/relict/2298",
    "name": "De Bres",
    "ref:OnroerendErfgoed": "2298",
    "tourism": "museum"
  }
},
{
  "type": "node",
  "id": 2521832150,
  "lat": 51.0561330,
  "lon": 4.2012463,
  "tags": {
    "OnroerendErfgoed:criteria": "M",
    "addr:housenumber": "22",
    "addr:street": "Kaai",
    "description": "Emile Verhaerenmuseum",
    "heritage": "4",
    "heritage:operator": "OnroerendErfgoed",
    "heritage:website": "https://inventaris.onroerenderfgoed.be/dibe/relict/2140",
    "name": "Emile Verhaerenmuseum",
    "name:etymology:wikidata": "Q193680",
    "ref:OnroerendErfgoed": "2140",
    "tourism": "museum"
  }
},
{
  "type": "node",
  "id": 2559989293,
  "lat": 51.3576540,
  "lon": 4.3073196,
  "tags": {
    "addr:housenumber": "190",
    "addr:street": "Zoutestraat",
    "name": "Forgotten Times",
    "opening_hours": "Mo 10:00-17:00; Tu-Fr 10:00-18:00; Sa 10:00-17:00; Su 12:00-16:00",
    "tourism": "museum",
    "website": "http://www.americanlegend.be"
  }
},
{
  "type": "node",
  "id": 2576145025,
  "lat": 51.0565397,
  "lon": 4.2033178,
  "tags": {
    "name": "Emile Verhaerenmuseum",
    "name:etymology:wikidata": "Q193680",
    "tourism": "museum"
  }
},
{
  "type": "node",
  "id": 2750470705,
  "lat": 51.2310975,
  "lon": 3.9636722,
  "tags": {
    "addr:city": "Koewacht",
    "addr:housenumber": "45",
    "addr:postcode": "4576BJ",
    "addr:street": "Eikenlaan",
    "description": "about the history of the traditional flax industry",
    "museum": "flax",
    "name": "Museum 't Vlasschuurken",
    "source": "BAG",
    "source:date": "2014-03-24",
    "tourism": "museum"
  }
},
{
  "type": "node",
  "id": 2752023486,
  "lat": 51.2652618,
  "lon": 3.9088425,
  "tags": {
    "addr:city": "Axel",
    "addr:housenumber": "2",
    "addr:postcode": "4571BG",
    "addr:street": "Markt",
    "fee": "MJK_free",
    "name": "Streekmuseum 'Het Warenhuis'",
    "opening_hours": "We-Sa 11:00-17:00",
    "source": "BAG",
    "source:date": "2014-03-24",
    "tourism": "museum",
    "website": "https://www.hetwarenhuis.nl/"
  }
},
{
  "type": "node",
  "id": 2773561934,
  "lat": 51.3283923,
  "lon": 4.1474179,
  "tags": {
    "addr:city": "Nieuw Namen",
    "addr:housenumber": "4",
    "addr:postcode": "4568PW",
    "addr:street": "Emmaweg",
    "email": "bcsaeftinghe@hetzeeuwselandschap.nl",
    "fax": "+31 114 633111",
    "fee": "yes",
    "name": "Bezoekerscentrum Saeftinghe",
    "opening_hours": "May-Sep Tu-Su 13:00-17:00, Oct,Apr Sa,Su 13:00-17:00, easter,easter +1 day,easter +49 days,easter +50 days 13:00-17:00; Nov 01-Mar 31",
    "phone": "+31 114 633110",
    "source": "BAG",
    "source:date": "2014-03-24",
    "tourism": "museum",
    "website": "https://www.saeftinghe.eu/"
  }
},
{
  "type": "node",
  "id": 2817948795,
  "lat": 51.5339999,
  "lon": 4.4585295,
  "tags": {
    "addr:city": "Roosendaal",
    "addr:housenumber": "2",
    "addr:postcode": "4701JS",
    "addr:street": "Molenstraat",
    "name": "Museum Tongerlohuys",
    "source": "BAG",
    "source:date": "2014-02-11",
    "tourism": "museum",
    "website": "https://www.tongerlohuys.nl/"
  }
},
{
  "type": "node",
  "id": 2818015825,
  "lat": 51.5412133,
  "lon": 4.4540585,
  "tags": {
    "addr:city": "Roosendaal",
    "addr:housenumber": "4",
    "addr:postcode": "4704RG",
    "addr:street": "Borchwerf",
    "name": "Voetbal Experience",
    "opening_hours": "Mo-Sa 11:00-17:00",
    "phone": "0165 520 537",
    "source": "BAG",
    "source:date": "2014-02-11",
    "tourism": "museum",
    "website": "https://voetbalexperience.nl/"
  }
},
{
  "type": "node",
  "id": 2825120368,
  "lat": 51.5243747,
  "lon": 4.3910318,
  "tags": {
    "addr:city": "Wouw",
    "addr:housenumber": "45",
    "addr:postcode": "4724AB",
    "addr:street": "Roosendaalsestraat",
    "name": "Grafisch Museum",
    "source": "BAG",
    "source:date": "2014-03-24",
    "tourism": "museum"
  }
},
{
  "type": "node",
  "id": 2829618983,
  "lat": 51.3929505,
  "lon": 4.3145870,
  "tags": {
    "addr:city": "Ossendrecht",
    "addr:housenumber": "29",
    "addr:postcode": "4641JE",
    "addr:street": "Aanwas",
    "name": "Streekmuseum Den Aanwas",
    "phone": "+31164672854",
    "source": "BAG",
    "source:date": "2014-03-24",
    "tourism": "museum"
  }
},
{
  "type": "node",
  "id": 2867507436,
  "lat": 51.4926595,
  "lon": 4.0497274,
  "tags": {
    "addr:city": "Yerseke",
    "addr:housenumber": "1",
    "addr:postcode": "4401ED",
    "addr:street": "Kerkplein",
    "contact:email": "info@oosterscheldemuseum.nl",
    "contact:website": "http://www.oosterscheldemuseum.nl/",
    "museum": "history;fishery;shellfish",
    "name": "OosterscheldeMuseum",
    "opening_hours": "May-Sep: Mo 13:00-16:00; May-Sep: Tu-Sa 10:00-16:00; PH off",
    "operator": "Stichting OosterscheldeMuseum",
    "source": "BAG",
    "source:date": "2014-05-07",
    "toilets:wheelchair": "no",
    "tourism": "museum",
    "website": "https://www.oosterscheldemuseum.nl/",
    "wheelchair": "yes",
    "wheelchair:description": "toilet niet rolstoeltoegankelijk"
  }
},
{
  "type": "node",
  "id": 3063800283,
  "lat": 51.1319050,
  "lon": 4.3306257,
  "tags": {
    "addr:housenumber": "4",
    "addr:street": "Bernardusabdij 4",
    "name": "Omtrent Den Hover",
    "opening_hours": "Su[1] 14:00-18:00",
    "operator": "Heemkring Heymissen",
    "tourism": "museum",
    "website": "http://heemkundigekringheymissen.tk/museum/"
  }
},
{
  "type": "node",
  "id": 3223810669,
  "lat": 51.2333447,
  "lon": 4.4035019,
  "tags": {
    "addr:city": "Antwerpen",
    "addr:country": "BE",
    "addr:housenumber": "3",
    "addr:postcode": "2000",
    "addr:street": "Montevideostraat",
    "email": "redstarline@stad.antwerpen.be",
    "name": "Red Star Line Museum",
    "opening_hours": "Tu-Su 10:00-17:00; Mo off",
    "phone": "+32 3 298 27 70",
    "toilets:wheelchair": "yes",
    "tourism": "museum",
    "website": "https://www.redstarline.be/",
    "wheelchair": "yes",
    "wikidata": "Q23090950"
  }
},
{
  "type": "node",
  "id": 3560597111,
  "lat": 51.1478194,
  "lon": 4.2981655,
  "tags": {
    "name": "Museeum van Heemkundige Kring",
    "tourism": "museum"
  }
},
{
  "type": "node",
  "id": 3672594530,
  "lat": 51.1747097,
  "lon": 4.4588255,
  "tags": {
    "tourism": "museum"
  }
},
{
  "type": "node",
  "id": 3682659931,
  "lat": 51.3121741,
  "lon": 3.9125320,
  "tags": {
    "addr:city": "Zaamslag",
    "addr:country": "NL",
    "addr:housenumber": "3",
    "addr:postcode": "4543BH",
    "addr:street": "Plein",
    "museum": "shells",
    "name": "Schelpenmuseum Zaamslag",
    "source": "BAG",
    "source:date": "2015-08-05",
    "tourism": "museum",
    "wikidata": "Q2262691",
    "wikipedia": "nl:Schelpenmuseum Zaamslag"
  }
},
{
  "type": "node",
  "id": 3849825759,
  "lat": 51.1468721,
  "lon": 4.3040678,
  "tags": {
    "addr:housenumber": "22",
    "addr:street": "Lange Gaanweg",
    "name": "Museum De Schuur vzw",
    "opening_hours": "Sa,Su,PH 11:00+; Dec 25, Jan 1 off",
    "tourism": "museum",
    "website": "http://www.museumdeschuur.be/"
  }
},
{
  "type": "node",
  "id": 4012533853,
  "lat": 51.1276123,
  "lon": 4.4926098,
  "tags": {
    "name": "Lint Heemmuseum \"Den Aker\"",
    "short_name": "Den Aker",
    "tourism": "museum"
  }
},
{
  "type": "node",
  "id": 4163360522,
  "lat": 51.0009319,
  "lon": 4.5903709,
  "tags": {
    "name": "'t Smiske",
    "tourism": "museum"
  }
},
{
  "type": "node",
  "id": 4327870275,
  "lat": 51.4876707,
  "lon": 4.3266667,
  "tags": {
    "addr:housenumber": "1",
    "addr:postcode": "4624RB",
    "addr:street": "Boslustweg",
    "description:nl": "educatief bezoekerscentrum Brabantse Wal",
    "information": "office",
    "name": "Natuurpodium Brabantse Wal",
    "opening_hours": "Mo 13:00-17:00; Tu-Su 09:00-17:00",
    "tourism": "museum",
    "website": "http://natuurpodium.nl/"
  }
},
{
  "type": "node",
  "id": 4425713408,
  "lat": 51.4619462,
  "lon": 4.3754660,
  "tags": {
    "name": "Brandweermuseum",
    "tourism": "museum"
  }
},
{
  "type": "node",
  "id": 4526740510,
  "lat": 51.5688402,
  "lon": 4.4077098,
  "tags": {
    "addr:city": "Kruisland",
    "addr:housenumber": "20",
    "addr:postcode": "4756AL",
    "addr:street": "Markt",
    "name": "De Holle Roffel",
    "source": "BAG",
    "source:date": "2016-11-28",
    "tourism": "museum",
    "wikidata": "Q2092020",
    "wikipedia": "nl:De Holle Roffel"
  }
},
{
  "type": "node",
  "id": 4637461167,
  "lat": 51.1681343,
  "lon": 4.1423773,
  "tags": {
    "name": "De Salons",
    "tourism": "museum"
  }
},
{
  "type": "node",
  "id": 4637461187,
  "lat": 51.1669625,
  "lon": 4.1453186,
  "tags": {
    "addr:city": "Sint-Niklaas",
    "addr:housenumber": "49D",
    "addr:street": "Zamanstraat",
    "email": "stedelijkemusea@sint-niklaas.be",
    "name": "Mercatormuseum",
    "opening_hours": "Tu-Fr 13:30-17:00;Sa 13:00-17:00;Su 11:00-17:00",
    "phone": "+32 3 778 34 50",
    "tourism": "museum",
    "website": "https://musea.sint-niklaas.be/mercator"
  }
},
{
  "type": "node",
  "id": 4813655725,
  "lat": 51.2134800,
  "lon": 4.4217782,
  "tags": {
    "name": "ComicsStation",
    "tourism": "museum"
  }
},
{
  "type": "node",
  "id": 4875945323,
  "lat": 51.1997088,
  "lon": 4.4224077,
  "tags": {
    "addr:housenumber": "21",
    "addr:street": "Eikelstraat",
    "name": "Extra City Kunsthal",
    "opening_hours": "We-Su 13:00-18:00",
    "tourism": "museum"
  }
},
{
  "type": "node",
  "id": 4938180882,
  "lat": 51.0313887,
  "lon": 4.0978956,
  "tags": {
    "name": "Vleeshuismuseum",
    "tourism": "museum"
  }
},
{
  "type": "node",
  "id": 5027285582,
  "lat": 51.2281925,
  "lon": 4.4040393,
  "tags": {
    "name": "Rijn- en Binnenvaartmuseum",
    "opening_hours": "Apr 15 - Oct 15 We 13:00-18:00",
    "phone": "+32 3 232 86 70",
    "tourism": "museum",
    "website": "http://www.rijnenbinnenvaartmuseum.be/"
  }
},
{
  "type": "node",
  "id": 5076293608,
  "lat": 51.2214923,
  "lon": 4.3975528,
  "tags": {
    "addr:housenumber": "9",
    "addr:postcode": "2000",
    "addr:street": "Ernest Van Dijckkaai",
    "email": "van.mieghem.museum@skynet.be",
    "name": "Eugeen Van Mieghem Museum",
    "opening_hours": "Su,Mo 14:00-17:00; Jul-Aug off; PH off; \"groups by appointment\"",
    "phone": "+32 3 211 03 30",
    "tourism": "museum",
    "website": "http://www.vanmieghemmuseum.com",
    "wikidata": "Q32845567"
  }
},
{
  "type": "node",
  "id": 5076293609,
  "lat": 51.2217588,
  "lon": 4.3976883,
  "tags": {
    "addr:housenumber": "7",
    "addr:postcode": "2000",
    "addr:street": "Ernest Van Dijckkaai",
    "email": "info@museum-dereede.be",
    "name": "Museum De Reede",
    "opening_hours": "Mo-Tu,Th-Su 11:00-17:00; We off",
    "phone": "+32 3 434 03 04",
    "tourism": "museum",
    "website": "https://museum-dereede.com/",
    "wikidata": "Q24471974"
  }
},
{
  "type": "node",
  "id": 5147550822,
  "lat": 51.0763790,
  "lon": 4.7301105,
  "tags": {
    "addr:city": "Heist-op-den-Berg",
    "addr:country": "BE",
    "addr:housenumber": "1",
    "addr:postcode": "2220",
    "addr:province": "Antwerpen",
    "addr:street": "Kerkplein",
    "description": "http://www.heist-op-den-berg.be/Bezienswaardigheden-Treinmuseum.html",
    "name": "Treinmuseum",
    "note": "more info : http://www.tento.be/musea/treinmuseum-pieter-nombluez",
    "tourism": "museum",
    "website": "https://heist-op-den-berg.eyes-e-tools.net/bezienswaardigheden-treinmuseum.html"
  }
},
{
  "type": "node",
  "id": 5226910595,
  "lat": 51.2144277,
  "lon": 4.4053853,
  "tags": {
    "addr:housenumber": "33",
    "addr:postcode": "2000",
    "addr:street": "Lange Gasthuisstraat",
    "alt_name": "Maagdenhuismuseum",
    "email": "maagdenhuismuseum@ocmw.antwerpen.be",
    "name": "Maagdenhuis",
    "name:ru": "музей",
    "opening_hours": "Mo,We-Fr 10:00-17:00; Sa,Su 13:00-17:00; Tu,PH off",
    "operator": "OCMW Antwerpen",
    "phone": "+32 3 338 26 20",
    "tourism": "museum",
    "website": "https://www.maagdenhuismuseum.be/",
    "wikidata": "Q2491109"
  }
},
{
  "type": "node",
  "id": 5325822803,
  "lat": 51.1853877,
  "lon": 4.4362557,
  "tags": {
    "addr:city": "Berchem",
    "addr:housenumber": "6",
    "addr:postcode": "2600",
    "addr:street": "Rooiplein",
    "description": "Heemkundig museum voor het district Berchem van de Stad Antwerpen.  Open: Elke 2de en 4de zondag van de maand of na afspraak. Info 03 292 51 15 Locatie: Domein Park West | Linkergebouw - Zolderverdieping Niet toegankelijk voor rolstoelgebruikers",
    "email": "info@zoldermuseum.be",
    "level": "1",
    "museum": "history",
    "name": "Zoldermuseum \"Schaliënhoeve\"",
    "opening_hours:url": "https://www.zoldermuseum.be",
    "operator": "Heemkring Berchem vzw",
    "operator:type": "private_non_profit",
    "phone": "+32 3 292 51 15",
    "tourism": "museum",
    "website": "https://www.zoldermuseum.be",
    "wheelchair": "no"
  }
},
{
  "type": "node",
  "id": 5579181368,
  "lat": 51.1896120,
  "lon": 4.4520405,
  "tags": {
    "addr:housenumber": "1/3",
    "addr:postcode": "2100",
    "addr:street": "Luchthavenlei",
    "email": "stampe@skynet.be",
    "name": "Museum Stampe & Vertongen",
    "opening_hours": "Sa-Su 14:00-17:00, Mo-Fr \"on appointment\"",
    "tourism": "museum",
    "website": "http://www.stampe.be/"
  }
},
{
  "type": "node",
  "id": 5584340700,
  "lat": 51.2211147,
  "lon": 4.3982766,
  "tags": {
    "addr:housenumber": "17-19",
    "addr:postcode": "2000",
    "addr:street": "Suikerrui",
    "alt_name": "DIVA Antwerp Home of Diamonds; DIVA Diamantmuseum",
    "email": "info@diva.antwerp.be",
    "name": "DIVA",
    "opening_hours": "Mo,Tu,Th-Su 10:00-18:00; We off",
    "phone": "+32 3 360 52 52",
    "tourism": "museum",
    "website": "http://www.divaantwerp.be/"
  }
},
{
  "type": "node",
  "id": 5794035018,
  "lat": 51.0469218,
  "lon": 4.1941190,
  "tags": {
    "name": "Molenmuseum",
    "tourism": "museum"
  }
},
{
  "type": "node",
  "id": 5846507725,
  "lat": 51.1995508,
  "lon": 4.4641583,
  "tags": {
    "name": "Natuurhistorisch Museum Boekenberg",
    "opening_hours": "period=15/5 to 14/10; Sun 14-18",
    "tourism": "museum",
    "wheelchair": "no"
  }
},
{
  "type": "node",
  "id": 6067564785,
  "lat": 51.2199737,
  "lon": 4.4031865,
  "tags": {
    "addr:postcode": "2000",
    "email": "info@zeberg.com",
    "internet_access": "wlan",
    "name": "Zeberg Fine Art",
    "opening_hours": "Fr-Su 13:00-18:00",
    "phone": "+32 3 345 40 37",
    "tourism": "museum",
    "website": "http://www.zeberg.com"
  }
},
{
  "type": "node",
  "id": 6101775493,
  "lat": 51.0003517,
  "lon": 4.2497469,
  "tags": {
    "alt_name": "Telefoniemuseum Steenhuffel",
    "name": "Leofoon",
    "tourism": "museum",
    "website": "https://www.leofoon.be/"
  }
},
{
  "type": "node",
  "id": 6109174786,
  "lat": 51.2319393,
  "lon": 4.2493148,
  "tags": {
    "name": "Mercator Huis",
    "tourism": "museum"
  }
},
{
  "type": "node",
  "id": 6208675680,
  "lat": 51.2192003,
  "lon": 4.4208740,
  "tags": {
    "addr:city": "Antwerpen",
    "addr:housenumber": "7",
    "addr:postcode": "2018",
    "addr:street": "Koningin Astridplein",
    "contact:facebook": "https://www.facebook.com/chocolatenationBE/",
    "email": "info@tbce.be",
    "fee": "yes",
    "name": "Chocolate Nation",
    "opening_hours": "Mo-Su 10:30-21:00",
    "phone": "+32 3 207 08 08",
    "tourism": "museum",
    "website": "https://www.chocolatenation.be/"
  }
},
{
  "type": "node",
  "id": 6250404256,
  "lat": 51.2196348,
  "lon": 4.3995934,
  "tags": {
    "name": "Poorterswoning",
    "tourism": "museum",
    "website": "http://www.poorterswoning.be"
  }
},
{
  "type": "node",
  "id": 6373904149,
  "lat": 51.4088137,
  "lon": 4.3423507,
  "tags": {
    "addr:housenumber": "199",
    "addr:postcode": "4641RM",
    "addr:street": "Onze-Lieve-Vrouwe-ter Duinenlaan",
    "email": "info@wings-over-woensdrecht.nl",
    "fee": "yes",
    "name": "Wings over Woensdrecht",
    "start_date": "2019-04-03",
    "tourism": "museum",
    "website": "https://www.wings-over-woensdrecht.nl"
  }
},
{
  "type": "node",
  "id": 6550838364,
  "lat": 51.2218019,
  "lon": 4.3895991,
  "tags": {
    "alt_name": "Maritiem Openluchtmuseum Boeienweide",
    "fee": "no",
    "museum": "open_air",
    "name": "Boeienweide",
    "opening_hours": "24/7",
    "tourism": "museum"
  }
},
{
  "type": "node",
  "id": 6743458050,
  "lat": 51.2113517,
  "lon": 4.3960558,
  "tags": {
    "name": "Bormshuis",
    "tourism": "museum",
    "website": "https://bormshuis.wordpress.com"
  }
},
{
  "type": "node",
  "id": 6967244511,
  "lat": 51.3573382,
  "lon": 4.8243098,
  "tags": {
    "name": "Bezoekerscentrum Kolonie 5-7",
    "tourism": "museum"
  }
},
{
  "type": "way",
  "id": 23221247,
  "nodes": [
    4503792504,
    4503792503,
    4503792502,
    251191929,
    251191928,
    251191927,
    717698407,
    4503792501,
    251191925,
    4503792500,
    4503792499,
    4503792498,
    4503792497,
    4503792496,
    4503792495,
    4503792494,
    4503792493,
    4503792492,
    4503792491,
    4503792490,
    251191924,
    4503792489,
    4503792388,
    4503792387,
    4503792386,
    4503792385,
    4503792384,
    251191923,
    4503792383,
    4503792382,
    4503792381,
    4503792380,
    4503792379,
    4503792378,
    4503792377,
    4503792376,
    4503792375,
    4503792374,
    4503792373,
    4503792372,
    4503792371,
    4503792370,
    4503792369,
    251191922,
    4503792504
  ],
  "tags": {
    "OnroerendErfgoed:criteria": "M",
    "addr:city": "Antwerpen",
    "addr:housenumber": "1",
    "addr:street": "Leopold de Waelplaats",
    "alt_name": "KMSKA - Koninklijk Museum voor Schone Kunsten Antwerpen",
    "building": "yes",
    "description": "Koninklijk Museum voor Schone Kunsten",
    "heritage": "4",
    "heritage:operator": "OnroerendErfgoed",
    "heritage:website": "https://inventaris.onroerenderfgoed.be/dibe/relict/6350",
    "name": "Koninklijk Museum voor Schone Kunsten",
    "name:ko": "안트베르펜 왕립미술관",
    "opening_hours": "2016-2018 closed \"Wegens verbouwing gesloten tot 2018\"",
    "ref:OnroerendErfgoed": "6350",
    "short_name": "KMSKA",
    "tourism": "museum",
    "website": "https://www.kmska.be/",
    "wikidata": "Q1471477",
    "wikipedia": "nl:Koninklijk Museum voor Schone Kunsten Antwerpen"
  }
},
{
  "type": "way",
  "id": 23861736,
  "nodes": [
    258612279,
    258612280,
    258612281,
    5026786976,
    567457100,
    258612282,
    5028730846,
    567457775,
    567457774,
    258612283,
    5028730862,
    5028730861,
    5028730859,
    5028730857,
    5028730855,
    5028730853,
    5028730851,
    5028730891,
    567457907,
    567457909,
    258612279
  ],
  "tags": {
    "OnroerendErfgoed:criteria": "M",
    "addr:city": "Berchem",
    "addr:housenumber": "42;44",
    "addr:street": "Diksmuidelaan",
    "alt_name": "Trammuseum",
    "building": "yes",
    "description": "Tramloods",
    "email": "info@vlatam.be",
    "heritage": "4",
    "heritage:operator": "OnroerendErfgoed",
    "heritage:website": "https://inventaris.onroerenderfgoed.be/dibe/relict/10906",
    "name": "Vlaams Tram- en Autobusmuseum",
    "opening_hours": "closed; \"Wegens verbouwing gesloten tot April 2018\"",
    "phone": "+32 3 322 44 62",
    "ref:OnroerendErfgoed": "10906",
    "short_name": "VlaTAM",
    "tourism": "museum",
    "website": "https://www.delijn.be/nl/overdelijn/organisatie/educatief/museum/index.html",
    "wikidata": "Q2149205",
    "wikipedia": "nl:Vlaams Tram- en Autobusmuseum"
  }
},
{
  "type": "way",
  "id": 25364883,
  "nodes": [
    276454587,
    276454590,
    276454591,
    276454593,
    276454587
  ],
  "tags": {
    "addr:city": "Antwerpen",
    "addr:housenumber": "1,3,5",
    "addr:postcode": "2000",
    "addr:street": "Hanzestedenplaats",
    "architect": "Neutelings Riedijk Architecten",
    "building": "civic",
    "height": "62.71",
    "name": "Museum aan de Stroom",
    "name:ko": "안드스트룸 박물관(강변 박물관)",
    "opening_hours": "Tu-Su 09:30-22:00; Jan 1 off; May 1 off; easter+39 days off; Nov 1 off; Dec 2 off",
    "phone": "+32 3 338 44 00",
    "short_name": "MAS",
    "tourism": "museum",
    "website": "https://www.mas.be/",
    "wheelchair": "limited",
    "wheelchair:description": "Zugang zu oberen Stockwerken nur über Aufzug, dazu Wunsch an der Informationstheke anmelden",
    "wikidata": "Q1646305",
    "wikipedia": "nl:Museum aan de Stroom (MAS)"
  }
},
{
  "type": "way",
  "id": 29067904,
  "nodes": [
    319737481,
    319737482,
    319737483,
    319737484,
    319737481
  ],
  "tags": {
    "OnroerendErfgoed:criteria": "M",
    "addr:city": "Antwerpen",
    "addr:street": "Jordaenskaai",
    "alt_name": "Maritiem park",
    "building": "yes",
    "heritage": "4",
    "heritage:operator": "OnroerendErfgoed",
    "heritage:website": "https://inventaris.onroerenderfgoed.be/dibe/relict/200856",
    "name": "Scheepvaartmuseum",
    "name:ko": "해양 박물관",
    "ref:OnroerendErfgoed": "200856",
    "tourism": "museum"
  }
},
{
  "type": "way",
  "id": 31232935,
  "nodes": [
    347271925,
    347271926,
    347271929,
    2378631345,
    2379988091,
    347271931,
    3297665756,
    347271925
  ],
  "tags": {
    "OnroerendErfgoed:criteria": "M",
    "addr:housenumber": "1",
    "addr:street": "Steenweg",
    "building": "house",
    "heritage": "4",
    "heritage:operator": "OnroerendErfgoed",
    "heritage:website": "https://inventaris.onroerenderfgoed.be/dibe/relict/74581",
    "image": "http://www.flickr.com/photos/erfgoed/155865026/",
    "name": "Schepenhuis",
    "ref:OnroerendErfgoed": "74581",
    "tourism": "museum",
    "wikidata": "Q2506013",
    "wikipedia": "nl:Schepenhuis (Mechelen)"
  }
},
{
  "type": "way",
  "id": 34301150,
  "nodes": [
    393369110,
    393369020,
    5071060868,
    5071060869,
    5071060871,
    5071060870,
    5071060872,
    5071060873,
    393369021,
    5071060874,
    393369022,
    5071060875,
    5071060876,
    5071060877,
    5071060878,
    5071060881,
    5071060879,
    5071060880,
    5071060885,
    5071060882,
    5071060884,
    5071060883,
    5071060886,
    5071060887,
    393369023,
    5071060888,
    5071060889,
    393369004,
    5071060890,
    5071060891,
    5071060892,
    5071060893,
    5071060894,
    393369005,
    5071060895,
    393369006,
    5071060898,
    5071060896,
    5071060897,
    5071060899,
    393369007,
    5071060900,
    393369008,
    5071060901,
    5071060902,
    393369009,
    5071060903,
    5071060904,
    5071060905,
    5071060906,
    393369010,
    5071060907,
    5071060908,
    393369011,
    5071060909,
    5071060910,
    5071060911,
    5071060912,
    393369012,
    5071060913,
    5071060914,
    5071060915,
    393369013,
    5071060916,
    5071060917,
    393369014,
    5071060919,
    5071060920,
    5071061124,
    5071061123,
    5071061122,
    5071061121,
    5071061125,
    5071060918,
    393369015,
    5071060857,
    5071079729,
    393369016,
    5071060859,
    5071060860,
    393369017,
    393369018,
    5071060861,
    5071060862,
    5071060863,
    5071060864,
    5071060865,
    5071060866,
    5071060867,
    393369110
  ],
  "tags": {
    "addr:housenumber": "15;19",
    "addr:street": "Trianondreef",
    "building": "yes",
    "name": "Sportimonium",
    "tourism": "museum"
  }
},
{
  "type": "way",
  "id": 45211957,
  "nodes": [
    573926758,
    573926842,
    573926840,
    5706206687,
    573926838,
    573926758
  ],
  "tags": {
    "addr:city": "Doel",
    "addr:housenumber": "13",
    "addr:postcode": "9130",
    "addr:street": "Ouden Doel-dijk",
    "building": "yes",
    "name": "PolderMAS",
    "opening_hours": "Su 14:00-18:00",
    "source": "3dShapes",
    "tourism": "museum"
  }
},
{
  "type": "way",
  "id": 45857276,
  "nodes": [
    583590851,
    583590852,
    583590853,
    3406248990,
    3406248989,
    583590854,
    583590851
  ],
  "tags": {
    "addr:housenumber": "5",
    "addr:street": "Peredreef",
    "building": "house",
    "name": "Ter Speelbergen",
    "tourism": "museum",
    "website": "https://terspeelbergen.be"
  }
},
{
  "type": "way",
  "id": 47359481,
  "nodes": [
    603033968,
    603033966,
    603033969,
    603033967,
    603033970,
    603033972,
    603033971,
    603033973,
    4908599760,
    603033963,
    603033964,
    603033962,
    4899241174,
    4899241175,
    4899241176,
    603033947,
    4899241177,
    603033958,
    4899241178,
    603033959,
    4899241179,
    603033960,
    4899241180,
    603033961,
    4899241181,
    4899241182,
    603033948,
    603033949,
    4899241183,
    603033950,
    4899241184,
    603033951,
    603033952,
    4899241185,
    603033953,
    4899241186,
    4899241187,
    603033954,
    4899241188,
    4899241189,
    603033955,
    603033956,
    603033957,
    603033942,
    603033945,
    4899241171,
    603033975,
    603033974,
    603033965,
    603033968
  ],
  "tags": {
    "addr:housenumber": "32",
    "addr:street": "Leuvenstraat",
    "email": "info@muhka.be",
    "fax": "+32 3 216 24 86",
    "name": "M HKA - Museum van Hedendaagse Kunst Antwerpen",
    "opening_hours": "Tu-Su 11:00-18:00; Th 11:00-21:00; Jan 1 off; May 1 off; Dec 25 off; Dec 24 11:00-16:00; Dec 31 11:00-16:00; easter + 39 days off",
    "phone": "+32 3 260 99 99",
    "tourism": "museum",
    "website": "https://www.muhka.be/",
    "wikidata": "Q1573755"
  }
},
{
  "type": "way",
  "id": 50609533,
  "nodes": [
    644234032,
    644234031,
    644234036,
    644234034,
    644234032
  ],
  "tags": {
    "addr:housenumber": "48",
    "addr:postcode": "2910",
    "addr:street": "Moerkantsebaan",
    "building": "yes",
    "name": "Karrenmuseum Essen",
    "source": "3dShapes",
    "tourism": "museum"
  }
},
{
  "type": "way",
  "id": 58278403,
  "nodes": [
    722749155,
    722749146,
    722749152,
    722749149,
    722749155
  ],
  "tags": {
    "addr:housenumber": "9;11",
    "addr:street": "Wapper",
    "building": "yes",
    "email": "info.rubenshuis@stad.antwerpen.be",
    "fax": "+32 3 227 36 92",
    "name": "Rubenshuis",
    "name:ko": "루벤스의 집",
    "opening_hours": "Tu-Su 10:00-17:00; Jan 1 off; May 1 off; Nov 1 off; Dec 25 off; easter + 39 days off; easter + 1 days 10:00-17:00; easter + 50 days 10:00-17:00",
    "phone": "+32 3 201 15 55",
    "tourism": "museum",
    "website": "https://www.rubenshuis.be/",
    "wikidata": "Q775644"
  }
},
{
  "type": "way",
  "id": 63621218,
  "nodes": [
    787265652,
    787265656,
    787265658,
    1604396860,
    787265661,
    787265664,
    787265666,
    787265669,
    787265672,
    787265676,
    787265690,
    787265694,
    787265697,
    787265699,
    787265702,
    787265705,
    1683284870,
    787265707,
    787265709,
    1604397341,
    787265711,
    787265713,
    787265714,
    787265717,
    787265719,
    787265721,
    787265723,
    787265724,
    1604396970,
    1604396922,
    787265725,
    787265652
  ],
  "tags": {
    "OnroerendErfgoed:criteria": "M",
    "addr:city": "Willebroek",
    "addr:country": "BE",
    "addr:street": "Brandstraat",
    "building": "fort",
    "heritage": "4",
    "heritage:operator": "OnroerendErfgoed",
    "heritage:website": "https://inventaris.onroerenderfgoed.be/dibe/relict/1730",
    "historic": "fort",
    "image": "http://commons.wikimedia.org/wiki/File:Kamp_Breendonk.jpg",
    "name": "Fort Breendonk",
    "opening_hours": "Mo-Su, PH 09:30-17:30; Jan 1, Dec 24, Dec 25 off; 2016 Sep 21 off",
    "ref:OnroerendErfgoed": "1730",
    "tourism": "museum",
    "website": "http://www.breendonk.be/",
    "wikidata": "Q700580",
    "wikipedia": "nl:Fort van Breendonk"
  }
},
{
  "type": "way",
  "id": 80151552,
  "nodes": [
    935074303,
    935074309,
    935074313,
    935074316,
    935074303
  ],
  "tags": {
    "building": "hangar",
    "name": "I21",
    "tourism": "museum"
  }
},
{
  "type": "way",
  "id": 80151554,
  "nodes": [
    935074334,
    935074340,
    935074344,
    935074346,
    935074334
  ],
  "tags": {
    "building": "hangar",
    "name": "I26",
    "tourism": "museum"
  }
},
{
  "type": "way",
  "id": 88800717,
  "nodes": [
    1030525385,
    4786393112,
    4786393113,
    4786393114,
    4786393115,
    1030525367,
    1030525388,
    4786393111,
    4786393110,
    4786393109,
    4786393108,
    4786393107,
    4786393106,
    4786393105,
    4786393104,
    1030525370,
    4786393102,
    4786393101,
    4786393103,
    1030525385
  ],
  "tags": {
    "OnroerendErfgoed:criteria": "M",
    "addr:city": "Herentals",
    "addr:housenumber": "135",
    "addr:street": "Nederrij",
    "building": "yes",
    "description": "Domein en Hof Le Paige",
    "heritage": "4",
    "heritage:operator": "OnroerendErfgoed",
    "heritage:website": "https://inventaris.onroerenderfgoed.be/dibe/relict/47122",
    "image": "File:Herentals_Kasteel_Lepaige.jpg",
    "name": "Le Paige",
    "ref:OnroerendErfgoed": "47122",
    "source": "http://www.herentals.be/agenda/e/domein-le-paige/7C5D1051-ABBE-DD95-544EA94A90B0BD91",
    "tourism": "museum"
  }
},
{
  "type": "way",
  "id": 94958231,
  "nodes": [
    1102126392,
    1102127051,
    1102127197,
    1102126857,
    1102126392
  ],
  "tags": {
    "OnroerendErfgoed:criteria": "M",
    "addr:city": "Sint-Katelijne-Waver",
    "addr:housenumber": "25A",
    "addr:postcode": "2860",
    "addr:street": "Midzelen",
    "building": "yes",
    "heritage": "4",
    "heritage:operator": "OnroerendErfgoed",
    "heritage:website": "https://inventaris.onroerenderfgoed.be/dibe/relict/3265",
    "name": "'t Grom",
    "ref:OnroerendErfgoed": "3265",
    "tourism": "museum",
    "wikidata": "Q23585040",
    "wikipedia": "nl:'t Grom"
  }
},
{
  "type": "way",
  "id": 98630995,
  "nodes": [
    1141096152,
    1141096123,
    1141096116,
    1141096143,
    6657398879,
    3495305277,
    6657398883,
    6657398882,
    6657398881,
    6657398880,
    1141068109,
    1141067952,
    1141096150,
    1141096152
  ],
  "tags": {
    "alt_name": "'t Grom",
    "fee": "yes",
    "leisure": "park",
    "museum": "open_air",
    "name": "Midzelen",
    "source": "https://inventaris.onroerenderfgoed.be/themas/721",
    "tourism": "museum",
    "website": "https://www.tgrom.be",
    "wikidata": "Q23585040",
    "wikipedia": "nl:'t Grom"
  }
},
{
  "type": "way",
  "id": 125609065,
  "nodes": [
    1394745380,
    1394745367,
    1394745351,
    1394745373,
    1394745380
  ],
  "tags": {
    "building": "yes",
    "name": "Begijnhofmuseum en Museum voor Volkskunde",
    "tourism": "museum",
    "wikidata": "Q12013371",
    "wikipedia": "nl:Sint-Alexiusbegijnhof"
  }
},
{
  "type": "way",
  "id": 127665242,
  "nodes": [
    1412453955,
    1412453950,
    5825582285,
    1412453937,
    1412453944,
    5825582288,
    5825582287,
    5825582286,
    1412453952,
    4938358723,
    5825582290,
    5825582289,
    4938358722,
    4938358721,
    1412453955
  ],
  "tags": {
    "building": "yes",
    "name": "Scheepvaartmuseum",
    "tourism": "museum"
  }
},
{
  "type": "way",
  "id": 127665258,
  "nodes": [
    1412453942,
    5825582297,
    5825582298,
    1412453948,
    5825582296,
    5825582295,
    1412453930,
    5825582299,
    5825582300,
    5825582301,
    5825582302,
    1412453931,
    5825582303,
    5825582304,
    5825582305,
    5825582306,
    1412453914,
    5825582307,
    1412453913,
    5825582308,
    1412453925,
    1412453923,
    1412453942
  ],
  "tags": {
    "building": "yes",
    "tourism": "museum"
  }
},
{
  "type": "way",
  "id": 129305448,
  "nodes": [
    1426879281,
    1426879255,
    4956776522,
    1426879197,
    1426879203,
    1426879252,
    1426879277,
    1426879281
  ],
  "tags": {
    "building": "yes",
    "name": "Zwijvekemuseum",
    "tourism": "museum"
  }
},
{
  "type": "way",
  "id": 129410940,
  "nodes": [
    1427888630,
    1427888620,
    1427888619,
    1427888628,
    1427888630
  ],
  "tags": {
    "building": "yes",
    "name": "Jazz Centrum Vlaanderen",
    "tourism": "museum",
    "wikidata": "Q28149765"
  }
},
{
  "type": "way",
  "id": 133794548,
  "nodes": [
    1472537766,
    1472537767,
    1472537760,
    1472537761,
    1472537759,
    1472537758,
    1472537751,
    1472537750,
    1472537748,
    1472537749,
    1472537736,
    1472537730,
    1472537724,
    1472537729,
    1472537706,
    1472537679,
    1472537662,
    1472537635,
    1472537616,
    1472537599,
    1472537591,
    1472537587,
    1472537575,
    1472537563,
    1472537556,
    1472537552,
    1472537557,
    1472537577,
    1473109001,
    1472537578,
    1472537580,
    1472537589,
    1472537590,
    1472537594,
    1472537612,
    1472537632,
    1472537636,
    1472537637,
    1472537643,
    1472537691,
    1472537714,
    1472537723,
    1472537742,
    1472537747,
    1472537756,
    1472537757,
    1472537762,
    1472537764,
    1472537766
  ],
  "tags": {
    "building": "yes",
    "tourism": "museum"
  }
},
{
  "type": "way",
  "id": 134387796,
  "nodes": [
    1477692658,
    1477707992,
    1477692648,
    2364267181,
    3957938662,
    3957938661,
    3957938663,
    3957938664,
    1477692646,
    1477692658
  ],
  "tags": {
    "OnroerendErfgoed:criteria": "M",
    "addr:housenumber": "51A",
    "addr:street": "Ruisbroek-Dorp",
    "building": "yes",
    "heritage:operator": "OnroerendErfgoed",
    "heritage:website": "https://inventaris.onroerenderfgoed.be/dibe/relict/2298",
    "historic": "yes",
    "image": "https://commons.wikimedia.org/wiki/File:Ruisbroek-Dorp_49,_Ruisbroek.jpg",
    "name": "De Bres",
    "ref:OnroerendErfgoed": "2298",
    "tourism": "museum"
  }
},
{
  "type": "way",
  "id": 140152639,
  "nodes": [
    1535460223,
    1535460240,
    1535460243,
    1535460246,
    4263144655,
    1535460251,
    3114515310,
    4232032093,
    3114515312,
    3114515318,
    3114516129,
    3114516142,
    3114516143,
    3114516151,
    3114516152,
    3114516146,
    3114516150,
    4232032109,
    4232032110,
    4232032106,
    4232032107,
    3114515320,
    3114515317,
    3114515322,
    3114515316,
    3114515311,
    3114515308,
    3114515301,
    3114515299,
    1535460255,
    1535460244,
    1535460228,
    1535460223
  ],
  "tags": {
    "OnroerendErfgoed:criteria": "M",
    "addr:housename": "Stadspeypelinckhuys",
    "addr:housenumber": "14",
    "addr:street": "Florent Van Cauwenberghstraat",
    "building": "yes",
    "heritage": "4",
    "heritage:operator": "OnroerendErfgoed",
    "heritage:website": "https://inventaris.onroerenderfgoed.be/dibe/relict/10290",
    "image": "http://commons.wikimedia.org/wiki/File:Stedelijk_museum_Wuyts-Van_Campen_Lier.JPG",
    "name": "Stadsmuseum Lier",
    "ref:OnroerendErfgoed": "10290",
    "tourism": "museum",
    "website": "https://www.stadsmuseumlier.be",
    "wikipedia": "nl:Stedelijk Museum Wuyts-Van Campen en Baron Caroly"
  }
},
{
  "type": "way",
  "id": 140235852,
  "nodes": [
    1536505097,
    1536505098,
    1536505092,
    1536505094,
    1536505080,
    1536505089,
    1536505079,
    4275332184,
    1536505072,
    1536505077,
    1536505074,
    1536505087,
    1536505085,
    1536505070,
    1536505075,
    4275332614,
    1536505090,
    1536505097
  ],
  "tags": {
    "OnroerendErfgoed:criteria": "M",
    "addr:housenumber": "4;6",
    "addr:street": "Netelaan",
    "building": "civic",
    "heritage": "4",
    "heritage:operator": "OnroerendErfgoed",
    "heritage:website": "https://inventaris.onroerenderfgoed.be/dibe/relict/10596",
    "name": "Timmermans-Opsomer Museum",
    "old_name": "De Groote Hofstadt",
    "ref:OnroerendErfgoed": "10596",
    "tourism": "museum"
  }
},
{
  "type": "way",
  "id": 144879070,
  "nodes": [
    1583678068,
    1583678069,
    1583678067,
    1583678066,
    1583678068
  ],
  "tags": {
    "building": "house",
    "name": "Romain De Saegher",
    "source": "bing2011",
    "tourism": "museum"
  }
},
{
  "type": "way",
  "id": 158669464,
  "nodes": [
    1708253952,
    1708254100,
    1708253903,
    1708252907,
    1708252962,
    1708253213,
    1708253520,
    1708252871,
    1708252605,
    1708252877,
    1708252832,
    1708252516,
    1708252462,
    1708253014,
    1708252976,
    3911287806,
    3911287807,
    3911287805,
    3911287804,
    3911287803,
    3911289068,
    3911287800,
    3911290957,
    3911287802,
    3911289067,
    3911287798,
    3911287797,
    3911287801,
    3911289066,
    3911287808,
    3911287809,
    3911290339,
    3911290341,
    3911290338,
    3911290340,
    1708253048,
    1708253072,
    1708254278,
    1708254359,
    1708254087,
    1708254150,
    3911290350,
    3911290354,
    3911290349,
    1708253952
  ],
  "tags": {
    "addr:city": "Kemzeke",
    "addr:postcode": "9190",
    "addr:street": "Westakker",
    "building": "yes",
    "fee": "yes",
    "name": "Verbeke Foundation",
    "source:geometry": "GRB",
    "source:geometry:date": "2011-04-08",
    "source:geometry:ref": "Gbg/2703816",
    "tourism": "museum",
    "website": "www.verbekefoundation.com",
    "wikidata": "Q1888920"
  }
},
{
  "type": "way",
  "id": 161180638,
  "nodes": [
    4095950310,
    4095950308,
    1731761219,
    1731761222,
    4095950294,
    4095950293,
    1731761232,
    1731761230,
    1731761231,
    1731761225,
    1731761221,
    1731761224,
    1731761229,
    4095949982,
    4095950289,
    1731761226,
    4095950305,
    4095950314,
    4095950310
  ],
  "tags": {
    "OnroerendErfgoed:criteria": "M",
    "addr:city": "Berendrecht-Zandvliet-Lillo",
    "addr:housenumber": "10-16",
    "addr:postcode": "2040",
    "addr:street": "Tolhuisstraat",
    "building": "yes",
    "contact:facebook": "https://www.facebook.com/Poldermuseum",
    "description": "Poldermuseum, rijhuis",
    "email": "secretariaatpoldermuseum@gmail.com",
    "heritage": "4",
    "heritage:operator": "OnroerendErfgoed",
    "heritage:website": "https://inventaris.onroerenderfgoed.be/dibe/relict/10880",
    "image": "File:Lillo_ID10880.jpg",
    "name": "Poldermuseum",
    "opening_hours": "easter-Sep 30 Su,PH 13:00-18:00 || Jul-Aug Sa,Su,PH 13:00-18:00 || \"groepen: hele jaar, op afspraak\"",
    "ref:OnroerendErfgoed": "10880",
    "tourism": "museum",
    "website": "http://www.poldermuseum-lillo.be/"
  }
},
{
  "type": "way",
  "id": 167981936,
  "nodes": [
    1793010512,
    1793010510,
    1793010509,
    1793010511,
    1793010512
  ],
  "tags": {
    "name": "Kempisch Museum",
    "tourism": "museum"
  }
},
{
  "type": "way",
  "id": 174042924,
  "nodes": [
    1847957103,
    1847957105,
    1847957094,
    1847957092,
    4863897463,
    1847957103
  ],
  "tags": {
    "OnroerendErfgoed:criteria": "M",
    "addr:city": "Antwerpen",
    "addr:housenumber": "15-17,15A,15B",
    "addr:postcode": "2000",
    "addr:street": "Lange Gasthuisstraat",
    "building": "yes",
    "email": "museum.mayervandenbergh@stad.antwerpen.be",
    "fax": "+32 3 338 81 99",
    "heritage": "4",
    "heritage:operator": "OnroerendErfgoed",
    "heritage:website": "https://inventaris.onroerenderfgoed.be/dibe/relict/5328",
    "name": "Mayer van den Bergh",
    "opening_hours": "Tu-Su 10:00-17:00; Jan 1 off; May 1 off; Nov 1 off; Dec 25 off; easter+39 days off; easter+1 days 10:00-17:00; easter+50 days 10:00-17:00",
    "phone": "+32 3 338 81 88",
    "ref:OnroerendErfgoed": "5328",
    "tourism": "museum",
    "website": "https://www.museummayervandenbergh.be/",
    "wikidata": "Q1699233"
  }
},
{
  "type": "way",
  "id": 179882624,
  "nodes": [
    1903126931,
    4870284781,
    4870284780,
    4870284779,
    4870284778,
    4870284777,
    4870284776,
    4870284775,
    4870284774,
    4870284773,
    4870284772,
    4870284771,
    4870284770,
    4870284769,
    1903126924,
    4870284816,
    4870284817,
    4870284818,
    4870284938,
    4870284949,
    4870284948,
    4870284939,
    4870284940,
    4870284947,
    4870284946,
    4870284941,
    4870284942,
    4870284945,
    4870284944,
    4870284943,
    4870284815,
    4870284814,
    4870284813,
    4870284812,
    4870284811,
    4870284810,
    4870284809,
    4870284808,
    4761993319,
    4870284807,
    4870284806,
    4870284805,
    1903127006,
    4870284804,
    4870284803,
    4870284802,
    4870284801,
    4870284800,
    4870284799,
    1903126915,
    4870284796,
    4870284797,
    4870284798,
    4870284795,
    4870284794,
    4761993320,
    4870284793,
    4870284792,
    4870284791,
    4870284790,
    4870284923,
    4870284928,
    4870284929,
    4870284922,
    4870284924,
    4870284927,
    4870284926,
    4870284925,
    4870284789,
    4870284788,
    4870284787,
    4870284786,
    4870284785,
    4870284784,
    4870284930,
    4870284937,
    4870284936,
    4870284931,
    4870284932,
    4870284935,
    4870284934,
    4870284933,
    4870284783,
    4870284782,
    1903126931
  ],
  "tags": {
    "OnroerendErfgoed:criteria": "M",
    "addr:city": "Antwerpen",
    "addr:housenumber": "38",
    "addr:street": "Vleeshouwersstraat",
    "building": "yes",
    "description": "Vleeshuis",
    "email": "vleeshuis@stad.antwerpen.be",
    "heritage": "4",
    "heritage:operator": "OnroerendErfgoed",
    "heritage:website": "https://inventaris.onroerenderfgoed.be/dibe/relict/4678",
    "image": "File:0_Antwerp_-_Butcher%27s_Hall_(1).JPG",
    "name": "Vleeshuis",
    "opening_hours": "Th-Su,PH 10:00-17:00; Jan 1 off; May 1 off; Nov 1 off; Dec 25 off; easter +39 days off; easter +1 day 10:00-17:00; easter +50 days 10:00-17:00",
    "phone": "+32 3 292 61 00",
    "ref:OnroerendErfgoed": "4678",
    "tourism": "museum",
    "website": "https://www.museumvleeshuis.be/",
    "wikidata": "Q2801959"
  }
},
{
  "type": "way",
  "id": 186692214,
  "nodes": [
    1974335835,
    1974335816,
    1974335715,
    1974335732,
    6236397510,
    1974335835
  ],
  "tags": {
    "addr:housenumber": "20",
    "addr:street": "Steenberghoekstraat",
    "building": "yes",
    "email": "info@geleeg.be",
    "image": "http://xian.smugmug.com/OSM/OSM-2014/20140528-Rumst/i-5ZrJ5TM/A",
    "name": "Voormalig Steenbakkerijmuseum Het Geleeg",
    "tourism": "museum",
    "website": "http://www.geleeg.be/"
  }
},
{
  "type": "way",
  "id": 194902295,
  "nodes": [
    2054121963,
    2054121966,
    3389393428,
    3389418732,
    3389418733,
    2054121965,
    2054121949,
    2054121963
  ],
  "tags": {
    "addr:housenumber": "153",
    "addr:street": "Goswin de Stassartstraat",
    "building": "yes",
    "email": "info@kazernedossin.eu",
    "name": "Kazerne Dossin",
    "opening_hours": "Mo-Fr 09:00-17:00; Sa, Su 09:30-17:00; We off; Dec 25, Jan 1 off",
    "tourism": "museum",
    "website": "https://www.kazernedossin.eu"
  }
},
{
  "type": "way",
  "id": 224791632,
  "nodes": [
    2336244619,
    2336244624,
    2336244623,
    2336244617,
    2336244619
  ],
  "tags": {
    "building": "house",
    "disused:amenity": "place_of_worship",
    "name": "Harmonium Art Museum",
    "source": "AGIV",
    "tourism": "museum"
  }
},
{
  "type": "way",
  "id": 239375576,
  "nodes": [
    2471701954,
    2471701957,
    2471701964,
    2471701962,
    2470692947,
    2471701959,
    2471701954
  ],
  "tags": {
    "OnroerendErfgoed:criteria": "M",
    "addr:city": "Hoogstraten",
    "addr:housenumber": "9",
    "addr:postcode": "2320",
    "addr:street": "Begijnhof",
    "building": "yes",
    "description": "Convent of Oudhuis', gemeenschapshuis voor begijnen",
    "heritage": "4",
    "heritage:operator": "OnroerendErfgoed",
    "heritage:website": "https://inventaris.onroerenderfgoed.be/dibe/relict/46538",
    "name": "Stedelijk museum",
    "ref:OnroerendErfgoed": "46538",
    "source": "AGIV",
    "tourism": "museum",
    "website": "https://www.hoogstraten.be/beknopte-geschiedenis-stedelijk-museum-hoogstraten_2.html"
  }
},
{
  "type": "way",
  "id": 245218041,
  "nodes": [
    2524513596,
    2524513595,
    2524513592,
    2524513593,
    2524513596
  ],
  "tags": {
    "OnroerendErfgoed:criteria": "M",
    "building": "house",
    "description": "Schoolgebouw uit 1878, nu museum",
    "disused:amenity": "school",
    "heritage": "4",
    "heritage:operator": "OnroerendErfgoed",
    "heritage:website": "https://inventaris.onroerenderfgoed.be/dibe/relict/14295",
    "ref:OnroerendErfgoed": "14295",
    "start_date": "1878",
    "tourism": "museum"
  }
},
{
  "type": "way",
  "id": 272162635,
  "nodes": [
    2770929320,
    2770929724,
    2770929614,
    2770929579,
    2770929591,
    2770929516,
    2770929376,
    2770929494,
    2770929394,
    2770929364,
    2770929352,
    2770929326,
    2770929270,
    2770929236,
    2770928994,
    2770929314,
    2770929320
  ],
  "tags": {
    "building": "yes",
    "description": "Gebouw Refugie Ter Duinen. Fors zeer rijzig 16e eeuws PAND met gewijzigde gevel en wijzigingen in het interieur.",
    "heritage": "2",
    "heritage:operator": "rce",
    "image": "https://upload.wikimedia.org/wikipedia/commons/f/f1/Overzicht_voorgevel_en_rechter_zijgevel_met_trapgevel_-_Hulst_-_20353273_-_RCE.jpg",
    "name": "Museum De Vier Ambachten",
    "ref:bag": "677100000610742",
    "ref:rce": "22784",
    "source": "BAG",
    "source:date": "2014-03-24",
    "start_date": "1550",
    "tourism": "museum"
  }
},
{
  "type": "way",
  "id": 302927116,
  "nodes": [
    3072101052,
    3072101053,
    3264514829,
    3264514828,
    3264514835,
    3072101055,
    3264514834,
    3264514832,
    3264514833,
    3072101054,
    3264514830,
    3264514831,
    3264514827,
    3264514826,
    3072101052
  ],
  "tags": {
    "OnroerendErfgoed:criteria": "M",
    "addr:housenumber": "24",
    "addr:street": "Kerkstraat",
    "amenity": "arts_centre",
    "building": "rectory",
    "description": "Oude Pastorie",
    "heritage": "4",
    "heritage:operator": "OnroerendErfgoed",
    "heritage:website": "https://inventaris.onroerenderfgoed.be/erfgoedobjecten/39798",
    "image": "https://commons.wikimedia.org/wiki/File:Oude_Pastorie,_Kerkstraat_24,_Nieuwenrode_(4).jpg",
    "name": "De oude Pastorie",
    "ref:OnroerendErfgoed": "39798",
    "tourism": "museum",
    "wikidata": "Q2372469",
    "wikimedia_commons": "Category:Oude Pastorie (Nieuwenrode)",
    "wikipedia": "nl:Oude Pastorie (Nieuwenrode)"
  }
},
{
  "type": "way",
  "id": 303226845,
  "nodes": [
    3075644583,
    3075644595,
    3075644597,
    3075644600,
    3075644601,
    3075644584,
    3075644583
  ],
  "tags": {
    "addr:housenumber": "48",
    "addr:street": "Peperstraat",
    "building": "yes",
    "name": "Heemmuseum Bystervelt",
    "operator": "Heemkring Scella",
    "tourism": "museum"
  }
},
{
  "type": "way",
  "id": 311605500,
  "nodes": [
    3173024994,
    5658489877,
    5658489878,
    5658489879,
    3173024997,
    3173024992,
    5658489883,
    5658489882,
    5658489880,
    5658489881,
    3173024985,
    3173024982,
    3173024994
  ],
  "tags": {
    "building": "yes",
    "name": "Het Huis",
    "tourism": "museum",
    "wikidata": "Q27681013"
  }
},
{
  "type": "way",
  "id": 313677503,
  "nodes": [
    3196891995,
    3196891996,
    3772998482,
    3196891997,
    3196891998,
    3772998485,
    3196891995
  ],
  "tags": {
    "addr:city": "Merksem",
    "addr:housenumber": "12",
    "addr:postcode": "2170",
    "addr:street": "Frans de l'Arbrelaan",
    "building": "yes",
    "name": "Mineralogisch Museum",
    "name:en": "Mineralogical Museum",
    "name:nl": "Mineralogisch Museum",
    "tourism": "museum",
    "website": "http://acam.be"
  }
},
{
  "type": "way",
  "id": 317841270,
  "nodes": [
    3241519743,
    5713938234,
    3241519744,
    3241519745,
    3241519746,
    3241519747,
    3241512289,
    5713938235,
    5713938237,
    5713938236,
    5713938226,
    5713938227,
    5713938228,
    5713938229,
    5713938230,
    5713938231,
    5713938232,
    5713938233,
    3241519743
  ],
  "tags": {
    "addr:housenumber": "1-3",
    "addr:street": "Dorp",
    "building": "yes",
    "name": "de Bijl",
    "tourism": "museum"
  }
},
{
  "type": "way",
  "id": 349933397,
  "nodes": [
    3557188356,
    3721663660,
    3721663658,
    3557188357,
    3557188358,
    3557188361,
    3557188362,
    3557188363,
    3557188364,
    3557188365,
    3721663672,
    3557188366,
    3557188367,
    3721663666,
    3721663663,
    3721663668,
    3557188368,
    3721663657,
    3721663656,
    3721663655,
    3721663652,
    3721663651,
    3721663648,
    3557188369,
    3721663643,
    3721663640,
    3721663638,
    3721663637,
    3557188370,
    3721663639,
    3721663641,
    3721663642,
    3721663645,
    3721663646,
    3557188371,
    3557188372,
    3721663630,
    3721663635,
    3557188373,
    3557188374,
    3557188375,
    3721663636,
    3721663626,
    3721663632,
    3721663634,
    3721663631,
    3721663629,
    3721663628,
    3721663625,
    3721663624,
    3721663621,
    3721663619,
    3721663617,
    3721663616,
    3721663615,
    3721663609,
    3721663622,
    3557188380,
    3557188381,
    3557188382,
    3557188356
  ],
  "tags": {
    "addr:city": "Kalmthout",
    "addr:housenumber": "98",
    "addr:postcode": "2920",
    "addr:street": "Beauvoislaan",
    "building": "yes",
    "contact:facebook": "https://www.facebook.com/SWKindermuseum",
    "email": "suskeenwiske@provincieantwerpen.be",
    "name": "Suske en Wiske Kindermuseum",
    "operator": "Provincie Antwerpen",
    "phone": "+32 3 666 64 85",
    "tourism": "museum",
    "url": "https://www.provincieantwerpen.be/aanbod/doe/suske-en-wiske-kindermuseum.html"
  }
},
{
  "type": "way",
  "id": 368954391,
  "nodes": [
    3727913499,
    4983890102,
    4983890103,
    3727913481,
    4983890104,
    4983890105,
    4983890099,
    4983890098,
    3727913494,
    4983890100,
    4983890101,
    3727913512,
    3727913499
  ],
  "tags": {
    "addr:housename": "Hoeve van Paesschen",
    "addr:housenumber": "59",
    "addr:street": "Essenhoutstraat",
    "building": "yes",
    "name": "Erfgoedcentrum Hoeve Van Paesschen",
    "operator": "Heemkring Hoghescote",
    "tourism": "museum",
    "website": "https://www.heemkring-hoghescote.be/"
  }
},
{
  "type": "way",
  "id": 380207838,
  "nodes": [
    3835498632,
    3835498599,
    3835498601,
    3835498605,
    3835498609,
    3835498608,
    3835498606,
    5713306336,
    3835498607,
    3835498610,
    3835498611,
    3835498612,
    3835498613,
    3835498616,
    3835498618,
    3835498621,
    3835498623,
    3835498624,
    3835498626,
    3835498627,
    3835498625,
    3835498622,
    3835498620,
    3835498617,
    5713306335,
    3835498615,
    3835498614,
    3835498628,
    3835498619,
    3835498633,
    3835498632
  ],
  "tags": {
    "addr:housenumber": "15",
    "addr:postcode": "2980",
    "addr:street": "Oostmallebaan",
    "building": "yes",
    "name": "Lindepaviljoen",
    "opening_hours": "open voor het publiek van het begin van het paasverlof tot de laatste zondag van september en dit iedere zon- en feestdag van 13u00 tot 17u0",
    "operator": "Toerisme Zoersel",
    "tourism": "museum"
  }
},
{
  "type": "way",
  "id": 392777891,
  "nodes": [
    3959680502,
    1323866818,
    4866255646,
    4866255645,
    4866255644,
    3959680503,
    3959680504,
    3959680515,
    3959689990,
    3959680516,
    4866266676,
    4866266675,
    4866266674,
    4866266673,
    4866266677,
    3959680502
  ],
  "tags": {
    "addr:city": "Antwerpen",
    "addr:housenumber": "39",
    "addr:street": "Rodestraat",
    "name": "Begijnhof Antwerpen",
    "tourism": "museum",
    "wikipedia": "nl:Begijnhof Antwerpen"
  }
},
{
  "type": "way",
  "id": 420014919,
  "nodes": [
    4200029464,
    4200029467,
    4200029598,
    4200029614,
    4200029648,
    4200029647,
    4200029464
  ],
  "tags": {
    "addr:city": "Heist-op-den-Berg",
    "addr:housenumber": "24",
    "addr:postcode": "2220",
    "addr:street": "Kerkplein",
    "building": "yes",
    "email": "rikvdbr@gmail.com",
    "name": "Heem- en Radiomuseum 'Die Swane'",
    "phone": "+32 15 24 68 25",
    "tourism": "museum",
    "website": "http://www.heemkringdieswane.be/"
  }
},
{
  "type": "way",
  "id": 430158135,
  "nodes": [
    4294261105,
    4294261106,
    4294261107,
    4294261108,
    4294261105
  ],
  "tags": {
    "building": "yes",
    "name": "Infocentrum Hedwigepolder",
    "tourism": "museum"
  }
},
{
  "type": "way",
  "id": 453045196,
  "nodes": [
    4498509326,
    4498509325,
    4498509324,
    4498509323,
    4498509322,
    4498509321,
    4498509320,
    4498509319,
    4498509318,
    4498509317,
    4498509316,
    4498509315,
    4498509314,
    4498509313,
    4498509312,
    4498509311,
    4498509310,
    4498509309,
    4498509308,
    4498509307,
    4498509306,
    4498509305,
    4498509304,
    4498509303,
    4498509302,
    4498509301,
    4498509300,
    4498509299,
    4498509298,
    4498509297,
    4498509296,
    4498509295,
    4498509294,
    4498509293,
    4498509292,
    4498509291,
    4498509290,
    4498509289,
    4498509288,
    4498509287,
    4498509286,
    4498509285,
    4498509284,
    4498509283,
    4498509282,
    4498509281,
    4498509280,
    4498509279,
    4498509278,
    4498509277,
    4498509276,
    4498509275,
    4498509274,
    4498509273,
    4498509272,
    4498509271,
    4498509270,
    4498509269,
    4498509268,
    4498509267,
    4498509266,
    4498509265,
    4498509264,
    4498509263,
    4498509262,
    4498509261,
    4498509260,
    4498509259,
    4498509258,
    4498509326
  ],
  "tags": {
    "addr:city": "Lokeren",
    "addr:housenumber": "15A",
    "addr:postcode": "9160",
    "addr:street": "Markt",
    "building": "civic",
    "building:levels": "2",
    "name": "Stedelijk Museum Lokeren",
    "opening_hours": "We,Sa,Su 14:00-17:00, Su 10:00-12:00",
    "operator": "Stad Lokeren",
    "roof:levels": "1",
    "roof:shape": "hipped",
    "source:geometry": "GRB",
    "source:geometry:date": "2010-04-07",
    "source:geometry:ref": "Gbg/1490925",
    "tourism": "museum"
  }
},
{
  "type": "way",
  "id": 456831798,
  "nodes": [
    4530646696,
    940717268,
    4530646697,
    4530646698,
    4530646699,
    4530646700,
    5786741724,
    4530646701,
    5786741730,
    4530646702,
    5786741704,
    5786741705,
    5786741706,
    5786741707,
    5786741708,
    5786741720,
    4530646705,
    5786741703,
    5786741702,
    5786741701,
    5786741700,
    5786741699,
    4530646706,
    4530646707,
    5786741818,
    4530646696
  ],
  "tags": {
    "addr:housenumber": "14",
    "addr:postcode": "9100",
    "addr:street": "Zwijgershoek",
    "building": "yes",
    "name": "SteM Zwijgershoek",
    "tourism": "museum",
    "website": "https://musea.sint-niklaas.be/stem",
    "wikidata": "Q23443181"
  }
},
{
  "type": "way",
  "id": 456831799,
  "nodes": [
    4530646708,
    5786741819,
    5786741817,
    5786741820,
    4530646706,
    4530646707,
    5786741818,
    5786741816,
    5786741815,
    4530646709,
    4530646710,
    4530646711,
    5783363814,
    4530646708
  ],
  "tags": {
    "addr:housenumber": "49D",
    "addr:postcode": "9100",
    "addr:street": "Zamanstraat",
    "building": "yes",
    "name": "Mercatormuseum",
    "tourism": "museum",
    "website": "https://musea.sint-niklaas.be/mercator"
  }
},
{
  "type": "way",
  "id": 503552425,
  "nodes": [
    4938358719,
    5825582317,
    5825582316,
    5825582309,
    5825582313,
    5825582315,
    5825582314,
    1412453914,
    5825582307,
    1412453913,
    5825582312,
    5825582310,
    5825582284,
    1412453937,
    5825582285,
    1412453950,
    5825582281,
    1412453966,
    4938358719
  ],
  "tags": {
    "name": "Scheepvaartmuseum Baasrode",
    "tourism": "museum"
  }
},
{
  "type": "way",
  "id": 503552426,
  "nodes": [
    4938358724,
    4938358725,
    4938358726,
    4938358727,
    4938358728,
    1727632468,
    4938358724
  ],
  "tags": {
    "building": "yes",
    "name": "Hof van Peene",
    "tourism": "museum"
  }
},
{
  "type": "way",
  "id": 514709383,
  "nodes": [
    5028009657,
    5028009658,
    5028009659,
    5028009660,
    5028009657
  ],
  "tags": {
    "building": "yes",
    "tourism": "museum"
  }
},
{
  "type": "way",
  "id": 522092501,
  "nodes": [
    5085810024,
    5085810023,
    5085810022,
    5085810021,
    5085809620,
    5085809619,
    5085810024
  ],
  "tags": {
    "addr:city": "Boom",
    "addr:housenumber": "129",
    "addr:postcode": "2850",
    "addr:street": "Hoek",
    "building": "yes",
    "email": "DeVelodroom@deschorre.be",
    "fixme": "grondplan is correct",
    "name": "fietsbelevingspunt de velodroom",
    "operator": "De Schorre",
    "tourism": "museum"
  }
},
{
  "type": "way",
  "id": 612033554,
  "nodes": [
    5794035000,
    5794035001,
    5794035002,
    5794035003,
    5794035004,
    5794035005,
    5794035006,
    5794035007,
    5794035008,
    5794035009,
    5794035010,
    5794035011,
    5794035012,
    5794035013,
    5794035014,
    5794035015,
    5794035016,
    5794035017,
    5794035000
  ],
  "tags": {
    "building": "yes",
    "name": "Molenmuseum",
    "tourism": "museum"
  }
},
{
  "type": "way",
  "id": 619607417,
  "nodes": [
    5855395640,
    5855395641,
    5855395642,
    5855395643,
    5855395640
  ],
  "tags": {
    "building": "hangar",
    "name": "I16",
    "tourism": "museum"
  }
},
{
  "type": "way",
  "id": 619607500,
  "nodes": [
    5855400153,
    5855400154,
    5855400155,
    5855400156,
    5855400153
  ],
  "tags": {
    "building": "hangar",
    "name": "I27",
    "tourism": "museum"
  }
},
{
  "type": "way",
  "id": 619607524,
  "nodes": [
    5855402062,
    5855402063,
    5855402064,
    5855402065,
    5855402062
  ],
  "tags": {
    "building": "hangar",
    "name": "I19",
    "tourism": "museum"
  }
},
{
  "type": "way",
  "id": 680720460,
  "nodes": [
    6374102769,
    6374102770,
    6374102771,
    6374103510,
    6374102772,
    6374102773,
    6374102774,
    6374102775,
    6374102776,
    6374102769
  ],
  "tags": {
    "building": "yes",
    "operator": "Arboretum Kalmthout",
    "tourism": "museum"
  }
},
{
  "type": "relation",
  "id": 3428464,
  "members": [
    {
      "type": "way",
      "ref": 32087290,
      "role": "outer"
    },
    {
      "type": "way",
      "ref": 255939101,
      "role": "inner"
    }
  ],
  "tags": {
    "OnroerendErfgoed:criteria": "M",
    "addr:city": "Antwerpen",
    "addr:housenumber": "22",
    "addr:postcode": "2000",
    "addr:street": "Vrijdagmarkt",
    "building": "yes",
    "description": "Museum Plantin-Moretus",
    "email": "museum.plantin.moretus@stad.antwerpen.be",
    "height": "16.4",
    "heritage": "1",
    "heritage:operator": "whc",
    "heritage:ref": "1185",
    "heritage:since": "2005",
    "heritage:website": "http://whc.unesco.org/en/list/1185",
    "name": "Plantin-Moretusmuseum",
    "name:ru": "книгопечатанию",
    "opening_hours": "Tu-Su 10:00-17:00; Jan 1 off; May 1 off; Nov 1 off; Dec 25 off; easter+39 days off",
    "phone": "+32 3 221 14 50",
    "photo": "http://en.wikipedia.org/wiki/File:Plantin_antwerp_01.jpg",
    "ref:OnroerendErfgoed": "4688",
    "ref:whc": "1185",
    "tourism": "museum",
    "type": "multipolygon",
    "website": "https://www.museumplantinmoretus.be/",
    "whc:criteria": "C (ii)(iii)(iv)(vi)",
    "whc:inscription_date": "2005",
    "wikidata": "Q595802",
    "wikipedia": "nl:Plantin-Moretusmuseum"
  }
},
{
  "type": "node",
  "id": 1394745351,
  "lat": 51.0276137,
  "lon": 4.0965506
},
{
  "type": "node",
  "id": 1394745367,
  "lat": 51.0276556,
  "lon": 4.0961766
},
{
  "type": "node",
  "id": 1394745373,
  "lat": 51.0277338,
  "lon": 4.0965846
},
{
  "type": "node",
  "id": 1394745380,
  "lat": 51.0277757,
  "lon": 4.0962106
},
{
  "type": "node",
  "id": 1426879197,
  "lat": 51.0278722,
  "lon": 4.1015049
},
{
  "type": "node",
  "id": 1426879203,
  "lat": 51.0279181,
  "lon": 4.1016086
},
{
  "type": "node",
  "id": 1426879252,
  "lat": 51.0281626,
  "lon": 4.1014350
},
{
  "type": "node",
  "id": 1426879255,
  "lat": 51.0281858,
  "lon": 4.1012961
},
{
  "type": "node",
  "id": 1426879277,
  "lat": 51.0282730,
  "lon": 4.1016008
},
{
  "type": "node",
  "id": 1426879281,
  "lat": 51.0283244,
  "lon": 4.1015294
},
{
  "type": "node",
  "id": 4956776522,
  "lat": 51.0278908,
  "lon": 4.1014943
},
{
  "type": "node",
  "id": 1427888619,
  "lat": 51.0269454,
  "lon": 4.1043754
},
{
  "type": "node",
  "id": 1427888620,
  "lat": 51.0269710,
  "lon": 4.1042922
},
{
  "type": "node",
  "id": 1427888628,
  "lat": 51.0270740,
  "lon": 4.1044754
},
{
  "type": "node",
  "id": 1427888630,
  "lat": 51.0270996,
  "lon": 4.1043922
},
{
  "type": "node",
  "id": 1412453913,
  "lat": 51.0360129,
  "lon": 4.1672154
},
{
  "type": "node",
  "id": 1412453914,
  "lat": 51.0360121,
  "lon": 4.1680294
},
{
  "type": "node",
  "id": 1412453923,
  "lat": 51.0361563,
  "lon": 4.1673629
},
{
  "type": "node",
  "id": 1412453925,
  "lat": 51.0361091,
  "lon": 4.1672020
},
{
  "type": "node",
  "id": 1412453930,
  "lat": 51.0360956,
  "lon": 4.1676298
},
{
  "type": "node",
  "id": 1412453931,
  "lat": 51.0361091,
  "lon": 4.1679423
},
{
  "type": "node",
  "id": 5825582284,
  "lat": 51.0361555,
  "lon": 4.1667929
},
{
  "type": "node",
  "id": 5825582299,
  "lat": 51.0361259,
  "lon": 4.1676459
},
{
  "type": "node",
  "id": 5825582300,
  "lat": 51.0361310,
  "lon": 4.1676633
},
{
  "type": "node",
  "id": 5825582301,
  "lat": 51.0361361,
  "lon": 4.1676968
},
{
  "type": "node",
  "id": 5825582302,
  "lat": 51.0360973,
  "lon": 4.1677076
},
{
  "type": "node",
  "id": 5825582303,
  "lat": 51.0360576,
  "lon": 4.1679463
},
{
  "type": "node",
  "id": 5825582304,
  "lat": 51.0360568,
  "lon": 4.1679691
},
{
  "type": "node",
  "id": 5825582305,
  "lat": 51.0360382,
  "lon": 4.1679731
},
{
  "type": "node",
  "id": 5825582306,
  "lat": 51.0360391,
  "lon": 4.1680281
},
{
  "type": "node",
  "id": 5825582307,
  "lat": 51.0359927,
  "lon": 4.1674300
},
{
  "type": "node",
  "id": 5825582308,
  "lat": 51.0360627,
  "lon": 4.1672368
},
{
  "type": "node",
  "id": 5825582310,
  "lat": 51.0360973,
  "lon": 4.1669069
},
{
  "type": "node",
  "id": 5825582312,
  "lat": 51.0360399,
  "lon": 4.1670477
},
{
  "type": "node",
  "id": 5825582314,
  "lat": 51.0360121,
  "lon": 4.1680683
},
{
  "type": "node",
  "id": 1412453937,
  "lat": 51.0362103,
  "lon": 4.1667071
},
{
  "type": "node",
  "id": 1412453942,
  "lat": 51.0362668,
  "lon": 4.1673763
},
{
  "type": "node",
  "id": 1412453944,
  "lat": 51.0362877,
  "lon": 4.1668708
},
{
  "type": "node",
  "id": 1412453948,
  "lat": 51.0363207,
  "lon": 4.1675091
},
{
  "type": "node",
  "id": 1412453950,
  "lat": 51.0363148,
  "lon": 4.1665904
},
{
  "type": "node",
  "id": 1412453952,
  "lat": 51.0363452,
  "lon": 4.1667257
},
{
  "type": "node",
  "id": 1412453955,
  "lat": 51.0364337,
  "lon": 4.1665341
},
{
  "type": "node",
  "id": 1412453966,
  "lat": 51.0366522,
  "lon": 4.1667889
},
{
  "type": "node",
  "id": 1727632468,
  "lat": 51.0387286,
  "lon": 4.1641926
},
{
  "type": "node",
  "id": 4938358719,
  "lat": 51.0368314,
  "lon": 4.1677597
},
{
  "type": "node",
  "id": 4938358721,
  "lat": 51.0365080,
  "lon": 4.1668881
},
{
  "type": "node",
  "id": 4938358722,
  "lat": 51.0364599,
  "lon": 4.1669136
},
{
  "type": "node",
  "id": 4938358723,
  "lat": 51.0364395,
  "lon": 4.1666862
},
{
  "type": "node",
  "id": 4938358724,
  "lat": 51.0387100,
  "lon": 4.1641295
},
{
  "type": "node",
  "id": 4938358725,
  "lat": 51.0387726,
  "lon": 4.1640736
},
{
  "type": "node",
  "id": 4938358726,
  "lat": 51.0388550,
  "lon": 4.1643891
},
{
  "type": "node",
  "id": 4938358727,
  "lat": 51.0386013,
  "lon": 4.1645427
},
{
  "type": "node",
  "id": 4938358728,
  "lat": 51.0385337,
  "lon": 4.1643379
},
{
  "type": "node",
  "id": 5825582281,
  "lat": 51.0365819,
  "lon": 4.1664686
},
{
  "type": "node",
  "id": 5825582285,
  "lat": 51.0362735,
  "lon": 4.1666186
},
{
  "type": "node",
  "id": 5825582286,
  "lat": 51.0363056,
  "lon": 4.1667514
},
{
  "type": "node",
  "id": 5825582287,
  "lat": 51.0362819,
  "lon": 4.1667809
},
{
  "type": "node",
  "id": 5825582288,
  "lat": 51.0363081,
  "lon": 4.1668493
},
{
  "type": "node",
  "id": 5825582289,
  "lat": 51.0364531,
  "lon": 4.1668855
},
{
  "type": "node",
  "id": 5825582290,
  "lat": 51.0364768,
  "lon": 4.1668734
},
{
  "type": "node",
  "id": 5825582295,
  "lat": 51.0362659,
  "lon": 4.1675037
},
{
  "type": "node",
  "id": 5825582296,
  "lat": 51.0362760,
  "lon": 4.1675386
},
{
  "type": "node",
  "id": 5825582297,
  "lat": 51.0362980,
  "lon": 4.1674796
},
{
  "type": "node",
  "id": 5825582298,
  "lat": 51.0363098,
  "lon": 4.1674715
},
{
  "type": "node",
  "id": 5825582309,
  "lat": 51.0358164,
  "lon": 4.1684183
},
{
  "type": "node",
  "id": 5825582313,
  "lat": 51.0359665,
  "lon": 4.1682279
},
{
  "type": "node",
  "id": 5825582315,
  "lat": 51.0359969,
  "lon": 4.1681662
},
{
  "type": "node",
  "id": 5825582316,
  "lat": 51.0358314,
  "lon": 4.1687486
},
{
  "type": "node",
  "id": 5825582317,
  "lat": 51.0359719,
  "lon": 4.1688658
},
{
  "type": "node",
  "id": 5794035000,
  "lat": 51.0470612,
  "lon": 4.1941266
},
{
  "type": "node",
  "id": 5794035001,
  "lat": 51.0470496,
  "lon": 4.1940178
},
{
  "type": "node",
  "id": 5794035002,
  "lat": 51.0469928,
  "lon": 4.1939107
},
{
  "type": "node",
  "id": 5794035003,
  "lat": 51.0469317,
  "lon": 4.1938822
},
{
  "type": "node",
  "id": 5794035004,
  "lat": 51.0468591,
  "lon": 4.1939040
},
{
  "type": "node",
  "id": 5794035005,
  "lat": 51.0468223,
  "lon": 4.1939458
},
{
  "type": "node",
  "id": 5794035006,
  "lat": 51.0468075,
  "lon": 4.1939793
},
{
  "type": "node",
  "id": 5794035007,
  "lat": 51.0467833,
  "lon": 4.1940362
},
{
  "type": "node",
  "id": 5794035008,
  "lat": 51.0467738,
  "lon": 4.1940948
},
{
  "type": "node",
  "id": 5794035009,
  "lat": 51.0467728,
  "lon": 4.1941685
},
{
  "type": "node",
  "id": 5794035010,
  "lat": 51.0467738,
  "lon": 4.1942288
},
{
  "type": "node",
  "id": 5794035011,
  "lat": 51.0467917,
  "lon": 4.1942941
},
{
  "type": "node",
  "id": 5794035016,
  "lat": 51.0470549,
  "lon": 4.1942271
},
{
  "type": "node",
  "id": 5794035017,
  "lat": 51.0470612,
  "lon": 4.1941618
},
{
  "type": "node",
  "id": 4498509258,
  "lat": 51.1057377,
  "lon": 3.9903684
},
{
  "type": "node",
  "id": 4498509259,
  "lat": 51.1057386,
  "lon": 3.9903690
},
{
  "type": "node",
  "id": 4498509260,
  "lat": 51.1058298,
  "lon": 3.9900425
},
{
  "type": "node",
  "id": 4498509261,
  "lat": 51.1058324,
  "lon": 3.9900418
},
{
  "type": "node",
  "id": 4498509262,
  "lat": 51.1058265,
  "lon": 3.9899912
},
{
  "type": "node",
  "id": 4498509263,
  "lat": 51.1057799,
  "lon": 3.9899679
},
{
  "type": "node",
  "id": 4498509264,
  "lat": 51.1056084,
  "lon": 3.9898823
},
{
  "type": "node",
  "id": 4498509265,
  "lat": 51.1055075,
  "lon": 3.9898319
},
{
  "type": "node",
  "id": 4498509266,
  "lat": 51.1055064,
  "lon": 3.9898354
},
{
  "type": "node",
  "id": 4498509267,
  "lat": 51.1055043,
  "lon": 3.9899178
},
{
  "type": "node",
  "id": 4498509268,
  "lat": 51.1055049,
  "lon": 3.9899185
},
{
  "type": "node",
  "id": 4498509269,
  "lat": 51.1055463,
  "lon": 3.9900554
},
{
  "type": "node",
  "id": 4498509270,
  "lat": 51.1056097,
  "lon": 3.9900871
},
{
  "type": "node",
  "id": 4498509271,
  "lat": 51.1056707,
  "lon": 3.9901178
},
{
  "type": "node",
  "id": 4498509272,
  "lat": 51.1056684,
  "lon": 3.9901287
},
{
  "type": "node",
  "id": 4498509273,
  "lat": 51.1056636,
  "lon": 3.9901280
},
{
  "type": "node",
  "id": 4498509274,
  "lat": 51.1056589,
  "lon": 3.9901278
},
{
  "type": "node",
  "id": 4498509275,
  "lat": 51.1056541,
  "lon": 3.9901281
},
{
  "type": "node",
  "id": 4498509276,
  "lat": 51.1056493,
  "lon": 3.9901291
},
{
  "type": "node",
  "id": 4498509277,
  "lat": 51.1056486,
  "lon": 3.9901293
},
{
  "type": "node",
  "id": 4498509278,
  "lat": 51.1056447,
  "lon": 3.9901305
},
{
  "type": "node",
  "id": 4498509279,
  "lat": 51.1056401,
  "lon": 3.9901325
},
{
  "type": "node",
  "id": 4498509280,
  "lat": 51.1056365,
  "lon": 3.9901343
},
{
  "type": "node",
  "id": 4498509281,
  "lat": 51.1056331,
  "lon": 3.9901365
},
{
  "type": "node",
  "id": 4498509282,
  "lat": 51.1056298,
  "lon": 3.9901391
},
{
  "type": "node",
  "id": 4498509283,
  "lat": 51.1056266,
  "lon": 3.9901420
},
{
  "type": "node",
  "id": 4498509284,
  "lat": 51.1056234,
  "lon": 3.9901452
},
{
  "type": "node",
  "id": 4498509285,
  "lat": 51.1056205,
  "lon": 3.9901489
},
{
  "type": "node",
  "id": 4498509286,
  "lat": 51.1056178,
  "lon": 3.9901531
},
{
  "type": "node",
  "id": 4498509287,
  "lat": 51.1056154,
  "lon": 3.9901577
},
{
  "type": "node",
  "id": 4498509288,
  "lat": 51.1056140,
  "lon": 3.9901615
},
{
  "type": "node",
  "id": 4498509289,
  "lat": 51.1056128,
  "lon": 3.9901655
},
{
  "type": "node",
  "id": 4498509290,
  "lat": 51.1056120,
  "lon": 3.9901698
},
{
  "type": "node",
  "id": 4498509291,
  "lat": 51.1056115,
  "lon": 3.9901741
},
{
  "type": "node",
  "id": 4498509292,
  "lat": 51.1056114,
  "lon": 3.9901784
},
{
  "type": "node",
  "id": 4498509293,
  "lat": 51.1056118,
  "lon": 3.9901827
},
{
  "type": "node",
  "id": 4498509294,
  "lat": 51.1056124,
  "lon": 3.9901868
},
{
  "type": "node",
  "id": 4498509295,
  "lat": 51.1056138,
  "lon": 3.9901918
},
{
  "type": "node",
  "id": 4498509296,
  "lat": 51.1056151,
  "lon": 3.9901949
},
{
  "type": "node",
  "id": 4498509297,
  "lat": 51.1056166,
  "lon": 3.9901979
},
{
  "type": "node",
  "id": 4498509298,
  "lat": 51.1056181,
  "lon": 3.9902007
},
{
  "type": "node",
  "id": 4498509299,
  "lat": 51.1056198,
  "lon": 3.9902033
},
{
  "type": "node",
  "id": 4498509300,
  "lat": 51.1056226,
  "lon": 3.9902067
},
{
  "type": "node",
  "id": 4498509301,
  "lat": 51.1056256,
  "lon": 3.9902097
},
{
  "type": "node",
  "id": 4498509302,
  "lat": 51.1056287,
  "lon": 3.9902123
},
{
  "type": "node",
  "id": 4498509303,
  "lat": 51.1056319,
  "lon": 3.9902144
},
{
  "type": "node",
  "id": 4498509304,
  "lat": 51.1056353,
  "lon": 3.9902163
},
{
  "type": "node",
  "id": 4498509305,
  "lat": 51.1056388,
  "lon": 3.9902178
},
{
  "type": "node",
  "id": 4498509306,
  "lat": 51.1056423,
  "lon": 3.9902190
},
{
  "type": "node",
  "id": 4498509307,
  "lat": 51.1056458,
  "lon": 3.9902198
},
{
  "type": "node",
  "id": 4498509308,
  "lat": 51.1056494,
  "lon": 3.9902205
},
{
  "type": "node",
  "id": 4498509309,
  "lat": 51.1056530,
  "lon": 3.9902209
},
{
  "type": "node",
  "id": 4498509310,
  "lat": 51.1056566,
  "lon": 3.9902210
},
{
  "type": "node",
  "id": 4498509311,
  "lat": 51.1056602,
  "lon": 3.9902208
},
{
  "type": "node",
  "id": 4498509312,
  "lat": 51.1056638,
  "lon": 3.9902205
},
{
  "type": "node",
  "id": 4498509313,
  "lat": 51.1056673,
  "lon": 3.9902198
},
{
  "type": "node",
  "id": 4498509314,
  "lat": 51.1056709,
  "lon": 3.9902189
},
{
  "type": "node",
  "id": 4498509315,
  "lat": 51.1056744,
  "lon": 3.9902176
},
{
  "type": "node",
  "id": 4498509316,
  "lat": 51.1056778,
  "lon": 3.9902161
},
{
  "type": "node",
  "id": 4498509317,
  "lat": 51.1056812,
  "lon": 3.9902143
},
{
  "type": "node",
  "id": 4498509318,
  "lat": 51.1056845,
  "lon": 3.9902121
},
{
  "type": "node",
  "id": 4498509319,
  "lat": 51.1056877,
  "lon": 3.9902097
},
{
  "type": "node",
  "id": 4498509320,
  "lat": 51.1056910,
  "lon": 3.9902066
},
{
  "type": "node",
  "id": 4498509321,
  "lat": 51.1056942,
  "lon": 3.9902033
},
{
  "type": "node",
  "id": 4498509322,
  "lat": 51.1056972,
  "lon": 3.9901996
},
{
  "type": "node",
  "id": 4498509323,
  "lat": 51.1057000,
  "lon": 3.9901955
},
{
  "type": "node",
  "id": 4498509324,
  "lat": 51.1057147,
  "lon": 3.9902059
},
{
  "type": "node",
  "id": 4498509325,
  "lat": 51.1056805,
  "lon": 3.9903270
},
{
  "type": "node",
  "id": 4498509326,
  "lat": 51.1057336,
  "lon": 3.9903654
},
{
  "type": "node",
  "id": 1472537587,
  "lat": 51.0969240,
  "lon": 4.1937800
},
{
  "type": "node",
  "id": 1472537591,
  "lat": 51.0970844,
  "lon": 4.1936178
},
{
  "type": "node",
  "id": 1472537599,
  "lat": 51.0974205,
  "lon": 4.1934394
},
{
  "type": "node",
  "id": 1472537616,
  "lat": 51.0977184,
  "lon": 4.1934151
},
{
  "type": "node",
  "id": 1472537632,
  "lat": 51.0979679,
  "lon": 4.1942827
},
{
  "type": "node",
  "id": 1472537635,
  "lat": 51.0980367,
  "lon": 4.1934921
},
{
  "type": "node",
  "id": 1472537636,
  "lat": 51.0980698,
  "lon": 4.1941773
},
{
  "type": "node",
  "id": 1472537637,
  "lat": 51.0980927,
  "lon": 4.1940881
},
{
  "type": "node",
  "id": 1472537643,
  "lat": 51.0981818,
  "lon": 4.1940598
},
{
  "type": "node",
  "id": 1472537662,
  "lat": 51.0983881,
  "lon": 4.1935813
},
{
  "type": "node",
  "id": 1472537679,
  "lat": 51.0986452,
  "lon": 4.1935813
},
{
  "type": "node",
  "id": 1472537691,
  "lat": 51.0987369,
  "lon": 4.1938084
},
{
  "type": "node",
  "id": 1472537706,
  "lat": 51.0990297,
  "lon": 4.1933989
},
{
  "type": "node",
  "id": 1472537714,
  "lat": 51.0991213,
  "lon": 4.1936219
},
{
  "type": "node",
  "id": 1472537723,
  "lat": 51.0992767,
  "lon": 4.1936178
},
{
  "type": "node",
  "id": 1472537724,
  "lat": 51.0993428,
  "lon": 4.1930786
},
{
  "type": "node",
  "id": 1472537729,
  "lat": 51.0993632,
  "lon": 4.1931394
},
{
  "type": "node",
  "id": 1472537730,
  "lat": 51.0995313,
  "lon": 4.1929245
},
{
  "type": "node",
  "id": 1472537736,
  "lat": 51.0997400,
  "lon": 4.1927096
},
{
  "type": "node",
  "id": 1472537742,
  "lat": 51.0997808,
  "lon": 4.1936340
},
{
  "type": "node",
  "id": 1472537747,
  "lat": 51.1002263,
  "lon": 4.1936624
},
{
  "type": "node",
  "id": 1472537748,
  "lat": 51.1002314,
  "lon": 4.1932854
},
{
  "type": "node",
  "id": 1472537749,
  "lat": 51.1002671,
  "lon": 4.1929407
},
{
  "type": "node",
  "id": 1472537750,
  "lat": 51.1003715,
  "lon": 4.1933178
},
{
  "type": "node",
  "id": 1472537751,
  "lat": 51.1003791,
  "lon": 4.1932489
},
{
  "type": "node",
  "id": 1472537756,
  "lat": 51.1006872,
  "lon": 4.1938124
},
{
  "type": "node",
  "id": 1472537757,
  "lat": 51.1009239,
  "lon": 4.1938570
},
{
  "type": "node",
  "id": 1472537758,
  "lat": 51.1009519,
  "lon": 4.1933989
},
{
  "type": "node",
  "id": 1472537759,
  "lat": 51.1009647,
  "lon": 4.1933137
},
{
  "type": "node",
  "id": 1472537760,
  "lat": 51.1011607,
  "lon": 4.1934637
},
{
  "type": "node",
  "id": 1472537761,
  "lat": 51.1011734,
  "lon": 4.1934191
},
{
  "type": "node",
  "id": 1472537762,
  "lat": 51.1012575,
  "lon": 4.1940273
},
{
  "type": "node",
  "id": 1472537764,
  "lat": 51.1014792,
  "lon": 4.1941292
},
{
  "type": "node",
  "id": 1472537766,
  "lat": 51.1015070,
  "lon": 4.1940651
},
{
  "type": "node",
  "id": 1472537767,
  "lat": 51.1015661,
  "lon": 4.1937310
},
{
  "type": "node",
  "id": 940717268,
  "lat": 51.1672001,
  "lon": 4.1463843
},
{
  "type": "node",
  "id": 4530646696,
  "lat": 51.1672041,
  "lon": 4.1463528
},
{
  "type": "node",
  "id": 4530646697,
  "lat": 51.1671815,
  "lon": 4.1465310
},
{
  "type": "node",
  "id": 4530646698,
  "lat": 51.1672464,
  "lon": 4.1471113
},
{
  "type": "node",
  "id": 4530646699,
  "lat": 51.1674422,
  "lon": 4.1472227
},
{
  "type": "node",
  "id": 4530646700,
  "lat": 51.1674449,
  "lon": 4.1471994
},
{
  "type": "node",
  "id": 4530646701,
  "lat": 51.1675380,
  "lon": 4.1472272
},
{
  "type": "node",
  "id": 4530646702,
  "lat": 51.1675519,
  "lon": 4.1471128
},
{
  "type": "node",
  "id": 4530646705,
  "lat": 51.1680239,
  "lon": 4.1471541
},
{
  "type": "node",
  "id": 4530646706,
  "lat": 51.1678986,
  "lon": 4.1463082
},
{
  "type": "node",
  "id": 4530646707,
  "lat": 51.1678629,
  "lon": 4.1465651
},
{
  "type": "node",
  "id": 4530646708,
  "lat": 51.1676576,
  "lon": 4.1460460
},
{
  "type": "node",
  "id": 4530646709,
  "lat": 51.1676181,
  "lon": 4.1463908
},
{
  "type": "node",
  "id": 4530646710,
  "lat": 51.1674371,
  "lon": 4.1463425
},
{
  "type": "node",
  "id": 4530646711,
  "lat": 51.1674768,
  "lon": 4.1459937
},
{
  "type": "node",
  "id": 5783363814,
  "lat": 51.1675694,
  "lon": 4.1460198
},
{
  "type": "node",
  "id": 5786741699,
  "lat": 51.1679206,
  "lon": 4.1463082
},
{
  "type": "node",
  "id": 5786741700,
  "lat": 51.1679389,
  "lon": 4.1463143
},
{
  "type": "node",
  "id": 5786741701,
  "lat": 51.1679287,
  "lon": 4.1463844
},
{
  "type": "node",
  "id": 5786741702,
  "lat": 51.1679370,
  "lon": 4.1465196
},
{
  "type": "node",
  "id": 5786741703,
  "lat": 51.1680968,
  "lon": 4.1465707
},
{
  "type": "node",
  "id": 5786741704,
  "lat": 51.1675603,
  "lon": 4.1471142
},
{
  "type": "node",
  "id": 5786741705,
  "lat": 51.1675655,
  "lon": 4.1470645
},
{
  "type": "node",
  "id": 5786741706,
  "lat": 51.1675883,
  "lon": 4.1470745
},
{
  "type": "node",
  "id": 5786741707,
  "lat": 51.1676200,
  "lon": 4.1470433
},
{
  "type": "node",
  "id": 5786741708,
  "lat": 51.1676217,
  "lon": 4.1470268
},
{
  "type": "node",
  "id": 5786741720,
  "lat": 51.1678477,
  "lon": 4.1470983
},
{
  "type": "node",
  "id": 5786741724,
  "lat": 51.1675169,
  "lon": 4.1472209
},
{
  "type": "node",
  "id": 5786741730,
  "lat": 51.1675476,
  "lon": 4.1471483
},
{
  "type": "node",
  "id": 5786741815,
  "lat": 51.1676324,
  "lon": 4.1462798
},
{
  "type": "node",
  "id": 5786741816,
  "lat": 51.1678246,
  "lon": 4.1463415
},
{
  "type": "node",
  "id": 5786741817,
  "lat": 51.1679006,
  "lon": 4.1462174
},
{
  "type": "node",
  "id": 5786741818,
  "lat": 51.1678010,
  "lon": 4.1465451
},
{
  "type": "node",
  "id": 5786741819,
  "lat": 51.1676463,
  "lon": 4.1461346
},
{
  "type": "node",
  "id": 5786741820,
  "lat": 51.1678951,
  "lon": 4.1463021
},
{
  "type": "node",
  "id": 1708252462,
  "lat": 51.2271999,
  "lon": 4.0553390
},
{
  "type": "node",
  "id": 1708252516,
  "lat": 51.2272753,
  "lon": 4.0558492
},
{
  "type": "node",
  "id": 1708252605,
  "lat": 51.2273335,
  "lon": 4.0559850
},
{
  "type": "node",
  "id": 1708252832,
  "lat": 51.2275201,
  "lon": 4.0557547
},
{
  "type": "node",
  "id": 1708252877,
  "lat": 51.2275427,
  "lon": 4.0559080
},
{
  "type": "node",
  "id": 1708252907,
  "lat": 51.2275933,
  "lon": 4.0557283
},
{
  "type": "node",
  "id": 1708252962,
  "lat": 51.2276159,
  "lon": 4.0558817
},
{
  "type": "node",
  "id": 1708252976,
  "lat": 51.2276337,
  "lon": 4.0550232
},
{
  "type": "node",
  "id": 1708253014,
  "lat": 51.2276568,
  "lon": 4.0551694
},
{
  "type": "node",
  "id": 1708253048,
  "lat": 51.2277064,
  "lon": 4.0549963
},
{
  "type": "node",
  "id": 1708253072,
  "lat": 51.2277277,
  "lon": 4.0551434
},
{
  "type": "node",
  "id": 1708253213,
  "lat": 51.2278254,
  "lon": 4.0558034
},
{
  "type": "node",
  "id": 1708253903,
  "lat": 51.2282209,
  "lon": 4.0554938
},
{
  "type": "node",
  "id": 1708253952,
  "lat": 51.2282279,
  "lon": 4.0556597
},
{
  "type": "node",
  "id": 1708254087,
  "lat": 51.2282934,
  "lon": 4.0554675
},
{
  "type": "node",
  "id": 1708254100,
  "lat": 51.2282438,
  "lon": 4.0556538
},
{
  "type": "node",
  "id": 1708254150,
  "lat": 51.2283161,
  "lon": 4.0556268
},
{
  "type": "node",
  "id": 1708254278,
  "lat": 51.2283581,
  "lon": 4.0549084
},
{
  "type": "node",
  "id": 1708254359,
  "lat": 51.2284332,
  "lon": 4.0554163
},
{
  "type": "node",
  "id": 3911287797,
  "lat": 51.2272512,
  "lon": 4.0542235
},
{
  "type": "node",
  "id": 3911287798,
  "lat": 51.2272558,
  "lon": 4.0542569
},
{
  "type": "node",
  "id": 3911287800,
  "lat": 51.2272757,
  "lon": 4.0544684
},
{
  "type": "node",
  "id": 3911287801,
  "lat": 51.2273534,
  "lon": 4.0541865
},
{
  "type": "node",
  "id": 3911287802,
  "lat": 51.2273838,
  "lon": 4.0543953
},
{
  "type": "node",
  "id": 3911287803,
  "lat": 51.2274831,
  "lon": 4.0550779
},
{
  "type": "node",
  "id": 3911287804,
  "lat": 51.2275354,
  "lon": 4.0550589
},
{
  "type": "node",
  "id": 3911287805,
  "lat": 51.2275401,
  "lon": 4.0550957
},
{
  "type": "node",
  "id": 3911287806,
  "lat": 51.2275797,
  "lon": 4.0550428
},
{
  "type": "node",
  "id": 3911287807,
  "lat": 51.2275846,
  "lon": 4.0550812
},
{
  "type": "node",
  "id": 3911287808,
  "lat": 51.2277912,
  "lon": 4.0534827
},
{
  "type": "node",
  "id": 3911287809,
  "lat": 51.2278710,
  "lon": 4.0540441
},
{
  "type": "node",
  "id": 3911289066,
  "lat": 51.2272792,
  "lon": 4.0536765
},
{
  "type": "node",
  "id": 3911289067,
  "lat": 51.2273582,
  "lon": 4.0542193
},
{
  "type": "node",
  "id": 3911289068,
  "lat": 51.2273886,
  "lon": 4.0544283
},
{
  "type": "node",
  "id": 3911290338,
  "lat": 51.2279712,
  "lon": 4.0547174
},
{
  "type": "node",
  "id": 3911290339,
  "lat": 51.2279759,
  "lon": 4.0540045
},
{
  "type": "node",
  "id": 3911290340,
  "lat": 51.2279955,
  "lon": 4.0548859
},
{
  "type": "node",
  "id": 3911290341,
  "lat": 51.2280762,
  "lon": 4.0546828
},
{
  "type": "node",
  "id": 3911290349,
  "lat": 51.2283713,
  "lon": 4.0566329
},
{
  "type": "node",
  "id": 3911290350,
  "lat": 51.2283722,
  "lon": 4.0556058
},
{
  "type": "node",
  "id": 3911290354,
  "lat": 51.2285161,
  "lon": 4.0565799
},
{
  "type": "node",
  "id": 3911290957,
  "lat": 51.2272713,
  "lon": 4.0544361
},
{
  "type": "node",
  "id": 1708252871,
  "lat": 51.2275371,
  "lon": 4.0573708
},
{
  "type": "node",
  "id": 1708253520,
  "lat": 51.2280292,
  "lon": 4.0571870
},
{
  "type": "node",
  "id": 2770928994,
  "lat": 51.2813217,
  "lon": 4.0519206
},
{
  "type": "node",
  "id": 2770929236,
  "lat": 51.2813857,
  "lon": 4.0520302
},
{
  "type": "node",
  "id": 2770929270,
  "lat": 51.2814003,
  "lon": 4.0520044
},
{
  "type": "node",
  "id": 2770929314,
  "lat": 51.2814108,
  "lon": 4.0517754
},
{
  "type": "node",
  "id": 2770929320,
  "lat": 51.2814118,
  "lon": 4.0517773
},
{
  "type": "node",
  "id": 2770929326,
  "lat": 51.2814131,
  "lon": 4.0520061
},
{
  "type": "node",
  "id": 2770929352,
  "lat": 51.2814222,
  "lon": 4.0519886
},
{
  "type": "node",
  "id": 2770929364,
  "lat": 51.2814233,
  "lon": 4.0519691
},
{
  "type": "node",
  "id": 2770929376,
  "lat": 51.2814274,
  "lon": 4.0519907
},
{
  "type": "node",
  "id": 2770929394,
  "lat": 51.2814352,
  "lon": 4.0519493
},
{
  "type": "node",
  "id": 2770929494,
  "lat": 51.2814449,
  "lon": 4.0519656
},
{
  "type": "node",
  "id": 2770929516,
  "lat": 51.2814490,
  "lon": 4.0520285
},
{
  "type": "node",
  "id": 2770929579,
  "lat": 51.2814675,
  "lon": 4.0519947
},
{
  "type": "node",
  "id": 2770929591,
  "lat": 51.2814694,
  "lon": 4.0519980
},
{
  "type": "node",
  "id": 2770929614,
  "lat": 51.2814795,
  "lon": 4.0519961
},
{
  "type": "node",
  "id": 2770929724,
  "lat": 51.2815091,
  "lon": 4.0519511
},
{
  "type": "node",
  "id": 5794035012,
  "lat": 51.0468296,
  "lon": 4.1943342
},
{
  "type": "node",
  "id": 5794035013,
  "lat": 51.0468970,
  "lon": 4.1943627
},
{
  "type": "node",
  "id": 5794035014,
  "lat": 51.0469633,
  "lon": 4.1943543
},
{
  "type": "node",
  "id": 5794035015,
  "lat": 51.0470170,
  "lon": 4.1943141
},
{
  "type": "node",
  "id": 1583678066,
  "lat": 51.0488105,
  "lon": 4.2066848
},
{
  "type": "node",
  "id": 1583678067,
  "lat": 51.0488123,
  "lon": 4.2068118
},
{
  "type": "node",
  "id": 1583678068,
  "lat": 51.0489199,
  "lon": 4.2066808
},
{
  "type": "node",
  "id": 1583678069,
  "lat": 51.0489217,
  "lon": 4.2068078
},
{
  "type": "node",
  "id": 3072101052,
  "lat": 50.9783489,
  "lon": 4.3503131
},
{
  "type": "node",
  "id": 3072101053,
  "lat": 50.9784201,
  "lon": 4.3502278
},
{
  "type": "node",
  "id": 3072101054,
  "lat": 50.9785645,
  "lon": 4.3508457
},
{
  "type": "node",
  "id": 3072101055,
  "lat": 50.9785975,
  "lon": 4.3507753
},
{
  "type": "node",
  "id": 3264514826,
  "lat": 50.9783718,
  "lon": 4.3503694
},
{
  "type": "node",
  "id": 3264514827,
  "lat": 50.9783865,
  "lon": 4.3503554
},
{
  "type": "node",
  "id": 3264514828,
  "lat": 50.9784747,
  "lon": 4.3503886
},
{
  "type": "node",
  "id": 3264514829,
  "lat": 50.9784841,
  "lon": 4.3503784
},
{
  "type": "node",
  "id": 3264514830,
  "lat": 50.9785550,
  "lon": 4.3508169
},
{
  "type": "node",
  "id": 3264514831,
  "lat": 50.9785615,
  "lon": 4.3508097
},
{
  "type": "node",
  "id": 3264514832,
  "lat": 50.9785843,
  "lon": 4.3508132
},
{
  "type": "node",
  "id": 3264514833,
  "lat": 50.9785883,
  "lon": 4.3508278
},
{
  "type": "node",
  "id": 3264514834,
  "lat": 50.9786050,
  "lon": 4.3507954
},
{
  "type": "node",
  "id": 3264514835,
  "lat": 50.9786071,
  "lon": 4.3507629
},
{
  "type": "node",
  "id": 787265652,
  "lat": 51.0570347,
  "lon": 4.3408224
},
{
  "type": "node",
  "id": 787265656,
  "lat": 51.0570246,
  "lon": 4.3415128
},
{
  "type": "node",
  "id": 787265658,
  "lat": 51.0571787,
  "lon": 4.3415619
},
{
  "type": "node",
  "id": 787265661,
  "lat": 51.0571571,
  "lon": 4.3418006
},
{
  "type": "node",
  "id": 787265664,
  "lat": 51.0570068,
  "lon": 4.3417953
},
{
  "type": "node",
  "id": 787265666,
  "lat": 51.0569226,
  "lon": 4.3425571
},
{
  "type": "node",
  "id": 787265669,
  "lat": 51.0568088,
  "lon": 4.3425258
},
{
  "type": "node",
  "id": 787265672,
  "lat": 51.0568431,
  "lon": 4.3422689
},
{
  "type": "node",
  "id": 787265676,
  "lat": 51.0567809,
  "lon": 4.3422451
},
{
  "type": "node",
  "id": 787265690,
  "lat": 51.0568299,
  "lon": 4.3417435
},
{
  "type": "node",
  "id": 787265694,
  "lat": 51.0565355,
  "lon": 4.3417113
},
{
  "type": "node",
  "id": 787265697,
  "lat": 51.0564985,
  "lon": 4.3422881
},
{
  "type": "node",
  "id": 787265699,
  "lat": 51.0565239,
  "lon": 4.3422884
},
{
  "type": "node",
  "id": 787265702,
  "lat": 51.0565213,
  "lon": 4.3423505
},
{
  "type": "node",
  "id": 787265705,
  "lat": 51.0563413,
  "lon": 4.3423227
},
{
  "type": "node",
  "id": 787265707,
  "lat": 51.0563901,
  "lon": 4.3417191
},
{
  "type": "node",
  "id": 787265709,
  "lat": 51.0564090,
  "lon": 4.3414385
},
{
  "type": "node",
  "id": 787265711,
  "lat": 51.0564929,
  "lon": 4.3408043
},
{
  "type": "node",
  "id": 787265713,
  "lat": 51.0566102,
  "lon": 4.3408411
},
{
  "type": "node",
  "id": 787265714,
  "lat": 51.0566036,
  "lon": 4.3408699
},
{
  "type": "node",
  "id": 787265717,
  "lat": 51.0565849,
  "lon": 4.3408706
},
{
  "type": "node",
  "id": 787265719,
  "lat": 51.0565550,
  "lon": 4.3414381
},
{
  "type": "node",
  "id": 787265721,
  "lat": 51.0568440,
  "lon": 4.3414845
},
{
  "type": "node",
  "id": 787265723,
  "lat": 51.0568602,
  "lon": 4.3409842
},
{
  "type": "node",
  "id": 787265724,
  "lat": 51.0569177,
  "lon": 4.3409891
},
{
  "type": "node",
  "id": 787265725,
  "lat": 51.0569223,
  "lon": 4.3407999
},
{
  "type": "node",
  "id": 1604396860,
  "lat": 51.0571695,
  "lon": 4.3416631
},
{
  "type": "node",
  "id": 1604396922,
  "lat": 51.0569218,
  "lon": 4.3408253
},
{
  "type": "node",
  "id": 1604396970,
  "lat": 51.0569205,
  "lon": 4.3408691
},
{
  "type": "node",
  "id": 1604397341,
  "lat": 51.0564488,
  "lon": 4.3408800
},
{
  "type": "node",
  "id": 1683284870,
  "lat": 51.0563422,
  "lon": 4.3423035
},
{
  "type": "node",
  "id": 2336244617,
  "lat": 51.0801584,
  "lon": 4.3656583
},
{
  "type": "node",
  "id": 2336244619,
  "lat": 51.0802329,
  "lon": 4.3651255
},
{
  "type": "node",
  "id": 2336244623,
  "lat": 51.0802840,
  "lon": 4.3657028
},
{
  "type": "node",
  "id": 2336244624,
  "lat": 51.0803585,
  "lon": 4.3651700
},
{
  "type": "node",
  "id": 1472537552,
  "lat": 51.0955719,
  "lon": 4.1954302
},
{
  "type": "node",
  "id": 1472537556,
  "lat": 51.0957629,
  "lon": 4.1952964
},
{
  "type": "node",
  "id": 1472537557,
  "lat": 51.0958189,
  "lon": 4.1966587
},
{
  "type": "node",
  "id": 1472537563,
  "lat": 51.0959513,
  "lon": 4.1950855
},
{
  "type": "node",
  "id": 1472537575,
  "lat": 51.0963638,
  "lon": 4.1945139
},
{
  "type": "node",
  "id": 1472537577,
  "lat": 51.0963969,
  "lon": 4.1963019
},
{
  "type": "node",
  "id": 1472537578,
  "lat": 51.0964287,
  "lon": 4.1960981
},
{
  "type": "node",
  "id": 1472537580,
  "lat": 51.0965955,
  "lon": 4.1959613
},
{
  "type": "node",
  "id": 1472537589,
  "lat": 51.0969495,
  "lon": 4.1953653
},
{
  "type": "node",
  "id": 1472537590,
  "lat": 51.0970819,
  "lon": 4.1950734
},
{
  "type": "node",
  "id": 1472537594,
  "lat": 51.0971710,
  "lon": 4.1949193
},
{
  "type": "node",
  "id": 1472537612,
  "lat": 51.0975784,
  "lon": 4.1945909
},
{
  "type": "node",
  "id": 1473109001,
  "lat": 51.0964161,
  "lon": 4.1961792
},
{
  "type": "node",
  "id": 1477692646,
  "lat": 51.0881589,
  "lon": 4.3312011
},
{
  "type": "node",
  "id": 1477692648,
  "lat": 51.0881817,
  "lon": 4.3314361
},
{
  "type": "node",
  "id": 1477692658,
  "lat": 51.0882431,
  "lon": 4.3313324
},
{
  "type": "node",
  "id": 1477707992,
  "lat": 51.0881881,
  "lon": 4.3314256
},
{
  "type": "node",
  "id": 2364267181,
  "lat": 51.0880950,
  "lon": 4.3313072
},
{
  "type": "node",
  "id": 3957938661,
  "lat": 51.0881154,
  "lon": 4.3312685
},
{
  "type": "node",
  "id": 3957938662,
  "lat": 51.0881162,
  "lon": 4.3312730
},
{
  "type": "node",
  "id": 3957938663,
  "lat": 51.0881361,
  "lon": 4.3312341
},
{
  "type": "node",
  "id": 3957938664,
  "lat": 51.0881385,
  "lon": 4.3312344
},
{
  "type": "node",
  "id": 3075644583,
  "lat": 51.1264306,
  "lon": 4.3343432
},
{
  "type": "node",
  "id": 3075644584,
  "lat": 51.1264321,
  "lon": 4.3346173
},
{
  "type": "node",
  "id": 3075644595,
  "lat": 51.1265203,
  "lon": 4.3343420
},
{
  "type": "node",
  "id": 3075644597,
  "lat": 51.1265215,
  "lon": 4.3345566
},
{
  "type": "node",
  "id": 3075644600,
  "lat": 51.1265804,
  "lon": 4.3345558
},
{
  "type": "node",
  "id": 3075644601,
  "lat": 51.1265808,
  "lon": 4.3346153
},
{
  "type": "node",
  "id": 5085809619,
  "lat": 51.0825942,
  "lon": 4.3814768
},
{
  "type": "node",
  "id": 5085809620,
  "lat": 51.0826050,
  "lon": 4.3815684
},
{
  "type": "node",
  "id": 5085810021,
  "lat": 51.0826946,
  "lon": 4.3815373
},
{
  "type": "node",
  "id": 5085810022,
  "lat": 51.0828008,
  "lon": 4.3815269
},
{
  "type": "node",
  "id": 5085810023,
  "lat": 51.0828015,
  "lon": 4.3814498
},
{
  "type": "node",
  "id": 5085810024,
  "lat": 51.0826754,
  "lon": 4.3814420
},
{
  "type": "node",
  "id": 347271925,
  "lat": 51.0277125,
  "lon": 4.4792656
},
{
  "type": "node",
  "id": 347271926,
  "lat": 51.0275594,
  "lon": 4.4791651
},
{
  "type": "node",
  "id": 347271929,
  "lat": 51.0275283,
  "lon": 4.4793929
},
{
  "type": "node",
  "id": 347271931,
  "lat": 51.0276538,
  "lon": 4.4793949
},
{
  "type": "node",
  "id": 2378631345,
  "lat": 51.0276361,
  "lon": 4.4794617
},
{
  "type": "node",
  "id": 2379988091,
  "lat": 51.0276524,
  "lon": 4.4794434
},
{
  "type": "node",
  "id": 3297665756,
  "lat": 51.0276771,
  "lon": 4.4793436
},
{
  "type": "node",
  "id": 1974335715,
  "lat": 51.0803076,
  "lon": 4.4194943
},
{
  "type": "node",
  "id": 1974335732,
  "lat": 51.0803554,
  "lon": 4.4188881
},
{
  "type": "node",
  "id": 1974335816,
  "lat": 51.0810241,
  "lon": 4.4196074
},
{
  "type": "node",
  "id": 1974335835,
  "lat": 51.0810654,
  "lon": 4.4190114
},
{
  "type": "node",
  "id": 6236397510,
  "lat": 51.0803496,
  "lon": 4.4188813
},
{
  "type": "node",
  "id": 2054121949,
  "lat": 51.0343177,
  "lon": 4.4793297
},
{
  "type": "node",
  "id": 2054121963,
  "lat": 51.0343510,
  "lon": 4.4789627
},
{
  "type": "node",
  "id": 2054121965,
  "lat": 51.0342177,
  "lon": 4.4796619
},
{
  "type": "node",
  "id": 2054121966,
  "lat": 51.0339946,
  "lon": 4.4790544
},
{
  "type": "node",
  "id": 3389393428,
  "lat": 51.0340246,
  "lon": 4.4793941
},
{
  "type": "node",
  "id": 3389418732,
  "lat": 51.0341063,
  "lon": 4.4795176
},
{
  "type": "node",
  "id": 3389418733,
  "lat": 51.0341398,
  "lon": 4.4795643
},
{
  "type": "node",
  "id": 1102126392,
  "lat": 51.0611222,
  "lon": 4.5013936
},
{
  "type": "node",
  "id": 1102126857,
  "lat": 51.0614387,
  "lon": 4.5019990
},
{
  "type": "node",
  "id": 1102127051,
  "lat": 51.0611952,
  "lon": 4.5012921
},
{
  "type": "node",
  "id": 1102127197,
  "lat": 51.0615156,
  "lon": 4.5018934
},
{
  "type": "node",
  "id": 1141096116,
  "lat": 51.0606132,
  "lon": 4.5017508
},
{
  "type": "node",
  "id": 1141096123,
  "lat": 51.0603987,
  "lon": 4.5020795
},
{
  "type": "node",
  "id": 1141096143,
  "lat": 51.0606967,
  "lon": 4.5016554
},
{
  "type": "node",
  "id": 3495305277,
  "lat": 51.0608276,
  "lon": 4.5016125
},
{
  "type": "node",
  "id": 6657398879,
  "lat": 51.0607648,
  "lon": 4.5016553
},
{
  "type": "node",
  "id": 6657398881,
  "lat": 51.0614888,
  "lon": 4.5022997
},
{
  "type": "node",
  "id": 6657398882,
  "lat": 51.0615360,
  "lon": 4.5019001
},
{
  "type": "node",
  "id": 6657398883,
  "lat": 51.0611879,
  "lon": 4.5011491
},
{
  "type": "node",
  "id": 1141067952,
  "lat": 51.0606553,
  "lon": 4.5041999
},
{
  "type": "node",
  "id": 1141068109,
  "lat": 51.0613643,
  "lon": 4.5038320
},
{
  "type": "node",
  "id": 1141096150,
  "lat": 51.0604527,
  "lon": 4.5042843
},
{
  "type": "node",
  "id": 1141096152,
  "lat": 51.0600073,
  "lon": 4.5025401
},
{
  "type": "node",
  "id": 6657398880,
  "lat": 51.0612713,
  "lon": 4.5028469
},
{
  "type": "node",
  "id": 5028009657,
  "lat": 51.0749211,
  "lon": 4.4915167
},
{
  "type": "node",
  "id": 5028009658,
  "lat": 51.0748863,
  "lon": 4.4915614
},
{
  "type": "node",
  "id": 5028009659,
  "lat": 51.0753043,
  "lon": 4.4922765
},
{
  "type": "node",
  "id": 5028009660,
  "lat": 51.0753374,
  "lon": 4.4922126
},
{
  "type": "node",
  "id": 393369004,
  "lat": 50.9851169,
  "lon": 4.5156821
},
{
  "type": "node",
  "id": 393369005,
  "lat": 50.9855583,
  "lon": 4.5162177
},
{
  "type": "node",
  "id": 393369006,
  "lat": 50.9857682,
  "lon": 4.5163455
},
{
  "type": "node",
  "id": 393369007,
  "lat": 50.9861542,
  "lon": 4.5163987
},
{
  "type": "node",
  "id": 393369008,
  "lat": 50.9862806,
  "lon": 4.5163655
},
{
  "type": "node",
  "id": 393369009,
  "lat": 50.9864984,
  "lon": 4.5162434
},
{
  "type": "node",
  "id": 393369010,
  "lat": 50.9867374,
  "lon": 4.5159908
},
{
  "type": "node",
  "id": 393369011,
  "lat": 50.9868993,
  "lon": 4.5157035
},
{
  "type": "node",
  "id": 393369012,
  "lat": 50.9869716,
  "lon": 4.5157856
},
{
  "type": "node",
  "id": 393369013,
  "lat": 50.9868222,
  "lon": 4.5160559
},
{
  "type": "node",
  "id": 393369014,
  "lat": 50.9866747,
  "lon": 4.5162434
},
{
  "type": "node",
  "id": 393369015,
  "lat": 50.9864857,
  "lon": 4.5164055
},
{
  "type": "node",
  "id": 393369016,
  "lat": 50.9862158,
  "lon": 4.5165298
},
{
  "type": "node",
  "id": 393369017,
  "lat": 50.9860868,
  "lon": 4.5165447
},
{
  "type": "node",
  "id": 393369018,
  "lat": 50.9860688,
  "lon": 4.5173978
},
{
  "type": "node",
  "id": 393369020,
  "lat": 50.9859369,
  "lon": 4.5165383
},
{
  "type": "node",
  "id": 393369021,
  "lat": 50.9855969,
  "lon": 4.5163991
},
{
  "type": "node",
  "id": 393369022,
  "lat": 50.9854761,
  "lon": 4.5163052
},
{
  "type": "node",
  "id": 393369023,
  "lat": 50.9850271,
  "lon": 4.5157082
},
{
  "type": "node",
  "id": 393369110,
  "lat": 50.9859193,
  "lon": 4.5173981
},
{
  "type": "node",
  "id": 5071060857,
  "lat": 50.9863940,
  "lon": 4.5164591
},
{
  "type": "node",
  "id": 5071060859,
  "lat": 50.9861398,
  "lon": 4.5165444
},
{
  "type": "node",
  "id": 5071060860,
  "lat": 50.9861010,
  "lon": 4.5165471
},
{
  "type": "node",
  "id": 5071060861,
  "lat": 50.9860619,
  "lon": 4.5174427
},
{
  "type": "node",
  "id": 5071060862,
  "lat": 50.9860459,
  "lon": 4.5174809
},
{
  "type": "node",
  "id": 5071060863,
  "lat": 50.9860219,
  "lon": 4.5175065
},
{
  "type": "node",
  "id": 5071060864,
  "lat": 50.9859936,
  "lon": 4.5175156
},
{
  "type": "node",
  "id": 5071060865,
  "lat": 50.9859652,
  "lon": 4.5175067
},
{
  "type": "node",
  "id": 5071060866,
  "lat": 50.9859411,
  "lon": 4.5174813
},
{
  "type": "node",
  "id": 5071060867,
  "lat": 50.9859250,
  "lon": 4.5174432
},
{
  "type": "node",
  "id": 5071060868,
  "lat": 50.9859241,
  "lon": 4.5165374
},
{
  "type": "node",
  "id": 5071060869,
  "lat": 50.9858938,
  "lon": 4.5165300
},
{
  "type": "node",
  "id": 5071060870,
  "lat": 50.9858075,
  "lon": 4.5165037
},
{
  "type": "node",
  "id": 5071060871,
  "lat": 50.9858621,
  "lon": 4.5165210
},
{
  "type": "node",
  "id": 5071060872,
  "lat": 50.9857536,
  "lon": 4.5164806
},
{
  "type": "node",
  "id": 5071060873,
  "lat": 50.9856787,
  "lon": 4.5164477
},
{
  "type": "node",
  "id": 5071060874,
  "lat": 50.9855346,
  "lon": 4.5163532
},
{
  "type": "node",
  "id": 5071060875,
  "lat": 50.9854318,
  "lon": 4.5162645
},
{
  "type": "node",
  "id": 5071060876,
  "lat": 50.9853955,
  "lon": 4.5163555
},
{
  "type": "node",
  "id": 5071060877,
  "lat": 50.9853752,
  "lon": 4.5163790
},
{
  "type": "node",
  "id": 5071060878,
  "lat": 50.9853476,
  "lon": 4.5163746
},
{
  "type": "node",
  "id": 5071060879,
  "lat": 50.9853174,
  "lon": 4.5162992
},
{
  "type": "node",
  "id": 5071060880,
  "lat": 50.9853271,
  "lon": 4.5162610
},
{
  "type": "node",
  "id": 5071060881,
  "lat": 50.9853246,
  "lon": 4.5163441
},
{
  "type": "node",
  "id": 5071060882,
  "lat": 50.9853146,
  "lon": 4.5161275
},
{
  "type": "node",
  "id": 5071060883,
  "lat": 50.9851591,
  "lon": 4.5159207
},
{
  "type": "node",
  "id": 5071060884,
  "lat": 50.9852456,
  "lon": 4.5160370
},
{
  "type": "node",
  "id": 5071060885,
  "lat": 50.9853632,
  "lon": 4.5161942
},
{
  "type": "node",
  "id": 5071060886,
  "lat": 50.9850604,
  "lon": 4.5157903
},
{
  "type": "node",
  "id": 5071060887,
  "lat": 50.9850713,
  "lon": 4.5157683
},
{
  "type": "node",
  "id": 5071060888,
  "lat": 50.9850616,
  "lon": 4.5156446
},
{
  "type": "node",
  "id": 5071060889,
  "lat": 50.9851062,
  "lon": 4.5157017
},
{
  "type": "node",
  "id": 5071060890,
  "lat": 50.9852078,
  "lon": 4.5158046
},
{
  "type": "node",
  "id": 5071060891,
  "lat": 50.9852859,
  "lon": 4.5159079
},
{
  "type": "node",
  "id": 5071060892,
  "lat": 50.9853568,
  "lon": 4.5160025
},
{
  "type": "node",
  "id": 5071060893,
  "lat": 50.9854113,
  "lon": 4.5160715
},
{
  "type": "node",
  "id": 5071060894,
  "lat": 50.9854837,
  "lon": 4.5161486
},
{
  "type": "node",
  "id": 5071060895,
  "lat": 50.9856705,
  "lon": 4.5162962
},
{
  "type": "node",
  "id": 5071060896,
  "lat": 50.9859449,
  "lon": 4.5163984
},
{
  "type": "node",
  "id": 5071060897,
  "lat": 50.9860168,
  "lon": 4.5164068
},
{
  "type": "node",
  "id": 5071060898,
  "lat": 50.9858758,
  "lon": 4.5163840
},
{
  "type": "node",
  "id": 5071060899,
  "lat": 50.9860768,
  "lon": 4.5164071
},
{
  "type": "node",
  "id": 5071060900,
  "lat": 50.9862156,
  "lon": 4.5163850
},
{
  "type": "node",
  "id": 5071060901,
  "lat": 50.9863501,
  "lon": 4.5163351
},
{
  "type": "node",
  "id": 5071060902,
  "lat": 50.9864181,
  "lon": 4.5162990
},
{
  "type": "node",
  "id": 5071060903,
  "lat": 50.9865460,
  "lon": 4.5162056
},
{
  "type": "node",
  "id": 5071060904,
  "lat": 50.9865918,
  "lon": 4.5161624
},
{
  "type": "node",
  "id": 5071060905,
  "lat": 50.9866426,
  "lon": 4.5161091
},
{
  "type": "node",
  "id": 5071060906,
  "lat": 50.9866821,
  "lon": 4.5160642
},
{
  "type": "node",
  "id": 5071060907,
  "lat": 50.9868009,
  "lon": 4.5158905
},
{
  "type": "node",
  "id": 5071060908,
  "lat": 50.9868509,
  "lon": 4.5158033
},
{
  "type": "node",
  "id": 5071060909,
  "lat": 50.9869129,
  "lon": 4.5157180
},
{
  "type": "node",
  "id": 5071060910,
  "lat": 50.9869466,
  "lon": 4.5156475
},
{
  "type": "node",
  "id": 5071060911,
  "lat": 50.9869913,
  "lon": 4.5156984
},
{
  "type": "node",
  "id": 5071060912,
  "lat": 50.9869570,
  "lon": 4.5157683
},
{
  "type": "node",
  "id": 5071060913,
  "lat": 50.9869392,
  "lon": 4.5158519
},
{
  "type": "node",
  "id": 5071060914,
  "lat": 50.9869018,
  "lon": 4.5159243
},
{
  "type": "node",
  "id": 5071060915,
  "lat": 50.9868582,
  "lon": 4.5159999
},
{
  "type": "node",
  "id": 5071060916,
  "lat": 50.9867710,
  "lon": 4.5161294
},
{
  "type": "node",
  "id": 5071060917,
  "lat": 50.9867130,
  "lon": 4.5162021
},
{
  "type": "node",
  "id": 5071060918,
  "lat": 50.9865599,
  "lon": 4.5163522
},
{
  "type": "node",
  "id": 5071060919,
  "lat": 50.9867131,
  "lon": 4.5163330
},
{
  "type": "node",
  "id": 5071060920,
  "lat": 50.9867131,
  "lon": 4.5163793
},
{
  "type": "node",
  "id": 5071061121,
  "lat": 50.9866369,
  "lon": 4.5164088
},
{
  "type": "node",
  "id": 5071061122,
  "lat": 50.9866559,
  "lon": 4.5164296
},
{
  "type": "node",
  "id": 5071061123,
  "lat": 50.9866844,
  "lon": 4.5164306
},
{
  "type": "node",
  "id": 5071061124,
  "lat": 50.9867038,
  "lon": 4.5164138
},
{
  "type": "node",
  "id": 5071061125,
  "lat": 50.9866027,
  "lon": 4.5163169
},
{
  "type": "node",
  "id": 5071079729,
  "lat": 50.9863172,
  "lon": 4.5164953
},
{
  "type": "node",
  "id": 3173024982,
  "lat": 51.1819484,
  "lon": 4.4097472
},
{
  "type": "node",
  "id": 3173024985,
  "lat": 51.1820018,
  "lon": 4.4097902
},
{
  "type": "node",
  "id": 3173024992,
  "lat": 51.1820261,
  "lon": 4.4100272
},
{
  "type": "node",
  "id": 3173024994,
  "lat": 51.1820490,
  "lon": 4.4096696
},
{
  "type": "node",
  "id": 3173024997,
  "lat": 51.1821257,
  "lon": 4.4099436
},
{
  "type": "node",
  "id": 5658489877,
  "lat": 51.1820805,
  "lon": 4.4097756
},
{
  "type": "node",
  "id": 5658489878,
  "lat": 51.1820322,
  "lon": 4.4098066
},
{
  "type": "node",
  "id": 5658489879,
  "lat": 51.1820983,
  "lon": 4.4098312
},
{
  "type": "node",
  "id": 5658489880,
  "lat": 51.1819931,
  "lon": 4.4099105
},
{
  "type": "node",
  "id": 5658489881,
  "lat": 51.1819701,
  "lon": 4.4098229
},
{
  "type": "node",
  "id": 5658489882,
  "lat": 51.1820273,
  "lon": 4.4098796
},
{
  "type": "node",
  "id": 5658489883,
  "lat": 51.1820149,
  "lon": 4.4099955
},
{
  "type": "node",
  "id": 1535460223,
  "lat": 51.1313884,
  "lon": 4.5677831
},
{
  "type": "node",
  "id": 1535460228,
  "lat": 51.1314323,
  "lon": 4.5676249
},
{
  "type": "node",
  "id": 1535460240,
  "lat": 51.1314734,
  "lon": 4.5678377
},
{
  "type": "node",
  "id": 1535460244,
  "lat": 51.1315301,
  "lon": 4.5676750
},
{
  "type": "node",
  "id": 1535460246,
  "lat": 51.1315230,
  "lon": 4.5678430
},
{
  "type": "node",
  "id": 1535460255,
  "lat": 51.1315220,
  "lon": 4.5677090
},
{
  "type": "node",
  "id": 3114515299,
  "lat": 51.1315877,
  "lon": 4.5677553
},
{
  "type": "node",
  "id": 3114515301,
  "lat": 51.1315970,
  "lon": 4.5677111
},
{
  "type": "node",
  "id": 3114515308,
  "lat": 51.1316795,
  "lon": 4.5677662
},
{
  "type": "node",
  "id": 3114515311,
  "lat": 51.1317273,
  "lon": 4.5675955
},
{
  "type": "node",
  "id": 3114515316,
  "lat": 51.1317485,
  "lon": 4.5676114
},
{
  "type": "node",
  "id": 3114515317,
  "lat": 51.1317606,
  "lon": 4.5674701
},
{
  "type": "node",
  "id": 3114515320,
  "lat": 51.1317803,
  "lon": 4.5674019
},
{
  "type": "node",
  "id": 3114515322,
  "lat": 51.1317839,
  "lon": 4.5674884
},
{
  "type": "node",
  "id": 3114516129,
  "lat": 51.1318257,
  "lon": 4.5676807
},
{
  "type": "node",
  "id": 3114516142,
  "lat": 51.1319591,
  "lon": 4.5677760
},
{
  "type": "node",
  "id": 3114516143,
  "lat": 51.1319611,
  "lon": 4.5677662
},
{
  "type": "node",
  "id": 3114516146,
  "lat": 51.1319872,
  "lon": 4.5676717
},
{
  "type": "node",
  "id": 3114516150,
  "lat": 51.1320111,
  "lon": 4.5675855
},
{
  "type": "node",
  "id": 3114516151,
  "lat": 51.1320117,
  "lon": 4.5678001
},
{
  "type": "node",
  "id": 3114516152,
  "lat": 51.1320377,
  "lon": 4.5677078
},
{
  "type": "node",
  "id": 4232032106,
  "lat": 51.1318182,
  "lon": 4.5674412
},
{
  "type": "node",
  "id": 4232032107,
  "lat": 51.1318210,
  "lon": 4.5674296
},
{
  "type": "node",
  "id": 4232032109,
  "lat": 51.1318695,
  "lon": 4.5674853
},
{
  "type": "node",
  "id": 4232032110,
  "lat": 51.1318710,
  "lon": 4.5674781
},
{
  "type": "node",
  "id": 1535460243,
  "lat": 51.1315151,
  "lon": 4.5678709
},
{
  "type": "node",
  "id": 1535460251,
  "lat": 51.1316914,
  "lon": 4.5679746
},
{
  "type": "node",
  "id": 1536505070,
  "lat": 51.1284325,
  "lon": 4.5705067
},
{
  "type": "node",
  "id": 1536505072,
  "lat": 51.1284394,
  "lon": 4.5700752
},
{
  "type": "node",
  "id": 1536505074,
  "lat": 51.1284447,
  "lon": 4.5701509
},
{
  "type": "node",
  "id": 1536505075,
  "lat": 51.1284548,
  "lon": 4.5705838
},
{
  "type": "node",
  "id": 1536505077,
  "lat": 51.1284653,
  "lon": 4.5701254
},
{
  "type": "node",
  "id": 1536505079,
  "lat": 51.1285162,
  "lon": 4.5700572
},
{
  "type": "node",
  "id": 1536505080,
  "lat": 51.1285792,
  "lon": 4.5701110
},
{
  "type": "node",
  "id": 1536505085,
  "lat": 51.1285242,
  "lon": 4.5704425
},
{
  "type": "node",
  "id": 1536505087,
  "lat": 51.1285686,
  "lon": 4.5703860
},
{
  "type": "node",
  "id": 1536505089,
  "lat": 51.1285373,
  "lon": 4.5700309
},
{
  "type": "node",
  "id": 1536505090,
  "lat": 51.1286139,
  "lon": 4.5704821
},
{
  "type": "node",
  "id": 1536505092,
  "lat": 51.1286521,
  "lon": 4.5703456
},
{
  "type": "node",
  "id": 1536505094,
  "lat": 51.1285485,
  "lon": 4.5701510
},
{
  "type": "node",
  "id": 1536505097,
  "lat": 51.1286620,
  "lon": 4.5705382
},
{
  "type": "node",
  "id": 1536505098,
  "lat": 51.1287118,
  "lon": 4.5704148
},
{
  "type": "node",
  "id": 3114515310,
  "lat": 51.1317029,
  "lon": 4.5679415
},
{
  "type": "node",
  "id": 3114515312,
  "lat": 51.1317315,
  "lon": 4.5678689
},
{
  "type": "node",
  "id": 3114515318,
  "lat": 51.1317635,
  "lon": 4.5678930
},
{
  "type": "node",
  "id": 4232032093,
  "lat": 51.1317074,
  "lon": 4.5679440
},
{
  "type": "node",
  "id": 4263144655,
  "lat": 51.1315833,
  "lon": 4.5678852
},
{
  "type": "node",
  "id": 4275332184,
  "lat": 51.1284889,
  "lon": 4.5700094
},
{
  "type": "node",
  "id": 4275332614,
  "lat": 51.1285867,
  "lon": 4.5705070
},
{
  "type": "node",
  "id": 583590851,
  "lat": 51.0654866,
  "lon": 4.6865837
},
{
  "type": "node",
  "id": 583590852,
  "lat": 51.0655739,
  "lon": 4.6868874
},
{
  "type": "node",
  "id": 583590853,
  "lat": 51.0656640,
  "lon": 4.6868170
},
{
  "type": "node",
  "id": 583590854,
  "lat": 51.0655598,
  "lon": 4.6865311
},
{
  "type": "node",
  "id": 3406248989,
  "lat": 51.0656183,
  "lon": 4.6867335
},
{
  "type": "node",
  "id": 3406248990,
  "lat": 51.0656345,
  "lon": 4.6867216
},
{
  "type": "node",
  "id": 4200029464,
  "lat": 51.0755395,
  "lon": 4.7290978
},
{
  "type": "node",
  "id": 4200029467,
  "lat": 51.0755461,
  "lon": 4.7290104
},
{
  "type": "node",
  "id": 4200029598,
  "lat": 51.0756281,
  "lon": 4.7290151
},
{
  "type": "node",
  "id": 4200029614,
  "lat": 51.0756588,
  "lon": 4.7290202
},
{
  "type": "node",
  "id": 4200029647,
  "lat": 51.0757678,
  "lon": 4.7291547
},
{
  "type": "node",
  "id": 4200029648,
  "lat": 51.0757756,
  "lon": 4.7290462
},
{
  "type": "node",
  "id": 1030525367,
  "lat": 51.1861967,
  "lon": 4.8378434
},
{
  "type": "node",
  "id": 1030525370,
  "lat": 51.1860336,
  "lon": 4.8378824
},
{
  "type": "node",
  "id": 1030525385,
  "lat": 51.1861136,
  "lon": 4.8379902
},
{
  "type": "node",
  "id": 1030525388,
  "lat": 51.1860975,
  "lon": 4.8377073
},
{
  "type": "node",
  "id": 4786393101,
  "lat": 51.1860794,
  "lon": 4.8379538
},
{
  "type": "node",
  "id": 4786393102,
  "lat": 51.1860306,
  "lon": 4.8378870
},
{
  "type": "node",
  "id": 4786393103,
  "lat": 51.1860825,
  "lon": 4.8379494
},
{
  "type": "node",
  "id": 4786393104,
  "lat": 51.1860054,
  "lon": 4.8378448
},
{
  "type": "node",
  "id": 4786393105,
  "lat": 51.1860344,
  "lon": 4.8377894
},
{
  "type": "node",
  "id": 4786393106,
  "lat": 51.1860167,
  "lon": 4.8377690
},
{
  "type": "node",
  "id": 4786393107,
  "lat": 51.1860405,
  "lon": 4.8377213
},
{
  "type": "node",
  "id": 4786393108,
  "lat": 51.1860549,
  "lon": 4.8377407
},
{
  "type": "node",
  "id": 4786393109,
  "lat": 51.1860671,
  "lon": 4.8377213
},
{
  "type": "node",
  "id": 4786393110,
  "lat": 51.1860777,
  "lon": 4.8377221
},
{
  "type": "node",
  "id": 4786393111,
  "lat": 51.1860866,
  "lon": 4.8377274
},
{
  "type": "node",
  "id": 4786393112,
  "lat": 51.1861423,
  "lon": 4.8379386
},
{
  "type": "node",
  "id": 4786393113,
  "lat": 51.1861584,
  "lon": 4.8379608
},
{
  "type": "node",
  "id": 4786393114,
  "lat": 51.1861862,
  "lon": 4.8379106
},
{
  "type": "node",
  "id": 4786393115,
  "lat": 51.1861730,
  "lon": 4.8378896
},
{
  "type": "node",
  "id": 603033942,
  "lat": 51.2112304,
  "lon": 4.3893430
},
{
  "type": "node",
  "id": 603033945,
  "lat": 51.2113637,
  "lon": 4.3895082
},
{
  "type": "node",
  "id": 603033947,
  "lat": 51.2110565,
  "lon": 4.3900608
},
{
  "type": "node",
  "id": 603033948,
  "lat": 51.2109439,
  "lon": 4.3900127
},
{
  "type": "node",
  "id": 603033949,
  "lat": 51.2109407,
  "lon": 4.3899845
},
{
  "type": "node",
  "id": 603033950,
  "lat": 51.2109415,
  "lon": 4.3899523
},
{
  "type": "node",
  "id": 603033951,
  "lat": 51.2109506,
  "lon": 4.3899157
},
{
  "type": "node",
  "id": 603033952,
  "lat": 51.2109600,
  "lon": 4.3898955
},
{
  "type": "node",
  "id": 603033953,
  "lat": 51.2109826,
  "lon": 4.3898714
},
{
  "type": "node",
  "id": 603033954,
  "lat": 51.2110122,
  "lon": 4.3898623
},
{
  "type": "node",
  "id": 603033955,
  "lat": 51.2110517,
  "lon": 4.3898820
},
{
  "type": "node",
  "id": 603033956,
  "lat": 51.2110565,
  "lon": 4.3898729
},
{
  "type": "node",
  "id": 603033957,
  "lat": 51.2110030,
  "lon": 4.3898068
},
{
  "type": "node",
  "id": 603033958,
  "lat": 51.2110364,
  "lon": 4.3900794
},
{
  "type": "node",
  "id": 603033959,
  "lat": 51.2110093,
  "lon": 4.3900878
},
{
  "type": "node",
  "id": 603033960,
  "lat": 51.2109851,
  "lon": 4.3900798
},
{
  "type": "node",
  "id": 603033961,
  "lat": 51.2109646,
  "lon": 4.3900585
},
{
  "type": "node",
  "id": 603033962,
  "lat": 51.2110823,
  "lon": 4.3899740
},
{
  "type": "node",
  "id": 603033963,
  "lat": 51.2110939,
  "lon": 4.3900778
},
{
  "type": "node",
  "id": 603033964,
  "lat": 51.2110898,
  "lon": 4.3899728
},
{
  "type": "node",
  "id": 603033965,
  "lat": 51.2114337,
  "lon": 4.3896462
},
{
  "type": "node",
  "id": 603033966,
  "lat": 51.2117074,
  "lon": 4.3896189
},
{
  "type": "node",
  "id": 603033967,
  "lat": 51.2118107,
  "lon": 4.3897622
},
{
  "type": "node",
  "id": 603033968,
  "lat": 51.2116365,
  "lon": 4.3897773
},
{
  "type": "node",
  "id": 603033969,
  "lat": 51.2118179,
  "lon": 4.3897445
},
{
  "type": "node",
  "id": 603033970,
  "lat": 51.2119546,
  "lon": 4.3899253
},
{
  "type": "node",
  "id": 603033971,
  "lat": 51.2117703,
  "lon": 4.3899883
},
{
  "type": "node",
  "id": 603033972,
  "lat": 51.2119469,
  "lon": 4.3899716
},
{
  "type": "node",
  "id": 603033973,
  "lat": 51.2117708,
  "lon": 4.3900100
},
{
  "type": "node",
  "id": 603033974,
  "lat": 51.2115326,
  "lon": 4.3894228
},
{
  "type": "node",
  "id": 603033975,
  "lat": 51.2114418,
  "lon": 4.3893238
},
{
  "type": "node",
  "id": 4899241171,
  "lat": 51.2113952,
  "lon": 4.3894338
},
{
  "type": "node",
  "id": 4899241174,
  "lat": 51.2110803,
  "lon": 4.3899966
},
{
  "type": "node",
  "id": 4899241175,
  "lat": 51.2110723,
  "lon": 4.3900318
},
{
  "type": "node",
  "id": 4899241176,
  "lat": 51.2110660,
  "lon": 4.3900456
},
{
  "type": "node",
  "id": 4899241177,
  "lat": 51.2110461,
  "lon": 4.3900724
},
{
  "type": "node",
  "id": 4899241178,
  "lat": 51.2110215,
  "lon": 4.3900858
},
{
  "type": "node",
  "id": 4899241179,
  "lat": 51.2109954,
  "lon": 4.3900841
},
{
  "type": "node",
  "id": 4899241180,
  "lat": 51.2109749,
  "lon": 4.3900714
},
{
  "type": "node",
  "id": 4899241181,
  "lat": 51.2109576,
  "lon": 4.3900479
},
{
  "type": "node",
  "id": 4899241182,
  "lat": 51.2109505,
  "lon": 4.3900318
},
{
  "type": "node",
  "id": 4899241183,
  "lat": 51.2109406,
  "lon": 4.3899708
},
{
  "type": "node",
  "id": 4899241184,
  "lat": 51.2109450,
  "lon": 4.3899346
},
{
  "type": "node",
  "id": 4899241185,
  "lat": 51.2109704,
  "lon": 4.3898823
},
{
  "type": "node",
  "id": 4899241186,
  "lat": 51.2109914,
  "lon": 4.3898669
},
{
  "type": "node",
  "id": 4899241187,
  "lat": 51.2109996,
  "lon": 4.3898632
},
{
  "type": "node",
  "id": 4899241188,
  "lat": 51.2110259,
  "lon": 4.3898652
},
{
  "type": "node",
  "id": 4899241189,
  "lat": 51.2110393,
  "lon": 4.3898710
},
{
  "type": "node",
  "id": 4908599760,
  "lat": 51.2114323,
  "lon": 4.3900417
},
{
  "type": "node",
  "id": 251191922,
  "lat": 51.2085269,
  "lon": 4.3939901
},
{
  "type": "node",
  "id": 251191923,
  "lat": 51.2079304,
  "lon": 4.3952231
},
{
  "type": "node",
  "id": 251191924,
  "lat": 51.2083746,
  "lon": 4.3957689
},
{
  "type": "node",
  "id": 251191925,
  "lat": 51.2089740,
  "lon": 4.3945401
},
{
  "type": "node",
  "id": 251191927,
  "lat": 51.2089224,
  "lon": 4.3943321
},
{
  "type": "node",
  "id": 251191928,
  "lat": 51.2086678,
  "lon": 4.3940141
},
{
  "type": "node",
  "id": 251191929,
  "lat": 51.2086386,
  "lon": 4.3940772
},
{
  "type": "node",
  "id": 717698407,
  "lat": 51.2088944,
  "lon": 4.3943887
},
{
  "type": "node",
  "id": 4503792369,
  "lat": 51.2085209,
  "lon": 4.3939816
},
{
  "type": "node",
  "id": 4503792370,
  "lat": 51.2084471,
  "lon": 4.3941315
},
{
  "type": "node",
  "id": 4503792371,
  "lat": 51.2084536,
  "lon": 4.3941399
},
{
  "type": "node",
  "id": 4503792372,
  "lat": 51.2084518,
  "lon": 4.3941436
},
{
  "type": "node",
  "id": 4503792373,
  "lat": 51.2084540,
  "lon": 4.3941463
},
{
  "type": "node",
  "id": 4503792374,
  "lat": 51.2080516,
  "lon": 4.3949732
},
{
  "type": "node",
  "id": 4503792375,
  "lat": 51.2080438,
  "lon": 4.3949623
},
{
  "type": "node",
  "id": 4503792376,
  "lat": 51.2079704,
  "lon": 4.3951117
},
{
  "type": "node",
  "id": 4503792377,
  "lat": 51.2079774,
  "lon": 4.3951216
},
{
  "type": "node",
  "id": 4503792378,
  "lat": 51.2079757,
  "lon": 4.3951248
},
{
  "type": "node",
  "id": 4503792379,
  "lat": 51.2079776,
  "lon": 4.3951273
},
{
  "type": "node",
  "id": 4503792380,
  "lat": 51.2079554,
  "lon": 4.3951713
},
{
  "type": "node",
  "id": 4503792381,
  "lat": 51.2079539,
  "lon": 4.3951689
},
{
  "type": "node",
  "id": 4503792382,
  "lat": 51.2079299,
  "lon": 4.3952178
},
{
  "type": "node",
  "id": 4503792383,
  "lat": 51.2079318,
  "lon": 4.3952207
},
{
  "type": "node",
  "id": 4503792384,
  "lat": 51.2079610,
  "lon": 4.3952615
},
{
  "type": "node",
  "id": 4503792385,
  "lat": 51.2079628,
  "lon": 4.3952571
},
{
  "type": "node",
  "id": 4503792386,
  "lat": 51.2080843,
  "lon": 4.3954081
},
{
  "type": "node",
  "id": 4503792387,
  "lat": 51.2080745,
  "lon": 4.3954277
},
{
  "type": "node",
  "id": 4503792388,
  "lat": 51.2082105,
  "lon": 4.3955923
},
{
  "type": "node",
  "id": 4503792489,
  "lat": 51.2082192,
  "lon": 4.3955736
},
{
  "type": "node",
  "id": 4503792490,
  "lat": 51.2084212,
  "lon": 4.3956701
},
{
  "type": "node",
  "id": 4503792491,
  "lat": 51.2084296,
  "lon": 4.3956804
},
{
  "type": "node",
  "id": 4503792492,
  "lat": 51.2084479,
  "lon": 4.3956416
},
{
  "type": "node",
  "id": 4503792493,
  "lat": 51.2084848,
  "lon": 4.3956865
},
{
  "type": "node",
  "id": 4503792494,
  "lat": 51.2085199,
  "lon": 4.3956113
},
{
  "type": "node",
  "id": 4503792495,
  "lat": 51.2084838,
  "lon": 4.3955656
},
{
  "type": "node",
  "id": 4503792496,
  "lat": 51.2085025,
  "lon": 4.3955261
},
{
  "type": "node",
  "id": 4503792497,
  "lat": 51.2084944,
  "lon": 4.3955160
},
{
  "type": "node",
  "id": 4503792498,
  "lat": 51.2088993,
  "lon": 4.3946901
},
{
  "type": "node",
  "id": 4503792499,
  "lat": 51.2089068,
  "lon": 4.3946998
},
{
  "type": "node",
  "id": 4503792500,
  "lat": 51.2089804,
  "lon": 4.3945484
},
{
  "type": "node",
  "id": 4503792501,
  "lat": 51.2089912,
  "lon": 4.3945020
},
{
  "type": "node",
  "id": 4503792502,
  "lat": 51.2085745,
  "lon": 4.3939964
},
{
  "type": "node",
  "id": 4503792503,
  "lat": 51.2085775,
  "lon": 4.3939902
},
{
  "type": "node",
  "id": 4503792504,
  "lat": 51.2085445,
  "lon": 4.3939467
},
{
  "type": "node",
  "id": 360252638,
  "lat": 51.2183433,
  "lon": 4.3976646
},
{
  "type": "node",
  "id": 360252640,
  "lat": 51.2186838,
  "lon": 4.3978995
},
{
  "type": "node",
  "id": 360252642,
  "lat": 51.2186599,
  "lon": 4.3982718
},
{
  "type": "node",
  "id": 1897185420,
  "lat": 51.2182786,
  "lon": 4.3978632
},
{
  "type": "node",
  "id": 1897185538,
  "lat": 51.2182182,
  "lon": 4.3981004
},
{
  "type": "node",
  "id": 2616466240,
  "lat": 51.2183193,
  "lon": 4.3979660
},
{
  "type": "node",
  "id": 2616466245,
  "lat": 51.2183481,
  "lon": 4.3979830
},
{
  "type": "node",
  "id": 2616466247,
  "lat": 51.2183586,
  "lon": 4.3979434
},
{
  "type": "node",
  "id": 2616466249,
  "lat": 51.2183855,
  "lon": 4.3977460
},
{
  "type": "node",
  "id": 2616466250,
  "lat": 51.2185911,
  "lon": 4.3983492
},
{
  "type": "node",
  "id": 2616466252,
  "lat": 51.2185838,
  "lon": 4.3980927
},
{
  "type": "node",
  "id": 2616466253,
  "lat": 51.2185797,
  "lon": 4.3982134
},
{
  "type": "node",
  "id": 2616466254,
  "lat": 51.2186276,
  "lon": 4.3979503
},
{
  "type": "node",
  "id": 4887686677,
  "lat": 51.2185230,
  "lon": 4.3977624
},
{
  "type": "node",
  "id": 4887686678,
  "lat": 51.2185942,
  "lon": 4.3978151
},
{
  "type": "node",
  "id": 4887686679,
  "lat": 51.2186017,
  "lon": 4.3977889
},
{
  "type": "node",
  "id": 4887686680,
  "lat": 51.2186414,
  "lon": 4.3978172
},
{
  "type": "node",
  "id": 4887686681,
  "lat": 51.2186850,
  "lon": 4.3976857
},
{
  "type": "node",
  "id": 4887686682,
  "lat": 51.2187367,
  "lon": 4.3977354
},
{
  "type": "node",
  "id": 4887686683,
  "lat": 51.2185152,
  "lon": 4.3977858
},
{
  "type": "node",
  "id": 4887765784,
  "lat": 51.2182423,
  "lon": 4.3979856
},
{
  "type": "node",
  "id": 4887765785,
  "lat": 51.2182444,
  "lon": 4.3979866
},
{
  "type": "node",
  "id": 4887766654,
  "lat": 51.2187309,
  "lon": 4.3977301
},
{
  "type": "node",
  "id": 4887766675,
  "lat": 51.2187336,
  "lon": 4.3977461
},
{
  "type": "node",
  "id": 4887766680,
  "lat": 51.2186212,
  "lon": 4.3980883
},
{
  "type": "node",
  "id": 4887766682,
  "lat": 51.2185998,
  "lon": 4.3981527
},
{
  "type": "node",
  "id": 319737484,
  "lat": 51.2230708,
  "lon": 4.3972848
},
{
  "type": "node",
  "id": 319737481,
  "lat": 51.2247746,
  "lon": 4.3983804
},
{
  "type": "node",
  "id": 319737482,
  "lat": 51.2246341,
  "lon": 4.3989323
},
{
  "type": "node",
  "id": 319737483,
  "lat": 51.2229309,
  "lon": 4.3978317
},
{
  "type": "node",
  "id": 1903126915,
  "lat": 51.2227261,
  "lon": 4.3989222
},
{
  "type": "node",
  "id": 1903126924,
  "lat": 51.2226897,
  "lon": 4.3995082
},
{
  "type": "node",
  "id": 1903126931,
  "lat": 51.2225237,
  "lon": 4.3994719
},
{
  "type": "node",
  "id": 1903127006,
  "lat": 51.2228473,
  "lon": 4.3990004
},
{
  "type": "node",
  "id": 4761993319,
  "lat": 51.2228280,
  "lon": 4.3990684
},
{
  "type": "node",
  "id": 4761993320,
  "lat": 51.2226955,
  "lon": 4.3989619
},
{
  "type": "node",
  "id": 4870284769,
  "lat": 51.2226738,
  "lon": 4.3995559
},
{
  "type": "node",
  "id": 4870284770,
  "lat": 51.2226770,
  "lon": 4.3995665
},
{
  "type": "node",
  "id": 4870284771,
  "lat": 51.2226745,
  "lon": 4.3995896
},
{
  "type": "node",
  "id": 4870284772,
  "lat": 51.2226602,
  "lon": 4.3995956
},
{
  "type": "node",
  "id": 4870284773,
  "lat": 51.2226499,
  "lon": 4.3995828
},
{
  "type": "node",
  "id": 4870284774,
  "lat": 51.2226507,
  "lon": 4.3995713
},
{
  "type": "node",
  "id": 4870284775,
  "lat": 51.2226044,
  "lon": 4.3995356
},
{
  "type": "node",
  "id": 4870284776,
  "lat": 51.2225994,
  "lon": 4.3995513
},
{
  "type": "node",
  "id": 4870284777,
  "lat": 51.2225895,
  "lon": 4.3995434
},
{
  "type": "node",
  "id": 4870284778,
  "lat": 51.2225945,
  "lon": 4.3995282
},
{
  "type": "node",
  "id": 4870284779,
  "lat": 51.2225489,
  "lon": 4.3994927
},
{
  "type": "node",
  "id": 4870284780,
  "lat": 51.2225445,
  "lon": 4.3994994
},
{
  "type": "node",
  "id": 4870284781,
  "lat": 51.2225290,
  "lon": 4.3994956
},
{
  "type": "node",
  "id": 4870284782,
  "lat": 51.2225327,
  "lon": 4.3994537
},
{
  "type": "node",
  "id": 4870284783,
  "lat": 51.2225388,
  "lon": 4.3994553
},
{
  "type": "node",
  "id": 4870284784,
  "lat": 51.2226014,
  "lon": 4.3992604
},
{
  "type": "node",
  "id": 4870284785,
  "lat": 51.2225871,
  "lon": 4.3992494
},
{
  "type": "node",
  "id": 4870284786,
  "lat": 51.2225826,
  "lon": 4.3992302
},
{
  "type": "node",
  "id": 4870284787,
  "lat": 51.2225879,
  "lon": 4.3992114
},
{
  "type": "node",
  "id": 4870284788,
  "lat": 51.2226008,
  "lon": 4.3992046
},
{
  "type": "node",
  "id": 4870284789,
  "lat": 51.2226145,
  "lon": 4.3992164
},
{
  "type": "node",
  "id": 4870284790,
  "lat": 51.2226813,
  "lon": 4.3990043
},
{
  "type": "node",
  "id": 4870284791,
  "lat": 51.2226716,
  "lon": 4.3989963
},
{
  "type": "node",
  "id": 4870284792,
  "lat": 51.2226761,
  "lon": 4.3989822
},
{
  "type": "node",
  "id": 4870284793,
  "lat": 51.2226856,
  "lon": 4.3989908
},
{
  "type": "node",
  "id": 4870284794,
  "lat": 51.2227044,
  "lon": 4.3989314
},
{
  "type": "node",
  "id": 4870284795,
  "lat": 51.2227006,
  "lon": 4.3989278
},
{
  "type": "node",
  "id": 4870284796,
  "lat": 51.2227277,
  "lon": 4.3989113
},
{
  "type": "node",
  "id": 4870284797,
  "lat": 51.2227180,
  "lon": 4.3988972
},
{
  "type": "node",
  "id": 4870284798,
  "lat": 51.2227036,
  "lon": 4.3989049
},
{
  "type": "node",
  "id": 4870284799,
  "lat": 51.2227741,
  "lon": 4.3989596
},
{
  "type": "node",
  "id": 4870284800,
  "lat": 51.2227783,
  "lon": 4.3989453
},
{
  "type": "node",
  "id": 4870284801,
  "lat": 51.2227871,
  "lon": 4.3989524
},
{
  "type": "node",
  "id": 4870284802,
  "lat": 51.2227828,
  "lon": 4.3989673
},
{
  "type": "node",
  "id": 4870284803,
  "lat": 51.2228295,
  "lon": 4.3990035
},
{
  "type": "node",
  "id": 4870284804,
  "lat": 51.2228332,
  "lon": 4.3989961
},
{
  "type": "node",
  "id": 4870284805,
  "lat": 51.2228515,
  "lon": 4.3990229
},
{
  "type": "node",
  "id": 4870284806,
  "lat": 51.2228422,
  "lon": 4.3990397
},
{
  "type": "node",
  "id": 4870284807,
  "lat": 51.2228373,
  "lon": 4.3990390
},
{
  "type": "node",
  "id": 4870284808,
  "lat": 51.2228191,
  "lon": 4.3990977
},
{
  "type": "node",
  "id": 4870284809,
  "lat": 51.2228292,
  "lon": 4.3991052
},
{
  "type": "node",
  "id": 4870284810,
  "lat": 51.2228250,
  "lon": 4.3991191
},
{
  "type": "node",
  "id": 4870284811,
  "lat": 51.2228148,
  "lon": 4.3991114
},
{
  "type": "node",
  "id": 4870284812,
  "lat": 51.2227949,
  "lon": 4.3991782
},
{
  "type": "node",
  "id": 4870284813,
  "lat": 51.2228047,
  "lon": 4.3991861
},
{
  "type": "node",
  "id": 4870284814,
  "lat": 51.2228000,
  "lon": 4.3991982
},
{
  "type": "node",
  "id": 4870284815,
  "lat": 51.2227891,
  "lon": 4.3991901
},
{
  "type": "node",
  "id": 4870284816,
  "lat": 51.2226999,
  "lon": 4.3995168
},
{
  "type": "node",
  "id": 4870284817,
  "lat": 51.2227041,
  "lon": 4.3995044
},
{
  "type": "node",
  "id": 4870284818,
  "lat": 51.2226939,
  "lon": 4.3994938
},
{
  "type": "node",
  "id": 4870284922,
  "lat": 51.2226559,
  "lon": 4.3990851
},
{
  "type": "node",
  "id": 4870284923,
  "lat": 51.2226606,
  "lon": 4.3990697
},
{
  "type": "node",
  "id": 4870284924,
  "lat": 51.2226346,
  "lon": 4.3991511
},
{
  "type": "node",
  "id": 4870284925,
  "lat": 51.2226302,
  "lon": 4.3991657
},
{
  "type": "node",
  "id": 4870284926,
  "lat": 51.2226215,
  "lon": 4.3991586
},
{
  "type": "node",
  "id": 4870284927,
  "lat": 51.2226253,
  "lon": 4.3991446
},
{
  "type": "node",
  "id": 4870284928,
  "lat": 51.2226506,
  "lon": 4.3990632
},
{
  "type": "node",
  "id": 4870284929,
  "lat": 51.2226465,
  "lon": 4.3990774
},
{
  "type": "node",
  "id": 4870284930,
  "lat": 51.2225844,
  "lon": 4.3993119
},
{
  "type": "node",
  "id": 4870284931,
  "lat": 51.2225801,
  "lon": 4.3993262
},
{
  "type": "node",
  "id": 4870284932,
  "lat": 51.2225596,
  "lon": 4.3993925
},
{
  "type": "node",
  "id": 4870284933,
  "lat": 51.2225556,
  "lon": 4.3994048
},
{
  "type": "node",
  "id": 4870284934,
  "lat": 51.2225447,
  "lon": 4.3993965
},
{
  "type": "node",
  "id": 4870284935,
  "lat": 51.2225489,
  "lon": 4.3993835
},
{
  "type": "node",
  "id": 4870284936,
  "lat": 51.2225698,
  "lon": 4.3993177
},
{
  "type": "node",
  "id": 4870284937,
  "lat": 51.2225744,
  "lon": 4.3993040
},
{
  "type": "node",
  "id": 4870284938,
  "lat": 51.2227130,
  "lon": 4.3994336
},
{
  "type": "node",
  "id": 4870284939,
  "lat": 51.2227173,
  "lon": 4.3994195
},
{
  "type": "node",
  "id": 4870284940,
  "lat": 51.2227389,
  "lon": 4.3993531
},
{
  "type": "node",
  "id": 4870284941,
  "lat": 51.2227435,
  "lon": 4.3993384
},
{
  "type": "node",
  "id": 4870284942,
  "lat": 51.2227644,
  "lon": 4.3992715
},
{
  "type": "node",
  "id": 4870284943,
  "lat": 51.2227688,
  "lon": 4.3992579
},
{
  "type": "node",
  "id": 4870284944,
  "lat": 51.2227790,
  "lon": 4.3992669
},
{
  "type": "node",
  "id": 4870284945,
  "lat": 51.2227748,
  "lon": 4.3992797
},
{
  "type": "node",
  "id": 4870284946,
  "lat": 51.2227538,
  "lon": 4.3993467
},
{
  "type": "node",
  "id": 4870284947,
  "lat": 51.2227491,
  "lon": 4.3993615
},
{
  "type": "node",
  "id": 4870284948,
  "lat": 51.2227275,
  "lon": 4.3994279
},
{
  "type": "node",
  "id": 4870284949,
  "lat": 51.2227236,
  "lon": 4.3994408
},
{
  "type": "node",
  "id": 4294261105,
  "lat": 51.3285251,
  "lon": 4.2277923
},
{
  "type": "node",
  "id": 4294261106,
  "lat": 51.3285045,
  "lon": 4.2279183
},
{
  "type": "node",
  "id": 4294261107,
  "lat": 51.3281744,
  "lon": 4.2277601
},
{
  "type": "node",
  "id": 4294261108,
  "lat": 51.3281972,
  "lon": 4.2276392
},
{
  "type": "node",
  "id": 573926758,
  "lat": 51.3349641,
  "lon": 4.2356768
},
{
  "type": "node",
  "id": 573926838,
  "lat": 51.3350528,
  "lon": 4.2358085
},
{
  "type": "node",
  "id": 573926840,
  "lat": 51.3351059,
  "lon": 4.2357187
},
{
  "type": "node",
  "id": 573926842,
  "lat": 51.3350156,
  "lon": 4.2355889
},
{
  "type": "node",
  "id": 5706206687,
  "lat": 51.3350601,
  "lon": 4.2357962
},
{
  "type": "node",
  "id": 1731761219,
  "lat": 51.3043687,
  "lon": 4.2897564
},
{
  "type": "node",
  "id": 1731761221,
  "lat": 51.3043051,
  "lon": 4.2896874
},
{
  "type": "node",
  "id": 1731761222,
  "lat": 51.3043279,
  "lon": 4.2898501
},
{
  "type": "node",
  "id": 1731761224,
  "lat": 51.3042699,
  "lon": 4.2896514
},
{
  "type": "node",
  "id": 1731761225,
  "lat": 51.3042779,
  "lon": 4.2897563
},
{
  "type": "node",
  "id": 1731761226,
  "lat": 51.3044285,
  "lon": 4.2896192
},
{
  "type": "node",
  "id": 1731761229,
  "lat": 51.3042315,
  "lon": 4.2897491
},
{
  "type": "node",
  "id": 1731761230,
  "lat": 51.3042903,
  "lon": 4.2898618
},
{
  "type": "node",
  "id": 1731761231,
  "lat": 51.3043162,
  "lon": 4.2897942
},
{
  "type": "node",
  "id": 1731761232,
  "lat": 51.3043118,
  "lon": 4.2898876
},
{
  "type": "node",
  "id": 4095949982,
  "lat": 51.3041935,
  "lon": 4.2897097
},
{
  "type": "node",
  "id": 4095950289,
  "lat": 51.3042899,
  "lon": 4.2894758
},
{
  "type": "node",
  "id": 4095950293,
  "lat": 51.3043248,
  "lon": 4.2899031
},
{
  "type": "node",
  "id": 4095950294,
  "lat": 51.3043406,
  "lon": 4.2898658
},
{
  "type": "node",
  "id": 4095950305,
  "lat": 51.3044295,
  "lon": 4.2896168
},
{
  "type": "node",
  "id": 4095950308,
  "lat": 51.3044403,
  "lon": 4.2898318
},
{
  "type": "node",
  "id": 4095950310,
  "lat": 51.3044603,
  "lon": 4.2897884
},
{
  "type": "node",
  "id": 4095950314,
  "lat": 51.3045019,
  "lon": 4.2896987
},
{
  "type": "node",
  "id": 258612279,
  "lat": 51.1990722,
  "lon": 4.4403567
},
{
  "type": "node",
  "id": 258612280,
  "lat": 51.1992077,
  "lon": 4.4401083
},
{
  "type": "node",
  "id": 258612281,
  "lat": 51.1997137,
  "lon": 4.4397189
},
{
  "type": "node",
  "id": 258612282,
  "lat": 51.1998092,
  "lon": 4.4407752
},
{
  "type": "node",
  "id": 258612283,
  "lat": 51.1993062,
  "lon": 4.4409902
},
{
  "type": "node",
  "id": 567457100,
  "lat": 51.1997421,
  "lon": 4.4400455
},
{
  "type": "node",
  "id": 567457774,
  "lat": 51.1993621,
  "lon": 4.4409675
},
{
  "type": "node",
  "id": 567457775,
  "lat": 51.1996255,
  "lon": 4.4408542
},
{
  "type": "node",
  "id": 567457907,
  "lat": 51.1991390,
  "lon": 4.4405254
},
{
  "type": "node",
  "id": 567457909,
  "lat": 51.1991013,
  "lon": 4.4405409
},
{
  "type": "node",
  "id": 5026786976,
  "lat": 51.1997356,
  "lon": 4.4399678
},
{
  "type": "node",
  "id": 5028730846,
  "lat": 51.1997538,
  "lon": 4.4407993
},
{
  "type": "node",
  "id": 5028730851,
  "lat": 51.1991724,
  "lon": 4.4406205
},
{
  "type": "node",
  "id": 5028730853,
  "lat": 51.1991868,
  "lon": 4.4406603
},
{
  "type": "node",
  "id": 5028730855,
  "lat": 51.1992063,
  "lon": 4.4407142
},
{
  "type": "node",
  "id": 5028730857,
  "lat": 51.1992307,
  "lon": 4.4407815
},
{
  "type": "node",
  "id": 5028730859,
  "lat": 51.1992531,
  "lon": 4.4408436
},
{
  "type": "node",
  "id": 5028730861,
  "lat": 51.1992762,
  "lon": 4.4409072
},
{
  "type": "node",
  "id": 5028730862,
  "lat": 51.1993013,
  "lon": 4.4409767
},
{
  "type": "node",
  "id": 5028730891,
  "lat": 51.1991542,
  "lon": 4.4405702
},
{
  "type": "node",
  "id": 722749146,
  "lat": 51.2171892,
  "lon": 4.4089423
},
{
  "type": "node",
  "id": 722749149,
  "lat": 51.2168812,
  "lon": 4.4090896
},
{
  "type": "node",
  "id": 722749152,
  "lat": 51.2171952,
  "lon": 4.4090419
},
{
  "type": "node",
  "id": 722749155,
  "lat": 51.2168764,
  "lon": 4.4089890
},
{
  "type": "node",
  "id": 1847957092,
  "lat": 51.2154859,
  "lon": 4.4055124
},
{
  "type": "node",
  "id": 1847957094,
  "lat": 51.2154995,
  "lon": 4.4056584
},
{
  "type": "node",
  "id": 1847957103,
  "lat": 51.2155662,
  "lon": 4.4051452
},
{
  "type": "node",
  "id": 1847957105,
  "lat": 51.2156134,
  "lon": 4.4056315
},
{
  "type": "node",
  "id": 4863897463,
  "lat": 51.2154544,
  "lon": 4.4051802
},
{
  "type": "node",
  "id": 1323866818,
  "lat": 51.2222821,
  "lon": 4.4137272
},
{
  "type": "node",
  "id": 3959680502,
  "lat": 51.2230085,
  "lon": 4.4138502
},
{
  "type": "node",
  "id": 3959680503,
  "lat": 51.2219782,
  "lon": 4.4145515
},
{
  "type": "node",
  "id": 3959680504,
  "lat": 51.2221182,
  "lon": 4.4150559
},
{
  "type": "node",
  "id": 3959680515,
  "lat": 51.2230253,
  "lon": 4.4147337
},
{
  "type": "node",
  "id": 3959680516,
  "lat": 51.2230917,
  "lon": 4.4145790
},
{
  "type": "node",
  "id": 3959689990,
  "lat": 51.2230220,
  "lon": 4.4145719
},
{
  "type": "node",
  "id": 4866255644,
  "lat": 51.2218200,
  "lon": 4.4143843
},
{
  "type": "node",
  "id": 4866255645,
  "lat": 51.2220649,
  "lon": 4.4139426
},
{
  "type": "node",
  "id": 4866255646,
  "lat": 51.2222598,
  "lon": 4.4140065
},
{
  "type": "node",
  "id": 4866266673,
  "lat": 51.2230225,
  "lon": 4.4140121
},
{
  "type": "node",
  "id": 4866266674,
  "lat": 51.2230173,
  "lon": 4.4140769
},
{
  "type": "node",
  "id": 4866266675,
  "lat": 51.2230623,
  "lon": 4.4140857
},
{
  "type": "node",
  "id": 4866266676,
  "lat": 51.2231113,
  "lon": 4.4140962
},
{
  "type": "node",
  "id": 4866266677,
  "lat": 51.2229982,
  "lon": 4.4140136
},
{
  "type": "node",
  "id": 276454587,
  "lat": 51.2291185,
  "lon": 4.4050001
},
{
  "type": "node",
  "id": 276454590,
  "lat": 51.2291030,
  "lon": 4.4044413
},
{
  "type": "node",
  "id": 276454591,
  "lat": 51.2287549,
  "lon": 4.4044668
},
{
  "type": "node",
  "id": 276454593,
  "lat": 51.2287677,
  "lon": 4.4050202
},
{
  "type": "node",
  "id": 3196891995,
  "lat": 51.2406599,
  "lon": 4.4396006
},
{
  "type": "node",
  "id": 3196891996,
  "lat": 51.2406065,
  "lon": 4.4396236
},
{
  "type": "node",
  "id": 3196891997,
  "lat": 51.2405447,
  "lon": 4.4392492
},
{
  "type": "node",
  "id": 3196891998,
  "lat": 51.2406065,
  "lon": 4.4392689
},
{
  "type": "node",
  "id": 3772998482,
  "lat": 51.2405651,
  "lon": 4.4393710
},
{
  "type": "node",
  "id": 3772998485,
  "lat": 51.2406185,
  "lon": 4.4393371
},
{
  "type": "node",
  "id": 2524513592,
  "lat": 51.2038811,
  "lon": 4.5211995
},
{
  "type": "node",
  "id": 2524513593,
  "lat": 51.2038911,
  "lon": 4.5207841
},
{
  "type": "node",
  "id": 2524513595,
  "lat": 51.2039740,
  "lon": 4.5212051
},
{
  "type": "node",
  "id": 2524513596,
  "lat": 51.2039840,
  "lon": 4.5207898
},
{
  "type": "node",
  "id": 3727913481,
  "lat": 51.3121135,
  "lon": 4.4257146
},
{
  "type": "node",
  "id": 3727913494,
  "lat": 51.3122788,
  "lon": 4.4257964
},
{
  "type": "node",
  "id": 3727913499,
  "lat": 51.3122835,
  "lon": 4.4261190
},
{
  "type": "node",
  "id": 3727913512,
  "lat": 51.3123578,
  "lon": 4.4260384
},
{
  "type": "node",
  "id": 4983890098,
  "lat": 51.3122511,
  "lon": 4.4258036
},
{
  "type": "node",
  "id": 4983890099,
  "lat": 51.3122415,
  "lon": 4.4257826
},
{
  "type": "node",
  "id": 4983890100,
  "lat": 51.3122884,
  "lon": 4.4258683
},
{
  "type": "node",
  "id": 4983890101,
  "lat": 51.3122843,
  "lon": 4.4258696
},
{
  "type": "node",
  "id": 4983890102,
  "lat": 51.3121698,
  "lon": 4.4258569
},
{
  "type": "node",
  "id": 4983890103,
  "lat": 51.3121742,
  "lon": 4.4258506
},
{
  "type": "node",
  "id": 4983890104,
  "lat": 51.3121742,
  "lon": 4.4256454
},
{
  "type": "node",
  "id": 4983890105,
  "lat": 51.3122364,
  "lon": 4.4257871
},
{
  "type": "node",
  "id": 935074303,
  "lat": 51.3345137,
  "lon": 4.5052429
},
{
  "type": "node",
  "id": 935074309,
  "lat": 51.3343863,
  "lon": 4.5048352
},
{
  "type": "node",
  "id": 935074313,
  "lat": 51.3341249,
  "lon": 4.5050284
},
{
  "type": "node",
  "id": 935074316,
  "lat": 51.3342456,
  "lon": 4.5054361
},
{
  "type": "node",
  "id": 935074334,
  "lat": 51.3341048,
  "lon": 4.5037087
},
{
  "type": "node",
  "id": 935074340,
  "lat": 51.3343796,
  "lon": 4.5046743
},
{
  "type": "node",
  "id": 935074344,
  "lat": 51.3341785,
  "lon": 4.5048245
},
{
  "type": "node",
  "id": 935074346,
  "lat": 51.3339037,
  "lon": 4.5038375
},
{
  "type": "node",
  "id": 5855395640,
  "lat": 51.3360426,
  "lon": 4.5073051
},
{
  "type": "node",
  "id": 5855395641,
  "lat": 51.3361097,
  "lon": 4.5075573
},
{
  "type": "node",
  "id": 5855395642,
  "lat": 51.3364273,
  "lon": 4.5073605
},
{
  "type": "node",
  "id": 5855395643,
  "lat": 51.3363664,
  "lon": 4.5070997
},
{
  "type": "node",
  "id": 5855400153,
  "lat": 51.3359425,
  "lon": 4.5076423
},
{
  "type": "node",
  "id": 5855400154,
  "lat": 51.3349857,
  "lon": 4.5083343
},
{
  "type": "node",
  "id": 5855400155,
  "lat": 51.3348684,
  "lon": 4.5078515
},
{
  "type": "node",
  "id": 5855400156,
  "lat": 51.3358319,
  "lon": 4.5071568
},
{
  "type": "node",
  "id": 5855402062,
  "lat": 51.3344394,
  "lon": 4.5064165
},
{
  "type": "node",
  "id": 5855402063,
  "lat": 51.3345634,
  "lon": 4.5068377
},
{
  "type": "node",
  "id": 5855402064,
  "lat": 51.3348499,
  "lon": 4.5066231
},
{
  "type": "node",
  "id": 5855402065,
  "lat": 51.3347259,
  "lon": 4.5061805
},
{
  "type": "node",
  "id": 3557188356,
  "lat": 51.3698876,
  "lon": 4.4893634
},
{
  "type": "node",
  "id": 3557188357,
  "lat": 51.3699241,
  "lon": 4.4895002
},
{
  "type": "node",
  "id": 3557188358,
  "lat": 51.3698579,
  "lon": 4.4895770
},
{
  "type": "node",
  "id": 3557188361,
  "lat": 51.3699580,
  "lon": 4.4897982
},
{
  "type": "node",
  "id": 3557188362,
  "lat": 51.3700010,
  "lon": 4.4897483
},
{
  "type": "node",
  "id": 3557188363,
  "lat": 51.3700289,
  "lon": 4.4898099
},
{
  "type": "node",
  "id": 3557188364,
  "lat": 51.3699862,
  "lon": 4.4898594
},
{
  "type": "node",
  "id": 3557188365,
  "lat": 51.3700513,
  "lon": 4.4900034
},
{
  "type": "node",
  "id": 3557188366,
  "lat": 51.3699907,
  "lon": 4.4900189
},
{
  "type": "node",
  "id": 3557188367,
  "lat": 51.3700066,
  "lon": 4.4900005
},
{
  "type": "node",
  "id": 3557188368,
  "lat": 51.3699044,
  "lon": 4.4901171
},
{
  "type": "node",
  "id": 3557188369,
  "lat": 51.3698538,
  "lon": 4.4901450
},
{
  "type": "node",
  "id": 3557188370,
  "lat": 51.3698271,
  "lon": 4.4900876
},
{
  "type": "node",
  "id": 3557188371,
  "lat": 51.3698718,
  "lon": 4.4900469
},
{
  "type": "node",
  "id": 3557188372,
  "lat": 51.3697696,
  "lon": 4.4898187
},
{
  "type": "node",
  "id": 3557188373,
  "lat": 51.3698564,
  "lon": 4.4897584
},
{
  "type": "node",
  "id": 3557188374,
  "lat": 51.3698946,
  "lon": 4.4898427
},
{
  "type": "node",
  "id": 3557188375,
  "lat": 51.3699216,
  "lon": 4.4898114
},
{
  "type": "node",
  "id": 3557188380,
  "lat": 51.3697468,
  "lon": 4.4894464
},
{
  "type": "node",
  "id": 3557188381,
  "lat": 51.3697940,
  "lon": 4.4893917
},
{
  "type": "node",
  "id": 3557188382,
  "lat": 51.3698179,
  "lon": 4.4894444
},
{
  "type": "node",
  "id": 3721663609,
  "lat": 51.3696657,
  "lon": 4.4896228
},
{
  "type": "node",
  "id": 3721663615,
  "lat": 51.3697121,
  "lon": 4.4897218
},
{
  "type": "node",
  "id": 3721663616,
  "lat": 51.3697235,
  "lon": 4.4897092
},
{
  "type": "node",
  "id": 3721663617,
  "lat": 51.3697314,
  "lon": 4.4897442
},
{
  "type": "node",
  "id": 3721663619,
  "lat": 51.3697488,
  "lon": 4.4897747
},
{
  "type": "node",
  "id": 3721663621,
  "lat": 51.3697640,
  "lon": 4.4897820
},
{
  "type": "node",
  "id": 3721663622,
  "lat": 51.3697712,
  "lon": 4.4895003
},
{
  "type": "node",
  "id": 3721663624,
  "lat": 51.3697820,
  "lon": 4.4897803
},
{
  "type": "node",
  "id": 3721663625,
  "lat": 51.3697914,
  "lon": 4.4897753
},
{
  "type": "node",
  "id": 3721663626,
  "lat": 51.3697935,
  "lon": 4.4896337
},
{
  "type": "node",
  "id": 3721663628,
  "lat": 51.3698008,
  "lon": 4.4897647
},
{
  "type": "node",
  "id": 3721663629,
  "lat": 51.3698077,
  "lon": 4.4897520
},
{
  "type": "node",
  "id": 3721663630,
  "lat": 51.3698086,
  "lon": 4.4897735
},
{
  "type": "node",
  "id": 3721663631,
  "lat": 51.3698122,
  "lon": 4.4897331
},
{
  "type": "node",
  "id": 3721663632,
  "lat": 51.3698129,
  "lon": 4.4896837
},
{
  "type": "node",
  "id": 3721663634,
  "lat": 51.3698153,
  "lon": 4.4897153
},
{
  "type": "node",
  "id": 3721663635,
  "lat": 51.3698206,
  "lon": 4.4898000
},
{
  "type": "node",
  "id": 3721663636,
  "lat": 51.3698256,
  "lon": 4.4895993
},
{
  "type": "node",
  "id": 3721663637,
  "lat": 51.3698276,
  "lon": 4.4900993
},
{
  "type": "node",
  "id": 3721663638,
  "lat": 51.3698297,
  "lon": 4.4901161
},
{
  "type": "node",
  "id": 3721663639,
  "lat": 51.3698302,
  "lon": 4.4900724
},
{
  "type": "node",
  "id": 3721663640,
  "lat": 51.3698345,
  "lon": 4.4901299
},
{
  "type": "node",
  "id": 3721663641,
  "lat": 51.3698370,
  "lon": 4.4900632
},
{
  "type": "node",
  "id": 3721663642,
  "lat": 51.3698432,
  "lon": 4.4900546
},
{
  "type": "node",
  "id": 3721663643,
  "lat": 51.3698434,
  "lon": 4.4901380
},
{
  "type": "node",
  "id": 3721663645,
  "lat": 51.3698526,
  "lon": 4.4900460
},
{
  "type": "node",
  "id": 3721663646,
  "lat": 51.3698609,
  "lon": 4.4900446
},
{
  "type": "node",
  "id": 3721663648,
  "lat": 51.3698655,
  "lon": 4.4901435
},
{
  "type": "node",
  "id": 3721663651,
  "lat": 51.3698765,
  "lon": 4.4901358
},
{
  "type": "node",
  "id": 3721663652,
  "lat": 51.3698831,
  "lon": 4.4901270
},
{
  "type": "node",
  "id": 3721663655,
  "lat": 51.3698893,
  "lon": 4.4901104
},
{
  "type": "node",
  "id": 3721663656,
  "lat": 51.3698904,
  "lon": 4.4900904
},
{
  "type": "node",
  "id": 3721663657,
  "lat": 51.3698952,
  "lon": 4.4900998
},
{
  "type": "node",
  "id": 3721663658,
  "lat": 51.3699033,
  "lon": 4.4894543
},
{
  "type": "node",
  "id": 3721663660,
  "lat": 51.3699200,
  "lon": 4.4894349
},
{
  "type": "node",
  "id": 3721663663,
  "lat": 51.3699329,
  "lon": 4.4899295
},
{
  "type": "node",
  "id": 3721663666,
  "lat": 51.3699602,
  "lon": 4.4898978
},
{
  "type": "node",
  "id": 3721663668,
  "lat": 51.3699787,
  "lon": 4.4900308
},
{
  "type": "node",
  "id": 3721663672,
  "lat": 51.3700070,
  "lon": 4.4900549
},
{
  "type": "node",
  "id": 6374102769,
  "lat": 51.3917579,
  "lon": 4.4637969
},
{
  "type": "node",
  "id": 6374102770,
  "lat": 51.3916887,
  "lon": 4.4638663
},
{
  "type": "node",
  "id": 6374102771,
  "lat": 51.3918229,
  "lon": 4.4642272
},
{
  "type": "node",
  "id": 6374102772,
  "lat": 51.3917320,
  "lon": 4.4643313
},
{
  "type": "node",
  "id": 6374102773,
  "lat": 51.3916064,
  "lon": 4.4640468
},
{
  "type": "node",
  "id": 6374102774,
  "lat": 51.3915241,
  "lon": 4.4641300
},
{
  "type": "node",
  "id": 6374102775,
  "lat": 51.3917363,
  "lon": 4.4646436
},
{
  "type": "node",
  "id": 6374102776,
  "lat": 51.3919961,
  "lon": 4.4643591
},
{
  "type": "node",
  "id": 6374103510,
  "lat": 51.3917803,
  "lon": 4.4642759
},
{
  "type": "node",
  "id": 644234031,
  "lat": 51.4580901,
  "lon": 4.4421581
},
{
  "type": "node",
  "id": 644234032,
  "lat": 51.4581404,
  "lon": 4.4421210
},
{
  "type": "node",
  "id": 644234034,
  "lat": 51.4580809,
  "lon": 4.4419132
},
{
  "type": "node",
  "id": 644234036,
  "lat": 51.4580305,
  "lon": 4.4419504
},
{
  "type": "node",
  "id": 3241512289,
  "lat": 51.2675706,
  "lon": 4.7119809
},
{
  "type": "node",
  "id": 3241519747,
  "lat": 51.2675238,
  "lon": 4.7119771
},
{
  "type": "node",
  "id": 5713938226,
  "lat": 51.2676718,
  "lon": 4.7120236
},
{
  "type": "node",
  "id": 5713938227,
  "lat": 51.2676922,
  "lon": 4.7120213
},
{
  "type": "node",
  "id": 5713938228,
  "lat": 51.2677087,
  "lon": 4.7120224
},
{
  "type": "node",
  "id": 5713938229,
  "lat": 51.2677299,
  "lon": 4.7120283
},
{
  "type": "node",
  "id": 5713938235,
  "lat": 51.2675856,
  "lon": 4.7119595
},
{
  "type": "node",
  "id": 3241519743,
  "lat": 51.2677671,
  "lon": 4.7121798
},
{
  "type": "node",
  "id": 3241519744,
  "lat": 51.2677598,
  "lon": 4.7123045
},
{
  "type": "node",
  "id": 3241519745,
  "lat": 51.2674964,
  "lon": 4.7121643
},
{
  "type": "node",
  "id": 3241519746,
  "lat": 51.2675189,
  "lon": 4.7120505
},
{
  "type": "node",
  "id": 3835498599,
  "lat": 51.2718001,
  "lon": 4.7145414
},
{
  "type": "node",
  "id": 3835498601,
  "lat": 51.2718213,
  "lon": 4.7144640
},
{
  "type": "node",
  "id": 3835498605,
  "lat": 51.2719243,
  "lon": 4.7145344
},
{
  "type": "node",
  "id": 3835498606,
  "lat": 51.2719432,
  "lon": 4.7144091
},
{
  "type": "node",
  "id": 3835498607,
  "lat": 51.2719462,
  "lon": 4.7143803
},
{
  "type": "node",
  "id": 3835498608,
  "lat": 51.2719449,
  "lon": 4.7144289
},
{
  "type": "node",
  "id": 3835498609,
  "lat": 51.2719496,
  "lon": 4.7144452
},
{
  "type": "node",
  "id": 3835498610,
  "lat": 51.2719535,
  "lon": 4.7143641
},
{
  "type": "node",
  "id": 3835498611,
  "lat": 51.2719619,
  "lon": 4.7143521
},
{
  "type": "node",
  "id": 3835498612,
  "lat": 51.2719735,
  "lon": 4.7143445
},
{
  "type": "node",
  "id": 3835498613,
  "lat": 51.2719841,
  "lon": 4.7143414
},
{
  "type": "node",
  "id": 3835498614,
  "lat": 51.2719890,
  "lon": 4.7144805
},
{
  "type": "node",
  "id": 3835498615,
  "lat": 51.2719909,
  "lon": 4.7144743
},
{
  "type": "node",
  "id": 3835498616,
  "lat": 51.2719934,
  "lon": 4.7143434
},
{
  "type": "node",
  "id": 3835498617,
  "lat": 51.2720037,
  "lon": 4.7144677
},
{
  "type": "node",
  "id": 3835498618,
  "lat": 51.2720021,
  "lon": 4.7143470
},
{
  "type": "node",
  "id": 3835498619,
  "lat": 51.2720018,
  "lon": 4.7145892
},
{
  "type": "node",
  "id": 3835498620,
  "lat": 51.2720119,
  "lon": 4.7144588
},
{
  "type": "node",
  "id": 3835498621,
  "lat": 51.2720113,
  "lon": 4.7143564
},
{
  "type": "node",
  "id": 3835498622,
  "lat": 51.2720196,
  "lon": 4.7144458
},
{
  "type": "node",
  "id": 3835498623,
  "lat": 51.2720186,
  "lon": 4.7143695
},
{
  "type": "node",
  "id": 3835498624,
  "lat": 51.2720240,
  "lon": 4.7143843
},
{
  "type": "node",
  "id": 3835498625,
  "lat": 51.2720239,
  "lon": 4.7144321
},
{
  "type": "node",
  "id": 3835498626,
  "lat": 51.2720261,
  "lon": 4.7144008
},
{
  "type": "node",
  "id": 3835498627,
  "lat": 51.2720261,
  "lon": 4.7144180
},
{
  "type": "node",
  "id": 3835498628,
  "lat": 51.2720247,
  "lon": 4.7145064
},
{
  "type": "node",
  "id": 5713306335,
  "lat": 51.2719972,
  "lon": 4.7144717
},
{
  "type": "node",
  "id": 5713306336,
  "lat": 51.2719442,
  "lon": 4.7143937
},
{
  "type": "node",
  "id": 5713938230,
  "lat": 51.2677456,
  "lon": 4.7120388
},
{
  "type": "node",
  "id": 5713938231,
  "lat": 51.2677616,
  "lon": 4.7120510
},
{
  "type": "node",
  "id": 5713938232,
  "lat": 51.2677741,
  "lon": 4.7120674
},
{
  "type": "node",
  "id": 5713938233,
  "lat": 51.2677872,
  "lon": 4.7120872
},
{
  "type": "node",
  "id": 5713938234,
  "lat": 51.2677843,
  "lon": 4.7121876
},
{
  "type": "node",
  "id": 5713938236,
  "lat": 51.2676520,
  "lon": 4.7121145
},
{
  "type": "node",
  "id": 5713938237,
  "lat": 51.2675805,
  "lon": 4.7120774
},
{
  "type": "node",
  "id": 3835498632,
  "lat": 51.2721464,
  "lon": 4.7147862
},
{
  "type": "node",
  "id": 3835498633,
  "lat": 51.2721678,
  "lon": 4.7147071
},
{
  "type": "node",
  "id": 1793010509,
  "lat": 51.3492019,
  "lon": 4.6432157
},
{
  "type": "node",
  "id": 1793010510,
  "lat": 51.3486323,
  "lon": 4.6430950
},
{
  "type": "node",
  "id": 1793010511,
  "lat": 51.3492169,
  "lon": 4.6431486
},
{
  "type": "node",
  "id": 1793010512,
  "lat": 51.3488450,
  "lon": 4.6426551
},
{
  "type": "node",
  "id": 2470692947,
  "lat": 51.4036525,
  "lon": 4.7640953
},
{
  "type": "node",
  "id": 2471701954,
  "lat": 51.4035560,
  "lon": 4.7642105
},
{
  "type": "node",
  "id": 2471701957,
  "lat": 51.4035957,
  "lon": 4.7639832
},
{
  "type": "node",
  "id": 2471701959,
  "lat": 51.4036333,
  "lon": 4.7642432
},
{
  "type": "node",
  "id": 2471701962,
  "lat": 51.4037124,
  "lon": 4.7641239
},
{
  "type": "node",
  "id": 2471701964,
  "lat": 51.4037267,
  "lon": 4.7640420
},
{
  "type": "way",
  "id": 32087290,
  "nodes": [
    360252638,
    4887686683,
    4887686677,
    4887686678,
    4887686679,
    4887686680,
    4887686681,
    4887766654,
    4887686682,
    4887766675,
    360252640,
    4887766680,
    4887766682,
    2616466253,
    360252642,
    2616466250,
    1897185538,
    4887765784,
    4887765785,
    1897185420,
    360252638
  ]
},
{
  "type": "way",
  "id": 255939101,
  "nodes": [
    2616466245,
    2616466240,
    2616466249,
    2616466254,
    2616466252,
    2616466247,
    2616466245
  ]
}

  ]
}
