{
  "version": 0.6,
  "generator": "Overpass API 0.7.55.9 ab41fea6",
  "osm3s": {
    "timestamp_osm_base": "2020-02-14T17:25:02Z",
    "copyright": "The data included in this document is from www.openstreetmap.org. The data is made available under ODbL."
  },
  "elements": [

{
  "type": "node",
  "id": 278996939,
  "lat": 55.9466315,
  "lon": 13.3747816,
  "tags": {
    "name": "Stockamöllans Industrimuseum",
    "tourism": "museum"
  }
},
{
  "type": "node",
  "id": 760721784,
  "lat": 55.8957804,
  "lon": 12.8042884,
  "tags": {
    "amenity": "restaurant",
    "name": "Pumphuset",
    "tourism": "museum"
  }
},
{
  "type": "node",
  "id": 949910419,
  "lat": 55.8395948,
  "lon": 13.3050099,
  "tags": {
    "tourism": "museum"
  }
},
{
  "type": "node",
  "id": 1279089429,
  "lat": 55.7044787,
  "lon": 13.2018560,
  "tags": {
    "contact:website": "http://www.botaniskatradgarden.se/",
    "name": "Botaniska trädgårdens museum",
    "operator": "Lunds universitet",
    "tourism": "museum",
    "website": "http://www.botaniskatradgarden.se/"
  }
},
{
  "type": "node",
  "id": 1883166254,
  "lat": 55.7059959,
  "lon": 13.1962677,
  "tags": {
    "addr:city": "Lund",
    "addr:country": "SE",
    "addr:housenumber": "9",
    "addr:street": "Sankt Annegatan",
    "alt_name": "E. H. Larsson Win & Delikatessaffär",
    "contact:phone": "+46-46-211 66 22",
    "contact:website": "http://www.kulturen.com/ovriga-besoksmal/hokeriet/",
    "fee": "no",
    "image": "http://www.kulturen.com/wp-content/uploads/2011/11/H%C3%B6keriet.jpg",
    "name": "Hökeriet",
    "opening_hours": "Sa-Su 12:00-16:00",
    "tourism": "museum",
    "wheelchair": "limited"
  }
},
{
  "type": "node",
  "id": 1901891762,
  "lat": 55.6670602,
  "lon": 13.1722999,
  "tags": {
    "tourism": "museum"
  }
},
{
  "type": "node",
  "id": 1985226638,
  "lat": 55.7089471,
  "lon": 13.1950799,
  "tags": {
    "addr:city": "Lund",
    "addr:country": "SE",
    "addr:housenumber": "5b",
    "addr:street": "Lasarettsgatan",
    "entrance": "yes",
    "name": "Livets Museum",
    "tourism": "museum"
  }
},
{
  "type": "node",
  "id": 2555515937,
  "lat": 55.5935244,
  "lon": 12.6749124,
  "tags": {
    "name": "Danmarks Lodsmuseum",
    "tourism": "museum",
    "wikidata": "Q12307241"
  }
},
{
  "type": "node",
  "id": 2555532563,
  "lat": 55.5951392,
  "lon": 12.6702093,
  "tags": {
    "fee": "no",
    "name": "Dragør Lokalarkiv",
    "tourism": "museum"
  }
},
{
  "type": "node",
  "id": 3203769160,
  "lat": 55.5000984,
  "lon": 13.5219482,
  "tags": {
    "name": "Johannamuseet",
    "tourism": "museum"
  }
},
{
  "type": "node",
  "id": 3414497893,
  "lat": 55.6059398,
  "lon": 13.0027471,
  "tags": {
    "name": "Teatermuseet",
    "opening_hours": "Th-Su 13:00-16:00",
    "tourism": "museum",
    "wikidata": "Q10576141"
  }
},
{
  "type": "node",
  "id": 3599580310,
  "lat": 55.5715454,
  "lon": 13.2065129,
  "tags": {
    "name": "Statarmuseet",
    "tourism": "museum",
    "wikidata": "Q26253299"
  }
},
{
  "type": "node",
  "id": 3726094585,
  "lat": 55.5934259,
  "lon": 12.6754921,
  "tags": {
    "name": "Lodsstationen",
    "tourism": "museum"
  }
},
{
  "type": "node",
  "id": 4366628717,
  "lat": 55.6574058,
  "lon": 13.0789652,
  "tags": {
    "addr:country": "SE",
    "addr:housenumber": "3",
    "addr:street": "Elevenborgsvägen",
    "name": "Alnarps Lantbruksmuseum",
    "tourism": "museum",
    "website": "http://www.alnarpsmuseerna.se/"
  }
},
{
  "type": "node",
  "id": 4895458698,
  "lat": 55.6047507,
  "lon": 12.9869844,
  "tags": {
    "addr:city": "Malmö",
    "addr:country": "SE",
    "addr:housenumber": "6",
    "addr:postcode": "211 18",
    "addr:street": "Malmöhusvägen",
    "name": "Malmö Museer Slottsholmen",
    "phone": "+46-40-344438",
    "tourism": "museum",
    "wheelchair": "yes"
  }
},
{
  "type": "node",
  "id": 5349775440,
  "lat": 55.5827535,
  "lon": 13.0103432,
  "tags": {
    "addr:city": "Malmö",
    "addr:country": "SE",
    "addr:housenumber": "15",
    "addr:street": "Ystadvägen",
    "name": "Oscar Olsson-museet",
    "tourism": "museum",
    "website": "http://www.oomuseet.se/",
    "wikidata": "Q17487669",
    "wikipedia": "sv:Oscar Olsson-museet"
  }
},
{
  "type": "node",
  "id": 5522015289,
  "lat": 55.5889206,
  "lon": 13.5602833,
  "tags": {
    "name": "Lilla Rödde Museum",
    "tourism": "museum",
    "wikidata": "Q28934203"
  }
},
{
  "type": "node",
  "id": 5993493203,
  "lat": 55.7070836,
  "lon": 13.1990561,
  "tags": {
    "addr:city": "Lund",
    "addr:country": "SE",
    "addr:housenumber": "3",
    "addr:postcode": "221 00",
    "addr:street": "Biskopsgatan",
    "name": "Antikmuseet",
    "tourism": "museum",
    "website": "http://bevaringsprogram.lund.se/wiki/bevaringsprogram/index.php/Klassiska_institutionen_och_Antikmuseet"
  }
},
{
  "type": "node",
  "id": 6171911185,
  "lat": 55.6110068,
  "lon": 13.0032287,
  "tags": {
    "addr:country": "SE",
    "addr:housenumber": "12",
    "addr:postcode": "21120",
    "addr:street": "Carlsgatan",
    "name:en": "Disgusting Food Museum",
    "opening_hours": "We-Su 12:00-18:00",
    "tourism": "museum",
    "website": "https://disgustingfoodmuseum.com/malmo/"
  }
},
{
  "type": "node",
  "id": 6614536664,
  "lat": 55.4978455,
  "lon": 13.4376142,
  "tags": {
    "name": "Flygmuseum Stenbäcks",
    "name:ru": "Музей авиации Стенбекс",
    "tourism": "museum"
  }
},
{
  "type": "node",
  "id": 6797013185,
  "lat": 55.6045029,
  "lon": 12.9992059,
  "tags": {
    "name:en": "Form Design centre",
    "tourism": "museum"
  }
},
{
  "type": "way",
  "id": 29856773,
  "nodes": [
    329006869,
    329006871,
    329006872,
    329006874,
    329006869
  ],
  "tags": {
    "building": "yes",
    "name": "Kommendanthuset",
    "tourism": "museum",
    "wheelchair": "yes",
    "wikidata": "Q17487666",
    "wikipedia": "sv:Kommendanthuset"
  }
},
{
  "type": "way",
  "id": 32876564,
  "nodes": [
    370319434,
    853524183,
    370319436,
    370319437,
    370319434
  ],
  "tags": {
    "building": "yes",
    "name": "Dragør Museum",
    "tourism": "museum",
    "url": "http://museumamager.dk/index.php/en/dragor-museum",
    "wikidata": "Q56613132"
  }
},
{
  "type": "way",
  "id": 39440935,
  "nodes": [
    472412850,
    472412853,
    472412854,
    1373851650,
    1373851647,
    472412856,
    3502026171,
    472412850
  ],
  "tags": {
    "addr:city": "Lund",
    "addr:country": "SE",
    "addr:housenumber": "1",
    "addr:street": "Krafts torg",
    "building": "yes",
    "name": "Historiska museet",
    "operator": "Lunds universitet",
    "tourism": "museum",
    "wheelchair": "limited",
    "wikidata": "Q3330592"
  }
},
{
  "type": "way",
  "id": 50139701,
  "nodes": [
    637290874,
    637290897,
    637290914,
    637290945,
    637290967,
    637290987,
    637291007,
    637291025,
    637291044,
    637300165,
    637291080,
    637291106,
    637291130,
    637291169,
    2582227199,
    637291202,
    637291230,
    637290874
  ],
  "tags": {
    "building": "yes",
    "name": "Teknikens och sjöfartens hus",
    "phone": "+46-40-344438",
    "toilets:wheelchair": "yes",
    "tourism": "museum",
    "wheelchair": "yes",
    "wikidata": "Q10692063",
    "wikipedia": "sv:Teknikens och sjöfartens hus"
  }
},
{
  "type": "way",
  "id": 88300237,
  "nodes": [
    1025606189,
    1029488872,
    3465709223,
    3465709245,
    3465709236,
    1029489115,
    1029489121,
    1029489141,
    1029489035,
    3465709221,
    3465709217,
    3465709213,
    3465709211,
    3465709212,
    3465709214,
    3465709219,
    3465709222,
    3465709225,
    1025606091,
    4697696344,
    4697696343,
    4697696346,
    4697696345,
    3465709247,
    3465709249,
    4697696348,
    4697696349,
    1025606189
  ],
  "tags": {
    "building": "yes",
    "name": "Skissernas museum",
    "operator": "Lunds universitet",
    "source": "Bing",
    "tourism": "museum",
    "wikidata": "Q683097"
  }
},
{
  "type": "way",
  "id": 93473493,
  "nodes": [
    795771514,
    795771336,
    795771584,
    795771561,
    795771342,
    544488804,
    795533901,
    1029437442,
    1029436417,
    795771426,
    795771226,
    3482232625,
    795771144,
    795771286,
    795771549,
    1240875369,
    1240875564,
    795771236,
    795771133,
    1974471223,
    1974471217,
    1974471213,
    1974471203,
    795771232,
    795771494,
    795771296,
    795771474,
    795771438,
    795771121,
    795771127,
    795771146,
    795771315,
    795771202,
    795771323,
    1973878964,
    795792139,
    1973878992,
    3770909741,
    1974471241,
    1974471243,
    795771264,
    795771250,
    795771326,
    795771235,
    795771559,
    795771577,
    795771514
  ],
  "tags": {
    "alt_name": "Kulturhistoriska museet",
    "contact:website": "http://www.kulturen.com/",
    "museum": "history",
    "name": "Kulturen",
    "official_name": "Kulturhistoriska föreningen för södra Sverige",
    "opening_hours": "May-Aug: Mo-Su 10:00-17:00; Sep-Apr: Tu-Su 12:00-16:00; Sep-Apr: Mo off; Dec 24,Dec 25,Dec 31,Jan 1 off",
    "start_date": "1892",
    "tourism": "museum",
    "wikidata": "Q1363442",
    "wikipedia": "sv:Kulturen"
  }
},
{
  "type": "way",
  "id": 208001743,
  "nodes": [
    2182978071,
    2182977959,
    2182977963,
    2182978075,
    2182978071
  ],
  "tags": {
    "name": "Möllegården kultur",
    "tourism": "museum"
  }
},
{
  "type": "way",
  "id": 211680568,
  "nodes": [
    2216508089,
    2216508093,
    2216508115,
    2216508113,
    2216508089
  ],
  "tags": {
    "building": "yes",
    "museum": "person",
    "tourism": "museum",
    "wikidata": "Q28934230"
  }
},
{
  "type": "way",
  "id": 231814765,
  "nodes": [
    2401456466,
    5052317539,
    2401456476,
    5052317537,
    5052317538,
    2401456506,
    2401456582,
    2401456663,
    2401456682,
    2401456696,
    2401456698,
    2401456694,
    2401456677,
    2401456669,
    2401456659,
    2401456587,
    2401456546,
    2401456532,
    2401456528,
    1088096433,
    1088096422,
    5052317531,
    5052317532,
    1088096421,
    5052317533,
    1088096420,
    2401456468,
    5052317540,
    2401456466
  ],
  "tags": {
    "contact:email": "info@foteviken.se",
    "contact:phone": "+46 40 330800",
    "contact:website": "http://www.fotevikensmuseum.se/",
    "name": "Fotevikens vikingamuseum",
    "tourism": "museum"
  }
},
{
  "type": "way",
  "id": 235266211,
  "nodes": [
    2433517207,
    2433517208,
    2433517205,
    2433517206,
    2433517201,
    2433517200,
    2433517202,
    2433517203,
    2433517207
  ],
  "tags": {
    "addr:city": "Löddeköpinge",
    "addr:country": "SE",
    "addr:housenumber": "12",
    "addr:street": "Landskronavägen",
    "building": "yes",
    "name": "Skolmuseet i Löddeköpinge",
    "tourism": "museum"
  }
},
{
  "type": "way",
  "id": 237117065,
  "nodes": [
    2450649125,
    2450649090,
    2450649074,
    2450649103,
    2450649125
  ],
  "tags": {
    "building": "yes",
    "name": "Landskrona museum",
    "tourism": "museum",
    "wikidata": "Q1253439"
  }
},
{
  "type": "way",
  "id": 256464711,
  "nodes": [
    2621288351,
    2621288462,
    2621288347,
    2621288257,
    2621288351
  ],
  "tags": {
    "building": "yes",
    "fee": "no",
    "name": "Saltholms Museum",
    "tourism": "museum",
    "wikimedia_commons": "File:SaltholmMuseum.jpg"
  }
},
{
  "type": "way",
  "id": 273859956,
  "nodes": [
    2786671022,
    2786671023,
    2786671011,
    2786671010,
    2786671017,
    2786671016,
    2786671008,
    2786671007,
    2786671018,
    2786671020,
    2786671022
  ],
  "tags": {
    "building": "yes",
    "name": "Gamlegård Hembygdsmuseum",
    "tourism": "museum"
  }
},
{
  "type": "way",
  "id": 308557140,
  "nodes": [
    3138211606,
    3138211633,
    3138211639,
    3138211258,
    3138211256,
    3138211249,
    3138211523,
    3138211597,
    3138211600,
    3138211606
  ],
  "tags": {
    "building": "yes",
    "name": "Mølsteds Museum",
    "tourism": "museum"
  }
},
{
  "type": "way",
  "id": 367503944,
  "nodes": [
    3714215575,
    3714215576,
    3714215577,
    3714215578,
    3714215579,
    3714215580,
    3714215581,
    3714215582,
    3714215583,
    3714215584,
    3714215585,
    3714215586,
    3714215587,
    3714215575
  ],
  "tags": {
    "building": "yes",
    "name": "Elisabeth K571",
    "tourism": "museum"
  }
},
{
  "type": "way",
  "id": 495825859,
  "nodes": [
    4875620599,
    4875620598,
    4875620597,
    4875620596,
    4875620599
  ],
  "tags": {
    "addr:city": "Eslöv",
    "addr:country": "SE",
    "addr:housenumber": "2",
    "addr:place": "Eslövs flygplats",
    "addr:postcode": "241 40",
    "addr:street": "Flygfältsvägen",
    "building": "yes",
    "name": "Mellanskånes Hemvärnsmuseum",
    "tourism": "museum"
  }
},
{
  "type": "way",
  "id": 622466023,
  "nodes": [
    5879580522,
    5879580521,
    5879580520,
    5879580519,
    5879580518,
    5879580517,
    5879580516,
    5879580515,
    5879580514,
    5879580513,
    5879580512,
    5879580511,
    5879580510,
    5879580522
  ],
  "tags": {
    "name": "Soldattorpet",
    "operator": "Limhamns museieförening",
    "tourism": "museum"
  }
},
{
  "type": "way",
  "id": 676191416,
  "nodes": [
    4598960415,
    4598960412,
    668106026,
    6332548900,
    4598960408,
    4598960409,
    6332548899,
    4598960414,
    4598960415
  ],
  "tags": {
    "building": "yes",
    "man_made": "watermill",
    "name": "Höörs Mölla",
    "tourism": "museum",
    "wikidata": "Q28934178"
  }
},
{
  "type": "way",
  "id": 681243145,
  "nodes": [
    6379423476,
    6379423478,
    6379423477,
    6379423479,
    6379423476
  ],
  "tags": {
    "building": "yes",
    "name": "Ebbas hus",
    "tourism": "museum",
    "wikidata": "Q10478963",
    "wikipedia": "sv:Ebbas hus"
  }
},
{
  "type": "relation",
  "id": 1364131,
  "members": [
    {
      "type": "way",
      "ref": 93981885,
      "role": "inner"
    },
    {
      "type": "way",
      "ref": 93981881,
      "role": "outer"
    }
  ],
  "tags": {
    "addr:city": "Lund",
    "addr:country": "SE",
    "addr:housenumber": "3b",
    "addr:street": "Mårtenstorget",
    "amenity": "arts_centre",
    "building": "yes",
    "name": "Konsthallen",
    "tourism": "museum",
    "type": "multipolygon"
  }
},
{
  "type": "node",
  "id": 1088096420,
  "lat": 55.4279700,
  "lon": 12.9522937
},
{
  "type": "node",
  "id": 1088096421,
  "lat": 55.4281730,
  "lon": 12.9523890
},
{
  "type": "node",
  "id": 1088096422,
  "lat": 55.4283082,
  "lon": 12.9527971
},
{
  "type": "node",
  "id": 1088096433,
  "lat": 55.4284205,
  "lon": 12.9536517
},
{
  "type": "node",
  "id": 2401456466,
  "lat": 55.4278691,
  "lon": 12.9518827
},
{
  "type": "node",
  "id": 2401456468,
  "lat": 55.4278884,
  "lon": 12.9523188
},
{
  "type": "node",
  "id": 2401456476,
  "lat": 55.4279565,
  "lon": 12.9516710
},
{
  "type": "node",
  "id": 2401456506,
  "lat": 55.4282906,
  "lon": 12.9516035
},
{
  "type": "node",
  "id": 2401456528,
  "lat": 55.4283394,
  "lon": 12.9536945
},
{
  "type": "node",
  "id": 2401456532,
  "lat": 55.4283752,
  "lon": 12.9538829
},
{
  "type": "node",
  "id": 2401456546,
  "lat": 55.4284372,
  "lon": 12.9539817
},
{
  "type": "node",
  "id": 2401456582,
  "lat": 55.4288638,
  "lon": 12.9516906
},
{
  "type": "node",
  "id": 2401456587,
  "lat": 55.4288572,
  "lon": 12.9538595
},
{
  "type": "node",
  "id": 2401456659,
  "lat": 55.4295281,
  "lon": 12.9537747
},
{
  "type": "node",
  "id": 2401456663,
  "lat": 55.4297979,
  "lon": 12.9518999
},
{
  "type": "node",
  "id": 2401456669,
  "lat": 55.4300405,
  "lon": 12.9537647
},
{
  "type": "node",
  "id": 2401456677,
  "lat": 55.4301339,
  "lon": 12.9538595
},
{
  "type": "node",
  "id": 2401456682,
  "lat": 55.4302703,
  "lon": 12.9519281
},
{
  "type": "node",
  "id": 2401456694,
  "lat": 55.4303859,
  "lon": 12.9538346
},
{
  "type": "node",
  "id": 2401456696,
  "lat": 55.4308067,
  "lon": 12.9520163
},
{
  "type": "node",
  "id": 2401456698,
  "lat": 55.4310171,
  "lon": 12.9537996
},
{
  "type": "node",
  "id": 5052317531,
  "lat": 55.4282799,
  "lon": 12.9526448
},
{
  "type": "node",
  "id": 5052317532,
  "lat": 55.4282342,
  "lon": 12.9525000
},
{
  "type": "node",
  "id": 5052317533,
  "lat": 55.4280866,
  "lon": 12.9523230
},
{
  "type": "node",
  "id": 5052317537,
  "lat": 55.4280272,
  "lon": 12.9516202
},
{
  "type": "node",
  "id": 5052317538,
  "lat": 55.4281307,
  "lon": 12.9515961
},
{
  "type": "node",
  "id": 5052317539,
  "lat": 55.4279070,
  "lon": 12.9517463
},
{
  "type": "node",
  "id": 5052317540,
  "lat": 55.4278720,
  "lon": 12.9520279
},
{
  "type": "node",
  "id": 5879580510,
  "lat": 55.5894712,
  "lon": 12.9419562
},
{
  "type": "node",
  "id": 5879580511,
  "lat": 55.5895606,
  "lon": 12.9420568
},
{
  "type": "node",
  "id": 5879580512,
  "lat": 55.5895076,
  "lon": 12.9422191
},
{
  "type": "node",
  "id": 5879580513,
  "lat": 55.5897372,
  "lon": 12.9424712
},
{
  "type": "node",
  "id": 5879580514,
  "lat": 55.5897645,
  "lon": 12.9424833
},
{
  "type": "node",
  "id": 5879580515,
  "lat": 55.5897979,
  "lon": 12.9424725
},
{
  "type": "node",
  "id": 5879580516,
  "lat": 55.5898251,
  "lon": 12.9424497
},
{
  "type": "node",
  "id": 5879580517,
  "lat": 55.5900283,
  "lon": 12.9419388
},
{
  "type": "node",
  "id": 5879580518,
  "lat": 55.5900374,
  "lon": 12.9419066
},
{
  "type": "node",
  "id": 5879580519,
  "lat": 55.5900358,
  "lon": 12.9418784
},
{
  "type": "node",
  "id": 5879580520,
  "lat": 55.5900290,
  "lon": 12.9418503
},
{
  "type": "node",
  "id": 5879580521,
  "lat": 55.5897433,
  "lon": 12.9412977
},
{
  "type": "node",
  "id": 5879580522,
  "lat": 55.5896599,
  "lon": 12.9413152
},
{
  "type": "node",
  "id": 2216508089,
  "lat": 55.5731479,
  "lon": 12.9982653
},
{
  "type": "node",
  "id": 2216508093,
  "lat": 55.5731555,
  "lon": 12.9981360
},
{
  "type": "node",
  "id": 2216508113,
  "lat": 55.5733457,
  "lon": 12.9983017
},
{
  "type": "node",
  "id": 2216508115,
  "lat": 55.5733533,
  "lon": 12.9981725
},
{
  "type": "node",
  "id": 370319434,
  "lat": 55.5935029,
  "lon": 12.6745948
},
{
  "type": "node",
  "id": 370319437,
  "lat": 55.5935603,
  "lon": 12.6745882
},
{
  "type": "node",
  "id": 3138211249,
  "lat": 55.5921383,
  "lon": 12.6715744
},
{
  "type": "node",
  "id": 3138211256,
  "lat": 55.5921398,
  "lon": 12.6716666
},
{
  "type": "node",
  "id": 3138211258,
  "lat": 55.5921401,
  "lon": 12.6716793
},
{
  "type": "node",
  "id": 3138211523,
  "lat": 55.5922126,
  "lon": 12.6715702
},
{
  "type": "node",
  "id": 3138211597,
  "lat": 55.5922293,
  "lon": 12.6715696
},
{
  "type": "node",
  "id": 3138211600,
  "lat": 55.5922298,
  "lon": 12.6715852
},
{
  "type": "node",
  "id": 3138211606,
  "lat": 55.5922317,
  "lon": 12.6716513
},
{
  "type": "node",
  "id": 3138211633,
  "lat": 55.5922376,
  "lon": 12.6716508
},
{
  "type": "node",
  "id": 3138211639,
  "lat": 55.5922385,
  "lon": 12.6716800
},
{
  "type": "node",
  "id": 370319436,
  "lat": 55.5935739,
  "lon": 12.6749583
},
{
  "type": "node",
  "id": 853524183,
  "lat": 55.5935165,
  "lon": 12.6749649
},
{
  "type": "node",
  "id": 3714215575,
  "lat": 55.5935395,
  "lon": 12.6759873
},
{
  "type": "node",
  "id": 3714215576,
  "lat": 55.5935259,
  "lon": 12.6759695
},
{
  "type": "node",
  "id": 3714215577,
  "lat": 55.5935077,
  "lon": 12.6759628
},
{
  "type": "node",
  "id": 3714215578,
  "lat": 55.5934912,
  "lon": 12.6759662
},
{
  "type": "node",
  "id": 3714215579,
  "lat": 55.5934800,
  "lon": 12.6759690
},
{
  "type": "node",
  "id": 3714215580,
  "lat": 55.5934686,
  "lon": 12.6759811
},
{
  "type": "node",
  "id": 3714215581,
  "lat": 55.5934613,
  "lon": 12.6759945
},
{
  "type": "node",
  "id": 3714215582,
  "lat": 55.5934564,
  "lon": 12.6760041
},
{
  "type": "node",
  "id": 3714215583,
  "lat": 55.5934697,
  "lon": 12.6760176
},
{
  "type": "node",
  "id": 3714215584,
  "lat": 55.5934920,
  "lon": 12.6760267
},
{
  "type": "node",
  "id": 3714215585,
  "lat": 55.5935137,
  "lon": 12.6760243
},
{
  "type": "node",
  "id": 3714215586,
  "lat": 55.5935303,
  "lon": 12.6760142
},
{
  "type": "node",
  "id": 3714215587,
  "lat": 55.5935371,
  "lon": 12.6759993
},
{
  "type": "node",
  "id": 2621288257,
  "lat": 55.6650347,
  "lon": 12.7466719
},
{
  "type": "node",
  "id": 2621288347,
  "lat": 55.6650135,
  "lon": 12.7466146
},
{
  "type": "node",
  "id": 2621288351,
  "lat": 55.6651642,
  "lon": 12.7465217
},
{
  "type": "node",
  "id": 2621288462,
  "lat": 55.6651430,
  "lon": 12.7464644
},
{
  "type": "node",
  "id": 637290874,
  "lat": 55.6044015,
  "lon": 12.9825408
},
{
  "type": "node",
  "id": 637290897,
  "lat": 55.6045469,
  "lon": 12.9822833
},
{
  "type": "node",
  "id": 637290914,
  "lat": 55.6046075,
  "lon": 12.9823906
},
{
  "type": "node",
  "id": 637290945,
  "lat": 55.6047348,
  "lon": 12.9821653
},
{
  "type": "node",
  "id": 637290967,
  "lat": 55.6048742,
  "lon": 12.9824121
},
{
  "type": "node",
  "id": 637290987,
  "lat": 55.6051651,
  "lon": 12.9819507
},
{
  "type": "node",
  "id": 637291007,
  "lat": 55.6052439,
  "lon": 12.9821009
},
{
  "type": "node",
  "id": 637291025,
  "lat": 55.6052197,
  "lon": 12.9821438
},
{
  "type": "node",
  "id": 637291044,
  "lat": 55.6052439,
  "lon": 12.9821975
},
{
  "type": "node",
  "id": 329006869,
  "lat": 55.6055766,
  "lon": 12.9847430
},
{
  "type": "node",
  "id": 329006871,
  "lat": 55.6054398,
  "lon": 12.9846777
},
{
  "type": "node",
  "id": 329006872,
  "lat": 55.6053264,
  "lon": 12.9854228
},
{
  "type": "node",
  "id": 329006874,
  "lat": 55.6054632,
  "lon": 12.9854881
},
{
  "type": "node",
  "id": 637291080,
  "lat": 55.6049894,
  "lon": 12.9830451
},
{
  "type": "node",
  "id": 637291106,
  "lat": 55.6050560,
  "lon": 12.9829485
},
{
  "type": "node",
  "id": 637291130,
  "lat": 55.6052848,
  "lon": 12.9833803
},
{
  "type": "node",
  "id": 637291169,
  "lat": 55.6050165,
  "lon": 12.9836061
},
{
  "type": "node",
  "id": 637291202,
  "lat": 55.6047386,
  "lon": 12.9830543
},
{
  "type": "node",
  "id": 637291230,
  "lat": 55.6046924,
  "lon": 12.9831202
},
{
  "type": "node",
  "id": 637300165,
  "lat": 55.6048681,
  "lon": 12.9828198
},
{
  "type": "node",
  "id": 2582227199,
  "lat": 55.6048049,
  "lon": 12.9831897
},
{
  "type": "node",
  "id": 6379423476,
  "lat": 55.6054051,
  "lon": 13.0057592
},
{
  "type": "node",
  "id": 6379423477,
  "lat": 55.6053366,
  "lon": 13.0057905
},
{
  "type": "node",
  "id": 6379423478,
  "lat": 55.6053469,
  "lon": 13.0057286
},
{
  "type": "node",
  "id": 6379423479,
  "lat": 55.6053939,
  "lon": 13.0058246
},
{
  "type": "node",
  "id": 2182977959,
  "lat": 55.6500773,
  "lon": 13.1114377
},
{
  "type": "node",
  "id": 2182977963,
  "lat": 55.6500886,
  "lon": 13.1123974
},
{
  "type": "node",
  "id": 2182978071,
  "lat": 55.6507624,
  "lon": 13.1114124
},
{
  "type": "node",
  "id": 2182978075,
  "lat": 55.6507737,
  "lon": 13.1123721
},
{
  "type": "node",
  "id": 2433517200,
  "lat": 55.7611457,
  "lon": 13.0163304
},
{
  "type": "node",
  "id": 2433517201,
  "lat": 55.7611808,
  "lon": 13.0166318
},
{
  "type": "node",
  "id": 2433517202,
  "lat": 55.7612405,
  "lon": 13.0162954
},
{
  "type": "node",
  "id": 2433517203,
  "lat": 55.7612477,
  "lon": 13.0163573
},
{
  "type": "node",
  "id": 2433517205,
  "lat": 55.7612674,
  "lon": 13.0165259
},
{
  "type": "node",
  "id": 2433517206,
  "lat": 55.7612757,
  "lon": 13.0165968
},
{
  "type": "node",
  "id": 2433517207,
  "lat": 55.7613894,
  "lon": 13.0163051
},
{
  "type": "node",
  "id": 2433517208,
  "lat": 55.7614091,
  "lon": 13.0164737
},
{
  "type": "node",
  "id": 1092525578,
  "lat": 55.7023182,
  "lon": 13.1958136
},
{
  "type": "node",
  "id": 1092525622,
  "lat": 55.7021210,
  "lon": 13.1954183
},
{
  "type": "node",
  "id": 1092525663,
  "lat": 55.7021521,
  "lon": 13.1954156
},
{
  "type": "node",
  "id": 1092525788,
  "lat": 55.7021805,
  "lon": 13.1957213
},
{
  "type": "node",
  "id": 1092525793,
  "lat": 55.7021831,
  "lon": 13.1958264
},
{
  "type": "node",
  "id": 1092525848,
  "lat": 55.7022791,
  "lon": 13.1955075
},
{
  "type": "node",
  "id": 1092525971,
  "lat": 55.7020625,
  "lon": 13.1954470
},
{
  "type": "node",
  "id": 1092525975,
  "lat": 55.7021864,
  "lon": 13.1954095
},
{
  "type": "node",
  "id": 1092526037,
  "lat": 55.7022832,
  "lon": 13.1957150
},
{
  "type": "node",
  "id": 1092526057,
  "lat": 55.7020697,
  "lon": 13.1958315
},
{
  "type": "node",
  "id": 1092526078,
  "lat": 55.7021764,
  "lon": 13.1955139
},
{
  "type": "node",
  "id": 1837386812,
  "lat": 55.7023174,
  "lon": 13.1958052
},
{
  "type": "node",
  "id": 3496049307,
  "lat": 55.7020524,
  "lon": 13.1955620
},
{
  "type": "node",
  "id": 3496049308,
  "lat": 55.7020525,
  "lon": 13.1955412
},
{
  "type": "node",
  "id": 3496049309,
  "lat": 55.7020527,
  "lon": 13.1955190
},
{
  "type": "node",
  "id": 3496049315,
  "lat": 55.7020625,
  "lon": 13.1955190
},
{
  "type": "node",
  "id": 3496049316,
  "lat": 55.7020637,
  "lon": 13.1955626
},
{
  "type": "node",
  "id": 3496049327,
  "lat": 55.7021211,
  "lon": 13.1954412
},
{
  "type": "node",
  "id": 3496049336,
  "lat": 55.7021828,
  "lon": 13.1957885
},
{
  "type": "node",
  "id": 3496049353,
  "lat": 55.7022837,
  "lon": 13.1958164
},
{
  "type": "node",
  "id": 3496049354,
  "lat": 55.7022843,
  "lon": 13.1957843
},
{
  "type": "node",
  "id": 472412850,
  "lat": 55.7043261,
  "lon": 13.1947228
},
{
  "type": "node",
  "id": 472412853,
  "lat": 55.7044501,
  "lon": 13.1948202
},
{
  "type": "node",
  "id": 472412854,
  "lat": 55.7043183,
  "lon": 13.1953481
},
{
  "type": "node",
  "id": 472412856,
  "lat": 55.7041944,
  "lon": 13.1952507
},
{
  "type": "node",
  "id": 544488804,
  "lat": 55.7054469,
  "lon": 13.1977055
},
{
  "type": "node",
  "id": 795533901,
  "lat": 55.7054976,
  "lon": 13.1977479
},
{
  "type": "node",
  "id": 795771121,
  "lat": 55.7042111,
  "lon": 13.1968112
},
{
  "type": "node",
  "id": 795771127,
  "lat": 55.7042267,
  "lon": 13.1967514
},
{
  "type": "node",
  "id": 795771133,
  "lat": 55.7049265,
  "lon": 13.1986081
},
{
  "type": "node",
  "id": 795771144,
  "lat": 55.7052572,
  "lon": 13.1984488
},
{
  "type": "node",
  "id": 795771146,
  "lat": 55.7042403,
  "lon": 13.1967053
},
{
  "type": "node",
  "id": 795771202,
  "lat": 55.7043799,
  "lon": 13.1962967
},
{
  "type": "node",
  "id": 795771226,
  "lat": 55.7053902,
  "lon": 13.1981541
},
{
  "type": "node",
  "id": 795771232,
  "lat": 55.7045221,
  "lon": 13.1978995
},
{
  "type": "node",
  "id": 795771235,
  "lat": 55.7053604,
  "lon": 13.1962523
},
{
  "type": "node",
  "id": 795771236,
  "lat": 55.7049849,
  "lon": 13.1987392
},
{
  "type": "node",
  "id": 795771250,
  "lat": 55.7051132,
  "lon": 13.1961012
},
{
  "type": "node",
  "id": 795771264,
  "lat": 55.7050224,
  "lon": 13.1960346
},
{
  "type": "node",
  "id": 795771286,
  "lat": 55.7051176,
  "lon": 13.1987265
},
{
  "type": "node",
  "id": 795771296,
  "lat": 55.7040677,
  "lon": 13.1973761
},
{
  "type": "node",
  "id": 795771315,
  "lat": 55.7042445,
  "lon": 13.1966956
},
{
  "type": "node",
  "id": 795771323,
  "lat": 55.7043882,
  "lon": 13.1962717
},
{
  "type": "node",
  "id": 795771326,
  "lat": 55.7052739,
  "lon": 13.1962077
},
{
  "type": "node",
  "id": 795771336,
  "lat": 55.7055961,
  "lon": 13.1965386
},
{
  "type": "node",
  "id": 795771342,
  "lat": 55.7054542,
  "lon": 13.1976478
},
{
  "type": "node",
  "id": 795771426,
  "lat": 55.7054456,
  "lon": 13.1979635
},
{
  "type": "node",
  "id": 795771438,
  "lat": 55.7041530,
  "lon": 13.1970553
},
{
  "type": "node",
  "id": 795771474,
  "lat": 55.7041168,
  "lon": 13.1972056
},
{
  "type": "node",
  "id": 795771494,
  "lat": 55.7040314,
  "lon": 13.1975254
},
{
  "type": "node",
  "id": 795771514,
  "lat": 55.7056165,
  "lon": 13.1963781
},
{
  "type": "node",
  "id": 795771549,
  "lat": 55.7051137,
  "lon": 13.1987342
},
{
  "type": "node",
  "id": 795771559,
  "lat": 55.7053637,
  "lon": 13.1962752
},
{
  "type": "node",
  "id": 795771561,
  "lat": 55.7054605,
  "lon": 13.1975992
},
{
  "type": "node",
  "id": 795771577,
  "lat": 55.7054836,
  "lon": 13.1963251
},
{
  "type": "node",
  "id": 795771584,
  "lat": 55.7055515,
  "lon": 13.1968918
},
{
  "type": "node",
  "id": 795792139,
  "lat": 55.7046936,
  "lon": 13.1960664
},
{
  "type": "node",
  "id": 1025606091,
  "lat": 55.7077704,
  "lon": 13.1979925
},
{
  "type": "node",
  "id": 1025606189,
  "lat": 55.7080380,
  "lon": 13.1981375
},
{
  "type": "node",
  "id": 1029436417,
  "lat": 55.7054590,
  "lon": 13.1979158
},
{
  "type": "node",
  "id": 1029437442,
  "lat": 55.7054457,
  "lon": 13.1979015
},
{
  "type": "node",
  "id": 1029488872,
  "lat": 55.7078220,
  "lon": 13.1987652
},
{
  "type": "node",
  "id": 1029489035,
  "lat": 55.7076124,
  "lon": 13.1984518
},
{
  "type": "node",
  "id": 1029489115,
  "lat": 55.7076721,
  "lon": 13.1986008
},
{
  "type": "node",
  "id": 1029489121,
  "lat": 55.7076193,
  "lon": 13.1987544
},
{
  "type": "node",
  "id": 1029489141,
  "lat": 55.7075384,
  "lon": 13.1986667
},
{
  "type": "node",
  "id": 1092525518,
  "lat": 55.7023416,
  "lon": 13.1953887
},
{
  "type": "node",
  "id": 1092526072,
  "lat": 55.7023605,
  "lon": 13.1957898
},
{
  "type": "node",
  "id": 1240875369,
  "lat": 55.7050613,
  "lon": 13.1987505
},
{
  "type": "node",
  "id": 1240875564,
  "lat": 55.7050200,
  "lon": 13.1988085
},
{
  "type": "node",
  "id": 1373851647,
  "lat": 55.7042165,
  "lon": 13.1952681
},
{
  "type": "node",
  "id": 1373851650,
  "lat": 55.7042473,
  "lon": 13.1952923
},
{
  "type": "node",
  "id": 1837386814,
  "lat": 55.7023462,
  "lon": 13.1954733
},
{
  "type": "node",
  "id": 1973878964,
  "lat": 55.7045091,
  "lon": 13.1958877
},
{
  "type": "node",
  "id": 1973878992,
  "lat": 55.7048889,
  "lon": 13.1962555
},
{
  "type": "node",
  "id": 1974471203,
  "lat": 55.7045947,
  "lon": 13.1979531
},
{
  "type": "node",
  "id": 1974471213,
  "lat": 55.7046290,
  "lon": 13.1980355
},
{
  "type": "node",
  "id": 1974471217,
  "lat": 55.7047212,
  "lon": 13.1982219
},
{
  "type": "node",
  "id": 1974471223,
  "lat": 55.7047879,
  "lon": 13.1983497
},
{
  "type": "node",
  "id": 1974471241,
  "lat": 55.7049609,
  "lon": 13.1962271
},
{
  "type": "node",
  "id": 1974471243,
  "lat": 55.7049966,
  "lon": 13.1960809
},
{
  "type": "node",
  "id": 3465709211,
  "lat": 55.7077151,
  "lon": 13.1980835
},
{
  "type": "node",
  "id": 3465709212,
  "lat": 55.7077157,
  "lon": 13.1980711
},
{
  "type": "node",
  "id": 3465709213,
  "lat": 55.7077170,
  "lon": 13.1980971
},
{
  "type": "node",
  "id": 3465709214,
  "lat": 55.7077195,
  "lon": 13.1980626
},
{
  "type": "node",
  "id": 3465709217,
  "lat": 55.7077230,
  "lon": 13.1981033
},
{
  "type": "node",
  "id": 3465709219,
  "lat": 55.7077259,
  "lon": 13.1980604
},
{
  "type": "node",
  "id": 3465709221,
  "lat": 55.7077306,
  "lon": 13.1981072
},
{
  "type": "node",
  "id": 3465709222,
  "lat": 55.7077332,
  "lon": 13.1980621
},
{
  "type": "node",
  "id": 3465709223,
  "lat": 55.7077356,
  "lon": 13.1986715
},
{
  "type": "node",
  "id": 3465709225,
  "lat": 55.7077421,
  "lon": 13.1980734
},
{
  "type": "node",
  "id": 3465709236,
  "lat": 55.7078024,
  "lon": 13.1982222
},
{
  "type": "node",
  "id": 3465709245,
  "lat": 55.7078664,
  "lon": 13.1982916
},
{
  "type": "node",
  "id": 3465709247,
  "lat": 55.7078855,
  "lon": 13.1978080
},
{
  "type": "node",
  "id": 3465709249,
  "lat": 55.7079930,
  "lon": 13.1978417
},
{
  "type": "node",
  "id": 3482232625,
  "lat": 55.7053180,
  "lon": 13.1983242
},
{
  "type": "node",
  "id": 3502026171,
  "lat": 55.7042624,
  "lon": 13.1949780
},
{
  "type": "node",
  "id": 3770909741,
  "lat": 55.7049437,
  "lon": 13.1963053
},
{
  "type": "node",
  "id": 4697696343,
  "lat": 55.7078169,
  "lon": 13.1978229
},
{
  "type": "node",
  "id": 4697696344,
  "lat": 55.7078026,
  "lon": 13.1978926
},
{
  "type": "node",
  "id": 4697696345,
  "lat": 55.7078895,
  "lon": 13.1977438
},
{
  "type": "node",
  "id": 4697696346,
  "lat": 55.7078267,
  "lon": 13.1977371
},
{
  "type": "node",
  "id": 4697696348,
  "lat": 55.7079763,
  "lon": 13.1979436
},
{
  "type": "node",
  "id": 4697696349,
  "lat": 55.7080685,
  "lon": 13.1979959
},
{
  "type": "node",
  "id": 2450649074,
  "lat": 55.8705205,
  "lon": 12.8293984
},
{
  "type": "node",
  "id": 2450649090,
  "lat": 55.8706647,
  "lon": 12.8294645
},
{
  "type": "node",
  "id": 2450649103,
  "lat": 55.8707057,
  "lon": 12.8281144
},
{
  "type": "node",
  "id": 2450649125,
  "lat": 55.8708499,
  "lon": 12.8281805
},
{
  "type": "node",
  "id": 4875620596,
  "lat": 55.8502026,
  "lon": 13.3214908
},
{
  "type": "node",
  "id": 4875620597,
  "lat": 55.8503858,
  "lon": 13.3214804
},
{
  "type": "node",
  "id": 4875620598,
  "lat": 55.8503834,
  "lon": 13.3213640
},
{
  "type": "node",
  "id": 4875620599,
  "lat": 55.8502014,
  "lon": 13.3213744
},
{
  "type": "node",
  "id": 2786671007,
  "lat": 55.9617436,
  "lon": 13.3330941
},
{
  "type": "node",
  "id": 2786671008,
  "lat": 55.9617462,
  "lon": 13.3331896
},
{
  "type": "node",
  "id": 2786671010,
  "lat": 55.9617781,
  "lon": 13.3334652
},
{
  "type": "node",
  "id": 2786671011,
  "lat": 55.9617814,
  "lon": 13.3335833
},
{
  "type": "node",
  "id": 2786671016,
  "lat": 55.9618957,
  "lon": 13.3331766
},
{
  "type": "node",
  "id": 2786671017,
  "lat": 55.9619033,
  "lon": 13.3334543
},
{
  "type": "node",
  "id": 2786671018,
  "lat": 55.9619069,
  "lon": 13.3330799
},
{
  "type": "node",
  "id": 2786671020,
  "lat": 55.9619071,
  "lon": 13.3330874
},
{
  "type": "node",
  "id": 2786671022,
  "lat": 55.9619506,
  "lon": 13.3330836
},
{
  "type": "node",
  "id": 2786671023,
  "lat": 55.9619638,
  "lon": 13.3335674
},
{
  "type": "node",
  "id": 668106026,
  "lat": 55.9272953,
  "lon": 13.5330413
},
{
  "type": "node",
  "id": 4598960412,
  "lat": 55.9271103,
  "lon": 13.5328581
},
{
  "type": "node",
  "id": 4598960415,
  "lat": 55.9270372,
  "lon": 13.5328985
},
{
  "type": "node",
  "id": 4598960408,
  "lat": 55.9272731,
  "lon": 13.5333042
},
{
  "type": "node",
  "id": 4598960409,
  "lat": 55.9271912,
  "lon": 13.5333484
},
{
  "type": "node",
  "id": 4598960414,
  "lat": 55.9270868,
  "lon": 13.5331848
},
{
  "type": "node",
  "id": 6332548899,
  "lat": 55.9271149,
  "lon": 13.5333860
},
{
  "type": "node",
  "id": 6332548900,
  "lat": 55.9273313,
  "lon": 13.5332613
},
{
  "type": "way",
  "id": 93981885,
  "nodes": [
    1092526078,
    1092525788,
    1092526037,
    1092525848,
    1092526078
  ]
},
{
  "type": "way",
  "id": 93981881,
  "nodes": [
    1092525663,
    1092525975,
    1092525518,
    1837386814,
    1092526072,
    1837386812,
    1092525578,
    3496049353,
    3496049354,
    3496049336,
    1092525793,
    1092526057,
    3496049316,
    3496049307,
    3496049308,
    3496049309,
    3496049315,
    1092525971,
    3496049327,
    1092525622,
    1092525663
  ]
}

  ]
}
