{
  "version": 0.6,
  "generator": "Overpass API 0.7.55.9 ab41fea6",
  "osm3s": {
    "timestamp_osm_base": "2020-02-14T10:56:02Z",
    "copyright": "The data included in this document is from www.openstreetmap.org. The data is made available under ODbL."
  },
  "elements": [

{
  "type": "node",
  "id": 27147696,
  "lat": 52.0213587,
  "lon": 8.9162915,
  "tags": {
    "name": "Weserrenaissance-Museum",
    "tourism": "museum",
    "wheelchair": "limited",
    "wikidata": "Q2563882"
  }
},
{
  "type": "node",
  "id": 248168673,
  "lat": 51.9629332,
  "lon": 8.1397307,
  "tags": {
    "addr:city": "Harsewinkel",
    "addr:country": "DE",
    "addr:housenumber": "32",
    "addr:postcode": "33428",
    "addr:street": "Beelener Straße",
    "addr:suburb": "Greffen",
    "name": "Motorrad- und Puppenmuseum",
    "tourism": "museum"
  }
},
{
  "type": "node",
  "id": 309845832,
  "lat": 52.0104946,
  "lon": 8.7062099,
  "tags": {
    "name": "Heimathof",
    "tourism": "museum"
  }
},
{
  "type": "node",
  "id": 335827813,
  "lat": 52.2050388,
  "lon": 8.3285981,
  "tags": {
    "alt_name": "Grönegaumuseum",
    "name": "Grönegau-Museum",
    "tourism": "museum",
    "wikidata": "Q1551641"
  }
},
{
  "type": "node",
  "id": 335827814,
  "lat": 52.2057800,
  "lon": 8.3286766,
  "tags": {
    "alt_name": "Grönegaumuseum",
    "name": "Grönegau-Museum",
    "tourism": "museum",
    "wikidata": "Q1551641"
  }
},
{
  "type": "node",
  "id": 410930180,
  "lat": 51.7450020,
  "lon": 8.7102196,
  "tags": {
    "man_made": "surveillance",
    "name": "Historisches Museum im Marstall",
    "surveillance": "indoor",
    "tourism": "museum"
  }
},
{
  "type": "node",
  "id": 410930181,
  "lat": 51.7452399,
  "lon": 8.7100348,
  "tags": {
    "addr:city": "Paderborn",
    "addr:country": "DE",
    "addr:housenumber": "9",
    "addr:postcode": "33104",
    "addr:street": "Im Schlosspark",
    "addr:suburb": "Schloß Neuhaus",
    "man_made": "surveillance",
    "name": "Naturkundemuseum im Marstall",
    "surveillance": "indoor",
    "tourism": "museum"
  }
},
{
  "type": "node",
  "id": 455117967,
  "lat": 52.1368305,
  "lon": 8.5578263,
  "tags": {
    "addr:city": "Enger",
    "addr:country": "DE",
    "addr:housenumber": "4",
    "addr:postcode": "32130",
    "addr:street": "Hasenpatt",
    "name": "Gerberei Museum Enger",
    "tourism": "museum",
    "wikidata": "Q76634584"
  }
},
{
  "type": "node",
  "id": 472148975,
  "lat": 52.0480609,
  "lon": 8.1452950,
  "tags": {
    "name": "Heimatmuseum",
    "tourism": "museum"
  }
},
{
  "type": "node",
  "id": 484261821,
  "lat": 52.1706738,
  "lon": 8.7646718,
  "tags": {
    "name": "Freilichtmuseum",
    "tourism": "museum",
    "wheelchair": "yes"
  }
},
{
  "type": "node",
  "id": 499040266,
  "lat": 52.1206917,
  "lon": 9.0058031,
  "tags": {
    "contact:fax": "+49 5264 644100",
    "contact:phone": "+49 5264 6440",
    "contact:website": "http://www.museumsverein-kalletal.de/index_2.htm",
    "name": "Wald- und Forstmuseum",
    "opening_hours": "Sa 13:00-18:00; Su,PH 10:00-18:00; Nov 02-easter -2 days off",
    "tourism": "museum",
    "wikidata": "Q2541027"
  }
},
{
  "type": "node",
  "id": 581247523,
  "lat": 52.1032962,
  "lon": 8.0888146,
  "tags": {
    "name": "Heimatmuseum Bad Laer",
    "opening_hours": "Su 10:00-12:00; We 15:00-17:00",
    "tourism": "museum",
    "wikidata": "Q76635712"
  }
},
{
  "type": "node",
  "id": 635280572,
  "lat": 51.8736387,
  "lon": 8.9426453,
  "tags": {
    "name": "Burgmuseum",
    "tourism": "museum",
    "website": "http://www.burgmuseum-horn.de",
    "wheelchair": "no"
  }
},
{
  "type": "node",
  "id": 683251165,
  "lat": 51.9459925,
  "lon": 8.3197732,
  "tags": {
    "name": "Heimatmuseum Marienfeld",
    "tourism": "museum",
    "wheelchair": "limited",
    "wikidata": "Q1595637"
  }
},
{
  "type": "node",
  "id": 726848434,
  "lat": 51.9605288,
  "lon": 8.5465815,
  "tags": {
    "addr:city": "Bielefeld",
    "addr:country": "DE",
    "addr:housenumber": "75",
    "addr:postcode": "33659",
    "addr:street": "Buschkampstraße",
    "name": "Museumshof Senne",
    "phone": "+49-521-492800",
    "tourism": "museum",
    "website": "http://www.museumshof-senne.de",
    "wheelchair": "limited"
  }
},
{
  "type": "node",
  "id": 776198474,
  "lat": 51.9228635,
  "lon": 8.8701274,
  "tags": {
    "addr:city": "Detmold",
    "addr:postcode": "32760",
    "addr:street": "Krummes Haus",
    "name": "LWL-Freilichtmuseum Detmold - Westfälisches Landesmuseum für Volkskunde",
    "note": "Westfälisches Museum für Volkskunde",
    "phone": "+49 5231 706-0",
    "tourism": "museum",
    "website": "https://www.lwl.org/LWL/Kultur/LWL-Freilichtmuseum-Detmold/",
    "wheelchair": "yes",
    "wikidata": "Q314847"
  }
},
{
  "type": "node",
  "id": 797405451,
  "lat": 52.0257683,
  "lon": 8.7790293,
  "tags": {
    "addr:city": "Lage",
    "addr:country": "DE",
    "addr:housenumber": "77",
    "addr:postcode": "32791",
    "addr:street": "Sprikernheide",
    "name": "Ziegelei Lage",
    "opening_hours": "Tu-Su 10:00-18:00; Mo off",
    "operator": "Landschaftsverband Westfalen-Lippe",
    "tourism": "museum",
    "wheelchair": "yes",
    "wikidata": "Q198593"
  }
},
{
  "type": "node",
  "id": 842249005,
  "lat": 51.9106102,
  "lon": 8.6542638,
  "tags": {
    "name": "Heimathäuser",
    "tourism": "museum"
  }
},
{
  "type": "node",
  "id": 1222333521,
  "lat": 51.9503866,
  "lon": 8.8780502,
  "tags": {
    "name": "Museum für russlanddeutsche Kulturgeschichte",
    "tourism": "museum"
  }
},
{
  "type": "node",
  "id": 1331507361,
  "lat": 51.9114283,
  "lon": 8.3959759,
  "tags": {
    "fee": "no",
    "name": "Miele-Museum",
    "opening_hours": "Mo-Th 08:00-18:00; Fr 08:00-17:00; Sa, Su, PH off",
    "toilets:wheelchair": "yes",
    "tourism": "museum",
    "website": "http://www.miele-technikgeschichte.de",
    "wheelchair": "yes",
    "wikidata": "Q19296382",
    "wikipedia": "de:Miele-Museum"
  }
},
{
  "type": "node",
  "id": 1379049615,
  "lat": 52.2370162,
  "lon": 8.8378960,
  "tags": {
    "name": "Dehmere Heimatstube",
    "opening_hours": "\"nach Vereinbarung\"",
    "tourism": "museum"
  }
},
{
  "type": "node",
  "id": 1519396317,
  "lat": 51.7640953,
  "lon": 8.5629526,
  "tags": {
    "addr:city": "Delbrück",
    "addr:country": "DE",
    "addr:housenumber": "10",
    "addr:postcode": "33129",
    "addr:street": "Kirchplatz",
    "name": "Karnevalsmuseum",
    "tourism": "museum"
  }
},
{
  "type": "node",
  "id": 1585706418,
  "lat": 52.1907060,
  "lon": 8.7920376,
  "tags": {
    "heritage": "8",
    "heritage:operator": "UntereDenkmalbehörde",
    "historic": "farm",
    "leisure": "park",
    "name": "Museumshof",
    "ref_heritage": "Bad Oeynhausen Nr. 94",
    "tourism": "museum",
    "wheelchair": "limited",
    "wikidata": "Q1743995",
    "wikipedia": "de:Museumshof Bad Oeynhausen"
  }
},
{
  "type": "node",
  "id": 1646193238,
  "lat": 51.8088983,
  "lon": 8.4290919,
  "tags": {
    "name": "Kunsthaus Rietberg - Museum Wilfried Koch",
    "tourism": "museum",
    "wikidata": "Q4566486"
  }
},
{
  "type": "node",
  "id": 1699561631,
  "lat": 51.8105416,
  "lon": 8.8418476,
  "tags": {
    "addr:city": "Schlangen",
    "addr:country": "DE",
    "addr:housenumber": "11",
    "addr:postcode": "33189",
    "addr:street": "Rosenstraße",
    "name": "Dorfmuseum Schlangen",
    "opening_hours": "Su[3] 15:00-18:00",
    "tourism": "museum"
  }
},
{
  "type": "node",
  "id": 1808671568,
  "lat": 51.8086776,
  "lon": 8.4285920,
  "tags": {
    "name": "Heimatmuseum",
    "tourism": "museum"
  }
},
{
  "type": "node",
  "id": 1838343760,
  "lat": 52.1157383,
  "lon": 8.6690277,
  "tags": {
    "name": "Schau zur Herforder Münzgeschichte",
    "tourism": "museum",
    "wheelchair": "yes"
  }
},
{
  "type": "node",
  "id": 1838343762,
  "lat": 52.1160918,
  "lon": 8.6695730,
  "tags": {
    "description": "Gedenk-, Dokumentations- und Begegnungsstätte",
    "name": "Zellentrakt",
    "tourism": "museum",
    "website": "http://www.zellentrakt.de/",
    "wheelchair": "yes"
  }
},
{
  "type": "node",
  "id": 1845641233,
  "lat": 51.8652186,
  "lon": 8.6765500,
  "tags": {
    "name": "Dokumentationsstätte Stalag 326",
    "tourism": "museum"
  }
},
{
  "type": "node",
  "id": 2017157757,
  "lat": 52.1370028,
  "lon": 8.8589860,
  "tags": {
    "addr:city": "Vlotho",
    "addr:country": "DE",
    "addr:housenumber": "3",
    "addr:postcode": "32602",
    "addr:street": "Seebruchstraße",
    "addr:suburb": "Valdorf",
    "fixme": "location and housenumber likely incorrect, Hammerschmiede should have been below the small lake down the valley NW if housenumber 2",
    "name": "Hammerschmiede Gnuse",
    "tourism": "museum",
    "wikidata": "Q1384152"
  }
},
{
  "type": "node",
  "id": 2087858585,
  "lat": 51.7467729,
  "lon": 8.7094281,
  "tags": {
    "addr:city": "Paderborn",
    "addr:country": "DE",
    "addr:housenumber": "13",
    "addr:postcode": "33104",
    "addr:street": "Im Schlosspark",
    "addr:suburb": "Schloß Neuhaus",
    "name": "Volkssternwarte Paderborn",
    "source": "http://www.vspb.de",
    "tourism": "museum"
  }
},
{
  "type": "node",
  "id": 2144522323,
  "lat": 51.9118956,
  "lon": 8.8415440,
  "tags": {
    "name": "Bandelhütte",
    "tourism": "museum",
    "url": "http://www.lippe-in-nrw.de/hermannsdenkmal-detmold/hermannsdenkmal-detmold.html"
  }
},
{
  "type": "node",
  "id": 2178525850,
  "lat": 52.1709260,
  "lon": 8.8633688,
  "tags": {
    "addr:city": "Vlotho",
    "addr:country": "DE",
    "addr:housenumber": "53",
    "addr:postcode": "32602",
    "addr:street": "Lange Straße",
    "name": "Heimatstube",
    "tourism": "museum"
  }
},
{
  "type": "node",
  "id": 2273866711,
  "lat": 52.1068919,
  "lon": 8.1596260,
  "tags": {
    "addr:city": "Bad Rothenfelde",
    "addr:country": "DE",
    "addr:housenumber": "10",
    "addr:street": "Wellengartenstraße",
    "description": "Hier wird seit 1944 das Wissen über Rothenfelde, Gradierwerke, Dornenstein und Salze vermittelt.",
    "email": "stieve@gemeinde-bad-rothenfelde.de",
    "name": "Heimatmuseum",
    "opening_hours": "Tu 16:00-18:00; Th 16:00-18:00",
    "phone": "+49 5424 223186",
    "tourism": "museum",
    "website": "https://www.bad-rothenfelde.de/geniessen-anschauen/entdecken/museum"
  }
},
{
  "type": "node",
  "id": 2347614943,
  "lat": 52.1673846,
  "lon": 8.6150488,
  "tags": {
    "addr:city": "Hiddenhausen",
    "addr:housenumber": "16",
    "addr:postcode": "32120",
    "addr:street": "Maschstraße",
    "name": "Holzhandwerksmuseum I",
    "source": "local knowledge",
    "tourism": "museum",
    "website": "http://www.holzhandwerksmuseum-hiddenhausen.de/",
    "wheelchair": "no"
  }
},
{
  "type": "node",
  "id": 2348268706,
  "lat": 52.1677136,
  "lon": 8.6151400,
  "tags": {
    "name": "Holzhandwerksmuseum II",
    "tourism": "museum",
    "wheelchair": "no"
  }
},
{
  "type": "node",
  "id": 2370595541,
  "lat": 51.7796024,
  "lon": 8.8226161,
  "tags": {
    "addr:city": "Bad Lippspringe",
    "addr:country": "DE",
    "addr:housenumber": "1",
    "addr:postcode": "33175",
    "addr:street": "Kirchplatz",
    "level": "2",
    "museum": "local",
    "name": "Ortsgeschichtliches Museum",
    "opening_hours": "Su 10:00-12:00",
    "operator": "Heimatverein Bad Lippspringe e.V.",
    "tourism": "museum"
  }
},
{
  "type": "node",
  "id": 2386277633,
  "lat": 52.2314866,
  "lon": 8.6683444,
  "tags": {
    "addr:city": "Kirchlengern",
    "addr:housenumber": "188",
    "addr:postcode": "32278",
    "addr:street": "Häverstraße",
    "name": "Feuerwehrmuseum Kirchlengern",
    "phone": "+49 5223 73792",
    "tourism": "museum",
    "website": "https://feuerwehrmuseum-kirchlengern.jimdo.com/"
  }
},
{
  "type": "node",
  "id": 2407765253,
  "lat": 52.2957300,
  "lon": 8.6178463,
  "tags": {
    "addr:city": "Lübbecke",
    "addr:postcode": "32312",
    "addr:street": "Berliner Straße",
    "name": "Brauereimuseum Barre's Brauwelt",
    "tourism": "museum"
  }
},
{
  "type": "node",
  "id": 2433837406,
  "lat": 51.7455708,
  "lon": 8.7100839,
  "tags": {
    "fee": "yes",
    "opening_hours": "Tu-Su 10:00-18:00",
    "tourism": "museum"
  }
},
{
  "type": "node",
  "id": 2628454451,
  "lat": 52.2768428,
  "lon": 8.4018221,
  "tags": {
    "addr:city": "Melle",
    "addr:housenumber": "5",
    "addr:postcode": "49328",
    "addr:street": "Am Bergsiek",
    "addr:suburb": "Buer",
    "contact:website": "http://www.traktorenmuseum-mb.de/",
    "name": "Traktorenmuseum Melle-Buer / Meesdorf",
    "operator": "Traktoren und historische Landmaschinen-Verein Grönegau-Buer e.V",
    "tourism": "museum"
  }
},
{
  "type": "node",
  "id": 2693343578,
  "lat": 52.0227065,
  "lon": 8.5441670,
  "tags": {
    "addr:city": "Bielefeld",
    "addr:country": "DE",
    "addr:housenumber": "2",
    "addr:postcode": "33607",
    "addr:street": "Ravensberger Park",
    "fee": "yes",
    "name": "Historisches Museum Bielefeld",
    "opening_hours": "We-Fr 10:00-17:00; PH,Sa,Su 11:00-18:00; Mo,Tu off",
    "toilets:wheelchair": "yes",
    "tourism": "museum",
    "website": "http://www.historisches-museum-bielefeld.de/",
    "wheelchair": "yes",
    "wikidata": "Q1621000",
    "wikipedia": "de:Historisches Museum der Stadt Bielefeld"
  }
},
{
  "type": "node",
  "id": 2693343619,
  "lat": 52.0224569,
  "lon": 8.5457056,
  "tags": {
    "addr:city": "Bielefeld",
    "addr:country": "DE",
    "addr:housenumber": "3",
    "addr:postcode": "33607",
    "addr:street": "Ravensberger Park",
    "name": "Museum Hülsmann (klassische Sammlung)",
    "opening_hours": "We-Sa 14:00-18:00; Su 11:00-18:00",
    "phone": "+49-521-513767",
    "tourism": "museum",
    "website": "http://www.museumhuelsmann.de/"
  }
},
{
  "type": "node",
  "id": 3375763001,
  "lat": 52.0187348,
  "lon": 8.5304724,
  "tags": {
    "addr:city": "Bielefeld",
    "addr:country": "DE",
    "addr:housenumber": "19",
    "addr:postcode": "33602",
    "addr:street": "Am Bach",
    "fee": "yes",
    "name": "Deutsches Fächermuseum",
    "opening_hours": "We,Th 14:30-17:30",
    "operator": "Barische Stiftung",
    "tourism": "museum",
    "website": "http://www.faechermuseum.de/",
    "wheelchair": "no",
    "wikidata": "Q23785323",
    "wikipedia": "de:Deutsches Fächer Museum – Barisch Stiftung"
  }
},
{
  "type": "node",
  "id": 3375763002,
  "lat": 52.0254587,
  "lon": 8.5536317,
  "tags": {
    "addr:city": "Bielefeld",
    "addr:country": "DE",
    "addr:housenumber": "18",
    "addr:postcode": "33609",
    "addr:street": "Am Stadtholz",
    "building": "yes",
    "name": "Feuerwehrmuseum",
    "opening_hours": "\"on appointment\"",
    "phone": "+49-521-512301",
    "tourism": "museum",
    "website": "https://feuerwehr-bielefeld.de/bf/museum"
  }
},
{
  "type": "node",
  "id": 3375763003,
  "lat": 52.0128600,
  "lon": 8.5240455,
  "tags": {
    "name": "Historische Sammlung Bethel",
    "opening_hours": "Tu-Th 15:00-17:00",
    "phone": "+49-521-1442024",
    "tourism": "museum",
    "website": "https://www.bethel.de/ueber-uns/geschichte-bethels/historische-sammlung.html",
    "wheelchair": "yes"
  }
},
{
  "type": "node",
  "id": 3375763005,
  "lat": 52.0314025,
  "lon": 8.5171301,
  "tags": {
    "addr:city": "Bielefeld",
    "addr:country": "DE",
    "addr:housenumber": "31a",
    "addr:postcode": "33615",
    "addr:street": "Melanchthonstraße",
    "name": "Museum/Archiv/Forum Arminia",
    "opening_hours": "Fr 13:00-18:00",
    "short_name": "MAFA",
    "tourism": "museum",
    "website": "https://www.arminia-bielefeld.de/startseite/verein/historie/mafa/"
  }
},
{
  "type": "node",
  "id": 3375763006,
  "lat": 52.0373352,
  "lon": 8.4925222,
  "tags": {
    "addr:city": "Bielefeld",
    "addr:country": "DE",
    "addr:door": "V1-161",
    "addr:housenumber": "25",
    "addr:postcode": "33615",
    "addr:street": "Universitätsstraße",
    "name": "Pädagogisches Museum",
    "opening_hours": "\"on appointment\"",
    "phone": "+49-521-106-4288",
    "tourism": "museum",
    "website": "http://www.uni-bielefeld.de/erziehungswissenschaft/ag1/museum.html"
  }
},
{
  "type": "node",
  "id": 3515912237,
  "lat": 51.7819943,
  "lon": 8.8245425,
  "tags": {
    "addr:city": "Bad Lippspringe",
    "addr:country": "DE",
    "addr:housenumber": "11",
    "addr:postcode": "33175",
    "addr:street": "Arminiuspark",
    "contact:email": "nabu-prinzenpalais@t-online.de",
    "contact:phone": "+49 5252 9380154",
    "contact:website": "http://www.nabu-paderborn.de/prinzenpalais/",
    "museum": "nature",
    "name": "NABU Natur-Infozentrum Senne",
    "tourism": "museum"
  }
},
{
  "type": "node",
  "id": 3558463204,
  "lat": 51.9462988,
  "lon": 8.4117691,
  "tags": {
    "addr:city": "Gütersloh",
    "addr:housenumber": "5",
    "addr:postcode": "33334",
    "addr:street": "Isselhorster Kirchplatz",
    "alt_name": "Feuerwehr-Museums-Café",
    "fee": "yes",
    "name": "Feuerwehrmuseum Isselhorst",
    "operator": "Rolf Ortmeyer junior",
    "tourism": "museum",
    "website": "http://www.guetersloh.de/Z3VldGVyc2xvaGQ0Y21zOjIzODk4.x4s"
  }
},
{
  "type": "node",
  "id": 3558463205,
  "lat": 51.9463881,
  "lon": 8.4120239,
  "tags": {
    "addr:city": "Gütersloh",
    "addr:housenumber": "5",
    "addr:postcode": "33334",
    "addr:street": "Isselhorster Kirchplatz",
    "name": "Elmendörfer Fass Museum",
    "operator": "Heimatverein Isselhorst e.V.",
    "tourism": "museum"
  }
},
{
  "type": "node",
  "id": 3558463207,
  "lat": 51.9612743,
  "lon": 8.4062181,
  "tags": {
    "addr:city": "Bielefeld",
    "addr:housenumber": "6",
    "addr:postcode": "33649",
    "addr:street": "Emsweg",
    "name": "Heimatmuseum Isselhorst",
    "operator": "Heimatverein Isselhorst e.V.",
    "tourism": "museum"
  }
},
{
  "type": "node",
  "id": 3610403643,
  "lat": 51.9063498,
  "lon": 8.3803260,
  "tags": {
    "addr:city": "Gütersloh",
    "addr:country": "DE",
    "addr:housenumber": "9",
    "addr:postcode": "33330",
    "addr:street": "Kökerstraße",
    "name": "Stadtmuseum",
    "opening_hours": "We-Fr 15:00-18:00; Sa,Su 11:00-18:00",
    "tourism": "museum",
    "wheelchair": "no",
    "wikidata": "Q1703603"
  }
},
{
  "type": "node",
  "id": 3677786120,
  "lat": 52.0145270,
  "lon": 8.4734748,
  "tags": {
    "addr:city": "Bielefeld",
    "addr:housenumber": "1",
    "addr:postcode": "33649",
    "addr:street": "Hünenburgstraße",
    "level": "2",
    "name": "Heimatmuseum",
    "opening_hours": "Sa 13:00-17:00; Su,PH 11:00-18:00; \"Bei Regenwetter geschlossen\"",
    "operator": "Heimatverein Quelle e.v.",
    "tourism": "museum",
    "website": "https://www.heimatverein-quelle.de/index.php/museum",
    "wheelchair": "no"
  }
},
{
  "type": "node",
  "id": 3752825657,
  "lat": 52.1017317,
  "lon": 8.2994542,
  "tags": {
    "addr:city": "Borgholzhausen",
    "addr:country": "DE",
    "addr:housenumber": "25",
    "addr:postcode": "33829",
    "addr:street": "Freistraße",
    "name": "Kultur- und Heimathaus",
    "toilets:wheelchair": "no",
    "tourism": "museum",
    "wheelchair": "no"
  }
},
{
  "type": "node",
  "id": 3999164604,
  "lat": 51.8099083,
  "lon": 8.8393864,
  "tags": {
    "addr:city": "Schlangen",
    "addr:country": "DE",
    "addr:housenumber": "18",
    "addr:postcode": "33189",
    "addr:street": "Parkstraße",
    "contact:email": "info@museum-in-westfalen-lippe.drk.de",
    "name": "Rotkreuzgeschichtliche Sammlung in Westfalen-Lippe",
    "tourism": "museum",
    "website": "http://www.museum-in-westfalen-lippe.drk.de/",
    "wheelchair": "no"
  }
},
{
  "type": "node",
  "id": 4003388889,
  "lat": 52.0441762,
  "lon": 8.4399373,
  "tags": {
    "addr:city": "Bielefeld",
    "addr:country": "DE",
    "addr:housename": "Heimathaus",
    "addr:housenumber": "523",
    "addr:postcode": "33619",
    "addr:street": "Dornberger Straße",
    "name": "Heimatmuseum Dornberg",
    "operator": "Heimatverein Dornberg",
    "tourism": "museum",
    "website": "http://www.teutoburgerwaldverein.de/TWV/heimatverein-dornberg/06-Heimatmuseum.html"
  }
},
{
  "type": "node",
  "id": 4032752163,
  "lat": 51.8679330,
  "lon": 8.3133898,
  "tags": {
    "addr:city": "Rheda-Wiedenbrück",
    "addr:country": "DE",
    "addr:housenumber": "77",
    "addr:postcode": "33378",
    "addr:street": "Moorweg",
    "contact:email": "info@galerie-mertenshof.de",
    "contact:fax": "+49 524249774",
    "contact:phone": "+49 524242842",
    "name": "Galerie im Mertenshof",
    "tourism": "museum",
    "website": "https://www.galerie-mertenshof.de/"
  }
},
{
  "type": "node",
  "id": 4139087592,
  "lat": 51.8344489,
  "lon": 8.3158327,
  "tags": {
    "addr:city": "Rheda-Wiedenbrück",
    "addr:housenumber": "1",
    "addr:postcode": "33378",
    "addr:street": "Hoetger-Gasse",
    "name": "Wiedenbrücker Schule",
    "phone": "+49 5242 3785526",
    "toilets:wheelchair": "yes",
    "tourism": "museum",
    "website": "http://www.wiedenbruecker-schule.de",
    "wheelchair": "yes",
    "wheelchair:description": "Unser Museum ist komplett Barrierefrei! Fahrstuhl, Rampen, Toiletten: Unser Haus ist für Menschen mit Behinderung geeignet."
  }
},
{
  "type": "node",
  "id": 4159701757,
  "lat": 51.8255350,
  "lon": 8.2900598,
  "tags": {
    "addr:city": "Rheda-Wiedenbrück",
    "addr:country": "DE",
    "addr:housenumber": "44",
    "addr:postcode": "33378",
    "addr:street": "Eusterbrockstraße",
    "communication:amateur_radio:callsign": "DK0RTM",
    "fee": "no",
    "name": "Verstärkeramt",
    "official_name": "Radio- u. Telefon-Museum im Verstärkeramt",
    "opening_hours": "Sa,Su,PH 14:00-18:00",
    "rf:callsign": "DK0RTM",
    "rf:category": "ham",
    "short_name": "RTM",
    "tourism": "museum",
    "website": "https://www.verstaerkeramt.eu/"
  }
},
{
  "type": "node",
  "id": 4311889290,
  "lat": 52.0191838,
  "lon": 8.5285869,
  "tags": {
    "addr:housenumber": "61",
    "addr:postcode": "33602",
    "addr:street": "Welle",
    "email": "kontakt@bielefelder-kunstverein.de",
    "name": "Bielefelder Kunstverein",
    "opening_hours": "Sa-Su 12:00-22:00; Th-Fr 15:00-22:00",
    "operator": "Bielefelder Kunstverein e.V",
    "phone": "+49 521 178806",
    "tourism": "museum",
    "website": "http://www.bielefelder-kunstverein.de"
  }
},
{
  "type": "node",
  "id": 4382707389,
  "lat": 51.8847733,
  "lon": 8.5077432,
  "tags": {
    "addr:city": "Verl",
    "addr:country": "DE",
    "addr:housenumber": "1",
    "addr:postcode": "33415",
    "addr:street": "Sender Straße",
    "name": "Knopfmanufaktur",
    "opening_hours": "\"Führungen möglich auf Anfrage über das Heimathaus\"",
    "tourism": "museum"
  }
},
{
  "type": "node",
  "id": 4494913681,
  "lat": 51.8812226,
  "lon": 8.2355064,
  "tags": {
    "fee": "no",
    "name": "Caspar Ritter von Zumbusch-Museum",
    "opening_hours": "Su 15:00-17:00",
    "tourism": "museum"
  }
},
{
  "type": "node",
  "id": 5257585086,
  "lat": 52.0208955,
  "lon": 8.5010711,
  "tags": {
    "name": "Tierpräparateausstellung",
    "opening_hours": "Mo,Tu,Th,Fr off; We,Sa,Su,PH10:00-12:00, 12:30-18:00",
    "tourism": "museum"
  }
},
{
  "type": "node",
  "id": 5473361245,
  "lat": 52.2728702,
  "lon": 8.6730586,
  "tags": {
    "addr:city": "Hüllhorst",
    "addr:housenumber": "3",
    "addr:postcode": "32609",
    "addr:street": "Schnathorster Straße",
    "name": "Heimat-Museum",
    "tourism": "museum",
    "wikidata": "Q76634723"
  }
},
{
  "type": "node",
  "id": 5529015815,
  "lat": 51.9372640,
  "lon": 8.8768822,
  "tags": {
    "name": "Lippisches Landesmuseum",
    "opening_hours": "Mo off; Tu-Fr 10:00-18:00; Sa-Su 11:00-18:00",
    "phone": "+49 5231 99250",
    "tourism": "museum",
    "website": "http://www.lippisches-landesmuseum.de",
    "wheelchair": "yes",
    "wikidata": "Q1827534",
    "wikipedia": "de:Lippisches Landesmuseum"
  }
},
{
  "type": "node",
  "id": 6075925343,
  "lat": 51.8205229,
  "lon": 8.2299855,
  "tags": {
    "area": "yes",
    "description": "Museum für westfälische Literatur",
    "name": "Kulturgut Nottbeck",
    "tourism": "museum",
    "website": "https://www.kulturgut-nottbeck.de/"
  }
},
{
  "type": "node",
  "id": 6440668420,
  "lat": 52.0227838,
  "lon": 8.5462073,
  "tags": {
    "addr:city": "Bielefeld",
    "addr:country": "DE",
    "addr:housenumber": "3",
    "addr:postcode": "33607",
    "addr:street": "Ravensberger Park",
    "name": "Museum Hülsmann (moderne Sammlung)",
    "opening_hours": "We-Sa 14:00-18:00; Su 11:00-18:00",
    "phone": "+49-521-513767",
    "tourism": "museum",
    "website": "http://www.museumhuelsmann.de/"
  }
},
{
  "type": "node",
  "id": 6440668421,
  "lat": 52.0225427,
  "lon": 8.5461290,
  "tags": {
    "addr:city": "Bielefeld",
    "addr:country": "DE",
    "addr:housenumber": "3",
    "addr:postcode": "33607",
    "addr:street": "Ravensberger Park",
    "name": "Museum Hülsmann (Verwaltung)",
    "opening_hours": "We-Sa 14:00-18:00; Su 11:00-18:00",
    "phone": "+49-521-513767",
    "tourism": "museum",
    "website": "http://www.museumhuelsmann.de/"
  }
},
{
  "type": "node",
  "id": 6473349122,
  "lat": 51.7452233,
  "lon": 8.7125874,
  "tags": {
    "fee": "yes",
    "man_made": "surveillance",
    "name": "Residenzmuseum Schloß Neuhaus",
    "operator": "Stadt Paderborn",
    "surveillance": "indoor",
    "tourism": "museum",
    "wheelchair": "yes"
  }
},
{
  "type": "node",
  "id": 7136112005,
  "lat": 51.9366619,
  "lon": 8.8757246,
  "tags": {
    "name": "Lippisches Landes Museum",
    "opening_hours": "Mo off; Tu-Fr 10:00-18:00; Sa-Su 11:00-18:00",
    "operator": "Kreis Lippe",
    "operator:type": "public",
    "tourism": "museum",
    "website": "http://www.lippisches-landesmuseum.de"
  }
},
{
  "type": "node",
  "id": 7136121257,
  "lat": 51.9371845,
  "lon": 8.8759921,
  "tags": {
    "name": "Lippisches Landes Museum",
    "opening_hours": "Mo off; Tu-Fr 10:00-18:00; Sa-Su 11:00-18:00",
    "operator": "Kreis Lippe",
    "operator:type": "public",
    "tourism": "museum",
    "website": "http://www.lippisches-landesmuseum.de"
  }
},
{
  "type": "node",
  "id": 7159263686,
  "lat": 52.0102623,
  "lon": 8.8363569,
  "tags": {
    "addr:postcode": "32657",
    "name": "Auto-Museum \"der kleine Lemgoer\"",
    "name:en": "Car-Museum \"der kleine Lemgoer\"",
    "phone": "+49 5261 78160",
    "tourism": "museum"
  }
},
{
  "type": "way",
  "id": 24930550,
  "nodes": [
    1848816980,
    2031189279,
    1848816978,
    2031189265,
    2031189253,
    2031189235,
    2031189233,
    1848816975,
    1848816976,
    270917841,
    1848816977,
    2031189261,
    270917842,
    270917843,
    1848816979,
    270917844,
    270917845,
    270917846,
    1848816981,
    1848816983,
    1848816985,
    1848816987,
    1848816995,
    270917847,
    270917848,
    1848816999,
    1848817001,
    270917849,
    1848817003,
    270917850,
    270917851,
    1848817009,
    1848817008,
    270917852,
    270917853,
    1848817006,
    1848817010,
    1848817012,
    270917856,
    1848817013,
    270917857,
    270917858,
    2031189434,
    1848817018,
    1848817021,
    270917859,
    2031189460,
    2031189456,
    2031189449,
    2031189453,
    270917861,
    2393838724,
    2031189432,
    2031189417,
    2031189392,
    2031189308,
    1848816992,
    1848816993,
    1848816980
  ],
  "tags": {
    "addr:city": "Herford",
    "addr:country": "DE",
    "addr:housenumber": "2-10",
    "addr:postcode": "32052",
    "addr:street": "Goebenstraße",
    "alt_name": "Möbel ART ambiente",
    "artist_name": "Frank Gehry",
    "building": "yes",
    "building:colour": "#C49983",
    "building:parts": "vertical",
    "contact:fax": "+49 5221 994430-18",
    "contact:phone": "+49 5221 994430-0",
    "contact:website": "http://marta-herford.de",
    "name": "Marta Herford",
    "opening_hours": "Tu-Su,PH 11:00-18:00",
    "phone": "+49 5221 9944300",
    "roof:colour": "white",
    "toilets:wheelchair": "yes",
    "tourism": "museum",
    "website": "https://marta-herford.de/",
    "wheelchair": "yes",
    "wikidata": "Q459531",
    "wikipedia": "de:MARTa"
  }
},
{
  "type": "way",
  "id": 25182257,
  "nodes": [
    2580283619,
    2580283614,
    2580283617,
    2580283620,
    2580283619
  ],
  "tags": {
    "building": "yes",
    "fixme:wikipedia": "wikipedia tag links to a list article, not an article about this specific object. It would be better to fix it, or to rename \"wikipedia\" to \"related:wikipedia\"",
    "height": "6 m",
    "historic": "archaeological_site",
    "image": "File:Lemgo Brake Ölmühle.jpg",
    "man_made": "watermill",
    "name": "Ölmühle mit Wasserrad",
    "note": "ehemalige Ölmühle,kann besichtigt werden, angetrieben durch hölzernes Wasserad",
    "tourism": "museum",
    "watermill:disused": "yes",
    "wheelchair": "no",
    "wikipedia": "de:Liste der Baudenkmäler in Lemgo"
  }
},
{
  "type": "way",
  "id": 25212475,
  "nodes": [
    274907657,
    602232231,
    3692966404,
    274907658,
    274907659,
    274907665,
    1638822436,
    1458124867,
    602232246,
    274907660,
    274907661,
    1638822502,
    1638822488,
    274907662,
    274905871,
    274905870,
    274905881,
    1458124844,
    1458124870,
    274907657
  ],
  "tags": {
    "landuse": "industrial",
    "name": "LWL-Industriemuseum Ziegeleimuseum in Lage",
    "phone": "+49 5232 9490-0",
    "tourism": "museum",
    "website": "https://www.lwl.org/LWL/Kultur/wim/portal/S/lage/ort/",
    "wheelchair": "yes"
  }
},
{
  "type": "way",
  "id": 26126685,
  "nodes": [
    286032335,
    6484467523,
    6538066946,
    6538066942,
    286032340,
    6538066944,
    2278925880,
    286032343,
    286032347,
    6484453353,
    286032335
  ],
  "tags": {
    "addr:city": "Bielefeld",
    "addr:country": "DE",
    "addr:housenumber": "5",
    "addr:postcode": "33602",
    "addr:street": "Artur-Ladebeck-Straße",
    "building": "public",
    "building:colour": "#a32727",
    "height": "16.5",
    "name": "Kunsthalle",
    "opening_hours": "Tu-Su 11:00-18:00, We 11:00-21:00, Sa 10:00-18:00",
    "phone": "+49-521-32999500",
    "roof:colour": "gray",
    "roof:shape": "flat",
    "tourism": "museum",
    "website": "https://www.kunsthalle-bielefeld.de/",
    "wheelchair": "yes",
    "wikipedia": "de:Kunsthalle Bielefeld"
  }
},
{
  "type": "way",
  "id": 27378154,
  "nodes": [
    3554758664,
    3554758641,
    3947853617,
    3947853615,
    3947853616,
    3862676259,
    3551722059,
    4801212540,
    3947853613,
    3551722056,
    1272321871,
    3947839954,
    3947839952,
    2048541697,
    300547914,
    300547917,
    3947839944,
    1255956087,
    1255956184,
    3551661289,
    4801100725,
    300547922,
    300547927,
    300547935,
    300547739,
    4801100731,
    656338487,
    4801100697,
    300547945,
    4801100683,
    300547941,
    300547681,
    300547683,
    300547661,
    3542597449,
    3542597452,
    3542597450,
    3542597451,
    3542597448,
    3542597443,
    3542597444,
    3542597447,
    3542597445,
    3542597446,
    3542597442,
    300547667,
    1255956275,
    300547671,
    4801100752,
    4801100755,
    2573727031,
    2573727025,
    2573727017,
    3948751719,
    4801100740,
    3948751716,
    3948751715,
    3948751714,
    3948751712,
    3948751713,
    300547714,
    3948755108,
    3948755109,
    3948755110,
    3948755111,
    3948755112,
    3948755113,
    3948755114,
    3948755115,
    3948755116,
    3948755117,
    6071631605,
    3948755118,
    6071631606,
    3948755119,
    3948755120,
    3948755122,
    3948755123,
    300547921,
    300547918,
    300547916,
    300547936,
    300547933,
    300547928,
    300547926,
    300547674,
    300547677,
    300547682,
    300547685,
    300547692,
    300547650,
    3851604990,
    3851604985,
    548894066,
    3851604998,
    3851604984,
    300547719,
    659892462,
    2918325306,
    4456940982,
    2918325308,
    300547898,
    659892963,
    567008583,
    567008588,
    567008590,
    567008592,
    1311036504,
    2918325315,
    300547873,
    3862676270,
    3862676272,
    300547700,
    4801212579,
    300547706,
    3862676276,
    3851605008,
    4801212567,
    4801212568,
    4801212566,
    4801212565,
    3554758667,
    3947853619,
    3947853618,
    3924449490,
    3924449485,
    3554758664
  ],
  "tags": {
    "access": "customers",
    "addr:city": "Detmold",
    "addr:postcode": "32760",
    "addr:street": "Krummes Haus",
    "barrier": "fence",
    "contact:phone": "+4952317060",
    "contact:website": "http://www.lwl-freilichtmuseum-detmold.de/",
    "historic": "farm",
    "museum": "open_air",
    "name": "Freilichtmuseum Detmold",
    "operator": "LWL",
    "tourism": "museum",
    "wheelchair": "yes",
    "wikidata": "Q314847",
    "wikipedia": "de:LWL-Freilichtmuseum Detmold"
  }
},
{
  "type": "way",
  "id": 29227034,
  "nodes": [
    321464378,
    581835322,
    418257064,
    321464380,
    418257062,
    321464384,
    321464386,
    321464388,
    7139942402,
    321464378
  ],
  "tags": {
    "name": "Deutsches Tabak- und Zigarrenmuseum",
    "opening_hours": "Tu-Fr 14:00-18:00, Sa-Su 11:00-18:00",
    "toilets:wheelchair": "yes",
    "tourism": "museum",
    "wheelchair": "yes",
    "wikidata": "Q1206029"
  }
},
{
  "type": "way",
  "id": 32453658,
  "nodes": [
    3360236934,
    3360236911,
    3360238218,
    3360238166,
    3360238228,
    3360238159,
    3360238162,
    3360238174,
    3360238239,
    3360238281,
    3360236934
  ],
  "tags": {
    "addr:city": "Werther (Westf.)",
    "addr:country": "DE",
    "addr:housenumber": "111",
    "addr:postcode": "33824",
    "addr:street": "Schloßstraße",
    "building": "yes",
    "name": "Böckstiegel-Haus",
    "tourism": "museum",
    "url": "http://www.paboeckstiegel.de/",
    "wheelchair": "yes",
    "wikipedia": "de:Peter August Böckstiegel"
  }
},
{
  "type": "way",
  "id": 35320331,
  "nodes": [
    1945776727,
    4921725046,
    4921725047,
    3484406436,
    4921725049,
    4921725048,
    4921725050,
    4921725051,
    733994149,
    1280122341,
    1280122349,
    4921719116,
    1280122339,
    4921719119,
    4921719092,
    4921719087,
    1855256516,
    3484406480,
    4921719080,
    4920409002,
    1945776743,
    1945776745,
    1945776739,
    4920544649,
    4920450024,
    4920450025,
    4920450026,
    1508987383,
    4921725044,
    4921725045,
    1945776727
  ],
  "tags": {
    "addr:city": "Bielefeld",
    "addr:country": "DE",
    "addr:housenumber": "82",
    "addr:postcode": "33619",
    "addr:street": "Dornberger Straße",
    "area": "yes",
    "barrier": "fence",
    "fee": "yes",
    "historic": "farm",
    "museum": "open_air",
    "name": "Bauernhausmuseum",
    "opening_hours": "Feb 01-Dec 23 Tu-Fr 10:00-18:00; Feb 01-Dec 23 Sa,Su,PH 11:00-18:00",
    "operator": "Bielefelder Bauernhausmuseum gGmbH",
    "tourism": "museum",
    "website": "https://www.bielefelder-bauernhausmuseum.de/",
    "wheelchair": "limited",
    "wikidata": "Q811262",
    "wikipedia": "de:Bauernhausmuseum Bielefeld"
  }
},
{
  "type": "way",
  "id": 37832766,
  "nodes": [
    443686470,
    443686471,
    443686472,
    443686473,
    3388578817,
    3388578821,
    3388578830,
    3388578824,
    443686470
  ],
  "tags": {
    "addr:city": "Bielefeld",
    "addr:country": "DE",
    "addr:housenumber": "20",
    "addr:postcode": "33602",
    "addr:street": "Kreuzstraße",
    "building": "yes",
    "building:colour": "Wheat",
    "building:levels": "2",
    "height": "15 m",
    "name": "Naturkundemuseum \"Spiegelshof\"",
    "phone": "+49-521-51-6734",
    "roof:colour": "red",
    "roof:height": "8 m",
    "roof:shape": "gabled",
    "tourism": "museum",
    "website": "https://namu-ev.de/",
    "wikidata": "Q1970349"
  }
},
{
  "type": "way",
  "id": 38070620,
  "nodes": [
    447786410,
    1520168329,
    447786411,
    1520168315,
    1520168313,
    447786412,
    1520168309,
    1520168298,
    447786413,
    1520168300,
    447786414,
    447786416,
    447786410
  ],
  "tags": {
    "addr:city": "Bad Oeynhausen",
    "addr:country": "DE",
    "addr:housenumber": "3",
    "addr:postcode": "32545",
    "addr:street": "Am Kurpark",
    "building": "public",
    "description": "Villa",
    "heritage": "8",
    "heritage:operator": "UntereDenkmalbehörde",
    "name": "Deutsche Märchen- und Wesersagenmuseum",
    "opening_hours": "We-Su 10:00-12:00,14:00-17:00; Mo-Tu off",
    "ref_heritage": "Bad Oeynhausen Nr. 72",
    "tourism": "museum",
    "website": "http://maerchenmuseum.blogspot.com/",
    "wheelchair": "no",
    "wikidata": "Q1205854",
    "wikipedia:de": "Deutsches Märchen- und Wesersagenmuseum"
  }
},
{
  "type": "way",
  "id": 38279956,
  "nodes": [
    451670525,
    451670527,
    451670528,
    451670529,
    3565455054,
    450893540,
    451670525
  ],
  "tags": {
    "building": "yes",
    "name": "Terra phänomenales",
    "tourism": "museum",
    "website": "https://www.pottspark-minden.de/terra_phaenomenalis/"
  }
},
{
  "type": "way",
  "id": 45652265,
  "nodes": [
    581835313,
    581835315,
    581835317,
    581835318,
    321464378,
    581835322,
    581835324,
    581835313
  ],
  "tags": {
    "name": "Dobergmuseum - Geologisches Museum OWL",
    "toilets:wheelchair": "yes",
    "tourism": "museum",
    "wheelchair": "yes"
  }
},
{
  "type": "way",
  "id": 47120881,
  "nodes": [
    3430488066,
    3430488067,
    3430488052,
    3430487782,
    3430488002,
    3430488005,
    3430488010,
    3430488006,
    3430488011,
    3430488014,
    3430488015,
    3430488027,
    3430488028,
    3430488030,
    3430488024,
    3430488296,
    3430488295,
    3430488294,
    3430488091,
    3430488072,
    3430488066
  ],
  "tags": {
    "addr:city": "Lübbecke",
    "addr:country": "DE",
    "addr:housenumber": "3",
    "addr:postcode": "32312",
    "addr:street": "Am Markt",
    "alt_name": "Mediothek Lübbecke; Städtisches Museum",
    "amenity": "library",
    "building": "yes",
    "email": "mediothek@luebbecke.de",
    "historic": "yes",
    "name": "Kultur- und Medienzentrum Lübbecke",
    "old_name": "Altes Rathaus",
    "opening_hours": "Tu 10:00-20:00; We 11:00-18:00; Th-Fr 11:00-13:00, 14:30-18:00",
    "operator": "Stadt Lübbecke",
    "phone": "+49-5741-276401",
    "ref:isil": "DE-787",
    "tourism": "museum",
    "website": "http://www.luebbecke.de/mediothek",
    "wikidata": "Q28733543"
  }
},
{
  "type": "way",
  "id": 54148134,
  "nodes": [
    683068372,
    769379001,
    683068388,
    6855666819,
    683068382,
    683068385,
    683068373,
    1754670683,
    1754670681,
    683068380,
    6397274747,
    683068372
  ],
  "tags": {
    "addr:city": "Paderborn",
    "addr:housenumber": "7",
    "addr:postcode": "33102",
    "addr:street": "Fürstenallee",
    "building": "office",
    "diaper": "room",
    "fee": "yes",
    "museum": "technology",
    "name": "Heinz Nixdorf MuseumsForum",
    "opening_hours": "Tu-Fr 09:00-18:00; PH,Sa,Su 10:00-18:00; Mo closed",
    "toilets": "yes",
    "toilets:access": "permissive",
    "toilets:wheelchair": "yes",
    "tourism": "museum",
    "website": "https://www.hnf.de/",
    "wheelchair": "yes",
    "wikidata": "Q1600696",
    "wikipedia": "de:Heinz Nixdorf MuseumsForum"
  }
},
{
  "type": "way",
  "id": 82424006,
  "nodes": [
    959449481,
    959450172,
    959449655,
    959449449,
    959450092,
    959449596,
    959449481
  ],
  "tags": {
    "building": "yes",
    "description": "Vierständerbau",
    "heritage": "8",
    "heritage:operator": "UntereDenkmalbehörde",
    "name": "Rehmer Heimathaus",
    "ref_heritage": "Bad Oeynhausen Nr. 107",
    "tourism": "museum",
    "website": "http://www.rehmer-heimatverein.de"
  }
},
{
  "type": "way",
  "id": 86175583,
  "nodes": [
    1000245891,
    6745690858,
    1000245916,
    1000245892,
    6745690857,
    6745690882,
    1000245922,
    6745690863,
    1000245891
  ],
  "tags": {
    "building": "yes",
    "building:colour": "#d9dce0",
    "building:levels": "1.2",
    "building:material": "glass",
    "name": "Brackweder Rathauspavillon",
    "roof:colour": "#8f9193",
    "roof:material": "tar_paper",
    "roof:shape": "flat",
    "tourism": "museum"
  }
},
{
  "type": "way",
  "id": 95280012,
  "nodes": [
    3669948401,
    3669948402,
    3669948391,
    3669948390,
    3669948392,
    3669948398,
    3669948401
  ],
  "tags": {
    "addr:city": "Oerlinghausen",
    "addr:country": "DE",
    "addr:housenumber": "4",
    "addr:postcode": "33813",
    "addr:street": "Am Barkhauser Berge",
    "building": "yes",
    "name": "Archäologisches Freilichtmuseum Oerlinghausen",
    "tourism": "museum"
  }
},
{
  "type": "way",
  "id": 111077417,
  "nodes": [
    2897200729,
    2897200670,
    2897200548,
    2897200638,
    2897200729
  ],
  "tags": {
    "addr:city": "Verl",
    "addr:country": "DE",
    "addr:housenumber": "8",
    "addr:postcode": "33415",
    "addr:street": "Sender Straße",
    "building": "yes",
    "name": "Heimathaus",
    "opening_hours": "We 15:00-17:30; Su,PH 15:00-17:30",
    "tourism": "museum",
    "website": "http://www.verlerland.de/heimathaus.html",
    "wikidata": "Q1393282",
    "wikipedia": "de:Heimathaus Verl"
  }
},
{
  "type": "way",
  "id": 113895541,
  "nodes": [
    1291172607,
    1291175479,
    1291171298,
    2136515564,
    1291174571,
    1291172607
  ],
  "tags": {
    "building": "yes",
    "name": "Lippisches Landesmuseum - naturkundliche Sammlung",
    "tourism": "museum"
  }
},
{
  "type": "way",
  "id": 114516730,
  "nodes": [
    1297080385,
    1297080384,
    1297080398,
    1297080399,
    1297080383,
    1297080382,
    2282961758,
    1297080400,
    1297080401,
    1297080402,
    1297080405,
    1297080385
  ],
  "tags": {
    "addr:city": "Bielefeld",
    "addr:country": "DE",
    "addr:housenumber": "14",
    "addr:postcode": "33617",
    "addr:street": "Lutterstraße",
    "building": "industrial",
    "building:colour": "#f08080",
    "building:levels": "3.5",
    "building:material": "brick",
    "name": "Dr. Oetker Welt",
    "opening_hours": "\"on appointment\"",
    "phone": "+800-71727374",
    "roof:colour": "red",
    "roof:levels": "1.5",
    "roof:material": "roof_tiles",
    "roof:shape": "gabled",
    "tourism": "museum",
    "website": "https://www.oetker.de/dr-oetker-welt/startseite.html",
    "wheelchair": "yes"
  }
},
{
  "type": "way",
  "id": 115616539,
  "nodes": [
    3357867499,
    3357867518,
    3357867388,
    3357867374,
    3357863984,
    3357867418,
    3357867499
  ],
  "tags": {
    "addr:city": "Halle (Westf.)",
    "addr:housenumber": "3",
    "addr:postcode": "33790",
    "addr:street": "Kirchplatz",
    "building": "yes",
    "name": "Museum für Kindheits- und Jugendwerke bedeutender Künstler",
    "tourism": "museum",
    "wheelchair": "no",
    "wikidata": "Q1764904"
  }
},
{
  "type": "way",
  "id": 115718609,
  "nodes": [
    3357864690,
    3357867606,
    3357867441,
    3357867048,
    3357864690
  ],
  "tags": {
    "addr:city": "Halle (Westf.)",
    "addr:country": "DE",
    "addr:housenumber": "4",
    "addr:postcode": "33790",
    "addr:street": "Gartenstraße",
    "building": "yes",
    "name": "Sigmund-Strecker-Museum",
    "tourism": "museum"
  }
},
{
  "type": "way",
  "id": 120342329,
  "nodes": [
    3430381644,
    3430381442,
    3430381250,
    3430381458,
    3430381644
  ],
  "tags": {
    "addr:city": "Kirchlengern",
    "addr:country": "DE",
    "addr:housenumber": "49",
    "addr:postcode": "32278",
    "addr:street": "Rehmerloher Straße",
    "building": "yes",
    "name": "Bauernbad Rehmerloh",
    "tourism": "museum"
  }
},
{
  "type": "way",
  "id": 123362758,
  "nodes": [
    3100831577,
    3100831572,
    3100831571,
    3100831538,
    3100831541,
    3100831561,
    3100831560,
    3100831578,
    3100831577
  ],
  "tags": {
    "addr:city": "Hövelhof",
    "addr:country": "DE",
    "addr:housenumber": "17a",
    "addr:postcode": "33161",
    "addr:street": "Furlweg",
    "addr:suburb": "Riege",
    "alt_name": "Hammersmühle",
    "building": "yes",
    "historic": "watermill",
    "man_made": "watermill",
    "name": "Furlmühle",
    "source": "NRW Atlas DOP 40",
    "start_date": "1591",
    "tourism": "museum"
  }
},
{
  "type": "way",
  "id": 125762135,
  "nodes": [
    6878880111,
    6878880112,
    6515760684,
    1396065188,
    1396065180,
    1396065185,
    1396065189,
    6878880113,
    6878880114,
    6878880111
  ],
  "tags": {
    "addr:city": "Bielefeld",
    "addr:country": "DE",
    "addr:housenumber": "23",
    "addr:postcode": "33604",
    "addr:street": "Eduard-Windthorst-Straße",
    "building": "yes",
    "name": "Krankenhausmuseum",
    "opening_hours": "Su 14:00-17:00",
    "operator": "Krankenhausmuseum Bielefeld e. V.",
    "operator:type": "private",
    "phone": "+49-521-581-2267",
    "tourism": "museum",
    "website": "http://www.krankenhausmuseum-bielefeld.de/",
    "wikidata": "Q60431292"
  }
},
{
  "type": "way",
  "id": 137652319,
  "nodes": [
    6446108184,
    7042386256,
    7042386257,
    7042386259,
    7042386258,
    1509715124,
    7042386219,
    7045174523,
    7042386200,
    6446108163,
    6446108165,
    1509715134,
    1509715135,
    6446108183,
    6446108184
  ],
  "tags": {
    "landuse": "farmyard",
    "name": "Sägemühle Meier Osthoff",
    "tourism": "museum"
  }
},
{
  "type": "way",
  "id": 142946753,
  "nodes": [
    1477151000,
    1477151017,
    1477151014,
    1477150952,
    1477150953,
    1477150947,
    1477150944,
    1477150933,
    1477150935,
    1477150973,
    1477151000
  ],
  "tags": {
    "addr:city": "Marienfeld",
    "addr:country": "DE",
    "addr:housenumber": "11",
    "addr:postcode": "33428",
    "addr:street": "Adenauerstraße",
    "addr:suburb": "Marienfeld",
    "building": "yes",
    "name": "Ikonenmuseum Jung",
    "tourism": "museum"
  }
},
{
  "type": "way",
  "id": 151346796,
  "nodes": [
    2625170096,
    2625170113,
    2625170060,
    2625169831,
    2625169834,
    2625169803,
    2625169864,
    2625169836,
    2625169896,
    2625169935,
    2625169964,
    2625170111,
    2625170170,
    2625170096
  ],
  "tags": {
    "addr:city": "Vlotho",
    "addr:country": "DE",
    "addr:housenumber": "136",
    "addr:postcode": "32602",
    "addr:street": "Lange Straße",
    "building": "yes",
    "tourism": "museum"
  }
},
{
  "type": "way",
  "id": 155500593,
  "nodes": [
    3476146604,
    3476146602,
    3476146598,
    3476146599,
    3476146595,
    3476146593,
    3476146586,
    3476146575,
    3476146582,
    3476146581,
    3476146589,
    3476146590,
    3476146592,
    3476146591,
    3476146596,
    3476146608,
    3476146604
  ],
  "tags": {
    "addr:city": "Löhne",
    "addr:housenumber": "300",
    "addr:postcode": "32584",
    "addr:street": "Alter Postweg",
    "building": "yes",
    "name": "Heimatmuseum Löhne",
    "tourism": "museum"
  }
},
{
  "type": "way",
  "id": 159580054,
  "nodes": [
    1716931787,
    1716931785,
    1716931783,
    4022139708,
    4022139716,
    4022139714,
    1716931787
  ],
  "tags": {
    "name": "Heimatzentrum OWL",
    "tourism": "museum",
    "website": "http://www.heimatzentrum-owl.de/"
  }
},
{
  "type": "way",
  "id": 166656993,
  "nodes": [
    4480962666,
    4480962672,
    4480962671,
    4480962669,
    4480962665,
    4480962615,
    4480962589,
    4480962585,
    4480962618,
    4480962617,
    4480962584,
    4480962583,
    4480962605,
    4480962600,
    4480962647,
    4480962652,
    4480962653,
    4480962648,
    4480962649,
    4480962668,
    4480962666
  ],
  "tags": {
    "addr:city": "Bielefeld",
    "addr:country": "DE",
    "addr:housenumber": "48a",
    "addr:postcode": "33602",
    "addr:street": "Viktoriastraße",
    "building": "yes",
    "name": "Museum Wäschefabrik",
    "opening_hours": "Su 11:00-18:00",
    "tourism": "museum",
    "website": "http://www.museum-waeschefabrik.de/",
    "wheelchair": "no",
    "wikidata": "Q1954508"
  }
},
{
  "type": "way",
  "id": 170261009,
  "nodes": [
    1814108420,
    1814108428,
    2393838707,
    2393838713,
    2393838718,
    2393838715,
    1814108431,
    2393838709,
    2393838711,
    2393838705,
    2393838703,
    1814108414,
    2393838697,
    2393838695,
    2393838691,
    2393838693,
    1814108403,
    1814108412,
    1814108406,
    2393838689,
    2393838687,
    1814108402,
    1838355838,
    1838355843,
    1838355825,
    1838355840,
    1838355835,
    1838355841,
    1814108401,
    1838355845,
    1838355846,
    1838355847,
    1814108409,
    1838355848,
    1838355849,
    1814108423,
    1814108425,
    2393838699,
    2393838701,
    1814108417,
    1838355850,
    1814108420
  ],
  "tags": {
    "addr:city": "Herford",
    "addr:country": "DE",
    "addr:housenumber": "2",
    "addr:postcode": "32052",
    "addr:street": "Deichtorwall",
    "building": "yes",
    "building:colour": "grey",
    "description": "Städtisches Museum; Stuckzierfassade; 1874; Oesterlen-Anbau des Städtischen Museums; Oesterlen-Anbau des Städtischen Museums; 1973–1975",
    "email": "poeppelmannhaus@herford.de",
    "height": "4",
    "heritage": "8",
    "heritage:operator": "UntereDenkmalbehörde",
    "name": "Daniel-Pöppelmann-Haus",
    "network": "BaudenkmälerHerford",
    "note": "Denkmalnummer 53,472",
    "opening_hours": "Tu-Sa 14:00-18:00; Su 11:00-18:00; Mo off",
    "phone": "+49 5221 189 689",
    "roof:colour": "grey",
    "roof:lines": "no",
    "roof:shape": "flat",
    "toilets:wheelchair": "no",
    "tourism": "museum",
    "website": "http://www.poeppelmannhaus.herford.de/",
    "wheelchair": "limited",
    "wheelchair:description": "Der Museumskomplex liegt erhöht auf den Resten eines ehemaligen Rondells der Stadtbefestigung; die Steigung beträgt 6,4 %. Das Gebäude verfügt über einen Fahrstuhl. Da keine Behindertentoilette vorhanden, ungeeignet für längeren Aufenthalt.",
    "wikidata": "Q1159841",
    "wikipedia": "de:Liste der Baudenkmäler in Herford#53"
  }
},
{
  "type": "way",
  "id": 174007552,
  "nodes": [
    1847503493,
    1847503494,
    4155657093,
    1847503492,
    1847503490,
    1847503493
  ],
  "tags": {
    "addr:city": "Hiddenhausen",
    "addr:country": "DE",
    "addr:housenumber": "60",
    "addr:postcode": "32120",
    "addr:street": "Blumenstraße",
    "building": "yes",
    "name": "Museumsschule Hiddenhausen",
    "phone": "+49 5221 964 352",
    "tourism": "museum"
  }
},
{
  "type": "way",
  "id": 174007554,
  "nodes": [
    1847503495,
    1847503496,
    4155657090,
    4155657089,
    1847503475,
    1847503495
  ],
  "tags": {
    "leisure": "park",
    "name": "Museumsschule Hiddenhausen",
    "tourism": "museum"
  }
},
{
  "type": "way",
  "id": 182457039,
  "nodes": [
    1928091477,
    1928091465,
    1928091469,
    3454459863,
    4379468463,
    4379468464,
    1928091480,
    1928091477
  ],
  "tags": {
    "addr:city": "Enger",
    "addr:country": "DE",
    "addr:housenumber": "54",
    "addr:postcode": "32130",
    "addr:street": "Bahnhofstraße",
    "building": "yes",
    "name": "Kleinbahn Museum",
    "tourism": "museum"
  }
},
{
  "type": "way",
  "id": 191766026,
  "nodes": [
    3430375059,
    3430375056,
    3430374945,
    3430374947,
    3430374952,
    3430375016,
    3430375215,
    3430375059
  ],
  "tags": {
    "addr:city": "Kirchlengern",
    "addr:country": "DE",
    "addr:housenumber": "27",
    "addr:postcode": "32278",
    "addr:street": "Am Herrenhaus",
    "building": "yes",
    "name": "Herrenhaus",
    "tourism": "museum"
  }
},
{
  "type": "way",
  "id": 191780892,
  "nodes": [
    3430377298,
    3430377118,
    3430377178,
    3430377194,
    3430377206,
    3430377264,
    3430377254,
    3430377341,
    3430377340,
    3430377328,
    3430377298
  ],
  "tags": {
    "addr:city": "Kirchlengern",
    "addr:country": "DE",
    "addr:housenumber": "15",
    "addr:postcode": "32278",
    "addr:street": "An der Stiftskirche",
    "building": "yes",
    "name": "Rauchfang",
    "tourism": "museum"
  }
},
{
  "type": "way",
  "id": 193313575,
  "nodes": [
    2800474823,
    2503259765,
    2503259752,
    2503259747,
    2038204138,
    2503259739,
    2503259742,
    2038204135,
    2038204137,
    2503259750,
    2503259753,
    5032353581,
    2503259763,
    2800474822,
    2800474823
  ],
  "tags": {
    "access": "private",
    "building": "yes",
    "fee": "yes",
    "name": "Innenhof",
    "operator": "Stadt Detmold & Familie Zur Lippe",
    "operator:type": "public",
    "surface": "cobblestone:flattened",
    "tourism": "museum",
    "website": "https://www.schloss-detmold.de/",
    "wikidata": "Q1483652",
    "wikipedia": "de:Fürstliches Residenzschloss Detmold"
  }
},
{
  "type": "way",
  "id": 194368987,
  "nodes": [
    2048868726,
    2048868699,
    2048868711,
    2048868723,
    2048868718,
    2048868737,
    2048868726
  ],
  "tags": {
    "addr:city": "Enger",
    "addr:country": "DE",
    "addr:housenumber": "10",
    "addr:postcode": "32130",
    "addr:street": "Kirchplatz",
    "building": "yes",
    "fax": "+49-5224-910996",
    "name": "Widukind Museum",
    "phone": "+49 5224 910995",
    "toilets:wheelchair": "yes",
    "tourism": "museum",
    "website": "http://www.widukind-museum-enger.de/",
    "wheelchair": "yes",
    "wheelchair:description": "Rampe am Eingang"
  }
},
{
  "type": "way",
  "id": 207559653,
  "nodes": [
    2158120129,
    2158120131,
    2158120143,
    2578966834,
    2578966860,
    2857642314,
    2857642313,
    2578966438,
    2178211929,
    2178211928,
    2178211930,
    2178211931,
    2158120151,
    2158120128,
    2158120129
  ],
  "tags": {
    "name": "Museum Hexenbürgermeisterhaus",
    "tourism": "museum",
    "wikidata": "Q1616741"
  }
},
{
  "type": "way",
  "id": 209792318,
  "nodes": [
    2199698484,
    2199698483,
    5018640105,
    2199698482,
    2199698481,
    412972244,
    412972241,
    5018640110,
    2199698484
  ],
  "tags": {
    "access": "customers",
    "building": "yes",
    "description": "Eintrittspreis im Parkeintritt enthalten",
    "fee": "no",
    "name": "Kindermuseum KLIPP KLAPP",
    "tourism": "museum",
    "website": "http://www.kindermuseum-klipp-klapp.de/"
  }
},
{
  "type": "way",
  "id": 248799791,
  "nodes": [
    3603137875,
    3603137854,
    3603137846,
    3603137856,
    3603137857,
    3603137859,
    3603137866,
    3603137862,
    3603137875
  ],
  "tags": {
    "addr:city": "Delbrück",
    "addr:country": "DE",
    "addr:housenumber": "10",
    "addr:postcode": "33129",
    "addr:street": "Kirchplatz",
    "building": "yes",
    "name": "Heimathaus",
    "source": "ALKIS",
    "tourism": "museum"
  }
},
{
  "type": "way",
  "id": 251774077,
  "nodes": [
    2579500931,
    2579500862,
    2579500858,
    2579500812,
    2579500810,
    2579500633,
    2579500644,
    2579500562,
    2579500597,
    2579500782,
    2579500772,
    2579500784,
    2579500796,
    2707228759,
    2579500873,
    2579500869,
    2579500956,
    2579500982,
    2579501118,
    2579501103,
    2579500922,
    2579500931
  ],
  "tags": {
    "addr:city": "Lemgo",
    "addr:country": "DE",
    "addr:housenumber": "36",
    "addr:postcode": "32657",
    "addr:street": "Hamelner Straße",
    "building": "house",
    "contact:phone": "+49 5261 667695",
    "contact:website": "http://junkerhaus.de",
    "name": "Museum Junkerhaus Lemgo",
    "opening_hours": "Apr 01-Oct 31 Tu-Su 10:00-17:00, Nov 01-Mar 31 Fr-Su 11:00-15:00",
    "tourism": "museum",
    "wheelchair": "limited",
    "wheelchair:description": "Obere Etagen des Junkerhauses nur per Treppe erreichbar",
    "wikidata": "Q1713629"
  }
},
{
  "type": "way",
  "id": 283502266,
  "nodes": [
    2873547900,
    2873550405,
    2873550402,
    2873547899,
    2873547900
  ],
  "tags": {
    "building": "yes",
    "name": "Grönegau Museum",
    "source": "Bing",
    "tourism": "museum"
  }
},
{
  "type": "way",
  "id": 283503129,
  "nodes": [
    2873567337,
    2873567364,
    2873567380,
    2873567352,
    2873567337
  ],
  "tags": {
    "building": "yes",
    "name": "Grönegau-Museum",
    "tourism": "museum"
  }
},
{
  "type": "way",
  "id": 283503138,
  "nodes": [
    2873567345,
    2873567386,
    2873567333,
    2873567327,
    2873567345
  ],
  "tags": {
    "building": "yes",
    "name": "Grönegau-Museum",
    "tourism": "museum"
  }
},
{
  "type": "way",
  "id": 298851425,
  "nodes": [
    3996413576,
    3996413561,
    3996413563,
    3996413562,
    3996413343,
    3996413342,
    3996413338,
    4838742549,
    3996413345,
    3996413344,
    3996413559,
    3996413576
  ],
  "tags": {
    "addr:city": "Paderborn",
    "addr:country": "DE",
    "addr:housenumber": "8",
    "addr:postcode": "33100",
    "addr:street": "Karl-Schoppe-Weg",
    "building": "yes",
    "name": "Deutsches Traktoren und Modellauto Museum",
    "opening_hours": "Fr-Su 10:00-18:00",
    "payment:account_cards": "yes",
    "payment:electronic_purses": "yes",
    "tourism": "museum",
    "website": "https://www.deutsches-traktorenmuseum.de",
    "wikidata": "Q1206069"
  }
},
{
  "type": "way",
  "id": 305457226,
  "nodes": [
    3100828740,
    3100828616,
    3100828576,
    3100828602,
    3100828603,
    3100828606,
    3100828615,
    3100828610,
    3100828740
  ],
  "tags": {
    "addr:city": "Hövelhof",
    "addr:country": "DE",
    "addr:housenumber": "20",
    "addr:postcode": "33161",
    "addr:street": "Junkernallee",
    "addr:suburb": "Riege",
    "building": "yes",
    "name": "Dorfschulmuseum",
    "operator": "Dorfgemeinschaft Hövelriege/Riege e.V.",
    "source": "NRW Atlas DOP 40",
    "tourism": "museum"
  }
},
{
  "type": "way",
  "id": 407059141,
  "nodes": [
    1417029860,
    4090960446,
    4090960447,
    4090960445,
    1417029860
  ],
  "tags": {
    "abandoned:power": "substation",
    "abandoned:substation": "minor_distribution",
    "building": "transformer_house",
    "heritage": "yes",
    "historic": "industrial",
    "image": "https://commons.wikimedia.org/wiki/File:Trafoturmstation_Schlangen.jpg",
    "name": "Historische Trafoturmstation Schlangen Mitte",
    "note": "saniert 2010",
    "object:postcode": "33189",
    "object:village": "Schlangen",
    "opening_hours": "on demand",
    "operator": "Förderverein Ortsgeschichte Schlangen e.V.",
    "roof:shape": "gabled",
    "source_ref": "http://schlänger-geschichte.de/alte-technik-im-neuen-licht/",
    "tourism": "museum",
    "url": "http://www.museumsinitiative-owl.de/?p=4597",
    "year_of_construction": "1925"
  }
},
{
  "type": "way",
  "id": 685048140,
  "nodes": [
    287873842,
    6418918419,
    6418918418,
    6418918417,
    6418918416,
    6418918415,
    287873831,
    287873834,
    287873838,
    2422062730,
    2422062728,
    287873842
  ],
  "tags": {
    "name": "Museum Osthusschule",
    "tourism": "museum",
    "website": "http://www.museum-osthusschule.de/",
    "wikidata": "Q17124821"
  }
},
{
  "type": "relation",
  "id": 4057550,
  "members": [
    {
      "type": "way",
      "ref": 304438381,
      "role": "inner"
    },
    {
      "type": "way",
      "ref": 304224054,
      "role": "outer"
    }
  ],
  "tags": {
    "addr:city": "Melle",
    "addr:country": "DE",
    "addr:housenumber": "38-40",
    "addr:postcode": "49324",
    "addr:street": "Pestelstraße",
    "building": "yes",
    "building:levels": "2",
    "contact:website": "www.automuseummelle.de",
    "description": "Das Automuseum befindet sich ein einer ehemaligen Möbelfabrik, welches an der Außenfassade zu lesen ist.",
    "name": "Automuseum Melle",
    "opening_hours": "Tu-Sa 11:00-18:00; Su 10:00-18:00; Mo off",
    "operator": "\"Geschichte auf Rädern\" AUTOMUSEUM MELLE gemeinnützige GmbH",
    "tourism": "museum",
    "type": "multipolygon",
    "website": "https://www.automuseum-melle.de/",
    "wheelchair": "yes",
    "wikidata": "Q787944"
  }
},
{
  "type": "relation",
  "id": 6011684,
  "members": [
    {
      "type": "way",
      "ref": 193313576,
      "role": "outer"
    },
    {
      "type": "way",
      "ref": 193313575,
      "role": "inner"
    }
  ],
  "tags": {
    "access": "yes",
    "addr:city": "Detmold",
    "addr:country": "DE",
    "addr:housenumber": "1",
    "addr:postcode": "32756",
    "addr:state": "NRW",
    "addr:street": "Schloßplatz",
    "building": "yes",
    "castle_type": "stately",
    "email": "verwaltung@schloss-detmold.de",
    "fax": "05231-700249",
    "fee": "yes",
    "historic": "castle",
    "image": "https://upload.wikimedia.org/wikipedia/commons/d/d7/Schloss_detmold.jpg",
    "name": "Fürstliches Residenzschloss Detmold",
    "note": "Das Schloß ist ist zum Teil ein öffentliches Museum indem Std. Führungen stattfinden.",
    "opening_hours": "Mo-Su 10:00-16:00; Apr-Oct 10:00-17:00",
    "operator": "Hans-Theo Böhle",
    "phone": "05231-70020",
    "tourism": "museum",
    "type": "multipolygon",
    "website": "https://www.schloss-detmold.de/",
    "wheelchair": "yes",
    "wikidata": "Q705371",
    "wikipedia": "de:Haus Lippe"
  }
},
{
  "type": "node",
  "id": 412972241,
  "lat": 51.8184270,
  "lon": 8.1432089
},
{
  "type": "node",
  "id": 412972244,
  "lat": 51.8183893,
  "lon": 8.1433825
},
{
  "type": "node",
  "id": 2199698481,
  "lat": 51.8184829,
  "lon": 8.1434358
},
{
  "type": "node",
  "id": 2199698482,
  "lat": 51.8184943,
  "lon": 8.1433838
},
{
  "type": "node",
  "id": 2199698483,
  "lat": 51.8188410,
  "lon": 8.1435785
},
{
  "type": "node",
  "id": 2199698484,
  "lat": 51.8188675,
  "lon": 8.1434569
},
{
  "type": "node",
  "id": 5018640105,
  "lat": 51.8187685,
  "lon": 8.1435378
},
{
  "type": "node",
  "id": 5018640110,
  "lat": 51.8187932,
  "lon": 8.1434151
},
{
  "type": "node",
  "id": 1477150933,
  "lat": 51.9492791,
  "lon": 8.2746248
},
{
  "type": "node",
  "id": 1477150935,
  "lat": 51.9492800,
  "lon": 8.2744547
},
{
  "type": "node",
  "id": 1477150944,
  "lat": 51.9494293,
  "lon": 8.2746270
},
{
  "type": "node",
  "id": 1477150947,
  "lat": 51.9494296,
  "lon": 8.2745668
},
{
  "type": "node",
  "id": 1477150952,
  "lat": 51.9494705,
  "lon": 8.2746314
},
{
  "type": "node",
  "id": 1477150953,
  "lat": 51.9494708,
  "lon": 8.2745674
},
{
  "type": "node",
  "id": 1477150973,
  "lat": 51.9494861,
  "lon": 8.2744577
},
{
  "type": "node",
  "id": 1477151000,
  "lat": 51.9495964,
  "lon": 8.2744594
},
{
  "type": "node",
  "id": 1477151014,
  "lat": 51.9496155,
  "lon": 8.2746336
},
{
  "type": "node",
  "id": 1477151017,
  "lat": 51.9496165,
  "lon": 8.2744597
},
{
  "type": "node",
  "id": 1509715124,
  "lat": 51.9735970,
  "lon": 8.2648483
},
{
  "type": "node",
  "id": 1509715134,
  "lat": 51.9740455,
  "lon": 8.2646030
},
{
  "type": "node",
  "id": 1509715135,
  "lat": 51.9741287,
  "lon": 8.2653757
},
{
  "type": "node",
  "id": 6446108163,
  "lat": 51.9738610,
  "lon": 8.2643168
},
{
  "type": "node",
  "id": 6446108165,
  "lat": 51.9739369,
  "lon": 8.2644522
},
{
  "type": "node",
  "id": 6446108183,
  "lat": 51.9740146,
  "lon": 8.2654088
},
{
  "type": "node",
  "id": 6446108184,
  "lat": 51.9737900,
  "lon": 8.2655145
},
{
  "type": "node",
  "id": 7042386200,
  "lat": 51.9735982,
  "lon": 8.2643370
},
{
  "type": "node",
  "id": 7042386219,
  "lat": 51.9735517,
  "lon": 8.2643406
},
{
  "type": "node",
  "id": 7042386256,
  "lat": 51.9737850,
  "lon": 8.2653732
},
{
  "type": "node",
  "id": 7042386257,
  "lat": 51.9737847,
  "lon": 8.2653645
},
{
  "type": "node",
  "id": 7042386258,
  "lat": 51.9736731,
  "lon": 8.2653008
},
{
  "type": "node",
  "id": 7042386259,
  "lat": 51.9737401,
  "lon": 8.2652687
},
{
  "type": "node",
  "id": 7045174523,
  "lat": 51.9735626,
  "lon": 8.2643405
},
{
  "type": "node",
  "id": 3357864690,
  "lat": 52.0611291,
  "lon": 8.3598537
},
{
  "type": "node",
  "id": 3357867048,
  "lat": 52.0611075,
  "lon": 8.3600415
},
{
  "type": "node",
  "id": 3357867441,
  "lat": 52.0610450,
  "lon": 8.3600226
},
{
  "type": "node",
  "id": 3357867606,
  "lat": 52.0610666,
  "lon": 8.3598348
},
{
  "type": "node",
  "id": 3357863984,
  "lat": 52.0608789,
  "lon": 8.3627838
},
{
  "type": "node",
  "id": 3357867374,
  "lat": 52.0609444,
  "lon": 8.3626809
},
{
  "type": "node",
  "id": 3357867388,
  "lat": 52.0609582,
  "lon": 8.3626475
},
{
  "type": "node",
  "id": 3357867418,
  "lat": 52.0609221,
  "lon": 8.3628644
},
{
  "type": "node",
  "id": 3357867499,
  "lat": 52.0609921,
  "lon": 8.3627548
},
{
  "type": "node",
  "id": 3357867518,
  "lat": 52.0610094,
  "lon": 8.3627185
},
{
  "type": "node",
  "id": 2873547899,
  "lat": 52.2052914,
  "lon": 8.3283738
},
{
  "type": "node",
  "id": 2873547900,
  "lat": 52.2053339,
  "lon": 8.3284456
},
{
  "type": "node",
  "id": 2873550402,
  "lat": 52.2052392,
  "lon": 8.3284561
},
{
  "type": "node",
  "id": 2873550405,
  "lat": 52.2052817,
  "lon": 8.3285278
},
{
  "type": "node",
  "id": 2873567327,
  "lat": 52.2050776,
  "lon": 8.3289142
},
{
  "type": "node",
  "id": 2873567333,
  "lat": 52.2049699,
  "lon": 8.3288675
},
{
  "type": "node",
  "id": 2873567337,
  "lat": 52.2050028,
  "lon": 8.3283596
},
{
  "type": "node",
  "id": 2873567345,
  "lat": 52.2051115,
  "lon": 8.3287064
},
{
  "type": "node",
  "id": 2873567352,
  "lat": 52.2049335,
  "lon": 8.3284477
},
{
  "type": "node",
  "id": 2873567364,
  "lat": 52.2049245,
  "lon": 8.3281953
},
{
  "type": "node",
  "id": 2873567380,
  "lat": 52.2048551,
  "lon": 8.3282834
},
{
  "type": "node",
  "id": 2873567386,
  "lat": 52.2050038,
  "lon": 8.3286597
},
{
  "type": "node",
  "id": 3087526535,
  "lat": 52.2101709,
  "lon": 8.3374687
},
{
  "type": "node",
  "id": 3087527036,
  "lat": 52.2097693,
  "lon": 8.3373800
},
{
  "type": "node",
  "id": 3087527233,
  "lat": 52.2096265,
  "lon": 8.3365386
},
{
  "type": "node",
  "id": 3087527533,
  "lat": 52.2102682,
  "lon": 8.3367382
},
{
  "type": "node",
  "id": 3087527534,
  "lat": 52.2102218,
  "lon": 8.3370402
},
{
  "type": "node",
  "id": 3087527535,
  "lat": 52.2097712,
  "lon": 8.3376128
},
{
  "type": "node",
  "id": 3087527536,
  "lat": 52.2100320,
  "lon": 8.3370048
},
{
  "type": "node",
  "id": 3087527633,
  "lat": 52.2102439,
  "lon": 8.3370448
},
{
  "type": "node",
  "id": 3087527634,
  "lat": 52.2101972,
  "lon": 8.3374749
},
{
  "type": "node",
  "id": 3087527635,
  "lat": 52.2097650,
  "lon": 8.3368527
},
{
  "type": "node",
  "id": 3087527636,
  "lat": 52.2096509,
  "lon": 8.3375974
},
{
  "type": "node",
  "id": 3087527637,
  "lat": 52.2100015,
  "lon": 8.3370006
},
{
  "type": "node",
  "id": 3087527638,
  "lat": 52.2101597,
  "lon": 8.3376834
},
{
  "type": "node",
  "id": 3087527639,
  "lat": 52.2098735,
  "lon": 8.3376313
},
{
  "type": "node",
  "id": 3087527833,
  "lat": 52.2100118,
  "lon": 8.3374316
},
{
  "type": "node",
  "id": 3087527834,
  "lat": 52.2100059,
  "lon": 8.3368975
},
{
  "type": "node",
  "id": 7110131496,
  "lat": 52.2096791,
  "lon": 8.3376010
},
{
  "type": "node",
  "id": 3603137846,
  "lat": 51.7639991,
  "lon": 8.5629710
},
{
  "type": "node",
  "id": 3603137854,
  "lat": 51.7640808,
  "lon": 8.5628236
},
{
  "type": "node",
  "id": 3603137856,
  "lat": 51.7641005,
  "lon": 8.5631143
},
{
  "type": "node",
  "id": 3603137857,
  "lat": 51.7641110,
  "lon": 8.5630961
},
{
  "type": "node",
  "id": 3603137859,
  "lat": 51.7641208,
  "lon": 8.5631082
},
{
  "type": "node",
  "id": 3603137862,
  "lat": 51.7641226,
  "lon": 8.5630760
},
{
  "type": "node",
  "id": 3603137866,
  "lat": 51.7641315,
  "lon": 8.5630895
},
{
  "type": "node",
  "id": 3603137875,
  "lat": 51.7641816,
  "lon": 8.5629669
},
{
  "type": "node",
  "id": 683068372,
  "lat": 51.7309602,
  "lon": 8.7357715
},
{
  "type": "node",
  "id": 683068373,
  "lat": 51.7316980,
  "lon": 8.7354411
},
{
  "type": "node",
  "id": 683068380,
  "lat": 51.7313323,
  "lon": 8.7349862
},
{
  "type": "node",
  "id": 683068382,
  "lat": 51.7316460,
  "lon": 8.7356101
},
{
  "type": "node",
  "id": 683068385,
  "lat": 51.7316295,
  "lon": 8.7355923
},
{
  "type": "node",
  "id": 1754670681,
  "lat": 51.7314343,
  "lon": 8.7351092
},
{
  "type": "node",
  "id": 1754670683,
  "lat": 51.7315915,
  "lon": 8.7353125
},
{
  "type": "node",
  "id": 6397274747,
  "lat": 51.7312075,
  "lon": 8.7352426
},
{
  "type": "node",
  "id": 683068388,
  "lat": 51.7313541,
  "lon": 8.7362471
},
{
  "type": "node",
  "id": 769379001,
  "lat": 51.7313299,
  "lon": 8.7362215
},
{
  "type": "node",
  "id": 6855666819,
  "lat": 51.7314330,
  "lon": 8.7360750
},
{
  "type": "node",
  "id": 3996413338,
  "lat": 51.7380036,
  "lon": 8.7703804
},
{
  "type": "node",
  "id": 3996413342,
  "lat": 51.7380264,
  "lon": 8.7702917
},
{
  "type": "node",
  "id": 3996413343,
  "lat": 51.7380271,
  "lon": 8.7702922
},
{
  "type": "node",
  "id": 3996413344,
  "lat": 51.7380406,
  "lon": 8.7704209
},
{
  "type": "node",
  "id": 3996413345,
  "lat": 51.7380415,
  "lon": 8.7704170
},
{
  "type": "node",
  "id": 3996413559,
  "lat": 51.7382656,
  "lon": 8.7705466
},
{
  "type": "node",
  "id": 3996413561,
  "lat": 51.7382030,
  "lon": 8.7696072
},
{
  "type": "node",
  "id": 3996413562,
  "lat": 51.7381999,
  "lon": 8.7696188
},
{
  "type": "node",
  "id": 3996413563,
  "lat": 51.7382000,
  "lon": 8.7696189
},
{
  "type": "node",
  "id": 3996413576,
  "lat": 51.7384603,
  "lon": 8.7697642
},
{
  "type": "node",
  "id": 4838742549,
  "lat": 51.7380216,
  "lon": 8.7703978
},
{
  "type": "node",
  "id": 2897200548,
  "lat": 51.8847095,
  "lon": 8.5088803
},
{
  "type": "node",
  "id": 2897200638,
  "lat": 51.8847753,
  "lon": 8.5090131
},
{
  "type": "node",
  "id": 2897200670,
  "lat": 51.8848122,
  "lon": 8.5087454
},
{
  "type": "node",
  "id": 2897200729,
  "lat": 51.8848791,
  "lon": 8.5088779
},
{
  "type": "node",
  "id": 287873831,
  "lat": 51.9549719,
  "lon": 8.5021290
},
{
  "type": "node",
  "id": 287873834,
  "lat": 51.9555327,
  "lon": 8.5015129
},
{
  "type": "node",
  "id": 287873838,
  "lat": 51.9555914,
  "lon": 8.5005362
},
{
  "type": "node",
  "id": 287873842,
  "lat": 51.9548006,
  "lon": 8.5003922
},
{
  "type": "node",
  "id": 2422062728,
  "lat": 51.9554845,
  "lon": 8.5005132
},
{
  "type": "node",
  "id": 2422062730,
  "lat": 51.9555201,
  "lon": 8.5005226
},
{
  "type": "node",
  "id": 6418918415,
  "lat": 51.9548519,
  "lon": 8.5018972
},
{
  "type": "node",
  "id": 6418918416,
  "lat": 51.9548288,
  "lon": 8.5017925
},
{
  "type": "node",
  "id": 6418918417,
  "lat": 51.9546784,
  "lon": 8.5014063
},
{
  "type": "node",
  "id": 6418918418,
  "lat": 51.9547494,
  "lon": 8.5009101
},
{
  "type": "node",
  "id": 6418918419,
  "lat": 51.9547494,
  "lon": 8.5005963
},
{
  "type": "node",
  "id": 1000245892,
  "lat": 51.9903604,
  "lon": 8.5063099
},
{
  "type": "node",
  "id": 1000245916,
  "lat": 51.9902867,
  "lon": 8.5064210
},
{
  "type": "node",
  "id": 1000245922,
  "lat": 51.9904933,
  "lon": 8.5065425
},
{
  "type": "node",
  "id": 6745690857,
  "lat": 51.9904039,
  "lon": 8.5063861
},
{
  "type": "node",
  "id": 6745690858,
  "lat": 51.9903134,
  "lon": 8.5064677
},
{
  "type": "node",
  "id": 6745690863,
  "lat": 51.9904803,
  "lon": 8.5065620
},
{
  "type": "node",
  "id": 6745690882,
  "lat": 51.9904741,
  "lon": 8.5065090
},
{
  "type": "node",
  "id": 1000245891,
  "lat": 51.9904196,
  "lon": 8.5066536
},
{
  "type": "node",
  "id": 733994149,
  "lat": 52.0237044,
  "lon": 8.5076113
},
{
  "type": "node",
  "id": 1280122339,
  "lat": 52.0233768,
  "lon": 8.5090080
},
{
  "type": "node",
  "id": 1280122341,
  "lat": 52.0235555,
  "lon": 8.5083845
},
{
  "type": "node",
  "id": 1280122349,
  "lat": 52.0234579,
  "lon": 8.5086489
},
{
  "type": "node",
  "id": 1508987383,
  "lat": 52.0240064,
  "lon": 8.5074231
},
{
  "type": "node",
  "id": 1855256516,
  "lat": 52.0240036,
  "lon": 8.5094982
},
{
  "type": "node",
  "id": 1945776727,
  "lat": 52.0239293,
  "lon": 8.5074798
},
{
  "type": "node",
  "id": 1945776739,
  "lat": 52.0240409,
  "lon": 8.5084772
},
{
  "type": "node",
  "id": 1945776743,
  "lat": 52.0241388,
  "lon": 8.5088977
},
{
  "type": "node",
  "id": 1945776745,
  "lat": 52.0242223,
  "lon": 8.5085874
},
{
  "type": "node",
  "id": 3484406436,
  "lat": 52.0238921,
  "lon": 8.5075153
},
{
  "type": "node",
  "id": 3484406480,
  "lat": 52.0240134,
  "lon": 8.5094545
},
{
  "type": "node",
  "id": 4920409002,
  "lat": 52.0241152,
  "lon": 8.5090023
},
{
  "type": "node",
  "id": 4920450024,
  "lat": 52.0242145,
  "lon": 8.5076112
},
{
  "type": "node",
  "id": 4920450025,
  "lat": 52.0242212,
  "lon": 8.5075776
},
{
  "type": "node",
  "id": 4920450026,
  "lat": 52.0240797,
  "lon": 8.5074758
},
{
  "type": "node",
  "id": 4920544649,
  "lat": 52.0240534,
  "lon": 8.5084142
},
{
  "type": "node",
  "id": 4921719080,
  "lat": 52.0240157,
  "lon": 8.5094445
},
{
  "type": "node",
  "id": 4921719087,
  "lat": 52.0237562,
  "lon": 8.5093051
},
{
  "type": "node",
  "id": 4921719092,
  "lat": 52.0237201,
  "lon": 8.5092765
},
{
  "type": "node",
  "id": 4921719116,
  "lat": 52.0234559,
  "lon": 8.5086578
},
{
  "type": "node",
  "id": 4921719119,
  "lat": 52.0233990,
  "lon": 8.5090254
},
{
  "type": "node",
  "id": 4921725044,
  "lat": 52.0239763,
  "lon": 8.5074238
},
{
  "type": "node",
  "id": 4921725045,
  "lat": 52.0239493,
  "lon": 8.5074434
},
{
  "type": "node",
  "id": 4921725046,
  "lat": 52.0239136,
  "lon": 8.5075227
},
{
  "type": "node",
  "id": 4921725047,
  "lat": 52.0239073,
  "lon": 8.5075205
},
{
  "type": "node",
  "id": 4921725048,
  "lat": 52.0238549,
  "lon": 8.5075028
},
{
  "type": "node",
  "id": 4921725049,
  "lat": 52.0238787,
  "lon": 8.5075108
},
{
  "type": "node",
  "id": 4921725050,
  "lat": 52.0237495,
  "lon": 8.5075489
},
{
  "type": "node",
  "id": 4921725051,
  "lat": 52.0237211,
  "lon": 8.5075714
},
{
  "type": "node",
  "id": 286032335,
  "lat": 52.0180724,
  "lon": 8.5258518
},
{
  "type": "node",
  "id": 286032340,
  "lat": 52.0183068,
  "lon": 8.5260764
},
{
  "type": "node",
  "id": 286032347,
  "lat": 52.0179371,
  "lon": 8.5262220
},
{
  "type": "node",
  "id": 1297080382,
  "lat": 52.0153599,
  "lon": 8.5218446
},
{
  "type": "node",
  "id": 1297080383,
  "lat": 52.0154289,
  "lon": 8.5216402
},
{
  "type": "node",
  "id": 1297080384,
  "lat": 52.0156059,
  "lon": 8.5211140
},
{
  "type": "node",
  "id": 1297080385,
  "lat": 52.0156805,
  "lon": 8.5208951
},
{
  "type": "node",
  "id": 1297080398,
  "lat": 52.0155496,
  "lon": 8.5210689
},
{
  "type": "node",
  "id": 1297080399,
  "lat": 52.0153746,
  "lon": 8.5215926
},
{
  "type": "node",
  "id": 1297080400,
  "lat": 52.0150370,
  "lon": 8.5215902
},
{
  "type": "node",
  "id": 1297080401,
  "lat": 52.0153471,
  "lon": 8.5206630
},
{
  "type": "node",
  "id": 1297080402,
  "lat": 52.0153936,
  "lon": 8.5207052
},
{
  "type": "node",
  "id": 1297080405,
  "lat": 52.0154150,
  "lon": 8.5206475
},
{
  "type": "node",
  "id": 2278925880,
  "lat": 52.0182973,
  "lon": 8.5261023
},
{
  "type": "node",
  "id": 2282961758,
  "lat": 52.0150461,
  "lon": 8.5216296
},
{
  "type": "node",
  "id": 6484453353,
  "lat": 52.0180244,
  "lon": 8.5259832
},
{
  "type": "node",
  "id": 6484467523,
  "lat": 52.0181875,
  "lon": 8.5259621
},
{
  "type": "node",
  "id": 6538066942,
  "lat": 52.0183022,
  "lon": 8.5260719
},
{
  "type": "node",
  "id": 6538066944,
  "lat": 52.0183034,
  "lon": 8.5260856
},
{
  "type": "node",
  "id": 6538066946,
  "lat": 52.0182962,
  "lon": 8.5260663
},
{
  "type": "node",
  "id": 286032343,
  "lat": 52.0181727,
  "lon": 8.5264433
},
{
  "type": "node",
  "id": 443686470,
  "lat": 52.0172639,
  "lon": 8.5284135
},
{
  "type": "node",
  "id": 443686471,
  "lat": 52.0171987,
  "lon": 8.5285632
},
{
  "type": "node",
  "id": 443686472,
  "lat": 52.0170009,
  "lon": 8.5283357
},
{
  "type": "node",
  "id": 443686473,
  "lat": 52.0170664,
  "lon": 8.5281852
},
{
  "type": "node",
  "id": 3388578817,
  "lat": 52.0171218,
  "lon": 8.5282489
},
{
  "type": "node",
  "id": 3388578821,
  "lat": 52.0171482,
  "lon": 8.5281885
},
{
  "type": "node",
  "id": 3388578824,
  "lat": 52.0171627,
  "lon": 8.5282971
},
{
  "type": "node",
  "id": 3388578830,
  "lat": 52.0171894,
  "lon": 8.5282359
},
{
  "type": "node",
  "id": 1396065189,
  "lat": 52.0139807,
  "lon": 8.5458339
},
{
  "type": "node",
  "id": 4480962583,
  "lat": 52.0207165,
  "lon": 8.5422471
},
{
  "type": "node",
  "id": 4480962584,
  "lat": 52.0207249,
  "lon": 8.5421657
},
{
  "type": "node",
  "id": 4480962585,
  "lat": 52.0207331,
  "lon": 8.5420867
},
{
  "type": "node",
  "id": 4480962589,
  "lat": 52.0207381,
  "lon": 8.5420385
},
{
  "type": "node",
  "id": 4480962600,
  "lat": 52.0207492,
  "lon": 8.5424775
},
{
  "type": "node",
  "id": 4480962605,
  "lat": 52.0207599,
  "lon": 8.5422455
},
{
  "type": "node",
  "id": 4480962615,
  "lat": 52.0207742,
  "lon": 8.5420385
},
{
  "type": "node",
  "id": 4480962617,
  "lat": 52.0207803,
  "lon": 8.5421661
},
{
  "type": "node",
  "id": 4480962618,
  "lat": 52.0207806,
  "lon": 8.5420879
},
{
  "type": "node",
  "id": 4480962647,
  "lat": 52.0208519,
  "lon": 8.5424758
},
{
  "type": "node",
  "id": 4480962648,
  "lat": 52.0208544,
  "lon": 8.5423335
},
{
  "type": "node",
  "id": 4480962649,
  "lat": 52.0208558,
  "lon": 8.5421948
},
{
  "type": "node",
  "id": 4480962652,
  "lat": 52.0208812,
  "lon": 8.5424752
},
{
  "type": "node",
  "id": 4480962653,
  "lat": 52.0208806,
  "lon": 8.5423329
},
{
  "type": "node",
  "id": 4480962665,
  "lat": 52.0209279,
  "lon": 8.5420393
},
{
  "type": "node",
  "id": 4480962666,
  "lat": 52.0209280,
  "lon": 8.5420831
},
{
  "type": "node",
  "id": 4480962668,
  "lat": 52.0209286,
  "lon": 8.5421937
},
{
  "type": "node",
  "id": 4480962669,
  "lat": 52.0209364,
  "lon": 8.5420393
},
{
  "type": "node",
  "id": 4480962671,
  "lat": 52.0209458,
  "lon": 8.5420389
},
{
  "type": "node",
  "id": 4480962672,
  "lat": 52.0209462,
  "lon": 8.5420827
},
{
  "type": "node",
  "id": 1396065180,
  "lat": 52.0141293,
  "lon": 8.5461979
},
{
  "type": "node",
  "id": 1396065185,
  "lat": 52.0139227,
  "lon": 8.5460451
},
{
  "type": "node",
  "id": 1396065188,
  "lat": 52.0141235,
  "lon": 8.5462187
},
{
  "type": "node",
  "id": 6515760684,
  "lat": 52.0141460,
  "lon": 8.5462336
},
{
  "type": "node",
  "id": 6878880111,
  "lat": 52.0143336,
  "lon": 8.5461376
},
{
  "type": "node",
  "id": 6878880112,
  "lat": 52.0142825,
  "lon": 8.5463243
},
{
  "type": "node",
  "id": 6878880113,
  "lat": 52.0142117,
  "lon": 8.5460093
},
{
  "type": "node",
  "id": 6878880114,
  "lat": 52.0142024,
  "lon": 8.5460395
},
{
  "type": "node",
  "id": 3100831538,
  "lat": 51.8510828,
  "lon": 8.6172622
},
{
  "type": "node",
  "id": 3100831541,
  "lat": 51.8510876,
  "lon": 8.6174174
},
{
  "type": "node",
  "id": 3100831560,
  "lat": 51.8511522,
  "lon": 8.6174012
},
{
  "type": "node",
  "id": 3100831561,
  "lat": 51.8511525,
  "lon": 8.6174135
},
{
  "type": "node",
  "id": 3100831571,
  "lat": 51.8512042,
  "lon": 8.6172529
},
{
  "type": "node",
  "id": 3100831572,
  "lat": 51.8512053,
  "lon": 8.6173014
},
{
  "type": "node",
  "id": 3100831577,
  "lat": 51.8512537,
  "lon": 8.6172981
},
{
  "type": "node",
  "id": 3100831578,
  "lat": 51.8512558,
  "lon": 8.6173918
},
{
  "type": "node",
  "id": 3100828576,
  "lat": 51.8483275,
  "lon": 8.6265675
},
{
  "type": "node",
  "id": 3100828602,
  "lat": 51.8483993,
  "lon": 8.6266883
},
{
  "type": "node",
  "id": 3100828603,
  "lat": 51.8484016,
  "lon": 8.6266850
},
{
  "type": "node",
  "id": 3100828606,
  "lat": 51.8484140,
  "lon": 8.6267059
},
{
  "type": "node",
  "id": 3100828610,
  "lat": 51.8484263,
  "lon": 8.6266467
},
{
  "type": "node",
  "id": 3100828615,
  "lat": 51.8484387,
  "lon": 8.6266677
},
{
  "type": "node",
  "id": 3100828616,
  "lat": 51.8484388,
  "lon": 8.6263938
},
{
  "type": "node",
  "id": 3100828740,
  "lat": 51.8485114,
  "lon": 8.6265150
},
{
  "type": "node",
  "id": 1716931783,
  "lat": 51.8195141,
  "lon": 8.6760976
},
{
  "type": "node",
  "id": 1716931785,
  "lat": 51.8201609,
  "lon": 8.6762693
},
{
  "type": "node",
  "id": 1716931787,
  "lat": 51.8202371,
  "lon": 8.6756669
},
{
  "type": "node",
  "id": 4022139708,
  "lat": 51.8195080,
  "lon": 8.6752048
},
{
  "type": "node",
  "id": 4022139714,
  "lat": 51.8198684,
  "lon": 8.6756019
},
{
  "type": "node",
  "id": 4022139716,
  "lat": 51.8198883,
  "lon": 8.6753070
},
{
  "type": "node",
  "id": 3669948390,
  "lat": 51.9512253,
  "lon": 8.6634561
},
{
  "type": "node",
  "id": 3669948391,
  "lat": 51.9512254,
  "lon": 8.6633996
},
{
  "type": "node",
  "id": 3669948392,
  "lat": 51.9512364,
  "lon": 8.6634561
},
{
  "type": "node",
  "id": 3669948398,
  "lat": 51.9513071,
  "lon": 8.6634557
},
{
  "type": "node",
  "id": 3669948401,
  "lat": 51.9513183,
  "lon": 8.6634556
},
{
  "type": "node",
  "id": 3669948402,
  "lat": 51.9513184,
  "lon": 8.6633989
},
{
  "type": "node",
  "id": 274905870,
  "lat": 52.0249510,
  "lon": 8.7791819
},
{
  "type": "node",
  "id": 274905871,
  "lat": 52.0251115,
  "lon": 8.7796426
},
{
  "type": "node",
  "id": 274905881,
  "lat": 52.0243854,
  "lon": 8.7797210
},
{
  "type": "node",
  "id": 274907657,
  "lat": 52.0240651,
  "lon": 8.7777351
},
{
  "type": "node",
  "id": 274907658,
  "lat": 52.0248486,
  "lon": 8.7769420
},
{
  "type": "node",
  "id": 274907659,
  "lat": 52.0251833,
  "lon": 8.7777593
},
{
  "type": "node",
  "id": 274907662,
  "lat": 52.0252166,
  "lon": 8.7799193
},
{
  "type": "node",
  "id": 274907665,
  "lat": 52.0253885,
  "lon": 8.7775438
},
{
  "type": "node",
  "id": 602232231,
  "lat": 52.0247420,
  "lon": 8.7770462
},
{
  "type": "node",
  "id": 1458124844,
  "lat": 52.0240861,
  "lon": 8.7789194
},
{
  "type": "node",
  "id": 1458124870,
  "lat": 52.0243775,
  "lon": 8.7786006
},
{
  "type": "node",
  "id": 1638822436,
  "lat": 52.0254247,
  "lon": 8.7776819
},
{
  "type": "node",
  "id": 3692966404,
  "lat": 52.0247780,
  "lon": 8.7770133
},
{
  "type": "node",
  "id": 1417029860,
  "lat": 51.8090680,
  "lon": 8.8459478
},
{
  "type": "node",
  "id": 4090960445,
  "lat": 51.8090685,
  "lon": 8.8460097
},
{
  "type": "node",
  "id": 4090960446,
  "lat": 51.8091447,
  "lon": 8.8459464
},
{
  "type": "node",
  "id": 4090960447,
  "lat": 51.8091451,
  "lon": 8.8460083
},
{
  "type": "node",
  "id": 300547916,
  "lat": 51.9202006,
  "lon": 8.8721241
},
{
  "type": "node",
  "id": 300547918,
  "lat": 51.9200482,
  "lon": 8.8722292
},
{
  "type": "node",
  "id": 300547921,
  "lat": 51.9197986,
  "lon": 8.8721597
},
{
  "type": "node",
  "id": 300547926,
  "lat": 51.9208095,
  "lon": 8.8701183
},
{
  "type": "node",
  "id": 300547928,
  "lat": 51.9206774,
  "lon": 8.8706319
},
{
  "type": "node",
  "id": 300547933,
  "lat": 51.9205450,
  "lon": 8.8712327
},
{
  "type": "node",
  "id": 300547936,
  "lat": 51.9203280,
  "lon": 8.8718587
},
{
  "type": "node",
  "id": 3948755122,
  "lat": 51.9193636,
  "lon": 8.8725855
},
{
  "type": "node",
  "id": 3948755123,
  "lat": 51.9195649,
  "lon": 8.8722758
},
{
  "type": "node",
  "id": 300547714,
  "lat": 51.9136797,
  "lon": 8.8796273
},
{
  "type": "node",
  "id": 3948755108,
  "lat": 51.9136621,
  "lon": 8.8778414
},
{
  "type": "node",
  "id": 3948755109,
  "lat": 51.9137664,
  "lon": 8.8772773
},
{
  "type": "node",
  "id": 3948755110,
  "lat": 51.9139388,
  "lon": 8.8766680
},
{
  "type": "node",
  "id": 3948755111,
  "lat": 51.9141164,
  "lon": 8.8765005
},
{
  "type": "node",
  "id": 3948751712,
  "lat": 51.9136458,
  "lon": 8.8806743
},
{
  "type": "node",
  "id": 3948751713,
  "lat": 51.9136520,
  "lon": 8.8804062
},
{
  "type": "node",
  "id": 3948751714,
  "lat": 51.9136736,
  "lon": 8.8811765
},
{
  "type": "node",
  "id": 3948751715,
  "lat": 51.9137418,
  "lon": 8.8814544
},
{
  "type": "node",
  "id": 3948751716,
  "lat": 51.9139534,
  "lon": 8.8816727
},
{
  "type": "node",
  "id": 4801100740,
  "lat": 51.9140898,
  "lon": 8.8816695
},
{
  "type": "node",
  "id": 3948755112,
  "lat": 51.9145393,
  "lon": 8.8764152
},
{
  "type": "node",
  "id": 3948755113,
  "lat": 51.9149461,
  "lon": 8.8761649
},
{
  "type": "node",
  "id": 3948755114,
  "lat": 51.9150287,
  "lon": 8.8758050
},
{
  "type": "node",
  "id": 3948755115,
  "lat": 51.9150907,
  "lon": 8.8756962
},
{
  "type": "node",
  "id": 3948755116,
  "lat": 51.9152561,
  "lon": 8.8756652
},
{
  "type": "node",
  "id": 3948755117,
  "lat": 51.9163001,
  "lon": 8.8758895
},
{
  "type": "node",
  "id": 3948755118,
  "lat": 51.9180379,
  "lon": 8.8755530
},
{
  "type": "node",
  "id": 3948755119,
  "lat": 51.9181555,
  "lon": 8.8753502
},
{
  "type": "node",
  "id": 3948755120,
  "lat": 51.9187286,
  "lon": 8.8740235
},
{
  "type": "node",
  "id": 6071631605,
  "lat": 51.9169682,
  "lon": 8.8757829
},
{
  "type": "node",
  "id": 6071631606,
  "lat": 51.9180490,
  "lon": 8.8755325
},
{
  "type": "node",
  "id": 300547661,
  "lat": 51.9178626,
  "lon": 8.8853601
},
{
  "type": "node",
  "id": 300547667,
  "lat": 51.9167946,
  "lon": 8.8841758
},
{
  "type": "node",
  "id": 300547671,
  "lat": 51.9162404,
  "lon": 8.8836865
},
{
  "type": "node",
  "id": 300547681,
  "lat": 51.9177561,
  "lon": 8.8856812
},
{
  "type": "node",
  "id": 300547683,
  "lat": 51.9177731,
  "lon": 8.8856537
},
{
  "type": "node",
  "id": 300547914,
  "lat": 51.9202553,
  "lon": 8.8837239
},
{
  "type": "node",
  "id": 300547917,
  "lat": 51.9201696,
  "lon": 8.8839971
},
{
  "type": "node",
  "id": 300547922,
  "lat": 51.9198196,
  "lon": 8.8845344
},
{
  "type": "node",
  "id": 300547927,
  "lat": 51.9197883,
  "lon": 8.8849564
},
{
  "type": "node",
  "id": 300547935,
  "lat": 51.9191232,
  "lon": 8.8866117
},
{
  "type": "node",
  "id": 300547941,
  "lat": 51.9170385,
  "lon": 8.8866616
},
{
  "type": "node",
  "id": 1255956087,
  "lat": 51.9200921,
  "lon": 8.8841752
},
{
  "type": "node",
  "id": 1255956184,
  "lat": 51.9199544,
  "lon": 8.8842850
},
{
  "type": "node",
  "id": 1255956275,
  "lat": 51.9166821,
  "lon": 8.8840225
},
{
  "type": "node",
  "id": 1272321871,
  "lat": 51.9208811,
  "lon": 8.8821682
},
{
  "type": "node",
  "id": 2048541697,
  "lat": 51.9204959,
  "lon": 8.8831101
},
{
  "type": "node",
  "id": 2573727017,
  "lat": 51.9144354,
  "lon": 8.8827323
},
{
  "type": "node",
  "id": 2573727025,
  "lat": 51.9150685,
  "lon": 8.8827514
},
{
  "type": "node",
  "id": 2573727031,
  "lat": 51.9152684,
  "lon": 8.8828945
},
{
  "type": "node",
  "id": 3542597442,
  "lat": 51.9169622,
  "lon": 8.8843572
},
{
  "type": "node",
  "id": 3542597443,
  "lat": 51.9170873,
  "lon": 8.8843454
},
{
  "type": "node",
  "id": 3542597444,
  "lat": 51.9170673,
  "lon": 8.8843218
},
{
  "type": "node",
  "id": 3542597445,
  "lat": 51.9170347,
  "lon": 8.8843706
},
{
  "type": "node",
  "id": 3542597446,
  "lat": 51.9170053,
  "lon": 8.8843750
},
{
  "type": "node",
  "id": 3542597447,
  "lat": 51.9170497,
  "lon": 8.8843565
},
{
  "type": "node",
  "id": 3542597448,
  "lat": 51.9171060,
  "lon": 8.8843680
},
{
  "type": "node",
  "id": 3542597449,
  "lat": 51.9170905,
  "lon": 8.8845058
},
{
  "type": "node",
  "id": 3542597450,
  "lat": 51.9170785,
  "lon": 8.8844352
},
{
  "type": "node",
  "id": 3542597451,
  "lat": 51.9170830,
  "lon": 8.8844113
},
{
  "type": "node",
  "id": 3542597452,
  "lat": 51.9170785,
  "lon": 8.8844724
},
{
  "type": "node",
  "id": 3551661289,
  "lat": 51.9198917,
  "lon": 8.8843574
},
{
  "type": "node",
  "id": 3947839944,
  "lat": 51.9201387,
  "lon": 8.8840919
},
{
  "type": "node",
  "id": 3947839952,
  "lat": 51.9207047,
  "lon": 8.8826314
},
{
  "type": "node",
  "id": 3947839954,
  "lat": 51.9208185,
  "lon": 8.8823500
},
{
  "type": "node",
  "id": 3948751719,
  "lat": 51.9144469,
  "lon": 8.8816612
},
{
  "type": "node",
  "id": 4801100725,
  "lat": 51.9198424,
  "lon": 8.8844783
},
{
  "type": "node",
  "id": 4801100752,
  "lat": 51.9158272,
  "lon": 8.8833437
},
{
  "type": "node",
  "id": 4801100755,
  "lat": 51.9153958,
  "lon": 8.8829858
},
{
  "type": "node",
  "id": 300547739,
  "lat": 51.9188171,
  "lon": 8.8874967
},
{
  "type": "node",
  "id": 300547945,
  "lat": 51.9173986,
  "lon": 8.8870264
},
{
  "type": "node",
  "id": 656338487,
  "lat": 51.9185897,
  "lon": 8.8873868
},
{
  "type": "node",
  "id": 4801100683,
  "lat": 51.9170442,
  "lon": 8.8867572
},
{
  "type": "node",
  "id": 4801100697,
  "lat": 51.9185698,
  "lon": 8.8873808
},
{
  "type": "node",
  "id": 4801100731,
  "lat": 51.9186139,
  "lon": 8.8873985
},
{
  "type": "node",
  "id": 300547650,
  "lat": 51.9222760,
  "lon": 8.8683059
},
{
  "type": "node",
  "id": 300547674,
  "lat": 51.9209825,
  "lon": 8.8694846
},
{
  "type": "node",
  "id": 300547677,
  "lat": 51.9212642,
  "lon": 8.8688296
},
{
  "type": "node",
  "id": 300547682,
  "lat": 51.9215138,
  "lon": 8.8685377
},
{
  "type": "node",
  "id": 300547685,
  "lat": 51.9217943,
  "lon": 8.8684347
},
{
  "type": "node",
  "id": 300547692,
  "lat": 51.9220696,
  "lon": 8.8683488
},
{
  "type": "node",
  "id": 300547700,
  "lat": 51.9246219,
  "lon": 8.8707496
},
{
  "type": "node",
  "id": 300547706,
  "lat": 51.9246171,
  "lon": 8.8712738
},
{
  "type": "node",
  "id": 300547719,
  "lat": 51.9226702,
  "lon": 8.8684742
},
{
  "type": "node",
  "id": 300547873,
  "lat": 51.9244342,
  "lon": 8.8702438
},
{
  "type": "node",
  "id": 300547898,
  "lat": 51.9236109,
  "lon": 8.8693672
},
{
  "type": "node",
  "id": 548894066,
  "lat": 51.9225605,
  "lon": 8.8682409
},
{
  "type": "node",
  "id": 567008583,
  "lat": 51.9237423,
  "lon": 8.8694500
},
{
  "type": "node",
  "id": 567008588,
  "lat": 51.9238078,
  "lon": 8.8694160
},
{
  "type": "node",
  "id": 567008590,
  "lat": 51.9238975,
  "lon": 8.8694209
},
{
  "type": "node",
  "id": 567008592,
  "lat": 51.9239411,
  "lon": 8.8694621
},
{
  "type": "node",
  "id": 659892462,
  "lat": 51.9235678,
  "lon": 8.8688758
},
{
  "type": "node",
  "id": 659892963,
  "lat": 51.9236398,
  "lon": 8.8693762
},
{
  "type": "node",
  "id": 1311036504,
  "lat": 51.9239724,
  "lon": 8.8695395
},
{
  "type": "node",
  "id": 2918325306,
  "lat": 51.9234883,
  "lon": 8.8692022
},
{
  "type": "node",
  "id": 2918325308,
  "lat": 51.9236291,
  "lon": 8.8692857
},
{
  "type": "node",
  "id": 2918325315,
  "lat": 51.9238859,
  "lon": 8.8699776
},
{
  "type": "node",
  "id": 3554758667,
  "lat": 51.9246081,
  "lon": 8.8734162
},
{
  "type": "node",
  "id": 3851604984,
  "lat": 51.9226355,
  "lon": 8.8683321
},
{
  "type": "node",
  "id": 3851604985,
  "lat": 51.9225030,
  "lon": 8.8682630
},
{
  "type": "node",
  "id": 3851604990,
  "lat": 51.9224337,
  "lon": 8.8683294
},
{
  "type": "node",
  "id": 3851604998,
  "lat": 51.9226043,
  "lon": 8.8682791
},
{
  "type": "node",
  "id": 3851605008,
  "lat": 51.9247737,
  "lon": 8.8721055
},
{
  "type": "node",
  "id": 3862676270,
  "lat": 51.9245285,
  "lon": 8.8703499
},
{
  "type": "node",
  "id": 3862676272,
  "lat": 51.9245863,
  "lon": 8.8704692
},
{
  "type": "node",
  "id": 3862676276,
  "lat": 51.9246779,
  "lon": 8.8716805
},
{
  "type": "node",
  "id": 4456940982,
  "lat": 51.9235269,
  "lon": 8.8692251
},
{
  "type": "node",
  "id": 4801212565,
  "lat": 51.9247478,
  "lon": 8.8731435
},
{
  "type": "node",
  "id": 4801212566,
  "lat": 51.9249975,
  "lon": 8.8727411
},
{
  "type": "node",
  "id": 4801212567,
  "lat": 51.9249528,
  "lon": 8.8724953
},
{
  "type": "node",
  "id": 4801212568,
  "lat": 51.9249981,
  "lon": 8.8726500
},
{
  "type": "node",
  "id": 4801212579,
  "lat": 51.9246112,
  "lon": 8.8710117
},
{
  "type": "node",
  "id": 3551722059,
  "lat": 51.9218089,
  "lon": 8.8790858
},
{
  "type": "node",
  "id": 3554758641,
  "lat": 51.9226309,
  "lon": 8.8766155
},
{
  "type": "node",
  "id": 3554758664,
  "lat": 51.9228250,
  "lon": 8.8761999
},
{
  "type": "node",
  "id": 3862676259,
  "lat": 51.9218338,
  "lon": 8.8787245
},
{
  "type": "node",
  "id": 3924449485,
  "lat": 51.9231763,
  "lon": 8.8756491
},
{
  "type": "node",
  "id": 3924449490,
  "lat": 51.9236060,
  "lon": 8.8750101
},
{
  "type": "node",
  "id": 3947853613,
  "lat": 51.9216546,
  "lon": 8.8796274
},
{
  "type": "node",
  "id": 3947853615,
  "lat": 51.9222092,
  "lon": 8.8775187
},
{
  "type": "node",
  "id": 3947853616,
  "lat": 51.9218992,
  "lon": 8.8784426
},
{
  "type": "node",
  "id": 3947853617,
  "lat": 51.9224049,
  "lon": 8.8770996
},
{
  "type": "node",
  "id": 3947853618,
  "lat": 51.9239400,
  "lon": 8.8744787
},
{
  "type": "node",
  "id": 3947853619,
  "lat": 51.9242857,
  "lon": 8.8739289
},
{
  "type": "node",
  "id": 4801212540,
  "lat": 51.9217963,
  "lon": 8.8791822
},
{
  "type": "node",
  "id": 3551722056,
  "lat": 51.9213981,
  "lon": 8.8805240
},
{
  "type": "node",
  "id": 1291171298,
  "lat": 51.9364894,
  "lon": 8.8757539
},
{
  "type": "node",
  "id": 1291172607,
  "lat": 51.9367669,
  "lon": 8.8756185
},
{
  "type": "node",
  "id": 1291174571,
  "lat": 51.9367532,
  "lon": 8.8758049
},
{
  "type": "node",
  "id": 1291175479,
  "lat": 51.9365031,
  "lon": 8.8755675
},
{
  "type": "node",
  "id": 2038204134,
  "lat": 51.9359347,
  "lon": 8.8773886
},
{
  "type": "node",
  "id": 2038204135,
  "lat": 51.9360840,
  "lon": 8.8775610
},
{
  "type": "node",
  "id": 2038204137,
  "lat": 51.9362101,
  "lon": 8.8780751
},
{
  "type": "node",
  "id": 2038204138,
  "lat": 51.9362099,
  "lon": 8.8774241
},
{
  "type": "node",
  "id": 2136515564,
  "lat": 51.9366206,
  "lon": 8.8757793
},
{
  "type": "node",
  "id": 2191477026,
  "lat": 51.9363512,
  "lon": 8.8781950
},
{
  "type": "node",
  "id": 2503259739,
  "lat": 51.9361011,
  "lon": 8.8774962
},
{
  "type": "node",
  "id": 2503259742,
  "lat": 51.9361132,
  "lon": 8.8775410
},
{
  "type": "node",
  "id": 2503259747,
  "lat": 51.9362185,
  "lon": 8.8774643
},
{
  "type": "node",
  "id": 2503259750,
  "lat": 51.9362433,
  "lon": 8.8780537
},
{
  "type": "node",
  "id": 2503259752,
  "lat": 51.9362465,
  "lon": 8.8774474
},
{
  "type": "node",
  "id": 2503259753,
  "lat": 51.9362532,
  "lon": 8.8780942
},
{
  "type": "node",
  "id": 2503259755,
  "lat": 51.9362826,
  "lon": 8.8771291
},
{
  "type": "node",
  "id": 2503259763,
  "lat": 51.9363609,
  "lon": 8.8780244
},
{
  "type": "node",
  "id": 2503259765,
  "lat": 51.9363774,
  "lon": 8.8779723
},
{
  "type": "node",
  "id": 2800474822,
  "lat": 51.9363568,
  "lon": 8.8780023
},
{
  "type": "node",
  "id": 2800474823,
  "lat": 51.9363638,
  "lon": 8.8779820
},
{
  "type": "node",
  "id": 3668999751,
  "lat": 51.9361408,
  "lon": 8.8782806
},
{
  "type": "node",
  "id": 3668999752,
  "lat": 51.9361817,
  "lon": 8.8782536
},
{
  "type": "node",
  "id": 3668999753,
  "lat": 51.9361916,
  "lon": 8.8782698
},
{
  "type": "node",
  "id": 3668999754,
  "lat": 51.9362073,
  "lon": 8.8782761
},
{
  "type": "node",
  "id": 3668999755,
  "lat": 51.9362275,
  "lon": 8.8782671
},
{
  "type": "node",
  "id": 3668999756,
  "lat": 51.9362373,
  "lon": 8.8782444
},
{
  "type": "node",
  "id": 3668999757,
  "lat": 51.9362404,
  "lon": 8.8782555
},
{
  "type": "node",
  "id": 3668999758,
  "lat": 51.9362620,
  "lon": 8.8782593
},
{
  "type": "node",
  "id": 3668999759,
  "lat": 51.9362838,
  "lon": 8.8782444
},
{
  "type": "node",
  "id": 3668999760,
  "lat": 51.9362916,
  "lon": 8.8782685
},
{
  "type": "node",
  "id": 3668999761,
  "lat": 51.9363123,
  "lon": 8.8782223
},
{
  "type": "node",
  "id": 3668999762,
  "lat": 51.9363200,
  "lon": 8.8782509
},
{
  "type": "node",
  "id": 3668999764,
  "lat": 51.9363961,
  "lon": 8.8781627
},
{
  "type": "node",
  "id": 3668999765,
  "lat": 51.9363991,
  "lon": 8.8781755
},
{
  "type": "node",
  "id": 3668999766,
  "lat": 51.9364409,
  "lon": 8.8781490
},
{
  "type": "node",
  "id": 3668999767,
  "lat": 51.9364470,
  "lon": 8.8781694
},
{
  "type": "node",
  "id": 3668999768,
  "lat": 51.9364638,
  "lon": 8.8781329
},
{
  "type": "node",
  "id": 3668999769,
  "lat": 51.9364689,
  "lon": 8.8781551
},
{
  "type": "node",
  "id": 3668999770,
  "lat": 51.9365352,
  "lon": 8.8780886
},
{
  "type": "node",
  "id": 5032353581,
  "lat": 51.9363120,
  "lon": 8.8780588
},
{
  "type": "node",
  "id": 2158120128,
  "lat": 52.0250361,
  "lon": 8.8995261
},
{
  "type": "node",
  "id": 2158120129,
  "lat": 52.0251595,
  "lon": 8.8995809
},
{
  "type": "node",
  "id": 2158120131,
  "lat": 52.0251945,
  "lon": 8.8992917
},
{
  "type": "node",
  "id": 2158120143,
  "lat": 52.0252071,
  "lon": 8.8990387
},
{
  "type": "node",
  "id": 2158120151,
  "lat": 52.0249441,
  "lon": 8.8994857
},
{
  "type": "node",
  "id": 2178211928,
  "lat": 52.0250168,
  "lon": 8.8988594
},
{
  "type": "node",
  "id": 2178211929,
  "lat": 52.0250600,
  "lon": 8.8988712
},
{
  "type": "node",
  "id": 2178211930,
  "lat": 52.0249343,
  "lon": 8.8990281
},
{
  "type": "node",
  "id": 2178211931,
  "lat": 52.0248659,
  "lon": 8.8994445
},
{
  "type": "node",
  "id": 2578966438,
  "lat": 52.0250675,
  "lon": 8.8988538
},
{
  "type": "node",
  "id": 2578966834,
  "lat": 52.0252038,
  "lon": 8.8989580
},
{
  "type": "node",
  "id": 2578966860,
  "lat": 52.0252024,
  "lon": 8.8988960
},
{
  "type": "node",
  "id": 2857642313,
  "lat": 52.0251265,
  "lon": 8.8988723
},
{
  "type": "node",
  "id": 2857642314,
  "lat": 52.0251883,
  "lon": 8.8988916
},
{
  "type": "node",
  "id": 2579500562,
  "lat": 52.0256649,
  "lon": 8.9176237
},
{
  "type": "node",
  "id": 2579500597,
  "lat": 52.0256802,
  "lon": 8.9177350
},
{
  "type": "node",
  "id": 2579500633,
  "lat": 52.0257094,
  "lon": 8.9175487
},
{
  "type": "node",
  "id": 2579500644,
  "lat": 52.0257171,
  "lon": 8.9176049
},
{
  "type": "node",
  "id": 2580283614,
  "lat": 52.0217037,
  "lon": 8.9141602
},
{
  "type": "node",
  "id": 2580283617,
  "lat": 52.0217224,
  "lon": 8.9143579
},
{
  "type": "node",
  "id": 2580283619,
  "lat": 52.0217884,
  "lon": 8.9141390
},
{
  "type": "node",
  "id": 2580283620,
  "lat": 52.0218071,
  "lon": 8.9143368
},
{
  "type": "node",
  "id": 3360236911,
  "lat": 52.0742956,
  "lon": 8.4409743
},
{
  "type": "node",
  "id": 3360236934,
  "lat": 52.0744146,
  "lon": 8.4409592
},
{
  "type": "node",
  "id": 3360238159,
  "lat": 52.0743152,
  "lon": 8.4411489
},
{
  "type": "node",
  "id": 3360238162,
  "lat": 52.0743179,
  "lon": 8.4412029
},
{
  "type": "node",
  "id": 3360238166,
  "lat": 52.0743246,
  "lon": 8.4410541
},
{
  "type": "node",
  "id": 3360238174,
  "lat": 52.0743716,
  "lon": 8.4411967
},
{
  "type": "node",
  "id": 3360238218,
  "lat": 52.0742997,
  "lon": 8.4410573
},
{
  "type": "node",
  "id": 3360238228,
  "lat": 52.0743291,
  "lon": 8.4411471
},
{
  "type": "node",
  "id": 3360238239,
  "lat": 52.0743759,
  "lon": 8.4412856
},
{
  "type": "node",
  "id": 3360238281,
  "lat": 52.0744300,
  "lon": 8.4412787
},
{
  "type": "node",
  "id": 1928091465,
  "lat": 52.1372106,
  "lon": 8.5545612
},
{
  "type": "node",
  "id": 1928091469,
  "lat": 52.1372205,
  "lon": 8.5548594
},
{
  "type": "node",
  "id": 1928091477,
  "lat": 52.1374162,
  "lon": 8.5545379
},
{
  "type": "node",
  "id": 1928091480,
  "lat": 52.1374295,
  "lon": 8.5548333
},
{
  "type": "node",
  "id": 3454459863,
  "lat": 52.1372542,
  "lon": 8.5548551
},
{
  "type": "node",
  "id": 4379468463,
  "lat": 52.1372896,
  "lon": 8.5548507
},
{
  "type": "node",
  "id": 4379468464,
  "lat": 52.1373230,
  "lon": 8.5548465
},
{
  "type": "node",
  "id": 2048868699,
  "lat": 52.1396970,
  "lon": 8.5593205
},
{
  "type": "node",
  "id": 2048868711,
  "lat": 52.1397435,
  "lon": 8.5595308
},
{
  "type": "node",
  "id": 2048868718,
  "lat": 52.1397720,
  "lon": 8.5594804
},
{
  "type": "node",
  "id": 2048868723,
  "lat": 52.1397786,
  "lon": 8.5595102
},
{
  "type": "node",
  "id": 2048868726,
  "lat": 52.1398205,
  "lon": 8.5592480
},
{
  "type": "node",
  "id": 2048868737,
  "lat": 52.1398604,
  "lon": 8.5594285
},
{
  "type": "node",
  "id": 321464378,
  "lat": 52.1952377,
  "lon": 8.5811008
},
{
  "type": "node",
  "id": 321464380,
  "lat": 52.1954001,
  "lon": 8.5821242
},
{
  "type": "node",
  "id": 321464384,
  "lat": 52.1956886,
  "lon": 8.5819230
},
{
  "type": "node",
  "id": 321464386,
  "lat": 52.1956822,
  "lon": 8.5815699
},
{
  "type": "node",
  "id": 321464388,
  "lat": 52.1957365,
  "lon": 8.5809772
},
{
  "type": "node",
  "id": 418257062,
  "lat": 52.1955171,
  "lon": 8.5821084
},
{
  "type": "node",
  "id": 418257064,
  "lat": 52.1952865,
  "lon": 8.5814401
},
{
  "type": "node",
  "id": 581835313,
  "lat": 52.1954000,
  "lon": 8.5821242
},
{
  "type": "node",
  "id": 581835315,
  "lat": 52.1952889,
  "lon": 8.5821631
},
{
  "type": "node",
  "id": 581835317,
  "lat": 52.1949844,
  "lon": 8.5822029
},
{
  "type": "node",
  "id": 581835318,
  "lat": 52.1949469,
  "lon": 8.5811729
},
{
  "type": "node",
  "id": 581835322,
  "lat": 52.1952289,
  "lon": 8.5814206
},
{
  "type": "node",
  "id": 581835324,
  "lat": 52.1952864,
  "lon": 8.5814403
},
{
  "type": "node",
  "id": 7139942402,
  "lat": 52.1954949,
  "lon": 8.5810369
},
{
  "type": "node",
  "id": 1814108401,
  "lat": 52.1150044,
  "lon": 8.6631602
},
{
  "type": "node",
  "id": 1814108402,
  "lat": 52.1150162,
  "lon": 8.6634090
},
{
  "type": "node",
  "id": 1814108403,
  "lat": 52.1151857,
  "lon": 8.6634606
},
{
  "type": "node",
  "id": 1814108406,
  "lat": 52.1152110,
  "lon": 8.6633241
},
{
  "type": "node",
  "id": 1814108409,
  "lat": 52.1152326,
  "lon": 8.6631248
},
{
  "type": "node",
  "id": 1814108412,
  "lat": 52.1152376,
  "lon": 8.6634238
},
{
  "type": "node",
  "id": 1814108414,
  "lat": 52.1152554,
  "lon": 8.6637270
},
{
  "type": "node",
  "id": 1814108417,
  "lat": 52.1152590,
  "lon": 8.6632906
},
{
  "type": "node",
  "id": 1814108420,
  "lat": 52.1152856,
  "lon": 8.6633898
},
{
  "type": "node",
  "id": 1814108423,
  "lat": 52.1153008,
  "lon": 8.6631431
},
{
  "type": "node",
  "id": 1814108425,
  "lat": 52.1153155,
  "lon": 8.6631978
},
{
  "type": "node",
  "id": 1814108428,
  "lat": 52.1153427,
  "lon": 8.6633493
},
{
  "type": "node",
  "id": 1814108431,
  "lat": 52.1154128,
  "lon": 8.6636176
},
{
  "type": "node",
  "id": 1838355825,
  "lat": 52.1150022,
  "lon": 8.6632873
},
{
  "type": "node",
  "id": 1838355835,
  "lat": 52.1150037,
  "lon": 8.6632206
},
{
  "type": "node",
  "id": 1838355838,
  "lat": 52.1150016,
  "lon": 8.6633542
},
{
  "type": "node",
  "id": 1838355840,
  "lat": 52.1150184,
  "lon": 8.6632759
},
{
  "type": "node",
  "id": 1838355841,
  "lat": 52.1150178,
  "lon": 8.6632106
},
{
  "type": "node",
  "id": 1838355843,
  "lat": 52.1150172,
  "lon": 8.6633431
},
{
  "type": "node",
  "id": 1838355845,
  "lat": 52.1151861,
  "lon": 8.6630314
},
{
  "type": "node",
  "id": 1838355846,
  "lat": 52.1151997,
  "lon": 8.6630823
},
{
  "type": "node",
  "id": 1838355847,
  "lat": 52.1152179,
  "lon": 8.6630695
},
{
  "type": "node",
  "id": 1838355848,
  "lat": 52.1152505,
  "lon": 8.6631122
},
{
  "type": "node",
  "id": 1838355849,
  "lat": 52.1152654,
  "lon": 8.6631682
},
{
  "type": "node",
  "id": 1838355850,
  "lat": 52.1152632,
  "lon": 8.6633061
},
{
  "type": "node",
  "id": 2393838687,
  "lat": 52.1150588,
  "lon": 8.6633788
},
{
  "type": "node",
  "id": 2393838689,
  "lat": 52.1150708,
  "lon": 8.6634235
},
{
  "type": "node",
  "id": 2393838691,
  "lat": 52.1151957,
  "lon": 8.6635362
},
{
  "type": "node",
  "id": 2393838693,
  "lat": 52.1152043,
  "lon": 8.6635301
},
{
  "type": "node",
  "id": 2393838695,
  "lat": 52.1152281,
  "lon": 8.6636574
},
{
  "type": "node",
  "id": 2393838697,
  "lat": 52.1152354,
  "lon": 8.6636522
},
{
  "type": "node",
  "id": 2393838699,
  "lat": 52.1153017,
  "lon": 8.6632076
},
{
  "type": "node",
  "id": 2393838701,
  "lat": 52.1153135,
  "lon": 8.6632519
},
{
  "type": "node",
  "id": 2393838703,
  "lat": 52.1153167,
  "lon": 8.6636835
},
{
  "type": "node",
  "id": 2393838705,
  "lat": 52.1153234,
  "lon": 8.6637086
},
{
  "type": "node",
  "id": 2393838707,
  "lat": 52.1153621,
  "lon": 8.6634218
},
{
  "type": "node",
  "id": 2393838709,
  "lat": 52.1153634,
  "lon": 8.6636526
},
{
  "type": "node",
  "id": 2393838711,
  "lat": 52.1153696,
  "lon": 8.6636758
},
{
  "type": "node",
  "id": 2393838713,
  "lat": 52.1153705,
  "lon": 8.6634158
},
{
  "type": "node",
  "id": 2393838715,
  "lat": 52.1153931,
  "lon": 8.6635438
},
{
  "type": "node",
  "id": 2393838718,
  "lat": 52.1154028,
  "lon": 8.6635370
},
{
  "type": "node",
  "id": 270917841,
  "lat": 52.1206775,
  "lon": 8.6682023
},
{
  "type": "node",
  "id": 270917842,
  "lat": 52.1207268,
  "lon": 8.6680382
},
{
  "type": "node",
  "id": 270917843,
  "lat": 52.1207397,
  "lon": 8.6679796
},
{
  "type": "node",
  "id": 270917844,
  "lat": 52.1207412,
  "lon": 8.6678812
},
{
  "type": "node",
  "id": 270917845,
  "lat": 52.1207531,
  "lon": 8.6678378
},
{
  "type": "node",
  "id": 270917846,
  "lat": 52.1208190,
  "lon": 8.6678894
},
{
  "type": "node",
  "id": 270917847,
  "lat": 52.1209563,
  "lon": 8.6677690
},
{
  "type": "node",
  "id": 270917848,
  "lat": 52.1209576,
  "lon": 8.6678318
},
{
  "type": "node",
  "id": 270917849,
  "lat": 52.1210718,
  "lon": 8.6678639
},
{
  "type": "node",
  "id": 270917850,
  "lat": 52.1211166,
  "lon": 8.6679453
},
{
  "type": "node",
  "id": 270917851,
  "lat": 52.1212096,
  "lon": 8.6680171
},
{
  "type": "node",
  "id": 270917852,
  "lat": 52.1211067,
  "lon": 8.6682356
},
{
  "type": "node",
  "id": 270917853,
  "lat": 52.1210900,
  "lon": 8.6683133
},
{
  "type": "node",
  "id": 270917856,
  "lat": 52.1212306,
  "lon": 8.6682922
},
{
  "type": "node",
  "id": 270917857,
  "lat": 52.1212619,
  "lon": 8.6681500
},
{
  "type": "node",
  "id": 270917858,
  "lat": 52.1212673,
  "lon": 8.6680825
},
{
  "type": "node",
  "id": 270917859,
  "lat": 52.1214316,
  "lon": 8.6681314
},
{
  "type": "node",
  "id": 270917861,
  "lat": 52.1213267,
  "lon": 8.6686093
},
{
  "type": "node",
  "id": 1848816975,
  "lat": 52.1205936,
  "lon": 8.6684396
},
{
  "type": "node",
  "id": 1848816976,
  "lat": 52.1206881,
  "lon": 8.6683119
},
{
  "type": "node",
  "id": 1848816977,
  "lat": 52.1206887,
  "lon": 8.6681219
},
{
  "type": "node",
  "id": 1848816978,
  "lat": 52.1207665,
  "lon": 8.6686555
},
{
  "type": "node",
  "id": 1848816979,
  "lat": 52.1207467,
  "lon": 8.6679421
},
{
  "type": "node",
  "id": 1848816980,
  "lat": 52.1208632,
  "lon": 8.6685897
},
{
  "type": "node",
  "id": 1848816981,
  "lat": 52.1208185,
  "lon": 8.6678627
},
{
  "type": "node",
  "id": 1848816983,
  "lat": 52.1208208,
  "lon": 8.6677898
},
{
  "type": "node",
  "id": 1848816985,
  "lat": 52.1208222,
  "lon": 8.6677390
},
{
  "type": "node",
  "id": 1848816987,
  "lat": 52.1208336,
  "lon": 8.6677384
},
{
  "type": "node",
  "id": 1848816992,
  "lat": 52.1209167,
  "lon": 8.6686919
},
{
  "type": "node",
  "id": 1848816993,
  "lat": 52.1208488,
  "lon": 8.6686436
},
{
  "type": "node",
  "id": 1848816995,
  "lat": 52.1209037,
  "lon": 8.6677487
},
{
  "type": "node",
  "id": 1848816999,
  "lat": 52.1209898,
  "lon": 8.6678342
},
{
  "type": "node",
  "id": 1848817001,
  "lat": 52.1210359,
  "lon": 8.6678366
},
{
  "type": "node",
  "id": 1848817003,
  "lat": 52.1210604,
  "lon": 8.6679145
},
{
  "type": "node",
  "id": 1848817006,
  "lat": 52.1211395,
  "lon": 8.6683454
},
{
  "type": "node",
  "id": 1848817008,
  "lat": 52.1211353,
  "lon": 8.6682527
},
{
  "type": "node",
  "id": 1848817009,
  "lat": 52.1211782,
  "lon": 8.6681364
},
{
  "type": "node",
  "id": 1848817010,
  "lat": 52.1211765,
  "lon": 8.6683747
},
{
  "type": "node",
  "id": 1848817012,
  "lat": 52.1211987,
  "lon": 8.6683953
},
{
  "type": "node",
  "id": 1848817013,
  "lat": 52.1212534,
  "lon": 8.6682066
},
{
  "type": "node",
  "id": 1848817018,
  "lat": 52.1213328,
  "lon": 8.6681038
},
{
  "type": "node",
  "id": 1848817021,
  "lat": 52.1214055,
  "lon": 8.6681154
},
{
  "type": "node",
  "id": 2031189233,
  "lat": 52.1206317,
  "lon": 8.6685016
},
{
  "type": "node",
  "id": 2031189235,
  "lat": 52.1206349,
  "lon": 8.6685337
},
{
  "type": "node",
  "id": 2031189253,
  "lat": 52.1206822,
  "lon": 8.6685696
},
{
  "type": "node",
  "id": 2031189261,
  "lat": 52.1207098,
  "lon": 8.6680279
},
{
  "type": "node",
  "id": 2031189265,
  "lat": 52.1207342,
  "lon": 8.6686133
},
{
  "type": "node",
  "id": 2031189279,
  "lat": 52.1208091,
  "lon": 8.6686043
},
{
  "type": "node",
  "id": 2031189308,
  "lat": 52.1209031,
  "lon": 8.6687427
},
{
  "type": "node",
  "id": 2031189392,
  "lat": 52.1211757,
  "lon": 8.6689361
},
{
  "type": "node",
  "id": 2031189417,
  "lat": 52.1212291,
  "lon": 8.6689740
},
{
  "type": "node",
  "id": 2031189432,
  "lat": 52.1212769,
  "lon": 8.6687952
},
{
  "type": "node",
  "id": 2031189434,
  "lat": 52.1213010,
  "lon": 8.6680908
},
{
  "type": "node",
  "id": 2031189449,
  "lat": 52.1213638,
  "lon": 8.6684703
},
{
  "type": "node",
  "id": 2031189453,
  "lat": 52.1213646,
  "lon": 8.6684675
},
{
  "type": "node",
  "id": 2031189456,
  "lat": 52.1213861,
  "lon": 8.6683655
},
{
  "type": "node",
  "id": 2031189460,
  "lat": 52.1214098,
  "lon": 8.6682384
},
{
  "type": "node",
  "id": 2393838724,
  "lat": 52.1213012,
  "lon": 8.6687045
},
{
  "type": "node",
  "id": 274907660,
  "lat": 52.0263023,
  "lon": 8.7775450
},
{
  "type": "node",
  "id": 274907661,
  "lat": 52.0262733,
  "lon": 8.7790117
},
{
  "type": "node",
  "id": 602232246,
  "lat": 52.0261624,
  "lon": 8.7775318
},
{
  "type": "node",
  "id": 1458124867,
  "lat": 52.0259322,
  "lon": 8.7775605
},
{
  "type": "node",
  "id": 1638822488,
  "lat": 52.0257794,
  "lon": 8.7793893
},
{
  "type": "node",
  "id": 1638822502,
  "lat": 52.0258302,
  "lon": 8.7794222
},
{
  "type": "node",
  "id": 1847503475,
  "lat": 52.1530649,
  "lon": 8.6667773
},
{
  "type": "node",
  "id": 1847503490,
  "lat": 52.1531894,
  "lon": 8.6672457
},
{
  "type": "node",
  "id": 1847503492,
  "lat": 52.1532234,
  "lon": 8.6674179
},
{
  "type": "node",
  "id": 1847503493,
  "lat": 52.1533130,
  "lon": 8.6671808
},
{
  "type": "node",
  "id": 1847503494,
  "lat": 52.1533470,
  "lon": 8.6673530
},
{
  "type": "node",
  "id": 1847503495,
  "lat": 52.1532859,
  "lon": 8.6667338
},
{
  "type": "node",
  "id": 1847503496,
  "lat": 52.1534121,
  "lon": 8.6677510
},
{
  "type": "node",
  "id": 4155657089,
  "lat": 52.1531888,
  "lon": 8.6676903
},
{
  "type": "node",
  "id": 4155657090,
  "lat": 52.1531976,
  "lon": 8.6677543
},
{
  "type": "node",
  "id": 4155657093,
  "lat": 52.1532767,
  "lon": 8.6673899
},
{
  "type": "node",
  "id": 3476146575,
  "lat": 52.1775777,
  "lon": 8.7273226
},
{
  "type": "node",
  "id": 3476146581,
  "lat": 52.1776495,
  "lon": 8.7275319
},
{
  "type": "node",
  "id": 3476146582,
  "lat": 52.1776522,
  "lon": 8.7275292
},
{
  "type": "node",
  "id": 3476146586,
  "lat": 52.1776710,
  "lon": 8.7272340
},
{
  "type": "node",
  "id": 3476146589,
  "lat": 52.1776968,
  "lon": 8.7276632
},
{
  "type": "node",
  "id": 3476146590,
  "lat": 52.1777006,
  "lon": 8.7276597
},
{
  "type": "node",
  "id": 3476146591,
  "lat": 52.1777205,
  "lon": 8.7277288
},
{
  "type": "node",
  "id": 3476146592,
  "lat": 52.1777243,
  "lon": 8.7277252
},
{
  "type": "node",
  "id": 3476146593,
  "lat": 52.1777457,
  "lon": 8.7274405
},
{
  "type": "node",
  "id": 3476146595,
  "lat": 52.1777580,
  "lon": 8.7274288
},
{
  "type": "node",
  "id": 3476146596,
  "lat": 52.1777675,
  "lon": 8.7278593
},
{
  "type": "node",
  "id": 3476146598,
  "lat": 52.1778030,
  "lon": 8.7275626
},
{
  "type": "node",
  "id": 3476146599,
  "lat": 52.1778054,
  "lon": 8.7275603
},
{
  "type": "node",
  "id": 3476146602,
  "lat": 52.1778268,
  "lon": 8.7276278
},
{
  "type": "node",
  "id": 3476146604,
  "lat": 52.1778290,
  "lon": 8.7276256
},
{
  "type": "node",
  "id": 3476146608,
  "lat": 52.1778759,
  "lon": 8.7277560
},
{
  "type": "node",
  "id": 447786410,
  "lat": 52.2037543,
  "lon": 8.7959977
},
{
  "type": "node",
  "id": 447786411,
  "lat": 52.2037619,
  "lon": 8.7962937
},
{
  "type": "node",
  "id": 447786412,
  "lat": 52.2037151,
  "lon": 8.7963295
},
{
  "type": "node",
  "id": 447786413,
  "lat": 52.2036402,
  "lon": 8.7960778
},
{
  "type": "node",
  "id": 447786414,
  "lat": 52.2036584,
  "lon": 8.7960404
},
{
  "type": "node",
  "id": 447786416,
  "lat": 52.2036644,
  "lon": 8.7960627
},
{
  "type": "node",
  "id": 1520168298,
  "lat": 52.2036352,
  "lon": 8.7960814
},
{
  "type": "node",
  "id": 1520168300,
  "lat": 52.2036347,
  "lon": 8.7960575
},
{
  "type": "node",
  "id": 1520168309,
  "lat": 52.2037046,
  "lon": 8.7963371
},
{
  "type": "node",
  "id": 1520168313,
  "lat": 52.2037175,
  "lon": 8.7963385
},
{
  "type": "node",
  "id": 1520168315,
  "lat": 52.2037648,
  "lon": 8.7963043
},
{
  "type": "node",
  "id": 1520168329,
  "lat": 52.2038227,
  "lon": 8.7962497
},
{
  "type": "node",
  "id": 3430374945,
  "lat": 52.2400669,
  "lon": 8.6277108
},
{
  "type": "node",
  "id": 3430374947,
  "lat": 52.2400679,
  "lon": 8.6277175
},
{
  "type": "node",
  "id": 3430374952,
  "lat": 52.2400699,
  "lon": 8.6277167
},
{
  "type": "node",
  "id": 3430375016,
  "lat": 52.2401158,
  "lon": 8.6280526
},
{
  "type": "node",
  "id": 3430375056,
  "lat": 52.2401545,
  "lon": 8.6276823
},
{
  "type": "node",
  "id": 3430375059,
  "lat": 52.2401553,
  "lon": 8.6276822
},
{
  "type": "node",
  "id": 3430375215,
  "lat": 52.2402010,
  "lon": 8.6280220
},
{
  "type": "node",
  "id": 3430377118,
  "lat": 52.2410259,
  "lon": 8.6292154
},
{
  "type": "node",
  "id": 3430377178,
  "lat": 52.2410623,
  "lon": 8.6294091
},
{
  "type": "node",
  "id": 3430377194,
  "lat": 52.2410679,
  "lon": 8.6294063
},
{
  "type": "node",
  "id": 3430377206,
  "lat": 52.2410748,
  "lon": 8.6294445
},
{
  "type": "node",
  "id": 3430377254,
  "lat": 52.2411038,
  "lon": 8.6293893
},
{
  "type": "node",
  "id": 3430377264,
  "lat": 52.2411107,
  "lon": 8.6294272
},
{
  "type": "node",
  "id": 3430377298,
  "lat": 52.2411343,
  "lon": 8.6291614
},
{
  "type": "node",
  "id": 3430377328,
  "lat": 52.2411605,
  "lon": 8.6293002
},
{
  "type": "node",
  "id": 3430377340,
  "lat": 52.2411703,
  "lon": 8.6293521
},
{
  "type": "node",
  "id": 3430377341,
  "lat": 52.2411710,
  "lon": 8.6293570
},
{
  "type": "node",
  "id": 3430381250,
  "lat": 52.2433218,
  "lon": 8.6461189
},
{
  "type": "node",
  "id": 3430381442,
  "lat": 52.2433814,
  "lon": 8.6460002
},
{
  "type": "node",
  "id": 3430381458,
  "lat": 52.2433927,
  "lon": 8.6462136
},
{
  "type": "node",
  "id": 3430381644,
  "lat": 52.2434524,
  "lon": 8.6460949
},
{
  "type": "node",
  "id": 3430487782,
  "lat": 52.3029016,
  "lon": 8.6176895
},
{
  "type": "node",
  "id": 3430488002,
  "lat": 52.3029421,
  "lon": 8.6178925
},
{
  "type": "node",
  "id": 3430488005,
  "lat": 52.3029462,
  "lon": 8.6178903
},
{
  "type": "node",
  "id": 3430488052,
  "lat": 52.3030662,
  "lon": 8.6176041
},
{
  "type": "node",
  "id": 3430488066,
  "lat": 52.3031008,
  "lon": 8.6178080
},
{
  "type": "node",
  "id": 3430488067,
  "lat": 52.3031065,
  "lon": 8.6178050
},
{
  "type": "node",
  "id": 3430488072,
  "lat": 52.3031113,
  "lon": 8.6178600
},
{
  "type": "node",
  "id": 3430488091,
  "lat": 52.3031531,
  "lon": 8.6178383
},
{
  "type": "node",
  "id": 3430488294,
  "lat": 52.3031623,
  "lon": 8.6178847
},
{
  "type": "node",
  "id": 3430488295,
  "lat": 52.3031669,
  "lon": 8.6178823
},
{
  "type": "node",
  "id": 3430488296,
  "lat": 52.3031725,
  "lon": 8.6179103
},
{
  "type": "node",
  "id": 3430488006,
  "lat": 52.3029564,
  "lon": 8.6179967
},
{
  "type": "node",
  "id": 3430488010,
  "lat": 52.3029666,
  "lon": 8.6179910
},
{
  "type": "node",
  "id": 3430488011,
  "lat": 52.3029672,
  "lon": 8.6180490
},
{
  "type": "node",
  "id": 3430488014,
  "lat": 52.3029738,
  "lon": 8.6180455
},
{
  "type": "node",
  "id": 3430488015,
  "lat": 52.3029744,
  "lon": 8.6180485
},
{
  "type": "node",
  "id": 3430488024,
  "lat": 52.3030055,
  "lon": 8.6179990
},
{
  "type": "node",
  "id": 3430488027,
  "lat": 52.3030103,
  "lon": 8.6180292
},
{
  "type": "node",
  "id": 3430488028,
  "lat": 52.3030109,
  "lon": 8.6180313
},
{
  "type": "node",
  "id": 3430488030,
  "lat": 52.3030121,
  "lon": 8.6180306
},
{
  "type": "node",
  "id": 2579500772,
  "lat": 52.0258019,
  "lon": 8.9176153
},
{
  "type": "node",
  "id": 2579500782,
  "lat": 52.0258118,
  "lon": 8.9176874
},
{
  "type": "node",
  "id": 2579500784,
  "lat": 52.0258182,
  "lon": 8.9176094
},
{
  "type": "node",
  "id": 2579500796,
  "lat": 52.0258234,
  "lon": 8.9176469
},
{
  "type": "node",
  "id": 2579500810,
  "lat": 52.0258403,
  "lon": 8.9175014
},
{
  "type": "node",
  "id": 2579500812,
  "lat": 52.0258412,
  "lon": 8.9175079
},
{
  "type": "node",
  "id": 2579500858,
  "lat": 52.0258838,
  "lon": 8.9174925
},
{
  "type": "node",
  "id": 2579500862,
  "lat": 52.0258930,
  "lon": 8.9175600
},
{
  "type": "node",
  "id": 2579500869,
  "lat": 52.0258963,
  "lon": 8.9175850
},
{
  "type": "node",
  "id": 2579500873,
  "lat": 52.0259010,
  "lon": 8.9176189
},
{
  "type": "node",
  "id": 2579500922,
  "lat": 52.0259259,
  "lon": 8.9174885
},
{
  "type": "node",
  "id": 2579500931,
  "lat": 52.0259336,
  "lon": 8.9175453
},
{
  "type": "node",
  "id": 2579500956,
  "lat": 52.0259370,
  "lon": 8.9175702
},
{
  "type": "node",
  "id": 2579500982,
  "lat": 52.0259449,
  "lon": 8.9176271
},
{
  "type": "node",
  "id": 2579501103,
  "lat": 52.0260115,
  "lon": 8.9174581
},
{
  "type": "node",
  "id": 2579501118,
  "lat": 52.0260303,
  "lon": 8.9175968
},
{
  "type": "node",
  "id": 2707228759,
  "lat": 52.0258591,
  "lon": 8.9176340
},
{
  "type": "node",
  "id": 2625169803,
  "lat": 52.1658826,
  "lon": 8.8592787
},
{
  "type": "node",
  "id": 2625169831,
  "lat": 52.1659068,
  "lon": 8.8592393
},
{
  "type": "node",
  "id": 2625169834,
  "lat": 52.1659079,
  "lon": 8.8592412
},
{
  "type": "node",
  "id": 2625169836,
  "lat": 52.1659092,
  "lon": 8.8593484
},
{
  "type": "node",
  "id": 2625169864,
  "lat": 52.1659165,
  "lon": 8.8593372
},
{
  "type": "node",
  "id": 2625169896,
  "lat": 52.1659323,
  "lon": 8.8593916
},
{
  "type": "node",
  "id": 2625169935,
  "lat": 52.1659654,
  "lon": 8.8593405
},
{
  "type": "node",
  "id": 2625169964,
  "lat": 52.1659823,
  "lon": 8.8593697
},
{
  "type": "node",
  "id": 2625170060,
  "lat": 52.1660363,
  "lon": 8.8590423
},
{
  "type": "node",
  "id": 2625170096,
  "lat": 52.1660575,
  "lon": 8.8590980
},
{
  "type": "node",
  "id": 2625170111,
  "lat": 52.1660634,
  "lon": 8.8592466
},
{
  "type": "node",
  "id": 2625170113,
  "lat": 52.1660641,
  "lon": 8.8590883
},
{
  "type": "node",
  "id": 2625170170,
  "lat": 52.1661057,
  "lon": 8.8591821
},
{
  "type": "node",
  "id": 959449449,
  "lat": 52.2161213,
  "lon": 8.8256915
},
{
  "type": "node",
  "id": 959449481,
  "lat": 52.2161658,
  "lon": 8.8253340
},
{
  "type": "node",
  "id": 959449596,
  "lat": 52.2159914,
  "lon": 8.8253799
},
{
  "type": "node",
  "id": 959449655,
  "lat": 52.2161069,
  "lon": 8.8255463
},
{
  "type": "node",
  "id": 959450092,
  "lat": 52.2160247,
  "lon": 8.8257170
},
{
  "type": "node",
  "id": 959450172,
  "lat": 52.2161847,
  "lon": 8.8255258
},
{
  "type": "node",
  "id": 450893540,
  "lat": 52.2634232,
  "lon": 8.8401730
},
{
  "type": "node",
  "id": 451670525,
  "lat": 52.2635741,
  "lon": 8.8402137
},
{
  "type": "node",
  "id": 451670527,
  "lat": 52.2636123,
  "lon": 8.8398011
},
{
  "type": "node",
  "id": 451670528,
  "lat": 52.2632100,
  "lon": 8.8397014
},
{
  "type": "node",
  "id": 451670529,
  "lat": 52.2631761,
  "lon": 8.8400668
},
{
  "type": "node",
  "id": 3565455054,
  "lat": 52.2634281,
  "lon": 8.8401292
},
{
  "type": "way",
  "id": 304224054,
  "nodes": [
    3087527535,
    7110131496,
    3087527636,
    3087527233,
    3087527533,
    3087527633,
    3087527534,
    3087527634,
    3087526535,
    3087527638,
    3087527639,
    3087527535
  ]
},
{
  "type": "way",
  "id": 304438381,
  "nodes": [
    3087527833,
    3087527536,
    3087527637,
    3087527834,
    3087527635,
    3087527036,
    3087527833
  ]
},
{
  "type": "way",
  "id": 193313575,
  "nodes": [
    2800474823,
    2503259765,
    2503259752,
    2503259747,
    2038204138,
    2503259739,
    2503259742,
    2038204135,
    2038204137,
    2503259750,
    2503259753,
    5032353581,
    2503259763,
    2800474822,
    2800474823
  ]
},
{
  "type": "way",
  "id": 193313576,
  "nodes": [
    2503259755,
    2038204134,
    3668999751,
    3668999752,
    3668999753,
    3668999754,
    3668999755,
    3668999756,
    3668999757,
    3668999758,
    3668999759,
    3668999760,
    3668999762,
    3668999761,
    2191477026,
    3668999764,
    3668999765,
    3668999766,
    3668999767,
    3668999769,
    3668999768,
    3668999770,
    2503259755
  ]
}

  ]
}
