{
  "version": 0.6,
  "generator": "Overpass API 0.7.55.9 ab41fea6",
  "osm3s": {
    "timestamp_osm_base": "2020-02-14T15:16:02Z",
    "copyright": "The data included in this document is from www.openstreetmap.org. The data is made available under ODbL."
  },
  "elements": [

{
  "type": "node",
  "id": 296084002,
  "lat": 44.4138594,
  "lon": 12.2067818,
  "tags": {
    "name": "MAR Museo d'Arte della città di Ravenna",
    "source": "www.museocitta.ra.it",
    "tourism": "museum",
    "wikipedia": "it:Museo d'arte della città di Ravenna"
  }
},
{
  "type": "node",
  "id": 298994213,
  "lat": 44.2214302,
  "lon": 12.0358067,
  "tags": {
    "name": "Musei in San Domenico, Pinacoteca",
    "tourism": "museum",
    "wikipedia": "it:Musei di San Domenico"
  }
},
{
  "type": "node",
  "id": 300270781,
  "lat": 44.4186878,
  "lon": 11.9751511,
  "tags": {
    "name": "Museo Civico delle Cappuccine",
    "tourism": "museum",
    "wikidata": "Q55368550"
  }
},
{
  "type": "node",
  "id": 359686533,
  "lat": 44.3550909,
  "lon": 11.7110641,
  "tags": {
    "name": "Museo Archeologico",
    "tourism": "museum"
  }
},
{
  "type": "node",
  "id": 366718068,
  "lat": 44.3553684,
  "lon": 11.7123776,
  "tags": {
    "addr:city": "Imola",
    "addr:housenumber": "4",
    "addr:postcode": "40026",
    "addr:street": "Via Gaspare Sacchi",
    "name": "Museo di San Domenico",
    "tourism": "museum",
    "website": "http://museiciviciimola.it/museo-di-san-domenico-imola/",
    "wikidata": "Q27992740"
  }
},
{
  "type": "node",
  "id": 366719133,
  "lat": 44.3549544,
  "lon": 11.7124192,
  "tags": {
    "name": "Museo Giuseppe Scarabelli",
    "tourism": "museum"
  }
},
{
  "type": "node",
  "id": 385722937,
  "lat": 44.3549933,
  "lon": 11.7084343,
  "tags": {
    "amenity": "arts_centre",
    "name": "Sala Dell' Annunziata",
    "tourism": "museum"
  }
},
{
  "type": "node",
  "id": 508660524,
  "lat": 44.2884362,
  "lon": 11.8842532,
  "tags": {
    "name": "Casa Museo \"Raffaele Bendandi\"",
    "tourism": "museum"
  }
},
{
  "type": "node",
  "id": 529644339,
  "lat": 44.1603239,
  "lon": 11.6465870,
  "tags": {
    "name": "Museo Storico della Resistenza",
    "opening_hours": "Apr 25, May-Oct Su,PH 10:00-18:00",
    "operator": "Associazione Cà di Malanca",
    "operator:type": "ngo",
    "tourism": "museum",
    "website": "https://www.camalanca.it/"
  }
},
{
  "type": "node",
  "id": 546597689,
  "lat": 44.2881377,
  "lon": 11.8772603,
  "tags": {
    "name": "Palazzo delle Esposizioni",
    "tourism": "museum"
  }
},
{
  "type": "node",
  "id": 549092723,
  "lat": 44.2894707,
  "lon": 11.8810593,
  "tags": {
    "name": "Museo Internazionale delle Ceramiche in Faenza",
    "tourism": "museum",
    "website": "http://www.micfaenza.org/",
    "wikidata": "Q3330620",
    "wikipedia": "it:Museo internazionale delle ceramiche in Faenza"
  }
},
{
  "type": "node",
  "id": 601465510,
  "lat": 44.4150724,
  "lon": 12.1977630,
  "tags": {
    "name": "Museo Arcivescovile",
    "name:en": "Archiepiscopal Museum",
    "tourism": "museum",
    "wikidata": "Q1294402",
    "wikipedia": "it:Museo arcivescovile di Ravenna"
  }
},
{
  "type": "node",
  "id": 665486891,
  "lat": 44.4137585,
  "lon": 12.2083251,
  "tags": {
    "name": "Planetario",
    "tourism": "museum"
  }
},
{
  "type": "node",
  "id": 724190119,
  "lat": 44.3525819,
  "lon": 11.7118782,
  "tags": {
    "name": "Palazzo Tozzoni",
    "tourism": "museum",
    "wikidata": "Q3891009",
    "wikimedia_commons": "Category:Palazzo_Tozzoni",
    "wikipedia": "it:Palazzo Tozzoni"
  }
},
{
  "type": "node",
  "id": 896123097,
  "lat": 44.4828916,
  "lon": 12.2749462,
  "tags": {
    "name": "Sub",
    "tourism": "museum"
  }
},
{
  "type": "node",
  "id": 1130238793,
  "lat": 44.2125828,
  "lon": 12.0161071,
  "tags": {
    "name": "Casa Saffi",
    "tourism": "museum",
    "wikipedia": "it:Villa Saffi"
  }
},
{
  "type": "node",
  "id": 1695923365,
  "lat": 44.1374648,
  "lon": 12.2480796,
  "tags": {
    "name": "Pinacoteca Comunale",
    "tourism": "museum"
  }
},
{
  "type": "node",
  "id": 1696042274,
  "lat": 44.1359114,
  "lon": 12.2454082,
  "tags": {
    "name": "Facoltà di Architettura, spazio espositivo",
    "tourism": "museum"
  }
},
{
  "type": "node",
  "id": 1715961797,
  "lat": 44.4684124,
  "lon": 11.9580813,
  "tags": {
    "name": "Museo Civico San Rocco e Centro Culturale",
    "tourism": "museum"
  }
},
{
  "type": "node",
  "id": 1967994837,
  "lat": 43.9456055,
  "lon": 11.9094779,
  "tags": {
    "name": "Galleria d'arte Vero Stoppioni",
    "tourism": "museum"
  }
},
{
  "type": "node",
  "id": 2742403686,
  "lat": 44.0640439,
  "lon": 12.4438749,
  "tags": {
    "addr:housenumber": "11",
    "addr:street": "Via della Costa",
    "name": "Museo del bottone",
    "opening_hours": "10:00-12:00,15:00-18:00",
    "tourism": "museum"
  }
},
{
  "type": "node",
  "id": 2823221436,
  "lat": 44.3535999,
  "lon": 11.7103318,
  "tags": {
    "addr:city": "Imola",
    "addr:housenumber": "1",
    "addr:postcode": "40026",
    "addr:street": "Piazza del Duomo",
    "name": "Museo diocesano Pio IX",
    "ref:isil": "IT-BO0623",
    "source": "http://anagrafe.iccu.sbn.it/isil/IT-BO0623",
    "tourism": "museum",
    "wikidata": "Q3868303",
    "wikipedia": "it:Museo diocesano Pio IX"
  }
},
{
  "type": "node",
  "id": 2833535228,
  "lat": 44.3527867,
  "lon": 11.7149706,
  "tags": {
    "addr:city": "Imola",
    "addr:housenumber": "6",
    "addr:postcode": "40026",
    "addr:street": "Piazza Giacomo Matteotti",
    "name": "Palazzo Sersanti",
    "source": "Bing",
    "tourism": "museum"
  }
},
{
  "type": "node",
  "id": 3326125929,
  "lat": 43.9196534,
  "lon": 12.1438161,
  "tags": {
    "addr:city": "Sarsina",
    "addr:housenumber": "39",
    "addr:postcode": "47027",
    "addr:street": "Via Cesio Sabino",
    "email": "pm-ero.muarchsarsina@beniculturali.it",
    "name": "Museo Archeologico Nazionale di Sarsina",
    "opening_hours": "Jun 15-Sep 15: Tu, Fr 08:30-14:00; We, Th, Sa, Su 13:30-19:00; Sep 16-Jun 14 Tu, We, Th 08:30-14:00; Fr, Sa, Su [1] 13:30-19:00; Su [2,3,4,5] 08:30-14:00",
    "phone": "+39 0547 94641",
    "tourism": "museum",
    "website": "https://www.polomusealeemiliaromagna.beniculturali.it/musei/museo-archeologico-nazionale-di-sarsina",
    "wikidata": "Q3867717",
    "wikipedia": "it:Museo archeologico nazionale di Sarsina"
  }
},
{
  "type": "node",
  "id": 3326125931,
  "lat": 44.1371501,
  "lon": 12.2414700,
  "tags": {
    "name": "Museo di scienze naturali",
    "tourism": "museum",
    "wikidata": "Q3868227",
    "wikipedia": "it:Museo di scienze naturali (Cesena)"
  }
},
{
  "type": "node",
  "id": 3579873796,
  "lat": 44.3545168,
  "lon": 11.7151411,
  "tags": {
    "name": "Palazzo Ginnasi",
    "tourism": "museum"
  }
},
{
  "type": "node",
  "id": 3845836158,
  "lat": 44.2242668,
  "lon": 12.0354321,
  "tags": {
    "name": "Museo del Risorgimento",
    "tourism": "museum",
    "wikidata": "Q3867922",
    "wikipedia": "it:Museo del Risorgimento (Forlì)"
  }
},
{
  "type": "node",
  "id": 3880034341,
  "lat": 44.4172701,
  "lon": 11.9092454,
  "tags": {
    "name": "Casa Museo \"Francesco Baracca\"",
    "tourism": "museum"
  }
},
{
  "type": "node",
  "id": 4031165344,
  "lat": 44.4188099,
  "lon": 12.1945301,
  "tags": {
    "name": "Domus dei tappeti di pietra",
    "name:en": "Domus of Stone Carpets",
    "tourism": "museum",
    "wikidata": "Q1238780",
    "wikipedia": "it:Domus dei tappeti di pietra"
  }
},
{
  "type": "node",
  "id": 4149594447,
  "lat": 44.4137223,
  "lon": 12.1999407,
  "tags": {
    "name": "Museo del TAMO",
    "tourism": "museum",
    "wikidata": "Q3713398",
    "wikipedia": "it:Domus del Triclinio"
  }
},
{
  "type": "node",
  "id": 4213179089,
  "lat": 44.1445949,
  "lon": 12.4655279,
  "tags": {
    "name": "Museo delle conchiglie",
    "tourism": "museum"
  }
},
{
  "type": "node",
  "id": 4324812693,
  "lat": 44.1733865,
  "lon": 12.0583530,
  "tags": {
    "addr:housenumber": "24",
    "addr:street": "Via Crocetta",
    "name": "Villa Carpena - Casa dei ricordi - La casa della famiglia Mussolini",
    "tourism": "museum",
    "wikidata": "Q27961084",
    "wikipedia": "it:Villa Carpena"
  }
},
{
  "type": "node",
  "id": 4338279193,
  "lat": 44.0644166,
  "lon": 12.4434671,
  "tags": {
    "addr:housenumber": "26",
    "addr:street": "Via della Costa",
    "name": "MUSAS museo storico archeologico",
    "tourism": "museum"
  }
},
{
  "type": "node",
  "id": 4338351636,
  "lat": 44.0642311,
  "lon": 12.4432883,
  "tags": {
    "addr:housenumber": "2",
    "addr:street": "Piazzetta Monache",
    "name": "Museo della radio e delle telecomunicazioni",
    "tourism": "museum"
  }
},
{
  "type": "node",
  "id": 4534891191,
  "lat": 44.1363420,
  "lon": 12.2429801,
  "tags": {
    "addr:housenumber": "23",
    "addr:street": "Via Pescheria",
    "name": "Galleria d'arte moderna ex Pescheria",
    "name:it": "Galleria d'arte moderna ex Pescheria",
    "tourism": "museum"
  }
},
{
  "type": "node",
  "id": 4677162899,
  "lat": 44.1392113,
  "lon": 12.2440670,
  "tags": {
    "name": "Museo archeologico di Cesena",
    "opening_hours": "Mo 14:00-19:00, Tu-Sa 09:00-19:00, Su 10:00-19:00, PH 10:00-19:00",
    "tourism": "museum",
    "wikidata": "Q3867685",
    "wikipedia": "it:Museo archeologico di Cesena"
  }
},
{
  "type": "node",
  "id": 4751654351,
  "lat": 44.2845447,
  "lon": 11.8940129,
  "tags": {
    "addr:city": "Faenza",
    "addr:housenumber": "8",
    "addr:postcode": "48018",
    "addr:street": "Via fratelli Rosselli",
    "name": "Museo Guerrino Tramonti",
    "tourism": "museum",
    "website": "http://www.tramontiguerrino.it/"
  }
},
{
  "type": "node",
  "id": 4751654944,
  "lat": 44.2818094,
  "lon": 11.8925187,
  "tags": {
    "addr:city": "Faenza",
    "addr:housenumber": "2",
    "addr:postcode": "48018",
    "addr:street": "Via Pompignoli",
    "name": "Museo Bottega Gatti",
    "tourism": "museum",
    "website": "http://www.ceramicagatti.it/bottega/museo/"
  }
},
{
  "type": "node",
  "id": 4751658346,
  "lat": 44.2874032,
  "lon": 11.8869642,
  "tags": {
    "addr:city": "Faenza",
    "addr:housenumber": "6",
    "addr:postcode": "48018",
    "addr:street": "Via della Croce",
    "name": "Museo Carlo Zauli",
    "tourism": "museum",
    "website": "http://www.museozauli.it/"
  }
},
{
  "type": "node",
  "id": 4762177335,
  "lat": 44.3587068,
  "lon": 11.7236478,
  "tags": {
    "addr:city": "Imola",
    "addr:housenumber": "1B",
    "addr:postcode": "40026",
    "addr:street": "Via Poiano",
    "email": "benito.battilani@alice.it",
    "museum": "transport",
    "name": "Collezione Battilani",
    "opening_hours": "\"by appointment\"",
    "operator": "Benito Battilani",
    "phone": "+39 0542 640961",
    "source": "http://visitareimola.it/portfolio/collezione-battilani/;http://asimusei.it/museo/collezione-benito-battilani/",
    "tourism": "museum",
    "website": "http://www.motorvalley.it/collezioni/collezione-battilani",
    "wheelchair": "yes"
  }
},
{
  "type": "node",
  "id": 4762401320,
  "lat": 44.3545635,
  "lon": 11.7082181,
  "tags": {
    "addr:city": "Imola",
    "addr:housenumber": "23",
    "addr:postcode": "40026",
    "addr:street": "Via Fratelli Bandiera",
    "email": "info@cidra.it",
    "full_name": "Centro Imolese Documentazione Resistenza Antifascista e Storia Contemporanea",
    "name": "CIDRA",
    "phone": "+39 0542 24422",
    "tourism": "museum",
    "website": "https://www.cidra.it/"
  }
},
{
  "type": "node",
  "id": 4764079481,
  "lat": 44.1279501,
  "lon": 12.0599357,
  "tags": {
    "addr:city": "Meldola",
    "addr:housenumber": "23",
    "addr:street": "Via Rocca",
    "name": "Museo Civico di Ecologia",
    "tourism": "museum",
    "website": "http://www.museodiecologia.it/"
  }
},
{
  "type": "node",
  "id": 4766458782,
  "lat": 44.2215751,
  "lon": 12.0361431,
  "tags": {
    "addr:city": "Forlì",
    "addr:housenumber": "8",
    "addr:street": "Piazza Guido Da Montefeltro",
    "name": "Auditorium San Giacomo",
    "tourism": "museum"
  }
},
{
  "type": "node",
  "id": 4973618058,
  "lat": 44.2268307,
  "lon": 11.7375924,
  "tags": {
    "name": "Museo Carnè",
    "tourism": "museum"
  }
},
{
  "type": "node",
  "id": 4986488911,
  "lat": 43.9998557,
  "lon": 12.3505597,
  "tags": {
    "name": "Museo e biblioteca Renzi",
    "tourism": "museum"
  }
},
{
  "type": "node",
  "id": 4986577446,
  "lat": 43.9894366,
  "lon": 12.3569547,
  "tags": {
    "name": "Museo della Civiltà contadina",
    "name:hu": "Paraszti Kultúra Múzeuma",
    "tourism": "museum"
  }
},
{
  "type": "node",
  "id": 5119786071,
  "lat": 44.3446236,
  "lon": 11.7148302,
  "tags": {
    "addr:city": "Imola",
    "addr:housenumber": "2",
    "addr:postcode": "40026",
    "addr:street": "Via Fratelli Rosselli",
    "email": "biglietteria@autodromoimola.it",
    "name": "Museo Checco Costa",
    "opening_hours": "Mo,We-Fr 10:00-13:00,14:00-18:00; Sa,PH 10:00-18:00",
    "phone": "+39 0542 655144",
    "tourism": "museum",
    "website": "http://www.autodromoimola.it/museo-checco-costa/"
  }
},
{
  "type": "node",
  "id": 6113376241,
  "lat": 44.3799353,
  "lon": 12.2378768,
  "tags": {
    "name": "Classis Ravenna",
    "tourism": "museum",
    "website": "https://classisravenna.it/"
  }
},
{
  "type": "node",
  "id": 6251402690,
  "lat": 44.2860446,
  "lon": 11.8809216,
  "tags": {
    "addr:city": "Faenza",
    "addr:housenumber": "4",
    "addr:postcode": "48018",
    "addr:street": "Via Zanelli",
    "name": "Museo Settore Territorio",
    "tourism": "museum",
    "website": "http://www.comune.faenza.ra.it/Guida-ai-servizi/Settore-Territorio/La-Promozione-dell-Arte-Contemporanea/Il-Settore-Territorio-Le-opere-d-arte-contemporanea"
  }
},
{
  "type": "node",
  "id": 6582691585,
  "lat": 44.0642588,
  "lon": 12.4436580,
  "tags": {
    "name:ru": "Музей Тонино Гуэрра",
    "opening_hours": "Mo-Su 09:00-18:00",
    "tourism": "museum"
  }
},
{
  "type": "node",
  "id": 6585986591,
  "lat": 44.1870270,
  "lon": 12.1266439,
  "tags": {
    "addr:city": "Forlimpopoli",
    "addr:housenumber": "5",
    "addr:postcode": "47034",
    "addr:street": "Piazza Fratti",
    "email": "direttore@maforlimpopoli.it",
    "name": "Museo Archeologico Civico \"Tobia Aldini\"",
    "opening_hours": "Tu-Su 09:00-13:00; Mo off",
    "phone": "+39 0543 748071",
    "tourism": "museum",
    "website": "https://www.maforlimpopoli.it"
  }
},
{
  "type": "way",
  "id": 151919851,
  "nodes": [
    1647633509,
    1647634053,
    1647633840,
    1647633270,
    1647633342,
    1647633260,
    1647633361,
    1647633427,
    1647633509
  ],
  "tags": {
    "building": "yes",
    "name": "Museo civico di Scienze Naturali Malmerendi",
    "source": "Regione Emilia Romagna",
    "tourism": "museum"
  }
},
{
  "type": "way",
  "id": 180480739,
  "nodes": [
    1909163679,
    1909163656,
    1909163653,
    1909163649,
    1909163679
  ],
  "tags": {
    "name": "Casa natale di Benito Mussolini",
    "tourism": "museum"
  }
},
{
  "type": "way",
  "id": 181522689,
  "nodes": [
    1919390591,
    1919390642,
    1919390583,
    1919390580,
    1919390572,
    1919390604,
    1919390618,
    1919390679,
    1919390651,
    1919390663,
    1919390610,
    1919390518,
    1919390502,
    1919390466,
    1919390533,
    1919390511,
    1919390537,
    1919390552,
    1919390591
  ],
  "tags": {
    "addr:postcode": "48012",
    "addr:street": "Via Ungaretti",
    "building": "yes",
    "name": "Ecomuseo delle Erbe Palustri",
    "source": "Regione Emilia Romagna",
    "tourism": "museum"
  }
},
{
  "type": "way",
  "id": 181540023,
  "nodes": [
    1919567277,
    1919567515,
    1919567547,
    1919567584,
    1919567552,
    1919567889,
    1919567458,
    1919567420,
    1919567097,
    1919566761,
    1919567054,
    1919567087,
    1919567226,
    1919567202,
    1919567277
  ],
  "tags": {
    "building": "yes",
    "name": "Magazzino del Sale Torre",
    "source": "Regione Emilia Romagna",
    "tourism": "museum"
  }
},
{
  "type": "way",
  "id": 181586959,
  "nodes": [
    1919613829,
    1919613854,
    1919613794,
    1919613784,
    1919613775,
    1919613773,
    1919613818,
    1919613823,
    1919613829
  ],
  "tags": {
    "addr:housenumber": "61",
    "addr:place": "Cervia",
    "addr:street": "Via Bova",
    "museum": "history;maritime;nature",
    "museum_type": "regional",
    "name": "Centro Visite Salina di Cervia",
    "phone": "+39 0544 973040",
    "source": "Regione Emilia Romagna",
    "tourism": "museum",
    "website": "http://www.atlantide.net/amaparco/centro-visite-salina-cervia/"
  }
},
{
  "type": "way",
  "id": 181624782,
  "nodes": [
    1920374901,
    1920375040,
    1920375033,
    1920374960,
    1920374954,
    1920374970,
    1920374962,
    1920374938,
    1920374850,
    1920374852,
    1920374831,
    1920374835,
    1920374845,
    1920374848,
    1920374873,
    1920374869,
    1920374904,
    1920374907,
    1920374867,
    1920374871,
    1920374884,
    1920374891,
    1920374930,
    1920374932,
    1920374896,
    1920374901
  ],
  "tags": {
    "building": "yes",
    "name": "Museo della Battaglia del Senio",
    "source": "Regione Emilia Romagna",
    "tourism": "museum",
    "wikidata": "Q55673187"
  }
},
{
  "type": "way",
  "id": 184893709,
  "nodes": [
    1954638610,
    1954638787,
    1954637606,
    1954637396,
    1954638610
  ],
  "tags": {
    "building": "yes",
    "name": "Spazio Pantani",
    "source": "Regione Emilia Romagna",
    "tourism": "museum"
  }
},
{
  "type": "way",
  "id": 184924200,
  "nodes": [
    1954903922,
    1954903909,
    1954903626,
    1954903665,
    1954903922
  ],
  "tags": {
    "building": "yes",
    "name": "Casa Pascoli",
    "source": "Regione Emilia Romagna",
    "tourism": "museum"
  }
},
{
  "type": "way",
  "id": 184924202,
  "nodes": [
    1954925266,
    1954925471,
    1954925501,
    1954925380,
    1954925385,
    1954924576,
    1954924569,
    1954924503,
    1954924465,
    1954924455,
    1954925266
  ],
  "tags": {
    "name": "Villa Torlonia (La Torre)",
    "tourism": "museum"
  }
},
{
  "type": "way",
  "id": 184931340,
  "nodes": [
    1954903920,
    1954904159,
    1954904141,
    1954903970,
    1954903975,
    1954903912,
    1954903920
  ],
  "tags": {
    "building": "yes",
    "name": "Casa Pascoli",
    "source": "Regione Emilia Romagna",
    "tourism": "museum"
  }
},
{
  "type": "way",
  "id": 185820764,
  "nodes": [
    1965074948,
    1965075870,
    1965075888,
    1960503514,
    1960503366,
    1965075935,
    1965075914,
    1960503081,
    1960502666,
    1960502382,
    1960502496,
    1960502742,
    1960502922,
    1960501816,
    1960501644,
    1960501850,
    1960501809,
    1960501417,
    1960500655,
    1965074856,
    1965074948
  ],
  "tags": {
    "building": "yes",
    "name": "Museo romagnolo del teatro",
    "source": "Regione Emilia Romagna",
    "tourism": "museum",
    "wikidata": "Q3868456",
    "wikipedia": "it:Museo romagnolo del teatro"
  }
},
{
  "type": "way",
  "id": 185828013,
  "nodes": [
    1965072743,
    1965072922,
    1965073110,
    1965073082,
    1965073005,
    1965073788,
    1965073728,
    1965072346,
    1965072743
  ],
  "tags": {
    "building": "yes",
    "name": "Palazzo Romagnoli",
    "source": "Regione Emilia Romagna",
    "tourism": "museum",
    "wikidata": "Q18613434",
    "wikipedia": "it:Palazzo Romagnoli (Forlì)"
  }
},
{
  "type": "way",
  "id": 222328369,
  "nodes": [
    2313042620,
    2313042594,
    2313042600,
    4926398648,
    2313042592,
    2313042602,
    2313042586,
    2313042588,
    2313042610,
    4926398647,
    2313042606,
    2313042604,
    2313042622,
    2313042620
  ],
  "tags": {
    "building": "yes",
    "name": "Casa delle Farfalle",
    "tourism": "museum"
  }
},
{
  "type": "way",
  "id": 223650996,
  "nodes": [
    2325298507,
    2325298860,
    2325298876,
    2325298951,
    2325298952,
    2325298795,
    2325298819,
    2325298505,
    2325298458,
    2325298273,
    2325297874,
    2325297857,
    2325297784,
    2325297799,
    2325297907,
    2325297814,
    2325297810,
    2325297912,
    2325297928,
    2325297978,
    2325298507
  ],
  "tags": {
    "addr:housenumber": "41",
    "addr:street": "Via Federico Montevecchi",
    "building": "yes",
    "name": "MET Museo Etnografico degli usi e costumi della gente di Romagna",
    "phone": "+39 346 8529684",
    "rer_edi_id:ref": "55f8b122-f885-468d-9fc5-6f93efc7df67",
    "source": "Regione Emilia Romagna",
    "tourism": "museum"
  }
},
{
  "type": "way",
  "id": 223658739,
  "nodes": [
    2325288786,
    2325288872,
    2325288812,
    2325288725,
    2325288532,
    2325288554,
    2325288706,
    2325288711,
    2325288786
  ],
  "tags": {
    "building": "yes",
    "name": "Museo del Bottone",
    "rer_edi_id:ref": "17a4b3cd-c5a1-4950-b1c6-070d2651d108",
    "source": "Regione Emilia Romagna",
    "tourism": "museum"
  }
},
{
  "type": "way",
  "id": 223773686,
  "nodes": [
    2326491944,
    2326491968,
    2326491931,
    2326491911,
    2326491944
  ],
  "tags": {
    "addr:city": "Bellaria-Igea Marina",
    "addr:housenumber": "1",
    "addr:postcode": "47814",
    "addr:street": "Via Pisino",
    "building": "yes",
    "name": "La Casa Rossa",
    "phone": "+39 0541 343747",
    "rer_edi_id:ref": "e0566e53-121a-4494-840a-90f0c043de25",
    "source": "Regione Emilia Romagna",
    "tourism": "museum",
    "website": "http://www.casapanzini.it/"
  }
},
{
  "type": "relation",
  "id": 2109453,
  "members": [
    {
      "type": "way",
      "ref": 157758639,
      "role": "outer"
    },
    {
      "type": "way",
      "ref": 157758686,
      "role": "inner"
    }
  ],
  "tags": {
    "building": "yes",
    "name": "Museo Nazionale di Ravenna",
    "source": "Regione Emilia Romagna",
    "tourism": "museum",
    "type": "multipolygon",
    "wikidata": "Q3868429",
    "wikipedia": "it:Museo nazionale di Ravenna"
  }
},
{
  "type": "relation",
  "id": 2109460,
  "members": [
    {
      "type": "way",
      "ref": 157758656,
      "role": "outer"
    },
    {
      "type": "way",
      "ref": 157758685,
      "role": "inner"
    }
  ],
  "tags": {
    "addr:city": "Ravenna",
    "addr:housenumber": "17",
    "addr:postcode": "48121",
    "addr:street": "Via San Vitale",
    "building": "yes",
    "contact:facebook": "https://www.facebook.com/museoravenna/",
    "email": "pm-ero.musnaz-ra@beniculturali.it",
    "fee": "yes",
    "museum": "archaeological",
    "name": "Museo nazionale di Ravenna",
    "opening_hours": "Tu-Su 08:30-19:00; Mo, Jan 1, Dec 25 off",
    "operator": "MIBACT",
    "operator:type": "public",
    "phone": "+39 0544 543724",
    "source": "Regione Emilia Romagna",
    "tourism": "museum",
    "type": "multipolygon",
    "website": "https://www.polomusealeemiliaromagna.beniculturali.it/musei/museo-nazionale-di-ravenna",
    "wikidata": "Q3868429",
    "wikipedia": "it:Museo nazionale di Ravenna"
  }
},
{
  "type": "node",
  "id": 1909163649,
  "lat": 44.1061543,
  "lon": 11.9804223
},
{
  "type": "node",
  "id": 1909163653,
  "lat": 44.1060782,
  "lon": 11.9804748
},
{
  "type": "node",
  "id": 1909163656,
  "lat": 44.1061107,
  "lon": 11.9805794
},
{
  "type": "node",
  "id": 1909163679,
  "lat": 44.1061886,
  "lon": 11.9805328
},
{
  "type": "node",
  "id": 1960500655,
  "lat": 44.2240905,
  "lon": 12.0358363
},
{
  "type": "node",
  "id": 1960501417,
  "lat": 44.2241798,
  "lon": 12.0358907
},
{
  "type": "node",
  "id": 1960501644,
  "lat": 44.2241928,
  "lon": 12.0358472
},
{
  "type": "node",
  "id": 1960501809,
  "lat": 44.2242167,
  "lon": 12.0359131
},
{
  "type": "node",
  "id": 1960501816,
  "lat": 44.2242204,
  "lon": 12.0357494
},
{
  "type": "node",
  "id": 1960501850,
  "lat": 44.2242291,
  "lon": 12.0358689
},
{
  "type": "node",
  "id": 1960502382,
  "lat": 44.2243198,
  "lon": 12.0359800
},
{
  "type": "node",
  "id": 1960502496,
  "lat": 44.2243327,
  "lon": 12.0359343
},
{
  "type": "node",
  "id": 1960502666,
  "lat": 44.2243566,
  "lon": 12.0360024
},
{
  "type": "node",
  "id": 1960502742,
  "lat": 44.2243703,
  "lon": 12.0359562
},
{
  "type": "node",
  "id": 1960502922,
  "lat": 44.2244005,
  "lon": 12.0358488
},
{
  "type": "node",
  "id": 1960503081,
  "lat": 44.2244206,
  "lon": 12.0360414
},
{
  "type": "node",
  "id": 1960503366,
  "lat": 44.2244748,
  "lon": 12.0358627
},
{
  "type": "node",
  "id": 1960503514,
  "lat": 44.2244977,
  "lon": 12.0357825
},
{
  "type": "node",
  "id": 1965072346,
  "lat": 44.2232502,
  "lon": 12.0353965
},
{
  "type": "node",
  "id": 1965072743,
  "lat": 44.2233235,
  "lon": 12.0352150
},
{
  "type": "node",
  "id": 1965072922,
  "lat": 44.2233739,
  "lon": 12.0352477
},
{
  "type": "node",
  "id": 1965073005,
  "lat": 44.2234000,
  "lon": 12.0353842
},
{
  "type": "node",
  "id": 1965073082,
  "lat": 44.2234283,
  "lon": 12.0353043
},
{
  "type": "node",
  "id": 1965073110,
  "lat": 44.2234341,
  "lon": 12.0352858
},
{
  "type": "node",
  "id": 1965073728,
  "lat": 44.2236606,
  "lon": 12.0356405
},
{
  "type": "node",
  "id": 1965073788,
  "lat": 44.2236985,
  "lon": 12.0355686
},
{
  "type": "node",
  "id": 1965074856,
  "lat": 44.2241028,
  "lon": 12.0357933
},
{
  "type": "node",
  "id": 1965074948,
  "lat": 44.2241497,
  "lon": 12.0356293
},
{
  "type": "node",
  "id": 1965075870,
  "lat": 44.2244244,
  "lon": 12.0357624
},
{
  "type": "node",
  "id": 1965075888,
  "lat": 44.2244293,
  "lon": 12.0357451
},
{
  "type": "node",
  "id": 1965075914,
  "lat": 44.2244366,
  "lon": 12.0359949
},
{
  "type": "node",
  "id": 1965075935,
  "lat": 44.2244401,
  "lon": 12.0359848
},
{
  "type": "node",
  "id": 1647633260,
  "lat": 44.2954659,
  "lon": 11.8759342
},
{
  "type": "node",
  "id": 1647633270,
  "lat": 44.2954611,
  "lon": 11.8760907
},
{
  "type": "node",
  "id": 1647633342,
  "lat": 44.2954810,
  "lon": 11.8759380
},
{
  "type": "node",
  "id": 1647633361,
  "lat": 44.2954851,
  "lon": 11.8757873
},
{
  "type": "node",
  "id": 1647633427,
  "lat": 44.2954989,
  "lon": 11.8757908
},
{
  "type": "node",
  "id": 1647633509,
  "lat": 44.2955166,
  "lon": 11.8756548
},
{
  "type": "node",
  "id": 1647633840,
  "lat": 44.2956144,
  "lon": 11.8761296
},
{
  "type": "node",
  "id": 1647634053,
  "lat": 44.2956711,
  "lon": 11.8756941
},
{
  "type": "node",
  "id": 1919390466,
  "lat": 44.4493554,
  "lon": 12.0493699
},
{
  "type": "node",
  "id": 1919390502,
  "lat": 44.4493983,
  "lon": 12.0494284
},
{
  "type": "node",
  "id": 1919390511,
  "lat": 44.4494102,
  "lon": 12.0492029
},
{
  "type": "node",
  "id": 1919390518,
  "lat": 44.4494179,
  "lon": 12.0494004
},
{
  "type": "node",
  "id": 1919390533,
  "lat": 44.4494419,
  "lon": 12.0492460
},
{
  "type": "node",
  "id": 1919390537,
  "lat": 44.4494522,
  "lon": 12.0491427
},
{
  "type": "node",
  "id": 1919390552,
  "lat": 44.4494821,
  "lon": 12.0491834
},
{
  "type": "node",
  "id": 1919390572,
  "lat": 44.4495170,
  "lon": 12.0492809
},
{
  "type": "node",
  "id": 1919390580,
  "lat": 44.4495307,
  "lon": 12.0492613
},
{
  "type": "node",
  "id": 1919390583,
  "lat": 44.4495368,
  "lon": 12.0492695
},
{
  "type": "node",
  "id": 1919390591,
  "lat": 44.4495471,
  "lon": 12.0490903
},
{
  "type": "node",
  "id": 1919390604,
  "lat": 44.4495566,
  "lon": 12.0493347
},
{
  "type": "node",
  "id": 1919390610,
  "lat": 44.4495675,
  "lon": 12.0496040
},
{
  "type": "node",
  "id": 1919390618,
  "lat": 44.4495801,
  "lon": 12.0493098
},
{
  "type": "node",
  "id": 1919390642,
  "lat": 44.4496060,
  "lon": 12.0491703
},
{
  "type": "node",
  "id": 1919390651,
  "lat": 44.4496191,
  "lon": 12.0494847
},
{
  "type": "node",
  "id": 1919390663,
  "lat": 44.4496354,
  "lon": 12.0495068
},
{
  "type": "node",
  "id": 1919390679,
  "lat": 44.4496627,
  "lon": 12.0494222
},
{
  "type": "node",
  "id": 1919613773,
  "lat": 44.2531355,
  "lon": 12.3414054
},
{
  "type": "node",
  "id": 1919613775,
  "lat": 44.2531634,
  "lon": 12.3414748
},
{
  "type": "node",
  "id": 1919613784,
  "lat": 44.2532134,
  "lon": 12.3414359
},
{
  "type": "node",
  "id": 1919613794,
  "lat": 44.2532862,
  "lon": 12.3416173
},
{
  "type": "node",
  "id": 1919613818,
  "lat": 44.2534773,
  "lon": 12.3411579
},
{
  "type": "node",
  "id": 1919613823,
  "lat": 44.2535199,
  "lon": 12.3412639
},
{
  "type": "node",
  "id": 1919613829,
  "lat": 44.2536483,
  "lon": 12.3411640
},
{
  "type": "node",
  "id": 1919613854,
  "lat": 44.2537049,
  "lon": 12.3413049
},
{
  "type": "node",
  "id": 1919566761,
  "lat": 44.2624679,
  "lon": 12.3494361
},
{
  "type": "node",
  "id": 1919567054,
  "lat": 44.2625505,
  "lon": 12.3493730
},
{
  "type": "node",
  "id": 1919567087,
  "lat": 44.2625642,
  "lon": 12.3494078
},
{
  "type": "node",
  "id": 1919567097,
  "lat": 44.2625651,
  "lon": 12.3496825
},
{
  "type": "node",
  "id": 1919567202,
  "lat": 44.2626092,
  "lon": 12.3493223
},
{
  "type": "node",
  "id": 1919567226,
  "lat": 44.2626247,
  "lon": 12.3493616
},
{
  "type": "node",
  "id": 1919567277,
  "lat": 44.2626886,
  "lon": 12.3492616
},
{
  "type": "node",
  "id": 1919567420,
  "lat": 44.2628314,
  "lon": 12.3503570
},
{
  "type": "node",
  "id": 1919567458,
  "lat": 44.2628501,
  "lon": 12.3504043
},
{
  "type": "node",
  "id": 1919567515,
  "lat": 44.2628838,
  "lon": 12.3497563
},
{
  "type": "node",
  "id": 1919567547,
  "lat": 44.2629035,
  "lon": 12.3497412
},
{
  "type": "node",
  "id": 1919567552,
  "lat": 44.2629084,
  "lon": 12.3498118
},
{
  "type": "node",
  "id": 1919567584,
  "lat": 44.2629261,
  "lon": 12.3497983
},
{
  "type": "node",
  "id": 1919567889,
  "lat": 44.2630677,
  "lon": 12.3502373
},
{
  "type": "node",
  "id": 1954903626,
  "lat": 44.1051037,
  "lon": 12.4156019
},
{
  "type": "node",
  "id": 1954903665,
  "lat": 44.1050915,
  "lon": 12.4151412
},
{
  "type": "node",
  "id": 1954903909,
  "lat": 44.1052233,
  "lon": 12.4155984
},
{
  "type": "node",
  "id": 1954903912,
  "lat": 44.1052249,
  "lon": 12.4150940
},
{
  "type": "node",
  "id": 1954903920,
  "lat": 44.1052297,
  "lon": 12.4149725
},
{
  "type": "node",
  "id": 1954903922,
  "lat": 44.1052201,
  "lon": 12.4151346
},
{
  "type": "node",
  "id": 1954903970,
  "lat": 44.1052665,
  "lon": 12.4151819
},
{
  "type": "node",
  "id": 1954903975,
  "lat": 44.1052699,
  "lon": 12.4150974
},
{
  "type": "node",
  "id": 1954904141,
  "lat": 44.1053523,
  "lon": 12.4151884
},
{
  "type": "node",
  "id": 1954904159,
  "lat": 44.1053604,
  "lon": 12.4149823
},
{
  "type": "node",
  "id": 2325288532,
  "lat": 44.0638972,
  "lon": 12.4438206
},
{
  "type": "node",
  "id": 2325288554,
  "lat": 44.0639121,
  "lon": 12.4437158
},
{
  "type": "node",
  "id": 2325288706,
  "lat": 44.0639997,
  "lon": 12.4437218
},
{
  "type": "node",
  "id": 2325288711,
  "lat": 44.0640021,
  "lon": 12.4436964
},
{
  "type": "node",
  "id": 2325288725,
  "lat": 44.0640102,
  "lon": 12.4438528
},
{
  "type": "node",
  "id": 2325288786,
  "lat": 44.0640497,
  "lon": 12.4436706
},
{
  "type": "node",
  "id": 2325288812,
  "lat": 44.0640629,
  "lon": 12.4438295
},
{
  "type": "node",
  "id": 2325288872,
  "lat": 44.0640990,
  "lon": 12.4437994
},
{
  "type": "node",
  "id": 2325297784,
  "lat": 44.0684777,
  "lon": 12.4469179
},
{
  "type": "node",
  "id": 2325297799,
  "lat": 44.0684827,
  "lon": 12.4469125
},
{
  "type": "node",
  "id": 2325297810,
  "lat": 44.0684882,
  "lon": 12.4467434
},
{
  "type": "node",
  "id": 2325297814,
  "lat": 44.0684918,
  "lon": 12.4467498
},
{
  "type": "node",
  "id": 2325297857,
  "lat": 44.0685222,
  "lon": 12.4469984
},
{
  "type": "node",
  "id": 2325297874,
  "lat": 44.0685286,
  "lon": 12.4469920
},
{
  "type": "node",
  "id": 2325297907,
  "lat": 44.0685451,
  "lon": 12.4468461
},
{
  "type": "node",
  "id": 2325297912,
  "lat": 44.0685460,
  "lon": 12.4466882
},
{
  "type": "node",
  "id": 2325297928,
  "lat": 44.0685500,
  "lon": 12.4466960
},
{
  "type": "node",
  "id": 2325297978,
  "lat": 44.0685736,
  "lon": 12.4467424
},
{
  "type": "node",
  "id": 2325298273,
  "lat": 44.0686043,
  "lon": 12.4469161
},
{
  "type": "node",
  "id": 2325298458,
  "lat": 44.0686417,
  "lon": 12.4469515
},
{
  "type": "node",
  "id": 2325298505,
  "lat": 44.0686524,
  "lon": 12.4470806
},
{
  "type": "node",
  "id": 2325298507,
  "lat": 44.0686543,
  "lon": 12.4466664
},
{
  "type": "node",
  "id": 2325298795,
  "lat": 44.0687331,
  "lon": 12.4469635
},
{
  "type": "node",
  "id": 2325298819,
  "lat": 44.0687385,
  "lon": 12.4470723
},
{
  "type": "node",
  "id": 2325298860,
  "lat": 44.0687581,
  "lon": 12.4467343
},
{
  "type": "node",
  "id": 2325298876,
  "lat": 44.0687672,
  "lon": 12.4468555
},
{
  "type": "node",
  "id": 2325298951,
  "lat": 44.0688096,
  "lon": 12.4468480
},
{
  "type": "node",
  "id": 2325298952,
  "lat": 44.0688097,
  "lon": 12.4469436
},
{
  "type": "node",
  "id": 1954924455,
  "lat": 44.1127084,
  "lon": 12.4355996
},
{
  "type": "node",
  "id": 1954924465,
  "lat": 44.1127225,
  "lon": 12.4358126
},
{
  "type": "node",
  "id": 1954924503,
  "lat": 44.1127571,
  "lon": 12.4363377
},
{
  "type": "node",
  "id": 1954924569,
  "lat": 44.1128209,
  "lon": 12.4363296
},
{
  "type": "node",
  "id": 1954924576,
  "lat": 44.1128285,
  "lon": 12.4364460
},
{
  "type": "node",
  "id": 1954925266,
  "lat": 44.1132009,
  "lon": 12.4355669
},
{
  "type": "node",
  "id": 1954925380,
  "lat": 44.1132542,
  "lon": 12.4362880
},
{
  "type": "node",
  "id": 1954925385,
  "lat": 44.1132609,
  "lon": 12.4363911
},
{
  "type": "node",
  "id": 1954925471,
  "lat": 44.1133099,
  "lon": 12.4356396
},
{
  "type": "node",
  "id": 1954925501,
  "lat": 44.1133423,
  "lon": 12.4361947
},
{
  "type": "node",
  "id": 2326491911,
  "lat": 44.1584479,
  "lon": 12.4509941
},
{
  "type": "node",
  "id": 2326491931,
  "lat": 44.1584945,
  "lon": 12.4510640
},
{
  "type": "node",
  "id": 2326491944,
  "lat": 44.1585179,
  "lon": 12.4509035
},
{
  "type": "node",
  "id": 2326491968,
  "lat": 44.1585645,
  "lon": 12.4509734
},
{
  "type": "node",
  "id": 1954637396,
  "lat": 44.2001900,
  "lon": 12.3915661
},
{
  "type": "node",
  "id": 1954637606,
  "lat": 44.2002339,
  "lon": 12.3917110
},
{
  "type": "node",
  "id": 1954638610,
  "lat": 44.2003878,
  "lon": 12.3914495
},
{
  "type": "node",
  "id": 1954638787,
  "lat": 44.2004317,
  "lon": 12.3915944
},
{
  "type": "node",
  "id": 2313042586,
  "lat": 44.2781795,
  "lon": 12.3364670
},
{
  "type": "node",
  "id": 2313042588,
  "lat": 44.2781926,
  "lon": 12.3365547
},
{
  "type": "node",
  "id": 2313042592,
  "lat": 44.2782269,
  "lon": 12.3361032
},
{
  "type": "node",
  "id": 2313042594,
  "lat": 44.2782355,
  "lon": 12.3358979
},
{
  "type": "node",
  "id": 2313042600,
  "lat": 44.2782647,
  "lon": 12.3360921
},
{
  "type": "node",
  "id": 2313042602,
  "lat": 44.2782772,
  "lon": 12.3364384
},
{
  "type": "node",
  "id": 2313042604,
  "lat": 44.2783157,
  "lon": 12.3360487
},
{
  "type": "node",
  "id": 2313042606,
  "lat": 44.2783213,
  "lon": 12.3360858
},
{
  "type": "node",
  "id": 2313042610,
  "lat": 44.2783833,
  "lon": 12.3364989
},
{
  "type": "node",
  "id": 2313042620,
  "lat": 44.2785478,
  "lon": 12.3358064
},
{
  "type": "node",
  "id": 2313042622,
  "lat": 44.2785729,
  "lon": 12.3359733
},
{
  "type": "node",
  "id": 4926398647,
  "lat": 44.2783462,
  "lon": 12.3362518
},
{
  "type": "node",
  "id": 4926398648,
  "lat": 44.2782526,
  "lon": 12.3360956
},
{
  "type": "node",
  "id": 1700091902,
  "lat": 44.4200318,
  "lon": 12.1961853
},
{
  "type": "node",
  "id": 1700091967,
  "lat": 44.4201154,
  "lon": 12.1959233
},
{
  "type": "node",
  "id": 1700091992,
  "lat": 44.4201429,
  "lon": 12.1959372
},
{
  "type": "node",
  "id": 1700092074,
  "lat": 44.4201896,
  "lon": 12.1961822
},
{
  "type": "node",
  "id": 1700092092,
  "lat": 44.4202014,
  "lon": 12.1957557
},
{
  "type": "node",
  "id": 1700092132,
  "lat": 44.4202360,
  "lon": 12.1962097
},
{
  "type": "node",
  "id": 1700092142,
  "lat": 44.4202457,
  "lon": 12.1960261
},
{
  "type": "node",
  "id": 1700092171,
  "lat": 44.4202691,
  "lon": 12.1961060
},
{
  "type": "node",
  "id": 1700092179,
  "lat": 44.4202826,
  "lon": 12.1958034
},
{
  "type": "node",
  "id": 1700092223,
  "lat": 44.4203054,
  "lon": 12.1957356
},
{
  "type": "node",
  "id": 1700092272,
  "lat": 44.4203206,
  "lon": 12.1958011
},
{
  "type": "node",
  "id": 1700092447,
  "lat": 44.4203616,
  "lon": 12.1961044
},
{
  "type": "node",
  "id": 1700092550,
  "lat": 44.4203775,
  "lon": 12.1961746
},
{
  "type": "node",
  "id": 1700092650,
  "lat": 44.4204118,
  "lon": 12.1960547
},
{
  "type": "node",
  "id": 1700092652,
  "lat": 44.4204121,
  "lon": 12.1960641
},
{
  "type": "node",
  "id": 1700092674,
  "lat": 44.4204151,
  "lon": 12.1960387
},
{
  "type": "node",
  "id": 1700092692,
  "lat": 44.4204217,
  "lon": 12.1960244
},
{
  "type": "node",
  "id": 1700092708,
  "lat": 44.4204278,
  "lon": 12.1960183
},
{
  "type": "node",
  "id": 1700092728,
  "lat": 44.4204359,
  "lon": 12.1960128
},
{
  "type": "node",
  "id": 1700092739,
  "lat": 44.4204394,
  "lon": 12.1958792
},
{
  "type": "node",
  "id": 1700092745,
  "lat": 44.4204424,
  "lon": 12.1959665
},
{
  "type": "node",
  "id": 1700092757,
  "lat": 44.4204490,
  "lon": 12.1960108
},
{
  "type": "node",
  "id": 1700092759,
  "lat": 44.4204513,
  "lon": 12.1959379
},
{
  "type": "node",
  "id": 1700092762,
  "lat": 44.4204521,
  "lon": 12.1959282
},
{
  "type": "node",
  "id": 1700092777,
  "lat": 44.4204623,
  "lon": 12.1960158
},
{
  "type": "node",
  "id": 1700092779,
  "lat": 44.4204626,
  "lon": 12.1959059
},
{
  "type": "node",
  "id": 1700092785,
  "lat": 44.4204684,
  "lon": 12.1960230
},
{
  "type": "node",
  "id": 1700092823,
  "lat": 44.4204810,
  "lon": 12.1958474
},
{
  "type": "node",
  "id": 1700092846,
  "lat": 44.4204882,
  "lon": 12.1960333
},
{
  "type": "node",
  "id": 1700092855,
  "lat": 44.4204981,
  "lon": 12.1960043
},
{
  "type": "node",
  "id": 1700092913,
  "lat": 44.4205282,
  "lon": 12.1959163
},
{
  "type": "node",
  "id": 1700092923,
  "lat": 44.4205304,
  "lon": 12.1960562
},
{
  "type": "node",
  "id": 1700092924,
  "lat": 44.4205335,
  "lon": 12.1960480
},
{
  "type": "node",
  "id": 1700092952,
  "lat": 44.4205418,
  "lon": 12.1957555
},
{
  "type": "node",
  "id": 1700092986,
  "lat": 44.4205611,
  "lon": 12.1958198
},
{
  "type": "node",
  "id": 1700093101,
  "lat": 44.4206249,
  "lon": 12.1959257
},
{
  "type": "node",
  "id": 1700093224,
  "lat": 44.4206868,
  "lon": 12.1953400
},
{
  "type": "node",
  "id": 1700093339,
  "lat": 44.4207359,
  "lon": 12.1955996
},
{
  "type": "node",
  "id": 1700093406,
  "lat": 44.4207692,
  "lon": 12.1961775
},
{
  "type": "node",
  "id": 1700093460,
  "lat": 44.4207836,
  "lon": 12.1961722
},
{
  "type": "node",
  "id": 1700093476,
  "lat": 44.4207891,
  "lon": 12.1961067
},
{
  "type": "node",
  "id": 1700093486,
  "lat": 44.4207934,
  "lon": 12.1961590
},
{
  "type": "node",
  "id": 1700093503,
  "lat": 44.4207956,
  "lon": 12.1961233
},
{
  "type": "node",
  "id": 1700093506,
  "lat": 44.4207971,
  "lon": 12.1961418
},
{
  "type": "node",
  "id": 1700093737,
  "lat": 44.4208618,
  "lon": 12.1960847
},
{
  "type": "node",
  "id": 1700093817,
  "lat": 44.4208781,
  "lon": 12.1961677
},
{
  "type": "node",
  "id": 1700094103,
  "lat": 44.4209728,
  "lon": 12.1957586
},
{
  "type": "node",
  "id": 1700094432,
  "lat": 44.4210212,
  "lon": 12.1961977
},
{
  "type": "node",
  "id": 1700095668,
  "lat": 44.4211333,
  "lon": 12.1958715
},
{
  "type": "node",
  "id": 1700097989,
  "lat": 44.4213267,
  "lon": 12.1960014
},
{
  "type": "node",
  "id": 1700098656,
  "lat": 44.4213923,
  "lon": 12.1958109
},
{
  "type": "node",
  "id": 3924345411,
  "lat": 44.4212935,
  "lon": 12.1957449
},
{
  "type": "node",
  "id": 1700092017,
  "lat": 44.4201611,
  "lon": 12.1962673
},
{
  "type": "node",
  "id": 1700093536,
  "lat": 44.4208117,
  "lon": 12.1963625
},
{
  "type": "node",
  "id": 1700097126,
  "lat": 44.4212592,
  "lon": 12.1963568
},
{
  "type": "node",
  "id": 1700097216,
  "lat": 44.4212639,
  "lon": 12.1963437
},
{
  "type": "node",
  "id": 1700097711,
  "lat": 44.4212976,
  "lon": 12.1963876
},
{
  "type": "node",
  "id": 1700097780,
  "lat": 44.4213033,
  "lon": 12.1963702
},
{
  "type": "node",
  "id": 1700097894,
  "lat": 44.4213144,
  "lon": 12.1966991
},
{
  "type": "node",
  "id": 1700098274,
  "lat": 44.4213586,
  "lon": 12.1964286
},
{
  "type": "node",
  "id": 1700098341,
  "lat": 44.4213634,
  "lon": 12.1964142
},
{
  "type": "node",
  "id": 1700098808,
  "lat": 44.4214037,
  "lon": 12.1964407
},
{
  "type": "node",
  "id": 1920374867,
  "lat": 44.5073910,
  "lon": 12.0389372
},
{
  "type": "node",
  "id": 1920374871,
  "lat": 44.5073988,
  "lon": 12.0387829
},
{
  "type": "node",
  "id": 1920374884,
  "lat": 44.5074313,
  "lon": 12.0387862
},
{
  "type": "node",
  "id": 1920374891,
  "lat": 44.5074451,
  "lon": 12.0385127
},
{
  "type": "node",
  "id": 1920374896,
  "lat": 44.5074551,
  "lon": 12.0384814
},
{
  "type": "node",
  "id": 1920374901,
  "lat": 44.5074648,
  "lon": 12.0382891
},
{
  "type": "node",
  "id": 1920374907,
  "lat": 44.5074800,
  "lon": 12.0389460
},
{
  "type": "node",
  "id": 1920374930,
  "lat": 44.5075178,
  "lon": 12.0385199
},
{
  "type": "node",
  "id": 1920374932,
  "lat": 44.5075195,
  "lon": 12.0384878
},
{
  "type": "node",
  "id": 1920374960,
  "lat": 44.5075722,
  "lon": 12.0387854
},
{
  "type": "node",
  "id": 1920375033,
  "lat": 44.5077309,
  "lon": 12.0388010
},
{
  "type": "node",
  "id": 1920375040,
  "lat": 44.5077453,
  "lon": 12.0385161
},
{
  "type": "node",
  "id": 1920374831,
  "lat": 44.5073309,
  "lon": 12.0393105
},
{
  "type": "node",
  "id": 1920374835,
  "lat": 44.5073379,
  "lon": 12.0391721
},
{
  "type": "node",
  "id": 1920374845,
  "lat": 44.5073615,
  "lon": 12.0391744
},
{
  "type": "node",
  "id": 1920374848,
  "lat": 44.5073650,
  "lon": 12.0391056
},
{
  "type": "node",
  "id": 1920374850,
  "lat": 44.5073715,
  "lon": 12.0393508
},
{
  "type": "node",
  "id": 1920374852,
  "lat": 44.5073733,
  "lon": 12.0393147
},
{
  "type": "node",
  "id": 1920374869,
  "lat": 44.5073974,
  "lon": 12.0391734
},
{
  "type": "node",
  "id": 1920374873,
  "lat": 44.5074006,
  "lon": 12.0391091
},
{
  "type": "node",
  "id": 1920374904,
  "lat": 44.5074681,
  "lon": 12.0391803
},
{
  "type": "node",
  "id": 1920374938,
  "lat": 44.5075321,
  "lon": 12.0393666
},
{
  "type": "node",
  "id": 1920374954,
  "lat": 44.5075596,
  "lon": 12.0390357
},
{
  "type": "node",
  "id": 1920374962,
  "lat": 44.5075740,
  "lon": 12.0392814
},
{
  "type": "node",
  "id": 1920374970,
  "lat": 44.5075863,
  "lon": 12.0390383
},
{
  "type": "way",
  "id": 157758639,
  "nodes": [
    1700092223,
    1700092823,
    1700092779,
    1700092762,
    1700092759,
    1700092745,
    1700092855,
    1700092846,
    1700092785,
    1700092777,
    1700092757,
    1700092728,
    1700092708,
    1700092692,
    1700092674,
    1700092650,
    1700092652,
    1700092550,
    1700092171,
    1700092132,
    1700092074,
    1700092017,
    1700091902,
    1700091967,
    1700091992,
    1700092092,
    1700092179,
    1700092223
  ]
},
{
  "type": "way",
  "id": 157758656,
  "nodes": [
    1700093224,
    3924345411,
    1700098656,
    1700097989,
    1700095668,
    1700094432,
    1700097126,
    1700097216,
    1700097780,
    1700097711,
    1700098274,
    1700098341,
    1700098808,
    1700097894,
    1700093536,
    1700093817,
    1700093476,
    1700093503,
    1700093506,
    1700093486,
    1700093460,
    1700093406,
    1700092924,
    1700092923,
    1700092846,
    1700092855,
    1700092913,
    1700092986,
    1700092952,
    1700093224
  ]
},
{
  "type": "way",
  "id": 157758685,
  "nodes": [
    1700093339,
    1700093101,
    1700093737,
    1700094103,
    1700093339
  ]
},
{
  "type": "way",
  "id": 157758686,
  "nodes": [
    1700092272,
    1700092142,
    1700092447,
    1700092739,
    1700092272
  ]
}

  ]
}
