{
  "version": 0.6,
  "generator": "Overpass API 0.7.55.1011 6c2efc30",
  "osm3s": {
    "timestamp_osm_base": "2020-02-14T09:02:02Z",
    "copyright": "The data included in this document is from www.openstreetmap.org. The data is made available under ODbL."
  },
  "elements": [

{
  "type": "node",
  "id": 248482454,
  "lat": 53.2630190,
  "lon": -2.1365729,
  "tags": {
    "addr:postcode": "SK10 3BJ",
    "addr:street": "Prestbury Road",
    "name": "West Park Museum",
    "opening_hours": "We-Su 13:00-16:00",
    "phone": "+44 1625 613210",
    "tourism": "museum",
    "website": "http://www.silkmacclesfield.org.uk"
  }
},
{
  "type": "node",
  "id": 258851218,
  "lat": 53.4664071,
  "lon": -2.2342428,
  "tags": {
    "name": "The Manchester Museum",
    "tourism": "museum",
    "wheelchair": "yes"
  }
},
{
  "type": "node",
  "id": 286964228,
  "lat": 53.5400945,
  "lon": -2.1092439,
  "tags": {
    "amenity": "library",
    "name": "Free Public Library, Art Gallery & Museum",
    "tourism": "museum"
  }
},
{
  "type": "node",
  "id": 313790983,
  "lat": 53.3052289,
  "lon": -2.3745741,
  "tags": {
    "name": "Knutsford Heritage Centre",
    "tourism": "museum"
  }
},
{
  "type": "node",
  "id": 447991674,
  "lat": 53.3484818,
  "lon": -2.0875451,
  "tags": {
    "name": "Anson Museum",
    "tourism": "museum"
  }
},
{
  "type": "node",
  "id": 457920772,
  "lat": 53.2541161,
  "lon": -2.5137490,
  "tags": {
    "addr:city": "Northwich",
    "addr:housenumber": "162",
    "addr:postcode": "CW9 8AB",
    "addr:street": "London Road",
    "name": "Weaver Hall Museum & Workhouse",
    "opening_hours": "Tu-Fr 10:00-17:00,Sa-Su 14:00-17:00",
    "operator": "West Cheshire Museums",
    "tourism": "museum",
    "website": "http://weaverhall.westcheshiremuseums.co.uk/"
  }
},
{
  "type": "node",
  "id": 851111005,
  "lat": 53.2569238,
  "lon": -1.9130816,
  "tags": {
    "name": "Buxton Museum & Art Gallery",
    "tourism": "museum",
    "wheelchair": "yes"
  }
},
{
  "type": "node",
  "id": 919564316,
  "lat": 53.4830436,
  "lon": -2.0998516,
  "tags": {
    "name": "Portland Basin Museum",
    "source": "OS_OpenData_StreetView",
    "tourism": "museum"
  }
},
{
  "type": "node",
  "id": 981435146,
  "lat": 53.7002144,
  "lon": -2.2971973,
  "tags": {
    "name": "The Rossendale Museum",
    "tourism": "museum"
  }
},
{
  "type": "node",
  "id": 1492350823,
  "lat": 53.4858360,
  "lon": -2.2421760,
  "tags": {
    "name": "National Football Museum",
    "source": "Local knowledge",
    "tourism": "museum",
    "website": "http://www.nationalfootballmuseum.com/",
    "wheelchair": "yes",
    "wikidata": "Q2265733",
    "wikipedia": "en:National Football Museum"
  }
},
{
  "type": "node",
  "id": 1492440334,
  "lat": 53.4639917,
  "lon": -2.2911467,
  "tags": {
    "name": "Manchester United Museum",
    "tourism": "museum"
  }
},
{
  "type": "node",
  "id": 1961589427,
  "lat": 53.4831725,
  "lon": -2.0561144,
  "tags": {
    "name": "Astley Cheetham Art Gallery",
    "tourism": "museum"
  }
},
{
  "type": "node",
  "id": 2004753215,
  "lat": 53.4956571,
  "lon": -2.4467659,
  "tags": {
    "name": "Astley Green Colliery",
    "tourism": "museum"
  }
},
{
  "type": "node",
  "id": 2133404152,
  "lat": 53.5031211,
  "lon": -2.2337376,
  "tags": {
    "name": "Greater Manchester Museum of Transport",
    "source": "www.gmts.co.uk",
    "tourism": "museum"
  }
},
{
  "type": "node",
  "id": 2162858758,
  "lat": 53.4897478,
  "lon": -2.0933305,
  "tags": {
    "entrance": "main",
    "name": "Museum of the Manchester Regiment",
    "tourism": "museum"
  }
},
{
  "type": "node",
  "id": 2777508135,
  "lat": 53.4724340,
  "lon": -2.2433510,
  "tags": {
    "addr:city": "Manchester",
    "addr:housenumber": "3",
    "addr:postcode": "M1 5BY",
    "addr:street": "Cambridge Street",
    "email": "info@anthonyburgess.org",
    "name": "International Anthony Burgess Foundation",
    "phone": "+44 1612 350776",
    "tourism": "museum",
    "website": "https://www.anthonyburgess.org/",
    "wheelchair": "limited"
  }
},
{
  "type": "node",
  "id": 3649734934,
  "lat": 53.2926093,
  "lon": -2.2124996,
  "tags": {
    "name": "Mining Museum",
    "operator": "Derbyshire Caving Club",
    "tourism": "museum"
  }
},
{
  "type": "node",
  "id": 3951724075,
  "lat": 53.6386791,
  "lon": -1.8566312,
  "tags": {
    "name": "Colne Valley Museum",
    "tourism": "museum"
  }
},
{
  "type": "node",
  "id": 4696462092,
  "lat": 53.4501298,
  "lon": -2.7347159,
  "tags": {
    "name": "World of Glass",
    "tourism": "museum"
  }
},
{
  "type": "node",
  "id": 5050069806,
  "lat": 53.5440352,
  "lon": -2.6297051,
  "tags": {
    "name": "Museum of Wigan Life",
    "tourism": "museum"
  }
},
{
  "type": "node",
  "id": 5382500853,
  "lat": 53.3615076,
  "lon": -2.6026001,
  "tags": {
    "name": "Bicycle Museum",
    "tourism": "museum"
  }
},
{
  "type": "node",
  "id": 5833430385,
  "lat": 53.4909197,
  "lon": -2.2386961,
  "tags": {
    "name": "Three Rivers Gin Distillery",
    "tourism": "museum"
  }
},
{
  "type": "node",
  "id": 6358514139,
  "lat": 53.4824013,
  "lon": -2.2323944,
  "tags": {
    "addr:city": "Manchester",
    "addr:housenumber": "57A",
    "addr:postcode": "M1 1ET",
    "addr:street": "Newton Street",
    "fee": "no",
    "name": "Greater Manchester Police Museum & Archives",
    "tourism": "museum"
  }
},
{
  "type": "node",
  "id": 6684605685,
  "lat": 53.4772588,
  "lon": -2.2547008,
  "tags": {
    "addr:postcode": "M3 4FP",
    "addr:street": "Liverpool Road",
    "name": "Science and Industry Museum",
    "opening_hours": "Mo-Su 10:00-17:00",
    "phone": "0161 832 2244",
    "tourism": "museum",
    "website": "https://www.scienceandindustrymuseum.org.uk/"
  }
},
{
  "type": "way",
  "id": 28088152,
  "nodes": [
    308476150,
    308476151,
    308476153,
    308476154,
    308476156,
    308476158,
    308476159,
    3034628231,
    3034628437,
    308476160,
    308476150
  ],
  "tags": {
    "building": "yes",
    "cost": "free",
    "name": "Tram Museum",
    "opening_hours": "Jun-Aug Su,PH 12:00-17:00; Dec-Feb Su,PH 12:00-16:00",
    "tourism": "museum"
  }
},
{
  "type": "way",
  "id": 30957808,
  "nodes": [
    2676938946,
    2676938947,
    2676938948,
    2676938949,
    344234226,
    344234227,
    2676938942,
    2676938945,
    2676938956,
    2676938944,
    2676938943,
    344234228,
    2676938955,
    2676938952,
    2676938946
  ],
  "tags": {
    "addr:city": "Manchester",
    "addr:housename": "Manchester Art Gallery",
    "addr:postcode": "M2 3JL",
    "addr:street": "Mosley Street",
    "building": "yes",
    "building:levels": "3",
    "name": "Manchester Art Gallery",
    "name:he": "גלריית האומנות של מנ'צסטר",
    "phone": "+44 161 235 8888",
    "tourism": "museum",
    "website": "http://www.manchestergalleries.org/",
    "wheelchair": "yes",
    "wikidata": "Q2638817",
    "wikipedia": "en:Manchester Art Gallery"
  }
},
{
  "type": "way",
  "id": 61496941,
  "nodes": [
    767455305,
    767455303,
    767454471,
    767454911,
    767454723,
    767454908,
    767455309,
    767455304,
    767455305
  ],
  "tags": {
    "building": "tower",
    "name": "West Tower",
    "source": "OS_OpenData_StreetView",
    "tourism": "museum"
  }
},
{
  "type": "way",
  "id": 67191154,
  "nodes": [
    811378955,
    811378956,
    811378958,
    811378964,
    811378955
  ],
  "tags": {
    "addr:city": "Salford",
    "addr:country": "GB",
    "addr:state": "Greater Manchester",
    "building": "yes",
    "name": "Salford Museum and Art Gallery",
    "tourism": "museum",
    "wheelchair": "yes"
  }
},
{
  "type": "way",
  "id": 75121208,
  "nodes": [
    886681478,
    886681480,
    886681484,
    886681486,
    4288806022,
    4288806033,
    886681488,
    886681490,
    4288806046,
    886681478
  ],
  "tags": {
    "building": "yes",
    "name": "Castleton Village Museum",
    "source": "os_opendata_streetview",
    "tourism": "museum"
  }
},
{
  "type": "way",
  "id": 103989468,
  "nodes": [
    1200211085,
    1200211086,
    4968226466,
    4968226456,
    1200211092,
    1200211097,
    1200211085
  ],
  "tags": {
    "building": "yes",
    "name": "Bury Transport Museum",
    "tourism": "museum"
  }
},
{
  "type": "way",
  "id": 105588052,
  "nodes": [
    531541578,
    531541590,
    1215887869,
    531541622,
    1215887870,
    3687371225,
    1215887871,
    531541629,
    1215887872,
    531541578
  ],
  "tags": {
    "addr:postcode": "WA8 0DF",
    "addr:street": "Mersey Road",
    "building": "yes",
    "fhrs:id": "79337",
    "name": "Catalyst Museum",
    "tourism": "museum",
    "website": "www.catalyst.org.uk",
    "wikidata": "Q1050293"
  }
},
{
  "type": "way",
  "id": 117158555,
  "nodes": [
    1319731520,
    1319731549,
    1319731586,
    1319731557,
    1319731524,
    1319731499,
    1319731572,
    1319731512,
    1319731520
  ],
  "tags": {
    "building": "yes",
    "tourism": "museum"
  }
},
{
  "type": "way",
  "id": 119908560,
  "nodes": [
    1345707233,
    1345707232,
    1345707247,
    1345707229,
    1345707228,
    1345707235,
    1345707223,
    1345707217,
    1345707210,
    1345707219,
    1345707216,
    1345707246,
    1345707214,
    1345707234,
    1345707249,
    2619483256,
    1345707231,
    1345707230,
    1345707248,
    1345707212,
    1345707244,
    1345707221,
    1345707211,
    1345707233
  ],
  "tags": {
    "addr:city": "Salford",
    "addr:housename": "Ordsall Hall",
    "addr:housenumber": "322",
    "addr:postcode": "M5 3AN",
    "addr:street": "Ordsall Lane",
    "building": "yes",
    "email": "ordsall.hall@scll.co.uk",
    "name": "Ordsall Hall",
    "opening_hours": "Mo-Th 10:00-16:00; Su 13:00-16:00",
    "operator": "Salford City Council",
    "phone": "+44 161 872 0251",
    "source": "Bing",
    "tourism": "museum",
    "website": "https://www.salfordcommunityleisure.co.uk/culture/ordsall-hall",
    "wheelchair": "yes",
    "wikipedia": "en:Ordsall Hall"
  }
},
{
  "type": "way",
  "id": 129053756,
  "nodes": [
    1424650405,
    1424650409,
    1424650390,
    1424650402,
    1424650404,
    2858225446,
    1424650392,
    1424650408,
    1424650391,
    2858319904,
    1424650393,
    2858319386,
    2858319902,
    1424650403,
    1424650405
  ],
  "tags": {
    "building": "yes",
    "name": "The Gallery of Costume (Platt Hall)",
    "name:he": "מוזאון האופנה",
    "tourism": "museum"
  }
},
{
  "type": "way",
  "id": 170261967,
  "nodes": [
    1814118022,
    1814118021,
    1814118049,
    1814118052,
    1814118012,
    1814118020,
    1814118062,
    1814118056,
    1814118022
  ],
  "tags": {
    "building": "yes",
    "name": "The Bolton Steam Museum",
    "tourism": "museum",
    "website": "https://www.nmes.org/"
  }
},
{
  "type": "way",
  "id": 175765730,
  "nodes": [
    1863194406,
    1863194489,
    1863194397,
    1863194432,
    1863194423,
    1863194468,
    1863194537,
    1863194511,
    1863194483,
    1863194450,
    1863194442,
    1863194506,
    1863194400,
    1863194524,
    1863194419,
    1863194465,
    1863194528,
    1863194500,
    1863194543,
    1863194414,
    1863194372,
    1863194417,
    1863194424,
    1863194509,
    1863194434,
    1863194403,
    1863194438,
    1863194536,
    1863194379,
    1863194392,
    1863194507,
    1863194538,
    1863194445,
    1863194466,
    1863194388,
    1863194497,
    1863194406
  ],
  "tags": {
    "tourism": "museum"
  }
},
{
  "type": "way",
  "id": 187293587,
  "nodes": [
    2901345937,
    1980111902,
    1980111906,
    5734267519,
    3640676590,
    3640676591,
    5734267518,
    2901345945,
    1980111905,
    1980111901,
    1980111895,
    1980111874,
    1980111879,
    5734267512,
    5920910434,
    2901347544,
    2901345982,
    2901345994,
    2901347543,
    2901345933,
    2901345952,
    2901345937
  ],
  "tags": {
    "addr:city": "Manchester",
    "addr:postcode": "M17 1TZ",
    "addr:street": "Trafford Wharf Road",
    "alt_name": "IWM North",
    "building": "yes",
    "name": "Imperial War Museum North",
    "opening_hours": "Mo-Su 10:00-17:00",
    "tourism": "museum",
    "website": "https://www.iwm.org.uk/visits/iwm-north",
    "wheelchair": "yes",
    "wikipedia": "en:Imperial War Museum North"
  }
},
{
  "type": "way",
  "id": 201520529,
  "nodes": [
    2115177046,
    2115177035,
    2115177027,
    2115177026,
    2115177032,
    2115177038,
    2115177033,
    2115177046
  ],
  "tags": {
    "addr:city": "Manchester",
    "addr:housename": "Elizabeth Gaskell's House",
    "addr:housenumber": "84",
    "addr:postcode": "M13 9LW",
    "addr:street": "Plymouth Grove",
    "building": "yes",
    "name": "Elizabeth Gaskell's House",
    "operator": "Friends of Plymouth Grove",
    "tourism": "museum",
    "website": "http://www.elizabethgaskellhouse.co.uk/"
  }
},
{
  "type": "way",
  "id": 204875328,
  "nodes": [
    2148527661,
    2148527676,
    2148527711,
    2148527719,
    2148527661
  ],
  "tags": {
    "name": "North West Museum of Road Transport",
    "tourism": "museum"
  }
},
{
  "type": "way",
  "id": 229681552,
  "nodes": [
    2382478367,
    2382478368,
    2382478369,
    2382478365,
    2382478364,
    2382478366,
    2382478367
  ],
  "tags": {
    "addr:housename": "Wellington Mill",
    "addr:postcode": "SK3 0EU",
    "addr:street": "Wellington Road South",
    "building": "yes",
    "name": "Hat Works Museum",
    "tourism": "museum"
  }
},
{
  "type": "way",
  "id": 237161817,
  "nodes": [
    2451053753,
    2451053754,
    2451053755,
    2451053756,
    2451053753
  ],
  "tags": {
    "building": "yes",
    "name": "Macclesfield Heritage Centre",
    "source": "Bing",
    "tourism": "museum"
  }
},
{
  "type": "way",
  "id": 247043990,
  "nodes": [
    2539845312,
    2539845308,
    2539845304,
    2539845306,
    2539845329,
    2539845325,
    2539845317,
    2539845321,
    2539845331,
    2539845335,
    2539845333,
    2539845337,
    2539845327,
    2539845315,
    2539845323,
    2539845319,
    2539845314,
    2539845310,
    2539845312
  ],
  "tags": {
    "building": "yes",
    "name": "Touchstones",
    "tourism": "museum",
    "wheelchair": "yes"
  }
},
{
  "type": "way",
  "id": 248790779,
  "nodes": [
    2555284714,
    2555284715,
    2555284716,
    2555284717,
    2555284718,
    2555284719,
    4302624082,
    2555284720,
    2555284721,
    2555284722,
    2555284714
  ],
  "tags": {
    "addr:city": "Manchester",
    "addr:street": "Bridge Street",
    "building": "yes",
    "name": "People's History Museum",
    "name:he": "מוזאון ההיסטוריה של העם",
    "toilets:wheelchair": "yes",
    "tourism": "museum",
    "website": "https://www.phm.org.uk/",
    "wheelchair": "yes",
    "wikipedia": "en:People's History Museum"
  }
},
{
  "type": "way",
  "id": 256625041,
  "nodes": [
    2622713833,
    2622713834,
    2622713835,
    2622713836,
    2622713837,
    2622713838,
    2622713839,
    2622713840,
    2622713841,
    2622713842,
    1863251241,
    2622713843,
    2622713833
  ],
  "tags": {
    "addr:city": "Rochdale",
    "addr:housenumber": "31",
    "addr:postcode": "OL12 0NU",
    "addr:street": "Toad Lane",
    "building": "yes",
    "building:levels": "3",
    "name": "Rochdale Pioneers Museum",
    "tourism": "museum"
  }
},
{
  "type": "way",
  "id": 286875801,
  "nodes": [
    2905517724,
    2905517720,
    2905517721,
    2905517715,
    2905517718,
    2905517722,
    2905517723,
    2905517727,
    2905517726,
    2905517725,
    2905517724
  ],
  "tags": {
    "building": "yes",
    "name": "Marsden Moor Estate Exhibition",
    "operator": "National Trust",
    "tourism": "museum"
  }
},
{
  "type": "way",
  "id": 288010239,
  "nodes": [
    2915618902,
    2915618903,
    2915618904,
    2915618905,
    2915618906,
    2915618907,
    2915618908,
    2915618909,
    2915618910,
    2915618911,
    2915618912,
    2915618913,
    2915618914,
    2915618915,
    2915618916,
    2915618917,
    2915618918,
    2915618919,
    2915618902
  ],
  "tags": {
    "building": "yes",
    "name": "Haworth Art Gallery",
    "tourism": "museum"
  }
},
{
  "type": "way",
  "id": 302436347,
  "nodes": [
    3066941659,
    3066941657,
    3066941661,
    3066941662,
    3066941659
  ],
  "tags": {
    "building": "museum",
    "name": "Manchester Jewish Museum",
    "tourism": "museum"
  }
},
{
  "type": "way",
  "id": 405208907,
  "nodes": [
    4074253114,
    4074253128,
    5828769650,
    5828769649,
    4074253097,
    6749567229,
    4074253130,
    5828769651,
    5828769653,
    5828769652,
    4074253115,
    4074253132,
    4074253114
  ],
  "tags": {
    "tourism": "museum"
  }
},
{
  "type": "way",
  "id": 463106302,
  "nodes": [
    4584171249,
    4584171250,
    4584171262,
    4584171251,
    4584171252,
    4584171253,
    4584171254,
    4584171255,
    4584171256,
    6744586059,
    4584171257,
    4584171258,
    4584171259,
    4584171260,
    4584171249
  ],
  "tags": {
    "building": "yes",
    "name": "Lambert Mill Museum",
    "tourism": "museum"
  }
},
{
  "type": "way",
  "id": 475718748,
  "nodes": [
    4694429031,
    4694429030,
    4694429032,
    4694429029,
    4694429031
  ],
  "tags": {
    "building": "yes",
    "name": "Avro Heritage Centre",
    "tourism": "museum"
  }
},
{
  "type": "way",
  "id": 525047712,
  "nodes": [
    5108436908,
    5108436909,
    5108436910,
    5108436911,
    5108436912,
    5108436913,
    5108436914,
    5108436915,
    5108436916,
    5108436917,
    5108436919,
    5108436920,
    5108437621,
    5108437622,
    5108436918,
    5108437623,
    5108436908
  ],
  "tags": {
    "addr:city": "Northwich",
    "addr:housenumber": "162",
    "addr:postcode": "CW9 8AB",
    "addr:street": "London Road",
    "building": "yes",
    "name": "Weaver Hall Museum & Workhouse",
    "opening_hours": "Tu-Fr 10:00-17:00,Sa-Su 14:00-17:00",
    "operator": "West Cheshire Museums",
    "tourism": "museum"
  }
},
{
  "type": "way",
  "id": 539175064,
  "nodes": [
    5217612105,
    5217612104,
    5217612103,
    5217612107,
    5217612105
  ],
  "tags": {
    "building": "office",
    "name": "Congleton Museum",
    "source": "Bing",
    "tourism": "museum"
  }
},
{
  "type": "way",
  "id": 541331388,
  "nodes": [
    5234710641,
    5234710642,
    5234710643,
    5234710644,
    5234710645,
    5234710646,
    5234710647,
    5234710648,
    5234710649,
    5234710650,
    5234710651,
    5234710652,
    5234710641
  ],
  "tags": {
    "addr:city": "Bolton",
    "addr:postcode": "BL1 8UA",
    "addr:street": "Green Way",
    "building": "yes",
    "name": "Hall i' th' Wood Museum",
    "opening_hours": "Tu 10:00-16:00 Sa 12:00-16:00",
    "operator": "Bolton Metropolitan Borough Council",
    "phone": "+44 1204 332377",
    "tourism": "museum",
    "wikipedia": "en:Hall i' th' Wood"
  }
},
{
  "type": "way",
  "id": 562300370,
  "nodes": [
    5420878138,
    5420878140,
    5420878141,
    5420878139,
    5420878138
  ],
  "tags": {
    "building": "yes",
    "listed_status": "Grade II",
    "name": "Warrington Museum & Art Gallery",
    "tourism": "museum",
    "wheelchair": "yes",
    "wikidata": "Q7970731"
  }
},
{
  "type": "way",
  "id": 662910408,
  "nodes": [
    6205691192,
    6205691193,
    6205691194,
    6205691195,
    6205691196,
    6205691197,
    6205691199,
    6205691198,
    6205691192
  ],
  "tags": {
    "addr:street": "Cliffe Ash",
    "building": "yes",
    "name": "Colne Valley Museum",
    "operator": "Charity run by the community",
    "tourism": "museum"
  }
},
{
  "type": "way",
  "id": 663461157,
  "nodes": [
    6210043866,
    6210050411,
    6210050442,
    6210050422,
    6210050425,
    6210050409,
    6210050419,
    6210043866
  ],
  "tags": {
    "addr:postcode": "WA7 1SX",
    "building": "museum",
    "name": "Norton Priory",
    "tourism": "museum"
  }
},
{
  "type": "way",
  "id": 665303873,
  "nodes": [
    6227148345,
    6227148346,
    6227148353,
    6227148347,
    2016811634,
    6227148345
  ],
  "tags": {
    "building": "yes",
    "name": "Horwich Heritage Centre",
    "tourism": "museum"
  }
},
{
  "type": "way",
  "id": 684756584,
  "nodes": [
    6415941261,
    6415941262,
    6415941263,
    6415941264,
    6415941261
  ],
  "tags": {
    "building": "yes",
    "name": "Heritage Centre",
    "tourism": "museum"
  }
},
{
  "type": "way",
  "id": 733534213,
  "nodes": [
    6869586247,
    6869586287,
    6869586290,
    6869586289,
    6869586288,
    6869586248,
    6869586249,
    6869586253,
    702386226,
    6869586250,
    6869586251,
    702386225,
    702386224,
    6869586255,
    702386223,
    4963878488,
    5386890577,
    6869586252,
    4963878489,
    6869586247
  ],
  "tags": {
    "building": "yes",
    "name": "Bolton Art Gallery, Library & Museum",
    "tourism": "museum"
  }
},
{
  "type": "way",
  "id": 767980437,
  "nodes": [
    7170451632,
    7170451635,
    7170451636,
    7170451637,
    7170451638,
    7170451633,
    7170451632
  ],
  "tags": {
    "addr:city": "Wigan",
    "addr:housename": "The Brass Band Archive",
    "addr:housenumber": "232",
    "addr:postcode": "WN1 3NH",
    "addr:street": "Scholes",
    "building": "yes",
    "museum": "history",
    "name": "The Brass Band Archive",
    "tourism": "museum"
  }
},
{
  "type": "relation",
  "id": 66848,
  "members": [
    {
      "type": "way",
      "ref": 27930299,
      "role": "building"
    },
    {
      "type": "way",
      "ref": 27930338,
      "role": "building"
    },
    {
      "type": "way",
      "ref": 27930372,
      "role": "building"
    },
    {
      "type": "way",
      "ref": 27930374,
      "role": "building"
    },
    {
      "type": "way",
      "ref": 27930370,
      "role": "building"
    },
    {
      "type": "way",
      "ref": 590377952,
      "role": ""
    }
  ],
  "tags": {
    "alt_name": "Museum of Science and Industry in Manchester",
    "image": "http://upload.wikimedia.org/wikipedia/commons/3/30/MOSI.jpg",
    "museum": "industry",
    "name": "Museum of Science and Industry",
    "name:he": "מוזאון המדע והתעשייה",
    "operator": "The Greater Manchester Museum of Science and Industry Charitable Trust",
    "short_name": "MOSI",
    "source:image": "http://en.wikipedia.org/wiki/User:Childzy",
    "toilets:wheelchair": "yes",
    "tourism": "museum",
    "type": "site",
    "website": "http://www.mosi.org.uk",
    "wheelchair": "yes",
    "wikidata": "Q2638616",
    "wikipedia": "en:Museum of Science and Industry (Manchester)"
  }
},
{
  "type": "node",
  "id": 5108436908,
  "lat": 53.2538890,
  "lon": -2.5137188
},
{
  "type": "node",
  "id": 5108436909,
  "lat": 53.2539134,
  "lon": -2.5139666
},
{
  "type": "node",
  "id": 5108436910,
  "lat": 53.2539917,
  "lon": -2.5139471
},
{
  "type": "node",
  "id": 5108436911,
  "lat": 53.2539822,
  "lon": -2.5138391
},
{
  "type": "node",
  "id": 5108436912,
  "lat": 53.2540220,
  "lon": -2.5138308
},
{
  "type": "node",
  "id": 5108436913,
  "lat": 53.2540254,
  "lon": -2.5138622
},
{
  "type": "node",
  "id": 5108436914,
  "lat": 53.2540691,
  "lon": -2.5138525
},
{
  "type": "node",
  "id": 5108436915,
  "lat": 53.2540649,
  "lon": -2.5138138
},
{
  "type": "node",
  "id": 5108436916,
  "lat": 53.2541764,
  "lon": -2.5137907
},
{
  "type": "node",
  "id": 5108436917,
  "lat": 53.2541976,
  "lon": -2.5140053
},
{
  "type": "node",
  "id": 5108436918,
  "lat": 53.2543894,
  "lon": -2.5137295
},
{
  "type": "node",
  "id": 5108436919,
  "lat": 53.2542550,
  "lon": -2.5139910
},
{
  "type": "node",
  "id": 5108436920,
  "lat": 53.2542396,
  "lon": -2.5138275
},
{
  "type": "node",
  "id": 5108437621,
  "lat": 53.2542790,
  "lon": -2.5138192
},
{
  "type": "node",
  "id": 5108437622,
  "lat": 53.2542728,
  "lon": -2.5137558
},
{
  "type": "node",
  "id": 5108437623,
  "lat": 53.2543795,
  "lon": -2.5136109
},
{
  "type": "node",
  "id": 5217612103,
  "lat": 53.1632766,
  "lon": -2.2104041
},
{
  "type": "node",
  "id": 5217612104,
  "lat": 53.1631850,
  "lon": -2.2103981
},
{
  "type": "node",
  "id": 5217612105,
  "lat": 53.1631792,
  "lon": -2.2106443
},
{
  "type": "node",
  "id": 5217612107,
  "lat": 53.1632708,
  "lon": -2.2106503
},
{
  "type": "node",
  "id": 2451053753,
  "lat": 53.2580948,
  "lon": -2.1279081
},
{
  "type": "node",
  "id": 2451053754,
  "lat": 53.2579731,
  "lon": -2.1279062
},
{
  "type": "node",
  "id": 2451053755,
  "lat": 53.2579804,
  "lon": -2.1274914
},
{
  "type": "node",
  "id": 2451053756,
  "lat": 53.2580973,
  "lon": -2.1274932
},
{
  "type": "node",
  "id": 531541578,
  "lat": 53.3516002,
  "lon": -2.7337500
},
{
  "type": "node",
  "id": 531541590,
  "lat": 53.3515393,
  "lon": -2.7334496
},
{
  "type": "node",
  "id": 531541622,
  "lat": 53.3519716,
  "lon": -2.7334281
},
{
  "type": "node",
  "id": 531541629,
  "lat": 53.3518755,
  "lon": -2.7337285
},
{
  "type": "node",
  "id": 1215887869,
  "lat": 53.3517283,
  "lon": -2.7333638
},
{
  "type": "node",
  "id": 1215887870,
  "lat": 53.3521253,
  "lon": -2.7335676
},
{
  "type": "node",
  "id": 1215887871,
  "lat": 53.3520485,
  "lon": -2.7338573
},
{
  "type": "node",
  "id": 1215887872,
  "lat": 53.3517475,
  "lon": -2.7337178
},
{
  "type": "node",
  "id": 3687371225,
  "lat": 53.3520579,
  "lon": -2.7338217
},
{
  "type": "node",
  "id": 2148527661,
  "lat": 53.4541322,
  "lon": -2.7326346
},
{
  "type": "node",
  "id": 2148527676,
  "lat": 53.4544101,
  "lon": -2.7324952
},
{
  "type": "node",
  "id": 2148527711,
  "lat": 53.4540651,
  "lon": -2.7307786
},
{
  "type": "node",
  "id": 2148527719,
  "lat": 53.4538415,
  "lon": -2.7311165
},
{
  "type": "node",
  "id": 6210043866,
  "lat": 53.3423849,
  "lon": -2.6805139
},
{
  "type": "node",
  "id": 6210050411,
  "lat": 53.3421738,
  "lon": -2.6804280
},
{
  "type": "node",
  "id": 6210050442,
  "lat": 53.3421354,
  "lon": -2.6805605
},
{
  "type": "node",
  "id": 6210050409,
  "lat": 53.3422123,
  "lon": -2.6800670
},
{
  "type": "node",
  "id": 6210050419,
  "lat": 53.3424554,
  "lon": -2.6801276
},
{
  "type": "node",
  "id": 6210050422,
  "lat": 53.3420713,
  "lon": -2.6802778
},
{
  "type": "node",
  "id": 6210050425,
  "lat": 53.3421738,
  "lon": -2.6802778
},
{
  "type": "node",
  "id": 5420878138,
  "lat": 53.3871932,
  "lon": -2.5960480
},
{
  "type": "node",
  "id": 5420878139,
  "lat": 53.3869533,
  "lon": -2.5960002
},
{
  "type": "node",
  "id": 5420878140,
  "lat": 53.3872124,
  "lon": -2.5957760
},
{
  "type": "node",
  "id": 5420878141,
  "lat": 53.3869728,
  "lon": -2.5957275
},
{
  "type": "node",
  "id": 7170451632,
  "lat": 53.5500145,
  "lon": -2.6193203
},
{
  "type": "node",
  "id": 7170451633,
  "lat": 53.5499603,
  "lon": -2.6194193
},
{
  "type": "node",
  "id": 7170451635,
  "lat": 53.5500856,
  "lon": -2.6194398
},
{
  "type": "node",
  "id": 7170451636,
  "lat": 53.5500102,
  "lon": -2.6195742
},
{
  "type": "node",
  "id": 7170451637,
  "lat": 53.5499591,
  "lon": -2.6195089
},
{
  "type": "node",
  "id": 7170451638,
  "lat": 53.5499835,
  "lon": -2.6194622
},
{
  "type": "node",
  "id": 2016811634,
  "lat": 53.6006728,
  "lon": -2.5441076
},
{
  "type": "node",
  "id": 6227148345,
  "lat": 53.6005161,
  "lon": -2.5444747
},
{
  "type": "node",
  "id": 6227148346,
  "lat": 53.6004565,
  "lon": -2.5444025
},
{
  "type": "node",
  "id": 6227148347,
  "lat": 53.6006132,
  "lon": -2.5440354
},
{
  "type": "node",
  "id": 6227148353,
  "lat": 53.6005993,
  "lon": -2.5440680
},
{
  "type": "node",
  "id": 6415941261,
  "lat": 53.3812451,
  "lon": -2.4794828
},
{
  "type": "node",
  "id": 6415941262,
  "lat": 53.3811324,
  "lon": -2.4794910
},
{
  "type": "node",
  "id": 6415941263,
  "lat": 53.3811293,
  "lon": -2.4793719
},
{
  "type": "node",
  "id": 6415941264,
  "lat": 53.3812420,
  "lon": -2.4793636
},
{
  "type": "node",
  "id": 4694429029,
  "lat": 53.3349464,
  "lon": -2.1526313
},
{
  "type": "node",
  "id": 4694429030,
  "lat": 53.3350795,
  "lon": -2.1519112
},
{
  "type": "node",
  "id": 4694429031,
  "lat": 53.3351258,
  "lon": -2.1525973
},
{
  "type": "node",
  "id": 4694429032,
  "lat": 53.3349001,
  "lon": -2.1519451
},
{
  "type": "node",
  "id": 1980111874,
  "lat": 53.4696702,
  "lon": -2.2981471
},
{
  "type": "node",
  "id": 1980111879,
  "lat": 53.4690598,
  "lon": -2.2984782
},
{
  "type": "node",
  "id": 1980111895,
  "lat": 53.4696804,
  "lon": -2.2979588
},
{
  "type": "node",
  "id": 1980111901,
  "lat": 53.4698441,
  "lon": -2.2980365
},
{
  "type": "node",
  "id": 1980111902,
  "lat": 53.4700759,
  "lon": -2.2996641
},
{
  "type": "node",
  "id": 1980111905,
  "lat": 53.4698815,
  "lon": -2.2984957
},
{
  "type": "node",
  "id": 1980111906,
  "lat": 53.4702125,
  "lon": -2.2992533
},
{
  "type": "node",
  "id": 2901345933,
  "lat": 53.4697707,
  "lon": -2.2995184
},
{
  "type": "node",
  "id": 2901345937,
  "lat": 53.4698677,
  "lon": -2.2994149
},
{
  "type": "node",
  "id": 2901345945,
  "lat": 53.4698644,
  "lon": -2.2985048
},
{
  "type": "node",
  "id": 2901345952,
  "lat": 53.4698281,
  "lon": -2.2994701
},
{
  "type": "node",
  "id": 2901345982,
  "lat": 53.4696410,
  "lon": -2.2993022
},
{
  "type": "node",
  "id": 2901345994,
  "lat": 53.4696493,
  "lon": -2.2994916
},
{
  "type": "node",
  "id": 2901347543,
  "lat": 53.4697259,
  "lon": -2.2995452
},
{
  "type": "node",
  "id": 2901347544,
  "lat": 53.4697216,
  "lon": -2.2992654
},
{
  "type": "node",
  "id": 3640676590,
  "lat": 53.4700781,
  "lon": -2.2989535
},
{
  "type": "node",
  "id": 3640676591,
  "lat": 53.4699615,
  "lon": -2.2987094
},
{
  "type": "node",
  "id": 5734267512,
  "lat": 53.4692361,
  "lon": -2.2986879
},
{
  "type": "node",
  "id": 5734267518,
  "lat": 53.4698696,
  "lon": -2.2985158
},
{
  "type": "node",
  "id": 5734267519,
  "lat": 53.4701799,
  "lon": -2.2991806
},
{
  "type": "node",
  "id": 5920910434,
  "lat": 53.4696689,
  "lon": -2.2992027
},
{
  "type": "node",
  "id": 1345707210,
  "lat": 53.4695874,
  "lon": -2.2773753
},
{
  "type": "node",
  "id": 1345707211,
  "lat": 53.4694405,
  "lon": -2.2780400
},
{
  "type": "node",
  "id": 1345707212,
  "lat": 53.4694584,
  "lon": -2.2778120
},
{
  "type": "node",
  "id": 1345707214,
  "lat": 53.4695102,
  "lon": -2.2775323
},
{
  "type": "node",
  "id": 1345707216,
  "lat": 53.4695204,
  "lon": -2.2774464
},
{
  "type": "node",
  "id": 1345707217,
  "lat": 53.4695022,
  "lon": -2.2772248
},
{
  "type": "node",
  "id": 1345707219,
  "lat": 53.4695311,
  "lon": -2.2774653
},
{
  "type": "node",
  "id": 1345707221,
  "lat": 53.4694867,
  "lon": -2.2779662
},
{
  "type": "node",
  "id": 1345707223,
  "lat": 53.4694494,
  "lon": -2.2773092
},
{
  "type": "node",
  "id": 1345707228,
  "lat": 53.4693938,
  "lon": -2.2773470
},
{
  "type": "node",
  "id": 1345707229,
  "lat": 53.4694071,
  "lon": -2.2773706
},
{
  "type": "node",
  "id": 1345707230,
  "lat": 53.4693966,
  "lon": -2.2777857
},
{
  "type": "node",
  "id": 1345707231,
  "lat": 53.4693571,
  "lon": -2.2777160
},
{
  "type": "node",
  "id": 1345707232,
  "lat": 53.4692996,
  "lon": -2.2774619
},
{
  "type": "node",
  "id": 1345707233,
  "lat": 53.4692017,
  "lon": -2.2776182
},
{
  "type": "node",
  "id": 1345707234,
  "lat": 53.4694878,
  "lon": -2.2775681
},
{
  "type": "node",
  "id": 1345707235,
  "lat": 53.4694342,
  "lon": -2.2772824
},
{
  "type": "node",
  "id": 1345707244,
  "lat": 53.4694274,
  "lon": -2.2778615
},
{
  "type": "node",
  "id": 1345707246,
  "lat": 53.4694895,
  "lon": -2.2774958
},
{
  "type": "node",
  "id": 1345707247,
  "lat": 53.4693235,
  "lon": -2.2775042
},
{
  "type": "node",
  "id": 1345707248,
  "lat": 53.4694212,
  "lon": -2.2777464
},
{
  "type": "node",
  "id": 1345707249,
  "lat": 53.4694697,
  "lon": -2.2775361
},
{
  "type": "node",
  "id": 2619483256,
  "lat": 53.4694192,
  "lon": -2.2776168
},
{
  "type": "node",
  "id": 306572895,
  "lat": 53.4770545,
  "lon": -2.2560733
},
{
  "type": "node",
  "id": 306572896,
  "lat": 53.4769092,
  "lon": -2.2565025
},
{
  "type": "node",
  "id": 306572897,
  "lat": 53.4765968,
  "lon": -2.2546748
},
{
  "type": "node",
  "id": 306572898,
  "lat": 53.4768914,
  "lon": -2.2544480
},
{
  "type": "node",
  "id": 306573022,
  "lat": 53.4775702,
  "lon": -2.2556754
},
{
  "type": "node",
  "id": 306573044,
  "lat": 53.4773887,
  "lon": -2.2588933
},
{
  "type": "node",
  "id": 306573045,
  "lat": 53.4770748,
  "lon": -2.2574384
},
{
  "type": "node",
  "id": 306573046,
  "lat": 53.4771419,
  "lon": -2.2573944
},
{
  "type": "node",
  "id": 306573052,
  "lat": 53.4775270,
  "lon": -2.2585663
},
{
  "type": "node",
  "id": 306573053,
  "lat": 53.4776707,
  "lon": -2.2584126
},
{
  "type": "node",
  "id": 306573054,
  "lat": 53.4774023,
  "lon": -2.2569869
},
{
  "type": "node",
  "id": 306573055,
  "lat": 53.4772358,
  "lon": -2.2571898
},
{
  "type": "node",
  "id": 984431505,
  "lat": 53.4775812,
  "lon": -2.2558778
},
{
  "type": "node",
  "id": 984431507,
  "lat": 53.4774001,
  "lon": -2.2559782
},
{
  "type": "node",
  "id": 984431516,
  "lat": 53.4776119,
  "lon": -2.2571101
},
{
  "type": "node",
  "id": 1680256796,
  "lat": 53.4766250,
  "lon": -2.2545741
},
{
  "type": "node",
  "id": 1680256798,
  "lat": 53.4773453,
  "lon": -2.2577874
},
{
  "type": "node",
  "id": 1680256804,
  "lat": 53.4775162,
  "lon": -2.2576470
},
{
  "type": "node",
  "id": 1680256827,
  "lat": 53.4769548,
  "lon": -2.2564844
},
{
  "type": "node",
  "id": 1680256855,
  "lat": 53.4769096,
  "lon": -2.2545638
},
{
  "type": "node",
  "id": 1680256859,
  "lat": 53.4768969,
  "lon": -2.2561580
},
{
  "type": "node",
  "id": 1680256867,
  "lat": 53.4768038,
  "lon": -2.2546205
},
{
  "type": "node",
  "id": 1766133666,
  "lat": 53.4772310,
  "lon": -2.2578992
},
{
  "type": "node",
  "id": 1766133703,
  "lat": 53.4773284,
  "lon": -2.2589208
},
{
  "type": "node",
  "id": 1766133731,
  "lat": 53.4773151,
  "lon": -2.2584025
},
{
  "type": "node",
  "id": 1766133843,
  "lat": 53.4769148,
  "lon": -2.2565279
},
{
  "type": "node",
  "id": 1766133882,
  "lat": 53.4773207,
  "lon": -2.2589072
},
{
  "type": "node",
  "id": 1766133936,
  "lat": 53.4769531,
  "lon": -2.2567537
},
{
  "type": "node",
  "id": 1766134018,
  "lat": 53.4770706,
  "lon": -2.2574696
},
{
  "type": "node",
  "id": 1766134216,
  "lat": 53.4773335,
  "lon": -2.2583941
},
{
  "type": "node",
  "id": 1766134345,
  "lat": 53.4771212,
  "lon": -2.2573947
},
{
  "type": "node",
  "id": 1766134375,
  "lat": 53.4773381,
  "lon": -2.2589326
},
{
  "type": "node",
  "id": 1766134417,
  "lat": 53.4770732,
  "lon": -2.2574982
},
{
  "type": "node",
  "id": 2151739233,
  "lat": 53.4770345,
  "lon": -2.2546848
},
{
  "type": "node",
  "id": 2151739236,
  "lat": 53.4770833,
  "lon": -2.2546612
},
{
  "type": "node",
  "id": 2151739246,
  "lat": 53.4772564,
  "lon": -2.2558354
},
{
  "type": "node",
  "id": 2151739247,
  "lat": 53.4772614,
  "lon": -2.2558583
},
{
  "type": "node",
  "id": 2151739248,
  "lat": 53.4772626,
  "lon": -2.2558103
},
{
  "type": "node",
  "id": 2151739249,
  "lat": 53.4772626,
  "lon": -2.2558605
},
{
  "type": "node",
  "id": 2151739251,
  "lat": 53.4772775,
  "lon": -2.2558709
},
{
  "type": "node",
  "id": 2151739253,
  "lat": 53.4773829,
  "lon": -2.2557489
},
{
  "type": "node",
  "id": 2151739254,
  "lat": 53.4773942,
  "lon": -2.2558156
},
{
  "type": "node",
  "id": 2151739260,
  "lat": 53.4775033,
  "lon": -2.2556913
},
{
  "type": "node",
  "id": 2151739262,
  "lat": 53.4775173,
  "lon": -2.2557737
},
{
  "type": "node",
  "id": 2151739263,
  "lat": 53.4775301,
  "lon": -2.2556933
},
{
  "type": "node",
  "id": 2151739264,
  "lat": 53.4775441,
  "lon": -2.2557609
},
{
  "type": "node",
  "id": 3390849585,
  "lat": 53.4771774,
  "lon": -2.2552091
},
{
  "type": "node",
  "id": 3390849586,
  "lat": 53.4771204,
  "lon": -2.2552367
},
{
  "type": "node",
  "id": 3390849587,
  "lat": 53.4771601,
  "lon": -2.2551093
},
{
  "type": "node",
  "id": 3390849588,
  "lat": 53.4771033,
  "lon": -2.2551368
},
{
  "type": "node",
  "id": 3390849589,
  "lat": 53.4771004,
  "lon": -2.2547603
},
{
  "type": "node",
  "id": 3390849590,
  "lat": 53.4770514,
  "lon": -2.2547840
},
{
  "type": "node",
  "id": 3390849591,
  "lat": 53.4772790,
  "lon": -2.2558024
},
{
  "type": "node",
  "id": 3405888611,
  "lat": 53.4768256,
  "lon": -2.2547467
},
{
  "type": "node",
  "id": 3405888613,
  "lat": 53.4769040,
  "lon": -2.2545279
},
{
  "type": "node",
  "id": 3405888616,
  "lat": 53.4769460,
  "lon": -2.2561316
},
{
  "type": "node",
  "id": 3405888623,
  "lat": 53.4770549,
  "lon": -2.2544952
},
{
  "type": "node",
  "id": 3405888640,
  "lat": 53.4773371,
  "lon": -2.2558429
},
{
  "type": "node",
  "id": 3405888644,
  "lat": 53.4774236,
  "lon": -2.2586858
},
{
  "type": "node",
  "id": 4537378724,
  "lat": 53.4775512,
  "lon": -2.2556822
},
{
  "type": "node",
  "id": 5121712237,
  "lat": 53.4777349,
  "lon": -2.2583953
},
{
  "type": "node",
  "id": 5121712240,
  "lat": 53.4773764,
  "lon": -2.2588178
},
{
  "type": "node",
  "id": 5121712246,
  "lat": 53.4777315,
  "lon": -2.2582360
},
{
  "type": "node",
  "id": 5121712247,
  "lat": 53.4775082,
  "lon": -2.2585881
},
{
  "type": "node",
  "id": 5121712260,
  "lat": 53.4774053,
  "lon": -2.2587368
},
{
  "type": "node",
  "id": 811378955,
  "lat": 53.4853601,
  "lon": -2.2721683
},
{
  "type": "node",
  "id": 811378956,
  "lat": 53.4852494,
  "lon": -2.2714318
},
{
  "type": "node",
  "id": 811378958,
  "lat": 53.4849853,
  "lon": -2.2715439
},
{
  "type": "node",
  "id": 811378964,
  "lat": 53.4850960,
  "lon": -2.2722804
},
{
  "type": "node",
  "id": 1424650390,
  "lat": 53.4504882,
  "lon": -2.2220829
},
{
  "type": "node",
  "id": 1424650391,
  "lat": 53.4503829,
  "lon": -2.2226604
},
{
  "type": "node",
  "id": 1424650392,
  "lat": 53.4503143,
  "lon": -2.2227002
},
{
  "type": "node",
  "id": 1424650393,
  "lat": 53.4504813,
  "lon": -2.2225492
},
{
  "type": "node",
  "id": 1424650402,
  "lat": 53.4504496,
  "lon": -2.2220516
},
{
  "type": "node",
  "id": 1424650403,
  "lat": 53.4506138,
  "lon": -2.2220694
},
{
  "type": "node",
  "id": 1424650404,
  "lat": 53.4503636,
  "lon": -2.2223509
},
{
  "type": "node",
  "id": 1424650405,
  "lat": 53.4506522,
  "lon": -2.2219357
},
{
  "type": "node",
  "id": 1424650408,
  "lat": 53.4503607,
  "lon": -2.2227377
},
{
  "type": "node",
  "id": 1424650409,
  "lat": 53.4505534,
  "lon": -2.2218557
},
{
  "type": "node",
  "id": 2858225446,
  "lat": 53.4504050,
  "lon": -2.2223844
},
{
  "type": "node",
  "id": 2858319386,
  "lat": 53.4504562,
  "lon": -2.2225289
},
{
  "type": "node",
  "id": 2858319902,
  "lat": 53.4505930,
  "lon": -2.2220526
},
{
  "type": "node",
  "id": 2858319904,
  "lat": 53.4504368,
  "lon": -2.2227041
},
{
  "type": "node",
  "id": 2115177026,
  "lat": 53.4634546,
  "lon": -2.2210905
},
{
  "type": "node",
  "id": 2115177027,
  "lat": 53.4634999,
  "lon": -2.2210525
},
{
  "type": "node",
  "id": 2115177032,
  "lat": 53.4635486,
  "lon": -2.2214061
},
{
  "type": "node",
  "id": 2115177033,
  "lat": 53.4635611,
  "lon": -2.2212581
},
{
  "type": "node",
  "id": 2115177035,
  "lat": 53.4635794,
  "lon": -2.2209857
},
{
  "type": "node",
  "id": 2115177038,
  "lat": 53.4635938,
  "lon": -2.2213681
},
{
  "type": "node",
  "id": 2115177046,
  "lat": 53.4636406,
  "lon": -2.2211913
},
{
  "type": "node",
  "id": 306572698,
  "lat": 53.4766016,
  "lon": -2.2528463
},
{
  "type": "node",
  "id": 306572699,
  "lat": 53.4762735,
  "lon": -2.2530668
},
{
  "type": "node",
  "id": 306572700,
  "lat": 53.4765459,
  "lon": -2.2542622
},
{
  "type": "node",
  "id": 306572701,
  "lat": 53.4769043,
  "lon": -2.2540805
},
{
  "type": "node",
  "id": 306573023,
  "lat": 53.4773133,
  "lon": -2.2540668
},
{
  "type": "node",
  "id": 306573024,
  "lat": 53.4770354,
  "lon": -2.2543799
},
{
  "type": "node",
  "id": 1680256791,
  "lat": 53.4771470,
  "lon": -2.2543269
},
{
  "type": "node",
  "id": 1680256861,
  "lat": 53.4771188,
  "lon": -2.2541588
},
{
  "type": "node",
  "id": 2509263497,
  "lat": 53.4768598,
  "lon": -2.2542703
},
{
  "type": "node",
  "id": 2509277803,
  "lat": 53.4773267,
  "lon": -2.2541468
},
{
  "type": "node",
  "id": 3405888607,
  "lat": 53.4766664,
  "lon": -2.2542003
},
{
  "type": "node",
  "id": 3405888610,
  "lat": 53.4767323,
  "lon": -2.2541705
},
{
  "type": "node",
  "id": 3405888625,
  "lat": 53.4770790,
  "lon": -2.2543590
},
{
  "type": "node",
  "id": 344234227,
  "lat": 53.4782914,
  "lon": -2.2413484
},
{
  "type": "node",
  "id": 344234228,
  "lat": 53.4786530,
  "lon": -2.2419992
},
{
  "type": "node",
  "id": 2676938942,
  "lat": 53.4784494,
  "lon": -2.2416556
},
{
  "type": "node",
  "id": 2676938943,
  "lat": 53.4785176,
  "lon": -2.2417195
},
{
  "type": "node",
  "id": 2676938944,
  "lat": 53.4786288,
  "lon": -2.2415660
},
{
  "type": "node",
  "id": 2676938945,
  "lat": 53.4785840,
  "lon": -2.2414742
},
{
  "type": "node",
  "id": 2676938947,
  "lat": 53.4787608,
  "lon": -2.2413549
},
{
  "type": "node",
  "id": 2676938952,
  "lat": 53.4790063,
  "lon": -2.2414820
},
{
  "type": "node",
  "id": 2676938955,
  "lat": 53.4788297,
  "lon": -2.2417403
},
{
  "type": "node",
  "id": 2676938956,
  "lat": 53.4786025,
  "lon": -2.2415123
},
{
  "type": "node",
  "id": 344234226,
  "lat": 53.4786951,
  "lon": -2.2407851
},
{
  "type": "node",
  "id": 2676938946,
  "lat": 53.4788699,
  "lon": -2.2412043
},
{
  "type": "node",
  "id": 2676938948,
  "lat": 53.4787233,
  "lon": -2.2412743
},
{
  "type": "node",
  "id": 2676938949,
  "lat": 53.4788451,
  "lon": -2.2410974
},
{
  "type": "node",
  "id": 2555284714,
  "lat": 53.4815858,
  "lon": -2.2529759
},
{
  "type": "node",
  "id": 2555284715,
  "lat": 53.4814932,
  "lon": -2.2526836
},
{
  "type": "node",
  "id": 2555284716,
  "lat": 53.4814421,
  "lon": -2.2527050
},
{
  "type": "node",
  "id": 2555284717,
  "lat": 53.4813974,
  "lon": -2.2527480
},
{
  "type": "node",
  "id": 2555284718,
  "lat": 53.4813320,
  "lon": -2.2528418
},
{
  "type": "node",
  "id": 2555284719,
  "lat": 53.4812650,
  "lon": -2.2529786
},
{
  "type": "node",
  "id": 2555284720,
  "lat": 53.4814820,
  "lon": -2.2532415
},
{
  "type": "node",
  "id": 2555284721,
  "lat": 53.4815188,
  "lon": -2.2531583
},
{
  "type": "node",
  "id": 2555284722,
  "lat": 53.4815076,
  "lon": -2.2531449
},
{
  "type": "node",
  "id": 4302624082,
  "lat": 53.4814155,
  "lon": -2.2531609
},
{
  "type": "node",
  "id": 2382478366,
  "lat": 53.4083075,
  "lon": -2.1623443
},
{
  "type": "node",
  "id": 2382478367,
  "lat": 53.4083661,
  "lon": -2.1625023
},
{
  "type": "node",
  "id": 2382478364,
  "lat": 53.4086206,
  "lon": -2.1619963
},
{
  "type": "node",
  "id": 2382478365,
  "lat": 53.4086554,
  "lon": -2.1620751
},
{
  "type": "node",
  "id": 2382478368,
  "lat": 53.4087517,
  "lon": -2.1620857
},
{
  "type": "node",
  "id": 2382478369,
  "lat": 53.4087098,
  "lon": -2.1620242
},
{
  "type": "node",
  "id": 1814118012,
  "lat": 53.5850225,
  "lon": -2.4544669
},
{
  "type": "node",
  "id": 1814118020,
  "lat": 53.5849854,
  "lon": -2.4545056
},
{
  "type": "node",
  "id": 1814118021,
  "lat": 53.5850618,
  "lon": -2.4547148
},
{
  "type": "node",
  "id": 1814118022,
  "lat": 53.5846637,
  "lon": -2.4551225
},
{
  "type": "node",
  "id": 1814118049,
  "lat": 53.5850304,
  "lon": -2.4546278
},
{
  "type": "node",
  "id": 1814118052,
  "lat": 53.5850666,
  "lon": -2.4545915
},
{
  "type": "node",
  "id": 1814118056,
  "lat": 53.5845507,
  "lon": -2.4548758
},
{
  "type": "node",
  "id": 1814118062,
  "lat": 53.5849599,
  "lon": -2.4544466
},
{
  "type": "node",
  "id": 702386226,
  "lat": 53.5776363,
  "lon": -2.4314400
},
{
  "type": "node",
  "id": 4963878489,
  "lat": 53.5770325,
  "lon": -2.4316306
},
{
  "type": "node",
  "id": 6869586247,
  "lat": 53.5774452,
  "lon": -2.4317740
},
{
  "type": "node",
  "id": 6869586248,
  "lat": 53.5774714,
  "lon": -2.4315567
},
{
  "type": "node",
  "id": 6869586249,
  "lat": 53.5775073,
  "lon": -2.4315178
},
{
  "type": "node",
  "id": 6869586252,
  "lat": 53.5770101,
  "lon": -2.4315554
},
{
  "type": "node",
  "id": 6869586253,
  "lat": 53.5775280,
  "lon": -2.4315714
},
{
  "type": "node",
  "id": 6869586287,
  "lat": 53.5774560,
  "lon": -2.4316734
},
{
  "type": "node",
  "id": 6869586288,
  "lat": 53.5774635,
  "lon": -2.4316140
},
{
  "type": "node",
  "id": 6869586289,
  "lat": 53.5774185,
  "lon": -2.4315994
},
{
  "type": "node",
  "id": 6869586290,
  "lat": 53.5774112,
  "lon": -2.4316585
},
{
  "type": "node",
  "id": 702386223,
  "lat": 53.5771430,
  "lon": -2.4309940
},
{
  "type": "node",
  "id": 702386224,
  "lat": 53.5775238,
  "lon": -2.4311404
},
{
  "type": "node",
  "id": 702386225,
  "lat": 53.5775422,
  "lon": -2.4311729
},
{
  "type": "node",
  "id": 4963878488,
  "lat": 53.5770963,
  "lon": -2.4310422
},
{
  "type": "node",
  "id": 5386890577,
  "lat": 53.5770436,
  "lon": -2.4313675
},
{
  "type": "node",
  "id": 6869586250,
  "lat": 53.5775948,
  "lon": -2.4313364
},
{
  "type": "node",
  "id": 6869586251,
  "lat": 53.5775619,
  "lon": -2.4312363
},
{
  "type": "node",
  "id": 6869586255,
  "lat": 53.5775041,
  "lon": -2.4311224
},
{
  "type": "node",
  "id": 5234710641,
  "lat": 53.6005577,
  "lon": -2.4191343
},
{
  "type": "node",
  "id": 5234710642,
  "lat": 53.6004992,
  "lon": -2.4191235
},
{
  "type": "node",
  "id": 5234710643,
  "lat": 53.6005047,
  "lon": -2.4190396
},
{
  "type": "node",
  "id": 5234710644,
  "lat": 53.6004580,
  "lon": -2.4190310
},
{
  "type": "node",
  "id": 5234710645,
  "lat": 53.6004527,
  "lon": -2.4191127
},
{
  "type": "node",
  "id": 5234710646,
  "lat": 53.6003715,
  "lon": -2.4190976
},
{
  "type": "node",
  "id": 5234710647,
  "lat": 53.6003772,
  "lon": -2.4190099
},
{
  "type": "node",
  "id": 5234710648,
  "lat": 53.6003614,
  "lon": -2.4190069
},
{
  "type": "node",
  "id": 5234710649,
  "lat": 53.6003644,
  "lon": -2.4189615
},
{
  "type": "node",
  "id": 5234710650,
  "lat": 53.6003974,
  "lon": -2.4189677
},
{
  "type": "node",
  "id": 5234710651,
  "lat": 53.6004067,
  "lon": -2.4188256
},
{
  "type": "node",
  "id": 5234710652,
  "lat": 53.6005758,
  "lon": -2.4188570
},
{
  "type": "node",
  "id": 3066941657,
  "lat": 53.4955539,
  "lon": -2.2378470
},
{
  "type": "node",
  "id": 3066941659,
  "lat": 53.4956266,
  "lon": -2.2382246
},
{
  "type": "node",
  "id": 3066941661,
  "lat": 53.4956553,
  "lon": -2.2377919
},
{
  "type": "node",
  "id": 3066941662,
  "lat": 53.4957280,
  "lon": -2.2381695
},
{
  "type": "node",
  "id": 1319731499,
  "lat": 53.5046383,
  "lon": -2.2213945
},
{
  "type": "node",
  "id": 1319731512,
  "lat": 53.5046825,
  "lon": -2.2212582
},
{
  "type": "node",
  "id": 1319731520,
  "lat": 53.5046952,
  "lon": -2.2209622
},
{
  "type": "node",
  "id": 1319731524,
  "lat": 53.5044585,
  "lon": -2.2213727
},
{
  "type": "node",
  "id": 1319731549,
  "lat": 53.5044435,
  "lon": -2.2209317
},
{
  "type": "node",
  "id": 1319731557,
  "lat": 53.5044639,
  "lon": -2.2212470
},
{
  "type": "node",
  "id": 1319731572,
  "lat": 53.5046444,
  "lon": -2.2212535
},
{
  "type": "node",
  "id": 1319731586,
  "lat": 53.5044302,
  "lon": -2.2212430
},
{
  "type": "node",
  "id": 308476150,
  "lat": 53.5322820,
  "lon": -2.2498311
},
{
  "type": "node",
  "id": 308476151,
  "lat": 53.5322062,
  "lon": -2.2498378
},
{
  "type": "node",
  "id": 308476153,
  "lat": 53.5321989,
  "lon": -2.2496035
},
{
  "type": "node",
  "id": 308476154,
  "lat": 53.5321244,
  "lon": -2.2496101
},
{
  "type": "node",
  "id": 308476156,
  "lat": 53.5321209,
  "lon": -2.2494987
},
{
  "type": "node",
  "id": 308476158,
  "lat": 53.5321949,
  "lon": -2.2494922
},
{
  "type": "node",
  "id": 308476159,
  "lat": 53.5321874,
  "lon": -2.2492489
},
{
  "type": "node",
  "id": 308476160,
  "lat": 53.5322638,
  "lon": -2.2492423
},
{
  "type": "node",
  "id": 3034628231,
  "lat": 53.5322109,
  "lon": -2.2492469
},
{
  "type": "node",
  "id": 3034628437,
  "lat": 53.5322453,
  "lon": -2.2492439
},
{
  "type": "node",
  "id": 1200211085,
  "lat": 53.5947599,
  "lon": -2.3009379
},
{
  "type": "node",
  "id": 1200211092,
  "lat": 53.5943693,
  "lon": -2.3003796
},
{
  "type": "node",
  "id": 1200211097,
  "lat": 53.5944422,
  "lon": -2.3010378
},
{
  "type": "node",
  "id": 4074253114,
  "lat": 53.5947062,
  "lon": -2.3014560
},
{
  "type": "node",
  "id": 4074253115,
  "lat": 53.5943749,
  "lon": -2.3016017
},
{
  "type": "node",
  "id": 4074253128,
  "lat": 53.5948342,
  "lon": -2.3013099
},
{
  "type": "node",
  "id": 4074253132,
  "lat": 53.5944884,
  "lon": -2.3016277
},
{
  "type": "node",
  "id": 4968226456,
  "lat": 53.5944271,
  "lon": -2.3003614
},
{
  "type": "node",
  "id": 5828769651,
  "lat": 53.5942772,
  "lon": -2.3003826
},
{
  "type": "node",
  "id": 5828769652,
  "lat": 53.5943035,
  "lon": -2.3010984
},
{
  "type": "node",
  "id": 5828769653,
  "lat": 53.5943601,
  "lon": -2.3010819
},
{
  "type": "node",
  "id": 1200211086,
  "lat": 53.5946870,
  "lon": -2.3002797
},
{
  "type": "node",
  "id": 4074253097,
  "lat": 53.5946666,
  "lon": -2.2991233
},
{
  "type": "node",
  "id": 4074253130,
  "lat": 53.5941433,
  "lon": -2.2994594
},
{
  "type": "node",
  "id": 4968226466,
  "lat": 53.5946078,
  "lon": -2.3003046
},
{
  "type": "node",
  "id": 5828769649,
  "lat": 53.5946120,
  "lon": -2.2995547
},
{
  "type": "node",
  "id": 5828769650,
  "lat": 53.5947310,
  "lon": -2.3001934
},
{
  "type": "node",
  "id": 6749567229,
  "lat": 53.5945936,
  "lon": -2.2991702
},
{
  "type": "node",
  "id": 1863194372,
  "lat": 53.5399584,
  "lon": -2.1085837
},
{
  "type": "node",
  "id": 1863194379,
  "lat": 53.5397351,
  "lon": -2.1090228
},
{
  "type": "node",
  "id": 1863194388,
  "lat": 53.5401001,
  "lon": -2.1093474
},
{
  "type": "node",
  "id": 1863194392,
  "lat": 53.5397719,
  "lon": -2.1090934
},
{
  "type": "node",
  "id": 1863194397,
  "lat": 53.5403696,
  "lon": -2.1091470
},
{
  "type": "node",
  "id": 1863194400,
  "lat": 53.5403807,
  "lon": -2.1090818
},
{
  "type": "node",
  "id": 1863194403,
  "lat": 53.5397735,
  "lon": -2.1088171
},
{
  "type": "node",
  "id": 1863194406,
  "lat": 53.5401401,
  "lon": -2.1098927
},
{
  "type": "node",
  "id": 1863194414,
  "lat": 53.5401480,
  "lon": -2.1085676
},
{
  "type": "node",
  "id": 1863194417,
  "lat": 53.5399456,
  "lon": -2.1084791
},
{
  "type": "node",
  "id": 1863194419,
  "lat": 53.5403743,
  "lon": -2.1086688
},
{
  "type": "node",
  "id": 1863194423,
  "lat": 53.5404907,
  "lon": -2.1092087
},
{
  "type": "node",
  "id": 1863194424,
  "lat": 53.5398293,
  "lon": -2.1084845
},
{
  "type": "node",
  "id": 1863194432,
  "lat": 53.5404907,
  "lon": -2.1092293
},
{
  "type": "node",
  "id": 1863194434,
  "lat": 53.5398117,
  "lon": -2.1088520
},
{
  "type": "node",
  "id": 1863194438,
  "lat": 53.5397240,
  "lon": -2.1088485
},
{
  "type": "node",
  "id": 1863194442,
  "lat": 53.5407760,
  "lon": -2.1089075
},
{
  "type": "node",
  "id": 1863194445,
  "lat": 53.5399439,
  "lon": -2.1099911
},
{
  "type": "node",
  "id": 1863194450,
  "lat": 53.5407490,
  "lon": -2.1090317
},
{
  "type": "node",
  "id": 1863194465,
  "lat": 53.5402341,
  "lon": -2.1086132
},
{
  "type": "node",
  "id": 1863194466,
  "lat": 53.5400603,
  "lon": -2.1093313
},
{
  "type": "node",
  "id": 1863194468,
  "lat": 53.5407044,
  "lon": -2.1093411
},
{
  "type": "node",
  "id": 1863194483,
  "lat": 53.5407760,
  "lon": -2.1090496
},
{
  "type": "node",
  "id": 1863194489,
  "lat": 53.5402850,
  "lon": -2.1091086
},
{
  "type": "node",
  "id": 1863194497,
  "lat": 53.5400141,
  "lon": -2.1098328
},
{
  "type": "node",
  "id": 1863194500,
  "lat": 53.5401050,
  "lon": -2.1090826
},
{
  "type": "node",
  "id": 1863194506,
  "lat": 53.5404397,
  "lon": -2.1087044
},
{
  "type": "node",
  "id": 1863194507,
  "lat": 53.5398451,
  "lon": -2.1091435
},
{
  "type": "node",
  "id": 1863194509,
  "lat": 53.5398642,
  "lon": -2.1088163
},
{
  "type": "node",
  "id": 1863194511,
  "lat": 53.5407571,
  "lon": -2.1091811
},
{
  "type": "node",
  "id": 1863194524,
  "lat": 53.5402979,
  "lon": -2.1090370
},
{
  "type": "node",
  "id": 1863194528,
  "lat": 53.5401401,
  "lon": -2.1091014
},
{
  "type": "node",
  "id": 1863194536,
  "lat": 53.5397017,
  "lon": -2.1089263
},
{
  "type": "node",
  "id": 1863194537,
  "lat": 53.5407298,
  "lon": -2.1091685
},
{
  "type": "node",
  "id": 1863194538,
  "lat": 53.5397144,
  "lon": -2.1098865
},
{
  "type": "node",
  "id": 1863194543,
  "lat": 53.5401401,
  "lon": -2.1088868
},
{
  "type": "node",
  "id": 4584171249,
  "lat": 53.6999936,
  "lon": -2.2792766
},
{
  "type": "node",
  "id": 4584171250,
  "lat": 53.6999843,
  "lon": -2.2789049
},
{
  "type": "node",
  "id": 4584171251,
  "lat": 53.6997104,
  "lon": -2.2789325
},
{
  "type": "node",
  "id": 4584171252,
  "lat": 53.6997104,
  "lon": -2.2788258
},
{
  "type": "node",
  "id": 4584171253,
  "lat": 53.6994482,
  "lon": -2.2788495
},
{
  "type": "node",
  "id": 4584171254,
  "lat": 53.6994482,
  "lon": -2.2790393
},
{
  "type": "node",
  "id": 4584171255,
  "lat": 53.6992913,
  "lon": -2.2790512
},
{
  "type": "node",
  "id": 4584171256,
  "lat": 53.6993007,
  "lon": -2.2793240
},
{
  "type": "node",
  "id": 4584171257,
  "lat": 53.6997057,
  "lon": -2.2792884
},
{
  "type": "node",
  "id": 4584171258,
  "lat": 53.6997104,
  "lon": -2.2793636
},
{
  "type": "node",
  "id": 4584171259,
  "lat": 53.6997572,
  "lon": -2.2793596
},
{
  "type": "node",
  "id": 4584171260,
  "lat": 53.6997548,
  "lon": -2.2792805
},
{
  "type": "node",
  "id": 4584171262,
  "lat": 53.6998016,
  "lon": -2.2789233
},
{
  "type": "node",
  "id": 6744586059,
  "lat": 53.6993250,
  "lon": -2.2793219
},
{
  "type": "node",
  "id": 2539845304,
  "lat": 53.6149229,
  "lon": -2.1624571
},
{
  "type": "node",
  "id": 2539845306,
  "lat": 53.6149558,
  "lon": -2.1626176
},
{
  "type": "node",
  "id": 2539845308,
  "lat": 53.6149735,
  "lon": -2.1624339
},
{
  "type": "node",
  "id": 2539845310,
  "lat": 53.6150236,
  "lon": -2.1621793
},
{
  "type": "node",
  "id": 2539845312,
  "lat": 53.6150363,
  "lon": -2.1621898
},
{
  "type": "node",
  "id": 2539845314,
  "lat": 53.6150620,
  "lon": -2.1620342
},
{
  "type": "node",
  "id": 2539845315,
  "lat": 53.6150657,
  "lon": -2.1619324
},
{
  "type": "node",
  "id": 2539845317,
  "lat": 53.6150739,
  "lon": -2.1623878
},
{
  "type": "node",
  "id": 2539845319,
  "lat": 53.6150876,
  "lon": -2.1620589
},
{
  "type": "node",
  "id": 2539845321,
  "lat": 53.6151094,
  "lon": -2.1622503
},
{
  "type": "node",
  "id": 2539845323,
  "lat": 53.6151133,
  "lon": -2.1619817
},
{
  "type": "node",
  "id": 2539845325,
  "lat": 53.6151719,
  "lon": -2.1623429
},
{
  "type": "node",
  "id": 2539845327,
  "lat": 53.6151755,
  "lon": -2.1615558
},
{
  "type": "node",
  "id": 2539845329,
  "lat": 53.6151920,
  "lon": -2.1625034
},
{
  "type": "node",
  "id": 2539845331,
  "lat": 53.6152213,
  "lon": -2.1623429
},
{
  "type": "node",
  "id": 2539845333,
  "lat": 53.6152414,
  "lon": -2.1620280
},
{
  "type": "node",
  "id": 2539845335,
  "lat": 53.6152579,
  "lon": -2.1620404
},
{
  "type": "node",
  "id": 2539845337,
  "lat": 53.6152964,
  "lon": -2.1616515
},
{
  "type": "node",
  "id": 1863251241,
  "lat": 53.6186398,
  "lon": -2.1592579
},
{
  "type": "node",
  "id": 2622713833,
  "lat": 53.6186168,
  "lon": -2.1594816
},
{
  "type": "node",
  "id": 2622713834,
  "lat": 53.6185918,
  "lon": -2.1594781
},
{
  "type": "node",
  "id": 2622713835,
  "lat": 53.6185775,
  "lon": -2.1594459
},
{
  "type": "node",
  "id": 2622713836,
  "lat": 53.6185504,
  "lon": -2.1594299
},
{
  "type": "node",
  "id": 2622713837,
  "lat": 53.6185457,
  "lon": -2.1593092
},
{
  "type": "node",
  "id": 2622713838,
  "lat": 53.6185457,
  "lon": -2.1592099
},
{
  "type": "node",
  "id": 2622713839,
  "lat": 53.6185775,
  "lon": -2.1591938
},
{
  "type": "node",
  "id": 2622713840,
  "lat": 53.6186109,
  "lon": -2.1591965
},
{
  "type": "node",
  "id": 2622713841,
  "lat": 53.6186300,
  "lon": -2.1591831
},
{
  "type": "node",
  "id": 2622713842,
  "lat": 53.6186459,
  "lon": -2.1591885
},
{
  "type": "node",
  "id": 2622713843,
  "lat": 53.6186286,
  "lon": -2.1593665
},
{
  "type": "node",
  "id": 886681478,
  "lat": 53.3434085,
  "lon": -1.7776375
},
{
  "type": "node",
  "id": 886681480,
  "lat": 53.3436638,
  "lon": -1.7777756
},
{
  "type": "node",
  "id": 886681484,
  "lat": 53.3436373,
  "lon": -1.7779127
},
{
  "type": "node",
  "id": 886681486,
  "lat": 53.3432129,
  "lon": -1.7776831
},
{
  "type": "node",
  "id": 886681488,
  "lat": 53.3433522,
  "lon": -1.7774218
},
{
  "type": "node",
  "id": 886681490,
  "lat": 53.3434408,
  "lon": -1.7774698
},
{
  "type": "node",
  "id": 4288806022,
  "lat": 53.3432396,
  "lon": -1.7775444
},
{
  "type": "node",
  "id": 4288806033,
  "lat": 53.3433201,
  "lon": -1.7775879
},
{
  "type": "node",
  "id": 4288806046,
  "lat": 53.3434249,
  "lon": -1.7775523
},
{
  "type": "node",
  "id": 767454471,
  "lat": 53.4048185,
  "lon": -1.7433130
},
{
  "type": "node",
  "id": 767454911,
  "lat": 53.4048550,
  "lon": -1.7433296
},
{
  "type": "node",
  "id": 767455303,
  "lat": 53.4047929,
  "lon": -1.7433013
},
{
  "type": "node",
  "id": 767455305,
  "lat": 53.4047449,
  "lon": -1.7432794
},
{
  "type": "node",
  "id": 767454723,
  "lat": 53.4048832,
  "lon": -1.7431345
},
{
  "type": "node",
  "id": 767454908,
  "lat": 53.4048469,
  "lon": -1.7431163
},
{
  "type": "node",
  "id": 767455304,
  "lat": 53.4047750,
  "lon": -1.7430803
},
{
  "type": "node",
  "id": 767455309,
  "lat": 53.4048215,
  "lon": -1.7431036
},
{
  "type": "node",
  "id": 2905517715,
  "lat": 53.6030063,
  "lon": -1.9291080
},
{
  "type": "node",
  "id": 2905517718,
  "lat": 53.6030400,
  "lon": -1.9288636
},
{
  "type": "node",
  "id": 2905517720,
  "lat": 53.6030548,
  "lon": -1.9291470
},
{
  "type": "node",
  "id": 2905517721,
  "lat": 53.6030574,
  "lon": -1.9291280
},
{
  "type": "node",
  "id": 2905517722,
  "lat": 53.6030872,
  "lon": -1.9288821
},
{
  "type": "node",
  "id": 2905517723,
  "lat": 53.6030901,
  "lon": -1.9288610
},
{
  "type": "node",
  "id": 2905517724,
  "lat": 53.6030995,
  "lon": -1.9291645
},
{
  "type": "node",
  "id": 2905517725,
  "lat": 53.6031081,
  "lon": -1.9291021
},
{
  "type": "node",
  "id": 2905517726,
  "lat": 53.6031222,
  "lon": -1.9291076
},
{
  "type": "node",
  "id": 2905517727,
  "lat": 53.6031528,
  "lon": -1.9288855
},
{
  "type": "node",
  "id": 6205691192,
  "lat": 53.6387134,
  "lon": -1.8563546
},
{
  "type": "node",
  "id": 6205691193,
  "lat": 53.6387143,
  "lon": -1.8568193
},
{
  "type": "node",
  "id": 6205691194,
  "lat": 53.6386432,
  "lon": -1.8568224
},
{
  "type": "node",
  "id": 6205691195,
  "lat": 53.6386450,
  "lon": -1.8565490
},
{
  "type": "node",
  "id": 6205691196,
  "lat": 53.6386666,
  "lon": -1.8564518
},
{
  "type": "node",
  "id": 6205691197,
  "lat": 53.6386765,
  "lon": -1.8564503
},
{
  "type": "node",
  "id": 6205691198,
  "lat": 53.6386864,
  "lon": -1.8563562
},
{
  "type": "node",
  "id": 6205691199,
  "lat": 53.6386779,
  "lon": -1.8563911
},
{
  "type": "node",
  "id": 2915618902,
  "lat": 53.7404056,
  "lon": -2.3548056
},
{
  "type": "node",
  "id": 2915618903,
  "lat": 53.7404280,
  "lon": -2.3547390
},
{
  "type": "node",
  "id": 2915618904,
  "lat": 53.7403667,
  "lon": -2.3546801
},
{
  "type": "node",
  "id": 2915618905,
  "lat": 53.7403848,
  "lon": -2.3546261
},
{
  "type": "node",
  "id": 2915618906,
  "lat": 53.7404292,
  "lon": -2.3546687
},
{
  "type": "node",
  "id": 2915618907,
  "lat": 53.7404962,
  "lon": -2.3544695
},
{
  "type": "node",
  "id": 2915618908,
  "lat": 53.7404699,
  "lon": -2.3544442
},
{
  "type": "node",
  "id": 2915618909,
  "lat": 53.7405021,
  "lon": -2.3543483
},
{
  "type": "node",
  "id": 2915618910,
  "lat": 53.7404345,
  "lon": -2.3542833
},
{
  "type": "node",
  "id": 2915618911,
  "lat": 53.7404258,
  "lon": -2.3543091
},
{
  "type": "node",
  "id": 2915618912,
  "lat": 53.7403290,
  "lon": -2.3542160
},
{
  "type": "node",
  "id": 2915618913,
  "lat": 53.7403431,
  "lon": -2.3541741
},
{
  "type": "node",
  "id": 2915618914,
  "lat": 53.7402881,
  "lon": -2.3541213
},
{
  "type": "node",
  "id": 2915618915,
  "lat": 53.7402560,
  "lon": -2.3542169
},
{
  "type": "node",
  "id": 2915618916,
  "lat": 53.7402356,
  "lon": -2.3541974
},
{
  "type": "node",
  "id": 2915618917,
  "lat": 53.7401916,
  "lon": -2.3543282
},
{
  "type": "node",
  "id": 2915618918,
  "lat": 53.7403638,
  "lon": -2.3544936
},
{
  "type": "node",
  "id": 2915618919,
  "lat": 53.7402947,
  "lon": -2.3546990
},
{
  "type": "way",
  "id": 27930370,
  "nodes": [
    3405888640,
    2151739254,
    2151739253,
    2151739260,
    2151739262,
    2151739264,
    2151739263,
    306573022,
    2509277803,
    306573023,
    1680256861,
    1680256791,
    3405888625,
    306573024,
    3405888623,
    2151739236,
    2151739233,
    3390849590,
    3390849589,
    3390849587,
    3390849588,
    3390849586,
    3390849585,
    3390849591,
    2151739248,
    2151739246,
    2151739247,
    2151739249,
    2151739251,
    3405888640
  ]
},
{
  "type": "way",
  "id": 590377952,
  "nodes": [
    1680256796,
    306572898,
    2509263497,
    1680256861,
    306573023,
    2509277803,
    306573022,
    4537378724,
    984431505,
    984431507,
    984431516,
    5121712246,
    5121712237,
    306573053,
    306573052,
    5121712247,
    3405888644,
    5121712260,
    5121712240,
    306573044,
    1766134375,
    1766133703,
    1766133882,
    1766134417,
    1766133936,
    1766133843,
    306572896,
    306572897,
    1680256796
  ]
},
{
  "type": "way",
  "id": 27930338,
  "nodes": [
    306572895,
    3405888616,
    1680256859,
    1680256827,
    306572896,
    306572897,
    1680256796,
    306572898,
    3405888613,
    1680256855,
    1680256867,
    3405888611,
    306572895
  ]
},
{
  "type": "way",
  "id": 27930372,
  "nodes": [
    306573044,
    1766134375,
    1766133703,
    1766133882,
    1766134417,
    1766134018,
    306573045,
    1766134345,
    306573046,
    1766133666,
    1766134216,
    1766133731,
    5121712240,
    306573044
  ]
},
{
  "type": "way",
  "id": 27930374,
  "nodes": [
    306573052,
    306573053,
    1680256804,
    306573054,
    306573055,
    1680256798,
    306573052
  ]
},
{
  "type": "way",
  "id": 27930299,
  "nodes": [
    306572698,
    306572699,
    306572700,
    3405888607,
    3405888610,
    306572701,
    306572698
  ]
}

  ]
}
