{
  "version": 0.6,
  "generator": "Overpass API 0.7.55.1011 6c2efc30",
  "osm3s": {
    "timestamp_osm_base": "2020-02-14T13:32:02Z",
    "copyright": "The data included in this document is from www.openstreetmap.org. The data is made available under ODbL."
  },
  "elements": [

{
  "type": "node",
  "id": 498483153,
  "lat": 43.2581854,
  "lon": -2.9204165,
  "tags": {
    "addr:city": "Bilbao",
    "addr:housenumber": "3",
    "addr:postcode": "48006",
    "addr:street": "Iturribide kalea",
    "name": "Pasio-Irudien museoa",
    "name:es": "Museo de Pasos",
    "phone": "+34 944 15 04 33",
    "tourism": "museum",
    "website": "http://museodepasosbilbao.org"
  }
},
{
  "type": "node",
  "id": 518227646,
  "lat": 43.2661789,
  "lon": -2.9463066,
  "tags": {
    "name": "Museo Marítimo Ría de Bilbao - Bilboko itsasadarra Itsas Museoa",
    "name:es": "Museo Marítimo Ría de Bilbao",
    "name:eu": "Bilboko itsasadarra Itsas Museoa",
    "tourism": "museum",
    "wikidata": "Q3042272"
  }
},
{
  "type": "node",
  "id": 703782675,
  "lat": 43.2369192,
  "lon": -2.8807183,
  "tags": {
    "name": "Torre de Ariz",
    "tourism": "museum"
  }
},
{
  "type": "node",
  "id": 1271964866,
  "lat": 43.2645212,
  "lon": -2.9345677,
  "tags": {
    "designation": "Rekalde aretoa",
    "name": "Rekalde aretoa",
    "tourism": "museum",
    "website": "http://www.salarekalde.bizkaia.net/"
  }
},
{
  "type": "node",
  "id": 2278920655,
  "lat": 43.3150587,
  "lon": -2.6783866,
  "tags": {
    "name": "Museo de la Paz de Gernika",
    "tourism": "museum",
    "website": "https://www.museodelapaz.org/"
  }
},
{
  "type": "node",
  "id": 2390791061,
  "lat": 43.2445985,
  "lon": -3.2608942,
  "tags": {
    "name": "Centro de Interpretación de la Etnografía y Cultura de las Encartaciones",
    "tourism": "museum"
  }
},
{
  "type": "node",
  "id": 3181904465,
  "lat": 43.2291382,
  "lon": -3.1613613,
  "tags": {
    "name": "Museo de las Encartaciones",
    "tourism": "museum"
  }
},
{
  "type": "node",
  "id": 3687308045,
  "lat": 43.2499658,
  "lon": -2.5480132,
  "tags": {
    "name": "Simon Bolivar museoa",
    "tourism": "museum"
  }
},
{
  "type": "node",
  "id": 3688576020,
  "lat": 43.2623416,
  "lon": -2.5912484,
  "tags": {
    "name": "Bengola. Natur energia interpretatzeko zentroa",
    "phone": "+34 649 79 5484",
    "tourism": "museum",
    "website": "http://www.leaibarra.com"
  }
},
{
  "type": "node",
  "id": 3741651287,
  "lat": 43.3305673,
  "lon": -3.0309657,
  "tags": {
    "name": "Santurtzi Itsasoa Museoa-Museo del Mar",
    "operator": "Ayuntamiento de Santurtzi",
    "tourism": "museum"
  }
},
{
  "type": "node",
  "id": 3922519111,
  "lat": 43.2557512,
  "lon": -2.9372361,
  "tags": {
    "name": "Bilboko zezen museoa / Museo Taurino de Bilbao",
    "tourism": "museum"
  }
},
{
  "type": "node",
  "id": 4096978022,
  "lat": 43.4167416,
  "lon": -2.8127479,
  "tags": {
    "addr:city": "Bakio",
    "addr:postcode": "48130",
    "name": "Txakolingunea",
    "tourism": "museum"
  }
},
{
  "type": "node",
  "id": 4499188503,
  "lat": 42.9545074,
  "lon": -2.9030465,
  "tags": {
    "name": "Museo etnográfico Irubidaur",
    "operator": "Ayuntamiento de Urkabustaiz",
    "phone": "+34 609 49 43 01",
    "tourism": "museum",
    "website": "http://www.urkabustaiz.eu/turismo/museo-etnografico-irubidaur-izarra/"
  }
},
{
  "type": "node",
  "id": 4605792823,
  "lat": 43.3846618,
  "lon": -3.2148197,
  "tags": {
    "addr:postcode": "39700",
    "addr:street": "Explanada de Santa María",
    "name": "Sala de exposiciones Castillo-Faro",
    "source": "Ayuntamiento de Castro Urdiales",
    "tourism": "museum"
  }
},
{
  "type": "node",
  "id": 4853505563,
  "lat": 43.1375940,
  "lon": -2.6611230,
  "tags": {
    "name": "Hontza Museoa",
    "tourism": "museum",
    "wikidata": "Q63171082"
  }
},
{
  "type": "node",
  "id": 5016330920,
  "lat": 43.4047766,
  "lon": -2.9480945,
  "tags": {
    "name": "Museo Plasentia Butron",
    "tourism": "museum",
    "website": "https://museoplentzia.org/"
  }
},
{
  "type": "node",
  "id": 5308301923,
  "lat": 43.2640855,
  "lon": -2.9481789,
  "tags": {
    "addr:street": "Telmo Zarra kalea / Calle Telmo Zarra",
    "name": "Athletic Club Museoa",
    "name:es": "Museo del Athletic Club",
    "tourism": "museum"
  }
},
{
  "type": "node",
  "id": 5396979299,
  "lat": 43.1681151,
  "lon": -2.6278858,
  "tags": {
    "addr:city": "Durango",
    "addr:postcode": "48200",
    "addr:street": "Kurutziaga Kalea",
    "description": "El museo que está en la oficina de turismo, acoge la Cruz de Kurutziaga  del siglo XVI",
    "name": "Kurutzesantu Museoa",
    "operator": "Ayuntamiento",
    "tourism": "museum"
  }
},
{
  "type": "node",
  "id": 6255457710,
  "lat": 43.3847178,
  "lon": -3.2169623,
  "tags": {
    "name": "Museo del Mar Calafate",
    "tourism": "museum"
  }
},
{
  "type": "node",
  "id": 6352693565,
  "lat": 43.3642852,
  "lon": -2.9958682,
  "tags": {
    "addr:city": "Berango",
    "addr:housenumber": "64",
    "addr:postcode": "48640",
    "addr:street": "Avenida Simon Otxandategi",
    "name": "Museo Memorial del Cinturòn de Hierro",
    "tourism": "museum",
    "website": "http://www.berango.net/es-ES/Turismo/Cinturon-Hierro/Paginas/default.aspx"
  }
},
{
  "type": "node",
  "id": 6591958331,
  "lat": 43.2657827,
  "lon": -2.9420205,
  "tags": {
    "name:ru": "парк Донья Касильда",
    "tourism": "museum"
  }
},
{
  "type": "node",
  "id": 7190109505,
  "lat": 43.2637973,
  "lon": -3.0152818,
  "tags": {
    "name": "Centro de interpretación histórica y medioambiental de Baracaldo",
    "name:es": "Centro de interpretación histórica y medioambiental de Baracaldo",
    "name:eu": "Barakaldoko Historia eta Ingurumen Interpretaziorako Zentroa",
    "tourism": "museum",
    "wikidata": "Q12254764"
  }
},
{
  "type": "way",
  "id": 27537472,
  "nodes": [
    302320940,
    302320941,
    302320942,
    302320943,
    302320940
  ],
  "tags": {
    "building": "yes",
    "name": "Rialia",
    "phone": "+34 94 472 43 84",
    "tourism": "museum",
    "website": "http://www.rialia.net"
  }
},
{
  "type": "way",
  "id": 28211432,
  "nodes": [
    309860627,
    309860629,
    1781896344,
    1781896346,
    1781896315,
    1781896312,
    309860630,
    309860632,
    309860633,
    309860635,
    309860627
  ],
  "tags": {
    "addr:city": "Bilbao",
    "addr:housenumber": "2",
    "addr:postcode": "48009",
    "addr:state": "Asturias",
    "addr:street": "Museo Plaza",
    "building": "yes",
    "fax": "+34 944396145",
    "name": "Museo de Bellas Artes de Bilbao",
    "name:de": "Museum der schönen Künste in Bilbao",
    "name:en": "Bilbao Fine Arts Museum",
    "name:es": "Museo de Bellas Artes de Bilbao",
    "name:eu": "Bilboko Arte Eder museoa",
    "opening_hours": "Tu-Su 10:00-20:00; Mo off; Jan 1 off; Jan 6 off; Dec 24 10:00-14:00; Dec 25 off; Dec 31 10:00-14:00",
    "phone": "+34 944396060",
    "tourism": "museum",
    "website": "http://www.museobilbao.com/",
    "wikidata": "Q127064",
    "wikipedia": "es:Museo de Bellas Artes de Bilbao"
  }
},
{
  "type": "way",
  "id": 40842243,
  "nodes": [
    496834986,
    496834987,
    496834988,
    496834989,
    496834986
  ],
  "tags": {
    "building": "yes",
    "name": "Getxo Aquarium",
    "tourism": "museum"
  }
},
{
  "type": "way",
  "id": 41525575,
  "nodes": [
    508518303,
    4136231943,
    508518139,
    5094404970,
    508518125,
    1846136795,
    1846136798,
    510253502,
    508518323,
    1846136799,
    510253610,
    1275729154,
    1275729150,
    508518303
  ],
  "tags": {
    "addr:city": "Bilbao",
    "addr:housenumber": "4",
    "addr:postcode": "48006",
    "addr:street": "Miguel de Unamuno plaza",
    "building": "yes",
    "name": "Euskal Museoa",
    "phone": "+34 -944155423",
    "tourism": "museum",
    "website": "https://www.euskal-museoa.eus/",
    "wikidata": "Q3303976"
  }
},
{
  "type": "way",
  "id": 45418149,
  "nodes": [
    577491523,
    577491522,
    1442724413,
    1442724409,
    577491523
  ],
  "tags": {
    "addr:housename": "Palacio Mendibile",
    "building": "yes",
    "name": "Museo del Txakoli",
    "tourism": "museum"
  }
},
{
  "type": "way",
  "id": 107090130,
  "nodes": [
    1231204991,
    1231204988,
    1231205000,
    1583353287,
    1231204984,
    2606294479,
    1231204993,
    2606294482,
    1231204991
  ],
  "tags": {
    "building": "yes",
    "contact:email": "p-negras@euskadi.eus",
    "name": "Centro de Interpretación Ambiental Peñas Negras",
    "opening_hours": "10:00-14:00,16:00-18:00",
    "phone": "+34 946 338 097",
    "tourism": "museum"
  }
},
{
  "type": "way",
  "id": 107110587,
  "nodes": [
    1231532250,
    1231532252,
    1231532249,
    1231532258,
    1231532238,
    1231532262,
    1231532265,
    1231532264,
    1231532237,
    1231532263,
    1231532239,
    1231532260,
    1231532246,
    1231532253,
    1231532248,
    1231532245,
    1231532242,
    1231532240,
    1231532250
  ],
  "tags": {
    "addr:city": "Abanto y Ciérvana-Abanto Zierbena",
    "addr:postcode": "48500",
    "addr:street": "Barrio Campodiego auzoa",
    "building": "yes",
    "name": "Museo de la Minería del País Vasco/Euskal Herriko Meatzaritzaren Museoa",
    "name:en": "Basque Country's Mining Museum",
    "name:es": "Museo de la Minería del País Vasco",
    "name:eu": "Euskal Herriko Meatzaritzaren Museoa",
    "tourism": "museum"
  }
},
{
  "type": "way",
  "id": 109089302,
  "nodes": [
    1249942229,
    5262506648,
    5262506645,
    1249942172,
    1249942156,
    4605472237,
    1249942234,
    5271647597,
    1249942229
  ],
  "tags": {
    "historic": "archaeological_site",
    "name": "Centro de Interpretación Yacimiento Arqueológico Flaviobriga",
    "tourism": "museum"
  }
},
{
  "type": "way",
  "id": 109862339,
  "nodes": [
    668884057,
    668884055,
    4265181335,
    4265181336,
    668884088,
    668884091,
    4265181339,
    1256638259,
    668884057
  ],
  "tags": {
    "building": "yes",
    "name": "Torre de Salazar",
    "tourism": "museum",
    "wikidata": "Q11704645"
  }
},
{
  "type": "way",
  "id": 118499485,
  "nodes": [
    1332673235,
    558723262,
    1332673280,
    558723265,
    558723255,
    558723258,
    1332673270,
    1332673227,
    1332673216,
    558723259,
    558723290,
    1332673257,
    1332673259,
    558723288,
    558723285,
    558723287,
    558723284,
    558723286,
    558723283,
    558723268,
    558723281,
    558723270,
    1332673325,
    1332673184,
    1332673308,
    1332673187,
    1332673198,
    1332673330,
    1332673237,
    1332673301,
    1332673296,
    1332673253,
    1332673294,
    1332673324,
    1332673279,
    1332709676,
    1332709650,
    1332709707,
    1332709672,
    1332709671,
    1332709713,
    1332682553,
    1332682366,
    1332673264,
    1332673246,
    1332673186,
    1332673329,
    1332673333,
    1332673242,
    1332673295,
    1332673314,
    1332673194,
    1332673293,
    1332673300,
    1332682398,
    1332673213,
    1332673228,
    1332673304,
    1332673188,
    1332673234,
    1332673212,
    1332673192,
    1332673221,
    1332673203,
    1332673336,
    1332673290,
    1332673297,
    1332673312,
    1332673200,
    1332673205,
    1332673261,
    1332673327,
    1332673283,
    1332673248,
    1332673250,
    1332673223,
    1332673274,
    1332673292,
    1332673206,
    1332673331,
    1332673256,
    1332673231,
    1332673260,
    1332673305,
    1332673307,
    1332698095,
    1332673282,
    1332673287,
    1332673224,
    1332673288,
    1332673326,
    1332673220,
    1332673268,
    1332673284,
    1332673238,
    1332673313,
    1332673230,
    1332673277,
    1332673269,
    1854432681,
    1332673286,
    1332673195,
    1332673249,
    1332673193,
    1332673278,
    1332673233,
    1332673276,
    1332673202,
    1332673191,
    1332673190,
    1332673271,
    1332673302,
    1332673303,
    1332719301,
    1332673309,
    1332673311,
    1332673210,
    1332673236,
    1332673241,
    1332673232,
    1332673217,
    1332673263,
    1332673285,
    1332673208,
    1332673197,
    1332673209,
    1332673215,
    1332673323,
    1332673199,
    1332673225,
    1332673218,
    1332673239,
    1332673235
  ],
  "tags": {
    "addr:city": "Bilbao",
    "addr:housenumber": "2",
    "addr:postcode": "48009",
    "addr:street": "Lehendakari Leizaola Kalea",
    "architect": "Frank Gehry",
    "building": "museum",
    "building:levels": "3",
    "layer": "1",
    "name": "Museo Guggenheim Bilbao",
    "name:de": "Guggenheim-Museum Bilbao",
    "name:en": "Guggenheim Museum Bilbao",
    "name:es": "Museo Guggenheim Bilbao",
    "name:et": "Bilbao Guggenheimi muuseum",
    "name:he": "מוזיאון גוגנהיים בילבאו",
    "name:lb": "Guggenheim-Musée Bilbao",
    "name:pl": "Muzeum Guggenheima w Bilbao",
    "name:ru": "Музей Гуггенхайма в Бильбао",
    "name:uk": "Музей Гуггенгайма в Більбао",
    "opening_hours": "Tu-Su 10:00-19:30;Mo off;Dec 24 10:00-17:00;Dec 25 off;Dec 31 10:00-17:00;Jan 1 off",
    "phone": "+34 944359000",
    "tourism": "museum",
    "website": "http://www.guggenheim-bilbao.es/",
    "wheelchair": "limited",
    "wikidata": "Q179199",
    "wikipedia": "es:Museo Guggenheim Bilbao"
  }
},
{
  "type": "way",
  "id": 173853329,
  "nodes": [
    1846136834,
    1846136831,
    1736371559,
    1736371674,
    1736371713,
    1736371715,
    1736371607,
    1736371766,
    1736371592,
    1736371677,
    1846136823,
    1736371692,
    1736371589,
    1846136830,
    1846136835,
    1846136839,
    1846136845,
    1846136854,
    1846136867,
    1846136855,
    1846136846,
    1846136851,
    1846136847,
    1846136834
  ],
  "tags": {
    "addr:city": "Bilbao",
    "addr:housenumber": "2",
    "addr:postcode": "48006",
    "addr:street": "Maionako galtzadak",
    "building": "yes",
    "name": "Museo Arqueológico de Bizkaia",
    "phone": "+34 944 04 09 90",
    "tourism": "museum",
    "website": "http://bizkaikoa.bizkaia.net"
  }
},
{
  "type": "way",
  "id": 178237266,
  "nodes": [
    1886061534,
    5973330403,
    5973330404,
    1886061530,
    1886061528,
    3503127439,
    1886061524,
    1886061519,
    3503127441,
    1886061522,
    1886061526,
    1886061532,
    5973330406,
    5973330405,
    1886061534
  ],
  "tags": {
    "building": "yes",
    "name": "Madariaga dorretxea",
    "name:es": "Torre Madariaga",
    "name:eu": "Madariaga dorretxea",
    "name:fr": "Tour Madariaga",
    "tourism": "museum",
    "website": "http://www.ekoetxea.eus"
  }
},
{
  "type": "way",
  "id": 183914988,
  "nodes": [
    1943381788,
    4475484446,
    1943381791,
    1943381783,
    4656668336,
    4475484445,
    4475484333,
    4475484469,
    1943381782,
    4475484328,
    6485404689,
    1943381750,
    6485404688,
    6485404687,
    1943381746,
    1943381723,
    1943381719,
    1943381715,
    5624878117,
    1943381731,
    1943381734,
    4475484506,
    4656668321,
    4656668322,
    1943381742,
    4475484297,
    4475484298,
    1943381780,
    4475484291,
    4475484290,
    4475484289,
    4475484188,
    4475484187,
    4475484186,
    4475484185,
    4475484184,
    4475484331,
    4475484332,
    4475484183,
    4475484182,
    1943381788
  ],
  "tags": {
    "alt_name": "Museo de coches antiguos y clásicos Colección Miguel de la Vía",
    "name": "Torre Loizaga - Museo de Coches Antiguos",
    "tourism": "museum",
    "website": "http://www.torreloizaga.com/",
    "wikidata": "Q234803",
    "wikipedia": "es:Rolls-Royce#Torre Loizaga.2C Museo de Coches Antiguos y Cl.C3.A1sicos en Galdames"
  }
},
{
  "type": "way",
  "id": 188035342,
  "nodes": [
    1986570328,
    1986570307,
    1986570302,
    1986570320,
    1986570328
  ],
  "tags": {
    "addr:city": "Artea",
    "addr:housenumber": "1",
    "addr:postcode": "48142",
    "addr:street": "Barrio Herriko Plaza",
    "amenity": "restaurant",
    "building": "yes",
    "name": "Eko Museoa Euskal Baserria",
    "phone": "+34 946317086",
    "start_date": "C16",
    "tourism": "museum",
    "website": "http://euskalbaserria.com/"
  }
},
{
  "type": "way",
  "id": 205545412,
  "nodes": [
    2155039313,
    2155039293,
    2155039295,
    2155039319,
    2155039313
  ],
  "tags": {
    "addr:city": "Muskiz",
    "addr:postcode": "48550",
    "addr:street": "Barrio de El Pobal , Ctra. Muskiz-Sopuerta",
    "name": "Ferrería El Pobal",
    "nohousenumber": "yes",
    "phone": "+34 629 271 516",
    "tourism": "museum",
    "website": "http://www.bizkaia.net/elpobal",
    "wheelchair": "yes",
    "wheelchair:description": "Edificio del siglo XXI accesible para sillas de ruedas en la mayoría del recorrido. Dispone de WC adaptado. Espacios pequeños y estrechos, aunque suficientes para un máximo de 5 sillas a la vez"
  }
},
{
  "type": "way",
  "id": 251111027,
  "nodes": [
    2573958875,
    5770248971,
    5770248966,
    2573958873,
    5770248965,
    2573958889,
    2573958887,
    2573958891,
    2573958895,
    2573958875
  ],
  "tags": {
    "building": "yes",
    "contact:facebook": "https://www.facebook.com/laencartada/",
    "name": "Boinas La Encartada Museoa",
    "tourism": "museum"
  }
},
{
  "type": "way",
  "id": 277289842,
  "nodes": [
    2818206031,
    2818206032,
    2818206033,
    2818206034,
    2818206035,
    2818206036,
    2818206037,
    2818206038,
    2818206039,
    2818206040,
    2818206041,
    2818206042,
    2818206043,
    2818206031
  ],
  "tags": {
    "building": "yes",
    "name": "Museo de la Minería y Centro de Interpretación de Concha II",
    "name:en": "Basque Country's Mining Museum",
    "tourism": "museum"
  }
},
{
  "type": "way",
  "id": 277290364,
  "nodes": [
    2818216230,
    2818216231,
    2818216232,
    2818216233,
    2818216234,
    2818216235,
    5485169203,
    2818216236,
    5485169196,
    2818216237,
    5485169197,
    2818216238,
    2824083780,
    5485169195,
    2818216239,
    2818216240,
    2818216241,
    2818216242,
    2818216243,
    2818216244,
    2818216245,
    2818216246,
    2818216247,
    2818216248,
    2818216249,
    5485169194,
    2818216250,
    2818216251,
    2818216252,
    2818216253,
    2818216254,
    2818216255,
    2818216256,
    2818216257,
    5485169202,
    2818216258,
    2818216259,
    2818216230
  ],
  "tags": {
    "name": "Museo de la Minería del País Vasco",
    "tourism": "museum"
  }
},
{
  "type": "way",
  "id": 289996030,
  "nodes": [
    2935298552,
    2935298340,
    2935298339,
    2935298549,
    2935298552
  ],
  "tags": {
    "building": "yes",
    "name": "Euskal Herriko Museoa",
    "name:eu": "Euskal Herriko Museoa",
    "name:fr": "Museo Euskal Herria",
    "tourism": "museum"
  }
},
{
  "type": "way",
  "id": 302860810,
  "nodes": [
    3071414806,
    3071414807,
    3071414808,
    3071414809,
    3071414810,
    3071414811,
    3071414812,
    3071414813,
    3071414814,
    3071414815,
    3071414816,
    3071414817,
    3071414806
  ],
  "tags": {
    "building": "yes",
    "name": "Escuelas de Barrio de Larrazabal",
    "tourism": "museum"
  }
},
{
  "type": "way",
  "id": 302860888,
  "nodes": [
    3071417540,
    3071417541,
    3071417542,
    3071417543,
    3071417544,
    3071417545,
    3071417546,
    3071417547,
    3071417548,
    3071417549,
    3071417550,
    3071417551,
    3071417540
  ],
  "tags": {
    "building": "yes",
    "name": "Escuelas de Barrio de Larrazabal",
    "tourism": "museum"
  }
},
{
  "type": "way",
  "id": 304391413,
  "nodes": [
    3089199590,
    3089199591,
    3089199592,
    3089199593,
    3089199594,
    3089199595,
    3089199596,
    3089199597,
    3089199598,
    3089199589,
    3089199590
  ],
  "tags": {
    "building": "yes",
    "email": "urkiola.parke.naturala@bizkaia.eus",
    "information": "office",
    "name": "Centro de Interpretación Toki Alai",
    "opening_hours": "Mar Su[-1]-Oct Su[-1] Mo-Su 10:00-14:00,16:00-18:00; Oct Su[-1]-Mar Su[-1] Mo-Su 10:30-14:30,15:30-17:30",
    "phone": "+34 946 814 155",
    "tourism": "museum",
    "website": "http://www.urkiola.net/"
  }
},
{
  "type": "way",
  "id": 335587717,
  "nodes": [
    3426838758,
    3426838759,
    3426838760,
    5948936936,
    3426838761,
    3426838758
  ],
  "tags": {
    "building": "yes",
    "name": "Urdaibai Bird Center",
    "tourism": "museum",
    "website": "http://www.birdcenter.org/eu",
    "wikidata": "Q16644871",
    "wikipedia": "es:Urdaibai Bird Center"
  }
},
{
  "type": "way",
  "id": 393518846,
  "nodes": [
    3967202510,
    3967202507,
    3967202509,
    3967202506,
    3967202504,
    3967202500,
    3967202498,
    3967202505,
    3967202510
  ],
  "tags": {
    "building": "yes",
    "name": "Museo Etnográfico de Artzniega",
    "tourism": "museum"
  }
},
{
  "type": "way",
  "id": 404432093,
  "nodes": [
    4067074020,
    3916376215,
    3916376216,
    4067074023,
    4067074024,
    4067074020
  ],
  "tags": {
    "addr:city": "Bilbao",
    "addr:housenumber": "14",
    "addr:postcode": "48003",
    "addr:street": "San Frantzisko kalea",
    "building": "apartments",
    "name": "Museo de reproducciones artísticas",
    "opening_hours": "Mo off; Tu-Sa 10:00-13:30,16:00-19:00; Su 10:00-14:00",
    "tourism": "museum",
    "website": "https://www.museoreproduccionesbilbao.org",
    "wikidata": "Q13221631",
    "wikipedia": "es:Museo de Reproducciones de Bilbao"
  }
},
{
  "type": "way",
  "id": 413299196,
  "nodes": [
    4146396882,
    4146396876,
    4146396880,
    4146396881,
    4146396879,
    4146396877,
    4146396875,
    4146396878,
    4146396882
  ],
  "tags": {
    "addr:city": "Zamudio",
    "addr:housenumber": "602",
    "addr:place": "Parque Tecnológico de Vizcaya",
    "addr:postcode": "48170",
    "addr:street": "Astondo bidea",
    "building": "yes",
    "name": "BTEK, Bizi Teknologia",
    "tourism": "museum"
  }
},
{
  "type": "way",
  "id": 413946430,
  "nodes": [
    4151493709,
    4151493710,
    4151493711,
    4151493712,
    4151493709
  ],
  "tags": {
    "building": "yes",
    "name": "Centro de Interpretación Conducción Histórica del Chorrillo",
    "tourism": "museum"
  }
},
{
  "type": "way",
  "id": 454307318,
  "nodes": [
    4508768065,
    4508768066,
    4508768067,
    4508768068,
    4508768069,
    4508768070,
    4508768071,
    4508768072,
    4508768074,
    4508768075,
    4605472241,
    4605472240,
    4605472239,
    4605472238,
    4508768076,
    4508768077,
    4508768065
  ],
  "tags": {
    "building": "yes",
    "name": "Museo de La Mar y de la Pesca de Castro Urdiales",
    "tourism": "museum"
  }
},
{
  "type": "way",
  "id": 494378508,
  "nodes": [
    2938816856,
    3255167399,
    3255167400,
    2938816853,
    4873689020,
    4861426567,
    4883398187,
    4861426568,
    4861426569,
    4861426570,
    2938816856
  ],
  "tags": {
    "addr:city": "Balmaseda",
    "addr:housenumber": "1",
    "addr:postcode": "48800",
    "addr:street": "Calle Campo de las Monjas",
    "building": "church",
    "name": "Centro de Interpretación de la Pasión de Balmaseda",
    "operator": "Ayto. Balmaseda",
    "tourism": "museum"
  }
},
{
  "type": "way",
  "id": 495192577,
  "nodes": [
    4869720491,
    4869720492,
    4861363654,
    4869720493,
    4869720494,
    6308571673,
    4869720496,
    4869720491
  ],
  "tags": {
    "addr:city": "Balmaseda",
    "addr:postcode": "48800",
    "addr:street": "Calle Martín Mendia",
    "building": "yes",
    "name": "Museo de Historia de Balmaseda",
    "tourism": "museum"
  }
},
{
  "type": "way",
  "id": 503588610,
  "nodes": [
    4938689429,
    4938689430,
    4938689435,
    4938689436,
    4938689433,
    4938689434,
    4938689439,
    4938689440,
    4938689437,
    4938689429
  ],
  "tags": {
    "alt_name": "Casa Palacio Legorburu;Casa Kareaga",
    "building": "yes",
    "building:levels": "3",
    "email": "museoa.orozko@bizkaia.org",
    "name": "Orozkoko Museoa",
    "name:es": "Museo de Orozko",
    "name:fr": "Musée d'Orozko",
    "phone": "+34 946339823",
    "source": "Eusko Jaurlaritza-Gobierno Vasco",
    "start_date": "C18",
    "tourism": "museum",
    "wheelchair": "yes"
  }
},
{
  "type": "way",
  "id": 509267166,
  "nodes": [
    4985174172,
    4985174170,
    4985174171,
    4985174175,
    4985174176,
    4985174173,
    4985174174,
    4985174191,
    4985174193,
    4985174188,
    4985174190,
    4985174199,
    4985174201,
    4985174195,
    4985174197,
    4985174180,
    4985174182,
    4985174177,
    4985174178,
    4985174185,
    4985174186,
    4985174183,
    4985174184,
    4985174247,
    4985174248,
    4985174245,
    4985174246,
    4985174251,
    4985174252,
    4985174249,
    4985174250,
    4985174235,
    4985174236,
    4985174232,
    4985174234,
    4985174242,
    4985174244,
    4985174238,
    4985174240,
    4985174266,
    4985174267,
    4985174264,
    4985174265,
    4985174270,
    4985174271,
    4985174268,
    4985174269,
    4985174255,
    4985174256,
    4985174253,
    4985174254,
    4985174261,
    4985174263,
    4985174257,
    4985174259,
    4985174215,
    4985174218,
    4985174213,
    4985174214,
    4985174224,
    4985174226,
    4985174220,
    4985174222,
    4985174210,
    4985174211,
    4985174207,
    4985174208,
    4985174212,
    4985174172
  ],
  "tags": {
    "building": "yes",
    "name": "Centro de Interpretación Parketxe",
    "source": "Eusko Jaurlaritza-Gobierno Vasco",
    "tourism": "museum"
  }
},
{
  "type": "way",
  "id": 549020228,
  "nodes": [
    5303553451,
    5303553453,
    5303553452,
    5303553454,
    5303553451
  ],
  "tags": {
    "building": "public",
    "name": "Kultur Etxea",
    "tourism": "museum"
  }
},
{
  "type": "way",
  "id": 551078041,
  "nodes": [
    5322170873,
    5322170874,
    5322170875,
    5322170876,
    5322170877,
    1631306188,
    6472304984,
    6472305185,
    5322170873
  ],
  "tags": {
    "addr:city": "Barakaldo",
    "addr:housenumber": "36",
    "addr:postcode": "48902",
    "addr:street": "Calle Economía / Economia kalea",
    "building": "yes",
    "name": "Fundación de Trabajadores de la Siderurgia Integral",
    "tourism": "museum",
    "website": "http://www.ftsi.es/"
  }
},
{
  "type": "way",
  "id": 607101080,
  "nodes": [
    5754311420,
    5754311421,
    5754311422,
    5754311423,
    5754311429,
    5754311424,
    5754311420
  ],
  "tags": {
    "building": "yes",
    "name": "Museo de Interpretación de la Pesca Agurtza",
    "name:en": "Agurtza Museum of the Fishing",
    "name:es": "Museo de Interpretación de la Pesca Agurtza",
    "tourism": "museum"
  }
},
{
  "type": "way",
  "id": 655255674,
  "nodes": [
    6139481584,
    6139481547,
    6139482486,
    6139482512,
    6139481550,
    6139482489,
    6139481577,
    6139481538,
    6139481584
  ],
  "tags": {
    "addr:city": "Bermeo",
    "addr:postcode": "48370",
    "building": "museum",
    "name": "Arrantzaleen Museoa",
    "source": "catastro bizkaia.eus",
    "tourism": "museum",
    "website": "http://bizkaikoa.bizkaia.eus/detalleContenido.asp?id=52&t=1",
    "wikidata": "Q63171181"
  }
},
{
  "type": "way",
  "id": 754822680,
  "nodes": [
    7051236179,
    7051236178,
    7051236177,
    7051236176,
    7051236175,
    7051236174,
    7051236173,
    7051236172,
    7051236179
  ],
  "tags": {
    "addr:city": "Barakaldo",
    "addr:housenumber": "30",
    "addr:postcode": "48903",
    "addr:street": "Calle Anbia / Anbia kalea",
    "building": "yes",
    "name": "Centro de Interpretación Histórica y Medioambiental de Barakaldo (CIHMA)",
    "tourism": "museum"
  }
},
{
  "type": "relation",
  "id": 2727759,
  "members": [
    {
      "type": "way",
      "ref": 203255962,
      "role": "outer"
    },
    {
      "type": "way",
      "ref": 185284417,
      "role": "inner"
    }
  ],
  "tags": {
    "name": "Elizbarrutiko Arte Sakratuko Museoa / Museo Diocesano de Arte Sacro",
    "name:es": "Museo Diocesano de Arte Sacro",
    "name:eu": "Elizbarrutiko Arte Sakratuko Museoa",
    "tourism": "museum",
    "type": "multipolygon",
    "wikidata": "Q24566183"
  }
},
{
  "type": "node",
  "id": 2573958873,
  "lat": 43.1756445,
  "lon": -3.2126264
},
{
  "type": "node",
  "id": 2573958875,
  "lat": 43.1757435,
  "lon": -3.2131091
},
{
  "type": "node",
  "id": 2573958887,
  "lat": 43.1760709,
  "lon": -3.2123684
},
{
  "type": "node",
  "id": 2573958889,
  "lat": 43.1760886,
  "lon": -3.2124551
},
{
  "type": "node",
  "id": 2573958891,
  "lat": 43.1761629,
  "lon": -3.2123329
},
{
  "type": "node",
  "id": 2573958895,
  "lat": 43.1762797,
  "lon": -3.2129023
},
{
  "type": "node",
  "id": 5770248965,
  "lat": 43.1757607,
  "lon": -3.2125816
},
{
  "type": "node",
  "id": 5770248966,
  "lat": 43.1756774,
  "lon": -3.2127867
},
{
  "type": "node",
  "id": 5770248971,
  "lat": 43.1757356,
  "lon": -3.2130706
},
{
  "type": "node",
  "id": 2938816853,
  "lat": 43.1925580,
  "lon": -3.1977936
},
{
  "type": "node",
  "id": 2938816856,
  "lat": 43.1926074,
  "lon": -3.1974950
},
{
  "type": "node",
  "id": 3255167399,
  "lat": 43.1926705,
  "lon": -3.1976076
},
{
  "type": "node",
  "id": 3255167400,
  "lat": 43.1925462,
  "lon": -3.1977586
},
{
  "type": "node",
  "id": 4861363654,
  "lat": 43.1933700,
  "lon": -3.1949036
},
{
  "type": "node",
  "id": 4861426567,
  "lat": 43.1924872,
  "lon": -3.1978722
},
{
  "type": "node",
  "id": 4861426568,
  "lat": 43.1923842,
  "lon": -3.1977041
},
{
  "type": "node",
  "id": 4861426569,
  "lat": 43.1924583,
  "lon": -3.1976236
},
{
  "type": "node",
  "id": 4861426570,
  "lat": 43.1924770,
  "lon": -3.1976469
},
{
  "type": "node",
  "id": 4869720491,
  "lat": 43.1936498,
  "lon": -3.1946845
},
{
  "type": "node",
  "id": 4869720492,
  "lat": 43.1935735,
  "lon": -3.1946000
},
{
  "type": "node",
  "id": 4869720493,
  "lat": 43.1934611,
  "lon": -3.1950198
},
{
  "type": "node",
  "id": 4869720494,
  "lat": 43.1934963,
  "lon": -3.1950117
},
{
  "type": "node",
  "id": 4869720496,
  "lat": 43.1936293,
  "lon": -3.1947167
},
{
  "type": "node",
  "id": 4873689020,
  "lat": 43.1925402,
  "lon": -3.1978133
},
{
  "type": "node",
  "id": 4883398187,
  "lat": 43.1924020,
  "lon": -3.1977331
},
{
  "type": "node",
  "id": 6308571673,
  "lat": 43.1936518,
  "lon": -3.1947431
},
{
  "type": "node",
  "id": 3967202505,
  "lat": 43.1232137,
  "lon": -3.1326545
},
{
  "type": "node",
  "id": 3967202498,
  "lat": 43.1229749,
  "lon": -3.1323213
},
{
  "type": "node",
  "id": 3967202500,
  "lat": 43.1231224,
  "lon": -3.1321229
},
{
  "type": "node",
  "id": 3967202504,
  "lat": 43.1231931,
  "lon": -3.1322216
},
{
  "type": "node",
  "id": 3967202506,
  "lat": 43.1232421,
  "lon": -3.1321557
},
{
  "type": "node",
  "id": 3967202507,
  "lat": 43.1232979,
  "lon": -3.1323734
},
{
  "type": "node",
  "id": 3967202509,
  "lat": 43.1233489,
  "lon": -3.1323048
},
{
  "type": "node",
  "id": 3967202510,
  "lat": 43.1233592,
  "lon": -3.1324588
},
{
  "type": "node",
  "id": 4985174170,
  "lat": 42.9861159,
  "lon": -2.8321646
},
{
  "type": "node",
  "id": 4985174171,
  "lat": 42.9861589,
  "lon": -2.8320890
},
{
  "type": "node",
  "id": 4985174172,
  "lat": 42.9861221,
  "lon": -2.8321729
},
{
  "type": "node",
  "id": 4985174173,
  "lat": 42.9860893,
  "lon": -2.8320203
},
{
  "type": "node",
  "id": 4985174174,
  "lat": 42.9860958,
  "lon": -2.8320104
},
{
  "type": "node",
  "id": 4985174175,
  "lat": 42.9861152,
  "lon": -2.8320350
},
{
  "type": "node",
  "id": 4985174176,
  "lat": 42.9861090,
  "lon": -2.8320444
},
{
  "type": "node",
  "id": 4985174177,
  "lat": 42.9859888,
  "lon": -2.8318850
},
{
  "type": "node",
  "id": 4985174178,
  "lat": 42.9859853,
  "lon": -2.8318848
},
{
  "type": "node",
  "id": 4985174180,
  "lat": 42.9859954,
  "lon": -2.8318883
},
{
  "type": "node",
  "id": 4985174182,
  "lat": 42.9859922,
  "lon": -2.8318862
},
{
  "type": "node",
  "id": 4985174183,
  "lat": 42.9859575,
  "lon": -2.8319047
},
{
  "type": "node",
  "id": 4985174184,
  "lat": 42.9859299,
  "lon": -2.8318343
},
{
  "type": "node",
  "id": 4985174185,
  "lat": 42.9859818,
  "lon": -2.8318855
},
{
  "type": "node",
  "id": 4985174186,
  "lat": 42.9859786,
  "lon": -2.8318872
},
{
  "type": "node",
  "id": 4985174188,
  "lat": 42.9860025,
  "lon": -2.8319134
},
{
  "type": "node",
  "id": 4985174190,
  "lat": 42.9860031,
  "lon": -2.8319088
},
{
  "type": "node",
  "id": 4985174191,
  "lat": 42.9860514,
  "lon": -2.8319567
},
{
  "type": "node",
  "id": 4985174193,
  "lat": 42.9860457,
  "lon": -2.8319656
},
{
  "type": "node",
  "id": 4985174195,
  "lat": 42.9860004,
  "lon": -2.8318950
},
{
  "type": "node",
  "id": 4985174197,
  "lat": 42.9859981,
  "lon": -2.8318914
},
{
  "type": "node",
  "id": 4985174199,
  "lat": 42.9860029,
  "lon": -2.8319040
},
{
  "type": "node",
  "id": 4985174201,
  "lat": 42.9860020,
  "lon": -2.8318993
},
{
  "type": "node",
  "id": 4985174207,
  "lat": 42.9861600,
  "lon": -2.8321916
},
{
  "type": "node",
  "id": 4985174208,
  "lat": 42.9861500,
  "lon": -2.8321934
},
{
  "type": "node",
  "id": 4985174210,
  "lat": 42.9861796,
  "lon": -2.8321967
},
{
  "type": "node",
  "id": 4985174211,
  "lat": 42.9861700,
  "lon": -2.8321928
},
{
  "type": "node",
  "id": 4985174212,
  "lat": 42.9861407,
  "lon": -2.8321980
},
{
  "type": "node",
  "id": 4985174213,
  "lat": 42.9862082,
  "lon": -2.8322628
},
{
  "type": "node",
  "id": 4985174214,
  "lat": 42.9862082,
  "lon": -2.8322491
},
{
  "type": "node",
  "id": 4985174215,
  "lat": 42.9862018,
  "lon": -2.8322886
},
{
  "type": "node",
  "id": 4985174218,
  "lat": 42.9862061,
  "lon": -2.8322762
},
{
  "type": "node",
  "id": 4985174220,
  "lat": 42.9861960,
  "lon": -2.8322123
},
{
  "type": "node",
  "id": 4985174222,
  "lat": 42.9861884,
  "lon": -2.8322033
},
{
  "type": "node",
  "id": 4985174224,
  "lat": 42.9862061,
  "lon": -2.8322357
},
{
  "type": "node",
  "id": 4985174226,
  "lat": 42.9862019,
  "lon": -2.8322233
},
{
  "type": "node",
  "id": 4985174232,
  "lat": 42.9859234,
  "lon": -2.8320689
},
{
  "type": "node",
  "id": 4985174234,
  "lat": 42.9859800,
  "lon": -2.8321436
},
{
  "type": "node",
  "id": 4985174235,
  "lat": 42.9859342,
  "lon": -2.8319773
},
{
  "type": "node",
  "id": 4985174236,
  "lat": 42.9859534,
  "lon": -2.8320008
},
{
  "type": "node",
  "id": 4985174238,
  "lat": 42.9859827,
  "lon": -2.8322263
},
{
  "type": "node",
  "id": 4985174240,
  "lat": 42.9860157,
  "lon": -2.8322700
},
{
  "type": "node",
  "id": 4985174242,
  "lat": 42.9859633,
  "lon": -2.8321671
},
{
  "type": "node",
  "id": 4985174244,
  "lat": 42.9859951,
  "lon": -2.8322091
},
{
  "type": "node",
  "id": 4985174245,
  "lat": 42.9858190,
  "lon": -2.8318340
},
{
  "type": "node",
  "id": 4985174246,
  "lat": 42.9858617,
  "lon": -2.8318887
},
{
  "type": "node",
  "id": 4985174247,
  "lat": 42.9858881,
  "lon": -2.8318660
},
{
  "type": "node",
  "id": 4985174248,
  "lat": 42.9858440,
  "lon": -2.8318047
},
{
  "type": "node",
  "id": 4985174249,
  "lat": 42.9858473,
  "lon": -2.8319764
},
{
  "type": "node",
  "id": 4985174250,
  "lat": 42.9859064,
  "lon": -2.8320156
},
{
  "type": "node",
  "id": 4985174251,
  "lat": 42.9858363,
  "lon": -2.8319084
},
{
  "type": "node",
  "id": 4985174252,
  "lat": 42.9858593,
  "lon": -2.8319538
},
{
  "type": "node",
  "id": 4985174253,
  "lat": 42.9861499,
  "lon": -2.8323183
},
{
  "type": "node",
  "id": 4985174254,
  "lat": 42.9861599,
  "lon": -2.8323201
},
{
  "type": "node",
  "id": 4985174255,
  "lat": 42.9861320,
  "lon": -2.8323063
},
{
  "type": "node",
  "id": 4985174256,
  "lat": 42.9861405,
  "lon": -2.8323137
},
{
  "type": "node",
  "id": 4985174257,
  "lat": 42.9861883,
  "lon": -2.8323086
},
{
  "type": "node",
  "id": 4985174259,
  "lat": 42.9861958,
  "lon": -2.8322995
},
{
  "type": "node",
  "id": 4985174261,
  "lat": 42.9861699,
  "lon": -2.8323191
},
{
  "type": "node",
  "id": 4985174263,
  "lat": 42.9861795,
  "lon": -2.8323151
},
{
  "type": "node",
  "id": 4985174264,
  "lat": 42.9861174,
  "lon": -2.8322323
},
{
  "type": "node",
  "id": 4985174265,
  "lat": 42.9861146,
  "lon": -2.8322455
},
{
  "type": "node",
  "id": 4985174266,
  "lat": 42.9860545,
  "lon": -2.8322418
},
{
  "type": "node",
  "id": 4985174267,
  "lat": 42.9860894,
  "lon": -2.8321975
},
{
  "type": "node",
  "id": 4985174268,
  "lat": 42.9861193,
  "lon": -2.8322854
},
{
  "type": "node",
  "id": 4985174269,
  "lat": 42.9861249,
  "lon": -2.8322968
},
{
  "type": "node",
  "id": 4985174270,
  "lat": 42.9861141,
  "lon": -2.8322591
},
{
  "type": "node",
  "id": 4985174271,
  "lat": 42.9861156,
  "lon": -2.8322726
},
{
  "type": "node",
  "id": 4938689429,
  "lat": 43.1067647,
  "lon": -2.9111346
},
{
  "type": "node",
  "id": 4938689430,
  "lat": 43.1067564,
  "lon": -2.9111387
},
{
  "type": "node",
  "id": 4938689433,
  "lat": 43.1068318,
  "lon": -2.9114147
},
{
  "type": "node",
  "id": 4938689434,
  "lat": 43.1068395,
  "lon": -2.9114124
},
{
  "type": "node",
  "id": 4938689435,
  "lat": 43.1067944,
  "lon": -2.9112887
},
{
  "type": "node",
  "id": 4938689436,
  "lat": 43.1067993,
  "lon": -2.9112863
},
{
  "type": "node",
  "id": 4938689437,
  "lat": 43.1068880,
  "lon": -2.9110737
},
{
  "type": "node",
  "id": 4938689439,
  "lat": 43.1068895,
  "lon": -2.9115987
},
{
  "type": "node",
  "id": 4938689440,
  "lat": 43.1070070,
  "lon": -2.9115388
},
{
  "type": "node",
  "id": 1986570302,
  "lat": 43.1330130,
  "lon": -2.7807170
},
{
  "type": "node",
  "id": 1986570307,
  "lat": 43.1330633,
  "lon": -2.7810018
},
{
  "type": "node",
  "id": 1986570320,
  "lat": 43.1331854,
  "lon": -2.7806598
},
{
  "type": "node",
  "id": 1986570328,
  "lat": 43.1332357,
  "lon": -2.7809446
},
{
  "type": "node",
  "id": 3089199589,
  "lat": 43.1004911,
  "lon": -2.6509556
},
{
  "type": "node",
  "id": 3089199590,
  "lat": 43.1005008,
  "lon": -2.6510093
},
{
  "type": "node",
  "id": 3089199591,
  "lat": 43.1004676,
  "lon": -2.6510388
},
{
  "type": "node",
  "id": 3089199592,
  "lat": 43.1003794,
  "lon": -2.6508644
},
{
  "type": "node",
  "id": 3089199593,
  "lat": 43.1004088,
  "lon": -2.6508376
},
{
  "type": "node",
  "id": 3089199594,
  "lat": 43.1003794,
  "lon": -2.6507679
},
{
  "type": "node",
  "id": 3089199595,
  "lat": 43.1004813,
  "lon": -2.6506767
},
{
  "type": "node",
  "id": 3089199596,
  "lat": 43.1005322,
  "lon": -2.6507947
},
{
  "type": "node",
  "id": 3089199597,
  "lat": 43.1005831,
  "lon": -2.6507679
},
{
  "type": "node",
  "id": 3089199598,
  "lat": 43.1006125,
  "lon": -2.6508537
},
{
  "type": "node",
  "id": 4151493709,
  "lat": 43.3813292,
  "lon": -3.2261194
},
{
  "type": "node",
  "id": 4151493710,
  "lat": 43.3812276,
  "lon": -3.2260682
},
{
  "type": "node",
  "id": 4151493711,
  "lat": 43.3811222,
  "lon": -3.2264705
},
{
  "type": "node",
  "id": 4151493712,
  "lat": 43.3812244,
  "lon": -3.2265201
},
{
  "type": "node",
  "id": 1249942156,
  "lat": 43.3826699,
  "lon": -3.2187135
},
{
  "type": "node",
  "id": 1249942172,
  "lat": 43.3826891,
  "lon": -3.2188978
},
{
  "type": "node",
  "id": 1249942229,
  "lat": 43.3829770,
  "lon": -3.2188477
},
{
  "type": "node",
  "id": 1249942234,
  "lat": 43.3829320,
  "lon": -3.2186527
},
{
  "type": "node",
  "id": 4508768065,
  "lat": 43.3860107,
  "lon": -3.2191657
},
{
  "type": "node",
  "id": 4508768066,
  "lat": 43.3859250,
  "lon": -3.2191993
},
{
  "type": "node",
  "id": 4508768067,
  "lat": 43.3858994,
  "lon": -3.2191038
},
{
  "type": "node",
  "id": 4508768068,
  "lat": 43.3857540,
  "lon": -3.2191719
},
{
  "type": "node",
  "id": 4508768069,
  "lat": 43.3857102,
  "lon": -3.2191558
},
{
  "type": "node",
  "id": 4508768070,
  "lat": 43.3857318,
  "lon": -3.2189943
},
{
  "type": "node",
  "id": 4508768071,
  "lat": 43.3856901,
  "lon": -3.2188181
},
{
  "type": "node",
  "id": 4508768072,
  "lat": 43.3856400,
  "lon": -3.2187118
},
{
  "type": "node",
  "id": 4508768074,
  "lat": 43.3857644,
  "lon": -3.2186050
},
{
  "type": "node",
  "id": 4508768075,
  "lat": 43.3858033,
  "lon": -3.2186833
},
{
  "type": "node",
  "id": 4508768076,
  "lat": 43.3858783,
  "lon": -3.2187172
},
{
  "type": "node",
  "id": 4508768077,
  "lat": 43.3859105,
  "lon": -3.2187401
},
{
  "type": "node",
  "id": 4605472237,
  "lat": 43.3827757,
  "lon": -3.2186944
},
{
  "type": "node",
  "id": 4605472238,
  "lat": 43.3858621,
  "lon": -3.2187261
},
{
  "type": "node",
  "id": 4605472239,
  "lat": 43.3858550,
  "lon": -3.2186931
},
{
  "type": "node",
  "id": 4605472240,
  "lat": 43.3858486,
  "lon": -3.2186962
},
{
  "type": "node",
  "id": 4605472241,
  "lat": 43.3858239,
  "lon": -3.2186656
},
{
  "type": "node",
  "id": 5262506645,
  "lat": 43.3827069,
  "lon": -3.2188947
},
{
  "type": "node",
  "id": 5262506648,
  "lat": 43.3829371,
  "lon": -3.2188546
},
{
  "type": "node",
  "id": 5271647597,
  "lat": 43.3829452,
  "lon": -3.2187100
},
{
  "type": "node",
  "id": 1943381715,
  "lat": 43.2503733,
  "lon": -3.1304548
},
{
  "type": "node",
  "id": 1943381719,
  "lat": 43.2504851,
  "lon": -3.1301804
},
{
  "type": "node",
  "id": 1943381723,
  "lat": 43.2506981,
  "lon": -3.1298842
},
{
  "type": "node",
  "id": 1943381731,
  "lat": 43.2507136,
  "lon": -3.1309102
},
{
  "type": "node",
  "id": 1943381734,
  "lat": 43.2508830,
  "lon": -3.1309947
},
{
  "type": "node",
  "id": 1943381742,
  "lat": 43.2509472,
  "lon": -3.1312966
},
{
  "type": "node",
  "id": 1943381746,
  "lat": 43.2510416,
  "lon": -3.1296475
},
{
  "type": "node",
  "id": 1943381750,
  "lat": 43.2514472,
  "lon": -3.1295957
},
{
  "type": "node",
  "id": 1943381780,
  "lat": 43.2517729,
  "lon": -3.1317631
},
{
  "type": "node",
  "id": 1943381782,
  "lat": 43.2518626,
  "lon": -3.1304085
},
{
  "type": "node",
  "id": 1943381783,
  "lat": 43.2525507,
  "lon": -3.1300921
},
{
  "type": "node",
  "id": 1943381788,
  "lat": 43.2532464,
  "lon": -3.1304206
},
{
  "type": "node",
  "id": 1943381791,
  "lat": 43.2527433,
  "lon": -3.1307162
},
{
  "type": "node",
  "id": 4475484182,
  "lat": 43.2531380,
  "lon": -3.1308176
},
{
  "type": "node",
  "id": 4475484183,
  "lat": 43.2531219,
  "lon": -3.1311887
},
{
  "type": "node",
  "id": 4475484184,
  "lat": 43.2530780,
  "lon": -3.1314235
},
{
  "type": "node",
  "id": 4475484185,
  "lat": 43.2529685,
  "lon": -3.1315163
},
{
  "type": "node",
  "id": 4475484186,
  "lat": 43.2525502,
  "lon": -3.1316797
},
{
  "type": "node",
  "id": 4475484187,
  "lat": 43.2524623,
  "lon": -3.1318878
},
{
  "type": "node",
  "id": 4475484188,
  "lat": 43.2524026,
  "lon": -3.1319210
},
{
  "type": "node",
  "id": 4475484289,
  "lat": 43.2523211,
  "lon": -3.1317558
},
{
  "type": "node",
  "id": 4475484290,
  "lat": 43.2522265,
  "lon": -3.1316578
},
{
  "type": "node",
  "id": 4475484291,
  "lat": 43.2521254,
  "lon": -3.1316396
},
{
  "type": "node",
  "id": 4475484297,
  "lat": 43.2516007,
  "lon": -3.1316581
},
{
  "type": "node",
  "id": 4475484298,
  "lat": 43.2517518,
  "lon": -3.1317548
},
{
  "type": "node",
  "id": 4475484328,
  "lat": 43.2517709,
  "lon": -3.1301254
},
{
  "type": "node",
  "id": 4475484331,
  "lat": 43.2530896,
  "lon": -3.1313614
},
{
  "type": "node",
  "id": 4475484332,
  "lat": 43.2531007,
  "lon": -3.1313022
},
{
  "type": "node",
  "id": 4475484333,
  "lat": 43.2519706,
  "lon": -3.1303562
},
{
  "type": "node",
  "id": 4475484445,
  "lat": 43.2520018,
  "lon": -3.1303420
},
{
  "type": "node",
  "id": 4475484446,
  "lat": 43.2529287,
  "lon": -3.1306073
},
{
  "type": "node",
  "id": 4475484469,
  "lat": 43.2519513,
  "lon": -3.1303655
},
{
  "type": "node",
  "id": 4475484506,
  "lat": 43.2509156,
  "lon": -3.1311182
},
{
  "type": "node",
  "id": 4656668321,
  "lat": 43.2509225,
  "lon": -3.1311586
},
{
  "type": "node",
  "id": 4656668322,
  "lat": 43.2509288,
  "lon": -3.1311959
},
{
  "type": "node",
  "id": 4656668336,
  "lat": 43.2520473,
  "lon": -3.1303213
},
{
  "type": "node",
  "id": 5624878117,
  "lat": 43.2505115,
  "lon": -3.1305918
},
{
  "type": "node",
  "id": 6485404687,
  "lat": 43.2510526,
  "lon": -3.1296814
},
{
  "type": "node",
  "id": 6485404688,
  "lat": 43.2512874,
  "lon": -3.1295894
},
{
  "type": "node",
  "id": 6485404689,
  "lat": 43.2517914,
  "lon": -3.1301089
},
{
  "type": "node",
  "id": 2155039293,
  "lat": 43.2969448,
  "lon": -3.1258660
},
{
  "type": "node",
  "id": 2155039295,
  "lat": 43.2969958,
  "lon": -3.1256031
},
{
  "type": "node",
  "id": 2155039313,
  "lat": 43.2972187,
  "lon": -3.1259335
},
{
  "type": "node",
  "id": 2155039319,
  "lat": 43.2972538,
  "lon": -3.1257309
},
{
  "type": "node",
  "id": 1231204984,
  "lat": 43.2829861,
  "lon": -3.0754870
},
{
  "type": "node",
  "id": 1231204991,
  "lat": 43.2832342,
  "lon": -3.0754879
},
{
  "type": "node",
  "id": 1231204993,
  "lat": 43.2830153,
  "lon": -3.0753781
},
{
  "type": "node",
  "id": 1231205000,
  "lat": 43.2828558,
  "lon": -3.0751173
},
{
  "type": "node",
  "id": 1583353287,
  "lat": 43.2827840,
  "lon": -3.0753856
},
{
  "type": "node",
  "id": 2606294479,
  "lat": 43.2830098,
  "lon": -3.0753985
},
{
  "type": "node",
  "id": 2606294482,
  "lat": 43.2830952,
  "lon": -3.0754182
},
{
  "type": "node",
  "id": 1231204988,
  "lat": 43.2832769,
  "lon": -3.0753285
},
{
  "type": "node",
  "id": 1231532237,
  "lat": 43.3113745,
  "lon": -3.0700894
},
{
  "type": "node",
  "id": 1231532238,
  "lat": 43.3115666,
  "lon": -3.0700884
},
{
  "type": "node",
  "id": 1231532239,
  "lat": 43.3113037,
  "lon": -3.0700645
},
{
  "type": "node",
  "id": 1231532240,
  "lat": 43.3114863,
  "lon": -3.0702643
},
{
  "type": "node",
  "id": 1231532242,
  "lat": 43.3114895,
  "lon": -3.0703166
},
{
  "type": "node",
  "id": 1231532245,
  "lat": 43.3114240,
  "lon": -3.0703241
},
{
  "type": "node",
  "id": 1231532246,
  "lat": 43.3113428,
  "lon": -3.0702167
},
{
  "type": "node",
  "id": 1231532248,
  "lat": 43.3114204,
  "lon": -3.0702646
},
{
  "type": "node",
  "id": 1231532249,
  "lat": 43.3116199,
  "lon": -3.0701198
},
{
  "type": "node",
  "id": 1231532250,
  "lat": 43.3117175,
  "lon": -3.0702377
},
{
  "type": "node",
  "id": 1231532252,
  "lat": 43.3117096,
  "lon": -3.0701094
},
{
  "type": "node",
  "id": 1231532253,
  "lat": 43.3113462,
  "lon": -3.0702731
},
{
  "type": "node",
  "id": 1231532258,
  "lat": 43.3116176,
  "lon": -3.0700825
},
{
  "type": "node",
  "id": 1231532260,
  "lat": 43.3113132,
  "lon": -3.0702201
},
{
  "type": "node",
  "id": 1231532262,
  "lat": 43.3115637,
  "lon": -3.0700414
},
{
  "type": "node",
  "id": 1231532263,
  "lat": 43.3113725,
  "lon": -3.0700565
},
{
  "type": "node",
  "id": 1231532264,
  "lat": 43.3115129,
  "lon": -3.0700735
},
{
  "type": "node",
  "id": 1231532265,
  "lat": 43.3115113,
  "lon": -3.0700475
},
{
  "type": "node",
  "id": 2818206031,
  "lat": 43.3111377,
  "lon": -3.0717784
},
{
  "type": "node",
  "id": 2818206032,
  "lat": 43.3110263,
  "lon": -3.0717361
},
{
  "type": "node",
  "id": 2818206033,
  "lat": 43.3109268,
  "lon": -3.0715569
},
{
  "type": "node",
  "id": 2818206034,
  "lat": 43.3107585,
  "lon": -3.0715309
},
{
  "type": "node",
  "id": 2818206035,
  "lat": 43.3105879,
  "lon": -3.0713355
},
{
  "type": "node",
  "id": 2818206036,
  "lat": 43.3106305,
  "lon": -3.0713094
},
{
  "type": "node",
  "id": 2818206037,
  "lat": 43.3106045,
  "lon": -3.0712313
},
{
  "type": "node",
  "id": 2818206038,
  "lat": 43.3111400,
  "lon": -3.0710131
},
{
  "type": "node",
  "id": 2818206039,
  "lat": 43.3108651,
  "lon": -3.0712019
},
{
  "type": "node",
  "id": 2818206040,
  "lat": 43.3110571,
  "lon": -3.0714169
},
{
  "type": "node",
  "id": 2818206041,
  "lat": 43.3112775,
  "lon": -3.0713224
},
{
  "type": "node",
  "id": 2818206042,
  "lat": 43.3112396,
  "lon": -3.0716090
},
{
  "type": "node",
  "id": 2818206043,
  "lat": 43.3110997,
  "lon": -3.0715862
},
{
  "type": "node",
  "id": 2818216230,
  "lat": 43.3121661,
  "lon": -3.0700499
},
{
  "type": "node",
  "id": 2818216231,
  "lat": 43.3120476,
  "lon": -3.0700694
},
{
  "type": "node",
  "id": 2818216232,
  "lat": 43.3119813,
  "lon": -3.0700857
},
{
  "type": "node",
  "id": 2818216233,
  "lat": 43.3119007,
  "lon": -3.0701313
},
{
  "type": "node",
  "id": 2818216234,
  "lat": 43.3118296,
  "lon": -3.0701932
},
{
  "type": "node",
  "id": 2818216235,
  "lat": 43.3117657,
  "lon": -3.0702583
},
{
  "type": "node",
  "id": 2818216236,
  "lat": 43.3116969,
  "lon": -3.0703462
},
{
  "type": "node",
  "id": 2818216237,
  "lat": 43.3116306,
  "lon": -3.0704277
},
{
  "type": "node",
  "id": 2818216238,
  "lat": 43.3115784,
  "lon": -3.0704863
},
{
  "type": "node",
  "id": 2818216239,
  "lat": 43.3115050,
  "lon": -3.0705384
},
{
  "type": "node",
  "id": 2818216240,
  "lat": 43.3114315,
  "lon": -3.0705710
},
{
  "type": "node",
  "id": 2818216241,
  "lat": 43.3113533,
  "lon": -3.0706035
},
{
  "type": "node",
  "id": 2818216242,
  "lat": 43.3113130,
  "lon": -3.0706133
},
{
  "type": "node",
  "id": 2818216243,
  "lat": 43.3112799,
  "lon": -3.0705872
},
{
  "type": "node",
  "id": 2818216244,
  "lat": 43.3112538,
  "lon": -3.0704602
},
{
  "type": "node",
  "id": 2818216245,
  "lat": 43.3111898,
  "lon": -3.0700857
},
{
  "type": "node",
  "id": 2818216246,
  "lat": 43.3111448,
  "lon": -3.0697144
},
{
  "type": "node",
  "id": 2818216247,
  "lat": 43.3111353,
  "lon": -3.0695711
},
{
  "type": "node",
  "id": 2818216248,
  "lat": 43.3111566,
  "lon": -3.0694962
},
{
  "type": "node",
  "id": 2818216249,
  "lat": 43.3112088,
  "lon": -3.0694441
},
{
  "type": "node",
  "id": 2818216250,
  "lat": 43.3117799,
  "lon": -3.0693204
},
{
  "type": "node",
  "id": 2818216251,
  "lat": 43.3119007,
  "lon": -3.0693008
},
{
  "type": "node",
  "id": 2818216252,
  "lat": 43.3119126,
  "lon": -3.0693822
},
{
  "type": "node",
  "id": 2818216253,
  "lat": 43.3119434,
  "lon": -3.0694669
},
{
  "type": "node",
  "id": 2818216254,
  "lat": 43.3120263,
  "lon": -3.0695255
},
{
  "type": "node",
  "id": 2818216255,
  "lat": 43.3120998,
  "lon": -3.0696460
},
{
  "type": "node",
  "id": 2818216256,
  "lat": 43.3123083,
  "lon": -3.0697535
},
{
  "type": "node",
  "id": 2818216257,
  "lat": 43.3123320,
  "lon": -3.0698284
},
{
  "type": "node",
  "id": 2818216258,
  "lat": 43.3122206,
  "lon": -3.0698838
},
{
  "type": "node",
  "id": 2818216259,
  "lat": 43.3121401,
  "lon": -3.0699359
},
{
  "type": "node",
  "id": 2824083780,
  "lat": 43.3115340,
  "lon": -3.0705178
},
{
  "type": "node",
  "id": 5485169194,
  "lat": 43.3113013,
  "lon": -3.0694241
},
{
  "type": "node",
  "id": 5485169195,
  "lat": 43.3115086,
  "lon": -3.0705358
},
{
  "type": "node",
  "id": 5485169196,
  "lat": 43.3116639,
  "lon": -3.0703868
},
{
  "type": "node",
  "id": 5485169197,
  "lat": 43.3116118,
  "lon": -3.0704615
},
{
  "type": "node",
  "id": 5485169202,
  "lat": 43.3122948,
  "lon": -3.0698469
},
{
  "type": "node",
  "id": 5485169203,
  "lat": 43.3117301,
  "lon": -3.0703038
},
{
  "type": "node",
  "id": 7051236172,
  "lat": 43.2637342,
  "lon": -3.0152649
},
{
  "type": "node",
  "id": 7051236173,
  "lat": 43.2638341,
  "lon": -3.0151371
},
{
  "type": "node",
  "id": 7051236174,
  "lat": 43.2638787,
  "lon": -3.0152044
},
{
  "type": "node",
  "id": 7051236175,
  "lat": 43.2638637,
  "lon": -3.0152235
},
{
  "type": "node",
  "id": 7051236176,
  "lat": 43.2639057,
  "lon": -3.0152875
},
{
  "type": "node",
  "id": 7051236177,
  "lat": 43.2638742,
  "lon": -3.0153269
},
{
  "type": "node",
  "id": 7051236178,
  "lat": 43.2638490,
  "lon": -3.0152887
},
{
  "type": "node",
  "id": 7051236179,
  "lat": 43.2637941,
  "lon": -3.0153552
},
{
  "type": "node",
  "id": 3071414806,
  "lat": 43.2583533,
  "lon": -2.9736561
},
{
  "type": "node",
  "id": 3071414807,
  "lat": 43.2581081,
  "lon": -2.9738056
},
{
  "type": "node",
  "id": 3071414808,
  "lat": 43.2580738,
  "lon": -2.9736993
},
{
  "type": "node",
  "id": 3071414809,
  "lat": 43.2582704,
  "lon": -2.9735794
},
{
  "type": "node",
  "id": 3071414810,
  "lat": 43.2582435,
  "lon": -2.9734963
},
{
  "type": "node",
  "id": 3071414811,
  "lat": 43.2582254,
  "lon": -2.9735074
},
{
  "type": "node",
  "id": 3071414812,
  "lat": 43.2582153,
  "lon": -2.9734762
},
{
  "type": "node",
  "id": 3071414813,
  "lat": 43.2583026,
  "lon": -2.9734230
},
{
  "type": "node",
  "id": 3071414814,
  "lat": 43.2583291,
  "lon": -2.9735050
},
{
  "type": "node",
  "id": 3071414815,
  "lat": 43.2583481,
  "lon": -2.9734934
},
{
  "type": "node",
  "id": 3071414816,
  "lat": 43.2583670,
  "lon": -2.9735517
},
{
  "type": "node",
  "id": 3071414817,
  "lat": 43.2583273,
  "lon": -2.9735759
},
{
  "type": "node",
  "id": 3071417540,
  "lat": 43.2587997,
  "lon": -2.9735437
},
{
  "type": "node",
  "id": 3071417541,
  "lat": 43.2587018,
  "lon": -2.9735455
},
{
  "type": "node",
  "id": 3071417542,
  "lat": 43.2587014,
  "lon": -2.9735035
},
{
  "type": "node",
  "id": 3071417543,
  "lat": 43.2586552,
  "lon": -2.9735044
},
{
  "type": "node",
  "id": 3071417544,
  "lat": 43.2586556,
  "lon": -2.9735510
},
{
  "type": "node",
  "id": 3071417545,
  "lat": 43.2585991,
  "lon": -2.9735520
},
{
  "type": "node",
  "id": 3071417546,
  "lat": 43.2585987,
  "lon": -2.9735101
},
{
  "type": "node",
  "id": 3071417547,
  "lat": 43.2585544,
  "lon": -2.9735109
},
{
  "type": "node",
  "id": 3071417548,
  "lat": 43.2585548,
  "lon": -2.9735577
},
{
  "type": "node",
  "id": 3071417549,
  "lat": 43.2585094,
  "lon": -2.9735586
},
{
  "type": "node",
  "id": 3071417550,
  "lat": 43.2585079,
  "lon": -2.9734079
},
{
  "type": "node",
  "id": 3071417551,
  "lat": 43.2587983,
  "lon": -2.9734024
},
{
  "type": "node",
  "id": 309860627,
  "lat": 43.2660710,
  "lon": -2.9381794
},
{
  "type": "node",
  "id": 309860629,
  "lat": 43.2659211,
  "lon": -2.9374973
},
{
  "type": "node",
  "id": 309860630,
  "lat": 43.2648940,
  "lon": -2.9379229
},
{
  "type": "node",
  "id": 309860632,
  "lat": 43.2649457,
  "lon": -2.9381584
},
{
  "type": "node",
  "id": 309860633,
  "lat": 43.2652593,
  "lon": -2.9380284
},
{
  "type": "node",
  "id": 309860635,
  "lat": 43.2653574,
  "lon": -2.9384750
},
{
  "type": "node",
  "id": 1781896312,
  "lat": 43.2653823,
  "lon": -2.9377206
},
{
  "type": "node",
  "id": 1781896315,
  "lat": 43.2654730,
  "lon": -2.9381106
},
{
  "type": "node",
  "id": 1781896344,
  "lat": 43.2657620,
  "lon": -2.9375632
},
{
  "type": "node",
  "id": 1781896346,
  "lat": 43.2658528,
  "lon": -2.9379565
},
{
  "type": "node",
  "id": 1631306188,
  "lat": 43.2932164,
  "lon": -2.9937025
},
{
  "type": "node",
  "id": 5322170873,
  "lat": 43.2931540,
  "lon": -2.9937293
},
{
  "type": "node",
  "id": 5322170874,
  "lat": 43.2931314,
  "lon": -2.9940528
},
{
  "type": "node",
  "id": 5322170875,
  "lat": 43.2932097,
  "lon": -2.9940629
},
{
  "type": "node",
  "id": 5322170876,
  "lat": 43.2932169,
  "lon": -2.9939565
},
{
  "type": "node",
  "id": 5322170877,
  "lat": 43.2931992,
  "lon": -2.9939543
},
{
  "type": "node",
  "id": 6472304984,
  "lat": 43.2931223,
  "lon": -2.9936905
},
{
  "type": "node",
  "id": 6472305185,
  "lat": 43.2931199,
  "lon": -2.9937250
},
{
  "type": "node",
  "id": 668884055,
  "lat": 43.3202563,
  "lon": -3.0172794
},
{
  "type": "node",
  "id": 668884057,
  "lat": 43.3203386,
  "lon": -3.0172149
},
{
  "type": "node",
  "id": 668884088,
  "lat": 43.3201457,
  "lon": -3.0170840
},
{
  "type": "node",
  "id": 668884091,
  "lat": 43.3202585,
  "lon": -3.0170061
},
{
  "type": "node",
  "id": 1256638259,
  "lat": 43.3202880,
  "lon": -3.0170629
},
{
  "type": "node",
  "id": 4265181335,
  "lat": 43.3202089,
  "lon": -3.0171600
},
{
  "type": "node",
  "id": 4265181336,
  "lat": 43.3201770,
  "lon": -3.0171795
},
{
  "type": "node",
  "id": 4265181339,
  "lat": 43.3202824,
  "lon": -3.0170666
},
{
  "type": "node",
  "id": 302320940,
  "lat": 43.3186533,
  "lon": -3.0139772
},
{
  "type": "node",
  "id": 302320941,
  "lat": 43.3187407,
  "lon": -3.0137999
},
{
  "type": "node",
  "id": 302320942,
  "lat": 43.3188834,
  "lon": -3.0139329
},
{
  "type": "node",
  "id": 302320943,
  "lat": 43.3187960,
  "lon": -3.0141102
},
{
  "type": "node",
  "id": 5754311420,
  "lat": 43.3268126,
  "lon": -3.0238363
},
{
  "type": "node",
  "id": 5754311421,
  "lat": 43.3270078,
  "lon": -3.0234484
},
{
  "type": "node",
  "id": 5754311422,
  "lat": 43.3270819,
  "lon": -3.0235189
},
{
  "type": "node",
  "id": 5754311423,
  "lat": 43.3268867,
  "lon": -3.0239068
},
{
  "type": "node",
  "id": 5754311424,
  "lat": 43.3268600,
  "lon": -3.0238814
},
{
  "type": "node",
  "id": 5754311429,
  "lat": 43.3268762,
  "lon": -3.0238969
},
{
  "type": "node",
  "id": 496834986,
  "lat": 43.3409823,
  "lon": -3.0203464
},
{
  "type": "node",
  "id": 496834987,
  "lat": 43.3408346,
  "lon": -3.0203766
},
{
  "type": "node",
  "id": 496834988,
  "lat": 43.3407655,
  "lon": -3.0197780
},
{
  "type": "node",
  "id": 496834989,
  "lat": 43.3409101,
  "lon": -3.0197521
},
{
  "type": "node",
  "id": 577491522,
  "lat": 43.3240881,
  "lon": -2.9801682
},
{
  "type": "node",
  "id": 577491523,
  "lat": 43.3240658,
  "lon": -2.9798082
},
{
  "type": "node",
  "id": 1442724409,
  "lat": 43.3238508,
  "lon": -2.9798333
},
{
  "type": "node",
  "id": 1442724413,
  "lat": 43.3238731,
  "lon": -2.9801933
},
{
  "type": "node",
  "id": 3916376215,
  "lat": 43.2561745,
  "lon": -2.9282231
},
{
  "type": "node",
  "id": 3916376216,
  "lat": 43.2560947,
  "lon": -2.9280487
},
{
  "type": "node",
  "id": 4067074020,
  "lat": 43.2558894,
  "lon": -2.9283947
},
{
  "type": "node",
  "id": 4067074023,
  "lat": 43.2559979,
  "lon": -2.9280744
},
{
  "type": "node",
  "id": 4067074024,
  "lat": 43.2558154,
  "lon": -2.9282214
},
{
  "type": "node",
  "id": 506813253,
  "lat": 43.2535389,
  "lon": -2.9208332
},
{
  "type": "node",
  "id": 1773993339,
  "lat": 43.2531174,
  "lon": -2.9205588
},
{
  "type": "node",
  "id": 1773993341,
  "lat": 43.2531324,
  "lon": -2.9204454
},
{
  "type": "node",
  "id": 1773993342,
  "lat": 43.2531457,
  "lon": -2.9205494
},
{
  "type": "node",
  "id": 1773993343,
  "lat": 43.2531699,
  "lon": -2.9208468
},
{
  "type": "node",
  "id": 1773993345,
  "lat": 43.2532121,
  "lon": -2.9210522
},
{
  "type": "node",
  "id": 1773993350,
  "lat": 43.2534174,
  "lon": -2.9203666
},
{
  "type": "node",
  "id": 1773993353,
  "lat": 43.2535583,
  "lon": -2.9209601
},
{
  "type": "node",
  "id": 1958517276,
  "lat": 43.2531949,
  "lon": -2.9205934
},
{
  "type": "node",
  "id": 1958517278,
  "lat": 43.2532351,
  "lon": -2.9208464
},
{
  "type": "node",
  "id": 1958517280,
  "lat": 43.2533524,
  "lon": -2.9205468
},
{
  "type": "node",
  "id": 1958517282,
  "lat": 43.2534080,
  "lon": -2.9208012
},
{
  "type": "node",
  "id": 558723255,
  "lat": 43.2689478,
  "lon": -2.9330127
},
{
  "type": "node",
  "id": 558723258,
  "lat": 43.2690050,
  "lon": -2.9329238
},
{
  "type": "node",
  "id": 558723259,
  "lat": 43.2690102,
  "lon": -2.9327248
},
{
  "type": "node",
  "id": 558723262,
  "lat": 43.2687935,
  "lon": -2.9327763
},
{
  "type": "node",
  "id": 558723265,
  "lat": 43.2688139,
  "lon": -2.9327649
},
{
  "type": "node",
  "id": 558723268,
  "lat": 43.2686385,
  "lon": -2.9322254
},
{
  "type": "node",
  "id": 558723270,
  "lat": 43.2685456,
  "lon": -2.9321743
},
{
  "type": "node",
  "id": 558723281,
  "lat": 43.2685907,
  "lon": -2.9321792
},
{
  "type": "node",
  "id": 558723283,
  "lat": 43.2686802,
  "lon": -2.9323065
},
{
  "type": "node",
  "id": 558723284,
  "lat": 43.2687912,
  "lon": -2.9323958
},
{
  "type": "node",
  "id": 558723285,
  "lat": 43.2687514,
  "lon": -2.9324823
},
{
  "type": "node",
  "id": 558723286,
  "lat": 43.2687311,
  "lon": -2.9322632
},
{
  "type": "node",
  "id": 558723287,
  "lat": 43.2687278,
  "lon": -2.9324488
},
{
  "type": "node",
  "id": 558723288,
  "lat": 43.2688250,
  "lon": -2.9325396
},
{
  "type": "node",
  "id": 558723290,
  "lat": 43.2689803,
  "lon": -2.9326431
},
{
  "type": "node",
  "id": 1332673184,
  "lat": 43.2685091,
  "lon": -2.9323411
},
{
  "type": "node",
  "id": 1332673186,
  "lat": 43.2683829,
  "lon": -2.9337183
},
{
  "type": "node",
  "id": 1332673187,
  "lat": 43.2685853,
  "lon": -2.9328910
},
{
  "type": "node",
  "id": 1332673188,
  "lat": 43.2678450,
  "lon": -2.9339531
},
{
  "type": "node",
  "id": 1332673190,
  "lat": 43.2690938,
  "lon": -2.9346651
},
{
  "type": "node",
  "id": 1332673191,
  "lat": 43.2690481,
  "lon": -2.9347015
},
{
  "type": "node",
  "id": 1332673192,
  "lat": 43.2677943,
  "lon": -2.9341918
},
{
  "type": "node",
  "id": 1332673193,
  "lat": 43.2688567,
  "lon": -2.9348678
},
{
  "type": "node",
  "id": 1332673194,
  "lat": 43.2681439,
  "lon": -2.9337895
},
{
  "type": "node",
  "id": 1332673195,
  "lat": 43.2687911,
  "lon": -2.9348234
},
{
  "type": "node",
  "id": 1332673197,
  "lat": 43.2690677,
  "lon": -2.9339558
},
{
  "type": "node",
  "id": 1332673198,
  "lat": 43.2685931,
  "lon": -2.9330090
},
{
  "type": "node",
  "id": 1332673199,
  "lat": 43.2689591,
  "lon": -2.9336861
},
{
  "type": "node",
  "id": 1332673200,
  "lat": 43.2678986,
  "lon": -2.9343835
},
{
  "type": "node",
  "id": 1332673202,
  "lat": 43.2689739,
  "lon": -2.9346934
},
{
  "type": "node",
  "id": 1332673203,
  "lat": 43.2678587,
  "lon": -2.9342669
},
{
  "type": "node",
  "id": 1332673205,
  "lat": 43.2679349,
  "lon": -2.9343528
},
{
  "type": "node",
  "id": 1332673206,
  "lat": 43.2681634,
  "lon": -2.9343823
},
{
  "type": "node",
  "id": 1332673208,
  "lat": 43.2690774,
  "lon": -2.9340390
},
{
  "type": "node",
  "id": 1332673209,
  "lat": 43.2690372,
  "lon": -2.9338551
},
{
  "type": "node",
  "id": 1332673210,
  "lat": 43.2689446,
  "lon": -2.9342428
},
{
  "type": "node",
  "id": 1332673212,
  "lat": 43.2677884,
  "lon": -2.9341114
},
{
  "type": "node",
  "id": 1332673213,
  "lat": 43.2679583,
  "lon": -2.9339317
},
{
  "type": "node",
  "id": 1332673215,
  "lat": 43.2689962,
  "lon": -2.9338685
},
{
  "type": "node",
  "id": 1332673216,
  "lat": 43.2689764,
  "lon": -2.9327409
},
{
  "type": "node",
  "id": 1332673217,
  "lat": 43.2690723,
  "lon": -2.9342226
},
{
  "type": "node",
  "id": 1332673218,
  "lat": 43.2689505,
  "lon": -2.9333764
},
{
  "type": "node",
  "id": 1332673220,
  "lat": 43.2685177,
  "lon": -2.9347214
},
{
  "type": "node",
  "id": 1332673221,
  "lat": 43.2678353,
  "lon": -2.9342804
},
{
  "type": "node",
  "id": 1332673223,
  "lat": 43.2681634,
  "lon": -2.9342213
},
{
  "type": "node",
  "id": 1332673224,
  "lat": 43.2685774,
  "lon": -2.9345754
},
{
  "type": "node",
  "id": 1332673225,
  "lat": 43.2689622,
  "lon": -2.9335454
},
{
  "type": "node",
  "id": 1332673227,
  "lat": 43.2689431,
  "lon": -2.9327567
},
{
  "type": "node",
  "id": 1332673228,
  "lat": 43.2679193,
  "lon": -2.9338941
},
{
  "type": "node",
  "id": 1332673230,
  "lat": 43.2685794,
  "lon": -2.9347927
},
{
  "type": "node",
  "id": 1332673231,
  "lat": 43.2683079,
  "lon": -2.9344359
},
{
  "type": "node",
  "id": 1332673232,
  "lat": 43.2690598,
  "lon": -2.9343018
},
{
  "type": "node",
  "id": 1332673233,
  "lat": 43.2688157,
  "lon": -2.9346961
},
{
  "type": "node",
  "id": 1332673234,
  "lat": 43.2678099,
  "lon": -2.9340148
},
{
  "type": "node",
  "id": 1332673235,
  "lat": 43.2688399,
  "lon": -2.9329458
},
{
  "type": "node",
  "id": 1332673236,
  "lat": 43.2689778,
  "lon": -2.9342804
},
{
  "type": "node",
  "id": 1332673237,
  "lat": 43.2686380,
  "lon": -2.9332021
},
{
  "type": "node",
  "id": 1332673238,
  "lat": 43.2685188,
  "lon": -2.9348812
},
{
  "type": "node",
  "id": 1332673239,
  "lat": 43.2689141,
  "lon": -2.9332221
},
{
  "type": "node",
  "id": 1332673241,
  "lat": 43.2690169,
  "lon": -2.9343018
},
{
  "type": "node",
  "id": 1332673242,
  "lat": 43.2681798,
  "lon": -2.9336754
},
{
  "type": "node",
  "id": 1332673246,
  "lat": 43.2683871,
  "lon": -2.9337902
},
{
  "type": "node",
  "id": 1332673248,
  "lat": 43.2680620,
  "lon": -2.9340462
},
{
  "type": "node",
  "id": 1332673249,
  "lat": 43.2688079,
  "lon": -2.9348168
},
{
  "type": "node",
  "id": 1332673250,
  "lat": 43.2680763,
  "lon": -2.9341904
},
{
  "type": "node",
  "id": 1332673253,
  "lat": 43.2686739,
  "lon": -2.9335279
},
{
  "type": "node",
  "id": 1332673256,
  "lat": 43.2682435,
  "lon": -2.9344413
},
{
  "type": "node",
  "id": 1332673257,
  "lat": 43.2689508,
  "lon": -2.9325975
},
{
  "type": "node",
  "id": 1332673259,
  "lat": 43.2689073,
  "lon": -2.9325604
},
{
  "type": "node",
  "id": 1332673260,
  "lat": 43.2683958,
  "lon": -2.9343689
},
{
  "type": "node",
  "id": 1332673261,
  "lat": 43.2679349,
  "lon": -2.9343120
},
{
  "type": "node",
  "id": 1332673263,
  "lat": 43.2690860,
  "lon": -2.9341340
},
{
  "type": "node",
  "id": 1332673264,
  "lat": 43.2684056,
  "lon": -2.9337841
},
{
  "type": "node",
  "id": 1332673268,
  "lat": 43.2684603,
  "lon": -2.9347712
},
{
  "type": "node",
  "id": 1332673269,
  "lat": 43.2686067,
  "lon": -2.9348222
},
{
  "type": "node",
  "id": 1332673270,
  "lat": 43.2689068,
  "lon": -2.9327617
},
{
  "type": "node",
  "id": 1332673271,
  "lat": 43.2690997,
  "lon": -2.9345820
},
{
  "type": "node",
  "id": 1332673274,
  "lat": 43.2682005,
  "lon": -2.9342321
},
{
  "type": "node",
  "id": 1332673276,
  "lat": 43.2688302,
  "lon": -2.9346195
},
{
  "type": "node",
  "id": 1332673277,
  "lat": 43.2685970,
  "lon": -2.9347846
},
{
  "type": "node",
  "id": 1332673278,
  "lat": 43.2689075,
  "lon": -2.9347363
},
{
  "type": "node",
  "id": 1332673279,
  "lat": 43.2686126,
  "lon": -2.9335186
},
{
  "type": "node",
  "id": 1332673280,
  "lat": 43.2687638,
  "lon": -2.9326293
},
{
  "type": "node",
  "id": 1332673282,
  "lat": 43.2685626,
  "lon": -2.9344452
},
{
  "type": "node",
  "id": 1332673283,
  "lat": 43.2678829,
  "lon": -2.9342467
},
{
  "type": "node",
  "id": 1332673284,
  "lat": 43.2684798,
  "lon": -2.9348356
},
{
  "type": "node",
  "id": 1332673285,
  "lat": 43.2690677,
  "lon": -2.9341114
},
{
  "type": "node",
  "id": 1332673286,
  "lat": 43.2687786,
  "lon": -2.9348785
},
{
  "type": "node",
  "id": 1332673287,
  "lat": 43.2685685,
  "lon": -2.9344961
},
{
  "type": "node",
  "id": 1332673288,
  "lat": 43.2685638,
  "lon": -2.9346478
},
{
  "type": "node",
  "id": 1332673290,
  "lat": 43.2678411,
  "lon": -2.9343286
},
{
  "type": "node",
  "id": 1332673292,
  "lat": 43.2681739,
  "lon": -2.9343030
},
{
  "type": "node",
  "id": 1332673293,
  "lat": 43.2680870,
  "lon": -2.9338122
},
{
  "type": "node",
  "id": 1332673294,
  "lat": 43.2686849,
  "lon": -2.9335803
},
{
  "type": "node",
  "id": 1332673295,
  "lat": 43.2681927,
  "lon": -2.9337466
},
{
  "type": "node",
  "id": 1332673296,
  "lat": 43.2686524,
  "lon": -2.9333937
},
{
  "type": "node",
  "id": 1332673297,
  "lat": 43.2678216,
  "lon": -2.9343501
},
{
  "type": "node",
  "id": 1332673300,
  "lat": 43.2680743,
  "lon": -2.9339007
},
{
  "type": "node",
  "id": 1332673301,
  "lat": 43.2686419,
  "lon": -2.9333067
},
{
  "type": "node",
  "id": 1332673302,
  "lat": 43.2690899,
  "lon": -2.9344613
},
{
  "type": "node",
  "id": 1332673303,
  "lat": 43.2690481,
  "lon": -2.9343850
},
{
  "type": "node",
  "id": 1332673304,
  "lat": 43.2678841,
  "lon": -2.9339129
},
{
  "type": "node",
  "id": 1332673305,
  "lat": 43.2685446,
  "lon": -2.9342704
},
{
  "type": "node",
  "id": 1332673307,
  "lat": 43.2686438,
  "lon": -2.9342244
},
{
  "type": "node",
  "id": 1332673308,
  "lat": 43.2685501,
  "lon": -2.9325637
},
{
  "type": "node",
  "id": 1332673309,
  "lat": 43.2689903,
  "lon": -2.9343218
},
{
  "type": "node",
  "id": 1332673311,
  "lat": 43.2689212,
  "lon": -2.9342857
},
{
  "type": "node",
  "id": 1332673312,
  "lat": 43.2678607,
  "lon": -2.9343796
},
{
  "type": "node",
  "id": 1332673313,
  "lat": 43.2685599,
  "lon": -2.9348356
},
{
  "type": "node",
  "id": 1332673314,
  "lat": 43.2681517,
  "lon": -2.9337225
},
{
  "type": "node",
  "id": 1332673323,
  "lat": 43.2689466,
  "lon": -2.9338485
},
{
  "type": "node",
  "id": 1332673324,
  "lat": 43.2686517,
  "lon": -2.9335374
},
{
  "type": "node",
  "id": 1332673325,
  "lat": 43.2684739,
  "lon": -2.9321990
},
{
  "type": "node",
  "id": 1332673326,
  "lat": 43.2685462,
  "lon": -2.9346800
},
{
  "type": "node",
  "id": 1332673327,
  "lat": 43.2679181,
  "lon": -2.9342816
},
{
  "type": "node",
  "id": 1332673329,
  "lat": 43.2683732,
  "lon": -2.9336647
},
{
  "type": "node",
  "id": 1332673330,
  "lat": 43.2686224,
  "lon": -2.9331270
},
{
  "type": "node",
  "id": 1332673331,
  "lat": 43.2681653,
  "lon": -2.9344386
},
{
  "type": "node",
  "id": 1332673333,
  "lat": 43.2683536,
  "lon": -2.9336164
},
{
  "type": "node",
  "id": 1332673336,
  "lat": 43.2678607,
  "lon": -2.9342911
},
{
  "type": "node",
  "id": 1332682366,
  "lat": 43.2684513,
  "lon": -2.9337666
},
{
  "type": "node",
  "id": 1332682398,
  "lat": 43.2680525,
  "lon": -2.9339065
},
{
  "type": "node",
  "id": 1332682553,
  "lat": 43.2685007,
  "lon": -2.9338080
},
{
  "type": "node",
  "id": 1332698095,
  "lat": 43.2686367,
  "lon": -2.9343670
},
{
  "type": "node",
  "id": 1332709650,
  "lat": 43.2685345,
  "lon": -2.9335186
},
{
  "type": "node",
  "id": 1332709671,
  "lat": 43.2684806,
  "lon": -2.9336834
},
{
  "type": "node",
  "id": 1332709672,
  "lat": 43.2684825,
  "lon": -2.9335949
},
{
  "type": "node",
  "id": 1332709676,
  "lat": 43.2685774,
  "lon": -2.9335132
},
{
  "type": "node",
  "id": 1332709707,
  "lat": 43.2684993,
  "lon": -2.9335267
},
{
  "type": "node",
  "id": 1332709713,
  "lat": 43.2684903,
  "lon": -2.9337398
},
{
  "type": "node",
  "id": 1332719301,
  "lat": 43.2690283,
  "lon": -2.9343633
},
{
  "type": "node",
  "id": 1854432681,
  "lat": 43.2686625,
  "lon": -2.9348405
},
{
  "type": "node",
  "id": 508518125,
  "lat": 43.2578517,
  "lon": -2.9222072
},
{
  "type": "node",
  "id": 508518139,
  "lat": 43.2577623,
  "lon": -2.9220120
},
{
  "type": "node",
  "id": 508518303,
  "lat": 43.2581474,
  "lon": -2.9215028
},
{
  "type": "node",
  "id": 508518323,
  "lat": 43.2578900,
  "lon": -2.9221727
},
{
  "type": "node",
  "id": 510253502,
  "lat": 43.2579298,
  "lon": -2.9222582
},
{
  "type": "node",
  "id": 510253610,
  "lat": 43.2580224,
  "lon": -2.9219712
},
{
  "type": "node",
  "id": 1275729150,
  "lat": 43.2582239,
  "lon": -2.9217811
},
{
  "type": "node",
  "id": 1275729154,
  "lat": 43.2581102,
  "lon": -2.9218894
},
{
  "type": "node",
  "id": 1736371559,
  "lat": 43.2587214,
  "lon": -2.9215188
},
{
  "type": "node",
  "id": 1736371589,
  "lat": 43.2586038,
  "lon": -2.9209274
},
{
  "type": "node",
  "id": 1736371592,
  "lat": 43.2586174,
  "lon": -2.9211292
},
{
  "type": "node",
  "id": 1736371607,
  "lat": 43.2586613,
  "lon": -2.9212712
},
{
  "type": "node",
  "id": 1736371674,
  "lat": 43.2587070,
  "lon": -2.9214665
},
{
  "type": "node",
  "id": 1736371677,
  "lat": 43.2586034,
  "lon": -2.9210783
},
{
  "type": "node",
  "id": 1736371692,
  "lat": 43.2586246,
  "lon": -2.9210027
},
{
  "type": "node",
  "id": 1736371713,
  "lat": 43.2586977,
  "lon": -2.9214091
},
{
  "type": "node",
  "id": 1736371715,
  "lat": 43.2586721,
  "lon": -2.9213162
},
{
  "type": "node",
  "id": 1736371766,
  "lat": 43.2586474,
  "lon": -2.9212206
},
{
  "type": "node",
  "id": 1846136795,
  "lat": 43.2578177,
  "lon": -2.9222369
},
{
  "type": "node",
  "id": 1846136798,
  "lat": 43.2578537,
  "lon": -2.9223220
},
{
  "type": "node",
  "id": 1846136799,
  "lat": 43.2580547,
  "lon": -2.9220423
},
{
  "type": "node",
  "id": 1846136823,
  "lat": 43.2585893,
  "lon": -2.9210210
},
{
  "type": "node",
  "id": 1846136830,
  "lat": 43.2586782,
  "lon": -2.9208904
},
{
  "type": "node",
  "id": 1846136831,
  "lat": 43.2586782,
  "lon": -2.9215494
},
{
  "type": "node",
  "id": 1846136834,
  "lat": 43.2587067,
  "lon": -2.9216548
},
{
  "type": "node",
  "id": 1846136835,
  "lat": 43.2587172,
  "lon": -2.9208711
},
{
  "type": "node",
  "id": 1846136839,
  "lat": 43.2587699,
  "lon": -2.9208450
},
{
  "type": "node",
  "id": 1846136845,
  "lat": 43.2588045,
  "lon": -2.9209834
},
{
  "type": "node",
  "id": 1846136846,
  "lat": 43.2588060,
  "lon": -2.9215350
},
{
  "type": "node",
  "id": 1846136847,
  "lat": 43.2587970,
  "lon": -2.9216114
},
{
  "type": "node",
  "id": 1846136851,
  "lat": 43.2588151,
  "lon": -2.9215783
},
{
  "type": "node",
  "id": 1846136854,
  "lat": 43.2588271,
  "lon": -2.9209731
},
{
  "type": "node",
  "id": 1846136855,
  "lat": 43.2588406,
  "lon": -2.9215205
},
{
  "type": "node",
  "id": 1846136867,
  "lat": 43.2589008,
  "lon": -2.9213718
},
{
  "type": "node",
  "id": 4136231943,
  "lat": 43.2577005,
  "lon": -2.9218748
},
{
  "type": "node",
  "id": 5094404970,
  "lat": 43.2578107,
  "lon": -2.9221075
},
{
  "type": "node",
  "id": 4146396875,
  "lat": 43.2965860,
  "lon": -2.8674635
},
{
  "type": "node",
  "id": 4146396876,
  "lat": 43.2966074,
  "lon": -2.8674904
},
{
  "type": "node",
  "id": 4146396877,
  "lat": 43.2966113,
  "lon": -2.8672704
},
{
  "type": "node",
  "id": 4146396878,
  "lat": 43.2966582,
  "lon": -2.8680161
},
{
  "type": "node",
  "id": 4146396879,
  "lat": 43.2966933,
  "lon": -2.8667125
},
{
  "type": "node",
  "id": 4146396880,
  "lat": 43.2967714,
  "lon": -2.8675199
},
{
  "type": "node",
  "id": 4146396881,
  "lat": 43.2968202,
  "lon": -2.8673321
},
{
  "type": "node",
  "id": 4146396882,
  "lat": 43.2969171,
  "lon": -2.8680128
},
{
  "type": "node",
  "id": 2935298339,
  "lat": 43.3139157,
  "lon": -2.6797224
},
{
  "type": "node",
  "id": 2935298340,
  "lat": 43.3139180,
  "lon": -2.6794151
},
{
  "type": "node",
  "id": 2935298549,
  "lat": 43.3141421,
  "lon": -2.6797262
},
{
  "type": "node",
  "id": 2935298552,
  "lat": 43.3141456,
  "lon": -2.6794183
},
{
  "type": "node",
  "id": 5303553451,
  "lat": 43.3053857,
  "lon": -2.6407693
},
{
  "type": "node",
  "id": 5303553452,
  "lat": 43.3056541,
  "lon": -2.6406555
},
{
  "type": "node",
  "id": 5303553453,
  "lat": 43.3053964,
  "lon": -2.6406206
},
{
  "type": "node",
  "id": 5303553454,
  "lat": 43.3056435,
  "lon": -2.6408042
},
{
  "type": "node",
  "id": 1886061519,
  "lat": 43.3748989,
  "lon": -2.6977029
},
{
  "type": "node",
  "id": 1886061522,
  "lat": 43.3749800,
  "lon": -2.6976496
},
{
  "type": "node",
  "id": 1886061524,
  "lat": 43.3749672,
  "lon": -2.6978995
},
{
  "type": "node",
  "id": 1886061526,
  "lat": 43.3749965,
  "lon": -2.6976972
},
{
  "type": "node",
  "id": 3503127441,
  "lat": 43.3749452,
  "lon": -2.6976696
},
{
  "type": "node",
  "id": 3426838758,
  "lat": 43.3468307,
  "lon": -2.6571899
},
{
  "type": "node",
  "id": 3426838759,
  "lat": 43.3473729,
  "lon": -2.6578523
},
{
  "type": "node",
  "id": 3426838760,
  "lat": 43.3475365,
  "lon": -2.6576058
},
{
  "type": "node",
  "id": 3426838761,
  "lat": 43.3469830,
  "lon": -2.6569465
},
{
  "type": "node",
  "id": 5948936936,
  "lat": 43.3474979,
  "lon": -2.6575598
},
{
  "type": "node",
  "id": 1886061528,
  "lat": 43.3750761,
  "lon": -2.6978280
},
{
  "type": "node",
  "id": 1886061530,
  "lat": 43.3751177,
  "lon": -2.6979478
},
{
  "type": "node",
  "id": 1886061532,
  "lat": 43.3751367,
  "lon": -2.6976051
},
{
  "type": "node",
  "id": 1886061534,
  "lat": 43.3753017,
  "lon": -2.6978758
},
{
  "type": "node",
  "id": 3503127439,
  "lat": 43.3750493,
  "lon": -2.6978456
},
{
  "type": "node",
  "id": 5973330403,
  "lat": 43.3751517,
  "lon": -2.6979743
},
{
  "type": "node",
  "id": 5973330404,
  "lat": 43.3751379,
  "lon": -2.6979345
},
{
  "type": "node",
  "id": 5973330405,
  "lat": 43.3752077,
  "lon": -2.6976049
},
{
  "type": "node",
  "id": 5973330406,
  "lat": 43.3751499,
  "lon": -2.6976429
},
{
  "type": "node",
  "id": 6139481538,
  "lat": 43.4204809,
  "lon": -2.7210846
},
{
  "type": "node",
  "id": 6139481547,
  "lat": 43.4203599,
  "lon": -2.7210851
},
{
  "type": "node",
  "id": 6139481550,
  "lat": 43.4204317,
  "lon": -2.7212579
},
{
  "type": "node",
  "id": 6139481577,
  "lat": 43.4204788,
  "lon": -2.7210911
},
{
  "type": "node",
  "id": 6139481584,
  "lat": 43.4203814,
  "lon": -2.7210307
},
{
  "type": "node",
  "id": 6139482486,
  "lat": 43.4202637,
  "lon": -2.7210856
},
{
  "type": "node",
  "id": 6139482489,
  "lat": 43.4204761,
  "lon": -2.7210896
},
{
  "type": "node",
  "id": 6139482512,
  "lat": 43.4202609,
  "lon": -2.7212597
},
{
  "type": "way",
  "id": 185284417,
  "nodes": [
    1958517282,
    1958517278,
    1958517276,
    1958517280,
    1958517282
  ]
},
{
  "type": "way",
  "id": 203255962,
  "nodes": [
    1773993350,
    506813253,
    1773993353,
    1773993345,
    1773993343,
    1773993339,
    1773993342,
    1773993341,
    1773993350
  ]
}

  ]
}
