{
  "version": 0.6,
  "generator": "Overpass API 0.7.55.9 ab41fea6",
  "osm3s": {
    "timestamp_osm_base": "2020-02-14T19:14:02Z",
    "copyright": "The data included in this document is from www.openstreetmap.org. The data is made available under ODbL."
  },
  "elements": [

{
  "type": "node",
  "id": 280811341,
  "lat": 53.9139961,
  "lon": 27.5807981,
  "tags": {
    "name": "Галерея современного искусства",
    "name:be": "Галерэя сучаснага мастацтва",
    "opening_hours": "Tu, Th-Sa 11:00-19:00; We 01:00-21:00",
    "tourism": "museum"
  }
},
{
  "type": "node",
  "id": 281922132,
  "lat": 53.9085425,
  "lon": 27.5570855,
  "tags": {
    "addr:housenumber": "13",
    "addr:postcode": "220029",
    "addr:street": "улица Максима Богдановича",
    "name": "Государственный музей истории белорусской литературы",
    "name:be": "Дзяржаўны музей гісторыі беларускай літаратуры",
    "name:en": "State Museum of History of the Belarusian Literature",
    "opening_hours": "Mo-Fr 10:00-19:00, Sa,Su 10:30-19:00",
    "tourism": "museum",
    "website": "http://bellitmuseum.by/",
    "wikidata": "Q17043250",
    "wikipedia": "be:Дзяржаўны музей гісторыі беларускай літаратуры"
  }
},
{
  "type": "node",
  "id": 742196373,
  "lat": 53.7550577,
  "lon": 28.0092344,
  "tags": {
    "addr:housenumber": "20",
    "addr:street": "Революционная улица",
    "name": "Музей Хаима Сутина",
    "name:en": "Museum Haim Sutin",
    "opening_hours": "Mo-Fr 9:00-13:00; 14:00-17:00, Sa 9:00-14:00",
    "phone": "801714-23246",
    "tourism": "museum",
    "website": "https://soutine-smilovichi.by/"
  }
},
{
  "type": "node",
  "id": 1024754013,
  "lat": 53.9970767,
  "lon": 27.2926122,
  "tags": {
    "name": "Детский музей мифологии леса",
    "name:be": "Дзіцячы музей міфалогіі лесу",
    "name:en": "Museum of forrest mythology for children",
    "name:ru": "Детский музей мифологии леса",
    "tourism": "museum"
  }
},
{
  "type": "node",
  "id": 1159570462,
  "lat": 53.9033378,
  "lon": 27.5523854,
  "tags": {
    "addr:housenumber": "10",
    "addr:street": "Революционная улица",
    "name": "Музей истории города Минска",
    "name:be": "Музей гісторыі горада Мінска",
    "name:en": "Minsk city museum",
    "name:ru": "Музей истории города Минска",
    "phone": "+37517 3212430, 3212438",
    "tourism": "museum",
    "wikidata": "Q4306317",
    "wikipedia": "be:Музей гісторыі горада Мінска"
  }
},
{
  "type": "node",
  "id": 1160932456,
  "lat": 53.8972286,
  "lon": 27.5530377,
  "tags": {
    "addr:housenumber": "12",
    "addr:street": "проспект Независимости",
    "amenity": "arts_centre",
    "name": "Галерея «Мастацтва»",
    "name:be": "Галерэя «Мастацтва»",
    "name:en": "Art gallery «MASTACTVA»",
    "name:ru": "Галерея «Мастацтва»",
    "opening_hours": "Mo-Fr 11:00-20:00; Sa 11:00-19:00; Su 11:00-18:00",
    "phone": "+375173278363",
    "tourism": "museum",
    "website": "http://artgallery.by/",
    "wheelchair": "no"
  }
},
{
  "type": "node",
  "id": 1165818843,
  "lat": 54.0600276,
  "lon": 27.7392985,
  "tags": {
    "description": "Ранее: Костел св. Матвея. Рейтинг: увидеть по дороге",
    "description:ru": "Ранее: Костел св. Матвея. Рейтинг: увидеть по дороге",
    "name": "Музей белорусского народного искусства",
    "name:be": "Музей беларускага народнага мастацтва",
    "name:ru": "Музей белорусского народного искусства",
    "ref": "http://globus.tut.by",
    "tourism": "museum"
  }
},
{
  "type": "node",
  "id": 1369980132,
  "lat": 53.9051623,
  "lon": 27.5595432,
  "tags": {
    "historic": "building",
    "name": "Государственный музей истории театральной и музыкальной культуры Республики Беларусь",
    "name:be": "Дзяржаўны музей гісторыі тэатральнай і музычнай культуры Рэспублікі Беларусь",
    "name:ru": "Государственный музей истории театральной и музыкальной культуры Республики Беларусь",
    "opening_hours": "Mo-Sa 10:00-17:30",
    "opening_hours:description": "Музей работает: 9.00 - 18.00 Экспозиция работает: 10.00 - 17.30 Касса работает: 10.00 - 17.00 Выходной: воскресение",
    "tourism": "museum",
    "wikidata": "Q13030641"
  }
},
{
  "type": "node",
  "id": 1372173068,
  "lat": 53.9319540,
  "lon": 27.6909370,
  "tags": {
    "description": "Рейтинг: увидеть по дороге",
    "description:ru": "Рейтинг: увидеть по дороге",
    "name": "Музей валунов",
    "name:be": "Музей валуноў",
    "name:en": "Stones Museum",
    "name:ru": "Музей валунов",
    "ref": "http://globus.tut.by",
    "tourism": "museum",
    "wikidata": "Q3919319",
    "wikipedia": "ru:Музей валунов"
  }
},
{
  "type": "node",
  "id": 1374699154,
  "lat": 53.5961570,
  "lon": 27.6842505,
  "tags": {
    "description": "Даты строительства / обновления: 1990-е гг.; Вход не позже, чем за час до закрытия",
    "description:ru": "Даты строительства / обновления: 1990-е гг.",
    "name": "Музей старинных ремесел \"Дудутки\"",
    "name:ru": "Музей старинных ремесел \"Дудутки\"",
    "opening_hours": "Tu-We 10:00-17:00; Th-Su 10:00-17:00; Mo off",
    "phone": "+375171330747, +375296025250 Velcom, +375256025250 Life, +375296035250 Velcom",
    "ref": "http://www.dudutki.by",
    "tourism": "museum",
    "website": "http://dudutki.by/"
  }
},
{
  "type": "node",
  "id": 1663056243,
  "lat": 53.9017897,
  "lon": 27.5955159,
  "tags": {
    "tourism": "museum"
  }
},
{
  "type": "node",
  "id": 2070468875,
  "lat": 53.9038016,
  "lon": 27.5536665,
  "tags": {
    "name": "Художественная галерея Михаила Савицкого",
    "name:be": "Мастацкая галерэя Міхаіла Савіцкага",
    "name:en": "Mikhail Savicki Art Gallery",
    "tourism": "museum"
  }
},
{
  "type": "node",
  "id": 2503768434,
  "lat": 53.9111683,
  "lon": 27.5293789,
  "tags": {
    "addr:postcode": "220004",
    "addr:street": "Амураторская улица",
    "name": "Музей истории ОО БелТИЗа",
    "name:be": "Музей гісторыі БелТІЗА",
    "operator": "БелТИЗ",
    "phone": "+375 (17) 203-11-81",
    "tourism": "museum"
  }
},
{
  "type": "node",
  "id": 2611576871,
  "lat": 53.8772155,
  "lon": 27.5332623,
  "tags": {
    "addr:housenumber": "3",
    "addr:postcode": "220039",
    "addr:street": "Брилевская улица",
    "name": "Центр океанографии «Открытый океан»",
    "name:be": "Цэнтр акіянаграфіі \"Адкрыты акіян\"",
    "phone": "+375172240724",
    "tourism": "museum",
    "website": "http://ocean-minsk.by/"
  }
},
{
  "type": "node",
  "id": 3007298392,
  "lat": 53.9707022,
  "lon": 27.4588519,
  "tags": {
    "int_name": "Muziej-dača Vasilia Bykava",
    "name": "Музей-дача Василя Быкова",
    "name:be": "Музей-дача Васіля Быкава",
    "name:en": "Museum-Dacha of Vasil Bykaw",
    "name:ru": "Музей-дача Василя Быкова",
    "opening_hours": "We-Su 11:00-17:00",
    "tourism": "museum"
  }
},
{
  "type": "node",
  "id": 3126522046,
  "lat": 53.8869588,
  "lon": 27.5351412,
  "tags": {
    "addr:housenumber": "28",
    "addr:postcode": "220007",
    "addr:street": "улица Фабрициуса",
    "name": "Музей истории медицины Беларуси",
    "name:be": "Музэй гісторыі медыцыны Беларусі",
    "name:en": "Medicine museum",
    "tourism": "museum"
  }
},
{
  "type": "node",
  "id": 3286420728,
  "lat": 53.9151252,
  "lon": 27.5621196,
  "tags": {
    "name": "Музей пива Аливария",
    "name:be": "Музей піва Аліварыя",
    "name:en": "\"Alivaryja\" Beer Museum",
    "opening_hours": "Su 14:00-16:00; We-Sa 16:00-19:30",
    "tourism": "museum",
    "website": "https://alivaria.by/"
  }
},
{
  "type": "node",
  "id": 3517023113,
  "lat": 53.8932421,
  "lon": 27.5486094,
  "tags": {
    "addr:housenumber": "16",
    "addr:street": "Ленинградская улица",
    "contact:phone": "+375 17 2095490",
    "name": "Музей землеведения БГУ",
    "name:be": "Музей землязнаўства БДУ",
    "name:en": "Geology museum",
    "name:ru": "Музей землеведения БГУ",
    "opening_hours": "Mo-Fr 09:00-18:00; Sa 09:00-13:00",
    "tourism": "museum"
  }
},
{
  "type": "node",
  "id": 3615119292,
  "lat": 54.0731006,
  "lon": 27.6619463,
  "tags": {
    "name": "Музей минералов",
    "tourism": "museum"
  }
},
{
  "type": "node",
  "id": 3640330869,
  "lat": 53.9054051,
  "lon": 27.5570313,
  "tags": {
    "addr:housenumber": "8Д",
    "addr:street": "улица Кирилла и Мефодия",
    "name": "Музей конки",
    "name:be": "Музей конкі",
    "name:ru": "Музей конки",
    "opening_hours": "We-Su 11:00-19:00",
    "tourism": "museum"
  }
},
{
  "type": "node",
  "id": 3640330875,
  "lat": 53.9056777,
  "lon": 27.5578254,
  "tags": {
    "name": "Археологический",
    "name:be": "Археалагічны музей",
    "name:en": "Archeological museum",
    "tourism": "museum"
  }
},
{
  "type": "node",
  "id": 3877700868,
  "lat": 53.8993743,
  "lon": 27.5610008,
  "tags": {
    "addr:housenumber": "30",
    "addr:postcode": "220030",
    "addr:street": "улица Карла Маркса",
    "contact:website": "http://facebook.com/museum.brovka",
    "email": "museum_brovka@tut.by",
    "internet_access": "wlan",
    "name": "Литературный музей Петруся Бровки",
    "name:be": "Літаратурны музей Петруся Броўкі",
    "name:en": "Literature Museum of Piatruś Brouka",
    "name:ru": "Литературный музей Петруся Бровки",
    "opening_hours": "Mo-Sa 10:00-17:30",
    "phone": "+375 17 327 27 50",
    "tourism": "museum",
    "wikidata": "Q4146862",
    "wikipedia": "ru:Государственный литературный музей Петруся Бровки"
  }
},
{
  "type": "node",
  "id": 3942077257,
  "lat": 53.9010943,
  "lon": 27.5507063,
  "tags": {
    "name": "Музей пожарного и аварийно-спасательного дела МЧС",
    "name:be": "Музей пажарнай справы",
    "name:en": "Firefighters museum",
    "tourism": "museum"
  }
},
{
  "type": "node",
  "id": 4223933189,
  "lat": 53.9078550,
  "lon": 27.4843060,
  "tags": {
    "addr:housenumber": "29",
    "addr:street": "улица Притыцкого",
    "name": "Музей интересной науки \"Элементо\"",
    "name:be": "Музэй цікавай навукі \"Элементо\"",
    "name:en": "Science museum Elemento",
    "opening_hours": "Mo-Su 10:00-19:00",
    "phone": "+375296454040",
    "tourism": "museum",
    "website": "http://elemento.by"
  }
},
{
  "type": "node",
  "id": 4239182089,
  "lat": 53.8929110,
  "lon": 27.5487704,
  "tags": {
    "name": "Оранжерея",
    "name:be": "Аранжарэя",
    "tourism": "museum"
  }
},
{
  "type": "node",
  "id": 4297160007,
  "lat": 53.8484075,
  "lon": 27.5094308,
  "tags": {
    "addr:housenumber": "91",
    "addr:street": "улица Казинца",
    "level": "7",
    "name": "Музей Владимира Короткевича",
    "name:be": "Музей Ўладзіміра Караткевіча",
    "name:en": "Uladzimir Karatkevich Museum",
    "tourism": "museum"
  }
},
{
  "type": "node",
  "id": 4297160008,
  "lat": 53.9314183,
  "lon": 27.6457294,
  "tags": {
    "name": "Музей книги",
    "name:be": "Музей кнігі",
    "name:en": "Books Museum",
    "opening_hours": "Mo-Su 10:00-18:00",
    "tourism": "museum"
  }
},
{
  "type": "node",
  "id": 4297160009,
  "lat": 53.9074159,
  "lon": 27.5110419,
  "tags": {
    "name": "Музей истории дорожного хозяйства",
    "name:be": "Музей гісторыі дарожнай гаспадаркі",
    "name:en": "Roads Museum",
    "tourism": "museum"
  }
},
{
  "type": "node",
  "id": 4297160010,
  "lat": 53.9473606,
  "lon": 27.7127286,
  "tags": {
    "name": "Музей военной истории",
    "name:be": "Музей ваенай гісторыі",
    "opening_hours": "Tu-Su 10:00-17:00",
    "tourism": "museum"
  }
},
{
  "type": "node",
  "id": 4297635153,
  "lat": 53.9167536,
  "lon": 27.6033218,
  "tags": {
    "name": "Древнебелорусской культуры",
    "name:be": "Музей старажытнай беларускай культуры",
    "tourism": "museum",
    "wikidata": "Q6511262"
  }
},
{
  "type": "node",
  "id": 4297635154,
  "lat": 53.8776799,
  "lon": 27.5370631,
  "tags": {
    "name": "Истории белорусской железной дороги",
    "name:be": "Музей гісторыі беларускай чыгункі",
    "name:en": "Railroad Museum",
    "name:ru": "Музей истории белорусской железной дороги",
    "tourism": "museum"
  }
},
{
  "type": "node",
  "id": 4297635155,
  "lat": 53.9228142,
  "lon": 27.5637461,
  "tags": {
    "name": "Истории и культуры евреев Беларуси",
    "name:be": "Музей гісторыі і культуры жыдоў Беларусі",
    "tourism": "museum"
  }
},
{
  "type": "node",
  "id": 4297635156,
  "lat": 53.9206611,
  "lon": 27.5985724,
  "tags": {
    "name": "Музей истории НАН Беларуси",
    "name:be": "Музей гісторыі НАН Беларусі",
    "tourism": "museum"
  }
},
{
  "type": "node",
  "id": 4297635157,
  "lat": 53.9113024,
  "lon": 27.6373996,
  "tags": {
    "name": "Музей Криминалистики Академии МВД",
    "name:be": "Музей крыміналістыкі МУС",
    "tourism": "museum"
  }
},
{
  "type": "node",
  "id": 4297635158,
  "lat": 53.9386396,
  "lon": 27.6843789,
  "tags": {
    "name": "Культурный центр Белорусского фонда Рерихов",
    "tourism": "museum"
  }
},
{
  "type": "node",
  "id": 4317973603,
  "lat": 53.8890156,
  "lon": 27.6194073,
  "tags": {
    "addr:city": "Минск",
    "addr:country": "BY",
    "addr:housenumber": "35",
    "addr:postcode": "220070",
    "addr:street": "Долгобродская улица",
    "contact:email": "museum@belarus-tractor.com",
    "contact:fax": "(+375 17)3989899",
    "contact:phone": "(+375 17)3989899",
    "contact:website": "http://www.belarus-tractor.com",
    "name": "Музей Минского тракторного завода",
    "name:be": "Музей Мінскага трактарнага завода",
    "opening_hours": "Mo-Su 08:00-18:00",
    "operator": "ОАО \"МТЗ\"",
    "tourism": "museum",
    "wheelchair": "limited"
  }
},
{
  "type": "node",
  "id": 4394942849,
  "lat": 53.8895598,
  "lon": 27.5750621,
  "tags": {
    "name": "ЦЭХ",
    "tourism": "museum"
  }
},
{
  "type": "node",
  "id": 4402577892,
  "lat": 53.8329540,
  "lon": 27.3741280,
  "tags": {
    "name": "Музей народной архитектуры и быта",
    "name:be": "Музей народнай архітэктуры і побыту",
    "name:ru": "Музей народной архитектуры и быта",
    "tourism": "museum"
  }
},
{
  "type": "node",
  "id": 4690094174,
  "lat": 53.9031723,
  "lon": 27.5628432,
  "tags": {
    "addr:city": "Минск",
    "addr:housenumber": "25",
    "addr:street": "проспект Независимости",
    "description": "Музей архитектурных миниатюр «Страна мини» - идеальный вариант для туристов!Museum “Strana mini” is a perfect place for getting acquainted with Belarus.",
    "fax": "+375 291515670",
    "level": "0",
    "name": "Музей архитектурных миниатюр \"Страна мини\"",
    "name:be": "Страна міні",
    "name:en": "Architecture miniatures museum",
    "opening_hours": "Today: 11:00 AM - 8:00 PM",
    "tourism": "museum",
    "wikidata": "Q30892768",
    "wikipedia": "ru:Страна мини"
  }
},
{
  "type": "node",
  "id": 4713127389,
  "lat": 53.9038450,
  "lon": 27.5587299,
  "tags": {
    "addr:housenumber": "23",
    "addr:street": "Интернациональная улица",
    "email": "catmuseumby@gmail.com",
    "name": "Музей кота",
    "name:be": "Музей ката",
    "name:en": "Cat museum",
    "opening_hours": "Mo-Su 11:00-21:00",
    "phone": "+375296423183",
    "tourism": "museum",
    "website": "http://catmuseum.by"
  }
},
{
  "type": "node",
  "id": 4780889518,
  "lat": 53.9561573,
  "lon": 27.6040138,
  "tags": {
    "name": "Историко-этнографический музей при храме Воскресения Христова г. Минска",
    "tourism": "museum"
  }
},
{
  "type": "node",
  "id": 5002193917,
  "lat": 53.5962066,
  "lon": 27.6850962,
  "tags": {
    "name": "Этнографическая галерея",
    "tourism": "museum"
  }
},
{
  "type": "node",
  "id": 5273183022,
  "lat": 53.5972848,
  "lon": 27.6815413,
  "tags": {
    "name": "Дудутки",
    "tourism": "museum"
  }
},
{
  "type": "node",
  "id": 5290444923,
  "lat": 53.9048233,
  "lon": 27.5586732,
  "tags": {
    "name": "Выставычныя залы",
    "opening_hours": "We-Su 11:00-19:00",
    "tourism": "museum"
  }
},
{
  "type": "node",
  "id": 5290445028,
  "lat": 53.9049692,
  "lon": 27.5588215,
  "tags": {
    "name": "DK галерея",
    "opening_hours": "We-Sa 12:00-20:00; Su 12:00-18:00",
    "tourism": "museum"
  }
},
{
  "type": "node",
  "id": 5329887371,
  "lat": 53.9387671,
  "lon": 27.4714323,
  "tags": {
    "email": "museum@mgts.by",
    "name": "Историко-информационный центр",
    "name:be": "Гісторыка-інфармацыйны цэнтр",
    "opening_hours": "Tu-Su 10:00-16:00",
    "operator": "Белтелеком",
    "phone": "+375 17 327-05-31",
    "tourism": "museum",
    "website": "https://historycenter.beltelecom.by/"
  }
},
{
  "type": "node",
  "id": 5369196629,
  "lat": 53.9312200,
  "lon": 27.6470167,
  "tags": {
    "addr:city": "Минск",
    "addr:housenumber": "116",
    "addr:postcode": "220114",
    "addr:street": "проспект Независимости",
    "level": "2",
    "name": "Музей науки «Elemento»",
    "name:be": "Музей навукі «Elemento»",
    "opening_hours": "Mo-Fr 10:00-19:00, Sa-Su 10:00-18:00",
    "phone": "+375 29 6454040",
    "source": "http://Elemento.by",
    "tourism": "museum",
    "website": "http://Elemento.by",
    "wheelchair": "limited"
  }
},
{
  "type": "node",
  "id": 5372709907,
  "lat": 53.8611525,
  "lon": 27.4787464,
  "tags": {
    "addr:city": "Минск",
    "addr:housenumber": "29",
    "addr:postcode": "220116",
    "addr:street": "проспект Газеты Правда",
    "email": "info@kvantum.by",
    "name": "Музей занимательных наук «Квантум»",
    "name:en": "Science museum Kvantum",
    "opening_hours": "Mo-Su 10:00-21:00",
    "phone": "+375 29 6331505",
    "tourism": "museum",
    "website": "https://kvantum.by"
  }
},
{
  "type": "node",
  "id": 5519074835,
  "lat": 53.7566230,
  "lon": 28.0176170,
  "tags": {
    "name": "Музыкальная гостиная Монюшко",
    "tourism": "museum"
  }
},
{
  "type": "node",
  "id": 5576021122,
  "lat": 53.9065437,
  "lon": 27.5715814,
  "tags": {
    "name": "Мобильный музей-лаборатория",
    "opening_hours": "Mo-Su 11:00-18:00",
    "tourism": "museum"
  }
},
{
  "type": "node",
  "id": 5604949102,
  "lat": 53.8508895,
  "lon": 27.5785229,
  "tags": {
    "name:be": "Сядзіба",
    "tourism": "museum"
  }
},
{
  "type": "node",
  "id": 5604949103,
  "lat": 53.8510699,
  "lon": 27.5775801,
  "tags": {
    "name:be": "Музей",
    "tourism": "museum"
  }
},
{
  "type": "node",
  "id": 6016255885,
  "lat": 53.9726650,
  "lon": 27.3453427,
  "tags": {
    "tourism": "museum"
  }
},
{
  "type": "node",
  "id": 6035009285,
  "lat": 53.9033952,
  "lon": 27.5523094,
  "tags": {
    "name": "Галерея Леонида Щемелева",
    "tourism": "museum"
  }
},
{
  "type": "node",
  "id": 6060541894,
  "lat": 53.9647609,
  "lon": 27.6448457,
  "tags": {
    "name": "Музей АЗС",
    "tourism": "museum"
  }
},
{
  "type": "node",
  "id": 6168797494,
  "lat": 53.9080791,
  "lon": 27.5560525,
  "tags": {
    "name": "Литературный музей Максима Богдановича",
    "name:be": "Літаратурны музей Максіма Багдановіча",
    "opening_hours": "Mo-Su 10:00-19:00",
    "tourism": "museum",
    "wikidata": "Q12337378",
    "wikipedia": "be:Літаратурны музей Максіма Багдановіча"
  }
},
{
  "type": "node",
  "id": 6216189085,
  "lat": 53.9063101,
  "lon": 27.5573041,
  "tags": {
    "addr:city": "Минск",
    "addr:housenumber": "6",
    "addr:postcode": "220030",
    "addr:street": "Зыбицкая улица",
    "description": "Музей о денежном обращении на территории Беларуси начиная со второго II века и заканчивая современностью, увлекательные экскурсии и полная коллекция памятных монет Национального банка РБ, которые также можно приобрести в музее",
    "email": "info@mgroshi.by",
    "internet_access": "wlan",
    "name": "Музей денег Groshi",
    "name:be": "Музэй грошай Groshi",
    "name:en": "Groshi museum of money",
    "opening_hours": "Mo-Su 10:00-21:00",
    "operator": "Частный музей",
    "phone": "+375291989090",
    "tourism": "museum",
    "website": "http://mgroshi.by"
  }
},
{
  "type": "node",
  "id": 6347910719,
  "lat": 53.8375682,
  "lon": 27.7054006,
  "tags": {
    "name": "Вагон-музей быта узников лагеря",
    "name:be": "Вагон-музей быту вязняў лагеру",
    "tourism": "museum",
    "wheelchair": "no"
  }
},
{
  "type": "node",
  "id": 6440339842,
  "lat": 53.9025276,
  "lon": 27.5640296,
  "tags": {
    "name": "Музей Библии",
    "name:be": "Музэй Бібліі",
    "name:en": "Bible museum",
    "tourism": "museum"
  }
},
{
  "type": "node",
  "id": 6452316979,
  "lat": 53.7386278,
  "lon": 27.5103977,
  "tags": {
    "name": "Музей истории плодоводства Беларуси",
    "tourism": "museum"
  }
},
{
  "type": "node",
  "id": 6466953008,
  "lat": 53.9085269,
  "lon": 27.5569189,
  "tags": {
    "email": "museum_ytuga@mail.ru",
    "internet_access": "wlan",
    "name": "Музей утюга",
    "name:be": "Музей праса",
    "name:en": "The museum of iron",
    "name:ru": "Музей утюга",
    "opening_hours": "Mo-Su 10:00-19:00",
    "operator": "УП \"МИНГОРСПРАВКА\"",
    "phone": "+375447107646",
    "tourism": "museum"
  }
},
{
  "type": "node",
  "id": 6485144206,
  "lat": 53.6746033,
  "lon": 27.9659745,
  "tags": {
    "name": "Музей усадьбы Ошторпов",
    "tourism": "museum"
  }
},
{
  "type": "node",
  "id": 7206595933,
  "lat": 53.9030418,
  "lon": 27.5612488,
  "tags": {
    "addr:city": "Минск",
    "addr:housenumber": "1",
    "addr:postcode": "220030",
    "addr:street": "Октябрьская площадь",
    "air_conditioning": "yes",
    "description": "\"Музей человека\" - научный музей для совместного и семейного отдыха. Science interactive \"Museum of human body\"- museum for joint and family rest.",
    "internet_access": "wlan",
    "level": "-1",
    "museum": "science_kids_family",
    "name": "Интерактивный \"Музей человека\"",
    "name:en": "Science interactive \"Museum of human body\"",
    "opening_hours": "Mo-Su 10:00-21:00",
    "payment:cash": "yes",
    "payment:credit_cards": "yes",
    "payment:mastercard": "yes",
    "payment:visa": "yes",
    "phone": "+375296331550",
    "tourism": "museum",
    "website": "https://chelovek.by/"
  }
},
{
  "type": "way",
  "id": 25323366,
  "nodes": [
    275890014,
    275890017,
    275890019,
    275890022,
    3371812401,
    275890014
  ],
  "tags": {
    "addr:housenumber": "5",
    "addr:postcode": "220012",
    "addr:street": "Академическая улица",
    "building": "yes",
    "building:levels": "2",
    "heritage": "2",
    "heritage:description": "Дом, у якім жыў народны паэт Беларусі Якуб Колас",
    "heritage:operator": "mcrb",
    "mcrb:criteria": "3",
    "name": "Государственный литературно-мемориальный музей Якуба Коласа",
    "ref:mcrb": "713Д000006",
    "start_date": "1952",
    "tourism": "museum",
    "website": "http://yakubkolas.by/muzej/",
    "wikidata": "Q5224060",
    "wikipedia": "be:Дзяржаўны літаратурна-мемарыяльны музей Якуба Коласа"
  }
},
{
  "type": "way",
  "id": 25324315,
  "nodes": [
    275904929,
    275904930,
    275904931,
    275904933,
    6380358575,
    275904929
  ],
  "tags": {
    "building": "yes",
    "building:levels": "1",
    "name": "Музей БНТУ",
    "tourism": "museum"
  }
},
{
  "type": "way",
  "id": 25325988,
  "nodes": [
    275920321,
    275920325,
    275920327,
    275920330,
    275920334,
    275920337,
    275920340,
    275920343,
    5169132821,
    275920321
  ],
  "tags": {
    "addr:housenumber": "8",
    "addr:postcode": "220088",
    "addr:street": "улица Азгура",
    "building": "yes",
    "building:levels": "2",
    "heritage": "2",
    "heritage:description": "Музей-майстэрня мастака З.І.Азгура (будынак, агароджа, дворык)",
    "heritage:operator": "mcrb",
    "mcrb:criteria": "3",
    "name": "Мемориальный музей-мастерская Заира Азгура",
    "name:be": "Мемарыяльны музей-майстэрня Заіра Азгура",
    "ref:mcrb": "713Д000005",
    "start_date": "1984",
    "tourism": "museum",
    "wikidata": "Q13031455",
    "wikipedia": "ru:Мемориальный музей-мастерская З. И. Азгура"
  }
},
{
  "type": "way",
  "id": 25326652,
  "nodes": [
    275927963,
    6419331125,
    275927965,
    4400857813,
    275927970,
    275927963
  ],
  "tags": {
    "addr:housenumber": "31А",
    "addr:postcode": "220005",
    "addr:street": "проспект Независимости",
    "building": "yes",
    "heritage": "2",
    "heritage:description": "Дом-музей І з’езда РСДРП",
    "heritage:operator": "mcrb",
    "mcrb:criteria": "3",
    "name": "Дом-музей I-ого съезда РСДРП",
    "name:en": "House Museum of First Congress of the Russian Social Democratic Labour Party",
    "ref:mcrb": "713Д000180",
    "start_date": "late C19;1948..1953",
    "tourism": "museum",
    "wikidata": "Q4165182",
    "wikipedia": "ru:Дом-музей I съезда РСДРП"
  }
},
{
  "type": "way",
  "id": 25327481,
  "nodes": [
    275935987,
    378828544,
    275935990,
    275935992,
    275935994,
    275935987
  ],
  "tags": {
    "addr:city": "Минск",
    "addr:housenumber": "4",
    "addr:postcode": "220030",
    "addr:street": "улица Янки Купалы",
    "building": "yes",
    "heritage": "2",
    "heritage:operator": "mcrb",
    "mcrb:criteria": "3",
    "name": "Государственный литературный музей Янки Купалы",
    "name:be": "Дзяржаўны літаратурны музей Янкі Купалы",
    "name:en": "Yanka Kupala Museum",
    "name:ru": "Государственный литературный музей Янки Купалы",
    "opening_hours": "Mo-Th 10:00-20:30; Fr 10:00-18:30; Sa 10:00-18:00",
    "ref:mcrb": "713Г000091",
    "start_date": "1944..1945",
    "tourism": "museum",
    "wikidata": "Q13030644",
    "wikipedia": "ru:Государственный литературный музей Янки Купалы"
  }
},
{
  "type": "way",
  "id": 25327488,
  "nodes": [
    275936049,
    275936055,
    3536836934,
    3536836932,
    3536836933,
    5776583974,
    5776583984,
    5776583955,
    3640330892,
    3640330891,
    275936049
  ],
  "tags": {
    "building": "yes",
    "heritage:description": "Флігель",
    "name": "Музей карет",
    "name:be": "Музей карэт",
    "name:en": "Carriage museum",
    "start_date": "1817",
    "tourism": "museum"
  }
},
{
  "type": "way",
  "id": 25327517,
  "nodes": [
    275936302,
    275936303,
    275936304,
    275936305,
    275936302
  ],
  "tags": {
    "addr:city": "Минск",
    "addr:housenumber": "33А",
    "addr:postcode": "220030",
    "addr:street": "Интернациональная улица",
    "building": "yes",
    "building:levels": "1",
    "name": "Дом-сядзіба Ваньковічаў",
    "name:be": "Дом-сядзіба Ваньковічаў",
    "name:en": "Wańkowicz House",
    "name:ru": "Дом-усадьба Ваньковичей",
    "tourism": "museum"
  }
},
{
  "type": "way",
  "id": 25327627,
  "nodes": [
    275938240,
    275938242,
    275938244,
    275938246,
    275938248,
    275938251,
    275938240
  ],
  "tags": {
    "addr:city": "Минск",
    "addr:housenumber": "20",
    "addr:postcode": "220030",
    "addr:street": "улица Ленина",
    "building": "public",
    "building:levels": "2",
    "contact:website": "http://www.artmuseum.by",
    "heritage": "2",
    "heritage:description": "Будынак Нацыянальнага мастацкага музея",
    "heritage:operator": "mcrb",
    "mcrb:criteria": "2",
    "name": "Национальный художественный музей",
    "name:be": "Нацыянальны мастацкі музей",
    "name:en": "National Art Museum",
    "name:ru": "Национальный художественный музей",
    "opening_hours": "We-Mo 11:00-18:30",
    "ref:mcrb": "713Г000102",
    "start_date": "1950s",
    "tourism": "museum",
    "wikidata": "Q2584571",
    "wikipedia": "ru:Национальный художественный музей Республики Беларусь"
  }
},
{
  "type": "way",
  "id": 25387313,
  "nodes": [
    276697882,
    1702552115,
    7105593848,
    7105593847,
    276697883,
    276697884,
    276697885,
    276697886,
    276697887,
    276697888,
    276697889,
    276697890,
    3691965725,
    276697891,
    276697892,
    3691965726,
    276697893,
    276697882
  ],
  "tags": {
    "addr:housenumber": "15",
    "addr:postcode": "220030",
    "addr:street": "площадь Свободы",
    "building": "yes",
    "building:levels": "2",
    "heritage:description": "Сядзібны дом",
    "name": "Музей истории города Минска",
    "name:be": "Музей гісторыі горада Мінска",
    "name:ru": "Музей истории города Минска",
    "tourism": "museum",
    "wikidata": "Q13032906",
    "wikipedia": "be:Сядзіба Пшаздзецкіх, Мінск"
  }
},
{
  "type": "way",
  "id": 25387415,
  "nodes": [
    276698733,
    276698734,
    276698735,
    276698736,
    276698733
  ],
  "tags": {
    "addr:housenumber": "7",
    "addr:postcode": "220030",
    "addr:street": "улица Городской Вал",
    "building": "yes",
    "building:levels": "2",
    "heritage": "2",
    "heritage:operator": "mcrb",
    "mcrb:criteria": "3",
    "name": "Центральный музей МВД",
    "ref:mcrb": "713Г000032",
    "start_date": "1914",
    "tourism": "museum",
    "wikidata": "Q18015565",
    "wikipedia": "be:Дом па вуліцы Гарадскі Вал, 7"
  }
},
{
  "type": "way",
  "id": 25387528,
  "nodes": [
    276699580,
    276699581,
    276699582,
    4664837321,
    276699583,
    276699584,
    4664837320,
    276699585,
    276699586,
    276699587,
    4297605071,
    276699580
  ],
  "tags": {
    "addr:housenumber": "12",
    "addr:postcode": "220030",
    "addr:street": "улица Карла Маркса",
    "building": "yes",
    "building:levels": "3",
    "contact:website": "http://histmuseum.by/",
    "heritage": "2",
    "heritage:description": "Будынак Нацыянальнага музея гісторыі і культуры Рэспублікі Беларусь",
    "heritage:operator": "mcrb",
    "mcrb:criteria": "3",
    "name": "Национальный исторический музей Беларуси",
    "name:be": "Нацыянальны гістарычны музей Рэспублікі Беларусь",
    "name:en": "Belarusian National History Museum",
    "name:ru": "Национальный исторический музей Беларуси",
    "opening_hours": "Mo-Su 11:00-18:30",
    "ref:mcrb": "713Г000116",
    "start_date": "early C20",
    "tourism": "museum",
    "wikidata": "Q2034395",
    "wikipedia": "be:Нацыянальны гістарычны музей Рэспублікі Беларусь"
  }
},
{
  "type": "way",
  "id": 25387545,
  "nodes": [
    276699743,
    276699744,
    276699745,
    276699746,
    276699743
  ],
  "tags": {
    "addr:city": "Минск",
    "addr:housenumber": "4",
    "addr:postcode": "220030",
    "addr:street": "улица Свердлова",
    "alt_name": "Музей кино",
    "building": "yes",
    "heritage": "2",
    "heritage:operator": "mcrb",
    "mcrb:criteria": "3",
    "name": "Музей истории белорусского кино",
    "name:be": "Музей гісторыі беларускага кіно",
    "name:en": "Cinema Museum",
    "opening_hours": "Mo-Sa 10:00 - 19:00",
    "ref:mcrb": "713Г000241",
    "start_date": "early C20",
    "tourism": "museum",
    "wikipedia": "ru:Музей истории белорусского кино"
  }
},
{
  "type": "way",
  "id": 25388652,
  "nodes": [
    276709733,
    276709734,
    276709736,
    276709744,
    276709733
  ],
  "tags": {
    "addr:city": "Минск",
    "addr:housenumber": "19",
    "addr:postcode": "220007",
    "addr:street": "Рабкоровская улица",
    "building": "public",
    "building:levels": "1",
    "description": "Дом, где жил Змитрок Бядуля",
    "heritage": "2",
    "heritage:operator": "mcrb",
    "mcrb:criteria": "3",
    "name": "Беларуская хатка - филиал Литературного музея М.Богдановича",
    "ref:mcrb": "713Д000218",
    "start_date": "1904;1987",
    "subject:wikidata": "Q2662384",
    "tourism": "museum",
    "wikipedia": "ru:Змитрок Бядуля"
  }
},
{
  "type": "way",
  "id": 29499376,
  "nodes": [
    325172390,
    325172391,
    325172392,
    325172394,
    325172390
  ],
  "tags": {
    "building": "yes",
    "name": "Музей конно-спортивного центра \"Ратомка\"",
    "tourism": "museum"
  }
},
{
  "type": "way",
  "id": 79741560,
  "nodes": [
    930664520,
    930664523,
    3646113587,
    930664525,
    930664520
  ],
  "tags": {
    "addr:housenumber": "4",
    "addr:street": "Рыночная улица",
    "building": "yes",
    "name": "Музейно-выставочный комплекс",
    "name:be": "Музейна-выставачны комплекс",
    "tourism": "museum"
  }
},
{
  "type": "way",
  "id": 127103385,
  "nodes": [
    1407534109,
    1407534118,
    1407534138,
    1407534139,
    1407534142,
    3529010351,
    1407534145,
    1407534147,
    1407534152,
    1407534154,
    3529010361,
    1407534151,
    1407534150,
    1407534149,
    1407534146,
    1407534144,
    1407534141,
    1407534140,
    3529010341,
    3529010342,
    3529010336,
    1407534124,
    1407534127,
    1407534135,
    1407534125,
    1407534122,
    1407534116,
    1407534109
  ],
  "tags": {
    "addr:housenumber": "8",
    "addr:street": "проспект Победителей",
    "building": "yes",
    "height": "12",
    "name": "Музей Великой Отечественной Войны",
    "name:be": "Музэй гісторыі Вялікай Айчыннай Вайны",
    "name:en": "The Museum of Great Patriotic War",
    "name:ru": "Музей Великой Отечественной Войны",
    "opening_hours": "Tu-Su 10:00-18:00",
    "phone": "+375 17 2030792",
    "tourism": "museum",
    "website": "http://www.warmuseum.by/",
    "wikidata": "Q2073524",
    "wikipedia": "ru:Белорусский государственный музей истории Великой Отечественной войны"
  }
},
{
  "type": "way",
  "id": 144245994,
  "nodes": [
    1578174667,
    1578174653,
    1578174632,
    1578174646,
    1578174667
  ],
  "tags": {
    "addr:housenumber": "9",
    "addr:street": "Советский переулок",
    "building": "yes",
    "name": "Кузня",
    "name:be": "Кузня",
    "tourism": "museum"
  }
},
{
  "type": "way",
  "id": 154378867,
  "nodes": [
    1669205361,
    3658565435,
    1669205400,
    1669205402,
    1669205359,
    1669205361
  ],
  "tags": {
    "building": "yes",
    "tourism": "museum"
  }
},
{
  "type": "way",
  "id": 201718918,
  "nodes": [
    2117385045,
    2117385052,
    2117385026,
    2117385040,
    2117385045
  ],
  "tags": {
    "building": "yes",
    "building:levels": "1",
    "tourism": "museum"
  }
},
{
  "type": "way",
  "id": 430441693,
  "nodes": [
    3668196338,
    277178334,
    6466559415,
    6466559416,
    2863047764,
    277178335,
    4297160006,
    2863047765,
    3668196338
  ],
  "tags": {
    "addr:housenumber": "14",
    "addr:street": "Старовиленская улица",
    "building": "yes",
    "name": "Гостиная Владислава Голубка",
    "name:be": "Гасцёўня Уладзіслава Галубка",
    "opening_hours": "Mo-Sa 10:00-17:30",
    "tourism": "museum",
    "wheelchair": "limited",
    "wikidata": "Q61969",
    "wikipedia": "be:Гасцёўня Уладзіслава Галубка"
  }
},
{
  "type": "way",
  "id": 584462715,
  "nodes": [
    5586832590,
    5586832591,
    5586832592,
    5586832593,
    5586832594,
    5586832595,
    5586832590
  ],
  "tags": {
    "leisure": "park",
    "name": "Авиамузей под открытым небом",
    "tourism": "museum"
  }
},
{
  "type": "way",
  "id": 677946261,
  "nodes": [
    6347910721,
    6347910735,
    6347910722,
    6347910734,
    6347910723,
    6347910724,
    6347910730,
    6347910729,
    6347910728,
    6347910726,
    6347910733,
    6347910725,
    6347910737,
    6347910727,
    6347910731,
    6347910732,
    6347910721
  ],
  "tags": {
    "building": "yes",
    "name": "Вагон-музей быта узников лагеря",
    "tourism": "museum"
  }
},
{
  "type": "way",
  "id": 695939078,
  "nodes": [
    6535006682,
    6535006685,
    2467045004,
    6535006675,
    6535006676,
    6535006677,
    6535006671,
    6535006678,
    6535006679,
    6535006666,
    6535006680,
    6535006681,
    6535006682
  ],
  "tags": {
    "heritage": "2",
    "heritage:description": "Музеефікаваныя аб’екты энаграфічных комплексаў ”Млын“ і ”Кузня“: паравы млын, дом завознікаў, свіран, кузня",
    "heritage:operator": "mcrb",
    "mcrb:criteria": "2",
    "ref:mcrb": "612Г000334",
    "start_date": "early C20",
    "tourism": "museum",
    "website": "https://zaslaue.by/"
  }
},
{
  "type": "relation",
  "id": 6862332,
  "members": [
    {
      "type": "way",
      "ref": 464696773,
      "role": "outer"
    },
    {
      "type": "way",
      "ref": 464696775,
      "role": "outer"
    }
  ],
  "tags": {
    "museum": "open_air",
    "name": "Музей авиационной техники",
    "name:be": "Музей авіяцыйнай тэхнікі",
    "name:ru": "Музей авиационной техники",
    "subject": "aviation",
    "tourism": "museum",
    "type": "multipolygon",
    "wikidata": "Q4306209",
    "wikipedia": "ru:Музей авиационной техники Центрального аэроклуба ДОСААФ имени С. Грицевца"
  }
},
{
  "type": "node",
  "id": 1669205359,
  "lat": 53.8341249,
  "lon": 27.3739834
},
{
  "type": "node",
  "id": 1669205361,
  "lat": 53.8342665,
  "lon": 27.3739945
},
{
  "type": "node",
  "id": 1669205400,
  "lat": 53.8342607,
  "lon": 27.3742075
},
{
  "type": "node",
  "id": 1669205402,
  "lat": 53.8341191,
  "lon": 27.3741964
},
{
  "type": "node",
  "id": 3658565435,
  "lat": 53.8342649,
  "lon": 27.3740523
},
{
  "type": "node",
  "id": 276709733,
  "lat": 53.8881640,
  "lon": 27.5412000
},
{
  "type": "node",
  "id": 276709734,
  "lat": 53.8882330,
  "lon": 27.5414370
},
{
  "type": "node",
  "id": 276709736,
  "lat": 53.8881410,
  "lon": 27.5415170
},
{
  "type": "node",
  "id": 276709744,
  "lat": 53.8880720,
  "lon": 27.5412800
},
{
  "type": "node",
  "id": 276699743,
  "lat": 53.8973646,
  "lon": 27.5484849
},
{
  "type": "node",
  "id": 276699744,
  "lat": 53.8974317,
  "lon": 27.5486635
},
{
  "type": "node",
  "id": 276699745,
  "lat": 53.8972761,
  "lon": 27.5488319
},
{
  "type": "node",
  "id": 276699746,
  "lat": 53.8972090,
  "lon": 27.5486533
},
{
  "type": "node",
  "id": 276698733,
  "lat": 53.8990801,
  "lon": 27.5519791
},
{
  "type": "node",
  "id": 276698734,
  "lat": 53.8989962,
  "lon": 27.5521701
},
{
  "type": "node",
  "id": 276698735,
  "lat": 53.8988391,
  "lon": 27.5519713
},
{
  "type": "node",
  "id": 276698736,
  "lat": 53.8989230,
  "lon": 27.5517803
},
{
  "type": "node",
  "id": 276699580,
  "lat": 53.8967740,
  "lon": 27.5553035
},
{
  "type": "node",
  "id": 276699581,
  "lat": 53.8970386,
  "lon": 27.5558554
},
{
  "type": "node",
  "id": 276699582,
  "lat": 53.8970007,
  "lon": 27.5559078
},
{
  "type": "node",
  "id": 276699583,
  "lat": 53.8970331,
  "lon": 27.5559795
},
{
  "type": "node",
  "id": 276699584,
  "lat": 53.8969560,
  "lon": 27.5560889
},
{
  "type": "node",
  "id": 276699585,
  "lat": 53.8969187,
  "lon": 27.5560110
},
{
  "type": "node",
  "id": 276699586,
  "lat": 53.8968917,
  "lon": 27.5560482
},
{
  "type": "node",
  "id": 276699587,
  "lat": 53.8966300,
  "lon": 27.5555024
},
{
  "type": "node",
  "id": 4297605071,
  "lat": 53.8967561,
  "lon": 27.5553282
},
{
  "type": "node",
  "id": 4664837320,
  "lat": 53.8969406,
  "lon": 27.5560567
},
{
  "type": "node",
  "id": 4664837321,
  "lat": 53.8970178,
  "lon": 27.5559456
},
{
  "type": "node",
  "id": 275938240,
  "lat": 53.8983584,
  "lon": 27.5599770
},
{
  "type": "node",
  "id": 275938242,
  "lat": 53.8987514,
  "lon": 27.5608620
},
{
  "type": "node",
  "id": 275938244,
  "lat": 53.8983964,
  "lon": 27.5613030
},
{
  "type": "node",
  "id": 275938246,
  "lat": 53.8981986,
  "lon": 27.5608724
},
{
  "type": "node",
  "id": 275938248,
  "lat": 53.8981797,
  "lon": 27.5608958
},
{
  "type": "node",
  "id": 275938251,
  "lat": 53.8979884,
  "lon": 27.5604540
},
{
  "type": "node",
  "id": 275936049,
  "lat": 53.9059755,
  "lon": 27.5572114
},
{
  "type": "node",
  "id": 275936055,
  "lat": 53.9059656,
  "lon": 27.5573615
},
{
  "type": "node",
  "id": 276697882,
  "lat": 53.9037254,
  "lon": 27.5535883
},
{
  "type": "node",
  "id": 276697883,
  "lat": 53.9039956,
  "lon": 27.5532517
},
{
  "type": "node",
  "id": 276697884,
  "lat": 53.9040888,
  "lon": 27.5534674
},
{
  "type": "node",
  "id": 276697885,
  "lat": 53.9040054,
  "lon": 27.5535713
},
{
  "type": "node",
  "id": 276697886,
  "lat": 53.9040191,
  "lon": 27.5536029
},
{
  "type": "node",
  "id": 276697887,
  "lat": 53.9039176,
  "lon": 27.5537294
},
{
  "type": "node",
  "id": 276697888,
  "lat": 53.9038989,
  "lon": 27.5536862
},
{
  "type": "node",
  "id": 276697889,
  "lat": 53.9038205,
  "lon": 27.5537839
},
{
  "type": "node",
  "id": 276697890,
  "lat": 53.9037957,
  "lon": 27.5537266
},
{
  "type": "node",
  "id": 276697891,
  "lat": 53.9037342,
  "lon": 27.5538210
},
{
  "type": "node",
  "id": 276697892,
  "lat": 53.9036988,
  "lon": 27.5537372
},
{
  "type": "node",
  "id": 276697893,
  "lat": 53.9037513,
  "lon": 27.5536482
},
{
  "type": "node",
  "id": 1702552115,
  "lat": 53.9037745,
  "lon": 27.5535272
},
{
  "type": "node",
  "id": 3536836932,
  "lat": 53.9059002,
  "lon": 27.5576876
},
{
  "type": "node",
  "id": 3536836933,
  "lat": 53.9059191,
  "lon": 27.5573420
},
{
  "type": "node",
  "id": 3536836934,
  "lat": 53.9059492,
  "lon": 27.5577056
},
{
  "type": "node",
  "id": 3640330891,
  "lat": 53.9055676,
  "lon": 27.5570220
},
{
  "type": "node",
  "id": 3640330892,
  "lat": 53.9055447,
  "lon": 27.5571662
},
{
  "type": "node",
  "id": 3691965725,
  "lat": 53.9037615,
  "lon": 27.5537846
},
{
  "type": "node",
  "id": 3691965726,
  "lat": 53.9037197,
  "lon": 27.5536917
},
{
  "type": "node",
  "id": 5776583955,
  "lat": 53.9055910,
  "lon": 27.5571870
},
{
  "type": "node",
  "id": 5776583974,
  "lat": 53.9058820,
  "lon": 27.5573246
},
{
  "type": "node",
  "id": 5776583984,
  "lat": 53.9057013,
  "lon": 27.5572392
},
{
  "type": "node",
  "id": 7105593847,
  "lat": 53.9038831,
  "lon": 27.5533918
},
{
  "type": "node",
  "id": 7105593848,
  "lat": 53.9038492,
  "lon": 27.5534340
},
{
  "type": "node",
  "id": 275936302,
  "lat": 53.9049962,
  "lon": 27.5598118
},
{
  "type": "node",
  "id": 275936303,
  "lat": 53.9051878,
  "lon": 27.5601530
},
{
  "type": "node",
  "id": 275936304,
  "lat": 53.9050993,
  "lon": 27.5602962
},
{
  "type": "node",
  "id": 275936305,
  "lat": 53.9049077,
  "lon": 27.5599550
},
{
  "type": "node",
  "id": 277178334,
  "lat": 53.9089816,
  "lon": 27.5560198
},
{
  "type": "node",
  "id": 277178335,
  "lat": 53.9088458,
  "lon": 27.5558703
},
{
  "type": "node",
  "id": 2863047764,
  "lat": 53.9089155,
  "lon": 27.5559097
},
{
  "type": "node",
  "id": 2863047765,
  "lat": 53.9089426,
  "lon": 27.5557932
},
{
  "type": "node",
  "id": 3668196338,
  "lat": 53.9090171,
  "lon": 27.5558344
},
{
  "type": "node",
  "id": 4297160006,
  "lat": 53.9088712,
  "lon": 27.5557462
},
{
  "type": "node",
  "id": 6466559415,
  "lat": 53.9089268,
  "lon": 27.5559896
},
{
  "type": "node",
  "id": 6466559416,
  "lat": 53.9089396,
  "lon": 27.5559230
},
{
  "type": "node",
  "id": 275935987,
  "lat": 53.9061893,
  "lon": 27.5655163
},
{
  "type": "node",
  "id": 275935990,
  "lat": 53.9059693,
  "lon": 27.5651410
},
{
  "type": "node",
  "id": 275935992,
  "lat": 53.9060672,
  "lon": 27.5649757
},
{
  "type": "node",
  "id": 275935994,
  "lat": 53.9062872,
  "lon": 27.5653510
},
{
  "type": "node",
  "id": 378828544,
  "lat": 53.9060878,
  "lon": 27.5653432
},
{
  "type": "node",
  "id": 275927963,
  "lat": 53.9078945,
  "lon": 27.5715339
},
{
  "type": "node",
  "id": 275927965,
  "lat": 53.9077704,
  "lon": 27.5716896
},
{
  "type": "node",
  "id": 275927970,
  "lat": 53.9078444,
  "lon": 27.5714187
},
{
  "type": "node",
  "id": 4400857813,
  "lat": 53.9077203,
  "lon": 27.5715744
},
{
  "type": "node",
  "id": 6419331125,
  "lat": 53.9078406,
  "lon": 27.5716016
},
{
  "type": "node",
  "id": 275920321,
  "lat": 53.8992788,
  "lon": 27.5782532
},
{
  "type": "node",
  "id": 275920325,
  "lat": 53.8993167,
  "lon": 27.5783332
},
{
  "type": "node",
  "id": 275920327,
  "lat": 53.8993381,
  "lon": 27.5783040
},
{
  "type": "node",
  "id": 275920330,
  "lat": 53.8994456,
  "lon": 27.5785309
},
{
  "type": "node",
  "id": 275920334,
  "lat": 53.8993474,
  "lon": 27.5786651
},
{
  "type": "node",
  "id": 275920337,
  "lat": 53.8992703,
  "lon": 27.5785025
},
{
  "type": "node",
  "id": 275920340,
  "lat": 53.8992244,
  "lon": 27.5785653
},
{
  "type": "node",
  "id": 275920343,
  "lat": 53.8991559,
  "lon": 27.5784209
},
{
  "type": "node",
  "id": 5169132821,
  "lat": 53.8992626,
  "lon": 27.5782753
},
{
  "type": "node",
  "id": 325172390,
  "lat": 53.9356796,
  "lon": 27.3569484
},
{
  "type": "node",
  "id": 325172391,
  "lat": 53.9355820,
  "lon": 27.3568683
},
{
  "type": "node",
  "id": 325172392,
  "lat": 53.9354826,
  "lon": 27.3572175
},
{
  "type": "node",
  "id": 325172394,
  "lat": 53.9355802,
  "lon": 27.3572976
},
{
  "type": "node",
  "id": 1578174632,
  "lat": 54.0077517,
  "lon": 27.2864982
},
{
  "type": "node",
  "id": 1578174646,
  "lat": 54.0077673,
  "lon": 27.2864446
},
{
  "type": "node",
  "id": 1578174653,
  "lat": 54.0078028,
  "lon": 27.2865412
},
{
  "type": "node",
  "id": 1578174667,
  "lat": 54.0078184,
  "lon": 27.2864876
},
{
  "type": "node",
  "id": 2467045004,
  "lat": 54.0071217,
  "lon": 27.2867185
},
{
  "type": "node",
  "id": 6535006666,
  "lat": 54.0072470,
  "lon": 27.2860066
},
{
  "type": "node",
  "id": 6535006671,
  "lat": 54.0070630,
  "lon": 27.2857830
},
{
  "type": "node",
  "id": 6535006675,
  "lat": 54.0068955,
  "lon": 27.2864851
},
{
  "type": "node",
  "id": 6535006676,
  "lat": 54.0069751,
  "lon": 27.2861834
},
{
  "type": "node",
  "id": 6535006677,
  "lat": 54.0070153,
  "lon": 27.2858293
},
{
  "type": "node",
  "id": 6535006678,
  "lat": 54.0071051,
  "lon": 27.2857422
},
{
  "type": "node",
  "id": 6535006679,
  "lat": 54.0072045,
  "lon": 27.2859782
},
{
  "type": "node",
  "id": 6535006680,
  "lat": 54.0076403,
  "lon": 27.2862692
},
{
  "type": "node",
  "id": 6535006681,
  "lat": 54.0076734,
  "lon": 27.2863846
},
{
  "type": "node",
  "id": 6535006682,
  "lat": 54.0076557,
  "lon": 27.2865122
},
{
  "type": "node",
  "id": 6535006685,
  "lat": 54.0072368,
  "lon": 27.2862746
},
{
  "type": "node",
  "id": 930664520,
  "lat": 54.0041196,
  "lon": 27.2901044
},
{
  "type": "node",
  "id": 930664523,
  "lat": 54.0041444,
  "lon": 27.2903155
},
{
  "type": "node",
  "id": 930664525,
  "lat": 54.0039755,
  "lon": 27.2901535
},
{
  "type": "node",
  "id": 3646113587,
  "lat": 54.0040004,
  "lon": 27.2903646
},
{
  "type": "node",
  "id": 1407534109,
  "lat": 53.9159457,
  "lon": 27.5376726
},
{
  "type": "node",
  "id": 1407534116,
  "lat": 53.9160178,
  "lon": 27.5377059
},
{
  "type": "node",
  "id": 1407534118,
  "lat": 53.9160371,
  "lon": 27.5370380
},
{
  "type": "node",
  "id": 1407534122,
  "lat": 53.9160822,
  "lon": 27.5377701
},
{
  "type": "node",
  "id": 1407534125,
  "lat": 53.9161318,
  "lon": 27.5378801
},
{
  "type": "node",
  "id": 1407534127,
  "lat": 53.9161407,
  "lon": 27.5381672
},
{
  "type": "node",
  "id": 1407534135,
  "lat": 53.9161517,
  "lon": 27.5380077
},
{
  "type": "node",
  "id": 1407534138,
  "lat": 53.9161767,
  "lon": 27.5370771
},
{
  "type": "node",
  "id": 1407534139,
  "lat": 53.9163040,
  "lon": 27.5372391
},
{
  "type": "node",
  "id": 1407534142,
  "lat": 53.9164682,
  "lon": 27.5373278
},
{
  "type": "node",
  "id": 1407534145,
  "lat": 53.9166264,
  "lon": 27.5376727
},
{
  "type": "node",
  "id": 1407534147,
  "lat": 53.9166781,
  "lon": 27.5379201
},
{
  "type": "node",
  "id": 1407534152,
  "lat": 53.9167096,
  "lon": 27.5379716
},
{
  "type": "node",
  "id": 1407534154,
  "lat": 53.9167212,
  "lon": 27.5382155
},
{
  "type": "node",
  "id": 3529010351,
  "lat": 53.9165302,
  "lon": 27.5374895
},
{
  "type": "node",
  "id": 1407534124,
  "lat": 53.9160896,
  "lon": 27.5383380
},
{
  "type": "node",
  "id": 1407534140,
  "lat": 53.9164983,
  "lon": 27.5387426
},
{
  "type": "node",
  "id": 1407534141,
  "lat": 53.9165314,
  "lon": 27.5386144
},
{
  "type": "node",
  "id": 1407534144,
  "lat": 53.9166389,
  "lon": 27.5387140
},
{
  "type": "node",
  "id": 1407534146,
  "lat": 53.9166623,
  "lon": 27.5386292
},
{
  "type": "node",
  "id": 1407534149,
  "lat": 53.9166815,
  "lon": 27.5385947
},
{
  "type": "node",
  "id": 1407534150,
  "lat": 53.9166887,
  "lon": 27.5384401
},
{
  "type": "node",
  "id": 1407534151,
  "lat": 53.9166645,
  "lon": 27.5384133
},
{
  "type": "node",
  "id": 3529010336,
  "lat": 53.9161729,
  "lon": 27.5384453
},
{
  "type": "node",
  "id": 3529010341,
  "lat": 53.9163491,
  "lon": 27.5385733
},
{
  "type": "node",
  "id": 3529010342,
  "lat": 53.9161890,
  "lon": 27.5384153
},
{
  "type": "node",
  "id": 3529010361,
  "lat": 53.9167086,
  "lon": 27.5383644
},
{
  "type": "node",
  "id": 275890014,
  "lat": 53.9195495,
  "lon": 27.6000856
},
{
  "type": "node",
  "id": 275890017,
  "lat": 53.9196293,
  "lon": 27.6002959
},
{
  "type": "node",
  "id": 275890019,
  "lat": 53.9195265,
  "lon": 27.6004084
},
{
  "type": "node",
  "id": 275890022,
  "lat": 53.9194467,
  "lon": 27.6001981
},
{
  "type": "node",
  "id": 3371812401,
  "lat": 53.9195008,
  "lon": 27.6001389
},
{
  "type": "node",
  "id": 275904929,
  "lat": 53.9221562,
  "lon": 27.5924243
},
{
  "type": "node",
  "id": 275904930,
  "lat": 53.9219842,
  "lon": 27.5920283
},
{
  "type": "node",
  "id": 275904931,
  "lat": 53.9219042,
  "lon": 27.5921253
},
{
  "type": "node",
  "id": 275904933,
  "lat": 53.9220762,
  "lon": 27.5925223
},
{
  "type": "node",
  "id": 6380358575,
  "lat": 53.9221164,
  "lon": 27.5924731
},
{
  "type": "node",
  "id": 4597781925,
  "lat": 53.9614215,
  "lon": 27.6512416
},
{
  "type": "node",
  "id": 4597781926,
  "lat": 53.9612149,
  "lon": 27.6513089
},
{
  "type": "node",
  "id": 4597781927,
  "lat": 53.9608422,
  "lon": 27.6514116
},
{
  "type": "node",
  "id": 4597781928,
  "lat": 53.9607019,
  "lon": 27.6513025
},
{
  "type": "node",
  "id": 4597781929,
  "lat": 53.9606225,
  "lon": 27.6512115
},
{
  "type": "node",
  "id": 4597781930,
  "lat": 53.9601643,
  "lon": 27.6513650
},
{
  "type": "node",
  "id": 4597781931,
  "lat": 53.9600917,
  "lon": 27.6514127
},
{
  "type": "node",
  "id": 4597781932,
  "lat": 53.9599667,
  "lon": 27.6516869
},
{
  "type": "node",
  "id": 4597781933,
  "lat": 53.9599709,
  "lon": 27.6521551
},
{
  "type": "node",
  "id": 4597781934,
  "lat": 53.9599204,
  "lon": 27.6526540
},
{
  "type": "node",
  "id": 4597781935,
  "lat": 53.9599732,
  "lon": 27.6536752
},
{
  "type": "node",
  "id": 4597781936,
  "lat": 53.9603267,
  "lon": 27.6537557
},
{
  "type": "node",
  "id": 4597781937,
  "lat": 53.9605887,
  "lon": 27.6527848
},
{
  "type": "node",
  "id": 4597781938,
  "lat": 53.9609080,
  "lon": 27.6527196
},
{
  "type": "node",
  "id": 4597781939,
  "lat": 53.9614329,
  "lon": 27.6524548
},
{
  "type": "node",
  "id": 4597781940,
  "lat": 53.9618464,
  "lon": 27.6524361
},
{
  "type": "node",
  "id": 4597781941,
  "lat": 53.9621746,
  "lon": 27.6523824
},
{
  "type": "node",
  "id": 4597781942,
  "lat": 53.9626480,
  "lon": 27.6520927
},
{
  "type": "node",
  "id": 4597781943,
  "lat": 53.9628342,
  "lon": 27.6518621
},
{
  "type": "node",
  "id": 4597781944,
  "lat": 53.9629494,
  "lon": 27.6515268
},
{
  "type": "node",
  "id": 4597781945,
  "lat": 53.9633029,
  "lon": 27.6508992
},
{
  "type": "node",
  "id": 4597781946,
  "lat": 53.9633033,
  "lon": 27.6505404
},
{
  "type": "node",
  "id": 4597781948,
  "lat": 53.9615366,
  "lon": 27.6511677
},
{
  "type": "node",
  "id": 4597781949,
  "lat": 53.9623861,
  "lon": 27.6509384
},
{
  "type": "node",
  "id": 4597781950,
  "lat": 53.9626991,
  "lon": 27.6506602
},
{
  "type": "node",
  "id": 4597781951,
  "lat": 53.9631572,
  "lon": 27.6499781
},
{
  "type": "node",
  "id": 6573328736,
  "lat": 53.9599828,
  "lon": 27.6515711
},
{
  "type": "node",
  "id": 6573328737,
  "lat": 53.9600084,
  "lon": 27.6514940
},
{
  "type": "node",
  "id": 6573328738,
  "lat": 53.9600457,
  "lon": 27.6514469
},
{
  "type": "node",
  "id": 6573328739,
  "lat": 53.9599698,
  "lon": 27.6516375
},
{
  "type": "node",
  "id": 6573328740,
  "lat": 53.9599778,
  "lon": 27.6524794
},
{
  "type": "node",
  "id": 6347910721,
  "lat": 53.8376071,
  "lon": 27.7053767
},
{
  "type": "node",
  "id": 6347910722,
  "lat": 53.8375418,
  "lon": 27.7053581
},
{
  "type": "node",
  "id": 6347910723,
  "lat": 53.8375355,
  "lon": 27.7054183
},
{
  "type": "node",
  "id": 6347910724,
  "lat": 53.8376003,
  "lon": 27.7054377
},
{
  "type": "node",
  "id": 6347910725,
  "lat": 53.8376791,
  "lon": 27.7054060
},
{
  "type": "node",
  "id": 6347910726,
  "lat": 53.8376716,
  "lon": 27.7054663
},
{
  "type": "node",
  "id": 6347910727,
  "lat": 53.8376207,
  "lon": 27.7053822
},
{
  "type": "node",
  "id": 6347910728,
  "lat": 53.8376138,
  "lon": 27.7054431
},
{
  "type": "node",
  "id": 6347910729,
  "lat": 53.8376166,
  "lon": 27.7054262
},
{
  "type": "node",
  "id": 6347910730,
  "lat": 53.8376027,
  "lon": 27.7054200
},
{
  "type": "node",
  "id": 6347910731,
  "lat": 53.8376177,
  "lon": 27.7054072
},
{
  "type": "node",
  "id": 6347910732,
  "lat": 53.8376040,
  "lon": 27.7054012
},
{
  "type": "node",
  "id": 6347910733,
  "lat": 53.8376751,
  "lon": 27.7054380
},
{
  "type": "node",
  "id": 6347910734,
  "lat": 53.8375385,
  "lon": 27.7053903
},
{
  "type": "node",
  "id": 6347910735,
  "lat": 53.8375685,
  "lon": 27.7053657
},
{
  "type": "node",
  "id": 6347910737,
  "lat": 53.8376491,
  "lon": 27.7053938
},
{
  "type": "node",
  "id": 5586832592,
  "lat": 53.8931995,
  "lon": 28.0329815
},
{
  "type": "node",
  "id": 5586832593,
  "lat": 53.8926823,
  "lon": 28.0342202
},
{
  "type": "node",
  "id": 5586832594,
  "lat": 53.8922926,
  "lon": 28.0350645
},
{
  "type": "node",
  "id": 5586832595,
  "lat": 53.8916521,
  "lon": 28.0338899
},
{
  "type": "node",
  "id": 5586832590,
  "lat": 53.8935833,
  "lon": 28.0303978
},
{
  "type": "node",
  "id": 5586832591,
  "lat": 53.8936876,
  "lon": 28.0314313
},
{
  "type": "node",
  "id": 2117385026,
  "lat": 54.0298125,
  "lon": 28.0958163
},
{
  "type": "node",
  "id": 2117385040,
  "lat": 54.0299148,
  "lon": 28.0958406
},
{
  "type": "node",
  "id": 2117385045,
  "lat": 54.0299502,
  "lon": 28.0954072
},
{
  "type": "node",
  "id": 2117385052,
  "lat": 54.0298479,
  "lon": 28.0953830
},
{
  "type": "way",
  "id": 464696773,
  "nodes": [
    4597781951,
    4597781946,
    4597781945,
    4597781944,
    4597781943,
    4597781942,
    4597781941,
    4597781940,
    4597781939,
    4597781938,
    4597781937,
    4597781936,
    4597781935,
    4597781934,
    6573328740,
    4597781933,
    4597781932,
    6573328739,
    6573328736,
    6573328737,
    6573328738,
    4597781931,
    4597781930,
    4597781929,
    4597781928,
    4597781927,
    4597781926,
    4597781925,
    4597781948
  ]
},
{
  "type": "way",
  "id": 464696775,
  "nodes": [
    4597781951,
    4597781950,
    4597781949,
    4597781948
  ]
}

  ]
}
