{
  "version": 0.6,
  "generator": "Overpass API 0.7.55.1011 6c2efc30",
  "osm3s": {
    "timestamp_osm_base": "2020-02-14T14:32:02Z",
    "copyright": "The data included in this document is from www.openstreetmap.org. The data is made available under ODbL."
  },
  "elements": [

{
  "type": "node",
  "id": 483072038,
  "lat": 45.7968366,
  "lon": 24.1666190,
  "tags": {
    "is_in:city": "Sibiu",
    "is_in:country": "Romania",
    "is_in:country_code": "RO",
    "is_in:county": "Sibiu",
    "name": "Muzeul locomotivelor cu abur",
    "name:en": "Steam Locomotives Museum",
    "tourism": "museum",
    "wikidata": "Q7507112",
    "wikipedia": "en:Sibiu Steam Locomotives Museum"
  }
},
{
  "type": "node",
  "id": 483110817,
  "lat": 45.7934855,
  "lon": 24.1485614,
  "tags": {
    "is_in:city": "Sibiu",
    "is_in:country": "Romania",
    "is_in:country_code": "RO",
    "is_in:county": "Sibiu",
    "name": "Galeria de Artă Contemporană",
    "tourism": "museum"
  }
},
{
  "type": "node",
  "id": 1417566997,
  "lat": 45.7939833,
  "lon": 24.1462990,
  "tags": {
    "addr:city": "Sibiu",
    "addr:street": "Strada Mitropoliei",
    "name": "Landeskirchliches Museum",
    "tourism": "museum"
  }
},
{
  "type": "node",
  "id": 1724568036,
  "lat": 45.7898818,
  "lon": 24.1173603,
  "tags": {
    "name": "Muzeul Landlerilor",
    "tourism": "museum"
  }
},
{
  "type": "node",
  "id": 2634651825,
  "lat": 45.7976053,
  "lon": 24.1511072,
  "tags": {
    "SIRUTA:code": "143469",
    "addr:city": "Sibiu",
    "addr:housenumber": "11",
    "addr:postcode": "550182",
    "addr:street": "Piața Mică",
    "codul_entității_muzeale": "6966510.0",
    "description:ro": "Muzeul Civilizatiei Transilvane \"ASTRA\", infiintat in anul 1993 pentru a reprezenta cultura si civilizatia populara transilvana in viziune interdisciplinara si plurietnica, este continuatorul patrimonial, programatic si structural-tematic al Muzeului \"As",
    "email": "office@muzeulastra.ro;civilizatie.transilvana@muzeulastra.ro",
    "fax": "0269 202.411",
    "name": "Muzeul Civilizației Transilvane \"ASTRA\"",
    "name:en": "\"ASTRA\" Museum of Transylvanian Civilisation",
    "opening_hours": "\"no permanent exhibition\"",
    "phone": "0269/202.400",
    "source": "INP",
    "source:link": "http://date.gov.ro/dataset/ghidul-muzeelor-din-romania",
    "start_date": "1993",
    "tourism": "museum",
    "tourism_survey": "05.12.2013 11:30:25",
    "website": "http://www.muzeulastra.ro/",
    "wikidata": "Q12736074",
    "wikipedia": "ro:Muzeul Civilizației Transilvane „ASTRA” din Sibiu"
  }
},
{
  "type": "node",
  "id": 2634651848,
  "lat": 45.7866250,
  "lon": 24.1469000,
  "tags": {
    "SIRUTA:code": "143469",
    "addr:city": "Sibiu",
    "addr:housenumber": "4",
    "addr:postcode": "550005",
    "addr:street": "Strada Școala de Înot",
    "codul_entității_muzeale": "6966505.0",
    "description:ro": "in 1963 a fost achizitionata colectia \"Spiess\", insumand 1058 piese. Pe baza acesteia si a colectiei de profil a Societatii ardelene de stiintele naturii a fost organizat, in 1966, muzeul de vanatoare. Muzeul a fost reorganizat in 1981.",
    "fax": "0269/211.545; 0269/211.545",
    "museum_type": "Natural Sciences - Zoology",
    "name": "Muzeul de Vânătoare \"August von Spiess\"",
    "name:en": "\"August von Spiess\" Hunting Museum",
    "opening_hours": "Apr-Sep 09:00-17:00; Oct-Mar 10:00-16:00; Mo closed",
    "phone": "0369.101.784",
    "source": "INP",
    "source:link": "http://date.gov.ro/dataset/ghidul-muzeelor-din-romania",
    "start_date": "1966",
    "tourism": "museum",
    "tourism_survey": "10.12.2013 14:47:24"
  }
},
{
  "type": "node",
  "id": 2634651860,
  "lat": 45.7258242,
  "lon": 24.5745337,
  "tags": {
    "SIRUTA:code": "144544",
    "addr:city": "Cârțișoara",
    "addr:postcode": "557075",
    "addr:street": "Strada Principală",
    "codul_entității_muzeale": "7166500.0",
    "description:ro": "incepand din anul 1960 s-a procedat la strangerea de obiecte de catre secretarul primariei si preotul local.",
    "fixme": "Adresa muzeului este de fapt adresa strazi, trebuie cautat manual unde este adresa corecta",
    "historic": "memorial",
    "name": "Muzeul \"Badea Cârțan\"",
    "name:en": "\"Badea Cartan\" Memorial Collection",
    "opening_hours": "Tu 12:00-17:00; Apr-Sep We-Su 10:00-17:00; Mo closed",
    "phone": "0269/521.600",
    "source": "INP",
    "source:link": "http://date.gov.ro/dataset/ghidul-muzeelor-din-romania",
    "start_date": "1968",
    "tourism": "museum",
    "tourism_survey": "07.12.2011 13:32:30"
  }
},
{
  "type": "node",
  "id": 2634651911,
  "lat": 45.8037800,
  "lon": 24.5779540,
  "tags": {
    "SIRUTA:code": "143986",
    "addr:city": "Noul Român",
    "addr:housenumber": "153",
    "addr:postcode": "143986",
    "codul_entității_muzeale": "6906505.0",
    "email": "office@muzeulastra.ro",
    "fax": "0269/ 202.411",
    "fixme": "Adresa muzeului este de fapt adresa localitati, trebuie cautat manual unde este adresa corecta",
    "historic": "memorial",
    "name": "Centrul Cultural Memorial \"Dr. Gheorghe Telea-Bologa\"",
    "name:en": "\"Dr. Gheorghe Telea-Bologa\" Memorial Cultural Centre",
    "opening_hours": "Tu-Fr 9:00-15:00; Sa, Su 9:00-17:00; Mo closed",
    "phone": "0269/202.414",
    "source": "INP",
    "source:link": "http://date.gov.ro/dataset/ghidul-muzeelor-din-romania",
    "start_date": "2005",
    "tourism": "museum",
    "tourism_survey": "10.12.2013 14:45:53"
  }
},
{
  "type": "node",
  "id": 2634651926,
  "lat": 45.7983840,
  "lon": 24.1510760,
  "tags": {
    "SIRUTA:code": "143469",
    "addr:city": "Sibiu",
    "addr:housenumber": "21",
    "addr:postcode": "550182",
    "addr:street": "Piața Mică",
    "codul_entității_muzeale": "6966509.0",
    "description:ro": "infiintat la 1 iulie 1997 Muzeul de Etnografie Saseasca \"Emil Sigerus\" are in patrimoniul sau peste 7.000 de obiecte din Transilvania secolelor XIV - XX. Cele mai importante au apartinut unor colectionari renumiti, precum Emil Sigerus, Julius Bielz, Wihe",
    "email": "office@muzeulastra.ro;sigerus@muzeulastra.ro",
    "fax": "0269 202411",
    "name": "Muzeul de Etnografie și Artă Populară Săsească \"Emil Sigerus\"",
    "name:en": "\"Emil Sigerus\" Museum of Saxon Ethnography and Folk Art",
    "phone": "0269/202.422",
    "source": "INP",
    "source:link": "http://date.gov.ro/dataset/ghidul-muzeelor-din-romania",
    "start_date": "1997",
    "tourism": "museum",
    "tourism_survey": "10.12.2013 14:45:09",
    "website": "http://www.sigerus.muzeulastra.ro/",
    "wikidata": "Q18542208",
    "wikipedia": "ro:Muzeul de etnografie și artă populară săsească „Emil Sigerus”"
  }
},
{
  "type": "node",
  "id": 2634651935,
  "lat": 45.7975553,
  "lon": 24.1510520,
  "tags": {
    "SIRUTA:code": "143469",
    "addr:city": "Sibiu",
    "addr:housenumber": "11",
    "addr:postcode": "550182",
    "addr:street": "Piața Mică",
    "codul_entității_muzeale": "6.9665021E7",
    "description:en": "In September 1992 the first permanent exhibition was inaugurated: \"The folk creation of world peoples\", and on the 18th of May 1993 (when the museum was opened officially) was inaugurated the second permanent exhibition: \"The culture and art of the world",
    "description:ro": "in septembrie 1992 este vernisata prima expozitie permanenta: \"Din creatia artizanala a popoarelor lumii\", iar in 18 mai 1993 (cand are loc deschiderea oficiala a muzeului) este vernisata cea de-a doua expozitie permanenta: \"Din cultura si arta popoarelo",
    "email": "office@muzeulastra.ro;binder@muzeulastra.ro",
    "fax": "0269/202.411",
    "name": "Muzeul de Etnografie Universala \"Franz Binder\"",
    "name:en": "\"Franz Binder\" World Ethnography Museum",
    "phone": "0269/202.409",
    "source": "INP",
    "source:link": "http://date.gov.ro/dataset/ghidul-muzeelor-din-romania",
    "start_date": "1993",
    "tourism": "museum",
    "tourism_survey": "10.12.2013 14:45:05",
    "website": "https://www.binder.muzeulastra.ro/",
    "wikidata": "Q18542204",
    "wikipedia": "ro:Muzeul de etnografie universală \"Franz Binder\""
  }
},
{
  "type": "node",
  "id": 2634651981,
  "lat": 45.7559005,
  "lon": 23.9249737,
  "tags": {
    "LMI": "SB-II-m-B-12387",
    "SIRUTA:code": "145550",
    "addr:city": "Fântânele",
    "addr:housenumber": "34",
    "addr:postcode": "557229",
    "addr:street": "Strada Andrei Șaguna",
    "codul_entității_muzeale": "5.144000005E9",
    "fixme": "Adresa muzeului este de fapt adresa localitati, trebuie cautat manual unde este adresa corecta",
    "name": "Muzeul de Etnografie și Artă Bisericească \" Ioan Stoica\"",
    "name:en": "\"Ioan Stoica\" Ethnographic and Religious Art Museum",
    "opening_hours": "unknown",
    "phone": "0755330519, 0269/552.302; 0269/552.311",
    "source": "INP",
    "source:link": "http://date.gov.ro/dataset/ghidul-muzeelor-din-romania",
    "start_date": "1995",
    "tourism": "museum",
    "tourism_survey": "02.11.2012 21:58:05"
  }
},
{
  "type": "node",
  "id": 2634652034,
  "lat": 45.7948782,
  "lon": 24.1476365,
  "tags": {
    "SIRUTA:code": "143469",
    "addr:city": "Sibiu",
    "addr:housenumber": "22",
    "addr:postcode": "550179",
    "addr:street": "Strada Mitropoliei",
    "codul_entității_muzeale": "5.144000002E9",
    "name": "Muzeul de Icoane și Obiecte Bisericești \"Casa Mihai Eminescu\"",
    "name:en": "\"Mihai Eminescu House\" Museum of Icons and Church Objects",
    "opening_hours": "unknown",
    "phone": "0269/217.863; 0269/211.584",
    "source": "INP",
    "source:link": "http://date.gov.ro/dataset/ghidul-muzeelor-din-romania",
    "start_date": "1983",
    "tourism": "museum",
    "tourism_survey": "30.11.2011 13:38:36"
  }
},
{
  "type": "node",
  "id": 2634652077,
  "lat": 45.7041300,
  "lon": 24.0672850,
  "tags": {
    "LMI": "SB-II-m-B-12508",
    "SIRUTA:code": "143539",
    "addr:city": "Rășinari",
    "addr:postcode": "557200",
    "codul_entității_muzeale": "7168800.0",
    "name": "Colecția Memorială \"Octavian Goga\"",
    "name:en": "\"Octavian Goga\" Memorial Collection",
    "source": "INP",
    "source:link": "http://date.gov.ro/dataset/ghidul-muzeelor-din-romania",
    "tourism": "museum",
    "tourism_survey": "17.10.2013 12:29:40"
  }
},
{
  "type": "node",
  "id": 2634652098,
  "lat": 45.7657940,
  "lon": 23.9131640,
  "tags": {
    "LMI": "SB-II-m-A-12551",
    "SIRUTA:code": "145587",
    "addr:city": "Sibiel",
    "addr:housenumber": "329",
    "addr:postcode": "557234",
    "addr:street": "Strada Bisericii",
    "codul_entității_muzeale": "7168500.0",
    "description:en": "The collection was founded by the priest Zosim Oancea, who asked the villagers to donate glass icons for the church collection.",
    "description:ro": "Colectia este fondata de preotul Zosim Oancea, care a cerut satenilor sa doneze icoane pentru colectia bisericii.",
    "email": "muzeu@sibiel.net",
    "name": "Muzeul parohial de icoane pe sticla \"Pr. Zosim Oancea\"",
    "name:en": "\"Priest Zosim Oancea\" Glass Icons Parish Museum",
    "phone": "0269/552.536",
    "source": "INP",
    "source:link": "http://date.gov.ro/dataset/ghidul-muzeelor-din-romania",
    "start_date": "1969",
    "tourism": "museum",
    "tourism_survey": "06.12.2013 12:31:57",
    "website": "http://www.sibiel.net"
  }
},
{
  "type": "node",
  "id": 2634652111,
  "lat": 45.6713740,
  "lon": 24.1810410,
  "tags": {
    "SIRUTA:code": "145480",
    "addr:city": "Sadu",
    "addr:postcode": "557220",
    "codul_entității_muzeale": "5.1620000146E10",
    "fixme": "Adresa muzeului este de fapt adresa localitati, trebuie cautat manual unde este adresa corecta",
    "museum_type": "Science and Technology",
    "name": "Muzeul \"Sigmund Dachler\"",
    "name:en": "\"Sigmond Dachler\" Museum",
    "opening_hours": "Mo-Fr 9:00-13:00",
    "source": "INP",
    "source:link": "http://date.gov.ro/dataset/ghidul-muzeelor-din-romania",
    "start_date": "1996",
    "tourism": "museum",
    "tourism_survey": "05.12.2011 16:03:29"
  }
},
{
  "type": "node",
  "id": 2634652130,
  "lat": 45.7134561,
  "lon": 24.1513674,
  "tags": {
    "SIRUTA:code": "143744",
    "addr:city": "Cisnădie",
    "addr:housenumber": "2",
    "addr:postcode": "555300",
    "addr:street": "Strada Apărării",
    "codul_entității_muzeale": "7066400.0",
    "email": "primarie@cisnadie.ro",
    "fax": "0269/561.012",
    "museum_type": "Science and Technology",
    "name": "Expoziția Muzeală \"Istoricul Industriei Textile\"",
    "name:en": "\"Textile Industry History\" Museum Exhibition",
    "opening_hours": "Mo-Fr 8:00-16:00; Sa, Su unknown",
    "phone": "0269/563.141",
    "source": "INP",
    "source:link": "http://date.gov.ro/dataset/ghidul-muzeelor-din-romania",
    "start_date": "1974",
    "tourism": "museum",
    "tourism_survey": "06.12.2013 12:58:51"
  }
},
{
  "type": "node",
  "id": 2634652151,
  "lat": 45.8013280,
  "lon": 23.7822700,
  "tags": {
    "SIRUTA:code": "145925",
    "addr:city": "Rod",
    "addr:postcode": "557281",
    "codul_entității_muzeale": "7168200.0",
    "fixme": "Adresa muzeului este de fapt adresa localitati, trebuie cautat manual unde este adresa corecta",
    "name": "Expoziția Muzeală \"Vasile Dobrian\"",
    "name:en": "\"Vasile Dobrian\" Exhibition",
    "source": "INP",
    "source:link": "http://date.gov.ro/dataset/ghidul-muzeelor-din-romania",
    "tourism": "museum",
    "tourism_survey": "19.09.2013 15:03:52"
  }
},
{
  "type": "node",
  "id": 2634652209,
  "lat": 45.7265000,
  "lon": 24.3748420,
  "tags": {
    "SIRUTA:code": "144063",
    "addr:city": "Avrig",
    "addr:housenumber": "3",
    "addr:postcode": "555200",
    "addr:street": "Strada Gheorghe Lazăr",
    "codul_entității_muzeale": "7166100.0",
    "email": "muzeulavrig@yahoo.com",
    "fax": "0269/524.401; 0740120970",
    "name": "Muzeul Avrig",
    "name:en": "Avrig Museum",
    "opening_hours": "Tu-Th 15:00-17:00; 09:00-15:00; Sa 09:00-15:00 || \"(unknown too)\"",
    "source": "INP",
    "source:link": "http://date.gov.ro/dataset/ghidul-muzeelor-din-romania",
    "start_date": "1979",
    "tourism": "museum",
    "tourism_survey": "04.12.2013 14:39:51"
  }
},
{
  "type": "node",
  "id": 2634652223,
  "lat": 45.6342664,
  "lon": 24.2590858,
  "tags": {
    "SIRUTA:code": "145836",
    "addr:city": "Boița",
    "addr:postcode": "555700",
    "addr:street": "in cadrul Caminului Cultural",
    "codul_entității_muzeale": "7166300.0",
    "fixme": "Adresa muzeului este de fapt adresa localitati, trebuie cautat manual unde este adresa corecta",
    "name": "Colecția Etnografică Boița",
    "name:en": "Boita Village Collection",
    "source": "INP",
    "source:link": "http://date.gov.ro/dataset/ghidul-muzeelor-din-romania",
    "start_date": "1970",
    "tourism": "museum",
    "tourism_survey": "28.08.2013 13:01:43"
  }
},
{
  "type": "node",
  "id": 2634652230,
  "lat": 45.7965470,
  "lon": 24.1506559,
  "tags": {
    "LMI": "SB-II-m-A-12094",
    "SIRUTA:code": "143469",
    "addr:city": "Sibiu",
    "addr:housenumber": "4 - 5",
    "addr:postcode": "550163",
    "addr:street": "Piața Mare",
    "alt_name": "Galeria de Artă Românească",
    "codul_entității_muzeale": "6966500.0",
    "description:en": "The museum was founded on the basis of the former Brukental collections of the Carpathian Society Museum. In 1950, the 497 works of Romanian art of the ASTRA Museum were added to these collections. The palace comprises the Brukental Picture Gallery and t",
    "description:ro": "infiintat avand la baza fostele colectii Brukenthal, la care s-au adaugat colectiile Muzeului Societatii Carpatine. in anul 1950, acestor colectii li se adauga cele 497 lucrari de arta romaneasca ale Muzeului ASTREI. Palatul cuprinde Pinacoteca Brukentha",
    "email": "info@brukenthalmuseum.ro",
    "fax": "0269/211.545",
    "name": "Muzeul Național Brukenthal",
    "name:de": "Brukenthal Museum",
    "name:en": "Brukenthal National Museum",
    "phone": "0269/217.691;0369.101.780",
    "source": "INP",
    "source:link": "http://date.gov.ro/dataset/ghidul-muzeelor-din-romania",
    "start_date": "1817",
    "tourism": "museum",
    "tourism_survey": "13.01.2014 12:25:57",
    "website": "http://www.brukenthalmuseum.ro",
    "wikidata": "Q850207",
    "wikipedia": "en:Brukenthal National Museum"
  }
},
{
  "type": "node",
  "id": 2634652264,
  "lat": 45.8803650,
  "lon": 24.0463750,
  "tags": {
    "SIRUTA:code": "143860",
    "addr:city": "Ocna Sibiului",
    "addr:housenumber": "24",
    "addr:postcode": "555600,",
    "addr:street": "Strada Mihai Viteazul",
    "codul_entității_muzeale": "7110100.0",
    "fixme": "Adresa muzeului este de fapt adresa strazi, trebuie cautat manual unde este adresa corecta",
    "name": "Colecția Etnografică \"Anuta și Aurel Achim\"",
    "opening_hours": "unknown",
    "phone": "0751 221 209 sau 0744 556646, 0751 221 209 sau 0744 556646, 0751 221 209 sau 0751.221.209, 0744. 556.646",
    "source": "INP",
    "source:link": "http://date.gov.ro/dataset/ghidul-muzeelor-din-romania",
    "start_date": "2003",
    "tourism": "museum",
    "tourism_survey": "13.08.2013 14:48:35",
    "website": "http://recomespar.ro/"
  }
},
{
  "type": "node",
  "id": 2634652267,
  "lat": 45.7136531,
  "lon": 24.1511519,
  "tags": {
    "SIRUTA:code": "143744",
    "addr:city": "Cisnădie",
    "codul_entității_muzeale": "7066300.0",
    "email": "vasilepolgar@yahoo.com",
    "fixme": "Adresa muzeului este de fapt adresa localitati, trebuie cautat manual unde este adresa corecta",
    "name": "Colecția Etnografică Cisnădie",
    "name:en": "Cisnădie Ethnographic Collection",
    "phone": "0744333043",
    "source": "INP",
    "source:link": "http://date.gov.ro/dataset/ghidul-muzeelor-din-romania",
    "start_date": "1990",
    "tourism": "museum",
    "tourism_survey": "13.08.2013 14:22:46",
    "website": "http://recomespar.ro/"
  }
},
{
  "type": "node",
  "id": 2634652311,
  "lat": 45.7046383,
  "lon": 24.1122564,
  "tags": {
    "SIRUTA:code": "143744",
    "addr:city": "Cisnădioara",
    "addr:postcode": "555300",
    "codul_entității_muzeale": "7066401.0",
    "fixme": "Adresa muzeului este de fapt adresa localitati, trebuie cautat manual unde este adresa corecta",
    "name": "Expoziția Muzeală de Etnografie",
    "name:en": "Ethnographic Museum Exhibition",
    "source": "INP",
    "source:link": "http://date.gov.ro/dataset/ghidul-muzeelor-din-romania",
    "start_date": "1971",
    "tourism": "museum",
    "tourism_survey": "04.12.2013 15:08:02",
    "website": "h"
  }
},
{
  "type": "node",
  "id": 2634652319,
  "lat": 45.7101190,
  "lon": 24.0650960,
  "tags": {
    "SIRUTA:code": "143539",
    "addr:city": "Rășinari",
    "addr:housenumber": "189",
    "addr:postcode": "557200",
    "addr:street": "Strada Copacele",
    "codul_entității_muzeale": "7168100.0",
    "description:en": "Established in the house of C. Barcianu, nephew of memorialist Daniil Popivici-Barcianu.",
    "description:ro": "infiintata in casa C. Barcianu, nepot al memorialistului Daniil Popovici-Barcianu.",
    "email": "primaria.rasinari@yahoo.com",
    "fax": "0269/557.200",
    "museum": "etn",
    "name": "Muzeu Etnografic",
    "name:en": "Ethnographic Museum",
    "name:pl": "Muzeum Etnograficzne",
    "opening_hours": "9:00-16:00; Su closed",
    "phone": "0269/557.200",
    "source": "INP",
    "source:link": "http://date.gov.ro/dataset/ghidul-muzeelor-din-romania",
    "start_date": "1952",
    "tourism": "museum",
    "tourism_survey": "27.08.2013 12:01:39"
  }
},
{
  "type": "node",
  "id": 2634652320,
  "lat": 45.8091970,
  "lon": 23.7291080,
  "tags": {
    "SIRUTA:code": "145284",
    "addr:city": "Poiana Sibiului",
    "addr:housenumber": "412",
    "addr:postcode": "557180",
    "addr:street": "Strada Vadu",
    "codul_entității_muzeale": "7167800.0",
    "name": "Muzeu Etnografic",
    "name:en": "Ethnographic Museum",
    "opening_hours": "9:00-12:00",
    "phone": "0269/531.101",
    "source": "INP",
    "source:link": "http://date.gov.ro/dataset/ghidul-muzeelor-din-romania",
    "start_date": "1968",
    "tourism": "museum",
    "tourism_survey": "07.12.2011 13:31:22"
  }
},
{
  "type": "node",
  "id": 2634652330,
  "lat": 45.7865600,
  "lon": 24.0298380,
  "tags": {
    "LMI": "SB-II-m-B-12368",
    "SIRUTA:code": "143496",
    "addr:city": "Cristian",
    "addr:housenumber": "27",
    "addr:postcode": "557085",
    "addr:street": "Strada IV",
    "codul_entității_muzeale": "7166600.0",
    "email": "prim.cristian@yahoo.com",
    "fax": "0265/579.101",
    "name": "Muzeu Satesc Etnografic",
    "name:en": "Ethnographic Village Museum",
    "opening_hours": "unknown",
    "phone": "0265/579.101",
    "source": "INP",
    "source:link": "http://date.gov.ro/dataset/ghidul-muzeelor-din-romania",
    "start_date": "1969",
    "tourism": "museum",
    "tourism_survey": "18.09.2012 12:48:44"
  }
},
{
  "type": "node",
  "id": 2634652336,
  "lat": 45.8599590,
  "lon": 23.7219410,
  "tags": {
    "SIRUTA:code": "0",
    "addr:city": "Gârbova",
    "addr:housenumber": "452",
    "addr:postcode": "517305",
    "addr:street": "Strada Văii",
    "codul_entității_muzeale": "7101630.0",
    "name": "Expoziția Etnografică",
    "name:en": "Ethnographic exhibition",
    "opening_hours": "unknown",
    "phone": "0258-748118, 0766 285078",
    "source": "INP",
    "source:link": "http://date.gov.ro/dataset/ghidul-muzeelor-din-romania",
    "tourism": "museum",
    "tourism_survey": "11.12.2013 12:16:43",
    "website": "http://www.cjalba.ro/expozitia-etnografica-girbova/"
  }
},
{
  "type": "node",
  "id": 2634652342,
  "lat": 45.9744010,
  "lon": 23.7759750,
  "tags": {
    "SIRUTA:code": "0",
    "addr:city": "Șpring",
    "addr:housenumber": "333",
    "addr:postcode": "517765",
    "addr:street": "Strada Principală",
    "codul_entității_muzeale": "7111690.0",
    "fixme": "Adresa muzeului este de fapt adresa localitati, trebuie cautat manual unde este adresa corecta",
    "name": "Expoziția Etnografică",
    "name:en": "Ethnographic exhibition",
    "opening_hours": "unknown",
    "phone": "0258-765244, 0740-763160",
    "source": "INP",
    "source:link": "http://date.gov.ro/dataset/ghidul-muzeelor-din-romania",
    "start_date": "2006",
    "tourism": "museum",
    "tourism_survey": "11.12.2013 12:16:33",
    "website": "http://www.cjalba.ro/expozitia-etnografica-spring/"
  }
},
{
  "type": "node",
  "id": 2634652346,
  "lat": 46.0587970,
  "lon": 24.0009950,
  "tags": {
    "SIRUTA:code": "0",
    "addr:city": "Cenade",
    "addr:housenumber": "250",
    "addr:postcode": "517210",
    "addr:street": "Strada Principală",
    "codul_entității_muzeale": "7101540.0",
    "fixme": "Adresa muzeului este de fapt adresa strazi, trebuie cautat manual unde este adresa corecta",
    "name": "Expoziția Etnografică",
    "name:en": "Ethnographic exhibition",
    "opening_hours": "unknown",
    "phone": "0258- 789104, 0760-237887",
    "source": "INP",
    "source:link": "http://date.gov.ro/dataset/ghidul-muzeelor-din-romania",
    "start_date": "2006",
    "tourism": "museum",
    "tourism_survey": "11.12.2013 12:17:00",
    "website": "http://www.cjalba.ro/expozitia-etnografic%c7%8e-cenade/"
  }
},
{
  "type": "node",
  "id": 2634652380,
  "lat": 46.0832290,
  "lon": 24.2768726,
  "tags": {
    "LMI": "SB-II-a-A-12582, Patrimoniu UNESCO",
    "SIRUTA:code": "145970",
    "addr:city": "Valea Viilor",
    "addr:housenumber": "345",
    "addr:postcode": "557290",
    "addr:street": "Strada Principală",
    "codul_entității_muzeale": "5.50103137E8",
    "name": "Muzeul Bisericii Evanghelice",
    "name:en": "Evangelical Church Museum",
    "opening_hours": "Mo-Fr 9:00-12:00, 14:00-17:00",
    "source": "INP",
    "source:link": "http://date.gov.ro/dataset/ghidul-muzeelor-din-romania",
    "start_date": "2001",
    "tourism": "museum",
    "tourism_survey": "24.07.2013 11:13:22"
  }
},
{
  "type": "node",
  "id": 2634652421,
  "lat": 45.7969750,
  "lon": 24.1495900,
  "tags": {
    "LMI": "SB-II-m-A-12134",
    "SIRUTA:code": "143469",
    "addr:city": "Sibiu",
    "addr:housenumber": "2",
    "addr:postcode": "550179",
    "addr:street": "Strada Mitropoliei",
    "codul_entității_muzeale": "6966501.0",
    "description:ro": "Expozitia de istorie a fost deschisa in august 1959 ca sectie a Muzeului Brukenthal, la parterul palatului. Din 1988 muzeul functioneaza in Turnul Sfatului.",
    "fax": "0269/211.545",
    "name": "Muzeul de Istorie Casa Altemberger",
    "name:en": "Altemberger House History Museum",
    "opening_hours": "10:00-18:00; Mo,Tu closed",
    "phone": "+40 269 218 143",
    "source": "INP",
    "source:link": "http://date.gov.ro/dataset/ghidul-muzeelor-din-romania",
    "start_date": "1959",
    "tourism": "museum",
    "tourism_survey": "29.10.2013 14:07:34",
    "website": "http://www.brukenthalmuseum.ro/"
  }
},
{
  "type": "node",
  "id": 2634652436,
  "lat": 45.7982688,
  "lon": 24.1521073,
  "tags": {
    "LMI": "SB-II-m-A-12128",
    "SIRUTA:code": "143469",
    "addr:city": "Sibiu",
    "addr:housenumber": "26",
    "addr:postcode": "550182",
    "addr:street": "Piața Mică",
    "codul_entității_muzeale": "6966503.0",
    "description:en": "The museum was founded in 1972. Previously on the premises functioned one of the oldest pharmacies in town, founded by 1600.",
    "description:ro": "Muzeul de Istorie a Farmaciei a fost infiintat in 1972, folosindu-se colectii adunate din toata tara.",
    "fax": "0269/211.545",
    "name": "Expoziția de Istoria Farmaciei",
    "name:en": "History of Pharmacy Exhibition",
    "opening_hours": "Apr-Sep 09:00-17:00; Oct-Mar 10:00-16:00; Mo closed",
    "phone": "0269/218.191; 0269/211.545; 0269/213.156",
    "source": "INP",
    "source:link": "http://date.gov.ro/dataset/ghidul-muzeelor-din-romania",
    "start_date": "1972",
    "tourism": "museum",
    "tourism_survey": "19.09.2013 15:03:52",
    "website": "http://www.brukenthalmuseum.ro/"
  }
},
{
  "type": "node",
  "id": 2634652461,
  "lat": 45.7996923,
  "lon": 23.8480503,
  "tags": {
    "SIRUTA:code": "145916",
    "addr:city": "Tilișca",
    "addr:housenumber": "531",
    "addr:postcode": "557280",
    "codul_entității_muzeale": "7167600.0",
    "fixme": "Adresa muzeului este de fapt adresa localitati, trebuie cautat manual unde este adresa corecta",
    "name": "Muzeul Local",
    "name:en": "Local Museum",
    "opening_hours": "8:00-16:00",
    "source": "INP",
    "source:link": "http://date.gov.ro/dataset/ghidul-muzeelor-din-romania",
    "start_date": "2003",
    "tourism": "museum",
    "tourism_survey": "07.12.2011 13:36:05"
  }
},
{
  "type": "node",
  "id": 2634652508,
  "lat": 45.9320441,
  "lon": 24.4605918,
  "tags": {
    "SIRUTA:code": "0",
    "addr:city": "Alțina",
    "addr:street": "nr. 557",
    "codul_entității_muzeale": "7167400.0",
    "email": "eugen_vaida@yahoo.com",
    "name": "Muzeul Interetnic al Văii Hârtibaciului",
    "name:en": "Interethnic Museum of Hârtibaciu Valley",
    "phone": "0746319869",
    "source": "INP",
    "source:link": "http://date.gov.ro/dataset/ghidul-muzeelor-din-romania",
    "tourism": "museum",
    "tourism_survey": "07.10.2013 12:58:26",
    "website": "http://recomespar.ro/"
  }
},
{
  "type": "node",
  "id": 2634652848,
  "lat": 45.7948772,
  "lon": 24.1546831,
  "tags": {
    "SIRUTA:code": "143469",
    "addr:city": "Sibiu",
    "addr:housenumber": "2",
    "addr:postcode": "550160",
    "addr:street": "Strada Cetății",
    "codul_entității_muzeale": "6966504.0",
    "description:ro": "A fost infiintat in 1895 de Societatea ardeleana de stiintele naturii (societate infiintata in 1849). A fost nationalizat in 1949, iar in 1957 a fost incorporat in Muzeul Brukenthal. in 1972, muzeul a fost restructurat intr-o conceptie moderna.",
    "fax": "0269/211.545",
    "museum_type": "Natural Sciences - Botanics, Zoology;Geology",
    "name": "Muzeul de Istorie Naturală",
    "name:en": "Natural History Museum",
    "opening_hours": "Apr-Sep 09:00-17:00; Oct-Mar 10:00-16:00; Mo closed",
    "phone": "+40 369 101 782",
    "source": "INP",
    "source:link": "http://date.gov.ro/dataset/ghidul-muzeelor-din-romania",
    "start_date": "1895",
    "tourism": "museum",
    "tourism_survey": "10.12.2013 14:47:48",
    "website": "http://www.brukenthalmuseum.ro/",
    "wikidata": "Q12736106",
    "wikipedia": "ro:Muzeul de Istorie Naturală din Sibiu"
  }
},
{
  "type": "node",
  "id": 2634652873,
  "lat": 45.7933500,
  "lon": 23.8816676,
  "tags": {
    "SIRUTA:code": "145505",
    "addr:city": "Săliște",
    "addr:housenumber": "6",
    "addr:postcode": "557225",
    "addr:street": "Piața Eroilor",
    "codul_entității_muzeale": "7167700.0",
    "description:en": "It is a museum complex, endowed with a house bearing specific furniture.",
    "description:ro": "Afirmandu-se ca un complex muzeal, este inzestrat cu o casa salisteana cu mobilier specific si cu o stana cu tot utilajul necesar.",
    "fixme": "Adresa muzeului este de fapt adresa localitati, trebuie cautat manual unde este adresa corecta",
    "name": "Muzeul Parohial Săliște",
    "name:en": "Parish Museum",
    "opening_hours": "8:00-16:00; Sa,Su unknown",
    "phone": "Gata Mihaela: 0740185335, Popa Olimpia : 0740693620",
    "source": "INP",
    "source:link": "http://date.gov.ro/dataset/ghidul-muzeelor-din-romania",
    "start_date": "1909",
    "tourism": "museum",
    "tourism_survey": "11.11.2013 12:57:31",
    "website": "http://www.sibiu.djc.ro/ObiectiveDetalii.aspx?ID=34"
  }
},
{
  "type": "node",
  "id": 2634652953,
  "lat": 45.6394226,
  "lon": 24.2990048,
  "tags": {
    "SIRUTA:code": "145943",
    "addr:city": "Turnu Roșu",
    "addr:postcode": "557285",
    "codul_entității_muzeale": "7168700.0",
    "email": "primariaturnurosu@yahoo.com",
    "fax": "0269/527.601",
    "name": "Expoziția Muzeală",
    "name:en": "Turnu Rosu Village Exhibition",
    "opening_hours": "unknown",
    "phone": "0269/527.888",
    "source": "INP",
    "source:link": "http://date.gov.ro/dataset/ghidul-muzeelor-din-romania",
    "start_date": "1978",
    "tourism": "museum",
    "tourism_survey": "10.12.2013 13:43:10",
    "website": "http://www.turnurosu.ro/muzeul.htm"
  }
},
{
  "type": "node",
  "id": 2634652966,
  "lat": 45.7293540,
  "lon": 23.9816760,
  "tags": {
    "SIRUTA:code": "144606",
    "addr:city": "Gura Râului",
    "addr:housenumber": "1067",
    "addr:postcode": "557095",
    "addr:street": "Strada Principală",
    "codul_entității_muzeale": "7167200.0",
    "fax": "0269/572.001",
    "fixme": "Adresa muzeului este de fapt adresa strazi, trebuie cautat manual unde este adresa corecta",
    "name": "Muzeu Comunal",
    "name:en": "Village Museum Collection",
    "opening_hours": "closed",
    "phone": "0269/572.001",
    "source": "INP",
    "source:link": "http://date.gov.ro/dataset/ghidul-muzeelor-din-romania",
    "start_date": "1970",
    "tourism": "museum",
    "tourism_survey": "07.12.2011 13:31:33"
  }
},
{
  "type": "node",
  "id": 5397997337,
  "lat": 45.7292058,
  "lon": 24.3771619,
  "tags": {
    "name": "Palatul Brukenthal Avrig",
    "tourism": "museum"
  }
},
{
  "type": "node",
  "id": 5848067519,
  "lat": 45.7948521,
  "lon": 24.1544005,
  "tags": {
    "addr:city": "Sibiu",
    "addr:housenumber": "1",
    "addr:street": "Strada Cetății",
    "exhibit": "history",
    "name": "Expoziția Dinozaurii din Grădină",
    "name:en": "Dinosaurs from the Garden Exhibition",
    "tourism": "museum",
    "website": "http://brukenthalmuseum.ro/naturale/05.htm"
  }
},
{
  "type": "node",
  "id": 5869391911,
  "lat": 45.7907893,
  "lon": 24.1465270,
  "tags": {
    "addr:city": "Sibiu",
    "addr:housenumber": "5",
    "addr:street": "Bulevardul Victoriei",
    "museum": "sport",
    "name": "Muzeul Clubul Sportiv al Armatei Steaua București",
    "tourism": "museum"
  }
},
{
  "type": "node",
  "id": 6551718793,
  "lat": 45.7976190,
  "lon": 24.1509770,
  "tags": {
    "addr:postcode": "550182",
    "description:en": "ASTRA Museum was established in 1905 by the Transylvanian Association for the literature and culture of the Romanian people. In 1950 it was closed down, and its collections were included in Brukenthal Museum. Currently, the museum complex comprises sev...",
    "description:ro": "Muzeul ASTRA, cea mai importanta institutie fondata de Asociatiunea Transilvana pentru Literatura Romana si Cultura Poporului Roman, a fost inaugurat in 19 august 1905. El s-a nascut din dorinta romanilor ardeleni de a-si defini propria identitate etno...",
    "email": "office@muzeulastra.ro",
    "fax": "(+40) 269202411",
    "foundation_date": "1963",
    "name": "Complexul National Muzeal ASTRA",
    "name:en": "ASTRA National Museum Complex",
    "opening_hours": "10:00 - 18:00; sambata - duminica: 10:00 - 20:00 (vara); 9:00 - 17:00 (iarna)",
    "phone": "(+40) 269202400",
    "ref:codul_entitații_muzeale": "6966502",
    "reviewed": "no",
    "tourism": "museum",
    "website": "http://www.muzeulastra.ro;http://www.muzeulastra.com"
  }
},
{
  "type": "node",
  "id": 6551718886,
  "lat": 45.7933127,
  "lon": 23.8817139,
  "tags": {
    "addr:postcode": "557231",
    "description:en": "It is a museum complex, endowed with a house bearing specific furniture and a sheepfold with a complete outfit. It presents fabrics, processing tools, leather workshop, furrier's shop, comb workshop, leather and wood objects, costumes, pottery.",
    "description:ro": "Muzeul \"Culturii Salistene\" s-a inaugurat in anul 1978 cu prilejul primei editii a ''Intalnirii Fiilor Satului\" la Saliste. Un aport deosebit la infiintarea muzeului l-a adus domnisoara invatatoare Ana Petrutiu. Cladirea care gazduieste muzeul a fost d...",
    "foundation_date": "1978",
    "name": "Muzeul Culturii Salistene",
    "name:en": "Village Museum",
    "opening_hours": "8:00 - 16:00; sambata - duminica: la cerere, pentru grupuri organizate",
    "phone": "Centrul de Informare Turistica Saliste: (+40) 269553512 int.115",
    "ref:codul_entitații_muzeale": "7167100",
    "reviewed": "no",
    "tourism": "museum",
    "website": "http://www.sibiu.djc.ro/ObiectiveDetalii.aspx?ID=34"
  }
},
{
  "type": "way",
  "id": 40405482,
  "nodes": [
    488616772,
    488616775,
    5848058139,
    5848058138,
    5848058140,
    5848058137,
    488633927,
    488633935,
    5848058133,
    5848058134,
    5848058135,
    5848058136,
    488616772
  ],
  "tags": {
    "building": "yes",
    "is_in:city": "Sibiu",
    "is_in:country": "Romania",
    "is_in:country_code": "RO",
    "is_in:county": "Sibiu",
    "name": "Muzeul de Istorie Naturală",
    "name:en": "Natural History Museum",
    "opening_hours": "We-Su 09:00-17:00",
    "tourism": "museum"
  }
},
{
  "type": "way",
  "id": 192920342,
  "nodes": [
    2034573430,
    2034573485,
    2034573936,
    2034573416,
    2034573724,
    2034573927,
    2034573430
  ],
  "tags": {
    "addr:city": "Sibiu",
    "addr:street": "Strada Școala de Înot",
    "building": "yes",
    "is_in:city": "Sibiu",
    "is_in:country": "Romania",
    "is_in:country_code": "RO",
    "is_in:county": "Sibiu",
    "name": "Arme și trofee de vânătoare",
    "tourism": "museum"
  }
},
{
  "type": "way",
  "id": 209873107,
  "nodes": [
    2200282557,
    2200282555,
    2200282559,
    2200282562,
    2200282557
  ],
  "tags": {
    "building": "yes",
    "name": "Muzeul Parohial Sibiel",
    "tourism": "museum"
  }
},
{
  "type": "way",
  "id": 214431879,
  "nodes": [
    2239736910,
    2239736908,
    2239736903,
    2239736901,
    2239736912,
    2239736905,
    2239736907,
    2239736909,
    2239736910
  ],
  "tags": {
    "building": "hut",
    "name": "Punct Muzeal",
    "tourism": "museum"
  }
},
{
  "type": "way",
  "id": 301275824,
  "nodes": [
    3053515228,
    3053515229,
    3053515230,
    3053515231,
    3053515232,
    3053518933,
    3053518934,
    3053518935,
    3053518936,
    3053518937,
    3053518938,
    3053518939,
    3053518940,
    3053518941,
    3053518942,
    3053518943,
    3053518944,
    3053518945,
    3053518946,
    3053518947,
    3053518948,
    3053518949,
    3053518950,
    2781230901,
    3053518951,
    3053518952,
    3053518953,
    3053518954,
    3053518955,
    3053518956,
    3053518957,
    3053518958,
    3053518959,
    3053518960,
    3053518961,
    3053518962,
    3053515228
  ],
  "tags": {
    "SIRUTA:code": "143469",
    "addr:city": "Sibiu",
    "addr:housenumber": "16-20",
    "addr:postcode": "550399",
    "addr:postcode:source": "Date de la Poșta Română, publicate sub Licența pentru Guvernare Deschisă v1.0 la http://date.gov.ro/organization/posta-romana",
    "addr:street": "Strada Pădurea Dumbrava",
    "codul_entității_muzeale": "6.9665022E7",
    "description:en": "The museum was founded under the name of the Folk Technology Museum.",
    "description:ro": "Muzeul a fost infiintat sub denumirea de Muzeul Tehnicii Populare.",
    "email": "office@muzeulastra.ro;mal@muzeulastra.ro;mcpt@muzeulastra.ro",
    "fee": "yes",
    "name": "Muzeul Civilizației Populare Tradiționale \"ASTRA\"",
    "name:en": "\"ASTRA\" Museum of Traditional Folk Civilization",
    "opening_hours": "Mo-Fr 10:00-18:00, Apr-Sep Sa-Su 10:00-20:00; Mo-Su 09:00-17:00",
    "phone": "+40 269 202447;+40 269 202400",
    "start_date": "1963",
    "tourism": "museum",
    "website": "http://www.muzeulastra.ro",
    "wikipedia": "ro:Muzeul Civilizației Populare Tradiționale „ASTRA” din Sibiu"
  }
},
{
  "type": "way",
  "id": 385566875,
  "nodes": [
    3889081049,
    3889081050,
    3889081051,
    3889081052,
    3889081053,
    3889081054,
    3889081055,
    3889081056,
    3889081057,
    3889081058,
    3889081059,
    5208130018,
    3889081060,
    3889081061,
    3889081062,
    3889081063,
    3889081049
  ],
  "tags": {
    "addr:city": "Turnu Roșu",
    "building": "yes",
    "name": "Muzeul Turnu Roșu",
    "phone": "0269/527.888",
    "tourism": "museum",
    "website": "http://www.turnurosu.ro/muzeul.htm"
  }
},
{
  "type": "way",
  "id": 553784328,
  "nodes": [
    5345139156,
    5345139157,
    5345139158,
    5345139159,
    5345139156
  ],
  "tags": {
    "building": "yes",
    "name": "Punct muzeal",
    "tourism": "museum"
  }
},
{
  "type": "way",
  "id": 614721699,
  "nodes": [
    5814314945,
    5814314933,
    5814314949,
    5814314916,
    5814314945
  ],
  "tags": {
    "building": "house",
    "name": "Michelsberger Heimatmuseum",
    "name:ro": "Muzeul Traditiei Sasesti",
    "tourism": "museum",
    "wheelchair": "no"
  }
},
{
  "type": "node",
  "id": 5814314916,
  "lat": 45.7043993,
  "lon": 24.1091625
},
{
  "type": "node",
  "id": 5814314933,
  "lat": 45.7045138,
  "lon": 24.1093615
},
{
  "type": "node",
  "id": 5814314945,
  "lat": 45.7045333,
  "lon": 24.1091947
},
{
  "type": "node",
  "id": 5814314949,
  "lat": 45.7043798,
  "lon": 24.1093294
},
{
  "type": "node",
  "id": 3889081049,
  "lat": 45.6395258,
  "lon": 24.2990573
},
{
  "type": "node",
  "id": 3889081050,
  "lat": 45.6395250,
  "lon": 24.2990266
},
{
  "type": "node",
  "id": 3889081051,
  "lat": 45.6395465,
  "lon": 24.2990224
},
{
  "type": "node",
  "id": 3889081052,
  "lat": 45.6395465,
  "lon": 24.2989220
},
{
  "type": "node",
  "id": 3889081053,
  "lat": 45.6394120,
  "lon": 24.2989304
},
{
  "type": "node",
  "id": 3889081054,
  "lat": 45.6391902,
  "lon": 24.2989072
},
{
  "type": "node",
  "id": 3889081055,
  "lat": 45.6391865,
  "lon": 24.2990478
},
{
  "type": "node",
  "id": 3889081056,
  "lat": 45.6392368,
  "lon": 24.2990509
},
{
  "type": "node",
  "id": 3889081057,
  "lat": 45.6392383,
  "lon": 24.2990974
},
{
  "type": "node",
  "id": 3889081058,
  "lat": 45.6391784,
  "lon": 24.2991884
},
{
  "type": "node",
  "id": 3889081059,
  "lat": 45.6392168,
  "lon": 24.2992338
},
{
  "type": "node",
  "id": 3889081060,
  "lat": 45.6392797,
  "lon": 24.2991630
},
{
  "type": "node",
  "id": 3889081061,
  "lat": 45.6393166,
  "lon": 24.2992137
},
{
  "type": "node",
  "id": 3889081062,
  "lat": 45.6393669,
  "lon": 24.2991429
},
{
  "type": "node",
  "id": 3889081063,
  "lat": 45.6393388,
  "lon": 24.2990509
},
{
  "type": "node",
  "id": 5208130018,
  "lat": 45.6392586,
  "lon": 24.2991868
},
{
  "type": "node",
  "id": 2239736901,
  "lat": 45.7978804,
  "lon": 23.8623940
},
{
  "type": "node",
  "id": 2239736903,
  "lat": 45.7978422,
  "lon": 23.8623611
},
{
  "type": "node",
  "id": 2239736905,
  "lat": 45.7979184,
  "lon": 23.8623560
},
{
  "type": "node",
  "id": 2239736907,
  "lat": 45.7979467,
  "lon": 23.8622959
},
{
  "type": "node",
  "id": 2239736908,
  "lat": 45.7979049,
  "lon": 23.8622172
},
{
  "type": "node",
  "id": 2239736909,
  "lat": 45.7979301,
  "lon": 23.8622806
},
{
  "type": "node",
  "id": 2239736910,
  "lat": 45.7979432,
  "lon": 23.8622484
},
{
  "type": "node",
  "id": 2239736912,
  "lat": 45.7979021,
  "lon": 23.8623450
},
{
  "type": "node",
  "id": 5345139156,
  "lat": 45.9714579,
  "lon": 23.8415035
},
{
  "type": "node",
  "id": 5345139157,
  "lat": 45.9712996,
  "lon": 23.8415774
},
{
  "type": "node",
  "id": 5345139158,
  "lat": 45.9712747,
  "lon": 23.8414673
},
{
  "type": "node",
  "id": 5345139159,
  "lat": 45.9714331,
  "lon": 23.8413933
},
{
  "type": "node",
  "id": 2200282555,
  "lat": 45.7657413,
  "lon": 23.9131649
},
{
  "type": "node",
  "id": 2200282557,
  "lat": 45.7658499,
  "lon": 23.9133929
},
{
  "type": "node",
  "id": 2200282559,
  "lat": 45.7658162,
  "lon": 23.9130898
},
{
  "type": "node",
  "id": 2200282562,
  "lat": 45.7659228,
  "lon": 23.9133258
},
{
  "type": "node",
  "id": 3053515228,
  "lat": 45.7466894,
  "lon": 24.1085626
},
{
  "type": "node",
  "id": 3053515229,
  "lat": 45.7462626,
  "lon": 24.1099681
},
{
  "type": "node",
  "id": 3053515230,
  "lat": 45.7464049,
  "lon": 24.1101934
},
{
  "type": "node",
  "id": 3053515231,
  "lat": 45.7469140,
  "lon": 24.1103651
},
{
  "type": "node",
  "id": 3053515232,
  "lat": 45.7473932,
  "lon": 24.1100540
},
{
  "type": "node",
  "id": 3053518962,
  "lat": 45.7471611,
  "lon": 24.1077151
},
{
  "type": "node",
  "id": 3053518953,
  "lat": 45.7539662,
  "lon": 24.1102363
},
{
  "type": "node",
  "id": 3053518954,
  "lat": 45.7534721,
  "lon": 24.1091098
},
{
  "type": "node",
  "id": 3053518955,
  "lat": 45.7527535,
  "lon": 24.1080262
},
{
  "type": "node",
  "id": 3053518956,
  "lat": 45.7504028,
  "lon": 24.1090776
},
{
  "type": "node",
  "id": 3053518957,
  "lat": 45.7494595,
  "lon": 24.1088845
},
{
  "type": "node",
  "id": 3053518958,
  "lat": 45.7490926,
  "lon": 24.1095819
},
{
  "type": "node",
  "id": 3053518959,
  "lat": 45.7482766,
  "lon": 24.1092600
},
{
  "type": "node",
  "id": 3053518960,
  "lat": 45.7477900,
  "lon": 24.1093566
},
{
  "type": "node",
  "id": 3053518961,
  "lat": 45.7477375,
  "lon": 24.1082622
},
{
  "type": "node",
  "id": 3053518933,
  "lat": 45.7491750,
  "lon": 24.1109659
},
{
  "type": "node",
  "id": 3053518934,
  "lat": 45.7503504,
  "lon": 24.1112127
},
{
  "type": "node",
  "id": 3053518935,
  "lat": 45.7520647,
  "lon": 24.1124465
},
{
  "type": "node",
  "id": 3053518936,
  "lat": 45.7522070,
  "lon": 24.1134872
},
{
  "type": "node",
  "id": 3053518937,
  "lat": 45.7519749,
  "lon": 24.1144850
},
{
  "type": "node",
  "id": 2781230901,
  "lat": 45.7566398,
  "lon": 24.1142915
},
{
  "type": "node",
  "id": 3053518938,
  "lat": 45.7549880,
  "lon": 24.1167078
},
{
  "type": "node",
  "id": 3053518939,
  "lat": 45.7553265,
  "lon": 24.1169779
},
{
  "type": "node",
  "id": 3053518947,
  "lat": 45.7601717,
  "lon": 24.1167917
},
{
  "type": "node",
  "id": 3053518948,
  "lat": 45.7593483,
  "lon": 24.1159334
},
{
  "type": "node",
  "id": 3053518949,
  "lat": 45.7588094,
  "lon": 24.1164805
},
{
  "type": "node",
  "id": 3053518950,
  "lat": 45.7576117,
  "lon": 24.1149785
},
{
  "type": "node",
  "id": 3053518951,
  "lat": 45.7563691,
  "lon": 24.1133799
},
{
  "type": "node",
  "id": 3053518952,
  "lat": 45.7557628,
  "lon": 24.1111161
},
{
  "type": "node",
  "id": 3053518944,
  "lat": 45.7616163,
  "lon": 24.1168668
},
{
  "type": "node",
  "id": 3053518945,
  "lat": 45.7610924,
  "lon": 24.1154827
},
{
  "type": "node",
  "id": 3053518946,
  "lat": 45.7607031,
  "lon": 24.1156115
},
{
  "type": "node",
  "id": 3053518940,
  "lat": 45.7582032,
  "lon": 24.1203188
},
{
  "type": "node",
  "id": 3053518941,
  "lat": 45.7588992,
  "lon": 24.1213943
},
{
  "type": "node",
  "id": 3053518942,
  "lat": 45.7597451,
  "lon": 24.1195812
},
{
  "type": "node",
  "id": 3053518943,
  "lat": 45.7614142,
  "lon": 24.1195704
},
{
  "type": "node",
  "id": 2034573430,
  "lat": 45.7867059,
  "lon": 24.1466841
},
{
  "type": "node",
  "id": 2034573485,
  "lat": 45.7865707,
  "lon": 24.1468467
},
{
  "type": "node",
  "id": 2034573936,
  "lat": 45.7866833,
  "lon": 24.1470392
},
{
  "type": "node",
  "id": 2034573416,
  "lat": 45.7867962,
  "lon": 24.1469034
},
{
  "type": "node",
  "id": 2034573724,
  "lat": 45.7867542,
  "lon": 24.1468317
},
{
  "type": "node",
  "id": 2034573927,
  "lat": 45.7867765,
  "lon": 24.1468048
},
{
  "type": "node",
  "id": 488616772,
  "lat": 45.7948735,
  "lon": 24.1549395
},
{
  "type": "node",
  "id": 488616775,
  "lat": 45.7947753,
  "lon": 24.1547536
},
{
  "type": "node",
  "id": 488633927,
  "lat": 45.7949495,
  "lon": 24.1545611
},
{
  "type": "node",
  "id": 488633935,
  "lat": 45.7950498,
  "lon": 24.1547509
},
{
  "type": "node",
  "id": 5848058133,
  "lat": 45.7949995,
  "lon": 24.1548055
},
{
  "type": "node",
  "id": 5848058134,
  "lat": 45.7950028,
  "lon": 24.1548116
},
{
  "type": "node",
  "id": 5848058135,
  "lat": 45.7949345,
  "lon": 24.1548858
},
{
  "type": "node",
  "id": 5848058136,
  "lat": 45.7949303,
  "lon": 24.1548778
},
{
  "type": "node",
  "id": 5848058137,
  "lat": 45.7948922,
  "lon": 24.1546233
},
{
  "type": "node",
  "id": 5848058138,
  "lat": 45.7948230,
  "lon": 24.1546571
},
{
  "type": "node",
  "id": 5848058139,
  "lat": 45.7948380,
  "lon": 24.1546855
},
{
  "type": "node",
  "id": 5848058140,
  "lat": 45.7948783,
  "lon": 24.1545970
}

  ]
}
