{
  "version": 0.6,
  "generator": "Overpass API 0.7.55.9 ab41fea6",
  "osm3s": {
    "timestamp_osm_base": "2020-02-14T13:26:01Z",
    "copyright": "The data included in this document is from www.openstreetmap.org. The data is made available under ODbL."
  },
  "elements": [

{
  "type": "node",
  "id": 588942122,
  "lat": 36.5951006,
  "lon": -4.6385587,
  "tags": {
    "name": "Casa Museo",
    "tourism": "museum"
  }
},
{
  "type": "node",
  "id": 885489026,
  "lat": 36.5375934,
  "lon": -4.6266146,
  "tags": {
    "name": "Museo de Historia de la Ciudad",
    "source": "local_knowledge",
    "tourism": "museum"
  }
},
{
  "type": "node",
  "id": 937539477,
  "lat": 36.5955367,
  "lon": -4.6395659,
  "tags": {
    "name": "Museo del vino Málaga",
    "tourism": "museum"
  }
},
{
  "type": "node",
  "id": 937539612,
  "lat": 36.5937779,
  "lon": -4.6389974,
  "tags": {
    "name": "Museo de la plaza de toros",
    "tourism": "museum"
  }
},
{
  "type": "node",
  "id": 2275695225,
  "lat": 36.5959429,
  "lon": -4.5732377,
  "tags": {
    "name": "Museo Precolombino",
    "tourism": "museum"
  }
},
{
  "type": "node",
  "id": 3341926440,
  "lat": 36.5961694,
  "lon": -4.6380943,
  "tags": {
    "name": "C.A.C. Mijas",
    "tourism": "museum"
  }
},
{
  "type": "node",
  "id": 3613546147,
  "lat": 36.8207915,
  "lon": -4.7070015,
  "tags": {
    "tourism": "museum"
  }
},
{
  "type": "node",
  "id": 4235174122,
  "lat": 36.9424352,
  "lon": -4.2260256,
  "tags": {
    "tourism": "museum"
  }
},
{
  "type": "node",
  "id": 5620610532,
  "lat": 36.9313573,
  "lon": -4.6805420,
  "tags": {
    "description": "OFCINA DE TURISMO-MUSEO",
    "tourism": "museum"
  }
},
{
  "type": "node",
  "id": 6622812706,
  "lat": 36.7204258,
  "lon": -4.4204312,
  "tags": {
    "addr:housenumber": "6",
    "addr:street": "Plaza del Obispo",
    "museum": "art",
    "museum_type": "private",
    "name": "Palacio Episcopal Málaga Centro de Arte",
    "operator": "Obispado de Málaga",
    "tourism": "museum"
  }
},
{
  "type": "node",
  "id": 6624534082,
  "lat": 36.7204712,
  "lon": -4.4194794,
  "tags": {
    "fee": "yes",
    "museum": "art",
    "museum_type": "private",
    "name": "Museo Catedralicio",
    "operator": "Diócesis de Málaga",
    "tourism": "museum"
  }
},
{
  "type": "node",
  "id": 6624669417,
  "lat": 36.7207440,
  "lon": -4.4107236,
  "tags": {
    "addr:housenumber": "8",
    "addr:postcode": "29016",
    "addr:street": "Paseo de Reding",
    "museum": "bullfighting",
    "museum_type": "regional",
    "name": "Museo Taurino Antonio Ordóñez",
    "operator": "Diputación de Málaga",
    "tourism": "museum"
  }
},
{
  "type": "node",
  "id": 7104475179,
  "lat": 36.7865751,
  "lon": -4.1039984,
  "tags": {
    "museum_type": "municipal",
    "name": "Museo de Vélez-Málaga",
    "tourism": "museum"
  }
},
{
  "type": "way",
  "id": 34474171,
  "nodes": [
    397924927,
    5778598307,
    5778598308,
    397924932,
    5778598316,
    397924937,
    5778598313,
    5162991206,
    397924942,
    5778598306,
    397924927
  ],
  "tags": {
    "museum": "art;archeological",
    "museum_type": "national;regional",
    "name": "Museo de Málaga",
    "old_name": "Museo Provincial de Bellas Artes",
    "opening_hours": "Tu-Sa 09:00-20:00;Su 09:00-15:00",
    "operator": "Ministerio de Cultura;Junta de Andalucía",
    "tourism": "museum",
    "wikidata": "Q4276495",
    "wikimedia_commons": "Category:Museo_de_Málaga",
    "wikipedia": "es:Museo de Málaga"
  }
},
{
  "type": "way",
  "id": 34475528,
  "nodes": [
    1628757614,
    1628757615,
    1628757603,
    1628757601,
    5558871021,
    1628757604,
    1628757607,
    1628757611,
    5558871022,
    1628757617,
    1628757618,
    397977933,
    5558871025,
    5558871024,
    5558871023,
    5558871042,
    1628757626,
    1628757621,
    1628757633,
    1628757632,
    1628757631,
    1628757628,
    1628757630,
    397977936,
    1628757620,
    1628757619,
    5558871044,
    1628757614
  ],
  "tags": {
    "addr:city": "Málaga",
    "addr:housenumber": "2",
    "addr:postcode": "29001",
    "addr:street": "Calle Alemania",
    "building": "commercial",
    "building:levels": "2",
    "building:levels:underground": "1",
    "museum": "art",
    "museum_type": "municipal",
    "name": "Centro de Arte Contemporáneo",
    "name:en": "Contemporary Art Museum of Malaga",
    "name:es": "Centro de Arte Contemporáneo",
    "opening_hours": "Tu-Su 10:00-20:00",
    "operator": "Ayuntamiento de Málaga",
    "short_name": "CAC",
    "tourism": "museum",
    "website": "http://cacmalaga.eu",
    "wheelchair": "yes",
    "wikidata": "Q3664802",
    "wikipedia": "es:Centro de Arte Contemporáneo de Málaga"
  }
},
{
  "type": "way",
  "id": 51676375,
  "nodes": [
    659696260,
    659696261,
    659696262,
    659696263,
    659696260
  ],
  "tags": {
    "building": "yes",
    "building:levels": "1",
    "museum": "military",
    "museum_type": "municipal",
    "name": "Centro de Interpretación del Castillo de Gibralfaro",
    "operator": "Ayuntamiento de Málaga",
    "tourism": "museum"
  }
},
{
  "type": "way",
  "id": 68341499,
  "nodes": [
    822891256,
    659696176,
    5163113896,
    6235968725,
    6245227197,
    822891258,
    822891153,
    5163114824,
    822891256
  ],
  "tags": {
    "addr:postcode": "29015",
    "addr:street": "Calle Alcazabilla",
    "building": "retail",
    "building:levels": "1",
    "image": "https://d1cuyjsrcm0gby.cloudfront.net/5k-hl1bSSDTut-wpWYjBRA/thumb-2048.jpg",
    "mapillary": "https://www.mapillary.com/map/im/5k-hl1bSSDTut-wpWYjBRA",
    "museum": "archaeological",
    "museum_type": "regional",
    "name": "Centro de Interpretación del Teatro Romano de Málaga",
    "nohousenumber": "yes",
    "operator": "Junta de Andalucía",
    "tourism": "museum"
  }
},
{
  "type": "way",
  "id": 99711523,
  "nodes": [
    1152788399,
    1152788402,
    1152788411,
    1152788439,
    1152788379,
    1152788420,
    5562911766,
    5562911767,
    1152788399
  ],
  "tags": {
    "addr:housenumber": "15",
    "addr:postcode": "29003",
    "addr:street": "Avenida Sor Teresa Prat",
    "building": "public",
    "building:levels": "2",
    "museum": "art",
    "museum_type": "private",
    "name": "Colección del Museo Ruso San Petersburgo Málaga",
    "operator": "Museo Estatal Ruso;Ayuntamiento de Málaga",
    "tourism": "museum",
    "website": "https://www.coleccionmuseoruso.es/"
  }
},
{
  "type": "way",
  "id": 99711526,
  "nodes": [
    1152788403,
    1152788440,
    1152788432,
    6090700391,
    1152788370,
    1152788435,
    1152788415,
    6090583698,
    6090583695,
    1152788405,
    1152788409,
    1152788436,
    1152788386,
    1152788428,
    1152788424,
    1152788438,
    1152788382,
    1152788441,
    1152788422,
    1152788374,
    1152788389,
    1152788412,
    1152788434,
    5277600758,
    5277600759,
    5277600760,
    5277600761,
    1152788417,
    1152788429,
    1152788418,
    1152788407,
    1152788403
  ],
  "tags": {
    "addr:housenumber": "15",
    "addr:street": "Avenida Sor Teresa Prat",
    "alt_name": "Museo Automovilístico y la Moda de Málaga",
    "museum": "technology",
    "museum_type": "municipal",
    "name": "Museo Automovilístico de Málaga",
    "opening_hours": "Mo-Su 10:00-19:00",
    "operator": "Ayuntamiento de Málaga",
    "phone": "+34 951137001",
    "tourism": "museum",
    "website": "https://www.museoautomovilmalaga.com/"
  }
},
{
  "type": "way",
  "id": 176384466,
  "nodes": [
    1595564570,
    5163067896,
    5163067895,
    5163067897,
    5163067840,
    5163067898,
    5163067899,
    5163067900,
    5163067901,
    5163067902,
    5163067903,
    5163067904,
    5163067905,
    5163067906,
    5163067907,
    1869174169,
    5163067908,
    5163067909,
    1869174166,
    5163067910,
    5163066697,
    5163067911,
    5163067912,
    5163066698,
    5163067913,
    5163067914,
    1595564569,
    5163067915,
    1595564570
  ],
  "tags": {
    "addr:housenumber": "5",
    "addr:postcode": "29015",
    "addr:street": "Calle Afligidos",
    "building": "yes",
    "museum": "art",
    "museum_type": "private",
    "name": "Museo Revello de Toro",
    "operator": "Fundación Félix Revello de Toro",
    "phone": "+34 952062069",
    "tourism": "museum",
    "website": "http://www.museorevellodetoro.net/",
    "wheelchair": "yes",
    "wikidata": "Q6033729"
  }
},
{
  "type": "way",
  "id": 176395060,
  "nodes": [
    1869325487,
    4826993004,
    4826993005,
    4826993006,
    4826993007,
    4826993008,
    1869325476,
    4826992999,
    4826993000,
    4826999422,
    4826999419,
    1869325473,
    1869325478,
    4826999366,
    4826993001,
    4826993002,
    4826999362,
    4826993003,
    1869325487
  ],
  "tags": {
    "addr:housenumber": "15",
    "addr:postcode": "29008",
    "addr:street": "Calle Beatas",
    "museum": "musical_instruments",
    "museum_type": "municipal",
    "name": "Museo Interactivo de la Música",
    "note": "Between 2002-2013, the museum was located in Plaza Marina",
    "opening_hours": "Tu-Su 10:00-19:00; Mo 10:00-16:00",
    "operator": "Ayuntamiento de Málaga",
    "short_name": "MIMMA",
    "start_date": "2013",
    "tourism": "museum",
    "website": "https://www.musicaenaccion.com/",
    "wikidata": "Q6033449"
  }
},
{
  "type": "way",
  "id": 193590624,
  "nodes": [
    2041031104,
    2041031048,
    2041031012,
    2041031056,
    2041031120,
    2041031104
  ],
  "tags": {
    "building": "public",
    "building:levels": "3",
    "museum": "science",
    "museum_type": "private",
    "name": "Museo Alborania",
    "operator": "Centro de Estudios Marinos Aula del Mar",
    "toilets:wheelchair": "yes",
    "tourism": "museum",
    "website": "http://museoalborania.com",
    "wheelchair": "yes"
  }
},
{
  "type": "way",
  "id": 236704904,
  "nodes": [
    2446968423,
    2446968425,
    2446968428,
    5290670648,
    2446968435,
    2446968438,
    5290670630,
    2446968423
  ],
  "tags": {
    "building": "yes",
    "name": "Museo Municipal de Antequera",
    "tourism": "museum"
  }
},
{
  "type": "way",
  "id": 236710925,
  "nodes": [
    2446998687,
    2446998688,
    2446998689,
    2446998690,
    2446998687
  ],
  "tags": {
    "building": "yes",
    "name": "Museo del Aceite de Oliva",
    "tourism": "museum"
  }
},
{
  "type": "way",
  "id": 237515515,
  "nodes": [
    2454053302,
    2454053303,
    2454053304,
    2454053306,
    2454053307,
    2454053308,
    3046460279,
    3046460280,
    2454053302
  ],
  "tags": {
    "building": "yes",
    "name": "Centro de Visitantes del Torcal de Antequera",
    "tourism": "museum"
  }
},
{
  "type": "way",
  "id": 243047263,
  "nodes": [
    2504892175,
    4865976475,
    4865976474,
    4865976473,
    4865976472,
    4865976471,
    4865976469,
    4865976470,
    4865976487,
    4865976485,
    4865976486,
    4865976477,
    4865976484,
    4865976483,
    4865976476,
    4786708341,
    4786708340,
    2504891423,
    4786708359,
    2504891425,
    4865976503,
    4865976502,
    4865976501,
    4865976500,
    4865976499,
    4865976498,
    2504891427,
    2504892175
  ],
  "tags": {
    "addr:postcode": "29013",
    "addr:street": "Plaza del Santuario",
    "amenity": "place_of_worship",
    "building": "church",
    "image": "https://images.mapillary.com/a_e9By66zUwxltDsAJxy2w/thumb-2048.jpg",
    "mapillary": "https://www.mapillary.com/map/im/a_e9By66zUwxltDsAJxy2w",
    "museum": "art",
    "museum_type": "private",
    "name": "Museo y Basílica Santa María de la Victoria",
    "nohousenumber": "yes",
    "religion": "christian",
    "tourism": "museum"
  }
},
{
  "type": "way",
  "id": 279357599,
  "nodes": [
    2835700660,
    2835728034,
    2835700669,
    2835700670,
    2835700680,
    2835700660
  ],
  "tags": {
    "addr:housenumber": "70",
    "addr:street": "Calle Granada",
    "alt_name": "Centro de Recepción de Visitantes Ben Gabirol",
    "building": "yes",
    "museum": "history",
    "museum_type": "municipal",
    "name": "Centro Ben Gabirol",
    "operator": "Ayuntamiento de Málaga",
    "tourism": "museum"
  }
},
{
  "type": "way",
  "id": 337371873,
  "nodes": [
    3444638002,
    3444638003,
    3444638005,
    3444638004,
    4258321509,
    3444638002
  ],
  "tags": {
    "designation": "Museo de Miniaturas",
    "name": "\"Carromato de Max\"",
    "tourism": "museum"
  }
},
{
  "type": "way",
  "id": 375216083,
  "nodes": [
    5164975227,
    3786011350,
    3786012287,
    3786012286,
    3786003202,
    3786003207,
    3786003210,
    3786003212,
    3786003223,
    3786003235,
    3786012006,
    2083959203,
    2083959194,
    3786011311,
    3786011307,
    3786011305,
    1869213186,
    3786011315,
    3786011318,
    5164975226,
    5164975225,
    5164975227
  ],
  "tags": {
    "addr:housenumber": "10",
    "addr:postcode": "29008",
    "addr:street": "Calle Compañía",
    "description:en": "Prestige Spanish art museum: Fin-de-siecle, Old Masters, Romanti Landscape & Costumbrism, termporary exhibits.",
    "fee": "yes",
    "museum": "art",
    "museum_type": "private",
    "name": "Museo Carmen Thyssen Málaga",
    "operator": "Fundación Palacio de Villalón",
    "tourism": "museum",
    "website": "https://www.carmenthyssenmalaga.org/",
    "wheelchair": "yes",
    "wikidata": "Q5043601",
    "wikipedia": "es:Museo Carmen Thyssen Málaga"
  }
},
{
  "type": "way",
  "id": 403701814,
  "nodes": [
    4060359932,
    5291316604,
    5291316605,
    4060359933,
    4060359934,
    5291316603,
    4060359932
  ],
  "tags": {
    "addr:city": "Antequera",
    "addr:postcode": "29200",
    "addr:street": "Calle Maderuelos",
    "building": "yes",
    "name": "mad.",
    "tourism": "museum",
    "website": "http://www.madantequera.com"
  }
},
{
  "type": "way",
  "id": 446496408,
  "nodes": [
    4437559755,
    4437559756,
    4437559766,
    4437559762,
    4437559767,
    4437559772,
    4437559779,
    4437559773,
    4437559775,
    4437559770,
    4437559776,
    4437559784,
    4437559786,
    4437559989,
    4437559991,
    4437559990,
    4437559787,
    4437559992,
    4437559788,
    4437559785,
    4437559782,
    4437559781,
    4437559783,
    4437559780,
    4437559778,
    4437559777,
    4437559774,
    4437559771,
    4437559769,
    4437559768,
    4437559764,
    4437559761,
    4437559765,
    4437559763,
    4437559759,
    4437559758,
    4437559754,
    4437559753,
    4437559760,
    4437559757,
    4437559755
  ],
  "tags": {
    "building": "construction",
    "name": "Museo de los Dólmenes de Antequera",
    "tourism": "museum"
  }
},
{
  "type": "way",
  "id": 467588395,
  "nodes": [
    1869393846,
    2264139988,
    4621912835,
    4621912836,
    4621912837,
    4621912838,
    4621912839,
    4621912840,
    4621912841,
    4621912842,
    4621912843,
    4621912844,
    4621912845,
    4621912846,
    1869393842,
    1869393846
  ],
  "tags": {
    "addr:housenumber": "6",
    "addr:postcode": "29011",
    "addr:street": "Avenida de Luis Buñuel",
    "museum": "science",
    "museum_type": "regional",
    "name": "Centro de Ciencia Principia",
    "operator": "Junta de Andalucía;Diputación de Málaga",
    "subject": "science",
    "tourism": "museum",
    "website": "http://www.principia-malaga.com",
    "wikidata": "Q5761603"
  }
},
{
  "type": "way",
  "id": 490353919,
  "nodes": [
    4825357263,
    4825357262,
    4825357261,
    4825357260,
    4825356709,
    4825357259,
    4825357258,
    4841940758,
    4825357257,
    4825357256,
    4825357233,
    4825357255,
    4825357235,
    4825357254,
    4825357239,
    4825357253,
    4825357252,
    4825357251,
    4825357250,
    4825357249,
    4825357248,
    4825357247,
    4825357246,
    4825357245,
    4825357263
  ],
  "tags": {
    "addr:housenumber": "2",
    "addr:street": "Plazuela Santísimo Cristo de la Sangre",
    "alt_name": "Museo del Vidrio y Cristal de Málaga",
    "museum": "art",
    "museum_type": "private",
    "name": "Museo del Vidrio y Cristal",
    "opening_hours": "Tu-Su 11:00-19:00",
    "phone": "+34 9522202 1",
    "tourism": "museum",
    "website": "https://museovidrioycristalmalaga.com/",
    "wikidata": "Q6034509"
  }
},
{
  "type": "way",
  "id": 490507571,
  "nodes": [
    4826910034,
    4826910033,
    4826910030,
    4826909807,
    4826909810,
    4826910032,
    4826910031,
    4826910034
  ],
  "tags": {
    "addr:city": "Málaga",
    "addr:housenumber": "4",
    "addr:postcode": "29008",
    "addr:street": "Calle Ramón Franquelo",
    "alt_name": "Museo Flamenco Juan Breva",
    "building": "yes",
    "museum": "art",
    "museum_type": "private",
    "name": "Museo del Flamenco - Peña Juan Breva",
    "operator": "Peña Juan Breva",
    "tourism": "museum",
    "website": "http://www.museoflamencojuanbreva.com/",
    "wheelchair": "no"
  }
},
{
  "type": "way",
  "id": 491895574,
  "nodes": [
    4839826770,
    4839827104,
    4839827103,
    4839827102,
    4839826769,
    4839826768,
    4839826767,
    4839827099,
    4839827098,
    4839826766,
    4839826779,
    4839826780,
    4839826770
  ],
  "tags": {
    "addr:housenumber": "12",
    "addr:street": "Calle Cruz del Molinillo",
    "building": "yes",
    "museum": "art",
    "museum_type": "private",
    "name": "Museo Jorge Rando",
    "opening_hours": "Mo-Sa 10:00-20:00",
    "operator": "Fundación Jorge Rando",
    "tourism": "museum",
    "website": "https://www.museojorgerando.org/",
    "wikidata": "Q12184921"
  }
},
{
  "type": "way",
  "id": 495632050,
  "nodes": [
    4873700462,
    4873700461,
    4873700460,
    4873700459,
    4873700458,
    4873700457,
    1869249705,
    767463563,
    1945992224,
    1945992230,
    4873700456,
    4873700443,
    4873708541,
    4873700442,
    4873708543,
    4873708542,
    4873700441,
    4873700440,
    4873700462
  ],
  "tags": {
    "addr:housenumber": "2",
    "addr:postcode": "29008",
    "addr:street": "Calle Muro de San Julián",
    "museum": "art",
    "museum_type": "private",
    "name": "Museo de la Semana Santa",
    "operator": "Agrupación de Cofradías de Semana Santa de Málaga",
    "tourism": "museum",
    "wikidata": "Q6034294",
    "wikipedia": "es:Museo de la Semana Santa (Málaga)"
  }
},
{
  "type": "way",
  "id": 532504471,
  "nodes": [
    5167179276,
    2626731575,
    3724714710,
    5267646845,
    2626731576,
    3724714704,
    2626731579,
    5167179249,
    5167179248,
    1942382438,
    1942382437,
    1942382439,
    3724714698,
    3724714697,
    2626731578,
    5167179258,
    5167179257,
    5167179256,
    2835728065,
    5167179255,
    5167179262,
    5167179263,
    5167179251,
    5167179264,
    2835700667,
    2835700672,
    5167179274,
    5167179278,
    5167179276
  ],
  "tags": {
    "addr:city": "Málaga",
    "addr:housenumber": "8",
    "addr:postcode": "29015",
    "addr:street": "Calle San Agustín",
    "email": "info@mpicassom.org",
    "museum": "art",
    "museum_type": "private",
    "name": "Museo Picasso Málaga",
    "name:fr": "Musée Picasso Malaga",
    "opening_hours": "Mo-Su 10:00-18:00",
    "operator": "Fundación Museo Picasso Málaga",
    "phone": "+34 902 44 33 77",
    "short_name": "MPM",
    "tourism": "museum",
    "website": "https://www.museopicassomalaga.org/",
    "wheelchair": "yes",
    "wikidata": "Q1368396",
    "wikipedia": "es:Museo Picasso Málaga"
  }
},
{
  "type": "way",
  "id": 547509502,
  "nodes": [
    5290322922,
    5290391046,
    5290391071,
    5290391047,
    5290391073,
    5290391072,
    5290322923,
    5290322922
  ],
  "tags": {
    "building": "yes",
    "tourism": "museum"
  }
},
{
  "type": "way",
  "id": 566360834,
  "nodes": [
    5454169135,
    5454168309,
    5454169196,
    5454169203,
    5454169206,
    5454169208,
    5454169200,
    5454169198,
    5454169193,
    5454169201,
    5454169175,
    5454169136,
    5454169137,
    5454169135
  ],
  "tags": {
    "addr:housenumber": "1",
    "addr:postcode": "29170",
    "addr:street": "Calle Posito",
    "building": "public",
    "building:levels": "2",
    "email": "museo@museodelamiel.com",
    "museum": "apis_mellifera",
    "name": "Museo de la Miel",
    "opening_hours": "Mo-Fr 10:00-14:00, 15:00-18:00",
    "phone": "+34 952 71 80 30",
    "tourism": "museum",
    "website": "http://www.museodelamiel.com",
    "wikidata": "Q804582"
  }
},
{
  "type": "way",
  "id": 581332756,
  "nodes": [
    5562591187,
    5562591191,
    5562591336,
    5562591192,
    5562591151,
    5562591147,
    5562591902,
    5562591879,
    5562591920,
    5562591445,
    5562591441,
    5562591436,
    5562591430,
    5562591416,
    5562591411,
    5562591916,
    5562591404,
    5562591400,
    5562591394,
    5562591382,
    5562591350,
    5562591339,
    5562591333,
    5562591326,
    5562591900,
    5562591461,
    5562591204,
    5562591460,
    5562591459,
    5562591458,
    5562591186,
    5562591457,
    5562591456,
    5562591338,
    5562591455,
    5562591150,
    5562591454,
    5562591453,
    5562591452,
    5562591194,
    5562591197,
    5562591206,
    5564253271,
    3799171267,
    5562591449,
    5562591448,
    5562591893,
    5562591447,
    6011031508,
    5562591446,
    5562591187
  ],
  "tags": {
    "addr:street": "Pasaje Doctor Carrillo Casaux",
    "museum": "art",
    "museum_type": "private",
    "name": "Centro Pompidou Málaga",
    "name:en": "Centre Pompidou Málaga",
    "nohousenumber": "yes",
    "opening_hours": "Mo-Su 09:30-20:00; Tu off",
    "operator": "Centro Pompidou;Ayuntamiento de Málaga",
    "phone": "+34 951926200",
    "tourism": "museum",
    "url": "https://www.youtube.com/watch?v=2GZIEW52MvM",
    "website": "https://centrepompidou-malaga.eu/",
    "wikidata": "Q16545730",
    "wikipedia": "es:Centro Pompidou de Málaga"
  }
},
{
  "type": "way",
  "id": 594080557,
  "nodes": [
    4874120844,
    1869249698,
    5665839621,
    5665808820,
    1869249693,
    1869249695,
    5665808819,
    1869249704,
    5665692406,
    5665692405,
    4874120943,
    5665692351,
    1942637654,
    5665690215,
    1942637665,
    4874120941,
    1942637671,
    5665692382,
    5665692392,
    5665692401,
    5665692394,
    4874120942,
    5665692373,
    1942637679,
    4874124137,
    5665690206,
    5665690205,
    4874120844
  ],
  "tags": {
    "addr:housenumber": "1",
    "addr:postcode": "29005",
    "addr:street": "Plaza Enrique García-Herrera",
    "museum": "ethnographic",
    "museum_type": "private",
    "name": "Museo de Artes y Costumbres Populares",
    "operator": "Fundación Unicaja",
    "phone": "+34 952217137",
    "tourism": "museum",
    "website": "http://www.museoartespopulares.com/",
    "wheelchair": "no",
    "wikidata": "Q6033925"
  }
},
{
  "type": "way",
  "id": 613867338,
  "nodes": [
    3113161199,
    5807394720,
    2279816968,
    3113161204,
    3113161195,
    5807394141,
    5807394695,
    5807394545,
    5807394461,
    5807394697,
    5807394711,
    3113161199
  ],
  "tags": {
    "museum": "ethnographic",
    "museum_type": "regional",
    "name": "Ecomuseo Lagar de Torrijos",
    "operator": "Junta de Andalucía",
    "tourism": "museum"
  }
},
{
  "type": "way",
  "id": 665529417,
  "nodes": [
    6229479898,
    6229205962,
    6229205973,
    6229205966,
    6229205964,
    2042947647,
    6229205983,
    4497946852,
    6229205938,
    6229205939,
    6229205937,
    6229205940,
    6229479896,
    6229205969,
    6229208887,
    6229479897,
    6229232149,
    6229232136,
    6229232160,
    6229232172,
    6229232134,
    6229232130,
    6229232176,
    6229232162,
    6229232178,
    6229232182,
    6229232131,
    6229232133,
    6229479898
  ],
  "tags": {
    "addr:housenumber": "1",
    "addr:postcode": "29016",
    "addr:street": "Paseo de Reding",
    "building": "public",
    "building:levels": "5",
    "museum": "history",
    "museum_type": "municipal",
    "name": "Museo del Patrimonio Municipal",
    "operator": "Ayuntamiento de Málaga",
    "short_name": "MUPAM",
    "tourism": "museum",
    "website": "http://museodelpatrimoniomunicipal.malaga.eu/"
  }
},
{
  "type": "way",
  "id": 705117680,
  "nodes": [
    2371292073,
    4823769614,
    4823769822,
    4823769619,
    2766723122,
    5267772814,
    2539925332,
    4823769616,
    4823769615,
    4823769617,
    4823769618,
    5277395560,
    2539925334,
    2371292073
  ],
  "tags": {
    "addr:city": "Málaga",
    "addr:housenumber": "15",
    "addr:street": "Plaza de la Merced",
    "alt_name": "Museo Casa Natal Picasso",
    "museum": "art",
    "museum_type": "private",
    "name": "Fundación Picasso Museo Casa Natal",
    "operator": "Fundación Picasso",
    "tourism": "museum",
    "wikidata": "Q11681997",
    "wikipedia": "es:Fundación Picasso Museo Casa Natal"
  }
},
{
  "type": "way",
  "id": 705172079,
  "nodes": [
    6623020199,
    6623020198,
    6623020197,
    6623020196,
    6623020195,
    6623020194,
    6623020193,
    6623020192,
    6623020191,
    6623020190,
    6623020189,
    6623020188,
    6623020187,
    6623020186,
    6622995481,
    6622995480,
    6622995479,
    6623020185,
    6622995484,
    6622995483,
    6622995482,
    6622995478,
    6622995477,
    6623020199
  ],
  "tags": {
    "addr:housenumber": "57",
    "addr:street": "Calle Severo Ochoa",
    "museum": "technology",
    "name": "Centro de Ciencia y Tecnología",
    "short_name": "CCT",
    "tourism": "museum",
    "wheelchair": "yes"
  }
},
{
  "type": "way",
  "id": 705172083,
  "nodes": [
    6623020244,
    6623020243,
    6623020242,
    6623020241,
    6623020240,
    6623020239,
    6623020238,
    6623020237,
    6623020236,
    6623020235,
    6624394674,
    6623020234,
    6624394680,
    6623020233,
    6623020232,
    6624394683,
    6623020231,
    6623020230,
    6622995474,
    6622995475,
    6623020229,
    6624394720,
    6623020228,
    6623020227,
    6623020226,
    6623020225,
    6623020224,
    6624387520,
    6624387521,
    1839339241,
    6623020216,
    6623020215,
    6624394692,
    6623020214,
    6623020213,
    6716181451,
    6624394634,
    6624394629,
    6623020212,
    6624394628,
    6623020211,
    6623020209,
    6623020210,
    6624387541,
    6623020222,
    6623020221,
    6623020220,
    6623020219,
    2605670002,
    6624394574,
    2605670001,
    6624394568,
    6623020218,
    6623020244
  ],
  "tags": {
    "addr:full": "Aeropuerto de Málaga junto a Aviación General",
    "alt_name": "Museo Nacional de Aeropuertos y Transporte Aéreo",
    "fee": "no",
    "museum": "technology",
    "museum_type": "national",
    "name": "Museo Aeronáutico de Málaga",
    "opening_hours": "Tu 10:00-20:00;We-Sa 10:00-14:00",
    "operator": "AENA",
    "tourism": "museum",
    "website": "http://www.aeroplaza.org/"
  }
},
{
  "type": "way",
  "id": 705232350,
  "nodes": [
    6624601775,
    5984060052,
    6624601774,
    6624601773,
    6624601772,
    6624601771,
    6624601770,
    6624601769,
    6624601768,
    6624601767,
    6624601766,
    6624601765,
    6624601764,
    6624601763,
    6624601762,
    6624601761,
    6624601760,
    6624601759,
    6624601776,
    6624601758,
    6624601757,
    6624601775
  ],
  "tags": {
    "addr:housenumber": "23",
    "addr:postcode": "29010",
    "addr:street": "Avenida María Victoria Atencia",
    "barrier": "fence",
    "museum": "geological;paleontological",
    "museum_type": "private",
    "name": "Gaia Museum",
    "tourism": "museum"
  }
},
{
  "type": "way",
  "id": 725050683,
  "nodes": [
    6799154248,
    6799154249,
    6799162344,
    6799162156,
    6799162239,
    6799162370,
    6799162119,
    6799162019,
    6799199030,
    6799162391,
    2082715712,
    6799162262,
    6799162270,
    6717979218,
    6799162336,
    6799154248
  ],
  "tags": {
    "addr:housenumber": "56",
    "addr:postcode": "29140",
    "addr:street": "Calle Torremolinos",
    "museum": "history",
    "museum_type": "municipal",
    "name": "Casa Gerald Brenan",
    "operator": "Ayuntamiento de Málaga",
    "tourism": "museum"
  }
},
{
  "type": "relation",
  "id": 3251036,
  "members": [
    {
      "type": "way",
      "ref": 182183657,
      "role": "outer"
    },
    {
      "type": "way",
      "ref": 240902939,
      "role": "inner"
    }
  ],
  "tags": {
    "building": "stadium",
    "sport": "bullfighting",
    "tourism": "museum",
    "type": "multipolygon"
  }
},
{
  "type": "relation",
  "id": 9807144,
  "members": [
    {
      "type": "way",
      "ref": 705237953,
      "role": "outer"
    },
    {
      "type": "way",
      "ref": 431447192,
      "role": "outer"
    }
  ],
  "tags": {
    "alt_name": "Yacimiento Arqueológico de la Araña",
    "designation": "Parque prehistórico",
    "loc_name": "Cuevas de la Araña",
    "museum": "archaeological",
    "museum_type": "regional",
    "name": "Parque Prehistórico de Málaga",
    "operator": "Junta de Andalucía;Ayuntamiento de Málaga;Asociación Arqueológica Yacimientos de la Araña",
    "tourism": "museum",
    "type": "multipolygon",
    "website": "http://complejohumo.org/",
    "wikidata": "Q6062471"
  }
},
{
  "type": "node",
  "id": 3444638002,
  "lat": 36.5952524,
  "lon": -4.6373859
},
{
  "type": "node",
  "id": 3444638003,
  "lat": 36.5951346,
  "lon": -4.6373039
},
{
  "type": "node",
  "id": 3444638004,
  "lat": 36.5952730,
  "lon": -4.6373402
},
{
  "type": "node",
  "id": 3444638005,
  "lat": 36.5951551,
  "lon": -4.6372582
},
{
  "type": "node",
  "id": 4258321509,
  "lat": 36.5952615,
  "lon": -4.6373658
},
{
  "type": "node",
  "id": 2082715712,
  "lat": 36.6647654,
  "lon": -4.5046477
},
{
  "type": "node",
  "id": 6717979218,
  "lat": 36.6648315,
  "lon": -4.5045060
},
{
  "type": "node",
  "id": 6799154248,
  "lat": 36.6649579,
  "lon": -4.5044387
},
{
  "type": "node",
  "id": 6799154249,
  "lat": 36.6649967,
  "lon": -4.5044177
},
{
  "type": "node",
  "id": 6799162019,
  "lat": 36.6648320,
  "lon": -4.5047165
},
{
  "type": "node",
  "id": 6799162119,
  "lat": 36.6648624,
  "lon": -4.5048086
},
{
  "type": "node",
  "id": 6799162156,
  "lat": 36.6650777,
  "lon": -4.5046319
},
{
  "type": "node",
  "id": 6799162239,
  "lat": 36.6650791,
  "lon": -4.5046312
},
{
  "type": "node",
  "id": 6799162262,
  "lat": 36.6647641,
  "lon": -4.5046437
},
{
  "type": "node",
  "id": 6799162270,
  "lat": 36.6647359,
  "lon": -4.5045585
},
{
  "type": "node",
  "id": 6799162336,
  "lat": 36.6649204,
  "lon": -4.5044590
},
{
  "type": "node",
  "id": 6799162344,
  "lat": 36.6650542,
  "lon": -4.5045707
},
{
  "type": "node",
  "id": 6799162370,
  "lat": 36.6650947,
  "lon": -4.5046762
},
{
  "type": "node",
  "id": 6799162391,
  "lat": 36.6648029,
  "lon": -4.5046286
},
{
  "type": "node",
  "id": 6799199030,
  "lat": 36.6648180,
  "lon": -4.5046741
},
{
  "type": "node",
  "id": 1839339241,
  "lat": 36.6695381,
  "lon": -4.4797451
},
{
  "type": "node",
  "id": 2605670001,
  "lat": 36.6701120,
  "lon": -4.4811856
},
{
  "type": "node",
  "id": 2605670002,
  "lat": 36.6700135,
  "lon": -4.4808385
},
{
  "type": "node",
  "id": 6622995474,
  "lat": 36.6687014,
  "lon": -4.4804927
},
{
  "type": "node",
  "id": 6622995475,
  "lat": 36.6682057,
  "lon": -4.4807132
},
{
  "type": "node",
  "id": 6623020209,
  "lat": 36.6697419,
  "lon": -4.4799077
},
{
  "type": "node",
  "id": 6623020210,
  "lat": 36.6694787,
  "lon": -4.4800191
},
{
  "type": "node",
  "id": 6623020211,
  "lat": 36.6697226,
  "lon": -4.4798487
},
{
  "type": "node",
  "id": 6623020212,
  "lat": 36.6705069,
  "lon": -4.4798961
},
{
  "type": "node",
  "id": 6623020213,
  "lat": 36.6705234,
  "lon": -4.4794256
},
{
  "type": "node",
  "id": 6623020214,
  "lat": 36.6703544,
  "lon": -4.4793889
},
{
  "type": "node",
  "id": 6623020215,
  "lat": 36.6702266,
  "lon": -4.4793889
},
{
  "type": "node",
  "id": 6623020216,
  "lat": 36.6699959,
  "lon": -4.4794714
},
{
  "type": "node",
  "id": 6623020218,
  "lat": 36.6699842,
  "lon": -4.4812134
},
{
  "type": "node",
  "id": 6623020219,
  "lat": 36.6699292,
  "lon": -4.4805426
},
{
  "type": "node",
  "id": 6623020220,
  "lat": 36.6698717,
  "lon": -4.4805620
},
{
  "type": "node",
  "id": 6623020221,
  "lat": 36.6697574,
  "lon": -4.4801523
},
{
  "type": "node",
  "id": 6623020222,
  "lat": 36.6695483,
  "lon": -4.4802429
},
{
  "type": "node",
  "id": 6623020224,
  "lat": 36.6679307,
  "lon": -4.4807039
},
{
  "type": "node",
  "id": 6623020225,
  "lat": 36.6680403,
  "lon": -4.4810760
},
{
  "type": "node",
  "id": 6623020226,
  "lat": 36.6680683,
  "lon": -4.4811419
},
{
  "type": "node",
  "id": 6623020227,
  "lat": 36.6680977,
  "lon": -4.4811547
},
{
  "type": "node",
  "id": 6623020228,
  "lat": 36.6683048,
  "lon": -4.4810723
},
{
  "type": "node",
  "id": 6623020229,
  "lat": 36.6682908,
  "lon": -4.4810214
},
{
  "type": "node",
  "id": 6623020230,
  "lat": 36.6687887,
  "lon": -4.4808101
},
{
  "type": "node",
  "id": 6623020231,
  "lat": 36.6688029,
  "lon": -4.4808617
},
{
  "type": "node",
  "id": 6623020232,
  "lat": 36.6688910,
  "lon": -4.4808177
},
{
  "type": "node",
  "id": 6623020233,
  "lat": 36.6689698,
  "lon": -4.4808026
},
{
  "type": "node",
  "id": 6623020234,
  "lat": 36.6691408,
  "lon": -4.4807902
},
{
  "type": "node",
  "id": 6623020235,
  "lat": 36.6691731,
  "lon": -4.4808910
},
{
  "type": "node",
  "id": 6623020236,
  "lat": 36.6692128,
  "lon": -4.4808781
},
{
  "type": "node",
  "id": 6623020237,
  "lat": 36.6692642,
  "lon": -4.4810577
},
{
  "type": "node",
  "id": 6623020238,
  "lat": 36.6693010,
  "lon": -4.4810467
},
{
  "type": "node",
  "id": 6623020239,
  "lat": 36.6693575,
  "lon": -4.4812729
},
{
  "type": "node",
  "id": 6623020240,
  "lat": 36.6694413,
  "lon": -4.4812417
},
{
  "type": "node",
  "id": 6623020241,
  "lat": 36.6694942,
  "lon": -4.4812463
},
{
  "type": "node",
  "id": 6623020242,
  "lat": 36.6696705,
  "lon": -4.4811694
},
{
  "type": "node",
  "id": 6623020243,
  "lat": 36.6697234,
  "lon": -4.4811941
},
{
  "type": "node",
  "id": 6623020244,
  "lat": 36.6697946,
  "lon": -4.4813123
},
{
  "type": "node",
  "id": 6624387520,
  "lat": 36.6692754,
  "lon": -4.4799018
},
{
  "type": "node",
  "id": 6624387521,
  "lat": 36.6693888,
  "lon": -4.4798342
},
{
  "type": "node",
  "id": 6624387541,
  "lat": 36.6694997,
  "lon": -4.4800866
},
{
  "type": "node",
  "id": 6624394568,
  "lat": 36.6700158,
  "lon": -4.4812068
},
{
  "type": "node",
  "id": 6624394574,
  "lat": 36.6700319,
  "lon": -4.4809029
},
{
  "type": "node",
  "id": 6624394628,
  "lat": 36.6704883,
  "lon": -4.4798952
},
{
  "type": "node",
  "id": 6624394629,
  "lat": 36.6705092,
  "lon": -4.4798284
},
{
  "type": "node",
  "id": 6624394634,
  "lat": 36.6705128,
  "lon": -4.4797275
},
{
  "type": "node",
  "id": 6624394674,
  "lat": 36.6691452,
  "lon": -4.4808039
},
{
  "type": "node",
  "id": 6624394680,
  "lat": 36.6690061,
  "lon": -4.4808000
},
{
  "type": "node",
  "id": 6624394683,
  "lat": 36.6688318,
  "lon": -4.4808472
},
{
  "type": "node",
  "id": 6624394692,
  "lat": 36.6703266,
  "lon": -4.4793889
},
{
  "type": "node",
  "id": 6624394720,
  "lat": 36.6682954,
  "lon": -4.4810383
},
{
  "type": "node",
  "id": 6716181451,
  "lat": 36.6705183,
  "lon": -4.4795721
},
{
  "type": "node",
  "id": 1152788370,
  "lat": 36.6996507,
  "lon": -4.4389610
},
{
  "type": "node",
  "id": 1152788374,
  "lat": 36.6999567,
  "lon": -4.4382634
},
{
  "type": "node",
  "id": 1152788379,
  "lat": 36.6992076,
  "lon": -4.4384275
},
{
  "type": "node",
  "id": 1152788382,
  "lat": 36.6999147,
  "lon": -4.4379056
},
{
  "type": "node",
  "id": 1152788386,
  "lat": 36.6994962,
  "lon": -4.4383625
},
{
  "type": "node",
  "id": 1152788389,
  "lat": 36.7000513,
  "lon": -4.4381954
},
{
  "type": "node",
  "id": 1152788399,
  "lat": 36.6989245,
  "lon": -4.4386316
},
{
  "type": "node",
  "id": 1152788402,
  "lat": 36.6990658,
  "lon": -4.4385294
},
{
  "type": "node",
  "id": 1152788403,
  "lat": 36.7002313,
  "lon": -4.4388519
},
{
  "type": "node",
  "id": 1152788405,
  "lat": 36.6995538,
  "lon": -4.4384855
},
{
  "type": "node",
  "id": 1152788407,
  "lat": 36.7001780,
  "lon": -4.4387370
},
{
  "type": "node",
  "id": 1152788409,
  "lat": 36.6994598,
  "lon": -4.4385524
},
{
  "type": "node",
  "id": 1152788411,
  "lat": 36.6991044,
  "lon": -4.4386116
},
{
  "type": "node",
  "id": 1152788412,
  "lat": 36.7001362,
  "lon": -4.4383770
},
{
  "type": "node",
  "id": 1152788415,
  "lat": 36.6996871,
  "lon": -4.4387713
},
{
  "type": "node",
  "id": 1152788417,
  "lat": 36.7001203,
  "lon": -4.4386130
},
{
  "type": "node",
  "id": 1152788418,
  "lat": 36.7002715,
  "lon": -4.4386682
},
{
  "type": "node",
  "id": 1152788420,
  "lat": 36.6993457,
  "lon": -4.4383277
},
{
  "type": "node",
  "id": 1152788422,
  "lat": 36.6998788,
  "lon": -4.4380963
},
{
  "type": "node",
  "id": 1152788424,
  "lat": 36.6997667,
  "lon": -4.4378569
},
{
  "type": "node",
  "id": 1152788428,
  "lat": 36.6993876,
  "lon": -4.4381304
},
{
  "type": "node",
  "id": 1152788429,
  "lat": 36.7002144,
  "lon": -4.4385454
},
{
  "type": "node",
  "id": 1152788432,
  "lat": 36.6997457,
  "lon": -4.4388942
},
{
  "type": "node",
  "id": 1152788434,
  "lat": 36.7000413,
  "lon": -4.4384458
},
{
  "type": "node",
  "id": 1152788435,
  "lat": 36.6995930,
  "lon": -4.4388377
},
{
  "type": "node",
  "id": 1152788436,
  "lat": 36.6994025,
  "lon": -4.4384295
},
{
  "type": "node",
  "id": 1152788438,
  "lat": 36.6998211,
  "lon": -4.4379730
},
{
  "type": "node",
  "id": 1152788439,
  "lat": 36.6992460,
  "lon": -4.4385094
},
{
  "type": "node",
  "id": 1152788440,
  "lat": 36.6998526,
  "lon": -4.4391260
},
{
  "type": "node",
  "id": 1152788441,
  "lat": 36.6999726,
  "lon": -4.4380289
},
{
  "type": "node",
  "id": 5277600758,
  "lat": 36.7000516,
  "lon": -4.4384660
},
{
  "type": "node",
  "id": 5277600759,
  "lat": 36.7001185,
  "lon": -4.4384195
},
{
  "type": "node",
  "id": 5277600760,
  "lat": 36.7001723,
  "lon": -4.4385399
},
{
  "type": "node",
  "id": 5277600761,
  "lat": 36.7001054,
  "lon": -4.4385865
},
{
  "type": "node",
  "id": 5562911766,
  "lat": 36.6992885,
  "lon": -4.4382021
},
{
  "type": "node",
  "id": 5562911767,
  "lat": 36.6988662,
  "lon": -4.4385072
},
{
  "type": "node",
  "id": 6090583695,
  "lat": 36.6996362,
  "lon": -4.4386621
},
{
  "type": "node",
  "id": 6090583698,
  "lat": 36.6996506,
  "lon": -4.4386932
},
{
  "type": "node",
  "id": 6090700391,
  "lat": 36.6997071,
  "lon": -4.4389213
},
{
  "type": "node",
  "id": 397977933,
  "lat": 36.7137019,
  "lon": -4.4250330
},
{
  "type": "node",
  "id": 397977936,
  "lat": 36.7144845,
  "lon": -4.4255796
},
{
  "type": "node",
  "id": 1628757601,
  "lat": 36.7135442,
  "lon": -4.4254578
},
{
  "type": "node",
  "id": 1628757603,
  "lat": 36.7135456,
  "lon": -4.4255167
},
{
  "type": "node",
  "id": 1628757604,
  "lat": 36.7135511,
  "lon": -4.4253651
},
{
  "type": "node",
  "id": 1628757607,
  "lat": 36.7135619,
  "lon": -4.4252830
},
{
  "type": "node",
  "id": 1628757611,
  "lat": 36.7135904,
  "lon": -4.4251584
},
{
  "type": "node",
  "id": 1628757614,
  "lat": 36.7136087,
  "lon": -4.4255820
},
{
  "type": "node",
  "id": 1628757615,
  "lat": 36.7136091,
  "lon": -4.4255183
},
{
  "type": "node",
  "id": 1628757617,
  "lat": 36.7136265,
  "lon": -4.4250565
},
{
  "type": "node",
  "id": 1628757618,
  "lat": 36.7136838,
  "lon": -4.4250885
},
{
  "type": "node",
  "id": 1628757619,
  "lat": 36.7144344,
  "lon": -4.4256080
},
{
  "type": "node",
  "id": 1628757620,
  "lat": 36.7144347,
  "lon": -4.4255789
},
{
  "type": "node",
  "id": 1628757621,
  "lat": 36.7144565,
  "lon": -4.4254546
},
{
  "type": "node",
  "id": 1628757626,
  "lat": 36.7144653,
  "lon": -4.4254266
},
{
  "type": "node",
  "id": 1628757628,
  "lat": 36.7144806,
  "lon": -4.4255506
},
{
  "type": "node",
  "id": 1628757630,
  "lat": 36.7144886,
  "lon": -4.4255552
},
{
  "type": "node",
  "id": 1628757631,
  "lat": 36.7144889,
  "lon": -4.4255018
},
{
  "type": "node",
  "id": 1628757632,
  "lat": 36.7144982,
  "lon": -4.4255008
},
{
  "type": "node",
  "id": 1628757633,
  "lat": 36.7145033,
  "lon": -4.4254795
},
{
  "type": "node",
  "id": 5558871021,
  "lat": 36.7135459,
  "lon": -4.4254197
},
{
  "type": "node",
  "id": 5558871022,
  "lat": 36.7136041,
  "lon": -4.4251197
},
{
  "type": "node",
  "id": 5558871023,
  "lat": 36.7144059,
  "lon": -4.4253960
},
{
  "type": "node",
  "id": 5558871024,
  "lat": 36.7140738,
  "lon": -4.4252247
},
{
  "type": "node",
  "id": 5558871025,
  "lat": 36.7137506,
  "lon": -4.4250581
},
{
  "type": "node",
  "id": 5558871042,
  "lat": 36.7144255,
  "lon": -4.4254061
},
{
  "type": "node",
  "id": 5558871044,
  "lat": 36.7143903,
  "lon": -4.4256073
},
{
  "type": "node",
  "id": 4306430695,
  "lat": 36.7124713,
  "lon": -4.3275861
},
{
  "type": "node",
  "id": 4306430699,
  "lat": 36.7124643,
  "lon": -4.3278550
},
{
  "type": "node",
  "id": 4306430702,
  "lat": 36.7125860,
  "lon": -4.3275908
},
{
  "type": "node",
  "id": 4306430703,
  "lat": 36.7125790,
  "lon": -4.3278597
},
{
  "type": "node",
  "id": 5568999324,
  "lat": 36.7125801,
  "lon": -4.3278178
},
{
  "type": "node",
  "id": 1714531110,
  "lat": 36.7130398,
  "lon": -4.3193399
},
{
  "type": "node",
  "id": 6624635035,
  "lat": 36.7130768,
  "lon": -4.3193399
},
{
  "type": "node",
  "id": 6624635036,
  "lat": 36.7130640,
  "lon": -4.3195351
},
{
  "type": "node",
  "id": 6624635037,
  "lat": 36.7131039,
  "lon": -4.3197619
},
{
  "type": "node",
  "id": 6624635038,
  "lat": 36.7130739,
  "lon": -4.3196620
},
{
  "type": "node",
  "id": 6624635039,
  "lat": 36.7130619,
  "lon": -4.3196478
},
{
  "type": "node",
  "id": 6624635040,
  "lat": 36.7130448,
  "lon": -4.3193834
},
{
  "type": "node",
  "id": 6624635041,
  "lat": 36.7130882,
  "lon": -4.3193621
},
{
  "type": "node",
  "id": 6624635042,
  "lat": 36.7131188,
  "lon": -4.3194553
},
{
  "type": "node",
  "id": 6624635043,
  "lat": 36.7131280,
  "lon": -4.3195254
},
{
  "type": "node",
  "id": 6624635044,
  "lat": 36.7131259,
  "lon": -4.3196070
},
{
  "type": "node",
  "id": 6624635045,
  "lat": 36.7131195,
  "lon": -4.3196975
},
{
  "type": "node",
  "id": 6624635046,
  "lat": 36.7130683,
  "lon": -4.3197499
},
{
  "type": "node",
  "id": 6622995477,
  "lat": 36.7397210,
  "lon": -4.5519379
},
{
  "type": "node",
  "id": 6622995478,
  "lat": 36.7396874,
  "lon": -4.5521077
},
{
  "type": "node",
  "id": 6622995479,
  "lat": 36.7390428,
  "lon": -4.5528888
},
{
  "type": "node",
  "id": 6622995480,
  "lat": 36.7389497,
  "lon": -4.5528609
},
{
  "type": "node",
  "id": 6622995481,
  "lat": 36.7388528,
  "lon": -4.5529190
},
{
  "type": "node",
  "id": 6622995482,
  "lat": 36.7396837,
  "lon": -4.5522867
},
{
  "type": "node",
  "id": 6622995483,
  "lat": 36.7396632,
  "lon": -4.5524029
},
{
  "type": "node",
  "id": 6622995484,
  "lat": 36.7396129,
  "lon": -4.5524471
},
{
  "type": "node",
  "id": 6623020185,
  "lat": 36.7390671,
  "lon": -4.5527679
},
{
  "type": "node",
  "id": 6623020186,
  "lat": 36.7387690,
  "lon": -4.5530259
},
{
  "type": "node",
  "id": 6623020187,
  "lat": 36.7386330,
  "lon": -4.5529934
},
{
  "type": "node",
  "id": 6623020188,
  "lat": 36.7387001,
  "lon": -4.5525749
},
{
  "type": "node",
  "id": 6623020189,
  "lat": 36.7387690,
  "lon": -4.5522913
},
{
  "type": "node",
  "id": 6623020190,
  "lat": 36.7387951,
  "lon": -4.5522471
},
{
  "type": "node",
  "id": 6623020191,
  "lat": 36.7388361,
  "lon": -4.5522332
},
{
  "type": "node",
  "id": 6623020192,
  "lat": 36.7390987,
  "lon": -4.5522285
},
{
  "type": "node",
  "id": 6623020193,
  "lat": 36.7391509,
  "lon": -4.5521774
},
{
  "type": "node",
  "id": 6623020194,
  "lat": 36.7392087,
  "lon": -4.5521379
},
{
  "type": "node",
  "id": 6623020195,
  "lat": 36.7392720,
  "lon": -4.5520984
},
{
  "type": "node",
  "id": 6623020196,
  "lat": 36.7393707,
  "lon": -4.5520612
},
{
  "type": "node",
  "id": 6623020197,
  "lat": 36.7394751,
  "lon": -4.5520426
},
{
  "type": "node",
  "id": 6623020198,
  "lat": 36.7395626,
  "lon": -4.5520472
},
{
  "type": "node",
  "id": 6623020199,
  "lat": 36.7396465,
  "lon": -4.5518938
},
{
  "type": "node",
  "id": 5984060052,
  "lat": 36.7263578,
  "lon": -4.4875225
},
{
  "type": "node",
  "id": 6624601757,
  "lat": 36.7264227,
  "lon": -4.4875851
},
{
  "type": "node",
  "id": 6624601758,
  "lat": 36.7264692,
  "lon": -4.4876789
},
{
  "type": "node",
  "id": 6624601759,
  "lat": 36.7268645,
  "lon": -4.4873734
},
{
  "type": "node",
  "id": 6624601760,
  "lat": 36.7268289,
  "lon": -4.4872574
},
{
  "type": "node",
  "id": 6624601761,
  "lat": 36.7265184,
  "lon": -4.4869263
},
{
  "type": "node",
  "id": 6624601762,
  "lat": 36.7264979,
  "lon": -4.4868921
},
{
  "type": "node",
  "id": 6624601763,
  "lat": 36.7264829,
  "lon": -4.4867897
},
{
  "type": "node",
  "id": 6624601764,
  "lat": 36.7263187,
  "lon": -4.4862948
},
{
  "type": "node",
  "id": 6624601765,
  "lat": 36.7262517,
  "lon": -4.4859023
},
{
  "type": "node",
  "id": 6624601766,
  "lat": 36.7261792,
  "lon": -4.4858971
},
{
  "type": "node",
  "id": 6624601767,
  "lat": 36.7260574,
  "lon": -4.4859279
},
{
  "type": "node",
  "id": 6624601768,
  "lat": 36.7259726,
  "lon": -4.4860132
},
{
  "type": "node",
  "id": 6624601769,
  "lat": 36.7258085,
  "lon": -4.4863818
},
{
  "type": "node",
  "id": 6624601770,
  "lat": 36.7257127,
  "lon": -4.4864723
},
{
  "type": "node",
  "id": 6624601771,
  "lat": 36.7256539,
  "lon": -4.4865115
},
{
  "type": "node",
  "id": 6624601772,
  "lat": 36.7260465,
  "lon": -4.4873137
},
{
  "type": "node",
  "id": 6624601773,
  "lat": 36.7261422,
  "lon": -4.4874383
},
{
  "type": "node",
  "id": 6624601774,
  "lat": 36.7262968,
  "lon": -4.4875475
},
{
  "type": "node",
  "id": 6624601775,
  "lat": 36.7263830,
  "lon": -4.4875083
},
{
  "type": "node",
  "id": 6624601776,
  "lat": 36.7267482,
  "lon": -4.4878001
},
{
  "type": "node",
  "id": 1869249693,
  "lat": 36.7199227,
  "lon": -4.4248576
},
{
  "type": "node",
  "id": 1869249695,
  "lat": 36.7199486,
  "lon": -4.4245756
},
{
  "type": "node",
  "id": 1869249698,
  "lat": 36.7200124,
  "lon": -4.4249684
},
{
  "type": "node",
  "id": 1869249704,
  "lat": 36.7200647,
  "lon": -4.4245830
},
{
  "type": "node",
  "id": 1942637654,
  "lat": 36.7200987,
  "lon": -4.4246346
},
{
  "type": "node",
  "id": 1942637665,
  "lat": 36.7201220,
  "lon": -4.4246364
},
{
  "type": "node",
  "id": 1942637671,
  "lat": 36.7201553,
  "lon": -4.4246404
},
{
  "type": "node",
  "id": 1942637679,
  "lat": 36.7201147,
  "lon": -4.4249510
},
{
  "type": "node",
  "id": 4874120844,
  "lat": 36.7200167,
  "lon": -4.4250177
},
{
  "type": "node",
  "id": 4874120941,
  "lat": 36.7201216,
  "lon": -4.4246407
},
{
  "type": "node",
  "id": 4874120942,
  "lat": 36.7201334,
  "lon": -4.4247706
},
{
  "type": "node",
  "id": 4874120943,
  "lat": 36.7201004,
  "lon": -4.4245972
},
{
  "type": "node",
  "id": 4874124137,
  "lat": 36.7201098,
  "lon": -4.4249840
},
{
  "type": "node",
  "id": 5665690205,
  "lat": 36.7200844,
  "lon": -4.4250101
},
{
  "type": "node",
  "id": 5665690206,
  "lat": 36.7201091,
  "lon": -4.4250074
},
{
  "type": "node",
  "id": 5665690215,
  "lat": 36.7201193,
  "lon": -4.4246361
},
{
  "type": "node",
  "id": 5665692351,
  "lat": 36.7200987,
  "lon": -4.4246036
},
{
  "type": "node",
  "id": 5665692373,
  "lat": 36.7201234,
  "lon": -4.4248749
},
{
  "type": "node",
  "id": 5665692382,
  "lat": 36.7201510,
  "lon": -4.4246626
},
{
  "type": "node",
  "id": 5665692392,
  "lat": 36.7201493,
  "lon": -4.4246705
},
{
  "type": "node",
  "id": 5665692394,
  "lat": 36.7201383,
  "lon": -4.4247407
},
{
  "type": "node",
  "id": 5665692401,
  "lat": 36.7201433,
  "lon": -4.4247051
},
{
  "type": "node",
  "id": 5665692405,
  "lat": 36.7200888,
  "lon": -4.4245923
},
{
  "type": "node",
  "id": 5665692406,
  "lat": 36.7200796,
  "lon": -4.4245884
},
{
  "type": "node",
  "id": 5665808819,
  "lat": 36.7199985,
  "lon": -4.4245788
},
{
  "type": "node",
  "id": 5665808820,
  "lat": 36.7199536,
  "lon": -4.4248868
},
{
  "type": "node",
  "id": 5665839621,
  "lat": 36.7200081,
  "lon": -4.4248942
},
{
  "type": "node",
  "id": 397924927,
  "lat": 36.7203955,
  "lon": -4.4171907
},
{
  "type": "node",
  "id": 397924937,
  "lat": 36.7195433,
  "lon": -4.4171265
},
{
  "type": "node",
  "id": 397924942,
  "lat": 36.7199468,
  "lon": -4.4176948
},
{
  "type": "node",
  "id": 1595564569,
  "lat": 36.7203386,
  "lon": -4.4182266
},
{
  "type": "node",
  "id": 1595564570,
  "lat": 36.7203440,
  "lon": -4.4183351
},
{
  "type": "node",
  "id": 1869174166,
  "lat": 36.7202309,
  "lon": -4.4182733
},
{
  "type": "node",
  "id": 1869174169,
  "lat": 36.7201499,
  "lon": -4.4183293
},
{
  "type": "node",
  "id": 1869213186,
  "lat": 36.7213201,
  "lon": -4.4227186
},
{
  "type": "node",
  "id": 1942382437,
  "lat": 36.7213552,
  "lon": -4.4183556
},
{
  "type": "node",
  "id": 1942382438,
  "lat": 36.7213950,
  "lon": -4.4184784
},
{
  "type": "node",
  "id": 1942382439,
  "lat": 36.7213979,
  "lon": -4.4183484
},
{
  "type": "node",
  "id": 2083959194,
  "lat": 36.7214106,
  "lon": -4.4230728
},
{
  "type": "node",
  "id": 2083959203,
  "lat": 36.7216172,
  "lon": -4.4230265
},
{
  "type": "node",
  "id": 2626731575,
  "lat": 36.7218147,
  "lon": -4.4183437
},
{
  "type": "node",
  "id": 2626731576,
  "lat": 36.7216425,
  "lon": -4.4184921
},
{
  "type": "node",
  "id": 2626731578,
  "lat": 36.7213517,
  "lon": -4.4182178
},
{
  "type": "node",
  "id": 2626731579,
  "lat": 36.7216018,
  "lon": -4.4186023
},
{
  "type": "node",
  "id": 2835700660,
  "lat": 36.7219492,
  "lon": -4.4179504
},
{
  "type": "node",
  "id": 2835700667,
  "lat": 36.7217409,
  "lon": -4.4180777
},
{
  "type": "node",
  "id": 2835700669,
  "lat": 36.7219706,
  "lon": -4.4178983
},
{
  "type": "node",
  "id": 2835700670,
  "lat": 36.7218963,
  "lon": -4.4178506
},
{
  "type": "node",
  "id": 2835700672,
  "lat": 36.7216825,
  "lon": -4.4181242
},
{
  "type": "node",
  "id": 2835700680,
  "lat": 36.7218748,
  "lon": -4.4179028
},
{
  "type": "node",
  "id": 2835728034,
  "lat": 36.7219588,
  "lon": -4.4179277
},
{
  "type": "node",
  "id": 2835728065,
  "lat": 36.7214945,
  "lon": -4.4180106
},
{
  "type": "node",
  "id": 3724714697,
  "lat": 36.7213633,
  "lon": -4.4182632
},
{
  "type": "node",
  "id": 3724714698,
  "lat": 36.7213863,
  "lon": -4.4182551
},
{
  "type": "node",
  "id": 3724714704,
  "lat": 36.7216703,
  "lon": -4.4185540
},
{
  "type": "node",
  "id": 3724714710,
  "lat": 36.7217933,
  "lon": -4.4183855
},
{
  "type": "node",
  "id": 3786003202,
  "lat": 36.7216968,
  "lon": -4.4227026
},
{
  "type": "node",
  "id": 3786003207,
  "lat": 36.7217352,
  "lon": -4.4227002
},
{
  "type": "node",
  "id": 3786003210,
  "lat": 36.7217401,
  "lon": -4.4227002
},
{
  "type": "node",
  "id": 3786003212,
  "lat": 36.7217435,
  "lon": -4.4227343
},
{
  "type": "node",
  "id": 3786003223,
  "lat": 36.7218060,
  "lon": -4.4227257
},
{
  "type": "node",
  "id": 3786003235,
  "lat": 36.7218399,
  "lon": -4.4227088
},
{
  "type": "node",
  "id": 3786011305,
  "lat": 36.7213264,
  "lon": -4.4227912
},
{
  "type": "node",
  "id": 3786011307,
  "lat": 36.7213413,
  "lon": -4.4229127
},
{
  "type": "node",
  "id": 3786011311,
  "lat": 36.7213798,
  "lon": -4.4229023
},
{
  "type": "node",
  "id": 3786011315,
  "lat": 36.7214010,
  "lon": -4.4227131
},
{
  "type": "node",
  "id": 3786011318,
  "lat": 36.7214144,
  "lon": -4.4227976
},
{
  "type": "node",
  "id": 3786011350,
  "lat": 36.7214905,
  "lon": -4.4227488
},
{
  "type": "node",
  "id": 3786012006,
  "lat": 36.7218871,
  "lon": -4.4228944
},
{
  "type": "node",
  "id": 3786012286,
  "lat": 36.7216360,
  "lon": -4.4227081
},
{
  "type": "node",
  "id": 3786012287,
  "lat": 36.7216364,
  "lon": -4.4227467
},
{
  "type": "node",
  "id": 4826909807,
  "lat": 36.7230423,
  "lon": -4.4191307
},
{
  "type": "node",
  "id": 4826909810,
  "lat": 36.7230198,
  "lon": -4.4191568
},
{
  "type": "node",
  "id": 4826910030,
  "lat": 36.7230892,
  "lon": -4.4190760
},
{
  "type": "node",
  "id": 4826910031,
  "lat": 36.7230427,
  "lon": -4.4192790
},
{
  "type": "node",
  "id": 4826910032,
  "lat": 36.7229906,
  "lon": -4.4191909
},
{
  "type": "node",
  "id": 4826910033,
  "lat": 36.7230929,
  "lon": -4.4190717
},
{
  "type": "node",
  "id": 5162991206,
  "lat": 36.7197434,
  "lon": -4.4174070
},
{
  "type": "node",
  "id": 5163066697,
  "lat": 36.7202278,
  "lon": -4.4181473
},
{
  "type": "node",
  "id": 5163066698,
  "lat": 36.7202832,
  "lon": -4.4181182
},
{
  "type": "node",
  "id": 5163067840,
  "lat": 36.7203492,
  "lon": -4.4184144
},
{
  "type": "node",
  "id": 5163067895,
  "lat": 36.7203557,
  "lon": -4.4183828
},
{
  "type": "node",
  "id": 5163067896,
  "lat": 36.7203492,
  "lon": -4.4183753
},
{
  "type": "node",
  "id": 5163067897,
  "lat": 36.7203612,
  "lon": -4.4184134
},
{
  "type": "node",
  "id": 5163067898,
  "lat": 36.7202473,
  "lon": -4.4184229
},
{
  "type": "node",
  "id": 5163067899,
  "lat": 36.7202484,
  "lon": -4.4184059
},
{
  "type": "node",
  "id": 5163067900,
  "lat": 36.7201786,
  "lon": -4.4184134
},
{
  "type": "node",
  "id": 5163067901,
  "lat": 36.7201781,
  "lon": -4.4184263
},
{
  "type": "node",
  "id": 5163067902,
  "lat": 36.7201361,
  "lon": -4.4184290
},
{
  "type": "node",
  "id": 5163067903,
  "lat": 36.7201073,
  "lon": -4.4184249
},
{
  "type": "node",
  "id": 5163067904,
  "lat": 36.7201209,
  "lon": -4.4183379
},
{
  "type": "node",
  "id": 5163067905,
  "lat": 36.7201269,
  "lon": -4.4183379
},
{
  "type": "node",
  "id": 5163067906,
  "lat": 36.7201225,
  "lon": -4.4183073
},
{
  "type": "node",
  "id": 5163067907,
  "lat": 36.7201509,
  "lon": -4.4183073
},
{
  "type": "node",
  "id": 5163067908,
  "lat": 36.7202032,
  "lon": -4.4183250
},
{
  "type": "node",
  "id": 5163067909,
  "lat": 36.7202119,
  "lon": -4.4182774
},
{
  "type": "node",
  "id": 5163067910,
  "lat": 36.7202015,
  "lon": -4.4181585
},
{
  "type": "node",
  "id": 5163067911,
  "lat": 36.7202544,
  "lon": -4.4181360
},
{
  "type": "node",
  "id": 5163067912,
  "lat": 36.7202560,
  "lon": -4.4181279
},
{
  "type": "node",
  "id": 5163067913,
  "lat": 36.7202963,
  "lon": -4.4181136
},
{
  "type": "node",
  "id": 5163067914,
  "lat": 36.7203165,
  "lon": -4.4182312
},
{
  "type": "node",
  "id": 5163067915,
  "lat": 36.7203465,
  "lon": -4.4182597
},
{
  "type": "node",
  "id": 5164975225,
  "lat": 36.7214493,
  "lon": -4.4227471
},
{
  "type": "node",
  "id": 5164975226,
  "lat": 36.7214560,
  "lon": -4.4227855
},
{
  "type": "node",
  "id": 5164975227,
  "lat": 36.7214876,
  "lon": -4.4227361
},
{
  "type": "node",
  "id": 5167179248,
  "lat": 36.7214511,
  "lon": -4.4186451
},
{
  "type": "node",
  "id": 5167179249,
  "lat": 36.7215782,
  "lon": -4.4185541
},
{
  "type": "node",
  "id": 5167179251,
  "lat": 36.7216410,
  "lon": -4.4179611
},
{
  "type": "node",
  "id": 5167179255,
  "lat": 36.7215896,
  "lon": -4.4179735
},
{
  "type": "node",
  "id": 5167179256,
  "lat": 36.7213074,
  "lon": -4.4180979
},
{
  "type": "node",
  "id": 5167179257,
  "lat": 36.7213239,
  "lon": -4.4181577
},
{
  "type": "node",
  "id": 5167179258,
  "lat": 36.7213360,
  "lon": -4.4181553
},
{
  "type": "node",
  "id": 5167179262,
  "lat": 36.7216109,
  "lon": -4.4179590
},
{
  "type": "node",
  "id": 5167179263,
  "lat": 36.7216167,
  "lon": -4.4179753
},
{
  "type": "node",
  "id": 5167179264,
  "lat": 36.7216743,
  "lon": -4.4179415
},
{
  "type": "node",
  "id": 5167179274,
  "lat": 36.7217275,
  "lon": -4.4182296
},
{
  "type": "node",
  "id": 5167179276,
  "lat": 36.7218103,
  "lon": -4.4183340
},
{
  "type": "node",
  "id": 5167179278,
  "lat": 36.7217619,
  "lon": -4.4182069
},
{
  "type": "node",
  "id": 5267646845,
  "lat": 36.7217178,
  "lon": -4.4184389
},
{
  "type": "node",
  "id": 5778598306,
  "lat": 36.7201721,
  "lon": -4.4174431
},
{
  "type": "node",
  "id": 5778598313,
  "lat": 36.7195828,
  "lon": -4.4171797
},
{
  "type": "node",
  "id": 4839826767,
  "lat": 36.7266652,
  "lon": -4.4237201
},
{
  "type": "node",
  "id": 4839826768,
  "lat": 36.7266523,
  "lon": -4.4237241
},
{
  "type": "node",
  "id": 4839826769,
  "lat": 36.7266571,
  "lon": -4.4237462
},
{
  "type": "node",
  "id": 4839826770,
  "lat": 36.7265902,
  "lon": -4.4237147
},
{
  "type": "node",
  "id": 4839826779,
  "lat": 36.7266069,
  "lon": -4.4236849
},
{
  "type": "node",
  "id": 4839826780,
  "lat": 36.7266071,
  "lon": -4.4237140
},
{
  "type": "node",
  "id": 4839827098,
  "lat": 36.7267434,
  "lon": -4.4237057
},
{
  "type": "node",
  "id": 4839827099,
  "lat": 36.7266716,
  "lon": -4.4237384
},
{
  "type": "node",
  "id": 4839827102,
  "lat": 36.7266519,
  "lon": -4.4237478
},
{
  "type": "node",
  "id": 4839827103,
  "lat": 36.7266487,
  "lon": -4.4237501
},
{
  "type": "node",
  "id": 4839827104,
  "lat": 36.7266131,
  "lon": -4.4237913
},
{
  "type": "node",
  "id": 767463563,
  "lat": 36.7235894,
  "lon": -4.4219062
},
{
  "type": "node",
  "id": 1869249705,
  "lat": 36.7234170,
  "lon": -4.4222051
},
{
  "type": "node",
  "id": 1869325473,
  "lat": 36.7231860,
  "lon": -4.4197779
},
{
  "type": "node",
  "id": 1869325476,
  "lat": 36.7233351,
  "lon": -4.4196634
},
{
  "type": "node",
  "id": 1869325478,
  "lat": 36.7232758,
  "lon": -4.4199174
},
{
  "type": "node",
  "id": 1869325487,
  "lat": 36.7234160,
  "lon": -4.4197956
},
{
  "type": "node",
  "id": 1945992224,
  "lat": 36.7235952,
  "lon": -4.4219099
},
{
  "type": "node",
  "id": 1945992230,
  "lat": 36.7236377,
  "lon": -4.4218165
},
{
  "type": "node",
  "id": 2371292073,
  "lat": 36.7241250,
  "lon": -4.4174123
},
{
  "type": "node",
  "id": 2539925332,
  "lat": 36.7240071,
  "lon": -4.4176549
},
{
  "type": "node",
  "id": 2539925334,
  "lat": 36.7241958,
  "lon": -4.4175117
},
{
  "type": "node",
  "id": 2766723122,
  "lat": 36.7239851,
  "lon": -4.4176186
},
{
  "type": "node",
  "id": 4823769614,
  "lat": 36.7240921,
  "lon": -4.4174547
},
{
  "type": "node",
  "id": 4823769615,
  "lat": 36.7240265,
  "lon": -4.4176671
},
{
  "type": "node",
  "id": 4823769616,
  "lat": 36.7240158,
  "lon": -4.4176638
},
{
  "type": "node",
  "id": 4823769617,
  "lat": 36.7240350,
  "lon": -4.4176671
},
{
  "type": "node",
  "id": 4823769618,
  "lat": 36.7240476,
  "lon": -4.4176597
},
{
  "type": "node",
  "id": 4823769619,
  "lat": 36.7240305,
  "lon": -4.4175496
},
{
  "type": "node",
  "id": 4823769822,
  "lat": 36.7240535,
  "lon": -4.4175138
},
{
  "type": "node",
  "id": 4825356709,
  "lat": 36.7260574,
  "lon": -4.4213141
},
{
  "type": "node",
  "id": 4825357233,
  "lat": 36.7258496,
  "lon": -4.4212918
},
{
  "type": "node",
  "id": 4825357235,
  "lat": 36.7258243,
  "lon": -4.4212792
},
{
  "type": "node",
  "id": 4825357239,
  "lat": 36.7258045,
  "lon": -4.4212451
},
{
  "type": "node",
  "id": 4825357245,
  "lat": 36.7258031,
  "lon": -4.4214382
},
{
  "type": "node",
  "id": 4825357246,
  "lat": 36.7257925,
  "lon": -4.4214242
},
{
  "type": "node",
  "id": 4825357247,
  "lat": 36.7257614,
  "lon": -4.4214474
},
{
  "type": "node",
  "id": 4825357248,
  "lat": 36.7257294,
  "lon": -4.4213586
},
{
  "type": "node",
  "id": 4825357249,
  "lat": 36.7257280,
  "lon": -4.4213135
},
{
  "type": "node",
  "id": 4825357250,
  "lat": 36.7257722,
  "lon": -4.4212975
},
{
  "type": "node",
  "id": 4825357251,
  "lat": 36.7257788,
  "lon": -4.4213160
},
{
  "type": "node",
  "id": 4825357252,
  "lat": 36.7257961,
  "lon": -4.4213073
},
{
  "type": "node",
  "id": 4825357253,
  "lat": 36.7257806,
  "lon": -4.4212622
},
{
  "type": "node",
  "id": 4825357254,
  "lat": 36.7258117,
  "lon": -4.4212399
},
{
  "type": "node",
  "id": 4825357255,
  "lat": 36.7258317,
  "lon": -4.4213024
},
{
  "type": "node",
  "id": 4825357256,
  "lat": 36.7258714,
  "lon": -4.4212789
},
{
  "type": "node",
  "id": 4825357257,
  "lat": 36.7259263,
  "lon": -4.4212481
},
{
  "type": "node",
  "id": 4825357258,
  "lat": 36.7260350,
  "lon": -4.4211957
},
{
  "type": "node",
  "id": 4825357259,
  "lat": 36.7260813,
  "lon": -4.4213012
},
{
  "type": "node",
  "id": 4825357260,
  "lat": 36.7260057,
  "lon": -4.4213418
},
{
  "type": "node",
  "id": 4825357261,
  "lat": 36.7260107,
  "lon": -4.4213532
},
{
  "type": "node",
  "id": 4825357262,
  "lat": 36.7258616,
  "lon": -4.4214518
},
{
  "type": "node",
  "id": 4825357263,
  "lat": 36.7258473,
  "lon": -4.4214095
},
{
  "type": "node",
  "id": 4826910034,
  "lat": 36.7231644,
  "lon": -4.4191572
},
{
  "type": "node",
  "id": 4826992999,
  "lat": 36.7233058,
  "lon": -4.4196840
},
{
  "type": "node",
  "id": 4826993000,
  "lat": 36.7233031,
  "lon": -4.4196783
},
{
  "type": "node",
  "id": 4826993001,
  "lat": 36.7233574,
  "lon": -4.4198382
},
{
  "type": "node",
  "id": 4826993002,
  "lat": 36.7233679,
  "lon": -4.4198543
},
{
  "type": "node",
  "id": 4826993003,
  "lat": 36.7234206,
  "lon": -4.4198040
},
{
  "type": "node",
  "id": 4826993004,
  "lat": 36.7234133,
  "lon": -4.4197983
},
{
  "type": "node",
  "id": 4826993005,
  "lat": 36.7233907,
  "lon": -4.4197550
},
{
  "type": "node",
  "id": 4826993006,
  "lat": 36.7233942,
  "lon": -4.4197322
},
{
  "type": "node",
  "id": 4826993007,
  "lat": 36.7233784,
  "lon": -4.4197038
},
{
  "type": "node",
  "id": 4826993008,
  "lat": 36.7233563,
  "lon": -4.4196970
},
{
  "type": "node",
  "id": 4826999362,
  "lat": 36.7233848,
  "lon": -4.4198381
},
{
  "type": "node",
  "id": 4826999366,
  "lat": 36.7232806,
  "lon": -4.4199127
},
{
  "type": "node",
  "id": 4826999419,
  "lat": 36.7232588,
  "lon": -4.4197159
},
{
  "type": "node",
  "id": 4826999422,
  "lat": 36.7232947,
  "lon": -4.4196855
},
{
  "type": "node",
  "id": 4839826766,
  "lat": 36.7267181,
  "lon": -4.4236319
},
{
  "type": "node",
  "id": 4841940758,
  "lat": 36.7259600,
  "lon": -4.4212318
},
{
  "type": "node",
  "id": 4873700440,
  "lat": 36.7235401,
  "lon": -4.4224846
},
{
  "type": "node",
  "id": 4873700441,
  "lat": 36.7235764,
  "lon": -4.4223907
},
{
  "type": "node",
  "id": 4873700442,
  "lat": 36.7237707,
  "lon": -4.4217651
},
{
  "type": "node",
  "id": 4873700443,
  "lat": 36.7236624,
  "lon": -4.4217245
},
{
  "type": "node",
  "id": 4873700456,
  "lat": 36.7236315,
  "lon": -4.4218088
},
{
  "type": "node",
  "id": 4873700457,
  "lat": 36.7232999,
  "lon": -4.4224089
},
{
  "type": "node",
  "id": 4873700458,
  "lat": 36.7234030,
  "lon": -4.4224993
},
{
  "type": "node",
  "id": 4873700459,
  "lat": 36.7234003,
  "lon": -4.4225024
},
{
  "type": "node",
  "id": 4873700460,
  "lat": 36.7234338,
  "lon": -4.4225320
},
{
  "type": "node",
  "id": 4873700461,
  "lat": 36.7234362,
  "lon": -4.4225290
},
{
  "type": "node",
  "id": 4873700462,
  "lat": 36.7234864,
  "lon": -4.4225727
},
{
  "type": "node",
  "id": 4873708541,
  "lat": 36.7237628,
  "lon": -4.4217621
},
{
  "type": "node",
  "id": 4873708542,
  "lat": 36.7236167,
  "lon": -4.4222646
},
{
  "type": "node",
  "id": 4873708543,
  "lat": 36.7236565,
  "lon": -4.4221231
},
{
  "type": "node",
  "id": 5267772814,
  "lat": 36.7239977,
  "lon": -4.4176394
},
{
  "type": "node",
  "id": 5277395560,
  "lat": 36.7241100,
  "lon": -4.4175956
},
{
  "type": "node",
  "id": 397924932,
  "lat": 36.7199974,
  "lon": -4.4166203
},
{
  "type": "node",
  "id": 659696176,
  "lat": 36.7216711,
  "lon": -4.4171053
},
{
  "type": "node",
  "id": 822891153,
  "lat": 36.7215866,
  "lon": -4.4168047
},
{
  "type": "node",
  "id": 822891256,
  "lat": 36.7216156,
  "lon": -4.4171133
},
{
  "type": "node",
  "id": 822891258,
  "lat": 36.7216421,
  "lon": -4.4167967
},
{
  "type": "node",
  "id": 2041031012,
  "lat": 36.7180687,
  "lon": -4.4161308
},
{
  "type": "node",
  "id": 2041031048,
  "lat": 36.7180328,
  "lon": -4.4162503
},
{
  "type": "node",
  "id": 2041031056,
  "lat": 36.7180809,
  "lon": -4.4160818
},
{
  "type": "node",
  "id": 2041031104,
  "lat": 36.7183588,
  "lon": -4.4163925
},
{
  "type": "node",
  "id": 2041031120,
  "lat": 36.7184078,
  "lon": -4.4162196
},
{
  "type": "node",
  "id": 2042947647,
  "lat": 36.7214628,
  "lon": -4.4127035
},
{
  "type": "node",
  "id": 3799171267,
  "lat": 36.7186749,
  "lon": -4.4129302
},
{
  "type": "node",
  "id": 4497946852,
  "lat": 36.7215200,
  "lon": -4.4126637
},
{
  "type": "node",
  "id": 5163113896,
  "lat": 36.7216705,
  "lon": -4.4170994
},
{
  "type": "node",
  "id": 5163114824,
  "lat": 36.7216143,
  "lon": -4.4171001
},
{
  "type": "node",
  "id": 5562591147,
  "lat": 36.7194776,
  "lon": -4.4125883
},
{
  "type": "node",
  "id": 5562591150,
  "lat": 36.7186755,
  "lon": -4.4124343
},
{
  "type": "node",
  "id": 5562591151,
  "lat": 36.7194758,
  "lon": -4.4126074
},
{
  "type": "node",
  "id": 5562591186,
  "lat": 36.7190258,
  "lon": -4.4123688
},
{
  "type": "node",
  "id": 5562591187,
  "lat": 36.7194164,
  "lon": -4.4128385
},
{
  "type": "node",
  "id": 5562591191,
  "lat": 36.7194245,
  "lon": -4.4128085
},
{
  "type": "node",
  "id": 5562591192,
  "lat": 36.7194728,
  "lon": -4.4126262
},
{
  "type": "node",
  "id": 5562591194,
  "lat": 36.7186859,
  "lon": -4.4126944
},
{
  "type": "node",
  "id": 5562591197,
  "lat": 36.7186509,
  "lon": -4.4126990
},
{
  "type": "node",
  "id": 5562591204,
  "lat": 36.7191995,
  "lon": -4.4123381
},
{
  "type": "node",
  "id": 5562591206,
  "lat": 36.7186668,
  "lon": -4.4128777
},
{
  "type": "node",
  "id": 5562591326,
  "lat": 36.7192464,
  "lon": -4.4122985
},
{
  "type": "node",
  "id": 5562591333,
  "lat": 36.7192717,
  "lon": -4.4123042
},
{
  "type": "node",
  "id": 5562591336,
  "lat": 36.7194684,
  "lon": -4.4126455
},
{
  "type": "node",
  "id": 5562591338,
  "lat": 36.7187168,
  "lon": -4.4124245
},
{
  "type": "node",
  "id": 5562591339,
  "lat": 36.7192964,
  "lon": -4.4123126
},
{
  "type": "node",
  "id": 5562591350,
  "lat": 36.7193207,
  "lon": -4.4123235
},
{
  "type": "node",
  "id": 5562591382,
  "lat": 36.7193440,
  "lon": -4.4123369
},
{
  "type": "node",
  "id": 5562591394,
  "lat": 36.7193664,
  "lon": -4.4123525
},
{
  "type": "node",
  "id": 5562591400,
  "lat": 36.7193876,
  "lon": -4.4123705
},
{
  "type": "node",
  "id": 5562591404,
  "lat": 36.7194077,
  "lon": -4.4123906
},
{
  "type": "node",
  "id": 5562591411,
  "lat": 36.7194365,
  "lon": -4.4124269
},
{
  "type": "node",
  "id": 5562591416,
  "lat": 36.7194458,
  "lon": -4.4124423
},
{
  "type": "node",
  "id": 5562591430,
  "lat": 36.7194540,
  "lon": -4.4124587
},
{
  "type": "node",
  "id": 5562591436,
  "lat": 36.7194611,
  "lon": -4.4124759
},
{
  "type": "node",
  "id": 5562591441,
  "lat": 36.7194669,
  "lon": -4.4124937
},
{
  "type": "node",
  "id": 5562591445,
  "lat": 36.7194717,
  "lon": -4.4125120
},
{
  "type": "node",
  "id": 5562591446,
  "lat": 36.7190509,
  "lon": -4.4141980
},
{
  "type": "node",
  "id": 5562591447,
  "lat": 36.7186260,
  "lon": -4.4138582
},
{
  "type": "node",
  "id": 5562591448,
  "lat": 36.7186377,
  "lon": -4.4131431
},
{
  "type": "node",
  "id": 5562591449,
  "lat": 36.7186704,
  "lon": -4.4130090
},
{
  "type": "node",
  "id": 5562591452,
  "lat": 36.7186662,
  "lon": -4.4124666
},
{
  "type": "node",
  "id": 5562591453,
  "lat": 36.7186664,
  "lon": -4.4124565
},
{
  "type": "node",
  "id": 5562591454,
  "lat": 36.7186707,
  "lon": -4.4124433
},
{
  "type": "node",
  "id": 5562591455,
  "lat": 36.7186801,
  "lon": -4.4124302
},
{
  "type": "node",
  "id": 5562591456,
  "lat": 36.7187320,
  "lon": -4.4124078
},
{
  "type": "node",
  "id": 5562591457,
  "lat": 36.7187427,
  "lon": -4.4124064
},
{
  "type": "node",
  "id": 5562591458,
  "lat": 36.7190214,
  "lon": -4.4123359
},
{
  "type": "node",
  "id": 5562591459,
  "lat": 36.7191421,
  "lon": -4.4123211
},
{
  "type": "node",
  "id": 5562591460,
  "lat": 36.7191951,
  "lon": -4.4122947
},
{
  "type": "node",
  "id": 5562591461,
  "lat": 36.7192372,
  "lon": -4.4123322
},
{
  "type": "node",
  "id": 5562591879,
  "lat": 36.7194772,
  "lon": -4.4125497
},
{
  "type": "node",
  "id": 5562591893,
  "lat": 36.7186079,
  "lon": -4.4138072
},
{
  "type": "node",
  "id": 5562591900,
  "lat": 36.7192336,
  "lon": -4.4122968
},
{
  "type": "node",
  "id": 5562591902,
  "lat": 36.7194780,
  "lon": -4.4125690
},
{
  "type": "node",
  "id": 5562591916,
  "lat": 36.7194262,
  "lon": -4.4124127
},
{
  "type": "node",
  "id": 5562591920,
  "lat": 36.7194750,
  "lon": -4.4125308
},
{
  "type": "node",
  "id": 5564253271,
  "lat": 36.7186707,
  "lon": -4.4129030
},
{
  "type": "node",
  "id": 5778598307,
  "lat": 36.7202006,
  "lon": -4.4169104
},
{
  "type": "node",
  "id": 5778598308,
  "lat": 36.7200384,
  "lon": -4.4166789
},
{
  "type": "node",
  "id": 5778598316,
  "lat": 36.7197678,
  "lon": -4.4168763
},
{
  "type": "node",
  "id": 6011031508,
  "lat": 36.7186459,
  "lon": -4.4138741
},
{
  "type": "node",
  "id": 6229205937,
  "lat": 36.7215258,
  "lon": -4.4125511
},
{
  "type": "node",
  "id": 6229205938,
  "lat": 36.7215017,
  "lon": -4.4126232
},
{
  "type": "node",
  "id": 6229205939,
  "lat": 36.7215449,
  "lon": -4.4125908
},
{
  "type": "node",
  "id": 6229205940,
  "lat": 36.7215059,
  "lon": -4.4125096
},
{
  "type": "node",
  "id": 6229205962,
  "lat": 36.7213702,
  "lon": -4.4125271
},
{
  "type": "node",
  "id": 6229205964,
  "lat": 36.7214346,
  "lon": -4.4126420
},
{
  "type": "node",
  "id": 6229205966,
  "lat": 36.7214068,
  "lon": -4.4125808
},
{
  "type": "node",
  "id": 6229205969,
  "lat": 36.7214783,
  "lon": -4.4121949
},
{
  "type": "node",
  "id": 6229205973,
  "lat": 36.7213832,
  "lon": -4.4125287
},
{
  "type": "node",
  "id": 6229205983,
  "lat": 36.7215018,
  "lon": -4.4126768
},
{
  "type": "node",
  "id": 6229208887,
  "lat": 36.7213953,
  "lon": -4.4121867
},
{
  "type": "node",
  "id": 6229232130,
  "lat": 36.7211512,
  "lon": -4.4124572
},
{
  "type": "node",
  "id": 6229232131,
  "lat": 36.7213436,
  "lon": -4.4124971
},
{
  "type": "node",
  "id": 6229232133,
  "lat": 36.7213470,
  "lon": -4.4124587
},
{
  "type": "node",
  "id": 6229232134,
  "lat": 36.7211503,
  "lon": -4.4124385
},
{
  "type": "node",
  "id": 6229232136,
  "lat": 36.7213439,
  "lon": -4.4124212
},
{
  "type": "node",
  "id": 6229232149,
  "lat": 36.7213484,
  "lon": -4.4124223
},
{
  "type": "node",
  "id": 6229232160,
  "lat": 36.7213013,
  "lon": -4.4124166
},
{
  "type": "node",
  "id": 6229232162,
  "lat": 36.7212182,
  "lon": -4.4126126
},
{
  "type": "node",
  "id": 6229232172,
  "lat": 36.7211485,
  "lon": -4.4124000
},
{
  "type": "node",
  "id": 6229232176,
  "lat": 36.7211587,
  "lon": -4.4126160
},
{
  "type": "node",
  "id": 6229232178,
  "lat": 36.7212191,
  "lon": -4.4126126
},
{
  "type": "node",
  "id": 6229232182,
  "lat": 36.7212701,
  "lon": -4.4125653
},
{
  "type": "node",
  "id": 6229479896,
  "lat": 36.7214561,
  "lon": -4.4125463
},
{
  "type": "node",
  "id": 6229479897,
  "lat": 36.7213774,
  "lon": -4.4124262
},
{
  "type": "node",
  "id": 6229479898,
  "lat": 36.7213749,
  "lon": -4.4124611
},
{
  "type": "node",
  "id": 6235968725,
  "lat": 36.7216692,
  "lon": -4.4170846
},
{
  "type": "node",
  "id": 6245227197,
  "lat": 36.7216537,
  "lon": -4.4169195
},
{
  "type": "node",
  "id": 659696260,
  "lat": 36.7232654,
  "lon": -4.4112991
},
{
  "type": "node",
  "id": 659696261,
  "lat": 36.7234166,
  "lon": -4.4111523
},
{
  "type": "node",
  "id": 659696262,
  "lat": 36.7234887,
  "lon": -4.4112679
},
{
  "type": "node",
  "id": 659696263,
  "lat": 36.7233374,
  "lon": -4.4114147
},
{
  "type": "node",
  "id": 2504891423,
  "lat": 36.7289487,
  "lon": -4.4128755
},
{
  "type": "node",
  "id": 2504891425,
  "lat": 36.7290491,
  "lon": -4.4130049
},
{
  "type": "node",
  "id": 2504891427,
  "lat": 36.7291907,
  "lon": -4.4133414
},
{
  "type": "node",
  "id": 2504892175,
  "lat": 36.7293229,
  "lon": -4.4132417
},
{
  "type": "node",
  "id": 4786708340,
  "lat": 36.7288980,
  "lon": -4.4127580
},
{
  "type": "node",
  "id": 4786708341,
  "lat": 36.7289431,
  "lon": -4.4127260
},
{
  "type": "node",
  "id": 4786708359,
  "lat": 36.7290176,
  "lon": -4.4130264
},
{
  "type": "node",
  "id": 4865976469,
  "lat": 36.7291570,
  "lon": -4.4127351
},
{
  "type": "node",
  "id": 4865976470,
  "lat": 36.7291210,
  "lon": -4.4127575
},
{
  "type": "node",
  "id": 4865976471,
  "lat": 36.7291928,
  "lon": -4.4128189
},
{
  "type": "node",
  "id": 4865976472,
  "lat": 36.7291799,
  "lon": -4.4128326
},
{
  "type": "node",
  "id": 4865976473,
  "lat": 36.7291828,
  "lon": -4.4128457
},
{
  "type": "node",
  "id": 4865976474,
  "lat": 36.7291530,
  "lon": -4.4128648
},
{
  "type": "node",
  "id": 4865976475,
  "lat": 36.7293072,
  "lon": -4.4132154
},
{
  "type": "node",
  "id": 4865976476,
  "lat": 36.7289719,
  "lon": -4.4127036
},
{
  "type": "node",
  "id": 4865976477,
  "lat": 36.7289953,
  "lon": -4.4126231
},
{
  "type": "node",
  "id": 4865976483,
  "lat": 36.7289821,
  "lon": -4.4126576
},
{
  "type": "node",
  "id": 4865976484,
  "lat": 36.7290038,
  "lon": -4.4126422
},
{
  "type": "node",
  "id": 4865976485,
  "lat": 36.7290823,
  "lon": -4.4126603
},
{
  "type": "node",
  "id": 4865976486,
  "lat": 36.7290514,
  "lon": -4.4125855
},
{
  "type": "node",
  "id": 4865976487,
  "lat": 36.7290772,
  "lon": -4.4126637
},
{
  "type": "node",
  "id": 4865976498,
  "lat": 36.7291616,
  "lon": -4.4132760
},
{
  "type": "node",
  "id": 4865976499,
  "lat": 36.7291658,
  "lon": -4.4132725
},
{
  "type": "node",
  "id": 4865976500,
  "lat": 36.7291635,
  "lon": -4.4132660
},
{
  "type": "node",
  "id": 4865976501,
  "lat": 36.7291672,
  "lon": -4.4132625
},
{
  "type": "node",
  "id": 4865976502,
  "lat": 36.7291545,
  "lon": -4.4132273
},
{
  "type": "node",
  "id": 4865976503,
  "lat": 36.7291484,
  "lon": -4.4132326
},
{
  "type": "node",
  "id": 1869393842,
  "lat": 36.7332890,
  "lon": -4.4281965
},
{
  "type": "node",
  "id": 1869393846,
  "lat": 36.7334881,
  "lon": -4.4281798
},
{
  "type": "node",
  "id": 2264139988,
  "lat": 36.7334609,
  "lon": -4.4276755
},
{
  "type": "node",
  "id": 4621912835,
  "lat": 36.7334420,
  "lon": -4.4276836
},
{
  "type": "node",
  "id": 4621912836,
  "lat": 36.7334133,
  "lon": -4.4276965
},
{
  "type": "node",
  "id": 4621912837,
  "lat": 36.7333645,
  "lon": -4.4277262
},
{
  "type": "node",
  "id": 4621912838,
  "lat": 36.7333254,
  "lon": -4.4277582
},
{
  "type": "node",
  "id": 4621912839,
  "lat": 36.7332894,
  "lon": -4.4277993
},
{
  "type": "node",
  "id": 4621912840,
  "lat": 36.7332595,
  "lon": -4.4278503
},
{
  "type": "node",
  "id": 4621912841,
  "lat": 36.7332351,
  "lon": -4.4279006
},
{
  "type": "node",
  "id": 4621912842,
  "lat": 36.7332211,
  "lon": -4.4279470
},
{
  "type": "node",
  "id": 4621912843,
  "lat": 36.7332101,
  "lon": -4.4279866
},
{
  "type": "node",
  "id": 4621912844,
  "lat": 36.7332083,
  "lon": -4.4280208
},
{
  "type": "node",
  "id": 4621912845,
  "lat": 36.7332064,
  "lon": -4.4280711
},
{
  "type": "node",
  "id": 4621912846,
  "lat": 36.7332070,
  "lon": -4.4282034
},
{
  "type": "node",
  "id": 2279816968,
  "lat": 36.8262533,
  "lon": -4.3638886
},
{
  "type": "node",
  "id": 3113161195,
  "lat": 36.8260575,
  "lon": -4.3641057
},
{
  "type": "node",
  "id": 3113161199,
  "lat": 36.8263668,
  "lon": -4.3640485
},
{
  "type": "node",
  "id": 3113161204,
  "lat": 36.8262139,
  "lon": -4.3639323
},
{
  "type": "node",
  "id": 5807394141,
  "lat": 36.8261073,
  "lon": -4.3641758
},
{
  "type": "node",
  "id": 5807394461,
  "lat": 36.8262758,
  "lon": -4.3641494
},
{
  "type": "node",
  "id": 5807394545,
  "lat": 36.8262244,
  "lon": -4.3642064
},
{
  "type": "node",
  "id": 5807394695,
  "lat": 36.8261710,
  "lon": -4.3642655
},
{
  "type": "node",
  "id": 5807394697,
  "lat": 36.8262994,
  "lon": -4.3641233
},
{
  "type": "node",
  "id": 5807394711,
  "lat": 36.8263309,
  "lon": -4.3640883
},
{
  "type": "node",
  "id": 5807394720,
  "lat": 36.8263039,
  "lon": -4.3639599
},
{
  "type": "node",
  "id": 5454168309,
  "lat": 36.9051007,
  "lon": -4.3349771
},
{
  "type": "node",
  "id": 5454169135,
  "lat": 36.9050615,
  "lon": -4.3349651
},
{
  "type": "node",
  "id": 5454169136,
  "lat": 36.9050152,
  "lon": -4.3349899
},
{
  "type": "node",
  "id": 5454169137,
  "lat": 36.9050486,
  "lon": -4.3350009
},
{
  "type": "node",
  "id": 5454169175,
  "lat": 36.9050093,
  "lon": -4.3350178
},
{
  "type": "node",
  "id": 5454169193,
  "lat": 36.9049686,
  "lon": -4.3350229
},
{
  "type": "node",
  "id": 5454169196,
  "lat": 36.9051176,
  "lon": -4.3348970
},
{
  "type": "node",
  "id": 5454169198,
  "lat": 36.9049331,
  "lon": -4.3350113
},
{
  "type": "node",
  "id": 5454169200,
  "lat": 36.9049484,
  "lon": -4.3349362
},
{
  "type": "node",
  "id": 5454169201,
  "lat": 36.9049722,
  "lon": -4.3350056
},
{
  "type": "node",
  "id": 5454169203,
  "lat": 36.9050770,
  "lon": -4.3348839
},
{
  "type": "node",
  "id": 5454169206,
  "lat": 36.9049718,
  "lon": -4.3348493
},
{
  "type": "node",
  "id": 5454169208,
  "lat": 36.9049662,
  "lon": -4.3348483
},
{
  "type": "node",
  "id": 2454053303,
  "lat": 36.9523713,
  "lon": -4.5451803
},
{
  "type": "node",
  "id": 2454053302,
  "lat": 36.9525119,
  "lon": -4.5452937
},
{
  "type": "node",
  "id": 2454053304,
  "lat": 36.9526335,
  "lon": -4.5447504
},
{
  "type": "node",
  "id": 2454053306,
  "lat": 36.9528779,
  "lon": -4.5449898
},
{
  "type": "node",
  "id": 2454053307,
  "lat": 36.9528427,
  "lon": -4.5450491
},
{
  "type": "node",
  "id": 2454053308,
  "lat": 36.9527500,
  "lon": -4.5449599
},
{
  "type": "node",
  "id": 3046460279,
  "lat": 36.9525638,
  "lon": -4.5452569
},
{
  "type": "node",
  "id": 3046460280,
  "lat": 36.9525441,
  "lon": -4.5452405
},
{
  "type": "node",
  "id": 583287950,
  "lat": 37.0222719,
  "lon": -4.5657109
},
{
  "type": "node",
  "id": 583287951,
  "lat": 37.0222159,
  "lon": -4.5654931
},
{
  "type": "node",
  "id": 583287955,
  "lat": 37.0223212,
  "lon": -4.5651618
},
{
  "type": "node",
  "id": 583287963,
  "lat": 37.0226279,
  "lon": -4.5650562
},
{
  "type": "node",
  "id": 583287965,
  "lat": 37.0227300,
  "lon": -4.5651064
},
{
  "type": "node",
  "id": 583287966,
  "lat": 37.0228661,
  "lon": -4.5652451
},
{
  "type": "node",
  "id": 583287967,
  "lat": 37.0228856,
  "lon": -4.5653821
},
{
  "type": "node",
  "id": 1925284666,
  "lat": 37.0222173,
  "lon": -4.5654001
},
{
  "type": "node",
  "id": 1925284667,
  "lat": 37.0223918,
  "lon": -4.5658547
},
{
  "type": "node",
  "id": 1925284668,
  "lat": 37.0222539,
  "lon": -4.5652704
},
{
  "type": "node",
  "id": 1925284669,
  "lat": 37.0224903,
  "lon": -4.5658987
},
{
  "type": "node",
  "id": 1925284671,
  "lat": 37.0225947,
  "lon": -4.5659036
},
{
  "type": "node",
  "id": 1925284673,
  "lat": 37.0226955,
  "lon": -4.5658689
},
{
  "type": "node",
  "id": 1925284674,
  "lat": 37.0227833,
  "lon": -4.5657978
},
{
  "type": "node",
  "id": 1925284677,
  "lat": 37.0228499,
  "lon": -4.5656969
},
{
  "type": "node",
  "id": 1925284679,
  "lat": 37.0228892,
  "lon": -4.5655756
},
{
  "type": "node",
  "id": 1925284688,
  "lat": 37.0228236,
  "lon": -4.5651789
},
{
  "type": "node",
  "id": 2454070095,
  "lat": 37.0228765,
  "lon": -4.5656147
},
{
  "type": "node",
  "id": 2481179953,
  "lat": 37.0222481,
  "lon": -4.5656687
},
{
  "type": "node",
  "id": 2481179954,
  "lat": 37.0222153,
  "lon": -4.5655375
},
{
  "type": "node",
  "id": 2485984687,
  "lat": 37.0226915,
  "lon": -4.5655794
},
{
  "type": "node",
  "id": 2485984688,
  "lat": 37.0227121,
  "lon": -4.5655093
},
{
  "type": "node",
  "id": 2485984689,
  "lat": 37.0227123,
  "lon": -4.5654347
},
{
  "type": "node",
  "id": 2485984690,
  "lat": 37.0224854,
  "lon": -4.5652682
},
{
  "type": "node",
  "id": 2485984691,
  "lat": 37.0224335,
  "lon": -4.5653049
},
{
  "type": "node",
  "id": 2485984692,
  "lat": 37.0223948,
  "lon": -4.5653615
},
{
  "type": "node",
  "id": 2485984693,
  "lat": 37.0226922,
  "lon": -4.5653645
},
{
  "type": "node",
  "id": 2485984694,
  "lat": 37.0226541,
  "lon": -4.5653071
},
{
  "type": "node",
  "id": 2485984695,
  "lat": 37.0226027,
  "lon": -4.5652693
},
{
  "type": "node",
  "id": 2485984696,
  "lat": 37.0225442,
  "lon": -4.5652558
},
{
  "type": "node",
  "id": 2485984697,
  "lat": 37.0223738,
  "lon": -4.5654313
},
{
  "type": "node",
  "id": 2485984698,
  "lat": 37.0223721,
  "lon": -4.5654981
},
{
  "type": "node",
  "id": 2485984699,
  "lat": 37.0223869,
  "lon": -4.5655623
},
{
  "type": "node",
  "id": 2485984700,
  "lat": 37.0224167,
  "lon": -4.5656177
},
{
  "type": "node",
  "id": 2485984701,
  "lat": 37.0224586,
  "lon": -4.5656591
},
{
  "type": "node",
  "id": 2485984702,
  "lat": 37.0225085,
  "lon": -4.5656824
},
{
  "type": "node",
  "id": 2485984703,
  "lat": 37.0225618,
  "lon": -4.5656853
},
{
  "type": "node",
  "id": 2485984704,
  "lat": 37.0226133,
  "lon": -4.5656677
},
{
  "type": "node",
  "id": 2485984705,
  "lat": 37.0226579,
  "lon": -4.5656313
},
{
  "type": "node",
  "id": 2705545299,
  "lat": 37.0224124,
  "lon": -4.5650854
},
{
  "type": "node",
  "id": 2705545301,
  "lat": 37.0223085,
  "lon": -4.5657756
},
{
  "type": "node",
  "id": 2705545303,
  "lat": 37.0228660,
  "lon": -4.5652454
},
{
  "type": "node",
  "id": 2705545304,
  "lat": 37.0227974,
  "lon": -4.5651767
},
{
  "type": "node",
  "id": 2705545305,
  "lat": 37.0228976,
  "lon": -4.5654451
},
{
  "type": "node",
  "id": 2705545306,
  "lat": 37.0225183,
  "lon": -4.5650490
},
{
  "type": "node",
  "id": 4010020835,
  "lat": 37.0228983,
  "lon": -4.5653418
},
{
  "type": "node",
  "id": 2446968423,
  "lat": 37.0164685,
  "lon": -4.5582481
},
{
  "type": "node",
  "id": 2446968425,
  "lat": 37.0160912,
  "lon": -4.5579852
},
{
  "type": "node",
  "id": 2446968428,
  "lat": 37.0159872,
  "lon": -4.5582216
},
{
  "type": "node",
  "id": 2446968435,
  "lat": 37.0162661,
  "lon": -4.5582466
},
{
  "type": "node",
  "id": 2446968438,
  "lat": 37.0164222,
  "lon": -4.5583600
},
{
  "type": "node",
  "id": 5290322922,
  "lat": 37.0164301,
  "lon": -4.5571163
},
{
  "type": "node",
  "id": 5290322923,
  "lat": 37.0162874,
  "lon": -4.5571136
},
{
  "type": "node",
  "id": 5290391046,
  "lat": 37.0164838,
  "lon": -4.5569979
},
{
  "type": "node",
  "id": 5290391047,
  "lat": 37.0160210,
  "lon": -4.5571618
},
{
  "type": "node",
  "id": 5290391071,
  "lat": 37.0160447,
  "lon": -4.5569648
},
{
  "type": "node",
  "id": 5290391072,
  "lat": 37.0161589,
  "lon": -4.5571116
},
{
  "type": "node",
  "id": 5290391073,
  "lat": 37.0161354,
  "lon": -4.5571742
},
{
  "type": "node",
  "id": 5290670630,
  "lat": 37.0164442,
  "lon": -4.5583078
},
{
  "type": "node",
  "id": 5290670648,
  "lat": 37.0162073,
  "lon": -4.5583843
},
{
  "type": "node",
  "id": 4060359932,
  "lat": 37.0187674,
  "lon": -4.5588091
},
{
  "type": "node",
  "id": 4060359933,
  "lat": 37.0186635,
  "lon": -4.5585571
},
{
  "type": "node",
  "id": 4060359934,
  "lat": 37.0185350,
  "lon": -4.5586009
},
{
  "type": "node",
  "id": 5291316603,
  "lat": 37.0185888,
  "lon": -4.5588622
},
{
  "type": "node",
  "id": 5291316604,
  "lat": 37.0187576,
  "lon": -4.5587441
},
{
  "type": "node",
  "id": 5291316605,
  "lat": 37.0187000,
  "lon": -4.5587624
},
{
  "type": "node",
  "id": 4437559753,
  "lat": 37.0243234,
  "lon": -4.5465503
},
{
  "type": "node",
  "id": 4437559754,
  "lat": 37.0244091,
  "lon": -4.5466134
},
{
  "type": "node",
  "id": 4437559755,
  "lat": 37.0244251,
  "lon": -4.5459991
},
{
  "type": "node",
  "id": 4437559756,
  "lat": 37.0244787,
  "lon": -4.5459294
},
{
  "type": "node",
  "id": 4437559757,
  "lat": 37.0244862,
  "lon": -4.5460742
},
{
  "type": "node",
  "id": 4437559758,
  "lat": 37.0244915,
  "lon": -4.5464363
},
{
  "type": "node",
  "id": 4437559759,
  "lat": 37.0245033,
  "lon": -4.5464605
},
{
  "type": "node",
  "id": 4437559760,
  "lat": 37.0245054,
  "lon": -4.5461185
},
{
  "type": "node",
  "id": 4437559761,
  "lat": 37.0245151,
  "lon": -4.5465289
},
{
  "type": "node",
  "id": 4437559762,
  "lat": 37.0245172,
  "lon": -4.5460260
},
{
  "type": "node",
  "id": 4437559763,
  "lat": 37.0245194,
  "lon": -4.5464806
},
{
  "type": "node",
  "id": 4437559764,
  "lat": 37.0245290,
  "lon": -4.5465490
},
{
  "type": "node",
  "id": 4437559765,
  "lat": 37.0245376,
  "lon": -4.5464994
},
{
  "type": "node",
  "id": 4437559766,
  "lat": 37.0245408,
  "lon": -4.5459991
},
{
  "type": "node",
  "id": 4437559767,
  "lat": 37.0245579,
  "lon": -4.5460769
},
{
  "type": "node",
  "id": 4437559768,
  "lat": 37.0245622,
  "lon": -4.5465718
},
{
  "type": "node",
  "id": 4437559769,
  "lat": 37.0246018,
  "lon": -4.5465879
},
{
  "type": "node",
  "id": 4437559770,
  "lat": 37.0246307,
  "lon": -4.5462218
},
{
  "type": "node",
  "id": 4437559771,
  "lat": 37.0246393,
  "lon": -4.5465946
},
{
  "type": "node",
  "id": 4437559772,
  "lat": 37.0246543,
  "lon": -4.5458570
},
{
  "type": "node",
  "id": 4437559773,
  "lat": 37.0246586,
  "lon": -4.5461493
},
{
  "type": "node",
  "id": 4437559774,
  "lat": 37.0246768,
  "lon": -4.5465933
},
{
  "type": "node",
  "id": 4437559775,
  "lat": 37.0246821,
  "lon": -4.5461520
},
{
  "type": "node",
  "id": 4437559776,
  "lat": 37.0246885,
  "lon": -4.5462915
},
{
  "type": "node",
  "id": 4437559777,
  "lat": 37.0247014,
  "lon": -4.5465866
},
{
  "type": "node",
  "id": 4437559778,
  "lat": 37.0247335,
  "lon": -4.5465745
},
{
  "type": "node",
  "id": 4437559779,
  "lat": 37.0247528,
  "lon": -4.5459240
},
{
  "type": "node",
  "id": 4437559780,
  "lat": 37.0247613,
  "lon": -4.5465544
},
{
  "type": "node",
  "id": 4437559781,
  "lat": 37.0247624,
  "lon": -4.5464994
},
{
  "type": "node",
  "id": 4437559782,
  "lat": 37.0247828,
  "lon": -4.5464591
},
{
  "type": "node",
  "id": 4437559783,
  "lat": 37.0247870,
  "lon": -4.5465302
},
{
  "type": "node",
  "id": 4437559784,
  "lat": 37.0248084,
  "lon": -4.5461333
},
{
  "type": "node",
  "id": 4437559785,
  "lat": 37.0248277,
  "lon": -4.5465034
},
{
  "type": "node",
  "id": 4437559786,
  "lat": 37.0248363,
  "lon": -4.5461842
},
{
  "type": "node",
  "id": 4437559787,
  "lat": 37.0248481,
  "lon": -4.5464162
},
{
  "type": "node",
  "id": 4437559788,
  "lat": 37.0248513,
  "lon": -4.5464632
},
{
  "type": "node",
  "id": 4437559989,
  "lat": 37.0248577,
  "lon": -4.5462593
},
{
  "type": "node",
  "id": 4437559990,
  "lat": 37.0248577,
  "lon": -4.5463773
},
{
  "type": "node",
  "id": 4437559991,
  "lat": 37.0248620,
  "lon": -4.5463250
},
{
  "type": "node",
  "id": 4437559992,
  "lat": 37.0248641,
  "lon": -4.5464283
},
{
  "type": "node",
  "id": 2446998687,
  "lat": 37.0348776,
  "lon": -4.5621817
},
{
  "type": "node",
  "id": 2446998688,
  "lat": 37.0349230,
  "lon": -4.5615420
},
{
  "type": "node",
  "id": 2446998689,
  "lat": 37.0343298,
  "lon": -4.5614760
},
{
  "type": "node",
  "id": 2446998690,
  "lat": 37.0342844,
  "lon": -4.5621157
},
{
  "type": "way",
  "id": 431447192,
  "nodes": [
    4306430703,
    5568999324,
    4306430702,
    4306430695,
    4306430699,
    4306430703
  ]
},
{
  "type": "way",
  "id": 705237953,
  "nodes": [
    1714531110,
    6624635040,
    6624635036,
    6624635039,
    6624635038,
    6624635046,
    6624635037,
    6624635045,
    6624635044,
    6624635043,
    6624635042,
    6624635041,
    6624635035,
    1714531110
  ]
},
{
  "type": "way",
  "id": 182183657,
  "nodes": [
    2705545303,
    4010020835,
    583287967,
    2705545305,
    1925284679,
    2454070095,
    1925284677,
    1925284674,
    1925284673,
    1925284671,
    1925284669,
    1925284667,
    2705545301,
    583287950,
    2481179953,
    2481179954,
    583287951,
    1925284666,
    1925284668,
    583287955,
    2705545299,
    2705545306,
    583287963,
    583287965,
    2705545304,
    1925284688,
    583287966,
    2705545303
  ]
},
{
  "type": "way",
  "id": 240902939,
  "nodes": [
    2485984697,
    2485984698,
    2485984699,
    2485984700,
    2485984701,
    2485984702,
    2485984703,
    2485984704,
    2485984705,
    2485984687,
    2485984688,
    2485984689,
    2485984693,
    2485984694,
    2485984695,
    2485984696,
    2485984690,
    2485984691,
    2485984692,
    2485984697
  ]
}

  ]
}
