{
  "version": 0.6,
  "generator": "Overpass API 0.7.55.9 ab41fea6",
  "osm3s": {
    "timestamp_osm_base": "2020-02-14T15:09:02Z",
    "copyright": "The data included in this document is from www.openstreetmap.org. The data is made available under ODbL."
  },
  "elements": [

{
  "type": "node",
  "id": 357606436,
  "lat": 45.8274397,
  "lon": 9.3374053,
  "tags": {
    "description": "Esposizione permanente di presepi e diorami ricavata nei locali sottostanti la chiesa della Madonna di Fatima.",
    "name": "Museo del Presepio",
    "start_date": "2007",
    "tourism": "museum"
  }
},
{
  "type": "node",
  "id": 369339442,
  "lat": 45.7038807,
  "lon": 9.6663894,
  "tags": {
    "name": "Museo del Risorgimento",
    "tourism": "museum"
  }
},
{
  "type": "node",
  "id": 410112985,
  "lat": 45.7057535,
  "lon": 9.6597241,
  "tags": {
    "addr:city": "Bergamo",
    "addr:housenumber": "10",
    "addr:postcode": "24129",
    "addr:street": "Piazza della Cittadella",
    "email": "infomuseoscienze@comune.bg.it",
    "name": "Museo Civico di Scienze Naturali \"E. Caffi\"",
    "opening_hours": "Apr-Sep: Tu-Fr 09:00-13:00-14:30-18:00; Sa,Su,PH 10:00-18:00; Mo off",
    "phone": "+39 035 286011",
    "tourism": "museum",
    "website": "http://www.museoscienzebergamo.it/web/",
    "wikidata": "Q3868230",
    "wikipedia": "it:Museo di scienze naturali (Bergamo)"
  }
},
{
  "type": "node",
  "id": 410113578,
  "lat": 45.7061436,
  "lon": 9.6597991,
  "tags": {
    "addr:city": "Bergamo",
    "addr:housenumber": "9",
    "addr:postcode": "24129",
    "addr:street": "Piazza della Cittadella",
    "email": "archeomuseo@comune.bg.it",
    "name": "Museo Civico Archeologico",
    "opening_hours": "Apr-Sep: Tu-Fr 09:00-13:00, 14:30-18:00; Sa,Su, PH 10:00-13:00, 14:00-18:00; Oct-Mar: Tu-Fr 09:00-12:30, 14:30-17:30; Sa,Su,PH 10:00-12:30; 14:30-17:30; Mo, Jan 1, Dec 25 off",
    "phone": "+39 035 286070",
    "tourism": "museum",
    "website": "www.museoarcheologicobergamo.it",
    "wikidata": "Q3678769",
    "wikipedia": "it:Museo Archeologico di Bergamo"
  }
},
{
  "type": "node",
  "id": 566710875,
  "lat": 45.5969134,
  "lon": 9.8829592,
  "tags": {
    "name": "Museo San Fedele",
    "tourism": "museum"
  }
},
{
  "type": "node",
  "id": 652598848,
  "lat": 45.6037813,
  "lon": 9.6658934,
  "tags": {
    "name": "Museo Storico Militare",
    "tourism": "museum"
  }
},
{
  "type": "node",
  "id": 670216853,
  "lat": 45.8162906,
  "lon": 10.0739961,
  "tags": {
    "tourism": "museum"
  }
},
{
  "type": "node",
  "id": 1077613448,
  "lat": 45.7528310,
  "lon": 9.8246461,
  "tags": {
    "name": "Museo Beata Pierina Morosini",
    "tourism": "museum"
  }
},
{
  "type": "node",
  "id": 1273420801,
  "lat": 45.5350438,
  "lon": 9.9281756,
  "tags": {
    "addr:city": "Chiari",
    "addr:postcode": "25032",
    "addr:street": "Via Bernardino Varisco",
    "name": "Fondazione Morcelli Pinacoteca Repossi",
    "tourism": "museum",
    "wheelchair": "limited"
  }
},
{
  "type": "node",
  "id": 1740776770,
  "lat": 45.8255433,
  "lon": 9.3684602,
  "tags": {
    "addr:city": "Galbiate",
    "addr:country": "IT",
    "addr:postcode": "23851",
    "addr:street": "frazione Camporeso",
    "email": "meab@parcobarro.it",
    "name": "Museo etnografico dell'Alta Brianza",
    "opening_hours": "Tu-We 09:00-12:30, Fr 09:00-12:30, Sa-Su 09:00-12:30,14:00-18:00; Dec 25 off, Jan 01 off, easter off",
    "operator": "Consorzio Parco Monte Barro",
    "phone": "+39 0341 240193",
    "tourism": "museum",
    "website": "http://meab.parcobarro.it/"
  }
},
{
  "type": "node",
  "id": 1868380621,
  "lat": 45.8472512,
  "lon": 9.3949067,
  "tags": {
    "name": "Isola Viscontea",
    "tourism": "museum"
  }
},
{
  "type": "node",
  "id": 1975852590,
  "lat": 45.8256858,
  "lon": 9.3785136,
  "tags": {
    "description": "Sezione staccata: l'uccellagione e la caccia",
    "email": "meab@parcobarro.it",
    "name": "Museo etnografico dell'Alta Brianza",
    "opening_hours": "\"Visita su appuntamento\"",
    "phone": "+39 0341 240193",
    "tourism": "museum",
    "website": "http://meab.parcobarro.it/"
  }
},
{
  "type": "node",
  "id": 1987800197,
  "lat": 45.8533540,
  "lon": 9.2971520,
  "tags": {
    "fee": "no",
    "name": "Centro visitatori Riserva Naturale Sasso Malascarpa",
    "opening_hours": "Mo-Su 09:00-19:00",
    "tourism": "museum"
  }
},
{
  "type": "node",
  "id": 1987800198,
  "lat": 45.8534406,
  "lon": 9.2972376,
  "tags": {
    "description": "nella Cà di Alp è stata ricostruita l'originale casa rurale.",
    "level": "0",
    "name": "Cà di Alp",
    "tourism": "museum"
  }
},
{
  "type": "node",
  "id": 2362304289,
  "lat": 45.5827476,
  "lon": 9.2746049,
  "tags": {
    "addr:city": "Monza",
    "addr:country": "IT",
    "addr:housenumber": "4",
    "addr:postcode": "20900",
    "addr:street": "Via Regina Teodolinda",
    "email": "info@museicivicimonza.it",
    "fee": "yes",
    "name": "Musei Civici di Monza",
    "opening_hours": "Jun-Sep: Mo-Tu off; We 15:00-18:00; Th 15:00-18:00; 20:00-23:00; Fr-Sa-Su 10:00-13:00; 15:00-18:00; Oct-May: Mo-Tu off; We 10:00-13:00; 15:00-18:00; Th 15:00-18:00; Fr-Sa-Su 10:00-13:00; 15:00-18:00",
    "phone": "+39 039 2307126",
    "tourism": "museum",
    "website": "http://www.museicivicimonza.it/"
  }
},
{
  "type": "node",
  "id": 2372503515,
  "lat": 45.5834790,
  "lon": 9.2797274,
  "tags": {
    "addr:city": "Monza",
    "addr:country": "IT",
    "addr:housenumber": "2",
    "addr:postcode": "20900",
    "addr:street": "Piazza Santa Margherita",
    "name": "Museo Talamoni",
    "opening_hours": "Tu-Fr 10:00-11:30,16:00-18:30",
    "phone": "+39 039 322833",
    "tourism": "museum"
  }
},
{
  "type": "node",
  "id": 2378439930,
  "lat": 45.8630443,
  "lon": 9.8443982,
  "tags": {
    "addr:city": "Gorno",
    "addr:housenumber": "4",
    "addr:postcode": "24020",
    "addr:street": "Piazza Alpini",
    "email": "ecomuseogorno@gmail.com",
    "name": "Museo delle miniere di Gorno",
    "operator": "Ecomuseo delle Miniere di Gorno",
    "tourism": "museum",
    "website": "http://www.ecomuseominieredigorno.it/"
  }
},
{
  "type": "node",
  "id": 2526577466,
  "lat": 45.8309778,
  "lon": 9.3715157,
  "tags": {
    "name": "Museo Archeologico",
    "tourism": "museum"
  }
},
{
  "type": "node",
  "id": 2941505154,
  "lat": 45.4623544,
  "lon": 9.3721795,
  "tags": {
    "name": "Museo Etnografico",
    "tourism": "museum"
  }
},
{
  "type": "node",
  "id": 2948098082,
  "lat": 45.5857633,
  "lon": 9.2783972,
  "tags": {
    "addr:city": "Monza",
    "addr:country": "IT",
    "addr:housenumber": "11",
    "addr:postcode": "20900",
    "addr:street": "Vicolo Scuole",
    "name": "Museo Mulino Colombo",
    "source": "survey",
    "tourism": "museum",
    "website": "http://www.memb.it/",
    "wikidata": "Q3867008",
    "wikipedia": "it:Mulino Colombo"
  }
},
{
  "type": "node",
  "id": 3090347859,
  "lat": 45.5367102,
  "lon": 9.9286502,
  "tags": {
    "addr:city": "Chiari",
    "addr:postcode": "25032",
    "addr:street": "Piazza Zanardelli",
    "name": "Museo della Città",
    "toilets:wheelchair": "yes",
    "tourism": "museum",
    "wheelchair": "no"
  }
},
{
  "type": "node",
  "id": 3223231796,
  "lat": 45.8517871,
  "lon": 9.3984030,
  "tags": {
    "name": "Civico museo manzoniano",
    "tourism": "museum",
    "wikidata": "Q3678773",
    "wikipedia": "it:Civico museo manzoniano"
  }
},
{
  "type": "node",
  "id": 3539395948,
  "lat": 45.5166648,
  "lon": 9.3689710,
  "tags": {
    "description": "MAIO è acronimo di Museo dell'Arte in Ostaggio dedicato alle opere d’arte trafugate dall’Italia durante la Seconda Guerra Mondiale e a quelle che, invece, sono state fortunatamente ritrovate",
    "name": "Museo MAIO",
    "start_date": "16/06/2015",
    "tourism": "museum",
    "wheelchair": "yes"
  }
},
{
  "type": "node",
  "id": 3758964728,
  "lat": 45.6120284,
  "lon": 9.3710021,
  "tags": {
    "addr:city": "Vimercate",
    "addr:country": "IT",
    "addr:housenumber": "53",
    "addr:postcode": "20871",
    "addr:street": "Via Vittorio Emanuele II",
    "alt_name": "Museo del Territorio Vimercatese",
    "name": "MUST",
    "opening_hours": "We,Th 10:00-13:00; Fr-Su 10:00-13:00,15:00-19:00",
    "phone": "+39 039 6659488",
    "start_date": "2010",
    "tourism": "museum",
    "website": "http://www.museomust.it/",
    "wikidata": "Q3867978",
    "wikipedia": "it:Museo del territorio vimercatese"
  }
},
{
  "type": "node",
  "id": 4198269522,
  "lat": 45.8900865,
  "lon": 9.9474281,
  "tags": {
    "emergency": "fire_hydrant",
    "fire_hydrant:couplings": "1 UNI 70; 2 UNI 45",
    "fire_hydrant:type": "pillar",
    "name": "MAT - Museo Arte e Tempo",
    "ref": "0106",
    "tourism": "museum",
    "website": "http://www.museoartetempo.it",
    "wikipedia": "it:Museo Arte Tempo"
  }
},
{
  "type": "node",
  "id": 4243024255,
  "lat": 45.6959280,
  "lon": 9.6701325,
  "tags": {
    "addr:city": "Bergamo",
    "addr:country": "IT",
    "addr:postcode": "24121",
    "addr:province": "Bergamo",
    "addr:street": "Piazza Dante Alighieri",
    "level": "0",
    "loc_ref": "22909",
    "source": "survey",
    "tourism": "museum"
  }
},
{
  "type": "node",
  "id": 4243024257,
  "lat": 45.6969348,
  "lon": 9.6686694,
  "tags": {
    "addr:city": "Bergamo",
    "addr:country": "IT",
    "addr:postcode": "24121",
    "addr:province": "Bergamo",
    "level": "0",
    "note": "back door",
    "source": "survey",
    "tourism": "museum"
  }
},
{
  "type": "node",
  "id": 4458832673,
  "lat": 45.5214187,
  "lon": 9.5928057,
  "tags": {
    "addr:city": "Treviglio",
    "addr:postcode": "24047",
    "addr:street": "Piazza Luciano Manara",
    "email": "trevigliomusei@comune.treviglio.bg.it",
    "name": "Museo Storico Verticale",
    "opening_hours": "Su 16:00-18:00; Jun-Jul: We 21:00-22:00; Aug, Nov 12-Feb 27 off",
    "phone": "+39 0363 317506",
    "tourism": "museum",
    "website": "http://www.comune.treviglio.bg.it/index.php?q=content/presentazione-museo-storico-verticale-0"
  }
},
{
  "type": "node",
  "id": 4460989033,
  "lat": 45.5225154,
  "lon": 9.5948770,
  "tags": {
    "addr:street": "Via Gian Maria Bicetti",
    "name": "Museo Civico \"Ernesto e Teresa Della Torre\"",
    "tourism": "museum",
    "website": "http://www.comune.treviglio.bg.it/?q=content/citta_il-museo-e-il-centro-civico",
    "wikidata": "Q3867820",
    "wikipedia": "it:Museo civico di Treviglio"
  }
},
{
  "type": "node",
  "id": 4464650192,
  "lat": 45.7006263,
  "lon": 9.6739474,
  "tags": {
    "addr:city": "Bergamo",
    "addr:housenumber": "76",
    "addr:postcode": "24121",
    "addr:street": "Via Pignolo",
    "email": "info@fondazionebernareggi.it",
    "name": "Museo Adriano Bernareggi",
    "opening_hours": "Tu-Fr 15:00-18:00; Sa-Su \"by appointment\"; Mo off",
    "phone": "+39 035 244492",
    "tourism": "museum",
    "website": "http://www.fondazionebernareggi.it/it/museo/il-palazzo"
  }
},
{
  "type": "node",
  "id": 4558296999,
  "lat": 45.6036651,
  "lon": 9.3002832,
  "tags": {
    "addr:city": "Villasanta",
    "addr:country": "IT",
    "addr:housenumber": "5",
    "addr:postcode": "20854",
    "addr:street": "Piazza Martiri di Belfiore",
    "name": "Museo d'Arte Sacra",
    "tourism": "museum"
  }
},
{
  "type": "node",
  "id": 4568622840,
  "lat": 45.9471441,
  "lon": 9.4682111,
  "tags": {
    "alt_name": "Museo Medardo Rosso",
    "email": "museo@medardorosso.org",
    "name": "Casa Gipsoteca di Medardo Rosso",
    "tourism": "museum",
    "website": "http://www.medardorosso.org/"
  }
},
{
  "type": "node",
  "id": 4700949608,
  "lat": 45.7941377,
  "lon": 9.6652233,
  "tags": {
    "name": "Museo della Valle",
    "tourism": "museum"
  }
},
{
  "type": "node",
  "id": 4700951889,
  "lat": 45.7936138,
  "lon": 9.6635592,
  "tags": {
    "name": "Museo San Lorenzo",
    "tourism": "museum"
  }
},
{
  "type": "node",
  "id": 4700962767,
  "lat": 45.7925817,
  "lon": 9.6531855,
  "tags": {
    "name": "Museo del Soldato",
    "tourism": "museum"
  }
},
{
  "type": "node",
  "id": 4715567021,
  "lat": 45.5251250,
  "lon": 9.5803423,
  "tags": {
    "name": "Museo Same",
    "tourism": "museum",
    "wikidata": "Q3868470"
  }
},
{
  "type": "node",
  "id": 4882102421,
  "lat": 45.6000984,
  "lon": 9.8827235,
  "tags": {
    "name": "museo dei Ricordi di Guerra",
    "name:it": "museo dei Ricordi di Guerra",
    "tourism": "museum"
  }
},
{
  "type": "node",
  "id": 5126049341,
  "lat": 45.5838351,
  "lon": 9.2758042,
  "tags": {
    "addr:city": "Monza",
    "addr:country": "IT",
    "addr:housenumber": "2",
    "addr:postcode": "20900",
    "addr:street": "Via Lambro",
    "email": "info@museoduomomonza.it",
    "fax": "+39 039 2300349",
    "fee": "yes",
    "level": "-1",
    "name": "Museo del Duomo",
    "opening_hours": "Tu-Su 09:00-18:00",
    "phone": "+39 039 326383",
    "tourism": "museum",
    "website": "http://www.museoduomomonza.it/Pages/",
    "wikidata": "Q3868346",
    "wikipedia": "it:Museo e tesoro del duomo di Monza"
  }
},
{
  "type": "node",
  "id": 5146174371,
  "lat": 45.8931202,
  "lon": 9.3879193,
  "tags": {
    "name": "Casa Museo di Villa Gerosa",
    "tourism": "museum",
    "website": "http://www.sistemamuseale.provincia.lecco.it/index.php/musei-naturalistico-scientifici/casa-museo-villa-gerosa-piani-resinelli"
  }
},
{
  "type": "node",
  "id": 5295393110,
  "lat": 45.8534645,
  "lon": 9.2973381,
  "tags": {
    "level": "1",
    "name": "Museo degli Alpeggi",
    "tourism": "museum"
  }
},
{
  "type": "node",
  "id": 5632167500,
  "lat": 45.7302057,
  "lon": 9.3434791,
  "tags": {
    "addr:city": "Sirtori",
    "addr:housenumber": "39",
    "addr:postcode": "23839",
    "addr:street": "Via Belvedere",
    "name": "Museo dei 3 tetti",
    "phone": "+39 039 955936",
    "tourism": "museum",
    "website": "http://museo3tetti.it",
    "website_1": "http://www.giorgiorivaopere.it"
  }
},
{
  "type": "node",
  "id": 5873126579,
  "lat": 45.8907745,
  "lon": 9.9876597,
  "tags": {
    "name": "Casa Museo Fantoni",
    "opening_hours": "Tu-Su 15:30-17:30; Jun 15-Sep 15 Tu-Su",
    "operator": "Provincia di Bergamo",
    "tourism": "museum",
    "website": "https://it.m.wikipedia.org/wiki/Casa_museo_Fantoni",
    "wheelchair": "no"
  }
},
{
  "type": "node",
  "id": 6423577435,
  "lat": 45.7007374,
  "lon": 9.2472762,
  "tags": {
    "addr:city": "Briosco",
    "addr:housenumber": "3",
    "addr:postcode": "20836",
    "addr:street": "Via Col del Freyus",
    "description": "Un piccolo, ma molto significativo, nucleo di opere esposte all’interno è costituito dalle sculture di quegli autori che, per primi in Italia, intrapresero la rivoluzione dell’astrazione in scultura.",
    "email": "info@rossiniartsite.com",
    "name": "Rossini Art Site",
    "opening_hours": "Apr-May-Jun-Sep-Oct-:Th-Fr-Sa-Su 10:30-18:30; Jul-Aug: Su 10:30-18:30; Aug 11-18 off",
    "phone": "+39 0362 827761",
    "tourism": "museum",
    "website": "http://www.rossiniartsite.com"
  }
},
{
  "type": "node",
  "id": 6449224146,
  "lat": 45.7033450,
  "lon": 9.6608637,
  "tags": {
    "addr:city": "Bergamo",
    "addr:housenumber": "9",
    "addr:postcode": "24129",
    "addr:street": "Via Arena",
    "email": "info@museodellestorie.bergamo.it",
    "name": "Museo Donizettiano",
    "opening_hours": "Tu-Fr 10:00-13:00; Sa,Su,PH 10:00-13:00, 15:00-18:00; Mo, Jan 1, Dec 25 off",
    "phone": "+39 035 247116",
    "tourism": "museum",
    "website": "https://www.museodellestorie.bergamo.it/luogo/museo-donizettiano/",
    "wikipedia": "it:Museo donizettiano"
  }
},
{
  "type": "node",
  "id": 6449236467,
  "lat": 45.7035444,
  "lon": 9.6628576,
  "tags": {
    "addr:city": "Bergamo",
    "addr:postcode": "24129",
    "addr:street": "Piazza Duomo",
    "email": "info@fondazionebernareggi.it",
    "name": "Museo e Tesoro della Cattedrale",
    "opening_hours": "Oct 01-May 31: Tu-Fr 09:30-12:00; Th 14:30-18:00; Sa,Su,PH 10:00-19:00; Jun 01-Sep 30 Tu-Fr 10:00-13:00; Th 14:00-18:30; Sa,Su,PH 10:00-19:00; Mo off",
    "phone": "+39 035 219893",
    "tourism": "museum",
    "website": "http://www.fondazionebernareggi.it/it/museo-della-cattedrale/presentazione"
  }
},
{
  "type": "node",
  "id": 6455927608,
  "lat": 45.8595809,
  "lon": 9.3976931,
  "tags": {
    "addr:city": "Lecco",
    "addr:housenumber": "32",
    "addr:postcode": "23900",
    "addr:street": "Corso Giacomo Matteotti",
    "email": "segreteria.meseo@comune.lecco.it",
    "name": "Museo Archeologico Storico Storia Naturale",
    "opening_hours": "Tu-Fr 09:00-14:30; Sa,Su,10:00-18:30; Mo off; Easter+, Apr 25, Aug 15 open",
    "phone": "+39 0341 286078",
    "tourism": "museum",
    "website": "http://www.museilecco.org/oraritariffe.htm"
  }
},
{
  "type": "way",
  "id": 29281613,
  "nodes": [
    322008438,
    322008445,
    2755980379,
    322652685,
    2755980317,
    322652692,
    2755980279,
    2755980263,
    2755980231,
    2755980241,
    322008462,
    322008480,
    322008438
  ],
  "tags": {
    "addr:city": "Lovere",
    "addr:housenumber": "40",
    "addr:postcode": "24065",
    "addr:street": "Via Lungolago Giovanni Ruffini",
    "building": "yes",
    "email": "direzione@accademiatadini.it",
    "fee": "yes",
    "name": "Pinacoteca Tadini",
    "opening_hours": "Apr, Oct: Sa 15:00-19:00; Su, PH 10:00-12:00; 15:00-19:00; May-Sep: Tu-Sa 15:00-19:00; Su, PH 10:00-12:00; 15:00-19:00; Easter, Easter+1, Apr 25, May 1, Jun 2, Aug 15 open; Nov-Mar \"by appointment\"",
    "phone": "+39 035 962780",
    "tourism": "museum",
    "website": "http://www.accademiatadini.it/index.aspx"
  }
},
{
  "type": "way",
  "id": 67331925,
  "nodes": [
    813247304,
    813247143,
    813247556,
    813247409,
    813247203,
    813247488,
    2529653778,
    813247450,
    813247304
  ],
  "tags": {
    "building": "yes",
    "ele": "1235",
    "name": "Malga Lunga - Museo della Resistenza",
    "tourism": "museum",
    "wikipedia": "it:Malga Lunga"
  }
},
{
  "type": "way",
  "id": 79808372,
  "nodes": [
    931610645,
    931610556,
    4745270028,
    369108227,
    369108283,
    4826510786,
    931610611,
    931610593,
    931610621,
    931610561,
    931610579,
    931610645
  ],
  "tags": {
    "addr:city": "Bergamo",
    "addr:postcode": "24129",
    "addr:street": "Piazza vecchia",
    "building": "yes",
    "email": "info@museodellestorie.bergamo.it",
    "name": "Palazzo del Podestà, Museo del Cinquecento",
    "name:ru": "Музей. Дворец дель Подеста",
    "opening_hours": "Oct 01-May 31 Tu-Su 09:30-13:00,14:30-18:00; Jun 01-Sep 30 Tu-Fr 10:00-13:00,14:30-18:00; Sa,Su,PH 10:00-19:00; Jan 01,Dec 25 off",
    "phone": "+39 035 247116",
    "tourism": "museum",
    "website": "https://www.museodellestorie.bergamo.it/luogo/palazzo-del-podesta/",
    "wikipedia": "it:Palazzo del Podestà (Bergamo)"
  }
},
{
  "type": "way",
  "id": 88216884,
  "nodes": [
    1024938560,
    1024938532,
    1024938592,
    1024938566,
    1024938514,
    1024938551,
    1024938503,
    1024938564,
    1024938510,
    1024938548,
    1024938499,
    1024938560
  ],
  "tags": {
    "building": "museum",
    "name": "GAMEC",
    "tourism": "museum"
  }
},
{
  "type": "way",
  "id": 88216887,
  "nodes": [
    1024938512,
    1024938596,
    1024938545,
    1024938520,
    3388091452,
    1024938583,
    1024938508,
    1024938570,
    1024938568,
    1024938517,
    1024938553,
    1024938507,
    1024938588,
    1024938535,
    1024938579,
    1024938528,
    1024938585,
    1024938534,
    1024938577,
    1024938526,
    1024938497,
    1024938562,
    1024938594,
    1024938512
  ],
  "tags": {
    "addr:city": "Bergamo",
    "addr:housenumber": "53",
    "addr:postcode": "24121",
    "addr:street": "Via San Tomaso",
    "building": "museum",
    "email": "visiteguidate@gamec.it",
    "name": "GAMeC Galleria d’Arte Moderna e Contemporanea",
    "opening_hours": "Mo-Su 10:00-18:00; Tu off",
    "phone": "+39 035 270272",
    "tourism": "museum",
    "website": "https://www.gamec.it/it",
    "wikipedia": "it:Galleria d'arte moderna e contemporanea"
  }
},
{
  "type": "way",
  "id": 88702482,
  "nodes": [
    1029782917,
    1029782736,
    1029782858,
    1029782753,
    1029782884,
    1029782769,
    1029782944,
    1029782789,
    1029782830,
    1029782730,
    1029782848,
    1029782744,
    1029782738,
    1029782863,
    1029782754,
    1029782906,
    1029782702,
    1029782814,
    1029782718,
    1029782834,
    1029782710,
    1029782817,
    1029782725,
    1029782839,
    1029782896,
    1029782772,
    6414472530,
    1029782685,
    1029782799,
    1029782784,
    1029782696,
    1029782917
  ],
  "tags": {
    "addr:city": "Bergamo",
    "addr:housenumber": "82",
    "addr:postcode": "24121",
    "addr:street": "Piazza Giacomo Carrara",
    "building": "museum",
    "email": "info@lacarrara.it",
    "name": "Accademia Carrara",
    "name:ru": "Академия Каррара",
    "opening_hours": "We-Su 09:30-17:45; Tu off",
    "phone": "+39 035 234396",
    "tourism": "museum",
    "website": "https://www.lacarrara.it/",
    "wikidata": "Q338367",
    "wikipedia": "it:Accademia Carrara"
  }
},
{
  "type": "way",
  "id": 134870401,
  "nodes": [
    6482195666,
    6482195664,
    6482195663,
    6482191545,
    6482191489,
    6482191490,
    1482073008,
    6482191488,
    6482191487,
    6482191486,
    6482191485,
    1482073004,
    1482073011,
    3139054930,
    6482195666
  ],
  "tags": {
    "building": "yes",
    "historic": "church",
    "name": "Chiesa di San Bartolomeo",
    "tourism": "museum"
  }
},
{
  "type": "way",
  "id": 167434759,
  "nodes": [
    1788306082,
    1788305936,
    1788305894,
    1788306053,
    1788305893,
    1788306014,
    1788305897,
    1788305923,
    1788306065,
    1788305985,
    1788305972,
    1788305969,
    1788305973,
    5934622031,
    1788306097,
    1788306096,
    1788306045,
    1788306082
  ],
  "tags": {
    "building": "yes",
    "name": "Fondazione Museo di Palazzo Moroni",
    "tourism": "museum",
    "wikipedia": "en:Palazzo Moroni, Bergamo"
  }
},
{
  "type": "way",
  "id": 183318201,
  "nodes": [
    1936851178,
    1936851171,
    1936851182,
    1936925024,
    1936925031,
    1936925034,
    1936924992,
    1936851174,
    1936851201,
    1936851195,
    1936851178
  ],
  "tags": {
    "layer": "1",
    "name": "Museo D'arte Contemporanea - Donazione Meli",
    "tourism": "museum",
    "website": "http://www.museoluzzana.it/",
    "wikipedia": "it:Museo d'arte contemporanea di Luzzana"
  }
},
{
  "type": "way",
  "id": 262688368,
  "nodes": [
    2683557824,
    2683557822,
    2683557821,
    2683557823,
    2683557824
  ],
  "tags": {
    "name": "Museo permanente del Presepio",
    "tourism": "museum",
    "wikidata": "Q3868444",
    "wikipedia": "it:Museo permanente del Presepio"
  }
},
{
  "type": "way",
  "id": 273410865,
  "nodes": [
    2782715306,
    2782715305,
    2782715304,
    2782715308,
    2782715303,
    2782715307,
    2782715306
  ],
  "tags": {
    "name": "museo maglio",
    "tourism": "museum"
  }
},
{
  "type": "way",
  "id": 288158922,
  "nodes": [
    2917076115,
    2917075949,
    2917075952,
    2917075869,
    2917075859,
    2917075856,
    2917075833,
    2917076249,
    2917076253,
    2917076199,
    2917076251,
    2917076254,
    2917076206,
    2917076136,
    2917076115
  ],
  "tags": {
    "addr:city": "Abbadia Lariana",
    "addr:postcode": "23821",
    "addr:street": "Via Nazionale",
    "building": "yes",
    "name": "Civico Museo Setificio Monti",
    "operator": "comune di Abbadia",
    "tourism": "museum"
  }
},
{
  "type": "way",
  "id": 291339481,
  "nodes": [
    2947964610,
    2947964611,
    2947964612,
    2947964613,
    2947964614,
    2947964610
  ],
  "tags": {
    "addr:city": "Parre",
    "addr:postcode": "24020",
    "addr:street": "Piazza S. Rocco",
    "building": "yes",
    "name": "Antiquarium - Parra Oppidum degli Orobi",
    "operator": "Artelier",
    "tourism": "museum"
  }
},
{
  "type": "way",
  "id": 298287057,
  "nodes": [
    3021965884,
    3021965880,
    3021965877,
    3659951954,
    3659951956,
    3659951958,
    3659951957,
    3021965878,
    5135213366,
    5135212815,
    5135213365,
    5135212814,
    3021965887,
    5135213364,
    5135212813,
    3021965881,
    5135213363,
    3659951959,
    5135213361,
    5135213360,
    5135213362,
    3021965884
  ],
  "tags": {
    "building": "church",
    "name": "Chiesa di San MIchele Arcangelo",
    "tourism": "museum"
  }
},
{
  "type": "way",
  "id": 309730156,
  "nodes": [
    3150604168,
    3150613305,
    3150608958,
    3150608956,
    3150613810,
    3150613813,
    3150604168
  ],
  "tags": {
    "addr:city": "Biassono",
    "addr:country": "IT",
    "addr:housenumber": "1",
    "addr:postcode": "20853",
    "addr:street": "Via San Martino",
    "building": "public",
    "email": "info@museobiassono.it",
    "name": "Museo Civico di Biassono",
    "opening_hours": "Fr 09:30-12:00,15:00-18:30; Sa 15:00-19:00",
    "phone": "+39 039 2201077",
    "tourism": "museum",
    "website": "http://www.museobiassono.it/"
  }
},
{
  "type": "way",
  "id": 313091478,
  "nodes": [
    3190111495,
    3190111418,
    3190111409,
    3190109656,
    3190111273,
    3190111292,
    3190111204,
    3190111196,
    3190110625,
    3190111183,
    3190111197,
    3190111260,
    3190111266,
    3190111404,
    3190111497,
    3190111519,
    3190111495
  ],
  "tags": {
    "building": "yes",
    "name": "Casa Museo",
    "tourism": "museum"
  }
},
{
  "type": "way",
  "id": 316215231,
  "nodes": [
    3223257899,
    3223258167,
    3223258168,
    3223257570,
    3223257794,
    3223258170,
    3223257571,
    3223258169,
    3223257900,
    3223257569,
    3223257898,
    3223257897,
    3223257568,
    3223257896,
    3223257895,
    3223257566,
    3223257479,
    3223257894,
    4225131879,
    3223257565,
    3223257480,
    3223257567,
    3223257899
  ],
  "tags": {
    "addr:city": "Lissone",
    "addr:country": "IT",
    "addr:housenumber": "6",
    "addr:postcode": "20851",
    "addr:street": "Viale Elisa Ancona",
    "building": "museum",
    "building:levels": "2",
    "email": "museo@comune.lissone.mb.it",
    "fax": "+39 039 461523",
    "name": "Museo d'Arte Contemporanea",
    "opening_hours": "We,Fr 10:00-13:00; Th 16:00-23:00; Sa,Su 10:00-12:00,15:00-19:00",
    "phone": "+39 039 2145174",
    "start_date": "2002",
    "tourism": "museum",
    "wikidata": "Q3867849",
    "wikipedia": "it:Museo d'arte contemporanea (Lissone)"
  }
},
{
  "type": "way",
  "id": 449061133,
  "nodes": [
    4460321216,
    4460321219,
    4460321222,
    4460321221,
    4460321216
  ],
  "tags": {
    "building": "public",
    "name": "Museo Paleontologico",
    "tourism": "museum"
  }
},
{
  "type": "way",
  "id": 452642290,
  "nodes": [
    4494030544,
    4494027090,
    4494028801,
    4494030047,
    4494028356,
    4494030544
  ],
  "tags": {
    "building": "yes",
    "height": "6.34",
    "name": "Museo della Scienza",
    "ref": "3247",
    "tourism": "museum"
  }
},
{
  "type": "way",
  "id": 528372131,
  "nodes": [
    5134885882,
    1799701146,
    5135213350,
    5134885520,
    5134885887,
    5134885519,
    5134885518,
    5134885517,
    5134885516,
    5134885515,
    5134885884,
    5134885883,
    5134885882
  ],
  "tags": {
    "building": "yes",
    "name": "Museo d'Arte Sacra San Martino",
    "source": "www.museosanmartino.org",
    "tourism": "museum",
    "wikidata": "Q3867876",
    "wikipedia": "it:Museo d'arte sacra San Martino"
  }
},
{
  "type": "way",
  "id": 551135170,
  "nodes": [
    5322647384,
    5322647383,
    5322647382,
    5322647379,
    5322647381,
    5323970066,
    5322647376,
    5322647372,
    5322647375,
    5322647373,
    5322647374,
    5322647377,
    5322647384
  ],
  "tags": {
    "building": "yes",
    "historic": "villa",
    "name": "Villa Pozzi",
    "source": "DbTR - Ingombro al suolo corpo edificato",
    "tourism": "museum"
  }
},
{
  "type": "way",
  "id": 568314266,
  "nodes": [
    5467725153,
    5467725152,
    5467725151,
    5467725150,
    5467725153
  ],
  "tags": {
    "building": "yes",
    "name": "Ecomuseo Lago di Annone",
    "tourism": "museum"
  }
},
{
  "type": "way",
  "id": 577456322,
  "nodes": [
    6233834716,
    5535768044,
    2687749354,
    5535768050,
    6233834717,
    6233834718,
    6233834716
  ],
  "tags": {
    "fee": "no",
    "level": "0",
    "museum": "maritime",
    "museum_type": "municipial",
    "name": "Museo navale Ottorino Zibetti",
    "opening_hours": "Sa 16:00-18:00",
    "operator": "Comune di Caravaggio",
    "tourism": "museum",
    "website": "http://www.comune.caravaggio.bg.it/servizi/Menu/dinamica.aspx?idSezione=17227&idArea=17232&idCat=18641&ID=18641&TipoElemento=categoria",
    "wheelchair": "yes",
    "wikidata": "Q3868413",
    "wikipedia": "it:Museo navale Ottorino Zibetti"
  }
},
{
  "type": "way",
  "id": 608402851,
  "nodes": [
    5764114612,
    5764114609,
    5764130698,
    5764114606,
    5764114607,
    5764224872,
    5764224873,
    5764114612
  ],
  "tags": {
    "building": "public",
    "tourism": "museum"
  }
},
{
  "type": "way",
  "id": 627551174,
  "nodes": [
    5923973652,
    5923973653,
    5923973654,
    5923973655,
    5923973656,
    5923973657,
    5923973658,
    5923973659,
    5923973660,
    5923973661,
    5923973662,
    5923973663,
    5923973652
  ],
  "tags": {
    "building": "yes",
    "tourism": "museum"
  }
},
{
  "type": "way",
  "id": 701781622,
  "nodes": [
    6590615148,
    6590615149,
    6590615150,
    6590615151,
    6590615148
  ],
  "tags": {
    "building": "yes",
    "name": "Museo del Falegname",
    "tourism": "museum"
  }
},
{
  "type": "relation",
  "id": 1223620,
  "members": [
    {
      "type": "way",
      "ref": 81247637,
      "role": "outer"
    },
    {
      "type": "way",
      "ref": 81247625,
      "role": "inner"
    },
    {
      "type": "way",
      "ref": 81247631,
      "role": "inner"
    }
  ],
  "tags": {
    "addr:city": "Bergamo",
    "addr:housenumber": "5",
    "addr:postcode": "24129",
    "addr:street": "Piazza Mercato del Fieno",
    "building": "public",
    "description": "Il convento ospita il Museo della fotografia Sestini.",
    "email": "info@museodellestorie.bergamo.it",
    "name": "Museo Storico della Città",
    "name:de": "Stadthistorisches Museum Bergamo",
    "name:pl": "Były klasztor franciszkanów",
    "opening_hours": "Oct 01-May 31: Tu-Su 09:30-13:00,14:30-18:00; Jun 01-Sep 30 Tu-Fr 10:00-13:00,14:30-18:00; Sa,Su,PH 10:00-19:00; Jan 01,Dec 25 off",
    "phone": "+39 035 247116",
    "tourism": "museum",
    "type": "multipolygon",
    "website": "https://www.museodellestorie.bergamo.it/luogo/convento-san-francesco/"
  }
},
{
  "type": "relation",
  "id": 1715403,
  "members": [
    {
      "type": "node",
      "ref": 1402808308,
      "role": ""
    },
    {
      "type": "node",
      "ref": 1402808217,
      "role": ""
    },
    {
      "type": "node",
      "ref": 4936190108,
      "role": ""
    },
    {
      "type": "node",
      "ref": 1402808203,
      "role": ""
    },
    {
      "type": "node",
      "ref": 1402808212,
      "role": ""
    },
    {
      "type": "node",
      "ref": 1402808205,
      "role": ""
    },
    {
      "type": "node",
      "ref": 3818834783,
      "role": ""
    },
    {
      "type": "node",
      "ref": 1402808604,
      "role": ""
    },
    {
      "type": "node",
      "ref": 3892208284,
      "role": ""
    }
  ],
  "tags": {
    "name": "Museo di Arte Contemporanea di Morterone",
    "start_date": "1988",
    "tourism": "museum",
    "type": "site"
  }
},
{
  "type": "relation",
  "id": 2607828,
  "members": [
    {
      "type": "way",
      "ref": 168232744,
      "role": "outer"
    },
    {
      "type": "way",
      "ref": 193629600,
      "role": "inner"
    }
  ],
  "tags": {
    "building": "yes",
    "historic": "castle",
    "name": "Castello Borromeo",
    "tourism": "museum",
    "type": "multipolygon"
  }
},
{
  "type": "relation",
  "id": 3933144,
  "members": [
    {
      "type": "way",
      "ref": 295732626,
      "role": "outer"
    },
    {
      "type": "way",
      "ref": 295732624,
      "role": "inner"
    }
  ],
  "tags": {
    "addr:city": "Garlate",
    "addr:housenumber": "490",
    "addr:postcode": "23852",
    "addr:street": "Via Statale",
    "building": "yes",
    "email": "info@museosetagarlate.it",
    "name": "Museo della Seta Abegg",
    "opening_hours": "Jun 1-Sep 30: Sa 14:30-18:30; Su 09:30-12:30; 14:30-18:30; Oct 1-May 31: Sa 14:30-17:30; Su 09:30-12:30; 14:30-17:30; Mo-Sa 09:00-12:30 \"by appointment\"; Jan 1, Easter, May 1, Aug, Nov 1, Dec 25,26,31 off; Jan 6, Easter+1, Apr 25, Dec 8: 14:30-17:30; ",
    "phone": "+39 331 9960890",
    "tourism": "museum",
    "type": "multipolygon",
    "website": "http://www.museosetagarlate.it"
  }
},
{
  "type": "relation",
  "id": 4470589,
  "members": [
    {
      "type": "way",
      "ref": 321040160,
      "role": "outer"
    },
    {
      "type": "way",
      "ref": 321040172,
      "role": "inner"
    }
  ],
  "tags": {
    "addr:city": "Romano di Lombardia",
    "addr:housenumber": "2",
    "addr:postcode": "24058",
    "addr:street": "Via Comelli Rubini",
    "building": "yes",
    "name": "Palazzo Rubini",
    "opening_hours": "Su 10:00-12:00",
    "tourism": "museum",
    "type": "multipolygon",
    "website": "http://www.comune.romano.bg.it/index.php/ambiente-e-territorio/197-museo-di-giovan-battista-rubini"
  }
},
{
  "type": "relation",
  "id": 5256583,
  "members": [
    {
      "type": "way",
      "ref": 316665128,
      "role": "outer"
    }
  ],
  "tags": {
    "amenity": "school",
    "man_made": "observatory",
    "name": "Parco Astronomico La Torre del Sole",
    "tourism": "museum",
    "type": "multipolygon",
    "website": "http://www.latorredelsole.it"
  }
},
{
  "type": "node",
  "id": 4460321216,
  "lat": 45.4721019,
  "lon": 9.5005515
},
{
  "type": "node",
  "id": 4460321219,
  "lat": 45.4721491,
  "lon": 9.5006410
},
{
  "type": "node",
  "id": 4460321221,
  "lat": 45.4723542,
  "lon": 9.5002809
},
{
  "type": "node",
  "id": 4460321222,
  "lat": 45.4724014,
  "lon": 9.5003704
},
{
  "type": "node",
  "id": 2687749354,
  "lat": 45.4927122,
  "lon": 9.6413107
},
{
  "type": "node",
  "id": 5535768044,
  "lat": 45.4927151,
  "lon": 9.6411857
},
{
  "type": "node",
  "id": 5535768050,
  "lat": 45.4925696,
  "lon": 9.6413040
},
{
  "type": "node",
  "id": 6233834716,
  "lat": 45.4927155,
  "lon": 9.6411664
},
{
  "type": "node",
  "id": 6233834717,
  "lat": 45.4925728,
  "lon": 9.6411595
},
{
  "type": "node",
  "id": 6233834718,
  "lat": 45.4925985,
  "lon": 9.6411608
},
{
  "type": "node",
  "id": 4494027090,
  "lat": 45.5199625,
  "lon": 9.5959076
},
{
  "type": "node",
  "id": 4494028356,
  "lat": 45.5197797,
  "lon": 9.5959644
},
{
  "type": "node",
  "id": 4494028801,
  "lat": 45.5199977,
  "lon": 9.5963520
},
{
  "type": "node",
  "id": 4494030047,
  "lat": 45.5198160,
  "lon": 9.5963847
},
{
  "type": "node",
  "id": 4494030544,
  "lat": 45.5197776,
  "lon": 9.5959398
},
{
  "type": "node",
  "id": 3223257479,
  "lat": 45.6066036,
  "lon": 9.2352393
},
{
  "type": "node",
  "id": 3223257480,
  "lat": 45.6066243,
  "lon": 9.2353500
},
{
  "type": "node",
  "id": 3223257565,
  "lat": 45.6065598,
  "lon": 9.2353824
},
{
  "type": "node",
  "id": 3223257566,
  "lat": 45.6066095,
  "lon": 9.2352144
},
{
  "type": "node",
  "id": 3223257567,
  "lat": 45.6066305,
  "lon": 9.2353754
},
{
  "type": "node",
  "id": 3223257568,
  "lat": 45.6066858,
  "lon": 9.2351666
},
{
  "type": "node",
  "id": 3223257569,
  "lat": 45.6067326,
  "lon": 9.2351360
},
{
  "type": "node",
  "id": 3223257570,
  "lat": 45.6068504,
  "lon": 9.2353254
},
{
  "type": "node",
  "id": 3223257571,
  "lat": 45.6068839,
  "lon": 9.2351934
},
{
  "type": "node",
  "id": 3223257794,
  "lat": 45.6068732,
  "lon": 9.2352737
},
{
  "type": "node",
  "id": 3223257894,
  "lat": 45.6065333,
  "lon": 9.2352746
},
{
  "type": "node",
  "id": 3223257895,
  "lat": 45.6066296,
  "lon": 9.2351838
},
{
  "type": "node",
  "id": 3223257896,
  "lat": 45.6066590,
  "lon": 9.2351742
},
{
  "type": "node",
  "id": 3223257897,
  "lat": 45.6067166,
  "lon": 9.2351761
},
{
  "type": "node",
  "id": 3223257898,
  "lat": 45.6067407,
  "lon": 9.2351628
},
{
  "type": "node",
  "id": 3223257899,
  "lat": 45.6067615,
  "lon": 9.2353096
},
{
  "type": "node",
  "id": 3223257900,
  "lat": 45.6068330,
  "lon": 9.2350843
},
{
  "type": "node",
  "id": 3223258167,
  "lat": 45.6067955,
  "lon": 9.2353311
},
{
  "type": "node",
  "id": 3223258168,
  "lat": 45.6068250,
  "lon": 9.2353331
},
{
  "type": "node",
  "id": 3223258169,
  "lat": 45.6068651,
  "lon": 9.2351991
},
{
  "type": "node",
  "id": 3223258170,
  "lat": 45.6068839,
  "lon": 9.2352393
},
{
  "type": "node",
  "id": 4225131879,
  "lat": 45.6065454,
  "lon": 9.2353237
},
{
  "type": "node",
  "id": 3150604168,
  "lat": 45.6306294,
  "lon": 9.2743502
},
{
  "type": "node",
  "id": 3150608956,
  "lat": 45.6303057,
  "lon": 9.2743363
},
{
  "type": "node",
  "id": 3150608958,
  "lat": 45.6303363,
  "lon": 9.2745797
},
{
  "type": "node",
  "id": 3150613305,
  "lat": 45.6306567,
  "lon": 9.2744489
},
{
  "type": "node",
  "id": 3150613810,
  "lat": 45.6303803,
  "lon": 9.2743115
},
{
  "type": "node",
  "id": 3150613813,
  "lat": 45.6304040,
  "lon": 9.2744415
},
{
  "type": "node",
  "id": 1795235617,
  "lat": 45.5252586,
  "lon": 9.5246251
},
{
  "type": "node",
  "id": 1795235618,
  "lat": 45.5253548,
  "lon": 9.5244064
},
{
  "type": "node",
  "id": 1795235620,
  "lat": 45.5254253,
  "lon": 9.5244491
},
{
  "type": "node",
  "id": 1795235623,
  "lat": 45.5255228,
  "lon": 9.5239539
},
{
  "type": "node",
  "id": 1795235627,
  "lat": 45.5255777,
  "lon": 9.5249564
},
{
  "type": "node",
  "id": 1795235628,
  "lat": 45.5257021,
  "lon": 9.5250322
},
{
  "type": "node",
  "id": 1795235630,
  "lat": 45.5260010,
  "lon": 9.5250426
},
{
  "type": "node",
  "id": 1795235632,
  "lat": 45.5258150,
  "lon": 9.5249401
},
{
  "type": "node",
  "id": 1795235633,
  "lat": 45.5258359,
  "lon": 9.5248796
},
{
  "type": "node",
  "id": 1795235634,
  "lat": 45.5260236,
  "lon": 9.5240971
},
{
  "type": "node",
  "id": 1924837681,
  "lat": 45.5252346,
  "lon": 9.5246710
},
{
  "type": "node",
  "id": 1950163846,
  "lat": 45.5259143,
  "lon": 9.5248871
},
{
  "type": "node",
  "id": 1950174147,
  "lat": 45.5253013,
  "lon": 9.5245279
},
{
  "type": "node",
  "id": 2041549811,
  "lat": 45.5255021,
  "lon": 9.5244803
},
{
  "type": "node",
  "id": 2041549812,
  "lat": 45.5255737,
  "lon": 9.5241724
},
{
  "type": "node",
  "id": 2041549813,
  "lat": 45.5257674,
  "lon": 9.5246690
},
{
  "type": "node",
  "id": 2041549814,
  "lat": 45.5258289,
  "lon": 9.5242523
},
{
  "type": "node",
  "id": 5923973652,
  "lat": 45.6091770,
  "lon": 9.6295762
},
{
  "type": "node",
  "id": 5923973653,
  "lat": 45.6090692,
  "lon": 9.6295914
},
{
  "type": "node",
  "id": 5923973654,
  "lat": 45.6091331,
  "lon": 9.6305160
},
{
  "type": "node",
  "id": 5923973655,
  "lat": 45.6092442,
  "lon": 9.6305003
},
{
  "type": "node",
  "id": 5923973656,
  "lat": 45.6092375,
  "lon": 9.6304026
},
{
  "type": "node",
  "id": 5923973657,
  "lat": 45.6092746,
  "lon": 9.6303973
},
{
  "type": "node",
  "id": 5923973658,
  "lat": 45.6092683,
  "lon": 9.6303054
},
{
  "type": "node",
  "id": 5923973659,
  "lat": 45.6092853,
  "lon": 9.6303030
},
{
  "type": "node",
  "id": 5923973660,
  "lat": 45.6092544,
  "lon": 9.6298551
},
{
  "type": "node",
  "id": 5923973661,
  "lat": 45.6092380,
  "lon": 9.6298574
},
{
  "type": "node",
  "id": 5923973662,
  "lat": 45.6092252,
  "lon": 9.6296719
},
{
  "type": "node",
  "id": 5923973663,
  "lat": 45.6091840,
  "lon": 9.6296777
},
{
  "type": "node",
  "id": 2683557821,
  "lat": 45.6523099,
  "lon": 9.5861279
},
{
  "type": "node",
  "id": 2683557822,
  "lat": 45.6524026,
  "lon": 9.5856397
},
{
  "type": "node",
  "id": 2683557823,
  "lat": 45.6524123,
  "lon": 9.5861677
},
{
  "type": "node",
  "id": 2683557824,
  "lat": 45.6525050,
  "lon": 9.5856795
},
{
  "type": "node",
  "id": 3228068567,
  "lat": 45.7183993,
  "lon": 9.5825425
},
{
  "type": "node",
  "id": 3228068568,
  "lat": 45.7184038,
  "lon": 9.5820778
},
{
  "type": "node",
  "id": 3228068570,
  "lat": 45.7187576,
  "lon": 9.5828097
},
{
  "type": "node",
  "id": 3228068572,
  "lat": 45.7187691,
  "lon": 9.5825813
},
{
  "type": "node",
  "id": 3228068574,
  "lat": 45.7188724,
  "lon": 9.5828215
},
{
  "type": "node",
  "id": 3228068575,
  "lat": 45.7189072,
  "lon": 9.5821302
},
{
  "type": "node",
  "id": 3579837711,
  "lat": 45.7184032,
  "lon": 9.5823684
},
{
  "type": "node",
  "id": 3277534387,
  "lat": 45.5211193,
  "lon": 9.7548922
},
{
  "type": "node",
  "id": 3277534389,
  "lat": 45.5211242,
  "lon": 9.7547795
},
{
  "type": "node",
  "id": 3277534396,
  "lat": 45.5211489,
  "lon": 9.7544979
},
{
  "type": "node",
  "id": 3277534402,
  "lat": 45.5211727,
  "lon": 9.7543485
},
{
  "type": "node",
  "id": 3277534416,
  "lat": 45.5212155,
  "lon": 9.7547778
},
{
  "type": "node",
  "id": 3277534417,
  "lat": 45.5212179,
  "lon": 9.7545067
},
{
  "type": "node",
  "id": 3277534424,
  "lat": 45.5213080,
  "lon": 9.7545067
},
{
  "type": "node",
  "id": 3277534426,
  "lat": 45.5213141,
  "lon": 9.7546704
},
{
  "type": "node",
  "id": 3277534436,
  "lat": 45.5214103,
  "lon": 9.7547039
},
{
  "type": "node",
  "id": 3277534439,
  "lat": 45.5214214,
  "lon": 9.7549028
},
{
  "type": "node",
  "id": 3277534448,
  "lat": 45.5214732,
  "lon": 9.7544873
},
{
  "type": "node",
  "id": 3277534451,
  "lat": 45.5214831,
  "lon": 9.7546528
},
{
  "type": "node",
  "id": 3277534464,
  "lat": 45.5215377,
  "lon": 9.7543274
},
{
  "type": "node",
  "id": 3277534469,
  "lat": 45.5215842,
  "lon": 9.7546775
},
{
  "type": "node",
  "id": 369108227,
  "lat": 45.7037897,
  "lon": 9.6624277
},
{
  "type": "node",
  "id": 369108283,
  "lat": 45.7037131,
  "lon": 9.6623669
},
{
  "type": "node",
  "id": 369334221,
  "lat": 45.7049317,
  "lon": 9.6648204
},
{
  "type": "node",
  "id": 931610556,
  "lat": 45.7040032,
  "lon": 9.6625937
},
{
  "type": "node",
  "id": 931610561,
  "lat": 45.7038691,
  "lon": 9.6623248
},
{
  "type": "node",
  "id": 931610579,
  "lat": 45.7039403,
  "lon": 9.6623841
},
{
  "type": "node",
  "id": 931610593,
  "lat": 45.7039411,
  "lon": 9.6621478
},
{
  "type": "node",
  "id": 931610611,
  "lat": 45.7038693,
  "lon": 9.6620880
},
{
  "type": "node",
  "id": 931610621,
  "lat": 45.7039125,
  "lon": 9.6622181
},
{
  "type": "node",
  "id": 931610645,
  "lat": 45.7040504,
  "lon": 9.6624758
},
{
  "type": "node",
  "id": 946599182,
  "lat": 45.7054861,
  "lon": 9.6654323
},
{
  "type": "node",
  "id": 946599194,
  "lat": 45.7055180,
  "lon": 9.6650904
},
{
  "type": "node",
  "id": 946599201,
  "lat": 45.7054039,
  "lon": 9.6656770
},
{
  "type": "node",
  "id": 946599211,
  "lat": 45.7053489,
  "lon": 9.6654903
},
{
  "type": "node",
  "id": 946599214,
  "lat": 45.7053794,
  "lon": 9.6652189
},
{
  "type": "node",
  "id": 946599228,
  "lat": 45.7052342,
  "lon": 9.6649844
},
{
  "type": "node",
  "id": 946599245,
  "lat": 45.7054433,
  "lon": 9.6654244
},
{
  "type": "node",
  "id": 946599252,
  "lat": 45.7056669,
  "lon": 9.6649131
},
{
  "type": "node",
  "id": 946599277,
  "lat": 45.7051565,
  "lon": 9.6656887
},
{
  "type": "node",
  "id": 946599302,
  "lat": 45.7055773,
  "lon": 9.6651073
},
{
  "type": "node",
  "id": 946599322,
  "lat": 45.7054172,
  "lon": 9.6655869
},
{
  "type": "node",
  "id": 946599331,
  "lat": 45.7049350,
  "lon": 9.6646911
},
{
  "type": "node",
  "id": 946599333,
  "lat": 45.7050300,
  "lon": 9.6649260
},
{
  "type": "node",
  "id": 946599342,
  "lat": 45.7053255,
  "lon": 9.6657319
},
{
  "type": "node",
  "id": 946599357,
  "lat": 45.7049731,
  "lon": 9.6646845
},
{
  "type": "node",
  "id": 946599358,
  "lat": 45.7053359,
  "lon": 9.6656163
},
{
  "type": "node",
  "id": 946599369,
  "lat": 45.7053971,
  "lon": 9.6650690
},
{
  "type": "node",
  "id": 946599373,
  "lat": 45.7056138,
  "lon": 9.6651129
},
{
  "type": "node",
  "id": 946599387,
  "lat": 45.7054693,
  "lon": 9.6656029
},
{
  "type": "node",
  "id": 946599405,
  "lat": 45.7052015,
  "lon": 9.6652183
},
{
  "type": "node",
  "id": 946599421,
  "lat": 45.7051685,
  "lon": 9.6655714
},
{
  "type": "node",
  "id": 946599437,
  "lat": 45.7054489,
  "lon": 9.6653817
},
{
  "type": "node",
  "id": 946599455,
  "lat": 45.7049095,
  "lon": 9.6647875
},
{
  "type": "node",
  "id": 946599474,
  "lat": 45.7049974,
  "lon": 9.6651598
},
{
  "type": "node",
  "id": 946599476,
  "lat": 45.7053343,
  "lon": 9.6656562
},
{
  "type": "node",
  "id": 946599490,
  "lat": 45.7048938,
  "lon": 9.6651426
},
{
  "type": "node",
  "id": 946599494,
  "lat": 45.7055002,
  "lon": 9.6652469
},
{
  "type": "node",
  "id": 946599503,
  "lat": 45.7055438,
  "lon": 9.6654110
},
{
  "type": "node",
  "id": 1026345675,
  "lat": 45.7048704,
  "lon": 9.6653651
},
{
  "type": "node",
  "id": 1026345743,
  "lat": 45.7049118,
  "lon": 9.6647258
},
{
  "type": "node",
  "id": 4745270028,
  "lat": 45.7038962,
  "lon": 9.6625105
},
{
  "type": "node",
  "id": 4826510786,
  "lat": 45.7037726,
  "lon": 9.6622606
},
{
  "type": "node",
  "id": 1788305893,
  "lat": 45.7032246,
  "lon": 9.6676256
},
{
  "type": "node",
  "id": 1788305894,
  "lat": 45.7032703,
  "lon": 9.6682477
},
{
  "type": "node",
  "id": 1788305897,
  "lat": 45.7033857,
  "lon": 9.6675975
},
{
  "type": "node",
  "id": 1788305923,
  "lat": 45.7034099,
  "lon": 9.6679299
},
{
  "type": "node",
  "id": 1788305936,
  "lat": 45.7033249,
  "lon": 9.6684169
},
{
  "type": "node",
  "id": 1788305969,
  "lat": 45.7034445,
  "lon": 9.6681364
},
{
  "type": "node",
  "id": 1788305972,
  "lat": 45.7034363,
  "lon": 9.6680749
},
{
  "type": "node",
  "id": 1788305973,
  "lat": 45.7035167,
  "lon": 9.6680935
},
{
  "type": "node",
  "id": 1788305985,
  "lat": 45.7036040,
  "lon": 9.6679663
},
{
  "type": "node",
  "id": 1788306014,
  "lat": 45.7033200,
  "lon": 9.6676097
},
{
  "type": "node",
  "id": 1788306045,
  "lat": 45.7034906,
  "lon": 9.6683512
},
{
  "type": "node",
  "id": 1788306053,
  "lat": 45.7032507,
  "lon": 9.6680479
},
{
  "type": "node",
  "id": 1788306065,
  "lat": 45.7035824,
  "lon": 9.6678389
},
{
  "type": "node",
  "id": 1788306082,
  "lat": 45.7033790,
  "lon": 9.6685159
},
{
  "type": "node",
  "id": 1788306096,
  "lat": 45.7034438,
  "lon": 9.6682331
},
{
  "type": "node",
  "id": 1788306097,
  "lat": 45.7035375,
  "lon": 9.6681768
},
{
  "type": "node",
  "id": 5934622031,
  "lat": 45.7035293,
  "lon": 9.6681440
},
{
  "type": "node",
  "id": 1024938497,
  "lat": 45.7036290,
  "lon": 9.6764551
},
{
  "type": "node",
  "id": 1024938499,
  "lat": 45.7034697,
  "lon": 9.6765344
},
{
  "type": "node",
  "id": 1024938503,
  "lat": 45.7034954,
  "lon": 9.6767269
},
{
  "type": "node",
  "id": 1024938507,
  "lat": 45.7034561,
  "lon": 9.6763631
},
{
  "type": "node",
  "id": 1024938508,
  "lat": 45.7034499,
  "lon": 9.6762075
},
{
  "type": "node",
  "id": 1024938510,
  "lat": 45.7034983,
  "lon": 9.6765740
},
{
  "type": "node",
  "id": 1024938512,
  "lat": 45.7037711,
  "lon": 9.6767771
},
{
  "type": "node",
  "id": 1024938514,
  "lat": 45.7034232,
  "lon": 9.6766844
},
{
  "type": "node",
  "id": 1024938517,
  "lat": 45.7032782,
  "lon": 9.6764994
},
{
  "type": "node",
  "id": 1024938520,
  "lat": 45.7035784,
  "lon": 9.6758572
},
{
  "type": "node",
  "id": 1024938526,
  "lat": 45.7036402,
  "lon": 9.6764374
},
{
  "type": "node",
  "id": 1024938528,
  "lat": 45.7034944,
  "lon": 9.6762995
},
{
  "type": "node",
  "id": 1024938532,
  "lat": 45.7033708,
  "lon": 9.6765245
},
{
  "type": "node",
  "id": 1024938534,
  "lat": 45.7035821,
  "lon": 9.6763189
},
{
  "type": "node",
  "id": 1024938535,
  "lat": 45.7035006,
  "lon": 9.6763508
},
{
  "type": "node",
  "id": 1024938545,
  "lat": 45.7036266,
  "lon": 9.6760660
},
{
  "type": "node",
  "id": 1024938548,
  "lat": 45.7034845,
  "lon": 9.6765627
},
{
  "type": "node",
  "id": 1024938551,
  "lat": 45.7034549,
  "lon": 9.6767141
},
{
  "type": "node",
  "id": 1024938553,
  "lat": 45.7034153,
  "lon": 9.6764587
},
{
  "type": "node",
  "id": 1024938560,
  "lat": 45.7034628,
  "lon": 9.6765117
},
{
  "type": "node",
  "id": 1024938562,
  "lat": 45.7037205,
  "lon": 9.6766692
},
{
  "type": "node",
  "id": 1024938564,
  "lat": 45.7035181,
  "lon": 9.6765896
},
{
  "type": "node",
  "id": 1024938566,
  "lat": 45.7033936,
  "lon": 9.6766334
},
{
  "type": "node",
  "id": 1024938568,
  "lat": 45.7032560,
  "lon": 9.6763932
},
{
  "type": "node",
  "id": 1024938570,
  "lat": 45.7033783,
  "lon": 9.6763472
},
{
  "type": "node",
  "id": 1024938577,
  "lat": 45.7035747,
  "lon": 9.6763419
},
{
  "type": "node",
  "id": 1024938579,
  "lat": 45.7035018,
  "lon": 9.6763242
},
{
  "type": "node",
  "id": 1024938583,
  "lat": 45.7033968,
  "lon": 9.6759864
},
{
  "type": "node",
  "id": 1024938585,
  "lat": 45.7035253,
  "lon": 9.6762234
},
{
  "type": "node",
  "id": 1024938588,
  "lat": 45.7034857,
  "lon": 9.6763667
},
{
  "type": "node",
  "id": 1024938592,
  "lat": 45.7033718,
  "lon": 9.6765627
},
{
  "type": "node",
  "id": 1024938594,
  "lat": 45.7037316,
  "lon": 9.6766568
},
{
  "type": "node",
  "id": 1024938596,
  "lat": 45.7038761,
  "lon": 9.6767382
},
{
  "type": "node",
  "id": 1029782685,
  "lat": 45.7041781,
  "lon": 9.6758492
},
{
  "type": "node",
  "id": 1029782696,
  "lat": 45.7042225,
  "lon": 9.6758806
},
{
  "type": "node",
  "id": 1029782702,
  "lat": 45.7047544,
  "lon": 9.6754261
},
{
  "type": "node",
  "id": 1029782710,
  "lat": 45.7040561,
  "lon": 9.6755688
},
{
  "type": "node",
  "id": 1029782718,
  "lat": 45.7040802,
  "lon": 9.6754072
},
{
  "type": "node",
  "id": 1029782725,
  "lat": 45.7042145,
  "lon": 9.6756538
},
{
  "type": "node",
  "id": 1029782730,
  "lat": 45.7045886,
  "lon": 9.6755570
},
{
  "type": "node",
  "id": 1029782736,
  "lat": 45.7040609,
  "lon": 9.6759890
},
{
  "type": "node",
  "id": 1029782738,
  "lat": 45.7045820,
  "lon": 9.6764323
},
{
  "type": "node",
  "id": 1029782744,
  "lat": 45.7045677,
  "lon": 9.6756786
},
{
  "type": "node",
  "id": 1029782753,
  "lat": 45.7041340,
  "lon": 9.6761031
},
{
  "type": "node",
  "id": 1029782754,
  "lat": 45.7046761,
  "lon": 9.6755739
},
{
  "type": "node",
  "id": 1029782769,
  "lat": 45.7042268,
  "lon": 9.6761592
},
{
  "type": "node",
  "id": 1029782772,
  "lat": 45.7041760,
  "lon": 9.6756937
},
{
  "type": "node",
  "id": 1029782784,
  "lat": 45.7042022,
  "lon": 9.6758783
},
{
  "type": "node",
  "id": 1029782789,
  "lat": 45.7043221,
  "lon": 9.6761181
},
{
  "type": "node",
  "id": 1029782799,
  "lat": 45.7042038,
  "lon": 9.6758492
},
{
  "type": "node",
  "id": 1029782814,
  "lat": 45.7041889,
  "lon": 9.6754280
},
{
  "type": "node",
  "id": 1029782817,
  "lat": 45.7042150,
  "lon": 9.6755665
},
{
  "type": "node",
  "id": 1029782830,
  "lat": 45.7043104,
  "lon": 9.6755701
},
{
  "type": "node",
  "id": 1029782834,
  "lat": 45.7040492,
  "lon": 9.6754799
},
{
  "type": "node",
  "id": 1029782839,
  "lat": 45.7041984,
  "lon": 9.6756538
},
{
  "type": "node",
  "id": 1029782848,
  "lat": 45.7045925,
  "lon": 9.6756786
},
{
  "type": "node",
  "id": 1029782858,
  "lat": 45.7040648,
  "lon": 9.6761069
},
{
  "type": "node",
  "id": 1029782863,
  "lat": 45.7046957,
  "lon": 9.6764192
},
{
  "type": "node",
  "id": 1029782884,
  "lat": 45.7041393,
  "lon": 9.6761686
},
{
  "type": "node",
  "id": 1029782896,
  "lat": 45.7041984,
  "lon": 9.6756921
},
{
  "type": "node",
  "id": 1029782906,
  "lat": 45.7047662,
  "lon": 9.6755701
},
{
  "type": "node",
  "id": 1029782917,
  "lat": 45.7042229,
  "lon": 9.6759816
},
{
  "type": "node",
  "id": 1029782944,
  "lat": 45.7042320,
  "lon": 9.6761125
},
{
  "type": "node",
  "id": 3388091452,
  "lat": 45.7035589,
  "lon": 9.6758710
},
{
  "type": "node",
  "id": 6414472530,
  "lat": 45.7041771,
  "lon": 9.6757721
},
{
  "type": "node",
  "id": 1799701146,
  "lat": 45.7338678,
  "lon": 9.7309357
},
{
  "type": "node",
  "id": 3021965877,
  "lat": 45.7342106,
  "lon": 9.7315277
},
{
  "type": "node",
  "id": 3021965880,
  "lat": 45.7342181,
  "lon": 9.7315679
},
{
  "type": "node",
  "id": 3659951954,
  "lat": 45.7342426,
  "lon": 9.7314934
},
{
  "type": "node",
  "id": 3659951956,
  "lat": 45.7342569,
  "lon": 9.7315130
},
{
  "type": "node",
  "id": 5134885515,
  "lat": 45.7339559,
  "lon": 9.7306151
},
{
  "type": "node",
  "id": 5134885516,
  "lat": 45.7339746,
  "lon": 9.7306305
},
{
  "type": "node",
  "id": 5134885517,
  "lat": 45.7339887,
  "lon": 9.7306654
},
{
  "type": "node",
  "id": 5134885518,
  "lat": 45.7339915,
  "lon": 9.7307311
},
{
  "type": "node",
  "id": 5134885519,
  "lat": 45.7339709,
  "lon": 9.7307834
},
{
  "type": "node",
  "id": 5134885520,
  "lat": 45.7340317,
  "lon": 9.7308745
},
{
  "type": "node",
  "id": 5134885882,
  "lat": 45.7338270,
  "lon": 9.7307099
},
{
  "type": "node",
  "id": 5134885883,
  "lat": 45.7338735,
  "lon": 9.7306962
},
{
  "type": "node",
  "id": 5134885884,
  "lat": 45.7338932,
  "lon": 9.7306345
},
{
  "type": "node",
  "id": 5134885887,
  "lat": 45.7340121,
  "lon": 9.7307686
},
{
  "type": "node",
  "id": 5135213350,
  "lat": 45.7339339,
  "lon": 9.7309110
},
{
  "type": "node",
  "id": 1936851171,
  "lat": 45.7164120,
  "lon": 9.8818161
},
{
  "type": "node",
  "id": 1936851174,
  "lat": 45.7164475,
  "lon": 9.8821532
},
{
  "type": "node",
  "id": 1936851178,
  "lat": 45.7164587,
  "lon": 9.8819728
},
{
  "type": "node",
  "id": 1936851182,
  "lat": 45.7165044,
  "lon": 9.8817556
},
{
  "type": "node",
  "id": 1936851195,
  "lat": 45.7165500,
  "lon": 9.8819112
},
{
  "type": "node",
  "id": 1936851201,
  "lat": 45.7165854,
  "lon": 9.8820459
},
{
  "type": "node",
  "id": 1936924992,
  "lat": 45.7164852,
  "lon": 9.8822427
},
{
  "type": "node",
  "id": 1936925024,
  "lat": 45.7166159,
  "lon": 9.8816835
},
{
  "type": "node",
  "id": 1936925031,
  "lat": 45.7166915,
  "lon": 9.8819802
},
{
  "type": "node",
  "id": 1936925034,
  "lat": 45.7167073,
  "lon": 9.8820690
},
{
  "type": "node",
  "id": 5467725150,
  "lat": 45.8163770,
  "lon": 9.3224190
},
{
  "type": "node",
  "id": 5467725151,
  "lat": 45.8163089,
  "lon": 9.3225722
},
{
  "type": "node",
  "id": 5467725152,
  "lat": 45.8162045,
  "lon": 9.3224767
},
{
  "type": "node",
  "id": 5467725153,
  "lat": 45.8162725,
  "lon": 9.3223235
},
{
  "type": "node",
  "id": 2994812134,
  "lat": 45.8063118,
  "lon": 9.4042915
},
{
  "type": "node",
  "id": 2994812433,
  "lat": 45.8063836,
  "lon": 9.4035180
},
{
  "type": "node",
  "id": 2994812135,
  "lat": 45.8064608,
  "lon": 9.4036628
},
{
  "type": "node",
  "id": 2994812234,
  "lat": 45.8066673,
  "lon": 9.4035722
},
{
  "type": "node",
  "id": 2994812336,
  "lat": 45.8065956,
  "lon": 9.4043456
},
{
  "type": "node",
  "id": 2994812434,
  "lat": 45.8064127,
  "lon": 9.4041807
},
{
  "type": "node",
  "id": 2994812435,
  "lat": 45.8065184,
  "lon": 9.4042009
},
{
  "type": "node",
  "id": 2994812436,
  "lat": 45.8065664,
  "lon": 9.4036829
},
{
  "type": "node",
  "id": 2917075833,
  "lat": 45.9000276,
  "lon": 9.3323009
},
{
  "type": "node",
  "id": 2917076199,
  "lat": 45.9002311,
  "lon": 9.3322643
},
{
  "type": "node",
  "id": 2917076249,
  "lat": 45.9002383,
  "lon": 9.3322390
},
{
  "type": "node",
  "id": 2917076251,
  "lat": 45.9002394,
  "lon": 9.3323221
},
{
  "type": "node",
  "id": 2917076253,
  "lat": 45.9002415,
  "lon": 9.3322613
},
{
  "type": "node",
  "id": 2917075856,
  "lat": 45.9000412,
  "lon": 9.3323957
},
{
  "type": "node",
  "id": 2917075859,
  "lat": 45.9000441,
  "lon": 9.3324162
},
{
  "type": "node",
  "id": 2917075869,
  "lat": 45.9000523,
  "lon": 9.3324137
},
{
  "type": "node",
  "id": 2917075949,
  "lat": 45.9001160,
  "lon": 9.3323768
},
{
  "type": "node",
  "id": 2917075952,
  "lat": 45.9001179,
  "lon": 9.3323945
},
{
  "type": "node",
  "id": 2917076115,
  "lat": 45.9001678,
  "lon": 9.3323615
},
{
  "type": "node",
  "id": 2917076136,
  "lat": 45.9001821,
  "lon": 9.3323571
},
{
  "type": "node",
  "id": 2917076206,
  "lat": 45.9002360,
  "lon": 9.3323407
},
{
  "type": "node",
  "id": 2917076254,
  "lat": 45.9002418,
  "lon": 9.3323389
},
{
  "type": "node",
  "id": 6590615148,
  "lat": 45.7353944,
  "lon": 9.5830651
},
{
  "type": "node",
  "id": 6590615149,
  "lat": 45.7353457,
  "lon": 9.5826413
},
{
  "type": "node",
  "id": 6590615150,
  "lat": 45.7350518,
  "lon": 9.5827271
},
{
  "type": "node",
  "id": 6590615151,
  "lat": 45.7351061,
  "lon": 9.5831402
},
{
  "type": "node",
  "id": 1402808212,
  "lat": 45.8736410,
  "lon": 9.4830127
},
{
  "type": "node",
  "id": 1402808217,
  "lat": 45.8736560,
  "lon": 9.4830014
},
{
  "type": "node",
  "id": 1402808308,
  "lat": 45.8738658,
  "lon": 9.4828810
},
{
  "type": "node",
  "id": 3818834783,
  "lat": 45.8734426,
  "lon": 9.4819455
},
{
  "type": "node",
  "id": 4936190108,
  "lat": 45.8737729,
  "lon": 9.4829003
},
{
  "type": "node",
  "id": 1402808203,
  "lat": 45.8736255,
  "lon": 9.4830826
},
{
  "type": "node",
  "id": 1402808205,
  "lat": 45.8737092,
  "lon": 9.4856999
},
{
  "type": "node",
  "id": 3892208284,
  "lat": 45.8848533,
  "lon": 9.4789085
},
{
  "type": "node",
  "id": 1402808604,
  "lat": 45.8899073,
  "lon": 9.4770083
},
{
  "type": "node",
  "id": 5764114606,
  "lat": 45.8569684,
  "lon": 9.5251406
},
{
  "type": "node",
  "id": 5764114607,
  "lat": 45.8569306,
  "lon": 9.5250006
},
{
  "type": "node",
  "id": 5764114609,
  "lat": 45.8570760,
  "lon": 9.5250749
},
{
  "type": "node",
  "id": 5764114612,
  "lat": 45.8570407,
  "lon": 9.5249394
},
{
  "type": "node",
  "id": 5764130698,
  "lat": 45.8570090,
  "lon": 9.5251123
},
{
  "type": "node",
  "id": 5764224872,
  "lat": 45.8569587,
  "lon": 9.5249850
},
{
  "type": "node",
  "id": 5764224873,
  "lat": 45.8570048,
  "lon": 9.5249594
},
{
  "type": "node",
  "id": 3190109656,
  "lat": 45.9320208,
  "lon": 9.4862689
},
{
  "type": "node",
  "id": 3190110625,
  "lat": 45.9319167,
  "lon": 9.4861600
},
{
  "type": "node",
  "id": 3190111183,
  "lat": 45.9319409,
  "lon": 9.4860589
},
{
  "type": "node",
  "id": 3190111196,
  "lat": 45.9319467,
  "lon": 9.4861802
},
{
  "type": "node",
  "id": 3190111197,
  "lat": 45.9319478,
  "lon": 9.4860303
},
{
  "type": "node",
  "id": 3190111204,
  "lat": 45.9319535,
  "lon": 9.4861658
},
{
  "type": "node",
  "id": 3190111260,
  "lat": 45.9319802,
  "lon": 9.4860462
},
{
  "type": "node",
  "id": 3190111266,
  "lat": 45.9319822,
  "lon": 9.4860480
},
{
  "type": "node",
  "id": 3190111273,
  "lat": 45.9319901,
  "lon": 9.4862316
},
{
  "type": "node",
  "id": 3190111292,
  "lat": 45.9320002,
  "lon": 9.4862057
},
{
  "type": "node",
  "id": 3190111404,
  "lat": 45.9320429,
  "lon": 9.4860992
},
{
  "type": "node",
  "id": 3190111409,
  "lat": 45.9320458,
  "lon": 9.4862151
},
{
  "type": "node",
  "id": 3190111418,
  "lat": 45.9320501,
  "lon": 9.4862192
},
{
  "type": "node",
  "id": 3190111495,
  "lat": 45.9320682,
  "lon": 9.4861779
},
{
  "type": "node",
  "id": 3190111497,
  "lat": 45.9320696,
  "lon": 9.4861269
},
{
  "type": "node",
  "id": 3190111519,
  "lat": 45.9320840,
  "lon": 9.4861416
},
{
  "type": "node",
  "id": 5322647376,
  "lat": 45.9492740,
  "lon": 9.4437220
},
{
  "type": "node",
  "id": 5322647377,
  "lat": 45.9491150,
  "lon": 9.4437100
},
{
  "type": "node",
  "id": 5322647379,
  "lat": 45.9492170,
  "lon": 9.4436750
},
{
  "type": "node",
  "id": 5322647381,
  "lat": 45.9492250,
  "lon": 9.4436610
},
{
  "type": "node",
  "id": 5322647382,
  "lat": 45.9492040,
  "lon": 9.4436600
},
{
  "type": "node",
  "id": 5322647383,
  "lat": 45.9492030,
  "lon": 9.4436580
},
{
  "type": "node",
  "id": 5322647384,
  "lat": 45.9491830,
  "lon": 9.4436330
},
{
  "type": "node",
  "id": 5323970066,
  "lat": 45.9492600,
  "lon": 9.4437046
},
{
  "type": "node",
  "id": 5322647372,
  "lat": 45.9491970,
  "lon": 9.4438850
},
{
  "type": "node",
  "id": 5322647373,
  "lat": 45.9490190,
  "lon": 9.4438650
},
{
  "type": "node",
  "id": 5322647374,
  "lat": 45.9489920,
  "lon": 9.4437990
},
{
  "type": "node",
  "id": 5322647375,
  "lat": 45.9491230,
  "lon": 9.4437780
},
{
  "type": "node",
  "id": 3021965878,
  "lat": 45.7344493,
  "lon": 9.7312929
},
{
  "type": "node",
  "id": 3021965881,
  "lat": 45.7345296,
  "lon": 9.7314602
},
{
  "type": "node",
  "id": 3021965884,
  "lat": 45.7343164,
  "lon": 9.7317703
},
{
  "type": "node",
  "id": 3021965887,
  "lat": 45.7345450,
  "lon": 9.7313829
},
{
  "type": "node",
  "id": 3659951957,
  "lat": 45.7343530,
  "lon": 9.7313717
},
{
  "type": "node",
  "id": 3659951958,
  "lat": 45.7343731,
  "lon": 9.7314026
},
{
  "type": "node",
  "id": 3659951959,
  "lat": 45.7344870,
  "lon": 9.7316230
},
{
  "type": "node",
  "id": 5135212813,
  "lat": 45.7345452,
  "lon": 9.7314426
},
{
  "type": "node",
  "id": 5135212814,
  "lat": 45.7345367,
  "lon": 9.7313681
},
{
  "type": "node",
  "id": 5135212815,
  "lat": 45.7344970,
  "lon": 9.7313507
},
{
  "type": "node",
  "id": 5135213360,
  "lat": 45.7343594,
  "lon": 9.7317202
},
{
  "type": "node",
  "id": 5135213361,
  "lat": 45.7344726,
  "lon": 9.7315995
},
{
  "type": "node",
  "id": 5135213362,
  "lat": 45.7343654,
  "lon": 9.7317410
},
{
  "type": "node",
  "id": 5135213363,
  "lat": 45.7345681,
  "lon": 9.7315344
},
{
  "type": "node",
  "id": 5135213364,
  "lat": 45.7345531,
  "lon": 9.7314204
},
{
  "type": "node",
  "id": 5135213365,
  "lat": 45.7345218,
  "lon": 9.7313540
},
{
  "type": "node",
  "id": 5135213366,
  "lat": 45.7344782,
  "lon": 9.7313668
},
{
  "type": "node",
  "id": 1482073004,
  "lat": 45.7590679,
  "lon": 9.7930436
},
{
  "type": "node",
  "id": 1482073008,
  "lat": 45.7591203,
  "lon": 9.7931737
},
{
  "type": "node",
  "id": 1482073011,
  "lat": 45.7592031,
  "lon": 9.7927986
},
{
  "type": "node",
  "id": 3139054930,
  "lat": 45.7592626,
  "lon": 9.7928660
},
{
  "type": "node",
  "id": 6482191485,
  "lat": 45.7590902,
  "lon": 9.7930689
},
{
  "type": "node",
  "id": 6482191486,
  "lat": 45.7590811,
  "lon": 9.7931005
},
{
  "type": "node",
  "id": 6482191487,
  "lat": 45.7590848,
  "lon": 9.7931289
},
{
  "type": "node",
  "id": 6482191488,
  "lat": 45.7590975,
  "lon": 9.7931570
},
{
  "type": "node",
  "id": 6482191489,
  "lat": 45.7591557,
  "lon": 9.7931390
},
{
  "type": "node",
  "id": 6482191490,
  "lat": 45.7591377,
  "lon": 9.7931723
},
{
  "type": "node",
  "id": 6482191545,
  "lat": 45.7591830,
  "lon": 9.7931695
},
{
  "type": "node",
  "id": 6482195663,
  "lat": 45.7592307,
  "lon": 9.7930815
},
{
  "type": "node",
  "id": 6482195664,
  "lat": 45.7592385,
  "lon": 9.7930672
},
{
  "type": "node",
  "id": 6482195666,
  "lat": 45.7593155,
  "lon": 9.7929250
},
{
  "type": "node",
  "id": 813247304,
  "lat": 45.8210045,
  "lon": 9.9810397
},
{
  "type": "node",
  "id": 813247450,
  "lat": 45.8209835,
  "lon": 9.9809803
},
{
  "type": "node",
  "id": 813247143,
  "lat": 45.8204617,
  "lon": 9.9814348
},
{
  "type": "node",
  "id": 813247203,
  "lat": 45.8205726,
  "lon": 9.9812449
},
{
  "type": "node",
  "id": 813247409,
  "lat": 45.8205605,
  "lon": 9.9812107
},
{
  "type": "node",
  "id": 813247488,
  "lat": 45.8207077,
  "lon": 9.9811466
},
{
  "type": "node",
  "id": 813247556,
  "lat": 45.8204189,
  "lon": 9.9813137
},
{
  "type": "node",
  "id": 2529653778,
  "lat": 45.8207174,
  "lon": 9.9811740
},
{
  "type": "node",
  "id": 2782715303,
  "lat": 45.8695355,
  "lon": 9.8849942
},
{
  "type": "node",
  "id": 2782715304,
  "lat": 45.8694925,
  "lon": 9.8848816
},
{
  "type": "node",
  "id": 2782715305,
  "lat": 45.8695691,
  "lon": 9.8847716
},
{
  "type": "node",
  "id": 2782715306,
  "lat": 45.8696494,
  "lon": 9.8848816
},
{
  "type": "node",
  "id": 2782715307,
  "lat": 45.8695573,
  "lon": 9.8850170
},
{
  "type": "node",
  "id": 2782715308,
  "lat": 45.8695467,
  "lon": 9.8849647
},
{
  "type": "node",
  "id": 2947964610,
  "lat": 45.8728550,
  "lon": 9.8883444
},
{
  "type": "node",
  "id": 2947964611,
  "lat": 45.8728358,
  "lon": 9.8883118
},
{
  "type": "node",
  "id": 2947964612,
  "lat": 45.8727070,
  "lon": 9.8882940
},
{
  "type": "node",
  "id": 2947964613,
  "lat": 45.8726871,
  "lon": 9.8883355
},
{
  "type": "node",
  "id": 2947964614,
  "lat": 45.8728089,
  "lon": 9.8884453
},
{
  "type": "node",
  "id": 322008462,
  "lat": 45.8145518,
  "lon": 10.0724364
},
{
  "type": "node",
  "id": 322008480,
  "lat": 45.8144326,
  "lon": 10.0725366
},
{
  "type": "node",
  "id": 2755980231,
  "lat": 45.8146603,
  "lon": 10.0727782
},
{
  "type": "node",
  "id": 2755980241,
  "lat": 45.8146834,
  "lon": 10.0727588
},
{
  "type": "node",
  "id": 322008438,
  "lat": 45.8148124,
  "lon": 10.0734668
},
{
  "type": "node",
  "id": 322008445,
  "lat": 45.8150978,
  "lon": 10.0732269
},
{
  "type": "node",
  "id": 322652685,
  "lat": 45.8149287,
  "lon": 10.0730622
},
{
  "type": "node",
  "id": 322652692,
  "lat": 45.8148257,
  "lon": 10.0730698
},
{
  "type": "node",
  "id": 2755980263,
  "lat": 45.8147643,
  "lon": 10.0730328
},
{
  "type": "node",
  "id": 2755980279,
  "lat": 45.8147987,
  "lon": 10.0730039
},
{
  "type": "node",
  "id": 2755980317,
  "lat": 45.8149047,
  "lon": 10.0730034
},
{
  "type": "node",
  "id": 2755980379,
  "lat": 45.8150045,
  "lon": 10.0729984
},
{
  "type": "way",
  "id": 168232744,
  "nodes": [
    1795235623,
    1795235620,
    1795235618,
    1950174147,
    1795235617,
    1924837681,
    1795235627,
    1795235628,
    1795235630,
    1795235632,
    1795235633,
    1950163846,
    1795235634,
    1795235623
  ]
},
{
  "type": "way",
  "id": 193629600,
  "nodes": [
    2041549814,
    2041549812,
    2041549811,
    2041549813,
    2041549814
  ]
},
{
  "type": "way",
  "id": 316665128,
  "nodes": [
    3228068574,
    3228068570,
    3228068572,
    3228068567,
    3579837711,
    3228068568,
    3228068575,
    3228068574
  ]
},
{
  "type": "way",
  "id": 321040160,
  "nodes": [
    3277534464,
    3277534469,
    3277534436,
    3277534439,
    3277534387,
    3277534389,
    3277534416,
    3277534417,
    3277534396,
    3277534402,
    3277534464
  ]
},
{
  "type": "way",
  "id": 321040172,
  "nodes": [
    3277534448,
    3277534451,
    3277534426,
    3277534424,
    3277534448
  ]
},
{
  "type": "way",
  "id": 81247625,
  "nodes": [
    946599194,
    946599494,
    946599214,
    946599369,
    946599194
  ]
},
{
  "type": "way",
  "id": 81247631,
  "nodes": [
    946599228,
    946599405,
    946599474,
    946599333,
    946599228
  ]
},
{
  "type": "way",
  "id": 81247637,
  "nodes": [
    946599252,
    946599357,
    946599331,
    1026345743,
    946599455,
    369334221,
    946599490,
    1026345675,
    946599211,
    946599358,
    946599421,
    946599277,
    946599342,
    946599476,
    946599201,
    946599322,
    946599387,
    946599182,
    946599245,
    946599437,
    946599503,
    946599302,
    946599373,
    946599252
  ]
},
{
  "type": "way",
  "id": 295732626,
  "nodes": [
    2994812234,
    2994812336,
    2994812134,
    2994812433,
    2994812234
  ]
},
{
  "type": "way",
  "id": 295732624,
  "nodes": [
    2994812436,
    2994812435,
    2994812434,
    2994812135,
    2994812436
  ]
}

  ]
}
