{
  "version": 0.6,
  "generator": "Overpass API 0.7.55.9 ab41fea6",
  "osm3s": {
    "timestamp_osm_base": "2020-02-14T11:57:02Z",
    "copyright": "The data included in this document is from www.openstreetmap.org. The data is made available under ODbL."
  },
  "elements": [

{
  "type": "node",
  "id": 135081417,
  "lat": 49.7529485,
  "lon": 14.3410779,
  "tags": {
    "created_by": "JOSM",
    "name": "Křižovnický špýchar",
    "tourism": "museum"
  }
},
{
  "type": "node",
  "id": 275677007,
  "lat": 49.7737909,
  "lon": 14.2070694,
  "tags": {
    "name": "Památník Karla Čapka",
    "tourism": "museum"
  }
},
{
  "type": "node",
  "id": 286121059,
  "lat": 49.7878716,
  "lon": 14.2936472,
  "tags": {
    "name": "Muzeum zlata",
    "tourism": "museum"
  }
},
{
  "type": "node",
  "id": 292754380,
  "lat": 50.0652396,
  "lon": 14.4212153,
  "tags": {
    "addr:city": "Praha",
    "addr:country": "CZ",
    "addr:place": "Vyšehrad",
    "addr:postcode": "12800",
    "addr:suburb": "Praha 2",
    "layer": "-1",
    "name": "Gorlice",
    "operator": "Národní kulturní památka Vyšehrad",
    "phone": "+420 261 225 304",
    "tourism": "museum",
    "website": "http://www.praha-vysehrad.cz/",
    "wikidata": "Q12766418",
    "wikipedia": "cs:Gorlice (Vyšehrad)"
  }
},
{
  "type": "node",
  "id": 292756808,
  "lat": 50.0652045,
  "lon": 14.4192720,
  "tags": {
    "addr:city": "Praha",
    "addr:conscriptionnumber": "46",
    "addr:country": "CZ",
    "addr:housenumber": "46/1",
    "addr:place": "Vyšehrad",
    "addr:postcode": "12800",
    "addr:street": "V pevnosti",
    "addr:streetnumber": "1",
    "addr:suburb": "Praha 2",
    "layer": "-1",
    "name": "Vyšehradské kasematy",
    "name:en": "Vyšehrad Casemates",
    "name:ru": "Вышеградские казематы",
    "operator": "Národní kulturní památka Vyšehrad",
    "phone": "+420 261 225 304",
    "ref:ruian:addr": "21758239",
    "source:addr": "cuzk:ruian",
    "source:loc": "survey",
    "tourism": "museum",
    "website": "http://www.praha-vysehrad.cz/"
  }
},
{
  "type": "node",
  "id": 296507713,
  "lat": 50.0850310,
  "lon": 14.4181595,
  "tags": {
    "addr:conscriptionnumber": "241",
    "addr:housenumber": "241/7",
    "addr:postcode": "11000",
    "addr:street": "Husova",
    "addr:streetnumber": "7",
    "name:en": "Czech Beer Museum",
    "name:ru": "Чешский музей пива",
    "opening_hours": "Mo-Su 10:00-03:00",
    "source:addr": "uir_adr",
    "tourism": "museum",
    "uir_adr:ADRESA_KOD": "21717257",
    "wheelchair": "no"
  }
},
{
  "type": "node",
  "id": 296583351,
  "lat": 50.0871279,
  "lon": 14.4233348,
  "tags": {
    "addr:conscriptionnumber": "558",
    "addr:housenumber": "558/12",
    "addr:place": "Staré Město",
    "addr:postcode": "11000",
    "addr:street": "Celetná",
    "addr:streetnumber": "12",
    "name": "Museum of Torture",
    "opening_hours": "Mo-Su 10:00-20:00",
    "phone": "+420 224 282 483",
    "ref:ruian:addr": "21721611",
    "tourism": "museum"
  }
},
{
  "type": "node",
  "id": 296587523,
  "lat": 50.0914341,
  "lon": 14.4088892,
  "tags": {
    "addr:city": "Praha",
    "addr:conscriptionnumber": "150",
    "addr:housenumber": "150/4",
    "addr:postcode": "11800",
    "addr:street": "Valdštejnská",
    "addr:streetnumber": "4",
    "contact:email": "kouzlostarychcasu@gmail.com",
    "contact:facebook": "https://www.facebook.com/MuzeumKouzlostarychcasu",
    "contact:phone": "+420 723 960 308",
    "contact:website": "http://kouzlostarychcasu.com",
    "description": "Historické oděvy a doplňky z let 1850-1920/Historical clothing and accessories from the period 1850-1920",
    "fee": "yes",
    "name": "Muzeum Kouzlo starých časů",
    "name:en": "Old Times Museum",
    "name:es": "Museo de los Viejos Tiempos",
    "opening_hours": "Tu-Su 10:00-18:00",
    "source:addr": "uir_adr",
    "tourism": "museum",
    "uir_adr:ADRESA_KOD": "21695571"
  }
},
{
  "type": "node",
  "id": 296618507,
  "lat": 50.0803124,
  "lon": 14.4532716,
  "tags": {
    "addr:conscriptionnumber": "1320",
    "addr:housenumber": "24/13000",
    "addr:postcode": "13000",
    "addr:street": "Velehradská",
    "addr:streetnumber": "24",
    "name": "Galerie Troba",
    "name:cs": "Galerie Troba",
    "name:en": "Galerie Troba",
    "source:addr": "uir_adr",
    "tourism": "museum",
    "uir_adr:ADRESA_KOD": "21761132"
  }
},
{
  "type": "node",
  "id": 296690113,
  "lat": 50.0822983,
  "lon": 14.4205071,
  "tags": {
    "addr:conscriptionnumber": "58",
    "addr:housenumber": "11",
    "addr:postcode": "11000",
    "addr:street": "Charvátova",
    "addr:streetnumber": "11",
    "name": "NaFilm",
    "source:addr": "uir_adr",
    "tourism": "museum",
    "uir_adr:ADRESA_KOD": "21701253"
  }
},
{
  "type": "node",
  "id": 296693693,
  "lat": 50.0876632,
  "lon": 14.4451644,
  "tags": {
    "addr:conscriptionnumber": "1600",
    "addr:housenumber": "1600/2",
    "addr:postcode": "13000",
    "addr:street": "U Památníku",
    "addr:streetnumber": "2",
    "name": "Vojenský historický ústav Praha",
    "name:cs": "Vojenský historický ústav Praha",
    "name:en": "Military History Institute in Prague",
    "name:ru": "Военный музей",
    "phone": "+420 973 204 951",
    "source:addr": "uir_adr",
    "tourism": "museum",
    "uir_adr:ADRESA_KOD": "21784191",
    "website": "http://www.vhu.cz/",
    "wikidata": "Q11863304",
    "wikipedia": "cs:Vojenský historický ústav Praha"
  }
},
{
  "type": "node",
  "id": 296808786,
  "lat": 49.9650175,
  "lon": 14.0720182,
  "tags": {
    "addr:conscriptionnumber": "14",
    "addr:housenumber": "14/5",
    "addr:place": "Beroun-Centrum",
    "addr:postcode": "26601",
    "addr:street": "Zámečnická",
    "addr:streetnumber": "5",
    "name": "Muzeum berounské keramiky",
    "opening_hours": "Tu-Sa 10:00-17:00",
    "ref:ruian:addr": "5923484",
    "tourism": "museum"
  }
},
{
  "type": "node",
  "id": 344975004,
  "lat": 50.0839681,
  "lon": 14.4159284,
  "tags": {
    "addr:city": "Praha",
    "addr:conscriptionnumber": "269",
    "addr:country": "CZ",
    "addr:housenumber": "269/1",
    "addr:place": "Staré Město",
    "addr:postcode": "11000",
    "addr:street": "Betlémské náměstí",
    "addr:streetnumber": "1",
    "addr:suburb": "Praha 1",
    "email": "naprstek@nm.cz",
    "name": "Náprstkovo muzeum",
    "name:cs": "Náprstkovo muzeum",
    "name:en": "Náprstek Museum",
    "operator": "Národní muzeum",
    "phone": "+420 224 497 500",
    "ref:ruian:addr": "21717648",
    "source:addr": "cuzk:ruian",
    "source:loc": "survey",
    "tourism": "museum",
    "website": "https://www.nm.cz/",
    "wheelchair": "limited",
    "wikidata": "Q631349",
    "wikipedia": "cs:Náprstkovo muzeum asijských, afrických a amerických kultur"
  }
},
{
  "type": "node",
  "id": 355003395,
  "lat": 50.0755720,
  "lon": 14.4157816,
  "tags": {
    "addr:city": "Praha",
    "addr:country": "CZ",
    "addr:place": "Nové Město",
    "addr:postcode": "12000",
    "addr:street": "Resslova",
    "addr:suburb": "Praha 2",
    "name": "Galerie VIA ART",
    "phone": "+420 224 916 650",
    "tourism": "museum",
    "website": "http://www.galerieviaart.com/",
    "wheelchair": "yes"
  }
},
{
  "type": "node",
  "id": 390278818,
  "lat": 50.0635702,
  "lon": 14.4164557,
  "tags": {
    "facebook": "https://www.facebook.com/vysehradgalerie",
    "name": "Galerie Vyšehrad",
    "name:en": "Vyšehrad Gallery",
    "name:ru": "Галерея Вышеграда",
    "operator": "Národní kulturní památka Vyšehrad",
    "phone": "+420 261 225 304",
    "tourism": "museum",
    "website": "http://www.praha-vysehrad.cz/"
  }
},
{
  "type": "node",
  "id": 390278819,
  "lat": 50.0634338,
  "lon": 14.4168397,
  "tags": {
    "name": "Gotický sklep",
    "name:en": "Gothic Cellar",
    "name:ru": "Готский склеп",
    "operator": "Národní kulturní památka Vyšehrad",
    "phone": "+420 261 225 304",
    "tourism": "museum",
    "website": "http://www.praha-vysehrad.cz/"
  }
},
{
  "type": "node",
  "id": 412271532,
  "lat": 50.0320785,
  "lon": 14.5987160,
  "tags": {
    "tourism": "museum"
  }
},
{
  "type": "node",
  "id": 443297509,
  "lat": 50.0881952,
  "lon": 14.4104720,
  "tags": {
    "name": "Kafka Museum",
    "name:ru": "Музей Кафки",
    "name:tr": "Kafka Müzesi",
    "name:zh": "卡夫卡博物館",
    "opening_hours": "Mo-Su 10:00-18:00",
    "tourism": "museum",
    "website": "http://kafkamuseum.cz"
  }
},
{
  "type": "node",
  "id": 475376666,
  "lat": 50.1067852,
  "lon": 14.4475546,
  "tags": {
    "addr:city": "Praha",
    "addr:conscriptionnumber": "793",
    "addr:country": "CZ",
    "addr:housenumber": "793/1",
    "addr:place": "Holešovice",
    "addr:postcode": "17000",
    "addr:street": "Poupětova",
    "addr:streetnumber": "1",
    "addr:suburb": "Praha 7",
    "description:en": "Centre for Contemporary Art",
    "email": "infocentrum@dox.cz",
    "name": "DOX",
    "opening_hours": "Sa-Mo 10:00-18:00; We, Fr 11:00-19:00; Th 11:00-21:00",
    "phone": "+420 295 568 123",
    "ref:ruian:addr": "22303413",
    "source:addr": "cuzk:ruian",
    "tourism": "museum",
    "website": "https://www.dox.cz/",
    "wheelchair": "yes",
    "wikidata": "Q11722838",
    "wikipedia": "cs:Centrum současného umění DOX"
  }
},
{
  "type": "node",
  "id": 638426540,
  "lat": 50.1581976,
  "lon": 14.3994111,
  "tags": {
    "addr:conscriptionnumber": "1",
    "addr:country": "CZ",
    "addr:housenumber": "1",
    "addr:place": "Roztoky",
    "addr:postcode": "25263",
    "addr:street": "Zámek",
    "email": "muzeum@muzeum-roztoky.cz",
    "name": "Středočeské muzeum v Roztokách u Prahy",
    "name:en": "Central Bohemian Museum in Roztoky",
    "opening_hours": "We-Su 10:00-18:00",
    "operator": "Středočeský kraj",
    "phone": "+420 233 029 011",
    "ref:ruian:addr": "12870161",
    "tourism": "museum",
    "website": "https://www.muzeum-roztoky.cz/",
    "wheelchair": "yes",
    "wikidata": "Q18642684",
    "wikipedia": "cs:Středočeské muzeum v Roztokách u Prahy"
  }
},
{
  "type": "node",
  "id": 993541537,
  "lat": 50.1015228,
  "lon": 14.4323339,
  "tags": {
    "addr:city": "Praha 7",
    "addr:housenumber": "530/47",
    "addr:postcode": "17000",
    "addr:street": "Dukelských hrdinů",
    "addr:streetnumber": "47",
    "description": "Umění 20. a 21. století",
    "description:de": "Kunst des 20. und 21. Jahrhunderts",
    "description:en": "Art of the 20th and 21st Centuries",
    "name": "Národní galerie v Praze - Veletržní palác",
    "name:cs": "Národní galerie v Praze - Veletržní palác",
    "name:de": "Nationalgalerie Prag - Messepalast",
    "name:en": "National Gallery in Prague - Trade Fair Palace",
    "name:ru": "Ярмарочный Дворец",
    "operator": "Národní galerie v Praze",
    "phone": "+420 224 301 122",
    "tourism": "museum",
    "website": "https://www.ngprague.cz/",
    "wheelchair": "limited",
    "wikidata": "Q1419555",
    "wikipedia": "cs:Národní galerie v Praze"
  }
},
{
  "type": "node",
  "id": 995953368,
  "lat": 50.0713236,
  "lon": 14.4025345,
  "tags": {
    "addr:city": "Praha",
    "addr:conscriptionnumber": "3181",
    "addr:country": "CZ",
    "addr:housenumber": "3181/23",
    "addr:place": "Smíchov",
    "addr:postcode": "15000",
    "addr:street": "Stroupežnického",
    "addr:streetnumber": "23",
    "addr:suburb": "Praha 5",
    "name": "Království železnic",
    "name:cs": "Království železnic",
    "name:en": "Kingdom of Railways",
    "opening_hours": "Mo-Su 09:00-19:00",
    "phone": "+420 257 211 386",
    "ref:ruian:addr": "25671103",
    "source:addr": "cuzk:ruian",
    "source:loc": "survey",
    "tourism": "museum",
    "website": "http://www.kralovstvi-zeleznic.cz/",
    "wikidata": "Q12031754",
    "wikipedia": "cs:Království železnic"
  }
},
{
  "type": "node",
  "id": 1058918765,
  "lat": 50.0866429,
  "lon": 14.3900859,
  "tags": {
    "addr:city": "Praha",
    "addr:conscriptionnumber": "132",
    "addr:country": "CZ",
    "addr:housenumber": "132/1",
    "addr:place": "Hradčany",
    "addr:postcode": "11800",
    "addr:street": "Strahovské nádvoří",
    "addr:streetnumber": "1",
    "addr:suburb": "Praha 1",
    "name": "Památník národního písemnictví",
    "name:cs": "Památník národního písemnictví",
    "name:en": "Memorial of National Literature",
    "phone": "+420 220 516 695",
    "ref:ruian:addr": "21691631",
    "source:addr": "cuzk:ruian",
    "source:loc": "survey",
    "tourism": "museum",
    "website": "http://www.pamatniknarodnihopisemnictvi.cz/",
    "wikidata": "Q5979897",
    "wikipedia": "cs:Památník národního písemnictví"
  }
},
{
  "type": "node",
  "id": 1083723494,
  "lat": 50.0839986,
  "lon": 14.4084909,
  "tags": {
    "addr:city": "Praha",
    "addr:conscriptionnumber": "503",
    "addr:country": "CZ",
    "addr:housenumber": "503/2",
    "addr:place": "Malá Strana",
    "addr:postcode": "11800",
    "addr:street": "U Sovových mlýnů",
    "addr:streetnumber": "2",
    "addr:suburb": "Praha 1",
    "name": "Museum Kampa",
    "name:es": "Museo Kampa",
    "name:he": "מוזאון קאמפה",
    "name:ru": "Музей Кампа",
    "phone": "+420 257 286 147",
    "ref:ruian:addr": "21699976",
    "source:addr": "cuzk:ruian",
    "source:loc": "survey",
    "tourism": "museum",
    "website": "http://www.museumkampa.cz/",
    "wikidata": "Q2139553",
    "wikipedia": "cs:Museum Kampa"
  }
},
{
  "type": "node",
  "id": 1201707824,
  "lat": 50.0856129,
  "lon": 14.4129250,
  "tags": {
    "name": "Muzeum Bedřicha Smetany",
    "name:be": "Музей Бедржыха Сметаны",
    "name:de": "Bedřich-Smetana-Museum",
    "name:zh": "史麥塔納博物館",
    "opening_hours": "Mo-Su 10:00-17:00",
    "tourism": "museum",
    "website": "https://www.nm.cz/sluzby-detail.php?f_id=12",
    "wikidata": "Q813969",
    "wikipedia": "cs:Muzeum Bedřicha Smetany"
  }
},
{
  "type": "node",
  "id": 1257627929,
  "lat": 49.9498166,
  "lon": 14.1010684,
  "tags": {
    "name": "Tetínské muzeum",
    "source": "survey",
    "tourism": "museum"
  }
},
{
  "type": "node",
  "id": 1258716159,
  "lat": 50.1100435,
  "lon": 14.4020970,
  "tags": {
    "email": "prohlidky.info@gmail.com",
    "name": "Stará čistírna odpadních vod v Bubeneči",
    "operator": "TOVÁRNA o.p.s., správa industriálních nemovitostí",
    "phone": "+420 777 790 219",
    "tourism": "museum",
    "website": "http://stara-cistirna.cz/",
    "wikidata": "Q7458134",
    "wikipedia": "cs:Stará čistírna odpadních vod (Praha-Bubeneč)"
  }
},
{
  "type": "node",
  "id": 1268946125,
  "lat": 50.0687528,
  "lon": 14.4242769,
  "tags": {
    "addr:city": "Praha 2",
    "addr:postcode": "12800",
    "addr:street": "Albertov",
    "addr:streetnumber": "6",
    "name": "Chlupáčovo muzeum historie Země",
    "phone": "+420 221 951 456",
    "tourism": "museum",
    "website": "https://www.natur.cuni.cz/geologie/chlupacovo-muzeum",
    "wheelchair": "yes"
  }
},
{
  "type": "node",
  "id": 1268963413,
  "lat": 50.0865112,
  "lon": 14.4139273,
  "tags": {
    "addr:city": "Praha",
    "addr:conscriptionnumber": "191",
    "addr:country": "CZ",
    "addr:housenumber": "191/3",
    "addr:place": "Staré Město",
    "addr:postcode": "11000",
    "addr:street": "Křižovnické náměstí",
    "addr:streetnumber": "3",
    "addr:suburb": "Praha 1",
    "fee": "yes",
    "name": "Muzeum Karlova mostu",
    "name:be": "Музей Карлавага маста",
    "name:en": "Charles Bridge Museum",
    "name:ru": "Музей Карлова моста",
    "opening_hours": "May-Sep 10:00-19:00; Oct-Apr 10:00-18:00",
    "phone": "+420 734 572 231",
    "ref:ruian:addr": "21716552",
    "source:addr": "cuzk:ruian",
    "source:loc": "survey",
    "tourism": "museum",
    "website": "http://www.muzeumkarlovamostu.cz/"
  }
},
{
  "type": "node",
  "id": 1269502274,
  "lat": 50.0902854,
  "lon": 14.4211001,
  "tags": {
    "addr:city": "Praha",
    "addr:conscriptionnumber": "141",
    "addr:country": "CZ",
    "addr:housenumber": "141/1",
    "addr:place": "Josefov",
    "addr:postcode": "11000",
    "addr:street": "U staré školy",
    "addr:streetnumber": "1",
    "addr:suburb": "Praha 1",
    "name": "Židovské muzeum",
    "name:de": "Jüdisches Museum in Prag",
    "name:en": "Jewish Museum",
    "name:ru": "Еврейский музей",
    "name:zh": "犹太人博物馆",
    "operator": "Židovské muzeum v Praze",
    "ref:ruian:addr": "21693722",
    "source:addr": "cuzk:ruian",
    "source:loc": "survey",
    "tourism": "museum",
    "website": "https://www.jewishmuseum.cz/",
    "wheelchair": "limited",
    "wikidata": "Q707850",
    "wikipedia": "cs:Židovské muzeum v Praze"
  }
},
{
  "type": "node",
  "id": 1301706603,
  "lat": 50.0965342,
  "lon": 14.4028228,
  "tags": {
    "addr:conscriptionnumber": "42",
    "addr:housenumber": "42/127",
    "addr:postcode": "16000",
    "addr:street": "Milady Horákové",
    "addr:streetnumber": "127",
    "name": "Galerie Alma Pater",
    "tourism": "museum",
    "website": "http://www.galeriealmapater.eu"
  }
},
{
  "type": "node",
  "id": 1301715531,
  "lat": 50.0805719,
  "lon": 14.4172692,
  "tags": {
    "addr:city": "Praha",
    "addr:housenumber": "22",
    "addr:postcode": "11000",
    "addr:street": "Ostrovní",
    "email": "info@artumgallery.com",
    "name": "Galerie ART+UM",
    "phone": "+420 224 934 355",
    "tourism": "museum",
    "website": "http://www.artumgallery.com"
  }
},
{
  "type": "node",
  "id": 1301735321,
  "lat": 50.0806198,
  "lon": 14.4204088,
  "tags": {
    "name": "Galerie České pojišťovny",
    "phone": "+420 224 054 368",
    "tourism": "museum",
    "website": "http://www.galeriecpoj.cz"
  }
},
{
  "type": "node",
  "id": 1302064019,
  "lat": 50.0822373,
  "lon": 14.4133177,
  "tags": {
    "name": "Galerie Hollar",
    "opening_hours": "Tu-Su 10:00-13:00;14:00-18:00",
    "phone": "+420 224 235 243",
    "tourism": "museum",
    "website": "http://www.hollar.cz",
    "wheelchair": "no"
  }
},
{
  "type": "node",
  "id": 1302140338,
  "lat": 50.0862961,
  "lon": 14.4195279,
  "tags": {
    "name": "Galerie Zlatá lilie",
    "opening_hours": "Mo-Su 12:00-18:00",
    "phone": "+420 224 214 190",
    "tourism": "museum",
    "website": "http://www.galeriezlatalilie.cz"
  }
},
{
  "type": "node",
  "id": 1302217408,
  "lat": 50.0824118,
  "lon": 14.4203337,
  "tags": {
    "addr:city": "Praha",
    "addr:housenumber": "30",
    "addr:postcode": "11000",
    "addr:street": "Národní",
    "email": "lagner@ppf.cz",
    "name": "Galerie Václava Špály",
    "name:ru": "Галерея Вацлава Шпалы",
    "opening_hours": "Mo-Su 11:00-19:00",
    "tourism": "museum",
    "website": "https://www.galerievaclavaspaly.cz/",
    "wikidata": "Q12018046"
  }
},
{
  "type": "node",
  "id": 1302296817,
  "lat": 50.0791685,
  "lon": 14.4272996,
  "tags": {
    "name": "Galerie Smečky",
    "opening_hours": "Tu-Sa 11:00-18:30",
    "phone": "+420 222 210 268",
    "tourism": "museum",
    "website": "http://www.galeriesmecky.cz"
  }
},
{
  "type": "node",
  "id": 1302346548,
  "lat": 50.1009390,
  "lon": 14.4172396,
  "tags": {
    "email": "scarabeus@galeriescarabeus.cz",
    "name": "Galerie Scarabeus",
    "opening_hours": "Mo-Su 11:00-18:00",
    "phone": "+420 233 383 745",
    "tourism": "museum",
    "website": "http://www.galeriescarabeus.cz"
  }
},
{
  "type": "node",
  "id": 1302407411,
  "lat": 50.0901629,
  "lon": 14.4152797,
  "tags": {
    "email": "galerie@rudolfinum.org",
    "name": "Galerie Rudolfinum",
    "name:be": "Галерэя Рудальфінум",
    "name:de": "Galerie Rudolphinum",
    "name:en": "Galerie Rudolfinum",
    "name:ru": "Галерея Рудольфинум",
    "name:zh": "鲁道夫音乐厅",
    "opening_hours": "Tu-We,Fr-Su 10:00-18:00; Th 10:00-20:00",
    "phone": "+420 227 059 205",
    "tourism": "museum",
    "website": "http://www.galerierudolfinum.cz",
    "wikidata": "Q3500594",
    "wikipedia": "cs:Galerie Rudolfinum"
  }
},
{
  "type": "node",
  "id": 1421091825,
  "lat": 49.8550698,
  "lon": 14.5437030,
  "tags": {
    "name": "Vojenské technické muzeum Lešany",
    "name:cs": "Vojenské technické muzeum Lešany",
    "opening_hours": "Jul-Aug: Su,Tu-Sa 09:30-17:30; Jun,Sep: Mo,Sa 09:30-17:30",
    "tourism": "museum"
  }
},
{
  "type": "node",
  "id": 1681021786,
  "lat": 50.0871830,
  "lon": 14.3995651,
  "tags": {
    "addr:conscriptionnumber": "591",
    "addr:housenumber": "591/13",
    "addr:place": "Malá Strana",
    "addr:postcode": "11800",
    "addr:street": "Vlašská",
    "addr:streetnumber": "7",
    "email": "info@kgbmuseum.com",
    "name": "KGB Muzeum",
    "name:cz": "KGB Muzeum",
    "name:en": "KGB Museum",
    "name:ru": "Музей КГБ",
    "opening_hours": "Tu-Su 10:00-17:00",
    "tourism": "museum",
    "website": "http://kgbmuseum.com/"
  }
},
{
  "type": "node",
  "id": 1813492892,
  "lat": 49.8938533,
  "lon": 14.4940842,
  "tags": {
    "name": "Regionální muzeum v Jílovém u Prahy",
    "opening_hours": "Tu-Su 9:00-16:00",
    "tourism": "museum"
  }
},
{
  "type": "node",
  "id": 1922003940,
  "lat": 49.8733969,
  "lon": 14.1100858,
  "tags": {
    "addr:city": "Všeradice",
    "addr:country": "CZ",
    "addr:place": "Všeradice",
    "addr:postcode": "26726",
    "name": "Galerie a muzeum M.D.Rettigové",
    "phone": "+420 725 978 876",
    "tourism": "museum",
    "website": "http://www.zamecky-dvur.cz/"
  }
},
{
  "type": "node",
  "id": 1940282884,
  "lat": 49.8421639,
  "lon": 14.9580024,
  "tags": {
    "tourism": "museum"
  }
},
{
  "type": "node",
  "id": 1946542587,
  "lat": 50.0859846,
  "lon": 14.4141698,
  "tags": {
    "name": "Museum of Medieval Torture Instruments",
    "tourism": "museum"
  }
},
{
  "type": "node",
  "id": 1977821280,
  "lat": 50.0871534,
  "lon": 14.4226910,
  "tags": {
    "addr:city": "Praha",
    "addr:housenumber": "6",
    "addr:postcode": "11000",
    "addr:street": "Celetná",
    "name": "Wax Museum Prague",
    "name:ru": "Музей восковых фигур",
    "tourism": "museum"
  }
},
{
  "type": "node",
  "id": 2032691065,
  "lat": 50.0879548,
  "lon": 14.3989056,
  "tags": {
    "addr:housenumber": "8",
    "addr:street": "Jánský vršek",
    "email": "muzeumalchymistu@email.cz",
    "name": "Muzeum alchymistů a mágů staré Prahy",
    "name:en": "Museum of Alchemists and Magicians",
    "name:ru": "Музей алхимиков и магов",
    "opening_hours": "10:00-22:00",
    "phone": "+420 257 224 508",
    "tourism": "museum",
    "website": "http://www.muzeumalchymistu.cz"
  }
},
{
  "type": "node",
  "id": 2032716125,
  "lat": 50.0907586,
  "lon": 14.4225595,
  "tags": {
    "email": "info@speculumalchemiae.cz",
    "name": "Speculum Alchemiæ Prague",
    "opening_hours": "Mo-Su 10:00-18:00",
    "phone": "+420 777 345 234",
    "tourism": "museum",
    "website": "http://www.speculumalchemiae.cz"
  }
},
{
  "type": "node",
  "id": 2150140657,
  "lat": 49.9889210,
  "lon": 14.2901342,
  "tags": {
    "name": "Mlýn u Veselých",
    "tourism": "museum",
    "website": "http://www.mlyn-uveselych.cz/"
  }
},
{
  "type": "node",
  "id": 2173286535,
  "lat": 50.0256643,
  "lon": 14.2866723,
  "tags": {
    "name": "Automuseum Praga",
    "opening_hours": "Tu,Tu-Su 11:00-17:00",
    "tourism": "museum",
    "website": "http://www.automuzeum-praga.cz/"
  }
},
{
  "type": "node",
  "id": 2197547437,
  "lat": 50.0688998,
  "lon": 14.4280982,
  "tags": {
    "addr:city": "Praha",
    "addr:conscriptionnumber": "453",
    "addr:country": "CZ",
    "addr:housenumber": "453/1",
    "addr:place": "Nové Město",
    "addr:postcode": "12000",
    "addr:street": "Ke Karlovu",
    "addr:streetnumber": "1",
    "addr:suburb": "Praha 2",
    "email": "sekretariat@muzeumpolicie.cz",
    "name": "Muzeum Policie ČR",
    "name:en": "Czech Police Museum",
    "name:ru": "Музей чешской полиции",
    "opening_hours": "Tu-Su 10:00-17:00",
    "phone": "+420 224 922 183",
    "ref:ruian:addr": "21729921",
    "source:addr": "cuzk:ruian",
    "tourism": "museum",
    "website": "https://www.muzeumpolicie.cz/",
    "wikidata": "Q21534356",
    "wikipedia": "cs:Muzeum Policie České republiky"
  }
},
{
  "type": "node",
  "id": 2260242083,
  "lat": 50.0687660,
  "lon": 14.4579738,
  "tags": {
    "addr:city": "Praha 10",
    "addr:housename": "Galerie Deset - Waldesovo muzeum",
    "addr:housenumber": "57",
    "addr:postcode": "10100",
    "addr:street": "Moskevská",
    "name": "Galerie Deset - Waldesovo muzeum",
    "opening_hours": "\"ouvert seulement pour des événements ponctuels.\"",
    "operator": "MČ Praha 10",
    "source": "survey",
    "tourism": "museum",
    "website": "https://www.galeriedeset.cz/",
    "wheelchair": "no"
  }
},
{
  "type": "node",
  "id": 2262736202,
  "lat": 50.1445124,
  "lon": 14.2008269,
  "tags": {
    "name": "Muzeum Památníku Lidice",
    "tourism": "museum",
    "website": "http://www.lidice-memorial.cz/info_cz.aspx"
  }
},
{
  "type": "node",
  "id": 2295721323,
  "lat": 50.0901686,
  "lon": 14.4055326,
  "tags": {
    "name": "Trčkovská galerie",
    "opening_hours": "10:00-17:00",
    "tourism": "museum"
  }
},
{
  "type": "node",
  "id": 2356667609,
  "lat": 49.8176455,
  "lon": 14.5173765,
  "tags": {
    "contact:email": "jindrasmidova@centrum.cz",
    "contact:phone": "+420776151343",
    "name": "muzeum smaltu",
    "operator": "Jindra Šmídová",
    "tourism": "museum"
  }
},
{
  "type": "node",
  "id": 2517682988,
  "lat": 50.0862608,
  "lon": 14.4208187,
  "tags": {
    "addr:city": "Praha",
    "addr:housenumber": "18",
    "addr:postcode": "11000",
    "addr:street": "Melantrichova",
    "name": "Sex Machines Museum",
    "name:ko": "섹스머신박물관",
    "opening_hours": "Mo-Su 10:00-23:00",
    "phone": "+420 227 186 260",
    "tourism": "museum",
    "website": "http://www.sexmachinesmuseum.com",
    "wikidata": "Q3480881"
  }
},
{
  "type": "node",
  "id": 2517690556,
  "lat": 50.0737569,
  "lon": 14.3943383,
  "tags": {
    "addr:conscriptionnumber": "789",
    "addr:housenumber": "789/49",
    "addr:postcode": "15000",
    "addr:street": "Holečkova",
    "addr:streetnumber": "49",
    "name": "Futura Centre",
    "name:ru": "Памятник подхалимству",
    "source:addr": "poi:uir_adr",
    "tourism": "museum",
    "uir_adr:ADRESA_KOD": "22082638",
    "website": "http://www.futuraproject.cz"
  }
},
{
  "type": "node",
  "id": 2959618034,
  "lat": 49.9288773,
  "lon": 14.6676750,
  "tags": {
    "tourism": "museum",
    "website": "https://www.zamekberchtold.cz/muzeum/"
  }
},
{
  "type": "node",
  "id": 3097133050,
  "lat": 50.0746414,
  "lon": 14.4334209,
  "tags": {
    "addr:city": "Praha",
    "addr:conscriptionnumber": "674",
    "addr:country": "CZ",
    "addr:housenumber": "674/55",
    "addr:place": "Vinohrady",
    "addr:postcode": "12000",
    "addr:street": "Londýnská",
    "addr:streetnumber": "55",
    "addr:suburb": "Praha 2",
    "name": "Geosvět",
    "phone": "+420 221 513 224",
    "ref:ruian:addr": "21746460",
    "source:addr": "cuzk:ruian",
    "tourism": "museum",
    "website": "http://geosvet.cz/"
  }
},
{
  "type": "node",
  "id": 3217484773,
  "lat": 50.0736877,
  "lon": 14.4269210,
  "tags": {
    "addr:city": "Praha",
    "addr:conscriptionnumber": "462",
    "addr:country": "CZ",
    "addr:housenumber": "20",
    "addr:place": "Nové Město",
    "addr:postcode": "12000",
    "addr:street": "Ke Karlovu",
    "addr:streetnumber": "20",
    "addr:suburb": "Praha 2",
    "language:descriptions:cs": "yes",
    "language:descriptions:en": "yes",
    "name": "Muzeum Antonína Dvořáka",
    "name:cs": "Muzeum Antonína Dvořáka",
    "name:en": "Antonín Dvořák Museum",
    "name:es": "Museo de Antonin Dvořák",
    "opening_hours": "Tu-Su 10:00-13:30, 14:00-17:00",
    "operator": "Národní muzeum",
    "phone": "+420 224 918 013",
    "ref:ruian:addr": "21730075",
    "source:addr": "cuzk:ruian",
    "source:loc": "survey",
    "tourism": "museum",
    "website": "https://www.nm.cz/",
    "wikidata": "Q608318",
    "wikipedia": "cs:Muzeum Antonína Dvořáka"
  }
},
{
  "type": "node",
  "id": 3235823265,
  "lat": 50.0907763,
  "lon": 14.3989344,
  "tags": {
    "addr:city": "Praha",
    "addr:country": "CZ",
    "addr:place": "Hradčany",
    "addr:postcode": "11900",
    "addr:suburb": "Praha 1",
    "name": "Císařská konírna",
    "name:de": "Kaiserlicher Pferdestall",
    "name:en": "Imperial Stables",
    "name:es": "Establos Imperiales",
    "name:ru": "Императорская конюшня",
    "source": "local knowledge",
    "tourism": "museum",
    "website": "http://www.kulturanahrade.cz/"
  }
},
{
  "type": "node",
  "id": 3235823267,
  "lat": 50.0906788,
  "lon": 14.3985443,
  "tags": {
    "addr:city": "Praha",
    "addr:country": "CZ",
    "addr:place": "Hradčany",
    "addr:postcode": "11900",
    "addr:suburb": "Praha 1",
    "name": "Obrazárna Pražského hradu",
    "name:de": "Prager Burg Bildergalerie",
    "name:en": "Prague Castle Picture Gallery",
    "name:fr": "Pinacothèque du château de Prague",
    "name:ru": "Картинная галерея пражского града",
    "name:zh": "布拉格城堡藝廊",
    "source": "local knowledge",
    "tourism": "museum",
    "website": "http://www.kulturanahrade.cz/",
    "wikidata": "Q11094328",
    "wikipedia": "cs:Obrazárna Pražského hradu"
  }
},
{
  "type": "node",
  "id": 3261373101,
  "lat": 50.0904125,
  "lon": 14.4052804,
  "tags": {
    "addr:city": "Praha",
    "addr:conscriptionnumber": "161",
    "addr:country": "CZ",
    "addr:housenumber": "161/20",
    "addr:place": "Malá Strana",
    "addr:postcode": "11800",
    "addr:street": "Valdštejnská",
    "addr:streetnumber": "20",
    "addr:suburb": "Praha 1",
    "amenity": "library",
    "email": "pedagog@npmk.cz",
    "name": "Národní pedagogické muzeum a knihovna J. A. Komenského",
    "opening_hours": "Tu-Su 10:00-12:30,13:00-17:00",
    "phone": "+420 257 533 455",
    "ref:ruian:addr": "21695695",
    "source:addr": "cuzk:ruian",
    "source:loc": "survey",
    "tourism": "museum",
    "website": "https://npmk.cz/",
    "wikidata": "Q12044524",
    "wikipedia": "cs:Pedagogické muzeum J. A. Komenského v Praze"
  }
},
{
  "type": "node",
  "id": 3270484912,
  "lat": 50.0841764,
  "lon": 14.4277202,
  "tags": {
    "addr:city": "Praha",
    "addr:conscriptionnumber": "890",
    "addr:country": "CZ",
    "addr:housenumber": "890/7",
    "addr:place": "Nové Město",
    "addr:postcode": "11000",
    "addr:street": "Panská",
    "addr:streetnumber": "7",
    "addr:suburb": "Praha 1",
    "email": "shop@mucha.cz",
    "name": "Mucha museum",
    "name:de": "Mucha-Museum",
    "name:en": "Mucha Museum",
    "name:es": "Museo Mucha",
    "name:ja": "ムハ（ミュシャ）美術館",
    "name:ru": "Музей Aльфонса Мухи",
    "name:zh": "穆夏博物馆",
    "opening_hours": "Mo-Su 10:00-18:00",
    "phone": "+420 224 216 415",
    "ref:ruian:addr": "21706981",
    "source:addr": "cuzk:ruian",
    "tourism": "museum",
    "website": "https://www.mucha.cz/",
    "wikidata": "Q959038",
    "wikipedia": "cs:Muchovo muzeum"
  }
},
{
  "type": "node",
  "id": 3276299082,
  "lat": 50.0826252,
  "lon": 14.4194298,
  "tags": {
    "addr:city": "Praha",
    "addr:housenumber": "31",
    "addr:postcode": "11000",
    "addr:street": "Národní",
    "email": "praha@muzeumlega.cz",
    "name": "Muzeum Lega",
    "name:cs": "Muzeum Lega",
    "name:en": "Lego Museum",
    "name:ru": "Музей Lego",
    "opening_hours": "Mo-Su 10:00-20:00",
    "operator": "LeMi CZ s.r.o.",
    "phone": "+420 777 771 070",
    "source": "local knowledge",
    "tourism": "museum",
    "website": "http://www.muzeumlega.cz",
    "wheelchair": "no"
  }
},
{
  "type": "node",
  "id": 3278080261,
  "lat": 50.0881809,
  "lon": 14.4173023,
  "tags": {
    "description:en": "Jaroslav Ježek, 1906-1942, Czech composer, pianist and conductor, author of jazz, classical, incidental and film music. (source: wikipedia:en)",
    "name": "Památník Jaroslava Ježka (Modrý pokoj)",
    "name:en": "Jaroslav Jezek Memorial",
    "opening_hours": "Tu 13:00-18:00",
    "operator": "Národní muzeum",
    "phone": "+420 257 257 738",
    "source": "local knowledge",
    "tourism": "museum",
    "website": "https://www.nm.cz/",
    "wikidata": "Q1345146",
    "wikipedia": "cs:Jaroslav Ježek"
  }
},
{
  "type": "node",
  "id": 3278327071,
  "lat": 50.0882701,
  "lon": 14.3946770,
  "tags": {
    "addr:city": "Praha",
    "addr:conscriptionnumber": "160",
    "addr:country": "CZ",
    "addr:housenumber": "160/24",
    "addr:place": "Hradčany",
    "addr:postcode": "11800",
    "addr:street": "Úvoz",
    "addr:streetnumber": "24",
    "addr:suburb": "Praha 1",
    "name": "Galerie Josefa Sudka",
    "operator": "Uměleckoprůmyslové muzeum v Praze",
    "phone": "+420 257 531 489",
    "ref:ruian:addr": "21691916",
    "source:addr": "cuzk:ruian",
    "source:loc": "survey",
    "tourism": "museum",
    "wikidata": "Q6280203",
    "wikipedia": "cs:Galerie Josefa Sudka"
  }
},
{
  "type": "node",
  "id": 3292370900,
  "lat": 50.0879580,
  "lon": 14.4217128,
  "tags": {
    "description": "Umění Asie a Afriky",
    "description:en": "Art of Asia and Africa",
    "name": "Národní galerie v Praze - Palác Kinských",
    "name:cs": "Národní galerie v Praze - Palác Kinských",
    "name:de": "Nationalgalerie Prag - Palais Goltz-Kinsky",
    "name:en": "National Gallery in Prague - Kinský Palace",
    "name:ko": "골즈 킨스키 궁전",
    "name:ru": "Национальная Галерея Дворец Кинских",
    "name:zh": "布拉格國家藝廊",
    "operator": "Národní galerie v Praze",
    "phone": "+420 224 810 758",
    "source": "local knowledge",
    "tourism": "museum",
    "website": "https://www.ngprague.cz/",
    "wikidata": "Q1419555",
    "wikipedia": "cs:Národní galerie v Praze"
  }
},
{
  "type": "node",
  "id": 3300474761,
  "lat": 50.0872665,
  "lon": 14.3893389,
  "tags": {
    "addr:city": "Praha",
    "addr:housenumber": "11",
    "addr:postcode": "11800",
    "addr:street": "Strahovské nádvoří",
    "name": "Muzeum miniatur",
    "name:cs": "Muzeum miniatur",
    "name:en": "Museum of Miniatures",
    "name:ru": "Музей Миниатюр",
    "opening_hours": "Mo-Su 09:00-17:00",
    "phone": "+420 233 352 371",
    "source": "local knowledge",
    "tourism": "museum",
    "website": "https://www.muzeumminiatur.cz/"
  }
},
{
  "type": "node",
  "id": 3303681505,
  "lat": 50.0923124,
  "lon": 14.4286014,
  "tags": {
    "addr:city": "Praha",
    "addr:conscriptionnumber": "1239",
    "addr:country": "CZ",
    "addr:housenumber": "1239/2",
    "addr:place": "Nové Město",
    "addr:postcode": "11000",
    "addr:street": "Nové mlýny",
    "addr:streetnumber": "2",
    "addr:suburb": "Praha 1",
    "name": "Poštovní muzeum",
    "name:cs": "Poštovní muzeum",
    "name:en": "Postal Museum",
    "opening_hours": "Tu-Su 09:00-12:00, 13:00-17:00",
    "phone": "+ 420 222 312 006",
    "ref:ruian:addr": "21710805",
    "source:addr": "cuzk:ruian",
    "source:loc": "survey",
    "tourism": "museum",
    "website": "https://www.postovnimuzeum.cz/",
    "wikidata": "Q12046701",
    "wikipedia": "cs:Poštovní muzeum Praha"
  }
},
{
  "type": "node",
  "id": 3342148521,
  "lat": 50.0869011,
  "lon": 14.4073391,
  "tags": {
    "addr:city": "Praha",
    "addr:conscriptionnumber": "520",
    "addr:country": "CZ",
    "addr:housenumber": "520/3",
    "addr:place": "Malá Strana",
    "addr:postcode": "11800",
    "addr:street": "Saská",
    "addr:streetnumber": "3",
    "addr:suburb": "Praha 1",
    "name": "Muzeum Karla Zemana",
    "name:cs": "Muzeum Karla Zemana",
    "name:en": "Karel Zeman Museum",
    "phone": "+420 724 341 091",
    "ref:ruian:addr": "21700133",
    "source:addr": "cuzk:ruian",
    "source:loc": "survey",
    "tourism": "museum",
    "website": "http://www.muzeumkarlazemana.cz/"
  }
},
{
  "type": "node",
  "id": 3364070147,
  "lat": 50.0861147,
  "lon": 14.4208924,
  "tags": {
    "addr:city": "Prague 1",
    "addr:housenumber": "1",
    "addr:postcode": "11000",
    "addr:street": "Kožná",
    "name": "Muzeum hlavního města Prahy, ředitelství",
    "operator": "Muzeum hlavního města Prahy",
    "tourism": "museum"
  }
},
{
  "type": "node",
  "id": 3374690925,
  "lat": 49.6213981,
  "lon": 14.3862105,
  "tags": {
    "addr:city": "Vysoký Chlumec",
    "addr:country": "CZ",
    "addr:place": "Vysoký Chlumec",
    "addr:postcode": "26252",
    "description": "Muzeum vesnických staveb středního Povltaví",
    "name": "Skanzen Vysoký Chlumec",
    "operator": "Hornické muzeum Příbram",
    "phone": "+420 733 371 546",
    "tourism": "museum",
    "wikidata": "Q12054416",
    "wikipedia": "cs:Skanzen Vysoký Chlumec"
  }
},
{
  "type": "node",
  "id": 3391113984,
  "lat": 50.0655490,
  "lon": 14.4274686,
  "tags": {
    "addr:city": "Praha",
    "addr:housenumber": "20",
    "addr:postcode": "12800",
    "addr:street": "Oldřichova",
    "name": "Muzeum čokolády",
    "tourism": "museum"
  }
},
{
  "type": "node",
  "id": 3393564844,
  "lat": 50.0919491,
  "lon": 14.4044807,
  "tags": {
    "addr:city": "Praha",
    "addr:conscriptionnumber": "6",
    "addr:country": "CZ",
    "addr:housenumber": "6/4",
    "addr:place": "Hradčany",
    "addr:postcode": "11900",
    "addr:street": "Jiřská",
    "addr:streetnumber": "4",
    "addr:suburb": "Praha 1",
    "email": "steiger@hcjb.cz",
    "name": "Muzeum hraček",
    "name:cs": "Muzeum hraček",
    "name:de": "Spielzeugmuseum",
    "name:en": "Toy Museum",
    "name:ru": "Музей игрушек.",
    "name:zh": "玩具博物館",
    "opening_hours": "Mo-Su 09:30-17:30",
    "phone": "+420 224 372 294",
    "ref:ruian:addr": "30481333",
    "source:addr": "cuzk:ruian",
    "tourism": "museum"
  }
},
{
  "type": "node",
  "id": 3393564852,
  "lat": 50.0875032,
  "lon": 14.4059057,
  "tags": {
    "addr:city": "Praha",
    "addr:housenumber": "18",
    "addr:postcode": "11800",
    "addr:street": "Mostecká",
    "name": "Muzeum pražských pověstí a strašidel",
    "name:cs": "Muzeum pražských pověstí a strašidel",
    "name:en": "Museum of Prague Ghosts and Legends",
    "phone": "+420 257 221 289",
    "tourism": "museum",
    "website": "http://www.muzeumpovesti.cz/"
  }
},
{
  "type": "node",
  "id": 3393593689,
  "lat": 50.0883929,
  "lon": 14.4005023,
  "tags": {
    "addr:city": "Praha",
    "addr:housenumber": "9",
    "addr:postcode": "11800",
    "addr:street": "Nerudova",
    "name": "Gingerbread Museum",
    "tourism": "museum"
  }
},
{
  "type": "node",
  "id": 3393593690,
  "lat": 50.0883830,
  "lon": 14.4001845,
  "tags": {
    "addr:city": "Praha",
    "addr:housenumber": "13",
    "addr:postcode": "11800",
    "addr:street": "Nerudova",
    "name": "Museum Montanelli",
    "tourism": "museum"
  }
},
{
  "type": "node",
  "id": 3406732043,
  "lat": 50.0769772,
  "lon": 14.3988029,
  "tags": {
    "addr:city": "Praha",
    "addr:conscriptionnumber": "98",
    "addr:country": "CZ",
    "addr:housenumber": "98",
    "addr:place": "Smíchov",
    "addr:postcode": "15000",
    "addr:street": "Petřínské sady",
    "addr:suburb": "Praha 5",
    "name": "Národopisné muzeum - Musaion",
    "name:cs": "Národopisné muzeum - Musaion",
    "name:en": "Ethnographical Museum – Musaion",
    "name:ru": "Летний дворец Кинских - Этнографический музей",
    "operator": "Národní muzeum",
    "phone": "+420 257 214 806",
    "ref:ruian:addr": "22075488",
    "source:addr": "cuzk:ruian",
    "tourism": "museum",
    "website": "https://www.nm.cz/"
  }
},
{
  "type": "node",
  "id": 3572218215,
  "lat": 50.0685160,
  "lon": 14.4248411,
  "tags": {
    "addr:city": "Praha 2",
    "addr:housenumber": "6",
    "addr:postcode": "12800",
    "addr:street": "Albertov",
    "name": "Mapová sbírka Přírodovědecké fakulty UK",
    "note": "https://www.natur.cuni.cz/geografie/mapova-sbirka/sluzby-mapove-sbirky",
    "opening_hours": "We 10:00-17:00",
    "operator": "Přírodovědecká fakulta, Univerzita Karlova v Praze",
    "phone": "(+420) 221 951 590",
    "tourism": "museum"
  }
},
{
  "type": "node",
  "id": 3572222293,
  "lat": 50.0725299,
  "lon": 14.4241899,
  "tags": {
    "addr:city": "Praha 2",
    "addr:housenumber": "7",
    "addr:postcode": "12800",
    "addr:street": "Viničná",
    "name": "Hrdličkovo muzeum člověka",
    "name:en": "Hrdlicka Museum of Man",
    "opening_hours": "We-Fr 10:00-18:00",
    "operator": "Přírodovědecká fakulta, Univerzita Karlova v Praze",
    "phone": "+420 724 039 933",
    "tourism": "museum",
    "website": "http://muzeumcloveka.cz/"
  }
},
{
  "type": "node",
  "id": 3620123111,
  "lat": 50.0858558,
  "lon": 14.4147974,
  "tags": {
    "addr:city": "Praha",
    "addr:housenumber": "4",
    "addr:postcode": "11000",
    "addr:street": "Karlova",
    "name": "Keplerovo muzeum",
    "name:cs": "Keplerovo muzeum",
    "name:en": "Kepler Museum",
    "phone": "+420 608 971 236",
    "tourism": "museum",
    "website": "http://www.keplerovomuzeum.cz/",
    "wheelchair": "no",
    "wikidata": "Q3502698",
    "wikipedia": "cs:Keplerovo muzeum"
  }
},
{
  "type": "node",
  "id": 3620123114,
  "lat": 50.0858988,
  "lon": 14.4155672,
  "tags": {
    "addr:city": "Praha",
    "addr:housenumber": "12",
    "addr:postcode": "11000",
    "addr:street": "Karlova",
    "name": "Muzeum loutek",
    "name:ja": "王の道のマリオネット劇場",
    "tourism": "museum",
    "wheelchair": "no"
  }
},
{
  "type": "node",
  "id": 3620539876,
  "lat": 50.0874009,
  "lon": 14.4221753,
  "tags": {
    "addr:city": "Praha",
    "addr:housenumber": "15",
    "addr:postcode": "11000",
    "addr:street": "Staroměstské náměstí",
    "name": "Sklářské muzeum Moser",
    "tourism": "museum"
  }
},
{
  "type": "node",
  "id": 3671317792,
  "lat": 50.0167653,
  "lon": 14.2291264,
  "tags": {
    "name": "Muzeum Nučice",
    "opening_hours": "\"významné přiležitosti a po předchozí domluvě\"",
    "operator": "Obecní úřad Nučice",
    "tourism": "museum",
    "website": "http://www.nucice.eu/muzeum-nucice/ds-6854/p1=4895"
  }
},
{
  "type": "node",
  "id": 3691069592,
  "lat": 49.7828978,
  "lon": 14.6570629,
  "tags": {
    "name": "Muzeum motocyklů Konopiště",
    "phone": "+420 317 702 658",
    "tourism": "museum",
    "website": "http://www.eltsen.cz/jawa/"
  }
},
{
  "type": "node",
  "id": 3833103955,
  "lat": 49.9046874,
  "lon": 14.1480161,
  "tags": {
    "addr:city": "Liteň",
    "addr:conscriptionnumber": "2",
    "addr:country": "CZ",
    "addr:housenumber": "2",
    "addr:place": "Liteň",
    "addr:postcode": "26727",
    "addr:street": "sady Sv. Čecha",
    "name": "Muzeum Jarmily Novotné a Svatopluka Čecha",
    "phone": "+420 311 684 121",
    "ref:ruian:addr": "22792406",
    "source:addr": "cuzk:ruian",
    "tourism": "museum",
    "website": "https://www.liten.cz/",
    "wikidata": "Q12039007",
    "wikipedia": "cs:Muzeum Svatopluka Čecha a Jarmily Novotné"
  }
},
{
  "type": "node",
  "id": 3898631044,
  "lat": 50.0860248,
  "lon": 14.4179314,
  "tags": {
    "addr:housenumber": "156",
    "addr:street": "Husova",
    "email": "info@applemuseum.com",
    "fee": "yes",
    "name": "Apple museum",
    "opening_hours": "Mo-Su 10:00-22:00",
    "start_date": "2015-12-18",
    "tourism": "museum",
    "website": "http://www.applemuseum.com",
    "wheelchair": "no",
    "wikidata": "Q60542064"
  }
},
{
  "type": "node",
  "id": 3920219970,
  "lat": 50.0862927,
  "lon": 14.3887091,
  "tags": {
    "addr:city": "Praha",
    "addr:conscriptionnumber": "132",
    "addr:country": "CZ",
    "addr:housenumber": "132/1",
    "addr:place": "Hradčany",
    "addr:postcode": "11800",
    "addr:street": "Strahovské nádvoří",
    "addr:streetnumber": "1",
    "addr:suburb": "Praha 1",
    "name": "Strahovská knihovna",
    "name:cs": "Strahovská knihovna",
    "name:de": "Strahov Bücherei",
    "name:en": "Strahov Library",
    "name:ja": "ストラホフ図書館",
    "name:ru": "Страговская библиотека",
    "opening_hours": "Mo-Su 09:00-12:00,13:00-17:00",
    "phone": "+420 233 107 730",
    "ref:ruian:addr": "21691631",
    "source": "local knowledge",
    "source:addr": "cuzk:ruian",
    "tourism": "museum",
    "website": "https://www.strahovskyklaster.cz/",
    "wikidata": "Q12056498",
    "wikipedia": "cs:Strahovská knihovna"
  }
},
{
  "type": "node",
  "id": 3920219971,
  "lat": 50.0863699,
  "lon": 14.3898470,
  "tags": {
    "addr:city": "Praha",
    "addr:conscriptionnumber": "132",
    "addr:country": "CZ",
    "addr:housenumber": "132/1",
    "addr:place": "Hradčany",
    "addr:postcode": "11800",
    "addr:street": "Strahovské nádvoří",
    "addr:streetnumber": "1",
    "addr:suburb": "Praha 1",
    "name": "Strahovská obrazárna",
    "name:cs": "Strahovská obrazárna",
    "name:en": "Strahov Gallery",
    "name:he": "מנזר סטראהוב",
    "phone": "+420 233 107 730",
    "ref:ruian:addr": "21691631",
    "source:addr": "cuzk:ruian",
    "source:loc": "survey",
    "tourism": "museum",
    "website": "https://www.strahovskyklaster.cz/"
  }
},
{
  "type": "node",
  "id": 3926969670,
  "lat": 50.0922573,
  "lon": 14.4239939,
  "tags": {
    "description": "Středověké umění v Čechách a střední Evropě",
    "description:en": "Medieval Art in Bohemia and Central Europe",
    "name": "Národní galerie v Praze - Klášter sv. Anežky České",
    "name:cs": "Národní galerie v Praze - Klášter sv. Anežky České",
    "name:de": "Nationalgalerie Prag - Agneskloster",
    "name:en": "National Gallery in Prague - Convent of St Agnes of Bohemia",
    "name:es": "Galería Nacional de Praga - Convento de Santa Inés",
    "name:ru": "Национальная галерея в Праге - Анежский монастырь",
    "name:zh": "国家美术馆",
    "operator": "Národní galerie v Praze",
    "phone": "+420 224 810 628",
    "tourism": "museum",
    "website": "https://www.ngprague.cz/",
    "wikidata": "Q1419555",
    "wikipedia": "cs:Národní galerie v Praze"
  }
},
{
  "type": "node",
  "id": 3927206905,
  "lat": 50.0893314,
  "lon": 14.3974442,
  "tags": {
    "description": "Umění 19. století od klasicismu k romantismu",
    "description:en": "19th century Art from Classicism to Romanticism",
    "name": "Národní galerie v Praze - Salmovský palác",
    "name:cs": "Národní galerie v Praze - Salmovský palác",
    "name:en": "National Gallery in Prague - Salm Palace",
    "name:es": "Galería Nacional de Praga - Palacio Salm",
    "name:ru": "Сальмовский дворец",
    "operator": "Národní galerie v Praze",
    "phone": "+420 233 081 730",
    "tourism": "museum",
    "website": "https://www.ngprague.cz/",
    "wikidata": "Q1419555",
    "wikipedia": "cs:Národní galerie v Praze"
  }
},
{
  "type": "node",
  "id": 3927206906,
  "lat": 50.0891148,
  "lon": 14.3968716,
  "tags": {
    "addr:city": "Praha 1",
    "addr:conscriptionnumber": "185",
    "addr:housenumber": "185/2",
    "addr:place": "Hradčany",
    "addr:postcode": "11800",
    "addr:street": "Hradčanské náměstí",
    "addr:streetnumber": "2",
    "charge": "220 CZK/person; 0/young < 26vears",
    "description": "Baroko v Čechách",
    "description:en": "Baroque in Bohemia",
    "name": "Národní galerie v Praze - Schwarzenberský palác",
    "name:cs": "Národní galerie v Praze - Schwarzenberský palác",
    "name:en": "National Gallery in Prague - Schwarzenberg Palace",
    "name:es": "Galería Nacional de Praga - Palacio Schwarzenberg",
    "name:ru": "Шварценбергский дворец",
    "opening_hours": "Tu 10:00-18:00; We 10:00-20:00; Th-Su 10:00-18:00",
    "operator": "Národní galerie v Praze",
    "phone": "+420 233 081 713",
    "tourism": "museum",
    "website": "https://www.ngprague.cz/",
    "wikidata": "Q1419555",
    "wikipedia": "cs:Národní galerie v Praze"
  }
},
{
  "type": "node",
  "id": 3927206907,
  "lat": 50.0902855,
  "lon": 14.3966952,
  "tags": {
    "addr:city": "Praha",
    "addr:conscriptionnumber": "57",
    "addr:country": "CZ",
    "addr:housenumber": "57/15",
    "addr:place": "Hradčany",
    "addr:postcode": "11800",
    "addr:street": "Hradčanské náměstí",
    "addr:streetnumber": "15",
    "addr:suburb": "Praha 1",
    "description": "Evropské umění od antiky do závěru baroka",
    "description:en": "European Art from the Classical Era to the Close of the Baroque",
    "name": "Národní galerie v Praze - Šternberský palác",
    "name:cs": "Národní galerie v Praze - Šternberský palác",
    "name:de": "Nationalgalerie Prag - Palais Sternberg",
    "name:en": "National Gallery in Prague - Sternberg Palace",
    "name:es": "Galería Nacional de Praga - Palacio Sternbersky",
    "name:he": "ארמון שטרנברג",
    "name:ru": "Национальная галерея в Праге - Штернбергский дворец",
    "operator": "Národní galerie v Praze",
    "phone": "+420 233 090 570",
    "ref:ruian:addr": "21690821",
    "source:addr": "cuzk:ruian",
    "tourism": "museum",
    "website": "https://www.ngprague.cz/",
    "wikidata": "Q1419555",
    "wikipedia": "cs:Národní galerie v Praze"
  }
},
{
  "type": "node",
  "id": 4214906182,
  "lat": 50.0870685,
  "lon": 14.3304148,
  "tags": {
    "addr:city": "Praha",
    "addr:country": "CZ",
    "addr:place": "Liboc",
    "addr:postcode": "16200",
    "addr:suburb": "Praha 6",
    "name": "Archeologický park Liboc",
    "phone": "+420 224 314 978",
    "tourism": "museum",
    "website": "http://www.archaia.cz/"
  }
},
{
  "type": "node",
  "id": 4264726781,
  "lat": 49.9634542,
  "lon": 14.0726301,
  "tags": {
    "addr:city": "Beroun",
    "addr:postcode": "26601",
    "addr:street": "Husovo nám.",
    "name": "Muzeum Českého krasu v Berouně",
    "name:en": "Museum of Czech Karst",
    "opening_hours": "Tu-Sa 09:00-12:00,12:45-17:00; Su,PH 10:00-12:00,12:45-17:00; Dec 24,31 10:00-16:00; Dec 25,26 10:00-17:00",
    "operator": "Muzeum Českého krasu, příspěvková organizace",
    "phone": "+420 311 624 101",
    "tourism": "museum",
    "website": "http://muzeum-beroun.cz",
    "wheelchair": "no"
  }
},
{
  "type": "node",
  "id": 4278783872,
  "lat": 49.6979685,
  "lon": 14.5488093,
  "tags": {
    "name": "RETROAUTOMUZEUM",
    "tourism": "museum",
    "website": "http://www.retroautomuzeum.cz"
  }
},
{
  "type": "node",
  "id": 4302276301,
  "lat": 50.0679300,
  "lon": 14.3489628,
  "tags": {
    "addr:conscriptionnumber": "290",
    "addr:housenumber": "290/215b",
    "addr:postcode": "15000",
    "addr:street": "Plzeňská",
    "addr:streetnumber": "215b",
    "email": "info@trabantmuzeum.cz",
    "fee": "yes",
    "name": "Trabant muzeum Praha Motol",
    "opening_hours": "May-Sep 09:00-18:00; Oct-Apr 09:00-17:00",
    "phone": "+420 725555149",
    "tourism": "museum",
    "website": "http://www.trabantmuzeum.cz"
  }
},
{
  "type": "node",
  "id": 4316409934,
  "lat": 50.0835775,
  "lon": 14.3608725,
  "tags": {
    "addr:city": "Praha",
    "addr:conscriptionnumber": "201",
    "addr:country": "CZ",
    "addr:housenumber": "201/150",
    "addr:place": "Břevnov",
    "addr:postcode": "16900",
    "addr:street": "Bělohorská",
    "addr:streetnumber": "150",
    "addr:suburb": "Praha 6",
    "name": "Popmuseum",
    "official_name": "Muzeum a archiv populární hudby",
    "phone": "+420 605 369 286",
    "ref:ruian:addr": "22149490",
    "source:addr": "cuzk:ruian",
    "source:loc": "survey",
    "tourism": "museum",
    "website": "http://www.popmuseum.cz/"
  }
},
{
  "type": "node",
  "id": 4345448189,
  "lat": 50.0861408,
  "lon": 14.4135994,
  "tags": {
    "fee": "yes",
    "name": "Muzeum Prahy",
    "name:en": "The City of Prague Museum",
    "name:it": "Museo della città di Praga",
    "name:ja": "プラハ市博物館",
    "name:ko": "까렐교",
    "opening_hours": "Apr-Sep: 10:00-22:00; Oct: 10:00-20:00; Nov-Feb: 10:00-18:00; Mar: 10:00-20:00",
    "tourism": "museum",
    "website": "http://www.muzeumprahy.cz/staromestska-mostecka-vez/"
  }
},
{
  "type": "node",
  "id": 4360610699,
  "lat": 50.0939532,
  "lon": 14.3886736,
  "tags": {
    "addr:city": "Praha",
    "addr:country": "CZ",
    "addr:place": "Střešovice",
    "addr:postcode": "16200",
    "addr:street": "Patočkova",
    "addr:suburb": "Praha 6",
    "description": "Omezená otvírací doba, podrobnosti na internetových stránkách muzea.",
    "name": "Muzeum městské hromadné dopravy v Praze",
    "name:de": "Museum des öffentlichen Personennahverkehrs Prag",
    "name:en": "Prague Public Transport Museum",
    "phone": "+420 296 128 900",
    "short_name": "Muzeum MHD",
    "source": "survey",
    "tourism": "museum",
    "website": "http://www.dpp.cz/muzeum-mhd/",
    "wikidata": "Q747287",
    "wikipedia": "cs:Muzeum městské hromadné dopravy v Praze"
  }
},
{
  "type": "node",
  "id": 4437594389,
  "lat": 50.0869733,
  "lon": 14.4230549,
  "tags": {
    "name": "Choco-Story Muzeum čokolády",
    "name:en": "Choco-Story Chocolat Museum",
    "name:he": "מוזיאון שוקולד",
    "name:ru": "Музей шоколада",
    "phone": "+420 224 242 953",
    "tourism": "museum",
    "website": "http://www.choco-story-praha.cz/"
  }
},
{
  "type": "node",
  "id": 4438191585,
  "lat": 49.9374942,
  "lon": 14.1867642,
  "tags": {
    "addr:city": "Karlštejn",
    "addr:conscriptionnumber": "11",
    "addr:country": "CZ",
    "addr:housenumber": "11",
    "addr:place": "Karlštejn",
    "addr:postcode": "26718",
    "name": "Muzeum betlémů",
    "name:be": "Музей батлейкі",
    "phone": "+420 607 940 787",
    "ref:ruian:addr": "5954762",
    "source:addr": "cuzk:ruian",
    "tourism": "museum",
    "website": "http://www.muzeumbetlemu.cz/"
  }
},
{
  "type": "node",
  "id": 4440226044,
  "lat": 50.0858712,
  "lon": 14.4146581,
  "tags": {
    "addr:city": "Praha",
    "addr:conscriptionnumber": "189",
    "addr:country": "CZ",
    "addr:housenumber": "189/2",
    "addr:place": "Staré Město",
    "addr:postcode": "11000",
    "addr:street": "Karlova",
    "addr:streetnumber": "2",
    "addr:suburb": "Praha 1",
    "name": "Colloredo - Mansfeldský palác",
    "name:be": "Каларэда-Мансфелдскі палац",
    "name:cs": "Colloredo - Mansfeldský palác",
    "operator": "Galerie hlavního města Prahy",
    "phone": "+420 222 232 053",
    "ref:ruian:addr": "21716480",
    "source:addr": "cuzk:ruian",
    "source:loc": "survey",
    "tourism": "museum",
    "website": "http://www.ghmp.cz"
  }
},
{
  "type": "node",
  "id": 4440226448,
  "lat": 50.0820330,
  "lon": 14.3965630,
  "tags": {
    "fee": "no",
    "name": "expozice historie lanové dráhy",
    "operator": "DPP",
    "tourism": "museum"
  }
},
{
  "type": "node",
  "id": 4441181217,
  "lat": 50.0951942,
  "lon": 14.4083626,
  "tags": {
    "addr:city": "Praha",
    "addr:conscriptionnumber": "233",
    "addr:country": "CZ",
    "addr:housenumber": "233/1",
    "addr:place": "Hradčany",
    "addr:postcode": "16000",
    "addr:street": "Mickiewiczova",
    "addr:streetnumber": "1",
    "addr:suburb": "Praha 6",
    "name": "Bílkova vila",
    "name:en": "Villa Bílek",
    "name:pl": "Bílkova willa w Pradze",
    "name:ru": "Вилла Франтишека Билека",
    "operator": "Galerie hlavního města Prahy",
    "phone": "+420 233 323 631",
    "ref:ruian:addr": "22215638",
    "source:addr": "cuzk:ruian",
    "tourism": "museum",
    "website": "http://www.ghmp.cz/",
    "wikidata": "Q3509283",
    "wikipedia": "cs:Bílkova vila"
  }
},
{
  "type": "node",
  "id": 4441181218,
  "lat": 50.0970732,
  "lon": 14.4232427,
  "tags": {
    "addr:city": "Praha",
    "addr:conscriptionnumber": "1300",
    "addr:country": "CZ",
    "addr:housenumber": "1300/44",
    "addr:place": "Holešovice",
    "addr:postcode": "17000",
    "addr:street": "Kostelní",
    "addr:streetnumber": "44",
    "addr:suburb": "Praha 7",
    "name": "Národní zemědělské muzeum",
    "name:de": "Nationalmuseum für Landwirtschaft",
    "name:en": "National Museum of Agriculture",
    "name:ru": "Национальный музей сельского хозяйства",
    "phone": "+420 220 308 111",
    "ref:ruian:addr": "22309551",
    "source:addr": "cuzk:ruian",
    "tourism": "museum",
    "website": "https://nzm.cz/",
    "wikidata": "Q12041679",
    "wikipedia": "cs:Národní zemědělské muzeum"
  }
},
{
  "type": "node",
  "id": 4676870667,
  "lat": 50.0866309,
  "lon": 14.4143010,
  "tags": {
    "tourism": "museum"
  }
},
{
  "type": "node",
  "id": 4676940692,
  "lat": 50.0793474,
  "lon": 14.4243626,
  "tags": {
    "addr:conscriptionnumber": "693",
    "addr:housenumber": "693/28",
    "addr:postcode": "11000",
    "addr:street": "Školská",
    "addr:streetnumber": "28",
    "email": "lgp@lgp.cz",
    "fee": "yes",
    "name": "Galerie Leica",
    "name:en": "Leica Gallery Prague",
    "name:ru": "Галерея Лейка",
    "opening_hours": "Mo-Fr 10:00-21:00; Sa-Su 14:00-20:00; PH 14:00-20:00",
    "phone": "+420 222211567",
    "tourism": "museum",
    "website": "https://www.lgp.cz/",
    "wheelchair": "no"
  }
},
{
  "type": "node",
  "id": 4720384283,
  "lat": 50.0915510,
  "lon": 14.4048681,
  "tags": {
    "name": "Lobkovický palác",
    "name:ru": "Лобковицкий дворец",
    "opening_hours": "Mo-Su 10:00-18:00",
    "tourism": "museum",
    "website": "https://www.lobkowicz.com/en/collections/lobkowicz-palace/museum/",
    "wheelchair": "no",
    "wikidata": "Q2047086",
    "wikipedia": "en:Lobkowicz Palace"
  }
},
{
  "type": "node",
  "id": 4852064964,
  "lat": 50.0958059,
  "lon": 14.4281018,
  "tags": {
    "addr:city": "Praha",
    "addr:country": "CZ",
    "addr:street": "nábřeží Kapitána Jaroše",
    "artwork_type": "photo",
    "description": "Public space gallery.",
    "fee": "no",
    "name": "Artwall Gallery",
    "opening_hours": "24/7",
    "tourism": "museum",
    "website": "https://www.artwallgallery.cz/"
  }
},
{
  "type": "node",
  "id": 4915413659,
  "lat": 49.8939260,
  "lon": 14.4940232,
  "tags": {
    "name": "Regionální muzeum",
    "tourism": "museum"
  }
},
{
  "type": "node",
  "id": 4933592624,
  "lat": 50.0850503,
  "lon": 14.4140370,
  "tags": {
    "name": "Prague Beer Museum",
    "name:en": "Prague Beer Museum",
    "opening_hours": "Tu-Su 12:00-03:00",
    "tourism": "museum",
    "website": "http://www.praguebeermuseum.cz/en/"
  }
},
{
  "type": "node",
  "id": 4940267114,
  "lat": 49.8337492,
  "lon": 14.2758308,
  "tags": {
    "name": "Muzeum trabantů",
    "source": "local knowledge",
    "tourism": "museum"
  }
},
{
  "type": "node",
  "id": 4949583954,
  "lat": 50.0677948,
  "lon": 14.4324262,
  "tags": {
    "addr:city": "Praha 2",
    "addr:postcode": "12000",
    "addr:street": "Pod Karlovem",
    "description": "Vchod do krytu se nachází v ulici Pod Karlovem naproti domu číslo 2. Vstup zdarma, otevřeno vždy jednu sobotu v měsíci.",
    "name": "Kryt Folimanka",
    "tourism": "museum",
    "website": "https://krytfolimanka.cz/",
    "wheelchair": "yes"
  }
},
{
  "type": "node",
  "id": 4949858723,
  "lat": 50.0562010,
  "lon": 14.4647231,
  "tags": {
    "addr:city": "Praha 4",
    "addr:housenumber": "500",
    "addr:postcode": "14000",
    "addr:street": "U Plynárny",
    "name": "Plynárenské muzeum",
    "note": "Termín návštěvy muzea je třeba předem dohodnout. Vstup volný.",
    "phone": "+420 267 175209",
    "tourism": "museum",
    "website": "https://www.ppas.cz/o-spolecnosti/plynarenske-muzeum",
    "wheelchair": "yes"
  }
},
{
  "type": "node",
  "id": 4986978223,
  "lat": 50.0878515,
  "lon": 14.4300109,
  "tags": {
    "addr:city": "Praha 1",
    "addr:housenumber": "4",
    "addr:postcode": "11000",
    "addr:street": "V Celnici",
    "email": "muzeum@muzeumkomunismu.cz",
    "name": "Muzeum komunismu",
    "name:en": "Museum of Communism",
    "opening_hours": "Mo-Sa,PH 10:00-20:00; Dec 24 off",
    "phone": "+420 224 212 966",
    "tourism": "museum",
    "website": "https://www.museumofcommunism.com/cz"
  }
},
{
  "type": "node",
  "id": 5283497521,
  "lat": 50.0965127,
  "lon": 14.4314615,
  "tags": {
    "addr:city": "Praha 7",
    "addr:housenumber": "343/3",
    "addr:postcode": "17000",
    "addr:street": "Dukelských hrdinů",
    "name": "Muzeum Her",
    "operator": "Cibien's Corner",
    "tourism": "museum",
    "website": "muzeumher.cz"
  }
},
{
  "type": "node",
  "id": 5612300943,
  "lat": 50.1047906,
  "lon": 14.4920740,
  "tags": {
    "level": "1",
    "name": "Síň slávy českého hokeje",
    "tourism": "museum"
  }
},
{
  "type": "node",
  "id": 5614223550,
  "lat": 50.0880897,
  "lon": 14.4230554,
  "tags": {
    "name": "Muzeum hlavního města Prahy - Dům U Zlatého prstenu",
    "name:de": "Museum der Hauptstadt Prag - Haus zum goldenen",
    "name:en": "City of Prague Museum - House at the Golden Ring",
    "opening_hours": "Tu-Su 09:00-20:00",
    "operator": "Muzeum hlavního města Prahy",
    "phone": "+420 601 102 961",
    "source": "survey",
    "tourism": "museum",
    "website": "http://www.muzeumprahy.cz/",
    "wikidata": "Q12039018",
    "wikipedia": "cs:Muzeum hlavního města Prahy"
  }
},
{
  "type": "node",
  "id": 5654640033,
  "lat": 50.0841504,
  "lon": 14.4288988,
  "tags": {
    "addr:city": "Praha",
    "addr:housenumber": "939/20",
    "addr:postcode": "11000",
    "addr:street": "Jindřišská",
    "email": "info.cz@museumofsenses.com",
    "name": "Muzeum smyslů",
    "name:de": "Museum of Senses",
    "opening_hours": "Mo-Su 09:00-21:00",
    "phone": "+420 608 213 749",
    "tourism": "museum",
    "website": "www.muzeumsmyslu.cz/"
  }
},
{
  "type": "node",
  "id": 5860419051,
  "lat": 50.0188583,
  "lon": 14.1435475,
  "tags": {
    "name": "Sklářská huť",
    "opening_hours": "Mo-Fr 07:00-15:00",
    "tourism": "museum"
  }
},
{
  "type": "node",
  "id": 5860458423,
  "lat": 49.9928383,
  "lon": 14.1626956,
  "tags": {
    "name": "Muzeum trati a filmu Ostře sledované vlaky",
    "tourism": "museum"
  }
},
{
  "type": "node",
  "id": 5860462661,
  "lat": 50.0045699,
  "lon": 14.1655016,
  "tags": {
    "name": "Chrustenická šachta",
    "tourism": "museum"
  }
},
{
  "type": "node",
  "id": 6157776207,
  "lat": 50.0853471,
  "lon": 14.4256153,
  "tags": {
    "addr:city": "Praha 1",
    "addr:housenumber": "854/14",
    "addr:postcode": "11000",
    "addr:street": "Na Příkopě",
    "email": "info@czechrepubrick.cz",
    "level": "-1",
    "name": "Czech Repubrick – Lego země českých památek",
    "opening_hours": "Mo-Su 10:00-20:00",
    "tourism": "museum",
    "website": "https://www.czechrepubrick.cz/",
    "wheelchair": "limited"
  }
},
{
  "type": "node",
  "id": 6445841985,
  "lat": 50.0822346,
  "lon": 14.4229954,
  "tags": {
    "addr:housenumber": "748/30",
    "addr:street": "Jungmannova",
    "name:en": "NaFilm: National film museum",
    "opening_hours": "Mo-Su 13:00-19:00",
    "tourism": "museum",
    "website": "http://nafilm.org"
  }
},
{
  "type": "node",
  "id": 6467620185,
  "lat": 50.0878029,
  "lon": 14.4323142,
  "tags": {
    "addr:housenumber": "1029/3",
    "addr:postcode": "11000",
    "addr:street": "Havlíčkova",
    "email": "info@mineralia.cz",
    "name": "Mineralia Gemstone Museum",
    "name:en": "Mineralia Gemstone Museu",
    "name:ru": "Музей-магазин минералов",
    "opening_hours": "Mo-Su 10:00-20:00",
    "phone": "606503053",
    "tourism": "museum",
    "website": "http://www.mineralia.cz"
  }
},
{
  "type": "node",
  "id": 6468498189,
  "lat": 50.0888991,
  "lon": 14.5786656,
  "tags": {
    "name": "Regionální muzeum",
    "tourism": "museum"
  }
},
{
  "type": "node",
  "id": 6508105553,
  "lat": 49.7836458,
  "lon": 14.6909522,
  "tags": {
    "addr:city": "Benešov",
    "addr:housenumber": "74",
    "addr:postcode": "25601",
    "addr:street": "Malé náměstí",
    "name": "Muzeum umění a designu",
    "opening_hours": "Tu-Su 09:00-18:00",
    "operator": "GASK",
    "tourism": "museum"
  }
},
{
  "type": "node",
  "id": 6644494759,
  "lat": 50.0857833,
  "lon": 14.4151493,
  "tags": {
    "name": "Český granát",
    "opening_hours": "Mo-Su 10:00-21:00",
    "tourism": "museum"
  }
},
{
  "type": "node",
  "id": 6644559505,
  "lat": 50.0867312,
  "lon": 14.4075862,
  "tags": {
    "name": "Film Special effects",
    "tourism": "museum"
  }
},
{
  "type": "node",
  "id": 6699708754,
  "lat": 50.0675133,
  "lon": 14.4707787,
  "tags": {
    "addr:city": "Praha 10",
    "addr:housenumber": "2a",
    "addr:street": "U Slavie",
    "name": "Slavia museum",
    "opening_hours": "Fr-Su 10:00-18:00",
    "tourism": "museum",
    "website": "www.slavia.cz/museum"
  }
},
{
  "type": "node",
  "id": 6700000685,
  "lat": 50.0784080,
  "lon": 14.4213617,
  "tags": {
    "name": "Invisible exhibition",
    "tourism": "museum"
  }
},
{
  "type": "node",
  "id": 6715030786,
  "lat": 50.0839679,
  "lon": 14.4085649,
  "tags": {
    "name": "Kampa",
    "tourism": "museum"
  }
},
{
  "type": "node",
  "id": 6715043086,
  "lat": 50.0840023,
  "lon": 14.4085198,
  "tags": {
    "name": "Kampa",
    "tourism": "museum"
  }
},
{
  "type": "node",
  "id": 6765099885,
  "lat": 50.0840125,
  "lon": 14.4229794,
  "tags": {
    "addr:housenumber": "377/13",
    "addr:postcode": "11000",
    "addr:street": "28. října",
    "name:en": "Gallery of steel figures",
    "tourism": "museum"
  }
},
{
  "type": "node",
  "id": 7018902318,
  "lat": 50.0678230,
  "lon": 14.4154978,
  "tags": {
    "email": "muzeum@muzeumprahy.cz",
    "level": "1",
    "name": "Podskalská celnice na Výtoni",
    "name:en": "Podskalí Custom House at Výtoň",
    "operator": "Muzeum hlavního města Prahy",
    "phone": "+420 224 919 833",
    "short_name": "Podskalská celnice",
    "source": "local knowledge",
    "tourism": "museum",
    "website": "http://muzeumprahy.cz/",
    "wheelchair": "no",
    "wikidata": "Q12039034",
    "wikipedia": "cs:Muzeum v podskalské celnici na Výtoni"
  }
},
{
  "type": "node",
  "id": 7151718341,
  "lat": 50.1051485,
  "lon": 14.4846175,
  "tags": {
    "addr:city": "Praha 9",
    "addr:housenumber": "1207/226",
    "addr:postcode": "19000",
    "addr:street": "Sokolovská",
    "museum": "film",
    "name": "Film Legends Museum Prague",
    "tourism": "museum"
  }
},
{
  "type": "way",
  "id": 9113427,
  "nodes": [
    67465377,
    67465372,
    67465368,
    1784567637,
    1784567635,
    5690842361,
    1784567630,
    5690842360,
    1784567627,
    1784567631,
    67465364,
    1784567654,
    1784567650,
    1784567652,
    1784567656,
    1784567658,
    1784567661,
    1784567663,
    1784567664,
    1784567665,
    1784567666,
    1784567667,
    1784567668,
    1784567669,
    1784567670,
    1784567671,
    1784567672,
    67465361,
    1784567673,
    1784567674,
    5690842359,
    1784567693,
    5690842358,
    1784567700,
    1784567691,
    67465357,
    67465457,
    67465450,
    67465392,
    67465389,
    67465387,
    67465382,
    67465377
  ],
  "tags": {
    "addr:city": "Praha",
    "addr:conscriptionnumber": "422",
    "addr:country": "CZ",
    "addr:housenumber": "422",
    "addr:place": "Bubeneč",
    "addr:postcode": "17000",
    "addr:street": "U Výstaviště",
    "addr:suburb": "Praha 7",
    "building": "residential",
    "building:levels": "2",
    "building:ruian:type": "3",
    "email": "lapidarium@nm.cz",
    "name": "Lapidárium Národního muzea",
    "name:de": "Lapidarium des Nationalmuseums",
    "name:en": "Lapidary of the National Museum",
    "name:ru": "Лапидарий национального музея",
    "operator": "Národní muzeum",
    "phone": "+420 702 013 372",
    "ref:ruian:addr": "22295071",
    "ref:ruian:building": "22154400",
    "source": "cuzk:ruian",
    "source:addr": "cuzk:ruian",
    "tourism": "museum",
    "uir_adr:ADRESA_KOD": "22295071",
    "website": "https://www.nm.cz/",
    "wikidata": "Q12032748",
    "wikipedia": "cs:Lapidárium Národního muzea"
  }
},
{
  "type": "way",
  "id": 10107260,
  "nodes": [
    83232451,
    3930702335,
    3971474474,
    3971474475,
    3971474472,
    3971474471,
    3971474469,
    3971474470,
    83232425,
    3971474468,
    83232429,
    3930702330,
    83232433,
    83232437,
    83232439,
    3971474462,
    3971474461,
    3971474457,
    3971474458,
    83232441,
    83232444,
    83232446,
    83232448,
    3930702333,
    3930702332,
    83232451
  ],
  "tags": {
    "addr:city": "Praha",
    "addr:conscriptionnumber": "1600",
    "addr:country": "CZ",
    "addr:housenumber": "1600/2",
    "addr:place": "Žižkov",
    "addr:postcode": "13000",
    "addr:street": "U Památníku",
    "addr:streetnumber": "2",
    "addr:suburb": "Praha 3",
    "building": "civic",
    "building:levels": "6",
    "building:ruian:type": "5",
    "email": "museum@army.cz",
    "name": "Armádní muzeum Žižkov",
    "name:cs": "Armádní muzeum Žižkov",
    "name:en": "Army Museum Žižkov",
    "phone": "+420 973 204 924",
    "ref:ruian:addr": "21784191",
    "ref:ruian:building": "21706808",
    "source": "cuzk:ruian",
    "source:addr": "cuzk:ruian",
    "temporary:access": "no",
    "tourism": "museum",
    "website": "http://www.vhu.cz/",
    "wikidata": "Q15076006",
    "wikipedia": "cs:Armádní muzeum Žižkov"
  }
},
{
  "type": "way",
  "id": 22634016,
  "nodes": [
    331184318,
    1784576444,
    242744142,
    1784576448,
    242744143,
    1784576449,
    242744132,
    331184347,
    331184348,
    331184346,
    331184316,
    331184349,
    4581260794,
    4581260791,
    4766847789,
    4581260792,
    4581260793,
    331184330,
    242744135,
    331184336,
    331184338,
    331184339,
    331184337,
    1784576443,
    242744136,
    331184328,
    331184340,
    242744137,
    331184326,
    331184341,
    331184342,
    242744138,
    1784576429,
    3849105432,
    1784576427,
    331184324,
    242744139,
    1784576428,
    1784576430,
    1784576431,
    242744140,
    1784576432,
    331184320,
    1784576438,
    331184343,
    331184344,
    331184345,
    331184318
  ],
  "tags": {
    "addr:conscriptionnumber": "233",
    "addr:housenumber": "233",
    "addr:postcode": "17000",
    "addr:street": "Královská obora",
    "amenity": "planetarium",
    "building": "civic",
    "building:colour": "#DFC69A",
    "building:ruian:type": "5",
    "height": "8",
    "name": "Planetárium",
    "name:de": "Planetarium",
    "name:en": "Planetarium",
    "name:ru": "Планетарий",
    "ref:ruian:building": "22153381",
    "source": "cuzk:ruian",
    "source:addr": "uir_adr",
    "start_date": "1960-11-20",
    "tourism": "museum",
    "uir_adr:ADRESA_KOD": "22293809",
    "website": "https://www.planetum.cz/",
    "wheelchair": "yes"
  }
},
{
  "type": "way",
  "id": 24399672,
  "nodes": [
    264830950,
    264830939,
    264830941,
    264830943,
    264830945,
    331184351,
    264830940,
    4801212582,
    264830942,
    331184350,
    264830944,
    264830946,
    264830947,
    264830948,
    264830949,
    264830950
  ],
  "tags": {
    "addr:city": "Praha",
    "addr:conscriptionnumber": "417",
    "addr:country": "CZ",
    "addr:housenumber": "417",
    "addr:place": "Bubeneč",
    "addr:postcode": "17000",
    "addr:street": "Výstaviště",
    "addr:suburb": "Praha 7",
    "building": "public",
    "building:colour": "#fffff3",
    "building:ruian:type": "3",
    "height": "13",
    "name": "Maroldovo panorama",
    "name:de": "Panorama der Schlacht bei Lipany",
    "ref:ruian:addr": "22295038",
    "ref:ruian:building": "22154370",
    "roof:height": "3",
    "roof:material": "glass",
    "roof:shape": "pyramidal",
    "source": "cuzk:ruian",
    "source:addr": "cuzk:ruian",
    "start_date": "1934-05-30",
    "tourism": "museum",
    "uir_adr:ADRESA_KOD": "22295038",
    "wikidata": "Q8243754",
    "wikipedia": "cs:Bitva u Lipan (panoráma)"
  }
},
{
  "type": "way",
  "id": 25456828,
  "nodes": [
    277411121,
    620685110,
    277411119,
    3844579601,
    3844579602,
    277411117,
    277411116,
    4738425246,
    4738425249,
    4738425247,
    277411121
  ],
  "tags": {
    "addr:conscriptionnumber": "1320",
    "addr:housenumber": "1320/42",
    "addr:postcode": "17000",
    "addr:street": "Kostelní",
    "addr:streetnumber": "42",
    "building": "civic",
    "building:flats": "3",
    "building:levels": "5",
    "building:ruian:type": "15",
    "email": "info@ntm.cz",
    "name": "Národní technické muzeum",
    "name:de": "Technisches Nationalmuseum",
    "name:en": "National Technical Museum",
    "name:ru": "Национальный технический музей",
    "opening_hours": "Tu-Su 9:00-18:00",
    "phone": "+420 220 399 111",
    "ref:ruian:building": "22146440",
    "short_name": "NTM",
    "source": "cuzk:ruian",
    "tourism": "museum",
    "website": "http://ntm.cz/",
    "wikidata": "Q1789383",
    "wikipedia": "cs:Národní technické muzeum v Praze"
  }
},
{
  "type": "way",
  "id": 28517451,
  "nodes": [
    3261476462,
    313248216,
    313248217,
    313248218,
    313248219,
    4723945893,
    313248220,
    313248221,
    313248222,
    313248232,
    313248233,
    313248223,
    313248224,
    342286541,
    313248225,
    313248226,
    313248227,
    313248228,
    313248229,
    313248230,
    313248231,
    342286556,
    342286484,
    313248211,
    313248212,
    313248213,
    313248214,
    313248215,
    3261476462
  ],
  "tags": {
    "amenity": "place_of_worship",
    "building": "synagogue",
    "building:levels": "5",
    "building:ruian:type": "19",
    "name": "Španělská synagoga",
    "name:cs": "Španělská synagoga",
    "name:de": "Spanische Synagoge",
    "name:en": "Spanish Synagogue",
    "name:he": "בית הכנסת הספרדי",
    "name:ja": "スペインシナゴーグ",
    "name:ru": "Испанская синагога",
    "ref:ruian:building": "42688531",
    "religion": "jewish",
    "source": "cuzk:ruian",
    "tourism": "museum",
    "website": "https://www.jewishmuseum.cz/",
    "wheelchair": "yes",
    "wikidata": "Q990003",
    "wikipedia": "cs:Španělská synagoga"
  }
},
{
  "type": "way",
  "id": 28552866,
  "nodes": [
    4384874507,
    4384874506,
    4384874505,
    4384874503,
    3290112800,
    313667968,
    313667966,
    313667965,
    5078289615,
    313667976,
    313667975,
    313667977,
    4384874499,
    4384874500,
    4384874501,
    3290112799,
    313667960,
    313667941,
    313667943,
    313667946,
    313667947,
    3290112805,
    313667948,
    4384874520,
    378544479,
    4384874528,
    3290112806,
    313667951,
    313667952,
    313667953,
    313667954,
    313667955,
    313667956,
    313667957,
    3290112803,
    3290112802,
    313667958,
    313667959,
    3290112801,
    4384874507
  ],
  "tags": {
    "building": "civic",
    "building:levels": "3.5",
    "building:ruian:type": "5",
    "email": "muzeum@muzeumprahy.cz",
    "name": "Muzeum hlavního města Prahy - hlavní budova",
    "name:cs": "Muzeum hlavního města Prahy - hlavní budova",
    "name:en": "City of Prague museum - main building",
    "opening_hours": "Tu-Su 09:00-18:00",
    "operator": "Muzeum hlavního města Prahy",
    "phone": "+420 224 816 772",
    "ref:ruian:building": "22218181",
    "source": "cuzk:ruian",
    "start_date": "1909-09-27",
    "toilets": "yes",
    "tourism": "museum",
    "website": "http://www.muzeumprahy.cz/",
    "wheelchair": "limited",
    "wikidata": "Q12039018",
    "wikipedia": "cs:Muzeum hlavního města Prahy"
  }
},
{
  "type": "way",
  "id": 28921026,
  "nodes": [
    3844677879,
    3844677878,
    3844677885,
    3844677886,
    317918664,
    339048532,
    3844677892,
    3844677896,
    3844677898,
    317918648,
    3844677899,
    3844677897,
    3844677894,
    3844677895,
    3844677893,
    314787133,
    314787134,
    317918650,
    317918672,
    317918671,
    317918716,
    317918670,
    3844677881,
    317918669,
    317918667,
    317918666,
    3844677860,
    3844677855,
    3844677856,
    3844677858,
    3844677859,
    3844677854,
    3844677852,
    3844677857,
    3844677851,
    3844677849,
    3844677850,
    3844677853,
    317918665,
    3844677879
  ],
  "tags": {
    "building": "yes",
    "building:flats": "2",
    "building:levels": "1",
    "building:ruian:type": "19",
    "name": "České muzeum hudby",
    "name:en": "Czech Museum of Music",
    "name:es": "Museo de la Música",
    "name:nl": "Tsjechisch Muziekmuseum",
    "opening_hours": "We-Mo 10:00-18:00",
    "operator": "Národní muzeum",
    "ref:ruian:building": "21664889",
    "source": "cuzk:ruian",
    "tourism": "museum",
    "wikidata": "Q2700680",
    "wikipedia": "cs:České muzeum hudby"
  }
},
{
  "type": "way",
  "id": 30134936,
  "nodes": [
    441578871,
    332068593,
    441578873,
    441578874,
    441578875,
    441578876,
    6425017494,
    6425017493,
    332068592,
    332068595,
    441578877,
    441578880,
    441578881,
    441578882,
    441578879,
    441578878,
    332068594,
    441578872,
    441578871
  ],
  "tags": {
    "addr:housenumber": "761",
    "addr:postcode": "28201",
    "addr:street": "Žitomířská",
    "building": "residential",
    "building:levels": "3",
    "building:ruian:type": "3",
    "name": "Podlipanské muzeum",
    "ref:ruian:building": "14386194",
    "source": "cuzk:ruian",
    "tourism": "museum",
    "website": "http://www.podlipanskemuzeum.cz"
  }
},
{
  "type": "way",
  "id": 30475391,
  "nodes": [
    336246652,
    336246651,
    336246649,
    336246647,
    4501974882,
    336246645,
    336246657,
    336246656,
    336246654,
    336246652
  ],
  "tags": {
    "addr:city": "Praha",
    "addr:country": "CZ",
    "addr:place": "Malá Strana",
    "addr:postcode": "11800",
    "addr:street": "Újezd",
    "addr:suburb": "Praha 1",
    "building": "yes",
    "building:ruian:type": "19",
    "name": "Ateliér Josefa Sudka",
    "name:cs": "Ateliér Josefa Sudka",
    "name:en": "Josef Sudek Studio",
    "opening_hours": "Tu-Su 12:00-18:00",
    "phone": "+420 251 510 760",
    "ref:ruian:building": "41052447",
    "source": "cuzk:ruian",
    "tourism": "museum",
    "website": "https://www.atelierjosefasudka.cz/",
    "wikidata": "Q10858945",
    "wikipedia": "cs:Ateliér Josefa Sudka"
  }
},
{
  "type": "way",
  "id": 30825119,
  "nodes": [
    342289497,
    3274216965,
    3274216964,
    342289490,
    342289480,
    3426740049,
    342289471,
    342289464,
    3270129615,
    3270129616,
    3270129617,
    342289453,
    342289582,
    342289579,
    342289577,
    342289574,
    342289572,
    342289568,
    342289564,
    342289561,
    342289556,
    342289547,
    342289542,
    342289537,
    342289534,
    342289531,
    342289527,
    342289522,
    342289519,
    342289512,
    3274216963,
    3274216962,
    342289505,
    2989898939,
    342289497
  ],
  "tags": {
    "building": "civic",
    "building:flats": "1",
    "building:levels": "4",
    "building:ruian:type": "5",
    "name": "Uměleckoprůmyslové muzeum v Praze",
    "name:be": "Музей прыкладнога мастацтва",
    "name:de": "Kunstgewerbemuseum",
    "name:en": "Museum of Decorative Arts in Prague",
    "name:es": "Museo de Artes Decorativas",
    "name:he": "המוזיאון לאמנות דקורטיבית",
    "name:ru": "Музей прикладного искусства",
    "opening_hours": "closed",
    "ref:ruian:building": "21537534",
    "short_name": "UPM",
    "source": "cuzk:ruian",
    "status": "reconstruction",
    "tourism": "museum",
    "website": "http://www.upm.cz",
    "wikidata": "Q1349747",
    "wikipedia": "cs:Uměleckoprůmyslové museum v Praze"
  }
},
{
  "type": "way",
  "id": 31985572,
  "nodes": [
    358466744,
    358466752,
    358466754,
    3217568672,
    358466747,
    358466748,
    358466749,
    358466750,
    3217568670,
    3217568671,
    358466744
  ],
  "tags": {
    "addr:city": "Praha",
    "addr:conscriptionnumber": "642",
    "addr:country": "CZ",
    "addr:housenumber": "642/14",
    "addr:place": "Střešovice",
    "addr:postcode": "16200",
    "addr:street": "Nad hradním vodojemem",
    "addr:streetnumber": "14",
    "addr:suburb": "Praha 6",
    "alt_name": "Loosova vila",
    "building": "yes",
    "building:levels": "1",
    "building:ruian:type": "19",
    "email": "vila.muller@muzeumprahy.cz",
    "name": "Müllerova vila",
    "name:cs": "Müllerova vila",
    "name:en": "Villa Müller",
    "operator": "Muzeum hlavního města Prahy",
    "phone": "+420 224 312 012",
    "ref:ruian:addr": "22262580",
    "ref:ruian:building": "22052461",
    "source": "cuzk:ruian",
    "source:addr": "cuzk:ruian",
    "start_date": "1930",
    "tourism": "museum",
    "website": "http://www.muzeumprahy.cz",
    "wikidata": "Q1468582",
    "wikipedia": "cs:Müllerova vila"
  }
},
{
  "type": "way",
  "id": 45100265,
  "nodes": [
    571786887,
    571786888,
    571786886,
    571786889,
    3928210925,
    4701748506,
    4701748505,
    3928210927,
    4701748504,
    3928210929,
    4701748503,
    4701748502,
    4701748501,
    3928210931,
    4701748500,
    4701748499,
    4701748498,
    3928210932,
    4701748497,
    4701748496,
    4701748495,
    3928210930,
    4701748494,
    4701748493,
    3928210928,
    4701748492,
    4701748491,
    3928210926,
    4701748490,
    3928210924,
    571786887
  ],
  "tags": {
    "building": "residential",
    "building:flats": "1",
    "building:levels": "1",
    "building:ruian:type": "3",
    "email": "vila.rothmayer@muzeumprahy.cz",
    "name": "Rothmayerova vila",
    "name:en": "Villa Rothmayer",
    "operator": "Muzeum hlavního města Prahy",
    "phone": "+420 224 312 012",
    "ref:ruian:building": "22031430",
    "source": "cuzk:ruian",
    "tourism": "museum",
    "website": "http://www.muzeumprahy.cz",
    "wikidata": "Q21296267",
    "wikipedia": "cs:Rothmayerova vila"
  }
},
{
  "type": "way",
  "id": 61856099,
  "nodes": [
    770915334,
    770915381,
    770915230,
    770915253,
    770915317,
    770915210,
    770915286,
    770915301,
    770915365,
    770915269,
    770915334
  ],
  "tags": {
    "building": "civic",
    "building:levels": "2",
    "building:ruian:type": "15",
    "name": "Muzeum Říčany",
    "ref:ruian:building": "12643807",
    "source": "cuzk:ruian",
    "tourism": "museum"
  }
},
{
  "type": "way",
  "id": 62030245,
  "nodes": [
    773220532,
    773219742,
    773222363,
    3341629665,
    3341629664,
    773221407,
    3341629663,
    773217248,
    773221783,
    773218840,
    773217995,
    773220666,
    773220532
  ],
  "tags": {
    "amenity": "place_of_worship",
    "building": "synagogue",
    "name": "Muzeum života židovské obce Divišov",
    "phone": "+420 317 855 224",
    "religion": "jewish",
    "source": "cuzk:km",
    "tourism": "museum",
    "wikidata": "Q9349730",
    "wikipedia": "cs:Synagoga v Divišově"
  }
},
{
  "type": "way",
  "id": 62075001,
  "nodes": [
    3830363218,
    3830363217,
    773751745,
    773752149,
    3830363220,
    3830363219,
    773752374,
    773751324,
    3830363218
  ],
  "tags": {
    "addr:city": "Praha",
    "addr:conscriptionnumber": "6",
    "addr:housenumber": "6/1",
    "addr:postcode": "14300",
    "addr:street": "Chuchelská",
    "addr:streetnumber": "1",
    "building": "yes",
    "building:levels": "1",
    "building:ruian:type": "19",
    "internet_access": "wlan",
    "name": "Viniční Domek",
    "opening_hours": "Mo-Th 12:00-18:00",
    "ref:ruian:building": "21847568",
    "roof:shape": "mansard",
    "source": "cuzk:ruian",
    "tourism": "museum",
    "wheelchair": "limited"
  }
},
{
  "type": "way",
  "id": 69290013,
  "nodes": [
    830376351,
    4039780123,
    4039780124,
    4039780126,
    4039780125,
    830377960,
    830380412,
    4039780120,
    830376257,
    830378917,
    830374436,
    830376351
  ],
  "tags": {
    "building": "yes",
    "building:flats": "8",
    "building:levels": "1",
    "building:ruian:type": "19",
    "name": "Městské muzeum Sedlčany",
    "ref:ruian:building": "22668641",
    "source": "cuzk:ruian",
    "tourism": "museum"
  }
},
{
  "type": "way",
  "id": 77215512,
  "nodes": [
    908981564,
    908995007,
    908985590,
    908979962,
    908980548,
    908994044,
    908981564
  ],
  "tags": {
    "building": "yes",
    "name": "Museum socialistických vozů",
    "operator": "Tomáš Formánek",
    "source": "cuzk:km",
    "tourism": "museum"
  }
},
{
  "type": "way",
  "id": 112699867,
  "nodes": [
    6979410760,
    1280455194,
    1280456228,
    6979410759,
    1280456278,
    6979410758,
    1280456068,
    1280455592,
    6979410751,
    6979410760
  ],
  "tags": {
    "building": "residential",
    "building:ruian:type": "3",
    "name": "Melicharovo muzeum",
    "ref:ruian:building": "5975450",
    "source": "cuzk:ruian",
    "tourism": "museum"
  }
},
{
  "type": "way",
  "id": 115914615,
  "nodes": [
    2795015615,
    2795015599,
    2795015641,
    2795015638,
    2795015706,
    2795015718,
    2795015857,
    2795016033,
    2795015642,
    1308259487,
    1308259585,
    2795015577,
    2795015615
  ],
  "tags": {
    "building": "yes",
    "building:ruian:type": "19",
    "name": "muzeum kočárů",
    "ref:ruian:building": "50406779",
    "source": "cuzk:ruian",
    "tourism": "museum"
  }
},
{
  "type": "way",
  "id": 116574954,
  "nodes": [
    1313920725,
    1313920724,
    1313920723,
    1313920726,
    4869629963,
    4869629962,
    1313920725
  ],
  "tags": {
    "building": "yes",
    "building:ruian:type": "19",
    "ref:ruian:building": "5919398",
    "source": "cuzk:ruian",
    "tourism": "museum"
  }
},
{
  "type": "way",
  "id": 116794120,
  "nodes": [
    1315896368,
    1315896369,
    4869630912,
    4869630911,
    1315896354,
    1315896355,
    1315896356,
    1315896357,
    1315896358,
    1315896359,
    1315896360,
    1315896361,
    1315896362,
    1315896363,
    1315896364,
    1315896365,
    1315896366,
    1315896367,
    1315896368
  ],
  "tags": {
    "addr:city": "Karlštejn",
    "addr:conscriptionnumber": "138",
    "addr:country": "CZ",
    "addr:housenumber": "138",
    "addr:place": "Karlštejn",
    "addr:postcode": "26718",
    "building": "house",
    "building:ruian:type": "7",
    "description": "vstup pouze na telefonickou objednávku",
    "name": "Dům hodin",
    "phone": "+420 608 910 010",
    "ref:ruian:addr": "5956021",
    "ref:ruian:building": "5920353",
    "source": "cuzk:ruian",
    "source:addr": "cuzk:ruian",
    "tourism": "museum",
    "website": "http://www.muzeumhodin.eu/"
  }
},
{
  "type": "way",
  "id": 116858047,
  "nodes": [
    4869629069,
    4869629068,
    4869629067,
    4869629066,
    4869629065,
    4869629064,
    1316406836,
    4869629063,
    4869629062,
    4869629061,
    1316406845,
    4869629059,
    1316406844,
    4869629060,
    4869629069
  ],
  "tags": {
    "addr:city": "Karlštejn",
    "addr:conscriptionnumber": "173",
    "addr:country": "CZ",
    "addr:housenumber": "173",
    "addr:place": "Karlštejn",
    "addr:postcode": "26718",
    "building": "civic",
    "building:levels": "1",
    "building:ruian:type": "15",
    "name": "Muzeum voskových figurín",
    "name:de": "Wachsfigurenkabinett",
    "name:en": "Wax Museum",
    "ref:ruian:addr": "5956374",
    "ref:ruian:building": "5920701",
    "source": "cuzk:ruian",
    "tourism": "museum"
  }
},
{
  "type": "way",
  "id": 146617092,
  "nodes": [
    2924652662,
    1598853373,
    1598853374,
    1598853372,
    2924652652,
    2924652650,
    2924652649,
    2924652648,
    2924652647,
    2924652651,
    1598853367,
    2924652654,
    2924652653,
    2924652661,
    2924652662
  ],
  "tags": {
    "addr:city": "Hrusice",
    "addr:conscriptionnumber": "115",
    "addr:country": "CZ",
    "addr:housename": "Památník Josefa Lady",
    "addr:housenumber": "115",
    "addr:place": "Hrusice",
    "addr:postcode": "25166",
    "building": "residential",
    "building:levels": "1",
    "building:ruian:type": "3",
    "name": "Památník Josefa Lady",
    "ref:ruian:building": "14402629",
    "source": "cuzk:ruian",
    "source:addr": "mvcr:adresa",
    "tourism": "museum",
    "website": "http://www.muzeumompv.cz/pamatnik-josefa-lady/"
  }
},
{
  "type": "way",
  "id": 154069394,
  "nodes": [
    1666640223,
    1666640233,
    4869445276,
    1666640231,
    4869445275,
    4869445274,
    1666640230,
    1666640221,
    1666640223
  ],
  "tags": {
    "addr:city": "Červený Újezd",
    "addr:housenumber": "280",
    "addr:postcode": "27351",
    "addr:street": "U Větráku",
    "building": "yes",
    "building:ruian:type": "19",
    "email": "info@arcadehry.cz",
    "name": "Muzeum Arcade hry",
    "ref:ruian:building": "43385877",
    "source": "cuzk:ruian",
    "tourism": "museum",
    "website": "https://www.arcadehry.cz/"
  }
},
{
  "type": "way",
  "id": 158043412,
  "nodes": [
    649920080,
    1702869993,
    1702869963,
    1702869959,
    1702869951,
    1702869954,
    1702869960,
    1702869994,
    1702870048,
    1702870205,
    1702870185,
    1702870111,
    1702870109,
    1702870131,
    1702870179,
    1702870175,
    1702870209,
    1702870207,
    1702870203,
    1702870182,
    1702870130,
    1702870120,
    649920109,
    649920137,
    649920140,
    649920141,
    649920138,
    649920139,
    649920142,
    649920143,
    649920090,
    649920092,
    649920094,
    649920084,
    649920082,
    649920080
  ],
  "tags": {
    "name": "středověká vesnice Řepora",
    "name:en": "medieval village Řepora",
    "opening_hours": "\"Not open for public, only used for film - see https://cs.m.wikipedia.org/wiki/Skanzen_%C5%98epora\"",
    "tourism": "museum"
  }
},
{
  "type": "way",
  "id": 162760463,
  "nodes": [
    1745887252,
    1745887246,
    1745887239,
    1745887245,
    1745887242,
    1745887241,
    1745887235,
    1745887252
  ],
  "tags": {
    "name": "Skanzen",
    "tourism": "museum"
  }
},
{
  "type": "way",
  "id": 173673204,
  "nodes": [
    4470420291,
    3828163193,
    3828163191,
    1844429095,
    1844429311,
    1844429315,
    1844429102,
    3828163192,
    4470420291
  ],
  "tags": {
    "building": "yes",
    "building:flats": "9",
    "building:levels": "1",
    "building:ruian:type": "19",
    "email": "info.praha@grevin.com",
    "name": "Grévin",
    "old_name": "Obchodní dům Baťa",
    "opening_hours": "Su-Th 10:00-19:00; Fr-Sa 09:00-21:00",
    "operator": "Chocotopia",
    "phone": "+420 226 776 776",
    "ref:ruian:building": "21646660",
    "source": "cuzk:ruian",
    "tourism": "museum",
    "website": "https://www.chocotopia.cz/#grevin",
    "wikidata": "Q66844244"
  }
},
{
  "type": "way",
  "id": 179183380,
  "nodes": [
    300529096,
    3261464797,
    3261464799,
    3261464798,
    3261464796,
    300529095,
    3261464795,
    3261464794,
    3261464793,
    300529093,
    3261464791,
    3261464792,
    3261464789,
    3261464790,
    1895315069,
    300529186,
    300529096
  ],
  "tags": {
    "amenity": "place_of_worship",
    "building": "synagogue",
    "building:ruian:type": "5",
    "name": "Pinkasova synagoga",
    "name:cs": "Pinkasova synagoga",
    "name:de": "Pinkassynagoge",
    "name:en": "Pinkas Synagogue",
    "name:he": "בית הכנסת פינקס",
    "name:it": "Sinagoga e cimitero",
    "name:ja": "ピンカスシナゴーグ",
    "name:ru": "Пинкасова синагога",
    "operator": "Židovské muzeum v Praze",
    "ref:ruian:building": "21537704",
    "religion": "jewish",
    "source": "cuzk:ruian",
    "tourism": "museum",
    "website": "https://www.jewishmuseum.cz/",
    "wheelchair": "no",
    "wikidata": "Q599211",
    "wikipedia": "cs:Pinkasova synagoga"
  }
},
{
  "type": "way",
  "id": 220077991,
  "nodes": [
    2291988136,
    2291988138,
    2291988140,
    2291988144,
    2291988142,
    2291988137,
    631991513,
    631991508,
    2291988141,
    2291988123,
    2291988122,
    2291988115,
    2291988116,
    2291988119,
    2291988124,
    2291988136
  ],
  "tags": {
    "name": "Vršovický skanzen",
    "source": "survey",
    "tourism": "museum",
    "website": "http://www.etp.cz/site/skanzen/index.html"
  }
},
{
  "type": "way",
  "id": 259373850,
  "nodes": [
    2647739273,
    2647739277,
    2647739264,
    2647739263,
    2647739273
  ],
  "tags": {
    "building": "residential",
    "building:ruian:type": "3",
    "name": "Muzeum balónového létání",
    "opening_hours": "May: Sa,Su,PH 09:00-16:00; Jun-Sep: Tu-Su,PH 09:00-17:00; Oct: Sa,Su,PH 09:00-16:00",
    "ref:ruian:building": "17138701",
    "source": "cuzk:ruian",
    "tourism": "museum",
    "wheelchair": "yes"
  }
},
{
  "type": "way",
  "id": 295285613,
  "nodes": [
    2989898955,
    2989898956,
    2989898957,
    2989898958,
    2989898959,
    2989898960,
    2989898952,
    2989898953,
    2989898951,
    300529131,
    300529130,
    2989898954,
    2989898955
  ],
  "tags": {
    "access": "customers",
    "building": "civic",
    "building:ruian:type": "5",
    "name": "Obřadní síň",
    "name:cs": "Obřadní síň",
    "name:de": "Zeremoniensaal",
    "name:en": "Ceremonial Hall",
    "name:he": "בית הטהרה",
    "name:ja": "セレモニアル・ホール",
    "name:ru": "Церемониальный зал",
    "operator": "Židovské muzeum v Praze",
    "ref:ruian:building": "46668004",
    "source": "cuzk:ruian",
    "tourism": "museum",
    "website": "https://www.jewishmuseum.cz/",
    "wheelchair": "no",
    "wikidata": "Q474468",
    "wikipedia": "cs:Nová obřadní síň u Starého židovského hřbitova v Praze-Josefově"
  }
},
{
  "type": "way",
  "id": 365967543,
  "nodes": [
    3252976409,
    3252975982,
    3252976248,
    3252976204,
    3833966530,
    3833966522,
    3252975410,
    3833966514,
    3833966513,
    3252975402,
    3252975242,
    3252975228,
    3252975140,
    3252975115,
    3252975090,
    4183190819,
    3252975071,
    3252975012,
    632566111,
    3252974986,
    4373240217,
    6241908047,
    632566106,
    632566105,
    3699652388,
    3202809251,
    3202809252,
    3202809253,
    3202809255,
    3202809256,
    3252976409
  ],
  "tags": {
    "description": "omezená otvírací doba, více informací na internetových stránkách",
    "description:en": "limited opening hours, more info on the website",
    "heritage": "2",
    "heritage:operator": "npu",
    "name": "Bertramka",
    "tourism": "museum",
    "website": "http://www.bertramka.eu/",
    "wikidata": "Q549551",
    "wikipedia": "cs:Bertramka"
  }
},
{
  "type": "way",
  "id": 406802500,
  "nodes": [
    4088601305,
    4088601323,
    4088601324,
    4088601307,
    4088601305
  ],
  "tags": {
    "building": "yes",
    "building:ruian:type": "12",
    "name": "Areal Staré Aerovky",
    "ref:ruian:building": "48856983",
    "source": "cuzk:ruian",
    "tourism": "museum"
  }
},
{
  "type": "way",
  "id": 406802737,
  "nodes": [
    4088601373,
    4088601376,
    4088601355,
    4088601344,
    4088601341,
    4088601339,
    4088601343,
    4088601340,
    4088601350,
    4088601373
  ],
  "tags": {
    "building": "yes",
    "building:ruian:type": "12",
    "name": "Areal Staré Aerovky",
    "ref:ruian:building": "48856967",
    "source": "cuzk:ruian",
    "tourism": "museum"
  }
},
{
  "type": "way",
  "id": 444457289,
  "nodes": [
    4869629991,
    4869629990,
    4869629989,
    4869629988,
    4419373717,
    4419373720,
    4419373718,
    4869629987,
    4419373719,
    4869629986,
    4869629985,
    4869629984,
    4869629983,
    4869629982,
    4869629981,
    4869629980,
    4869629991
  ],
  "tags": {
    "building": "yes",
    "building:ruian:type": "19",
    "ref:ruian:building": "42918626",
    "source": "cuzk:ruian",
    "tourism": "museum"
  }
},
{
  "type": "relation",
  "id": 85291,
  "members": [
    {
      "type": "way",
      "ref": 26764433,
      "role": "outer"
    },
    {
      "type": "way",
      "ref": 502919615,
      "role": "outer"
    },
    {
      "type": "way",
      "ref": 29169732,
      "role": "outer"
    }
  ],
  "tags": {
    "name": "Národní muzeum",
    "name:de": "Nationalmuseum",
    "name:en": "National Museum",
    "name:eo": "Nacia muzeo",
    "name:es": "Museo Nacional",
    "name:fr": "Musée national",
    "name:hu": "Nemzeti Múzeum",
    "name:nl": "Nationaal Museum",
    "name:pt": "Museu Nacional",
    "name:ru": "Национальный музей",
    "name:sk": "Národné múzeum",
    "name:sv": "Nationalmuseet",
    "name:uk": "Національний музей",
    "name:zh": "国家博物馆",
    "old_name": "Vlastenecké muzeum",
    "tourism": "museum",
    "type": "multipolygon",
    "website": "http://www.nm.cz",
    "website:cs": "http://www.nm.cz",
    "website:en": "http://www.nm.cz/index.php?xSET=lang&xLANG=2",
    "wikidata": "Q188112",
    "wikipedia": "cs:Národní muzeum"
  }
},
{
  "type": "relation",
  "id": 2227446,
  "members": [
    {
      "type": "way",
      "ref": 200600445,
      "role": "outer"
    },
    {
      "type": "way",
      "ref": 167070187,
      "role": "outer"
    },
    {
      "type": "way",
      "ref": 161570985,
      "role": "outer"
    },
    {
      "type": "way",
      "ref": 167070184,
      "role": "outer"
    },
    {
      "type": "way",
      "ref": 161570987,
      "role": "outer"
    },
    {
      "type": "way",
      "ref": 167070183,
      "role": "outer"
    },
    {
      "type": "way",
      "ref": 161570989,
      "role": "outer"
    },
    {
      "type": "way",
      "ref": 167070188,
      "role": "outer"
    },
    {
      "type": "way",
      "ref": 167070186,
      "role": "outer"
    },
    {
      "type": "way",
      "ref": 161571001,
      "role": "outer"
    }
  ],
  "tags": {
    "fee": "no",
    "name": "Vojenské letecké muzeum Kbely",
    "opening_hours": "Tu-Su 10:00-18:00",
    "tourism": "museum",
    "type": "multipolygon",
    "website": "http://www.vhu.cz"
  }
},
{
  "type": "relation",
  "id": 5389879,
  "members": [
    {
      "type": "way",
      "ref": 241763484,
      "role": "outer"
    },
    {
      "type": "way",
      "ref": 454893472,
      "role": "outer"
    },
    {
      "type": "way",
      "ref": 454893473,
      "role": "outer"
    },
    {
      "type": "way",
      "ref": 454893474,
      "role": "outer"
    },
    {
      "type": "way",
      "ref": 454893469,
      "role": "outer"
    }
  ],
  "tags": {
    "name": "Národní památník na Vítkově",
    "tourism": "museum",
    "type": "multipolygon",
    "wikidata": "Q3333173",
    "wikipedia": "cs:Národní památník na Vítkově"
  }
},
{
  "type": "node",
  "id": 830374436,
  "lat": 49.6583484,
  "lon": 14.4261201
},
{
  "type": "node",
  "id": 830376257,
  "lat": 49.6583705,
  "lon": 14.4263597
},
{
  "type": "node",
  "id": 830376351,
  "lat": 49.6584445,
  "lon": 14.4261006
},
{
  "type": "node",
  "id": 830377960,
  "lat": 49.6585121,
  "lon": 14.4266524
},
{
  "type": "node",
  "id": 830378917,
  "lat": 49.6583525,
  "lon": 14.4261677
},
{
  "type": "node",
  "id": 830380412,
  "lat": 49.6584195,
  "lon": 14.4266879
},
{
  "type": "node",
  "id": 4039780120,
  "lat": 49.6583774,
  "lon": 14.4264201
},
{
  "type": "node",
  "id": 4039780123,
  "lat": 49.6584608,
  "lon": 14.4262520
},
{
  "type": "node",
  "id": 4039780124,
  "lat": 49.6584627,
  "lon": 14.4262514
},
{
  "type": "node",
  "id": 4039780125,
  "lat": 49.6584847,
  "lon": 14.4264417
},
{
  "type": "node",
  "id": 4039780126,
  "lat": 49.6584865,
  "lon": 14.4264412
},
{
  "type": "node",
  "id": 2647739263,
  "lat": 49.7699822,
  "lon": 14.3526288
},
{
  "type": "node",
  "id": 2647739264,
  "lat": 49.7700026,
  "lon": 14.3527798
},
{
  "type": "node",
  "id": 2647739273,
  "lat": 49.7701306,
  "lon": 14.3525782
},
{
  "type": "node",
  "id": 2647739277,
  "lat": 49.7701525,
  "lon": 14.3527292
},
{
  "type": "node",
  "id": 773217248,
  "lat": 49.7890594,
  "lon": 14.8781281
},
{
  "type": "node",
  "id": 773217995,
  "lat": 49.7891302,
  "lon": 14.8779311
},
{
  "type": "node",
  "id": 773218840,
  "lat": 49.7890677,
  "lon": 14.8780776
},
{
  "type": "node",
  "id": 773219742,
  "lat": 49.7891132,
  "lon": 14.8781400
},
{
  "type": "node",
  "id": 773220532,
  "lat": 49.7891245,
  "lon": 14.8781383
},
{
  "type": "node",
  "id": 773220666,
  "lat": 49.7891854,
  "lon": 14.8780028
},
{
  "type": "node",
  "id": 773221407,
  "lat": 49.7890666,
  "lon": 14.8781575
},
{
  "type": "node",
  "id": 773221783,
  "lat": 49.7890707,
  "lon": 14.8780971
},
{
  "type": "node",
  "id": 773222363,
  "lat": 49.7891008,
  "lon": 14.8781693
},
{
  "type": "node",
  "id": 3341629663,
  "lat": 49.7890612,
  "lon": 14.8781437
},
{
  "type": "node",
  "id": 3341629664,
  "lat": 49.7890772,
  "lon": 14.8781700
},
{
  "type": "node",
  "id": 3341629665,
  "lat": 49.7890890,
  "lon": 14.8781731
},
{
  "type": "node",
  "id": 1598853367,
  "lat": 49.9051765,
  "lon": 14.7365603
},
{
  "type": "node",
  "id": 1598853372,
  "lat": 49.9051803,
  "lon": 14.7367087
},
{
  "type": "node",
  "id": 1598853373,
  "lat": 49.9053018,
  "lon": 14.7365526
},
{
  "type": "node",
  "id": 1598853374,
  "lat": 49.9053056,
  "lon": 14.7367009
},
{
  "type": "node",
  "id": 2924652647,
  "lat": 49.9051524,
  "lon": 14.7365963
},
{
  "type": "node",
  "id": 2924652648,
  "lat": 49.9051540,
  "lon": 14.7366571
},
{
  "type": "node",
  "id": 2924652649,
  "lat": 49.9051665,
  "lon": 14.7366563
},
{
  "type": "node",
  "id": 2924652650,
  "lat": 49.9051671,
  "lon": 14.7366805
},
{
  "type": "node",
  "id": 2924652651,
  "lat": 49.9051774,
  "lon": 14.7365948
},
{
  "type": "node",
  "id": 2924652652,
  "lat": 49.9051796,
  "lon": 14.7366798
},
{
  "type": "node",
  "id": 2924652653,
  "lat": 49.9052264,
  "lon": 14.7365346
},
{
  "type": "node",
  "id": 2924652654,
  "lat": 49.9052270,
  "lon": 14.7365572
},
{
  "type": "node",
  "id": 2924652661,
  "lat": 49.9052534,
  "lon": 14.7365329
},
{
  "type": "node",
  "id": 2924652662,
  "lat": 49.9052539,
  "lon": 14.7365556
},
{
  "type": "node",
  "id": 1313920723,
  "lat": 49.9346469,
  "lon": 14.1833378
},
{
  "type": "node",
  "id": 1313920724,
  "lat": 49.9348077,
  "lon": 14.1833567
},
{
  "type": "node",
  "id": 1313920725,
  "lat": 49.9348044,
  "lon": 14.1831957
},
{
  "type": "node",
  "id": 1313920726,
  "lat": 49.9346502,
  "lon": 14.1832476
},
{
  "type": "node",
  "id": 4419373717,
  "lat": 49.9337105,
  "lon": 14.1829679
},
{
  "type": "node",
  "id": 4419373718,
  "lat": 49.9336940,
  "lon": 14.1830350
},
{
  "type": "node",
  "id": 4419373719,
  "lat": 49.9336810,
  "lon": 14.1830444
},
{
  "type": "node",
  "id": 4419373720,
  "lat": 49.9337074,
  "lon": 14.1829938
},
{
  "type": "node",
  "id": 4869629962,
  "lat": 49.9347486,
  "lon": 14.1832018
},
{
  "type": "node",
  "id": 4869629963,
  "lat": 49.9347502,
  "lon": 14.1832594
},
{
  "type": "node",
  "id": 4869629980,
  "lat": 49.9336359,
  "lon": 14.1829133
},
{
  "type": "node",
  "id": 4869629981,
  "lat": 49.9335984,
  "lon": 14.1830361
},
{
  "type": "node",
  "id": 4869629982,
  "lat": 49.9336573,
  "lon": 14.1830408
},
{
  "type": "node",
  "id": 4869629983,
  "lat": 49.9336603,
  "lon": 14.1830422
},
{
  "type": "node",
  "id": 4869629984,
  "lat": 49.9336638,
  "lon": 14.1830396
},
{
  "type": "node",
  "id": 4869629985,
  "lat": 49.9336679,
  "lon": 14.1830313
},
{
  "type": "node",
  "id": 4869629986,
  "lat": 49.9336792,
  "lon": 14.1830430
},
{
  "type": "node",
  "id": 4869629987,
  "lat": 49.9336839,
  "lon": 14.1830439
},
{
  "type": "node",
  "id": 4869629988,
  "lat": 49.9337098,
  "lon": 14.1829641
},
{
  "type": "node",
  "id": 4869629989,
  "lat": 49.9336887,
  "lon": 14.1829551
},
{
  "type": "node",
  "id": 4869629990,
  "lat": 49.9336894,
  "lon": 14.1829472
},
{
  "type": "node",
  "id": 4869629991,
  "lat": 49.9336885,
  "lon": 14.1829412
},
{
  "type": "node",
  "id": 1315896354,
  "lat": 49.9366664,
  "lon": 14.1845978
},
{
  "type": "node",
  "id": 1315896355,
  "lat": 49.9366237,
  "lon": 14.1846952
},
{
  "type": "node",
  "id": 1315896356,
  "lat": 49.9366097,
  "lon": 14.1846798
},
{
  "type": "node",
  "id": 1315896357,
  "lat": 49.9365865,
  "lon": 14.1847336
},
{
  "type": "node",
  "id": 1315896358,
  "lat": 49.9365702,
  "lon": 14.1847167
},
{
  "type": "node",
  "id": 1315896359,
  "lat": 49.9365452,
  "lon": 14.1847739
},
{
  "type": "node",
  "id": 1315896360,
  "lat": 49.9365108,
  "lon": 14.1847387
},
{
  "type": "node",
  "id": 1315896361,
  "lat": 49.9364986,
  "lon": 14.1847664
},
{
  "type": "node",
  "id": 1315896362,
  "lat": 49.9364648,
  "lon": 14.1847306
},
{
  "type": "node",
  "id": 1315896363,
  "lat": 49.9364903,
  "lon": 14.1846728
},
{
  "type": "node",
  "id": 1315896364,
  "lat": 49.9365047,
  "lon": 14.1846894
},
{
  "type": "node",
  "id": 1315896365,
  "lat": 49.9365340,
  "lon": 14.1846288
},
{
  "type": "node",
  "id": 1315896366,
  "lat": 49.9365195,
  "lon": 14.1846124
},
{
  "type": "node",
  "id": 1315896367,
  "lat": 49.9365330,
  "lon": 14.1845805
},
{
  "type": "node",
  "id": 1315896368,
  "lat": 49.9365453,
  "lon": 14.1845945
},
{
  "type": "node",
  "id": 1315896369,
  "lat": 49.9365850,
  "lon": 14.1845051
},
{
  "type": "node",
  "id": 4869630911,
  "lat": 49.9366239,
  "lon": 14.1845540
},
{
  "type": "node",
  "id": 4869630912,
  "lat": 49.9366263,
  "lon": 14.1845486
},
{
  "type": "node",
  "id": 1316406836,
  "lat": 49.9403041,
  "lon": 14.1889749
},
{
  "type": "node",
  "id": 1316406844,
  "lat": 49.9401920,
  "lon": 14.1887779
},
{
  "type": "node",
  "id": 1316406845,
  "lat": 49.9401312,
  "lon": 14.1888928
},
{
  "type": "node",
  "id": 4869629059,
  "lat": 49.9401659,
  "lon": 14.1888265
},
{
  "type": "node",
  "id": 4869629060,
  "lat": 49.9402351,
  "lon": 14.1887660
},
{
  "type": "node",
  "id": 4869629061,
  "lat": 49.9403676,
  "lon": 14.1891804
},
{
  "type": "node",
  "id": 4869629062,
  "lat": 49.9404228,
  "lon": 14.1890721
},
{
  "type": "node",
  "id": 4869629063,
  "lat": 49.9403194,
  "lon": 14.1889458
},
{
  "type": "node",
  "id": 4869629064,
  "lat": 49.9402790,
  "lon": 14.1889444
},
{
  "type": "node",
  "id": 4869629065,
  "lat": 49.9402890,
  "lon": 14.1889249
},
{
  "type": "node",
  "id": 4869629066,
  "lat": 49.9402517,
  "lon": 14.1888788
},
{
  "type": "node",
  "id": 4869629067,
  "lat": 49.9402416,
  "lon": 14.1888988
},
{
  "type": "node",
  "id": 4869629068,
  "lat": 49.9402331,
  "lon": 14.1888884
},
{
  "type": "node",
  "id": 4869629069,
  "lat": 49.9402538,
  "lon": 14.1888509
},
{
  "type": "node",
  "id": 1280455194,
  "lat": 50.0854382,
  "lon": 14.1306418
},
{
  "type": "node",
  "id": 1280455592,
  "lat": 50.0853099,
  "lon": 14.1304359
},
{
  "type": "node",
  "id": 1280456068,
  "lat": 50.0852817,
  "lon": 14.1306919
},
{
  "type": "node",
  "id": 1280456228,
  "lat": 50.0854683,
  "lon": 14.1306493
},
{
  "type": "node",
  "id": 1280456278,
  "lat": 50.0854511,
  "lon": 14.1306929
},
{
  "type": "node",
  "id": 6979410751,
  "lat": 50.0853593,
  "lon": 14.1304465
},
{
  "type": "node",
  "id": 6979410758,
  "lat": 50.0854255,
  "lon": 14.1307120
},
{
  "type": "node",
  "id": 6979410759,
  "lat": 50.0854647,
  "lon": 14.1306916
},
{
  "type": "node",
  "id": 6979410760,
  "lat": 50.0854538,
  "lon": 14.1304690
},
{
  "type": "node",
  "id": 1745887235,
  "lat": 50.0724839,
  "lon": 14.1642920
},
{
  "type": "node",
  "id": 1745887239,
  "lat": 50.0727708,
  "lon": 14.1651171
},
{
  "type": "node",
  "id": 1745887241,
  "lat": 50.0721317,
  "lon": 14.1648016
},
{
  "type": "node",
  "id": 1745887242,
  "lat": 50.0722495,
  "lon": 14.1652107
},
{
  "type": "node",
  "id": 1745887245,
  "lat": 50.0724485,
  "lon": 14.1651047
},
{
  "type": "node",
  "id": 1666640221,
  "lat": 50.0730339,
  "lon": 14.1642445
},
{
  "type": "node",
  "id": 1666640223,
  "lat": 50.0730390,
  "lon": 14.1640526
},
{
  "type": "node",
  "id": 1666640230,
  "lat": 50.0732629,
  "lon": 14.1642600
},
{
  "type": "node",
  "id": 1666640231,
  "lat": 50.0732747,
  "lon": 14.1641440
},
{
  "type": "node",
  "id": 1666640233,
  "lat": 50.0732688,
  "lon": 14.1640691
},
{
  "type": "node",
  "id": 1745887246,
  "lat": 50.0730128,
  "lon": 14.1652213
},
{
  "type": "node",
  "id": 1745887252,
  "lat": 50.0730714,
  "lon": 14.1643271
},
{
  "type": "node",
  "id": 4869445274,
  "lat": 50.0732657,
  "lon": 14.1641717
},
{
  "type": "node",
  "id": 4869445275,
  "lat": 50.0732738,
  "lon": 14.1641724
},
{
  "type": "node",
  "id": 4869445276,
  "lat": 50.0732665,
  "lon": 14.1641434
},
{
  "type": "node",
  "id": 773751324,
  "lat": 50.0108590,
  "lon": 14.4036155
},
{
  "type": "node",
  "id": 773751745,
  "lat": 50.0108250,
  "lon": 14.4033938
},
{
  "type": "node",
  "id": 773752149,
  "lat": 50.0109153,
  "lon": 14.4033657
},
{
  "type": "node",
  "id": 773752374,
  "lat": 50.0109440,
  "lon": 14.4035859
},
{
  "type": "node",
  "id": 3830363217,
  "lat": 50.0108320,
  "lon": 14.4034427
},
{
  "type": "node",
  "id": 3830363218,
  "lat": 50.0108340,
  "lon": 14.4034420
},
{
  "type": "node",
  "id": 3830363219,
  "lat": 50.0109257,
  "lon": 14.4034549
},
{
  "type": "node",
  "id": 3830363220,
  "lat": 50.0109276,
  "lon": 14.4034542
},
{
  "type": "node",
  "id": 649920080,
  "lat": 50.0409593,
  "lon": 14.3057805
},
{
  "type": "node",
  "id": 649920082,
  "lat": 50.0409691,
  "lon": 14.3057667
},
{
  "type": "node",
  "id": 649920084,
  "lat": 50.0410038,
  "lon": 14.3057176
},
{
  "type": "node",
  "id": 649920090,
  "lat": 50.0412303,
  "lon": 14.3059901
},
{
  "type": "node",
  "id": 649920092,
  "lat": 50.0411407,
  "lon": 14.3058889
},
{
  "type": "node",
  "id": 649920094,
  "lat": 50.0410607,
  "lon": 14.3057319
},
{
  "type": "node",
  "id": 649920138,
  "lat": 50.0414359,
  "lon": 14.3063538
},
{
  "type": "node",
  "id": 649920139,
  "lat": 50.0414524,
  "lon": 14.3062531
},
{
  "type": "node",
  "id": 649920140,
  "lat": 50.0414067,
  "lon": 14.3064786
},
{
  "type": "node",
  "id": 649920141,
  "lat": 50.0414169,
  "lon": 14.3063918
},
{
  "type": "node",
  "id": 649920142,
  "lat": 50.0414192,
  "lon": 14.3061977
},
{
  "type": "node",
  "id": 649920143,
  "lat": 50.0413764,
  "lon": 14.3061332
},
{
  "type": "node",
  "id": 1702869963,
  "lat": 50.0405762,
  "lon": 14.3061127
},
{
  "type": "node",
  "id": 1702869993,
  "lat": 50.0407290,
  "lon": 14.3059846
},
{
  "type": "node",
  "id": 1702870207,
  "lat": 50.0416381,
  "lon": 14.3064839
},
{
  "type": "node",
  "id": 649920109,
  "lat": 50.0413273,
  "lon": 14.3065216
},
{
  "type": "node",
  "id": 649920137,
  "lat": 50.0413741,
  "lon": 14.3065443
},
{
  "type": "node",
  "id": 1702869951,
  "lat": 50.0403950,
  "lon": 14.3066648
},
{
  "type": "node",
  "id": 1702869954,
  "lat": 50.0404756,
  "lon": 14.3071748
},
{
  "type": "node",
  "id": 1702869959,
  "lat": 50.0405139,
  "lon": 14.3066052
},
{
  "type": "node",
  "id": 1702869960,
  "lat": 50.0405306,
  "lon": 14.3076556
},
{
  "type": "node",
  "id": 1702869994,
  "lat": 50.0407328,
  "lon": 14.3079046
},
{
  "type": "node",
  "id": 1702870048,
  "lat": 50.0410220,
  "lon": 14.3082487
},
{
  "type": "node",
  "id": 1702870109,
  "lat": 50.0413042,
  "lon": 14.3073334
},
{
  "type": "node",
  "id": 1702870111,
  "lat": 50.0413277,
  "lon": 14.3075567
},
{
  "type": "node",
  "id": 1702870120,
  "lat": 50.0413412,
  "lon": 14.3067411
},
{
  "type": "node",
  "id": 1702870130,
  "lat": 50.0413830,
  "lon": 14.3067695
},
{
  "type": "node",
  "id": 1702870131,
  "lat": 50.0414041,
  "lon": 14.3071668
},
{
  "type": "node",
  "id": 1702870175,
  "lat": 50.0414700,
  "lon": 14.3069270
},
{
  "type": "node",
  "id": 1702870179,
  "lat": 50.0414759,
  "lon": 14.3071027
},
{
  "type": "node",
  "id": 1702870182,
  "lat": 50.0414876,
  "lon": 14.3067164
},
{
  "type": "node",
  "id": 1702870185,
  "lat": 50.0414876,
  "lon": 14.3076446
},
{
  "type": "node",
  "id": 1702870203,
  "lat": 50.0415347,
  "lon": 14.3065828
},
{
  "type": "node",
  "id": 1702870205,
  "lat": 50.0415394,
  "lon": 14.3078862
},
{
  "type": "node",
  "id": 1702870209,
  "lat": 50.0416769,
  "lon": 14.3065828
},
{
  "type": "node",
  "id": 571786886,
  "lat": 50.0912328,
  "lon": 14.3641673
},
{
  "type": "node",
  "id": 571786887,
  "lat": 50.0912861,
  "lon": 14.3643449
},
{
  "type": "node",
  "id": 571786888,
  "lat": 50.0912308,
  "lon": 14.3643429
},
{
  "type": "node",
  "id": 571786889,
  "lat": 50.0912886,
  "lon": 14.3641694
},
{
  "type": "node",
  "id": 3928210924,
  "lat": 50.0912870,
  "lon": 14.3642801
},
{
  "type": "node",
  "id": 3928210925,
  "lat": 50.0912877,
  "lon": 14.3642391
},
{
  "type": "node",
  "id": 3928210926,
  "lat": 50.0912928,
  "lon": 14.3642867
},
{
  "type": "node",
  "id": 3928210927,
  "lat": 50.0912970,
  "lon": 14.3642312
},
{
  "type": "node",
  "id": 3928210928,
  "lat": 50.0913033,
  "lon": 14.3642893
},
{
  "type": "node",
  "id": 3928210929,
  "lat": 50.0913042,
  "lon": 14.3642310
},
{
  "type": "node",
  "id": 3928210930,
  "lat": 50.0913131,
  "lon": 14.3642827
},
{
  "type": "node",
  "id": 3928210931,
  "lat": 50.0913162,
  "lon": 14.3642425
},
{
  "type": "node",
  "id": 3928210932,
  "lat": 50.0913198,
  "lon": 14.3642635
},
{
  "type": "node",
  "id": 4701748490,
  "lat": 50.0912897,
  "lon": 14.3642838
},
{
  "type": "node",
  "id": 4701748491,
  "lat": 50.0912962,
  "lon": 14.3642886
},
{
  "type": "node",
  "id": 4701748492,
  "lat": 50.0912997,
  "lon": 14.3642895
},
{
  "type": "node",
  "id": 4701748493,
  "lat": 50.0913068,
  "lon": 14.3642881
},
{
  "type": "node",
  "id": 4701748494,
  "lat": 50.0913101,
  "lon": 14.3642859
},
{
  "type": "node",
  "id": 4701748495,
  "lat": 50.0913156,
  "lon": 14.3642788
},
{
  "type": "node",
  "id": 4701748496,
  "lat": 50.0913176,
  "lon": 14.3642741
},
{
  "type": "node",
  "id": 4701748497,
  "lat": 50.0913190,
  "lon": 14.3642690
},
{
  "type": "node",
  "id": 4701748498,
  "lat": 50.0913199,
  "lon": 14.3642580
},
{
  "type": "node",
  "id": 4701748499,
  "lat": 50.0913193,
  "lon": 14.3642525
},
{
  "type": "node",
  "id": 4701748500,
  "lat": 50.0913180,
  "lon": 14.3642472
},
{
  "type": "node",
  "id": 4701748501,
  "lat": 50.0913137,
  "lon": 14.3642383
},
{
  "type": "node",
  "id": 4701748502,
  "lat": 50.0913109,
  "lon": 14.3642350
},
{
  "type": "node",
  "id": 4701748503,
  "lat": 50.0913077,
  "lon": 14.3642325
},
{
  "type": "node",
  "id": 4701748504,
  "lat": 50.0913006,
  "lon": 14.3642306
},
{
  "type": "node",
  "id": 4701748505,
  "lat": 50.0912936,
  "lon": 14.3642329
},
{
  "type": "node",
  "id": 4701748506,
  "lat": 50.0912904,
  "lon": 14.3642355
},
{
  "type": "node",
  "id": 632566105,
  "lat": 50.0703426,
  "lon": 14.3952568
},
{
  "type": "node",
  "id": 632566106,
  "lat": 50.0703475,
  "lon": 14.3952472
},
{
  "type": "node",
  "id": 632566111,
  "lat": 50.0702823,
  "lon": 14.3949671
},
{
  "type": "node",
  "id": 3202809251,
  "lat": 50.0705406,
  "lon": 14.3954467
},
{
  "type": "node",
  "id": 3202809252,
  "lat": 50.0706201,
  "lon": 14.3954908
},
{
  "type": "node",
  "id": 3202809253,
  "lat": 50.0706550,
  "lon": 14.3955047
},
{
  "type": "node",
  "id": 3202809255,
  "lat": 50.0707456,
  "lon": 14.3955319
},
{
  "type": "node",
  "id": 3202809256,
  "lat": 50.0707616,
  "lon": 14.3955215
},
{
  "type": "node",
  "id": 3252974986,
  "lat": 50.0702187,
  "lon": 14.3950934
},
{
  "type": "node",
  "id": 3252975012,
  "lat": 50.0702353,
  "lon": 14.3949167
},
{
  "type": "node",
  "id": 3252975071,
  "lat": 50.0703066,
  "lon": 14.3947253
},
{
  "type": "node",
  "id": 3252975090,
  "lat": 50.0703265,
  "lon": 14.3946883
},
{
  "type": "node",
  "id": 3252975115,
  "lat": 50.0703653,
  "lon": 14.3947423
},
{
  "type": "node",
  "id": 3252975140,
  "lat": 50.0703778,
  "lon": 14.3947089
},
{
  "type": "node",
  "id": 3252975228,
  "lat": 50.0704426,
  "lon": 14.3947685
},
{
  "type": "node",
  "id": 3252975242,
  "lat": 50.0704523,
  "lon": 14.3946941
},
{
  "type": "node",
  "id": 3252975402,
  "lat": 50.0704972,
  "lon": 14.3947081
},
{
  "type": "node",
  "id": 3252975410,
  "lat": 50.0705021,
  "lon": 14.3947096
},
{
  "type": "node",
  "id": 3252975982,
  "lat": 50.0706771,
  "lon": 14.3949382
},
{
  "type": "node",
  "id": 3252976204,
  "lat": 50.0707424,
  "lon": 14.3947444
},
{
  "type": "node",
  "id": 3252976248,
  "lat": 50.0707727,
  "lon": 14.3947707
},
{
  "type": "node",
  "id": 3252976409,
  "lat": 50.0708107,
  "lon": 14.3954831
},
{
  "type": "node",
  "id": 3699652388,
  "lat": 50.0704440,
  "lon": 14.3953828
},
{
  "type": "node",
  "id": 3833966513,
  "lat": 50.0704978,
  "lon": 14.3947032
},
{
  "type": "node",
  "id": 3833966514,
  "lat": 50.0705028,
  "lon": 14.3947047
},
{
  "type": "node",
  "id": 3833966522,
  "lat": 50.0706094,
  "lon": 14.3947431
},
{
  "type": "node",
  "id": 3833966530,
  "lat": 50.0706747,
  "lon": 14.3946422
},
{
  "type": "node",
  "id": 4183190819,
  "lat": 50.0703158,
  "lon": 14.3947073
},
{
  "type": "node",
  "id": 4373240217,
  "lat": 50.0702260,
  "lon": 14.3951021
},
{
  "type": "node",
  "id": 6241908047,
  "lat": 50.0702899,
  "lon": 14.3951784
},
{
  "type": "node",
  "id": 314787133,
  "lat": 50.0849634,
  "lon": 14.4047525
},
{
  "type": "node",
  "id": 314787134,
  "lat": 50.0850405,
  "lon": 14.4047452
},
{
  "type": "node",
  "id": 317918648,
  "lat": 50.0849736,
  "lon": 14.4045554
},
{
  "type": "node",
  "id": 317918664,
  "lat": 50.0849527,
  "lon": 14.4043688
},
{
  "type": "node",
  "id": 317918665,
  "lat": 50.0844027,
  "lon": 14.4043948
},
{
  "type": "node",
  "id": 317918669,
  "lat": 50.0845457,
  "lon": 14.4047609
},
{
  "type": "node",
  "id": 317918670,
  "lat": 50.0848839,
  "lon": 14.4047412
},
{
  "type": "node",
  "id": 339048532,
  "lat": 50.0849557,
  "lon": 14.4044301
},
{
  "type": "node",
  "id": 3844677849,
  "lat": 50.0844030,
  "lon": 14.4044833
},
{
  "type": "node",
  "id": 3844677850,
  "lat": 50.0844035,
  "lon": 14.4044693
},
{
  "type": "node",
  "id": 3844677851,
  "lat": 50.0844052,
  "lon": 14.4044817
},
{
  "type": "node",
  "id": 3844677852,
  "lat": 50.0844052,
  "lon": 14.4046732
},
{
  "type": "node",
  "id": 3844677853,
  "lat": 50.0844053,
  "lon": 14.4044685
},
{
  "type": "node",
  "id": 3844677854,
  "lat": 50.0844057,
  "lon": 14.4046885
},
{
  "type": "node",
  "id": 3844677855,
  "lat": 50.0844059,
  "lon": 14.4047629
},
{
  "type": "node",
  "id": 3844677856,
  "lat": 50.0844060,
  "lon": 14.4047480
},
{
  "type": "node",
  "id": 3844677857,
  "lat": 50.0844071,
  "lon": 14.4046731
},
{
  "type": "node",
  "id": 3844677858,
  "lat": 50.0844071,
  "lon": 14.4047479
},
{
  "type": "node",
  "id": 3844677859,
  "lat": 50.0844080,
  "lon": 14.4046884
},
{
  "type": "node",
  "id": 3844677860,
  "lat": 50.0844082,
  "lon": 14.4047630
},
{
  "type": "node",
  "id": 3844677878,
  "lat": 50.0845748,
  "lon": 14.4043831
},
{
  "type": "node",
  "id": 3844677879,
  "lat": 50.0845754,
  "lon": 14.4043884
},
{
  "type": "node",
  "id": 3844677881,
  "lat": 50.0846881,
  "lon": 14.4047559
},
{
  "type": "node",
  "id": 3844677885,
  "lat": 50.0847561,
  "lon": 14.4043745
},
{
  "type": "node",
  "id": 3844677886,
  "lat": 50.0847561,
  "lon": 14.4043781
},
{
  "type": "node",
  "id": 3844677892,
  "lat": 50.0849604,
  "lon": 14.4045245
},
{
  "type": "node",
  "id": 3844677893,
  "lat": 50.0849613,
  "lon": 14.4046748
},
{
  "type": "node",
  "id": 3844677894,
  "lat": 50.0849626,
  "lon": 14.4045888
},
{
  "type": "node",
  "id": 3844677895,
  "lat": 50.0849638,
  "lon": 14.4046764
},
{
  "type": "node",
  "id": 3844677896,
  "lat": 50.0849652,
  "lon": 14.4045135
},
{
  "type": "node",
  "id": 3844677897,
  "lat": 50.0849692,
  "lon": 14.4045975
},
{
  "type": "node",
  "id": 3844677898,
  "lat": 50.0849731,
  "lon": 14.4045236
},
{
  "type": "node",
  "id": 3844677899,
  "lat": 50.0849740,
  "lon": 14.4045872
},
{
  "type": "node",
  "id": 317918650,
  "lat": 50.0850590,
  "lon": 14.4049570
},
{
  "type": "node",
  "id": 317918666,
  "lat": 50.0844079,
  "lon": 14.4048182
},
{
  "type": "node",
  "id": 317918667,
  "lat": 50.0845472,
  "lon": 14.4048262
},
{
  "type": "node",
  "id": 317918671,
  "lat": 50.0849000,
  "lon": 14.4051179
},
{
  "type": "node",
  "id": 317918672,
  "lat": 50.0850687,
  "lon": 14.4050878
},
{
  "type": "node",
  "id": 317918716,
  "lat": 50.0848895,
  "lon": 14.4048654
},
{
  "type": "node",
  "id": 336246645,
  "lat": 50.0824734,
  "lon": 14.4052150
},
{
  "type": "node",
  "id": 336246647,
  "lat": 50.0824454,
  "lon": 14.4052125
},
{
  "type": "node",
  "id": 336246649,
  "lat": 50.0824483,
  "lon": 14.4051404
},
{
  "type": "node",
  "id": 336246651,
  "lat": 50.0824091,
  "lon": 14.4051365
},
{
  "type": "node",
  "id": 336246652,
  "lat": 50.0824033,
  "lon": 14.4052818
},
{
  "type": "node",
  "id": 336246654,
  "lat": 50.0824174,
  "lon": 14.4052832
},
{
  "type": "node",
  "id": 336246656,
  "lat": 50.0824168,
  "lon": 14.4052975
},
{
  "type": "node",
  "id": 336246657,
  "lat": 50.0824696,
  "lon": 14.4053024
},
{
  "type": "node",
  "id": 4501974882,
  "lat": 50.0824596,
  "lon": 14.4052138
},
{
  "type": "node",
  "id": 293559409,
  "lat": 50.0783500,
  "lon": 14.4307384
},
{
  "type": "node",
  "id": 300523635,
  "lat": 50.0792222,
  "lon": 14.4307322
},
{
  "type": "node",
  "id": 300523636,
  "lat": 50.0792510,
  "lon": 14.4306920
},
{
  "type": "node",
  "id": 300523638,
  "lat": 50.0792255,
  "lon": 14.4306484
},
{
  "type": "node",
  "id": 300523643,
  "lat": 50.0792375,
  "lon": 14.4306315
},
{
  "type": "node",
  "id": 300523644,
  "lat": 50.0791372,
  "lon": 14.4304582
},
{
  "type": "node",
  "id": 300523649,
  "lat": 50.0791252,
  "lon": 14.4304750
},
{
  "type": "node",
  "id": 300523654,
  "lat": 50.0789262,
  "lon": 14.4301727
},
{
  "type": "node",
  "id": 300523676,
  "lat": 50.0790703,
  "lon": 14.4304685
},
{
  "type": "node",
  "id": 300523681,
  "lat": 50.0789118,
  "lon": 14.4301928
},
{
  "type": "node",
  "id": 300523685,
  "lat": 50.0790984,
  "lon": 14.4304292
},
{
  "type": "node",
  "id": 300523688,
  "lat": 50.0788491,
  "lon": 14.4300384
},
{
  "type": "node",
  "id": 300523695,
  "lat": 50.0786552,
  "lon": 14.4303202
},
{
  "type": "node",
  "id": 300523697,
  "lat": 50.0787619,
  "lon": 14.4301602
},
{
  "type": "node",
  "id": 300523698,
  "lat": 50.0785470,
  "lon": 14.4304713
},
{
  "type": "node",
  "id": 300523699,
  "lat": 50.0787742,
  "lon": 14.4301816
},
{
  "type": "node",
  "id": 300523701,
  "lat": 50.0786640,
  "lon": 14.4303355
},
{
  "type": "node",
  "id": 300523704,
  "lat": 50.0784329,
  "lon": 14.4306226
},
{
  "type": "node",
  "id": 300523706,
  "lat": 50.0785571,
  "lon": 14.4304889
},
{
  "type": "node",
  "id": 300523708,
  "lat": 50.0784456,
  "lon": 14.4306446
},
{
  "type": "node",
  "id": 352742391,
  "lat": 50.0784266,
  "lon": 14.4308717
},
{
  "type": "node",
  "id": 352742392,
  "lat": 50.0784410,
  "lon": 14.4308516
},
{
  "type": "node",
  "id": 2563931225,
  "lat": 50.0786011,
  "lon": 14.4303958
},
{
  "type": "node",
  "id": 300523632,
  "lat": 50.0793983,
  "lon": 14.4309857
},
{
  "type": "node",
  "id": 300523633,
  "lat": 50.0793814,
  "lon": 14.4310092
},
{
  "type": "node",
  "id": 293559416,
  "lat": 50.0790447,
  "lon": 14.4316803
},
{
  "type": "node",
  "id": 300523604,
  "lat": 50.0786002,
  "lon": 14.4311284
},
{
  "type": "node",
  "id": 300523607,
  "lat": 50.0785610,
  "lon": 14.4311831
},
{
  "type": "node",
  "id": 300523608,
  "lat": 50.0787113,
  "lon": 14.4314446
},
{
  "type": "node",
  "id": 300523610,
  "lat": 50.0787512,
  "lon": 14.4313888
},
{
  "type": "node",
  "id": 300523612,
  "lat": 50.0789118,
  "lon": 14.4316681
},
{
  "type": "node",
  "id": 300523615,
  "lat": 50.0789715,
  "lon": 14.4318215
},
{
  "type": "node",
  "id": 300523616,
  "lat": 50.0788960,
  "lon": 14.4316902
},
{
  "type": "node",
  "id": 300523618,
  "lat": 50.0790571,
  "lon": 14.4317019
},
{
  "type": "node",
  "id": 300523619,
  "lat": 50.0792657,
  "lon": 14.4313741
},
{
  "type": "node",
  "id": 300523621,
  "lat": 50.0791572,
  "lon": 14.4315232
},
{
  "type": "node",
  "id": 300523622,
  "lat": 50.0791663,
  "lon": 14.4315392
},
{
  "type": "node",
  "id": 300523624,
  "lat": 50.0792741,
  "lon": 14.4313887
},
{
  "type": "node",
  "id": 1838288346,
  "lat": 50.0785851,
  "lon": 14.4311495
},
{
  "type": "node",
  "id": 2563931227,
  "lat": 50.0786362,
  "lon": 14.4313139
},
{
  "type": "node",
  "id": 2563931255,
  "lat": 50.0792202,
  "lon": 14.4314640
},
{
  "type": "node",
  "id": 4761370995,
  "lat": 50.0792991,
  "lon": 14.4313275
},
{
  "type": "node",
  "id": 293559407,
  "lat": 50.0794780,
  "lon": 14.4311262
},
{
  "type": "node",
  "id": 300523628,
  "lat": 50.0793906,
  "lon": 14.4312464
},
{
  "type": "node",
  "id": 300523630,
  "lat": 50.0793757,
  "lon": 14.4312205
},
{
  "type": "node",
  "id": 320808906,
  "lat": 50.0797789,
  "lon": 14.4322880
},
{
  "type": "node",
  "id": 320808922,
  "lat": 50.0804501,
  "lon": 14.4321773
},
{
  "type": "node",
  "id": 320808923,
  "lat": 50.0804638,
  "lon": 14.4321582
},
{
  "type": "node",
  "id": 320808924,
  "lat": 50.0803957,
  "lon": 14.4320397
},
{
  "type": "node",
  "id": 320808925,
  "lat": 50.0804057,
  "lon": 14.4320258
},
{
  "type": "node",
  "id": 320808926,
  "lat": 50.0803267,
  "lon": 14.4318878
},
{
  "type": "node",
  "id": 320808927,
  "lat": 50.0803181,
  "lon": 14.4318997
},
{
  "type": "node",
  "id": 320808928,
  "lat": 50.0802552,
  "lon": 14.4317896
},
{
  "type": "node",
  "id": 320808929,
  "lat": 50.0802366,
  "lon": 14.4318154
},
{
  "type": "node",
  "id": 320808930,
  "lat": 50.0802093,
  "lon": 14.4317675
},
{
  "type": "node",
  "id": 320808931,
  "lat": 50.0801667,
  "lon": 14.4318266
},
{
  "type": "node",
  "id": 320808933,
  "lat": 50.0801386,
  "lon": 14.4317773
},
{
  "type": "node",
  "id": 320808935,
  "lat": 50.0804865,
  "lon": 14.4322406
},
{
  "type": "node",
  "id": 3693596228,
  "lat": 50.0800791,
  "lon": 14.4328109
},
{
  "type": "node",
  "id": 631991508,
  "lat": 50.0682773,
  "lon": 14.4529249
},
{
  "type": "node",
  "id": 631991513,
  "lat": 50.0682910,
  "lon": 14.4527405
},
{
  "type": "node",
  "id": 2291988115,
  "lat": 50.0679967,
  "lon": 14.4527274
},
{
  "type": "node",
  "id": 2291988116,
  "lat": 50.0680004,
  "lon": 14.4525391
},
{
  "type": "node",
  "id": 2291988119,
  "lat": 50.0680344,
  "lon": 14.4524893
},
{
  "type": "node",
  "id": 2291988122,
  "lat": 50.0680517,
  "lon": 14.4528500
},
{
  "type": "node",
  "id": 2291988123,
  "lat": 50.0680853,
  "lon": 14.4530047
},
{
  "type": "node",
  "id": 2291988124,
  "lat": 50.0681139,
  "lon": 14.4523137
},
{
  "type": "node",
  "id": 2291988136,
  "lat": 50.0682256,
  "lon": 14.4523565
},
{
  "type": "node",
  "id": 2291988137,
  "lat": 50.0682574,
  "lon": 14.4527392
},
{
  "type": "node",
  "id": 2291988138,
  "lat": 50.0682604,
  "lon": 14.4523651
},
{
  "type": "node",
  "id": 2291988140,
  "lat": 50.0682824,
  "lon": 14.4523622
},
{
  "type": "node",
  "id": 2291988141,
  "lat": 50.0682824,
  "lon": 14.4529642
},
{
  "type": "node",
  "id": 2291988142,
  "lat": 50.0682847,
  "lon": 14.4524893
},
{
  "type": "node",
  "id": 2291988144,
  "lat": 50.0682931,
  "lon": 14.4524384
},
{
  "type": "node",
  "id": 358466744,
  "lat": 50.0925370,
  "lon": 14.3783058
},
{
  "type": "node",
  "id": 358466747,
  "lat": 50.0926626,
  "lon": 14.3785375
},
{
  "type": "node",
  "id": 358466748,
  "lat": 50.0926424,
  "lon": 14.3785032
},
{
  "type": "node",
  "id": 358466749,
  "lat": 50.0925967,
  "lon": 14.3785975
},
{
  "type": "node",
  "id": 358466750,
  "lat": 50.0924657,
  "lon": 14.3784417
},
{
  "type": "node",
  "id": 358466752,
  "lat": 50.0926668,
  "lon": 14.3784527
},
{
  "type": "node",
  "id": 358466754,
  "lat": 50.0926651,
  "lon": 14.3784563
},
{
  "type": "node",
  "id": 3217568670,
  "lat": 50.0925282,
  "lon": 14.3783133
},
{
  "type": "node",
  "id": 3217568671,
  "lat": 50.0925314,
  "lon": 14.3783171
},
{
  "type": "node",
  "id": 3217568672,
  "lat": 50.0926853,
  "lon": 14.3784903
},
{
  "type": "node",
  "id": 300529093,
  "lat": 50.0893363,
  "lon": 14.4171587
},
{
  "type": "node",
  "id": 300529095,
  "lat": 50.0893474,
  "lon": 14.4171351
},
{
  "type": "node",
  "id": 300529096,
  "lat": 50.0893539,
  "lon": 14.4168486
},
{
  "type": "node",
  "id": 300529130,
  "lat": 50.0900479,
  "lon": 14.4169257
},
{
  "type": "node",
  "id": 300529131,
  "lat": 50.0899764,
  "lon": 14.4169478
},
{
  "type": "node",
  "id": 300529186,
  "lat": 50.0891555,
  "lon": 14.4168711
},
{
  "type": "node",
  "id": 342289453,
  "lat": 50.0902915,
  "lon": 14.4164630
},
{
  "type": "node",
  "id": 342289464,
  "lat": 50.0899934,
  "lon": 14.4163359
},
{
  "type": "node",
  "id": 342289471,
  "lat": 50.0899975,
  "lon": 14.4163116
},
{
  "type": "node",
  "id": 342289480,
  "lat": 50.0898799,
  "lon": 14.4162621
},
{
  "type": "node",
  "id": 342289490,
  "lat": 50.0898757,
  "lon": 14.4162867
},
{
  "type": "node",
  "id": 342289497,
  "lat": 50.0895789,
  "lon": 14.4161569
},
{
  "type": "node",
  "id": 342289505,
  "lat": 50.0895310,
  "lon": 14.4164379
},
{
  "type": "node",
  "id": 342289512,
  "lat": 50.0898295,
  "lon": 14.4165558
},
{
  "type": "node",
  "id": 342289519,
  "lat": 50.0898276,
  "lon": 14.4165667
},
{
  "type": "node",
  "id": 342289522,
  "lat": 50.0898349,
  "lon": 14.4165698
},
{
  "type": "node",
  "id": 342289527,
  "lat": 50.0898326,
  "lon": 14.4165881
},
{
  "type": "node",
  "id": 342289531,
  "lat": 50.0899352,
  "lon": 14.4166324
},
{
  "type": "node",
  "id": 342289534,
  "lat": 50.0899388,
  "lon": 14.4166141
},
{
  "type": "node",
  "id": 342289537,
  "lat": 50.0899466,
  "lon": 14.4166174
},
{
  "type": "node",
  "id": 342289542,
  "lat": 50.0899484,
  "lon": 14.4166067
},
{
  "type": "node",
  "id": 342289547,
  "lat": 50.0901693,
  "lon": 14.4167011
},
{
  "type": "node",
  "id": 342289556,
  "lat": 50.0901772,
  "lon": 14.4166551
},
{
  "type": "node",
  "id": 342289561,
  "lat": 50.0901851,
  "lon": 14.4166585
},
{
  "type": "node",
  "id": 342289564,
  "lat": 50.0901911,
  "lon": 14.4166732
},
{
  "type": "node",
  "id": 342289568,
  "lat": 50.0902114,
  "lon": 14.4166815
},
{
  "type": "node",
  "id": 342289572,
  "lat": 50.0902288,
  "lon": 14.4166679
},
{
  "type": "node",
  "id": 342289574,
  "lat": 50.0902342,
  "lon": 14.4166354
},
{
  "type": "node",
  "id": 342289577,
  "lat": 50.0902278,
  "lon": 14.4166172
},
{
  "type": "node",
  "id": 342289579,
  "lat": 50.0902301,
  "lon": 14.4166032
},
{
  "type": "node",
  "id": 342289582,
  "lat": 50.0902642,
  "lon": 14.4166177
},
{
  "type": "node",
  "id": 1895315069,
  "lat": 50.0891601,
  "lon": 14.4169973
},
{
  "type": "node",
  "id": 2989898939,
  "lat": 50.0895774,
  "lon": 14.4161654
},
{
  "type": "node",
  "id": 2989898951,
  "lat": 50.0899981,
  "lon": 14.4171143
},
{
  "type": "node",
  "id": 2989898952,
  "lat": 50.0900528,
  "lon": 14.4170861
},
{
  "type": "node",
  "id": 2989898953,
  "lat": 50.0900533,
  "lon": 14.4170957
},
{
  "type": "node",
  "id": 2989898954,
  "lat": 50.0900576,
  "lon": 14.4170080
},
{
  "type": "node",
  "id": 2989898955,
  "lat": 50.0900628,
  "lon": 14.4170070
},
{
  "type": "node",
  "id": 2989898956,
  "lat": 50.0900669,
  "lon": 14.4170332
},
{
  "type": "node",
  "id": 2989898957,
  "lat": 50.0900794,
  "lon": 14.4170307
},
{
  "type": "node",
  "id": 2989898958,
  "lat": 50.0900873,
  "lon": 14.4170362
},
{
  "type": "node",
  "id": 2989898959,
  "lat": 50.0900922,
  "lon": 14.4170481
},
{
  "type": "node",
  "id": 2989898960,
  "lat": 50.0900952,
  "lon": 14.4170739
},
{
  "type": "node",
  "id": 3261464789,
  "lat": 50.0892220,
  "lon": 14.4171425
},
{
  "type": "node",
  "id": 3261464790,
  "lat": 50.0892233,
  "lon": 14.4170023
},
{
  "type": "node",
  "id": 3261464791,
  "lat": 50.0893302,
  "lon": 14.4171586
},
{
  "type": "node",
  "id": 3261464792,
  "lat": 50.0893304,
  "lon": 14.4171402
},
{
  "type": "node",
  "id": 3261464793,
  "lat": 50.0893369,
  "lon": 14.4171416
},
{
  "type": "node",
  "id": 3261464794,
  "lat": 50.0893506,
  "lon": 14.4171414
},
{
  "type": "node",
  "id": 3261464795,
  "lat": 50.0893513,
  "lon": 14.4171349
},
{
  "type": "node",
  "id": 3261464796,
  "lat": 50.0893532,
  "lon": 14.4168687
},
{
  "type": "node",
  "id": 3261464797,
  "lat": 50.0893532,
  "lon": 14.4168601
},
{
  "type": "node",
  "id": 3261464798,
  "lat": 50.0893567,
  "lon": 14.4168681
},
{
  "type": "node",
  "id": 3261464799,
  "lat": 50.0893571,
  "lon": 14.4168597
},
{
  "type": "node",
  "id": 3270129615,
  "lat": 50.0902031,
  "lon": 14.4164236
},
{
  "type": "node",
  "id": 3270129616,
  "lat": 50.0902041,
  "lon": 14.4164182
},
{
  "type": "node",
  "id": 3270129617,
  "lat": 50.0902927,
  "lon": 14.4164559
},
{
  "type": "node",
  "id": 3274216962,
  "lat": 50.0896184,
  "lon": 14.4164749
},
{
  "type": "node",
  "id": 3274216963,
  "lat": 50.0896199,
  "lon": 14.4164663
},
{
  "type": "node",
  "id": 3274216964,
  "lat": 50.0896651,
  "lon": 14.4161986
},
{
  "type": "node",
  "id": 3274216965,
  "lat": 50.0896660,
  "lon": 14.4161933
},
{
  "type": "node",
  "id": 3426740049,
  "lat": 50.0899407,
  "lon": 14.4162877
},
{
  "type": "node",
  "id": 313248211,
  "lat": 50.0902346,
  "lon": 14.4207439
},
{
  "type": "node",
  "id": 313248212,
  "lat": 50.0904214,
  "lon": 14.4206478
},
{
  "type": "node",
  "id": 313248213,
  "lat": 50.0904221,
  "lon": 14.4206550
},
{
  "type": "node",
  "id": 313248214,
  "lat": 50.0904559,
  "lon": 14.4206399
},
{
  "type": "node",
  "id": 313248215,
  "lat": 50.0904548,
  "lon": 14.4206344
},
{
  "type": "node",
  "id": 313248216,
  "lat": 50.0904918,
  "lon": 14.4206237
},
{
  "type": "node",
  "id": 313248217,
  "lat": 50.0905079,
  "lon": 14.4206973
},
{
  "type": "node",
  "id": 313248218,
  "lat": 50.0904936,
  "lon": 14.4207006
},
{
  "type": "node",
  "id": 313248219,
  "lat": 50.0904942,
  "lon": 14.4207080
},
{
  "type": "node",
  "id": 313248220,
  "lat": 50.0904396,
  "lon": 14.4207366
},
{
  "type": "node",
  "id": 313248221,
  "lat": 50.0904688,
  "lon": 14.4208741
},
{
  "type": "node",
  "id": 313248222,
  "lat": 50.0904453,
  "lon": 14.4208858
},
{
  "type": "node",
  "id": 313248223,
  "lat": 50.0904292,
  "lon": 14.4209370
},
{
  "type": "node",
  "id": 313248224,
  "lat": 50.0904364,
  "lon": 14.4209738
},
{
  "type": "node",
  "id": 313248225,
  "lat": 50.0903461,
  "lon": 14.4210214
},
{
  "type": "node",
  "id": 313248226,
  "lat": 50.0903356,
  "lon": 14.4209719
},
{
  "type": "node",
  "id": 313248227,
  "lat": 50.0902951,
  "lon": 14.4209918
},
{
  "type": "node",
  "id": 313248228,
  "lat": 50.0902901,
  "lon": 14.4209687
},
{
  "type": "node",
  "id": 313248229,
  "lat": 50.0902809,
  "lon": 14.4209731
},
{
  "type": "node",
  "id": 313248230,
  "lat": 50.0902762,
  "lon": 14.4209565
},
{
  "type": "node",
  "id": 313248231,
  "lat": 50.0902798,
  "lon": 14.4209547
},
{
  "type": "node",
  "id": 313248232,
  "lat": 50.0904486,
  "lon": 14.4209048
},
{
  "type": "node",
  "id": 313248233,
  "lat": 50.0904427,
  "lon": 14.4209300
},
{
  "type": "node",
  "id": 342286484,
  "lat": 50.0902364,
  "lon": 14.4207506
},
{
  "type": "node",
  "id": 342286541,
  "lat": 50.0903717,
  "lon": 14.4210080
},
{
  "type": "node",
  "id": 342286556,
  "lat": 50.0902666,
  "lon": 14.4208993
},
{
  "type": "node",
  "id": 1844429095,
  "lat": 50.0872107,
  "lon": 14.4242084
},
{
  "type": "node",
  "id": 1844429102,
  "lat": 50.0872133,
  "lon": 14.4244414
},
{
  "type": "node",
  "id": 1844429311,
  "lat": 50.0876323,
  "lon": 14.4241453
},
{
  "type": "node",
  "id": 1844429315,
  "lat": 50.0876371,
  "lon": 14.4244212
},
{
  "type": "node",
  "id": 3261476462,
  "lat": 50.0904908,
  "lon": 14.4206184
},
{
  "type": "node",
  "id": 3828163191,
  "lat": 50.0872111,
  "lon": 14.4242333
},
{
  "type": "node",
  "id": 3828163192,
  "lat": 50.0872127,
  "lon": 14.4244177
},
{
  "type": "node",
  "id": 3828163193,
  "lat": 50.0872541,
  "lon": 14.4242315
},
{
  "type": "node",
  "id": 4470420291,
  "lat": 50.0872594,
  "lon": 14.4244159
},
{
  "type": "node",
  "id": 4723945893,
  "lat": 50.0904729,
  "lon": 14.4207192
},
{
  "type": "node",
  "id": 277411116,
  "lat": 50.0976072,
  "lon": 14.4242836
},
{
  "type": "node",
  "id": 277411117,
  "lat": 50.0975831,
  "lon": 14.4241145
},
{
  "type": "node",
  "id": 277411119,
  "lat": 50.0971764,
  "lon": 14.4242520
},
{
  "type": "node",
  "id": 3844579601,
  "lat": 50.0973230,
  "lon": 14.4242012
},
{
  "type": "node",
  "id": 3844579602,
  "lat": 50.0973234,
  "lon": 14.4242045
},
{
  "type": "node",
  "id": 4738425246,
  "lat": 50.0973445,
  "lon": 14.4243741
},
{
  "type": "node",
  "id": 277411121,
  "lat": 50.0978866,
  "lon": 14.4253826
},
{
  "type": "node",
  "id": 620685110,
  "lat": 50.0973634,
  "lon": 14.4255638
},
{
  "type": "node",
  "id": 4738425247,
  "lat": 50.0978636,
  "lon": 14.4252083
},
{
  "type": "node",
  "id": 4738425249,
  "lat": 50.0974812,
  "lon": 14.4253399
},
{
  "type": "node",
  "id": 313667941,
  "lat": 50.0898137,
  "lon": 14.4381480
},
{
  "type": "node",
  "id": 313667943,
  "lat": 50.0899568,
  "lon": 14.4380742
},
{
  "type": "node",
  "id": 313667946,
  "lat": 50.0900228,
  "lon": 14.4383725
},
{
  "type": "node",
  "id": 313667947,
  "lat": 50.0900713,
  "lon": 14.4383461
},
{
  "type": "node",
  "id": 313667948,
  "lat": 50.0900761,
  "lon": 14.4383499
},
{
  "type": "node",
  "id": 313667951,
  "lat": 50.0901081,
  "lon": 14.4385116
},
{
  "type": "node",
  "id": 313667952,
  "lat": 50.0901092,
  "lon": 14.4385186
},
{
  "type": "node",
  "id": 313667953,
  "lat": 50.0900603,
  "lon": 14.4385442
},
{
  "type": "node",
  "id": 313667954,
  "lat": 50.0901263,
  "lon": 14.4388463
},
{
  "type": "node",
  "id": 313667955,
  "lat": 50.0900935,
  "lon": 14.4388638
},
{
  "type": "node",
  "id": 313667956,
  "lat": 50.0900948,
  "lon": 14.4388678
},
{
  "type": "node",
  "id": 313667957,
  "lat": 50.0900334,
  "lon": 14.4389039
},
{
  "type": "node",
  "id": 313667958,
  "lat": 50.0900164,
  "lon": 14.4389050
},
{
  "type": "node",
  "id": 313667959,
  "lat": 50.0899836,
  "lon": 14.4389226
},
{
  "type": "node",
  "id": 313667960,
  "lat": 50.0898803,
  "lon": 14.4384500
},
{
  "type": "node",
  "id": 313667965,
  "lat": 50.0898401,
  "lon": 14.4385946
},
{
  "type": "node",
  "id": 313667966,
  "lat": 50.0898586,
  "lon": 14.4386168
},
{
  "type": "node",
  "id": 313667968,
  "lat": 50.0898712,
  "lon": 14.4386261
},
{
  "type": "node",
  "id": 313667975,
  "lat": 50.0898336,
  "lon": 14.4385111
},
{
  "type": "node",
  "id": 313667976,
  "lat": 50.0898290,
  "lon": 14.4385373
},
{
  "type": "node",
  "id": 313667977,
  "lat": 50.0898384,
  "lon": 14.4384958
},
{
  "type": "node",
  "id": 378544479,
  "lat": 50.0900935,
  "lon": 14.4384302
},
{
  "type": "node",
  "id": 3290112799,
  "lat": 50.0898614,
  "lon": 14.4384602
},
{
  "type": "node",
  "id": 3290112800,
  "lat": 50.0898767,
  "lon": 14.4386286
},
{
  "type": "node",
  "id": 3290112801,
  "lat": 50.0899180,
  "lon": 14.4386187
},
{
  "type": "node",
  "id": 3290112802,
  "lat": 50.0900173,
  "lon": 14.4389092
},
{
  "type": "node",
  "id": 3290112803,
  "lat": 50.0900327,
  "lon": 14.4389014
},
{
  "type": "node",
  "id": 3290112805,
  "lat": 50.0900727,
  "lon": 14.4383519
},
{
  "type": "node",
  "id": 3290112806,
  "lat": 50.0901108,
  "lon": 14.4385106
},
{
  "type": "node",
  "id": 4384874499,
  "lat": 50.0898439,
  "lon": 14.4384864
},
{
  "type": "node",
  "id": 4384874500,
  "lat": 50.0898494,
  "lon": 14.4384775
},
{
  "type": "node",
  "id": 4384874501,
  "lat": 50.0898557,
  "lon": 14.4384676
},
{
  "type": "node",
  "id": 4384874503,
  "lat": 50.0898823,
  "lon": 14.4386301
},
{
  "type": "node",
  "id": 4384874505,
  "lat": 50.0898880,
  "lon": 14.4386305
},
{
  "type": "node",
  "id": 4384874506,
  "lat": 50.0898937,
  "lon": 14.4386300
},
{
  "type": "node",
  "id": 4384874507,
  "lat": 50.0898987,
  "lon": 14.4386294
},
{
  "type": "node",
  "id": 4384874520,
  "lat": 50.0900776,
  "lon": 14.4383567
},
{
  "type": "node",
  "id": 4384874528,
  "lat": 50.0901094,
  "lon": 14.4385041
},
{
  "type": "node",
  "id": 5078289615,
  "lat": 50.0898351,
  "lon": 14.4385687
},
{
  "type": "node",
  "id": 242744136,
  "lat": 50.1055221,
  "lon": 14.4278420
},
{
  "type": "node",
  "id": 242744137,
  "lat": 50.1054204,
  "lon": 14.4278118
},
{
  "type": "node",
  "id": 242744138,
  "lat": 50.1053279,
  "lon": 14.4276646
},
{
  "type": "node",
  "id": 242744139,
  "lat": 50.1053094,
  "lon": 14.4274979
},
{
  "type": "node",
  "id": 242744140,
  "lat": 50.1053742,
  "lon": 14.4272995
},
{
  "type": "node",
  "id": 331184318,
  "lat": 50.1055250,
  "lon": 14.4272233
},
{
  "type": "node",
  "id": 331184320,
  "lat": 50.1054258,
  "lon": 14.4272602
},
{
  "type": "node",
  "id": 331184324,
  "lat": 50.1053098,
  "lon": 14.4275630
},
{
  "type": "node",
  "id": 331184326,
  "lat": 50.1053885,
  "lon": 14.4277804
},
{
  "type": "node",
  "id": 331184328,
  "lat": 50.1054871,
  "lon": 14.4278412
},
{
  "type": "node",
  "id": 331184340,
  "lat": 50.1054534,
  "lon": 14.4278313
},
{
  "type": "node",
  "id": 331184341,
  "lat": 50.1053671,
  "lon": 14.4278093
},
{
  "type": "node",
  "id": 331184342,
  "lat": 50.1053091,
  "lon": 14.4276923
},
{
  "type": "node",
  "id": 331184343,
  "lat": 50.1054306,
  "lon": 14.4272434
},
{
  "type": "node",
  "id": 331184344,
  "lat": 50.1054264,
  "lon": 14.4272027
},
{
  "type": "node",
  "id": 331184345,
  "lat": 50.1055214,
  "lon": 14.4271798
},
{
  "type": "node",
  "id": 1784576427,
  "lat": 50.1053188,
  "lon": 14.4275604
},
{
  "type": "node",
  "id": 1784576428,
  "lat": 50.1053163,
  "lon": 14.4274446
},
{
  "type": "node",
  "id": 1784576429,
  "lat": 50.1053235,
  "lon": 14.4276493
},
{
  "type": "node",
  "id": 1784576430,
  "lat": 50.1053340,
  "lon": 14.4273789
},
{
  "type": "node",
  "id": 1784576431,
  "lat": 50.1053466,
  "lon": 14.4273467
},
{
  "type": "node",
  "id": 1784576432,
  "lat": 50.1053798,
  "lon": 14.4273107
},
{
  "type": "node",
  "id": 1784576438,
  "lat": 50.1054215,
  "lon": 14.4272490
},
{
  "type": "node",
  "id": 1784576443,
  "lat": 50.1055564,
  "lon": 14.4278344
},
{
  "type": "node",
  "id": 3849105432,
  "lat": 50.1053322,
  "lon": 14.4276453
},
{
  "type": "node",
  "id": 67465361,
  "lat": 50.1057736,
  "lon": 14.4309822
},
{
  "type": "node",
  "id": 242744132,
  "lat": 50.1056843,
  "lon": 14.4273856
},
{
  "type": "node",
  "id": 242744135,
  "lat": 50.1056194,
  "lon": 14.4277912
},
{
  "type": "node",
  "id": 242744142,
  "lat": 50.1055959,
  "lon": 14.4272539
},
{
  "type": "node",
  "id": 242744143,
  "lat": 50.1056517,
  "lon": 14.4273179
},
{
  "type": "node",
  "id": 264830939,
  "lat": 50.1065023,
  "lon": 14.4274383
},
{
  "type": "node",
  "id": 264830940,
  "lat": 50.1067468,
  "lon": 14.4273465
},
{
  "type": "node",
  "id": 264830941,
  "lat": 50.1065472,
  "lon": 14.4273424
},
{
  "type": "node",
  "id": 264830942,
  "lat": 50.1067951,
  "lon": 14.4275134
},
{
  "type": "node",
  "id": 264830943,
  "lat": 50.1066171,
  "lon": 14.4272942
},
{
  "type": "node",
  "id": 264830944,
  "lat": 50.1067771,
  "lon": 14.4276023
},
{
  "type": "node",
  "id": 264830945,
  "lat": 50.1066925,
  "lon": 14.4273076
},
{
  "type": "node",
  "id": 264830946,
  "lat": 50.1067322,
  "lon": 14.4276986
},
{
  "type": "node",
  "id": 264830947,
  "lat": 50.1066624,
  "lon": 14.4277465
},
{
  "type": "node",
  "id": 264830948,
  "lat": 50.1065876,
  "lon": 14.4277340
},
{
  "type": "node",
  "id": 264830949,
  "lat": 50.1065254,
  "lon": 14.4276645
},
{
  "type": "node",
  "id": 264830950,
  "lat": 50.1064951,
  "lon": 14.4275549
},
{
  "type": "node",
  "id": 331184316,
  "lat": 50.1057015,
  "lon": 14.4274581
},
{
  "type": "node",
  "id": 331184330,
  "lat": 50.1056473,
  "lon": 14.4277564
},
{
  "type": "node",
  "id": 331184336,
  "lat": 50.1055901,
  "lon": 14.4278162
},
{
  "type": "node",
  "id": 331184337,
  "lat": 50.1055755,
  "lon": 14.4278251
},
{
  "type": "node",
  "id": 331184338,
  "lat": 50.1055934,
  "lon": 14.4278339
},
{
  "type": "node",
  "id": 331184339,
  "lat": 50.1055799,
  "lon": 14.4278419
},
{
  "type": "node",
  "id": 331184346,
  "lat": 50.1056910,
  "lon": 14.4274063
},
{
  "type": "node",
  "id": 331184347,
  "lat": 50.1056951,
  "lon": 14.4273786
},
{
  "type": "node",
  "id": 331184348,
  "lat": 50.1057012,
  "lon": 14.4273984
},
{
  "type": "node",
  "id": 331184349,
  "lat": 50.1057081,
  "lon": 14.4275172
},
{
  "type": "node",
  "id": 331184350,
  "lat": 50.1067822,
  "lon": 14.4275225
},
{
  "type": "node",
  "id": 331184351,
  "lat": 50.1067345,
  "lon": 14.4273549
},
{
  "type": "node",
  "id": 1784567673,
  "lat": 50.1057808,
  "lon": 14.4310097
},
{
  "type": "node",
  "id": 1784567674,
  "lat": 50.1057851,
  "lon": 14.4310049
},
{
  "type": "node",
  "id": 1784576444,
  "lat": 50.1055634,
  "lon": 14.4272345
},
{
  "type": "node",
  "id": 1784576448,
  "lat": 50.1056261,
  "lon": 14.4272812
},
{
  "type": "node",
  "id": 1784576449,
  "lat": 50.1056745,
  "lon": 14.4273594
},
{
  "type": "node",
  "id": 4581260791,
  "lat": 50.1057310,
  "lon": 14.4276152
},
{
  "type": "node",
  "id": 4581260792,
  "lat": 50.1057085,
  "lon": 14.4277037
},
{
  "type": "node",
  "id": 4581260793,
  "lat": 50.1056770,
  "lon": 14.4277000
},
{
  "type": "node",
  "id": 4581260794,
  "lat": 50.1057058,
  "lon": 14.4275854
},
{
  "type": "node",
  "id": 4766847789,
  "lat": 50.1057202,
  "lon": 14.4276579
},
{
  "type": "node",
  "id": 4801212582,
  "lat": 50.1067706,
  "lon": 14.4274288
},
{
  "type": "node",
  "id": 5690842359,
  "lat": 50.1057951,
  "lon": 14.4310220
},
{
  "type": "node",
  "id": 67465364,
  "lat": 50.1051502,
  "lon": 14.4314139
},
{
  "type": "node",
  "id": 67465368,
  "lat": 50.1051882,
  "lon": 14.4315448
},
{
  "type": "node",
  "id": 67465372,
  "lat": 50.1052292,
  "lon": 14.4315164
},
{
  "type": "node",
  "id": 67465377,
  "lat": 50.1053583,
  "lon": 14.4319662
},
{
  "type": "node",
  "id": 67465382,
  "lat": 50.1054883,
  "lon": 14.4318765
},
{
  "type": "node",
  "id": 67465387,
  "lat": 50.1055074,
  "lon": 14.4319397
},
{
  "type": "node",
  "id": 1784567627,
  "lat": 50.1051528,
  "lon": 14.4314430
},
{
  "type": "node",
  "id": 1784567630,
  "lat": 50.1051577,
  "lon": 14.4314807
},
{
  "type": "node",
  "id": 1784567631,
  "lat": 50.1051584,
  "lon": 14.4314420
},
{
  "type": "node",
  "id": 1784567635,
  "lat": 50.1051753,
  "lon": 14.4315200
},
{
  "type": "node",
  "id": 1784567637,
  "lat": 50.1051794,
  "lon": 14.4315144
},
{
  "type": "node",
  "id": 1784567650,
  "lat": 50.1053643,
  "lon": 14.4312078
},
{
  "type": "node",
  "id": 1784567652,
  "lat": 50.1053706,
  "lon": 14.4311959
},
{
  "type": "node",
  "id": 1784567654,
  "lat": 50.1053797,
  "lon": 14.4312549
},
{
  "type": "node",
  "id": 1784567656,
  "lat": 50.1053983,
  "lon": 14.4311780
},
{
  "type": "node",
  "id": 1784567658,
  "lat": 50.1054038,
  "lon": 14.4311802
},
{
  "type": "node",
  "id": 1784567661,
  "lat": 50.1054206,
  "lon": 14.4311538
},
{
  "type": "node",
  "id": 1784567663,
  "lat": 50.1054428,
  "lon": 14.4311329
},
{
  "type": "node",
  "id": 1784567664,
  "lat": 50.1054670,
  "lon": 14.4311214
},
{
  "type": "node",
  "id": 1784567665,
  "lat": 50.1054912,
  "lon": 14.4311193
},
{
  "type": "node",
  "id": 1784567666,
  "lat": 50.1054944,
  "lon": 14.4311117
},
{
  "type": "node",
  "id": 1784567667,
  "lat": 50.1055012,
  "lon": 14.4311065
},
{
  "type": "node",
  "id": 1784567668,
  "lat": 50.1055084,
  "lon": 14.4310985
},
{
  "type": "node",
  "id": 1784567669,
  "lat": 50.1055172,
  "lon": 14.4310956
},
{
  "type": "node",
  "id": 1784567670,
  "lat": 50.1055245,
  "lon": 14.4310905
},
{
  "type": "node",
  "id": 1784567671,
  "lat": 50.1055302,
  "lon": 14.4310941
},
{
  "type": "node",
  "id": 1784567672,
  "lat": 50.1055452,
  "lon": 14.4311404
},
{
  "type": "node",
  "id": 5690842360,
  "lat": 50.1051542,
  "lon": 14.4314623
},
{
  "type": "node",
  "id": 5690842361,
  "lat": 50.1051654,
  "lon": 14.4315027
},
{
  "type": "node",
  "id": 67465357,
  "lat": 50.1058088,
  "lon": 14.4311158
},
{
  "type": "node",
  "id": 67465389,
  "lat": 50.1057865,
  "lon": 14.4317481
},
{
  "type": "node",
  "id": 67465392,
  "lat": 50.1057678,
  "lon": 14.4316825
},
{
  "type": "node",
  "id": 67465450,
  "lat": 50.1058978,
  "lon": 14.4315934
},
{
  "type": "node",
  "id": 67465457,
  "lat": 50.1057680,
  "lon": 14.4311440
},
{
  "type": "node",
  "id": 1784567691,
  "lat": 50.1058013,
  "lon": 14.4310874
},
{
  "type": "node",
  "id": 1784567693,
  "lat": 50.1058020,
  "lon": 14.4310405
},
{
  "type": "node",
  "id": 1784567700,
  "lat": 50.1058080,
  "lon": 14.4310838
},
{
  "type": "node",
  "id": 5690842358,
  "lat": 50.1058065,
  "lon": 14.4310619
},
{
  "type": "node",
  "id": 83232425,
  "lat": 50.0875726,
  "lon": 14.4448655
},
{
  "type": "node",
  "id": 83232429,
  "lat": 50.0874526,
  "lon": 14.4448073
},
{
  "type": "node",
  "id": 83232433,
  "lat": 50.0873449,
  "lon": 14.4453175
},
{
  "type": "node",
  "id": 83232437,
  "lat": 50.0875117,
  "lon": 14.4454018
},
{
  "type": "node",
  "id": 83232439,
  "lat": 50.0874819,
  "lon": 14.4455419
},
{
  "type": "node",
  "id": 83232441,
  "lat": 50.0872451,
  "lon": 14.4454223
},
{
  "type": "node",
  "id": 83232444,
  "lat": 50.0872718,
  "lon": 14.4452915
},
{
  "type": "node",
  "id": 83232446,
  "lat": 50.0872031,
  "lon": 14.4452566
},
{
  "type": "node",
  "id": 83232448,
  "lat": 50.0873559,
  "lon": 14.4445281
},
{
  "type": "node",
  "id": 83232451,
  "lat": 50.0876727,
  "lon": 14.4447118
},
{
  "type": "node",
  "id": 2493588218,
  "lat": 50.0887069,
  "lon": 14.4506712
},
{
  "type": "node",
  "id": 2861854676,
  "lat": 50.0884745,
  "lon": 14.4494648
},
{
  "type": "node",
  "id": 2861854677,
  "lat": 50.0884785,
  "lon": 14.4504616
},
{
  "type": "node",
  "id": 2861854678,
  "lat": 50.0884789,
  "lon": 14.4494588
},
{
  "type": "node",
  "id": 2861854679,
  "lat": 50.0884796,
  "lon": 14.4494627
},
{
  "type": "node",
  "id": 2861854687,
  "lat": 50.0885313,
  "lon": 14.4494384
},
{
  "type": "node",
  "id": 2861854688,
  "lat": 50.0885319,
  "lon": 14.4494425
},
{
  "type": "node",
  "id": 2861854689,
  "lat": 50.0885319,
  "lon": 14.4504401
},
{
  "type": "node",
  "id": 2861854690,
  "lat": 50.0885365,
  "lon": 14.4494365
},
{
  "type": "node",
  "id": 2861854691,
  "lat": 50.0885371,
  "lon": 14.4494406
},
{
  "type": "node",
  "id": 2861854693,
  "lat": 50.0885461,
  "lon": 14.4494327
},
{
  "type": "node",
  "id": 2861854694,
  "lat": 50.0885469,
  "lon": 14.4494368
},
{
  "type": "node",
  "id": 2861854695,
  "lat": 50.0885514,
  "lon": 14.4494306
},
{
  "type": "node",
  "id": 2861854696,
  "lat": 50.0885520,
  "lon": 14.4494347
},
{
  "type": "node",
  "id": 2861854697,
  "lat": 50.0885611,
  "lon": 14.4494312
},
{
  "type": "node",
  "id": 2861854907,
  "lat": 50.0883354,
  "lon": 14.4495186
},
{
  "type": "node",
  "id": 2861854908,
  "lat": 50.0883438,
  "lon": 14.4495110
},
{
  "type": "node",
  "id": 2861854909,
  "lat": 50.0883445,
  "lon": 14.4495151
},
{
  "type": "node",
  "id": 2861854910,
  "lat": 50.0883490,
  "lon": 14.4495090
},
{
  "type": "node",
  "id": 2861854911,
  "lat": 50.0883497,
  "lon": 14.4495130
},
{
  "type": "node",
  "id": 2861854913,
  "lat": 50.0883588,
  "lon": 14.4495053
},
{
  "type": "node",
  "id": 2861854914,
  "lat": 50.0883594,
  "lon": 14.4495092
},
{
  "type": "node",
  "id": 2861854915,
  "lat": 50.0883639,
  "lon": 14.4495032
},
{
  "type": "node",
  "id": 2861854916,
  "lat": 50.0883646,
  "lon": 14.4495073
},
{
  "type": "node",
  "id": 2861854917,
  "lat": 50.0883746,
  "lon": 14.4498162
},
{
  "type": "node",
  "id": 2861854918,
  "lat": 50.0883825,
  "lon": 14.4498132
},
{
  "type": "node",
  "id": 2861854919,
  "lat": 50.0883885,
  "lon": 14.4499021
},
{
  "type": "node",
  "id": 2861854921,
  "lat": 50.0883936,
  "lon": 14.4499000
},
{
  "type": "node",
  "id": 2861854922,
  "lat": 50.0883943,
  "lon": 14.4499041
},
{
  "type": "node",
  "id": 2861854923,
  "lat": 50.0883961,
  "lon": 14.4499034
},
{
  "type": "node",
  "id": 2861854924,
  "lat": 50.0883961,
  "lon": 14.4499495
},
{
  "type": "node",
  "id": 2861854925,
  "lat": 50.0883983,
  "lon": 14.4499630
},
{
  "type": "node",
  "id": 2861854926,
  "lat": 50.0884006,
  "lon": 14.4499435
},
{
  "type": "node",
  "id": 2861854927,
  "lat": 50.0884013,
  "lon": 14.4499476
},
{
  "type": "node",
  "id": 2861854928,
  "lat": 50.0884024,
  "lon": 14.4499428
},
{
  "type": "node",
  "id": 2861854929,
  "lat": 50.0884035,
  "lon": 14.4499609
},
{
  "type": "node",
  "id": 2861854930,
  "lat": 50.0884041,
  "lon": 14.4499650
},
{
  "type": "node",
  "id": 2861854931,
  "lat": 50.0884058,
  "lon": 14.4499644
},
{
  "type": "node",
  "id": 2861854932,
  "lat": 50.0884059,
  "lon": 14.4500104
},
{
  "type": "node",
  "id": 2861854933,
  "lat": 50.0884080,
  "lon": 14.4500240
},
{
  "type": "node",
  "id": 2861854934,
  "lat": 50.0884105,
  "lon": 14.4500043
},
{
  "type": "node",
  "id": 2861854935,
  "lat": 50.0884111,
  "lon": 14.4500084
},
{
  "type": "node",
  "id": 2861854936,
  "lat": 50.0884122,
  "lon": 14.4500036
},
{
  "type": "node",
  "id": 2861854937,
  "lat": 50.0884133,
  "lon": 14.4500219
},
{
  "type": "node",
  "id": 2861854938,
  "lat": 50.0884139,
  "lon": 14.4500260
},
{
  "type": "node",
  "id": 2861854939,
  "lat": 50.0884157,
  "lon": 14.4500253
},
{
  "type": "node",
  "id": 2861854940,
  "lat": 50.0884157,
  "lon": 14.4500714
},
{
  "type": "node",
  "id": 2861854941,
  "lat": 50.0884163,
  "lon": 14.4494830
},
{
  "type": "node",
  "id": 2861854942,
  "lat": 50.0884169,
  "lon": 14.4494871
},
{
  "type": "node",
  "id": 2861854943,
  "lat": 50.0884179,
  "lon": 14.4500850
},
{
  "type": "node",
  "id": 2861854944,
  "lat": 50.0884203,
  "lon": 14.4500654
},
{
  "type": "node",
  "id": 2861854945,
  "lat": 50.0884209,
  "lon": 14.4500695
},
{
  "type": "node",
  "id": 2861854946,
  "lat": 50.0884216,
  "lon": 14.4494809
},
{
  "type": "node",
  "id": 2861854947,
  "lat": 50.0884221,
  "lon": 14.4500647
},
{
  "type": "node",
  "id": 2861854948,
  "lat": 50.0884222,
  "lon": 14.4494850
},
{
  "type": "node",
  "id": 2861854949,
  "lat": 50.0884231,
  "lon": 14.4500829
},
{
  "type": "node",
  "id": 2861854950,
  "lat": 50.0884237,
  "lon": 14.4500870
},
{
  "type": "node",
  "id": 2861854951,
  "lat": 50.0884255,
  "lon": 14.4500863
},
{
  "type": "node",
  "id": 2861854952,
  "lat": 50.0884255,
  "lon": 14.4501324
},
{
  "type": "node",
  "id": 2861854953,
  "lat": 50.0884277,
  "lon": 14.4501461
},
{
  "type": "node",
  "id": 2861854955,
  "lat": 50.0884301,
  "lon": 14.4501264
},
{
  "type": "node",
  "id": 2861854956,
  "lat": 50.0884308,
  "lon": 14.4501305
},
{
  "type": "node",
  "id": 2861854957,
  "lat": 50.0884319,
  "lon": 14.4501257
},
{
  "type": "node",
  "id": 2861854958,
  "lat": 50.0884330,
  "lon": 14.4501440
},
{
  "type": "node",
  "id": 2861854960,
  "lat": 50.0884333,
  "lon": 14.4494791
},
{
  "type": "node",
  "id": 2861854961,
  "lat": 50.0884336,
  "lon": 14.4494806
},
{
  "type": "node",
  "id": 2861854962,
  "lat": 50.0884336,
  "lon": 14.4501480
},
{
  "type": "node",
  "id": 2861854963,
  "lat": 50.0884353,
  "lon": 14.4501474
},
{
  "type": "node",
  "id": 2861854964,
  "lat": 50.0884353,
  "lon": 14.4501934
},
{
  "type": "node",
  "id": 2861854966,
  "lat": 50.0884375,
  "lon": 14.4502070
},
{
  "type": "node",
  "id": 2861854967,
  "lat": 50.0884380,
  "lon": 14.4494772
},
{
  "type": "node",
  "id": 2861854968,
  "lat": 50.0884382,
  "lon": 14.4494787
},
{
  "type": "node",
  "id": 2861854969,
  "lat": 50.0884400,
  "lon": 14.4501873
},
{
  "type": "node",
  "id": 2861854970,
  "lat": 50.0884406,
  "lon": 14.4501914
},
{
  "type": "node",
  "id": 2861854971,
  "lat": 50.0884416,
  "lon": 14.4501867
},
{
  "type": "node",
  "id": 2861854972,
  "lat": 50.0884428,
  "lon": 14.4502049
},
{
  "type": "node",
  "id": 2861854973,
  "lat": 50.0884434,
  "lon": 14.4502090
},
{
  "type": "node",
  "id": 2861854975,
  "lat": 50.0884451,
  "lon": 14.4502543
},
{
  "type": "node",
  "id": 2861854976,
  "lat": 50.0884452,
  "lon": 14.4502083
},
{
  "type": "node",
  "id": 2861854977,
  "lat": 50.0884473,
  "lon": 14.4502680
},
{
  "type": "node",
  "id": 2861854979,
  "lat": 50.0884497,
  "lon": 14.4502483
},
{
  "type": "node",
  "id": 2861854980,
  "lat": 50.0884504,
  "lon": 14.4502524
},
{
  "type": "node",
  "id": 2861854981,
  "lat": 50.0884515,
  "lon": 14.4502476
},
{
  "type": "node",
  "id": 2861854984,
  "lat": 50.0884525,
  "lon": 14.4502659
},
{
  "type": "node",
  "id": 2861854985,
  "lat": 50.0884532,
  "lon": 14.4502700
},
{
  "type": "node",
  "id": 2861854987,
  "lat": 50.0884550,
  "lon": 14.4502693
},
{
  "type": "node",
  "id": 2861854988,
  "lat": 50.0884550,
  "lon": 14.4503153
},
{
  "type": "node",
  "id": 2861854989,
  "lat": 50.0884572,
  "lon": 14.4503289
},
{
  "type": "node",
  "id": 2861854991,
  "lat": 50.0884595,
  "lon": 14.4503092
},
{
  "type": "node",
  "id": 2861854992,
  "lat": 50.0884602,
  "lon": 14.4503133
},
{
  "type": "node",
  "id": 2861854993,
  "lat": 50.0884613,
  "lon": 14.4503086
},
{
  "type": "node",
  "id": 2861854994,
  "lat": 50.0884623,
  "lon": 14.4503268
},
{
  "type": "node",
  "id": 2861854995,
  "lat": 50.0884631,
  "lon": 14.4503309
},
{
  "type": "node",
  "id": 2861854996,
  "lat": 50.0884647,
  "lon": 14.4503303
},
{
  "type": "node",
  "id": 2861854997,
  "lat": 50.0884648,
  "lon": 14.4503762
},
{
  "type": "node",
  "id": 2861854998,
  "lat": 50.0884694,
  "lon": 14.4503702
},
{
  "type": "node",
  "id": 2861855000,
  "lat": 50.0884700,
  "lon": 14.4503743
},
{
  "type": "node",
  "id": 2861855001,
  "lat": 50.0884711,
  "lon": 14.4503695
},
{
  "type": "node",
  "id": 2861855002,
  "lat": 50.0884738,
  "lon": 14.4494607
},
{
  "type": "node",
  "id": 2861855104,
  "lat": 50.0886085,
  "lon": 14.4497271
},
{
  "type": "node",
  "id": 2861855105,
  "lat": 50.0886164,
  "lon": 14.4497241
},
{
  "type": "node",
  "id": 2861855106,
  "lat": 50.0886232,
  "lon": 14.4498136
},
{
  "type": "node",
  "id": 2861855107,
  "lat": 50.0886244,
  "lon": 14.4498089
},
{
  "type": "node",
  "id": 2861855108,
  "lat": 50.0886250,
  "lon": 14.4498130
},
{
  "type": "node",
  "id": 2861855111,
  "lat": 50.0886295,
  "lon": 14.4498532
},
{
  "type": "node",
  "id": 2861855112,
  "lat": 50.0886296,
  "lon": 14.4498069
},
{
  "type": "node",
  "id": 2861855113,
  "lat": 50.0886313,
  "lon": 14.4498525
},
{
  "type": "node",
  "id": 2861855114,
  "lat": 50.0886319,
  "lon": 14.4498566
},
{
  "type": "node",
  "id": 2861855116,
  "lat": 50.0886330,
  "lon": 14.4498749
},
{
  "type": "node",
  "id": 2861855118,
  "lat": 50.0886341,
  "lon": 14.4498701
},
{
  "type": "node",
  "id": 2861855120,
  "lat": 50.0886348,
  "lon": 14.4498742
},
{
  "type": "node",
  "id": 2861855123,
  "lat": 50.0886372,
  "lon": 14.4498547
},
{
  "type": "node",
  "id": 2861855125,
  "lat": 50.0886393,
  "lon": 14.4499143
},
{
  "type": "node",
  "id": 2861855126,
  "lat": 50.0886394,
  "lon": 14.4498682
},
{
  "type": "node",
  "id": 2861855127,
  "lat": 50.0886410,
  "lon": 14.4499135
},
{
  "type": "node",
  "id": 2861855128,
  "lat": 50.0886417,
  "lon": 14.4499176
},
{
  "type": "node",
  "id": 2861855130,
  "lat": 50.0886427,
  "lon": 14.4499360
},
{
  "type": "node",
  "id": 2861855132,
  "lat": 50.0886439,
  "lon": 14.4499312
},
{
  "type": "node",
  "id": 2861855133,
  "lat": 50.0886445,
  "lon": 14.4499353
},
{
  "type": "node",
  "id": 2861855134,
  "lat": 50.0886469,
  "lon": 14.4499156
},
{
  "type": "node",
  "id": 2861855135,
  "lat": 50.0886490,
  "lon": 14.4499292
},
{
  "type": "node",
  "id": 2861855136,
  "lat": 50.0886490,
  "lon": 14.4499753
},
{
  "type": "node",
  "id": 2861855137,
  "lat": 50.0886508,
  "lon": 14.4499746
},
{
  "type": "node",
  "id": 2861855138,
  "lat": 50.0886514,
  "lon": 14.4499787
},
{
  "type": "node",
  "id": 2861855139,
  "lat": 50.0886525,
  "lon": 14.4499970
},
{
  "type": "node",
  "id": 2861855141,
  "lat": 50.0886535,
  "lon": 14.4499922
},
{
  "type": "node",
  "id": 2861855143,
  "lat": 50.0886542,
  "lon": 14.4499963
},
{
  "type": "node",
  "id": 2861855144,
  "lat": 50.0886566,
  "lon": 14.4499766
},
{
  "type": "node",
  "id": 2861855146,
  "lat": 50.0886587,
  "lon": 14.4500363
},
{
  "type": "node",
  "id": 2861855147,
  "lat": 50.0886588,
  "lon": 14.4499903
},
{
  "type": "node",
  "id": 2861855149,
  "lat": 50.0886604,
  "lon": 14.4500356
},
{
  "type": "node",
  "id": 2861855151,
  "lat": 50.0886611,
  "lon": 14.4500397
},
{
  "type": "node",
  "id": 2861855152,
  "lat": 50.0886621,
  "lon": 14.4500581
},
{
  "type": "node",
  "id": 2861855153,
  "lat": 50.0886633,
  "lon": 14.4500534
},
{
  "type": "node",
  "id": 2861855154,
  "lat": 50.0886639,
  "lon": 14.4500573
},
{
  "type": "node",
  "id": 2861855156,
  "lat": 50.0886653,
  "lon": 14.4503884
},
{
  "type": "node",
  "id": 2861855157,
  "lat": 50.0886663,
  "lon": 14.4500378
},
{
  "type": "node",
  "id": 2861855158,
  "lat": 50.0886684,
  "lon": 14.4500974
},
{
  "type": "node",
  "id": 2861855159,
  "lat": 50.0886685,
  "lon": 14.4500512
},
{
  "type": "node",
  "id": 2861855161,
  "lat": 50.0886702,
  "lon": 14.4500967
},
{
  "type": "node",
  "id": 2861855162,
  "lat": 50.0886708,
  "lon": 14.4501008
},
{
  "type": "node",
  "id": 2861855163,
  "lat": 50.0886719,
  "lon": 14.4501191
},
{
  "type": "node",
  "id": 2861855164,
  "lat": 50.0886730,
  "lon": 14.4501143
},
{
  "type": "node",
  "id": 2861855165,
  "lat": 50.0886736,
  "lon": 14.4501184
},
{
  "type": "node",
  "id": 2861855166,
  "lat": 50.0886761,
  "lon": 14.4500987
},
{
  "type": "node",
  "id": 2861855167,
  "lat": 50.0886782,
  "lon": 14.4501124
},
{
  "type": "node",
  "id": 2861855168,
  "lat": 50.0886782,
  "lon": 14.4501584
},
{
  "type": "node",
  "id": 2861855169,
  "lat": 50.0886799,
  "lon": 14.4501577
},
{
  "type": "node",
  "id": 2861855171,
  "lat": 50.0886806,
  "lon": 14.4501618
},
{
  "type": "node",
  "id": 2861855173,
  "lat": 50.0886816,
  "lon": 14.4501801
},
{
  "type": "node",
  "id": 2861855174,
  "lat": 50.0886828,
  "lon": 14.4501754
},
{
  "type": "node",
  "id": 2861855175,
  "lat": 50.0886834,
  "lon": 14.4501794
},
{
  "type": "node",
  "id": 2861855176,
  "lat": 50.0886858,
  "lon": 14.4501598
},
{
  "type": "node",
  "id": 2861855177,
  "lat": 50.0886879,
  "lon": 14.4501734
},
{
  "type": "node",
  "id": 2861855178,
  "lat": 50.0886879,
  "lon": 14.4502196
},
{
  "type": "node",
  "id": 2861855179,
  "lat": 50.0886897,
  "lon": 14.4502190
},
{
  "type": "node",
  "id": 2861855180,
  "lat": 50.0886903,
  "lon": 14.4502231
},
{
  "type": "node",
  "id": 2861855181,
  "lat": 50.0886914,
  "lon": 14.4502413
},
{
  "type": "node",
  "id": 2861855182,
  "lat": 50.0886924,
  "lon": 14.4502366
},
{
  "type": "node",
  "id": 2861855183,
  "lat": 50.0886931,
  "lon": 14.4502407
},
{
  "type": "node",
  "id": 2861855184,
  "lat": 50.0886955,
  "lon": 14.4502210
},
{
  "type": "node",
  "id": 2861855185,
  "lat": 50.0886976,
  "lon": 14.4502806
},
{
  "type": "node",
  "id": 2861855186,
  "lat": 50.0886977,
  "lon": 14.4502346
},
{
  "type": "node",
  "id": 2861855187,
  "lat": 50.0886993,
  "lon": 14.4502800
},
{
  "type": "node",
  "id": 2861855188,
  "lat": 50.0887000,
  "lon": 14.4502841
},
{
  "type": "node",
  "id": 2861855190,
  "lat": 50.0887052,
  "lon": 14.4502821
},
{
  "type": "node",
  "id": 2861855191,
  "lat": 50.0887098,
  "lon": 14.4506700
},
{
  "type": "node",
  "id": 2861855192,
  "lat": 50.0887189,
  "lon": 14.4503676
},
{
  "type": "node",
  "id": 3930702330,
  "lat": 50.0874377,
  "lon": 14.4448781
},
{
  "type": "node",
  "id": 3930702332,
  "lat": 50.0876112,
  "lon": 14.4446811
},
{
  "type": "node",
  "id": 3930702333,
  "lat": 50.0876156,
  "lon": 14.4446601
},
{
  "type": "node",
  "id": 3930702335,
  "lat": 50.0876325,
  "lon": 14.4449018
},
{
  "type": "node",
  "id": 3971474457,
  "lat": 50.0874179,
  "lon": 14.4455139
},
{
  "type": "node",
  "id": 3971474458,
  "lat": 50.0874187,
  "lon": 14.4455100
},
{
  "type": "node",
  "id": 3971474461,
  "lat": 50.0874540,
  "lon": 14.4455322
},
{
  "type": "node",
  "id": 3971474462,
  "lat": 50.0874548,
  "lon": 14.4455282
},
{
  "type": "node",
  "id": 3971474468,
  "lat": 50.0875720,
  "lon": 14.4448682
},
{
  "type": "node",
  "id": 3971474469,
  "lat": 50.0875957,
  "lon": 14.4448836
},
{
  "type": "node",
  "id": 3971474470,
  "lat": 50.0875969,
  "lon": 14.4448779
},
{
  "type": "node",
  "id": 3971474471,
  "lat": 50.0876040,
  "lon": 14.4448881
},
{
  "type": "node",
  "id": 3971474472,
  "lat": 50.0876053,
  "lon": 14.4448819
},
{
  "type": "node",
  "id": 3971474474,
  "lat": 50.0876251,
  "lon": 14.4448982
},
{
  "type": "node",
  "id": 3971474475,
  "lat": 50.0876263,
  "lon": 14.4448924
},
{
  "type": "node",
  "id": 4722461038,
  "lat": 50.0884580,
  "lon": 14.4502883
},
{
  "type": "node",
  "id": 181292474,
  "lat": 50.0887177,
  "lon": 14.4508947
},
{
  "type": "node",
  "id": 181292475,
  "lat": 50.0886747,
  "lon": 14.4509351
},
{
  "type": "node",
  "id": 181292476,
  "lat": 50.0886474,
  "lon": 14.4509328
},
{
  "type": "node",
  "id": 181292477,
  "lat": 50.0886009,
  "lon": 14.4508546
},
{
  "type": "node",
  "id": 2493588112,
  "lat": 50.0885769,
  "lon": 14.4507226
},
{
  "type": "node",
  "id": 2493588113,
  "lat": 50.0885774,
  "lon": 14.4507245
},
{
  "type": "node",
  "id": 2493588114,
  "lat": 50.0885798,
  "lon": 14.4507236
},
{
  "type": "node",
  "id": 2493588116,
  "lat": 50.0886053,
  "lon": 14.4508752
},
{
  "type": "node",
  "id": 2493588120,
  "lat": 50.0886106,
  "lon": 14.4508907
},
{
  "type": "node",
  "id": 2493588124,
  "lat": 50.0886182,
  "lon": 14.4509050
},
{
  "type": "node",
  "id": 2493588130,
  "lat": 50.0886280,
  "lon": 14.4509173
},
{
  "type": "node",
  "id": 2493588143,
  "lat": 50.0886379,
  "lon": 14.4509274
},
{
  "type": "node",
  "id": 2493588169,
  "lat": 50.0886604,
  "lon": 14.4509360
},
{
  "type": "node",
  "id": 2493588195,
  "lat": 50.0886866,
  "lon": 14.4509308
},
{
  "type": "node",
  "id": 2493588210,
  "lat": 50.0886990,
  "lon": 14.4509216
},
{
  "type": "node",
  "id": 2493588220,
  "lat": 50.0887100,
  "lon": 14.4509086
},
{
  "type": "node",
  "id": 2493588227,
  "lat": 50.0887256,
  "lon": 14.4508734
},
{
  "type": "node",
  "id": 2493588228,
  "lat": 50.0887280,
  "lon": 14.4508072
},
{
  "type": "node",
  "id": 2493588229,
  "lat": 50.0887292,
  "lon": 14.4508543
},
{
  "type": "node",
  "id": 2493588230,
  "lat": 50.0887295,
  "lon": 14.4508204
},
{
  "type": "node",
  "id": 2493588232,
  "lat": 50.0887302,
  "lon": 14.4508361
},
{
  "type": "node",
  "id": 770915210,
  "lat": 49.9928642,
  "lon": 14.6631264
},
{
  "type": "node",
  "id": 770915230,
  "lat": 49.9929210,
  "lon": 14.6630762
},
{
  "type": "node",
  "id": 770915253,
  "lat": 49.9929277,
  "lon": 14.6631025
},
{
  "type": "node",
  "id": 770915269,
  "lat": 49.9928976,
  "lon": 14.6629555
},
{
  "type": "node",
  "id": 770915286,
  "lat": 49.9928473,
  "lon": 14.6631371
},
{
  "type": "node",
  "id": 770915301,
  "lat": 49.9928088,
  "lon": 14.6629895
},
{
  "type": "node",
  "id": 770915317,
  "lat": 49.9928676,
  "lon": 14.6631394
},
{
  "type": "node",
  "id": 770915334,
  "lat": 49.9929397,
  "lon": 14.6629292
},
{
  "type": "node",
  "id": 770915365,
  "lat": 49.9928926,
  "lon": 14.6629367
},
{
  "type": "node",
  "id": 770915381,
  "lat": 49.9929705,
  "lon": 14.6630466
},
{
  "type": "node",
  "id": 1735396474,
  "lat": 50.1249861,
  "lon": 14.5358836
},
{
  "type": "node",
  "id": 1735396484,
  "lat": 50.1250302,
  "lon": 14.5354210
},
{
  "type": "node",
  "id": 1735396486,
  "lat": 50.1250555,
  "lon": 14.5354387
},
{
  "type": "node",
  "id": 1735396488,
  "lat": 50.1250643,
  "lon": 14.5352995
},
{
  "type": "node",
  "id": 1735396491,
  "lat": 50.1250803,
  "lon": 14.5354637
},
{
  "type": "node",
  "id": 1735396493,
  "lat": 50.1250968,
  "lon": 14.5352159
},
{
  "type": "node",
  "id": 1735396506,
  "lat": 50.1251106,
  "lon": 14.5355377
},
{
  "type": "node",
  "id": 1735396511,
  "lat": 50.1251325,
  "lon": 14.5356294
},
{
  "type": "node",
  "id": 1735396513,
  "lat": 50.1251437,
  "lon": 14.5356203
},
{
  "type": "node",
  "id": 1735396515,
  "lat": 50.1251628,
  "lon": 14.5357039
},
{
  "type": "node",
  "id": 1784864427,
  "lat": 50.1245469,
  "lon": 14.5336177
},
{
  "type": "node",
  "id": 1784864428,
  "lat": 50.1248430,
  "lon": 14.5333122
},
{
  "type": "node",
  "id": 1784864429,
  "lat": 50.1245368,
  "lon": 14.5337791
},
{
  "type": "node",
  "id": 1784864431,
  "lat": 50.1247863,
  "lon": 14.5333704
},
{
  "type": "node",
  "id": 1784864433,
  "lat": 50.1245232,
  "lon": 14.5336407
},
{
  "type": "node",
  "id": 61101333,
  "lat": 50.1249965,
  "lon": 14.5365436
},
{
  "type": "node",
  "id": 1735396445,
  "lat": 50.1249053,
  "lon": 14.5362976
},
{
  "type": "node",
  "id": 1735396446,
  "lat": 50.1249293,
  "lon": 14.5360561
},
{
  "type": "node",
  "id": 1735396448,
  "lat": 50.1249446,
  "lon": 14.5360950
},
{
  "type": "node",
  "id": 1735396452,
  "lat": 50.1249663,
  "lon": 14.5360742
},
{
  "type": "node",
  "id": 1735396478,
  "lat": 50.1250135,
  "lon": 14.5361938
},
{
  "type": "node",
  "id": 1735396482,
  "lat": 50.1250188,
  "lon": 14.5359689
},
{
  "type": "node",
  "id": 4088601339,
  "lat": 50.1292076,
  "lon": 14.5291031
},
{
  "type": "node",
  "id": 4088601340,
  "lat": 50.1292088,
  "lon": 14.5290791
},
{
  "type": "node",
  "id": 4088601341,
  "lat": 50.1292101,
  "lon": 14.5291206
},
{
  "type": "node",
  "id": 4088601343,
  "lat": 50.1292123,
  "lon": 14.5291014
},
{
  "type": "node",
  "id": 4088601344,
  "lat": 50.1292150,
  "lon": 14.5291188
},
{
  "type": "node",
  "id": 4088601350,
  "lat": 50.1292780,
  "lon": 14.5290535
},
{
  "type": "node",
  "id": 4088601373,
  "lat": 50.1294795,
  "lon": 14.5289759
},
{
  "type": "node",
  "id": 1735396548,
  "lat": 50.1255443,
  "lon": 14.5350874
},
{
  "type": "node",
  "id": 1735396549,
  "lat": 50.1255497,
  "lon": 14.5351012
},
{
  "type": "node",
  "id": 1735396555,
  "lat": 50.1257450,
  "lon": 14.5356554
},
{
  "type": "node",
  "id": 4088601305,
  "lat": 50.1286870,
  "lon": 14.5295501
},
{
  "type": "node",
  "id": 4088601307,
  "lat": 50.1286998,
  "lon": 14.5298319
},
{
  "type": "node",
  "id": 4088601323,
  "lat": 50.1289679,
  "lon": 14.5295216
},
{
  "type": "node",
  "id": 4088601324,
  "lat": 50.1289801,
  "lon": 14.5298024
},
{
  "type": "node",
  "id": 4088601355,
  "lat": 50.1293168,
  "lon": 14.5297701
},
{
  "type": "node",
  "id": 4088601376,
  "lat": 50.1295890,
  "lon": 14.5296646
},
{
  "type": "node",
  "id": 7200559598,
  "lat": 50.1255729,
  "lon": 14.5351670
},
{
  "type": "node",
  "id": 61101334,
  "lat": 50.1254257,
  "lon": 14.5376330
},
{
  "type": "node",
  "id": 1365380682,
  "lat": 50.1258158,
  "lon": 14.5386045
},
{
  "type": "node",
  "id": 1365380683,
  "lat": 50.1260876,
  "lon": 14.5383508
},
{
  "type": "node",
  "id": 1735396605,
  "lat": 50.1260991,
  "lon": 14.5364900
},
{
  "type": "node",
  "id": 1735396615,
  "lat": 50.1264230,
  "lon": 14.5388119
},
{
  "type": "node",
  "id": 1735396644,
  "lat": 50.1268252,
  "lon": 14.5383134
},
{
  "type": "node",
  "id": 1735396666,
  "lat": 50.1268710,
  "lon": 14.5384300
},
{
  "type": "node",
  "id": 1735450055,
  "lat": 50.1255428,
  "lon": 14.5379208
},
{
  "type": "node",
  "id": 1784780780,
  "lat": 50.1263258,
  "lon": 14.5389518
},
{
  "type": "node",
  "id": 4088600766,
  "lat": 50.1258202,
  "lon": 14.5385998
},
{
  "type": "node",
  "id": 4088600768,
  "lat": 50.1258225,
  "lon": 14.5386058
},
{
  "type": "node",
  "id": 4088600785,
  "lat": 50.1258640,
  "lon": 14.5385576
},
{
  "type": "node",
  "id": 4088600787,
  "lat": 50.1258664,
  "lon": 14.5385636
},
{
  "type": "node",
  "id": 4088600890,
  "lat": 50.1258708,
  "lon": 14.5385511
},
{
  "type": "node",
  "id": 4088600891,
  "lat": 50.1258731,
  "lon": 14.5385571
},
{
  "type": "node",
  "id": 4088600897,
  "lat": 50.1259332,
  "lon": 14.5384911
},
{
  "type": "node",
  "id": 4088600900,
  "lat": 50.1259356,
  "lon": 14.5384970
},
{
  "type": "node",
  "id": 4088600902,
  "lat": 50.1259395,
  "lon": 14.5384851
},
{
  "type": "node",
  "id": 4088600903,
  "lat": 50.1259418,
  "lon": 14.5384910
},
{
  "type": "node",
  "id": 4088600907,
  "lat": 50.1259853,
  "lon": 14.5384492
},
{
  "type": "node",
  "id": 4088600910,
  "lat": 50.1259938,
  "lon": 14.5384410
},
{
  "type": "node",
  "id": 1308259487,
  "lat": 50.1489812,
  "lon": 14.5647696
},
{
  "type": "node",
  "id": 1308259585,
  "lat": 50.1489498,
  "lon": 14.5646966
},
{
  "type": "node",
  "id": 2795015577,
  "lat": 50.1489282,
  "lon": 14.5646471
},
{
  "type": "node",
  "id": 2795015599,
  "lat": 50.1489551,
  "lon": 14.5645832
},
{
  "type": "node",
  "id": 2795015615,
  "lat": 50.1489660,
  "lon": 14.5646083
},
{
  "type": "node",
  "id": 2795015638,
  "lat": 50.1489852,
  "lon": 14.5645428
},
{
  "type": "node",
  "id": 2795015641,
  "lat": 50.1489885,
  "lon": 14.5645506
},
{
  "type": "node",
  "id": 2795015642,
  "lat": 50.1489902,
  "lon": 14.5647913
},
{
  "type": "node",
  "id": 2795015706,
  "lat": 50.1490591,
  "lon": 14.5644641
},
{
  "type": "node",
  "id": 2795015718,
  "lat": 50.1490728,
  "lon": 14.5644959
},
{
  "type": "node",
  "id": 2795015857,
  "lat": 50.1491435,
  "lon": 14.5644226
},
{
  "type": "node",
  "id": 2795016033,
  "lat": 50.1492052,
  "lon": 14.5645666
},
{
  "type": "node",
  "id": 908980548,
  "lat": 50.1259924,
  "lon": 14.7783401
},
{
  "type": "node",
  "id": 908994044,
  "lat": 50.1261278,
  "lon": 14.7783611
},
{
  "type": "node",
  "id": 908979962,
  "lat": 50.1259831,
  "lon": 14.7784859
},
{
  "type": "node",
  "id": 908981564,
  "lat": 50.1260877,
  "lon": 14.7789882
},
{
  "type": "node",
  "id": 908985590,
  "lat": 50.1259605,
  "lon": 14.7788360
},
{
  "type": "node",
  "id": 908995007,
  "lat": 50.1259524,
  "lon": 14.7789701
},
{
  "type": "node",
  "id": 332068592,
  "lat": 50.0749893,
  "lon": 14.8539697
},
{
  "type": "node",
  "id": 332068593,
  "lat": 50.0748803,
  "lon": 14.8538981
},
{
  "type": "node",
  "id": 332068594,
  "lat": 50.0747624,
  "lon": 14.8541502
},
{
  "type": "node",
  "id": 332068595,
  "lat": 50.0748322,
  "lon": 14.8542462
},
{
  "type": "node",
  "id": 441578871,
  "lat": 50.0748465,
  "lon": 14.8539591
},
{
  "type": "node",
  "id": 441578872,
  "lat": 50.0748580,
  "lon": 14.8539750
},
{
  "type": "node",
  "id": 441578873,
  "lat": 50.0749112,
  "lon": 14.8539409
},
{
  "type": "node",
  "id": 441578874,
  "lat": 50.0749234,
  "lon": 14.8539216
},
{
  "type": "node",
  "id": 441578875,
  "lat": 50.0749464,
  "lon": 14.8539536
},
{
  "type": "node",
  "id": 441578876,
  "lat": 50.0749601,
  "lon": 14.8539309
},
{
  "type": "node",
  "id": 441578877,
  "lat": 50.0748161,
  "lon": 14.8542258
},
{
  "type": "node",
  "id": 441578878,
  "lat": 50.0747752,
  "lon": 14.8541690
},
{
  "type": "node",
  "id": 441578879,
  "lat": 50.0747551,
  "lon": 14.8542096
},
{
  "type": "node",
  "id": 441578880,
  "lat": 50.0747974,
  "lon": 14.8542583
},
{
  "type": "node",
  "id": 441578881,
  "lat": 50.0747811,
  "lon": 14.8542598
},
{
  "type": "node",
  "id": 441578882,
  "lat": 50.0747574,
  "lon": 14.8542321
},
{
  "type": "node",
  "id": 6425017493,
  "lat": 50.0749882,
  "lon": 14.8539514
},
{
  "type": "node",
  "id": 6425017494,
  "lat": 50.0749724,
  "lon": 14.8539294
},
{
  "type": "way",
  "id": 26764433,
  "nodes": [
    293559407,
    300523632,
    300523633,
    300523635,
    300523636,
    300523638,
    300523643,
    300523644,
    300523649,
    300523685,
    300523676,
    300523681,
    300523654,
    300523688
  ]
},
{
  "type": "way",
  "id": 502919615,
  "nodes": [
    300523688,
    300523697,
    300523699,
    300523701,
    300523695,
    2563931225,
    300523698,
    300523706,
    300523708,
    300523704,
    293559409,
    352742391,
    352742392,
    300523604,
    1838288346,
    300523607,
    2563931227,
    300523608,
    300523610,
    300523612,
    300523616,
    300523615,
    300523618,
    293559416,
    300523621,
    300523622,
    2563931255,
    300523624,
    300523619,
    4761370995,
    300523630,
    300523628,
    293559407
  ]
},
{
  "type": "way",
  "id": 29169732,
  "nodes": [
    320808935,
    320808922,
    320808923,
    320808924,
    320808925,
    320808926,
    320808927,
    320808928,
    320808929,
    320808930,
    320808931,
    320808933,
    320808906,
    3693596228,
    320808935
  ]
},
{
  "type": "way",
  "id": 241763484,
  "nodes": [
    2861854689,
    2861854677,
    2861854997,
    2861855000,
    2861854998,
    2861855001,
    2861854996,
    2861854995,
    2861854994,
    2861854989,
    2861854988,
    2861854992,
    2861854991,
    2861854993,
    4722461038,
    2861854987,
    2861854985,
    2861854984,
    2861854977,
    2861854975,
    2861854980,
    2861854979,
    2861854981,
    2861854976,
    2861854973,
    2861854972,
    2861854966,
    2861854964,
    2861854970,
    2861854969,
    2861854971,
    2861854963,
    2861854962,
    2861854958,
    2861854953,
    2861854952,
    2861854956,
    2861854955,
    2861854957,
    2861854951,
    2861854950,
    2861854949,
    2861854943,
    2861854940,
    2861854945,
    2861854944,
    2861854947,
    2861854939,
    2861854938,
    2861854937,
    2861854933,
    2861854932,
    2861854935,
    2861854934,
    2861854936,
    2861854931,
    2861854930,
    2861854929,
    2861854925,
    2861854924,
    2861854927,
    2861854926,
    2861854928,
    2861854923,
    2861854922,
    2861854921,
    2861854919,
    2861854917,
    2861854918
  ]
},
{
  "type": "way",
  "id": 454893472,
  "nodes": [
    2861854918,
    2861854907,
    2861854909,
    2861854908,
    2861854910,
    2861854911,
    2861854914,
    2861854913,
    2861854915,
    2861854916,
    2861854942,
    2861854941,
    2861854946,
    2861854948,
    2861854961,
    2861854960,
    2861854967,
    2861854968,
    2861854676,
    2861855002,
    2861854678,
    2861854679,
    2861854688,
    2861854687,
    2861854690,
    2861854691,
    2861854694,
    2861854693,
    2861854695,
    2861854696,
    2861854697,
    2861855104
  ]
},
{
  "type": "way",
  "id": 454893473,
  "nodes": [
    2861855104,
    2861855105,
    2861855112,
    2861855107,
    2861855108,
    2861855106,
    2861855111,
    2861855113,
    2861855114,
    2861855123,
    2861855126,
    2861855118,
    2861855120,
    2861855116,
    2861855125,
    2861855127,
    2861855128,
    2861855134,
    2861855135,
    2861855132,
    2861855133,
    2861855130,
    2861855136,
    2861855137,
    2861855138,
    2861855144,
    2861855147,
    2861855141,
    2861855143,
    2861855139,
    2861855146,
    2861855149,
    2861855151,
    2861855157,
    2861855159,
    2861855153,
    2861855154,
    2861855152,
    2861855158,
    2861855161,
    2861855162,
    2861855166,
    2861855167,
    2861855164,
    2861855165,
    2861855163,
    2861855168,
    2861855169,
    2861855171,
    2861855176,
    2861855177,
    2861855174,
    2861855175,
    2861855173,
    2861855178,
    2861855179,
    2861855180,
    2861855184,
    2861855186,
    2861855182,
    2861855183,
    2861855181,
    2861855185,
    2861855187,
    2861855188,
    2861855190,
    2861855192,
    2861855156
  ]
},
{
  "type": "way",
  "id": 454893469,
  "nodes": [
    2493588112,
    2861854689
  ]
},
{
  "type": "way",
  "id": 454893474,
  "nodes": [
    2861855156,
    2861855191,
    2493588218,
    2493588228,
    2493588230,
    2493588232,
    2493588229,
    2493588227,
    181292474,
    2493588220,
    2493588210,
    2493588195,
    181292475,
    2493588169,
    181292476,
    2493588143,
    2493588130,
    2493588124,
    2493588120,
    2493588116,
    181292477,
    2493588114,
    2493588113,
    2493588112
  ]
},
{
  "type": "way",
  "id": 167070188,
  "nodes": [
    1735396445,
    1735396478,
    1735396452,
    1735396448,
    1735396446,
    1735396482,
    1735396474,
    1735396515,
    1735396511
  ]
},
{
  "type": "way",
  "id": 200600445,
  "nodes": [
    1784864428,
    1735396548
  ]
},
{
  "type": "way",
  "id": 161571001,
  "nodes": [
    1735396484,
    1735396488,
    1735396493,
    1784864429,
    1784864433,
    1784864427,
    1784864431,
    1784864428
  ]
},
{
  "type": "way",
  "id": 167070186,
  "nodes": [
    1735396484,
    1735396486,
    1735396491,
    1735396506,
    1735396513,
    1735396511
  ]
},
{
  "type": "way",
  "id": 167070183,
  "nodes": [
    61101334,
    61101333
  ]
},
{
  "type": "way",
  "id": 161570989,
  "nodes": [
    1735396445,
    61101333
  ]
},
{
  "type": "way",
  "id": 167070187,
  "nodes": [
    1735396548,
    1735396549,
    7200559598,
    1735396555,
    1735396605,
    1735396644,
    1735396666
  ]
},
{
  "type": "way",
  "id": 161570985,
  "nodes": [
    1735396666,
    1735396615
  ]
},
{
  "type": "way",
  "id": 161570987,
  "nodes": [
    61101334,
    1735450055,
    1365380682
  ]
},
{
  "type": "way",
  "id": 167070184,
  "nodes": [
    1365380682,
    4088600766,
    4088600768,
    4088600787,
    4088600785,
    4088600890,
    4088600891,
    4088600900,
    4088600897,
    4088600902,
    4088600903,
    4088600907,
    4088600910,
    1365380683,
    1784780780,
    1735396615
  ]
}

  ]
}
