{
  "version": 0.6,
  "generator": "Overpass API 0.7.55.1011 6c2efc30",
  "osm3s": {
    "timestamp_osm_base": "2020-02-14T09:46:02Z",
    "copyright": "The data included in this document is from www.openstreetmap.org. The data is made available under ODbL."
  },
  "elements": [

{
  "type": "node",
  "id": 29058588,
  "lat": 53.8000274,
  "lon": -1.5481087,
  "tags": {
    "amenity": "arts_centre",
    "name": "Leeds Art Gallery",
    "tourism": "museum",
    "wheelchair": "yes",
    "wikidata": "Q6515835",
    "wikipedia": "en:Leeds Art Gallery"
  }
},
{
  "type": "node",
  "id": 29058835,
  "lat": 53.8222574,
  "lon": -1.6070845,
  "tags": {
    "description": "\"A lively, interactive museum which was short-listed for the Guardian ‘Kids in Museum Family Friendly Award’ in 2011. Wander the beautifully created authentic Victorian streets for a glimpse of life in 19th century Leeds.\"",
    "name": "Abbey House Museum",
    "operator": "Leeds City Council",
    "tourism": "museum",
    "website": "https://www.leeds.gov.uk/abbeyhouse",
    "wikidata": "Q4664027",
    "wikipedia": "en:Abbey House Museum"
  }
},
{
  "type": "node",
  "id": 34579080,
  "lat": 53.7762231,
  "lon": -1.5040427,
  "tags": {
    "addr:city": "Leeds",
    "addr:postcode": "LS10 1RP",
    "addr:street": "Thwaite Lane",
    "addr:suburb": "Hunslet",
    "fhrs:id": "1017916",
    "name": "Thwaite Mills Watermill",
    "opening_hours": "Sa-Su 13:00-17:00",
    "phone": "+44 113 276 2887",
    "tourism": "museum",
    "url": "http://www.leeds.gov.uk/thwaitemills",
    "wikidata": "Q7799518"
  }
},
{
  "type": "node",
  "id": 258851218,
  "lat": 53.4664071,
  "lon": -2.2342428,
  "tags": {
    "name": "The Manchester Museum",
    "tourism": "museum",
    "wheelchair": "yes"
  }
},
{
  "type": "node",
  "id": 286964228,
  "lat": 53.5400945,
  "lon": -2.1092439,
  "tags": {
    "amenity": "library",
    "name": "Free Public Library, Art Gallery & Museum",
    "tourism": "museum"
  }
},
{
  "type": "node",
  "id": 300605473,
  "lat": 53.7788686,
  "lon": -1.7387990,
  "tags": {
    "created_by": "JOSM",
    "name": "Bolling Hall Museum",
    "tourism": "museum",
    "wikidata": "Q4939788"
  }
},
{
  "type": "node",
  "id": 357477635,
  "lat": 53.8751275,
  "lon": -1.9136767,
  "tags": {
    "name": "Cliffe Castle",
    "tourism": "museum",
    "wheelchair": "limited",
    "wikidata": "Q5132823"
  }
},
{
  "type": "node",
  "id": 360848891,
  "lat": 53.7278845,
  "lon": -1.6454926,
  "tags": {
    "created_by": "Potlatch 0.10f",
    "name": "Bagshaw Museum",
    "tourism": "museum"
  }
},
{
  "type": "node",
  "id": 447991674,
  "lat": 53.3484818,
  "lon": -2.0875451,
  "tags": {
    "name": "Anson Museum",
    "tourism": "museum"
  }
},
{
  "type": "node",
  "id": 464261501,
  "lat": 53.5679027,
  "lon": -1.5720817,
  "tags": {
    "name": "Cawthorne Museum",
    "tourism": "museum"
  }
},
{
  "type": "node",
  "id": 674154533,
  "lat": 53.8367604,
  "lon": -1.6429526,
  "tags": {
    "addr:city": "Leeds",
    "addr:housenumber": "5",
    "addr:postcode": "LS18 5JB",
    "addr:street": "The Green",
    "addr:suburb": "Horsforth",
    "name": "Horsforth Museum",
    "phone": "+44 113 281 9877",
    "tourism": "museum"
  }
},
{
  "type": "node",
  "id": 901624168,
  "lat": 53.6448971,
  "lon": -1.7555674,
  "tags": {
    "name": "Tolson Museum",
    "tourism": "museum"
  }
},
{
  "type": "node",
  "id": 919564316,
  "lat": 53.4830436,
  "lon": -2.0998516,
  "tags": {
    "name": "Portland Basin Museum",
    "source": "OS_OpenData_StreetView",
    "tourism": "museum"
  }
},
{
  "type": "node",
  "id": 946529241,
  "lat": 53.4944272,
  "lon": -1.4200496,
  "tags": {
    "name": "Elsecar Heritage Centre",
    "toilets:wheelchair": "yes",
    "tourism": "museum",
    "wheelchair": "yes",
    "wikidata": "Q5367510"
  }
},
{
  "type": "node",
  "id": 981435146,
  "lat": 53.7002144,
  "lon": -2.2971973,
  "tags": {
    "name": "The Rossendale Museum",
    "tourism": "museum"
  }
},
{
  "type": "node",
  "id": 1492350823,
  "lat": 53.4858360,
  "lon": -2.2421760,
  "tags": {
    "name": "National Football Museum",
    "source": "Local knowledge",
    "tourism": "museum",
    "website": "http://www.nationalfootballmuseum.com/",
    "wheelchair": "yes",
    "wikidata": "Q2265733",
    "wikipedia": "en:National Football Museum"
  }
},
{
  "type": "node",
  "id": 1492440334,
  "lat": 53.4639917,
  "lon": -2.2911467,
  "tags": {
    "name": "Manchester United Museum",
    "tourism": "museum"
  }
},
{
  "type": "node",
  "id": 1659001319,
  "lat": 53.8147314,
  "lon": -1.9520830,
  "tags": {
    "name": "Exhibition Shed",
    "tourism": "museum"
  }
},
{
  "type": "node",
  "id": 1730727200,
  "lat": 53.8394735,
  "lon": -2.2011897,
  "tags": {
    "name": "British in India",
    "tourism": "museum"
  }
},
{
  "type": "node",
  "id": 1961589427,
  "lat": 53.4831725,
  "lon": -2.0561144,
  "tags": {
    "name": "Astley Cheetham Art Gallery",
    "tourism": "museum"
  }
},
{
  "type": "node",
  "id": 2133404152,
  "lat": 53.5031211,
  "lon": -2.2337376,
  "tags": {
    "name": "Greater Manchester Museum of Transport",
    "source": "www.gmts.co.uk",
    "tourism": "museum"
  }
},
{
  "type": "node",
  "id": 2162858758,
  "lat": 53.4897478,
  "lon": -2.0933305,
  "tags": {
    "entrance": "main",
    "name": "Museum of the Manchester Regiment",
    "tourism": "museum"
  }
},
{
  "type": "node",
  "id": 2162905189,
  "lat": 53.7281552,
  "lon": -1.8399129,
  "tags": {
    "tourism": "museum"
  }
},
{
  "type": "node",
  "id": 2550156426,
  "lat": 53.5540665,
  "lon": -1.4828164,
  "tags": {
    "name": "Experience Barnsley Museum and Discovery Centre",
    "tourism": "museum",
    "website": "http://www.experience-barnsley.com/"
  }
},
{
  "type": "node",
  "id": 2777508135,
  "lat": 53.4724340,
  "lon": -2.2433510,
  "tags": {
    "addr:city": "Manchester",
    "addr:housenumber": "3",
    "addr:postcode": "M1 5BY",
    "addr:street": "Cambridge Street",
    "email": "info@anthonyburgess.org",
    "name": "International Anthony Burgess Foundation",
    "phone": "+44 1612 350776",
    "tourism": "museum",
    "website": "https://www.anthonyburgess.org/",
    "wheelchair": "limited"
  }
},
{
  "type": "node",
  "id": 3772610951,
  "lat": 53.7841023,
  "lon": -1.6649820,
  "tags": {
    "name": "Fulneck Moravian Museum",
    "tourism": "museum"
  }
},
{
  "type": "node",
  "id": 3951724075,
  "lat": 53.6386791,
  "lon": -1.8566312,
  "tags": {
    "name": "Colne Valley Museum",
    "tourism": "museum"
  }
},
{
  "type": "node",
  "id": 4334615865,
  "lat": 53.6437531,
  "lon": -1.7768955,
  "tags": {
    "name": "Heritage Quay",
    "tourism": "museum",
    "website": "http://heritagequay.org"
  }
},
{
  "type": "node",
  "id": 5661493798,
  "lat": 53.7198219,
  "lon": -1.9139656,
  "tags": {
    "booth": "K6",
    "covered": "booth",
    "disused:amenity": "telephone",
    "name": "Warley Museum",
    "tourism": "museum",
    "website": "https://warleyca.co.uk/warley-museum/"
  }
},
{
  "type": "node",
  "id": 5833430385,
  "lat": 53.4909197,
  "lon": -2.2386961,
  "tags": {
    "name": "Three Rivers Gin Distillery",
    "tourism": "museum"
  }
},
{
  "type": "node",
  "id": 6358514139,
  "lat": 53.4824013,
  "lon": -2.2323944,
  "tags": {
    "addr:city": "Manchester",
    "addr:housenumber": "57A",
    "addr:postcode": "M1 1ET",
    "addr:street": "Newton Street",
    "fee": "no",
    "name": "Greater Manchester Police Museum & Archives",
    "tourism": "museum"
  }
},
{
  "type": "node",
  "id": 6684605685,
  "lat": 53.4772588,
  "lon": -2.2547008,
  "tags": {
    "addr:postcode": "M3 4FP",
    "addr:street": "Liverpool Road",
    "name": "Science and Industry Museum",
    "opening_hours": "Mo-Su 10:00-17:00",
    "phone": "0161 832 2244",
    "tourism": "museum",
    "website": "https://www.scienceandindustrymuseum.org.uk/"
  }
},
{
  "type": "way",
  "id": 23097086,
  "nodes": [
    249331359,
    1602819579,
    1602819572,
    249331360,
    1602819604,
    1602819602,
    1602819608,
    1602819623,
    1602819661,
    1602819649,
    4763874055,
    1602819681,
    1602819688,
    1602819723,
    1602819718,
    1602819738,
    1602819747,
    249331361,
    1602819817,
    1602819806,
    249331362,
    249331359
  ],
  "tags": {
    "addr:city": "Leeds",
    "addr:postcode": "LS9 7LP",
    "addr:street": "Beckett Street",
    "addr:suburb": "Burmantofts",
    "building": "yes",
    "fhrs:id": "650650",
    "name": "Thackray Medical Museum",
    "tourism": "museum",
    "wikidata": "Q7708922"
  }
},
{
  "type": "way",
  "id": 28088152,
  "nodes": [
    308476150,
    308476151,
    308476153,
    308476154,
    308476156,
    308476158,
    308476159,
    3034628231,
    3034628437,
    308476160,
    308476150
  ],
  "tags": {
    "building": "yes",
    "cost": "free",
    "name": "Tram Museum",
    "opening_hours": "Jun-Aug Su,PH 12:00-17:00; Dec-Feb Su,PH 12:00-16:00",
    "tourism": "museum"
  }
},
{
  "type": "way",
  "id": 30558024,
  "nodes": [
    337640058,
    4852162292,
    4852162295,
    4852162297,
    4852162298,
    4852162299,
    4852162296,
    4852162294,
    4852162293,
    337640060,
    337640063,
    4852162284,
    4852162285,
    4852162286,
    4852162291,
    4852162289,
    4852162290,
    4852162287,
    4852162288,
    4852162283,
    337640068,
    337640058
  ],
  "tags": {
    "building": "yes",
    "name": "Cartwright Hall",
    "tourism": "museum",
    "wikidata": "Q26425990"
  }
},
{
  "type": "way",
  "id": 30957808,
  "nodes": [
    2676938946,
    2676938947,
    2676938948,
    2676938949,
    344234226,
    344234227,
    2676938942,
    2676938945,
    2676938956,
    2676938944,
    2676938943,
    344234228,
    2676938955,
    2676938952,
    2676938946
  ],
  "tags": {
    "addr:city": "Manchester",
    "addr:housename": "Manchester Art Gallery",
    "addr:postcode": "M2 3JL",
    "addr:street": "Mosley Street",
    "building": "yes",
    "building:levels": "3",
    "name": "Manchester Art Gallery",
    "name:he": "גלריית האומנות של מנ'צסטר",
    "phone": "+44 161 235 8888",
    "tourism": "museum",
    "website": "http://www.manchestergalleries.org/",
    "wheelchair": "yes",
    "wikidata": "Q2638817",
    "wikipedia": "en:Manchester Art Gallery"
  }
},
{
  "type": "way",
  "id": 52345147,
  "nodes": [
    665878938,
    665878939,
    3247817580,
    3247817579,
    3247817581,
    3247817582,
    3247817586,
    3247817584,
    3247817585,
    3247817587,
    665878940,
    665878941,
    665878938
  ],
  "tags": {
    "building": "house",
    "historic": "manor",
    "name": "Gawthorpe Hall",
    "tourism": "museum"
  }
},
{
  "type": "way",
  "id": 56935890,
  "nodes": [
    710890812,
    2354845133,
    710890813,
    710890814,
    710890815,
    710890812
  ],
  "tags": {
    "name": "Bracken Hall Countryside Centre",
    "tourism": "museum",
    "wikidata": "Q4953640"
  }
},
{
  "type": "way",
  "id": 61300076,
  "nodes": [
    765803328,
    2090357519,
    2090357491,
    2090357489,
    2090357521,
    2090357507,
    2090357523,
    765803339,
    765803362,
    2090357481,
    2090357490,
    765803319,
    765803328
  ],
  "tags": {
    "addr:city": "Keighley",
    "addr:postcode": "BD22 8DR",
    "addr:street": "Church Street",
    "addr:town": "Haworth",
    "alt_name:en": "Brontë Parsonage Museum",
    "building": "yes",
    "name": "Bronte Parsonage Museum",
    "name:ru": "Музей сестёр Бронте",
    "phone": "+44 1535 642323",
    "source": "OS_OpenData_StreetView",
    "tourism": "museum",
    "website": "https://www.bronte.org.uk",
    "wikidata": "Q2926101",
    "wikipedia": "en:Brontë Parsonage Museum"
  }
},
{
  "type": "way",
  "id": 61496941,
  "nodes": [
    767455305,
    767455303,
    767454471,
    767454911,
    767454723,
    767454908,
    767455309,
    767455304,
    767455305
  ],
  "tags": {
    "building": "tower",
    "name": "West Tower",
    "source": "OS_OpenData_StreetView",
    "tourism": "museum"
  }
},
{
  "type": "way",
  "id": 67191154,
  "nodes": [
    811378955,
    811378956,
    811378958,
    811378964,
    811378955
  ],
  "tags": {
    "addr:city": "Salford",
    "addr:country": "GB",
    "addr:state": "Greater Manchester",
    "building": "yes",
    "name": "Salford Museum and Art Gallery",
    "tourism": "museum",
    "wheelchair": "yes"
  }
},
{
  "type": "way",
  "id": 75121208,
  "nodes": [
    886681478,
    886681480,
    886681484,
    886681486,
    4288806022,
    4288806033,
    886681488,
    886681490,
    4288806046,
    886681478
  ],
  "tags": {
    "building": "yes",
    "name": "Castleton Village Museum",
    "source": "os_opendata_streetview",
    "tourism": "museum"
  }
},
{
  "type": "way",
  "id": 78431237,
  "nodes": [
    920424012,
    920423989,
    920423991,
    920423992,
    1414381458,
    1893068859,
    920423994,
    1893068936,
    920423996,
    920423997,
    3585325181,
    920423998,
    920423999,
    1414381461,
    1414381463,
    920424000,
    920424001,
    920424002,
    920424003,
    1414381467,
    1414381468,
    920424004,
    920424005,
    920424007,
    920424009,
    920424011,
    920424012
  ],
  "tags": {
    "addr:city": "Leeds",
    "addr:postcode": "LS10 1LG",
    "addr:street": "Armouries Drive",
    "building": "yes",
    "fhrs:id": "319661",
    "name": "Royal Armouries",
    "source": "OS OpenData StreetView",
    "tourism": "museum",
    "wheelchair": "yes",
    "wikidata": "Q7373689"
  }
},
{
  "type": "way",
  "id": 78507122,
  "nodes": [
    921265676,
    921265684,
    921265685,
    921265677,
    921265676
  ],
  "tags": {
    "addr:city": "Leeds",
    "addr:postcode": "LS2 8BH",
    "addr:street": "Millennium Square",
    "building": "yes",
    "fhrs:id": "580063",
    "name": "Leeds City Museum",
    "old_name": "Leeds Mechanics' Institute",
    "phone": "+44 113 224 3732",
    "source": "OS_OpenData_StreetView;Bing",
    "tourism": "museum",
    "website": "https://www.leeds.gov.uk/museumsandgalleries/Pages/leedscitymuseum/Visitor-Information.aspx",
    "wheelchair": "yes",
    "wikidata": "Q6515923",
    "wikipedia": "en:Leeds City Museum"
  }
},
{
  "type": "way",
  "id": 78507133,
  "nodes": [
    921265738,
    2153085665,
    921265739,
    921265740,
    921265741,
    2153085646,
    2153085623,
    2153085645,
    2153085611,
    921265738
  ],
  "tags": {
    "amenity": "arts_centre",
    "building": "yes",
    "name": "Henry Moore Institute",
    "tourism": "museum",
    "wheelchair": "yes"
  }
},
{
  "type": "way",
  "id": 95848342,
  "nodes": [
    1110750365,
    1110750396,
    1110750316,
    1110750408,
    1110750404,
    1110750256,
    1110750367,
    1110750262,
    1110750364,
    1110750379,
    1110750365
  ],
  "tags": {
    "name": "Bowling Hall",
    "tourism": "museum"
  }
},
{
  "type": "way",
  "id": 99481856,
  "nodes": [
    1150785600,
    1150785608,
    1150785610,
    1150785612,
    1150785615,
    1150785616,
    1150785600
  ],
  "tags": {
    "building": "yes",
    "name": "Cannon Hall",
    "tourism": "museum"
  }
},
{
  "type": "way",
  "id": 101986298,
  "nodes": [
    1177377974,
    1177377972,
    1177378010,
    1177377982,
    1177377974
  ],
  "tags": {
    "building": "yes",
    "name": "Heptonstall Museum",
    "tourism": "museum"
  }
},
{
  "type": "way",
  "id": 102330658,
  "nodes": [
    1181301095,
    1181300998,
    1181301121,
    1181301051,
    1181301048,
    1181301067,
    1181301139,
    1181301035,
    1181301002,
    1181301154,
    1181301004,
    1181301182,
    1181301029,
    1181300996,
    1181301077,
    1181301150,
    1181300993,
    1181301138,
    2120861855,
    2120861655,
    2120861852,
    2120861509,
    1181301184,
    1181301095
  ],
  "tags": {
    "building": "yes",
    "email": "info@eureka.org.uk",
    "name": "Eureka! The National Children's Museum",
    "phone": "+44 1422 330069",
    "tourism": "museum",
    "website": "https://www.eureka.org.uk/"
  }
},
{
  "type": "way",
  "id": 103989468,
  "nodes": [
    1200211085,
    1200211086,
    4968226466,
    4968226456,
    1200211092,
    1200211097,
    1200211085
  ],
  "tags": {
    "building": "yes",
    "name": "Bury Transport Museum",
    "tourism": "museum"
  }
},
{
  "type": "way",
  "id": 117158555,
  "nodes": [
    1319731520,
    1319731549,
    1319731586,
    1319731557,
    1319731524,
    1319731499,
    1319731572,
    1319731512,
    1319731520
  ],
  "tags": {
    "building": "yes",
    "tourism": "museum"
  }
},
{
  "type": "way",
  "id": 119908560,
  "nodes": [
    1345707233,
    1345707232,
    1345707247,
    1345707229,
    1345707228,
    1345707235,
    1345707223,
    1345707217,
    1345707210,
    1345707219,
    1345707216,
    1345707246,
    1345707214,
    1345707234,
    1345707249,
    2619483256,
    1345707231,
    1345707230,
    1345707248,
    1345707212,
    1345707244,
    1345707221,
    1345707211,
    1345707233
  ],
  "tags": {
    "addr:city": "Salford",
    "addr:housename": "Ordsall Hall",
    "addr:housenumber": "322",
    "addr:postcode": "M5 3AN",
    "addr:street": "Ordsall Lane",
    "building": "yes",
    "email": "ordsall.hall@scll.co.uk",
    "name": "Ordsall Hall",
    "opening_hours": "Mo-Th 10:00-16:00; Su 13:00-16:00",
    "operator": "Salford City Council",
    "phone": "+44 161 872 0251",
    "source": "Bing",
    "tourism": "museum",
    "website": "https://www.salfordcommunityleisure.co.uk/culture/ordsall-hall",
    "wheelchair": "yes",
    "wikipedia": "en:Ordsall Hall"
  }
},
{
  "type": "way",
  "id": 129053756,
  "nodes": [
    1424650405,
    1424650409,
    1424650390,
    1424650402,
    1424650404,
    2858225446,
    1424650392,
    1424650408,
    1424650391,
    2858319904,
    1424650393,
    2858319386,
    2858319902,
    1424650403,
    1424650405
  ],
  "tags": {
    "building": "yes",
    "name": "The Gallery of Costume (Platt Hall)",
    "name:he": "מוזאון האופנה",
    "tourism": "museum"
  }
},
{
  "type": "way",
  "id": 140537799,
  "nodes": [
    1539629141,
    1539628934,
    1539629012,
    1539629064,
    1539629107,
    1539629175,
    1539629141
  ],
  "tags": {
    "name": "Bradford Industrial Museum",
    "tourism": "museum",
    "website": "https://www.bradfordmuseums.org/venues/industrialmuseum/index.php"
  }
},
{
  "type": "way",
  "id": 140537807,
  "nodes": [
    1539628932,
    1539629111,
    1539629063,
    1539629136,
    1539629187,
    1539629087,
    1539628932
  ],
  "tags": {
    "name": "Bradford Industrial Museum",
    "tourism": "museum",
    "website": "https://www.bradfordmuseums.org/venues/industrialmuseum/index.php"
  }
},
{
  "type": "way",
  "id": 140537811,
  "nodes": [
    1539628955,
    1539628980,
    1539629101,
    1539629128,
    1539628955
  ],
  "tags": {
    "addr:city": "Bradford",
    "addr:postcode": "BD2 3HP",
    "addr:street": "Moorside Road",
    "addr:suburb": "Eccleshill",
    "name": "Bradford Industrial Museum",
    "tourism": "museum",
    "website": "https://www.bradfordmuseums.org/venues/industrialmuseum/index.php"
  }
},
{
  "type": "way",
  "id": 140537825,
  "nodes": [
    1539629137,
    1539629177,
    1539628937,
    1539628941,
    1539629137
  ],
  "tags": {
    "name": "Bradford Industrial Museum",
    "tourism": "museum",
    "website": "https://www.bradfordmuseums.org/venues/industrialmuseum/index.php"
  }
},
{
  "type": "way",
  "id": 140537830,
  "nodes": [
    1539629139,
    1539628919,
    1539628924,
    1539628952,
    1539629139
  ],
  "tags": {
    "addr:city": "Bradford",
    "addr:postcode": "BD2 3HP",
    "addr:street": "Moorside Road",
    "addr:suburb": "Eccleshill",
    "name": "Bradford Industrial Museum",
    "tourism": "museum",
    "website": "https://www.bradfordmuseums.org/venues/industrialmuseum/index.php"
  }
},
{
  "type": "way",
  "id": 150573971,
  "nodes": [
    1634705893,
    1634705879,
    1634705880,
    1634705878,
    1634705871,
    1634705873,
    1634705888,
    1634705887,
    1634705894,
    1634705886,
    1634705883,
    1634705890,
    1634705881,
    1634705877,
    1634705885,
    1634705870,
    1634705891,
    1634705872,
    1634705889,
    1634705882,
    1634705895,
    697412355,
    697412342,
    1634705893
  ],
  "tags": {
    "addr:postcode": "WF1 5AW",
    "building": "yes",
    "name": "The Hepworth Wakefield",
    "tourism": "museum"
  }
},
{
  "type": "way",
  "id": 155347180,
  "nodes": [
    1677516588,
    4500820313,
    4500820312,
    4500820311,
    4500820310,
    4500820317,
    4500820316,
    4500820315,
    4500820314,
    4500820321,
    4500820320,
    4500820319,
    4500820318,
    4500820322,
    4500820323,
    4500820324,
    4500820325,
    4500820329,
    4500820328,
    4500820327,
    4500820326,
    1677516440,
    4500820330,
    4500820331,
    4500820332,
    4500820333,
    4500820334,
    6435716658,
    4500820337,
    4500820336,
    4500820335,
    4500820338,
    4500820339,
    4500820340,
    4500820341,
    1677516416,
    4500820349,
    4500820348,
    4500820347,
    4500820346,
    1677516435,
    6435716664,
    4500820342,
    4500820343,
    4500820344,
    4500820345,
    4500820353,
    4500820352,
    6435716657,
    4500820351,
    4500820350,
    4500820357,
    4500820356,
    4500820355,
    4500820354,
    1677516470,
    4500820358,
    4500820359,
    4500820360,
    4500820361,
    4500820362,
    4500820363,
    4500820364,
    4500820365,
    4500813486,
    4500813487,
    4500813488,
    4500820289,
    1677516550,
    4500813482,
    4500813483,
    4500813484,
    4500813485,
    4500813478,
    4500813481,
    4500813480,
    4500813479,
    4500813477,
    4500813476,
    4500813475,
    4500813474,
    6435716662,
    1677516496,
    1677516541,
    4500820305,
    4500820304,
    4500820303,
    4500820302,
    4500820301,
    4500820300,
    4500820299,
    4500820298,
    4500820297,
    4500820296,
    4500820295,
    4500820294,
    4500820290,
    4500820291,
    4500820292,
    4500820293,
    4500820306,
    4500820307,
    4500820308,
    4500820309,
    1677516588
  ],
  "tags": {
    "building": "country_house",
    "name": "Temple Newsam House",
    "source": "survey;Bing",
    "tourism": "museum"
  }
},
{
  "type": "way",
  "id": 159296321,
  "nodes": [
    1713982173,
    2429048337,
    1713982168,
    1713982133,
    1713982102,
    1713982239,
    1713982214,
    1713982220,
    1713982182,
    1713982170,
    1713982185,
    1713982120,
    1713982222,
    1713982258,
    1713982126,
    1713982229,
    1713982178,
    1713982164,
    1713982117,
    1713982099,
    1713982153,
    1713982177,
    1713982233,
    1713982260,
    1713982091,
    1713982110,
    1713982231,
    1713982123,
    1713982210,
    1713982095,
    1713982128,
    1713982130,
    1713982173
  ],
  "tags": {
    "addr:city": "Bradford",
    "addr:postcode": "BD1 1NQ",
    "addr:street": "Pictureville",
    "building": "yes",
    "building:levels": "8",
    "name": "National Science and Media Museum",
    "name:1983-06-16--2006-11-30": "National Museum of Photography, Film and Television",
    "name:2006-12-01--2017-03-22": "National Media Museum",
    "opening_hours": "Mo-Su 10:00-18:00",
    "phone": "+44 844 856 3797",
    "short_name": "Science and Media Museum",
    "tourism": "museum",
    "website": "https://www.scienceandmediamuseum.org.uk/"
  }
},
{
  "type": "way",
  "id": 160947761,
  "nodes": [
    1729145260,
    1729145263,
    1729145272,
    1729145268,
    1729145260
  ],
  "tags": {
    "contact:website": "http://www.friendsofpendleheritage.org.uk/",
    "name": "Pendle Heritage Centre",
    "tourism": "museum"
  }
},
{
  "type": "way",
  "id": 175765730,
  "nodes": [
    1863194406,
    1863194489,
    1863194397,
    1863194432,
    1863194423,
    1863194468,
    1863194537,
    1863194511,
    1863194483,
    1863194450,
    1863194442,
    1863194506,
    1863194400,
    1863194524,
    1863194419,
    1863194465,
    1863194528,
    1863194500,
    1863194543,
    1863194414,
    1863194372,
    1863194417,
    1863194424,
    1863194509,
    1863194434,
    1863194403,
    1863194438,
    1863194536,
    1863194379,
    1863194392,
    1863194507,
    1863194538,
    1863194445,
    1863194466,
    1863194388,
    1863194497,
    1863194406
  ],
  "tags": {
    "tourism": "museum"
  }
},
{
  "type": "way",
  "id": 183981646,
  "nodes": [
    1944198500,
    1944198488,
    1944198517,
    1944198554,
    1944198477,
    1944198441,
    1944198499,
    1944198540,
    1944198551,
    1944198484,
    1944198473,
    1944198522,
    1944198560,
    1944198443,
    6432293770,
    1944198500
  ],
  "tags": {
    "building": "yes",
    "opening_hours": "Tu-Sa 10:00-16:00; BH 10:00-16:00",
    "tourism": "museum"
  }
},
{
  "type": "way",
  "id": 187293587,
  "nodes": [
    2901345937,
    1980111902,
    1980111906,
    5734267519,
    3640676590,
    3640676591,
    5734267518,
    2901345945,
    1980111905,
    1980111901,
    1980111895,
    1980111874,
    1980111879,
    5734267512,
    5920910434,
    2901347544,
    2901345982,
    2901345994,
    2901347543,
    2901345933,
    2901345952,
    2901345937
  ],
  "tags": {
    "addr:city": "Manchester",
    "addr:postcode": "M17 1TZ",
    "addr:street": "Trafford Wharf Road",
    "alt_name": "IWM North",
    "building": "yes",
    "name": "Imperial War Museum North",
    "opening_hours": "Mo-Su 10:00-17:00",
    "tourism": "museum",
    "website": "https://www.iwm.org.uk/visits/iwm-north",
    "wheelchair": "yes",
    "wikipedia": "en:Imperial War Museum North"
  }
},
{
  "type": "way",
  "id": 199959550,
  "nodes": [
    2099434938,
    2099434947,
    2099435109,
    2099435075,
    2099434948,
    2099435148,
    2099435104,
    2099434933,
    2099435028,
    2099434974,
    2099435056,
    2099434884,
    2099434889,
    2099434979,
    2099434972,
    2099434970,
    2099435074,
    2099435029,
    2099435014,
    2099435175,
    2099434867,
    2099435170,
    2099435125,
    2099434938
  ],
  "tags": {
    "addr:city": "Keighley",
    "addr:postcode": "BD21 4JU",
    "addr:street": "Riverside",
    "building": "yes",
    "name": "Keighley Bus Museum",
    "source": "Bing",
    "tourism": "museum",
    "website": "http://www.kbmt.org.uk"
  }
},
{
  "type": "way",
  "id": 201520529,
  "nodes": [
    2115177046,
    2115177035,
    2115177027,
    2115177026,
    2115177032,
    2115177038,
    2115177033,
    2115177046
  ],
  "tags": {
    "addr:city": "Manchester",
    "addr:housename": "Elizabeth Gaskell's House",
    "addr:housenumber": "84",
    "addr:postcode": "M13 9LW",
    "addr:street": "Plymouth Grove",
    "building": "yes",
    "name": "Elizabeth Gaskell's House",
    "operator": "Friends of Plymouth Grove",
    "tourism": "museum",
    "website": "http://www.elizabethgaskellhouse.co.uk/"
  }
},
{
  "type": "way",
  "id": 229681552,
  "nodes": [
    2382478367,
    2382478368,
    2382478369,
    2382478365,
    2382478364,
    2382478366,
    2382478367
  ],
  "tags": {
    "addr:housename": "Wellington Mill",
    "addr:postcode": "SK3 0EU",
    "addr:street": "Wellington Road South",
    "building": "yes",
    "name": "Hat Works Museum",
    "tourism": "museum"
  }
},
{
  "type": "way",
  "id": 232533968,
  "nodes": [
    2408809348,
    2413016545,
    2412939734,
    2413016541,
    2413024892,
    2413024876,
    2413016556,
    2408809389,
    2413024893,
    705493758,
    2413024873,
    2413024910,
    2413016564,
    2413024868,
    2408809325,
    2412575423,
    2412575425,
    2979951385,
    2412939712,
    2412944649,
    705493676,
    2412575420,
    2408809380,
    2412575424,
    2408809366,
    2412575421,
    2408809346,
    2412944635,
    2412944661,
    2980704787,
    2408809386,
    2408809348
  ],
  "tags": {
    "addr:street": "Armley Mills",
    "building": "yes",
    "email": "armleymills@leeds.gov.uk",
    "name": "Leeds Industrial Museum",
    "name:de": "Industrie Museum Leeds",
    "opening_hours": "Tu-Sa 10:00-17:00; Su 01:00-17:00",
    "phone": "+44 113 378 3173",
    "tourism": "museum",
    "website": "https://www.leeds.gov.uk/armleymills",
    "wikidata": "Q4793646",
    "wikipedia": "en:Leeds Industrial Museum at Armley Mills"
  }
},
{
  "type": "way",
  "id": 247043990,
  "nodes": [
    2539845312,
    2539845308,
    2539845304,
    2539845306,
    2539845329,
    2539845325,
    2539845317,
    2539845321,
    2539845331,
    2539845335,
    2539845333,
    2539845337,
    2539845327,
    2539845315,
    2539845323,
    2539845319,
    2539845314,
    2539845310,
    2539845312
  ],
  "tags": {
    "building": "yes",
    "name": "Touchstones",
    "tourism": "museum",
    "wheelchair": "yes"
  }
},
{
  "type": "way",
  "id": 248790779,
  "nodes": [
    2555284714,
    2555284715,
    2555284716,
    2555284717,
    2555284718,
    2555284719,
    4302624082,
    2555284720,
    2555284721,
    2555284722,
    2555284714
  ],
  "tags": {
    "addr:city": "Manchester",
    "addr:street": "Bridge Street",
    "building": "yes",
    "name": "People's History Museum",
    "name:he": "מוזאון ההיסטוריה של העם",
    "toilets:wheelchair": "yes",
    "tourism": "museum",
    "website": "https://www.phm.org.uk/",
    "wheelchair": "yes",
    "wikipedia": "en:People's History Museum"
  }
},
{
  "type": "way",
  "id": 254161399,
  "nodes": [
    2599735746,
    2599735747,
    2599735738,
    2599735737,
    2599735742,
    2599735743,
    2599735746
  ],
  "tags": {
    "building": "yes",
    "name": "The Aisled Barn",
    "tourism": "museum"
  }
},
{
  "type": "way",
  "id": 256625041,
  "nodes": [
    2622713833,
    2622713834,
    2622713835,
    2622713836,
    2622713837,
    2622713838,
    2622713839,
    2622713840,
    2622713841,
    2622713842,
    1863251241,
    2622713843,
    2622713833
  ],
  "tags": {
    "addr:city": "Rochdale",
    "addr:housenumber": "31",
    "addr:postcode": "OL12 0NU",
    "addr:street": "Toad Lane",
    "building": "yes",
    "building:levels": "3",
    "name": "Rochdale Pioneers Museum",
    "tourism": "museum"
  }
},
{
  "type": "way",
  "id": 276009238,
  "nodes": [
    2806565128,
    2806565129,
    2806565130,
    2806565131,
    2806565132,
    2806565133,
    2806565134,
    2806565135,
    2806565136,
    2806565137,
    2806565138,
    2806565139,
    2806565140,
    2806565128
  ],
  "tags": {
    "HE_ref": "1315032",
    "building": "yes",
    "listed_status": "Grade I",
    "name": "Wortley Top Forge",
    "tourism": "museum",
    "wikidata": "Q8037286"
  }
},
{
  "type": "way",
  "id": 286875801,
  "nodes": [
    2905517724,
    2905517720,
    2905517721,
    2905517715,
    2905517718,
    2905517722,
    2905517723,
    2905517727,
    2905517726,
    2905517725,
    2905517724
  ],
  "tags": {
    "building": "yes",
    "name": "Marsden Moor Estate Exhibition",
    "operator": "National Trust",
    "tourism": "museum"
  }
},
{
  "type": "way",
  "id": 288010239,
  "nodes": [
    2915618902,
    2915618903,
    2915618904,
    2915618905,
    2915618906,
    2915618907,
    2915618908,
    2915618909,
    2915618910,
    2915618911,
    2915618912,
    2915618913,
    2915618914,
    2915618915,
    2915618916,
    2915618917,
    2915618918,
    2915618919,
    2915618902
  ],
  "tags": {
    "building": "yes",
    "name": "Haworth Art Gallery",
    "tourism": "museum"
  }
},
{
  "type": "way",
  "id": 292460186,
  "nodes": [
    2960131672,
    2960131673,
    2960131674,
    2960131675,
    2960131676,
    2960131677,
    2960131678,
    2960131679,
    2960131672
  ],
  "tags": {
    "building": "yes",
    "tourism": "museum"
  }
},
{
  "type": "way",
  "id": 302436347,
  "nodes": [
    3066941659,
    3066941657,
    3066941661,
    3066941662,
    3066941659
  ],
  "tags": {
    "building": "museum",
    "name": "Manchester Jewish Museum",
    "tourism": "museum"
  }
},
{
  "type": "way",
  "id": 304401950,
  "nodes": [
    3089365407,
    3089365413,
    3089365394,
    3089365395,
    3089365419,
    3089365403,
    3089365393,
    3089365408,
    3089365406,
    3089365398,
    3089365407
  ],
  "tags": {
    "addr:city": "Leeds",
    "addr:postcode": "LS10 2JQ",
    "addr:street": "Moor Road",
    "building": "yes",
    "fhrs:id": "467046",
    "name": "Middleton Railway",
    "source": "Bing",
    "tourism": "museum",
    "wikidata": "Q1931930",
    "wikipedia": "en:Middleton Railway"
  }
},
{
  "type": "way",
  "id": 330265161,
  "nodes": [
    3372203069,
    3372207465,
    3372207463,
    3372207459,
    3372203069
  ],
  "tags": {
    "building": "yes",
    "name": "Museum of Local Crafts & Industries",
    "note": "opened 1971",
    "tourism": "museum"
  }
},
{
  "type": "way",
  "id": 330265163,
  "nodes": [
    3372207467,
    3372207469,
    3372207464,
    3372207466,
    3372207460,
    27408057,
    3372207452,
    3372207456,
    3372207453,
    3372207449,
    3372207451,
    3372207450,
    3372207454,
    3372207455,
    3372207457,
    3372207458,
    3372207461,
    3372207462,
    3372207467
  ],
  "tags": {
    "building": "yes",
    "name": "Towneley Hall",
    "tourism": "museum"
  }
},
{
  "type": "way",
  "id": 332005669,
  "nodes": [
    3391076735,
    3391076736,
    3391076737,
    3391076738,
    3391076735
  ],
  "tags": {
    "building": "yes",
    "name": "Worsbrough Mill",
    "tourism": "museum"
  }
},
{
  "type": "way",
  "id": 402538585,
  "nodes": [
    4049332166,
    4049332161,
    4049332162,
    4049332148,
    4049332156,
    4049332169,
    4049332166
  ],
  "tags": {
    "addr:city": "Leeds",
    "building": "yes",
    "name": "Leeds Museums Discovery Centre",
    "tourism": "museum",
    "website": "https://www.leeds.gov.uk/museumsandgalleries/Pages/discoverycentre.aspx"
  }
},
{
  "type": "way",
  "id": 405208907,
  "nodes": [
    4074253114,
    4074253128,
    5828769650,
    5828769649,
    4074253097,
    6749567229,
    4074253130,
    5828769651,
    5828769653,
    5828769652,
    4074253115,
    4074253132,
    4074253114
  ],
  "tags": {
    "tourism": "museum"
  }
},
{
  "type": "way",
  "id": 463106302,
  "nodes": [
    4584171249,
    4584171250,
    4584171262,
    4584171251,
    4584171252,
    4584171253,
    4584171254,
    4584171255,
    4584171256,
    6744586059,
    4584171257,
    4584171258,
    4584171259,
    4584171260,
    4584171249
  ],
  "tags": {
    "building": "yes",
    "name": "Lambert Mill Museum",
    "tourism": "museum"
  }
},
{
  "type": "way",
  "id": 475718748,
  "nodes": [
    4694429031,
    4694429030,
    4694429032,
    4694429029,
    4694429031
  ],
  "tags": {
    "building": "yes",
    "name": "Avro Heritage Centre",
    "tourism": "museum"
  }
},
{
  "type": "way",
  "id": 541331388,
  "nodes": [
    5234710641,
    5234710642,
    5234710643,
    5234710644,
    5234710645,
    5234710646,
    5234710647,
    5234710648,
    5234710649,
    5234710650,
    5234710651,
    5234710652,
    5234710641
  ],
  "tags": {
    "addr:city": "Bolton",
    "addr:postcode": "BL1 8UA",
    "addr:street": "Green Way",
    "building": "yes",
    "name": "Hall i' th' Wood Museum",
    "opening_hours": "Tu 10:00-16:00 Sa 12:00-16:00",
    "operator": "Bolton Metropolitan Borough Council",
    "phone": "+44 1204 332377",
    "tourism": "museum",
    "wikipedia": "en:Hall i' th' Wood"
  }
},
{
  "type": "way",
  "id": 545888913,
  "nodes": [
    5275723903,
    5275723904,
    5275723905,
    5275723911,
    5275723912,
    5275723913,
    5275723906,
    5275723903
  ],
  "tags": {
    "building": "yes",
    "name": "Calderdale Industrial Museum",
    "tourism": "museum"
  }
},
{
  "type": "way",
  "id": 662910408,
  "nodes": [
    6205691192,
    6205691193,
    6205691194,
    6205691195,
    6205691196,
    6205691197,
    6205691199,
    6205691198,
    6205691192
  ],
  "tags": {
    "addr:street": "Cliffe Ash",
    "building": "yes",
    "name": "Colne Valley Museum",
    "operator": "Charity run by the community",
    "tourism": "museum"
  }
},
{
  "type": "way",
  "id": 733534213,
  "nodes": [
    6869586247,
    6869586287,
    6869586290,
    6869586289,
    6869586288,
    6869586248,
    6869586249,
    6869586253,
    702386226,
    6869586250,
    6869586251,
    702386225,
    702386224,
    6869586255,
    702386223,
    4963878488,
    5386890577,
    6869586252,
    4963878489,
    6869586247
  ],
  "tags": {
    "building": "yes",
    "name": "Bolton Art Gallery, Library & Museum",
    "tourism": "museum"
  }
},
{
  "type": "relation",
  "id": 66848,
  "members": [
    {
      "type": "way",
      "ref": 27930299,
      "role": "building"
    },
    {
      "type": "way",
      "ref": 27930338,
      "role": "building"
    },
    {
      "type": "way",
      "ref": 27930372,
      "role": "building"
    },
    {
      "type": "way",
      "ref": 27930374,
      "role": "building"
    },
    {
      "type": "way",
      "ref": 27930370,
      "role": "building"
    },
    {
      "type": "way",
      "ref": 590377952,
      "role": ""
    }
  ],
  "tags": {
    "alt_name": "Museum of Science and Industry in Manchester",
    "image": "http://upload.wikimedia.org/wikipedia/commons/3/30/MOSI.jpg",
    "museum": "industry",
    "name": "Museum of Science and Industry",
    "name:he": "מוזאון המדע והתעשייה",
    "operator": "The Greater Manchester Museum of Science and Industry Charitable Trust",
    "short_name": "MOSI",
    "source:image": "http://en.wikipedia.org/wiki/User:Childzy",
    "toilets:wheelchair": "yes",
    "tourism": "museum",
    "type": "site",
    "website": "http://www.mosi.org.uk",
    "wheelchair": "yes",
    "wikidata": "Q2638616",
    "wikipedia": "en:Museum of Science and Industry (Manchester)"
  }
},
{
  "type": "node",
  "id": 4694429029,
  "lat": 53.3349464,
  "lon": -2.1526313
},
{
  "type": "node",
  "id": 4694429030,
  "lat": 53.3350795,
  "lon": -2.1519112
},
{
  "type": "node",
  "id": 4694429031,
  "lat": 53.3351258,
  "lon": -2.1525973
},
{
  "type": "node",
  "id": 4694429032,
  "lat": 53.3349001,
  "lon": -2.1519451
},
{
  "type": "node",
  "id": 1980111874,
  "lat": 53.4696702,
  "lon": -2.2981471
},
{
  "type": "node",
  "id": 1980111879,
  "lat": 53.4690598,
  "lon": -2.2984782
},
{
  "type": "node",
  "id": 1980111895,
  "lat": 53.4696804,
  "lon": -2.2979588
},
{
  "type": "node",
  "id": 1980111901,
  "lat": 53.4698441,
  "lon": -2.2980365
},
{
  "type": "node",
  "id": 1980111902,
  "lat": 53.4700759,
  "lon": -2.2996641
},
{
  "type": "node",
  "id": 1980111905,
  "lat": 53.4698815,
  "lon": -2.2984957
},
{
  "type": "node",
  "id": 1980111906,
  "lat": 53.4702125,
  "lon": -2.2992533
},
{
  "type": "node",
  "id": 2901345933,
  "lat": 53.4697707,
  "lon": -2.2995184
},
{
  "type": "node",
  "id": 2901345937,
  "lat": 53.4698677,
  "lon": -2.2994149
},
{
  "type": "node",
  "id": 2901345945,
  "lat": 53.4698644,
  "lon": -2.2985048
},
{
  "type": "node",
  "id": 2901345952,
  "lat": 53.4698281,
  "lon": -2.2994701
},
{
  "type": "node",
  "id": 2901345982,
  "lat": 53.4696410,
  "lon": -2.2993022
},
{
  "type": "node",
  "id": 2901345994,
  "lat": 53.4696493,
  "lon": -2.2994916
},
{
  "type": "node",
  "id": 2901347543,
  "lat": 53.4697259,
  "lon": -2.2995452
},
{
  "type": "node",
  "id": 2901347544,
  "lat": 53.4697216,
  "lon": -2.2992654
},
{
  "type": "node",
  "id": 3640676590,
  "lat": 53.4700781,
  "lon": -2.2989535
},
{
  "type": "node",
  "id": 3640676591,
  "lat": 53.4699615,
  "lon": -2.2987094
},
{
  "type": "node",
  "id": 5734267512,
  "lat": 53.4692361,
  "lon": -2.2986879
},
{
  "type": "node",
  "id": 5734267518,
  "lat": 53.4698696,
  "lon": -2.2985158
},
{
  "type": "node",
  "id": 5734267519,
  "lat": 53.4701799,
  "lon": -2.2991806
},
{
  "type": "node",
  "id": 5920910434,
  "lat": 53.4696689,
  "lon": -2.2992027
},
{
  "type": "node",
  "id": 1345707210,
  "lat": 53.4695874,
  "lon": -2.2773753
},
{
  "type": "node",
  "id": 1345707211,
  "lat": 53.4694405,
  "lon": -2.2780400
},
{
  "type": "node",
  "id": 1345707212,
  "lat": 53.4694584,
  "lon": -2.2778120
},
{
  "type": "node",
  "id": 1345707214,
  "lat": 53.4695102,
  "lon": -2.2775323
},
{
  "type": "node",
  "id": 1345707216,
  "lat": 53.4695204,
  "lon": -2.2774464
},
{
  "type": "node",
  "id": 1345707217,
  "lat": 53.4695022,
  "lon": -2.2772248
},
{
  "type": "node",
  "id": 1345707219,
  "lat": 53.4695311,
  "lon": -2.2774653
},
{
  "type": "node",
  "id": 1345707221,
  "lat": 53.4694867,
  "lon": -2.2779662
},
{
  "type": "node",
  "id": 1345707223,
  "lat": 53.4694494,
  "lon": -2.2773092
},
{
  "type": "node",
  "id": 1345707228,
  "lat": 53.4693938,
  "lon": -2.2773470
},
{
  "type": "node",
  "id": 1345707229,
  "lat": 53.4694071,
  "lon": -2.2773706
},
{
  "type": "node",
  "id": 1345707230,
  "lat": 53.4693966,
  "lon": -2.2777857
},
{
  "type": "node",
  "id": 1345707231,
  "lat": 53.4693571,
  "lon": -2.2777160
},
{
  "type": "node",
  "id": 1345707232,
  "lat": 53.4692996,
  "lon": -2.2774619
},
{
  "type": "node",
  "id": 1345707233,
  "lat": 53.4692017,
  "lon": -2.2776182
},
{
  "type": "node",
  "id": 1345707234,
  "lat": 53.4694878,
  "lon": -2.2775681
},
{
  "type": "node",
  "id": 1345707235,
  "lat": 53.4694342,
  "lon": -2.2772824
},
{
  "type": "node",
  "id": 1345707244,
  "lat": 53.4694274,
  "lon": -2.2778615
},
{
  "type": "node",
  "id": 1345707246,
  "lat": 53.4694895,
  "lon": -2.2774958
},
{
  "type": "node",
  "id": 1345707247,
  "lat": 53.4693235,
  "lon": -2.2775042
},
{
  "type": "node",
  "id": 1345707248,
  "lat": 53.4694212,
  "lon": -2.2777464
},
{
  "type": "node",
  "id": 1345707249,
  "lat": 53.4694697,
  "lon": -2.2775361
},
{
  "type": "node",
  "id": 2619483256,
  "lat": 53.4694192,
  "lon": -2.2776168
},
{
  "type": "node",
  "id": 306572895,
  "lat": 53.4770545,
  "lon": -2.2560733
},
{
  "type": "node",
  "id": 306572896,
  "lat": 53.4769092,
  "lon": -2.2565025
},
{
  "type": "node",
  "id": 306572897,
  "lat": 53.4765968,
  "lon": -2.2546748
},
{
  "type": "node",
  "id": 306572898,
  "lat": 53.4768914,
  "lon": -2.2544480
},
{
  "type": "node",
  "id": 306573022,
  "lat": 53.4775702,
  "lon": -2.2556754
},
{
  "type": "node",
  "id": 306573044,
  "lat": 53.4773887,
  "lon": -2.2588933
},
{
  "type": "node",
  "id": 306573045,
  "lat": 53.4770748,
  "lon": -2.2574384
},
{
  "type": "node",
  "id": 306573046,
  "lat": 53.4771419,
  "lon": -2.2573944
},
{
  "type": "node",
  "id": 306573052,
  "lat": 53.4775270,
  "lon": -2.2585663
},
{
  "type": "node",
  "id": 306573053,
  "lat": 53.4776707,
  "lon": -2.2584126
},
{
  "type": "node",
  "id": 306573054,
  "lat": 53.4774023,
  "lon": -2.2569869
},
{
  "type": "node",
  "id": 306573055,
  "lat": 53.4772358,
  "lon": -2.2571898
},
{
  "type": "node",
  "id": 984431505,
  "lat": 53.4775812,
  "lon": -2.2558778
},
{
  "type": "node",
  "id": 984431507,
  "lat": 53.4774001,
  "lon": -2.2559782
},
{
  "type": "node",
  "id": 984431516,
  "lat": 53.4776119,
  "lon": -2.2571101
},
{
  "type": "node",
  "id": 1680256796,
  "lat": 53.4766250,
  "lon": -2.2545741
},
{
  "type": "node",
  "id": 1680256798,
  "lat": 53.4773453,
  "lon": -2.2577874
},
{
  "type": "node",
  "id": 1680256804,
  "lat": 53.4775162,
  "lon": -2.2576470
},
{
  "type": "node",
  "id": 1680256827,
  "lat": 53.4769548,
  "lon": -2.2564844
},
{
  "type": "node",
  "id": 1680256855,
  "lat": 53.4769096,
  "lon": -2.2545638
},
{
  "type": "node",
  "id": 1680256859,
  "lat": 53.4768969,
  "lon": -2.2561580
},
{
  "type": "node",
  "id": 1680256867,
  "lat": 53.4768038,
  "lon": -2.2546205
},
{
  "type": "node",
  "id": 1766133666,
  "lat": 53.4772310,
  "lon": -2.2578992
},
{
  "type": "node",
  "id": 1766133703,
  "lat": 53.4773284,
  "lon": -2.2589208
},
{
  "type": "node",
  "id": 1766133731,
  "lat": 53.4773151,
  "lon": -2.2584025
},
{
  "type": "node",
  "id": 1766133843,
  "lat": 53.4769148,
  "lon": -2.2565279
},
{
  "type": "node",
  "id": 1766133882,
  "lat": 53.4773207,
  "lon": -2.2589072
},
{
  "type": "node",
  "id": 1766133936,
  "lat": 53.4769531,
  "lon": -2.2567537
},
{
  "type": "node",
  "id": 1766134018,
  "lat": 53.4770706,
  "lon": -2.2574696
},
{
  "type": "node",
  "id": 1766134216,
  "lat": 53.4773335,
  "lon": -2.2583941
},
{
  "type": "node",
  "id": 1766134345,
  "lat": 53.4771212,
  "lon": -2.2573947
},
{
  "type": "node",
  "id": 1766134375,
  "lat": 53.4773381,
  "lon": -2.2589326
},
{
  "type": "node",
  "id": 1766134417,
  "lat": 53.4770732,
  "lon": -2.2574982
},
{
  "type": "node",
  "id": 2151739233,
  "lat": 53.4770345,
  "lon": -2.2546848
},
{
  "type": "node",
  "id": 2151739236,
  "lat": 53.4770833,
  "lon": -2.2546612
},
{
  "type": "node",
  "id": 2151739246,
  "lat": 53.4772564,
  "lon": -2.2558354
},
{
  "type": "node",
  "id": 2151739247,
  "lat": 53.4772614,
  "lon": -2.2558583
},
{
  "type": "node",
  "id": 2151739248,
  "lat": 53.4772626,
  "lon": -2.2558103
},
{
  "type": "node",
  "id": 2151739249,
  "lat": 53.4772626,
  "lon": -2.2558605
},
{
  "type": "node",
  "id": 2151739251,
  "lat": 53.4772775,
  "lon": -2.2558709
},
{
  "type": "node",
  "id": 2151739253,
  "lat": 53.4773829,
  "lon": -2.2557489
},
{
  "type": "node",
  "id": 2151739254,
  "lat": 53.4773942,
  "lon": -2.2558156
},
{
  "type": "node",
  "id": 2151739260,
  "lat": 53.4775033,
  "lon": -2.2556913
},
{
  "type": "node",
  "id": 2151739262,
  "lat": 53.4775173,
  "lon": -2.2557737
},
{
  "type": "node",
  "id": 2151739263,
  "lat": 53.4775301,
  "lon": -2.2556933
},
{
  "type": "node",
  "id": 2151739264,
  "lat": 53.4775441,
  "lon": -2.2557609
},
{
  "type": "node",
  "id": 3390849585,
  "lat": 53.4771774,
  "lon": -2.2552091
},
{
  "type": "node",
  "id": 3390849586,
  "lat": 53.4771204,
  "lon": -2.2552367
},
{
  "type": "node",
  "id": 3390849587,
  "lat": 53.4771601,
  "lon": -2.2551093
},
{
  "type": "node",
  "id": 3390849588,
  "lat": 53.4771033,
  "lon": -2.2551368
},
{
  "type": "node",
  "id": 3390849589,
  "lat": 53.4771004,
  "lon": -2.2547603
},
{
  "type": "node",
  "id": 3390849590,
  "lat": 53.4770514,
  "lon": -2.2547840
},
{
  "type": "node",
  "id": 3390849591,
  "lat": 53.4772790,
  "lon": -2.2558024
},
{
  "type": "node",
  "id": 3405888611,
  "lat": 53.4768256,
  "lon": -2.2547467
},
{
  "type": "node",
  "id": 3405888613,
  "lat": 53.4769040,
  "lon": -2.2545279
},
{
  "type": "node",
  "id": 3405888616,
  "lat": 53.4769460,
  "lon": -2.2561316
},
{
  "type": "node",
  "id": 3405888623,
  "lat": 53.4770549,
  "lon": -2.2544952
},
{
  "type": "node",
  "id": 3405888640,
  "lat": 53.4773371,
  "lon": -2.2558429
},
{
  "type": "node",
  "id": 3405888644,
  "lat": 53.4774236,
  "lon": -2.2586858
},
{
  "type": "node",
  "id": 4537378724,
  "lat": 53.4775512,
  "lon": -2.2556822
},
{
  "type": "node",
  "id": 5121712237,
  "lat": 53.4777349,
  "lon": -2.2583953
},
{
  "type": "node",
  "id": 5121712240,
  "lat": 53.4773764,
  "lon": -2.2588178
},
{
  "type": "node",
  "id": 5121712246,
  "lat": 53.4777315,
  "lon": -2.2582360
},
{
  "type": "node",
  "id": 5121712247,
  "lat": 53.4775082,
  "lon": -2.2585881
},
{
  "type": "node",
  "id": 5121712260,
  "lat": 53.4774053,
  "lon": -2.2587368
},
{
  "type": "node",
  "id": 811378955,
  "lat": 53.4853601,
  "lon": -2.2721683
},
{
  "type": "node",
  "id": 811378956,
  "lat": 53.4852494,
  "lon": -2.2714318
},
{
  "type": "node",
  "id": 811378958,
  "lat": 53.4849853,
  "lon": -2.2715439
},
{
  "type": "node",
  "id": 811378964,
  "lat": 53.4850960,
  "lon": -2.2722804
},
{
  "type": "node",
  "id": 1424650390,
  "lat": 53.4504882,
  "lon": -2.2220829
},
{
  "type": "node",
  "id": 1424650391,
  "lat": 53.4503829,
  "lon": -2.2226604
},
{
  "type": "node",
  "id": 1424650392,
  "lat": 53.4503143,
  "lon": -2.2227002
},
{
  "type": "node",
  "id": 1424650393,
  "lat": 53.4504813,
  "lon": -2.2225492
},
{
  "type": "node",
  "id": 1424650402,
  "lat": 53.4504496,
  "lon": -2.2220516
},
{
  "type": "node",
  "id": 1424650403,
  "lat": 53.4506138,
  "lon": -2.2220694
},
{
  "type": "node",
  "id": 1424650404,
  "lat": 53.4503636,
  "lon": -2.2223509
},
{
  "type": "node",
  "id": 1424650405,
  "lat": 53.4506522,
  "lon": -2.2219357
},
{
  "type": "node",
  "id": 1424650408,
  "lat": 53.4503607,
  "lon": -2.2227377
},
{
  "type": "node",
  "id": 1424650409,
  "lat": 53.4505534,
  "lon": -2.2218557
},
{
  "type": "node",
  "id": 2858225446,
  "lat": 53.4504050,
  "lon": -2.2223844
},
{
  "type": "node",
  "id": 2858319386,
  "lat": 53.4504562,
  "lon": -2.2225289
},
{
  "type": "node",
  "id": 2858319902,
  "lat": 53.4505930,
  "lon": -2.2220526
},
{
  "type": "node",
  "id": 2858319904,
  "lat": 53.4504368,
  "lon": -2.2227041
},
{
  "type": "node",
  "id": 2115177026,
  "lat": 53.4634546,
  "lon": -2.2210905
},
{
  "type": "node",
  "id": 2115177027,
  "lat": 53.4634999,
  "lon": -2.2210525
},
{
  "type": "node",
  "id": 2115177032,
  "lat": 53.4635486,
  "lon": -2.2214061
},
{
  "type": "node",
  "id": 2115177033,
  "lat": 53.4635611,
  "lon": -2.2212581
},
{
  "type": "node",
  "id": 2115177035,
  "lat": 53.4635794,
  "lon": -2.2209857
},
{
  "type": "node",
  "id": 2115177038,
  "lat": 53.4635938,
  "lon": -2.2213681
},
{
  "type": "node",
  "id": 2115177046,
  "lat": 53.4636406,
  "lon": -2.2211913
},
{
  "type": "node",
  "id": 306572698,
  "lat": 53.4766016,
  "lon": -2.2528463
},
{
  "type": "node",
  "id": 306572699,
  "lat": 53.4762735,
  "lon": -2.2530668
},
{
  "type": "node",
  "id": 306572700,
  "lat": 53.4765459,
  "lon": -2.2542622
},
{
  "type": "node",
  "id": 306572701,
  "lat": 53.4769043,
  "lon": -2.2540805
},
{
  "type": "node",
  "id": 306573023,
  "lat": 53.4773133,
  "lon": -2.2540668
},
{
  "type": "node",
  "id": 306573024,
  "lat": 53.4770354,
  "lon": -2.2543799
},
{
  "type": "node",
  "id": 1680256791,
  "lat": 53.4771470,
  "lon": -2.2543269
},
{
  "type": "node",
  "id": 1680256861,
  "lat": 53.4771188,
  "lon": -2.2541588
},
{
  "type": "node",
  "id": 2509263497,
  "lat": 53.4768598,
  "lon": -2.2542703
},
{
  "type": "node",
  "id": 2509277803,
  "lat": 53.4773267,
  "lon": -2.2541468
},
{
  "type": "node",
  "id": 3405888607,
  "lat": 53.4766664,
  "lon": -2.2542003
},
{
  "type": "node",
  "id": 3405888610,
  "lat": 53.4767323,
  "lon": -2.2541705
},
{
  "type": "node",
  "id": 3405888625,
  "lat": 53.4770790,
  "lon": -2.2543590
},
{
  "type": "node",
  "id": 344234227,
  "lat": 53.4782914,
  "lon": -2.2413484
},
{
  "type": "node",
  "id": 344234228,
  "lat": 53.4786530,
  "lon": -2.2419992
},
{
  "type": "node",
  "id": 2676938942,
  "lat": 53.4784494,
  "lon": -2.2416556
},
{
  "type": "node",
  "id": 2676938943,
  "lat": 53.4785176,
  "lon": -2.2417195
},
{
  "type": "node",
  "id": 2676938944,
  "lat": 53.4786288,
  "lon": -2.2415660
},
{
  "type": "node",
  "id": 2676938945,
  "lat": 53.4785840,
  "lon": -2.2414742
},
{
  "type": "node",
  "id": 2676938947,
  "lat": 53.4787608,
  "lon": -2.2413549
},
{
  "type": "node",
  "id": 2676938952,
  "lat": 53.4790063,
  "lon": -2.2414820
},
{
  "type": "node",
  "id": 2676938955,
  "lat": 53.4788297,
  "lon": -2.2417403
},
{
  "type": "node",
  "id": 2676938956,
  "lat": 53.4786025,
  "lon": -2.2415123
},
{
  "type": "node",
  "id": 344234226,
  "lat": 53.4786951,
  "lon": -2.2407851
},
{
  "type": "node",
  "id": 2676938946,
  "lat": 53.4788699,
  "lon": -2.2412043
},
{
  "type": "node",
  "id": 2676938948,
  "lat": 53.4787233,
  "lon": -2.2412743
},
{
  "type": "node",
  "id": 2676938949,
  "lat": 53.4788451,
  "lon": -2.2410974
},
{
  "type": "node",
  "id": 2555284714,
  "lat": 53.4815858,
  "lon": -2.2529759
},
{
  "type": "node",
  "id": 2555284715,
  "lat": 53.4814932,
  "lon": -2.2526836
},
{
  "type": "node",
  "id": 2555284716,
  "lat": 53.4814421,
  "lon": -2.2527050
},
{
  "type": "node",
  "id": 2555284717,
  "lat": 53.4813974,
  "lon": -2.2527480
},
{
  "type": "node",
  "id": 2555284718,
  "lat": 53.4813320,
  "lon": -2.2528418
},
{
  "type": "node",
  "id": 2555284719,
  "lat": 53.4812650,
  "lon": -2.2529786
},
{
  "type": "node",
  "id": 2555284720,
  "lat": 53.4814820,
  "lon": -2.2532415
},
{
  "type": "node",
  "id": 2555284721,
  "lat": 53.4815188,
  "lon": -2.2531583
},
{
  "type": "node",
  "id": 2555284722,
  "lat": 53.4815076,
  "lon": -2.2531449
},
{
  "type": "node",
  "id": 4302624082,
  "lat": 53.4814155,
  "lon": -2.2531609
},
{
  "type": "node",
  "id": 2382478366,
  "lat": 53.4083075,
  "lon": -2.1623443
},
{
  "type": "node",
  "id": 2382478367,
  "lat": 53.4083661,
  "lon": -2.1625023
},
{
  "type": "node",
  "id": 2382478364,
  "lat": 53.4086206,
  "lon": -2.1619963
},
{
  "type": "node",
  "id": 2382478365,
  "lat": 53.4086554,
  "lon": -2.1620751
},
{
  "type": "node",
  "id": 2382478368,
  "lat": 53.4087517,
  "lon": -2.1620857
},
{
  "type": "node",
  "id": 2382478369,
  "lat": 53.4087098,
  "lon": -2.1620242
},
{
  "type": "node",
  "id": 702386226,
  "lat": 53.5776363,
  "lon": -2.4314400
},
{
  "type": "node",
  "id": 4963878489,
  "lat": 53.5770325,
  "lon": -2.4316306
},
{
  "type": "node",
  "id": 6869586247,
  "lat": 53.5774452,
  "lon": -2.4317740
},
{
  "type": "node",
  "id": 6869586248,
  "lat": 53.5774714,
  "lon": -2.4315567
},
{
  "type": "node",
  "id": 6869586249,
  "lat": 53.5775073,
  "lon": -2.4315178
},
{
  "type": "node",
  "id": 6869586252,
  "lat": 53.5770101,
  "lon": -2.4315554
},
{
  "type": "node",
  "id": 6869586253,
  "lat": 53.5775280,
  "lon": -2.4315714
},
{
  "type": "node",
  "id": 6869586287,
  "lat": 53.5774560,
  "lon": -2.4316734
},
{
  "type": "node",
  "id": 6869586288,
  "lat": 53.5774635,
  "lon": -2.4316140
},
{
  "type": "node",
  "id": 6869586289,
  "lat": 53.5774185,
  "lon": -2.4315994
},
{
  "type": "node",
  "id": 6869586290,
  "lat": 53.5774112,
  "lon": -2.4316585
},
{
  "type": "node",
  "id": 702386223,
  "lat": 53.5771430,
  "lon": -2.4309940
},
{
  "type": "node",
  "id": 702386224,
  "lat": 53.5775238,
  "lon": -2.4311404
},
{
  "type": "node",
  "id": 702386225,
  "lat": 53.5775422,
  "lon": -2.4311729
},
{
  "type": "node",
  "id": 4963878488,
  "lat": 53.5770963,
  "lon": -2.4310422
},
{
  "type": "node",
  "id": 5386890577,
  "lat": 53.5770436,
  "lon": -2.4313675
},
{
  "type": "node",
  "id": 6869586250,
  "lat": 53.5775948,
  "lon": -2.4313364
},
{
  "type": "node",
  "id": 6869586251,
  "lat": 53.5775619,
  "lon": -2.4312363
},
{
  "type": "node",
  "id": 6869586255,
  "lat": 53.5775041,
  "lon": -2.4311224
},
{
  "type": "node",
  "id": 5234710641,
  "lat": 53.6005577,
  "lon": -2.4191343
},
{
  "type": "node",
  "id": 5234710642,
  "lat": 53.6004992,
  "lon": -2.4191235
},
{
  "type": "node",
  "id": 5234710643,
  "lat": 53.6005047,
  "lon": -2.4190396
},
{
  "type": "node",
  "id": 5234710644,
  "lat": 53.6004580,
  "lon": -2.4190310
},
{
  "type": "node",
  "id": 5234710645,
  "lat": 53.6004527,
  "lon": -2.4191127
},
{
  "type": "node",
  "id": 5234710646,
  "lat": 53.6003715,
  "lon": -2.4190976
},
{
  "type": "node",
  "id": 5234710647,
  "lat": 53.6003772,
  "lon": -2.4190099
},
{
  "type": "node",
  "id": 5234710648,
  "lat": 53.6003614,
  "lon": -2.4190069
},
{
  "type": "node",
  "id": 5234710649,
  "lat": 53.6003644,
  "lon": -2.4189615
},
{
  "type": "node",
  "id": 5234710650,
  "lat": 53.6003974,
  "lon": -2.4189677
},
{
  "type": "node",
  "id": 5234710651,
  "lat": 53.6004067,
  "lon": -2.4188256
},
{
  "type": "node",
  "id": 5234710652,
  "lat": 53.6005758,
  "lon": -2.4188570
},
{
  "type": "node",
  "id": 3066941657,
  "lat": 53.4955539,
  "lon": -2.2378470
},
{
  "type": "node",
  "id": 3066941659,
  "lat": 53.4956266,
  "lon": -2.2382246
},
{
  "type": "node",
  "id": 3066941661,
  "lat": 53.4956553,
  "lon": -2.2377919
},
{
  "type": "node",
  "id": 3066941662,
  "lat": 53.4957280,
  "lon": -2.2381695
},
{
  "type": "node",
  "id": 1319731499,
  "lat": 53.5046383,
  "lon": -2.2213945
},
{
  "type": "node",
  "id": 1319731512,
  "lat": 53.5046825,
  "lon": -2.2212582
},
{
  "type": "node",
  "id": 1319731520,
  "lat": 53.5046952,
  "lon": -2.2209622
},
{
  "type": "node",
  "id": 1319731524,
  "lat": 53.5044585,
  "lon": -2.2213727
},
{
  "type": "node",
  "id": 1319731549,
  "lat": 53.5044435,
  "lon": -2.2209317
},
{
  "type": "node",
  "id": 1319731557,
  "lat": 53.5044639,
  "lon": -2.2212470
},
{
  "type": "node",
  "id": 1319731572,
  "lat": 53.5046444,
  "lon": -2.2212535
},
{
  "type": "node",
  "id": 1319731586,
  "lat": 53.5044302,
  "lon": -2.2212430
},
{
  "type": "node",
  "id": 308476150,
  "lat": 53.5322820,
  "lon": -2.2498311
},
{
  "type": "node",
  "id": 308476151,
  "lat": 53.5322062,
  "lon": -2.2498378
},
{
  "type": "node",
  "id": 308476153,
  "lat": 53.5321989,
  "lon": -2.2496035
},
{
  "type": "node",
  "id": 308476154,
  "lat": 53.5321244,
  "lon": -2.2496101
},
{
  "type": "node",
  "id": 308476156,
  "lat": 53.5321209,
  "lon": -2.2494987
},
{
  "type": "node",
  "id": 308476158,
  "lat": 53.5321949,
  "lon": -2.2494922
},
{
  "type": "node",
  "id": 308476159,
  "lat": 53.5321874,
  "lon": -2.2492489
},
{
  "type": "node",
  "id": 308476160,
  "lat": 53.5322638,
  "lon": -2.2492423
},
{
  "type": "node",
  "id": 3034628231,
  "lat": 53.5322109,
  "lon": -2.2492469
},
{
  "type": "node",
  "id": 3034628437,
  "lat": 53.5322453,
  "lon": -2.2492439
},
{
  "type": "node",
  "id": 1200211085,
  "lat": 53.5947599,
  "lon": -2.3009379
},
{
  "type": "node",
  "id": 1200211092,
  "lat": 53.5943693,
  "lon": -2.3003796
},
{
  "type": "node",
  "id": 1200211097,
  "lat": 53.5944422,
  "lon": -2.3010378
},
{
  "type": "node",
  "id": 4074253114,
  "lat": 53.5947062,
  "lon": -2.3014560
},
{
  "type": "node",
  "id": 4074253115,
  "lat": 53.5943749,
  "lon": -2.3016017
},
{
  "type": "node",
  "id": 4074253128,
  "lat": 53.5948342,
  "lon": -2.3013099
},
{
  "type": "node",
  "id": 4074253132,
  "lat": 53.5944884,
  "lon": -2.3016277
},
{
  "type": "node",
  "id": 4968226456,
  "lat": 53.5944271,
  "lon": -2.3003614
},
{
  "type": "node",
  "id": 5828769651,
  "lat": 53.5942772,
  "lon": -2.3003826
},
{
  "type": "node",
  "id": 5828769652,
  "lat": 53.5943035,
  "lon": -2.3010984
},
{
  "type": "node",
  "id": 5828769653,
  "lat": 53.5943601,
  "lon": -2.3010819
},
{
  "type": "node",
  "id": 1200211086,
  "lat": 53.5946870,
  "lon": -2.3002797
},
{
  "type": "node",
  "id": 4074253097,
  "lat": 53.5946666,
  "lon": -2.2991233
},
{
  "type": "node",
  "id": 4074253130,
  "lat": 53.5941433,
  "lon": -2.2994594
},
{
  "type": "node",
  "id": 4968226466,
  "lat": 53.5946078,
  "lon": -2.3003046
},
{
  "type": "node",
  "id": 5828769649,
  "lat": 53.5946120,
  "lon": -2.2995547
},
{
  "type": "node",
  "id": 5828769650,
  "lat": 53.5947310,
  "lon": -2.3001934
},
{
  "type": "node",
  "id": 6749567229,
  "lat": 53.5945936,
  "lon": -2.2991702
},
{
  "type": "node",
  "id": 1863194372,
  "lat": 53.5399584,
  "lon": -2.1085837
},
{
  "type": "node",
  "id": 1863194379,
  "lat": 53.5397351,
  "lon": -2.1090228
},
{
  "type": "node",
  "id": 1863194388,
  "lat": 53.5401001,
  "lon": -2.1093474
},
{
  "type": "node",
  "id": 1863194392,
  "lat": 53.5397719,
  "lon": -2.1090934
},
{
  "type": "node",
  "id": 1863194397,
  "lat": 53.5403696,
  "lon": -2.1091470
},
{
  "type": "node",
  "id": 1863194400,
  "lat": 53.5403807,
  "lon": -2.1090818
},
{
  "type": "node",
  "id": 1863194403,
  "lat": 53.5397735,
  "lon": -2.1088171
},
{
  "type": "node",
  "id": 1863194406,
  "lat": 53.5401401,
  "lon": -2.1098927
},
{
  "type": "node",
  "id": 1863194414,
  "lat": 53.5401480,
  "lon": -2.1085676
},
{
  "type": "node",
  "id": 1863194417,
  "lat": 53.5399456,
  "lon": -2.1084791
},
{
  "type": "node",
  "id": 1863194419,
  "lat": 53.5403743,
  "lon": -2.1086688
},
{
  "type": "node",
  "id": 1863194423,
  "lat": 53.5404907,
  "lon": -2.1092087
},
{
  "type": "node",
  "id": 1863194424,
  "lat": 53.5398293,
  "lon": -2.1084845
},
{
  "type": "node",
  "id": 1863194432,
  "lat": 53.5404907,
  "lon": -2.1092293
},
{
  "type": "node",
  "id": 1863194434,
  "lat": 53.5398117,
  "lon": -2.1088520
},
{
  "type": "node",
  "id": 1863194438,
  "lat": 53.5397240,
  "lon": -2.1088485
},
{
  "type": "node",
  "id": 1863194442,
  "lat": 53.5407760,
  "lon": -2.1089075
},
{
  "type": "node",
  "id": 1863194445,
  "lat": 53.5399439,
  "lon": -2.1099911
},
{
  "type": "node",
  "id": 1863194450,
  "lat": 53.5407490,
  "lon": -2.1090317
},
{
  "type": "node",
  "id": 1863194465,
  "lat": 53.5402341,
  "lon": -2.1086132
},
{
  "type": "node",
  "id": 1863194466,
  "lat": 53.5400603,
  "lon": -2.1093313
},
{
  "type": "node",
  "id": 1863194468,
  "lat": 53.5407044,
  "lon": -2.1093411
},
{
  "type": "node",
  "id": 1863194483,
  "lat": 53.5407760,
  "lon": -2.1090496
},
{
  "type": "node",
  "id": 1863194489,
  "lat": 53.5402850,
  "lon": -2.1091086
},
{
  "type": "node",
  "id": 1863194497,
  "lat": 53.5400141,
  "lon": -2.1098328
},
{
  "type": "node",
  "id": 1863194500,
  "lat": 53.5401050,
  "lon": -2.1090826
},
{
  "type": "node",
  "id": 1863194506,
  "lat": 53.5404397,
  "lon": -2.1087044
},
{
  "type": "node",
  "id": 1863194507,
  "lat": 53.5398451,
  "lon": -2.1091435
},
{
  "type": "node",
  "id": 1863194509,
  "lat": 53.5398642,
  "lon": -2.1088163
},
{
  "type": "node",
  "id": 1863194511,
  "lat": 53.5407571,
  "lon": -2.1091811
},
{
  "type": "node",
  "id": 1863194524,
  "lat": 53.5402979,
  "lon": -2.1090370
},
{
  "type": "node",
  "id": 1863194528,
  "lat": 53.5401401,
  "lon": -2.1091014
},
{
  "type": "node",
  "id": 1863194536,
  "lat": 53.5397017,
  "lon": -2.1089263
},
{
  "type": "node",
  "id": 1863194537,
  "lat": 53.5407298,
  "lon": -2.1091685
},
{
  "type": "node",
  "id": 1863194538,
  "lat": 53.5397144,
  "lon": -2.1098865
},
{
  "type": "node",
  "id": 1863194543,
  "lat": 53.5401401,
  "lon": -2.1088868
},
{
  "type": "node",
  "id": 4584171249,
  "lat": 53.6999936,
  "lon": -2.2792766
},
{
  "type": "node",
  "id": 4584171250,
  "lat": 53.6999843,
  "lon": -2.2789049
},
{
  "type": "node",
  "id": 4584171251,
  "lat": 53.6997104,
  "lon": -2.2789325
},
{
  "type": "node",
  "id": 4584171252,
  "lat": 53.6997104,
  "lon": -2.2788258
},
{
  "type": "node",
  "id": 4584171253,
  "lat": 53.6994482,
  "lon": -2.2788495
},
{
  "type": "node",
  "id": 4584171254,
  "lat": 53.6994482,
  "lon": -2.2790393
},
{
  "type": "node",
  "id": 4584171255,
  "lat": 53.6992913,
  "lon": -2.2790512
},
{
  "type": "node",
  "id": 4584171256,
  "lat": 53.6993007,
  "lon": -2.2793240
},
{
  "type": "node",
  "id": 4584171257,
  "lat": 53.6997057,
  "lon": -2.2792884
},
{
  "type": "node",
  "id": 4584171258,
  "lat": 53.6997104,
  "lon": -2.2793636
},
{
  "type": "node",
  "id": 4584171259,
  "lat": 53.6997572,
  "lon": -2.2793596
},
{
  "type": "node",
  "id": 4584171260,
  "lat": 53.6997548,
  "lon": -2.2792805
},
{
  "type": "node",
  "id": 4584171262,
  "lat": 53.6998016,
  "lon": -2.2789233
},
{
  "type": "node",
  "id": 6744586059,
  "lat": 53.6993250,
  "lon": -2.2793219
},
{
  "type": "node",
  "id": 2539845304,
  "lat": 53.6149229,
  "lon": -2.1624571
},
{
  "type": "node",
  "id": 2539845306,
  "lat": 53.6149558,
  "lon": -2.1626176
},
{
  "type": "node",
  "id": 2539845308,
  "lat": 53.6149735,
  "lon": -2.1624339
},
{
  "type": "node",
  "id": 2539845310,
  "lat": 53.6150236,
  "lon": -2.1621793
},
{
  "type": "node",
  "id": 2539845312,
  "lat": 53.6150363,
  "lon": -2.1621898
},
{
  "type": "node",
  "id": 2539845314,
  "lat": 53.6150620,
  "lon": -2.1620342
},
{
  "type": "node",
  "id": 2539845315,
  "lat": 53.6150657,
  "lon": -2.1619324
},
{
  "type": "node",
  "id": 2539845317,
  "lat": 53.6150739,
  "lon": -2.1623878
},
{
  "type": "node",
  "id": 2539845319,
  "lat": 53.6150876,
  "lon": -2.1620589
},
{
  "type": "node",
  "id": 2539845321,
  "lat": 53.6151094,
  "lon": -2.1622503
},
{
  "type": "node",
  "id": 2539845323,
  "lat": 53.6151133,
  "lon": -2.1619817
},
{
  "type": "node",
  "id": 2539845325,
  "lat": 53.6151719,
  "lon": -2.1623429
},
{
  "type": "node",
  "id": 2539845327,
  "lat": 53.6151755,
  "lon": -2.1615558
},
{
  "type": "node",
  "id": 2539845329,
  "lat": 53.6151920,
  "lon": -2.1625034
},
{
  "type": "node",
  "id": 2539845331,
  "lat": 53.6152213,
  "lon": -2.1623429
},
{
  "type": "node",
  "id": 2539845333,
  "lat": 53.6152414,
  "lon": -2.1620280
},
{
  "type": "node",
  "id": 2539845335,
  "lat": 53.6152579,
  "lon": -2.1620404
},
{
  "type": "node",
  "id": 2539845337,
  "lat": 53.6152964,
  "lon": -2.1616515
},
{
  "type": "node",
  "id": 1863251241,
  "lat": 53.6186398,
  "lon": -2.1592579
},
{
  "type": "node",
  "id": 2622713833,
  "lat": 53.6186168,
  "lon": -2.1594816
},
{
  "type": "node",
  "id": 2622713834,
  "lat": 53.6185918,
  "lon": -2.1594781
},
{
  "type": "node",
  "id": 2622713835,
  "lat": 53.6185775,
  "lon": -2.1594459
},
{
  "type": "node",
  "id": 2622713836,
  "lat": 53.6185504,
  "lon": -2.1594299
},
{
  "type": "node",
  "id": 2622713837,
  "lat": 53.6185457,
  "lon": -2.1593092
},
{
  "type": "node",
  "id": 2622713838,
  "lat": 53.6185457,
  "lon": -2.1592099
},
{
  "type": "node",
  "id": 2622713839,
  "lat": 53.6185775,
  "lon": -2.1591938
},
{
  "type": "node",
  "id": 2622713840,
  "lat": 53.6186109,
  "lon": -2.1591965
},
{
  "type": "node",
  "id": 2622713841,
  "lat": 53.6186300,
  "lon": -2.1591831
},
{
  "type": "node",
  "id": 2622713842,
  "lat": 53.6186459,
  "lon": -2.1591885
},
{
  "type": "node",
  "id": 2622713843,
  "lat": 53.6186286,
  "lon": -2.1593665
},
{
  "type": "node",
  "id": 886681478,
  "lat": 53.3434085,
  "lon": -1.7776375
},
{
  "type": "node",
  "id": 886681480,
  "lat": 53.3436638,
  "lon": -1.7777756
},
{
  "type": "node",
  "id": 886681484,
  "lat": 53.3436373,
  "lon": -1.7779127
},
{
  "type": "node",
  "id": 886681486,
  "lat": 53.3432129,
  "lon": -1.7776831
},
{
  "type": "node",
  "id": 886681488,
  "lat": 53.3433522,
  "lon": -1.7774218
},
{
  "type": "node",
  "id": 886681490,
  "lat": 53.3434408,
  "lon": -1.7774698
},
{
  "type": "node",
  "id": 4288806022,
  "lat": 53.3432396,
  "lon": -1.7775444
},
{
  "type": "node",
  "id": 4288806033,
  "lat": 53.3433201,
  "lon": -1.7775879
},
{
  "type": "node",
  "id": 4288806046,
  "lat": 53.3434249,
  "lon": -1.7775523
},
{
  "type": "node",
  "id": 767454471,
  "lat": 53.4048185,
  "lon": -1.7433130
},
{
  "type": "node",
  "id": 767454911,
  "lat": 53.4048550,
  "lon": -1.7433296
},
{
  "type": "node",
  "id": 767455303,
  "lat": 53.4047929,
  "lon": -1.7433013
},
{
  "type": "node",
  "id": 767455305,
  "lat": 53.4047449,
  "lon": -1.7432794
},
{
  "type": "node",
  "id": 767454723,
  "lat": 53.4048832,
  "lon": -1.7431345
},
{
  "type": "node",
  "id": 767454908,
  "lat": 53.4048469,
  "lon": -1.7431163
},
{
  "type": "node",
  "id": 767455304,
  "lat": 53.4047750,
  "lon": -1.7430803
},
{
  "type": "node",
  "id": 767455309,
  "lat": 53.4048215,
  "lon": -1.7431036
},
{
  "type": "node",
  "id": 2905517715,
  "lat": 53.6030063,
  "lon": -1.9291080
},
{
  "type": "node",
  "id": 2905517718,
  "lat": 53.6030400,
  "lon": -1.9288636
},
{
  "type": "node",
  "id": 2905517720,
  "lat": 53.6030548,
  "lon": -1.9291470
},
{
  "type": "node",
  "id": 2905517721,
  "lat": 53.6030574,
  "lon": -1.9291280
},
{
  "type": "node",
  "id": 2905517722,
  "lat": 53.6030872,
  "lon": -1.9288821
},
{
  "type": "node",
  "id": 2905517723,
  "lat": 53.6030901,
  "lon": -1.9288610
},
{
  "type": "node",
  "id": 2905517724,
  "lat": 53.6030995,
  "lon": -1.9291645
},
{
  "type": "node",
  "id": 2905517725,
  "lat": 53.6031081,
  "lon": -1.9291021
},
{
  "type": "node",
  "id": 2905517726,
  "lat": 53.6031222,
  "lon": -1.9291076
},
{
  "type": "node",
  "id": 2905517727,
  "lat": 53.6031528,
  "lon": -1.9288855
},
{
  "type": "node",
  "id": 6205691192,
  "lat": 53.6387134,
  "lon": -1.8563546
},
{
  "type": "node",
  "id": 6205691193,
  "lat": 53.6387143,
  "lon": -1.8568193
},
{
  "type": "node",
  "id": 6205691194,
  "lat": 53.6386432,
  "lon": -1.8568224
},
{
  "type": "node",
  "id": 6205691195,
  "lat": 53.6386450,
  "lon": -1.8565490
},
{
  "type": "node",
  "id": 6205691196,
  "lat": 53.6386666,
  "lon": -1.8564518
},
{
  "type": "node",
  "id": 6205691197,
  "lat": 53.6386765,
  "lon": -1.8564503
},
{
  "type": "node",
  "id": 6205691198,
  "lat": 53.6386864,
  "lon": -1.8563562
},
{
  "type": "node",
  "id": 6205691199,
  "lat": 53.6386779,
  "lon": -1.8563911
},
{
  "type": "node",
  "id": 2915618902,
  "lat": 53.7404056,
  "lon": -2.3548056
},
{
  "type": "node",
  "id": 2915618903,
  "lat": 53.7404280,
  "lon": -2.3547390
},
{
  "type": "node",
  "id": 2915618904,
  "lat": 53.7403667,
  "lon": -2.3546801
},
{
  "type": "node",
  "id": 2915618905,
  "lat": 53.7403848,
  "lon": -2.3546261
},
{
  "type": "node",
  "id": 2915618906,
  "lat": 53.7404292,
  "lon": -2.3546687
},
{
  "type": "node",
  "id": 2915618907,
  "lat": 53.7404962,
  "lon": -2.3544695
},
{
  "type": "node",
  "id": 2915618908,
  "lat": 53.7404699,
  "lon": -2.3544442
},
{
  "type": "node",
  "id": 2915618909,
  "lat": 53.7405021,
  "lon": -2.3543483
},
{
  "type": "node",
  "id": 2915618910,
  "lat": 53.7404345,
  "lon": -2.3542833
},
{
  "type": "node",
  "id": 2915618911,
  "lat": 53.7404258,
  "lon": -2.3543091
},
{
  "type": "node",
  "id": 2915618912,
  "lat": 53.7403290,
  "lon": -2.3542160
},
{
  "type": "node",
  "id": 2915618913,
  "lat": 53.7403431,
  "lon": -2.3541741
},
{
  "type": "node",
  "id": 2915618914,
  "lat": 53.7402881,
  "lon": -2.3541213
},
{
  "type": "node",
  "id": 2915618915,
  "lat": 53.7402560,
  "lon": -2.3542169
},
{
  "type": "node",
  "id": 2915618916,
  "lat": 53.7402356,
  "lon": -2.3541974
},
{
  "type": "node",
  "id": 2915618917,
  "lat": 53.7401916,
  "lon": -2.3543282
},
{
  "type": "node",
  "id": 2915618918,
  "lat": 53.7403638,
  "lon": -2.3544936
},
{
  "type": "node",
  "id": 2915618919,
  "lat": 53.7402947,
  "lon": -2.3546990
},
{
  "type": "node",
  "id": 665878938,
  "lat": 53.8027809,
  "lon": -2.2950070
},
{
  "type": "node",
  "id": 665878939,
  "lat": 53.8026392,
  "lon": -2.2949007
},
{
  "type": "node",
  "id": 665878940,
  "lat": 53.8027227,
  "lon": -2.2945968
},
{
  "type": "node",
  "id": 665878941,
  "lat": 53.8028663,
  "lon": -2.2947101
},
{
  "type": "node",
  "id": 3247817579,
  "lat": 53.8026381,
  "lon": -2.2948462
},
{
  "type": "node",
  "id": 3247817580,
  "lat": 53.8026466,
  "lon": -2.2948671
},
{
  "type": "node",
  "id": 3247817581,
  "lat": 53.8026482,
  "lon": -2.2948071
},
{
  "type": "node",
  "id": 3247817582,
  "lat": 53.8026697,
  "lon": -2.2948019
},
{
  "type": "node",
  "id": 3247817584,
  "lat": 53.8026944,
  "lon": -2.2946452
},
{
  "type": "node",
  "id": 3247817585,
  "lat": 53.8027037,
  "lon": -2.2946151
},
{
  "type": "node",
  "id": 3247817586,
  "lat": 53.8027037,
  "lon": -2.2946739
},
{
  "type": "node",
  "id": 3247817587,
  "lat": 53.8027183,
  "lon": -2.2946151
},
{
  "type": "node",
  "id": 27408057,
  "lat": 53.7739716,
  "lon": -2.2225012
},
{
  "type": "node",
  "id": 3372203069,
  "lat": 53.7741250,
  "lon": -2.2232099
},
{
  "type": "node",
  "id": 3372207449,
  "lat": 53.7736876,
  "lon": -2.2222357
},
{
  "type": "node",
  "id": 3372207450,
  "lat": 53.7737433,
  "lon": -2.2223944
},
{
  "type": "node",
  "id": 3372207451,
  "lat": 53.7737631,
  "lon": -2.2223601
},
{
  "type": "node",
  "id": 3372207452,
  "lat": 53.7738358,
  "lon": -2.2222773
},
{
  "type": "node",
  "id": 3372207453,
  "lat": 53.7738666,
  "lon": -2.2219250
},
{
  "type": "node",
  "id": 3372207454,
  "lat": 53.7739200,
  "lon": -2.2226858
},
{
  "type": "node",
  "id": 3372207455,
  "lat": 53.7739309,
  "lon": -2.2226669
},
{
  "type": "node",
  "id": 3372207456,
  "lat": 53.7739549,
  "lon": -2.2220706
},
{
  "type": "node",
  "id": 3372207457,
  "lat": 53.7740266,
  "lon": -2.2228248
},
{
  "type": "node",
  "id": 3372207458,
  "lat": 53.7740531,
  "lon": -2.2227788
},
{
  "type": "node",
  "id": 3372207459,
  "lat": 53.7740744,
  "lon": -2.2231286
},
{
  "type": "node",
  "id": 3372207460,
  "lat": 53.7741066,
  "lon": -2.2222667
},
{
  "type": "node",
  "id": 3372207461,
  "lat": 53.7741089,
  "lon": -2.2228707
},
{
  "type": "node",
  "id": 3372207462,
  "lat": 53.7741339,
  "lon": -2.2228272
},
{
  "type": "node",
  "id": 3372207463,
  "lat": 53.7741559,
  "lon": -2.2229834
},
{
  "type": "node",
  "id": 3372207464,
  "lat": 53.7741626,
  "lon": -2.2226426
},
{
  "type": "node",
  "id": 3372207465,
  "lat": 53.7742065,
  "lon": -2.2230648
},
{
  "type": "node",
  "id": 3372207466,
  "lat": 53.7742463,
  "lon": -2.2224972
},
{
  "type": "node",
  "id": 3372207467,
  "lat": 53.7742891,
  "lon": -2.2230833
},
{
  "type": "node",
  "id": 3372207469,
  "lat": 53.7743577,
  "lon": -2.2229643
},
{
  "type": "node",
  "id": 1729145260,
  "lat": 53.8540645,
  "lon": -2.2107625
},
{
  "type": "node",
  "id": 1729145263,
  "lat": 53.8536398,
  "lon": -2.2113279
},
{
  "type": "node",
  "id": 1729145268,
  "lat": 53.8538529,
  "lon": -2.2102536
},
{
  "type": "node",
  "id": 1729145272,
  "lat": 53.8534372,
  "lon": -2.2108373
},
{
  "type": "node",
  "id": 2599735737,
  "lat": 53.8486587,
  "lon": -2.1032516
},
{
  "type": "node",
  "id": 2599735738,
  "lat": 53.8486785,
  "lon": -2.1034763
},
{
  "type": "node",
  "id": 2599735742,
  "lat": 53.8487248,
  "lon": -2.1032348
},
{
  "type": "node",
  "id": 2599735743,
  "lat": 53.8487282,
  "lon": -2.1032726
},
{
  "type": "node",
  "id": 2599735746,
  "lat": 53.8488515,
  "lon": -2.1032413
},
{
  "type": "node",
  "id": 2599735747,
  "lat": 53.8488680,
  "lon": -2.1034284
},
{
  "type": "node",
  "id": 1177377972,
  "lat": 53.7487436,
  "lon": -2.0212752
},
{
  "type": "node",
  "id": 1177377974,
  "lat": 53.7487772,
  "lon": -2.0213445
},
{
  "type": "node",
  "id": 1177377982,
  "lat": 53.7488479,
  "lon": -2.0212465
},
{
  "type": "node",
  "id": 1177378010,
  "lat": 53.7488143,
  "lon": -2.0211772
},
{
  "type": "node",
  "id": 765803319,
  "lat": 53.8312483,
  "lon": -1.9576963
},
{
  "type": "node",
  "id": 765803328,
  "lat": 53.8311627,
  "lon": -1.9577140
},
{
  "type": "node",
  "id": 765803339,
  "lat": 53.8311016,
  "lon": -1.9572029
},
{
  "type": "node",
  "id": 765803362,
  "lat": 53.8312524,
  "lon": -1.9571717
},
{
  "type": "node",
  "id": 2090357481,
  "lat": 53.8312717,
  "lon": -1.9574392
},
{
  "type": "node",
  "id": 2090357489,
  "lat": 53.8311038,
  "lon": -1.9575486
},
{
  "type": "node",
  "id": 2090357490,
  "lat": 53.8312304,
  "lon": -1.9574478
},
{
  "type": "node",
  "id": 2090357491,
  "lat": 53.8311114,
  "lon": -1.9576540
},
{
  "type": "node",
  "id": 2090357507,
  "lat": 53.8311424,
  "lon": -1.9573529
},
{
  "type": "node",
  "id": 2090357519,
  "lat": 53.8311576,
  "lon": -1.9576444
},
{
  "type": "node",
  "id": 2090357521,
  "lat": 53.8311557,
  "lon": -1.9575379
},
{
  "type": "node",
  "id": 2090357523,
  "lat": 53.8311128,
  "lon": -1.9573590
},
{
  "type": "node",
  "id": 2099434884,
  "lat": 53.8674026,
  "lon": -1.8943209
},
{
  "type": "node",
  "id": 2099434889,
  "lat": 53.8673477,
  "lon": -1.8948566
},
{
  "type": "node",
  "id": 2099434970,
  "lat": 53.8675070,
  "lon": -1.8952865
},
{
  "type": "node",
  "id": 2099434972,
  "lat": 53.8673646,
  "lon": -1.8950237
},
{
  "type": "node",
  "id": 2099434979,
  "lat": 53.8674121,
  "lon": -1.8949539
},
{
  "type": "node",
  "id": 2099435014,
  "lat": 53.8682650,
  "lon": -1.8941485
},
{
  "type": "node",
  "id": 2099435029,
  "lat": 53.8681238,
  "lon": -1.8944819
},
{
  "type": "node",
  "id": 2099435074,
  "lat": 53.8680657,
  "lon": -1.8943791
},
{
  "type": "node",
  "id": 2099435175,
  "lat": 53.8682345,
  "lon": -1.8940903
},
{
  "type": "node",
  "id": 2099434867,
  "lat": 53.8683958,
  "lon": -1.8938596
},
{
  "type": "node",
  "id": 2099434933,
  "lat": 53.8675765,
  "lon": -1.8933822
},
{
  "type": "node",
  "id": 2099434938,
  "lat": 53.8676177,
  "lon": -1.8926741
},
{
  "type": "node",
  "id": 2099434947,
  "lat": 53.8674722,
  "lon": -1.8934894
},
{
  "type": "node",
  "id": 2099434948,
  "lat": 53.8676303,
  "lon": -1.8939347
},
{
  "type": "node",
  "id": 2099434974,
  "lat": 53.8677727,
  "lon": -1.8935699
},
{
  "type": "node",
  "id": 2099435028,
  "lat": 53.8678201,
  "lon": -1.8935002
},
{
  "type": "node",
  "id": 2099435056,
  "lat": 53.8678106,
  "lon": -1.8936611
},
{
  "type": "node",
  "id": 2099435075,
  "lat": 53.8673319,
  "lon": -1.8937730
},
{
  "type": "node",
  "id": 2099435104,
  "lat": 53.8675544,
  "lon": -1.8935645
},
{
  "type": "node",
  "id": 2099435109,
  "lat": 53.8673899,
  "lon": -1.8934573
},
{
  "type": "node",
  "id": 2099435125,
  "lat": 53.8683547,
  "lon": -1.8930496
},
{
  "type": "node",
  "id": 2099435148,
  "lat": 53.8676735,
  "lon": -1.8936335
},
{
  "type": "node",
  "id": 2099435170,
  "lat": 53.8684685,
  "lon": -1.8938328
},
{
  "type": "node",
  "id": 1181300998,
  "lat": 53.7204287,
  "lon": -1.8547813
},
{
  "type": "node",
  "id": 1181301095,
  "lat": 53.7204340,
  "lon": -1.8550638
},
{
  "type": "node",
  "id": 1181301121,
  "lat": 53.7201405,
  "lon": -1.8548097
},
{
  "type": "node",
  "id": 1181301138,
  "lat": 53.7197702,
  "lon": -1.8547595
},
{
  "type": "node",
  "id": 1181301184,
  "lat": 53.7197871,
  "lon": -1.8554803
},
{
  "type": "node",
  "id": 2120861509,
  "lat": 53.7197864,
  "lon": -1.8553358
},
{
  "type": "node",
  "id": 2120861655,
  "lat": 53.7197021,
  "lon": -1.8548316
},
{
  "type": "node",
  "id": 2120861852,
  "lat": 53.7197107,
  "lon": -1.8553392
},
{
  "type": "node",
  "id": 2120861855,
  "lat": 53.7197711,
  "lon": -1.8548228
},
{
  "type": "node",
  "id": 5275723903,
  "lat": 53.7222320,
  "lon": -1.8564565
},
{
  "type": "node",
  "id": 5275723904,
  "lat": 53.7223767,
  "lon": -1.8557605
},
{
  "type": "node",
  "id": 5275723905,
  "lat": 53.7222831,
  "lon": -1.8556962
},
{
  "type": "node",
  "id": 5275723906,
  "lat": 53.7221343,
  "lon": -1.8563968
},
{
  "type": "node",
  "id": 5275723911,
  "lat": 53.7221817,
  "lon": -1.8561753
},
{
  "type": "node",
  "id": 5275723912,
  "lat": 53.7221279,
  "lon": -1.8561439
},
{
  "type": "node",
  "id": 5275723913,
  "lat": 53.7220805,
  "lon": -1.8563621
},
{
  "type": "node",
  "id": 1181300993,
  "lat": 53.7197512,
  "lon": -1.8545348
},
{
  "type": "node",
  "id": 1181300996,
  "lat": 53.7198845,
  "lon": -1.8543524
},
{
  "type": "node",
  "id": 1181301002,
  "lat": 53.7199734,
  "lon": -1.8545777
},
{
  "type": "node",
  "id": 1181301004,
  "lat": 53.7200178,
  "lon": -1.8544382
},
{
  "type": "node",
  "id": 1181301029,
  "lat": 53.7199289,
  "lon": -1.8543846
},
{
  "type": "node",
  "id": 1181301035,
  "lat": 53.7199914,
  "lon": -1.8546629
},
{
  "type": "node",
  "id": 1181301048,
  "lat": 53.7201653,
  "lon": -1.8544417
},
{
  "type": "node",
  "id": 1181301051,
  "lat": 53.7200665,
  "lon": -1.8546270
},
{
  "type": "node",
  "id": 1181301067,
  "lat": 53.7201426,
  "lon": -1.8544319
},
{
  "type": "node",
  "id": 1181301077,
  "lat": 53.7198274,
  "lon": -1.8543631
},
{
  "type": "node",
  "id": 1181301139,
  "lat": 53.7200648,
  "lon": -1.8545297
},
{
  "type": "node",
  "id": 1181301150,
  "lat": 53.7197829,
  "lon": -1.8544382
},
{
  "type": "node",
  "id": 1181301154,
  "lat": 53.7200242,
  "lon": -1.8545026
},
{
  "type": "node",
  "id": 1181301182,
  "lat": 53.7199607,
  "lon": -1.8544811
},
{
  "type": "node",
  "id": 1944198441,
  "lat": 53.7323040,
  "lon": -1.8633453
},
{
  "type": "node",
  "id": 1944198443,
  "lat": 53.7327194,
  "lon": -1.8633485
},
{
  "type": "node",
  "id": 1944198473,
  "lat": 53.7324733,
  "lon": -1.8629427
},
{
  "type": "node",
  "id": 1944198477,
  "lat": 53.7323518,
  "lon": -1.8634011
},
{
  "type": "node",
  "id": 1944198484,
  "lat": 53.7324276,
  "lon": -1.8630544
},
{
  "type": "node",
  "id": 1944198488,
  "lat": 53.7324832,
  "lon": -1.8635482
},
{
  "type": "node",
  "id": 1944198499,
  "lat": 53.7323596,
  "lon": -1.8632093
},
{
  "type": "node",
  "id": 1944198500,
  "lat": 53.7325877,
  "lon": -1.8636703
},
{
  "type": "node",
  "id": 1944198517,
  "lat": 53.7324125,
  "lon": -1.8637210
},
{
  "type": "node",
  "id": 1944198522,
  "lat": 53.7327831,
  "lon": -1.8633049
},
{
  "type": "node",
  "id": 1944198540,
  "lat": 53.7324131,
  "lon": -1.8632719
},
{
  "type": "node",
  "id": 1944198551,
  "lat": 53.7324780,
  "lon": -1.8631133
},
{
  "type": "node",
  "id": 1944198554,
  "lat": 53.7322829,
  "lon": -1.8635695
},
{
  "type": "node",
  "id": 1944198560,
  "lat": 53.7327504,
  "lon": -1.8633848
},
{
  "type": "node",
  "id": 6432293770,
  "lat": 53.7326645,
  "lon": -1.8634826
},
{
  "type": "node",
  "id": 1110750256,
  "lat": 53.7788956,
  "lon": -1.7393591
},
{
  "type": "node",
  "id": 1110750262,
  "lat": 53.7788988,
  "lon": -1.7391230
},
{
  "type": "node",
  "id": 1110750316,
  "lat": 53.7790414,
  "lon": -1.7386831
},
{
  "type": "node",
  "id": 1110750364,
  "lat": 53.7789844,
  "lon": -1.7389567
},
{
  "type": "node",
  "id": 1110750365,
  "lat": 53.7791112,
  "lon": -1.7389299
},
{
  "type": "node",
  "id": 1110750367,
  "lat": 53.7789590,
  "lon": -1.7392196
},
{
  "type": "node",
  "id": 1110750379,
  "lat": 53.7790509,
  "lon": -1.7390694
},
{
  "type": "node",
  "id": 1110750396,
  "lat": 53.7790129,
  "lon": -1.7387582
},
{
  "type": "node",
  "id": 1110750404,
  "lat": 53.7787276,
  "lon": -1.7391177
},
{
  "type": "node",
  "id": 1110750408,
  "lat": 53.7789939,
  "lon": -1.7385705
},
{
  "type": "node",
  "id": 1713982095,
  "lat": 53.7909170,
  "lon": -1.7564391
},
{
  "type": "node",
  "id": 1713982128,
  "lat": 53.7909186,
  "lon": -1.7564874
},
{
  "type": "node",
  "id": 1713982130,
  "lat": 53.7909186,
  "lon": -1.7565142
},
{
  "type": "node",
  "id": 1713982173,
  "lat": 53.7907626,
  "lon": -1.7566761
},
{
  "type": "node",
  "id": 1713982210,
  "lat": 53.7909123,
  "lon": -1.7563828
},
{
  "type": "node",
  "id": 1713982091,
  "lat": 53.7908929,
  "lon": -1.7560699
},
{
  "type": "node",
  "id": 1713982099,
  "lat": 53.7907855,
  "lon": -1.7558034
},
{
  "type": "node",
  "id": 1713982102,
  "lat": 53.7903339,
  "lon": -1.7558034
},
{
  "type": "node",
  "id": 1713982110,
  "lat": 53.7909135,
  "lon": -1.7561423
},
{
  "type": "node",
  "id": 1713982117,
  "lat": 53.7907792,
  "lon": -1.7557525
},
{
  "type": "node",
  "id": 1713982120,
  "lat": 53.7909265,
  "lon": -1.7553823
},
{
  "type": "node",
  "id": 1713982123,
  "lat": 53.7909009,
  "lon": -1.7562952
},
{
  "type": "node",
  "id": 1713982126,
  "lat": 53.7907301,
  "lon": -1.7555432
},
{
  "type": "node",
  "id": 1713982133,
  "lat": 53.7904084,
  "lon": -1.7560153
},
{
  "type": "node",
  "id": 1713982153,
  "lat": 53.7908014,
  "lon": -1.7558624
},
{
  "type": "node",
  "id": 1713982164,
  "lat": 53.7907792,
  "lon": -1.7557015
},
{
  "type": "node",
  "id": 1713982168,
  "lat": 53.7904987,
  "lon": -1.7559402
},
{
  "type": "node",
  "id": 1713982170,
  "lat": 53.7906672,
  "lon": -1.7551269
},
{
  "type": "node",
  "id": 1713982177,
  "lat": 53.7908251,
  "lon": -1.7559080
},
{
  "type": "node",
  "id": 1713982178,
  "lat": 53.7907792,
  "lon": -1.7556559
},
{
  "type": "node",
  "id": 1713982182,
  "lat": 53.7906556,
  "lon": -1.7551436
},
{
  "type": "node",
  "id": 1713982185,
  "lat": 53.7907503,
  "lon": -1.7550077
},
{
  "type": "node",
  "id": 1713982214,
  "lat": 53.7906680,
  "lon": -1.7554154
},
{
  "type": "node",
  "id": 1713982220,
  "lat": 53.7905954,
  "lon": -1.7553448
},
{
  "type": "node",
  "id": 1713982222,
  "lat": 53.7908568,
  "lon": -1.7555459
},
{
  "type": "node",
  "id": 1713982229,
  "lat": 53.7908140,
  "lon": -1.7556183
},
{
  "type": "node",
  "id": 1713982231,
  "lat": 53.7908869,
  "lon": -1.7562272
},
{
  "type": "node",
  "id": 1713982233,
  "lat": 53.7908457,
  "lon": -1.7559456
},
{
  "type": "node",
  "id": 1713982239,
  "lat": 53.7906461,
  "lon": -1.7554950
},
{
  "type": "node",
  "id": 1713982258,
  "lat": 53.7907427,
  "lon": -1.7554735
},
{
  "type": "node",
  "id": 1713982260,
  "lat": 53.7908758,
  "lon": -1.7560126
},
{
  "type": "node",
  "id": 2429048337,
  "lat": 53.7905254,
  "lon": -1.7559957
},
{
  "type": "node",
  "id": 710890812,
  "lat": 53.8471876,
  "lon": -1.8018578
},
{
  "type": "node",
  "id": 710890813,
  "lat": 53.8476317,
  "lon": -1.8012375
},
{
  "type": "node",
  "id": 710890814,
  "lat": 53.8473870,
  "lon": -1.8006615
},
{
  "type": "node",
  "id": 710890815,
  "lat": 53.8469313,
  "lon": -1.8010906
},
{
  "type": "node",
  "id": 2354845133,
  "lat": 53.8475178,
  "lon": -1.8014454
},
{
  "type": "node",
  "id": 337640058,
  "lat": 53.8119751,
  "lon": -1.7719904
},
{
  "type": "node",
  "id": 337640060,
  "lat": 53.8121062,
  "lon": -1.7712486
},
{
  "type": "node",
  "id": 337640063,
  "lat": 53.8123536,
  "lon": -1.7713665
},
{
  "type": "node",
  "id": 337640068,
  "lat": 53.8122232,
  "lon": -1.7721239
},
{
  "type": "node",
  "id": 4852162283,
  "lat": 53.8122448,
  "lon": -1.7719988
},
{
  "type": "node",
  "id": 4852162284,
  "lat": 53.8123238,
  "lon": -1.7715397
},
{
  "type": "node",
  "id": 4852162285,
  "lat": 53.8123036,
  "lon": -1.7715285
},
{
  "type": "node",
  "id": 4852162286,
  "lat": 53.8122792,
  "lon": -1.7716601
},
{
  "type": "node",
  "id": 4852162287,
  "lat": 53.8122505,
  "lon": -1.7718317
},
{
  "type": "node",
  "id": 4852162288,
  "lat": 53.8122196,
  "lon": -1.7719862
},
{
  "type": "node",
  "id": 4852162289,
  "lat": 53.8123150,
  "lon": -1.7717671
},
{
  "type": "node",
  "id": 4852162290,
  "lat": 53.8122922,
  "lon": -1.7718304
},
{
  "type": "node",
  "id": 4852162291,
  "lat": 53.8123076,
  "lon": -1.7716933
},
{
  "type": "node",
  "id": 4852162292,
  "lat": 53.8120002,
  "lon": -1.7718486
},
{
  "type": "node",
  "id": 4852162293,
  "lat": 53.8120779,
  "lon": -1.7714084
},
{
  "type": "node",
  "id": 4852162294,
  "lat": 53.8120963,
  "lon": -1.7714243
},
{
  "type": "node",
  "id": 4852162295,
  "lat": 53.8120170,
  "lon": -1.7718650
},
{
  "type": "node",
  "id": 4852162296,
  "lat": 53.8120684,
  "lon": -1.7715795
},
{
  "type": "node",
  "id": 4852162297,
  "lat": 53.8120427,
  "lon": -1.7717222
},
{
  "type": "node",
  "id": 4852162298,
  "lat": 53.8119825,
  "lon": -1.7716909
},
{
  "type": "node",
  "id": 4852162299,
  "lat": 53.8120090,
  "lon": -1.7715522
},
{
  "type": "node",
  "id": 1539628919,
  "lat": 53.8111218,
  "lon": -1.7220409
},
{
  "type": "node",
  "id": 1539628924,
  "lat": 53.8110207,
  "lon": -1.7219202
},
{
  "type": "node",
  "id": 1539628932,
  "lat": 53.8111798,
  "lon": -1.7219175
},
{
  "type": "node",
  "id": 1539628934,
  "lat": 53.8113831,
  "lon": -1.7206887
},
{
  "type": "node",
  "id": 1539628937,
  "lat": 53.8109236,
  "lon": -1.7214118
},
{
  "type": "node",
  "id": 1539628941,
  "lat": 53.8108739,
  "lon": -1.7215216
},
{
  "type": "node",
  "id": 1539628952,
  "lat": 53.8109178,
  "lon": -1.7221673
},
{
  "type": "node",
  "id": 1539628955,
  "lat": 53.8108011,
  "lon": -1.7222470
},
{
  "type": "node",
  "id": 1539628980,
  "lat": 53.8109175,
  "lon": -1.7219773
},
{
  "type": "node",
  "id": 1539629012,
  "lat": 53.8112204,
  "lon": -1.7204954
},
{
  "type": "node",
  "id": 1539629063,
  "lat": 53.8112496,
  "lon": -1.7214453
},
{
  "type": "node",
  "id": 1539629064,
  "lat": 53.8108887,
  "lon": -1.7212965
},
{
  "type": "node",
  "id": 1539629087,
  "lat": 53.8110626,
  "lon": -1.7217839
},
{
  "type": "node",
  "id": 1539629101,
  "lat": 53.8108512,
  "lon": -1.7218951
},
{
  "type": "node",
  "id": 1539629107,
  "lat": 53.8109330,
  "lon": -1.7213491
},
{
  "type": "node",
  "id": 1539629111,
  "lat": 53.8113308,
  "lon": -1.7215379
},
{
  "type": "node",
  "id": 1539629128,
  "lat": 53.8107347,
  "lon": -1.7221648
},
{
  "type": "node",
  "id": 1539629136,
  "lat": 53.8112223,
  "lon": -1.7215141
},
{
  "type": "node",
  "id": 1539629137,
  "lat": 53.8109667,
  "lon": -1.7216420
},
{
  "type": "node",
  "id": 1539629139,
  "lat": 53.8110189,
  "lon": -1.7222880
},
{
  "type": "node",
  "id": 1539629141,
  "lat": 53.8110651,
  "lon": -1.7214568
},
{
  "type": "node",
  "id": 1539629175,
  "lat": 53.8109467,
  "lon": -1.7213162
},
{
  "type": "node",
  "id": 1539629177,
  "lat": 53.8110163,
  "lon": -1.7215322
},
{
  "type": "node",
  "id": 1539629187,
  "lat": 53.8111863,
  "lon": -1.7214730
},
{
  "type": "node",
  "id": 1150785600,
  "lat": 53.5709174,
  "lon": -1.5908488
},
{
  "type": "node",
  "id": 1150785608,
  "lat": 53.5707932,
  "lon": -1.5907787
},
{
  "type": "node",
  "id": 1150785610,
  "lat": 53.5709279,
  "lon": -1.5901011
},
{
  "type": "node",
  "id": 1150785612,
  "lat": 53.5711249,
  "lon": -1.5902122
},
{
  "type": "node",
  "id": 1150785615,
  "lat": 53.5710949,
  "lon": -1.5903631
},
{
  "type": "node",
  "id": 1150785616,
  "lat": 53.5710222,
  "lon": -1.5903221
},
{
  "type": "node",
  "id": 2806565128,
  "lat": 53.4947452,
  "lon": -1.5581553
},
{
  "type": "node",
  "id": 2806565129,
  "lat": 53.4946417,
  "lon": -1.5581672
},
{
  "type": "node",
  "id": 2806565130,
  "lat": 53.4946287,
  "lon": -1.5577718
},
{
  "type": "node",
  "id": 2806565131,
  "lat": 53.4946170,
  "lon": -1.5577026
},
{
  "type": "node",
  "id": 2806565132,
  "lat": 53.4945264,
  "lon": -1.5577362
},
{
  "type": "node",
  "id": 2806565133,
  "lat": 53.4945123,
  "lon": -1.5576353
},
{
  "type": "node",
  "id": 2806565134,
  "lat": 53.4946264,
  "lon": -1.5575819
},
{
  "type": "node",
  "id": 2806565135,
  "lat": 53.4946228,
  "lon": -1.5575404
},
{
  "type": "node",
  "id": 2806565136,
  "lat": 53.4948581,
  "lon": -1.5574455
},
{
  "type": "node",
  "id": 2806565137,
  "lat": 53.4948934,
  "lon": -1.5576551
},
{
  "type": "node",
  "id": 2806565138,
  "lat": 53.4946958,
  "lon": -1.5577500
},
{
  "type": "node",
  "id": 2806565139,
  "lat": 53.4947111,
  "lon": -1.5580822
},
{
  "type": "node",
  "id": 2806565140,
  "lat": 53.4947440,
  "lon": -1.5580782
},
{
  "type": "node",
  "id": 3391076735,
  "lat": 53.5255290,
  "lon": -1.4744384
},
{
  "type": "node",
  "id": 3391076736,
  "lat": 53.5254104,
  "lon": -1.4741962
},
{
  "type": "node",
  "id": 3391076737,
  "lat": 53.5253633,
  "lon": -1.4742615
},
{
  "type": "node",
  "id": 3391076738,
  "lat": 53.5254818,
  "lon": -1.4745037
},
{
  "type": "node",
  "id": 2960131672,
  "lat": 53.5680084,
  "lon": -1.5721541
},
{
  "type": "node",
  "id": 2960131673,
  "lat": 53.5679614,
  "lon": -1.5721675
},
{
  "type": "node",
  "id": 2960131674,
  "lat": 53.5679662,
  "lon": -1.5722091
},
{
  "type": "node",
  "id": 2960131675,
  "lat": 53.5678563,
  "lon": -1.5722426
},
{
  "type": "node",
  "id": 2960131676,
  "lat": 53.5678364,
  "lon": -1.5719986
},
{
  "type": "node",
  "id": 2960131677,
  "lat": 53.5679590,
  "lon": -1.5719664
},
{
  "type": "node",
  "id": 2960131678,
  "lat": 53.5679686,
  "lon": -1.5720737
},
{
  "type": "node",
  "id": 2960131679,
  "lat": 53.5679996,
  "lon": -1.5720656
},
{
  "type": "node",
  "id": 697412342,
  "lat": 53.6761932,
  "lon": -1.4914177
},
{
  "type": "node",
  "id": 697412355,
  "lat": 53.6761111,
  "lon": -1.4913512
},
{
  "type": "node",
  "id": 1634705870,
  "lat": 53.6759263,
  "lon": -1.4906527
},
{
  "type": "node",
  "id": 1634705871,
  "lat": 53.6759157,
  "lon": -1.4915175
},
{
  "type": "node",
  "id": 1634705872,
  "lat": 53.6761059,
  "lon": -1.4909397
},
{
  "type": "node",
  "id": 1634705873,
  "lat": 53.6758961,
  "lon": -1.4915486
},
{
  "type": "node",
  "id": 1634705877,
  "lat": 53.6758489,
  "lon": -1.4908576
},
{
  "type": "node",
  "id": 1634705878,
  "lat": 53.6759408,
  "lon": -1.4915385
},
{
  "type": "node",
  "id": 1634705879,
  "lat": 53.6760046,
  "lon": -1.4915336
},
{
  "type": "node",
  "id": 1634705880,
  "lat": 53.6759840,
  "lon": -1.4915711
},
{
  "type": "node",
  "id": 1634705881,
  "lat": 53.6757897,
  "lon": -1.4911275
},
{
  "type": "node",
  "id": 1634705882,
  "lat": 53.6760995,
  "lon": -1.4911462
},
{
  "type": "node",
  "id": 1634705883,
  "lat": 53.6757155,
  "lon": -1.4912868
},
{
  "type": "node",
  "id": 1634705885,
  "lat": 53.6758961,
  "lon": -1.4908730
},
{
  "type": "node",
  "id": 1634705886,
  "lat": 53.6757377,
  "lon": -1.4912975
},
{
  "type": "node",
  "id": 1634705887,
  "lat": 53.6758060,
  "lon": -1.4915926
},
{
  "type": "node",
  "id": 1634705888,
  "lat": 53.6758394,
  "lon": -1.4914906
},
{
  "type": "node",
  "id": 1634705889,
  "lat": 53.6761487,
  "lon": -1.4909558
},
{
  "type": "node",
  "id": 1634705890,
  "lat": 53.6757515,
  "lon": -1.4911194
},
{
  "type": "node",
  "id": 1634705891,
  "lat": 53.6761217,
  "lon": -1.4907895
},
{
  "type": "node",
  "id": 1634705893,
  "lat": 53.6761222,
  "lon": -1.4916784
},
{
  "type": "node",
  "id": 1634705894,
  "lat": 53.6756964,
  "lon": -1.4915577
},
{
  "type": "node",
  "id": 1634705895,
  "lat": 53.6761313,
  "lon": -1.4911731
},
{
  "type": "node",
  "id": 705493676,
  "lat": 53.8027179,
  "lon": -1.5831605
},
{
  "type": "node",
  "id": 705493758,
  "lat": 53.8032588,
  "lon": -1.5822053
},
{
  "type": "node",
  "id": 2408809325,
  "lat": 53.8032612,
  "lon": -1.5830318
},
{
  "type": "node",
  "id": 2408809346,
  "lat": 53.8026291,
  "lon": -1.5830283
},
{
  "type": "node",
  "id": 2408809348,
  "lat": 53.8027798,
  "lon": -1.5829831
},
{
  "type": "node",
  "id": 2408809366,
  "lat": 53.8026521,
  "lon": -1.5832316
},
{
  "type": "node",
  "id": 2408809380,
  "lat": 53.8026884,
  "lon": -1.5832838
},
{
  "type": "node",
  "id": 2408809386,
  "lat": 53.8027089,
  "lon": -1.5830001
},
{
  "type": "node",
  "id": 2408809389,
  "lat": 53.8031332,
  "lon": -1.5818623
},
{
  "type": "node",
  "id": 2412575420,
  "lat": 53.8027413,
  "lon": -1.5833053
},
{
  "type": "node",
  "id": 2412575421,
  "lat": 53.8026365,
  "lon": -1.5831684
},
{
  "type": "node",
  "id": 2412575423,
  "lat": 53.8032010,
  "lon": -1.5830492
},
{
  "type": "node",
  "id": 2412575424,
  "lat": 53.8026719,
  "lon": -1.5832671
},
{
  "type": "node",
  "id": 2412575425,
  "lat": 53.8031764,
  "lon": -1.5830540
},
{
  "type": "node",
  "id": 2412939712,
  "lat": 53.8030570,
  "lon": -1.5830854
},
{
  "type": "node",
  "id": 2412939734,
  "lat": 53.8029965,
  "lon": -1.5826572
},
{
  "type": "node",
  "id": 2412944635,
  "lat": 53.8026087,
  "lon": -1.5827567
},
{
  "type": "node",
  "id": 2412944649,
  "lat": 53.8028482,
  "lon": -1.5831313
},
{
  "type": "node",
  "id": 2412944661,
  "lat": 53.8026479,
  "lon": -1.5827495
},
{
  "type": "node",
  "id": 2413016541,
  "lat": 53.8031657,
  "lon": -1.5826089
},
{
  "type": "node",
  "id": 2413016545,
  "lat": 53.8027582,
  "lon": -1.5827106
},
{
  "type": "node",
  "id": 2413016556,
  "lat": 53.8031122,
  "lon": -1.5818761
},
{
  "type": "node",
  "id": 2413016564,
  "lat": 53.8032561,
  "lon": -1.5827023
},
{
  "type": "node",
  "id": 2413024868,
  "lat": 53.8032882,
  "lon": -1.5830237
},
{
  "type": "node",
  "id": 2413024873,
  "lat": 53.8032950,
  "lon": -1.5825020
},
{
  "type": "node",
  "id": 2413024876,
  "lat": 53.8031144,
  "lon": -1.5819014
},
{
  "type": "node",
  "id": 2413024892,
  "lat": 53.8030547,
  "lon": -1.5819286
},
{
  "type": "node",
  "id": 2413024893,
  "lat": 53.8031881,
  "lon": -1.5818331
},
{
  "type": "node",
  "id": 2413024910,
  "lat": 53.8032335,
  "lon": -1.5825289
},
{
  "type": "node",
  "id": 2979951385,
  "lat": 53.8031128,
  "lon": -1.5830710
},
{
  "type": "node",
  "id": 2980704787,
  "lat": 53.8026896,
  "lon": -1.5827431
},
{
  "type": "node",
  "id": 3089365393,
  "lat": 53.7747519,
  "lon": -1.5384540
},
{
  "type": "node",
  "id": 3089365394,
  "lat": 53.7740855,
  "lon": -1.5388926
},
{
  "type": "node",
  "id": 3089365395,
  "lat": 53.7741012,
  "lon": -1.5389446
},
{
  "type": "node",
  "id": 3089365398,
  "lat": 53.7746429,
  "lon": -1.5382746
},
{
  "type": "node",
  "id": 3089365403,
  "lat": 53.7746291,
  "lon": -1.5385605
},
{
  "type": "node",
  "id": 3089365406,
  "lat": 53.7746515,
  "lon": -1.5383028
},
{
  "type": "node",
  "id": 3089365407,
  "lat": 53.7740532,
  "lon": -1.5387859
},
{
  "type": "node",
  "id": 3089365408,
  "lat": 53.7746947,
  "lon": -1.5382653
},
{
  "type": "node",
  "id": 3089365413,
  "lat": 53.7740713,
  "lon": -1.5388457
},
{
  "type": "node",
  "id": 3089365419,
  "lat": 53.7746115,
  "lon": -1.5385022
},
{
  "type": "node",
  "id": 921265684,
  "lat": 53.8017453,
  "lon": -1.5472623
},
{
  "type": "node",
  "id": 921265685,
  "lat": 53.8013389,
  "lon": -1.5470903
},
{
  "type": "node",
  "id": 921265738,
  "lat": 53.8001706,
  "lon": -1.5477550
},
{
  "type": "node",
  "id": 921265739,
  "lat": 53.8001837,
  "lon": -1.5474142
},
{
  "type": "node",
  "id": 921265740,
  "lat": 53.7999508,
  "lon": -1.5473885
},
{
  "type": "node",
  "id": 921265741,
  "lat": 53.7999374,
  "lon": -1.5477364
},
{
  "type": "node",
  "id": 2153085611,
  "lat": 53.8001008,
  "lon": -1.5477473
},
{
  "type": "node",
  "id": 2153085623,
  "lat": 53.8000130,
  "lon": -1.5476983
},
{
  "type": "node",
  "id": 2153085645,
  "lat": 53.8001023,
  "lon": -1.5477082
},
{
  "type": "node",
  "id": 2153085646,
  "lat": 53.8000112,
  "lon": -1.5477446
},
{
  "type": "node",
  "id": 2153085665,
  "lat": 53.8001787,
  "lon": -1.5475429
},
{
  "type": "node",
  "id": 921265676,
  "lat": 53.8018180,
  "lon": -1.5466878
},
{
  "type": "node",
  "id": 4049332148,
  "lat": 53.7884060,
  "lon": -1.5310837
},
{
  "type": "node",
  "id": 4049332156,
  "lat": 53.7885762,
  "lon": -1.5303333
},
{
  "type": "node",
  "id": 4049332161,
  "lat": 53.7886717,
  "lon": -1.5313110
},
{
  "type": "node",
  "id": 4049332162,
  "lat": 53.7886825,
  "lon": -1.5312635
},
{
  "type": "node",
  "id": 920423989,
  "lat": 53.7920360,
  "lon": -1.5330226
},
{
  "type": "node",
  "id": 920423991,
  "lat": 53.7913732,
  "lon": -1.5327672
},
{
  "type": "node",
  "id": 920423992,
  "lat": 53.7914051,
  "lon": -1.5325436
},
{
  "type": "node",
  "id": 920423994,
  "lat": 53.7915607,
  "lon": -1.5323628
},
{
  "type": "node",
  "id": 920423996,
  "lat": 53.7916271,
  "lon": -1.5323808
},
{
  "type": "node",
  "id": 920423997,
  "lat": 53.7917364,
  "lon": -1.5315482
},
{
  "type": "node",
  "id": 920423998,
  "lat": 53.7919381,
  "lon": -1.5317275
},
{
  "type": "node",
  "id": 920423999,
  "lat": 53.7919666,
  "lon": -1.5317369
},
{
  "type": "node",
  "id": 920424000,
  "lat": 53.7920148,
  "lon": -1.5321649
},
{
  "type": "node",
  "id": 920424001,
  "lat": 53.7921442,
  "lon": -1.5322234
},
{
  "type": "node",
  "id": 920424002,
  "lat": 53.7920831,
  "lon": -1.5326325
},
{
  "type": "node",
  "id": 920424003,
  "lat": 53.7921289,
  "lon": -1.5326484
},
{
  "type": "node",
  "id": 920424004,
  "lat": 53.7922597,
  "lon": -1.5326974
},
{
  "type": "node",
  "id": 920424005,
  "lat": 53.7922498,
  "lon": -1.5327922
},
{
  "type": "node",
  "id": 920424007,
  "lat": 53.7921939,
  "lon": -1.5328363
},
{
  "type": "node",
  "id": 920424009,
  "lat": 53.7921424,
  "lon": -1.5328160
},
{
  "type": "node",
  "id": 920424011,
  "lat": 53.7921169,
  "lon": -1.5327349
},
{
  "type": "node",
  "id": 920424012,
  "lat": 53.7920721,
  "lon": -1.5327182
},
{
  "type": "node",
  "id": 1414381458,
  "lat": 53.7915279,
  "lon": -1.5325869
},
{
  "type": "node",
  "id": 1414381461,
  "lat": 53.7919403,
  "lon": -1.5319552
},
{
  "type": "node",
  "id": 1414381463,
  "lat": 53.7920356,
  "lon": -1.5319933
},
{
  "type": "node",
  "id": 1414381467,
  "lat": 53.7921733,
  "lon": -1.5326035
},
{
  "type": "node",
  "id": 1414381468,
  "lat": 53.7922226,
  "lon": -1.5326180
},
{
  "type": "node",
  "id": 1893068859,
  "lat": 53.7915461,
  "lon": -1.5324618
},
{
  "type": "node",
  "id": 1893068936,
  "lat": 53.7915748,
  "lon": -1.5323666
},
{
  "type": "node",
  "id": 3585325181,
  "lat": 53.7919501,
  "lon": -1.5316235
},
{
  "type": "node",
  "id": 4049332166,
  "lat": 53.7887351,
  "lon": -1.5313522
},
{
  "type": "node",
  "id": 4049332169,
  "lat": 53.7889161,
  "lon": -1.5305542
},
{
  "type": "node",
  "id": 921265677,
  "lat": 53.8014212,
  "lon": -1.5465486
},
{
  "type": "node",
  "id": 249331359,
  "lat": 53.8078524,
  "lon": -1.5191451
},
{
  "type": "node",
  "id": 249331360,
  "lat": 53.8077382,
  "lon": -1.5190011
},
{
  "type": "node",
  "id": 1602819572,
  "lat": 53.8077739,
  "lon": -1.5190737
},
{
  "type": "node",
  "id": 1602819579,
  "lat": 53.8077996,
  "lon": -1.5190375
},
{
  "type": "node",
  "id": 1602819602,
  "lat": 53.8078819,
  "lon": -1.5187347
},
{
  "type": "node",
  "id": 1602819604,
  "lat": 53.8078990,
  "lon": -1.5187702
},
{
  "type": "node",
  "id": 1602819608,
  "lat": 53.8079220,
  "lon": -1.5186792
},
{
  "type": "node",
  "id": 1602819623,
  "lat": 53.8079391,
  "lon": -1.5187146
},
{
  "type": "node",
  "id": 1602819649,
  "lat": 53.8080504,
  "lon": -1.5184741
},
{
  "type": "node",
  "id": 1602819661,
  "lat": 53.8080756,
  "lon": -1.5185255
},
{
  "type": "node",
  "id": 1602819681,
  "lat": 53.8081838,
  "lon": -1.5182860
},
{
  "type": "node",
  "id": 1602819688,
  "lat": 53.8082121,
  "lon": -1.5183435
},
{
  "type": "node",
  "id": 1602819718,
  "lat": 53.8083156,
  "lon": -1.5181294
},
{
  "type": "node",
  "id": 1602819723,
  "lat": 53.8083354,
  "lon": -1.5181696
},
{
  "type": "node",
  "id": 4763874055,
  "lat": 53.8081137,
  "lon": -1.5183848
},
{
  "type": "node",
  "id": 249331361,
  "lat": 53.8085274,
  "lon": -1.5178988
},
{
  "type": "node",
  "id": 249331362,
  "lat": 53.8085831,
  "lon": -1.5181150
},
{
  "type": "node",
  "id": 1602819738,
  "lat": 53.8083613,
  "lon": -1.5180650
},
{
  "type": "node",
  "id": 1602819747,
  "lat": 53.8083811,
  "lon": -1.5181052
},
{
  "type": "node",
  "id": 1602819806,
  "lat": 53.8085313,
  "lon": -1.5180097
},
{
  "type": "node",
  "id": 1602819817,
  "lat": 53.8085612,
  "lon": -1.5179675
},
{
  "type": "node",
  "id": 1677516416,
  "lat": 53.7839708,
  "lon": -1.4591371
},
{
  "type": "node",
  "id": 1677516435,
  "lat": 53.7840464,
  "lon": -1.4590963
},
{
  "type": "node",
  "id": 1677516440,
  "lat": 53.7841138,
  "lon": -1.4599263
},
{
  "type": "node",
  "id": 1677516470,
  "lat": 53.7841552,
  "lon": -1.4596965
},
{
  "type": "node",
  "id": 1677516496,
  "lat": 53.7843749,
  "lon": -1.4589472
},
{
  "type": "node",
  "id": 1677516541,
  "lat": 53.7844658,
  "lon": -1.4588974
},
{
  "type": "node",
  "id": 1677516550,
  "lat": 53.7844797,
  "lon": -1.4595166
},
{
  "type": "node",
  "id": 1677516588,
  "lat": 53.7846031,
  "lon": -1.4596423
},
{
  "type": "node",
  "id": 4500813474,
  "lat": 53.7843994,
  "lon": -1.4590593
},
{
  "type": "node",
  "id": 4500813475,
  "lat": 53.7843917,
  "lon": -1.4590717
},
{
  "type": "node",
  "id": 4500813476,
  "lat": 53.7843981,
  "lon": -1.4591160
},
{
  "type": "node",
  "id": 4500813477,
  "lat": 53.7844075,
  "lon": -1.4591175
},
{
  "type": "node",
  "id": 4500813478,
  "lat": 53.7844351,
  "lon": -1.4592783
},
{
  "type": "node",
  "id": 4500813479,
  "lat": 53.7844237,
  "lon": -1.4592101
},
{
  "type": "node",
  "id": 4500813480,
  "lat": 53.7844095,
  "lon": -1.4592190
},
{
  "type": "node",
  "id": 4500813481,
  "lat": 53.7844220,
  "lon": -1.4592855
},
{
  "type": "node",
  "id": 4500813482,
  "lat": 53.7844683,
  "lon": -1.4594520
},
{
  "type": "node",
  "id": 4500813483,
  "lat": 53.7844572,
  "lon": -1.4594449
},
{
  "type": "node",
  "id": 4500813484,
  "lat": 53.7844470,
  "lon": -1.4593983
},
{
  "type": "node",
  "id": 4500813485,
  "lat": 53.7844574,
  "lon": -1.4593779
},
{
  "type": "node",
  "id": 4500813486,
  "lat": 53.7844269,
  "lon": -1.4595458
},
{
  "type": "node",
  "id": 4500813487,
  "lat": 53.7844315,
  "lon": -1.4595257
},
{
  "type": "node",
  "id": 4500813488,
  "lat": 53.7844495,
  "lon": -1.4595150
},
{
  "type": "node",
  "id": 4500820289,
  "lat": 53.7844620,
  "lon": -1.4595264
},
{
  "type": "node",
  "id": 4500820290,
  "lat": 53.7845518,
  "lon": -1.4593829
},
{
  "type": "node",
  "id": 4500820291,
  "lat": 53.7845619,
  "lon": -1.4593784
},
{
  "type": "node",
  "id": 4500820292,
  "lat": 53.7845723,
  "lon": -1.4594281
},
{
  "type": "node",
  "id": 4500820293,
  "lat": 53.7845612,
  "lon": -1.4594330
},
{
  "type": "node",
  "id": 4500820294,
  "lat": 53.7845371,
  "lon": -1.4593049
},
{
  "type": "node",
  "id": 4500820295,
  "lat": 53.7845459,
  "lon": -1.4592995
},
{
  "type": "node",
  "id": 4500820296,
  "lat": 53.7845316,
  "lon": -1.4592273
},
{
  "type": "node",
  "id": 4500820297,
  "lat": 53.7845238,
  "lon": -1.4592339
},
{
  "type": "node",
  "id": 4500820298,
  "lat": 53.7845075,
  "lon": -1.4591470
},
{
  "type": "node",
  "id": 4500820299,
  "lat": 53.7845162,
  "lon": -1.4591390
},
{
  "type": "node",
  "id": 4500820300,
  "lat": 53.7845077,
  "lon": -1.4590892
},
{
  "type": "node",
  "id": 4500820301,
  "lat": 53.7844999,
  "lon": -1.4590952
},
{
  "type": "node",
  "id": 4500820302,
  "lat": 53.7844862,
  "lon": -1.4590115
},
{
  "type": "node",
  "id": 4500820303,
  "lat": 53.7844944,
  "lon": -1.4589986
},
{
  "type": "node",
  "id": 4500820304,
  "lat": 53.7844844,
  "lon": -1.4589470
},
{
  "type": "node",
  "id": 4500820305,
  "lat": 53.7844712,
  "lon": -1.4589368
},
{
  "type": "node",
  "id": 4500820306,
  "lat": 53.7845805,
  "lon": -1.4595361
},
{
  "type": "node",
  "id": 4500820307,
  "lat": 53.7845972,
  "lon": -1.4595477
},
{
  "type": "node",
  "id": 4500820308,
  "lat": 53.7846052,
  "lon": -1.4595957
},
{
  "type": "node",
  "id": 4500820309,
  "lat": 53.7845978,
  "lon": -1.4596173
},
{
  "type": "node",
  "id": 4500820310,
  "lat": 53.7845433,
  "lon": -1.4596737
},
{
  "type": "node",
  "id": 4500820311,
  "lat": 53.7845618,
  "lon": -1.4596930
},
{
  "type": "node",
  "id": 4500820312,
  "lat": 53.7845878,
  "lon": -1.4596795
},
{
  "type": "node",
  "id": 4500820313,
  "lat": 53.7845941,
  "lon": -1.4596471
},
{
  "type": "node",
  "id": 4500820314,
  "lat": 53.7844457,
  "lon": -1.4597249
},
{
  "type": "node",
  "id": 4500820315,
  "lat": 53.7844526,
  "lon": -1.4597508
},
{
  "type": "node",
  "id": 4500820316,
  "lat": 53.7844799,
  "lon": -1.4597385
},
{
  "type": "node",
  "id": 4500820317,
  "lat": 53.7844770,
  "lon": -1.4597084
},
{
  "type": "node",
  "id": 4500820318,
  "lat": 53.7843371,
  "lon": -1.4597818
},
{
  "type": "node",
  "id": 4500820319,
  "lat": 53.7843531,
  "lon": -1.4598085
},
{
  "type": "node",
  "id": 4500820320,
  "lat": 53.7843723,
  "lon": -1.4597952
},
{
  "type": "node",
  "id": 4500820321,
  "lat": 53.7843729,
  "lon": -1.4597630
},
{
  "type": "node",
  "id": 4500820322,
  "lat": 53.7842726,
  "lon": -1.4598235
},
{
  "type": "node",
  "id": 4500820323,
  "lat": 53.7842770,
  "lon": -1.4598481
},
{
  "type": "node",
  "id": 4500820324,
  "lat": 53.7842500,
  "lon": -1.4598647
},
{
  "type": "node",
  "id": 4500820325,
  "lat": 53.7842444,
  "lon": -1.4598418
},
{
  "type": "node",
  "id": 4500820326,
  "lat": 53.7841262,
  "lon": -1.4599183
},
{
  "type": "node",
  "id": 4500820327,
  "lat": 53.7841468,
  "lon": -1.4599288
},
{
  "type": "node",
  "id": 4500820328,
  "lat": 53.7841705,
  "lon": -1.4599138
},
{
  "type": "node",
  "id": 4500820329,
  "lat": 53.7841768,
  "lon": -1.4598855
},
{
  "type": "node",
  "id": 4500820330,
  "lat": 53.7841075,
  "lon": -1.4598919
},
{
  "type": "node",
  "id": 4500820331,
  "lat": 53.7840956,
  "lon": -1.4598890
},
{
  "type": "node",
  "id": 4500820332,
  "lat": 53.7840858,
  "lon": -1.4598452
},
{
  "type": "node",
  "id": 4500820333,
  "lat": 53.7840947,
  "lon": -1.4598210
},
{
  "type": "node",
  "id": 4500820334,
  "lat": 53.7840577,
  "lon": -1.4596171
},
{
  "type": "node",
  "id": 4500820335,
  "lat": 53.7840408,
  "lon": -1.4595237
},
{
  "type": "node",
  "id": 4500820336,
  "lat": 53.7840312,
  "lon": -1.4595521
},
{
  "type": "node",
  "id": 4500820337,
  "lat": 53.7840400,
  "lon": -1.4596046
},
{
  "type": "node",
  "id": 4500820338,
  "lat": 53.7839898,
  "lon": -1.4592423
},
{
  "type": "node",
  "id": 4500820339,
  "lat": 53.7839741,
  "lon": -1.4592247
},
{
  "type": "node",
  "id": 4500820340,
  "lat": 53.7839669,
  "lon": -1.4591893
},
{
  "type": "node",
  "id": 4500820341,
  "lat": 53.7839762,
  "lon": -1.4591671
},
{
  "type": "node",
  "id": 4500820342,
  "lat": 53.7840662,
  "lon": -1.4592053
},
{
  "type": "node",
  "id": 4500820343,
  "lat": 53.7840808,
  "lon": -1.4592156
},
{
  "type": "node",
  "id": 4500820344,
  "lat": 53.7840872,
  "lon": -1.4592563
},
{
  "type": "node",
  "id": 4500820345,
  "lat": 53.7840792,
  "lon": -1.4592773
},
{
  "type": "node",
  "id": 4500820346,
  "lat": 53.7840313,
  "lon": -1.4591045
},
{
  "type": "node",
  "id": 4500820347,
  "lat": 53.7840212,
  "lon": -1.4590952
},
{
  "type": "node",
  "id": 4500820348,
  "lat": 53.7839966,
  "lon": -1.4591083
},
{
  "type": "node",
  "id": 4500820349,
  "lat": 53.7839903,
  "lon": -1.4591266
},
{
  "type": "node",
  "id": 4500820350,
  "lat": 53.7841123,
  "lon": -1.4594599
},
{
  "type": "node",
  "id": 4500820351,
  "lat": 53.7841348,
  "lon": -1.4594469
},
{
  "type": "node",
  "id": 4500820352,
  "lat": 53.7841247,
  "lon": -1.4593858
},
{
  "type": "node",
  "id": 4500820353,
  "lat": 53.7841014,
  "lon": -1.4594000
},
{
  "type": "node",
  "id": 4500820354,
  "lat": 53.7841469,
  "lon": -1.4596509
},
{
  "type": "node",
  "id": 4500820355,
  "lat": 53.7841597,
  "lon": -1.4596209
},
{
  "type": "node",
  "id": 4500820356,
  "lat": 53.7841506,
  "lon": -1.4595690
},
{
  "type": "node",
  "id": 4500820357,
  "lat": 53.7841295,
  "lon": -1.4595549
},
{
  "type": "node",
  "id": 4500820358,
  "lat": 53.7841816,
  "lon": -1.4596815
},
{
  "type": "node",
  "id": 4500820359,
  "lat": 53.7841853,
  "lon": -1.4596609
},
{
  "type": "node",
  "id": 4500820360,
  "lat": 53.7842102,
  "lon": -1.4596452
},
{
  "type": "node",
  "id": 4500820361,
  "lat": 53.7842225,
  "lon": -1.4596592
},
{
  "type": "node",
  "id": 4500820362,
  "lat": 53.7842886,
  "lon": -1.4596226
},
{
  "type": "node",
  "id": 4500820363,
  "lat": 53.7842929,
  "lon": -1.4595918
},
{
  "type": "node",
  "id": 4500820364,
  "lat": 53.7843288,
  "lon": -1.4595732
},
{
  "type": "node",
  "id": 4500820365,
  "lat": 53.7843411,
  "lon": -1.4595934
},
{
  "type": "node",
  "id": 6435716657,
  "lat": 53.7841298,
  "lon": -1.4594164
},
{
  "type": "node",
  "id": 6435716658,
  "lat": 53.7840489,
  "lon": -1.4596109
},
{
  "type": "node",
  "id": 6435716662,
  "lat": 53.7843906,
  "lon": -1.4590189
},
{
  "type": "node",
  "id": 6435716664,
  "lat": 53.7840621,
  "lon": -1.4591828
},
{
  "type": "way",
  "id": 27930370,
  "nodes": [
    3405888640,
    2151739254,
    2151739253,
    2151739260,
    2151739262,
    2151739264,
    2151739263,
    306573022,
    2509277803,
    306573023,
    1680256861,
    1680256791,
    3405888625,
    306573024,
    3405888623,
    2151739236,
    2151739233,
    3390849590,
    3390849589,
    3390849587,
    3390849588,
    3390849586,
    3390849585,
    3390849591,
    2151739248,
    2151739246,
    2151739247,
    2151739249,
    2151739251,
    3405888640
  ]
},
{
  "type": "way",
  "id": 590377952,
  "nodes": [
    1680256796,
    306572898,
    2509263497,
    1680256861,
    306573023,
    2509277803,
    306573022,
    4537378724,
    984431505,
    984431507,
    984431516,
    5121712246,
    5121712237,
    306573053,
    306573052,
    5121712247,
    3405888644,
    5121712260,
    5121712240,
    306573044,
    1766134375,
    1766133703,
    1766133882,
    1766134417,
    1766133936,
    1766133843,
    306572896,
    306572897,
    1680256796
  ]
},
{
  "type": "way",
  "id": 27930338,
  "nodes": [
    306572895,
    3405888616,
    1680256859,
    1680256827,
    306572896,
    306572897,
    1680256796,
    306572898,
    3405888613,
    1680256855,
    1680256867,
    3405888611,
    306572895
  ]
},
{
  "type": "way",
  "id": 27930372,
  "nodes": [
    306573044,
    1766134375,
    1766133703,
    1766133882,
    1766134417,
    1766134018,
    306573045,
    1766134345,
    306573046,
    1766133666,
    1766134216,
    1766133731,
    5121712240,
    306573044
  ]
},
{
  "type": "way",
  "id": 27930374,
  "nodes": [
    306573052,
    306573053,
    1680256804,
    306573054,
    306573055,
    1680256798,
    306573052
  ]
},
{
  "type": "way",
  "id": 27930299,
  "nodes": [
    306572698,
    306572699,
    306572700,
    3405888607,
    3405888610,
    306572701,
    306572698
  ]
}

  ]
}
