{
  "version": 0.6,
  "generator": "Overpass API 0.7.55.9 ab41fea6",
  "osm3s": {
    "timestamp_osm_base": "2020-02-14T09:55:02Z",
    "copyright": "The data included in this document is from www.openstreetmap.org. The data is made available under ODbL."
  },
  "elements": [

{
  "type": "node",
  "id": 256663228,
  "lat": 51.8633613,
  "lon": -2.2445720,
  "tags": {
    "name": "Museum of Gloucester",
    "tourism": "museum"
  }
},
{
  "type": "node",
  "id": 322663217,
  "lat": 51.6446481,
  "lon": -2.6723283,
  "tags": {
    "name": "Chepstow Museum",
    "tourism": "museum"
  }
},
{
  "type": "node",
  "id": 495551158,
  "lat": 51.9693805,
  "lon": -2.7367737,
  "tags": {
    "name": "Violette Szabo",
    "tourism": "museum",
    "url": "http://www.violette-szabo-museum.co.uk/"
  }
},
{
  "type": "node",
  "id": 681753010,
  "lat": 51.9912152,
  "lon": -2.1601083,
  "tags": {
    "name": "John Moore Countryside Museum",
    "tourism": "museum",
    "url": "http://www.johnmooremuseum.org/"
  }
},
{
  "type": "node",
  "id": 691100484,
  "lat": 51.7932555,
  "lon": -2.4884804,
  "tags": {
    "name": "Dean Heritage Museum",
    "source": "OS OpenData StreetView",
    "source:name": "NaPTAN",
    "tourism": "museum"
  }
},
{
  "type": "node",
  "id": 889453436,
  "lat": 51.8671663,
  "lon": -2.2502510,
  "tags": {
    "name": "Folk Museum",
    "source": "OS OpenData StreetView + local knowedge",
    "tourism": "museum"
  }
},
{
  "type": "node",
  "id": 897872780,
  "lat": 52.1592190,
  "lon": -2.8756294,
  "tags": {
    "tourism": "museum"
  }
},
{
  "type": "node",
  "id": 1241185079,
  "lat": 52.0643967,
  "lon": -2.2178946,
  "tags": {
    "name": "Upton Heritage Centre",
    "tourism": "museum"
  }
},
{
  "type": "node",
  "id": 1241225905,
  "lat": 52.0641693,
  "lon": -2.2180115,
  "tags": {
    "addr:street": "Church Street",
    "name": "The Tudor House",
    "tourism": "museum"
  }
},
{
  "type": "node",
  "id": 1256903749,
  "lat": 51.7914721,
  "lon": -2.6153416,
  "tags": {
    "addr:postcode": "GL16 8RH",
    "name": "Coleford Great Western Railway Museum",
    "tourism": "museum",
    "wikidata": "Q5142750"
  }
},
{
  "type": "node",
  "id": 1308708733,
  "lat": 52.1888573,
  "lon": -2.5045354,
  "tags": {
    "addr:city": "Bromyard",
    "addr:housenumber": "12",
    "addr:postcode": "HR7 4BP",
    "addr:street": "Market Square",
    "fhrs:id": "488064",
    "name": "The Time Machine",
    "old_name": "Teddy Bears of Bromyard",
    "source:addr": "FHRS Open Data",
    "tourism": "museum"
  }
},
{
  "type": "node",
  "id": 1498911699,
  "lat": 51.7024764,
  "lon": -2.6716066,
  "tags": {
    "tourism": "museum"
  }
},
{
  "type": "node",
  "id": 1765066935,
  "lat": 51.9922946,
  "lon": -2.1580402,
  "tags": {
    "addr:housenumber": "100 ",
    "addr:postcode": "GL20 5AB",
    "addr:street": "Church Street",
    "name": "Out of the Hat",
    "tourism": "museum",
    "url": "http://www.outofthehat.org.uk/",
    "wikidata": "Q17539328"
  }
},
{
  "type": "node",
  "id": 1785851965,
  "lat": 51.8126846,
  "lon": -2.7167618,
  "tags": {
    "tourism": "museum",
    "wikidata": "Q3406059",
    "wikipedia": "en:Monmouth Regimental Museum"
  }
},
{
  "type": "node",
  "id": 1854074533,
  "lat": 52.0499591,
  "lon": -2.7351001,
  "tags": {
    "name": "Waterworks Museum",
    "tourism": "museum"
  }
},
{
  "type": "node",
  "id": 2429925425,
  "lat": 51.8194553,
  "lon": -3.0174548,
  "tags": {
    "opening_hours": "Mo-Su 11:00-16:00",
    "phone": "+44 1873 854282",
    "tourism": "museum",
    "website": "http://www.abergavennymuseum.co.uk/"
  }
},
{
  "type": "node",
  "id": 2755706956,
  "lat": 51.8956449,
  "lon": -2.1747476,
  "tags": {
    "addr:city": "Gloucester",
    "addr:postcode": "GL2 9QL",
    "addr:street": "Cheltenham Road East",
    "name": "Jet Age Museum",
    "opening_hours": "Sa,Su,PH 10:00-16:00",
    "tourism": "museum",
    "website": "https://www.jetagemuseum.org/",
    "wikidata": "Q15961587"
  }
},
{
  "type": "node",
  "id": 2886449890,
  "lat": 51.7714984,
  "lon": -2.6128241,
  "tags": {
    "name": "Clearwell Caves",
    "tourism": "museum"
  }
},
{
  "type": "node",
  "id": 2886450020,
  "lat": 51.7804736,
  "lon": -2.6110134,
  "tags": {
    "name": "Puzzle Words",
    "tourism": "museum"
  }
},
{
  "type": "node",
  "id": 2888327044,
  "lat": 51.7356815,
  "lon": -2.5389939,
  "tags": {
    "name": "Dean Forest Railway",
    "tourism": "museum"
  }
},
{
  "type": "node",
  "id": 2888368392,
  "lat": 51.7027501,
  "lon": -2.6711534,
  "tags": {
    "name": "Tintern Old Station",
    "tourism": "museum"
  }
},
{
  "type": "node",
  "id": 5766025495,
  "lat": 52.0564731,
  "lon": -2.7147739,
  "tags": {
    "name": "Black & White House Museum",
    "tourism": "museum"
  }
},
{
  "type": "node",
  "id": 6432605751,
  "lat": 52.0547884,
  "lon": -2.7174719,
  "tags": {
    "name": "Hereford Museum",
    "tourism": "museum"
  }
},
{
  "type": "node",
  "id": 6762154086,
  "lat": 51.8916768,
  "lon": -3.0278789,
  "tags": {
    "name": "Twyn y gaer",
    "tourism": "museum"
  }
},
{
  "type": "way",
  "id": 89571578,
  "nodes": [
    1038284111,
    1038284098,
    1038284108,
    1038284088,
    2747785123,
    2747785125,
    1038284111
  ],
  "tags": {
    "addr:postcode": "GL1 2EH",
    "building": "yes",
    "building_name": "Llanthony Warehouse",
    "name": "Gloucester Waterways Museum",
    "tourism": "museum"
  }
},
{
  "type": "way",
  "id": 106253639,
  "nodes": [
    367040649,
    1223062912,
    1223063374,
    1223063284,
    1223063104,
    1223062996,
    1223063395,
    1223063352,
    1223063182,
    1223063048,
    1223062862,
    1223063394,
    367040649
  ],
  "tags": {
    "addr:housename": "The Chantry",
    "addr:postcode": "GL13 9BN",
    "addr:street": "Church Lane",
    "building": "yes",
    "name": "Jenner Museum",
    "tourism": "museum",
    "wikidata": "Q5343755"
  }
},
{
  "type": "way",
  "id": 117042375,
  "nodes": [
    1318536002,
    1318536186,
    1318535901,
    1318536122,
    1318535810,
    1318535824,
    1318536063,
    1318536265,
    1318535962,
    1318535991,
    1318536207,
    1832660929,
    1318536139,
    1318536169,
    1318536002
  ],
  "tags": {
    "building": "yes",
    "name": "Monmouth Museum",
    "source": "Bing;survey",
    "tourism": "museum",
    "wikipedia": "en:Monmouth Museum"
  }
},
{
  "type": "way",
  "id": 119429330,
  "nodes": [
    1342044538,
    1342044537,
    1342044529,
    1342044530,
    1342044525,
    1342044526,
    1342044527,
    1342044528,
    1342044532,
    1342044531,
    1342044533,
    1342044534,
    1342044536,
    1342044535,
    1342044538
  ],
  "tags": {
    "building": "yes",
    "name": "Thornbury and District Museum",
    "source": "survey",
    "source:outline": "Bing",
    "tourism": "museum"
  }
},
{
  "type": "way",
  "id": 165991865,
  "nodes": [
    1774881817,
    1774881553,
    1774881824,
    1774881625,
    3929838559,
    1774881756,
    1774881728,
    1774881682,
    1774881752,
    1774881701,
    1774881556,
    1774881815,
    3959965103,
    3959965102,
    3959965101,
    1774881641,
    1774881672,
    1774881803,
    1774881588,
    1774881817
  ],
  "tags": {
    "addr:city": "Cheltenham",
    "addr:postcode": "GL50 3JT",
    "addr:street": "Clarence Street",
    "alt_name": "The Wilson Cheltenham Art Gallery & Museum",
    "building": "public",
    "name": "The Wilson",
    "old_name": "Cheltenham Art Gallery & Museum",
    "opening_hours": "Mo-Sa 09:30-17:15; Th 09:30-19:45; Su 11:00-16:00",
    "tourism": "museum",
    "website": "https://www.cheltenhammuseum.org.uk/"
  }
},
{
  "type": "way",
  "id": 167177377,
  "nodes": [
    1785850550,
    1785850547,
    1832661022,
    1785850552,
    1785850553,
    1785850540,
    1785850551,
    1785850549,
    1785850544,
    1785850542,
    1785850541,
    1785850543,
    1785850548,
    1785850545,
    1785850546,
    1814268185,
    1814268196,
    1785850550
  ],
  "tags": {
    "name": "Castle House",
    "tourism": "museum",
    "wikidata": "Q1028045"
  }
},
{
  "type": "way",
  "id": 167785261,
  "nodes": [
    1791440737,
    1791440718,
    1791440754,
    1791440732,
    1791440750,
    1791440649,
    1791440640,
    1791440737
  ],
  "tags": {
    "addr:housenumber": "4",
    "addr:street": "Clarence Road",
    "building": "museum",
    "name": "Holst Birthplace Museum",
    "tourism": "museum",
    "website": "http://www.holstmuseum.org.uk"
  }
},
{
  "type": "way",
  "id": 168417703,
  "nodes": [
    1796884816,
    1796884779,
    1796884768,
    1796884804,
    1796884767,
    1796884806,
    1796884811,
    1796884800,
    1796884773,
    6612071265,
    1796884820,
    1796884790,
    1796884825,
    1796884763,
    6612071261,
    1796884777,
    1796884766,
    1796884781,
    1796884776,
    1796884799,
    1796884782,
    1796884816
  ],
  "tags": {
    "addr:postcode": "GL5 4AF",
    "building": "yes",
    "name": "The Museum in the Park",
    "tourism": "museum",
    "website": "https://museuminthepark.org.uk/",
    "wikidata": "Q26557846"
  }
},
{
  "type": "way",
  "id": 187830018,
  "nodes": [
    1984732759,
    1984732760,
    1984732758,
    1984732757,
    1984732759
  ],
  "tags": {
    "addr:city": "Bromyard",
    "addr:housenumber": "5",
    "addr:street": "Sherford Street",
    "building": "civic",
    "name": "Local and Family History Centre",
    "tourism": "museum",
    "website": "http://bromyardhistorysociety.org.uk"
  }
},
{
  "type": "way",
  "id": 230681141,
  "nodes": [
    2391492149,
    1601789302,
    1601789318,
    2391492174,
    2391492176,
    1601789319,
    1601789373,
    2391492168,
    2391492170,
    2391492172,
    2391492149
  ],
  "tags": {
    "area": "yes",
    "description": "narrow gauge railway",
    "name": "Broomy Hill railway and Hereford society of model engineers",
    "railway": "platform",
    "tourism": "museum"
  }
},
{
  "type": "way",
  "id": 269596620,
  "nodes": [
    2747755719,
    2747755721,
    2747755722,
    2747755724,
    2747755720,
    2747755715,
    2747755717,
    2747755714,
    2747755719
  ],
  "tags": {
    "building": "yes",
    "fee": "yes",
    "name": "Soldiers of Gloucestershire",
    "tourism": "museum"
  }
},
{
  "type": "way",
  "id": 275356458,
  "nodes": [
    2799984816,
    2799984817,
    2799984818,
    2799984819,
    2799984820,
    4091069448,
    2799984821,
    2799984822,
    2799984823,
    2799984816
  ],
  "tags": {
    "addr:city": "Wotton-under-Edge",
    "addr:postcode": "GL12 7AD",
    "addr:street": "The Chipping",
    "building": "yes",
    "fhrs:id": "216131",
    "name": "Wotton-under-Edge Heritage Centre",
    "tourism": "museum",
    "website": "https://www.wottonheritage.com/"
  }
},
{
  "type": "way",
  "id": 291777054,
  "nodes": [
    2952754217,
    2952754218,
    2952754219,
    2952754220,
    2952754217
  ],
  "tags": {
    "addr:city": "Ledbury",
    "addr:postcode": "HR8 1DN",
    "addr:street": "Church Lane",
    "building": "yes",
    "name": "Ledbury Heritage Centre",
    "tourism": "museum"
  }
},
{
  "type": "way",
  "id": 299920722,
  "nodes": [
    3040065167,
    3040065168,
    3040065169,
    3040065170,
    3040065167
  ],
  "tags": {
    "addr:city": "Ledbury",
    "addr:housename": "Butcher Row House",
    "addr:postcode": "HR8 1DW",
    "addr:street": "Church Lane",
    "building": "yes",
    "name": "Butcher Row House Museum",
    "operator": "Ledbury & District Civic Society",
    "tourism": "museum",
    "website": "http://www.ledburycivicsociety.org/butcherrowhouse.html"
  }
},
{
  "type": "way",
  "id": 317444737,
  "nodes": [
    2836129574,
    3237083851,
    3237083852,
    3237083848,
    3237083850,
    3237083853,
    2836129574
  ],
  "tags": {
    "building": "yes",
    "tourism": "museum"
  }
},
{
  "type": "way",
  "id": 442096980,
  "nodes": [
    4397870157,
    4397870150,
    4397870139,
    4397870151,
    4397870157
  ],
  "tags": {
    "building": "yes",
    "heritage": "2",
    "heritage:operator": "Historic England",
    "listed_status": "Grade I",
    "name": "Old House",
    "tourism": "museum",
    "wikidata": "Q7754853"
  }
},
{
  "type": "way",
  "id": 442185667,
  "nodes": [
    4398784842,
    4398784839,
    4398784838,
    4398784837,
    4913725974,
    4398784833,
    4398784834,
    4398784831,
    1129837558,
    4398784832,
    4398784835,
    4398784840,
    4398784841,
    4398784842
  ],
  "tags": {
    "building": "yes",
    "name": "Hereford Cider Museum",
    "source": "bing",
    "tourism": "museum"
  }
},
{
  "type": "way",
  "id": 608662223,
  "nodes": [
    4397878959,
    4397878962,
    4397878969,
    4397878970,
    4397878966,
    4397878967,
    4397878974,
    4397878975,
    4397878960,
    5766059246,
    5766059242,
    5766059243,
    4397878959
  ],
  "tags": {
    "building": "yes",
    "name": "Mappa Mundi and Chained Library",
    "source": "bing",
    "tourism": "museum"
  }
},
{
  "type": "way",
  "id": 659938006,
  "nodes": [
    6178747807,
    6178747808,
    6178747806,
    6178747809,
    6178747810,
    6178747805,
    6178747807
  ],
  "tags": {
    "addr:city": "Malvern",
    "addr:street": "Abbey Road",
    "building": "yes",
    "heritage": "2",
    "heritage:operator": "Historic England",
    "listed_status": "Grade II*",
    "name": "Malvern Museum",
    "tourism": "museum",
    "wikidata": "Q6745082",
    "wikipedia": "en:Malvern Museum"
  }
},
{
  "type": "way",
  "id": 696525612,
  "nodes": [
    6541050873,
    6541050852,
    6541050843,
    6541050853,
    6541050871,
    6541050866,
    6541050873
  ],
  "tags": {
    "addr:housenumber": "64",
    "addr:postcode": "GL20 5PX",
    "addr:street": "Barton Street",
    "building": "yes",
    "name": "Tewkesbury Museum",
    "source": "Bing",
    "tourism": "museum",
    "website": "https://www.tewkesburymuseum.org/",
    "wikidata": "Q7707197"
  }
},
{
  "type": "relation",
  "id": 6585800,
  "members": [
    {
      "type": "way",
      "ref": 442438481,
      "role": "outer"
    },
    {
      "type": "way",
      "ref": 442438479,
      "role": "inner"
    }
  ],
  "tags": {
    "building": "yes",
    "heritage": "2",
    "heritage:operator": "Historic England",
    "listed_status": "Grade II*",
    "name": "Conningsby-St Johns",
    "tourism": "museum",
    "type": "multipolygon"
  }
},
{
  "type": "node",
  "id": 1342044525,
  "lat": 51.6061486,
  "lon": -2.5253537
},
{
  "type": "node",
  "id": 1342044526,
  "lat": 51.6061489,
  "lon": -2.5254024
},
{
  "type": "node",
  "id": 1342044527,
  "lat": 51.6061596,
  "lon": -2.5254023
},
{
  "type": "node",
  "id": 1342044528,
  "lat": 51.6061598,
  "lon": -2.5254399
},
{
  "type": "node",
  "id": 1342044529,
  "lat": 51.6061709,
  "lon": -2.5253316
},
{
  "type": "node",
  "id": 1342044530,
  "lat": 51.6061710,
  "lon": -2.5253534
},
{
  "type": "node",
  "id": 1342044531,
  "lat": 51.6061944,
  "lon": -2.5254016
},
{
  "type": "node",
  "id": 1342044532,
  "lat": 51.6061946,
  "lon": -2.5254395
},
{
  "type": "node",
  "id": 1342044533,
  "lat": 51.6062472,
  "lon": -2.5254009
},
{
  "type": "node",
  "id": 1342044534,
  "lat": 51.6062474,
  "lon": -2.5254379
},
{
  "type": "node",
  "id": 1342044535,
  "lat": 51.6063014,
  "lon": -2.5254054
},
{
  "type": "node",
  "id": 1342044536,
  "lat": 51.6063016,
  "lon": -2.5254371
},
{
  "type": "node",
  "id": 1342044537,
  "lat": 51.6063344,
  "lon": -2.5253293
},
{
  "type": "node",
  "id": 1342044538,
  "lat": 51.6063348,
  "lon": -2.5254049
},
{
  "type": "node",
  "id": 1318535810,
  "lat": 51.8130738,
  "lon": -2.7153762
},
{
  "type": "node",
  "id": 1318535824,
  "lat": 51.8131397,
  "lon": -2.7153188
},
{
  "type": "node",
  "id": 1318535901,
  "lat": 51.8129189,
  "lon": -2.7154718
},
{
  "type": "node",
  "id": 1318535962,
  "lat": 51.8132046,
  "lon": -2.7155297
},
{
  "type": "node",
  "id": 1318535991,
  "lat": 51.8131780,
  "lon": -2.7156712
},
{
  "type": "node",
  "id": 1318536002,
  "lat": 51.8128726,
  "lon": -2.7156646
},
{
  "type": "node",
  "id": 1318536063,
  "lat": 51.8132089,
  "lon": -2.7152411
},
{
  "type": "node",
  "id": 1318536122,
  "lat": 51.8129765,
  "lon": -2.7154397
},
{
  "type": "node",
  "id": 1318536139,
  "lat": 51.8130343,
  "lon": -2.7157557
},
{
  "type": "node",
  "id": 1318536169,
  "lat": 51.8128837,
  "lon": -2.7156611
},
{
  "type": "node",
  "id": 1318536186,
  "lat": 51.8128284,
  "lon": -2.7154762
},
{
  "type": "node",
  "id": 1318536207,
  "lat": 51.8131650,
  "lon": -2.7158061
},
{
  "type": "node",
  "id": 1318536265,
  "lat": 51.8132499,
  "lon": -2.7153283
},
{
  "type": "node",
  "id": 1785850540,
  "lat": 51.8126213,
  "lon": -2.7165012
},
{
  "type": "node",
  "id": 1785850541,
  "lat": 51.8127749,
  "lon": -2.7160340
},
{
  "type": "node",
  "id": 1785850542,
  "lat": 51.8126344,
  "lon": -2.7160270
},
{
  "type": "node",
  "id": 1785850543,
  "lat": 51.8127729,
  "lon": -2.7162994
},
{
  "type": "node",
  "id": 1785850544,
  "lat": 51.8126293,
  "lon": -2.7163987
},
{
  "type": "node",
  "id": 1785850545,
  "lat": 51.8127769,
  "lon": -2.7165114
},
{
  "type": "node",
  "id": 1785850546,
  "lat": 51.8127321,
  "lon": -2.7165168
},
{
  "type": "node",
  "id": 1785850547,
  "lat": 51.8126343,
  "lon": -2.7169540
},
{
  "type": "node",
  "id": 1785850548,
  "lat": 51.8127736,
  "lon": -2.7163719
},
{
  "type": "node",
  "id": 1785850549,
  "lat": 51.8126459,
  "lon": -2.7164041
},
{
  "type": "node",
  "id": 1785850550,
  "lat": 51.8127321,
  "lon": -2.7169513
},
{
  "type": "node",
  "id": 1785850551,
  "lat": 51.8126475,
  "lon": -2.7165007
},
{
  "type": "node",
  "id": 1785850552,
  "lat": 51.8126376,
  "lon": -2.7165999
},
{
  "type": "node",
  "id": 1785850553,
  "lat": 51.8126213,
  "lon": -2.7166004
},
{
  "type": "node",
  "id": 1814268185,
  "lat": 51.8127355,
  "lon": -2.7166964
},
{
  "type": "node",
  "id": 1814268196,
  "lat": 51.8127353,
  "lon": -2.7167998
},
{
  "type": "node",
  "id": 1832660929,
  "lat": 51.8131296,
  "lon": -2.7158067
},
{
  "type": "node",
  "id": 1832661022,
  "lat": 51.8126345,
  "lon": -2.7169274
},
{
  "type": "node",
  "id": 1601789302,
  "lat": 52.0491159,
  "lon": -2.7350504
},
{
  "type": "node",
  "id": 1601789318,
  "lat": 52.0491111,
  "lon": -2.7350727
},
{
  "type": "node",
  "id": 1601789319,
  "lat": 52.0492510,
  "lon": -2.7351572
},
{
  "type": "node",
  "id": 1601789373,
  "lat": 52.0492563,
  "lon": -2.7351327
},
{
  "type": "node",
  "id": 2391492149,
  "lat": 52.0491857,
  "lon": -2.7350899
},
{
  "type": "node",
  "id": 2391492168,
  "lat": 52.0492359,
  "lon": -2.7351211
},
{
  "type": "node",
  "id": 2391492170,
  "lat": 52.0492444,
  "lon": -2.7350814
},
{
  "type": "node",
  "id": 2391492172,
  "lat": 52.0491937,
  "lon": -2.7350527
},
{
  "type": "node",
  "id": 2391492174,
  "lat": 52.0491008,
  "lon": -2.7351212
},
{
  "type": "node",
  "id": 2391492176,
  "lat": 52.0492417,
  "lon": -2.7352009
},
{
  "type": "node",
  "id": 1129837558,
  "lat": 52.0558511,
  "lon": -2.7264193
},
{
  "type": "node",
  "id": 4398784831,
  "lat": 52.0558354,
  "lon": -2.7263255
},
{
  "type": "node",
  "id": 4398784832,
  "lat": 52.0559178,
  "lon": -2.7263863
},
{
  "type": "node",
  "id": 4398784835,
  "lat": 52.0559755,
  "lon": -2.7267015
},
{
  "type": "node",
  "id": 4398784840,
  "lat": 52.0561388,
  "lon": -2.7266344
},
{
  "type": "node",
  "id": 4398784841,
  "lat": 52.0563417,
  "lon": -2.7271440
},
{
  "type": "node",
  "id": 4398784842,
  "lat": 52.0564142,
  "lon": -2.7270233
},
{
  "type": "node",
  "id": 4398784833,
  "lat": 52.0559274,
  "lon": -2.7261947
},
{
  "type": "node",
  "id": 4398784834,
  "lat": 52.0559458,
  "lon": -2.7262830
},
{
  "type": "node",
  "id": 4398784837,
  "lat": 52.0560431,
  "lon": -2.7261328
},
{
  "type": "node",
  "id": 4398784838,
  "lat": 52.0560580,
  "lon": -2.7262294
},
{
  "type": "node",
  "id": 4398784839,
  "lat": 52.0561306,
  "lon": -2.7261838
},
{
  "type": "node",
  "id": 4913725974,
  "lat": 52.0559815,
  "lon": -2.7261657
},
{
  "type": "node",
  "id": 4397870139,
  "lat": 52.0564318,
  "lon": -2.7147758
},
{
  "type": "node",
  "id": 4397870150,
  "lat": 52.0564907,
  "lon": -2.7147074
},
{
  "type": "node",
  "id": 4397870151,
  "lat": 52.0565089,
  "lon": -2.7149515
},
{
  "type": "node",
  "id": 4397870157,
  "lat": 52.0565678,
  "lon": -2.7148831
},
{
  "type": "node",
  "id": 4397878959,
  "lat": 52.0539431,
  "lon": -2.7162405
},
{
  "type": "node",
  "id": 4397878960,
  "lat": 52.0539098,
  "lon": -2.7170385
},
{
  "type": "node",
  "id": 4397878962,
  "lat": 52.0539556,
  "lon": -2.7167363
},
{
  "type": "node",
  "id": 4397878966,
  "lat": 52.0540014,
  "lon": -2.7168255
},
{
  "type": "node",
  "id": 4397878967,
  "lat": 52.0540037,
  "lon": -2.7169162
},
{
  "type": "node",
  "id": 4397878969,
  "lat": 52.0540276,
  "lon": -2.7167315
},
{
  "type": "node",
  "id": 4397878970,
  "lat": 52.0540299,
  "lon": -2.7168236
},
{
  "type": "node",
  "id": 4397878974,
  "lat": 52.0540692,
  "lon": -2.7169118
},
{
  "type": "node",
  "id": 4397878975,
  "lat": 52.0540721,
  "lon": -2.7170277
},
{
  "type": "node",
  "id": 5766059242,
  "lat": 52.0538772,
  "lon": -2.7167411
},
{
  "type": "node",
  "id": 5766059243,
  "lat": 52.0538669,
  "lon": -2.7162442
},
{
  "type": "node",
  "id": 5766059246,
  "lat": 52.0539023,
  "lon": -2.7167394
},
{
  "type": "node",
  "id": 4401229744,
  "lat": 52.0600881,
  "lon": -2.7144136
},
{
  "type": "node",
  "id": 4401229745,
  "lat": 52.0601107,
  "lon": -2.7145416
},
{
  "type": "node",
  "id": 4401229746,
  "lat": 52.0601271,
  "lon": -2.7141266
},
{
  "type": "node",
  "id": 4401229747,
  "lat": 52.0601710,
  "lon": -2.7143748
},
{
  "type": "node",
  "id": 4401229750,
  "lat": 52.0601915,
  "lon": -2.7142158
},
{
  "type": "node",
  "id": 4401229755,
  "lat": 52.0602219,
  "lon": -2.7143830
},
{
  "type": "node",
  "id": 4401229757,
  "lat": 52.0602853,
  "lon": -2.7141707
},
{
  "type": "node",
  "id": 4401229758,
  "lat": 52.0603157,
  "lon": -2.7143379
},
{
  "type": "node",
  "id": 4401229760,
  "lat": 52.0603446,
  "lon": -2.7140248
},
{
  "type": "node",
  "id": 4401229762,
  "lat": 52.0604112,
  "lon": -2.7144010
},
{
  "type": "node",
  "id": 367040649,
  "lat": 51.6903090,
  "lon": -2.4575443
},
{
  "type": "node",
  "id": 1223062862,
  "lat": 51.6901679,
  "lon": -2.4573722
},
{
  "type": "node",
  "id": 1223062912,
  "lat": 51.6902978,
  "lon": -2.4573882
},
{
  "type": "node",
  "id": 1223062996,
  "lat": 51.6902519,
  "lon": -2.4570691
},
{
  "type": "node",
  "id": 1223063048,
  "lat": 51.6902390,
  "lon": -2.4573589
},
{
  "type": "node",
  "id": 1223063104,
  "lat": 51.6902658,
  "lon": -2.4572618
},
{
  "type": "node",
  "id": 1223063182,
  "lat": 51.6902328,
  "lon": -2.4572731
},
{
  "type": "node",
  "id": 1223063284,
  "lat": 51.6903392,
  "lon": -2.4572480
},
{
  "type": "node",
  "id": 1223063352,
  "lat": 51.6902144,
  "lon": -2.4572766
},
{
  "type": "node",
  "id": 1223063374,
  "lat": 51.6903486,
  "lon": -2.4573787
},
{
  "type": "node",
  "id": 1223063394,
  "lat": 51.6901820,
  "lon": -2.4575680
},
{
  "type": "node",
  "id": 1223063395,
  "lat": 51.6902002,
  "lon": -2.4570788
},
{
  "type": "node",
  "id": 2799984816,
  "lat": 51.6368142,
  "lon": -2.3539722
},
{
  "type": "node",
  "id": 2799984817,
  "lat": 51.6367687,
  "lon": -2.3537938
},
{
  "type": "node",
  "id": 2799984818,
  "lat": 51.6366721,
  "lon": -2.3538595
},
{
  "type": "node",
  "id": 2799984819,
  "lat": 51.6366891,
  "lon": -2.3539242
},
{
  "type": "node",
  "id": 2799984820,
  "lat": 51.6367198,
  "lon": -2.3539032
},
{
  "type": "node",
  "id": 2799984821,
  "lat": 51.6367426,
  "lon": -2.3539900
},
{
  "type": "node",
  "id": 2799984822,
  "lat": 51.6367634,
  "lon": -2.3539758
},
{
  "type": "node",
  "id": 2799984823,
  "lat": 51.6367694,
  "lon": -2.3539986
},
{
  "type": "node",
  "id": 4091069448,
  "lat": 51.6367317,
  "lon": -2.3539485
},
{
  "type": "node",
  "id": 1796884763,
  "lat": 51.7498274,
  "lon": -2.2239764
},
{
  "type": "node",
  "id": 1796884766,
  "lat": 51.7494954,
  "lon": -2.2241147
},
{
  "type": "node",
  "id": 1796884767,
  "lat": 51.7495893,
  "lon": -2.2235806
},
{
  "type": "node",
  "id": 1796884768,
  "lat": 51.7495717,
  "lon": -2.2236233
},
{
  "type": "node",
  "id": 1796884773,
  "lat": 51.7498066,
  "lon": -2.2236240
},
{
  "type": "node",
  "id": 1796884776,
  "lat": 51.7496004,
  "lon": -2.2240534
},
{
  "type": "node",
  "id": 1796884777,
  "lat": 51.7495670,
  "lon": -2.2242738
},
{
  "type": "node",
  "id": 1796884779,
  "lat": 51.7495897,
  "lon": -2.2236252
},
{
  "type": "node",
  "id": 1796884781,
  "lat": 51.7495863,
  "lon": -2.2240182
},
{
  "type": "node",
  "id": 1796884782,
  "lat": 51.7497168,
  "lon": -2.2237223
},
{
  "type": "node",
  "id": 1796884790,
  "lat": 51.7498049,
  "lon": -2.2238025
},
{
  "type": "node",
  "id": 1796884799,
  "lat": 51.7497300,
  "lon": -2.2239057
},
{
  "type": "node",
  "id": 1796884800,
  "lat": 51.7497712,
  "lon": -2.2236203
},
{
  "type": "node",
  "id": 1796884804,
  "lat": 51.7495735,
  "lon": -2.2235790
},
{
  "type": "node",
  "id": 1796884806,
  "lat": 51.7495926,
  "lon": -2.2234975
},
{
  "type": "node",
  "id": 1796884811,
  "lat": 51.7497754,
  "lon": -2.2235164
},
{
  "type": "node",
  "id": 1796884816,
  "lat": 51.7495865,
  "lon": -2.2237081
},
{
  "type": "node",
  "id": 1796884820,
  "lat": 51.7498024,
  "lon": -2.2237304
},
{
  "type": "node",
  "id": 1796884825,
  "lat": 51.7498176,
  "lon": -2.2238013
},
{
  "type": "node",
  "id": 6612071261,
  "lat": 51.7495992,
  "lon": -2.2242370
},
{
  "type": "node",
  "id": 6612071265,
  "lat": 51.7498030,
  "lon": -2.2237143
},
{
  "type": "node",
  "id": 2836129574,
  "lat": 51.9952816,
  "lon": -2.5130214
},
{
  "type": "node",
  "id": 3237083848,
  "lat": 51.9951635,
  "lon": -2.5133679
},
{
  "type": "node",
  "id": 3237083850,
  "lat": 51.9951957,
  "lon": -2.5134155
},
{
  "type": "node",
  "id": 3237083851,
  "lat": 51.9952507,
  "lon": -2.5130666
},
{
  "type": "node",
  "id": 3237083852,
  "lat": 51.9952817,
  "lon": -2.5131290
},
{
  "type": "node",
  "id": 3237083853,
  "lat": 51.9953414,
  "lon": -2.5131282
},
{
  "type": "node",
  "id": 1038284088,
  "lat": 51.8618053,
  "lon": -2.2522021
},
{
  "type": "node",
  "id": 1038284098,
  "lat": 51.8618371,
  "lon": -2.2530505
},
{
  "type": "node",
  "id": 1038284111,
  "lat": 51.8616908,
  "lon": -2.2525648
},
{
  "type": "node",
  "id": 2747785123,
  "lat": 51.8617597,
  "lon": -2.2522381
},
{
  "type": "node",
  "id": 2747785125,
  "lat": 51.8618260,
  "lon": -2.2524580
},
{
  "type": "node",
  "id": 1038284108,
  "lat": 51.8620179,
  "lon": -2.2529077
},
{
  "type": "node",
  "id": 2747755714,
  "lat": 51.8637363,
  "lon": -2.2500533
},
{
  "type": "node",
  "id": 2747755715,
  "lat": 51.8637513,
  "lon": -2.2499753
},
{
  "type": "node",
  "id": 2747755717,
  "lat": 51.8637689,
  "lon": -2.2500106
},
{
  "type": "node",
  "id": 2747755719,
  "lat": 51.8638320,
  "lon": -2.2502450
},
{
  "type": "node",
  "id": 2747755720,
  "lat": 51.8638450,
  "lon": -2.2498526
},
{
  "type": "node",
  "id": 2747755721,
  "lat": 51.8638645,
  "lon": -2.2502024
},
{
  "type": "node",
  "id": 2747755722,
  "lat": 51.8638909,
  "lon": -2.2502551
},
{
  "type": "node",
  "id": 2747755724,
  "lat": 51.8639847,
  "lon": -2.2501323
},
{
  "type": "node",
  "id": 6541050843,
  "lat": 51.9925759,
  "lon": -2.1551878
},
{
  "type": "node",
  "id": 6541050852,
  "lat": 51.9927040,
  "lon": -2.1552218
},
{
  "type": "node",
  "id": 6541050853,
  "lat": 51.9925681,
  "lon": -2.1552650
},
{
  "type": "node",
  "id": 6541050866,
  "lat": 51.9925995,
  "lon": -2.1553508
},
{
  "type": "node",
  "id": 6541050871,
  "lat": 51.9926071,
  "lon": -2.1552753
},
{
  "type": "node",
  "id": 6541050873,
  "lat": 51.9926887,
  "lon": -2.1553745
},
{
  "type": "node",
  "id": 1774881553,
  "lat": 51.9011214,
  "lon": -2.0778109
},
{
  "type": "node",
  "id": 1774881588,
  "lat": 51.9011463,
  "lon": -2.0776246
},
{
  "type": "node",
  "id": 1774881625,
  "lat": 51.9011397,
  "lon": -2.0778784
},
{
  "type": "node",
  "id": 1774881682,
  "lat": 51.9012430,
  "lon": -2.0780414
},
{
  "type": "node",
  "id": 1774881728,
  "lat": 51.9011875,
  "lon": -2.0779328
},
{
  "type": "node",
  "id": 1774881756,
  "lat": 51.9011776,
  "lon": -2.0779476
},
{
  "type": "node",
  "id": 1774881803,
  "lat": 51.9012117,
  "lon": -2.0775397
},
{
  "type": "node",
  "id": 1774881817,
  "lat": 51.9011912,
  "lon": -2.0777155
},
{
  "type": "node",
  "id": 1774881824,
  "lat": 51.9011114,
  "lon": -2.0778215
},
{
  "type": "node",
  "id": 3929838559,
  "lat": 51.9011625,
  "lon": -2.0779200
},
{
  "type": "node",
  "id": 1774881556,
  "lat": 51.9014186,
  "lon": -2.0778241
},
{
  "type": "node",
  "id": 1774881641,
  "lat": 51.9012942,
  "lon": -2.0775751
},
{
  "type": "node",
  "id": 1774881701,
  "lat": 51.9012993,
  "lon": -2.0779918
},
{
  "type": "node",
  "id": 1774881752,
  "lat": 51.9012870,
  "lon": -2.0779716
},
{
  "type": "node",
  "id": 1774881815,
  "lat": 51.9013433,
  "lon": -2.0776748
},
{
  "type": "node",
  "id": 3959965101,
  "lat": 51.9012988,
  "lon": -2.0775707
},
{
  "type": "node",
  "id": 3959965102,
  "lat": 51.9013229,
  "lon": -2.0776202
},
{
  "type": "node",
  "id": 3959965103,
  "lat": 51.9013451,
  "lon": -2.0776660
},
{
  "type": "node",
  "id": 1774881672,
  "lat": 51.9012652,
  "lon": -2.0774755
},
{
  "type": "node",
  "id": 1791440640,
  "lat": 51.9039727,
  "lon": -2.0706502
},
{
  "type": "node",
  "id": 1791440649,
  "lat": 51.9040016,
  "lon": -2.0706327
},
{
  "type": "node",
  "id": 1791440718,
  "lat": 51.9039905,
  "lon": -2.0705815
},
{
  "type": "node",
  "id": 1791440732,
  "lat": 51.9040887,
  "lon": -2.0706209
},
{
  "type": "node",
  "id": 1791440737,
  "lat": 51.9039610,
  "lon": -2.0705994
},
{
  "type": "node",
  "id": 1791440750,
  "lat": 51.9040100,
  "lon": -2.0706687
},
{
  "type": "node",
  "id": 1791440754,
  "lat": 51.9040686,
  "lon": -2.0705340
},
{
  "type": "node",
  "id": 2952754217,
  "lat": 52.0372392,
  "lon": -2.4215364
},
{
  "type": "node",
  "id": 2952754218,
  "lat": 52.0371897,
  "lon": -2.4215368
},
{
  "type": "node",
  "id": 2952754219,
  "lat": 52.0371917,
  "lon": -2.4217853
},
{
  "type": "node",
  "id": 2952754220,
  "lat": 52.0372421,
  "lon": -2.4217827
},
{
  "type": "node",
  "id": 3040065167,
  "lat": 52.0371100,
  "lon": -2.4219306
},
{
  "type": "node",
  "id": 3040065168,
  "lat": 52.0370512,
  "lon": -2.4219287
},
{
  "type": "node",
  "id": 3040065169,
  "lat": 52.0370521,
  "lon": -2.4218541
},
{
  "type": "node",
  "id": 3040065170,
  "lat": 52.0371109,
  "lon": -2.4218561
},
{
  "type": "node",
  "id": 6178747805,
  "lat": 52.1105413,
  "lon": -2.3295224
},
{
  "type": "node",
  "id": 6178747806,
  "lat": 52.1104739,
  "lon": -2.3294979
},
{
  "type": "node",
  "id": 6178747807,
  "lat": 52.1105365,
  "lon": -2.3296380
},
{
  "type": "node",
  "id": 6178747808,
  "lat": 52.1104684,
  "lon": -2.3296305
},
{
  "type": "node",
  "id": 6178747809,
  "lat": 52.1104801,
  "lon": -2.3293625
},
{
  "type": "node",
  "id": 6178747810,
  "lat": 52.1105482,
  "lon": -2.3293708
},
{
  "type": "node",
  "id": 1984732757,
  "lat": 52.1890225,
  "lon": -2.5043434
},
{
  "type": "node",
  "id": 1984732758,
  "lat": 52.1890575,
  "lon": -2.5040935
},
{
  "type": "node",
  "id": 1984732759,
  "lat": 52.1890823,
  "lon": -2.5043657
},
{
  "type": "node",
  "id": 1984732760,
  "lat": 52.1891174,
  "lon": -2.5041159
},
{
  "type": "way",
  "id": 442438479,
  "nodes": [
    4401229758,
    4401229757,
    4401229750,
    4401229755,
    4401229758
  ]
},
{
  "type": "way",
  "id": 442438481,
  "nodes": [
    4401229762,
    4401229760,
    4401229746,
    4401229747,
    4401229744,
    4401229745,
    4401229762
  ]
}

  ]
}
