{
  "version": 0.6,
  "generator": "Overpass API 0.7.55.1011 6c2efc30",
  "osm3s": {
    "timestamp_osm_base": "2020-02-14T14:14:02Z",
    "copyright": "The data included in this document is from www.openstreetmap.org. The data is made available under ODbL."
  },
  "elements": [

{
  "type": "node",
  "id": 301828096,
  "lat": 51.6935740,
  "lon": 3.7380559,
  "tags": {
    "description": "Korenmolen, Zaagmolen",
    "description:museum": "self-guided access to 3 levels of technical inguts of the windmill",
    "dhm_id": "1130",
    "fee:museum": "2.50EUR",
    "heritage": "2",
    "heritage:operator": "rce",
    "historic": "windmill",
    "image": "https://commons.wikimedia.org/wiki/File%3AHaamstede_Mole.jpg",
    "loc_name": "Pannenkoekenmolen",
    "man_made": "windmill",
    "mdb_id": "867",
    "name": "De Graanhalm",
    "opening_hours": "12:00-20:00",
    "ref:rce": "38786",
    "source": "wikipedia",
    "tourism": "museum",
    "wheelchair": "no",
    "wikidata": "Q2188498",
    "wikipedia": "nl:De Graanhalm (Burgh-Haamstede)"
  }
},
{
  "type": "node",
  "id": 390088400,
  "lat": 51.2576242,
  "lon": 3.7177427,
  "tags": {
    "name": "Oorlogsmuseum",
    "tourism": "museum"
  }
},
{
  "type": "node",
  "id": 614583175,
  "lat": 51.2578717,
  "lon": 3.7182818,
  "tags": {
    "name": "Bezoekerscentrum",
    "tourism": "museum"
  }
},
{
  "type": "node",
  "id": 1224184367,
  "lat": 51.5656385,
  "lon": 3.6976577,
  "tags": {
    "name": "Zeeuws Planetarium",
    "tourism": "museum"
  }
},
{
  "type": "node",
  "id": 1461049927,
  "lat": 51.4982406,
  "lon": 3.4905980,
  "tags": {
    "name": "Bunkermuseum Bunker 1",
    "tourism": "museum"
  }
},
{
  "type": "node",
  "id": 1725037980,
  "lat": 51.5125988,
  "lon": 3.8989737,
  "tags": {
    "contact:phone": "+31 113 214102",
    "contact:website": "https://www.ambachtscentrumgoes.nl/",
    "dog": "no",
    "museum": "craft",
    "name": "Ambachtscentrum Goes",
    "opening_hours": "We,Sa 13:00-16:30, 2019 Apr 27-2019 May 05,Jul 01-Aug 31,2019 Oct 12-2019 Oct 20,2019 Dec 21-2020 Jan 05 Tu,Th 13:00-16:30; PH off",
    "payment:maestro": "no",
    "tourism": "museum",
    "wheelchair": "yes"
  }
},
{
  "type": "node",
  "id": 2414598284,
  "lat": 51.1841501,
  "lon": 3.6367118,
  "tags": {
    "name": "Bardelare museum",
    "tourism": "museum"
  }
},
{
  "type": "node",
  "id": 2743261996,
  "lat": 51.2312180,
  "lon": 3.8008093,
  "tags": {
    "addr:city": "Sas van Gent",
    "addr:housenumber": "114",
    "addr:postcode": "4551LA",
    "addr:street": "Westkade",
    "fee": "MJK_free",
    "name": "Industrieel Museum Zeeland",
    "opening_hours": "We-Su 12:30-17:00",
    "source": "BAG",
    "source:date": "2014-03-24",
    "tourism": "museum",
    "website": "https://industrieelmuseumzeeland.nl/"
  }
},
{
  "type": "node",
  "id": 2750780346,
  "lat": 51.2824137,
  "lon": 3.7617738,
  "tags": {
    "addr:city": "Philippine",
    "addr:country": "NL",
    "addr:housenumber": "1",
    "addr:postcode": "4553CJ",
    "addr:street": "Havenplein",
    "name": "Motormuseum",
    "note": "planned",
    "opening_hours": "Not opened yet",
    "source": "BAG",
    "source:date": "2014-03-24",
    "tourism": "museum"
  }
},
{
  "type": "node",
  "id": 2752023486,
  "lat": 51.2652618,
  "lon": 3.9088425,
  "tags": {
    "addr:city": "Axel",
    "addr:housenumber": "2",
    "addr:postcode": "4571BG",
    "addr:street": "Markt",
    "fee": "MJK_free",
    "name": "Streekmuseum 'Het Warenhuis'",
    "opening_hours": "We-Sa 11:00-17:00",
    "source": "BAG",
    "source:date": "2014-03-24",
    "tourism": "museum",
    "website": "https://www.hetwarenhuis.nl/"
  }
},
{
  "type": "node",
  "id": 2759391031,
  "lat": 51.3562606,
  "lon": 3.4129305,
  "tags": {
    "addr:city": "Cadzand",
    "addr:housenumber": "2",
    "addr:postcode": "4506HE",
    "addr:street": "Herenweg",
    "name": "Fuchsiatuin Zomerweelde",
    "source": "BAG",
    "source:date": "2014-03-24",
    "subject": "fuchsia",
    "tourism": "museum"
  }
},
{
  "type": "node",
  "id": 2768567938,
  "lat": 51.3959471,
  "lon": 3.5673616,
  "tags": {
    "addr:city": "Breskens",
    "addr:housenumber": "1-103",
    "addr:postcode": "4511RC",
    "addr:street": "Kaai",
    "fee": "MJK_free",
    "name": "Visserijmuseum Breskens",
    "opening_hours": "Apr-Oct Tu-Sa 11:00-17:00; Jul-Aug Mo-Su 11:00-17:00",
    "source": "BAG",
    "source:date": "2014-03-24",
    "tourism": "museum",
    "website": "https://museumbreskens.nl/"
  }
},
{
  "type": "node",
  "id": 2769430188,
  "lat": 51.3224863,
  "lon": 3.6158119,
  "tags": {
    "addr:city": "IJzendijke",
    "addr:country": "NL",
    "addr:housenumber": "28",
    "addr:postcode": "4515BB",
    "addr:street": "Markt",
    "email": "museuminfo@zeelandnet.nl",
    "fee": "MJK_free",
    "name": "Museum Het Bolwerk,infocentrum voor de Staats-Spaanse linies",
    "opening_hours": "Apr-Oct Tu-Su 13:00-17:00",
    "phone": "+31-117-301200",
    "source": "BAG",
    "source:date": "2014-03-24",
    "tourism": "museum",
    "website": "https://www.staatsspaanselinies.eu/",
    "wheelchair": "yes"
  }
},
{
  "type": "node",
  "id": 2791473504,
  "lat": 51.4220612,
  "lon": 3.9138127,
  "tags": {
    "addr:city": "Hoedekenskerke",
    "addr:housenumber": "4",
    "addr:postcode": "4433RW",
    "addr:street": "Waardweg",
    "museum": "model_train",
    "name": "De Buffer",
    "opening_hours": "Su 10:00-19:00",
    "source": "BAG",
    "source:date": "2014-03-24",
    "tourism": "museum",
    "website": "http://www.sgbdebuffer.nl/"
  }
},
{
  "type": "node",
  "id": 2802248950,
  "lat": 51.4678094,
  "lon": 3.7440106,
  "tags": {
    "addr:city": "Nieuwdorp",
    "addr:country": "NL",
    "addr:housenumber": "41",
    "addr:postcode": "4455AH",
    "addr:street": "Coudorp",
    "fee": "MJK_free",
    "name": "Bevrijdingsmuseum Zeeland",
    "source": "BAG",
    "source:date": "2014-03-24",
    "tourism": "museum",
    "website": "https://www.bevrijdingsmuseumzeeland.nl",
    "wikidata": "Q1852477",
    "wikipedia": "nl:Bevrijdingsmuseum Zeeland"
  }
},
{
  "type": "node",
  "id": 2806646553,
  "lat": 51.6503741,
  "lon": 3.9188456,
  "tags": {
    "addr:city": "Zierikzee",
    "addr:housenumber": "8",
    "addr:postcode": "4301EC",
    "addr:street": "Meelstraat",
    "fee": "MJK_free",
    "name": "Stadhuismuseum Zierikzee",
    "opening_hours": "Tu-Sa 11:00-17:00; Su 13:00-17:00; Jul-Aug Mo-Sa 11:00-17:00",
    "source": "BAG",
    "source:date": "2014-02-11",
    "tourism": "museum",
    "website": "https://www.stadhuismuseum.nl/"
  }
},
{
  "type": "node",
  "id": 2807200352,
  "lat": 51.7260191,
  "lon": 3.9149601,
  "tags": {
    "addr:city": "Brouwershaven",
    "addr:housenumber": "15",
    "addr:postcode": "4318AJ",
    "addr:street": "Haven Zuidzijde",
    "name": "Brouws Museum",
    "phone": "+31 (0)111 691342",
    "source": "BAG",
    "source:date": "2014-03-24",
    "tourism": "museum",
    "wikidata": "Q16147651",
    "wikipedia": "nl:Brouws Museum"
  }
},
{
  "type": "node",
  "id": 2807355414,
  "lat": 51.6896603,
  "lon": 3.9860922,
  "tags": {
    "addr:city": "Dreischor",
    "addr:housenumber": "3",
    "addr:postcode": "4315CE",
    "addr:street": "Molenweg",
    "fee": "MJK_free",
    "name": "Streek- en landbouwmuseum Goemanszorg",
    "opening_hours": "Tu-Su 11:00-17:00",
    "source": "BAG",
    "source:date": "2014-03-24",
    "tourism": "museum"
  }
},
{
  "type": "node",
  "id": 2809364128,
  "lat": 51.6174227,
  "lon": 3.9828218,
  "tags": {
    "addr:city": "Ouwerkerk",
    "addr:housenumber": "5",
    "addr:postcode": "4305RJ",
    "addr:street": "Weg van de Buitenlandse Pers",
    "fee": "MJK_free",
    "name": "Watersnoodmuseum",
    "opening_hours": "Apr-Oct Mo-Su 10:00-17:00; Nov-Mar Tu-Su 10:00-17:00",
    "source": "BAG",
    "source:date": "2014-02-11",
    "tourism": "museum"
  }
},
{
  "type": "node",
  "id": 2815165106,
  "lat": 51.4413744,
  "lon": 3.5754260,
  "tags": {
    "addr:city": "Vlissingen",
    "addr:housenumber": "11",
    "addr:postcode": "4381BV",
    "addr:street": "Nieuwendijk",
    "fee": "MJK_free",
    "museum": "local",
    "name": "MuZEEum",
    "opening_hours": "Tu-Su 11:00-17:00",
    "source": "BAG",
    "source:date": "2014-03-24",
    "toilets:wheelchair": "yes",
    "tourism": "museum",
    "website": "https://www.muzeeum.nl/",
    "wheelchair": "yes",
    "wikidata": "Q2181432",
    "wikipedia": "nl:Zeeuws maritiem muZEEum"
  }
},
{
  "type": "node",
  "id": 2815168721,
  "lat": 51.4397068,
  "lon": 3.5749942,
  "tags": {
    "addr:city": "Vlissingen",
    "addr:housenumber": "2k",
    "addr:postcode": "4381KA",
    "addr:street": "Boulevard de Ruyter",
    "name": "MuZEEum Kazematten",
    "source": "BAG",
    "source:date": "2016-09-13",
    "tourism": "museum"
  }
},
{
  "type": "node",
  "id": 2832014463,
  "lat": 51.5696670,
  "lon": 3.5200097,
  "tags": {
    "addr:city": "Oostkapelle",
    "addr:housenumber": "6",
    "addr:postcode": "4356ND",
    "addr:street": "Duinvlietweg",
    "description": "Museum of landscape and nature",
    "description:de": "Landschafts- und Naturkundemuseum",
    "fee": "MJK_free",
    "name": "Terra Maris",
    "opening_hours": "Mo-Su 10:00-17:00; Nov-Apr We-Fr 12:00-16:00; Sa-Su 12:00-17:00",
    "source": "BAG",
    "source:date": "2014-03-24",
    "tourism": "museum",
    "website": "https://www.terramaris.nl",
    "wikidata": "Q2643296",
    "wikipedia": "nl:Terra Maris"
  }
},
{
  "type": "node",
  "id": 2832677969,
  "lat": 51.5494070,
  "lon": 3.6680540,
  "tags": {
    "addr:city": "Veere",
    "addr:housenumber": "25",
    "addr:postcode": "4351AA",
    "addr:street": "Kaai",
    "fee": "MJK_free",
    "name": "Veere Stadhuismuseum & De Schotse Huizen",
    "opening_hours": "Apr-Oct Mo-Su 10:00-17:00; Nov-Mar Sa-Su 13:00-17:00",
    "source": "BAG",
    "source:date": "2014-03-24",
    "tourism": "museum",
    "website": "https://museumveere.nl/",
    "wikidata": "Q4288330",
    "wikipedia": "nl:Museum De Schotse Huizen"
  }
},
{
  "type": "node",
  "id": 2867507436,
  "lat": 51.4926595,
  "lon": 4.0497274,
  "tags": {
    "addr:city": "Yerseke",
    "addr:housenumber": "1",
    "addr:postcode": "4401ED",
    "addr:street": "Kerkplein",
    "contact:email": "info@oosterscheldemuseum.nl",
    "contact:website": "http://www.oosterscheldemuseum.nl/",
    "museum": "history;fishery;shellfish",
    "name": "OosterscheldeMuseum",
    "opening_hours": "May-Sep: Mo 13:00-16:00; May-Sep: Tu-Sa 10:00-16:00; PH off",
    "operator": "Stichting OosterscheldeMuseum",
    "source": "BAG",
    "source:date": "2014-05-07",
    "toilets:wheelchair": "no",
    "tourism": "museum",
    "website": "https://www.oosterscheldemuseum.nl/",
    "wheelchair": "yes",
    "wheelchair:description": "toilet niet rolstoeltoegankelijk"
  }
},
{
  "type": "node",
  "id": 2905815666,
  "lat": 51.5027081,
  "lon": 3.8899501,
  "tags": {
    "addr:city": "Goes",
    "addr:housenumber": "13",
    "addr:postcode": "4461HZ",
    "addr:street": "Singelstraat",
    "description": "Direct aan de straat gelegen, éénzijdig aangebouwd pand, omstreeks 1875 gebouwd als regentenkamer bij het weeshuis.",
    "fee": "MJK_free",
    "heritage": "2",
    "heritage:operator": "rce",
    "image": "https://upload.wikimedia.org/wikipedia/commons/7/78/Goes_Singelstraat_13.jpg",
    "name": "Historisch museum de Bevelanden",
    "opening_hours": "Mo-Fr 11:00-17:00; Sa,Su 13:00-17:00; PH off",
    "ref:rce": "507852",
    "source": "BAG",
    "source:date": "2014-06-08",
    "tourism": "museum",
    "wikidata": "Q2782510",
    "wikipedia": "nl:Historisch Museum De Bevelanden"
  }
},
{
  "type": "node",
  "id": 2922539440,
  "lat": 51.5006875,
  "lon": 3.6142699,
  "tags": {
    "addr:city": "Middelburg",
    "addr:housenumber": "1",
    "addr:postcode": "4331BK",
    "addr:street": "Abdij",
    "fee": "MJK_free",
    "name": "Zeeuws museum",
    "opening_hours": "Tu-Su 11:00-17:00",
    "source": "BAG",
    "source:date": "2014-06-18",
    "tourism": "museum",
    "wheelchair": "limited",
    "wikidata": "Q2153365"
  }
},
{
  "type": "node",
  "id": 3598967800,
  "lat": 51.3375246,
  "lon": 3.2453068,
  "tags": {
    "addr:city": "Knokke Heist",
    "addr:housenumber": "140",
    "addr:postcode": "8301",
    "addr:street": "Pannenstraat",
    "name": "Sincfala",
    "opening_hours": "Mo-Su 10:00-12:00,14:00-17:30; Dec 25-26 off; Jan 1-2 off",
    "tourism": "museum",
    "website": "www.sincfala.be/",
    "wikidata": "Q2306758"
  }
},
{
  "type": "node",
  "id": 3682659931,
  "lat": 51.3121741,
  "lon": 3.9125320,
  "tags": {
    "addr:city": "Zaamslag",
    "addr:country": "NL",
    "addr:housenumber": "3",
    "addr:postcode": "4543BH",
    "addr:street": "Plein",
    "museum": "shells",
    "name": "Schelpenmuseum Zaamslag",
    "source": "BAG",
    "source:date": "2015-08-05",
    "tourism": "museum",
    "wikidata": "Q2262691",
    "wikipedia": "nl:Schelpenmuseum Zaamslag"
  }
},
{
  "type": "node",
  "id": 3994890696,
  "lat": 51.4972806,
  "lon": 3.4928922,
  "tags": {
    "historic": "yes",
    "military": "bunker",
    "name": "Bunkermuseum Bunker 2",
    "opening_hours": "Dec-Feb closed",
    "ruins": "no",
    "tourism": "museum",
    "wikidata": "Q13446573",
    "wikipedia": "nl:Bunkermuseum Zoutelande"
  }
},
{
  "type": "node",
  "id": 4974099892,
  "lat": 51.2402313,
  "lon": 3.5250097,
  "tags": {
    "addr:city": "Sint-Laureins",
    "addr:housenumber": "24",
    "addr:postcode": "9980",
    "addr:street": "Leemweg",
    "name": "Plattelandscentrum",
    "opening_hours": "Th-Fr 13:30-16:30",
    "operator": "Plattelandscentrum Meetjesland vzw",
    "tourism": "museum"
  }
},
{
  "type": "node",
  "id": 5619089057,
  "lat": 51.4812711,
  "lon": 3.9492795,
  "tags": {
    "addr:city": "Kapelle",
    "addr:housenumber": "1",
    "addr:postcode": "4421TA",
    "addr:street": "Annie MG Schmidtsingel",
    "fee": "MJK_free",
    "name": "Fruitteeltmuseum",
    "source": "BAG",
    "source:date": "2018-05-08",
    "tourism": "museum",
    "website": "http://fruitteeltmuseum.nl/",
    "wikidata": "Q1919228",
    "wikipedia": "nl:Fruitteeltmuseum"
  }
},
{
  "type": "node",
  "id": 5764487753,
  "lat": 51.3109489,
  "lon": 3.3856970,
  "tags": {
    "addr:housenumber": "35",
    "addr:postcode": "4524 AA",
    "addr:street": "Hoogstraat",
    "email": "info@bizarium.com",
    "name": "Bizarium",
    "phone": "+31117852808",
    "tourism": "museum",
    "website": "http://www.bizarium.com"
  }
},
{
  "type": "node",
  "id": 6795552306,
  "lat": 51.6495572,
  "lon": 3.9181200,
  "tags": {
    "name": "Bakkerijmuseum Om den Broode",
    "note": "Open op Open Monumentendag en op afspraak voor groepen",
    "operator": "Zeelandia",
    "tourism": "museum"
  }
},
{
  "type": "way",
  "id": 127791556,
  "nodes": [
    1413692083,
    1782526455,
    1782526461,
    1782526460,
    1782526466,
    1782526467,
    1782526462,
    1782526463,
    1782526453,
    1413692086,
    3921064007,
    3921063975,
    1413692070,
    3921063971,
    3921063976,
    3921063989,
    1782526430,
    1413692075,
    1413692083
  ],
  "tags": {
    "tourism": "museum"
  }
},
{
  "type": "way",
  "id": 127977920,
  "nodes": [
    1415233971,
    1415233983,
    1415233985,
    1415233988,
    1415233992,
    1415233990,
    1415233986,
    1415233973,
    2591477890,
    1415233935,
    1415233930,
    1415233914,
    1415233913,
    1415233912,
    1415233905,
    1415233917,
    1415233923,
    1415233950,
    1415233970,
    1415233971
  ],
  "tags": {
    "building": "ship",
    "historic": "ship",
    "image": "File:Zeebrugge West-Hinder R01.jpg",
    "name": "West-Hinder",
    "operator": "Seafront",
    "ship:type": "lightship",
    "tourism": "museum",
    "website": "http://www.seafront.be/en/lightship-west-hinder"
  }
},
{
  "type": "way",
  "id": 270753112,
  "nodes": [
    2757476647,
    2757476926,
    2757476967,
    2757477528,
    2757476963,
    2757476934,
    2757476811,
    2757476187,
    2757476647
  ],
  "tags": {
    "building": "yes",
    "description": "Tweezijdig aangebouwd hoekpand, omstreeks 1920 als bankgebouw voor \"De Nationale Bank\" in Amsterdamse School trant gebouwd.",
    "heritage": "2",
    "heritage:operator": "rce",
    "image": "https://upload.wikimedia.org/wikipedia/commons/a/a5/Nieuwstraat4.jpg",
    "name": "Schoolmuseum “Schooltijd”",
    "ref:bag": "715100000024332",
    "ref:rce": "508129",
    "source": "BAG",
    "source:date": "2014-03-24",
    "start_date": "1900",
    "tourism": "museum"
  }
},
{
  "type": "way",
  "id": 270945352,
  "nodes": [
    2759008411,
    2759008703,
    2759009000,
    2759009014,
    2759009283,
    2759009310,
    2759009333,
    2759009297,
    2759009401,
    2759009186,
    2759009200,
    2759009173,
    2759009004,
    2759008409,
    2759008432,
    2759008393,
    2759008362,
    2759008302,
    2759008285,
    2759008347,
    2759008092,
    2759008039,
    2759007980,
    2759008076,
    2759007951,
    2759007897,
    2759007869,
    2759007926,
    2759007845,
    2759007799,
    2759007780,
    2759007836,
    2759007769,
    2759007715,
    2759007651,
    2759007751,
    2759007598,
    2759007312,
    2759007280,
    2759007566,
    2759007268,
    2759007230,
    2759007206,
    2759007244,
    2759007189,
    2759007171,
    2759007148,
    2759007186,
    2759007116,
    2759007065,
    2759007046,
    2759008407,
    2759008411
  ],
  "tags": {
    "building": "commercial",
    "description": "Raadhuis. Waarschijnlijk gebouwd tussen 1390 en 1393; na zware beschadiging in 1944 herbouwd. Rechthoekig gebouw met ingebouwde toren die een karakteristiek voorbeeld oplevert van het Vlaamse belfort.",
    "heritage": "2",
    "heritage:operator": "rce",
    "image": "https://upload.wikimedia.org/wikipedia/commons/a/a4/Sluis_town_hall.jpg",
    "name": "Belfort",
    "ref:bag": "1714100000731003",
    "ref:rce": "33890",
    "source": "BAG",
    "source:date": "2014-03-24",
    "start_date": "1396",
    "tourism": "museum",
    "website": "http://www.belfortsluis.nl/nl/",
    "wikidata": "Q2413687",
    "wikipedia": "nl:Belfort van Sluis"
  }
},
{
  "type": "way",
  "id": 271270883,
  "nodes": [
    2762265840,
    2762266514,
    2762266427,
    2762266571,
    2762266520,
    2762266406,
    2762266344,
    2762266254,
    2762266510,
    2762266424,
    2762266323,
    2762265548,
    2762265840
  ],
  "tags": {
    "building": "yes",
    "description": "Fors, gedeeltelijk onderkelderd dwarspand van gele metselsteen. Strekken en onderdorpels in rode metselsteen. Lijst met consoles: 9-ruits schuifvensters; venstererker.",
    "fee": "MJK_free",
    "heritage": "2",
    "heritage:operator": "rce",
    "image": "https://upload.wikimedia.org/wikipedia/commons/9/9c/Aardenburg_-_Archeologisch_Museum_1.jpg",
    "name": "Gemeentelijk Archeologisch Museum",
    "ref:bag": "1714100000732512",
    "ref:rce": "6886",
    "source": "BAG",
    "source:date": "2014-03-24",
    "start_date": "1752",
    "tourism": "museum",
    "website": "http://museumaardenburg.nl/"
  }
},
{
  "type": "way",
  "id": 274454120,
  "nodes": [
    2791616012,
    2791615775,
    2791615786,
    2791615732,
    2791615752,
    2791615899,
    2791615932,
    2791616030,
    2791616012
  ],
  "tags": {
    "building": "yes",
    "museum": "tractor",
    "name": "Trekkermuseum",
    "opening_hours": "Jul-Aug Tu-Fr 13:30-16:30 \"In Aug — Sep on some days it opens earlier, see website\", May-Oct Sa-Su,PH 13:30-16:30",
    "payment:cash": "yes",
    "payment:maestro": "yes",
    "ref:bag": "654100000058777",
    "source": "BAG",
    "source:date": "2014-03-24",
    "start_date": "1990",
    "tourism": "museum",
    "website": "http://www.trekkermuseum-otmmz.nl/"
  }
},
{
  "type": "way",
  "id": 276007453,
  "nodes": [
    2806462388,
    2806464356,
    2806463734,
    2806464352,
    2806464367,
    2806464348,
    2806464341,
    2806464331,
    2806464310,
    2806463708,
    2806462393,
    2806463701,
    2806462388
  ],
  "tags": {
    "building": "yes",
    "description": "Voormalig openbare lagere school",
    "heritage": "2",
    "heritage:operator": "rce",
    "image": "https://upload.wikimedia.org/wikipedia/commons/0/03/Burghse_school%2C_Kerkstraat_3%2C_Burgh_%284%29.JPG",
    "name": "Museum de Burghse Schoole",
    "ref:bag": "1676100000455242",
    "ref:rce": "496650",
    "source": "BAG",
    "source:date": "2014-03-24",
    "start_date": "1916",
    "tourism": "museum",
    "website": "http://www.burghseschoole.nl"
  }
},
{
  "type": "way",
  "id": 277882177,
  "nodes": [
    2823253898,
    2823234256,
    2823254838,
    2823254095,
    2823254054,
    3740432263,
    2823252552,
    2823252571,
    2823252534,
    2823254827,
    2823251083,
    3740432261,
    2823252274,
    2823252504,
    2823254078,
    2823253898
  ],
  "tags": {
    "building": "yes",
    "name": "Polderhuis Dijk- en Oorlogsmuseum",
    "ref:bag": "717100000021273",
    "source": "BAG",
    "source:date": "2016-03-05",
    "start_date": "1960",
    "tourism": "museum",
    "wheelchair": "yes"
  }
},
{
  "type": "way",
  "id": 286978653,
  "nodes": [
    2906448908,
    4352225994,
    4352225989,
    4352225990,
    2906448112,
    2906447898,
    2906447863,
    2906448080,
    2906448048,
    2906448480,
    2906448365,
    2906448908
  ],
  "tags": {
    "building": "yes",
    "name": "'t Stadthuys",
    "operator": "Museum Arnemuiden",
    "ref:bag": "687100000028584",
    "source": "BAG",
    "source:date": "2016-08-16",
    "start_date": "1865",
    "tourism": "museum",
    "website": "http://museumarnemuiden.nl/"
  }
},
{
  "type": "way",
  "id": 286981927,
  "nodes": [
    2906449954,
    2906449969,
    2906450296,
    2906450602,
    2906449811,
    2906449813,
    2906449325,
    2906449187,
    2906449954
  ],
  "tags": {
    "building": "yes",
    "name": "'t Uusje van Eine",
    "operator": "Museum Arnemuiden",
    "ref:bag": "687100000019309",
    "source": "BAG",
    "source:date": "2014-06-08",
    "start_date": "1979",
    "tourism": "museum",
    "website": "http://museumarnemuiden.nl/"
  }
},
{
  "type": "way",
  "id": 414570763,
  "nodes": [
    4156944699,
    4156961632,
    4156961633,
    4156961634,
    4156961635,
    4156961636,
    4146852237,
    4146852241,
    3571727674,
    3571727682,
    4156951565,
    4156951564,
    4156951563,
    4156951562,
    4156951561,
    4156951560,
    4156951559,
    4156951558,
    4156951557,
    4156951556,
    4156951555,
    4156951554,
    4156951553,
    3571728295,
    4149452401,
    3745921992,
    917383259,
    917383206,
    3745921995,
    4415275109,
    917383239,
    917383247,
    917383253,
    917407194,
    917407204,
    917407206,
    917407207,
    2068804226,
    1028145056,
    4156961639,
    4743986319,
    4743986824,
    4156944700,
    4156944699
  ],
  "tags": {
    "area": "yes",
    "museum": "railway",
    "name": "Stoomtrein Goes Borsele",
    "tourism": "museum"
  }
},
{
  "type": "way",
  "id": 480853552,
  "nodes": [
    4738118023,
    4738118024,
    4738118025,
    7053905882,
    7053905883,
    4738118026,
    4738118027,
    4738118028,
    7053919087,
    7053919086,
    4738118029,
    7053919085,
    7053905884,
    4738118030,
    4738118023
  ],
  "tags": {
    "addr:city": "Ramskapelle",
    "addr:housenumber": "91,93",
    "addr:postcode": "8301",
    "addr:street": "Ramskapellestraat",
    "building": "yes",
    "name": "For Freedom Museum",
    "tourism": "museum",
    "wikidata": "Q13636814"
  }
},
{
  "type": "way",
  "id": 543937368,
  "nodes": [
    5258091636,
    5258091637,
    5258091638,
    5258091639,
    5258091636
  ],
  "tags": {
    "building": "yes",
    "name": "Jenevermuseum Van Hoorebeke",
    "tourism": "museum"
  }
},
{
  "type": "way",
  "id": 572931312,
  "nodes": [
    5504074035,
    5504074036,
    5504074037,
    5504074038,
    5504074035
  ],
  "tags": {
    "indoor": "area",
    "name": "Expo 'Vogels in het Zwin'",
    "tourism": "museum"
  }
},
{
  "type": "way",
  "id": 700721888,
  "nodes": [
    6580391591,
    6580391592,
    6580387257,
    3099232060,
    3099232059,
    6580387256,
    6580387255,
    3099232056,
    6580387283,
    6580387274,
    3099232050,
    3099232048,
    3099232037,
    6580387261,
    6580387254,
    6580387253,
    6580387252,
    6580387251,
    6580387250,
    6580387249,
    6580387248,
    6580387247,
    6580387246,
    6580387245,
    6580387244,
    6580387243,
    6580387242,
    6580387241,
    6580387240,
    6580387239,
    6580387238,
    6580387237,
    1692549661,
    1692549547,
    6556278429,
    6580387236,
    6580387235,
    6580387234,
    6580387233,
    6580387232,
    6580387231,
    6580387230,
    6580387229,
    6580387227,
    6580387228,
    6580387226,
    6580387225,
    6580387224,
    874351031,
    6580387258,
    6580387223,
    6580387222,
    6580391590,
    6580387221,
    6580391591
  ],
  "tags": {
    "fee": "yes",
    "image": "https://commons.wikimedia.org/wiki/File:Stoomcentrum_Maldegem_75196_WD.jpg",
    "name": "Stoomtrein Maldegem-Eeklo",
    "tourism": "museum",
    "website": "https://www.stoomtreinmaldegem.be/",
    "wikipedia": "nl:Stoomtrein Maldegem-Eeklo"
  }
},
{
  "type": "relation",
  "id": 3395039,
  "members": [
    {
      "type": "way",
      "ref": 253176431,
      "role": "outer"
    },
    {
      "type": "way",
      "ref": 253176432,
      "role": "outer"
    },
    {
      "type": "way",
      "ref": 253176433,
      "role": "outer"
    }
  ],
  "tags": {
    "email": "info@seafront.be",
    "name": "Seafront",
    "phone": "+32 50 55 14 15",
    "tourism": "museum",
    "type": "multipolygon",
    "website": "https://www.seafront.be/",
    "wikidata": "Q2102354"
  }
},
{
  "type": "relation",
  "id": 4815750,
  "members": [
    {
      "type": "way",
      "ref": 276323966,
      "role": ""
    },
    {
      "type": "way",
      "ref": 46721545,
      "role": ""
    },
    {
      "type": "way",
      "ref": 276324870,
      "role": ""
    },
    {
      "type": "way",
      "ref": 276324540,
      "role": ""
    }
  ],
  "tags": {
    "heritage": "2",
    "heritage:operator": "rce",
    "historic": "caissons",
    "image": "https://upload.wikimedia.org/wikipedia/commons/2/2d/Watersnoodmuseum_1.jpg",
    "museum": "history",
    "name": "Watersnoodmuseum",
    "operator": "Stichting Nationaal Monument Watersnood 1953",
    "ref:rce": "14174",
    "tourism": "museum",
    "type": "site",
    "website": "https://watersnoodmuseum.nl/",
    "wheelchair": "yes"
  }
},
{
  "type": "node",
  "id": 2591477712,
  "lat": 51.3323758,
  "lon": 3.2022797
},
{
  "type": "node",
  "id": 2591477757,
  "lat": 51.3326168,
  "lon": 3.2021197
},
{
  "type": "node",
  "id": 6918432784,
  "lat": 51.3324508,
  "lon": 3.2022299
},
{
  "type": "node",
  "id": 6918447186,
  "lat": 51.3325092,
  "lon": 3.2021911
},
{
  "type": "node",
  "id": 6924341414,
  "lat": 51.3326041,
  "lon": 3.2031605
},
{
  "type": "node",
  "id": 6924341416,
  "lat": 51.3326434,
  "lon": 3.2033120
},
{
  "type": "node",
  "id": 6924341417,
  "lat": 51.3326757,
  "lon": 3.2031131
},
{
  "type": "node",
  "id": 6924341419,
  "lat": 51.3326991,
  "lon": 3.2024373
},
{
  "type": "node",
  "id": 6924341420,
  "lat": 51.3327149,
  "lon": 3.2032645
},
{
  "type": "node",
  "id": 6924341422,
  "lat": 51.3328411,
  "lon": 3.2030032
},
{
  "type": "node",
  "id": 6924341423,
  "lat": 51.3328451,
  "lon": 3.2030006
},
{
  "type": "node",
  "id": 6924341425,
  "lat": 51.3328803,
  "lon": 3.2031547
},
{
  "type": "node",
  "id": 6924341426,
  "lat": 51.3328843,
  "lon": 3.2031520
},
{
  "type": "node",
  "id": 6924341429,
  "lat": 51.3329345,
  "lon": 3.2044353
},
{
  "type": "node",
  "id": 6924341430,
  "lat": 51.3329738,
  "lon": 3.2045870
},
{
  "type": "node",
  "id": 6924341431,
  "lat": 51.3330065,
  "lon": 3.2043876
},
{
  "type": "node",
  "id": 6924341432,
  "lat": 51.3330458,
  "lon": 3.2045392
},
{
  "type": "node",
  "id": 6924341433,
  "lat": 51.3331714,
  "lon": 3.2042781
},
{
  "type": "node",
  "id": 6924341434,
  "lat": 51.3331754,
  "lon": 3.2042754
},
{
  "type": "node",
  "id": 6924341437,
  "lat": 51.3332107,
  "lon": 3.2044297
},
{
  "type": "node",
  "id": 6924341438,
  "lat": 51.3332147,
  "lon": 3.2044270
},
{
  "type": "node",
  "id": 1415233905,
  "lat": 51.3342621,
  "lon": 3.2082720
},
{
  "type": "node",
  "id": 1415233912,
  "lat": 51.3342628,
  "lon": 3.2082901
},
{
  "type": "node",
  "id": 1415233913,
  "lat": 51.3342658,
  "lon": 3.2083023
},
{
  "type": "node",
  "id": 1415233914,
  "lat": 51.3342742,
  "lon": 3.2083095
},
{
  "type": "node",
  "id": 1415233917,
  "lat": 51.3342759,
  "lon": 3.2082337
},
{
  "type": "node",
  "id": 1415233923,
  "lat": 51.3342908,
  "lon": 3.2082150
},
{
  "type": "node",
  "id": 1415233930,
  "lat": 51.3343060,
  "lon": 3.2083156
},
{
  "type": "node",
  "id": 1415233935,
  "lat": 51.3343317,
  "lon": 3.2083083
},
{
  "type": "node",
  "id": 1415233950,
  "lat": 51.3343908,
  "lon": 3.2081496
},
{
  "type": "node",
  "id": 1415233970,
  "lat": 51.3345097,
  "lon": 3.2080732
},
{
  "type": "node",
  "id": 1415233971,
  "lat": 51.3345604,
  "lon": 3.2080465
},
{
  "type": "node",
  "id": 1415233973,
  "lat": 51.3345627,
  "lon": 3.2081568
},
{
  "type": "node",
  "id": 1415233983,
  "lat": 51.3345808,
  "lon": 3.2080441
},
{
  "type": "node",
  "id": 1415233985,
  "lat": 51.3345960,
  "lon": 3.2080441
},
{
  "type": "node",
  "id": 1415233986,
  "lat": 51.3346020,
  "lon": 3.2081108
},
{
  "type": "node",
  "id": 1415233988,
  "lat": 51.3346089,
  "lon": 3.2080526
},
{
  "type": "node",
  "id": 1415233990,
  "lat": 51.3346111,
  "lon": 3.2080902
},
{
  "type": "node",
  "id": 1415233992,
  "lat": 51.3346126,
  "lon": 3.2080659
},
{
  "type": "node",
  "id": 2591477890,
  "lat": 51.3344902,
  "lon": 3.2082032
},
{
  "type": "node",
  "id": 6924341440,
  "lat": 51.3332639,
  "lon": 3.2057063
},
{
  "type": "node",
  "id": 6924341442,
  "lat": 51.3333373,
  "lon": 3.2056576
},
{
  "type": "node",
  "id": 6924341463,
  "lat": 51.3335021,
  "lon": 3.2055482
},
{
  "type": "node",
  "id": 6924341464,
  "lat": 51.3335048,
  "lon": 3.2055464
},
{
  "type": "node",
  "id": 4738118023,
  "lat": 51.3136185,
  "lon": 3.2518146
},
{
  "type": "node",
  "id": 4738118024,
  "lat": 51.3133106,
  "lon": 3.2520605
},
{
  "type": "node",
  "id": 4738118025,
  "lat": 51.3133556,
  "lon": 3.2522058
},
{
  "type": "node",
  "id": 4738118026,
  "lat": 51.3134497,
  "lon": 3.2521169
},
{
  "type": "node",
  "id": 4738118027,
  "lat": 51.3135119,
  "lon": 3.2523129
},
{
  "type": "node",
  "id": 4738118028,
  "lat": 51.3135992,
  "lon": 3.2522377
},
{
  "type": "node",
  "id": 4738118029,
  "lat": 51.3135261,
  "lon": 3.2519775
},
{
  "type": "node",
  "id": 4738118030,
  "lat": 51.3136459,
  "lon": 3.2519012
},
{
  "type": "node",
  "id": 7053905882,
  "lat": 51.3134106,
  "lon": 3.2521667
},
{
  "type": "node",
  "id": 7053905883,
  "lat": 51.3134050,
  "lon": 3.2521471
},
{
  "type": "node",
  "id": 7053905884,
  "lat": 51.3136340,
  "lon": 3.2519099
},
{
  "type": "node",
  "id": 7053919085,
  "lat": 51.3136289,
  "lon": 3.2518952
},
{
  "type": "node",
  "id": 7053919086,
  "lat": 51.3135362,
  "lon": 3.2520154
},
{
  "type": "node",
  "id": 7053919087,
  "lat": 51.3135280,
  "lon": 3.2520237
},
{
  "type": "node",
  "id": 5504074035,
  "lat": 51.3583707,
  "lon": 3.3489033
},
{
  "type": "node",
  "id": 5504074036,
  "lat": 51.3583005,
  "lon": 3.3489266
},
{
  "type": "node",
  "id": 5504074037,
  "lat": 51.3584414,
  "lon": 3.3501118
},
{
  "type": "node",
  "id": 5504074038,
  "lat": 51.3585132,
  "lon": 3.3500872
},
{
  "type": "node",
  "id": 5258091636,
  "lat": 51.1863953,
  "lon": 3.5637292
},
{
  "type": "node",
  "id": 5258091637,
  "lat": 51.1864469,
  "lon": 3.5637973
},
{
  "type": "node",
  "id": 5258091638,
  "lat": 51.1861252,
  "lon": 3.5643603
},
{
  "type": "node",
  "id": 5258091639,
  "lat": 51.1860692,
  "lon": 3.5642882
},
{
  "type": "node",
  "id": 874351031,
  "lat": 51.2050617,
  "lon": 3.4452025
},
{
  "type": "node",
  "id": 1692549547,
  "lat": 51.2047298,
  "lon": 3.4447144
},
{
  "type": "node",
  "id": 1692549661,
  "lat": 51.2047166,
  "lon": 3.4471036
},
{
  "type": "node",
  "id": 6556278429,
  "lat": 51.2047299,
  "lon": 3.4446316
},
{
  "type": "node",
  "id": 6580387221,
  "lat": 51.2050143,
  "lon": 3.4471208
},
{
  "type": "node",
  "id": 6580387222,
  "lat": 51.2050114,
  "lon": 3.4466225
},
{
  "type": "node",
  "id": 6580387223,
  "lat": 51.2050584,
  "lon": 3.4461933
},
{
  "type": "node",
  "id": 6580387224,
  "lat": 51.2050441,
  "lon": 3.4430619
},
{
  "type": "node",
  "id": 6580387225,
  "lat": 51.2050084,
  "lon": 3.4430659
},
{
  "type": "node",
  "id": 6580387226,
  "lat": 51.2049988,
  "lon": 3.4428741
},
{
  "type": "node",
  "id": 6580387227,
  "lat": 51.2049580,
  "lon": 3.4419414
},
{
  "type": "node",
  "id": 6580387228,
  "lat": 51.2049948,
  "lon": 3.4426123
},
{
  "type": "node",
  "id": 6580387229,
  "lat": 51.2049477,
  "lon": 3.4416118
},
{
  "type": "node",
  "id": 6580387230,
  "lat": 51.2049290,
  "lon": 3.4414566
},
{
  "type": "node",
  "id": 6580387231,
  "lat": 51.2049248,
  "lon": 3.4413600
},
{
  "type": "node",
  "id": 6580387232,
  "lat": 51.2049088,
  "lon": 3.4413265
},
{
  "type": "node",
  "id": 6580387233,
  "lat": 51.2048786,
  "lon": 3.4413090
},
{
  "type": "node",
  "id": 6580387234,
  "lat": 51.2048551,
  "lon": 3.4413050
},
{
  "type": "node",
  "id": 6580387235,
  "lat": 51.2047811,
  "lon": 3.4413412
},
{
  "type": "node",
  "id": 6580387236,
  "lat": 51.2047647,
  "lon": 3.4414096
},
{
  "type": "node",
  "id": 6580387257,
  "lat": 51.2049523,
  "lon": 3.4471685
},
{
  "type": "node",
  "id": 6580387258,
  "lat": 51.2050597,
  "lon": 3.4460109
},
{
  "type": "node",
  "id": 6580391590,
  "lat": 51.2050146,
  "lon": 3.4469774
},
{
  "type": "node",
  "id": 6580391591,
  "lat": 51.2050142,
  "lon": 3.4471687
},
{
  "type": "node",
  "id": 6580391592,
  "lat": 51.2049584,
  "lon": 3.4471685
},
{
  "type": "node",
  "id": 3099232037,
  "lat": 51.2049249,
  "lon": 3.4487032
},
{
  "type": "node",
  "id": 3099232048,
  "lat": 51.2049237,
  "lon": 3.4487031
},
{
  "type": "node",
  "id": 3099232050,
  "lat": 51.2049243,
  "lon": 3.4486419
},
{
  "type": "node",
  "id": 3099232056,
  "lat": 51.2049278,
  "lon": 3.4482764
},
{
  "type": "node",
  "id": 3099232059,
  "lat": 51.2049351,
  "lon": 3.4477239
},
{
  "type": "node",
  "id": 3099232060,
  "lat": 51.2049351,
  "lon": 3.4476474
},
{
  "type": "node",
  "id": 6580387237,
  "lat": 51.2047130,
  "lon": 3.4474429
},
{
  "type": "node",
  "id": 6580387238,
  "lat": 51.2047093,
  "lon": 3.4475670
},
{
  "type": "node",
  "id": 6580387239,
  "lat": 51.2047095,
  "lon": 3.4477775
},
{
  "type": "node",
  "id": 6580387240,
  "lat": 51.2046891,
  "lon": 3.4477772
},
{
  "type": "node",
  "id": 6580387241,
  "lat": 51.2046860,
  "lon": 3.4486318
},
{
  "type": "node",
  "id": 6580387242,
  "lat": 51.2046690,
  "lon": 3.4486328
},
{
  "type": "node",
  "id": 6580387243,
  "lat": 51.2046740,
  "lon": 3.4487528
},
{
  "type": "node",
  "id": 6580387244,
  "lat": 51.2047059,
  "lon": 3.4487495
},
{
  "type": "node",
  "id": 6580387245,
  "lat": 51.2047580,
  "lon": 3.4491102
},
{
  "type": "node",
  "id": 6580387246,
  "lat": 51.2047773,
  "lon": 3.4493034
},
{
  "type": "node",
  "id": 6580387247,
  "lat": 51.2048045,
  "lon": 3.4494774
},
{
  "type": "node",
  "id": 6580387248,
  "lat": 51.2048059,
  "lon": 3.4495226
},
{
  "type": "node",
  "id": 6580387249,
  "lat": 51.2048170,
  "lon": 3.4496479
},
{
  "type": "node",
  "id": 6580387250,
  "lat": 51.2048191,
  "lon": 3.4497154
},
{
  "type": "node",
  "id": 6580387251,
  "lat": 51.2049116,
  "lon": 3.4497161
},
{
  "type": "node",
  "id": 6580387252,
  "lat": 51.2049124,
  "lon": 3.4496862
},
{
  "type": "node",
  "id": 6580387253,
  "lat": 51.2049086,
  "lon": 3.4495277
},
{
  "type": "node",
  "id": 6580387254,
  "lat": 51.2049187,
  "lon": 3.4488123
},
{
  "type": "node",
  "id": 6580387255,
  "lat": 51.2049339,
  "lon": 3.4482228
},
{
  "type": "node",
  "id": 6580387256,
  "lat": 51.2049351,
  "lon": 3.4479290
},
{
  "type": "node",
  "id": 6580387261,
  "lat": 51.2049233,
  "lon": 3.4487369
},
{
  "type": "node",
  "id": 6580387274,
  "lat": 51.2049244,
  "lon": 3.4486333
},
{
  "type": "node",
  "id": 6580387283,
  "lat": 51.2049266,
  "lon": 3.4484046
},
{
  "type": "node",
  "id": 2762265548,
  "lat": 51.2740835,
  "lon": 3.4481508
},
{
  "type": "node",
  "id": 2762265840,
  "lat": 51.2741433,
  "lon": 3.4479952
},
{
  "type": "node",
  "id": 2762266254,
  "lat": 51.2742079,
  "lon": 3.4482319
},
{
  "type": "node",
  "id": 2762266323,
  "lat": 51.2742313,
  "lon": 3.4482795
},
{
  "type": "node",
  "id": 2762266344,
  "lat": 51.2742413,
  "lon": 3.4481229
},
{
  "type": "node",
  "id": 2762266406,
  "lat": 51.2742498,
  "lon": 3.4481311
},
{
  "type": "node",
  "id": 2762266424,
  "lat": 51.2742513,
  "lon": 3.4482962
},
{
  "type": "node",
  "id": 2762266427,
  "lat": 51.2742515,
  "lon": 3.4481085
},
{
  "type": "node",
  "id": 2762266510,
  "lat": 51.2742579,
  "lon": 3.4482763
},
{
  "type": "node",
  "id": 2762266514,
  "lat": 51.2742582,
  "lon": 3.4480898
},
{
  "type": "node",
  "id": 2762266520,
  "lat": 51.2742582,
  "lon": 3.4481379
},
{
  "type": "node",
  "id": 2762266571,
  "lat": 51.2742646,
  "lon": 3.4481198
},
{
  "type": "node",
  "id": 2759007046,
  "lat": 51.3087819,
  "lon": 3.3861797
},
{
  "type": "node",
  "id": 2759007065,
  "lat": 51.3087856,
  "lon": 3.3861947
},
{
  "type": "node",
  "id": 2759007116,
  "lat": 51.3087905,
  "lon": 3.3861916
},
{
  "type": "node",
  "id": 2759007148,
  "lat": 51.3087944,
  "lon": 3.3862387
},
{
  "type": "node",
  "id": 2759007171,
  "lat": 51.3087966,
  "lon": 3.3862477
},
{
  "type": "node",
  "id": 2759007186,
  "lat": 51.3088010,
  "lon": 3.3862346
},
{
  "type": "node",
  "id": 2759007189,
  "lat": 51.3088019,
  "lon": 3.3862444
},
{
  "type": "node",
  "id": 2759007206,
  "lat": 51.3088046,
  "lon": 3.3862818
},
{
  "type": "node",
  "id": 2759007230,
  "lat": 51.3088070,
  "lon": 3.3862917
},
{
  "type": "node",
  "id": 2759007244,
  "lat": 51.3088102,
  "lon": 3.3862783
},
{
  "type": "node",
  "id": 2759007268,
  "lat": 51.3088128,
  "lon": 3.3862881
},
{
  "type": "node",
  "id": 2759007280,
  "lat": 51.3088151,
  "lon": 3.3863262
},
{
  "type": "node",
  "id": 2759007312,
  "lat": 51.3088174,
  "lon": 3.3863356
},
{
  "type": "node",
  "id": 2759007566,
  "lat": 51.3088211,
  "lon": 3.3863224
},
{
  "type": "node",
  "id": 2759007598,
  "lat": 51.3088232,
  "lon": 3.3863320
},
{
  "type": "node",
  "id": 2759007651,
  "lat": 51.3088256,
  "lon": 3.3863697
},
{
  "type": "node",
  "id": 2759007715,
  "lat": 51.3088281,
  "lon": 3.3863798
},
{
  "type": "node",
  "id": 2759007751,
  "lat": 51.3088315,
  "lon": 3.3863661
},
{
  "type": "node",
  "id": 2759007769,
  "lat": 51.3088331,
  "lon": 3.3863766
},
{
  "type": "node",
  "id": 2759007780,
  "lat": 51.3088354,
  "lon": 3.3864163
},
{
  "type": "node",
  "id": 2759007799,
  "lat": 51.3088372,
  "lon": 3.3864239
},
{
  "type": "node",
  "id": 2759007836,
  "lat": 51.3088418,
  "lon": 3.3864123
},
{
  "type": "node",
  "id": 2759007845,
  "lat": 51.3088431,
  "lon": 3.3864202
},
{
  "type": "node",
  "id": 2759007869,
  "lat": 51.3088456,
  "lon": 3.3864607
},
{
  "type": "node",
  "id": 2759007897,
  "lat": 51.3088479,
  "lon": 3.3864701
},
{
  "type": "node",
  "id": 2759007926,
  "lat": 51.3088521,
  "lon": 3.3864567
},
{
  "type": "node",
  "id": 2759007951,
  "lat": 51.3088539,
  "lon": 3.3864664
},
{
  "type": "node",
  "id": 2759007980,
  "lat": 51.3088564,
  "lon": 3.3865047
},
{
  "type": "node",
  "id": 2759008039,
  "lat": 51.3088595,
  "lon": 3.3865172
},
{
  "type": "node",
  "id": 2759008076,
  "lat": 51.3088623,
  "lon": 3.3865010
},
{
  "type": "node",
  "id": 2759008092,
  "lat": 51.3088649,
  "lon": 3.3865138
},
{
  "type": "node",
  "id": 2759008285,
  "lat": 51.3088682,
  "lon": 3.3865645
},
{
  "type": "node",
  "id": 2759008302,
  "lat": 51.3088714,
  "lon": 3.3865775
},
{
  "type": "node",
  "id": 2759008347,
  "lat": 51.3088761,
  "lon": 3.3865596
},
{
  "type": "node",
  "id": 2759008362,
  "lat": 51.3088800,
  "lon": 3.3865722
},
{
  "type": "node",
  "id": 2759008393,
  "lat": 51.3088834,
  "lon": 3.3865862
},
{
  "type": "node",
  "id": 2759008407,
  "lat": 51.3088866,
  "lon": 3.3861146
},
{
  "type": "node",
  "id": 2759008409,
  "lat": 51.3088871,
  "lon": 3.3865701
},
{
  "type": "node",
  "id": 2759008411,
  "lat": 51.3088873,
  "lon": 3.3861173
},
{
  "type": "node",
  "id": 2759008432,
  "lat": 51.3088900,
  "lon": 3.3865821
},
{
  "type": "node",
  "id": 2759008703,
  "lat": 51.3089273,
  "lon": 3.3860923
},
{
  "type": "node",
  "id": 2759009000,
  "lat": 51.3089727,
  "lon": 3.3862780
},
{
  "type": "node",
  "id": 2759009004,
  "lat": 51.3089730,
  "lon": 3.3865166
},
{
  "type": "node",
  "id": 2759009014,
  "lat": 51.3089743,
  "lon": 3.3862770
},
{
  "type": "node",
  "id": 2759009173,
  "lat": 51.3089767,
  "lon": 3.3865318
},
{
  "type": "node",
  "id": 2759009186,
  "lat": 51.3089790,
  "lon": 3.3865152
},
{
  "type": "node",
  "id": 2759009200,
  "lat": 51.3089823,
  "lon": 3.3865284
},
{
  "type": "node",
  "id": 2759009283,
  "lat": 51.3090066,
  "lon": 3.3864092
},
{
  "type": "node",
  "id": 2759009297,
  "lat": 51.3090105,
  "lon": 3.3864186
},
{
  "type": "node",
  "id": 2759009310,
  "lat": 51.3090128,
  "lon": 3.3864054
},
{
  "type": "node",
  "id": 2759009333,
  "lat": 51.3090153,
  "lon": 3.3864156
},
{
  "type": "node",
  "id": 2759009401,
  "lat": 51.3090268,
  "lon": 3.3864855
},
{
  "type": "node",
  "id": 1413692070,
  "lat": 51.2011744,
  "lon": 3.5745577
},
{
  "type": "node",
  "id": 1413692075,
  "lat": 51.2016902,
  "lon": 3.5778233
},
{
  "type": "node",
  "id": 1413692083,
  "lat": 51.2033429,
  "lon": 3.5776959
},
{
  "type": "node",
  "id": 1413692086,
  "lat": 51.2034044,
  "lon": 3.5744857
},
{
  "type": "node",
  "id": 1782526430,
  "lat": 51.2015293,
  "lon": 3.5778364
},
{
  "type": "node",
  "id": 1782526453,
  "lat": 51.2033490,
  "lon": 3.5759632
},
{
  "type": "node",
  "id": 1782526455,
  "lat": 51.2034041,
  "lon": 3.5762890
},
{
  "type": "node",
  "id": 1782526460,
  "lat": 51.2035370,
  "lon": 3.5773863
},
{
  "type": "node",
  "id": 1782526461,
  "lat": 51.2035727,
  "lon": 3.5762839
},
{
  "type": "node",
  "id": 1782526462,
  "lat": 51.2036095,
  "lon": 3.5760312
},
{
  "type": "node",
  "id": 1782526463,
  "lat": 51.2036138,
  "lon": 3.5759522
},
{
  "type": "node",
  "id": 1782526466,
  "lat": 51.2037997,
  "lon": 3.5773915
},
{
  "type": "node",
  "id": 1782526467,
  "lat": 51.2038271,
  "lon": 3.5762608
},
{
  "type": "node",
  "id": 3921063971,
  "lat": 51.2012199,
  "lon": 3.5749737
},
{
  "type": "node",
  "id": 3921063975,
  "lat": 51.2012549,
  "lon": 3.5745510
},
{
  "type": "node",
  "id": 3921063976,
  "lat": 51.2012868,
  "lon": 3.5752455
},
{
  "type": "node",
  "id": 3921063989,
  "lat": 51.2015212,
  "lon": 3.5777494
},
{
  "type": "node",
  "id": 3921064007,
  "lat": 51.2023747,
  "lon": 3.5745223
},
{
  "type": "node",
  "id": 2823234256,
  "lat": 51.5272505,
  "lon": 3.4351662
},
{
  "type": "node",
  "id": 2823251083,
  "lat": 51.5270379,
  "lon": 3.4356882
},
{
  "type": "node",
  "id": 2823252274,
  "lat": 51.5271036,
  "lon": 3.4354265
},
{
  "type": "node",
  "id": 2823252504,
  "lat": 51.5271243,
  "lon": 3.4354399
},
{
  "type": "node",
  "id": 2823252534,
  "lat": 51.5271421,
  "lon": 3.4357555
},
{
  "type": "node",
  "id": 2823252552,
  "lat": 51.5271498,
  "lon": 3.4356599
},
{
  "type": "node",
  "id": 2823252571,
  "lat": 51.5271639,
  "lon": 3.4356689
},
{
  "type": "node",
  "id": 2823253898,
  "lat": 51.5272345,
  "lon": 3.4351559
},
{
  "type": "node",
  "id": 2823254054,
  "lat": 51.5271922,
  "lon": 3.4354912
},
{
  "type": "node",
  "id": 2823254078,
  "lat": 51.5272010,
  "lon": 3.4351343
},
{
  "type": "node",
  "id": 2823254095,
  "lat": 51.5272074,
  "lon": 3.4355010
},
{
  "type": "node",
  "id": 2823254827,
  "lat": 51.5270692,
  "lon": 3.4357084
},
{
  "type": "node",
  "id": 2823254838,
  "lat": 51.5272858,
  "lon": 3.4351890
},
{
  "type": "node",
  "id": 3740432261,
  "lat": 51.5270864,
  "lon": 3.4354947
},
{
  "type": "node",
  "id": 3740432263,
  "lat": 51.5271812,
  "lon": 3.4355307
},
{
  "type": "node",
  "id": 2906447863,
  "lat": 51.4998100,
  "lon": 3.6743596
},
{
  "type": "node",
  "id": 2906447898,
  "lat": 51.4998246,
  "lon": 3.6744757
},
{
  "type": "node",
  "id": 2906448048,
  "lat": 51.4998310,
  "lon": 3.6742355
},
{
  "type": "node",
  "id": 2906448080,
  "lat": 51.4998454,
  "lon": 3.6743482
},
{
  "type": "node",
  "id": 2906448112,
  "lat": 51.4998604,
  "lon": 3.6744652
},
{
  "type": "node",
  "id": 2906448365,
  "lat": 51.4999568,
  "lon": 3.6741918
},
{
  "type": "node",
  "id": 2906448480,
  "lat": 51.4999236,
  "lon": 3.6742046
},
{
  "type": "node",
  "id": 2906448908,
  "lat": 51.5000706,
  "lon": 3.6741493
},
{
  "type": "node",
  "id": 2906449187,
  "lat": 51.5001357,
  "lon": 3.6742198
},
{
  "type": "node",
  "id": 2906449325,
  "lat": 51.5001454,
  "lon": 3.6742974
},
{
  "type": "node",
  "id": 2906449811,
  "lat": 51.5001989,
  "lon": 3.6742682
},
{
  "type": "node",
  "id": 2906449813,
  "lat": 51.5001993,
  "lon": 3.6742812
},
{
  "type": "node",
  "id": 2906449954,
  "lat": 51.5002243,
  "lon": 3.6741913
},
{
  "type": "node",
  "id": 2906449969,
  "lat": 51.5002294,
  "lon": 3.6742340
},
{
  "type": "node",
  "id": 2906450296,
  "lat": 51.5003007,
  "lon": 3.6742159
},
{
  "type": "node",
  "id": 2906450602,
  "lat": 51.5003030,
  "lon": 3.6742367
},
{
  "type": "node",
  "id": 4352225989,
  "lat": 51.4999297,
  "lon": 3.6743999
},
{
  "type": "node",
  "id": 4352225990,
  "lat": 51.4999368,
  "lon": 3.6744439
},
{
  "type": "node",
  "id": 4352225994,
  "lat": 51.5000964,
  "lon": 3.6743431
},
{
  "type": "node",
  "id": 2757476187,
  "lat": 51.3376214,
  "lon": 3.8259202
},
{
  "type": "node",
  "id": 2757476647,
  "lat": 51.3376754,
  "lon": 3.8258365
},
{
  "type": "node",
  "id": 2757476811,
  "lat": 51.3377026,
  "lon": 3.8260563
},
{
  "type": "node",
  "id": 2757476926,
  "lat": 51.3377176,
  "lon": 3.8257700
},
{
  "type": "node",
  "id": 2757476934,
  "lat": 51.3377190,
  "lon": 3.8260802
},
{
  "type": "node",
  "id": 2757476963,
  "lat": 51.3377282,
  "lon": 3.8260797
},
{
  "type": "node",
  "id": 2757476967,
  "lat": 51.3377301,
  "lon": 3.8257895
},
{
  "type": "node",
  "id": 2757477528,
  "lat": 51.3378200,
  "lon": 3.8259181
},
{
  "type": "node",
  "id": 3571727674,
  "lat": 51.4968205,
  "lon": 3.8792437
},
{
  "type": "node",
  "id": 3571727682,
  "lat": 51.4972571,
  "lon": 3.8792581
},
{
  "type": "node",
  "id": 4146852237,
  "lat": 51.4967288,
  "lon": 3.8793932
},
{
  "type": "node",
  "id": 4146852241,
  "lat": 51.4967767,
  "lon": 3.8793150
},
{
  "type": "node",
  "id": 4156944699,
  "lat": 51.4975212,
  "lon": 3.8786165
},
{
  "type": "node",
  "id": 4156944700,
  "lat": 51.4980701,
  "lon": 3.8785800
},
{
  "type": "node",
  "id": 4156951565,
  "lat": 51.4975439,
  "lon": 3.8792675
},
{
  "type": "node",
  "id": 4156961632,
  "lat": 51.4970908,
  "lon": 3.8786590
},
{
  "type": "node",
  "id": 4156961633,
  "lat": 51.4970965,
  "lon": 3.8784593
},
{
  "type": "node",
  "id": 4156961634,
  "lat": 51.4967866,
  "lon": 3.8786276
},
{
  "type": "node",
  "id": 4156961635,
  "lat": 51.4967531,
  "lon": 3.8786751
},
{
  "type": "node",
  "id": 4156961636,
  "lat": 51.4967452,
  "lon": 3.8787511
},
{
  "type": "node",
  "id": 2791615732,
  "lat": 51.4543371,
  "lon": 3.8807211
},
{
  "type": "node",
  "id": 2791615752,
  "lat": 51.4543772,
  "lon": 3.8806160
},
{
  "type": "node",
  "id": 2791615775,
  "lat": 51.4544001,
  "lon": 3.8808267
},
{
  "type": "node",
  "id": 2791615786,
  "lat": 51.4544122,
  "lon": 3.8807949
},
{
  "type": "node",
  "id": 2791615899,
  "lat": 51.4545290,
  "lon": 3.8807653
},
{
  "type": "node",
  "id": 2791615932,
  "lat": 51.4545409,
  "lon": 3.8807339
},
{
  "type": "node",
  "id": 2791616012,
  "lat": 51.4546580,
  "lon": 3.8810804
},
{
  "type": "node",
  "id": 2791616030,
  "lat": 51.4547222,
  "lon": 3.8809123
},
{
  "type": "node",
  "id": 917383206,
  "lat": 51.4971182,
  "lon": 3.8826215
},
{
  "type": "node",
  "id": 917383239,
  "lat": 51.4974840,
  "lon": 3.8833205
},
{
  "type": "node",
  "id": 917383247,
  "lat": 51.4977063,
  "lon": 3.8837877
},
{
  "type": "node",
  "id": 917383253,
  "lat": 51.4977854,
  "lon": 3.8840831
},
{
  "type": "node",
  "id": 917383259,
  "lat": 51.4967867,
  "lon": 3.8821194
},
{
  "type": "node",
  "id": 917407194,
  "lat": 51.4978176,
  "lon": 3.8842009
},
{
  "type": "node",
  "id": 917407204,
  "lat": 51.4978645,
  "lon": 3.8843723
},
{
  "type": "node",
  "id": 917407206,
  "lat": 51.4979333,
  "lon": 3.8847217
},
{
  "type": "node",
  "id": 917407207,
  "lat": 51.4981197,
  "lon": 3.8847047
},
{
  "type": "node",
  "id": 1028145056,
  "lat": 51.4981051,
  "lon": 3.8831245
},
{
  "type": "node",
  "id": 2068804226,
  "lat": 51.4981117,
  "lon": 3.8843907
},
{
  "type": "node",
  "id": 3571728295,
  "lat": 51.4966120,
  "lon": 3.8816912
},
{
  "type": "node",
  "id": 3745921992,
  "lat": 51.4967705,
  "lon": 3.8821484
},
{
  "type": "node",
  "id": 3745921995,
  "lat": 51.4972608,
  "lon": 3.8828879
},
{
  "type": "node",
  "id": 4149452401,
  "lat": 51.4965538,
  "lon": 3.8818660
},
{
  "type": "node",
  "id": 4156951553,
  "lat": 51.4967869,
  "lon": 3.8819374
},
{
  "type": "node",
  "id": 4156951554,
  "lat": 51.4971125,
  "lon": 3.8823961
},
{
  "type": "node",
  "id": 4156951555,
  "lat": 51.4973530,
  "lon": 3.8828306
},
{
  "type": "node",
  "id": 4156951556,
  "lat": 51.4975545,
  "lon": 3.8832566
},
{
  "type": "node",
  "id": 4156951557,
  "lat": 51.4975918,
  "lon": 3.8832375
},
{
  "type": "node",
  "id": 4156951558,
  "lat": 51.4975763,
  "lon": 3.8830746
},
{
  "type": "node",
  "id": 4156951559,
  "lat": 51.4975712,
  "lon": 3.8827668
},
{
  "type": "node",
  "id": 4156951560,
  "lat": 51.4975844,
  "lon": 3.8825030
},
{
  "type": "node",
  "id": 4156951561,
  "lat": 51.4976006,
  "lon": 3.8821757
},
{
  "type": "node",
  "id": 4156951562,
  "lat": 51.4975823,
  "lon": 3.8820682
},
{
  "type": "node",
  "id": 4156951563,
  "lat": 51.4975823,
  "lon": 3.8816025
},
{
  "type": "node",
  "id": 4156951564,
  "lat": 51.4975418,
  "lon": 3.8800605
},
{
  "type": "node",
  "id": 4156961639,
  "lat": 51.4981372,
  "lon": 3.8828950
},
{
  "type": "node",
  "id": 4415275109,
  "lat": 51.4974248,
  "lon": 3.8832251
},
{
  "type": "node",
  "id": 4743986319,
  "lat": 51.4981312,
  "lon": 3.8822569
},
{
  "type": "node",
  "id": 4743986824,
  "lat": 51.4981069,
  "lon": 3.8801262
},
{
  "type": "node",
  "id": 2806462388,
  "lat": 51.6915860,
  "lon": 3.7351401
},
{
  "type": "node",
  "id": 2806462393,
  "lat": 51.6915935,
  "lon": 3.7352109
},
{
  "type": "node",
  "id": 2806463701,
  "lat": 51.6916043,
  "lon": 3.7352024
},
{
  "type": "node",
  "id": 2806463708,
  "lat": 51.6916080,
  "lon": 3.7352617
},
{
  "type": "node",
  "id": 2806463734,
  "lat": 51.6917302,
  "lon": 3.7352207
},
{
  "type": "node",
  "id": 2806464310,
  "lat": 51.6916363,
  "lon": 3.7352401
},
{
  "type": "node",
  "id": 2806464331,
  "lat": 51.6916535,
  "lon": 3.7353003
},
{
  "type": "node",
  "id": 2806464341,
  "lat": 51.6916632,
  "lon": 3.7352933
},
{
  "type": "node",
  "id": 2806464348,
  "lat": 51.6916714,
  "lon": 3.7353216
},
{
  "type": "node",
  "id": 2806464352,
  "lat": 51.6916794,
  "lon": 3.7352599
},
{
  "type": "node",
  "id": 2806464356,
  "lat": 51.6916840,
  "lon": 3.7350649
},
{
  "type": "node",
  "id": 2806464367,
  "lat": 51.6916925,
  "lon": 3.7353060
},
{
  "type": "node",
  "id": 597291904,
  "lat": 51.6175597,
  "lon": 3.9824434
},
{
  "type": "node",
  "id": 597291911,
  "lat": 51.6171879,
  "lon": 3.9830445
},
{
  "type": "node",
  "id": 597291912,
  "lat": 51.6176574,
  "lon": 3.9825988
},
{
  "type": "node",
  "id": 597291913,
  "lat": 51.6172855,
  "lon": 3.9832002
},
{
  "type": "node",
  "id": 2809365817,
  "lat": 51.6170719,
  "lon": 3.9805229
},
{
  "type": "node",
  "id": 2809365818,
  "lat": 51.6171100,
  "lon": 3.9803157
},
{
  "type": "node",
  "id": 2809365829,
  "lat": 51.6173802,
  "lon": 3.9824112
},
{
  "type": "node",
  "id": 2809365833,
  "lat": 51.6174064,
  "lon": 3.9815660
},
{
  "type": "node",
  "id": 2809365835,
  "lat": 51.6175154,
  "lon": 3.9824220
},
{
  "type": "node",
  "id": 2809365836,
  "lat": 51.6175416,
  "lon": 3.9815768
},
{
  "type": "node",
  "id": 2809365838,
  "lat": 51.6175740,
  "lon": 3.9807613
},
{
  "type": "node",
  "id": 2809365839,
  "lat": 51.6175785,
  "lon": 3.9815963
},
{
  "type": "node",
  "id": 2809365841,
  "lat": 51.6176108,
  "lon": 3.9807523
},
{
  "type": "node",
  "id": 2809365842,
  "lat": 51.6176121,
  "lon": 3.9805541
},
{
  "type": "node",
  "id": 2809365843,
  "lat": 51.6177092,
  "lon": 3.9816093
},
{
  "type": "node",
  "id": 2809365844,
  "lat": 51.6177415,
  "lon": 3.9807652
},
{
  "type": "way",
  "id": 253176431,
  "nodes": [
    6924341423,
    6924341422,
    6924341417,
    6924341414,
    2591477712,
    6918432784,
    6918447186,
    2591477757,
    6924341419,
    6924341423
  ]
},
{
  "type": "way",
  "id": 253176432,
  "nodes": [
    6924341434,
    6924341433,
    6924341431,
    6924341429,
    6924341416,
    6924341420,
    6924341425,
    6924341426,
    6924341434
  ]
},
{
  "type": "way",
  "id": 253176433,
  "nodes": [
    6924341464,
    6924341463,
    6924341442,
    6924341440,
    6924341430,
    6924341432,
    6924341437,
    6924341438,
    6924341464
  ]
},
{
  "type": "way",
  "id": 46721545,
  "nodes": [
    597291912,
    597291913,
    597291911,
    597291904,
    597291912
  ]
},
{
  "type": "way",
  "id": 276323966,
  "nodes": [
    2809365829,
    2809365833,
    2809365836,
    2809365835,
    2809365829
  ]
},
{
  "type": "way",
  "id": 276324540,
  "nodes": [
    2809365817,
    2809365818,
    2809365842,
    2809365838,
    2809365817
  ]
},
{
  "type": "way",
  "id": 276324870,
  "nodes": [
    2809365839,
    2809365841,
    2809365844,
    2809365843,
    2809365839
  ]
}

  ]
}
