{
  "version": 0.6,
  "generator": "Overpass API 0.7.55.9 ab41fea6",
  "osm3s": {
    "timestamp_osm_base": "2020-02-14T18:22:02Z",
    "copyright": "The data included in this document is from www.openstreetmap.org. The data is made available under ODbL."
  },
  "elements": [

{
  "type": "node",
  "id": 1819204060,
  "lat": 60.9614872,
  "lon": 27.8232187,
  "tags": {
    "military": "bunker",
    "name": "Salpa-Asema",
    "tourism": "museum"
  }
},
{
  "type": "node",
  "id": 2454647984,
  "lat": 60.9679396,
  "lon": 27.8332304,
  "tags": {
    "addr:city": "LUUMÄKI",
    "addr:housenumber": "799",
    "addr:postcode": "54530",
    "addr:street": "Itsenäisyydentie",
    "email": "info@kotkaniemi.fi",
    "name": "Presidentti Svinhufvudin kotimuseo",
    "phone": "040 522 7553",
    "tourism": "museum",
    "website": "http://www.kotkaniemi.fi"
  }
},
{
  "type": "node",
  "id": 5817187983,
  "lat": 61.0632819,
  "lon": 27.8060110,
  "tags": {
    "addr:city": "Lemi",
    "addr:housenumber": "6",
    "addr:postcode": "54710",
    "addr:street": "Vainikkalantie",
    "name": "Lemin kotiseutumuseo",
    "operator": "Lemin Kotiseutuyhdistys Ry",
    "tourism": "museum"
  }
},
{
  "type": "node",
  "id": 6681184988,
  "lat": 61.0603192,
  "lon": 28.1846816,
  "tags": {
    "name": "Gallery Laura",
    "name:ru": "Галерея Лаура",
    "tourism": "museum"
  }
},
{
  "type": "node",
  "id": 7171959535,
  "lat": 61.0603360,
  "lon": 28.1851961,
  "tags": {
    "addr:housenumber": "26",
    "addr:street": "Kauppakatu",
    "museum": "local",
    "name": "Wolkoffin talomuseo",
    "name:fi": "Wolkoffin talomuseo",
    "name:ru": "Дом-музей Волковых",
    "tourism": "museum"
  }
},
{
  "type": "way",
  "id": 89402136,
  "nodes": [
    1036980897,
    2043767572,
    1036980948,
    1036980826,
    1036980897
  ],
  "tags": {
    "addr:housenumber": "2",
    "addr:street": "Kristiinankatu",
    "building": "yes",
    "name": "Ratsuvälimuseo",
    "name:en": "Cavalry Museum",
    "name:ru": "Музей кавалерии",
    "source": "Bing aerial",
    "tourism": "museum"
  }
},
{
  "type": "way",
  "id": 89646626,
  "nodes": [
    1038994300,
    1038994511,
    1038994492,
    1038994277,
    1038994304,
    1038994399,
    1038994514,
    1038994487,
    1038994468,
    5555352615,
    1038994469,
    1038994292,
    1038994330,
    1038994300
  ],
  "tags": {
    "addr:housenumber": "15",
    "addr:street": "Kristiinankatu",
    "building": "yes",
    "building:levels": "1",
    "name": "Etelä-Karjalan museo",
    "name:ru": "Музей Южной Карелии",
    "opening_hours": "Mo-Fr 10:00-18:00; Sa-Su 11:00-17:00",
    "source": "Bing",
    "tourism": "museum"
  }
},
{
  "type": "way",
  "id": 129972804,
  "nodes": [
    1432991115,
    1432991073,
    1432991199,
    1432991181,
    1432991115
  ],
  "tags": {
    "name": "Karelia Aviation Museum",
    "tourism": "museum"
  }
},
{
  "type": "way",
  "id": 165334342,
  "nodes": [
    1768860591,
    1768860589,
    1768860593,
    1768860599,
    1859872626,
    1859872625,
    1768860591
  ],
  "tags": {
    "addr:city": "Lappeenranta",
    "addr:housenumber": "5",
    "addr:postcode": "55300",
    "addr:street": "Harmaakalliontie",
    "building": "yes",
    "fee": "5 euro",
    "name": "Automuseo",
    "opening_hours": "25.6.-31.8.2012 Tu-Sa 12:00-16:00; Su 10:00-18:00",
    "phone": "+358 (0)500 551 449",
    "tourism": "museum",
    "website": "http://www.ekva.fi/Sijainti-ja-aukioloajat.php"
  }
},
{
  "type": "way",
  "id": 308942771,
  "nodes": [
    3142456698,
    3142456782,
    3142456882,
    3142456841,
    3142456824,
    3142456799,
    3142456757,
    3142456736,
    3142456712,
    3142456730,
    3142456698
  ],
  "tags": {
    "building": "commercial",
    "building:levels": "1",
    "mml:class": "42221",
    "name": "Saimaan kanavan museo",
    "name:de": "Saimaa Kanal Museum",
    "tourism": "museum"
  }
},
{
  "type": "way",
  "id": 426486186,
  "nodes": [
    4257755489,
    4257755305,
    4257755300,
    4257755340,
    4257755338,
    4257755363,
    4257755364,
    4257755388,
    4257755489
  ],
  "tags": {
    "addr:city": "Ylijärvi",
    "addr:housenumber": "36",
    "addr:postcode": "54460",
    "addr:street": "Mätöntie",
    "building": "yes",
    "building:levels": "1",
    "mml:class": "42221",
    "name": "Talomuseo",
    "tourism": "museum"
  }
},
{
  "type": "way",
  "id": 537130117,
  "nodes": [
    5202001436,
    5202001437,
    5202001438,
    5641514034,
    5202001439,
    5202001436
  ],
  "tags": {
    "landuse": "industrial",
    "name": "Пороховой погреб",
    "tourism": "museum"
  }
},
{
  "type": "node",
  "id": 4257755300,
  "lat": 60.7720190,
  "lon": 27.9296088
},
{
  "type": "node",
  "id": 4257755305,
  "lat": 60.7720239,
  "lon": 27.9297681
},
{
  "type": "node",
  "id": 4257755338,
  "lat": 60.7720761,
  "lon": 27.9295490
},
{
  "type": "node",
  "id": 4257755340,
  "lat": 60.7720777,
  "lon": 27.9296014
},
{
  "type": "node",
  "id": 4257755363,
  "lat": 60.7721176,
  "lon": 27.9295437
},
{
  "type": "node",
  "id": 4257755364,
  "lat": 60.7721194,
  "lon": 27.9296006
},
{
  "type": "node",
  "id": 4257755388,
  "lat": 60.7721604,
  "lon": 27.9295953
},
{
  "type": "node",
  "id": 4257755489,
  "lat": 60.7721652,
  "lon": 27.9297501
},
{
  "type": "node",
  "id": 1432991181,
  "lat": 61.0411196,
  "lon": 28.1401684
},
{
  "type": "node",
  "id": 1432991199,
  "lat": 61.0406616,
  "lon": 28.1405448
},
{
  "type": "node",
  "id": 1432991073,
  "lat": 61.0409314,
  "lon": 28.1419454
},
{
  "type": "node",
  "id": 1432991115,
  "lat": 61.0413895,
  "lon": 28.1415690
},
{
  "type": "node",
  "id": 1036980826,
  "lat": 61.0641000,
  "lon": 28.1833802
},
{
  "type": "node",
  "id": 1036980897,
  "lat": 61.0642526,
  "lon": 28.1833335
},
{
  "type": "node",
  "id": 1036980948,
  "lat": 61.0641129,
  "lon": 28.1835595
},
{
  "type": "node",
  "id": 1038994277,
  "lat": 61.0674262,
  "lon": 28.1834766
},
{
  "type": "node",
  "id": 1038994292,
  "lat": 61.0672054,
  "lon": 28.1833882
},
{
  "type": "node",
  "id": 1038994300,
  "lat": 61.0676037,
  "lon": 28.1830382
},
{
  "type": "node",
  "id": 1038994304,
  "lat": 61.0676279,
  "lon": 28.1834362
},
{
  "type": "node",
  "id": 1038994330,
  "lat": 61.0671928,
  "lon": 28.1831206
},
{
  "type": "node",
  "id": 1038994399,
  "lat": 61.0676392,
  "lon": 28.1836768
},
{
  "type": "node",
  "id": 1038994468,
  "lat": 61.0673405,
  "lon": 28.1834715
},
{
  "type": "node",
  "id": 1038994469,
  "lat": 61.0673353,
  "lon": 28.1833621
},
{
  "type": "node",
  "id": 1038994487,
  "lat": 61.0672139,
  "lon": 28.1834969
},
{
  "type": "node",
  "id": 1038994492,
  "lat": 61.0674201,
  "lon": 28.1833458
},
{
  "type": "node",
  "id": 1038994511,
  "lat": 61.0676163,
  "lon": 28.1833064
},
{
  "type": "node",
  "id": 1038994514,
  "lat": 61.0672262,
  "lon": 28.1837597
},
{
  "type": "node",
  "id": 2043767572,
  "lat": 61.0642654,
  "lon": 28.1835129
},
{
  "type": "node",
  "id": 5555352615,
  "lat": 61.0673376,
  "lon": 28.1834104
},
{
  "type": "node",
  "id": 3142456698,
  "lat": 61.0729066,
  "lon": 28.3054799
},
{
  "type": "node",
  "id": 3142456712,
  "lat": 61.0729219,
  "lon": 28.3056314
},
{
  "type": "node",
  "id": 3142456730,
  "lat": 61.0729445,
  "lon": 28.3056016
},
{
  "type": "node",
  "id": 3142456736,
  "lat": 61.0729470,
  "lon": 28.3057121
},
{
  "type": "node",
  "id": 3142456757,
  "lat": 61.0729690,
  "lon": 28.3056831
},
{
  "type": "node",
  "id": 3142456782,
  "lat": 61.0729885,
  "lon": 28.3053715
},
{
  "type": "node",
  "id": 3142456799,
  "lat": 61.0730151,
  "lon": 28.3058314
},
{
  "type": "node",
  "id": 3142456824,
  "lat": 61.0730488,
  "lon": 28.3057866
},
{
  "type": "node",
  "id": 3142456841,
  "lat": 61.0730667,
  "lon": 28.3058442
},
{
  "type": "node",
  "id": 3142456882,
  "lat": 61.0731154,
  "lon": 28.3057798
},
{
  "type": "node",
  "id": 5202001436,
  "lat": 60.7821732,
  "lon": 28.6425616
},
{
  "type": "node",
  "id": 5202001437,
  "lat": 60.7821929,
  "lon": 28.6428540
},
{
  "type": "node",
  "id": 5202001438,
  "lat": 60.7815265,
  "lon": 28.6430927
},
{
  "type": "node",
  "id": 5202001439,
  "lat": 60.7818302,
  "lon": 28.6427145
},
{
  "type": "node",
  "id": 5641514034,
  "lat": 60.7815010,
  "lon": 28.6428522
},
{
  "type": "node",
  "id": 1768860589,
  "lat": 61.1742456,
  "lon": 28.7006919
},
{
  "type": "node",
  "id": 1768860591,
  "lat": 61.1743263,
  "lon": 28.7005179
},
{
  "type": "node",
  "id": 1768860593,
  "lat": 61.1744301,
  "lon": 28.7010605
},
{
  "type": "node",
  "id": 1768860599,
  "lat": 61.1745776,
  "lon": 28.7007428
},
{
  "type": "node",
  "id": 1859872625,
  "lat": 61.1744459,
  "lon": 28.7007567
},
{
  "type": "node",
  "id": 1859872626,
  "lat": 61.1745126,
  "lon": 28.7006130
}

  ]
}
