{
  "version": 0.6,
  "generator": "Overpass API 0.7.55.1011 6c2efc30",
  "osm3s": {
    "timestamp_osm_base": "2020-02-14T08:59:02Z",
    "copyright": "The data included in this document is from www.openstreetmap.org. The data is made available under ODbL."
  },
  "elements": [

{
  "type": "node",
  "id": 321209946,
  "lat": 56.3415928,
  "lon": -2.7958321,
  "tags": {
    "name": "MUSA Collections Centre",
    "tourism": "museum"
  }
},
{
  "type": "node",
  "id": 419027918,
  "lat": 56.1122057,
  "lon": -3.1661343,
  "tags": {
    "amenity": "library",
    "name": "Kirkcaldy Museum and Art Gallery",
    "operator": "Fife Council",
    "toilets:wheelchair": "yes",
    "tourism": "museum",
    "website": "https://www.fifedirect.org.uk/atoz/index.cfm?fuseaction=facility.display&facid=40f4b75a-9e96-49ee-8ed78c102491e124",
    "wheelchair": "yes"
  }
},
{
  "type": "node",
  "id": 718489308,
  "lat": 56.4614499,
  "lon": -2.9830277,
  "tags": {
    "name": "Verdant Works",
    "tourism": "museum"
  }
},
{
  "type": "node",
  "id": 2166007822,
  "lat": 56.2050071,
  "lon": -2.7658907,
  "tags": {
    "tourism": "museum"
  }
},
{
  "type": "node",
  "id": 2414361532,
  "lat": 56.3336145,
  "lon": -3.3123278,
  "tags": {
    "name": "Museum of Abernethy",
    "tourism": "museum"
  }
},
{
  "type": "node",
  "id": 2696171816,
  "lat": 56.1964899,
  "lon": -3.1709384,
  "tags": {
    "name": "Glenrothes Heritage Centre",
    "tourism": "museum"
  }
},
{
  "type": "node",
  "id": 2762663484,
  "lat": 56.4579142,
  "lon": -2.9783799,
  "tags": {
    "name": "D'Arcy Thompson Zoology Museum",
    "tourism": "museum"
  }
},
{
  "type": "node",
  "id": 4308887315,
  "lat": 56.0584741,
  "lon": -2.7145747,
  "tags": {
    "addr:postcode": "EH39 4JU",
    "addr:street": "School Road",
    "email": "hello@coastalmuseum.org",
    "name": "Coastal Communities Museum",
    "opening_hours": "Th-Su 11:00-22:00",
    "phone": "+44 1620894313",
    "tourism": "museum",
    "website": "http://www.coastalmuseum.org"
  }
},
{
  "type": "node",
  "id": 4680931977,
  "lat": 56.1233191,
  "lon": -3.1240422,
  "tags": {
    "name": "Coastal Centre Exhibition",
    "opening_hours": "Mar-Oct 09:30-16:30; Nov-Feb Mo-Su 10:00-15:30",
    "operator": "Fife Coast & Countryside Trust",
    "tourism": "museum",
    "wheelchair": "yes"
  }
},
{
  "type": "node",
  "id": 5000322681,
  "lat": 56.1404319,
  "lon": -3.0852397,
  "tags": {
    "name": "Auld Wemyss Ways Heritage Centre",
    "tourism": "museum"
  }
},
{
  "type": "node",
  "id": 5849444685,
  "lat": 56.3405087,
  "lon": -2.7905067,
  "tags": {
    "addr:housenumber": "12",
    "addr:postcode": "KY16",
    "addr:street": "North Street",
    "email": "curator@standrewspreservationtrust.org.uk",
    "name": "The St Andrews Preservation Trust",
    "name:en": "The St Andrews Preservation Trust Museum",
    "opening_hours": "Mo-Su 14:00-17:00",
    "phone": "+44 1334 477629",
    "tourism": "museum",
    "website": "http://www.standrewspreservationtrust.co.uk"
  }
},
{
  "type": "node",
  "id": 6428128457,
  "lat": 56.4629123,
  "lon": -2.8702038,
  "tags": {
    "tourism": "museum"
  }
},
{
  "type": "way",
  "id": 50463005,
  "nodes": [
    6938485318,
    621471849,
    621471851,
    621471834,
    6938485310,
    6938485309,
    641880660,
    6938485308,
    6938485307,
    6938485306,
    6938485305,
    6938485304,
    6938485303,
    6938485302,
    621471853,
    6938485316,
    6938485317,
    6938485318
  ],
  "tags": {
    "addr:city": "Dundee",
    "addr:postcode": "DD1 1PG",
    "addr:street": "Barrack Street",
    "building": "yes",
    "building:levels": "3",
    "email": "themcmanus@leisureandculturedundee.com",
    "name": "The McManus Collection's Unit",
    "source": "yahoo",
    "tourism": "museum",
    "website": "https://www.mcmanus.co.uk/"
  }
},
{
  "type": "way",
  "id": 73550202,
  "nodes": [
    871797892,
    871798001,
    871797876,
    871797932,
    871797951,
    871797982,
    871798044,
    871797912,
    871797885,
    871797938,
    871797988,
    871798027,
    871797833,
    871797911,
    871797919,
    871797970,
    871798011,
    871798034,
    6782552548,
    871797895,
    871797957,
    871797992,
    871798017,
    871797865,
    871797944,
    871797892
  ],
  "tags": {
    "building": "yes",
    "name": "Scottish Seabird Centre",
    "tourism": "museum"
  }
},
{
  "type": "way",
  "id": 75486804,
  "nodes": [
    891093893,
    1015943287,
    891093936,
    891093931,
    891093904,
    891093895,
    891093882,
    891093893
  ],
  "tags": {
    "alt_name": "Dundee Science Centre",
    "building": "yes",
    "name": "Sensation",
    "source": "OS_OpenData_StreetView",
    "tourism": "museum",
    "wheelchair": "yes"
  }
},
{
  "type": "way",
  "id": 92235562,
  "nodes": [
    1070762179,
    1070762625,
    1070762483,
    1070762237,
    1070762179
  ],
  "tags": {
    "addr:city": "Ceres",
    "addr:postcode": "KY15 5NF",
    "addr:street": "High Street",
    "building": "yes",
    "name": "Fife Folk Museum",
    "source": "OS_OpenData_StreetView",
    "tourism": "museum",
    "website": "http://www.fifefolkmuseum.org/"
  }
},
{
  "type": "way",
  "id": 228938667,
  "nodes": [
    2375868484,
    2375868460,
    2375868449,
    2375868446,
    2375868464,
    5611412996,
    5611412987,
    2375868462,
    2375868470,
    2375868468,
    2375868475,
    2375868473,
    2375868486,
    2375868488,
    2375868482,
    5611412995,
    5611412994,
    5611412993,
    5611412992,
    5611412991,
    5611412988,
    2375868484
  ],
  "tags": {
    "building": "yes",
    "name": "Golf Museum",
    "tourism": "museum",
    "website": "https://www.britishgolfmuseum.co.uk",
    "wikidata": "Q2925727"
  }
},
{
  "type": "way",
  "id": 232547085,
  "nodes": [
    2408923103,
    4031544504,
    4031544498,
    2408923099,
    2408923091,
    2408923112,
    4031544506,
    2408923106,
    2408923113,
    2408923103
  ],
  "tags": {
    "building": "yes",
    "name": "Museum of the University of St Andrews (MUSA)",
    "tourism": "museum"
  }
},
{
  "type": "way",
  "id": 232551845,
  "nodes": [
    2408975650,
    2408975644,
    2408975674,
    2408975640,
    2408975638,
    2408975702,
    2408975719,
    2408975699,
    2408975650
  ],
  "tags": {
    "building": "yes",
    "name": "St Andrews Museum",
    "toilets:wheelchair": "yes",
    "tourism": "museum",
    "wheelchair": "yes"
  }
},
{
  "type": "way",
  "id": 232578469,
  "nodes": [
    6993842144,
    6993842143,
    6993842142,
    6993842141,
    6993842140,
    6993842139,
    6993842138,
    6993842137,
    6993842136,
    2409227991,
    6993842135,
    2409228012,
    2409227980,
    2409228023,
    2409228022,
    2409227978,
    6993841967,
    6993842134,
    6993842144
  ],
  "tags": {
    "building": "yes",
    "name": "St Andrews Castle Visitor's Centre",
    "toilets:wheelchair": "yes",
    "tourism": "museum",
    "wheelchair": "yes"
  }
},
{
  "type": "way",
  "id": 267647050,
  "nodes": [
    2803371052,
    2730846300,
    2730846303,
    2730846306,
    2803371052
  ],
  "tags": {
    "addr:city": "Crail",
    "addr:housenumber": "62 - 64",
    "addr:postcode": "KY10 3TL",
    "addr:street": "Marketgate",
    "building": "yes",
    "name": "Crail Museum and Heritage Centre",
    "tourism": "museum"
  }
},
{
  "type": "way",
  "id": 276046400,
  "nodes": [
    2806902285,
    2806902283,
    2806962765,
    2806902280,
    3134022497,
    2806902281,
    2806902285
  ],
  "tags": {
    "addr:city": "Anstruther",
    "addr:postcode": "KY10 3AB",
    "addr:street": "St Ayles Crescent",
    "building": "yes",
    "name": "Scottish Fisheries Museum",
    "phone": "+44 1333 310628",
    "tourism": "museum",
    "website": "http://www.scotfishmuseum.org/"
  }
},
{
  "type": "way",
  "id": 306904698,
  "nodes": [
    3119288095,
    3119288096,
    3119288087,
    3119288086,
    3119288095
  ],
  "tags": {
    "building": "yes",
    "tourism": "museum"
  }
},
{
  "type": "way",
  "id": 407744946,
  "nodes": [
    4097798188,
    4097798187,
    4097798295,
    4097798300,
    4097798316,
    4097798296,
    4097798297,
    4097798299,
    4097798298,
    4097798188
  ],
  "tags": {
    "addr:city": "Forfar",
    "addr:housenumber": "20",
    "addr:postcode": "DD8 1BB",
    "addr:street": "West High Street",
    "building": "yes",
    "email": "the.meffan@angus.gov.uk",
    "loc_name": "The Meffan",
    "name": "Meffan Institute Museum & Gallery",
    "opening_hours": "Mo-Sa 10:00-17:00",
    "operator": "Angus Council",
    "operator:type": "public",
    "phone": "+44 1307476482",
    "tourism": "museum"
  }
},
{
  "type": "way",
  "id": 408075755,
  "nodes": [
    4100962615,
    4100962520,
    4100962656,
    4100962674,
    4100962633,
    4100962540,
    4100962543,
    4100962586,
    4100962541,
    4100958573,
    4100962516,
    4100962618,
    4100958588,
    4100958575,
    4100962560,
    4100962608,
    4100962615
  ],
  "tags": {
    "addr:city": "Arbroath",
    "addr:postcode": "DD11 1PU",
    "addr:street": "Lady Loan",
    "building": "yes",
    "email": "signal.tower@angus.gov.uk",
    "name": "Signal Tower Museum",
    "opening_hours": "Tu-Sa 10:00-17:00",
    "operator": "Angus Council",
    "phone": "+44 1241464554",
    "tourism": "museum",
    "wikidata": "Q7512699",
    "wikipedia": "en:Signal Tower Museum"
  }
},
{
  "type": "way",
  "id": 460638883,
  "nodes": [
    4562731570,
    4562731567,
    4562731568,
    4562731569,
    4562731570
  ],
  "tags": {
    "addr:city": "Kirkcaldy",
    "addr:housenumber": "1",
    "addr:street": "Adam Smith Close",
    "building": "yes",
    "name": "Adam Smith Heritage Centre",
    "toilets:wheelchair": "yes",
    "tourism": "museum",
    "wheelchair": "yes"
  }
},
{
  "type": "way",
  "id": 473455999,
  "nodes": [
    4675715697,
    4675715706,
    7109880417,
    6041593415,
    6041593411,
    7109880420,
    7109880415,
    4675715705,
    6041593410,
    6041593409,
    5921608167,
    4675715704,
    4675715696,
    4675715703,
    5921608168,
    4675715702,
    4675715701,
    4675715700,
    7109880416,
    4675715699,
    4675715698,
    4675715697
  ],
  "tags": {
    "addr:city": "Dundee",
    "addr:housenumber": "1",
    "addr:postcode": "DD1 4EZ",
    "addr:street": "Riverside Esplanade",
    "building": "yes",
    "building:levels": "3",
    "name": "V&A Dundee",
    "opening_hours": "Mo-Su 10:00-17:00",
    "phone": "+44 1382 411 611",
    "tourism": "museum",
    "website": "https://www.vam.ac.uk/dundee",
    "wheelchair": "yes",
    "wikidata": "Q43674688",
    "wikimedia_commons": "Category:Victoria_and_Albert_Museum,_Dundee",
    "wikipedia": "en:V&A Dundee"
  }
},
{
  "type": "way",
  "id": 492986227,
  "nodes": [
    4849408328,
    4849408329,
    4849408330,
    4849408331,
    4849408328
  ],
  "tags": {
    "addr:city": "Newburgh",
    "addr:housenumber": "120",
    "addr:postcode": "KY14 6DX",
    "addr:street": "High Street",
    "building": "yes",
    "name": "Laing Museum",
    "opening_hours": "We 12:00-16:00",
    "tourism": "museum"
  }
},
{
  "type": "way",
  "id": 561281600,
  "nodes": [
    5412436158,
    5412436159,
    5412436160,
    5412436161,
    5412436158
  ],
  "tags": {
    "addr:city": "Dundee",
    "addr:housenumber": "Unit 10",
    "addr:postcode": "DD1 3LA",
    "addr:street": "Market Mews, Market Street",
    "building": "yes",
    "email": "info@DMofT.co.uk",
    "name": "Dundee Museum of Transport",
    "phone": "+44 1382 455196",
    "tourism": "museum",
    "website": "https://www.dmoft.co.uk/"
  }
},
{
  "type": "way",
  "id": 587498751,
  "nodes": [
    4104059009,
    4104059028,
    4104059014,
    4104059023,
    4104059009
  ],
  "tags": {
    "addr:city": "St Vigeans",
    "addr:housenumber": "2-4",
    "addr:street": "Kirkstyle",
    "building": "yes",
    "name": "St Vigeans Sculptured Stones Museum",
    "operator": "Historic Scotland",
    "tourism": "museum",
    "wikidata": "Q665556",
    "wikipedia": "en:St Vigeans Sculptured Stones Museum"
  }
},
{
  "type": "way",
  "id": 712657652,
  "nodes": [
    6700441499,
    6700441500,
    6700441501,
    6700441502,
    6700441499
  ],
  "tags": {
    "building": "yes",
    "name": "Methil Heritage Centre",
    "tourism": "museum"
  }
},
{
  "type": "node",
  "id": 4562731567,
  "lat": 56.1113885,
  "lon": -3.1562626
},
{
  "type": "node",
  "id": 4562731568,
  "lat": 56.1113601,
  "lon": -3.1561634
},
{
  "type": "node",
  "id": 4562731569,
  "lat": 56.1112367,
  "lon": -3.1562769
},
{
  "type": "node",
  "id": 4562731570,
  "lat": 56.1112652,
  "lon": -3.1563762
},
{
  "type": "node",
  "id": 6700441499,
  "lat": 56.1851062,
  "lon": -3.0097395
},
{
  "type": "node",
  "id": 6700441500,
  "lat": 56.1852147,
  "lon": -3.0098929
},
{
  "type": "node",
  "id": 6700441501,
  "lat": 56.1851368,
  "lon": -3.0100705
},
{
  "type": "node",
  "id": 6700441502,
  "lat": 56.1850284,
  "lon": -3.0099171
},
{
  "type": "node",
  "id": 871797833,
  "lat": 56.0611598,
  "lon": -2.7174171
},
{
  "type": "node",
  "id": 871797865,
  "lat": 56.0614929,
  "lon": -2.7172696
},
{
  "type": "node",
  "id": 871797876,
  "lat": 56.0614841,
  "lon": -2.7174902
},
{
  "type": "node",
  "id": 871797885,
  "lat": 56.0613037,
  "lon": -2.7174497
},
{
  "type": "node",
  "id": 871797892,
  "lat": 56.0615048,
  "lon": -2.7173923
},
{
  "type": "node",
  "id": 871797895,
  "lat": 56.0613226,
  "lon": -2.7172043
},
{
  "type": "node",
  "id": 871797911,
  "lat": 56.0611441,
  "lon": -2.7173662
},
{
  "type": "node",
  "id": 871797912,
  "lat": 56.0613339,
  "lon": -2.7174947
},
{
  "type": "node",
  "id": 871797919,
  "lat": 56.0611297,
  "lon": -2.7173326
},
{
  "type": "node",
  "id": 871797932,
  "lat": 56.0614678,
  "lon": -2.7175161
},
{
  "type": "node",
  "id": 871797938,
  "lat": 56.0612817,
  "lon": -2.7174204
},
{
  "type": "node",
  "id": 871797944,
  "lat": 56.0615048,
  "lon": -2.7173225
},
{
  "type": "node",
  "id": 871797951,
  "lat": 56.0614326,
  "lon": -2.7175420
},
{
  "type": "node",
  "id": 871797957,
  "lat": 56.0613760,
  "lon": -2.7171694
},
{
  "type": "node",
  "id": 871797970,
  "lat": 56.0611447,
  "lon": -2.7172673
},
{
  "type": "node",
  "id": 871797982,
  "lat": 56.0613861,
  "lon": -2.7175443
},
{
  "type": "node",
  "id": 871797988,
  "lat": 56.0612465,
  "lon": -2.7174024
},
{
  "type": "node",
  "id": 871797992,
  "lat": 56.0614370,
  "lon": -2.7171795
},
{
  "type": "node",
  "id": 871798001,
  "lat": 56.0614967,
  "lon": -2.7174576
},
{
  "type": "node",
  "id": 871798011,
  "lat": 56.0612000,
  "lon": -2.7172775
},
{
  "type": "node",
  "id": 871798017,
  "lat": 56.0614722,
  "lon": -2.7172178
},
{
  "type": "node",
  "id": 871798027,
  "lat": 56.0612208,
  "lon": -2.7174035
},
{
  "type": "node",
  "id": 871798034,
  "lat": 56.0612528,
  "lon": -2.7172651
},
{
  "type": "node",
  "id": 871798044,
  "lat": 56.0613565,
  "lon": -2.7175319
},
{
  "type": "node",
  "id": 6782552548,
  "lat": 56.0612882,
  "lon": -2.7172343
},
{
  "type": "node",
  "id": 4849408328,
  "lat": 56.3510426,
  "lon": -3.2414163
},
{
  "type": "node",
  "id": 4849408329,
  "lat": 56.3508990,
  "lon": -3.2414013
},
{
  "type": "node",
  "id": 4849408330,
  "lat": 56.3509036,
  "lon": -3.2412572
},
{
  "type": "node",
  "id": 4849408331,
  "lat": 56.3510472,
  "lon": -3.2412722
},
{
  "type": "node",
  "id": 1070762179,
  "lat": 56.2919116,
  "lon": -2.9705763
},
{
  "type": "node",
  "id": 1070762237,
  "lat": 56.2919295,
  "lon": -2.9704583
},
{
  "type": "node",
  "id": 1070762483,
  "lat": 56.2917702,
  "lon": -2.9703794
},
{
  "type": "node",
  "id": 1070762625,
  "lat": 56.2917522,
  "lon": -2.9704973
},
{
  "type": "node",
  "id": 891093882,
  "lat": 56.4561524,
  "lon": -2.9758517
},
{
  "type": "node",
  "id": 891093895,
  "lat": 56.4560526,
  "lon": -2.9756739
},
{
  "type": "node",
  "id": 891093904,
  "lat": 56.4562171,
  "lon": -2.9753727
},
{
  "type": "node",
  "id": 621471834,
  "lat": 56.4617131,
  "lon": -2.9741769
},
{
  "type": "node",
  "id": 621471849,
  "lat": 56.4617701,
  "lon": -2.9742516
},
{
  "type": "node",
  "id": 621471851,
  "lat": 56.4617675,
  "lon": -2.9742302
},
{
  "type": "node",
  "id": 621471853,
  "lat": 56.4614602,
  "lon": -2.9742821
},
{
  "type": "node",
  "id": 641880660,
  "lat": 56.4616966,
  "lon": -2.9741595
},
{
  "type": "node",
  "id": 891093893,
  "lat": 56.4566093,
  "lon": -2.9750499
},
{
  "type": "node",
  "id": 891093931,
  "lat": 56.4561499,
  "lon": -2.9752196
},
{
  "type": "node",
  "id": 891093936,
  "lat": 56.4564691,
  "lon": -2.9747760
},
{
  "type": "node",
  "id": 1015943287,
  "lat": 56.4565036,
  "lon": -2.9748433
},
{
  "type": "node",
  "id": 6938485302,
  "lat": 56.4615762,
  "lon": -2.9740592
},
{
  "type": "node",
  "id": 6938485303,
  "lat": 56.4615817,
  "lon": -2.9740535
},
{
  "type": "node",
  "id": 6938485304,
  "lat": 56.4615862,
  "lon": -2.9740535
},
{
  "type": "node",
  "id": 6938485305,
  "lat": 56.4616472,
  "lon": -2.9741118
},
{
  "type": "node",
  "id": 6938485306,
  "lat": 56.4616506,
  "lon": -2.9741002
},
{
  "type": "node",
  "id": 6938485307,
  "lat": 56.4616661,
  "lon": -2.9741152
},
{
  "type": "node",
  "id": 6938485308,
  "lat": 56.4616627,
  "lon": -2.9741269
},
{
  "type": "node",
  "id": 6938485309,
  "lat": 56.4616993,
  "lon": -2.9741502
},
{
  "type": "node",
  "id": 6938485310,
  "lat": 56.4617162,
  "lon": -2.9741664
},
{
  "type": "node",
  "id": 6938485316,
  "lat": 56.4615193,
  "lon": -2.9743830
},
{
  "type": "node",
  "id": 6938485317,
  "lat": 56.4615682,
  "lon": -2.9744649
},
{
  "type": "node",
  "id": 6938485318,
  "lat": 56.4617206,
  "lon": -2.9745517
},
{
  "type": "node",
  "id": 4675715696,
  "lat": 56.4578078,
  "lon": -2.9666972
},
{
  "type": "node",
  "id": 4675715697,
  "lat": 56.4566116,
  "lon": -2.9669633
},
{
  "type": "node",
  "id": 4675715698,
  "lat": 56.4570471,
  "lon": -2.9664936
},
{
  "type": "node",
  "id": 4675715699,
  "lat": 56.4571779,
  "lon": -2.9666214
},
{
  "type": "node",
  "id": 4675715700,
  "lat": 56.4573012,
  "lon": -2.9662079
},
{
  "type": "node",
  "id": 4675715701,
  "lat": 56.4574413,
  "lon": -2.9663448
},
{
  "type": "node",
  "id": 4675715702,
  "lat": 56.4575701,
  "lon": -2.9662404
},
{
  "type": "node",
  "id": 4675715703,
  "lat": 56.4575619,
  "lon": -2.9664566
},
{
  "type": "node",
  "id": 4675715704,
  "lat": 56.4576559,
  "lon": -2.9672882
},
{
  "type": "node",
  "id": 4675715705,
  "lat": 56.4573418,
  "lon": -2.9669968
},
{
  "type": "node",
  "id": 4675715706,
  "lat": 56.4572211,
  "lon": -2.9674843
},
{
  "type": "node",
  "id": 5921608167,
  "lat": 56.4575306,
  "lon": -2.9671876
},
{
  "type": "node",
  "id": 5921608168,
  "lat": 56.4575652,
  "lon": -2.9663904
},
{
  "type": "node",
  "id": 6041593409,
  "lat": 56.4573918,
  "lon": -2.9670780
},
{
  "type": "node",
  "id": 6041593410,
  "lat": 56.4574006,
  "lon": -2.9670460
},
{
  "type": "node",
  "id": 6041593411,
  "lat": 56.4572670,
  "lon": -2.9672539
},
{
  "type": "node",
  "id": 6041593415,
  "lat": 56.4572828,
  "lon": -2.9672706
},
{
  "type": "node",
  "id": 7109880415,
  "lat": 56.4573259,
  "lon": -2.9670513
},
{
  "type": "node",
  "id": 7109880416,
  "lat": 56.4572174,
  "lon": -2.9664890
},
{
  "type": "node",
  "id": 7109880417,
  "lat": 56.4572314,
  "lon": -2.9674488
},
{
  "type": "node",
  "id": 7109880420,
  "lat": 56.4572949,
  "lon": -2.9671580
},
{
  "type": "node",
  "id": 5412436158,
  "lat": 56.4662785,
  "lon": -2.9493778
},
{
  "type": "node",
  "id": 5412436160,
  "lat": 56.4667587,
  "lon": -2.9492694
},
{
  "type": "node",
  "id": 5412436161,
  "lat": 56.4667243,
  "lon": -2.9495895
},
{
  "type": "node",
  "id": 5412436159,
  "lat": 56.4663259,
  "lon": -2.9490506
},
{
  "type": "node",
  "id": 2408975638,
  "lat": 56.3397447,
  "lon": -2.8053440
},
{
  "type": "node",
  "id": 2408975640,
  "lat": 56.3397803,
  "lon": -2.8052608
},
{
  "type": "node",
  "id": 2408975644,
  "lat": 56.3395856,
  "lon": -2.8054057
},
{
  "type": "node",
  "id": 2408975650,
  "lat": 56.3396674,
  "lon": -2.8055264
},
{
  "type": "node",
  "id": 2408975674,
  "lat": 56.3396956,
  "lon": -2.8051375
},
{
  "type": "node",
  "id": 2408975699,
  "lat": 56.3397108,
  "lon": -2.8054144
},
{
  "type": "node",
  "id": 2408975702,
  "lat": 56.3397673,
  "lon": -2.8053715
},
{
  "type": "node",
  "id": 2408975719,
  "lat": 56.3397372,
  "lon": -2.8054459
},
{
  "type": "node",
  "id": 2375868446,
  "lat": 56.3437884,
  "lon": -2.8018322
},
{
  "type": "node",
  "id": 2375868449,
  "lat": 56.3438444,
  "lon": -2.8019305
},
{
  "type": "node",
  "id": 2375868460,
  "lat": 56.3440570,
  "lon": -2.8019168
},
{
  "type": "node",
  "id": 2375868462,
  "lat": 56.3438379,
  "lon": -2.8016116
},
{
  "type": "node",
  "id": 2375868464,
  "lat": 56.3438417,
  "lon": -2.8017408
},
{
  "type": "node",
  "id": 2375868468,
  "lat": 56.3439185,
  "lon": -2.8011038
},
{
  "type": "node",
  "id": 2375868470,
  "lat": 56.3439264,
  "lon": -2.8016061
},
{
  "type": "node",
  "id": 2375868473,
  "lat": 56.3439515,
  "lon": -2.8010716
},
{
  "type": "node",
  "id": 2375868475,
  "lat": 56.3439526,
  "lon": -2.8011038
},
{
  "type": "node",
  "id": 2375868482,
  "lat": 56.3439945,
  "lon": -2.8011852
},
{
  "type": "node",
  "id": 2375868484,
  "lat": 56.3441100,
  "lon": -2.8018175
},
{
  "type": "node",
  "id": 2375868486,
  "lat": 56.3440155,
  "lon": -2.8010470
},
{
  "type": "node",
  "id": 2375868488,
  "lat": 56.3440312,
  "lon": -2.8011700
},
{
  "type": "node",
  "id": 5611412987,
  "lat": 56.3438409,
  "lon": -2.8017118
},
{
  "type": "node",
  "id": 5611412988,
  "lat": 56.3440529,
  "lon": -2.8017278
},
{
  "type": "node",
  "id": 5611412991,
  "lat": 56.3440068,
  "lon": -2.8017302
},
{
  "type": "node",
  "id": 5611412992,
  "lat": 56.3440062,
  "lon": -2.8016165
},
{
  "type": "node",
  "id": 5611412993,
  "lat": 56.3440448,
  "lon": -2.8016182
},
{
  "type": "node",
  "id": 5611412994,
  "lat": 56.3440373,
  "lon": -2.8015639
},
{
  "type": "node",
  "id": 5611412995,
  "lat": 56.3440038,
  "lon": -2.8015668
},
{
  "type": "node",
  "id": 5611412996,
  "lat": 56.3438414,
  "lon": -2.8017259
},
{
  "type": "node",
  "id": 2408923091,
  "lat": 56.3427892,
  "lon": -2.7940196
},
{
  "type": "node",
  "id": 2408923099,
  "lat": 56.3427922,
  "lon": -2.7941323
},
{
  "type": "node",
  "id": 2408923103,
  "lat": 56.3430717,
  "lon": -2.7940626
},
{
  "type": "node",
  "id": 2408923106,
  "lat": 56.3428398,
  "lon": -2.7938909
},
{
  "type": "node",
  "id": 2408923112,
  "lat": 56.3428487,
  "lon": -2.7940035
},
{
  "type": "node",
  "id": 2408923113,
  "lat": 56.3430555,
  "lon": -2.7938381
},
{
  "type": "node",
  "id": 4031544498,
  "lat": 56.3428601,
  "lon": -2.7941154
},
{
  "type": "node",
  "id": 4031544504,
  "lat": 56.3429197,
  "lon": -2.7941005
},
{
  "type": "node",
  "id": 4031544506,
  "lat": 56.3428424,
  "lon": -2.7939233
},
{
  "type": "node",
  "id": 2409227978,
  "lat": 56.3419385,
  "lon": -2.7908794
},
{
  "type": "node",
  "id": 2409227980,
  "lat": 56.3421020,
  "lon": -2.7910729
},
{
  "type": "node",
  "id": 2409227991,
  "lat": 56.3420451,
  "lon": -2.7913210
},
{
  "type": "node",
  "id": 2409228012,
  "lat": 56.3421081,
  "lon": -2.7912123
},
{
  "type": "node",
  "id": 2409228022,
  "lat": 56.3420520,
  "lon": -2.7909059
},
{
  "type": "node",
  "id": 2409228023,
  "lat": 56.3420774,
  "lon": -2.7910350
},
{
  "type": "node",
  "id": 3119288086,
  "lat": 56.3393156,
  "lon": -2.7875823
},
{
  "type": "node",
  "id": 3119288087,
  "lat": 56.3393172,
  "lon": -2.7874339
},
{
  "type": "node",
  "id": 3119288095,
  "lat": 56.3395351,
  "lon": -2.7875900
},
{
  "type": "node",
  "id": 3119288096,
  "lat": 56.3395367,
  "lon": -2.7874415
},
{
  "type": "node",
  "id": 6993841967,
  "lat": 56.3419370,
  "lon": -2.7908828
},
{
  "type": "node",
  "id": 6993842134,
  "lat": 56.3419219,
  "lon": -2.7909186
},
{
  "type": "node",
  "id": 6993842135,
  "lat": 56.3420671,
  "lon": -2.7912992
},
{
  "type": "node",
  "id": 6993842136,
  "lat": 56.3420210,
  "lon": -2.7912422
},
{
  "type": "node",
  "id": 6993842137,
  "lat": 56.3420153,
  "lon": -2.7912236
},
{
  "type": "node",
  "id": 6993842138,
  "lat": 56.3419848,
  "lon": -2.7912540
},
{
  "type": "node",
  "id": 6993842139,
  "lat": 56.3419564,
  "lon": -2.7911613
},
{
  "type": "node",
  "id": 6993842140,
  "lat": 56.3419869,
  "lon": -2.7911309
},
{
  "type": "node",
  "id": 6993842141,
  "lat": 56.3419689,
  "lon": -2.7910720
},
{
  "type": "node",
  "id": 6993842142,
  "lat": 56.3419384,
  "lon": -2.7911024
},
{
  "type": "node",
  "id": 6993842143,
  "lat": 56.3419027,
  "lon": -2.7909861
},
{
  "type": "node",
  "id": 6993842144,
  "lat": 56.3419333,
  "lon": -2.7909558
},
{
  "type": "node",
  "id": 2806902280,
  "lat": 56.2218573,
  "lon": -2.6970945
},
{
  "type": "node",
  "id": 2806902281,
  "lat": 56.2218846,
  "lon": -2.6972276
},
{
  "type": "node",
  "id": 2806902283,
  "lat": 56.2219251,
  "lon": -2.6970644
},
{
  "type": "node",
  "id": 2806902285,
  "lat": 56.2219506,
  "lon": -2.6971801
},
{
  "type": "node",
  "id": 2806962765,
  "lat": 56.2218858,
  "lon": -2.6970818
},
{
  "type": "node",
  "id": 3134022497,
  "lat": 56.2218680,
  "lon": -2.6971508
},
{
  "type": "node",
  "id": 2730846300,
  "lat": 56.2607657,
  "lon": -2.6261670
},
{
  "type": "node",
  "id": 2730846303,
  "lat": 56.2607303,
  "lon": -2.6262158
},
{
  "type": "node",
  "id": 2730846306,
  "lat": 56.2607544,
  "lon": -2.6262726
},
{
  "type": "node",
  "id": 2803371052,
  "lat": 56.2607898,
  "lon": -2.6262238
},
{
  "type": "node",
  "id": 4100958573,
  "lat": 56.5545555,
  "lon": -2.5863296
},
{
  "type": "node",
  "id": 4100958575,
  "lat": 56.5546489,
  "lon": -2.5867760
},
{
  "type": "node",
  "id": 4100958588,
  "lat": 56.5545646,
  "lon": -2.5865266
},
{
  "type": "node",
  "id": 4100962516,
  "lat": 56.5544848,
  "lon": -2.5864139
},
{
  "type": "node",
  "id": 4100962520,
  "lat": 56.5548485,
  "lon": -2.5865078
},
{
  "type": "node",
  "id": 4100962540,
  "lat": 56.5546873,
  "lon": -2.5861806
},
{
  "type": "node",
  "id": 4100962541,
  "lat": 56.5545484,
  "lon": -2.5862959
},
{
  "type": "node",
  "id": 4100962543,
  "lat": 56.5546430,
  "lon": -2.5862315
},
{
  "type": "node",
  "id": 4100962560,
  "lat": 56.5546208,
  "lon": -2.5868109
},
{
  "type": "node",
  "id": 4100962586,
  "lat": 56.5546297,
  "lon": -2.5862020
},
{
  "type": "node",
  "id": 4100962608,
  "lat": 56.5546604,
  "lon": -2.5869170
},
{
  "type": "node",
  "id": 4100962615,
  "lat": 56.5548972,
  "lon": -2.5866097
},
{
  "type": "node",
  "id": 4100962618,
  "lat": 56.5545274,
  "lon": -2.5865495
},
{
  "type": "node",
  "id": 4100962633,
  "lat": 56.5547435,
  "lon": -2.5862905
},
{
  "type": "node",
  "id": 4100962656,
  "lat": 56.5546785,
  "lon": -2.5867331
},
{
  "type": "node",
  "id": 4100962674,
  "lat": 56.5545957,
  "lon": -2.5864837
},
{
  "type": "node",
  "id": 4104059009,
  "lat": 56.5770225,
  "lon": -2.5904050
},
{
  "type": "node",
  "id": 4104059014,
  "lat": 56.5770255,
  "lon": -2.5902294
},
{
  "type": "node",
  "id": 4104059023,
  "lat": 56.5769901,
  "lon": -2.5903500
},
{
  "type": "node",
  "id": 4104059028,
  "lat": 56.5770654,
  "lon": -2.5902630
},
{
  "type": "node",
  "id": 4097798187,
  "lat": 56.6441652,
  "lon": -2.8894302
},
{
  "type": "node",
  "id": 4097798188,
  "lat": 56.6440180,
  "lon": -2.8892913
},
{
  "type": "node",
  "id": 4097798295,
  "lat": 56.6442766,
  "lon": -2.8895330
},
{
  "type": "node",
  "id": 4097798296,
  "lat": 56.6441227,
  "lon": -2.8895880
},
{
  "type": "node",
  "id": 4097798297,
  "lat": 56.6441056,
  "lon": -2.8896366
},
{
  "type": "node",
  "id": 4097798298,
  "lat": 56.6439486,
  "lon": -2.8895044
},
{
  "type": "node",
  "id": 4097798299,
  "lat": 56.6440175,
  "lon": -2.8895763
},
{
  "type": "node",
  "id": 4097798300,
  "lat": 56.6442218,
  "lon": -2.8897162
},
{
  "type": "node",
  "id": 4097798316,
  "lat": 56.6441600,
  "lon": -2.8896363
}

  ]
}
