{
  "version": 0.6,
  "generator": "Overpass API 0.7.55.9 ab41fea6",
  "osm3s": {
    "timestamp_osm_base": "2020-02-14T11:20:02Z",
    "copyright": "The data included in this document is from www.openstreetmap.org. The data is made available under ODbL."
  },
  "elements": [

{
  "type": "node",
  "id": 278304956,
  "lat": 48.8916235,
  "lon": 14.6064708,
  "tags": {
    "name": "Památník Jana Žižky",
    "name:de": "Jan-Žižka-Denkmal",
    "source": "survey",
    "tourism": "museum",
    "wikidata": "Q1681558",
    "wikipedia": "cs:Památník Jana Žižky z Trocnova"
  }
},
{
  "type": "node",
  "id": 302704019,
  "lat": 48.8150425,
  "lon": 13.8811695,
  "tags": {
    "addr:city": "Nová Pec",
    "addr:conscriptionnumber": "13",
    "addr:country": "CZ",
    "addr:housenumber": "13",
    "addr:place": "Bělá",
    "addr:postcode": "38451",
    "description": "v turistické sezóně každý den od 08:00 do 17:00 hodin",
    "name": "KANÁL EXPO",
    "ref:ruian:addr": "40080188",
    "source:addr": "cuzk:ruian",
    "tourism": "museum",
    "website": "http://www.schw-kan.com/"
  }
},
{
  "type": "node",
  "id": 309765220,
  "lat": 48.9689671,
  "lon": 14.4841005,
  "tags": {
    "name": "Muzeum energetiky",
    "tourism": "museum"
  }
},
{
  "type": "node",
  "id": 324819615,
  "lat": 48.6455544,
  "lon": 13.9716430,
  "tags": {
    "addr:city": "Aigen-Schlägl",
    "addr:country": "AT",
    "addr:housenumber": "8",
    "addr:postcode": "4160",
    "addr:street": "Kirchengasse",
    "name": "Vogelmuseum",
    "tourism": "museum"
  }
},
{
  "type": "node",
  "id": 324991313,
  "lat": 48.9683835,
  "lon": 14.4717720,
  "tags": {
    "created_by": "Potlatch 0.10f",
    "name": "Muzeum koňspřežky",
    "tourism": "museum"
  }
},
{
  "type": "node",
  "id": 415299752,
  "lat": 48.5817563,
  "lon": 13.9871521,
  "tags": {
    "name": "Mühlkreisbahnmuseum",
    "tourism": "museum"
  }
},
{
  "type": "node",
  "id": 429896402,
  "lat": 49.0122648,
  "lon": 13.9982122,
  "tags": {
    "addr:city": "Prachatice",
    "addr:conscriptionnumber": "178",
    "addr:country": "CZ",
    "addr:housenumber": "178",
    "addr:postcode": "38301",
    "addr:street": "Poštovní",
    "is_in": "Prachatice I, Prachatice, Jihočeský kraj, CZ",
    "name": "Muzeum krajky",
    "name:en": "Museum of Bobbin Laces",
    "phone": "286580282",
    "ref:ruian": "17696798",
    "source:addr": "ruian",
    "tourism": "museum"
  }
},
{
  "type": "node",
  "id": 663658441,
  "lat": 48.5227765,
  "lon": 14.2926768,
  "tags": {
    "name": "Schulmuseum",
    "tourism": "museum"
  }
},
{
  "type": "node",
  "id": 793020279,
  "lat": 48.7077947,
  "lon": 13.9785153,
  "tags": {
    "name": "Böhmerwaldschule",
    "tourism": "museum",
    "website": "http://www.boehmerwaldschule.at"
  }
},
{
  "type": "node",
  "id": 1331082763,
  "lat": 49.0149121,
  "lon": 14.6160542,
  "tags": {
    "name": "Muzeum starých hudebních přístrojů",
    "tourism": "museum"
  }
},
{
  "type": "node",
  "id": 1334395533,
  "lat": 49.0133431,
  "lon": 13.9982287,
  "tags": {
    "name": "Prachatické muzeum",
    "tourism": "museum"
  }
},
{
  "type": "node",
  "id": 1334399574,
  "lat": 49.0124268,
  "lon": 13.9980611,
  "tags": {
    "addr:city": "Prachatice",
    "addr:housenumber": "43",
    "addr:postcode": "38301",
    "addr:street": "Velké náměstí",
    "name": "Muzeum loutek",
    "opening_hours": "Tu-Su 09:00-17:00",
    "tourism": "museum"
  }
},
{
  "type": "node",
  "id": 1412069610,
  "lat": 48.5754916,
  "lon": 14.0380319,
  "tags": {
    "addr:city": "Haslach an der Mühl",
    "addr:country": "AT",
    "addr:housenumber": "15",
    "addr:postcode": "4170",
    "addr:street": "Stelzen",
    "name": "Mechanische Klangfabrik",
    "tourism": "museum"
  }
},
{
  "type": "node",
  "id": 1547743664,
  "lat": 48.8083047,
  "lon": 14.3164264,
  "tags": {
    "addr:city": "Český Krumlov",
    "addr:conscriptionnumber": "272",
    "addr:country": "CZ",
    "addr:housenumber": "272",
    "addr:place": "Plešivec",
    "addr:postcode": "38101",
    "addr:street": "Linecká",
    "name": "Museum Fotoateliér Seidel",
    "name:ru": "Музей Фотоателье Сайдел",
    "phone": "+420 736 503 871",
    "ref:ruian:addr": "8683280",
    "source:addr": "cuzk:ruian",
    "tourism": "museum",
    "website": "http://www.seidel.cz/",
    "wikidata": "Q19962627",
    "wikipedia": "cs:Muzeum Fotoateliér Seidel"
  }
},
{
  "type": "node",
  "id": 1574133943,
  "lat": 48.8119215,
  "lon": 14.3163445,
  "tags": {
    "addr:city": "Český Krumlov",
    "addr:conscriptionnumber": "6",
    "addr:country": "CZ",
    "addr:housenumber": "6",
    "addr:place": "Latrán",
    "addr:postcode": "38101",
    "addr:street": "Latrán",
    "name": "Muzeum marionet",
    "name:de": "Marionettenmuseum",
    "name:en": "Marionette Museum",
    "name:ru": "Музей марионеток",
    "phone": "+420 380 711 175",
    "ref:ruian:addr": "8672393",
    "source:addr": "cuzk:ruian",
    "tourism": "museum",
    "website": "https://marionettemuseum.cz/"
  }
},
{
  "type": "node",
  "id": 1615702809,
  "lat": 48.6958941,
  "lon": 13.8796983,
  "tags": {
    "name": "Wagnermuseum",
    "tourism": "museum"
  }
},
{
  "type": "node",
  "id": 2112049749,
  "lat": 48.5766092,
  "lon": 14.0389979,
  "tags": {
    "name": "Heimathaus Haslach, Museum",
    "operator": "Heimatverein haslach",
    "tourism": "museum"
  }
},
{
  "type": "node",
  "id": 2113930578,
  "lat": 48.5755594,
  "lon": 14.0372229,
  "tags": {
    "addr:city": "Haslach an der Mühl",
    "addr:country": "AT",
    "addr:housenumber": "4",
    "addr:postcode": "4170",
    "addr:street": "Stahlmühle",
    "name": "Webereimuseum",
    "tourism": "museum"
  }
},
{
  "type": "node",
  "id": 2820497107,
  "lat": 48.8112717,
  "lon": 14.3144773,
  "tags": {
    "addr:city": "Český Krumlov",
    "addr:housenumber": "19",
    "addr:postcode": "381 01",
    "addr:street": "Panská",
    "name": "Muzeum vltavínů",
    "name:de": "Moldavitmuseum",
    "name:en": "Moldavite Museum",
    "name:ru": "Музей влтавинов",
    "operator": "Občanské sdružení Muzeum Vltavínů",
    "phone": "+420 734 174 130",
    "tourism": "museum",
    "website": "https://www.vltaviny.cz/"
  }
},
{
  "type": "node",
  "id": 3124544656,
  "lat": 48.8113926,
  "lon": 14.3151721,
  "tags": {
    "addr:city": "Český Krumlov",
    "addr:conscriptionnumber": "29",
    "addr:country": "CZ",
    "addr:housenumber": "29",
    "addr:place": "Vnitřní Město",
    "addr:postcode": "38101",
    "addr:street": "Radniční",
    "name": "Muzeum loutek - Pohádkový dům",
    "name:en": "Puppet Musium - Fairytale house",
    "name:ru": "Музей театральных кукол - Дом сказки",
    "phone": "+420 723 325 262",
    "ref:ruian:addr": "8760985",
    "source:addr": "cuzk:ruian",
    "tourism": "museum",
    "website": "http://krumlovskainspirace.cz/expozice/pohadkovy-dum-muzeum-loutek"
  }
},
{
  "type": "node",
  "id": 3124544658,
  "lat": 48.8102908,
  "lon": 14.3138706,
  "tags": {
    "addr:city": "Český Krumlov",
    "addr:housenumber": "68",
    "addr:postcode": "381 01",
    "addr:street": "Kájovská",
    "name": "Wax museum",
    "name:cs": "Muzeum voskových figurín",
    "name:en": "Wax museum",
    "name:ru": "Музей восковых фигур",
    "tourism": "museum"
  }
},
{
  "type": "node",
  "id": 3124544659,
  "lat": 48.8109329,
  "lon": 14.3150284,
  "tags": {
    "addr:city": "Český Krumlov",
    "addr:housenumber": "1",
    "addr:postcode": "381 01",
    "addr:street": "náměstí Svornosti",
    "name": "Muzeum útrpného práva",
    "name:en": "Museum of torture",
    "name:ru": "Музей пыток",
    "tourism": "museum",
    "website": "https://www.ckrumlov.cz/museumtortury"
  }
},
{
  "type": "node",
  "id": 3729657712,
  "lat": 48.6207341,
  "lon": 14.3076048,
  "tags": {
    "addr:city": "Vyšší Brod",
    "addr:conscriptionnumber": "136",
    "addr:country": "CZ",
    "addr:housenumber": "136",
    "addr:place": "Vyšší Brod",
    "addr:postcode": "38273",
    "addr:street": "Klášter",
    "name": "Poštovní muzeum",
    "phone": "+420 380 746 679",
    "ref:ruian:addr": "8753661",
    "source:addr": "cuzk:ruian",
    "tourism": "museum",
    "website": "https://www.postovnimuzeum.cz/",
    "wheelchair": "no"
  }
},
{
  "type": "node",
  "id": 3755394730,
  "lat": 48.8169722,
  "lon": 14.3047715,
  "tags": {
    "addr:city": "Český Krumlov",
    "addr:conscriptionnumber": "243",
    "addr:country": "CZ",
    "addr:housenumber": "243",
    "addr:place": "Latrán",
    "addr:postcode": "38101",
    "addr:street": "Chvalšinská",
    "charge": "160 Kč",
    "description": "je doporučováno teplé oblečení s sebou, v dole je cca 10 °C",
    "email": "grafitovydul@seznam.cz",
    "facebook": "https://www.facebook.com/Grafitový-důl-Český-Krumlov-464466180353105/",
    "fee": "yes",
    "name": "Grafitový důl",
    "name:de": "Graphitbergwerk",
    "name:en": "Graphite Mine",
    "name:ru": "Графитовый рудник",
    "operator": "Grafitový důl Český Krumlov spol. s r.o.",
    "operator:type": "public",
    "payment:cash": "yes",
    "payment:credit_cards": "yes",
    "phone": "+420 380 711 199",
    "ref:ruian:addr": "25920359",
    "source:addr": "cuzk:ruian",
    "start_date": "1975",
    "tourism": "museum",
    "website": "http://www.grafitovydul.cz/",
    "wheelchair": "no",
    "wikidata": "Q11081943",
    "wikipedia": "cs:Grafitový důl v Českém Krumlově"
  }
},
{
  "type": "node",
  "id": 3922206103,
  "lat": 48.8572084,
  "lon": 14.4870721,
  "tags": {
    "name": "Muzeum Roubenka",
    "tourism": "museum"
  }
},
{
  "type": "node",
  "id": 4197809958,
  "lat": 49.0417735,
  "lon": 14.4222164,
  "tags": {
    "name": "Národní zemědělské muzeum",
    "tourism": "museum"
  }
},
{
  "type": "node",
  "id": 4198796602,
  "lat": 48.8072764,
  "lon": 14.3164050,
  "tags": {
    "addr:city": "Český Krumlov",
    "addr:conscriptionnumber": "8",
    "addr:country": "CZ",
    "addr:housenumber": "343",
    "addr:place": "Lachovice",
    "addr:postcode": "381 01",
    "addr:street": "Linecká",
    "email": "office@schieleartcentrum.cz",
    "name": "Egon Schiele Atelier",
    "name:ru": "Ателье Эгона Шиле",
    "phone": "+420 380 704 011",
    "ref:ruian:addr": "8751587",
    "source:addr": "cuzk:ruian",
    "tourism": "museum",
    "website": "http://www.schieleartcentrum.cz/"
  }
},
{
  "type": "node",
  "id": 4198796603,
  "lat": 48.8130733,
  "lon": 14.3147578,
  "tags": {
    "addr:city": "Český Krumlov",
    "addr:postcode": "381 01",
    "addr:street": "Zámek",
    "name": "Galerie české kultury",
    "name:cz": "Galerie české kultury",
    "name:en": "Czech Culture Gallery",
    "name:ru": "Галерея чешской культуры",
    "tourism": "museum",
    "wheelchair": "no"
  }
},
{
  "type": "node",
  "id": 4198796605,
  "lat": 48.8122248,
  "lon": 14.3158332,
  "tags": {
    "addr:city": "Český Krumlov",
    "addr:country": "CZ",
    "addr:postcode": "38101",
    "addr:street": "Zámek",
    "name": "Hradní muzeum",
    "name:cz": "Hradní muzeum",
    "name:de": "Schlossmuseum",
    "name:en": "Castle museum",
    "name:ru": "Замковый музей",
    "phone": "+420 380 704 721",
    "tourism": "museum",
    "website": "https://www.zamek-ceskykrumlov.eu/"
  }
},
{
  "type": "node",
  "id": 4198796606,
  "lat": 48.8128064,
  "lon": 14.3133643,
  "tags": {
    "addr:city": "Český Krumlov",
    "addr:postcode": "381 01",
    "addr:street": "Zámek",
    "name": "Mezinárodní galerie výtvarného umění",
    "name:cz": "Mezinárodní galerie výtvarného umění",
    "name:de": "Internationale Ausstellung der feinen Künste",
    "name:en": "International Art Gallery of fine art",
    "name:ru": "Международная галерея изобразительного искусства",
    "tourism": "museum"
  }
},
{
  "type": "node",
  "id": 4395415684,
  "lat": 48.6617427,
  "lon": 14.1663993,
  "tags": {
    "addr:city": "Frymburk",
    "addr:conscriptionnumber": "5",
    "addr:country": "CZ",
    "addr:housenumber": "5",
    "addr:place": "Frymburk",
    "addr:postcode": "38279",
    "name": "Muzeum Frymburk",
    "ref:ruian:addr": "8691185",
    "source:addr": "cuzk:ruian",
    "tourism": "museum",
    "website": "https://www.ifrymburk.info/"
  }
},
{
  "type": "node",
  "id": 4407747935,
  "lat": 48.8133815,
  "lon": 14.3165314,
  "tags": {
    "addr:city": "Český Krumlov",
    "addr:country": "CZ",
    "addr:housenumber": "65",
    "addr:place": "Latrán",
    "addr:postcode": "38101",
    "addr:street": "Zámek",
    "email": "info@lucistnice.cz",
    "facebook": "https://www.facebook.com/zameckakovarna.cz/",
    "name": "Zámecká kovárna",
    "name:de": "Schlossschmiede",
    "operator": "Lucistnice.cz s.r.o.",
    "phone": "+420 603 210 753",
    "tourism": "museum",
    "website": "http://www.zameckakovarna.com/"
  }
},
{
  "type": "node",
  "id": 4708089616,
  "lat": 48.7657897,
  "lon": 14.1766001,
  "tags": {
    "name": "Muzeum radiopřijímačů",
    "opening_hours": "Jun - Sep Mo-Su 07:00-17:00 || \"tel. +420 601 272 163\"",
    "operator": "obec Hořice na Šumavě",
    "phone": "+420 601 272 163",
    "tourism": "museum",
    "website": "http://www.ckrumlov.cz/cz1250/region/soucas/i_muraho.htm"
  }
},
{
  "type": "node",
  "id": 4708089618,
  "lat": 48.7658074,
  "lon": 14.1767181,
  "tags": {
    "name": "Muzeum pašijových her",
    "opening_hours": "Jun - Sep Mo-Su 07:00-17:00 || \"tel. +420 601 272 163\"",
    "operator": "obec Hořice na Šumavě",
    "phone": "+420 601 272 163",
    "tourism": "museum",
    "website": "http://www.ckrumlov.cz/cz1250/region/soucas/i_mupaho.htm"
  }
},
{
  "type": "node",
  "id": 4711360652,
  "lat": 48.8125424,
  "lon": 14.3123679,
  "tags": {
    "addr:city": "Český Krumlov",
    "addr:country": "CZ",
    "addr:housenumber": "177",
    "addr:postcode": "38101",
    "addr:street": "Zámek",
    "name": "Zámecké barokní divadlo",
    "name:de": "Barocktheater",
    "phone": "+420 380 704 721",
    "tourism": "museum",
    "website": "https://www.zamek-ceskykrumlov.eu/",
    "wikidata": "Q6140001",
    "wikipedia": "cs:Zámecké barokní divadlo v Českém Krumlově"
  }
},
{
  "type": "node",
  "id": 4785036927,
  "lat": 48.7656335,
  "lon": 14.0349296,
  "tags": {
    "addr:city": "Horní Planá",
    "addr:conscriptionnumber": "21",
    "addr:country": "CZ",
    "addr:housenumber": "21",
    "addr:place": "Horní Planá",
    "addr:postcode": "38226",
    "addr:street": "Palackého",
    "name": "Rodný domek Adalberta Stiftera v Horní Plané",
    "name:de": "Geburtshaus Adalbert Stifter",
    "phone": "+420 380 738 473",
    "ref:ruian:addr": "12952346",
    "source:addr": "cuzk:ruian",
    "tourism": "museum",
    "website": "http://www.muzeumck.cz/"
  }
},
{
  "type": "node",
  "id": 4947006326,
  "lat": 48.8114545,
  "lon": 14.3151216,
  "tags": {
    "addr:city": "Český Krumlov",
    "addr:housenumber": "29",
    "addr:postcode": "381 01",
    "addr:street": "Radniční",
    "email": "info@muzeumobchoduck.cz",
    "name": "Muzeum obchodu",
    "name:cs": "Muzeum obchodu",
    "operator": "Obchodní a kupecké muzeum s.r.o.",
    "phone": "+420 380 727 945",
    "tourism": "museum",
    "website": "http://www.muzeumobchoduck.cz/"
  }
},
{
  "type": "node",
  "id": 5183193242,
  "lat": 48.7622678,
  "lon": 14.7392146,
  "tags": {
    "name": "Muzeum Novohradských hor",
    "tourism": "museum"
  }
},
{
  "type": "node",
  "id": 5717892577,
  "lat": 48.7825408,
  "lon": 14.7896053,
  "tags": {
    "description": "mlynářství a zemědělská technika, traktory 30. a 40. léta",
    "email": "info@zevluvmlyn.cz",
    "name": "Zevlův mlýn",
    "opening_hours": "Jun 29-Sep 15 10:00-18:00 || \"po dohodě/by appointment\"",
    "phone": "+420 607 351 276",
    "tourism": "museum",
    "website": "http://www.zevluvmlyn.cz"
  }
},
{
  "type": "node",
  "id": 6996314703,
  "lat": 48.8112797,
  "lon": 14.3154665,
  "tags": {
    "addr:city": "Český Krumlov",
    "addr:postcode": "381 01",
    "addr:street": "Masná",
    "level": "-1",
    "name": "3D Muzeum",
    "tourism": "museum",
    "website": "http://3dceskykrumlov.cz/",
    "wheelchair": "no"
  }
},
{
  "type": "node",
  "id": 7015844947,
  "lat": 48.8116311,
  "lon": 14.3134274,
  "tags": {
    "addr:city": "Český Krumlov",
    "addr:housenumber": "80",
    "addr:postcode": "381 01",
    "addr:street": "Široká",
    "name": "Muzeum historických motocyklů",
    "tourism": "museum"
  }
},
{
  "type": "way",
  "id": 32070739,
  "nodes": [
    360023708,
    4799153352,
    4799153351,
    360023706,
    7022386723,
    360023705,
    4799153349,
    4407747956,
    360023703,
    360023702,
    6997262642,
    360023709,
    6976414589,
    6976391373,
    360023708
  ],
  "tags": {
    "addr:city": "Český Krumlov",
    "addr:housenumber": "152",
    "addr:postcode": "381 01",
    "addr:street": "Horní",
    "building": "yes",
    "building:levels": "3",
    "building:ruian:type": "5",
    "name": "Regionální  muzeum",
    "name:de": "Regionalmuseum in Český Krumlov",
    "name:en": "Regional Museum in Český Krumlov",
    "name:ru": "Региональный музей",
    "name:zh": "庫倫洛夫區博物館",
    "operator": "Jihočeský kraj",
    "operator:type": "public",
    "phone": "+420 380 711 674",
    "ref:ruian:building": "26239698",
    "source": "cuzk:ruian",
    "tourism": "museum",
    "website": "http://www.ckrumlov.info/docs/cz/atr2.xml",
    "wheelchair": "no",
    "wikidata": "Q38076930",
    "wikipedia": "cs:Regionální muzeum v Českém Krumlově"
  }
},
{
  "type": "way",
  "id": 49532572,
  "nodes": [
    629540160,
    629540158,
    629540155,
    629540153,
    4323552469,
    4323552467,
    629540151,
    4323552471,
    4323552473,
    4323552472,
    4323552470,
    4323552468,
    4323552466,
    629540149,
    7205722125,
    629540142,
    4323552455,
    4323552454,
    4323552453,
    629540140,
    629540138,
    4323552452,
    4323552451,
    629540136,
    629540134,
    629540131,
    629540129,
    629540127,
    629540125,
    3661148753,
    3661148750,
    629540122,
    629540120,
    629540118,
    629540104,
    629540101,
    629540099,
    629540097,
    629540095,
    629540092,
    629540090,
    629540113,
    629540111,
    629540108,
    629540116,
    629540162,
    629540160
  ],
  "tags": {
    "building": "civic",
    "building:levels": "3",
    "building:ruian:type": "5",
    "name": "Jihočeské muzeum",
    "name:zh": "南波希米亞博物館",
    "ref:ruian:building": "23031611",
    "source": "cuzk:ruian",
    "tourism": "museum"
  }
},
{
  "type": "way",
  "id": 60573407,
  "nodes": [
    3828275615,
    3828275614,
    756723726,
    7109306751,
    756723853,
    756723715,
    7035584976,
    756723611,
    756723498,
    4799152181,
    4799152182,
    756723423,
    7035976902,
    3828275602,
    3828275605,
    3828275604,
    4799152179,
    4799152178,
    3828275625,
    756723226,
    3828275624,
    3828275626,
    7035584978,
    3828275622,
    3828275620,
    3828275619,
    3828275621,
    3828275618,
    3828275617,
    7022031075,
    3828275615
  ],
  "tags": {
    "addr:city": "Český Krumlov",
    "addr:housenumber": "6",
    "addr:postcode": "381 01",
    "addr:street": "Latrán",
    "building": "yes",
    "building:flats": "4",
    "building:levels": "2",
    "building:ruian:type": "3",
    "name": "Kostel sv .Jošta",
    "name:zh": "圣儒督堂 (捷克克鲁姆洛夫)",
    "ref:ruian:building": "8621683",
    "source": "cuzk:ruian",
    "tourism": "museum",
    "wikidata": "Q22162625",
    "wikipedia": "cs:Kostel svatého Jošta (Český Krumlov)"
  }
},
{
  "type": "way",
  "id": 60849662,
  "nodes": [
    761780613,
    7037218945,
    761780975,
    7007079988,
    761780397,
    7036272098,
    761780872,
    7007079993,
    761780401,
    761780500,
    761780613
  ],
  "tags": {
    "addr:city": "Český Krumlov",
    "addr:postcode": "381 01",
    "building": "yes",
    "building:flats": "1",
    "building:ruian:type": "19",
    "name": "Egon Schiele Atelier",
    "ref:ruian:building": "26304571",
    "source": "cuzk:ruian",
    "start_date": "2012-01-27",
    "tourism": "museum"
  }
},
{
  "type": "way",
  "id": 60854644,
  "nodes": [
    761806025,
    761805751,
    761806015,
    3828275295,
    761805808,
    761805850,
    761805825,
    761805867,
    761805906,
    7020349503,
    3828275304,
    761805915,
    761805962,
    761805771,
    761806025
  ],
  "tags": {
    "building": "yes",
    "building:flats": "2",
    "building:levels": "1",
    "building:ruian:type": "5",
    "ref:ruian:building": "8632472",
    "source": "cuzk:ruian",
    "tourism": "museum"
  }
},
{
  "type": "way",
  "id": 118597299,
  "nodes": [
    1333604130,
    1333604088,
    4789590938,
    1333604010,
    1333604089,
    1333604061,
    4789590939,
    4789590940,
    1333604113,
    4789590937,
    1333604130
  ],
  "tags": {
    "building": "residential",
    "building:flats": "2",
    "building:levels": "1",
    "building:ruian:type": "3",
    "name": "Muzeum Františka Miroslava Čapka",
    "ref:ruian:building": "11700653",
    "source": "cuzk:ruian",
    "tourism": "museum",
    "wikidata": "Q177405",
    "wikipedia": "cs:Seznam českých muzeí"
  }
},
{
  "type": "way",
  "id": 120725099,
  "nodes": [
    1352869041,
    1352869030,
    5216851961,
    5216851962,
    5216851963,
    5216851964,
    1352869028,
    5216851965,
    5216851966,
    5216851967,
    5216851968,
    1352869031,
    1352869033,
    1352869040,
    1352869041
  ],
  "tags": {
    "addr:city": "Windhaag bei Freistadt",
    "addr:country": "AT",
    "addr:district": "Freistadt",
    "addr:housenumber": "11",
    "addr:place": "Markt",
    "addr:postcode": "4263",
    "addr:state": "Oberösterreich",
    "at_bev:addr_date": "2017-04-07",
    "building": "yes",
    "name": "Green Belt Center",
    "phone": "+43 (7943) 6111",
    "toilets:wheelchair": "yes",
    "tourism": "museum",
    "wheelchair": "yes"
  }
},
{
  "type": "way",
  "id": 123803851,
  "nodes": [
    1379360355,
    1379360353,
    1379360351,
    1379360341,
    1379360339,
    1379360342,
    1379360343,
    1379360355
  ],
  "tags": {
    "addr:city": "Windhaag bei Freistadt",
    "addr:country": "AT",
    "addr:district": "Freistadt",
    "addr:housenumber": "34",
    "addr:postcode": "4263",
    "addr:state": "Oberösterreich",
    "addr:street": "Markt",
    "building": "yes",
    "name": "Altes Schulhaus, Ehem. Bruckner- Schule",
    "tourism": "museum",
    "wikidata": "Q37849544"
  }
},
{
  "type": "way",
  "id": 123810627,
  "nodes": [
    1379408162,
    1379408153,
    1379408135,
    1379408149,
    1379408162
  ],
  "tags": {
    "addr:city": "Windhaag bei Freistadt",
    "addr:country": "AT",
    "addr:district": "Freistadt",
    "addr:housenumber": "5",
    "addr:postcode": "4263",
    "addr:state": "Oberösterreich",
    "addr:street": "Marktgasse",
    "building": "yes",
    "name": "Handwerkerhaus Stegwagner",
    "source": "geoimage.at",
    "tourism": "museum"
  }
},
{
  "type": "way",
  "id": 125828384,
  "nodes": [
    1396550764,
    1396550763,
    1396550761,
    1396550762,
    1396550764
  ],
  "tags": {
    "addr:city": "Windhaag bei Freistadt",
    "addr:country": "AT",
    "addr:district": "Freistadt",
    "addr:housenumber": "18",
    "addr:place": "Pieberschlag",
    "addr:postcode": "4263",
    "addr:state": "Oberösterreich",
    "building": "yes",
    "name": "Zimmermannshaus",
    "source": "geoimage.at",
    "tourism": "museum"
  }
},
{
  "type": "way",
  "id": 136101278,
  "nodes": [
    1493455799,
    1493455796,
    1493455808,
    4708561237,
    4708561236,
    4708561235,
    4708561234,
    4708561233,
    1493455797,
    1493455789,
    1493455668,
    1493455675,
    1493455741,
    1493455743,
    1493455716,
    2413643649,
    1493455719,
    2413643651,
    2413643652,
    1493455784,
    1493455779,
    1493455799
  ],
  "tags": {
    "building": "house",
    "building:levels": "2",
    "building:ruian:type": "7",
    "name": "Hornické muzeum Rudolfov",
    "ref:ruian:building": "11723530",
    "source": "cuzk:ruian",
    "tourism": "museum"
  }
},
{
  "type": "way",
  "id": 170167555,
  "nodes": [
    1813219732,
    1813219733,
    1813219734,
    1813219736,
    1813219732
  ],
  "tags": {
    "building": "yes",
    "tourism": "museum"
  }
},
{
  "type": "way",
  "id": 172891951,
  "nodes": [
    1837343484,
    1837343477,
    1837343468,
    1837343446,
    1837343433,
    1837343422,
    1837343415,
    1837343410,
    1837343409,
    1837343408,
    1837343423,
    1837343426,
    1837343448,
    1837343454,
    1837343459,
    1837343476,
    1837343482,
    5273572890,
    1837343484
  ],
  "tags": {
    "name": "Mühlenmuseum Reichenthal",
    "tourism": "museum",
    "website": "https://www.cusoon.at/muehlenmuseum-reichenthal-hayrl"
  }
},
{
  "type": "way",
  "id": 201417954,
  "nodes": [
    2113930576,
    2113930574,
    2113930575,
    2113930577,
    2113930576
  ],
  "tags": {
    "addr:city": "Haslach an der Mühl",
    "addr:country": "AT",
    "addr:housenumber": "17",
    "addr:postcode": "4170",
    "addr:street": "Windgasse",
    "building": "yes",
    "name": "Kaufmannsmuseum",
    "operator": "Heimatverein Haslach",
    "tourism": "museum"
  }
},
{
  "type": "way",
  "id": 203861716,
  "nodes": [
    2138727825,
    2138727844,
    2138727845,
    2138727849,
    2138727852,
    2138727853,
    2138727858,
    2138727861,
    2138727850,
    2138727839,
    2138727838,
    2138727820,
    2138727825
  ],
  "tags": {
    "addr:city": "Ulrichsberg",
    "addr:country": "AT",
    "addr:housenumber": "28",
    "addr:postcode": "4161",
    "addr:street": "Markt",
    "building": "yes",
    "name": "Heimt- u. Glasmuseum",
    "tourism": "museum"
  }
},
{
  "type": "way",
  "id": 222197869,
  "nodes": [
    2311830245,
    2311830248,
    2311830235,
    2311830242,
    2311830245
  ],
  "tags": {
    "addr:housename": "Museum Villa Sinnenreich",
    "addr:housenumber": "19",
    "addr:postcode": "4150",
    "addr:street": "Bahnhofstraße",
    "amenity": "public_building",
    "building": "yes",
    "name": "Villa Sinnenreich",
    "tourism": "museum",
    "wheelchair": "yes"
  }
},
{
  "type": "way",
  "id": 227294592,
  "nodes": [
    2359995963,
    2359995964,
    2359995925,
    2359995924,
    2359995938,
    2359995937,
    2359995949,
    2359995948,
    2359995963
  ],
  "tags": {
    "building": "house",
    "building:ruian:type": "3",
    "name": "Venkovské muzeum Kojákovice",
    "ref:ruian:building": "19765061",
    "source": "cuzk:ruian",
    "tourism": "museum"
  }
},
{
  "type": "way",
  "id": 230043890,
  "nodes": [
    2385702382,
    2385702420,
    2385702355,
    2385702528,
    2385702382
  ],
  "tags": {
    "addr:city": "Rohrbach-Berg",
    "addr:country": "AT",
    "addr:housenumber": "4",
    "addr:postcode": "4150",
    "addr:street": "Pfaffenberg",
    "tourism": "museum"
  }
},
{
  "type": "way",
  "id": 234811937,
  "nodes": [
    2429429217,
    2429429218,
    2429429219,
    2429429220,
    2429429217
  ],
  "tags": {
    "building": "yes",
    "name": "Zollmuseum Hammern",
    "tourism": "museum"
  }
},
{
  "type": "way",
  "id": 237846515,
  "nodes": [
    2457089669,
    2457089670,
    2457089668,
    4358996365,
    4358996364,
    4358996363,
    2457089669
  ],
  "tags": {
    "building": "house",
    "name": "Freilichmuseum Thuryhammer",
    "tourism": "museum",
    "wheelchair": "limited"
  }
},
{
  "type": "way",
  "id": 244323316,
  "nodes": [
    2516540519,
    2516540518,
    2516540513,
    2516540515,
    2516540519
  ],
  "tags": {
    "access": "upon request",
    "building": "yes",
    "description": "Kühlhaus 1959 - 1982",
    "name": "Wassermuseum",
    "name:de": "Wassermuseum",
    "name:en": "Water Museum",
    "operator": "Kulturgemeinschaft Klaffer am Hochficht",
    "phone": "+43 (0) 664 48 51 494",
    "tourism": "museum"
  }
},
{
  "type": "way",
  "id": 259820228,
  "nodes": [
    6588858639,
    6588858641,
    6588858635,
    6588858638,
    6588858637,
    6588858636,
    6588858639
  ],
  "tags": {
    "addr:city": "Volary",
    "addr:conscriptionnumber": "71",
    "addr:country": "CZ",
    "addr:housenumber": "71",
    "addr:postcode": "38451",
    "addr:street": "Česká",
    "building": "civic",
    "building:levels": "1",
    "building:ruian:type": "5",
    "is_in": "Volary, Jihočeský kraj, CZ",
    "name": "Volarské muzeum",
    "opening_hours": "May-Sep 10:00-12:00, 12:30-17:00; Mo off",
    "ref:ruian": "854085",
    "ref:ruian:building": "851914",
    "source": "cuzk:ruian",
    "source:addr": "ruian",
    "tourism": "museum",
    "website": "https://www.mestovolary.cz/volny-cas/volarske-muzeum/"
  }
},
{
  "type": "way",
  "id": 329514484,
  "nodes": [
    3363939526,
    3363939535,
    3363939513,
    3363939503,
    3363939526
  ],
  "tags": {
    "addr:city": "Leopoldschlag",
    "addr:country": "AT",
    "addr:housenumber": "5",
    "addr:postcode": "4262",
    "addr:street": "Hafnerstraße",
    "building": "yes",
    "name": "Hafnerhaus",
    "tourism": "museum"
  }
},
{
  "type": "way",
  "id": 331112268,
  "nodes": [
    3381675237,
    3381675234,
    3381675231,
    3381675233,
    3381675232,
    3381675235,
    3381675236,
    3381675239,
    3381675240,
    3381675238,
    3381675237
  ],
  "tags": {
    "addr:city": "Rainbach im Mühlkreis",
    "addr:country": "AT",
    "addr:housenumber": "61",
    "addr:postcode": "4261",
    "addr:street": "Kerschbaum",
    "building": "yes",
    "historic": "railway_station",
    "name": "Pferdeeisenbahn",
    "phone": "004379496800",
    "tourism": "museum",
    "website": "https://www.pferdeeisenbahn.at/"
  }
},
{
  "type": "way",
  "id": 579646873,
  "nodes": [
    5550835325,
    5550835326,
    5550835327,
    6248787311,
    5550835328,
    5550835329,
    5550835330,
    5550835325
  ],
  "tags": {
    "addr:city": "Auberg",
    "addr:country": "AT",
    "addr:housenumber": "19",
    "addr:place": "Auberg",
    "addr:postcode": "4170",
    "building": "yes",
    "name": "Unterkagererhof",
    "tourism": "museum",
    "website": "http://www.unterkagererhof.at/"
  }
},
{
  "type": "node",
  "id": 2311830235,
  "lat": 48.5757280,
  "lon": 13.9893145
},
{
  "type": "node",
  "id": 2311830242,
  "lat": 48.5759196,
  "lon": 13.9893359
},
{
  "type": "node",
  "id": 2311830245,
  "lat": 48.5759374,
  "lon": 13.9889953
},
{
  "type": "node",
  "id": 2311830248,
  "lat": 48.5757440,
  "lon": 13.9889765
},
{
  "type": "node",
  "id": 2385702355,
  "lat": 48.5760422,
  "lon": 13.9955572
},
{
  "type": "node",
  "id": 2385702382,
  "lat": 48.5762139,
  "lon": 13.9954219
},
{
  "type": "node",
  "id": 2385702420,
  "lat": 48.5760823,
  "lon": 13.9953606
},
{
  "type": "node",
  "id": 2385702528,
  "lat": 48.5761738,
  "lon": 13.9956186
},
{
  "type": "node",
  "id": 2113930574,
  "lat": 48.5764984,
  "lon": 14.0388765
},
{
  "type": "node",
  "id": 2113930575,
  "lat": 48.5765181,
  "lon": 14.0386542
},
{
  "type": "node",
  "id": 2113930576,
  "lat": 48.5766172,
  "lon": 14.0389005
},
{
  "type": "node",
  "id": 2113930577,
  "lat": 48.5766369,
  "lon": 14.0386782
},
{
  "type": "node",
  "id": 5550835325,
  "lat": 48.5429958,
  "lon": 14.0605369
},
{
  "type": "node",
  "id": 5550835326,
  "lat": 48.5428745,
  "lon": 14.0604949
},
{
  "type": "node",
  "id": 5550835327,
  "lat": 48.5428435,
  "lon": 14.0606994
},
{
  "type": "node",
  "id": 5550835328,
  "lat": 48.5426162,
  "lon": 14.0606233
},
{
  "type": "node",
  "id": 5550835329,
  "lat": 48.5426031,
  "lon": 14.0607161
},
{
  "type": "node",
  "id": 5550835330,
  "lat": 48.5429503,
  "lon": 14.0608363
},
{
  "type": "node",
  "id": 6248787311,
  "lat": 48.5427157,
  "lon": 14.0606527
},
{
  "type": "node",
  "id": 2516540513,
  "lat": 48.6955465,
  "lon": 13.8830979
},
{
  "type": "node",
  "id": 2516540515,
  "lat": 48.6955740,
  "lon": 13.8830244
},
{
  "type": "node",
  "id": 2516540518,
  "lat": 48.6956325,
  "lon": 13.8831717
},
{
  "type": "node",
  "id": 2516540519,
  "lat": 48.6956600,
  "lon": 13.8830982
},
{
  "type": "node",
  "id": 2138727820,
  "lat": 48.6748660,
  "lon": 13.9110745
},
{
  "type": "node",
  "id": 2138727825,
  "lat": 48.6748715,
  "lon": 13.9110003
},
{
  "type": "node",
  "id": 2138727838,
  "lat": 48.6749896,
  "lon": 13.9111021
},
{
  "type": "node",
  "id": 2138727839,
  "lat": 48.6749904,
  "lon": 13.9112184
},
{
  "type": "node",
  "id": 2138727844,
  "lat": 48.6750270,
  "lon": 13.9110370
},
{
  "type": "node",
  "id": 2138727845,
  "lat": 48.6750256,
  "lon": 13.9110817
},
{
  "type": "node",
  "id": 2138727849,
  "lat": 48.6750942,
  "lon": 13.9110711
},
{
  "type": "node",
  "id": 2138727850,
  "lat": 48.6751315,
  "lon": 13.9112095
},
{
  "type": "node",
  "id": 2138727852,
  "lat": 48.6751330,
  "lon": 13.9110002
},
{
  "type": "node",
  "id": 2138727853,
  "lat": 48.6751461,
  "lon": 13.9110179
},
{
  "type": "node",
  "id": 2138727858,
  "lat": 48.6751922,
  "lon": 13.9109548
},
{
  "type": "node",
  "id": 2138727861,
  "lat": 48.6752383,
  "lon": 13.9110213
},
{
  "type": "node",
  "id": 1813219732,
  "lat": 48.7233527,
  "lon": 13.9827752
},
{
  "type": "node",
  "id": 1813219733,
  "lat": 48.7232643,
  "lon": 13.9827915
},
{
  "type": "node",
  "id": 1813219734,
  "lat": 48.7232604,
  "lon": 13.9826819
},
{
  "type": "node",
  "id": 1813219736,
  "lat": 48.7233473,
  "lon": 13.9826714
},
{
  "type": "node",
  "id": 6588858635,
  "lat": 48.9114721,
  "lon": 13.8905336
},
{
  "type": "node",
  "id": 6588858636,
  "lat": 48.9113403,
  "lon": 13.8906927
},
{
  "type": "node",
  "id": 6588858637,
  "lat": 48.9114667,
  "lon": 13.8907089
},
{
  "type": "node",
  "id": 6588858638,
  "lat": 48.9114752,
  "lon": 13.8905339
},
{
  "type": "node",
  "id": 6588858639,
  "lat": 48.9113489,
  "lon": 13.8905200
},
{
  "type": "node",
  "id": 6588858641,
  "lat": 48.9114144,
  "lon": 13.8905272
},
{
  "type": "node",
  "id": 1837343408,
  "lat": 48.5367175,
  "lon": 14.3883707
},
{
  "type": "node",
  "id": 1837343409,
  "lat": 48.5367199,
  "lon": 14.3880859
},
{
  "type": "node",
  "id": 1837343410,
  "lat": 48.5367437,
  "lon": 14.3875129
},
{
  "type": "node",
  "id": 1837343415,
  "lat": 48.5371089,
  "lon": 14.3874877
},
{
  "type": "node",
  "id": 1837343422,
  "lat": 48.5372425,
  "lon": 14.3875886
},
{
  "type": "node",
  "id": 1837343423,
  "lat": 48.5372520,
  "lon": 14.3884067
},
{
  "type": "node",
  "id": 1837343426,
  "lat": 48.5373654,
  "lon": 14.3887275
},
{
  "type": "node",
  "id": 1837343433,
  "lat": 48.5374549,
  "lon": 14.3877544
},
{
  "type": "node",
  "id": 1837343446,
  "lat": 48.5376744,
  "lon": 14.3877544
},
{
  "type": "node",
  "id": 1837343448,
  "lat": 48.5377401,
  "lon": 14.3887869
},
{
  "type": "node",
  "id": 1837343454,
  "lat": 48.5378558,
  "lon": 14.3885581
},
{
  "type": "node",
  "id": 1837343459,
  "lat": 48.5379011,
  "lon": 14.3880949
},
{
  "type": "node",
  "id": 1837343468,
  "lat": 48.5379894,
  "lon": 14.3874588
},
{
  "type": "node",
  "id": 1837343476,
  "lat": 48.5382806,
  "lon": 14.3878300
},
{
  "type": "node",
  "id": 1837343477,
  "lat": 48.5383211,
  "lon": 14.3872822
},
{
  "type": "node",
  "id": 1837343482,
  "lat": 48.5385216,
  "lon": 14.3877165
},
{
  "type": "node",
  "id": 1837343484,
  "lat": 48.5385908,
  "lon": 14.3874192
},
{
  "type": "node",
  "id": 5273572890,
  "lat": 48.5385836,
  "lon": 14.3876012
},
{
  "type": "node",
  "id": 3381675231,
  "lat": 48.5848431,
  "lon": 14.4702247
},
{
  "type": "node",
  "id": 3381675232,
  "lat": 48.5848441,
  "lon": 14.4700401
},
{
  "type": "node",
  "id": 3381675233,
  "lat": 48.5848639,
  "lon": 14.4702195
},
{
  "type": "node",
  "id": 3381675235,
  "lat": 48.5849151,
  "lon": 14.4700221
},
{
  "type": "node",
  "id": 3381675236,
  "lat": 48.5849350,
  "lon": 14.4702020
},
{
  "type": "node",
  "id": 3381675239,
  "lat": 48.5849854,
  "lon": 14.4701892
},
{
  "type": "node",
  "id": 2457089668,
  "lat": 48.5245253,
  "lon": 14.5138077
},
{
  "type": "node",
  "id": 2457089669,
  "lat": 48.5245947,
  "lon": 14.5136109
},
{
  "type": "node",
  "id": 2457089670,
  "lat": 48.5246327,
  "lon": 14.5137283
},
{
  "type": "node",
  "id": 4358996363,
  "lat": 48.5244097,
  "lon": 14.5137476
},
{
  "type": "node",
  "id": 4358996364,
  "lat": 48.5244367,
  "lon": 14.5138309
},
{
  "type": "node",
  "id": 4358996365,
  "lat": 48.5245142,
  "lon": 14.5137736
},
{
  "type": "node",
  "id": 3381675234,
  "lat": 48.5849063,
  "lon": 14.4707949
},
{
  "type": "node",
  "id": 3381675237,
  "lat": 48.5849357,
  "lon": 14.4707874
},
{
  "type": "node",
  "id": 3381675238,
  "lat": 48.5849672,
  "lon": 14.4710717
},
{
  "type": "node",
  "id": 3381675240,
  "lat": 48.5850799,
  "lon": 14.4710431
},
{
  "type": "node",
  "id": 3363939503,
  "lat": 48.6153581,
  "lon": 14.4985502
},
{
  "type": "node",
  "id": 3363939513,
  "lat": 48.6154139,
  "lon": 14.4987806
},
{
  "type": "node",
  "id": 3363939526,
  "lat": 48.6154777,
  "lon": 14.4984839
},
{
  "type": "node",
  "id": 3363939535,
  "lat": 48.6155335,
  "lon": 14.4987144
},
{
  "type": "node",
  "id": 1396550761,
  "lat": 48.5879427,
  "lon": 14.5496444
},
{
  "type": "node",
  "id": 1396550762,
  "lat": 48.5879824,
  "lon": 14.5495129
},
{
  "type": "node",
  "id": 1396550763,
  "lat": 48.5880835,
  "lon": 14.5497416
},
{
  "type": "node",
  "id": 1396550764,
  "lat": 48.5881232,
  "lon": 14.5496101
},
{
  "type": "node",
  "id": 1352869028,
  "lat": 48.5862057,
  "lon": 14.5617879
},
{
  "type": "node",
  "id": 1352869031,
  "lat": 48.5863463,
  "lon": 14.5617699
},
{
  "type": "node",
  "id": 1352869033,
  "lat": 48.5863704,
  "lon": 14.5618207
},
{
  "type": "node",
  "id": 1352869040,
  "lat": 48.5864353,
  "lon": 14.5617504
},
{
  "type": "node",
  "id": 1352869041,
  "lat": 48.5865223,
  "lon": 14.5619338
},
{
  "type": "node",
  "id": 5216851961,
  "lat": 48.5862559,
  "lon": 14.5619494
},
{
  "type": "node",
  "id": 5216851962,
  "lat": 48.5863015,
  "lon": 14.5619001
},
{
  "type": "node",
  "id": 5216851963,
  "lat": 48.5862778,
  "lon": 14.5618499
},
{
  "type": "node",
  "id": 5216851964,
  "lat": 48.5862495,
  "lon": 14.5618805
},
{
  "type": "node",
  "id": 5216851965,
  "lat": 48.5862285,
  "lon": 14.5617632
},
{
  "type": "node",
  "id": 5216851966,
  "lat": 48.5862001,
  "lon": 14.5617032
},
{
  "type": "node",
  "id": 5216851967,
  "lat": 48.5863190,
  "lon": 14.5615746
},
{
  "type": "node",
  "id": 5216851968,
  "lat": 48.5863894,
  "lon": 14.5617232
},
{
  "type": "node",
  "id": 1352869030,
  "lat": 48.5863413,
  "lon": 14.5621297
},
{
  "type": "node",
  "id": 1379360339,
  "lat": 48.5870614,
  "lon": 14.5623544
},
{
  "type": "node",
  "id": 1379360341,
  "lat": 48.5871000,
  "lon": 14.5624277
},
{
  "type": "node",
  "id": 1379360342,
  "lat": 48.5872287,
  "lon": 14.5621815
},
{
  "type": "node",
  "id": 1379360343,
  "lat": 48.5872646,
  "lon": 14.5621411
},
{
  "type": "node",
  "id": 1379360351,
  "lat": 48.5872647,
  "lon": 14.5622423
},
{
  "type": "node",
  "id": 1379360353,
  "lat": 48.5872761,
  "lon": 14.5622654
},
{
  "type": "node",
  "id": 1379360355,
  "lat": 48.5873081,
  "lon": 14.5622294
},
{
  "type": "node",
  "id": 1379408135,
  "lat": 48.5870616,
  "lon": 14.5626795
},
{
  "type": "node",
  "id": 1379408149,
  "lat": 48.5871168,
  "lon": 14.5625739
},
{
  "type": "node",
  "id": 1379408153,
  "lat": 48.5871410,
  "lon": 14.5627744
},
{
  "type": "node",
  "id": 1379408162,
  "lat": 48.5871962,
  "lon": 14.5626689
},
{
  "type": "node",
  "id": 2429429217,
  "lat": 48.6139659,
  "lon": 14.5446969
},
{
  "type": "node",
  "id": 2429429218,
  "lat": 48.6139795,
  "lon": 14.5447307
},
{
  "type": "node",
  "id": 2429429219,
  "lat": 48.6140080,
  "lon": 14.5447044
},
{
  "type": "node",
  "id": 2429429220,
  "lat": 48.6139944,
  "lon": 14.5446706
},
{
  "type": "node",
  "id": 761780397,
  "lat": 48.8072393,
  "lon": 14.3164427
},
{
  "type": "node",
  "id": 761780401,
  "lat": 48.8072981,
  "lon": 14.3163648
},
{
  "type": "node",
  "id": 761780500,
  "lat": 48.8072982,
  "lon": 14.3163748
},
{
  "type": "node",
  "id": 761780613,
  "lat": 48.8073148,
  "lon": 14.3163763
},
{
  "type": "node",
  "id": 761780872,
  "lat": 48.8072358,
  "lon": 14.3163669
},
{
  "type": "node",
  "id": 761780975,
  "lat": 48.8073149,
  "lon": 14.3164374
},
{
  "type": "node",
  "id": 7007079988,
  "lat": 48.8072794,
  "lon": 14.3164399
},
{
  "type": "node",
  "id": 7007079993,
  "lat": 48.8072747,
  "lon": 14.3163656
},
{
  "type": "node",
  "id": 7036272098,
  "lat": 48.8072377,
  "lon": 14.3164070
},
{
  "type": "node",
  "id": 7037218945,
  "lat": 48.8073148,
  "lon": 14.3164058
},
{
  "type": "node",
  "id": 360023702,
  "lat": 48.8106147,
  "lon": 14.3174852
},
{
  "type": "node",
  "id": 360023703,
  "lat": 48.8106465,
  "lon": 14.3179464
},
{
  "type": "node",
  "id": 360023705,
  "lat": 48.8105929,
  "lon": 14.3179513
},
{
  "type": "node",
  "id": 360023706,
  "lat": 48.8106019,
  "lon": 14.3180771
},
{
  "type": "node",
  "id": 360023708,
  "lat": 48.8107736,
  "lon": 14.3180682
},
{
  "type": "node",
  "id": 360023709,
  "lat": 48.8107328,
  "lon": 14.3174621
},
{
  "type": "node",
  "id": 756723226,
  "lat": 48.8119974,
  "lon": 14.3161484
},
{
  "type": "node",
  "id": 756723423,
  "lat": 48.8117704,
  "lon": 14.3163652
},
{
  "type": "node",
  "id": 756723498,
  "lat": 48.8118784,
  "lon": 14.3164258
},
{
  "type": "node",
  "id": 756723611,
  "lat": 48.8118806,
  "lon": 14.3164088
},
{
  "type": "node",
  "id": 756723715,
  "lat": 48.8118928,
  "lon": 14.3164122
},
{
  "type": "node",
  "id": 756723726,
  "lat": 48.8119616,
  "lon": 14.3164862
},
{
  "type": "node",
  "id": 756723853,
  "lat": 48.8118865,
  "lon": 14.3164514
},
{
  "type": "node",
  "id": 761805751,
  "lat": 48.8082895,
  "lon": 14.3164182
},
{
  "type": "node",
  "id": 761805771,
  "lat": 48.8083630,
  "lon": 14.3165295
},
{
  "type": "node",
  "id": 761805808,
  "lat": 48.8083093,
  "lon": 14.3163553
},
{
  "type": "node",
  "id": 761805825,
  "lat": 48.8083665,
  "lon": 14.3162956
},
{
  "type": "node",
  "id": 761805850,
  "lat": 48.8083159,
  "lon": 14.3162763
},
{
  "type": "node",
  "id": 761805867,
  "lat": 48.8083606,
  "lon": 14.3163629
},
{
  "type": "node",
  "id": 761805906,
  "lat": 48.8084009,
  "lon": 14.3163705
},
{
  "type": "node",
  "id": 761805915,
  "lat": 48.8083860,
  "lon": 14.3164148
},
{
  "type": "node",
  "id": 761805962,
  "lat": 48.8083774,
  "lon": 14.3165315
},
{
  "type": "node",
  "id": 761806015,
  "lat": 48.8082752,
  "lon": 14.3164165
},
{
  "type": "node",
  "id": 761806025,
  "lat": 48.8082818,
  "lon": 14.3165193
},
{
  "type": "node",
  "id": 3828275295,
  "lat": 48.8082785,
  "lon": 14.3163547
},
{
  "type": "node",
  "id": 3828275304,
  "lat": 48.8083972,
  "lon": 14.3164165
},
{
  "type": "node",
  "id": 3828275602,
  "lat": 48.8118357,
  "lon": 14.3161578
},
{
  "type": "node",
  "id": 3828275604,
  "lat": 48.8118561,
  "lon": 14.3161134
},
{
  "type": "node",
  "id": 3828275605,
  "lat": 48.8118525,
  "lon": 14.3161114
},
{
  "type": "node",
  "id": 3828275614,
  "lat": 48.8119684,
  "lon": 14.3164293
},
{
  "type": "node",
  "id": 3828275615,
  "lat": 48.8119651,
  "lon": 14.3164287
},
{
  "type": "node",
  "id": 3828275617,
  "lat": 48.8119819,
  "lon": 14.3162885
},
{
  "type": "node",
  "id": 3828275618,
  "lat": 48.8119791,
  "lon": 14.3162880
},
{
  "type": "node",
  "id": 3828275619,
  "lat": 48.8119884,
  "lon": 14.3162318
},
{
  "type": "node",
  "id": 3828275620,
  "lat": 48.8119899,
  "lon": 14.3162192
},
{
  "type": "node",
  "id": 3828275621,
  "lat": 48.8119853,
  "lon": 14.3162312
},
{
  "type": "node",
  "id": 3828275622,
  "lat": 48.8119870,
  "lon": 14.3162187
},
{
  "type": "node",
  "id": 3828275624,
  "lat": 48.8119958,
  "lon": 14.3161630
},
{
  "type": "node",
  "id": 3828275625,
  "lat": 48.8119932,
  "lon": 14.3161476
},
{
  "type": "node",
  "id": 3828275626,
  "lat": 48.8119929,
  "lon": 14.3161625
},
{
  "type": "node",
  "id": 4407747956,
  "lat": 48.8106222,
  "lon": 14.3179498
},
{
  "type": "node",
  "id": 4799152178,
  "lat": 48.8119925,
  "lon": 14.3161387
},
{
  "type": "node",
  "id": 4799152179,
  "lat": 48.8118614,
  "lon": 14.3160962
},
{
  "type": "node",
  "id": 4799152181,
  "lat": 48.8118603,
  "lon": 14.3164154
},
{
  "type": "node",
  "id": 4799152182,
  "lat": 48.8118011,
  "lon": 14.3163827
},
{
  "type": "node",
  "id": 4799153349,
  "lat": 48.8105959,
  "lon": 14.3179515
},
{
  "type": "node",
  "id": 4799153351,
  "lat": 48.8106118,
  "lon": 14.3180802
},
{
  "type": "node",
  "id": 4799153352,
  "lat": 48.8107161,
  "lon": 14.3180770
},
{
  "type": "node",
  "id": 6976391373,
  "lat": 48.8107675,
  "lon": 14.3179359
},
{
  "type": "node",
  "id": 6976414589,
  "lat": 48.8107555,
  "lon": 14.3176810
},
{
  "type": "node",
  "id": 6997262642,
  "lat": 48.8106492,
  "lon": 14.3174785
},
{
  "type": "node",
  "id": 7020349503,
  "lat": 48.8083991,
  "lon": 14.3163934
},
{
  "type": "node",
  "id": 7022031075,
  "lat": 48.8119718,
  "lon": 14.3163731
},
{
  "type": "node",
  "id": 7022386723,
  "lat": 48.8105996,
  "lon": 14.3180443
},
{
  "type": "node",
  "id": 7035584976,
  "lat": 48.8118874,
  "lon": 14.3164107
},
{
  "type": "node",
  "id": 7035584978,
  "lat": 48.8119894,
  "lon": 14.3161959
},
{
  "type": "node",
  "id": 7035976902,
  "lat": 48.8117888,
  "lon": 14.3163158
},
{
  "type": "node",
  "id": 7109306751,
  "lat": 48.8119524,
  "lon": 14.3164819
},
{
  "type": "node",
  "id": 629540090,
  "lat": 48.9725559,
  "lon": 14.4764433
},
{
  "type": "node",
  "id": 629540092,
  "lat": 48.9725461,
  "lon": 14.4764168
},
{
  "type": "node",
  "id": 629540095,
  "lat": 48.9725102,
  "lon": 14.4764426
},
{
  "type": "node",
  "id": 629540097,
  "lat": 48.9725052,
  "lon": 14.4764301
},
{
  "type": "node",
  "id": 629540099,
  "lat": 48.9724251,
  "lon": 14.4764913
},
{
  "type": "node",
  "id": 629540101,
  "lat": 48.9724295,
  "lon": 14.4765058
},
{
  "type": "node",
  "id": 629540104,
  "lat": 48.9723939,
  "lon": 14.4765328
},
{
  "type": "node",
  "id": 629540108,
  "lat": 48.9727472,
  "lon": 14.4762817
},
{
  "type": "node",
  "id": 629540111,
  "lat": 48.9726712,
  "lon": 14.4763403
},
{
  "type": "node",
  "id": 629540113,
  "lat": 48.9726746,
  "lon": 14.4763527
},
{
  "type": "node",
  "id": 629540116,
  "lat": 48.9728311,
  "lon": 14.4765283
},
{
  "type": "node",
  "id": 629540118,
  "lat": 48.9724035,
  "lon": 14.4765617
},
{
  "type": "node",
  "id": 629540120,
  "lat": 48.9722840,
  "lon": 14.4766508
},
{
  "type": "node",
  "id": 629540122,
  "lat": 48.9722790,
  "lon": 14.4766413
},
{
  "type": "node",
  "id": 629540127,
  "lat": 48.9723610,
  "lon": 14.4768877
},
{
  "type": "node",
  "id": 629540129,
  "lat": 48.9723558,
  "lon": 14.4768720
},
{
  "type": "node",
  "id": 629540131,
  "lat": 48.9724758,
  "lon": 14.4767809
},
{
  "type": "node",
  "id": 629540134,
  "lat": 48.9725008,
  "lon": 14.4768551
},
{
  "type": "node",
  "id": 629540136,
  "lat": 48.9725342,
  "lon": 14.4768298
},
{
  "type": "node",
  "id": 629540138,
  "lat": 48.9725491,
  "lon": 14.4768702
},
{
  "type": "node",
  "id": 629540140,
  "lat": 48.9725560,
  "lon": 14.4768650
},
{
  "type": "node",
  "id": 629540142,
  "lat": 48.9725682,
  "lon": 14.4768745
},
{
  "type": "node",
  "id": 629540149,
  "lat": 48.9726199,
  "lon": 14.4768392
},
{
  "type": "node",
  "id": 629540151,
  "lat": 48.9726337,
  "lon": 14.4768047
},
{
  "type": "node",
  "id": 629540153,
  "lat": 48.9726223,
  "lon": 14.4767662
},
{
  "type": "node",
  "id": 629540155,
  "lat": 48.9726555,
  "lon": 14.4767367
},
{
  "type": "node",
  "id": 629540158,
  "lat": 48.9726301,
  "lon": 14.4766625
},
{
  "type": "node",
  "id": 629540160,
  "lat": 48.9727497,
  "lon": 14.4765702
},
{
  "type": "node",
  "id": 629540162,
  "lat": 48.9727550,
  "lon": 14.4765860
},
{
  "type": "node",
  "id": 3661148750,
  "lat": 48.9722028,
  "lon": 14.4766998
},
{
  "type": "node",
  "id": 4323552451,
  "lat": 48.9725389,
  "lon": 14.4768437
},
{
  "type": "node",
  "id": 4323552452,
  "lat": 48.9725400,
  "lon": 14.4768425
},
{
  "type": "node",
  "id": 4323552453,
  "lat": 48.9725585,
  "lon": 14.4768687
},
{
  "type": "node",
  "id": 4323552454,
  "lat": 48.9725614,
  "lon": 14.4768717
},
{
  "type": "node",
  "id": 4323552455,
  "lat": 48.9725647,
  "lon": 14.4768736
},
{
  "type": "node",
  "id": 4323552466,
  "lat": 48.9726227,
  "lon": 14.4768356
},
{
  "type": "node",
  "id": 4323552467,
  "lat": 48.9726249,
  "lon": 14.4767787
},
{
  "type": "node",
  "id": 4323552468,
  "lat": 48.9726249,
  "lon": 14.4768314
},
{
  "type": "node",
  "id": 4323552469,
  "lat": 48.9726256,
  "lon": 14.4767767
},
{
  "type": "node",
  "id": 4323552470,
  "lat": 48.9726265,
  "lon": 14.4768265
},
{
  "type": "node",
  "id": 4323552471,
  "lat": 48.9726272,
  "lon": 14.4768105
},
{
  "type": "node",
  "id": 4323552472,
  "lat": 48.9726274,
  "lon": 14.4768213
},
{
  "type": "node",
  "id": 4323552473,
  "lat": 48.9726276,
  "lon": 14.4768159
},
{
  "type": "node",
  "id": 7205722125,
  "lat": 48.9725954,
  "lon": 14.4768559
},
{
  "type": "node",
  "id": 629540125,
  "lat": 48.9722871,
  "lon": 14.4769442
},
{
  "type": "node",
  "id": 3661148753,
  "lat": 48.9722850,
  "lon": 14.4769457
},
{
  "type": "node",
  "id": 1493455668,
  "lat": 48.9931515,
  "lon": 14.5391746
},
{
  "type": "node",
  "id": 1493455675,
  "lat": 48.9931545,
  "lon": 14.5390107
},
{
  "type": "node",
  "id": 1493455716,
  "lat": 48.9932050,
  "lon": 14.5387962
},
{
  "type": "node",
  "id": 1493455719,
  "lat": 48.9932072,
  "lon": 14.5387229
},
{
  "type": "node",
  "id": 1493455741,
  "lat": 48.9932363,
  "lon": 14.5390161
},
{
  "type": "node",
  "id": 1493455743,
  "lat": 48.9932374,
  "lon": 14.5387984
},
{
  "type": "node",
  "id": 1493455779,
  "lat": 48.9932925,
  "lon": 14.5388172
},
{
  "type": "node",
  "id": 1493455784,
  "lat": 48.9932940,
  "lon": 14.5387278
},
{
  "type": "node",
  "id": 1493455789,
  "lat": 48.9932973,
  "lon": 14.5391800
},
{
  "type": "node",
  "id": 1493455796,
  "lat": 48.9933029,
  "lon": 14.5388657
},
{
  "type": "node",
  "id": 1493455797,
  "lat": 48.9933021,
  "lon": 14.5389472
},
{
  "type": "node",
  "id": 1493455799,
  "lat": 48.9933037,
  "lon": 14.5388177
},
{
  "type": "node",
  "id": 1493455808,
  "lat": 48.9933111,
  "lon": 14.5388669
},
{
  "type": "node",
  "id": 2413643649,
  "lat": 48.9932056,
  "lon": 14.5387409
},
{
  "type": "node",
  "id": 2413643651,
  "lat": 48.9932395,
  "lon": 14.5387252
},
{
  "type": "node",
  "id": 2413643652,
  "lat": 48.9932398,
  "lon": 14.5387195
},
{
  "type": "node",
  "id": 4708561233,
  "lat": 48.9933045,
  "lon": 14.5389468
},
{
  "type": "node",
  "id": 4708561234,
  "lat": 48.9933044,
  "lon": 14.5389306
},
{
  "type": "node",
  "id": 4708561235,
  "lat": 48.9933020,
  "lon": 14.5389313
},
{
  "type": "node",
  "id": 4708561236,
  "lat": 48.9933025,
  "lon": 14.5389018
},
{
  "type": "node",
  "id": 4708561237,
  "lat": 48.9933103,
  "lon": 14.5389021
},
{
  "type": "node",
  "id": 1333604010,
  "lat": 49.0149402,
  "lon": 14.6160136
},
{
  "type": "node",
  "id": 1333604061,
  "lat": 49.0149428,
  "lon": 14.6160604
},
{
  "type": "node",
  "id": 1333604088,
  "lat": 49.0149207,
  "lon": 14.6159256
},
{
  "type": "node",
  "id": 1333604089,
  "lat": 49.0149455,
  "lon": 14.6160549
},
{
  "type": "node",
  "id": 1333604113,
  "lat": 49.0148651,
  "lon": 14.6161224
},
{
  "type": "node",
  "id": 1333604130,
  "lat": 49.0149176,
  "lon": 14.6158989
},
{
  "type": "node",
  "id": 4789590937,
  "lat": 49.0148390,
  "lon": 14.6159143
},
{
  "type": "node",
  "id": 4789590938,
  "lat": 49.0149314,
  "lon": 14.6160161
},
{
  "type": "node",
  "id": 4789590939,
  "lat": 49.0149277,
  "lon": 14.6160918
},
{
  "type": "node",
  "id": 4789590940,
  "lat": 49.0149225,
  "lon": 14.6161028
},
{
  "type": "node",
  "id": 2359995924,
  "lat": 48.9294459,
  "lon": 14.7384354
},
{
  "type": "node",
  "id": 2359995925,
  "lat": 48.9294449,
  "lon": 14.7385895
},
{
  "type": "node",
  "id": 2359995937,
  "lat": 48.9294784,
  "lon": 14.7383868
},
{
  "type": "node",
  "id": 2359995938,
  "lat": 48.9294774,
  "lon": 14.7384345
},
{
  "type": "node",
  "id": 2359995948,
  "lat": 48.9295388,
  "lon": 14.7383333
},
{
  "type": "node",
  "id": 2359995949,
  "lat": 48.9295395,
  "lon": 14.7383838
},
{
  "type": "node",
  "id": 2359995963,
  "lat": 48.9296412,
  "lon": 14.7383334
},
{
  "type": "node",
  "id": 2359995964,
  "lat": 48.9296421,
  "lon": 14.7385889
}

  ]
}
