{
  "version": 0.6,
  "generator": "Overpass API 0.7.55.9 ab41fea6",
  "osm3s": {
    "timestamp_osm_base": "2020-02-14T18:27:02Z",
    "copyright": "The data included in this document is from www.openstreetmap.org. The data is made available under ODbL."
  },
  "elements": [

{
  "type": "node",
  "id": 433632020,
  "lat": 56.1948052,
  "lon": 10.6768185,
  "tags": {
    "museum": "military",
    "name": "Militærhistorisk Museum",
    "note": "Location inaccurate",
    "tourism": "museum"
  }
},
{
  "type": "node",
  "id": 494614188,
  "lat": 56.2268729,
  "lon": 9.7425971,
  "tags": {
    "name": "Jysk Automobilmuseum",
    "tourism": "museum",
    "wikidata": "Q12320651",
    "wikipedia": "da:Jysk Automobilmuseum"
  }
},
{
  "type": "node",
  "id": 765835567,
  "lat": 56.2470256,
  "lon": 10.0399037,
  "tags": {
    "name": "Socialmuseum",
    "tourism": "museum"
  }
},
{
  "type": "node",
  "id": 1280605798,
  "lat": 56.0525029,
  "lon": 9.7499696,
  "tags": {
    "name": "Emborg / Øm Kloster museum",
    "tourism": "museum",
    "wikidata": "Q12342013",
    "wikipedia": "da:Øm Kloster museum"
  }
},
{
  "type": "node",
  "id": 1368166360,
  "lat": 56.1973816,
  "lon": 10.6735776,
  "tags": {
    "contact:website": "http://www.glasmuseet.dk",
    "museum": "art",
    "name": "Glasmuseet Ebeltoft",
    "toilets:wheelchair": "yes",
    "tourism": "museum",
    "wheelchair": "yes",
    "wikidata": "Q5566996",
    "wikipedia": "da:Glasmuseet Ebeltoft"
  }
},
{
  "type": "node",
  "id": 1547974933,
  "lat": 56.0760076,
  "lon": 9.7018259,
  "tags": {
    "name": "Træskomuseum",
    "tourism": "museum"
  }
},
{
  "type": "node",
  "id": 1917309369,
  "lat": 56.0399123,
  "lon": 9.6937411,
  "tags": {
    "name": "Klostermølle",
    "tourism": "museum",
    "wikidata": "Q6421395",
    "wikipedia": "da:Klostermølle"
  }
},
{
  "type": "node",
  "id": 2911355495,
  "lat": 56.4382525,
  "lon": 10.3421689,
  "tags": {
    "fvst:name": "Dansk Landbrugsmuseum Gl. Estrup",
    "fvst:navnelbnr": "568518",
    "name": "Dansk Landbrugsmuseum",
    "phone": "+45 86 48 34 44",
    "tourism": "museum",
    "website": "http://www.gl-estrup.dk/dk/forside.aspx",
    "wikidata": "Q12307483",
    "wikipedia": "da:Dansk Landbrugsmuseum"
  }
},
{
  "type": "node",
  "id": 3402667622,
  "lat": 56.0214983,
  "lon": 9.9181113,
  "tags": {
    "name": "Skanderborg Frihedsmuseum",
    "tourism": "museum"
  }
},
{
  "type": "node",
  "id": 4295287317,
  "lat": 56.3510590,
  "lon": 9.9910820,
  "tags": {
    "fvst:navnelbnr": "534793",
    "name": "Retroworld",
    "opening_hours": "Th 15:00-21:00",
    "phone": "+45 40447540",
    "tourism": "museum",
    "website": "http://retroworld.dk/"
  }
},
{
  "type": "node",
  "id": 4460697860,
  "lat": 56.1566900,
  "lon": 10.2091000,
  "tags": {
    "museum": "history",
    "name": "Vikingemuseet",
    "name:en": "The Viking Museum",
    "opening_hours": "Tu, Fr-Su 10:00-17:00; We-Th 10:00-21:00",
    "tourism": "museum",
    "website": "https://www.moesgaardmuseum.dk/",
    "wikidata": "Q4992847"
  }
},
{
  "type": "node",
  "id": 4545429400,
  "lat": 55.9488303,
  "lon": 10.4436623,
  "tags": {
    "name": "Thunø Museum",
    "tourism": "museum"
  }
},
{
  "type": "node",
  "id": 5693823189,
  "lat": 56.1992127,
  "lon": 10.6782428,
  "tags": {
    "fee": "no",
    "museum": "local",
    "name": "Farvergården",
    "opening_hours": "Jun-Aug Tu-Su 10:00-16:00",
    "operator": "Museum Østjylland",
    "tourism": "museum",
    "website": "https://museumoj.randers.dk/besoeg/%C3%A5bningstider-og-adresser/farvergaarden-i-ebeltoft/"
  }
},
{
  "type": "node",
  "id": 6704331499,
  "lat": 56.1725532,
  "lon": 10.1941551,
  "tags": {
    "name": "Museum Ovartaci",
    "note": "Dette er ifølge wikipedia midlertidige lokaler og planen skulle være at der flyttes igen i 2021",
    "opening_hours": "10:00-16:00; Sa,Su,PH 12:00-16:00",
    "tourism": "museum",
    "website": "http://www.ovartaci.dk/",
    "wikidata": "Q12327935",
    "wikipedia": "da:Museum Ovartaci"
  }
},
{
  "type": "way",
  "id": 23568150,
  "nodes": [
    255241794,
    2599034669,
    255241795,
    258373645,
    2599034637,
    255241796,
    2599034651,
    255241797,
    2599034677,
    655152809,
    255241794
  ],
  "tags": {
    "amenity": "arts_centre",
    "building": "yes",
    "building:colour": "#DB937B",
    "building:material": "brick",
    "height": "41",
    "museum": "art",
    "name": "ARoS Kunstmuseum",
    "roof:colour": "#555555",
    "roof:shape": "flat",
    "tourism": "museum",
    "website": "https://www.aros.dk/",
    "wheelchair": "yes",
    "wikidata": "Q296962",
    "wikipedia": "da:ARoS Aarhus Kunstmuseum"
  }
},
{
  "type": "way",
  "id": 41313307,
  "nodes": [
    505147148,
    505147150,
    505147152,
    505147154,
    505147155,
    505147157,
    505147158,
    505147159,
    505147161,
    505147162,
    505147165,
    505147168,
    505147170,
    505147171,
    505147173,
    505147174,
    505147175,
    505147176,
    505147177,
    505147179,
    505147182,
    505147184,
    505147187,
    505147188,
    505147190,
    505147191,
    505147148
  ],
  "tags": {
    "building": "yes",
    "fee": "yes",
    "name": "Naturhistorisk Museum",
    "tourism": "museum",
    "website": "http://www.naturhistoriskmuseum.dk/",
    "wikidata": "Q12328428",
    "wikipedia": "da:Naturhistorisk Museum"
  }
},
{
  "type": "way",
  "id": 41327377,
  "nodes": [
    505241067,
    505241069,
    505241072,
    505241075,
    505201817,
    505201816,
    505240884,
    505240888,
    505240892,
    505240894,
    505241067
  ],
  "tags": {
    "building": "yes",
    "fee": "no",
    "name": "Antikmuseet",
    "operator": "Aarhus Universitet (humaniora)",
    "tourism": "museum",
    "website": "http://antikmuseet.au.dk/",
    "wheelchair": "yes",
    "wikidata": "Q12301953",
    "wikipedia": "da:Antikmuseet"
  }
},
{
  "type": "way",
  "id": 96392253,
  "nodes": [
    1117049319,
    1117049518,
    1117049495,
    1117049524,
    1117049319
  ],
  "tags": {
    "building": "yes",
    "email": "info@detdanskegartnerimuseum.dk",
    "name": "Det Danske Gartnerimuseum",
    "opening_hours": "We 14:00-17:00",
    "tourism": "museum",
    "website": "http://www.detdanskegartnerimuseum.dk/"
  }
},
{
  "type": "way",
  "id": 96935592,
  "nodes": [
    1123345703,
    1123345610,
    1123345798,
    1123345719,
    1123345703
  ],
  "tags": {
    "building": "barn",
    "name": "Karlsladen",
    "tourism": "museum",
    "wikidata": "Q22956364",
    "wikimedia_commons": "Category:Karlsladen"
  }
},
{
  "type": "way",
  "id": 107356030,
  "nodes": [
    2911295443,
    1234013053,
    1234013098,
    1234013240,
    1234013075,
    4353047680,
    1234013124,
    1234013157,
    1234013213,
    1234013148,
    1234013200,
    1234013242,
    1234013144,
    1234012970,
    4353047679,
    4353047678,
    4353047677,
    1234012961,
    2911295443
  ],
  "tags": {
    "building": "yes",
    "museum": "art",
    "name": "Kunsthal Aarhus",
    "phone": "+45 86206050",
    "tourism": "museum",
    "website": "https://kunsthalaarhus.dk/",
    "wikidata": "Q4661711",
    "wikipedia": "da:Kunsthal Aarhus"
  }
},
{
  "type": "way",
  "id": 122448965,
  "nodes": [
    1368295326,
    1368295324,
    1368295323,
    1368295325,
    1368295327,
    1368295328,
    1368295330,
    1368295322,
    1368295331,
    5094671584,
    5094671583,
    5094671582,
    5094671581,
    5094671580,
    5094671579,
    1368295329,
    1368295326
  ],
  "tags": {
    "building": "lighthouse",
    "height": "16",
    "man_made": "lighthouse",
    "museum": "maritime",
    "name": "Sletterhage Fyr",
    "start_date": "1894",
    "tourism": "museum",
    "wikidata": "Q2294118",
    "wikipedia": "da:Sletterhage Fyr"
  }
},
{
  "type": "way",
  "id": 125548025,
  "nodes": [
    1394123401,
    1394123403,
    1394123398,
    1394123396,
    1394123401
  ],
  "tags": {
    "building": "yes",
    "fee": "no",
    "name": "Det Gamle Rådhus",
    "tourism": "museum",
    "wikidata": "Q12309322",
    "wikipedia": "da:Ebeltoft Rådhus (1789)"
  }
},
{
  "type": "way",
  "id": 126704941,
  "nodes": [
    1403878378,
    1403878381,
    1403878377,
    1403878375,
    1403878378
  ],
  "tags": {
    "building": "yes",
    "name": "Den Gamle Smedie",
    "tourism": "museum",
    "wikimedia_commons": "File:Tunø gamle smedje.jpg"
  }
},
{
  "type": "way",
  "id": 141426034,
  "nodes": [
    1547975024,
    1547975029,
    1547975019,
    1547974975,
    1547974944,
    1547974943,
    2375586417,
    2375586420,
    1547975024
  ],
  "tags": {
    "building": "windmill",
    "functional": "yes",
    "man_made": "windmill",
    "name": "Gammel Rye Mølle",
    "start_date": "1872",
    "tourism": "museum",
    "website": "http://www.museumskanderborg.dk/Forside-210.aspx",
    "wikidata": "Q16514223",
    "wikipedia": "da:Gammel Rye Mølle",
    "windmill:type": "smock",
    "windmill:vanes": "yes"
  }
},
{
  "type": "way",
  "id": 143766187,
  "nodes": [
    1573163035,
    2705813976,
    2705813979,
    2705813978,
    2705813977,
    2705813980,
    1573163040,
    4558952561,
    4558952562,
    4558952563,
    1573163051,
    1573163052,
    1573163043,
    3368944383,
    3368944382,
    3368944377,
    3368944376,
    5629964322,
    5629964323,
    5629964324,
    5629964325,
    5629964326,
    5629964327,
    1573163029,
    3368944355,
    3368944347,
    3368944350,
    3368944343,
    3368944339,
    3368944337,
    1573163024,
    3368944320,
    3368944305,
    1573163014,
    2705813966,
    1573163013,
    1573163011,
    1573163015,
    1573163017,
    5120483865,
    1573163021,
    1573163022,
    2705813972,
    2705813971,
    2705813973,
    2705813974,
    1573163035
  ],
  "tags": {
    "barrier": "wall",
    "museum": "open_air",
    "name": "Den Gamle By",
    "name:en": "The Old Town, Aarhus",
    "tourism": "museum",
    "website": "https://www.dengamleby.dk/",
    "wheelchair": "limited",
    "wikidata": "Q1186756",
    "wikipedia": "da:Den Gamle By"
  }
},
{
  "type": "way",
  "id": 171254330,
  "nodes": [
    3316141635,
    1823160453,
    1823160447,
    3316141627,
    3316141626,
    3316141622,
    3316141623,
    1823160260,
    3316141607,
    3316141608,
    3316141610,
    3316141613,
    3316141614,
    3316141611,
    3316141609,
    3316141606,
    3316141605,
    1823160352,
    1823160415,
    3316141599,
    3316141596,
    3316141594,
    3316141593,
    3316141595,
    3316141598,
    3316141601,
    3316141602,
    3316141600,
    3316141617,
    3316141618,
    3316141625,
    3316141624,
    3316141633,
    3316141632,
    3316141634,
    3316141636,
    3316141639,
    3316141641,
    3316141640,
    3316141638,
    3316141635
  ],
  "tags": {
    "building": "yes",
    "building:material": "brick",
    "castle_type": "manor",
    "fvst:navnelbnr": "39579",
    "historic": "castle",
    "name": "Gammel Estrup",
    "tourism": "museum",
    "website": "http://www.gammelestrup.dk/",
    "wikidata": "Q787105",
    "wikipedia": "da:Gammel Estrup"
  }
},
{
  "type": "way",
  "id": 239852054,
  "nodes": [
    2476357601,
    2476357600,
    2476357604,
    2476357605,
    2476357608,
    2476357609,
    2476357606,
    5943018501,
    5943018502,
    2476357607,
    2476357603,
    2476357602,
    2476357599,
    5943018503,
    5943018505,
    5943018506,
    5943018504,
    2476357598,
    2476357601
  ],
  "tags": {
    "alt_name": "Elvis Museet",
    "building": "yes",
    "name": "Memphis Mansion",
    "old_name": "Graceland Randers",
    "opening_hours": "Mo-Su 10:00-21:00",
    "tourism": "museum",
    "website": "http://www.elvispresley.dk/",
    "wikidata": "Q11860618",
    "wikipedia": "da:Memphis Mansion"
  }
},
{
  "type": "way",
  "id": 308738124,
  "nodes": [
    3140020605,
    3140020606,
    3140020607,
    3140020608,
    3255107804,
    3255107828,
    3255107827,
    3255107801,
    3140020605
  ],
  "tags": {
    "building": "yes",
    "email": "INFO@MOESGAARDMUSEUM.DK",
    "fvst:navnelbnr": "706418",
    "name": "Moesgaard Museum",
    "phone": "+45 8739 4000",
    "tourism": "museum",
    "website": "https://www.moesgaardmuseum.dk/",
    "wikidata": "Q3299384",
    "wikimedia_commons": "Category:Moesgård",
    "wikipedia": "da:Moesgaard Museum"
  }
},
{
  "type": "way",
  "id": 314471219,
  "nodes": [
    3205189361,
    260448524,
    3205188954,
    3205188955,
    3205189361
  ],
  "tags": {
    "building": "yes",
    "man_made": "watermill",
    "name": "Moesgård Skovmølle",
    "tourism": "museum",
    "wikidata": "Q12327419",
    "wikimedia_commons": "File:Moesgård Skovmølle.JPG",
    "wikipedia": "da:Moesgård Skovmølle"
  }
},
{
  "type": "way",
  "id": 323360130,
  "nodes": [
    3301623978,
    3301623976,
    3301623974,
    3301623972,
    3301623973,
    3301623975,
    3301623977,
    3301623979,
    3301623980,
    3301623982,
    3301623981,
    3301623978
  ],
  "tags": {
    "building": "ship",
    "historic": "ship",
    "museum": "maritime",
    "name": "Fregatten Jylland",
    "ship:type": "frigate",
    "start_date": "1860",
    "tourism": "museum",
    "website": "http://www.fregatten-jylland.dk/",
    "wheelchair": "yes",
    "wikidata": "Q1668596",
    "wikipedia": "da:Fregatten Jylland"
  }
},
{
  "type": "way",
  "id": 468773795,
  "nodes": [
    505147014,
    505147016,
    505147017,
    505147019,
    505147021,
    505147023,
    505147024,
    505147025,
    505147027,
    2398665419,
    505147028,
    505147029,
    505147011,
    505147014
  ],
  "tags": {
    "building": "yes",
    "building:colour": "#F0DCB7",
    "building:levels": "3",
    "name": "Steno Museet",
    "roof:colour": "#F0DCB7",
    "tourism": "museum",
    "website": "http://www.stenomuseet.dk",
    "wikidata": "Q12337121",
    "wikipedia": "da:Steno Museet"
  }
},
{
  "type": "way",
  "id": 520814407,
  "nodes": [
    5075510305,
    5075510304,
    5075510303,
    5075510302,
    5075510305
  ],
  "tags": {
    "building": "yes",
    "name": "Overtaci Fields",
    "opening_hours": "Mo-Fr 12:00-16:00",
    "operator": "Museum Ovartaci",
    "tourism": "museum"
  }
},
{
  "type": "way",
  "id": 635792100,
  "nodes": [
    1279325085,
    5996486188,
    1279324817,
    1279324346,
    1279324528,
    1279324970,
    1279324623,
    1279325085
  ],
  "tags": {
    "museum": "history",
    "name": "Besættelsesmuseet",
    "name:uk": "Музей окупації",
    "tourism": "museum",
    "website": "https://www.besaettelsesmuseet.dk/",
    "wikidata": "Q12303337",
    "wikipedia": "da:Besættelsesmuseet"
  }
},
{
  "type": "way",
  "id": 635792101,
  "nodes": [
    1279324680,
    1279324704,
    1279324753,
    1279324426,
    1279324391,
    1279324285,
    1279324680
  ],
  "tags": {
    "museum": "history",
    "name": "Kvindemuseet",
    "tourism": "museum",
    "website": "http://www.kvindemuseet.dk/",
    "wheelchair": "limited",
    "wikidata": "Q6449744",
    "wikipedia": "da:Kvindemuseet i Danmark"
  }
},
{
  "type": "way",
  "id": 706210781,
  "nodes": [
    6635692974,
    1985679995,
    6635692973,
    1066250467,
    1066250464,
    6635692972,
    6635692974
  ],
  "tags": {
    "museum": "railway",
    "name": "Djursland Jernbanemuseum",
    "tourism": "museum",
    "website": "http://www.djbm.dk",
    "wikidata": "Q26884247",
    "wikipedia": "da:Djurslands Jernbanemuseum"
  }
},
{
  "type": "way",
  "id": 758913645,
  "nodes": [
    7088065678,
    7088065677,
    2515080812,
    4646158654,
    7088065676,
    7088065675,
    7088065674,
    7088065673,
    7088065672,
    7088065678
  ],
  "tags": {
    "name": "Odder Museum",
    "opening_hours": "13:00-16:00; Jul 10:00-16:00; Mo off; Th[-1] 18:00-21:00; Sa,Su,PH 13:00-17:00",
    "phone": "+45 86540175",
    "tourism": "museum",
    "website": "https://www.oddermuseum.dk/",
    "wikidata": "Q12329835",
    "wikipedia": "da:Odder Museum"
  }
},
{
  "type": "node",
  "id": 1547974943,
  "lat": 56.0760042,
  "lon": 9.7020447
},
{
  "type": "node",
  "id": 1547974944,
  "lat": 56.0760138,
  "lon": 9.7021310
},
{
  "type": "node",
  "id": 1547974975,
  "lat": 56.0760545,
  "lon": 9.7021803
},
{
  "type": "node",
  "id": 1547975019,
  "lat": 56.0761029,
  "lon": 9.7021623
},
{
  "type": "node",
  "id": 1547975024,
  "lat": 56.0761204,
  "lon": 9.7020027
},
{
  "type": "node",
  "id": 1547975029,
  "lat": 56.0761301,
  "lon": 9.7020890
},
{
  "type": "node",
  "id": 2375586417,
  "lat": 56.0760314,
  "lon": 9.7019714
},
{
  "type": "node",
  "id": 2375586420,
  "lat": 56.0760795,
  "lon": 9.7019541
},
{
  "type": "node",
  "id": 2476357598,
  "lat": 56.4332444,
  "lon": 10.0542255
},
{
  "type": "node",
  "id": 2476357599,
  "lat": 56.4332694,
  "lon": 10.0544152
},
{
  "type": "node",
  "id": 2476357600,
  "lat": 56.4333026,
  "lon": 10.0541504
},
{
  "type": "node",
  "id": 2476357601,
  "lat": 56.4333089,
  "lon": 10.0541980
},
{
  "type": "node",
  "id": 2476357602,
  "lat": 56.4333205,
  "lon": 10.0543934
},
{
  "type": "node",
  "id": 2476357603,
  "lat": 56.4333438,
  "lon": 10.0545724
},
{
  "type": "node",
  "id": 2476357604,
  "lat": 56.4333627,
  "lon": 10.0541248
},
{
  "type": "node",
  "id": 2476357605,
  "lat": 56.4333690,
  "lon": 10.0541730
},
{
  "type": "node",
  "id": 2476357606,
  "lat": 56.4334272,
  "lon": 10.0543485
},
{
  "type": "node",
  "id": 2476357607,
  "lat": 56.4334339,
  "lon": 10.0545340
},
{
  "type": "node",
  "id": 2476357608,
  "lat": 56.4334988,
  "lon": 10.0541177
},
{
  "type": "node",
  "id": 2476357609,
  "lat": 56.4335235,
  "lon": 10.0543075
},
{
  "type": "node",
  "id": 5943018501,
  "lat": 56.4334375,
  "lon": 10.0544272
},
{
  "type": "node",
  "id": 5943018502,
  "lat": 56.4334209,
  "lon": 10.0544342
},
{
  "type": "node",
  "id": 5943018503,
  "lat": 56.4332672,
  "lon": 10.0543977
},
{
  "type": "node",
  "id": 5943018504,
  "lat": 56.4332461,
  "lon": 10.0542389
},
{
  "type": "node",
  "id": 5943018505,
  "lat": 56.4332046,
  "lon": 10.0544243
},
{
  "type": "node",
  "id": 5943018506,
  "lat": 56.4331839,
  "lon": 10.0542654
},
{
  "type": "node",
  "id": 7088065675,
  "lat": 55.9698439,
  "lon": 10.1383692
},
{
  "type": "node",
  "id": 7088065676,
  "lat": 55.9699919,
  "lon": 10.1379935
},
{
  "type": "node",
  "id": 2515080812,
  "lat": 55.9706932,
  "lon": 10.1388071
},
{
  "type": "node",
  "id": 4646158654,
  "lat": 55.9706308,
  "lon": 10.1388664
},
{
  "type": "node",
  "id": 7088065672,
  "lat": 55.9706274,
  "lon": 10.1395775
},
{
  "type": "node",
  "id": 7088065673,
  "lat": 55.9701073,
  "lon": 10.1388091
},
{
  "type": "node",
  "id": 7088065674,
  "lat": 55.9701426,
  "lon": 10.1387246
},
{
  "type": "node",
  "id": 7088065677,
  "lat": 55.9708646,
  "lon": 10.1386052
},
{
  "type": "node",
  "id": 7088065678,
  "lat": 55.9709854,
  "lon": 10.1393254
},
{
  "type": "node",
  "id": 1403878375,
  "lat": 55.9475292,
  "lon": 10.4402342
},
{
  "type": "node",
  "id": 1403878377,
  "lat": 55.9475637,
  "lon": 10.4403026
},
{
  "type": "node",
  "id": 1403878378,
  "lat": 55.9475672,
  "lon": 10.4401732
},
{
  "type": "node",
  "id": 1403878381,
  "lat": 55.9476017,
  "lon": 10.4402416
},
{
  "type": "node",
  "id": 1117049319,
  "lat": 56.0592128,
  "lon": 10.1976119
},
{
  "type": "node",
  "id": 1117049495,
  "lat": 56.0589916,
  "lon": 10.1980847
},
{
  "type": "node",
  "id": 1117049518,
  "lat": 56.0589302,
  "lon": 10.1978332
},
{
  "type": "node",
  "id": 1117049524,
  "lat": 56.0592742,
  "lon": 10.1978634
},
{
  "type": "node",
  "id": 3140020605,
  "lat": 56.0879560,
  "lon": 10.2233918
},
{
  "type": "node",
  "id": 3140020606,
  "lat": 56.0892436,
  "lon": 10.2223993
},
{
  "type": "node",
  "id": 3140020608,
  "lat": 56.0882046,
  "lon": 10.2246150
},
{
  "type": "node",
  "id": 3255107801,
  "lat": 56.0880676,
  "lon": 10.2241246
},
{
  "type": "node",
  "id": 3255107804,
  "lat": 56.0881517,
  "lon": 10.2243859
},
{
  "type": "node",
  "id": 3255107827,
  "lat": 56.0884899,
  "lon": 10.2237964
},
{
  "type": "node",
  "id": 3255107828,
  "lat": 56.0885534,
  "lon": 10.2240677
},
{
  "type": "node",
  "id": 260448524,
  "lat": 56.0845707,
  "lon": 10.2351918
},
{
  "type": "node",
  "id": 3205188954,
  "lat": 56.0844800,
  "lon": 10.2351716
},
{
  "type": "node",
  "id": 3205188955,
  "lat": 56.0844880,
  "lon": 10.2350581
},
{
  "type": "node",
  "id": 3205189361,
  "lat": 56.0845785,
  "lon": 10.2350783
},
{
  "type": "node",
  "id": 3140020607,
  "lat": 56.0895295,
  "lon": 10.2236292
},
{
  "type": "node",
  "id": 1573163024,
  "lat": 56.1587943,
  "lon": 10.1901364
},
{
  "type": "node",
  "id": 1573163029,
  "lat": 56.1589238,
  "lon": 10.1900212
},
{
  "type": "node",
  "id": 1573163043,
  "lat": 56.1599388,
  "lon": 10.1904678
},
{
  "type": "node",
  "id": 1573163052,
  "lat": 56.1600639,
  "lon": 10.1905059
},
{
  "type": "node",
  "id": 3368944337,
  "lat": 56.1588186,
  "lon": 10.1901401
},
{
  "type": "node",
  "id": 3368944339,
  "lat": 56.1588298,
  "lon": 10.1901889
},
{
  "type": "node",
  "id": 3368944343,
  "lat": 56.1588554,
  "lon": 10.1901672
},
{
  "type": "node",
  "id": 3368944347,
  "lat": 56.1588760,
  "lon": 10.1900909
},
{
  "type": "node",
  "id": 3368944350,
  "lat": 56.1588887,
  "lon": 10.1901385
},
{
  "type": "node",
  "id": 3368944355,
  "lat": 56.1589253,
  "lon": 10.1900520
},
{
  "type": "node",
  "id": 3368944376,
  "lat": 56.1593962,
  "lon": 10.1898804
},
{
  "type": "node",
  "id": 3368944377,
  "lat": 56.1594852,
  "lon": 10.1900070
},
{
  "type": "node",
  "id": 3368944382,
  "lat": 56.1598420,
  "lon": 10.1898046
},
{
  "type": "node",
  "id": 3368944383,
  "lat": 56.1600036,
  "lon": 10.1898625
},
{
  "type": "node",
  "id": 5629964322,
  "lat": 56.1593017,
  "lon": 10.1899400
},
{
  "type": "node",
  "id": 5629964323,
  "lat": 56.1592957,
  "lon": 10.1899092
},
{
  "type": "node",
  "id": 5629964324,
  "lat": 56.1592210,
  "lon": 10.1899722
},
{
  "type": "node",
  "id": 5629964325,
  "lat": 56.1592132,
  "lon": 10.1899400
},
{
  "type": "node",
  "id": 5629964326,
  "lat": 56.1591351,
  "lon": 10.1899756
},
{
  "type": "node",
  "id": 5629964327,
  "lat": 56.1591254,
  "lon": 10.1899541
},
{
  "type": "node",
  "id": 1573163011,
  "lat": 56.1580152,
  "lon": 10.1936695
},
{
  "type": "node",
  "id": 1573163013,
  "lat": 56.1579508,
  "lon": 10.1936053
},
{
  "type": "node",
  "id": 1573163014,
  "lat": 56.1577623,
  "lon": 10.1934140
},
{
  "type": "node",
  "id": 1573163015,
  "lat": 56.1581079,
  "lon": 10.1938121
},
{
  "type": "node",
  "id": 1573163017,
  "lat": 56.1581384,
  "lon": 10.1938052
},
{
  "type": "node",
  "id": 1573163021,
  "lat": 56.1582956,
  "lon": 10.1936971
},
{
  "type": "node",
  "id": 1573163022,
  "lat": 56.1583153,
  "lon": 10.1937635
},
{
  "type": "node",
  "id": 1573163035,
  "lat": 56.1594985,
  "lon": 10.1928930
},
{
  "type": "node",
  "id": 1573163040,
  "lat": 56.1597404,
  "lon": 10.1912726
},
{
  "type": "node",
  "id": 1573163051,
  "lat": 56.1600350,
  "lon": 10.1911653
},
{
  "type": "node",
  "id": 2705813966,
  "lat": 56.1577498,
  "lon": 10.1935063
},
{
  "type": "node",
  "id": 2705813971,
  "lat": 56.1587911,
  "lon": 10.1932031
},
{
  "type": "node",
  "id": 2705813972,
  "lat": 56.1588048,
  "lon": 10.1932596
},
{
  "type": "node",
  "id": 2705813973,
  "lat": 56.1591154,
  "lon": 10.1928605
},
{
  "type": "node",
  "id": 2705813974,
  "lat": 56.1592083,
  "lon": 10.1931687
},
{
  "type": "node",
  "id": 2705813976,
  "lat": 56.1594616,
  "lon": 10.1927413
},
{
  "type": "node",
  "id": 2705813977,
  "lat": 56.1594770,
  "lon": 10.1924607
},
{
  "type": "node",
  "id": 2705813978,
  "lat": 56.1594964,
  "lon": 10.1925506
},
{
  "type": "node",
  "id": 2705813979,
  "lat": 56.1595270,
  "lon": 10.1926826
},
{
  "type": "node",
  "id": 2705813980,
  "lat": 56.1596016,
  "lon": 10.1923213
},
{
  "type": "node",
  "id": 3368944305,
  "lat": 56.1581685,
  "lon": 10.1921241
},
{
  "type": "node",
  "id": 3368944320,
  "lat": 56.1585290,
  "lon": 10.1909791
},
{
  "type": "node",
  "id": 4558952561,
  "lat": 56.1597615,
  "lon": 10.1912765
},
{
  "type": "node",
  "id": 4558952562,
  "lat": 56.1597791,
  "lon": 10.1912799
},
{
  "type": "node",
  "id": 4558952563,
  "lat": 56.1597896,
  "lon": 10.1911766
},
{
  "type": "node",
  "id": 5120483865,
  "lat": 56.1582345,
  "lon": 10.1937391
},
{
  "type": "node",
  "id": 255241794,
  "lat": 56.1542093,
  "lon": 10.1997549
},
{
  "type": "node",
  "id": 255241795,
  "lat": 56.1538125,
  "lon": 10.2001765
},
{
  "type": "node",
  "id": 255241796,
  "lat": 56.1535738,
  "lon": 10.1994522
},
{
  "type": "node",
  "id": 255241797,
  "lat": 56.1539706,
  "lon": 10.1990307
},
{
  "type": "node",
  "id": 258373645,
  "lat": 56.1536751,
  "lon": 10.1997597
},
{
  "type": "node",
  "id": 655152809,
  "lat": 56.1541266,
  "lon": 10.1995007
},
{
  "type": "node",
  "id": 2599034637,
  "lat": 56.1536645,
  "lon": 10.1997273
},
{
  "type": "node",
  "id": 2599034651,
  "lat": 56.1537869,
  "lon": 10.1992258
},
{
  "type": "node",
  "id": 2599034669,
  "lat": 56.1540072,
  "lon": 10.1999696
},
{
  "type": "node",
  "id": 2599034677,
  "lat": 56.1540930,
  "lon": 10.1994022
},
{
  "type": "node",
  "id": 1234012961,
  "lat": 56.1549053,
  "lon": 10.2019248
},
{
  "type": "node",
  "id": 1234012970,
  "lat": 56.1550506,
  "lon": 10.2017210
},
{
  "type": "node",
  "id": 1234013053,
  "lat": 56.1549010,
  "lon": 10.2021397
},
{
  "type": "node",
  "id": 1234013075,
  "lat": 56.1551545,
  "lon": 10.2019244
},
{
  "type": "node",
  "id": 1234013098,
  "lat": 56.1550262,
  "lon": 10.2022838
},
{
  "type": "node",
  "id": 1234013124,
  "lat": 56.1551723,
  "lon": 10.2019915
},
{
  "type": "node",
  "id": 1234013144,
  "lat": 56.1551806,
  "lon": 10.2018747
},
{
  "type": "node",
  "id": 1234013148,
  "lat": 56.1552612,
  "lon": 10.2019582
},
{
  "type": "node",
  "id": 1234013157,
  "lat": 56.1551997,
  "lon": 10.2020267
},
{
  "type": "node",
  "id": 1234013200,
  "lat": 56.1552534,
  "lon": 10.2018911
},
{
  "type": "node",
  "id": 1234013213,
  "lat": 56.1552349,
  "lon": 10.2020206
},
{
  "type": "node",
  "id": 1234013240,
  "lat": 56.1551006,
  "lon": 10.2020753
},
{
  "type": "node",
  "id": 1234013242,
  "lat": 56.1552234,
  "lon": 10.2018551
},
{
  "type": "node",
  "id": 2911295443,
  "lat": 56.1549516,
  "lon": 10.2019979
},
{
  "type": "node",
  "id": 4353047677,
  "lat": 56.1549288,
  "lon": 10.2018685
},
{
  "type": "node",
  "id": 4353047678,
  "lat": 56.1549494,
  "lon": 10.2018222
},
{
  "type": "node",
  "id": 4353047679,
  "lat": 56.1549912,
  "lon": 10.2017565
},
{
  "type": "node",
  "id": 4353047680,
  "lat": 56.1551637,
  "lon": 10.2019349
},
{
  "type": "node",
  "id": 505147011,
  "lat": 56.1654283,
  "lon": 10.2024754
},
{
  "type": "node",
  "id": 505147014,
  "lat": 56.1651517,
  "lon": 10.2026535
},
{
  "type": "node",
  "id": 505147016,
  "lat": 56.1651981,
  "lon": 10.2028842
},
{
  "type": "node",
  "id": 505147017,
  "lat": 56.1652951,
  "lon": 10.2028212
},
{
  "type": "node",
  "id": 505147019,
  "lat": 56.1653390,
  "lon": 10.2030391
},
{
  "type": "node",
  "id": 505147021,
  "lat": 56.1652199,
  "lon": 10.2031166
},
{
  "type": "node",
  "id": 505147023,
  "lat": 56.1652631,
  "lon": 10.2033315
},
{
  "type": "node",
  "id": 505147024,
  "lat": 56.1655427,
  "lon": 10.2031514
},
{
  "type": "node",
  "id": 505147025,
  "lat": 56.1655002,
  "lon": 10.2029384
},
{
  "type": "node",
  "id": 505147027,
  "lat": 56.1655862,
  "lon": 10.2028829
},
{
  "type": "node",
  "id": 505147028,
  "lat": 56.1655420,
  "lon": 10.2026612
},
{
  "type": "node",
  "id": 505147029,
  "lat": 56.1654741,
  "lon": 10.2027049
},
{
  "type": "node",
  "id": 505147148,
  "lat": 56.1674191,
  "lon": 10.2022162
},
{
  "type": "node",
  "id": 505147150,
  "lat": 56.1671189,
  "lon": 10.2024151
},
{
  "type": "node",
  "id": 505147152,
  "lat": 56.1671616,
  "lon": 10.2026234
},
{
  "type": "node",
  "id": 505147154,
  "lat": 56.1672519,
  "lon": 10.2025636
},
{
  "type": "node",
  "id": 505147155,
  "lat": 56.1673140,
  "lon": 10.2028659
},
{
  "type": "node",
  "id": 505147157,
  "lat": 56.1671672,
  "lon": 10.2029631
},
{
  "type": "node",
  "id": 505147158,
  "lat": 56.1672090,
  "lon": 10.2031666
},
{
  "type": "node",
  "id": 505147159,
  "lat": 56.1673530,
  "lon": 10.2030711
},
{
  "type": "node",
  "id": 505147161,
  "lat": 56.1673803,
  "lon": 10.2032038
},
{
  "type": "node",
  "id": 505147162,
  "lat": 56.1673060,
  "lon": 10.2032530
},
{
  "type": "node",
  "id": 505147165,
  "lat": 56.1673691,
  "lon": 10.2035605
},
{
  "type": "node",
  "id": 505147168,
  "lat": 56.1674820,
  "lon": 10.2034857
},
{
  "type": "node",
  "id": 505147170,
  "lat": 56.1674483,
  "lon": 10.2033216
},
{
  "type": "node",
  "id": 505147171,
  "lat": 56.1674849,
  "lon": 10.2032974
},
{
  "type": "node",
  "id": 505147173,
  "lat": 56.1674593,
  "lon": 10.2031728
},
{
  "type": "node",
  "id": 505147176,
  "lat": 56.1675468,
  "lon": 10.2028664
},
{
  "type": "node",
  "id": 505147177,
  "lat": 56.1674738,
  "lon": 10.2025111
},
{
  "type": "node",
  "id": 505147179,
  "lat": 56.1674086,
  "lon": 10.2025543
},
{
  "type": "node",
  "id": 505147182,
  "lat": 56.1673971,
  "lon": 10.2024980
},
{
  "type": "node",
  "id": 505147184,
  "lat": 56.1673363,
  "lon": 10.2025383
},
{
  "type": "node",
  "id": 505147187,
  "lat": 56.1673465,
  "lon": 10.2025881
},
{
  "type": "node",
  "id": 505147188,
  "lat": 56.1673224,
  "lon": 10.2026041
},
{
  "type": "node",
  "id": 505147190,
  "lat": 56.1673055,
  "lon": 10.2025219
},
{
  "type": "node",
  "id": 505147191,
  "lat": 56.1674608,
  "lon": 10.2024191
},
{
  "type": "node",
  "id": 2398665419,
  "lat": 56.1655706,
  "lon": 10.2028048
},
{
  "type": "node",
  "id": 1279324285,
  "lat": 56.1571928,
  "lon": 10.2111277
},
{
  "type": "node",
  "id": 1279324346,
  "lat": 56.1573042,
  "lon": 10.2113676
},
{
  "type": "node",
  "id": 1279324391,
  "lat": 56.1571463,
  "lon": 10.2116436
},
{
  "type": "node",
  "id": 1279324426,
  "lat": 56.1572523,
  "lon": 10.2116744
},
{
  "type": "node",
  "id": 1279324528,
  "lat": 56.1572940,
  "lon": 10.2114808
},
{
  "type": "node",
  "id": 1279324623,
  "lat": 56.1574800,
  "lon": 10.2115739
},
{
  "type": "node",
  "id": 1279324680,
  "lat": 56.1572988,
  "lon": 10.2111585
},
{
  "type": "node",
  "id": 1279324704,
  "lat": 56.1572806,
  "lon": 10.2113608
},
{
  "type": "node",
  "id": 1279324753,
  "lat": 56.1572704,
  "lon": 10.2114739
},
{
  "type": "node",
  "id": 1279324817,
  "lat": 56.1573076,
  "lon": 10.2113305
},
{
  "type": "node",
  "id": 1279324970,
  "lat": 56.1572906,
  "lon": 10.2115188
},
{
  "type": "node",
  "id": 1279325085,
  "lat": 56.1574970,
  "lon": 10.2113856
},
{
  "type": "node",
  "id": 5996486188,
  "lat": 56.1574665,
  "lon": 10.2113767
},
{
  "type": "node",
  "id": 5075510302,
  "lat": 56.1927334,
  "lon": 10.1753896
},
{
  "type": "node",
  "id": 5075510303,
  "lat": 56.1927593,
  "lon": 10.1755096
},
{
  "type": "node",
  "id": 5075510304,
  "lat": 56.1928502,
  "lon": 10.1754465
},
{
  "type": "node",
  "id": 5075510305,
  "lat": 56.1928243,
  "lon": 10.1753265
},
{
  "type": "node",
  "id": 505147174,
  "lat": 56.1676904,
  "lon": 10.2030197
},
{
  "type": "node",
  "id": 505147175,
  "lat": 56.1676455,
  "lon": 10.2028010
},
{
  "type": "node",
  "id": 505201816,
  "lat": 56.1705064,
  "lon": 10.2000296
},
{
  "type": "node",
  "id": 505201817,
  "lat": 56.1705884,
  "lon": 10.1999763
},
{
  "type": "node",
  "id": 505240884,
  "lat": 56.1705580,
  "lon": 10.2002875
},
{
  "type": "node",
  "id": 505240888,
  "lat": 56.1703639,
  "lon": 10.2004159
},
{
  "type": "node",
  "id": 505240892,
  "lat": 56.1703925,
  "lon": 10.2005555
},
{
  "type": "node",
  "id": 505240894,
  "lat": 56.1706009,
  "lon": 10.2004177
},
{
  "type": "node",
  "id": 505241067,
  "lat": 56.1706833,
  "lon": 10.2003636
},
{
  "type": "node",
  "id": 505241069,
  "lat": 56.1707565,
  "lon": 10.2003152
},
{
  "type": "node",
  "id": 505241072,
  "lat": 56.1707253,
  "lon": 10.2001632
},
{
  "type": "node",
  "id": 505241075,
  "lat": 56.1706383,
  "lon": 10.2002207
},
{
  "type": "node",
  "id": 1368295322,
  "lat": 56.0951045,
  "lon": 10.5129205
},
{
  "type": "node",
  "id": 1368295323,
  "lat": 56.0950618,
  "lon": 10.5129289
},
{
  "type": "node",
  "id": 1368295324,
  "lat": 56.0950570,
  "lon": 10.5129130
},
{
  "type": "node",
  "id": 1368295325,
  "lat": 56.0950697,
  "lon": 10.5129402
},
{
  "type": "node",
  "id": 1368295326,
  "lat": 56.0950559,
  "lon": 10.5128951
},
{
  "type": "node",
  "id": 1368295327,
  "lat": 56.0950793,
  "lon": 10.5129452
},
{
  "type": "node",
  "id": 1368295328,
  "lat": 56.0950893,
  "lon": 10.5129433
},
{
  "type": "node",
  "id": 1368295329,
  "lat": 56.0950587,
  "lon": 10.5128778
},
{
  "type": "node",
  "id": 1368295330,
  "lat": 56.0950982,
  "lon": 10.5129346
},
{
  "type": "node",
  "id": 1368295331,
  "lat": 56.0951073,
  "lon": 10.5129031
},
{
  "type": "node",
  "id": 5094671579,
  "lat": 56.0950650,
  "lon": 10.5128637
},
{
  "type": "node",
  "id": 5094671580,
  "lat": 56.0950738,
  "lon": 10.5128550
},
{
  "type": "node",
  "id": 5094671581,
  "lat": 56.0950838,
  "lon": 10.5128530
},
{
  "type": "node",
  "id": 5094671582,
  "lat": 56.0950935,
  "lon": 10.5128581
},
{
  "type": "node",
  "id": 5094671583,
  "lat": 56.0951013,
  "lon": 10.5128694
},
{
  "type": "node",
  "id": 5094671584,
  "lat": 56.0951062,
  "lon": 10.5128852
},
{
  "type": "node",
  "id": 3301623972,
  "lat": 56.1989035,
  "lon": 10.6735955
},
{
  "type": "node",
  "id": 3301623973,
  "lat": 56.1989517,
  "lon": 10.6737115
},
{
  "type": "node",
  "id": 3301623974,
  "lat": 56.1989879,
  "lon": 10.6735725
},
{
  "type": "node",
  "id": 3301623975,
  "lat": 56.1990053,
  "lon": 10.6737689
},
{
  "type": "node",
  "id": 3301623976,
  "lat": 56.1990407,
  "lon": 10.6735906
},
{
  "type": "node",
  "id": 3301623977,
  "lat": 56.1993484,
  "lon": 10.6740168
},
{
  "type": "node",
  "id": 3301623978,
  "lat": 56.1993857,
  "lon": 10.6738385
},
{
  "type": "node",
  "id": 3301623979,
  "lat": 56.1994598,
  "lon": 10.6740681
},
{
  "type": "node",
  "id": 3301623980,
  "lat": 56.1994829,
  "lon": 10.6740595
},
{
  "type": "node",
  "id": 3301623981,
  "lat": 56.1994924,
  "lon": 10.6739521
},
{
  "type": "node",
  "id": 3301623982,
  "lat": 56.1995032,
  "lon": 10.6739765
},
{
  "type": "node",
  "id": 1394123396,
  "lat": 56.1977649,
  "lon": 10.6768989
},
{
  "type": "node",
  "id": 1394123398,
  "lat": 56.1978236,
  "lon": 10.6769213
},
{
  "type": "node",
  "id": 1394123401,
  "lat": 56.1977909,
  "lon": 10.6766780
},
{
  "type": "node",
  "id": 1394123403,
  "lat": 56.1978496,
  "lon": 10.6767004
},
{
  "type": "node",
  "id": 1823160260,
  "lat": 56.4378256,
  "lon": 10.3444690
},
{
  "type": "node",
  "id": 1823160352,
  "lat": 56.4377892,
  "lon": 10.3447887
},
{
  "type": "node",
  "id": 1823160415,
  "lat": 56.4376816,
  "lon": 10.3447486
},
{
  "type": "node",
  "id": 1823160447,
  "lat": 56.4379634,
  "lon": 10.3448740
},
{
  "type": "node",
  "id": 1823160453,
  "lat": 56.4380484,
  "lon": 10.3449057
},
{
  "type": "node",
  "id": 3316141593,
  "lat": 56.4376844,
  "lon": 10.3442090
},
{
  "type": "node",
  "id": 3316141594,
  "lat": 56.4376865,
  "lon": 10.3442615
},
{
  "type": "node",
  "id": 3316141595,
  "lat": 56.4377034,
  "lon": 10.3441691
},
{
  "type": "node",
  "id": 3316141596,
  "lat": 56.4377086,
  "lon": 10.3442959
},
{
  "type": "node",
  "id": 3316141598,
  "lat": 56.4377325,
  "lon": 10.3441653
},
{
  "type": "node",
  "id": 3316141599,
  "lat": 56.4377336,
  "lon": 10.3442926
},
{
  "type": "node",
  "id": 3316141600,
  "lat": 56.4377540,
  "lon": 10.3442578
},
{
  "type": "node",
  "id": 3316141601,
  "lat": 56.4377545,
  "lon": 10.3441997
},
{
  "type": "node",
  "id": 3316141602,
  "lat": 56.4377566,
  "lon": 10.3442522
},
{
  "type": "node",
  "id": 3316141605,
  "lat": 56.4378074,
  "lon": 10.3446285
},
{
  "type": "node",
  "id": 3316141606,
  "lat": 56.4378089,
  "lon": 10.3446436
},
{
  "type": "node",
  "id": 3316141607,
  "lat": 56.4378114,
  "lon": 10.3445936
},
{
  "type": "node",
  "id": 3316141608,
  "lat": 56.4378169,
  "lon": 10.3445796
},
{
  "type": "node",
  "id": 3316141609,
  "lat": 56.4378249,
  "lon": 10.3446641
},
{
  "type": "node",
  "id": 3316141610,
  "lat": 56.4378362,
  "lon": 10.3445736
},
{
  "type": "node",
  "id": 3316141611,
  "lat": 56.4378443,
  "lon": 10.3446581
},
{
  "type": "node",
  "id": 3316141613,
  "lat": 56.4378523,
  "lon": 10.3445941
},
{
  "type": "node",
  "id": 3316141614,
  "lat": 56.4378556,
  "lon": 10.3446291
},
{
  "type": "node",
  "id": 3316141617,
  "lat": 56.4379089,
  "lon": 10.3443155
},
{
  "type": "node",
  "id": 3316141618,
  "lat": 56.4379115,
  "lon": 10.3442925
},
{
  "type": "node",
  "id": 3316141622,
  "lat": 56.4379859,
  "lon": 10.3445442
},
{
  "type": "node",
  "id": 3316141623,
  "lat": 56.4379872,
  "lon": 10.3445292
},
{
  "type": "node",
  "id": 3316141624,
  "lat": 56.4379875,
  "lon": 10.3443448
},
{
  "type": "node",
  "id": 3316141625,
  "lat": 56.4379901,
  "lon": 10.3443218
},
{
  "type": "node",
  "id": 3316141626,
  "lat": 56.4379975,
  "lon": 10.3445730
},
{
  "type": "node",
  "id": 3316141627,
  "lat": 56.4379977,
  "lon": 10.3445730
},
{
  "type": "node",
  "id": 3316141632,
  "lat": 56.4380895,
  "lon": 10.3443736
},
{
  "type": "node",
  "id": 3316141633,
  "lat": 56.4380924,
  "lon": 10.3443839
},
{
  "type": "node",
  "id": 3316141634,
  "lat": 56.4380985,
  "lon": 10.3443235
},
{
  "type": "node",
  "id": 3316141635,
  "lat": 56.4381036,
  "lon": 10.3444211
},
{
  "type": "node",
  "id": 3316141636,
  "lat": 56.4381245,
  "lon": 10.3442997
},
{
  "type": "node",
  "id": 3316141638,
  "lat": 56.4381303,
  "lon": 10.3444369
},
{
  "type": "node",
  "id": 3316141639,
  "lat": 56.4381521,
  "lon": 10.3443161
},
{
  "type": "node",
  "id": 3316141640,
  "lat": 56.4381563,
  "lon": 10.3444131
},
{
  "type": "node",
  "id": 3316141641,
  "lat": 56.4381653,
  "lon": 10.3443630
},
{
  "type": "node",
  "id": 1123345610,
  "lat": 56.2995941,
  "lon": 10.4987419
},
{
  "type": "node",
  "id": 1123345703,
  "lat": 56.2997200,
  "lon": 10.4987771
},
{
  "type": "node",
  "id": 1123345719,
  "lat": 56.2996592,
  "lon": 10.4994841
},
{
  "type": "node",
  "id": 1123345798,
  "lat": 56.2995333,
  "lon": 10.4994489
},
{
  "type": "node",
  "id": 1066250464,
  "lat": 56.3800546,
  "lon": 10.4946550
},
{
  "type": "node",
  "id": 1066250467,
  "lat": 56.3800128,
  "lon": 10.4965962
},
{
  "type": "node",
  "id": 1985679995,
  "lat": 56.3805376,
  "lon": 10.4951110
},
{
  "type": "node",
  "id": 6635692972,
  "lat": 56.3804448,
  "lon": 10.4940251
},
{
  "type": "node",
  "id": 6635692973,
  "lat": 56.3803118,
  "lon": 10.4968505
},
{
  "type": "node",
  "id": 6635692974,
  "lat": 56.3806415,
  "lon": 10.4943359
}

  ]
}
