{
  "version": 0.6,
  "generator": "Overpass API 0.7.55.1011 6c2efc30",
  "osm3s": {
    "timestamp_osm_base": "2020-02-14T15:13:02Z",
    "copyright": "The data included in this document is from www.openstreetmap.org. The data is made available under ODbL."
  },
  "elements": [

{
  "type": "node",
  "id": 503966588,
  "lat": 44.4823282,
  "lon": 7.9116848,
  "tags": {
    "addr:housenumber": "7",
    "addr:street": "Piazza Vittorio Emanuele II",
    "name": "Museo etnico di Clavesana",
    "tourism": "museum",
    "website": "http://www.clavesana.info/museo.aspx"
  }
},
{
  "type": "node",
  "id": 1750908916,
  "lat": 44.6107323,
  "lon": 7.9439051,
  "tags": {
    "addr:city": "Barolo",
    "addr:housenumber": "4",
    "addr:postcode": "12060",
    "addr:street": "Piazza Castello",
    "email": "info@museodeicavatappi.it",
    "name": "Museo dei Cavatappi",
    "name:de": "Korkenziehermuseum",
    "name:en": "Museum Corkscrews",
    "name:fr": "Musée du Tire-Bouchon",
    "opening_hours": "Mo-Su,PH 10:00-13:00, 14:00-18:30; Th off",
    "phone": "+39 0173 560539",
    "tourism": "museum",
    "website": "http://www.museodeicavatappi.it"
  }
},
{
  "type": "node",
  "id": 1750918635,
  "lat": 44.6110715,
  "lon": 7.9441688,
  "tags": {
    "addr:city": "Barolo",
    "addr:housenumber": "1",
    "addr:postcode": "12060",
    "addr:street": "Piazza Falletti",
    "description": "Il museo propone un viaggio emozionale tra la produzione, la cultura e la tradizione del vino, attraverso un percorso di evocazioni e suggestioni che partono dal ruolo che il vino riveste nella cultura umana.",
    "email": "info@wimubarolo.it",
    "name": "WIMU Museo del Vino",
    "opening_hours": "Mo-Su 10:30-19:00",
    "phone": "+39 0173 386697",
    "tourism": "museum",
    "website": "http://www.wimubarolo.it/it/"
  }
},
{
  "type": "node",
  "id": 2276771357,
  "lat": 44.5300189,
  "lon": 7.9446704,
  "tags": {
    "name": "Museo Professor Gabetti",
    "tourism": "museum"
  }
},
{
  "type": "node",
  "id": 3290056358,
  "lat": 44.9085635,
  "lon": 7.6763590,
  "tags": {
    "addr:city": "Carignano",
    "addr:housenumber": "13",
    "addr:street": "Via Frichieri",
    "name": "Museo civico",
    "tourism": "museum"
  }
},
{
  "type": "node",
  "id": 3431214642,
  "lat": 44.6307652,
  "lon": 8.0588723,
  "tags": {
    "name": "Museo d'arte moderna religiosa \"Dedalo Montali\"",
    "tourism": "museum"
  }
},
{
  "type": "node",
  "id": 4029540930,
  "lat": 44.7680176,
  "lon": 7.6786407,
  "tags": {
    "addr:street": "Piazza Giovanni Andrea Burzio",
    "name": "Racconigi città di seta",
    "tourism": "museum",
    "website": "http://racconigicittadiseta.it/wp/il-museo"
  }
},
{
  "type": "node",
  "id": 4029548526,
  "lat": 44.8421724,
  "lon": 7.7008076,
  "tags": {
    "addr:city": "Carmagnola",
    "addr:housenumber": "20",
    "addr:postcode": "10022",
    "addr:street": "Via Crissolo",
    "email": "musei@comune.carmagnola.to.it",
    "name": "Museo della cultura e della lavorazione della Canapa",
    "opening_hours": "Apr-Oct: Sa-Su 15:00-18:00; Su [2] 10:00-12:00, 15:00-18:00; Jul-Aug off",
    "phone": "+39 011 9721491",
    "tourism": "museum",
    "website": "https://www.comune.carmagnola.to.it/it-it/vivere-il-comune/cosa-vedere/ecomuseo-della-cultura-della-lavorazione-della-canapa-18181-1-204015c4e0afdc06123f26648ee76f5a"
  }
},
{
  "type": "node",
  "id": 4029549590,
  "lat": 44.8460820,
  "lon": 7.7086725,
  "tags": {
    "addr:city": "Carmagnola",
    "addr:housenumber": "188",
    "addr:postcode": "10022",
    "addr:street": "Via San Francesco di Sales",
    "email": "museo.carmagnola@gmail.com",
    "name": "Museo civico di storia naturale",
    "opening_hours": "Tu-We 09:00-12:30; Th 09:00-12:30; 15:00-18:00; Sa-Su 15:00-18:00; Mo-Fr off; Aug off",
    "phone": "+39 011 0240083",
    "tourism": "museum",
    "website": "https://www.comune.carmagnola.to.it/Musei",
    "wheelchair": "limited"
  }
},
{
  "type": "node",
  "id": 4029705026,
  "lat": 44.8471152,
  "lon": 7.7202863,
  "tags": {
    "addr:city": "Carmagnola",
    "addr:housenumber": "1",
    "addr:postcode": "10022",
    "addr:street": "Piazza Mazzini",
    "email": "musei@comune.carmagnola.to.it",
    "name": "Museo civico navale",
    "opening_hours": "Apr-Oct: Sa-Su 15:00-18:00; Su[2] 10:00-12:00, 15:00-18:00; Jul-Aug off",
    "phone": "+39 011 9721492",
    "tourism": "museum",
    "website": "http://www.comune.carmagnola.to.it/ComSchedaTem.asp?Id=21492",
    "wikidata": "Q55371838"
  }
},
{
  "type": "node",
  "id": 4082622931,
  "lat": 44.6986131,
  "lon": 8.0356720,
  "tags": {
    "addr:city": "Alba",
    "addr:housenumber": "19",
    "addr:postcode": "12051",
    "addr:street": "Via Vittorio Emanuele II",
    "email": "museo@comune.alba.cn.it",
    "name": "Museo Archeologico e Scienze Naturali Federico Eusebio",
    "opening_hours": "Tu-Fr 15:00-18:00; Sa,Su,PH 10:00-13:00; 15:00-19:00",
    "phone": "+39 0173 292473",
    "tourism": "museum",
    "website": "http://www.comune.alba.cn.it/uffici-e-serviziorari/culturali/museo"
  }
},
{
  "type": "node",
  "id": 4343768050,
  "lat": 44.6984638,
  "lon": 7.8552369,
  "tags": {
    "addr:city": "Bra",
    "addr:housenumber": "4",
    "addr:postcode": "12042",
    "addr:street": "Via Parpera",
    "email": "traversa@comune.bra.cn.it",
    "name": "Museo Archeologico Palazzo Traversa",
    "opening_hours": "Feb-Nov: Tu,Th 15:00-18:00; Su 15:00-18:00; Jan, Dec: Tu-Th 15:00-18:00; PH off; Easter+1, Apr 25, May 1, Aug 15 open",
    "phone": "+39 0172 423880",
    "tourism": "museum",
    "website": "http://www.turismoinbra.it/musei-bra/museo-civico-di-archeologia-storia-arte%E2%80%A8-palazzo-traversa/"
  }
},
{
  "type": "node",
  "id": 4343768053,
  "lat": 44.6954994,
  "lon": 7.8465980,
  "tags": {
    "addr:city": "Bra",
    "addr:housenumber": "45",
    "addr:postcode": "12042",
    "addr:street": "Via E. Guala",
    "description": "La visita al museo è guidata. Da lunedì a venerdì solo su prenotazione. Sabato chiuso. Cellulare: 3248714679 (solo sabato, domenica e festivi)",
    "email": "biblioteca@comune.bra.cn.it",
    "name": "Museo del Giocattolo",
    "opening_hours": "Su 10:00-12:30; 15:00-18:30; Mo-Fr \"by appointment\"",
    "phone": "+39 0172 413049",
    "tourism": "museum",
    "website": "http://www.museodelgiocattolobra.it"
  }
},
{
  "type": "node",
  "id": 4473067105,
  "lat": 44.9698421,
  "lon": 7.7655990,
  "tags": {
    "name": "Museo Pininfarina",
    "operator": "Pininfarina S.p.A.",
    "tourism": "museum"
  }
},
{
  "type": "node",
  "id": 4774312039,
  "lat": 44.8269018,
  "lon": 8.0049169,
  "tags": {
    "addr:city": "Cisterna d'Asti",
    "addr:housenumber": "1",
    "addr:postcode": "14010",
    "addr:street": "Piazza Hope",
    "email": "info@museoartiemestieri.it",
    "name": "Museo Arti e Mestieri di un Tempo",
    "opening_hours": "Tu-Su 15:00-19:00",
    "phone": "+39 0141 979021",
    "tourism": "museum",
    "website": "https://museoartiemestieri.wordpress.com",
    "wheelchair": "no"
  }
},
{
  "type": "node",
  "id": 5041074035,
  "lat": 44.6444078,
  "lon": 7.6561585,
  "tags": {
    "addr:city": "Savigliano",
    "addr:housenumber": "53",
    "addr:postcode": "12083",
    "addr:street": "Via Sant'Andrea",
    "description": "Il MÚSES è un polo museale tecno-sensoriale che parte dalla riscoperta della tradizione delle erbe aromatiche in Piemonte, per offrire un viaggio attraverso i saperi dell’arte profumiera, le essenze e i sapori dei territori. ",
    "email": "info@musesaccademia.it",
    "name": "Accademia Europea delle Essenze",
    "opening_hours": "We-Su 10:00-13:00, 14:00-18:00; Jan 1, Dec 25 off",
    "phone": "+39 0172 375025",
    "tourism": "museum",
    "website": "http://www.musesaccademia.it/it/"
  }
},
{
  "type": "node",
  "id": 5484383490,
  "lat": 44.9428779,
  "lon": 7.9382236,
  "tags": {
    "addr:city": "Villanova d'Asti",
    "addr:housenumber": "8",
    "addr:postcode": "14019",
    "addr:street": "piazza Supponito",
    "description": "Museo diffuso del Lavoro e del Territorio",
    "email": "palazzorichettacoala@gmail.com",
    "name": "Museo dell'Industria e della Tradizione",
    "tourism": "museum"
  }
},
{
  "type": "node",
  "id": 5711618161,
  "lat": 44.6962192,
  "lon": 7.9336535,
  "tags": {
    "addr:city": "Santa Vittoria d'Alba",
    "addr:housenumber": "5",
    "addr:postcode": "12069",
    "addr:street": "Via Castello",
    "name": "Gipsoteca Gioacchino Chiesa",
    "tourism": "museum"
  }
},
{
  "type": "node",
  "id": 5763284235,
  "lat": 44.3864061,
  "lon": 7.8315998,
  "tags": {
    "addr:city": "Mondovì",
    "addr:housenumber": "3",
    "addr:postcode": "12084",
    "addr:street": "Via della Misericordia",
    "email": "turistico@comune.mondovi.cn.it",
    "name": "Museo della Stampa",
    "opening_hours": "Apr, May, Jun, Oct, Nov 1: Fr,Sa,Su,PH 15:00-18:00; Jul, Aug, Sep r,Sa,Su,PH 16:00-19:00",
    "phone": "+39 0174 47428",
    "tourism": "museum",
    "website": "http://www.comune.mondovi.cn.it/vivere-la-citta/turismo/conoscere-mondovi/piazza/museo-civico-della-stampa/"
  }
},
{
  "type": "node",
  "id": 5948100224,
  "lat": 44.6528503,
  "lon": 7.8569135,
  "tags": {
    "addr:city": "Cherasco",
    "addr:housenumber": "40",
    "addr:postcode": "12062",
    "addr:street": "Via dell'Ospedale",
    "description": "Sono oltre 10 mila i reperti conservati in questo museo: monete antiche, medaglie, gettoni e altri oggetti storici. A farla da padrone è la preziosa raccolta numismatica, citata come  una  delle  più  importanti d’Europa.",
    "email": "turistico@comune.cherasco.cn.it",
    "name": "Museo Civico G.B. Adriani",
    "opening_hours": "Mar-Dec Su, PH 9:30-12:30, 15:00-18:30; ",
    "payment:free": "yes",
    "phone": "+39 0172 427050",
    "tourism": "museum",
    "website": "https://www.castelliaperti.it/it/strutture/lista/item/palazzo-gotti-di-salerano-museo-civico-g-b-adriani-di-cherasco.html"
  }
},
{
  "type": "node",
  "id": 6216455863,
  "lat": 44.9862271,
  "lon": 7.8692204,
  "tags": {
    "addr:city": "Riva Presso Chieri",
    "addr:housenumber": "4",
    "addr:postcode": "10020",
    "addr:street": "Piazza della Parrocchia",
    "email": "info@museopaesaggiosonoro.it",
    "name": "Museo del Paesaggio Sonoro",
    "opening_hours": "Mar-Oct: Su 15:00-19:00",
    "phone": "+39 011 5211788",
    "tourism": "museum",
    "website": "http://www.museopaesaggiosonoro.org/"
  }
},
{
  "type": "node",
  "id": 6418784183,
  "lat": 44.8456460,
  "lon": 7.7190060,
  "tags": {
    "addr:city": "Carmagnola",
    "addr:housenumber": "17",
    "addr:postcode": "10022",
    "addr:street": "Piazza Sant'Agostino",
    "description": "La sede della galleria è ubicata a palazzo Lomellini. Gli orari di apertura variano a seconda delle mostre ospitate: è consigliato rivolgersi direttamente all'ente.",
    "email": "musei@comune.carmagnola.to.it",
    "name": "Galleria Civica Arte Contemporanea",
    "phone": "+39 011 9724238",
    "tourism": "museum",
    "website": "https://www.comune.carmagnola.to.it/it-it/vivere-il-comune/cosa-vedere/galleria-civica-d-arte-contemporanea-palazzo-lomellini-2565-1-8d834ad4274f1241024c7362c607d8a9"
  }
},
{
  "type": "node",
  "id": 6419165172,
  "lat": 44.6432846,
  "lon": 7.4882425,
  "tags": {
    "addr:city": "Saluzzo",
    "addr:housenumber": "26",
    "addr:postcode": "12037",
    "addr:street": "Salita al Castello",
    "email": "iat@comune.saluzzo.cn.it",
    "name": "Pinacoteca Olivero",
    "opening_hours": "Mar 1-Oct 31: Sa 10:00-13:00, 14:00-18:00; Su,PH 10:00-13:00, 14:00-19:00; Nov 1-Jan 6: Su,PH 10:00-13:00; 14:00-18:00; Jan 1, Jan 7-Feb 28, Dec 25 off",
    "phone": "+39 0175 218047",
    "tourism": "museum",
    "website": "http://www.saluzzoturistica.it/monumenti_scheda.php?id=599"
  }
},
{
  "type": "node",
  "id": 6427206452,
  "lat": 44.9656012,
  "lon": 7.8409471,
  "tags": {
    "addr:city": "Pessione",
    "addr:housenumber": "2",
    "addr:postcode": "10023",
    "addr:street": "Piazza Luigi Rossi",
    "description": "Il suo straordinario patrimonio è formato da oltre 600 pezzi, che dall’antico mondo greco-latino arrivano sino alla metà del secolo scorso: oltre 2000 anni di storia del vino, con testimonianze di bellezza e valore assoluti.",
    "email": "casamartini@bacardi.com",
    "name": "Museo Martini",
    "opening_hours": "Mo-Fr 09:00-18:00; Sa-Su 10:00-18:00; Jan 1, Aug week 32-34, Dec 25-26 off",
    "phone": "+39 011 94191",
    "tourism": "museum",
    "website": "www.visitcasamartini.com"
  }
},
{
  "type": "node",
  "id": 6427216533,
  "lat": 44.9492094,
  "lon": 7.7737349,
  "tags": {
    "addr:city": "Santena",
    "addr:housenumber": "2",
    "addr:postcode": "10026",
    "addr:street": "Piazza Visconti Venosta",
    "email": "info@fondazionecavour.it",
    "name": "Fondazione Cavour",
    "opening_hours": "Su 10:30-11:30,15:00-17:00",
    "phone": "+39 011 597373",
    "tourism": "museum",
    "website": "http://www.fondazionecavour.it"
  }
},
{
  "type": "node",
  "id": 6431378921,
  "lat": 44.7209382,
  "lon": 7.4374904,
  "tags": {
    "addr:city": "Revello",
    "addr:housenumber": "2",
    "addr:postcode": "12036",
    "addr:street": "Piazza Roma",
    "description": "Gli orari si riferisco all'ultimo ingresso disponibile; consultare il sito per eventuali aperture straordinarie.",
    "email": "staffarda@ordinemauriziano.it",
    "name": "Abbazia di Staffarda",
    "note": "E' stata eliminato il tag attrazione turistica per sostituirlo con quello di museo per consentire l'inserimento delle informazioni turistiche.",
    "opening_hours": "Oct 27-Feb 28: Tu-Su 09:00-12:00; 13:30-16:30; Mar 1-Mar 31: Tu-Sa 09:00-12:00; 13:30-16:30; Su 09:00-12:00; 13:30-17:30; 1 Apr-Oct 26: Tu-Su 09:00-12:00; 13:30-16:30; Mo off",
    "phone": "+39 0175 273215",
    "tourism": "museum",
    "website": "http://www.ordinemauriziano.it/abbazia-di-smaria-staffarda"
  }
},
{
  "type": "node",
  "id": 6432595959,
  "lat": 44.9762001,
  "lon": 7.7869191,
  "tags": {
    "addr:city": "Cambiano",
    "addr:housenumber": "50",
    "addr:postcode": "10020",
    "addr:street": "Via Camporelle",
    "description": "Su prenotazione tutti i mesi dell’anno; in occasione di eventi comunicati nella sezione eventi del sito",
    "email": "info@munlabtorino.it",
    "name": "Munlab Ecomuseo dell'Argilla",
    "opening_hours": "May 3-Oct 27: Su 15:30-19:30; Aug off",
    "phone": "+39 011 9441439",
    "tourism": "museum",
    "website": "http://www.munlabtorino.it/#!/home"
  }
},
{
  "type": "node",
  "id": 6432876415,
  "lat": 44.8466394,
  "lon": 7.7205450,
  "tags": {
    "addr:city": "Carmagnola",
    "addr:housenumber": "12",
    "addr:postcode": "10022",
    "addr:street": "Via Santorre di Santarosa",
    "description": "Il museo conserva al suo interno incisioni, matrici tipografiche e calcografiche, libri e documenti antichi, collezioni di manifesti devozionali illustrati, torchi e materiali di provenienze diverse che testimoniano cinquecento anni di lavoro.",
    "email": "centrostudicarma@libero.it",
    "name": "Museo Tipografico Rondani",
    "opening_hours": "Apr-Oct: Sa-Su 15:00-18:00; Jul-Aug off",
    "phone": "+39 011 9715582",
    "tourism": "museum",
    "website": "https://museotipograficorondani.it"
  }
},
{
  "type": "node",
  "id": 6436846470,
  "lat": 44.6530851,
  "lon": 7.9948428,
  "tags": {
    "addr:city": "Grinzane Cavour",
    "addr:housenumber": "5",
    "addr:postcode": "12060",
    "addr:street": "Via Castello",
    "email": "Info@castellogrinzane.com",
    "name": "Museo delle Langhe",
    "opening_hours": "Apr-Oct: Mo-Su 10:00-19:00, Tu off; Nov-Mar: Mo-Su 10:00-18:00, Tu off; Dec 25, 26 off",
    "phone": "+39 0173 262159",
    "tourism": "museum",
    "website": "http://www.castellogrinzane.com/it/Museo"
  }
},
{
  "type": "node",
  "id": 6466726441,
  "lat": 44.7666467,
  "lon": 8.0680343,
  "tags": {
    "addr:city": "Magliano Alfieri",
    "addr:housenumber": "4",
    "addr:street": "Via Alfieri",
    "email": "info@amicicastelloalfieri.org",
    "name": "Museo di Arti e Tradizioni Popolari e Museo Il Teatro del Paesaggio",
    "opening_hours": "Apr-Oct: Sa,Su 10:30-18:30; Easter+1, Apr 25, May 1, Aug 15 open",
    "phone": "+39 0173 66117",
    "tourism": "museum",
    "website": "www.amicicastelloalfieri.org"
  }
},
{
  "type": "node",
  "id": 6466758695,
  "lat": 44.4233987,
  "lon": 7.7600781,
  "tags": {
    "addr:city": "Rocca de' Baldi",
    "addr:postcode": "12047",
    "addr:street": "Piazza Papa Pio Settimo",
    "email": "info@museodoro.it",
    "name": "Museo Etnografico Provinciale Augusto Doro",
    "opening_hours": "Apr 25-Oct 31: Su,PH 14:30-18:30",
    "phone:mobile": "+39 351 9568945",
    "tourism": "museum",
    "website": "https://www.museodoro.org"
  }
},
{
  "type": "node",
  "id": 6468354884,
  "lat": 44.6426563,
  "lon": 7.4870298,
  "tags": {
    "addr:city": "Saluzzo",
    "addr:postcode": "12037",
    "addr:street": "Piazza Castello",
    "email": "saluzzo@coopculture.it",
    "name": "Museo Civiltà Cavalleresca e Memoria Carceraria",
    "opening_hours": "Mar-Oct: Mo,Th,Fr,Sa 10:00-13:00, 14:00-18:00; Su,PH 10:00-13:00, 14:00-19:00; Nov-Jan 6: Su, PH 10:00-13:00, 14:00-18:00; Jan 1, Jan 7-Feb 28, Dec 25",
    "phone": "+39 0175 240006",
    "tourism": "museum",
    "website": "https://www.museodellamemoriacarceraria.it"
  }
},
{
  "type": "node",
  "id": 6468553088,
  "lat": 44.5489392,
  "lon": 7.7259113,
  "tags": {
    "addr:city": "Fossano",
    "addr:housenumber": "8",
    "addr:postcode": "12045",
    "addr:street": "Via Vescovado",
    "email": "gp.ravera@libero.it",
    "name": "Museo Diocesano di Fossano",
    "opening_hours": "Su,Ph 15:00-19:00",
    "phone": "+39 348 8575066",
    "tourism": "museum",
    "website": "http://www.diocesifossano.org/istituzioni/museo-diocesano/"
  }
},
{
  "type": "node",
  "id": 6468562560,
  "lat": 44.7008347,
  "lon": 8.0368809,
  "tags": {
    "addr:city": "Alba",
    "addr:postcode": "12051",
    "addr:street": "Piazza Pietro Rossetti",
    "description": "L'ingresso per il pubblico è su Piazza Rossetti dal campanile.",
    "email": "museo@alba.chiesacattolica.it",
    "name": "Museo Diocesano di Alba e Museo della Cattedrale",
    "opening_hours": "Tu-Fr 15:00-18:00; Sa,Su 14:30-18:30; Mo off",
    "phone": "+39 345 7642123",
    "tourism": "museum",
    "website": "http://www.mudialba.it"
  }
},
{
  "type": "node",
  "id": 6468581048,
  "lat": 44.3889398,
  "lon": 7.8300199,
  "tags": {
    "addr:city": "Mondovì",
    "addr:housenumber": "1",
    "addr:postcode": "12084",
    "addr:street": "Piazza Maggiore",
    "email": "info@museoceramicamondovi.it",
    "name": "Museo della Ceramica",
    "opening_hours": "Oct-Jun: Fr,Sa,PH 15:00-18:00; Su 10:00-18:00; Jul, Aug, Sep: Fr,Sa,PH 16:00-19:00; Su 10:00-19:00",
    "phone": "+39 0174 330358",
    "tourism": "museum",
    "website": "www.museoceramicamondovi.it"
  }
},
{
  "type": "node",
  "id": 6469927915,
  "lat": 44.6443428,
  "lon": 7.4864686,
  "tags": {
    "addr:city": "Saluzzo",
    "addr:housenumber": "5",
    "addr:postcode": "12037",
    "addr:street": "Via San Giovanni",
    "email": "biglietteria.cavassa@comune.saluzzo.cn.it",
    "name": "Museo Civico Casa Cavassa",
    "opening_hours": "Mar 1-Oct 31: Tu,Th,Fr,Sa 10:00-13:00, 14:00-18:00; Su, PH 10:00-13:00, 14:00-19:00 Nov 1-Jan 6: Su,PH 10:00-13:00; 14:00-18:00; Jan 1, Jan 7-Feb 28, Dec 25",
    "phone": "+39 342 3801561",
    "tourism": "museum",
    "website": "http://www.casacavassa.it"
  }
},
{
  "type": "node",
  "id": 6469959648,
  "lat": 44.6462743,
  "lon": 7.6609170,
  "tags": {
    "addr:city": "Savigliano",
    "addr:housenumber": "17",
    "addr:postcode": "12038",
    "addr:street": "Via San Francesco",
    "email": "museocivico.gipsoteca@comune.savigliano.cn.it",
    "name": "Museo civico Olmo e Gipsoteca Calandra",
    "opening_hours": "Sa 15:00-18:30; Su 10:00-13:00, 15:00-18:30; Aug off",
    "tourism": "museum",
    "website": "http://www.comune.savigliano.cn.it/servizi/menu/dinamica.aspx?idArea=16540&idCat=16662&ID=16662"
  }
},
{
  "type": "node",
  "id": 7064715020,
  "lat": 44.6906553,
  "lon": 7.8528228,
  "tags": {
    "name": "Museo Rolfo",
    "tourism": "museum"
  }
},
{
  "type": "way",
  "id": 79594695,
  "nodes": [
    928940411,
    1531876292,
    1531876293,
    1531876295,
    928940401,
    1531876298,
    1531876300,
    1531876302,
    1531876308,
    1531876310,
    1531876312,
    928940414,
    1531876318,
    1531876320,
    1531876316,
    1531876314,
    928940413,
    3859924218,
    3859924221,
    928940407,
    3859924086,
    3859924051,
    3859924053,
    928940420,
    928940427,
    3859924145,
    1531876291,
    928940411
  ],
  "tags": {
    "castle_type": "defensive",
    "email": "info@castellodiserralunga.it",
    "historic": "castle",
    "historic:civilization": "medieval",
    "name": "Castello di Serralunga d'Alba",
    "opening_hours": "Mar 16-Apr 30: Sa,Su 10:30-13:30; 14:30-18:30; May 1-Oct 31: Mo,Th,Fr 14:30-18:30; Sa,Su 10:30-13:30; 14:30-18:30; Nov 1-10; Mo,Th,Fr 14:30-17:30; Sa,Su 10:30-13:30; 14:30-17:30; Nov 11-30: Sa,Su 10:30-13:30; 14:30-17:30; Dec 1,7,8,28,29 10:30-13:30; 14:3",
    "phone": "+39 0173 613358",
    "tourism": "museum",
    "website": "http://www.castellodiserralunga.it/"
  }
},
{
  "type": "way",
  "id": 130386500,
  "nodes": [
    1436262664,
    2523504325,
    2523504329,
    2523504332,
    2523504334,
    2523504336,
    2523504338,
    2523504340,
    2523504342,
    3120460084,
    1436262711,
    1436262669,
    1436262664
  ],
  "tags": {
    "addr:city": "Savigliano",
    "addr:housenumber": "7",
    "addr:postcode": "12038",
    "addr:street": "Via Coloira",
    "email": "savigliano@museoferroviariopiemontese.it",
    "name": "Museo Ferroviario Piemontese",
    "opening_hours": "Mar [Su-1]-Oct [Sa-1]: Th 15:00-18:30; Sa, Su 10:00-12:30, 15:00-18:30; Mo,Tu,We,Fr off Oct [Su-1]-Mar [Sa-1]: Sa 10:00-12:30,14:30-17:30; Su 14:30-17:30; Mo-Fr off",
    "phone": "+39 0172 31192",
    "tourism": "museum",
    "website": "http://www.museoferroviariopiemontese.it",
    "wikidata": "Q3868375",
    "wikipedia": "it:Museo Ferroviario Piemontese"
  }
},
{
  "type": "way",
  "id": 309130578,
  "nodes": [
    2611840716,
    3628837235,
    3144488566,
    3144488567,
    3144488568,
    3144488569,
    3144488570,
    3144488571,
    3144488572,
    3144488573,
    3628837249,
    3144488574,
    2611840716
  ],
  "tags": {
    "building": "yes",
    "name": "Palazzo Lucerna di Rorà",
    "opening_hours": "Sabato 15-18 Domenica 10-12 15-18",
    "operator": "Città di Bene Vagienna",
    "tourism": "museum"
  }
},
{
  "type": "way",
  "id": 309134597,
  "nodes": [
    3144525334,
    3649527611,
    3629162687,
    3629166798,
    3629166795,
    3144525335,
    3629166800,
    3144525336,
    3161633008,
    3144525337,
    3144525334
  ],
  "tags": {
    "addr:city": "Bene Vagienna",
    "addr:housenumber": "43",
    "addr:postcode": "12041",
    "addr:street": "Via Vittorio Emanuele II",
    "email": "info@amicidibene.it",
    "name": "Casa Ravera",
    "opening_hours": "Sa 15:00-18:00; Su 10:00-12:00, 15:00-18:00; Mo off",
    "phone": "+39 0172 654969",
    "tourism": "museum",
    "website": "www.amicidibene.it"
  }
},
{
  "type": "way",
  "id": 368083379,
  "nodes": [
    3719445628,
    3719445586,
    3719445471,
    3719445512,
    3719445628
  ],
  "tags": {
    "addr:city": "Bra",
    "addr:housenumber": "15",
    "addr:postcode": "12042",
    "addr:street": "Via Federico Craveri",
    "building": "yes",
    "email": "craveri@comune.bra.cn.it",
    "name": "Museo Civico di Storia Naturale Craveri",
    "opening_hours": "Mo-Th 15:00-18:00; Fr-Sa off; Su 10:00-12:30,15:00-18:00",
    "phone": "+39 0172 412010",
    "tourism": "museum",
    "website": "http://www.museocraveri.it/"
  }
},
{
  "type": "way",
  "id": 368224506,
  "nodes": [
    3720790417,
    3720790415,
    3720790416,
    3720790418,
    3720790414,
    3720790413,
    3720790408,
    3720790407,
    3720790398,
    3720790402,
    3720790400,
    3720790396,
    3720790404,
    3720790406,
    3720790409,
    3720790410,
    3720790417
  ],
  "tags": {
    "addr:city": "Bra",
    "addr:housenumber": "1F",
    "addr:postcode": "12042",
    "addr:street": "Strada Fey",
    "building": "yes",
    "name": "La Zizzola - Casa di Braidesi",
    "opening_hours": "09:30-12:30,15:00-18:00",
    "operator": "Comune di Bra",
    "tourism": "museum"
  }
},
{
  "type": "node",
  "id": 1436262664,
  "lat": 44.6402817,
  "lon": 7.6625526
},
{
  "type": "node",
  "id": 1436262669,
  "lat": 44.6408173,
  "lon": 7.6648342
},
{
  "type": "node",
  "id": 1436262711,
  "lat": 44.6433693,
  "lon": 7.6633268
},
{
  "type": "node",
  "id": 2523504325,
  "lat": 44.6406515,
  "lon": 7.6627656
},
{
  "type": "node",
  "id": 2523504329,
  "lat": 44.6409942,
  "lon": 7.6629155
},
{
  "type": "node",
  "id": 2523504332,
  "lat": 44.6414352,
  "lon": 7.6630798
},
{
  "type": "node",
  "id": 2523504334,
  "lat": 44.6418222,
  "lon": 7.6631681
},
{
  "type": "node",
  "id": 2523504336,
  "lat": 44.6423552,
  "lon": 7.6632665
},
{
  "type": "node",
  "id": 2523504338,
  "lat": 44.6427386,
  "lon": 7.6632847
},
{
  "type": "node",
  "id": 2523504340,
  "lat": 44.6431984,
  "lon": 7.6632878
},
{
  "type": "node",
  "id": 2523504342,
  "lat": 44.6433423,
  "lon": 7.6632393
},
{
  "type": "node",
  "id": 3120460084,
  "lat": 44.6433587,
  "lon": 7.6632923
},
{
  "type": "node",
  "id": 2611840716,
  "lat": 44.5457245,
  "lon": 7.8342699
},
{
  "type": "node",
  "id": 3144488566,
  "lat": 44.5459672,
  "lon": 7.8339889
},
{
  "type": "node",
  "id": 3144488567,
  "lat": 44.5461029,
  "lon": 7.8341874
},
{
  "type": "node",
  "id": 3144488568,
  "lat": 44.5460341,
  "lon": 7.8342706
},
{
  "type": "node",
  "id": 3144488569,
  "lat": 44.5459557,
  "lon": 7.8341767
},
{
  "type": "node",
  "id": 3144488570,
  "lat": 44.5458888,
  "lon": 7.8342679
},
{
  "type": "node",
  "id": 3144488571,
  "lat": 44.5459538,
  "lon": 7.8343993
},
{
  "type": "node",
  "id": 3144488572,
  "lat": 44.5459156,
  "lon": 7.8344396
},
{
  "type": "node",
  "id": 3144488573,
  "lat": 44.5459615,
  "lon": 7.8345066
},
{
  "type": "node",
  "id": 3144488574,
  "lat": 44.5458760,
  "lon": 7.8345907
},
{
  "type": "node",
  "id": 3144525334,
  "lat": 44.5445641,
  "lon": 7.8334012
},
{
  "type": "node",
  "id": 3144525335,
  "lat": 44.5447718,
  "lon": 7.8332251
},
{
  "type": "node",
  "id": 3144525336,
  "lat": 44.5448718,
  "lon": 7.8334757
},
{
  "type": "node",
  "id": 3144525337,
  "lat": 44.5446537,
  "lon": 7.8336469
},
{
  "type": "node",
  "id": 3161633008,
  "lat": 44.5446718,
  "lon": 7.8336369
},
{
  "type": "node",
  "id": 3628837235,
  "lat": 44.5459564,
  "lon": 7.8339937
},
{
  "type": "node",
  "id": 3628837249,
  "lat": 44.5459009,
  "lon": 7.8345662
},
{
  "type": "node",
  "id": 3629162687,
  "lat": 44.5446422,
  "lon": 7.8333343
},
{
  "type": "node",
  "id": 3629166795,
  "lat": 44.5447654,
  "lon": 7.8332305
},
{
  "type": "node",
  "id": 3629166798,
  "lat": 44.5446695,
  "lon": 7.8333095
},
{
  "type": "node",
  "id": 3629166800,
  "lat": 44.5448533,
  "lon": 7.8334294
},
{
  "type": "node",
  "id": 3649527611,
  "lat": 44.5445967,
  "lon": 7.8333762
},
{
  "type": "node",
  "id": 3719445471,
  "lat": 44.7008275,
  "lon": 7.8517015
},
{
  "type": "node",
  "id": 3719445512,
  "lat": 44.7009011,
  "lon": 7.8516296
},
{
  "type": "node",
  "id": 3719445586,
  "lat": 44.7009722,
  "lon": 7.8519949
},
{
  "type": "node",
  "id": 3719445628,
  "lat": 44.7010458,
  "lon": 7.8519231
},
{
  "type": "node",
  "id": 3720790396,
  "lat": 44.7026518,
  "lon": 7.8554583
},
{
  "type": "node",
  "id": 3720790398,
  "lat": 44.7026608,
  "lon": 7.8555189
},
{
  "type": "node",
  "id": 3720790400,
  "lat": 44.7026640,
  "lon": 7.8554698
},
{
  "type": "node",
  "id": 3720790402,
  "lat": 44.7026676,
  "lon": 7.8555045
},
{
  "type": "node",
  "id": 3720790404,
  "lat": 44.7026990,
  "lon": 7.8553587
},
{
  "type": "node",
  "id": 3720790406,
  "lat": 44.7027078,
  "lon": 7.8553669
},
{
  "type": "node",
  "id": 3720790407,
  "lat": 44.7027275,
  "lon": 7.8555812
},
{
  "type": "node",
  "id": 3720790408,
  "lat": 44.7027343,
  "lon": 7.8555667
},
{
  "type": "node",
  "id": 3720790409,
  "lat": 44.7027390,
  "lon": 7.8553566
},
{
  "type": "node",
  "id": 3720790410,
  "lat": 44.7027448,
  "lon": 7.8553433
},
{
  "type": "node",
  "id": 3720790413,
  "lat": 44.7027667,
  "lon": 7.8555664
},
{
  "type": "node",
  "id": 3720790414,
  "lat": 44.7027710,
  "lon": 7.8555704
},
{
  "type": "node",
  "id": 3720790415,
  "lat": 44.7028090,
  "lon": 7.8554152
},
{
  "type": "node",
  "id": 3720790416,
  "lat": 44.7028118,
  "lon": 7.8554599
},
{
  "type": "node",
  "id": 3720790417,
  "lat": 44.7028142,
  "lon": 7.8554033
},
{
  "type": "node",
  "id": 3720790418,
  "lat": 44.7028194,
  "lon": 7.8554670
},
{
  "type": "node",
  "id": 928940401,
  "lat": 44.6108277,
  "lon": 8.0001938
},
{
  "type": "node",
  "id": 928940407,
  "lat": 44.6106178,
  "lon": 8.0004311
},
{
  "type": "node",
  "id": 928940411,
  "lat": 44.6108230,
  "lon": 8.0002297
},
{
  "type": "node",
  "id": 928940413,
  "lat": 44.6109002,
  "lon": 8.0003291
},
{
  "type": "node",
  "id": 928940414,
  "lat": 44.6108694,
  "lon": 8.0001991
},
{
  "type": "node",
  "id": 928940420,
  "lat": 44.6106583,
  "lon": 8.0001914
},
{
  "type": "node",
  "id": 928940427,
  "lat": 44.6106590,
  "lon": 8.0003210
},
{
  "type": "node",
  "id": 1531876291,
  "lat": 44.6107099,
  "lon": 8.0002544
},
{
  "type": "node",
  "id": 1531876292,
  "lat": 44.6108216,
  "lon": 8.0002209
},
{
  "type": "node",
  "id": 1531876293,
  "lat": 44.6108219,
  "lon": 8.0002107
},
{
  "type": "node",
  "id": 1531876295,
  "lat": 44.6108240,
  "lon": 8.0002018
},
{
  "type": "node",
  "id": 1531876298,
  "lat": 44.6108329,
  "lon": 8.0001874
},
{
  "type": "node",
  "id": 1531876300,
  "lat": 44.6108386,
  "lon": 8.0001833
},
{
  "type": "node",
  "id": 1531876302,
  "lat": 44.6108429,
  "lon": 8.0001818
},
{
  "type": "node",
  "id": 1531876308,
  "lat": 44.6108487,
  "lon": 8.0001813
},
{
  "type": "node",
  "id": 1531876310,
  "lat": 44.6108585,
  "lon": 8.0001849
},
{
  "type": "node",
  "id": 1531876312,
  "lat": 44.6108654,
  "lon": 8.0001918
},
{
  "type": "node",
  "id": 1531876314,
  "lat": 44.6108676,
  "lon": 8.0002394
},
{
  "type": "node",
  "id": 1531876316,
  "lat": 44.6108710,
  "lon": 8.0002313
},
{
  "type": "node",
  "id": 1531876318,
  "lat": 44.6108724,
  "lon": 8.0002103
},
{
  "type": "node",
  "id": 1531876320,
  "lat": 44.6108728,
  "lon": 8.0002210
},
{
  "type": "node",
  "id": 3859924051,
  "lat": 44.6105559,
  "lon": 8.0003357
},
{
  "type": "node",
  "id": 3859924053,
  "lat": 44.6105592,
  "lon": 8.0001625
},
{
  "type": "node",
  "id": 3859924086,
  "lat": 44.6106075,
  "lon": 8.0003583
},
{
  "type": "node",
  "id": 3859924145,
  "lat": 44.6106969,
  "lon": 8.0003142
},
{
  "type": "node",
  "id": 3859924218,
  "lat": 44.6108245,
  "lon": 8.0003681
},
{
  "type": "node",
  "id": 3859924221,
  "lat": 44.6108279,
  "lon": 8.0003985
}

  ]
}
